<?xml version="1.0" encoding="UTF-8"?>
<osm generator="osmapis" version="0.6">
	<node id="-38910" lat="60.229522221" lon="11.5961277807">
		<tag k="name" v="Steinsrud" />
		<tag k="place" v="farm" />
		<tag k="ssr:stedsnr" v="187966" />
	</node>
	<node id="-38909" lat="60.244700004" lon="11.7897083356">
		<tag k="name" v="Kaldbakk" />
		<tag k="place" v="farm" />
		<tag k="ssr:stedsnr" v="187927" />
	</node>
	<node id="-38908" lat="60.1843083313" lon="11.8285805551">
		<tag k="name" v="Molykkja" />
		<tag k="place" v="farm" />
		<tag k="ssr:stedsnr" v="187796" />
	</node>
	<node id="-38907" lat="60.2075722227" lon="11.6734583291">
		<tag k="name" v="Jansberg" />
		<tag k="old_name" v="Jansholen;Janseholen" />
		<tag k="place" v="farm" />
		<tag k="ssr:stedsnr" v="187770" />
	</node>
	<node id="-38906" lat="60.2140888903" lon="11.6271944487">
		<tag k="name" v="Brutangen" />
		<tag k="place" v="farm" />
		<tag k="ssr:stedsnr" v="187735" />
	</node>
	<node id="-38904" lat="60.1472472213" lon="11.657924991">
		<tag k="name" v="Sæterholen" />
		<tag k="place" v="farm" />
		<tag k="ssr:stedsnr" v="187611" />
	</node>
	<node id="-38903" lat="60.1520777764" lon="11.829280556">
		<tag k="name" v="Høljørvangen" />
		<tag k="place" v="isolated_dwelling" />
		<tag k="ssr:stedsnr" v="187609" />
	</node>
	<node id="-38902" lat="60.1495055574" lon="11.6774583414">
		<tag k="name" v="Nessaga" />
		<tag k="place" v="farm" />
		<tag k="ssr:stedsnr" v="187598" />
	</node>
	<node id="-38900" lat="60.1976805524" lon="11.8645805527">
		<tag k="alt_name" v="Sagmoen" />
		<tag k="name" v="Sagmo" />
		<tag k="place" v="farm" />
		<tag k="ssr:stedsnr" v="187118" />
	</node>
	<node id="-38899" lat="60.2462055559" lon="11.8801361128">
		<tag k="name" v="Jonsrud" />
		<tag k="place" v="farm" />
		<tag k="ssr:stedsnr" v="187023" />
	</node>
	<node id="-38894" lat="60.232344445" lon="11.7794555544">
		<tag k="name" v="Løkken" />
		<tag k="place" v="isolated_dwelling" />
		<tag k="ssr:stedsnr" v="180446" />
	</node>
	<node id="-38893" lat="60.2261916695" lon="11.7696916625">
		<tag k="name" v="Linnes" />
		<tag k="place" v="farm" />
		<tag k="ssr:stedsnr" v="180445" />
	</node>
	<node id="-38890" lat="60.2427416695" lon="11.896572225">
		<tag k="name" v="Svarttjennet" />
		<tag k="place" v="farm" />
		<tag k="ssr:stedsnr" v="180141" />
	</node>
	<node id="-38882" lat="60.2847222244" lon="11.6818611073">
		<tag k="name" v="Nerli" />
		<tag k="place" v="locality" />
		<tag k="ssr:stedsnr" v="178776" />
	</node>
	<node id="-38881" lat="60.2915638931" lon="11.7663222171">
		<tag k="name" v="Utgarden" />
		<tag k="place" v="locality" />
		<tag k="ssr:stedsnr" v="178491" />
	</node>
	<node id="-38871" lat="60.1794833294" lon="11.6472166707">
		<tag k="name" v="Haraldsmyra" />
		<tag k="place" v="farm" />
		<tag k="ssr:stedsnr" v="176201" />
	</node>
	<node id="-38870" lat="60.2127666682" lon="11.8896027749">
		<tag k="name" v="Fulubråten" />
		<tag k="place" v="isolated_dwelling" />
		<tag k="ssr:stedsnr" v="176190" />
	</node>
	<node id="-38869" lat="60.2124555527" lon="11.6245333414">
		<tag k="name" v="Bruneset" />
		<tag k="place" v="farm" />
		<tag k="ssr:stedsnr" v="176087" />
	</node>
	<node id="-38868" lat="60.2149083294" lon="11.6395694523">
		<tag k="name" v="Lille Ullern" />
		<tag k="place" v="farm" />
		<tag k="ssr:stedsnr" v="164401" />
	</node>
	<node id="-38867" lat="60.2441944476" lon="11.7596500082">
		<tag k="name" v="Strøm prestegård" />
		<tag k="place" v="farm" />
		<tag k="ssr:stedsnr" v="163194" />
	</node>
	<node id="-38866" lat="60.2609083304" lon="11.7102111186">
		<tag k="name" v="Ellingsrud" />
		<tag k="place" v="farm" />
		<tag k="ssr:stedsnr" v="162797" />
	</node>
	<node id="-38863" lat="60.2050194422" lon="11.8607416577">
		<tag k="name" v="Furuset" />
		<tag k="place" v="farm" />
		<tag k="ssr:stedsnr" v="162699" />
	</node>
	<node id="-38862" lat="60.3191305582" lon="11.6512166748">
		<tag k="name" v="Hagaløkken" />
		<tag k="place" v="isolated_dwelling" />
		<tag k="ssr:stedsnr" v="161974" />
	</node>
	<node id="-38861" lat="60.3058472224" lon="11.6288611095">
		<tag k="name" v="Gaustad" />
		<tag k="place" v="isolated_dwelling" />
		<tag k="ssr:stedsnr" v="161826" />
	</node>
	<node id="-38860" lat="60.3246416669" lon="11.6316083316">
		<tag k="name" v="Søndre Brynjulvsrud" />
		<tag k="place" v="farm" />
		<tag k="ssr:stedsnr" v="161820" />
	</node>
	<node id="-38857" lat="60.3250916655" lon="11.6430416587">
		<tag k="name" v="Tjagholen" />
		<tag k="place" v="farm" />
		<tag k="ssr:stedsnr" v="161722" />
	</node>
	<node id="-38855" lat="60.3044690826" lon="11.6653914051">
		<tag k="name" v="Årstad" />
		<tag k="old_name" v="Aarstad" />
		<tag k="place" v="farm" />
		<tag k="ssr:stedsnr" v="161695" />
	</node>
	<node id="-38854" lat="60.23803056" lon="11.8538000006">
		<tag k="name" v="Kjensli" />
		<tag k="place" v="farm" />
		<tag k="ssr:stedsnr" v="161391" />
	</node>
	<node id="-38847" lat="60.2398862773" lon="11.7170258693">
		<tag k="alt_name" v="Øktner" />
		<tag k="fixme" v="consider place=hamlet" />
		<tag k="loc_name" v="Auktner" />
		<tag k="name" v="Aukner" />
		<tag k="place" v="farm" />
		<tag k="ssr:stedsnr" v="127995" />
	</node>
	<node id="-38846" lat="60.3223805561" lon="11.7534583414">
		<tag k="alt_name" v="Gammelvangen" />
		<tag k="name" v="Vangen" />
		<tag k="place" v="farm" />
		<tag k="ssr:stedsnr" v="127983" />
	</node>
	<node id="-38844" lat="60.2920833304" lon="11.6310111178">
		<tag k="name" v="Sanderud" />
		<tag k="place" v="farm" />
		<tag k="ssr:stedsnr" v="127953" />
	</node>
	<node id="-38842" lat="60.223866671" lon="11.685602785">
		<tag k="name" v="Dalsrud" />
		<tag k="place" v="farm" />
		<tag k="ssr:stedsnr" v="127799" />
	</node>
	<node id="-38841" lat="60.2234277741" lon="11.6126805546">
		<tag k="name" v="Blekkmyrholen" />
		<tag k="place" v="isolated_dwelling" />
		<tag k="ssr:stedsnr" v="127795" />
	</node>
	<node id="-38840" lat="60.1825944474" lon="11.6655805512">
		<tag k="name" v="Verket" />
		<tag k="place" v="farm" />
		<tag k="ssr:stedsnr" v="127888" />
	</node>
	<node id="-38839" lat="60.1713861088" lon="11.7407333252">
		<tag k="historic" v="shieling" />
		<tag k="name" v="Disisætra" />
		<tag k="place" v="locality" />
		<tag k="ssr:stedsnr" v="127866" />
	</node>
	<node id="-38837" lat="60.2730444458" lon="11.7064388876">
		<tag k="name" v="Karihaugen" />
		<tag k="place" v="isolated_dwelling" />
		<tag k="ssr:stedsnr" v="127597" />
	</node>
	<node id="-38836" lat="60.260213889" lon="11.6951250001">
		<tag k="alt_name" v="Os, østre" />
		<tag k="name" v="Østre Os" />
		<tag k="place" v="farm" />
		<tag k="ssr:stedsnr" v="127575" />
	</node>
	<node id="-38835" lat="60.2633916631" lon="11.6303611164">
		<tag k="name" v="Vardelia" />
		<tag k="place" v="isolated_dwelling" />
		<tag k="ssr:stedsnr" v="127574" />
	</node>
	<node id="-38834" lat="60.2660992928" lon="11.6731070706">
		<tag k="fixme" v="consider place=hamlet" />
		<tag k="name" v="Hornes" />
		<tag k="place" v="farm" />
		<tag k="ssr:stedsnr" v="127561" />
	</node>
	<node id="-38833" lat="60.1703944421" lon="11.906169448">
		<tag k="name" v="Snapholt" />
		<tag k="place" v="farm" />
		<tag k="ssr:stedsnr" v="127645" />
	</node>
	<node id="-38832" lat="60.1693722266" lon="11.9110472179">
		<tag k="name" v="Nordli" />
		<tag k="place" v="farm" />
		<tag k="ssr:stedsnr" v="127643" />
	</node>
	<node id="-38830" lat="60.2398305544" lon="11.8907638821">
		<tag k="name" v="Melby" />
		<tag k="place" v="farm" />
		<tag k="ssr:stedsnr" v="127048" />
	</node>
	<node id="-38829" lat="60.2237833354" lon="11.8749805605">
		<tag k="name" v="Gjerdet" />
		<tag k="place" v="farm" />
		<tag k="ssr:stedsnr" v="127001" />
	</node>
	<node id="-38828" lat="60.2347722217" lon="11.8064833388">
		<tag k="name" v="Leikvangmoen" />
		<tag k="place" v="farm" />
		<tag k="ssr:stedsnr" v="126998" />
	</node>
	<node id="-38827" lat="60.2316500024" lon="11.6740999988">
		<tag k="name" v="Lukmoen" />
		<tag k="place" v="farm" />
		<tag k="ssr:stedsnr" v="126980" />
	</node>
	<node id="-38826" lat="60.2362333347" lon="11.6178583422">
		<tag k="name" v="Vestaberg" />
		<tag k="place" v="farm" />
		<tag k="ssr:stedsnr" v="126965" />
	</node>
	<node id="-38825" lat="60.1757777776" lon="11.5816222268">
		<tag k="name" v="Tjernsmo" />
		<tag k="place" v="farm" />
		<tag k="ssr:stedsnr" v="126868" />
	</node>
	<node id="-38824" lat="60.16814722" lon="11.8223555564">
		<tag k="name" v="Olsrudvangen" />
		<tag k="place" v="isolated_dwelling" />
		<tag k="ssr:stedsnr" v="126847" />
	</node>
	<node id="-38821" lat="60.2012027757" lon="11.8303333298">
		<tag k="alt_name" v="Mellem" />
		<tag k="name" v="Mellom" />
		<tag k="place" v="farm" />
		<tag k="ssr:stedsnr" v="126768" />
	</node>
	<node id="-38820" lat="60.2033999982" lon="11.6643305522">
		<tag k="name" v="Disihagan" />
		<tag k="place" v="farm" />
		<tag k="ssr:stedsnr" v="126765" />
	</node>
	<node id="-38817" lat="60.1000777773" lon="11.7442416743">
		<tag k="name" v="Flaen" />
		<tag k="place" v="farm" />
		<tag k="ssr:stedsnr" v="126688" />
	</node>
	<node id="-38815" lat="60.1563027821" lon="11.7844138952">
		<tag k="name" v="Strømsvangen" />
		<tag k="place" v="isolated_dwelling" />
		<tag k="ssr:stedsnr" v="126616" />
	</node>
	<node id="-38814" lat="60.2208333312" lon="11.8900138855">
		<tag k="name" v="Bekkerud" />
		<tag k="place" v="farm" />
		<tag k="ssr:stedsnr" v="126097" />
	</node>
	<node id="-38813" lat="60.2218756313" lon="11.8448799173">
		<tag k="name" v="Hernes" />
		<tag k="place" v="hamlet" />
		<tag k="ssr:stedsnr" v="126014" />
	</node>
	<node id="-38809" lat="60.2767055596" lon="11.8211555486">
		<tag k="name" v="Stenerud" />
		<tag k="place" v="locality" />
		<tag k="ssr:stedsnr" v="120390" />
	</node>
	<node id="-38806" lat="60.1067305515" lon="11.8081694485">
		<tag k="name" v="Gammelskolen" />
		<tag k="place" v="isolated_dwelling" />
		<tag k="ssr:stedsnr" v="119727" />
	</node>
	<node id="-38805" lat="60.2232249964" lon="11.7668722229">
		<tag k="name" v="Nedre Nerli" />
		<tag k="place" v="farm" />
		<tag k="ssr:stedsnr" v="119476" />
	</node>
	<node id="-38804" lat="60.2434694437" lon="11.7730416696">
		<tag k="name" v="Glåmbu" />
		<tag k="place" v="farm" />
		<tag k="ssr:stedsnr" v="119472" />
	</node>
	<node id="-38803" lat="60.2383888877" lon="11.7956999928">
		<tag k="name" v="Daler" />
		<tag k="place" v="farm" />
		<tag k="ssr:stedsnr" v="119467" />
	</node>
	<node id="-38797" lat="60.235313889" lon="11.6433027831">
		<tag k="name" v="Kjøldalen" />
		<tag k="place" v="isolated_dwelling" />
		<tag k="ssr:stedsnr" v="119139" />
	</node>
	<node id="-38796" lat="60.2210055599" lon="11.6511111172">
		<tag k="name" v="Kremmerstuen" />
		<tag k="place" v="farm" />
		<tag k="ssr:stedsnr" v="119134" />
	</node>
	<node id="-38791" lat="60.2786277801" lon="11.7723083327">
		<tag k="name" v="Østerhaug" />
		<tag k="place" v="farm" />
		<tag k="ssr:stedsnr" v="118468" />
	</node>
	<node id="-38790" lat="60.2902166696" lon="11.7913583253">
		<tag k="name" v="Midtabråten" />
		<tag k="place" v="isolated_dwelling" />
		<tag k="ssr:stedsnr" v="118456" />
	</node>
	<node id="-38788" lat="60.1695361147" lon="11.6066388924">
		<tag k="name" v="Gammel Haugslia" />
		<tag k="place" v="farm" />
		<tag k="ssr:stedsnr" v="118084" />
	</node>
	<node id="-38787" lat="60.1788305546" lon="11.6128361043">
		<tag k="name" v="Bakkebråten" />
		<tag k="place" v="isolated_dwelling" />
		<tag k="ssr:stedsnr" v="118074" />
	</node>
	<node id="-38781" lat="60.292186107" lon="11.6405249968">
		<tag k="name" v="Iversrud" />
		<tag k="place" v="farm" />
		<tag k="ssr:stedsnr" v="118035" />
	</node>
	<node id="-38770" lat="60.2991416636" lon="11.8204250028">
		<tag k="name" v="Gulbrandskoia" />
		<tag k="place" v="locality" />
		<tag k="ssr:stedsnr" v="116462" />
	</node>
	<node id="-38767" lat="60.2640277755" lon="11.7636555623">
		<tag k="name" v="Herudshagen" />
		<tag k="place" v="farm" />
		<tag k="ssr:stedsnr" v="103510" />
	</node>
	<node id="-38766" lat="60.2150218877" lon="11.6366995854">
		<tag k="fixme" v="consider place=hamlet" />
		<tag k="name" v="Lille Ullern" />
		<tag k="place" v="farm" />
		<tag k="ssr:stedsnr" v="103347" />
	</node>
	<node id="-38762" lat="60.1923111067" lon="11.8814472287">
		<tag k="name" v="Skrabben" />
		<tag k="place" v="farm" />
		<tag k="ssr:stedsnr" v="103174" />
	</node>
	<node id="-38760" lat="60.2663055584" lon="11.7061638854">
		<tag k="name" v="Tupperud" />
		<tag k="place" v="farm" />
		<tag k="ssr:stedsnr" v="102800" />
	</node>
	<node id="-38759" lat="60.2649166669" lon="11.7566916714">
		<tag k="name" v="Jerstadgrinda" />
		<tag k="place" v="farm" />
		<tag k="ssr:stedsnr" v="102796" />
	</node>
	<node id="-38756" lat="60.2025111082" lon="11.8540555521">
		<tag k="name" v="Fullumoen" />
		<tag k="place" v="farm" />
		<tag k="ssr:stedsnr" v="102719" />
	</node>
	<node id="-38755" lat="60.1954861137" lon="11.8290583335">
		<tag k="name" v="Bråten" />
		<tag k="place" v="farm" />
		<tag k="ssr:stedsnr" v="102713" />
	</node>
	<node id="-38752" lat="60.2770777743" lon="11.6369388972">
		<tag k="name" v="Dammhaugen" />
		<tag k="place" v="locality" />
		<tag k="ssr:stedsnr" v="102063" />
	</node>
	<node id="-38739" lat="60.2529555591" lon="11.7101888968">
		<tag k="name" v="Bergheim" />
		<tag k="place" v="isolated_dwelling" />
		<tag k="ssr:stedsnr" v="101895" />
	</node>
	<node id="-38737" lat="60.3273277753" lon="11.7922499916">
		<tag k="historic" v="shieling" />
		<tag k="name" v="Trondsætra" />
		<tag k="place" v="locality" />
		<tag k="ssr:stedsnr" v="87260" />
	</node>
	<node id="-38736" lat="60.3233888897" lon="11.7270833302">
		<tag k="name" v="Gunhilda" />
		<tag k="place" v="locality" />
		<tag k="ssr:stedsnr" v="67984" />
	</node>
	<node id="-38735" lat="60.3113805571" lon="11.7480111127">
		<tag k="name" v="Steinbekken" />
		<tag k="place" v="farm" />
		<tag k="ssr:stedsnr" v="67980" />
	</node>
	<node id="-38733" lat="60.3210805546" lon="11.8248888848">
		<tag k="name" v="Knuthytta" />
		<tag k="place" v="isolated_dwelling" />
		<tag k="ssr:stedsnr" v="67975" />
	</node>
	<node id="-38732" lat="60.2949555593" lon="11.5322305638">
		<tag k="name" v="Blinkopp" />
		<tag k="place" v="isolated_dwelling" />
		<tag k="ssr:stedsnr" v="67966" />
	</node>
	<node id="-38731" lat="60.2983206482" lon="11.6677813237">
		<tag k="alt_name" v="Kjølstad, nordre" />
		<tag k="name" v="Kjølstad" />
		<tag k="place" v="hamlet" />
		<tag k="ssr:stedsnr" v="67956" />
	</node>
	<node id="-38730" lat="60.2502055523" lon="11.7191000003">
		<tag k="alt_name" v="Øvre Mo" />
		<tag k="name" v="Mo" />
		<tag k="place" v="farm" />
		<tag k="ssr:stedsnr" v="67686" />
	</node>
	<node id="-38727" lat="60.2931500014" lon="11.7864194528">
		<tag k="name" v="Sjøviken" />
		<tag k="place" v="farm" />
		<tag k="ssr:stedsnr" v="67575" />
	</node>
	<node id="-38725" lat="60.2401388885" lon="11.7859916747">
		<tag k="name" v="Øverstrøm" />
		<tag k="place" v="farm" />
		<tag k="ssr:stedsnr" v="66999" />
	</node>
	<node id="-38724" lat="60.2352173941" lon="11.7816547106">
		<tag k="fixme" v="consider place=hamlet" />
		<tag k="name" v="Jelsnes" />
		<tag k="place" v="farm" />
		<tag k="ssr:stedsnr" v="66997" />
	</node>
	<node id="-38723" lat="60.2448527797" lon="11.7350777829">
		<tag k="alt_name" v="Ytre Krybelsrud" />
		<tag k="name" v="Krybelsrud" />
		<tag k="place" v="farm" />
		<tag k="ssr:stedsnr" v="66988" />
	</node>
	<node id="-38722" lat="60.2300009657" lon="11.7316623655">
		<tag k="fixme" v="multiple name tags, choose one and add the other to alt_name" />
		<tag k="name" v="Jensrud;Snekkermoen" />
		<tag k="place" v="farm" />
		<tag k="ssr:stedsnr" v="66972" />
	</node>
	<node id="-38721" lat="60.2331888918" lon="11.7261083264">
		<tag k="name" v="Kroken" />
		<tag k="place" v="farm" />
		<tag k="ssr:stedsnr" v="66970" />
	</node>
	<node id="-38720" lat="60.2491222206" lon="11.7527444529">
		<tag k="name" v="Vinjar" />
		<tag k="place" v="farm" />
		<tag k="ssr:stedsnr" v="66933" />
	</node>
	<node id="-38719" lat="60.2135237273" lon="11.6514778455">
		<tag k="name" v="Disen" />
		<tag k="place" v="hamlet" />
		<tag k="ssr:stedsnr" v="66797" />
	</node>
	<node id="-38717" lat="60.2080888925" lon="11.6777805482">
		<tag k="name" v="Høyby" />
		<tag k="place" v="farm" />
		<tag k="ssr:stedsnr" v="66789" />
	</node>
	<node id="-38716" lat="60.2087361069" lon="11.6715083274">
		<tag k="name" v="Kvernhauggreina" />
		<tag k="place" v="farm" />
		<tag k="ssr:stedsnr" v="66788" />
	</node>
	<node id="-38713" lat="60.1251277798" lon="11.6946083423">
		<tag k="historic" v="shieling" />
		<tag k="name" v="Gammelsætra" />
		<tag k="place" v="locality" />
		<tag k="ssr:stedsnr" v="66673" />
	</node>
	<node id="-38711" lat="60.1465388876" lon="11.6923388919">
		<tag k="name" v="Flinkopp" />
		<tag k="place" v="farm" />
		<tag k="ssr:stedsnr" v="66646" />
	</node>
	<node id="-38709" lat="60.1446166637" lon="11.7326805494">
		<tag k="name" v="Stimannsberget" />
		<tag k="place" v="isolated_dwelling" />
		<tag k="ssr:stedsnr" v="66640" />
	</node>
	<node id="-38708" lat="60.218375003" lon="11.5974166745">
		<tag k="name" v="Bjørke" />
		<tag k="place" v="farm" />
		<tag k="ssr:stedsnr" v="66746" />
	</node>
	<node id="-38707" lat="60.1643722265" lon="11.6152555521">
		<tag k="name" v="Dammen" />
		<tag k="place" v="farm" />
		<tag k="ssr:stedsnr" v="66599" />
	</node>
	<node id="-38706" lat="60.1759194473" lon="11.8638416648">
		<tag k="alt_name" v="Øvre Galterudhøgda" />
		<tag k="name" v="Galterudhøgda" />
		<tag k="place" v="farm" />
		<tag k="ssr:stedsnr" v="66576" />
	</node>
	<node id="-38703" lat="60.1960407448" lon="11.8450840997">
		<tag k="alt_name" v="Kollsrud" />
		<tag k="fixme" v="consider place=hamlet" />
		<tag k="name" v="Kolsrud" />
		<tag k="place" v="farm" />
		<tag k="ssr:stedsnr" v="66069" />
	</node>
	<node id="-38702" lat="60.1906333307" lon="11.8593972194">
		<tag k="name" v="Borg" />
		<tag k="place" v="farm" />
		<tag k="ssr:stedsnr" v="59667" />
	</node>
	<node id="-38697" lat="60.2516833345" lon="11.7685194452">
		<tag k="name" v="Oppset" />
		<tag k="place" v="farm" />
		<tag k="ssr:stedsnr" v="59439" />
	</node>
	<node id="-38687" lat="60.2202388901" lon="11.6706666698">
		<tag k="name" v="Lillesetbrua" />
		<tag k="place" v="isolated_dwelling" />
		<tag k="ssr:stedsnr" v="59103" />
	</node>
	<node id="-38686" lat="60.1772694439" lon="11.5875305627">
		<tag k="name" v="Grusholen" />
		<tag k="place" v="quarter" />
		<tag k="ssr:stedsnr" v="58381" />
	</node>
	<node id="-38685" lat="60.2247805591" lon="11.8249888974">
		<tag k="name" v="Skoglifeltet" />
		<tag k="place" v="quarter" />
		<tag k="ssr:stedsnr" v="58357" />
	</node>
	<node id="-38684" lat="60.2626777743" lon="11.6617944385">
		<tag k="name" v="Horneshytten" />
		<tag k="place" v="isolated_dwelling" />
		<tag k="ssr:stedsnr" v="57876" />
	</node>
	<node id="-38683" lat="60.2607777816" lon="11.676552776">
		<tag k="name" v="Sundbakken" />
		<tag k="place" v="isolated_dwelling" />
		<tag k="ssr:stedsnr" v="57875" />
	</node>
	<node id="-38682" lat="60.3028416683" lon="11.6456361189">
		<tag k="name" v="Leirud" />
		<tag k="place" v="farm" />
		<tag k="ssr:stedsnr" v="57797" />
	</node>
	<node id="-38681" lat="60.2914944481" lon="11.6499805538">
		<tag k="name" v="Nyhus" />
		<tag k="place" v="farm" />
		<tag k="ssr:stedsnr" v="57782" />
	</node>
	<node id="-38679" lat="60.3275583291" lon="11.7266499984">
		<tag k="name" v="Søsætra" />
		<tag k="place" v="farm" />
		<tag k="ssr:stedsnr" v="57561" />
	</node>
	<node id="-38676" lat="60.2971361118" lon="11.7766638837">
		<tag k="name" v="Sjøbrend" />
		<tag k="place" v="isolated_dwelling" />
		<tag k="ssr:stedsnr" v="57462" />
	</node>
	<node id="-38668" lat="60.1746638908" lon="11.576452773">
		<tag k="name" v="Mellem" />
		<tag k="place" v="farm" />
		<tag k="ssr:stedsnr" v="57084" />
	</node>
	<node id="-38664" lat="60.2863833339" lon="11.5865972238">
		<tag k="name" v="Karistua" />
		<tag k="place" v="locality" />
		<tag k="ssr:stedsnr" v="57032" />
	</node>
	<node id="-38656" lat="60.2405555582" lon="11.6473083353">
		<tag k="name" v="Spikset-nedgarden" />
		<tag k="place" v="farm" />
		<tag k="ssr:stedsnr" v="43563" />
	</node>
	<node id="-38654" lat="60.2455222196" lon="11.6326472254">
		<tag k="name" v="Nordstuen" />
		<tag k="place" v="farm" />
		<tag k="ssr:stedsnr" v="300078" />
	</node>
	<node id="-38653" lat="60.1823638864" lon="11.8742138949">
		<tag k="name" v="Galterudløkken" />
		<tag k="place" v="isolated_dwelling" />
		<tag k="ssr:stedsnr" v="42189" />
	</node>
	<node id="-38652" lat="60.2252388893" lon="11.5989916602">
		<tag k="name" v="Ullerflaen" />
		<tag k="place" v="farm" />
		<tag k="ssr:stedsnr" v="42076" />
	</node>
	<node id="-38650" lat="60.2612916642" lon="11.6010027848">
		<tag k="name" v="Leirhuluvangen" />
		<tag k="place" v="locality" />
		<tag k="ssr:stedsnr" v="42057" />
	</node>
	<node id="-38645" lat="60.2893638864" lon="11.7257333319">
		<tag k="name" v="Dalen" />
		<tag k="place" v="farm" />
		<tag k="ssr:stedsnr" v="41774" />
	</node>
	<node id="-38643" lat="60.1993611065" lon="11.8474194508">
		<tag k="name" v="Fredli" />
		<tag k="place" v="isolated_dwelling" />
		<tag k="ssr:stedsnr" v="41679" />
	</node>
	<node id="-38641" lat="60.1165694467" lon="11.7735472276">
		<tag k="building" v="industrial" />
		<tag k="name" v="Saga" />
		<tag k="ssr:stedsnr" v="41207" />
	</node>
	<node id="-38638" lat="60.2545666641" lon="11.7059916753">
		<tag k="name" v="Malerstuen" />
		<tag k="place" v="farm" />
		<tag k="ssr:stedsnr" v="40892" />
	</node>
	<node id="-38637" lat="60.2545694415" lon="11.7006833324">
		<tag k="name" v="Tangen" />
		<tag k="place" v="isolated_dwelling" />
		<tag k="ssr:stedsnr" v="40888" />
	</node>
	<node id="-38636" lat="60.2379138918" lon="11.7547944357">
		<tag k="building" v="industrial" />
		<tag k="industrial" v="factory" />
		<tag k="name" v="Mangå sag og høvleri" />
		<tag k="ssr:stedsnr" v="40886" />
	</node>
	<node id="-38635" lat="60.2473305592" lon="11.7499611157">
		<tag k="name" v="Ellefsrud" />
		<tag k="place" v="isolated_dwelling" />
		<tag k="ssr:stedsnr" v="40884" />
	</node>
	<node id="-38632" lat="60.280700001" lon="11.6480500033">
		<tag k="name" v="Borgenholtet" />
		<tag k="place" v="farm" />
		<tag k="ssr:stedsnr" v="39690" />
	</node>
	<node id="-38630" lat="60.334519448" lon="11.8146055584">
		<tag k="name" v="Dølikoia" />
		<tag k="place" v="isolated_dwelling" />
		<tag k="ssr:stedsnr" v="6994" />
	</node>
	<node id="-38629" lat="60.325494447" lon="11.6576777778">
		<tag k="alt_name" v="Krevenghaugen" />
		<tag k="name" v="Haug" />
		<tag k="place" v="farm" />
		<tag k="ssr:stedsnr" v="6992" />
	</node>
	<node id="-38625" lat="60.1670222227" lon="11.6119249999">
		<tag k="name" v="Lindåsen" />
		<tag k="place" v="farm" />
		<tag k="ssr:stedsnr" v="6865" />
	</node>
	<node id="-38624" lat="60.1706416696" lon="11.6129916724">
		<tag k="name" v="Haugslia" />
		<tag k="place" v="farm" />
		<tag k="ssr:stedsnr" v="6864" />
	</node>
	<node id="-38623" lat="60.2263500017" lon="11.5910027758">
		<tag k="name" v="Tjernsmo" />
		<tag k="place" v="farm" />
		<tag k="ssr:stedsnr" v="6785" />
	</node>
	<node id="-38622" lat="60.216318021" lon="11.777785373">
		<tag k="fixme" v="consider place=hamlet" />
		<tag k="name" v="Skårer" />
		<tag k="place" v="farm" />
		<tag k="ssr:stedsnr" v="6769" />
	</node>
	<node id="-38620" lat="60.2751750035" lon="11.8249944393">
		<tag k="name" v="Grøtlien" />
		<tag k="place" v="farm" />
		<tag k="ssr:stedsnr" v="6586" />
	</node>
	<node id="-38619" lat="60.2904500018" lon="11.7258222274">
		<tag k="name" v="Gullikstad" />
		<tag k="place" v="farm" />
		<tag k="ssr:stedsnr" v="6577" />
	</node>
	<node id="-38617" lat="60.2562706142" lon="11.8113961785">
		<tag k="fixme" v="consider place=hamlet" />
		<tag k="name" v="Bekkholt" />
		<tag k="place" v="farm" />
		<tag k="ssr:stedsnr" v="6554" />
	</node>
	<node id="-38616" lat="60.2616500013" lon="11.8060888951">
		<tag k="name" v="Nabben" />
		<tag k="place" v="farm" />
		<tag k="ssr:stedsnr" v="6548" />
	</node>
	<node id="-38615" lat="60.2560444439" lon="11.8540583276">
		<tag k="name" v="Finnsrud" />
		<tag k="place" v="farm" />
		<tag k="ssr:stedsnr" v="6464" />
	</node>
	<node id="-38613" lat="60.2238722201" lon="11.8719500086">
		<tag k="name" v="Bjørndalen" />
		<tag k="place" v="farm" />
		<tag k="ssr:stedsnr" v="6002" />
	</node>
	<node id="-38612" lat="60.2372055513" lon="11.8005555615">
		<tag k="name" v="Moen" />
		<tag k="place" v="farm" />
		<tag k="ssr:stedsnr" v="6000" />
	</node>
	<node id="-38611" lat="60.2376099589" lon="11.7741057205">
		<tag k="fixme" v="consider place=hamlet" />
		<tag k="name" v="Fresvoll" />
		<tag k="place" v="farm" />
		<tag k="ssr:stedsnr" v="5998" />
	</node>
	<node id="-38610" lat="60.2352777805" lon="11.6703250036">
		<tag k="name" v="Sandbakken" />
		<tag k="place" v="farm" />
		<tag k="ssr:stedsnr" v="5982" />
	</node>
	<node id="-38609" lat="60.2316888857" lon="11.7940527846">
		<tag k="name" v="Sanderenga" />
		<tag k="place" v="farm" />
		<tag k="ssr:stedsnr" v="5970" />
	</node>
	<node id="-38607" lat="60.2330611126" lon="11.5943500071">
		<tag k="fixme" v="multiple name tags, choose one and add the other to alt_name" />
		<tag k="name" v="Breiby;Steinerudbråten" />
		<tag k="place" v="farm" />
		<tag k="ssr:stedsnr" v="5960" />
	</node>
	<node id="-38606" lat="60.245869443" lon="11.8303055525">
		<tag k="name" v="Brenna" />
		<tag k="place" v="farm" />
		<tag k="ssr:stedsnr" v="5928" />
	</node>
	<node id="-38605" lat="60.1975127935" lon="11.8391556852">
		<tag k="alt_name" v="Krogsrud" />
		<tag k="fixme" v="consider place=hamlet" />
		<tag k="name" v="Kroksrud" />
		<tag k="place" v="farm" />
		<tag k="ssr:stedsnr" v="5810" />
	</node>
	<node id="-38601" lat="60.1020444481" lon="11.7861916718">
		<tag k="name" v="Grasberget" />
		<tag k="place" v="locality" />
		<tag k="ssr:stedsnr" v="5705" />
	</node>
	<node id="-38600" lat="60.1037416666" lon="11.8104805509">
		<tag k="name" v="Nyhus" />
		<tag k="place" v="farm" />
		<tag k="ssr:stedsnr" v="5701" />
	</node>
	<node id="-38598" lat="60.1349388933" lon="11.8256999963">
		<tag k="name" v="Bjørnvika" />
		<tag k="place" v="isolated_dwelling" />
		<tag k="ssr:stedsnr" v="5642" />
	</node>
	<node id="-38596" lat="60.0761833352" lon="11.7985416687">
		<tag k="name" v="Presterudsætra" />
		<tag k="place" v="isolated_dwelling" />
		<tag k="ssr:stedsnr" v="5474" />
	</node>
	<node id="-38592" lat="60.1931750015" lon="11.8476027851">
		<tag k="alt_name" v="Rognhaugen" />
		<tag k="name" v="Rognhaug" />
		<tag k="place" v="farm" />
		<tag k="ssr:stedsnr" v="5053" />
	</node>
	<node id="-38590" lat="60.2331583363" lon="11.7475694398">
		<tag k="name" v="Mangnes" />
		<tag k="place" v="farm" />
		<tag k="ssr:stedsnr" v="969808" />
	</node>
	<node id="-38585" lat="60.2867638882" lon="11.6875249916">
		<tag k="name" v="Østby" />
		<tag k="place" v="locality" />
		<tag k="ssr:stedsnr" v="967756" />
	</node>
	<node id="-38584" lat="60.3393527775" lon="11.7204750002">
		<tag k="name" v="Smestad" />
		<tag k="place" v="isolated_dwelling" />
		<tag k="ssr:stedsnr" v="967565" />
	</node>
	<node id="-38581" lat="60.2808333292" lon="11.7679333371">
		<tag k="name" v="Møllerud" />
		<tag k="place" v="farm" />
		<tag k="ssr:stedsnr" v="967472" />
	</node>
	<node id="-38580" lat="60.2780444436" lon="11.7825027779">
		<tag k="name" v="Nordstrand" />
		<tag k="place" v="isolated_dwelling" />
		<tag k="ssr:stedsnr" v="967468" />
	</node>
	<node id="-38579" lat="60.2971055553" lon="11.7782722238">
		<tag k="name" v="Sjøbrend" />
		<tag k="place" v="farm" />
		<tag k="ssr:stedsnr" v="967464" />
	</node>
	<node id="-38578" lat="60.1665972227" lon="11.8973666598">
		<tag k="name" v="Tollhaugen" />
		<tag k="place" v="locality" />
		<tag k="ssr:stedsnr" v="967305" />
	</node>
	<node id="-38574" lat="60.1798694474" lon="11.6239833419">
		<tag k="name" v="Nedre Sæter" />
		<tag k="place" v="farm" />
		<tag k="ssr:stedsnr" v="967068" />
	</node>
	<node id="-38566" lat="60.1786416664" lon="11.6533916632">
		<tag k="name" v="Gjerdsøymyra" />
		<tag k="place" v="farm" />
		<tag k="ssr:stedsnr" v="965205" />
	</node>
	<node id="-38565" lat="60.2235666684" lon="11.8020833332">
		<tag k="name" v="Sanderhamna" />
		<tag k="place" v="quarter" />
		<tag k="ssr:stedsnr" v="952507" />
	</node>
	<node id="-38564" lat="60.1142666694" lon="11.7989777769">
		<tag k="name" v="Bråten" />
		<tag k="place" v="isolated_dwelling" />
		<tag k="ssr:stedsnr" v="951727" />
	</node>
	<node id="-38562" lat="60.1917250001" lon="11.8116972186">
		<tag k="name" v="Vettabråten" />
		<tag k="place" v="locality" />
		<tag k="ssr:stedsnr" v="951722" />
	</node>
	<node id="-38558" lat="60.3135305595" lon="11.693850009">
		<tag k="name" v="Nordby" />
		<tag k="place" v="farm" />
		<tag k="ssr:stedsnr" v="950983" />
	</node>
	<node id="-38556" lat="60.3106472259" lon="11.574988887">
		<tag k="name" v="Aulisætra" />
		<tag k="place" v="farm" />
		<tag k="ssr:stedsnr" v="917960" />
	</node>
	<node id="-38554" lat="60.1665194475" lon="11.6627777738">
		<tag k="name" v="Gjersøyvangen" />
		<tag k="place" v="farm" />
		<tag k="ssr:stedsnr" v="916866" />
	</node>
	<node id="-38553" lat="60.2795058859" lon="11.7921077326">
		<tag k="fixme" v="consider place=hamlet" />
		<tag k="name" v="Toner" />
		<tag k="place" v="farm" />
		<tag k="ssr:stedsnr" v="916569" />
	</node>
	<node id="-38551" lat="60.2864463045" lon="11.7740876696">
		<tag k="fixme" v="consider place=hamlet" />
		<tag k="name" v="Melgarden" />
		<tag k="place" v="farm" />
		<tag k="ssr:stedsnr" v="916555" />
	</node>
	<node id="-38550" lat="60.2794750005" lon="11.810572215">
		<tag k="name" v="Brattåsen" />
		<tag k="place" v="locality" />
		<tag k="ssr:stedsnr" v="916553" />
	</node>
	<node id="-38547" lat="60.2107499964" lon="11.8891055529">
		<tag k="alt_name" v="Fulubygningen" />
		<tag k="name" v="Bygningen" />
		<tag k="place" v="farm" />
		<tag k="ssr:stedsnr" v="916124" />
	</node>
	<node id="-38544" lat="60.1611861117" lon="11.7278388898">
		<tag k="historic" v="shieling" />
		<tag k="name" v="Ombergstøl" />
		<tag k="place" v="locality" />
		<tag k="ssr:stedsnr" v="915606" />
	</node>
	<node id="-38538" lat="60.2913694487" lon="11.6776055613">
		<tag k="name" v="Gommerud" />
		<tag k="place" v="farm" />
		<tag k="ssr:stedsnr" v="906805" />
	</node>
	<node id="-38533" lat="60.2852972225" lon="11.6431638971">
		<tag k="alt_name" v="Inngjerdslen" />
		<tag k="name" v="Inngjerdsla" />
		<tag k="place" v="hamlet" />
		<tag k="ssr:stedsnr" v="889408" />
	</node>
	<node id="-38532" lat="60.250272218" lon="11.7425888916">
		<tag k="name" v="Slomarka" />
		<tag k="place" v="quarter" />
		<tag k="ssr:stedsnr" v="875653" />
	</node>
	<node id="-38523" lat="60.2007694479" lon="11.6219416597">
		<tag k="name" v="Kjelbråten" />
		<tag k="place" v="farm" />
		<tag k="ssr:stedsnr" v="950074" />
	</node>
	<node id="-38522" lat="60.2615777792" lon="11.7573250007">
		<tag k="name" v="Jerstadmoen" />
		<tag k="place" v="farm" />
		<tag k="ssr:stedsnr" v="856580" />
	</node>
	<node id="-38521" lat="60.2638194483" lon="11.6489638965">
		<tag k="name" v="Stumobråten" />
		<tag k="place" v="farm" />
		<tag k="ssr:stedsnr" v="856576" />
	</node>
	<node id="-38520" lat="60.2523666645" lon="11.8162750075">
		<tag k="name" v="Åsum" />
		<tag k="place" v="farm" />
		<tag k="ssr:stedsnr" v="856570" />
	</node>
	<node id="-38519" lat="60.2644472206" lon="11.7206166578">
		<tag k="name" v="Lysakerrud" />
		<tag k="place" v="farm" />
		<tag k="ssr:stedsnr" v="856566" />
	</node>
	<node id="-38518" lat="60.2655972204" lon="11.7888388926">
		<tag k="name" v="Oppi" />
		<tag k="place" v="farm" />
		<tag k="ssr:stedsnr" v="856558" />
	</node>
	<node id="-38517" lat="60.2674303768" lon="11.7637607113">
		<tag k="fixme" v="consider place=hamlet" />
		<tag k="name" v="Herrud" />
		<tag k="place" v="farm" />
		<tag k="ssr:stedsnr" v="856556" />
	</node>
	<node id="-38515" lat="60.2475831436" lon="11.7867641324">
		<tag k="fixme" v="consider place=hamlet" />
		<tag k="name" v="Duåsen" />
		<tag k="place" v="farm" />
		<tag k="ssr:stedsnr" v="855953" />
	</node>
	<node id="-38514" lat="60.1420416692" lon="11.6579194444">
		<tag k="name" v="Sæterholtet" />
		<tag k="place" v="farm" />
		<tag k="ssr:stedsnr" v="855675" />
	</node>
	<node id="-38513" lat="60.1451444435" lon="11.8020750054">
		<tag k="name" v="Bråtasætra" />
		<tag k="place" v="isolated_dwelling" />
		<tag k="ssr:stedsnr" v="855663" />
	</node>
	<node id="-38512" lat="60.1895222265" lon="11.613955549">
		<tag k="name" v="Sæteråsen" />
		<tag k="place" v="farm" />
		<tag k="ssr:stedsnr" v="855854" />
	</node>
	<node id="-38511" lat="60.2160944423" lon="11.593172219">
		<tag k="name" v="Bjørkemyra" />
		<tag k="place" v="farm" />
		<tag k="ssr:stedsnr" v="855778" />
	</node>
	<node id="-38509" lat="60.2011916685" lon="11.8474138878">
		<tag k="name" v="Mellandsmoen" />
		<tag k="place" v="farm" />
		<tag k="ssr:stedsnr" v="855114" />
	</node>
	<node id="-38508" lat="60.1884249987" lon="11.8528944354">
		<tag k="name" v="Stomperudlykkja" />
		<tag k="place" v="farm" />
		<tag k="ssr:stedsnr" v="855060" />
	</node>
	<node id="-38507" lat="60.2065861148" lon="11.6415555536">
		<tag k="fixme" v="consider place=suburb, village or hamlet" />
		<tag k="name" v="Disenå" />
		<tag k="place" v="quarter" />
		<tag k="ssr:stedsnr" v="939373" />
	</node>
	<node id="-38506" lat="60.2482277821" lon="11.7629194416">
		<tag k="name" v="Kjerkinn" />
		<tag k="place" v="farm" />
		<tag k="ssr:stedsnr" v="829404" />
	</node>
	<node id="-38505" lat="60.3037833372" lon="11.5504083277">
		<tag k="name" v="Kjøldalen" />
		<tag k="place" v="isolated_dwelling" />
		<tag k="ssr:stedsnr" v="795978" />
	</node>
	<node id="-38504" lat="60.3129361148" lon="11.7325527823">
		<tag k="name" v="Botner" />
		<tag k="place" v="farm" />
		<tag k="ssr:stedsnr" v="795965" />
	</node>
	<node id="-38501" lat="60.2091277749" lon="11.6125333345">
		<tag k="name" v="Vesleenga" />
		<tag k="place" v="farm" />
		<tag k="ssr:stedsnr" v="794801" />
	</node>
	<node id="-38499" lat="60.1936333319" lon="11.835077778">
		<tag k="name" v="Haug" />
		<tag k="place" v="farm" />
		<tag k="ssr:stedsnr" v="794824" />
	</node>
	<node id="-38498" lat="60.1887014839" lon="11.6374609522">
		<tag k="fixme" v="multiple name tags, choose one and add the other to alt_name" />
		<tag k="name" v="Stangvoll;Søberg" />
		<tag k="place" v="farm" />
		<tag k="ssr:stedsnr" v="794818" />
	</node>
	<node id="-38497" lat="60.158150001" lon="11.625908335">
		<tag k="name" v="Granum" />
		<tag k="place" v="farm" />
		<tag k="ssr:stedsnr" v="794626" />
	</node>
	<node id="-38496" lat="60.2091027815" lon="11.8640944476">
		<tag k="name" v="Velta" />
		<tag k="place" v="farm" />
		<tag k="ssr:stedsnr" v="794103" />
	</node>
	<node id="-38495" lat="60.2991027788" lon="11.7114166755">
		<tag k="fixme" v="consider natural=beach + surface=sand" />
		<tag k="leisure" v="swimming_area" />
		<tag k="name" v="Vikerauren" />
		<tag k="place" v="locality" />
		<tag k="ssr:stedsnr" v="787758" />
	</node>
	<node id="-38492" lat="60.2079027764" lon="11.6676222221">
		<tag k="name" v="Innleggen" />
		<tag k="place" v="farm" />
		<tag k="ssr:stedsnr" v="787176" />
	</node>
	<node id="-38491" lat="60.2069222244" lon="11.6726805479">
		<tag k="name" v="Nyhus" />
		<tag k="place" v="farm" />
		<tag k="ssr:stedsnr" v="787174" />
	</node>
	<node id="-38485" lat="60.3151333355" lon="11.6387277748">
		<tag k="name" v="Aulimyra" />
		<tag k="place" v="farm" />
		<tag k="ssr:stedsnr" v="917950" />
	</node>
	<node id="-38484" lat="60.3095722238" lon="11.6614027804">
		<tag k="name" v="Finnberget" />
		<tag k="place" v="farm" />
		<tag k="ssr:stedsnr" v="917948" />
	</node>
	<node id="-38483" lat="60.3070916661" lon="11.6308500007">
		<tag k="name" v="Gaustad" />
		<tag k="place" v="farm" />
		<tag k="ssr:stedsnr" v="917933" />
	</node>
	<node id="-38482" lat="60.3047281146" lon="11.6668280343">
		<tag k="fixme" v="consider place=hamlet" />
		<tag k="name" v="Årstad" />
		<tag k="old_name" v="Aarstad" />
		<tag k="place" v="farm" />
		<tag k="ssr:stedsnr" v="917931" />
	</node>
	<node id="-38481" lat="60.1858694421" lon="11.61414445">
		<tag k="name" v="Sæterbakken" />
		<tag k="place" v="farm" />
		<tag k="ssr:stedsnr" v="916844" />
	</node>
	<node id="-38480" lat="60.1887238945" lon="11.6689880621">
		<tag k="name" v="Gjersøybråten" />
		<tag k="place" v="farm" />
		<tag k="ssr:stedsnr" v="916840" />
	</node>
	<node id="-38479" lat="60.2378082883" lon="11.7683500242">
		<tag k="fixme" v="consider place=hamlet" />
		<tag k="name" v="Krakerud" />
		<tag k="place" v="farm" />
		<tag k="ssr:stedsnr" v="916998" />
	</node>
	<node id="-38478" lat="60.2414277742" lon="11.685636114">
		<tag k="name" v="Tronbøl" />
		<tag k="place" v="quarter" />
		<tag k="ssr:stedsnr" v="916990" />
	</node>
	<node id="-38477" lat="60.2290222262" lon="11.6198083326">
		<tag k="name" v="Ullerhaugen" />
		<tag k="place" v="farm" />
		<tag k="ssr:stedsnr" v="916981" />
	</node>
	<node id="-38475" lat="60.3473444462" lon="11.7110749924">
		<tag k="name" v="Våla" />
		<tag k="place" v="farm" />
		<tag k="ssr:stedsnr" v="916899" />
	</node>
	<node id="-38473" lat="60.3510444453" lon="11.808511115">
		<tag k="historic" v="shieling" />
		<tag k="name" v="Hokjølsætra" />
		<tag k="place" v="locality" />
		<tag k="ssr:stedsnr" v="916889" />
	</node>
	<node id="-38472" lat="60.1744972197" lon="11.7205222249">
		<tag k="historic" v="shieling" />
		<tag k="name" v="Norddisisætra" />
		<tag k="place" v="locality" />
		<tag k="ssr:stedsnr" v="916882" />
	</node>
	<node id="-38471" lat="60.2295300416" lon="11.8242653406">
		<tag k="fixme" v="consider place=hamlet" />
		<tag k="name" v="Sundby" />
		<tag k="place" v="farm" />
		<tag k="ssr:stedsnr" v="916795" />
	</node>
	<node id="-38470" lat="60.2250594964" lon="11.6787301731">
		<tag k="name" v="Lilleset" />
		<tag k="place" v="farm" />
		<tag k="ssr:stedsnr" v="916789" />
	</node>
	<node id="-38469" lat="60.2856388858" lon="11.6606444508">
		<tag k="name" v="Norderud" />
		<tag k="place" v="farm" />
		<tag k="ssr:stedsnr" v="916552" />
	</node>
	<node id="-38468" lat="60.2623166627" lon="11.6808805574">
		<tag k="alt_name" v="Os, vestre" />
		<tag k="name" v="Vestre Os" />
		<tag k="place" v="farm" />
		<tag k="ssr:stedsnr" v="916550" />
	</node>
	<node id="-38467" lat="60.2584669073" lon="11.6749712567">
		<tag k="fixme" v="consider place=hamlet" />
		<tag k="name" v="Korsmo" />
		<tag k="place" v="farm" />
		<tag k="ssr:stedsnr" v="916548" />
	</node>
	<node id="-38464" lat="60.2632416663" lon="11.8373777701">
		<tag k="name" v="Bjørndal" />
		<tag k="place" v="farm" />
		<tag k="ssr:stedsnr" v="916533" />
	</node>
	<node id="-38460" lat="60.1831206848" lon="11.8861129756">
		<tag k="fixme" v="consider place=hamlet" />
		<tag k="name" v="Galterud" />
		<tag k="place" v="farm" />
		<tag k="ssr:stedsnr" v="916093" />
	</node>
	<node id="-38459" lat="60.2457138895" lon="11.89519722">
		<tag k="name" v="Tjernsmo" />
		<tag k="place" v="farm" />
		<tag k="ssr:stedsnr" v="916031" />
	</node>
	<node id="-38457" lat="60.2098527732" lon="11.6177722304">
		<tag k="name" v="Ullerenga" />
		<tag k="place" v="farm" />
		<tag k="ssr:stedsnr" v="772337" />
	</node>
	<node id="-38453" lat="60.2228972208" lon="11.5990000078">
		<tag k="name" v="Ullerlia" />
		<tag k="place" v="farm" />
		<tag k="ssr:stedsnr" v="770074" />
	</node>
	<node id="-38450" lat="60.1115861082" lon="11.8059916628">
		<tag k="name" v="Vestgarden" />
		<tag k="place" v="farm" />
		<tag k="ssr:stedsnr" v="769709" />
	</node>
	<node id="-38448" lat="60.1907388923" lon="11.8212916738">
		<tag k="name" v="Sagstuen" />
		<tag k="place" v="locality" />
		<tag k="ssr:stedsnr" v="769701" />
	</node>
	<node id="-38446" lat="60.2001194443" lon="11.8426666688">
		<tag k="name" v="Norderud" />
		<tag k="place" v="farm" />
		<tag k="ssr:stedsnr" v="769678" />
	</node>
	<node id="-38445" lat="60.1992638857" lon="11.8703888832">
		<tag k="building" v="industrial" />
		<tag k="name" v="Galterud Bruk" />
		<tag k="ssr:stedsnr" v="769677" />
	</node>
	<node id="-38444" lat="60.225155552" lon="11.8320972266">
		<tag k="name" v="Fredrikstad" />
		<tag k="place" v="isolated_dwelling" />
		<tag k="ssr:stedsnr" v="769453" />
	</node>
	<node id="-38433" lat="60.2194388878" lon="11.7235249978">
		<tag k="name" v="Bråten" />
		<tag k="place" v="isolated_dwelling" />
		<tag k="ssr:stedsnr" v="909145" />
	</node>
	<node id="-38432" lat="60.2215277733" lon="11.8664444508">
		<tag k="alt_name" v="Fulu, øvre" />
		<tag k="name" v="Øvre Fulu" />
		<tag k="place" v="farm" />
		<tag k="ssr:stedsnr" v="915013" />
	</node>
	<node id="-38428" lat="60.1965722229" lon="11.6552333269">
		<tag k="name" v="Undbekken" />
		<tag k="place" v="farm" />
		<tag k="ssr:stedsnr" v="908182" />
	</node>
	<node id="-38427" lat="60.239500003" lon="11.6311444443">
		<tag k="name" v="Bratli" />
		<tag k="place" v="isolated_dwelling" />
		<tag k="ssr:stedsnr" v="908081" />
	</node>
	<node id="-38424" lat="60.3299333295" lon="11.7723805478">
		<tag k="name" v="Jonsbu" />
		<tag k="place" v="locality" />
		<tag k="ssr:stedsnr" v="907282" />
	</node>
	<node id="-38420" lat="60.2423555556" lon="11.7787027804">
		<tag k="name" v="Melstrøm" />
		<tag k="place" v="farm" />
		<tag k="ssr:stedsnr" v="907083" />
	</node>
	<node id="-38419" lat="60.2908305539" lon="11.6825805568">
		<tag k="name" v="Høyby" />
		<tag k="place" v="farm" />
		<tag k="ssr:stedsnr" v="906809" />
	</node>
	<node id="-38414" lat="60.1836583337" lon="11.6484166717">
		<tag k="name" v="Myrli" />
		<tag k="place" v="farm" />
		<tag k="ssr:stedsnr" v="905190" />
	</node>
	<node id="-38413" lat="60.2661027744" lon="11.6673138817">
		<tag k="name" v="Bjerkely" />
		<tag k="place" v="isolated_dwelling" />
		<tag k="ssr:stedsnr" v="906878" />
	</node>
	<node id="-38412" lat="60.1109900569" lon="11.8176015835">
		<tag k="name" v="Østgarden" />
		<tag k="place" v="farm" />
		<tag k="ssr:stedsnr" v="734716" />
	</node>
	<node id="-38410" lat="60.1905861124" lon="11.6879722218">
		<tag k="name" v="Disiårbogen" />
		<tag k="place" v="farm" />
		<tag k="ssr:stedsnr" v="733804" />
	</node>
	<node id="-38409" lat="60.2045305564" lon="11.8726500028">
		<tag k="name" v="Melland" />
		<tag k="place" v="farm" />
		<tag k="ssr:stedsnr" v="733132" />
	</node>
	<node id="-38408" lat="60.213199998" lon="11.8677749982">
		<tag k="name" v="Svingen" />
		<tag k="place" v="farm" />
		<tag k="ssr:stedsnr" v="733112" />
	</node>
	<node id="-38407" lat="60.2480083339" lon="11.6273166712">
		<tag k="name" v="Indgjerdingen" />
		<tag k="place" v="farm" />
		<tag k="ssr:stedsnr" v="907055" />
	</node>
	<node id="-38404" lat="60.2153777768" lon="11.6716611054">
		<tag k="name" v="Åberg" />
		<tag k="place" v="farm" />
		<tag k="ssr:stedsnr" v="726176" />
	</node>
	<node id="-38398" lat="60.3554361113" lon="11.8165166662">
		<tag k="name" v="Kjølkoia" />
		<tag k="place" v="locality" />
		<tag k="ssr:stedsnr" v="724236" />
	</node>
	<node id="-38393" lat="60.2988416671" lon="11.6666861024">
		<tag k="name" v="Kjølstad" />
		<tag k="place" v="farm" />
		<tag k="ssr:stedsnr" v="894884" />
	</node>
	<node id="-38388" lat="60.2624222243" lon="11.7565416708">
		<tag k="name" v="Sletten" />
		<tag k="place" v="farm" />
		<tag k="ssr:stedsnr" v="891785" />
	</node>
	<node id="-38384" lat="60.2182416657" lon="11.8493833376">
		<tag k="name" v="Øvre Hernes" />
		<tag k="place" v="farm" />
		<tag k="ssr:stedsnr" v="891686" />
	</node>
	<node id="-38383" lat="60.19839722" lon="11.8553000042">
		<tag k="name" v="Grannes" />
		<tag k="place" v="isolated_dwelling" />
		<tag k="ssr:stedsnr" v="891684" />
	</node>
	<node id="-38382" lat="60.2228305593" lon="11.8459138857">
		<tag k="name" v="Bygninga" />
		<tag k="place" v="farm" />
		<tag k="ssr:stedsnr" v="891468" />
	</node>
	<node id="-38381" lat="60.2258555587" lon="11.8393222312">
		<tag k="name" v="Ytre Hernes" />
		<tag k="place" v="farm" />
		<tag k="ssr:stedsnr" v="891467" />
	</node>
	<node id="-38376" lat="60.3153444446" lon="11.7310888817">
		<tag k="name" v="Holmbråten" />
		<tag k="place" v="isolated_dwelling" />
		<tag k="ssr:stedsnr" v="890998" />
	</node>
	<node id="-38373" lat="60.241908332" lon="11.7241916751">
		<tag k="name" v="Lindal" />
		<tag k="place" v="farm" />
		<tag k="ssr:stedsnr" v="890888" />
	</node>
	<node id="-38372" lat="60.2431194407" lon="11.7075638845">
		<tag k="name" v="Karterud" />
		<tag k="place" v="isolated_dwelling" />
		<tag k="ssr:stedsnr" v="890887" />
	</node>
	<node id="-38371" lat="60.2453027754" lon="11.7370611186">
		<tag k="name" v="Øvre Krybelsrud" />
		<tag k="place" v="farm" />
		<tag k="ssr:stedsnr" v="890886" />
	</node>
	<node id="-38370" lat="60.2412638871" lon="11.7071999964">
		<tag k="name" v="Einerud" />
		<tag k="place" v="farm" />
		<tag k="ssr:stedsnr" v="890882" />
	</node>
	<node id="-38369" lat="60.3185000011" lon="11.6357249938">
		<tag k="name" v="Grensen" />
		<tag k="place" v="farm" />
		<tag k="ssr:stedsnr" v="890872" />
	</node>
	<node id="-38368" lat="60.3254333317" lon="11.6650083392">
		<tag k="name" v="Kjølstadeng" />
		<tag k="place" v="farm" />
		<tag k="ssr:stedsnr" v="891931" />
	</node>
	<node id="-38367" lat="60.3274055562" lon="11.6653000032">
		<tag k="name" v="Kjølstadeng" />
		<tag k="place" v="farm" />
		<tag k="ssr:stedsnr" v="891927" />
	</node>
	<node id="-38356" lat="60.272797225" lon="11.647375006">
		<tag k="name" v="Bakli" />
		<tag k="place" v="isolated_dwelling" />
		<tag k="ssr:stedsnr" v="906782" />
	</node>
	<node id="-38355" lat="60.3071250046" lon="11.8416611025">
		<tag k="historic" v="shieling" />
		<tag k="name" v="Nysætra" />
		<tag k="place" v="locality" />
		<tag k="ssr:stedsnr" v="674966" />
	</node>
	<node id="-38354" lat="60.3021027747" lon="11.6585888846">
		<tag k="alt_name" v="Auli, søndre;Auli" />
		<tag k="name" v="Søndre Auli" />
		<tag k="place" v="farm" />
		<tag k="ssr:stedsnr" v="674928" />
	</node>
	<node id="-38352" lat="60.2588527749" lon="11.7585249921">
		<tag k="name" v="Solberg" />
		<tag k="place" v="farm" />
		<tag k="ssr:stedsnr" v="665480" />
	</node>
	<node id="-38351" lat="60.2383500002" lon="11.8772611113">
		<tag k="name" v="Knolla" />
		<tag k="place" v="isolated_dwelling" />
		<tag k="ssr:stedsnr" v="665133" />
	</node>
	<node id="-38350" lat="60.3535916706" lon="11.7379027713">
		<tag k="name" v="Veum" />
		<tag k="place" v="farm" />
		<tag k="ssr:stedsnr" v="664206" />
	</node>
	<node id="-38349" lat="60.1643083319" lon="11.6127666648">
		<tag k="name" v="Knatten" />
		<tag k="place" v="isolated_dwelling" />
		<tag k="ssr:stedsnr" v="664080" />
	</node>
	<node id="-38348" lat="60.177513889" lon="11.619305564">
		<tag k="name" v="Sæter Engeland" />
		<tag k="place" v="farm" />
		<tag k="ssr:stedsnr" v="664075" />
	</node>
	<node id="-38343" lat="60.2870039485" lon="11.6653974387">
		<tag k="fixme" v="consider place=hamlet" />
		<tag k="name" v="Oppstad" />
		<tag k="place" v="farm" />
		<tag k="ssr:stedsnr" v="650530" />
	</node>
	<node id="-38342" lat="60.2367072297" lon="11.7290239174">
		<tag k="fixme" v="consider place=hamlet" />
		<tag k="name" v="Mangset" />
		<tag k="place" v="farm" />
		<tag k="ssr:stedsnr" v="734994" />
	</node>
	<node id="-38341" lat="60.3173083307" lon="11.6318027763">
		<tag k="name" v="Farsetås" />
		<tag k="place" v="farm" />
		<tag k="ssr:stedsnr" v="734991" />
	</node>
	<node id="-38340" lat="60.3262583316" lon="11.8047138814">
		<tag k="fixme" v="consider tourism=alpine_hut or tourism=chalet" />
		<tag k="name" v="Trondsbu" />
		<tag k="ssr:stedsnr" v="734983" />
		<tag k="tourism" v="wilderness_hut" />
	</node>
	<node id="-38338" lat="60.3065888885" lon="11.6874333277">
		<tag k="name" v="Skredderstua" />
		<tag k="place" v="farm" />
		<tag k="ssr:stedsnr" v="734942" />
	</node>
	<node id="-38337" lat="60.3069388906" lon="11.7532444473">
		<tag k="name" v="Sjønnenga" />
		<tag k="place" v="farm" />
		<tag k="ssr:stedsnr" v="734940" />
	</node>
	<node id="-38336" lat="60.3511305568" lon="11.7132805592">
		<tag k="name" v="Blådammen" />
		<tag k="place" v="farm" />
		<tag k="ssr:stedsnr" v="734879" />
	</node>
	<node id="-38335" lat="60.3490388886" lon="11.73692778">
		<tag k="name" v="Østby" />
		<tag k="place" v="isolated_dwelling" />
		<tag k="ssr:stedsnr" v="734875" />
	</node>
	<node id="-38334" lat="60.1739166681" lon="11.717349997">
		<tag k="name" v="Ullernvangen" />
		<tag k="place" v="isolated_dwelling" />
		<tag k="ssr:stedsnr" v="734861" />
	</node>
	<node id="-38333" lat="60.1719694437" lon="11.6500861107">
		<tag k="name" v="Skøyensagen" />
		<tag k="place" v="farm" />
		<tag k="ssr:stedsnr" v="734847" />
	</node>
	<node id="-38331" lat="60.2269055528" lon="11.642994437">
		<tag k="name" v="Engerdalen" />
		<tag k="place" v="farm" />
		<tag k="ssr:stedsnr" v="734770" />
	</node>
	<node id="-38329" lat="60.180405748" lon="11.8890179804">
		<tag k="fixme" v="consider place=hamlet" />
		<tag k="name" v="Ånerud" />
		<tag k="place" v="farm" />
		<tag k="ssr:stedsnr" v="734646" />
	</node>
	<node id="-38328" lat="60.2503000009" lon="11.6698583281">
		<tag k="name" v="Korsmoenga" />
		<tag k="place" v="isolated_dwelling" />
		<tag k="ssr:stedsnr" v="734643" />
	</node>
	<node id="-38327" lat="60.2765308823" lon="11.6494263437">
		<tag k="fixme" v="consider place=hamlet" />
		<tag k="name" v="Borgen" />
		<tag k="place" v="farm" />
		<tag k="ssr:stedsnr" v="734611" />
	</node>
	<node id="-38324" lat="60.2698138884" lon="11.6830305587">
		<tag k="name" v="Sørli" />
		<tag k="place" v="farm" />
		<tag k="ssr:stedsnr" v="734566" />
	</node>
	<node id="-38323" lat="60.2703535922" lon="11.6479134071">
		<tag k="fixme" v="consider place=hamlet" />
		<tag k="name" v="Bakli" />
		<tag k="place" v="farm" />
		<tag k="ssr:stedsnr" v="734565" />
	</node>
	<node id="-38321" lat="60.2633472215" lon="11.7714388922">
		<tag k="name" v="Herudslykkja" />
		<tag k="place" v="farm" />
		<tag k="ssr:stedsnr" v="648508" />
	</node>
	<node id="-38317" lat="60.2754000007" lon="11.5930111136">
		<tag k="name" v="Milbråten" />
		<tag k="place" v="locality" />
		<tag k="ssr:stedsnr" v="648070" />
	</node>
	<node id="-38314" lat="60.243538889" lon="11.6684138848">
		<tag k="name" v="Sandnesmoen" />
		<tag k="place" v="isolated_dwelling" />
		<tag k="ssr:stedsnr" v="646857" />
	</node>
	<node id="-38313" lat="60.3247055543" lon="11.6316638926">
		<tag k="name" v="Søndre Brynjulvsrud" />
		<tag k="place" v="farm" />
		<tag k="ssr:stedsnr" v="646726" />
	</node>
	<node id="-38312" lat="60.1840682388" lon="11.8805186654">
		<tag k="fixme" v="consider place=hamlet" />
		<tag k="name" v="Isakrud" />
		<tag k="place" v="farm" />
		<tag k="ssr:stedsnr" v="734087" />
	</node>
	<node id="-38307" lat="60.242630552" lon="11.84486944">
		<tag k="name" v="Kjaberg" />
		<tag k="place" v="farm" />
		<tag k="ssr:stedsnr" v="734039" />
	</node>
	<node id="-38306" lat="60.2346500004" lon="11.8481777695">
		<tag k="name" v="Saraby" />
		<tag k="place" v="farm" />
		<tag k="ssr:stedsnr" v="734006" />
	</node>
	<node id="-38305" lat="60.2414083377" lon="11.8193777702">
		<tag k="alt_name" v="Engbråten" />
		<tag k="name" v="Engebråten" />
		<tag k="place" v="farm" />
		<tag k="ssr:stedsnr" v="733986" />
	</node>
	<node id="-38303" lat="60.1999583295" lon="11.8223999921">
		<tag k="name" v="Bråtalykkja" />
		<tag k="place" v="farm" />
		<tag k="ssr:stedsnr" v="733779" />
	</node>
	<node id="-38302" lat="60.2003500005" lon="11.7472083253">
		<tag k="name" v="Jelsnesvangen" />
		<tag k="place" v="isolated_dwelling" />
		<tag k="ssr:stedsnr" v="733774" />
	</node>
	<node id="-38301" lat="60.0849527787" lon="11.9175500006">
		<tag k="name" v="Sjøenden" />
		<tag k="place" v="isolated_dwelling" />
		<tag k="ssr:stedsnr" v="733729" />
	</node>
	<node id="-38298" lat="60.0879666702" lon="11.84627778">
		<tag k="name" v="Jaraldsaga" />
		<tag k="place" v="isolated_dwelling" />
		<tag k="ssr:stedsnr" v="733716" />
	</node>
	<node id="-38297" lat="60.101344445" lon="11.7927111042">
		<tag k="name" v="Sørli" />
		<tag k="place" v="locality" />
		<tag k="ssr:stedsnr" v="733697" />
	</node>
	<node id="-38296" lat="60.1013138849" lon="11.7293222154">
		<tag k="name" v="Flasaga" />
		<tag k="place" v="farm" />
		<tag k="ssr:stedsnr" v="733688" />
	</node>
	<node id="-38292" lat="60.125561114" lon="11.8397166758">
		<tag k="name" v="Torsrud" />
		<tag k="place" v="farm" />
		<tag k="ssr:stedsnr" v="733645" />
	</node>
	<node id="-38289" lat="60.1604444416" lon="11.6391999982">
		<tag k="name" v="Kvebekk" />
		<tag k="place" v="farm" />
		<tag k="ssr:stedsnr" v="733596" />
	</node>
	<node id="-38288" lat="60.1599750026" lon="11.6268055516">
		<tag k="name" v="Lier" />
		<tag k="place" v="farm" />
		<tag k="ssr:stedsnr" v="733593" />
	</node>
	<node id="-38286" lat="60.073355554" lon="11.7930611173">
		<tag k="name" v="Sætermoen" />
		<tag k="place" v="isolated_dwelling" />
		<tag k="ssr:stedsnr" v="733456" />
	</node>
	<node id="-38285" lat="60.336919442" lon="11.6550361045">
		<tag k="name" v="Årstadengen" />
		<tag k="place" v="isolated_dwelling" />
		<tag k="ssr:stedsnr" v="299598" />
	</node>
	<node id="-38280" lat="60.2278416689" lon="11.759494451">
		<tag k="name" v="Tørmoen" />
		<tag k="place" v="isolated_dwelling" />
		<tag k="ssr:stedsnr" v="726464" />
	</node>
	<node id="-38277" lat="60.2177277736" lon="11.6451194374">
		<tag k="name" v="Amundsrud" />
		<tag k="place" v="farm" />
		<tag k="ssr:stedsnr" v="726143" />
	</node>
	<node id="-38276" lat="60.2365166648" lon="11.6688972194">
		<tag k="name" v="Huken" />
		<tag k="place" v="isolated_dwelling" />
		<tag k="ssr:stedsnr" v="726123" />
	</node>
	<node id="-38275" lat="60.2355083314" lon="11.6425138961">
		<tag k="name" v="Kjøldalssaga" />
		<tag k="place" v="isolated_dwelling" />
		<tag k="ssr:stedsnr" v="726120" />
	</node>
	<node id="-38268" lat="60.2613861081" lon="11.6592472295">
		<tag k="name" v="Indgjerdingen" />
		<tag k="place" v="isolated_dwelling" />
		<tag k="ssr:stedsnr" v="724883" />
	</node>
	<node id="-38267" lat="60.2743777813" lon="11.8061833399">
		<tag k="name" v="Åserud" />
		<tag k="place" v="locality" />
		<tag k="ssr:stedsnr" v="724466" />
	</node>
	<node id="-38262" lat="60.3490500019" lon="11.6505805623">
		<tag k="name" v="Østby" />
		<tag k="place" v="locality" />
		<tag k="ssr:stedsnr" v="724568" />
	</node>
	<node id="-38259" lat="60.1651305534" lon="11.8905416608">
		<tag k="name" v="Ånerudbakken" />
		<tag k="place" v="isolated_dwelling" />
		<tag k="ssr:stedsnr" v="724314" />
	</node>
	<node id="-38254" lat="60.2644555577" lon="11.6816805586">
		<tag k="name" v="Osåsen" />
		<tag k="place" v="quarter" />
		<tag k="ssr:stedsnr" v="722952" />
	</node>
	<node id="-38251" lat="60.3091277744" lon="11.767822217">
		<tag k="name" v="Steinerud" />
		<tag k="place" v="locality" />
		<tag k="ssr:stedsnr" v="722302" />
	</node>
	<node id="-38249" lat="60.3336861095" lon="11.6253583332">
		<tag k="name" v="Jersås" />
		<tag k="place" v="farm" />
		<tag k="ssr:stedsnr" v="613993" />
	</node>
	<node id="-38248" lat="60.3255777766" lon="11.6314166659">
		<tag k="alt_name" v="Nordre Brynjulvsrud" />
		<tag k="name" v="Brynjulfsrud" />
		<tag k="place" v="farm" />
		<tag k="ssr:stedsnr" v="613982" />
	</node>
	<node id="-38244" lat="60.3286861103" lon="11.72425555">
		<tag k="name" v="Hvithammaren" />
		<tag k="place" v="farm" />
		<tag k="ssr:stedsnr" v="613970" />
	</node>
	<node id="-38241" lat="60.2396987066" lon="11.7593236175">
		<tag k="fixme" v="consider place=hamlet" />
		<tag k="name" v="Moen" />
		<tag k="place" v="farm" />
		<tag k="ssr:stedsnr" v="612983" />
	</node>
	<node id="-38240" lat="60.2321220649" lon="11.6139063113">
		<tag k="fixme" v="consider place=hamlet" />
		<tag k="name" v="Steinerud" />
		<tag k="place" v="farm" />
		<tag k="ssr:stedsnr" v="612969" />
	</node>
	<node id="-38239" lat="60.2346055816" lon="11.5841528608">
		<tag k="fixme" v="multiple name tags, choose one and add the other to alt_name" />
		<tag k="name" v="Breiby;Velta" />
		<tag k="place" v="farm" />
		<tag k="ssr:stedsnr" v="612965" />
	</node>
	<node id="-38237" lat="60.186649998" lon="11.6172694457">
		<tag k="name" v="Oppistua" />
		<tag k="place" v="isolated_dwelling" />
		<tag k="ssr:stedsnr" v="612824" />
	</node>
	<node id="-38236" lat="60.180237594" lon="11.5673341291">
		<tag k="fixme" v="consider place=hamlet" />
		<tag k="name" v="Mårud" />
		<tag k="place" v="farm" />
		<tag k="ssr:stedsnr" v="612809" />
	</node>
	<node id="-38234" lat="60.2244750029" lon="11.5935916756">
		<tag k="name" v="Linderud" />
		<tag k="place" v="farm" />
		<tag k="ssr:stedsnr" v="612766" />
	</node>
	<node id="-38232" lat="60.0986666675" lon="11.7697777847">
		<tag k="name" v="Oterbekken" />
		<tag k="place" v="isolated_dwelling" />
		<tag k="ssr:stedsnr" v="612744" />
	</node>
	<node id="-38231" lat="60.2729359335" lon="11.6590857448">
		<tag k="name" v="Nust" />
		<tag k="place" v="hamlet" />
		<tag k="ssr:stedsnr" v="612583" />
	</node>
	<node id="-38227" lat="60.2193138891" lon="11.6166583418">
		<tag k="name" v="Sørli" />
		<tag k="place" v="farm" />
		<tag k="ssr:stedsnr" v="611775" />
	</node>
	<node id="-38226" lat="60.3026000015" lon="11.70303889">
		<tag k="name" v="Innleggen" />
		<tag k="place" v="farm" />
		<tag k="ssr:stedsnr" v="605754" />
	</node>
	<node id="-38225" lat="60.2279333342" lon="11.9032083263">
		<tag k="name" v="Kroken" />
		<tag k="place" v="farm" />
		<tag k="ssr:stedsnr" v="605222" />
	</node>
	<node id="-38221" lat="60.3504666626" lon="11.7119027794">
		<tag k="name" v="Blådamviken" />
		<tag k="place" v="farm" />
		<tag k="ssr:stedsnr" v="603210" />
	</node>
	<node id="-38219" lat="60.3493555533" lon="11.7187166636">
		<tag k="name" v="Langbakk" />
		<tag k="place" v="farm" />
		<tag k="ssr:stedsnr" v="603205" />
	</node>
	<node id="-38218" lat="60.345833331" lon="11.7144777726">
		<tag k="name" v="Granheim" />
		<tag k="place" v="isolated_dwelling" />
		<tag k="ssr:stedsnr" v="603204" />
	</node>
	<node id="-38216" lat="60.2474777813" lon="11.6367472244">
		<tag k="name" v="Teppen" />
		<tag k="place" v="isolated_dwelling" />
		<tag k="ssr:stedsnr" v="603033" />
	</node>
	<node id="-38211" lat="60.301872225" lon="11.6481944437">
		<tag k="name" v="Leirud" />
		<tag k="place" v="farm" />
		<tag k="ssr:stedsnr" v="601604" />
	</node>
	<node id="-38208" lat="60.1555833356" lon="11.6659388954">
		<tag k="name" v="Nyårbogen" />
		<tag k="place" v="farm" />
		<tag k="ssr:stedsnr" v="601185" />
	</node>
	<node id="-38205" lat="60.1906555565" lon="11.880136111">
		<tag k="name" v="Pålsrud" />
		<tag k="place" v="farm" />
		<tag k="ssr:stedsnr" v="710942" />
	</node>
	<node id="-38204" lat="60.2275666624" lon="11.6239555542">
		<tag k="name" v="Bostad" />
		<tag k="place" v="farm" />
		<tag k="ssr:stedsnr" v="588085" />
	</node>
	<node id="-38203" lat="60.2356138926" lon="11.844544445">
		<tag k="name" v="Volla" />
		<tag k="place" v="farm" />
		<tag k="ssr:stedsnr" v="587453" />
	</node>
	<node id="-38199" lat="60.2154250038" lon="11.681411117">
		<tag k="name" v="Lillesetbakken" />
		<tag k="place" v="farm" />
		<tag k="ssr:stedsnr" v="710296" />
	</node>
	<node id="-38197" lat="60.2884555558" lon="11.7468416663">
		<tag k="name" v="Østre Glomsås" />
		<tag k="place" v="farm" />
		<tag k="ssr:stedsnr" v="709760" />
	</node>
	<node id="-38195" lat="60.2887166652" lon="11.7386583278">
		<tag k="name" v="Vestre Glomsås" />
		<tag k="place" v="farm" />
		<tag k="ssr:stedsnr" v="709756" />
	</node>
	<node id="-38194" lat="60.2718416687" lon="11.7103249939">
		<tag k="name" v="Sotbråten" />
		<tag k="place" v="locality" />
		<tag k="ssr:stedsnr" v="709755" />
	</node>
	<node id="-38190" lat="60.2210611111" lon="11.8690027822">
		<tag k="name" v="Fuluhaugen" />
		<tag k="place" v="farm" />
		<tag k="ssr:stedsnr" v="709652" />
	</node>
	<node id="-38189" lat="60.2228944478" lon="11.8434972276">
		<tag k="name" v="Øvre Hernes" />
		<tag k="place" v="farm" />
		<tag k="ssr:stedsnr" v="709446" />
	</node>
	<node id="-38186" lat="60.1775583301" lon="11.8940638904">
		<tag k="name" v="Lille Ånerud" />
		<tag k="place" v="farm" />
		<tag k="ssr:stedsnr" v="709181" />
	</node>
	<node id="-38185" lat="60.2321111093" lon="11.6314083301">
		<tag k="name" v="Perstuen" />
		<tag k="place" v="farm" />
		<tag k="ssr:stedsnr" v="709085" />
	</node>
	<node id="-38183" lat="60.3161416658" lon="11.6576111176">
		<tag k="name" v="Aulihagen" />
		<tag k="place" v="farm" />
		<tag k="ssr:stedsnr" v="707983" />
	</node>
	<node id="-38170" lat="60.2223861088" lon="11.772908337">
		<tag k="name" v="Bekkevoll" />
		<tag k="place" v="farm" />
		<tag k="ssr:stedsnr" v="544447" />
	</node>
	<node id="-38169" lat="60.2164972181" lon="11.7707722179">
		<tag k="name" v="Tussevangen" />
		<tag k="place" v="isolated_dwelling" />
		<tag k="ssr:stedsnr" v="544446" />
	</node>
	<node id="-38167" lat="60.340519442" lon="11.7158027766">
		<tag k="name" v="Vestre Kvisla" />
		<tag k="place" v="isolated_dwelling" />
		<tag k="ssr:stedsnr" v="542581" />
	</node>
	<node id="-38158" lat="60.3489583365" lon="11.7130888843">
		<tag k="name" v="Sjøli" />
		<tag k="place" v="farm" />
		<tag k="ssr:stedsnr" v="542211" />
	</node>
	<node id="-38157" lat="60.351000003" lon="11.7376777746">
		<tag k="name" v="Skogheim" />
		<tag k="place" v="isolated_dwelling" />
		<tag k="ssr:stedsnr" v="542204" />
	</node>
	<node id="-38154" lat="60.3104555525" lon="11.7735472307">
		<tag k="name" v="Åmodt" />
		<tag k="place" v="isolated_dwelling" />
		<tag k="ssr:stedsnr" v="540423" />
	</node>
	<node id="-38153" lat="60.2896611103" lon="11.6410027718">
		<tag k="name" v="Snikerud" />
		<tag k="place" v="quarter" />
		<tag k="ssr:stedsnr" v="529564" />
	</node>
	<node id="-38151" lat="60.2203555546" lon="11.8295000026">
		<tag k="name" v="Hernesmoen" />
		<tag k="place" v="farm" />
		<tag k="ssr:stedsnr" v="526439" />
	</node>
	<node id="-38149" lat="60.3044805598" lon="11.744466668">
		<tag k="name" v="Søbekken" />
		<tag k="place" v="farm" />
		<tag k="ssr:stedsnr" v="525970" />
	</node>
	<node id="-38147" lat="60.1852638889" lon="11.6689361024">
		<tag k="name" v="Sørbråten" />
		<tag k="place" v="farm" />
		<tag k="ssr:stedsnr" v="525202" />
	</node>
	<node id="-38146" lat="60.1813888872" lon="11.5663833392">
		<tag k="building" v="industrial" />
		<tag k="industrial" v="factory" />
		<tag k="name" v="Maarud AS" />
		<tag k="ssr:stedsnr" v="510254" />
	</node>
	<node id="-38145" lat="60.2307250039" lon="11.8454416724">
		<tag k="name" v="Fulusaga" />
		<tag k="place" v="isolated_dwelling" />
		<tag k="ssr:stedsnr" v="491003" />
	</node>
	<node id="-38144" lat="60.2295611142" lon="11.8619527739">
		<tag k="name" v="Moabråten" />
		<tag k="place" v="farm" />
		<tag k="ssr:stedsnr" v="491002" />
	</node>
	<node id="-38143" lat="60.2097249986" lon="11.8936416623">
		<tag k="name" v="Fululykkja" />
		<tag k="place" v="isolated_dwelling" />
		<tag k="ssr:stedsnr" v="490117" />
	</node>
	<node id="-38142" lat="60.3123638851" lon="11.6875194361">
		<tag k="name" v="Dunserud" />
		<tag k="place" v="farm" />
		<tag k="ssr:stedsnr" v="674950" />
	</node>
	<node id="-38141" lat="60.3083583291" lon="11.6409972243">
		<tag k="name" v="Aulibrenna" />
		<tag k="place" v="farm" />
		<tag k="ssr:stedsnr" v="674933" />
	</node>
	<node id="-38140" lat="60.2535388844" lon="11.632580559">
		<tag k="name" v="Brattknippe" />
		<tag k="place" v="farm" />
		<tag k="ssr:stedsnr" v="674595" />
	</node>
	<node id="-38138" lat="60.2398289666" lon="11.7199485429">
		<tag k="fixme" v="consider place=hamlet" />
		<tag k="name" v="Haugset" />
		<tag k="place" v="farm" />
		<tag k="ssr:stedsnr" v="673985" />
	</node>
	<node id="-38137" lat="60.2332555572" lon="11.6757888859">
		<tag k="alt_name" v="Lukmoløkken" />
		<tag k="name" v="Løken" />
		<tag k="place" v="farm" />
		<tag k="ssr:stedsnr" v="673983" />
	</node>
	<node id="-38136" lat="60.2344249982" lon="11.6319055483">
		<tag k="name" v="Perstuen" />
		<tag k="place" v="farm" />
		<tag k="ssr:stedsnr" v="673980" />
	</node>
	<node id="-38135" lat="60.3205500035" lon="11.7368222284">
		<tag k="name" v="Bjørnenga" />
		<tag k="place" v="isolated_dwelling" />
		<tag k="ssr:stedsnr" v="673975" />
	</node>
	<node id="-38134" lat="60.3471805589" lon="11.6417805476">
		<tag k="alt_name" v="Øyen, øvre" />
		<tag k="name" v="Øvre Øyen" />
		<tag k="place" v="farm" />
		<tag k="ssr:stedsnr" v="673886" />
	</node>
	<node id="-38130" lat="60.2012621266" lon="11.5891520728">
		<tag k="fixme" v="consider place=hamlet" />
		<tag k="name" v="Dysterud" />
		<tag k="place" v="farm" />
		<tag k="ssr:stedsnr" v="673771" />
	</node>
	<node id="-38129" lat="60.2211166651" lon="11.6004666721">
		<tag k="name" v="Bjørnholen" />
		<tag k="place" v="isolated_dwelling" />
		<tag k="ssr:stedsnr" v="673758" />
	</node>
	<node id="-38125" lat="60.1438833324" lon="11.6589444362">
		<tag k="name" v="Sydholen" />
		<tag k="place" v="farm" />
		<tag k="ssr:stedsnr" v="673668" />
	</node>
	<node id="-38123" lat="60.2799222185" lon="11.699052784">
		<tag k="name" v="Karterud" />
		<tag k="place" v="isolated_dwelling" />
		<tag k="ssr:stedsnr" v="673573" />
	</node>
	<node id="-38122" lat="60.2859611068" lon="11.7469805517">
		<tag k="name" v="Skogstad" />
		<tag k="place" v="farm" />
		<tag k="ssr:stedsnr" v="673553" />
	</node>
	<node id="-38121" lat="60.2867027754" lon="11.8363388846">
		<tag k="historic" v="shieling" />
		<tag k="name" v="Taulsætra" />
		<tag k="place" v="locality" />
		<tag k="ssr:stedsnr" v="673550" />
	</node>
	<node id="-38120" lat="60.2884129236" lon="11.7386599994">
		<tag k="fixme" v="consider place=hamlet" />
		<tag k="name" v="Glomsås" />
		<tag k="place" v="farm" />
		<tag k="ssr:stedsnr" v="673547" />
	</node>
	<node id="-38118" lat="60.0647333371" lon="11.7902694468">
		<tag k="name" v="Pålerud" />
		<tag k="place" v="farm" />
		<tag k="ssr:stedsnr" v="673542" />
	</node>
	<node id="-38117" lat="60.2681055593" lon="11.6734416702">
		<tag k="name" v="Fjell" />
		<tag k="place" v="farm" />
		<tag k="ssr:stedsnr" v="673527" />
	</node>
	<node id="-38116" lat="60.2700821166" lon="11.661585206">
		<tag k="fixme" v="consider place=hamlet" />
		<tag k="name" v="Stumoen" />
		<tag k="place" v="farm" />
		<tag k="ssr:stedsnr" v="673525" />
	</node>
	<node id="-38109" lat="60.21722222" lon="11.6429388917">
		<tag k="name" v="Ullersmoen" />
		<tag k="place" v="farm" />
		<tag k="ssr:stedsnr" v="483166" />
	</node>
	<node id="-38108" lat="60.2373833333" lon="11.7385666755">
		<tag k="name" v="Østby" />
		<tag k="place" v="isolated_dwelling" />
		<tag k="ssr:stedsnr" v="483157" />
	</node>
	<node id="-38106" lat="60.2151555549" lon="11.6785472224">
		<tag k="building" v="industrial" />
		<tag k="name" v="Sørli" />
		<tag k="ssr:stedsnr" v="483206" />
	</node>
	<node id="-38104" lat="60.2109833337" lon="11.9124666637">
		<tag k="name" v="Håkenstuen" />
		<tag k="place" v="farm" />
		<tag k="ssr:stedsnr" v="673116" />
	</node>
	<node id="-38103" lat="60.1221722183" lon="11.8381694479">
		<tag k="name" v="Torsrud" />
		<tag k="place" v="neighbourhood" />
		<tag k="ssr:stedsnr" v="482826" />
	</node>
	<node id="-38101" lat="60.2291722191" lon="11.8910138835">
		<tag k="name" v="Ås" />
		<tag k="place" v="isolated_dwelling" />
		<tag k="ssr:stedsnr" v="673034" />
	</node>
	<node id="-38100" lat="60.2243944402" lon="11.8552222149">
		<tag k="name" v="Fulumoen" />
		<tag k="place" v="farm" />
		<tag k="ssr:stedsnr" v="673001" />
	</node>
	<node id="-38099" lat="60.1633555539" lon="11.6194777696">
		<tag k="name" v="Tovsetbråten" />
		<tag k="place" v="isolated_dwelling" />
		<tag k="ssr:stedsnr" v="482073" />
	</node>
	<node id="-38095" lat="60.1221583377" lon="11.8195444495">
		<tag k="name" v="Oterlien" />
		<tag k="place" v="locality" />
		<tag k="ssr:stedsnr" v="481654" />
	</node>
	<node id="-38093" lat="60.2124222183" lon="11.7147111186">
		<tag k="name" v="Lillesetsætra" />
		<tag k="place" v="farm" />
		<tag k="ssr:stedsnr" v="672814" />
	</node>
	<node id="-38087" lat="60.2174740272" lon="11.8880981233">
		<tag k="fixme" v="consider place=hamlet" />
		<tag k="name" v="Kvisler" />
		<tag k="place" v="farm" />
		<tag k="ssr:stedsnr" v="672100" />
	</node>
	<node id="-38081" lat="60.3105083302" lon="11.7342861142">
		<tag k="name" v="Bygningen" />
		<tag k="place" v="farm" />
		<tag k="ssr:stedsnr" v="465977" />
	</node>
	<node id="-38078" lat="60.3075527774" lon="11.7023194441">
		<tag k="name" v="Kjølstadløkken" />
		<tag k="place" v="isolated_dwelling" />
		<tag k="ssr:stedsnr" v="465972" />
	</node>
	<node id="-38073" lat="60.2795722251" lon="11.6653138931">
		<tag k="name" v="Nordli" />
		<tag k="place" v="farm" />
		<tag k="ssr:stedsnr" v="464753" />
	</node>
	<node id="-38071" lat="60.2404972183" lon="11.8361916623">
		<tag k="name" v="Nystua" />
		<tag k="place" v="farm" />
		<tag k="ssr:stedsnr" v="464402" />
	</node>
	<node id="-38061" lat="60.2995749964" lon="11.6468472295">
		<tag k="name" v="Brenna" />
		<tag k="place" v="isolated_dwelling" />
		<tag k="ssr:stedsnr" v="663792" />
	</node>
	<node id="-38060" lat="60.1520083366" lon="11.8697666657">
		<tag k="name" v="Klausstuvangen" />
		<tag k="place" v="isolated_dwelling" />
		<tag k="ssr:stedsnr" v="663632" />
	</node>
	<node id="-38059" lat="60.3362888866" lon="11.7257583389">
		<tag k="name" v="Søndre Jonsrud" />
		<tag k="place" v="farm" />
		<tag k="ssr:stedsnr" v="663601" />
	</node>
	<node id="-38058" lat="60.3241222265" lon="11.7298944395">
		<tag k="name" v="Gunhilda" />
		<tag k="place" v="locality" />
		<tag k="ssr:stedsnr" v="663600" />
	</node>
	<node id="-38054" lat="60.303402778" lon="11.8021888834">
		<tag k="name" v="Hagakoia" />
		<tag k="place" v="locality" />
		<tag k="ssr:stedsnr" v="662451" />
	</node>
	<node id="-38053" lat="60.3094805594" lon="11.7785250014">
		<tag k="name" v="Arnerud" />
		<tag k="place" v="isolated_dwelling" />
		<tag k="ssr:stedsnr" v="662446" />
	</node>
	<node id="-38052" lat="60.3082777762" lon="11.7809305625">
		<tag k="name" v="Isakrud" />
		<tag k="place" v="isolated_dwelling" />
		<tag k="ssr:stedsnr" v="662445" />
	</node>
	<node id="-38051" lat="60.3094694429" lon="11.7722472223">
		<tag k="name" v="Saghaugen" />
		<tag k="place" v="isolated_dwelling" />
		<tag k="ssr:stedsnr" v="662443" />
	</node>
	<node id="-38049" lat="60.170149996" lon="11.8703222189">
		<tag k="fixme" v="multiple name tags, choose one and add the other to alt_name" />
		<tag k="name" v="Haratun;Hiltonbråten" />
		<tag k="place" v="farm" />
		<tag k="ssr:stedsnr" v="431621" />
	</node>
	<node id="-38048" lat="60.2539142919" lon="11.6848560794">
		<tag k="name" v="Skarnes" />
		<tag k="place" v="village" />
		<tag k="ssr:stedsnr" v="431620" />
	</node>
	<node id="-38046" lat="60.2381611391" lon="11.8619622329">
		<tag k="fixme" v="consider place=hamlet" />
		<tag k="name" v="Sæter" />
		<tag k="place" v="farm" />
		<tag k="ssr:stedsnr" v="431051" />
	</node>
	<node id="-38043" lat="60.1550777789" lon="11.7031833263">
		<tag k="name" v="Torget" />
		<tag k="place" v="isolated_dwelling" />
		<tag k="ssr:stedsnr" v="430645" />
	</node>
	<node id="-38042" lat="60.1536388902" lon="11.6384444413">
		<tag k="alt_name" v="Hyttmarken" />
		<tag k="name" v="Hyttmarka" />
		<tag k="old_name" v="Hytmarken" />
		<tag k="place" v="farm" />
		<tag k="ssr:stedsnr" v="430640" />
	</node>
	<node id="-38041" lat="60.1918833316" lon="11.8540499956">
		<tag k="name" v="Brustad" />
		<tag k="place" v="farm" />
		<tag k="ssr:stedsnr" v="423711" />
	</node>
	<node id="-38040" lat="60.2627138928" lon="11.8143611031">
		<tag k="name" v="Nedre Døli" />
		<tag k="place" v="farm" />
		<tag k="ssr:stedsnr" v="423543" />
	</node>
	<node id="-38036" lat="60.2470277747" lon="11.8764638908">
		<tag k="name" v="Løkken" />
		<tag k="place" v="farm" />
		<tag k="ssr:stedsnr" v="423134" />
	</node>
	<node id="-38035" lat="60.2240583347" lon="11.6638999965">
		<tag k="name" v="Sandnes" />
		<tag k="place" v="farm" />
		<tag k="ssr:stedsnr" v="423127" />
	</node>
	<node id="-38029" lat="60.2859972189" lon="11.6832527838">
		<tag k="name" v="Nordli" />
		<tag k="place" v="locality" />
		<tag k="ssr:stedsnr" v="421805" />
	</node>
	<node id="-38023" lat="60.3488555599" lon="11.7302388818">
		<tag k="name" v="Bråtahagan" />
		<tag k="place" v="isolated_dwelling" />
		<tag k="ssr:stedsnr" v="421210" />
	</node>
	<node id="-38022" lat="60.3521361079" lon="11.7332555624">
		<tag k="name" v="Rognstad" />
		<tag k="place" v="isolated_dwelling" />
		<tag k="ssr:stedsnr" v="421203" />
	</node>
	<node id="-38019" lat="60.1823083294" lon="11.6410805586">
		<tag k="name" v="Sæterbråten" />
		<tag k="place" v="isolated_dwelling" />
		<tag k="ssr:stedsnr" v="419202" />
	</node>
	<node id="-38018" lat="60.227519448" lon="11.5920861064">
		<tag k="name" v="Langgard" />
		<tag k="place" v="farm" />
		<tag k="ssr:stedsnr" v="406072" />
	</node>
	<node id="-38017" lat="60.2175638923" lon="11.6387833265">
		<tag k="name" v="Oleamoen" />
		<tag k="place" v="farm" />
		<tag k="ssr:stedsnr" v="406069" />
	</node>
	<node id="-38016" lat="60.2912611071" lon="11.7358444385">
		<tag k="name" v="Brattvoll" />
		<tag k="place" v="isolated_dwelling" />
		<tag k="ssr:stedsnr" v="405808" />
	</node>
	<node id="-38011" lat="60.2570333375" lon="11.6681722196">
		<tag k="amenity" v="nursing_home" />
		<tag k="name" v="Sør-Odal Alders- og sykehjem" />
		<tag k="ssr:stedsnr" v="404864" />
	</node>
	<node id="-38010" lat="60.2562055568" lon="11.6634333377">
		<tag k="name" v="Graner" />
		<tag k="place" v="isolated_dwelling" />
		<tag k="ssr:stedsnr" v="404861" />
	</node>
	<node id="-38009" lat="60.3045111089" lon="11.7566944389">
		<tag k="name" v="Engen" />
		<tag k="place" v="farm" />
		<tag k="ssr:stedsnr" v="404973" />
	</node>
	<node id="-38008" lat="60.3231277757" lon="11.6546055565">
		<tag k="name" v="Auliengen" />
		<tag k="place" v="farm" />
		<tag k="ssr:stedsnr" v="404968" />
	</node>
	<node id="-38007" lat="60.3047222246" lon="11.6769833406">
		<tag k="name" v="Nedre Nylenda" />
		<tag k="place" v="farm" />
		<tag k="ssr:stedsnr" v="404963" />
	</node>
	<node id="-38001" lat="60.2373194466" lon="11.8232472166">
		<tag k="name" v="Østre Leikvang" />
		<tag k="place" v="farm" />
		<tag k="ssr:stedsnr" v="403365" />
	</node>
	<node id="-37998" lat="60.2556333314" lon="11.849727772">
		<tag k="name" v="Tauglsinngjerdinga" />
		<tag k="place" v="farm" />
		<tag k="ssr:stedsnr" v="403359" />
	</node>
	<node id="-37997" lat="60.2561694435" lon="11.8307444407">
		<tag k="name" v="Nesteby" />
		<tag k="place" v="farm" />
		<tag k="ssr:stedsnr" v="403357" />
	</node>
	<node id="-37996" lat="60.2974166695" lon="11.7854972278">
		<tag k="name" v="Holen" />
		<tag k="place" v="farm" />
		<tag k="ssr:stedsnr" v="370959" />
	</node>
	<node id="-37995" lat="60.2983554181" lon="11.6644108837">
		<tag k="alt_name" v="Skulstad, nordre" />
		<tag k="fixme" v="consider place=hamlet" />
		<tag k="name" v="Nordre Skulstad" />
		<tag k="place" v="farm" />
		<tag k="ssr:stedsnr" v="370956" />
	</node>
	<node id="-37994" lat="60.3625611136" lon="11.6242194398">
		<tag k="name" v="Bergenden" />
		<tag k="place" v="isolated_dwelling" />
		<tag k="ssr:stedsnr" v="370915" />
	</node>
	<node id="-37990" lat="60.1464638886" lon="11.6633555554">
		<tag k="name" v="Skredderstua" />
		<tag k="place" v="farm" />
		<tag k="ssr:stedsnr" v="369610" />
	</node>
	<node id="-37989" lat="60.3148694401" lon="11.6936000039">
		<tag k="name" v="Nordby" />
		<tag k="place" v="farm" />
		<tag k="ssr:stedsnr" v="492950" />
	</node>
	<node id="-37988" lat="60.30311389" lon="11.6412111134">
		<tag k="name" v="Vetterud" />
		<tag k="place" v="farm" />
		<tag k="ssr:stedsnr" v="492937" />
	</node>
	<node id="-37985" lat="60.1833333366" lon="11.8691111036">
		<tag k="name" v="Isakrudbråten" />
		<tag k="place" v="isolated_dwelling" />
		<tag k="ssr:stedsnr" v="362706" />
	</node>
	<node id="-37980" lat="60.3393361094" lon="11.7251638923">
		<tag k="name" v="Nordre Jonsrud" />
		<tag k="place" v="farm" />
		<tag k="ssr:stedsnr" v="360574" />
	</node>
	<node id="-37973" lat="60.2164388918" lon="11.5845222234">
		<tag k="name" v="Hansbråten" />
		<tag k="place" v="farm" />
		<tag k="ssr:stedsnr" v="358075" />
	</node>
	<node id="-37972" lat="60.2432958106" lon="11.7094588087">
		<tag k="fixme" v="consider place=hamlet" />
		<tag k="name" v="Einerud" />
		<tag k="place" v="farm" />
		<tag k="ssr:stedsnr" v="491997" />
	</node>
	<node id="-37971" lat="60.2425861136" lon="11.6900166631">
		<tag k="alt_name" v="Damlien" />
		<tag k="name" v="Damlia" />
		<tag k="place" v="farm" />
		<tag k="ssr:stedsnr" v="491995" />
	</node>
	<node id="-37970" lat="60.2408043074" lon="11.6361857543">
		<tag k="name" v="Flaen" />
		<tag k="place" v="farm" />
		<tag k="ssr:stedsnr" v="491990" />
	</node>
	<node id="-37967" lat="60.2369341144" lon="11.7243403193">
		<tag k="fixme" v="consider place=hamlet" />
		<tag k="name" v="Kjelsbøl" />
		<tag k="place" v="farm" />
		<tag k="ssr:stedsnr" v="491986" />
	</node>
	<node id="-37966" lat="60.2306388899" lon="11.7427805523">
		<tag k="name" v="Inngjerd" />
		<tag k="place" v="farm" />
		<tag k="ssr:stedsnr" v="491983" />
	</node>
	<node id="-37965" lat="60.2976888854" lon="11.6367361176">
		<tag k="name" v="Tømterud" />
		<tag k="place" v="farm" />
		<tag k="ssr:stedsnr" v="491948" />
	</node>
	<node id="-37964" lat="60.3439638915" lon="11.7230666656">
		<tag k="name" v="Lykkjer" />
		<tag k="place" v="farm" />
		<tag k="ssr:stedsnr" v="491883" />
	</node>
	<node id="-37962" lat="60.1816545683" lon="11.6178986852">
		<tag k="alt_name" v="Øvre Sæter" />
		<tag k="name" v="Sæter" />
		<tag k="place" v="hamlet" />
		<tag k="ssr:stedsnr" v="491869" />
	</node>
	<node id="-37961" lat="60.180180555" lon="11.734780552">
		<tag k="name" v="Knutabu" />
		<tag k="place" v="isolated_dwelling" />
		<tag k="ssr:stedsnr" v="491867" />
	</node>
	<node id="-37958" lat="60.2258555519" lon="11.835677786">
		<tag k="name" v="Hernes" />
		<tag k="place" v="farm" />
		<tag k="ssr:stedsnr" v="491765" />
	</node>
	<node id="-37957" lat="60.2236888929" lon="11.6041444522">
		<tag k="name" v="Solberg" />
		<tag k="place" v="farm" />
		<tag k="ssr:stedsnr" v="491756" />
	</node>
	<node id="-37956" lat="60.2202249982" lon="11.8072472164">
		<tag k="name" v="Sanderlia" />
		<tag k="place" v="farm" />
		<tag k="ssr:stedsnr" v="491749" />
	</node>
	<node id="-37954" lat="60.1167111107" lon="11.7557472261">
		<tag k="name" v="Brenna" />
		<tag k="place" v="farm" />
		<tag k="ssr:stedsnr" v="491701" />
	</node>
	<node id="-37951" lat="60.1238472203" lon="11.7723027715">
		<tag k="name" v="Skårillbekken" />
		<tag k="place" v="farm" />
		<tag k="ssr:stedsnr" v="491690" />
	</node>
	<node id="-37950" lat="60.1700194417" lon="11.8765555592">
		<tag k="name" v="Ånerudbråten" />
		<tag k="place" v="farm" />
		<tag k="ssr:stedsnr" v="491614" />
	</node>
	<node id="-37949" lat="60.2782250045" lon="11.5702749981">
		<tag k="name" v="Fjølungen" />
		<tag k="place" v="isolated_dwelling" />
		<tag k="ssr:stedsnr" v="491582" />
	</node>
	<node id="-37948" lat="60.2911583319" lon="11.728447228">
		<tag k="alt_name" v="Nordre Hellerud" />
		<tag k="name" v="Hellerud" />
		<tag k="place" v="farm" />
		<tag k="ssr:stedsnr" v="491565" />
	</node>
	<node id="-37946" lat="60.2878361126" lon="11.6606361124">
		<tag k="alt_name" v="Vestbymoen" />
		<tag k="name" v="Moa" />
		<tag k="place" v="farm" />
		<tag k="ssr:stedsnr" v="491558" />
	</node>
	<node id="-37943" lat="60.270580558" lon="11.7052416581">
		<tag k="name" v="Pålrud" />
		<tag k="place" v="farm" />
		<tag k="ssr:stedsnr" v="491537" />
	</node>
	<node id="-37942" lat="60.2636114937" lon="11.8140012005">
		<tag k="alt_name" v="Øvre Døli" />
		<tag k="fixme" v="consider place=hamlet" />
		<tag k="name" v="Døli" />
		<tag k="place" v="farm" />
		<tag k="ssr:stedsnr" v="491534" />
	</node>
	<node id="-37941" lat="60.076636115" lon="11.8198611071">
		<tag k="fixme" v="multiple name tags, choose one and add the other to alt_name" />
		<tag k="name" v="Hvitvassbu;Tranghytta" />
		<tag k="place" v="isolated_dwelling" />
		<tag k="ssr:stedsnr" v="491532" />
	</node>
	<node id="-37939" lat="60.29114167" lon="11.8881083263">
		<tag k="historic" v="shieling" />
		<tag k="name" v="Sundbysætra" />
		<tag k="place" v="locality" />
		<tag k="ssr:stedsnr" v="491514" />
	</node>
	<node id="-37936" lat="60.2496444483" lon="11.87809166">
		<tag k="alt_name" v="Piksrud" />
		<tag k="name" v="Peksrud" />
		<tag k="place" v="isolated_dwelling" />
		<tag k="ssr:stedsnr" v="491449" />
	</node>
	<node id="-37935" lat="60.2510542816" lon="11.8639684418">
		<tag k="alt_name" v="Odalsværk" />
		<tag k="name" v="Odals Verk" />
		<tag k="place" v="hamlet" />
		<tag k="ssr:stedsnr" v="491442" />
	</node>
	<node id="-37932" lat="60.2082277771" lon="11.6071555636">
		<tag k="name" v="Hylterud" />
		<tag k="place" v="farm" />
		<tag k="ssr:stedsnr" v="490802" />
	</node>
	<node id="-37931" lat="60.2063916643" lon="11.59879445">
		<tag k="name" v="Dysterudmoen" />
		<tag k="place" v="farm" />
		<tag k="ssr:stedsnr" v="490801" />
	</node>
	<node id="-37929" lat="60.1997555555" lon="11.6217138958">
		<tag k="name" v="Delbekk" />
		<tag k="place" v="farm" />
		<tag k="ssr:stedsnr" v="490784" />
	</node>
	<node id="-37927" lat="60.1640250011" lon="11.6486916676">
		<tag k="name" v="Solvang" />
		<tag k="place" v="farm" />
		<tag k="ssr:stedsnr" v="490616" />
	</node>
	<node id="-37925" lat="60.136974996" lon="11.8587999959">
		<tag k="historic" v="shieling" />
		<tag k="name" v="Sætra" />
		<tag k="place" v="locality" />
		<tag k="ssr:stedsnr" v="490568" />
	</node>
	<node id="-37924" lat="60.157127779" lon="11.8880250059">
		<tag k="name" v="Heiberg" />
		<tag k="place" v="farm" />
		<tag k="ssr:stedsnr" v="490558" />
	</node>
	<node id="-37921" lat="60.217625004" lon="11.862438889">
		<tag k="alt_name" v="Fulu, vesle" />
		<tag k="name" v="Vesle Fulu" />
		<tag k="place" v="farm" />
		<tag k="ssr:stedsnr" v="490023" />
	</node>
	<node id="-37919" lat="60.1109750041" lon="11.8107750015">
		<tag k="name" v="Negarden" />
		<tag k="place" v="farm" />
		<tag k="ssr:stedsnr" v="344724" />
	</node>
	<node id="-37918" lat="60.2307833316" lon="11.8190750025">
		<tag k="name" v="Sundby" />
		<tag k="place" v="farm" />
		<tag k="ssr:stedsnr" v="344460" />
	</node>
	<node id="-37917" lat="60.2363666637" lon="11.8501861097">
		<tag k="name" v="Dammen" />
		<tag k="place" v="isolated_dwelling" />
		<tag k="ssr:stedsnr" v="344457" />
	</node>
	<node id="-37913" lat="60.2213083345" lon="11.7595055527">
		<tag k="name" v="Fritsvollhaugen" />
		<tag k="place" v="farm" />
		<tag k="ssr:stedsnr" v="483487" />
	</node>
	<node id="-37912" lat="60.2216500044" lon="11.7650722226">
		<tag k="name" v="Sjøli" />
		<tag k="place" v="isolated_dwelling" />
		<tag k="ssr:stedsnr" v="483484" />
	</node>
	<node id="-37911" lat="60.2168527802" lon="11.7838277788">
		<tag k="name" v="Melby" />
		<tag k="place" v="farm" />
		<tag k="ssr:stedsnr" v="483482" />
	</node>
	<node id="-37909" lat="60.1604138879" lon="11.8796416583">
		<tag k="name" v="Teppebo" />
		<tag k="place" v="locality" />
		<tag k="ssr:stedsnr" v="482342" />
	</node>
	<node id="-37908" lat="60.1632750032" lon="11.8810388921">
		<tag k="name" v="Henningsrud" />
		<tag k="place" v="locality" />
		<tag k="ssr:stedsnr" v="482340" />
	</node>
	<node id="-37906" lat="60.2939166683" lon="11.6372472238">
		<tag k="name" v="Sitterud" />
		<tag k="place" v="farm" />
		<tag k="ssr:stedsnr" v="482043" />
	</node>
	<node id="-37902" lat="60.1712527816" lon="11.6105944527">
		<tag k="name" v="Nedre Haugslia" />
		<tag k="place" v="farm" />
		<tag k="ssr:stedsnr" v="482080" />
	</node>
	<node id="-37901" lat="60.1660027814" lon="11.6130833331">
		<tag k="name" v="Skoglyhøy" />
		<tag k="place" v="farm" />
		<tag k="ssr:stedsnr" v="482079" />
	</node>
	<node id="-37900" lat="60.2829666666" lon="11.6877027855">
		<tag k="name" v="Bråtan" />
		<tag k="place" v="locality" />
		<tag k="ssr:stedsnr" v="481783" />
	</node>
	<node id="-37893" lat="60.2778666625" lon="11.7764583269">
		<tag k="name" v="Nymoen" />
		<tag k="place" v="farm" />
		<tag k="ssr:stedsnr" v="481515" />
	</node>
	<node id="-37892" lat="60.2956222226" lon="11.7852583337">
		<tag k="name" v="Nord-Sjøviken" />
		<tag k="place" v="farm" />
		<tag k="ssr:stedsnr" v="481511" />
	</node>
	<node id="-37891" lat="60.2157305569" lon="11.7898638921">
		<tag k="alt_name" v="Rustad" />
		<tag k="name" v="Østre Raustad" />
		<tag k="place" v="farm" />
		<tag k="ssr:stedsnr" v="481628" />
	</node>
	<node id="-37890" lat="60.3434527795" lon="11.7146777724">
		<tag k="name" v="Kvislavangen" />
		<tag k="place" v="farm" />
		<tag k="ssr:stedsnr" v="481592" />
	</node>
	<node id="-37886" lat="60.1197777794" lon="11.7690249979">
		<tag k="name" v="Sæterlisjøen" />
		<tag k="place" v="isolated_dwelling" />
		<tag k="ssr:stedsnr" v="309703" />
	</node>
	<node id="-37885" lat="60.1178555533" lon="11.7925277842">
		<tag k="name" v="Nygard" />
		<tag k="place" v="farm" />
		<tag k="ssr:stedsnr" v="309702" />
	</node>
	<node id="-37884" lat="60.1984250044" lon="11.6514138853">
		<tag k="name" v="Våg" />
		<tag k="place" v="farm" />
		<tag k="ssr:stedsnr" v="308839" />
	</node>
	<node id="-37882" lat="60.2152838467" lon="11.7897032996">
		<tag k="alt_name" v="Raustad" />
		<tag k="fixme" v="consider place=hamlet" />
		<tag k="name" v="Rustad" />
		<tag k="place" v="farm" />
		<tag k="ssr:stedsnr" v="308810" />
	</node>
	<node id="-37881" lat="60.2112277791" lon="11.6763500023">
		<tag k="name" v="Åmotbråten" />
		<tag k="place" v="farm" />
		<tag k="ssr:stedsnr" v="308806" />
	</node>
	<node id="-37876" lat="60.2374999965" lon="11.6696833366">
		<tag k="leisure" v="pitch" />
		<tag k="name" v="Sandnesmoen Travbane" />
		<tag k="ssr:stedsnr" v="302155" />
	</node>
	<node id="-37871" lat="60.2106416672" lon="11.6709666657">
		<tag k="name" v="Runni" />
		<tag k="place" v="farm" />
		<tag k="ssr:stedsnr" v="301153" />
	</node>
	<node id="-37870" lat="60.2724083341" lon="11.7955305607">
		<tag k="name" v="Langnesholmen" />
		<tag k="place" v="isolated_dwelling" />
		<tag k="ssr:stedsnr" v="300521" />
	</node>
	<node id="-37869" lat="60.2698916666" lon="11.7632638973">
		<tag k="name" v="Nordli" />
		<tag k="place" v="farm" />
		<tag k="ssr:stedsnr" v="300518" />
	</node>
	<node id="-37860" lat="60.3411916711" lon="11.7229583311">
		<tag k="name" v="Øverjordet" />
		<tag k="place" v="farm" />
		<tag k="ssr:stedsnr" v="299605" />
	</node>
	<node id="-37859" lat="60.2414194444" lon="11.6337166644">
		<tag k="name" v="Spiksetflaen" />
		<tag k="place" v="farm" />
		<tag k="ssr:stedsnr" v="468529" />
	</node>
	<node id="-37858" lat="60.3299916697" lon="11.7860277797">
		<tag k="name" v="Årstadkoia" />
		<tag k="place" v="isolated_dwelling" />
		<tag k="ssr:stedsnr" v="468498" />
	</node>
	<node id="-37857" lat="60.1288944415" lon="11.7517833281">
		<tag k="name" v="Korsfløyta" />
		<tag k="place" v="locality" />
		<tag k="ssr:stedsnr" v="467512" />
	</node>
	<node id="-37856" lat="60.3257361105" lon="11.6526361095">
		<tag k="name" v="Linna" />
		<tag k="place" v="isolated_dwelling" />
		<tag k="ssr:stedsnr" v="466936" />
	</node>
	<node id="-37855" lat="60.2739638933" lon="11.745358331">
		<tag k="name" v="Bretterud" />
		<tag k="place" v="farm" />
		<tag k="ssr:stedsnr" v="466789" />
	</node>
	<node id="-37849" lat="60.1833166625" lon="11.8956027747">
		<tag k="name" v="Kvernstuen" />
		<tag k="place" v="farm" />
		<tag k="ssr:stedsnr" v="466189" />
	</node>
	<node id="-37848" lat="60.1874194483" lon="11.876047223">
		<tag k="name" v="Haget" />
		<tag k="place" v="isolated_dwelling" />
		<tag k="ssr:stedsnr" v="466187" />
	</node>
	<node id="-37847" lat="60.187858329" lon="11.8814888866">
		<tag k="name" v="Sakrisrud" />
		<tag k="place" v="isolated_dwelling" />
		<tag k="ssr:stedsnr" v="466184" />
	</node>
	<node id="-37846" lat="60.2307138909" lon="11.6057250086">
		<tag k="name" v="Steinerudstua" />
		<tag k="place" v="farm" />
		<tag k="ssr:stedsnr" v="466079" />
	</node>
	<node id="-37844" lat="60.2450833302" lon="11.7066111066">
		<tag k="name" v="Skarneshaugen" />
		<tag k="place" v="farm" />
		<tag k="ssr:stedsnr" v="465886" />
	</node>
	<node id="-37836" lat="60.2480305582" lon="11.8421333279">
		<tag k="name" v="Øvre Vestby" />
		<tag k="place" v="farm" />
		<tag k="ssr:stedsnr" v="464400" />
	</node>
	<node id="-37834" lat="60.2143833369" lon="11.6823555513">
		<tag k="name" v="Lillesetbakken" />
		<tag k="place" v="farm" />
		<tag k="ssr:stedsnr" v="286471" />
	</node>
	<node id="-37833" lat="60.3059944457" lon="11.677591671">
		<tag k="name" v="Århus" />
		<tag k="place" v="isolated_dwelling" />
		<tag k="ssr:stedsnr" v="458080" />
	</node>
	<node id="-37825" lat="60.2303333337" lon="11.5831000031">
		<tag k="name" v="Brugård" />
		<tag k="place" v="locality" />
		<tag k="ssr:stedsnr" v="241609" />
	</node>
	<node id="-37823" lat="60.2204166668" lon="11.7757694397">
		<tag k="name" v="Rønningen" />
		<tag k="place" v="farm" />
		<tag k="ssr:stedsnr" v="241422" />
	</node>
	<node id="-37822" lat="60.2302000023" lon="11.7961361158">
		<tag k="name" v="Hansstumoen" />
		<tag k="place" v="farm" />
		<tag k="ssr:stedsnr" v="241415" />
	</node>
	<node id="-37821" lat="60.2488861131" lon="11.8085194415">
		<tag k="name" v="Melstrømbråten" />
		<tag k="place" v="isolated_dwelling" />
		<tag k="ssr:stedsnr" v="241412" />
	</node>
	<node id="-37820" lat="60.2430166704" lon="11.8048611099">
		<tag k="name" v="Nordstrøm" />
		<tag k="place" v="farm" />
		<tag k="ssr:stedsnr" v="241410" />
	</node>
	<node id="-37819" lat="60.2563222252" lon="11.7698055608">
		<tag k="name" v="Jerstadenga" />
		<tag k="place" v="isolated_dwelling" />
		<tag k="ssr:stedsnr" v="241406" />
	</node>
	<node id="-37816" lat="60.3561611086" lon="11.7376750048">
		<tag k="name" v="Holen" />
		<tag k="place" v="isolated_dwelling" />
		<tag k="ssr:stedsnr" v="239208" />
	</node>
	<node id="-37814" lat="60.1665500011" lon="11.7757222308">
		<tag k="fixme" v="consider tourism=alpine_hut or tourism=chalet" />
		<tag k="name" v="Bergersætra" />
		<tag k="ssr:stedsnr" v="218509" />
		<tag k="tourism" v="wilderness_hut" />
	</node>
	<node id="-37806" lat="60.1994388849" lon="11.6643083381">
		<tag k="name" v="Åsenga" />
		<tag k="place" v="farm" />
		<tag k="ssr:stedsnr" v="187831" />
	</node>
	<node id="-37803" lat="60.2438999976" lon="11.6449416595">
		<tag k="name" v="Østre Spikset" />
		<tag k="place" v="farm" />
		<tag k="ssr:stedsnr" v="286585" />
	</node>
	<node id="-37802" lat="60.2450222231" lon="11.6337361068">
		<tag k="fixme" v="consider place=hamlet" />
		<tag k="name" v="Spikset" />
		<tag k="place" v="farm" />
		<tag k="ssr:stedsnr" v="286581" />
	</node>
	<node id="-37798" lat="60.1884444488" lon="11.8759749968">
		<tag k="name" v="Stensrud" />
		<tag k="place" v="isolated_dwelling" />
		<tag k="ssr:stedsnr" v="285191" />
	</node>
	<node id="-37797" lat="60.1892972256" lon="11.8747805601">
		<tag k="name" v="Bergerud" />
		<tag k="place" v="isolated_dwelling" />
		<tag k="ssr:stedsnr" v="285189" />
	</node>
	<node id="-37796" lat="60.3022527751" lon="11.7064833348">
		<tag k="name" v="Vikerhaugen" />
		<tag k="place" v="farm" />
		<tag k="ssr:stedsnr" v="180769" />
	</node>
	<node id="-37792" lat="60.2102361068" lon="11.6688250086">
		<tag k="name" v="Kvernhaugen" />
		<tag k="place" v="farm" />
		<tag k="ssr:stedsnr" v="180171" />
	</node>
	<node id="-37791" lat="60.239016664" lon="11.6203166642">
		<tag k="name" v="Vestaberg" />
		<tag k="place" v="farm" />
		<tag k="ssr:stedsnr" v="180062" />
	</node>
	<node id="-37780" lat="60.3544555574" lon="11.7340527818">
		<tag k="name" v="Øvre Slåstadbråten" />
		<tag k="place" v="farm" />
		<tag k="ssr:stedsnr" v="178209" />
	</node>
	<node id="-37775" lat="60.193850004" lon="11.8098222147">
		<tag k="name" v="Gjermundsrud" />
		<tag k="place" v="locality" />
		<tag k="ssr:stedsnr" v="284717" />
	</node>
	<node id="-37771" lat="60.2000000046" lon="11.8270277723">
		<tag k="name" v="Mellem" />
		<tag k="place" v="isolated_dwelling" />
		<tag k="ssr:stedsnr" v="284692" />
	</node>
	<node id="-37770" lat="60.2211944464" lon="11.8026277693">
		<tag k="name" v="Sanderhamna" />
		<tag k="place" v="farm" />
		<tag k="ssr:stedsnr" v="284486" />
	</node>
	<node id="-37769" lat="60.3197722182" lon="11.7269194389">
		<tag k="fixme" v="consider natural=beach + surface=sand" />
		<tag k="leisure" v="swimming_area" />
		<tag k="name" v="Sagalandet" />
		<tag k="place" v="locality" />
		<tag k="ssr:stedsnr" v="283999" />
	</node>
	<node id="-37766" lat="60.2549944419" lon="11.6744166633">
		<tag k="amenity" v="school" />
		<tag k="name" v="Helsehuset" />
		<tag k="ssr:stedsnr" v="283871" />
	</node>
	<node id="-37765" lat="60.2472583312" lon="11.7526333302">
		<tag k="name" v="Vegum" />
		<tag k="place" v="farm" />
		<tag k="ssr:stedsnr" v="283868" />
	</node>
	<node id="-37764" lat="60.3234944402" lon="11.6404083295">
		<tag k="name" v="Farsetåsløkken" />
		<tag k="place" v="locality" />
		<tag k="ssr:stedsnr" v="283837" />
	</node>
	<node id="-37760" lat="60.1887611072" lon="11.6705861109">
		<tag k="name" v="Nordre Bråten" />
		<tag k="place" v="farm" />
		<tag k="ssr:stedsnr" v="283155" />
	</node>
	<node id="-37759" lat="60.2801138931" lon="11.6588583425">
		<tag k="name" v="Søndre Vestby" />
		<tag k="place" v="farm" />
		<tag k="ssr:stedsnr" v="282722" />
	</node>
	<node id="-37757" lat="60.2476000003" lon="11.7774555583">
		<tag k="name" v="Solheim" />
		<tag k="place" v="farm" />
		<tag k="ssr:stedsnr" v="282382" />
	</node>
	<node id="-37756" lat="60.2483777783" lon="11.7621111025">
		<tag k="name" v="Hag" />
		<tag k="place" v="farm" />
		<tag k="ssr:stedsnr" v="282375" />
	</node>
	<node id="-37755" lat="60.2392972236" lon="11.863319453">
		<tag k="name" v="Sæterlykkja" />
		<tag k="place" v="farm" />
		<tag k="ssr:stedsnr" v="282368" />
	</node>
	<node id="-37754" lat="60.2451555561" lon="11.8349777724">
		<tag k="name" v="Smedlykkja" />
		<tag k="place" v="farm" />
		<tag k="ssr:stedsnr" v="282364" />
	</node>
	<node id="-37753" lat="60.2509944482" lon="11.8300805495">
		<tag k="name" v="Stenberg" />
		<tag k="place" v="isolated_dwelling" />
		<tag k="ssr:stedsnr" v="282361" />
	</node>
	<node id="-37749" lat="60.2903805595" lon="11.7370472214">
		<tag k="name" v="Norderud" />
		<tag k="place" v="isolated_dwelling" />
		<tag k="ssr:stedsnr" v="162808" />
	</node>
	<node id="-37746" lat="60.3534944483" lon="11.6284055527">
		<tag k="name" v="Bråten" />
		<tag k="place" v="isolated_dwelling" />
		<tag k="ssr:stedsnr" v="161758" />
	</node>
	<node id="-37745" lat="60.2579499964" lon="11.854955551">
		<tag k="name" v="Lilja" />
		<tag k="place" v="farm" />
		<tag k="ssr:stedsnr" v="161371" />
	</node>
	<node id="-37741" lat="60.2457388853" lon="11.6683138958">
		<tag k="name" v="Snekkermoen" />
		<tag k="place" v="farm" />
		<tag k="ssr:stedsnr" v="127946" />
	</node>
	<node id="-37740" lat="60.2744361127" lon="11.6904861193">
		<tag k="alt_name" v="Nustmellem" />
		<tag k="name" v="Mellom" />
		<tag k="place" v="farm" />
		<tag k="ssr:stedsnr" v="127609" />
	</node>
	<node id="-37739" lat="60.259658336" lon="11.9119722138">
		<tag k="historic" v="shieling" />
		<tag k="name" v="Rudsætra" />
		<tag k="place" v="locality" />
		<tag k="ssr:stedsnr" v="127402" />
	</node>
	<node id="-37733" lat="60.3008583343" lon="11.7564888966">
		<tag k="name" v="Nordre Rønningen" />
		<tag k="place" v="farm" />
		<tag k="ssr:stedsnr" v="119805" />
	</node>
	<node id="-37732" lat="60.2528388889" lon="11.6914499949">
		<tag k="name" v="Tanumkollen" />
		<tag k="place" v="quarter" />
		<tag k="ssr:stedsnr" v="119366" />
	</node>
	<node id="-37731" lat="60.1740944413" lon="11.5851861141">
		<tag k="alt_name" v="Kjensli;Kjernsli" />
		<tag k="loc_name" v="Tjennsli" />
		<tag k="name" v="Tjernsli" />
		<tag k="place" v="farm" />
		<tag k="ssr:stedsnr" v="118852" />
	</node>
	<node id="-37730" lat="60.2116333305" lon="11.8536833331">
		<tag k="name" v="Hernesmoen næringspark" />
		<tag k="place" v="quarter" />
		<tag k="ssr:stedsnr" v="118623" />
	</node>
	<node id="-37722" lat="60.2932222211" lon="11.6464666729">
		<tag k="name" v="Ihler" />
		<tag k="place" v="farm" />
		<tag k="ssr:stedsnr" v="299786" />
	</node>
	<node id="-37721" lat="60.2820305595" lon="11.6463138875">
		<tag k="name" v="Nordre Borgenholtet" />
		<tag k="place" v="farm" />
		<tag k="ssr:stedsnr" v="299785" />
	</node>
	<node id="-37716" lat="60.2590722247" lon="11.8430000043">
		<tag k="name" v="Øverli" />
		<tag k="place" v="isolated_dwelling" />
		<tag k="ssr:stedsnr" v="102458" />
	</node>
	<node id="-37713" lat="60.2348638888" lon="11.8683111108">
		<tag k="name" v="Åsen" />
		<tag k="place" v="isolated_dwelling" />
		<tag k="ssr:stedsnr" v="102512" />
	</node>
	<node id="-37712" lat="60.2382444437" lon="11.8709388943">
		<tag k="name" v="Maurtun" />
		<tag k="place" v="isolated_dwelling" />
		<tag k="ssr:stedsnr" v="100365" />
	</node>
	<node id="-37710" lat="60.3407253254" lon="11.7182918288">
		<tag k="fixme" v="consider place=hamlet" />
		<tag k="name" v="Kvisla" />
		<tag k="place" v="farm" />
		<tag k="ssr:stedsnr" v="249994" />
	</node>
	<node id="-37709" lat="60.3439416642" lon="11.7273166647">
		<tag k="name" v="Ilebråten" />
		<tag k="place" v="farm" />
		<tag k="ssr:stedsnr" v="249993" />
	</node>
	<node id="-37708" lat="60.3364055546" lon="11.6439027692">
		<tag k="name" v="Ringås" />
		<tag k="place" v="isolated_dwelling" />
		<tag k="ssr:stedsnr" v="249992" />
	</node>
	<node id="-37706" lat="60.3205361106" lon="11.7468499944">
		<tag k="name" v="Bjørnstad" />
		<tag k="place" v="farm" />
		<tag k="ssr:stedsnr" v="249987" />
	</node>
	<node id="-37705" lat="60.3087361065" lon="11.7477638954">
		<tag k="name" v="Mellom" />
		<tag k="place" v="farm" />
		<tag k="ssr:stedsnr" v="249980" />
	</node>
	<node id="-37703" lat="60.3078083361" lon="11.6666749971">
		<tag k="alt_name" v="Auli, nordre" />
		<tag k="name" v="Nordre Auli" />
		<tag k="place" v="farm" />
		<tag k="ssr:stedsnr" v="249947" />
	</node>
	<node id="-37702" lat="60.2995000034" lon="11.707849993">
		<tag k="name" v="Vika" />
		<tag k="place" v="farm" />
		<tag k="ssr:stedsnr" v="249943" />
	</node>
	<node id="-37701" lat="60.3046444471" lon="11.7403277797">
		<tag k="name" v="Bekken" />
		<tag k="place" v="farm" />
		<tag k="ssr:stedsnr" v="249942" />
	</node>
	<node id="-37700" lat="60.3574888871" lon="11.7893888837">
		<tag k="name" v="Toerkoia" />
		<tag k="place" v="isolated_dwelling" />
		<tag k="ssr:stedsnr" v="249870" />
	</node>
	<node id="-37698" lat="60.2594666697" lon="11.7241944497">
		<tag k="name" v="Linnerud" />
		<tag k="place" v="farm" />
		<tag k="ssr:stedsnr" v="249537" />
	</node>
	<node id="-37696" lat="60.2642617395" lon="11.7979204484">
		<tag k="fixme" v="consider place=hamlet" />
		<tag k="name" v="Holtet" />
		<tag k="place" v="farm" />
		<tag k="ssr:stedsnr" v="249510" />
	</node>
	<node id="-37694" lat="60.2418138871" lon="11.7805277711">
		<tag k="name" v="Melstrøm" />
		<tag k="place" v="farm" />
		<tag k="ssr:stedsnr" v="248996" />
	</node>
	<node id="-37693" lat="60.2966972208" lon="11.63991112">
		<tag k="name" v="Holter" />
		<tag k="place" v="farm" />
		<tag k="ssr:stedsnr" v="248960" />
	</node>
	<node id="-37692" lat="60.2460027795" lon="11.7252805522">
		<tag k="name" v="Ågotsrud" />
		<tag k="place" v="farm" />
		<tag k="ssr:stedsnr" v="248957" />
	</node>
	<node id="-37691" lat="60.1837472228" lon="11.6396416631">
		<tag k="name" v="Ringstad" />
		<tag k="place" v="isolated_dwelling" />
		<tag k="ssr:stedsnr" v="248878" />
	</node>
	<node id="-37690" lat="60.1722472234" lon="11.6602555523">
		<tag k="name" v="Staksrudvangen" />
		<tag k="place" v="farm" />
		<tag k="ssr:stedsnr" v="248866" />
	</node>
	<node id="-37689" lat="60.1970111139" lon="11.6701444465">
		<tag k="name" v="Disibrenna" />
		<tag k="place" v="farm" />
		<tag k="ssr:stedsnr" v="248859" />
	</node>
	<node id="-37688" lat="60.194858334" lon="11.8050222295">
		<tag k="alt_name" v="Tollhaugen" />
		<tag k="name" v="Tallhaugen" />
		<tag k="place" v="farm" />
		<tag k="ssr:stedsnr" v="248855" />
	</node>
	<node id="-37687" lat="60.1835972247" lon="11.6481249968">
		<tag k="name" v="Bjørnstad" />
		<tag k="place" v="farm" />
		<tag k="ssr:stedsnr" v="248838" />
	</node>
	<node id="-37686" lat="60.1831055599" lon="11.7932805626">
		<tag k="name" v="Dalslia" />
		<tag k="place" v="isolated_dwelling" />
		<tag k="ssr:stedsnr" v="248835" />
	</node>
	<node id="-37685" lat="60.2110500016" lon="11.7297555549">
		<tag k="fixme" v="multiple name tags, choose one and add the other to alt_name" />
		<tag k="name" v="Mangsetvangen;Movangen" />
		<tag k="place" v="isolated_dwelling" />
		<tag k="ssr:stedsnr" v="248825" />
	</node>
	<node id="-37684" lat="60.2056407072" lon="11.6184937016">
		<tag k="fixme" v="consider place=hamlet" />
		<tag k="name" v="Skøyen" />
		<tag k="place" v="farm" />
		<tag k="ssr:stedsnr" v="248822" />
	</node>
	<node id="-37683" lat="60.2006666699" lon="11.8138166707">
		<tag k="name" v="Lier" />
		<tag k="place" v="farm" />
		<tag k="ssr:stedsnr" v="248806" />
	</node>
	<node id="-37682" lat="60.1982472219" lon="11.7873138833">
		<tag k="name" v="Vålbråten" />
		<tag k="place" v="locality" />
		<tag k="ssr:stedsnr" v="248803" />
	</node>
	<node id="-37680" lat="60.2226638853" lon="11.7629388868">
		<tag k="alt_name" v="Øvre Nerli" />
		<tag k="name" v="Nerli" />
		<tag k="place" v="farm" />
		<tag k="ssr:stedsnr" v="248773" />
	</node>
	<node id="-37679" lat="60.2248138866" lon="11.7512222146">
		<tag k="name" v="Mobråten" />
		<tag k="place" v="farm" />
		<tag k="ssr:stedsnr" v="248772" />
	</node>
	<node id="-37674" lat="60.1518444465" lon="11.65405834">
		<tag k="name" v="Barbakken" />
		<tag k="place" v="farm" />
		<tag k="ssr:stedsnr" v="248657" />
	</node>
	<node id="-37673" lat="60.1486333365" lon="11.673458327">
		<tag k="name" v="Langfoss" />
		<tag k="place" v="farm" />
		<tag k="ssr:stedsnr" v="248656" />
	</node>
	<node id="-37671" lat="60.1555638928" lon="11.7448277715">
		<tag k="historic" v="shieling" />
		<tag k="name" v="Kolsetsætra" />
		<tag k="place" v="locality" />
		<tag k="ssr:stedsnr" v="248649" />
	</node>
	<node id="-37669" lat="60.1681861084" lon="11.8942166689">
		<tag k="name" v="Åneruddammen" />
		<tag k="place" v="farm" />
		<tag k="ssr:stedsnr" v="248634" />
	</node>
	<node id="-37666" lat="60.2210870506" lon="11.8779712213">
		<tag k="fixme" v="consider place=hamlet" />
		<tag k="name" v="Kjølset" />
		<tag k="place" v="farm" />
		<tag k="ssr:stedsnr" v="248098" />
	</node>
	<node id="-37665" lat="60.1913388869" lon="11.869730548">
		<tag k="name" v="Steinerud" />
		<tag k="place" v="farm" />
		<tag k="ssr:stedsnr" v="248060" />
	</node>
	<node id="-37663" lat="60.2478968146" lon="11.8486423023">
		<tag k="alt_name" v="Taugl" />
		<tag k="fixme" v="consider place=hamlet" />
		<tag k="name" v="Taul" />
		<tag k="place" v="farm" />
		<tag k="ssr:stedsnr" v="248036" />
	</node>
	<node id="-37661" lat="60.2648527805" lon="11.8879333321">
		<tag k="name" v="Vallsjøkoia" />
		<tag k="place" v="isolated_dwelling" />
		<tag k="ssr:stedsnr" v="249385" />
	</node>
	<node id="-37658" lat="60.1917805583" lon="11.6879972299">
		<tag k="alt_name" v="Disenårbogen" />
		<tag k="name" v="Årbogen" />
		<tag k="place" v="locality" />
		<tag k="ssr:stedsnr" v="66832" />
	</node>
	<node id="-37655" lat="60.1917138911" lon="11.6440472286">
		<tag k="name" v="Bonum" />
		<tag k="place" v="isolated_dwelling" />
		<tag k="ssr:stedsnr" v="66819" />
	</node>
	<node id="-37654" lat="60.1897777782" lon="11.6446777853">
		<tag k="name" v="Bekkevoll" />
		<tag k="place" v="farm" />
		<tag k="ssr:stedsnr" v="66815" />
	</node>
	<node id="-37651" lat="60.1307083307" lon="11.8709138891">
		<tag k="name" v="Josefberget" />
		<tag k="place" v="farm" />
		<tag k="ssr:stedsnr" v="66503" />
	</node>
	<node id="-37650" lat="60.2341805558" lon="11.8580888891">
		<tag k="name" v="Inngjerdinga" />
		<tag k="place" v="farm" />
		<tag k="ssr:stedsnr" v="66044" />
	</node>
	<node id="-37648" lat="60.2078861067" lon="11.8790111092">
		<tag k="alt_name" v="Fulu, store;Fulu" />
		<tag k="name" v="Store Fulu" />
		<tag k="place" v="farm" />
		<tag k="ssr:stedsnr" v="66107" />
	</node>
	<node id="-37647" lat="60.2371773166" lon="11.7455664283">
		<tag k="fixme" v="consider place=hamlet" />
		<tag k="name" v="Mangbakken" />
		<tag k="place" v="farm" />
		<tag k="ssr:stedsnr" v="241801" />
	</node>
	<node id="-37646" lat="60.2347444445" lon="11.7492444372">
		<tag k="name" v="Graven" />
		<tag k="place" v="farm" />
		<tag k="ssr:stedsnr" v="241800" />
	</node>
	<node id="-37645" lat="60.1900000011" lon="11.8249972218">
		<tag k="name" v="Møllhaugen" />
		<tag k="place" v="isolated_dwelling" />
		<tag k="ssr:stedsnr" v="241687" />
	</node>
	<node id="-37644" lat="60.1919194415" lon="11.8433250023">
		<tag k="name" v="Jansrud" />
		<tag k="place" v="farm" />
		<tag k="ssr:stedsnr" v="241681" />
	</node>
	<node id="-37643" lat="60.1922222256" lon="11.8352583305">
		<tag k="name" v="Skullerud" />
		<tag k="place" v="farm" />
		<tag k="ssr:stedsnr" v="241680" />
	</node>
	<node id="-37639" lat="60.2373361102" lon="11.7118305498">
		<tag k="name" v="Øktner" />
		<tag k="place" v="isolated_dwelling" />
		<tag k="ssr:stedsnr" v="241119" />
	</node>
	<node id="-37638" lat="60.2167055517" lon="11.6789888897">
		<tag k="name" v="Lykkja" />
		<tag k="place" v="farm" />
		<tag k="ssr:stedsnr" v="241114" />
	</node>
	<node id="-37633" lat="60.2306138925" lon="11.8874555565">
		<tag k="name" v="Øvre Ås" />
		<tag k="place" v="farm" />
		<tag k="ssr:stedsnr" v="241184" />
	</node>
	<node id="-37631" lat="60.2640388847" lon="11.6611472156">
		<tag k="name" v="Stumohytten" />
		<tag k="place" v="farm" />
		<tag k="ssr:stedsnr" v="239897" />
	</node>
	<node id="-37630" lat="60.2662361068" lon="11.6496833321">
		<tag k="name" v="Stumobråten" />
		<tag k="place" v="farm" />
		<tag k="ssr:stedsnr" v="239895" />
	</node>
	<node id="-37629" lat="60.2622055534" lon="11.6679222243">
		<tag k="name" v="Taje" />
		<tag k="place" v="isolated_dwelling" />
		<tag k="ssr:stedsnr" v="239894" />
	</node>
	<node id="-37627" lat="60.2835972267" lon="11.6848833332">
		<tag k="name" v="Sørli" />
		<tag k="place" v="locality" />
		<tag k="ssr:stedsnr" v="239814" />
	</node>
	<node id="-37625" lat="60.1116583342" lon="11.812719447">
		<tag k="name" v="Oppgarden" />
		<tag k="place" v="farm" />
		<tag k="ssr:stedsnr" v="239748" />
	</node>
	<node id="-37615" lat="60.2774527794" lon="11.7630527769">
		<tag k="name" v="Øvre Nordset" />
		<tag k="place" v="farm" />
		<tag k="ssr:stedsnr" v="239499" />
	</node>
	<node id="-37614" lat="60.2769583323" lon="11.7606861154">
		<tag k="name" v="Nedre Nordset" />
		<tag k="place" v="farm" />
		<tag k="ssr:stedsnr" v="239494" />
	</node>
	<node id="-37613" lat="60.2792833372" lon="11.7652972225">
		<tag k="name" v="Negård" />
		<tag k="place" v="farm" />
		<tag k="ssr:stedsnr" v="239486" />
	</node>
	<node id="-37612" lat="60.273322223" lon="11.8004027868">
		<tag k="name" v="Sisselrud" />
		<tag k="place" v="locality" />
		<tag k="ssr:stedsnr" v="239482" />
	</node>
	<node id="-37608" lat="60.2454694427" lon="11.6350472295">
		<tag k="name" v="Haugen" />
		<tag k="place" v="farm" />
		<tag k="ssr:stedsnr" v="239072" />
	</node>
	<node id="-37607" lat="60.2559138915" lon="11.6210499915">
		<tag k="name" v="Gløtt" />
		<tag k="place" v="locality" />
		<tag k="ssr:stedsnr" v="239050" />
	</node>
	<node id="-37605" lat="60.2605861116" lon="11.6918916612">
		<tag k="amenity" v="school" />
		<tag k="name" v="Revyskolen Solbakken folkehøgskole" />
		<tag k="old_name" v="Solbakken folkehøgskole" />
		<tag k="ssr:stedsnr" v="237645" />
	</node>
	<node id="-37601" lat="60.3077722232" lon="11.7746527716">
		<tag k="name" v="Hansengen" />
		<tag k="place" v="isolated_dwelling" />
		<tag k="ssr:stedsnr" v="237439" />
	</node>
	<node id="-37598" lat="60.2126027782" lon="11.6384805625">
		<tag k="name" v="Sundvoll" />
		<tag k="place" v="isolated_dwelling" />
		<tag k="ssr:stedsnr" v="237073" />
	</node>
	<node id="-37597" lat="60.3083611108" lon="11.6983638853">
		<tag k="name" v="Østbybråten" />
		<tag k="place" v="isolated_dwelling" />
		<tag k="ssr:stedsnr" v="40965" />
	</node>
	<node id="-37594" lat="60.2566555532" lon="11.8674472188">
		<tag k="name" v="Nybruket" />
		<tag k="place" v="isolated_dwelling" />
		<tag k="ssr:stedsnr" v="39323" />
	</node>
	<node id="-37593" lat="60.2786055523" lon="11.5994777744">
		<tag k="name" v="Korsdalen" />
		<tag k="place" v="isolated_dwelling" />
		<tag k="ssr:stedsnr" v="226596" />
	</node>
	<node id="-37589" lat="60.1934638886" lon="11.8767111041">
		<tag k="name" v="Nedre Stenerud" />
		<tag k="place" v="farm" />
		<tag k="ssr:stedsnr" v="224187" />
	</node>
	<node id="-37587" lat="60.2926888876" lon="11.731024998">
		<tag k="name" v="Glomsåshagen" />
		<tag k="place" v="isolated_dwelling" />
		<tag k="ssr:stedsnr" v="223808" />
	</node>
	<node id="-37585" lat="60.1127805599" lon="11.8049166659">
		<tag k="name" v="Steinbråten" />
		<tag k="place" v="farm" />
		<tag k="ssr:stedsnr" v="223733" />
	</node>
	<node id="-37584" lat="60.203974998" lon="11.866313895">
		<tag k="leisure" v="pitch" />
		<tag k="name" v="Furumoen" />
		<tag k="ssr:stedsnr" v="223709" />
	</node>
	<node id="-39631" lat="60.3465069397" lon="11.646295235">
		<tag k="name" v="Øyen" />
		<tag k="place" v="hamlet" />
		<tag k="ssr:stedsnr" v="1073075" />
	</node>
	<node id="-39630" lat="60.3067921986" lon="11.6623404086">
		<tag k="name" v="Auli" />
		<tag k="place" v="hamlet" />
		<tag k="ssr:stedsnr" v="1073074" />
	</node>
	<node id="-39629" lat="60.2303851588" lon="11.6760476936">
		<tag k="fixme" v="consider place=hamlet" />
		<tag k="name" v="Gullhaug" />
		<tag k="place" v="farm" />
		<tag k="ssr:stedsnr" v="1073069" />
	</node>
	<node id="-39628" lat="60.2611762651" lon="11.6867731978">
		<tag k="name" v="Os" />
		<tag k="place" v="hamlet" />
		<tag k="ssr:stedsnr" v="1073065" />
	</node>
	<node id="-39627" lat="60.2407426732" lon="11.7854726541">
		<tag k="name" v="Strøm" />
		<tag k="place" v="hamlet" />
		<tag k="ssr:stedsnr" v="1073044" />
	</node>
	<node id="-39626" lat="60.2091698906" lon="11.87794234">
		<tag k="name" v="Fulu" />
		<tag k="place" v="hamlet" />
		<tag k="ssr:stedsnr" v="1073027" />
	</node>
	<node id="-39625" lat="60.2576659299" lon="11.6703605014">
		<tag k="amenity" v="school" />
		<tag k="name" v="Glommasvingen skole" />
		<tag k="ssr:stedsnr" v="1072967" />
	</node>
	<node id="-37576" lat="60.2109833351" lon="11.649977776">
		<tag k="name" v="Søndre Disen" />
		<tag k="place" v="farm" />
		<tag k="ssr:stedsnr" v="222411" />
	</node>
	<node id="-37575" lat="60.2497555556" lon="11.832261108">
		<tag k="name" v="Nordlykkja" />
		<tag k="place" v="farm" />
		<tag k="ssr:stedsnr" v="222369" />
	</node>
	<node id="-37569" lat="60.1740666666" lon="11.685549992">
		<tag k="name" v="Petterholen" />
		<tag k="place" v="isolated_dwelling" />
		<tag k="ssr:stedsnr" v="222154" />
	</node>
	<node id="-37567" lat="60.1802027802" lon="11.643183342">
		<tag k="name" v="Sagen" />
		<tag k="place" v="isolated_dwelling" />
		<tag k="ssr:stedsnr" v="6886" />
	</node>
	<node id="-37566" lat="60.2941194432" lon="11.6696694472">
		<tag k="alt_name" v="Kjølstad, søndre" />
		<tag k="name" v="Østre Kjølstad" />
		<tag k="place" v="farm" />
		<tag k="ssr:stedsnr" v="6960" />
	</node>
	<node id="-39613" lat="60.2346416676" lon="11.8092583305">
		<tag k="name" v="Sundby" />
		<tag k="place" v="farm" />
		<tag k="ssr:stedsnr" v="969452" />
	</node>
	<node id="-39612" lat="60.2536305514" lon="11.773261119">
		<tag k="name" v="Myrer" />
		<tag k="place" v="farm" />
		<tag k="ssr:stedsnr" v="969448" />
	</node>
	<node id="-37561" lat="60.1544722213" lon="11.6543305523">
		<tag k="name" v="Hellfossen" />
		<tag k="place" v="farm" />
		<tag k="ssr:stedsnr" v="5623" />
	</node>
	<node id="-37560" lat="60.1603194415" lon="11.6225472254">
		<tag k="name" v="Tovset" />
		<tag k="place" v="farm" />
		<tag k="ssr:stedsnr" v="5605" />
	</node>
	<node id="-39607" lat="60.2153499978" lon="11.6566694525">
		<tag k="loc_name" v="Meldisi" />
		<tag k="name" v="Meldisen" />
		<tag k="place" v="farm" />
		<tag k="ssr:stedsnr" v="969185" />
	</node>
	<node id="-39606" lat="60.2103055533" lon="11.6462999956">
		<tag k="name" v="Søndre Disen" />
		<tag k="place" v="farm" />
		<tag k="ssr:stedsnr" v="969184" />
	</node>
	<node id="-39603" lat="60.2106083299" lon="11.7161305598">
		<tag k="name" v="Hagensætra" />
		<tag k="place" v="farm" />
		<tag k="ssr:stedsnr" v="968182" />
	</node>
	<node id="-39592" lat="60.1493972223" lon="11.6634944517">
		<tag k="name" v="Haugen" />
		<tag k="place" v="farm" />
		<tag k="ssr:stedsnr" v="967179" />
	</node>
	<node id="-39587" lat="60.1553638905" lon="11.6485750056">
		<tag k="name" v="Lindbekk" />
		<tag k="place" v="farm" />
		<tag k="ssr:stedsnr" v="965199" />
	</node>
	<node id="-39582" lat="60.1897444465" lon="11.8822583408">
		<tag k="name" v="Olsrud" />
		<tag k="place" v="farm" />
		<tag k="ssr:stedsnr" v="952196" />
	</node>
	<node id="-39577" lat="60.327319442" lon="11.6583083376">
		<tag k="name" v="Tjernsli" />
		<tag k="place" v="isolated_dwelling" />
		<tag k="ssr:stedsnr" v="951929" />
	</node>
	<node id="-39570" lat="60.236647219" lon="11.8219972146">
		<tag k="name" v="Vestre Leikvang" />
		<tag k="place" v="isolated_dwelling" />
		<tag k="ssr:stedsnr" v="951443" />
	</node>
	<node id="-39569" lat="60.232144441" lon="11.8346083251">
		<tag k="name" v="Gubberud" />
		<tag k="place" v="farm" />
		<tag k="ssr:stedsnr" v="951441" />
	</node>
	<node id="-39568" lat="60.3076111111" lon="11.6856777839">
		<tag k="name" v="Årstadløkken" />
		<tag k="place" v="isolated_dwelling" />
		<tag k="ssr:stedsnr" v="950948" />
	</node>
	<node id="-39567" lat="60.3061999975" lon="11.7388750021">
		<tag k="name" v="Storbekken" />
		<tag k="place" v="farm" />
		<tag k="ssr:stedsnr" v="950966" />
	</node>
	<node id="-39566" lat="60.2587000034" lon="11.6657999982">
		<tag k="amenity" v="school" />
		<tag k="name" v="Skarnes videregående skole" />
		<tag k="ssr:stedsnr" v="950861" />
	</node>
	<node id="-39565" lat="60.2464854567" lon="11.7234383896">
		<tag k="fixme" v="consider place=hamlet" />
		<tag k="name" v="Snekkermoen" />
		<tag k="place" v="farm" />
		<tag k="ssr:stedsnr" v="950853" />
	</node>
	<node id="-39563" lat="60.2152555527" lon="11.6654000033">
		<tag k="name" v="Nygård" />
		<tag k="place" v="farm" />
		<tag k="ssr:stedsnr" v="950649" />
	</node>
	<node id="-39561" lat="60.3435388885" lon="11.6299500067">
		<tag k="name" v="Jordfetdalen" />
		<tag k="place" v="farm" />
		<tag k="ssr:stedsnr" v="856993" />
	</node>
	<node id="-39560" lat="60.3228194438" lon="11.6474305507">
		<tag k="name" v="Berger" />
		<tag k="place" v="farm" />
		<tag k="ssr:stedsnr" v="856988" />
	</node>
	<node id="-39559" lat="60.3521527822" lon="11.7919527725">
		<tag k="historic" v="shieling" />
		<tag k="name" v="Rognhaugsætra" />
		<tag k="place" v="locality" />
		<tag k="ssr:stedsnr" v="856920" />
	</node>
	<node id="-39558" lat="60.3504250004" lon="11.7199611125">
		<tag k="name" v="Stuttbakk" />
		<tag k="place" v="farm" />
		<tag k="ssr:stedsnr" v="856904" />
	</node>
	<node id="-39556" lat="60.2763479716" lon="11.7629752426">
		<tag k="name" v="Nordset" />
		<tag k="place" v="hamlet" />
		<tag k="ssr:stedsnr" v="856589" />
	</node>
	<node id="-39555" lat="60.2473611146" lon="11.8116777695">
		<tag k="alt_name" v="Øgard" />
		<tag k="loc_name" v="Ødegarda" />
		<tag k="name" v="Ødegardene" />
		<tag k="place" v="hamlet" />
		<tag k="ssr:stedsnr" v="855950" />
	</node>
	<node id="-39554" lat="60.2437961911" lon="11.8144890049">
		<tag k="alt_name" v="Lauvåsen" />
		<tag k="fixme" v="consider place=hamlet" />
		<tag k="name" v="Løvåsen" />
		<tag k="place" v="farm" />
		<tag k="ssr:stedsnr" v="855949" />
	</node>
	<node id="-39553" lat="60.1826833296" lon="11.784599999">
		<tag k="name" v="Værhaugen" />
		<tag k="place" v="isolated_dwelling" />
		<tag k="ssr:stedsnr" v="855878" />
	</node>
	<node id="-39552" lat="60.2383424109" lon="11.8275946389">
		<tag k="fixme" v="consider place=hamlet" />
		<tag k="name" v="Børstad" />
		<tag k="place" v="farm" />
		<tag k="ssr:stedsnr" v="855998" />
	</node>
	<node id="-39550" lat="60.2062055535" lon="11.6485750088">
		<tag k="name" v="Ånerud" />
		<tag k="place" v="farm" />
		<tag k="ssr:stedsnr" v="855819" />
	</node>
	<node id="-39549" lat="60.1609611126" lon="11.7544055586">
		<tag k="name" v="Mjøgsjøvangen" />
		<tag k="place" v="isolated_dwelling" />
		<tag k="ssr:stedsnr" v="855643" />
	</node>
	<node id="-39546" lat="60.1104555544" lon="11.8092861065">
		<tag k="name" v="Finnholt" />
		<tag k="place" v="hamlet" />
		<tag k="ssr:stedsnr" v="855731" />
	</node>
	<node id="-39543" lat="60.1154222252" lon="11.8953277692">
		<tag k="name" v="Børja" />
		<tag k="place" v="isolated_dwelling" />
		<tag k="ssr:stedsnr" v="855546" />
	</node>
	<node id="-39542" lat="60.2842805568" lon="11.5702527842">
		<tag k="name" v="Grasmyrkoia" />
		<tag k="place" v="isolated_dwelling" />
		<tag k="ssr:stedsnr" v="855544" />
	</node>
	<node id="-39537" lat="60.2965777807" lon="11.7554305573">
		<tag k="name" v="Berget" />
		<tag k="place" v="locality" />
		<tag k="ssr:stedsnr" v="848778" />
	</node>
	<node id="-39534" lat="60.2299472257" lon="11.7792527716">
		<tag k="name" v="Sørensløkken" />
		<tag k="place" v="isolated_dwelling" />
		<tag k="ssr:stedsnr" v="848453" />
	</node>
	<node id="-39525" lat="60.1912277798" lon="11.6402111132">
		<tag k="name" v="Nordstad" />
		<tag k="place" v="isolated_dwelling" />
		<tag k="ssr:stedsnr" v="847091" />
	</node>
	<node id="-39517" lat="60.2961916628" lon="11.6323750007">
		<tag k="name" v="Skjulstad" />
		<tag k="place" v="farm" />
		<tag k="ssr:stedsnr" v="847019" />
	</node>
	<node id="-39514" lat="60.3277583298" lon="11.7298055588">
		<tag k="name" v="Bergli" />
		<tag k="place" v="farm" />
		<tag k="ssr:stedsnr" v="846581" />
	</node>
	<node id="-39511" lat="60.3263472185" lon="11.7357555484">
		<tag k="name" v="Nyhus" />
		<tag k="place" v="isolated_dwelling" />
		<tag k="ssr:stedsnr" v="846559" />
	</node>
	<node id="-39510" lat="60.2775638864" lon="11.7727083399">
		<tag k="name" v="Gramli" />
		<tag k="place" v="isolated_dwelling" />
		<tag k="ssr:stedsnr" v="846498" />
	</node>
	<node id="-39509" lat="60.2829777773" lon="11.7727000069">
		<tag k="name" v="Slåstad" />
		<tag k="place" v="farm" />
		<tag k="ssr:stedsnr" v="846483" />
	</node>
	<node id="-39508" lat="60.275194447" lon="11.7839277786">
		<tag k="name" v="Langnesmoen" />
		<tag k="place" v="isolated_dwelling" />
		<tag k="ssr:stedsnr" v="846474" />
	</node>
	<node id="-39506" lat="60.1586138857" lon="11.9096527766">
		<tag k="name" v="Posterud" />
		<tag k="place" v="locality" />
		<tag k="ssr:stedsnr" v="846307" />
	</node>
	<node id="-39503" lat="60.1766944421" lon="11.5885249934">
		<tag k="name" v="Stubberud" />
		<tag k="place" v="farm" />
		<tag k="ssr:stedsnr" v="846071" />
	</node>
	<node id="-39489" lat="60.2760055577" lon="11.6563416724">
		<tag k="name" v="Nust" />
		<tag k="place" v="farm" />
		<tag k="ssr:stedsnr" v="832121" />
	</node>
	<node id="-39487" lat="60.2874333357" lon="11.7736444472">
		<tag k="name" v="Melgarden" />
		<tag k="place" v="farm" />
		<tag k="ssr:stedsnr" v="832029" />
	</node>
	<node id="-39484" lat="60.1788666649" lon="11.8992638935">
		<tag k="name" v="Lille Ånerud" />
		<tag k="place" v="locality" />
		<tag k="ssr:stedsnr" v="831184" />
	</node>
	<node id="-39483" lat="60.1832916671" lon="11.8903749941">
		<tag k="name" v="Klaustun" />
		<tag k="old_name" v="Klausstuen" />
		<tag k="place" v="farm" />
		<tag k="ssr:stedsnr" v="831183" />
	</node>
	<node id="-39482" lat="60.1927166652" lon="11.88620278">
		<tag k="name" v="Harstadmoen" />
		<tag k="place" v="farm" />
		<tag k="ssr:stedsnr" v="831178" />
	</node>
	<node id="-39481" lat="60.2307814743" lon="11.6237950623">
		<tag k="name" v="Delerud" />
		<tag k="place" v="farm" />
		<tag k="ssr:stedsnr" v="831092" />
	</node>
	<node id="-39480" lat="60.2278916696" lon="11.6022722253">
		<tag k="name" v="Møllhaug" />
		<tag k="place" v="farm" />
		<tag k="ssr:stedsnr" v="831080" />
	</node>
	<node id="-39479" lat="60.2215805552" lon="11.6064361141">
		<tag k="name" v="Pålerud" />
		<tag k="place" v="farm" />
		<tag k="ssr:stedsnr" v="831079" />
	</node>
	<node id="-39477" lat="60.3035944485" lon="11.6600194377">
		<tag k="name" v="Elvestad" />
		<tag k="place" v="farm" />
		<tag k="ssr:stedsnr" v="830959" />
	</node>
	<node id="-39476" lat="60.2865138924" lon="11.7367111061">
		<tag k="name" v="Søndre Glomsås" />
		<tag k="place" v="farm" />
		<tag k="ssr:stedsnr" v="830787" />
	</node>
	<node id="-39469" lat="60.1964583342" lon="11.7928333286">
		<tag k="name" v="Kongelia" />
		<tag k="place" v="locality" />
		<tag k="ssr:stedsnr" v="830697" />
	</node>
	<node id="-39467" lat="60.2086749982" lon="11.7802999983">
		<tag k="name" v="Olabråten" />
		<tag k="place" v="locality" />
		<tag k="ssr:stedsnr" v="830688" />
	</node>
	<node id="-39462" lat="60.2486361128" lon="11.7067722289">
		<tag k="name" v="Mitten" />
		<tag k="place" v="farm" />
		<tag k="ssr:stedsnr" v="829877" />
	</node>
	<node id="-39457" lat="60.2485305599" lon="11.8307749978">
		<tag k="name" v="Hamarlykkja" />
		<tag k="place" v="farm" />
		<tag k="ssr:stedsnr" v="829380" />
	</node>
	<node id="-39448" lat="60.3440750019" lon="11.8260500088">
		<tag k="historic" v="shieling" />
		<tag k="name" v="Jerstadsætra" />
		<tag k="place" v="locality" />
		<tag k="ssr:stedsnr" v="795890" />
	</node>
	<node id="-39447" lat="60.3399555521" lon="11.786408332">
		<tag k="alt_name" v="Damkoia" />
		<tag k="name" v="Damholkoia" />
		<tag k="place" v="isolated_dwelling" />
		<tag k="ssr:stedsnr" v="795994" />
	</node>
	<node id="-39444" lat="60.2801194434" lon="11.6841027794">
		<tag k="name" v="Larsmyra" />
		<tag k="place" v="farm" />
		<tag k="ssr:stedsnr" v="795599" />
	</node>
	<node id="-39443" lat="60.272438886" lon="11.839733327">
		<tag k="name" v="Vangen" />
		<tag k="place" v="farm" />
		<tag k="ssr:stedsnr" v="795596" />
	</node>
	<node id="-39442" lat="60.2907736566" lon="11.775577712">
		<tag k="fixme" v="consider place=hamlet" />
		<tag k="name" v="Øfstgarden" />
		<tag k="place" v="farm" />
		<tag k="ssr:stedsnr" v="795590" />
	</node>
	<node id="-39441" lat="60.2589060414" lon="11.7170077563">
		<tag k="fixme" v="consider place=hamlet" />
		<tag k="name" v="Ellingsrud" />
		<tag k="place" v="farm" />
		<tag k="ssr:stedsnr" v="795581" />
	</node>
	<node id="-39440" lat="60.2486725039" lon="11.8357118108">
		<tag k="fixme" v="consider place=hamlet" />
		<tag k="name" v="Berger" />
		<tag k="place" v="farm" />
		<tag k="ssr:stedsnr" v="794949" />
	</node>
	<node id="-39439" lat="60.2367749971" lon="11.8635000017">
		<tag k="name" v="Tjernsli" />
		<tag k="place" v="farm" />
		<tag k="ssr:stedsnr" v="795074" />
	</node>
	<node id="-39438" lat="60.2338583293" lon="11.842011102">
		<tag k="name" v="Leira" />
		<tag k="place" v="farm" />
		<tag k="ssr:stedsnr" v="794996" />
	</node>
	<node id="-39434" lat="60.150299996" lon="11.6487916746">
		<tag k="name" v="Nordli" />
		<tag k="place" v="farm" />
		<tag k="ssr:stedsnr" v="794648" />
	</node>
	<node id="-39433" lat="60.1553249968" lon="11.7899277765">
		<tag k="name" v="Grønlia" />
		<tag k="place" v="farm" />
		<tag k="ssr:stedsnr" v="794640" />
	</node>
	<node id="-39432" lat="60.1573333314" lon="11.6534777851">
		<tag k="name" v="Fossmellom" />
		<tag k="place" v="farm" />
		<tag k="ssr:stedsnr" v="794630" />
	</node>
	<node id="-39431" lat="60.1589527817" lon="11.886541659">
		<tag k="name" v="Bekkholt" />
		<tag k="place" v="farm" />
		<tag k="ssr:stedsnr" v="794568" />
	</node>
	<node id="-39430" lat="60.1722305525" lon="11.6472666578">
		<tag k="name" v="Sætersagen" />
		<tag k="place" v="farm" />
		<tag k="ssr:stedsnr" v="794847" />
	</node>
	<node id="-39427" lat="60.2155916698" lon="11.865258335">
		<tag k="name" v="Knutsrud" />
		<tag k="place" v="farm" />
		<tag k="ssr:stedsnr" v="794017" />
	</node>
	<node id="-39425" lat="60.1911666643" lon="11.8261194371">
		<tag k="name" v="Møllhaug" />
		<tag k="place" v="farm" />
		<tag k="ssr:stedsnr" v="787701" />
	</node>
	<node id="-39424" lat="60.2674305594" lon="11.7963249918">
		<tag k="name" v="Langnesenga" />
		<tag k="place" v="farm" />
		<tag k="ssr:stedsnr" v="787525" />
	</node>
	<node id="-39423" lat="60.2262638902" lon="11.76383055">
		<tag k="name" v="Mobrenna" />
		<tag k="place" v="farm" />
		<tag k="ssr:stedsnr" v="787450" />
	</node>
	<node id="-39422" lat="60.2370250001" lon="11.7956722155">
		<tag k="name" v="Sanddalen" />
		<tag k="place" v="farm" />
		<tag k="ssr:stedsnr" v="787447" />
	</node>
	<node id="-39421" lat="60.2327972197" lon="11.8130416644">
		<tag k="name" v="Tuvengen" />
		<tag k="place" v="farm" />
		<tag k="ssr:stedsnr" v="787444" />
	</node>
	<node id="-39415" lat="60.2188722203" lon="11.6624722197">
		<tag k="loc_name" v="Norddisi" />
		<tag k="name" v="Norddisen" />
		<tag k="place" v="farm" />
		<tag k="ssr:stedsnr" v="787131" />
	</node>
	<node id="-39410" lat="60.2920527815" lon="11.6533416748">
		<tag k="name" v="Nyborg" />
		<tag k="place" v="farm" />
		<tag k="ssr:stedsnr" v="785779" />
	</node>
	<node id="-39408" lat="60.1378583365" lon="11.8597333263">
		<tag k="name" v="Josefbergsætra" />
		<tag k="place" v="locality" />
		<tag k="ssr:stedsnr" v="785630" />
	</node>
	<node id="-39405" lat="60.3377527756" lon="11.6488833392">
		<tag k="name" v="Moengnes" />
		<tag k="place" v="isolated_dwelling" />
		<tag k="ssr:stedsnr" v="785565" />
	</node>
	<node id="-39403" lat="60.2782277751" lon="11.7752583381">
		<tag k="name" v="Nordsetmoen" />
		<tag k="place" v="farm" />
		<tag k="ssr:stedsnr" v="785463" />
	</node>
	<node id="-39398" lat="60.3469527814" lon="11.7135722251">
		<tag k="name" v="Stenhaugen" />
		<tag k="place" v="isolated_dwelling" />
		<tag k="ssr:stedsnr" v="785213" />
	</node>
	<node id="-39394" lat="60.3015722218" lon="11.6119388904">
		<tag k="name" v="Nordli" />
		<tag k="place" v="isolated_dwelling" />
		<tag k="ssr:stedsnr" v="785021" />
	</node>
	<node id="-39393" lat="60.3002527745" lon="11.6385444505">
		<tag k="name" v="Myrer" />
		<tag k="place" v="isolated_dwelling" />
		<tag k="ssr:stedsnr" v="785019" />
	</node>
	<node id="-39389" lat="60.2246972197" lon="11.8233555467">
		<tag k="name" v="Skogli" />
		<tag k="place" v="farm" />
		<tag k="ssr:stedsnr" v="783441" />
	</node>
	<node id="-39380" lat="60.2437944443" lon="11.6371805475">
		<tag k="name" v="Spiksetbakken" />
		<tag k="place" v="farm" />
		<tag k="ssr:stedsnr" v="771582" />
	</node>
	<node id="-39376" lat="60.2233249984" lon="11.8221111141">
		<tag k="name" v="Sandermoen" />
		<tag k="place" v="farm" />
		<tag k="ssr:stedsnr" v="769446" />
	</node>
	<node id="-39371" lat="60.322425" lon="11.6614277702">
		<tag k="name" v="Skjulstadeng" />
		<tag k="place" v="farm" />
		<tag k="ssr:stedsnr" v="768971" />
	</node>
	<node id="-39370" lat="60.3095444425" lon="11.6826222301">
		<tag k="name" v="Seimsberget" />
		<tag k="place" v="isolated_dwelling" />
		<tag k="ssr:stedsnr" v="768963" />
	</node>
	<node id="-39367" lat="60.2476999956" lon="11.7463250061">
		<tag k="name" v="Slobrua" />
		<tag k="place" v="farm" />
		<tag k="ssr:stedsnr" v="768880" />
	</node>
	<node id="-39356" lat="60.2475361096" lon="11.7718555514">
		<tag k="name" v="Strømstad" />
		<tag k="place" v="farm" />
		<tag k="ssr:stedsnr" v="767391" />
	</node>
	<node id="-39354" lat="60.25793889" lon="11.8422916635">
		<tag k="name" v="Øverby" />
		<tag k="place" v="isolated_dwelling" />
		<tag k="ssr:stedsnr" v="767380" />
	</node>
	<node id="-39351" lat="60.200341668" lon="11.6623138862">
		<tag k="name" v="Disimyra" />
		<tag k="place" v="hamlet" />
		<tag k="ssr:stedsnr" v="650242" />
	</node>
	<node id="-39347" lat="60.2499527753" lon="11.8526388899">
		<tag k="name" v="Oppilykkja" />
		<tag k="place" v="isolated_dwelling" />
		<tag k="ssr:stedsnr" v="648230" />
	</node>
	<node id="-39345" lat="60.2301305555" lon="11.6282861079">
		<tag k="name" v="Fjelltun" />
		<tag k="place" v="farm" />
		<tag k="ssr:stedsnr" v="648097" />
	</node>
	<node id="-39342" lat="60.2339361112" lon="11.8509861194">
		<tag k="name" v="Stamperud" />
		<tag k="place" v="farm" />
		<tag k="ssr:stedsnr" v="647447" />
	</node>
	<node id="-39341" lat="60.3160138892" lon="11.7372611095">
		<tag k="name" v="Holmengen" />
		<tag k="place" v="farm" />
		<tag k="ssr:stedsnr" v="646993" />
	</node>
	<node id="-39338" lat="60.3052305588" lon="11.7342861058">
		<tag k="name" v="Vestabekken" />
		<tag k="place" v="farm" />
		<tag k="ssr:stedsnr" v="646970" />
	</node>
	<node id="-39337" lat="60.3177833363" lon="11.6433416608">
		<tag k="name" v="Nygård" />
		<tag k="place" v="isolated_dwelling" />
		<tag k="ssr:stedsnr" v="646815" />
	</node>
	<node id="-39332" lat="60.2565403576" lon="11.8057966773">
		<tag k="fixme" v="consider place=hamlet" />
		<tag k="name" v="Føskerud" />
		<tag k="place" v="farm" />
		<tag k="ssr:stedsnr" v="613522" />
	</node>
	<node id="-39329" lat="60.2484361123" lon="11.7696722193">
		<tag k="fixme" v="multiple name tags, choose one and add the other to alt_name" />
		<tag k="name" v="Lyngstad;Solstad" />
		<tag k="place" v="farm" />
		<tag k="ssr:stedsnr" v="612949" />
	</node>
	<node id="-39328" lat="60.3019861099" lon="11.7558916588">
		<tag k="alt_name" v="Monsengen" />
		<tag k="name" v="Monsenga" />
		<tag k="place" v="farm" />
		<tag k="ssr:stedsnr" v="612947" />
	</node>
	<node id="-39327" lat="60.297727779" lon="11.7573666718">
		<tag k="alt_name" v="Søndre Rønningen" />
		<tag k="name" v="Rønningen" />
		<tag k="place" v="farm" />
		<tag k="ssr:stedsnr" v="612945" />
	</node>
	<node id="-39326" lat="60.3527222263" lon="11.7302138834">
		<tag k="name" v="Slåstadbråten" />
		<tag k="place" v="farm" />
		<tag k="ssr:stedsnr" v="612913" />
	</node>
	<node id="-39323" lat="60.3511055528" lon="11.6243916608">
		<tag k="alt_name" v="Nylend" />
		<tag k="name" v="Nylenda" />
		<tag k="place" v="isolated_dwelling" />
		<tag k="ssr:stedsnr" v="612883" />
	</node>
	<node id="-39320" lat="60.2375196825" lon="11.8184433152">
		<tag k="fixme" v="consider place=hamlet" />
		<tag k="name" v="Leikvang" />
		<tag k="place" v="farm" />
		<tag k="ssr:stedsnr" v="613000" />
	</node>
	<node id="-39317" lat="60.1475305544" lon="11.6996972262">
		<tag k="name" v="Gjeddevatn" />
		<tag k="place" v="farm" />
		<tag k="ssr:stedsnr" v="612646" />
	</node>
	<node id="-39316" lat="60.2038805521" lon="11.8061499925">
		<tag k="name" v="Bjørnberget" />
		<tag k="place" v="farm" />
		<tag k="ssr:stedsnr" v="612788" />
	</node>
	<node id="-39315" lat="60.1926027822" lon="11.6283333359">
		<tag k="name" v="Furuli" />
		<tag k="place" v="farm" />
		<tag k="ssr:stedsnr" v="612785" />
	</node>
	<node id="-39312" lat="60.0743999961" lon="11.7869166664">
		<tag k="name" v="Pålerudsaga" />
		<tag k="place" v="isolated_dwelling" />
		<tag k="ssr:stedsnr" v="612531" />
	</node>
	<node id="-39311" lat="60.2518694471" lon="11.8753499952">
		<tag k="name" v="Hagen" />
		<tag k="place" v="farm" />
		<tag k="ssr:stedsnr" v="612453" />
	</node>
	<node id="-39310" lat="60.2556861113" lon="11.8913444385">
		<tag k="name" v="Maurlia" />
		<tag k="place" v="farm" />
		<tag k="ssr:stedsnr" v="612452" />
	</node>
	<node id="-39308" lat="60.2609000004" lon="11.8575888889">
		<tag k="name" v="Holen" />
		<tag k="place" v="isolated_dwelling" />
		<tag k="ssr:stedsnr" v="612399" />
	</node>
	<node id="-39306" lat="60.2413722226" lon="11.8641138896">
		<tag k="name" v="Rud" />
		<tag k="place" v="farm" />
		<tag k="ssr:stedsnr" v="612059" />
	</node>
	<node id="-39305" lat="60.109219441" lon="11.7318305609">
		<tag k="name" v="Torkilsrud" />
		<tag k="place" v="farm" />
		<tag k="ssr:stedsnr" v="611719" />
	</node>
	<node id="-39304" lat="60.1593944421" lon="11.6524694374">
		<tag k="name" v="Kvernfossen" />
		<tag k="place" v="farm" />
		<tag k="ssr:stedsnr" v="611643" />
	</node>
	<node id="-39303" lat="60.2297000045" lon="11.7468666609">
		<tag k="name" v="Kvernhaugen" />
		<tag k="place" v="farm" />
		<tag k="ssr:stedsnr" v="605815" />
	</node>
	<node id="-39298" lat="60.1775861079" lon="11.8630527837">
		<tag k="name" v="Nedre Galterudhøgda" />
		<tag k="place" v="isolated_dwelling" />
		<tag k="ssr:stedsnr" v="605673" />
	</node>
	<node id="-39292" lat="60.2301138861" lon="11.8042166664">
		<tag k="name" v="Sander" />
		<tag k="place" v="farm" />
		<tag k="ssr:stedsnr" v="605434" />
	</node>
	<node id="-39291" lat="60.231899997" lon="11.7888638911">
		<tag k="name" v="Bråten" />
		<tag k="place" v="farm" />
		<tag k="ssr:stedsnr" v="605432" />
	</node>
	<node id="-39290" lat="60.2511472214" lon="11.7763222132">
		<tag k="name" v="Aurhagen" />
		<tag k="place" v="farm" />
		<tag k="ssr:stedsnr" v="605427" />
	</node>
	<node id="-39286" lat="60.2897388927" lon="11.7744916662">
		<tag k="name" v="Øfstgarden" />
		<tag k="place" v="farm" />
		<tag k="ssr:stedsnr" v="603492" />
	</node>
	<node id="-39285" lat="60.299963888" lon="11.7789777737">
		<tag k="name" v="Nordby" />
		<tag k="place" v="isolated_dwelling" />
		<tag k="ssr:stedsnr" v="603474" />
	</node>
	<node id="-39284" lat="60.282986115" lon="11.6611638893">
		<tag k="name" v="Nordre Vestby" />
		<tag k="place" v="farm" />
		<tag k="ssr:stedsnr" v="602792" />
	</node>
	<node id="-39283" lat="60.1693305517" lon="11.6396916605">
		<tag k="name" v="Steinmyra" />
		<tag k="place" v="farm" />
		<tag k="ssr:stedsnr" v="603069" />
	</node>
	<node id="-39281" lat="60.1823472232" lon="11.6301777762">
		<tag k="name" v="Persløkken" />
		<tag k="place" v="farm" />
		<tag k="ssr:stedsnr" v="603061" />
	</node>
	<node id="-39273" lat="60.2817583374" lon="11.7813749996">
		<tag k="fixme" v="consider natural=beach + surface=sand" />
		<tag k="leisure" v="swimming_area" />
		<tag k="name" v="Sandhella" />
		<tag k="place" v="locality" />
		<tag k="ssr:stedsnr" v="602504" />
	</node>
	<node id="-39270" lat="60.2893027801" lon="11.8422444488">
		<tag k="name" v="Gudsbergkoia" />
		<tag k="place" v="locality" />
		<tag k="ssr:stedsnr" v="601466" />
	</node>
	<node id="-39267" lat="60.3153250015" lon="11.8283305468">
		<tag k="name" v="Gammelkoia" />
		<tag k="place" v="isolated_dwelling" />
		<tag k="ssr:stedsnr" v="601454" />
	</node>
	<node id="-39265" lat="60.2162361156" lon="11.6337666596">
		<tag k="name" v="Kjekstad" />
		<tag k="place" v="farm" />
		<tag k="ssr:stedsnr" v="601061" />
	</node>
	<node id="-39262" lat="60.2434527813" lon="11.6439111199">
		<tag k="name" v="Østre Spikset" />
		<tag k="place" v="farm" />
		<tag k="ssr:stedsnr" v="589556" />
	</node>
	<node id="-39261" lat="60.2408999964" lon="11.635933337">
		<tag k="name" v="Vestre Spikset" />
		<tag k="place" v="farm" />
		<tag k="ssr:stedsnr" v="589547" />
	</node>
	<node id="-39260" lat="60.2254965392" lon="11.6792713003">
		<tag k="fixme" v="consider place=hamlet" />
		<tag k="name" v="Lilleset" />
		<tag k="place" v="farm" />
		<tag k="ssr:stedsnr" v="589445" />
	</node>
	<node id="-39259" lat="60.2624861081" lon="11.766858336">
		<tag k="name" v="Gullerud" />
		<tag k="place" v="farm" />
		<tag k="ssr:stedsnr" v="588494" />
	</node>
	<node id="-39256" lat="60.1727916684" lon="11.8727250036">
		<tag k="name" v="Ånerudbråten" />
		<tag k="place" v="isolated_dwelling" />
		<tag k="ssr:stedsnr" v="588176" />
	</node>
	<node id="-39255" lat="60.1865222182" lon="11.8760888815">
		<tag k="name" v="Granli" />
		<tag k="place" v="isolated_dwelling" />
		<tag k="ssr:stedsnr" v="588168" />
	</node>
	<node id="-39251" lat="60.221169446" lon="11.8449166675">
		<tag k="name" v="Herneshagan" />
		<tag k="place" v="farm" />
		<tag k="ssr:stedsnr" v="587463" />
	</node>
	<node id="-39249" lat="60.3035805513" lon="11.6336833405">
		<tag k="name" v="Brette" />
		<tag k="place" v="farm" />
		<tag k="ssr:stedsnr" v="586851" />
	</node>
	<node id="-39248" lat="60.3123722181" lon="11.6406388967">
		<tag k="name" v="Gårder" />
		<tag k="place" v="isolated_dwelling" />
		<tag k="ssr:stedsnr" v="586838" />
	</node>
	<node id="-39242" lat="60.2456611128" lon="11.8313638837">
		<tag k="name" v="Finhammer" />
		<tag k="place" v="farm" />
		<tag k="ssr:stedsnr" v="585342" />
	</node>
	<node id="-39241" lat="60.2446861138" lon="11.8256972192">
		<tag k="name" v="Børstadinngjerdinga" />
		<tag k="place" v="farm" />
		<tag k="ssr:stedsnr" v="585341" />
	</node>
	<node id="-39240" lat="60.3290277741" lon="11.6293583388">
		<tag k="alt_name" v="Bjørkeli" />
		<tag k="name" v="Bjørkli" />
		<tag k="place" v="farm" />
		<tag k="ssr:stedsnr" v="552997" />
	</node>
	<node id="-39238" lat="60.3112388863" lon="11.7595833252">
		<tag k="name" v="Slåstadmyra" />
		<tag k="place" v="farm" />
		<tag k="ssr:stedsnr" v="552987" />
	</node>
	<node id="-39237" lat="60.3128500019" lon="11.6570805609">
		<tag k="alt_name" v="Løkker" />
		<tag k="name" v="Løkka" />
		<tag k="place" v="farm" />
		<tag k="ssr:stedsnr" v="552976" />
	</node>
	<node id="-39235" lat="60.2700166655" lon="11.8247611039">
		<tag k="name" v="Smestad" />
		<tag k="place" v="farm" />
		<tag k="ssr:stedsnr" v="552615" />
	</node>
	<node id="-39234" lat="60.273830553" lon="11.7472944492">
		<tag k="name" v="Nylenda" />
		<tag k="place" v="farm" />
		<tag k="ssr:stedsnr" v="552613" />
	</node>
	<node id="-39233" lat="60.2728138927" lon="11.7661944484">
		<tag k="name" v="Nordsethagen" />
		<tag k="place" v="farm" />
		<tag k="ssr:stedsnr" v="552610" />
	</node>
	<node id="-39232" lat="60.2869361143" lon="11.6799722241">
		<tag k="name" v="Lystad" />
		<tag k="place" v="farm" />
		<tag k="ssr:stedsnr" v="552596" />
	</node>
	<node id="-39231" lat="60.2606916646" lon="11.7691499993">
		<tag k="name" v="Jerstadberget" />
		<tag k="place" v="farm" />
		<tag k="ssr:stedsnr" v="552595" />
	</node>
	<node id="-39230" lat="60.2569320996" lon="11.7538739711">
		<tag k="fixme" v="consider place=hamlet" />
		<tag k="name" v="Jerstad" />
		<tag k="place" v="farm" />
		<tag k="ssr:stedsnr" v="552594" />
	</node>
	<node id="-39229" lat="60.2663305588" lon="11.8293833392">
		<tag k="name" v="Gleden" />
		<tag k="place" v="farm" />
		<tag k="ssr:stedsnr" v="552579" />
	</node>
	<node id="-39226" lat="60.2416100583" lon="11.8334242466">
		<tag k="fixme" v="multiple name tags, choose one and add the other to alt_name" />
		<tag k="name" v="Halsberg;Stalsberg" />
		<tag k="place" v="farm" />
		<tag k="ssr:stedsnr" v="551994" />
	</node>
	<node id="-39225" lat="60.230100002" lon="11.6316250068">
		<tag k="name" v="Ullerbråten" />
		<tag k="place" v="farm" />
		<tag k="ssr:stedsnr" v="551984" />
	</node>
	<node id="-39224" lat="60.2143722239" lon="11.7862722201">
		<tag k="name" v="Kvernstuen" />
		<tag k="place" v="farm" />
		<tag k="ssr:stedsnr" v="551828" />
	</node>
	<node id="-39223" lat="60.1795027802" lon="11.6981861063">
		<tag k="name" v="Finnreite" />
		<tag k="place" v="isolated_dwelling" />
		<tag k="ssr:stedsnr" v="551880" />
	</node>
	<node id="-39218" lat="60.1433666625" lon="11.6609111188">
		<tag k="name" v="Snippen" />
		<tag k="place" v="farm" />
		<tag k="ssr:stedsnr" v="551653" />
	</node>
	<node id="-39217" lat="60.1509194451" lon="11.6680388817">
		<tag k="name" v="Årbogen" />
		<tag k="place" v="farm" />
		<tag k="ssr:stedsnr" v="551640" />
	</node>
	<node id="-39216" lat="60.1617999973" lon="11.8885027741">
		<tag k="name" v="Ånerudbakken" />
		<tag k="place" v="farm" />
		<tag k="ssr:stedsnr" v="551611" />
	</node>
	<node id="-39214" lat="60.1540555512" lon="11.8688277845">
		<tag k="name" v="Ånerudmyra" />
		<tag k="place" v="farm" />
		<tag k="ssr:stedsnr" v="551568" />
	</node>
	<node id="-39212" lat="60.2044333367" lon="11.8890166656">
		<tag k="name" v="Sandbakken" />
		<tag k="place" v="farm" />
		<tag k="ssr:stedsnr" v="551128" />
	</node>
	<node id="-39211" lat="60.2012166689" lon="11.8509083351">
		<tag k="name" v="Moland" />
		<tag k="place" v="farm" />
		<tag k="ssr:stedsnr" v="551125" />
	</node>
	<node id="-39210" lat="60.1936499993" lon="11.8842722188">
		<tag k="name" v="Isakrudmoen" />
		<tag k="place" v="farm" />
		<tag k="ssr:stedsnr" v="551094" />
	</node>
	<node id="-39209" lat="60.2487083353" lon="11.8776750041">
		<tag k="name" v="Piksrud" />
		<tag k="place" v="farm" />
		<tag k="ssr:stedsnr" v="551034" />
	</node>
	<node id="-39208" lat="60.2149388887" lon="11.8535638965">
		<tag k="name" v="Herneshagan" />
		<tag k="place" v="farm" />
		<tag k="ssr:stedsnr" v="551013" />
	</node>
	<node id="-39207" lat="60.2275749959" lon="11.5877166677">
		<tag k="name" v="Brenna" />
		<tag k="place" v="farm" />
		<tag k="ssr:stedsnr" v="551803" />
	</node>
	<node id="-39206" lat="60.2275058584" lon="11.8087639627">
		<tag k="fixme" v="consider place=suburb, village or hamlet" />
		<tag k="name" v="Sander" />
		<tag k="place" v="quarter" />
		<tag k="ssr:stedsnr" v="551801" />
	</node>
	<node id="-39205" lat="60.2251027746" lon="11.6401833354">
		<tag k="name" v="Myrvoll" />
		<tag k="place" v="farm" />
		<tag k="ssr:stedsnr" v="551795" />
	</node>
	<node id="-39204" lat="60.2252777821" lon="11.6012472238">
		<tag k="name" v="Vestli" />
		<tag k="place" v="farm" />
		<tag k="ssr:stedsnr" v="551785" />
	</node>
	<node id="-39203" lat="60.2180611117" lon="11.8041444356">
		<tag k="name" v="Amundsrud" />
		<tag k="place" v="farm" />
		<tag k="ssr:stedsnr" v="551767" />
	</node>
	<node id="-39201" lat="60.2280666709" lon="11.7457500038">
		<tag k="name" v="Dammen" />
		<tag k="place" v="farm" />
		<tag k="ssr:stedsnr" v="544812" />
	</node>
	<node id="-39199" lat="60.1916944432" lon="11.8643916618">
		<tag k="name" v="Bjørkli" />
		<tag k="place" v="isolated_dwelling" />
		<tag k="ssr:stedsnr" v="544693" />
	</node>
	<node id="-39193" lat="60.2888833329" lon="11.6405611115">
		<tag k="name" v="Snikerud" />
		<tag k="place" v="farm" />
		<tag k="ssr:stedsnr" v="543041" />
	</node>
	<node id="-39187" lat="60.2775583309" lon="11.7803722269">
		<tag k="name" v="Østmoen" />
		<tag k="place" v="farm" />
		<tag k="ssr:stedsnr" v="542498" />
	</node>
	<node id="-39186" lat="60.2929888878" lon="11.7779944355">
		<tag k="name" v="Lundeby" />
		<tag k="place" v="farm" />
		<tag k="ssr:stedsnr" v="542494" />
	</node>
	<node id="-39175" lat="60.1964416683" lon="11.8252333414">
		<tag k="name" v="Krogsrudholen" />
		<tag k="place" v="farm" />
		<tag k="ssr:stedsnr" v="535125" />
	</node>
	<node id="-39173" lat="60.2447333303" lon="11.844327784">
		<tag k="amenity" v="school" />
		<tag k="name" v="Tjaberg barneskole" />
		<tag k="ssr:stedsnr" v="528909" />
	</node>
	<node id="-39166" lat="60.3231055532" lon="11.735997222">
		<tag k="name" v="Holt" />
		<tag k="place" v="farm" />
		<tag k="ssr:stedsnr" v="525994" />
	</node>
	<node id="-39163" lat="60.2465499994" lon="11.7064194453">
		<tag k="name" v="Skarnestangen" />
		<tag k="place" v="isolated_dwelling" />
		<tag k="ssr:stedsnr" v="525857" />
	</node>
	<node id="-39162" lat="60.286166671" lon="11.6428361031">
		<tag k="name" v="Inngjerdslen" />
		<tag k="old_name" v="Inngjerdsla;Indgjerdslen;Inngjerdinga" />
		<tag k="place" v="farm" />
		<tag k="ssr:stedsnr" v="525551" />
	</node>
	<node id="-39161" lat="60.215905558" lon="11.7866833346">
		<tag k="alt_name" v="Rustad" />
		<tag k="name" v="Vestre Raustad" />
		<tag k="place" v="farm" />
		<tag k="ssr:stedsnr" v="525497" />
	</node>
	<node id="-39160" lat="60.1172222216" lon="11.8947972223">
		<tag k="name" v="Skihytta" />
		<tag k="place" v="isolated_dwelling" />
		<tag k="ssr:stedsnr" v="525289" />
	</node>
	<node id="-39156" lat="60.3334805554" lon="11.6605666692">
		<tag k="alt_name" v="Årstadengen" />
		<tag k="name" v="Holtet" />
		<tag k="place" v="isolated_dwelling" />
		<tag k="ssr:stedsnr" v="431999" />
	</node>
	<node id="-39155" lat="60.3384194413" lon="11.7251194463">
		<tag k="name" v="Jonsrud" />
		<tag k="place" v="farm" />
		<tag k="ssr:stedsnr" v="431994" />
	</node>
	<node id="-39154" lat="60.3205861072" lon="11.6299388926">
		<tag k="name" v="Farset" />
		<tag k="place" v="farm" />
		<tag k="ssr:stedsnr" v="431988" />
	</node>
	<node id="-39153" lat="60.3247916678" lon="11.7421861117">
		<tag k="name" v="Våltorp" />
		<tag k="place" v="farm" />
		<tag k="ssr:stedsnr" v="431985" />
	</node>
	<node id="-39152" lat="60.3264305578" lon="11.7273666628">
		<tag k="name" v="Steinsby" />
		<tag k="place" v="farm" />
		<tag k="ssr:stedsnr" v="431981" />
	</node>
	<node id="-39151" lat="60.3077500028" lon="11.6979722156">
		<tag k="name" v="Østby" />
		<tag k="place" v="farm" />
		<tag k="ssr:stedsnr" v="431964" />
	</node>
	<node id="-39150" lat="60.2972666643" lon="11.6210472223">
		<tag k="alt_name" v="Ringnesdalen" />
		<tag k="name" v="Dalen" />
		<tag k="place" v="isolated_dwelling" />
		<tag k="ssr:stedsnr" v="431963" />
	</node>
	<node id="-39149" lat="60.3002944477" lon="11.61305834">
		<tag k="name" v="Larvika" />
		<tag k="place" v="isolated_dwelling" />
		<tag k="ssr:stedsnr" v="431961" />
	</node>
	<node id="-39147" lat="60.2896694423" lon="11.6666916649">
		<tag k="name" v="Ringnes" />
		<tag k="place" v="farm" />
		<tag k="ssr:stedsnr" v="431577" />
	</node>
	<node id="-39146" lat="60.2936583369" lon="11.7277638964">
		<tag k="alt_name" v="Hestbråten" />
		<tag k="name" v="Bråten" />
		<tag k="place" v="farm" />
		<tag k="ssr:stedsnr" v="431576" />
	</node>
	<node id="-39145" lat="60.260583338" lon="11.6918888839">
		<tag k="name" v="Solbakken" />
		<tag k="place" v="farm" />
		<tag k="ssr:stedsnr" v="431569" />
	</node>
	<node id="-39144" lat="60.2552916643" lon="11.8378499971">
		<tag k="name" v="Bergerhagen" />
		<tag k="place" v="farm" />
		<tag k="ssr:stedsnr" v="431564" />
	</node>
	<node id="-39143" lat="60.2715805565" lon="11.7425361129">
		<tag k="name" v="Bråten" />
		<tag k="place" v="locality" />
		<tag k="ssr:stedsnr" v="431545" />
	</node>
	<node id="-39141" lat="60.2519944444" lon="11.8904722188">
		<tag k="name" v="Brattbakken" />
		<tag k="place" v="farm" />
		<tag k="ssr:stedsnr" v="431455" />
	</node>
	<node id="-39140" lat="60.2415666627" lon="11.6673527862">
		<tag k="name" v="Sandnesmoen" />
		<tag k="place" v="isolated_dwelling" />
		<tag k="ssr:stedsnr" v="430991" />
	</node>
	<node id="-39139" lat="60.2396251614" lon="11.7469923138">
		<tag k="fixme" v="consider place=hamlet" />
		<tag k="name" v="Hauggard" />
		<tag k="place" v="farm" />
		<tag k="ssr:stedsnr" v="430987" />
	</node>
	<node id="-39138" lat="60.233633333" lon="11.6362888914">
		<tag k="name" v="Olsrud" />
		<tag k="place" v="farm" />
		<tag k="ssr:stedsnr" v="430985" />
	</node>
	<node id="-39137" lat="60.2491138882" lon="11.7151305566">
		<tag k="alt_name" v="Nedre Mo" />
		<tag k="name" v="Mo" />
		<tag k="place" v="farm" />
		<tag k="ssr:stedsnr" v="430941" />
	</node>
	<node id="-39136" lat="60.1800027766" lon="11.6488527832">
		<tag k="name" v="Solbakken" />
		<tag k="place" v="farm" />
		<tag k="ssr:stedsnr" v="430866" />
	</node>
	<node id="-39135" lat="60.1941722258" lon="11.6954638911">
		<tag k="name" v="Årbogbråten" />
		<tag k="place" v="locality" />
		<tag k="ssr:stedsnr" v="430837" />
	</node>
	<node id="-39133" lat="60.1907888896" lon="11.8164083282">
		<tag k="name" v="Hiråsen" />
		<tag k="place" v="farm" />
		<tag k="ssr:stedsnr" v="430833" />
	</node>
	<node id="-39132" lat="60.2171694474" lon="11.7685583403">
		<tag k="name" v="Karlstad" />
		<tag k="place" v="farm" />
		<tag k="ssr:stedsnr" v="430797" />
	</node>
	<node id="-39131" lat="60.2185666671" lon="11.6679388836">
		<tag k="fixme" v="multiple name tags, choose one and add the other to alt_name" />
		<tag k="name" v="Rognhaugen;Taugbøl" />
		<tag k="place" v="farm" />
		<tag k="ssr:stedsnr" v="430794" />
	</node>
	<node id="-39130" lat="60.1968611151" lon="11.6276027752">
		<tag k="name" v="Slettbakken" />
		<tag k="place" v="farm" />
		<tag k="ssr:stedsnr" v="430778" />
	</node>
	<node id="-39129" lat="60.1950555577" lon="11.5791111152">
		<tag k="name" v="Staksrud" />
		<tag k="place" v="farm" />
		<tag k="ssr:stedsnr" v="430777" />
	</node>
	<node id="-39128" lat="60.2031520815" lon="11.6084268979">
		<tag k="fixme" v="consider place=hamlet" />
		<tag k="name" v="Gjersøyen" />
		<tag k="place" v="farm" />
		<tag k="ssr:stedsnr" v="430776" />
	</node>
	<node id="-39127" lat="60.1919749974" lon="11.8388361033">
		<tag k="name" v="Flinterud" />
		<tag k="place" v="farm" />
		<tag k="ssr:stedsnr" v="430829" />
	</node>
	<node id="-37583" lat="60.2320555596" lon="11.822530555">
		<tag k="name" v="Sundbymoen" />
		<tag k="place" v="isolated_dwelling" />
		<tag k="ssr:stedsnr" v="223457" />
	</node>
	<node id="-39122" lat="60.2196138899" lon="11.7614361152">
		<tag k="name" v="Venstad" />
		<tag k="place" v="farm" />
		<tag k="ssr:stedsnr" v="430752" />
	</node>
	<node id="-39118" lat="60.2099527741" lon="11.8581000064">
		<tag k="name" v="Hagamoen" />
		<tag k="place" v="farm" />
		<tag k="ssr:stedsnr" v="430092" />
	</node>
	<node id="-39117" lat="60.1936403478" lon="11.8668311223">
		<tag k="fixme" v="consider place=hamlet" />
		<tag k="name" v="Stomperud" />
		<tag k="place" v="farm" />
		<tag k="ssr:stedsnr" v="430060" />
	</node>
	<node id="-39112" lat="60.2197944426" lon="11.7827333365">
		<tag k="name" v="Austerud" />
		<tag k="place" v="farm" />
		<tag k="ssr:stedsnr" v="423492" />
	</node>
	<node id="-39111" lat="60.2489888914" lon="11.7844527704">
		<tag k="name" v="Duåslykkja" />
		<tag k="place" v="farm" />
		<tag k="ssr:stedsnr" v="423482" />
	</node>
	<node id="-39109" lat="60.2298555554" lon="11.5902527708">
		<tag k="name" v="Steinerud" />
		<tag k="place" v="farm" />
		<tag k="ssr:stedsnr" v="423655" />
	</node>
	<node id="-39108" lat="60.2472055524" lon="11.6875999944">
		<tag k="name" v="Østerengbråten" />
		<tag k="place" v="quarter" />
		<tag k="ssr:stedsnr" v="423379" />
	</node>
	<node id="-39107" lat="60.2235472219" lon="11.6343416658">
		<tag k="name" v="Ullern" />
		<tag k="place" v="quarter" />
		<tag k="ssr:stedsnr" v="423370" />
	</node>
	<node id="-39106" lat="60.231191667" lon="11.9012305511">
		<tag k="name" v="Delet" />
		<tag k="place" v="isolated_dwelling" />
		<tag k="ssr:stedsnr" v="423201" />
	</node>
	<node id="-37579" lat="60.3084083378" lon="11.624572224">
		<tag k="name" v="Kvernberget" />
		<tag k="place" v="farm" />
		<tag k="ssr:stedsnr" v="222840" />
	</node>
	<node id="-39104" lat="60.2180111128" lon="11.6467861044">
		<tag k="name" v="Sagmoen" />
		<tag k="place" v="isolated_dwelling" />
		<tag k="ssr:stedsnr" v="423149" />
	</node>
	<node id="-39098" lat="60.2380583305" lon="11.7911416686">
		<tag k="name" v="Øverstrøm" />
		<tag k="place" v="farm" />
		<tag k="ssr:stedsnr" v="422089" />
	</node>
	<node id="-39090" lat="60.3425472214" lon="11.7243388912">
		<tag k="name" v="Rønningen" />
		<tag k="place" v="isolated_dwelling" />
		<tag k="ssr:stedsnr" v="421590" />
	</node>
	<node id="-39080" lat="60.2120777791" lon="11.877997218">
		<tag k="name" v="Rydningen" />
		<tag k="place" v="farm" />
		<tag k="ssr:stedsnr" v="419180" />
	</node>
	<node id="-39078" lat="60.2452750005" lon="11.7292138913">
		<tag k="name" v="Ågotsrud" />
		<tag k="place" v="farm" />
		<tag k="ssr:stedsnr" v="407318" />
	</node>
	<node id="-39077" lat="60.2641555514" lon="11.7612388813">
		<tag k="name" v="Haug" />
		<tag k="place" v="farm" />
		<tag k="ssr:stedsnr" v="406521" />
	</node>
	<node id="-39076" lat="60.2141377407" lon="11.6302852222">
		<tag k="fixme" v="consider place=hamlet" />
		<tag k="name" v="Store Ullern" />
		<tag k="place" v="farm" />
		<tag k="ssr:stedsnr" v="406451" />
	</node>
	<node id="-39075" lat="60.2340833348" lon="11.6199305616">
		<tag k="name" v="Steinerudtangen" />
		<tag k="place" v="farm" />
		<tag k="ssr:stedsnr" v="406086" />
	</node>
	<node id="-39073" lat="60.2180055581" lon="11.6375499969">
		<tag k="name" v="Smedstuen" />
		<tag k="place" v="isolated_dwelling" />
		<tag k="ssr:stedsnr" v="406078" />
	</node>
	<node id="-39072" lat="60.324866668" lon="11.6534972226">
		<tag k="name" v="Engebråten" />
		<tag k="place" v="farm" />
		<tag k="ssr:stedsnr" v="405937" />
	</node>
	<node id="-39069" lat="60.1943972245" lon="11.8704527708">
		<tag k="name" v="Solbakken" />
		<tag k="place" v="isolated_dwelling" />
		<tag k="ssr:stedsnr" v="405693" />
	</node>
	<node id="-39064" lat="60.31124444" lon="11.6908861192">
		<tag k="name" v="Østby" />
		<tag k="place" v="farm" />
		<tag k="ssr:stedsnr" v="404977" />
	</node>
	<node id="-37581" lat="60.3047472257" lon="11.7480027796">
		<tag k="name" v="Bekkehagen" />
		<tag k="place" v="farm" />
		<tag k="ssr:stedsnr" v="222970" />
	</node>
	<node id="-39061" lat="60.3297277745" lon="11.6531888798">
		<tag k="name" v="Trosvika" />
		<tag k="place" v="farm" />
		<tag k="ssr:stedsnr" v="370995" />
	</node>
	<node id="-39060" lat="60.333658331" lon="11.7222388977">
		<tag k="name" v="Slåstadsæter" />
		<tag k="place" v="farm" />
		<tag k="ssr:stedsnr" v="370982" />
	</node>
	<node id="-39059" lat="60.3117527748" lon="11.7774944517">
		<tag k="alt_name" v="Melgardsbrua" />
		<tag k="name" v="Brua" />
		<tag k="place" v="farm" />
		<tag k="ssr:stedsnr" v="370979" />
	</node>
	<node id="-39058" lat="60.3062166709" lon="11.6824722225">
		<tag k="alt_name" v="Øvre Nylenda" />
		<tag k="name" v="Nylenda" />
		<tag k="place" v="farm" />
		<tag k="ssr:stedsnr" v="370951" />
	</node>
	<node id="-39057" lat="60.2507416649" lon="11.7628194403">
		<tag k="name" v="Eikrim" />
		<tag k="place" v="farm" />
		<tag k="ssr:stedsnr" v="370619" />
	</node>
	<node id="-39056" lat="60.2515888861" lon="11.7828388815">
		<tag k="name" v="Duåsbråten" />
		<tag k="place" v="isolated_dwelling" />
		<tag k="ssr:stedsnr" v="370615" />
	</node>
	<node id="-39055" lat="60.2806611147" lon="11.6064388956">
		<tag k="historic" v="shieling" />
		<tag k="name" v="Vestbysætra" />
		<tag k="place" v="locality" />
		<tag k="ssr:stedsnr" v="370582" />
	</node>
	<node id="-39054" lat="60.2761583299" lon="11.7847888935">
		<tag k="name" v="Holter" />
		<tag k="place" v="farm" />
		<tag k="ssr:stedsnr" v="370576" />
	</node>
	<node id="-39053" lat="60.2719009009" lon="11.7916563028">
		<tag k="fixme" v="consider place=hamlet" />
		<tag k="name" v="Langnes" />
		<tag k="place" v="farm" />
		<tag k="ssr:stedsnr" v="370575" />
	</node>
	<node id="-39052" lat="60.2927055542" lon="11.8112861193">
		<tag k="name" v="Fagerlien" />
		<tag k="place" v="isolated_dwelling" />
		<tag k="ssr:stedsnr" v="370571" />
	</node>
	<node id="-39051" lat="60.2879027796" lon="11.7898722233">
		<tag k="name" v="Midten" />
		<tag k="place" v="farm" />
		<tag k="ssr:stedsnr" v="370567" />
	</node>
	<node id="-39049" lat="60.2589777766" lon="11.8147805557">
		<tag k="name" v="Sjøli" />
		<tag k="place" v="farm" />
		<tag k="ssr:stedsnr" v="370557" />
	</node>
	<node id="-39048" lat="60.2527140308" lon="11.8509636323">
		<tag k="fixme" v="consider place=hamlet" />
		<tag k="name" v="Åbuset" />
		<tag k="place" v="farm" />
		<tag k="ssr:stedsnr" v="370466" />
	</node>
	<node id="-39047" lat="60.2410583308" lon="11.8774472131">
		<tag k="name" v="Svansrud" />
		<tag k="place" v="farm" />
		<tag k="ssr:stedsnr" v="370062" />
	</node>
	<node id="-39046" lat="60.2394913492" lon="11.8343834482">
		<tag k="fixme" v="consider place=hamlet" />
		<tag k="name" v="Hamar" />
		<tag k="place" v="farm" />
		<tag k="ssr:stedsnr" v="369993" />
	</node>
	<node id="-39045" lat="60.2431936826" lon="11.6440872345">
		<tag k="fixme" v="consider place=hamlet" />
		<tag k="name" v="Spikset" />
		<tag k="place" v="farm" />
		<tag k="ssr:stedsnr" v="369987" />
	</node>
	<node id="-39044" lat="60.2399750031" lon="11.730038887">
		<tag k="name" v="Mangsethagan" />
		<tag k="place" v="farm" />
		<tag k="ssr:stedsnr" v="369982" />
	</node>
	<node id="-39043" lat="60.2318027823" lon="11.7499999919">
		<tag k="name" v="Mangen" />
		<tag k="place" v="farm" />
		<tag k="ssr:stedsnr" v="369976" />
	</node>
	<node id="-39042" lat="60.24581667" lon="11.592894449">
		<tag k="name" v="Granli" />
		<tag k="place" v="farm" />
		<tag k="ssr:stedsnr" v="369934" />
	</node>
	<node id="-39041" lat="60.1754666669" lon="11.6944916701">
		<tag k="name" v="Masterud" />
		<tag k="place" v="isolated_dwelling" />
		<tag k="ssr:stedsnr" v="369862" />
	</node>
	<node id="-39038" lat="60.195469445" lon="11.6717166579">
		<tag k="name" v="Disibrua" />
		<tag k="place" v="isolated_dwelling" />
		<tag k="ssr:stedsnr" v="369829" />
	</node>
	<node id="-39037" lat="60.1975805562" lon="11.7471444499">
		<tag k="name" v="Hauggardsvangen" />
		<tag k="place" v="isolated_dwelling" />
		<tag k="ssr:stedsnr" v="369823" />
	</node>
	<node id="-39036" lat="60.178327779" lon="11.5786944517">
		<tag k="name" v="Nordby" />
		<tag k="place" v="farm" />
		<tag k="ssr:stedsnr" v="369791" />
	</node>
	<node id="-39033" lat="60.2135250025" lon="11.6729805569">
		<tag k="name" v="Åbråten" />
		<tag k="place" v="farm" />
		<tag k="ssr:stedsnr" v="369784" />
	</node>
	<node id="-39032" lat="60.195552778" lon="11.6456861056">
		<tag k="name" v="Gauni" />
		<tag k="place" v="farm" />
		<tag k="ssr:stedsnr" v="369771" />
	</node>
	<node id="-39031" lat="60.2228138889" lon="11.5952083377">
		<tag k="name" v="Lier" />
		<tag k="place" v="farm" />
		<tag k="ssr:stedsnr" v="369753" />
	</node>
	<node id="-39030" lat="60.2208611092" lon="11.6358055466">
		<tag k="name" v="Holen" />
		<tag k="place" v="farm" />
		<tag k="ssr:stedsnr" v="369750" />
	</node>
	<node id="-39025" lat="60.1125333377" lon="11.8391861068">
		<tag k="name" v="Skjulenga" />
		<tag k="place" v="isolated_dwelling" />
		<tag k="ssr:stedsnr" v="369673" />
	</node>
	<node id="-39024" lat="60.1128111138" lon="11.7344388974">
		<tag k="name" v="Råskjellvangen" />
		<tag k="place" v="isolated_dwelling" />
		<tag k="ssr:stedsnr" v="369651" />
	</node>
	<node id="-39018" lat="60.1912055529" lon="11.8788666655">
		<tag k="name" v="Pålsrud" />
		<tag k="place" v="farm" />
		<tag k="ssr:stedsnr" v="369053" />
	</node>
	<node id="-39017" lat="60.2447416644" lon="11.78364723">
		<tag k="name" v="Frydenlund" />
		<tag k="place" v="farm" />
		<tag k="ssr:stedsnr" v="362448" />
	</node>
	<node id="-39016" lat="60.2375972221" lon="11.7980194517">
		<tag k="name" v="Sundbymoen" />
		<tag k="place" v="farm" />
		<tag k="ssr:stedsnr" v="362446" />
	</node>
	<node id="-37564" lat="60.3620388851" lon="11.744525006">
		<tag k="name" v="Isdalskoia" />
		<tag k="place" v="isolated_dwelling" />
		<tag k="ssr:stedsnr" v="6907" />
	</node>
	<node id="-39012" lat="60.2334500004" lon="11.8740388891">
		<tag k="name" v="Grimslandhølet" />
		<tag k="place" v="locality" />
		<tag k="ssr:stedsnr" v="362191" />
	</node>
	<node id="-39009" lat="60.2223694479" lon="11.7566888872">
		<tag k="name" v="Fritsvollhaugen" />
		<tag k="place" v="farm" />
		<tag k="ssr:stedsnr" v="362135" />
	</node>
	<node id="-39006" lat="60.2819388874" lon="11.660972229">
		<tag k="name" v="Midtre Vestby" />
		<tag k="place" v="farm" />
		<tag k="ssr:stedsnr" v="360777" />
	</node>
	<node id="-39005" lat="60.2931527745" lon="11.6768638836">
		<tag k="name" v="Lindstad" />
		<tag k="place" v="isolated_dwelling" />
		<tag k="ssr:stedsnr" v="360769" />
	</node>
	<node id="-39003" lat="60.2789916666" lon="11.784049993">
		<tag k="name" v="Korstulykkja" />
		<tag k="place" v="farm" />
		<tag k="ssr:stedsnr" v="360461" />
	</node>
	<node id="-38996" lat="60.1477472186" lon="11.6883999946">
		<tag k="name" v="Røykås" />
		<tag k="place" v="farm" />
		<tag k="ssr:stedsnr" v="360195" />
	</node>
	<node id="-38993" lat="60.1832722262" lon="11.6249583425">
		<tag k="name" v="Solli" />
		<tag k="place" v="farm" />
		<tag k="ssr:stedsnr" v="360064" />
	</node>
	<node id="-38988" lat="60.2176527791" lon="11.6366666635">
		<tag k="name" v="Øvre Ullern" />
		<tag k="place" v="farm" />
		<tag k="ssr:stedsnr" v="347340" />
	</node>
	<node id="-38986" lat="60.2211527789" lon="11.6767861096">
		<tag k="name" v="Lilleset" />
		<tag k="place" v="farm" />
		<tag k="ssr:stedsnr" v="346377" />
	</node>
	<node id="-38985" lat="60.189046909" lon="11.8866366287">
		<tag k="fixme" v="consider place=hamlet" />
		<tag k="name" v="Harstad" />
		<tag k="place" v="farm" />
		<tag k="ssr:stedsnr" v="345185" />
	</node>
	<node id="-38984" lat="60.2646694428" lon="11.705391672">
		<tag k="name" v="Ellingsbråten" />
		<tag k="place" v="isolated_dwelling" />
		<tag k="ssr:stedsnr" v="344795" />
	</node>
	<node id="-38983" lat="60.2688777813" lon="11.7437888893">
		<tag k="name" v="Hellerud" />
		<tag k="place" v="locality" />
		<tag k="ssr:stedsnr" v="344791" />
	</node>
	<node id="-38981" lat="60.2037388916" lon="11.8501305603">
		<tag k="name" v="Veslemoen" />
		<tag k="place" v="farm" />
		<tag k="ssr:stedsnr" v="344688" />
	</node>
	<node id="-38978" lat="60.2392750041" lon="11.6531805605">
		<tag k="name" v="Bjørnerud" />
		<tag k="place" v="isolated_dwelling" />
		<tag k="ssr:stedsnr" v="343901" />
	</node>
	<node id="-38973" lat="60.2385555529" lon="11.8576083278">
		<tag k="name" v="Vestli" />
		<tag k="place" v="farm" />
		<tag k="ssr:stedsnr" v="343355" />
	</node>
	<node id="-38972" lat="60.2478277811" lon="11.8277361049">
		<tag k="name" v="Nordre Stalsberg" />
		<tag k="place" v="farm" />
		<tag k="ssr:stedsnr" v="343350" />
	</node>
	<node id="-38971" lat="60.256463891" lon="11.8331750027">
		<tag k="name" v="Bergerbråten" />
		<tag k="place" v="farm" />
		<tag k="ssr:stedsnr" v="343345" />
	</node>
	<node id="-38966" lat="60.3097689342" lon="11.6679943845">
		<tag k="fixme" v="consider place=hamlet" />
		<tag k="name" v="Seim" />
		<tag k="place" v="farm" />
		<tag k="ssr:stedsnr" v="310946" />
	</node>
	<node id="-38965" lat="60.3067027819" lon="11.6982416604">
		<tag k="name" v="Karlsby" />
		<tag k="place" v="farm" />
		<tag k="ssr:stedsnr" v="310927" />
	</node>
	<node id="-38964" lat="60.3026000013" lon="11.8664111121">
		<tag k="historic" v="shieling" />
		<tag k="name" v="Granbergssætra" />
		<tag k="place" v="locality" />
		<tag k="ssr:stedsnr" v="310458" />
	</node>
	<node id="-38962" lat="60.2279388932" lon="11.73316666">
		<tag k="alt_name" v="Mangsetmoen" />
		<tag k="name" v="Moen" />
		<tag k="place" v="farm" />
		<tag k="ssr:stedsnr" v="309985" />
	</node>
	<node id="-38961" lat="60.317341663" lon="11.7327611149">
		<tag k="name" v="Holmen" />
		<tag k="place" v="farm" />
		<tag k="ssr:stedsnr" v="309983" />
	</node>
	<node id="-38960" lat="60.31986667" lon="11.6927527714">
		<tag k="name" v="Klokkerud" />
		<tag k="place" v="farm" />
		<tag k="ssr:stedsnr" v="309979" />
	</node>
	<node id="-38959" lat="60.2378194484" lon="11.6328138926">
		<tag k="name" v="Solbakken" />
		<tag k="place" v="farm" />
		<tag k="ssr:stedsnr" v="309947" />
	</node>
	<node id="-38958" lat="60.2936560613" lon="11.6673296997">
		<tag k="alt_name" v="Skulstad, søndre" />
		<tag k="fixme" v="consider place=hamlet" />
		<tag k="name" v="Søndre Skulstad" />
		<tag k="place" v="farm" />
		<tag k="ssr:stedsnr" v="309946" />
	</node>
	<node id="-38957" lat="60.2463043861" lon="11.839414672">
		<tag k="alt_name" v="Nedre Vestby" />
		<tag k="fixme" v="consider place=hamlet" />
		<tag k="name" v="Vestby" />
		<tag k="place" v="farm" />
		<tag k="ssr:stedsnr" v="309940" />
	</node>
	<node id="-38956" lat="60.3455749999" lon="11.648147216">
		<tag k="alt_name" v="Øyen, nedre" />
		<tag k="name" v="Nedre Øyen" />
		<tag k="place" v="farm" />
		<tag k="ssr:stedsnr" v="309890" />
	</node>
	<node id="-38955" lat="60.3453861081" lon="11.7952972166">
		<tag k="name" v="Mellomholtkoia" />
		<tag k="place" v="isolated_dwelling" />
		<tag k="ssr:stedsnr" v="309886" />
	</node>
	<node id="-38954" lat="60.1735861108" lon="11.6596888814">
		<tag k="name" v="Lia" />
		<tag k="place" v="isolated_dwelling" />
		<tag k="ssr:stedsnr" v="309877" />
	</node>
	<node id="-38953" lat="60.1784750004" lon="11.5919777724">
		<tag k="name" v="Høgholen" />
		<tag k="place" v="farm" />
		<tag k="ssr:stedsnr" v="309875" />
	</node>
	<node id="-38952" lat="60.1841027777" lon="11.6215027839">
		<tag k="name" v="Sæterhaugen" />
		<tag k="place" v="farm" />
		<tag k="ssr:stedsnr" v="309830" />
	</node>
	<node id="-38951" lat="60.1858194468" lon="11.6437722214">
		<tag k="name" v="Sakslund" />
		<tag k="place" v="farm" />
		<tag k="ssr:stedsnr" v="309827" />
	</node>
	<node id="-38948" lat="60.1879944442" lon="11.7654666639">
		<tag k="name" v="Rustadlia" />
		<tag k="place" v="farm" />
		<tag k="ssr:stedsnr" v="309821" />
	</node>
	<node id="-38947" lat="60.2219944485" lon="11.6751388921">
		<tag k="name" v="Lilleset" />
		<tag k="place" v="farm" />
		<tag k="ssr:stedsnr" v="309766" />
	</node>
	<node id="-38946" lat="60.2812354467" lon="11.6608901914">
		<tag k="name" v="Vestby" />
		<tag k="place" v="farm" />
		<tag k="ssr:stedsnr" v="309599" />
	</node>
	<node id="-38945" lat="60.2903555521" lon="11.6456277798">
		<tag k="name" v="Delbekk" />
		<tag k="place" v="farm" />
		<tag k="ssr:stedsnr" v="309583" />
	</node>
	<node id="-38944" lat="60.2893333365" lon="11.6725388804">
		<tag k="name" v="Flyginn" />
		<tag k="place" v="farm" />
		<tag k="ssr:stedsnr" v="309571" />
	</node>
	<node id="-38941" lat="60.2178861099" lon="11.5944277861">
		<tag k="name" v="Myrvang" />
		<tag k="place" v="farm" />
		<tag k="ssr:stedsnr" v="308744" />
	</node>
	<node id="-38938" lat="60.1551500007" lon="11.727330556">
		<tag k="historic" v="shieling" />
		<tag k="name" v="Gjersøysætra" />
		<tag k="place" v="locality" />
		<tag k="ssr:stedsnr" v="308596" />
	</node>
	<node id="-38937" lat="60.2268861085" lon="11.747247226">
		<tag k="name" v="Tørbakken" />
		<tag k="place" v="farm" />
		<tag k="ssr:stedsnr" v="302790" />
	</node>
	<node id="-38932" lat="60.2510027739" lon="11.7808333295">
		<tag k="name" v="Svarverud" />
		<tag k="place" v="farm" />
		<tag k="ssr:stedsnr" v="302436" />
	</node>
	<node id="-38930" lat="60.1910499984" lon="11.8635861145">
		<tag k="name" v="Stomperud" />
		<tag k="place" v="quarter" />
		<tag k="ssr:stedsnr" v="301333" />
	</node>
	<node id="-38926" lat="60.3303749991" lon="11.6262999941">
		<tag k="name" v="Brynjulfsrud" />
		<tag k="place" v="farm" />
		<tag k="ssr:stedsnr" v="188995" />
	</node>
	<node id="-38925" lat="60.3211222184" lon="11.6525583377">
		<tag k="name" v="Kvedalen" />
		<tag k="place" v="isolated_dwelling" />
		<tag k="ssr:stedsnr" v="188985" />
	</node>
	<node id="-38922" lat="60.3044277823" lon="11.6328749959">
		<tag k="name" v="Engebråten" />
		<tag k="place" v="farm" />
		<tag k="ssr:stedsnr" v="188958" />
	</node>
	<node id="-38921" lat="60.3039638909" lon="11.7524861045">
		<tag k="name" v="Haugen" />
		<tag k="place" v="farm" />
		<tag k="ssr:stedsnr" v="188951" />
	</node>
	<node id="-38919" lat="60.1674638887" lon="11.6459250033">
		<tag k="name" v="Barstad" />
		<tag k="place" v="farm" />
		<tag k="ssr:stedsnr" v="188870" />
	</node>
	<node id="-38918" lat="60.1719333373" lon="11.7520583362">
		<tag k="name" v="Sjøgli" />
		<tag k="place" v="isolated_dwelling" />
		<tag k="ssr:stedsnr" v="188863" />
	</node>
	<node id="-38917" lat="60.2245812675" lon="11.6589017355">
		<tag k="fixme" v="consider place=hamlet" />
		<tag k="name" v="Sandnes" />
		<tag k="place" v="farm" />
		<tag k="ssr:stedsnr" v="188801" />
	</node>
	<node id="-38916" lat="60.2252277773" lon="11.7724777749">
		<tag k="name" v="Olsrud" />
		<tag k="place" v="farm" />
		<tag k="ssr:stedsnr" v="188789" />
	</node>
	<node id="-38915" lat="60.2187179967" lon="11.7929164992">
		<tag k="fixme" v="consider place=hamlet" />
		<tag k="name" v="Berger" />
		<tag k="place" v="farm" />
		<tag k="ssr:stedsnr" v="188786" />
	</node>
	<node id="-38914" lat="60.2929750035" lon="11.7227694372">
		<tag k="name" v="Vangen" />
		<tag k="place" v="isolated_dwelling" />
		<tag k="ssr:stedsnr" v="188589" />
	</node>
	<node id="-38913" lat="60.2823938379" lon="11.770854844">
		<tag k="name" v="Slåstad" />
		<tag k="place" v="hamlet" />
		<tag k="ssr:stedsnr" v="188585" />
	</node>
</osm>
