<?xml version="1.0" encoding="UTF-8"?>
<<<<<<< HEAD
<osm version="0.6" generator="osmapis">
	<node lat="60.25530833517254" lon="11.68393333155464" id="-18279">
=======
<osm generator="osmapis" version="0.6">
	<node id="-318144" lat="60.1380083319" lon="11.730552779">
		<tag k="name" v="Postkassa" />
		<tag k="place" v="locality" />
		<tag k="ssr:stedsnr" v="768226" />
	</node>
	<node id="-317984" lat="60.1860999995" lon="11.8403694438">
		<tag k="name" v="Hellestupen" />
		<tag k="place" v="locality" />
		<tag k="ssr:stedsnr" v="544697" />
	</node>
	<node id="-317883" lat="60.1152416628" lon="11.7155583416">
		<tag k="name" v="Kverna" />
		<tag k="place" v="locality" />
		<tag k="ssr:stedsnr" v="423283" />
	</node>
	<node id="-317209" lat="60.2790305564" lon="11.7801666741">
		<tag k="amenity" v="place_of_worship" />
		<tag k="fixme" v="specify religion=*, denomination=*, building=* etc" />
		<tag k="name" v="Slåstad bedehus" />
		<tag k="ssr:stedsnr" v="907459" />
	</node>
	<node id="-316374" lat="60.2553083352" lon="11.6839333316">
>>>>>>> e1d4bc35ff8a6074a6f2e91616a996b547c36f15
		<tag k="amenity" v="place_of_worship" />
		<tag k="fixme" v="specify religion=*, denomination=*, building=* etc" />
		<tag k="name" v="Skarnes menighetshus" />
		<tag k="ssr:stedsnr" v="224421" />
	</node>
<<<<<<< HEAD
	<node lat="60.27828610673254" lon="11.916466670541002" id="-18657">
=======
	<node id="-316966" lat="60.30741111" lon="11.7565333321">
		<tag k="name" v="Elggrava" />
		<tag k="place" v="locality" />
		<tag k="ssr:stedsnr" v="707969" />
	</node>
	<node id="-316518" lat="60.3009722234" lon="11.7523138928">
		<tag k="amenity" v="community_centre" />
		<tag k="name" v="Betania" />
		<tag k="ssr:stedsnr" v="119796" />
	</node>
	<node id="-317075" lat="60.1468083331" lon="11.760199999">
		<tag k="name" v="Grønsjøkorset" />
		<tag k="place" v="locality" />
		<tag k="ssr:stedsnr" v="733613" />
	</node>
	<node id="-316722" lat="60.2782861067" lon="11.9164666705">
>>>>>>> e1d4bc35ff8a6074a6f2e91616a996b547c36f15
		<tag k="name" v="Gruvholen" />
		<tag k="place" v="locality" />
		<tag k="ssr:stedsnr" v="491489" />
	</node>
<<<<<<< HEAD
	<node lat="60.24365000444928" lon="11.763505550217069" id="-18664">
		<tag k="amenity" v="place_of_worship" />
		<tag k="denomination" v="lutheran" />
		<tag k="name" v="Strøm kirke" />
		<tag k="religion" v="christian" />
		<tag k="ssr:stedsnr" v="491989" />
	</node>
	<node lat="60.30741110995905" lon="11.756533332063674" id="-18844">
		<tag k="name" v="Elggrava" />
		<tag k="place" v="locality" />
		<tag k="ssr:stedsnr" v="707969" />
	</node>
	<node lat="60.11739444384371" lon="11.835430554385347" id="-18896">
=======
	<node id="-317201" lat="60.1173944438" lon="11.8354305544">
>>>>>>> e1d4bc35ff8a6074a6f2e91616a996b547c36f15
		<tag k="name" v="Torsrudkverna" />
		<tag k="place" v="locality" />
		<tag k="ssr:stedsnr" v="906679" />
	</node>
<<<<<<< HEAD
	<node lat="60.27903055640084" lon="11.780166674077782" id="-18917">
		<tag k="amenity" v="place_of_worship" />
		<tag k="fixme" v="specify religion=*, denomination=*, building=* etc" />
		<tag k="name" v="Slåstad bedehus" />
		<tag k="ssr:stedsnr" v="907459" />
	</node>
	<node lat="60.266150000942766" lon="11.679744440075385" id="-18953">
		<tag k="name" v="Odalstunet" />
		<tag k="ssr:stedsnr" v="795568" />
		<tag k="tourism" v="museum" />
	</node>
	<node lat="60.21284722117164" lon="11.635758324454352" id="-19131">
=======
	<node id="-317679" lat="60.1878222209" lon="11.8700250089">
		<tag k="name" v="Paulsrudleira" />
		<tag k="place" v="locality" />
		<tag k="ssr:stedsnr" v="180681" />
	</node>
	<node id="-318062" lat="60.1404472192" lon="11.7179361149">
		<tag k="name" v="Fridasvingen" />
		<tag k="place" v="locality" />
		<tag k="ssr:stedsnr" v="602624" />
	</node>
	<node id="-317387" lat="60.2128472212" lon="11.6357583245">
>>>>>>> e1d4bc35ff8a6074a6f2e91616a996b547c36f15
		<tag k="amenity" v="place_of_worship" />
		<tag k="denomination" v="lutheran" />
		<tag k="name" v="Ullern kirke" />
		<tag k="old_name" v="Ulleren" />
		<tag k="religion" v="christian" />
		<tag k="ssr:stedsnr" v="5746" />
	</node>
<<<<<<< HEAD
	<node lat="60.287474996234664" lon="11.669886118848105" id="-19210">
=======
	<node id="-317510" lat="60.2874749962" lon="11.6698861188">
>>>>>>> e1d4bc35ff8a6074a6f2e91616a996b547c36f15
		<tag k="amenity" v="place_of_worship" />
		<tag k="denomination" v="lutheran" />
		<tag k="name" v="Oppstad kirke" />
		<tag k="religion" v="christian" />
		<tag k="ssr:stedsnr" v="67573" />
	</node>
<<<<<<< HEAD
	<node lat="60.30097222343879" lon="11.752313892835748" id="-19265">
		<tag k="amenity" v="community_centre" />
		<tag k="name" v="Betania" />
		<tag k="ssr:stedsnr" v="119796" />
	</node>
	<node lat="60.29946388658505" lon="11.662741668712188" id="-19340">
=======
	<node id="-316753" lat="60.2436500044" lon="11.7635055502">
		<tag k="amenity" v="place_of_worship" />
		<tag k="denomination" v="lutheran" />
		<tag k="name" v="Strøm kirke" />
		<tag k="religion" v="christian" />
		<tag k="ssr:stedsnr" v="491989" />
	</node>
	<node id="-317668" lat="60.2994638866" lon="11.6627416687">
>>>>>>> e1d4bc35ff8a6074a6f2e91616a996b547c36f15
		<tag k="amenity" v="community_centre" />
		<tag k="name" v="Oppstad Samfunnshus" />
		<tag k="ssr:stedsnr" v="178789" />
	</node>
<<<<<<< HEAD
	<node lat="60.18782222085755" lon="11.870025008869545" id="-19348">
		<tag k="name" v="Paulsrudleira" />
		<tag k="place" v="locality" />
		<tag k="ssr:stedsnr" v="180681" />
	</node>
	<node lat="60.11524166280979" lon="11.715558341623396" id="-19580">
		<tag k="name" v="Kverna" />
		<tag k="place" v="locality" />
		<tag k="ssr:stedsnr" v="423283" />
	</node>
	<node lat="60.186099999461184" lon="11.840369443787848" id="-19661">
		<tag k="name" v="Hellestupen" />
		<tag k="place" v="locality" />
		<tag k="ssr:stedsnr" v="544697" />
=======
	<node id="-317286" lat="60.2661500009" lon="11.6797444401">
		<tag k="name" v="Odalstunet" />
		<tag k="ssr:stedsnr" v="795568" />
		<tag k="tourism" v="museum" />
>>>>>>> e1d4bc35ff8a6074a6f2e91616a996b547c36f15
	</node>
	<node id="-318275" lat="60.2111527769" lon="11.635044442">
		<tag k="name" v="Ullern sund" />
		<tag k="place" v="locality" />
		<tag k="ssr:stedsnr" v="833347" />
	</node>
</osm>
