<?xml version="1.0" encoding="UTF-8"?>
<osm generator="osmapis" version="0.6">
	<node id="-317435" lat="60.2754472258" lon="11.6103083284">
		<tag k="historic" v="shieling" />
		<tag k="name" v="Moasætra" />
		<tag k="place" v="locality" />
		<tag k="ssr:stedsnr" v="42071" />
	</node>
	<node id="-317432" lat="60.2807083323" lon="11.6181888877">
		<tag k="name" v="Jeinstigmyra" />
		<tag k="natural" v="wetland" />
		<tag k="ssr:stedsnr" v="42031" />
	</node>
	<node id="-317431" lat="60.292983335" lon="11.7594055647">
		<tag k="name" v="Stormyra" />
		<tag k="natural" v="wetland" />
		<tag k="ssr:stedsnr" v="41782" />
	</node>
	<node id="-317418" lat="60.1511111127" lon="11.737955549">
		<tag k="name" v="Helvetesmyra" />
		<tag k="natural" v="wetland" />
		<tag k="ssr:stedsnr" v="40240" />
	</node>
	<node id="-317411" lat="60.3025250018" lon="11.5818333319">
		<tag k="name" v="Stormyra" />
		<tag k="natural" v="wetland" />
		<tag k="ssr:stedsnr" v="6973" />
	</node>
	<node id="-317378" lat="60.2078333353" lon="11.8508305624">
		<tag k="name" v="Kjerkemyra" />
		<tag k="natural" v="wetland" />
		<tag k="ssr:stedsnr" v="5090" />
	</node>
	<node id="-317373" lat="60.1034333329" lon="11.8043750044">
		<tag k="name" v="Revholen" />
		<tag k="place" v="locality" />
		<tag k="ssr:stedsnr" v="969709" />
	</node>
	<node id="-317372" lat="60.2197916627" lon="11.769505564">
		<tag k="name" v="Haukmyra" />
		<tag k="natural" v="wetland" />
		<tag k="ssr:stedsnr" v="969461" />
	</node>
	<node id="-317371" lat="60.2786527777" lon="11.8595027704">
		<tag k="name" v="Legdeberget" />
		<tag k="place" v="locality" />
		<tag k="ssr:stedsnr" v="969423" />
	</node>
	<node id="-317370" lat="60.3246565683" lon="11.8010159387">
		<tag k="name" v="Kloppmyra" />
		<tag k="natural" v="wetland" />
		<tag k="ssr:stedsnr" v="969322" />
	</node>
	<node id="-317360" lat="60.3507972258" lon="11.8174138827">
		<tag k="name" v="Kjølmyra" />
		<tag k="natural" v="wetland" />
		<tag k="ssr:stedsnr" v="967218" />
	</node>
	<node id="-317357" lat="60.3001749989" lon="11.5618944466">
		<tag k="name" v="Spellmyra" />
		<tag k="natural" v="wetland" />
		<tag k="ssr:stedsnr" v="967019" />
	</node>
	<node id="-317356" lat="60.3011055544" lon="11.8306194413">
		<tag k="name" v="Helvete" />
		<tag k="place" v="locality" />
		<tag k="ssr:stedsnr" v="965475" />
	</node>
	<node id="-317355" lat="60.2981472225" lon="11.8386944485">
		<tag k="name" v="Nysæterhola" />
		<tag k="place" v="locality" />
		<tag k="ssr:stedsnr" v="965469" />
	</node>
	<node id="-317354" lat="60.322658334" lon="11.8008527769">
		<tag k="name" v="Kloppmyrene" />
		<tag k="natural" v="wetland" />
		<tag k="ssr:stedsnr" v="965458" />
	</node>
	<node id="-317347" lat="60.1897111147" lon="11.8088000029">
		<tag k="name" v="Hiråsmyra" />
		<tag k="natural" v="wetland" />
		<tag k="ssr:stedsnr" v="951726" />
	</node>
	<node id="-317326" lat="60.2966694401" lon="11.8056027814">
		<tag k="name" v="Ulvåsen" />
		<tag k="place" v="locality" />
		<tag k="ssr:stedsnr" v="907434" />
	</node>
	<node id="-317325" lat="60.288963888" lon="11.6156666657">
		<tag k="name" v="Knaddmyra" />
		<tag k="natural" v="wetland" />
		<tag k="ssr:stedsnr" v="907040" />
	</node>
	<node id="-317321" lat="60.1571499998" lon="11.8137055484">
		<tag k="historic" v="shieling" />
		<tag k="name" v="Kamphaug" />
		<tag k="place" v="locality" />
		<tag k="ssr:stedsnr" v="906660" />
	</node>
	<node id="-317319" lat="60.3199305555" lon="11.7895055604">
		<tag k="name" v="Den Runde Myra" />
		<tag k="natural" v="wetland" />
		<tag k="ssr:stedsnr" v="905466" />
	</node>
	<node id="-317318" lat="60.0708833342" lon="11.8701111105">
		<tag k="name" v="Grågåsmyra" />
		<tag k="natural" v="wetland" />
		<tag k="ssr:stedsnr" v="898608" />
	</node>
	<node id="-317315" lat="60.2454611081" lon="11.8665138914">
		<tag k="name" v="Rudshavna" />
		<tag k="place" v="locality" />
		<tag k="ssr:stedsnr" v="950389" />
	</node>
	<node id="-317314" lat="60.1134638893" lon="11.8790527782">
		<tag k="name" v="Branntomta" />
		<tag k="place" v="locality" />
		<tag k="ssr:stedsnr" v="950277" />
	</node>
	<node id="-317313" lat="60.0892333335" lon="11.87547223">
		<tag k="name" v="Orremyrene" />
		<tag k="natural" v="wetland" />
		<tag k="ssr:stedsnr" v="950269" />
	</node>
	<node id="-317309" lat="60.1804277796" lon="11.7055222239">
		<tag k="name" v="Mastmyra" />
		<tag k="natural" v="wetland" />
		<tag k="ssr:stedsnr" v="950196" />
	</node>
	<node id="-317308" lat="60.1932361084" lon="11.6810277809">
		<tag k="name" v="Åsmyra" />
		<tag k="natural" v="wetland" />
		<tag k="ssr:stedsnr" v="950204" />
	</node>
	<node id="-317287" lat="60.2954805539" lon="11.5530499946">
		<tag k="name" v="Langmyra" />
		<tag k="natural" v="wetland" />
		<tag k="ssr:stedsnr" v="795961" />
	</node>
	<node id="-317284" lat="60.2218611085" lon="11.7184999946">
		<tag k="name" v="Spitmyra" />
		<tag k="natural" v="wetland" />
		<tag k="ssr:stedsnr" v="794765" />
	</node>
	<node id="-317278" lat="60.0840944461" lon="11.8478194514">
		<tag k="historic" v="shieling" />
		<tag k="name" v="Låksåvangen" />
		<tag k="place" v="locality" />
		<tag k="ssr:stedsnr" v="787559" />
	</node>
	<node id="-317273" lat="60.274077781" lon="11.907508325">
		<tag k="name" v="Grimslandsætra" />
		<tag k="place" v="locality" />
		<tag k="ssr:stedsnr" v="786227" />
	</node>
	<node id="-317271" lat="60.3120638881" lon="11.8155916681">
		<tag k="name" v="Siraksmyra" />
		<tag k="natural" v="wetland" />
		<tag k="ssr:stedsnr" v="783430" />
	</node>
	<node id="-317245" lat="60.3213944482" lon="11.8815194387">
		<tag k="name" v="Gørrpyttmyra" />
		<tag k="natural" v="wetland" />
		<tag k="ssr:stedsnr" v="916481" />
	</node>
	<node id="-317240" lat="60.1588499992" lon="11.9145527698">
		<tag k="name" v="Storholen" />
		<tag k="place" v="locality" />
		<tag k="ssr:stedsnr" v="915540" />
	</node>
	<node id="-317235" lat="60.1050305596" lon="11.856875005">
		<tag k="name" v="Saumyra" />
		<tag k="natural" v="wetland" />
		<tag k="ssr:stedsnr" v="769718" />
	</node>
	<node id="-317231" lat="60.1840527779" lon="11.7669083296">
		<tag k="historic" v="shieling" />
		<tag k="name" v="Huvenesvangen" />
		<tag k="place" v="locality" />
		<tag k="ssr:stedsnr" v="769697" />
	</node>
	<node id="-317224" lat="60.0751611069" lon="11.8617055469">
		<tag k="name" v="Lauvskogbråtemyra" />
		<tag k="natural" v="wetland" />
		<tag k="ssr:stedsnr" v="909542" />
	</node>
	<node id="-317223" lat="60.0606500023" lon="11.8078583388">
		<tag k="name" v="Fjellbumyra" />
		<tag k="natural" v="wetland" />
		<tag k="ssr:stedsnr" v="909541" />
	</node>
	<node id="-317221" lat="60.0720749996" lon="11.829644439">
		<tag k="name" v="Ballusmyra" />
		<tag k="natural" v="wetland" />
		<tag k="ssr:stedsnr" v="909537" />
	</node>
	<node id="-317218" lat="60.2932638848" lon="11.9061222184">
		<tag k="name" v="Piparudmyra" />
		<tag k="natural" v="wetland" />
		<tag k="ssr:stedsnr" v="909262" />
	</node>
	<node id="-317214" lat="60.2666499996" lon="11.9210611158">
		<tag k="name" v="Hamarhukmyra" />
		<tag k="natural" v="wetland" />
		<tag k="ssr:stedsnr" v="908251" />
	</node>
	<node id="-317213" lat="60.2694944437" lon="11.9310499928">
		<tag k="name" v="Kvanterudmyra" />
		<tag k="natural" v="wetland" />
		<tag k="ssr:stedsnr" v="908250" />
	</node>
	<node id="-317210" lat="60.3104666622" lon="11.5805555605">
		<tag k="historic" v="shieling" />
		<tag k="name" v="Leirudsvangen" />
		<tag k="place" v="locality" />
		<tag k="ssr:stedsnr" v="907793" />
	</node>
	<node id="-317206" lat="60.3697999997" lon="11.7614611055">
		<tag k="name" v="Tjærebrennmyra" />
		<tag k="natural" v="wetland" />
		<tag k="ssr:stedsnr" v="907213" />
	</node>
	<node id="-317202" lat="60.3414166693" lon="11.7569388903">
		<tag k="name" v="Vestre Kloppmyra" />
		<tag k="natural" v="wetland" />
		<tag k="ssr:stedsnr" v="906595" />
	</node>
	<node id="-317199" lat="60.163530553" lon="11.6653749981">
		<tag k="historic" v="shieling" />
		<tag k="name" v="Røyser" />
		<tag k="place" v="locality" />
		<tag k="ssr:stedsnr" v="905196" />
	</node>
	<node id="-317190" lat="60.1922250044" lon="11.7148527744">
		<tag k="historic" v="shieling" />
		<tag k="name" v="Meldisivanga" />
		<tag k="place" v="locality" />
		<tag k="ssr:stedsnr" v="726212" />
	</node>
	<node id="-317184" lat="60.1618944422" lon="11.7491861066">
		<tag k="name" v="Mjøgsjølia" />
		<tag k="place" v="locality" />
		<tag k="ssr:stedsnr" v="724605" />
	</node>
	<node id="-317181" lat="60.3226805583" lon="11.8310972182">
		<tag k="name" v="Snøplogmyra" />
		<tag k="natural" v="wetland" />
		<tag k="ssr:stedsnr" v="722425" />
	</node>
	<node id="-317180" lat="60.1686916669" lon="11.6841666604">
		<tag k="name" v="Den lange myra" />
		<tag k="natural" v="wetland" />
		<tag k="ssr:stedsnr" v="722224" />
	</node>
	<node id="-317179" lat="60.1071055576" lon="11.7244472234">
		<tag k="name" v="Runde myra" />
		<tag k="natural" v="wetland" />
		<tag k="ssr:stedsnr" v="907001" />
	</node>
	<node id="-317175" lat="60.3373083306" lon="11.8386722218">
		<tag k="name" v="Grasmyra" />
		<tag k="natural" v="wetland" />
		<tag k="ssr:stedsnr" v="709327" />
	</node>
	<node id="-317173" lat="60.2700833351" lon="11.716000002">
		<tag k="name" v="Mastmyra" />
		<tag k="natural" v="wetland" />
		<tag k="ssr:stedsnr" v="891786" />
	</node>
	<node id="-317171" lat="60.0941555574" lon="11.8170138842">
		<tag k="name" v="Langmyra" />
		<tag k="natural" v="wetland" />
		<tag k="ssr:stedsnr" v="891739" />
	</node>
	<node id="-317158" lat="60.30749722" lon="11.6953166675">
		<tag k="name" v="Karlsbymyra" />
		<tag k="natural" v="wetland" />
		<tag k="ssr:stedsnr" v="890970" />
	</node>
	<node id="-317149" lat="60.1275333325" lon="11.7053111044">
		<tag k="name" v="Høgemyra" />
		<tag k="natural" v="wetland" />
		<tag k="ssr:stedsnr" v="890259" />
	</node>
	<node id="-317147" lat="60.1288999979" lon="11.6794805585">
		<tag k="name" v="Pintelhukmyra" />
		<tag k="natural" v="wetland" />
		<tag k="ssr:stedsnr" v="890255" />
	</node>
	<node id="-317145" lat="60.1562972262" lon="11.7404583276">
		<tag k="name" v="Hardmyra" />
		<tag k="natural" v="wetland" />
		<tag k="ssr:stedsnr" v="890230" />
	</node>
	<node id="-317137" lat="60.1110416701" lon="11.8655527821">
		<tag k="name" v="Blafjeldmyra" />
		<tag k="natural" v="wetland" />
		<tag k="ssr:stedsnr" v="906761" />
	</node>
	<node id="-317130" lat="60.3017444417" lon="11.8716805474">
		<tag k="name" v="Tårnmyra" />
		<tag k="natural" v="wetland" />
		<tag k="ssr:stedsnr" v="662470" />
	</node>
	<node id="-317129" lat="60.3193777739" lon="11.8199638802">
		<tag k="name" v="Søndre Svendsbråtemyra" />
		<tag k="natural" v="wetland" />
		<tag k="ssr:stedsnr" v="662463" />
	</node>
	<node id="-317123" lat="60.3073194411" lon="11.8157277689">
		<tag k="name" v="Hvitmyra" />
		<tag k="natural" v="wetland" />
		<tag k="ssr:stedsnr" v="734977" />
	</node>
	<node id="-317099" lat="60.2736249978" lon="11.8848805559">
		<tag k="name" v="Kuserud" />
		<tag k="place" v="locality" />
		<tag k="ssr:stedsnr" v="734434" />
	</node>
	<node id="-317095" lat="60.0806777819" lon="11.9160833397">
		<tag k="name" v="Fjøsmyra" />
		<tag k="natural" v="wetland" />
		<tag k="ssr:stedsnr" v="646269" />
	</node>
	<node id="-317094" lat="60.1164472193" lon="11.882791674">
		<tag k="historic" v="shieling" />
		<tag k="name" v="Mellandsvangen" />
		<tag k="place" v="locality" />
		<tag k="ssr:stedsnr" v="646262" />
	</node>
	<node id="-317074" lat="60.1533277781" lon="11.8139833374">
		<tag k="name" v="Villbergsmyra" />
		<tag k="natural" v="wetland" />
		<tag k="ssr:stedsnr" v="733612" />
	</node>
	<node id="-317062" lat="60.2790111103" lon="11.8258055594">
		<tag k="name" v="Tjernsholta" />
		<tag k="place" v="locality" />
		<tag k="ssr:stedsnr" v="726435" />
	</node>
	<node id="-317058" lat="60.1982055544" lon="11.7181888891">
		<tag k="name" v="Kølahukmyra" />
		<tag k="natural" v="wetland" />
		<tag k="ssr:stedsnr" v="726195" />
	</node>
	<node id="-317057" lat="60.2097805592" lon="11.6895555615">
		<tag k="name" v="Bjørnberget" />
		<tag k="place" v="locality" />
		<tag k="ssr:stedsnr" v="726191" />
	</node>
	<node id="-317055" lat="60.2811249986" lon="11.5626694477">
		<tag k="name" v="Henriksmyra" />
		<tag k="natural" v="wetland" />
		<tag k="ssr:stedsnr" v="725027" />
	</node>
	<node id="-317053" lat="60.0796499993" lon="11.8026083391">
		<tag k="name" v="Gørrmyra" />
		<tag k="natural" v="wetland" />
		<tag k="ssr:stedsnr" v="724702" />
	</node>
	<node id="-317044" lat="60.3403666634" lon="11.7393583355">
		<tag k="name" v="Torterudmyra" />
		<tag k="natural" v="wetland" />
		<tag k="ssr:stedsnr" v="724559" />
	</node>
	<node id="-317042" lat="60.1589333326" lon="11.9071416727">
		<tag k="name" v="Embretmyra" />
		<tag k="natural" v="wetland" />
		<tag k="ssr:stedsnr" v="724311" />
	</node>
	<node id="-317041" lat="60.2887472217" lon="11.7627416722">
		<tag k="name" v="Veslemyra" />
		<tag k="natural" v="wetland" />
		<tag k="ssr:stedsnr" v="724461" />
	</node>
	<node id="-317022" lat="60.1949249996" lon="11.6051222173">
		<tag k="name" v="Gjersøymyra" />
		<tag k="place" v="locality" />
		<tag k="ssr:stedsnr" v="612826" />
	</node>
	<node id="-317004" lat="60.3548638927" lon="11.715749997">
		<tag k="landuse" v="meadow" />
		<tag k="name" v="Bråtaenga" />
		<tag k="ssr:stedsnr" v="603209" />
	</node>
	<node id="-317001" lat="60.2568944487" lon="11.6181166681">
		<tag k="name" v="Bliksterlia" />
		<tag k="place" v="locality" />
		<tag k="ssr:stedsnr" v="603039" />
	</node>
	<node id="-316999" lat="60.2968416639" lon="11.6107805535">
		<tag k="name" v="Krokbråtan" />
		<tag k="place" v="locality" />
		<tag k="ssr:stedsnr" v="603026" />
	</node>
	<node id="-316998" lat="60.2931250046" lon="11.5889805478">
		<tag k="historic" v="shieling" />
		<tag k="name" v="Skjulstadsætra" />
		<tag k="place" v="locality" />
		<tag k="ssr:stedsnr" v="603024" />
	</node>
	<node id="-316994" lat="60.3148194411" lon="11.7744833294">
		<tag k="name" v="Saghølta" />
		<tag k="place" v="locality" />
		<tag k="ssr:stedsnr" v="601428" />
	</node>
	<node id="-316993" lat="60.3178833347" lon="11.7671249943">
		<tag k="name" v="Milhøggmyra" />
		<tag k="natural" v="wetland" />
		<tag k="ssr:stedsnr" v="601420" />
	</node>
	<node id="-316991" lat="60.1698666676" lon="11.6670527768">
		<tag k="name" v="Vangmyrene" />
		<tag k="natural" v="wetland" />
		<tag k="ssr:stedsnr" v="601184" />
	</node>
	<node id="-316985" lat="60.0974999964" lon="11.8483305484">
		<tag k="name" v="Styggdalsdøsset" />
		<tag k="natural" v="wetland" />
		<tag k="ssr:stedsnr" v="587736" />
	</node>
	<node id="-316980" lat="60.2869861079" lon="11.7147222228">
		<tag k="name" v="Osmyra" />
		<tag k="natural" v="wetland" />
		<tag k="ssr:stedsnr" v="709757" />
	</node>
	<node id="-316975" lat="60.2114333336" lon="11.8199277839">
		<tag k="name" v="Hernesberget" />
		<tag k="place" v="locality" />
		<tag k="ssr:stedsnr" v="709654" />
	</node>
	<node id="-316972" lat="60.230825002" lon="11.8701916592">
		<tag k="name" v="Hølmyra" />
		<tag k="natural" v="wetland" />
		<tag k="ssr:stedsnr" v="709442" />
	</node>
	<node id="-316971" lat="60.2326694411" lon="11.8635416652">
		<tag k="name" v="Sæteråsen" />
		<tag k="place" v="locality" />
		<tag k="ssr:stedsnr" v="709441" />
	</node>
	<node id="-316968" lat="60.3166333316" lon="11.7443916729">
		<tag k="name" v="Innleggen" />
		<tag k="place" v="locality" />
		<tag k="ssr:stedsnr" v="707994" />
	</node>
	<node id="-316962" lat="60.0832916628" lon="11.8711305519">
		<tag k="name" v="Lomtjennmyra" />
		<tag k="natural" v="wetland" />
		<tag k="ssr:stedsnr" v="707276" />
	</node>
	<node id="-316960" lat="60.1330805525" lon="11.6745444498">
		<tag k="name" v="Gjerpekjerret" />
		<tag k="place" v="locality" />
		<tag k="ssr:stedsnr" v="707256" />
	</node>
	<node id="-316958" lat="60.1707861096" lon="11.7496444405">
		<tag k="name" v="Sjøglimyra" />
		<tag k="natural" v="wetland" />
		<tag k="ssr:stedsnr" v="707229" />
	</node>
	<node id="-316956" lat="60.1766666659" lon="11.6873194458">
		<tag k="name" v="Bjellkuholen" />
		<tag k="place" v="locality" />
		<tag k="ssr:stedsnr" v="707201" />
	</node>
	<node id="-316955" lat="60.0704805589" lon="11.820591665">
		<tag k="name" v="Starrtjennmyra" />
		<tag k="natural" v="wetland" />
		<tag k="ssr:stedsnr" v="544531" />
	</node>
	<node id="-316947" lat="60.1596027737" lon="11.774688887">
		<tag k="name" v="Gråbeinmyra" />
		<tag k="natural" v="wetland" />
		<tag k="ssr:stedsnr" v="542633" />
	</node>
	<node id="-316946" lat="60.1570888854" lon="11.8057972175">
		<tag k="name" v="Langsmalmyra" />
		<tag k="natural" v="wetland" />
		<tag k="ssr:stedsnr" v="542627" />
	</node>
	<node id="-316940" lat="60.3165500016" lon="11.8147472242">
		<tag k="name" v="Rundmyra" />
		<tag k="natural" v="wetland" />
		<tag k="ssr:stedsnr" v="540427" />
	</node>
	<node id="-316939" lat="60.3097694463" lon="11.7624888898">
		<tag k="name" v="Fuglemyra" />
		<tag k="natural" v="wetland" />
		<tag k="ssr:stedsnr" v="540426" />
	</node>
	<node id="-316932" lat="60.1774305547" lon="11.6798638889">
		<tag k="name" v="Røysmyra" />
		<tag k="natural" v="wetland" />
		<tag k="ssr:stedsnr" v="525193" />
	</node>
	<node id="-316916" lat="60.1716083345" lon="11.7607416614">
		<tag k="name" v="Høgmyra" />
		<tag k="natural" v="wetland" />
		<tag k="ssr:stedsnr" v="673857" />
	</node>
	<node id="-316899" lat="60.2958944414" lon="11.8918222216">
		<tag k="name" v="Øvre Sundbysætermyra" />
		<tag k="natural" v="wetland" />
		<tag k="ssr:stedsnr" v="484222" />
	</node>
	<node id="-316898" lat="60.2252916705" lon="11.8832249926">
		<tag k="name" v="Åserud" />
		<tag k="place" v="locality" />
		<tag k="ssr:stedsnr" v="484175" />
	</node>
	<node id="-316895" lat="60.0752750003" lon="11.8324277856">
		<tag k="historic" v="shieling" />
		<tag k="name" v="Nybyggerudvangen" />
		<tag k="place" v="locality" />
		<tag k="ssr:stedsnr" v="483558" />
	</node>
	<node id="-316894" lat="60.2294222257" lon="11.7876638863">
		<tag k="name" v="Mellmoen" />
		<tag k="place" v="locality" />
		<tag k="ssr:stedsnr" v="483476" />
	</node>
	<node id="-316889" lat="60.1967861121" lon="11.6856027786">
		<tag k="name" v="Nilsfløyta" />
		<tag k="natural" v="wetland" />
		<tag k="ssr:stedsnr" v="483202" />
	</node>
	<node id="-316880" lat="60.0728694414" lon="11.8041111056">
		<tag k="name" v="Kvernmyra" />
		<tag k="natural" v="wetland" />
		<tag k="ssr:stedsnr" v="481710" />
	</node>
	<node id="-316878" lat="60.1234055512" lon="11.8547750018">
		<tag k="name" v="Kølamilåsen" />
		<tag k="place" v="locality" />
		<tag k="ssr:stedsnr" v="481653" />
	</node>
	<node id="-316876" lat="60.3134972203" lon="11.8192777855">
		<tag k="historic" v="shieling" />
		<tag k="name" v="Tonersætra" />
		<tag k="place" v="locality" />
		<tag k="ssr:stedsnr" v="480475" />
	</node>
	<node id="-316872" lat="60.1693055587" lon="11.6960944399">
		<tag k="name" v="Mastmyra" />
		<tag k="natural" v="wetland" />
		<tag k="ssr:stedsnr" v="479214" />
	</node>
	<node id="-316870" lat="60.1934611146" lon="11.7735722267">
		<tag k="name" v="Sleppkulvmyra" />
		<tag k="natural" v="wetland" />
		<tag k="ssr:stedsnr" v="466711" />
	</node>
	<node id="-316869" lat="60.2080555585" lon="11.8049333419">
		<tag k="name" v="Vegmyra" />
		<tag k="natural" v="wetland" />
		<tag k="ssr:stedsnr" v="466703" />
	</node>
	<node id="-316868" lat="60.2665194451" lon="11.869813891">
		<tag k="name" v="Bratberget" />
		<tag k="place" v="locality" />
		<tag k="ssr:stedsnr" v="466425" />
	</node>
	<node id="-316866" lat="60.3206527813" lon="11.6399305518">
		<tag k="name" v="Glingerosmyra" />
		<tag k="natural" v="wetland" />
		<tag k="ssr:stedsnr" v="465863" />
	</node>
	<node id="-316858" lat="60.3429666628" lon="11.637277784">
		<tag k="landuse" v="meadow" />
		<tag k="name" v="Dalenga" />
		<tag k="ssr:stedsnr" v="464754" />
	</node>
	<node id="-316854" lat="60.3306527776" lon="11.8198694497">
		<tag k="name" v="Småmoltmyra" />
		<tag k="natural" v="wetland" />
		<tag k="ssr:stedsnr" v="665363" />
	</node>
	<node id="-316853" lat="60.3413888843" lon="11.7732194505">
		<tag k="name" v="Fuglmyra" />
		<tag k="natural" v="wetland" />
		<tag k="ssr:stedsnr" v="665347" />
	</node>
	<node id="-316849" lat="60.2128638921" lon="11.7038416643">
		<tag k="name" v="Fløytholta" />
		<tag k="place" v="locality" />
		<tag k="ssr:stedsnr" v="665177" />
	</node>
	<node id="-316848" lat="60.3024166696" lon="11.5929694512">
		<tag k="name" v="Gurikollmyra" />
		<tag k="natural" v="wetland" />
		<tag k="ssr:stedsnr" v="664044" />
	</node>
	<node id="-316839" lat="60.2867777752" lon="11.8710111057">
		<tag k="name" v="Blårudshogget" />
		<tag k="place" v="locality" />
		<tag k="ssr:stedsnr" v="662486" />
	</node>
	<node id="-316834" lat="60.2109833329" lon="11.9046888826">
		<tag k="name" v="Kongsrudberget" />
		<tag k="place" v="locality" />
		<tag k="ssr:stedsnr" v="662169" />
	</node>
	<node id="-316831" lat="60.271036115" lon="11.9216750061">
		<tag k="name" v="Fugletjennsmyra" />
		<tag k="natural" v="wetland" />
		<tag k="ssr:stedsnr" v="431421" />
	</node>
	<node id="-316822" lat="60.3304111116" lon="11.8142333407">
		<tag k="name" v="Harahølet" />
		<tag k="natural" v="wetland" />
		<tag k="ssr:stedsnr" v="423320" />
	</node>
	<node id="-316821" lat="60.3375833316" lon="11.7766444397">
		<tag k="name" v="Åkrokmyra" />
		<tag k="natural" v="wetland" />
		<tag k="ssr:stedsnr" v="423313" />
	</node>
	<node id="-316816" lat="60.2883388868" lon="11.5499833316">
		<tag k="name" v="Hagasætermyra" />
		<tag k="natural" v="wetland" />
		<tag k="ssr:stedsnr" v="422028" />
	</node>
	<node id="-316815" lat="60.2922361132" lon="11.5568805597">
		<tag k="historic" v="shieling" />
		<tag k="name" v="Nysætra" />
		<tag k="place" v="locality" />
		<tag k="ssr:stedsnr" v="422026" />
	</node>
	<node id="-316812" lat="60.1565111092" lon="11.8007722282">
		<tag k="historic" v="shieling" />
		<tag k="name" v="Krogsrudvangen" />
		<tag k="place" v="locality" />
		<tag k="ssr:stedsnr" v="421631" />
	</node>
	<node id="-316811" lat="60.1591027772" lon="11.8453416742">
		<tag k="name" v="Isaksrudsætermyra" />
		<tag k="natural" v="wetland" />
		<tag k="ssr:stedsnr" v="421621" />
	</node>
	<node id="-316810" lat="60.162305552" lon="11.8465472221">
		<tag k="name" v="Gråmyra" />
		<tag k="natural" v="wetland" />
		<tag k="ssr:stedsnr" v="421619" />
	</node>
	<node id="-316809" lat="60.1587388926" lon="11.8668305539">
		<tag k="name" v="Bessfarholen" />
		<tag k="place" v="locality" />
		<tag k="ssr:stedsnr" v="421618" />
	</node>
	<node id="-316805" lat="60.1693166689" lon="11.6736833389">
		<tag k="name" v="Røysfløyta" />
		<tag k="natural" v="wetland" />
		<tag k="ssr:stedsnr" v="419215" />
	</node>
	<node id="-316796" lat="60.2708944453" lon="11.8713055581">
		<tag k="name" v="Valstadsæterbråtan" />
		<tag k="place" v="locality" />
		<tag k="ssr:stedsnr" v="405412" />
	</node>
	<node id="-316771" lat="60.1058416631" lon="11.7680083323">
		<tag k="name" v="Tommesmyra" />
		<tag k="natural" v="wetland" />
		<tag k="ssr:stedsnr" v="362726" />
	</node>
	<node id="-316770" lat="60.0986500017" lon="11.7773805489">
		<tag k="name" v="Grasberghellene" />
		<tag k="place" v="locality" />
		<tag k="ssr:stedsnr" v="362723" />
	</node>
	<node id="-316768" lat="60.2228333294" lon="11.7923027781">
		<tag k="name" v="Leira" />
		<tag k="place" v="locality" />
		<tag k="ssr:stedsnr" v="362452" />
	</node>
	<node id="-316766" lat="60.1609777767" lon="11.7956416615">
		<tag k="name" v="Hernessætermyra" />
		<tag k="natural" v="wetland" />
		<tag k="ssr:stedsnr" v="360616" />
	</node>
	<node id="-316765" lat="60.1699972198" lon="11.7677611139">
		<tag k="name" v="Langmyra" />
		<tag k="natural" v="wetland" />
		<tag k="ssr:stedsnr" v="360613" />
	</node>
	<node id="-316761" lat="60.139788889" lon="11.6855750019">
		<tag k="name" v="Barkeskjulet" />
		<tag k="place" v="locality" />
		<tag k="ssr:stedsnr" v="360202" />
	</node>
	<node id="-316760" lat="60.2978111113" lon="11.8614666725">
		<tag k="name" v="Granbergsmyrene" />
		<tag k="natural" v="wetland" />
		<tag k="ssr:stedsnr" v="492461" />
	</node>
	<node id="-316759" lat="60.3026027739" lon="11.8199444382">
		<tag k="name" v="Svartmyra" />
		<tag k="natural" v="wetland" />
		<tag k="ssr:stedsnr" v="358422" />
	</node>
	<node id="-316728" lat="60.1295576887" lon="11.862797399">
		<tag k="fixme" v="multiple name tags, choose one and add the other to alt_name" />
		<tag k="name" v="Bergmyra;Langmyra" />
		<tag k="natural" v="wetland" />
		<tag k="ssr:stedsnr" v="491553" />
	</node>
	<node id="-316721" lat="60.2811555536" lon="11.872408336">
		<tag k="historic" v="shieling" />
		<tag k="name" v="Valstadsætra" />
		<tag k="place" v="locality" />
		<tag k="ssr:stedsnr" v="491487" />
	</node>
	<node id="-316718" lat="60.2621194438" lon="11.9046388826">
		<tag k="name" v="Hvitmosemyra" />
		<tag k="natural" v="wetland" />
		<tag k="ssr:stedsnr" v="491400" />
	</node>
	<node id="-316707" lat="60.1358250034" lon="11.8732249933">
		<tag k="name" v="Fugleleikmyra" />
		<tag k="natural" v="wetland" />
		<tag k="ssr:stedsnr" v="490529" />
	</node>
	<node id="-316706" lat="60.1098111131" lon="11.8823611145">
		<tag k="name" v="Dammyra" />
		<tag k="natural" v="wetland" />
		<tag k="ssr:stedsnr" v="490485" />
	</node>
	<node id="-316700" lat="60.1286722209" lon="11.6609583369">
		<tag k="name" v="Oksefallmyra" />
		<tag k="natural" v="wetland" />
		<tag k="ssr:stedsnr" v="484732" />
	</node>
	<node id="-316698" lat="60.3307749989" lon="11.8136472309">
		<tag k="name" v="Vøggesteinen" />
		<tag k="natural" v="stone" />
		<tag k="ssr:stedsnr" v="484285" />
	</node>
	<node id="-316694" lat="60.2610277763" lon="11.9084805489">
		<tag k="name" v="Rudsætermyra" />
		<tag k="natural" v="wetland" />
		<tag k="ssr:stedsnr" v="483265" />
	</node>
	<node id="-316688" lat="60.2882499984" lon="11.5543749961">
		<tag k="historic" v="shieling" />
		<tag k="name" v="Hagasætra" />
		<tag k="place" v="locality" />
		<tag k="ssr:stedsnr" v="482026" />
	</node>
	<node id="-316681" lat="60.1521499965" lon="11.8093083355">
		<tag k="name" v="Grønne myra" />
		<tag k="natural" v="wetland" />
		<tag k="ssr:stedsnr" v="481645" />
	</node>
	<node id="-316680" lat="60.1638027772" lon="11.7949416582">
		<tag k="historic" v="shieling" />
		<tag k="name" v="Hernessætra" />
		<tag k="place" v="locality" />
		<tag k="ssr:stedsnr" v="481640" />
	</node>
	<node id="-316679" lat="60.1648083362" lon="11.8003416602">
		<tag k="historic" v="shieling" />
		<tag k="name" v="Fremre Krogsrudvangen" />
		<tag k="place" v="locality" />
		<tag k="ssr:stedsnr" v="481639" />
	</node>
	<node id="-316678" lat="60.1703361068" lon="11.8343388903">
		<tag k="name" v="Kollsrudmyra" />
		<tag k="natural" v="wetland" />
		<tag k="ssr:stedsnr" v="481635" />
	</node>
	<node id="-316667" lat="60.21125" lon="11.7584611039">
		<tag k="name" v="Engemyra" />
		<tag k="natural" v="wetland" />
		<tag k="ssr:stedsnr" v="308812" />
	</node>
	<node id="-316662" lat="60.0713972256" lon="11.8588638867">
		<tag k="name" v="Delmyra" />
		<tag k="natural" v="wetland" />
		<tag k="ssr:stedsnr" v="302520" />
	</node>
	<node id="-316659" lat="60.2947305549" lon="11.9096472312">
		<tag k="name" v="Piparud" />
		<tag k="place" v="locality" />
		<tag k="ssr:stedsnr" v="302253" />
	</node>
	<node id="-316656" lat="60.1992194435" lon="11.7087527827">
		<tag k="name" v="Tiurmyra" />
		<tag k="natural" v="wetland" />
		<tag k="ssr:stedsnr" v="301170" />
	</node>
	<node id="-316648" lat="60.290124997" lon="11.5629194516">
		<tag k="historic" v="shieling" />
		<tag k="name" v="Brandvalsætra" />
		<tag k="place" v="locality" />
		<tag k="ssr:stedsnr" v="300023" />
	</node>
	<node id="-316645" lat="60.1371111147" lon="11.8399638819">
		<tag k="name" v="Lomvikmyra" />
		<tag k="natural" v="wetland" />
		<tag k="ssr:stedsnr" v="299665" />
	</node>
	<node id="-316637" lat="60.2632472182" lon="11.8235583273">
		<tag k="name" v="Glebakka" />
		<tag k="place" v="locality" />
		<tag k="ssr:stedsnr" v="466428" />
	</node>
	<node id="-316636" lat="60.262933337" lon="11.8322000038">
		<tag k="name" v="Templet" />
		<tag k="place" v="locality" />
		<tag k="ssr:stedsnr" v="466427" />
	</node>
	<node id="-316635" lat="60.3411722245" lon="11.8307638827">
		<tag k="name" v="Linnmyra" />
		<tag k="natural" v="wetland" />
		<tag k="ssr:stedsnr" v="466349" />
	</node>
	<node id="-316634" lat="60.3252416666" lon="11.8654305542">
		<tag k="name" v="Elgsteinen" />
		<tag k="natural" v="stone" />
		<tag k="ssr:stedsnr" v="466341" />
	</node>
	<node id="-316625" lat="60.152955556" lon="11.7326472296">
		<tag k="name" v="Vangmyra" />
		<tag k="natural" v="wetland" />
		<tag k="ssr:stedsnr" v="465227" />
	</node>
	<node id="-316614" lat="60.0733499969" lon="11.8514555503">
		<tag k="name" v="Småmyrane" />
		<tag k="natural" v="wetland" />
		<tag k="ssr:stedsnr" v="248703" />
	</node>
	<node id="-316611" lat="60.1791861124" lon="11.853558341">
		<tag k="name" v="Sørenshølet" />
		<tag k="natural" v="wetland" />
		<tag k="ssr:stedsnr" v="241677" />
	</node>
	<node id="-316608" lat="60.3289527793" lon="11.7951583304">
		<tag k="name" v="Trondsætermyra" />
		<tag k="natural" v="wetland" />
		<tag k="ssr:stedsnr" v="241323" />
	</node>
	<node id="-316602" lat="60.3509194488" lon="11.7790861071">
		<tag k="name" v="Marimyra" />
		<tag k="natural" v="wetland" />
		<tag k="ssr:stedsnr" v="239259" />
	</node>
	<node id="-316596" lat="60.2994611133" lon="11.8719277796">
		<tag k="name" v="Bekarhullet" />
		<tag k="natural" v="wetland" />
		<tag k="ssr:stedsnr" v="298447" />
	</node>
	<node id="-316595" lat="60.3124694421" lon="11.8466722138">
		<tag k="name" v="Gruvemyra" />
		<tag k="natural" v="wetland" />
		<tag k="ssr:stedsnr" v="298428" />
	</node>
	<node id="-316592" lat="60.1702611153" lon="11.686716673">
		<tag k="name" v="Peiserudholen" />
		<tag k="place" v="locality" />
		<tag k="ssr:stedsnr" v="298188" />
	</node>
	<node id="-316591" lat="60.2073222253" lon="11.6375222283">
		<tag k="name" v="Skøyenenga" />
		<tag k="place" v="locality" />
		<tag k="ssr:stedsnr" v="298071" />
	</node>
	<node id="-316585" lat="60.2083888886" lon="11.7000805501">
		<tag k="name" v="Lillesetfløyta" />
		<tag k="natural" v="wetland" />
		<tag k="ssr:stedsnr" v="286282" />
	</node>
	<node id="-316584" lat="60.3437555596" lon="11.8202916641">
		<tag k="name" v="Vestre Jerstadsætermyra" />
		<tag k="natural" v="wetland" />
		<tag k="ssr:stedsnr" v="285314" />
	</node>
	<node id="-316583" lat="60.3378861153" lon="11.8307611146">
		<tag k="name" v="Storsteinmyra" />
		<tag k="natural" v="wetland" />
		<tag k="ssr:stedsnr" v="285312" />
	</node>
	<node id="-316579" lat="60.1498194435" lon="11.777850007">
		<tag k="name" v="Skåramyra" />
		<tag k="natural" v="wetland" />
		<tag k="ssr:stedsnr" v="180652" />
	</node>
	<node id="-316578" lat="60.3488472249" lon="11.6425499915">
		<tag k="name" v="Bangshagen" />
		<tag k="place" v="locality" />
		<tag k="ssr:stedsnr" v="180602" />
	</node>
	<node id="-316571" lat="60.1398333359" lon="11.8139222246">
		<tag k="name" v="Betlehem" />
		<tag k="place" v="locality" />
		<tag k="ssr:stedsnr" v="178619" />
	</node>
	<node id="-316569" lat="60.1720722187" lon="11.8272611166">
		<tag k="name" v="Mandøsset" />
		<tag k="natural" v="wetland" />
		<tag k="ssr:stedsnr" v="178607" />
	</node>
	<node id="-316567" lat="60.1652750042" lon="11.9006694535">
		<tag k="name" v="Matismyra" />
		<tag k="natural" v="wetland" />
		<tag k="ssr:stedsnr" v="178161" />
	</node>
	<node id="-316561" lat="60.1038499995" lon="11.8341638854">
		<tag k="name" v="Kroksjømyra" />
		<tag k="natural" v="wetland" />
		<tag k="ssr:stedsnr" v="284744" />
	</node>
	<node id="-316558" lat="60.1945833374" lon="11.7790527743">
		<tag k="name" v="Greverholen" />
		<tag k="place" v="locality" />
		<tag k="ssr:stedsnr" v="284705" />
	</node>
	<node id="-316557" lat="60.2134666671" lon="11.8115888813">
		<tag k="name" v="Langmyra" />
		<tag k="natural" v="wetland" />
		<tag k="ssr:stedsnr" v="284700" />
	</node>
	<node id="-316556" lat="60.2054805584" lon="11.8436972281">
		<tag k="name" v="Gråmyra" />
		<tag k="natural" v="wetland" />
		<tag k="ssr:stedsnr" v="284695" />
	</node>
	<node id="-316546" lat="60.1631194437" lon="11.7084638878">
		<tag k="name" v="Fjølahukdøsset" />
		<tag k="natural" v="wetland" />
		<tag k="ssr:stedsnr" v="283192" />
	</node>
	<node id="-316545" lat="60.1678361081" lon="11.73415">
		<tag k="name" v="Kaldmyra" />
		<tag k="natural" v="wetland" />
		<tag k="ssr:stedsnr" v="283189" />
	</node>
	<node id="-316536" lat="60.3124722185" lon="11.6323777718">
		<tag k="name" v="Stormyra" />
		<tag k="natural" v="wetland" />
		<tag k="ssr:stedsnr" v="165524" />
	</node>
	<node id="-316528" lat="60.1178861095" lon="11.889783339">
		<tag k="historic" v="shieling" />
		<tag k="name" v="Fuluvangen" />
		<tag k="place" v="locality" />
		<tag k="ssr:stedsnr" v="161271" />
	</node>
	<node id="-316527" lat="60.1114027795" lon="11.7458138817">
		<tag k="name" v="Seljebråtamyra" />
		<tag k="natural" v="wetland" />
		<tag k="ssr:stedsnr" v="161255" />
	</node>
	<node id="-316519" lat="60.3320249977" lon="11.8382916576">
		<tag k="name" v="Tretjennsmyrene" />
		<tag k="natural" v="wetland" />
		<tag k="ssr:stedsnr" v="120305" />
	</node>
	<node id="-316512" lat="60.144333335" lon="11.9146472247">
		<tag k="name" v="Sætermyra" />
		<tag k="natural" v="wetland" />
		<tag k="ssr:stedsnr" v="118316" />
	</node>
	<node id="-316511" lat="60.3248527748" lon="11.7687944413">
		<tag k="name" v="Rognholtet" />
		<tag k="place" v="locality" />
		<tag k="ssr:stedsnr" v="118304" />
	</node>
	<node id="-316510" lat="60.3489861132" lon="11.7727027848">
		<tag k="name" v="Vangmyra" />
		<tag k="natural" v="wetland" />
		<tag k="ssr:stedsnr" v="118253" />
	</node>
	<node id="-316504" lat="60.1583583325" lon="11.8910222192">
		<tag k="name" v="Saumyra" />
		<tag k="natural" v="wetland" />
		<tag k="ssr:stedsnr" v="116202" />
	</node>
	<node id="-316503" lat="60.2789916631" lon="11.5775277691">
		<tag k="name" v="Brannholen" />
		<tag k="place" v="locality" />
		<tag k="ssr:stedsnr" v="300035" />
	</node>
	<node id="-316501" lat="60.3080944458" lon="11.9007249994">
		<tag k="name" v="Fuglmyra" />
		<tag k="natural" v="wetland" />
		<tag k="ssr:stedsnr" v="103226" />
	</node>
	<node id="-316499" lat="60.2662444434" lon="11.8517555479">
		<tag k="name" v="Sjølia" />
		<tag k="place" v="locality" />
		<tag k="ssr:stedsnr" v="102453" />
	</node>
	<node id="-316498" lat="60.2319111099" lon="11.8577222237">
		<tag k="name" v="Venlien" />
		<tag k="place" v="locality" />
		<tag k="ssr:stedsnr" v="102514" />
	</node>
	<node id="-316495" lat="60.2497166697" lon="11.8197277716">
		<tag k="name" v="Skarpåsmyra" />
		<tag k="natural" v="wetland" />
		<tag k="ssr:stedsnr" v="100362" />
	</node>
	<node id="-316481" lat="60.2594999974" lon="11.6423972133">
		<tag k="name" v="Slåmotmyra" />
		<tag k="natural" v="wetland" />
		<tag k="ssr:stedsnr" v="249535" />
	</node>
	<node id="-316462" lat="60.0684805524" lon="11.8907722252">
		<tag k="name" v="Nygardsmyrene" />
		<tag k="natural" v="wetland" />
		<tag k="ssr:stedsnr" v="248718" />
	</node>
	<node id="-316456" lat="60.1624500026" lon="11.807438889">
		<tag k="name" v="Himmeriksmyra" />
		<tag k="natural" v="wetland" />
		<tag k="ssr:stedsnr" v="248650" />
	</node>
	<node id="-316454" lat="60.1567499971" lon="11.6951333242">
		<tag k="alt_name" v="Hæsmyra" />
		<tag k="name" v="Hestmyra" />
		<tag k="natural" v="wetland" />
		<tag k="ssr:stedsnr" v="248646" />
	</node>
	<node id="-316446" lat="60.2458666684" lon="11.907500008">
		<tag k="name" v="Langmyra" />
		<tag k="natural" v="wetland" />
		<tag k="ssr:stedsnr" v="248027" />
	</node>
	<node id="-316426" lat="60.1501055535" lon="11.7735194525">
		<tag k="name" v="Steinmyra" />
		<tag k="natural" v="wetland" />
		<tag k="ssr:stedsnr" v="241646" />
	</node>
	<node id="-316425" lat="60.0520333318" lon="11.8045222266">
		<tag k="name" v="Lillegohuken" />
		<tag k="natural" v="wetland" />
		<tag k="ssr:stedsnr" v="241501" />
	</node>
	<node id="-316421" lat="60.2772027745" lon="11.8453916723">
		<tag k="name" v="Korsmyrholen" />
		<tag k="place" v="locality" />
		<tag k="ssr:stedsnr" v="241393" />
	</node>
	<node id="-316420" lat="60.3257222265" lon="11.8103833249">
		<tag k="name" v="Nordre Svendsbråtamyra" />
		<tag k="natural" v="wetland" />
		<tag k="ssr:stedsnr" v="241297" />
	</node>
	<node id="-316419" lat="60.3381722252" lon="11.7793972315">
		<tag k="name" v="Smedholmyra" />
		<tag k="natural" v="wetland" />
		<tag k="ssr:stedsnr" v="241293" />
	</node>
	<node id="-316418" lat="60.2302055542" lon="11.8764861097">
		<tag k="name" v="Blådamshavna" />
		<tag k="place" v="locality" />
		<tag k="ssr:stedsnr" v="241187" />
	</node>
	<node id="-316410" lat="60.1132305564" lon="11.8615277736">
		<tag k="name" v="Andtjenndøssa" />
		<tag k="natural" v="wetland" />
		<tag k="ssr:stedsnr" v="239751" />
	</node>
	<node id="-316407" lat="60.1297583293" lon="11.8434055502">
		<tag k="name" v="Bæråsa" />
		<tag k="place" v="locality" />
		<tag k="ssr:stedsnr" v="239651" />
	</node>
	<node id="-316405" lat="60.1553666662" lon="11.860302779">
		<tag k="name" v="Finnbråtemyra" />
		<tag k="natural" v="wetland" />
		<tag k="ssr:stedsnr" v="239645" />
	</node>
	<node id="-316400" lat="60.3405916655" lon="11.7604972157">
		<tag k="name" v="Midtre Kloppmyra" />
		<tag k="natural" v="wetland" />
		<tag k="ssr:stedsnr" v="239573" />
	</node>
	<node id="-316393" lat="60.1876111095" lon="11.6256916635">
		<tag k="name" v="Klingesmyra" />
		<tag k="natural" v="wetland" />
		<tag k="ssr:stedsnr" v="239080" />
	</node>
	<node id="-316390" lat="60.2904499992" lon="11.598747219">
		<tag k="name" v="Tørrbergmyra" />
		<tag k="natural" v="wetland" />
		<tag k="ssr:stedsnr" v="239045" />
	</node>
	<node id="-316388" lat="60.2835527791" lon="11.8713333337">
		<tag k="name" v="Valstadsætermyra" />
		<tag k="natural" v="wetland" />
		<tag k="ssr:stedsnr" v="237485" />
	</node>
	<node id="-316387" lat="60.3033527794" lon="11.8504833316">
		<tag k="name" v="Elgmyra" />
		<tag k="natural" v="wetland" />
		<tag k="ssr:stedsnr" v="237472" />
	</node>
	<node id="-316386" lat="60.3087916634" lon="11.826844439">
		<tag k="name" v="Steinmyra" />
		<tag k="natural" v="wetland" />
		<tag k="ssr:stedsnr" v="237458" />
	</node>
	<node id="-316383" lat="60.1805666644" lon="11.6566722245">
		<tag k="name" v="Kloppmyra" />
		<tag k="natural" v="wetland" />
		<tag k="ssr:stedsnr" v="237190" />
	</node>
	<node id="-316380" lat="60.1141416706" lon="11.7278249959">
		<tag k="name" v="Gammelvangmyra" />
		<tag k="natural" v="wetland" />
		<tag k="ssr:stedsnr" v="40262" />
	</node>
	<node id="-316379" lat="60.1827111085" lon="11.7147833403">
		<tag k="name" v="Igletjennsmyra" />
		<tag k="natural" v="wetland" />
		<tag k="ssr:stedsnr" v="40204" />
	</node>
	<node id="-318419" lat="60.1237194423" lon="11.6492416599">
		<tag k="name" v="Klommyra" />
		<tag k="natural" v="wetland" />
		<tag k="ssr:stedsnr" v="223141" />
	</node>
	<node id="-316370" lat="60.2811166627" lon="11.7405916625">
		<tag k="name" v="Langmyra" />
		<tag k="natural" v="wetland" />
		<tag k="ssr:stedsnr" v="223803" />
	</node>
	<node id="-316356" lat="60.1139444412" lon="11.7490416575">
		<tag k="name" v="Seljebråtan" />
		<tag k="place" v="locality" />
		<tag k="ssr:stedsnr" v="222223" />
	</node>
	<node id="-316355" lat="60.1157638888" lon="11.7332166631">
		<tag k="name" v="Øvre Vangmyra" />
		<tag k="natural" v="wetland" />
		<tag k="ssr:stedsnr" v="222221" />
	</node>
	<node id="-318395" lat="60.2942500037" lon="11.8980555645">
		<tag k="name" v="Klashøgda" />
		<tag k="place" v="locality" />
		<tag k="ssr:stedsnr" v="969251" />
	</node>
	<node id="-318394" lat="60.2817833301" lon="11.9241111107">
		<tag k="name" v="Delmyra" />
		<tag k="natural" v="wetland" />
		<tag k="ssr:stedsnr" v="969247" />
	</node>
	<node id="-318392" lat="60.2013777792" lon="11.672483325">
		<tag k="name" v="Nyhusberget" />
		<tag k="place" v="locality" />
		<tag k="ssr:stedsnr" v="969189" />
	</node>
	<node id="-318389" lat="60.1863083354" lon="11.7352388862">
		<tag k="name" v="Smalmyra" />
		<tag k="natural" v="wetland" />
		<tag k="ssr:stedsnr" v="968214" />
	</node>
	<node id="-318385" lat="60.0799361072" lon="11.7827111132">
		<tag k="landuse" v="quarry" />
		<tag k="name" v="Branntomta" />
		<tag k="ssr:stedsnr" v="967683" />
	</node>
	<node id="-318384" lat="60.0774277757" lon="11.7856499936">
		<tag k="landuse" v="quarry" />
		<tag k="name" v="Ormhaugen" />
		<tag k="ssr:stedsnr" v="967676" />
	</node>
	<node id="-318382" lat="60.2747666641" lon="11.7801361086">
		<tag k="name" v="Langnesmyra" />
		<tag k="natural" v="wetland" />
		<tag k="ssr:stedsnr" v="967485" />
	</node>
	<node id="-318381" lat="60.1685111145" lon="11.8151805491">
		<tag k="name" v="Tjennsmyra" />
		<tag k="natural" v="wetland" />
		<tag k="ssr:stedsnr" v="967597" />
	</node>
	<node id="-318380" lat="60.1713388921" lon="11.7933138954">
		<tag k="name" v="Søndre Einarsmyra" />
		<tag k="natural" v="wetland" />
		<tag k="ssr:stedsnr" v="967593" />
	</node>
	<node id="-318378" lat="60.1326666661" lon="11.8901999934">
		<tag k="name" v="Gjerterudmyra" />
		<tag k="natural" v="wetland" />
		<tag k="ssr:stedsnr" v="967285" />
	</node>
	<node id="-318377" lat="60.3306694404" lon="11.7868500029">
		<tag k="name" v="Blomtjennsmyra" />
		<tag k="natural" v="wetland" />
		<tag k="ssr:stedsnr" v="967280" />
	</node>
	<node id="-318373" lat="60.3074111093" lon="11.7994805579">
		<tag k="historic" v="shieling" />
		<tag k="name" v="Øfstgardssætra" />
		<tag k="place" v="locality" />
		<tag k="ssr:stedsnr" v="965441" />
	</node>
	<node id="-318372" lat="60.3197749965" lon="11.7707499956">
		<tag k="name" v="Gråbeinholtet" />
		<tag k="place" v="locality" />
		<tag k="ssr:stedsnr" v="965440" />
	</node>
	<node id="-318369" lat="60.2982611076" lon="11.5870305591">
		<tag k="name" v="Krokmyra" />
		<tag k="natural" v="wetland" />
		<tag k="ssr:stedsnr" v="954557" />
	</node>
	<node id="-318367" lat="60.3282999958" lon="11.8228083409">
		<tag k="name" v="Endeløsmyra" />
		<tag k="natural" v="wetland" />
		<tag k="ssr:stedsnr" v="954516" />
	</node>
	<node id="-318362" lat="60.2813555542" lon="11.6099999942">
		<tag k="name" v="Sætermyra" />
		<tag k="natural" v="wetland" />
		<tag k="ssr:stedsnr" v="952048" />
	</node>
	<node id="-318359" lat="60.2978611072" lon="11.74717223">
		<tag k="name" v="Jensmyra" />
		<tag k="place" v="locality" />
		<tag k="ssr:stedsnr" v="951799" />
	</node>
	<node id="-318358" lat="60.2117861148" lon="11.7796944393">
		<tag k="name" v="Drekkjemyra" />
		<tag k="natural" v="wetland" />
		<tag k="ssr:stedsnr" v="951699" />
	</node>
	<node id="-318357" lat="60.0933805517" lon="11.8534194459">
		<tag k="name" v="Sørensmyrhølet" />
		<tag k="natural" v="wetland" />
		<tag k="ssr:stedsnr" v="951741" />
	</node>
	<node id="-318355" lat="60.1058361151" lon="11.8507166712">
		<tag k="name" v="Raskerudmyra" />
		<tag k="natural" v="wetland" />
		<tag k="ssr:stedsnr" v="951733" />
	</node>
	<node id="-318348" lat="60.0954611088" lon="11.7789694502">
		<tag k="name" v="Bessemyra" />
		<tag k="natural" v="wetland" />
		<tag k="ssr:stedsnr" v="950698" />
	</node>
	<node id="-318341" lat="60.3446555522" lon="11.7902500085">
		<tag k="name" v="Sjutjennsmyra" />
		<tag k="natural" v="wetland" />
		<tag k="ssr:stedsnr" v="856902" />
	</node>
	<node id="-318332" lat="60.1647749955" lon="11.6811750078">
		<tag k="alt_name" v="Hvitmåsan" />
		<tag k="name" v="Kvitmosen" />
		<tag k="natural" v="wetland" />
		<tag k="ssr:stedsnr" v="855638" />
	</node>
	<node id="-318325" lat="60.2872305591" lon="11.6082027707">
		<tag k="name" v="Snittmyra" />
		<tag k="natural" v="wetland" />
		<tag k="ssr:stedsnr" v="855539" />
	</node>
	<node id="-318320" lat="60.1445749981" lon="11.7849722286">
		<tag k="name" v="Persmyra" />
		<tag k="natural" v="wetland" />
		<tag k="ssr:stedsnr" v="848664" />
	</node>
	<node id="-318319" lat="60.2237444439" lon="11.7849527821">
		<tag k="name" v="Stormyra" />
		<tag k="natural" v="wetland" />
		<tag k="ssr:stedsnr" v="848458" />
	</node>
	<node id="-318317" lat="60.2707888868" lon="11.8480972236">
		<tag k="name" v="Tjuvstykket" />
		<tag k="place" v="locality" />
		<tag k="ssr:stedsnr" v="848430" />
	</node>
	<node id="-318316" lat="60.2689749989" lon="11.8430138838">
		<tag k="name" v="Milbråtan" />
		<tag k="place" v="locality" />
		<tag k="ssr:stedsnr" v="848429" />
	</node>
	<node id="-318315" lat="60.3447833319" lon="11.8359027738">
		<tag k="name" v="Hundmyra" />
		<tag k="natural" v="wetland" />
		<tag k="ssr:stedsnr" v="848331" />
	</node>
	<node id="-318314" lat="60.3058916703" lon="11.8910944533">
		<tag k="name" v="Venliholen" />
		<tag k="place" v="locality" />
		<tag k="ssr:stedsnr" v="848268" />
	</node>
	<node id="-318313" lat="60.1117611092" lon="11.7080444498">
		<tag k="name" v="Ørremyra" />
		<tag k="natural" v="wetland" />
		<tag k="ssr:stedsnr" v="847281" />
	</node>
	<node id="-318312" lat="60.109486111" lon="11.7170194418">
		<tag k="name" v="Blautemyra" />
		<tag k="natural" v="wetland" />
		<tag k="ssr:stedsnr" v="847280" />
	</node>
	<node id="-318310" lat="60.1699777762" lon="11.5944000065">
		<tag k="name" v="Spitmyra" />
		<tag k="natural" v="wetland" />
		<tag k="ssr:stedsnr" v="847103" />
	</node>
	<node id="-318308" lat="60.2425944431" lon="11.5980111051">
		<tag k="name" v="Stumyrdalen" />
		<tag k="natural" v="wetland" />
		<tag k="ssr:stedsnr" v="847079" />
	</node>
	<node id="-318306" lat="60.1062138845" lon="11.7199249965">
		<tag k="name" v="Elgvomma" />
		<tag k="place" v="locality" />
		<tag k="ssr:stedsnr" v="847044" />
	</node>
	<node id="-318303" lat="60.2900499977" lon="11.560422219">
		<tag k="name" v="Brandvalsætermyra" />
		<tag k="natural" v="wetland" />
		<tag k="ssr:stedsnr" v="847024" />
	</node>
	<node id="-318302" lat="60.2831805599" lon="11.5738777729">
		<tag k="name" v="Grasmyra" />
		<tag k="natural" v="wetland" />
		<tag k="ssr:stedsnr" v="847023" />
	</node>
	<node id="-318299" lat="60.1731333357" lon="11.8087944479">
		<tag k="name" v="Kløvmyra" />
		<tag k="natural" v="wetland" />
		<tag k="ssr:stedsnr" v="846618" />
	</node>
	<node id="-318291" lat="60.3002944422" lon="11.8123777726">
		<tag k="historic" v="shieling" />
		<tag k="name" v="Nordsetsætervangen" />
		<tag k="place" v="locality" />
		<tag k="ssr:stedsnr" v="846462" />
	</node>
	<node id="-318288" lat="60.3479138876" lon="11.7799305581">
		<tag k="name" v="Rognhaugmyra" />
		<tag k="natural" v="wetland" />
		<tag k="ssr:stedsnr" v="846238" />
	</node>
	<node id="-318286" lat="60.0774861144" lon="11.8190472144">
		<tag k="name" v="Tranget" />
		<tag k="natural" v="wetland" />
		<tag k="ssr:stedsnr" v="844517" />
	</node>
	<node id="-318285" lat="60.2851638886" lon="11.8592777735">
		<tag k="name" v="Legdebergsmyra" />
		<tag k="natural" v="wetland" />
		<tag k="ssr:stedsnr" v="844464" />
	</node>
	<node id="-318284" lat="60.2924972212" lon="11.8327499971">
		<tag k="name" v="Fuglleikmyra" />
		<tag k="natural" v="wetland" />
		<tag k="ssr:stedsnr" v="844450" />
	</node>
	<node id="-318282" lat="60.3165694409" lon="11.8667749991">
		<tag k="name" v="Brenntjennsholen" />
		<tag k="place" v="locality" />
		<tag k="ssr:stedsnr" v="844442" />
	</node>
	<node id="-318279" lat="60.3211777789" lon="11.7951555495">
		<tag k="historic" v="shieling" />
		<tag k="name" v="Plass-sætra" />
		<tag k="place" v="locality" />
		<tag k="ssr:stedsnr" v="844429" />
	</node>
	<node id="-318278" lat="60.3153638915" lon="11.885841674">
		<tag k="name" v="Svarttjennshola" />
		<tag k="place" v="locality" />
		<tag k="ssr:stedsnr" v="844426" />
	</node>
	<node id="-318269" lat="60.3372583314" lon="11.8533388898">
		<tag k="name" v="Linnmyra" />
		<tag k="natural" v="wetland" />
		<tag k="ssr:stedsnr" v="831309" />
	</node>
	<node id="-318256" lat="60.1246499973" lon="11.7826027726">
		<tag k="name" v="Haradøsset" />
		<tag k="natural" v="wetland" />
		<tag k="ssr:stedsnr" v="830716" />
	</node>
	<node id="-318255" lat="60.1871722194" lon="11.8130777691">
		<tag k="name" v="Danielsdøsset" />
		<tag k="natural" v="wetland" />
		<tag k="ssr:stedsnr" v="830706" />
	</node>
	<node id="-318254" lat="60.175291668" lon="11.7995500029">
		<tag k="name" v="Einarsmyra" />
		<tag k="natural" v="wetland" />
		<tag k="ssr:stedsnr" v="830705" />
	</node>
	<node id="-318249" lat="60.2291194433" lon="11.8547194506">
		<tag k="name" v="Sagerskogen" />
		<tag k="place" v="locality" />
		<tag k="ssr:stedsnr" v="830422" />
	</node>
	<node id="-318244" lat="60.3448472227" lon="11.6315527794">
		<tag k="landuse" v="meadow" />
		<tag k="name" v="Ringsenga" />
		<tag k="ssr:stedsnr" v="829754" />
	</node>
	<node id="-318240" lat="60.2505055574" lon="11.8697777816">
		<tag k="name" v="Sagberget" />
		<tag k="place" v="locality" />
		<tag k="ssr:stedsnr" v="829375" />
	</node>
	<node id="-318234" lat="60.163961108" lon="11.7498638838">
		<tag k="name" v="Gjellermyra" />
		<tag k="natural" v="wetland" />
		<tag k="ssr:stedsnr" v="829199" />
	</node>
	<node id="-318230" lat="60.2848333293" lon="11.9042666605">
		<tag k="name" v="Nilsedammyra" />
		<tag k="natural" v="wetland" />
		<tag k="ssr:stedsnr" v="795530" />
	</node>
	<node id="-318229" lat="60.3135000014" lon="11.8546527773">
		<tag k="name" v="Blomstermyrene" />
		<tag k="natural" v="wetland" />
		<tag k="ssr:stedsnr" v="795507" />
	</node>
	<node id="-318213" lat="60.1215749975" lon="11.8792305641">
		<tag k="name" v="Mellandsmyra" />
		<tag k="natural" v="wetland" />
		<tag k="ssr:stedsnr" v="794545" />
	</node>
	<node id="-318210" lat="60.0983611077" lon="11.7616972171">
		<tag k="name" v="Kjellstykket" />
		<tag k="place" v="locality" />
		<tag k="ssr:stedsnr" v="787714" />
	</node>
	<node id="-318203" lat="60.1981055514" lon="11.6111944368">
		<tag k="name" v="Stormyra" />
		<tag k="natural" v="wetland" />
		<tag k="ssr:stedsnr" v="787641" />
	</node>
	<node id="-318202" lat="60.3252194457" lon="11.8256249972">
		<tag k="name" v="Skogmyra" />
		<tag k="natural" v="wetland" />
		<tag k="ssr:stedsnr" v="787329" />
	</node>
	<node id="-318197" lat="60.1823138904" lon="11.7459472257">
		<tag k="name" v="Blekjamyra" />
		<tag k="natural" v="wetland" />
		<tag k="ssr:stedsnr" v="787190" />
	</node>
	<node id="-318195" lat="60.22865" lon="11.8778388902">
		<tag k="historic" v="shieling" />
		<tag k="name" v="Børstadsætra" />
		<tag k="place" v="locality" />
		<tag k="ssr:stedsnr" v="787186" />
	</node>
	<node id="-318191" lat="60.1407666692" lon="11.8259416747">
		<tag k="name" v="Broksundmyrene" />
		<tag k="natural" v="wetland" />
		<tag k="ssr:stedsnr" v="785622" />
	</node>
	<node id="-318185" lat="60.0746222253" lon="11.8791472232">
		<tag k="landuse" v="quarry" />
		<tag k="name" v="Branntomta" />
		<tag k="ssr:stedsnr" v="785257" />
	</node>
	<node id="-318180" lat="60.1585111126" lon="11.6192361041">
		<tag k="name" v="Karimyra" />
		<tag k="natural" v="wetland" />
		<tag k="ssr:stedsnr" v="785081" />
	</node>
	<node id="-318175" lat="60.2880222222" lon="11.8648916703">
		<tag k="name" v="Blårudshoggmyra" />
		<tag k="natural" v="wetland" />
		<tag k="ssr:stedsnr" v="783458" />
	</node>
	<node id="-318174" lat="60.3068388887" lon="11.8574972287">
		<tag k="name" v="Abiglet" />
		<tag k="place" v="locality" />
		<tag k="ssr:stedsnr" v="783442" />
	</node>
	<node id="-318171" lat="60.3135416677" lon="11.8094888961">
		<tag k="name" v="Døsset" />
		<tag k="natural" v="wetland" />
		<tag k="ssr:stedsnr" v="783437" />
	</node>
	<node id="-318170" lat="60.1574666626" lon="11.6673972171">
		<tag k="name" v="Årbogmyra" />
		<tag k="natural" v="wetland" />
		<tag k="ssr:stedsnr" v="783180" />
	</node>
	<node id="-318161" lat="60.2742944444" lon="11.7312166583">
		<tag k="name" v="Stormyra" />
		<tag k="natural" v="wetland" />
		<tag k="ssr:stedsnr" v="769761" />
	</node>
	<node id="-318159" lat="60.2261055593" lon="11.8639444358">
		<tag k="name" v="Fuluåsen" />
		<tag k="place" v="locality" />
		<tag k="ssr:stedsnr" v="769444" />
	</node>
	<node id="-318158" lat="60.3175583349" lon="11.7536138811">
		<tag k="name" v="Myrlykkja" />
		<tag k="place" v="locality" />
		<tag k="ssr:stedsnr" v="768998" />
	</node>
	<node id="-318150" lat="60.0955527799" lon="11.794358328">
		<tag k="name" v="Mosamyra" />
		<tag k="natural" v="wetland" />
		<tag k="ssr:stedsnr" v="768729" />
	</node>
	<node id="-318145" lat="60.1223638931" lon="11.6721305576">
		<tag k="name" v="Fugleleikmyra" />
		<tag k="natural" v="wetland" />
		<tag k="ssr:stedsnr" v="768234" />
	</node>
	<node id="-318143" lat="60.1539694416" lon="11.7134833407">
		<tag k="name" v="Styggdalsmyra" />
		<tag k="natural" v="wetland" />
		<tag k="ssr:stedsnr" v="768213" />
	</node>
	<node id="-318142" lat="60.1677861105" lon="11.7429749935">
		<tag k="name" v="Brattstupmyra" />
		<tag k="natural" v="wetland" />
		<tag k="ssr:stedsnr" v="768210" />
	</node>
	<node id="-318141" lat="60.1749472255" lon="11.6720444434">
		<tag k="name" v="Stabbstolmyra" />
		<tag k="natural" v="wetland" />
		<tag k="ssr:stedsnr" v="768178" />
	</node>
	<node id="-318139" lat="60.2374277813" lon="11.8422777796">
		<tag k="name" v="Sarabyåsen" />
		<tag k="place" v="locality" />
		<tag k="ssr:stedsnr" v="767386" />
	</node>
	<node id="-318133" lat="60.2868361131" lon="11.8338527799">
		<tag k="name" v="Taulsætermyra" />
		<tag k="natural" v="wetland" />
		<tag k="ssr:stedsnr" v="650121" />
	</node>
	<node id="-318132" lat="60.2730555537" lon="11.6681500067">
		<tag k="name" v="Nustmyra" />
		<tag k="natural" v="wetland" />
		<tag k="ssr:stedsnr" v="650113" />
	</node>
	<node id="-318128" lat="60.2976166666" lon="11.7405611194">
		<tag k="name" v="Fåfengdråga" />
		<tag k="natural" v="wetland" />
		<tag k="ssr:stedsnr" v="647800" />
	</node>
	<node id="-318127" lat="60.297491668" lon="11.7367972267">
		<tag k="name" v="Glomsåsholtet" />
		<tag k="place" v="locality" />
		<tag k="ssr:stedsnr" v="647784" />
	</node>
	<node id="-318124" lat="60.3232388889" lon="11.7456499911">
		<tag k="name" v="Parken" />
		<tag k="place" v="locality" />
		<tag k="ssr:stedsnr" v="646991" />
	</node>
	<node id="-318114" lat="60.3136888858" lon="11.8817638847">
		<tag k="name" v="Hestvollmyrene" />
		<tag k="natural" v="wetland" />
		<tag k="ssr:stedsnr" v="613453" />
	</node>
	<node id="-318109" lat="60.367377782" lon="11.7761194538">
		<tag k="name" v="Lunnmyra" />
		<tag k="natural" v="wetland" />
		<tag k="ssr:stedsnr" v="612906" />
	</node>
	<node id="-318102" lat="60.1331055571" lon="11.8070166599">
		<tag k="name" v="Prestmyrene" />
		<tag k="natural" v="wetland" />
		<tag k="ssr:stedsnr" v="612671" />
	</node>
	<node id="-318098" lat="60.0994500024" lon="11.8950527739">
		<tag k="historic" v="shieling" />
		<tag k="name" v="Nysætra" />
		<tag k="place" v="locality" />
		<tag k="ssr:stedsnr" v="612551" />
	</node>
	<node id="-318085" lat="60.0670749962" lon="11.8112111163">
		<tag k="name" v="Skurvemyra" />
		<tag k="natural" v="wetland" />
		<tag k="ssr:stedsnr" v="605524" />
	</node>
	<node id="-318081" lat="60.3471555562" lon="11.8247166581">
		<tag k="name" v="Nordre Jerstadsætermyra" />
		<tag k="natural" v="wetland" />
		<tag k="ssr:stedsnr" v="605334" />
	</node>
	<node id="-318078" lat="60.3374833314" lon="11.7731638942">
		<tag k="name" v="Kløvsteinen" />
		<tag k="natural" v="stone" />
		<tag k="ssr:stedsnr" v="605322" />
	</node>
	<node id="-318077" lat="60.2273888845" lon="11.7874166633">
		<tag k="name" v="Rismyra" />
		<tag k="place" v="locality" />
		<tag k="ssr:stedsnr" v="605439" />
	</node>
	<node id="-318072" lat="60.2647527748" lon="11.91654723">
		<tag k="name" v="Rudsæterhøgda" />
		<tag k="place" v="locality" />
		<tag k="ssr:stedsnr" v="604257" />
	</node>
	<node id="-318071" lat="60.2661166654" lon="11.9304750018">
		<tag k="name" v="Kvanterud" />
		<tag k="place" v="locality" />
		<tag k="ssr:stedsnr" v="604255" />
	</node>
	<node id="-318066" lat="60.1648972231" lon="11.6253555484">
		<tag k="name" v="Hvitmosen" />
		<tag k="natural" v="wetland" />
		<tag k="ssr:stedsnr" v="603065" />
	</node>
	<node id="-318064" lat="60.1580833314" lon="11.7894250077">
		<tag k="name" v="Husmyra" />
		<tag k="natural" v="wetland" />
		<tag k="ssr:stedsnr" v="602650" />
	</node>
	<node id="-318063" lat="60.176505554" lon="11.7236583398">
		<tag k="name" v="Fjøsmyra" />
		<tag k="natural" v="wetland" />
		<tag k="ssr:stedsnr" v="602626" />
	</node>
	<node id="-318059" lat="60.3383527819" lon="11.755211106">
		<tag k="name" v="Sørensenmyra" />
		<tag k="natural" v="wetland" />
		<tag k="ssr:stedsnr" v="602594" />
	</node>
	<node id="-318053" lat="60.2984277741" lon="11.8308527742">
		<tag k="name" v="Ospelunden" />
		<tag k="place" v="locality" />
		<tag k="ssr:stedsnr" v="601461" />
	</node>
	<node id="-318052" lat="60.3000777801" lon="11.8376555473">
		<tag k="name" v="Vinkjellermyra" />
		<tag k="natural" v="wetland" />
		<tag k="ssr:stedsnr" v="601455" />
	</node>
	<node id="-318041" lat="60.3344333323" lon="11.8242333369">
		<tag k="name" v="Matkovåhellmyra" />
		<tag k="natural" v="wetland" />
		<tag k="ssr:stedsnr" v="588302" />
	</node>
	<node id="-318037" lat="60.2875222196" lon="11.7126944523">
		<tag k="name" v="Torvet" />
		<tag k="place" v="locality" />
		<tag k="ssr:stedsnr" v="587791" />
	</node>
	<node id="-318036" lat="60.2159555517" lon="11.8436583334">
		<tag k="name" v="Hernesmoen" />
		<tag k="place" v="locality" />
		<tag k="ssr:stedsnr" v="587464" />
	</node>
	<node id="-318031" lat="60.1221444471" lon="11.6789055641">
		<tag k="name" v="Klartjennmyra" />
		<tag k="natural" v="wetland" />
		<tag k="ssr:stedsnr" v="586249" />
	</node>
	<node id="-318030" lat="60.1557194444" lon="11.7526666629">
		<tag k="name" v="Mjøgsjøfløyta" />
		<tag k="natural" v="wetland" />
		<tag k="ssr:stedsnr" v="586224" />
	</node>
	<node id="-318028" lat="60.1126472243" lon="11.8954805569">
		<tag k="name" v="Børjamyra" />
		<tag k="natural" v="wetland" />
		<tag k="ssr:stedsnr" v="586279" />
	</node>
	<node id="-318023" lat="60.324824998" lon="11.6832500029">
		<tag k="name" v="Hafstadmyra" />
		<tag k="natural" v="wetland" />
		<tag k="ssr:stedsnr" v="552994" />
	</node>
	<node id="-318011" lat="60.3221749999" lon="11.8500500075">
		<tag k="name" v="Fuglemyra" />
		<tag k="natural" v="wetland" />
		<tag k="ssr:stedsnr" v="552534" />
	</node>
	<node id="-317981" lat="60.3454111132" lon="11.8325555559">
		<tag k="name" v="Østre Jerstadsætermyra" />
		<tag k="natural" v="wetland" />
		<tag k="ssr:stedsnr" v="544312" />
	</node>
	<node id="-317978" lat="60.1762694441" lon="11.7346611094">
		<tag k="name" v="Donmyra" />
		<tag k="natural" v="wetland" />
		<tag k="ssr:stedsnr" v="544176" />
	</node>
	<node id="-317976" lat="60.2922361125" lon="11.5903666697">
		<tag k="name" v="Skjulstadsætermyra" />
		<tag k="natural" v="wetland" />
		<tag k="ssr:stedsnr" v="543040" />
	</node>
	<node id="-317974" lat="60.1136583359" lon="11.8236666666">
		<tag k="name" v="Kvernmyra" />
		<tag k="natural" v="wetland" />
		<tag k="ssr:stedsnr" v="542742" />
	</node>
	<node id="-317969" lat="60.1396388879" lon="11.8863611176">
		<tag k="name" v="Storholtet" />
		<tag k="place" v="locality" />
		<tag k="ssr:stedsnr" v="542318" />
	</node>
	<node id="-317968" lat="60.3574638903" lon="11.7956777756">
		<tag k="name" v="Allergøttmyrene" />
		<tag k="natural" v="wetland" />
		<tag k="ssr:stedsnr" v="542282" />
	</node>
	<node id="-317964" lat="60.0826111097" lon="11.8233499962">
		<tag k="name" v="Multhullet" />
		<tag k="natural" v="wetland" />
		<tag k="ssr:stedsnr" v="540527" />
	</node>
	<node id="-317963" lat="60.2887499979" lon="11.8299666578">
		<tag k="name" v="Fagerlibråten" />
		<tag k="place" v="locality" />
		<tag k="ssr:stedsnr" v="540471" />
	</node>
	<node id="-317962" lat="60.2957305589" lon="11.8378694437">
		<tag k="name" v="Delmyrene" />
		<tag k="natural" v="wetland" />
		<tag k="ssr:stedsnr" v="540455" />
	</node>
	<node id="-317960" lat="60.3084777744" lon="11.7873583293">
		<tag k="name" v="Grønnfloet" />
		<tag k="natural" v="wetland" />
		<tag k="ssr:stedsnr" v="540286" />
	</node>
	<node id="-317958" lat="60.3482194442" lon="11.8061472186">
		<tag k="name" v="Hokjølmyra" />
		<tag k="natural" v="wetland" />
		<tag k="ssr:stedsnr" v="529506" />
	</node>
	<node id="-317955" lat="60.3428277807" lon="11.837900003">
		<tag k="name" v="Balsjøholtet" />
		<tag k="place" v="locality" />
		<tag k="ssr:stedsnr" v="527314" />
	</node>
	<node id="-317954" lat="60.3279666641" lon="11.85964167">
		<tag k="name" v="Øvre Heiamyra" />
		<tag k="natural" v="wetland" />
		<tag k="ssr:stedsnr" v="527307" />
	</node>
	<node id="-317951" lat="60.099886109" lon="11.8142361094">
		<tag k="name" v="Gråbeinmyra" />
		<tag k="natural" v="wetland" />
		<tag k="ssr:stedsnr" v="526718" />
	</node>
	<node id="-317949" lat="60.3214111137" lon="11.6651083396">
		<tag k="landuse" v="meadow" />
		<tag k="name" v="Seimsenga" />
		<tag k="ssr:stedsnr" v="525982" />
	</node>
	<node id="-317943" lat="60.1019694487" lon="11.8785583404">
		<tag k="name" v="Finnholtmyrene" />
		<tag k="natural" v="wetland" />
		<tag k="ssr:stedsnr" v="525277" />
	</node>
	<node id="-317941" lat="60.1686972209" lon="11.7139999943">
		<tag k="name" v="Krokmyra" />
		<tag k="natural" v="wetland" />
		<tag k="ssr:stedsnr" v="525236" />
	</node>
	<node id="-317897" lat="60.0869750035" lon="11.8614833283">
		<tag k="name" v="Låksåmyra" />
		<tag k="natural" v="wetland" />
		<tag k="ssr:stedsnr" v="423580" />
	</node>
	<node id="-317887" lat="60.2441444434" lon="11.5945111101">
		<tag k="name" v="Sylta" />
		<tag k="place" v="locality" />
		<tag k="ssr:stedsnr" v="423070" />
	</node>
	<node id="-317886" lat="60.3442861115" lon="11.8079749976">
		<tag k="name" v="Glingrosmyra" />
		<tag k="natural" v="wetland" />
		<tag k="ssr:stedsnr" v="423333" />
	</node>
	<node id="-317885" lat="60.3422166626" lon="11.7931111053">
		<tag k="name" v="Dammyra" />
		<tag k="natural" v="wetland" />
		<tag k="ssr:stedsnr" v="423325" />
	</node>
	<node id="-317884" lat="60.3307166631" lon="11.8067472172">
		<tag k="name" v="Hedenhøgdmyra" />
		<tag k="natural" v="wetland" />
		<tag k="ssr:stedsnr" v="423324" />
	</node>
	<node id="-317879" lat="60.0848611099" lon="11.8066055491">
		<tag k="name" v="Vinvåla" />
		<tag k="place" v="locality" />
		<tag k="ssr:stedsnr" v="421732" />
	</node>
	<node id="-317875" lat="60.28726667" lon="11.6025305594">
		<tag k="name" v="Moatorget" />
		<tag k="natural" v="wetland" />
		<tag k="ssr:stedsnr" v="422048" />
	</node>
	<node id="-317872" lat="60.3526401275" lon="11.6443994439">
		<tag k="name" v="Langnes" />
		<tag k="place" v="locality" />
		<tag k="ssr:stedsnr" v="421576" />
	</node>
	<node id="-317871" lat="60.1414527808" lon="11.869650008">
		<tag k="name" v="Høgmyra" />
		<tag k="natural" v="wetland" />
		<tag k="ssr:stedsnr" v="421647" />
	</node>
	<node id="-317870" lat="60.0658722238" lon="11.8004527701">
		<tag k="name" v="Multhullet" />
		<tag k="natural" v="wetland" />
		<tag k="ssr:stedsnr" v="421544" />
	</node>
	<node id="-317866" lat="60.292994449" lon="11.8598749933">
		<tag k="name" v="Granbergshola" />
		<tag k="place" v="locality" />
		<tag k="ssr:stedsnr" v="419451" />
	</node>
	<node id="-317865" lat="60.3162722264" lon="11.8069194525">
		<tag k="name" v="Langmyra" />
		<tag k="natural" v="wetland" />
		<tag k="ssr:stedsnr" v="419431" />
	</node>
	<node id="-317858" lat="60.2357777765" lon="11.6122861153">
		<tag k="name" v="Stumyra" />
		<tag k="natural" v="wetland" />
		<tag k="ssr:stedsnr" v="406083" />
	</node>
	<node id="-317819" lat="60.21218056" lon="11.8414333293">
		<tag k="name" v="Hernesmyra" />
		<tag k="natural" v="wetland" />
		<tag k="ssr:stedsnr" v="369789" />
	</node>
	<node id="-317813" lat="60.0814138863" lon="11.8942888976">
		<tag k="name" v="Høgmyra" />
		<tag k="natural" v="wetland" />
		<tag k="ssr:stedsnr" v="369716" />
	</node>
	<node id="-317806" lat="60.1647000005" lon="11.690122225">
		<tag k="name" v="Kumyra" />
		<tag k="natural" v="wetland" />
		<tag k="ssr:stedsnr" v="369578" />
	</node>
	<node id="-317798" lat="60.1310861102" lon="11.793569438">
		<tag k="name" v="Gubbeskallen" />
		<tag k="natural" v="stone" />
		<tag k="ssr:stedsnr" v="362672" />
	</node>
	<node id="-317797" lat="60.2927638855" lon="11.9148027811">
		<tag k="name" v="Mærrahølet" />
		<tag k="natural" v="wetland" />
		<tag k="ssr:stedsnr" v="362260" />
	</node>
	<node id="-317794" lat="60.1965250007" lon="11.7124777778">
		<tag k="name" v="Størrmyra" />
		<tag k="natural" v="wetland" />
		<tag k="ssr:stedsnr" v="362182" />
	</node>
	<node id="-317792" lat="60.2597861068" lon="11.8811583357">
		<tag k="name" v="Tytterbærholen" />
		<tag k="place" v="locality" />
		<tag k="ssr:stedsnr" v="362127" />
	</node>
	<node id="-317786" lat="60.3642361114" lon="11.7748944532">
		<tag k="name" v="Flismyra" />
		<tag k="natural" v="wetland" />
		<tag k="ssr:stedsnr" v="360245" />
	</node>
	<node id="-317785" lat="60.3627444463" lon="11.7762055645">
		<tag k="name" v="Finnstein" />
		<tag k="natural" v="stone" />
		<tag k="ssr:stedsnr" v="360242" />
	</node>
	<node id="-317778" lat="60.1621750027" lon="11.6347916746">
		<tag k="name" v="Nevermosen" />
		<tag k="natural" v="wetland" />
		<tag k="ssr:stedsnr" v="360069" />
	</node>
	<node id="-317775" lat="60.3043194456" lon="11.7639611137">
		<tag k="name" v="Karihølet" />
		<tag k="natural" v="wetland" />
		<tag k="ssr:stedsnr" v="358282" />
	</node>
	<node id="-317758" lat="60.0879055586" lon="11.797558326">
		<tag k="name" v="Svarvestolmyra" />
		<tag k="natural" v="wetland" />
		<tag k="ssr:stedsnr" v="343752" />
	</node>
	<node id="-317751" lat="60.1794361109" lon="11.6717416684">
		<tag k="name" v="Fjøsmyra" />
		<tag k="natural" v="wetland" />
		<tag k="ssr:stedsnr" v="343175" />
	</node>
	<node id="-317747" lat="60.2324111089" lon="11.6584222268">
		<tag k="name" v="Stormyra" />
		<tag k="natural" v="wetland" />
		<tag k="ssr:stedsnr" v="309990" />
	</node>
	<node id="-317718" lat="60.0844277786" lon="11.8390416631">
		<tag k="name" v="Hyttemyra" />
		<tag k="natural" v="wetland" />
		<tag k="ssr:stedsnr" v="302539" />
	</node>
	<node id="-317715" lat="60.3278611111" lon="11.8351805568">
		<tag k="name" v="Tussholen" />
		<tag k="natural" v="wetland" />
		<tag k="ssr:stedsnr" v="302334" />
	</node>
	<node id="-317713" lat="60.116175" lon="11.7059638824">
		<tag k="name" v="Tiurleikmyra" />
		<tag k="natural" v="wetland" />
		<tag k="ssr:stedsnr" v="301244" />
	</node>
	<node id="-317696" lat="60.2733305525" lon="11.5853194475">
		<tag k="name" v="Delmyra" />
		<tag k="natural" v="wetland" />
		<tag k="ssr:stedsnr" v="188564" />
	</node>
	<node id="-317695" lat="60.3270166692" lon="11.858261104">
		<tag k="name" v="Heiamyrene" />
		<tag k="natural" v="wetland" />
		<tag k="ssr:stedsnr" v="188311" />
	</node>
	<node id="-317685" lat="60.1515972178" lon="11.848822228">
		<tag k="fixme" v="multiple name tags, choose one and add the other to alt_name" />
		<tag k="name" v="Hamnmyrene;Havmyra" />
		<tag k="natural" v="wetland" />
		<tag k="ssr:stedsnr" v="187554" />
	</node>
	<node id="-317673" lat="60.2212194402" lon="11.7121583246">
		<tag k="name" v="Ingridmyra" />
		<tag k="natural" v="wetland" />
		<tag k="ssr:stedsnr" v="180135" />
	</node>
	<node id="-317671" lat="60.2861194438" lon="11.622386102">
		<tag k="name" v="Fålamyra" />
		<tag k="natural" v="wetland" />
		<tag k="ssr:stedsnr" v="179039" />
	</node>
	<node id="-317670" lat="60.2951361123" lon="11.5751638922">
		<tag k="name" v="Stupmyra" />
		<tag k="natural" v="wetland" />
		<tag k="ssr:stedsnr" v="179027" />
	</node>
	<node id="-317669" lat="60.296672218" lon="11.5806833332">
		<tag k="name" v="Lunnmyra" />
		<tag k="natural" v="wetland" />
		<tag k="ssr:stedsnr" v="179026" />
	</node>
	<node id="-317667" lat="60.1151361097" lon="11.8166833295">
		<tag k="name" v="Lemyra" />
		<tag k="natural" v="wetland" />
		<tag k="ssr:stedsnr" v="178626" />
	</node>
	<node id="-317664" lat="60.2905361121" lon="11.8115277865">
		<tag k="name" v="Fagerlimyra" />
		<tag k="natural" v="wetland" />
		<tag k="ssr:stedsnr" v="178486" />
	</node>
	<node id="-317661" lat="60.2824222228" lon="11.8267499925">
		<tag k="name" v="Tjernsmyrene" />
		<tag k="natural" v="wetland" />
		<tag k="ssr:stedsnr" v="176427" />
	</node>
	<node id="-317658" lat="60.3160333373" lon="11.7639888919">
		<tag k="name" v="Høgbrenna" />
		<tag k="place" v="locality" />
		<tag k="ssr:stedsnr" v="176395" />
	</node>
	<node id="-317657" lat="60.3064944421" lon="11.7647527713">
		<tag k="name" v="Spitmyra" />
		<tag k="natural" v="wetland" />
		<tag k="ssr:stedsnr" v="176270" />
	</node>
	<node id="-317656" lat="60.1675527751" lon="11.6789999931">
		<tag k="name" v="Veslehvitmåsan" />
		<tag k="natural" v="wetland" />
		<tag k="ssr:stedsnr" v="176213" />
	</node>
	<node id="-317649" lat="60.1068000002" lon="11.8607305631">
		<tag k="name" v="Stormyra" />
		<tag k="natural" v="wetland" />
		<tag k="ssr:stedsnr" v="162739" />
	</node>
	<node id="-317648" lat="60.107308337" lon="11.8153638934">
		<tag k="name" v="Finnholtmyra" />
		<tag k="natural" v="wetland" />
		<tag k="ssr:stedsnr" v="162736" />
	</node>
	<node id="-317643" lat="60.3065972217" lon="11.5973138938">
		<tag k="name" v="Merrahølet" />
		<tag k="natural" v="wetland" />
		<tag k="ssr:stedsnr" v="161812" />
	</node>
	<node id="-317640" lat="60.3476083365" lon="11.628024999">
		<tag k="landuse" v="meadow" />
		<tag k="name" v="Tagenga" />
		<tag k="ssr:stedsnr" v="161721" />
	</node>
	<node id="-317635" lat="60.1606027819" lon="11.7384472205">
		<tag k="name" v="Finnmyra" />
		<tag k="natural" v="wetland" />
		<tag k="ssr:stedsnr" v="161222" />
	</node>
	<node id="-317633" lat="60.1685388878" lon="11.721794444">
		<tag k="name" v="Hellbekkdøsset" />
		<tag k="natural" v="wetland" />
		<tag k="ssr:stedsnr" v="161216" />
	</node>
	<node id="-317629" lat="60.3343444483" lon="11.786361111">
		<tag k="name" v="Kufotmyra" />
		<tag k="natural" v="wetland" />
		<tag k="ssr:stedsnr" v="127976" />
	</node>
	<node id="-317606" lat="60.2072555552" lon="11.8363833296">
		<tag k="name" v="Stormyra" />
		<tag k="natural" v="wetland" />
		<tag k="ssr:stedsnr" v="126786" />
	</node>
	<node id="-317595" lat="60.0571361131" lon="11.8072944398">
		<tag k="name" v="Finnskjeggmyra" />
		<tag k="natural" v="wetland" />
		<tag k="ssr:stedsnr" v="120509" />
	</node>
	<node id="-317591" lat="60.3414944404" lon="11.8035194478">
		<tag k="name" v="Monshukmyra" />
		<tag k="natural" v="wetland" />
		<tag k="ssr:stedsnr" v="120295" />
	</node>
	<node id="-317585" lat="60.277175003" lon="11.8983666585">
		<tag k="name" v="Tretstøkket" />
		<tag k="place" v="locality" />
		<tag k="ssr:stedsnr" v="119232" />
	</node>
	<node id="-317584" lat="60.2048666664" lon="11.7521694507">
		<tag k="historic" v="shieling" />
		<tag k="name" v="Krakerudvangen" />
		<tag k="place" v="locality" />
		<tag k="ssr:stedsnr" v="119185" />
	</node>
	<node id="-317578" lat="60.243194443" lon="11.6051222207">
		<tag k="name" v="Tjurslimyren" />
		<tag k="natural" v="wetland" />
		<tag k="ssr:stedsnr" v="119072" />
	</node>
	<node id="-317577" lat="60.1653000026" lon="11.8322416598">
		<tag k="name" v="Nybekkmyra" />
		<tag k="natural" v="wetland" />
		<tag k="ssr:stedsnr" v="118594" />
	</node>
	<node id="-317569" lat="60.2638111085" lon="11.9332444464">
		<tag k="name" v="Fugltjernsmyra" />
		<tag k="natural" v="wetland" />
		<tag k="ssr:stedsnr" v="118190" />
	</node>
	<node id="-317567" lat="60.295705559" lon="11.594022229">
		<tag k="name" v="Oksehølet" />
		<tag k="natural" v="wetland" />
		<tag k="ssr:stedsnr" v="118043" />
	</node>
	<node id="-317563" lat="60.2786499991" lon="11.581550007">
		<tag k="name" v="Tørrmyra" />
		<tag k="natural" v="wetland" />
		<tag k="ssr:stedsnr" v="118024" />
	</node>
	<node id="-317560" lat="60.1198027771" lon="11.8551361182">
		<tag k="name" v="Svartmyra" />
		<tag k="natural" v="wetland" />
		<tag k="ssr:stedsnr" v="117737" />
	</node>
	<node id="-317559" lat="60.1221388881" lon="11.8517083418">
		<tag k="name" v="Kølamyra" />
		<tag k="natural" v="wetland" />
		<tag k="ssr:stedsnr" v="117735" />
	</node>
	<node id="-317549" lat="60.3293833307" lon="11.8557999965">
		<tag k="name" v="Kabberudmyra" />
		<tag k="natural" v="wetland" />
		<tag k="ssr:stedsnr" v="103307" />
	</node>
	<node id="-317548" lat="60.3263833365" lon="11.8663555618">
		<tag k="name" v="Nedre Heiamyra" />
		<tag k="natural" v="wetland" />
		<tag k="ssr:stedsnr" v="103303" />
	</node>
	<node id="-317545" lat="60.3287333304" lon="11.6653555548">
		<tag k="name" v="Engene" />
		<tag k="place" v="locality" />
		<tag k="ssr:stedsnr" v="102930" />
	</node>
	<node id="-317538" lat="60.2775805512" lon="11.6050888839">
		<tag k="historic" v="shieling" />
		<tag k="name" v="Børjesætra" />
		<tag k="place" v="locality" />
		<tag k="ssr:stedsnr" v="102067" />
	</node>
	<node id="-317533" lat="60.3121777751" lon="11.697047227">
		<tag k="name" v="Trøllhetta" />
		<tag k="place" v="locality" />
		<tag k="ssr:stedsnr" v="101983" />
	</node>
	<node id="-317524" lat="60.1862805589" lon="11.6897999916">
		<tag k="name" v="Krokmyra" />
		<tag k="natural" v="wetland" />
		<tag k="ssr:stedsnr" v="101163" />
	</node>
	<node id="-317484" lat="60.0659916678" lon="11.8162944431">
		<tag k="name" v="Kilikrakkmyra" />
		<tag k="natural" v="wetland" />
		<tag k="ssr:stedsnr" v="59527" />
	</node>
	<node id="-317483" lat="60.2299222265" lon="11.7676833247">
		<tag k="name" v="Krakerudmyra" />
		<tag k="natural" v="wetland" />
		<tag k="ssr:stedsnr" v="59453" />
	</node>
	<node id="-317479" lat="60.3415277777" lon="11.7644750057">
		<tag k="name" v="Østre Kloppmyra" />
		<tag k="natural" v="wetland" />
		<tag k="ssr:stedsnr" v="59302" />
	</node>
	<node id="-317478" lat="60.2902666633" lon="11.8907166682">
		<tag k="name" v="Nedre Sundbysætermyra" />
		<tag k="natural" v="wetland" />
		<tag k="ssr:stedsnr" v="59242" />
	</node>
	<node id="-317476" lat="60.2031555547" lon="11.736661108">
		<tag k="name" v="Piltmyra" />
		<tag k="natural" v="wetland" />
		<tag k="ssr:stedsnr" v="59170" />
	</node>
	<node id="-317475" lat="60.199227779" lon="11.7015777808">
		<tag k="name" v="Knutsmyra" />
		<tag k="natural" v="wetland" />
		<tag k="ssr:stedsnr" v="59167" />
	</node>
	<node id="-317462" lat="60.3346833288" lon="11.7561472295">
		<tag k="name" v="Ærsenholtet" />
		<tag k="place" v="locality" />
		<tag k="ssr:stedsnr" v="57546" />
	</node>
	<node id="-317458" lat="60.1513138904" lon="11.8723166668">
		<tag k="historic" v="shieling" />
		<tag k="name" v="Ånerudvanga" />
		<tag k="place" v="locality" />
		<tag k="ssr:stedsnr" v="57307" />
	</node>
	<node id="-317450" lat="60.2934944449" lon="11.6267305629">
		<tag k="name" v="Dalmyra" />
		<tag k="natural" v="wetland" />
		<tag k="ssr:stedsnr" v="57040" />
	</node>
	<node id="-317446" lat="60.2837777787" lon="11.5799472182">
		<tag k="name" v="Hornessætermyra" />
		<tag k="natural" v="wetland" />
		<tag k="ssr:stedsnr" v="57018" />
	</node>
	<node id="-317445" lat="60.0970611071" lon="11.7348361158">
		<tag k="name" v="Bekkemyra" />
		<tag k="natural" v="wetland" />
		<tag k="ssr:stedsnr" v="57002" />
	</node>
	<node id="-317444" lat="60.1050138845" lon="11.7384249965">
		<tag k="name" v="Saltblekkmyra" />
		<tag k="natural" v="wetland" />
		<tag k="ssr:stedsnr" v="57001" />
	</node>
	<node id="-317442" lat="60.3101750041" lon="11.8310527849">
		<tag k="name" v="Delmyra" />
		<tag k="natural" v="wetland" />
		<tag k="ssr:stedsnr" v="55422" />
	</node>
</osm>
