<?xml version="1.0" encoding="UTF-8"?>
<osm generator="osmapis" version="0.6">
	<node id="-206841" lat="59.6286999977" lon="10.1743638822">
		<tag k="name" v="Røysa" />
		<tag k="natural" v="hill" />
		<tag k="place" v="locality" />
		<tag k="ssr:stedsnr" v="246078" />
	</node>
	<node id="-206830" lat="59.6004249968" lon="10.2501194454">
		<tag k="name" v="Bosskleiv" />
		<tag k="natural" v="slope" />
		<tag k="place" v="locality" />
		<tag k="ssr:stedsnr" v="210941" />
	</node>
	<node id="-206829" lat="59.6020666623" lon="10.248705556">
		<tag k="fixme" v="consider natural=peak for the most distinct mountains in the district" />
		<tag k="name" v="Vebergåsen" />
		<tag k="natural" v="hill" />
		<tag k="place" v="locality" />
		<tag k="ssr:stedsnr" v="210942" />
	</node>
	<node id="-206826" lat="59.6238194453" lon="10.2539472277">
		<tag k="name" v="Dypedal" />
		<tag k="natural" v="valley" />
		<tag k="place" v="locality" />
		<tag k="ssr:stedsnr" v="210926" />
	</node>
	<node id="-206825" lat="59.6331055568" lon="10.2496444519">
		<tag k="name" v="Svensebråtan" />
		<tag k="natural" v="slope" />
		<tag k="place" v="locality" />
		<tag k="ssr:stedsnr" v="210927" />
	</node>
	<node id="-206823" lat="59.6019055524" lon="10.2056694446">
		<tag k="name" v="Gamle-ås" />
		<tag k="natural" v="hill" />
		<tag k="place" v="locality" />
		<tag k="ssr:stedsnr" v="210922" />
	</node>
	<node id="-206820" lat="59.6115694475" lon="10.1321583389">
		<tag k="name" v="Bråtan" />
		<tag k="place" v="locality" />
		<tag k="ssr:stedsnr" v="210751" />
	</node>
	<node id="-206819" lat="59.6552861128" lon="10.1303777749">
		<tag k="name" v="Kølabånn" />
		<tag k="natural" v="valley" />
		<tag k="place" v="locality" />
		<tag k="ssr:stedsnr" v="210740" />
	</node>
	<node id="-206814" lat="59.6297861084" lon="10.245230557">
		<tag k="name" v="Torebråtan" />
		<tag k="natural" v="slope" />
		<tag k="place" v="locality" />
		<tag k="ssr:stedsnr" v="210656" />
	</node>
	<node id="-206804" lat="59.5937861077" lon="10.1627166698">
		<tag k="name" v="Hølerløkka" />
		<tag k="natural" v="slope" />
		<tag k="place" v="locality" />
		<tag k="ssr:stedsnr" v="210546" />
	</node>
	<node id="-206800" lat="59.6201444454" lon="10.2688361101">
		<tag k="name" v="Rundkula" />
		<tag k="natural" v="hill" />
		<tag k="place" v="locality" />
		<tag k="ssr:stedsnr" v="210245" />
	</node>
	<node id="-206798" lat="59.6370083312" lon="10.2846083396">
		<tag k="name" v="Fosseter" />
		<tag k="natural" v="slope" />
		<tag k="place" v="locality" />
		<tag k="ssr:stedsnr" v="210234" />
	</node>
	<node id="-206795" lat="59.619961113" lon="10.3093611187">
		<tag k="name" v="Trestikeldalen" />
		<tag k="natural" v="valley" />
		<tag k="place" v="locality" />
		<tag k="ssr:stedsnr" v="210225" />
	</node>
	<node id="-206793" lat="59.6137055524" lon="10.3029972186">
		<tag k="fixme" v="consider natural=peak for the most distinct mountains in the district" />
		<tag k="name" v="Skarven" />
		<tag k="natural" v="hill" />
		<tag k="place" v="locality" />
		<tag k="ssr:stedsnr" v="210197" />
	</node>
	<node id="-206792" lat="59.596280552" lon="10.3025749982">
		<tag k="fixme" v="consider natural=peak for the most distinct mountains in the district" />
		<tag k="name" v="Spethølåsen" />
		<tag k="natural" v="hill" />
		<tag k="place" v="locality" />
		<tag k="ssr:stedsnr" v="210190" />
	</node>
	<node id="-206790" lat="59.663086109" lon="10.2749694528">
		<tag k="name" v="Røedsdalen" />
		<tag k="natural" v="valley" />
		<tag k="place" v="locality" />
		<tag k="ssr:stedsnr" v="210176" />
	</node>
	<node id="-206784" lat="59.6380388888" lon="10.1743388824">
		<tag k="fixme" v="consider natural=peak for the most distinct mountains in the district" />
		<tag k="name" v="Søndre Fjellskar" />
		<tag k="natural" v="hill" />
		<tag k="place" v="locality" />
		<tag k="ssr:stedsnr" v="206339" />
	</node>
	<node id="-206773" lat="59.6584416667" lon="10.3139416688">
		<tag k="alt_name" v="Kringle" />
		<tag k="name" v="Kringla" />
		<tag k="natural" v="hill" />
		<tag k="place" v="locality" />
		<tag k="ssr:stedsnr" v="185126" />
	</node>
	<node id="-206766" lat="59.6521472225" lon="10.2605888833">
		<tag k="fixme" v="consider natural=peak for the most distinct mountains in the district" />
		<tag k="name" v="Fagerliåsen" />
		<tag k="natural" v="hill" />
		<tag k="place" v="locality" />
		<tag k="ssr:stedsnr" v="149958" />
	</node>
	<node id="-206764" lat="59.5966583337" lon="10.2563361049">
		<tag k="name" v="Dalalia" />
		<tag k="natural" v="slope" />
		<tag k="place" v="locality" />
		<tag k="ssr:stedsnr" v="149945" />
	</node>
	<node id="-206762" lat="59.6124333301" lon="10.2491833346">
		<tag k="name" v="Asken" />
		<tag k="natural" v="slope" />
		<tag k="place" v="locality" />
		<tag k="ssr:stedsnr" v="149940" />
	</node>
	<node id="-206759" lat="59.5665555554" lon="10.2501972199">
		<tag k="name" v="Berget" />
		<tag k="natural" v="hill" />
		<tag k="place" v="locality" />
		<tag k="ssr:stedsnr" v="149835" />
	</node>
	<node id="-206758" lat="59.5495111141" lon="10.2099444496">
		<tag k="fixme" v="consider natural=peak for the most distinct mountains in the district" />
		<tag k="name" v="Hattern" />
		<tag k="natural" v="hill" />
		<tag k="place" v="locality" />
		<tag k="ssr:stedsnr" v="149772" />
	</node>
	<node id="-206757" lat="59.6488777801" lon="10.1155638937">
		<tag k="name" v="Bestefarhølet" />
		<tag k="natural" v="ridge" />
		<tag k="place" v="locality" />
		<tag k="ssr:stedsnr" v="149757" />
	</node>
	<node id="-206756" lat="59.6522055521" lon="10.1021638868">
		<tag k="name" v="Lauvkolldalen" />
		<tag k="natural" v="valley" />
		<tag k="place" v="locality" />
		<tag k="ssr:stedsnr" v="149752" />
	</node>
	<node id="-206755" lat="59.6410194432" lon="10.104255552">
		<tag k="fixme" v="consider natural=peak for the most distinct mountains in the district" />
		<tag k="name" v="Puttåsen" />
		<tag k="natural" v="hill" />
		<tag k="place" v="locality" />
		<tag k="ssr:stedsnr" v="149745" />
	</node>
	<node id="-206754" lat="59.6398194409" lon="10.1455472296">
		<tag k="fixme" v="consider natural=peak for the most distinct mountains in the district" />
		<tag k="name" v="Loftåsen" />
		<tag k="natural" v="hill" />
		<tag k="place" v="locality" />
		<tag k="ssr:stedsnr" v="149744" />
	</node>
	<node id="-206751" lat="59.6393305586" lon="10.0400611156">
		<tag k="name" v="Svarttjernslia" />
		<tag k="natural" v="slope" />
		<tag k="place" v="locality" />
		<tag k="ssr:stedsnr" v="149730" />
	</node>
	<node id="-206749" lat="59.6219722206" lon="10.1057999998">
		<tag k="fixme" v="consider natural=peak for the most distinct mountains in the district" />
		<tag k="name" v="Østre Gransnarsåsen" />
		<tag k="natural" v="hill" />
		<tag k="place" v="locality" />
		<tag k="ssr:stedsnr" v="149720" />
	</node>
	<node id="-206748" lat="59.6170277748" lon="10.1116833393">
		<tag k="name" v="Olasdal" />
		<tag k="natural" v="valley" />
		<tag k="place" v="locality" />
		<tag k="ssr:stedsnr" v="149717" />
	</node>
	<node id="-206747" lat="59.6158249989" lon="10.072058341">
		<tag k="name" v="Tårnesteinkollen" />
		<tag k="natural" v="hill" />
		<tag k="place" v="locality" />
		<tag k="ssr:stedsnr" v="149701" />
	</node>
	<node id="-206739" lat="59.5588750043" lon="10.2125083271">
		<tag k="name" v="Vealøkka" />
		<tag k="place" v="locality" />
		<tag k="ssr:stedsnr" v="149590" />
	</node>
	<node id="-206736" lat="59.6397527774" lon="10.3209083307">
		<tag k="fixme" v="consider natural=peak for the most distinct mountains in the district" />
		<tag k="name" v="Storås" />
		<tag k="natural" v="hill" />
		<tag k="place" v="locality" />
		<tag k="ssr:stedsnr" v="149356" />
	</node>
	<node id="-206735" lat="59.5610749978" lon="10.2964194512">
		<tag k="name" v="Nedre Rammdalen" />
		<tag k="natural" v="valley" />
		<tag k="place" v="locality" />
		<tag k="ssr:stedsnr" v="149211" />
	</node>
	<node id="-206732" lat="59.633297221" lon="10.2871833333">
		<tag k="fixme" v="consider natural=peak for the most distinct mountains in the district" />
		<tag k="name" v="Fosseteråsen" />
		<tag k="natural" v="hill" />
		<tag k="place" v="locality" />
		<tag k="ssr:stedsnr" v="149201" />
	</node>
	<node id="-206730" lat="59.6280722221" lon="10.3247444479">
		<tag k="name" v="Svartevannsdalen" />
		<tag k="natural" v="valley" />
		<tag k="place" v="locality" />
		<tag k="ssr:stedsnr" v="149180" />
	</node>
	<node id="-206728" lat="59.6033472246" lon="10.267830555">
		<tag k="fixme" v="consider natural=peak for the most distinct mountains in the district" />
		<tag k="name" v="Slettås" />
		<tag k="natural" v="hill" />
		<tag k="place" v="locality" />
		<tag k="ssr:stedsnr" v="149169" />
	</node>
	<node id="-206727" lat="59.613" lon="10.2820416689">
		<tag k="name" v="Sagstulen" />
		<tag k="natural" v="slope" />
		<tag k="place" v="locality" />
		<tag k="ssr:stedsnr" v="149170" />
	</node>
	<node id="-206726" lat="59.6112722229" lon="10.2762583366">
		<tag k="name" v="Pina" />
		<tag k="natural" v="slope" />
		<tag k="place" v="locality" />
		<tag k="ssr:stedsnr" v="149167" />
	</node>
	<node id="-206725" lat="59.6036416631" lon="10.3147555478">
		<tag k="name" v="Bøhølet" />
		<tag k="natural" v="valley" />
		<tag k="place" v="locality" />
		<tag k="ssr:stedsnr" v="149147" />
	</node>
	<node id="-206720" lat="59.5466611138" lon="10.2969805626">
		<tag k="name" v="Brannhagen" />
		<tag k="natural" v="slope" />
		<tag k="place" v="locality" />
		<tag k="ssr:stedsnr" v="149036" />
	</node>
	<node id="-206719" lat="59.6492027766" lon="10.1961972188">
		<tag k="fixme" v="consider natural=peak for the most distinct mountains in the district" />
		<tag k="name" v="Klevjerkollen" />
		<tag k="natural" v="hill" />
		<tag k="place" v="locality" />
		<tag k="ssr:stedsnr" v="145358" />
	</node>
	<node id="-206718" lat="59.5670916693" lon="10.1802305537">
		<tag k="fixme" v="consider natural=peak for the most distinct mountains in the district" />
		<tag k="name" v="Hattern" />
		<tag k="natural" v="hill" />
		<tag k="place" v="locality" />
		<tag k="ssr:stedsnr" v="145336" />
	</node>
	<node id="-206698" lat="59.6610000041" lon="10.1184833409">
		<tag k="fixme" v="consider natural=peak for the most distinct mountains in the district" />
		<tag k="name" v="Elgmyråsen" />
		<tag k="natural" v="hill" />
		<tag k="place" v="locality" />
		<tag k="ssr:stedsnr" v="124138" />
	</node>
	<node id="-206694" lat="59.6019861078" lon="10.0983472138">
		<tag k="fixme" v="consider natural=peak for the most distinct mountains in the district" />
		<tag k="name" v="Haukelifjell" />
		<tag k="natural" v="hill" />
		<tag k="place" v="locality" />
		<tag k="ssr:stedsnr" v="124102" />
	</node>
	<node id="-206688" lat="59.5925055578" lon="10.1245333265">
		<tag k="fixme" v="consider natural=peak for the most distinct mountains in the district" />
		<tag k="name" v="Bergstighøgda" />
		<tag k="natural" v="hill" />
		<tag k="place" v="locality" />
		<tag k="ssr:stedsnr" v="124026" />
	</node>
	<node id="-206685" lat="59.5819999994" lon="10.1620250062">
		<tag k="alt_name" v="Stueåsen" />
		<tag k="fixme" v="consider natural=peak for the most distinct mountains in the district" />
		<tag k="name" v="Stuåsen" />
		<tag k="natural" v="hill" />
		<tag k="place" v="locality" />
		<tag k="ssr:stedsnr" v="124007" />
	</node>
	<node id="-206675" lat="59.6667388884" lon="10.1891638947">
		<tag k="fixme" v="consider natural=peak for the most distinct mountains in the district" />
		<tag k="name" v="Trolsrudåsen" />
		<tag k="natural" v="hill" />
		<tag k="place" v="locality" />
		<tag k="ssr:stedsnr" v="89924" />
	</node>
	<node id="-206674" lat="59.6671499982" lon="10.1745972146">
		<tag k="fixme" v="consider natural=peak for the most distinct mountains in the district" />
		<tag k="name" v="Hyllebergåsen" />
		<tag k="natural" v="hill" />
		<tag k="place" v="locality" />
		<tag k="ssr:stedsnr" v="89922" />
	</node>
	<node id="-206673" lat="59.6498138846" lon="10.1571249915">
		<tag k="fixme" v="consider natural=peak for the most distinct mountains in the district" />
		<tag k="name" v="Knabben" />
		<tag k="natural" v="hill" />
		<tag k="place" v="locality" />
		<tag k="ssr:stedsnr" v="89919" />
	</node>
	<node id="-206672" lat="59.6372805516" lon="10.2524027746">
		<tag k="name" v="Skjønnhaug" />
		<tag k="natural" v="hill" />
		<tag k="place" v="locality" />
		<tag k="ssr:stedsnr" v="89914" />
	</node>
	<node id="-206671" lat="59.6233861087" lon="10.2573527749">
		<tag k="name" v="Barlindleina" />
		<tag k="natural" v="valley" />
		<tag k="place" v="locality" />
		<tag k="ssr:stedsnr" v="89911" />
	</node>
	<node id="-206668" lat="59.6356166632" lon="10.255916672">
		<tag k="name" v="Guriberget" />
		<tag k="natural" v="hill" />
		<tag k="place" v="locality" />
		<tag k="ssr:stedsnr" v="89904" />
	</node>
	<node id="-206666" lat="59.6276333308" lon="10.2476861149">
		<tag k="name" v="Skyvleleina" />
		<tag k="natural" v="slope" />
		<tag k="place" v="locality" />
		<tag k="ssr:stedsnr" v="89901" />
	</node>
	<node id="-206663" lat="59.5443388913" lon="10.2246666594">
		<tag k="name" v="Deledalen" />
		<tag k="natural" v="valley" />
		<tag k="place" v="locality" />
		<tag k="ssr:stedsnr" v="89766" />
	</node>
	<node id="-206662" lat="59.5397972207" lon="10.2377555591">
		<tag k="name" v="Underlunden" />
		<tag k="natural" v="mountain_range" />
		<tag k="ssr:stedsnr" v="89757" />
	</node>
	<node id="-206661" lat="59.6513416671" lon="10.1145916739">
		<tag k="fixme" v="consider natural=peak for the most distinct mountains in the district" />
		<tag k="name" v="Holsrudvivian" />
		<tag k="natural" v="hill" />
		<tag k="place" v="locality" />
		<tag k="ssr:stedsnr" v="89754" />
	</node>
	<node id="-206660" lat="59.5993694466" lon="10.1171416627">
		<tag k="fixme" v="consider natural=peak for the most distinct mountains in the district" />
		<tag k="name" v="Skipsbergliåsen" />
		<tag k="natural" v="hill" />
		<tag k="place" v="locality" />
		<tag k="ssr:stedsnr" v="89735" />
	</node>
	<node id="-206659" lat="59.6647361124" lon="10.1214388876">
		<tag k="name" v="Elgmyrlia" />
		<tag k="natural" v="slope" />
		<tag k="place" v="locality" />
		<tag k="ssr:stedsnr" v="89731" />
	</node>
	<node id="-206657" lat="59.6383222185" lon="10.0890305557">
		<tag k="name" v="Moldbakkane" />
		<tag k="natural" v="slope" />
		<tag k="place" v="locality" />
		<tag k="ssr:stedsnr" v="89722" />
	</node>
	<node id="-206654" lat="59.6204305572" lon="10.1720333253">
		<tag k="name" v="Renna" />
		<tag k="natural" v="slope" />
		<tag k="place" v="locality" />
		<tag k="ssr:stedsnr" v="89642" />
	</node>
	<node id="-206652" lat="59.6297972212" lon="10.198141668">
		<tag k="name" v="Smalhagaberget" />
		<tag k="natural" v="slope" />
		<tag k="place" v="locality" />
		<tag k="ssr:stedsnr" v="89627" />
	</node>
	<node id="-206651" lat="59.6346111135" lon="10.1862361099">
		<tag k="fixme" v="consider natural=peak for the most distinct mountains in the district" />
		<tag k="name" v="Kjernemyråsene" />
		<tag k="natural" v="hill" />
		<tag k="place" v="locality" />
		<tag k="ssr:stedsnr" v="89615" />
	</node>
	<node id="-206647" lat="59.5900611145" lon="10.2121888968">
		<tag k="name" v="Bøplassen" />
		<tag k="place" v="locality" />
		<tag k="ssr:stedsnr" v="89571" />
	</node>
	<node id="-206642" lat="59.5675361135" lon="10.3250638897">
		<tag k="name" v="Steindalen" />
		<tag k="natural" v="valley" />
		<tag k="place" v="locality" />
		<tag k="ssr:stedsnr" v="89240" />
	</node>
	<node id="-206641" lat="59.6345388871" lon="10.2981138927">
		<tag k="name" v="Toresseterstulen" />
		<tag k="natural" v="hill" />
		<tag k="place" v="locality" />
		<tag k="ssr:stedsnr" v="89221" />
	</node>
	<node id="-206639" lat="59.6296916685" lon="10.3279222255">
		<tag k="fixme" v="consider natural=peak for the most distinct mountains in the district" />
		<tag k="name" v="Uldrevannsstyggen" />
		<tag k="natural" v="hill" />
		<tag k="place" v="locality" />
		<tag k="ssr:stedsnr" v="89208" />
	</node>
	<node id="-206638" lat="59.5990916652" lon="10.2829527782">
		<tag k="fixme" v="consider natural=peak for the most distinct mountains in the district" />
		<tag k="name" v="Sjølseteråsen" />
		<tag k="natural" v="hill" />
		<tag k="place" v="locality" />
		<tag k="ssr:stedsnr" v="89193" />
	</node>
	<node id="-206637" lat="59.6047833361" lon="10.2974472309">
		<tag k="fixme" v="consider natural=peak for the most distinct mountains in the district" />
		<tag k="name" v="Fuglemyråsen" />
		<tag k="natural" v="hill" />
		<tag k="place" v="locality" />
		<tag k="ssr:stedsnr" v="89185" />
	</node>
	<node id="-206636" lat="59.6101805526" lon="10.3176555547">
		<tag k="fixme" v="consider natural=peak for the most distinct mountains in the district" />
		<tag k="name" v="Brånamyråsen" />
		<tag k="natural" v="hill" />
		<tag k="place" v="locality" />
		<tag k="ssr:stedsnr" v="89182" />
	</node>
	<node id="-206634" lat="59.6674388882" lon="10.2751972213">
		<tag k="fixme" v="consider natural=peak for the most distinct mountains in the district" />
		<tag k="name" v="Holteråsen" />
		<tag k="natural" v="hill" />
		<tag k="place" v="locality" />
		<tag k="ssr:stedsnr" v="89173" />
	</node>
	<node id="-206632" lat="59.6584277736" lon="10.2845388904">
		<tag k="name" v="Merra-Panna" />
		<tag k="natural" v="slope" />
		<tag k="place" v="locality" />
		<tag k="ssr:stedsnr" v="89153" />
	</node>
	<node id="-206631" lat="59.5437972208" lon="10.3207916734">
		<tag k="name" v="Brekka" />
		<tag k="natural" v="slope" />
		<tag k="place" v="locality" />
		<tag k="ssr:stedsnr" v="89048" />
	</node>
	<node id="-206629" lat="59.5376999984" lon="10.3302138953">
		<tag k="fixme" v="consider natural=peak for the most distinct mountains in the district" />
		<tag k="name" v="Eikås" />
		<tag k="natural" v="hill" />
		<tag k="place" v="locality" />
		<tag k="ssr:stedsnr" v="89023" />
	</node>
	<node id="-206626" lat="59.6078916686" lon="10.1665138825">
		<tag k="fixme" v="consider natural=peak for the most distinct mountains in the district" />
		<tag k="name" v="Rudsåsen" />
		<tag k="natural" v="hill" />
		<tag k="place" v="locality" />
		<tag k="ssr:stedsnr" v="88904" />
	</node>
	<node id="-206624" lat="59.641461114" lon="10.1894555588">
		<tag k="fixme" v="consider natural=peak for the most distinct mountains in the district" />
		<tag k="name" v="Korpliåsen" />
		<tag k="natural" v="hill" />
		<tag k="place" v="locality" />
		<tag k="ssr:stedsnr" v="85311" />
	</node>
	<node id="-206615" lat="59.6663166696" lon="10.1616027852">
		<tag k="alt_name" v="Grålene" />
		<tag k="name" v="Grålen" />
		<tag k="natural" v="hill" />
		<tag k="place" v="locality" />
		<tag k="ssr:stedsnr" v="64140" />
	</node>
	<node id="-206614" lat="59.6511249956" lon="10.0961527851">
		<tag k="name" v="Lauvkollen" />
		<tag k="natural" v="hill" />
		<tag k="place" v="locality" />
		<tag k="ssr:stedsnr" v="64132" />
	</node>
	<node id="-206610" lat="59.5947611125" lon="10.2718305548">
		<tag k="fixme" v="consider natural=peak for the most distinct mountains in the district" />
		<tag k="name" v="Bufjell" />
		<tag k="natural" v="hill" />
		<tag k="place" v="locality" />
		<tag k="ssr:stedsnr" v="64083" />
	</node>
	<node id="-206601" lat="59.6533638846" lon="10.1524194477">
		<tag k="fixme" v="consider natural=peak for the most distinct mountains in the district" />
		<tag k="name" v="Bikkjeåsen" />
		<tag k="natural" v="hill" />
		<tag k="place" v="locality" />
		<tag k="ssr:stedsnr" v="28944" />
	</node>
	<node id="-206600" lat="59.6335833305" lon="10.2512166699">
		<tag k="name" v="Taleplassen" />
		<tag k="natural" v="hill" />
		<tag k="place" v="locality" />
		<tag k="ssr:stedsnr" v="28943" />
	</node>
	<node id="-206597" lat="59.6094166706" lon="10.2084500064">
		<tag k="name" v="Brubakken" />
		<tag k="natural" v="slope" />
		<tag k="place" v="locality" />
		<tag k="ssr:stedsnr" v="28924" />
	</node>
	<node id="-206596" lat="59.6016786302" lon="10.1751726684">
		<tag k="name" v="Verningen" />
		<tag k="natural" v="valley" />
		<tag k="place" v="locality" />
		<tag k="ssr:stedsnr" v="28925" />
	</node>
	<node id="-206593" lat="59.5381666657" lon="10.2445611185">
		<tag k="name" v="Siksaken" />
		<tag k="natural" v="valley" />
		<tag k="place" v="locality" />
		<tag k="ssr:stedsnr" v="28787" />
	</node>
	<node id="-206592" lat="59.6120305582" lon="10.0995638937">
		<tag k="name" v="Bukkebakkene" />
		<tag k="natural" v="slope" />
		<tag k="place" v="locality" />
		<tag k="ssr:stedsnr" v="28765" />
	</node>
	<node id="-206591" lat="59.6126305587" lon="10.1051388927">
		<tag k="fixme" v="consider natural=peak for the most distinct mountains in the district" />
		<tag k="name" v="Gjertrudskollen" />
		<tag k="natural" v="hill" />
		<tag k="place" v="locality" />
		<tag k="ssr:stedsnr" v="28764" />
	</node>
	<node id="-206589" lat="59.6544638906" lon="10.1232138928">
		<tag k="name" v="Hestbakklia" />
		<tag k="natural" v="slope" />
		<tag k="place" v="locality" />
		<tag k="ssr:stedsnr" v="28756" />
	</node>
	<node id="-206586" lat="59.617722219" lon="10.1320944511">
		<tag k="name" v="Klokkern" />
		<tag k="natural" v="valley" />
		<tag k="place" v="locality" />
		<tag k="ssr:stedsnr" v="28743" />
	</node>
	<node id="-206585" lat="59.6179305595" lon="10.1371916722">
		<tag k="name" v="Vesle-Munken" />
		<tag k="natural" v="hill" />
		<tag k="place" v="locality" />
		<tag k="ssr:stedsnr" v="28742" />
	</node>
	<node id="-206583" lat="59.5926833362" lon="10.259147221">
		<tag k="fixme" v="consider natural=peak for the most distinct mountains in the district" />
		<tag k="name" v="Dalaåsen" />
		<tag k="natural" v="hill" />
		<tag k="place" v="locality" />
		<tag k="ssr:stedsnr" v="28591" />
	</node>
	<node id="-206573" lat="59.6310638864" lon="10.1586722203">
		<tag k="fixme" v="consider natural=peak for the most distinct mountains in the district" />
		<tag k="name" v="Kringlevannsåsen" />
		<tag k="natural" v="hill" />
		<tag k="place" v="locality" />
		<tag k="ssr:stedsnr" v="28626" />
	</node>
	<node id="-206572" lat="59.5564083288" lon="10.2200555596">
		<tag k="name" v="Skarsløkka" />
		<tag k="place" v="locality" />
		<tag k="ssr:stedsnr" v="28622" />
	</node>
	<node id="-206570" lat="59.5934333299" lon="10.1195222157">
		<tag k="name" v="Svanedalen" />
		<tag k="natural" v="valley" />
		<tag k="place" v="locality" />
		<tag k="ssr:stedsnr" v="28351" />
	</node>
	<node id="-206568" lat="59.5808027801" lon="10.3208166637">
		<tag k="fixme" v="consider natural=peak for the most distinct mountains in the district" />
		<tag k="name" v="Holtanåsene" />
		<tag k="natural" v="hill" />
		<tag k="place" v="locality" />
		<tag k="ssr:stedsnr" v="28265" />
	</node>
	<node id="-206566" lat="59.5646416639" lon="10.2847444464">
		<tag k="fixme" v="consider natural=peak for the most distinct mountains in the district" />
		<tag k="name" v="Syverudåsen" />
		<tag k="natural" v="hill" />
		<tag k="place" v="locality" />
		<tag k="ssr:stedsnr" v="28253" />
	</node>
	<node id="-206565" lat="59.5985222263" lon="10.2807611178">
		<tag k="name" v="Svartedal" />
		<tag k="natural" v="valley" />
		<tag k="place" v="locality" />
		<tag k="ssr:stedsnr" v="28200" />
	</node>
	<node id="-206563" lat="59.6080861079" lon="10.3064749962">
		<tag k="fixme" v="consider natural=peak for the most distinct mountains in the district" />
		<tag k="name" v="Frysihjelåsen" />
		<tag k="natural" v="hill" />
		<tag k="place" v="locality" />
		<tag k="ssr:stedsnr" v="28187" />
	</node>
	<node id="-206558" lat="59.5339861093" lon="10.3566333258">
		<tag k="fixme" v="consider natural=peak for the most distinct mountains in the district" />
		<tag k="name" v="Sjøbuåsene" />
		<tag k="natural" v="hill" />
		<tag k="place" v="locality" />
		<tag k="ssr:stedsnr" v="28033" />
	</node>
	<node id="-206557" lat="59.5540833319" lon="10.3289833298">
		<tag k="name" v="Jørandalen" />
		<tag k="natural" v="valley" />
		<tag k="place" v="locality" />
		<tag k="ssr:stedsnr" v="28245" />
	</node>
	<node id="-206555" lat="59.5235583331" lon="10.3404777822">
		<tag k="name" v="Solbakken" />
		<tag k="natural" v="slope" />
		<tag k="place" v="locality" />
		<tag k="ssr:stedsnr" v="28018" />
	</node>
	<node id="-206553" lat="59.6155388846" lon="10.2501638832">
		<tag k="name" v="Askedal" />
		<tag k="natural" v="valley" />
		<tag k="place" v="locality" />
		<tag k="ssr:stedsnr" v="24565" />
	</node>
	<node id="-206552" lat="59.5528333322" lon="10.2044583314">
		<tag k="name" v="Hvittingdalen" />
		<tag k="natural" v="valley" />
		<tag k="place" v="locality" />
		<tag k="ssr:stedsnr" v="24342" />
	</node>
	<node id="-206551" lat="59.6197888922" lon="10.1574249945">
		<tag k="name" v="Knatten" />
		<tag k="natural" v="hill" />
		<tag k="place" v="locality" />
		<tag k="ssr:stedsnr" v="4081" />
	</node>
	<node id="-206544" lat="59.5511388869" lon="10.3467027855">
		<tag k="fixme" v="consider natural=peak for the most distinct mountains in the district" />
		<tag k="name" v="Brånaåsen" />
		<tag k="natural" v="hill" />
		<tag k="place" v="locality" />
		<tag k="ssr:stedsnr" v="3659" />
	</node>
	<node id="-206538" lat="59.5671750039" lon="10.3067555605">
		<tag k="name" v="Tyrikollen" />
		<tag k="natural" v="hill" />
		<tag k="place" v="locality" />
		<tag k="ssr:stedsnr" v="3046" />
	</node>
	<node id="-206529" lat="59.6434638911" lon="10.0456722162">
		<tag k="fixme" v="consider natural=peak for the most distinct mountains in the district" />
		<tag k="loc_name" v="Annevasshøgda" />
		<tag k="name" v="Annevannshøgda" />
		<tag k="natural" v="hill" />
		<tag k="place" v="locality" />
		<tag k="ssr:stedsnr" v="161840" />
	</node>
	<node id="-206517" lat="59.5981527734" lon="10.2412111068">
		<tag k="name" v="Vebergtorget" />
		<tag k="natural" v="slope" />
		<tag k="place" v="locality" />
		<tag k="ssr:stedsnr" v="392954" />
	</node>
	<node id="-206516" lat="59.6632083309" lon="10.1952805631">
		<tag k="name" v="Kjærumbakken" />
		<tag k="natural" v="slope" />
		<tag k="place" v="locality" />
		<tag k="ssr:stedsnr" v="392947" />
	</node>
	<node id="-206515" lat="59.6728611086" lon="10.2481583269">
		<tag k="name" v="Tufthagen" />
		<tag k="place" v="locality" />
		<tag k="ssr:stedsnr" v="392940" />
	</node>
	<node id="-206514" lat="59.6338777767" lon="10.2541333363">
		<tag k="name" v="Dypedal" />
		<tag k="natural" v="valley" />
		<tag k="place" v="locality" />
		<tag k="ssr:stedsnr" v="392937" />
	</node>
	<node id="-206512" lat="59.6048527782" lon="10.2038999936">
		<tag k="name" v="Åshaugen" />
		<tag k="natural" v="hill" />
		<tag k="place" v="locality" />
		<tag k="ssr:stedsnr" v="392928" />
	</node>
	<node id="-206511" lat="59.6109750044" lon="10.1561583366">
		<tag k="name" v="Fjøserudkleiva" />
		<tag k="natural" v="slope" />
		<tag k="place" v="locality" />
		<tag k="ssr:stedsnr" v="392923" />
	</node>
	<node id="-206506" lat="59.5486999997" lon="10.2442305542">
		<tag k="name" v="Hvilebrekka" />
		<tag k="natural" v="slope" />
		<tag k="place" v="locality" />
		<tag k="ssr:stedsnr" v="392796" />
	</node>
	<node id="-206505" lat="59.607986107" lon="10.1111249945">
		<tag k="fixme" v="consider natural=peak for the most distinct mountains in the district" />
		<tag k="name" v="Damåsene" />
		<tag k="natural" v="hill" />
		<tag k="place" v="locality" />
		<tag k="ssr:stedsnr" v="392772" />
	</node>
	<node id="-206504" lat="59.6354527751" lon="10.0572944445">
		<tag k="name" v="Bjørkestallan" />
		<tag k="place" v="locality" />
		<tag k="ssr:stedsnr" v="392738" />
	</node>
	<node id="-206503" lat="59.6329972259" lon="10.1413777728">
		<tag k="fixme" v="consider natural=peak for the most distinct mountains in the district" />
		<tag k="name" v="Aasbrånan" />
		<tag k="natural" v="hill" />
		<tag k="place" v="locality" />
		<tag k="ssr:stedsnr" v="392736" />
	</node>
	<node id="-206499" lat="59.6167944448" lon="10.1524666661">
		<tag k="name" v="Fjøserudlia" />
		<tag k="natural" v="slope" />
		<tag k="place" v="locality" />
		<tag k="ssr:stedsnr" v="392683" />
	</node>
	<node id="-206497" lat="59.6231944423" lon="10.1970277856">
		<tag k="fixme" v="consider natural=peak for the most distinct mountains in the district" />
		<tag k="name" v="Kvernhusåsen" />
		<tag k="natural" v="hill" />
		<tag k="place" v="locality" />
		<tag k="ssr:stedsnr" v="392673" />
	</node>
	<node id="-206496" lat="59.6312416691" lon="10.1669500077">
		<tag k="name" v="Øya" />
		<tag k="natural" v="hill" />
		<tag k="place" v="locality" />
		<tag k="ssr:stedsnr" v="392663" />
	</node>
	<node id="-206494" lat="59.5704111075" lon="10.2557416627">
		<tag k="name" v="Brekke-bakken" />
		<tag k="natural" v="slope" />
		<tag k="place" v="locality" />
		<tag k="ssr:stedsnr" v="392650" />
	</node>
	<node id="-206493" lat="59.5647944488" lon="10.2341194529">
		<tag k="name" v="Garnbakken" />
		<tag k="natural" v="slope" />
		<tag k="place" v="locality" />
		<tag k="ssr:stedsnr" v="392646" />
	</node>
	<node id="-206487" lat="59.6109388875" lon="10.3057249975">
		<tag k="name" v="Møllbakkene" />
		<tag k="natural" v="slope" />
		<tag k="place" v="locality" />
		<tag k="ssr:stedsnr" v="392200" />
	</node>
	<node id="-206486" lat="59.608355559" lon="10.3081777758">
		<tag k="name" v="Trollhettdalen" />
		<tag k="natural" v="valley" />
		<tag k="place" v="locality" />
		<tag k="ssr:stedsnr" v="392199" />
	</node>
	<node id="-206485" lat="59.5977500019" lon="10.3179222266">
		<tag k="fixme" v="consider natural=peak for the most distinct mountains in the district" />
		<tag k="name" v="Ulvemyråsen" />
		<tag k="natural" v="hill" />
		<tag k="place" v="locality" />
		<tag k="ssr:stedsnr" v="392197" />
	</node>
	<node id="-206481" lat="59.5368527753" lon="10.3656805629">
		<tag k="name" v="Hagadalen" />
		<tag k="natural" v="valley" />
		<tag k="place" v="locality" />
		<tag k="ssr:stedsnr" v="392026" />
	</node>
	<node id="-206478" lat="59.5704361119" lon="10.1693277793">
		<tag k="name" v="Nordre Høyslassdalen" />
		<tag k="natural" v="valley" />
		<tag k="place" v="locality" />
		<tag k="ssr:stedsnr" v="388371" />
	</node>
	<node id="-206466" lat="59.5798916678" lon="10.3221250052">
		<tag k="fixme" v="consider natural=peak for the most distinct mountains in the district" />
		<tag k="name" v="Flata" />
		<tag k="natural" v="hill" />
		<tag k="place" v="locality" />
		<tag k="ssr:stedsnr" v="367045" />
	</node>
	<node id="-206456" lat="59.607761112" lon="10.2532861193">
		<tag k="name" v="Aunes-To" />
		<tag k="natural" v="hill" />
		<tag k="place" v="locality" />
		<tag k="ssr:stedsnr" v="331948" />
	</node>
	<node id="-206452" lat="59.6441527775" lon="10.1281027831">
		<tag k="name" v="Kopstadlangmyrli" />
		<tag k="natural" v="slope" />
		<tag k="place" v="locality" />
		<tag k="ssr:stedsnr" v="331747" />
	</node>
	<node id="-206449" lat="59.6097611127" lon="10.138166672">
		<tag k="fixme" v="consider natural=peak for the most distinct mountains in the district" />
		<tag k="name" v="Sandåkeråsen" />
		<tag k="natural" v="hill" />
		<tag k="place" v="locality" />
		<tag k="ssr:stedsnr" v="331722" />
	</node>
	<node id="-206448" lat="59.6317222253" lon="10.0573111191">
		<tag k="fixme" v="consider natural=peak for the most distinct mountains in the district" />
		<tag k="name" v="Slettås" />
		<tag k="natural" v="hill" />
		<tag k="place" v="locality" />
		<tag k="ssr:stedsnr" v="331709" />
	</node>
	<node id="-206446" lat="59.5819944434" lon="10.1493666659">
		<tag k="name" v="Klumpen" />
		<tag k="natural" v="hill" />
		<tag k="place" v="locality" />
		<tag k="ssr:stedsnr" v="331661" />
	</node>
	<node id="-206444" lat="59.6279416699" lon="10.246208342">
		<tag k="name" v="Steindalen" />
		<tag k="natural" v="valley" />
		<tag k="place" v="locality" />
		<tag k="ssr:stedsnr" v="331642" />
	</node>
	<node id="-206441" lat="59.6252055547" lon="10.1742305582">
		<tag k="name" v="Røyslia" />
		<tag k="natural" v="slope" />
		<tag k="place" v="locality" />
		<tag k="ssr:stedsnr" v="331621" />
	</node>
	<node id="-206440" lat="59.6288583312" lon="10.1936472204">
		<tag k="fixme" v="consider natural=peak for the most distinct mountains in the district" />
		<tag k="name" v="Hallansåsen" />
		<tag k="natural" v="hill" />
		<tag k="place" v="locality" />
		<tag k="ssr:stedsnr" v="331620" />
	</node>
	<node id="-206439" lat="59.631813887" lon="10.1955416638">
		<tag k="fixme" v="consider natural=peak for the most distinct mountains in the district" />
		<tag k="name" v="Seteråsen" />
		<tag k="natural" v="hill" />
		<tag k="place" v="locality" />
		<tag k="ssr:stedsnr" v="331615" />
	</node>
	<node id="-206438" lat="59.6310027776" lon="10.1790333355">
		<tag k="name" v="Fleskedal" />
		<tag k="natural" v="valley" />
		<tag k="place" v="locality" />
		<tag k="ssr:stedsnr" v="331613" />
	</node>
	<node id="-206436" lat="59.5515416711" lon="10.2200833282">
		<tag k="fixme" v="consider natural=peak for the most distinct mountains in the district" />
		<tag k="name" v="Heia" />
		<tag k="natural" v="hill" />
		<tag k="place" v="locality" />
		<tag k="ssr:stedsnr" v="331598" />
	</node>
	<node id="-206431" lat="59.5932638913" lon="10.1668305512">
		<tag k="name" v="Huken" />
		<tag k="natural" v="slope" />
		<tag k="place" v="locality" />
		<tag k="ssr:stedsnr" v="331542" />
	</node>
	<node id="-206429" lat="59.5803250005" lon="10.2908027848">
		<tag k="fixme" v="consider natural=peak for the most distinct mountains in the district" />
		<tag k="name" v="Vingelåsen" />
		<tag k="natural" v="hill" />
		<tag k="place" v="locality" />
		<tag k="ssr:stedsnr" v="331266" />
	</node>
	<node id="-206428" lat="59.5960694487" lon="10.267488892">
		<tag k="name" v="Østre Kirudal" />
		<tag k="natural" v="valley" />
		<tag k="place" v="locality" />
		<tag k="ssr:stedsnr" v="331186" />
	</node>
	<node id="-206426" lat="59.5989888885" lon="10.29577778">
		<tag k="name" v="Massebonn" />
		<tag k="natural" v="valley" />
		<tag k="place" v="locality" />
		<tag k="ssr:stedsnr" v="331177" />
	</node>
	<node id="-206425" lat="59.6595805575" lon="10.3083972263">
		<tag k="name" v="Kringla" />
		<tag k="natural" v="hill" />
		<tag k="place" v="locality" />
		<tag k="ssr:stedsnr" v="331165" />
	</node>
	<node id="-206424" lat="59.6536083343" lon="10.2838250014">
		<tag k="name" v="Lorthølet" />
		<tag k="natural" v="valley" />
		<tag k="place" v="locality" />
		<tag k="ssr:stedsnr" v="331140" />
	</node>
	<node id="-206418" lat="59.5350333372" lon="10.3757944377">
		<tag k="name" v="Hovet" />
		<tag k="natural" v="slope" />
		<tag k="place" v="locality" />
		<tag k="ssr:stedsnr" v="331026" />
	</node>
	<node id="-206416" lat="59.6498722182" lon="10.1800833324">
		<tag k="name" v="Styggedalen" />
		<tag k="natural" v="valley" />
		<tag k="place" v="locality" />
		<tag k="ssr:stedsnr" v="328354" />
	</node>
	<node id="-206359" lat="59.6266888844" lon="10.0592750059">
		<tag k="alt_name" v="Prest-Slettåsen" />
		<tag k="fixme" v="consider natural=peak for the most distinct mountains in the district" />
		<tag k="name" v="Preste-Slettåsen" />
		<tag k="natural" v="hill" />
		<tag k="place" v="locality" />
		<tag k="ssr:stedsnr" v="307101" />
	</node>
	<node id="-206358" lat="59.6316333374" lon="10.2738805558">
		<tag k="fixme" v="consider natural=peak for the most distinct mountains in the district" />
		<tag k="name" v="Dunsåsen" />
		<tag k="natural" v="hill" />
		<tag k="place" v="locality" />
		<tag k="ssr:stedsnr" v="307088" />
	</node>
	<node id="-206356" lat="59.6240749964" lon="10.1286722158">
		<tag k="alt_name" v="Store-Munken" />
		<tag k="name" v="Munken" />
		<tag k="natural" v="hill" />
		<tag k="place" v="locality" />
		<tag k="ssr:stedsnr" v="307082" />
	</node>
	<node id="-206354" lat="59.6176611109" lon="10.1829833398">
		<tag k="fixme" v="consider natural=peak for the most distinct mountains in the district" />
		<tag k="name" v="Bolstadåsen" />
		<tag k="natural" v="hill" />
		<tag k="place" v="locality" />
		<tag k="ssr:stedsnr" v="307079" />
	</node>
	<node id="-206343" lat="59.5749138889" lon="10.1449611059">
		<tag k="fixme" v="consider natural=peak for the most distinct mountains in the district" />
		<tag k="name" v="Bondiseteråsen" />
		<tag k="natural" v="hill" />
		<tag k="place" v="locality" />
		<tag k="ssr:stedsnr" v="306068" />
	</node>
	<node id="-206339" lat="59.5893305552" lon="10.3087666725">
		<tag k="alt_name" v="Spettholdalen" />
		<tag k="name" v="Spettholet" />
		<tag k="natural" v="valley" />
		<tag k="place" v="locality" />
		<tag k="ssr:stedsnr" v="306016" />
	</node>
	<node id="-206331" lat="59.6459388895" lon="10.1654972273">
		<tag k="name" v="Rogndalen" />
		<tag k="natural" v="valley" />
		<tag k="place" v="locality" />
		<tag k="ssr:stedsnr" v="271976" />
	</node>
	<node id="-206325" lat="59.629427776" lon="10.2623861056">
		<tag k="fixme" v="consider natural=peak for the most distinct mountains in the district" />
		<tag k="name" v="Rolighetsåsen" />
		<tag k="natural" v="hill" />
		<tag k="place" v="locality" />
		<tag k="ssr:stedsnr" v="271936" />
	</node>
	<node id="-206320" lat="59.5439138895" lon="10.2374555468">
		<tag k="name" v="Skjerviklia" />
		<tag k="natural" v="slope" />
		<tag k="place" v="locality" />
		<tag k="ssr:stedsnr" v="271808" />
	</node>
	<node id="-206317" lat="59.5969277819" lon="10.1305222146">
		<tag k="fixme" v="consider natural=peak for the most distinct mountains in the district" />
		<tag k="name" v="Overåsen" />
		<tag k="natural" v="hill" />
		<tag k="place" v="locality" />
		<tag k="ssr:stedsnr" v="271784" />
	</node>
	<node id="-206315" lat="59.6315499976" lon="10.2417416633">
		<tag k="name" v="Steinbukken" />
		<tag k="natural" v="slope" />
		<tag k="place" v="locality" />
		<tag k="ssr:stedsnr" v="271694" />
	</node>
	<node id="-206313" lat="59.6227722222" lon="10.1657888888">
		<tag k="name" v="Askilsdalen" />
		<tag k="natural" v="valley" />
		<tag k="place" v="locality" />
		<tag k="ssr:stedsnr" v="271681" />
	</node>
	<node id="-206310" lat="59.6283916639" lon="10.1625583337">
		<tag k="fixme" v="consider natural=peak for the most distinct mountains in the district" />
		<tag k="name" v="Konggateåsen" />
		<tag k="natural" v="hill" />
		<tag k="place" v="locality" />
		<tag k="ssr:stedsnr" v="271657" />
	</node>
	<node id="-206308" lat="59.6409305585" lon="10.3254416589">
		<tag k="name" v="Svanevannslia" />
		<tag k="natural" v="slope" />
		<tag k="place" v="locality" />
		<tag k="ssr:stedsnr" v="271412" />
	</node>
	<node id="-206305" lat="59.6330111121" lon="10.303452784">
		<tag k="fixme" v="consider natural=peak for the most distinct mountains in the district" />
		<tag k="name" v="Bakliåsen" />
		<tag k="natural" v="hill" />
		<tag k="place" v="locality" />
		<tag k="ssr:stedsnr" v="271234" />
	</node>
	<node id="-206303" lat="59.5994277807" lon="10.3054166658">
		<tag k="name" v="Spetholdalen" />
		<tag k="natural" v="valley" />
		<tag k="place" v="locality" />
		<tag k="ssr:stedsnr" v="271196" />
	</node>
	<node id="-206302" lat="59.6658777813" lon="10.2966777809">
		<tag k="name" v="Røysjølia" />
		<tag k="natural" v="slope" />
		<tag k="place" v="locality" />
		<tag k="ssr:stedsnr" v="271182" />
	</node>
	<node id="-206299" lat="59.542258334" lon="10.3251861122">
		<tag k="fixme" v="consider natural=peak for the most distinct mountains in the district" />
		<tag k="name" v="Flatås" />
		<tag k="natural" v="hill" />
		<tag k="place" v="locality" />
		<tag k="ssr:stedsnr" v="271055" />
	</node>
	<node id="-207491" lat="59.6445638886" lon="10.2622388879">
		<tag k="fixme" v="consider natural=peak for the most distinct mountains in the district" />
		<tag k="name" v="Kampenhaug" />
		<tag k="natural" v="hill" />
		<tag k="place" v="locality" />
		<tag k="ssr:stedsnr" v="938967" />
	</node>
	<node id="-207483" lat="59.648747226" lon="10.1527305596">
		<tag k="fixme" v="consider natural=peak for the most distinct mountains in the district" />
		<tag k="name" v="Langevannsåsen" />
		<tag k="natural" v="hill" />
		<tag k="place" v="locality" />
		<tag k="ssr:stedsnr" v="938941" />
	</node>
	<node id="-207479" lat="59.6325083316" lon="10.2626972267">
		<tag k="name" v="Nord-Lærum-plassen" />
		<tag k="natural" v="hill" />
		<tag k="place" v="locality" />
		<tag k="ssr:stedsnr" v="938920" />
	</node>
	<node id="-207478" lat="59.6046027771" lon="10.2162805524">
		<tag k="name" v="Roligheta" />
		<tag k="natural" v="slope" />
		<tag k="place" v="locality" />
		<tag k="ssr:stedsnr" v="938905" />
	</node>
	<node id="-207475" lat="59.6480388895" lon="10.1409027826">
		<tag k="name" v="Ryggetanglia" />
		<tag k="natural" v="slope" />
		<tag k="place" v="locality" />
		<tag k="ssr:stedsnr" v="938750" />
	</node>
	<node id="-207474" lat="59.6124416622" lon="10.1456055543">
		<tag k="fixme" v="consider natural=peak for the most distinct mountains in the district" />
		<tag k="name" v="Vemundsåsen" />
		<tag k="natural" v="hill" />
		<tag k="place" v="locality" />
		<tag k="ssr:stedsnr" v="938731" />
	</node>
	<node id="-207466" lat="59.6335722218" lon="10.095927775">
		<tag k="name" v="Møllbakken" />
		<tag k="natural" v="slope" />
		<tag k="place" v="locality" />
		<tag k="ssr:stedsnr" v="938681" />
	</node>
	<node id="-207465" lat="59.580094444" lon="10.14339722">
		<tag k="name" v="Merrahølet" />
		<tag k="natural" v="valley" />
		<tag k="place" v="locality" />
		<tag k="ssr:stedsnr" v="938644" />
	</node>
	<node id="-207459" lat="59.5567666639" lon="10.2094777703">
		<tag k="name" v="Glanern" />
		<tag k="natural" v="slope" />
		<tag k="place" v="locality" />
		<tag k="ssr:stedsnr" v="938592" />
	</node>
	<node id="-207455" lat="59.5788138908" lon="10.2285888832">
		<tag k="name" v="Tangen" />
		<tag k="place" v="locality" />
		<tag k="ssr:stedsnr" v="938562" />
	</node>
	<node id="-207453" lat="59.577383329" lon="10.3141249975">
		<tag k="name" v="Varbergdalen" />
		<tag k="natural" v="valley" />
		<tag k="place" v="locality" />
		<tag k="ssr:stedsnr" v="938248" />
	</node>
	<node id="-207452" lat="59.5658555546" lon="10.2772861185">
		<tag k="fixme" v="consider natural=peak for the most distinct mountains in the district" />
		<tag k="name" v="Selvikåsen" />
		<tag k="natural" v="hill" />
		<tag k="place" v="locality" />
		<tag k="ssr:stedsnr" v="938240" />
	</node>
	<node id="-207448" lat="59.6257888904" lon="10.2819777809">
		<tag k="fixme" v="consider natural=peak for the most distinct mountains in the district" />
		<tag k="name" v="Mellomåsen" />
		<tag k="natural" v="hill" />
		<tag k="place" v="locality" />
		<tag k="ssr:stedsnr" v="938199" />
	</node>
	<node id="-207447" lat="59.6332111077" lon="10.3014638828">
		<tag k="name" v="Stygghølet" />
		<tag k="natural" v="valley" />
		<tag k="place" v="locality" />
		<tag k="ssr:stedsnr" v="938194" />
	</node>
	<node id="-207443" lat="59.615472223" lon="10.2905055622">
		<tag k="fixme" v="consider natural=peak for the most distinct mountains in the district" />
		<tag k="name" v="Mellomåsen" />
		<tag k="natural" v="hill" />
		<tag k="place" v="locality" />
		<tag k="ssr:stedsnr" v="938165" />
	</node>
	<node id="-207439" lat="59.5871138915" lon="10.2685583422">
		<tag k="fixme" v="consider natural=peak for the most distinct mountains in the district" />
		<tag k="name" v="Østre Bjørndalsåsen" />
		<tag k="natural" v="hill" />
		<tag k="place" v="locality" />
		<tag k="ssr:stedsnr" v="938015" />
	</node>
	<node id="-207438" lat="59.589088887" lon="10.2843305613">
		<tag k="fixme" v="consider natural=peak for the most distinct mountains in the district" />
		<tag k="name" v="Tiurmyråsen" />
		<tag k="natural" v="hill" />
		<tag k="place" v="locality" />
		<tag k="ssr:stedsnr" v="938014" />
	</node>
	<node id="-207436" lat="59.536952774" lon="10.3748388888">
		<tag k="fixme" v="consider natural=peak for the most distinct mountains in the district" />
		<tag k="name" v="Borgaren" />
		<tag k="natural" v="hill" />
		<tag k="place" v="locality" />
		<tag k="ssr:stedsnr" v="914546" />
	</node>
	<node id="-207425" lat="59.6400777793" lon="10.0661527706">
		<tag k="name" v="Presteseteråsen" />
		<tag k="natural" v="hill" />
		<tag k="place" v="locality" />
		<tag k="ssr:stedsnr" v="913176" />
	</node>
	<node id="-207421" lat="59.595827776" lon="10.2643972215">
		<tag k="fixme" v="consider natural=peak for the most distinct mountains in the district" />
		<tag k="name" v="Kiruddalsåsen" />
		<tag k="natural" v="hill" />
		<tag k="place" v="locality" />
		<tag k="ssr:stedsnr" v="913099" />
	</node>
	<node id="-207415" lat="59.545594441" lon="10.3208027862">
		<tag k="name" v="Hatterås" />
		<tag k="natural" v="hill" />
		<tag k="place" v="locality" />
		<tag k="ssr:stedsnr" v="913924" />
	</node>
	<node id="-207414" lat="59.5545305558" lon="10.2086000069">
		<tag k="name" v="Hatteren" />
		<tag k="natural" v="hill" />
		<tag k="place" v="locality" />
		<tag k="ssr:stedsnr" v="913912" />
	</node>
	<node id="-207409" lat="59.6499777806" lon="10.3234833378">
		<tag k="name" v="Dunken" />
		<tag k="natural" v="slope" />
		<tag k="place" v="locality" />
		<tag k="ssr:stedsnr" v="878417" />
	</node>
	<node id="-207405" lat="59.6413972238" lon="10.2748499999">
		<tag k="name" v="Grismyrholen" />
		<tag k="natural" v="valley" />
		<tag k="place" v="locality" />
		<tag k="ssr:stedsnr" v="878146" />
	</node>
	<node id="-207404" lat="59.6241277814" lon="10.2548222294">
		<tag k="name" v="Mollbakkene" />
		<tag k="natural" v="slope" />
		<tag k="place" v="locality" />
		<tag k="ssr:stedsnr" v="877932" />
	</node>
	<node id="-207398" lat="59.5996638925" lon="10.1091638866">
		<tag k="name" v="Dypedal" />
		<tag k="natural" v="valley" />
		<tag k="place" v="locality" />
		<tag k="ssr:stedsnr" v="877753" />
	</node>
	<node id="-207397" lat="59.604558336" lon="10.1419527818">
		<tag k="name" v="Pipern" />
		<tag k="natural" v="slope" />
		<tag k="place" v="locality" />
		<tag k="ssr:stedsnr" v="877750" />
	</node>
	<node id="-207388" lat="59.5816611068" lon="10.1566611023">
		<tag k="name" v="Farmannsdalen" />
		<tag k="natural" v="valley" />
		<tag k="place" v="locality" />
		<tag k="ssr:stedsnr" v="877576" />
	</node>
	<node id="-207386" lat="59.584663887" lon="10.3092638941">
		<tag k="fixme" v="consider natural=peak for the most distinct mountains in the district" />
		<tag k="name" v="Skarseteråsen" />
		<tag k="natural" v="hill" />
		<tag k="place" v="locality" />
		<tag k="ssr:stedsnr" v="877288" />
	</node>
	<node id="-207379" lat="59.5231416622" lon="10.317011117">
		<tag k="name" v="Oterstenene" />
		<tag k="natural" v="slope" />
		<tag k="place" v="locality" />
		<tag k="ssr:stedsnr" v="877001" />
	</node>
	<node id="-207375" lat="59.6158805564" lon="10.1237499923">
		<tag k="alt_name" v="Glanern" />
		<tag k="fixme" v="consider natural=peak for the most distinct mountains in the district" />
		<tag k="name" v="Glaneren" />
		<tag k="natural" v="hill" />
		<tag k="place" v="locality" />
		<tag k="ssr:stedsnr" v="854058" />
	</node>
	<node id="-207372" lat="59.6437749978" lon="10.286974998">
		<tag k="fixme" v="consider natural=peak for the most distinct mountains in the district" />
		<tag k="name" v="Sveltleinåsen" />
		<tag k="natural" v="hill" />
		<tag k="place" v="locality" />
		<tag k="ssr:stedsnr" v="853122" />
	</node>
	<node id="-207371" lat="59.6487583317" lon="10.1595638819">
		<tag k="fixme" v="consider natural=peak for the most distinct mountains in the district" />
		<tag k="name" v="Bjørgeslettås" />
		<tag k="natural" v="hill" />
		<tag k="place" v="locality" />
		<tag k="ssr:stedsnr" v="853110" />
	</node>
	<node id="-207352" lat="59.5972027764" lon="10.1726416738">
		<tag k="name" v="Tasseroa" />
		<tag k="natural" v="slope" />
		<tag k="place" v="locality" />
		<tag k="ssr:stedsnr" v="817919" />
	</node>
	<node id="-207350" lat="59.6605194472" lon="10.1438750002">
		<tag k="name" v="Klevjerlia" />
		<tag k="natural" v="slope" />
		<tag k="place" v="locality" />
		<tag k="ssr:stedsnr" v="817730" />
	</node>
	<node id="-207349" lat="59.6143611143" lon="10.0761305622">
		<tag k="name" v="Lønnerlia" />
		<tag k="natural" v="slope" />
		<tag k="place" v="locality" />
		<tag k="ssr:stedsnr" v="817719" />
	</node>
	<node id="-207348" lat="59.6308444477" lon="10.1053416611">
		<tag k="name" v="Springoverstulen" />
		<tag k="place" v="locality" />
		<tag k="ssr:stedsnr" v="817703" />
	</node>
	<node id="-207343" lat="59.624061114" lon="10.2453361058">
		<tag k="name" v="Kastkleiva" />
		<tag k="natural" v="slope" />
		<tag k="place" v="locality" />
		<tag k="ssr:stedsnr" v="817635" />
	</node>
	<node id="-207333" lat="59.5903583345" lon="10.2628805508">
		<tag k="fixme" v="consider natural=peak for the most distinct mountains in the district" />
		<tag k="name" v="Vestre Bjørndalsåsen" />
		<tag k="natural" v="hill" />
		<tag k="place" v="locality" />
		<tag k="ssr:stedsnr" v="817557" />
	</node>
	<node id="-207329" lat="59.5859138924" lon="10.3290333357">
		<tag k="fixme" v="consider natural=peak for the most distinct mountains in the district" />
		<tag k="name" v="Hunsvikåsen" />
		<tag k="natural" v="hill" />
		<tag k="place" v="locality" />
		<tag k="ssr:stedsnr" v="817253" />
	</node>
	<node id="-207325" lat="59.6169916636" lon="10.2747749924">
		<tag k="name" v="Borgenseter" />
		<tag k="natural" v="slope" />
		<tag k="place" v="locality" />
		<tag k="ssr:stedsnr" v="817223" />
	</node>
	<node id="-207323" lat="59.6355416634" lon="10.2706111023">
		<tag k="fixme" v="consider natural=peak for the most distinct mountains in the district" />
		<tag k="name" v="Dunsåsen" />
		<tag k="natural" v="hill" />
		<tag k="place" v="locality" />
		<tag k="ssr:stedsnr" v="817209" />
	</node>
	<node id="-207322" lat="59.6321472184" lon="10.3223361146">
		<tag k="fixme" v="consider natural=peak for the most distinct mountains in the district" />
		<tag k="name" v="Eikelundåsen" />
		<tag k="natural" v="hill" />
		<tag k="place" v="locality" />
		<tag k="ssr:stedsnr" v="817206" />
	</node>
	<node id="-207320" lat="59.6600583342" lon="10.2891694457">
		<tag k="name" v="Steinkleiva" />
		<tag k="place" v="locality" />
		<tag k="ssr:stedsnr" v="817178" />
	</node>
	<node id="-207319" lat="59.661497218" lon="10.2831833271">
		<tag k="fixme" v="consider natural=peak for the most distinct mountains in the district" />
		<tag k="name" v="Snokopåsen" />
		<tag k="natural" v="hill" />
		<tag k="place" v="locality" />
		<tag k="ssr:stedsnr" v="817177" />
	</node>
	<node id="-207316" lat="59.5393861156" lon="10.2402138842">
		<tag k="name" v="Holmstuer" />
		<tag k="natural" v="hill" />
		<tag k="place" v="locality" />
		<tag k="ssr:stedsnr" v="817076" />
	</node>
	<node id="-207311" lat="59.5893388907" lon="10.2779444509">
		<tag k="fixme" v="consider natural=peak for the most distinct mountains in the district" />
		<tag k="name" v="Kuåsene" />
		<tag k="natural" v="hill" />
		<tag k="place" v="locality" />
		<tag k="ssr:stedsnr" v="817019" />
	</node>
	<node id="-207307" lat="59.6403333307" lon="10.1815666691">
		<tag k="fixme" v="consider natural=peak for the most distinct mountains in the district" />
		<tag k="name" v="Brånåsen" />
		<tag k="natural" v="hill" />
		<tag k="place" v="locality" />
		<tag k="ssr:stedsnr" v="813335" />
	</node>
	<node id="-207306" lat="59.5566805558" lon="10.2039972202">
		<tag k="fixme" v="consider natural=peak for the most distinct mountains in the district" />
		<tag k="name" v="Kariberget" />
		<tag k="natural" v="hill" />
		<tag k="place" v="locality" />
		<tag k="ssr:stedsnr" v="813324" />
	</node>
	<node id="-207305" lat="59.5590472194" lon="10.1897527721">
		<tag k="fixme" v="consider natural=peak for the most distinct mountains in the district" />
		<tag k="name" v="Stokkehvittingen" />
		<tag k="natural" v="hill" />
		<tag k="place" v="locality" />
		<tag k="ssr:stedsnr" v="813322" />
	</node>
	<node id="-207302" lat="59.5434750007" lon="10.3481472189">
		<tag k="alt_name" v="Fjellstueåsen" />
		<tag k="fixme" v="consider natural=peak for the most distinct mountains in the district" />
		<tag k="name" v="Fjellstuåsen" />
		<tag k="natural" v="hill" />
		<tag k="place" v="locality" />
		<tag k="ssr:stedsnr" v="792533" />
	</node>
	<node id="-207299" lat="59.6527277783" lon="10.1729333401">
		<tag k="alt_name" v="Klevjerliene" />
		<tag k="name" v="Kleverliane" />
		<tag k="natural" v="slope" />
		<tag k="place" v="locality" />
		<tag k="ssr:stedsnr" v="792139" />
	</node>
	<node id="-207298" lat="59.6660750003" lon="10.2895305568">
		<tag k="fixme" v="consider natural=peak for the most distinct mountains in the district" />
		<tag k="name" v="Steinkleivåsen" />
		<tag k="natural" v="hill" />
		<tag k="place" v="locality" />
		<tag k="ssr:stedsnr" v="792130" />
	</node>
	<node id="-207297" lat="59.6044999956" lon="10.2676083412">
		<tag k="fixme" v="consider natural=peak for the most distinct mountains in the district" />
		<tag k="name" v="Busterudåsen" />
		<tag k="natural" v="hill" />
		<tag k="place" v="locality" />
		<tag k="ssr:stedsnr" v="792121" />
	</node>
	<node id="-207296" lat="59.6279148001" lon="10.077526149">
		<tag k="loc_name" v="Kikkut" />
		<tag k="name" v="Montebello" />
		<tag k="natural" v="hill" />
		<tag k="place" v="locality" />
		<tag k="ssr:stedsnr" v="792101" />
	</node>
	<node id="-207295" lat="59.6159749969" lon="10.3059027786">
		<tag k="fixme" v="consider natural=peak for the most distinct mountains in the district" />
		<tag k="name" v="Ventetjernåsen" />
		<tag k="natural" v="hill" />
		<tag k="place" v="locality" />
		<tag k="ssr:stedsnr" v="792092" />
	</node>
	<node id="-207294" lat="59.5926861115" lon="10.3018805515">
		<tag k="fixme" v="consider natural=peak for the most distinct mountains in the district" />
		<tag k="name" v="Grytåsen" />
		<tag k="natural" v="hill" />
		<tag k="place" v="locality" />
		<tag k="ssr:stedsnr" v="792038" />
	</node>
	<node id="-207289" lat="59.5794861068" lon="10.295316675">
		<tag k="fixme" v="consider natural=peak for the most distinct mountains in the district" />
		<tag k="name" v="Kaståsen" />
		<tag k="natural" v="hill" />
		<tag k="place" v="locality" />
		<tag k="ssr:stedsnr" v="792002" />
	</node>
	<node id="-207282" lat="59.6383500029" lon="10.2293944408">
		<tag k="name" v="Rølleshaugen" />
		<tag k="natural" v="hill" />
		<tag k="place" v="locality" />
		<tag k="ssr:stedsnr" v="756970" />
	</node>
	<node id="-207278" lat="59.6124249985" lon="10.2028861169">
		<tag k="name" v="Dalsrudåsen" />
		<tag k="natural" v="hill" />
		<tag k="place" v="locality" />
		<tag k="ssr:stedsnr" v="756934" />
	</node>
	<node id="-207276" lat="59.5994277777" lon="10.1967416676">
		<tag k="fixme" v="consider natural=peak for the most distinct mountains in the district" />
		<tag k="name" v="Tandbergåsen" />
		<tag k="natural" v="hill" />
		<tag k="place" v="locality" />
		<tag k="ssr:stedsnr" v="756929" />
	</node>
	<node id="-207273" lat="59.5454583344" lon="10.2223750082">
		<tag k="fixme" v="consider natural=peak for the most distinct mountains in the district" />
		<tag k="name" v="Vesle Tyriåsen" />
		<tag k="natural" v="hill" />
		<tag k="place" v="locality" />
		<tag k="ssr:stedsnr" v="756767" />
	</node>
	<node id="-207270" lat="59.6189555518" lon="10.1147416681">
		<tag k="name" v="Skogsglanern" />
		<tag k="natural" v="ridge" />
		<tag k="place" v="locality" />
		<tag k="ssr:stedsnr" v="756734" />
	</node>
	<node id="-207268" lat="59.6262972245" lon="10.1396944387">
		<tag k="name" v="Siljukollkleiva" />
		<tag k="natural" v="valley" />
		<tag k="place" v="locality" />
		<tag k="ssr:stedsnr" v="756721" />
	</node>
	<node id="-207267" lat="59.6180972259" lon="10.1407166721">
		<tag k="name" v="Munkedalen" />
		<tag k="natural" v="valley" />
		<tag k="place" v="locality" />
		<tag k="ssr:stedsnr" v="756719" />
	</node>
	<node id="-207266" lat="59.5796888892" lon="10.147163892">
		<tag k="fixme" v="consider natural=peak for the most distinct mountains in the district" />
		<tag k="name" v="Seteråsen" />
		<tag k="natural" v="hill" />
		<tag k="place" v="locality" />
		<tag k="ssr:stedsnr" v="756685" />
	</node>
	<node id="-207265" lat="59.5915277775" lon="10.1345444494">
		<tag k="name" v="Haugerseterhølet" />
		<tag k="natural" v="valley" />
		<tag k="place" v="locality" />
		<tag k="ssr:stedsnr" v="756682" />
	</node>
	<node id="-207252" lat="59.5531444486" lon="10.2100333391">
		<tag k="fixme" v="consider natural=peak for the most distinct mountains in the district" />
		<tag k="name" v="Åsane" />
		<tag k="natural" v="hill" />
		<tag k="place" v="locality" />
		<tag k="ssr:stedsnr" v="756622" />
	</node>
	<node id="-207250" lat="59.5672666653" lon="10.2498611177">
		<tag k="name" v="Rauberget" />
		<tag k="natural" v="slope" />
		<tag k="place" v="locality" />
		<tag k="ssr:stedsnr" v="756614" />
	</node>
	<node id="-207248" lat="59.5838388851" lon="10.2587999992">
		<tag k="name" v="Øydalen" />
		<tag k="natural" v="valley" />
		<tag k="place" v="locality" />
		<tag k="ssr:stedsnr" v="756586" />
	</node>
	<node id="-207242" lat="59.5846083314" lon="10.2907249964">
		<tag k="name" v="Barlinleina" />
		<tag k="natural" v="slope" />
		<tag k="place" v="locality" />
		<tag k="ssr:stedsnr" v="756256" />
	</node>
	<node id="-207241" lat="59.5865055551" lon="10.3242027766">
		<tag k="name" v="Hunsvikdalen" />
		<tag k="natural" v="valley" />
		<tag k="place" v="locality" />
		<tag k="ssr:stedsnr" v="756247" />
	</node>
	<node id="-207238" lat="59.5560277784" lon="10.3362166619">
		<tag k="name" v="Lyerberget" />
		<tag k="natural" v="hill" />
		<tag k="place" v="locality" />
		<tag k="ssr:stedsnr" v="756219" />
	</node>
	<node id="-207235" lat="59.6474583344" lon="10.2999527762">
		<tag k="name" v="Krokbakk" />
		<tag k="natural" v="slope" />
		<tag k="place" v="locality" />
		<tag k="ssr:stedsnr" v="756124" />
	</node>
	<node id="-207232" lat="59.5321472227" lon="10.3771638874">
		<tag k="fixme" v="consider natural=peak for the most distinct mountains in the district" />
		<tag k="name" v="Leinaåsen" />
		<tag k="natural" v="hill" />
		<tag k="place" v="locality" />
		<tag k="ssr:stedsnr" v="756022" />
	</node>
	<node id="-207223" lat="59.5677222249" lon="10.1874388832">
		<tag k="name" v="Stokkelia" />
		<tag k="natural" v="slope" />
		<tag k="place" v="locality" />
		<tag k="ssr:stedsnr" v="752334" />
	</node>
	<node id="-207216" lat="59.6674250012" lon="10.2748638856">
		<tag k="fixme" v="consider natural=peak for the most distinct mountains in the district" />
		<tag k="name" v="Rødsåsen" />
		<tag k="natural" v="hill" />
		<tag k="place" v="locality" />
		<tag k="ssr:stedsnr" v="731117" />
	</node>
	<node id="-207210" lat="59.5786111073" lon="10.3291527754">
		<tag k="name" v="Sukkertoppen" />
		<tag k="natural" v="hill" />
		<tag k="place" v="locality" />
		<tag k="ssr:stedsnr" v="731054" />
	</node>
	<node id="-207194" lat="59.6460388881" lon="10.1487555573">
		<tag k="fixme" v="consider natural=peak for the most distinct mountains in the district" />
		<tag k="name" v="Myrseteråsen" />
		<tag k="natural" v="hill" />
		<tag k="place" v="locality" />
		<tag k="ssr:stedsnr" v="695748" />
	</node>
	<node id="-207193" lat="59.6107388903" lon="10.1438916735">
		<tag k="name" v="Trolldalen" />
		<tag k="natural" v="valley" />
		<tag k="place" v="locality" />
		<tag k="ssr:stedsnr" v="695721" />
	</node>
	<node id="-207192" lat="59.6258333344" lon="10.0582333386">
		<tag k="fixme" v="consider natural=peak for the most distinct mountains in the district" />
		<tag k="name" v="Slettfjell" />
		<tag k="natural" v="hill" />
		<tag k="place" v="locality" />
		<tag k="ssr:stedsnr" v="695707" />
	</node>
	<node id="-207183" lat="59.5743027821" lon="10.1758361111">
		<tag k="name" v="Andre utsikt" />
		<tag k="natural" v="hill" />
		<tag k="place" v="locality" />
		<tag k="ssr:stedsnr" v="695563" />
	</node>
	<node id="-207181" lat="59.5783916625" lon="10.2734416685">
		<tag k="fixme" v="consider natural=peak for the most distinct mountains in the district" />
		<tag k="name" v="Bråtanåsen" />
		<tag k="natural" v="hill" />
		<tag k="place" v="locality" />
		<tag k="ssr:stedsnr" v="695277" />
	</node>
	<node id="-207177" lat="59.6347694405" lon="10.3181999977">
		<tag k="fixme" v="consider natural=peak for the most distinct mountains in the district" />
		<tag k="name" v="Vesle Storås" />
		<tag k="natural" v="hill" />
		<tag k="place" v="locality" />
		<tag k="ssr:stedsnr" v="695217" />
	</node>
	<node id="-207176" lat="59.6233472218" lon="10.2758749997">
		<tag k="fixme" v="consider natural=peak for the most distinct mountains in the district" />
		<tag k="name" v="Lærumseteråsen" />
		<tag k="natural" v="hill" />
		<tag k="place" v="locality" />
		<tag k="ssr:stedsnr" v="695208" />
	</node>
	<node id="-207174" lat="59.6154499956" lon="10.2484666639">
		<tag k="fixme" v="consider natural=peak for the most distinct mountains in the district" />
		<tag k="name" v="Kårengåsen" />
		<tag k="natural" v="hill" />
		<tag k="place" v="locality" />
		<tag k="ssr:stedsnr" v="695942" />
	</node>
	<node id="-207171" lat="59.6044555571" lon="10.2503972203">
		<tag k="name" v="Svartedal" />
		<tag k="natural" v="valley" />
		<tag k="place" v="locality" />
		<tag k="ssr:stedsnr" v="695931" />
	</node>
	<node id="-207168" lat="59.6711361095" lon="10.2571722305">
		<tag k="name" v="Trogstaddalen" />
		<tag k="natural" v="valley" />
		<tag k="place" v="locality" />
		<tag k="ssr:stedsnr" v="695922" />
	</node>
	<node id="-207166" lat="59.6303638875" lon="10.2531499993">
		<tag k="name" v="Vassengkleiva" />
		<tag k="natural" v="slope" />
		<tag k="place" v="locality" />
		<tag k="ssr:stedsnr" v="695919" />
	</node>
	<node id="-207165" lat="59.6346055559" lon="10.2529722246">
		<tag k="name" v="Mikalsbråtan" />
		<tag k="natural" v="slope" />
		<tag k="place" v="locality" />
		<tag k="ssr:stedsnr" v="695916" />
	</node>
	<node id="-207161" lat="59.5510833306" lon="10.3024611085">
		<tag k="fixme" v="consider natural=peak for the most distinct mountains in the district" />
		<tag k="name" v="Buaren" />
		<tag k="natural" v="hill" />
		<tag k="place" v="locality" />
		<tag k="ssr:stedsnr" v="695028" />
	</node>
	<node id="-207160" lat="59.5441722204" lon="10.3342861079">
		<tag k="fixme" v="consider natural=peak for the most distinct mountains in the district" />
		<tag k="name" v="Rolvsengåsen" />
		<tag k="natural" v="hill" />
		<tag k="place" v="locality" />
		<tag k="ssr:stedsnr" v="695013" />
	</node>
	<node id="-207152" lat="59.5699138916" lon="10.1827277695">
		<tag k="fixme" v="consider natural=peak for the most distinct mountains in the district" />
		<tag k="name" v="Borgåsen" />
		<tag k="natural" v="hill" />
		<tag k="place" v="locality" />
		<tag k="ssr:stedsnr" v="692327" />
	</node>
	<node id="-207151" lat="59.5889500013" lon="10.2509666626">
		<tag k="fixme" v="consider natural=peak for the most distinct mountains in the district" />
		<tag k="name" v="Skafjellåsen" />
		<tag k="natural" v="hill" />
		<tag k="place" v="locality" />
		<tag k="ssr:stedsnr" v="687775" />
	</node>
	<node id="-207149" lat="59.6411861108" lon="10.3190333353">
		<tag k="fixme" v="consider natural=peak for the most distinct mountains in the district" />
		<tag k="name" v="Storås" />
		<tag k="natural" v="hill" />
		<tag k="place" v="locality" />
		<tag k="ssr:stedsnr" v="671157" />
	</node>
	<node id="-207142" lat="59.5695111112" lon="10.1813111035">
		<tag k="name" v="Hanekleivane" />
		<tag k="natural" v="slope" />
		<tag k="place" v="locality" />
		<tag k="ssr:stedsnr" v="671056" />
	</node>
	<node id="-207139" lat="59.558638891" lon="10.3473388868">
		<tag k="fixme" v="consider natural=peak for the most distinct mountains in the district" />
		<tag k="name" v="Skavanken" />
		<tag k="natural" v="hill" />
		<tag k="place" v="locality" />
		<tag k="ssr:stedsnr" v="670680" />
	</node>
	<node id="-207129" lat="59.5716666635" lon="10.1565388816">
		<tag k="name" v="Bakkesetra" />
		<tag k="natural" v="hill" />
		<tag k="place" v="locality" />
		<tag k="ssr:stedsnr" v="664024" />
	</node>
	<node id="-207124" lat="59.607825002" lon="10.1719416584">
		<tag k="name" v="Gilhusdalen" />
		<tag k="natural" v="valley" />
		<tag k="place" v="locality" />
		<tag k="ssr:stedsnr" v="634929" />
	</node>
	<node id="-207119" lat="59.6174722243" lon="10.1000083391">
		<tag k="name" v="Kølabonn" />
		<tag k="natural" v="valley" />
		<tag k="place" v="locality" />
		<tag k="ssr:stedsnr" v="634739" />
	</node>
	<node id="-207113" lat="59.5882305524" lon="10.2592555486">
		<tag k="name" v="Vestre Kiruddalen" />
		<tag k="natural" v="valley" />
		<tag k="place" v="locality" />
		<tag k="ssr:stedsnr" v="634607" />
	</node>
	<node id="-207108" lat="59.578305557" lon="10.2847777694">
		<tag k="name" v="Gudbrandsfjell" />
		<tag k="natural" v="hill" />
		<tag k="place" v="locality" />
		<tag k="ssr:stedsnr" v="634276" />
	</node>
	<node id="-207107" lat="59.573997219" lon="10.2803944359">
		<tag k="name" v="Selviklia" />
		<tag k="natural" v="slope" />
		<tag k="place" v="locality" />
		<tag k="ssr:stedsnr" v="634274" />
	</node>
	<node id="-207103" lat="59.5629138907" lon="10.2814111079">
		<tag k="name" v="Bjønnehølet" />
		<tag k="natural" v="valley" />
		<tag k="place" v="locality" />
		<tag k="ssr:stedsnr" v="634236" />
	</node>
	<node id="-207100" lat="59.5566694455" lon="10.3282777846">
		<tag k="name" v="Holtandalen" />
		<tag k="natural" v="valley" />
		<tag k="place" v="locality" />
		<tag k="ssr:stedsnr" v="634225" />
	</node>
	<node id="-207098" lat="59.62352778" lon="10.2793555617">
		<tag k="name" v="Dunsedalen" />
		<tag k="natural" v="valley" />
		<tag k="place" v="locality" />
		<tag k="ssr:stedsnr" v="634210" />
	</node>
	<node id="-207095" lat="59.606855556" lon="10.2785138967">
		<tag k="fixme" v="consider natural=peak for the most distinct mountains in the district" />
		<tag k="name" v="Raukleivåsen" />
		<tag k="natural" v="hill" />
		<tag k="place" v="locality" />
		<tag k="ssr:stedsnr" v="634168" />
	</node>
	<node id="-207094" lat="59.5994305552" lon="10.3276888876">
		<tag k="fixme" v="consider natural=peak for the most distinct mountains in the district" />
		<tag k="name" v="Blindevannsåsen" />
		<tag k="natural" v="hill" />
		<tag k="place" v="locality" />
		<tag k="ssr:stedsnr" v="634158" />
	</node>
	<node id="-207090" lat="59.5365777792" lon="10.3434055595">
		<tag k="fixme" v="consider natural=peak for the most distinct mountains in the district" />
		<tag k="name" v="Vammenåsen" />
		<tag k="natural" v="hill" />
		<tag k="place" v="locality" />
		<tag k="ssr:stedsnr" v="634017" />
	</node>
	<node id="-207089" lat="59.6463138899" lon="10.1963666619">
		<tag k="name" v="Gåserudbråten" />
		<tag k="natural" v="slope" />
		<tag k="place" v="locality" />
		<tag k="ssr:stedsnr" v="631374" />
	</node>
	<node id="-207088" lat="59.6480083326" lon="10.1883277785">
		<tag k="name" v="Dunken" />
		<tag k="natural" v="slope" />
		<tag k="place" v="locality" />
		<tag k="ssr:stedsnr" v="631371" />
	</node>
	<node id="-207087" lat="59.6462055577" lon="10.1815388902">
		<tag k="fixme" v="consider natural=peak for the most distinct mountains in the district" />
		<tag k="name" v="Høgås" />
		<tag k="natural" v="hill" />
		<tag k="place" v="locality" />
		<tag k="ssr:stedsnr" v="631370" />
	</node>
	<node id="-207086" lat="59.5603361141" lon="10.2031277711">
		<tag k="name" v="Oreleina" />
		<tag k="natural" v="slope" />
		<tag k="place" v="locality" />
		<tag k="ssr:stedsnr" v="631346" />
	</node>
	<node id="-207082" lat="59.6486500037" lon="10.1254944509">
		<tag k="fixme" v="consider natural=peak for the most distinct mountains in the district" />
		<tag k="name" v="Ryggetangslettås" />
		<tag k="natural" v="hill" />
		<tag k="place" v="locality" />
		<tag k="ssr:stedsnr" v="610164" />
	</node>
	<node id="-207074" lat="59.5747416632" lon="10.1523083295">
		<tag k="name" v="Bondiglaneren" />
		<tag k="natural" v="hill" />
		<tag k="place" v="locality" />
		<tag k="ssr:stedsnr" v="610054" />
	</node>
	<node id="-207055" lat="59.5435027748" lon="10.2170166708">
		<tag k="name" v="Seterdalen" />
		<tag k="natural" v="valley" />
		<tag k="place" v="locality" />
		<tag k="ssr:stedsnr" v="574798" />
	</node>
	<node id="-207053" lat="59.6565916673" lon="10.1455055514">
		<tag k="fixme" v="consider natural=peak for the most distinct mountains in the district" />
		<tag k="name" v="Skjeldrumåsen" />
		<tag k="natural" v="hill" />
		<tag k="place" v="locality" />
		<tag k="ssr:stedsnr" v="574763" />
	</node>
	<node id="-207052" lat="59.6289972251" lon="10.1430555593">
		<tag k="name" v="Siljukollen" />
		<tag k="natural" v="hill" />
		<tag k="place" v="locality" />
		<tag k="ssr:stedsnr" v="574756" />
	</node>
	<node id="-207051" lat="59.6239472262" lon="10.1013972233">
		<tag k="fixme" v="consider natural=peak for the most distinct mountains in the district" />
		<tag k="name" v="Vestre Gransnarås" />
		<tag k="natural" v="hill" />
		<tag k="place" v="locality" />
		<tag k="ssr:stedsnr" v="574757" />
	</node>
	<node id="-207048" lat="59.5830305582" lon="10.1473250029">
		<tag k="name" v="Gruva" />
		<tag k="natural" v="valley" />
		<tag k="place" v="locality" />
		<tag k="ssr:stedsnr" v="574680" />
	</node>
	<node id="-207047" lat="59.6182222231" lon="10.1660861164">
		<tag k="fixme" v="consider natural=peak for the most distinct mountains in the district" />
		<tag k="name" v="Askilsåsen" />
		<tag k="natural" v="hill" />
		<tag k="place" v="locality" />
		<tag k="ssr:stedsnr" v="574661" />
	</node>
	<node id="-207042" lat="59.5623138849" lon="10.2204444523">
		<tag k="name" v="Toresløkka" />
		<tag k="place" v="locality" />
		<tag k="ssr:stedsnr" v="574624" />
	</node>
	<node id="-207038" lat="59.577597219" lon="10.2984750082">
		<tag k="fixme" v="consider natural=peak for the most distinct mountains in the district" />
		<tag k="name" v="Røysåsen" />
		<tag k="natural" v="hill" />
		<tag k="place" v="locality" />
		<tag k="ssr:stedsnr" v="574288" />
	</node>
	<node id="-207036" lat="59.5623666672" lon="10.3234888814">
		<tag k="fixme" v="consider natural=peak for the most distinct mountains in the district" />
		<tag k="name" v="Holtankollen" />
		<tag k="natural" v="hill" />
		<tag k="place" v="locality" />
		<tag k="ssr:stedsnr" v="574241" />
	</node>
	<node id="-207033" lat="59.6327583304" lon="10.3063444402">
		<tag k="name" v="Buddetjernsflata" />
		<tag k="place" v="locality" />
		<tag k="ssr:stedsnr" v="574231" />
	</node>
	<node id="-207032" lat="59.5954333344" lon="10.2846694501">
		<tag k="fixme" v="consider natural=peak for the most distinct mountains in the district" />
		<tag k="name" v="Knippa" />
		<tag k="natural" v="hill" />
		<tag k="place" v="locality" />
		<tag k="ssr:stedsnr" v="574203" />
	</node>
	<node id="-207030" lat="59.6158277742" lon="10.2655805476">
		<tag k="name" v="Tømmerkleiv" />
		<tag k="natural" v="valley" />
		<tag k="place" v="locality" />
		<tag k="ssr:stedsnr" v="574185" />
	</node>
	<node id="-207029" lat="59.6560944409" lon="10.2936027773">
		<tag k="fixme" v="consider natural=peak for the most distinct mountains in the district" />
		<tag k="name" v="Langevannsåsen" />
		<tag k="natural" v="hill" />
		<tag k="place" v="locality" />
		<tag k="ssr:stedsnr" v="574160" />
	</node>
	<node id="-207027" lat="59.549619443" lon="10.3366472292">
		<tag k="name" v="Dypedal" />
		<tag k="natural" v="valley" />
		<tag k="place" v="locality" />
		<tag k="ssr:stedsnr" v="574024" />
	</node>
	<node id="-207022" lat="59.6309444413" lon="10.1512722167">
		<tag k="fixme" v="consider natural=peak for the most distinct mountains in the district" />
		<tag k="name" v="Siljukollen" />
		<tag k="natural" v="hill" />
		<tag k="place" v="locality" />
		<tag k="ssr:stedsnr" v="573585" />
	</node>
	<node id="-207020" lat="59.648461115" lon="10.1802805539">
		<tag k="name" v="Høgebru" />
		<tag k="natural" v="slope" />
		<tag k="place" v="locality" />
		<tag k="ssr:stedsnr" v="570330" />
	</node>
	<node id="-207018" lat="59.6304722247" lon="10.1179138884">
		<tag k="alt_name" v="Skogsslettås" />
		<tag k="fixme" v="consider natural=peak for the most distinct mountains in the district" />
		<tag k="name" v="Skog-Slettåsen" />
		<tag k="natural" v="hill" />
		<tag k="place" v="locality" />
		<tag k="ssr:stedsnr" v="610203" />
	</node>
	<node id="-207014" lat="59.5389055518" lon="10.2250361044">
		<tag k="fixme" v="consider natural=peak for the most distinct mountains in the district" />
		<tag k="name" v="Tyriåsen" />
		<tag k="natural" v="hill" />
		<tag k="place" v="locality" />
		<tag k="ssr:stedsnr" v="549933" />
	</node>
	<node id="-207011" lat="59.6034111088" lon="10.3213611129">
		<tag k="name" v="Gullsmedkollen" />
		<tag k="natural" v="hill" />
		<tag k="place" v="locality" />
		<tag k="ssr:stedsnr" v="549133" />
	</node>
	<node id="-207007" lat="59.5858999993" lon="10.1285638862">
		<tag k="name" v="Kuåsen" />
		<tag k="natural" v="hill" />
		<tag k="place" v="locality" />
		<tag k="ssr:stedsnr" v="549043" />
	</node>
	<node id="-207004" lat="59.641477779" lon="10.1694166592">
		<tag k="alt_name" v="Nordre Fjellskar" />
		<tag k="name" v="Fjellskard" />
		<tag k="natural" v="hill" />
		<tag k="place" v="locality" />
		<tag k="ssr:stedsnr" v="548188" />
	</node>
	<node id="-206993" lat="59.6011749959" lon="10.1557444424">
		<tag k="name" v="Skogshaugen" />
		<tag k="natural" v="hill" />
		<tag k="place" v="locality" />
		<tag k="ssr:stedsnr" v="513917" />
	</node>
	<node id="-206992" lat="59.5358055516" lon="10.2480305506">
		<tag k="name" v="Herserenna" />
		<tag k="natural" v="hill" />
		<tag k="place" v="locality" />
		<tag k="ssr:stedsnr" v="513765" />
	</node>
	<node id="-206991" lat="59.65064722" lon="10.1130388867">
		<tag k="name" v="Hølsrudglaneren" />
		<tag k="place" v="locality" />
		<tag k="ssr:stedsnr" v="513763" />
	</node>
	<node id="-206988" lat="59.6089611112" lon="10.1295444428">
		<tag k="fixme" v="consider natural=peak for the most distinct mountains in the district" />
		<tag k="name" v="Kaldmoåsen" />
		<tag k="natural" v="hill" />
		<tag k="place" v="locality" />
		<tag k="ssr:stedsnr" v="513744" />
	</node>
	<node id="-206987" lat="59.6304666704" lon="10.2453916644">
		<tag k="name" v="Bentsehaugen" />
		<tag k="natural" v="hill" />
		<tag k="place" v="locality" />
		<tag k="ssr:stedsnr" v="513662" />
	</node>
	<node id="-206971" lat="59.5627027809" lon="10.3128361082">
		<tag k="name" v="Mai-stokkdalen" />
		<tag k="natural" v="valley" />
		<tag k="place" v="locality" />
		<tag k="ssr:stedsnr" v="513253" />
	</node>
	<node id="-206970" lat="59.5620194478" lon="10.3030083347">
		<tag k="name" v="Bruseruddalen" />
		<tag k="natural" v="valley" />
		<tag k="place" v="locality" />
		<tag k="ssr:stedsnr" v="513254" />
	</node>
	<node id="-206969" lat="59.5694666708" lon="10.2927222299">
		<tag k="name" v="Øvre Rammdalen" />
		<tag k="natural" v="valley" />
		<tag k="place" v="locality" />
		<tag k="ssr:stedsnr" v="513252" />
	</node>
	<node id="-206968" lat="59.5702861076" lon="10.334988883">
		<tag k="fixme" v="consider natural=peak for the most distinct mountains in the district" />
		<tag k="name" v="Vassåsen" />
		<tag k="natural" v="hill" />
		<tag k="place" v="locality" />
		<tag k="ssr:stedsnr" v="513247" />
	</node>
	<node id="-206963" lat="59.6243250033" lon="10.2999444424">
		<tag k="name" v="Ventetjernlia" />
		<tag k="natural" v="slope" />
		<tag k="place" v="locality" />
		<tag k="ssr:stedsnr" v="513203" />
	</node>
	<node id="-206962" lat="59.6234361089" lon="10.3186888825">
		<tag k="name" v="Kalleberget" />
		<tag k="natural" v="hill" />
		<tag k="place" v="locality" />
		<tag k="ssr:stedsnr" v="513201" />
	</node>
	<node id="-206961" lat="59.6227916709" lon="10.3246222285">
		<tag k="fixme" v="consider natural=peak for the most distinct mountains in the district" />
		<tag k="name" v="Svartevannsåsen" />
		<tag k="natural" v="hill" />
		<tag k="place" v="locality" />
		<tag k="ssr:stedsnr" v="513198" />
	</node>
	<node id="-206960" lat="59.6095138917" lon="10.3028138913">
		<tag k="fixme" v="consider natural=peak for the most distinct mountains in the district" />
		<tag k="name" v="Webergseteråsen" />
		<tag k="natural" v="hill" />
		<tag k="place" v="locality" />
		<tag k="ssr:stedsnr" v="513182" />
	</node>
	<node id="-206956" lat="59.6502388927" lon="10.2862805526">
		<tag k="name" v="Veslevannshøgda" />
		<tag k="natural" v="hill" />
		<tag k="place" v="locality" />
		<tag k="ssr:stedsnr" v="513129" />
	</node>
	<node id="-206955" lat="59.6433805542" lon="10.3120916668">
		<tag k="fixme" v="consider natural=peak for the most distinct mountains in the district" />
		<tag k="name" v="Storås" />
		<tag k="natural" v="hill" />
		<tag k="place" v="locality" />
		<tag k="ssr:stedsnr" v="513127" />
	</node>
	<node id="-206951" lat="59.643741666" lon="10.1979472218">
		<tag k="name" v="Jammerdalen" />
		<tag k="natural" v="valley" />
		<tag k="place" v="locality" />
		<tag k="ssr:stedsnr" v="510378" />
	</node>
	<node id="-206943" lat="59.6678499971" lon="10.1252611168">
		<tag k="name" v="Gutudalen" />
		<tag k="natural" v="valley" />
		<tag k="place" v="locality" />
		<tag k="ssr:stedsnr" v="488190" />
	</node>
	<node id="-206928" lat="59.6064416664" lon="10.2613972246">
		<tag k="fixme" v="consider natural=peak for the most distinct mountains in the district" />
		<tag k="name" v="Steinarseteråsen" />
		<tag k="natural" v="hill" />
		<tag k="place" v="locality" />
		<tag k="ssr:stedsnr" v="453932" />
	</node>
	<node id="-206924" lat="59.6609250029" lon="10.1688666598">
		<tag k="name" v="Finnsdalen" />
		<tag k="natural" v="valley" />
		<tag k="place" v="locality" />
		<tag k="ssr:stedsnr" v="453923" />
	</node>
	<node id="-206923" lat="59.6306361097" lon="10.2513583358">
		<tag k="fixme" v="consider natural=peak for the most distinct mountains in the district" />
		<tag k="name" v="Sameieåsen" />
		<tag k="natural" v="hill" />
		<tag k="place" v="locality" />
		<tag k="ssr:stedsnr" v="453918" />
	</node>
	<node id="-206922" lat="59.6368027814" lon="10.2526472257">
		<tag k="name" v="Brattbakk" />
		<tag k="natural" v="slope" />
		<tag k="place" v="locality" />
		<tag k="ssr:stedsnr" v="453914" />
	</node>
	<node id="-206921" lat="59.6198583353" lon="10.2610111025">
		<tag k="fixme" v="consider natural=peak for the most distinct mountains in the district" />
		<tag k="name" v="Askedalsåsen" />
		<tag k="natural" v="hill" />
		<tag k="place" v="locality" />
		<tag k="ssr:stedsnr" v="453912" />
	</node>
	<node id="-206919" lat="59.6504833336" lon="10.139280551">
		<tag k="fixme" v="consider natural=peak for the most distinct mountains in the district" />
		<tag k="name" v="Ryggetangåsen" />
		<tag k="natural" v="hill" />
		<tag k="place" v="locality" />
		<tag k="ssr:stedsnr" v="453773" />
	</node>
	<node id="-206918" lat="59.6467694437" lon="10.120658335">
		<tag k="name" v="Rundhaugen" />
		<tag k="natural" v="hill" />
		<tag k="place" v="locality" />
		<tag k="ssr:stedsnr" v="453769" />
	</node>
	<node id="-206917" lat="59.6415555584" lon="10.1265861063">
		<tag k="fixme" v="consider natural=peak for the most distinct mountains in the district" />
		<tag k="name" v="Kopstadåsen" />
		<tag k="natural" v="hill" />
		<tag k="place" v="locality" />
		<tag k="ssr:stedsnr" v="453765" />
	</node>
	<node id="-206916" lat="59.6697472195" lon="10.1157305587">
		<tag k="name" v="Svinka" />
		<tag k="place" v="locality" />
		<tag k="ssr:stedsnr" v="453748" />
	</node>
	<node id="-206915" lat="59.6247500021" lon="10.1501777796">
		<tag k="name" v="Rognåsen" />
		<tag k="natural" v="cliff" />
		<tag k="ssr:stedsnr" v="453741" />
	</node>
	<node id="-206914" lat="59.6087000033" lon="10.0853472264">
		<tag k="name" v="Myssmørkleiv" />
		<tag k="natural" v="valley" />
		<tag k="place" v="locality" />
		<tag k="ssr:stedsnr" v="453736" />
	</node>
	<node id="-206912" lat="59.6252194413" lon="10.0818027841">
		<tag k="name" v="Kabrettkollen" />
		<tag k="natural" v="hill" />
		<tag k="place" v="locality" />
		<tag k="ssr:stedsnr" v="453724" />
	</node>
	<node id="-206910" lat="59.5840999966" lon="10.1427000036">
		<tag k="fixme" v="consider natural=peak for the most distinct mountains in the district" />
		<tag k="name" v="Bondenvannsåsen" />
		<tag k="natural" v="hill" />
		<tag k="place" v="locality" />
		<tag k="ssr:stedsnr" v="453663" />
	</node>
	<node id="-206909" lat="59.6303694425" lon="10.216927784">
		<tag k="fixme" v="consider natural=peak for the most distinct mountains in the district" />
		<tag k="name" v="Bølumkollen" />
		<tag k="natural" v="hill" />
		<tag k="place" v="locality" />
		<tag k="ssr:stedsnr" v="453652" />
	</node>
	<node id="-206906" lat="59.6188916684" lon="10.1902805562">
		<tag k="name" v="Salmakerhagen" />
		<tag k="natural" v="slope" />
		<tag k="place" v="locality" />
		<tag k="ssr:stedsnr" v="453642" />
	</node>
	<node id="-206905" lat="59.6345666684" lon="10.1988138832">
		<tag k="name" v="Brekkelia" />
		<tag k="natural" v="slope" />
		<tag k="place" v="locality" />
		<tag k="ssr:stedsnr" v="453630" />
	</node>
	<node id="-206903" lat="59.5563277799" lon="10.2143555607">
		<tag k="name" v="Trappekastet" />
		<tag k="natural" v="hill" />
		<tag k="place" v="locality" />
		<tag k="ssr:stedsnr" v="453625" />
	</node>
	<node id="-206902" lat="59.6344722204" lon="10.1723777866">
		<tag k="name" v="Tjuvborgen" />
		<tag k="natural" v="hill" />
		<tag k="place" v="locality" />
		<tag k="ssr:stedsnr" v="453622" />
	</node>
	<node id="-206900" lat="59.5633805557" lon="10.2339305623">
		<tag k="name" v="Holmshavna" />
		<tag k="place" v="locality" />
		<tag k="ssr:stedsnr" v="453611" />
	</node>
	<node id="-206899" lat="59.5931388864" lon="10.2541583293">
		<tag k="name" v="Vebergdalen" />
		<tag k="natural" v="valley" />
		<tag k="place" v="locality" />
		<tag k="ssr:stedsnr" v="453596" />
	</node>
	<node id="-206898" lat="59.5850472252" lon="10.2403833272">
		<tag k="name" v="Skogly" />
		<tag k="natural" v="slope" />
		<tag k="place" v="locality" />
		<tag k="ssr:stedsnr" v="453593" />
	</node>
	<node id="-206896" lat="59.5728444461" lon="10.1818305545">
		<tag k="name" v="Kleiva" />
		<tag k="natural" v="slope" />
		<tag k="place" v="locality" />
		<tag k="ssr:stedsnr" v="453581" />
	</node>
	<node id="-206894" lat="59.5838027822" lon="10.1773611192">
		<tag k="name" v="Glasli" />
		<tag k="natural" v="slope" />
		<tag k="place" v="locality" />
		<tag k="ssr:stedsnr" v="453572" />
	</node>
	<node id="-206893" lat="59.5782305588" lon="10.3047111178">
		<tag k="fixme" v="consider natural=peak for the most distinct mountains in the district" />
		<tag k="name" v="Bekkeleiken" />
		<tag k="natural" v="hill" />
		<tag k="place" v="locality" />
		<tag k="ssr:stedsnr" v="453284" />
	</node>
	<node id="-206889" lat="59.5593250019" lon="10.2886805618">
		<tag k="fixme" v="consider natural=peak for the most distinct mountains in the district" />
		<tag k="name" v="Killingdalsåsen" />
		<tag k="natural" v="hill" />
		<tag k="place" v="locality" />
		<tag k="ssr:stedsnr" v="453254" />
	</node>
	<node id="-206888" lat="59.6248972239" lon="10.2694166712">
		<tag k="name" v="Rossbakk" />
		<tag k="natural" v="slope" />
		<tag k="place" v="locality" />
		<tag k="ssr:stedsnr" v="453246" />
	</node>
	<node id="-206886" lat="59.618561112" lon="10.3141083284">
		<tag k="fixme" v="consider natural=peak for the most distinct mountains in the district" />
		<tag k="name" v="Trestikelåsen" />
		<tag k="natural" v="hill" />
		<tag k="place" v="locality" />
		<tag k="ssr:stedsnr" v="453231" />
	</node>
	<node id="-206884" lat="59.5975749993" lon="10.3087027713">
		<tag k="fixme" v="consider natural=peak for the most distinct mountains in the district" />
		<tag k="name" v="Mellomåsen" />
		<tag k="natural" v="hill" />
		<tag k="place" v="locality" />
		<tag k="ssr:stedsnr" v="453203" />
	</node>
	<node id="-206881" lat="59.6573694409" lon="10.2669444367">
		<tag k="name" v="Håvet" />
		<tag k="natural" v="slope" />
		<tag k="place" v="locality" />
		<tag k="ssr:stedsnr" v="453161" />
	</node>
	<node id="-206879" lat="59.5498833345" lon="10.3078805516">
		<tag k="name" v="Grønli" />
		<tag k="natural" v="slope" />
		<tag k="place" v="locality" />
		<tag k="ssr:stedsnr" v="453041" />
	</node>
	<node id="-206878" lat="59.5506555588" lon="10.3336750079">
		<tag k="fixme" v="consider natural=peak for the most distinct mountains in the district" />
		<tag k="name" v="Skarsåsen" />
		<tag k="natural" v="hill" />
		<tag k="place" v="locality" />
		<tag k="ssr:stedsnr" v="453021" />
	</node>
	<node id="-206873" lat="59.6141416623" lon="10.1385555643">
		<tag k="name" v="Guriløkka" />
		<tag k="place" v="locality" />
		<tag k="ssr:stedsnr" v="429069" />
	</node>
	<node id="-206856" lat="59.6483444447" lon="10.1688388885">
		<tag k="fixme" v="consider natural=peak for the most distinct mountains in the district" />
		<tag k="name" v="Marikollen" />
		<tag k="natural" v="hill" />
		<tag k="place" v="locality" />
		<tag k="ssr:stedsnr" v="267325" />
	</node>
	<node id="-206854" lat="59.5562166668" lon="10.1881416621">
		<tag k="name" v="Kjeksrødhvittingen" />
		<tag k="natural" v="hill" />
		<tag k="place" v="locality" />
		<tag k="ssr:stedsnr" v="246904" />
	</node>
	<node id="-206852" lat="59.6597249992" lon="10.187658328">
		<tag k="alt_name" v="Sperrebergåsen" />
		<tag k="fixme" v="consider natural=peak for the most distinct mountains in the district" />
		<tag k="name" v="Hyllbergåsen" />
		<tag k="natural" v="hill" />
		<tag k="place" v="locality" />
		<tag k="ssr:stedsnr" v="246145" />
	</node>
</osm>
