<?xml version="1.0" encoding="UTF-8"?>
<osm generator="osmapis" version="0.6">
	<node id="-206591" lat="59.5698249982" lon="10.241774993">
		<tag k="fixme" v="consider seamark:type=rock or natural=shoal" />
		<tag k="name" v="Hakan" />
		<tag k="place" v="islet" />
		<tag k="ssr:stedsnr" v="453613" />
	</node>
	<node id="-206334" lat="59.5552250037" lon="10.2770472171">
		<tag k="name" v="Orevikbukta" />
		<tag k="natural" v="bay" />
		<tag k="ssr:stedsnr" v="89248" />
	</node>
	<node id="-206333" lat="59.552491664" lon="10.2797777786">
		<tag k="name" v="Ødegårdsodden" />
		<tag k="natural" v="cape" />
		<tag k="ssr:stedsnr" v="89246" />
	</node>
	<node id="-206637" lat="59.5271861134" lon="10.3343111098">
		<tag k="name" v="Skjellhølet" />
		<tag k="place" v="locality" />
		<tag k="ssr:stedsnr" v="513009" />
	</node>
	<node id="-206198" lat="59.5327138924" lon="10.348358325">
		<tag k="name" v="Vammen" />
		<tag k="natural" v="bay" />
		<tag k="ssr:stedsnr" v="392851" />
	</node>
	<node id="-206197" lat="59.5615194471" lon="10.2569166713">
		<tag k="name" v="Kverntangen" />
		<tag k="natural" v="cape" />
		<tag k="ssr:stedsnr" v="392832" />
	</node>
	<node id="-206398" lat="59.5049500022" lon="10.3407083272">
		<tag k="fixme" v="consider seamark:type=rock or natural=shoal" />
		<tag k="name" v="Bjerkøyskjæret" />
		<tag k="place" v="islet" />
		<tag k="ssr:stedsnr" v="124988" />
	</node>
	<node id="-206320" lat="59.5303722258" lon="10.3641583305">
		<tag k="name" v="Hagasand" />
		<tag k="natural" v="beach" />
		<tag k="place" v="locality" />
		<tag k="ssr:stedsnr" v="89026" />
	</node>
	<node id="-206318" lat="59.528947226" lon="10.3599055621">
		<tag k="name" v="Bergbryggodden" />
		<tag k="natural" v="cape" />
		<tag k="ssr:stedsnr" v="89016" />
	</node>
	<node id="-206828" lat="59.5303833353" lon="10.3690888978">
		<tag k="alt_name" v="Sandvikbukta" />
		<tag k="name" v="Sandvika" />
		<tag k="natural" v="bay" />
		<tag k="ssr:stedsnr" v="670500" />
	</node>
	<node id="-206827" lat="59.5269083289" lon="10.3500138889">
		<tag k="fixme" v="consider seamark:type=rock or natural=shoal" />
		<tag k="name" v="Kjanken" />
		<tag k="place" v="islet" />
		<tag k="ssr:stedsnr" v="670496" />
	</node>
	<node id="-206570" lat="59.5304222208" lon="10.378233336">
		<tag k="name" v="Leina" />
		<tag k="natural" v="cape" />
		<tag k="ssr:stedsnr" v="453092" />
	</node>
	<node id="-206567" lat="59.5224194453" lon="10.324400005">
		<tag k="name" v="Flyndra" />
		<tag k="natural" v="cape" />
		<tag k="ssr:stedsnr" v="453005" />
	</node>
	<node id="-206566" lat="59.5169222183" lon="10.3226444419">
		<tag k="name" v="Skarpsno" />
		<tag k="natural" v="cape" />
		<tag k="ssr:stedsnr" v="453002" />
	</node>
	<node id="-206011" lat="59.5456666707" lon="10.2523833273">
		<tag k="name" v="Halseskjæret" />
		<tag k="natural" v="shoal" />
		<tag k="place" v="locality" />
		<tag k="ssr:stedsnr" v="271832" />
	</node>
	<node id="-206430" lat="59.5627888901" lon="10.2595166701">
		<tag k="name" v="Kverntangen" />
		<tag k="natural" v="beach" />
		<tag k="place" v="locality" />
		<tag k="ssr:stedsnr" v="149594" />
	</node>
	<node id="-206170" lat="59.5235805559" lon="10.3341972308">
		<tag k="name" v="Helenehølet" />
		<tag k="natural" v="bay" />
		<tag k="ssr:stedsnr" v="392013" />
	</node>
	<node id="-207064" lat="59.5286972262" lon="10.3316083391">
		<tag k="fixme" v="consider seamark:type=rock or natural=shoal" />
		<tag k="name" v="Bjørneskjær" />
		<tag k="place" v="islet" />
		<tag k="ssr:stedsnr" v="853904" />
	</node>
	<node id="-206806" lat="59.5610527779" lon="10.258947224">
		<tag k="name" v="Kverntangodden" />
		<tag k="natural" v="cape" />
		<tag k="ssr:stedsnr" v="634627" />
	</node>
	<node id="-206218" lat="59.5353444319" lon="10.3085858224">
		<tag k="name" v="Fantebukta" />
		<tag k="natural" v="bay" />
		<tag k="ssr:stedsnr" v="985974" />
	</node>
	<node id="-206670" lat="59.5525027785" lon="10.2389638844">
		<tag k="name" v="Fagernes" />
		<tag k="natural" v="cape" />
		<tag k="ssr:stedsnr" v="513635" />
	</node>
	<node id="-206413" lat="59.5290249961" lon="10.3616583332">
		<tag k="name" v="Mørkasselodden" />
		<tag k="natural" v="cape" />
		<tag k="ssr:stedsnr" v="149080" />
	</node>
	<node id="-206412" lat="59.5417749993" lon="10.2573972256">
		<tag k="fixme" v="consider seamark:type=rock or natural=shoal" />
		<tag k="name" v="Saltskjæret" />
		<tag k="place" v="islet" />
		<tag k="ssr:stedsnr" v="149064" />
	</node>
	<node id="-206411" lat="59.5337444449" lon="10.3112805516">
		<tag k="name" v="Kalkovnen" />
		<tag k="natural" v="cape" />
		<tag k="ssr:stedsnr" v="149043" />
	</node>
	<node id="-206921" lat="59.5255472239" lon="10.3351361094">
		<tag k="name" v="Krappesundet" />
		<tag k="natural" v="strait" />
		<tag k="ssr:stedsnr" v="756013" />
	</node>
	<node id="-206924" lat="59.5103972197" lon="10.3354472172">
		<tag k="name" v="Hasdalbåen" />
		<tag k="place" v="locality" />
		<tag k="seamark:type" v="rock" />
		<tag k="ssr:stedsnr" v="756053" />
	</node>
	<node id="-206662" lat="59.558575" lon="10.2724888943">
		<tag k="name" v="Engebukta" />
		<tag k="natural" v="bay" />
		<tag k="ssr:stedsnr" v="513258" />
	</node>
	<node id="-206917" lat="59.501811113" lon="10.3430111127">
		<tag k="name" v="Sørvestnebbet" />
		<tag k="place" v="locality" />
		<tag k="seamark:type" v="rock" />
		<tag k="ssr:stedsnr" v="752914" />
	</node>
	<node id="-206148" lat="59.5120388865" lon="10.3240166604">
		<tag k="name" v="Kommersøygrunnen" />
		<tag k="natural" v="shoal" />
		<tag k="place" v="locality" />
		<tag k="ssr:stedsnr" v="331992" />
	</node>
	<node id="-206529" lat="59.5025361129" lon="10.3463749927">
		<tag k="name" v="Lillehalsen" />
		<tag k="natural" v="shoal" />
		<tag k="place" v="locality" />
		<tag k="ssr:stedsnr" v="245507" />
	</node>
	<node id="-206783" lat="59.5534138891" lon="10.2494666736">
		<tag k="name" v="Hauken" />
		<tag k="natural" v="shoal" />
		<tag k="place" v="locality" />
		<tag k="ssr:stedsnr" v="634060" />
	</node>
	<node id="-206782" lat="59.5325611086" lon="10.3110083312">
		<tag k="name" v="Kalkovnbukta" />
		<tag k="natural" v="bay" />
		<tag k="ssr:stedsnr" v="634036" />
	</node>
	<node id="-206781" lat="59.5308138852" lon="10.366149999">
		<tag k="name" v="Hagasandbukta" />
		<tag k="natural" v="bay" />
		<tag k="ssr:stedsnr" v="634020" />
	</node>
	<node id="-206012" lat="59.5293444456" lon="10.3385611111">
		<tag k="name" v="Bjerkøysundet" />
		<tag k="natural" v="strait" />
		<tag k="ssr:stedsnr" v="271835" />
	</node>
	<node id="-206395" lat="59.5240166678" lon="10.3321499924">
		<tag k="name" v="Killingholmen" />
		<tag k="place" v="island" />
		<tag k="ssr:stedsnr" v="124884" />
	</node>
	<node id="-206775" lat="59.5202194419" lon="10.3485138861">
		<tag k="name" v="Bjerkøya" />
		<tag k="place" v="island" />
		<tag k="ssr:stedsnr" v="610919" />
	</node>
	<node id="-206644" lat="59.5087111138" lon="10.3383361167">
		<tag k="name" v="Nordostbåen" />
		<tag k="place" v="locality" />
		<tag k="seamark:type" v="rock" />
		<tag k="ssr:stedsnr" v="513074" />
	</node>
	<node id="-206643" lat="59.532433333" lon="10.3351916649">
		<tag k="name" v="Gyltesøgrunden" />
		<tag k="natural" v="cape" />
		<tag k="ssr:stedsnr" v="513051" />
	</node>
	<node id="-206638" lat="59.5180055583" lon="10.3245416614">
		<tag k="name" v="Kommersøysundet" />
		<tag k="natural" v="strait" />
		<tag k="ssr:stedsnr" v="513010" />
	</node>
	<node id="-206125" lat="59.5609944428" lon="10.2545305512">
		<tag k="name" v="Skomakern" />
		<tag k="place" v="islet" />
		<tag k="ssr:stedsnr" v="331592" />
	</node>
	<node id="-206636" lat="59.5229638853" lon="10.3302055558">
		<tag k="fixme" v="consider seamark:type=rock or natural=shoal" />
		<tag k="name" v="Kulpa" />
		<tag k="place" v="islet" />
		<tag k="ssr:stedsnr" v="513007" />
	</node>
	<node id="-206250" lat="59.5609194413" lon="10.2656527811">
		<tag k="name" v="Selvikbukta" />
		<tag k="natural" v="bay" />
		<tag k="ssr:stedsnr" v="28076" />
	</node>
	<node id="-206919" lat="59.5156527743" lon="10.3295972253">
		<tag k="name" v="Knattenbukta" />
		<tag k="natural" v="bay" />
		<tag k="ssr:stedsnr" v="756005" />
	</node>
	<node id="-207004" lat="59.5401916676" lon="10.3100777753">
		<tag k="name" v="Rauberget" />
		<tag k="natural" v="cape" />
		<tag k="ssr:stedsnr" v="817051" />
	</node>
	<node id="-206501" lat="59.5518527777" lon="10.2392750018">
		<tag k="name" v="Skjervikbukta" />
		<tag k="natural" v="bay" />
		<tag k="ssr:stedsnr" v="210612" />
	</node>
	<node id="-206244" lat="59.5214055558" lon="10.3244138924">
		<tag k="name" v="Limovnen" />
		<tag k="natural" v="cape" />
		<tag k="ssr:stedsnr" v="28017" />
	</node>
	<node id="-206918" lat="59.5564722222" lon="10.264322214">
		<tag k="fixme" v="consider seamark:type=rock or natural=shoal" />
		<tag k="name" v="Selvikblinda" />
		<tag k="place" v="islet" />
		<tag k="ssr:stedsnr" v="752987" />
	</node>
	<node id="-205984" lat="59.5181027777" lon="10.356758341">
		<tag k="name" v="Glufseodden" />
		<tag k="natural" v="cape" />
		<tag k="ssr:stedsnr" v="271015" />
	</node>
	<node id="-205983" lat="59.5160666671" lon="10.3273361139">
		<tag k="name" v="Raustrand" />
		<tag k="natural" v="beach" />
		<tag k="place" v="locality" />
		<tag k="ssr:stedsnr" v="271007" />
	</node>
	<node id="-206238" lat="59.5159666673" lon="10.3282611198">
		<tag k="name" v="Gåserumpa" />
		<tag k="place" v="islet" />
		<tag k="ssr:stedsnr" v="3981" />
	</node>
	<node id="-206109" lat="59.554919443" lon="10.2770749979">
		<tag k="name" v="Orevika" />
		<tag k="natural" v="bay" />
		<tag k="ssr:stedsnr" v="331061" />
	</node>
	<node id="-206236" lat="59.5252000038" lon="10.3173111132">
		<tag k="name" v="Kommersøya" />
		<tag k="place" v="island" />
		<tag k="ssr:stedsnr" v="3893" />
	</node>
	<node id="-206746" lat="59.5485055561" lon="10.2468305558">
		<tag k="name" v="Bikkjebukta" />
		<tag k="natural" v="bay" />
		<tag k="ssr:stedsnr" v="574802" />
	</node>
	<node id="-206104" lat="59.5000222257" lon="10.3492444476">
		<tag k="name" v="Solfjellhausen" />
		<tag k="natural" v="shoal" />
		<tag k="place" v="locality" />
		<tag k="ssr:stedsnr" v="327891" />
	</node>
	<node id="-206916" lat="59.5527527775" lon="10.2428305485">
		<tag k="name" v="Holmsbukta" />
		<tag k="natural" v="bay" />
		<tag k="ssr:stedsnr" v="752891" />
	</node>
	<node id="-206998" lat="59.5248138909" lon="10.3221055613">
		<tag k="name" v="Linaodden" />
		<tag k="natural" v="cape" />
		<tag k="ssr:stedsnr" v="817001" />
	</node>
	<node id="-207127" lat="59.5209805511" lon="10.3408638868">
		<tag k="name" v="Labukta" />
		<tag k="natural" v="bay" />
		<tag k="ssr:stedsnr" v="938007" />
	</node>
	<node id="-207000" lat="59.5256611132" lon="10.3383972265">
		<tag k="name" v="Møkkabukta" />
		<tag k="natural" v="bay" />
		<tag k="ssr:stedsnr" v="817016" />
	</node>
	<node id="-206478" lat="59.5172888916" lon="10.3557861044">
		<tag k="name" v="Glufsebukta" />
		<tag k="natural" v="bay" />
		<tag k="ssr:stedsnr" v="210019" />
	</node>
	<node id="-206477" lat="59.5278833327" lon="10.331175007">
		<tag k="name" v="Bjørneskjærgrund" />
		<tag k="natural" v="shoal" />
		<tag k="place" v="locality" />
		<tag k="ssr:stedsnr" v="210007" />
	</node>
	<node id="-206476" lat="59.5266250006" lon="10.3116249936">
		<tag k="fixme" v="consider seamark:type=rock or natural=shoal" />
		<tag k="name" v="Småskjærene" />
		<tag k="place" v="islet" />
		<tag k="ssr:stedsnr" v="210004" />
	</node>
	<node id="-206475" lat="59.5575388848" lon="10.2691750029">
		<tag k="name" v="Selvikgrunnen" />
		<tag k="natural" v="shoal" />
		<tag k="place" v="locality" />
		<tag k="ssr:stedsnr" v="207189" />
	</node>
	<node id="-206237" lat="59.5503388883" lon="10.2875805566">
		<tag k="name" v="Bekkestranda" />
		<tag k="natural" v="beach" />
		<tag k="place" v="locality" />
		<tag k="ssr:stedsnr" v="3913" />
	</node>
	<node id="-206999" lat="59.5271666624" lon="10.3382916748">
		<tag k="name" v="Mathisodden" />
		<tag k="natural" v="cape" />
		<tag k="ssr:stedsnr" v="817017" />
	</node>
	<node id="-206923" lat="59.5492416683" lon="10.2846194421">
		<tag k="fixme" v="consider seamark:type=rock or natural=shoal" />
		<tag k="name" v="Bekkeskjæret" />
		<tag k="place" v="islet" />
		<tag k="ssr:stedsnr" v="756033" />
	</node>
	<node id="-206878" lat="59.5658250004" lon="10.2325361122">
		<tag k="name" v="Sjødalen" />
		<tag k="natural" v="beach" />
		<tag k="place" v="locality" />
		<tag k="ssr:stedsnr" v="695603" />
	</node>
	<node id="-207005" lat="59.5070527761" lon="10.3389722143">
		<tag k="name" v="Rødtangebåen" />
		<tag k="place" v="locality" />
		<tag k="seamark:type" v="rock" />
		<tag k="ssr:stedsnr" v="817068" />
	</node>
	<node id="-206849" lat="59.5137972222" lon="10.3553749913">
		<tag k="name" v="Søndre odden" />
		<tag k="natural" v="cape" />
		<tag k="ssr:stedsnr" v="695010" />
	</node>
</osm>
