<?xml version="1.0" encoding="UTF-8"?>
<osm generator="osmapis" version="0.6">
	<node id="-206845" lat="59.6507416664" lon="10.3077638904">
		<tag k="historic" v="shieling" />
		<tag k="name" v="Kjeldåssetra" />
		<tag k="place" v="locality" />
		<tag k="ssr:stedsnr" v="695139" />
	</node>
	<node id="-207018" lat="59.5744361112" lon="10.2919555495">
		<tag k="name" v="Syverudmyra" />
		<tag k="natural" v="wetland" />
		<tag k="ssr:stedsnr" v="817250" />
	</node>
	<node id="-206323" lat="59.6392027765" lon="10.2791055607">
		<tag k="name" v="Grisemyr" />
		<tag k="natural" v="wetland" />
		<tag k="ssr:stedsnr" v="89154" />
	</node>
	<node id="-206817" lat="59.6405972196" lon="10.1601416604">
		<tag k="name" v="Rudsetervad" />
		<tag k="natural" v="wetland" />
		<tag k="ssr:stedsnr" v="634977" />
	</node>
	<node id="-206811" lat="59.62236111" lon="10.1024666754">
		<tag k="name" v="Bleikmyr" />
		<tag k="natural" v="wetland" />
		<tag k="ssr:stedsnr" v="634743" />
	</node>
	<node id="-206810" lat="59.6235250042" lon="10.1152305492">
		<tag k="name" v="Geitetrang" />
		<tag k="natural" v="wetland" />
		<tag k="ssr:stedsnr" v="634744" />
	</node>
	<node id="-206294" lat="59.6431166646" lon="10.1625305601">
		<tag k="name" v="Fjellskarmyr" />
		<tag k="natural" v="wetland" />
		<tag k="ssr:stedsnr" v="28985" />
	</node>
	<node id="-206802" lat="59.5762333344" lon="10.2391166735">
		<tag k="alt_name" v="Øra" />
		<tag k="name" v="Åsnæsøra" />
		<tag k="place" v="locality" />
		<tag k="ssr:stedsnr" v="634599" />
	</node>
	<node id="-206288" lat="59.5993888931" lon="10.2016722166">
		<tag k="name" v="Skjærsvold" />
		<tag k="place" v="locality" />
		<tag k="ssr:stedsnr" v="28933" />
	</node>
	<node id="-206792" lat="59.56401111" lon="10.3232722239">
		<tag k="name" v="Stuemyr" />
		<tag k="natural" v="wetland" />
		<tag k="ssr:stedsnr" v="634229" />
	</node>
	<node id="-206791" lat="59.5722666626" lon="10.3280833289">
		<tag k="name" v="Moltemyr" />
		<tag k="natural" v="wetland" />
		<tag k="ssr:stedsnr" v="634227" />
	</node>
	<node id="-206789" lat="59.6247444446" lon="10.2836083247">
		<tag k="name" v="Mellomåsmyr" />
		<tag k="natural" v="wetland" />
		<tag k="ssr:stedsnr" v="634212" />
	</node>
	<node id="-206786" lat="59.6027000003" lon="10.2682777738">
		<tag k="name" v="Kloppmyr" />
		<tag k="natural" v="wetland" />
		<tag k="ssr:stedsnr" v="634169" />
	</node>
	<node id="-207179" lat="59.6115944424" lon="10.2351833354">
		<tag k="name" v="Hagen" />
		<tag k="place" v="locality" />
		<tag k="ssr:stedsnr" v="938957" />
	</node>
	<node id="-206269" lat="59.5775194438" lon="10.1402611186">
		<tag k="name" v="Hvilesteinmyr" />
		<tag k="natural" v="wetland" />
		<tag k="ssr:stedsnr" v="28671" />
	</node>
	<node id="-206267" lat="59.5870333325" lon="10.1464972264">
		<tag k="name" v="Sisselmyr" />
		<tag k="natural" v="wetland" />
		<tag k="ssr:stedsnr" v="28666" />
	</node>
	<node id="-207007" lat="59.6446694488" lon="10.2827472247">
		<tag k="name" v="Røllesmyra" />
		<tag k="natural" v="wetland" />
		<tag k="ssr:stedsnr" v="817140" />
	</node>
	<node id="-206264" lat="59.6230861084" lon="10.1523805639">
		<tag k="name" v="Tømmermyr" />
		<tag k="natural" v="wetland" />
		<tag k="ssr:stedsnr" v="28639" />
	</node>
	<node id="-206254" lat="59.6074750016" lon="10.2855194501">
		<tag k="name" v="Langemyr" />
		<tag k="natural" v="wetland" />
		<tag k="ssr:stedsnr" v="28196" />
	</node>
	<node id="-207175" lat="59.6651305521" lon="10.1828861153">
		<tag k="name" v="Moltemyr" />
		<tag k="natural" v="wetland" />
		<tag k="ssr:stedsnr" v="938946" />
	</node>
	<node id="-206246" lat="59.6233944448" lon="10.2650916702">
		<tag k="name" v="Igletjernsmyra" />
		<tag k="natural" v="wetland" />
		<tag k="ssr:stedsnr" v="28237" />
	</node>
	<node id="-206749" lat="59.6600972214" lon="10.2612972302">
		<tag k="name" v="Bråtan" />
		<tag k="place" v="locality" />
		<tag k="ssr:stedsnr" v="574940" />
	</node>
	<node id="-206739" lat="59.622727779" lon="10.0777694469">
		<tag k="name" v="Badstumyra" />
		<tag k="natural" v="wetland" />
		<tag k="ssr:stedsnr" v="574735" />
	</node>
	<node id="-207171" lat="59.6285888863" lon="10.2506083401">
		<tag k="name" v="Rønningen" />
		<tag k="place" v="locality" />
		<tag k="ssr:stedsnr" v="938927" />
	</node>
	<node id="-206734" lat="59.6313249991" lon="10.1924416691">
		<tag k="name" v="Kjernemyr" />
		<tag k="natural" v="wetland" />
		<tag k="ssr:stedsnr" v="574644" />
	</node>
	<node id="-206733" lat="59.6333833306" lon="10.1618083294">
		<tag k="name" v="Fjellskarløken" />
		<tag k="natural" v="wetland" />
		<tag k="ssr:stedsnr" v="574642" />
	</node>
	<node id="-206714" lat="59.6036916664" lon="10.1628472223">
		<tag k="name" v="Vardalshagen" />
		<tag k="place" v="locality" />
		<tag k="ssr:stedsnr" v="573885" />
	</node>
	<node id="-206711" lat="59.6288138884" lon="10.1595416681">
		<tag k="name" v="Guttormsmyr" />
		<tag k="natural" v="wetland" />
		<tag k="ssr:stedsnr" v="573583" />
	</node>
	<node id="-206709" lat="59.6454277773" lon="10.1702527828">
		<tag k="name" v="Kobberputt" />
		<tag k="natural" v="wetland" />
		<tag k="ssr:stedsnr" v="570310" />
	</node>
	<node id="-206192" lat="59.6264888852" lon="10.1232805513">
		<tag k="name" v="Gampemyrene" />
		<tag k="natural" v="wetland" />
		<tag k="ssr:stedsnr" v="392734" />
	</node>
	<node id="-206185" lat="59.5608611145" lon="10.2134083336">
		<tag k="name" v="Orebergbråten" />
		<tag k="place" v="locality" />
		<tag k="ssr:stedsnr" v="392653" />
	</node>
	<node id="-206181" lat="59.5720361089" lon="10.2386750082">
		<tag k="name" v="Åsnæsøra" />
		<tag k="place" v="locality" />
		<tag k="ssr:stedsnr" v="392644" />
	</node>
	<node id="-206423" lat="59.628816669" lon="10.2735055508">
		<tag k="name" v="Dunsåsmyr" />
		<tag k="natural" v="wetland" />
		<tag k="ssr:stedsnr" v="149203" />
	</node>
	<node id="-206174" lat="59.669019446" lon="10.2801111033">
		<tag k="name" v="Hestebakk" />
		<tag k="place" v="locality" />
		<tag k="ssr:stedsnr" v="392184" />
	</node>
	<node id="-206173" lat="59.6694166666" lon="10.2927861155">
		<tag k="name" v="Tjernemyr" />
		<tag k="natural" v="wetland" />
		<tag k="ssr:stedsnr" v="392176" />
	</node>
	<node id="-206680" lat="59.6439083363" lon="10.0955666643">
		<tag k="name" v="Øyvannskippen" />
		<tag k="natural" v="wetland" />
		<tag k="ssr:stedsnr" v="513755" />
	</node>
	<node id="-206167" lat="59.6559055526" lon="10.1799722173">
		<tag k="historic" v="shieling" />
		<tag k="name" v="Klevjerseter" />
		<tag k="place" v="locality" />
		<tag k="ssr:stedsnr" v="388344" />
	</node>
	<node id="-206166" lat="59.5579444479" lon="10.1930972144">
		<tag k="name" v="Delingsmyr" />
		<tag k="natural" v="wetland" />
		<tag k="ssr:stedsnr" v="388336" />
	</node>
	<node id="-206649" lat="59.612383329" lon="10.3206972201">
		<tag k="name" v="Brånamyr" />
		<tag k="natural" v="wetland" />
		<tag k="ssr:stedsnr" v="513181" />
	</node>
	<node id="-206669" lat="59.5662666696" lon="10.2533750072">
		<tag k="name" v="Lersbrygghagen" />
		<tag k="place" v="locality" />
		<tag k="ssr:stedsnr" v="513633" />
	</node>
	<node id="-206667" lat="59.5650222195" lon="10.2134333308">
		<tag k="landuse" v="meadow" />
		<tag k="name" v="Veshagan" />
		<tag k="ssr:stedsnr" v="513627" />
	</node>
	<node id="-207159" lat="59.6350666659" lon="10.0731083392">
		<tag k="name" v="Prestevannsmyr" />
		<tag k="natural" v="wetland" />
		<tag k="ssr:stedsnr" v="938694" />
	</node>
	<node id="-206663" lat="59.5549388921" lon="10.3114722139">
		<tag k="name" v="Bråtan" />
		<tag k="place" v="locality" />
		<tag k="ssr:stedsnr" v="513260" />
	</node>
	<node id="-207174" lat="59.6403055526" lon="10.1546861084">
		<tag k="name" v="Skremma" />
		<tag k="natural" v="wetland" />
		<tag k="ssr:stedsnr" v="938944" />
	</node>
	<node id="-207172" lat="59.663836109" lon="10.2209583414">
		<tag k="name" v="Grimsrud" />
		<tag k="place" v="locality" />
		<tag k="ssr:stedsnr" v="938938" />
	</node>
	<node id="-206147" lat="59.6658861078" lon="10.1574888907">
		<tag k="name" v="Vassmyrstein" />
		<tag k="natural" v="stone" />
		<tag k="ssr:stedsnr" v="331950" />
	</node>
	<node id="-206657" lat="59.5521527805" lon="10.3504416687">
		<tag k="name" v="Torvmyra" />
		<tag k="natural" v="wetland" />
		<tag k="ssr:stedsnr" v="513240" />
	</node>
	<node id="-207166" lat="59.5477527759" lon="10.217694446">
		<tag k="name" v="Setermyr" />
		<tag k="natural" v="wetland" />
		<tag k="ssr:stedsnr" v="938759" />
	</node>
	<node id="-206141" lat="59.6441583328" lon="10.1204444479">
		<tag k="name" v="Kopstadlangmyr" />
		<tag k="natural" v="wetland" />
		<tag k="ssr:stedsnr" v="331744" />
	</node>
	<node id="-206137" lat="59.618794446" lon="10.1045194391">
		<tag k="name" v="Tjærnsmyr" />
		<tag k="natural" v="wetland" />
		<tag k="ssr:stedsnr" v="331701" />
	</node>
	<node id="-206648" lat="59.6047916704" lon="10.3101138892">
		<tag k="name" v="Trollhettmyra" />
		<tag k="natural" v="wetland" />
		<tag k="ssr:stedsnr" v="513179" />
	</node>
	<node id="-206647" lat="59.6584027751" lon="10.2782500068">
		<tag k="name" v="Nordre Høymyr" />
		<tag k="place" v="locality" />
		<tag k="ssr:stedsnr" v="513147" />
	</node>
	<node id="-206639" lat="59.5895555576" lon="10.2975555468">
		<tag k="name" v="Selvikmyra" />
		<tag k="natural" v="wetland" />
		<tag k="ssr:stedsnr" v="513017" />
	</node>
	<node id="-206123" lat="59.5840750004" lon="10.2153833406">
		<tag k="name" v="Vingejordet" />
		<tag k="place" v="locality" />
		<tag k="ssr:stedsnr" v="331564" />
	</node>
	<node id="-206117" lat="59.6059083373" lon="10.3013999991">
		<tag k="name" v="Webergmyra" />
		<tag k="natural" v="wetland" />
		<tag k="ssr:stedsnr" v="331179" />
	</node>
	<node id="-206113" lat="59.6503000003" lon="10.2816972192">
		<tag k="name" v="Høymyr" />
		<tag k="natural" v="wetland" />
		<tag k="ssr:stedsnr" v="331138" />
	</node>
	<node id="-207136" lat="59.6283722235" lon="10.2962972141">
		<tag k="name" v="Ventetjernmyr" />
		<tag k="natural" v="wetland" />
		<tag k="ssr:stedsnr" v="938189" />
	</node>
	<node id="-206620" lat="59.6064194445" lon="10.2354833385">
		<tag k="name" v="Sjølshagen" />
		<tag k="place" v="locality" />
		<tag k="ssr:stedsnr" v="453942" />
	</node>
	<node id="-206107" lat="59.5428916668" lon="10.3651000038">
		<tag k="name" v="Bjørnebråten" />
		<tag k="place" v="locality" />
		<tag k="ssr:stedsnr" v="331015" />
	</node>
	<node id="-207151" lat="59.6214111103" lon="10.1946749953">
		<tag k="name" v="Flatbråtan" />
		<tag k="place" v="locality" />
		<tag k="ssr:stedsnr" v="938604" />
	</node>
	<node id="-206601" lat="59.5822444488" lon="10.1471333256">
		<tag k="name" v="Stubberudsetermyr" />
		<tag k="natural" v="wetland" />
		<tag k="ssr:stedsnr" v="453665" />
	</node>
	<node id="-207085" lat="59.6199638849" lon="10.0896750021">
		<tag k="alt_name" v="Lamannsmyr" />
		<tag k="name" v="Lavvannsmyr" />
		<tag k="natural" v="wetland" />
		<tag k="ssr:stedsnr" v="877728" />
	</node>
	<node id="-206594" lat="59.6365250009" lon="10.1557027798">
		<tag k="historic" v="shieling" />
		<tag k="name" v="Veierudsetra" />
		<tag k="place" v="locality" />
		<tag k="ssr:stedsnr" v="453624" />
	</node>
	<node id="-206585" lat="59.583791667" lon="10.1662305488">
		<tag k="name" v="Skjærbenksmyr" />
		<tag k="natural" v="wetland" />
		<tag k="ssr:stedsnr" v="453574" />
	</node>
	<node id="-206580" lat="59.5619111078" lon="10.3424166601">
		<tag k="name" v="Langemyr" />
		<tag k="natural" v="wetland" />
		<tag k="ssr:stedsnr" v="453258" />
	</node>
	<node id="-207090" lat="59.5452166677" lon="10.2322944507">
		<tag k="name" v="Sagdalen" />
		<tag k="natural" v="stone" />
		<tag k="ssr:stedsnr" v="877778" />
	</node>
	<node id="-206577" lat="59.6301222242" lon="10.2931277849">
		<tag k="name" v="Briskholmene" />
		<tag k="place" v="locality" />
		<tag k="ssr:stedsnr" v="453233" />
	</node>
	<node id="-206573" lat="59.6112277743" lon="10.3319416655">
		<tag k="name" v="Rolighetsmyr" />
		<tag k="natural" v="wetland" />
		<tag k="ssr:stedsnr" v="453195" />
	</node>
	<node id="-207084" lat="59.6313111134" lon="10.0810166653">
		<tag k="name" v="Bjørkemyr" />
		<tag k="natural" v="wetland" />
		<tag k="ssr:stedsnr" v="877721" />
	</node>
	<node id="-207083" lat="59.6325666658" lon="10.1287750071">
		<tag k="name" v="Svartevannsmyra" />
		<tag k="natural" v="wetland" />
		<tag k="ssr:stedsnr" v="877719" />
	</node>
	<node id="-207079" lat="59.5800388871" lon="10.1688194471">
		<tag k="name" v="Vesle Bondimyr" />
		<tag k="natural" v="wetland" />
		<tag k="ssr:stedsnr" v="877581" />
	</node>
	<node id="-206565" lat="59.6479138853" lon="10.1802277832">
		<tag k="name" v="Tranbergmyra" />
		<tag k="natural" v="wetland" />
		<tag k="ssr:stedsnr" v="449360" />
	</node>
	<node id="-207075" lat="59.5667583322" lon="10.2833138818">
		<tag k="name" v="Hareleina" />
		<tag k="place" v="locality" />
		<tag k="ssr:stedsnr" v="877259" />
	</node>
	<node id="-207074" lat="59.632747222" lon="10.3205722198">
		<tag k="name" v="Eikelundmyr" />
		<tag k="natural" v="wetland" />
		<tag k="ssr:stedsnr" v="877217" />
	</node>
	<node id="-206045" lat="59.6133250029" lon="10.1481638882">
		<tag k="alt_name" v="Husemyr" />
		<tag k="name" v="Husmyra" />
		<tag k="natural" v="wetland" />
		<tag k="ssr:stedsnr" v="307081" />
	</node>
	<node id="-207068" lat="59.6387166651" lon="10.1940888842">
		<tag k="name" v="Nedre Vad" />
		<tag k="natural" v="wetland" />
		<tag k="ssr:stedsnr" v="874393" />
	</node>
	<node id="-206554" lat="59.6475611142" lon="10.0993861052">
		<tag k="alt_name" v="Lauvkollmyr" />
		<tag k="name" v="Lauvkollmyra" />
		<tag k="natural" v="wetland" />
		<tag k="ssr:stedsnr" v="427205" />
	</node>
	<node id="-207056" lat="59.6293750025" lon="10.2960138809">
		<tag k="name" v="Breskemyrane" />
		<tag k="natural" v="wetland" />
		<tag k="ssr:stedsnr" v="853069" />
	</node>
	<node id="-206538" lat="59.602799999" lon="10.2844305599">
		<tag k="alt_name" v="Husemyr" />
		<tag k="name" v="Husmyra" />
		<tag k="natural" v="wetland" />
		<tag k="ssr:stedsnr" v="246113" />
	</node>
	<node id="-207049" lat="59.6402722177" lon="10.1654083409">
		<tag k="name" v="Fjellskarmyr" />
		<tag k="natural" v="wetland" />
		<tag k="ssr:stedsnr" v="817981" />
	</node>
	<node id="-207047" lat="59.6566166692" lon="10.2230333306">
		<tag k="landuse" v="meadow" />
		<tag k="name" v="Grimsrudenga" />
		<tag k="ssr:stedsnr" v="817967" />
	</node>
	<node id="-207041" lat="59.6453111122" lon="10.1333027759">
		<tag k="name" v="Stellefmyra" />
		<tag k="natural" v="wetland" />
		<tag k="ssr:stedsnr" v="817754" />
	</node>
	<node id="-207036" lat="59.630963886" lon="10.1476694387">
		<tag k="name" v="Elgmyr" />
		<tag k="natural" v="wetland" />
		<tag k="ssr:stedsnr" v="817691" />
	</node>
	<node id="-207035" lat="59.6358972222" lon="10.1291999989">
		<tag k="name" v="Åsmyrene" />
		<tag k="natural" v="wetland" />
		<tag k="ssr:stedsnr" v="817687" />
	</node>
	<node id="-206521" lat="59.6401638912" lon="10.2615611135">
		<tag k="name" v="Lundeby øvre" />
		<tag k="place" v="locality" />
		<tag k="ssr:stedsnr" v="210962" />
	</node>
	<node id="-206008" lat="59.6450833309" lon="10.1055250027">
		<tag k="name" v="Gallebergmyrene" />
		<tag k="natural" v="wetland" />
		<tag k="ssr:stedsnr" v="271798" />
	</node>
	<node id="-207031" lat="59.6226555573" lon="10.2127250044">
		<tag k="landuse" v="meadow" />
		<tag k="name" v="Sauehaugen" />
		<tag k="ssr:stedsnr" v="817628" />
	</node>
	<node id="-206518" lat="59.6440611113" lon="10.1564222246">
		<tag k="historic" v="shieling" />
		<tag k="name" v="Myresetra" />
		<tag k="place" v="locality" />
		<tag k="ssr:stedsnr" v="210935" />
	</node>
	<node id="-207029" lat="59.6327111115" lon="10.1583916651">
		<tag k="name" v="Siljukollmyra" />
		<tag k="natural" v="wetland" />
		<tag k="ssr:stedsnr" v="817600" />
	</node>
	<node id="-206514" lat="59.6360055586" lon="10.2557611121">
		<tag k="name" v="Hovet" />
		<tag k="place" v="locality" />
		<tag k="ssr:stedsnr" v="210924" />
	</node>
	<node id="-206280" lat="59.660933337" lon="10.124538893">
		<tag k="name" v="Elgmyra" />
		<tag k="natural" v="wetland" />
		<tag k="ssr:stedsnr" v="28759" />
	</node>
	<node id="-206508" lat="59.6270138883" lon="10.150513894">
		<tag k="name" v="Siljukollmyra" />
		<tag k="natural" v="wetland" />
		<tag k="ssr:stedsnr" v="210733" />
	</node>
	<node id="-206507" lat="59.6242083331" lon="10.119441664">
		<tag k="name" v="Tjernsmyr" />
		<tag k="natural" v="wetland" />
		<tag k="ssr:stedsnr" v="210731" />
	</node>
	<node id="-206506" lat="59.6254222202" lon="10.1129416681">
		<tag k="name" v="Frebermyr" />
		<tag k="natural" v="wetland" />
		<tag k="ssr:stedsnr" v="210711" />
	</node>
	<node id="-207132" lat="59.6082694437" lon="10.3154472188">
		<tag k="name" v="Trestikelmyra" />
		<tag k="natural" v="wetland" />
		<tag k="ssr:stedsnr" v="938144" />
	</node>
	<node id="-207011" lat="59.5959944474" lon="10.3133555505">
		<tag k="name" v="Øvre Ulvemyr" />
		<tag k="natural" v="wetland" />
		<tag k="ssr:stedsnr" v="817193" />
	</node>
	<node id="-206498" lat="59.5712972192" lon="10.2449055641">
		<tag k="name" v="Grunden" />
		<tag k="place" v="locality" />
		<tag k="ssr:stedsnr" v="210598" />
	</node>
	<node id="-205985" lat="59.5403916671" lon="10.331161115">
		<tag k="landuse" v="meadow" />
		<tag k="name" v="Rolvsengen" />
		<tag k="ssr:stedsnr" v="271022" />
	</node>
	<node id="-206496" lat="59.5869194413" lon="10.2210027847">
		<tag k="name" v="Dunihagen" />
		<tag k="place" v="locality" />
		<tag k="ssr:stedsnr" v="210577" />
	</node>
	<node id="-206495" lat="59.5731416666" lon="10.1604305586">
		<tag k="historic" v="shieling" />
		<tag k="name" v="Gamle Løvåsseter" />
		<tag k="place" v="locality" />
		<tag k="ssr:stedsnr" v="210553" />
	</node>
	<node id="-206493" lat="59.5850805599" lon="10.2718055573">
		<tag k="name" v="Gampetorget" />
		<tag k="place" v="locality" />
		<tag k="ssr:stedsnr" v="210287" />
	</node>
	<node id="-206489" lat="59.6254166678" lon="10.2918416667">
		<tag k="name" v="Ventetjernholene" />
		<tag k="place" v="locality" />
		<tag k="ssr:stedsnr" v="210236" />
	</node>
	<node id="-206274" lat="59.6307277823" lon="10.0990472241">
		<tag k="name" v="Springovermyra" />
		<tag k="natural" v="wetland" />
		<tag k="ssr:stedsnr" v="28715" />
	</node>
	<node id="-206465" lat="59.5991499974" lon="10.3139666667">
		<tag k="name" v="Ulvemyr" />
		<tag k="natural" v="wetland" />
		<tag k="ssr:stedsnr" v="185035" />
	</node>
	<node id="-206464" lat="59.6559166673" lon="10.1431583257">
		<tag k="alt_name" v="Bjørge-Langmyr" />
		<tag k="name" v="Bjørgelangmyra" />
		<tag k="natural" v="wetland" />
		<tag k="ssr:stedsnr" v="185132" />
	</node>
	<node id="-206970" lat="59.5964333348" lon="10.2516333324">
		<tag k="historic" v="shieling" />
		<tag k="name" v="Veberg vestre" />
		<tag k="place" v="locality" />
		<tag k="ssr:stedsnr" v="756950" />
	</node>
	<node id="-206450" lat="59.6134666623" lon="10.1716611163">
		<tag k="name" v="Solberghagen" />
		<tag k="place" v="locality" />
		<tag k="ssr:stedsnr" v="149924" />
	</node>
	<node id="-206961" lat="59.6706416684" lon="10.1201444466">
		<tag k="name" v="Slåttsmyr" />
		<tag k="natural" v="wetland" />
		<tag k="ssr:stedsnr" v="756745" />
	</node>
	<node id="-206959" lat="59.6178555551" lon="10.1192833393">
		<tag k="name" v="Ødeskaugmyr" />
		<tag k="natural" v="wetland" />
		<tag k="ssr:stedsnr" v="756733" />
	</node>
	<node id="-207131" lat="59.6010666622" lon="10.3246555626">
		<tag k="name" v="Sandostulen" />
		<tag k="place" v="locality" />
		<tag k="ssr:stedsnr" v="938145" />
	</node>
	<node id="-206440" lat="59.6434333325" lon="10.0713527832">
		<tag k="name" v="Videvangsmyr" />
		<tag k="natural" v="wetland" />
		<tag k="ssr:stedsnr" v="149722" />
	</node>
	<node id="-206945" lat="59.6339861148" lon="10.1960027701">
		<tag k="name" v="Setermyr" />
		<tag k="natural" v="wetland" />
		<tag k="ssr:stedsnr" v="756633" />
	</node>
	<node id="-206944" lat="59.6325166693" lon="10.17596666">
		<tag k="name" v="Tjuvborgmyra" />
		<tag k="natural" v="wetland" />
		<tag k="ssr:stedsnr" v="756629" />
	</node>
	<node id="-206427" lat="59.5744333339" lon="10.1627611042">
		<tag k="historic" v="shieling" />
		<tag k="name" v="Nysetra" />
		<tag k="place" v="locality" />
		<tag k="ssr:stedsnr" v="149558" />
	</node>
	<node id="-206937" lat="59.5784472179" lon="10.2597999972">
		<tag k="name" v="Bjørnstadfeltet" />
		<tag k="place" v="locality" />
		<tag k="ssr:stedsnr" v="756583" />
	</node>
	<node id="-206424" lat="59.5605194447" lon="10.3392722228">
		<tag k="name" v="Moltemyr" />
		<tag k="natural" v="wetland" />
		<tag k="ssr:stedsnr" v="149207" />
	</node>
	<node id="-206935" lat="59.5804888862" lon="10.164622217">
		<tag k="name" v="Store Bondimyr" />
		<tag k="natural" v="wetland" />
		<tag k="ssr:stedsnr" v="756564" />
	</node>
	<node id="-206934" lat="59.5896527804" lon="10.1311111083">
		<tag k="name" v="Hosemyr" />
		<tag k="natural" v="wetland" />
		<tag k="ssr:stedsnr" v="756340" />
	</node>
	<node id="-206009" lat="59.6535166642" lon="10.1091777742">
		<tag k="name" v="Oremyra" />
		<tag k="natural" v="wetland" />
		<tag k="ssr:stedsnr" v="271801" />
	</node>
	<node id="-206419" lat="59.608433336" lon="10.2946750082">
		<tag k="name" v="Grytemyr" />
		<tag k="natural" v="wetland" />
		<tag k="ssr:stedsnr" v="149174" />
	</node>
	<node id="-206929" lat="59.5552972179" lon="10.333055551">
		<tag k="name" v="Gamlesetra" />
		<tag k="place" v="locality" />
		<tag k="ssr:stedsnr" v="756220" />
	</node>
	<node id="-206927" lat="59.6132138871" lon="10.2987333308">
		<tag k="name" v="Romma" />
		<tag k="place" v="locality" />
		<tag k="ssr:stedsnr" v="756167" />
	</node>
	<node id="-206926" lat="59.6557555548" lon="10.2880388877">
		<tag k="name" v="Elgmyr" />
		<tag k="natural" v="wetland" />
		<tag k="ssr:stedsnr" v="756133" />
	</node>
	<node id="-207030" lat="59.6211083312" lon="10.2184361166">
		<tag k="landuse" v="meadow" />
		<tag k="name" v="Galleberghaugen" />
		<tag k="ssr:stedsnr" v="817627" />
	</node>
	<node id="-206914" lat="59.6394500006" lon="10.1867805583">
		<tag k="name" v="Mellomste Vad" />
		<tag k="natural" v="wetland" />
		<tag k="ssr:stedsnr" v="752344" />
	</node>
	<node id="-206387" lat="59.6652277818" lon="10.1711333359">
		<tag k="alt_name" v="Høymyr" />
		<tag k="name" v="Høymyra" />
		<tag k="natural" v="wetland" />
		<tag k="ssr:stedsnr" v="124136" />
	</node>
	<node id="-206886" lat="59.598652776" lon="10.1562277703">
		<tag k="landuse" v="meadow" />
		<tag k="name" v="Hagan" />
		<tag k="ssr:stedsnr" v="695890" />
	</node>
	<node id="-206367" lat="59.6003499991" lon="10.2314083406">
		<tag k="name" v="Sjølsmyra" />
		<tag k="natural" v="wetland" />
		<tag k="ssr:stedsnr" v="89935" />
	</node>
	<node id="-206366" lat="59.6616944474" lon="10.1943527785">
		<tag k="name" v="Tennunghagen" />
		<tag k="place" v="locality" />
		<tag k="ssr:stedsnr" v="89927" />
	</node>
	<node id="-206877" lat="59.5928611135" lon="10.2136138902">
		<tag k="name" v="Prestegårdsjordet" />
		<tag k="place" v="locality" />
		<tag k="ssr:stedsnr" v="695573" />
	</node>
	<node id="-206875" lat="59.5746527804" lon="10.1697999939">
		<tag k="historic" v="shieling" />
		<tag k="name" v="Teiensetra" />
		<tag k="place" v="locality" />
		<tag k="ssr:stedsnr" v="695566" />
	</node>
	<node id="-206874" lat="59.5746111146" lon="10.1629555481">
		<tag k="name" v="Velte" />
		<tag k="place" v="locality" />
		<tag k="ssr:stedsnr" v="695565" />
	</node>
	<node id="-206868" lat="59.6343611096" lon="10.2836000024">
		<tag k="name" v="Fossetermyrene" />
		<tag k="natural" v="wetland" />
		<tag k="ssr:stedsnr" v="695223" />
	</node>
	<node id="-206865" lat="59.6053500031" lon="10.2779472295">
		<tag k="name" v="Raukleivmyr" />
		<tag k="natural" v="wetland" />
		<tag k="ssr:stedsnr" v="695187" />
	</node>
	<node id="-206936" lat="59.5758611095" lon="10.1666361111">
		<tag k="name" v="Breimyr" />
		<tag k="natural" v="wetland" />
		<tag k="ssr:stedsnr" v="756572" />
	</node>
	<node id="-206862" lat="59.6683888869" lon="10.1588666633">
		<tag k="historic" v="shieling" />
		<tag k="name" v="Tennungsetra" />
		<tag k="place" v="locality" />
		<tag k="ssr:stedsnr" v="695933" />
	</node>
	<node id="-206860" lat="59.6074055563" lon="10.2524166604">
		<tag k="name" v="Aunes-To" />
		<tag k="place" v="locality" />
		<tag k="ssr:stedsnr" v="695932" />
	</node>
	<node id="-206346" lat="59.6286138902" lon="10.0883138878">
		<tag k="name" v="Steinmyr" />
		<tag k="natural" v="wetland" />
		<tag k="ssr:stedsnr" v="89703" />
	</node>
	<node id="-206345" lat="59.5863555542" lon="10.1320972288">
		<tag k="name" v="Kumyr" />
		<tag k="natural" v="wetland" />
		<tag k="ssr:stedsnr" v="89661" />
	</node>
	<node id="-207020" lat="59.5796055596" lon="10.2700500063">
		<tag k="name" v="Ødemark" />
		<tag k="place" v="locality" />
		<tag k="ssr:stedsnr" v="817255" />
	</node>
	<node id="-206854" lat="59.6275888854" lon="10.2488527762">
		<tag k="name" v="Skyvleløkka" />
		<tag k="place" v="locality" />
		<tag k="ssr:stedsnr" v="695911" />
	</node>
	<node id="-206339" lat="59.5833111145" lon="10.256338884">
		<tag k="name" v="Dalaplassen" />
		<tag k="place" v="locality" />
		<tag k="ssr:stedsnr" v="89586" />
	</node>
	<node id="-206338" lat="59.5818611142" lon="10.220997215">
		<tag k="landuse" v="meadow" />
		<tag k="name" v="Donerudenga" />
		<tag k="ssr:stedsnr" v="89576" />
	</node>
</osm>
