<?xml version="1.0" encoding="UTF-8"?>
<osm generator="osmapis" version="0.6">
	<node id="-207445" lat="59.6248444421" lon="10.2964583336">
		<tag k="name" v="Søndre Ventetjern" />
		<tag k="natural" v="water" />
		<tag k="ssr:stedsnr" v="938186" />
	</node>
	<node id="-206840" lat="59.5875802808" lon="10.2892755631">
		<tag k="name" v="Kudalsdammen" />
		<tag k="natural" v="water" />
		<tag k="ssr:stedsnr" v="246023" />
	</node>
	<node id="-206326" lat="59.6718861083" lon="10.2476583366">
		<tag k="name" v="Tuftdammen" />
		<tag k="natural" v="water" />
		<tag k="ssr:stedsnr" v="271942" />
	</node>
	<node id="-206316" lat="59.5956972212" lon="10.1304194511">
		<tag k="name" v="Purketjern" />
		<tag k="natural" v="water" />
		<tag k="ssr:stedsnr" v="271782" />
	</node>
	<node id="-207334" lat="59.5792083317" lon="10.2332805619">
		<tag k="name" v="Sandeelva" />
		<tag k="ssr:stedsnr" v="817560" />
		<tag k="waterway" v="river" />
	</node>
	<node id="-206306" lat="59.6163305591" lon="10.2818666718">
		<tag k="name" v="Granøya" />
		<tag k="place" v="islet" />
		<tag k="ssr:stedsnr" v="271240" />
	</node>
	<node id="-207327" lat="59.58000833" lon="10.3345277722">
		<tag k="name" v="Halvøya" />
		<tag k="natural" v="cape" />
		<tag k="ssr:stedsnr" v="817247" />
	</node>
	<node id="-207326" lat="59.5731972235" lon="10.3397638947">
		<tag k="name" v="Holtanstøa" />
		<tag k="natural" v="cape" />
		<tag k="ssr:stedsnr" v="817236" />
	</node>
	<node id="-206812" lat="59.6296888873" lon="10.1866666707">
		<tag k="name" v="Brattefoss" />
		<tag k="natural" v="waterfall" />
		<tag k="ssr:stedsnr" v="210636" />
	</node>
	<node id="-206298" lat="59.5434333374" lon="10.3123527788">
		<tag k="name" v="Sandoelva" />
		<tag k="ssr:stedsnr" v="271050" />
		<tag k="waterway" v="river" />
	</node>
	<node id="-207318" lat="59.6539055581" lon="10.3076055533">
		<tag k="name" v="Tørrfløtbekken" />
		<tag k="ssr:stedsnr" v="817159" />
		<tag k="waterway" v="stream" />
	</node>
	<node id="-206802" lat="59.5896833329" lon="10.3330722238">
		<tag k="name" v="Selvikøya" />
		<tag k="place" v="islet" />
		<tag k="ssr:stedsnr" v="210280" />
	</node>
	<node id="-206796" lat="59.6244277765" lon="10.3090194445">
		<tag k="name" v="Kallebergbekken" />
		<tag k="ssr:stedsnr" v="210227" />
		<tag k="waterway" v="stream" />
	</node>
	<node id="-206794" lat="59.6285555518" lon="10.3356999959">
		<tag k="name" v="Mellombekken" />
		<tag k="ssr:stedsnr" v="210216" />
		<tag k="waterway" v="stream" />
	</node>
	<node id="-207304" lat="59.6203083309" lon="10.1679249956">
		<tag k="name" v="Askilsvannet" />
		<tag k="natural" v="water" />
		<tag k="ssr:stedsnr" v="793075" />
	</node>
	<node id="-207300" lat="59.6701044307" lon="10.2877062403">
		<tag k="name" v="Torjevannet" />
		<tag k="natural" v="water" />
		<tag k="ssr:stedsnr" v="792148" />
	</node>
	<node id="-206783" lat="59.6134861116" lon="10.3111972147">
		<tag k="name" v="Trestiklevanna" />
		<tag k="natural" v="water" />
		<tag k="ssr:stedsnr" v="186116" />
	</node>
	<node id="-206781" lat="59.6304055571" lon="10.132555548">
		<tag k="name" v="Svartevannet" />
		<tag k="natural" v="water" />
		<tag k="ssr:stedsnr" v="186164" />
	</node>
	<node id="-206780" lat="59.6316499989" lon="10.1610611134">
		<tag k="name" v="Kringlevannet" />
		<tag k="natural" v="water" />
		<tag k="ssr:stedsnr" v="186160" />
	</node>
	<node id="-207290" lat="59.5833777739" lon="10.1383777707">
		<tag k="name" v="Bondivannet" />
		<tag k="natural" v="water" />
		<tag k="ssr:stedsnr" v="792004" />
	</node>
	<node id="-206772" lat="59.6067055581" lon="10.1051777809">
		<tag k="name" v="Haukelielva" />
		<tag k="ssr:stedsnr" v="185119" />
		<tag k="waterway" v="stream" />
	</node>
	<node id="-207281" lat="59.6064166703" lon="10.2154222168">
		<tag k="name" v="Brubakkelva" />
		<tag k="ssr:stedsnr" v="756953" />
		<tag k="waterway" v="stream" />
	</node>
	<node id="-206763" lat="59.6149805535" lon="10.2532249951">
		<tag k="name" v="Kvernfallet" />
		<tag k="natural" v="waterfall" />
		<tag k="ssr:stedsnr" v="149942" />
	</node>
	<node id="-206753" lat="59.611394445" lon="10.0952027833">
		<tag k="name" v="Haukefoss" />
		<tag k="natural" v="waterfall" />
		<tag k="ssr:stedsnr" v="149735" />
	</node>
	<node id="-207260" lat="59.6235722212" lon="10.1757249987">
		<tag k="name" v="Orjota" />
		<tag k="ssr:stedsnr" v="756652" />
		<tag k="waterway" v="stream" />
	</node>
	<node id="-207257" lat="59.6292222219" lon="10.1872777799">
		<tag k="name" v="Tollerudelva" />
		<tag k="ssr:stedsnr" v="756645" />
		<tag k="waterway" v="river" />
	</node>
	<node id="-206731" lat="59.6335416701" lon="10.3055611133">
		<tag k="name" v="Buddetjern" />
		<tag k="natural" v="water" />
		<tag k="ssr:stedsnr" v="149196" />
	</node>
	<node id="-206717" lat="59.6563055565" lon="10.1713694422">
		<tag k="name" v="Svartebekk" />
		<tag k="ssr:stedsnr" v="145334" />
		<tag k="waterway" v="stream" />
	</node>
	<node id="-206715" lat="59.6369527808" lon="10.0937416635">
		<tag k="fixme" v="multiple name tags, choose one and add the other to alt_name" />
		<tag k="name" v="Jøranvannet;Store Jøranvannet" />
		<tag k="natural" v="water" />
		<tag k="ssr:stedsnr" v="125184" />
		<tag k="water" v="lake" />
	</node>
	<node id="-207225" lat="59.5765472191" lon="10.2010555507">
		<tag k="name" v="Vesleelva" />
		<tag k="ssr:stedsnr" v="752531" />
		<tag k="waterway" v="stream" />
	</node>
	<node id="-206712" lat="59.6376781505" lon="10.314572124">
		<tag k="alt_name" v="Klokkertjern" />
		<tag k="name" v="Klokketjern" />
		<tag k="natural" v="water" />
		<tag k="ssr:stedsnr" v="125101" />
	</node>
	<node id="-206711" lat="59.6194750043" lon="10.2931861087">
		<tag k="name" v="Toreselva" />
		<tag k="ssr:stedsnr" v="125098" />
		<tag k="waterway" v="stream" />
	</node>
	<node id="-207222" lat="59.6360861101" lon="10.0679249944">
		<tag k="name" v="Prestevannet" />
		<tag k="natural" v="water" />
		<tag k="ssr:stedsnr" v="732190" />
	</node>
	<node id="-207221" lat="59.6421666647" lon="10.3290222234">
		<tag k="name" v="Nordre Svanevannet" />
		<tag k="natural" v="water" />
		<tag k="ssr:stedsnr" v="732180" />
		<tag k="water" v="lake" />
	</node>
	<node id="-207220" lat="59.6339499995" lon="10.3254888819">
		<tag k="name" v="Urdervannet" />
		<tag k="natural" v="water" />
		<tag k="ssr:stedsnr" v="732106" />
	</node>
	<node id="-207219" lat="59.6376805554" lon="10.2976138805">
		<tag k="name" v="Søndre Toresvann" />
		<tag k="natural" v="water" />
		<tag k="ssr:stedsnr" v="732103" />
		<tag k="water" v="lake" />
	</node>
	<node id="-206704" lat="59.6428583311" lon="10.0520138875">
		<tag k="name" v="Store Annevannet" />
		<tag k="natural" v="water" />
		<tag k="ssr:stedsnr" v="124164" />
		<tag k="water" v="lake" />
	</node>
	<node id="-206703" lat="59.6398083302" lon="10.0884333412">
		<tag k="name" v="Vesle Jøranvann" />
		<tag k="natural" v="water" />
		<tag k="ssr:stedsnr" v="124163" />
	</node>
	<node id="-206338" lat="59.5793666685" lon="10.3010666582">
		<tag k="name" v="Bruserudvannet" />
		<tag k="natural" v="water" />
		<tag k="ssr:stedsnr" v="306003" />
	</node>
	<node id="-207105" lat="59.5943222217" lon="10.3281805473">
		<tag k="name" v="Siljubekk" />
		<tag k="ssr:stedsnr" v="634263" />
		<tag k="waterway" v="stream" />
	</node>
	<node id="-207200" lat="59.6453361117" lon="10.2228194381">
		<tag k="name" v="Gutufossen" />
		<tag k="natural" v="waterfall" />
		<tag k="ssr:stedsnr" v="695966" />
	</node>
	<node id="-207180" lat="59.5737944472" lon="10.3355750034">
		<tag k="name" v="Svartebekk" />
		<tag k="ssr:stedsnr" v="695258" />
		<tag k="waterway" v="stream" />
	</node>
	<node id="-206646" lat="59.5859138844" lon="10.1605500062">
		<tag k="name" v="Delebekken" />
		<tag k="ssr:stedsnr" v="89566" />
		<tag k="waterway" v="stream" />
	</node>
	<node id="-206645" lat="59.577702779" lon="10.338911112">
		<tag k="name" v="Bjørkøya" />
		<tag k="place" v="islet" />
		<tag k="ssr:stedsnr" v="89258" />
	</node>
	<node id="-207156" lat="59.6662694405" lon="10.2932972181">
		<tag k="name" v="Svartkulp" />
		<tag k="natural" v="water" />
		<tag k="ssr:stedsnr" v="695168" />
	</node>
	<node id="-207154" lat="59.5619833332" lon="10.1982222305">
		<tag k="name" v="Stokkebekken" />
		<tag k="ssr:stedsnr" v="692339" />
		<tag k="waterway" v="stream" />
	</node>
	<node id="-206640" lat="59.6271749988" lon="10.2967638954">
		<tag k="name" v="Nordre Ventetjern" />
		<tag k="natural" v="water" />
		<tag k="ssr:stedsnr" v="89213" />
	</node>
	<node id="-206635" lat="59.6071472252" lon="10.316736116">
		<tag k="name" v="Søndre Trestikelvann" />
		<tag k="natural" v="water" />
		<tag k="ssr:stedsnr" v="89177" />
	</node>
	<node id="-207144" lat="59.6227833358" lon="10.184108329">
		<tag k="name" v="Lillevann" />
		<tag k="natural" v="water" />
		<tag k="ssr:stedsnr" v="671084" />
	</node>
	<node id="-207324" lat="59.6242527785" lon="10.3152305623">
		<tag k="name" v="Kallebergputten" />
		<tag k="natural" v="water" />
		<tag k="ssr:stedsnr" v="817211" />
	</node>
	<node id="-206616" lat="59.6428722191" lon="10.2964666659">
		<tag k="name" v="Nordre Toresvann" />
		<tag k="natural" v="water" />
		<tag k="old_name" v="Toresvann" />
		<tag k="ssr:stedsnr" v="64147" />
		<tag k="water" v="lake" />
	</node>
	<node id="-207122" lat="59.6372083325" lon="10.0529805561">
		<tag k="name" v="Vesle Annevannet" />
		<tag k="natural" v="water" />
		<tag k="ssr:stedsnr" v="634746" />
		<tag k="water" v="lake" />
	</node>
	<node id="-206609" lat="59.6268249962" lon="10.2655249964">
		<tag k="alt_name" v="Nordre Igletjern" />
		<tag k="name" v="Igletjernet" />
		<tag k="natural" v="water" />
		<tag k="ssr:stedsnr" v="64073" />
	</node>
	<node id="-206599" lat="59.6313500035" lon="10.2617250068">
		<tag k="name" v="Igletjernsbekken" />
		<tag k="ssr:stedsnr" v="28935" />
		<tag k="waterway" v="stream" />
	</node>
	<node id="-207147" lat="59.6180199771" lon="10.2790125054">
		<tag k="name" v="Suluvann" />
		<tag k="natural" v="water" />
		<tag k="ssr:stedsnr" v="671125" />
		<tag k="water" v="lake" />
	</node>
	<node id="-207097" lat="59.6348249993" lon="10.2827666611">
		<tag k="name" v="Nordre Fossetertjern" />
		<tag k="natural" v="water" />
		<tag k="ssr:stedsnr" v="634207" />
	</node>
	<node id="-206580" lat="59.6392111143" lon="10.3279527709">
		<tag k="name" v="Haldorsrenna" />
		<tag k="ssr:stedsnr" v="28369" />
		<tag k="waterway" v="stream" />
	</node>
	<node id="-206575" lat="59.6226055577" lon="10.1727833264">
		<tag k="name" v="Nordre Renna" />
		<tag k="ssr:stedsnr" v="28642" />
		<tag k="waterway" v="stream" />
	</node>
	<node id="-207083" lat="59.6580833305" lon="10.1211555634">
		<tag k="name" v="Ulka" />
		<tag k="natural" v="water" />
		<tag k="ssr:stedsnr" v="610179" />
	</node>
	<node id="-206569" lat="59.5812499961" lon="10.3313222297">
		<tag k="name" v="Hunsvikbukta" />
		<tag k="natural" v="bay" />
		<tag k="ssr:stedsnr" v="28267" />
	</node>
	<node id="-206567" lat="59.5778333323" lon="10.3367055597">
		<tag k="name" v="Hareøya" />
		<tag k="place" v="islet" />
		<tag k="ssr:stedsnr" v="28260" />
	</node>
	<node id="-207076" lat="59.6147916637" lon="10.2796777827">
		<tag k="alt_name" v="Pinevika" />
		<tag k="name" v="Pina" />
		<tag k="natural" v="bay" />
		<tag k="ssr:stedsnr" v="610071" />
	</node>
	<node id="-206562" lat="59.6413277743" lon="10.2971916672">
		<tag k="name" v="Sagseterfossen" />
		<tag k="natural" v="waterfall" />
		<tag k="ssr:stedsnr" v="28151" />
	</node>
	<node id="-207073" lat="59.639369441" lon="10.1175944498">
		<tag k="name" v="Vesle Øyvann" />
		<tag k="natural" v="water" />
		<tag k="ssr:stedsnr" v="609180" />
	</node>
	<node id="-206540" lat="59.6082611067" lon="10.1239999958">
		<tag k="name" v="Kaldmovannet" />
		<tag k="natural" v="water" />
		<tag k="ssr:stedsnr" v="3107" />
	</node>
	<node id="-206539" lat="59.6044749995" lon="10.2933722182">
		<tag k="name" v="Fløyta" />
		<tag k="natural" v="water" />
		<tag k="ssr:stedsnr" v="3101" />
	</node>
	<node id="-207035" lat="59.6205500008" lon="10.2791972304">
		<tag k="name" v="Lærumsetervika" />
		<tag k="natural" v="bay" />
		<tag k="ssr:stedsnr" v="574238" />
	</node>
	<node id="-207034" lat="59.6242694479" lon="10.2894527738">
		<tag k="name" v="Askenstrykene" />
		<tag k="ssr:stedsnr" v="574237" />
		<tag k="waterway" v="rapids" />
	</node>
	<node id="-207031" lat="59.6048722228" lon="10.3170416697">
		<tag k="name" v="Trollbekken" />
		<tag k="ssr:stedsnr" v="574190" />
		<tag k="waterway" v="stream" />
	</node>
	<node id="-207017" lat="59.6375222196" lon="10.1030722263">
		<tag k="fixme" v="multiple name tags, choose one and add the other to alt_name" />
		<tag k="name" v="Øyvannet;Store Øyvannet" />
		<tag k="natural" v="water" />
		<tag k="ssr:stedsnr" v="610202" />
	</node>
	<node id="-207016" lat="59.6311361083" lon="10.1691638871">
		<tag k="alt_name" v="Åsvann" />
		<tag k="name" v="Åsdammen" />
		<tag k="natural" v="water" />
		<tag k="ssr:stedsnr" v="610200" />
	</node>
	<node id="-207013" lat="59.6340777755" lon="10.1573833269">
		<tag k="name" v="Siljukollvannet" />
		<tag k="natural" v="water" />
		<tag k="ssr:stedsnr" v="549174" />
	</node>
	<node id="-207009" lat="59.633686107" lon="10.2842805575">
		<tag k="name" v="Fossetertjerna" />
		<tag k="natural" v="water" />
		<tag k="ssr:stedsnr" v="549098" />
	</node>
	<node id="-207003" lat="59.6506055589" lon="10.2907638912">
		<tag k="name" v="Veslevannet" />
		<tag k="natural" v="water" />
		<tag k="ssr:stedsnr" v="548180" />
	</node>
	<node id="-206490" lat="59.5848166686" lon="10.2780555529">
		<tag k="name" v="Bufjellbekken" />
		<tag k="ssr:stedsnr" v="392277" />
		<tag k="waterway" v="stream" />
	</node>
	<node id="-206995" lat="59.6075416695" lon="10.2212555507">
		<tag k="name" v="Rudsbekken" />
		<tag k="ssr:stedsnr" v="513945" />
		<tag k="waterway" v="stream" />
	</node>
	<node id="-206981" lat="59.6365055548" lon="10.1812305499">
		<tag k="name" v="Elvetjern" />
		<tag k="natural" v="water" />
		<tag k="ssr:stedsnr" v="513636" />
	</node>
	<node id="-207488" lat="59.6098472203" lon="10.2296055475">
		<tag k="name" v="Fostvedtfossen" />
		<tag k="natural" v="waterfall" />
		<tag k="ssr:stedsnr" v="938955" />
	</node>
	<node id="-207487" lat="59.6117500011" lon="10.2484750075">
		<tag k="name" v="Askenbekken" />
		<tag k="ssr:stedsnr" v="938951" />
		<tag k="waterway" v="stream" />
	</node>
	<node id="-206868" lat="59.664313885" lon="10.3039833356">
		<tag k="name" v="Røysjø" />
		<tag k="natural" v="water" />
		<tag k="ssr:stedsnr" v="428116" />
		<tag k="water" v="lake" />
	</node>
	<node id="-206966" lat="59.6227388899" lon="10.2659361076">
		<tag k="name" v="Søndre Igletjern" />
		<tag k="natural" v="water" />
		<tag k="ssr:stedsnr" v="513227" />
	</node>
	<node id="-206965" lat="59.6298805545" lon="10.2871833275">
		<tag k="name" v="Fossetertjernbekken" />
		<tag k="ssr:stedsnr" v="513217" />
		<tag k="waterway" v="stream" />
	</node>
	<node id="-206450" lat="59.6408583296" lon="10.1367555616">
		<tag k="name" v="Kopstadbrønn" />
		<tag k="natural" v="water" />
		<tag k="ssr:stedsnr" v="331741" />
		<tag k="water" v="pond" />
	</node>
	<node id="-207473" lat="59.6043833356" lon="10.0964805598">
		<tag k="name" v="Hauketjern" />
		<tag k="natural" v="water" />
		<tag k="ssr:stedsnr" v="938721" />
	</node>
	<node id="-207472" lat="59.6396111141" lon="10.0818527735">
		<tag k="name" v="Prestevannsbekken" />
		<tag k="ssr:stedsnr" v="938719" />
		<tag k="waterway" v="stream" />
	</node>
	<node id="-207471" lat="59.6198555547" lon="10.1296000012">
		<tag k="name" v="Klokkerbekken" />
		<tag k="ssr:stedsnr" v="938715" />
		<tag k="waterway" v="stream" />
	</node>
	<node id="-207470" lat="59.6337222193" lon="10.0475527755">
		<tag k="name" v="Prestebekken" />
		<tag k="ssr:stedsnr" v="938698" />
		<tag k="waterway" v="stream" />
	</node>
	<node id="-207468" lat="59.622500004" lon="10.1436166687">
		<tag k="name" v="Munkebekken" />
		<tag k="ssr:stedsnr" v="938685" />
		<tag k="waterway" v="stream" />
	</node>
	<node id="-206945" lat="59.6142333357" lon="10.0850500002">
		<tag k="name" v="Kroktjern" />
		<tag k="natural" v="water" />
		<tag k="ssr:stedsnr" v="489090" />
	</node>
	<node id="-206430" lat="59.5811638924" lon="10.2830499966">
		<tag k="name" v="Midtelva" />
		<tag k="ssr:stedsnr" v="331268" />
		<tag k="waterway" v="river" />
	</node>
	<node id="-207450" lat="59.617305557" lon="10.2824444505">
		<tag k="name" v="Vinterhølet" />
		<tag k="natural" v="bay" />
		<tag k="ssr:stedsnr" v="938204" />
	</node>
	<node id="-207449" lat="59.6174249989" lon="10.2756972215">
		<tag k="name" v="Bjørkøya" />
		<tag k="place" v="islet" />
		<tag k="ssr:stedsnr" v="938202" />
	</node>
	<node id="-206936" lat="59.5712499975" lon="10.3092000073">
		<tag k="name" v="Bekkevannet" />
		<tag k="natural" v="water" />
		<tag k="ssr:stedsnr" v="488051" />
	</node>
	<node id="-206422" lat="59.6312694481" lon="10.3164444466">
		<tag k="name" v="Bjørnhibekken" />
		<tag k="ssr:stedsnr" v="331135" />
		<tag k="waterway" v="stream" />
	</node>
	<node id="-206421" lat="59.6489027806" lon="10.3184805536">
		<tag k="name" v="Svanevannsbekken" />
		<tag k="ssr:stedsnr" v="331123" />
		<tag k="waterway" v="stream" />
	</node>
	<node id="-207444" lat="59.6307083332" lon="10.3249722215">
		<tag k="name" v="Svartevannsbekken" />
		<tag k="ssr:stedsnr" v="938181" />
		<tag k="waterway" v="stream" />
	</node>
	<node id="-206927" lat="59.6680277777" lon="10.2078833417">
		<tag k="name" v="Mølsteddammen" />
		<tag k="natural" v="water" />
		<tag k="ssr:stedsnr" v="453930" />
	</node>
	<node id="-206925" lat="59.6611638895" lon="10.1611555468">
		<tag k="name" v="Tranga" />
		<tag k="ssr:stedsnr" v="453922" />
		<tag k="waterway" v="stream" />
	</node>
	<node id="-207434" lat="59.6365249981" lon="10.1620083253">
		<tag k="name" v="Fjellskardvannet" />
		<tag k="natural" v="water" />
		<tag k="ssr:stedsnr" v="914171" />
	</node>
	<node id="-207432" lat="59.6253638857" lon="10.0959333329">
		<tag k="alt_name" v="Øyevannselva" />
		<tag k="name" v="Øyvasselva" />
		<tag k="ssr:stedsnr" v="914089" />
		<tag k="waterway" v="stream" />
	</node>
	<node id="-207430" lat="59.6129333304" lon="10.2627055476">
		<tag k="name" v="Borgelangevann" />
		<tag k="natural" v="water" />
		<tag k="ssr:stedsnr" v="914073" />
	</node>
	<node id="-206913" lat="59.6209972233" lon="10.0834694501">
		<tag k="name" v="Svartbekk" />
		<tag k="ssr:stedsnr" v="453726" />
		<tag k="waterway" v="stream" />
	</node>
	<node id="-207408" lat="59.6609000025" lon="10.296524995">
		<tag k="name" v="Røysjødammen" />
		<tag k="natural" v="bay" />
		<tag k="ssr:stedsnr" v="878176" />
	</node>
	<node id="-207407" lat="59.6566999969" lon="10.3035666686">
		<tag k="name" v="Røysjøkupa" />
		<tag k="natural" v="bay" />
		<tag k="ssr:stedsnr" v="878159" />
	</node>
	<node id="-207406" lat="59.6484444487" lon="10.2935833412">
		<tag k="name" v="Veslevannsbekken" />
		<tag k="ssr:stedsnr" v="878149" />
		<tag k="waterway" v="stream" />
	</node>
	<node id="-206892" lat="59.5749722249" lon="10.2780444437">
		<tag k="name" v="Selvikelva" />
		<tag k="ssr:stedsnr" v="453280" />
		<tag k="waterway" v="river" />
	</node>
	<node id="-206885" lat="59.6232083316" lon="10.3219472199">
		<tag k="name" v="Svartevannet" />
		<tag k="natural" v="water" />
		<tag k="ssr:stedsnr" v="453228" />
	</node>
	<node id="-206882" lat="59.6599944476" lon="10.2942055602">
		<tag k="name" v="Furuholmen" />
		<tag k="natural" v="cape" />
		<tag k="ssr:stedsnr" v="453188" />
	</node>
	<node id="-207392" lat="59.6294361127" lon="10.232602778">
		<tag k="name" v="Fossbekken" />
		<tag k="ssr:stedsnr" v="877661" />
		<tag k="waterway" v="stream" />
	</node>
	<node id="-206361" lat="59.6498861076" lon="10.1542027817">
		<tag k="name" v="Langvann" />
		<tag k="natural" v="water" />
		<tag k="ssr:stedsnr" v="307150" />
	</node>
	<node id="-206340" lat="59.5855729385" lon="10.3212912776">
		<tag k="name" v="Skovannet" />
		<tag k="natural" v="water" />
		<tag k="ssr:stedsnr" v="306017" />
	</node>
	<node id="-207382" lat="59.6093444465" lon="10.2924444379">
		<tag k="name" v="Lensmannsodden" />
		<tag k="natural" v="cape" />
		<tag k="ssr:stedsnr" v="877186" />
	</node>
	<node id="-207381" lat="59.6084194432" lon="10.2750083261">
		<tag k="name" v="Pinetjern" />
		<tag k="natural" v="water" />
		<tag k="ssr:stedsnr" v="877180" />
	</node>
	<node id="-207380" lat="59.6095111068" lon="10.3157083289">
		<tag k="name" v="Mellomste Trestikelvann" />
		<tag k="natural" v="water" />
		<tag k="ssr:stedsnr" v="877158" />
	</node>
	<node id="-207377" lat="59.6563638862" lon="10.1761777802">
		<tag k="name" v="Spirebekk" />
		<tag k="ssr:stedsnr" v="874390" />
		<tag k="waterway" v="stream" />
	</node>
	<node id="-206347" lat="59.654052778" lon="10.2991138881">
		<tag k="name" v="Langevann" />
		<tag k="natural" v="water" />
		<tag k="ssr:stedsnr" v="306169" />
		<tag k="water" v="lake" />
	</node>
	<node id="-206346" lat="59.6625666678" lon="10.1356277725">
		<tag k="name" v="Ulkebekken" />
		<tag k="ssr:stedsnr" v="306146" />
		<tag k="waterway" v="stream" />
	</node>
	<node id="-206855" lat="59.5451611087" lon="10.2092361178">
		<tag k="name" v="Orebergvannet" />
		<tag k="natural" v="water" />
		<tag k="ssr:stedsnr" v="246919" />
	</node>
	<node id="-206341" lat="59.5890694423" lon="10.3350972183">
		<tag k="name" v="Blindevann" />
		<tag k="natural" v="water" />
		<tag k="ssr:stedsnr" v="306019" />
		<tag k="water" v="lake" />
	</node>
	<node id="-207364" lat="59.6448500019" lon="10.1580583268">
		<tag k="name" v="Myrvann" />
		<tag k="natural" v="water" />
		<tag k="ssr:stedsnr" v="852186" />
	</node>
	<node id="-206851" lat="59.6556361124" lon="10.1841083267">
		<tag k="alt_name" v="Gryteelva;Grytelva" />
		<tag k="name" v="Gryta" />
		<tag k="ssr:stedsnr" v="246135" />
		<tag k="waterway" v="stream" />
	</node>
	<node id="-207362" lat="59.6503388914" lon="10.3141055538">
		<tag k="alt_name" v="Tørrfløt" />
		<tag k="name" v="Tørrfløyt" />
		<tag k="natural" v="water" />
		<tag k="ssr:stedsnr" v="852179" />
	</node>
</osm>
