<?xml version="1.0" encoding="UTF-8"?>
<osm generator="osmapis" version="0.6">
	<node id="-206976" lat="59.6184111114" lon="10.2200500021">
		<tag k="bridge" v="yes" />
		<tag k="layer" v="1" />
		<tag k="name" v="Heimdal" />
		<tag k="ssr:stedsnr" v="774735" />
	</node>
	<node id="-206974" lat="59.5433606126" lon="10.2487408402">
		<tag k="barrier" v="toll_booth" />
		<tag k="name" v="Ødegården" />
		<tag k="ssr:stedsnr" v="767643" />
	</node>
	<node id="-206459" lat="59.6653944479" lon="10.2147166619">
		<tag k="bridge" v="yes" />
		<tag k="layer" v="1" />
		<tag k="name" v="Flåte" />
		<tag k="ssr:stedsnr" v="167734" />
	</node>
	<node id="-206199" lat="59.5992805572" lon="10.1651722151">
		<tag k="junction" v="yes" />
		<tag k="name" v="Kilen" />
		<tag k="place" v="locality" />
		<tag k="ssr:stedsnr" v="392917" />
	</node>
	<node id="-206022" lat="59.5891944404" lon="10.2122305524">
		<tag k="bridge" v="yes" />
		<tag k="layer" v="1" />
		<tag k="name" v="Bøplassen" />
		<tag k="ssr:stedsnr" v="289763" />
	</node>
	<node id="-206188" lat="59.6229916685" lon="10.2008305476">
		<tag k="junction" v="yes" />
		<tag k="name" v="Galleberg" />
		<tag k="place" v="locality" />
		<tag k="ssr:stedsnr" v="392674" />
	</node>
	<node id="-207080" lat="59.6253361127" lon="10.1817416594">
		<tag k="highway" v="path" />
		<tag k="name" v="Bjørnestien" />
		<tag k="ssr:stedsnr" v="877643" />
	</node>
	<node id="-206692" lat="59.6448666682" lon="10.2201333315">
		<tag k="bridge" v="yes" />
		<tag k="layer" v="1" />
		<tag k="name" v="Gutufossen øst" />
		<tag k="ssr:stedsnr" v="531724" />
	</node>
	<node id="-206691" lat="59.6391277819" lon="10.2122638873">
		<tag k="layer" v="-1" />
		<tag k="name" v="Bjørgetunnelen SL" />
		<tag k="ssr:stedsnr" v="529126" />
		<tag k="tunnel" v="yes" />
	</node>
	<node id="-206690" lat="59.5739088435" lon="10.1797353359">
		<tag k="barrier" v="toll_booth" />
		<tag k="name" v="Hanekleiva 2" />
		<tag k="ssr:stedsnr" v="524613" />
	</node>
	<node id="-206432" lat="59.5552539431" lon="10.2395414975">
		<tag k="man_made" v="quay" />
		<tag k="name" v="Saksrudhavna" />
		<tag k="place" v="locality" />
		<tag k="ssr:stedsnr" v="149604" />
	</node>
	<node id="-206853" lat="59.5556111413" lon="10.2401122566">
		<tag k="landuse" v="harbour" />
		<tag k="name" v="Saksrudhavna" />
		<tag k="seamark:type" v="harbour" />
		<tag k="ssr:stedsnr" v="695062" />
	</node>
	<node id="-206757" lat="59.5714666653" lon="10.1809250042">
		<tag k="layer" v="-1" />
		<tag k="name" v="Hanekleivtunnelen SL" />
		<tag k="ssr:stedsnr" v="590475" />
		<tag k="tunnel" v="yes" />
	</node>
	<node id="-206296" lat="59.5837876622" lon="10.1751615154">
		<tag k="barrier" v="toll_booth" />
		<tag k="name" v="Løvås" />
		<tag k="ssr:stedsnr" v="39595" />
	</node>
	<node id="-206295" lat="59.5730440802" lon="10.1814781745">
		<tag k="barrier" v="toll_booth" />
		<tag k="name" v="Hanekleiva 1" />
		<tag k="ssr:stedsnr" v="39589" />
	</node>
	<node id="-206165" lat="59.6238472255" lon="10.2224777692">
		<tag k="alt_name" v="Galleberg st." />
		<tag k="name" v="Galleberg" />
		<tag k="railway" v="station" />
		<tag k="ssr:stedsnr" v="368101" />
		<tag k="train" v="yes" />
	</node>
	<node id="-205987" lat="59.5489555561" lon="10.2900888879">
		<tag k="man_made" v="quay" />
		<tag k="name" v="Bekkebrygga" />
		<tag k="place" v="locality" />
		<tag k="ssr:stedsnr" v="271045" />
	</node>
	<node id="-207183" lat="59.5778583345" lon="10.1957388934">
		<tag k="bridge" v="yes" />
		<tag k="layer" v="1" />
		<tag k="name" v="Teien" />
		<tag k="ssr:stedsnr" v="956728" />
	</node>
	<node id="-206818" lat="59.6234666656" lon="10.2259694522">
		<tag k="bridge" v="yes" />
		<tag k="layer" v="1" />
		<tag k="name" v="Galleberg" />
		<tag k="ssr:stedsnr" v="652700" />
	</node>
	<node id="-206026" lat="59.661119445" lon="10.2341361025">
		<tag k="bridge" v="yes" />
		<tag k="layer" v="1" />
		<tag k="name" v="Berg vest" />
		<tag k="ssr:stedsnr" v="46744" />
	</node>
	<node id="-206153" lat="59.6125111147" lon="10.2159166709">
		<tag k="bridge" v="yes" />
		<tag k="layer" v="1" />
		<tag k="name" v="Gilhusdalen vest" />
		<tag k="ssr:stedsnr" v="349736" />
	</node>
	<node id="-206152" lat="59.6484666706" lon="10.2322194506">
		<tag k="bridge" v="yes" />
		<tag k="layer" v="1" />
		<tag k="name" v="Kjeldås" />
		<tag k="ssr:stedsnr" v="349735" />
	</node>
	<node id="-206151" lat="59.6137194451" lon="10.2140583273">
		<tag k="bridge" v="yes" />
		<tag k="layer" v="1" />
		<tag k="name" v="Kopstad" />
		<tag k="ssr:stedsnr" v="349730" />
	</node>
	<node id="-206150" lat="59.5667527768" lon="10.2668166617">
		<tag k="bridge" v="yes" />
		<tag k="layer" v="1" />
		<tag k="name" v="Selvik" />
		<tag k="ssr:stedsnr" v="349728" />
	</node>
	<node id="-206149" lat="59.6057194411" lon="10.176969436">
		<tag k="layer" v="-1" />
		<tag k="name" v="Bolstadtunnelen SL" />
		<tag k="ssr:stedsnr" v="347103" />
		<tag k="tunnel" v="yes" />
	</node>
	<node id="-207167" lat="59.5503055584" lon="10.2427722154">
		<tag k="man_made" v="quay" />
		<tag k="name" v="Bergbrygga" />
		<tag k="place" v="locality" />
		<tag k="ssr:stedsnr" v="938762" />
	</node>
	<node id="-206524" lat="59.608627778" lon="10.2078444427">
		<tag k="bridge" v="yes" />
		<tag k="layer" v="1" />
		<tag k="name" v="Brubakken" />
		<tag k="ssr:stedsnr" v="228748" />
	</node>
	<node id="-206523" lat="59.5566194433" lon="10.2349944478">
		<tag k="bridge" v="yes" />
		<tag k="layer" v="1" />
		<tag k="name" v="Holm søndre" />
		<tag k="ssr:stedsnr" v="228742" />
	</node>
	<node id="-206025" lat="59.6125222221" lon="10.2159333246">
		<tag k="bridge" v="yes" />
		<tag k="layer" v="1" />
		<tag k="name" v="Gilhusdalen øst" />
		<tag k="ssr:stedsnr" v="46742" />
	</node>
	<node id="-206897" lat="59.6289861118" lon="10.2303694431">
		<tag k="bridge" v="yes" />
		<tag k="layer" v="1" />
		<tag k="name" v="Foss" />
		<tag k="ssr:stedsnr" v="713737" />
	</node>
	<node id="-206896" lat="59.650547223" lon="10.2305916599">
		<tag k="bridge" v="yes" />
		<tag k="layer" v="1" />
		<tag k="name" v="Gutu fotgjengerundergang" />
		<tag k="ssr:stedsnr" v="713736" />
	</node>
	<node id="-206920" lat="59.5168055527" lon="10.3471000051">
		<tag k="man_made" v="quay" />
		<tag k="name" v="Bjerkøybrygga" />
		<tag k="place" v="locality" />
		<tag k="ssr:stedsnr" v="756011" />
	</node>
	<node id="-206894" lat="59.6466250028" lon="10.221197222">
		<tag k="bridge" v="yes" />
		<tag k="layer" v="1" />
		<tag k="name" v="Storelv" />
		<tag k="ssr:stedsnr" v="713732" />
	</node>
	<node id="-206251" lat="59.5697305563" lon="10.2467361047">
		<tag k="man_made" v="quay" />
		<tag k="name" v="Lersbrygga" />
		<tag k="place" v="locality" />
		<tag k="ssr:stedsnr" v="28086" />
	</node>
	<node id="-206632" lat="59.6429230303" lon="10.1817229887">
		<tag k="alt_name" v="Vadet, øvre" />
		<tag k="ford" v="yes" />
		<tag k="name" v="Øvre Vadet" />
		<tag k="place" v="locality" />
		<tag k="ssr:stedsnr" v="488152" />
	</node>
	<node id="-206758" lat="59.6520111111" lon="10.2078666717">
		<tag k="bridge" v="yes" />
		<tag k="layer" v="1" />
		<tag k="name" v="Sagbakken" />
		<tag k="ssr:stedsnr" v="592742" />
	</node>
	<node id="-206373" lat="59.5867138925" lon="10.210277785">
		<tag k="bridge" v="yes" />
		<tag k="layer" v="1" />
		<tag k="name" v="Haga" />
		<tag k="ssr:stedsnr" v="107718" />
	</node>
	<node id="-206372" lat="59.5910583353" lon="10.2105638853">
		<tag k="bridge" v="yes" />
		<tag k="layer" v="1" />
		<tag k="name" v="Sandeelv nordre" />
		<tag k="ssr:stedsnr" v="107715" />
	</node>
	<node id="-206371" lat="59.6378805569" lon="10.2106111054">
		<tag k="layer" v="-1" />
		<tag k="name" v="Bjørgetunnelen NL" />
		<tag k="ssr:stedsnr" v="105141" />
		<tag k="tunnel" v="yes" />
	</node>
	<node id="-206880" lat="59.5550249955" lon="10.2311833395">
		<tag k="name" v="Holm st." />
		<tag k="railway" v="station" />
		<tag k="ssr:stedsnr" v="695619" />
		<tag k="train" v="yes" />
	</node>
	<node id="-206472" lat="59.5485361074" lon="10.2223472299">
		<tag k="name" v="Holm" />
		<tag k="railway" v="station" />
		<tag k="ssr:stedsnr" v="185905" />
		<tag k="train" v="yes" />
	</node>
	<node id="-206110" lat="59.5324805585" lon="10.3721611189">
		<tag k="junction" v="yes" />
		<tag k="name" v="Sandvika" />
		<tag k="place" v="locality" />
		<tag k="ssr:stedsnr" v="331073" />
	</node>
	<node id="-206621" lat="59.5860861084" lon="10.2147833255">
		<tag k="bridge" v="yes" />
		<tag k="layer" v="1" />
		<tag k="name" v="Haga skole kulvert" />
		<tag k="ssr:stedsnr" v="470699" />
	</node>
	<node id="-206024" lat="59.5598416665" lon="10.2330861049">
		<tag k="bridge" v="yes" />
		<tag k="layer" v="1" />
		<tag k="name" v="Holm nordre" />
		<tag k="ssr:stedsnr" v="46736" />
	</node>
	<node id="-206895" lat="59.5801500017" lon="10.2174916636">
		<tag k="bridge" v="yes" />
		<tag k="layer" v="1" />
		<tag k="name" v="Sandeelv søndre" />
		<tag k="ssr:stedsnr" v="713733" />
	</node>
	<node id="-206481" lat="59.6597666646" lon="10.2836222296">
		<tag k="landuse" v="industrial" />
		<tag k="name" v="D.I.V. Vannverket" />
		<tag k="power" v="plant" />
		<tag k="ssr:stedsnr" v="210182" />
	</node>
	<node id="-206217" lat="59.6693027807" lon="10.2426972182">
		<tag k="bridge" v="yes" />
		<tag k="layer" v="1" />
		<tag k="name" v="Tuft" />
		<tag k="ssr:stedsnr" v="895672" />
	</node>
	<node id="-206216" lat="59.661130559" lon="10.2341527691">
		<tag k="bridge" v="yes" />
		<tag k="layer" v="1" />
		<tag k="name" v="Berg øst" />
		<tag k="ssr:stedsnr" v="410715" />
	</node>
	<node id="-206215" lat="59.6085861068" lon="10.213636112">
		<tag k="bridge" v="yes" />
		<tag k="layer" v="1" />
		<tag k="name" v="Hallerud" />
		<tag k="ssr:stedsnr" v="410713" />
	</node>
	<node id="-206214" lat="59.6132777814" lon="10.2164833379">
		<tag k="bridge" v="yes" />
		<tag k="layer" v="1" />
		<tag k="name" v="Koppstad" />
		<tag k="ssr:stedsnr" v="410710" />
	</node>
	<node id="-206213" lat="59.5403111083" lon="10.3115194379">
		<tag k="bridge" v="yes" />
		<tag k="layer" v="1" />
		<tag k="name" v="Sando" />
		<tag k="ssr:stedsnr" v="410707" />
	</node>
	<node id="-206212" lat="59.5734666648" lon="10.2224305483">
		<tag k="bridge" v="yes" />
		<tag k="layer" v="1" />
		<tag k="name" v="Åsnes" />
		<tag k="ssr:stedsnr" v="410704" />
	</node>
	<node id="-206211" lat="59.6044749984" lon="10.1753916652">
		<tag k="layer" v="-1" />
		<tag k="name" v="Bolstadtunnelen NL" />
		<tag k="ssr:stedsnr" v="408121" />
		<tag k="tunnel" v="yes" />
	</node>
	<node id="-206977" lat="59.6193972256" lon="10.2407361162">
		<tag k="bridge" v="yes" />
		<tag k="layer" v="1" />
		<tag k="name" v="Budderud" />
		<tag k="ssr:stedsnr" v="774738" />
	</node>
</osm>
