<?xml version="1.0" encoding="UTF-8"?>
<osm generator="osmapis" version="0.6">
	<node id="-206848" lat="59.5180694448" lon="10.3464138871">
		<tag k="name" v="Hygga" />
		<tag k="place" v="isolated_dwelling" />
		<tag k="ssr:stedsnr" v="695004" />
	</node>
	<node id="-206847" lat="59.578800001" lon="10.2490500072">
		<tag k="loc_name" v="Skafiell-åsen" />
		<tag k="name" v="Skafjellåsen" />
		<tag k="place" v="quarter" />
		<tag k="ssr:stedsnr" v="694320" />
	</node>
	<node id="-206843" lat="59.5701805562" lon="10.2034888925">
		<tag k="name" v="Stokke søndre" />
		<tag k="place" v="farm" />
		<tag k="ssr:stedsnr" v="692340" />
	</node>
	<node id="-206840" lat="59.6326805526" lon="10.2135722234">
		<tag k="name" v="Bjørge" />
		<tag k="place" v="farm" />
		<tag k="ssr:stedsnr" v="671165" />
	</node>
	<node id="-206838" lat="59.6510500039" lon="10.2235666718">
		<tag k="name" v="Hole" />
		<tag k="place" v="farm" />
		<tag k="ssr:stedsnr" v="671137" />
	</node>
	<node id="-206836" lat="59.624380552" lon="10.2117833264">
		<tag k="name" v="Myre" />
		<tag k="place" v="farm" />
		<tag k="ssr:stedsnr" v="671085" />
	</node>
	<node id="-206835" lat="59.6278250015" lon="10.1982749969">
		<tag k="name" v="Myre" />
		<tag k="place" v="farm" />
		<tag k="ssr:stedsnr" v="671083" />
	</node>
	<node id="-206833" lat="59.5749249971" lon="10.1940333328">
		<tag k="alt_name" v="Lippestad" />
		<tag k="name" v="Leppestad" />
		<tag k="place" v="farm" />
		<tag k="ssr:stedsnr" v="671057" />
	</node>
	<node id="-206831" lat="59.5804277742" lon="10.2415777776">
		<tag k="name" v="Østby" />
		<tag k="place" v="farm" />
		<tag k="ssr:stedsnr" v="671001" />
	</node>
	<node id="-206830" lat="59.5562999999" lon="10.2777750005">
		<tag k="alt_name" v="Orevika" />
		<tag k="name" v="Orvika" />
		<tag k="place" v="farm" />
		<tag k="ssr:stedsnr" v="670918" />
	</node>
	<node id="-206826" lat="59.6389374022" lon="10.2189450928">
		<tag k="alt_name" v="Jahren" />
		<tag k="name" v="Jaren" />
		<tag k="place" v="farm" />
		<tag k="ssr:stedsnr" v="670190" />
	</node>
	<node id="-206825" lat="59.6450666695" lon="10.2545916756">
		<tag k="name" v="Verket" />
		<tag k="place" v="farm" />
		<tag k="ssr:stedsnr" v="670164" />
	</node>
	<node id="-206824" lat="59.5582111117" lon="10.2019000084">
		<tag k="name" v="Orebergsetra" />
		<tag k="place" v="isolated_dwelling" />
		<tag k="ssr:stedsnr" v="670043" />
	</node>
	<node id="-206823" lat="59.5583805524" lon="10.2406999989">
		<tag k="name" v="Holmsåsen" />
		<tag k="place" v="isolated_dwelling" />
		<tag k="ssr:stedsnr" v="670039" />
	</node>
	<node id="-206822" lat="59.5612055531" lon="10.2701222225">
		<tag k="building" v="industrial" />
		<tag k="industrial" v="factory" />
		<tag k="name" v="Kverntangen" />
		<tag k="ssr:stedsnr" v="670037" />
	</node>
	<node id="-206821" lat="59.5850444432" lon="10.2418750013">
		<tag k="alt_name" v="Rud, nedre" />
		<tag k="name" v="Nedre Rud" />
		<tag k="place" v="farm" />
		<tag k="ssr:stedsnr" v="670017" />
	</node>
	<node id="-206816" lat="59.65049722" lon="10.2535805501">
		<tag k="name" v="Hagamyra" />
		<tag k="place" v="farm" />
		<tag k="ssr:stedsnr" v="634971" />
	</node>
	<node id="-206815" lat="59.6673166704" lon="10.2030055521">
		<tag k="name" v="Trolsrud søndre" />
		<tag k="place" v="farm" />
		<tag k="ssr:stedsnr" v="634946" />
	</node>
	<node id="-206813" lat="59.6561305547" lon="10.1130222288">
		<tag k="name" v="Holsrudseter" />
		<tag k="place" v="locality" />
		<tag k="ssr:stedsnr" v="634768" />
	</node>
	<node id="-206808" lat="59.6240055533" lon="10.24867778">
		<tag k="name" v="Bergheim" />
		<tag k="place" v="farm" />
		<tag k="ssr:stedsnr" v="634664" />
	</node>
	<node id="-206807" lat="59.6256249959" lon="10.2283222237">
		<tag k="name" v="Bølum" />
		<tag k="place" v="farm" />
		<tag k="ssr:stedsnr" v="634658" />
	</node>
	<node id="-206805" lat="59.5656833325" lon="10.2249472208">
		<tag k="name" v="Ve lille" />
		<tag k="place" v="farm" />
		<tag k="ssr:stedsnr" v="634621" />
	</node>
	<node id="-206804" lat="59.57340833" lon="10.2207027725">
		<tag k="name" v="Breivold" />
		<tag k="place" v="farm" />
		<tag k="ssr:stedsnr" v="634608" />
	</node>
	<node id="-206801" lat="59.5762277801" lon="10.1941138905">
		<tag k="name" v="Hauen-Teien" />
		<tag k="place" v="farm" />
		<tag k="ssr:stedsnr" v="634592" />
	</node>
	<node id="-206800" lat="59.581919444" lon="10.1896472244">
		<tag k="name" v="Teien østre" />
		<tag k="place" v="farm" />
		<tag k="ssr:stedsnr" v="634583" />
	</node>
	<node id="-206799" lat="59.5912305542" lon="10.1796944434">
		<tag k="name" v="Bonden nedre" />
		<tag k="place" v="farm" />
		<tag k="ssr:stedsnr" v="634579" />
	</node>
	<node id="-206796" lat="59.5761500028" lon="10.272230547">
		<tag k="name" v="Bråtan" />
		<tag k="place" v="isolated_dwelling" />
		<tag k="ssr:stedsnr" v="634267" />
	</node>
	<node id="-206794" lat="59.5566249991" lon="10.3058388835">
		<tag k="name" v="Bekke store" />
		<tag k="place" v="farm" />
		<tag k="ssr:stedsnr" v="634248" />
	</node>
	<node id="-206774" lat="59.6404861071" lon="10.256530554">
		<tag k="name" v="Klinkelia" />
		<tag k="place" v="farm" />
		<tag k="ssr:stedsnr" v="610181" />
	</node>
	<node id="-206771" lat="59.6556999981" lon="10.234527771">
		<tag k="name" v="Berg" />
		<tag k="place" v="farm" />
		<tag k="ssr:stedsnr" v="610162" />
	</node>
	<node id="-206770" lat="59.6574527817" lon="10.2740083372">
		<tag k="alt_name" v="Snokop" />
		<tag k="name" v="Snokopp" />
		<tag k="place" v="farm" />
		<tag k="ssr:stedsnr" v="610152" />
	</node>
	<node id="-206769" lat="59.6071055517" lon="10.1485194522">
		<tag k="name" v="Sandåker" />
		<tag k="place" v="isolated_dwelling" />
		<tag k="ssr:stedsnr" v="610138" />
	</node>
	<node id="-206768" lat="59.623724997" lon="10.2481916658">
		<tag k="name" v="Lærum sameie" />
		<tag k="place" v="farm" />
		<tag k="ssr:stedsnr" v="610092" />
	</node>
	<node id="-206767" lat="59.6213888931" lon="10.2189111102">
		<tag k="name" v="Galleberg" />
		<tag k="place" v="farm" />
		<tag k="ssr:stedsnr" v="610090" />
	</node>
	<node id="-206765" lat="59.6119638888" lon="10.207577781">
		<tag k="name" v="Dalsrud" />
		<tag k="place" v="farm" />
		<tag k="ssr:stedsnr" v="610070" />
	</node>
	<node id="-206762" lat="59.6389388932" lon="10.2299916634">
		<tag k="alt_name" v="Rølles" />
		<tag k="name" v="Rødløs" />
		<tag k="place" v="farm" />
		<tag k="ssr:stedsnr" v="609165" />
	</node>
	<node id="-206761" lat="59.5883888888" lon="10.2251527812">
		<tag k="name" v="Duni" />
		<tag k="place" v="farm" />
		<tag k="ssr:stedsnr" v="609018" />
	</node>
	<node id="-206760" lat="59.5857138898" lon="10.1927694442">
		<tag k="name" v="Valle" />
		<tag k="place" v="farm" />
		<tag k="ssr:stedsnr" v="609016" />
	</node>
	<node id="-206759" lat="59.5458694414" lon="10.249827785">
		<tag k="name" v="Skjervik" />
		<tag k="place" v="farm" />
		<tag k="ssr:stedsnr" v="606823" />
	</node>
	<node id="-206756" lat="59.5589277753" lon="10.2764583268">
		<tag k="name" v="Saltbua" />
		<tag k="place" v="farm" />
		<tag k="ssr:stedsnr" v="574994" />
	</node>
	<node id="-206755" lat="59.649861109" lon="10.2152999956">
		<tag k="name" v="Gryte" />
		<tag k="place" v="farm" />
		<tag k="ssr:stedsnr" v="574979" />
	</node>
	<node id="-206754" lat="59.6474694473" lon="10.212399994">
		<tag k="name" v="Klevjer" />
		<tag k="place" v="farm" />
		<tag k="ssr:stedsnr" v="574977" />
	</node>
	<node id="-206753" lat="59.6477638924" lon="10.2385555519">
		<tag k="name" v="Kjeldås vestre" />
		<tag k="place" v="farm" />
		<tag k="ssr:stedsnr" v="574975" />
	</node>
	<node id="-206752" lat="59.6390916679" lon="10.2101416661">
		<tag k="name" v="Bjørge nordre" />
		<tag k="place" v="farm" />
		<tag k="ssr:stedsnr" v="574972" />
	</node>
	<node id="-206751" lat="59.6377722232" lon="10.2116416641">
		<tag k="name" v="Bjørge søndre" />
		<tag k="place" v="farm" />
		<tag k="ssr:stedsnr" v="574970" />
	</node>
	<node id="-206750" lat="59.6082444416" lon="10.2346500019">
		<tag k="name" v="Gran søndre" />
		<tag k="place" v="farm" />
		<tag k="ssr:stedsnr" v="574960" />
	</node>
	<node id="-206748" lat="59.6093250011" lon="10.1948694516">
		<tag k="name" v="Åkerud" />
		<tag k="place" v="farm" />
		<tag k="ssr:stedsnr" v="574918" />
	</node>
	<node id="-206747" lat="59.5470388927" lon="10.2954722311">
		<tag k="fixme" v="consider place=suburb, village or hamlet" />
		<tag k="name" v="Langdokk" />
		<tag k="place" v="quarter" />
		<tag k="ssr:stedsnr" v="574853" />
	</node>
	<node id="-206744" lat="59.5469666633" lon="10.2131999926">
		<tag k="name" v="Søndre Veseterstulen" />
		<tag k="place" v="isolated_dwelling" />
		<tag k="ssr:stedsnr" v="574797" />
	</node>
	<node id="-206740" lat="59.6123222203" lon="10.0891333351">
		<tag k="name" v="Skjørdalsseter" />
		<tag k="place" v="isolated_dwelling" />
		<tag k="ssr:stedsnr" v="574751" />
	</node>
	<node id="-206736" lat="59.6307444438" lon="10.2122638916">
		<tag k="name" v="Bølum nordre" />
		<tag k="place" v="farm" />
		<tag k="ssr:stedsnr" v="574658" />
	</node>
	<node id="-206735" lat="59.6206555557" lon="10.2067777809">
		<tag k="name" v="Ruud søndre" />
		<tag k="place" v="farm" />
		<tag k="ssr:stedsnr" v="574648" />
	</node>
	<node id="-206731" lat="59.5929222181" lon="10.2379111102">
		<tag k="alt_name" v="Øvre Rud" />
		<tag k="name" v="Rud østre" />
		<tag k="place" v="farm" />
		<tag k="ssr:stedsnr" v="574602" />
	</node>
	<node id="-206730" lat="59.5878111146" lon="10.1758166637">
		<tag k="name" v="Solli" />
		<tag k="place" v="farm" />
		<tag k="ssr:stedsnr" v="574597" />
	</node>
	<node id="-206729" lat="59.5874666633" lon="10.1920833411">
		<tag k="name" v="Tangen" />
		<tag k="place" v="locality" />
		<tag k="ssr:stedsnr" v="574596" />
	</node>
	<node id="-206727" lat="59.5517888858" lon="10.3264583327">
		<tag k="name" v="Kvisle" />
		<tag k="place" v="farm" />
		<tag k="ssr:stedsnr" v="574249" />
	</node>
	<node id="-206718" lat="59.5408694462" lon="10.3593416618">
		<tag k="name" v="Flåbekk" />
		<tag k="old_name" v="Flåbekka" />
		<tag k="place" v="farm" />
		<tag k="ssr:stedsnr" v="574031" />
	</node>
	<node id="-206716" lat="59.6111277796" lon="10.2009111156">
		<tag k="name" v="Løvald" />
		<tag k="place" v="farm" />
		<tag k="ssr:stedsnr" v="573905" />
	</node>
	<node id="-206715" lat="59.6111750037" lon="10.1871083316">
		<tag k="name" v="Bolstad nordre" />
		<tag k="place" v="farm" />
		<tag k="ssr:stedsnr" v="573887" />
	</node>
	<node id="-206713" lat="59.6286388868" lon="10.2361416614">
		<tag k="name" v="Lærum nordre" />
		<tag k="place" v="farm" />
		<tag k="ssr:stedsnr" v="573616" />
	</node>
	<node id="-206705" lat="59.6187250019" lon="10.1467888947">
		<tag k="name" v="Solbergsetra" />
		<tag k="place" v="isolated_dwelling" />
		<tag k="ssr:stedsnr" v="550083" />
	</node>
	<node id="-206702" lat="59.6486249959" lon="10.2314111046">
		<tag k="name" v="Gutu" />
		<tag k="place" v="farm" />
		<tag k="ssr:stedsnr" v="549147" />
	</node>
	<node id="-206700" lat="59.6057499997" lon="10.20177223">
		<tag k="name" v="Veierud" />
		<tag k="place" v="farm" />
		<tag k="ssr:stedsnr" v="549127" />
	</node>
	<node id="-206698" lat="59.6308249987" lon="10.2574805592">
		<tag k="name" v="Roligheta" />
		<tag k="place" v="farm" />
		<tag k="ssr:stedsnr" v="549097" />
	</node>
	<node id="-206696" lat="59.5915027783" lon="10.2481305586">
		<tag k="name" v="Rud" />
		<tag k="place" v="farm" />
		<tag k="ssr:stedsnr" v="549028" />
	</node>
	<node id="-206695" lat="59.5901500038" lon="10.2493916666">
		<tag k="name" v="Skafjell" />
		<tag k="place" v="farm" />
		<tag k="ssr:stedsnr" v="549029" />
	</node>
	<node id="-206689" lat="59.6493111152" lon="10.239652779">
		<tag k="name" v="Repper-Kjeldås" />
		<tag k="place" v="farm" />
		<tag k="ssr:stedsnr" v="513970" />
	</node>
	<node id="-206688" lat="59.6495694429" lon="10.2617638942">
		<tag k="name" v="Bråtan" />
		<tag k="place" v="farm" />
		<tag k="ssr:stedsnr" v="513969" />
	</node>
	<node id="-206687" lat="59.6406750036" lon="10.2077750004">
		<tag k="name" v="Gåserud" />
		<tag k="place" v="farm" />
		<tag k="ssr:stedsnr" v="513958" />
	</node>
	<node id="-206686" lat="59.6035999996" lon="10.2291611097">
		<tag k="name" v="Gran søndre" />
		<tag k="place" v="farm" />
		<tag k="ssr:stedsnr" v="513946" />
	</node>
	<node id="-206684" lat="59.6650888925" lon="10.1989027841">
		<tag k="name" v="Trolsrud søndre" />
		<tag k="place" v="farm" />
		<tag k="ssr:stedsnr" v="513940" />
	</node>
	<node id="-206679" lat="59.6414222245" lon="10.0979555518">
		<tag k="historic" v="shieling" />
		<tag k="name" v="Gallebergsetra" />
		<tag k="place" v="locality" />
		<tag k="ssr:stedsnr" v="513753" />
	</node>
	<node id="-206676" lat="59.6224055536" lon="10.223238891">
		<tag k="name" v="Galleberg" />
		<tag k="place" v="farm" />
		<tag k="ssr:stedsnr" v="513658" />
	</node>
	<node id="-206675" lat="59.6178611075" lon="10.1946944501">
		<tag k="name" v="Ås vestre" />
		<tag k="place" v="farm" />
		<tag k="ssr:stedsnr" v="513655" />
	</node>
	<node id="-206674" lat="59.62398611" lon="10.2052777743">
		<tag k="name" v="Ryggtangen nordre" />
		<tag k="place" v="farm" />
		<tag k="ssr:stedsnr" v="513648" />
	</node>
	<node id="-206673" lat="59.6209472243" lon="10.1989944456">
		<tag k="name" v="Konstad" />
		<tag k="place" v="farm" />
		<tag k="ssr:stedsnr" v="513645" />
	</node>
	<node id="-206672" lat="59.6359611104" lon="10.2044305584">
		<tag k="name" v="Brekke" />
		<tag k="place" v="farm" />
		<tag k="ssr:stedsnr" v="513642" />
	</node>
	<node id="-206668" lat="59.5594805529" lon="10.2155333358">
		<tag k="name" v="Hagen" />
		<tag k="place" v="isolated_dwelling" />
		<tag k="ssr:stedsnr" v="513630" />
	</node>
	<node id="-206666" lat="59.5718194458" lon="10.2143944429">
		<tag k="name" v="Flåtastøa" />
		<tag k="place" v="locality" />
		<tag k="ssr:stedsnr" v="513619" />
	</node>
	<node id="-206665" lat="59.5746027785" lon="10.2207416624">
		<tag k="name" v="Bakken" />
		<tag k="place" v="farm" />
		<tag k="ssr:stedsnr" v="513605" />
	</node>
	<node id="-206664" lat="59.5936861105" lon="10.2075722249">
		<tag k="amenity" v="townhall" />
		<tag k="name" v="Sande rådhus" />
		<tag k="ssr:stedsnr" v="513579" />
	</node>
	<node id="-206654" lat="59.6322861141" lon="10.2928583255">
		<tag k="name" v="Østre Kølabonn" />
		<tag k="place" v="isolated_dwelling" />
		<tag k="ssr:stedsnr" v="513213" />
	</node>
	<node id="-206642" lat="59.5439083294" lon="10.3136666652">
		<tag k="name" v="Sando vestre" />
		<tag k="place" v="farm" />
		<tag k="ssr:stedsnr" v="513049" />
	</node>
	<node id="-206640" lat="59.535030553" lon="10.351802784">
		<tag k="name" v="Mørkassel vestre" />
		<tag k="place" v="farm" />
		<tag k="ssr:stedsnr" v="513019" />
	</node>
	<node id="-206634" lat="59.6677388928" lon="10.2303722179">
		<tag k="name" v="Jonsrud" />
		<tag k="place" v="farm" />
		<tag k="ssr:stedsnr" v="488195" />
	</node>
	<node id="-206631" lat="59.6597777744" lon="10.2115333256">
		<tag k="alt_name" v="Flåten søndre" />
		<tag k="name" v="Flåtan" />
		<tag k="place" v="farm" />
		<tag k="ssr:stedsnr" v="488140" />
	</node>
	<node id="-206630" lat="59.664277781" lon="10.19186667">
		<tag k="name" v="Solli" />
		<tag k="place" v="farm" />
		<tag k="ssr:stedsnr" v="488138" />
	</node>
	<node id="-206629" lat="59.6661416629" lon="10.2518444363">
		<tag k="name" v="Trogstad" />
		<tag k="place" v="farm" />
		<tag k="ssr:stedsnr" v="488129" />
	</node>
	<node id="-206628" lat="59.6634500042" lon="10.2624305637">
		<tag k="name" v="Rød" />
		<tag k="place" v="farm" />
		<tag k="ssr:stedsnr" v="488120" />
	</node>
	<node id="-206627" lat="59.5976555545" lon="10.146813886">
		<tag k="name" v="Skjørdal" />
		<tag k="place" v="farm" />
		<tag k="ssr:stedsnr" v="488090" />
	</node>
	<node id="-206625" lat="59.589727775" lon="10.1760500049">
		<tag k="alt_name" v="Bonden øvre" />
		<tag k="name" v="Bondi" />
		<tag k="place" v="farm" />
		<tag k="ssr:stedsnr" v="488028" />
	</node>
	<node id="-206624" lat="59.5798083329" lon="10.2235499946">
		<tag k="name" v="Glypnes" />
		<tag k="place" v="farm" />
		<tag k="ssr:stedsnr" v="488002" />
	</node>
	<node id="-206623" lat="59.5522138927" lon="10.23536111">
		<tag k="name" v="Skjervik" />
		<tag k="place" v="farm" />
		<tag k="ssr:stedsnr" v="485836" />
	</node>
	<node id="-206622" lat="59.5836111103" lon="10.2237638911">
		<tag k="name" v="Ekebo" />
		<tag k="place" v="isolated_dwelling" />
		<tag k="ssr:stedsnr" v="481860" />
	</node>
	<node id="-206619" lat="59.6001027796" lon="10.2433333302">
		<tag k="name" v="Veberg østre" />
		<tag k="place" v="farm" />
		<tag k="ssr:stedsnr" v="453934" />
	</node>
	<node id="-206616" lat="59.6660583326" lon="10.201547226">
		<tag k="name" v="Granstad" />
		<tag k="place" v="farm" />
		<tag k="ssr:stedsnr" v="453926" />
	</node>
	<node id="-206610" lat="59.5411249994" lon="10.2486805595">
		<tag k="name" v="Ødegården" />
		<tag k="place" v="farm" />
		<tag k="ssr:stedsnr" v="453777" />
	</node>
	<node id="-206598" lat="59.6189472209" lon="10.2128888889">
		<tag k="name" v="Resningstad" />
		<tag k="place" v="isolated_dwelling" />
		<tag k="ssr:stedsnr" v="453648" />
	</node>
	<node id="-206597" lat="59.6203555526" lon="10.2363694384">
		<tag k="name" v="Lærum østre" />
		<tag k="place" v="farm" />
		<tag k="ssr:stedsnr" v="453645" />
	</node>
	<node id="-206587" lat="59.5744416685" lon="10.1904888895">
		<tag k="name" v="Granheim" />
		<tag k="place" v="farm" />
		<tag k="ssr:stedsnr" v="453583" />
	</node>
	<node id="-206581" lat="59.5742833326" lon="10.2750861194">
		<tag k="name" v="Mikkelsbråten" />
		<tag k="place" v="farm" />
		<tag k="ssr:stedsnr" v="453281" />
	</node>
	<node id="-206564" lat="59.5625388912" lon="10.1876916738">
		<tag k="name" v="Stokkestua" />
		<tag k="place" v="isolated_dwelling" />
		<tag k="ssr:stedsnr" v="449339" />
	</node>
	<node id="-206562" lat="59.548974996" lon="10.2130249939">
		<tag k="alt_name" v="Vessetra" />
		<tag k="name" v="Vesetra" />
		<tag k="place" v="locality" />
		<tag k="ssr:stedsnr" v="428923" />
	</node>
	<node id="-206561" lat="59.640152779" lon="10.2463027756">
		<tag k="name" v="Bjerke" />
		<tag k="place" v="farm" />
		<tag k="ssr:stedsnr" v="428134" />
	</node>
	<node id="-206560" lat="59.6648555597" lon="10.14278889">
		<tag k="name" v="Gutudalsstua" />
		<tag k="place" v="isolated_dwelling" />
		<tag k="ssr:stedsnr" v="428130" />
	</node>
	<node id="-206559" lat="59.6622805589" lon="10.250033341">
		<tag k="alt_name" v="Østren" />
		<tag k="name" v="Østri" />
		<tag k="place" v="farm" />
		<tag k="ssr:stedsnr" v="428125" />
	</node>
	<node id="-206557" lat="59.5700861105" lon="10.2035527847">
		<tag k="alt_name" v="Stokke nordre" />
		<tag k="name" v="Stokke" />
		<tag k="place" v="farm" />
		<tag k="ssr:stedsnr" v="428055" />
	</node>
	<node id="-206556" lat="59.5586111078" lon="10.3022833316">
		<tag k="name" v="Bruserud" />
		<tag k="place" v="farm" />
		<tag k="ssr:stedsnr" v="428041" />
	</node>
	<node id="-206555" lat="59.5905111083" lon="10.2201638821">
		<tag k="alt_name" v="Bø nordre" />
		<tag k="name" v="Bø" />
		<tag k="place" v="farm" />
		<tag k="ssr:stedsnr" v="428019" />
	</node>
	<node id="-206553" lat="59.5751777757" lon="10.2439861058">
		<tag k="alt_name" v="Lersbryggen" />
		<tag k="name" v="Lersbrygga" />
		<tag k="place" v="farm" />
		<tag k="ssr:stedsnr" v="427056" />
	</node>
	<node id="-206552" lat="59.5749638905" lon="10.2257500044">
		<tag k="name" v="Nes" />
		<tag k="place" v="isolated_dwelling" />
		<tag k="ssr:stedsnr" v="427053" />
	</node>
	<node id="-206551" lat="59.5665916674" lon="10.2870138877">
		<tag k="alt_name" v="Syverud" />
		<tag k="name" v="Sjulerud" />
		<tag k="place" v="farm" />
		<tag k="ssr:stedsnr" v="427051" />
	</node>
	<node id="-206550" lat="59.5440416695" lon="10.2467722309">
		<tag k="name" v="Skjervik" />
		<tag k="place" v="farm" />
		<tag k="ssr:stedsnr" v="424836" />
	</node>
	<node id="-206549" lat="59.5836111103" lon="10.2237638911">
		<tag k="alt_name" v="Ekeli" />
		<tag k="name" v="Eikeli" />
		<tag k="place" v="farm" />
		<tag k="ssr:stedsnr" v="421868" />
	</node>
	<node id="-206548" lat="59.644544447" lon="10.2033888936">
		<tag k="name" v="Klevjer" />
		<tag k="place" v="farm" />
		<tag k="ssr:stedsnr" v="267345" />
	</node>
	<node id="-206547" lat="59.6484833307" lon="10.2036888865">
		<tag k="name" v="Toppenhaug" />
		<tag k="place" v="farm" />
		<tag k="ssr:stedsnr" v="267346" />
	</node>
	<node id="-206543" lat="59.6325500021" lon="10.2395111135">
		<tag k="alt_name" v="Lærum mellom" />
		<tag k="name" v="Lærum" />
		<tag k="place" v="farm" />
		<tag k="ssr:stedsnr" v="246164" />
	</node>
	<node id="-206540" lat="59.6058750026" lon="10.2396444459">
		<tag k="alt_name" v="Veberg nordre" />
		<tag k="name" v="Veberg" />
		<tag k="place" v="farm" />
		<tag k="ssr:stedsnr" v="246119" />
	</node>
	<node id="-206539" lat="59.6089750019" lon="10.2437999979">
		<tag k="name" v="Aunes" />
		<tag k="place" v="farm" />
		<tag k="ssr:stedsnr" v="246116" />
	</node>
	<node id="-206537" lat="59.6092916703" lon="10.1766472225">
		<tag k="name" v="Solberg" />
		<tag k="place" v="farm" />
		<tag k="ssr:stedsnr" v="246111" />
	</node>
	<node id="-206536" lat="59.5976611104" lon="10.2874750002">
		<tag k="alt_name" v="Sjølsetra" />
		<tag k="name" v="Skjølsetra" />
		<tag k="place" v="isolated_dwelling" />
		<tag k="ssr:stedsnr" v="246100" />
	</node>
	<node id="-206535" lat="59.6008004111" lon="10.1724310429">
		<tag k="alt_name" v="Verdal, øvre;Vardal nordre" />
		<tag k="name" v="Øvre Verdal" />
		<tag k="place" v="farm" />
		<tag k="ssr:stedsnr" v="246097" />
	</node>
	<node id="-206534" lat="59.5994361105" lon="10.1938583391">
		<tag k="alt_name" v="Tandberg" />
		<tag k="name" v="Tannberg" />
		<tag k="place" v="farm" />
		<tag k="ssr:stedsnr" v="246096" />
	</node>
	<node id="-206533" lat="59.6257888848" lon="10.0771888822">
		<tag k="name" v="Kabretta" />
		<tag k="place" v="isolated_dwelling" />
		<tag k="ssr:stedsnr" v="246095" />
	</node>
	<node id="-206532" lat="59.6282166703" lon="10.230875001">
		<tag k="alt_name" v="Foss bruk" />
		<tag k="building" v="industrial" />
		<tag k="industrial" v="factory" />
		<tag k="name" v="Foss mølle" />
		<tag k="ssr:stedsnr" v="246083" />
	</node>
	<node id="-206528" lat="59.572388887" lon="10.2604722134">
		<tag k="name" v="Bjørndalen" />
		<tag k="place" v="farm" />
		<tag k="ssr:stedsnr" v="245048" />
	</node>
	<node id="-206527" lat="59.5468805544" lon="10.2445944508">
		<tag k="name" v="Skjervik" />
		<tag k="place" v="farm" />
		<tag k="ssr:stedsnr" v="242832" />
	</node>
	<node id="-206526" lat="59.5447333374" lon="10.2457722241">
		<tag k="name" v="Skjervik" />
		<tag k="place" v="farm" />
		<tag k="ssr:stedsnr" v="242830" />
	</node>
	<node id="-206525" lat="59.6114500044" lon="10.2248805524">
		<tag k="name" v="Rud" />
		<tag k="place" v="hamlet" />
		<tag k="ssr:stedsnr" v="237256" />
	</node>
	<node id="-206522" lat="59.6564027743" lon="10.2173111174">
		<tag k="name" v="Flåten søndre" />
		<tag k="place" v="farm" />
		<tag k="ssr:stedsnr" v="210974" />
	</node>
	<node id="-206517" lat="59.6661999965" lon="10.2306722157">
		<tag k="name" v="Jonsrud" />
		<tag k="place" v="farm" />
		<tag k="ssr:stedsnr" v="210931" />
	</node>
	<node id="-206512" lat="59.6059694459" lon="10.2004777727">
		<tag k="name" v="Ås vestre" />
		<tag k="place" v="farm" />
		<tag k="ssr:stedsnr" v="210920" />
	</node>
	<node id="-206511" lat="59.602308331" lon="10.2105777704">
		<tag k="name" v="Ås østre" />
		<tag k="place" v="farm" />
		<tag k="ssr:stedsnr" v="210913" />
	</node>
	<node id="-206505" lat="59.6329055586" lon="10.2348611038">
		<tag k="name" v="Røllesgruvene" />
		<tag k="place" v="quarter" />
		<tag k="ssr:stedsnr" v="210660" />
	</node>
	<node id="-206503" lat="59.6165805538" lon="10.1959361187">
		<tag k="name" v="Børstad" />
		<tag k="place" v="farm" />
		<tag k="ssr:stedsnr" v="210639" />
	</node>
	<node id="-206500" lat="59.5657916653" lon="10.2610388939">
		<tag k="name" v="Solhaug" />
		<tag k="place" v="farm" />
		<tag k="ssr:stedsnr" v="210610" />
	</node>
	<node id="-206499" lat="59.5724555554" lon="10.2598111101">
		<tag k="name" v="Bjørnstad" />
		<tag k="place" v="farm" />
		<tag k="ssr:stedsnr" v="210603" />
	</node>
	<node id="-206497" lat="59.5731027759" lon="10.2597305544">
		<tag k="name" v="Bjørnstad" />
		<tag k="place" v="farm" />
		<tag k="ssr:stedsnr" v="210588" />
	</node>
	<node id="-206491" lat="59.5636999971" lon="10.2722861053">
		<tag k="alt_name" v="Selvik søndre" />
		<tag k="name" v="Søndre Selvik" />
		<tag k="place" v="farm" />
		<tag k="ssr:stedsnr" v="210266" />
	</node>
	<node id="-206487" lat="59.6323166693" lon="10.2925638901">
		<tag k="name" v="Vestre Kølabonn" />
		<tag k="place" v="isolated_dwelling" />
		<tag k="ssr:stedsnr" v="210232" />
	</node>
	<node id="-206479" lat="59.5452361082" lon="10.3089861103">
		<tag k="name" v="Grindvollen" />
		<tag k="place" v="farm" />
		<tag k="ssr:stedsnr" v="210046" />
	</node>
	<node id="-206469" lat="59.6440437093" lon="10.2151103158">
		<tag k="alt_name" v="Jahren" />
		<tag k="name" v="Jaren" />
		<tag k="place" v="farm" />
		<tag k="ssr:stedsnr" v="185145" />
	</node>
	<node id="-206468" lat="59.6686277806" lon="10.2473249985">
		<tag k="name" v="Tuft" />
		<tag k="place" v="farm" />
		<tag k="ssr:stedsnr" v="185135" />
	</node>
	<node id="-206467" lat="59.6002611128" lon="10.2203388952">
		<tag k="name" v="Gran" />
		<tag k="place" v="farm" />
		<tag k="ssr:stedsnr" v="185093" />
	</node>
	<node id="-206466" lat="59.5973277739" lon="10.1492638825">
		<tag k="alt_name" v="Skjørdal" />
		<tag k="name" v="Skogskroken" />
		<tag k="place" v="farm" />
		<tag k="ssr:stedsnr" v="185088" />
	</node>
	<node id="-206461" lat="59.605261113" lon="10.232852775">
		<tag k="name" v="Gran" />
		<tag k="place" v="farm" />
		<tag k="ssr:stedsnr" v="185114" />
	</node>
	<node id="-206460" lat="59.5797277801" lon="10.2303083344">
		<tag k="name" v="Hersgården" />
		<tag k="place" v="farm" />
		<tag k="ssr:stedsnr" v="185004" />
	</node>
	<node id="-206458" lat="59.6499500046" lon="10.2092277705">
		<tag k="name" v="Klevjerhagen" />
		<tag k="place" v="quarter" />
		<tag k="ssr:stedsnr" v="149968" />
	</node>
	<node id="-206457" lat="59.6398111111" lon="10.242474999">
		<tag k="name" v="Bjerke" />
		<tag k="place" v="isolated_dwelling" />
		<tag k="ssr:stedsnr" v="149960" />
	</node>
	<node id="-206455" lat="59.6049222199" lon="10.2359999987">
		<tag k="name" v="Innlaget" />
		<tag k="place" v="farm" />
		<tag k="ssr:stedsnr" v="149948" />
	</node>
	<node id="-206451" lat="59.6607111076" lon="10.2027972183">
		<tag k="name" v="Tennungen" />
		<tag k="place" v="farm" />
		<tag k="ssr:stedsnr" v="149936" />
	</node>
	<node id="-206442" lat="59.6049972222" lon="10.138444446">
		<tag k="name" v="Øvre Kaldmo" />
		<tag k="place" v="farm" />
		<tag k="ssr:stedsnr" v="149732" />
	</node>
	<node id="-206436" lat="59.6306638908" lon="10.2364638856">
		<tag k="name" v="Lærum nordre" />
		<tag k="place" v="farm" />
		<tag k="ssr:stedsnr" v="149640" />
	</node>
	<node id="-206435" lat="59.6201555511" lon="10.1971111093">
		<tag k="name" v="Tollerud" />
		<tag k="place" v="farm" />
		<tag k="ssr:stedsnr" v="149621" />
	</node>
	<node id="-206434" lat="59.6229416643" lon="10.2000194388">
		<tag k="name" v="Langerud" />
		<tag k="place" v="farm" />
		<tag k="ssr:stedsnr" v="149616" />
	</node>
	<node id="-206433" lat="59.554752775" lon="10.2317944494">
		<tag k="name" v="Holm" />
		<tag k="place" v="farm" />
		<tag k="ssr:stedsnr" v="149606" />
	</node>
	<node id="-206431" lat="59.5665583375" lon="10.261975003">
		<tag k="name" v="Bekkevold" />
		<tag k="place" v="farm" />
		<tag k="ssr:stedsnr" v="149596" />
	</node>
	<node id="-206428" lat="59.5899083316" lon="10.2199027803">
		<tag k="name" v="Bø søndre" />
		<tag k="place" v="farm" />
		<tag k="ssr:stedsnr" v="149560" />
	</node>
	<node id="-206414" lat="59.5532249955" lon="10.2911861116">
		<tag k="name" v="Øgården" />
		<tag k="place" v="farm" />
		<tag k="ssr:stedsnr" v="149084" />
	</node>
	<node id="-206406" lat="59.5755333312" lon="10.2593916745">
		<tag k="name" v="Bjørnstadfeltet" />
		<tag k="place" v="quarter" />
		<tag k="ssr:stedsnr" v="141751" />
	</node>
	<node id="-206404" lat="59.6398000003" lon="10.0700638865">
		<tag k="name" v="Presteseter" />
		<tag k="place" v="isolated_dwelling" />
		<tag k="ssr:stedsnr" v="125182" />
	</node>
	<node id="-206403" lat="59.6428750028" lon="10.2592111026">
		<tag k="name" v="Åsen" />
		<tag k="place" v="farm" />
		<tag k="ssr:stedsnr" v="125171" />
	</node>
	<node id="-206400" lat="59.6098944451" lon="10.2229249972">
		<tag k="name" v="Søndre Rud" />
		<tag k="place" v="farm" />
		<tag k="ssr:stedsnr" v="125074" />
	</node>
	<node id="-206399" lat="59.6155749962" lon="10.2033111128">
		<tag k="name" v="Ånnerud" />
		<tag k="place" v="farm" />
		<tag k="ssr:stedsnr" v="125069" />
	</node>
	<node id="-206397" lat="59.5434555566" lon="10.3275555543">
		<tag k="name" v="Skar" />
		<tag k="place" v="farm" />
		<tag k="ssr:stedsnr" v="124917" />
	</node>
	<node id="-206396" lat="59.5522999973" lon="10.2991722284">
		<tag k="alt_name" v="Bekke søndre" />
		<tag k="name" v="Bekke" />
		<tag k="place" v="farm" />
		<tag k="ssr:stedsnr" v="124901" />
	</node>
	<node id="-206392" lat="59.6435750036" lon="10.1435750035">
		<tag k="name" v="Kopstadseter" />
		<tag k="place" v="isolated_dwelling" />
		<tag k="ssr:stedsnr" v="124162" />
	</node>
	<node id="-206391" lat="59.6421527742" lon="10.2061083369">
		<tag k="name" v="Gåserud" />
		<tag k="place" v="farm" />
		<tag k="ssr:stedsnr" v="124161" />
	</node>
	<node id="-206390" lat="59.6519333309" lon="10.2604361172">
		<tag k="name" v="Fagerli" />
		<tag k="place" v="farm" />
		<tag k="ssr:stedsnr" v="124159" />
	</node>
	<node id="-206389" lat="59.6450666646" lon="10.2326472304">
		<tag k="alt_name" v="Kløvstad" />
		<tag k="name" v="Kløvestad" />
		<tag k="place" v="farm" />
		<tag k="ssr:stedsnr" v="124148" />
	</node>
	<node id="-206386" lat="59.6530250026" lon="10.2147861161">
		<tag k="name" v="Øye" />
		<tag k="place" v="farm" />
		<tag k="ssr:stedsnr" v="124117" />
	</node>
	<node id="-206385" lat="59.6564499997" lon="10.2500000079">
		<tag k="alt_name" v="Rinden" />
		<tag k="name" v="Rien" />
		<tag k="place" v="farm" />
		<tag k="ssr:stedsnr" v="124114" />
	</node>
	<node id="-206383" lat="59.6066611122" lon="10.2031888942">
		<tag k="alt_name" v="Ås østre" />
		<tag k="name" v="Ås" />
		<tag k="place" v="farm" />
		<tag k="ssr:stedsnr" v="124103" />
	</node>
	<node id="-206382" lat="59.5957499976" lon="10.251747224">
		<tag k="name" v="Dalen" />
		<tag k="place" v="farm" />
		<tag k="ssr:stedsnr" v="124098" />
	</node>
	<node id="-206381" lat="59.6013416682" lon="10.1542111093">
		<tag k="name" v="Skau" />
		<tag k="place" v="farm" />
		<tag k="ssr:stedsnr" v="124094" />
	</node>
	<node id="-206380" lat="59.5743055557" lon="10.2749722236">
		<tag k="name" v="Solberg" />
		<tag k="place" v="farm" />
		<tag k="ssr:stedsnr" v="124055" />
	</node>
	<node id="-206379" lat="59.56353889" lon="10.3317277706">
		<tag k="alt_name" v="Warberg-Teigen" />
		<tag k="name" v="Varbergteigen" />
		<tag k="place" v="farm" />
		<tag k="ssr:stedsnr" v="124035" />
	</node>
	<node id="-206377" lat="59.5920277769" lon="10.1916555525">
		<tag k="alt_name" v="Dye" />
		<tag k="name" v="Dyet" />
		<tag k="place" v="farm" />
		<tag k="ssr:stedsnr" v="124023" />
	</node>
	<node id="-206376" lat="59.5820249994" lon="10.276947226">
		<tag k="name" v="Torget" />
		<tag k="place" v="isolated_dwelling" />
		<tag k="ssr:stedsnr" v="124006" />
	</node>
	<node id="-206374" lat="59.6192138916" lon="10.2099527791">
		<tag k="name" v="Ruud nordre" />
		<tag k="place" v="farm" />
		<tag k="ssr:stedsnr" v="116238" />
	</node>
	<node id="-206370" lat="59.6477722214" lon="10.2582472237">
		<tag k="name" v="Lialøkka" />
		<tag k="place" v="farm" />
		<tag k="ssr:stedsnr" v="89962" />
	</node>
	<node id="-206369" lat="59.6382305554" lon="10.2381416608">
		<tag k="name" v="Eikeberg" />
		<tag k="place" v="farm" />
		<tag k="ssr:stedsnr" v="89961" />
	</node>
	<node id="-206368" lat="59.6021111127" lon="10.2346750068">
		<tag k="name" v="Sjøl østre" />
		<tag k="place" v="farm" />
		<tag k="ssr:stedsnr" v="89936" />
	</node>
	<node id="-206360" lat="59.6145333335" lon="10.2015611113">
		<tag k="name" v="Granheim" />
		<tag k="place" v="farm" />
		<tag k="ssr:stedsnr" v="89909" />
	</node>
	<node id="-206359" lat="59.6133555571" lon="10.2043999958">
		<tag k="name" v="Dalsrud" />
		<tag k="place" v="locality" />
		<tag k="ssr:stedsnr" v="89907" />
	</node>
	<node id="-206357" lat="59.6341361145" lon="10.2611111155">
		<tag k="name" v="Lundeby" />
		<tag k="place" v="isolated_dwelling" />
		<tag k="ssr:stedsnr" v="89903" />
	</node>
	<node id="-206355" lat="59.6131999981" lon="10.1675027763">
		<tag k="name" v="Vestheim" />
		<tag k="place" v="farm" />
		<tag k="ssr:stedsnr" v="89900" />
	</node>
	<node id="-206354" lat="59.5463805586" lon="10.2329722147">
		<tag k="name" v="Haugen" />
		<tag k="place" v="farm" />
		<tag k="ssr:stedsnr" v="89827" />
	</node>
	<node id="-206348" lat="59.6410694461" lon="10.0885777849">
		<tag k="name" v="Hallerudseter" />
		<tag k="place" v="locality" />
		<tag k="ssr:stedsnr" v="89725" />
	</node>
	<node id="-206343" lat="59.6244944463" lon="10.2014055585">
		<tag k="name" v="Hallan" />
		<tag k="place" v="farm" />
		<tag k="ssr:stedsnr" v="89628" />
	</node>
	<node id="-206340" lat="59.5646138846" lon="10.2260361184">
		<tag k="name" v="Ve mellom" />
		<tag k="place" v="farm" />
		<tag k="ssr:stedsnr" v="89596" />
	</node>
	<node id="-206317" lat="59.6034138916" lon="10.1886250076">
		<tag k="name" v="Bolstad søndre" />
		<tag k="place" v="farm" />
		<tag k="ssr:stedsnr" v="88907" />
	</node>
	<node id="-206313" lat="59.570224996" lon="10.2002888888">
		<tag k="name" v="Stokke mellom" />
		<tag k="place" v="farm" />
		<tag k="ssr:stedsnr" v="85289" />
	</node>
	<node id="-206312" lat="59.6159999966" lon="10.2391861099">
		<tag k="name" v="Budderud" />
		<tag k="place" v="farm" />
		<tag k="ssr:stedsnr" v="65056" />
	</node>
	<node id="-206311" lat="59.6125249981" lon="10.2242277744">
		<tag k="alt_name" v="Rud, nordre;Ruud nordre" />
		<tag k="name" v="Nordre Rud" />
		<tag k="place" v="farm" />
		<tag k="ssr:stedsnr" v="65053" />
	</node>
	<node id="-206310" lat="59.6145305549" lon="10.2156500072">
		<tag k="name" v="Kopstad" />
		<tag k="place" v="farm" />
		<tag k="ssr:stedsnr" v="65052" />
	</node>
	<node id="-206309" lat="59.548691667" lon="10.2241527803">
		<tag k="name" v="Heia" />
		<tag k="place" v="isolated_dwelling" />
		<tag k="ssr:stedsnr" v="64929" />
	</node>
	<node id="-206308" lat="59.542363891" lon="10.3726527825">
		<tag k="name" v="Dyrdal" />
		<tag k="place" v="farm" />
		<tag k="ssr:stedsnr" v="64557" />
	</node>
	<node id="-206307" lat="59.5394666702" lon="10.3562527791">
		<tag k="name" v="Mørkassel" />
		<tag k="place" v="farm" />
		<tag k="ssr:stedsnr" v="64558" />
	</node>
	<node id="-206303" lat="59.6069305521" lon="10.1559972257">
		<tag k="name" v="Ødeskau" />
		<tag k="place" v="farm" />
		<tag k="ssr:stedsnr" v="64098" />
	</node>
	<node id="-206302" lat="59.6095250031" lon="10.1609722249">
		<tag k="alt_name" v="Rud vestre" />
		<tag k="name" v="Rud" />
		<tag k="place" v="farm" />
		<tag k="ssr:stedsnr" v="64097" />
	</node>
	<node id="-206301" lat="59.607555552" lon="10.2171000032">
		<tag k="name" v="Hallerud" />
		<tag k="place" v="farm" />
		<tag k="ssr:stedsnr" v="64095" />
	</node>
	<node id="-206298" lat="59.629849998" lon="10.1082472251">
		<tag k="name" v="Skogseterstulen" />
		<tag k="place" v="isolated_dwelling" />
		<tag k="ssr:stedsnr" v="64063" />
	</node>
	<node id="-206293" lat="59.6472111119" lon="10.2245972272">
		<tag k="name" v="Gutu" />
		<tag k="place" v="farm" />
		<tag k="ssr:stedsnr" v="28981" />
	</node>
	<node id="-206292" lat="59.6418361106" lon="10.2409638821">
		<tag k="name" v="Eikeberg" />
		<tag k="place" v="isolated_dwelling" />
		<tag k="ssr:stedsnr" v="28974" />
	</node>
	<node id="-206285" lat="59.5978111072" lon="10.2183361108">
		<tag k="name" v="Gran søndre" />
		<tag k="old_name" v="Løkka" />
		<tag k="place" v="farm" />
		<tag k="ssr:stedsnr" v="28923" />
	</node>
	<node id="-206284" lat="59.5951138915" lon="10.1733611102">
		<tag k="name" v="Vardal søndre" />
		<tag k="place" v="farm" />
		<tag k="ssr:stedsnr" v="28917" />
	</node>
	<node id="-206278" lat="59.6008805588" lon="10.238952778">
		<tag k="name" v="Veberg vestre" />
		<tag k="place" v="farm" />
		<tag k="ssr:stedsnr" v="28960" />
	</node>
	<node id="-206277" lat="59.6118333298" lon="10.2185444413">
		<tag k="name" v="Holsrud" />
		<tag k="place" v="farm" />
		<tag k="ssr:stedsnr" v="28956" />
	</node>
	<node id="-206272" lat="59.573325001" lon="10.1898638932">
		<tag k="name" v="Bråtan" />
		<tag k="place" v="isolated_dwelling" />
		<tag k="ssr:stedsnr" v="28581" />
	</node>
	<node id="-206271" lat="59.5803277792" lon="10.1906277747">
		<tag k="name" v="Teien østre" />
		<tag k="place" v="farm" />
		<tag k="ssr:stedsnr" v="28570" />
	</node>
	<node id="-206268" lat="59.5939500037" lon="10.1427416718">
		<tag k="name" v="Høybråten" />
		<tag k="place" v="farm" />
		<tag k="ssr:stedsnr" v="28669" />
	</node>
	<node id="-206266" lat="59.626213888" lon="10.2357944429">
		<tag k="name" v="Lærum mellom" />
		<tag k="place" v="farm" />
		<tag k="ssr:stedsnr" v="28656" />
	</node>
	<node id="-206261" lat="59.5551333339" lon="10.2262888808">
		<tag k="name" v="Holm" />
		<tag k="place" v="isolated_dwelling" />
		<tag k="ssr:stedsnr" v="28621" />
	</node>
	<node id="-206249" lat="59.5396388913" lon="10.3288944503">
		<tag k="name" v="Haslestad" />
		<tag k="place" v="farm" />
		<tag k="ssr:stedsnr" v="28053" />
	</node>
	<node id="-206240" lat="59.6189805585" lon="10.2772833394">
		<tag k="name" v="Lærumsetra" />
		<tag k="place" v="isolated_dwelling" />
		<tag k="ssr:stedsnr" v="4072" />
	</node>
	<node id="-206239" lat="59.6177388855" lon="10.2211499984">
		<tag k="name" v="Heimdal" />
		<tag k="place" v="farm" />
		<tag k="ssr:stedsnr" v="4068" />
	</node>
	<node id="-206235" lat="59.5364999971" lon="10.3351361142">
		<tag k="alt_name" v="Gyltesø" />
		<tag k="name" v="Gylteser" />
		<tag k="place" v="farm" />
		<tag k="ssr:stedsnr" v="3877" />
	</node>
	<node id="-206233" lat="59.6454749963" lon="10.1942527737">
		<tag k="name" v="Bråtan" />
		<tag k="place" v="isolated_dwelling" />
		<tag k="ssr:stedsnr" v="3159" />
	</node>
	<node id="-206232" lat="59.6547750028" lon="10.2033666602">
		<tag k="name" v="Grytebakke" />
		<tag k="place" v="farm" />
		<tag k="ssr:stedsnr" v="3121" />
	</node>
	<node id="-206231" lat="59.6036805587" lon="10.1480277794">
		<tag k="name" v="Kriken" />
		<tag k="place" v="farm" />
		<tag k="ssr:stedsnr" v="3112" />
	</node>
	<node id="-206227" lat="59.5604499976" lon="10.328438893">
		<tag k="name" v="Holtan" />
		<tag k="place" v="farm" />
		<tag k="ssr:stedsnr" v="3036" />
	</node>
	<node id="-206226" lat="59.5906611067" lon="10.2349055578">
		<tag k="alt_name" v="Simenstad nedre" />
		<tag k="name" v="Simenstad" />
		<tag k="place" v="farm" />
		<tag k="ssr:stedsnr" v="3030" />
	</node>
	<node id="-206225" lat="59.5836111103" lon="10.2237638911">
		<tag k="alt_name" v="Ekeli" />
		<tag k="name" v="Eikeli" />
		<tag k="place" v="farm" />
		<tag k="ssr:stedsnr" v="3003" />
	</node>
	<node id="-206224" lat="59.5783916662" lon="10.2163972139">
		<tag k="name" v="Gravningen" />
		<tag k="place" v="farm" />
		<tag k="ssr:stedsnr" v="3001" />
	</node>
	<node id="-206210" lat="59.659112255" lon="10.247888731">
		<tag k="name" v="Østren" />
		<tag k="place" v="farm" />
		<tag k="ssr:stedsnr" v="392972" />
	</node>
	<node id="-206209" lat="59.6512666662" lon="10.2141333391">
		<tag k="name" v="Gryte" />
		<tag k="place" v="farm" />
		<tag k="ssr:stedsnr" v="392969" />
	</node>
	<node id="-206208" lat="59.6491333362" lon="10.2527888843">
		<tag k="name" v="Solli" />
		<tag k="place" v="farm" />
		<tag k="ssr:stedsnr" v="392968" />
	</node>
	<node id="-206203" lat="59.6084944479" lon="10.20546667">
		<tag k="name" v="Lindås" />
		<tag k="place" v="farm" />
		<tag k="ssr:stedsnr" v="392931" />
	</node>
	<node id="-206200" lat="59.5995222191" lon="10.2122361062">
		<tag k="name" v="Gunnestad nordre" />
		<tag k="place" v="farm" />
		<tag k="ssr:stedsnr" v="392920" />
	</node>
	<node id="-206191" lat="59.6268194484" lon="10.2110805587">
		<tag k="name" v="Myre" />
		<tag k="place" v="farm" />
		<tag k="ssr:stedsnr" v="392687" />
	</node>
	<node id="-206190" lat="59.620505557" lon="10.22119166">
		<tag k="name" v="Galleberg" />
		<tag k="place" v="farm" />
		<tag k="ssr:stedsnr" v="392685" />
	</node>
	<node id="-206182" lat="59.5694166689" lon="10.2518416618">
		<tag k="name" v="Lersbryggen søndre" />
		<tag k="place" v="farm" />
		<tag k="ssr:stedsnr" v="392648" />
	</node>
	<node id="-206179" lat="59.5526222219" lon="10.2929027843">
		<tag k="name" v="Bekke mellom" />
		<tag k="place" v="farm" />
		<tag k="ssr:stedsnr" v="392262" />
	</node>
	<node id="-206178" lat="59.5536722203" lon="10.2837833354">
		<tag k="name" v="Ødegården" />
		<tag k="place" v="farm" />
		<tag k="ssr:stedsnr" v="392254" />
	</node>
	<node id="-206172" lat="59.5388744497" lon="10.3389742066">
		<tag k="name" v="Veberg" />
		<tag k="place" v="farm" />
		<tag k="ssr:stedsnr" v="392088" />
	</node>
	<node id="-206169" lat="59.5621805567" lon="10.2259583299">
		<tag k="name" v="Bergan" />
		<tag k="place" v="isolated_dwelling" />
		<tag k="ssr:stedsnr" v="388995" />
	</node>
	<node id="-206164" lat="59.6158194427" lon="10.1009444506">
		<tag k="historic" v="shieling" />
		<tag k="name" v="Kaldmosetra" />
		<tag k="place" v="locality" />
		<tag k="ssr:stedsnr" v="368093" />
	</node>
	<node id="-206163" lat="59.6202999995" lon="10.2366138814">
		<tag k="name" v="Ryggetangen" />
		<tag k="place" v="farm" />
		<tag k="ssr:stedsnr" v="368083" />
	</node>
	<node id="-206162" lat="59.5435138892" lon="10.3297000075">
		<tag k="alt_name" v="Rolvsengen" />
		<tag k="name" v="Rolsenga" />
		<tag k="place" v="farm" />
		<tag k="ssr:stedsnr" v="367917" />
	</node>
	<node id="-206161" lat="59.555524996" lon="10.322405562">
		<tag k="alt_name" v="Warberg" />
		<tag k="name" v="Varberg" />
		<tag k="place" v="farm" />
		<tag k="ssr:stedsnr" v="367907" />
	</node>
	<node id="-206160" lat="59.5481999979" lon="10.3265750031">
		<tag k="name" v="Skar" />
		<tag k="place" v="farm" />
		<tag k="ssr:stedsnr" v="367906" />
	</node>
	<node id="-206159" lat="59.6370138862" lon="10.2370499938">
		<tag k="name" v="Eikeberg" />
		<tag k="place" v="farm" />
		<tag k="ssr:stedsnr" v="367140" />
	</node>
	<node id="-206158" lat="59.6617388899" lon="10.2236750065">
		<tag k="name" v="Grimsrud" />
		<tag k="place" v="farm" />
		<tag k="ssr:stedsnr" v="367129" />
	</node>
	<node id="-206157" lat="59.5962583334" lon="10.2114083267">
		<tag k="alt_name" v="Gunnestad søndre" />
		<tag k="name" v="Gunnestad" />
		<tag k="place" v="farm" />
		<tag k="ssr:stedsnr" v="367087" />
	</node>
	<node id="-206155" lat="59.5621250032" lon="10.2128000016">
		<tag k="name" v="Oreberg" />
		<tag k="place" v="farm" />
		<tag k="ssr:stedsnr" v="367032" />
	</node>
	<node id="-206154" lat="59.5639777765" lon="10.2267833264">
		<tag k="alt_name" v="Ve søndre" />
		<tag k="name" v="Ve" />
		<tag k="place" v="farm" />
		<tag k="ssr:stedsnr" v="367030" />
	</node>
	<node id="-206145" lat="59.6691722257" lon="10.2511888832">
		<tag k="name" v="Trogstad" />
		<tag k="place" v="farm" />
		<tag k="ssr:stedsnr" v="331942" />
	</node>
	<node id="-206144" lat="59.6134416659" lon="10.1925555533">
		<tag k="name" v="Børstad" />
		<tag k="place" v="farm" />
		<tag k="ssr:stedsnr" v="331937" />
	</node>
	<node id="-206143" lat="59.5396472246" lon="10.3205749966">
		<tag k="name" v="Bustrand" />
		<tag k="place" v="farm" />
		<tag k="ssr:stedsnr" v="331832" />
	</node>
	<node id="-206135" lat="59.6228694406" lon="10.2368749936">
		<tag k="name" v="Lærum vestre" />
		<tag k="place" v="farm" />
		<tag k="ssr:stedsnr" v="331648" />
	</node>
	<node id="-206133" lat="59.6277416665" lon="10.2156166726">
		<tag k="amenity" v="school" />
		<tag k="name" v="Galleberg skole" />
		<tag k="ssr:stedsnr" v="331637" />
	</node>
	<node id="-206132" lat="59.6367416689" lon="10.2135000078">
		<tag k="name" v="Bjørge søndre" />
		<tag k="place" v="farm" />
		<tag k="ssr:stedsnr" v="331624" />
	</node>
	<node id="-206127" lat="59.554858334" lon="10.2290083375">
		<tag k="name" v="Solheim" />
		<tag k="place" v="farm" />
		<tag k="ssr:stedsnr" v="331602" />
	</node>
	<node id="-206124" lat="59.5674305596" lon="10.2292194462">
		<tag k="name" v="Åsnæs Bakken" />
		<tag k="place" v="farm" />
		<tag k="ssr:stedsnr" v="331585" />
	</node>
	<node id="-206122" lat="59.5928972178" lon="10.2296916681">
		<tag k="name" v="Simenstad øvre" />
		<tag k="place" v="farm" />
		<tag k="ssr:stedsnr" v="331559" />
	</node>
	<node id="-206105" lat="59.569111112" lon="10.1937361132">
		<tag k="historic" v="shieling" />
		<tag k="name" v="Dylleberg" />
		<tag k="place" v="locality" />
		<tag k="ssr:stedsnr" v="328338" />
	</node>
	<node id="-206103" lat="59.6227777776" lon="10.2191777838">
		<tag k="fixme" v="consider place=hamlet" />
		<tag k="name" v="Galleberg" />
		<tag k="place" v="village" />
		<tag k="ssr:stedsnr" v="327563" />
	</node>
	<node id="-206052" lat="59.6358888853" lon="10.2581138904">
		<tag k="name" v="Lundeby" />
		<tag k="place" v="farm" />
		<tag k="ssr:stedsnr" v="307180" />
	</node>
	<node id="-206050" lat="59.6505555571" lon="10.2048666584">
		<tag k="alt_name" v="Klevjer" />
		<tag k="name" v="Klever" />
		<tag k="place" v="farm" />
		<tag k="ssr:stedsnr" v="307144" />
	</node>
	<node id="-206047" lat="59.622255553" lon="10.2355861171">
		<tag k="alt_name" v="Lærum østre" />
		<tag k="name" v="Lærum" />
		<tag k="place" v="farm" />
		<tag k="ssr:stedsnr" v="307084" />
	</node>
	<node id="-206043" lat="59.6249749976" lon="10.3227416693">
		<tag k="name" v="Svartevasshytta" />
		<tag k="place" v="isolated_dwelling" />
		<tag k="ssr:stedsnr" v="307076" />
	</node>
	<node id="-206042" lat="59.5442250027" lon="10.2505916692">
		<tag k="alt_name" v="Øgården" />
		<tag k="name" v="Ødegården" />
		<tag k="place" v="farm" />
		<tag k="ssr:stedsnr" v="306933" />
	</node>
	<node id="-206041" lat="59.5491111143" lon="10.2393500056">
		<tag k="alt_name" v="Berg ytre" />
		<tag k="name" v="Berg" />
		<tag k="place" v="farm" />
		<tag k="ssr:stedsnr" v="306917" />
	</node>
	<node id="-206040" lat="59.5569000035" lon="10.2856361137">
		<tag k="name" v="Killingdalen" />
		<tag k="place" v="farm" />
		<tag k="ssr:stedsnr" v="306915" />
	</node>
	<node id="-206039" lat="59.5515888847" lon="10.2330388952">
		<tag k="fixme" v="consider place=hamlet" />
		<tag k="name" v="Skjervik" />
		<tag k="place" v="farm" />
		<tag k="ssr:stedsnr" v="306916" />
	</node>
	<node id="-206038" lat="59.5517777795" lon="10.3121416588">
		<tag k="alt_name" v="Bekke, store" />
		<tag k="name" v="Store Bekke" />
		<tag k="place" v="farm" />
		<tag k="ssr:stedsnr" v="306911" />
	</node>
	<node id="-206035" lat="59.6680388877" lon="10.1983333369">
		<tag k="alt_name" v="Trolsrud" />
		<tag k="name" v="Trollsrud" />
		<tag k="place" v="farm" />
		<tag k="ssr:stedsnr" v="306142" />
	</node>
	<node id="-206034" lat="59.6692611092" lon="10.2629749979">
		<tag k="alt_name" v="Tingelstad" />
		<tag k="name" v="Tingulstad" />
		<tag k="place" v="farm" />
		<tag k="ssr:stedsnr" v="306138" />
	</node>
	<node id="-206032" lat="59.5606888917" lon="10.2301250044">
		<tag k="name" v="Holm" />
		<tag k="place" v="farm" />
		<tag k="ssr:stedsnr" v="306046" />
	</node>
	<node id="-206027" lat="59.5434361149" lon="10.2479000055">
		<tag k="name" v="Skjervik" />
		<tag k="place" v="farm" />
		<tag k="ssr:stedsnr" v="303838" />
	</node>
	<node id="-206023" lat="59.6522861152" lon="10.2036388969">
		<tag k="name" v="Øvre Klevjer" />
		<tag k="place" v="farm" />
		<tag k="ssr:stedsnr" v="290321" />
	</node>
	<node id="-206020" lat="59.6549222235" lon="10.2280388963">
		<tag k="name" v="Bergsenga" />
		<tag k="place" v="farm" />
		<tag k="ssr:stedsnr" v="271975" />
	</node>
	<node id="-206019" lat="59.6489944444" lon="10.2585749951">
		<tag k="name" v="Lia" />
		<tag k="place" v="farm" />
		<tag k="ssr:stedsnr" v="271966" />
	</node>
	<node id="-206018" lat="59.647288891" lon="10.256022227">
		<tag k="name" v="Verket" />
		<tag k="place" v="farm" />
		<tag k="ssr:stedsnr" v="271965" />
	</node>
	<node id="-206017" lat="59.6111888918" lon="10.2329472159">
		<tag k="name" v="Fostvedt" />
		<tag k="place" v="farm" />
		<tag k="ssr:stedsnr" v="271952" />
	</node>
	<node id="-206014" lat="59.5987555601" lon="10.2001749915">
		<tag k="name" v="Underås" />
		<tag k="place" v="farm" />
		<tag k="ssr:stedsnr" v="271930" />
	</node>
	<node id="-206013" lat="59.6087388904" lon="10.1655277805">
		<tag k="name" v="Rud vestre" />
		<tag k="place" v="farm" />
		<tag k="ssr:stedsnr" v="271928" />
	</node>
	<node id="-206004" lat="59.6195972214" lon="10.2153138938">
		<tag k="name" v="Galleberg" />
		<tag k="place" v="farm" />
		<tag k="ssr:stedsnr" v="271685" />
	</node>
	<node id="-206002" lat="59.6343166705" lon="10.2107749978">
		<tag k="name" v="Bjørge nordre" />
		<tag k="place" v="farm" />
		<tag k="ssr:stedsnr" v="271675" />
	</node>
	<node id="-206001" lat="59.6316388873" lon="10.204497229">
		<tag k="name" v="Smalhagen" />
		<tag k="place" v="isolated_dwelling" />
		<tag k="ssr:stedsnr" v="271659" />
	</node>
	<node id="-205999" lat="59.5687833323" lon="10.2596861177">
		<tag k="name" v="Brekke" />
		<tag k="place" v="farm" />
		<tag k="ssr:stedsnr" v="271642" />
	</node>
	<node id="-205997" lat="59.5536027794" lon="10.2918944463">
		<tag k="name" v="Bekke vestre" />
		<tag k="place" v="farm" />
		<tag k="ssr:stedsnr" v="271270" />
	</node>
	<node id="-205994" lat="59.6299999977" lon="10.3197027692">
		<tag k="historic" v="shieling" />
		<tag k="name" v="Eikelundseter" />
		<tag k="place" v="locality" />
		<tag k="ssr:stedsnr" v="271232" />
	</node>
	<node id="-205991" lat="59.5411166693" lon="10.3559722254">
		<tag k="name" v="Flåbekk" />
		<tag k="place" v="farm" />
		<tag k="ssr:stedsnr" v="271093" />
	</node>
	<node id="-205990" lat="59.5353277748" lon="10.3277500012">
		<tag k="name" v="Gyltesø" />
		<tag k="place" v="farm" />
		<tag k="ssr:stedsnr" v="271057" />
	</node>
	<node id="-205986" lat="59.5322361154" lon="10.3715583299">
		<tag k="name" v="Sandviken" />
		<tag k="place" v="farm" />
		<tag k="ssr:stedsnr" v="271023" />
	</node>
	<node id="-207186" lat="59.545755552" lon="10.2448361099">
		<tag k="name" v="Skjervik" />
		<tag k="place" v="farm" />
		<tag k="ssr:stedsnr" v="970538" />
	</node>
	<node id="-207185" lat="59.5524249995" lon="10.2292666712">
		<tag k="name" v="Skjervik" />
		<tag k="place" v="farm" />
		<tag k="ssr:stedsnr" v="970535" />
	</node>
	<node id="-207184" lat="59.5230916675" lon="10.3330388887">
		<tag k="fixme" v="consider tourism=alpine_hut or tourism=chalet" />
		<tag k="name" v="Veslekillingen" />
		<tag k="ssr:stedsnr" v="967736" />
		<tag k="tourism" v="wilderness_hut" />
	</node>
	<node id="-207182" lat="59.6557805595" lon="10.2174749946">
		<tag k="name" v="Flåten søndre" />
		<tag k="place" v="farm" />
		<tag k="ssr:stedsnr" v="938972" />
	</node>
	<node id="-207180" lat="59.6474694402" lon="10.2173916698">
		<tag k="name" v="Gryte" />
		<tag k="place" v="farm" />
		<tag k="ssr:stedsnr" v="938968" />
	</node>
	<node id="-207176" lat="59.6647805575" lon="10.1997055514">
		<tag k="name" v="Askholtbakken" />
		<tag k="place" v="farm" />
		<tag k="ssr:stedsnr" v="938949" />
	</node>
	<node id="-207170" lat="59.6106222256" lon="10.2075611138">
		<tag k="name" v="Dalsrud" />
		<tag k="place" v="farm" />
		<tag k="ssr:stedsnr" v="938923" />
	</node>
	<node id="-207157" lat="59.6338444448" lon="10.1340527862">
		<tag k="historic" v="shieling" />
		<tag k="name" v="Åassetra" />
		<tag k="place" v="locality" />
		<tag k="ssr:stedsnr" v="938683" />
	</node>
	<node id="-207154" lat="59.61914722" lon="10.2474416637">
		<tag k="name" v="Lærum vestre" />
		<tag k="place" v="farm" />
		<tag k="ssr:stedsnr" v="938631" />
	</node>
	<node id="-207153" lat="59.6218305522" lon="10.2485305601">
		<tag k="name" v="Berglund" />
		<tag k="place" v="isolated_dwelling" />
		<tag k="ssr:stedsnr" v="938627" />
	</node>
	<node id="-207152" lat="59.6220472219" lon="10.2008555491">
		<tag k="name" v="Sandbråten" />
		<tag k="place" v="isolated_dwelling" />
		<tag k="ssr:stedsnr" v="938603" />
	</node>
	<node id="-207150" lat="59.5652083351" lon="10.2605055473">
		<tag k="name" v="Langeli" />
		<tag k="place" v="isolated_dwelling" />
		<tag k="ssr:stedsnr" v="938593" />
	</node>
	<node id="-207148" lat="59.5625916692" lon="10.2188250012">
		<tag k="name" v="Skogly" />
		<tag k="place" v="isolated_dwelling" />
		<tag k="ssr:stedsnr" v="938582" />
	</node>
	<node id="-207147" lat="59.5723666639" lon="10.2289027837">
		<tag k="name" v="Åsnæs" />
		<tag k="place" v="farm" />
		<tag k="ssr:stedsnr" v="938578" />
	</node>
	<node id="-207146" lat="59.5717444478" lon="10.2488333253">
		<tag k="name" v="Furulund" />
		<tag k="place" v="isolated_dwelling" />
		<tag k="ssr:stedsnr" v="938576" />
	</node>
	<node id="-207144" lat="59.573494446" lon="10.1917222293">
		<tag k="name" v="Solvang" />
		<tag k="place" v="farm" />
		<tag k="ssr:stedsnr" v="938554" />
	</node>
	<node id="-207141" lat="59.5679166679" lon="10.2834972248">
		<tag k="name" v="Syverud nedre" />
		<tag k="place" v="farm" />
		<tag k="ssr:stedsnr" v="938228" />
	</node>
	<node id="-207130" lat="59.537136112" lon="10.357063894">
		<tag k="name" v="Mørkassel østre" />
		<tag k="place" v="farm" />
		<tag k="ssr:stedsnr" v="938024" />
	</node>
	<node id="-207125" lat="59.6507249976" lon="10.2406250064">
		<tag k="alt_name" v="Kjeldås nordre" />
		<tag k="name" v="Kjeldås" />
		<tag k="place" v="farm" />
		<tag k="ssr:stedsnr" v="914190" />
	</node>
	<node id="-207123" lat="59.6292083346" lon="10.2256999932">
		<tag k="name" v="Bølum" />
		<tag k="place" v="farm" />
		<tag k="ssr:stedsnr" v="914095" />
	</node>
	<node id="-207121" lat="59.6131499969" lon="10.1678138813">
		<tag k="name" v="Fjøserud" />
		<tag k="place" v="farm" />
		<tag k="ssr:stedsnr" v="914083" />
	</node>
	<node id="-207119" lat="59.6128388923" lon="10.2349749982">
		<tag k="alt_name" v="Fosstvedt" />
		<tag k="name" v="Fosstvet" />
		<tag k="place" v="farm" />
		<tag k="ssr:stedsnr" v="914069" />
	</node>
	<node id="-207118" lat="59.6118361135" lon="10.2385000019">
		<tag k="alt_name" v="Hagen" />
		<tag k="name" v="Skjølshagan" />
		<tag k="place" v="farm" />
		<tag k="ssr:stedsnr" v="914067" />
	</node>
	<node id="-207117" lat="59.61148889" lon="10.1916277698">
		<tag k="name" v="Børstad" />
		<tag k="place" v="farm" />
		<tag k="ssr:stedsnr" v="914065" />
	</node>
	<node id="-207116" lat="59.6671250042" lon="10.2028527797">
		<tag k="name" v="Enga" />
		<tag k="place" v="farm" />
		<tag k="ssr:stedsnr" v="913217" />
	</node>
	<node id="-207114" lat="59.6396638906" lon="10.2092638854">
		<tag k="alt_name" v="Bjørge nordre" />
		<tag k="name" v="Bjørge" />
		<tag k="place" v="farm" />
		<tag k="ssr:stedsnr" v="913160" />
	</node>
	<node id="-207113" lat="59.648861114" lon="10.1433083379">
		<tag k="name" v="Ryggetangseter" />
		<tag k="place" v="isolated_dwelling" />
		<tag k="ssr:stedsnr" v="913140" />
	</node>
	<node id="-207112" lat="59.6543499962" lon="10.1417027838">
		<tag k="name" v="Bjørgeseter" />
		<tag k="place" v="isolated_dwelling" />
		<tag k="ssr:stedsnr" v="913138" />
	</node>
	<node id="-207110" lat="59.5941157462" lon="10.1787694837">
		<tag k="alt_name" v="Verdal, nedre;Vardal nedre" />
		<tag k="name" v="Nedre Verdal" />
		<tag k="place" v="farm" />
		<tag k="ssr:stedsnr" v="913095" />
	</node>
	<node id="-207109" lat="59.5728527791" lon="10.2298805565">
		<tag k="alt_name" v="Åsnæs" />
		<tag k="name" v="Åsnes" />
		<tag k="place" v="farm" />
		<tag k="ssr:stedsnr" v="913050" />
	</node>
	<node id="-207108" lat="59.586786112" lon="10.2080833272">
		<tag k="name" v="Sande" />
		<tag k="place" v="village" />
		<tag k="ssr:stedsnr" v="913019" />
	</node>
	<node id="-207106" lat="59.5490083377" lon="10.2437527754">
		<tag k="name" v="Skjervik" />
		<tag k="place" v="farm" />
		<tag k="ssr:stedsnr" v="910817" />
	</node>
	<node id="-207103" lat="59.5511638887" lon="10.324427781">
		<tag k="name" v="Kvisle" />
		<tag k="place" v="farm" />
		<tag k="ssr:stedsnr" v="913904" />
	</node>
	<node id="-207102" lat="59.6540222205" lon="10.2144750051">
		<tag k="name" v="Myrvolden" />
		<tag k="place" v="farm" />
		<tag k="ssr:stedsnr" v="878970" />
	</node>
	<node id="-207101" lat="59.6405237562" lon="10.219254839">
		<tag k="alt_name" v="Jahren" />
		<tag k="name" v="Jaren" />
		<tag k="place" v="farm" />
		<tag k="ssr:stedsnr" v="878961" />
	</node>
	<node id="-207100" lat="59.6584805561" lon="10.2399694507">
		<tag k="name" v="Berg" />
		<tag k="place" v="farm" />
		<tag k="ssr:stedsnr" v="878958" />
	</node>
	<node id="-207093" lat="59.6118972245" lon="10.1630500034">
		<tag k="name" v="Fjøserud" />
		<tag k="place" v="farm" />
		<tag k="ssr:stedsnr" v="877926" />
	</node>
	<node id="-207092" lat="59.6060777766" lon="10.1710555557">
		<tag k="name" v="Gilhus" />
		<tag k="place" v="farm" />
		<tag k="ssr:stedsnr" v="877914" />
	</node>
	<node id="-207091" lat="59.6158277737" lon="10.2151638964">
		<tag k="name" v="Kopstad" />
		<tag k="place" v="farm" />
		<tag k="ssr:stedsnr" v="877909" />
	</node>
	<node id="-207089" lat="59.5478722185" lon="10.2444555522">
		<tag k="name" v="Ronvik" />
		<tag k="place" v="isolated_dwelling" />
		<tag k="ssr:stedsnr" v="877777" />
	</node>
	<node id="-207086" lat="59.6038777775" lon="10.1454166589">
		<tag k="name" v="Vestskog" />
		<tag k="place" v="isolated_dwelling" />
		<tag k="ssr:stedsnr" v="877746" />
	</node>
	<node id="-207081" lat="59.6188222227" lon="10.2282249965">
		<tag k="name" v="Ryggetangen nordre" />
		<tag k="place" v="farm" />
		<tag k="ssr:stedsnr" v="877655" />
	</node>
	<node id="-207077" lat="59.5923944468" lon="10.1718666698">
		<tag k="name" v="Møllerløkka" />
		<tag k="place" v="isolated_dwelling" />
		<tag k="ssr:stedsnr" v="877568" />
	</node>
	<node id="-207073" lat="59.607125001" lon="10.2948444382">
		<tag k="name" v="Søthaugen" />
		<tag k="place" v="isolated_dwelling" />
		<tag k="ssr:stedsnr" v="877189" />
	</node>
	<node id="-207066" lat="59.5856249992" lon="10.223588888">
		<tag k="name" v="Dunihagen" />
		<tag k="place" v="quarter" />
		<tag k="ssr:stedsnr" v="870768" />
	</node>
	<node id="-207063" lat="59.6418027801" lon="10.2462805478">
		<tag k="name" v="Løvås" />
		<tag k="place" v="farm" />
		<tag k="ssr:stedsnr" v="853124" />
	</node>
	<node id="-207060" lat="59.6486750016" lon="10.2172750069">
		<tag k="name" v="Gryte" />
		<tag k="place" v="farm" />
		<tag k="ssr:stedsnr" v="853109" />
	</node>
	<node id="-207059" lat="59.6077805564" lon="10.2994361152">
		<tag k="name" v="Vebergsetra" />
		<tag k="place" v="isolated_dwelling" />
		<tag k="ssr:stedsnr" v="853091" />
	</node>
	<node id="-207058" lat="59.6050305586" lon="10.1907777866">
		<tag k="alt_name" v="Bolstad mellom" />
		<tag k="name" v="Bolstad" />
		<tag k="place" v="farm" />
		<tag k="ssr:stedsnr" v="853086" />
	</node>
	<node id="-207057" lat="59.5973277748" lon="10.1994888971">
		<tag k="name" v="Tømmerås" />
		<tag k="place" v="farm" />
		<tag k="ssr:stedsnr" v="853076" />
	</node>
	<node id="-207055" lat="59.5798361088" lon="10.2137027823">
		<tag k="alt_name" v="Revå søndre" />
		<tag k="name" v="Rævo" />
		<tag k="place" v="farm" />
		<tag k="ssr:stedsnr" v="853006" />
	</node>
	<node id="-207053" lat="59.651955558" lon="10.2693444478">
		<tag k="name" v="Lysdalen" />
		<tag k="place" v="farm" />
		<tag k="ssr:stedsnr" v="852181" />
	</node>
	<node id="-207051" lat="59.5664500017" lon="10.2600361063">
		<tag k="name" v="Selvik" />
		<tag k="place" v="village" />
		<tag k="ssr:stedsnr" v="852060" />
	</node>
	<node id="-207050" lat="59.5608250034" lon="10.209780559">
		<tag k="name" v="Orhus" />
		<tag k="place" v="farm" />
		<tag k="ssr:stedsnr" v="852045" />
	</node>
	<node id="-207048" lat="59.645161109" lon="10.2099916654">
		<tag k="name" v="Gåserud" />
		<tag k="place" v="farm" />
		<tag k="ssr:stedsnr" v="817973" />
	</node>
	<node id="-207046" lat="59.6143944422" lon="10.2484138868">
		<tag k="name" v="Borgengruvene" />
		<tag k="place" v="quarter" />
		<tag k="ssr:stedsnr" v="817950" />
	</node>
	<node id="-207045" lat="59.6647277761" lon="10.2117777812">
		<tag k="name" v="Flåten nordre" />
		<tag k="place" v="farm" />
		<tag k="ssr:stedsnr" v="817945" />
	</node>
	<node id="-207044" lat="59.6634444404" lon="10.2011666634">
		<tag k="name" v="Flåten nordre" />
		<tag k="place" v="farm" />
		<tag k="ssr:stedsnr" v="817944" />
	</node>
	<node id="-207043" lat="59.6256194435" lon="10.2522055624">
		<tag k="name" v="Fostvedtbråtan" />
		<tag k="place" v="farm" />
		<tag k="ssr:stedsnr" v="817937" />
	</node>
	<node id="-207037" lat="59.6274777734" lon="10.103163897">
		<tag k="name" v="Kjellbu" />
		<tag k="place" v="isolated_dwelling" />
		<tag k="ssr:stedsnr" v="817699" />
	</node>
	<node id="-207034" lat="59.6236083377" lon="10.2366777816">
		<tag k="name" v="Lærum vestre" />
		<tag k="place" v="farm" />
		<tag k="ssr:stedsnr" v="817639" />
	</node>
	<node id="-207032" lat="59.6230083339" lon="10.2185333414">
		<tag k="name" v="Galleberg" />
		<tag k="place" v="farm" />
		<tag k="ssr:stedsnr" v="817630" />
	</node>
	<node id="-207028" lat="59.566569449" lon="10.2588305497">
		<tag k="name" v="Solbakken" />
		<tag k="place" v="farm" />
		<tag k="ssr:stedsnr" v="817589" />
	</node>
	<node id="-207027" lat="59.5594472177" lon="10.2369333402">
		<tag k="name" v="Holm" />
		<tag k="place" v="farm" />
		<tag k="ssr:stedsnr" v="817587" />
	</node>
	<node id="-207026" lat="59.5619833336" lon="10.2230999939">
		<tag k="name" v="Ekelund" />
		<tag k="place" v="farm" />
		<tag k="ssr:stedsnr" v="817585" />
	</node>
	<node id="-207025" lat="59.5747777812" lon="10.249463894">
		<tag k="name" v="Lersbryggen øvre" />
		<tag k="place" v="farm" />
		<tag k="ssr:stedsnr" v="817566" />
	</node>
	<node id="-207022" lat="59.5761527733" lon="10.2618611194">
		<tag k="name" v="Løkka" />
		<tag k="place" v="farm" />
		<tag k="ssr:stedsnr" v="817558" />
	</node>
	<node id="-207021" lat="59.5910638851" lon="10.1773388917">
		<tag k="name" v="Bonden mellom" />
		<tag k="place" v="farm" />
		<tag k="ssr:stedsnr" v="817544" />
	</node>
	<node id="-207002" lat="59.542097225" lon="10.3091499925">
		<tag k="name" v="Grønsand" />
		<tag k="place" v="farm" />
		<tag k="ssr:stedsnr" v="817047" />
	</node>
	<node id="-206993" lat="59.5423611143" lon="10.3174333325">
		<tag k="alt_name" v="Sando østre" />
		<tag k="name" v="Sando" />
		<tag k="place" v="farm" />
		<tag k="ssr:stedsnr" v="792913" />
	</node>
	<node id="-206991" lat="59.6316611144" lon="10.2047249963">
		<tag k="name" v="Brekke" />
		<tag k="place" v="isolated_dwelling" />
		<tag k="ssr:stedsnr" v="792168" />
	</node>
	<node id="-206983" lat="59.5782999972" lon="10.1899055613">
		<tag k="alt_name" v="Teien vestre" />
		<tag k="name" v="Teigen" />
		<tag k="place" v="farm" />
		<tag k="ssr:stedsnr" v="792010" />
	</node>
	<node id="-206982" lat="59.5800916677" lon="10.2024861028">
		<tag k="name" v="Finstad" />
		<tag k="place" v="farm" />
		<tag k="ssr:stedsnr" v="792006" />
	</node>
	<node id="-206981" lat="59.5796777752" lon="10.1816194356">
		<tag k="name" v="Løvås" />
		<tag k="place" v="farm" />
		<tag k="ssr:stedsnr" v="792008" />
	</node>
	<node id="-206978" lat="59.545486108" lon="10.24866388">
		<tag k="name" v="Skjervik" />
		<tag k="place" v="farm" />
		<tag k="ssr:stedsnr" v="788843" />
	</node>
	<node id="-206975" lat="59.5508444419" lon="10.2367277689">
		<tag k="name" v="Skjervik" />
		<tag k="place" v="farm" />
		<tag k="ssr:stedsnr" v="770280" />
	</node>
	<node id="-206973" lat="59.658269444" lon="10.2123888927">
		<tag k="name" v="Flåten søndre" />
		<tag k="place" v="farm" />
		<tag k="ssr:stedsnr" v="756981" />
	</node>
	<node id="-206969" lat="59.6641333366" lon="10.2509972144">
		<tag k="name" v="Trogstad" />
		<tag k="place" v="farm" />
		<tag k="ssr:stedsnr" v="756941" />
	</node>
	<node id="-206967" lat="59.6001222228" lon="10.2003499947">
		<tag k="name" v="Nordheim" />
		<tag k="place" v="farm" />
		<tag k="ssr:stedsnr" v="756928" />
	</node>
	<node id="-206965" lat="59.604216669" lon="10.1894388893">
		<tag k="name" v="Bolstad søndre" />
		<tag k="place" v="farm" />
		<tag k="ssr:stedsnr" v="756926" />
	</node>
	<node id="-206964" lat="59.5961944447" lon="10.1946499967">
		<tag k="name" v="Tandberg" />
		<tag k="place" v="farm" />
		<tag k="ssr:stedsnr" v="756922" />
	</node>
	<node id="-206962" lat="59.5385305573" lon="10.2416194477">
		<tag k="name" v="Bringåkersetra" />
		<tag k="place" v="isolated_dwelling" />
		<tag k="ssr:stedsnr" v="756763" />
	</node>
	<node id="-206954" lat="59.635338886" lon="10.2315083306">
		<tag k="name" v="Rølles" />
		<tag k="place" v="farm" />
		<tag k="ssr:stedsnr" v="756668" />
	</node>
	<node id="-206953" lat="59.6294472206" lon="10.2130666675">
		<tag k="name" v="Bølum søndre" />
		<tag k="place" v="farm" />
		<tag k="ssr:stedsnr" v="756665" />
	</node>
	<node id="-206952" lat="59.6257166658" lon="10.2147999934">
		<tag k="name" v="Myre" />
		<tag k="place" v="isolated_dwelling" />
		<tag k="ssr:stedsnr" v="756664" />
	</node>
	<node id="-206951" lat="59.6174111153" lon="10.2178583247">
		<tag k="name" v="Heimdal lille" />
		<tag k="place" v="farm" />
		<tag k="ssr:stedsnr" v="756657" />
	</node>
	<node id="-206949" lat="59.6192388876" lon="10.2045583367">
		<tag k="name" v="Dillerud" />
		<tag k="place" v="farm" />
		<tag k="ssr:stedsnr" v="756650" />
	</node>
	<node id="-206948" lat="59.6162999973" lon="10.2003000081">
		<tag k="name" v="Stensrud søndre" />
		<tag k="place" v="farm" />
		<tag k="ssr:stedsnr" v="756649" />
	</node>
	<node id="-206946" lat="59.6276249959" lon="10.2049666721">
		<tag k="name" v="Heimdal" />
		<tag k="place" v="farm" />
		<tag k="ssr:stedsnr" v="756639" />
	</node>
	<node id="-206943" lat="59.5530833327" lon="10.2334944481">
		<tag k="name" v="Skjervik" />
		<tag k="place" v="farm" />
		<tag k="ssr:stedsnr" v="756627" />
	</node>
	<node id="-206941" lat="59.5653249989" lon="10.261580561">
		<tag k="name" v="Ørbekk" />
		<tag k="place" v="isolated_dwelling" />
		<tag k="ssr:stedsnr" v="756620" />
	</node>
	<node id="-206939" lat="59.564111115" lon="10.2312305611">
		<tag k="name" v="Ve søndre" />
		<tag k="place" v="farm" />
		<tag k="ssr:stedsnr" v="756609" />
	</node>
	<node id="-206933" lat="59.5864499978" lon="10.2895972169">
		<tag k="name" v="Kudalen" />
		<tag k="place" v="isolated_dwelling" />
		<tag k="ssr:stedsnr" v="756255" />
	</node>
	<node id="-206930" lat="59.5642138889" lon="10.3365444442">
		<tag k="historic" v="shieling" />
		<tag k="name" v="Kvislesetra" />
		<tag k="place" v="locality" />
		<tag k="ssr:stedsnr" v="756224" />
	</node>
	<node id="-206908" lat="59.6168750019" lon="10.2483638904">
		<tag k="alt_name" v="Borgen" />
		<tag k="name" v="Borga" />
		<tag k="place" v="farm" />
		<tag k="ssr:stedsnr" v="732080" />
	</node>
	<node id="-206907" lat="59.6172861114" lon="10.1983388968">
		<tag k="alt_name" v="Stensrud nordre" />
		<tag k="name" v="Stensrud" />
		<tag k="place" v="farm" />
		<tag k="ssr:stedsnr" v="732074" />
	</node>
	<node id="-206905" lat="59.6091916627" lon="10.1944361026">
		<tag k="name" v="Haugan" />
		<tag k="place" v="farm" />
		<tag k="ssr:stedsnr" v="731096" />
	</node>
	<node id="-206904" lat="59.6033138894" lon="10.1396888974">
		<tag k="fixme" v="consider place=hamlet" />
		<tag k="name" v="Kaldmo" />
		<tag k="place" v="farm" />
		<tag k="ssr:stedsnr" v="731089" />
	</node>
	<node id="-206903" lat="59.5987388887" lon="10.2295000011">
		<tag k="alt_name" v="Sjøl" />
		<tag k="name" v="Skjøl" />
		<tag k="place" v="farm" />
		<tag k="ssr:stedsnr" v="731084" />
	</node>
	<node id="-206902" lat="59.5945777805" lon="10.1555833321">
		<tag k="name" v="Bjerke" />
		<tag k="place" v="isolated_dwelling" />
		<tag k="ssr:stedsnr" v="731081" />
	</node>
	<node id="-206901" lat="59.5990027774" lon="10.2469916682">
		<tag k="alt_name" v="Veberg østre" />
		<tag k="name" v="Veberg" />
		<tag k="place" v="farm" />
		<tag k="ssr:stedsnr" v="731082" />
	</node>
	<node id="-206898" lat="59.5858555517" lon="10.205633333">
		<tag k="alt_name" v="Revå nordre" />
		<tag k="name" v="Rævo" />
		<tag k="place" v="farm" />
		<tag k="ssr:stedsnr" v="731014" />
	</node>
	<node id="-206892" lat="59.6541999993" lon="10.2242499961">
		<tag k="name" v="Holehaugen" />
		<tag k="place" v="farm" />
		<tag k="ssr:stedsnr" v="695972" />
	</node>
	<node id="-206891" lat="59.6536000045" lon="10.2336749965">
		<tag k="name" v="Berg" />
		<tag k="place" v="farm" />
		<tag k="ssr:stedsnr" v="695971" />
	</node>
	<node id="-206889" lat="59.6466194448" lon="10.2312555591">
		<tag k="name" v="Kløvstad" />
		<tag k="place" v="farm" />
		<tag k="ssr:stedsnr" v="695964" />
	</node>
	<node id="-206888" lat="59.6507444461" lon="10.234572221">
		<tag k="name" v="Kjeldås vestre" />
		<tag k="place" v="farm" />
		<tag k="ssr:stedsnr" v="695965" />
	</node>
	<node id="-206887" lat="59.6114722182" lon="10.211197226">
		<tag k="name" v="Åsheim" />
		<tag k="place" v="farm" />
		<tag k="ssr:stedsnr" v="695897" />
	</node>
	<node id="-206885" lat="59.5963972235" lon="10.1871277828">
		<tag k="name" v="Stubberud" />
		<tag k="place" v="farm" />
		<tag k="ssr:stedsnr" v="695889" />
	</node>
	<node id="-206881" lat="59.6262333343" lon="10.2007222243">
		<tag k="name" v="Ruud nordre" />
		<tag k="place" v="farm" />
		<tag k="ssr:stedsnr" v="695627" />
	</node>
	<node id="-206879" lat="59.5658805577" lon="10.2640027778">
		<tag k="name" v="Grønli" />
		<tag k="place" v="farm" />
		<tag k="ssr:stedsnr" v="695614" />
	</node>
	<node id="-206876" lat="59.5741499983" lon="10.1939083316">
		<tag k="name" v="Stokke nordre" />
		<tag k="place" v="farm" />
		<tag k="ssr:stedsnr" v="695571" />
	</node>
	<node id="-206872" lat="59.5925777796" lon="10.2080916635">
		<tag k="name" v="Prestegården" />
		<tag k="place" v="farm" />
		<tag k="ssr:stedsnr" v="695559" />
	</node>
	<node id="-206869" lat="59.5695500029" lon="10.2681916715">
		<tag k="name" v="Selvik øvre" />
		<tag k="place" v="farm" />
		<tag k="ssr:stedsnr" v="695254" />
	</node>
	<node id="-206863" lat="59.5992361141" lon="10.2254638815">
		<tag k="name" v="Sjøl vestre" />
		<tag k="place" v="farm" />
		<tag k="ssr:stedsnr" v="695938" />
	</node>
	<node id="-206859" lat="59.6612972216" lon="10.2098166632">
		<tag k="name" v="Flåten nordre" />
		<tag k="place" v="farm" />
		<tag k="ssr:stedsnr" v="695929" />
	</node>
	<node id="-206857" lat="59.6701111087" lon="10.248880564">
		<tag k="name" v="Tuft" />
		<tag k="place" v="farm" />
		<tag k="ssr:stedsnr" v="695921" />
	</node>
	<node id="-206852" lat="59.5487277763" lon="10.2982444418">
		<tag k="name" v="Bakke søndre" />
		<tag k="place" v="farm" />
		<tag k="ssr:stedsnr" v="695030" />
	</node>
</osm>
