<?xml version="1.0" encoding="UTF-8"?>
<osm version="0.6" generator="osmapis">
	<node id="256838316" lat="63.0845779" lon="7.6615851" version="6" timestamp="2022-08-08T05:44:04Z" changeset="124621575" uid="3497659" user="NKA">
		<tag k="name" v="Bremsnes" />
		<tag k="place" v="village" />
		<tag k="population" v="1024" />
		<tag k="population:date" v="2021-01-01" />
		<tag k="ref:ssb_tettsted" v="6352" />
		<tag k="source:population" v="SSB - befolkning i tettstedet" />
		<tag k="ssr:stedsnr" v="533997" />
	</node>
	<node id="256838317" lat="63.0527257" lon="7.6314975" version="4" timestamp="2022-08-08T05:44:04Z" changeset="124621575" uid="3497659" user="NKA">
		<tag k="alt_name" v="Averøy" />
		<tag k="name" v="Bruhagen" />
		<tag k="place" v="village" />
		<tag k="ssr:stedsnr" v="73580" />
	</node>
	<node id="256838318" lat="63.1120687" lon="7.6295434" version="3" timestamp="2022-08-08T05:44:04Z" changeset="124621575" uid="3497659" user="NKA">
		<tag k="name" v="Øksenvågen" />
		<tag k="place" v="hamlet" />
		<tag k="ssr:stedsnr" v="73706" />
	</node>
	<node id="256838321" lat="63.1059245" lon="7.5998602" version="7" timestamp="2022-08-08T05:44:04Z" changeset="124621575" uid="3497659" user="NKA">
		<tag k="name" v="Sveggen" />
		<tag k="place" v="village" />
		<tag k="population" v="289" />
		<tag k="population:date" v="2021-01-01" />
		<tag k="ref:ssb_tettsted" v="6354" />
		<tag k="source:population" v="SSB - befolkning i tettstedet" />
		<tag k="ssr:stedsnr" v="195695" />
	</node>
	<node id="256838322" lat="63.1028954" lon="7.64872" version="3" timestamp="2022-08-08T05:44:04Z" changeset="124621575" uid="3497659" user="NKA">
		<tag k="name" v="Futsetra" />
		<tag k="place" v="hamlet" />
		<tag k="ssr:stedsnr" v="195754" />
	</node>
	<node id="287061288" lat="63.0669921" lon="7.6485497" version="4" timestamp="2022-08-08T05:44:04Z" changeset="124621575" uid="3497659" user="NKA">
		<tag k="name" v="Røsand" />
		<tag k="place" v="hamlet" />
		<tag k="ssr:stedsnr" v="447893" />
	</node>
	<node id="503864083" lat="63.0309781" lon="7.4181968" version="2" timestamp="2022-08-08T05:44:04Z" changeset="124621575" uid="3497659" user="NKA">
		<tag k="name" v="Rangøya" />
		<tag k="place" v="hamlet" />
		<tag k="ssr:stedsnr" v="980773" />
	</node>
	<node id="503865569" lat="63.0137169" lon="7.4448732" version="5" timestamp="2022-08-08T05:44:04Z" changeset="124621575" uid="3497659" user="NKA">
		<tag k="name" v="Kårvåg" />
		<tag k="place" v="village" />
		<tag k="population" v="315" />
		<tag k="population:date" v="2021-01-01" />
		<tag k="ref:ssb_tettsted" v="6351" />
		<tag k="source:population" v="SSB - befolkning i tettstedet" />
		<tag k="ssr:stedsnr" v="255606" />
	</node>
	<node id="1311798088" lat="63.0297227" lon="7.4206235" version="2" timestamp="2022-08-08T05:44:04Z" changeset="124621575" uid="3497659" user="NKA">
		<tag k="name" v="Rangøynes" />
		<tag k="place" v="farm" />
		<tag k="ssr:stedsnr" v="776419" />
	</node>
	<node id="1398394485" lat="63.0036885" lon="7.7207946" version="2" timestamp="2022-08-08T05:44:04Z" changeset="124621575" uid="3497659" user="NKA">
		<tag k="name" v="Kvernes" />
		<tag k="place" v="hamlet" />
		<tag k="ssr:stedsnr" v="898874" />
	</node>
	<node id="3403248998" lat="63.0095667" lon="7.5615398" version="4" timestamp="2022-08-08T05:44:04Z" changeset="124621575" uid="3497659" user="NKA">
		<tag k="name" v="Ba" />
		<tag k="place" v="hamlet" />
		<tag k="ssr:stedsnr" v="497410" />
	</node>
	<node id="3403249033" lat="63.0107357" lon="7.5835064" version="4" timestamp="2022-08-08T05:44:04Z" changeset="124621575" uid="3497659" user="NKA">
		<tag k="name" v="Vebenstad" />
		<tag k="place" v="village" />
		<tag k="ssr:stedsnr" v="679392" />
	</node>
	<node id="3556940965" lat="63.0208993" lon="7.5168818" version="2" timestamp="2022-08-08T05:44:04Z" changeset="124621575" uid="3497659" user="NKA">
		<tag k="name" v="Hoset" />
		<tag k="place" v="hamlet" />
		<tag k="ssr:stedsnr" v="801601" />
	</node>
	<node id="3556941597" lat="63.0135213" lon="7.5394776" version="3" timestamp="2022-08-08T05:44:04Z" changeset="124621575" uid="3497659" user="NKA">
		<tag k="name" v="Hol" />
		<tag k="place" v="hamlet" />
		<tag k="ssr:stedsnr" v="376436" />
	</node>
	<node id="3599565898" lat="63.0039261" lon="7.6034456" version="2" timestamp="2022-08-08T05:44:04Z" changeset="124621575" uid="3497659" user="NKA">
		<tag k="name" v="Bjørshol" />
		<tag k="place" v="farm" />
		<tag k="ssr:stedsnr" v="315399" />
	</node>
	<node id="3599565899" lat="63.0000569" lon="7.5777399" version="2" timestamp="2022-08-08T05:44:04Z" changeset="124621575" uid="3497659" user="NKA">
		<tag k="name" v="Dyrset" />
		<tag k="place" v="hamlet" />
		<tag k="ssr:stedsnr" v="12376" />
	</node>
	<node id="3599565900" lat="62.9961522" lon="7.6327972" version="2" timestamp="2022-08-08T05:44:04Z" changeset="124621575" uid="3497659" user="NKA">
		<tag k="name" v="Nedal" />
		<tag k="place" v="hamlet" />
		<tag k="ssr:stedsnr" v="315900" />
	</node>
	<node id="3599565901" lat="62.994652" lon="7.6048443" version="2" timestamp="2022-08-08T05:44:04Z" changeset="124621575" uid="3497659" user="NKA">
		<tag k="name" v="Gulstad" />
		<tag k="place" v="hamlet" />
		<tag k="ssr:stedsnr" v="315902" />
	</node>
	<node id="5190618121" lat="62.9417954" lon="7.5179668" version="2" timestamp="2022-08-08T05:44:04Z" changeset="124621575" uid="3497659" user="NKA">
		<tag k="name" v="Rånes" />
		<tag k="place" v="hamlet" />
		<tag k="ssr:stedsnr" v="800499" />
	</node>
	<node id="9938552618" lat="62.949495" lon="7.5486374" version="1" timestamp="2022-08-08T05:44:04Z" changeset="124621575" uid="3497659" user="NKA">
		<tag k="name" v="Seljehaugen" />
		<tag k="place" v="farm" />
		<tag k="ssr:stedsnr" v="132503" />
	</node>
	<node id="9938552619" lat="62.963575" lon="7.5605112" version="1" timestamp="2022-08-08T05:44:04Z" changeset="124621575" uid="3497659" user="NKA">
		<tag k="historic" v="shieling" />
		<tag k="name" v="Avsetsetra" />
		<tag k="place" v="isolated_dwelling" />
		<tag k="ssr:stedsnr" v="72959" />
	</node>
	<node id="9938552620" lat="63.0270453" lon="7.5597793" version="1" timestamp="2022-08-08T05:44:04Z" changeset="124621575" uid="3497659" user="NKA">
		<tag k="alt_name" v="Sundet" />
		<tag k="name" v="Sund" />
		<tag k="place" v="farm" />
		<tag k="ssr:stedsnr" v="740602" />
	</node>
	<node id="9938552621" lat="62.9997916" lon="7.4146416" version="1" timestamp="2022-08-08T05:44:04Z" changeset="124621575" uid="3497659" user="NKA">
		<tag k="name" v="Kongshaug" />
		<tag k="place" v="farm" />
		<tag k="ssr:stedsnr" v="862407" />
	</node>
	<node id="9938552622" lat="62.9708304" lon="7.4428039" version="1" timestamp="2022-08-08T05:44:04Z" changeset="124621575" uid="3497659" user="NKA">
		<tag k="alt_name" v="Tungset nedre" />
		<tag k="name" v="Nedre Tungset" />
		<tag k="place" v="farm" />
		<tag k="ssr:stedsnr" v="47470" />
	</node>
	<node id="9938552623" lat="63.0618546" lon="7.4652477" version="1" timestamp="2022-08-08T05:44:04Z" changeset="124621575" uid="3497659" user="NKA">
		<tag k="name" v="Urdan" />
		<tag k="place" v="farm" />
		<tag k="ssr:stedsnr" v="718707" />
	</node>
	<node id="9938552624" lat="63.0698577" lon="7.5980449" version="1" timestamp="2022-08-08T05:44:04Z" changeset="124621575" uid="3497659" user="NKA">
		<tag k="name" v="Ekkilsøya" />
		<tag k="place" v="hamlet" />
		<tag k="ssr:stedsnr" v="655190" />
	</node>
	<node id="9938552625" lat="63.068897" lon="7.6595074" version="1" timestamp="2022-08-08T05:44:04Z" changeset="124621575" uid="3497659" user="NKA">
		<tag k="name" v="Raudsand" />
		<tag k="place" v="hamlet" />
		<tag k="ssr:stedsnr" v="376528" />
	</node>
	<node id="9938552626" lat="63.0672111" lon="7.6530473" version="1" timestamp="2022-08-08T05:44:04Z" changeset="124621575" uid="3497659" user="NKA">
		<tag k="name" v="Damma" />
		<tag k="old_name" v="Heimvang" />
		<tag k="place" v="isolated_dwelling" />
		<tag k="ssr:stedsnr" v="233186" />
	</node>
	<node id="9938552627" lat="62.9957223" lon="7.4689" version="1" timestamp="2022-08-08T05:44:04Z" changeset="124621575" uid="3497659" user="NKA">
		<tag k="alt_name" v="Folland" />
		<tag k="name" v="Øvergarden" />
		<tag k="place" v="farm" />
		<tag k="ssr:stedsnr" v="619912" />
	</node>
	<node id="9938552628" lat="62.9552473" lon="7.4916028" version="1" timestamp="2022-08-08T05:44:04Z" changeset="124621575" uid="3497659" user="NKA">
		<tag k="name" v="Pilhaugen" />
		<tag k="place" v="farm" />
		<tag k="ssr:stedsnr" v="232280" />
	</node>
	<node id="9938552629" lat="62.9460298" lon="7.497882" version="1" timestamp="2022-08-08T05:44:04Z" changeset="124621575" uid="3497659" user="NKA">
		<tag k="name" v="Litl-Rånes" />
		<tag k="place" v="farm" />
		<tag k="ssr:stedsnr" v="618505" />
	</node>
	<node id="9938552630" lat="63.0098111" lon="7.534858" version="1" timestamp="2022-08-08T05:44:04Z" changeset="124621575" uid="3497659" user="NKA">
		<tag k="name" v="Rishaugen" />
		<tag k="place" v="farm" />
		<tag k="ssr:stedsnr" v="255425" />
	</node>
	<node id="9938552631" lat="63.0872028" lon="7.6345751" version="1" timestamp="2022-08-08T05:44:04Z" changeset="124621575" uid="3497659" user="NKA">
		<tag k="name" v="Gjengstøa" />
		<tag k="place" v="farm" />
		<tag k="ssr:stedsnr" v="255750" />
	</node>
	<node id="9938552632" lat="63.1119111" lon="7.6101833" version="1" timestamp="2022-08-08T05:44:04Z" changeset="124621575" uid="3497659" user="NKA">
		<tag k="name" v="Sørheim" />
		<tag k="place" v="farm" />
		<tag k="ssr:stedsnr" v="255721" />
	</node>
	<node id="9938552633" lat="63.0373957" lon="7.408763" version="1" timestamp="2022-08-08T05:44:04Z" changeset="124621575" uid="3497659" user="NKA">
		<tag k="name" v="Ljøsøya" />
		<tag k="place" v="hamlet" />
		<tag k="ssr:stedsnr" v="506471" />
	</node>
	<node id="9938552634" lat="62.9989661" lon="7.6181546" version="1" timestamp="2022-08-08T05:44:04Z" changeset="124621575" uid="3497659" user="NKA">
		<tag k="name" v="Myrset" />
		<tag k="place" v="farm" />
		<tag k="ssr:stedsnr" v="437875" />
	</node>
	<node id="9938552635" lat="63.0499306" lon="7.4978418" version="1" timestamp="2022-08-08T05:44:04Z" changeset="124621575" uid="3497659" user="NKA">
		<tag k="name" v="Skardet" />
		<tag k="place" v="farm" />
		<tag k="ssr:stedsnr" v="558577" />
	</node>
	<node id="9938552636" lat="62.9570679" lon="7.4890609" version="1" timestamp="2022-08-08T05:44:04Z" changeset="124621575" uid="3497659" user="NKA">
		<tag k="name" v="Stein" />
		<tag k="place" v="farm" />
		<tag k="ssr:stedsnr" v="254972" />
	</node>
	<node id="9938552637" lat="62.9629639" lon="7.5558083" version="1" timestamp="2022-08-08T05:44:04Z" changeset="124621575" uid="3497659" user="NKA">
		<tag k="historic" v="shieling" />
		<tag k="name" v="Morkasetra" />
		<tag k="place" v="isolated_dwelling" />
		<tag k="ssr:stedsnr" v="557958" />
	</node>
	<node id="9938552638" lat="63.0110271" lon="7.5368239" version="1" timestamp="2022-08-08T05:44:04Z" changeset="124621575" uid="3497659" user="NKA">
		<tag k="name" v="Larsstua" />
		<tag k="place" v="farm" />
		<tag k="ssr:stedsnr" v="472210" />
	</node>
	<node id="9938552639" lat="63.0237309" lon="7.590585" version="1" timestamp="2022-08-08T05:44:04Z" changeset="124621575" uid="3497659" user="NKA">
		<tag k="name" v="Åkran" />
		<tag k="place" v="farm" />
		<tag k="ssr:stedsnr" v="657463" />
	</node>
	<node id="9938552640" lat="63.0164742" lon="7.4330921" version="1" timestamp="2022-08-08T05:44:04Z" changeset="124621575" uid="3497659" user="NKA">
		<tag k="name" v="Roaldsøya" />
		<tag k="place" v="farm" />
		<tag k="ssr:stedsnr" v="980776" />
	</node>
	<node id="9938552641" lat="63.0177913" lon="7.4141809" version="1" timestamp="2022-08-08T05:44:04Z" changeset="124621575" uid="3497659" user="NKA">
		<tag k="name" v="Vågsholmen" />
		<tag k="place" v="farm" />
		<tag k="ssr:stedsnr" v="980777" />
	</node>
	<node id="9938552642" lat="63.0154234" lon="7.576634" version="1" timestamp="2022-08-08T05:44:04Z" changeset="124621575" uid="3497659" user="NKA">
		<tag k="name" v="Kalvøya" />
		<tag k="place" v="farm" />
		<tag k="ssr:stedsnr" v="980667" />
	</node>
	<node id="9938552643" lat="63.0202893" lon="7.4500601" version="1" timestamp="2022-08-08T05:44:04Z" changeset="124621575" uid="3497659" user="NKA">
		<tag k="name" v="Kalvøya" />
		<tag k="place" v="farm" />
		<tag k="ssr:stedsnr" v="980774" />
	</node>
	<node id="9938552644" lat="63.0583084" lon="7.5091028" version="1" timestamp="2022-08-08T05:44:04Z" changeset="124621575" uid="3497659" user="NKA">
		<tag k="name" v="Sørneset" />
		<tag k="place" v="farm" />
		<tag k="ssr:stedsnr" v="923553" />
	</node>
	<node id="9938552645" lat="62.9736417" lon="7.6238362" version="1" timestamp="2022-08-08T05:44:04Z" changeset="124621575" uid="3497659" user="NKA">
		<tag k="name" v="Myra" />
		<tag k="place" v="farm" />
		<tag k="ssr:stedsnr" v="922936" />
	</node>
	<node id="9938552646" lat="63.0032778" lon="7.6188112" version="1" timestamp="2022-08-08T05:44:04Z" changeset="124621575" uid="3497659" user="NKA">
		<tag k="historic" v="shieling" />
		<tag k="name" v="Bjørsholsetra" />
		<tag k="place" v="isolated_dwelling" />
		<tag k="ssr:stedsnr" v="898232" />
	</node>
	<node id="9938552647" lat="62.9417167" lon="7.5326167" version="1" timestamp="2022-08-08T05:44:04Z" changeset="124621575" uid="3497659" user="NKA">
		<tag k="name" v="Hagen" />
		<tag k="place" v="farm" />
		<tag k="ssr:stedsnr" v="921536" />
	</node>
	<node id="9938552648" lat="63.0003056" lon="7.45225" version="1" timestamp="2022-08-08T05:44:04Z" changeset="124621575" uid="3497659" user="NKA">
		<tag k="name" v="Sørheim" />
		<tag k="place" v="farm" />
		<tag k="ssr:stedsnr" v="437459" />
	</node>
	<node id="9938552649" lat="63.0216223" lon="7.5659112" version="1" timestamp="2022-08-08T05:44:04Z" changeset="124621575" uid="3497659" user="NKA">
		<tag k="name" v="Sandlykkja" />
		<tag k="place" v="farm" />
		<tag k="ssr:stedsnr" v="316661" />
	</node>
	<node id="9938552650" lat="63.0369925" lon="7.5483524" version="1" timestamp="2022-08-08T05:44:04Z" changeset="124621575" uid="3497659" user="NKA">
		<tag k="name" v="Søfstad" />
		<tag k="place" v="hamlet" />
		<tag k="ssr:stedsnr" v="316614" />
	</node>
	<node id="9938552651" lat="62.9857222" lon="7.6831084" version="1" timestamp="2022-08-08T05:44:04Z" changeset="124621575" uid="3497659" user="NKA">
		<tag k="name" v="Hagetun" />
		<tag k="place" v="farm" />
		<tag k="ssr:stedsnr" v="801926" />
	</node>
	<node id="9938552652" lat="63.0246236" lon="7.5970793" version="1" timestamp="2022-08-08T05:44:04Z" changeset="124621575" uid="3497659" user="NKA">
		<tag k="name" v="Sørvika" />
		<tag k="place" v="hamlet" />
		<tag k="ssr:stedsnr" v="801596" />
	</node>
	<node id="9938552653" lat="63.0573028" lon="7.4889334" version="1" timestamp="2022-08-08T05:44:04Z" changeset="124621575" uid="3497659" user="NKA">
		<tag k="name" v="Slettvågen" />
		<tag k="place" v="farm" />
		<tag k="ssr:stedsnr" v="801492" />
	</node>
	<node id="9938552654" lat="63.0061861" lon="7.4721028" version="1" timestamp="2022-08-08T05:44:04Z" changeset="124621575" uid="3497659" user="NKA">
		<tag k="name" v="Øygarden" />
		<tag k="place" v="farm" />
		<tag k="ssr:stedsnr" v="315410" />
	</node>
	<node id="9938552655" lat="63.0781003" lon="7.6044095" version="1" timestamp="2022-08-08T05:44:04Z" changeset="124621575" uid="3497659" user="NKA">
		<tag k="name" v="Solheim" />
		<tag k="place" v="farm" />
		<tag k="ssr:stedsnr" v="777842" />
	</node>
	<node id="9938552656" lat="63.1074139" lon="7.5944668" version="1" timestamp="2022-08-08T05:44:04Z" changeset="124621575" uid="3497659" user="NKA">
		<tag k="name" v="Sanden" />
		<tag k="place" v="farm" />
		<tag k="ssr:stedsnr" v="423861" />
	</node>
	<node id="9938552657" lat="63.0136139" lon="7.5446917" version="1" timestamp="2022-08-08T05:44:04Z" changeset="124621575" uid="3497659" user="NKA">
		<tag k="name" v="Bjerga" />
		<tag k="place" v="farm" />
		<tag k="ssr:stedsnr" v="533227" />
	</node>
	<node id="9938552658" lat="63.0777" lon="7.597164" version="1" timestamp="2022-08-08T05:44:04Z" changeset="124621575" uid="3497659" user="NKA">
		<tag k="name" v="Myra" />
		<tag k="place" v="farm" />
		<tag k="ssr:stedsnr" v="740717" />
	</node>
	<node id="9938552659" lat="63.0799723" lon="7.5929167" version="1" timestamp="2022-08-08T05:44:04Z" changeset="124621575" uid="3497659" user="NKA">
		<tag k="name" v="Ekkilsøymyra" />
		<tag k="place" v="farm" />
		<tag k="ssr:stedsnr" v="290773" />
	</node>
	<node id="9938552660" lat="63.1027463" lon="7.5774705" version="1" timestamp="2022-08-08T05:44:04Z" changeset="124621575" uid="3497659" user="NKA">
		<tag k="name" v="Røeggen" />
		<tag k="place" v="farm" />
		<tag k="ssr:stedsnr" v="290802" />
	</node>
	<node id="9938552661" lat="63.102" lon="7.5947307" version="1" timestamp="2022-08-08T05:44:04Z" changeset="124621575" uid="3497659" user="NKA">
		<tag k="name" v="Kronborg" />
		<tag k="place" v="farm" />
		<tag k="ssr:stedsnr" v="290810" />
	</node>
	<node id="9938552662" lat="63.0466871" lon="7.5786746" version="1" timestamp="2022-08-08T05:44:04Z" changeset="124621575" uid="3497659" user="NKA">
		<tag k="name" v="Hjelset" />
		<tag k="place" v="hamlet" />
		<tag k="ssr:stedsnr" v="679501" />
	</node>
	<node id="9938552663" lat="63.0119758" lon="7.5268088" version="1" timestamp="2022-08-08T05:44:04Z" changeset="124621575" uid="3497659" user="NKA">
		<tag k="name" v="Stormyra" />
		<tag k="place" v="farm" />
		<tag k="ssr:stedsnr" v="680666" />
	</node>
	<node id="9938552664" lat="63.0423461" lon="7.4837874" version="1" timestamp="2022-08-08T05:44:04Z" changeset="124621575" uid="3497659" user="NKA">
		<tag k="name" v="Breivika" />
		<tag k="place" v="farm" />
		<tag k="ssr:stedsnr" v="350370" />
	</node>
	<node id="9938552666" lat="63.0046831" lon="7.4658286" version="1" timestamp="2022-08-08T05:44:04Z" changeset="124621575" uid="3497659" user="NKA">
		<tag k="name" v="Tuva" />
		<tag k="place" v="farm" />
		<tag k="ssr:stedsnr" v="679398" />
	</node>
	<node id="9938552667" lat="63.0112" lon="7.4380498" version="1" timestamp="2022-08-08T05:44:04Z" changeset="124621575" uid="3497659" user="NKA">
		<tag k="name" v="Utheim" />
		<tag k="place" v="hamlet" />
		<tag k="ssr:stedsnr" v="350358" />
	</node>
	<node id="9938552668" lat="63.0041702" lon="7.4703544" version="1" timestamp="2022-08-08T05:44:04Z" changeset="124621575" uid="3497659" user="NKA">
		<tag k="name" v="Folland" />
		<tag k="place" v="hamlet" />
		<tag k="ssr:stedsnr" v="618419" />
	</node>
	<node id="9938552669" lat="62.9793334" lon="7.5581584" version="1" timestamp="2022-08-08T05:44:04Z" changeset="124621575" uid="3497659" user="NKA">
		<tag k="name" v="Svein Drykkjen" />
		<tag k="place" v="locality" />
		<tag k="ssr:stedsnr" v="619939" />
	</node>
	<node id="9938552670" lat="62.9464789" lon="7.5489836" version="1" timestamp="2022-08-08T05:44:04Z" changeset="124621575" uid="3497659" user="NKA">
		<tag k="alt_name" v="Fjæra" />
		<tag k="name" v="Fjøra" />
		<tag k="place" v="farm" />
		<tag k="ssr:stedsnr" v="496535" />
	</node>
	<node id="9938552671" lat="63.0439806" lon="7.5280448" version="1" timestamp="2022-08-08T05:44:04Z" changeset="124621575" uid="3497659" user="NKA">
		<tag k="name" v="Flatset" />
		<tag k="place" v="hamlet" />
		<tag k="ssr:stedsnr" v="619573" />
	</node>
	<node id="9938552672" lat="62.965367" lon="7.4536413" version="1" timestamp="2022-08-08T05:44:04Z" changeset="124621575" uid="3497659" user="NKA">
		<tag k="name" v="Kornstad" />
		<tag k="place" v="hamlet" />
		<tag k="ssr:stedsnr" v="557943" />
	</node>
	<node id="9938552673" lat="63.0010027" lon="7.4792279" version="1" timestamp="2022-08-08T05:44:04Z" changeset="124621575" uid="3497659" user="NKA">
		<tag k="name" v="Storhaug" />
		<tag k="place" v="farm" />
		<tag k="ssr:stedsnr" v="497418" />
	</node>
	<node id="9938552674" lat="63.0522027" lon="7.5023333" version="1" timestamp="2022-08-08T05:44:04Z" changeset="124621575" uid="3497659" user="NKA">
		<tag k="name" v="Rogen" />
		<tag k="place" v="farm" />
		<tag k="ssr:stedsnr" v="133508" />
	</node>
	<node id="9938552675" lat="63.0143168" lon="7.4694655" version="1" timestamp="2022-08-08T05:44:04Z" changeset="124621575" uid="3497659" user="NKA">
		<tag k="name" v="Kårvåg industriområde" />
		<tag k="place" v="neighbourhood" />
		<tag k="ssr:stedsnr" v="224435" />
	</node>
	<node id="9938552676" lat="63.0567818" lon="7.6339088" version="1" timestamp="2022-08-08T05:44:04Z" changeset="124621575" uid="3497659" user="NKA">
		<tag k="name" v="Straum" />
		<tag k="place" v="farm" />
		<tag k="ssr:stedsnr" v="437568" />
	</node>
	<node id="9938552677" lat="62.9562305" lon="7.5367805" version="1" timestamp="2022-08-08T05:44:04Z" changeset="124621575" uid="3497659" user="NKA">
		<tag k="name" v="Nordgard" />
		<tag k="place" v="farm" />
		<tag k="ssr:stedsnr" v="436994" />
	</node>
	<node id="9938552678" lat="62.9642695" lon="7.4986889" version="1" timestamp="2022-08-08T05:44:04Z" changeset="124621575" uid="3497659" user="NKA">
		<tag k="historic" v="shieling" />
		<tag k="name" v="Slatlemsetra" />
		<tag k="place" v="isolated_dwelling" />
		<tag k="ssr:stedsnr" v="436962" />
	</node>
	<node id="9938552679" lat="63.015825" lon="7.5329055" version="1" timestamp="2022-08-08T05:44:04Z" changeset="124621575" uid="3497659" user="NKA">
		<tag k="name" v="Langhaugan" />
		<tag k="place" v="farm" />
		<tag k="ssr:stedsnr" v="498641" />
	</node>
	<node id="9938552680" lat="63.07595" lon="7.598139" version="1" timestamp="2022-08-08T05:44:04Z" changeset="124621575" uid="3497659" user="NKA">
		<tag k="name" v="Åkvika" />
		<tag k="place" v="farm" />
		<tag k="ssr:stedsnr" v="437726" />
	</node>
	<node id="9938552681" lat="62.9731126" lon="7.4095448" version="1" timestamp="2022-08-08T05:44:04Z" changeset="124621575" uid="3497659" user="NKA">
		<tag k="name" v="Litl-Mork" />
		<tag k="place" v="farm" />
		<tag k="ssr:stedsnr" v="437931" />
	</node>
	<node id="9938552682" lat="63.0674266" lon="7.6433992" version="1" timestamp="2022-08-08T05:44:04Z" changeset="124621575" uid="3497659" user="NKA">
		<tag k="name" v="Skaret" />
		<tag k="place" v="isolated_dwelling" />
		<tag k="ssr:stedsnr" v="49862" />
	</node>
	<node id="9938552683" lat="63.0641027" lon="7.6313833" version="1" timestamp="2022-08-08T05:44:04Z" changeset="124621575" uid="3497659" user="NKA">
		<tag k="name" v="Mjølkneset" />
		<tag k="place" v="farm" />
		<tag k="ssr:stedsnr" v="741601" />
	</node>
	<node id="9938552684" lat="63.0749973" lon="7.642352" version="1" timestamp="2022-08-08T05:44:04Z" changeset="124621575" uid="3497659" user="NKA">
		<tag k="name" v="Gjøta" />
		<tag k="place" v="isolated_dwelling" />
		<tag k="ssr:stedsnr" v="595862" />
	</node>
	<node id="9938552685" lat="63.0058199" lon="7.7229115" version="1" timestamp="2022-08-08T05:44:04Z" changeset="124621575" uid="3497659" user="NKA">
		<tag k="name" v="Prestegardstunet" />
		<tag k="place" v="farm" />
		<tag k="ssr:stedsnr" v="982474" />
	</node>
	<node id="9938552686" lat="63.0726066" lon="7.4908112" version="1" timestamp="2022-08-08T05:44:04Z" changeset="124621575" uid="3497659" user="NKA">
		<tag k="name" v="Honningsøya" />
		<tag k="place" v="hamlet" />
		<tag k="ssr:stedsnr" v="980672" />
	</node>
	<node id="9938552687" lat="63.06285" lon="7.6497639" version="1" timestamp="2022-08-08T05:44:04Z" changeset="124621575" uid="3497659" user="NKA">
		<tag k="name" v="Hyllmyra" />
		<tag k="place" v="farm" />
		<tag k="ssr:stedsnr" v="801498" />
	</node>
	<node id="9938552688" lat="63.0006055" lon="7.4804946" version="1" timestamp="2022-08-08T05:44:04Z" changeset="124621575" uid="3497659" user="NKA">
		<tag k="alt_name" v="Folland, nedre;Negarden;Folland" />
		<tag k="name" v="Nedre Folland" />
		<tag k="place" v="farm" />
		<tag k="ssr:stedsnr" v="801880" />
	</node>
	<node id="9938552689" lat="63.0131611" lon="7.5382694" version="1" timestamp="2022-08-08T05:44:04Z" changeset="124621575" uid="3497659" user="NKA">
		<tag k="name" v="Knutstua" />
		<tag k="place" v="farm" />
		<tag k="ssr:stedsnr" v="715229" />
	</node>
	<node id="9938552690" lat="62.9711222" lon="7.6241528" version="1" timestamp="2022-08-08T05:44:04Z" changeset="124621575" uid="3497659" user="NKA">
		<tag k="name" v="Hosetvollen" />
		<tag k="place" v="farm" />
		<tag k="ssr:stedsnr" v="801948" />
	</node>
	<node id="9938552691" lat="62.9948139" lon="7.7091334" version="1" timestamp="2022-08-08T05:44:04Z" changeset="124621575" uid="3497659" user="NKA">
		<tag k="name" v="Eikrem" />
		<tag k="place" v="farm" />
		<tag k="ssr:stedsnr" v="680933" />
	</node>
	<node id="9938552692" lat="63.0152666" lon="7.5394305" version="1" timestamp="2022-08-08T05:44:04Z" changeset="124621575" uid="3497659" user="NKA">
		<tag k="name" v="Langhaugen" />
		<tag k="place" v="farm" />
		<tag k="ssr:stedsnr" v="715230" />
	</node>
	<node id="9938552693" lat="63.0489819" lon="7.628281" version="1" timestamp="2022-08-08T05:44:04Z" changeset="124621575" uid="3497659" user="NKA">
		<tag k="name" v="Ødegård" />
		<tag k="place" v="farm" />
		<tag k="ssr:stedsnr" v="693812" />
	</node>
	<node id="9938552694" lat="63.0133889" lon="7.4434363" version="1" timestamp="2022-08-08T05:44:04Z" changeset="124621575" uid="3497659" user="NKA">
		<tag k="name" v="Seljeset" />
		<tag k="place" v="farm" />
		<tag k="ssr:stedsnr" v="680647" />
	</node>
	<node id="9938552695" lat="63.0190217" lon="7.6768624" version="1" timestamp="2022-08-08T05:44:04Z" changeset="124621575" uid="3497659" user="NKA">
		<tag k="name" v="Setra" />
		<tag k="place" v="farm" />
		<tag k="ssr:stedsnr" v="618397" />
	</node>
	<node id="9938552696" lat="63.0506056" lon="7.5107029" version="1" timestamp="2022-08-08T05:44:04Z" changeset="124621575" uid="3497659" user="NKA">
		<tag k="name" v="Heimgarden" />
		<tag k="place" v="farm" />
		<tag k="ssr:stedsnr" v="593750" />
	</node>
	<node id="9938552697" lat="63.0043916" lon="7.4457334" version="1" timestamp="2022-08-08T05:44:04Z" changeset="124621575" uid="3497659" user="NKA">
		<tag k="name" v="Lauvland" />
		<tag k="place" v="farm" />
		<tag k="ssr:stedsnr" v="558461" />
	</node>
	<node id="9938552698" lat="63.0590778" lon="7.4971528" version="1" timestamp="2022-08-08T05:44:04Z" changeset="124621575" uid="3497659" user="NKA">
		<tag k="name" v="Krabbvågen" />
		<tag k="place" v="farm" />
		<tag k="ssr:stedsnr" v="558529" />
	</node>
	<node id="9938552699" lat="63.0658611" lon="7.6342278" version="1" timestamp="2022-08-08T05:44:04Z" changeset="124621575" uid="3497659" user="NKA">
		<tag k="name" v="Breivika" />
		<tag k="place" v="farm" />
		<tag k="ssr:stedsnr" v="498565" />
	</node>
	<node id="9938552700" lat="63.0310181" lon="7.6718294" version="1" timestamp="2022-08-08T05:44:04Z" changeset="124621575" uid="3497659" user="NKA">
		<tag k="name" v="Leitet" />
		<tag k="place" v="hamlet" />
		<tag k="ssr:stedsnr" v="498659" />
	</node>
	<node id="9938552701" lat="63.0909777" lon="7.6681278" version="1" timestamp="2022-08-08T05:44:04Z" changeset="124621575" uid="3497659" user="NKA">
		<tag k="name" v="Skogheim" />
		<tag k="place" v="farm" />
		<tag k="ssr:stedsnr" v="376749" />
	</node>
	<node id="9938552702" lat="63.0381278" lon="7.5410778" version="1" timestamp="2022-08-08T05:44:04Z" changeset="124621575" uid="3497659" user="NKA">
		<tag k="name" v="Storlykkja" />
		<tag k="place" v="farm" />
		<tag k="ssr:stedsnr" v="497562" />
	</node>
	<node id="9938552703" lat="62.9994319" lon="7.4784158" version="1" timestamp="2022-08-08T05:44:04Z" changeset="124621575" uid="3497659" user="NKA">
		<tag k="name" v="Folland" />
		<tag k="place" v="farm" />
		<tag k="ssr:stedsnr" v="980775" />
	</node>
	<node id="9938552704" lat="63.0428055" lon="7.6402528" version="1" timestamp="2022-08-08T05:44:04Z" changeset="124621575" uid="3497659" user="NKA">
		<tag k="name" v="Lia" />
		<tag k="place" v="farm" />
		<tag k="ssr:stedsnr" v="922553" />
	</node>
	<node id="9938552705" lat="63.0546654" lon="7.4353162" version="1" timestamp="2022-08-08T05:44:04Z" changeset="124621575" uid="3497659" user="NKA">
		<tag k="name" v="Hasløya" />
		<tag k="place" v="hamlet" />
		<tag k="ssr:stedsnr" v="255547" />
	</node>
	<node id="9938552706" lat="63.0210098" lon="7.6791223" version="1" timestamp="2022-08-08T05:44:04Z" changeset="124621575" uid="3497659" user="NKA">
		<tag k="name" v="Trettvika" />
		<tag k="place" v="farm" />
		<tag k="ssr:stedsnr" v="315396" />
	</node>
	<node id="9938552707" lat="63.0821944" lon="7.5888696" version="1" timestamp="2022-08-08T05:44:04Z" changeset="124621575" uid="3497659" user="NKA">
		<tag k="name" v="Setra" />
		<tag k="place" v="farm" />
		<tag k="ssr:stedsnr" v="255743" />
	</node>
	<node id="9938552708" lat="63.0109388" lon="7.5403668" version="1" timestamp="2022-08-08T05:44:04Z" changeset="124621575" uid="3497659" user="NKA">
		<tag k="name" v="Nergarden" />
		<tag k="place" v="farm" />
		<tag k="ssr:stedsnr" v="48194" />
	</node>
	<node id="9938552709" lat="63.0513482" lon="7.6403422" version="1" timestamp="2022-08-08T05:44:04Z" changeset="124621575" uid="3497659" user="NKA">
		<tag k="name" v="Djupmyra" />
		<tag k="place" v="farm" />
		<tag k="ssr:stedsnr" v="801555" />
	</node>
	<node id="9938552710" lat="63.0290437" lon="7.3940419" version="1" timestamp="2022-08-08T05:44:04Z" changeset="124621575" uid="3497659" user="NKA">
		<tag k="name" v="Håholmen" />
		<tag k="place" v="farm" />
		<tag k="ssr:stedsnr" v="980785" />
	</node>
	<node id="9938552711" lat="63.0011183" lon="7.3983731" version="1" timestamp="2022-08-08T05:44:04Z" changeset="124621575" uid="3497659" user="NKA">
		<tag k="name" v="Kippernes" />
		<tag k="place" v="farm" />
		<tag k="ssr:stedsnr" v="980782" />
	</node>
	<node id="9938552712" lat="63.0129389" lon="7.5471945" version="1" timestamp="2022-08-08T05:44:04Z" changeset="124621575" uid="3497659" user="NKA">
		<tag k="name" v="Trøa" />
		<tag k="place" v="farm" />
		<tag k="ssr:stedsnr" v="12602" />
	</node>
	<node id="9938552713" lat="63.0421139" lon="7.5342334" version="1" timestamp="2022-08-08T05:44:04Z" changeset="124621575" uid="3497659" user="NKA">
		<tag k="name" v="Vikan" />
		<tag k="place" v="farm" />
		<tag k="ssr:stedsnr" v="73562" />
	</node>
	<node id="9938552714" lat="63.0360139" lon="7.4328917" version="1" timestamp="2022-08-08T05:44:04Z" changeset="124621575" uid="3497659" user="NKA">
		<tag k="name" v="Hasløysetra" />
		<tag k="place" v="farm" />
		<tag k="ssr:stedsnr" v="12536" />
	</node>
	<node id="9938552715" lat="63.0311905" lon="7.4411236" version="1" timestamp="2022-08-08T05:44:04Z" changeset="124621575" uid="3497659" user="NKA">
		<tag k="name" v="Vågen" />
		<tag k="place" v="hamlet" />
		<tag k="ssr:stedsnr" v="862576" />
	</node>
	<node id="9938552716" lat="63.0660684" lon="7.5445799" version="1" timestamp="2022-08-08T05:44:04Z" changeset="124621575" uid="3497659" user="NKA">
		<tag k="name" v="Forøya" />
		<tag k="place" v="isolated_dwelling" />
		<tag k="ssr:stedsnr" v="980669" />
	</node>
	<node id="9938569217" lat="63.0385306" lon="7.6215278" version="1" timestamp="2022-08-08T05:44:04Z" changeset="124621575" uid="3497659" user="NKA">
		<tag k="name" v="Straumssetra" />
		<tag k="place" v="farm" />
		<tag k="ssr:stedsnr" v="801556" />
	</node>
	<node id="9938569218" lat="63.073878" lon="7.6469201" version="1" timestamp="2022-08-08T05:44:04Z" changeset="124621575" uid="3497659" user="NKA">
		<tag k="name" v="Kjerkevågen" />
		<tag k="place" v="hamlet" />
		<tag k="ssr:stedsnr" v="801709" />
	</node>
	<node id="9938569219" lat="63.0062169" lon="7.4466075" version="1" timestamp="2022-08-08T05:44:04Z" changeset="124621575" uid="3497659" user="NKA">
		<tag k="name" v="Heimvang" />
		<tag k="place" v="farm" />
		<tag k="ssr:stedsnr" v="1073872" />
	</node>
	<node id="9938569220" lat="63.0255806" lon="7.5658361" version="1" timestamp="2022-08-08T05:44:04Z" changeset="124621575" uid="3497659" user="NKA">
		<tag k="name" v="Leitet" />
		<tag k="place" v="farm" />
		<tag k="ssr:stedsnr" v="801604" />
	</node>
	<node id="9938569221" lat="63.045931" lon="7.6616053" version="1" timestamp="2022-08-08T05:44:04Z" changeset="124621575" uid="3497659" user="NKA">
		<tag k="name" v="Steinsvika" />
		<tag k="place" v="farm" />
		<tag k="ssr:stedsnr" v="315558" />
	</node>
	<node id="9938569222" lat="63.0034724" lon="7.4129991" version="1" timestamp="2022-08-08T05:44:04Z" changeset="124621575" uid="3497659" user="NKA">
		<tag k="name" v="Smedneset" />
		<tag k="place" v="farm" />
		<tag k="ssr:stedsnr" v="497394" />
	</node>
	<node id="9938569223" lat="63.0638045" lon="7.4980139" version="1" timestamp="2022-08-08T05:44:04Z" changeset="124621575" uid="3497659" user="NKA">
		<tag k="loc_name" v="Langøya" />
		<tag k="name" v="Langøyneset" />
		<tag k="place" v="village" />
		<tag k="ssr:stedsnr" v="208870" />
	</node>
	<node id="9938569224" lat="63.0308001" lon="7.4286583" version="1" timestamp="2022-08-08T05:44:04Z" changeset="124621575" uid="3497659" user="NKA">
		<tag k="name" v="Staurnes" />
		<tag k="place" v="farm" />
		<tag k="ssr:stedsnr" v="169443" />
	</node>
	<node id="9938569225" lat="62.997663" lon="7.3965689" version="1" timestamp="2022-08-08T05:44:04Z" changeset="124621575" uid="3497659" user="NKA">
		<tag k="name" v="Bjellvåg" />
		<tag k="old_name" v="Mjølvågan" />
		<tag k="place" v="farm" />
		<tag k="ssr:stedsnr" v="255914" />
	</node>
	<node id="9938569226" lat="63.0017555" lon="7.4790111" version="1" timestamp="2022-08-08T05:44:04Z" changeset="124621575" uid="3497659" user="NKA">
		<tag k="name" v="Bakken" />
		<tag k="place" v="farm" />
		<tag k="ssr:stedsnr" v="740401" />
	</node>
	<node id="9938569227" lat="63.007443" lon="7.5340645" version="1" timestamp="2022-08-08T05:44:04Z" changeset="124621575" uid="3497659" user="NKA">
		<tag k="name" v="Elvahaugen" />
		<tag k="place" v="farm" />
		<tag k="ssr:stedsnr" v="740404" />
	</node>
	<node id="9938569228" lat="63.010086" lon="7.5162549" version="1" timestamp="2022-08-08T05:44:04Z" changeset="124621575" uid="3497659" user="NKA">
		<tag k="name" v="Arvestad" />
		<tag k="place" v="farm" />
		<tag k="ssr:stedsnr" v="740403" />
	</node>
	<node id="9938569229" lat="63.0293804" lon="7.5917565" version="1" timestamp="2022-08-08T05:44:04Z" changeset="124621575" uid="3497659" user="NKA">
		<tag k="name" v="Fransvågen" />
		<tag k="place" v="farm" />
		<tag k="ssr:stedsnr" v="862596" />
	</node>
	<node id="9938569230" lat="63.0481467" lon="7.4944909" version="1" timestamp="2022-08-08T05:44:04Z" changeset="124621575" uid="3497659" user="NKA">
		<tag k="name" v="Henda" />
		<tag k="place" v="hamlet" />
		<tag k="ssr:stedsnr" v="862529" />
	</node>
	<node id="9938569231" lat="62.9732742" lon="7.422537" version="1" timestamp="2022-08-08T05:44:04Z" changeset="124621575" uid="3497659" user="NKA">
		<tag k="name" v="Hafsgjerd" />
		<tag k="place" v="farm" />
		<tag k="ssr:stedsnr" v="12938" />
	</node>
	<node id="9938569232" lat="62.9725284" lon="7.4060813" version="1" timestamp="2022-08-08T05:44:04Z" changeset="124621575" uid="3497659" user="NKA">
		<tag k="name" v="Mork" />
		<tag k="place" v="farm" />
		<tag k="ssr:stedsnr" v="596910" />
	</node>
	<node id="9938569233" lat="63.0065111" lon="7.4120055" version="1" timestamp="2022-08-08T05:44:04Z" changeset="124621575" uid="3497659" user="NKA">
		<tag k="name" v="Myrheim" />
		<tag k="place" v="farm" />
		<tag k="ssr:stedsnr" v="618383" />
	</node>
	<node id="9938569234" lat="63.0469337" lon="7.4789146" version="1" timestamp="2022-08-08T05:44:04Z" changeset="124621575" uid="3497659" user="NKA">
		<tag k="historic" v="shieling" />
		<tag k="name" v="Stølen" />
		<tag k="place" v="isolated_dwelling" />
		<tag k="ssr:stedsnr" v="836372" />
	</node>
	<node id="9938569235" lat="63.0471023" lon="7.5681168" version="1" timestamp="2022-08-08T05:44:04Z" changeset="124621575" uid="3497659" user="NKA">
		<tag k="name" v="Bogen" />
		<tag k="place" v="hamlet" />
		<tag k="ssr:stedsnr" v="558570" />
	</node>
	<node id="9938569236" lat="63.0563916" lon="7.5074446" version="1" timestamp="2022-08-08T05:44:04Z" changeset="124621575" uid="3497659" user="NKA">
		<tag k="alt_name" v="Mellomset" />
		<tag k="name" v="Mellemset" />
		<tag k="place" v="farm" />
		<tag k="ssr:stedsnr" v="411780" />
	</node>
	<node id="9938569237" lat="62.9798422" lon="7.3634729" version="1" timestamp="2022-08-08T05:44:04Z" changeset="124621575" uid="3497659" user="NKA">
		<tag k="name" v="Tevika" />
		<tag k="place" v="farm" />
		<tag k="ssr:stedsnr" v="41334" />
	</node>
	<node id="9938569238" lat="63.0466923" lon="7.4948908" version="1" timestamp="2022-08-08T05:44:04Z" changeset="124621575" uid="3497659" user="NKA">
		<tag k="name" v="Langneset" />
		<tag k="place" v="farm" />
		<tag k="ssr:stedsnr" v="411396" />
	</node>
	<node id="9938569239" lat="62.960522" lon="7.5942547" version="1" timestamp="2022-08-08T05:44:04Z" changeset="124621575" uid="3497659" user="NKA">
		<tag k="name" v="Avset" />
		<tag k="place" v="farm" />
		<tag k="ssr:stedsnr" v="679956" />
	</node>
	<node id="9938569240" lat="63.0132724" lon="7.7076509" version="1" timestamp="2022-08-08T05:44:04Z" changeset="124621575" uid="3497659" user="NKA">
		<tag k="name" v="Gullset" />
		<tag k="place" v="hamlet" />
		<tag k="ssr:stedsnr" v="679353" />
	</node>
	<node id="9938569241" lat="63.051887" lon="7.5903719" version="1" timestamp="2022-08-08T05:44:04Z" changeset="124621575" uid="3497659" user="NKA">
		<tag k="name" v="Ingeborgvik" />
		<tag k="place" v="farm" />
		<tag k="ssr:stedsnr" v="511793" />
	</node>
	<node id="9938569242" lat="63.0204363" lon="7.5650927" version="1" timestamp="2022-08-08T05:44:04Z" changeset="124621575" uid="3497659" user="NKA">
		<tag k="name" v="Nekkstad" />
		<tag k="place" v="hamlet" />
		<tag k="ssr:stedsnr" v="255617" />
	</node>
	<node id="9938569243" lat="63.0486555" lon="7.5046139" version="1" timestamp="2022-08-08T05:44:04Z" changeset="124621575" uid="3497659" user="NKA">
		<tag k="name" v="Midtgarden" />
		<tag k="place" v="farm" />
		<tag k="ssr:stedsnr" v="532801" />
	</node>
	<node id="9938569244" lat="63.0436927" lon="7.4925055" version="1" timestamp="2022-08-08T05:44:04Z" changeset="124621575" uid="3497659" user="NKA">
		<tag k="name" v="Kvistnes" />
		<tag k="place" v="farm" />
		<tag k="ssr:stedsnr" v="532399" />
	</node>
	<node id="9938569245" lat="63.0097572" lon="7.7097357" version="1" timestamp="2022-08-08T05:44:04Z" changeset="124621575" uid="3497659" user="NKA">
		<tag k="name" v="Nyplassen" />
		<tag k="place" v="farm" />
		<tag k="ssr:stedsnr" v="170393" />
	</node>
	<node id="9938569246" lat="62.9806273" lon="7.663755" version="1" timestamp="2022-08-08T05:44:04Z" changeset="124621575" uid="3497659" user="NKA">
		<tag k="name" v="Rokset" />
		<tag k="place" v="hamlet" />
		<tag k="ssr:stedsnr" v="254914" />
	</node>
	<node id="9938569247" lat="63.0135473" lon="7.4493066" version="1" timestamp="2022-08-08T05:44:04Z" changeset="124621575" uid="3497659" user="NKA">
		<tag k="name" v="Kummervoll" />
		<tag k="place" v="farm" />
		<tag k="ssr:stedsnr" v="350357" />
	</node>
	<node id="9938569248" lat="62.9566606" lon="7.5712948" version="1" timestamp="2022-08-08T05:44:04Z" changeset="124621575" uid="3497659" user="NKA">
		<tag k="name" v="Mork" />
		<tag k="place" v="hamlet" />
		<tag k="ssr:stedsnr" v="132986" />
	</node>
	<node id="9938569249" lat="63.0501306" lon="7.6207446" version="1" timestamp="2022-08-08T05:44:04Z" changeset="124621575" uid="3497659" user="NKA">
		<tag k="name" v="Bakken" />
		<tag k="place" v="farm" />
		<tag k="ssr:stedsnr" v="133521" />
	</node>
	<node id="9938569250" lat="62.9866513" lon="7.6867867" version="1" timestamp="2022-08-08T05:44:04Z" changeset="124621575" uid="3497659" user="NKA">
		<tag k="name" v="Myrateigen" />
		<tag k="place" v="farm" />
		<tag k="ssr:stedsnr" v="12919" />
	</node>
	<node id="9938569251" lat="63.05045" lon="7.5931361" version="1" timestamp="2022-08-08T05:44:04Z" changeset="124621575" uid="3497659" user="NKA">
		<tag k="name" v="Vollen" />
		<tag k="place" v="farm" />
		<tag k="ssr:stedsnr" v="133511" />
	</node>
	<node id="9938569252" lat="63.0537778" lon="7.5188529" version="1" timestamp="2022-08-08T05:44:04Z" changeset="124621575" uid="3497659" user="NKA">
		<tag k="name" v="Vårheim" />
		<tag k="place" v="farm" />
		<tag k="ssr:stedsnr" v="229802" />
	</node>
	<node id="9938569253" lat="62.9886195" lon="7.690543" version="1" timestamp="2022-08-08T05:44:04Z" changeset="124621575" uid="3497659" user="NKA">
		<tag k="name" v="Strand" />
		<tag k="place" v="hamlet" />
		<tag k="ssr:stedsnr" v="194910" />
	</node>
	<node id="9938569254" lat="63.0118462" lon="7.5331188" version="1" timestamp="2022-08-08T05:44:04Z" changeset="124621575" uid="3497659" user="NKA">
		<tag k="name" v="Pilan" />
		<tag k="place" v="farm" />
		<tag k="ssr:stedsnr" v="195610" />
	</node>
	<node id="9938569255" lat="63.1004112" lon="7.6504562" version="1" timestamp="2022-08-08T05:44:04Z" changeset="124621575" uid="3497659" user="NKA">
		<tag k="name" v="Rabben" />
		<tag k="place" v="farm" />
		<tag k="ssr:stedsnr" v="473694" />
	</node>
	<node id="9938569256" lat="63.0042036" lon="7.7230191" version="1" timestamp="2022-08-08T05:44:04Z" changeset="124621575" uid="3497659" user="NKA">
		<tag k="name" v="Kvernes prestegard" />
		<tag k="place" v="farm" />
		<tag k="ssr:stedsnr" v="230865" />
	</node>
	<node id="9938569257" lat="63.1112499" lon="7.6444337" version="1" timestamp="2022-08-08T05:44:04Z" changeset="124621575" uid="3497659" user="NKA">
		<tag k="alt_name" v="Tufta" />
		<tag k="name" v="Tøfta" />
		<tag k="place" v="farm" />
		<tag k="ssr:stedsnr" v="376710" />
	</node>
	<node id="9938569258" lat="63.0047639" lon="7.5774027" version="1" timestamp="2022-08-08T05:44:04Z" changeset="124621575" uid="3497659" user="NKA">
		<tag k="name" v="Brekka" />
		<tag k="place" v="farm" />
		<tag k="ssr:stedsnr" v="12409" />
	</node>
	<node id="9938569260" lat="63.1022028" lon="7.6543778" version="1" timestamp="2022-08-08T05:44:04Z" changeset="124621575" uid="3497659" user="NKA">
		<tag k="name" v="Vorpbukta" />
		<tag k="place" v="farm" />
		<tag k="ssr:stedsnr" v="255765" />
	</node>
	<node id="9938569261" lat="63.1005417" lon="7.6131835" version="1" timestamp="2022-08-08T05:44:04Z" changeset="124621575" uid="3497659" user="NKA">
		<tag k="name" v="Kallestad" />
		<tag k="place" v="farm" />
		<tag k="ssr:stedsnr" v="255775" />
	</node>
	<node id="9938569262" lat="63.0444917" lon="7.6056528" version="1" timestamp="2022-08-08T05:44:04Z" changeset="124621575" uid="3497659" user="NKA">
		<tag k="name" v="Fossabakken" />
		<tag k="place" v="farm" />
		<tag k="ssr:stedsnr" v="836761" />
	</node>
	<node id="9938569263" lat="63.0992833" lon="7.6473612" version="1" timestamp="2022-08-08T05:44:04Z" changeset="124621575" uid="3497659" user="NKA">
		<tag k="name" v="Leitet" />
		<tag k="place" v="farm" />
		<tag k="ssr:stedsnr" v="255766" />
	</node>
	<node id="9938569264" lat="63.0979758" lon="7.6510568" version="1" timestamp="2022-08-08T05:44:04Z" changeset="124621575" uid="3497659" user="NKA">
		<tag k="name" v="Løken" />
		<tag k="place" v="farm" />
		<tag k="ssr:stedsnr" v="169682" />
	</node>
	<node id="9938569265" lat="63.0590171" lon="7.6037391" version="1" timestamp="2022-08-08T05:44:04Z" changeset="124621575" uid="3497659" user="NKA">
		<tag k="name" v="Rossvågen" />
		<tag k="place" v="hamlet" />
		<tag k="ssr:stedsnr" v="862495" />
	</node>
	<node id="9938569266" lat="63.0595265" lon="7.6205948" version="1" timestamp="2022-08-08T05:44:04Z" changeset="124621575" uid="3497659" user="NKA">
		<tag k="name" v="Naustvollan" />
		<tag k="place" v="hamlet" />
		<tag k="ssr:stedsnr" v="12497" />
	</node>
	<node id="9938569267" lat="63.0840333" lon="7.6597722" version="1" timestamp="2022-08-08T05:44:04Z" changeset="124621575" uid="3497659" user="NKA">
		<tag k="name" v="Ladegård" />
		<tag k="place" v="farm" />
		<tag k="ssr:stedsnr" v="133720" />
	</node>
	<node id="9938569268" lat="63.0516555" lon="7.6208307" version="1" timestamp="2022-08-08T05:44:04Z" changeset="124621575" uid="3497659" user="NKA">
		<tag k="name" v="Heimdal" />
		<tag k="place" v="farm" />
		<tag k="ssr:stedsnr" v="133518" />
	</node>
	<node id="9938569269" lat="63.0152442" lon="7.6855152" version="1" timestamp="2022-08-08T05:44:04Z" changeset="124621575" uid="3497659" user="NKA">
		<tag k="name" v="Veiset" />
		<tag k="place" v="hamlet" />
		<tag k="ssr:stedsnr" v="801401" />
	</node>
	<node id="9938569270" lat="63.0825798" lon="7.6230509" version="1" timestamp="2022-08-08T05:44:04Z" changeset="124621575" uid="3497659" user="NKA">
		<tag k="alt_name" v="Djupvik" />
		<tag k="name" v="Djupbukt" />
		<tag k="place" v="farm" />
		<tag k="ssr:stedsnr" v="836855" />
	</node>
	<node id="9938569271" lat="63.0407952" lon="7.6468397" version="1" timestamp="2022-08-08T05:44:04Z" changeset="124621575" uid="3497659" user="NKA">
		<tag k="name" v="Setra" />
		<tag k="place" v="farm" />
		<tag k="ssr:stedsnr" v="740565" />
	</node>
	<node id="9938569272" lat="62.9637472" lon="7.5112584" version="1" timestamp="2022-08-08T05:44:04Z" changeset="124621575" uid="3497659" user="NKA">
		<tag k="historic" v="shieling" />
		<tag k="name" v="Steinsetra" />
		<tag k="place" v="isolated_dwelling" />
		<tag k="ssr:stedsnr" v="921959" />
	</node>
	<node id="9938569273" lat="63.10705" lon="7.5931556" version="1" timestamp="2022-08-08T05:44:04Z" changeset="124621575" uid="3497659" user="NKA">
		<tag k="alt_name" v="Hundvik" />
		<tag k="loc_name" v="Hunnvika" />
		<tag k="name" v="Vika" />
		<tag k="place" v="farm" />
		<tag k="ssr:stedsnr" v="532866" />
	</node>
	<node id="9938569274" lat="63.0617583" lon="7.6340444" version="1" timestamp="2022-08-08T05:44:04Z" changeset="124621575" uid="3497659" user="NKA">
		<tag k="name" v="Myra" />
		<tag k="place" v="farm" />
		<tag k="ssr:stedsnr" v="680572" />
	</node>
	<node id="9938569275" lat="63.1060306" lon="7.6537862" version="1" timestamp="2022-08-08T05:44:04Z" changeset="124621575" uid="3497659" user="NKA">
		<tag k="name" v="Bakkan" />
		<tag k="place" v="farm" />
		<tag k="ssr:stedsnr" v="255709" />
	</node>
	<node id="9938569276" lat="62.9757228" lon="7.6390133" version="1" timestamp="2022-08-08T05:44:04Z" changeset="124621575" uid="3497659" user="NKA">
		<tag k="name" v="Heggeset" />
		<tag k="place" v="farm" />
		<tag k="ssr:stedsnr" v="133947" />
	</node>
	<node id="9938569277" lat="63.1044416" lon="7.5790723" version="1" timestamp="2022-08-08T05:44:04Z" changeset="124621575" uid="3497659" user="NKA">
		<tag k="name" v="Slottet" />
		<tag k="place" v="farm" />
		<tag k="ssr:stedsnr" v="619718" />
	</node>
	<node id="9938569278" lat="63.0232639" lon="7.6774223" version="1" timestamp="2022-08-08T05:44:04Z" changeset="124621575" uid="3497659" user="NKA">
		<tag k="name" v="Klipa" />
		<tag k="place" v="farm" />
		<tag k="ssr:stedsnr" v="73630" />
	</node>
	<node id="9938569279" lat="63.0966861" lon="7.6377749" version="1" timestamp="2022-08-08T05:44:04Z" changeset="124621575" uid="3497659" user="NKA">
		<tag k="name" v="Kobbvika" />
		<tag k="place" v="farm" />
		<tag k="ssr:stedsnr" v="619785" />
	</node>
	<node id="9938569280" lat="62.9985528" lon="7.7134888" version="1" timestamp="2022-08-08T05:44:04Z" changeset="124621575" uid="3497659" user="NKA">
		<tag k="name" v="Vollen" />
		<tag k="place" v="farm" />
		<tag k="ssr:stedsnr" v="73894" />
	</node>
	<node id="9938569281" lat="63.0067111" lon="7.7214057" version="1" timestamp="2022-08-08T05:44:04Z" changeset="124621575" uid="3497659" user="NKA">
		<tag k="name" v="Fagerstrand" />
		<tag k="place" v="farm" />
		<tag k="ssr:stedsnr" v="73199" />
	</node>
	<node id="9938569282" lat="62.9927618" lon="7.6915774" version="1" timestamp="2022-08-08T05:44:04Z" changeset="124621575" uid="3497659" user="NKA">
		<tag k="name" v="Oppsal" />
		<tag k="place" v="farm" />
		<tag k="ssr:stedsnr" v="862917" />
	</node>
	<node id="9938569283" lat="63.0801306" lon="7.6061362" version="1" timestamp="2022-08-08T05:44:04Z" changeset="124621575" uid="3497659" user="NKA">
		<tag k="name" v="Langmyra" />
		<tag k="place" v="farm" />
		<tag k="ssr:stedsnr" v="12717" />
	</node>
	<node id="9938569284" lat="63.0519722" lon="7.6678529" version="1" timestamp="2022-08-08T05:44:04Z" changeset="124621575" uid="3497659" user="NKA">
		<tag k="name" v="Fossvika" />
		<tag k="place" v="farm" />
		<tag k="ssr:stedsnr" v="862516" />
	</node>
	<node id="9938569285" lat="63.0536945" lon="7.6677749" version="1" timestamp="2022-08-08T05:44:04Z" changeset="124621575" uid="3497659" user="NKA">
		<tag k="name" v="Hestvika" />
		<tag k="place" v="locality" />
		<tag k="ssr:stedsnr" v="558559" />
	</node>
	<node id="9938569286" lat="62.9966445" lon="7.5520695" version="1" timestamp="2022-08-08T05:44:04Z" changeset="124621575" uid="3497659" user="NKA">
		<tag k="historic" v="shieling" />
		<tag k="name" v="Basetra" />
		<tag k="place" v="isolated_dwelling" />
		<tag k="ssr:stedsnr" v="958225" />
	</node>
	<node id="9938569287" lat="63.0005055" lon="7.7168973" version="1" timestamp="2022-08-08T05:44:04Z" changeset="124621575" uid="3497659" user="NKA">
		<tag k="name" v="Vollan" />
		<tag k="place" v="farm" />
		<tag k="ssr:stedsnr" v="922363" />
	</node>
	<node id="9938569288" lat="63.0163583" lon="7.6967612" version="1" timestamp="2022-08-08T05:44:04Z" changeset="124621575" uid="3497659" user="NKA">
		<tag k="alt_name" v="Klippervik" />
		<tag k="name" v="Kippervik" />
		<tag k="place" v="farm" />
		<tag k="ssr:stedsnr" v="654894" />
	</node>
	<node id="9938569289" lat="63.0135306" lon="7.6817751" version="1" timestamp="2022-08-08T05:44:04Z" changeset="124621575" uid="3497659" user="NKA">
		<tag k="name" v="Hjellen" />
		<tag k="place" v="farm" />
		<tag k="ssr:stedsnr" v="558449" />
	</node>
	<node id="9938569290" lat="63.0346629" lon="7.6708934" version="1" timestamp="2022-08-08T05:44:04Z" changeset="124621575" uid="3497659" user="NKA">
		<tag k="name" v="Oterbekken" />
		<tag k="place" v="farm" />
		<tag k="ssr:stedsnr" v="414438" />
	</node>
	<node id="9938569291" lat="63.101809" lon="7.5986253" version="1" timestamp="2022-08-08T05:44:04Z" changeset="124621575" uid="3497659" user="NKA">
		<tag k="name" v="Solbakk" />
		<tag k="place" v="isolated_dwelling" />
		<tag k="ssr:stedsnr" v="475576" />
	</node>
	<node id="9938569292" lat="62.973675" lon="7.4420001" version="1" timestamp="2022-08-08T05:44:04Z" changeset="124621575" uid="3497659" user="NKA">
		<tag k="name" v="Bøen" />
		<tag k="old_name" v="Tungset, øvre;Øvre Tungset" />
		<tag k="place" v="farm" />
		<tag k="ssr:stedsnr" v="437925" />
	</node>
	<node id="9938569293" lat="63.0402889" lon="7.6471145" version="1" timestamp="2022-08-08T05:44:04Z" changeset="124621575" uid="3497659" user="NKA">
		<tag k="historic" v="shieling" />
		<tag k="name" v="Steinsviksetra" />
		<tag k="place" v="isolated_dwelling" />
		<tag k="ssr:stedsnr" v="230973" />
	</node>
	<node id="9938569294" lat="63.0153356" lon="7.6997962" version="1" timestamp="2022-08-08T05:44:04Z" changeset="124621575" uid="3497659" user="NKA">
		<tag k="name" v="Kleiva" />
		<tag k="place" v="isolated_dwelling" />
		<tag k="ssr:stedsnr" v="231417" />
	</node>
	<node id="9938569295" lat="62.9997873" lon="7.7180923" version="1" timestamp="2022-08-08T05:44:04Z" changeset="124621575" uid="3497659" user="NKA">
		<tag k="name" v="Kvernestrøa" />
		<tag k="place" v="isolated_dwelling" />
		<tag k="ssr:stedsnr" v="231411" />
	</node>
	<node id="9938569296" lat="63.108175" lon="7.6017612" version="1" timestamp="2022-08-08T05:44:04Z" changeset="124621575" uid="3497659" user="NKA">
		<tag k="name" v="Ytre Sveggen" />
		<tag k="place" v="farm" />
		<tag k="ssr:stedsnr" v="73696" />
	</node>
	<node id="9938569297" lat="63.1056372" lon="7.6021478" version="1" timestamp="2022-08-08T05:44:04Z" changeset="124621575" uid="3497659" user="NKA">
		<tag k="name" v="Berget" />
		<tag k="place" v="farm" />
		<tag k="ssr:stedsnr" v="230186" />
	</node>
	<node id="9938569298" lat="62.9747911" lon="7.6323875" version="1" timestamp="2022-08-08T05:44:04Z" changeset="124621575" uid="3497659" user="NKA">
		<tag k="name" v="Hoset" />
		<tag k="place" v="farm" />
		<tag k="ssr:stedsnr" v="596300" />
	</node>
	<node id="9938569299" lat="63.1073195" lon="7.6552917" version="1" timestamp="2022-08-08T05:44:04Z" changeset="124621575" uid="3497659" user="NKA">
		<tag k="name" v="Omnbukta" />
		<tag k="place" v="farm" />
		<tag k="ssr:stedsnr" v="12693" />
	</node>
	<node id="9938569300" lat="63.0537117" lon="7.6529948" version="1" timestamp="2022-08-08T05:44:04Z" changeset="124621575" uid="3497659" user="NKA">
		<tag k="name" v="Kristvika" />
		<tag k="place" v="hamlet" />
		<tag k="ssr:stedsnr" v="679518" />
	</node>
	<node id="9938569301" lat="63.1144305" lon="7.6197779" version="1" timestamp="2022-08-08T05:44:04Z" changeset="124621575" uid="3497659" user="NKA">
		<tag k="name" v="Nordheim" />
		<tag k="place" v="farm" />
		<tag k="ssr:stedsnr" v="558735" />
	</node>
	<node id="9938569302" lat="63.0105361" lon="7.6172389" version="1" timestamp="2022-08-08T05:44:04Z" changeset="124621575" uid="3497659" user="NKA">
		<tag k="historic" v="shieling" />
		<tag k="name" v="Vebenstadsetra" />
		<tag k="place" v="isolated_dwelling" />
		<tag k="ssr:stedsnr" v="291247" />
	</node>
	<node id="9938569303" lat="63.0739305" lon="7.6200723" version="1" timestamp="2022-08-08T05:44:04Z" changeset="124621575" uid="3497659" user="NKA">
		<tag k="name" v="Rognvikan" />
		<tag k="place" v="farm" />
		<tag k="ssr:stedsnr" v="316581" />
	</node>
	<node id="9938569304" lat="63.0289778" lon="7.6058722" version="1" timestamp="2022-08-08T05:44:04Z" changeset="124621575" uid="3497659" user="NKA">
		<tag k="name" v="Pallan" />
		<tag k="place" v="farm" />
		<tag k="ssr:stedsnr" v="133580" />
	</node>
	<node id="9938569305" lat="63.0695605" lon="7.5963167" version="1" timestamp="2022-08-08T05:44:04Z" changeset="124621575" uid="3497659" user="NKA">
		<tag k="name" v="Kleiva" />
		<tag k="place" v="farm" />
		<tag k="ssr:stedsnr" v="133468" />
	</node>
	<node id="9938569306" lat="62.9740866" lon="7.3847538" version="1" timestamp="2022-08-08T05:44:04Z" changeset="124621575" uid="3497659" user="NKA">
		<tag k="alt_name" v="Kvalsvik" />
		<tag k="name" v="Kvalshaug" />
		<tag k="place" v="farm" />
		<tag k="ssr:stedsnr" v="558934" />
	</node>
	<node id="9938569307" lat="62.9922916" lon="7.3764529" version="1" timestamp="2022-08-08T05:44:04Z" changeset="124621575" uid="3497659" user="NKA">
		<tag k="name" v="Grovaneset" />
		<tag k="place" v="farm" />
		<tag k="ssr:stedsnr" v="680924" />
	</node>
	<node id="9938569308" lat="62.9812494" lon="7.3618945" version="1" timestamp="2022-08-08T05:44:04Z" changeset="124621575" uid="3497659" user="NKA">
		<tag k="name" v="Tøvika" />
		<tag k="place" v="hamlet" />
		<tag k="ssr:stedsnr" v="133923" />
	</node>
	<node id="9938569309" lat="63.0724137" lon="7.6265412" version="1" timestamp="2022-08-08T05:44:04Z" changeset="124621575" uid="3497659" user="NKA">
		<tag k="name" v="Sørkjerkevågen" />
		<tag k="place" v="hamlet" />
		<tag k="ssr:stedsnr" v="73544" />
	</node>
	<node id="9938569310" lat="62.9965983" lon="7.3900002" version="1" timestamp="2022-08-08T05:44:04Z" changeset="124621575" uid="3497659" user="NKA">
		<tag k="name" v="Hjertvika" />
		<tag k="place" v="hamlet" />
		<tag k="ssr:stedsnr" v="73889" />
	</node>
	<node id="9938569311" lat="63.0477973" lon="7.6253834" version="1" timestamp="2022-08-08T05:44:04Z" changeset="124621575" uid="3497659" user="NKA">
		<tag k="name" v="Lia" />
		<tag k="place" v="farm" />
		<tag k="ssr:stedsnr" v="12547" />
	</node>
	<node id="9938569312" lat="63.0062861" lon="7.6042084" version="1" timestamp="2022-08-08T05:44:04Z" changeset="124621575" uid="3497659" user="NKA">
		<tag k="name" v="Fossen" />
		<tag k="place" v="farm" />
		<tag k="ssr:stedsnr" v="194373" />
	</node>
	<node id="9938569313" lat="62.9863274" lon="7.3810124" version="1" timestamp="2022-08-08T05:44:04Z" changeset="124621575" uid="3497659" user="NKA">
		<tag k="name" v="Martnadssletta" />
		<tag k="place" v="farm" />
		<tag k="ssr:stedsnr" v="73903" />
	</node>
	<node id="9938569314" lat="63.0330721" lon="7.6061836" version="1" timestamp="2022-08-08T05:44:04Z" changeset="124621575" uid="3497659" user="NKA">
		<tag k="name" v="Haukåsen" />
		<tag k="place" v="hamlet" />
		<tag k="ssr:stedsnr" v="862549" />
	</node>
	<node id="9938569315" lat="63.0519056" lon="7.6503695" version="1" timestamp="2022-08-08T05:44:04Z" changeset="124621575" uid="3497659" user="NKA">
		<tag k="name" v="Heimvang" />
		<tag k="place" v="farm" />
		<tag k="ssr:stedsnr" v="862543" />
	</node>
	<node id="9938569316" lat="63.0648917" lon="7.593725" version="1" timestamp="2022-08-08T05:44:04Z" changeset="124621575" uid="3497659" user="NKA">
		<tag k="name" v="Vågen" />
		<tag k="place" v="farm" />
		<tag k="ssr:stedsnr" v="862487" />
	</node>
	<node id="9938569317" lat="63.0669945" lon="7.5951745" version="1" timestamp="2022-08-08T05:44:04Z" changeset="124621575" uid="3497659" user="NKA">
		<tag k="name" v="Garden" />
		<tag k="place" v="farm" />
		<tag k="ssr:stedsnr" v="862503" />
	</node>
	<node id="9938569318" lat="62.9657434" lon="7.6077784" version="1" timestamp="2022-08-08T05:44:04Z" changeset="124621575" uid="3497659" user="NKA">
		<tag k="alt_name" v="Mekgrenda;Meek" />
		<tag k="name" v="Mek" />
		<tag k="place" v="hamlet" />
		<tag k="ssr:stedsnr" v="861975" />
	</node>
	<node id="9938569319" lat="63.0405" lon="7.5321167" version="1" timestamp="2022-08-08T05:44:04Z" changeset="124621575" uid="3497659" user="NKA">
		<tag k="name" v="Langdalen" />
		<tag k="place" v="farm" />
		<tag k="ssr:stedsnr" v="775784" />
	</node>
	<node id="9938569320" lat="62.9987417" lon="7.5838973" version="1" timestamp="2022-08-08T05:44:04Z" changeset="124621575" uid="3497659" user="NKA">
		<tag k="name" v="Røssvoll" />
		<tag k="place" v="farm" />
		<tag k="ssr:stedsnr" v="740895" />
	</node>
	<node id="9938569321" lat="62.9659189" lon="7.4427871" version="1" timestamp="2022-08-08T05:44:04Z" changeset="124621575" uid="3497659" user="NKA">
		<tag k="name" v="Grønmyr" />
		<tag k="place" v="isolated_dwelling" />
		<tag k="ssr:stedsnr" v="595664" />
	</node>
	<node id="9938569322" lat="62.9683768" lon="7.6195402" version="1" timestamp="2022-08-08T05:44:04Z" changeset="124621575" uid="3497659" user="NKA">
		<tag k="alt_name" v="Skardset" />
		<tag k="name" v="Skarset" />
		<tag k="place" v="hamlet" />
		<tag k="ssr:stedsnr" v="73957" />
	</node>
	<node id="9938569323" lat="62.9712239" lon="7.4050155" version="1" timestamp="2022-08-08T05:44:04Z" changeset="124621575" uid="3497659" user="NKA">
		<tag k="name" v="Kråkneset" />
		<tag k="place" v="farm" />
		<tag k="ssr:stedsnr" v="376957" />
	</node>
	<node id="9938569324" lat="62.9694478" lon="7.4262032" version="1" timestamp="2022-08-08T05:44:04Z" changeset="124621575" uid="3497659" user="NKA">
		<tag k="name" v="Nasvika" />
		<tag k="place" v="hamlet" />
		<tag k="ssr:stedsnr" v="376956" />
	</node>
	<node id="9938569325" lat="62.9723809" lon="7.4353435" version="1" timestamp="2022-08-08T05:44:04Z" changeset="124621575" uid="3497659" user="NKA">
		<tag k="name" v="Fagerengin" />
		<tag k="place" v="farm" />
		<tag k="ssr:stedsnr" v="376954" />
	</node>
	<node id="9938569326" lat="63.0335361" lon="7.5476529" version="1" timestamp="2022-08-08T05:44:04Z" changeset="124621575" uid="3497659" user="NKA">
		<tag k="name" v="Reitan" />
		<tag k="place" v="farm" />
		<tag k="ssr:stedsnr" v="376580" />
	</node>
	<node id="9938569327" lat="62.9774916" lon="7.6023335" version="1" timestamp="2022-08-08T05:44:04Z" changeset="124621575" uid="3497659" user="NKA">
		<tag k="historic" v="shieling" />
		<tag k="name" v="Meksetra" />
		<tag k="place" v="isolated_dwelling" />
		<tag k="ssr:stedsnr" v="28505" />
	</node>
	<node id="9938569328" lat="63.0060611" lon="7.4423667" version="1" timestamp="2022-08-08T05:44:04Z" changeset="124621575" uid="3497659" user="NKA">
		<tag k="name" v="Flateng" />
		<tag k="place" v="farm" />
		<tag k="ssr:stedsnr" v="376445" />
	</node>
	<node id="9938569329" lat="63.0254224" lon="7.6685074" version="1" timestamp="2022-08-08T05:44:04Z" changeset="124621575" uid="3497659" user="NKA">
		<tag k="name" v="Holmen" />
		<tag k="place" v="farm" />
		<tag k="ssr:stedsnr" v="195628" />
	</node>
	<node id="9938569330" lat="63.043425" lon="7.6572696" version="1" timestamp="2022-08-08T05:44:04Z" changeset="124621575" uid="3497659" user="NKA">
		<tag k="name" v="Dalen" />
		<tag k="place" v="farm" />
		<tag k="ssr:stedsnr" v="679537" />
	</node>
	<node id="9938569331" lat="63.0959639" lon="7.6665946" version="1" timestamp="2022-08-08T05:44:04Z" changeset="124621575" uid="3497659" user="NKA">
		<tag k="name" v="Sandbukta" />
		<tag k="place" v="farm" />
		<tag k="ssr:stedsnr" v="558788" />
	</node>
	<node id="9938569332" lat="63.0269355" lon="7.6710211" version="1" timestamp="2022-08-08T05:44:04Z" changeset="124621575" uid="3497659" user="NKA">
		<tag k="name" v="Kjørsvika" />
		<tag k="place" v="hamlet" />
		<tag k="ssr:stedsnr" v="558651" />
	</node>
	<node id="9938569333" lat="63.0415486" lon="7.6681734" version="1" timestamp="2022-08-08T05:44:04Z" changeset="124621575" uid="3497659" user="NKA">
		<tag k="name" v="Engvika" />
		<tag k="place" v="farm" />
		<tag k="ssr:stedsnr" v="558614" />
	</node>
	<node id="9938569334" lat="63.0929438" lon="7.670503" version="1" timestamp="2022-08-08T05:44:04Z" changeset="124621575" uid="3497659" user="NKA">
		<tag k="name" v="Dalen" />
		<tag k="place" v="isolated_dwelling" />
		<tag k="ssr:stedsnr" v="655636" />
	</node>
	<node id="9938569335" lat="63.043716" lon="7.6683017" version="1" timestamp="2022-08-08T05:44:04Z" changeset="124621575" uid="3497659" user="NKA">
		<tag k="name" v="Egga" />
		<tag k="place" v="farm" />
		<tag k="ssr:stedsnr" v="231474" />
	</node>
	<node id="9938569336" lat="63.0262055" lon="7.6655695" version="1" timestamp="2022-08-08T05:44:04Z" changeset="124621575" uid="3497659" user="NKA">
		<tag k="name" v="Nylund" />
		<tag k="place" v="farm" />
		<tag k="ssr:stedsnr" v="255631" />
	</node>
	<node id="9938569337" lat="62.9597855" lon="7.4796109" version="1" timestamp="2022-08-08T05:44:04Z" changeset="124621575" uid="3497659" user="NKA">
		<tag k="name" v="Steinsgrenda" />
		<tag k="place" v="hamlet" />
		<tag k="ssr:stedsnr" v="800965" />
	</node>
	<node id="9938569338" lat="62.9608143" lon="7.4777137" version="1" timestamp="2022-08-08T05:44:04Z" changeset="124621575" uid="3497659" user="NKA">
		<tag k="name" v="Slatlem" />
		<tag k="place" v="farm" />
		<tag k="ssr:stedsnr" v="375951" />
	</node>
	<node id="9938569339" lat="62.958338" lon="7.5088724" version="1" timestamp="2022-08-08T05:44:04Z" changeset="124621575" uid="3497659" user="NKA">
		<tag k="name" v="Helset" />
		<tag k="place" v="hamlet" />
		<tag k="ssr:stedsnr" v="800992" />
	</node>
	<node id="9938569340" lat="62.9746861" lon="7.477064" version="1" timestamp="2022-08-08T05:44:04Z" changeset="124621575" uid="3497659" user="NKA">
		<tag k="name" v="Kornstadsetra" />
		<tag k="place" v="isolated_dwelling" />
		<tag k="ssr:stedsnr" v="133937" />
	</node>
	<node id="9938569341" lat="62.9659595" lon="7.4484158" version="1" timestamp="2022-08-08T05:44:04Z" changeset="124621575" uid="3497659" user="NKA">
		<tag k="alt_name" v="Leite" />
		<tag k="name" v="Leitet" />
		<tag k="place" v="farm" />
		<tag k="ssr:stedsnr" v="232631" />
	</node>
	<node id="9938569342" lat="63.0594918" lon="7.58746" version="1" timestamp="2022-08-08T05:44:04Z" changeset="124621575" uid="3497659" user="NKA">
		<tag k="name" v="Grønvika" />
		<tag k="place" v="hamlet" />
		<tag k="ssr:stedsnr" v="133449" />
	</node>
	<node id="9938569343" lat="62.9498444" lon="7.5030751" version="1" timestamp="2022-08-08T05:44:04Z" changeset="124621575" uid="3497659" user="NKA">
		<tag k="name" v="Uthaug" />
		<tag k="place" v="farm" />
		<tag k="ssr:stedsnr" v="132974" />
	</node>
	<node id="9938569344" lat="62.9494556" lon="7.5544834" version="1" timestamp="2022-08-08T05:44:04Z" changeset="124621575" uid="3497659" user="NKA">
		<tag k="name" v="Sør-Å" />
		<tag k="place" v="farm" />
		<tag k="ssr:stedsnr" v="132984" />
	</node>
	<node id="9938569345" lat="63.1051111" lon="7.5958527" version="1" timestamp="2022-08-08T05:44:04Z" changeset="124621575" uid="3497659" user="NKA">
		<tag k="name" v="Sørengård" />
		<tag k="place" v="farm" />
		<tag k="ssr:stedsnr" v="107897" />
	</node>
	<node id="9938569346" lat="62.9536231" lon="7.5560259" version="1" timestamp="2022-08-08T05:44:04Z" changeset="124621575" uid="3497659" user="NKA">
		<tag k="alt_name" v="Ågrenda" />
		<tag k="name" v="Å" />
		<tag k="place" v="hamlet" />
		<tag k="ssr:stedsnr" v="132992" />
	</node>
	<node id="9938569347" lat="63.0338038" lon="7.4195712" version="1" timestamp="2022-08-08T05:44:04Z" changeset="124621575" uid="3497659" user="NKA">
		<tag k="name" v="Risholmen" />
		<tag k="place" v="farm" />
		<tag k="ssr:stedsnr" v="980784" />
	</node>
	<node id="9938569348" lat="62.9727441" lon="7.4036657" version="1" timestamp="2022-08-08T05:44:04Z" changeset="124621575" uid="3497659" user="NKA">
		<tag k="name" v="Bullgård" />
		<tag k="place" v="farm" />
		<tag k="ssr:stedsnr" v="73947" />
	</node>
	<node id="9938569349" lat="62.9624505" lon="7.4684339" version="1" timestamp="2022-08-08T05:44:04Z" changeset="124621575" uid="3497659" user="NKA">
		<tag k="name" v="Haga" />
		<tag k="place" v="farm" />
		<tag k="ssr:stedsnr" v="11959" />
	</node>
	<node id="9938569351" lat="62.9980615" lon="7.4539678" version="1" timestamp="2022-08-08T05:44:04Z" changeset="124621575" uid="3497659" user="NKA">
		<tag k="name" v="Sørlia" />
		<tag k="place" v="farm" />
		<tag k="ssr:stedsnr" v="73886" />
	</node>
	<node id="9938569352" lat="62.9565972" lon="7.5408417" version="1" timestamp="2022-08-08T05:44:04Z" changeset="124621575" uid="3497659" user="NKA">
		<tag k="name" v="Solstad" />
		<tag k="place" v="farm" />
		<tag k="ssr:stedsnr" v="193987" />
	</node>
	<node id="9938569353" lat="62.9704222" lon="7.4442028" version="1" timestamp="2022-08-08T05:44:04Z" changeset="124621575" uid="3497659" user="NKA">
		<tag k="name" v="Tungset" />
		<tag k="place" v="farm" />
		<tag k="ssr:stedsnr" v="12936" />
	</node>
	<node id="9938569354" lat="62.9487167" lon="7.5516223" version="1" timestamp="2022-08-08T05:44:04Z" changeset="124621575" uid="3497659" user="NKA">
		<tag k="name" v="Leithaugen" />
		<tag k="place" v="farm" />
		<tag k="ssr:stedsnr" v="11518" />
	</node>
	<node id="9938569355" lat="62.9992083" lon="7.4084335" version="1" timestamp="2022-08-08T05:44:04Z" changeset="124621575" uid="3497659" user="NKA">
		<tag k="name" v="Nygard" />
		<tag k="place" v="farm" />
		<tag k="ssr:stedsnr" v="923904" />
	</node>
	<node id="9938569356" lat="62.9675827" lon="7.4373994" version="1" timestamp="2022-08-08T05:44:04Z" changeset="124621575" uid="3497659" user="NKA">
		<tag k="name" v="Kongshaug" />
		<tag k="place" v="farm" />
		<tag k="ssr:stedsnr" v="350451" />
	</node>
	<node id="9938569357" lat="62.9731674" lon="7.443574" version="1" timestamp="2022-08-08T05:44:04Z" changeset="124621575" uid="3497659" user="NKA">
		<tag k="name" v="Øvertungset" />
		<tag k="place" v="farm" />
		<tag k="ssr:stedsnr" v="350462" />
	</node>
	<node id="9938569358" lat="62.9571722" lon="7.5313695" version="1" timestamp="2022-08-08T05:44:04Z" changeset="124621575" uid="3497659" user="NKA">
		<tag k="name" v="Kvammen" />
		<tag k="place" v="farm" />
		<tag k="ssr:stedsnr" v="193986" />
	</node>
	<node id="9938569359" lat="63.0087445" lon="7.4554167" version="1" timestamp="2022-08-08T05:44:04Z" changeset="124621575" uid="3497659" user="NKA">
		<tag k="name" v="Kvila" />
		<tag k="place" v="farm" />
		<tag k="ssr:stedsnr" v="801423" />
	</node>
</osm>
