<?xml version="1.0" encoding="UTF-8"?>
<osm version="0.6" generator="osmapis">
	<node lat="60.436822222421874" lon="11.526580555961838" id="-37311">
		<tag k="name" v="Oppi" />
		<tag k="place" v="farm" />
		<tag k="ssr:stedsnr" v="6877" />
	</node>
	<node lat="60.36854689401462" lon="11.71687180146591" id="-37313">
		<tag k="alt_name" v="Grinna" />
		<tag k="name" v="Grinda" />
		<tag k="place" v="farm" />
		<tag k="ssr:stedsnr" v="6908" />
	</node>
	<node lat="60.358549996070934" lon="11.576363884217315" id="-37314">
		<tag k="name" v="Hanoråsen" />
		<tag k="place" v="farm" />
		<tag k="ssr:stedsnr" v="6909" />
	</node>
	<node lat="60.326930076740254" lon="11.527067878257384" id="-37315">
		<tag k="name" v="Ulvtjennskoia" />
		<tag k="place" v="locality" />
		<tag k="ssr:stedsnr" v="6982" />
	</node>
	<node lat="60.331837976665064" lon="11.618146679608357" id="-37316">
		<tag k="alt_name" v="Nordre Haukerud" />
		<tag k="fixme" v="consider place=hamlet" />
		<tag k="name" v="Haukerud" />
		<tag k="place" v="farm" />
		<tag k="ssr:stedsnr" v="7000" />
	</node>
	<node lat="60.54028333756542" lon="11.630494439729155" id="-37317">
		<tag k="alt_name" v="Bjønnstampen" />
		<tag k="historic" v="shieling" />
		<tag k="name" v="Bjørnstampen" />
		<tag k="place" v="isolated_dwelling" />
		<tag k="ssr:stedsnr" v="7257" />
	</node>
	<node lat="60.34168610789692" lon="11.605224991884596" id="-37318">
		<tag k="name" v="Vestre Bjelker" />
		<tag k="place" v="farm" />
		<tag k="ssr:stedsnr" v="39701" />
	</node>
	<node lat="60.43117499809353" lon="11.517888896212462" id="-37328">
		<tag k="name" v="Solheimsteppa" />
		<tag k="place" v="farm" />
		<tag k="ssr:stedsnr" v="42994" />
	</node>
	<node lat="60.47253055700985" lon="11.575366658479478" id="-37335">
		<tag k="historic" v="shieling" />
		<tag k="name" v="Svarttjennsætra" />
		<tag k="place" v="isolated_dwelling" />
		<tag k="ssr:stedsnr" v="46814" />
	</node>
	<node lat="60.425924998366746" lon="11.782169436758549" id="-37338">
		<tag k="name" v="Langmyrkoia" />
		<tag k="place" v="isolated_dwelling" />
		<tag k="ssr:stedsnr" v="47726" />
	</node>
	<node lat="60.3752583330775" lon="11.706924992095072" id="-37342">
		<tag k="name" v="Sandvik" />
		<tag k="place" v="farm" />
		<tag k="ssr:stedsnr" v="239225" />
	</node>
	<node lat="60.42574722340157" lon="11.583808341297017" id="-37346">
		<tag k="name" v="Fjellhaug" />
		<tag k="place" v="farm" />
		<tag k="ssr:stedsnr" v="239354" />
	</node>
	<node lat="60.39667499659265" lon="11.672911103751185" id="-37349">
		<tag k="name" v="Søstua" />
		<tag k="place" v="locality" />
		<tag k="ssr:stedsnr" v="239770" />
	</node>
	<node lat="60.49436666251981" lon="11.439691664526569" id="-37351">
		<tag k="name" v="Øvre Inngjerdingen" />
		<tag k="place" v="farm" />
		<tag k="ssr:stedsnr" v="55825" />
	</node>
	<node lat="60.44810277878057" lon="11.753586106717828" id="-37353">
		<tag k="historic" v="shieling" />
		<tag k="name" v="Hundbysætra" />
		<tag k="place" v="isolated_dwelling" />
		<tag k="ssr:stedsnr" v="239875" />
	</node>
	<node lat="60.510483335770374" lon="11.354749997518264" id="-37357">
		<tag k="name" v="Plassen" />
		<tag k="place" v="farm" />
		<tag k="ssr:stedsnr" v="240070" />
	</node>
	<node lat="60.37749224085228" lon="11.715124617372538" id="-37359">
		<tag k="name" v="Steinerud" />
		<tag k="place" v="farm" />
		<tag k="ssr:stedsnr" v="57189" />
	</node>
	<node lat="60.37066849832827" lon="11.720084201163761" id="-37360">
		<tag k="name" v="Amundsbråten" />
		<tag k="place" v="isolated_dwelling" />
		<tag k="ssr:stedsnr" v="57190" />
	</node>
	<node lat="60.41953333687763" lon="11.596641658119395" id="-37362">
		<tag k="name" v="Fjellsauren" />
		<tag k="place" v="isolated_dwelling" />
		<tag k="ssr:stedsnr" v="57306" />
	</node>
	<node lat="60.323005553488876" lon="11.617355549394068" id="-37368">
		<tag k="name" v="Nordre Helgedagsrud" />
		<tag k="place" v="farm" />
		<tag k="ssr:stedsnr" v="57670" />
	</node>
	<node lat="60.38866666674932" lon="11.644452776623067" id="-37376">
		<tag k="name" v="Brefetta" />
		<tag k="place" v="locality" />
		<tag k="ssr:stedsnr" v="59277" />
	</node>
	<node lat="60.42960000337258" lon="11.684505561133175" id="-37378">
		<tag k="name" v="Finnkjølen" />
		<tag k="place" v="farm" />
		<tag k="ssr:stedsnr" v="59821" />
	</node>
	<node lat="60.47633611666867" lon="11.638786148434958" id="-37386">
		<tag k="name" v="Sagbråtån" />
		<tag k="place" v="farm" />
		<tag k="ssr:stedsnr" v="66799" />
	</node>
	<node lat="60.49669721938992" lon="11.3549722310722" id="-37392">
		<tag k="name" v="Holtet" />
		<tag k="place" v="isolated_dwelling" />
		<tag k="ssr:stedsnr" v="67399" />
	</node>
	<node lat="60.401161115516835" lon="11.686552776454432" id="-37394">
		<tag k="name" v="Dånåsen" />
		<tag k="place" v="farm" />
		<tag k="ssr:stedsnr" v="67819" />
	</node>
	<node lat="60.40816445071739" lon="11.485145338240152" id="-37395">
		<tag k="fixme" v="consider place=hamlet" />
		<tag k="name" v="Rud" />
		<tag k="place" v="farm" />
		<tag k="ssr:stedsnr" v="67839" />
	</node>
	<node lat="60.51923055433988" lon="11.63721111823236" id="-37396">
		<tag k="historic" v="shieling" />
		<tag k="name" v="Rotsætra" />
		<tag k="place" v="isolated_dwelling" />
		<tag k="ssr:stedsnr" v="68231" />
	</node>
	<node lat="60.335500000596156" lon="11.614583340407801" id="-37397">
		<tag k="alt_name" v="Mellom Haukerud" />
		<tag k="name" v="Mellom" />
		<tag k="place" v="farm" />
		<tag k="ssr:stedsnr" v="67996" />
	</node>
	<node lat="60.33872196823248" lon="11.604819496760157" id="-37398">
		<tag k="fixme" v="consider place=hamlet" />
		<tag k="name" v="Kroksrud" />
		<tag k="place" v="farm" />
		<tag k="ssr:stedsnr" v="67999" />
	</node>
	<node lat="60.33035833525025" lon="11.607833342348721" id="-37399">
		<tag k="name" v="Lukerstua" />
		<tag k="place" v="farm" />
		<tag k="ssr:stedsnr" v="68000" />
	</node>
	<node lat="60.50215833242165" lon="11.393465070887416" id="-37402">
		<tag k="name" v="Nerhagen" />
		<tag k="place" v="farm" />
		<tag k="ssr:stedsnr" v="100126" />
	</node>
	<node lat="60.465116668994" lon="11.618808331436677" id="-37404">
		<tag k="name" v="Stensby" />
		<tag k="place" v="farm" />
		<tag k="ssr:stedsnr" v="100460" />
	</node>
	<node lat="60.342602781266955" lon="11.602297227245545" id="-37406">
		<tag k="name" v="Svarverud" />
		<tag k="place" v="farm" />
		<tag k="ssr:stedsnr" v="100714" />
	</node>
	<node lat="60.43574444265343" lon="11.57303054811389" id="-37409">
		<tag k="name" v="Sør-Toner" />
		<tag k="place" v="farm" />
		<tag k="ssr:stedsnr" v="101371" />
	</node>
	<node lat="60.35009999744085" lon="11.433752776362821" id="-37417">
		<tag k="name" v="Tennungsaga" />
		<tag k="place" v="isolated_dwelling" />
		<tag k="ssr:stedsnr" v="102710" />
	</node>
	<node lat="60.45333562784411" lon="11.633812262250869" id="-37424">
		<tag k="alt_name" v="Berg, nordre" />
		<tag k="fixme" v="consider place=hamlet" />
		<tag k="name" v="Nordre Berg" />
		<tag k="place" v="farm" />
		<tag k="ssr:stedsnr" v="248783" />
	</node>
	<node lat="60.45039444107101" lon="11.469066661008469" id="-37425">
		<tag k="name" v="Vestby" />
		<tag k="place" v="farm" />
		<tag k="ssr:stedsnr" v="248785" />
	</node>
	<node lat="60.45095833409787" lon="11.784111112975161" id="-37426">
		<tag k="historic" v="shieling" />
		<tag k="name" v="Nordgardssætra" />
		<tag k="place" v="isolated_dwelling" />
		<tag k="ssr:stedsnr" v="248789" />
	</node>
	<node lat="60.43449166372159" lon="11.61098888240609" id="-37427">
		<tag k="name" v="Skulstad" />
		<tag k="place" v="farm" />
		<tag k="ssr:stedsnr" v="248875" />
	</node>
	<node lat="60.433280557963705" lon="11.620072220732816" id="-37428">
		<tag k="name" v="Bøyum" />
		<tag k="place" v="farm" />
		<tag k="ssr:stedsnr" v="248876" />
	</node>
	<node lat="60.46812777636437" lon="11.788836104986242" id="-37429">
		<tag k="alt_name" v="Godhølkoia" />
		<tag k="name" v="Godholet" />
		<tag k="place" v="isolated_dwelling" />
		<tag k="ssr:stedsnr" v="248829" />
	</node>
	<node lat="60.378976975410964" lon="11.568944827657212" id="-37430">
		<tag k="name" v="Svennebyhagen" />
		<tag k="place" v="farm" />
		<tag k="ssr:stedsnr" v="248928" />
	</node>
	<node lat="60.50582499739171" lon="11.556102773860816" id="-37432">
		<tag k="name" v="Skirskoia" />
		<tag k="place" v="isolated_dwelling" />
		<tag k="ssr:stedsnr" v="103785" />
	</node>
	<node lat="60.45850277336925" lon="11.366933331775954" id="-37435">
		<tag k="alt_name" v="Otten, søndre" />
		<tag k="name" v="Sør-Otten" />
		<tag k="place" v="locality" />
		<tag k="ssr:stedsnr" v="249416" />
	</node>
	<node lat="60.45898888753607" lon="11.504516663373074" id="-37436">
		<tag k="name" v="Linderinngjerdinga" />
		<tag k="place" v="isolated_dwelling" />
		<tag k="ssr:stedsnr" v="107687" />
	</node>
	<node lat="60.41165277785134" lon="11.559069439000146" id="-37439">
		<tag k="name" v="Granerud" />
		<tag k="place" v="farm" />
		<tag k="ssr:stedsnr" v="249847" />
	</node>
	<node lat="60.40296666970828" lon="11.539700006956414" id="-37443">
		<tag k="name" v="Furuli" />
		<tag k="place" v="farm" />
		<tag k="ssr:stedsnr" v="249831" />
	</node>
	<node lat="60.41256944720974" lon="11.472844437467833" id="-37444">
		<tag k="name" v="Klengerud" />
		<tag k="place" v="farm" />
		<tag k="ssr:stedsnr" v="249850" />
	</node>
	<node lat="60.422266664483864" lon="11.591849999587156" id="-37445">
		<tag k="name" v="Fjelland" />
		<tag k="place" v="farm" />
		<tag k="ssr:stedsnr" v="249855" />
	</node>
	<node lat="60.339942647839806" lon="11.591953108749305" id="-37447">
		<tag k="alt_name" v="Kroksrudvangen" />
		<tag k="name" v="Vangen" />
		<tag k="place" v="farm" />
		<tag k="ssr:stedsnr" v="249878" />
	</node>
	<node lat="60.38575277751152" lon="11.802736106614315" id="-37448">
		<tag k="name" v="Sagkoia" />
		<tag k="place" v="isolated_dwelling" />
		<tag k="ssr:stedsnr" v="249904" />
	</node>
	<node lat="60.37896389126888" lon="11.541763887671388" id="-37450">
		<tag k="name" v="Neset" />
		<tag k="place" v="farm" />
		<tag k="ssr:stedsnr" v="249909" />
	</node>
	<node lat="60.38993611294443" lon="11.6096138944143" id="-37451">
		<tag k="alt_name" v="Mellom-Bunes" />
		<tag k="name" v="Bunes" />
		<tag k="place" v="farm" />
		<tag k="ssr:stedsnr" v="249934" />
	</node>
	<node lat="60.30540000289759" lon="11.614016659724854" id="-37452">
		<tag k="name" v="Kroken" />
		<tag k="place" v="farm" />
		<tag k="ssr:stedsnr" v="249970" />
	</node>
	<node lat="60.458730554453766" lon="11.56872499776793" id="-37458">
		<tag k="name" v="Kudalskoia" />
		<tag k="place" v="isolated_dwelling" />
		<tag k="ssr:stedsnr" v="116478" />
	</node>
	<node lat="60.37265555590275" lon="11.442163886767" id="-37478">
		<tag k="historic" v="shieling" />
		<tag k="name" v="Galterudsætra" />
		<tag k="place" v="isolated_dwelling" />
		<tag k="ssr:stedsnr" v="127053" />
	</node>
	<node lat="60.43920833403877" lon="11.384641663771042" id="-37480">
		<tag k="name" v="Ottkoia" />
		<tag k="place" v="isolated_dwelling" />
		<tag k="ssr:stedsnr" v="127490" />
	</node>
	<node lat="60.41804722150563" lon="11.46614444187948" id="-37483">
		<tag k="name" v="Årud" />
		<tag k="place" v="farm" />
		<tag k="ssr:stedsnr" v="127517" />
	</node>
	<node lat="60.40077075839159" lon="11.48745400747329" id="-37484">
		<tag k="fixme" v="consider place=hamlet" />
		<tag k="name" v="Heer" />
		<tag k="place" v="farm" />
		<tag k="ssr:stedsnr" v="127840" />
	</node>
	<node lat="60.40341111215268" lon="11.535844447523761" id="-37485">
		<tag k="name" v="Bekkholt" />
		<tag k="place" v="farm" />
		<tag k="ssr:stedsnr" v="127845" />
	</node>
	<node lat="60.416874996418166" lon="11.667830560550664" id="-37486">
		<tag k="name" v="Hauge" />
		<tag k="place" v="farm" />
		<tag k="ssr:stedsnr" v="127859" />
	</node>
	<node lat="60.43425989714382" lon="11.520841298275618" id="-37487">
		<tag k="name" v="Lykkja" />
		<tag k="place" v="farm" />
		<tag k="ssr:stedsnr" v="127889" />
	</node>
	<node lat="60.440791664760496" lon="11.603158325857523" id="-37489">
		<tag k="name" v="Netterud" />
		<tag k="place" v="isolated_dwelling" />
		<tag k="ssr:stedsnr" v="127790" />
	</node>
	<node lat="60.44288333088038" lon="11.560936110186207" id="-37490">
		<tag k="name" v="Inngjerdinga" />
		<tag k="place" v="farm" />
		<tag k="ssr:stedsnr" v="127792" />
	</node>
	<node lat="60.43774482007221" lon="11.516791366341968" id="-37491">
		<tag k="alt_name" v="Øvre Holt" />
		<tag k="fixme" v="consider place=hamlet" />
		<tag k="name" v="Holt" />
		<tag k="place" v="farm" />
		<tag k="ssr:stedsnr" v="127793" />
	</node>
	<node lat="60.357965841873046" lon="11.723689904957677" id="-37492">
		<tag k="fixme" v="consider place=hamlet" />
		<tag k="name" v="Kuggerud" />
		<tag k="place" v="farm" />
		<tag k="ssr:stedsnr" v="127911" />
	</node>
	<node lat="60.37674722644548" lon="11.529869445347957" id="-37494">
		<tag k="alt_name" v="Nord-Åsen" />
		<tag k="name" v="Åsen" />
		<tag k="place" v="farm" />
		<tag k="ssr:stedsnr" v="127917" />
	</node>
	<node lat="60.3777611141975" lon="11.526866674405005" id="-37495">
		<tag k="alt_name" v="Nord-Bekken" />
		<tag k="name" v="Bekken" />
		<tag k="place" v="farm" />
		<tag k="ssr:stedsnr" v="127918" />
	</node>
	<node lat="60.543063892232084" lon="11.671541675087704" id="-37496">
		<tag k="historic" v="shieling" />
		<tag k="name" v="Hølsætra" />
		<tag k="place" v="isolated_dwelling" />
		<tag k="ssr:stedsnr" v="128098" />
	</node>
	<node lat="60.48498888701715" lon="11.613408337495644" id="-37497">
		<tag k="name" v="Jonsrud" />
		<tag k="place" v="farm" />
		<tag k="ssr:stedsnr" v="128209" />
	</node>
	<node lat="60.482600002654266" lon="11.6965000079469" id="-37498">
		<tag k="name" v="Gomidalskoia" />
		<tag k="place" v="isolated_dwelling" />
		<tag k="ssr:stedsnr" v="128215" />
	</node>
	<node lat="60.325602777679705" lon="11.572011106963586" id="-37500">
		<tag k="name" v="Mariastuggua" />
		<tag k="place" v="isolated_dwelling" />
		<tag k="ssr:stedsnr" v="161823" />
	</node>
	<node lat="60.504233334569186" lon="11.577827780957746" id="-37503">
		<tag k="name" v="Skirsdamkoia" />
		<tag k="place" v="isolated_dwelling" />
		<tag k="ssr:stedsnr" v="163774" />
	</node>
	<node lat="60.396527780892" lon="11.479694447253536" id="-37513">
		<tag k="name" v="Brenna" />
		<tag k="place" v="farm" />
		<tag k="ssr:stedsnr" v="176504" />
	</node>
	<node lat="60.49235555146732" lon="11.42971389645416" id="-37515">
		<tag k="fixme" v="consider natural=beach + surface=sand" />
		<tag k="leisure" v="swimming_area" />
		<tag k="name" v="Badeberget" />
		<tag k="place" v="locality" />
		<tag k="ssr:stedsnr" v="176828" />
	</node>
	<node lat="60.42525833227921" lon="11.580272229997298" id="-37516">
		<tag k="name" v="Skoglund" />
		<tag k="place" v="farm" />
		<tag k="ssr:stedsnr" v="177364" />
	</node>
	<node lat="60.4080111135653" lon="11.59907221704445" id="-37525">
		<tag k="name" v="Øvre Skolbekken" />
		<tag k="place" v="farm" />
		<tag k="ssr:stedsnr" v="180262" />
	</node>
	<node lat="60.478949997057086" lon="11.75697221592564" id="-37529">
		<tag k="name" v="Vakkerholtet" />
		<tag k="place" v="isolated_dwelling" />
		<tag k="ssr:stedsnr" v="188270" />
	</node>
	<node lat="60.44623509771222" lon="11.623727330830652" id="-37531">
		<tag k="fixme" v="consider place=hamlet" />
		<tag k="name" v="Morterud" />
		<tag k="place" v="farm" />
		<tag k="ssr:stedsnr" v="188802" />
	</node>
	<node lat="60.45075555117627" lon="11.772586115230828" id="-37532">
		<tag k="name" v="Gransjøkoia" />
		<tag k="place" v="isolated_dwelling" />
		<tag k="ssr:stedsnr" v="188816" />
	</node>
	<node lat="60.43298055415958" lon="11.63902499220867" id="-37533">
		<tag k="name" v="Gardstad" />
		<tag k="place" v="farm" />
		<tag k="ssr:stedsnr" v="188871" />
	</node>
	<node lat="60.50067221869372" lon="11.361019449977656" id="-37535">
		<tag k="name" v="Dalsrud" />
		<tag k="place" v="farm" />
		<tag k="ssr:stedsnr" v="189418" />
	</node>
	<node lat="60.438069446580876" lon="11.571547230076488" id="-37536">
		<tag k="name" v="Nord-Toner" />
		<tag k="place" v="farm" />
		<tag k="ssr:stedsnr" v="221606" />
	</node>
	<node lat="60.47858888817732" lon="11.623033333301523" id="-37537">
		<tag k="name" v="Nordlihaugen" />
		<tag k="place" v="farm" />
		<tag k="ssr:stedsnr" v="222403" />
	</node>
	<node lat="60.40330832942619" lon="11.67854167114241" id="-37542">
		<tag k="name" v="Solbakken" />
		<tag k="place" v="farm" />
		<tag k="ssr:stedsnr" v="224223" />
	</node>
	<node lat="60.492233333544725" lon="11.614752771542333" id="-37544">
		<tag k="building" v="industrial" />
		<tag k="industrial" v="factory" />
		<tag k="name" v="Skyrudssaga" />
		<tag k="ssr:stedsnr" v="224443" />
	</node>
	<node lat="60.357294900725734" lon="11.538480931217435" id="-37552">
		<tag k="name" v="Langbråten" />
		<tag k="place" v="farm" />
		<tag k="ssr:stedsnr" v="237286" />
	</node>
	<node lat="60.45799999738272" lon="11.574775003867964" id="-37555">
		<tag k="name" v="Fjellskoia" />
		<tag k="place" v="isolated_dwelling" />
		<tag k="ssr:stedsnr" v="237494" />
	</node>
	<node lat="60.43604444347595" lon="11.526108333916559" id="-37560">
		<tag k="name" v="Skogbakken" />
		<tag k="place" v="farm" />
		<tag k="ssr:stedsnr" v="237896" />
	</node>
	<node lat="60.37743055575024" lon="11.552947226817874" id="-37563">
		<tag k="name" v="Nord-Ekornhol" />
		<tag k="place" v="farm" />
		<tag k="ssr:stedsnr" v="239285" />
	</node>
	<node lat="60.440491666575525" lon="11.475922226583885" id="-37566">
		<tag k="name" v="Enger" />
		<tag k="place" v="farm" />
		<tag k="ssr:stedsnr" v="239615" />
	</node>
	<node lat="60.43225833185577" lon="11.68429445268459" id="-37571">
		<tag k="name" v="Nordkjølen" />
		<tag k="place" v="isolated_dwelling" />
		<tag k="ssr:stedsnr" v="239904" />
	</node>
	<node lat="60.41288055731844" lon="11.386327782847424" id="-37582">
		<tag k="historic" v="shieling" />
		<tag k="name" v="Nysætra" />
		<tag k="place" v="isolated_dwelling" />
		<tag k="ssr:stedsnr" v="248459" />
	</node>
	<node lat="60.462736108983876" lon="11.483344445042164" id="-37583">
		<tag k="name" v="Sannerud" />
		<tag k="place" v="farm" />
		<tag k="ssr:stedsnr" v="248804" />
	</node>
	<node lat="60.46124166959805" lon="11.550986109402917" id="-37584">
		<tag k="alt_name" v="Østre Gravlia" />
		<tag k="name" v="Gravlia" />
		<tag k="place" v="locality" />
		<tag k="ssr:stedsnr" v="248807" />
	</node>
	<node lat="60.468730553086836" lon="11.613222217304981" id="-37585">
		<tag k="name" v="Søberget" />
		<tag k="place" v="farm" />
		<tag k="ssr:stedsnr" v="248817" />
	</node>
	<node lat="60.46691666402099" lon="11.64961111267564" id="-37586">
		<tag k="name" v="Søbakk" />
		<tag k="place" v="farm" />
		<tag k="ssr:stedsnr" v="248821" />
	</node>
	<node lat="60.37080000129489" lon="11.542930560071355" id="-37587">
		<tag k="alt_name" v="Tjernet, søndre;Sør-Tjennet" />
		<tag k="name" v="Søndre Tjernet" />
		<tag k="place" v="farm" />
		<tag k="ssr:stedsnr" v="248902" />
	</node>
	<node lat="60.49757777804688" lon="11.55748333143649" id="-37591">
		<tag k="historic" v="shieling" />
		<tag k="name" v="Jomfrusætra" />
		<tag k="place" v="isolated_dwelling" />
		<tag k="ssr:stedsnr" v="249207" />
	</node>
	<node lat="60.511675003050605" lon="11.53575555705596" id="-37594">
		<tag k="name" v="Deldalskoia" />
		<tag k="place" v="isolated_dwelling" />
		<tag k="ssr:stedsnr" v="249196" />
	</node>
	<node lat="60.47776388833647" lon="11.615936114378625" id="-37595">
		<tag k="name" v="Bakken" />
		<tag k="place" v="farm" />
		<tag k="ssr:stedsnr" v="282402" />
	</node>
	<node lat="60.4691083301757" lon="11.636352778598358" id="-37596">
		<tag k="name" v="Skjønhaug" />
		<tag k="place" v="farm" />
		<tag k="ssr:stedsnr" v="282468" />
	</node>
	<node lat="60.466800001764554" lon="11.644558337089059" id="-37597">
		<tag k="name" v="Skogstad" />
		<tag k="place" v="farm" />
		<tag k="ssr:stedsnr" v="282470" />
	</node>
	<node lat="60.505658333794194" lon="11.641294439284737" id="-37605">
		<tag k="name" v="Skyrudskoia" />
		<tag k="place" v="isolated_dwelling" />
		<tag k="ssr:stedsnr" v="284075" />
	</node>
	<node lat="60.396330559357345" lon="11.468352781038615" id="-37606">
		<tag k="name" v="Nordre Steinberg" />
		<tag k="place" v="farm" />
		<tag k="ssr:stedsnr" v="284526" />
	</node>
	<node lat="60.35248333027134" lon="11.451138885664779" id="-37611">
		<tag k="name" v="Heerkoia" />
		<tag k="place" v="isolated_dwelling" />
		<tag k="ssr:stedsnr" v="284689" />
	</node>
	<node lat="60.4033444481187" lon="11.684730552836527" id="-37617">
		<tag k="name" v="Sør-Sannerud" />
		<tag k="place" v="farm" />
		<tag k="ssr:stedsnr" v="285235" />
	</node>
	<node lat="60.40833889156669" lon="11.520961118321575" id="-37627">
		<tag k="name" v="Søstua" />
		<tag k="place" v="farm" />
		<tag k="ssr:stedsnr" v="298519" />
	</node>
	<node lat="60.441866666506115" lon="11.465944452850751" id="-37631">
		<tag k="name" v="Teigland" />
		<tag k="place" v="farm" />
		<tag k="ssr:stedsnr" v="298935" />
	</node>
	<node lat="60.477813889263366" lon="11.41423333037198" id="-37636">
		<tag k="name" v="Gjeddevasskoia" />
		<tag k="place" v="isolated_dwelling" />
		<tag k="ssr:stedsnr" v="300335" />
	</node>
	<node lat="60.42198888842199" lon="11.64392500548954" id="-37637">
		<tag k="amenity" v="school" />
		<tag k="name" v="Garvik skole" />
		<tag k="ssr:stedsnr" v="300373" />
	</node>
	<node lat="60.443341662986434" lon="11.617463896014275" id="-37648">
		<tag k="name" v="Sandmo" />
		<tag k="place" v="farm" />
		<tag k="ssr:stedsnr" v="464428" />
	</node>
	<node lat="60.47601111456429" lon="11.600213895835148" id="-37649">
		<tag k="name" v="Nybakk" />
		<tag k="place" v="farm" />
		<tag k="ssr:stedsnr" v="464433" />
	</node>
	<node lat="60.335874999500554" lon="11.608255548937029" id="-37656">
		<tag k="name" v="Vestli" />
		<tag k="place" v="farm" />
		<tag k="ssr:stedsnr" v="465773" />
	</node>
	<node lat="60.49940000179551" lon="11.36269999971485" id="-37659">
		<tag k="name" v="Enga" />
		<tag k="old_name" v="Søbråten" />
		<tag k="place" v="farm" />
		<tag k="ssr:stedsnr" v="309433" />
	</node>
	<node lat="60.39788055166669" lon="11.54780832890357" id="-37663">
		<tag k="name" v="Myrvoll" />
		<tag k="place" v="farm" />
		<tag k="ssr:stedsnr" v="309809" />
	</node>
	<node lat="60.399416670179434" lon="11.500133332991343" id="-37664">
		<tag k="name" v="Delbekk" />
		<tag k="place" v="farm" />
		<tag k="ssr:stedsnr" v="309817" />
	</node>
	<node lat="60.40280644285496" lon="11.673368187656635" id="-37665">
		<tag k="name" v="Storbråten" />
		<tag k="place" v="farm" />
		<tag k="ssr:stedsnr" v="309829" />
	</node>
	<node lat="60.402202777990034" lon="11.605919435529097" id="-37666">
		<tag k="alt_name" v="Krattebølsætra" />
		<tag k="name" v="Sæter" />
		<tag k="place" v="farm" />
		<tag k="ssr:stedsnr" v="309831" />
	</node>
	<node lat="60.40746388447105" lon="11.771444451620694" id="-37667">
		<tag k="historic" v="shieling" />
		<tag k="name" v="Bergsætra" />
		<tag k="place" v="isolated_dwelling" />
		<tag k="ssr:stedsnr" v="309839" />
	</node>
	<node lat="60.46413445659041" lon="11.478463152053022" id="-37668">
		<tag k="name" v="Holtet" />
		<tag k="place" v="farm" />
		<tag k="ssr:stedsnr" v="309790" />
	</node>
	<node lat="60.468765670064826" lon="11.622115849900679" id="-37669">
		<tag k="fixme" v="consider place=hamlet" />
		<tag k="name" v="Knapper" />
		<tag k="place" v="village" />
		<tag k="ssr:stedsnr" v="309797" />
	</node>
	<node lat="60.34622777329166" lon="11.600947227505202" id="-37672">
		<tag k="alt_name" v="Midtre Svarverud" />
		<tag k="name" v="Svarverud" />
		<tag k="place" v="farm" />
		<tag k="ssr:stedsnr" v="309996" />
	</node>
	<node lat="60.39378344360862" lon="11.577891236667666" id="-37674">
		<tag k="name" v="Fallet" />
		<tag k="place" v="farm" />
		<tag k="ssr:stedsnr" v="310912" />
	</node>
	<node lat="60.3796499788162" lon="11.538024838949308" id="-37675">
		<tag k="loc_name" v="Vikslykkja" />
		<tag k="name" v="Viksløkka" />
		<tag k="old_name" v="Viksløkken" />
		<tag k="place" v="farm" />
		<tag k="ssr:stedsnr" v="310900" />
	</node>
	<node lat="60.37620833602231" lon="11.699902777184032" id="-37676">
		<tag k="name" v="Lensebakken" />
		<tag k="place" v="farm" />
		<tag k="ssr:stedsnr" v="466136" />
	</node>
	<node lat="60.39329721888734" lon="11.685158326265116" id="-37677">
		<tag k="name" v="Heggerud" />
		<tag k="place" v="farm" />
		<tag k="ssr:stedsnr" v="466237" />
	</node>
	<node lat="60.45877222176464" lon="11.541899999071022" id="-37680">
		<tag k="name" v="Vestre Gravlia" />
		<tag k="place" v="locality" />
		<tag k="ssr:stedsnr" v="466497" />
	</node>
	<node lat="60.42006944761694" lon="11.509033338123436" id="-37684">
		<tag k="name" v="Breibyhaugen" />
		<tag k="place" v="farm" />
		<tag k="ssr:stedsnr" v="466988" />
	</node>
	<node lat="60.41978333685903" lon="11.513491667736862" id="-37685">
		<tag k="name" v="Sør-Breiby" />
		<tag k="place" v="farm" />
		<tag k="ssr:stedsnr" v="466989" />
	</node>
	<node lat="60.44806447377859" lon="11.595604009394938" id="-37695">
		<tag k="name" v="Nybråten" />
		<tag k="place" v="locality" />
		<tag k="ssr:stedsnr" v="343412" />
	</node>
	<node lat="60.34158888472503" lon="11.588400000675547" id="-37699">
		<tag k="name" v="Øver-Vangen" />
		<tag k="place" v="locality" />
		<tag k="ssr:stedsnr" v="343795" />
	</node>
	<node lat="60.42183889293687" lon="11.49217500779031" id="-37702">
		<tag k="alt_name" v="Føsker" />
		<tag k="name" v="Sør-Føsker" />
		<tag k="place" v="farm" />
		<tag k="ssr:stedsnr" v="343890" />
	</node>
	<node lat="60.378816665714176" lon="11.757369443227066" id="-37715">
		<tag k="name" v="Ufstjennskoia" />
		<tag k="place" v="locality" />
		<tag k="ssr:stedsnr" v="350753" />
	</node>
	<node lat="60.411349998439874" lon="11.519269439188392" id="-37717">
		<tag k="name" v="Arstua" />
		<tag k="place" v="farm" />
		<tag k="ssr:stedsnr" v="358549" />
	</node>
	<node lat="60.448305559543165" lon="11.455899994419314" id="-37723">
		<tag k="name" v="Myrholmen" />
		<tag k="place" v="farm" />
		<tag k="ssr:stedsnr" v="358949" />
	</node>
	<node lat="60.37689166995755" lon="11.547350001225741" id="-37724">
		<tag k="name" v="Haugen" />
		<tag k="place" v="farm" />
		<tag k="ssr:stedsnr" v="360256" />
	</node>
	<node lat="60.375124999557464" lon="11.531044446187163" id="-37725">
		<tag k="name" v="Sør-Bekken" />
		<tag k="place" v="farm" />
		<tag k="ssr:stedsnr" v="360258" />
	</node>
	<node lat="60.548213890939515" lon="11.673155548771687" id="-37727">
		<tag k="name" v="Østre Tolverkoia" />
		<tag k="place" v="locality" />
		<tag k="ssr:stedsnr" v="360505" />
	</node>
	<node lat="60.39569722420191" lon="11.439433339268584" id="-37728">
		<tag k="alt_name" v="Bjørnstadsætra, østre;Bjørnstadsætra" />
		<tag k="historic" v="shieling" />
		<tag k="name" v="Østre Bjørnstadsætra" />
		<tag k="place" v="isolated_dwelling" />
		<tag k="ssr:stedsnr" v="370005" />
	</node>
	<node lat="60.37838055862653" lon="11.429591670896908" id="-37729">
		<tag k="name" v="Haugom" />
		<tag k="place" v="locality" />
		<tag k="ssr:stedsnr" v="370047" />
	</node>
	<node lat="60.49506666302308" lon="11.719855557036098" id="-37730">
		<tag k="name" v="Korbølsætra" />
		<tag k="place" v="hamlet" />
		<tag k="ssr:stedsnr" v="370271" />
	</node>
	<node lat="60.48196111485223" lon="11.61647222836986" id="-37731">
		<tag k="name" v="Fossen" />
		<tag k="place" v="farm" />
		<tag k="ssr:stedsnr" v="370280" />
	</node>
	<node lat="60.484384776700686" lon="11.645973464181175" id="-37732">
		<tag k="alt_name" v="Bråten, vestre" />
		<tag k="name" v="Bråten" />
		<tag k="place" v="farm" />
		<tag k="ssr:stedsnr" v="370284" />
	</node>
	<node lat="60.47811180198217" lon="11.415495951874197" id="-37733">
		<tag k="name" v="Damkoie" />
		<tag k="place" v="locality" />
		<tag k="ssr:stedsnr" v="370473" />
	</node>
	<node lat="60.451622225039394" lon="11.461697225983057" id="-37734">
		<tag k="name" v="Slettmo" />
		<tag k="place" v="farm" />
		<tag k="ssr:stedsnr" v="370506" />
	</node>
	<node lat="60.44246388604914" lon="11.65547221612299" id="-37735">
		<tag k="name" v="Tjernsligrenda" />
		<tag k="place" v="hamlet" />
		<tag k="ssr:stedsnr" v="370762" />
	</node>
	<node lat="60.43618611327714" lon="11.637733332435495" id="-37736">
		<tag k="name" v="Elsmo" />
		<tag k="place" v="farm" />
		<tag k="ssr:stedsnr" v="370763" />
	</node>
	<node lat="60.440427774374676" lon="11.61959721634232" id="-37737">
		<tag k="name" v="Bryn" />
		<tag k="place" v="farm" />
		<tag k="ssr:stedsnr" v="370764" />
	</node>
	<node lat="60.43916226129856" lon="11.612884614658304" id="-37738">
		<tag k="name" v="Veium" />
		<tag k="place" v="farm" />
		<tag k="ssr:stedsnr" v="370765" />
	</node>
	<node lat="60.460948599844585" lon="11.48201239340041" id="-37740">
		<tag k="name" v="Kolbråtån" />
		<tag k="place" v="farm" />
		<tag k="ssr:stedsnr" v="370805" />
	</node>
	<node lat="60.465970835837595" lon="11.617229035358232" id="-37742">
		<tag k="name" v="Sønsterud" />
		<tag k="place" v="farm" />
		<tag k="ssr:stedsnr" v="370814" />
	</node>
	<node lat="60.374722224516916" lon="11.479355555828905" id="-37744">
		<tag k="historic" v="shieling" />
		<tag k="name" v="Sandsætra" />
		<tag k="place" v="isolated_dwelling" />
		<tag k="ssr:stedsnr" v="370902" />
	</node>
	<node lat="60.497497221115864" lon="11.433119450614694" id="-37753">
		<tag k="name" v="Nord-Lien" />
		<tag k="place" v="farm" />
		<tag k="ssr:stedsnr" v="480849" />
	</node>
	<node lat="60.424511111795525" lon="11.632086111676431" id="-37762">
		<tag k="name" v="Østmoen" />
		<tag k="place" v="farm" />
		<tag k="ssr:stedsnr" v="482679" />
	</node>
	<node lat="60.43950277842349" lon="11.75482221947881" id="-37764">
		<tag k="name" v="Nordlikoia" />
		<tag k="place" v="locality" />
		<tag k="ssr:stedsnr" v="482848" />
	</node>
	<node lat="60.421272225465806" lon="11.729191663173655" id="-37776">
		<tag k="name" v="Varden" />
		<tag k="place" v="isolated_dwelling" />
		<tag k="ssr:stedsnr" v="483868" />
	</node>
	<node lat="60.428297222787386" lon="11.688336104271363" id="-37777">
		<tag k="name" v="Gunnarkjølen" />
		<tag k="place" v="farm" />
		<tag k="ssr:stedsnr" v="483870" />
	</node>
	<node lat="60.41302777707493" lon="11.662330548956605" id="-37782">
		<tag k="name" v="Granås" />
		<tag k="place" v="farm" />
		<tag k="ssr:stedsnr" v="483854" />
	</node>
	<node lat="60.41329999812659" lon="11.669488890590033" id="-37784">
		<tag k="name" v="Lyngås" />
		<tag k="place" v="farm" />
		<tag k="ssr:stedsnr" v="483856" />
	</node>
	<node lat="60.506663891674215" lon="11.406711110990493" id="-37787">
		<tag k="name" v="Skarfallet" />
		<tag k="place" v="locality" />
		<tag k="ssr:stedsnr" v="404110" />
	</node>
	<node lat="60.44797777708447" lon="11.622241665434384" id="-37788">
		<tag k="name" v="Reine" />
		<tag k="place" v="farm" />
		<tag k="ssr:stedsnr" v="404408" />
	</node>
	<node lat="60.43624444581452" lon="11.612944443710806" id="-37789">
		<tag k="name" v="Nedre Myrer" />
		<tag k="place" v="farm" />
		<tag k="ssr:stedsnr" v="404397" />
	</node>
	<node lat="60.47743055961072" lon="11.540533336049963" id="-37795">
		<tag k="name" v="Harabua" />
		<tag k="place" v="isolated_dwelling" />
		<tag k="ssr:stedsnr" v="406101" />
	</node>
	<node lat="60.37489999911861" lon="11.545486107010637" id="-37798">
		<tag k="name" v="Stuggua" />
		<tag k="place" v="isolated_dwelling" />
		<tag k="ssr:stedsnr" v="406314" />
	</node>
	<node lat="60.42151111283285" lon="11.514258328852211" id="-37804">
		<tag k="name" v="Mellom-Breiby" />
		<tag k="place" v="farm" />
		<tag k="ssr:stedsnr" v="406992" />
	</node>
	<node lat="60.381888884817904" lon="11.677869451981296" id="-37805">
		<tag k="leisure" v="pitch" />
		<tag k="name" v="Myra stadion" />
		<tag k="ssr:stedsnr" v="410743" />
	</node>
	<node lat="60.37973213665165" lon="11.59613445087719" id="-37811">
		<tag k="name" v="Andersvika" />
		<tag k="place" v="farm" />
		<tag k="ssr:stedsnr" v="419292" />
	</node>
	<node lat="60.44861666811199" lon="11.481852782448184" id="-37817">
		<tag k="name" v="Oliv" />
		<tag k="place" v="farm" />
		<tag k="ssr:stedsnr" v="419932" />
	</node>
	<node lat="60.44118055163618" lon="11.498388894464469" id="-37819">
		<tag k="name" v="Øststua" />
		<tag k="place" v="farm" />
		<tag k="ssr:stedsnr" v="419951" />
	</node>
	<node lat="60.35935277516921" lon="11.451836117449274" id="-37832">
		<tag k="name" v="Masthaugen" />
		<tag k="place" v="isolated_dwelling" />
		<tag k="ssr:stedsnr" v="491068" />
	</node>
	<node lat="60.45154325944553" lon="11.464375748319606" id="-37835">
		<tag k="name" v="Arnerud" />
		<tag k="place" v="farm" />
		<tag k="ssr:stedsnr" v="431492" />
	</node>
	<node lat="60.44980833361413" lon="11.483969443353352" id="-37836">
		<tag k="name" v="Østby" />
		<tag k="place" v="farm" />
		<tag k="ssr:stedsnr" v="431792" />
	</node>
	<node lat="60.4583194472773" lon="11.632594443447474" id="-37838">
		<tag k="name" v="Mangnes" />
		<tag k="place" v="farm" />
		<tag k="ssr:stedsnr" v="431806" />
	</node>
	<node lat="60.40567499956884" lon="11.74311667164188" id="-37839">
		<tag k="historic" v="shieling" />
		<tag k="name" v="Husmannssætra" />
		<tag k="place" v="isolated_dwelling" />
		<tag k="ssr:stedsnr" v="431841" />
	</node>
	<node lat="60.432461109913206" lon="11.636230550986202" id="-37841">
		<tag k="name" v="Åmot" />
		<tag k="place" v="farm" />
		<tag k="ssr:stedsnr" v="431890" />
	</node>
	<node lat="60.49574999842151" lon="11.435227775181847" id="-37842">
		<tag k="fixme" v="multiple name tags, choose one and add the other to alt_name" />
		<tag k="name" v="Lognsjølia;Sør-Lien" />
		<tag k="place" v="farm" />
		<tag k="ssr:stedsnr" v="491428" />
	</node>
	<node lat="60.398127778851936" lon="11.644741673869948" id="-37843">
		<tag k="name" v="Trøhaugen" />
		<tag k="place" v="farm" />
		<tag k="ssr:stedsnr" v="431935" />
	</node>
	<node lat="60.38559999708431" lon="11.583708328171886" id="-37845">
		<tag k="name" v="Brenna" />
		<tag k="place" v="farm" />
		<tag k="ssr:stedsnr" v="431944" />
	</node>
	<node lat="60.378266662258326" lon="11.692819443204382" id="-37846">
		<tag k="fixme" v="consider place=hamlet" />
		<tag k="name" v="Austvatn" />
		<tag k="place" v="village" />
		<tag k="ssr:stedsnr" v="431950" />
	</node>
	<node lat="60.33248889232262" lon="11.496533325529693" id="-37847">
		<tag k="name" v="Kanken" />
		<tag k="place" v="isolated_dwelling" />
		<tag k="ssr:stedsnr" v="431992" />
	</node>
	<node lat="60.338460731374255" lon="11.616391076605343" id="-37848">
		<tag k="fixme" v="consider place=hamlet" />
		<tag k="name" v="Bjelker" />
		<tag k="place" v="farm" />
		<tag k="ssr:stedsnr" v="431993" />
	</node>
	<node lat="60.573050004516475" lon="11.609083328542837" id="-37849">
		<tag k="name" v="Kjølstua" />
		<tag k="place" v="isolated_dwelling" />
		<tag k="ssr:stedsnr" v="432143" />
	</node>
	<node lat="60.52483611246701" lon="11.67964444190586" id="-37850">
		<tag k="historic" v="shieling" />
		<tag k="name" v="Puttsætra" />
		<tag k="place" v="isolated_dwelling" />
		<tag k="ssr:stedsnr" v="432238" />
	</node>
	<node lat="60.449619025231954" lon="11.498287600903925" id="-37851">
		<tag k="name" v="Åbråten" />
		<tag k="place" v="farm" />
		<tag k="ssr:stedsnr" v="491770" />
	</node>
	<node lat="60.4602500018663" lon="11.617763882728289" id="-37852">
		<tag k="alt_name" v="Nordre Vangen" />
		<tag k="name" v="Vangen" />
		<tag k="place" v="farm" />
		<tag k="ssr:stedsnr" v="491771" />
	</node>
	<node lat="60.457100003777725" lon="11.776208336334548" id="-37853">
		<tag k="name" v="Kulpkoia" />
		<tag k="place" v="isolated_dwelling" />
		<tag k="ssr:stedsnr" v="491775" />
	</node>
	<node lat="60.47153333676401" lon="11.618819444888583" id="-37854">
		<tag k="name" v="Borge" />
		<tag k="place" v="farm" />
		<tag k="ssr:stedsnr" v="491786" />
	</node>
	<node lat="60.46904999969725" lon="11.636449998807441" id="-37855">
		<tag k="name" v="Melby" />
		<tag k="place" v="farm" />
		<tag k="ssr:stedsnr" v="491788" />
	</node>
	<node lat="60.46377222516668" lon="11.641094438280392" id="-37856">
		<tag k="name" v="Bergstua" />
		<tag k="place" v="farm" />
		<tag k="ssr:stedsnr" v="491789" />
	</node>
	<node lat="60.47953888979082" lon="11.6386999951586" id="-37857">
		<tag k="alt_name" v="Køien" />
		<tag k="name" v="Køya" />
		<tag k="place" v="farm" />
		<tag k="ssr:stedsnr" v="491796" />
	</node>
	<node lat="60.478861107243894" lon="11.648466664242482" id="-37858">
		<tag k="name" v="Vangen" />
		<tag k="place" v="farm" />
		<tag k="ssr:stedsnr" v="491799" />
	</node>
	<node lat="60.44014573910968" lon="11.468871167612448" id="-37861">
		<tag k="fixme" v="consider place=hamlet" />
		<tag k="name" v="Røne" />
		<tag k="place" v="farm" />
		<tag k="ssr:stedsnr" v="491753" />
	</node>
	<node lat="60.452341669436244" lon="11.622997214674644" id="-37862">
		<tag k="name" v="Ringkilen" />
		<tag k="place" v="farm" />
		<tag k="ssr:stedsnr" v="491755" />
	</node>
	<node lat="60.44954999958918" lon="11.624180553652115" id="-37863">
		<tag k="name" v="Norderud" />
		<tag k="place" v="farm" />
		<tag k="ssr:stedsnr" v="491757" />
	</node>
	<node lat="60.447193709333376" lon="11.47948388292205" id="-37864">
		<tag k="fixme" v="consider place=hamlet" />
		<tag k="name" v="Trauten" />
		<tag k="place" v="farm" />
		<tag k="ssr:stedsnr" v="491764" />
	</node>
	<node lat="60.45207499815171" lon="11.542175003674117" id="-37865">
		<tag k="alt_name" v="Sør-Streverud" />
		<tag k="name" v="Streverud" />
		<tag k="place" v="locality" />
		<tag k="ssr:stedsnr" v="491767" />
	</node>
	<node lat="60.43042499704759" lon="11.666125008545427" id="-37870">
		<tag k="name" v="Bekkegrenda" />
		<tag k="place" v="hamlet" />
		<tag k="ssr:stedsnr" v="491857" />
	</node>
	<node lat="60.43296666632476" lon="11.60095000790314" id="-37872">
		<tag k="alt_name" v="Fjell, nordre" />
		<tag k="name" v="Nordre Fjell" />
		<tag k="place" v="farm" />
		<tag k="ssr:stedsnr" v="491868" />
	</node>
	<node lat="60.39505555402091" lon="11.672633328381213" id="-37875">
		<tag k="name" v="Sørkedalen" />
		<tag k="place" v="farm" />
		<tag k="ssr:stedsnr" v="492922" />
	</node>
	<node lat="60.39428888482243" lon="11.7916444373173" id="-37876">
		<tag k="historic" v="shieling" />
		<tag k="name" v="Abborsætra" />
		<tag k="place" v="isolated_dwelling" />
		<tag k="ssr:stedsnr" v="492925" />
	</node>
	<node lat="60.45209166995782" lon="11.495291673431074" id="-37877">
		<tag k="name" v="Korsholen" />
		<tag k="place" v="quarter" />
		<tag k="ssr:stedsnr" v="450765" />
	</node>
	<node lat="60.47260827993967" lon="11.457695077912808" id="-37878">
		<tag k="name" v="Gruva" />
		<tag k="place" v="locality" />
		<tag k="ssr:stedsnr" v="673446" />
	</node>
	<node lat="60.43711666567048" lon="11.729841665754211" id="-37879">
		<tag k="alt_name" v="Skållbergsætra" />
		<tag k="historic" v="shieling" />
		<tag k="name" v="Skålbergsætra" />
		<tag k="place" v="isolated_dwelling" />
		<tag k="ssr:stedsnr" v="673744" />
	</node>
	<node lat="60.44238888923907" lon="11.47078889000016" id="-37880">
		<tag k="name" v="Rovelstad" />
		<tag k="place" v="farm" />
		<tag k="ssr:stedsnr" v="673747" />
	</node>
	<node lat="60.4415749963562" lon="11.79420278312555" id="-37881">
		<tag k="name" v="Brederud" />
		<tag k="place" v="isolated_dwelling" />
		<tag k="ssr:stedsnr" v="673748" />
	</node>
	<node lat="60.438298830786" lon="11.57045090763214" id="-37882">
		<tag k="alt_name" v="Store Toner;St. Toner" />
		<tag k="fixme" v="consider place=hamlet" />
		<tag k="name" v="Toner" />
		<tag k="place" v="farm" />
		<tag k="ssr:stedsnr" v="673751" />
	</node>
	<node lat="60.45512500412659" lon="11.630897221993232" id="-37884">
		<tag k="name" v="Mangset" />
		<tag k="place" v="farm" />
		<tag k="ssr:stedsnr" v="673769" />
	</node>
	<node lat="60.420750002455904" lon="11.720299991675247" id="-37885">
		<tag k="historic" v="shieling" />
		<tag k="name" v="Bakkesætra" />
		<tag k="place" v="isolated_dwelling" />
		<tag k="ssr:stedsnr" v="673858" />
	</node>
	<node lat="60.42223668201823" lon="11.514429472883089" id="-37886">
		<tag k="alt_name" v="Nord-Breiby" />
		<tag k="fixme" v="consider place=hamlet" />
		<tag k="name" v="Breiby" />
		<tag k="place" v="farm" />
		<tag k="ssr:stedsnr" v="673859" />
	</node>
	<node lat="60.422911106847124" lon="11.791766665013057" id="-37887">
		<tag k="name" v="Stuttbakkoia" />
		<tag k="place" v="isolated_dwelling" />
		<tag k="ssr:stedsnr" v="673863" />
	</node>
	<node lat="60.46739166235174" lon="11.691369439919722" id="-37889">
		<tag k="name" v="Svullkoia" />
		<tag k="place" v="isolated_dwelling" />
		<tag k="ssr:stedsnr" v="673780" />
	</node>
	<node lat="60.46390833034092" lon="11.488552771324137" id="-37892">
		<tag k="name" v="Johansrud" />
		<tag k="place" v="farm" />
		<tag k="ssr:stedsnr" v="673787" />
	</node>
	<node lat="60.35650351854666" lon="11.603192478015687" id="-37893">
		<tag k="fixme" v="consider place=hamlet" />
		<tag k="name" v="Songnes" />
		<tag k="place" v="farm" />
		<tag k="ssr:stedsnr" v="673885" />
	</node>
	<node lat="60.47172777999145" lon="11.607116667315005" id="-37894">
		<tag k="name" v="Nordberget" />
		<tag k="place" v="farm" />
		<tag k="ssr:stedsnr" v="673798" />
	</node>
	<node lat="60.520541664023476" lon="11.68594167291942" id="-37899">
		<tag k="historic" v="shieling" />
		<tag k="name" v="Stømnersætra" />
		<tag k="place" v="isolated_dwelling" />
		<tag k="ssr:stedsnr" v="674217" />
	</node>
	<node lat="60.49222540679649" lon="11.507423286047818" id="-37900">
		<tag k="name" v="Eriksætra" />
		<tag k="place" v="farm" />
		<tag k="ssr:stedsnr" v="674219" />
	</node>
	<node lat="60.505425000689506" lon="11.588597217309857" id="-37901">
		<tag k="historic" v="shieling" />
		<tag k="name" v="Skirshaugsætra" />
		<tag k="place" v="isolated_dwelling" />
		<tag k="ssr:stedsnr" v="674220" />
	</node>
	<node lat="60.43559167049916" lon="11.463277784433407" id="-37903">
		<tag k="alt_name" v="Lishaugen" />
		<tag k="name" v="Haugen" />
		<tag k="place" v="farm" />
		<tag k="ssr:stedsnr" v="674425" />
	</node>
	<node lat="60.50687222596475" lon="11.366838884174786" id="-37904">
		<tag k="alt_name" v="Millom" />
		<tag k="name" v="Mellom" />
		<tag k="place" v="farm" />
		<tag k="ssr:stedsnr" v="674487" />
	</node>
	<node lat="60.547363885300534" lon="11.64344444520299" id="-37910">
		<tag k="name" v="Vestre Tolverkoia" />
		<tag k="place" v="locality" />
		<tag k="ssr:stedsnr" v="466164" />
	</node>
	<node lat="60.370297220712814" lon="11.548125000591828" id="-37911">
		<tag k="name" v="Plassen" />
		<tag k="place" v="farm" />
		<tag k="ssr:stedsnr" v="466326" />
	</node>
	<node lat="60.391508332115535" lon="11.549375000110368" id="-37912">
		<tag k="alt_name" v="Sand" />
		<tag k="name" v="Øvre Sand" />
		<tag k="place" v="farm" />
		<tag k="ssr:stedsnr" v="674915" />
	</node>
	<node lat="60.384152000616545" lon="11.57357491377501" id="-37913">
		<tag k="fixme" v="consider place=hamlet" />
		<tag k="name" v="Krattebøl" />
		<tag k="place" v="farm" />
		<tag k="ssr:stedsnr" v="674917" />
	</node>
	<node lat="60.47122221931269" lon="11.385311104285734" id="-37914">
		<tag k="name" v="Bergkoia" />
		<tag k="place" v="isolated_dwelling" />
		<tag k="ssr:stedsnr" v="466637" />
	</node>
	<node lat="60.51028889000749" lon="11.511347229035719" id="-37925">
		<tag k="name" v="Mjøvasskoia" />
		<tag k="place" v="isolated_dwelling" />
		<tag k="ssr:stedsnr" v="479569" />
	</node>
	<node lat="60.429072222232506" lon="11.57459999731379" id="-37926">
		<tag k="name" v="Hovde" />
		<tag k="place" v="farm" />
		<tag k="ssr:stedsnr" v="480321" />
	</node>
	<node lat="60.44666110819565" lon="11.461241668121803" id="-37928">
		<tag k="name" v="Sandvoll" />
		<tag k="place" v="farm" />
		<tag k="ssr:stedsnr" v="480957" />
	</node>
	<node lat="60.440133903756745" lon="11.482420182169118" id="-37930">
		<tag k="alt_name" v="Trautmoen" />
		<tag k="name" v="Moen" />
		<tag k="place" v="locality" />
		<tag k="ssr:stedsnr" v="480969" />
	</node>
	<node lat="60.43769722504578" lon="11.51516111238745" id="-37931">
		<tag k="name" v="Nedre Holt" />
		<tag k="place" v="farm" />
		<tag k="ssr:stedsnr" v="480974" />
	</node>
	<node lat="60.38801388913293" lon="11.538127773642179" id="-37934">
		<tag k="amenity" v="school" />
		<tag k="name" v="Sand sentralskole" />
		<tag k="ssr:stedsnr" v="482313" />
	</node>
	<node lat="60.404952780546346" lon="11.43657499530571" id="-37942">
		<tag k="historic" v="shieling" />
		<tag k="name" v="Sæterbu" />
		<tag k="place" v="isolated_dwelling" />
		<tag k="ssr:stedsnr" v="491509" />
	</node>
	<node lat="60.4615888916138" lon="11.742508336244864" id="-37943">
		<tag k="alt_name" v="Garviksætra" />
		<tag k="historic" v="shieling" />
		<tag k="name" v="Gardviksætra" />
		<tag k="place" v="isolated_dwelling" />
		<tag k="ssr:stedsnr" v="491778" />
	</node>
	<node lat="60.35651124359944" lon="11.582130315678391" id="-37944">
		<tag k="name" v="Høybråten" />
		<tag k="place" v="farm" />
		<tag k="ssr:stedsnr" v="491909" />
	</node>
	<node lat="60.379936089008815" lon="11.711353515571735" id="-37945">
		<tag k="alt_name" v="Berg, s" />
		<tag k="fixme" v="consider place=hamlet" />
		<tag k="name" v="Søndre Berg" />
		<tag k="place" v="farm" />
		<tag k="ssr:stedsnr" v="491924" />
	</node>
	<node lat="60.34814166293537" lon="11.534416667739045" id="-37950">
		<tag k="name" v="Bjelkerkoia" />
		<tag k="place" v="isolated_dwelling" />
		<tag k="ssr:stedsnr" v="491881" />
	</node>
	<node lat="60.53240277924369" lon="11.656622228774081" id="-37951">
		<tag k="historic" v="shieling" />
		<tag k="name" v="Paradissætra" />
		<tag k="place" v="isolated_dwelling" />
		<tag k="ssr:stedsnr" v="492203" />
	</node>
	<node lat="60.50805555576394" lon="11.613422217363627" id="-37961">
		<tag k="historic" v="shieling" />
		<tag k="name" v="Dalsæterkoia" />
		<tag k="place" v="isolated_dwelling" />
		<tag k="ssr:stedsnr" v="527089" />
	</node>
	<node lat="60.38996389088239" lon="11.6932222201732" id="-37962">
		<tag k="name" v="Berger" />
		<tag k="place" v="locality" />
		<tag k="ssr:stedsnr" v="527226" />
	</node>
	<node lat="60.4082833315392" lon="11.65041667321454" id="-37964">
		<tag k="name" v="Østli" />
		<tag k="place" v="farm" />
		<tag k="ssr:stedsnr" v="527233" />
	</node>
	<node lat="60.35626667071025" lon="11.730722223236164" id="-37983">
		<tag k="name" v="Sagstua" />
		<tag k="place" v="farm" />
		<tag k="ssr:stedsnr" v="542203" />
	</node>
	<node lat="60.38876111178184" lon="11.542316660592595" id="-37984">
		<tag k="name" v="Tangen" />
		<tag k="place" v="farm" />
		<tag k="ssr:stedsnr" v="542302" />
	</node>
	<node lat="60.3881972234943" lon="11.557844440771774" id="-37985">
		<tag k="name" v="Kjonhaugen" />
		<tag k="old_name" v="He;Skogly" />
		<tag k="place" v="farm" />
		<tag k="ssr:stedsnr" v="542312" />
	</node>
	<node lat="60.44069722201484" lon="11.465530553136189" id="-37987">
		<tag k="name" v="Oppset" />
		<tag k="place" v="farm" />
		<tag k="ssr:stedsnr" v="542608" />
	</node>
	<node lat="60.441238893131896" lon="11.65576945058851" id="-37989">
		<tag k="name" v="Stenberg" />
		<tag k="place" v="isolated_dwelling" />
		<tag k="ssr:stedsnr" v="542884" />
	</node>
	<node lat="60.39421079009821" lon="11.606199713265166" id="-37996">
		<tag k="name" v="Nord-Bunes" />
		<tag k="place" v="farm" />
		<tag k="ssr:stedsnr" v="544279" />
	</node>
	<node lat="60.45156389137802" lon="11.613508333540036" id="-38000">
		<tag k="name" v="Inngjerdinga" />
		<tag k="place" v="farm" />
		<tag k="ssr:stedsnr" v="551788" />
	</node>
	<node lat="60.3768138879221" lon="11.579252782262607" id="-38001">
		<tag k="name" v="Smedvika" />
		<tag k="place" v="farm" />
		<tag k="ssr:stedsnr" v="551915" />
	</node>
	<node lat="60.44760536415855" lon="11.560168164461523" id="-38002">
		<tag k="name" v="Brattli" />
		<tag k="place" v="farm" />
		<tag k="ssr:stedsnr" v="551805" />
	</node>
	<node lat="60.44861944465992" lon="11.505080551537517" id="-38003">
		<tag k="name" v="Malerud" />
		<tag k="place" v="farm" />
		<tag k="ssr:stedsnr" v="551808" />
	</node>
	<node lat="60.461224997785166" lon="11.63988610237757" id="-38004">
		<tag k="name" v="Grinda" />
		<tag k="place" v="farm" />
		<tag k="ssr:stedsnr" v="551814" />
	</node>
	<node lat="60.497669444121264" lon="11.504980559933111" id="-38007">
		<tag k="historic" v="shieling" />
		<tag k="name" v="Vatningsætra" />
		<tag k="place" v="isolated_dwelling" />
		<tag k="ssr:stedsnr" v="552248" />
	</node>
	<node lat="60.413895622033266" lon="11.462442653817334" id="-38011">
		<tag k="fixme" v="consider place=hamlet" />
		<tag k="name" v="Løset" />
		<tag k="place" v="farm" />
		<tag k="ssr:stedsnr" v="552537" />
	</node>
	<node lat="60.41292777768516" lon="11.422177780035758" id="-38012">
		<tag k="historic" v="shieling" />
		<tag k="name" v="Føskersæterkoia" />
		<tag k="place" v="isolated_dwelling" />
		<tag k="ssr:stedsnr" v="552542" />
	</node>
	<node lat="60.3953833354591" lon="11.518488889293488" id="-38013">
		<tag k="name" v="Sollaust" />
		<tag k="place" v="farm" />
		<tag k="ssr:stedsnr" v="552841" />
	</node>
	<node lat="60.43334722301104" lon="11.568608329572747" id="-38015">
		<tag k="name" v="Vestby" />
		<tag k="place" v="farm" />
		<tag k="ssr:stedsnr" v="552896" />
	</node>
	<node lat="60.43614166991867" lon="11.527583335012595" id="-38016">
		<tag k="name" v="Tune" />
		<tag k="place" v="farm" />
		<tag k="ssr:stedsnr" v="552783" />
	</node>
	<node lat="60.37203943073357" lon="11.551090972842918" id="-38018">
		<tag k="name" v="Grønnerud" />
		<tag k="place" v="farm" />
		<tag k="ssr:stedsnr" v="552915" />
	</node>
	<node lat="60.379169445297066" lon="11.752405555146636" id="-38020">
		<tag k="alt_name" v="Nedre Tjennsli" />
		<tag k="name" v="Tjernsli" />
		<tag k="place" v="farm" />
		<tag k="ssr:stedsnr" v="552927" />
	</node>
	<node lat="60.392214993461636" lon="11.540297160589608" id="-38025">
		<tag k="name" v="Sand" />
		<tag k="place" v="village" />
		<tag k="ssr:stedsnr" v="693288" />
	</node>
	<node lat="60.43532777782168" lon="11.580302769105653" id="-38027">
		<tag k="name" v="Smestad" />
		<tag k="place" v="farm" />
		<tag k="ssr:stedsnr" v="585329" />
	</node>
	<node lat="60.47268611132185" lon="11.627544450229477" id="-38028">
		<tag k="name" v="Nordre Sørli" />
		<tag k="place" v="farm" />
		<tag k="ssr:stedsnr" v="585433" />
	</node>
	<node lat="60.41813859050053" lon="11.649926164040986" id="-38030">
		<tag k="name" v="Gardvikåsen" />
		<tag k="place" v="quarter" />
		<tag k="ssr:stedsnr" v="585808" />
	</node>
	<node lat="60.42640161800484" lon="11.489996817807613" id="-38031">
		<tag k="fixme" v="consider place=hamlet" />
		<tag k="name" v="Føsker" />
		<tag k="place" v="farm" />
		<tag k="ssr:stedsnr" v="586256" />
	</node>
	<node lat="60.38510555405229" lon="11.689577773735646" id="-38036">
		<tag k="name" v="Linnerud" />
		<tag k="place" v="farm" />
		<tag k="ssr:stedsnr" v="587147" />
	</node>
	<node lat="60.38257116007173" lon="11.689328032937217" id="-38037">
		<tag k="name" v="Austvasshagen" />
		<tag k="place" v="farm" />
		<tag k="ssr:stedsnr" v="587152" />
	</node>
	<node lat="60.41026666565385" lon="11.655588883610301" id="-38040">
		<tag k="name" v="Søndre Dammen" />
		<tag k="place" v="farm" />
		<tag k="ssr:stedsnr" v="587247" />
	</node>
	<node lat="60.40479166706064" lon="11.660494440188568" id="-38041">
		<tag k="name" v="Nordby" />
		<tag k="place" v="farm" />
		<tag k="ssr:stedsnr" v="587248" />
	</node>
	<node lat="60.38234996793927" lon="11.684373504837897" id="-38043">
		<tag k="name" v="Lykkja" />
		<tag k="place" v="farm" />
		<tag k="ssr:stedsnr" v="587517" />
	</node>
	<node lat="60.39779155713693" lon="11.731995257118564" id="-38049">
		<tag k="name" v="Djuptjennkoia" />
		<tag k="place" v="locality" />
		<tag k="ssr:stedsnr" v="592157" />
	</node>
	<node lat="60.49115000072077" lon="11.47305833600353" id="-38052">
		<tag k="historic" v="shieling" />
		<tag k="name" v="Bruntjennssætra" />
		<tag k="place" v="isolated_dwelling" />
		<tag k="ssr:stedsnr" v="593515" />
	</node>
	<node lat="60.37981110929092" lon="11.590755552041161" id="-38056">
		<tag k="name" v="Viken" />
		<tag k="place" v="farm" />
		<tag k="ssr:stedsnr" v="601256" />
	</node>
	<node lat="60.375686108366104" lon="11.610313894362816" id="-38057">
		<tag k="name" v="Hoksmo" />
		<tag k="place" v="farm" />
		<tag k="ssr:stedsnr" v="601260" />
	</node>
	<node lat="60.3787761663966" lon="11.597527785231732" id="-38059">
		<tag k="name" v="Søvika" />
		<tag k="place" v="locality" />
		<tag k="ssr:stedsnr" v="601264" />
	</node>
	<node lat="60.4354166632738" lon="11.489244448292316" id="-38066">
		<tag k="name" v="Nesmyra" />
		<tag k="place" v="farm" />
		<tag k="ssr:stedsnr" v="601951" />
	</node>
	<node lat="60.443500000058286" lon="11.494774993180885" id="-38067">
		<tag k="name" v="Nordstua" />
		<tag k="place" v="farm" />
		<tag k="ssr:stedsnr" v="601952" />
	</node>
	<node lat="60.44033611433118" lon="11.399738887184222" id="-38069">
		<tag k="name" v="Nydamkoia" />
		<tag k="place" v="isolated_dwelling" />
		<tag k="ssr:stedsnr" v="603268" />
	</node>
	<node lat="60.37778307942145" lon="11.502249740814147" id="-38070">
		<tag k="name" v="Evensløkka" />
		<tag k="place" v="farm" />
		<tag k="ssr:stedsnr" v="604607" />
	</node>
	<node lat="60.39437222552272" lon="11.467291667654823" id="-38075">
		<tag k="alt_name" v="Søndre Steinberg" />
		<tag k="name" v="Stenberg" />
		<tag k="place" v="farm" />
		<tag k="ssr:stedsnr" v="612002" />
	</node>
	<node lat="60.47114845138239" lon="11.77137137944783" id="-38077">
		<tag k="historic" v="shieling" />
		<tag k="name" v="Solør-Østmosætra" />
		<tag k="place" v="isolated_dwelling" />
		<tag k="ssr:stedsnr" v="612806" />
	</node>
	<node lat="60.447386114290445" lon="11.61383056236571" id="-38078">
		<tag k="name" v="Dalen" />
		<tag k="place" v="farm" />
		<tag k="ssr:stedsnr" v="612767" />
	</node>
	<node lat="60.45144274994118" lon="11.556864809456014" id="-38079">
		<tag k="alt_name" v="Tostensbråten" />
		<tag k="name" v="Bråten" />
		<tag k="place" v="farm" />
		<tag k="ssr:stedsnr" v="612777" />
	</node>
	<node lat="60.46671283581987" lon="11.747868537661411" id="-38080">
		<tag k="name" v="Østmokoia" />
		<tag k="place" v="locality" />
		<tag k="ssr:stedsnr" v="612787" />
	</node>
	<node lat="60.35572548139365" lon="11.589346475808453" id="-38081">
		<tag k="alt_name" v="Linnerud" />
		<tag k="name" v="Linderud" />
		<tag k="place" v="farm" />
		<tag k="ssr:stedsnr" v="612917" />
	</node>
	<node lat="60.42929722538977" lon="11.615769441002286" id="-38082">
		<tag k="name" v="Viker" />
		<tag k="place" v="farm" />
		<tag k="ssr:stedsnr" v="612860" />
	</node>
	<node lat="60.509147220025596" lon="11.617911103100617" id="-38083">
		<tag k="historic" v="shieling" />
		<tag k="name" v="Holtslåtten" />
		<tag k="place" v="isolated_dwelling" />
		<tag k="ssr:stedsnr" v="613221" />
	</node>
	<node lat="60.39789113935681" lon="11.478187454838668" id="-38087">
		<tag k="name" v="Nerli" />
		<tag k="place" v="farm" />
		<tag k="ssr:stedsnr" v="613806" />
	</node>
	<node lat="60.405211115395055" lon="11.647969436021977" id="-38088">
		<tag k="name" v="Lutne" />
		<tag k="place" v="farm" />
		<tag k="ssr:stedsnr" v="613822" />
	</node>
	<node lat="60.40409830486314" lon="11.492349686020916" id="-38089">
		<tag k="fixme" v="consider place=hamlet" />
		<tag k="name" v="Galterud" />
		<tag k="place" v="farm" />
		<tag k="ssr:stedsnr" v="613834" />
	</node>
	<node lat="60.38346666582458" lon="11.677833337557118" id="-38090">
		<tag k="name" v="Sorknes" />
		<tag k="place" v="farm" />
		<tag k="ssr:stedsnr" v="613931" />
	</node>
	<node lat="60.43713055592982" lon="11.635963895981591" id="-38096">
		<tag k="name" v="Damholen" />
		<tag k="place" v="farm" />
		<tag k="ssr:stedsnr" v="646406" />
	</node>
	<node lat="60.463502773703546" lon="11.637050006037015" id="-38098">
		<tag k="name" v="Vestby" />
		<tag k="place" v="farm" />
		<tag k="ssr:stedsnr" v="646478" />
	</node>
	<node lat="60.46791388874913" lon="11.641500005616123" id="-38099">
		<tag k="name" v="Kvernstuen" />
		<tag k="place" v="farm" />
		<tag k="ssr:stedsnr" v="646482" />
	</node>
	<node lat="60.49978333249998" lon="11.36449444878484" id="-38109">
		<tag k="name" v="Gammeldalsrud" />
		<tag k="place" v="locality" />
		<tag k="ssr:stedsnr" v="707001" />
	</node>
	<node lat="60.45073889332074" lon="11.635816660134473" id="-38120">
		<tag k="name" v="Gran" />
		<tag k="place" v="farm" />
		<tag k="ssr:stedsnr" v="707391" />
	</node>
	<node lat="60.435652774563245" lon="11.624897221770837" id="-38121">
		<tag k="name" v="Lunby" />
		<tag k="place" v="farm" />
		<tag k="ssr:stedsnr" v="707425" />
	</node>
	<node lat="60.455949997408226" lon="11.63888889272202" id="-38122">
		<tag k="name" v="Bergsødegården" />
		<tag k="place" v="farm" />
		<tag k="ssr:stedsnr" v="707439" />
	</node>
	<node lat="60.311969444877796" lon="11.623350003038752" id="-38124">
		<tag k="name" v="Veiti" />
		<tag k="place" v="farm" />
		<tag k="ssr:stedsnr" v="707841" />
	</node>
	<node lat="60.47971944507248" lon="11.579363897702413" id="-38129">
		<tag k="name" v="Øyset" />
		<tag k="place" v="locality" />
		<tag k="ssr:stedsnr" v="709089" />
	</node>
	<node lat="60.37830833313694" lon="11.685261103883409" id="-38132">
		<tag k="name" v="Utgarden" />
		<tag k="place" v="farm" />
		<tag k="ssr:stedsnr" v="709140" />
	</node>
	<node lat="60.3956027804512" lon="11.681508340209522" id="-38134">
		<tag k="name" v="Øverby" />
		<tag k="place" v="isolated_dwelling" />
		<tag k="ssr:stedsnr" v="709240" />
	</node>
	<node lat="60.40794722045466" lon="11.659805559288762" id="-38135">
		<tag k="name" v="Kvernstuhaugen" />
		<tag k="place" v="farm" />
		<tag k="ssr:stedsnr" v="709254" />
	</node>
	<node lat="60.40672222219478" lon="11.684358336738597" id="-38136">
		<tag k="name" v="Nord-Sannerud" />
		<tag k="place" v="farm" />
		<tag k="ssr:stedsnr" v="709255" />
	</node>
	<node lat="60.40952222136812" lon="11.486402784618802" id="-38137">
		<tag k="name" v="Nordstua Rud" />
		<tag k="place" v="farm" />
		<tag k="ssr:stedsnr" v="662541" />
	</node>
	<node lat="60.405083640122236" lon="11.529627488679326" id="-38138">
		<tag k="name" v="Karlstad" />
		<tag k="place" v="farm" />
		<tag k="ssr:stedsnr" v="662543" />
	</node>
	<node lat="60.39012222156923" lon="11.674963886644143" id="-38139">
		<tag k="name" v="Rønningen" />
		<tag k="place" v="farm" />
		<tag k="ssr:stedsnr" v="709272" />
	</node>
	<node lat="60.431574997028335" lon="11.6175749966244" id="-38146">
		<tag k="name" v="Movang" />
		<tag k="place" v="farm" />
		<tag k="ssr:stedsnr" v="664312" />
	</node>
	<node lat="60.429433335787806" lon="11.616952784423647" id="-38147">
		<tag k="name" v="Hauger" />
		<tag k="place" v="farm" />
		<tag k="ssr:stedsnr" v="664314" />
	</node>
	<node lat="60.39261666409012" lon="11.468233329455805" id="-38151">
		<tag k="name" v="Nyberg" />
		<tag k="place" v="farm" />
		<tag k="ssr:stedsnr" v="709522" />
	</node>
	<node lat="60.4101777808467" lon="11.519088893353413" id="-38155">
		<tag k="alt_name" v="Veststua;Dagfinrud" />
		<tag k="name" v="Veststua Dagfinrud" />
		<tag k="place" v="farm" />
		<tag k="ssr:stedsnr" v="665593" />
	</node>
	<node lat="60.412050003762566" lon="11.520633329587792" id="-38161">
		<tag k="name" v="Nordstua" />
		<tag k="place" v="farm" />
		<tag k="ssr:stedsnr" v="709981" />
	</node>
	<node lat="60.41489932914739" lon="11.48777009458215" id="-38162">
		<tag k="name" v="Øvre Føskerbråten" />
		<tag k="place" v="locality" />
		<tag k="ssr:stedsnr" v="709983" />
	</node>
	<node lat="60.3977277782817" lon="11.404436108901827" id="-38167">
		<tag k="alt_name" v="Bjertnessætra" />
		<tag k="name" v="Bjertnes" />
		<tag k="place" v="isolated_dwelling" />
		<tag k="ssr:stedsnr" v="673008" />
	</node>
	<node lat="60.42501944455422" lon="11.456611119900291" id="-38169">
		<tag k="name" v="Sollund" />
		<tag k="place" v="isolated_dwelling" />
		<tag k="ssr:stedsnr" v="673513" />
	</node>
	<node lat="60.4692444431555" lon="11.650263881037985" id="-38170">
		<tag k="name" v="Øyset" />
		<tag k="place" v="farm" />
		<tag k="ssr:stedsnr" v="673804" />
	</node>
	<node lat="60.471808329676456" lon="11.687077777168213" id="-38171">
		<tag k="name" v="Snøplogkoia" />
		<tag k="place" v="isolated_dwelling" />
		<tag k="ssr:stedsnr" v="673811" />
	</node>
	<node lat="60.44181666914887" lon="11.559969443130166" id="-38173">
		<tag k="alt_name" v="Toner, l" />
		<tag k="loc_name" v="Vesle Toner" />
		<tag k="name" v="Lille Toner" />
		<tag k="old_name" v="Lille-Thoner" />
		<tag k="place" v="farm" />
		<tag k="ssr:stedsnr" v="673755" />
	</node>
	<node lat="60.38067954740261" lon="11.587633245839955" id="-38175">
		<tag k="name" v="Inngjerdinga" />
		<tag k="place" v="farm" />
		<tag k="ssr:stedsnr" v="673924" />
	</node>
	<node lat="60.37877314253464" lon="11.59752346159936" id="-38176">
		<tag k="name" v="Svennebyvika" />
		<tag k="place" v="locality" />
		<tag k="ssr:stedsnr" v="673925" />
	</node>
	<node lat="60.3771646822427" lon="11.654562157439681" id="-38177">
		<tag k="fixme" v="consider place=hamlet" />
		<tag k="name" v="Trøsi" />
		<tag k="place" v="farm" />
		<tag k="ssr:stedsnr" v="673926" />
	</node>
	<node lat="60.45679469222998" lon="11.440125830305877" id="-38181">
		<tag k="name" v="Fløytdamkoia" />
		<tag k="place" v="locality" />
		<tag k="ssr:stedsnr" v="890946" />
	</node>
	<node lat="60.36342499991647" lon="11.459086102436714" id="-38184">
		<tag k="name" v="Galterudskoia" />
		<tag k="place" v="isolated_dwelling" />
		<tag k="ssr:stedsnr" v="891700" />
	</node>
	<node lat="60.45849444820244" lon="11.544963881434537" id="-38192">
		<tag k="name" v="Mellom-Gravlia" />
		<tag k="place" v="locality" />
		<tag k="ssr:stedsnr" v="891509" />
	</node>
	<node lat="60.43316667079854" lon="11.66523611922264" id="-38194">
		<tag k="name" v="Bertebekken" />
		<tag k="place" v="farm" />
		<tag k="ssr:stedsnr" v="891892" />
	</node>
	<node lat="60.49424898492501" lon="11.356076546539317" id="-38197">
		<tag k="name" v="Rovelstadbråten" />
		<tag k="place" v="farm" />
		<tag k="ssr:stedsnr" v="891976" />
	</node>
	<node lat="60.41393333610702" lon="11.474580560458499" id="-38198">
		<tag k="name" v="Skogheim" />
		<tag k="place" v="farm" />
		<tag k="ssr:stedsnr" v="891987" />
	</node>
	<node lat="60.42713888956989" lon="11.51274443973583" id="-38199">
		<tag k="name" v="Steinskjær" />
		<tag k="place" v="farm" />
		<tag k="ssr:stedsnr" v="891998" />
	</node>
	<node lat="60.39534795602219" lon="11.518104063014803" id="-38202">
		<tag k="fixme" v="consider place=hamlet" />
		<tag k="name" v="Sollaust" />
		<tag k="place" v="farm" />
		<tag k="ssr:stedsnr" v="896784" />
	</node>
	<node lat="60.453122221414034" lon="11.611658339218797" id="-38205">
		<tag k="name" v="Fredrikstad" />
		<tag k="place" v="farm" />
		<tag k="ssr:stedsnr" v="708792" />
	</node>
	<node lat="60.376097225604745" lon="11.422708333032936" id="-38214">
		<tag k="name" v="Abbortjennskoia" />
		<tag k="place" v="locality" />
		<tag k="ssr:stedsnr" v="714874" />
	</node>
	<node lat="60.39920555867244" lon="11.55124999556299" id="-38219">
		<tag k="name" v="Vandevja" />
		<tag k="place" v="farm" />
		<tag k="ssr:stedsnr" v="723344" />
	</node>
	<node lat="60.44948611494615" lon="11.488338882444982" id="-38225">
		<tag k="name" v="Skyrudsmoen" />
		<tag k="place" v="farm" />
		<tag k="ssr:stedsnr" v="723941" />
	</node>
	<node lat="60.43212500372007" lon="11.605097230052511" id="-38231">
		<tag k="leisure" v="park" />
		<tag k="name" v="Kolstadparken" />
		<tag k="ssr:stedsnr" v="725320" />
	</node>
	<node lat="60.44763708702219" lon="11.744038998874375" id="-38234">
		<tag k="name" v="Persløkkekoia" />
		<tag k="place" v="locality" />
		<tag k="ssr:stedsnr" v="725837" />
	</node>
	<node lat="60.39661944213094" lon="11.676663894020397" id="-38235">
		<tag k="alt_name" v="Nystua" />
		<tag k="name" v="Sørkedalen" />
		<tag k="place" v="farm" />
		<tag k="ssr:stedsnr" v="725710" />
	</node>
	<node lat="60.41839444304459" lon="11.508591668874546" id="-38242">
		<tag k="name" v="Vilborg" />
		<tag k="place" v="farm" />
		<tag k="ssr:stedsnr" v="734838" />
	</node>
	<node lat="60.42280000174351" lon="11.74274722667795" id="-38243">
		<tag k="name" v="Åsvingen" />
		<tag k="place" v="isolated_dwelling" />
		<tag k="ssr:stedsnr" v="734841" />
	</node>
	<node lat="60.3737194437032" lon="11.534922229735821" id="-38245">
		<tag k="alt_name" v="Tjernet, nordre;Nord-Tjennet" />
		<tag k="name" v="Nordre Tjernet" />
		<tag k="place" v="farm" />
		<tag k="ssr:stedsnr" v="734889" />
	</node>
	<node lat="60.46418290442969" lon="11.502347115646058" id="-38246">
		<tag k="fixme" v="consider place=hamlet" />
		<tag k="name" v="Linder" />
		<tag k="place" v="farm" />
		<tag k="ssr:stedsnr" v="734791" />
	</node>
	<node lat="60.326755571452445" lon="11.615121193167711" id="-38249">
		<tag k="fixme" v="consider place=hamlet" />
		<tag k="name" v="Luker" />
		<tag k="place" v="farm" />
		<tag k="ssr:stedsnr" v="734981" />
	</node>
	<node lat="60.37789354874396" lon="11.597753733230443" id="-38257">
		<tag k="name" v="Søndre Søvika" />
		<tag k="place" v="farm" />
		<tag k="ssr:stedsnr" v="905287" />
	</node>
	<node lat="60.4084777742478" lon="11.515955557928693" id="-38259">
		<tag k="name" v="Enevoll" />
		<tag k="place" v="farm" />
		<tag k="ssr:stedsnr" v="905552" />
	</node>
	<node lat="60.39950277653021" lon="11.525061117802563" id="-38261">
		<tag k="name" v="Vestli" />
		<tag k="place" v="farm" />
		<tag k="ssr:stedsnr" v="905556" />
	</node>
	<node lat="60.39834722463822" lon="11.490802778947154" id="-38262">
		<tag k="name" v="Inngjerdinga" />
		<tag k="place" v="farm" />
		<tag k="ssr:stedsnr" v="905560" />
	</node>
	<node lat="60.396894448022934" lon="11.498477775504716" id="-38263">
		<tag k="name" v="Øvre Delbekk" />
		<tag k="place" v="farm" />
		<tag k="ssr:stedsnr" v="905564" />
	</node>
	<node lat="60.52460555324623" lon="11.562486119235446" id="-38274">
		<tag k="name" v="Syverkoia" />
		<tag k="place" v="locality" />
		<tag k="ssr:stedsnr" v="768795" />
	</node>
	<node lat="60.34889412952349" lon="11.599398507671413" id="-38275">
		<tag k="name" v="Granli" />
		<tag k="place" v="farm" />
		<tag k="ssr:stedsnr" v="768798" />
	</node>
	<node lat="60.357238887254866" lon="11.593236111686128" id="-38276">
		<tag k="name" v="Strandhaug" />
		<tag k="place" v="farm" />
		<tag k="ssr:stedsnr" v="768799" />
	</node>
	<node lat="60.4051361112557" lon="11.463438884898284" id="-38284">
		<tag k="name" v="Gråmyrkoia" />
		<tag k="place" v="isolated_dwelling" />
		<tag k="ssr:stedsnr" v="769512" />
	</node>
	<node lat="60.43063160327131" lon="11.586951964519665" id="-38288">
		<tag k="name" v="Haga" />
		<tag k="place" v="farm" />
		<tag k="ssr:stedsnr" v="907342" />
	</node>
	<node lat="60.356289505270595" lon="11.587097961159003" id="-38289">
		<tag k="name" v="Songnesbråten" />
		<tag k="place" v="farm" />
		<tag k="ssr:stedsnr" v="907376" />
	</node>
	<node lat="60.40184735435231" lon="11.524549005651412" id="-38290">
		<tag k="name" v="Søndre Sandsbråten" />
		<tag k="place" v="farm" />
		<tag k="ssr:stedsnr" v="907378" />
	</node>
	<node lat="60.38827777337236" lon="11.672825003272177" id="-38293">
		<tag k="name" v="Såheim" />
		<tag k="place" v="farm" />
		<tag k="ssr:stedsnr" v="770131" />
	</node>
	<node lat="60.53619444282501" lon="11.66076110552136" id="-38301">
		<tag k="name" v="Myssmørdøsskoia" />
		<tag k="place" v="locality" />
		<tag k="ssr:stedsnr" v="907930" />
	</node>
	<node lat="60.5315388925524" lon="11.656199991443263" id="-38302">
		<tag k="name" v="Gomyrkoia" />
		<tag k="place" v="locality" />
		<tag k="ssr:stedsnr" v="907931" />
	</node>
	<node lat="60.38363610766633" lon="11.597111115320724" id="-38305">
		<tag k="name" v="Lunde" />
		<tag k="place" v="farm" />
		<tag k="ssr:stedsnr" v="908297" />
	</node>
	<node lat="60.380788892913394" lon="11.690500008121557" id="-38307">
		<tag k="fixme" v="multiple name tags, choose one and add the other to alt_name" />
		<tag k="name" v="Veststua Austvatn;Austvatn" />
		<tag k="place" v="farm" />
		<tag k="ssr:stedsnr" v="908383" />
	</node>
	<node lat="60.41177222407512" lon="11.522330559297078" id="-38313">
		<tag k="alt_name" v="Dagfinrud;Øststua" />
		<tag k="name" v="Øststua Dagfinrud" />
		<tag k="place" v="farm" />
		<tag k="ssr:stedsnr" v="908575" />
	</node>
	<node lat="60.44805278101987" lon="11.465758332881547" id="-38321">
		<tag k="name" v="Rovelstadmoen" />
		<tag k="place" v="farm" />
		<tag k="ssr:stedsnr" v="783950" />
	</node>
	<node lat="60.46574166872579" lon="11.48504999726424" id="-38322">
		<tag k="name" v="Vangom" />
		<tag k="place" v="farm" />
		<tag k="ssr:stedsnr" v="783867" />
	</node>
	<node lat="60.43144444448898" lon="11.616791671004494" id="-38323">
		<tag k="name" v="Vestereng" />
		<tag k="place" v="farm" />
		<tag k="ssr:stedsnr" v="785310" />
	</node>
	<node lat="60.43007222299299" lon="11.632749994513459" id="-38324">
		<tag k="name" v="Myrvoll" />
		<tag k="place" v="farm" />
		<tag k="ssr:stedsnr" v="785314" />
	</node>
	<node lat="60.37515555122679" lon="11.50466944837248" id="-38335">
		<tag k="name" v="Tonerkoia" />
		<tag k="place" v="isolated_dwelling" />
		<tag k="ssr:stedsnr" v="787622" />
	</node>
	<node lat="60.49630833030213" lon="11.51043611050624" id="-38341">
		<tag k="historic" v="shieling" />
		<tag k="name" v="Skinnarbu" />
		<tag k="place" v="isolated_dwelling" />
		<tag k="ssr:stedsnr" v="795264" />
	</node>
	<node lat="60.49494722274729" lon="11.601927781394487" id="-38342">
		<tag k="name" v="Botner" />
		<tag k="place" v="isolated_dwelling" />
		<tag k="ssr:stedsnr" v="795267" />
	</node>
	<node lat="60.43424722009383" lon="11.63904167257035" id="-38348">
		<tag k="name" v="Brustad" />
		<tag k="place" v="farm" />
		<tag k="ssr:stedsnr" v="795869" />
	</node>
	<node lat="60.430599738318286" lon="11.497401345693108" id="-38349">
		<tag k="fixme" v="consider place=hamlet" />
		<tag k="name" v="Nes" />
		<tag k="place" v="farm" />
		<tag k="ssr:stedsnr" v="795879" />
	</node>
	<node lat="60.37686666259132" lon="11.712902776291452" id="-38350">
		<tag k="name" v="Pilterud" />
		<tag k="place" v="farm" />
		<tag k="ssr:stedsnr" v="795917" />
	</node>
	<node lat="60.31155589377353" lon="11.617349178492503" id="-38351">
		<tag k="name" v="Steinerud" />
		<tag k="place" v="farm" />
		<tag k="ssr:stedsnr" v="795967" />
	</node>
	<node lat="60.3082564434164" lon="11.617866770118692" id="-38352">
		<tag k="alt_name" v="Midtre Iler" />
		<tag k="name" v="Iler" />
		<tag k="place" v="farm" />
		<tag k="ssr:stedsnr" v="795972" />
	</node>
	<node lat="60.305450003164054" lon="11.547683338197318" id="-38353">
		<tag k="historic" v="shieling" />
		<tag k="name" v="Dalsætra" />
		<tag k="place" v="isolated_dwelling" />
		<tag k="ssr:stedsnr" v="795977" />
	</node>
	<node lat="60.40010649284801" lon="11.525358871675714" id="-38354">
		<tag k="name" v="Norderud" />
		<tag k="place" v="farm" />
		<tag k="ssr:stedsnr" v="916832" />
	</node>
	<node lat="60.39344193173843" lon="11.471198756988871" id="-38355">
		<tag k="name" v="Nybergshagen" />
		<tag k="place" v="farm" />
		<tag k="ssr:stedsnr" v="916834" />
	</node>
	<node lat="60.40617499990952" lon="11.675497230038395" id="-38356">
		<tag k="name" v="Østby" />
		<tag k="place" v="farm" />
		<tag k="ssr:stedsnr" v="916841" />
	</node>
	<node lat="60.401780553691225" lon="11.662561105043913" id="-38357">
		<tag k="name" v="Høyby" />
		<tag k="place" v="farm" />
		<tag k="ssr:stedsnr" v="916842" />
	</node>
	<node lat="60.49073889127751" lon="11.394969440795347" id="-38359">
		<tag k="name" v="Mortleikkoia" />
		<tag k="place" v="isolated_dwelling" />
		<tag k="ssr:stedsnr" v="916401" />
	</node>
	<node lat="60.46123611548656" lon="11.630597226511505" id="-38361">
		<tag k="name" v="Ringnes" />
		<tag k="place" v="farm" />
		<tag k="ssr:stedsnr" v="916801" />
	</node>
	<node lat="60.33124166929917" lon="11.550272229864632" id="-38362">
		<tag k="historic" v="shieling" />
		<tag k="name" v="Kroksrudsætra" />
		<tag k="place" v="isolated_dwelling" />
		<tag k="ssr:stedsnr" v="917000" />
	</node>
	<node lat="60.53449412652592" lon="11.599909344312755" id="-38367">
		<tag k="name" v="Koivolla" />
		<tag k="place" v="locality" />
		<tag k="ssr:stedsnr" v="917196" />
	</node>
	<node lat="60.47652496068845" lon="11.602882124563804" id="-38368">
		<tag k="name" v="Øverby" />
		<tag k="place" v="farm" />
		<tag k="ssr:stedsnr" v="917199" />
	</node>
	<node lat="60.529552776649645" lon="11.628169449268057" id="-38369">
		<tag k="historic" v="shieling" />
		<tag k="name" v="Bergesætra" />
		<tag k="place" v="isolated_dwelling" />
		<tag k="ssr:stedsnr" v="917200" />
	</node>
	<node lat="60.476163884448184" lon="11.617694448862377" id="-38370">
		<tag k="alt_name" v="Øvre Holen" />
		<tag k="name" v="Holen" />
		<tag k="place" v="farm" />
		<tag k="ssr:stedsnr" v="917202" />
	</node>
	<node lat="60.40263055786997" lon="11.809036113111423" id="-38372">
		<tag k="name" v="Øvre Grasberget" />
		<tag k="place" v="locality" />
		<tag k="ssr:stedsnr" v="814444" />
	</node>
	<node lat="60.50564040769868" lon="11.387207949428475" id="-38374">
		<tag k="name" v="Nordhagen" />
		<tag k="place" v="farm" />
		<tag k="ssr:stedsnr" v="829127" />
	</node>
	<node lat="60.43894167037307" lon="11.559708331814996" id="-38375">
		<tag k="name" v="Tonerberget" />
		<tag k="place" v="farm" />
		<tag k="ssr:stedsnr" v="829372" />
	</node>
	<node lat="60.516730552600315" lon="11.636619446302815" id="-38384">
		<tag k="name" v="Åtterkoia" />
		<tag k="place" v="isolated_dwelling" />
		<tag k="ssr:stedsnr" v="831082" />
	</node>
	<node lat="60.402124376585455" lon="11.65023579151432" id="-38385">
		<tag k="name" v="Trøbråten" />
		<tag k="place" v="locality" />
		<tag k="ssr:stedsnr" v="831230" />
	</node>
	<node lat="60.45463888478885" lon="11.539669436397228" id="-38386">
		<tag k="name" v="Nord-Streverud" />
		<tag k="place" v="locality" />
		<tag k="ssr:stedsnr" v="831478" />
	</node>
	<node lat="60.47203333276266" lon="11.517436102558412" id="-38387">
		<tag k="name" v="Lønndalskoia" />
		<tag k="place" v="isolated_dwelling" />
		<tag k="ssr:stedsnr" v="831879" />
	</node>
	<node lat="60.4127306328592" lon="11.487260576780898" id="-38388">
		<tag k="name" v="Rudsbråten" />
		<tag k="place" v="farm" />
		<tag k="ssr:stedsnr" v="831983" />
	</node>
	<node lat="60.367544723293506" lon="11.552809256072413" id="-38394">
		<tag k="name" v="Illgomyra" />
		<tag k="place" v="locality" />
		<tag k="ssr:stedsnr" v="844778" />
	</node>
	<node lat="60.41580277538152" lon="11.597502771290785" id="-38397">
		<tag k="name" v="Ås" />
		<tag k="place" v="farm" />
		<tag k="ssr:stedsnr" v="846310" />
	</node>
	<node lat="60.41285555436249" lon="11.664974996318751" id="-38410">
		<tag k="name" v="Austgård" />
		<tag k="place" v="farm" />
		<tag k="ssr:stedsnr" v="848811" />
	</node>
	<node lat="60.42611111348929" lon="11.423916667102857" id="-38414">
		<tag k="name" v="Storkoia" />
		<tag k="place" v="isolated_dwelling" />
		<tag k="ssr:stedsnr" v="855468" />
	</node>
	<node lat="60.368463185516326" lon="11.55919749402364" id="-38416">
		<tag k="fixme" v="consider place=hamlet" />
		<tag k="name" v="Illgo" />
		<tag k="place" v="farm" />
		<tag k="ssr:stedsnr" v="855895" />
	</node>
	<node lat="60.36263609565081" lon="11.576868143193586" id="-38417">
		<tag k="fixme" v="consider place=hamlet" />
		<tag k="name" v="Hanor" />
		<tag k="place" v="farm" />
		<tag k="ssr:stedsnr" v="855900" />
	</node>
	<node lat="60.389647219438785" lon="11.464608340076383" id="-38418">
		<tag k="name" v="Damholen" />
		<tag k="place" v="farm" />
		<tag k="ssr:stedsnr" v="856025" />
	</node>
	<node lat="60.49312499986865" lon="11.55789722877755" id="-38419">
		<tag k="historic" v="shieling" />
		<tag k="name" v="Gardsætra" />
		<tag k="place" v="isolated_dwelling" />
		<tag k="ssr:stedsnr" v="856236" />
	</node>
	<node lat="60.40463055602183" lon="11.685372224896216" id="-38424">
		<tag k="name" v="Sanderud" />
		<tag k="place" v="farm" />
		<tag k="ssr:stedsnr" v="856829" />
	</node>
	<node lat="60.40609733238812" lon="11.600781041577118" id="-38425">
		<tag k="name" v="Nordre Skolbekken" />
		<tag k="place" v="farm" />
		<tag k="ssr:stedsnr" v="856835" />
	</node>
	<node lat="60.40043611114389" lon="11.409788887082787" id="-38427">
		<tag k="historic" v="shieling" />
		<tag k="name" v="Sundsætra" />
		<tag k="place" v="isolated_dwelling" />
		<tag k="ssr:stedsnr" v="869982" />
	</node>
	<node lat="60.41278610722154" lon="11.386372226952098" id="-38428">
		<tag k="historic" v="shieling" />
		<tag k="name" v="Nysætra" />
		<tag k="place" v="isolated_dwelling" />
		<tag k="ssr:stedsnr" v="869984" />
	</node>
	<node lat="60.448519441339485" lon="11.627763888428545" id="-38435">
		<tag k="name" v="Ånerud" />
		<tag k="place" v="farm" />
		<tag k="ssr:stedsnr" v="890398" />
	</node>
	<node lat="60.3557194489071" lon="11.47608611388327" id="-38443">
		<tag k="name" v="Granmyrlikoia" />
		<tag k="place" v="isolated_dwelling" />
		<tag k="ssr:stedsnr" v="891676" />
	</node>
	<node lat="60.475594448450344" lon="11.588894438867893" id="-38444">
		<tag k="name" v="Nyhus" />
		<tag k="place" v="isolated_dwelling" />
		<tag k="ssr:stedsnr" v="895762" />
	</node>
	<node lat="60.41375833162114" lon="11.752499996665689" id="-38447">
		<tag k="name" v="Nøkktjennskoia" />
		<tag k="place" v="isolated_dwelling" />
		<tag k="ssr:stedsnr" v="897210" />
	</node>
	<node lat="60.40512499952893" lon="11.436288887266798" id="-38449">
		<tag k="name" v="Hansmyra" />
		<tag k="place" v="isolated_dwelling" />
		<tag k="ssr:stedsnr" v="900160" />
	</node>
	<node lat="60.43695833157886" lon="11.464544449173983" id="-38455">
		<tag k="name" v="Haugli" />
		<tag k="place" v="farm" />
		<tag k="ssr:stedsnr" v="905949" />
	</node>
	<node lat="60.44503888687643" lon="11.467072221955268" id="-38456">
		<tag k="alt_name" v="Østvold" />
		<tag k="name" v="Østvoll" />
		<tag k="place" v="farm" />
		<tag k="ssr:stedsnr" v="905953" />
	</node>
	<node lat="60.40619444830301" lon="11.675344437321723" id="-38469">
		<tag k="name" v="Persstua" />
		<tag k="place" v="farm" />
		<tag k="ssr:stedsnr" v="907623" />
	</node>
	<node lat="60.50924166915291" lon="11.6783666624478" id="-38471">
		<tag k="name" v="Gåsvikkoia" />
		<tag k="place" v="locality" />
		<tag k="ssr:stedsnr" v="907904" />
	</node>
	<node lat="60.34575555978622" lon="11.495027786751653" id="-38477">
		<tag k="historic" v="shieling" />
		<tag k="name" v="Ekornholsætra" />
		<tag k="place" v="isolated_dwelling" />
		<tag k="ssr:stedsnr" v="916907" />
	</node>
	<node lat="60.363972224671194" lon="11.5367750080876" id="-38478">
		<tag k="name" v="Bjørnlihaugen" />
		<tag k="place" v="farm" />
		<tag k="ssr:stedsnr" v="916916" />
	</node>
	<node lat="60.46658611289925" lon="11.542477784943458" id="-38479">
		<tag k="historic" v="shieling" />
		<tag k="name" v="Holtsætra" />
		<tag k="place" v="isolated_dwelling" />
		<tag k="ssr:stedsnr" v="916811" />
	</node>
	<node lat="60.42422388589485" lon="11.63399177183439" id="-38481">
		<tag k="fixme" v="consider place=hamlet" />
		<tag k="name" v="Østmoen" />
		<tag k="place" v="farm" />
		<tag k="ssr:stedsnr" v="916870" />
	</node>
	<node lat="60.430166665888294" lon="11.57778610570851" id="-38482">
		<tag k="alt_name" v="Vestre Fjell" />
		<tag k="name" v="Vestfjell" />
		<tag k="place" v="farm" />
		<tag k="ssr:stedsnr" v="916881" />
	</node>
	<node lat="60.32201595314182" lon="11.616497660541501" id="-38483">
		<tag k="fixme" v="consider place=hamlet" />
		<tag k="name" v="Helgedagsrud" />
		<tag k="place" v="farm" />
		<tag k="ssr:stedsnr" v="916971" />
	</node>
	<node lat="60.38429452372009" lon="11.712225309771984" id="-38488">
		<tag k="name" v="Syningom" />
		<tag k="place" v="farm" />
		<tag k="ssr:stedsnr" v="917924" />
	</node>
	<node lat="60.396616662382826" lon="11.515533330276694" id="-38489">
		<tag k="name" v="Sollaust" />
		<tag k="place" v="farm" />
		<tag k="ssr:stedsnr" v="228771" />
	</node>
	<node lat="60.5017416353093" lon="11.384754425149186" id="-38490">
		<tag k="name" v="Trautbråten" />
		<tag k="place" v="locality" />
		<tag k="ssr:stedsnr" v="950152" />
	</node>
	<node lat="60.5041583377719" lon="11.393227779837233" id="-38491">
		<tag k="name" v="Smedsrud" />
		<tag k="place" v="farm" />
		<tag k="ssr:stedsnr" v="950153" />
	</node>
	<node lat="60.47639722678473" lon="11.624536103121557" id="-38492">
		<tag k="name" v="Nordli" />
		<tag k="place" v="farm" />
		<tag k="ssr:stedsnr" v="950433" />
	</node>
	<node lat="60.483391664883065" lon="11.614691671752212" id="-38504">
		<tag k="name" v="Holtgård" />
		<tag k="place" v="farm" />
		<tag k="ssr:stedsnr" v="952464" />
	</node>
	<node lat="60.35871388532209" lon="11.528499997482577" id="-38506">
		<tag k="name" v="Finnsbråten" />
		<tag k="place" v="locality" />
		<tag k="ssr:stedsnr" v="952613" />
	</node>
	<node lat="60.36764166481056" lon="11.545086118021352" id="-38514">
		<tag k="name" v="Bakken" />
		<tag k="place" v="isolated_dwelling" />
		<tag k="ssr:stedsnr" v="965302" />
	</node>
	<node lat="60.42236388875395" lon="11.594575004370814" id="-38524">
		<tag k="name" v="Finstad" />
		<tag k="place" v="farm" />
		<tag k="ssr:stedsnr" v="967306" />
	</node>
	<node lat="60.415126025157164" lon="11.489266775814254" id="-38540">
		<tag k="name" v="Nedre Føskerbråten" />
		<tag k="place" v="locality" />
		<tag k="ssr:stedsnr" v="978534" />
	</node>
	<node lat="60.45373368290927" lon="11.620890046316497" id="-38541">
		<tag k="name" v="Søndre Mobråten" />
		<tag k="place" v="farm" />
		<tag k="ssr:stedsnr" v="978550" />
	</node>
	<node lat="60.401600953944886" lon="11.672614850007367" id="-38542">
		<tag k="alt_name" v="Holtbråten" />
		<tag k="name" v="Holt" />
		<tag k="place" v="farm" />
		<tag k="ssr:stedsnr" v="978556" />
	</node>
	<node lat="60.4873722198943" lon="11.412672222405527" id="-38557">
		<tag k="alt_name" v="Hølbekkoia" />
		<tag k="name" v="Holbekkoia" />
		<tag k="place" v="isolated_dwelling" />
		<tag k="ssr:stedsnr" v="6408" />
	</node>
	<node lat="60.45676195114761" lon="11.435914806454395" id="-38559">
		<tag k="building" v="industrial" />
		<tag k="name" v="Fløytdamsaga" />
		<tag k="ssr:stedsnr" v="6449" />
	</node>
	<node lat="60.4495333344295" lon="11.385994438380331" id="-38560">
		<tag k="alt_name" v="Stuggukoia" />
		<tag k="name" v="Stugukoia" />
		<tag k="place" v="isolated_dwelling" />
		<tag k="ssr:stedsnr" v="6451" />
	</node>
	<node lat="60.4667722261117" lon="11.637427771901239" id="-38561">
		<tag k="name" v="Mellom" />
		<tag k="place" v="farm" />
		<tag k="ssr:stedsnr" v="6816" />
	</node>
	<node lat="60.3985416705821" lon="11.494672215421087" id="-38562">
		<tag k="name" v="Fritsvoll" />
		<tag k="place" v="farm" />
		<tag k="ssr:stedsnr" v="6828" />
	</node>
	<node lat="60.4043555587293" lon="11.637855555083974" id="-38563">
		<tag k="alt_name" v="Breidvika" />
		<tag k="name" v="Breivika" />
		<tag k="place" v="farm" />
		<tag k="ssr:stedsnr" v="6835" />
	</node>
	<node lat="60.40534166500614" lon="11.603794444148074" id="-38564">
		<tag k="name" v="Vang" />
		<tag k="place" v="farm" />
		<tag k="ssr:stedsnr" v="6836" />
	</node>
	<node lat="60.371615506487615" lon="11.73901981666676" id="-38567">
		<tag k="name" v="Bergsvangen" />
		<tag k="place" v="isolated_dwelling" />
		<tag k="ssr:stedsnr" v="6931" />
	</node>
	<node lat="60.37574444468092" lon="11.782572223939818" id="-38568">
		<tag k="historic" v="shieling" />
		<tag k="name" v="Kuggerudsætra" />
		<tag k="place" v="isolated_dwelling" />
		<tag k="ssr:stedsnr" v="6935" />
	</node>
	<node lat="60.38202272100977" lon="11.538367851192609" id="-38569">
		<tag k="fixme" v="consider place=hamlet" />
		<tag k="name" v="Vik" />
		<tag k="place" v="farm" />
		<tag k="ssr:stedsnr" v="6947" />
	</node>
	<node lat="60.38808332926322" lon="11.577427770714028" id="-38570">
		<tag k="name" v="Gravdalen" />
		<tag k="place" v="farm" />
		<tag k="ssr:stedsnr" v="6949" />
	</node>
	<node lat="60.43837500149275" lon="11.728494451502916" id="-38571">
		<tag k="historic" v="shieling" />
		<tag k="name" v="Rønningsætra" />
		<tag k="place" v="isolated_dwelling" />
		<tag k="ssr:stedsnr" v="6766" />
	</node>
	<node lat="60.43673611336676" lon="11.599772225994887" id="-38572">
		<tag k="name" v="Tronsrud" />
		<tag k="place" v="farm" />
		<tag k="ssr:stedsnr" v="6775" />
	</node>
	<node lat="60.451566666130034" lon="11.49187778124641" id="-38573">
		<tag k="alt_name" v="Skirud" />
		<tag k="name" v="Skyrud" />
		<tag k="place" v="farm" />
		<tag k="ssr:stedsnr" v="6791" />
	</node>
	<node lat="60.38298416887767" lon="11.586921144832095" id="-38576">
		<tag k="name" v="Holtet" />
		<tag k="place" v="farm" />
		<tag k="ssr:stedsnr" v="6953" />
	</node>
	<node lat="60.55740555791268" lon="11.560913891378863" id="-38579">
		<tag k="historic" v="shieling" />
		<tag k="name" v="Grytsætra" />
		<tag k="place" v="isolated_dwelling" />
		<tag k="ssr:stedsnr" v="7145" />
	</node>
	<node lat="60.47733333574055" lon="11.641274995599519" id="-38580">
		<tag k="name" v="Fosserud" />
		<tag k="place" v="farm" />
		<tag k="ssr:stedsnr" v="39366" />
	</node>
	<node lat="60.445211110014206" lon="11.6381888957775" id="-38581">
		<tag k="name" v="Rud" />
		<tag k="place" v="farm" />
		<tag k="ssr:stedsnr" v="39353" />
	</node>
	<node lat="60.47445277424273" lon="11.64217500192105" id="-38582">
		<tag k="name" v="Lien" />
		<tag k="place" v="farm" />
		<tag k="ssr:stedsnr" v="39439" />
	</node>
	<node lat="60.443038888431026" lon="11.553455552288122" id="-38588">
		<tag k="name" v="Tørrhaugen" />
		<tag k="place" v="locality" />
		<tag k="ssr:stedsnr" v="40387" />
	</node>
	<node lat="60.331394445761525" lon="11.616625001971189" id="-38589">
		<tag k="name" v="Søndre Haukerud" />
		<tag k="place" v="farm" />
		<tag k="ssr:stedsnr" v="40790" />
	</node>
	<node lat="60.55477778193981" lon="11.565763896443613" id="-38590">
		<tag k="historic" v="shieling" />
		<tag k="name" v="Grytsæterkoia" />
		<tag k="place" v="isolated_dwelling" />
		<tag k="ssr:stedsnr" v="40797" />
	</node>
	<node lat="60.48329722642267" lon="11.354838896694456" id="-38599">
		<tag k="historic" v="shieling" />
		<tag k="name" v="Nysætra" />
		<tag k="place" v="isolated_dwelling" />
		<tag k="ssr:stedsnr" v="41968" />
	</node>
	<node lat="60.42076110891634" lon="11.460380546980634" id="-38600">
		<tag k="name" v="Grande" />
		<tag k="place" v="farm" />
		<tag k="ssr:stedsnr" v="41985" />
	</node>
	<node lat="60.55004903949295" lon="11.603211408710855" id="-38602">
		<tag k="name" v="Langdalskoia" />
		<tag k="place" v="locality" />
		<tag k="ssr:stedsnr" v="42150" />
	</node>
	<node lat="60.37799444203941" lon="11.683983340407675" id="-38604">
		<tag k="name" v="Sletta" />
		<tag k="place" v="farm" />
		<tag k="ssr:stedsnr" v="42159" />
	</node>
	<node lat="60.465633333489215" lon="11.528258335164749" id="-38609">
		<tag k="name" v="Jammerhølkoia" />
		<tag k="place" v="isolated_dwelling" />
		<tag k="ssr:stedsnr" v="42872" />
	</node>
	<node lat="60.391139629490276" lon="11.548093683336687" id="-38610">
		<tag k="name" v="Mellom-Sand" />
		<tag k="place" v="farm" />
		<tag k="ssr:stedsnr" v="46733" />
	</node>
	<node lat="60.38775000212689" lon="11.419691674067531" id="-38618">
		<tag k="loc_name" v="Gammelsætra" />
		<tag k="name" v="Gammelvangen" />
		<tag k="place" v="isolated_dwelling" />
		<tag k="ssr:stedsnr" v="51966" />
	</node>
	<node lat="60.504786110470036" lon="11.465838882833406" id="-38619">
		<tag k="name" v="Frydenlund" />
		<tag k="place" v="isolated_dwelling" />
		<tag k="ssr:stedsnr" v="55376" />
	</node>
	<node lat="60.47291225323595" lon="11.600775778386296" id="-38621">
		<tag k="name" v="Storbråten" />
		<tag k="place" v="farm" />
		<tag k="ssr:stedsnr" v="55461" />
	</node>
	<node lat="60.386286115102166" lon="11.53431111809926" id="-38629">
		<tag k="name" v="Øvre Vik" />
		<tag k="place" v="farm" />
		<tag k="ssr:stedsnr" v="57282" />
	</node>
	<node lat="60.38689999922774" lon="11.53984167280887" id="-38630">
		<tag k="name" v="Sagstuhamna" />
		<tag k="place" v="quarter" />
		<tag k="ssr:stedsnr" v="57283" />
	</node>
	<node lat="60.40091388593729" lon="11.545200002438321" id="-38632">
		<tag k="building" v="commercial" />
		<tag k="name" v="Rescon" />
		<tag k="ssr:stedsnr" v="57341" />
	</node>
	<node lat="60.431936110832474" lon="11.587241667287733" id="-38633">
		<tag k="name" v="Fjell" />
		<tag k="place" v="hamlet" />
		<tag k="ssr:stedsnr" v="57355" />
	</node>
	<node lat="60.496613889426015" lon="11.482919439310622" id="-38637">
		<tag k="name" v="Grønland" />
		<tag k="place" v="isolated_dwelling" />
		<tag k="ssr:stedsnr" v="57900" />
	</node>
	<node lat="60.3799381703833" lon="11.69013176234132" id="-38649">
		<tag k="fixme" v="consider place=hamlet" />
		<tag k="name" v="Austvatn" />
		<tag k="place" v="farm" />
		<tag k="ssr:stedsnr" v="59354" />
	</node>
	<node lat="60.44468333638966" lon="11.610086107973453" id="-38654">
		<tag k="name" v="Sjåoppiberget" />
		<tag k="place" v="farm" />
		<tag k="ssr:stedsnr" v="66760" />
	</node>
	<node lat="60.44580555807876" lon="11.688691659382826" id="-38658">
		<tag k="alt_name" v="Høymyrbakkoia" />
		<tag k="name" v="Høymyrbakken" />
		<tag k="place" v="isolated_dwelling" />
		<tag k="ssr:stedsnr" v="66772" />
	</node>
	<node lat="60.386616666477266" lon="11.423486109803534" id="-38660">
		<tag k="alt_name" v="Bjørnstadsætra, vestre" />
		<tag k="fixme" v="multiple name tags, choose one and add the other to alt_name" />
		<tag k="historic" v="shieling" />
		<tag k="name" v="Bjertkoia;Vestre Bjørnstadsætra" />
		<tag k="place" v="isolated_dwelling" />
		<tag k="ssr:stedsnr" v="67026" />
	</node>
	<node lat="60.49439444573634" lon="11.535108332949344" id="-38661">
		<tag k="historic" v="shieling" />
		<tag k="name" v="Nysætra" />
		<tag k="place" v="isolated_dwelling" />
		<tag k="ssr:stedsnr" v="67260" />
	</node>
	<node lat="60.50838888524558" lon="11.404927777393256" id="-38664">
		<tag k="name" v="Rønningen" />
		<tag k="place" v="farm" />
		<tag k="ssr:stedsnr" v="67463" />
	</node>
	<node lat="60.50327778178992" lon="11.444602786394086" id="-38665">
		<tag k="name" v="Kjølen" />
		<tag k="place" v="isolated_dwelling" />
		<tag k="ssr:stedsnr" v="67465" />
	</node>
	<node lat="60.40544999970453" lon="11.547563882033574" id="-38666">
		<tag k="name" v="Dammen" />
		<tag k="place" v="farm" />
		<tag k="ssr:stedsnr" v="67833" />
	</node>
	<node lat="60.40394825901531" lon="11.526543289327465" id="-38667">
		<tag k="name" v="Sandsbråten" />
		<tag k="place" v="locality" />
		<tag k="ssr:stedsnr" v="67836" />
	</node>
	<node lat="60.4577172680691" lon="11.618369813080548" id="-38668">
		<tag k="fixme" v="consider place=hamlet" />
		<tag k="name" v="Mobråten" />
		<tag k="place" v="farm" />
		<tag k="ssr:stedsnr" v="67681" />
	</node>
	<node lat="60.42803888836575" lon="11.82735000646185" id="-38669">
		<tag k="historic" v="shieling" />
		<tag k="name" v="Nysætra" />
		<tag k="place" v="isolated_dwelling" />
		<tag k="ssr:stedsnr" v="67865" />
	</node>
	<node lat="60.354074920449335" lon="11.590140875190466" id="-38673">
		<tag k="name" v="Øvre Songnesløkken" />
		<tag k="place" v="farm" />
		<tag k="ssr:stedsnr" v="100737" />
	</node>
	<node lat="60.438950002399984" lon="11.637686114757594" id="-38676">
		<tag k="name" v="Dambakken" />
		<tag k="place" v="farm" />
		<tag k="ssr:stedsnr" v="100397" />
	</node>
	<node lat="60.38481944412554" lon="11.68465555288303" id="-38686">
		<tag k="amenity" v="school" />
		<tag k="name" v="Austvatn skole" />
		<tag k="ssr:stedsnr" v="102149" />
	</node>
	<node lat="60.4081999967702" lon="11.654405559381187" id="-38689">
		<tag k="name" v="Kjonfossen" />
		<tag k="place" v="isolated_dwelling" />
		<tag k="ssr:stedsnr" v="102267" />
	</node>
	<node lat="60.41529722219584" lon="11.5163055633409" id="-38693">
		<tag k="name" v="Øststua" />
		<tag k="place" v="farm" />
		<tag k="ssr:stedsnr" v="102963" />
	</node>
	<node lat="60.51373302307338" lon="11.559320460397894" id="-38697">
		<tag k="name" v="Rotvelttjennkoia" />
		<tag k="place" v="locality" />
		<tag k="ssr:stedsnr" v="107850" />
	</node>
	<node lat="60.40520277463714" lon="11.520450004422253" id="-38708">
		<tag k="name" v="Templet" />
		<tag k="place" v="isolated_dwelling" />
		<tag k="ssr:stedsnr" v="116544" />
	</node>
	<node lat="60.444365267371346" lon="11.461400058355117" id="-38714">
		<tag k="name" v="Myrhagen" />
		<tag k="place" v="farm" />
		<tag k="ssr:stedsnr" v="116950" />
	</node>
	<node lat="60.446824999076334" lon="11.477841893451078" id="-38715">
		<tag k="name" v="Nestua" />
		<tag k="place" v="farm" />
		<tag k="ssr:stedsnr" v="116960" />
	</node>
	<node lat="60.44811636750158" lon="11.494659894284858" id="-38716">
		<tag k="name" v="Bakken" />
		<tag k="place" v="farm" />
		<tag k="ssr:stedsnr" v="116961" />
	</node>
	<node lat="60.482772221274764" lon="11.475211110247479" id="-38719">
		<tag k="name" v="Kalbakk" />
		<tag k="place" v="locality" />
		<tag k="ssr:stedsnr" v="117606" />
	</node>
	<node lat="60.43498610951256" lon="11.365341659014412" id="-38723">
		<tag k="name" v="Sandkornmyrkoia" />
		<tag k="place" v="isolated_dwelling" />
		<tag k="ssr:stedsnr" v="118228" />
	</node>
	<node lat="60.4503293871621" lon="11.412296749775997" id="-38726">
		<tag k="name" v="Kleivmyrkoia" />
		<tag k="place" v="locality" />
		<tag k="ssr:stedsnr" v="118248" />
	</node>
	<node lat="60.362547223024" lon="11.72647500284055" id="-38731">
		<tag k="name" v="Våserud" />
		<tag k="place" v="locality" />
		<tag k="ssr:stedsnr" v="118199" />
	</node>
	<node lat="60.46314166977349" lon="11.41408334194164" id="-38732">
		<tag k="name" v="Høymyrbrukoia" />
		<tag k="place" v="isolated_dwelling" />
		<tag k="ssr:stedsnr" v="118301" />
	</node>
	<node lat="60.419147219718624" lon="11.594088897218763" id="-38733">
		<tag k="name" v="Fagertun" />
		<tag k="place" v="farm" />
		<tag k="ssr:stedsnr" v="118323" />
	</node>
	<node lat="60.41256388942752" lon="11.598486106489613" id="-38734">
		<tag k="name" v="Røyse" />
		<tag k="place" v="farm" />
		<tag k="ssr:stedsnr" v="118326" />
	</node>
	<node lat="60.503444444277136" lon="11.349772218898694" id="-38741">
		<tag k="name" v="Linnerud" />
		<tag k="place" v="locality" />
		<tag k="ssr:stedsnr" v="119067" />
	</node>
	<node lat="60.46232777566698" lon="11.359936118766154" id="-38743">
		<tag k="alt_name" v="Otten, nordre;Otten" />
		<tag k="name" v="Nord-Otten" />
		<tag k="place" v="isolated_dwelling" />
		<tag k="ssr:stedsnr" v="127433" />
	</node>
	<node lat="60.42531826159238" lon="11.5910924733114" id="-38747">
		<tag k="alt_name" v="Nedre Fjell;Fjeld nedre" />
		<tag k="name" v="Fjell" />
		<tag k="place" v="hamlet" />
		<tag k="ssr:stedsnr" v="127865" />
	</node>
	<node lat="60.42832500336247" lon="11.578047224412956" id="-38749">
		<tag k="name" v="Eier" />
		<tag k="place" v="farm" />
		<tag k="ssr:stedsnr" v="127884" />
	</node>
	<node lat="60.466066664519026" lon="11.720738891424178" id="-38751">
		<tag k="name" v="Rudssætra" />
		<tag k="place" v="hamlet" />
		<tag k="ssr:stedsnr" v="127815" />
	</node>
	<node lat="60.396225002945556" lon="11.550075007834616" id="-38752">
		<tag k="name" v="Hauggard" />
		<tag k="place" v="farm" />
		<tag k="ssr:stedsnr" v="127837" />
	</node>
	<node lat="60.33630555548396" lon="11.486683334928319" id="-38755">
		<tag k="name" v="Furumyrkoia" />
		<tag k="place" v="isolated_dwelling" />
		<tag k="ssr:stedsnr" v="127988" />
	</node>
	<node lat="60.567175000418544" lon="11.594991663191895" id="-38758">
		<tag k="name" v="Dansarsletta" />
		<tag k="place" v="isolated_dwelling" />
		<tag k="ssr:stedsnr" v="128121" />
	</node>
	<node lat="60.46021111003153" lon="11.632758335995664" id="-38768">
		<tag k="name" v="Sagmoen" />
		<tag k="place" v="farm" />
		<tag k="ssr:stedsnr" v="161466" />
	</node>
	<node lat="60.47121389035853" lon="11.644774995294654" id="-38769">
		<tag k="name" v="Kvernli" />
		<tag k="place" v="farm" />
		<tag k="ssr:stedsnr" v="161471" />
	</node>
	<node lat="60.51129444662567" lon="11.618972224904038" id="-38775">
		<tag k="name" v="Krakerud" />
		<tag k="place" v="locality" />
		<tag k="ssr:stedsnr" v="163075" />
	</node>
	<node lat="60.377238886381306" lon="11.679030563767471" id="-38776">
		<tag k="name" v="Køien" />
		<tag k="place" v="farm" />
		<tag k="ssr:stedsnr" v="163139" />
	</node>
	<node lat="60.473411112983015" lon="11.496830558530469" id="-38780">
		<tag k="name" v="Knutsbråten" />
		<tag k="place" v="isolated_dwelling" />
		<tag k="ssr:stedsnr" v="163891" />
	</node>
	<node lat="60.406220709895365" lon="11.519902458501836" id="-38786">
		<tag k="name" v="Dagfinrudhagen" />
		<tag k="place" v="farm" />
		<tag k="ssr:stedsnr" v="176492" />
	</node>
	<node lat="60.40735000318498" lon="11.486188892922897" id="-38787">
		<tag k="name" v="Søstua Rud" />
		<tag k="place" v="farm" />
		<tag k="ssr:stedsnr" v="176496" />
	</node>
	<node lat="60.38904444635821" lon="11.580083339975507" id="-38792">
		<tag k="name" v="Rønningen" />
		<tag k="place" v="locality" />
		<tag k="ssr:stedsnr" v="178297" />
	</node>
	<node lat="60.425045090185115" lon="11.645214991718625" id="-38800">
		<tag k="name" v="Østmoløkken" />
		<tag k="place" v="farm" />
		<tag k="ssr:stedsnr" v="178332" />
	</node>
	<node lat="60.387433335069666" lon="11.719588888233377" id="-38802">
		<tag k="name" v="Moakoia" />
		<tag k="place" v="isolated_dwelling" />
		<tag k="ssr:stedsnr" v="178220" />
	</node>
	<node lat="60.42559166260412" lon="11.401138890085429" id="-38805">
		<tag k="name" v="Vollmyrkoia" />
		<tag k="place" v="locality" />
		<tag k="ssr:stedsnr" v="179269" />
	</node>
	<node lat="60.410230557143734" lon="11.565641661311522" id="-38808">
		<tag k="name" v="Granerud" />
		<tag k="place" v="quarter" />
		<tag k="ssr:stedsnr" v="179845" />
	</node>
	<node lat="60.42682777976697" lon="11.664125008363058" id="-38814">
		<tag k="name" v="Bakkeli" />
		<tag k="place" v="farm" />
		<tag k="ssr:stedsnr" v="180837" />
	</node>
	<node lat="60.47307767892746" lon="11.645054776123624" id="-38816">
		<tag k="alt_name" v="Bråten" />
		<tag k="name" v="Finnbråten" />
		<tag k="place" v="farm" />
		<tag k="ssr:stedsnr" v="188830" />
	</node>
	<node lat="60.4928361139225" lon="11.616988889655792" id="-38818">
		<tag k="name" v="Skyrud" />
		<tag k="place" v="farm" />
		<tag k="ssr:stedsnr" v="188259" />
	</node>
	<node lat="60.41049721908517" lon="11.458352771262172" id="-38819">
		<tag k="name" v="Steinerud" />
		<tag k="place" v="farm" />
		<tag k="ssr:stedsnr" v="188537" />
	</node>
	<node lat="60.43441666242555" lon="11.575466657943062" id="-38827">
		<tag k="name" v="Stendal" />
		<tag k="place" v="farm" />
		<tag k="ssr:stedsnr" v="222349" />
	</node>
	<node lat="60.4478166704252" lon="11.631302773149532" id="-38828">
		<tag k="name" v="Rudsjordet" />
		<tag k="place" v="farm" />
		<tag k="ssr:stedsnr" v="222353" />
	</node>
	<node lat="60.43681867172389" lon="11.577084704230073" id="-38829">
		<tag k="name" v="Dyrhagen" />
		<tag k="place" v="farm" />
		<tag k="ssr:stedsnr" v="222355" />
	</node>
	<node lat="60.44228818552308" lon="11.565863939284972" id="-38830">
		<tag k="name" v="Orbråten" />
		<tag k="place" v="farm" />
		<tag k="ssr:stedsnr" v="222359" />
	</node>
	<node lat="60.468016547404204" lon="11.63300695652019" id="-38831">
		<tag k="name" v="Myrvang" />
		<tag k="place" v="farm" />
		<tag k="ssr:stedsnr" v="222450" />
	</node>
	<node lat="60.46281944475293" lon="11.623869437717282" id="-38832">
		<tag k="name" v="Sandholen" />
		<tag k="place" v="farm" />
		<tag k="ssr:stedsnr" v="222451" />
	</node>
	<node lat="60.32161111220162" lon="11.616791664116064" id="-38833">
		<tag k="name" v="Søndre Helgedagsrud" />
		<tag k="place" v="farm" />
		<tag k="ssr:stedsnr" v="222830" />
	</node>
	<node lat="60.30701111323986" lon="11.61590556241175" id="-38834">
		<tag k="name" v="Søndre Iler" />
		<tag k="place" v="farm" />
		<tag k="ssr:stedsnr" v="222835" />
	</node>
	<node lat="60.41349166881469" lon="11.471705562870188" id="-38838">
		<tag k="name" v="Søndre Slåmot" />
		<tag k="place" v="farm" />
		<tag k="ssr:stedsnr" v="223989" />
	</node>
	<node lat="60.41620277672755" lon="11.511597226582792" id="-38844">
		<tag k="name" v="Nordstua" />
		<tag k="place" v="farm" />
		<tag k="ssr:stedsnr" v="224958" />
	</node>
	<node lat="60.421325001772246" lon="11.528886104603034" id="-38845">
		<tag k="name" v="Bergejordet" />
		<tag k="place" v="locality" />
		<tag k="ssr:stedsnr" v="224989" />
	</node>
	<node lat="60.39402499746867" lon="11.524847219576149" id="-38846">
		<tag k="name" v="Sollaust" />
		<tag k="place" v="farm" />
		<tag k="ssr:stedsnr" v="227308" />
	</node>
	<node lat="60.435177776666514" lon="11.62470277209178" id="-38847">
		<tag k="name" v="Akre" />
		<tag k="place" v="farm" />
		<tag k="ssr:stedsnr" v="282393" />
	</node>
	<node lat="60.4374527750329" lon="11.578050008458153" id="-38848">
		<tag k="name" v="Brederud" />
		<tag k="place" v="farm" />
		<tag k="ssr:stedsnr" v="282342" />
	</node>
	<node lat="60.435635595121944" lon="11.582952384549001" id="-38849">
		<tag k="name" v="Nordhagen" />
		<tag k="place" v="farm" />
		<tag k="ssr:stedsnr" v="282347" />
	</node>
	<node lat="60.45461944809714" lon="11.63129167498688" id="-38850">
		<tag k="name" v="Haugland" />
		<tag k="place" v="farm" />
		<tag k="ssr:stedsnr" v="282457" />
	</node>
	<node lat="60.46404444038018" lon="11.623486102060015" id="-38851">
		<tag k="name" v="Nordliengen" />
		<tag k="place" v="farm" />
		<tag k="ssr:stedsnr" v="282459" />
	</node>
	<node lat="60.471680558933805" lon="11.63169722636682" id="-38852">
		<tag k="name" v="Søndre Sørli" />
		<tag k="place" v="farm" />
		<tag k="ssr:stedsnr" v="282462" />
	</node>
	<node lat="60.469813889521646" lon="11.631480554622117" id="-38853">
		<tag k="amenity" v="school" />
		<tag k="name" v="Knapper skole" />
		<tag k="ssr:stedsnr" v="282463" />
	</node>
	<node lat="60.427713890074166" lon="11.64399722250473" id="-38855">
		<tag k="name" v="Østmoåsen" />
		<tag k="place" v="quarter" />
		<tag k="ssr:stedsnr" v="282819" />
	</node>
	<node lat="60.309055559421786" lon="11.620591660925431" id="-38867">
		<tag k="name" v="Nordre Iler" />
		<tag k="place" v="farm" />
		<tag k="ssr:stedsnr" v="283849" />
	</node>
	<node lat="60.51019999999092" lon="11.408569438012899" id="-38868">
		<tag k="name" v="Rønningskoia" />
		<tag k="place" v="isolated_dwelling" />
		<tag k="ssr:stedsnr" v="284442" />
	</node>
	<node lat="60.4354694452484" lon="11.731213897999544" id="-38873">
		<tag k="historic" v="shieling" />
		<tag k="name" v="Skålbergsætra" />
		<tag k="place" v="isolated_dwelling" />
		<tag k="ssr:stedsnr" v="289351" />
	</node>
	<node lat="60.371088892778445" lon="11.457763897999463" id="-38877">
		<tag k="historic" v="shieling" />
		<tag k="name" v="Mørktjennssætra" />
		<tag k="place" v="isolated_dwelling" />
		<tag k="ssr:stedsnr" v="290849" />
	</node>
	<node lat="60.380558544016466" lon="11.593448128478098" id="-38880">
		<tag k="name" v="Svennebybråten" />
		<tag k="place" v="farm" />
		<tag k="ssr:stedsnr" v="298270" />
	</node>
	<node lat="60.396758331157635" lon="11.530544437764046" id="-38885">
		<tag k="name" v="Syverstua" />
		<tag k="place" v="farm" />
		<tag k="ssr:stedsnr" v="298532" />
	</node>
	<node lat="60.371344446545486" lon="11.74855278300172" id="-38889">
		<tag k="name" v="Halskoia" />
		<tag k="place" v="locality" />
		<tag k="ssr:stedsnr" v="300249" />
	</node>
	<node lat="60.41894166325246" lon="11.596625004795769" id="-38893">
		<tag k="name" v="Fjellvang" />
		<tag k="place" v="farm" />
		<tag k="ssr:stedsnr" v="300358" />
	</node>
	<node lat="60.42318610740387" lon="11.596866663852193" id="-38894">
		<tag k="name" v="Leirvoll" />
		<tag k="place" v="farm" />
		<tag k="ssr:stedsnr" v="300363" />
	</node>
	<node lat="60.42502222578313" lon="11.599802778403896" id="-38895">
		<tag k="name" v="Strand" />
		<tag k="place" v="farm" />
		<tag k="ssr:stedsnr" v="300364" />
	</node>
	<node lat="60.53480833144853" lon="11.688738892469894" id="-38900">
		<tag k="name" v="Bjørnstadkoia" />
		<tag k="place" v="locality" />
		<tag k="ssr:stedsnr" v="300944" />
	</node>
	<node lat="60.449783336798696" lon="11.742955562454044" id="-38901">
		<tag k="name" v="Trengshaugkoia" />
		<tag k="place" v="isolated_dwelling" />
		<tag k="ssr:stedsnr" v="300864" />
	</node>
	<node lat="60.430586112677645" lon="11.674783335578084" id="-38908">
		<tag k="name" v="Hildekjølen" />
		<tag k="place" v="farm" />
		<tag k="ssr:stedsnr" v="301842" />
	</node>
	<node lat="60.43057222108303" lon="11.666650005975493" id="-38910">
		<tag k="name" v="Aslakbekken" />
		<tag k="place" v="farm" />
		<tag k="ssr:stedsnr" v="301853" />
	</node>
	<node lat="60.42819587952453" lon="11.664169661791687" id="-38911">
		<tag k="alt_name" v="Storbekken" />
		<tag k="name" v="Bekken" />
		<tag k="place" v="locality" />
		<tag k="ssr:stedsnr" v="301854" />
	</node>
	<node lat="60.49276111293006" lon="11.437711117958031" id="-38915">
		<tag k="alt_name" v="Nedre Inngjerdingen" />
		<tag k="name" v="Inngjerdinga" />
		<tag k="place" v="farm" />
		<tag k="ssr:stedsnr" v="309413" />
	</node>
	<node lat="60.379344444223555" lon="11.674558337707184" id="-38917">
		<tag k="name" v="Sørkeid" />
		<tag k="place" v="farm" />
		<tag k="ssr:stedsnr" v="309922" />
	</node>
	<node lat="60.54854166959099" lon="11.630913880019666" id="-38918">
		<tag k="historic" v="shieling" />
		<tag k="name" v="Nysætra" />
		<tag k="place" v="isolated_dwelling" />
		<tag k="ssr:stedsnr" v="310126" />
	</node>
	<node lat="60.482019441775606" lon="11.641172216125176" id="-38919">
		<tag k="name" v="Bjørnli" />
		<tag k="place" v="farm" />
		<tag k="ssr:stedsnr" v="310223" />
	</node>
	<node lat="60.445591665901716" lon="11.488322224917491" id="-38921">
		<tag k="name" v="Snekkermoen" />
		<tag k="place" v="farm" />
		<tag k="ssr:stedsnr" v="309755" />
	</node>
	<node lat="60.44706110850476" lon="11.557627771293056" id="-38922">
		<tag k="name" v="Snekkerlia" />
		<tag k="place" v="farm" />
		<tag k="ssr:stedsnr" v="309775" />
	</node>
	<node lat="60.422008335330204" lon="11.50773610936788" id="-38923">
		<tag k="name" v="Eng" />
		<tag k="place" v="farm" />
		<tag k="ssr:stedsnr" v="309862" />
	</node>
	<node lat="60.434727776959" lon="11.599091662958331" id="-38924">
		<tag k="alt_name" v="Fjell, øvre" />
		<tag k="name" v="Øvre Fjell" />
		<tag k="place" v="hamlet" />
		<tag k="ssr:stedsnr" v="309871" />
	</node>
	<node lat="60.4277722228097" lon="11.596847227630809" id="-38925">
		<tag k="alt_name" v="Fjell, midtre;Fjeld mellem;Mellom-Fjell" />
		<tag k="name" v="Midtre Fjell" />
		<tag k="place" v="farm" />
		<tag k="ssr:stedsnr" v="309873" />
	</node>
	<node lat="60.43550509384472" lon="11.521721175750454" id="-38926">
		<tag k="alt_name" v="Drøsrud" />
		<tag k="name" v="Inngjerdinga" />
		<tag k="place" v="farm" />
		<tag k="ssr:stedsnr" v="309878" />
	</node>
	<node lat="60.38877770714852" lon="11.697312129986623" id="-38927">
		<tag k="name" v="Bakkebråten" />
		<tag k="place" v="farm" />
		<tag k="ssr:stedsnr" v="310918" />
	</node>
	<node lat="60.384155556036696" lon="11.70300556267826" id="-38928">
		<tag k="name" v="Bakken" />
		<tag k="place" v="farm" />
		<tag k="ssr:stedsnr" v="310924" />
	</node>
	<node lat="60.31612420538037" lon="11.62007105007143" id="-38929">
		<tag k="fixme" v="consider place=hamlet" />
		<tag k="name" v="Suterud" />
		<tag k="place" v="farm" />
		<tag k="ssr:stedsnr" v="310953" />
	</node>
	<node lat="60.50222777692239" lon="11.391186103080363" id="-38930">
		<tag k="name" v="Stensby" />
		<tag k="place" v="farm" />
		<tag k="ssr:stedsnr" v="343126" />
	</node>
	<node lat="60.50112222299256" lon="11.391544447420356" id="-38931">
		<tag k="name" v="Solhaug" />
		<tag k="place" v="farm" />
		<tag k="ssr:stedsnr" v="343129" />
	</node>
	<node lat="60.43129444856957" lon="11.574155562292237" id="-38934">
		<tag k="fixme" v="multiple name tags, choose one and add the other to alt_name" />
		<tag k="name" v="Revholen;Fossheim;Foss" />
		<tag k="old_name" v="Rævholen" />
		<tag k="place" v="farm" />
		<tag k="ssr:stedsnr" v="343320" />
	</node>
	<node lat="60.43293888848222" lon="11.576480550435713" id="-38935">
		<tag k="name" v="Bergaust" />
		<tag k="place" v="farm" />
		<tag k="ssr:stedsnr" v="343331" />
	</node>
	<node lat="60.47993610999902" lon="11.617416671846076" id="-38937">
		<tag k="name" v="Knapperholen" />
		<tag k="place" v="farm" />
		<tag k="ssr:stedsnr" v="343423" />
	</node>
	<node lat="60.473118951673456" lon="11.616904126347885" id="-38938">
		<tag k="name" v="Brennhaugen" />
		<tag k="place" v="farm" />
		<tag k="ssr:stedsnr" v="343465" />
	</node>
	<node lat="60.464963890357915" lon="11.632000006484196" id="-38939">
		<tag k="name" v="Håkenrud" />
		<tag k="place" v="farm" />
		<tag k="ssr:stedsnr" v="343469" />
	</node>
	<node lat="60.42908889001926" lon="11.48922222268619" id="-38940">
		<tag k="alt_name" v="Føsker" />
		<tag k="name" v="Nord-Føsker" />
		<tag k="place" v="farm" />
		<tag k="ssr:stedsnr" v="343891" />
	</node>
	<node lat="60.37738907302765" lon="11.703415139328431" id="-38944">
		<tag k="name" v="Enerhaugen" />
		<tag k="place" v="farm" />
		<tag k="ssr:stedsnr" v="345151" />
	</node>
	<node lat="60.40296841996027" lon="11.67246182379207" id="-38948">
		<tag k="name" v="Storbråten" />
		<tag k="place" v="farm" />
		<tag k="ssr:stedsnr" v="345232" />
	</node>
	<node lat="60.38389438010831" lon="11.695903746783644" id="-38951">
		<tag k="name" v="Bjerke" />
		<tag k="place" v="farm" />
		<tag k="ssr:stedsnr" v="345157" />
	</node>
	<node lat="60.432900003396064" lon="11.503858324865467" id="-38961">
		<tag k="name" v="Labben" />
		<tag k="place" v="farm" />
		<tag k="ssr:stedsnr" v="345990" />
	</node>
	<node lat="60.42580833660031" lon="11.51185833767493" id="-38962">
		<tag k="name" v="Garli" />
		<tag k="place" v="farm" />
		<tag k="ssr:stedsnr" v="345994" />
	</node>
	<node lat="60.42714444765214" lon="11.580177769628708" id="-38969">
		<tag k="name" v="Søndre Eier" />
		<tag k="place" v="farm" />
		<tag k="ssr:stedsnr" v="358344" />
	</node>
	<node lat="60.38176111411885" lon="11.593127778626982" id="-38971">
		<tag k="name" v="Åserud" />
		<tag k="place" v="farm" />
		<tag k="ssr:stedsnr" v="358278" />
	</node>
	<node lat="60.47454166290399" lon="11.602466672762985" id="-38973">
		<tag k="name" v="Fallet" />
		<tag k="place" v="farm" />
		<tag k="ssr:stedsnr" v="358488" />
	</node>
	<node lat="60.488483336443814" lon="11.445111110143557" id="-38976">
		<tag k="name" v="Rismyrkoia" />
		<tag k="place" v="isolated_dwelling" />
		<tag k="ssr:stedsnr" v="358841" />
	</node>
	<node lat="60.44083889201588" lon="11.473186110882367" id="-38977">
		<tag k="name" v="Birkeland" />
		<tag k="place" v="farm" />
		<tag k="ssr:stedsnr" v="358936" />
	</node>
	<node lat="60.42544722225732" lon="11.603408341968754" id="-38980">
		<tag k="name" v="Stranda" />
		<tag k="place" v="farm" />
		<tag k="ssr:stedsnr" v="360298" />
	</node>
	<node lat="60.39227269120973" lon="11.538228079184346" id="-38981">
		<tag k="name" v="Nedre Sand" />
		<tag k="place" v="farm" />
		<tag k="ssr:stedsnr" v="360345" />
	</node>
	<node lat="60.444447223457345" lon="11.652755548145258" id="-38984">
		<tag k="name" v="Tjernsli" />
		<tag k="place" v="farm" />
		<tag k="ssr:stedsnr" v="360871" />
	</node>
	<node lat="60.46150555249859" lon="11.377352774531419" id="-39000">
		<tag k="name" v="Stokholm" />
		<tag k="place" v="isolated_dwelling" />
		<tag k="ssr:stedsnr" v="361333" />
	</node>
	<node lat="60.39624444723613" lon="11.645591671409845" id="-39014">
		<tag k="name" v="Sør-Trøhaugen" />
		<tag k="place" v="farm" />
		<tag k="ssr:stedsnr" v="362292" />
	</node>
	<node lat="60.4239149683478" lon="11.66548308300961" id="-39022">
		<tag k="alt_name" v="Garvikbråten;Bråten" />
		<tag k="name" v="Gardvikbråten" />
		<tag k="old_name" v="Braaten" />
		<tag k="place" v="locality" />
		<tag k="ssr:stedsnr" v="362822" />
	</node>
	<node lat="60.41800000230452" lon="11.664813890473276" id="-39024">
		<tag k="name" v="Eli-Dammen" />
		<tag k="place" v="farm" />
		<tag k="ssr:stedsnr" v="362826" />
	</node>
	<node lat="60.48079166980916" lon="11.607691665147108" id="-39029">
		<tag k="name" v="Pålerud" />
		<tag k="place" v="farm" />
		<tag k="ssr:stedsnr" v="370295" />
	</node>
	<node lat="60.49877711079544" lon="11.404006646727186" id="-39031">
		<tag k="alt_name" v="Svarverud" />
		<tag k="name" v="Sververud" />
		<tag k="place" v="farm" />
		<tag k="ssr:stedsnr" v="370442" />
	</node>
	<node lat="60.407175001829806" lon="11.39721667021404" id="-39032">
		<tag k="alt_name" v="Tempelsæterkoia" />
		<tag k="historic" v="shieling" />
		<tag k="name" v="Tempelsætra" />
		<tag k="place" v="isolated_dwelling" />
		<tag k="ssr:stedsnr" v="370530" />
	</node>
	<node lat="60.51182499974071" lon="11.358158334014355" id="-39033">
		<tag k="name" v="Tjernli" />
		<tag k="place" v="hamlet" />
		<tag k="ssr:stedsnr" v="370537" />
	</node>
	<node lat="60.439702775133625" lon="11.610580548639836" id="-39035">
		<tag k="name" v="Finnsrud" />
		<tag k="place" v="farm" />
		<tag k="ssr:stedsnr" v="370775" />
	</node>
	<node lat="60.45721441086784" lon="11.617950034999861" id="-39036">
		<tag k="alt_name" v="Nordre Mobråten" />
		<tag k="name" v="Mobråten" />
		<tag k="place" v="farm" />
		<tag k="ssr:stedsnr" v="370796" />
	</node>
	<node lat="60.43171014854779" lon="11.509392516177643" id="-39038">
		<tag k="fixme" v="consider place=hamlet" />
		<tag k="name" v="Skjeppestad" />
		<tag k="place" v="farm" />
		<tag k="ssr:stedsnr" v="370884" />
	</node>
	<node lat="60.365430929016846" lon="11.56391050245151" id="-39039">
		<tag k="alt_name" v="Ilgoshaugen" />
		<tag k="name" v="Illgohaugen" />
		<tag k="place" v="farm" />
		<tag k="ssr:stedsnr" v="370899" />
	</node>
	<node lat="60.395305558412716" lon="11.504788890726397" id="-39040">
		<tag k="name" v="Nybakk" />
		<tag k="place" v="farm" />
		<tag k="ssr:stedsnr" v="370835" />
	</node>
	<node lat="60.39731431774198" lon="11.47474921354348" id="-39041">
		<tag k="name" v="Løkkerlia" />
		<tag k="place" v="farm" />
		<tag k="ssr:stedsnr" v="370838" />
	</node>
	<node lat="60.417580557299154" lon="11.51485000115688" id="-39042">
		<tag k="name" v="Austad" />
		<tag k="place" v="farm" />
		<tag k="ssr:stedsnr" v="370854" />
	</node>
	<node lat="60.38737031041873" lon="11.561298908561241" id="-39044">
		<tag k="fixme" v="consider place=hamlet" />
		<tag k="name" v="He" />
		<tag k="place" v="farm" />
		<tag k="ssr:stedsnr" v="370941" />
	</node>
	<node lat="60.52992500248444" lon="11.558797221983914" id="-39045">
		<tag k="name" v="Torpet" />
		<tag k="place" v="farm" />
		<tag k="ssr:stedsnr" v="371237" />
	</node>
	<node lat="60.42389721955771" lon="11.446616661909069" id="-39049">
		<tag k="alt_name" v="Føsker" />
		<tag k="name" v="Føsker skog" />
		<tag k="place" v="farm" />
		<tag k="ssr:stedsnr" v="404241" />
	</node>
	<node lat="60.46047777787114" lon="11.636983330796815" id="-39051">
		<tag k="name" v="Kvernmoen" />
		<tag k="place" v="farm" />
		<tag k="ssr:stedsnr" v="404418" />
	</node>
	<node lat="60.35415904593037" lon="11.594789374838868" id="-39053">
		<tag k="name" v="Nedre Songnesløkken" />
		<tag k="place" v="farm" />
		<tag k="ssr:stedsnr" v="404754" />
	</node>
	<node lat="60.474829077832794" lon="11.459012795564428" id="-39057">
		<tag k="name" v="Øver-Gruva" />
		<tag k="place" v="farm" />
		<tag k="ssr:stedsnr" v="404876" />
	</node>
	<node lat="60.39778333206611" lon="11.68182777361705" id="-39062">
		<tag k="name" v="Fluginn" />
		<tag k="place" v="farm" />
		<tag k="ssr:stedsnr" v="406236" />
	</node>
	<node lat="60.41240555318655" lon="11.560091671783733" id="-39069">
		<tag k="name" v="Øvre Granerud" />
		<tag k="place" v="farm" />
		<tag k="ssr:stedsnr" v="406760" />
	</node>
	<node lat="60.39389444307747" lon="11.66825277401787" id="-39071">
		<tag k="name" v="Granli" />
		<tag k="place" v="farm" />
		<tag k="ssr:stedsnr" v="406262" />
	</node>
	<node lat="60.489043578430774" lon="11.615136093748106" id="-39073">
		<tag k="name" v="Knauserud" />
		<tag k="place" v="farm" />
		<tag k="ssr:stedsnr" v="406479" />
	</node>
	<node lat="60.41530555735818" lon="11.516302774235461" id="-39076">
		<tag k="name" v="Øststua" />
		<tag k="place" v="isolated_dwelling" />
		<tag k="ssr:stedsnr" v="406988" />
	</node>
	<node lat="60.395549997106045" lon="11.515397216138036" id="-39078">
		<tag k="name" v="Sollaust" />
		<tag k="place" v="farm" />
		<tag k="ssr:stedsnr" v="410736" />
	</node>
	<node lat="60.396360577503216" lon="11.508361172736317" id="-39085">
		<tag k="name" v="Steinshagen" />
		<tag k="place" v="farm" />
		<tag k="ssr:stedsnr" v="419541" />
	</node>
	<node lat="60.35752778120151" lon="11.734819448296822" id="-39093">
		<tag k="name" v="Oppi" />
		<tag k="place" v="isolated_dwelling" />
		<tag k="ssr:stedsnr" v="421201" />
	</node>
	<node lat="60.362947224290934" lon="11.721974997592733" id="-39096">
		<tag k="name" v="Løbråten" />
		<tag k="place" v="locality" />
		<tag k="ssr:stedsnr" v="421228" />
	</node>
	<node lat="60.41673610818428" lon="11.597419437951146" id="-39097">
		<tag k="name" v="Ringebu" />
		<tag k="place" v="farm" />
		<tag k="ssr:stedsnr" v="421319" />
	</node>
	<node lat="60.41346110687918" lon="11.598511112616794" id="-39098">
		<tag k="name" v="Gran" />
		<tag k="place" v="farm" />
		<tag k="ssr:stedsnr" v="421321" />
	</node>
	<node lat="60.43221110833656" lon="11.580727778957915" id="-39099">
		<tag k="name" v="Nyborg" />
		<tag k="place" v="farm" />
		<tag k="ssr:stedsnr" v="421363" />
	</node>
	<node lat="60.435966668569485" lon="11.77899167236813" id="-39103">
		<tag k="name" v="Elgsjøkoia" />
		<tag k="place" v="isolated_dwelling" />
		<tag k="ssr:stedsnr" v="422577" />
	</node>
	<node lat="60.49850833630817" lon="11.4165111185924" id="-39109">
		<tag k="alt_name" v="Sjøenden" />
		<tag k="name" v="Sjøen" />
		<tag k="place" v="farm" />
		<tag k="ssr:stedsnr" v="431420" />
	</node>
	<node lat="60.480594440971885" lon="11.645811117824733" id="-39111">
		<tag k="name" v="Bergsætra" />
		<tag k="place" v="farm" />
		<tag k="ssr:stedsnr" v="431264" />
	</node>
	<node lat="60.472477778011395" lon="11.637416663315568" id="-39112">
		<tag k="name" v="Nymoen" />
		<tag k="place" v="farm" />
		<tag k="ssr:stedsnr" v="431822" />
	</node>
	<node lat="60.39624990195252" lon="11.552234655776154" id="-39113">
		<tag k="name" v="Hesbråten" />
		<tag k="place" v="farm" />
		<tag k="ssr:stedsnr" v="431829" />
	</node>
	<node lat="60.41045374218981" lon="11.560450013310248" id="-39115">
		<tag k="name" v="Midtskog" />
		<tag k="place" v="farm" />
		<tag k="ssr:stedsnr" v="431864" />
	</node>
	<node lat="60.36105277518489" lon="11.543849993587232" id="-39117">
		<tag k="name" v="Velta" />
		<tag k="place" v="farm" />
		<tag k="ssr:stedsnr" v="431912" />
	</node>
	<node lat="60.35789722328747" lon="11.735988888047252" id="-39118">
		<tag k="name" v="Brenna" />
		<tag k="place" v="farm" />
		<tag k="ssr:stedsnr" v="431917" />
	</node>
	<node lat="60.375529499166156" lon="11.547391689996617" id="-39119">
		<tag k="fixme" v="consider place=hamlet" />
		<tag k="loc_name" v="Ikornhol" />
		<tag k="name" v="Ekornhol" />
		<tag k="place" v="farm" />
		<tag k="ssr:stedsnr" v="431928" />
	</node>
	<node lat="60.42796388593574" lon="11.640069451107772" id="-39124">
		<tag k="name" v="Mo" />
		<tag k="place" v="village" />
		<tag k="ssr:stedsnr" v="510798" />
	</node>
	<node lat="60.42393055792196" lon="11.592474995742231" id="-39125">
		<tag k="alt_name" v="Fjell søndre" />
		<tag k="name" v="Søndre Fjell" />
		<tag k="place" v="farm" />
		<tag k="ssr:stedsnr" v="512700" />
	</node>
	<node lat="60.501944266314794" lon="11.380362286549117" id="-39128">
		<tag k="name" v="Vester" />
		<tag k="place" v="farm" />
		<tag k="ssr:stedsnr" v="525143" />
	</node>
	<node lat="60.50350278129217" lon="11.389355557578988" id="-39129">
		<tag k="name" v="Nyland" />
		<tag k="place" v="farm" />
		<tag k="ssr:stedsnr" v="525144" />
	</node>
	<node lat="60.44887499783169" lon="11.640525006904134" id="-39133">
		<tag k="name" v="Skogly" />
		<tag k="place" v="farm" />
		<tag k="ssr:stedsnr" v="525431" />
	</node>
	<node lat="60.44379166858988" lon="11.63449722899594" id="-39134">
		<tag k="fixme" v="multiple name tags, choose one and add the other to alt_name" />
		<tag k="name" v="Veststua;Rud" />
		<tag k="place" v="farm" />
		<tag k="ssr:stedsnr" v="525435" />
	</node>
	<node lat="60.4782333363526" lon="11.630408341550508" id="-39135">
		<tag k="name" v="Nordlimoen" />
		<tag k="place" v="farm" />
		<tag k="ssr:stedsnr" v="525442" />
	</node>
	<node lat="60.45371666676566" lon="11.63499166768812" id="-39136">
		<tag k="name" v="Bergstrøm" />
		<tag k="place" v="farm" />
		<tag k="ssr:stedsnr" v="525385" />
	</node>
	<node lat="60.467713889869145" lon="11.469555555611953" id="-39140">
		<tag k="name" v="Lønnbergsbråtekoia" />
		<tag k="place" v="locality" />
		<tag k="ssr:stedsnr" v="525919" />
	</node>
	<node lat="60.39564167025989" lon="11.66594721931988" id="-39143">
		<tag k="name" v="Skogheim" />
		<tag k="place" v="farm" />
		<tag k="ssr:stedsnr" v="527253" />
	</node>
	<node lat="60.502002782075756" lon="11.541116667572005" id="-39149">
		<tag k="name" v="Tømmermyrkoia" />
		<tag k="place" v="isolated_dwelling" />
		<tag k="ssr:stedsnr" v="527790" />
	</node>
	<node lat="60.406256442536275" lon="11.602078957674614" id="-39159">
		<tag k="name" v="Skolbekken" />
		<tag k="place" v="locality" />
		<tag k="ssr:stedsnr" v="534936" />
	</node>
	<node lat="60.4003277755067" lon="11.491719444498456" id="-39164">
		<tag k="name" v="Ringvoll" />
		<tag k="place" v="farm" />
		<tag k="ssr:stedsnr" v="540547" />
	</node>
	<node lat="60.472430557686096" lon="11.610916666055491" id="-39166">
		<tag k="name" v="Midtsundstad" />
		<tag k="place" v="farm" />
		<tag k="ssr:stedsnr" v="541524" />
	</node>
	<node lat="60.37074722635197" lon="11.751597215246099" id="-39168">
		<tag k="name" v="Hal" />
		<tag k="place" v="locality" />
		<tag k="ssr:stedsnr" v="542228" />
	</node>
	<node lat="60.380830556184804" lon="11.754452771539535" id="-39169">
		<tag k="alt_name" v="Tjennsli" />
		<tag k="name" v="Tjernsli" />
		<tag k="place" v="farm" />
		<tag k="ssr:stedsnr" v="542229" />
	</node>
	<node lat="60.430997222490056" lon="11.629925008158285" id="-39180">
		<tag k="name" v="Granlund" />
		<tag k="place" v="farm" />
		<tag k="ssr:stedsnr" v="543349" />
	</node>
	<node lat="60.420702773476926" lon="11.594711104576255" id="-39181">
		<tag k="name" v="Rønning" />
		<tag k="place" v="farm" />
		<tag k="ssr:stedsnr" v="543352" />
	</node>
	<node lat="60.49601944142762" lon="11.4069777765649" id="-39183">
		<tag k="name" v="Bekken" />
		<tag k="place" v="isolated_dwelling" />
		<tag k="ssr:stedsnr" v="543737" />
	</node>
	<node lat="60.48177222226074" lon="11.614744445872077" id="-39190">
		<tag k="name" v="Fossteppa" />
		<tag k="place" v="farm" />
		<tag k="ssr:stedsnr" v="545586" />
	</node>
	<node lat="60.39889721877889" lon="11.462025006667268" id="-39191">
		<tag k="name" v="Holtet" />
		<tag k="place" v="farm" />
		<tag k="ssr:stedsnr" v="552006" />
	</node>
	<node lat="60.387752777702346" lon="11.466452782058651" id="-39192">
		<tag k="name" v="Høymyra" />
		<tag k="place" v="isolated_dwelling" />
		<tag k="ssr:stedsnr" v="552029" />
	</node>
	<node lat="60.41006424098893" lon="11.520343908254729" id="-39195">
		<tag k="fixme" v="consider place=hamlet" />
		<tag k="name" v="Dagfinrud" />
		<tag k="place" v="farm" />
		<tag k="ssr:stedsnr" v="552861" />
	</node>
	<node lat="60.405788884722966" lon="11.525980554398707" id="-39196">
		<tag k="name" v="Rindal" />
		<tag k="place" v="farm" />
		<tag k="ssr:stedsnr" v="552862" />
	</node>
	<node lat="60.407124996698" lon="11.478633334025256" id="-39197">
		<tag k="name" v="Bjørnstadhaugen" />
		<tag k="place" v="farm" />
		<tag k="ssr:stedsnr" v="552863" />
	</node>
	<node lat="60.4039515941699" lon="11.484371065954802" id="-39198">
		<tag k="fixme" v="consider place=hamlet" />
		<tag k="name" v="Løkker" />
		<tag k="place" v="farm" />
		<tag k="ssr:stedsnr" v="552865" />
	</node>
	<node lat="60.41029739237246" lon="11.48111405282053" id="-39199">
		<tag k="name" v="Solberg" />
		<tag k="place" v="farm" />
		<tag k="ssr:stedsnr" v="552867" />
	</node>
	<node lat="60.43706111464605" lon="11.611733332174701" id="-39200">
		<tag k="name" v="Haugsrud" />
		<tag k="place" v="farm" />
		<tag k="ssr:stedsnr" v="552767" />
	</node>
	<node lat="60.43559444295416" lon="11.61118332703554" id="-39202">
		<tag k="alt_name" v="Øvre Myrer" />
		<tag k="name" v="Myrer" />
		<tag k="place" v="farm" />
		<tag k="ssr:stedsnr" v="552889" />
	</node>
	<node lat="60.41485415682772" lon="11.488833158560436" id="-39203">
		<tag k="name" v="Føskerbråten" />
		<tag k="place" v="locality" />
		<tag k="ssr:stedsnr" v="552874" />
	</node>
	<node lat="60.313353988203204" lon="11.538340695007806" id="-39204">
		<tag k="historic" v="shieling" />
		<tag k="name" v="Raudåssætra" />
		<tag k="place" v="isolated_dwelling" />
		<tag k="ssr:stedsnr" v="552979" />
	</node>
	<node lat="60.4397805517702" lon="11.56131944380657" id="-39205">
		<tag k="alt_name" v="Lille Toner" />
		<tag k="loc_name" v="Vesle-Toner" />
		<tag k="name" v="Lille-Toner" />
		<tag k="old_name" v="Lillethoner" />
		<tag k="place" v="farm" />
		<tag k="ssr:stedsnr" v="585622" />
	</node>
	<node lat="60.51001826925213" lon="11.358810402808862" id="-39206">
		<tag k="name" v="Skjulbråten" />
		<tag k="place" v="farm" />
		<tag k="ssr:stedsnr" v="585123" />
	</node>
	<node lat="60.511236115165545" lon="11.3682166678695" id="-39207">
		<tag k="name" v="Østli" />
		<tag k="place" v="locality" />
		<tag k="ssr:stedsnr" v="585126" />
	</node>
	<node lat="60.44149722034383" lon="11.640391670241982" id="-39210">
		<tag k="name" v="Rudshaug" />
		<tag k="place" v="farm" />
		<tag k="ssr:stedsnr" v="585384" />
	</node>
	<node lat="60.479377267440434" lon="11.607970573848634" id="-39211">
		<tag k="name" v="Hestebråten" />
		<tag k="place" v="farm" />
		<tag k="ssr:stedsnr" v="585386" />
	</node>
	<node lat="60.474166393911226" lon="11.626473941593407" id="-39213">
		<tag k="name" v="Nordliløkken" />
		<tag k="place" v="farm" />
		<tag k="ssr:stedsnr" v="585437" />
	</node>
	<node lat="60.39023611424788" lon="11.68512222697247" id="-39215">
		<tag k="name" v="Sønsterud" />
		<tag k="place" v="farm" />
		<tag k="ssr:stedsnr" v="587230" />
	</node>
	<node lat="60.399244446528" lon="11.664327773440936" id="-39216">
		<tag k="name" v="Høymyrhaugen" />
		<tag k="place" v="isolated_dwelling" />
		<tag k="ssr:stedsnr" v="587240" />
	</node>
	<node lat="60.405088886668" lon="11.65656666143658" id="-39217">
		<tag k="name" v="Trønes" />
		<tag k="place" v="farm" />
		<tag k="ssr:stedsnr" v="587243" />
	</node>
	<node lat="60.47248611514692" lon="11.45753611152883" id="-39220">
		<tag k="name" v="Sør-Gruva" />
		<tag k="place" v="farm" />
		<tag k="ssr:stedsnr" v="586877" />
	</node>
	<node lat="60.320713888124715" lon="11.565694440036715" id="-39221">
		<tag k="name" v="Fischerkoia" />
		<tag k="place" v="isolated_dwelling" />
		<tag k="ssr:stedsnr" v="586830" />
	</node>
	<node lat="60.373695351101674" lon="11.540427182570575" id="-39226">
		<tag k="fixme" v="multiple name tags, choose one and add the other to alt_name" />
		<tag k="name" v="Åsheim;Ekornhol" />
		<tag k="place" v="farm" />
		<tag k="ssr:stedsnr" v="587320" />
	</node>
	<node lat="60.432244249655156" lon="11.667510992094693" id="-39232">
		<tag k="name" v="Torgersbekken" />
		<tag k="place" v="farm" />
		<tag k="ssr:stedsnr" v="587894" />
	</node>
	<node lat="60.38989722643616" lon="11.552847213831164" id="-39252">
		<tag k="amenity" v="nursing_home" />
		<tag k="name" v="Evjebakken" />
		<tag k="ssr:stedsnr" v="603353" />
	</node>
	<node lat="60.4403595691173" lon="11.663653390255305" id="-39258">
		<tag k="name" v="Snurumyrbakken" />
		<tag k="place" v="farm" />
		<tag k="ssr:stedsnr" v="602877" />
	</node>
	<node lat="60.44121417978777" lon="11.659112563995645" id="-39259">
		<tag k="name" v="Østmodalen" />
		<tag k="place" v="farm" />
		<tag k="ssr:stedsnr" v="602878" />
	</node>
	<node lat="60.422686114525696" lon="11.644399995970176" id="-39262">
		<tag k="amenity" v="school" />
		<tag k="name" v="Nord-Odal ungdomsskole" />
		<tag k="ssr:stedsnr" v="603345" />
	</node>
	<node lat="60.397724998137676" lon="11.6071777812784" id="-39270">
		<tag k="name" v="Søsætra" />
		<tag k="place" v="farm" />
		<tag k="ssr:stedsnr" v="604284" />
	</node>
	<node lat="60.39310555374998" lon="11.602824995826998" id="-39271">
		<tag k="name" v="Tussland" />
		<tag k="place" v="locality" />
		<tag k="ssr:stedsnr" v="604287" />
	</node>
	<node lat="60.386752777335836" lon="11.60929166978382" id="-39272">
		<tag k="name" v="Sør-Bunes" />
		<tag k="place" v="farm" />
		<tag k="ssr:stedsnr" v="604291" />
	</node>
	<node lat="60.471800004137734" lon="11.363925000126088" id="-39283">
		<tag k="fixme" v="multiple name tags, choose one and add the other to alt_name" />
		<tag k="historic" v="shieling" />
		<tag k="name" v="Nysæterkoia;Smalmyrkoia" />
		<tag k="place" v="isolated_dwelling" />
		<tag k="ssr:stedsnr" v="612460" />
	</node>
	<node lat="60.4899583374187" lon="11.361916670781207" id="-39284">
		<tag k="name" v="Sjøli" />
		<tag k="place" v="isolated_dwelling" />
		<tag k="ssr:stedsnr" v="612394" />
	</node>
	<node lat="60.42004999869179" lon="11.666761116725981" id="-39286">
		<tag k="name" v="Ellingsrud" />
		<tag k="place" v="farm" />
		<tag k="ssr:stedsnr" v="612846" />
	</node>
	<node lat="60.42594863689739" lon="11.6268560463908" id="-39287">
		<tag k="alt_name" v="Nordre Stormoen" />
		<tag k="fixme" v="consider place=hamlet" />
		<tag k="name" v="Stormoen" />
		<tag k="place" v="farm" />
		<tag k="ssr:stedsnr" v="612850" />
	</node>
	<node lat="60.43289722173834" lon="11.617030547559883" id="-39289">
		<tag k="name" v="Myre" />
		<tag k="place" v="farm" />
		<tag k="ssr:stedsnr" v="612857" />
	</node>
	<node lat="60.42845833399468" lon="11.604269452215137" id="-39290">
		<tag k="name" v="Fjellstad" />
		<tag k="place" v="farm" />
		<tag k="ssr:stedsnr" v="612858" />
	</node>
	<node lat="60.37515277680483" lon="11.669597227794474" id="-39291">
		<tag k="name" v="Ramsvik" />
		<tag k="place" v="farm" />
		<tag k="ssr:stedsnr" v="612932" />
	</node>
	<node lat="60.43701717345822" lon="11.478714959663497" id="-39292">
		<tag k="alt_name" v="Nordli" />
		<tag k="fixme" v="consider place=hamlet" />
		<tag k="name" v="Li" />
		<tag k="place" v="farm" />
		<tag k="ssr:stedsnr" v="612757" />
	</node>
	<node lat="60.47500833228424" lon="11.633391667600959" id="-39294">
		<tag k="alt_name" v="Nordre Bjørnstad" />
		<tag k="name" v="Bjørnstad" />
		<tag k="place" v="farm" />
		<tag k="ssr:stedsnr" v="612798" />
	</node>
	<node lat="60.35082951630125" lon="11.598120377199981" id="-39295">
		<tag k="name" v="Haugen" />
		<tag k="place" v="farm" />
		<tag k="ssr:stedsnr" v="612889" />
	</node>
	<node lat="60.37312802225854" lon="11.576002056339544" id="-39297">
		<tag k="fixme" v="consider place=hamlet" />
		<tag k="name" v="Svenneby" />
		<tag k="place" v="farm" />
		<tag k="ssr:stedsnr" v="612897" />
	</node>
	<node lat="60.496849997139" lon="11.741622230885227" id="-39302">
		<tag k="historic" v="shieling" />
		<tag k="name" v="Aurtjennsætra" />
		<tag k="place" v="isolated_dwelling" />
		<tag k="ssr:stedsnr" v="613231" />
	</node>
	<node lat="60.48663383523577" lon="11.624391113604135" id="-39304">
		<tag k="fixme" v="multiple name tags, choose one and add the other to alt_name" />
		<tag k="name" v="Steinbekken;Skogheim" />
		<tag k="place" v="farm" />
		<tag k="ssr:stedsnr" v="613237" />
	</node>
	<node lat="60.44349722136924" lon="11.620958329581336" id="-39307">
		<tag k="name" v="Kolemunkerud" />
		<tag k="place" v="farm" />
		<tag k="ssr:stedsnr" v="646420" />
	</node>
	<node lat="60.43382777580831" lon="11.582205557527393" id="-39308">
		<tag k="name" v="Løvli" />
		<tag k="place" v="farm" />
		<tag k="ssr:stedsnr" v="646357" />
	</node>
	<node lat="60.454000002234764" lon="11.581266660573258" id="-39310">
		<tag k="name" v="Damlia" />
		<tag k="place" v="locality" />
		<tag k="ssr:stedsnr" v="646367" />
	</node>
	<node lat="60.45882777344828" lon="11.61694445264256" id="-39312">
		<tag k="name" v="Søndre Vangen" />
		<tag k="place" v="farm" />
		<tag k="ssr:stedsnr" v="646467" />
	</node>
	<node lat="60.48194444768752" lon="11.613888886762533" id="-39327">
		<tag k="name" v="Holtet" />
		<tag k="place" v="farm" />
		<tag k="ssr:stedsnr" v="648454" />
	</node>
	<node lat="60.462519447036236" lon="11.489544441094562" id="-39333">
		<tag k="name" v="Linderud" />
		<tag k="place" v="isolated_dwelling" />
		<tag k="ssr:stedsnr" v="652665" />
	</node>
	<node lat="60.398225004603475" lon="11.525952771058128" id="-39334">
		<tag k="name" v="Vestli" />
		<tag k="place" v="farm" />
		<tag k="ssr:stedsnr" v="652726" />
	</node>
	<node lat="60.43960277635401" lon="11.498205558580064" id="-39353">
		<tag k="name" v="Monsstua" />
		<tag k="place" v="isolated_dwelling" />
		<tag k="ssr:stedsnr" v="662966" />
	</node>
	<node lat="60.39158056009106" lon="11.540699993307163" id="-39355">
		<tag k="building" v="commercial" />
		<tag k="name" v="Milepelen" />
		<tag k="ssr:stedsnr" v="664346" />
	</node>
	<node lat="60.43103504097335" lon="11.589624070323547" id="-39356">
		<tag k="name" v="Søhagen" />
		<tag k="place" v="farm" />
		<tag k="ssr:stedsnr" v="664353" />
	</node>
	<node lat="60.51076944770475" lon="11.353188891419784" id="-39369">
		<tag k="alt_name" v="Nedre Kjernli" />
		<tag k="loc_name" v="Nedre Tjennli" />
		<tag k="name" v="Nedre Tjernli" />
		<tag k="place" v="farm" />
		<tag k="ssr:stedsnr" v="665072" />
	</node>
	<node lat="60.44638055112348" lon="11.589494452157668" id="-39372">
		<tag k="name" v="Koiebråten" />
		<tag k="place" v="locality" />
		<tag k="ssr:stedsnr" v="665650" />
	</node>
	<node lat="60.40561388852337" lon="11.60130834097504" id="-39374">
		<tag k="name" v="Søndre Skolbekken" />
		<tag k="place" v="farm" />
		<tag k="ssr:stedsnr" v="713750" />
	</node>
	<node lat="60.44296944047015" lon="11.656144441324402" id="-39385">
		<tag k="name" v="Ellefsrud" />
		<tag k="place" v="farm" />
		<tag k="ssr:stedsnr" v="724893" />
	</node>
	<node lat="60.3754543320861" lon="11.535195708157454" id="-39392">
		<tag k="name" v="Sør-Åsen" />
		<tag k="place" v="farm" />
		<tag k="ssr:stedsnr" v="725279" />
	</node>
	<node lat="60.35681090336125" lon="11.60233761684876" id="-39396">
		<tag k="name" v="Nord-Songnes" />
		<tag k="place" v="farm" />
		<tag k="ssr:stedsnr" v="725381" />
	</node>
	<node lat="60.42399214174669" lon="11.63335336619806" id="-39398">
		<tag k="name" v="Østmoen" />
		<tag k="place" v="farm" />
		<tag k="ssr:stedsnr" v="725648" />
	</node>
	<node lat="60.42495277405389" lon="11.662783339484783" id="-39415">
		<tag k="name" v="Inngjerdinga" />
		<tag k="place" v="locality" />
		<tag k="ssr:stedsnr" v="726838" />
	</node>
	<node lat="60.50362777853091" lon="11.711888897261382" id="-39417">
		<tag k="name" v="Høbekkoia" />
		<tag k="place" v="locality" />
		<tag k="ssr:stedsnr" v="726934" />
	</node>
	<node lat="60.51322499791039" lon="11.354619444928641" id="-39419">
		<tag k="alt_name" v="Øvre Kjernli" />
		<tag k="loc_name" v="Øvre Tjennli" />
		<tag k="name" v="Øvre Tjernli" />
		<tag k="place" v="hamlet" />
		<tag k="ssr:stedsnr" v="726955" />
	</node>
	<node lat="60.48004166898753" lon="11.613672216111048" id="-39424">
		<tag k="name" v="Harestad" />
		<tag k="place" v="farm" />
		<tag k="ssr:stedsnr" v="734279" />
	</node>
	<node lat="60.44202777617491" lon="11.614783325960419" id="-39428">
		<tag k="name" v="Furuvoll" />
		<tag k="place" v="farm" />
		<tag k="ssr:stedsnr" v="734754" />
	</node>
	<node lat="60.44042500403711" lon="11.510308339498035" id="-39429">
		<tag k="name" v="Bruvoll" />
		<tag k="place" v="hamlet" />
		<tag k="ssr:stedsnr" v="734757" />
	</node>
	<node lat="60.44554078725827" lon="11.63261593628576" id="-39430">
		<tag k="fixme" v="consider place=hamlet" />
		<tag k="name" v="Rud" />
		<tag k="place" v="farm" />
		<tag k="ssr:stedsnr" v="734768" />
	</node>
	<node lat="60.422991665738365" lon="11.453169442293435" id="-39431">
		<tag k="name" v="Verket" />
		<tag k="place" v="farm" />
		<tag k="ssr:stedsnr" v="734550" />
	</node>
	<node lat="60.40436110851698" lon="11.649733336323584" id="-39433">
		<tag k="name" v="Fosshaug" />
		<tag k="place" v="farm" />
		<tag k="ssr:stedsnr" v="734826" />
	</node>
	<node lat="60.376872222890505" lon="11.671441667226466" id="-39434">
		<tag k="name" v="Vatne" />
		<tag k="place" v="farm" />
		<tag k="ssr:stedsnr" v="734917" />
	</node>
	<node lat="60.39535000249599" lon="11.57633055954872" id="-39435">
		<tag k="name" v="Dalen" />
		<tag k="place" v="farm" />
		<tag k="ssr:stedsnr" v="734922" />
	</node>
	<node lat="60.43389722582668" lon="11.76091110500443" id="-39436">
		<tag k="historic" v="shieling" />
		<tag k="name" v="Nersætra" />
		<tag k="place" v="isolated_dwelling" />
		<tag k="ssr:stedsnr" v="734853" />
	</node>
	<node lat="60.432530559151985" lon="11.486941661495841" id="-39437">
		<tag k="name" v="Sørli" />
		<tag k="place" v="farm" />
		<tag k="ssr:stedsnr" v="734862" />
	</node>
	<node lat="60.436355553060594" lon="11.499383330131263" id="-39438">
		<tag k="alt_name" v="Haug" />
		<tag k="name" v="Søstua" />
		<tag k="place" v="farm" />
		<tag k="ssr:stedsnr" v="734865" />
	</node>
	<node lat="60.43120277489789" lon="11.508902778305362" id="-39439">
		<tag k="name" v="Solheim" />
		<tag k="place" v="farm" />
		<tag k="ssr:stedsnr" v="734867" />
	</node>
	<node lat="60.56274444800863" lon="11.59790556154847" id="-39440">
		<tag k="historic" v="shieling" />
		<tag k="name" v="Gjellbekksætra" />
		<tag k="place" v="isolated_dwelling" />
		<tag k="ssr:stedsnr" v="735143" />
	</node>
	<node lat="60.34758611006621" lon="11.602088892104042" id="-39444">
		<tag k="name" v="Nordre Svarverud" />
		<tag k="place" v="farm" />
		<tag k="ssr:stedsnr" v="889768" />
	</node>
	<node lat="60.503687735228944" lon="11.36211042391464" id="-39445">
		<tag k="name" v="Dalsrudhagen" />
		<tag k="place" v="farm" />
		<tag k="ssr:stedsnr" v="768118" />
	</node>
	<node lat="60.44039325409411" lon="11.576210207548492" id="-39447">
		<tag k="name" v="Fjellsbråten" />
		<tag k="place" v="farm" />
		<tag k="ssr:stedsnr" v="768337" />
	</node>
	<node lat="60.47543055887057" lon="11.619819439188458" id="-39448">
		<tag k="name" v="Nedre Holen" />
		<tag k="place" v="farm" />
		<tag k="ssr:stedsnr" v="768468" />
	</node>
	<node lat="60.47308611415406" lon="11.621536105567639" id="-39449">
		<tag k="name" v="Nordgård" />
		<tag k="place" v="farm" />
		<tag k="ssr:stedsnr" v="768471" />
	</node>
	<node lat="60.509175000946186" lon="11.619441671895608" id="-39460">
		<tag k="historic" v="shieling" />
		<tag k="name" v="Nordlislåtten" />
		<tag k="place" v="isolated_dwelling" />
		<tag k="ssr:stedsnr" v="770082" />
	</node>
	<node lat="60.37182575707709" lon="11.545966783000024" id="-39468">
		<tag k="name" v="Hagen" />
		<tag k="place" v="farm" />
		<tag k="ssr:stedsnr" v="770289" />
	</node>
	<node lat="60.432624046696716" lon="11.51402215487486" id="-39469">
		<tag k="name" v="Tollhaugen" />
		<tag k="place" v="farm" />
		<tag k="ssr:stedsnr" v="770637" />
	</node>
	<node lat="60.42321944335414" lon="11.504805560639616" id="-39474">
		<tag k="name" v="Breibynesset" />
		<tag k="place" v="farm" />
		<tag k="ssr:stedsnr" v="770990" />
	</node>
	<node lat="60.398141670617306" lon="11.512313891448517" id="-39491">
		<tag k="fixme" v="consider natural=beach + surface=sand" />
		<tag k="leisure" v="swimming_area" />
		<tag k="name" v="Lauvarhella" />
		<tag k="place" v="locality" />
		<tag k="ssr:stedsnr" v="783533" />
	</node>
	<node lat="60.45992500249343" lon="11.589455556498384" id="-39492">
		<tag k="name" v="To" />
		<tag k="place" v="isolated_dwelling" />
		<tag k="ssr:stedsnr" v="783467" />
	</node>
	<node lat="60.43597398808881" lon="11.467182474441906" id="-39495">
		<tag k="name" v="Lishagen" />
		<tag k="place" v="farm" />
		<tag k="ssr:stedsnr" v="783944" />
	</node>
	<node lat="60.43988055744815" lon="11.504080553599492" id="-39496">
		<tag k="name" v="Holt-Ødegården" />
		<tag k="place" v="farm" />
		<tag k="ssr:stedsnr" v="783965" />
	</node>
	<node lat="60.44328893566128" lon="11.505411367663076" id="-39497">
		<tag k="name" v="Holthagen" />
		<tag k="place" v="farm" />
		<tag k="ssr:stedsnr" v="783970" />
	</node>
	<node lat="60.38174529175809" lon="11.742810276690804" id="-39499">
		<tag k="name" v="Langmyrkoia" />
		<tag k="place" v="locality" />
		<tag k="ssr:stedsnr" v="785226" />
	</node>
	<node lat="60.400280240725074" lon="11.534748608136818" id="-39500">
		<tag k="name" v="Storbråten" />
		<tag k="place" v="farm" />
		<tag k="ssr:stedsnr" v="785342" />
	</node>
	<node lat="60.431594446231735" lon="11.660158336733401" id="-39516">
		<tag k="name" v="Nilsrud" />
		<tag k="place" v="farm" />
		<tag k="ssr:stedsnr" v="787824" />
	</node>
	<node lat="60.397922467011185" lon="11.528648028573041" id="-39518">
		<tag k="name" v="Solvest" />
		<tag k="place" v="farm" />
		<tag k="ssr:stedsnr" v="795814" />
	</node>
	<node lat="60.4011361153464" lon="11.534002773038189" id="-39519">
		<tag k="name" v="Letterud" />
		<tag k="place" v="farm" />
		<tag k="ssr:stedsnr" v="795815" />
	</node>
	<node lat="60.3994036492039" lon="11.469071479029477" id="-39520">
		<tag k="name" v="Vestvoll" />
		<tag k="place" v="farm" />
		<tag k="ssr:stedsnr" v="795819" />
	</node>
	<node lat="60.41653604675251" lon="11.647513042387118" id="-39522">
		<tag k="alt_name" v="Garvik" />
		<tag k="fixme" v="consider place=hamlet" />
		<tag k="name" v="Gardvik" />
		<tag k="place" v="farm" />
		<tag k="ssr:stedsnr" v="795843" />
	</node>
	<node lat="60.414891669068666" lon="11.470030557225106" id="-39523">
		<tag k="alt_name" v="Nordre Slåmot" />
		<tag k="name" v="Slåmot" />
		<tag k="place" v="farm" />
		<tag k="ssr:stedsnr" v="795848" />
	</node>
	<node lat="60.41095648716412" lon="11.48007690335009" id="-39524">
		<tag k="name" v="Runi" />
		<tag k="place" v="farm" />
		<tag k="ssr:stedsnr" v="795851" />
	</node>
	<node lat="60.424374996448954" lon="11.438041666531443" id="-39525">
		<tag k="name" v="Stamphuset" />
		<tag k="place" v="isolated_dwelling" />
		<tag k="ssr:stedsnr" v="795552" />
	</node>
	<node lat="60.43681111530655" lon="11.630249995614472" id="-39527">
		<tag k="name" v="Granholt" />
		<tag k="place" v="farm" />
		<tag k="ssr:stedsnr" v="795760" />
	</node>
	<node lat="60.439565688122904" lon="11.500359075920626" id="-39528">
		<tag k="fixme" v="consider place=hamlet" />
		<tag k="name" v="Haug" />
		<tag k="place" v="farm" />
		<tag k="ssr:stedsnr" v="795766" />
	</node>
	<node lat="60.44983611368175" lon="11.616569453200388" id="-39529">
		<tag k="name" v="Dalsrud" />
		<tag k="place" v="farm" />
		<tag k="ssr:stedsnr" v="795768" />
	</node>
	<node lat="60.4553305574641" lon="11.62187778567115" id="-39530">
		<tag k="name" v="Melgard" />
		<tag k="place" v="farm" />
		<tag k="ssr:stedsnr" v="795782" />
	</node>
	<node lat="60.45683611438514" lon="11.715327779455096" id="-39531">
		<tag k="historic" v="shieling" />
		<tag k="name" v="Odals-Østmosætra" />
		<tag k="old_name" v="Østmosetra" />
		<tag k="place" v="isolated_dwelling" />
		<tag k="ssr:stedsnr" v="795786" />
	</node>
	<node lat="60.459297039568234" lon="11.486987849789077" id="-39533">
		<tag k="alt_name" v="Veabråten" />
		<tag k="name" v="Vedbråten" />
		<tag k="place" v="farm" />
		<tag k="ssr:stedsnr" v="795793" />
	</node>
	<node lat="60.46997222576283" lon="11.611791670723058" id="-39534">
		<tag k="name" v="Mellomberget" />
		<tag k="place" v="farm" />
		<tag k="ssr:stedsnr" v="795796" />
	</node>
	<node lat="60.39120988628808" lon="11.531341816869881" id="-39535">
		<tag k="fixme" v="consider place=hamlet" />
		<tag k="name" v="Stein" />
		<tag k="place" v="farm" />
		<tag k="ssr:stedsnr" v="795939" />
	</node>
	<node lat="60.38693707447365" lon="11.665978833555686" id="-39536">
		<tag k="name" v="Vestby" />
		<tag k="place" v="farm" />
		<tag k="ssr:stedsnr" v="795947" />
	</node>
	<node lat="60.365549996484596" lon="11.71482499400647" id="-39537">
		<tag k="name" v="Nordstrand" />
		<tag k="place" v="farm" />
		<tag k="ssr:stedsnr" v="795897" />
	</node>
	<node lat="60.36428888615338" lon="11.505622215474618" id="-39538">
		<tag k="name" v="Kommunekoia" />
		<tag k="place" v="isolated_dwelling" />
		<tag k="ssr:stedsnr" v="795901" />
	</node>
	<node lat="60.334436112030545" lon="11.499347215677052" id="-39541">
		<tag k="historic" v="shieling" />
		<tag k="name" v="Bjelkersætra" />
		<tag k="place" v="isolated_dwelling" />
		<tag k="ssr:stedsnr" v="795998" />
	</node>
	<node lat="60.4258041734731" lon="11.515041825498631" id="-39545">
		<tag k="name" v="Breibybråten" />
		<tag k="place" v="farm" />
		<tag k="ssr:stedsnr" v="831992" />
	</node>
	<node lat="60.441243234614845" lon="11.572840881755987" id="-39546">
		<tag k="name" v="Kjølbråten" />
		<tag k="place" v="farm" />
		<tag k="ssr:stedsnr" v="829376" />
	</node>
	<node lat="60.44061110751376" lon="11.63360832761571" id="-39547">
		<tag k="name" v="Nor" />
		<tag k="place" v="farm" />
		<tag k="ssr:stedsnr" v="829431" />
	</node>
	<node lat="60.47757221815152" lon="11.61402221357325" id="-39548">
		<tag k="name" v="Oppi" />
		<tag k="place" v="farm" />
		<tag k="ssr:stedsnr" v="829441" />
	</node>
	<node lat="60.47516771251061" lon="11.633235478540684" id="-39549">
		<tag k="name" v="Bjørnstad" />
		<tag k="place" v="farm" />
		<tag k="ssr:stedsnr" v="829445" />
	</node>
	<node lat="60.30979546211109" lon="11.61090445135352" id="-39551">
		<tag k="name" v="Suterudbråten" />
		<tag k="place" v="locality" />
		<tag k="ssr:stedsnr" v="829851" />
	</node>
	<node lat="60.398127843230334" lon="11.471897702681215" id="-39555">
		<tag k="name" v="Løkkerbekken" />
		<tag k="place" v="farm" />
		<tag k="ssr:stedsnr" v="830507" />
	</node>
	<node lat="60.386125002789406" lon="11.692691675049105" id="-39556">
		<tag k="name" v="Bergestad" />
		<tag k="place" v="farm" />
		<tag k="ssr:stedsnr" v="831150" />
	</node>
	<node lat="60.3937685812612" lon="11.512472166653044" id="-39564">
		<tag k="name" v="Sollausthagen" />
		<tag k="place" v="farm" />
		<tag k="ssr:stedsnr" v="835301" />
	</node>
	<node lat="60.41736666554908" lon="11.776022221296646" id="-39567">
		<tag k="name" v="Småtjennkoia" />
		<tag k="place" v="isolated_dwelling" />
		<tag k="ssr:stedsnr" v="835748" />
	</node>
	<node lat="60.438916668991375" lon="11.462516671055639" id="-39578">
		<tag k="name" v="Nord-Haugen" />
		<tag k="place" v="farm" />
		<tag k="ssr:stedsnr" v="844954" />
	</node>
	<node lat="60.42014722107204" lon="11.595949999646207" id="-39581">
		<tag k="name" v="Sjøberg" />
		<tag k="place" v="farm" />
		<tag k="ssr:stedsnr" v="846320" />
	</node>
	<node lat="60.393280559934745" lon="11.544372226914247" id="-39583">
		<tag k="amenity" v="nursing_home" />
		<tag k="name" v="Nord-Odal alders- og sykehjem" />
		<tag k="ssr:stedsnr" v="846353" />
	</node>
	<node lat="60.38064444671636" lon="11.805197217245146" id="-39592">
		<tag k="name" v="Fiskehytta" />
		<tag k="place" v="isolated_dwelling" />
		<tag k="ssr:stedsnr" v="848581" />
	</node>
	<node lat="60.433361115504134" lon="11.73770000531762" id="-39594">
		<tag k="name" v="Bakkekoia" />
		<tag k="place" v="isolated_dwelling" />
		<tag k="ssr:stedsnr" v="848845" />
	</node>
	<node lat="60.459382112146706" lon="11.625518910480682" id="-39596">
		<tag k="fixme" v="consider place=hamlet" />
		<tag k="name" v="Tannes" />
		<tag k="place" v="farm" />
		<tag k="ssr:stedsnr" v="855813" />
	</node>
	<node lat="60.475176526388225" lon="11.606885086648216" id="-39599">
		<tag k="name" v="Bråten" />
		<tag k="place" v="farm" />
		<tag k="ssr:stedsnr" v="856257" />
	</node>
	<node lat="60.44177222047665" lon="11.462866658843835" id="-39600">
		<tag k="alt_name" v="Rovelstadstuen" />
		<tag k="name" v="Stua" />
		<tag k="place" v="farm" />
		<tag k="ssr:stedsnr" v="856525" />
	</node>
	<node lat="60.404152773153676" lon="11.825863896563888" id="-39601">
		<tag k="historic" v="shieling" />
		<tag k="name" v="Nedre Grasberget" />
		<tag k="place" v="isolated_dwelling" />
		<tag k="ssr:stedsnr" v="856825" />
	</node>
	<node lat="60.4374499962829" lon="11.471183333594034" id="-39603">
		<tag k="name" v="Norum" />
		<tag k="place" v="farm" />
		<tag k="ssr:stedsnr" v="856767" />
	</node>
	<node lat="60.4095444577722" lon="11.471529335834637" id="-39605">
		<tag k="fixme" v="consider place=hamlet" />
		<tag k="name" v="Bjørnstad" />
		<tag k="place" v="farm" />
		<tag k="ssr:stedsnr" v="856845" />
	</node>
	<node lat="60.415686486315984" lon="11.66244951062956" id="-39607">
		<tag k="alt_name" v="Nord-Dammen" />
		<tag k="name" v="Dammen" />
		<tag k="place" v="farm" />
		<tag k="ssr:stedsnr" v="856851" />
	</node>
	<node lat="60.41505661960071" lon="11.515318510253369" id="-39608">
		<tag k="fixme" v="consider place=hamlet" />
		<tag k="name" v="Flikkerud" />
		<tag k="place" v="farm" />
		<tag k="ssr:stedsnr" v="856853" />
	</node>
	<node lat="60.41685278148225" lon="11.489011110694975" id="-39609">
		<tag k="name" v="Voll" />
		<tag k="place" v="farm" />
		<tag k="ssr:stedsnr" v="856863" />
	</node>
	<node lat="60.389744441578166" lon="11.671308331480603" id="-39610">
		<tag k="name" v="Rustad" />
		<tag k="place" v="farm" />
		<tag k="ssr:stedsnr" v="856942" />
	</node>
	<node lat="60.39060000316297" lon="11.680963885788579" id="-39611">
		<tag k="name" v="Leirdalen" />
		<tag k="place" v="farm" />
		<tag k="ssr:stedsnr" v="856944" />
	</node>
	<node lat="60.33430833578282" lon="11.534205558427688" id="-39612">
		<tag k="historic" v="shieling" />
		<tag k="name" v="Songnessætra" />
		<tag k="place" v="isolated_dwelling" />
		<tag k="ssr:stedsnr" v="856998" />
	</node>
	<node lat="60.50751666413326" lon="11.492797218200133" id="-39613">
		<tag k="name" v="Krafshølkoia" />
		<tag k="place" v="isolated_dwelling" />
		<tag k="ssr:stedsnr" v="857255" />
	</node>
	<node lat="60.43893055958163" lon="11.630019449494018" id="-39615">
		<tag k="name" v="Åstad" />
		<tag k="place" v="farm" />
		<tag k="ssr:stedsnr" v="889415" />
	</node>
	<node lat="60.44351766424885" lon="11.62728311118297" id="-39616">
		<tag k="name" v="Åbråten" />
		<tag k="place" v="farm" />
		<tag k="ssr:stedsnr" v="889417" />
	</node>
	<node lat="60.45772777991773" lon="11.628436114661396" id="-39617">
		<tag k="name" v="Mangnes" />
		<tag k="place" v="farm" />
		<tag k="ssr:stedsnr" v="889475" />
	</node>
	<node lat="60.4739666675425" lon="11.634833328825534" id="-39618">
		<tag k="name" v="Søndre Bjørnstad" />
		<tag k="place" v="farm" />
		<tag k="ssr:stedsnr" v="889480" />
	</node>
	<node lat="60.43353055801721" lon="11.624383340013795" id="-39620">
		<tag k="name" v="Broberg" />
		<tag k="place" v="farm" />
		<tag k="ssr:stedsnr" v="950418" />
	</node>
	<node lat="60.439138885853744" lon="11.63512777329671" id="-39621">
		<tag k="name" v="Dammen" />
		<tag k="place" v="farm" />
		<tag k="ssr:stedsnr" v="950420" />
	</node>
	<node lat="60.478592407147204" lon="11.603111586936345" id="-39623">
		<tag k="alt_name" v="Bryhni" />
		<tag k="historic" v="shieling" />
		<tag k="name" v="Bryni" />
		<tag k="place" v="isolated_dwelling" />
		<tag k="ssr:stedsnr" v="950430" />
	</node>
	<node lat="60.47699721956024" lon="11.629991659732385" id="-39624">
		<tag k="name" v="Bjørnstadhaugen" />
		<tag k="place" v="farm" />
		<tag k="ssr:stedsnr" v="950431" />
	</node>
	<node lat="60.461369443808934" lon="11.631355561901108" id="-39625">
		<tag k="name" v="Mangnesholen" />
		<tag k="place" v="farm" />
		<tag k="ssr:stedsnr" v="950464" />
	</node>
	<node lat="60.375513886170566" lon="11.554238883568496" id="-39633">
		<tag k="name" v="Sør-Ekornhol" />
		<tag k="place" v="farm" />
		<tag k="ssr:stedsnr" v="952136" />
	</node>
	<node lat="60.38129722210799" lon="11.69505000588972" id="-39634">
		<tag k="name" v="Nordset" />
		<tag k="place" v="farm" />
		<tag k="ssr:stedsnr" v="952173" />
	</node>
	<node lat="60.41176666761318" lon="11.490847231362858" id="-39642">
		<tag k="name" v="Sjøli" />
		<tag k="place" v="farm" />
		<tag k="ssr:stedsnr" v="952985" />
	</node>
	<node lat="60.39867499850632" lon="11.533994452152829" id="-39643">
		<tag k="name" v="Prestberget" />
		<tag k="place" v="quarter" />
		<tag k="ssr:stedsnr" v="955263" />
	</node>
	<node lat="60.39241683151492" lon="11.473658264159113" id="-39656">
		<tag k="name" v="Løkkerdalen" />
		<tag k="place" v="farm" />
		<tag k="ssr:stedsnr" v="965557" />
	</node>
	<node lat="60.43987786350868" lon="11.484701591936853" id="-39662">
		<tag k="name" v="Nilsrud" />
		<tag k="place" v="farm" />
		<tag k="ssr:stedsnr" v="965970" />
	</node>
	<node lat="60.35243121878531" lon="11.60581769503281" id="-39687">
		<tag k="name" v="Sør-Songnes" />
		<tag k="place" v="farm" />
		<tag k="ssr:stedsnr" v="978610" />
	</node>
	<node lat="60.44751807760401" lon="11.474056516491482" id="-39688">
		<tag k="name" v="Nordstua" />
		<tag k="place" v="locality" />
		<tag k="ssr:stedsnr" v="978617" />
	</node>
	<node lat="60.47297308543179" lon="11.4579297977336" id="-39689">
		<tag k="name" v="Midt-Gruva" />
		<tag k="place" v="farm" />
		<tag k="ssr:stedsnr" v="978619" />
	</node>
	<node lat="60.4465635481562" lon="11.466832201268485" id="-39838">
		<tag k="fixme" v="consider place=hamlet" />
		<tag k="name" v="Rovelstad" />
		<tag k="place" v="farm" />
		<tag k="ssr:stedsnr" v="1073021" />
	</node>
	<node lat="60.45263614353297" lon="11.622464379687193" id="-39839">
		<tag k="fixme" v="consider place=hamlet" />
		<tag k="name" v="Søndre Stormoen" />
		<tag k="place" v="farm" />
		<tag k="ssr:stedsnr" v="1073023" />
	</node>
</osm>
