<?xml version="1.0" encoding="UTF-8"?>
<osm generator="osmapis" version="0.6">
	<node id="-38909" lat="60.3781333296" lon="11.6236861157">
		<tag k="name" v="Engeholmen" />
		<tag k="place" v="islet" />
		<tag k="ssr:stedsnr" v="734914" />
	</node>
	<node id="-38903" lat="60.4166888844" lon="11.7796000024">
		<tag k="name" v="Småtjenna" />
		<tag k="natural" v="water" />
		<tag k="ssr:stedsnr" v="734845" />
	</node>
	<node id="-38899" lat="60.4006555574" lon="11.7812277742">
		<tag k="name" v="Brennbergstjenna" />
		<tag k="natural" v="water" />
		<tag k="ssr:stedsnr" v="734820" />
	</node>
	<node id="-38898" lat="60.4691750014" lon="11.4750277773">
		<tag k="name" v="Sandbekken" />
		<tag k="ssr:stedsnr" v="734793" />
		<tag k="waterway" v="stream" />
	</node>
	<node id="-38891" lat="60.4449249994" lon="11.4402722234">
		<tag k="name" v="Store Øytjennet" />
		<tag k="natural" v="water" />
		<tag k="ssr:stedsnr" v="734506" />
	</node>
	<node id="-38889" lat="60.4909111152" lon="11.6069666722">
		<tag k="name" v="Skirsbekken" />
		<tag k="ssr:stedsnr" v="648458" />
		<tag k="waterway" v="stream" />
	</node>
	<node id="-38887" lat="60.4669916668" lon="11.4325444477">
		<tag k="name" v="Abbortjennet" />
		<tag k="natural" v="water" />
		<tag k="ssr:stedsnr" v="734468" />
	</node>
	<node id="-38886" lat="60.4827211586" lon="11.4000028889">
		<tag k="alt_name" v="Gjeddvatnet" />
		<tag k="name" v="Gjeddevatnet" />
		<tag k="natural" v="water" />
		<tag k="old_name" v="Gjeddevandet" />
		<tag k="ssr:stedsnr" v="734414" />
		<tag k="water" v="lake" />
	</node>
	<node id="-38881" lat="60.4906000045" lon="11.4931999936">
		<tag k="alt_name" v="Hestebekken" />
		<tag k="name" v="Hestbekken" />
		<tag k="ssr:stedsnr" v="734263" />
		<tag k="waterway" v="stream" />
	</node>
	<node id="-38875" lat="60.3700722233" lon="11.454830549">
		<tag k="name" v="Mørktjennet" />
		<tag k="natural" v="water" />
		<tag k="ssr:stedsnr" v="734058" />
	</node>
	<node id="-38874" lat="60.3866499978" lon="11.4062583244">
		<tag k="name" v="Steinsjøen" />
		<tag k="natural" v="water" />
		<tag k="ssr:stedsnr" v="734024" />
	</node>
	<node id="-38873" lat="60.4796555536" lon="11.6481055603">
		<tag k="name" v="Sæterbekken" />
		<tag k="ssr:stedsnr" v="646424" />
		<tag k="waterway" v="stream" />
	</node>
	<node id="-38867" lat="60.4562944419" lon="11.355730548">
		<tag k="name" v="Ottdammen" />
		<tag k="ssr:stedsnr" v="726896" />
		<tag k="waterway" v="dam" />
	</node>
	<node id="-38866" lat="60.4243277735" lon="11.7485499982">
		<tag k="name" v="Jernmyrfossen" />
		<tag k="natural" v="waterfall" />
		<tag k="ssr:stedsnr" v="726869" />
	</node>
	<node id="-38865" lat="60.4768611112" lon="11.7788305607">
		<tag k="name" v="Bakevja" />
		<tag k="place" v="locality" />
		<tag k="ssr:stedsnr" v="726652" />
	</node>
	<node id="-38864" lat="60.4746305555" lon="11.7806138811">
		<tag k="name" v="Svartfløyta" />
		<tag k="natural" v="water" />
		<tag k="ssr:stedsnr" v="726645" />
		<tag k="water" v="lake" />
	</node>
	<node id="-38861" lat="60.5067277801" lon="11.7030833291">
		<tag k="name" v="Hølbekkfløyta" />
		<tag k="natural" v="water" />
		<tag k="ssr:stedsnr" v="725922" />
		<tag k="water" v="lake" />
	</node>
	<node id="-38850" lat="60.3914805588" lon="11.5378333318">
		<tag k="name" v="Sandsfossen" />
		<tag k="natural" v="waterfall" />
		<tag k="ssr:stedsnr" v="725341" />
	</node>
	<node id="-38846" lat="60.4266999968" lon="11.6163527819">
		<tag k="name" v="Lauvnesnabben" />
		<tag k="natural" v="cape" />
		<tag k="ssr:stedsnr" v="725308" />
	</node>
	<node id="-38828" lat="60.4051777774" lon="11.4876444522">
		<tag k="name" v="Brattfossen" />
		<tag k="natural" v="waterfall" />
		<tag k="ssr:stedsnr" v="723543" />
	</node>
	<node id="-38827" lat="60.4068666624" lon="11.4985888849">
		<tag k="name" v="Langneset" />
		<tag k="natural" v="cape" />
		<tag k="ssr:stedsnr" v="723536" />
	</node>
	<node id="-38825" lat="60.3771250009" lon="11.6101361073">
		<tag k="name" v="Nesivika" />
		<tag k="natural" v="bay" />
		<tag k="ssr:stedsnr" v="723298" />
	</node>
	<node id="-38823" lat="60.5077388885" lon="11.5114833253">
		<tag k="name" v="Mjøvatnet" />
		<tag k="natural" v="water" />
		<tag k="ssr:stedsnr" v="722583" />
	</node>
	<node id="-38818" lat="60.5398111111" lon="11.6986777795">
		<tag k="name" v="Deldalsbekken" />
		<tag k="ssr:stedsnr" v="613232" />
		<tag k="waterway" v="stream" />
	</node>
	<node id="-38815" lat="60.4933447802" lon="11.5051829305">
		<tag k="name" v="Sætersjøen" />
		<tag k="natural" v="water" />
		<tag k="ssr:stedsnr" v="613229" />
		<tag k="water" v="lake" />
	</node>
	<node id="-38814" lat="60.5172166627" lon="11.5486277822">
		<tag k="alt_name" v="Skiren, vesle" />
		<tag k="name" v="Vesle Skiren" />
		<tag k="natural" v="water" />
		<tag k="ssr:stedsnr" v="613222" />
	</node>
	<node id="-38804" lat="60.3873305558" lon="11.4383888861">
		<tag k="name" v="Deldalsbekken" />
		<tag k="ssr:stedsnr" v="604617" />
		<tag k="waterway" v="stream" />
	</node>
	<node id="-38800" lat="60.4517027762" lon="11.798747231">
		<tag k="name" v="Kjerringbekken" />
		<tag k="ssr:stedsnr" v="603591" />
		<tag k="waterway" v="stream" />
	</node>
	<node id="-38798" lat="60.4277361114" lon="11.5817916611">
		<tag k="name" v="Fjellsåa" />
		<tag k="ssr:stedsnr" v="603361" />
		<tag k="waterway" v="stream" />
	</node>
	<node id="-38789" lat="60.403683335" lon="11.7298638824">
		<tag k="name" v="Ringen" />
		<tag k="ssr:stedsnr" v="600805" />
		<tag k="waterway" v="rapids" />
	</node>
	<node id="-38785" lat="60.4631472254" lon="11.7291722259">
		<tag k="name" v="Huldertjennet" />
		<tag k="natural" v="water" />
		<tag k="ssr:stedsnr" v="715106" />
	</node>
	<node id="-38784" lat="60.4545888931" lon="11.7201972137">
		<tag k="name" v="Østmosætertjennet" />
		<tag k="natural" v="water" />
		<tag k="ssr:stedsnr" v="715104" />
	</node>
	<node id="-38783" lat="60.3732361151" lon="11.4220250016">
		<tag k="name" v="Abbortjennet" />
		<tag k="natural" v="water" />
		<tag k="ssr:stedsnr" v="714884" />
	</node>
	<node id="-38777" lat="60.4387888874" lon="11.7205111139">
		<tag k="name" v="Skålbergsætertjennet" />
		<tag k="natural" v="water" />
		<tag k="ssr:stedsnr" v="714056" />
	</node>
	<node id="-38771" lat="60.349533336" lon="11.4321277864">
		<tag k="name" v="Skjærbekken" />
		<tag k="ssr:stedsnr" v="587692" />
		<tag k="waterway" v="stream" />
	</node>
	<node id="-38751" lat="60.3021666676" lon="11.5274166608">
		<tag k="name" v="Styggdalsbekken" />
		<tag k="ssr:stedsnr" v="709687" />
		<tag k="waterway" v="stream" />
	</node>
	<node id="-38744" lat="60.3732305577" lon="11.6709722259">
		<tag k="name" v="Tråsåbekken" />
		<tag k="ssr:stedsnr" v="709136" />
		<tag k="waterway" v="stream" />
	</node>
	<node id="-38743" lat="60.4782472244" lon="11.5653222208">
		<tag k="name" v="Størrkulpen" />
		<tag k="natural" v="water" />
		<tag k="ssr:stedsnr" v="709106" />
		<tag k="water" v="pond" />
	</node>
	<node id="-38731" lat="60.5069722201" lon="11.7173249974">
		<tag k="name" v="Svartfløyta" />
		<tag k="place" v="locality" />
		<tag k="ssr:stedsnr" v="544929" />
	</node>
	<node id="-38730" lat="60.5139722199" lon="11.7126583278">
		<tag k="name" v="Graskulpen" />
		<tag k="natural" v="water" />
		<tag k="ssr:stedsnr" v="544928" />
	</node>
	<node id="-38724" lat="60.4110333326" lon="11.6354666751">
		<tag k="name" v="Nørstneset" />
		<tag k="natural" v="cape" />
		<tag k="ssr:stedsnr" v="543374" />
	</node>
	<node id="-38721" lat="60.4570138925" lon="11.4136444465">
		<tag k="name" v="Storbekken" />
		<tag k="ssr:stedsnr" v="543337" />
		<tag k="waterway" v="stream" />
	</node>
	<node id="-38720" lat="60.4979749997" lon="11.3895333299">
		<tag k="name" v="Lorthølet" />
		<tag k="natural" v="water" />
		<tag k="ssr:stedsnr" v="543333" />
		<tag k="water" v="pond" />
	</node>
	<node id="-38709" lat="60.5738472199" lon="11.6205222195">
		<tag k="name" v="Østre Kjøltjennet" />
		<tag k="natural" v="water" />
		<tag k="ssr:stedsnr" v="532819" />
	</node>
	<node id="-38707" lat="60.5137111119" lon="11.6766111107">
		<tag k="name" v="Øvre Gåsvatnet" />
		<tag k="natural" v="water" />
		<tag k="ssr:stedsnr" v="531962" />
	</node>
	<node id="-38704" lat="60.4170222198" lon="11.502388884">
		<tag k="name" v="Flikkerudneset" />
		<tag k="natural" v="cape" />
		<tag k="ssr:stedsnr" v="527989" />
	</node>
	<node id="-38699" lat="60.4012777774" lon="11.6675055493">
		<tag k="name" v="Sørka" />
		<tag k="ssr:stedsnr" v="527232" />
		<tag k="waterway" v="stream" />
	</node>
	<node id="-38691" lat="60.37260278" lon="11.8025222213">
		<tag k="name" v="Vesleåa" />
		<tag k="ssr:stedsnr" v="491925" />
		<tag k="waterway" v="stream" />
	</node>
	<node id="-38686" lat="60.4698805513" lon="11.6251222301">
		<tag k="name" v="Juråa" />
		<tag k="ssr:stedsnr" v="674131" />
		<tag k="waterway" v="river" />
	</node>
	<node id="-38685" lat="60.4735472267" lon="11.581888885">
		<tag k="name" v="Svarttjennet" />
		<tag k="natural" v="water" />
		<tag k="ssr:stedsnr" v="674237" />
	</node>
	<node id="-38684" lat="60.3766861076" lon="11.7543944371">
		<tag k="name" v="Halstjennet" />
		<tag k="natural" v="water" />
		<tag k="ssr:stedsnr" v="673931" />
	</node>
	<node id="-38191" lat="60.4241388905" lon="11.7359055513">
		<tag k="name" v="Hølbekken" />
		<tag k="ssr:stedsnr" v="241818" />
		<tag k="waterway" v="stream" />
	</node>
	<node id="-38674" lat="60.469516669" lon="11.7102361108">
		<tag k="name" v="Rudstjenna" />
		<tag k="natural" v="water" />
		<tag k="ssr:stedsnr" v="673812" />
	</node>
	<node id="-38669" lat="60.4670300698" lon="11.7710311523">
		<tag k="name" v="Lognsjøen" />
		<tag k="natural" v="water" />
		<tag k="ssr:stedsnr" v="673783" />
		<tag k="water" v="lake" />
	</node>
	<node id="-38666" lat="60.4577666633" lon="11.677333338">
		<tag k="name" v="Høgdatjenna" />
		<tag k="natural" v="water" />
		<tag k="ssr:stedsnr" v="673773" />
	</node>
	<node id="-38664" lat="60.4607055547" lon="11.5982416695">
		<tag k="name" v="Store Tørrtjennet" />
		<tag k="natural" v="water" />
		<tag k="ssr:stedsnr" v="673768" />
	</node>
	<node id="-38655" lat="60.4214861154" lon="11.661791662">
		<tag k="name" v="Storbekken" />
		<tag k="ssr:stedsnr" v="483875" />
		<tag k="waterway" v="stream" />
	</node>
	<node id="-38649" lat="60.4127583363" lon="11.6584555632">
		<tag k="name" v="Fløytdammen" />
		<tag k="ssr:stedsnr" v="483855" />
		<tag k="waterway" v="dam" />
	</node>
	<node id="-38644" lat="60.3820361074" lon="11.5599527744">
		<tag k="name" v="Laneset" />
		<tag k="natural" v="cape" />
		<tag k="ssr:stedsnr" v="482325" />
	</node>
	<node id="-38643" lat="60.381580552" lon="11.543877777">
		<tag k="name" v="Viksholmen" />
		<tag k="place" v="islet" />
		<tag k="ssr:stedsnr" v="482321" />
	</node>
	<node id="-38638" lat="60.4545777798" lon="11.4478472185">
		<tag k="name" v="Sæterbekken" />
		<tag k="ssr:stedsnr" v="480963" />
		<tag k="waterway" v="stream" />
	</node>
	<node id="-38635" lat="60.4110861097" lon="11.4913499985">
		<tag k="name" v="Revholen" />
		<tag k="natural" v="cape" />
		<tag k="ssr:stedsnr" v="480552" />
	</node>
	<node id="-38621" lat="60.5103305538" lon="11.6764138975">
		<tag k="name" v="Vibekken" />
		<tag k="ssr:stedsnr" v="664937" />
		<tag k="waterway" v="stream" />
	</node>
	<node id="-38613" lat="60.4016000001" lon="11.5013833266">
		<tag k="name" v="Marineset" />
		<tag k="natural" v="cape" />
		<tag k="ssr:stedsnr" v="663611" />
	</node>
	<node id="-38608" lat="60.4069305538" lon="11.4905138826">
		<tag k="name" v="Kilåa" />
		<tag k="ssr:stedsnr" v="662547" />
		<tag k="waterway" v="river" />
	</node>
	<node id="-38604" lat="60.3314138866" lon="11.5176527706">
		<tag k="name" v="Søndre Ulvtjennet" />
		<tag k="natural" v="water" />
		<tag k="ssr:stedsnr" v="662701" />
	</node>
	<node id="-38602" lat="60.3954361067" lon="11.7176361188">
		<tag k="name" v="Bråtåskjulnabben" />
		<tag k="natural" v="cape" />
		<tag k="ssr:stedsnr" v="661804" />
	</node>
	<node id="-38594" lat="60.4065638867" lon="11.5648805623">
		<tag k="name" v="Granerudtjennet" />
		<tag k="natural" v="water" />
		<tag k="ssr:stedsnr" v="431850" />
	</node>
	<node id="-38589" lat="60.447022224" lon="11.5240861124">
		<tag k="name" v="Djuptjennet" />
		<tag k="natural" v="water" />
		<tag k="ssr:stedsnr" v="431802" />
	</node>
	<node id="-38584" lat="60.4663027744" lon="11.4032249947">
		<tag k="name" v="Namnlausåsen" />
		<tag k="ssr:stedsnr" v="422314" />
		<tag k="waterway" v="stream" />
	</node>
	<node id="-38566" lat="60.5152027776" lon="11.6036972194">
		<tag k="name" v="Bjønndalsbekken" />
		<tag k="ssr:stedsnr" v="406070" />
		<tag k="waterway" v="stream" />
	</node>
	<node id="-38559" lat="60.5606972248" lon="11.5650250039">
		<tag k="name" v="Grytsæterbekken" />
		<tag k="ssr:stedsnr" v="404760" />
		<tag k="waterway" v="stream" />
	</node>
	<node id="-38557" lat="60.4476055534" lon="11.5449250083">
		<tag k="name" v="Tørrhaugdalbekken" />
		<tag k="ssr:stedsnr" v="404352" />
		<tag k="waterway" v="stream" />
	</node>
	<node id="-38553" lat="60.5082793371" lon="11.5659577858">
		<tag k="alt_name" v="Skiren, store;Skiren" />
		<tag k="name" v="Store Skiren" />
		<tag k="natural" v="water" />
		<tag k="ssr:stedsnr" v="371210" />
		<tag k="water" v="lake" />
	</node>
	<node id="-38550" lat="60.5611333327" lon="11.6195888938">
		<tag k="name" v="Nysæterbekken" />
		<tag k="ssr:stedsnr" v="371129" />
		<tag k="waterway" v="stream" />
	</node>
	<node id="-38542" lat="60.5005388865" lon="11.3528083294">
		<tag k="name" v="Dalsrudåa" />
		<tag k="ssr:stedsnr" v="362069" />
		<tag k="waterway" v="stream" />
	</node>
	<node id="-38536" lat="60.5130444448" lon="11.6859250053">
		<tag k="name" v="Beverhøla" />
		<tag k="natural" v="water" />
		<tag k="ssr:stedsnr" v="360912" />
		<tag k="water" v="lake" />
	</node>
	<node id="-38534" lat="60.4889249985" lon="11.6714000043">
		<tag k="name" v="Tannåbergstjennet" />
		<tag k="natural" v="water" />
		<tag k="ssr:stedsnr" v="360902" />
	</node>
	<node id="-38166" lat="60.431391667" lon="11.6220722298">
		<tag k="name" v="Geita" />
		<tag k="ssr:stedsnr" v="239316" />
		<tag k="waterway" v="stream" />
	</node>
	<node id="-38526" lat="60.3678388888" lon="11.486513893">
		<tag k="name" v="Hølbekken" />
		<tag k="ssr:stedsnr" v="358663" />
		<tag k="waterway" v="stream" />
	</node>
	<node id="-38525" lat="60.5045750021" lon="11.6653416707">
		<tag k="name" v="Tårnebekken" />
		<tag k="ssr:stedsnr" v="358661" />
		<tag k="waterway" v="stream" />
	</node>
	<node id="-38520" lat="60.4929666661" lon="11.6905611082">
		<tag k="name" v="Langtjennet" />
		<tag k="natural" v="water" />
		<tag k="ssr:stedsnr" v="492190" />
	</node>
	<node id="-38517" lat="60.323447221" lon="11.5055694383">
		<tag k="name" v="Tretjenna" />
		<tag k="natural" v="water" />
		<tag k="ssr:stedsnr" v="491973" />
	</node>
	<node id="-38516" lat="60.3627749986" lon="11.6752000084">
		<tag k="name" v="Ramsholmen" />
		<tag k="place" v="islet" />
		<tag k="ssr:stedsnr" v="491901" />
	</node>
	<node id="-38515" lat="60.3727916637" lon="11.664186105">
		<tag k="name" v="Trøsineset" />
		<tag k="natural" v="cape" />
		<tag k="ssr:stedsnr" v="491899" />
	</node>
	<node id="-38513" lat="60.3523000041" lon="11.5133861103">
		<tag k="name" v="Svarttjennet" />
		<tag k="natural" v="water" />
		<tag k="ssr:stedsnr" v="491879" />
	</node>
	<node id="-38512" lat="60.4315500032" lon="11.5170750027">
		<tag k="name" v="Ekerbekken" />
		<tag k="ssr:stedsnr" v="491871" />
		<tag k="waterway" v="stream" />
	</node>
	<node id="-38481" lat="60.3703638929" lon="11.6601222243">
		<tag k="name" v="Haraldskjæret" />
		<tag k="place" v="islet" />
		<tag k="ssr:stedsnr" v="345153" />
	</node>
	<node id="-38475" lat="60.4019055519" lon="11.6364999988">
		<tag k="name" v="Snippvika" />
		<tag k="natural" v="bay" />
		<tag k="ssr:stedsnr" v="483296" />
	</node>
	<node id="-38465" lat="60.5567472237" lon="11.6623055489">
		<tag k="name" v="Odølingsnabben" />
		<tag k="natural" v="cape" />
		<tag k="ssr:stedsnr" v="482541" />
	</node>
	<node id="-38464" lat="60.394363891" lon="11.4104833342">
		<tag k="name" v="Bjertbekken" />
		<tag k="ssr:stedsnr" v="482375" />
		<tag k="waterway" v="stream" />
	</node>
	<node id="-38455" lat="60.3582361101" lon="11.5435972217">
		<tag k="name" v="Veltbekken" />
		<tag k="ssr:stedsnr" v="480249" />
		<tag k="waterway" v="stream" />
	</node>
	<node id="-38450" lat="60.3229638853" lon="11.53257778">
		<tag k="name" v="Puttjennet" />
		<tag k="natural" v="water" />
		<tag k="ssr:stedsnr" v="472988" />
	</node>
	<node id="-38448" lat="60.4651861096" lon="11.555588886">
		<tag k="name" v="Vesle Geittjennet" />
		<tag k="natural" v="water" />
		<tag k="ssr:stedsnr" v="472871" />
	</node>
	<node id="-38446" lat="60.3535499997" lon="11.4497527839">
		<tag k="name" v="Langtjennsbekken" />
		<tag k="ssr:stedsnr" v="472762" />
		<tag k="waterway" v="stream" />
	</node>
	<node id="-38445" lat="60.3554055528" lon="11.5149499996">
		<tag k="name" v="Vesle Svarttjennet" />
		<tag k="natural" v="water" />
		<tag k="ssr:stedsnr" v="472756" />
	</node>
	<node id="-38444" lat="60.3599833315" lon="11.4883361051">
		<tag k="name" v="Trehøltjennet" />
		<tag k="natural" v="water" />
		<tag k="ssr:stedsnr" v="472755" />
	</node>
	<node id="-38439" lat="60.4477694418" lon="11.4267916597">
		<tag k="name" v="Morttjennsbekken" />
		<tag k="ssr:stedsnr" v="472068" />
		<tag k="waterway" v="stream" />
	</node>
	<node id="-38438" lat="60.3362888932" lon="11.5159250018">
		<tag k="name" v="Steintjennputten" />
		<tag k="natural" v="water" />
		<tag k="ssr:stedsnr" v="471765" />
	</node>
	<node id="-38437" lat="60.411280557" lon="11.6568722152">
		<tag k="name" v="Trøa" />
		<tag k="ssr:stedsnr" v="471723" />
		<tag k="waterway" v="stream" />
	</node>
	<node id="-38436" lat="60.3751027801" lon="11.6101972246">
		<tag k="name" v="Bukkeneset" />
		<tag k="natural" v="cape" />
		<tag k="ssr:stedsnr" v="471643" />
	</node>
	<node id="-38435" lat="60.488555556" lon="11.4719499934">
		<tag k="name" v="Bruntjennet" />
		<tag k="natural" v="water" />
		<tag k="ssr:stedsnr" v="471559" />
	</node>
	<node id="-38434" lat="60.3928444477" lon="11.7397861053">
		<tag k="name" v="Djuptjennsbekken" />
		<tag k="ssr:stedsnr" v="471154" />
		<tag k="waterway" v="stream" />
	</node>
	<node id="-38433" lat="60.461238893" lon="11.514313892">
		<tag k="name" v="Haugsåa" />
		<tag k="ssr:stedsnr" v="470781" />
		<tag k="waterway" v="river" />
	</node>
	<node id="-38421" lat="60.4269555527" lon="11.6116194408">
		<tag k="name" v="Dælpvika" />
		<tag k="natural" v="bay" />
		<tag k="ssr:stedsnr" v="300355" />
	</node>
	<node id="-38420" lat="60.4221222263" lon="11.6191111068">
		<tag k="name" v="Moneset" />
		<tag k="natural" v="cape" />
		<tag k="ssr:stedsnr" v="300352" />
	</node>
	<node id="-38419" lat="60.4438583374" lon="11.381030552">
		<tag k="name" v="Åkroken" />
		<tag k="place" v="locality" />
		<tag k="ssr:stedsnr" v="300311" />
	</node>
	<node id="-38414" lat="60.3349833365" lon="11.4490111054">
		<tag k="name" v="Baksjøen" />
		<tag k="natural" v="bay" />
		<tag k="ssr:stedsnr" v="466689" />
	</node>
	<node id="-38412" lat="60.47131389" lon="11.7833222141">
		<tag k="name" v="Løftern" />
		<tag k="place" v="locality" />
		<tag k="ssr:stedsnr" v="466641" />
	</node>
	<node id="-38402" lat="60.3154555596" lon="11.5839083339">
		<tag k="name" v="Tørkerudsbekken" />
		<tag k="ssr:stedsnr" v="465840" />
		<tag k="waterway" v="stream" />
	</node>
	<node id="-38401" lat="60.5615750016" lon="11.5891138918">
		<tag k="name" v="Hembekken" />
		<tag k="ssr:stedsnr" v="465792" />
		<tag k="waterway" v="stream" />
	</node>
	<node id="-38400" lat="60.3890694476" lon="11.7096277856">
		<tag k="name" v="Fløytdammen" />
		<tag k="ssr:stedsnr" v="464796" />
		<tag k="waterway" v="dam" />
	</node>
	<node id="-38397" lat="60.4477749988" lon="11.57941389">
		<tag k="name" v="Vesledammen" />
		<tag k="ssr:stedsnr" v="464388" />
		<tag k="waterway" v="dam" />
	</node>
	<node id="-38396" lat="60.4445138862" lon="11.5810888977">
		<tag k="name" v="Skrikarbekken" />
		<tag k="ssr:stedsnr" v="464385" />
		<tag k="waterway" v="stream" />
	</node>
	<node id="-38394" lat="60.3246583306" lon="11.548252778">
		<tag k="name" v="Blokktjennet" />
		<tag k="natural" v="water" />
		<tag k="ssr:stedsnr" v="290971" />
	</node>
	<node id="-38393" lat="60.5457527746" lon="11.6807916667">
		<tag k="name" v="Huldertjennet" />
		<tag k="natural" v="water" />
		<tag k="ssr:stedsnr" v="289875" />
	</node>
	<node id="-38389" lat="60.3759638878" lon="11.4423805512">
		<tag k="name" v="Fossmyrbekken" />
		<tag k="ssr:stedsnr" v="241604" />
		<tag k="waterway" v="stream" />
	</node>
	<node id="-38386" lat="60.409125002" lon="11.636158337">
		<tag k="alt_name" v="Garviknesa" />
		<tag k="name" v="Gardviknesa" />
		<tag k="natural" v="cape" />
		<tag k="ssr:stedsnr" v="241267" />
	</node>
	<node id="-38384" lat="60.4839611117" lon="11.5087777866">
		<tag k="name" v="Styggådammen" />
		<tag k="ssr:stedsnr" v="240908" />
		<tag k="waterway" v="dam" />
	</node>
	<node id="-38368" lat="60.3987888863" lon="11.5198027785">
		<tag k="name" v="Kunabben" />
		<tag k="natural" v="cape" />
		<tag k="ssr:stedsnr" v="298524" />
	</node>
	<node id="-38367" lat="60.4048833331" lon="11.4999916735">
		<tag k="name" v="Vineset" />
		<tag k="natural" v="cape" />
		<tag k="ssr:stedsnr" v="298522" />
	</node>
	<node id="-38363" lat="60.4094277783" lon="11.5542861072">
		<tag k="name" v="Meåsbekken" />
		<tag k="ssr:stedsnr" v="298329" />
		<tag k="waterway" v="stream" />
	</node>
	<node id="-38359" lat="60.3435277756" lon="11.4587361188">
		<tag k="name" v="Langtjennbekken" />
		<tag k="ssr:stedsnr" v="290727" />
		<tag k="waterway" v="stream" />
	</node>
	<node id="-38358" lat="60.4837972265" lon="11.5571277734">
		<tag k="name" v="Gørrtjennet" />
		<tag k="natural" v="water" />
		<tag k="ssr:stedsnr" v="290495" />
	</node>
	<node id="-38357" lat="60.4746916686" lon="11.5907805584">
		<tag k="name" v="Nyhustjennet" />
		<tag k="natural" v="water" />
		<tag k="ssr:stedsnr" v="290113" />
	</node>
	<node id="-38356" lat="60.4350666658" lon="11.7433777748">
		<tag k="name" v="Vivangstjennet" />
		<tag k="natural" v="water" />
		<tag k="ssr:stedsnr" v="290049" />
	</node>
	<node id="-38355" lat="60.4788841376" lon="11.4211743099">
		<tag k="name" v="Svarttjennet" />
		<tag k="natural" v="water" />
		<tag k="ssr:stedsnr" v="290026" />
	</node>
	<node id="-38354" lat="60.4069027753" lon="11.7999055528">
		<tag k="name" v="Brilltjenna" />
		<tag k="natural" v="water" />
		<tag k="ssr:stedsnr" v="290186" />
	</node>
	<node id="-38351" lat="60.5179611125" lon="11.6789111171">
		<tag k="name" v="Steinslitjenndammen" />
		<tag k="ssr:stedsnr" v="289894" />
		<tag k="waterway" v="dam" />
	</node>
	<node id="-38350" lat="60.4993722239" lon="11.6901277746">
		<tag k="name" v="Tepptjennet" />
		<tag k="natural" v="water" />
		<tag k="ssr:stedsnr" v="289892" />
	</node>
	<node id="-38343" lat="60.4469861124" lon="11.7459555607">
		<tag k="name" v="Skålbekken" />
		<tag k="ssr:stedsnr" v="179859" />
		<tag k="waterway" v="stream" />
	</node>
	<node id="-38341" lat="60.4850638864" lon="11.4042361164">
		<tag k="name" v="Hølbekkvika" />
		<tag k="natural" v="bay" />
		<tag k="ssr:stedsnr" v="179307" />
	</node>
	<node id="-38338" lat="60.4215527764" lon="11.4436416653">
		<tag k="name" v="Delbekken" />
		<tag k="ssr:stedsnr" v="284982" />
		<tag k="waterway" v="stream" />
	</node>
	<node id="-38335" lat="60.4166166654" lon="11.466458332">
		<tag k="name" v="Løsetdammen" />
		<tag k="ssr:stedsnr" v="284977" />
		<tag k="waterway" v="dam" />
	</node>
	<node id="-38331" lat="60.4223166674" lon="11.639213885">
		<tag k="name" v="Måsåvika" />
		<tag k="natural" v="bay" />
		<tag k="ssr:stedsnr" v="178303" />
	</node>
	<node id="-38325" lat="60.3608027796" lon="11.4578305536">
		<tag k="name" v="Busbekken" />
		<tag k="ssr:stedsnr" v="284704" />
		<tag k="waterway" v="stream" />
	</node>
	<node id="-38324" lat="60.3639916653" lon="11.4372444485">
		<tag k="name" v="Svartputten" />
		<tag k="natural" v="water" />
		<tag k="ssr:stedsnr" v="284698" />
	</node>
	<node id="-38131" lat="60.3261833352" lon="11.5535333279">
		<tag k="name" v="Høgbråtetjennet" />
		<tag k="natural" v="water" />
		<tag k="ssr:stedsnr" v="229990" />
	</node>
	<node id="-38320" lat="60.3521555575" lon="11.4355000081">
		<tag k="name" v="Den Brente Nabben" />
		<tag k="natural" v="cape" />
		<tag k="ssr:stedsnr" v="284683" />
	</node>
	<node id="-38318" lat="60.4658305583" lon="11.7855444515">
		<tag k="name" v="Nøklevassåa" />
		<tag k="ssr:stedsnr" v="284646" />
		<tag k="waterway" v="stream" />
	</node>
	<node id="-38314" lat="60.4801888902" lon="11.5531888901">
		<tag k="name" v="Høvelsbekken" />
		<tag k="ssr:stedsnr" v="284098" />
		<tag k="waterway" v="stream" />
	</node>
	<node id="-38307" lat="60.5391277819" lon="11.5792944413">
		<tag k="name" v="Nedre Grytdammen" />
		<tag k="ssr:stedsnr" v="283761" />
		<tag k="waterway" v="dam" />
	</node>
	<node id="-38295" lat="60.5050305587" lon="11.4358277792">
		<tag k="name" v="Kjøltjennet" />
		<tag k="natural" v="water" />
		<tag k="ssr:stedsnr" v="168827" />
	</node>
	<node id="-38294" lat="60.3351111135" lon="11.5178444421">
		<tag k="name" v="Nordre Ulvtjennet" />
		<tag k="natural" v="water" />
		<tag k="ssr:stedsnr" v="168758" />
	</node>
	<node id="-38293" lat="60.4301222245" lon="11.7204222166">
		<tag k="name" v="Kutjennet" />
		<tag k="natural" v="water" />
		<tag k="ssr:stedsnr" v="168219" />
	</node>
	<node id="-38292" lat="60.4650500016" lon="11.5668527695">
		<tag k="name" v="Romtjennet" />
		<tag k="natural" v="water" />
		<tag k="ssr:stedsnr" v="168102" />
	</node>
	<node id="-40335" lat="60.3821750031" lon="11.4209055511">
		<tag k="name" v="Bjertbekken" />
		<tag k="ssr:stedsnr" v="969615" />
		<tag k="waterway" v="stream" />
	</node>
	<node id="-38286" lat="60.4461499994" lon="11.5917416726">
		<tag k="name" v="Koiebråtebekken" />
		<tag k="ssr:stedsnr" v="161425" />
		<tag k="waterway" v="stream" />
	</node>
	<node id="-40331" lat="60.3804166688" lon="11.5270416698">
		<tag k="name" v="Storbekken" />
		<tag k="ssr:stedsnr" v="968592" />
		<tag k="waterway" v="stream" />
	</node>
	<node id="-40328" lat="60.4925833332" lon="11.3703388963">
		<tag k="name" v="Vintervegvika" />
		<tag k="natural" v="bay" />
		<tag k="ssr:stedsnr" v="968330" />
	</node>
	<node id="-40326" lat="60.4390722231" lon="11.411791668">
		<tag k="name" v="Kjonsteindammen" />
		<tag k="ssr:stedsnr" v="968305" />
		<tag k="waterway" v="dam" />
	</node>
	<node id="-40316" lat="60.4221638867" lon="11.6286277751">
		<tag k="name" v="Østmoneset" />
		<tag k="natural" v="cape" />
		<tag k="ssr:stedsnr" v="967288" />
	</node>
	<node id="-40314" lat="60.3629166684" lon="11.7155416692">
		<tag k="name" v="Solbakkvika" />
		<tag k="natural" v="bay" />
		<tag k="ssr:stedsnr" v="967188" />
	</node>
	<node id="-40310" lat="60.3328972201" lon="11.5200416755">
		<tag k="name" v="Østre Ulvtjennet" />
		<tag k="natural" v="water" />
		<tag k="ssr:stedsnr" v="965683" />
	</node>
	<node id="-40309" lat="60.4026972258" lon="11.5203138962">
		<tag k="name" v="Bråtåhella" />
		<tag k="natural" v="cape" />
		<tag k="ssr:stedsnr" v="965547" />
	</node>
	<node id="-38257" lat="60.410819442" lon="11.5684611044">
		<tag k="name" v="Kloppmyrbekken" />
		<tag k="ssr:stedsnr" v="116334" />
		<tag k="waterway" v="stream" />
	</node>
	<node id="-38254" lat="60.3290055558" lon="11.5632666704">
		<tag k="name" v="Sandbekken" />
		<tag k="ssr:stedsnr" v="101864" />
		<tag k="waterway" v="stream" />
	</node>
	<node id="-40301" lat="60.5029083345" lon="11.7186916584">
		<tag k="name" v="Liktjennet" />
		<tag k="natural" v="water" />
		<tag k="ssr:stedsnr" v="957850" />
	</node>
	<node id="-40300" lat="60.5084083346" lon="11.5497388877">
		<tag k="name" v="Kroktjennet" />
		<tag k="natural" v="water" />
		<tag k="ssr:stedsnr" v="957849" />
	</node>
	<node id="-38250" lat="60.4779861112" lon="11.6402388834">
		<tag k="name" v="Sætersdammen" />
		<tag k="ssr:stedsnr" v="100408" />
		<tag k="waterway" v="dam" />
	</node>
	<node id="-40297" lat="60.4815944406" lon="11.3579333247">
		<tag k="name" v="Nysætertjennet" />
		<tag k="natural" v="water" />
		<tag k="ssr:stedsnr" v="957795" />
	</node>
	<node id="-40296" lat="60.3826305555" lon="11.500772229">
		<tag k="name" v="Sollaustjennet" />
		<tag k="natural" v="water" />
		<tag k="ssr:stedsnr" v="957773" />
	</node>
	<node id="-38247" lat="60.3326222248" lon="11.517797219">
		<tag k="name" v="Ulvtjenna" />
		<tag k="natural" v="water" />
		<tag k="ssr:stedsnr" v="249999" />
		<tag k="water" v="lake" />
	</node>
	<node id="-40294" lat="60.4388666709" lon="11.7990750064">
		<tag k="name" v="Kroktjennsbekken" />
		<tag k="ssr:stedsnr" v="957053" />
		<tag k="waterway" v="stream" />
	</node>
	<node id="-40293" lat="60.4631388851" lon="11.7291166715">
		<tag k="name" v="Huldertjennet" />
		<tag k="natural" v="water" />
		<tag k="ssr:stedsnr" v="957034" />
	</node>
	<node id="-38241" lat="60.3776805525" lon="11.5061833391">
		<tag k="name" v="Sandbekken" />
		<tag k="ssr:stedsnr" v="249907" />
		<tag k="waterway" v="stream" />
	</node>
	<node id="-40285" lat="60.5650499979" lon="11.6177444527">
		<tag k="name" v="Klypbekkene" />
		<tag k="ssr:stedsnr" v="952751" />
		<tag k="waterway" v="stream" />
	</node>
	<node id="-38232" lat="60.4017750038" lon="11.731133338">
		<tag k="name" v="Austvassåa" />
		<tag k="ssr:stedsnr" v="249824" />
		<tag k="waterway" v="stream" />
	</node>
	<node id="-38231" lat="60.3962361134" lon="11.7944666737">
		<tag k="name" v="Abbortjennet" />
		<tag k="natural" v="water" />
		<tag k="ssr:stedsnr" v="249817" />
	</node>
	<node id="-40277" lat="60.3810277778" lon="11.6937166633">
		<tag k="name" v="Nordstrømbekken" />
		<tag k="ssr:stedsnr" v="952156" />
		<tag k="waterway" v="stream" />
	</node>
	<node id="-38228" lat="60.4990666657" lon="11.7412444473">
		<tag k="name" v="Aurtjennet" />
		<tag k="natural" v="water" />
		<tag k="ssr:stedsnr" v="249216" />
	</node>
	<node id="-38225" lat="60.5176583359" lon="11.6812166619">
		<tag k="name" v="Steinslitjennet" />
		<tag k="natural" v="water" />
		<tag k="ssr:stedsnr" v="249202" />
	</node>
	<node id="-40272" lat="60.3974055586" lon="11.7663861131">
		<tag k="name" v="Dulpen" />
		<tag k="natural" v="water" />
		<tag k="ssr:stedsnr" v="951585" />
		<tag k="water" v="pond" />
	</node>
	<node id="-38223" lat="60.3409583311" lon="11.4583055552">
		<tag k="name" v="Langtjennet" />
		<tag k="natural" v="water" />
		<tag k="ssr:stedsnr" v="249102" />
	</node>
	<node id="-38222" lat="60.3975861134" lon="11.408100002">
		<tag k="alt_name" v="Bjerten, vesle" />
		<tag k="name" v="Vesle Bjerten" />
		<tag k="natural" v="water" />
		<tag k="ssr:stedsnr" v="249005" />
	</node>
	<node id="-40267" lat="60.3556111154" lon="11.5714499944">
		<tag k="name" v="Hanorbekken" />
		<tag k="ssr:stedsnr" v="950746" />
		<tag k="waterway" v="stream" />
	</node>
	<node id="-38207" lat="60.4254750021" lon="11.429100005">
		<tag k="name" v="Løsetåa" />
		<tag k="ssr:stedsnr" v="248484" />
		<tag k="waterway" v="stream" />
	</node>
	<node id="-40251" lat="60.3386555586" lon="11.5171027778">
		<tag k="name" v="Steintjennet" />
		<tag k="natural" v="water" />
		<tag k="ssr:stedsnr" v="856909" />
	</node>
	<node id="-38199" lat="60.3991138881" lon="11.5681999959">
		<tag k="name" v="Vesletjennet" />
		<tag k="natural" v="water" />
		<tag k="ssr:stedsnr" v="67813" />
	</node>
	<node id="-38198" lat="60.4946861096" lon="11.423713897">
		<tag k="name" v="Lognsjøen" />
		<tag k="natural" v="water" />
		<tag k="ssr:stedsnr" v="67420" />
	</node>
	<node id="-38197" lat="60.4789583352" lon="11.3741388853">
		<tag k="name" v="Lomtjennet" />
		<tag k="natural" v="water" />
		<tag k="ssr:stedsnr" v="67401" />
	</node>
	<node id="-38196" lat="60.3386972195" lon="11.4542555602">
		<tag k="name" v="Vasketjennet" />
		<tag k="natural" v="water" />
		<tag k="ssr:stedsnr" v="67136" />
	</node>
	<node id="-38194" lat="60.4036749998" lon="11.3877500074">
		<tag k="name" v="Grantjennet" />
		<tag k="natural" v="water" />
		<tag k="ssr:stedsnr" v="67014" />
	</node>
	<node id="-40241" lat="60.4576305581" lon="11.5955944498">
		<tag k="name" v="Søndre Tørrtjennet" />
		<tag k="natural" v="water" />
		<tag k="ssr:stedsnr" v="855824" />
	</node>
	<node id="-38192" lat="60.4151388853" lon="11.7413083369">
		<tag k="name" v="Gamholen" />
		<tag k="natural" v="cape" />
		<tag k="ssr:stedsnr" v="241822" />
	</node>
	<node id="-40239" lat="60.3554572259" lon="11.442679303">
		<tag k="name" v="Tennungen" />
		<tag k="natural" v="water" />
		<tag k="ssr:stedsnr" v="855089" />
		<tag k="water" v="lake" />
	</node>
	<node id="-38189" lat="60.3938333317" lon="11.64251389">
		<tag k="name" v="Pustutvika" />
		<tag k="natural" v="bay" />
		<tag k="ssr:stedsnr" v="241276" />
	</node>
	<node id="-40231" lat="60.4001972184" lon="11.6447805494">
		<tag k="name" v="Trøgapet" />
		<tag k="natural" v="bay" />
		<tag k="ssr:stedsnr" v="848304" />
	</node>
	<node id="-38182" lat="60.4388250038" lon="11.3880638859">
		<tag k="name" v="Ottkoibekken" />
		<tag k="ssr:stedsnr" v="240281" />
		<tag k="waterway" v="stream" />
	</node>
	<node id="-40229" lat="60.4913000039" lon="11.388977787">
		<tag k="name" v="Taraldsfløyta" />
		<tag k="natural" v="water" />
		<tag k="ssr:stedsnr" v="847329" />
		<tag k="water" v="lake" />
	</node>
	<node id="-40224" lat="60.4961888921" lon="11.5050527748">
		<tag k="name" v="Svenskenabben" />
		<tag k="natural" v="cape" />
		<tag k="ssr:stedsnr" v="846901" />
	</node>
	<node id="-38174" lat="60.4338249966" lon="11.7590555587">
		<tag k="name" v="Langfløyta" />
		<tag k="natural" v="water" />
		<tag k="ssr:stedsnr" v="239884" />
		<tag k="water" v="lake" />
	</node>
	<node id="-40217" lat="60.4218166664" lon="11.6360416589">
		<tag k="name" v="Tittneset" />
		<tag k="natural" v="cape" />
		<tag k="ssr:stedsnr" v="846301" />
	</node>
	<node id="-40216" lat="60.4259361131" lon="11.6071611189">
		<tag k="name" v="Lenseberget" />
		<tag k="natural" v="cape" />
		<tag k="ssr:stedsnr" v="846298" />
	</node>
	<node id="-40215" lat="60.4253916701" lon="11.61856666">
		<tag k="name" v="Geitnabben" />
		<tag k="natural" v="cape" />
		<tag k="ssr:stedsnr" v="846295" />
	</node>
	<node id="-40214" lat="60.3711555522" lon="11.5729611108">
		<tag k="name" v="Trellen" />
		<tag k="natural" v="cape" />
		<tag k="ssr:stedsnr" v="846254" />
	</node>
	<node id="-38165" lat="60.3721916634" lon="11.5625638953">
		<tag k="name" v="Grøntuva" />
		<tag k="place" v="islet" />
		<tag k="ssr:stedsnr" v="239288" />
	</node>
	<node id="-38164" lat="60.3728305532" lon="11.5591750036">
		<tag k="name" v="Grøna" />
		<tag k="natural" v="cape" />
		<tag k="ssr:stedsnr" v="239287" />
	</node>
	<node id="-38162" lat="60.3688805567" lon="11.5706527765">
		<tag k="name" v="Svennebyholmen" />
		<tag k="place" v="islet" />
		<tag k="ssr:stedsnr" v="239284" />
	</node>
	<node id="-38159" lat="60.4179027795" lon="11.7344055505">
		<tag k="name" v="Nilsholen" />
		<tag k="natural" v="cape" />
		<tag k="ssr:stedsnr" v="59818" />
	</node>
	<node id="-40206" lat="60.504094445" lon="11.7344388904">
		<tag k="name" v="Karitjenna" />
		<tag k="natural" v="water" />
		<tag k="ssr:stedsnr" v="836852" />
	</node>
	<node id="-40204" lat="60.3910638898" lon="11.7307583375">
		<tag k="name" v="Faråstjennet" />
		<tag k="natural" v="water" />
		<tag k="ssr:stedsnr" v="836118" />
	</node>
	<node id="-40203" lat="60.4102333336" lon="11.3977694432">
		<tag k="name" v="Huldertjennet" />
		<tag k="natural" v="water" />
		<tag k="ssr:stedsnr" v="836200" />
	</node>
	<node id="-40202" lat="60.466988892" lon="11.5446666709">
		<tag k="name" v="Sætertjenna" />
		<tag k="natural" v="water" />
		<tag k="ssr:stedsnr" v="836046" />
	</node>
	<node id="-40201" lat="60.4420277809" lon="11.7457083286">
		<tag k="name" v="Fredriktjennet" />
		<tag k="natural" v="water" />
		<tag k="ssr:stedsnr" v="836043" />
	</node>
	<node id="-40200" lat="60.4567194447" lon="11.7814222152">
		<tag k="name" v="Steinbrottjennet" />
		<tag k="natural" v="water" />
		<tag k="ssr:stedsnr" v="836025" />
	</node>
	<node id="-40199" lat="60.4784111076" lon="11.690283335">
		<tag k="name" v="Rådeltjennsbekken" />
		<tag k="ssr:stedsnr" v="836085" />
		<tag k="waterway" v="stream" />
	</node>
	<node id="-38150" lat="60.3627166663" lon="11.5059305491">
		<tag k="name" v="Høymyrbekken" />
		<tag k="ssr:stedsnr" v="237650" />
		<tag k="waterway" v="stream" />
	</node>
	<node id="-40196" lat="60.5267805553" lon="11.5823916577">
		<tag k="name" v="Nedre Ortjennet" />
		<tag k="natural" v="water" />
		<tag k="ssr:stedsnr" v="835483" />
	</node>
	<node id="-38142" lat="60.3721638929" lon="11.6110527811">
		<tag k="name" v="Rovøysundet" />
		<tag k="natural" v="strait" />
		<tag k="ssr:stedsnr" v="237292" />
	</node>
	<node id="-38139" lat="60.4745972254" lon="11.4482750063">
		<tag k="name" v="Sætertjennet" />
		<tag k="natural" v="water" />
		<tag k="ssr:stedsnr" v="47414" />
	</node>
	<node id="-40179" lat="60.4290611099" lon="11.4193694465">
		<tag k="name" v="Aksvalfløyta" />
		<tag k="natural" v="water" />
		<tag k="ssr:stedsnr" v="830979" />
		<tag k="water" v="lake" />
	</node>
	<node id="-40178" lat="60.4194777791" lon="11.4602250075">
		<tag k="name" v="Løsetfløyta" />
		<tag k="natural" v="water" />
		<tag k="ssr:stedsnr" v="830977" />
		<tag k="water" v="lake" />
	</node>
	<node id="-38127" lat="60.4125833309" lon="11.7541805499">
		<tag k="name" v="Sløtjennsbekken" />
		<tag k="ssr:stedsnr" v="229240" />
		<tag k="waterway" v="stream" />
	</node>
	<node id="-38126" lat="60.4438611145" lon="11.6507861065">
		<tag k="name" v="Tjernslitjennet" />
		<tag k="natural" v="water" />
		<tag k="ssr:stedsnr" v="229041" />
	</node>
	<node id="-38122" lat="60.3617222253" lon="11.4454749967">
		<tag k="name" v="Gammelsæterbekken" />
		<tag k="ssr:stedsnr" v="224635" />
		<tag k="waterway" v="stream" />
	</node>
	<node id="-38120" lat="60.3729861083" lon="11.5486277856">
		<tag k="name" v="Grønåa" />
		<tag k="ssr:stedsnr" v="224296" />
		<tag k="waterway" v="stream" />
	</node>
	<node id="-38116" lat="60.5174472193" lon="11.6212916687">
		<tag k="name" v="Åmot" />
		<tag k="place" v="locality" />
		<tag k="ssr:stedsnr" v="224083" />
	</node>
	<node id="-38105" lat="60.3654861074" lon="11.5767638904">
		<tag k="name" v="Hanorsundet" />
		<tag k="natural" v="strait" />
		<tag k="ssr:stedsnr" v="222758" />
	</node>
	<node id="-40150" lat="60.4646194444" lon="11.7244194364">
		<tag k="name" v="Skåltjenna" />
		<tag k="natural" v="water" />
		<tag k="ssr:stedsnr" v="795791" />
	</node>
	<node id="-40148" lat="60.4440111119" lon="11.3593055511">
		<tag k="name" v="Raudvassbekken" />
		<tag k="ssr:stedsnr" v="795522" />
		<tag k="waterway" v="stream" />
	</node>
	<node id="-40146" lat="60.475550002" lon="11.5121305482">
		<tag k="name" v="Styggåa" />
		<tag k="ssr:stedsnr" v="795284" />
		<tag k="waterway" v="river" />
	</node>
	<node id="-40145" lat="60.4805472219" lon="11.7585055635">
		<tag k="name" v="Bjørtjennet" />
		<tag k="natural" v="water" />
		<tag k="ssr:stedsnr" v="795277" />
	</node>
	<node id="-38095" lat="60.3422083291" lon="11.5757749937">
		<tag k="name" v="Songa" />
		<tag k="ssr:stedsnr" v="6897" />
		<tag k="waterway" v="stream" />
	</node>
	<node id="-40139" lat="60.4788499994" lon="11.7872777848">
		<tag k="name" v="Nøklevassdammen" />
		<tag k="ssr:stedsnr" v="787647" />
		<tag k="waterway" v="dam" />
	</node>
	<node id="-40137" lat="60.4884777788" lon="11.5050861169">
		<tag k="name" v="Tangen" />
		<tag k="natural" v="cape" />
		<tag k="ssr:stedsnr" v="786912" />
	</node>
	<node id="-38086" lat="60.3661749997" lon="11.7890222172">
		<tag k="alt_name" v="Kuggerudsåa" />
		<tag k="name" v="Kugga" />
		<tag k="ssr:stedsnr" v="6906" />
		<tag k="waterway" v="river" />
	</node>
	<node id="-38085" lat="60.4081990636" lon="11.5028462676">
		<tag k="name" v="Råsen" />
		<tag k="natural" v="water" />
		<tag k="ssr:stedsnr" v="6838" />
		<tag k="water" v="lake" />
	</node>
	<node id="-38080" lat="60.4529114368" lon="11.7754929849">
		<tag k="name" v="Gransjøen" />
		<tag k="natural" v="water" />
		<tag k="ssr:stedsnr" v="6805" />
		<tag k="water" v="lake" />
	</node>
	<node id="-40124" lat="60.4351444462" lon="11.7521944492">
		<tag k="name" v="Skålbekkfløyta" />
		<tag k="natural" v="water" />
		<tag k="ssr:stedsnr" v="785861" />
		<tag k="water" v="lake" />
	</node>
	<node id="-40122" lat="60.4333499991" lon="11.7648333252">
		<tag k="name" v="Veiva" />
		<tag k="natural" v="water" />
		<tag k="ssr:stedsnr" v="785596" />
		<tag k="water" v="lake" />
	</node>
	<node id="-40121" lat="60.4374749999" lon="11.7752805525">
		<tag k="name" v="Elgsjødammen" />
		<tag k="ssr:stedsnr" v="785550" />
		<tag k="waterway" v="dam" />
	</node>
	<node id="-38089" lat="60.3673083298" lon="11.6483055565">
		<tag k="name" v="Storsjøen" />
		<tag k="natural" v="water" />
		<tag k="ssr:stedsnr" v="6928" />
		<tag k="water" v="lake" />
	</node>
	<node id="-40099" lat="60.3822083336" lon="11.6068638937">
		<tag k="name" v="Lorthølbekken" />
		<tag k="ssr:stedsnr" v="783261" />
		<tag k="waterway" v="stream" />
	</node>
	<node id="-40098" lat="60.3075472189" lon="11.5254999923">
		<tag k="name" v="Furutjennet" />
		<tag k="natural" v="water" />
		<tag k="ssr:stedsnr" v="775995" />
	</node>
	<node id="-40096" lat="60.5677861132" lon="11.6308361204">
		<tag k="name" v="Brenntjennet" />
		<tag k="natural" v="water" />
		<tag k="ssr:stedsnr" v="775823" />
	</node>
	<node id="-40093" lat="60.4135083311" lon="11.7353833299">
		<tag k="name" v="Nøkktjennsdammen" />
		<tag k="ssr:stedsnr" v="775198" />
		<tag k="waterway" v="dam" />
	</node>
	<node id="-40092" lat="60.4277944402" lon="11.7261888887">
		<tag k="name" v="Båntjennet" />
		<tag k="natural" v="water" />
		<tag k="ssr:stedsnr" v="775196" />
	</node>
	<node id="-40091" lat="60.4287138934" lon="11.5405666591">
		<tag k="name" v="Gartjennet" />
		<tag k="natural" v="water" />
		<tag k="ssr:stedsnr" v="775192" />
	</node>
	<node id="-40089" lat="60.5121638928" lon="11.6741333308">
		<tag k="name" v="Nedre Gåsvatnet" />
		<tag k="natural" v="water" />
		<tag k="ssr:stedsnr" v="774961" />
	</node>
	<node id="-40086" lat="60.3687527795" lon="11.423247221">
		<tag k="loc_name" v="Gråsidbekken" />
		<tag k="name" v="Gråsibekken" />
		<tag k="ssr:stedsnr" v="770647" />
		<tag k="waterway" v="stream" />
	</node>
	<node id="-40083" lat="60.5624944439" lon="11.6199333399">
		<tag k="name" v="Klypbekkoia" />
		<tag k="ssr:stedsnr" v="770752" />
		<tag k="waterway" v="stream" />
	</node>
	<node id="-40067" lat="60.5455916686" lon="11.5707750088">
		<tag k="name" v="Midtre Grytdammen" />
		<tag k="ssr:stedsnr" v="768788" />
		<tag k="waterway" v="dam" />
	</node>
	<node id="-40061" lat="60.355902781" lon="11.4521972163">
		<tag k="name" v="Titteltjennet" />
		<tag k="natural" v="water" />
		<tag k="ssr:stedsnr" v="654775" />
	</node>
	<node id="-40060" lat="60.4223633048" lon="11.3733371834">
		<tag k="name" v="Store Lønnvangtjennet" />
		<tag k="natural" v="water" />
		<tag k="ssr:stedsnr" v="654893" />
	</node>
	<node id="-40057" lat="60.443288891" lon="11.7006861082">
		<tag k="name" v="Kutjennet" />
		<tag k="natural" v="water" />
		<tag k="ssr:stedsnr" v="653047" />
	</node>
	<node id="-40056" lat="60.4185388876" lon="11.3945472276">
		<tag k="name" v="Nysætertjennet" />
		<tag k="natural" v="water" />
		<tag k="ssr:stedsnr" v="653174" />
	</node>
	<node id="-40049" lat="60.3981499972" lon="11.672022223">
		<tag k="name" v="Dånåsbekken" />
		<tag k="ssr:stedsnr" v="648252" />
		<tag k="waterway" v="stream" />
	</node>
	<node id="-40047" lat="60.3805027755" lon="11.6795250065">
		<tag k="name" v="Sørka" />
		<tag k="ssr:stedsnr" v="648173" />
		<tag k="waterway" v="stream" />
	</node>
	<node id="-40046" lat="60.3681055516" lon="11.6660388931">
		<tag k="name" v="Ramsneset" />
		<tag k="natural" v="cape" />
		<tag k="ssr:stedsnr" v="648167" />
	</node>
	<node id="-40045" lat="60.3711388899" lon="11.6723972233">
		<tag k="name" v="Blågarden" />
		<tag k="natural" v="cape" />
		<tag k="ssr:stedsnr" v="648163" />
	</node>
	<node id="-40043" lat="60.5067555596" lon="11.6133333289">
		<tag k="name" v="Dalsæterdammen" />
		<tag k="ssr:stedsnr" v="648091" />
		<tag k="waterway" v="dam" />
	</node>
	<node id="-40037" lat="60.320700003" lon="11.5406833361">
		<tag k="name" v="Gørrputten" />
		<tag k="natural" v="water" />
		<tag k="ssr:stedsnr" v="646798" />
		<tag k="water" v="pond" />
	</node>
	<node id="-40029" lat="60.4504499971" lon="11.5875861046">
		<tag k="name" v="Kremmersæterbekken" />
		<tag k="ssr:stedsnr" v="646368" />
		<tag k="waterway" v="stream" />
	</node>
	<node id="-40023" lat="60.5029388905" lon="11.3999138966">
		<tag k="name" v="Rundsjøen" />
		<tag k="natural" v="water" />
		<tag k="ssr:stedsnr" v="613446" />
	</node>
	<node id="-40021" lat="60.5475527757" lon="11.5957222161">
		<tag k="name" v="Gjellbekken" />
		<tag k="ssr:stedsnr" v="613132" />
		<tag k="waterway" v="stream" />
	</node>
	<node id="-40012" lat="60.4255944456" lon="11.8366416622">
		<tag k="name" v="Bukketjennet" />
		<tag k="natural" v="water" />
		<tag k="ssr:stedsnr" v="612851" />
	</node>
	<node id="-40009" lat="60.4196777751" lon="11.8330194366">
		<tag k="name" v="Rundtomtjennet" />
		<tag k="natural" v="water" />
		<tag k="ssr:stedsnr" v="612838" />
	</node>
	<node id="-40007" lat="60.4654999958" lon="11.5744500052">
		<tag k="name" v="Håvelsbekken" />
		<tag k="ssr:stedsnr" v="612791" />
		<tag k="waterway" v="stream" />
	</node>
	<node id="-39999" lat="60.5124194447" lon="11.721113897">
		<tag k="name" v="Tannsjødammen" />
		<tag k="ssr:stedsnr" v="604943" />
		<tag k="waterway" v="dam" />
	</node>
	<node id="-39998" lat="60.4759222217" lon="11.7590138807">
		<tag k="name" v="Bjørbekken" />
		<tag k="ssr:stedsnr" v="604918" />
		<tag k="waterway" v="stream" />
	</node>
	<node id="-39985" lat="60.3818138926" lon="11.5850611183">
		<tag k="name" v="Vikerbekken" />
		<tag k="ssr:stedsnr" v="603274" />
		<tag k="waterway" v="stream" />
	</node>
	<node id="-39977" lat="60.4068083307" lon="11.4822027701">
		<tag k="name" v="Løsetåa" />
		<tag k="ssr:stedsnr" v="601518" />
		<tag k="waterway" v="river" />
	</node>
	<node id="-40271" lat="60.4670472188" lon="11.7872194395">
		<tag k="name" v="Godhølet" />
		<tag k="place" v="locality" />
		<tag k="ssr:stedsnr" v="951641" />
	</node>
	<node id="-39974" lat="60.3358805559" lon="11.5030583263">
		<tag k="name" v="Portdalsbekken" />
		<tag k="ssr:stedsnr" v="601674" />
		<tag k="waterway" v="stream" />
	</node>
	<node id="-39969" lat="60.3792361096" lon="11.6137472162">
		<tag k="name" v="Sleika" />
		<tag k="natural" v="cape" />
		<tag k="ssr:stedsnr" v="601262" />
	</node>
	<node id="-39966" lat="60.5130583306" lon="11.5086472213">
		<tag k="name" v="Åkroken" />
		<tag k="place" v="locality" />
		<tag k="ssr:stedsnr" v="600543" />
	</node>
	<node id="-39961" lat="60.3327305556" lon="11.5554416643">
		<tag k="name" v="Glingrostjennet" />
		<tag k="natural" v="water" />
		<tag k="ssr:stedsnr" v="593990" />
	</node>
	<node id="-39960" lat="60.3554750006" lon="11.4250777718">
		<tag k="name" v="Karitjennet" />
		<tag k="natural" v="water" />
		<tag k="ssr:stedsnr" v="593717" />
	</node>
	<node id="-39958" lat="60.4930944433" lon="11.7406805597">
		<tag k="name" v="Gammelstugutjennet" />
		<tag k="natural" v="water" />
		<tag k="ssr:stedsnr" v="593375" />
	</node>
	<node id="-39953" lat="60.5140472186" lon="11.5527333374">
		<tag k="name" v="Veggtjennet" />
		<tag k="natural" v="water" />
		<tag k="ssr:stedsnr" v="592891" />
	</node>
	<node id="-39936" lat="60.5357194458" lon="11.6308527798">
		<tag k="name" v="Veslefossen" />
		<tag k="natural" v="waterfall" />
		<tag k="ssr:stedsnr" v="587173" />
	</node>
	<node id="-39935" lat="60.3755833314" lon="11.6758083402">
		<tag k="name" v="Sørkegapet" />
		<tag k="natural" v="bay" />
		<tag k="ssr:stedsnr" v="587154" />
	</node>
	<node id="-39927" lat="60.3376916699" lon="11.5333777784">
		<tag k="name" v="Songkjøldammen" />
		<tag k="ssr:stedsnr" v="586795" />
		<tag k="waterway" v="dam" />
	</node>
	<node id="-39926" lat="60.3371833298" lon="11.6046888905">
		<tag k="name" v="Guribråtebekken" />
		<tag k="ssr:stedsnr" v="586764" />
		<tag k="waterway" v="stream" />
	</node>
	<node id="-39913" lat="60.5084361068" lon="11.5110055586">
		<tag k="name" v="Rasaåa" />
		<tag k="ssr:stedsnr" v="553210" />
		<tag k="waterway" v="river" />
	</node>
	<node id="-39912" lat="60.3899833311" lon="11.7370222174">
		<tag k="name" v="Linntjennet" />
		<tag k="natural" v="water" />
		<tag k="ssr:stedsnr" v="552950" />
	</node>
	<node id="-39908" lat="60.3861750024" lon="11.7486444497">
		<tag k="name" v="Djuptjennet" />
		<tag k="natural" v="water" />
		<tag k="ssr:stedsnr" v="552926" />
	</node>
	<node id="-39899" lat="60.4269277736" lon="11.6785388919">
		<tag k="name" v="Gardviktjennet" />
		<tag k="natural" v="water" />
		<tag k="ssr:stedsnr" v="552886" />
	</node>
	<node id="-39888" lat="60.435575" lon="11.4282083419">
		<tag k="name" v="Morttjennet" />
		<tag k="natural" v="water" />
		<tag k="ssr:stedsnr" v="552508" />
	</node>
	<node id="-39884" lat="60.4777611086" lon="11.7371527732">
		<tag k="name" v="Odalstjenna" />
		<tag k="natural" v="water" />
		<tag k="ssr:stedsnr" v="552263" />
	</node>
	<node id="-39881" lat="60.4772305518" lon="11.6849972167">
		<tag k="name" v="Lundmyrtjennet" />
		<tag k="natural" v="water" />
		<tag k="ssr:stedsnr" v="551826" />
	</node>
	<node id="-39880" lat="60.4679805553" lon="11.5640333298">
		<tag k="name" v="Geittjenna" />
		<tag k="natural" v="water" />
		<tag k="ssr:stedsnr" v="551821" />
	</node>
	<node id="-39872" lat="60.5761333295" lon="11.553919446">
		<tag k="name" v="Slåttmyrbekken" />
		<tag k="ssr:stedsnr" v="544784" />
		<tag k="waterway" v="stream" />
	</node>
	<node id="-39853" lat="60.3887416706" lon="11.5451833404">
		<tag k="name" v="Sandsauren" />
		<tag k="natural" v="cape" />
		<tag k="ssr:stedsnr" v="542301" />
	</node>
	<node id="-39840" lat="60.527513892" lon="11.5751388964">
		<tag k="name" v="Midtre Ortjennet" />
		<tag k="natural" v="water" />
		<tag k="ssr:stedsnr" v="531452" />
	</node>
	<node id="-39839" lat="60.5126888853" lon="11.7292972173">
		<tag k="name" v="Store Tannsjøen" />
		<tag k="natural" v="water" />
		<tag k="ssr:stedsnr" v="531403" />
		<tag k="water" v="lake" />
	</node>
	<node id="-39837" lat="60.4654777805" lon="11.5122583286">
		<tag k="name" v="Langfløyta" />
		<tag k="ssr:stedsnr" v="527895" />
		<tag k="waterway" v="river" />
	</node>
	<node id="-40198" lat="60.5425111112" lon="11.6695611046">
		<tag k="name" v="Hølsætertjennet" />
		<tag k="natural" v="water" />
		<tag k="ssr:stedsnr" v="835928" />
	</node>
	<node id="-39823" lat="60.5174499981" lon="11.6340722184">
		<tag k="name" v="Rotsæterbekken" />
		<tag k="ssr:stedsnr" v="527081" />
		<tag k="waterway" v="stream" />
	</node>
	<node id="-39817" lat="60.5519694458" lon="11.565799995">
		<tag k="name" v="Øvre Grytdammen" />
		<tag k="ssr:stedsnr" v="525747" />
		<tag k="waterway" v="dam" />
	</node>
	<node id="-39808" lat="60.5016555567" lon="11.3730666629">
		<tag k="name" v="Mæritsbekken" />
		<tag k="ssr:stedsnr" v="525136" />
		<tag k="waterway" v="stream" />
	</node>
	<node id="-39804" lat="60.5561740212" lon="11.6659954774">
		<tag k="name" v="Skurvsjøen" />
		<tag k="natural" v="water" />
		<tag k="ssr:stedsnr" v="432122" />
		<tag k="water" v="lake" />
	</node>
	<node id="-39800" lat="60.4402750039" lon="11.7768500026">
		<tag k="name" v="Elgsjøen" />
		<tag k="natural" v="water" />
		<tag k="ssr:stedsnr" v="431776" />
		<tag k="water" v="lake" />
	</node>
	<node id="-39799" lat="60.4245083373" lon="11.3711305481">
		<tag k="name" v="Lønnvangtjenna" />
		<tag k="natural" v="water" />
		<tag k="ssr:stedsnr" v="431531" />
	</node>
	<node id="-39794" lat="60.4164527766" lon="11.7429333379">
		<tag k="name" v="Nøkktjennet" />
		<tag k="natural" v="water" />
		<tag k="ssr:stedsnr" v="431870" />
	</node>
	<node id="-39787" lat="60.3965249967" lon="11.6093388966">
		<tag k="name" v="Trondsneset" />
		<tag k="natural" v="cape" />
		<tag k="ssr:stedsnr" v="423293" />
	</node>
	<node id="-39768" lat="60.3327944474" lon="11.5176138957">
		<tag k="name" v="Midtre Ulvtjennet" />
		<tag k="natural" v="water" />
		<tag k="ssr:stedsnr" v="419683" />
	</node>
	<node id="-39766" lat="60.3400861115" lon="11.4974388974">
		<tag k="name" v="Sæterbekken" />
		<tag k="ssr:stedsnr" v="419677" />
		<tag k="waterway" v="stream" />
	</node>
	<node id="-39759" lat="60.3826472247" lon="11.6122611033">
		<tag k="name" v="Lorthølet" />
		<tag k="natural" v="bay" />
		<tag k="ssr:stedsnr" v="419296" />
	</node>
	<node id="-39758" lat="60.3786277819" lon="11.6132583326">
		<tag k="name" v="Hvilerholmen" />
		<tag k="place" v="islet" />
		<tag k="ssr:stedsnr" v="419295" />
	</node>
	<node id="-39756" lat="60.468536111" lon="11.5678805533">
		<tag k="name" v="Store Geittjennet" />
		<tag k="natural" v="water" />
		<tag k="ssr:stedsnr" v="411881" />
	</node>
	<node id="-39753" lat="60.4833944452" lon="11.5795027754">
		<tag k="name" v="Knappersætertjennet" />
		<tag k="natural" v="water" />
		<tag k="ssr:stedsnr" v="411528" />
	</node>
	<node id="-39750" lat="60.4456944426" lon="11.7167249978">
		<tag k="name" v="Trøtjennet" />
		<tag k="natural" v="water" />
		<tag k="ssr:stedsnr" v="411062" />
	</node>
	<node id="-39749" lat="60.4380527748" lon="11.4319944511">
		<tag k="name" v="Vesle Morttjennet" />
		<tag k="natural" v="water" />
		<tag k="ssr:stedsnr" v="411033" />
	</node>
	<node id="-39748" lat="60.4706194436" lon="11.7567694461">
		<tag k="name" v="Eitjennet" />
		<tag k="natural" v="water" />
		<tag k="ssr:stedsnr" v="410791" />
	</node>
	<node id="-39731" lat="60.5487555567" lon="11.6170388832">
		<tag k="name" v="Karlkoiebekken" />
		<tag k="ssr:stedsnr" v="406147" />
		<tag k="waterway" v="stream" />
	</node>
	<node id="-39730" lat="60.376436112" lon="11.6955388883">
		<tag k="name" v="Austvassvika" />
		<tag k="natural" v="bay" />
		<tag k="ssr:stedsnr" v="406144" />
	</node>
	<node id="-39728" lat="60.5533361079" lon="11.6493555499">
		<tag k="name" v="Gammelåa" />
		<tag k="ssr:stedsnr" v="405144" />
		<tag k="waterway" v="stream" />
	</node>
	<node id="-39724" lat="60.3477944463" lon="11.6085611103">
		<tag k="name" v="Songnabben" />
		<tag k="natural" v="cape" />
		<tag k="ssr:stedsnr" v="404751" />
	</node>
	<node id="-39676" lat="60.3796194445" lon="11.4980861098">
		<tag k="name" v="Askildsbekken" />
		<tag k="ssr:stedsnr" v="362593" />
		<tag k="waterway" v="stream" />
	</node>
	<node id="-39672" lat="60.4015333352" lon="11.6079138897">
		<tag k="name" v="Kjørsanden" />
		<tag k="natural" v="beach" />
		<tag k="ssr:stedsnr" v="362290" />
	</node>
	<node id="-39671" lat="60.4796888906" lon="11.4007777802">
		<tag k="name" v="Gørrmyrvika" />
		<tag k="natural" v="bay" />
		<tag k="ssr:stedsnr" v="361350" />
	</node>
	<node id="-39663" lat="60.4387861101" lon="11.399452769">
		<tag k="name" v="Nydammen" />
		<tag k="ssr:stedsnr" v="361290" />
		<tag k="waterway" v="dam" />
	</node>
	<node id="-39657" lat="60.4564166624" lon="11.7461249992">
		<tag k="name" v="Trengshaugbekken" />
		<tag k="ssr:stedsnr" v="360891" />
		<tag k="waterway" v="stream" />
	</node>
	<node id="-39656" lat="60.4722555578" lon="11.7255888978">
		<tag k="name" v="Høgbrennbekken" />
		<tag k="ssr:stedsnr" v="360889" />
		<tag k="waterway" v="stream" />
	</node>
	<node id="-39654" lat="60.4477111112" lon="11.7738499936">
		<tag k="name" v="Gransjødammen" />
		<tag k="ssr:stedsnr" v="360599" />
		<tag k="waterway" v="dam" />
	</node>
	<node id="-39637" lat="60.3257250042" lon="11.5063972261">
		<tag k="name" v="Nordre Tretjennet" />
		<tag k="natural" v="water" />
		<tag k="ssr:stedsnr" v="350747" />
	</node>
	<node id="-39636" lat="60.4775722191" lon="11.5794611105">
		<tag k="name" v="Øysettjennet" />
		<tag k="natural" v="water" />
		<tag k="ssr:stedsnr" v="350519" />
	</node>
	<node id="-39634" lat="60.3881027755" lon="11.4858000049">
		<tag k="name" v="Tjennsdalsbekken" />
		<tag k="ssr:stedsnr" v="350223" />
		<tag k="waterway" v="stream" />
	</node>
	<node id="-39633" lat="60.4047527752" lon="11.5623250072">
		<tag k="name" v="Grovtjennet" />
		<tag k="natural" v="water" />
		<tag k="ssr:stedsnr" v="350146" />
	</node>
	<node id="-39632" lat="60.375874997" lon="11.5926972153">
		<tag k="name" v="Skjellstadvika" />
		<tag k="natural" v="water" />
		<tag k="ssr:stedsnr" v="349693" />
	</node>
	<node id="-39619" lat="60.4030333372" lon="11.6779527853">
		<tag k="name" v="Holtbekken" />
		<tag k="ssr:stedsnr" v="345230" />
		<tag k="waterway" v="stream" />
	</node>
	<node id="-39612" lat="60.5175861089" lon="11.6285416625">
		<tag k="name" v="Ospelauvkroken" />
		<tag k="place" v="locality" />
		<tag k="ssr:stedsnr" v="345087" />
	</node>
	<node id="-39608" lat="60.5355638865" lon="11.6030472146">
		<tag k="name" v="Gjellbekkoset" />
		<tag k="natural" v="bay" />
		<tag k="ssr:stedsnr" v="344155" />
	</node>
	<node id="-39587" lat="60.485011107" lon="11.6850777705">
		<tag k="name" v="Rådeltjennet" />
		<tag k="natural" v="water" />
		<tag k="ssr:stedsnr" v="310225" />
	</node>
	<node id="-39582" lat="60.3525750036" lon="11.5591166605">
		<tag k="name" v="Hanortjennet" />
		<tag k="natural" v="water" />
		<tag k="ssr:stedsnr" v="309885" />
	</node>
	<node id="-39570" lat="60.4604305573" lon="11.4190527709">
		<tag k="alt_name" v="Trøftåa" />
		<tag k="name" v="Trautåa" />
		<tag k="ssr:stedsnr" v="309448" />
		<tag k="waterway" v="river" />
	</node>
	<node id="-39569" lat="60.4946777798" lon="11.3687166604">
		<tag k="name" v="Tjennsjøen" />
		<tag k="natural" v="water" />
		<tag k="ssr:stedsnr" v="309434" />
	</node>
	<node id="-39566" lat="60.3325750016" lon="11.4523361051">
		<tag k="name" v="Steinsjøen" />
		<tag k="natural" v="water" />
		<tag k="ssr:stedsnr" v="309106" />
	</node>
	<node id="-39565" lat="60.382180554" lon="11.4622472211">
		<tag k="name" v="Mørkåa" />
		<tag k="ssr:stedsnr" v="309040" />
		<tag k="waterway" v="stream" />
	</node>
	<node id="-39564" lat="60.484080555" lon="11.787505552">
		<tag k="name" v="Buholmen" />
		<tag k="natural" v="cape" />
		<tag k="ssr:stedsnr" v="302633" />
	</node>
	<node id="-39563" lat="60.4251194452" lon="11.7519500007">
		<tag k="name" v="Bala" />
		<tag k="place" v="locality" />
		<tag k="ssr:stedsnr" v="301871" />
	</node>
	<node id="-39559" lat="60.4190527776" lon="11.7424638833">
		<tag k="name" v="Markusholen" />
		<tag k="place" v="islet" />
		<tag k="ssr:stedsnr" v="301838" />
	</node>
	<node id="-39557" lat="60.3728277771" lon="11.8027083345">
		<tag k="name" v="Grinnfallet" />
		<tag k="natural" v="waterfall" />
		<tag k="ssr:stedsnr" v="301565" />
	</node>
	<node id="-39555" lat="60.4056222217" lon="11.5949611193">
		<tag k="name" v="Skolbekken" />
		<tag k="ssr:stedsnr" v="301249" />
		<tag k="waterway" v="stream" />
	</node>
	<node id="-39551" lat="60.5348250021" lon="11.6523972238">
		<tag k="name" v="Gomyrbekken" />
		<tag k="ssr:stedsnr" v="300938" />
		<tag k="waterway" v="stream" />
	</node>
	<node id="-39547" lat="60.3081583318" lon="11.6010722302">
		<tag k="name" v="Størja" />
		<tag k="ssr:stedsnr" v="188975" />
		<tag k="waterway" v="stream" />
	</node>
	<node id="-39544" lat="60.4098500001" lon="11.7585611034">
		<tag k="name" v="Sløtjennet" />
		<tag k="natural" v="water" />
		<tag k="ssr:stedsnr" v="188850" />
	</node>
	<node id="-39540" lat="60.4467805552" lon="11.7813027719">
		<tag k="alt_name" v="Veslehørningen" />
		<tag k="name" v="Vesle Hørningen" />
		<tag k="natural" v="water" />
		<tag k="ssr:stedsnr" v="188798" />
	</node>
	<node id="-39538" lat="60.4397083304" lon="11.4459888897">
		<tag k="name" v="Vesle Øytjennet" />
		<tag k="natural" v="water" />
		<tag k="ssr:stedsnr" v="188495" />
	</node>
	<node id="-39535" lat="60.3717722234" lon="11.4303750021">
		<tag k="alt_name" v="Gråsia, store;Gråsia" />
		<tag k="loc_name" v="Store Gråsida" />
		<tag k="name" v="Store Gråsia" />
		<tag k="natural" v="water" />
		<tag k="ssr:stedsnr" v="188062" />
	</node>
	<node id="-39534" lat="60.4439000038" lon="11.7948361114">
		<tag k="name" v="Hørningsbekken" />
		<tag k="ssr:stedsnr" v="300629" />
		<tag k="waterway" v="stream" />
	</node>
	<node id="-39533" lat="60.4051750029" lon="11.8227416724">
		<tag k="name" v="Pisshellbekken" />
		<tag k="ssr:stedsnr" v="300580" />
		<tag k="waterway" v="stream" />
	</node>
	<node id="-39519" lat="60.3102638898" lon="11.4843166672">
		<tag k="name" v="Bjortjennåa" />
		<tag k="ssr:stedsnr" v="177765" />
		<tag k="waterway" v="stream" />
	</node>
	<node id="-39517" lat="60.4493555541" lon="11.4750555564">
		<tag k="name" v="Styggdalsbekken" />
		<tag k="ssr:stedsnr" v="176952" />
		<tag k="waterway" v="stream" />
	</node>
	<node id="-39511" lat="60.5118472224" lon="11.6890749956">
		<tag k="name" v="Grasfløytene" />
		<tag k="natural" v="water" />
		<tag k="ssr:stedsnr" v="176629" />
		<tag k="water" v="lake" />
	</node>
	<node id="-39501" lat="60.3689361102" lon="11.5955388882">
		<tag k="name" v="Frierholmen" />
		<tag k="place" v="islet" />
		<tag k="ssr:stedsnr" v="176273" />
	</node>
	<node id="-39499" lat="60.4244815804" lon="11.3708983194">
		<tag k="name" v="Vesle Lønnvangtjennet" />
		<tag k="natural" v="water" />
		<tag k="ssr:stedsnr" v="168880" />
	</node>
	<node id="-39498" lat="60.477930556" lon="11.5561916751">
		<tag k="name" v="Blokktjennet" />
		<tag k="natural" v="water" />
		<tag k="ssr:stedsnr" v="168541" />
	</node>
	<node id="-39497" lat="60.3861833339" lon="11.3935861148">
		<tag k="name" v="Tretjenna" />
		<tag k="natural" v="water" />
		<tag k="ssr:stedsnr" v="168171" />
	</node>
	<node id="-39491" lat="60.5121361128" lon="11.5513861056">
		<tag k="name" v="Skirsbekken" />
		<tag k="ssr:stedsnr" v="163796" />
		<tag k="waterway" v="stream" />
	</node>
	<node id="-39478" lat="60.3670138862" lon="11.576422218">
		<tag k="name" v="Sundnabben" />
		<tag k="natural" v="cape" />
		<tag k="ssr:stedsnr" v="161740" />
	</node>
	<node id="-39466" lat="60.326841667" lon="11.4966833349">
		<tag k="name" v="Nordre Bjørtjennet" />
		<tag k="natural" v="water" />
		<tag k="ssr:stedsnr" v="127973" />
	</node>
	<node id="-39456" lat="60.4174361075" lon="11.8086777747">
		<tag k="name" v="Brånåtjenna" />
		<tag k="natural" v="water" />
		<tag k="ssr:stedsnr" v="127860" />
	</node>
	<node id="-39450" lat="60.4827749978" lon="11.4352138918">
		<tag k="name" v="Igletjennet" />
		<tag k="natural" v="water" />
		<tag k="ssr:stedsnr" v="127460" />
	</node>
	<node id="-39449" lat="60.4554750033" lon="11.3680499952">
		<tag k="alt_name" v="Otten, vesle" />
		<tag k="name" v="Vesle Otten" />
		<tag k="natural" v="water" />
		<tag k="ssr:stedsnr" v="127442" />
	</node>
	<node id="-39446" lat="60.3816777768" lon="11.4293722304">
		<tag k="alt_name" v="Gråsia, vesle" />
		<tag k="loc_name" v="Vesle Gråsida" />
		<tag k="name" v="Vesle Gråsia" />
		<tag k="natural" v="water" />
		<tag k="ssr:stedsnr" v="127042" />
	</node>
	<node id="-39444" lat="60.4936583371" lon="11.7114583326">
		<tag k="name" v="Tobakkbekken" />
		<tag k="ssr:stedsnr" v="119923" />
		<tag k="waterway" v="stream" />
	</node>
	<node id="-39435" lat="60.5595527766" lon="11.654966668">
		<tag k="name" v="Monskroken" />
		<tag k="natural" v="water" />
		<tag k="ssr:stedsnr" v="118487" />
		<tag k="water" v="lake" />
	</node>
	<node id="-39434" lat="60.3936749999" lon="11.5311777744">
		<tag k="name" v="Veslefossen" />
		<tag k="natural" v="waterfall" />
		<tag k="ssr:stedsnr" v="118358" />
	</node>
	<node id="-39430" lat="60.3628805534" lon="11.8053499957">
		<tag k="name" v="Hokjølfløytene" />
		<tag k="natural" v="water" />
		<tag k="ssr:stedsnr" v="118278" />
		<tag k="water" v="lake" />
	</node>
	<node id="-39424" lat="60.3969694424" lon="11.5827388879">
		<tag k="name" v="Ilhøla" />
		<tag k="natural" v="spring" />
		<tag k="ssr:stedsnr" v="118347" />
	</node>
	<node id="-39414" lat="60.5026638863" lon="11.5132527734">
		<tag k="name" v="Ringen" />
		<tag k="natural" v="bay" />
		<tag k="ssr:stedsnr" v="116570" />
	</node>
	<node id="-39413" lat="60.3978055529" lon="11.5039972199">
		<tag k="name" v="Bukkerudsvika" />
		<tag k="natural" v="bay" />
		<tag k="ssr:stedsnr" v="116545" />
	</node>
	<node id="-39407" lat="60.374041668" lon="11.6041416726">
		<tag k="name" v="Raustadneset" />
		<tag k="natural" v="cape" />
		<tag k="ssr:stedsnr" v="116280" />
	</node>
	<node id="-39405" lat="60.3206027815" lon="11.5163277786">
		<tag k="name" v="Nesbutjennet" />
		<tag k="natural" v="water" />
		<tag k="ssr:stedsnr" v="108995" />
	</node>
	<node id="-39404" lat="60.3430833326" lon="11.5204361185">
		<tag k="name" v="Vesletjennet" />
		<tag k="natural" v="water" />
		<tag k="ssr:stedsnr" v="108992" />
	</node>
	<node id="-39402" lat="60.4754194449" lon="11.4194388826">
		<tag k="name" v="Svarttjennfløyta" />
		<tag k="natural" v="water" />
		<tag k="ssr:stedsnr" v="108071" />
		<tag k="water" v="lake" />
	</node>
	<node id="-39401" lat="60.4493388864" lon="11.7014250036">
		<tag k="name" v="Djuptjennet" />
		<tag k="natural" v="water" />
		<tag k="ssr:stedsnr" v="108052" />
	</node>
	<node id="-39399" lat="60.5143166666" lon="11.5564361148">
		<tag k="name" v="Rotvelttjennet" />
		<tag k="natural" v="water" />
		<tag k="ssr:stedsnr" v="107854" />
	</node>
	<node id="-39395" lat="60.3962666686" lon="11.5260361064">
		<tag k="name" v="Sollauståa" />
		<tag k="ssr:stedsnr" v="106291" />
		<tag k="waterway" v="river" />
	</node>
	<node id="-39391" lat="60.3096361088" lon="11.5208861053">
		<tag k="name" v="Fløytbekken" />
		<tag k="ssr:stedsnr" v="103680" />
		<tag k="waterway" v="stream" />
	</node>
	<node id="-39385" lat="60.362297222" lon="11.4682472175">
		<tag k="name" v="Bjønndalsbekken" />
		<tag k="ssr:stedsnr" v="102724" />
		<tag k="waterway" v="stream" />
	</node>
	<node id="-39379" lat="60.3820361143" lon="11.6505583299">
		<tag k="name" v="Engevika" />
		<tag k="natural" v="bay" />
		<tag k="ssr:stedsnr" v="102156" />
	</node>
	<node id="-39377" lat="60.3750111151" lon="11.6867944535">
		<tag k="name" v="Kalvhella" />
		<tag k="natural" v="cape" />
		<tag k="ssr:stedsnr" v="102137" />
	</node>
	<node id="-39376" lat="60.4826138863" lon="11.5442111089">
		<tag k="name" v="Timigerbekken" />
		<tag k="ssr:stedsnr" v="102094" />
		<tag k="waterway" v="stream" />
	</node>
	<node id="-39374" lat="60.4961888872" lon="11.5495944449">
		<tag k="name" v="Deldalsbekken" />
		<tag k="ssr:stedsnr" v="102085" />
		<tag k="waterway" v="stream" />
	</node>
	<node id="-39369" lat="60.3359833301" lon="11.5669388826">
		<tag k="name" v="Knutsbråtebekken" />
		<tag k="ssr:stedsnr" v="101813" />
		<tag k="waterway" v="stream" />
	</node>
	<node id="-39358" lat="60.4287416704" lon="11.775958337">
		<tag k="name" v="Elgtjennet" />
		<tag k="natural" v="water" />
		<tag k="ssr:stedsnr" v="67866" />
	</node>
	<node id="-39349" lat="60.3607805599" lon="11.4183249939">
		<tag k="name" v="Bjugåa" />
		<tag k="ssr:stedsnr" v="67082" />
		<tag k="waterway" v="river" />
	</node>
	<node id="-39348" lat="60.3794250042" lon="11.4516500043">
		<tag k="name" v="Brattlibekken" />
		<tag k="ssr:stedsnr" v="67053" />
		<tag k="waterway" v="stream" />
	</node>
	<node id="-39345" lat="60.4484750043" lon="11.7975777796">
		<tag k="alt_name" v="Storhørningen" />
		<tag k="name" v="Hørningen" />
		<tag k="natural" v="water" />
		<tag k="ssr:stedsnr" v="66769" />
	</node>
	<node id="-39333" lat="60.4983027814" lon="11.3720527796">
		<tag k="name" v="Kulpa" />
		<tag k="natural" v="water" />
		<tag k="ssr:stedsnr" v="58340" />
		<tag k="water" v="lake" />
	</node>
	<node id="-39330" lat="60.5274638897" lon="11.6730194385">
		<tag k="name" v="Lauvdalsbekken" />
		<tag k="ssr:stedsnr" v="57924" />
		<tag k="waterway" v="stream" />
	</node>
	<node id="-39326" lat="60.4954138922" lon="11.5038888959">
		<tag k="name" v="Kaldalsvika" />
		<tag k="natural" v="bay" />
		<tag k="ssr:stedsnr" v="57899" />
	</node>
	<node id="-39325" lat="60.4744972228" lon="11.6617416737">
		<tag k="name" v="Sæterbekken" />
		<tag k="ssr:stedsnr" v="57896" />
		<tag k="waterway" v="stream" />
	</node>
	<node id="-39296" lat="60.370336113" lon="11.5902861134">
		<tag k="name" v="Fuglnesnabben" />
		<tag k="natural" v="cape" />
		<tag k="ssr:stedsnr" v="55290" />
	</node>
	<node id="-39294" lat="60.3129472223" lon="11.5098000086">
		<tag k="name" v="Gråbeintjennet" />
		<tag k="natural" v="water" />
		<tag k="ssr:stedsnr" v="47995" />
	</node>
	<node id="-39293" lat="60.4690527814" lon="11.7117638851">
		<tag k="name" v="Søndre Rudstjennet" />
		<tag k="natural" v="water" />
		<tag k="ssr:stedsnr" v="47873" />
	</node>
	<node id="-39292" lat="60.5122083342" lon="11.622572216">
		<tag k="name" v="Vesle Krakerudstjennet" />
		<tag k="natural" v="water" />
		<tag k="ssr:stedsnr" v="47836" />
	</node>
	<node id="-39290" lat="60.3571583309" lon="11.4328000047">
		<tag k="name" v="Mysutjennet" />
		<tag k="natural" v="water" />
		<tag k="ssr:stedsnr" v="47775" />
	</node>
	<node id="-39289" lat="60.3604416636" lon="11.4315027724">
		<tag k="name" v="Blokktjennet" />
		<tag k="natural" v="water" />
		<tag k="ssr:stedsnr" v="47774" />
	</node>
	<node id="-39287" lat="60.4818638851" lon="11.5085750014">
		<tag k="name" v="Åtjennet" />
		<tag k="natural" v="water" />
		<tag k="ssr:stedsnr" v="47554" />
	</node>
	<node id="-39286" lat="60.4109055516" lon="11.526572229">
		<tag k="name" v="Brenntjennet" />
		<tag k="natural" v="water" />
		<tag k="ssr:stedsnr" v="47247" />
	</node>
	<node id="-39285" lat="60.4137750016" lon="11.3972305597">
		<tag k="name" v="Tjennsmyrtjennet" />
		<tag k="natural" v="water" />
		<tag k="ssr:stedsnr" v="47203" />
	</node>
	<node id="-39283" lat="60.5289111099" lon="11.6311888846">
		<tag k="name" v="Bergesæterdammen" />
		<tag k="ssr:stedsnr" v="46957" />
		<tag k="waterway" v="dam" />
	</node>
	<node id="-39270" lat="60.3698472196" lon="11.6685166605">
		<tag k="name" v="Ramsvika" />
		<tag k="natural" v="bay" />
		<tag k="ssr:stedsnr" v="42153" />
	</node>
	<node id="-39261" lat="60.4564277804" lon="11.4393083386">
		<tag k="name" v="Fløytdammen" />
		<tag k="ssr:stedsnr" v="40941" />
		<tag k="waterway" v="dam" />
	</node>
	<node id="-39251" lat="60.5134722249" lon="11.6747138858">
		<tag k="name" v="Gåsvatna" />
		<tag k="natural" v="water" />
		<tag k="ssr:stedsnr" v="7243" />
	</node>
	<node id="-39244" lat="60.4283972234" lon="11.8154749958">
		<tag k="name" v="Kroktjenna" />
		<tag k="natural" v="water" />
		<tag k="ssr:stedsnr" v="6862" />
	</node>
	<node id="-39236" lat="60.4593070384" lon="11.3431639836">
		<tag k="name" v="Ottsjøen" />
		<tag k="natural" v="water" />
		<tag k="ssr:stedsnr" v="6445" />
		<tag k="water" v="lake" />
	</node>
	<node id="-39233" lat="60.3675666649" lon="11.4333527699">
		<tag k="name" v="Treungstjennet" />
		<tag k="natural" v="water" />
		<tag k="ssr:stedsnr" v="6071" />
	</node>
	<node id="-39232" lat="60.3828861144" lon="11.3988722284">
		<tag k="name" v="Svartputten" />
		<tag k="natural" v="water" />
		<tag k="ssr:stedsnr" v="6045" />
	</node>
	<node id="-39226" lat="60.4243027736" lon="11.7080805479">
		<tag k="name" v="Olavskeia" />
		<tag k="natural" v="spring" />
		<tag k="ssr:stedsnr" v="969820" />
	</node>
	<node id="-39221" lat="60.3397972221" lon="11.5695916662">
		<tag k="name" v="Jokabekken" />
		<tag k="ssr:stedsnr" v="967766" />
		<tag k="waterway" v="stream" />
	</node>
	<node id="-39217" lat="60.4555222232" lon="11.6955583413">
		<tag k="name" v="Svartputten" />
		<tag k="natural" v="water" />
		<tag k="ssr:stedsnr" v="967860" />
		<tag k="water" v="pond" />
	</node>
	<node id="-39208" lat="60.5048944453" lon="11.5128888882">
		<tag k="name" v="Mjøvassfossen" />
		<tag k="natural" v="waterfall" />
		<tag k="ssr:stedsnr" v="965573" />
	</node>
	<node id="-39202" lat="60.3867000007" lon="11.8232777717">
		<tag k="name" v="Meitsjøen" />
		<tag k="natural" v="water" />
		<tag k="ssr:stedsnr" v="917919" />
		<tag k="water" v="lake" />
	</node>
	<node id="-39201" lat="60.3920500025" lon="11.716902775">
		<tag k="name" v="Bakkefløyta" />
		<tag k="natural" v="water" />
		<tag k="ssr:stedsnr" v="917917" />
	</node>
	<node id="-39200" lat="60.3929805583" lon="11.6258277752">
		<tag k="name" v="Svartholmen" />
		<tag k="place" v="islet" />
		<tag k="ssr:stedsnr" v="917913" />
	</node>
	<node id="-39192" lat="60.410713887" lon="11.7788333317">
		<tag k="name" v="Bergsætertjennet" />
		<tag k="natural" v="water" />
		<tag k="ssr:stedsnr" v="916855" />
	</node>
	<node id="-39182" lat="60.467116666" lon="11.7380277744">
		<tag k="name" v="Krullergranbekken" />
		<tag k="ssr:stedsnr" v="906903" />
		<tag k="waterway" v="stream" />
	</node>
	<node id="-39172" lat="60.4089777738" lon="11.5297777796">
		<tag k="name" v="Tullerudsbekken" />
		<tag k="ssr:stedsnr" v="905554" />
		<tag k="waterway" v="stream" />
	</node>
	<node id="-39170" lat="60.4681805522" lon="11.5574083287">
		<tag k="name" v="Stormyrbekken" />
		<tag k="ssr:stedsnr" v="905514" />
		<tag k="waterway" v="stream" />
	</node>
	<node id="-39167" lat="60.4054194486" lon="11.7161083409">
		<tag k="name" v="Heslebekken" />
		<tag k="ssr:stedsnr" v="904819" />
		<tag k="waterway" v="stream" />
	</node>
	<node id="-39165" lat="60.320061114" lon="11.5644111195">
		<tag k="name" v="Raudåstjennet" />
		<tag k="natural" v="water" />
		<tag k="ssr:stedsnr" v="897965" />
	</node>
	<node id="-39163" lat="60.4748444414" lon="11.5550555616">
		<tag k="name" v="Tuvtjennet" />
		<tag k="natural" v="water" />
		<tag k="ssr:stedsnr" v="897058" />
	</node>
	<node id="-39162" lat="60.3584472209" lon="11.6010111161">
		<tag k="name" v="Songnesnabben" />
		<tag k="natural" v="cape" />
		<tag k="ssr:stedsnr" v="896705" />
	</node>
	<node id="-39157" lat="60.5071805561" lon="11.4023916652">
		<tag k="name" v="Knukåa" />
		<tag k="ssr:stedsnr" v="950137" />
		<tag k="waterway" v="river" />
	</node>
	<node id="-39155" lat="60.5273083341" lon="11.5746138975">
		<tag k="name" v="Ortjenna" />
		<tag k="natural" v="water" />
		<tag k="ssr:stedsnr" v="857272" />
	</node>
	<node id="-39153" lat="60.4229916709" lon="11.7806833355">
		<tag k="name" v="Bjønntjennet" />
		<tag k="natural" v="water" />
		<tag k="ssr:stedsnr" v="856878" />
	</node>
	<node id="-39145" lat="60.3695777783" lon="11.8099083357">
		<tag k="name" v="Linntjennet" />
		<tag k="natural" v="water" />
		<tag k="ssr:stedsnr" v="855904" />
	</node>
	<node id="-39142" lat="60.4219916667" lon="11.7421388929">
		<tag k="name" v="Åsvingen" />
		<tag k="place" v="locality" />
		<tag k="ssr:stedsnr" v="848821" />
	</node>
	<node id="-39139" lat="60.5199138908" lon="11.6929944391">
		<tag k="name" v="Gorokulpen" />
		<tag k="natural" v="water" />
		<tag k="ssr:stedsnr" v="846921" />
	</node>
	<node id="-39126" lat="60.3287750034" lon="11.485961111">
		<tag k="name" v="Trolltjennet" />
		<tag k="natural" v="water" />
		<tag k="ssr:stedsnr" v="795985" />
	</node>
	<node id="-39109" lat="60.3913479467" lon="11.4169491757">
		<tag k="alt_name" v="Bjerten, store;Bjerten" />
		<tag k="name" v="Store Bjerten" />
		<tag k="natural" v="water" />
		<tag k="ssr:stedsnr" v="795004" />
		<tag k="water" v="lake" />
	</node>
	<node id="-38262" lat="60.4259249998" lon="11.4115138884">
		<tag k="name" v="Styggfallet" />
		<tag k="natural" v="waterfall" />
		<tag k="ssr:stedsnr" v="118240" />
	</node>
	<node id="-39102" lat="60.3881000001" lon="11.6309249935">
		<tag k="alt_name" v="Svarten, vesle;Veslesvarten" />
		<tag k="name" v="Vesle Svarten" />
		<tag k="place" v="islet" />
		<tag k="ssr:stedsnr" v="917923" />
	</node>
	<node id="-39101" lat="60.3805316135" lon="11.554544894">
		<tag k="name" v="Sandsjøen" />
		<tag k="natural" v="water" />
		<tag k="ssr:stedsnr" v="917899" />
	</node>
	<node id="-39100" lat="60.5811111115" lon="11.6115611188">
		<tag k="name" v="Kjøltjenna" />
		<tag k="natural" v="water" />
		<tag k="ssr:stedsnr" v="917138" />
	</node>
	<node id="-39094" lat="60.5407666667" lon="11.5771388908">
		<tag k="name" v="Grytåa" />
		<tag k="ssr:stedsnr" v="917192" />
		<tag k="waterway" v="stream" />
	</node>
	<node id="-39093" lat="60.4925027786" lon="11.6422305606">
		<tag k="name" v="Tannåa" />
		<tag k="ssr:stedsnr" v="917186" />
		<tag k="waterway" v="stream" />
	</node>
	<node id="-39091" lat="60.4705166685" lon="11.7039500065">
		<tag k="name" v="Nordre Rudstjennet" />
		<tag k="natural" v="water" />
		<tag k="ssr:stedsnr" v="775872" />
	</node>
	<node id="-39085" lat="60.3504055575" lon="11.616258326">
		<tag k="name" v="Songnessjøen" />
		<tag k="natural" v="water" />
		<tag k="ssr:stedsnr" v="916892" />
		<tag k="water" v="lake" />
	</node>
	<node id="-39056" lat="60.3859583312" lon="11.6453916618">
		<tag k="name" v="Ospenabben" />
		<tag k="natural" v="cape" />
		<tag k="ssr:stedsnr" v="908295" />
	</node>
	<node id="-39051" lat="60.4857861148" lon="11.6583388885">
		<tag k="name" v="Bjørkebekken" />
		<tag k="ssr:stedsnr" v="907894" />
		<tag k="waterway" v="stream" />
	</node>
	<node id="-39049" lat="60.4848527822" lon="11.5019972186">
		<tag k="name" v="Kulpen" />
		<tag k="natural" v="bay" />
		<tag k="ssr:stedsnr" v="907868" />
	</node>
	<node id="-39047" lat="60.4450972226" lon="11.7742194444">
		<tag k="name" v="Elgsjøoset" />
		<tag k="natural" v="bay" />
		<tag k="ssr:stedsnr" v="907579" />
	</node>
	<node id="-39046" lat="60.4361972218" lon="11.7734777827">
		<tag k="name" v="Ringen" />
		<tag k="place" v="locality" />
		<tag k="ssr:stedsnr" v="907517" />
	</node>
	<node id="-39043" lat="60.5596027822" lon="11.6580305547">
		<tag k="name" v="Jursjøholmen" />
		<tag k="natural" v="cape" />
		<tag k="ssr:stedsnr" v="907491" />
	</node>
	<node id="-39038" lat="60.3887444483" lon="11.5550305526">
		<tag k="name" v="Evja" />
		<tag k="ssr:stedsnr" v="907293" />
		<tag k="waterway" v="stream" />
	</node>
	<node id="-39035" lat="60.4779805559" lon="11.4152361092">
		<tag k="name" v="Gjeddevassdammen" />
		<tag k="ssr:stedsnr" v="907273" />
		<tag k="waterway" v="dam" />
	</node>
	<node id="-39033" lat="60.3729972231" lon="11.58653055">
		<tag k="name" v="Fuglneset" />
		<tag k="natural" v="cape" />
		<tag k="ssr:stedsnr" v="907260" />
	</node>
	<node id="-39030" lat="60.3834638932" lon="11.7597583371">
		<tag k="name" v="Brennbergsbekken" />
		<tag k="ssr:stedsnr" v="907214" />
		<tag k="waterway" v="stream" />
	</node>
	<node id="-38248" lat="60.5003527791" lon="11.3999194501">
		<tag k="name" v="Rundsjødammen" />
		<tag k="ssr:stedsnr" v="100112" />
		<tag k="waterway" v="dam" />
	</node>
	<node id="-39022" lat="60.4059138868" lon="11.5568111161">
		<tag k="name" v="Damfløyta" />
		<tag k="ssr:stedsnr" v="905345" />
		<tag k="waterway" v="stream" />
	</node>
	<node id="-39018" lat="60.4524416652" lon="11.6832916672">
		<tag k="name" v="Merradalsbekken" />
		<tag k="ssr:stedsnr" v="906892" />
		<tag k="waterway" v="stream" />
	</node>
	<node id="-39014" lat="60.4134222229" lon="11.7011611182">
		<tag k="name" v="Trøkroken" />
		<tag k="place" v="locality" />
		<tag k="ssr:stedsnr" v="726839" />
	</node>
	<node id="-39012" lat="60.3769999981" lon="11.789555548">
		<tag k="name" v="Symosehølet" />
		<tag k="natural" v="water" />
		<tag k="ssr:stedsnr" v="726549" />
		<tag k="water" v="pond" />
	</node>
	<node id="-38246" lat="60.3363333349" lon="11.5296277805">
		<tag k="name" v="Songkjøltjennet" />
		<tag k="natural" v="water" />
		<tag k="ssr:stedsnr" v="249996" />
	</node>
	<node id="-39009" lat="60.4365861079" lon="11.7697666727">
		<tag k="name" v="Knedammen" />
		<tag k="ssr:stedsnr" v="725568" />
		<tag k="waterway" v="dam" />
	</node>
	<node id="-39007" lat="60.4226749971" lon="11.4131500071">
		<tag k="name" v="Drukningsbekken" />
		<tag k="ssr:stedsnr" v="725247" />
		<tag k="waterway" v="stream" />
	</node>
	<node id="-38245" lat="60.3032249968" lon="11.540674991">
		<tag k="name" v="Bemla" />
		<tag k="ssr:stedsnr" v="249976" />
		<tag k="waterway" v="stream" />
	</node>
	<node id="-39004" lat="60.3713777816" lon="11.5375333287">
		<tag k="name" v="Ekornholstjennet" />
		<tag k="natural" v="water" />
		<tag k="ssr:stedsnr" v="897751" />
	</node>
	<node id="-38999" lat="60.4821888854" lon="11.4075749937">
		<tag k="name" v="Balrostjennet" />
		<tag k="natural" v="water" />
		<tag k="ssr:stedsnr" v="896837" />
	</node>
	<node id="-38997" lat="60.5238277791" lon="11.5687416668">
		<tag k="name" v="Øvre Ortjennet" />
		<tag k="natural" v="water" />
		<tag k="ssr:stedsnr" v="896456" />
	</node>
	<node id="-38995" lat="60.3958972186" lon="11.397858328">
		<tag k="name" v="Botshaugsætertjennet" />
		<tag k="natural" v="water" />
		<tag k="ssr:stedsnr" v="714198" />
	</node>
	<node id="-38994" lat="60.5284194434" lon="11.588627776">
		<tag k="name" v="Ortjennsbekken" />
		<tag k="ssr:stedsnr" v="713433" />
		<tag k="waterway" v="stream" />
	</node>
	<node id="-38981" lat="60.3626722222" lon="11.4537944411">
		<tag k="name" v="Masthaugdammen" />
		<tag k="ssr:stedsnr" v="891696" />
		<tag k="waterway" v="dam" />
	</node>
	<node id="-38974" lat="60.5520861152" lon="11.6456194379">
		<tag k="name" v="Kolbjørnshullet" />
		<tag k="natural" v="water" />
		<tag k="ssr:stedsnr" v="891173" />
		<tag k="water" v="lake" />
	</node>
	<node id="-38969" lat="60.4559111135" lon="11.4455305478">
		<tag k="name" v="Brattfossen" />
		<tag k="natural" v="waterfall" />
		<tag k="ssr:stedsnr" v="890945" />
	</node>
	<node id="-38959" lat="60.4450861098" lon="11.5546722287">
		<tag k="name" v="Snekkerlibekken" />
		<tag k="ssr:stedsnr" v="890387" />
		<tag k="waterway" v="stream" />
	</node>
	<node id="-38956" lat="60.3388777812" lon="11.6183138828">
		<tag k="name" v="Bjelkervika" />
		<tag k="natural" v="bay" />
		<tag k="ssr:stedsnr" v="889746" />
	</node>
	<node id="-40237" lat="60.458013886" lon="11.3548361109">
		<tag k="name" v="Ottåa" />
		<tag k="ssr:stedsnr" v="848868" />
		<tag k="waterway" v="stream" />
	</node>
	<node id="-38951" lat="60.3204694424" lon="11.5238361177">
		<tag k="name" v="Balrostjenna" />
		<tag k="natural" v="water" />
		<tag k="ssr:stedsnr" v="674957" />
	</node>
	<node id="-38943" lat="60.4017111114" lon="11.6348972161">
		<tag k="name" v="Sinstneset" />
		<tag k="natural" v="cape" />
		<tag k="ssr:stedsnr" v="665317" />
	</node>
	<node id="-38929" lat="60.3965749988" lon="11.7238388932">
		<tag k="name" v="Sillerfossen" />
		<tag k="natural" v="waterfall" />
		<tag k="ssr:stedsnr" v="664219" />
	</node>
	<node id="-38928" lat="60.4615333312" lon="11.7805305491">
		<tag k="name" v="Langfløyta" />
		<tag k="natural" v="water" />
		<tag k="ssr:stedsnr" v="663654" />
		<tag k="water" v="lake" />
	</node>
	<node id="-38926" lat="60.3720583324" lon="11.6024944526">
		<tag k="name" v="Fleskeholmen" />
		<tag k="place" v="islet" />
		<tag k="ssr:stedsnr" v="662280" />
	</node>
	<node id="-38924" lat="60.3497833375" lon="11.5430777848">
		<tag k="name" v="Syltbekken" />
		<tag k="ssr:stedsnr" v="662265" />
		<tag k="waterway" v="stream" />
	</node>
	<node id="-38921" lat="60.4710250011" lon="11.5799555613">
		<tag k="name" v="Svarttjennsbekken" />
		<tag k="ssr:stedsnr" v="654061" />
		<tag k="waterway" v="stream" />
	</node>
	<node id="-38920" lat="60.5155388855" lon="11.6276166754">
		<tag k="name" v="Store Krakerudstjennet" />
		<tag k="natural" v="water" />
		<tag k="ssr:stedsnr" v="653858" />
	</node>
	<node id="-38916" lat="60.4834138849" lon="11.794666675">
		<tag k="name" v="Nøklevatnet" />
		<tag k="natural" v="water" />
		<tag k="ssr:stedsnr" v="735227" />
	</node>
	<node id="-38915" lat="60.5202972232" lon="11.7178611167">
		<tag k="name" v="Perstjennet" />
		<tag k="natural" v="water" />
		<tag k="ssr:stedsnr" v="735225" />
	</node>
</osm>
