<?xml version="1.0" encoding="UTF-8"?>
<<<<<<< HEAD
<osm version="0.6" generator="osmapis">
	<node lat="60.42241944704385" lon="11.592399993072172" id="-19949">
=======
<osm generator="osmapis" version="0.6">
	<node id="-315262" lat="60.422419447" lon="11.5923999931">
>>>>>>> e1d4bc35ff8a6074a6f2e91616a996b547c36f15
		<tag k="bridge" v="yes" />
		<tag k="layer" v="1" />
		<tag k="loc_name" v="Fjellsbekken" />
		<tag k="name" v="Fjeldsbekken" />
		<tag k="ssr:stedsnr" v="46682" />
	</node>
<<<<<<< HEAD
	<node lat="60.465072224434245" lon="11.394274994988221" id="-19988">
		<tag k="junction" v="yes" />
		<tag k="name" v="Trebrua" />
		<tag k="place" v="locality" />
		<tag k="ssr:stedsnr" v="240341" />
	</node>
	<node lat="60.31526944651312" lon="11.594344444378937" id="-20024">
=======
	<node id="-314237" lat="60.3152694465" lon="11.5943444444">
>>>>>>> e1d4bc35ff8a6074a6f2e91616a996b547c36f15
		<tag k="highway" v="path" />
		<tag k="name" v="Bjønnvålvegen" />
		<tag k="ssr:stedsnr" v="101869" />
	</node>
<<<<<<< HEAD
	<node lat="60.417738892509135" lon="11.6849000051537" id="-20183">
		<tag k="highway" v="path" />
		<tag k="name" v="Spirvegen" />
		<tag k="ssr:stedsnr" v="241796" />
	</node>
	<node lat="60.33589166421245" lon="11.560166674292137" id="-20202">
		<tag k="highway" v="path" />
		<tag k="name" v="Kroksrudsvegen" />
		<tag k="ssr:stedsnr" v="283803" />
	</node>
	<node lat="60.39029721971141" lon="11.717280563481347" id="-20249">
		<tag k="name" v="Moasvingen" />
=======
	<node id="-314601" lat="60.4381138847" lon="11.7682722251">
		<tag k="fixme" v="consider highway=path" />
		<tag k="highway" v="track" />
		<tag k="name" v="Knedamvegen" />
		<tag k="ssr:stedsnr" v="664596" />
	</node>
	<node id="-314598" lat="60.4776888859" lon="11.3603472164">
		<tag k="junction" v="yes" />
		<tag k="name" v="Nybergsplass" />
>>>>>>> e1d4bc35ff8a6074a6f2e91616a996b547c36f15
		<tag k="place" v="locality" />
		<tag k="ssr:stedsnr" v="464793" />
	</node>
<<<<<<< HEAD
	<node lat="60.39647499827249" lon="11.469375000462142" id="-20304">
=======
	<node id="-315613" lat="60.3964749983" lon="11.4693750005">
>>>>>>> e1d4bc35ff8a6074a6f2e91616a996b547c36f15
		<tag k="bridge" v="yes" />
		<tag k="layer" v="1" />
		<tag k="name" v="Breibekk" />
		<tag k="ssr:stedsnr" v="349670" />
	</node>
<<<<<<< HEAD
	<node lat="60.37841944346931" lon="11.506613888210952" id="-20362">
=======
	<node id="-316252" lat="60.4011333292" lon="11.4553638883">
		<tag k="highway" v="path" />
		<tag k="name" v="Sætervegen" />
		<tag k="ssr:stedsnr" v="951533" />
	</node>
	<node id="-314971" lat="60.5112111102" lon="11.4003444457">
		<tag k="name" v="Kristinevelta" />
		<tag k="place" v="locality" />
		<tag k="ssr:stedsnr" v="707129" />
	</node>
	<node id="-315727" lat="60.4882805548" lon="11.4990222228">
>>>>>>> e1d4bc35ff8a6074a6f2e91616a996b547c36f15
		<tag k="bridge" v="yes" />
		<tag k="layer" v="1" />
		<tag k="name" v="Hestbekken" />
		<tag k="ssr:stedsnr" v="410626" />
	</node>
<<<<<<< HEAD
	<node lat="60.48828055482982" lon="11.499022222793263" id="-20390">
		<tag k="bridge" v="yes" />
		<tag k="layer" v="1" />
		<tag k="name" v="Hestbekken" />
		<tag k="ssr:stedsnr" v="410626" />
	</node>
	<node lat="60.511211110199" lon="11.40034444568835" id="-20684">
		<tag k="name" v="Kristinevelta" />
		<tag k="place" v="locality" />
		<tag k="ssr:stedsnr" v="707129" />
	</node>
	<node lat="60.477688885860275" lon="11.360347216360621" id="-20712">
		<tag k="junction" v="yes" />
		<tag k="name" v="Nybergsplass" />
		<tag k="place" v="locality" />
		<tag k="ssr:stedsnr" v="664299" />
	</node>
	<node lat="60.375619441540415" lon="11.69312222763731" id="-20757">
=======
	<node id="-315471" lat="60.3952027815" lon="11.651786112">
		<tag k="fixme" v="consider highway=path" />
		<tag k="highway" v="track" />
		<tag k="name" v="Knappvegen" />
		<tag k="ssr:stedsnr" v="163235" />
	</node>
	<node id="-314954" lat="60.3756194415" lon="11.6931222276">
>>>>>>> e1d4bc35ff8a6074a6f2e91616a996b547c36f15
		<tag k="man_made" v="quay" />
		<tag k="name" v="Austvassbrygga" />
		<tag k="place" v="locality" />
		<tag k="ssr:stedsnr" v="891148" />
	</node>
<<<<<<< HEAD
	<node lat="60.44981388994576" lon="11.656686109183019" id="-20792">
=======
	<node id="-314563" lat="60.3731138933" lon="11.7450361131">
		<tag k="highway" v="path" />
		<tag k="name" v="Mattisvegen" />
		<tag k="ssr:stedsnr" v="421218" />
	</node>
	<node id="-314818" lat="60.4498138899" lon="11.6566861092">
>>>>>>> e1d4bc35ff8a6074a6f2e91616a996b547c36f15
		<tag k="highway" v="path" />
		<tag k="name" v="Rudsætervegen" />
		<tag k="ssr:stedsnr" v="724895" />
	</node>
<<<<<<< HEAD
	<node lat="60.49252222063193" lon="11.487136111269926" id="-20863">
		<tag k="bridge" v="yes" />
		<tag k="layer" v="1" />
		<tag k="name" v="Klipa" />
		<tag k="ssr:stedsnr" v="907878" />
	</node>
	<node lat="60.426269440359626" lon="11.585161107442529" id="-20871">
=======
	<node id="-314175" lat="60.4177388925" lon="11.6849000052">
		<tag k="highway" v="path" />
		<tag k="name" v="Spirvegen" />
		<tag k="ssr:stedsnr" v="241796" />
	</node>
	<node id="-315837" lat="60.4011305523" lon="11.5707666597">
		<tag k="ford" v="yes" />
		<tag k="loc_name" v="Skjulbråtåvadet" />
		<tag k="name" v="Skjulbråtåvaet" />
		<tag k="place" v="locality" />
		<tag k="ssr:stedsnr" v="542362" />
	</node>
	<node id="-315196" lat="60.4321111135" lon="11.6111972162">
		<tag k="junction" v="yes" />
		<tag k="name" v="Loppetorget" />
		<tag k="place" v="locality" />
		<tag k="ssr:stedsnr" v="967304" />
	</node>
	<node id="-315065" lat="60.4262694404" lon="11.5851611074">
>>>>>>> e1d4bc35ff8a6074a6f2e91616a996b547c36f15
		<tag k="bridge" v="yes" />
		<tag k="layer" v="1" />
		<tag k="name" v="Fjellbekk bru" />
		<tag k="ssr:stedsnr" v="774672" />
	</node>
<<<<<<< HEAD
	<node lat="60.43211111353512" lon="11.61119721621111" id="-21074">
		<tag k="junction" v="yes" />
		<tag k="name" v="Loppetorget" />
=======
	<node id="-314167" lat="60.4650722244" lon="11.394274995">
		<tag k="junction" v="yes" />
		<tag k="name" v="Trebrua" />
		<tag k="place" v="locality" />
		<tag k="ssr:stedsnr" v="240341" />
	</node>
	<node id="-315830" lat="60.4055249968" lon="11.4868166648">
		<tag k="alt_name" v="Ruud bru" />
		<tag k="bridge" v="yes" />
		<tag k="layer" v="1" />
		<tag k="loc_name" v="Rud bru" />
		<tag k="name" v="Løkker bru" />
		<tag k="ssr:stedsnr" v="540543" />
	</node>
	<node id="-314547" lat="60.4589111086" lon="11.7763027815">
		<tag k="ford" v="yes" />
		<tag k="name" v="Skrevet" />
>>>>>>> e1d4bc35ff8a6074a6f2e91616a996b547c36f15
		<tag k="place" v="locality" />
		<tag k="ssr:stedsnr" v="967304" />
	</node>
<<<<<<< HEAD
	<node lat="60.48931111287738" lon="11.398613890728596" id="-21183">
=======
	<node id="-315314" lat="60.4893111129" lon="11.3986138907">
>>>>>>> e1d4bc35ff8a6074a6f2e91616a996b547c36f15
		<tag k="name" v="Mortleiken" />
		<tag k="place" v="locality" />
		<tag k="ssr:stedsnr" v="58337" />
	</node>
<<<<<<< HEAD
	<node lat="60.449169440310214" lon="11.696405551303611" id="-21255">
=======
	<node id="-314291" lat="60.3358916642" lon="11.5601666743">
		<tag k="highway" v="path" />
		<tag k="name" v="Kroksrudsvegen" />
		<tag k="ssr:stedsnr" v="283803" />
	</node>
	<node id="-316207" lat="60.4250333292" lon="11.3962444362">
>>>>>>> e1d4bc35ff8a6074a6f2e91616a996b547c36f15
		<tag k="highway" v="path" />
		<tag k="name" v="Østmosætervegen" />
		<tag k="ssr:stedsnr" v="117884" />
	</node>
<<<<<<< HEAD
	<node lat="60.39520278149533" lon="11.651786112032804" id="-21311">
		<tag k="fixme" v="consider highway=path" />
		<tag k="highway" v="track" />
		<tag k="name" v="Knappvegen" />
		<tag k="ssr:stedsnr" v="163235" />
	</node>
	<node lat="60.39664444810993" lon="11.509913880414018" id="-21398">
		<tag k="bridge" v="yes" />
		<tag k="layer" v="1" />
		<tag k="name" v="Sandbekk bru" />
		<tag k="ssr:stedsnr" v="288573" />
	</node>
	<node lat="60.44447778010443" lon="11.747438888437266" id="-21428">
=======
	<node id="-316076" lat="60.4164194406" lon="11.7584111129">
		<tag k="highway" v="path" />
		<tag k="name" v="Småtjennsvegen" />
		<tag k="ssr:stedsnr" v="775217" />
	</node>
	<node id="-314409" lat="60.4444777801" lon="11.7474388884">
>>>>>>> e1d4bc35ff8a6074a6f2e91616a996b547c36f15
		<tag k="ford" v="yes" />
		<tag k="loc_name" v="Hundbysætervadet" />
		<tag k="name" v="Hundbysætervaet" />
		<tag k="place" v="locality" />
		<tag k="ssr:stedsnr" v="300870" />
	</node>
<<<<<<< HEAD
	<node lat="60.458911108603715" lon="11.776302781517854" id="-21582">
		<tag k="ford" v="yes" />
		<tag k="name" v="Skrevet" />
		<tag k="place" v="locality" />
		<tag k="ssr:stedsnr" v="405655" />
	</node>
	<node lat="60.37311389325296" lon="11.745036113136825" id="-21613">
		<tag k="highway" v="path" />
		<tag k="name" v="Mattisvegen" />
		<tag k="ssr:stedsnr" v="421218" />
	</node>
	<node lat="60.405524996765706" lon="11.486816664823213" id="-21678">
		<tag k="alt_name" v="Ruud bru" />
		<tag k="bridge" v="yes" />
		<tag k="layer" v="1" />
		<tag k="loc_name" v="Rud bru" />
		<tag k="name" v="Løkker bru" />
		<tag k="ssr:stedsnr" v="540543" />
	</node>
	<node lat="60.4011305522679" lon="11.57076665972158" id="-21685">
		<tag k="ford" v="yes" />
		<tag k="loc_name" v="Skjulbråtåvadet" />
		<tag k="name" v="Skjulbråtåvaet" />
		<tag k="place" v="locality" />
		<tag k="ssr:stedsnr" v="542362" />
=======
	<node id="-316062" lat="60.3912972227" lon="11.6911583369">
		<tag k="highway" v="path" />
		<tag k="name" v="Bergervegen" />
		<tag k="ssr:stedsnr" v="770201" />
	</node>
	<node id="-314757" lat="60.4193777791" lon="11.5957916601">
		<tag k="bridge" v="yes" />
		<tag k="layer" v="1" />
		<tag k="name" v="Undergang" />
		<tag k="ssr:stedsnr" v="713673" />
	</node>
	<node id="-315032" lat="60.4925222206" lon="11.4871361113">
		<tag k="bridge" v="yes" />
		<tag k="layer" v="1" />
		<tag k="name" v="Klipa" />
		<tag k="ssr:stedsnr" v="907878" />
	</node>
	<node id="-315407" lat="60.4491694403" lon="11.6964055513">
		<tag k="highway" v="path" />
		<tag k="name" v="Østmosætervegen" />
		<tag k="ssr:stedsnr" v="117884" />
>>>>>>> e1d4bc35ff8a6074a6f2e91616a996b547c36f15
	</node>
	<node id="-314381" lat="60.3902972197" lon="11.7172805635">
		<tag k="name" v="Moasvingen" />
		<tag k="place" v="locality" />
		<tag k="ssr:stedsnr" v="464793" />
	</node>
	<node id="-314374" lat="60.3966444481" lon="11.5099138804">
		<tag k="bridge" v="yes" />
		<tag k="layer" v="1" />
		<tag k="name" v="Sandbekk bru" />
		<tag k="ssr:stedsnr" v="288573" />
	</node>
	<node id="-314629" lat="60.3784194435" lon="11.5066138882">
		<tag k="bridge" v="yes" />
		<tag k="layer" v="1" />
		<tag k="name" v="Brennbrua" />
		<tag k="ssr:stedsnr" v="483619" />
	</node>
</osm>
