<?xml version="1.0" encoding="UTF-8"?>
<osm generator="osmapis" version="0.6">
	<node id="-303099" lat="60.4568222228" lon="11.3638638855">
		<tag k="name" v="Kattrasmyra" />
		<tag k="natural" v="wetland" />
		<tag k="ssr:stedsnr" v="664267" />
	</node>
	<node id="-303094" lat="60.3614333351" lon="11.4750583311">
		<tag k="name" v="Orrmyra" />
		<tag k="natural" v="wetland" />
		<tag k="ssr:stedsnr" v="662683" />
	</node>
	<node id="-303090" lat="60.4730027745" lon="11.4419388908">
		<tag k="name" v="Tretjennsmyra" />
		<tag k="natural" v="wetland" />
		<tag k="ssr:stedsnr" v="654421" />
	</node>
	<node id="-303061" lat="60.4576555554" lon="11.5172111067">
		<tag k="name" v="Fløytbråten" />
		<tag k="place" v="locality" />
		<tag k="ssr:stedsnr" v="648906" />
	</node>
	<node id="-303059" lat="60.4127444425" lon="11.3974250015">
		<tag k="name" v="Tjennsmyra" />
		<tag k="natural" v="wetland" />
		<tag k="ssr:stedsnr" v="734527" />
	</node>
	<node id="-303051" lat="60.4779472267" lon="11.5797916644">
		<tag k="name" v="Øysetmyra" />
		<tag k="natural" v="wetland" />
		<tag k="ssr:stedsnr" v="648107" />
	</node>
	<node id="-303049" lat="60.4862027785" lon="11.7026250051">
		<tag k="name" v="Stormyra" />
		<tag k="natural" v="wetland" />
		<tag k="ssr:stedsnr" v="734269" />
	</node>
	<node id="-303046" lat="60.4694204177" lon="11.4652379302">
		<tag k="name" v="Lønnbergsbråten" />
		<tag k="place" v="locality" />
		<tag k="ssr:stedsnr" v="646920" />
	</node>
	<node id="-303045" lat="60.4558500041" lon="11.4331722297">
		<tag k="name" v="Hustømmermyra" />
		<tag k="natural" v="wetland" />
		<tag k="ssr:stedsnr" v="646904" />
	</node>
	<node id="-303044" lat="60.3595916674" lon="11.5677305606">
		<tag k="name" v="Nedre Dammyra" />
		<tag k="natural" v="wetland" />
		<tag k="ssr:stedsnr" v="646748" />
	</node>
	<node id="-303036" lat="60.4613555555" lon="11.7884861023">
		<tag k="name" v="Langfløytmyra" />
		<tag k="natural" v="wetland" />
		<tag k="ssr:stedsnr" v="299674" />
	</node>
	<node id="-303030" lat="60.3781805519" lon="11.5094722236">
		<tag k="name" v="Sandbekkmyra" />
		<tag k="natural" v="wetland" />
		<tag k="ssr:stedsnr" v="726619" />
	</node>
	<node id="-303029" lat="60.3709916641" lon="11.7867861198">
		<tag k="name" v="Den søndre Sætermyra" />
		<tag k="natural" v="wetland" />
		<tag k="ssr:stedsnr" v="726589" />
	</node>
	<node id="-303027" lat="60.4919555579" lon="11.4812638911">
		<tag k="name" v="Steinbråtemyra" />
		<tag k="natural" v="wetland" />
		<tag k="ssr:stedsnr" v="725908" />
	</node>
	<node id="-303026" lat="60.4834666626" lon="11.4886500073">
		<tag k="name" v="Søndre Høymyra" />
		<tag k="natural" v="wetland" />
		<tag k="ssr:stedsnr" v="725899" />
	</node>
	<node id="-303024" lat="60.4463972265" lon="11.7408499984">
		<tag k="name" v="Persløkka" />
		<tag k="place" v="locality" />
		<tag k="ssr:stedsnr" v="725846" />
	</node>
	<node id="-303022" lat="60.4516666671" lon="11.7501000081">
		<tag k="name" v="Hundbymyra" />
		<tag k="natural" v="wetland" />
		<tag k="ssr:stedsnr" v="725836" />
	</node>
	<node id="-303021" lat="60.3116083373" lon="11.5303444511">
		<tag k="name" v="Slækavengen" />
		<tag k="place" v="locality" />
		<tag k="ssr:stedsnr" v="725799" />
	</node>
	<node id="-303020" lat="60.310383337" lon="11.5370083264">
		<tag k="name" v="Vangmyra" />
		<tag k="natural" v="wetland" />
		<tag k="ssr:stedsnr" v="725796" />
	</node>
	<node id="-303018" lat="60.5507249999" lon="11.6633138824">
		<tag k="name" v="Stormyra" />
		<tag k="natural" v="wetland" />
		<tag k="ssr:stedsnr" v="725479" />
	</node>
	<node id="-303008" lat="60.4448416698" lon="11.4069166691">
		<tag k="name" v="Vestre Smalmyra" />
		<tag k="natural" v="wetland" />
		<tag k="ssr:stedsnr" v="725267" />
	</node>
	<node id="-303007" lat="60.4543583344" lon="11.3830944362">
		<tag k="name" v="Rovelstadsætermyra" />
		<tag k="natural" v="wetland" />
		<tag k="ssr:stedsnr" v="725260" />
	</node>
	<node id="-303005" lat="60.4721388871" lon="11.7160388838">
		<tag k="name" v="Jonsokmyra" />
		<tag k="natural" v="wetland" />
		<tag k="ssr:stedsnr" v="724914" />
	</node>
	<node id="-303004" lat="60.4679638882" lon="11.6601361073">
		<tag k="landuse" v="quarry" />
		<tag k="name" v="Gruva" />
		<tag k="ssr:stedsnr" v="724905" />
	</node>
	<node id="-302999" lat="60.4541055589" lon="11.4587388863">
		<tag k="name" v="Persbråtemyra" />
		<tag k="natural" v="wetland" />
		<tag k="ssr:stedsnr" v="723933" />
	</node>
	<node id="-302997" lat="60.3593916689" lon="11.5613472228">
		<tag k="name" v="Øvre Dammyra" />
		<tag k="natural" v="wetland" />
		<tag k="ssr:stedsnr" v="723749" />
	</node>
	<node id="-302991" lat="60.501563886" lon="11.481708333">
		<tag k="historic" v="shieling" />
		<tag k="name" v="Gamlevangen" />
		<tag k="place" v="locality" />
		<tag k="ssr:stedsnr" v="722637" />
	</node>
	<node id="-302972" lat="60.3759333358" lon="11.4400777832">
		<tag k="name" v="Fossmyra" />
		<tag k="natural" v="wetland" />
		<tag k="ssr:stedsnr" v="604629" />
	</node>
	<node id="-302968" lat="60.3093611155" lon="11.5582944494">
		<tag k="name" v="Bemlemyra" />
		<tag k="natural" v="wetland" />
		<tag k="ssr:stedsnr" v="603814" />
	</node>
	<node id="-302966" lat="60.3849249995" lon="11.4079083354">
		<tag k="name" v="Søndre Steinsjømyra" />
		<tag k="natural" v="wetland" />
		<tag k="ssr:stedsnr" v="603363" />
	</node>
	<node id="-302964" lat="60.3808388863" lon="11.4119583322">
		<tag k="name" v="Hosofotmyra" />
		<tag k="natural" v="wetland" />
		<tag k="ssr:stedsnr" v="603359" />
	</node>
	<node id="-302961" lat="60.3946249998" lon="11.5632888891">
		<tag k="name" v="Brurhellene" />
		<tag k="place" v="locality" />
		<tag k="ssr:stedsnr" v="603352" />
	</node>
	<node id="-302955" lat="60.3995972235" lon="11.7220083326">
		<tag k="name" v="Kumyra" />
		<tag k="natural" v="wetland" />
		<tag k="ssr:stedsnr" v="600804" />
	</node>
	<node id="-302954" lat="60.5036777811" lon="11.504325008">
		<tag k="name" v="Hølbekkmyra" />
		<tag k="natural" v="wetland" />
		<tag k="ssr:stedsnr" v="600588" />
	</node>
	<node id="-302953" lat="60.5028944479" lon="11.4816111166">
		<tag k="name" v="Gamlevangdøsset" />
		<tag k="natural" v="wetland" />
		<tag k="ssr:stedsnr" v="600586" />
	</node>
	<node id="-302947" lat="60.4972027793" lon="11.3626361166">
		<tag k="name" v="Tjennsjømyrene" />
		<tag k="natural" v="wetland" />
		<tag k="ssr:stedsnr" v="714776" />
	</node>
	<node id="-302946" lat="60.4880388903" lon="11.4717472207">
		<tag k="name" v="Bruntjennsmyra" />
		<tag k="natural" v="wetland" />
		<tag k="ssr:stedsnr" v="714507" />
	</node>
	<node id="-302945" lat="60.4849916689" lon="11.5561472275">
		<tag k="name" v="Gørrtjennsmyra" />
		<tag k="natural" v="wetland" />
		<tag k="ssr:stedsnr" v="714502" />
	</node>
	<node id="-302941" lat="60.4086388907" lon="11.4450166589">
		<tag k="name" v="Løsettjennsmyra" />
		<tag k="natural" v="wetland" />
		<tag k="ssr:stedsnr" v="593220" />
	</node>
	<node id="-302940" lat="60.4561138853" lon="11.5183916677">
		<tag k="name" v="Persbråten" />
		<tag k="place" v="locality" />
		<tag k="ssr:stedsnr" v="587904" />
	</node>
	<node id="-302937" lat="60.3611222266" lon="11.5160388936">
		<tag k="name" v="Bjønnmyra" />
		<tag k="natural" v="wetland" />
		<tag k="ssr:stedsnr" v="587675" />
	</node>
	<node id="-302934" lat="60.4049861128" lon="11.6885694439">
		<tag k="name" v="Antonmyra" />
		<tag k="natural" v="wetland" />
		<tag k="ssr:stedsnr" v="587252" />
	</node>
	<node id="-302932" lat="60.4566944481" lon="11.4245777799">
		<tag k="name" v="Oksemyra" />
		<tag k="natural" v="wetland" />
		<tag k="ssr:stedsnr" v="586919" />
	</node>
	<node id="-302929" lat="60.5096500029" lon="11.3933222254">
		<tag k="name" v="Hagamyra" />
		<tag k="natural" v="wetland" />
		<tag k="ssr:stedsnr" v="585127" />
	</node>
	<node id="-302923" lat="60.4260611118" lon="11.4819416719">
		<tag k="name" v="Langholen" />
		<tag k="place" v="locality" />
		<tag k="ssr:stedsnr" v="709976" />
	</node>
	<node id="-302919" lat="60.5024055545" lon="11.5529194375">
		<tag k="name" v="Knaggmyra" />
		<tag k="natural" v="wetland" />
		<tag k="ssr:stedsnr" v="709781" />
	</node>
	<node id="-302916" lat="60.3970499963" lon="11.4268472275">
		<tag k="name" v="Nordre Bjertbergmyra" />
		<tag k="natural" v="wetland" />
		<tag k="ssr:stedsnr" v="709525" />
	</node>
	<node id="-304351" lat="60.4045222179" lon="11.6944888897">
		<tag k="name" v="Starrmyra" />
		<tag k="natural" v="wetland" />
		<tag k="ssr:stedsnr" v="831224" />
	</node>
	<node id="-302914" lat="60.4077472243" lon="11.4272416713">
		<tag k="name" v="Eplegåsmyra" />
		<tag k="natural" v="wetland" />
		<tag k="ssr:stedsnr" v="709517" />
	</node>
	<node id="-302908" lat="60.5116472215" lon="11.6107000021">
		<tag k="name" v="Rabben" />
		<tag k="place" v="locality" />
		<tag k="ssr:stedsnr" v="709087" />
	</node>
	<node id="-302907" lat="60.5070194446" lon="11.6192722281">
		<tag k="landuse" v="meadow" />
		<tag k="name" v="Gammelstugguslåtten" />
		<tag k="ssr:stedsnr" v="709084" />
	</node>
	<node id="-302904" lat="60.3144055526" lon="11.6013583345">
		<tag k="name" v="Kvigmyra" />
		<tag k="natural" v="wetland" />
		<tag k="ssr:stedsnr" v="707830" />
	</node>
	<node id="-302903" lat="60.3566777806" lon="11.5729833399">
		<tag k="name" v="Lortmyra" />
		<tag k="natural" v="wetland" />
		<tag k="ssr:stedsnr" v="707779" />
	</node>
	<node id="-302896" lat="60.5088750045" lon="11.7222777749">
		<tag k="name" v="Langsmalemyra" />
		<tag k="natural" v="wetland" />
		<tag k="ssr:stedsnr" v="544927" />
	</node>
	<node id="-302895" lat="60.4952944433" lon="11.7113805581">
		<tag k="name" v="Helvete" />
		<tag k="place" v="locality" />
		<tag k="ssr:stedsnr" v="544909" />
	</node>
	<node id="-302894" lat="60.3816361119" lon="11.7990833418">
		<tag k="name" v="Stormyra" />
		<tag k="natural" v="wetland" />
		<tag k="ssr:stedsnr" v="544516" />
	</node>
	<node id="-302890" lat="60.4325972236" lon="11.5347777764">
		<tag k="name" v="Smalbråten" />
		<tag k="place" v="locality" />
		<tag k="ssr:stedsnr" v="543355" />
	</node>
	<node id="-302880" lat="60.4865805512" lon="11.4200222303">
		<tag k="name" v="Hølbekkmyra" />
		<tag k="natural" v="wetland" />
		<tag k="ssr:stedsnr" v="540838" />
	</node>
	<node id="-302879" lat="60.4888146208" lon="11.4597190817">
		<tag k="name" v="Delbråten" />
		<tag k="place" v="locality" />
		<tag k="ssr:stedsnr" v="540828" />
	</node>
	<node id="-302878" lat="60.4973277745" lon="11.4723638898">
		<tag k="name" v="Vollmyra" />
		<tag k="natural" v="wetland" />
		<tag k="ssr:stedsnr" v="540820" />
	</node>
	<node id="-302877" lat="60.5104249969" lon="11.5317194502">
		<tag k="name" v="Kølmiltrakten" />
		<tag k="place" v="locality" />
		<tag k="ssr:stedsnr" v="540566" />
	</node>
	<node id="-302872" lat="60.4180888866" lon="11.5297500033">
		<tag k="name" v="Høymyra" />
		<tag k="natural" v="wetland" />
		<tag k="ssr:stedsnr" v="527994" />
	</node>
	<node id="-302869" lat="60.5322527735" lon="11.641375004">
		<tag k="name" v="Stormyra" />
		<tag k="natural" v="wetland" />
		<tag k="ssr:stedsnr" v="527175" />
	</node>
	<node id="-302864" lat="60.3394166668" lon="11.5578111185">
		<tag k="name" v="Fløyta" />
		<tag k="natural" v="wetland" />
		<tag k="ssr:stedsnr" v="525766" />
	</node>
	<node id="-302863" lat="60.3133694425" lon="11.5981833409">
		<tag k="name" v="Krakamyra" />
		<tag k="natural" v="wetland" />
		<tag k="ssr:stedsnr" v="525810" />
	</node>
	<node id="-302847" lat="60.3630500013" lon="11.8070999953">
		<tag k="name" v="Hokjølmyra" />
		<tag k="natural" v="wetland" />
		<tag k="ssr:stedsnr" v="673907" />
	</node>
	<node id="-302846" lat="60.3434166639" lon="11.5458000042">
		<tag k="name" v="Vatnemyra" />
		<tag k="natural" v="wetland" />
		<tag k="ssr:stedsnr" v="673894" />
	</node>
	<node id="-302821" lat="60.4290333331" lon="11.7031555526">
		<tag k="name" v="Mastslukmyra" />
		<tag k="natural" v="wetland" />
		<tag k="ssr:stedsnr" v="483871" />
	</node>
	<node id="-302818" lat="60.4291333309" lon="11.7103499931">
		<tag k="name" v="Sløttmyra" />
		<tag k="natural" v="wetland" />
		<tag k="ssr:stedsnr" v="483861" />
	</node>
	<node id="-302812" lat="60.3972305567" lon="11.5700666665">
		<tag k="name" v="Fuglmyra" />
		<tag k="natural" v="wetland" />
		<tag k="ssr:stedsnr" v="482362" />
	</node>
	<node id="-302807" lat="60.491413888" lon="11.3801194468">
		<tag k="name" v="Hundmyra" />
		<tag k="natural" v="wetland" />
		<tag k="ssr:stedsnr" v="482307" />
	</node>
	<node id="-302803" lat="60.4807416655" lon="11.4607611134">
		<tag k="name" v="Nordre Vatningsmyra" />
		<tag k="natural" v="wetland" />
		<tag k="ssr:stedsnr" v="480857" />
	</node>
	<node id="-302800" lat="60.3159194412" lon="11.5282250031">
		<tag k="name" v="Slækavengmyra" />
		<tag k="natural" v="wetland" />
		<tag k="ssr:stedsnr" v="467713" />
	</node>
	<node id="-302792" lat="60.387819443" lon="11.4622999951">
		<tag k="name" v="Måsåmyra" />
		<tag k="natural" v="wetland" />
		<tag k="ssr:stedsnr" v="665642" />
	</node>
	<node id="-302791" lat="60.4173444422" lon="11.6849249929">
		<tag k="name" v="Ulvholtmyra" />
		<tag k="natural" v="wetland" />
		<tag k="ssr:stedsnr" v="665838" />
	</node>
	<node id="-302789" lat="60.5217083357" lon="11.672013893">
		<tag k="loc_name" v="Gråsidmyra" />
		<tag k="name" v="Gråsimyra" />
		<tag k="natural" v="wetland" />
		<tag k="ssr:stedsnr" v="664944" />
	</node>
	<node id="-302787" lat="60.5043444487" lon="11.6901972252">
		<tag k="name" v="Storholen" />
		<tag k="place" v="locality" />
		<tag k="ssr:stedsnr" v="664935" />
	</node>
	<node id="-302782" lat="60.4471916633" lon="11.3840027705">
		<tag k="name" v="Hundmyra" />
		<tag k="natural" v="wetland" />
		<tag k="ssr:stedsnr" v="664243" />
	</node>
	<node id="-302781" lat="60.4349499982" lon="11.6782527694">
		<tag k="name" v="Sætermyra" />
		<tag k="natural" v="wetland" />
		<tag k="ssr:stedsnr" v="663888" />
	</node>
	<node id="-302777" lat="60.4384638903" lon="11.4349916758">
		<tag k="name" v="Møllefarmen" />
		<tag k="place" v="locality" />
		<tag k="ssr:stedsnr" v="662933" />
	</node>
	<node id="-302776" lat="60.4771694421" lon="11.4658249941">
		<tag k="name" v="Søndre Vatningsmyra" />
		<tag k="natural" v="wetland" />
		<tag k="ssr:stedsnr" v="662837" />
	</node>
	<node id="-302772" lat="60.3500166689" lon="11.5504027748">
		<tag k="name" v="Fuglmyra" />
		<tag k="natural" v="wetland" />
		<tag k="ssr:stedsnr" v="662767" />
	</node>
	<node id="-302753" lat="60.3765555598" lon="11.803375006">
		<tag k="name" v="Sjølimyra" />
		<tag k="natural" v="wetland" />
		<tag k="ssr:stedsnr" v="423603" />
	</node>
	<node id="-302750" lat="60.3738500021" lon="11.7771805617">
		<tag k="name" v="Stuttbakkhølet" />
		<tag k="natural" v="wetland" />
		<tag k="ssr:stedsnr" v="421529" />
	</node>
	<node id="-302749" lat="60.3823111118" lon="11.7487694442">
		<tag k="alt_name" v="Tjennsliholen" />
		<tag k="name" v="Tjernsliholen" />
		<tag k="place" v="locality" />
		<tag k="ssr:stedsnr" v="421225" />
	</node>
	<node id="-302743" lat="60.4355972256" lon="11.4474055469">
		<tag k="name" v="Skøllmyrdøsset" />
		<tag k="natural" v="wetland" />
		<tag k="ssr:stedsnr" v="419931" />
	</node>
	<node id="-302740" lat="60.4803472223" lon="11.4770833316">
		<tag k="name" v="Elmyrdøsset" />
		<tag k="natural" v="wetland" />
		<tag k="ssr:stedsnr" v="406903" />
	</node>
	<node id="-302739" lat="60.4800388929" lon="11.488497226">
		<tag k="name" v="Hansmyrdøsset" />
		<tag k="natural" v="wetland" />
		<tag k="ssr:stedsnr" v="406902" />
	</node>
	<node id="-302738" lat="60.3459194403" lon="11.4530583279">
		<tag k="name" v="Murukollmyra" />
		<tag k="natural" v="wetland" />
		<tag k="ssr:stedsnr" v="406659" />
	</node>
	<node id="-302731" lat="60.3909111084" lon="11.7907361062">
		<tag k="name" v="Storholtet" />
		<tag k="place" v="locality" />
		<tag k="ssr:stedsnr" v="405611" />
	</node>
	<node id="-302728" lat="60.4710333354" lon="11.4306499955">
		<tag k="name" v="Aukdalsmyra" />
		<tag k="natural" v="wetland" />
		<tag k="ssr:stedsnr" v="404924" />
	</node>
	<node id="-302727" lat="60.4566888927" lon="11.4173249989">
		<tag k="name" v="Oterstigmyra" />
		<tag k="natural" v="wetland" />
		<tag k="ssr:stedsnr" v="404916" />
	</node>
	<node id="-302714" lat="60.4112861115" lon="11.6760888879">
		<tag k="name" v="Svartbråtedøsset" />
		<tag k="natural" v="wetland" />
		<tag k="ssr:stedsnr" v="362827" />
	</node>
	<node id="-302712" lat="60.4212166623" lon="11.6794305608">
		<tag k="name" v="Svinrotmyra" />
		<tag k="natural" v="wetland" />
		<tag k="ssr:stedsnr" v="362824" />
	</node>
	<node id="-302708" lat="60.4841194431" lon="11.4813916703">
		<tag k="name" v="Elgdøsset" />
		<tag k="natural" v="wetland" />
		<tag k="ssr:stedsnr" v="361920" />
	</node>
	<node id="-302707" lat="60.4885888922" lon="11.5182583276">
		<tag k="name" v="Vakkerlia" />
		<tag k="place" v="locality" />
		<tag k="ssr:stedsnr" v="361911" />
	</node>
	<node id="-302702" lat="60.5025916688" lon="11.6818111095">
		<tag k="name" v="Vegskillmyra" />
		<tag k="natural" v="wetland" />
		<tag k="ssr:stedsnr" v="360906" />
	</node>
	<node id="-304401" lat="60.3797222225" lon="11.431513889">
		<tag k="name" v="Haugommyra" />
		<tag k="natural" v="wetland" />
		<tag k="ssr:stedsnr" v="848610" />
	</node>
	<node id="-302691" lat="60.4596166636" lon="11.5818333349">
		<tag k="landuse" v="quarry" />
		<tag k="loc_name" v="Antonettegruva" />
		<tag k="name" v="Antonette-Gruva" />
		<tag k="ssr:stedsnr" v="358470" />
	</node>
	<node id="-302690" lat="60.3480083357" lon="11.5429805527">
		<tag k="name" v="Kloppmyra" />
		<tag k="natural" v="wetland" />
		<tag k="ssr:stedsnr" v="358273" />
	</node>
	<node id="-302686" lat="60.4965944465" lon="11.6420888908">
		<tag k="name" v="Vintervegmyra" />
		<tag k="natural" v="wetland" />
		<tag k="ssr:stedsnr" v="492185" />
	</node>
	<node id="-302685" lat="60.544283336" lon="11.557283341">
		<tag k="name" v="Gråbeinmyra" />
		<tag k="natural" v="wetland" />
		<tag k="ssr:stedsnr" v="492101" />
	</node>
	<node id="-302675" lat="60.419869443" lon="11.4731277774">
		<tag k="name" v="Tjennsmyra" />
		<tag k="natural" v="wetland" />
		<tag k="ssr:stedsnr" v="491833" />
	</node>
	<node id="-302655" lat="60.5113277822" lon="11.3781305508">
		<tag k="name" v="Totjennsmyra" />
		<tag k="natural" v="wetland" />
		<tag k="ssr:stedsnr" v="350821" />
	</node>
	<node id="-302652" lat="60.5143222187" lon="11.5900722129">
		<tag k="name" v="Fjørhanamyra" />
		<tag k="natural" v="wetland" />
		<tag k="ssr:stedsnr" v="345771" />
	</node>
	<node id="-302650" lat="60.3659694465" lon="11.4466750012">
		<tag k="name" v="Gammelsæterbråten" />
		<tag k="place" v="locality" />
		<tag k="ssr:stedsnr" v="345626" />
	</node>
	<node id="-302649" lat="60.3501916641" lon="11.5096333366">
		<tag k="name" v="Svenskesjurmyra" />
		<tag k="natural" v="wetland" />
		<tag k="ssr:stedsnr" v="345624" />
	</node>
	<node id="-302647" lat="60.4807666625" lon="11.5368722263">
		<tag k="name" v="Skvækmyra" />
		<tag k="natural" v="wetland" />
		<tag k="ssr:stedsnr" v="345108" />
	</node>
	<node id="-302645" lat="60.4826138924" lon="11.7279277706">
		<tag k="name" v="Tuvmyra" />
		<tag k="natural" v="wetland" />
		<tag k="ssr:stedsnr" v="483930" />
	</node>
	<node id="-302637" lat="60.4931416645" lon="11.4775805496">
		<tag k="name" v="Steinbråten" />
		<tag k="place" v="locality" />
		<tag k="ssr:stedsnr" v="482901" />
	</node>
	<node id="-302635" lat="60.4834999989" lon="11.5046027741">
		<tag k="name" v="Styggådamholen" />
		<tag k="place" v="locality" />
		<tag k="ssr:stedsnr" v="482885" />
	</node>
	<node id="-302630" lat="60.4322527757" lon="11.3774722231">
		<tag k="name" v="Det runde døsset" />
		<tag k="natural" v="wetland" />
		<tag k="ssr:stedsnr" v="482235" />
	</node>
	<node id="-302629" lat="60.4476388921" lon="11.6984666677">
		<tag k="name" v="Djupmyra" />
		<tag k="natural" v="wetland" />
		<tag k="ssr:stedsnr" v="481884" />
	</node>
	<node id="-302628" lat="60.4370305589" lon="11.4191583331">
		<tag k="name" v="Lillefingerstein" />
		<tag k="natural" v="stone" />
		<tag k="ssr:stedsnr" v="480948" />
	</node>
	<node id="-302624" lat="60.3346583346" lon="11.4845083315">
		<tag k="name" v="Furumyra" />
		<tag k="natural" v="wetland" />
		<tag k="ssr:stedsnr" v="480698" />
	</node>
	<node id="-302623" lat="60.36286667" lon="11.4800027757">
		<tag k="name" v="Langmyra" />
		<tag k="natural" v="wetland" />
		<tag k="ssr:stedsnr" v="480673" />
	</node>
	<node id="-302621" lat="60.5113111141" lon="11.5008305571">
		<tag k="name" v="Lauvhaugdøsset" />
		<tag k="natural" v="wetland" />
		<tag k="ssr:stedsnr" v="479574" />
	</node>
	<node id="-302608" lat="60.4276805599" lon="11.5447944399">
		<tag k="name" v="Østre Gartjennsmyra" />
		<tag k="natural" v="wetland" />
		<tag k="ssr:stedsnr" v="472199" />
	</node>
	<node id="-302607" lat="60.4830638899" lon="11.6885194451">
		<tag k="name" v="Rådeltjennsmyra" />
		<tag k="natural" v="wetland" />
		<tag k="ssr:stedsnr" v="472112" />
	</node>
	<node id="-302596" lat="60.3764166676" lon="11.4568944389">
		<tag k="name" v="Sukkerhølmyra" />
		<tag k="natural" v="wetland" />
		<tag k="ssr:stedsnr" v="301603" />
	</node>
	<node id="-302595" lat="60.383294444" lon="11.7779222189">
		<tag k="name" v="Kladda" />
		<tag k="place" v="locality" />
		<tag k="ssr:stedsnr" v="301525" />
	</node>
	<node id="-302585" lat="60.4376250038" lon="11.743336105">
		<tag k="historic" v="shieling" />
		<tag k="name" v="Vivangen" />
		<tag k="place" v="locality" />
		<tag k="ssr:stedsnr" v="299672" />
	</node>
	<node id="-302584" lat="60.4591777782" lon="11.5071416713">
		<tag k="name" v="Knaggerud" />
		<tag k="place" v="locality" />
		<tag k="ssr:stedsnr" v="299613" />
	</node>
	<node id="-302576" lat="60.4913805538" lon="11.6292666646">
		<tag k="name" v="Tørrhardmyra" />
		<tag k="natural" v="wetland" />
		<tag k="ssr:stedsnr" v="466473" />
	</node>
	<node id="-302575" lat="60.4881249981" lon="11.6210611173">
		<tag k="name" v="Malmdøsset" />
		<tag k="natural" v="wetland" />
		<tag k="ssr:stedsnr" v="466469" />
	</node>
	<node id="-302552" lat="60.4956777742" lon="11.4831888972">
		<tag k="name" v="Søndre Koimyra" />
		<tag k="natural" v="wetland" />
		<tag k="ssr:stedsnr" v="240920" />
	</node>
	<node id="-302550" lat="60.3671249984" lon="11.743961115">
		<tag k="name" v="Pålsmyra" />
		<tag k="natural" v="wetland" />
		<tag k="ssr:stedsnr" v="239231" />
	</node>
	<node id="-302547" lat="60.4451000043" lon="11.5293111189">
		<tag k="name" v="Bjørnmyra" />
		<tag k="natural" v="wetland" />
		<tag k="ssr:stedsnr" v="237902" />
	</node>
	<node id="-302545" lat="60.4030833373" lon="11.38832778">
		<tag k="name" v="Grantjennsmyra" />
		<tag k="natural" v="wetland" />
		<tag k="ssr:stedsnr" v="229253" />
	</node>
	<node id="-302542" lat="60.3556361152" lon="11.4904694516">
		<tag k="name" v="Nedre Skarpsnomyra" />
		<tag k="natural" v="wetland" />
		<tag k="ssr:stedsnr" v="224612" />
	</node>
	<node id="-302541" lat="60.3584999989" lon="11.5101222309">
		<tag k="name" v="Den hemre Sætermyra" />
		<tag k="natural" v="wetland" />
		<tag k="ssr:stedsnr" v="224611" />
	</node>
	<node id="-302539" lat="60.5073250003" lon="11.4775277846">
		<tag k="name" v="Namnlausmyra" />
		<tag k="natural" v="wetland" />
		<tag k="ssr:stedsnr" v="298552" />
	</node>
	<node id="-302532" lat="60.403644447" lon="11.5847472159">
		<tag k="name" v="Skolmyra" />
		<tag k="natural" v="wetland" />
		<tag k="ssr:stedsnr" v="298334" />
	</node>
	<node id="-302529" lat="60.4236888913" lon="11.5500750082">
		<tag k="name" v="Venlia" />
		<tag k="place" v="locality" />
		<tag k="ssr:stedsnr" v="298322" />
	</node>
	<node id="-302520" lat="60.5024527767" lon="11.7185250066">
		<tag k="name" v="Liktjennsmyra" />
		<tag k="natural" v="wetland" />
		<tag k="ssr:stedsnr" v="289895" />
	</node>
	<node id="-302514" lat="60.3814500017" lon="11.4873222233">
		<tag k="name" v="Løgardsmyra" />
		<tag k="natural" v="wetland" />
		<tag k="ssr:stedsnr" v="180577" />
	</node>
	<node id="-302507" lat="60.4159611108" lon="11.4811444511">
		<tag k="name" v="Åsmyra" />
		<tag k="natural" v="wetland" />
		<tag k="ssr:stedsnr" v="284989" />
	</node>
	<node id="-302506" lat="60.4263333321" lon="11.4767555541">
		<tag k="name" v="Stormyra" />
		<tag k="natural" v="wetland" />
		<tag k="ssr:stedsnr" v="284988" />
	</node>
	<node id="-302504" lat="60.4235527803" lon="11.3779138942">
		<tag k="name" v="Søndre Engerfjellmyra" />
		<tag k="natural" v="wetland" />
		<tag k="ssr:stedsnr" v="179271" />
	</node>
	<node id="-302501" lat="60.4133777772" lon="11.4600861116">
		<tag k="name" v="Fjøsmyra" />
		<tag k="natural" v="wetland" />
		<tag k="ssr:stedsnr" v="284976" />
	</node>
	<node id="-302500" lat="60.5143416687" lon="11.6588000006">
		<tag k="name" v="Tårnmyra" />
		<tag k="natural" v="wetland" />
		<tag k="ssr:stedsnr" v="178907" />
	</node>
	<node id="-302499" lat="60.4879722223" lon="11.6839972282">
		<tag k="name" v="Skurvmyra" />
		<tag k="natural" v="wetland" />
		<tag k="ssr:stedsnr" v="178902" />
	</node>
	<node id="-302494" lat="60.3457638921" lon="11.5089472222">
		<tag k="name" v="Øvre Portmyra" />
		<tag k="natural" v="wetland" />
		<tag k="ssr:stedsnr" v="284718" />
	</node>
	<node id="-302493" lat="60.3547138892" lon="11.4646861097">
		<tag k="name" v="Busmyrholen" />
		<tag k="place" v="locality" />
		<tag k="ssr:stedsnr" v="284706" />
	</node>
	<node id="-302488" lat="60.3559111106" lon="11.4558888841">
		<tag k="name" v="Prinsegarden" />
		<tag k="place" v="locality" />
		<tag k="ssr:stedsnr" v="284688" />
	</node>
	<node id="-302475" lat="60.3374250023" lon="11.5588472205">
		<tag k="name" v="Leikmyrholen" />
		<tag k="place" v="locality" />
		<tag k="ssr:stedsnr" v="283802" />
	</node>
	<node id="-302458" lat="60.3430027744" lon="11.4974166598">
		<tag k="name" v="Fiksusmyrene" />
		<tag k="natural" v="wetland" />
		<tag k="ssr:stedsnr" v="163661" />
	</node>
	<node id="-302457" lat="60.4576555574" lon="11.5767833358">
		<tag k="name" v="Fålåmyra" />
		<tag k="natural" v="wetland" />
		<tag k="ssr:stedsnr" v="163456" />
	</node>
	<node id="-304504" lat="60.3695138907" lon="11.4582805522">
		<tag k="name" v="Fjøsmyra" />
		<tag k="natural" v="wetland" />
		<tag k="ssr:stedsnr" v="969622" />
	</node>
	<node id="-304503" lat="60.3694083352" lon="11.4194722279">
		<tag k="historic" v="shieling" />
		<tag k="name" v="Rudssætra" />
		<tag k="place" v="locality" />
		<tag k="ssr:stedsnr" v="969619" />
	</node>
	<node id="-304501" lat="60.3748194415" lon="11.7962472203">
		<tag k="name" v="Den langsmale myra" />
		<tag k="natural" v="wetland" />
		<tag k="ssr:stedsnr" v="969588" />
	</node>
	<node id="-302452" lat="60.4745138859" lon="11.7005111154">
		<tag k="name" v="Stormyra" />
		<tag k="natural" v="wetland" />
		<tag k="ssr:stedsnr" v="299893" />
	</node>
	<node id="-304497" lat="60.4731972195" lon="11.3630972214">
		<tag k="name" v="Smalmyra" />
		<tag k="natural" v="wetland" />
		<tag k="ssr:stedsnr" v="968342" />
	</node>
	<node id="-304494" lat="60.4440305575" lon="11.3895888915">
		<tag k="historic" v="shieling" />
		<tag k="name" v="Lisætra" />
		<tag k="place" v="locality" />
		<tag k="ssr:stedsnr" v="968309" />
	</node>
	<node id="-302445" lat="60.3792055563" lon="11.7474500004">
		<tag k="name" v="Langmyra" />
		<tag k="natural" v="wetland" />
		<tag k="ssr:stedsnr" v="127914" />
	</node>
	<node id="-304492" lat="60.4497388884" lon="11.3986638952">
		<tag k="name" v="Gjellerskomyra" />
		<tag k="natural" v="wetland" />
		<tag k="ssr:stedsnr" v="968297" />
	</node>
	<node id="-304491" lat="60.4214833289" lon="11.4041944527">
		<tag k="name" v="Gørrmyra" />
		<tag k="natural" v="wetland" />
		<tag k="ssr:stedsnr" v="968289" />
	</node>
	<node id="-304490" lat="60.416891668" lon="11.3854194371">
		<tag k="historic" v="shieling" />
		<tag k="name" v="Nysætra" />
		<tag k="place" v="locality" />
		<tag k="ssr:stedsnr" v="968288" />
	</node>
	<node id="-302440" lat="60.4438055564" lon="11.3744222226">
		<tag k="name" v="Kampemyra" />
		<tag k="natural" v="wetland" />
		<tag k="ssr:stedsnr" v="127509" />
	</node>
	<node id="-304487" lat="60.4826666652" lon="11.7002833354">
		<tag k="name" v="Sigvartdøssa" />
		<tag k="natural" v="wetland" />
		<tag k="ssr:stedsnr" v="967892" />
	</node>
	<node id="-304486" lat="60.4642388848" lon="11.7457000072">
		<tag k="name" v="Vålmyra" />
		<tag k="natural" v="wetland" />
		<tag k="ssr:stedsnr" v="967882" />
	</node>
	<node id="-304485" lat="60.4703249975" lon="11.750144447">
		<tag k="name" v="Broka" />
		<tag k="natural" v="wetland" />
		<tag k="ssr:stedsnr" v="967879" />
	</node>
	<node id="-304484" lat="60.4029138926" lon="11.5526138969">
		<tag k="name" v="Holamyra" />
		<tag k="natural" v="wetland" />
		<tag k="ssr:stedsnr" v="967329" />
	</node>
	<node id="-304482" lat="60.3751638888" lon="11.5846861026">
		<tag k="name" v="Merrahella" />
		<tag k="place" v="locality" />
		<tag k="ssr:stedsnr" v="967248" />
	</node>
	<node id="-302433" lat="60.4645055598" lon="11.3872638845">
		<tag k="name" v="Påsåbekkmyra" />
		<tag k="natural" v="wetland" />
		<tag k="ssr:stedsnr" v="118303" />
	</node>
	<node id="-304480" lat="60.5138813058" lon="11.3764032753">
		<tag k="name" v="Vålbråten" />
		<tag k="place" v="locality" />
		<tag k="ssr:stedsnr" v="967093" />
	</node>
	<node id="-304479" lat="60.3380388903" lon="11.4853111189">
		<tag k="name" v="Det østre Størrhølet" />
		<tag k="natural" v="wetland" />
		<tag k="ssr:stedsnr" v="965689" />
	</node>
	<node id="-302430" lat="60.4495861129" lon="11.4092888947">
		<tag k="name" v="Kleivmyra" />
		<tag k="natural" v="wetland" />
		<tag k="ssr:stedsnr" v="118246" />
	</node>
	<node id="-302426" lat="60.4910166622" lon="11.4566277783">
		<tag k="name" v="Linnmyra" />
		<tag k="natural" v="wetland" />
		<tag k="ssr:stedsnr" v="116835" />
	</node>
	<node id="-304473" lat="60.5101999989" lon="11.4766305522">
		<tag k="name" v="Lurhølmyra" />
		<tag k="natural" v="wetland" />
		<tag k="ssr:stedsnr" v="965579" />
	</node>
	<node id="-304470" lat="60.3222361152" lon="11.5490583351">
		<tag k="name" v="Blokktjennsmyra" />
		<tag k="natural" v="wetland" />
		<tag k="ssr:stedsnr" v="957981" />
	</node>
	<node id="-304469" lat="60.3899388862" lon="11.3964750082">
		<tag k="name" v="Tretjennsmyrene" />
		<tag k="natural" v="wetland" />
		<tag k="ssr:stedsnr" v="957871" />
	</node>
	<node id="-304466" lat="60.5087638865" lon="11.4663138856">
		<tag k="name" v="Tjennmyra" />
		<tag k="natural" v="wetland" />
		<tag k="ssr:stedsnr" v="957848" />
	</node>
	<node id="-302307" lat="60.3671444452" lon="11.5338555479">
		<tag k="name" v="Høgmyra" />
		<tag k="natural" v="wetland" />
		<tag k="ssr:stedsnr" v="237279" />
	</node>
	<node id="-304454" lat="60.4262888879" lon="11.4701638875">
		<tag k="name" v="Vegmyra" />
		<tag k="natural" v="wetland" />
		<tag k="ssr:stedsnr" v="952978" />
	</node>
	<node id="-304453" lat="60.5119555517" lon="11.5811444482">
		<tag k="name" v="Vestre Stormyra" />
		<tag k="natural" v="wetland" />
		<tag k="ssr:stedsnr" v="952758" />
	</node>
	<node id="-304451" lat="60.3249416628" lon="11.5145805583">
		<tag k="name" v="Brettemyra" />
		<tag k="natural" v="wetland" />
		<tag k="ssr:stedsnr" v="952654" />
	</node>
	<node id="-302400" lat="60.3979777783" lon="11.7064000018">
		<tag k="name" v="Røymyra" />
		<tag k="natural" v="wetland" />
		<tag k="ssr:stedsnr" v="249825" />
	</node>
	<node id="-304447" lat="60.4896833376" lon="11.5984916645">
		<tag k="name" v="Finnskogen" />
		<tag k="place" v="locality" />
		<tag k="ssr:stedsnr" v="952466" />
	</node>
	<node id="-302396" lat="60.5378111075" lon="11.6214499965">
		<tag k="alt_name" v="Store Gillermyra" />
		<tag k="name" v="Gillermyra" />
		<tag k="natural" v="wetland" />
		<tag k="ssr:stedsnr" v="249221" />
	</node>
	<node id="-304443" lat="60.5078166695" lon="11.6209333309">
		<tag k="name" v="Monsmyra" />
		<tag k="natural" v="wetland" />
		<tag k="ssr:stedsnr" v="952098" />
	</node>
	<node id="-304442" lat="60.5104250041" lon="11.6478361164">
		<tag k="name" v="Bjønnmyra" />
		<tag k="natural" v="wetland" />
		<tag k="ssr:stedsnr" v="952094" />
	</node>
	<node id="-302393" lat="60.5209916704" lon="11.5925138951">
		<tag k="name" v="Ringfløytmyra" />
		<tag k="natural" v="wetland" />
		<tag k="ssr:stedsnr" v="249203" />
	</node>
	<node id="-304436" lat="60.3150499982" lon="11.5700361081">
		<tag k="name" v="Småmyrene" />
		<tag k="natural" v="wetland" />
		<tag k="ssr:stedsnr" v="950812" />
	</node>
	<node id="-304435" lat="60.3585888885" lon="11.5870916623">
		<tag k="name" v="Kløvsteinen" />
		<tag k="natural" v="stone" />
		<tag k="ssr:stedsnr" v="950750" />
	</node>
	<node id="-304433" lat="60.3258388928" lon="11.6193333354">
		<tag k="name" v="Lukermyra" />
		<tag k="natural" v="wetland" />
		<tag k="ssr:stedsnr" v="950731" />
	</node>
	<node id="-304432" lat="60.3130000025" lon="11.5464638955">
		<tag k="name" v="Hundmyrene" />
		<tag k="natural" v="wetland" />
		<tag k="ssr:stedsnr" v="950801" />
	</node>
	<node id="-302372" lat="60.4865999993" lon="11.4483805513">
		<tag k="name" v="Rismyra" />
		<tag k="natural" v="wetland" />
		<tag k="ssr:stedsnr" v="248357" />
	</node>
	<node id="-304413" lat="60.474825001" lon="11.4313888814">
		<tag k="alt_name" v="Hvitmosemyra" />
		<tag k="name" v="Kvitmosemyra" />
		<tag k="natural" v="wetland" />
		<tag k="ssr:stedsnr" v="856494" />
	</node>
	<node id="-302355" lat="60.3803749998" lon="11.4025916621">
		<tag k="name" v="Larsputtmyra" />
		<tag k="natural" v="wetland" />
		<tag k="ssr:stedsnr" v="240413" />
	</node>
	<node id="-302353" lat="60.4786555589" lon="11.3847527812">
		<tag k="name" v="Koimyra" />
		<tag k="natural" v="wetland" />
		<tag k="ssr:stedsnr" v="240344" />
	</node>
	<node id="-304400" lat="60.3797888892" lon="11.4829138895">
		<tag k="name" v="Bråtåsætermyra" />
		<tag k="natural" v="wetland" />
		<tag k="ssr:stedsnr" v="848600" />
	</node>
	<node id="-302351" lat="60.4403361089" lon="11.4048805552">
		<tag k="name" v="Kjonstein" />
		<tag k="natural" v="stone" />
		<tag k="ssr:stedsnr" v="240300" />
	</node>
	<node id="-302350" lat="60.4172750038" lon="11.4023444414">
		<tag k="name" v="Fåfenga" />
		<tag k="place" v="locality" />
		<tag k="ssr:stedsnr" v="240287" />
	</node>
	<node id="-304395" lat="60.457875001" lon="11.3817305473">
		<tag k="historic" v="shieling" />
		<tag k="name" v="Rovelstadsætra" />
		<tag k="place" v="locality" />
		<tag k="ssr:stedsnr" v="847318" />
	</node>
	<node id="-302345" lat="60.5175083331" lon="11.6953972243">
		<tag k="name" v="Goromyra" />
		<tag k="natural" v="wetland" />
		<tag k="ssr:stedsnr" v="239948" />
	</node>
	<node id="-302344" lat="60.512411113" lon="11.7003611187">
		<tag k="name" v="Skjulmyra" />
		<tag k="natural" v="wetland" />
		<tag k="ssr:stedsnr" v="239946" />
	</node>
	<node id="-304390" lat="60.4628416644" lon="11.7010305584">
		<tag k="name" v="Rudsvellmyra" />
		<tag k="natural" v="wetland" />
		<tag k="ssr:stedsnr" v="846895" />
	</node>
	<node id="-304389" lat="60.4609777792" lon="11.6808916698">
		<tag k="name" v="Høgmyrene" />
		<tag k="natural" v="wetland" />
		<tag k="ssr:stedsnr" v="846894" />
	</node>
	<node id="-304388" lat="60.3428388883" lon="11.5642388893">
		<tag k="name" v="Torslia" />
		<tag k="place" v="locality" />
		<tag k="ssr:stedsnr" v="846796" />
	</node>
	<node id="-302339" lat="60.3462222239" lon="11.5768750032">
		<tag k="name" v="Peråsmyra" />
		<tag k="natural" v="wetland" />
		<tag k="ssr:stedsnr" v="239821" />
	</node>
	<node id="-302336" lat="60.4075944469" lon="11.8220972159">
		<tag k="name" v="Hestskallmyra" />
		<tag k="natural" v="wetland" />
		<tag k="ssr:stedsnr" v="239579" />
	</node>
	<node id="-304377" lat="60.3578805533" lon="11.4841805619">
		<tag k="name" v="Øvre Skarpsnomyra" />
		<tag k="natural" v="wetland" />
		<tag k="ssr:stedsnr" v="844674" />
	</node>
	<node id="-302328" lat="60.4167083342" lon="11.7226055501">
		<tag k="name" v="Prestmyra" />
		<tag k="natural" v="wetland" />
		<tag k="ssr:stedsnr" v="59822" />
	</node>
	<node id="-304375" lat="60.475194445" lon="11.576880561">
		<tag k="name" v="Grisholen" />
		<tag k="place" v="locality" />
		<tag k="ssr:stedsnr" v="844481" />
	</node>
	<node id="-304374" lat="60.3239777787" lon="11.5514055587">
		<tag k="name" v="Blokktjennssteinen" />
		<tag k="natural" v="stone" />
		<tag k="ssr:stedsnr" v="836984" />
	</node>
	<node id="-302325" lat="60.4271750006" lon="11.7424472142">
		<tag k="name" v="Jernmyrene" />
		<tag k="natural" v="wetland" />
		<tag k="ssr:stedsnr" v="59815" />
	</node>
	<node id="-304372" lat="60.5394583305" lon="11.5424805575">
		<tag k="name" v="Lauvtjennsmyra" />
		<tag k="natural" v="wetland" />
		<tag k="ssr:stedsnr" v="836840" />
	</node>
	<node id="-302321" lat="60.3463388877" lon="11.4746750064">
		<tag k="name" v="Ospedalsmyra" />
		<tag k="natural" v="wetland" />
		<tag k="ssr:stedsnr" v="237710" />
	</node>
	<node id="-302318" lat="60.3671777792" lon="11.4903777768">
		<tag k="name" v="Tangdøsset" />
		<tag k="natural" v="wetland" />
		<tag k="ssr:stedsnr" v="237660" />
	</node>
	<node id="-302316" lat="60.5142694476" lon="11.4979333355">
		<tag k="name" v="Lalom" />
		<tag k="place" v="locality" />
		<tag k="ssr:stedsnr" v="237580" />
	</node>
	<node id="-302311" lat="60.5039861104" lon="11.4197583401">
		<tag k="name" v="Skarfallmyra" />
		<tag k="natural" v="wetland" />
		<tag k="ssr:stedsnr" v="237396" />
	</node>
	<node id="-304358" lat="60.4993222223" lon="11.5449444534">
		<tag k="name" v="Ladderudsdøsset" />
		<tag k="natural" v="wetland" />
		<tag k="ssr:stedsnr" v="831747" />
	</node>
	<node id="-304357" lat="60.3453972219" lon="11.5117805524">
		<tag k="name" v="Nedre Portmyra" />
		<tag k="natural" v="wetland" />
		<tag k="ssr:stedsnr" v="831643" />
	</node>
	<node id="-304356" lat="60.3637444416" lon="11.4418944462">
		<tag k="name" v="Gammelsætermyra" />
		<tag k="natural" v="wetland" />
		<tag k="ssr:stedsnr" v="831627" />
	</node>
	<node id="-304355" lat="60.3425250024" lon="11.4677583396">
		<tag k="name" v="Bukkemyra" />
		<tag k="natural" v="wetland" />
		<tag k="ssr:stedsnr" v="831624" />
	</node>
	<node id="-304354" lat="60.3556916681" lon="11.5103083375">
		<tag k="name" v="Lunnmyra" />
		<tag k="natural" v="wetland" />
		<tag k="ssr:stedsnr" v="831601" />
	</node>
	<node id="-302305" lat="60.4181416669" lon="11.476402775">
		<tag k="name" v="Langmyra" />
		<tag k="natural" v="wetland" />
		<tag k="ssr:stedsnr" v="42973" />
	</node>
	<node id="-302303" lat="60.329283337" lon="11.5704972266">
		<tag k="name" v="Tørrbergsmyra" />
		<tag k="natural" v="wetland" />
		<tag k="ssr:stedsnr" v="40852" />
	</node>
	<node id="-302302" lat="60.3558277803" lon="11.576727777">
		<tag k="name" v="Vålåsmyra" />
		<tag k="natural" v="wetland" />
		<tag k="ssr:stedsnr" v="39721" />
	</node>
	<node id="-304349" lat="60.4805611143" lon="11.5836777711">
		<tag k="name" v="Knappersætermyra" />
		<tag k="natural" v="wetland" />
		<tag k="ssr:stedsnr" v="831115" />
	</node>
	<node id="-302297" lat="60.4781833325" lon="11.3745194424">
		<tag k="name" v="Lomtjennsmyra" />
		<tag k="natural" v="wetland" />
		<tag k="ssr:stedsnr" v="229796" />
	</node>
	<node id="-304343" lat="60.3941166623" lon="11.8171972268">
		<tag k="name" v="Meitsjømyrene" />
		<tag k="natural" v="wetland" />
		<tag k="ssr:stedsnr" v="830575" />
	</node>
	<node id="-304342" lat="60.4731750033" lon="11.4228416691">
		<tag k="name" v="Midtskogholen" />
		<tag k="place" v="locality" />
		<tag k="ssr:stedsnr" v="829890" />
	</node>
	<node id="-304339" lat="60.3326722186" lon="11.5452916619">
		<tag k="name" v="Kalvmyra" />
		<tag k="natural" v="wetland" />
		<tag k="ssr:stedsnr" v="829798" />
	</node>
	<node id="-302290" lat="60.5684888904" lon="11.6081916612">
		<tag k="name" v="Linnmyra" />
		<tag k="natural" v="wetland" />
		<tag k="ssr:stedsnr" v="224749" />
	</node>
	<node id="-304336" lat="60.3374170348" lon="11.598577101">
		<tag k="name" v="Kroksrudbråten" />
		<tag k="place" v="locality" />
		<tag k="ssr:stedsnr" v="829761" />
	</node>
	<node id="-302285" lat="60.4840388856" lon="11.549213895">
		<tag k="name" v="Brattmyra" />
		<tag k="natural" v="wetland" />
		<tag k="ssr:stedsnr" v="224109" />
	</node>
	<node id="-302284" lat="60.4857972185" lon="11.5705583417">
		<tag k="name" v="Bestemordøsset" />
		<tag k="natural" v="wetland" />
		<tag k="ssr:stedsnr" v="224101" />
	</node>
	<node id="-302282" lat="60.4285333324" lon="11.4325027793">
		<tag k="name" v="Grønmyra" />
		<tag k="natural" v="wetland" />
		<tag k="ssr:stedsnr" v="223992" />
	</node>
	<node id="-302280" lat="60.4378222252" lon="11.6490416687">
		<tag k="name" v="Jodøsset" />
		<tag k="natural" v="wetland" />
		<tag k="ssr:stedsnr" v="223902" />
	</node>
	<node id="-302279" lat="60.3988305556" lon="11.7803111074">
		<tag k="name" v="Øvre Starrmyra" />
		<tag k="natural" v="wetland" />
		<tag k="ssr:stedsnr" v="223613" />
	</node>
	<node id="-302278" lat="60.3971222258" lon="11.7752472183">
		<tag k="name" v="Nedre Starrmyra" />
		<tag k="natural" v="wetland" />
		<tag k="ssr:stedsnr" v="223590" />
	</node>
	<node id="-302276" lat="60.4067861131" lon="11.4622777826">
		<tag k="name" v="Gråmyra" />
		<tag k="natural" v="wetland" />
		<tag k="ssr:stedsnr" v="223529" />
	</node>
	<node id="-304323" lat="60.4168249962" lon="11.6603583319">
		<tag k="alt_name" v="Gardvikfløyta" />
		<tag k="name" v="Fløyta" />
		<tag k="natural" v="wetland" />
		<tag k="ssr:stedsnr" v="795857" />
	</node>
	<node id="-302273" lat="60.3118611145" lon="11.5883916719">
		<tag k="name" v="Damholtet" />
		<tag k="place" v="locality" />
		<tag k="ssr:stedsnr" v="222828" />
	</node>
	<node id="-304318" lat="60.3456333344" lon="11.481650004">
		<tag k="name" v="Stormyra" />
		<tag k="natural" v="wetland" />
		<tag k="ssr:stedsnr" v="795683" />
	</node>
	<node id="-304314" lat="60.4679249984" lon="11.3979749954">
		<tag k="alt_name" v="Namnlausmyra" />
		<tag k="name" v="Namnløsmyra" />
		<tag k="natural" v="wetland" />
		<tag k="ssr:stedsnr" v="795496" />
	</node>
	<node id="-304308" lat="60.4826138924" lon="11.7279277706">
		<tag k="name" v="Vakkerholtet" />
		<tag k="place" v="locality" />
		<tag k="ssr:stedsnr" v="787908" />
	</node>
	<node id="-304305" lat="60.4649416638" lon="11.3495361167">
		<tag k="name" v="Fuglehaugmyra" />
		<tag k="natural" v="wetland" />
		<tag k="ssr:stedsnr" v="786923" />
	</node>
	<node id="-304303" lat="60.4846416624" lon="11.5163416752">
		<tag k="name" v="Dambråten" />
		<tag k="place" v="locality" />
		<tag k="ssr:stedsnr" v="786910" />
	</node>
	<node id="-304302" lat="60.3818555564" lon="11.4060861103">
		<tag k="name" v="Steinmyra" />
		<tag k="natural" v="wetland" />
		<tag k="ssr:stedsnr" v="786401" />
	</node>
	<node id="-304301" lat="60.4709916641" lon="11.4129416599">
		<tag k="name" v="Damholen" />
		<tag k="place" v="locality" />
		<tag k="ssr:stedsnr" v="786316" />
	</node>
	<node id="-304300" lat="60.4353749993" lon="11.376172216">
		<tag k="name" v="Tørrhardmyra" />
		<tag k="natural" v="wetland" />
		<tag k="ssr:stedsnr" v="786257" />
	</node>
	<node id="-304298" lat="60.5324833337" lon="11.6826583253">
		<tag k="name" v="Mastmyra" />
		<tag k="natural" v="wetland" />
		<tag k="ssr:stedsnr" v="785950" />
	</node>
	<node id="-304297" lat="60.4575999986" lon="11.7616833324">
		<tag k="name" v="Stormyra" />
		<tag k="natural" v="wetland" />
		<tag k="ssr:stedsnr" v="785917" />
	</node>
	<node id="-304296" lat="60.4728166699" lon="11.693202774">
		<tag k="name" v="Den langsmale myra" />
		<tag k="natural" v="wetland" />
		<tag k="ssr:stedsnr" v="785903" />
	</node>
	<node id="-304294" lat="60.4513749995" lon="11.7005416659">
		<tag k="name" v="Gråtarremsa" />
		<tag k="place" v="locality" />
		<tag k="ssr:stedsnr" v="785898" />
	</node>
	<node id="-304293" lat="60.4498083303" lon="11.6637916733">
		<tag k="name" v="Rudsberget" />
		<tag k="place" v="locality" />
		<tag k="ssr:stedsnr" v="785896" />
	</node>
	<node id="-304292" lat="60.4519055594" lon="11.6516222193">
		<tag k="name" v="Nautmyra" />
		<tag k="natural" v="wetland" />
		<tag k="ssr:stedsnr" v="785894" />
	</node>
	<node id="-304290" lat="60.4510750043" lon="11.7274250093">
		<tag k="name" v="Nedre Skalbergmyra" />
		<tag k="natural" v="wetland" />
		<tag k="ssr:stedsnr" v="785855" />
	</node>
	<node id="-304271" lat="60.416772218" lon="11.5599555541">
		<tag k="name" v="Persbråten" />
		<tag k="place" v="locality" />
		<tag k="ssr:stedsnr" v="783350" />
	</node>
	<node id="-304268" lat="60.4097527748" lon="11.569955548">
		<tag k="name" v="Flomyra" />
		<tag k="natural" v="wetland" />
		<tag k="ssr:stedsnr" v="783340" />
	</node>
	<node id="-304262" lat="60.3510388898" lon="11.4703222284">
		<tag k="name" v="Tretjennsmyra" />
		<tag k="natural" v="wetland" />
		<tag k="ssr:stedsnr" v="775762" />
	</node>
	<node id="-304254" lat="60.4268166632" lon="11.4973388819">
		<tag k="landuse" v="meadow" />
		<tag k="name" v="Engene" />
		<tag k="ssr:stedsnr" v="770989" />
	</node>
	<node id="-304248" lat="60.3168111105" lon="11.5114361134">
		<tag k="historic" v="shieling" />
		<tag k="name" v="Grenisætra" />
		<tag k="place" v="locality" />
		<tag k="ssr:stedsnr" v="770686" />
	</node>
	<node id="-304244" lat="60.4705138921" lon="11.445566673">
		<tag k="name" v="Orrhyttemyra" />
		<tag k="natural" v="wetland" />
		<tag k="ssr:stedsnr" v="768939" />
	</node>
	<node id="-304242" lat="60.4659472185" lon="11.4266499999">
		<tag k="name" v="Svensmyra" />
		<tag k="natural" v="wetland" />
		<tag k="ssr:stedsnr" v="768937" />
	</node>
	<node id="-304241" lat="60.3243666636" lon="11.538333332">
		<tag k="name" v="Langmyra" />
		<tag k="natural" v="wetland" />
		<tag k="ssr:stedsnr" v="768841" />
	</node>
	<node id="-304240" lat="60.338488893" lon="11.5637277761">
		<tag k="name" v="Leikmyra" />
		<tag k="natural" v="wetland" />
		<tag k="ssr:stedsnr" v="768823" />
	</node>
	<node id="-304233" lat="60.4283638849" lon="11.7812333286">
		<tag k="name" v="Langmyra" />
		<tag k="natural" v="wetland" />
		<tag k="ssr:stedsnr" v="768573" />
	</node>
	<node id="-304226" lat="60.3238555594" lon="11.5353083282">
		<tag k="name" v="Puttjennsholen" />
		<tag k="place" v="locality" />
		<tag k="ssr:stedsnr" v="653995" />
	</node>
	<node id="-304215" lat="60.5219777796" lon="11.6398083254">
		<tag k="name" v="Rotsætermyra" />
		<tag k="natural" v="wetland" />
		<tag k="ssr:stedsnr" v="648189" />
	</node>
	<node id="-304209" lat="60.5104250041" lon="11.6478361164">
		<tag k="name" v="Gjøgåsmyra" />
		<tag k="natural" v="wetland" />
		<tag k="ssr:stedsnr" v="648085" />
	</node>
	<node id="-304208" lat="60.3272333355" lon="11.5037222303">
		<tag k="name" v="Den langsmale myra" />
		<tag k="natural" v="wetland" />
		<tag k="ssr:stedsnr" v="647620" />
	</node>
	<node id="-304206" lat="60.5336555582" lon="11.6199194382">
		<tag k="name" v="Vesle Gillermyra" />
		<tag k="natural" v="wetland" />
		<tag k="ssr:stedsnr" v="647182" />
	</node>
	<node id="-304197" lat="60.3321750004" lon="11.5387444467">
		<tag k="name" v="Kjerringmyra" />
		<tag k="natural" v="wetland" />
		<tag k="ssr:stedsnr" v="646769" />
	</node>
	<node id="-304194" lat="60.4343666641" lon="11.5551611097">
		<tag k="name" v="Tjirugrovdøsset" />
		<tag k="natural" v="wetland" />
		<tag k="ssr:stedsnr" v="646364" />
	</node>
	<node id="-304189" lat="60.5612833365" lon="11.6447555526">
		<tag k="name" v="Stormyra" />
		<tag k="natural" v="wetland" />
		<tag k="ssr:stedsnr" v="613149" />
	</node>
	<node id="-304184" lat="60.3418499991" lon="11.4845749961">
		<tag k="name" v="Langmyra" />
		<tag k="natural" v="wetland" />
		<tag k="ssr:stedsnr" v="612895" />
	</node>
	<node id="-304393" lat="60.4423000023" lon="11.4069194381">
		<tag k="name" v="Sjekta" />
		<tag k="place" v="locality" />
		<tag k="ssr:stedsnr" v="847303" />
	</node>
	<node id="-304171" lat="60.4656000002" lon="11.3663111152">
		<tag k="name" v="Kalvmyra" />
		<tag k="natural" v="wetland" />
		<tag k="ssr:stedsnr" v="612429" />
	</node>
	<node id="-304170" lat="60.4804000006" lon="11.3630250032">
		<tag k="alt_name" v="Sjølimyra" />
		<tag k="name" v="Sjølimyrane" />
		<tag k="natural" v="wetland" />
		<tag k="ssr:stedsnr" v="612411" />
	</node>
	<node id="-304167" lat="60.5191749968" lon="11.7116361059">
		<tag k="name" v="Tannsjømyrene" />
		<tag k="natural" v="wetland" />
		<tag k="ssr:stedsnr" v="604945" />
	</node>
	<node id="-304162" lat="60.3868083302" lon="11.5195833351">
		<tag k="name" v="Steinsmyra" />
		<tag k="natural" v="wetland" />
		<tag k="ssr:stedsnr" v="604588" />
	</node>
	<node id="-304158" lat="60.4070805549" lon="11.6331972235">
		<tag k="name" v="Skiftstein" />
		<tag k="natural" v="stone" />
		<tag k="ssr:stedsnr" v="604278" />
	</node>
	<node id="-304156" lat="60.5333888854" lon="11.6538666596">
		<tag k="name" v="Gomyra" />
		<tag k="natural" v="wetland" />
		<tag k="ssr:stedsnr" v="603944" />
	</node>
	<node id="-304155" lat="60.4471361094" lon="11.7308444504">
		<tag k="name" v="Øvre Skalbergmyra" />
		<tag k="natural" v="wetland" />
		<tag k="ssr:stedsnr" v="603846" />
	</node>
	<node id="-304150" lat="60.3643611097" lon="11.7310444482">
		<tag k="name" v="Kvebråten" />
		<tag k="place" v="locality" />
		<tag k="ssr:stedsnr" v="603231" />
	</node>
	<node id="-304147" lat="60.4469555544" lon="11.6935944486">
		<tag k="name" v="Høymyra" />
		<tag k="natural" v="wetland" />
		<tag k="ssr:stedsnr" v="602875" />
	</node>
	<node id="-304143" lat="60.4088777737" lon="11.5104138931">
		<tag k="name" v="Skiftstein" />
		<tag k="natural" v="stone" />
		<tag k="ssr:stedsnr" v="601516" />
	</node>
	<node id="-304142" lat="60.4693583356" lon="11.5557305473">
		<tag k="name" v="Stormyra" />
		<tag k="natural" v="wetland" />
		<tag k="ssr:stedsnr" v="601475" />
	</node>
	<node id="-304140" lat="60.3391972221" lon="11.5219527725">
		<tag k="name" v="Høymyra" />
		<tag k="natural" v="wetland" />
		<tag k="ssr:stedsnr" v="601672" />
	</node>
	<node id="-304139" lat="60.3666944467" lon="11.5072555478">
		<tag k="name" v="Strutmyra" />
		<tag k="natural" v="wetland" />
		<tag k="ssr:stedsnr" v="601645" />
	</node>
	<node id="-304132" lat="60.5073222259" lon="11.5043944425">
		<tag k="name" v="Lauvhaugmyra" />
		<tag k="natural" v="wetland" />
		<tag k="ssr:stedsnr" v="600534" />
	</node>
	<node id="-304130" lat="60.5094722211" lon="11.4721166587">
		<tag k="name" v="Furumyra" />
		<tag k="natural" v="wetland" />
		<tag k="ssr:stedsnr" v="600385" />
	</node>
	<node id="-304129" lat="60.505583331" lon="11.4743388898">
		<tag k="name" v="Linnleikmyra" />
		<tag k="natural" v="wetland" />
		<tag k="ssr:stedsnr" v="600384" />
	</node>
	<node id="-304121" lat="60.5270777796" lon="11.6200750044">
		<tag k="name" v="Bergesæterholene" />
		<tag k="place" v="locality" />
		<tag k="ssr:stedsnr" v="592961" />
	</node>
	<node id="-304118" lat="60.5386416666" lon="11.56258611">
		<tag k="name" v="Bjønnmyra" />
		<tag k="natural" v="wetland" />
		<tag k="ssr:stedsnr" v="591903" />
	</node>
	<node id="-304116" lat="60.3145722257" lon="11.5223472236">
		<tag k="name" v="Den spikne myra" />
		<tag k="natural" v="wetland" />
		<tag k="ssr:stedsnr" v="588699" />
	</node>
	<node id="-304115" lat="60.422383331" lon="11.4785888864">
		<tag k="name" v="Fjørhanamyra" />
		<tag k="natural" v="wetland" />
		<tag k="ssr:stedsnr" v="587987" />
	</node>
	<node id="-304111" lat="60.400291667" lon="11.4230166656">
		<tag k="name" v="Store Hansmyra" />
		<tag k="natural" v="wetland" />
		<tag k="ssr:stedsnr" v="587540" />
	</node>
	<node id="-304109" lat="60.4911083347" lon="11.6363166578">
		<tag k="name" v="Helgemyra" />
		<tag k="natural" v="wetland" />
		<tag k="ssr:stedsnr" v="587486" />
	</node>
	<node id="-304099" lat="60.5506583365" lon="11.6128277871">
		<tag k="name" v="Lorensedøsset" />
		<tag k="natural" v="wetland" />
		<tag k="ssr:stedsnr" v="587141" />
	</node>
	<node id="-304097" lat="60.5160805515" lon="11.6439944371">
		<tag k="name" v="Blautmyra" />
		<tag k="natural" v="wetland" />
		<tag k="ssr:stedsnr" v="587075" />
	</node>
	<node id="-304083" lat="60.4480833322" lon="11.5718999912">
		<tag k="name" v="Kjølmyra" />
		<tag k="natural" v="wetland" />
		<tag k="ssr:stedsnr" v="585339" />
	</node>
	<node id="-304070" lat="60.3516130057" lon="11.5348191285">
		<tag k="historic" v="shieling" />
		<tag k="name" v="Illgosætra" />
		<tag k="place" v="locality" />
		<tag k="ssr:stedsnr" v="552908" />
	</node>
	<node id="-304068" lat="60.4293361105" lon="11.5620611163">
		<tag k="name" v="Bobenken" />
		<tag k="place" v="locality" />
		<tag k="ssr:stedsnr" v="552893" />
	</node>
	<node id="-304056" lat="60.4437500042" lon="11.4314055486">
		<tag k="alt_name" v="Langtråmyrene" />
		<tag k="name" v="Langbrumyrane" />
		<tag k="natural" v="wetland" />
		<tag k="ssr:stedsnr" v="552529" />
	</node>
	<node id="-304054" lat="60.4373999984" lon="11.4045222237">
		<tag k="alt_name" v="Kjonsteinmyra" />
		<tag k="name" v="Kjønsteinmyra" />
		<tag k="natural" v="wetland" />
		<tag k="ssr:stedsnr" v="552507" />
	</node>
	<node id="-304053" lat="60.4280777788" lon="11.4018222281">
		<tag k="name" v="Følmyra" />
		<tag k="natural" v="wetland" />
		<tag k="ssr:stedsnr" v="552566" />
	</node>
	<node id="-304040" lat="60.4194194459" lon="11.711797226">
		<tag k="name" v="Markusdøsset" />
		<tag k="natural" v="wetland" />
		<tag k="ssr:stedsnr" v="544822" />
	</node>
	<node id="-304037" lat="60.507855554" lon="11.6962166714">
		<tag k="name" v="Hølbekkmyra" />
		<tag k="natural" v="wetland" />
		<tag k="ssr:stedsnr" v="543902" />
	</node>
	<node id="-304035" lat="60.4440055523" lon="11.7126000041">
		<tag k="name" v="Trettmyrene" />
		<tag k="natural" v="wetland" />
		<tag k="ssr:stedsnr" v="543842" />
	</node>
	<node id="-304034" lat="60.3748333377" lon="11.410052777">
		<tag k="name" v="Den langsmale myra" />
		<tag k="natural" v="wetland" />
		<tag k="ssr:stedsnr" v="543391" />
	</node>
	<node id="-304032" lat="60.4467305541" lon="11.4008166756">
		<tag k="name" v="Gjellerskoneset" />
		<tag k="place" v="locality" />
		<tag k="ssr:stedsnr" v="543291" />
	</node>
	<node id="-304031" lat="60.4243888896" lon="11.4009138933">
		<tag k="name" v="Vollmyra" />
		<tag k="natural" v="wetland" />
		<tag k="ssr:stedsnr" v="543289" />
	</node>
	<node id="-304030" lat="60.4150388915" lon="11.3899027823">
		<tag k="name" v="Dreierholen" />
		<tag k="place" v="locality" />
		<tag k="ssr:stedsnr" v="543285" />
	</node>
	<node id="-304028" lat="60.4711250018" lon="11.7228444447">
		<tag k="name" v="Våltorpmyra" />
		<tag k="natural" v="wetland" />
		<tag k="ssr:stedsnr" v="542900" />
	</node>
	<node id="-304026" lat="60.4660999995" lon="11.6960583327">
		<tag k="name" v="Gråbeindøssa" />
		<tag k="natural" v="wetland" />
		<tag k="ssr:stedsnr" v="542894" />
	</node>
	<node id="-304023" lat="60.430363891" lon="11.5521333386">
		<tag k="name" v="Tømmermyra" />
		<tag k="natural" v="wetland" />
		<tag k="ssr:stedsnr" v="542382" />
	</node>
	<node id="-304018" lat="60.4356055577" lon="11.4508194466">
		<tag k="name" v="Skøllmyra" />
		<tag k="natural" v="wetland" />
		<tag k="ssr:stedsnr" v="540937" />
	</node>
	<node id="-304017" lat="60.4407861135" lon="11.4202750042">
		<tag k="name" v="Raudmosemyra" />
		<tag k="natural" v="wetland" />
		<tag k="ssr:stedsnr" v="540933" />
	</node>
	<node id="-304014" lat="60.365999998" lon="11.4816861097">
		<tag k="name" v="Gjerterudsmyra" />
		<tag k="natural" v="wetland" />
		<tag k="ssr:stedsnr" v="540643" />
	</node>
	<node id="-304012" lat="60.4996805567" lon="11.4493805572">
		<tag k="name" v="Kjølbråten" />
		<tag k="place" v="locality" />
		<tag k="ssr:stedsnr" v="540385" />
	</node>
	<node id="-304003" lat="60.4737388907" lon="11.5036583295">
		<tag k="name" v="Veslemyra" />
		<tag k="natural" v="wetland" />
		<tag k="ssr:stedsnr" v="527883" />
	</node>
	<node id="-304000" lat="60.4981694444" lon="11.5714444399">
		<tag k="name" v="Puttsætermyra" />
		<tag k="natural" v="wetland" />
		<tag k="ssr:stedsnr" v="527786" />
	</node>
	<node id="-303999" lat="60.5145361144" lon="11.5846722287">
		<tag k="name" v="Østre Stormyra" />
		<tag k="natural" v="wetland" />
		<tag k="ssr:stedsnr" v="527783" />
	</node>
	<node id="-303996" lat="60.3441444468" lon="11.5108444456">
		<tag k="name" v="Helvetesporten" />
		<tag k="natural" v="wetland" />
		<tag k="ssr:stedsnr" v="527683" />
	</node>
	<node id="-303993" lat="60.4968611147" lon="11.5582722202">
		<tag k="name" v="Jomfrumyra" />
		<tag k="natural" v="wetland" />
		<tag k="ssr:stedsnr" v="527098" />
	</node>
	<node id="-303991" lat="60.506516667" lon="11.6287972276">
		<tag k="name" v="Krakabakkmyra" />
		<tag k="natural" v="wetland" />
		<tag k="ssr:stedsnr" v="527086" />
	</node>
	<node id="-303989" lat="60.5143888858" lon="11.6235916615">
		<tag k="name" v="Brannen" />
		<tag k="place" v="locality" />
		<tag k="ssr:stedsnr" v="527079" />
	</node>
	<node id="-303986" lat="60.4808277787" lon="11.3550638964">
		<tag k="name" v="Amosfallet" />
		<tag k="place" v="locality" />
		<tag k="ssr:stedsnr" v="526976" />
	</node>
	<node id="-303983" lat="60.3307749986" lon="11.5587499975">
		<tag k="name" v="Seimsætermyra" />
		<tag k="natural" v="wetland" />
		<tag k="ssr:stedsnr" v="525830" />
	</node>
	<node id="-303981" lat="60.3135055522" lon="11.5772694444">
		<tag k="historic" v="shieling" />
		<tag k="name" v="Suterudsvangen" />
		<tag k="place" v="locality" />
		<tag k="ssr:stedsnr" v="525801" />
	</node>
	<node id="-303974" lat="60.5016611125" lon="11.4020916637">
		<tag k="name" v="Svarverudsmyra" />
		<tag k="natural" v="wetland" />
		<tag k="ssr:stedsnr" v="525127" />
	</node>
	<node id="-303973" lat="60.5681027807" lon="11.5529805528">
		<tag k="name" v="Toppbergsmyra" />
		<tag k="natural" v="wetland" />
		<tag k="ssr:stedsnr" v="432151" />
	</node>
	<node id="-303958" lat="60.4749750017" lon="11.4063472154">
		<tag k="name" v="Stormyra" />
		<tag k="natural" v="wetland" />
		<tag k="ssr:stedsnr" v="431461" />
	</node>
	<node id="-303956" lat="60.4917777738" lon="11.5522027704">
		<tag k="name" v="Langmyra" />
		<tag k="natural" v="wetland" />
		<tag k="ssr:stedsnr" v="431260" />
	</node>
	<node id="-303955" lat="60.5068555557" lon="11.7317166621">
		<tag k="name" v="Kariholen" />
		<tag k="place" v="locality" />
		<tag k="ssr:stedsnr" v="423940" />
	</node>
	<node id="-303953" lat="60.4856027739" lon="11.4855166724">
		<tag k="name" v="Nordre Høymyra" />
		<tag k="natural" v="wetland" />
		<tag k="ssr:stedsnr" v="422916" />
	</node>
	<node id="-303951" lat="60.4584472252" lon="11.3929750045">
		<tag k="name" v="Finsbråtemyra" />
		<tag k="natural" v="wetland" />
		<tag k="ssr:stedsnr" v="422289" />
	</node>
	<node id="-303949" lat="60.4172888853" lon="11.3776972234">
		<tag k="name" v="Vivangmyra" />
		<tag k="natural" v="wetland" />
		<tag k="ssr:stedsnr" v="422245" />
	</node>
	<node id="-303948" lat="60.4328333359" lon="11.4117861161">
		<tag k="name" v="Håkonsmyra" />
		<tag k="natural" v="wetland" />
		<tag k="ssr:stedsnr" v="422241" />
	</node>
	<node id="-303947" lat="60.4342888849" lon="11.3646361148">
		<tag k="name" v="Sandkornmyra" />
		<tag k="natural" v="wetland" />
		<tag k="ssr:stedsnr" v="422237" />
	</node>
	<node id="-303946" lat="60.4735777783" lon="11.7508666693">
		<tag k="name" v="Vakkerholtet" />
		<tag k="place" v="locality" />
		<tag k="ssr:stedsnr" v="421915" />
	</node>
	<node id="-303943" lat="60.4651388871" lon="11.6825583298">
		<tag k="name" v="Stannarholmyra" />
		<tag k="natural" v="wetland" />
		<tag k="ssr:stedsnr" v="421894" />
	</node>
	<node id="-303942" lat="60.4321916689" lon="11.539433331">
		<tag k="name" v="Tordøsset" />
		<tag k="natural" v="wetland" />
		<tag k="ssr:stedsnr" v="421365" />
	</node>
	<node id="-303938" lat="60.4464055517" lon="11.5074166666">
		<tag k="name" v="Moajordet" />
		<tag k="place" v="locality" />
		<tag k="ssr:stedsnr" v="419956" />
	</node>
	<node id="-303932" lat="60.5084416675" lon="11.5243333289">
		<tag k="name" v="Trebergsmyra" />
		<tag k="natural" v="wetland" />
		<tag k="ssr:stedsnr" v="419569" />
	</node>
	<node id="-303928" lat="60.4179055515" lon="11.5650666619">
		<tag k="name" v="Prostbråten" />
		<tag k="place" v="locality" />
		<tag k="ssr:stedsnr" v="419362" />
	</node>
	<node id="-303922" lat="60.5080583296" lon="11.5521527789">
		<tag k="name" v="Kroktjennsmyra" />
		<tag k="natural" v="wetland" />
		<tag k="ssr:stedsnr" v="411835" />
	</node>
	<node id="-303919" lat="60.4195444417" lon="11.6767305566">
		<tag k="name" v="Tjennsholen" />
		<tag k="place" v="locality" />
		<tag k="ssr:stedsnr" v="411230" />
	</node>
	<node id="-303918" lat="60.4293444422" lon="11.5386888938">
		<tag k="name" v="Gartjennsmyra" />
		<tag k="natural" v="wetland" />
		<tag k="ssr:stedsnr" v="411211" />
	</node>
	<node id="-303907" lat="60.5002055563" lon="11.5486416723">
		<tag k="name" v="Søndre Tømmermyra" />
		<tag k="natural" v="wetland" />
		<tag k="ssr:stedsnr" v="406795" />
	</node>
	<node id="-303906" lat="60.3575305542" lon="11.5240305587">
		<tag k="name" v="Kulpmyra" />
		<tag k="natural" v="wetland" />
		<tag k="ssr:stedsnr" v="406639" />
	</node>
	<node id="-303905" lat="60.4886305545" lon="11.6231500045">
		<tag k="name" v="Fuglhyttmyra" />
		<tag k="natural" v="wetland" />
		<tag k="ssr:stedsnr" v="406480" />
	</node>
	<node id="-303900" lat="60.4992222184" lon="11.6455888949">
		<tag k="name" v="Ringfløyta" />
		<tag k="natural" v="wetland" />
		<tag k="ssr:stedsnr" v="406080" />
	</node>
	<node id="-303899" lat="60.4109805533" lon="11.4697777795">
		<tag k="name" v="Bjørnstadmyra" />
		<tag k="natural" v="wetland" />
		<tag k="ssr:stedsnr" v="405982" />
	</node>
	<node id="-303890" lat="60.3167333329" lon="11.5551888829">
		<tag k="name" v="Den svarte myra" />
		<tag k="natural" v="wetland" />
		<tag k="ssr:stedsnr" v="404799" />
	</node>
	<node id="-303889" lat="60.3333222229" lon="11.534608334">
		<tag k="historic" v="shieling" />
		<tag k="name" v="Svarverudsætra" />
		<tag k="place" v="locality" />
		<tag k="ssr:stedsnr" v="404779" />
	</node>
	<node id="-303876" lat="60.4204000027" lon="11.5712250077">
		<tag k="name" v="Kloppmyra" />
		<tag k="natural" v="wetland" />
		<tag k="ssr:stedsnr" v="370865" />
	</node>
	<node id="-303871" lat="60.4660999989" lon="11.5969000082">
		<tag k="name" v="Spitmyra" />
		<tag k="natural" v="wetland" />
		<tag k="ssr:stedsnr" v="370812" />
	</node>
	<node id="-303866" lat="60.4387777795" lon="11.8119499953">
		<tag k="name" v="Salmyrene" />
		<tag k="natural" v="wetland" />
		<tag k="ssr:stedsnr" v="370772" />
	</node>
	<node id="-303849" lat="60.5050055579" lon="11.7292749944">
		<tag k="name" v="Grevlingholen" />
		<tag k="place" v="locality" />
		<tag k="ssr:stedsnr" v="362923" />
	</node>
	<node id="-303848" lat="60.4813888855" lon="11.7211055493">
		<tag k="name" v="Ershaugmyra" />
		<tag k="natural" v="wetland" />
		<tag k="ssr:stedsnr" v="362905" />
	</node>
	<node id="-303847" lat="60.4313138908" lon="11.7174083419">
		<tag k="name" v="Den søndre Orrleikmyra" />
		<tag k="natural" v="wetland" />
		<tag k="ssr:stedsnr" v="362861" />
	</node>
	<node id="-303846" lat="60.4391055593" lon="11.7136500042">
		<tag k="name" v="Den bratte myra" />
		<tag k="natural" v="wetland" />
		<tag k="ssr:stedsnr" v="362860" />
	</node>
	<node id="-303842" lat="60.3768388856" lon="11.51605834">
		<tag k="name" v="Fålåmyra" />
		<tag k="natural" v="wetland" />
		<tag k="ssr:stedsnr" v="362588" />
	</node>
	<node id="-303836" lat="60.4442194471" lon="11.4126805524">
		<tag k="name" v="Østre Smalmyra" />
		<tag k="natural" v="wetland" />
		<tag k="ssr:stedsnr" v="361316" />
	</node>
	<node id="-303835" lat="60.4487777784" lon="11.3774944394">
		<tag k="name" v="Korsgranmyra" />
		<tag k="natural" v="wetland" />
		<tag k="ssr:stedsnr" v="361310" />
	</node>
	<node id="-303834" lat="60.4038722231" lon="11.3973666666">
		<tag k="name" v="Tempelsætermyra" />
		<tag k="natural" v="wetland" />
		<tag k="ssr:stedsnr" v="361299" />
	</node>
	<node id="-303831" lat="60.4403749977" lon="11.3918944418">
		<tag k="name" v="Spelmyra" />
		<tag k="natural" v="wetland" />
		<tag k="ssr:stedsnr" v="361291" />
	</node>
	<node id="-303828" lat="60.5235666657" lon="11.6526194503">
		<tag k="name" v="Blauthølet" />
		<tag k="natural" v="wetland" />
		<tag k="ssr:stedsnr" v="360929" />
	</node>
	<node id="-303827" lat="60.4940333324" lon="11.6797749923">
		<tag k="name" v="Fuglmyra" />
		<tag k="natural" v="wetland" />
		<tag k="ssr:stedsnr" v="360900" />
	</node>
	<node id="-303826" lat="60.4798305595" lon="11.6790999978">
		<tag k="name" v="Gråbeinholene" />
		<tag k="place" v="locality" />
		<tag k="ssr:stedsnr" v="360898" />
	</node>
	<node id="-303825" lat="60.4774500005" lon="11.4442277689">
		<tag k="name" v="Bjønnskyggen" />
		<tag k="place" v="locality" />
		<tag k="ssr:stedsnr" v="360894" />
	</node>
	<node id="-303822" lat="60.3458499991" lon="11.5832416601">
		<tag k="name" v="Svinrotmyra" />
		<tag k="natural" v="wetland" />
		<tag k="ssr:stedsnr" v="360783" />
	</node>
	<node id="-303802" lat="60.3899388862" lon="11.3964750082">
		<tag k="name" v="Treungstjennsmyra" />
		<tag k="natural" v="wetland" />
		<tag k="ssr:stedsnr" v="350851" />
	</node>
	<node id="-303793" lat="60.479638889" lon="11.478230555">
		<tag k="name" v="Tordøsset" />
		<tag k="natural" v="wetland" />
		<tag k="ssr:stedsnr" v="345897" />
	</node>
	<node id="-303791" lat="60.5035194445" lon="11.5486166594">
		<tag k="name" v="Nordre Tømmermyra" />
		<tag k="natural" v="wetland" />
		<tag k="ssr:stedsnr" v="345779" />
	</node>
	<node id="-303790" lat="60.3135472218" lon="11.5183055471">
		<tag k="name" v="Grenisætermyra" />
		<tag k="natural" v="wetland" />
		<tag k="ssr:stedsnr" v="345684" />
	</node>
	<node id="-303789" lat="60.4291388929" lon="11.373469437">
		<tag k="name" v="Nordre Engerfjellmyra" />
		<tag k="natural" v="wetland" />
		<tag k="ssr:stedsnr" v="345588" />
	</node>
	<node id="-303788" lat="60.4559138862" lon="11.5726666719">
		<tag k="name" v="Sætermyra" />
		<tag k="natural" v="wetland" />
		<tag k="ssr:stedsnr" v="345465" />
	</node>
	<node id="-303784" lat="60.3671666665" lon="11.4363888856">
		<tag k="name" v="Høgmyra" />
		<tag k="natural" v="wetland" />
		<tag k="ssr:stedsnr" v="345644" />
	</node>
	<node id="-303783" lat="60.3467055591" lon="11.468324995">
		<tag k="name" v="Langveggdalsmyra" />
		<tag k="natural" v="wetland" />
		<tag k="ssr:stedsnr" v="345636" />
	</node>
	<node id="-303780" lat="60.4834222262" lon="11.5757888943">
		<tag k="historic" v="shieling" />
		<tag k="name" v="Knappersætra" />
		<tag k="place" v="locality" />
		<tag k="ssr:stedsnr" v="345101" />
	</node>
	<node id="-303772" lat="60.3297472254" lon="11.5493638826">
		<tag k="name" v="Sætermyra" />
		<tag k="natural" v="wetland" />
		<tag k="ssr:stedsnr" v="343868" />
	</node>
	<node id="-303771" lat="60.3287527745" lon="11.5331027752">
		<tag k="name" v="Østre Brennbergsmyra" />
		<tag k="natural" v="wetland" />
		<tag k="ssr:stedsnr" v="343867" />
	</node>
	<node id="-303729" lat="60.432974996" lon="11.7306055584">
		<tag k="name" v="Sætermyra" />
		<tag k="natural" v="wetland" />
		<tag k="ssr:stedsnr" v="301870" />
	</node>
	<node id="-303723" lat="60.3684333321" lon="11.7955666741">
		<tag k="name" v="Arnemyra" />
		<tag k="natural" v="wetland" />
		<tag k="ssr:stedsnr" v="301564" />
	</node>
	<node id="-303719" lat="60.3445416682" lon="11.5673972135">
		<tag k="name" v="Torslimyra" />
		<tag k="natural" v="wetland" />
		<tag k="ssr:stedsnr" v="300796" />
	</node>
	<node id="-303712" lat="60.4087249992" lon="11.7060222264">
		<tag k="name" v="Krokmyra" />
		<tag k="natural" v="wetland" />
		<tag k="ssr:stedsnr" v="188853" />
	</node>
	<node id="-303697" lat="60.4169277806" lon="11.730347221">
		<tag k="name" v="Trekkoppbakkmyra" />
		<tag k="natural" v="wetland" />
		<tag k="ssr:stedsnr" v="180831" />
	</node>
	<node id="-303696" lat="60.4298555552" lon="11.7334333297">
		<tag k="name" v="Sætermyra" />
		<tag k="natural" v="wetland" />
		<tag k="ssr:stedsnr" v="180830" />
	</node>
	<node id="-303695" lat="60.3869416641" lon="11.4669777767">
		<tag k="name" v="Høymyra" />
		<tag k="natural" v="wetland" />
		<tag k="ssr:stedsnr" v="180592" />
	</node>
	<node id="-303683" lat="60.4544138927" lon="11.4532583255">
		<tag k="name" v="Vestby-Stormyra" />
		<tag k="natural" v="wetland" />
		<tag k="ssr:stedsnr" v="176951" />
	</node>
	<node id="-303682" lat="60.454136111" lon="11.5264833322">
		<tag k="name" v="Fløytbråtemyra" />
		<tag k="natural" v="wetland" />
		<tag k="ssr:stedsnr" v="176892" />
	</node>
	<node id="-303680" lat="60.4813638879" lon="11.473141662">
		<tag k="name" v="Jammerhølmyra" />
		<tag k="natural" v="wetland" />
		<tag k="ssr:stedsnr" v="176827" />
	</node>
	<node id="-303677" lat="60.5000166712" lon="11.4762111054">
		<tag k="name" v="Nordre Koimyra" />
		<tag k="natural" v="wetland" />
		<tag k="ssr:stedsnr" v="176602" />
	</node>
	<node id="-303671" lat="60.4992388916" lon="11.4414027696">
		<tag k="name" v="Kjølmyra" />
		<tag k="natural" v="wetland" />
		<tag k="ssr:stedsnr" v="176371" />
	</node>
	<node id="-303670" lat="60.4151805593" lon="11.5417111069">
		<tag k="name" v="Røymyra" />
		<tag k="natural" v="wetland" />
		<tag k="ssr:stedsnr" v="176340" />
	</node>
	<node id="-303659" lat="60.429922225" lon="11.4496027772">
		<tag k="name" v="Tjirugrovmyra" />
		<tag k="natural" v="wetland" />
		<tag k="ssr:stedsnr" v="163981" />
	</node>
	<node id="-303651" lat="60.4065444448" lon="11.4155138912">
		<tag k="name" v="Nordre Kloppmyra" />
		<tag k="natural" v="wetland" />
		<tag k="ssr:stedsnr" v="162532" />
	</node>
	<node id="-303648" lat="60.3173138929" lon="11.5850416735">
		<tag k="name" v="Pølsemyra" />
		<tag k="natural" v="wetland" />
		<tag k="ssr:stedsnr" v="161819" />
	</node>
	<node id="-303647" lat="60.3380944405" lon="11.5708527768">
		<tag k="name" v="Størrmyra" />
		<tag k="natural" v="wetland" />
		<tag k="ssr:stedsnr" v="161781" />
	</node>
	<node id="-303644" lat="60.4375999978" lon="11.5430555576">
		<tag k="name" v="Stormyra" />
		<tag k="natural" v="wetland" />
		<tag k="ssr:stedsnr" v="161389" />
	</node>
	<node id="-303636" lat="60.5692388874" lon="11.5845555477">
		<tag k="name" v="Sandholmyrene" />
		<tag k="natural" v="wetland" />
		<tag k="ssr:stedsnr" v="128120" />
	</node>
	<node id="-303629" lat="60.3538749963" lon="11.5276472229">
		<tag k="alt_name" v="Illgosæterstormyra" />
		<tag k="name" v="Stormyra" />
		<tag k="natural" v="wetland" />
		<tag k="ssr:stedsnr" v="127890" />
	</node>
	<node id="-303626" lat="60.4314555563" lon="11.7079500085">
		<tag k="name" v="Skobrennmyra" />
		<tag k="natural" v="wetland" />
		<tag k="ssr:stedsnr" v="127876" />
	</node>
	<node id="-303624" lat="60.4201999984" lon="11.817733327">
		<tag k="alt_name" v="Nysætermyrene" />
		<tag k="name" v="Nysætermyra" />
		<tag k="natural" v="wetland" />
		<tag k="ssr:stedsnr" v="127862" />
	</node>
	<node id="-303612" lat="60.5005805548" lon="11.7102861127">
		<tag k="name" v="Rokkestrutmyra" />
		<tag k="natural" v="wetland" />
		<tag k="ssr:stedsnr" v="119935" />
	</node>
	<node id="-303610" lat="60.4715361084" lon="11.3538083375">
		<tag k="name" v="Kjøsfallmyra" />
		<tag k="natural" v="wetland" />
		<tag k="ssr:stedsnr" v="119920" />
	</node>
	<node id="-303607" lat="60.3782944465" lon="11.4865777868">
		<tag k="name" v="Trondhjemsmyra" />
		<tag k="natural" v="wetland" />
		<tag k="ssr:stedsnr" v="119612" />
	</node>
	<node id="-303606" lat="60.4455055583" lon="11.7621694516">
		<tag k="name" v="Hundbysætermyra" />
		<tag k="natural" v="wetland" />
		<tag k="ssr:stedsnr" v="118851" />
	</node>
	<node id="-303605" lat="60.4528166696" lon="11.7166305518">
		<tag k="name" v="Den kløyvde stein" />
		<tag k="natural" v="stone" />
		<tag k="ssr:stedsnr" v="118844" />
	</node>
	<node id="-303604" lat="60.5087527818" lon="11.6506666723">
		<tag k="name" v="Bjønnmyra" />
		<tag k="natural" v="wetland" />
		<tag k="ssr:stedsnr" v="118928" />
	</node>
	<node id="-303599" lat="60.4616111108" lon="11.3886416614">
		<tag k="name" v="Eftasmyrene" />
		<tag k="natural" v="wetland" />
		<tag k="ssr:stedsnr" v="118284" />
	</node>
	<node id="-303596" lat="60.4543305568" lon="11.3724277854">
		<tag k="name" v="Vegmyra" />
		<tag k="natural" v="wetland" />
		<tag k="ssr:stedsnr" v="118256" />
	</node>
	<node id="-303593" lat="60.4627361129" lon="11.7381638836">
		<tag k="name" v="Krullergrandøsset" />
		<tag k="natural" v="wetland" />
		<tag k="ssr:stedsnr" v="117895" />
	</node>
	<node id="-303590" lat="60.4525250043" lon="11.5139583287">
		<tag k="name" v="Sameigmyra" />
		<tag k="natural" v="wetland" />
		<tag k="ssr:stedsnr" v="116895" />
	</node>
	<node id="-303586" lat="60.3595611102" lon="11.4915583314">
		<tag k="name" v="Geitmyra" />
		<tag k="natural" v="wetland" />
		<tag k="ssr:stedsnr" v="116656" />
	</node>
	<node id="-303578" lat="60.4727666686" lon="11.5645805603">
		<tag k="name" v="Orrleikmyra" />
		<tag k="natural" v="wetland" />
		<tag k="ssr:stedsnr" v="116499" />
	</node>
	<node id="-303570" lat="60.4792722197" lon="11.5551333359">
		<tag k="name" v="Blokktjennsmyra" />
		<tag k="natural" v="wetland" />
		<tag k="ssr:stedsnr" v="108570" />
	</node>
	<node id="-303557" lat="60.3268750009" lon="11.483061103">
		<tag k="name" v="Orrmyra" />
		<tag k="natural" v="wetland" />
		<tag k="ssr:stedsnr" v="103665" />
	</node>
	<node id="-303554" lat="60.4780111148" lon="11.4993055588">
		<tag k="name" v="Den kløyvde stein" />
		<tag k="natural" v="stone" />
		<tag k="ssr:stedsnr" v="102911" />
	</node>
	<node id="-303553" lat="60.4795305597" lon="11.5049611068">
		<tag k="name" v="Stormyra" />
		<tag k="natural" v="wetland" />
		<tag k="ssr:stedsnr" v="102908" />
	</node>
	<node id="-303549" lat="60.3922388902" lon="11.4284861079">
		<tag k="name" v="Søndre Bjertbergmyra" />
		<tag k="natural" v="wetland" />
		<tag k="ssr:stedsnr" v="102584" />
	</node>
	<node id="-303547" lat="60.5251333305" lon="11.5962805627">
		<tag k="name" v="Langmyra" />
		<tag k="natural" v="wetland" />
		<tag k="ssr:stedsnr" v="102161" />
	</node>
	<node id="-303542" lat="60.4939638922" lon="11.5765916615">
		<tag k="name" v="Namnlausmyra" />
		<tag k="natural" v="wetland" />
		<tag k="ssr:stedsnr" v="102088" />
	</node>
	<node id="-303538" lat="60.3206472227" lon="11.5803888942">
		<tag k="name" v="Hemsætermyra" />
		<tag k="natural" v="wetland" />
		<tag k="ssr:stedsnr" v="101838" />
	</node>
	<node id="-303526" lat="60.3567249979" lon="11.4725527755">
		<tag k="name" v="Granmyra" />
		<tag k="natural" v="wetland" />
		<tag k="ssr:stedsnr" v="67876" />
	</node>
	<node id="-303511" lat="60.4469361094" lon="11.7099555529">
		<tag k="name" v="Trettmyrene" />
		<tag k="natural" v="wetland" />
		<tag k="ssr:stedsnr" v="66766" />
	</node>
	<node id="-303508" lat="60.3704249971" lon="11.4738500069">
		<tag k="name" v="Tuvmyra" />
		<tag k="natural" v="wetland" />
		<tag k="ssr:stedsnr" v="59598" />
	</node>
	<node id="-303507" lat="60.3843277769" lon="11.4409333284">
		<tag k="name" v="Fjørhanamyra" />
		<tag k="natural" v="wetland" />
		<tag k="ssr:stedsnr" v="59596" />
	</node>
	<node id="-303503" lat="60.4968638931" lon="11.7233277804">
		<tag k="name" v="Vassmyra" />
		<tag k="natural" v="wetland" />
		<tag k="ssr:stedsnr" v="58930" />
	</node>
	<node id="-303501" lat="60.4720722265" lon="11.3709833302">
		<tag k="name" v="Huggufurumyra" />
		<tag k="natural" v="wetland" />
		<tag k="ssr:stedsnr" v="58343" />
	</node>
	<node id="-303498" lat="60.4467277764" lon="11.3652999977">
		<tag k="name" v="Hårkleivmyra" />
		<tag k="natural" v="wetland" />
		<tag k="ssr:stedsnr" v="58317" />
	</node>
	<node id="-303490" lat="60.4448194436" lon="11.7333166603">
		<tag k="name" v="Dansarhella" />
		<tag k="place" v="locality" />
		<tag k="ssr:stedsnr" v="57859" />
	</node>
	<node id="-303488" lat="60.3463138917" lon="11.5439861174">
		<tag k="name" v="Rundmyra" />
		<tag k="natural" v="wetland" />
		<tag k="ssr:stedsnr" v="57794" />
	</node>
	<node id="-303486" lat="60.4505805595" lon="11.7890249947">
		<tag k="name" v="Nordgardssætermyra" />
		<tag k="natural" v="wetland" />
		<tag k="ssr:stedsnr" v="57589" />
	</node>
	<node id="-303479" lat="60.3819138909" lon="11.7232444534">
		<tag k="name" v="Bankbråten" />
		<tag k="place" v="locality" />
		<tag k="ssr:stedsnr" v="57194" />
	</node>
	<node id="-303472" lat="60.4049305535" lon="11.7602416582">
		<tag k="name" v="Bergsætermyra" />
		<tag k="natural" v="wetland" />
		<tag k="ssr:stedsnr" v="55793" />
	</node>
	<node id="-303468" lat="60.5154000002" lon="11.5136555563">
		<tag k="name" v="Mattisdammyra" />
		<tag k="natural" v="wetland" />
		<tag k="ssr:stedsnr" v="55546" />
	</node>
	<node id="-303465" lat="60.4983749991" lon="11.4935333244">
		<tag k="name" v="Andersbråten" />
		<tag k="place" v="locality" />
		<tag k="ssr:stedsnr" v="55597" />
	</node>
	<node id="-303464" lat="60.4069361143" lon="11.5393083391">
		<tag k="name" v="Langmyra" />
		<tag k="natural" v="wetland" />
		<tag k="ssr:stedsnr" v="55341" />
	</node>
	<node id="-303451" lat="60.4675416691" lon="11.5746111064">
		<tag k="name" v="Geittjennsholene" />
		<tag k="place" v="locality" />
		<tag k="ssr:stedsnr" v="47084" />
	</node>
	<node id="-303442" lat="60.4723444404" lon="11.4918777794">
		<tag k="name" v="Bjønnbråten" />
		<tag k="place" v="locality" />
		<tag k="ssr:stedsnr" v="42855" />
	</node>
	<node id="-303441" lat="60.3234222262" lon="11.4859472298">
		<tag k="name" v="De store myrene" />
		<tag k="natural" v="wetland" />
		<tag k="ssr:stedsnr" v="42633" />
	</node>
	<node id="-303440" lat="60.3539833325" lon="11.4687444394">
		<tag k="name" v="Busmyra" />
		<tag k="natural" v="wetland" />
		<tag k="ssr:stedsnr" v="42626" />
	</node>
	<node id="-303439" lat="60.3379861154" lon="11.4689583271">
		<tag k="name" v="Høgmyra" />
		<tag k="natural" v="wetland" />
		<tag k="ssr:stedsnr" v="42618" />
	</node>
	<node id="-303435" lat="60.4313750043" lon="11.4642722279">
		<tag k="name" v="Størrmyra" />
		<tag k="natural" v="wetland" />
		<tag k="ssr:stedsnr" v="41988" />
	</node>
	<node id="-303431" lat="60.3348944477" lon="11.4665527723">
		<tag k="name" v="Det vestre Størrhølet" />
		<tag k="natural" v="wetland" />
		<tag k="ssr:stedsnr" v="41697" />
	</node>
	<node id="-303430" lat="60.334516668" lon="11.4602444501">
		<tag k="name" v="Steinsjøbrauta" />
		<tag k="place" v="locality" />
		<tag k="ssr:stedsnr" v="41696" />
	</node>
	<node id="-303427" lat="60.4692611082" lon="11.45471944">
		<tag k="name" v="Elmyra" />
		<tag k="natural" v="wetland" />
		<tag k="ssr:stedsnr" v="40937" />
	</node>
	<node id="-303426" lat="60.3303805584" lon="11.5312222193">
		<tag k="name" v="Brennbergsmyra" />
		<tag k="natural" v="wetland" />
		<tag k="ssr:stedsnr" v="40849" />
	</node>
	<node id="-303407" lat="60.4149583303" lon="11.4230750001">
		<tag k="historic" v="shieling" />
		<tag k="name" v="Føskersætra" />
		<tag k="place" v="locality" />
		<tag k="ssr:stedsnr" v="6509" />
	</node>
	<node id="-303392" lat="60.4916194458" lon="11.7417222286">
		<tag k="name" v="Gammelstuggumyra" />
		<tag k="natural" v="wetland" />
		<tag k="ssr:stedsnr" v="968925" />
	</node>
	<node id="-303389" lat="60.4336972224" lon="11.3704166707">
		<tag k="name" v="Tittutmyra" />
		<tag k="natural" v="wetland" />
		<tag k="ssr:stedsnr" v="968277" />
	</node>
	<node id="-303387" lat="60.4602055588" lon="11.757750007">
		<tag k="name" v="Gjeinmyra" />
		<tag k="natural" v="wetland" />
		<tag k="ssr:stedsnr" v="967875" />
	</node>
	<node id="-303386" lat="60.474902774" lon="11.6705194484">
		<tag k="name" v="Krakamyra" />
		<tag k="natural" v="wetland" />
		<tag k="ssr:stedsnr" v="967870" />
	</node>
	<node id="-303385" lat="60.4698111081" lon="11.6708055511">
		<tag k="name" v="Lia" />
		<tag k="place" v="locality" />
		<tag k="ssr:stedsnr" v="967867" />
	</node>
	<node id="-303378" lat="60.407183332" lon="11.7393361103">
		<tag k="name" v="Husmannssætermyrene" />
		<tag k="natural" v="wetland" />
		<tag k="ssr:stedsnr" v="965815" />
	</node>
	<node id="-303373" lat="60.4184583365" lon="11.5485277826">
		<tag k="name" v="Sætermyra" />
		<tag k="natural" v="wetland" />
		<tag k="ssr:stedsnr" v="965371" />
	</node>
	<node id="-303371" lat="60.4035861149" lon="11.4465833251">
		<tag k="name" v="Høymyra" />
		<tag k="natural" v="wetland" />
		<tag k="ssr:stedsnr" v="951524" />
	</node>
	<node id="-303370" lat="60.5468972225" lon="11.645816669">
		<tag k="name" v="Den langsmale myra" />
		<tag k="natural" v="wetland" />
		<tag k="ssr:stedsnr" v="951157" />
	</node>
	<node id="-303360" lat="60.4190250018" lon="11.7605777757">
		<tag k="alt_name" v="Elgsjømyrene" />
		<tag k="name" v="Elgsjømyra" />
		<tag k="natural" v="wetland" />
		<tag k="ssr:stedsnr" v="916863" />
	</node>
	<node id="-303353" lat="60.4415777822" lon="11.7629166668">
		<tag k="name" v="Sildbekkmyra" />
		<tag k="natural" v="wetland" />
		<tag k="ssr:stedsnr" v="907828" />
	</node>
	<node id="-303352" lat="60.3974916645" lon="11.397308328">
		<tag k="historic" v="shieling" />
		<tag k="name" v="Botshaugsætervangen" />
		<tag k="place" v="locality" />
		<tag k="ssr:stedsnr" v="907336" />
	</node>
	<node id="-303350" lat="60.4696916653" lon="11.7190916719">
		<tag k="historic" v="shieling" />
		<tag k="name" v="Nysætra" />
		<tag k="place" v="locality" />
		<tag k="ssr:stedsnr" v="906905" />
	</node>
	<node id="-303348" lat="60.4417194403" lon="11.5181833356">
		<tag k="name" v="Svinmyra" />
		<tag k="natural" v="wetland" />
		<tag k="ssr:stedsnr" v="905972" />
	</node>
	<node id="-303346" lat="60.4501555518" lon="11.4306138916">
		<tag k="name" v="Bergebråtemyra" />
		<tag k="natural" v="wetland" />
		<tag k="ssr:stedsnr" v="905958" />
	</node>
	<node id="-303345" lat="60.4434111157" lon="11.4178611081">
		<tag k="name" v="Raudmosemyrholen" />
		<tag k="place" v="locality" />
		<tag k="ssr:stedsnr" v="905956" />
	</node>
	<node id="-303338" lat="60.4679999958" lon="11.5402250056">
		<tag k="name" v="Sæterbergsdøsset" />
		<tag k="natural" v="wetland" />
		<tag k="ssr:stedsnr" v="905516" />
	</node>
	<node id="-303336" lat="60.3790944479" lon="11.7171944456">
		<tag k="name" v="Kaldalsmyra" />
		<tag k="natural" v="wetland" />
		<tag k="ssr:stedsnr" v="905222" />
	</node>
	<node id="-303328" lat="60.5009888878" lon="11.6208166622">
		<tag k="name" v="Stormyra" />
		<tag k="natural" v="wetland" />
		<tag k="ssr:stedsnr" v="891110" />
	</node>
	<node id="-303327" lat="60.491666664" lon="11.559541671">
		<tag k="name" v="Lunnmyra" />
		<tag k="natural" v="wetland" />
		<tag k="ssr:stedsnr" v="891107" />
	</node>
	<node id="-304505" lat="60.4142333299" lon="11.6931472275">
		<tag k="name" v="Tømmermyra" />
		<tag k="natural" v="wetland" />
		<tag k="ssr:stedsnr" v="969801" />
	</node>
	<node id="-303310" lat="60.4260416653" lon="11.6560055603">
		<tag k="name" v="Bekkemyra" />
		<tag k="natural" v="wetland" />
		<tag k="ssr:stedsnr" v="848825" />
	</node>
	<node id="-303307" lat="60.5253555512" lon="11.6639999989">
		<tag k="historic" v="shieling" />
		<tag k="name" v="Skyrudsætra" />
		<tag k="place" v="locality" />
		<tag k="ssr:stedsnr" v="846924" />
	</node>
	<node id="-303305" lat="60.3444194466" lon="11.4742861028">
		<tag k="name" v="Gruvmyra" />
		<tag k="natural" v="wetland" />
		<tag k="ssr:stedsnr" v="844711" />
	</node>
	<node id="-303304" lat="60.4832805594" lon="11.4661472279">
		<tag k="name" v="Høgbrenna" />
		<tag k="place" v="locality" />
		<tag k="ssr:stedsnr" v="844843" />
	</node>
	<node id="-303302" lat="60.4797454547" lon="11.4219454555">
		<tag k="name" v="Svarttjennsmyra" />
		<tag k="natural" v="wetland" />
		<tag k="ssr:stedsnr" v="836824" />
	</node>
	<node id="-303274" lat="60.4180916632" lon="11.7368083255">
		<tag k="name" v="Arnestein" />
		<tag k="natural" v="stone" />
		<tag k="ssr:stedsnr" v="787818" />
	</node>
	<node id="-303271" lat="60.373116671" lon="11.5199361167">
		<tag k="name" v="Umannsmyra" />
		<tag k="natural" v="wetland" />
		<tag k="ssr:stedsnr" v="787617" />
	</node>
	<node id="-303262" lat="60.5224722263" lon="11.5518111167">
		<tag k="name" v="Torpmyrene" />
		<tag k="natural" v="wetland" />
		<tag k="ssr:stedsnr" v="917195" />
	</node>
	<node id="-303257" lat="60.4878555532" lon="11.5562805614">
		<tag k="historic" v="shieling" />
		<tag k="name" v="Gørrtjennssætervangen" />
		<tag k="place" v="locality" />
		<tag k="ssr:stedsnr" v="775520" />
	</node>
	<node id="-303248" lat="60.4620361069" lon="11.5159722151">
		<tag k="name" v="Kjelleren" />
		<tag k="place" v="locality" />
		<tag k="ssr:stedsnr" v="770903" />
	</node>
	<node id="-303246" lat="60.3455194471" lon="11.502999995">
		<tag k="name" v="Lokkarmyra" />
		<tag k="natural" v="wetland" />
		<tag k="ssr:stedsnr" v="770661" />
	</node>
	<node id="-303244" lat="60.4962027735" lon="11.5647888832">
		<tag k="name" v="Haraldhøla" />
		<tag k="natural" v="wetland" />
		<tag k="ssr:stedsnr" v="770091" />
	</node>
	<node id="-303243" lat="60.4901194458" lon="11.5369777706">
		<tag k="name" v="Skinnarmyra" />
		<tag k="natural" v="wetland" />
		<tag k="ssr:stedsnr" v="770088" />
	</node>
	<node id="-303241" lat="60.5123638868" lon="11.6190027798">
		<tag k="historic" v="shieling" />
		<tag k="name" v="Holsætra" />
		<tag k="place" v="locality" />
		<tag k="ssr:stedsnr" v="770085" />
	</node>
	<node id="-303238" lat="60.4036944444" lon="11.4163222255">
		<tag k="name" v="Søndre Kloppmyra" />
		<tag k="natural" v="wetland" />
		<tag k="ssr:stedsnr" v="769522" />
	</node>
	<node id="-303237" lat="60.4055555533" lon="11.4374472219">
		<tag k="name" v="Vesle Hansmyra" />
		<tag k="natural" v="wetland" />
		<tag k="ssr:stedsnr" v="769515" />
	</node>
	<node id="-303231" lat="60.4178805514" lon="11.7157444424">
		<tag k="name" v="Bakkesæterdøsset" />
		<tag k="natural" v="wetland" />
		<tag k="ssr:stedsnr" v="908870" />
	</node>
	<node id="-303230" lat="60.3728861103" lon="11.4877027851">
		<tag k="name" v="Kariengmyra" />
		<tag k="natural" v="wetland" />
		<tag k="ssr:stedsnr" v="908635" />
	</node>
	<node id="-303227" lat="60.3713916699" lon="11.8050527728">
		<tag k="name" v="Grinnfallmyra" />
		<tag k="natural" v="wetland" />
		<tag k="ssr:stedsnr" v="908595" />
	</node>
	<node id="-303212" lat="60.4331055544" lon="11.7673861091">
		<tag k="name" v="Veivmyra" />
		<tag k="natural" v="wetland" />
		<tag k="ssr:stedsnr" v="907516" />
	</node>
	<node id="-303206" lat="60.338688891" lon="11.5746333257">
		<tag k="name" v="Tømmerholen" />
		<tag k="place" v="locality" />
		<tag k="ssr:stedsnr" v="907751" />
	</node>
	<node id="-303204" lat="60.4839111132" lon="11.3707833397">
		<tag k="name" v="Hellmyra" />
		<tag k="natural" v="wetland" />
		<tag k="ssr:stedsnr" v="907292" />
	</node>
	<node id="-303203" lat="60.4801027766" lon="11.3640694365">
		<tag k="name" v="Nysætermyra" />
		<tag k="natural" v="wetland" />
		<tag k="ssr:stedsnr" v="907291" />
	</node>
	<node id="-303201" lat="60.4922638868" lon="11.402149992">
		<tag k="name" v="Hedemarksmyra" />
		<tag k="natural" v="wetland" />
		<tag k="ssr:stedsnr" v="907272" />
	</node>
	<node id="-303199" lat="60.453955555" lon="11.4040194429">
		<tag k="name" v="Taska" />
		<tag k="place" v="locality" />
		<tag k="ssr:stedsnr" v="907243" />
	</node>
	<node id="-303186" lat="60.5013750034" lon="11.4642333357">
		<tag k="name" v="Stygghølmyra" />
		<tag k="natural" v="wetland" />
		<tag k="ssr:stedsnr" v="904395" />
	</node>
	<node id="-303184" lat="60.447141667" lon="11.6888027772">
		<tag k="historic" v="shieling" />
		<tag k="name" v="Høymyrbakken" />
		<tag k="place" v="locality" />
		<tag k="ssr:stedsnr" v="906883" />
	</node>
	<node id="-303178" lat="60.3463861087" lon="11.5541305638">
		<tag k="name" v="Haramyra" />
		<tag k="natural" v="wetland" />
		<tag k="ssr:stedsnr" v="725758" />
	</node>
	<node id="-303175" lat="60.3890555558" lon="11.4038777706">
		<tag k="name" v="Nordre Steinsjømyra" />
		<tag k="natural" v="wetland" />
		<tag k="ssr:stedsnr" v="725353" />
	</node>
	<node id="-303170" lat="60.4863444476" lon="11.4410249989">
		<tag k="name" v="Kjakasotmyrene" />
		<tag k="natural" v="wetland" />
		<tag k="ssr:stedsnr" v="723821" />
	</node>
	<node id="-303169" lat="60.4786500007" lon="11.472369437">
		<tag k="name" v="Sørensbråten" />
		<tag k="place" v="locality" />
		<tag k="ssr:stedsnr" v="723816" />
	</node>
	<node id="-303152" lat="60.4890111137" lon="11.348219443">
		<tag k="name" v="Gullimyra" />
		<tag k="natural" v="wetland" />
		<tag k="ssr:stedsnr" v="891973" />
	</node>
	<node id="-303151" lat="60.4684999978" lon="11.5031694477">
		<tag k="name" v="England" />
		<tag k="place" v="locality" />
		<tag k="ssr:stedsnr" v="891900" />
	</node>
	<node id="-303140" lat="60.5197055567" lon="11.6026166699">
		<tag k="name" v="Holmyra" />
		<tag k="natural" v="wetland" />
		<tag k="ssr:stedsnr" v="891165" />
	</node>
	<node id="-303138" lat="60.4821722179" lon="11.5662805494">
		<tag k="name" v="Gammelsætermyra" />
		<tag k="natural" v="wetland" />
		<tag k="ssr:stedsnr" v="891121" />
	</node>
	<node id="-303134" lat="60.4624055519" lon="11.4363138914">
		<tag k="name" v="Fløytlia" />
		<tag k="place" v="locality" />
		<tag k="ssr:stedsnr" v="890934" />
	</node>
	<node id="-303132" lat="60.3353638924" lon="11.5781499959">
		<tag k="name" v="Trollskipet" />
		<tag k="natural" v="stone" />
		<tag k="ssr:stedsnr" v="890859" />
	</node>
	<node id="-304474" lat="60.5138416649" lon="11.5096833401">
		<tag k="name" v="Mattisdamholen" />
		<tag k="place" v="locality" />
		<tag k="ssr:stedsnr" v="965585" />
	</node>
	<node id="-302425" lat="60.4973249956" lon="11.4584277805">
		<tag k="name" v="Langsmale Kjølmyra" />
		<tag k="natural" v="wetland" />
		<tag k="ssr:stedsnr" v="116830" />
	</node>
	<node id="-303124" lat="60.3454833307" lon="11.6064138847">
		<tag k="landuse" v="meadow" />
		<tag k="name" v="Sanderenga" />
		<tag k="ssr:stedsnr" v="889747" />
	</node>
</osm>
