<?xml version="1.0" encoding="UTF-8"?>
<osm generator="osmapis" version="0.6">
	<node changeset="66877579" id="6255747072" lat="59.5431389" lon="11.5863889" timestamp="2019-02-03T14:30:08Z" uid="633013" user="Honning" version="1">
		<tag k="alt_name" v="Kallak nordre" />
		<tag k="name" v="Nordre Kallak" />
		<tag k="place" v="farm" />
		<tag k="ssr:stedsnr" v="112479" />
	</node>
	<node changeset="66877579" id="6255747073" lat="59.6087417" lon="11.5790556" timestamp="2019-02-03T14:30:08Z" uid="633013" user="Honning" version="1">
		<tag k="name" v="Ødegård" />
		<tag k="place" v="farm" />
		<tag k="ssr:stedsnr" v="112911" />
	</node>
	<node changeset="66877579" id="6255747074" lat="59.4061361" lon="11.7287917" timestamp="2019-02-03T14:30:08Z" uid="633013" user="Honning" version="1">
		<tag k="name" v="Solheim" />
		<tag k="place" v="farm" />
		<tag k="ssr:stedsnr" v="294622" />
	</node>
	<node changeset="66877579" id="6255747075" lat="59.5548917" lon="11.586725" timestamp="2019-02-03T14:30:08Z" uid="633013" user="Honning" version="1">
		<tag k="alt_name" v="Toketorp østre" />
		<tag k="name" v="Østre Toketorp" />
		<tag k="place" v="farm" />
		<tag k="ssr:stedsnr" v="113052" />
	</node>
	<node changeset="66877579" id="6255747076" lat="59.6316472" lon="11.6106195" timestamp="2019-02-03T14:30:09Z" uid="633013" user="Honning" version="1">
		<tag k="loc_name" v="Sør Enga" />
		<tag k="name" v="Enga" />
		<tag k="place" v="farm" />
		<tag k="ssr:stedsnr" v="113140" />
	</node>
	<node changeset="66877579" id="6255747077" lat="59.5031861" lon="11.6817333" timestamp="2019-02-03T14:30:09Z" uid="633013" user="Honning" version="1">
		<tag k="name" v="Solberg" />
		<tag k="place" v="isolated_dwelling" />
		<tag k="ssr:stedsnr" v="113248" />
	</node>
	<node changeset="66877579" id="6255747078" lat="59.5085667" lon="11.6563167" timestamp="2019-02-03T14:30:09Z" uid="633013" user="Honning" version="1">
		<tag k="alt_name" v="Berger vestre" />
		<tag k="name" v="Vestre Berger" />
		<tag k="place" v="farm" />
		<tag k="ssr:stedsnr" v="113260" />
	</node>
	<node changeset="66877579" id="6255747079" lat="59.6152361" lon="11.5659556" timestamp="2019-02-03T14:30:09Z" uid="633013" user="Honning" version="1">
		<tag k="name" v="Storløs" />
		<tag k="place" v="farm" />
		<tag k="ssr:stedsnr" v="113516" />
	</node>
	<node changeset="66877579" id="6255747080" lat="59.587875" lon="11.6186861" timestamp="2019-02-03T14:30:09Z" uid="633013" user="Honning" version="1">
		<tag k="name" v="Østre Olerud" />
		<tag k="old_name" v="Orderud østre" />
		<tag k="place" v="farm" />
		<tag k="ssr:stedsnr" v="113729" />
	</node>
	<node changeset="66877579" id="6255747081" lat="59.5913639" lon="11.61545" timestamp="2019-02-03T14:30:09Z" uid="633013" user="Honning" version="1">
		<tag k="name" v="Nordenga" />
		<tag k="place" v="locality" />
		<tag k="ssr:stedsnr" v="113732" />
	</node>
	<node changeset="66877579" id="6255747082" lat="59.4644389" lon="11.6644333" timestamp="2019-02-03T14:30:09Z" uid="633013" user="Honning" version="1">
		<tag k="alt_name" v="Bøen vestre" />
		<tag k="name" v="Vestre Bøen" />
		<tag k="place" v="farm" />
		<tag k="ssr:stedsnr" v="113695" />
	</node>
	<node changeset="66877579" id="6255747083" lat="59.6197333" lon="11.5470167" timestamp="2019-02-03T14:30:09Z" uid="633013" user="Honning" version="1">
		<tag k="name" v="Fokkenborg" />
		<tag k="place" v="farm" />
		<tag k="ssr:stedsnr" v="125303" />
	</node>
	<node changeset="66877579" id="6255747084" lat="59.6223917" lon="11.6208889" timestamp="2019-02-03T14:30:09Z" uid="633013" user="Honning" version="1">
		<tag k="alt_name" v="Tukun" />
		<tag k="name" v="Tukken" />
		<tag k="place" v="farm" />
		<tag k="ssr:stedsnr" v="125308" />
	</node>
	<node changeset="66877579" id="6255747585" lat="59.6354139" lon="11.6105556" timestamp="2019-02-03T14:30:09Z" uid="633013" user="Honning" version="1">
		<tag k="loc_name" v="Nord Åser" />
		<tag k="name" v="Åser" />
		<tag k="place" v="farm" />
		<tag k="ssr:stedsnr" v="125322" />
	</node>
	<node changeset="66877579" id="6255747586" lat="59.5342203" lon="11.634549" timestamp="2019-02-03T14:30:09Z" uid="633013" user="Honning" version="1">
		<tag k="name" v="Måstad" />
		<tag k="place" v="hamlet" />
		<tag k="ssr:stedsnr" v="125417" />
	</node>
	<node changeset="66877579" id="6255747587" lat="59.6130222" lon="11.6419556" timestamp="2019-02-03T14:30:09Z" uid="633013" user="Honning" version="1">
		<tag k="name" v="Tjernsmo" />
		<tag k="place" v="locality" />
		<tag k="ssr:stedsnr" v="120451" />
	</node>
	<node changeset="66877579" id="6255747588" lat="59.4866056" lon="11.7110111" timestamp="2019-02-03T14:30:09Z" uid="633013" user="Honning" version="1">
		<tag k="name" v="Foss" />
		<tag k="place" v="hamlet" />
		<tag k="ssr:stedsnr" v="123615" />
	</node>
	<node changeset="66877579" id="6255747589" lat="59.5002972" lon="11.6337722" timestamp="2019-02-03T14:30:09Z" uid="633013" user="Honning" version="1">
		<tag k="name" v="Stensrud" />
		<tag k="place" v="farm" />
		<tag k="ssr:stedsnr" v="123618" />
	</node>
	<node changeset="66877579" id="6255747590" lat="59.4524083" lon="11.68325" timestamp="2019-02-03T14:30:09Z" uid="633013" user="Honning" version="1">
		<tag k="name" v="Snesrud" />
		<tag k="place" v="farm" />
		<tag k="ssr:stedsnr" v="123665" />
	</node>
	<node changeset="66877579" id="6255747591" lat="59.4455778" lon="11.7584361" timestamp="2019-02-03T14:30:09Z" uid="633013" user="Honning" version="1">
		<tag k="name" v="Grøndal" />
		<tag k="place" v="isolated_dwelling" />
		<tag k="ssr:stedsnr" v="123667" />
	</node>
	<node changeset="66877579" id="6255747592" lat="59.6618972" lon="11.7028194" timestamp="2019-02-03T14:30:09Z" uid="633013" user="Honning" version="1">
		<tag k="alt_name" v="Kroksætra østre;Nedre Krokssetra" />
		<tag k="name" v="Østre Kroksætra" />
		<tag k="place" v="isolated_dwelling" />
		<tag k="ssr:stedsnr" v="124225" />
	</node>
	<node changeset="66877579" id="6255747593" lat="59.5481337" lon="11.5776662" timestamp="2019-02-03T14:30:10Z" uid="633013" user="Honning" version="1">
		<tag k="name" v="Røen" />
		<tag k="place" v="farm" />
		<tag k="ssr:stedsnr" v="124417" />
	</node>
	<node changeset="66877579" id="6255747594" lat="59.5498417" lon="11.6198944" timestamp="2019-02-03T14:30:10Z" uid="633013" user="Honning" version="1">
		<tag k="alt_name" v="Gåseby nordre" />
		<tag k="name" v="Nordre Gåseby" />
		<tag k="place" v="farm" />
		<tag k="ssr:stedsnr" v="124420" />
	</node>
	<node changeset="66877579" id="6255747595" lat="59.4232778" lon="11.7434472" timestamp="2019-02-03T14:30:10Z" uid="633013" user="Honning" version="1">
		<tag k="alt_name" v="Buerskogen" />
		<tag k="name" v="Søndre Buerskogen" />
		<tag k="place" v="farm" />
		<tag k="ssr:stedsnr" v="124439" />
	</node>
	<node changeset="66877579" id="6255747596" lat="59.4223667" lon="11.6725667" timestamp="2019-02-03T14:30:10Z" uid="633013" user="Honning" version="1">
		<tag k="name" v="Sandåker" />
		<tag k="place" v="farm" />
		<tag k="ssr:stedsnr" v="124442" />
	</node>
	<node changeset="66877579" id="6255747597" lat="59.4030611" lon="11.7404555" timestamp="2019-02-03T14:30:10Z" uid="633013" user="Honning" version="1">
		<tag k="name" v="Brekka" />
		<tag k="place" v="farm" />
		<tag k="ssr:stedsnr" v="124491" />
	</node>
	<node changeset="66877579" id="6255747598" lat="59.371175" lon="11.6375222" timestamp="2019-02-03T14:30:10Z" uid="633013" user="Honning" version="1">
		<tag k="name" v="Vestgård" />
		<tag k="place" v="farm" />
		<tag k="ssr:stedsnr" v="124640" />
	</node>
	<node changeset="66877579" id="6255747599" lat="59.5070667" lon="11.6268944" timestamp="2019-02-03T14:30:10Z" uid="633013" user="Honning" version="1">
		<tag k="name" v="Østre Tynnelsrud" />
		<tag k="old_name" v="Tønnelsrud;Tynnelsrud østre" />
		<tag k="place" v="farm" />
		<tag k="ssr:stedsnr" v="125397" />
	</node>
	<node changeset="66877579" id="6255747600" lat="59.5834361" lon="11.5289972" timestamp="2019-02-03T14:30:10Z" uid="633013" user="Honning" version="1">
		<tag k="name" v="Fallet" />
		<tag k="place" v="farm" />
		<tag k="ssr:stedsnr" v="125465" />
	</node>
	<node changeset="66877579" id="6255747601" lat="59.5935361" lon="11.620275" timestamp="2019-02-03T14:30:10Z" uid="633013" user="Honning" version="1">
		<tag k="name" v="Hen" />
		<tag k="old_name" v="Hien" />
		<tag k="place" v="farm" />
		<tag k="ssr:stedsnr" v="125466" />
	</node>
	<node changeset="66877579" id="6255747602" lat="59.5878" lon="11.5211778" timestamp="2019-02-03T14:30:10Z" uid="633013" user="Honning" version="1">
		<tag k="alt_name" v="Fjellengen" />
		<tag k="name" v="Fjellingen" />
		<tag k="place" v="farm" />
		<tag k="ssr:stedsnr" v="125471" />
	</node>
	<node changeset="66877579" id="6255747603" lat="59.5990083" lon="11.5888028" timestamp="2019-02-03T14:30:10Z" uid="633013" user="Honning" version="1">
		<tag k="alt_name" v="Fokerud" />
		<tag k="name" v="Faukerud" />
		<tag k="place" v="farm" />
		<tag k="ssr:stedsnr" v="125484" />
	</node>
	<node changeset="66877579" id="6255747604" lat="59.6058722" lon="11.6160278" timestamp="2019-02-03T14:30:10Z" uid="633013" user="Honning" version="1">
		<tag k="alt_name" v="Svendsby" />
		<tag k="name" v="Svensby" />
		<tag k="place" v="farm" />
		<tag k="ssr:stedsnr" v="125493" />
	</node>
	<node changeset="66877579" id="6255747605" lat="59.3629806" lon="11.6885917" timestamp="2019-02-03T14:30:10Z" uid="633013" user="Honning" version="1">
		<tag k="name" v="Neset" />
		<tag k="place" v="farm" />
		<tag k="ssr:stedsnr" v="172268" />
	</node>
	<node changeset="66877579" id="6255747606" lat="59.3528378" lon="11.6518568" timestamp="2019-02-03T14:30:10Z" uid="633013" user="Honning" version="1">
		<tag k="name" v="Søndre Sambøl" />
		<tag k="place" v="farm" />
		<tag k="ssr:stedsnr" v="172404" />
	</node>
	<node changeset="66877579" id="6255747607" lat="59.5432028" lon="11.5694778" timestamp="2019-02-03T14:30:10Z" uid="633013" user="Honning" version="1">
		<tag k="name" v="Oretaphaugen" />
		<tag k="place" v="farm" />
		<tag k="ssr:stedsnr" v="172518" />
	</node>
	<node changeset="66877579" id="6255747608" lat="59.6249333" lon="11.6238083" timestamp="2019-02-03T14:30:10Z" uid="633013" user="Honning" version="1">
		<tag k="alt_name" v="Tukken nordre" />
		<tag k="name" v="Nordre Tukken" />
		<tag k="place" v="farm" />
		<tag k="ssr:stedsnr" v="173115" />
	</node>
	<node changeset="66877579" id="6255747609" lat="59.55625" lon="11.5838889" timestamp="2019-02-03T14:30:11Z" uid="633013" user="Honning" version="1">
		<tag k="alt_name" v="Toketorp vestre" />
		<tag k="name" v="Vestre Toketorp" />
		<tag k="place" v="locality" />
		<tag k="ssr:stedsnr" v="173053" />
	</node>
	<node changeset="66877579" id="6255747610" lat="59.5057139" lon="11.6538139" timestamp="2019-02-03T14:30:11Z" uid="633013" user="Honning" version="1">
		<tag k="name" v="Ertevik" />
		<tag k="place" v="locality" />
		<tag k="ssr:stedsnr" v="173189" />
	</node>
	<node changeset="66877579" id="6255747611" lat="59.5763139" lon="11.5379111" timestamp="2019-02-03T14:30:11Z" uid="633013" user="Honning" version="1">
		<tag k="alt_name" v="Ådalsfoss nedre" />
		<tag k="name" v="Nedre Ådalsfoss" />
		<tag k="place" v="locality" />
		<tag k="ssr:stedsnr" v="173207" />
	</node>
	<node changeset="66877579" id="6255747612" lat="59.5397" lon="11.6619528" timestamp="2019-02-03T14:30:11Z" uid="633013" user="Honning" version="1">
		<tag k="name" v="Lier" />
		<tag k="place" v="farm" />
		<tag k="ssr:stedsnr" v="173349" />
	</node>
	<node changeset="66877579" id="6255747613" lat="59.4639917" lon="11.6704361" timestamp="2019-02-03T14:30:11Z" uid="633013" user="Honning" version="1">
		<tag k="alt_name" v="Rud vestre" />
		<tag k="name" v="Vestre Rud" />
		<tag k="place" v="farm" />
		<tag k="ssr:stedsnr" v="173450" />
	</node>
	<node changeset="66877579" id="6255747614" lat="59.4441417" lon="11.6794361" timestamp="2019-02-03T14:30:11Z" uid="633013" user="Honning" version="1">
		<tag k="alt_name" v="Mårud østre" />
		<tag k="name" v="Østre Mårud" />
		<tag k="place" v="farm" />
		<tag k="ssr:stedsnr" v="173567" />
	</node>
	<node changeset="66877579" id="6255747615" lat="59.6128991" lon="11.6412302" timestamp="2019-02-03T14:30:11Z" uid="633013" user="Honning" version="1">
		<tag k="name" v="Vestre Tjernsmo" />
		<tag k="place" v="locality" />
		<tag k="ssr:stedsnr" v="173593" />
	</node>
	<node changeset="66877579" id="6255747616" lat="59.6107222" lon="11.5693694" timestamp="2019-02-03T14:30:11Z" uid="633013" user="Honning" version="1">
		<tag k="alt_name" v="Rakkestad nordre" />
		<tag k="name" v="Nordre Rakkestad" />
		<tag k="place" v="farm" />
		<tag k="ssr:stedsnr" v="173885" />
	</node>
	<node changeset="66877579" id="6255747617" lat="59.4878278" lon="11.7433528" timestamp="2019-02-03T14:30:11Z" uid="633013" user="Honning" version="1">
		<tag k="name" v="Fjellstua" />
		<tag k="place" v="isolated_dwelling" />
		<tag k="ssr:stedsnr" v="173923" />
	</node>
	<node changeset="66877579" id="6255747618" lat="59.5618639" lon="11.5698556" timestamp="2019-02-03T14:30:11Z" uid="633013" user="Honning" version="1">
		<tag k="alt_name" v="Grav nedre" />
		<tag k="name" v="Nedre Grav" />
		<tag k="place" v="farm" />
		<tag k="ssr:stedsnr" v="174034" />
	</node>
	<node changeset="66877579" id="6255747619" lat="59.62265" lon="11.5958556" timestamp="2019-02-03T14:30:11Z" uid="633013" user="Honning" version="1">
		<tag k="name" v="Elvestad" />
		<tag k="place" v="locality" />
		<tag k="ssr:stedsnr" v="174153" />
	</node>
	<node changeset="66877579" id="6255747620" lat="59.5161389" lon="11.6718167" timestamp="2019-02-03T14:30:11Z" uid="633013" user="Honning" version="1">
		<tag k="name" v="Nordby" />
		<tag k="place" v="farm" />
		<tag k="ssr:stedsnr" v="174394" />
	</node>
	<node changeset="66877579" id="6255747621" lat="59.483125" lon="11.6552722" timestamp="2019-02-03T14:30:11Z" uid="633013" user="Honning" version="1">
		<tag k="name" v="Trollsund" />
		<tag k="place" v="farm" />
		<tag k="ssr:stedsnr" v="174788" />
	</node>
	<node changeset="66877579" id="6255747622" lat="59.4567972" lon="11.700525" timestamp="2019-02-03T14:30:11Z" uid="633013" user="Honning" version="1">
		<tag k="name" v="Gunhildløa" />
		<tag k="place" v="locality" />
		<tag k="ssr:stedsnr" v="174703" />
	</node>
	<node changeset="66877579" id="6255747623" lat="59.3417944" lon="11.7305722" timestamp="2019-02-03T14:30:11Z" uid="633013" user="Honning" version="1">
		<tag k="alt_name" v="Søndre Botten" />
		<tag k="name" v="Søndre Botn" />
		<tag k="old_name" v="Nordre Botten" />
		<tag k="place" v="farm" />
		<tag k="ssr:stedsnr" v="174815" />
	</node>
	<node changeset="66877579" id="6255747624" lat="59.5932028" lon="11.6228583" timestamp="2019-02-03T14:30:11Z" uid="633013" user="Honning" version="1">
		<tag k="name" v="Heen" />
		<tag k="place" v="farm" />
		<tag k="ssr:stedsnr" v="181081" />
	</node>
	<node changeset="66877579" id="6255747625" lat="59.5441389" lon="11.6517056" timestamp="2019-02-03T14:30:12Z" uid="633013" user="Honning" version="1">
		<tag k="name" v="Hien" />
		<tag k="place" v="farm" />
		<tag k="ssr:stedsnr" v="181477" />
	</node>
	<node changeset="66877579" id="6255747626" lat="59.4661756" lon="11.6900601" timestamp="2019-02-03T14:30:12Z" uid="633013" user="Honning" version="1">
		<tag k="name" v="Gjølsjø" />
		<tag k="place" v="hamlet" />
		<tag k="ssr:stedsnr" v="184589" />
	</node>
	<node changeset="66877579" id="6255747627" lat="59.4611806" lon="11.6422" timestamp="2019-02-03T14:30:12Z" uid="633013" user="Honning" version="1">
		<tag k="name" v="Fossum" />
		<tag k="place" v="farm" />
		<tag k="ssr:stedsnr" v="184610" />
	</node>
	<node changeset="66877579" id="6255747628" lat="59.4335056" lon="11.7304139" timestamp="2019-02-03T14:30:12Z" uid="633013" user="Honning" version="1">
		<tag k="name" v="Haugen" />
		<tag k="place" v="farm" />
		<tag k="ssr:stedsnr" v="184516" />
	</node>
	<node changeset="66877579" id="6255747629" lat="59.4298667" lon="11.7334" timestamp="2019-02-03T14:30:12Z" uid="633013" user="Honning" version="1">
		<tag k="name" v="Solberg" />
		<tag k="place" v="isolated_dwelling" />
		<tag k="ssr:stedsnr" v="184515" />
	</node>
	<node changeset="66877579" id="6255747630" lat="59.4392389" lon="11.7119139" timestamp="2019-02-03T14:30:12Z" uid="633013" user="Honning" version="1">
		<tag k="name" v="Sandli" />
		<tag k="place" v="isolated_dwelling" />
		<tag k="ssr:stedsnr" v="184617" />
	</node>
	<node changeset="66877579" id="6255747631" lat="59.4487917" lon="11.6500917" timestamp="2019-02-03T14:30:12Z" uid="633013" user="Honning" version="1">
		<tag k="name" v="Årnes" />
		<tag k="place" v="hamlet" />
		<tag k="ssr:stedsnr" v="184623" />
	</node>
	<node changeset="66877579" id="6255747632" lat="59.6616028" lon="11.6957833" timestamp="2019-02-03T14:30:12Z" uid="633013" user="Honning" version="1">
		<tag k="name" v="Fjellstua" />
		<tag k="place" v="isolated_dwelling" />
		<tag k="ssr:stedsnr" v="185264" />
	</node>
	<node changeset="66877579" id="6255747633" lat="59.3614972" lon="11.6900056" timestamp="2019-02-03T14:30:12Z" uid="633013" user="Honning" version="1">
		<tag k="name" v="Neset" />
		<tag k="place" v="farm" />
		<tag k="ssr:stedsnr" v="185674" />
	</node>
	<node changeset="66877579" id="6255747634" lat="59.3516361" lon="11.7847306" timestamp="2019-02-03T14:30:12Z" uid="633013" user="Honning" version="1">
		<tag k="name" v="Styggemyr" />
		<tag k="place" v="isolated_dwelling" />
		<tag k="ssr:stedsnr" v="185696" />
	</node>
	<node changeset="66877579" id="6255747635" lat="59.3758889" lon="11.6990861" timestamp="2019-02-03T14:30:12Z" uid="633013" user="Honning" version="1">
		<tag k="name" v="Stusrud" />
		<tag k="place" v="farm" />
		<tag k="ssr:stedsnr" v="185494" />
	</node>
	<node changeset="66877579" id="6255747636" lat="59.3858694" lon="11.6275639" timestamp="2019-02-03T14:30:12Z" uid="633013" user="Honning" version="1">
		<tag k="name" v="Slora" />
		<tag k="place" v="farm" />
		<tag k="ssr:stedsnr" v="185502" />
	</node>
	<node changeset="66877579" id="6255747637" lat="59.3857056" lon="11.63745" timestamp="2019-02-03T14:30:12Z" uid="633013" user="Honning" version="1">
		<tag k="alt_name" v="Halvorsrud, nordre;Halvorsrød;Halvorsrud" />
		<tag k="name" v="Nordre Halvorsrud" />
		<tag k="place" v="farm" />
		<tag k="ssr:stedsnr" v="185503" />
	</node>
	<node changeset="66877579" id="6255747638" lat="59.3361139" lon="11.5775194" timestamp="2019-02-03T14:30:12Z" uid="633013" user="Honning" version="1">
		<tag k="name" v="Kvernekasa" />
		<tag k="place" v="farm" />
		<tag k="ssr:stedsnr" v="185714" />
	</node>
	<node changeset="66877579" id="6255747639" lat="59.534025" lon="11.5901833" timestamp="2019-02-03T14:30:12Z" uid="633013" user="Honning" version="1">
		<tag k="name" v="Lund" />
		<tag k="place" v="farm" />
		<tag k="ssr:stedsnr" v="186438" />
	</node>
	<node changeset="66877579" id="6255747640" lat="59.5367667" lon="11.6709583" timestamp="2019-02-03T14:30:12Z" uid="633013" user="Honning" version="1">
		<tag k="alt_name" v="Måstadsetra" />
		<tag k="name" v="Måstadsætra" />
		<tag k="place" v="locality" />
		<tag k="ssr:stedsnr" v="186443" />
	</node>
	<node changeset="66877579" id="6255747641" lat="59.5856333" lon="11.619875" timestamp="2019-02-03T14:30:12Z" uid="633013" user="Honning" version="1">
		<tag k="alt_name" v="Nystuen" />
		<tag k="name" v="Nystua" />
		<tag k="place" v="farm" />
		<tag k="ssr:stedsnr" v="186484" />
	</node>
	<node changeset="66877579" id="6255747642" lat="59.3673056" lon="11.6858722" timestamp="2019-02-03T14:30:12Z" uid="633013" user="Honning" version="1">
		<tag k="name" v="Gråbølødegården" />
		<tag k="place" v="farm" />
		<tag k="ssr:stedsnr" v="233341" />
	</node>
	<node changeset="66877579" id="6255747643" lat="59.5180333" lon="11.6189778" timestamp="2019-02-03T14:30:13Z" uid="633013" user="Honning" version="1">
		<tag k="name" v="Kåtorp" />
		<tag k="place" v="farm" />
		<tag k="ssr:stedsnr" v="233553" />
	</node>
	<node changeset="66877579" id="6255747644" lat="59.4170525" lon="11.6691392" timestamp="2019-02-03T14:30:13Z" uid="633013" user="Honning" version="1">
		<tag k="name" v="Kirkeby" />
		<tag k="place" v="farm" />
		<tag k="ssr:stedsnr" v="233601" />
	</node>
	<node changeset="66877579" id="6255747645" lat="59.3969639" lon="11.7334445" timestamp="2019-02-03T14:30:13Z" uid="633013" user="Honning" version="1">
		<tag k="name" v="Mellom-Eng" />
		<tag k="place" v="farm" />
		<tag k="ssr:stedsnr" v="233919" />
	</node>
	<node changeset="66877579" id="6255747646" lat="59.6742056" lon="11.6447139" timestamp="2019-02-03T14:30:13Z" uid="633013" user="Honning" version="1">
		<tag k="name" v="Engasetra" />
		<tag k="place" v="isolated_dwelling" />
		<tag k="ssr:stedsnr" v="234419" />
	</node>
	<node changeset="66877579" id="6255747647" lat="59.4878556" lon="11.6823194" timestamp="2019-02-03T14:30:13Z" uid="633013" user="Honning" version="1">
		<tag k="name" v="Søndre Sletta" />
		<tag k="place" v="farm" />
		<tag k="ssr:stedsnr" v="234020" />
	</node>
	<node changeset="66877579" id="6255747648" lat="59.5086929" lon="11.6574468" timestamp="2019-02-03T14:30:13Z" uid="633013" user="Honning" version="1">
		<tag k="alt_name" v="Berger østre" />
		<tag k="name" v="Østre Berger" />
		<tag k="place" v="farm" />
		<tag k="ssr:stedsnr" v="295280" />
	</node>
	<node changeset="66877579" id="6255747649" lat="59.5876028" lon="11.5676222" timestamp="2019-02-03T14:30:13Z" uid="633013" user="Honning" version="1">
		<tag k="name" v="Folkenborg" />
		<tag k="place" v="farm" />
		<tag k="ssr:stedsnr" v="234149" />
	</node>
	<node changeset="66877579" id="6255747650" lat="59.6186972" lon="11.5922694" timestamp="2019-02-03T14:30:13Z" uid="633013" user="Honning" version="1">
		<tag k="name" v="Kroksund" />
		<tag k="place" v="hamlet" />
		<tag k="ssr:stedsnr" v="234177" />
	</node>
	<node changeset="66877579" id="6255747651" lat="59.4948722" lon="11.63865" timestamp="2019-02-03T14:30:13Z" uid="633013" user="Honning" version="1">
		<tag k="name" v="Søndre Ysterud" />
		<tag k="place" v="farm" />
		<tag k="ssr:stedsnr" v="234216" />
	</node>
	<node changeset="66877579" id="6255747652" lat="59.5007167" lon="11.6860611" timestamp="2019-02-03T14:30:13Z" uid="633013" user="Honning" version="1">
		<tag k="name" v="Fjellvang" />
		<tag k="place" v="farm" />
		<tag k="ssr:stedsnr" v="234248" />
	</node>
	<node changeset="66877579" id="6255747653" lat="59.5082333" lon="11.6655528" timestamp="2019-02-03T14:30:13Z" uid="633013" user="Honning" version="1">
		<tag k="alt_name" v="Berger søndre" />
		<tag k="name" v="Søndre Berger" />
		<tag k="place" v="farm" />
		<tag k="ssr:stedsnr" v="234269" />
	</node>
	<node changeset="66877579" id="6255747654" lat="59.6177" lon="11.6448056" timestamp="2019-02-03T14:30:13Z" uid="633013" user="Honning" version="1">
		<tag k="name" v="Slottet" />
		<tag k="place" v="locality" />
		<tag k="ssr:stedsnr" v="234607" />
	</node>
	<node changeset="66877579" id="6255747655" lat="59.595754" lon="11.6326284" timestamp="2019-02-03T14:30:13Z" uid="633013" user="Honning" version="1">
		<tag k="name" v="Myrås" />
		<tag k="place" v="locality" />
		<tag k="ssr:stedsnr" v="234635" />
	</node>
	<node changeset="66877579" id="6255747656" lat="59.4348345" lon="11.7108787" timestamp="2019-02-03T14:30:13Z" uid="633013" user="Honning" version="1">
		<tag k="alt_name" v="Bakkebråten" />
		<tag k="name" v="Tassebakken" />
		<tag k="place" v="farm" />
		<tag k="ssr:stedsnr" v="234511" />
	</node>
	<node changeset="66877579" id="6255747657" lat="59.6162944" lon="11.5636417" timestamp="2019-02-03T14:30:13Z" uid="633013" user="Honning" version="1">
		<tag k="name" v="Storløs" />
		<tag k="place" v="farm" />
		<tag k="ssr:stedsnr" v="234514" />
	</node>
	<node changeset="66877579" id="6255747658" lat="59.614529" lon="11.5636725" timestamp="2019-02-03T14:30:13Z" uid="633013" user="Honning" version="1">
		<tag k="name" v="Storløs" />
		<tag k="place" v="farm" />
		<tag k="ssr:stedsnr" v="234527" />
	</node>
	<node changeset="66877579" id="858643158" lat="59.480592" lon="11.657047" timestamp="2019-02-03T14:30:13Z" uid="633013" user="Honning" version="4">
		<tag k="name" v="Ørje" />
		<tag k="place" v="village" />
		<tag k="population" v="1852" />
		<tag k="population:date" v="2017-01-01" />
		<tag k="ssr:stedsnr" v="427593" />
	</node>
	<node changeset="66877579" id="6255745785" lat="59.6187139" lon="11.619475" timestamp="2019-02-03T14:29:40Z" uid="633013" user="Honning" version="1">
		<tag k="name" v="Hagan" />
		<tag k="place" v="locality" />
		<tag k="ssr:stedsnr" v="247274" />
	</node>
	<node changeset="66877579" id="6255745786" lat="59.5058722" lon="11.676875" timestamp="2019-02-03T14:29:40Z" uid="633013" user="Honning" version="1">
		<tag k="alt_name" v="Askerud;Askerud nordre" />
		<tag k="name" v="Nordre Askerud" />
		<tag k="place" v="farm" />
		<tag k="ssr:stedsnr" v="247362" />
	</node>
	<node changeset="66877579" id="6255745787" lat="59.5084349" lon="11.6569208" timestamp="2019-02-03T14:29:40Z" uid="633013" user="Honning" version="1">
		<tag k="name" v="Berger" />
		<tag k="place" v="hamlet" />
		<tag k="ssr:stedsnr" v="247364" />
	</node>
	<node changeset="66877579" id="6255745788" lat="59.583775" lon="11.6528583" timestamp="2019-02-03T14:29:40Z" uid="633013" user="Honning" version="1">
		<tag k="alt_name" v="Morttjernstua" />
		<tag k="name" v="Morttjernhytta" />
		<tag k="place" v="isolated_dwelling" />
		<tag k="ssr:stedsnr" v="247409" />
	</node>
	<node changeset="66877579" id="6255745789" lat="59.5831361" lon="11.5645" timestamp="2019-02-03T14:29:40Z" uid="633013" user="Honning" version="1">
		<tag k="name" v="Børresrud" />
		<tag k="place" v="hamlet" />
		<tag k="ssr:stedsnr" v="247417" />
	</node>
	<node changeset="66877579" id="6255745790" lat="59.6097601" lon="11.5692578" timestamp="2019-02-03T14:29:40Z" uid="633013" user="Honning" version="1">
		<tag k="name" v="Rakkestad" />
		<tag k="place" v="hamlet" />
		<tag k="ssr:stedsnr" v="247436" />
	</node>
	<node changeset="66877579" id="6255745791" lat="59.6056278" lon="11.6102472" timestamp="2019-02-03T14:29:40Z" uid="633013" user="Honning" version="1">
		<tag k="name" v="Jåvall" />
		<tag k="place" v="hamlet" />
		<tag k="ssr:stedsnr" v="247440" />
	</node>
	<node changeset="66877579" id="6255745792" lat="59.374775" lon="11.6983639" timestamp="2019-02-03T14:29:40Z" uid="633013" user="Honning" version="1">
		<tag k="name" v="Volødegård" />
		<tag k="place" v="farm" />
		<tag k="ssr:stedsnr" v="415337" />
	</node>
	<node changeset="66877579" id="6255745793" lat="59.3524541" lon="11.6510056" timestamp="2019-02-03T14:29:40Z" uid="633013" user="Honning" version="1">
		<tag k="name" v="Sambøl" />
		<tag k="place" v="hamlet" />
		<tag k="ssr:stedsnr" v="415376" />
	</node>
	<node changeset="66877579" id="6255745794" lat="59.3489028" lon="11.6455361" timestamp="2019-02-03T14:29:41Z" uid="633013" user="Honning" version="1">
		<tag k="name" v="Dagali" />
		<tag k="place" v="farm" />
		<tag k="ssr:stedsnr" v="415436" />
	</node>
	<node changeset="66877579" id="6255745795" lat="59.5319056" lon="11.6023306" timestamp="2019-02-03T14:29:41Z" uid="633013" user="Honning" version="1">
		<tag k="name" v="Solvang" />
		<tag k="place" v="farm" />
		<tag k="ssr:stedsnr" v="415475" />
	</node>
	<node changeset="66877579" id="6255745796" lat="59.5305944" lon="11.60635" timestamp="2019-02-03T14:29:41Z" uid="633013" user="Honning" version="1">
		<tag k="alt_name" v="Krosby vestre" />
		<tag k="loc_name" v="Vestre Krossby" />
		<tag k="name" v="Vestre Krosby" />
		<tag k="place" v="farm" />
		<tag k="ssr:stedsnr" v="415498" />
	</node>
	<node changeset="66877579" id="6255745797" lat="59.5505444" lon="11.5975583" timestamp="2019-02-03T14:29:41Z" uid="633013" user="Honning" version="1">
		<tag k="alt_name" v="Klemmetsby vestre" />
		<tag k="name" v="Vestre Klemmetsby" />
		<tag k="place" v="farm" />
		<tag k="ssr:stedsnr" v="416044" />
	</node>
	<node changeset="66877579" id="6255745798" lat="59.3954028" lon="11.7213389" timestamp="2019-02-03T14:29:41Z" uid="633013" user="Honning" version="1">
		<tag k="name" v="Fossen" />
		<tag k="place" v="farm" />
		<tag k="ssr:stedsnr" v="477508" />
	</node>
	<node changeset="66877579" id="6255745799" lat="59.465825" lon="11.6901222" timestamp="2019-02-03T14:29:41Z" uid="633013" user="Honning" version="1">
		<tag k="alt_name" v="Gjølsjø søndre" />
		<tag k="name" v="Søndre Gjølsjø" />
		<tag k="place" v="farm" />
		<tag k="ssr:stedsnr" v="416050" />
	</node>
	<node changeset="66877579" id="6255745800" lat="59.6381833" lon="11.6139639" timestamp="2019-02-03T14:29:41Z" uid="633013" user="Honning" version="1">
		<tag k="name" v="Delingsrud" />
		<tag k="place" v="locality" />
		<tag k="ssr:stedsnr" v="416092" />
	</node>
	<node changeset="66877579" id="6255745801" lat="59.5887889" lon="11.5717861" timestamp="2019-02-03T14:29:41Z" uid="633013" user="Honning" version="1">
		<tag k="name" v="Heggedal" />
		<tag k="place" v="farm" />
		<tag k="ssr:stedsnr" v="416146" />
	</node>
	<node changeset="66877579" id="6255745802" lat="59.5843" lon="11.5306111" timestamp="2019-02-03T14:29:41Z" uid="633013" user="Honning" version="1">
		<tag k="alt_name" v="Fallet nordre" />
		<tag k="name" v="Nordre Fallet" />
		<tag k="place" v="farm" />
		<tag k="ssr:stedsnr" v="416168" />
	</node>
	<node changeset="66877579" id="6255745803" lat="59.5826611" lon="11.5542611" timestamp="2019-02-03T14:29:41Z" uid="633013" user="Honning" version="1">
		<tag k="alt_name" v="Klerud søndre" />
		<tag k="name" v="Søndre Klerud" />
		<tag k="place" v="farm" />
		<tag k="ssr:stedsnr" v="416197" />
	</node>
	<node changeset="66877579" id="6255745804" lat="59.5731111" lon="11.5867417" timestamp="2019-02-03T14:29:41Z" uid="633013" user="Honning" version="1">
		<tag k="name" v="Sjøli" />
		<tag k="place" v="farm" />
		<tag k="ssr:stedsnr" v="477534" />
	</node>
	<node changeset="66877579" id="6255745805" lat="59.4955333" lon="11.6387722" timestamp="2019-02-03T14:29:41Z" uid="633013" user="Honning" version="1">
		<tag k="name" v="Nordre Ysterud" />
		<tag k="place" v="farm" />
		<tag k="ssr:stedsnr" v="416201" />
	</node>
	<node changeset="66877579" id="6255745806" lat="59.4891194" lon="11.6613778" timestamp="2019-02-03T14:29:41Z" uid="633013" user="Honning" version="1">
		<tag k="name" v="Østre Mosebyødegården" />
		<tag k="place" v="farm" />
		<tag k="ssr:stedsnr" v="416215" />
	</node>
	<node changeset="66877579" id="6255745807" lat="59.3772278" lon="11.6931694" timestamp="2019-02-03T14:29:41Z" uid="633013" user="Honning" version="1">
		<tag k="name" v="Brattås" />
		<tag k="place" v="farm" />
		<tag k="ssr:stedsnr" v="416455" />
	</node>
	<node changeset="66877579" id="6255745808" lat="59.4584222" lon="11.6633417" timestamp="2019-02-03T14:29:41Z" uid="633013" user="Honning" version="1">
		<tag k="alt_name" v="Anonby vestre" />
		<tag k="name" v="Vestre Anonby" />
		<tag k="place" v="farm" />
		<tag k="ssr:stedsnr" v="416458" />
	</node>
	<node changeset="66877579" id="6255745809" lat="59.6035611" lon="11.5324667" timestamp="2019-02-03T14:29:41Z" uid="633013" user="Honning" version="1">
		<tag k="alt_name" v="Skrikerud søndre" />
		<tag k="name" v="Søndre Skrikerud" />
		<tag k="place" v="farm" />
		<tag k="ssr:stedsnr" v="416480" />
	</node>
	<node changeset="66877579" id="6255745810" lat="59.4262306" lon="11.6931139" timestamp="2019-02-03T14:29:41Z" uid="633013" user="Honning" version="1">
		<tag k="name" v="Botten" />
		<tag k="place" v="locality" />
		<tag k="ssr:stedsnr" v="416481" />
	</node>
	<node changeset="66877579" id="6255745811" lat="59.5434917" lon="11.55285" timestamp="2019-02-03T14:29:42Z" uid="633013" user="Honning" version="1">
		<tag k="name" v="Søndre Holta" />
		<tag k="place" v="farm" />
		<tag k="ssr:stedsnr" v="416542" />
	</node>
	<node changeset="66877579" id="6255745812" lat="59.441075" lon="11.6795306" timestamp="2019-02-03T14:29:42Z" uid="633013" user="Honning" version="1">
		<tag k="alt_name" v="Mårud søndre" />
		<tag k="name" v="Søndre Mårud" />
		<tag k="place" v="farm" />
		<tag k="ssr:stedsnr" v="416561" />
	</node>
	<node changeset="66877579" id="6255745813" lat="59.4562972" lon="11.6916583" timestamp="2019-02-03T14:29:42Z" uid="633013" user="Honning" version="1">
		<tag k="name" v="Vestre Søby" />
		<tag k="place" v="farm" />
		<tag k="ssr:stedsnr" v="416624" />
	</node>
	<node changeset="66877579" id="6255745814" lat="59.3528806" lon="11.7386611" timestamp="2019-02-03T14:29:42Z" uid="633013" user="Honning" version="1">
		<tag k="name" v="Huken" />
		<tag k="place" v="isolated_dwelling" />
		<tag k="ssr:stedsnr" v="416764" />
	</node>
	<node changeset="66877579" id="6255745815" lat="59.6096972" lon="11.5697694" timestamp="2019-02-03T14:29:42Z" uid="633013" user="Honning" version="1">
		<tag k="alt_name" v="Rakkestad søndre" />
		<tag k="name" v="Søndre Rakkestad" />
		<tag k="place" v="farm" />
		<tag k="ssr:stedsnr" v="416873" />
	</node>
	<node changeset="66877579" id="6255745816" lat="59.48345" lon="11.6680333" timestamp="2019-02-03T14:29:42Z" uid="633013" user="Honning" version="1">
		<tag k="name" v="Solheim" />
		<tag k="place" v="farm" />
		<tag k="ssr:stedsnr" v="477754" />
	</node>
	<node changeset="66877579" id="6255745817" lat="59.5144722" lon="11.6499944" timestamp="2019-02-03T14:29:42Z" uid="633013" user="Honning" version="1">
		<tag k="name" v="Lilleås" />
		<tag k="place" v="farm" />
		<tag k="ssr:stedsnr" v="417282" />
	</node>
	<node changeset="66877579" id="6255745818" lat="59.5099722" lon="11.6688194" timestamp="2019-02-03T14:29:42Z" uid="633013" user="Honning" version="1">
		<tag k="name" v="Bergerødegården" />
		<tag k="place" v="farm" />
		<tag k="ssr:stedsnr" v="417286" />
	</node>
	<node changeset="66877579" id="6255745819" lat="59.5070306" lon="11.6659889" timestamp="2019-02-03T14:29:42Z" uid="633013" user="Honning" version="1">
		<tag k="alt_name" v="Grimsby vestre" />
		<tag k="name" v="Vestre Grimsby" />
		<tag k="place" v="farm" />
		<tag k="ssr:stedsnr" v="417391" />
	</node>
	<node changeset="66877579" id="6255745820" lat="59.4980556" lon="11.6796139" timestamp="2019-02-03T14:29:42Z" uid="633013" user="Honning" version="1">
		<tag k="alt_name" v="Askerud søndre" />
		<tag k="name" v="Søndre Askerud" />
		<tag k="place" v="farm" />
		<tag k="ssr:stedsnr" v="427580" />
	</node>
	<node changeset="66877579" id="6255745821" lat="59.4932694" lon="11.6951694" timestamp="2019-02-03T14:29:42Z" uid="633013" user="Honning" version="1">
		<tag k="name" v="Elverum" />
		<tag k="place" v="farm" />
		<tag k="ssr:stedsnr" v="427585" />
	</node>
	<node changeset="66877579" id="6255745822" lat="59.4434694" lon="11.7179833" timestamp="2019-02-03T14:29:42Z" uid="633013" user="Honning" version="1">
		<tag k="name" v="Nytomt" />
		<tag k="place" v="farm" />
		<tag k="ssr:stedsnr" v="427611" />
	</node>
	<node changeset="66877579" id="6255745823" lat="59.625325" lon="11.6149694" timestamp="2019-02-03T14:29:42Z" uid="633013" user="Honning" version="1">
		<tag k="name" v="Søndre Oppsal" />
		<tag k="old_name" v="Oppsal søndre;Opsal søndre" />
		<tag k="place" v="farm" />
		<tag k="ssr:stedsnr" v="428265" />
	</node>
	<node changeset="66877579" id="6255745824" lat="59.6390139" lon="11.5562333" timestamp="2019-02-03T14:29:42Z" uid="633013" user="Honning" version="1">
		<tag k="name" v="Roligheta" />
		<tag k="place" v="farm" />
		<tag k="ssr:stedsnr" v="428279" />
	</node>
	<node changeset="66877579" id="6255745825" lat="59.5224472" lon="11.6156944" timestamp="2019-02-03T14:29:42Z" uid="633013" user="Honning" version="1">
		<tag k="name" v="Kåtorp" />
		<tag k="place" v="hamlet" />
		<tag k="ssr:stedsnr" v="428352" />
	</node>
	<node changeset="66877579" id="6255745826" lat="59.5457639" lon="11.653125" timestamp="2019-02-03T14:29:42Z" uid="633013" user="Honning" version="1">
		<tag k="name" v="Nord-Hien" />
		<tag k="old_name" v="Hien" />
		<tag k="place" v="farm" />
		<tag k="ssr:stedsnr" v="428434" />
	</node>
	<node changeset="66877579" id="6255745827" lat="59.5478583" lon="11.6007139" timestamp="2019-02-03T14:29:42Z" uid="633013" user="Honning" version="1">
		<tag k="loc_name" v="Klemmetsby" />
		<tag k="name" v="Klemetsby" />
		<tag k="place" v="farm" />
		<tag k="ssr:stedsnr" v="428439" />
	</node>
	<node changeset="66877579" id="6255745828" lat="59.4745167" lon="11.6459944" timestamp="2019-02-03T14:29:43Z" uid="633013" user="Honning" version="1">
		<tag k="alt_name" v="Ørjetun" />
		<tag k="amenity" v="hospital" />
		<tag k="name" v="Ørje kursted" />
		<tag k="ssr:stedsnr" v="670556" />
	</node>
	<node changeset="66877579" id="6255745829" lat="59.3799694" lon="11.7841472" timestamp="2019-02-03T14:29:43Z" uid="633013" user="Honning" version="1">
		<tag k="name" v="Moslora" />
		<tag k="place" v="farm" />
		<tag k="ssr:stedsnr" v="428665" />
	</node>
	<node changeset="66877579" id="6255745830" lat="59.3720694" lon="11.6796806" timestamp="2019-02-03T14:29:43Z" uid="633013" user="Honning" version="1">
		<tag k="name" v="Bjørnstad" />
		<tag k="place" v="farm" />
		<tag k="ssr:stedsnr" v="428674" />
	</node>
	<node changeset="66877579" id="6255745831" lat="59.3637139" lon="11.6953722" timestamp="2019-02-03T14:29:43Z" uid="633013" user="Honning" version="1">
		<tag k="alt_name" v="Gunneng nordre;Gunneng" />
		<tag k="name" v="Nordre Gunneng" />
		<tag k="place" v="farm" />
		<tag k="ssr:stedsnr" v="428694" />
	</node>
	<node changeset="66877579" id="6255745832" lat="59.3437111" lon="11.6414389" timestamp="2019-02-03T14:29:43Z" uid="633013" user="Honning" version="1">
		<tag k="alt_name" v="Søndre Slevik" />
		<tag k="name" v="Slevika" />
		<tag k="place" v="farm" />
		<tag k="ssr:stedsnr" v="428714" />
	</node>
	<node changeset="66877579" id="6255745833" lat="59.3426556" lon="11.7662444" timestamp="2019-02-03T14:29:43Z" uid="633013" user="Honning" version="1">
		<tag k="alt_name" v="Sundsdalen" />
		<tag k="name" v="Sundsdal" />
		<tag k="place" v="isolated_dwelling" />
		<tag k="ssr:stedsnr" v="428716" />
	</node>
	<node changeset="66877579" id="6255745834" lat="59.6004413" lon="11.6294837" timestamp="2019-02-03T14:29:43Z" uid="633013" user="Honning" version="1">
		<tag k="name" v="Ulfsby" />
		<tag k="place" v="hamlet" />
		<tag k="ssr:stedsnr" v="484435" />
	</node>
	<node changeset="66877579" id="6255745835" lat="59.5301254" lon="11.6085869" timestamp="2019-02-03T14:29:43Z" uid="633013" user="Honning" version="1">
		<tag k="alt_name" v="Krosby østre" />
		<tag k="loc_name" v="Østre Krossby" />
		<tag k="name" v="Østre Krosby" />
		<tag k="place" v="farm" />
		<tag k="ssr:stedsnr" v="484925" />
	</node>
	<node changeset="66877579" id="6255745836" lat="59.4795111" lon="11.6610111" timestamp="2019-02-03T14:29:43Z" uid="633013" user="Honning" version="1">
		<tag k="name" v="Brårud" />
		<tag k="place" v="farm" />
		<tag k="ssr:stedsnr" v="487632" />
	</node>
	<node changeset="66877579" id="6255745837" lat="59.3849667" lon="11.7305389" timestamp="2019-02-03T14:29:43Z" uid="633013" user="Honning" version="1">
		<tag k="alt_name" v="Engsvik" />
		<tag k="name" v="Engsvika" />
		<tag k="place" v="farm" />
		<tag k="ssr:stedsnr" v="488546" />
	</node>
	<node changeset="66877579" id="6255745838" lat="59.4474917" lon="11.6711083" timestamp="2019-02-03T14:29:43Z" uid="633013" user="Honning" version="1">
		<tag k="alt_name" v="Vågelsby" />
		<tag k="name" v="Våkelsby" />
		<tag k="place" v="farm" />
		<tag k="ssr:stedsnr" v="488596" />
	</node>
	<node changeset="66877579" id="6255745839" lat="59.4473556" lon="11.6834333" timestamp="2019-02-03T14:29:43Z" uid="633013" user="Honning" version="1">
		<tag k="alt_name" v="Holtsrud" />
		<tag k="name" v="Holsrud" />
		<tag k="place" v="farm" />
		<tag k="ssr:stedsnr" v="488597" />
	</node>
	<node changeset="66877579" id="6255745840" lat="59.3725917" lon="11.6987" timestamp="2019-02-03T14:29:43Z" uid="633013" user="Honning" version="1">
		<tag k="name" v="Struten" />
		<tag k="place" v="farm" />
		<tag k="ssr:stedsnr" v="488679" />
	</node>
	<node changeset="66877579" id="6255745841" lat="59.3709556" lon="11.6451111" timestamp="2019-02-03T14:29:43Z" uid="633013" user="Honning" version="1">
		<tag k="name" v="Søgård" />
		<tag k="place" v="hamlet" />
		<tag k="ssr:stedsnr" v="488682" />
	</node>
	<node changeset="66877579" id="6255745842" lat="59.3417917" lon="11.6292389" timestamp="2019-02-03T14:29:43Z" uid="633013" user="Honning" version="1">
		<tag k="name" v="Damholtet" />
		<tag k="place" v="hamlet" />
		<tag k="ssr:stedsnr" v="488724" />
	</node>
	<node changeset="66877579" id="6255745843" lat="59.343475" lon="11.6723583" timestamp="2019-02-03T14:29:43Z" uid="633013" user="Honning" version="1">
		<tag k="alt_name" v="Husporn" />
		<tag k="name" v="Husborn" />
		<tag k="place" v="farm" />
		<tag k="ssr:stedsnr" v="488726" />
	</node>
	<node changeset="66877579" id="6255745844" lat="59.5310444" lon="11.640825" timestamp="2019-02-03T14:29:44Z" uid="633013" user="Honning" version="1">
		<tag k="alt_name" v="Måstad" />
		<tag k="name" v="Søndre Måstad" />
		<tag k="place" v="farm" />
		<tag k="ssr:stedsnr" v="489052" />
	</node>
	<node changeset="66877579" id="6255745845" lat="59.6525528" lon="11.6915417" timestamp="2019-02-03T14:29:44Z" uid="633013" user="Honning" version="1">
		<tag k="name" v="Furuly" />
		<tag k="place" v="isolated_dwelling" />
		<tag k="ssr:stedsnr" v="489286" />
	</node>
	<node changeset="66877579" id="6255745846" lat="59.5040306" lon="11.6850306" timestamp="2019-02-03T14:29:44Z" uid="633013" user="Honning" version="1">
		<tag k="name" v="Steinsrud" />
		<tag k="place" v="isolated_dwelling" />
		<tag k="ssr:stedsnr" v="489387" />
	</node>
	<node changeset="66877579" id="6255745847" lat="59.5388556" lon="11.5810306" timestamp="2019-02-03T14:29:44Z" uid="633013" user="Honning" version="1">
		<tag k="name" v="Kirkeng" />
		<tag k="place" v="farm" />
		<tag k="ssr:stedsnr" v="489499" />
	</node>
	<node changeset="66877579" id="6255745848" lat="59.3891306" lon="11.6669194" timestamp="2019-02-03T14:29:44Z" uid="633013" user="Honning" version="1">
		<tag k="name" v="Ytterbøl" />
		<tag k="place" v="farm" />
		<tag k="ssr:stedsnr" v="489582" />
	</node>
	<node changeset="66877579" id="6255745849" lat="59.3234611" lon="11.5840667" timestamp="2019-02-03T14:29:44Z" uid="633013" user="Honning" version="1">
		<tag k="alt_name" v="Kolbjørnsvik" />
		<tag k="loc_name" v="Kolviken" />
		<tag k="name" v="Kolbjørnviken" />
		<tag k="place" v="farm" />
		<tag k="ssr:stedsnr" v="489672" />
	</node>
	<node changeset="66877579" id="6255745850" lat="59.3907361" lon="11.7356389" timestamp="2019-02-03T14:29:44Z" uid="633013" user="Honning" version="1">
		<tag k="alt_name" v="Taskerud nordre" />
		<tag k="name" v="Nordre Taskerud" />
		<tag k="place" v="farm" />
		<tag k="ssr:stedsnr" v="494902" />
	</node>
	<node changeset="66877579" id="6255745851" lat="59.5474583" lon="11.5778361" timestamp="2019-02-03T14:29:44Z" uid="633013" user="Honning" version="1">
		<tag k="name" v="Søndre Røen" />
		<tag k="place" v="farm" />
		<tag k="ssr:stedsnr" v="525524" />
	</node>
	<node changeset="66877579" id="6255745852" lat="59.374925" lon="11.7388889" timestamp="2019-02-03T14:29:44Z" uid="633013" user="Honning" version="1">
		<tag k="name" v="Selvik" />
		<tag k="place" v="farm" />
		<tag k="ssr:stedsnr" v="306660" />
	</node>
	<node changeset="66877579" id="6255745853" lat="59.4744222" lon="11.7330805" timestamp="2019-02-03T14:29:44Z" uid="633013" user="Honning" version="1">
		<tag k="name" v="Søndre Håby" />
		<tag k="place" v="locality" />
		<tag k="ssr:stedsnr" v="537037" />
	</node>
	<node changeset="66877579" id="6255745854" lat="59.4802667" lon="11.6999778" timestamp="2019-02-03T14:29:44Z" uid="633013" user="Honning" version="1">
		<tag k="name" v="Røser" />
		<tag k="place" v="farm" />
		<tag k="ssr:stedsnr" v="537040" />
	</node>
	<node changeset="66877579" id="6255745855" lat="59.4630278" lon="11.7318444" timestamp="2019-02-03T14:29:44Z" uid="633013" user="Honning" version="1">
		<tag k="name" v="Ankerudskogen" />
		<tag k="place" v="locality" />
		<tag k="ssr:stedsnr" v="537041" />
	</node>
	<node changeset="66877579" id="6255745856" lat="59.5019694" lon="11.6770944" timestamp="2019-02-03T14:29:44Z" uid="633013" user="Honning" version="1">
		<tag k="name" v="Søndre Engerbråten" />
		<tag k="place" v="farm" />
		<tag k="ssr:stedsnr" v="537185" />
	</node>
	<node changeset="66877579" id="6255745857" lat="59.5713944" lon="11.5872305" timestamp="2019-02-03T14:29:44Z" uid="633013" user="Honning" version="1">
		<tag k="name" v="Vikeby" />
		<tag k="place" v="hamlet" />
		<tag k="ssr:stedsnr" v="537234" />
	</node>
	<node changeset="66877579" id="6255745858" lat="59.3517111" lon="11.7413472" timestamp="2019-02-03T14:29:44Z" uid="633013" user="Honning" version="1">
		<tag k="name" v="Soot-gården" />
		<tag k="place" v="locality" />
		<tag k="ssr:stedsnr" v="538808" />
	</node>
	<node changeset="66877579" id="6255745859" lat="59.3384194" lon="11.6867028" timestamp="2019-02-03T14:29:44Z" uid="633013" user="Honning" version="1">
		<tag k="name" v="Kutjernkasa" />
		<tag k="place" v="isolated_dwelling" />
		<tag k="ssr:stedsnr" v="537294" />
	</node>
	<node changeset="66877579" id="6255745860" lat="59.5428833" lon="11.6347611" timestamp="2019-02-03T14:29:44Z" uid="633013" user="Honning" version="1">
		<tag k="alt_name" v="Stillesby østre" />
		<tag k="name" v="Østre Stillesby" />
		<tag k="place" v="farm" />
		<tag k="ssr:stedsnr" v="537374" />
	</node>
	<node changeset="66877579" id="6255745861" lat="59.5278194" lon="11.6470444" timestamp="2019-02-03T14:29:44Z" uid="633013" user="Honning" version="1">
		<tag k="name" v="Spernes" />
		<tag k="place" v="farm" />
		<tag k="ssr:stedsnr" v="537418" />
	</node>
	<node changeset="66877579" id="6255745862" lat="59.5353571" lon="11.6581724" timestamp="2019-02-03T14:29:45Z" uid="633013" user="Honning" version="1">
		<tag k="alt_name" v="Bråten" />
		<tag k="name" v="Høgåsbråten" />
		<tag k="place" v="farm" />
		<tag k="ssr:stedsnr" v="537429" />
	</node>
	<node changeset="66877579" id="6255745863" lat="59.4953389" lon="11.6381389" timestamp="2019-02-03T14:29:45Z" uid="633013" user="Honning" version="1">
		<tag k="name" v="Ysterud" />
		<tag k="place" v="farm" />
		<tag k="ssr:stedsnr" v="306536" />
	</node>
	<node changeset="66877579" id="6255745864" lat="59.3779778" lon="11.6972445" timestamp="2019-02-03T14:29:45Z" uid="633013" user="Honning" version="1">
		<tag k="name" v="Stusrud" />
		<tag k="place" v="farm" />
		<tag k="ssr:stedsnr" v="537486" />
	</node>
	<node changeset="66877579" id="6255745865" lat="59.39695" lon="11.7267833" timestamp="2019-02-03T14:29:45Z" uid="633013" user="Honning" version="1">
		<tag k="name" v="Sagstuen" />
		<tag k="place" v="farm" />
		<tag k="ssr:stedsnr" v="537493" />
	</node>
	<node changeset="66877579" id="6255745866" lat="59.4522306" lon="11.6368417" timestamp="2019-02-03T14:29:45Z" uid="633013" user="Honning" version="1">
		<tag k="name" v="Voll" />
		<tag k="place" v="isolated_dwelling" />
		<tag k="ssr:stedsnr" v="537496" />
	</node>
	<node changeset="66877579" id="6255745867" lat="59.431025" lon="11.7292611" timestamp="2019-02-03T14:29:45Z" uid="633013" user="Honning" version="1">
		<tag k="name" v="Østengen" />
		<tag k="place" v="farm" />
		<tag k="ssr:stedsnr" v="537508" />
	</node>
	<node changeset="66877579" id="6255745868" lat="59.6123556" lon="11.5399361" timestamp="2019-02-03T14:29:45Z" uid="633013" user="Honning" version="1">
		<tag k="alt_name" v="Ba nordre" />
		<tag k="name" v="Nordre Ba" />
		<tag k="place" v="farm" />
		<tag k="ssr:stedsnr" v="537517" />
	</node>
	<node changeset="66877579" id="6255745869" lat="59.4159417" lon="11.7161305" timestamp="2019-02-03T14:29:45Z" uid="633013" user="Honning" version="1">
		<tag k="name" v="Ekebakken" />
		<tag k="place" v="farm" />
		<tag k="ssr:stedsnr" v="537571" />
	</node>
	<node changeset="66877579" id="6255745870" lat="59.4448556" lon="11.6774472" timestamp="2019-02-03T14:29:45Z" uid="633013" user="Honning" version="1">
		<tag k="alt_name" v="Mårud vestre" />
		<tag k="name" v="Vestre Mårud" />
		<tag k="place" v="farm" />
		<tag k="ssr:stedsnr" v="537578" />
	</node>
	<node changeset="66877579" id="6255745871" lat="59.5582139" lon="11.5980028" timestamp="2019-02-03T14:29:45Z" uid="633013" user="Honning" version="1">
		<tag k="name" v="Bjørknes" />
		<tag k="place" v="farm" />
		<tag k="ssr:stedsnr" v="307505" />
	</node>
	<node changeset="66877579" id="6255745872" lat="59.3302611" lon="11.8042556" timestamp="2019-02-03T14:29:45Z" uid="633013" user="Honning" version="1">
		<tag k="name" v="Demma" />
		<tag k="place" v="farm" />
		<tag k="ssr:stedsnr" v="307641" />
	</node>
	<node changeset="66877579" id="6255745873" lat="59.4225583" lon="11.6881667" timestamp="2019-02-03T14:29:45Z" uid="633013" user="Honning" version="1">
		<tag k="alt_name" v="Kleva" />
		<tag k="name" v="Kleiva" />
		<tag k="place" v="farm" />
		<tag k="ssr:stedsnr" v="428459" />
	</node>
	<node changeset="66877579" id="6255745874" lat="59.6262222" lon="11.6204139" timestamp="2019-02-03T14:29:45Z" uid="633013" user="Honning" version="1">
		<tag k="name" v="Stamperud" />
		<tag k="place" v="farm" />
		<tag k="ssr:stedsnr" v="538165" />
	</node>
	<node changeset="66877579" id="6255745875" lat="59.6322222" lon="11.5642167" timestamp="2019-02-03T14:29:45Z" uid="633013" user="Honning" version="1">
		<tag k="alt_name" v="Setra nordre" />
		<tag k="name" v="Nordre Setra" />
		<tag k="place" v="farm" />
		<tag k="ssr:stedsnr" v="538245" />
	</node>
	<node changeset="66877579" id="6255745876" lat="59.6423417" lon="11.7095889" timestamp="2019-02-03T14:29:45Z" uid="633013" user="Honning" version="1">
		<tag k="alt_name" v="Svendsbysetra" />
		<tag k="name" v="Svensbysetra" />
		<tag k="place" v="isolated_dwelling" />
		<tag k="ssr:stedsnr" v="538483" />
	</node>
	<node changeset="66877579" id="6255745877" lat="59.4419667" lon="11.7167889" timestamp="2019-02-03T14:29:45Z" uid="633013" user="Honning" version="1">
		<tag k="name" v="Myra" />
		<tag k="place" v="farm" />
		<tag k="ssr:stedsnr" v="538733" />
	</node>
	<node changeset="66877579" id="6255745879" lat="59.3541806" lon="11.7422667" timestamp="2019-02-03T14:29:45Z" uid="633013" user="Honning" version="1">
		<tag k="name" v="Zimmergården" />
		<tag k="place" v="isolated_dwelling" />
		<tag k="ssr:stedsnr" v="538804" />
	</node>
	<node changeset="66877579" id="6255745880" lat="59.3729611" lon="11.6372694" timestamp="2019-02-03T14:29:46Z" uid="633013" user="Honning" version="1">
		<tag k="name" v="Nordre Vestgård" />
		<tag k="place" v="farm" />
		<tag k="ssr:stedsnr" v="354308" />
	</node>
	<node changeset="66877579" id="6255745881" lat="59.4051167" lon="11.6492667" timestamp="2019-02-03T14:29:46Z" uid="633013" user="Honning" version="1">
		<tag k="name" v="Solås hyttefelt" />
		<tag k="place" v="neighbourhood" />
		<tag k="ssr:stedsnr" v="541685" />
	</node>
	<node changeset="66877579" id="6255745882" lat="59.5066556" lon="11.6267917" timestamp="2019-02-03T14:29:46Z" uid="633013" user="Honning" version="1">
		<tag k="name" v="Tynnelsrud" />
		<tag k="place" v="locality" />
		<tag k="ssr:stedsnr" v="545075" />
	</node>
	<node changeset="66877579" id="6255745883" lat="59.4345056" lon="11.7363861" timestamp="2019-02-03T14:29:46Z" uid="633013" user="Honning" version="1">
		<tag k="name" v="Furulund" />
		<tag k="place" v="farm" />
		<tag k="ssr:stedsnr" v="548522" />
	</node>
	<node changeset="66877579" id="6255745884" lat="59.4288139" lon="11.6486333" timestamp="2019-02-03T14:29:46Z" uid="633013" user="Honning" version="1">
		<tag k="alt_name" v="Djupedal søndre;Dypedal søndre" />
		<tag k="name" v="Søndre Djupedal" />
		<tag k="place" v="farm" />
		<tag k="ssr:stedsnr" v="548528" />
	</node>
	<node changeset="66877579" id="6255745985" lat="59.3853972" lon="11.7386778" timestamp="2019-02-03T14:29:46Z" uid="633013" user="Honning" version="1">
		<tag k="name" v="Engsbråten" />
		<tag k="place" v="farm" />
		<tag k="ssr:stedsnr" v="548564" />
	</node>
	<node changeset="66877579" id="6255745986" lat="59.5688611" lon="11.6144111" timestamp="2019-02-03T14:29:46Z" uid="633013" user="Honning" version="1">
		<tag k="alt_name" v="Degnes store" />
		<tag k="name" v="Store Degnes" />
		<tag k="place" v="farm" />
		<tag k="ssr:stedsnr" v="3447" />
	</node>
	<node changeset="66877579" id="6255745987" lat="59.4696222" lon="11.6401417" timestamp="2019-02-03T14:29:46Z" uid="633013" user="Honning" version="1">
		<tag k="name" v="Lihagen" />
		<tag k="place" v="locality" />
		<tag k="ssr:stedsnr" v="548583" />
	</node>
	<node changeset="66877579" id="6255745988" lat="59.4660306" lon="11.7484167" timestamp="2019-02-03T14:29:46Z" uid="633013" user="Honning" version="1">
		<tag k="name" v="Fjellby" />
		<tag k="place" v="isolated_dwelling" />
		<tag k="ssr:stedsnr" v="548595" />
	</node>
	<node changeset="66877579" id="6255745989" lat="59.4434167" lon="11.7001806" timestamp="2019-02-03T14:29:46Z" uid="633013" user="Honning" version="1">
		<tag k="name" v="Kasbu" />
		<tag k="old_name" v="Kasebu" />
		<tag k="place" v="hamlet" />
		<tag k="ssr:stedsnr" v="548604" />
	</node>
	<node changeset="66877579" id="6255745990" lat="59.6474333" lon="11.6766944" timestamp="2019-02-03T14:29:46Z" uid="633013" user="Honning" version="1">
		<tag k="alt_name" v="Kroksætra, vestre;Søndre Kroksetra" />
		<tag k="loc_name" v="Marisetra;Søndre Krokssetra" />
		<tag k="name" v="Vestre Kroksætra" />
		<tag k="place" v="isolated_dwelling" />
		<tag k="ssr:stedsnr" v="549261" />
	</node>
	<node changeset="66877579" id="6255745991" lat="59.6349444" lon="11.6209695" timestamp="2019-02-03T14:29:46Z" uid="633013" user="Honning" version="1">
		<tag k="name" v="Myrvoll" />
		<tag k="place" v="farm" />
		<tag k="ssr:stedsnr" v="549291" />
	</node>
	<node changeset="66877579" id="6255745992" lat="59.6383917" lon="11.6193389" timestamp="2019-02-03T14:29:46Z" uid="633013" user="Honning" version="1">
		<tag k="name" v="Østby" />
		<tag k="place" v="hamlet" />
		<tag k="ssr:stedsnr" v="549305" />
	</node>
	<node changeset="66877579" id="6255745993" lat="59.631914" lon="11.5644021" timestamp="2019-02-03T14:29:46Z" uid="633013" user="Honning" version="1">
		<tag k="alt_name" v="Setra" />
		<tag k="name" v="Sætra" />
		<tag k="place" v="hamlet" />
		<tag k="ssr:stedsnr" v="549311" />
	</node>
	<node changeset="66877579" id="6255745994" lat="59.546875" lon="11.628225" timestamp="2019-02-03T14:29:46Z" uid="633013" user="Honning" version="1">
		<tag k="name" v="Gåseby" />
		<tag k="place" v="hamlet" />
		<tag k="ssr:stedsnr" v="549452" />
	</node>
	<node changeset="66877579" id="6255745995" lat="59.5739" lon="11.5787611" timestamp="2019-02-03T14:29:46Z" uid="633013" user="Honning" version="1">
		<tag k="alt_name" v="Vikeby nordre" />
		<tag k="name" v="Nordre Vikeby" />
		<tag k="place" v="farm" />
		<tag k="ssr:stedsnr" v="549464" />
	</node>
	<node changeset="66877579" id="6255745996" lat="59.4216889" lon="11.7180195" timestamp="2019-02-03T14:29:46Z" uid="633013" user="Honning" version="1">
		<tag k="alt_name" v="Ledeng" />
		<tag k="name" v="Ledengen" />
		<tag k="place" v="hamlet" />
		<tag k="ssr:stedsnr" v="549468" />
	</node>
	<node changeset="66877579" id="6255745997" lat="59.3940056" lon="11.7596333" timestamp="2019-02-03T14:29:47Z" uid="633013" user="Honning" version="1">
		<tag k="name" v="Ekenes" />
		<tag k="place" v="farm" />
		<tag k="ssr:stedsnr" v="549505" />
	</node>
	<node changeset="66877579" id="6255745998" lat="59.411" lon="11.7088611" timestamp="2019-02-03T14:29:47Z" uid="633013" user="Honning" version="1">
		<tag k="name" v="Solbrekke" />
		<tag k="place" v="farm" />
		<tag k="ssr:stedsnr" v="549518" />
	</node>
	<node changeset="66877579" id="6255745999" lat="59.3798278" lon="11.682475" timestamp="2019-02-03T14:29:47Z" uid="633013" user="Honning" version="1">
		<tag k="name" v="Vakthaugen" />
		<tag k="place" v="isolated_dwelling" />
		<tag k="ssr:stedsnr" v="549525" />
	</node>
	<node changeset="66877579" id="6255746000" lat="59.412875" lon="11.6423306" timestamp="2019-02-03T14:29:47Z" uid="633013" user="Honning" version="1">
		<tag k="name" v="Nygård" />
		<tag k="place" v="farm" />
		<tag k="ssr:stedsnr" v="3477" />
	</node>
	<node changeset="66877579" id="6255746001" lat="59.6117611" lon="11.5410556" timestamp="2019-02-03T14:29:47Z" uid="633013" user="Honning" version="1">
		<tag k="name" v="Ba" />
		<tag k="place" v="farm" />
		<tag k="ssr:stedsnr" v="550277" />
	</node>
	<node changeset="66877579" id="6255746002" lat="59.6142806" lon="11.563575" timestamp="2019-02-03T14:29:47Z" uid="633013" user="Honning" version="1">
		<tag k="alt_name" v="Størløs" />
		<tag k="name" v="Storløs" />
		<tag k="place" v="farm" />
		<tag k="ssr:stedsnr" v="550276" />
	</node>
	<node changeset="66877579" id="6255746003" lat="59.5016361" lon="11.5775028" timestamp="2019-02-03T14:29:47Z" uid="633013" user="Honning" version="1">
		<tag k="name" v="Holohytta" />
		<tag k="place" v="isolated_dwelling" />
		<tag k="ssr:stedsnr" v="550361" />
	</node>
	<node changeset="66877579" id="6255746004" lat="59.5114909" lon="11.626203" timestamp="2019-02-03T14:29:47Z" uid="633013" user="Honning" version="1">
		<tag k="name" v="Vik" />
		<tag k="place" v="hamlet" />
		<tag k="ssr:stedsnr" v="550375" />
	</node>
	<node changeset="66877579" id="6255746005" lat="59.5907389" lon="11.69005" timestamp="2019-02-03T14:29:47Z" uid="633013" user="Honning" version="1">
		<tag k="historic" v="shieling" />
		<tag k="name" v="Olerudsetra" />
		<tag k="place" v="locality" />
		<tag k="ssr:stedsnr" v="550435" />
	</node>
	<node changeset="66877579" id="6255746006" lat="59.4300306" lon="11.7118472" timestamp="2019-02-03T14:29:47Z" uid="633013" user="Honning" version="1">
		<tag k="alt_name" v="Kasebuholtet" />
		<tag k="name" v="Holtet" />
		<tag k="place" v="farm" />
		<tag k="ssr:stedsnr" v="366531" />
	</node>
	<node changeset="66877579" id="6255746007" lat="59.4624389" lon="11.6757305" timestamp="2019-02-03T14:29:47Z" uid="633013" user="Honning" version="1">
		<tag k="alt_name" v="Rud østre" />
		<tag k="name" v="Østre Rud" />
		<tag k="place" v="farm" />
		<tag k="ssr:stedsnr" v="598494" />
	</node>
	<node changeset="66877579" id="6255746008" lat="59.4342917" lon="11.673825" timestamp="2019-02-03T14:29:47Z" uid="633013" user="Honning" version="1">
		<tag k="alt_name" v="Sandtorp nedre" />
		<tag k="name" v="Nedre Sandtorp" />
		<tag k="place" v="farm" />
		<tag k="ssr:stedsnr" v="354648" />
	</node>
	<node changeset="66877579" id="6255746009" lat="59.3704639" lon="11.744675" timestamp="2019-02-03T14:29:47Z" uid="633013" user="Honning" version="1">
		<tag k="name" v="Rørvik" />
		<tag k="place" v="hamlet" />
		<tag k="ssr:stedsnr" v="3670" />
	</node>
	<node changeset="66877579" id="6255746010" lat="59.5432833" lon="11.6616361" timestamp="2019-02-03T14:29:47Z" uid="633013" user="Honning" version="1">
		<tag k="name" v="Hermansetra" />
		<tag k="place" v="farm" />
		<tag k="ssr:stedsnr" v="597394" />
	</node>
	<node changeset="66877579" id="6255746011" lat="59.5290417" lon="11.6629167" timestamp="2019-02-03T14:29:47Z" uid="633013" user="Honning" version="1">
		<tag k="name" v="Rud" />
		<tag k="place" v="locality" />
		<tag k="ssr:stedsnr" v="597439" />
	</node>
	<node changeset="66877579" id="6255746012" lat="59.5423333" lon="11.5857778" timestamp="2019-02-03T14:29:47Z" uid="633013" user="Honning" version="1">
		<tag k="alt_name" v="Kallak søndre" />
		<tag k="name" v="Søndre Kallak" />
		<tag k="place" v="farm" />
		<tag k="ssr:stedsnr" v="597453" />
	</node>
	<node changeset="66877579" id="6255746013" lat="59.3860194" lon="11.7222611" timestamp="2019-02-03T14:29:47Z" uid="633013" user="Honning" version="1">
		<tag k="name" v="Spjutnes" />
		<tag k="place" v="farm" />
		<tag k="ssr:stedsnr" v="597516" />
	</node>
	<node changeset="66877579" id="6255746014" lat="59.38665" lon="11.6923861" timestamp="2019-02-03T14:29:48Z" uid="633013" user="Honning" version="1">
		<tag k="name" v="Volen" />
		<tag k="place" v="farm" />
		<tag k="ssr:stedsnr" v="597519" />
	</node>
	<node changeset="66877579" id="6255746015" lat="59.4138694" lon="11.6654111" timestamp="2019-02-03T14:29:48Z" uid="633013" user="Honning" version="1">
		<tag k="name" v="Rødkinn" />
		<tag k="place" v="isolated_dwelling" />
		<tag k="ssr:stedsnr" v="597547" />
	</node>
	<node changeset="66877579" id="6255746016" lat="59.4021889" lon="11.6680861" timestamp="2019-02-03T14:29:48Z" uid="633013" user="Honning" version="1">
		<tag k="name" v="Fløvik" />
		<tag k="place" v="farm" />
		<tag k="ssr:stedsnr" v="597562" />
	</node>
	<node changeset="66877579" id="6255746017" lat="59.4664583" lon="11.5762861" timestamp="2019-02-03T14:29:48Z" uid="633013" user="Honning" version="1">
		<tag k="name" v="Nysterudsetra" />
		<tag k="place" v="locality" />
		<tag k="ssr:stedsnr" v="597862" />
	</node>
	<node changeset="66877579" id="6255746018" lat="59.5232056" lon="11.6007222" timestamp="2019-02-03T14:29:48Z" uid="633013" user="Honning" version="1">
		<tag k="name" v="Ilebekk" />
		<tag k="place" v="isolated_dwelling" />
		<tag k="ssr:stedsnr" v="597982" />
	</node>
	<node changeset="66877579" id="6255746019" lat="59.5693639" lon="11.6135111" timestamp="2019-02-03T14:29:48Z" uid="633013" user="Honning" version="1">
		<tag k="name" v="Degnes store nordre" />
		<tag k="place" v="farm" />
		<tag k="ssr:stedsnr" v="598018" />
	</node>
	<node changeset="66877579" id="6255746020" lat="59.5516778" lon="11.6010778" timestamp="2019-02-03T14:29:48Z" uid="633013" user="Honning" version="1">
		<tag k="alt_name" v="Klemmetsby østre" />
		<tag k="name" v="Østre Klemmetsby" />
		<tag k="place" v="farm" />
		<tag k="ssr:stedsnr" v="598036" />
	</node>
	<node changeset="66877579" id="6255746021" lat="59.5598306" lon="11.5900945" timestamp="2019-02-03T14:29:48Z" uid="633013" user="Honning" version="1">
		<tag k="alt_name" v="Huser søndre" />
		<tag k="name" v="Søndre Huser" />
		<tag k="place" v="farm" />
		<tag k="ssr:stedsnr" v="598038" />
	</node>
	<node changeset="66877579" id="6255746022" lat="59.4664194" lon="11.6901528" timestamp="2019-02-03T14:29:48Z" uid="633013" user="Honning" version="1">
		<tag k="alt_name" v="Gjølsjø nordre" />
		<tag k="name" v="Nordre Gjølsjø" />
		<tag k="place" v="farm" />
		<tag k="ssr:stedsnr" v="598042" />
	</node>
	<node changeset="66877579" id="6255746023" lat="59.5423528" lon="11.6502917" timestamp="2019-02-03T14:29:48Z" uid="633013" user="Honning" version="1">
		<tag k="name" v="Sør-Hien" />
		<tag k="old_name" v="Hien" />
		<tag k="place" v="farm" />
		<tag k="ssr:stedsnr" v="355356" />
	</node>
	<node changeset="66877579" id="6255746024" lat="59.5121806" lon="11.6614472" timestamp="2019-02-03T14:29:48Z" uid="633013" user="Honning" version="1">
		<tag k="alt_name" v="Sukken søndre" />
		<tag k="name" v="Søndre Sukken" />
		<tag k="place" v="farm" />
		<tag k="ssr:stedsnr" v="598266" />
	</node>
	<node changeset="66877579" id="6255746025" lat="59.5954667" lon="11.6611528" timestamp="2019-02-03T14:29:48Z" uid="633013" user="Honning" version="1">
		<tag k="loc_name" v="Åsebysetra" />
		<tag k="name" v="Folkenborgstua" />
		<tag k="place" v="isolated_dwelling" />
		<tag k="ssr:stedsnr" v="598288" />
	</node>
	<node changeset="66877579" id="6255746026" lat="59.5117722" lon="11.6753806" timestamp="2019-02-03T14:29:48Z" uid="633013" user="Honning" version="1">
		<tag k="name" v="Julsrud" />
		<tag k="place" v="farm" />
		<tag k="ssr:stedsnr" v="598339" />
	</node>
	<node changeset="66877579" id="6255746027" lat="59.5126583" lon="11.7125389" timestamp="2019-02-03T14:29:48Z" uid="633013" user="Honning" version="1">
		<tag k="name" v="Mosebysetra" />
		<tag k="place" v="locality" />
		<tag k="ssr:stedsnr" v="598354" />
	</node>
	<node changeset="66877579" id="6255746028" lat="59.6077861" lon="11.5323056" timestamp="2019-02-03T14:29:48Z" uid="633013" user="Honning" version="1">
		<tag k="alt_name" v="Skrikerud nordre" />
		<tag k="name" v="Nordre Skrikerud" />
		<tag k="place" v="farm" />
		<tag k="ssr:stedsnr" v="598520" />
	</node>
	<node changeset="66877579" id="6255746029" lat="59.4344472" lon="11.6785111" timestamp="2019-02-03T14:29:48Z" uid="633013" user="Honning" version="1">
		<tag k="name" v="Søndre Sandtorp" />
		<tag k="place" v="farm" />
		<tag k="ssr:stedsnr" v="598596" />
	</node>
	<node changeset="66877579" id="6255746030" lat="59.476925" lon="11.6504417" timestamp="2019-02-03T14:29:48Z" uid="633013" user="Honning" version="1">
		<tag k="name" v="Diskerud" />
		<tag k="place" v="farm" />
		<tag k="ssr:stedsnr" v="598704" />
	</node>
	<node changeset="66877579" id="6255746031" lat="59.5832" lon="11.619775" timestamp="2019-02-03T14:29:49Z" uid="633013" user="Honning" version="1">
		<tag k="name" v="Olerudhytta" />
		<tag k="place" v="locality" />
		<tag k="ssr:stedsnr" v="598720" />
	</node>
	<node changeset="66877579" id="6255746032" lat="59.3500778" lon="11.7438722" timestamp="2019-02-03T14:29:49Z" uid="633013" user="Honning" version="1">
		<tag k="name" v="Østre Otteid" />
		<tag k="place" v="farm" />
		<tag k="ssr:stedsnr" v="598782" />
	</node>
	<node changeset="66877579" id="6255746033" lat="59.5243722" lon="11.6052861" timestamp="2019-02-03T14:29:49Z" uid="633013" user="Honning" version="1">
		<tag k="name" v="Holo" />
		<tag k="place" v="farm" />
		<tag k="ssr:stedsnr" v="610423" />
	</node>
	<node changeset="66877579" id="6255746034" lat="59.3847972" lon="11.7071917" timestamp="2019-02-03T14:29:49Z" uid="633013" user="Honning" version="1">
		<tag k="name" v="Berget" />
		<tag k="place" v="farm" />
		<tag k="ssr:stedsnr" v="609527" />
	</node>
	<node changeset="66877579" id="6255746035" lat="59.4880333" lon="11.6827917" timestamp="2019-02-03T14:29:49Z" uid="633013" user="Honning" version="1">
		<tag k="name" v="Sletta" />
		<tag k="place" v="farm" />
		<tag k="ssr:stedsnr" v="609532" />
	</node>
	<node changeset="66877579" id="6255746036" lat="59.4863806" lon="11.6683167" timestamp="2019-02-03T14:29:49Z" uid="633013" user="Honning" version="1">
		<tag k="name" v="Krokstad" />
		<tag k="place" v="hamlet" />
		<tag k="ssr:stedsnr" v="609533" />
	</node>
	<node changeset="66877579" id="6255746037" lat="59.4711583" lon="11.6994806" timestamp="2019-02-03T14:29:49Z" uid="633013" user="Honning" version="1">
		<tag k="name" v="Åseby" />
		<tag k="place" v="farm" />
		<tag k="ssr:stedsnr" v="609548" />
	</node>
	<node changeset="66877579" id="6255746038" lat="59.4635583" lon="11.6436583" timestamp="2019-02-03T14:29:49Z" uid="633013" user="Honning" version="1">
		<tag k="name" v="Li" />
		<tag k="place" v="farm" />
		<tag k="ssr:stedsnr" v="609566" />
	</node>
	<node changeset="66877579" id="6255746039" lat="59.4379861" lon="11.6667445" timestamp="2019-02-03T14:29:49Z" uid="633013" user="Honning" version="1">
		<tag k="name" v="Kolstad" />
		<tag k="place" v="farm" />
		<tag k="ssr:stedsnr" v="609570" />
	</node>
	<node changeset="66877579" id="6255746040" lat="59.3607278" lon="11.6334694" timestamp="2019-02-03T14:29:49Z" uid="633013" user="Honning" version="1">
		<tag k="name" v="Damsløkka" />
		<tag k="place" v="isolated_dwelling" />
		<tag k="ssr:stedsnr" v="609674" />
	</node>
	<node changeset="66877579" id="6255746041" lat="59.4994111" lon="11.6712556" timestamp="2019-02-03T14:29:49Z" uid="633013" user="Honning" version="1">
		<tag k="name" v="Enger" />
		<tag k="place" v="hamlet" />
		<tag k="ssr:stedsnr" v="610408" />
	</node>
	<node changeset="66877579" id="6255746042" lat="59.5889083" lon="11.614475" timestamp="2019-02-03T14:29:49Z" uid="633013" user="Honning" version="1">
		<tag k="name" v="Olerud" />
		<tag k="place" v="farm" />
		<tag k="ssr:stedsnr" v="610483" />
	</node>
	<node changeset="66877579" id="6255746043" lat="59.5771" lon="11.5422694" timestamp="2019-02-03T14:29:49Z" uid="633013" user="Honning" version="1">
		<tag k="name" v="Ådal" />
		<tag k="place" v="isolated_dwelling" />
		<tag k="ssr:stedsnr" v="610485" />
	</node>
	<node changeset="66877579" id="6255746044" lat="59.5995944" lon="11.56905" timestamp="2019-02-03T14:29:49Z" uid="633013" user="Honning" version="1">
		<tag k="alt_name" v="Glundberg" />
		<tag k="name" v="Glunnberg" />
		<tag k="place" v="farm" />
		<tag k="ssr:stedsnr" v="610515" />
	</node>
	<node changeset="66877579" id="6255746045" lat="59.5380694" lon="11.6561611" timestamp="2019-02-03T14:29:49Z" uid="633013" user="Honning" version="1">
		<tag k="name" v="Langnes" />
		<tag k="place" v="farm" />
		<tag k="ssr:stedsnr" v="610522" />
	</node>
	<node changeset="66877579" id="6255746046" lat="59.5605167" lon="11.59135" timestamp="2019-02-03T14:29:49Z" uid="633013" user="Honning" version="1">
		<tag k="name" v="Huser" />
		<tag k="place" v="farm" />
		<tag k="ssr:stedsnr" v="610535" />
	</node>
	<node changeset="66877579" id="6255746047" lat="59.5791833" lon="11.6541972" timestamp="2019-02-03T14:29:49Z" uid="633013" user="Honning" version="1">
		<tag k="name" v="Furuli" />
		<tag k="place" v="isolated_dwelling" />
		<tag k="ssr:stedsnr" v="610537" />
	</node>
	<node changeset="66877579" id="6255746048" lat="59.5714556" lon="11.6117444" timestamp="2019-02-03T14:29:49Z" uid="633013" user="Honning" version="1">
		<tag k="alt_name" v="Degnes mellem" />
		<tag k="name" v="Mellom-Degnes" />
		<tag k="place" v="farm" />
		<tag k="ssr:stedsnr" v="610541" />
	</node>
	<node changeset="66877579" id="6255746049" lat="59.4099944" lon="11.7229333" timestamp="2019-02-03T14:29:50Z" uid="633013" user="Honning" version="1">
		<tag k="alt_name" v="Buer" />
		<tag k="name" v="Nordre Buer" />
		<tag k="place" v="farm" />
		<tag k="ssr:stedsnr" v="610563" />
	</node>
	<node changeset="66877579" id="6255746050" lat="59.3430861" lon="11.7297972" timestamp="2019-02-03T14:29:50Z" uid="633013" user="Honning" version="1">
		<tag k="alt_name" v="Botten" />
		<tag k="name" v="Botn" />
		<tag k="place" v="farm" />
		<tag k="ssr:stedsnr" v="610756" />
	</node>
	<node changeset="66877579" id="6255746051" lat="59.5555222" lon="11.6272167" timestamp="2019-02-03T14:29:50Z" uid="633013" user="Honning" version="1">
		<tag k="name" v="Slupstad" />
		<tag k="place" v="farm" />
		<tag k="ssr:stedsnr" v="656140" />
	</node>
	<node changeset="66877579" id="6255746052" lat="59.4260306" lon="11.6087611" timestamp="2019-02-03T14:29:50Z" uid="633013" user="Honning" version="1">
		<tag k="name" v="Holmetjernhytta" />
		<tag k="place" v="isolated_dwelling" />
		<tag k="ssr:stedsnr" v="51790" />
	</node>
	<node changeset="66877579" id="6255746053" lat="59.5878" lon="11.5686278" timestamp="2019-02-03T14:29:50Z" uid="633013" user="Honning" version="1">
		<tag k="alt_name" v="Folkenborg øvre" />
		<tag k="name" v="Øvre Folkenborg" />
		<tag k="place" v="farm" />
		<tag k="ssr:stedsnr" v="355164" />
	</node>
	<node changeset="66877579" id="6255746054" lat="59.3485833" lon="11.7013694" timestamp="2019-02-03T14:29:50Z" uid="633013" user="Honning" version="1">
		<tag k="name" v="Grislingås" />
		<tag k="place" v="farm" />
		<tag k="ssr:stedsnr" v="658332" />
	</node>
	<node changeset="66877579" id="6255746055" lat="59.3463278" lon="11.7246917" timestamp="2019-02-03T14:29:50Z" uid="633013" user="Honning" version="1">
		<tag k="name" v="Kasa" />
		<tag k="place" v="farm" />
		<tag k="ssr:stedsnr" v="658337" />
	</node>
	<node changeset="66877579" id="6255746056" lat="59.4601917" lon="11.6678417" timestamp="2019-02-03T14:29:50Z" uid="633013" user="Honning" version="1">
		<tag k="alt_name" v="Anonby nordre" />
		<tag k="name" v="Nordre Anonby" />
		<tag k="place" v="farm" />
		<tag k="ssr:stedsnr" v="658496" />
	</node>
	<node changeset="66877579" id="6255746057" lat="59.4051361" lon="11.6495667" timestamp="2019-02-03T14:29:50Z" uid="633013" user="Honning" version="1">
		<tag k="alt_name" v="Solås" />
		<tag k="name" v="Svelta" />
		<tag k="place" v="farm" />
		<tag k="ssr:stedsnr" v="658503" />
	</node>
	<node changeset="66877579" id="6255746058" lat="59.4163778" lon="11.6494778" timestamp="2019-02-03T14:29:50Z" uid="633013" user="Honning" version="1">
		<tag k="name" v="Busvenbua" />
		<tag k="place" v="farm" />
		<tag k="ssr:stedsnr" v="658546" />
	</node>
	<node changeset="66877579" id="6255746059" lat="59.4029333" lon="11.6939778" timestamp="2019-02-03T14:29:50Z" uid="633013" user="Honning" version="1">
		<tag k="alt_name" v="Mellem Stikle" />
		<tag k="name" v="Mellom-Stikle" />
		<tag k="place" v="farm" />
		<tag k="ssr:stedsnr" v="658586" />
	</node>
	<node changeset="66877579" id="6255746060" lat="59.6064556" lon="11.5775528" timestamp="2019-02-03T14:29:50Z" uid="633013" user="Honning" version="1">
		<tag k="name" v="Ødegård" />
		<tag k="place" v="farm" />
		<tag k="ssr:stedsnr" v="658894" />
	</node>
	<node changeset="66877579" id="6255746061" lat="59.5069611" lon="11.66715" timestamp="2019-02-03T14:29:50Z" uid="633013" user="Honning" version="1">
		<tag k="alt_name" v="Grimsby østre" />
		<tag k="name" v="Østre Grimsby" />
		<tag k="place" v="farm" />
		<tag k="ssr:stedsnr" v="659357" />
	</node>
	<node changeset="66877579" id="6255746062" lat="59.3459417" lon="11.6769528" timestamp="2019-02-03T14:29:50Z" uid="633013" user="Honning" version="1">
		<tag k="name" v="Djupvik" />
		<tag k="old_name" v="Dypvik" />
		<tag k="place" v="farm" />
		<tag k="ssr:stedsnr" v="659367" />
	</node>
	<node changeset="66877579" id="6255746063" lat="59.4776361" lon="11.7331472" timestamp="2019-02-03T14:29:50Z" uid="633013" user="Honning" version="1">
		<tag k="name" v="Nordre Håby" />
		<tag k="place" v="locality" />
		<tag k="ssr:stedsnr" v="52022" />
	</node>
	<node changeset="66877579" id="6255746064" lat="59.399325" lon="11.6701889" timestamp="2019-02-03T14:29:50Z" uid="633013" user="Honning" version="1">
		<tag k="name" v="Fløvik" />
		<tag k="place" v="farm" />
		<tag k="ssr:stedsnr" v="719526" />
	</node>
	<node changeset="66877579" id="6255746065" lat="59.6331639" lon="11.6273944" timestamp="2019-02-03T14:29:51Z" uid="633013" user="Honning" version="1">
		<tag k="name" v="Sandbekk" />
		<tag k="place" v="farm" />
		<tag k="ssr:stedsnr" v="659545" />
	</node>
	<node changeset="66877579" id="6255746066" lat="59.3450083" lon="11.7621444" timestamp="2019-02-03T14:29:51Z" uid="633013" user="Honning" version="1">
		<tag k="name" v="Holtevik" />
		<tag k="place" v="isolated_dwelling" />
		<tag k="ssr:stedsnr" v="659802" />
	</node>
	<node changeset="66877579" id="6255746067" lat="59.4254778" lon="11.7520722" timestamp="2019-02-03T14:29:51Z" uid="633013" user="Honning" version="1">
		<tag k="alt_name" v="Slakleva" />
		<tag k="name" v="Slakleiva" />
		<tag k="place" v="farm" />
		<tag k="ssr:stedsnr" v="670463" />
	</node>
	<node changeset="66877579" id="6255746068" lat="59.4194611" lon="11.7394889" timestamp="2019-02-03T14:29:51Z" uid="633013" user="Honning" version="1">
		<tag k="name" v="Årbogen" />
		<tag k="place" v="farm" />
		<tag k="ssr:stedsnr" v="670466" />
	</node>
	<node changeset="66877579" id="6255746069" lat="59.4110528" lon="11.6674806" timestamp="2019-02-03T14:29:51Z" uid="633013" user="Honning" version="1">
		<tag k="name" v="Skogheim" />
		<tag k="place" v="farm" />
		<tag k="ssr:stedsnr" v="670481" />
	</node>
	<node changeset="66877579" id="6255746070" lat="59.3799639" lon="11.6228445" timestamp="2019-02-03T14:29:51Z" uid="633013" user="Honning" version="1">
		<tag k="name" v="Igletjern" />
		<tag k="place" v="farm" />
		<tag k="ssr:stedsnr" v="670510" />
	</node>
	<node changeset="66877579" id="6255746071" lat="59.4663306" lon="11.6672111" timestamp="2019-02-03T14:29:51Z" uid="633013" user="Honning" version="1">
		<tag k="alt_name" v="Bøn;Bøen østre" />
		<tag k="name" v="Østre Bøen" />
		<tag k="place" v="farm" />
		<tag k="ssr:stedsnr" v="670554" />
	</node>
	<node changeset="66877579" id="6255746072" lat="59.6139889" lon="11.5695472" timestamp="2019-02-03T14:29:51Z" uid="633013" user="Honning" version="1">
		<tag k="alt_name" v="Rakkestad nordre" />
		<tag k="name" v="Nordre Rakkestad" />
		<tag k="place" v="farm" />
		<tag k="ssr:stedsnr" v="962892" />
	</node>
	<node changeset="66877579" id="6255746073" lat="59.4770861" lon="11.6882472" timestamp="2019-02-03T14:29:51Z" uid="633013" user="Honning" version="1">
		<tag k="alt_name" v="Gjølsjøødegården søndre;Søndre Gjølsjø Ødegården" />
		<tag k="name" v="Søndre Gjølsjøødegården" />
		<tag k="place" v="farm" />
		<tag k="ssr:stedsnr" v="670567" />
	</node>
	<node changeset="66877579" id="6255746074" lat="59.4592556" lon="11.7084667" timestamp="2019-02-03T14:29:51Z" uid="633013" user="Honning" version="1">
		<tag k="name" v="Søbyskogen" />
		<tag k="place" v="locality" />
		<tag k="ssr:stedsnr" v="670568" />
	</node>
	<node changeset="66877579" id="6255746075" lat="59.4551806" lon="11.6406917" timestamp="2019-02-03T14:29:51Z" uid="633013" user="Honning" version="1">
		<tag k="name" v="Jaren" />
		<tag k="place" v="farm" />
		<tag k="ssr:stedsnr" v="670577" />
	</node>
	<node changeset="66877579" id="6255746076" lat="59.4531139" lon="11.6952167" timestamp="2019-02-03T14:29:51Z" uid="633013" user="Honning" version="1">
		<tag k="name" v="Søby" />
		<tag k="place" v="farm" />
		<tag k="ssr:stedsnr" v="670593" />
	</node>
	<node changeset="66877579" id="6255746077" lat="59.4475389" lon="11.6915611" timestamp="2019-02-03T14:29:51Z" uid="633013" user="Honning" version="1">
		<tag k="alt_name" v="Sevland" />
		<tag k="name" v="Seveland" />
		<tag k="place" v="farm" />
		<tag k="ssr:stedsnr" v="670594" />
	</node>
	<node changeset="66877579" id="6255746078" lat="59.4480944" lon="11.6989278" timestamp="2019-02-03T14:29:51Z" uid="633013" user="Honning" version="1">
		<tag k="name" v="Spekkebu" />
		<tag k="place" v="farm" />
		<tag k="ssr:stedsnr" v="670596" />
	</node>
	<node changeset="66877579" id="6255746079" lat="59.3630611" lon="11.6806778" timestamp="2019-02-03T14:29:51Z" uid="633013" user="Honning" version="1">
		<tag k="name" v="Gråbøl" />
		<tag k="place" v="hamlet" />
		<tag k="ssr:stedsnr" v="670691" />
	</node>
	<node changeset="66877579" id="6255746080" lat="59.3566222" lon="11.7757944" timestamp="2019-02-03T14:29:51Z" uid="633013" user="Honning" version="1">
		<tag k="alt_name" v="Torgrimsbu" />
		<tag k="name" v="Nordre Torgrimsbu" />
		<tag k="place" v="farm" />
		<tag k="ssr:stedsnr" v="670697" />
	</node>
	<node changeset="66877579" id="6255746081" lat="59.35095" lon="11.645025" timestamp="2019-02-03T14:29:51Z" uid="633013" user="Honning" version="1">
		<tag k="name" v="Lia" />
		<tag k="place" v="farm" />
		<tag k="ssr:stedsnr" v="670705" />
	</node>
	<node changeset="66877579" id="6255746082" lat="59.3472889" lon="11.7052222" timestamp="2019-02-03T14:29:52Z" uid="633013" user="Honning" version="1">
		<tag k="name" v="Grislingås" />
		<tag k="place" v="farm" />
		<tag k="ssr:stedsnr" v="670720" />
	</node>
	<node changeset="66877579" id="6255746083" lat="59.6325194" lon="11.6558028" timestamp="2019-02-03T14:29:52Z" uid="633013" user="Honning" version="1">
		<tag k="alt_name" v="Fluetjernsstua" />
		<tag k="name" v="Fluetjernshytta" />
		<tag k="place" v="isolated_dwelling" />
		<tag k="ssr:stedsnr" v="671287" />
	</node>
	<node changeset="66877579" id="6255746084" lat="59.5015922" lon="11.6596231" timestamp="2019-02-03T14:29:52Z" uid="633013" user="Honning" version="1">
		<tag k="name" v="Moseby" />
		<tag k="place" v="farm" />
		<tag k="ssr:stedsnr" v="671369" />
	</node>
	<node changeset="66877579" id="5042281536" lat="59.4502028" lon="11.5809611" timestamp="2019-02-03T14:30:14Z" uid="633013" user="Honning" version="3">
		<tag k="alt_name" v="Frøne" />
		<tag k="historic" v="shieling" />
		<tag k="historic:operator" v="Lie" />
		<tag k="name" v="Frøneseter" />
		<tag k="place" v="isolated_dwelling" />
		<tag k="ssr:stedsnr" v="354222" />
	</node>
	<node changeset="66877579" id="6255746185" lat="59.5171028" lon="11.6751667" timestamp="2019-02-03T14:29:52Z" uid="633013" user="Honning" version="1">
		<tag k="alt_name" v="Slepa" />
		<tag k="name" v="Vestli" />
		<tag k="place" v="farm" />
		<tag k="ssr:stedsnr" v="671376" />
	</node>
	<node changeset="66877579" id="6255746186" lat="59.5799667" lon="11.5620444" timestamp="2019-02-03T14:29:52Z" uid="633013" user="Honning" version="1">
		<tag k="name" v="Taraldrud" />
		<tag k="place" v="farm" />
		<tag k="ssr:stedsnr" v="671432" />
	</node>
	<node changeset="66877579" id="6255746187" lat="59.5907028" lon="11.5598139" timestamp="2019-02-03T14:29:52Z" uid="633013" user="Honning" version="1">
		<tag k="name" v="Tommelsrud" />
		<tag k="place" v="farm" />
		<tag k="ssr:stedsnr" v="671442" />
	</node>
	<node changeset="66877579" id="6255746188" lat="59.6329667" lon="11.6066583" timestamp="2019-02-03T14:29:52Z" uid="633013" user="Honning" version="1">
		<tag k="loc_name" v="Nord Enga" />
		<tag k="name" v="Nedre Enga" />
		<tag k="place" v="farm" />
		<tag k="ssr:stedsnr" v="52136" />
	</node>
	<node changeset="66877579" id="6255746189" lat="59.6043889" lon="11.5752833" timestamp="2019-02-03T14:29:52Z" uid="633013" user="Honning" version="1">
		<tag k="name" v="Moserud" />
		<tag k="place" v="farm" />
		<tag k="ssr:stedsnr" v="671464" />
	</node>
	<node changeset="66877579" id="6255746190" lat="59.4579611" lon="11.6674695" timestamp="2019-02-03T14:29:52Z" uid="633013" user="Honning" version="1">
		<tag k="alt_name" v="Anonby søndre" />
		<tag k="name" v="Søndre Anonby" />
		<tag k="place" v="farm" />
		<tag k="ssr:stedsnr" v="719470" />
	</node>
	<node changeset="66877579" id="6255746191" lat="59.5554222" lon="11.6169778" timestamp="2019-02-03T14:29:52Z" uid="633013" user="Honning" version="1">
		<tag k="name" v="Sandvika" />
		<tag k="place" v="farm" />
		<tag k="ssr:stedsnr" v="719007" />
	</node>
	<node changeset="66877579" id="6255746192" lat="59.5714944" lon="11.611675" timestamp="2019-02-03T14:29:52Z" uid="633013" user="Honning" version="1">
		<tag k="name" v="Degnes" />
		<tag k="place" v="hamlet" />
		<tag k="ssr:stedsnr" v="719010" />
	</node>
	<node changeset="66877579" id="6255746193" lat="59.5522833" lon="11.5773028" timestamp="2019-02-03T14:29:52Z" uid="633013" user="Honning" version="1">
		<tag k="name" v="Bråten" />
		<tag k="place" v="farm" />
		<tag k="ssr:stedsnr" v="719020" />
	</node>
	<node changeset="66877579" id="6255746194" lat="59.4949778" lon="11.6946167" timestamp="2019-02-03T14:29:52Z" uid="633013" user="Honning" version="1">
		<tag k="name" v="Brandsrud" />
		<tag k="place" v="farm" />
		<tag k="ssr:stedsnr" v="719116" />
	</node>
	<node changeset="66877579" id="6255746195" lat="59.5886361" lon="11.5621194" timestamp="2019-02-03T14:29:52Z" uid="633013" user="Honning" version="1">
		<tag k="name" v="Tommelsrud" />
		<tag k="place" v="farm" />
		<tag k="ssr:stedsnr" v="719159" />
	</node>
	<node changeset="66877579" id="6255746196" lat="59.5832417" lon="11.5290444" timestamp="2019-02-03T14:29:52Z" uid="633013" user="Honning" version="1">
		<tag k="alt_name" v="Fallet søndre" />
		<tag k="name" v="Søndre Fallet" />
		<tag k="place" v="farm" />
		<tag k="ssr:stedsnr" v="719187" />
	</node>
	<node changeset="66877579" id="6255746197" lat="59.5860444" lon="11.5439055" timestamp="2019-02-03T14:29:52Z" uid="633013" user="Honning" version="1">
		<tag k="name" v="Vestby" />
		<tag k="place" v="farm" />
		<tag k="ssr:stedsnr" v="719195" />
	</node>
	<node changeset="66877579" id="6255746198" lat="59.3667222" lon="11.6743833" timestamp="2019-02-03T14:29:52Z" uid="633013" user="Honning" version="1">
		<tag k="name" v="Gråbøl" />
		<tag k="place" v="farm" />
		<tag k="ssr:stedsnr" v="719294" />
	</node>
	<node changeset="66877579" id="6255746199" lat="59.4166556" lon="11.6741611" timestamp="2019-02-03T14:29:52Z" uid="633013" user="Honning" version="1">
		<tag k="name" v="Espelund" />
		<tag k="place" v="isolated_dwelling" />
		<tag k="ssr:stedsnr" v="719515" />
	</node>
	<node changeset="66877579" id="6255746200" lat="59.5761861" lon="11.5766167" timestamp="2019-02-03T14:29:53Z" uid="633013" user="Honning" version="1">
		<tag k="name" v="Speiderhytta" />
		<tag k="place" v="isolated_dwelling" />
		<tag k="ssr:stedsnr" v="355458" />
	</node>
	<node changeset="66877579" id="6255746201" lat="59.4025417" lon="11.6959556" timestamp="2019-02-03T14:29:53Z" uid="633013" user="Honning" version="1">
		<tag k="name" v="Jeriko" />
		<tag k="place" v="isolated_dwelling" />
		<tag k="ssr:stedsnr" v="719547" />
	</node>
	<node changeset="66877579" id="6255746202" lat="59.4072722" lon="11.6958222" timestamp="2019-02-03T14:29:53Z" uid="633013" user="Honning" version="1">
		<tag k="name" v="Huset" />
		<tag k="place" v="farm" />
		<tag k="ssr:stedsnr" v="719552" />
	</node>
	<node changeset="66877579" id="6255746203" lat="59.3878278" lon="11.6919167" timestamp="2019-02-03T14:29:53Z" uid="633013" user="Honning" version="1">
		<tag k="name" v="Volen" />
		<tag k="place" v="farm" />
		<tag k="ssr:stedsnr" v="355460" />
	</node>
	<node changeset="66877579" id="6255746204" lat="59.6059556" lon="11.5863944" timestamp="2019-02-03T14:29:53Z" uid="633013" user="Honning" version="1">
		<tag k="name" v="Nygård" />
		<tag k="place" v="farm" />
		<tag k="ssr:stedsnr" v="719894" />
	</node>
	<node changeset="66877579" id="6255746205" lat="59.6337" lon="11.61445" timestamp="2019-02-03T14:29:53Z" uid="633013" user="Honning" version="1">
		<tag k="loc_name" v="Sør Åser" />
		<tag k="name" v="Åser" />
		<tag k="place" v="farm" />
		<tag k="ssr:stedsnr" v="720170" />
	</node>
	<node changeset="66877579" id="6255746206" lat="59.5099389" lon="11.6545694" timestamp="2019-02-03T14:29:53Z" uid="633013" user="Honning" version="1">
		<tag k="alt_name" v="Berger nordre" />
		<tag k="name" v="Nordre Berger" />
		<tag k="place" v="farm" />
		<tag k="ssr:stedsnr" v="720276" />
	</node>
	<node changeset="66877579" id="6255746207" lat="59.5557139" lon="11.6409861" timestamp="2019-02-03T14:29:53Z" uid="633013" user="Honning" version="1">
		<tag k="name" v="Gåsebyhagen" />
		<tag k="place" v="farm" />
		<tag k="ssr:stedsnr" v="720421" />
	</node>
	<node changeset="66877579" id="6255746208" lat="59.6117083" lon="11.5542139" timestamp="2019-02-03T14:29:53Z" uid="633013" user="Honning" version="1">
		<tag k="name" v="Pommern" />
		<tag k="place" v="farm" />
		<tag k="ssr:stedsnr" v="720550" />
	</node>
	<node changeset="66877579" id="6255746209" lat="59.4692972" lon="11.6437167" timestamp="2019-02-03T14:29:53Z" uid="633013" user="Honning" version="1">
		<tag k="name" v="Nordli" />
		<tag k="place" v="locality" />
		<tag k="ssr:stedsnr" v="720714" />
	</node>
	<node changeset="66877579" id="6255746210" lat="59.3511111" lon="11.7553389" timestamp="2019-02-03T14:29:53Z" uid="633013" user="Honning" version="1">
		<tag k="name" v="Kleva" />
		<tag k="place" v="isolated_dwelling" />
		<tag k="ssr:stedsnr" v="720823" />
	</node>
	<node changeset="66877579" id="6255746211" lat="59.3566639" lon="11.7424861" timestamp="2019-02-03T14:29:53Z" uid="633013" user="Honning" version="1">
		<tag k="name" v="Sootødegården" />
		<tag k="place" v="locality" />
		<tag k="ssr:stedsnr" v="720825" />
	</node>
	<node changeset="66877579" id="6255746212" lat="59.6104278" lon="11.5737972" timestamp="2019-02-03T14:29:53Z" uid="633013" user="Honning" version="1">
		<tag k="alt_name" v="Rakkestad østre" />
		<tag k="name" v="Østre Rakkestad" />
		<tag k="place" v="farm" />
		<tag k="ssr:stedsnr" v="720919" />
	</node>
	<node changeset="66877579" id="6255746213" lat="59.5961278" lon="11.6238472" timestamp="2019-02-03T14:29:53Z" uid="633013" user="Honning" version="1">
		<tag k="name" v="Søndre Åseby" />
		<tag k="place" v="farm" />
		<tag k="ssr:stedsnr" v="720946" />
	</node>
	<node changeset="66877579" id="6255746214" lat="59.6300472" lon="11.615675" timestamp="2019-02-03T14:29:53Z" uid="633013" user="Honning" version="1">
		<tag k="name" v="Oppsal" />
		<tag k="place" v="hamlet" />
		<tag k="ssr:stedsnr" v="723678" />
	</node>
	<node changeset="66877579" id="6255746215" lat="59.3172778" lon="11.8088111" timestamp="2019-02-03T14:29:53Z" uid="633013" user="Honning" version="1">
		<tag k="name" v="Løvik" />
		<tag k="place" v="isolated_dwelling" />
		<tag k="ssr:stedsnr" v="731607" />
	</node>
	<node changeset="66877579" id="6255746216" lat="59.3732222" lon="11.7904278" timestamp="2019-02-03T14:29:53Z" uid="633013" user="Honning" version="1">
		<tag k="alt_name" v="Norske Moen" />
		<tag k="name" v="Moen" />
		<tag k="place" v="hamlet" />
		<tag k="ssr:stedsnr" v="731650" />
	</node>
	<node changeset="66877579" id="6255746217" lat="59.3582944" lon="11.69665" timestamp="2019-02-03T14:29:53Z" uid="633013" user="Honning" version="1">
		<tag k="alt_name" v="Gunneng søndre;Gundeng søndre;Gunneng" />
		<tag k="name" v="Søndre Gunneng" />
		<tag k="place" v="farm" />
		<tag k="ssr:stedsnr" v="731685" />
	</node>
	<node changeset="66877579" id="6255746218" lat="59.34755" lon="11.6852611" timestamp="2019-02-03T14:29:54Z" uid="633013" user="Honning" version="1">
		<tag k="name" v="Nordre Djupvik" />
		<tag k="old_name" v="Djupvik;Dypvik nordre" />
		<tag k="place" v="farm" />
		<tag k="ssr:stedsnr" v="731702" />
	</node>
	<node changeset="66877579" id="6255746219" lat="59.5119778" lon="11.6270472" timestamp="2019-02-03T14:29:54Z" uid="633013" user="Honning" version="1">
		<tag k="name" v="Vik" />
		<tag k="place" v="farm" />
		<tag k="ssr:stedsnr" v="727496" />
	</node>
	<node changeset="66877579" id="6255746220" lat="59.4693444" lon="11.6631778" timestamp="2019-02-03T14:29:54Z" uid="633013" user="Honning" version="1">
		<tag k="name" v="Torp" />
		<tag k="place" v="farm" />
		<tag k="ssr:stedsnr" v="730641" />
	</node>
	<node changeset="66877579" id="6255746221" lat="59.4414167" lon="11.7355889" timestamp="2019-02-03T14:29:54Z" uid="633013" user="Honning" version="1">
		<tag k="loc_name" v="Sætret" />
		<tag k="name" v="Sætre" />
		<tag k="place" v="farm" />
		<tag k="ssr:stedsnr" v="730671" />
	</node>
	<node changeset="66877579" id="6255746222" lat="59.4541778" lon="11.7002611" timestamp="2019-02-03T14:29:54Z" uid="633013" user="Honning" version="1">
		<tag k="alt_name" v="Ankerud" />
		<tag k="name" v="Nordre Ankerud" />
		<tag k="place" v="farm" />
		<tag k="ssr:stedsnr" v="730674" />
	</node>
	<node changeset="66877579" id="6255746223" lat="59.3844333" lon="11.6817833" timestamp="2019-02-03T14:29:54Z" uid="633013" user="Honning" version="1">
		<tag k="name" v="Herrud" />
		<tag k="place" v="farm" />
		<tag k="ssr:stedsnr" v="731511" />
	</node>
	<node changeset="66877579" id="6255746224" lat="59.350875" lon="11.7401" timestamp="2019-02-03T14:29:54Z" uid="633013" user="Honning" version="1">
		<tag k="name" v="Otteid" />
		<tag k="place" v="farm" />
		<tag k="ssr:stedsnr" v="731706" />
	</node>
	<node changeset="66877579" id="6255746225" lat="59.6301889" lon="11.5600305" timestamp="2019-02-03T14:29:54Z" uid="633013" user="Honning" version="1">
		<tag k="name" v="Bjørnstad" />
		<tag k="place" v="farm" />
		<tag k="ssr:stedsnr" v="732309" />
	</node>
	<node changeset="66877579" id="6255746226" lat="59.5764" lon="11.5190333" timestamp="2019-02-03T14:29:54Z" uid="633013" user="Honning" version="1">
		<tag k="alt_name" v="Buviken" />
		<tag k="name" v="Buvika" />
		<tag k="place" v="isolated_dwelling" />
		<tag k="ssr:stedsnr" v="732466" />
	</node>
	<node changeset="66877579" id="6255746227" lat="59.5903639" lon="11.5745806" timestamp="2019-02-03T14:29:54Z" uid="633013" user="Honning" version="1">
		<tag k="name" v="Klokkerud" />
		<tag k="place" v="farm" />
		<tag k="ssr:stedsnr" v="732473" />
	</node>
	<node changeset="66877579" id="6255746228" lat="59.6000972" lon="11.6292806" timestamp="2019-02-03T14:29:54Z" uid="633013" user="Honning" version="1">
		<tag k="name" v="Ulfsby" />
		<tag k="place" v="farm" />
		<tag k="ssr:stedsnr" v="732479" />
	</node>
	<node changeset="66877579" id="6255746229" lat="59.5924028" lon="11.592175" timestamp="2019-02-03T14:29:54Z" uid="633013" user="Honning" version="1">
		<tag k="name" v="Nyborg" />
		<tag k="place" v="farm" />
		<tag k="ssr:stedsnr" v="732482" />
	</node>
	<node changeset="66877579" id="6255746230" lat="59.5948389" lon="11.5248639" timestamp="2019-02-03T14:29:54Z" uid="633013" user="Honning" version="1">
		<tag k="name" v="Kongsbakk" />
		<tag k="place" v="hamlet" />
		<tag k="ssr:stedsnr" v="732485" />
	</node>
	<node changeset="66877579" id="6255746231" lat="59.5591111" lon="11.6382778" timestamp="2019-02-03T14:29:54Z" uid="633013" user="Honning" version="1">
		<tag k="name" v="Brattli" />
		<tag k="place" v="farm" />
		<tag k="ssr:stedsnr" v="732508" />
	</node>
	<node changeset="66877579" id="6255746232" lat="59.562275" lon="11.6193139" timestamp="2019-02-03T14:29:54Z" uid="633013" user="Honning" version="1">
		<tag k="alt_name" v="Vika" />
		<tag k="name" v="Sandvika" />
		<tag k="place" v="farm" />
		<tag k="ssr:stedsnr" v="732528" />
	</node>
	<node changeset="66877579" id="6255746233" lat="59.561975" lon="11.6352278" timestamp="2019-02-03T14:29:54Z" uid="633013" user="Honning" version="1">
		<tag k="alt_name" v="Slustadhagan" />
		<tag k="name" v="Slupstadhagen" />
		<tag k="old_name" v="Hagen" />
		<tag k="place" v="farm" />
		<tag k="ssr:stedsnr" v="732530" />
	</node>
	<node changeset="66877579" id="6255746234" lat="59.3558639" lon="11.7138083" timestamp="2019-02-03T14:29:55Z" uid="633013" user="Honning" version="1">
		<tag k="name" v="Stordal" />
		<tag k="place" v="isolated_dwelling" />
		<tag k="ssr:stedsnr" v="779263" />
	</node>
	<node changeset="66877579" id="6255746235" lat="59.5404361" lon="11.5694083" timestamp="2019-02-03T14:29:55Z" uid="633013" user="Honning" version="1">
		<tag k="name" v="Granli" />
		<tag k="place" v="farm" />
		<tag k="ssr:stedsnr" v="779456" />
	</node>
	<node changeset="66877579" id="6255746236" lat="59.40655" lon="11.7072722" timestamp="2019-02-03T14:29:55Z" uid="633013" user="Honning" version="1">
		<tag k="name" v="Stikle-Ødegården" />
		<tag k="place" v="locality" />
		<tag k="ssr:stedsnr" v="779603" />
	</node>
	<node changeset="66877579" id="6255746237" lat="59.4048417" lon="11.7335" timestamp="2019-02-03T14:29:55Z" uid="633013" user="Honning" version="1">
		<tag k="name" v="Buerødegård" />
		<tag k="place" v="farm" />
		<tag k="ssr:stedsnr" v="779888" />
	</node>
	<node changeset="66877579" id="6255746238" lat="59.4992611" lon="11.6321889" timestamp="2019-02-03T14:29:55Z" uid="633013" user="Honning" version="1">
		<tag k="name" v="Ysterudødegården" />
		<tag k="place" v="farm" />
		<tag k="ssr:stedsnr" v="416203" />
	</node>
	<node changeset="66877579" id="6255746239" lat="59.3978806" lon="11.733925" timestamp="2019-02-03T14:29:55Z" uid="633013" user="Honning" version="1">
		<tag k="name" v="Nordre Eng" />
		<tag k="place" v="farm" />
		<tag k="ssr:stedsnr" v="779905" />
	</node>
	<node changeset="66877579" id="6255746240" lat="59.4524667" lon="11.7354917" timestamp="2019-02-03T14:29:55Z" uid="633013" user="Honning" version="1">
		<tag k="name" v="Østre Sloreby" />
		<tag k="place" v="farm" />
		<tag k="ssr:stedsnr" v="779919" />
	</node>
	<node changeset="66877579" id="6255746241" lat="59.4903417" lon="11.6815278" timestamp="2019-02-03T14:29:55Z" uid="633013" user="Honning" version="1">
		<tag k="name" v="Søndre Sletta" />
		<tag k="place" v="farm" />
		<tag k="ssr:stedsnr" v="780021" />
	</node>
	<node changeset="66877579" id="6255746242" lat="59.4865944" lon="11.6785083" timestamp="2019-02-03T14:29:55Z" uid="633013" user="Honning" version="1">
		<tag k="name" v="Krokstadbråten" />
		<tag k="place" v="farm" />
		<tag k="ssr:stedsnr" v="294022" />
	</node>
	<node changeset="66877579" id="6255746243" lat="59.4783417" lon="11.6853083" timestamp="2019-02-03T14:29:55Z" uid="633013" user="Honning" version="1">
		<tag k="name" v="Branes" />
		<tag k="place" v="farm" />
		<tag k="ssr:stedsnr" v="294040" />
	</node>
	<node changeset="66877579" id="6255746244" lat="59.4880389" lon="11.6934278" timestamp="2019-02-03T14:29:55Z" uid="633013" user="Honning" version="1">
		<tag k="name" v="Lømmerud" />
		<tag k="place" v="farm" />
		<tag k="ssr:stedsnr" v="294106" />
	</node>
	<node changeset="66877579" id="6255746245" lat="59.6155361" lon="11.6166556" timestamp="2019-02-03T14:29:55Z" uid="633013" user="Honning" version="1">
		<tag k="name" v="Vispa" />
		<tag k="place" v="farm" />
		<tag k="ssr:stedsnr" v="780133" />
	</node>
	<node changeset="66877579" id="6255746246" lat="59.6156917" lon="11.6042889" timestamp="2019-02-03T14:29:55Z" uid="633013" user="Honning" version="1">
		<tag k="alt_name" v="Krok søndre" />
		<tag k="name" v="Søndre Krok" />
		<tag k="place" v="farm" />
		<tag k="ssr:stedsnr" v="780142" />
	</node>
	<node changeset="66877579" id="6255746247" lat="59.5870583" lon="11.5688556" timestamp="2019-02-03T14:29:55Z" uid="633013" user="Honning" version="1">
		<tag k="alt_name" v="Folkenborg nedre" />
		<tag k="name" v="Nedre Folkenborg" />
		<tag k="place" v="farm" />
		<tag k="ssr:stedsnr" v="780169" />
	</node>
	<node changeset="66877579" id="6255746248" lat="59.58535" lon="11.5547111" timestamp="2019-02-03T14:29:55Z" uid="633013" user="Honning" version="1">
		<tag k="alt_name" v="Klerud nordre" />
		<tag k="name" v="Nordre Klerud" />
		<tag k="place" v="farm" />
		<tag k="ssr:stedsnr" v="780184" />
	</node>
	<node changeset="66877579" id="6255746249" lat="59.5055056" lon="11.6264028" timestamp="2019-02-03T14:29:55Z" uid="633013" user="Honning" version="1">
		<tag k="name" v="Vestre Tyndelsrud" />
		<tag k="place" v="farm" />
		<tag k="ssr:stedsnr" v="780197" />
	</node>
	<node changeset="66877579" id="6255746250" lat="59.6657889" lon="11.6312639" timestamp="2019-02-03T14:29:55Z" uid="633013" user="Honning" version="1">
		<tag k="name" v="Oppsalsetervangen" />
		<tag k="place" v="locality" />
		<tag k="ssr:stedsnr" v="780394" />
	</node>
	<node changeset="66877579" id="6255746251" lat="59.4027889" lon="11.6721167" timestamp="2019-02-03T14:29:56Z" uid="633013" user="Honning" version="1">
		<tag k="name" v="Fløvik" />
		<tag k="place" v="farm" />
		<tag k="ssr:stedsnr" v="780508" />
	</node>
	<node changeset="66877579" id="6255746252" lat="59.6165222" lon="11.5330361" timestamp="2019-02-03T14:29:56Z" uid="633013" user="Honning" version="1">
		<tag k="alt_name" v="Basmo" />
		<tag k="name" v="Basmoen" />
		<tag k="place" v="farm" />
		<tag k="ssr:stedsnr" v="295237" />
	</node>
	<node changeset="66877579" id="6255746253" lat="59.6134472" lon="11.6498806" timestamp="2019-02-03T14:29:56Z" uid="633013" user="Honning" version="1">
		<tag k="loc_name" v="Nedre Jørnhaugen" />
		<tag k="name" v="Jørnhaugen" />
		<tag k="place" v="locality" />
		<tag k="ssr:stedsnr" v="780567" />
	</node>
	<node changeset="66877579" id="6255746254" lat="59.5946306" lon="11.6313694" timestamp="2019-02-03T14:29:56Z" uid="633013" user="Honning" version="1">
		<tag k="name" v="Nylenda" />
		<tag k="place" v="locality" />
		<tag k="ssr:stedsnr" v="295311" />
	</node>
	<node changeset="66877579" id="6255746255" lat="59.608675" lon="11.6804056" timestamp="2019-02-03T14:29:56Z" uid="633013" user="Honning" version="1">
		<tag k="name" v="Follkenborgstua" />
		<tag k="place" v="isolated_dwelling" />
		<tag k="ssr:stedsnr" v="780598" />
	</node>
	<node changeset="66877579" id="6255746256" lat="59.5888444" lon="11.6143667" timestamp="2019-02-03T14:29:56Z" uid="633013" user="Honning" version="1">
		<tag k="name" v="Nordre Olerud" />
		<tag k="old_name" v="Orderud nordre" />
		<tag k="place" v="farm" />
		<tag k="ssr:stedsnr" v="780694" />
	</node>
	<node changeset="66877579" id="6255746257" lat="59.6497722" lon="11.6436389" timestamp="2019-02-03T14:29:56Z" uid="633013" user="Honning" version="1">
		<tag k="historic" v="shieling" />
		<tag k="name" v="Damvannssetra" />
		<tag k="place" v="locality" />
		<tag k="ssr:stedsnr" v="295462" />
	</node>
	<node changeset="66877579" id="6255746258" lat="59.599325" lon="11.5682333" timestamp="2019-02-03T14:29:56Z" uid="633013" user="Honning" version="1">
		<tag k="name" v="Glundberg" />
		<tag k="place" v="farm" />
		<tag k="ssr:stedsnr" v="295531" />
	</node>
	<node changeset="66877579" id="6255746259" lat="59.4251889" lon="11.6887833" timestamp="2019-02-03T14:29:56Z" uid="633013" user="Honning" version="1">
		<tag k="name" v="Østli" />
		<tag k="place" v="farm" />
		<tag k="ssr:stedsnr" v="295535" />
	</node>
	<node changeset="66877579" id="6255746260" lat="59.6179583" lon="11.5599028" timestamp="2019-02-03T14:29:56Z" uid="633013" user="Honning" version="1">
		<tag k="name" v="Storløs" />
		<tag k="place" v="farm" />
		<tag k="ssr:stedsnr" v="295540" />
	</node>
	<node changeset="66877579" id="6255746261" lat="59.6337389" lon="11.6291611" timestamp="2019-02-03T14:29:56Z" uid="633013" user="Honning" version="1">
		<tag k="name" v="Sandbakken" />
		<tag k="place" v="locality" />
		<tag k="ssr:stedsnr" v="295555" />
	</node>
	<node changeset="66877579" id="6255746262" lat="59.4363583" lon="11.6851889" timestamp="2019-02-03T14:29:56Z" uid="633013" user="Honning" version="1">
		<tag k="name" v="Søndre Lømbu" />
		<tag k="old_name" v="Vestre Lømbu" />
		<tag k="place" v="farm" />
		<tag k="ssr:stedsnr" v="295612" />
	</node>
	<node changeset="66877579" id="6255746263" lat="59.4363194" lon="11.7049583" timestamp="2019-02-03T14:29:56Z" uid="633013" user="Honning" version="1">
		<tag k="alt_name" v="Hagen" />
		<tag k="name" v="Kasbuhagen" />
		<tag k="place" v="locality" />
		<tag k="ssr:stedsnr" v="295613" />
	</node>
	<node changeset="66877579" id="6255746264" lat="59.4690167" lon="11.6527528" timestamp="2019-02-03T14:29:56Z" uid="633013" user="Honning" version="1">
		<tag k="name" v="Liødegården" />
		<tag k="place" v="locality" />
		<tag k="ssr:stedsnr" v="295710" />
	</node>
	<node changeset="66877579" id="6255746265" lat="59.5871167" lon="11.6140389" timestamp="2019-02-03T14:29:56Z" uid="633013" user="Honning" version="1">
		<tag k="name" v="Orderud søndre" />
		<tag k="place" v="farm" />
		<tag k="ssr:stedsnr" v="295752" />
	</node>
	<node changeset="66877579" id="6255746266" lat="59.5135917" lon="11.6470556" timestamp="2019-02-03T14:29:56Z" uid="633013" user="Honning" version="1">
		<tag k="name" v="Gromholt" />
		<tag k="place" v="farm" />
		<tag k="ssr:stedsnr" v="793403" />
	</node>
	<node changeset="66877579" id="6255746267" lat="59.5134056" lon="11.6587611" timestamp="2019-02-03T14:29:56Z" uid="633013" user="Honning" version="1">
		<tag k="name" v="Sukken" />
		<tag k="place" v="farm" />
		<tag k="ssr:stedsnr" v="793404" />
	</node>
	<node changeset="66877579" id="6255746268" lat="59.5931167" lon="11.5580667" timestamp="2019-02-03T14:29:57Z" uid="633013" user="Honning" version="1">
		<tag k="alt_name" v="Sandem" />
		<tag k="name" v="Sandum" />
		<tag k="place" v="farm" />
		<tag k="ssr:stedsnr" v="793492" />
	</node>
	<node changeset="66877579" id="6255746269" lat="59.6165528" lon="11.6044389" timestamp="2019-02-03T14:29:57Z" uid="633013" user="Honning" version="1">
		<tag k="name" v="Krok" />
		<tag k="place" v="farm" />
		<tag k="ssr:stedsnr" v="793499" />
	</node>
	<node changeset="66877579" id="6255746270" lat="59.6055861" lon="11.5323639" timestamp="2019-02-03T14:29:57Z" uid="633013" user="Honning" version="1">
		<tag k="name" v="Skrikerud" />
		<tag k="place" v="hamlet" />
		<tag k="ssr:stedsnr" v="793503" />
	</node>
	<node changeset="66877579" id="6255746271" lat="59.6054222" lon="11.5559167" timestamp="2019-02-03T14:29:57Z" uid="633013" user="Honning" version="1">
		<tag k="alt_name" v="Skislet" />
		<tag k="name" v="Skislett" />
		<tag k="place" v="hamlet" />
		<tag k="ssr:stedsnr" v="793508" />
	</node>
	<node changeset="66877579" id="6255746272" lat="59.5935306" lon="11.6202778" timestamp="2019-02-03T14:29:57Z" uid="633013" user="Honning" version="1">
		<tag k="name" v="Hen" />
		<tag k="place" v="farm" />
		<tag k="ssr:stedsnr" v="788449" />
	</node>
	<node changeset="66877579" id="6255746273" lat="59.43285" lon="11.6902195" timestamp="2019-02-03T14:29:57Z" uid="633013" user="Honning" version="1">
		<tag k="name" v="Botner" />
		<tag k="place" v="farm" />
		<tag k="ssr:stedsnr" v="791498" />
	</node>
	<node changeset="66877579" id="6255746274" lat="59.43355" lon="11.6529028" timestamp="2019-02-03T14:29:57Z" uid="633013" user="Honning" version="1">
		<tag k="alt_name" v="Djupedal nordre;Dypedal nordre" />
		<tag k="name" v="Nordre Djupedal" />
		<tag k="place" v="farm" />
		<tag k="ssr:stedsnr" v="791501" />
	</node>
	<node changeset="66877579" id="6255746275" lat="59.382675" lon="11.6380417" timestamp="2019-02-03T14:29:57Z" uid="633013" user="Honning" version="1">
		<tag k="alt_name" v="Halvorsrud, søndre;Halvorsrud" />
		<tag k="name" v="Søndre Halvorsrud" />
		<tag k="place" v="farm" />
		<tag k="ssr:stedsnr" v="791535" />
	</node>
	<node changeset="66877579" id="6255746276" lat="59.6198556" lon="11.5765528" timestamp="2019-02-03T14:29:57Z" uid="633013" user="Honning" version="1">
		<tag k="alt_name" v="Levik" />
		<tag k="name" v="Lervik" />
		<tag k="place" v="farm" />
		<tag k="ssr:stedsnr" v="307321" />
	</node>
	<node changeset="66877579" id="6255746277" lat="59.4385472" lon="11.6884667" timestamp="2019-02-03T14:29:57Z" uid="633013" user="Honning" version="1">
		<tag k="name" v="Nordre Lømbu" />
		<tag k="old_name" v="Østre Lømbu" />
		<tag k="place" v="farm" />
		<tag k="ssr:stedsnr" v="791595" />
	</node>
	<node changeset="66877579" id="6255746278" lat="59.617075" lon="11.5764639" timestamp="2019-02-03T14:29:57Z" uid="633013" user="Honning" version="1">
		<tag k="name" v="Huset" />
		<tag k="place" v="farm" />
		<tag k="ssr:stedsnr" v="307481" />
	</node>
	<node changeset="66877579" id="6255746279" lat="59.540325" lon="11.6438111" timestamp="2019-02-03T14:29:57Z" uid="633013" user="Honning" version="1">
		<tag k="name" v="Vestre Høgås" />
		<tag k="place" v="farm" />
		<tag k="ssr:stedsnr" v="307494" />
	</node>
	<node changeset="66877579" id="6255746280" lat="59.5552278" lon="11.5835945" timestamp="2019-02-03T14:29:57Z" uid="633013" user="Honning" version="1">
		<tag k="name" v="Toketorp" />
		<tag k="place" v="farm" />
		<tag k="ssr:stedsnr" v="307500" />
	</node>
	<node changeset="66877579" id="6255746281" lat="59.4240806" lon="11.6484944" timestamp="2019-02-03T14:29:57Z" uid="633013" user="Honning" version="1">
		<tag k="name" v="Bernhus" />
		<tag k="place" v="farm" />
		<tag k="ssr:stedsnr" v="792496" />
	</node>
	<node changeset="66877579" id="6255746282" lat="59.3957833" lon="11.7340889" timestamp="2019-02-03T14:29:57Z" uid="633013" user="Honning" version="1">
		<tag k="name" v="Eng" />
		<tag k="place" v="hamlet" />
		<tag k="ssr:stedsnr" v="792516" />
	</node>
	<node changeset="66877579" id="6255746283" lat="59.40295" lon="11.6983361" timestamp="2019-02-03T14:29:57Z" uid="633013" user="Honning" version="1">
		<tag k="name" v="Stikle" />
		<tag k="place" v="hamlet" />
		<tag k="ssr:stedsnr" v="792525" />
	</node>
	<node changeset="66877579" id="6255746284" lat="59.3900222" lon="11.7362667" timestamp="2019-02-03T14:29:58Z" uid="633013" user="Honning" version="1">
		<tag k="alt_name" v="Taskerud;Taskerud søndre" />
		<tag k="name" v="Søndre Taskerud" />
		<tag k="place" v="farm" />
		<tag k="ssr:stedsnr" v="307547" />
	</node>
	<node changeset="66877579" id="6255746285" lat="59.3882417" lon="11.6498" timestamp="2019-02-03T14:29:58Z" uid="633013" user="Honning" version="1">
		<tag k="name" v="Duenes" />
		<tag k="place" v="farm" />
		<tag k="ssr:stedsnr" v="792534" />
	</node>
	<node changeset="66877579" id="6255746286" lat="59.3446806" lon="11.7165722" timestamp="2019-02-03T14:29:58Z" uid="633013" user="Honning" version="1">
		<tag k="name" v="Labråten" />
		<tag k="place" v="isolated_dwelling" />
		<tag k="ssr:stedsnr" v="792719" />
	</node>
	<node changeset="66877579" id="6255746287" lat="59.3430778" lon="11.7514139" timestamp="2019-02-03T14:29:58Z" uid="633013" user="Honning" version="1">
		<tag k="alt_name" v="Gjøsbu" />
		<tag k="name" v="Gysbu" />
		<tag k="place" v="farm" />
		<tag k="ssr:stedsnr" v="792722" />
	</node>
	<node changeset="66877579" id="6255746288" lat="59.5513556" lon="11.5514111" timestamp="2019-02-03T14:29:58Z" uid="633013" user="Honning" version="1">
		<tag k="name" v="Hiåsen" />
		<tag k="place" v="isolated_dwelling" />
		<tag k="ssr:stedsnr" v="796050" />
	</node>
	<node changeset="66877579" id="6255746289" lat="59.5714" lon="11.5874055" timestamp="2019-02-03T14:29:58Z" uid="633013" user="Honning" version="1">
		<tag k="alt_name" v="Søndre Vikeby" />
		<tag k="name" v="Launes" />
		<tag k="place" v="farm" />
		<tag k="ssr:stedsnr" v="829500" />
	</node>
	<node changeset="66877579" id="6255746290" lat="59.4375417" lon="11.6880167" timestamp="2019-02-03T14:29:58Z" uid="633013" user="Honning" version="1">
		<tag k="name" v="Lømbu" />
		<tag k="place" v="locality" />
		<tag k="ssr:stedsnr" v="829528" />
	</node>
	<node changeset="66877579" id="6255746291" lat="59.3715833" lon="11.6448917" timestamp="2019-02-03T14:29:58Z" uid="633013" user="Honning" version="1">
		<tag k="name" v="Søndre Søgård" />
		<tag k="place" v="farm" />
		<tag k="ssr:stedsnr" v="840297" />
	</node>
	<node changeset="66877579" id="6255746292" lat="59.5293278" lon="11.5941722" timestamp="2019-02-03T14:29:58Z" uid="633013" user="Honning" version="1">
		<tag k="alt_name" v="Krosbyhagen" />
		<tag k="name" v="Krossbyhagen" />
		<tag k="place" v="farm" />
		<tag k="ssr:stedsnr" v="840409" />
	</node>
	<node changeset="66877579" id="6255746293" lat="59.5379833" lon="11.5980417" timestamp="2019-02-03T14:29:58Z" uid="633013" user="Honning" version="1">
		<tag k="name" v="Kjenner" />
		<tag k="place" v="farm" />
		<tag k="ssr:stedsnr" v="840435" />
	</node>
	<node changeset="66877579" id="6255746294" lat="59.4278028" lon="11.6681639" timestamp="2019-02-03T14:29:58Z" uid="633013" user="Honning" version="1">
		<tag k="name" v="Sandtorpmoen" />
		<tag k="place" v="farm" />
		<tag k="ssr:stedsnr" v="840625" />
	</node>
	<node changeset="66877579" id="6255746295" lat="59.3554611" lon="11.7738861" timestamp="2019-02-03T14:29:58Z" uid="633013" user="Honning" version="1">
		<tag k="name" v="Søndre Torgrimsby" />
		<tag k="place" v="farm" />
		<tag k="ssr:stedsnr" v="840821" />
	</node>
	<node changeset="66877579" id="6255746296" lat="59.3866083" lon="11.7362556" timestamp="2019-02-03T14:29:58Z" uid="633013" user="Honning" version="1">
		<tag k="name" v="Engsødegården" />
		<tag k="place" v="farm" />
		<tag k="ssr:stedsnr" v="840883" />
	</node>
	<node changeset="66877579" id="6255746297" lat="59.5597667" lon="11.5746694" timestamp="2019-02-03T14:29:58Z" uid="633013" user="Honning" version="1">
		<tag k="alt_name" v="Grav øvre" />
		<tag k="name" v="Øvre Grav" />
		<tag k="place" v="farm" />
		<tag k="ssr:stedsnr" v="355039" />
	</node>
	<node changeset="66877579" id="6255746298" lat="59.5526361" lon="11.5718083" timestamp="2019-02-03T14:29:58Z" uid="633013" user="Honning" version="1">
		<tag k="name" v="Bråten" />
		<tag k="place" v="farm" />
		<tag k="ssr:stedsnr" v="355056" />
	</node>
	<node changeset="66877579" id="6255746299" lat="59.5605944" lon="11.5896055" timestamp="2019-02-03T14:29:58Z" uid="633013" user="Honning" version="1">
		<tag k="alt_name" v="Huser nordre" />
		<tag k="name" v="Nordre Huser" />
		<tag k="place" v="farm" />
		<tag k="ssr:stedsnr" v="841038" />
	</node>
	<node changeset="66877579" id="6255746300" lat="59.6372722" lon="11.6074" timestamp="2019-02-03T14:29:58Z" uid="633013" user="Honning" version="1">
		<tag k="loc_name" v="Ødegården S" />
		<tag k="name" v="Ødegård" />
		<tag k="place" v="farm" />
		<tag k="ssr:stedsnr" v="355109" />
	</node>
	<node changeset="66877579" id="6255746301" lat="59.6398472" lon="11.6071389" timestamp="2019-02-03T14:29:59Z" uid="633013" user="Honning" version="1">
		<tag k="alt_name" v="Nordgarden" />
		<tag k="name" v="Nordre Oppsal" />
		<tag k="old_name" v="Opsal" />
		<tag k="place" v="farm" />
		<tag k="ssr:stedsnr" v="355111" />
	</node>
	<node changeset="66877579" id="6255746302" lat="59.4976389" lon="11.7153972" timestamp="2019-02-03T14:29:59Z" uid="633013" user="Honning" version="1">
		<tag k="name" v="Nordre Alerud" />
		<tag k="place" v="locality" />
		<tag k="ssr:stedsnr" v="355134" />
	</node>
	<node changeset="66877579" id="6255746303" lat="59.6221583" lon="11.6205944" timestamp="2019-02-03T14:29:59Z" uid="633013" user="Honning" version="1">
		<tag k="alt_name" v="Tukken søndre" />
		<tag k="name" v="Søndre Tukken" />
		<tag k="place" v="farm" />
		<tag k="ssr:stedsnr" v="841138" />
	</node>
	<node changeset="66877579" id="6255746304" lat="59.5023611" lon="11.6773389" timestamp="2019-02-03T14:29:59Z" uid="633013" user="Honning" version="1">
		<tag k="name" v="Nordre Engerbråten" />
		<tag k="place" v="farm" />
		<tag k="ssr:stedsnr" v="841211" />
	</node>
	<node changeset="66877579" id="6255746305" lat="59.5837083" lon="11.5609639" timestamp="2019-02-03T14:29:59Z" uid="633013" user="Honning" version="1">
		<tag k="alt_name" v="Klerud østre" />
		<tag k="name" v="Østre Klerud" />
		<tag k="place" v="farm" />
		<tag k="ssr:stedsnr" v="841224" />
	</node>
	<node changeset="66877579" id="6255746306" lat="59.5655417" lon="11.5798222" timestamp="2019-02-03T14:29:59Z" uid="633013" user="Honning" version="1">
		<tag k="alt_name" v="Kinn vestre" />
		<tag k="name" v="Vestre Kinn" />
		<tag k="place" v="farm" />
		<tag k="ssr:stedsnr" v="355248" />
	</node>
	<node changeset="66877579" id="6255746307" lat="59.5692389" lon="11.5795556" timestamp="2019-02-03T14:29:59Z" uid="633013" user="Honning" version="1">
		<tag k="alt_name" v="Vikeby søndre" />
		<tag k="name" v="Søndre Vikeby" />
		<tag k="place" v="farm" />
		<tag k="ssr:stedsnr" v="841245" />
	</node>
	<node changeset="66877579" id="6255746308" lat="59.5450083" lon="11.6659833" timestamp="2019-02-03T14:29:59Z" uid="633013" user="Honning" version="1">
		<tag k="name" v="Sandåker" />
		<tag k="place" v="farm" />
		<tag k="ssr:stedsnr" v="841386" />
	</node>
	<node changeset="66877579" id="6255746309" lat="59.5454639" lon="11.6422722" timestamp="2019-02-03T14:29:59Z" uid="633013" user="Honning" version="1">
		<tag k="name" v="Skogstad" />
		<tag k="place" v="farm" />
		<tag k="ssr:stedsnr" v="841391" />
	</node>
	<node changeset="66877579" id="6255746310" lat="59.5418472" lon="11.6295667" timestamp="2019-02-03T14:29:59Z" uid="633013" user="Honning" version="1">
		<tag k="alt_name" v="Stillesby vestre" />
		<tag k="name" v="Vestre Stillesby" />
		<tag k="place" v="farm" />
		<tag k="ssr:stedsnr" v="355362" />
	</node>
	<node changeset="66877579" id="6255746311" lat="59.5327722" lon="11.6730278" timestamp="2019-02-03T14:29:59Z" uid="633013" user="Honning" version="1">
		<tag k="name" v="Stillesbysetra" />
		<tag k="place" v="farm" />
		<tag k="ssr:stedsnr" v="841428" />
	</node>
	<node changeset="66877579" id="6255746312" lat="59.6461639" lon="11.6696056" timestamp="2019-02-03T14:29:59Z" uid="633013" user="Honning" version="1">
		<tag k="name" v="Mikaelskoia" />
		<tag k="place" v="locality" />
		<tag k="ssr:stedsnr" v="355430" />
	</node>
	<node changeset="66877579" id="6255746313" lat="59.5232222" lon="11.6151722" timestamp="2019-02-03T14:29:59Z" uid="633013" user="Honning" version="1">
		<tag k="name" v="Kåtorp" />
		<tag k="place" v="farm" />
		<tag k="ssr:stedsnr" v="841487" />
	</node>
	<node changeset="66877579" id="6255746314" lat="59.3845194" lon="11.6802583" timestamp="2019-02-03T14:29:59Z" uid="633013" user="Honning" version="1">
		<tag k="name" v="Herrud" />
		<tag k="place" v="farm" />
		<tag k="ssr:stedsnr" v="841488" />
	</node>
	<node changeset="66877579" id="6255746315" lat="59.3949389" lon="11.73055" timestamp="2019-02-03T14:29:59Z" uid="633013" user="Honning" version="1">
		<tag k="name" v="Eng" />
		<tag k="place" v="farm" />
		<tag k="ssr:stedsnr" v="841502" />
	</node>
	<node changeset="66877579" id="6255746316" lat="59.4289444" lon="11.6866306" timestamp="2019-02-03T14:29:59Z" uid="633013" user="Honning" version="1">
		<tag k="name" v="Svingen" />
		<tag k="place" v="farm" />
		<tag k="ssr:stedsnr" v="841509" />
	</node>
	<node changeset="66877579" id="6255746317" lat="59.4318" lon="11.7282833" timestamp="2019-02-03T14:30:00Z" uid="633013" user="Honning" version="1">
		<tag k="name" v="Østebu" />
		<tag k="place" v="farm" />
		<tag k="ssr:stedsnr" v="841514" />
	</node>
	<node changeset="66877579" id="6255746318" lat="59.4450278" lon="11.6531667" timestamp="2019-02-03T14:30:00Z" uid="633013" user="Honning" version="1">
		<tag k="name" v="Sundbråten" />
		<tag k="place" v="locality" />
		<tag k="ssr:stedsnr" v="355470" />
	</node>
	<node changeset="66877579" id="6255746319" lat="59.6096083" lon="11.5444444" timestamp="2019-02-03T14:30:00Z" uid="633013" user="Honning" version="1">
		<tag k="alt_name" v="Ba søndre" />
		<tag k="name" v="Søndre Ba" />
		<tag k="place" v="farm" />
		<tag k="ssr:stedsnr" v="841524" />
	</node>
	<node changeset="66877579" id="6255746320" lat="59.6053806" lon="11.5340389" timestamp="2019-02-03T14:30:00Z" uid="633013" user="Honning" version="1">
		<tag k="alt_name" v="Skrikerud mellem" />
		<tag k="name" v="Mellom-Skrikerud" />
		<tag k="place" v="farm" />
		<tag k="ssr:stedsnr" v="355483" />
	</node>
	<node changeset="66877579" id="6255746321" lat="59.3964528" lon="11.6779778" timestamp="2019-02-03T14:30:00Z" uid="633013" user="Honning" version="1">
		<tag k="name" v="Kasene" />
		<tag k="place" v="farm" />
		<tag k="ssr:stedsnr" v="355488" />
	</node>
	<node changeset="66877579" id="6255746322" lat="59.4277167" lon="11.7271611" timestamp="2019-02-03T14:30:00Z" uid="633013" user="Honning" version="1">
		<tag k="name" v="Labråten" />
		<tag k="place" v="farm" />
		<tag k="ssr:stedsnr" v="355490" />
	</node>
	<node changeset="66877579" id="6255746323" lat="59.4062861" lon="11.7225472" timestamp="2019-02-03T14:30:00Z" uid="633013" user="Honning" version="1">
		<tag k="alt_name" v="Mellem Buer" />
		<tag k="name" v="Mellom-Buer" />
		<tag k="place" v="farm" />
		<tag k="ssr:stedsnr" v="841582" />
	</node>
	<node changeset="66877579" id="6255746324" lat="59.6128805" lon="11.6429329" timestamp="2019-02-03T14:30:00Z" uid="633013" user="Honning" version="1">
		<tag k="name" v="Østre Tjernsmo" />
		<tag k="place" v="locality" />
		<tag k="ssr:stedsnr" v="841614" />
	</node>
	<node changeset="66877579" id="6255746325" lat="59.4005694" lon="11.6852972" timestamp="2019-02-03T14:30:00Z" uid="633013" user="Honning" version="1">
		<tag k="name" v="Knappeneset" />
		<tag k="place" v="farm" />
		<tag k="ssr:stedsnr" v="355544" />
	</node>
	<node changeset="66877579" id="6255746326" lat="59.4081889" lon="11.6896556" timestamp="2019-02-03T14:30:00Z" uid="633013" user="Honning" version="1">
		<tag k="name" v="Husebråten" />
		<tag k="place" v="isolated_dwelling" />
		<tag k="ssr:stedsnr" v="355549" />
	</node>
	<node changeset="66877579" id="6255746327" lat="59.4042361" lon="11.7224889" timestamp="2019-02-03T14:30:00Z" uid="633013" user="Honning" version="1">
		<tag k="name" v="Pilhaug" />
		<tag k="place" v="farm" />
		<tag k="ssr:stedsnr" v="355550" />
	</node>
	<node changeset="66877579" id="6255746328" lat="59.4580972" lon="11.6845306" timestamp="2019-02-03T14:30:00Z" uid="633013" user="Honning" version="1">
		<tag k="name" v="Vangli" />
		<tag k="place" v="farm" />
		<tag k="ssr:stedsnr" v="355631" />
	</node>
	<node changeset="66877579" id="6255746329" lat="59.6098222" lon="11.5689111" timestamp="2019-02-03T14:30:00Z" uid="633013" user="Honning" version="1">
		<tag k="alt_name" v="Rakkestad vestre" />
		<tag k="name" v="Vestre Rakkestad" />
		<tag k="place" v="farm" />
		<tag k="ssr:stedsnr" v="841892" />
	</node>
	<node changeset="66877579" id="6255746330" lat="59.5385389" lon="11.6514945" timestamp="2019-02-03T14:30:00Z" uid="633013" user="Honning" version="1">
		<tag k="name" v="Nordre Høgås" />
		<tag k="place" v="farm" />
		<tag k="ssr:stedsnr" v="302110" />
	</node>
	<node changeset="66877579" id="6255746331" lat="59.3393861" lon="11.6345778" timestamp="2019-02-03T14:30:00Z" uid="633013" user="Honning" version="1">
		<tag k="name" v="Flagghytta" />
		<tag k="place" v="isolated_dwelling" />
		<tag k="ssr:stedsnr" v="842348" />
	</node>
	<node changeset="66877579" id="6255746332" lat="59.4630972" lon="11.6715639" timestamp="2019-02-03T14:30:00Z" uid="633013" user="Honning" version="1">
		<tag k="name" v="Rud" />
		<tag k="place" v="farm" />
		<tag k="ssr:stedsnr" v="852589" />
	</node>
	<node changeset="66877579" id="6255746333" lat="59.4591125" lon="11.6660541" timestamp="2019-02-03T14:30:00Z" uid="633013" user="Honning" version="1">
		<tag k="alt_name" v="Ånonby" />
		<tag k="name" v="Anonby" />
		<tag k="place" v="farm" />
		<tag k="ssr:stedsnr" v="852588" />
	</node>
	<node changeset="66877579" id="6255746334" lat="59.3585944" lon="11.6969917" timestamp="2019-02-03T14:30:01Z" uid="633013" user="Honning" version="1">
		<tag k="name" v="Gunneng" />
		<tag k="place" v="hamlet" />
		<tag k="ssr:stedsnr" v="358291" />
	</node>
	<node changeset="66877579" id="6255746335" lat="59.5013429" lon="11.6599471" timestamp="2019-02-03T14:30:01Z" uid="633013" user="Honning" version="1">
		<tag k="name" v="Moseby" />
		<tag k="place" v="farm" />
		<tag k="ssr:stedsnr" v="363430" />
	</node>
	<node changeset="66877579" id="6255746336" lat="59.5492472" lon="11.61995" timestamp="2019-02-03T14:30:01Z" uid="633013" user="Honning" version="1">
		<tag k="alt_name" v="Gåseby søndre" />
		<tag k="name" v="Søndre Gåseby" />
		<tag k="place" v="farm" />
		<tag k="ssr:stedsnr" v="853468" />
	</node>
	<node changeset="66877579" id="6255746337" lat="59.3922083" lon="11.7090528" timestamp="2019-02-03T14:30:01Z" uid="633013" user="Honning" version="1">
		<tag k="name" v="Solerud" />
		<tag k="place" v="farm" />
		<tag k="ssr:stedsnr" v="853516" />
	</node>
	<node changeset="66877579" id="6255746338" lat="59.4057992" lon="11.7225201" timestamp="2019-02-03T14:30:01Z" uid="633013" user="Honning" version="1">
		<tag k="name" v="Buer" />
		<tag k="place" v="hamlet" />
		<tag k="ssr:stedsnr" v="853518" />
	</node>
	<node changeset="66877579" id="6255746339" lat="59.4949389" lon="11.715975" timestamp="2019-02-03T14:30:01Z" uid="633013" user="Honning" version="1">
		<tag k="alt_name" v="Allerud" />
		<tag k="name" v="Alerud" />
		<tag k="place" v="locality" />
		<tag k="ssr:stedsnr" v="366588" />
	</node>
	<node changeset="66877579" id="6255746340" lat="59.3835639" lon="11.6224528" timestamp="2019-02-03T14:30:01Z" uid="633013" user="Honning" version="1">
		<tag k="name" v="Hagen" />
		<tag k="place" v="isolated_dwelling" />
		<tag k="ssr:stedsnr" v="853520" />
	</node>
	<node changeset="66877579" id="6255746341" lat="59.3905972" lon="11.6215528" timestamp="2019-02-03T14:30:01Z" uid="633013" user="Honning" version="1">
		<tag k="alt_name" v="Halvorsrudsetra" />
		<tag k="loc_name" v="Sætret" />
		<tag k="name" v="Sætra" />
		<tag k="place" v="farm" />
		<tag k="ssr:stedsnr" v="853534" />
	</node>
	<node changeset="66877579" id="6255746342" lat="59.3351722" lon="11.7501583" timestamp="2019-02-03T14:30:01Z" uid="633013" user="Honning" version="1">
		<tag k="name" v="Omvik" />
		<tag k="place" v="farm" />
		<tag k="ssr:stedsnr" v="853611" />
	</node>
	<node changeset="66877579" id="6255746343" lat="59.5350278" lon="11.5756278" timestamp="2019-02-03T14:30:01Z" uid="633013" user="Honning" version="1">
		<tag k="name" v="Fonnerud" />
		<tag k="place" v="farm" />
		<tag k="ssr:stedsnr" v="367327" />
	</node>
	<node changeset="66877579" id="6255746344" lat="59.3566139" lon="11.7208167" timestamp="2019-02-03T14:30:01Z" uid="633013" user="Honning" version="1">
		<tag k="name" v="Skinnarbu" />
		<tag k="place" v="farm" />
		<tag k="ssr:stedsnr" v="853702" />
	</node>
	<node changeset="66877579" id="6255746345" lat="59.4191556" lon="11.6675167" timestamp="2019-02-03T14:30:01Z" uid="633013" user="Honning" version="1">
		<tag k="name" v="Øystad" />
		<tag k="place" v="farm" />
		<tag k="ssr:stedsnr" v="367459" />
	</node>
	<node changeset="66877579" id="6255746346" lat="59.3999028" lon="11.7410472" timestamp="2019-02-03T14:30:01Z" uid="633013" user="Honning" version="1">
		<tag k="name" v="Engsrud" />
		<tag k="place" v="farm" />
		<tag k="ssr:stedsnr" v="367466" />
	</node>
	<node changeset="66877579" id="6255746347" lat="59.3896611" lon="11.7406778" timestamp="2019-02-03T14:30:01Z" uid="633013" user="Honning" version="1">
		<tag k="name" v="Engsåsen" />
		<tag k="place" v="isolated_dwelling" />
		<tag k="ssr:stedsnr" v="858907" />
	</node>
	<node changeset="66877579" id="6255746348" lat="59.5868389" lon="11.5691167" timestamp="2019-02-03T14:30:01Z" uid="633013" user="Honning" version="1">
		<tag k="name" v="Folkenborg" />
		<tag k="place" v="farm" />
		<tag k="ssr:stedsnr" v="368480" />
	</node>
	<node changeset="66877579" id="6255746349" lat="59.6054667" lon="11.6216111" timestamp="2019-02-03T14:30:01Z" uid="633013" user="Honning" version="1">
		<tag k="name" v="Haugerud" />
		<tag k="place" v="farm" />
		<tag k="ssr:stedsnr" v="368505" />
	</node>
	<node changeset="66877579" id="6255746350" lat="59.5385194" lon="11.651475" timestamp="2019-02-03T14:30:01Z" uid="633013" user="Honning" version="1">
		<tag k="name" v="Søndre Høgås" />
		<tag k="place" v="farm" />
		<tag k="ssr:stedsnr" v="901401" />
	</node>
	<node changeset="66877579" id="6255746351" lat="59.5387722" lon="11.6997944" timestamp="2019-02-03T14:30:02Z" uid="633013" user="Honning" version="1">
		<tag k="name" v="Høgåssetra" />
		<tag k="place" v="locality" />
		<tag k="ssr:stedsnr" v="901416" />
	</node>
	<node changeset="66877579" id="6255746352" lat="59.5524333" lon="11.6258972" timestamp="2019-02-03T14:30:02Z" uid="633013" user="Honning" version="1">
		<tag k="name" v="Slupstad" />
		<tag k="place" v="farm" />
		<tag k="ssr:stedsnr" v="413183" />
	</node>
	<node changeset="66877579" id="6255746353" lat="59.460983" lon="11.6936998" timestamp="2019-02-03T14:30:02Z" uid="633013" user="Honning" version="1">
		<tag k="loc_name" v="Krosby" />
		<tag k="name" v="Krossby" />
		<tag k="place" v="farm" />
		<tag k="ssr:stedsnr" v="366605" />
	</node>
	<node changeset="66877579" id="6255746354" lat="59.6019472" lon="11.6289278" timestamp="2019-02-03T14:30:02Z" uid="633013" user="Honning" version="1">
		<tag k="name" v="Nordre Ulfsby" />
		<tag k="place" v="locality" />
		<tag k="ssr:stedsnr" v="901761" />
	</node>
	<node changeset="66877579" id="6255746355" lat="59.3639528" lon="11.7822722" timestamp="2019-02-03T14:30:02Z" uid="633013" user="Honning" version="1">
		<tag k="alt_name" v="Modalen" />
		<tag k="name" v="Modal" />
		<tag k="place" v="farm" />
		<tag k="ssr:stedsnr" v="853686" />
	</node>
	<node changeset="66877579" id="6255746356" lat="59.3713528" lon="11.6376722" timestamp="2019-02-03T14:30:02Z" uid="633013" user="Honning" version="1">
		<tag k="name" v="Søndre Vestgård" />
		<tag k="place" v="farm" />
		<tag k="ssr:stedsnr" v="476283" />
	</node>
	<node changeset="66877579" id="6255746357" lat="59.4803028" lon="11.596275" timestamp="2019-02-03T14:30:02Z" uid="633013" user="Honning" version="1">
		<tag k="name" v="Jonsvik" />
		<tag k="place" v="isolated_dwelling" />
		<tag k="ssr:stedsnr" v="901836" />
	</node>
	<node changeset="66877579" id="6255746358" lat="59.5403389" lon="11.6298917" timestamp="2019-02-03T14:30:02Z" uid="633013" user="Honning" version="1">
		<tag k="name" v="Søby" />
		<tag k="place" v="farm" />
		<tag k="ssr:stedsnr" v="476389" />
	</node>
	<node changeset="66877579" id="6255746359" lat="59.3853944" lon="11.6791667" timestamp="2019-02-03T14:30:02Z" uid="633013" user="Honning" version="1">
		<tag k="name" v="Herrud" />
		<tag k="place" v="farm" />
		<tag k="ssr:stedsnr" v="476494" />
	</node>
	<node changeset="66877579" id="6255746360" lat="59.6413306" lon="11.5894194" timestamp="2019-02-03T14:30:02Z" uid="633013" user="Honning" version="1">
		<tag k="name" v="Svelta" />
		<tag k="place" v="locality" />
		<tag k="ssr:stedsnr" v="902083" />
	</node>
	<node changeset="66877579" id="6255746361" lat="59.3878889" lon="11.6639333" timestamp="2019-02-03T14:30:02Z" uid="633013" user="Honning" version="1">
		<tag k="name" v="Ytterbøl" />
		<tag k="place" v="farm" />
		<tag k="ssr:stedsnr" v="476520" />
	</node>
	<node changeset="66877579" id="6255746362" lat="59.6397139" lon="11.5771028" timestamp="2019-02-03T14:30:02Z" uid="633013" user="Honning" version="1">
		<tag k="loc_name" v="Skirfoss" />
		<tag k="name" v="Fossen" />
		<tag k="place" v="locality" />
		<tag k="ssr:stedsnr" v="902088" />
	</node>
	<node changeset="66877579" id="6255746363" lat="59.6347056" lon="11.6930222" timestamp="2019-02-03T14:30:02Z" uid="633013" user="Honning" version="1">
		<tag k="name" v="Østre Jåvallsetra" />
		<tag k="place" v="locality" />
		<tag k="ssr:stedsnr" v="476549" />
	</node>
	<node changeset="66877579" id="6255746364" lat="59.4033417" lon="11.6941695" timestamp="2019-02-03T14:30:02Z" uid="633013" user="Honning" version="1">
		<tag k="name" v="Vestre Stikle" />
		<tag k="place" v="farm" />
		<tag k="ssr:stedsnr" v="476577" />
	</node>
	<node changeset="66877579" id="6255746365" lat="59.3870917" lon="11.692225" timestamp="2019-02-03T14:30:02Z" uid="633013" user="Honning" version="1">
		<tag k="name" v="Volen" />
		<tag k="place" v="farm" />
		<tag k="ssr:stedsnr" v="367493" />
	</node>
	<node changeset="66877579" id="6255746366" lat="59.4896167" lon="11.6581861" timestamp="2019-02-03T14:30:02Z" uid="633013" user="Honning" version="1">
		<tag k="name" v="Vestre Mosebyødegården" />
		<tag k="place" v="farm" />
		<tag k="ssr:stedsnr" v="902228" />
	</node>
	<node changeset="66877579" id="6255746367" lat="59.5131333" lon="11.6592583" timestamp="2019-02-03T14:30:02Z" uid="633013" user="Honning" version="1">
		<tag k="alt_name" v="Sukken nordre" />
		<tag k="name" v="Nordre Sukken" />
		<tag k="place" v="farm" />
		<tag k="ssr:stedsnr" v="902279" />
	</node>
	<node changeset="66877579" id="6255746368" lat="59.5118056" lon="11.6679222" timestamp="2019-02-03T14:30:02Z" uid="633013" user="Honning" version="1">
		<tag k="name" v="Bergerødegården" />
		<tag k="place" v="farm" />
		<tag k="ssr:stedsnr" v="902280" />
	</node>
	<node changeset="66877579" id="6255746369" lat="59.3900556" lon="11.6275722" timestamp="2019-02-03T14:30:02Z" uid="633013" user="Honning" version="1">
		<tag k="name" v="Langedal" />
		<tag k="place" v="locality" />
		<tag k="ssr:stedsnr" v="476819" />
	</node>
	<node changeset="66877579" id="6255746370" lat="59.3848306" lon="11.6655083" timestamp="2019-02-03T14:30:03Z" uid="633013" user="Honning" version="1">
		<tag k="name" v="Ytterbøl" />
		<tag k="place" v="farm" />
		<tag k="ssr:stedsnr" v="476821" />
	</node>
	<node changeset="66877579" id="6255746371" lat="59.6676167" lon="11.6542111" timestamp="2019-02-03T14:30:03Z" uid="633013" user="Honning" version="1">
		<tag k="name" v="Kjøkkenet" />
		<tag k="place" v="locality" />
		<tag k="ssr:stedsnr" v="902463" />
	</node>
	<node changeset="66877579" id="6255746372" lat="59.6174" lon="11.6083417" timestamp="2019-02-03T14:30:03Z" uid="633013" user="Honning" version="1">
		<tag k="alt_name" v="Krok østre" />
		<tag k="name" v="Østre Krok" />
		<tag k="place" v="farm" />
		<tag k="ssr:stedsnr" v="477150" />
	</node>
	<node changeset="66877579" id="6255746373" lat="59.5882806" lon="11.5920528" timestamp="2019-02-03T14:30:03Z" uid="633013" user="Honning" version="1">
		<tag k="name" v="Rødenes prestegård" />
		<tag k="place" v="farm" />
		<tag k="ssr:stedsnr" v="477152" />
	</node>
	<node changeset="66877579" id="6255746374" lat="59.5891833" lon="11.5795778" timestamp="2019-02-03T14:30:03Z" uid="633013" user="Honning" version="1">
		<tag k="name" v="Krone" />
		<tag k="place" v="farm" />
		<tag k="ssr:stedsnr" v="477160" />
	</node>
	<node changeset="66877579" id="6255746375" lat="59.5908361" lon="11.5524889" timestamp="2019-02-03T14:30:03Z" uid="633013" user="Honning" version="1">
		<tag k="name" v="Orekleiva" />
		<tag k="place" v="farm" />
		<tag k="ssr:stedsnr" v="477193" />
	</node>
	<node changeset="66877579" id="6255746376" lat="59.5685917" lon="11.5785667" timestamp="2019-02-03T14:30:03Z" uid="633013" user="Honning" version="1">
		<tag k="alt_name" v="Vikeby mellem" />
		<tag k="name" v="Mellom-Vikeby" />
		<tag k="place" v="farm" />
		<tag k="ssr:stedsnr" v="477245" />
	</node>
	<node changeset="66877579" id="6255746377" lat="59.6033722" lon="11.5939778" timestamp="2019-02-03T14:30:03Z" uid="633013" user="Honning" version="1">
		<tag k="name" v="Holmen" />
		<tag k="place" v="farm" />
		<tag k="ssr:stedsnr" v="902940" />
	</node>
	<node changeset="66877579" id="6255746378" lat="59.5957639" lon="11.6326278" timestamp="2019-02-03T14:30:03Z" uid="633013" user="Honning" version="1">
		<tag k="name" v="Tørkås" />
		<tag k="place" v="locality" />
		<tag k="ssr:stedsnr" v="477323" />
	</node>
	<node changeset="66877579" id="6255746379" lat="59.5596444" lon="11.6318417" timestamp="2019-02-03T14:30:03Z" uid="633013" user="Honning" version="1">
		<tag k="name" v="Brodal" />
		<tag k="place" v="farm" />
		<tag k="ssr:stedsnr" v="903938" />
	</node>
	<node changeset="66877579" id="6255746380" lat="59.4618213" lon="11.6940191" timestamp="2019-02-03T14:30:03Z" uid="633013" user="Honning" version="1">
		<tag k="name" v="Østre Krosby" />
		<tag k="place" v="farm" />
		<tag k="ssr:stedsnr" v="910835" />
	</node>
	<node changeset="66877579" id="6255746381" lat="59.4307556" lon="11.7527833" timestamp="2019-02-03T14:30:03Z" uid="633013" user="Honning" version="1">
		<tag k="alt_name" v="Fjellenga" />
		<tag k="name" v="Fjellingen" />
		<tag k="place" v="isolated_dwelling" />
		<tag k="ssr:stedsnr" v="913475" />
	</node>
	<node changeset="66877579" id="6255746382" lat="59.4334806" lon="11.7036028" timestamp="2019-02-03T14:30:03Z" uid="633013" user="Honning" version="1">
		<tag k="name" v="Bergbråten" />
		<tag k="place" v="farm" />
		<tag k="ssr:stedsnr" v="913479" />
	</node>
	<node changeset="66877579" id="6255746383" lat="59.4523194" lon="11.7330611" timestamp="2019-02-03T14:30:03Z" uid="633013" user="Honning" version="1">
		<tag k="name" v="Sloreby" />
		<tag k="place" v="hamlet" />
		<tag k="ssr:stedsnr" v="913588" />
	</node>
	<node changeset="66877579" id="6255746384" lat="59.3696278" lon="11.6843111" timestamp="2019-02-03T14:30:03Z" uid="633013" user="Honning" version="1">
		<tag k="name" v="Nesebråten" />
		<tag k="place" v="farm" />
		<tag k="ssr:stedsnr" v="913668" />
	</node>
	<node changeset="66877579" id="6255742567" lat="59.4987917" lon="11.5424583" timestamp="2019-02-03T14:29:39Z" uid="633013" user="Honning" version="1">
		<tag k="name" v="Østenbyhytta" />
		<tag k="place" v="locality" />
		<tag k="ssr:stedsnr" v="234912" />
	</node>
	<node changeset="66877579" id="6255742568" lat="59.486775" lon="11.7481417" timestamp="2019-02-03T14:29:39Z" uid="633013" user="Honning" version="1">
		<tag k="building" v="civic" />
		<tag k="name" v="Ørje tollstasjon" />
		<tag k="ssr:stedsnr" v="234933" />
	</node>
	<node changeset="66877579" id="6255742569" lat="59.6100972" lon="11.6604139" timestamp="2019-02-03T14:29:39Z" uid="633013" user="Honning" version="1">
		<tag k="name" v="Hølvannsstua" />
		<tag k="place" v="isolated_dwelling" />
		<tag k="ssr:stedsnr" v="234672" />
	</node>
	<node changeset="66877579" id="6255742570" lat="59.4517528" lon="11.7042333" timestamp="2019-02-03T14:29:39Z" uid="633013" user="Honning" version="1">
		<tag k="name" v="Søndre Ankerud" />
		<tag k="place" v="locality" />
		<tag k="ssr:stedsnr" v="234721" />
	</node>
	<node changeset="66877579" id="6255742571" lat="59.4733611" lon="11.6494556" timestamp="2019-02-03T14:29:39Z" uid="633013" user="Honning" version="1">
		<tag k="name" v="Ørnås" />
		<tag k="place" v="locality" />
		<tag k="ssr:stedsnr" v="234740" />
	</node>
	<node changeset="66877579" id="6255742572" lat="59.3468472" lon="11.6845889" timestamp="2019-02-03T14:29:39Z" uid="633013" user="Honning" version="1">
		<tag k="name" v="Søndre Djupvik" />
		<tag k="old_name" v="Dypvik søndre" />
		<tag k="place" v="farm" />
		<tag k="ssr:stedsnr" v="235388" />
	</node>
	<node changeset="66877579" id="6255742573" lat="59.4674278" lon="11.7337" timestamp="2019-02-03T14:29:39Z" uid="633013" user="Honning" version="1">
		<tag k="name" v="Slora" />
		<tag k="place" v="isolated_dwelling" />
		<tag k="ssr:stedsnr" v="245562" />
	</node>
	<node changeset="66877579" id="6255742574" lat="59.44475" lon="11.7189861" timestamp="2019-02-03T14:29:39Z" uid="633013" user="Honning" version="1">
		<tag k="historic" v="shieling" />
		<tag k="name" v="Lømbusetret" />
		<tag k="old_name" v="Lømbusæter;Lømbuseter" />
		<tag k="place" v="locality" />
		<tag k="ssr:stedsnr" v="245587" />
	</node>
	<node changeset="66877579" id="6255742575" lat="59.5362528" lon="11.6065056" timestamp="2019-02-03T14:29:39Z" uid="633013" user="Honning" version="1">
		<tag k="name" v="Østenby" />
		<tag k="place" v="farm" />
		<tag k="ssr:stedsnr" v="246382" />
	</node>
	<node changeset="66877579" id="6255742576" lat="59.5425" lon="11.5862806" timestamp="2019-02-03T14:29:40Z" uid="633013" user="Honning" version="1">
		<tag k="name" v="Kallak" />
		<tag k="place" v="hamlet" />
		<tag k="ssr:stedsnr" v="246432" />
	</node>
	<node changeset="66877579" id="6255742577" lat="59.5475667" lon="11.5558667" timestamp="2019-02-03T14:29:40Z" uid="633013" user="Honning" version="1">
		<tag k="name" v="Holta" />
		<tag k="place" v="farm" />
		<tag k="ssr:stedsnr" v="246436" />
	</node>
	<node changeset="66877579" id="6255742578" lat="59.5526833" lon="11.64505" timestamp="2019-02-03T14:29:40Z" uid="633013" user="Honning" version="1">
		<tag k="alt_name" v="Gåsebysetra" />
		<tag k="name" v="Gåsebysætra" />
		<tag k="place" v="farm" />
		<tag k="ssr:stedsnr" v="246451" />
	</node>
	<node changeset="66877579" id="6255742579" lat="59.3470167" lon="11.6850417" timestamp="2019-02-03T14:29:40Z" uid="633013" user="Honning" version="1">
		<tag k="name" v="Djupvik" />
		<tag k="place" v="farm" />
		<tag k="ssr:stedsnr" v="363435" />
	</node>
	<node changeset="66877579" id="6255742580" lat="59.4260889" lon="11.721175" timestamp="2019-02-03T14:29:40Z" uid="633013" user="Honning" version="1">
		<tag k="alt_name" v="Ledengsøgården" />
		<tag k="name" v="Ledengøgården" />
		<tag k="place" v="farm" />
		<tag k="ssr:stedsnr" v="246469" />
	</node>
	<node changeset="66877579" id="6255742581" lat="59.4273361" lon="11.6641945" timestamp="2019-02-03T14:29:40Z" uid="633013" user="Honning" version="1">
		<tag k="name" v="Bærekas" />
		<tag k="place" v="farm" />
		<tag k="ssr:stedsnr" v="246473" />
	</node>
	<node changeset="66877579" id="6255742582" lat="59.4182306" lon="11.6453528" timestamp="2019-02-03T14:29:40Z" uid="633013" user="Honning" version="1">
		<tag k="alt_name" v="Nybo" />
		<tag k="name" v="Nybu" />
		<tag k="place" v="farm" />
		<tag k="ssr:stedsnr" v="246497" />
	</node>
	<node changeset="66877579" id="6255742583" lat="59.4012333" lon="11.6448583" timestamp="2019-02-03T14:29:40Z" uid="633013" user="Honning" version="1">
		<tag k="name" v="Åsmundrud" />
		<tag k="place" v="farm" />
		<tag k="ssr:stedsnr" v="246506" />
	</node>
	<node changeset="66877579" id="6255742584" lat="59.3389194" lon="11.689925" timestamp="2019-02-03T14:29:40Z" uid="633013" user="Honning" version="1">
		<tag k="name" v="Haugen" />
		<tag k="place" v="farm" />
		<tag k="ssr:stedsnr" v="246699" />
	</node>
	<node changeset="66877579" id="6255746985" lat="59.3551639" lon="11.6828167" timestamp="2019-02-03T14:30:03Z" uid="633013" user="Honning" version="1">
		<tag k="name" v="Knoll" />
		<tag k="place" v="farm" />
		<tag k="ssr:stedsnr" v="913702" />
	</node>
	<node changeset="66877579" id="6255746986" lat="59.5265861" lon="11.5797611" timestamp="2019-02-03T14:30:03Z" uid="633013" user="Honning" version="1">
		<tag k="name" v="Kamperud" />
		<tag k="place" v="farm" />
		<tag k="ssr:stedsnr" v="914390" />
	</node>
	<node changeset="66877579" id="6255746987" lat="59.5252306" lon="11.6341972" timestamp="2019-02-03T14:30:03Z" uid="633013" user="Honning" version="1">
		<tag k="name" v="Klund" />
		<tag k="place" v="hamlet" />
		<tag k="ssr:stedsnr" v="914392" />
	</node>
	<node changeset="66877579" id="6255746988" lat="59.5289639" lon="11.6707278" timestamp="2019-02-03T14:30:03Z" uid="633013" user="Honning" version="1">
		<tag k="name" v="Karlstad" />
		<tag k="place" v="farm" />
		<tag k="ssr:stedsnr" v="914396" />
	</node>
	<node changeset="66877579" id="6255746989" lat="59.585825" lon="11.5546528" timestamp="2019-02-03T14:30:04Z" uid="633013" user="Honning" version="1">
		<tag k="name" v="Klerud" />
		<tag k="place" v="hamlet" />
		<tag k="ssr:stedsnr" v="914460" />
	</node>
	<node changeset="66877579" id="6255746990" lat="59.5912417" lon="11.5290556" timestamp="2019-02-03T14:30:04Z" uid="633013" user="Honning" version="1">
		<tag k="alt_name" v="Sameiet" />
		<tag k="name" v="Sameie" />
		<tag k="place" v="farm" />
		<tag k="ssr:stedsnr" v="914462" />
	</node>
	<node changeset="66877579" id="6255746991" lat="59.5423194" lon="11.6331806" timestamp="2019-02-03T14:30:04Z" uid="633013" user="Honning" version="1">
		<tag k="name" v="Stillesby" />
		<tag k="place" v="farm" />
		<tag k="ssr:stedsnr" v="914500" />
	</node>
	<node changeset="66877579" id="6255746992" lat="59.6130444" lon="11.5575778" timestamp="2019-02-03T14:30:04Z" uid="633013" user="Honning" version="1">
		<tag k="name" v="Storløsødegården" />
		<tag k="place" v="farm" />
		<tag k="ssr:stedsnr" v="477560" />
	</node>
	<node changeset="66877579" id="6255746993" lat="59.4502667" lon="11.69305" timestamp="2019-02-03T14:30:04Z" uid="633013" user="Honning" version="1">
		<tag k="name" v="Granlund" />
		<tag k="place" v="farm" />
		<tag k="ssr:stedsnr" v="477745" />
	</node>
	<node changeset="66877579" id="6255746994" lat="59.5303472" lon="11.5980361" timestamp="2019-02-03T14:30:04Z" uid="633013" user="Honning" version="1">
		<tag k="name" v="Dal" />
		<tag k="place" v="farm" />
		<tag k="ssr:stedsnr" v="961429" />
	</node>
	<node changeset="66877579" id="6255746997" lat="59.3416667" lon="11.7370528" timestamp="2019-02-03T14:30:04Z" uid="633013" user="Honning" version="1">
		<tag k="name" v="Trulsebakken" />
		<tag k="place" v="isolated_dwelling" />
		<tag k="ssr:stedsnr" v="477825" />
	</node>
	<node changeset="66877579" id="6255746998" lat="59.402725" lon="11.6983861" timestamp="2019-02-03T14:30:04Z" uid="633013" user="Honning" version="1">
		<tag k="name" v="Østre Stikle" />
		<tag k="place" v="farm" />
		<tag k="ssr:stedsnr" v="961598" />
	</node>
	<node changeset="66877579" id="6255746999" lat="59.5533667" lon="11.6258639" timestamp="2019-02-03T14:30:04Z" uid="633013" user="Honning" version="1">
		<tag k="name" v="Slupstad" />
		<tag k="place" v="farm" />
		<tag k="ssr:stedsnr" v="899149" />
	</node>
	<node changeset="66877579" id="6255747000" lat="59.5584167" lon="11.5865333" timestamp="2019-02-03T14:30:04Z" uid="633013" user="Honning" version="1">
		<tag k="alt_name" v="Toketorp nordre" />
		<tag k="name" v="Nordre Toketorp" />
		<tag k="place" v="locality" />
		<tag k="ssr:stedsnr" v="962060" />
	</node>
	<node changeset="66877579" id="6255747001" lat="59.4847972" lon="11.696825" timestamp="2019-02-03T14:30:04Z" uid="633013" user="Honning" version="1">
		<tag k="name" v="Søndre Nysterud" />
		<tag k="place" v="farm" />
		<tag k="ssr:stedsnr" v="962115" />
	</node>
	<node changeset="66877579" id="6255747002" lat="59.6296472" lon="11.6248139" timestamp="2019-02-03T14:30:04Z" uid="633013" user="Honning" version="1">
		<tag k="name" v="Fossneset" />
		<tag k="place" v="farm" />
		<tag k="ssr:stedsnr" v="962128" />
	</node>
	<node changeset="66877579" id="6255747003" lat="59.4283139" lon="11.7238778" timestamp="2019-02-03T14:30:04Z" uid="633013" user="Honning" version="1">
		<tag k="alt_name" v="Sørengen" />
		<tag k="name" v="Sørenga" />
		<tag k="place" v="farm" />
		<tag k="ssr:stedsnr" v="2538" />
	</node>
	<node changeset="66877579" id="6255747004" lat="59.484725" lon="11.6964306" timestamp="2019-02-03T14:30:04Z" uid="633013" user="Honning" version="1">
		<tag k="name" v="Nysterud" />
		<tag k="place" v="farm" />
		<tag k="ssr:stedsnr" v="2576" />
	</node>
	<node changeset="66877579" id="6255747005" lat="59.4494056" lon="11.5794722" timestamp="2019-02-03T14:30:04Z" uid="633013" user="Honning" version="1">
		<tag k="name" v="Villaen" />
		<tag k="place" v="isolated_dwelling" />
		<tag k="ssr:stedsnr" v="2612" />
	</node>
	<node changeset="66877579" id="6255747006" lat="59.5599889" lon="11.5749" timestamp="2019-02-03T14:30:04Z" uid="633013" user="Honning" version="1">
		<tag k="name" v="Grav" />
		<tag k="place" v="farm" />
		<tag k="ssr:stedsnr" v="3437" />
	</node>
	<node changeset="66877579" id="6255747007" lat="59.5692306" lon="11.5753583" timestamp="2019-02-03T14:30:05Z" uid="633013" user="Honning" version="1">
		<tag k="alt_name" v="Vikeby vestre" />
		<tag k="name" v="Vestre Vikeby" />
		<tag k="place" v="farm" />
		<tag k="ssr:stedsnr" v="3444" />
	</node>
	<node changeset="66877579" id="6255747008" lat="59.6316722" lon="11.5643528" timestamp="2019-02-03T14:30:05Z" uid="633013" user="Honning" version="1">
		<tag k="alt_name" v="Setra søndre" />
		<tag k="name" v="Søndre Setra" />
		<tag k="place" v="farm" />
		<tag k="ssr:stedsnr" v="962240" />
	</node>
	<node changeset="66877579" id="6255747009" lat="59.5019889" lon="11.684925" timestamp="2019-02-03T14:30:05Z" uid="633013" user="Honning" version="1">
		<tag k="name" v="Østenga" />
		<tag k="place" v="locality" />
		<tag k="ssr:stedsnr" v="962241" />
	</node>
	<node changeset="66877579" id="6255747010" lat="59.6098972" lon="11.6662833" timestamp="2019-02-03T14:30:05Z" uid="633013" user="Honning" version="1">
		<tag k="name" v="Ulfsbysetra" />
		<tag k="place" v="locality" />
		<tag k="ssr:stedsnr" v="477976" />
	</node>
	<node changeset="66877579" id="6255747011" lat="59.4920806" lon="11.6923194" timestamp="2019-02-03T14:30:05Z" uid="633013" user="Honning" version="1">
		<tag k="name" v="Nordenga" />
		<tag k="place" v="farm" />
		<tag k="ssr:stedsnr" v="962285" />
	</node>
	<node changeset="66877579" id="6255747012" lat="59.383225" lon="11.6267972" timestamp="2019-02-03T14:30:05Z" uid="633013" user="Honning" version="1">
		<tag k="name" v="Bråten" />
		<tag k="place" v="farm" />
		<tag k="ssr:stedsnr" v="3501" />
	</node>
	<node changeset="66877579" id="6255747013" lat="59.377825" lon="11.7197" timestamp="2019-02-03T14:30:05Z" uid="633013" user="Honning" version="1">
		<tag k="name" v="Viken" />
		<tag k="place" v="hamlet" />
		<tag k="ssr:stedsnr" v="3655" />
	</node>
	<node changeset="66877579" id="6255747014" lat="59.5392694" lon="11.6690333" timestamp="2019-02-03T14:30:05Z" uid="633013" user="Honning" version="1">
		<tag k="name" v="Gråberg" />
		<tag k="place" v="farm" />
		<tag k="ssr:stedsnr" v="962358" />
	</node>
	<node changeset="66877579" id="6255747015" lat="59.5439806" lon="11.6679889" timestamp="2019-02-03T14:30:05Z" uid="633013" user="Honning" version="1">
		<tag k="name" v="Sandbekk" />
		<tag k="place" v="farm" />
		<tag k="ssr:stedsnr" v="962363" />
	</node>
	<node changeset="66877579" id="6255747016" lat="59.3537764" lon="11.6530838" timestamp="2019-02-03T14:30:05Z" uid="633013" user="Honning" version="1">
		<tag k="alt_name" v="Sambøl" />
		<tag k="name" v="Nordre Sambøl" />
		<tag k="place" v="farm" />
		<tag k="ssr:stedsnr" v="3699" />
	</node>
	<node changeset="66877579" id="6255747017" lat="59.3513444" lon="11.7098389" timestamp="2019-02-03T14:30:05Z" uid="633013" user="Honning" version="1">
		<tag k="alt_name" v="Otteid;Otteid vestre" />
		<tag k="name" v="Vestre Otteid" />
		<tag k="place" v="locality" />
		<tag k="ssr:stedsnr" v="3701" />
	</node>
	<node changeset="66877579" id="6255747018" lat="59.3397389" lon="11.7884694" timestamp="2019-02-03T14:30:05Z" uid="633013" user="Honning" version="1">
		<tag k="name" v="Kjøna" />
		<tag k="old_name" v="Kjona;Kjønen" />
		<tag k="place" v="farm" />
		<tag k="ssr:stedsnr" v="3722" />
	</node>
	<node changeset="66877579" id="6255747019" lat="59.508025" lon="11.7137056" timestamp="2019-02-03T14:30:05Z" uid="633013" user="Honning" version="1">
		<tag k="name" v="Butjernhytta" />
		<tag k="place" v="locality" />
		<tag k="ssr:stedsnr" v="4360" />
	</node>
	<node changeset="66877579" id="6255747020" lat="59.5111889" lon="11.6717806" timestamp="2019-02-03T14:30:05Z" uid="633013" user="Honning" version="1">
		<tag k="alt_name" v="Bergerøygården" />
		<tag k="name" v="Bergerødegården" />
		<tag k="place" v="farm" />
		<tag k="ssr:stedsnr" v="4372" />
	</node>
	<node changeset="66877579" id="6255747021" lat="59.5249583" lon="11.7038528" timestamp="2019-02-03T14:30:05Z" uid="633013" user="Honning" version="1">
		<tag k="name" v="Svartvasshytta" />
		<tag k="place" v="isolated_dwelling" />
		<tag k="ssr:stedsnr" v="4381" />
	</node>
	<node changeset="66877579" id="6255747022" lat="59.5786389" lon="11.6154305" timestamp="2019-02-03T14:30:05Z" uid="633013" user="Honning" version="1">
		<tag k="alt_name" v="Degnes lille;Degnes" />
		<tag k="name" v="Lille Degnes" />
		<tag k="place" v="farm" />
		<tag k="ssr:stedsnr" v="4437" />
	</node>
	<node changeset="66877579" id="6255747023" lat="59.3720417" lon="11.6448555" timestamp="2019-02-03T14:30:05Z" uid="633013" user="Honning" version="1">
		<tag k="name" v="Nordre Søgård" />
		<tag k="place" v="farm" />
		<tag k="ssr:stedsnr" v="51344" />
	</node>
	<node changeset="66877579" id="6255747024" lat="59.5480667" lon="11.6281222" timestamp="2019-02-03T14:30:06Z" uid="633013" user="Honning" version="1">
		<tag k="name" v="Gåseby" />
		<tag k="place" v="farm" />
		<tag k="ssr:stedsnr" v="51447" />
	</node>
	<node changeset="66877579" id="6255747025" lat="59.4630667" lon="11.67135" timestamp="2019-02-03T14:30:06Z" uid="633013" user="Honning" version="1">
		<tag k="alt_name" v="Rud vestre" />
		<tag k="name" v="Vestre Rud" />
		<tag k="place" v="farm" />
		<tag k="ssr:stedsnr" v="962490" />
	</node>
	<node changeset="66877579" id="6255747026" lat="59.5414222" lon="11.5746139" timestamp="2019-02-03T14:30:06Z" uid="633013" user="Honning" version="1">
		<tag k="name" v="Oretap" />
		<tag k="place" v="farm" />
		<tag k="ssr:stedsnr" v="51542" />
	</node>
	<node changeset="66877579" id="6255747027" lat="59.4305972" lon="11.6704639" timestamp="2019-02-03T14:30:06Z" uid="633013" user="Honning" version="1">
		<tag k="alt_name" v="Sandtorp øvre" />
		<tag k="name" v="Øvre Sandtorp" />
		<tag k="place" v="farm" />
		<tag k="ssr:stedsnr" v="51658" />
	</node>
	<node changeset="66877579" id="6255747028" lat="59.5952667" lon="11.5279083" timestamp="2019-02-03T14:30:06Z" uid="633013" user="Honning" version="1">
		<tag k="alt_name" v="Kongsbakk østre" />
		<tag k="name" v="Østre Kongsbakk" />
		<tag k="place" v="locality" />
		<tag k="ssr:stedsnr" v="962494" />
	</node>
	<node changeset="66877579" id="6255747029" lat="59.5486278" lon="11.5544417" timestamp="2019-02-03T14:30:06Z" uid="633013" user="Honning" version="1">
		<tag k="name" v="Holta" />
		<tag k="place" v="farm" />
		<tag k="ssr:stedsnr" v="962561" />
	</node>
	<node changeset="66877579" id="6255747030" lat="59.6023389" lon="11.6326972" timestamp="2019-02-03T14:30:06Z" uid="633013" user="Honning" version="1">
		<tag k="name" v="Tangen" />
		<tag k="place" v="farm" />
		<tag k="ssr:stedsnr" v="962657" />
	</node>
	<node changeset="66877579" id="6255747031" lat="59.3522556" lon="11.7767917" timestamp="2019-02-03T14:30:06Z" uid="633013" user="Honning" version="1">
		<tag k="name" v="Ødegården" />
		<tag k="place" v="locality" />
		<tag k="ssr:stedsnr" v="962781" />
	</node>
	<node changeset="66877579" id="6255747032" lat="59.5504333" lon="11.574525" timestamp="2019-02-03T14:30:06Z" uid="633013" user="Honning" version="1">
		<tag k="name" v="Nordre Røen" />
		<tag k="place" v="farm" />
		<tag k="ssr:stedsnr" v="52052" />
	</node>
	<node changeset="66877579" id="6255747033" lat="59.4931889" lon="11.6973361" timestamp="2019-02-03T14:30:06Z" uid="633013" user="Honning" version="1">
		<tag k="name" v="Herkerud" />
		<tag k="place" v="locality" />
		<tag k="ssr:stedsnr" v="52103" />
	</node>
	<node changeset="66877579" id="6255747034" lat="59.6171139" lon="11.6036556" timestamp="2019-02-03T14:30:06Z" uid="633013" user="Honning" version="1">
		<tag k="alt_name" v="Krok nordre" />
		<tag k="name" v="Nordre Krok" />
		<tag k="place" v="farm" />
		<tag k="ssr:stedsnr" v="52116" />
	</node>
	<node changeset="66877579" id="6255747035" lat="59.4849083" lon="11.5824278" timestamp="2019-02-03T14:30:06Z" uid="633013" user="Honning" version="1">
		<tag k="name" v="Lysholm" />
		<tag k="place" v="isolated_dwelling" />
		<tag k="ssr:stedsnr" v="962910" />
	</node>
	<node changeset="66877579" id="6255747036" lat="59.5967417" lon="11.624125" timestamp="2019-02-03T14:30:06Z" uid="633013" user="Honning" version="1">
		<tag k="alt_name" v="Åseby nordre" />
		<tag k="name" v="Nordre Åseby" />
		<tag k="place" v="farm" />
		<tag k="ssr:stedsnr" v="962926" />
	</node>
	<node changeset="66877579" id="6255747037" lat="59.5803944" lon="11.5567639" timestamp="2019-02-03T14:30:06Z" uid="633013" user="Honning" version="1">
		<tag k="name" v="Mølle" />
		<tag k="place" v="locality" />
		<tag k="ssr:stedsnr" v="52210" />
	</node>
	<node changeset="66877579" id="6255747038" lat="59.618375" lon="11.5519722" timestamp="2019-02-03T14:30:06Z" uid="633013" user="Honning" version="1">
		<tag k="name" v="Jerusalem" />
		<tag k="place" v="farm" />
		<tag k="ssr:stedsnr" v="52218" />
	</node>
	<node changeset="66877579" id="6255747039" lat="59.5749472" lon="11.5356278" timestamp="2019-02-03T14:30:06Z" uid="633013" user="Honning" version="1">
		<tag k="alt_name" v="Ådalsfoss øvre" />
		<tag k="name" v="Øvre Ådalsfoss" />
		<tag k="place" v="locality" />
		<tag k="ssr:stedsnr" v="52219" />
	</node>
	<node changeset="66877579" id="6255747040" lat="59.3446111" lon="11.6423333" timestamp="2019-02-03T14:30:06Z" uid="633013" user="Honning" version="1">
		<tag k="name" v="Nordre Slevik" />
		<tag k="place" v="farm" />
		<tag k="ssr:stedsnr" v="963382" />
	</node>
	<node changeset="66877579" id="6255747041" lat="59.3439111" lon="11.6901083" timestamp="2019-02-03T14:30:07Z" uid="633013" user="Honning" version="1">
		<tag k="name" v="Holtet" />
		<tag k="place" v="locality" />
		<tag k="ssr:stedsnr" v="963403" />
	</node>
	<node changeset="66877579" id="6255747043" lat="59.5341917" lon="11.6353917" timestamp="2019-02-03T14:30:07Z" uid="633013" user="Honning" version="1">
		<tag k="name" v="Nordre Måstad" />
		<tag k="place" v="farm" />
		<tag k="ssr:stedsnr" v="969514" />
	</node>
	<node changeset="66877579" id="6255747044" lat="59.5073472" lon="11.6205528" timestamp="2019-02-03T14:30:07Z" uid="633013" user="Honning" version="1">
		<tag k="name" v="Stenby" />
		<tag k="place" v="locality" />
		<tag k="ssr:stedsnr" v="52537" />
	</node>
	<node changeset="66877579" id="6255747045" lat="59.5944222" lon="11.5195" timestamp="2019-02-03T14:30:07Z" uid="633013" user="Honning" version="1">
		<tag k="name" v="Kongsbakk" />
		<tag k="place" v="farm" />
		<tag k="ssr:stedsnr" v="902549" />
	</node>
	<node changeset="66877579" id="6255747046" lat="59.4618361" lon="11.6910583" timestamp="2019-02-03T14:30:07Z" uid="633013" user="Honning" version="1">
		<tag k="name" v="Vestre Krosby" />
		<tag k="place" v="farm" />
		<tag k="ssr:stedsnr" v="52639" />
	</node>
	<node changeset="66877579" id="6255747047" lat="59.3449444" lon="11.7499472" timestamp="2019-02-03T14:30:07Z" uid="633013" user="Honning" version="1">
		<tag k="name" v="Gunnengbråten" />
		<tag k="place" v="farm" />
		<tag k="ssr:stedsnr" v="52764" />
	</node>
	<node changeset="66877579" id="6255747048" lat="59.5239583" lon="11.5872694" timestamp="2019-02-03T14:30:07Z" uid="633013" user="Honning" version="1">
		<tag k="name" v="England" />
		<tag k="place" v="locality" />
		<tag k="ssr:stedsnr" v="52968" />
	</node>
	<node changeset="66877579" id="6255747049" lat="59.5275556" lon="11.5898111" timestamp="2019-02-03T14:30:07Z" uid="633013" user="Honning" version="1">
		<tag k="name" v="Lundshaugen" />
		<tag k="place" v="isolated_dwelling" />
		<tag k="ssr:stedsnr" v="52971" />
	</node>
	<node changeset="66877579" id="6255747050" lat="59.3348556" lon="11.637725" timestamp="2019-02-03T14:30:07Z" uid="633013" user="Honning" version="1">
		<tag k="building" v="industrial" />
		<tag k="name" v="Sambølsaga" />
		<tag k="ssr:stedsnr" v="53374" />
	</node>
	<node changeset="66877579" id="6255747051" lat="59.6201444" lon="11.559625" timestamp="2019-02-03T14:30:07Z" uid="633013" user="Honning" version="1">
		<tag k="name" v="Bråten" />
		<tag k="place" v="farm" />
		<tag k="ssr:stedsnr" v="65274" />
	</node>
	<node changeset="66877579" id="6255747052" lat="59.6248472" lon="11.5946944" timestamp="2019-02-03T14:30:07Z" uid="633013" user="Honning" version="1">
		<tag k="name" v="Evenby" />
		<tag k="place" v="farm" />
		<tag k="ssr:stedsnr" v="65277" />
	</node>
	<node changeset="66877579" id="6255747053" lat="59.426775" lon="11.7368889" timestamp="2019-02-03T14:30:07Z" uid="633013" user="Honning" version="1">
		<tag k="name" v="Sandbekk" />
		<tag k="place" v="farm" />
		<tag k="ssr:stedsnr" v="63533" />
	</node>
	<node changeset="66877579" id="6255747054" lat="59.4331528" lon="11.6752972" timestamp="2019-02-03T14:30:07Z" uid="633013" user="Honning" version="1">
		<tag k="name" v="Sandtorp" />
		<tag k="place" v="hamlet" />
		<tag k="ssr:stedsnr" v="63536" />
	</node>
	<node changeset="66877579" id="6255747055" lat="59.4415128" lon="11.679566" timestamp="2019-02-03T14:30:07Z" uid="633013" user="Honning" version="1">
		<tag k="name" v="Mårud" />
		<tag k="place" v="farm" />
		<tag k="ssr:stedsnr" v="63619" />
	</node>
	<node changeset="66877579" id="6255747056" lat="59.3758083" lon="11.6882694" timestamp="2019-02-03T14:30:07Z" uid="633013" user="Honning" version="1">
		<tag k="name" v="Kleven" />
		<tag k="place" v="farm" />
		<tag k="ssr:stedsnr" v="476319" />
	</node>
	<node changeset="66877579" id="6255747057" lat="59.6271639" lon="11.6279694" timestamp="2019-02-03T14:30:07Z" uid="633013" user="Honning" version="1">
		<tag k="name" v="Foss" />
		<tag k="place" v="farm" />
		<tag k="ssr:stedsnr" v="64296" />
	</node>
	<node changeset="66877579" id="6255747058" lat="59.6300667" lon="11.6156056" timestamp="2019-02-03T14:30:07Z" uid="633013" user="Honning" version="1">
		<tag k="name" v="Opsal nordre" />
		<tag k="place" v="farm" />
		<tag k="ssr:stedsnr" v="64306" />
	</node>
	<node changeset="66877579" id="6255747059" lat="59.6376028" lon="11.6881833" timestamp="2019-02-03T14:30:08Z" uid="633013" user="Honning" version="1">
		<tag k="historic" v="shieling" />
		<tag k="name" v="Jåvallsetra" />
		<tag k="place" v="locality" />
		<tag k="ssr:stedsnr" v="64308" />
	</node>
	<node changeset="66877579" id="6255747060" lat="59.5298851" lon="11.6080147" timestamp="2019-02-03T14:30:08Z" uid="633013" user="Honning" version="1">
		<tag k="loc_name" v="Krosby" />
		<tag k="name" v="Krossby" />
		<tag k="place" v="farm" />
		<tag k="ssr:stedsnr" v="64392" />
	</node>
	<node changeset="66877579" id="6255747061" lat="59.5514611" lon="11.7073194" timestamp="2019-02-03T14:30:08Z" uid="633013" user="Honning" version="1">
		<tag k="name" v="Krokvasshytta" />
		<tag k="place" v="isolated_dwelling" />
		<tag k="ssr:stedsnr" v="64456" />
	</node>
	<node changeset="66877579" id="6255747062" lat="59.5641528" lon="11.586425" timestamp="2019-02-03T14:30:08Z" uid="633013" user="Honning" version="1">
		<tag k="name" v="Kinn" />
		<tag k="place" v="farm" />
		<tag k="ssr:stedsnr" v="64483" />
	</node>
	<node changeset="66877579" id="6255747063" lat="59.5674694" lon="11.5385528" timestamp="2019-02-03T14:30:08Z" uid="633013" user="Honning" version="1">
		<tag k="alt_name" v="Myrseter" />
		<tag k="name" v="Myrsæter" />
		<tag k="place" v="farm" />
		<tag k="ssr:stedsnr" v="64491" />
	</node>
	<node changeset="66877579" id="6255747064" lat="59.4069889" lon="11.6464361" timestamp="2019-02-03T14:30:08Z" uid="633013" user="Honning" version="1">
		<tag k="alt_name" v="Yttersrud" />
		<tag k="name" v="Uttersrud" />
		<tag k="place" v="farm" />
		<tag k="ssr:stedsnr" v="64509" />
	</node>
	<node changeset="66877579" id="6255747065" lat="59.4008" lon="11.6711222" timestamp="2019-02-03T14:30:08Z" uid="633013" user="Honning" version="1">
		<tag k="name" v="Fløvik" />
		<tag k="place" v="hamlet" />
		<tag k="ssr:stedsnr" v="64510" />
	</node>
	<node changeset="66877579" id="6255747066" lat="59.4655465" lon="11.6658602" timestamp="2019-02-03T14:30:08Z" uid="633013" user="Honning" version="1">
		<tag k="alt_name" v="Bøn" />
		<tag k="name" v="Bøen" />
		<tag k="place" v="hamlet" />
		<tag k="ssr:stedsnr" v="981164" />
	</node>
	<node changeset="66877579" id="6255747067" lat="59.5898583" lon="11.5118528" timestamp="2019-02-03T14:30:08Z" uid="633013" user="Honning" version="1">
		<tag k="alt_name" v="Skog" />
		<tag k="name" v="Skau" />
		<tag k="place" v="farm" />
		<tag k="ssr:stedsnr" v="65440" />
	</node>
	<node changeset="66877579" id="6255747068" lat="59.6020917" lon="11.5452055" timestamp="2019-02-03T14:30:08Z" uid="633013" user="Honning" version="1">
		<tag k="name" v="Pytterud" />
		<tag k="place" v="farm" />
		<tag k="ssr:stedsnr" v="65450" />
	</node>
	<node changeset="66877579" id="6255747069" lat="59.3431111" lon="11.7298889" timestamp="2019-02-03T14:30:08Z" uid="633013" user="Honning" version="1">
		<tag k="alt_name" v="Botn;Botten;Nordre Botten" />
		<tag k="name" v="Nordre Botn" />
		<tag k="place" v="farm" />
		<tag k="ssr:stedsnr" v="101594" />
	</node>
	<node changeset="66877579" id="6255747070" lat="59.4864167" lon="11.6963" timestamp="2019-02-03T14:30:08Z" uid="633013" user="Honning" version="1">
		<tag k="name" v="Nordre Nysterud" />
		<tag k="place" v="farm" />
		<tag k="ssr:stedsnr" v="112155" />
	</node>
	<node changeset="66877579" id="6255747071" lat="59.4051861" lon="11.7227056" timestamp="2019-02-03T14:30:08Z" uid="633013" user="Honning" version="1">
		<tag k="name" v="Søndre Buer" />
		<tag k="place" v="farm" />
		<tag k="ssr:stedsnr" v="112607" />
	</node>
</osm>
