<?xml version="1.0" encoding="UTF-8"?>
<osm version="0.6" generator="osmapis">
	<node id="2354929406" lat="63.401639" lon="11.799403" version="2" timestamp="2018-05-02T17:04:05Z" changeset="58620907" uid="3497659" user="NKA">
		<tag k="name" v="Løvås" />
		<tag k="place" v="farm" />
		<tag k="source" v="Kartverket" />
		<tag k="ssr:stedsnr" v="741046" />
	</node>
	<node id="2354936973" lat="63.197642" lon="12.0243" version="2" timestamp="2018-05-02T17:04:06Z" changeset="58620907" uid="3497659" user="NKA">
		<tag k="name" v="Foemte" />
		<tag k="name:sma" v="Foemte" />
		<tag k="natural" v="peak" />
		<tag k="source" v="Kartverket" />
		<tag k="ssr:stedsnr" v="922370" />
	</node>
	<node id="2354954134" lat="63.257861" lon="11.606672" version="2" timestamp="2018-05-02T17:04:09Z" changeset="58620907" uid="3497659" user="NKA">
		<tag k="name" v="Grønfjellet" />
		<tag k="natural" v="peak" />
		<tag k="source" v="Kartverket" />
		<tag k="ssr:stedsnr" v="740195" />
	</node>
	<node id="2354954135" lat="63.237975" lon="11.592789" version="2" timestamp="2018-05-02T17:04:09Z" changeset="58620907" uid="3497659" user="NKA">
		<tag k="name" v="Knollen" />
		<tag k="natural" v="peak" />
		<tag k="source" v="Kartverket" />
		<tag k="ssr:stedsnr" v="73206" />
	</node>
	<node id="2354954243" lat="63.230033" lon="11.669953" version="2" timestamp="2018-05-02T17:04:10Z" changeset="58620907" uid="3497659" user="NKA">
		<tag k="name" v="Djuphøllia" />
		<tag k="natural" v="peak" />
		<tag k="source" v="Kartverket" />
		<tag k="ssr:stedsnr" v="680235" />
	</node>
	<node id="2354954460" lat="63.2060072" lon="11.6564002" version="4" timestamp="2018-05-02T17:04:10Z" changeset="58620907" uid="3497659" user="NKA">
		<tag k="name" v="Ramfjellet" />
		<tag k="name:no" v="Ramfjellet" />
		<tag k="name:sma" v="Raamma" />
		<tag k="natural" v="peak" />
		<tag k="source" v="Kartverket" />
		<tag k="ssr:stedsnr" v="73194" />
	</node>
	<node id="2354955211" lat="63.1910866" lon="11.7037113" version="4" timestamp="2021-10-20T15:30:59Z" changeset="112749757" uid="3497659" user="NKA">
		<tag k="name" v="Tofjellet" />
		<tag k="natural" v="peak" />
		<tag k="source" v="Kartverket" />
		<tag k="ssr:stedsnr" v="133221" />
	</node>
	<node id="2354955794" lat="63.240503" lon="11.9823" version="2" timestamp="2018-05-02T17:04:10Z" changeset="58620907" uid="3497659" user="NKA">
		<tag k="name" v="Storrundhaugen" />
		<tag k="natural" v="peak" />
		<tag k="source" v="Kartverket" />
		<tag k="ssr:stedsnr" v="922367" />
	</node>
	<node id="2354955813" lat="63.240908" lon="11.779661" version="2" timestamp="2018-05-02T17:04:10Z" changeset="58620907" uid="3497659" user="NKA">
		<tag k="name" v="Litjfjellet" />
		<tag k="natural" v="peak" />
		<tag k="source" v="Kartverket" />
		<tag k="ssr:stedsnr" v="862396" />
	</node>
	<node id="2354956753" lat="63.228864" lon="11.750869" version="2" timestamp="2018-05-02T17:04:10Z" changeset="58620907" uid="3497659" user="NKA">
		<tag k="name" v="Govke" />
		<tag k="name:sma" v="Govke" />
		<tag k="natural" v="peak" />
		<tag k="source" v="Kartverket" />
		<tag k="ssr:stedsnr" v="922362" />
	</node>
	<node id="2354956754" lat="63.216533" lon="11.774653" version="2" timestamp="2018-05-02T17:04:10Z" changeset="58620907" uid="3497659" user="NKA">
		<tag k="landuse" v="quarry" />
		<tag k="name" v="Gilså Gruve" />
		<tag k="source" v="Kartverket" />
		<tag k="ssr:stedsnr" v="558398" />
	</node>
	<node id="2354956755" lat="63.224489" lon="11.822203" version="2" timestamp="2018-05-02T17:04:10Z" changeset="58620907" uid="3497659" user="NKA">
		<tag k="name" v="Biernietjahke" />
		<tag k="name:sma" v="Biernietjahke" />
		<tag k="natural" v="peak" />
		<tag k="source" v="Kartverket" />
		<tag k="ssr:stedsnr" v="194346" />
	</node>
</osm>
