<?xml version="1.0" encoding="UTF-8"?>
<osm generator="osmapis" version="0.6">
	<node id="-25855" lat="59.8514055591" lon="10.5886916691">
		<tag k="name" v="Gåsøya lykt" />
		<tag k="ssr:date" v="2016-05-11" />
		<tag k="ssr:gruppe" v="navigasjon" />
		<tag k="ssr:hovedgruppe" v="infrastruktur" />
		<tag k="ssr:stedsnr" v="751463" />
		<tag k="ssr:type" v="fyrlykt" />
	</node>
	<node id="-25720" lat="59.8822388882" lon="10.6226305549">
		<tag k="fixme" v="multiple name tags, choose one and add the other to alt_name" />
		<tag k="name" v="Snarøykilen;Snarøykilen lykt" />
		<tag k="ssr:date" v="2016-05-10" />
		<tag k="ssr:gruppe" v="navigasjon" />
		<tag k="ssr:hovedgruppe" v="infrastruktur" />
		<tag k="ssr:stedsnr" v="660033" />
		<tag k="ssr:type" v="fyrlykt" />
	</node>
	<node id="-25062" lat="59.8859602526" lon="10.5361591098">
		<tag k="name" v="Kalvøya" />
		<tag k="ssr:date" v="2019-05-30" />
		<tag k="ssr:gruppe" v="veg" />
		<tag k="ssr:hovedgruppe" v="infrastruktur" />
		<tag k="ssr:stedsnr" v="992335" />
		<tag k="ssr:type" v="adressenavn" />
	</node>
	<node id="-25049" lat="59.8400873052" lon="10.5911786732">
		<tag k="name" v="Gåsungvarden" />
		<tag k="ssr:date" v="2018-07-10" />
		<tag k="ssr:gruppe" v="navigasjon" />
		<tag k="ssr:hovedgruppe" v="infrastruktur" />
		<tag k="ssr:stedsnr" v="985691" />
		<tag k="ssr:type" v="sjøvarde" />
	</node>
	<node id="-25431" lat="59.8835250015" lon="10.5354388897">
		<tag k="name" v="Øvre Kalvøya" />
		<tag k="ssr:date" v="2016-05-10" />
		<tag k="ssr:gruppe" v="navigasjon" />
		<tag k="ssr:hovedgruppe" v="infrastruktur" />
		<tag k="ssr:stedsnr" v="418038" />
		<tag k="ssr:type" v="fyrlykt" />
	</node>
	<node id="-26069" lat="60.5908609473" lon="9.63819281559">
		<tag k="fixme" v="multiple name tags, choose one and add the other to alt_name" />
		<tag k="name" v="Austlandet;Østlandet" />
		<tag k="ssr:date" v="2018-01-09" />
		<tag k="ssr:gruppe" v="administrativeIndelinger" />
		<tag k="ssr:hovedgruppe" v="offentligAdministrasjon" />
		<tag k="ssr:stedsnr" v="974775" />
		<tag k="ssr:type" v="annenAdministrativInndeling" />
	</node>
	<node id="-24914" lat="59.8792694467" lon="10.4991083314">
		<tag k="name" v="Drammensbanen" />
		<tag k="ssr:date" v="2016-05-10" />
		<tag k="ssr:gruppe" v="bane" />
		<tag k="ssr:hovedgruppe" v="infrastruktur" />
		<tag k="ssr:stedsnr" v="326555" />
		<tag k="ssr:type" v="banestrekning" />
	</node>
	<node id="-25040" lat="59.8917015992" lon="10.5258969095">
		<tag k="name" v="Øvre torv" />
		<tag k="ssr:date" v="2019-05-31" />
		<tag k="ssr:gruppe" v="veg" />
		<tag k="ssr:hovedgruppe" v="infrastruktur" />
		<tag k="ssr:stedsnr" v="1068996" />
		<tag k="ssr:type" v="adressenavn" />
	</node>
	<node id="-25039" lat="59.8931005698" lon="10.4057789705">
		<tag k="name" v="Grønlandsveien" />
		<tag k="ssr:date" v="2019-05-31" />
		<tag k="ssr:gruppe" v="veg" />
		<tag k="ssr:hovedgruppe" v="infrastruktur" />
		<tag k="ssr:stedsnr" v="1067953" />
		<tag k="ssr:type" v="adressenavn" />
	</node>
	<node id="-25038" lat="59.9938556721" lon="10.4940431968">
		<tag k="name" v="Vensåsseterveien" />
		<tag k="ssr:date" v="2019-05-31" />
		<tag k="ssr:gruppe" v="veg" />
		<tag k="ssr:hovedgruppe" v="infrastruktur" />
		<tag k="ssr:stedsnr" v="1067952" />
		<tag k="ssr:type" v="adressenavn" />
	</node>
	<node id="-25037" lat="59.911340024" lon="10.5902820193">
		<tag k="name" v="Skallumjordet" />
		<tag k="ssr:date" v="2019-05-31" />
		<tag k="ssr:gruppe" v="veg" />
		<tag k="ssr:hovedgruppe" v="infrastruktur" />
		<tag k="ssr:stedsnr" v="1067951" />
		<tag k="ssr:type" v="adressenavn" />
	</node>
	<node id="-25036" lat="59.9121368167" lon="10.6093616454">
		<tag k="name" v="Guderuds vei" />
		<tag k="ssr:date" v="2019-05-31" />
		<tag k="ssr:gruppe" v="veg" />
		<tag k="ssr:hovedgruppe" v="infrastruktur" />
		<tag k="ssr:stedsnr" v="1067948" />
		<tag k="ssr:type" v="adressenavn" />
	</node>
	<node id="-25035" lat="59.8738855396" lon="10.5613434765">
		<tag k="name" v="Ostøya" />
		<tag k="ssr:date" v="2019-05-31" />
		<tag k="ssr:gruppe" v="veg" />
		<tag k="ssr:hovedgruppe" v="infrastruktur" />
		<tag k="ssr:stedsnr" v="1067946" />
		<tag k="ssr:type" v="adressenavn" />
	</node>
	<node id="-25034" lat="59.9490238424" lon="10.4655793748">
		<tag k="name" v="Trulsrudkollen" />
		<tag k="ssr:date" v="2019-05-31" />
		<tag k="ssr:gruppe" v="veg" />
		<tag k="ssr:hovedgruppe" v="infrastruktur" />
		<tag k="ssr:stedsnr" v="1067943" />
		<tag k="ssr:type" v="adressenavn" />
	</node>
	<node id="-25033" lat="59.9096217566" lon="10.6348610698">
		<tag k="name" v="Munthes plass" />
		<tag k="ssr:date" v="2019-05-31" />
		<tag k="ssr:gruppe" v="veg" />
		<tag k="ssr:hovedgruppe" v="infrastruktur" />
		<tag k="ssr:stedsnr" v="1067941" />
		<tag k="ssr:type" v="adressenavn" />
	</node>
	<node id="-25032" lat="59.8992628998" lon="10.6095360394">
		<tag k="name" v="Finn Thorsagers vei" />
		<tag k="ssr:date" v="2019-05-31" />
		<tag k="ssr:gruppe" v="veg" />
		<tag k="ssr:hovedgruppe" v="infrastruktur" />
		<tag k="ssr:stedsnr" v="1067940" />
		<tag k="ssr:type" v="adressenavn" />
	</node>
	<node id="-25031" lat="59.960435245" lon="10.3787933226">
		<tag k="name" v="Køllen" />
		<tag k="ssr:date" v="2019-05-31" />
		<tag k="ssr:gruppe" v="veg" />
		<tag k="ssr:hovedgruppe" v="infrastruktur" />
		<tag k="ssr:stedsnr" v="1067939" />
		<tag k="ssr:type" v="adressenavn" />
	</node>
	<node id="-25030" lat="59.8999714927" lon="10.6109344124">
		<tag k="name" v="Per Waalers vei" />
		<tag k="ssr:date" v="2019-05-31" />
		<tag k="ssr:gruppe" v="veg" />
		<tag k="ssr:hovedgruppe" v="infrastruktur" />
		<tag k="ssr:stedsnr" v="1067935" />
		<tag k="ssr:type" v="adressenavn" />
	</node>
	<node id="-25029" lat="59.9273137627" lon="10.5957862718">
		<tag k="name" v="Gamle Nadderudvei" />
		<tag k="ssr:date" v="2019-05-31" />
		<tag k="ssr:gruppe" v="veg" />
		<tag k="ssr:hovedgruppe" v="infrastruktur" />
		<tag k="ssr:stedsnr" v="1067933" />
		<tag k="ssr:type" v="adressenavn" />
	</node>
	<node id="-25028" lat="59.9609402391" lon="10.4693133946">
		<tag k="name" v="Bjerkejordet" />
		<tag k="ssr:date" v="2019-05-31" />
		<tag k="ssr:gruppe" v="veg" />
		<tag k="ssr:hovedgruppe" v="infrastruktur" />
		<tag k="ssr:stedsnr" v="1067854" />
		<tag k="ssr:type" v="adressenavn" />
	</node>
	<node id="-25027" lat="59.9260620027" lon="10.4503625613">
		<tag k="name" v="Tyslandsløkka" />
		<tag k="ssr:date" v="2019-05-31" />
		<tag k="ssr:gruppe" v="veg" />
		<tag k="ssr:hovedgruppe" v="infrastruktur" />
		<tag k="ssr:stedsnr" v="1067432" />
		<tag k="ssr:type" v="adressenavn" />
	</node>
	<node id="-25026" lat="59.9160379054" lon="10.5802095593">
		<tag k="name" v="Gjønneshagen" />
		<tag k="ssr:date" v="2019-05-31" />
		<tag k="ssr:gruppe" v="veg" />
		<tag k="ssr:hovedgruppe" v="infrastruktur" />
		<tag k="ssr:stedsnr" v="1067937" />
		<tag k="ssr:type" v="adressenavn" />
	</node>
	<node id="-25025" lat="59.9322772376" lon="10.4657495213">
		<tag k="name" v="Bjerkeløkken" />
		<tag k="ssr:date" v="2019-05-31" />
		<tag k="ssr:gruppe" v="veg" />
		<tag k="ssr:hovedgruppe" v="infrastruktur" />
		<tag k="ssr:stedsnr" v="1067936" />
		<tag k="ssr:type" v="adressenavn" />
	</node>
	<node id="-25024" lat="59.9096377765" lon="10.6415215667">
		<tag k="name" v="Lysaker brygge" />
		<tag k="ssr:date" v="2019-05-31" />
		<tag k="ssr:gruppe" v="veg" />
		<tag k="ssr:hovedgruppe" v="infrastruktur" />
		<tag k="ssr:stedsnr" v="1067841" />
		<tag k="ssr:type" v="adressenavn" />
	</node>
	<node id="-25023" lat="59.8613775015" lon="10.5776267089">
		<tag k="name" v="Møystads vei" />
		<tag k="ssr:date" v="2019-05-31" />
		<tag k="ssr:gruppe" v="veg" />
		<tag k="ssr:hovedgruppe" v="infrastruktur" />
		<tag k="ssr:stedsnr" v="1066547" />
		<tag k="ssr:type" v="adressenavn" />
	</node>
	<node id="-25610" lat="59.9393611109" lon="10.6107777775">
		<tag k="name" v="Røabanen" />
		<tag k="ssr:date" v="2016-05-10" />
		<tag k="ssr:gruppe" v="bane" />
		<tag k="ssr:hovedgruppe" v="infrastruktur" />
		<tag k="ssr:stedsnr" v="567937" />
		<tag k="ssr:type" v="banestrekning" />
	</node>
	<node id="-25135" lat="59.9826333315" lon="10.4834111107">
		<tag k="name" v="Lommedalsbanen" />
		<tag k="ssr:date" v="2016-05-10" />
		<tag k="ssr:gruppe" v="bane" />
		<tag k="ssr:hovedgruppe" v="infrastruktur" />
		<tag k="ssr:stedsnr" v="58597" />
		<tag k="ssr:type" v="banestrekning" />
	</node>
	<node id="-25247" lat="59.9064583329" lon="10.5230888908">
		<tag k="name" v="Kolsåsbanen" />
		<tag k="ssr:date" v="2016-05-10" />
		<tag k="ssr:gruppe" v="bane" />
		<tag k="ssr:hovedgruppe" v="infrastruktur" />
		<tag k="ssr:stedsnr" v="143901" />
		<tag k="ssr:type" v="banestrekning" />
	</node>
	<node id="-24856" lat="59.8396624462" lon="10.5864635455">
		<tag k="alt_name" v="Gåsungene" />
		<tag k="name" v="Gåsungene lykt" />
		<tag k="ssr:date" v="2018-07-02" />
		<tag k="ssr:gruppe" v="navigasjon" />
		<tag k="ssr:hovedgruppe" v="infrastruktur" />
		<tag k="ssr:stedsnr" v="296514" />
		<tag k="ssr:type" v="fyrlykt" />
	</node>
	<node id="-25355" lat="59.8899583338" lon="10.5264777729">
		<tag k="alt_name" v="Bærum" />
		<tag k="name" v="Bærum kommune" />
		<tag k="ssr:date" v="2016-05-10" />
		<tag k="ssr:gruppe" v="administrativeIndelinger" />
		<tag k="ssr:hovedgruppe" v="offentligAdministrasjon" />
		<tag k="ssr:stedsnr" v="207764" />
		<tag k="ssr:type" v="kommune" />
	</node>
	<node id="-25354" lat="59.8973250021" lon="10.6308194358">
		<tag k="name" v="Fornebu" />
		<tag k="ssr:date" v="2016-05-10" />
		<tag k="ssr:gruppe" v="administrativeIndelinger" />
		<tag k="ssr:hovedgruppe" v="offentligAdministrasjon" />
		<tag k="ssr:stedsnr" v="206680" />
		<tag k="ssr:type" v="poststed" />
	</node>
	<node id="-24919" lat="59.8864722208" lon="10.4159083334">
		<tag k="name" v="Mårledningen" />
		<tag k="ssr:date" v="2016-05-10" />
		<tag k="ssr:gruppe" v="energi" />
		<tag k="ssr:hovedgruppe" v="infrastruktur" />
		<tag k="ssr:stedsnr" v="326619" />
		<tag k="ssr:type" v="kraftledning" />
	</node>
	<node id="-25864" lat="59.88210556" lon="10.5371972141">
		<tag k="name" v="Nedre Kalvøya" />
		<tag k="ssr:date" v="2016-05-11" />
		<tag k="ssr:gruppe" v="navigasjon" />
		<tag k="ssr:hovedgruppe" v="infrastruktur" />
		<tag k="ssr:stedsnr" v="782041" />
		<tag k="ssr:type" v="fyrlykt" />
	</node>
</osm>
