<?xml version="1.0" encoding="UTF-8"?>
<osm generator="osmapis" version="0.6">
	<node id="-269182" lat="59.8302805579" lon="7.27741388409">
		<tag k="name" v="Tjønnlega" />
		<tag k="place" v="locality" />
		<tag k="ssr:stedsnr" v="550841" />
	</node>
	<node id="-268925" lat="59.5750750038" lon="8.1823916605">
		<tag k="amenity" v="place_of_worship" />
		<tag k="fixme" v="specify religion=*, denomination=*, building=* etc" />
		<tag k="name" v="Betania" />
		<tag k="ssr:stedsnr" v="516054" />
	</node>
	<node id="-266748" lat="60.0861388911" lon="7.87405277937">
		<tag k="alt_name" v="Gjuvsjålega, vesle" />
		<tag k="name" v="Vesle Gjuvsjålega" />
		<tag k="place" v="locality" />
		<tag k="ssr:stedsnr" v="368647" />
	</node>
	<node id="-270459" lat="59.8470777769" lon="7.67995555076">
		<tag k="name" v="Ivarsheller" />
		<tag k="place" v="locality" />
		<tag k="ssr:stedsnr" v="793000" />
	</node>
	<node id="-266741" lat="59.7892611075" lon="7.55960276937">
		<tag k="name" v="Maurebu" />
		<tag k="ssr:stedsnr" v="368565" />
		<tag k="tourism" v="attraction" />
	</node>
	<node id="-270580" lat="59.7824083302" lon="7.750197227">
		<tag k="name" v="Tjønnestøyllega" />
		<tag k="place" v="locality" />
		<tag k="ssr:stedsnr" v="821352" />
	</node>
	<node id="-270451" lat="59.8930111128" lon="7.57695277041">
		<tag k="name" v="Ormelæger" />
		<tag k="ssr:stedsnr" v="792982" />
		<tag k="tourism" v="attraction" />
	</node>
	<node id="-267632" lat="59.5748277787" lon="8.17396944925">
		<tag k="alt_name" v="Øyfjell kyrkje" />
		<tag k="amenity" v="place_of_worship" />
		<tag k="denomination" v="lutheran" />
		<tag k="name" v="Øyfjell" />
		<tag k="religion" v="christian" />
		<tag k="ssr:stedsnr" v="124429" />
	</node>
	<node id="-267759" lat="60.0617416673" lon="7.98949445083">
		<tag k="name" v="Storfjellægret" />
		<tag k="place" v="locality" />
		<tag k="ssr:stedsnr" v="126589" />
	</node>
	<node id="-266345" lat="59.6819249956" lon="7.35340277995">
		<tag k="name" v="Nipalega" />
		<tag k="place" v="locality" />
		<tag k="ssr:stedsnr" v="306561" />
	</node>
	<node id="-266725" lat="59.8926583342" lon="7.52316943953">
		<tag k="name" v="Berudalen, øvre" />
		<tag k="place" v="locality" />
		<tag k="ssr:stedsnr" v="367977" />
	</node>
	<node id="-269027" lat="59.6193333354" lon="7.84318610556">
		<tag k="alt_name" v="Vinje kyrkje" />
		<tag k="amenity" v="place_of_worship" />
		<tag k="denomination" v="lutheran" />
		<tag k="name" v="Vinje" />
		<tag k="religion" v="christian" />
		<tag k="ssr:stedsnr" v="548961" />
	</node>
	<node id="-268514" lat="59.8243694421" lon="7.69250555395">
		<tag k="name" v="Inngjerda" />
		<tag k="place" v="locality" />
		<tag k="ssr:stedsnr" v="428955" />
	</node>
	<node id="-270305" lat="59.7635666672" lon="7.34551388483">
		<tag k="name" v="Stabben" />
		<tag k="place" v="locality" />
		<tag k="ssr:stedsnr" v="784416" />
	</node>
	<node id="-270953" lat="59.7229638933" lon="7.69681944239">
		<tag k="alt_name" v="Grunge kyrkje" />
		<tag k="amenity" v="place_of_worship" />
		<tag k="denomination" v="lutheran" />
		<tag k="name" v="Grungedal" />
		<tag k="religion" v="christian" />
		<tag k="ssr:stedsnr" v="913561" />
	</node>
	<node id="-268346" lat="60.0168388907" lon="7.86417499709">
		<tag k="name" v="Lægeret" />
		<tag k="place" v="locality" />
		<tag k="ssr:stedsnr" v="247482" />
	</node>
	<node id="-269782" lat="60.0806305594" lon="7.77523888153">
		<tag k="name" v="Merakklega" />
		<tag k="place" v="locality" />
		<tag k="ssr:stedsnr" v="671613" />
	</node>
	<node id="-269653" lat="60.0522750018" lon="7.95404721339">
		<tag k="name" v="Tjønndalslægret" />
		<tag k="place" v="locality" />
		<tag k="ssr:stedsnr" v="660762" />
	</node>
	<node id="-269012" lat="59.7463027774" lon="7.44635277715">
		<tag k="name" v="Vågslisagi" />
		<tag k="place" v="locality" />
		<tag k="ssr:stedsnr" v="542945" />
	</node>
	<node id="-270288" lat="59.5670166672" lon="8.1854305535">
		<tag k="name" v="Øyfjell bygdemuseum" />
		<tag k="ssr:stedsnr" v="777987" />
		<tag k="tourism" v="museum" />
	</node>
	<node id="-268363" lat="60.0693333362" lon="7.4818249927">
		<tag k="alt_name" v="Sandvasslega, øvre" />
		<tag k="name" v="Øvre Sandvasslega" />
		<tag k="place" v="locality" />
		<tag k="ssr:stedsnr" v="247629" />
	</node>
	<node id="-269130" lat="59.9186249957" lon="7.41349444472">
		<tag k="name" v="Klovsteinvollen" />
		<tag k="place" v="locality" />
		<tag k="ssr:stedsnr" v="549904" />
	</node>
	<node id="-268361" lat="60.1083333343" lon="7.8349055518">
		<tag k="name" v="Vierhyttlega" />
		<tag k="place" v="locality" />
		<tag k="ssr:stedsnr" v="247600" />
	</node>
	<node id="-268104" lat="59.6207083307" lon="7.82991389578">
		<tag k="amenity" v="community_centre" />
		<tag k="name" v="Vinjar" />
		<tag k="ssr:stedsnr" v="210397" />
	</node>
	<node id="-271045" lat="59.8173361099" lon="7.30200000122">
		<tag k="name" v="Hardinghytta" />
		<tag k="place" v="locality" />
		<tag k="ssr:stedsnr" v="914826" />
	</node>
	<node id="-270147" lat="59.8945444487" lon="7.3750305609">
		<tag k="name" v="Neslæger" />
		<tag k="place" v="locality" />
		<tag k="ssr:stedsnr" v="732975" />
	</node>
	<node id="-270965" lat="59.7162666644" lon="7.99902500094">
		<tag k="alt_name" v="Rauland kyrkje" />
		<tag k="amenity" v="place_of_worship" />
		<tag k="denomination" v="lutheran" />
		<tag k="name" v="Rauland" />
		<tag k="religion" v="christian" />
		<tag k="ssr:stedsnr" v="913805" />
	</node>
	<node id="-270140" lat="59.9550444403" lon="7.56829999334">
		<tag k="name" v="Klovstein" />
		<tag k="place" v="locality" />
		<tag k="ssr:stedsnr" v="732877" />
	</node>
	<node id="-269498" lat="59.9321527751" lon="7.66598333867">
		<tag k="loc_name" v="Raudåi" />
		<tag k="name" v="Raudåstein" />
		<tag k="place" v="locality" />
		<tag k="ssr:stedsnr" v="610928" />
	</node>
	<node id="-268856" lat="60.0571805515" lon="7.50616665913">
		<tag k="name" v="Midtre Sandvasslega" />
		<tag k="place" v="locality" />
		<tag k="ssr:stedsnr" v="490624" />
	</node>
	<node id="-268855" lat="60.0528999956" lon="7.52318888782">
		<tag k="alt_name" v="Sandvasslegene, nedre" />
		<tag k="name" v="Nedre Sandvasslega" />
		<tag k="place" v="locality" />
		<tag k="ssr:stedsnr" v="490622" />
	</node>
	<node id="-267080" lat="59.8913777798" lon="7.39298888516">
		<tag k="name" v="Fjølabu" />
		<tag k="place" v="locality" />
		<tag k="ssr:stedsnr" v="3985" />
	</node>
	<node id="-269358" lat="60.0571472231" lon="7.50622221423">
		<tag k="name" v="Sandvasslegene" />
		<tag k="place" v="locality" />
		<tag k="ssr:stedsnr" v="603999" />
	</node>
	<node id="-269739" lat="59.5220472251" lon="7.98323332915">
		<tag k="amenity" v="community_centre" />
		<tag k="name" v="Tonna" />
		<tag k="ssr:stedsnr" v="671031" />
	</node>
	<node id="-270760" lat="59.7622111115" lon="8.12432778041">
		<tag k="name" v="Syrbekk" />
		<tag k="ssr:stedsnr" v="854049" />
		<tag k="tourism" v="attraction" />
	</node>
	<node id="-270757" lat="59.8863000001" lon="7.59855277789">
		<tag k="loc_name" v="Skreuhaddine" />
		<tag k="name" v="Skreuhallet" />
		<tag k="place" v="locality" />
		<tag k="ssr:stedsnr" v="853989" />
	</node>
	<node id="-270243" lat="59.7848666693" lon="7.81993333136">
		<tag k="name" v="Stakkstøet" />
		<tag k="place" v="locality" />
		<tag k="ssr:stedsnr" v="759987" />
	</node>
	<node id="-270498" lat="59.6347222187" lon="7.80048054847">
		<tag k="name" v="Mjonøy" />
		<tag k="ssr:stedsnr" v="817129" />
		<tag k="tourism" v="museum" />
	</node>
	<node id="-268830" lat="59.85235" lon="8.06606944152">
		<tag k="alt_name" v="Møsstrånd kyrkje;Møsstrand kyrkje" />
		<tag k="amenity" v="place_of_worship" />
		<tag k="denomination" v="lutheran" />
		<tag k="name" v="Møsstrond kyrkje" />
		<tag k="religion" v="christian" />
		<tag k="ssr:stedsnr" v="489735" />
	</node>
	<node id="-269852" lat="59.6488138891" lon="7.79037778286">
		<tag k="name" v="Vinje Billedgalleri" />
		<tag k="ssr:stedsnr" v="692868" />
		<tag k="tourism" v="museum" />
	</node>
	<node id="-268696" lat="59.5237611103" lon="7.98638611765">
		<tag k="alt_name" v="Nesland kyrkje" />
		<tag k="amenity" v="place_of_worship" />
		<tag k="denomination" v="lutheran" />
		<tag k="name" v="Nesland" />
		<tag k="religion" v="christian" />
		<tag k="ssr:stedsnr" v="488049" />
	</node>
	<node id="-266244" lat="59.7200055532" lon="8.09799167139">
		<tag k="name" v="Sortekjeldskytja" />
		<tag k="place" v="locality" />
		<tag k="ssr:stedsnr" v="275098" />
	</node>
	<node id="-268322" lat="59.8331611116" lon="7.6607749994">
		<tag k="name" v="Torsmoen" />
		<tag k="place" v="locality" />
		<tag k="ssr:stedsnr" v="246938" />
	</node>
	<node id="-269837" lat="60.036636113" lon="7.82668055173">
		<tag k="loc_name" v="Steinstaulen" />
		<tag k="name" v="Steinstøl" />
		<tag k="place" v="locality" />
		<tag k="ssr:stedsnr" v="672493" />
	</node>
	<node id="-269835" lat="60.0301138909" lon="7.76241110779">
		<tag k="name" v="Vollan" />
		<tag k="place" v="locality" />
		<tag k="ssr:stedsnr" v="672469" />
	</node>
	<node id="-267402" lat="59.9612083303" lon="7.62697500699">
		<tag k="loc_name" v="Sørsteinane" />
		<tag k="name" v="Sørenstein" />
		<tag k="place" v="locality" />
		<tag k="ssr:stedsnr" v="64904" />
	</node>
	<node id="-269062" lat="59.6306305589" lon="8.2015999915">
		<tag k="amenity" v="community_centre" />
		<tag k="name" v="Rorge skule" />
		<tag k="ssr:stedsnr" v="549355" />
	</node>
	<node id="-267396" lat="59.7161333334" lon="8.0818138803">
		<tag k="name" v="Skytja" />
		<tag k="old_name" v="Skykja" />
		<tag k="place" v="locality" />
		<tag k="ssr:stedsnr" v="64833" />
	</node>
	<node id="-266390" lat="59.7447333307" lon="7.65921111184">
		<tag k="name" v="Liestøyl" />
		<tag k="old_name" v="Listøl" />
		<tag k="place" v="locality" />
		<tag k="ssr:stedsnr" v="307367" />
	</node>
	<node id="-268034" lat="60.0336305596" lon="7.8733999978">
		<tag k="name" v="Viervollen" />
		<tag k="place" v="locality" />
		<tag k="ssr:stedsnr" v="186557" />
	</node>
</osm>
