<?xml version="1.0" encoding="UTF-8"?>
<osm generator="osmapis" version="0.6">
	<node id="-267904" lat="59.7884944468" lon="7.40270555163">
		<tag k="highway" v="path" />
		<tag k="name" v="Hestegretbakken" />
		<tag k="ssr:stedsnr" v="178118" />
	</node>
	<node id="-267899" lat="59.8032916664" lon="7.58082778331">
		<tag k="ford" v="yes" />
		<tag k="name" v="Vadet" />
		<tag k="place" v="locality" />
		<tag k="ssr:stedsnr" v="172702" />
	</node>
	<node id="-268857" lat="60.0507666703" lon="7.52478888312">
		<tag k="ford" v="yes" />
		<tag k="name" v="Breidvad" />
		<tag k="place" v="locality" />
		<tag k="ssr:stedsnr" v="490626" />
	</node>
	<node id="-266872" lat="59.7396055564" lon="7.58578333476">
		<tag k="bridge" v="yes" />
		<tag k="layer" v="1" />
		<tag k="name" v="Bruflot" />
		<tag k="ssr:stedsnr" v="410419" />
	</node>
	<node id="-270596" lat="59.6940055517" lon="7.55626388226">
		<tag k="bridge" v="yes" />
		<tag k="layer" v="1" />
		<tag k="name" v="Kvervesjåbekken" />
		<tag k="ssr:stedsnr" v="836345" />
	</node>
	<node id="-267271" lat="59.6616111091" lon="7.80829999206">
		<tag k="bridge" v="yes" />
		<tag k="layer" v="1" />
		<tag k="name" v="Geiså" />
		<tag k="ssr:stedsnr" v="46429" />
	</node>
	<node id="-267879" lat="59.721019441" lon="8.01910278617">
		<tag k="bridge" v="yes" />
		<tag k="layer" v="1" />
		<tag k="name" v="Bitu bru" />
		<tag k="ssr:stedsnr" v="168395" />
	</node>
	<node id="-266342" lat="59.7140055573" lon="7.55802221556">
		<tag k="alt_name" v="Vai" />
		<tag k="ford" v="yes" />
		<tag k="name" v="Kuvad" />
		<tag k="old_name" v="Vadet" />
		<tag k="place" v="locality" />
		<tag k="ssr:stedsnr" v="306530" />
	</node>
	<node id="-267877" lat="59.587488886" lon="8.131627775">
		<tag k="bridge" v="yes" />
		<tag k="layer" v="1" />
		<tag k="name" v="Sondovsli" />
		<tag k="ssr:stedsnr" v="168380" />
	</node>
	<node id="-267876" lat="59.6216611108" lon="7.82160278191">
		<tag k="bridge" v="yes" />
		<tag k="layer" v="1" />
		<tag k="name" v="Vinje" />
		<tag k="ssr:stedsnr" v="168376" />
	</node>
	<node id="-267558" lat="59.6916416673" lon="8.114438881">
		<tag k="bridge" v="yes" />
		<tag k="layer" v="1" />
		<tag k="name" v="Saure" />
		<tag k="ssr:stedsnr" v="107394" />
	</node>
	<node id="-267618" lat="59.8073166667" lon="8.09028055897">
		<tag k="alt_name" v="Kråmvikbryggja" />
		<tag k="man_made" v="quay" />
		<tag k="name" v="Kromvikbryggja" />
		<tag k="place" v="locality" />
		<tag k="ssr:stedsnr" v="124264" />
	</node>
	<node id="-266587" lat="59.7328861097" lon="7.54611389712">
		<tag k="landuse" v="industrial" />
		<tag k="name" v="Haukeli kraftstasjon" />
		<tag k="power" v="plant" />
		<tag k="ssr:stedsnr" v="352138" />
	</node>
	<node id="-266582" lat="59.8434666679" lon="7.15606389681">
		<tag k="bridge" v="yes" />
		<tag k="layer" v="1" />
		<tag k="name" v="Ulevå" />
		<tag k="ssr:stedsnr" v="350336" />
	</node>
	<node id="-266581" lat="59.7462555541" lon="7.83977222013">
		<tag k="bridge" v="yes" />
		<tag k="layer" v="1" />
		<tag k="name" v="Vå" />
		<tag k="ssr:stedsnr" v="350334" />
	</node>
	<node id="-266268" lat="59.7371694464" lon="7.58875278492">
		<tag k="bridge" v="yes" />
		<tag k="layer" v="1" />
		<tag k="name" v="Vestre Bora" />
		<tag k="ssr:stedsnr" v="289384" />
	</node>
	<node id="-266296" lat="59.7808083365" lon="7.2750750057">
		<tag k="ford" v="yes" />
		<tag k="name" v="Svarteva" />
		<tag k="place" v="locality" />
		<tag k="ssr:stedsnr" v="301879" />
	</node>
	<node id="-266188" lat="59.5665111137" lon="7.99523611179">
		<tag k="alt_name" v="Åmot" />
		<tag k="bridge" v="yes" />
		<tag k="layer" v="1" />
		<tag k="name" v="Åmot bru" />
		<tag k="ssr:stedsnr" v="271661" />
	</node>
	<node id="-270281" lat="59.7141027733" lon="8.11636665969">
		<tag k="bridge" v="yes" />
		<tag k="layer" v="1" />
		<tag k="name" v="Holtarbekken" />
		<tag k="ssr:stedsnr" v="775356" />
	</node>
	<node id="-270280" lat="59.6661944412" lon="8.0592944403">
		<tag k="bridge" v="yes" />
		<tag k="layer" v="1" />
		<tag k="name" v="Stavså" />
		<tag k="ssr:stedsnr" v="775348" />
	</node>
	<node id="-270279" lat="59.7751694406" lon="7.32465832531">
		<tag k="bridge" v="yes" />
		<tag k="layer" v="1" />
		<tag k="name" v="Tyrvelitjønn" />
		<tag k="ssr:stedsnr" v="775346" />
	</node>
	<node id="-268982" lat="59.5886555599" lon="7.9144277783">
		<tag k="bridge" v="yes" />
		<tag k="layer" v="1" />
		<tag k="name" v="Særen" />
		<tag k="ssr:stedsnr" v="532359" />
	</node>
	<node id="-269634" lat="59.7969055549" lon="8.25634166585">
		<tag k="bridge" v="yes" />
		<tag k="layer" v="1" />
		<tag k="name" v="Bikkeli" />
		<tag k="ssr:stedsnr" v="653393" />
	</node>
	<node id="-269633" lat="59.6778638933" lon="8.17059165847">
		<tag k="bridge" v="yes" />
		<tag k="layer" v="1" />
		<tag k="name" v="Funnlid" />
		<tag k="ssr:stedsnr" v="653385" />
	</node>
	<node id="-269632" lat="59.7207611088" lon="8.01562221648">
		<tag k="bridge" v="yes" />
		<tag k="layer" v="1" />
		<tag k="name" v="Klavabekk" />
		<tag k="ssr:stedsnr" v="653384" />
	</node>
	<node id="-269631" lat="59.5797444411" lon="8.0780638961">
		<tag k="bridge" v="yes" />
		<tag k="layer" v="1" />
		<tag k="name" v="Mjåvatn" />
		<tag k="ssr:stedsnr" v="653382" />
	</node>
	<node id="-269630" lat="59.7616055571" lon="7.44323333621">
		<tag k="bridge" v="yes" />
		<tag k="layer" v="1" />
		<tag k="name" v="Raffdalsmoen" />
		<tag k="ssr:stedsnr" v="653377" />
	</node>
	<node id="-269629" lat="59.632141665" lon="8.20252222885">
		<tag k="bridge" v="yes" />
		<tag k="layer" v="1" />
		<tag k="name" v="Skolås" />
		<tag k="ssr:stedsnr" v="653376" />
	</node>
	<node id="-269628" lat="59.7116027787" lon="7.57378887997">
		<tag k="bridge" v="yes" />
		<tag k="layer" v="1" />
		<tag k="name" v="Vamark" />
		<tag k="ssr:stedsnr" v="653372" />
	</node>
	<node id="-268985" lat="59.5655277756" lon="8.00654167446">
		<tag k="bridge" v="yes" />
		<tag k="layer" v="1" />
		<tag k="name" v="Haugsjuv" />
		<tag k="ssr:stedsnr" v="532372" />
	</node>
	<node id="-268984" lat="59.6958583305" lon="8.06956389083">
		<tag k="bridge" v="yes" />
		<tag k="layer" v="1" />
		<tag k="name" v="Lielv" />
		<tag k="ssr:stedsnr" v="532366" />
	</node>
	<node id="-268983" lat="59.5715611129" lon="7.9970611033">
		<tag k="bridge" v="yes" />
		<tag k="layer" v="1" />
		<tag k="name" v="Leirli" />
		<tag k="ssr:stedsnr" v="532365" />
	</node>
	<node id="-269110" lat="59.8042388911" lon="7.92575555374">
		<tag k="alt_name" v="Reinsvodine" />
		<tag k="ford" v="yes" />
		<tag k="name" v="Reinevodine" />
		<tag k="place" v="locality" />
		<tag k="ssr:stedsnr" v="549687" />
	</node>
	<node id="-268981" lat="59.6640583351" lon="8.19506944763">
		<tag k="bridge" v="yes" />
		<tag k="layer" v="1" />
		<tag k="name" v="Øygarden" />
		<tag k="ssr:stedsnr" v="532351" />
	</node>
	<node id="-269236" lat="59.6971555533" lon="7.81492221404">
		<tag k="alt_name" v="Grunge" />
		<tag k="bridge" v="yes" />
		<tag k="layer" v="1" />
		<tag k="name" v="Grungebru" />
		<tag k="ssr:stedsnr" v="573873" />
	</node>
	<node id="-266270" lat="59.7346527746" lon="7.55158333784">
		<tag k="bridge" v="yes" />
		<tag k="layer" v="1" />
		<tag k="name" v="Tallaksbru" />
		<tag k="ssr:stedsnr" v="292216" />
	</node>
	<node id="-270258" lat="59.7774861152" lon="7.72563332998">
		<tag k="landuse" v="industrial" />
		<tag k="name" v="Tokke 3" />
		<tag k="power" v="plant" />
		<tag k="ssr:stedsnr" v="760355" />
	</node>
	<node id="-266796" lat="59.5631416648" lon="7.92113888652">
		<tag k="bridge" v="yes" />
		<tag k="layer" v="1" />
		<tag k="name" v="Krossgota" />
		<tag k="ssr:stedsnr" v="392420" />
	</node>
	<node id="-268585" lat="59.797469446" lon="7.26394443712">
		<tag k="alt_name" v="Vågslid" />
		<tag k="layer" v="-1" />
		<tag k="name" v="Vågslidtunnelen" />
		<tag k="ssr:stedsnr" v="452427" />
		<tag k="tunnel" v="yes" />
	</node>
	<node id="-267560" lat="59.7120527822" lon="7.93861110805">
		<tag k="bridge" v="yes" />
		<tag k="layer" v="1" />
		<tag k="name" v="Kvikkeå" />
		<tag k="ssr:stedsnr" v="107401" />
	</node>
	<node id="-267559" lat="59.6328833369" lon="7.80130277684">
		<tag k="bridge" v="yes" />
		<tag k="layer" v="1" />
		<tag k="name" v="Klevastaul" />
		<tag k="ssr:stedsnr" v="107400" />
	</node>
	<node id="-266662" lat="59.6277583328" lon="7.51238889254">
		<tag k="ford" v="yes" />
		<tag k="name" v="Viervadet" />
		<tag k="place" v="locality" />
		<tag k="ssr:stedsnr" v="367474" />
	</node>
	<node id="-267557" lat="59.7089027746" lon="8.11533611771">
		<tag k="bridge" v="yes" />
		<tag k="layer" v="1" />
		<tag k="name" v="Sauaråi" />
		<tag k="ssr:stedsnr" v="107393" />
	</node>
	<node id="-267270" lat="59.6161083317" lon="7.87981389094">
		<tag k="bridge" v="yes" />
		<tag k="layer" v="1" />
		<tag k="name" v="Bøgrend" />
		<tag k="ssr:stedsnr" v="46427" />
	</node>
	<node id="-267878" lat="59.6453333335" lon="7.46179445179">
		<tag k="bridge" v="yes" />
		<tag k="layer" v="1" />
		<tag k="name" v="Hemla" />
		<tag k="ssr:stedsnr" v="168389" />
	</node>
	<node id="-268191" lat="59.718930554" lon="8.12509444604">
		<tag k="bridge" v="yes" />
		<tag k="layer" v="1" />
		<tag k="name" v="Leirbekk" />
		<tag k="ssr:stedsnr" v="228436" />
	</node>
	<node id="-268190" lat="59.6259750025" lon="7.80467777302">
		<tag k="bridge" v="yes" />
		<tag k="layer" v="1" />
		<tag k="name" v="Ruså" />
		<tag k="ssr:stedsnr" v="228431" />
	</node>
	<node id="-268189" lat="59.7837222201" lon="7.6703277712">
		<tag k="bridge" v="yes" />
		<tag k="layer" v="1" />
		<tag k="name" v="Songa" />
		<tag k="ssr:stedsnr" v="228429" />
	</node>
	<node id="-268188" lat="59.5212138905" lon="7.97927777361">
		<tag k="bridge" v="yes" />
		<tag k="layer" v="1" />
		<tag k="name" v="Snipekleiv" />
		<tag k="ssr:stedsnr" v="228428" />
	</node>
	<node id="-268187" lat="59.6169916646" lon="8.19658056225">
		<tag k="bridge" v="yes" />
		<tag k="layer" v="1" />
		<tag k="name" v="Straume" />
		<tag k="ssr:stedsnr" v="228424" />
	</node>
	<node id="-270597" lat="59.7608361144" lon="8.24653611582">
		<tag k="bridge" v="yes" />
		<tag k="layer" v="1" />
		<tag k="name" v="Bossbø" />
		<tag k="ssr:stedsnr" v="836350" />
	</node>
	<node id="-267268" lat="59.667424998" lon="8.06010554844">
		<tag k="bridge" v="yes" />
		<tag k="layer" v="1" />
		<tag k="name" v="Tanselv" />
		<tag k="ssr:stedsnr" v="46406" />
	</node>
	<node id="-268582" lat="59.6168138893" lon="7.85656944463">
		<tag k="landuse" v="industrial" />
		<tag k="name" v="Vinje kraftverk" />
		<tag k="power" v="plant" />
		<tag k="ssr:stedsnr" v="452374" />
	</node>
	<node id="-270354" lat="59.795908332" lon="7.83326388395">
		<tag k="highway" v="path" />
		<tag k="name" v="Staven" />
		<tag k="ssr:stedsnr" v="792295" />
	</node>
	<node id="-270991" lat="59.7669972263" lon="8.04645277721">
		<tag k="alt_name" v="Sveigebrui" />
		<tag k="bridge" v="yes" />
		<tag k="layer" v="1" />
		<tag k="name" v="Sveigebru" />
		<tag k="ssr:stedsnr" v="914359" />
	</node>
	<node id="-266818" lat="59.6240083302" lon="8.00283333922">
		<tag k="bridge" v="yes" />
		<tag k="layer" v="1" />
		<tag k="name" v="Versto bru" />
		<tag k="ssr:stedsnr" v="392689" />
	</node>
	<node id="-271113" lat="59.5806750021" lon="8.00175000554">
		<tag k="alt_name" v="Hylland" />
		<tag k="bridge" v="yes" />
		<tag k="layer" v="1" />
		<tag k="name" v="Hyllands bru" />
		<tag k="ssr:stedsnr" v="938682" />
	</node>
	<node id="-269960" lat="59.7142305527" lon="8.02664166952">
		<tag k="bridge" v="yes" />
		<tag k="layer" v="1" />
		<tag k="name" v="Bitubekk vesle bru" />
		<tag k="ssr:stedsnr" v="714336" />
	</node>
	<node id="-269959" lat="59.7940861084" lon="7.27781667025">
		<tag k="bridge" v="yes" />
		<tag k="layer" v="1" />
		<tag k="name" v="Fjellveien bru" />
		<tag k="ssr:stedsnr" v="714335" />
	</node>
	<node id="-269958" lat="59.7656638899" lon="7.57986667154">
		<tag k="bridge" v="yes" />
		<tag k="layer" v="1" />
		<tag k="name" v="Lisleå" />
		<tag k="ssr:stedsnr" v="714332" />
	</node>
	<node id="-267269" lat="59.5696333306" lon="8.18423055788">
		<tag k="bridge" v="yes" />
		<tag k="layer" v="1" />
		<tag k="name" v="Storå" />
		<tag k="ssr:stedsnr" v="46408" />
	</node>
	<node id="-268676" lat="59.7372749991" lon="7.59237499435">
		<tag k="bridge" v="yes" />
		<tag k="layer" v="1" />
		<tag k="name" v="Østre Bora" />
		<tag k="ssr:stedsnr" v="471380" />
	</node>
	<node id="-269315" lat="59.8007388899" lon="7.83756666154">
		<tag k="ford" v="yes" />
		<tag k="name" v="Våvadet" />
		<tag k="place" v="locality" />
		<tag k="ssr:stedsnr" v="578345" />
	</node>
</osm>
