<?xml version="1.0" encoding="UTF-8"?>
<osm version="0.6" generator="osmapis">
	<node id="31264146" lat="68.5670003" lon="14.9133484" version="11" timestamp="2022-06-24T18:34:38Z" changeset="122814165" uid="3497659" user="NKA">
		<tag k="loc_name:se" v="Njárga" />
		<tag k="name" v="Stokmarknes" />
		<tag k="name:no" v="Stokmarknes" />
		<tag k="name:ru" v="Стокмаркнес" />
		<tag k="place" v="town" />
		<tag k="population" v="3429" />
		<tag k="population:date" v="2021-01-01" />
		<tag k="ref:ssb_tettsted" v="7821" />
		<tag k="source:population" v="SSB - befolkning i tettstedet" />
		<tag k="ssr:stedsnr" v="260956" />
	</node>
	<node id="175408369" lat="68.4291694" lon="14.8197389" version="3" timestamp="2022-06-24T18:34:38Z" changeset="122814165" uid="3497659" user="NKA">
		<tag k="name" v="Fiskebøl" />
		<tag k="name:ru" v="Фискебол" />
		<tag k="place" v="quarter" />
		<tag k="ssr:stedsnr" v="78338" />
	</node>
	<node id="885289555" lat="68.5012616" lon="14.8009385" version="7" timestamp="2022-06-24T18:34:38Z" changeset="122814165" uid="3497659" user="NKA">
		<tag k="name" v="Melbu" />
		<tag k="name:ru" v="Мельбу" />
		<tag k="place" v="village" />
		<tag k="population" v="2230" />
		<tag k="population:date" v="2021-01-01" />
		<tag k="ref:ssb_tettsted" v="7822" />
		<tag k="source:population" v="SSB - befolkning i tettstedet" />
		<tag k="ssr:stedsnr" v="137129" />
	</node>
	<node id="1586175947" lat="68.39775" lon="15.1335723" version="2" timestamp="2022-06-24T18:34:38Z" changeset="122814165" uid="3497659" user="NKA">
		<tag k="name" v="Raften" />
		<tag k="place" v="hamlet" />
		<tag k="ssr:stedsnr" v="78867" />
	</node>
	<node id="1586201581" lat="68.3622094" lon="15.0716381" version="2" timestamp="2022-06-24T18:34:38Z" changeset="122814165" uid="3497659" user="NKA">
		<tag k="name" v="Tennstrand" />
		<tag k="place" v="hamlet" />
		<tag k="ssr:stedsnr" v="199897" />
	</node>
	<node id="1628574436" lat="68.5550683" lon="14.9895696" version="2" timestamp="2022-06-24T18:34:38Z" changeset="122814165" uid="3497659" user="NKA">
		<tag k="name" v="Hadselhamn" />
		<tag k="place" v="hamlet" />
		<tag k="ssr:stedsnr" v="519472" />
	</node>
	<node id="1628574437" lat="68.5466361" lon="14.9969027" version="2" timestamp="2022-06-24T18:34:38Z" changeset="122814165" uid="3497659" user="NKA">
		<tag k="name" v="Nygård" />
		<tag k="place" v="farm" />
		<tag k="ssr:stedsnr" v="685888" />
	</node>
	<node id="1628574438" lat="68.5406113" lon="14.9786872" version="2" timestamp="2022-06-24T18:34:38Z" changeset="122814165" uid="3497659" user="NKA">
		<tag k="name" v="Paradiset" />
		<tag k="place" v="farm" />
		<tag k="ssr:stedsnr" v="443983" />
	</node>
	<node id="1628574511" lat="68.5323889" lon="14.9884054" version="2" timestamp="2022-06-24T18:34:38Z" changeset="122814165" uid="3497659" user="NKA">
		<tag k="name" v="Vangen" />
		<tag k="place" v="farm" />
		<tag k="ssr:stedsnr" v="867992" />
	</node>
	<node id="1628582666" lat="68.5320232" lon="14.9668262" version="2" timestamp="2022-06-24T18:34:38Z" changeset="122814165" uid="3497659" user="NKA">
		<tag k="name" v="Klakk" />
		<tag k="place" v="hamlet" />
		<tag k="ssr:stedsnr" v="260994" />
	</node>
	<node id="1628582669" lat="68.5273259" lon="14.9568932" version="2" timestamp="2022-06-24T18:34:38Z" changeset="122814165" uid="3497659" user="NKA">
		<tag k="name" v="Lekang" />
		<tag k="place" v="hamlet" />
		<tag k="ssr:stedsnr" v="78953" />
	</node>
	<node id="1628582834" lat="68.532725" lon="14.9530694" version="2" timestamp="2022-06-24T18:34:38Z" changeset="122814165" uid="3497659" user="NKA">
		<tag k="name" v="Solheim" />
		<tag k="place" v="hamlet" />
		<tag k="ssr:stedsnr" v="321988" />
	</node>
	<node id="1675730220" lat="68.4813916" lon="15.1472478" version="3" timestamp="2022-06-24T18:34:38Z" changeset="122814165" uid="3497659" user="NKA">
		<tag k="alt_name:no" v="Brottøy" />
		<tag k="name" v="Brottøya - Bruohták" />
		<tag k="name:no" v="Brottøya" />
		<tag k="name:ru" v="Бротой" />
		<tag k="name:se" v="Bruohták" />
		<tag k="place" v="farm" />
		<tag k="ssr:stedsnr" v="562641" />
	</node>
	<node id="1675730223" lat="68.4721578" lon="15.1877875" version="2" timestamp="2022-06-24T18:34:38Z" changeset="122814165" uid="3497659" user="NKA">
		<tag k="alt_name:no" v="Hanøy" />
		<tag k="name" v="Hanøya - Hánik" />
		<tag k="name:no" v="Hanøya" />
		<tag k="name:se" v="Hánik" />
		<tag k="place" v="farm" />
		<tag k="ssr:stedsnr" v="465843" />
	</node>
	<node id="1675730226" lat="68.5255446" lon="15.2772394" version="2" timestamp="2022-06-24T18:34:38Z" changeset="122814165" uid="3497659" user="NKA">
		<tag k="alt_name" v="Kaldjord" />
		<tag k="loc_name" v="Kalljorda" />
		<tag k="name" v="Kaljord" />
		<tag k="place" v="hamlet" />
		<tag k="ssr:stedsnr" v="199383" />
	</node>
	<node id="1675730233" lat="68.517942" lon="15.2548823" version="3" timestamp="2022-06-24T18:34:38Z" changeset="122814165" uid="3497659" user="NKA">
		<tag k="name" v="Lonkan" />
		<tag k="place" v="hamlet" />
		<tag k="ssr:stedsnr" v="503379" />
	</node>
	<node id="2997665456" lat="68.413674" lon="14.6805814" version="3" timestamp="2022-06-24T18:34:38Z" changeset="122814165" uid="3497659" user="NKA">
		<tag k="name" v="Sommarhus" />
		<tag k="name:ru" v="Соммархус" />
		<tag k="place" v="hamlet" />
		<tag k="ssr:stedsnr" v="199297" />
	</node>
	<node id="2997665457" lat="68.4252493" lon="14.6708477" version="2" timestamp="2022-06-24T18:34:38Z" changeset="122814165" uid="3497659" user="NKA">
		<tag k="name" v="Sommarhusstranda" />
		<tag k="place" v="hamlet" />
		<tag k="ssr:stedsnr" v="138388" />
	</node>
	<node id="2997665458" lat="68.4325566" lon="14.6214225" version="3" timestamp="2022-06-24T18:34:38Z" changeset="122814165" uid="3497659" user="NKA">
		<tag k="name" v="Sanden" />
		<tag k="name:ru" v="Санден" />
		<tag k="old_name" v="Hadselsand" />
		<tag k="place" v="hamlet" />
		<tag k="ssr:stedsnr" v="684326" />
	</node>
	<node id="3376595193" lat="68.6155695" lon="15.1558418" version="2" timestamp="2022-06-24T18:34:38Z" changeset="122814165" uid="3497659" user="NKA">
		<tag k="name" v="Gjerstad - Járstáđik" />
		<tag k="name:no" v="Gjerstad" />
		<tag k="name:se" v="Járstáđik" />
		<tag k="place" v="quarter" />
		<tag k="ssr:stedsnr" v="563001" />
	</node>
	<node id="3377835423" lat="68.5223653" lon="14.9444062" version="2" timestamp="2022-06-24T18:34:38Z" changeset="122814165" uid="3497659" user="NKA">
		<tag k="name" v="Steilo" />
		<tag k="place" v="hamlet" />
		<tag k="ssr:stedsnr" v="78955" />
	</node>
	<node id="3378236320" lat="68.4216497" lon="15.1590648" version="4" timestamp="2022-06-24T18:34:38Z" changeset="122814165" uid="3497659" user="NKA">
		<tag k="alt_name" v="Tengelfjord" />
		<tag k="name" v="Tengelfjorden" />
		<tag k="name:ru" v="Тенгельфьёрд" />
		<tag k="place" v="hamlet" />
		<tag k="ssr:stedsnr" v="442893" />
	</node>
	<node id="3378667896" lat="68.3856222" lon="14.8089279" version="2" timestamp="2022-06-24T18:34:38Z" changeset="122814165" uid="3497659" user="NKA">
		<tag k="name" v="Budalen" />
		<tag k="place" v="hamlet" />
		<tag k="ssr:stedsnr" v="502461" />
	</node>
	<node id="3378667897" lat="68.3647555" lon="14.7616999" version="2" timestamp="2022-06-24T18:34:38Z" changeset="122814165" uid="3497659" user="NKA">
		<tag k="name" v="Higrav" />
		<tag k="place" v="hamlet" />
		<tag k="ssr:stedsnr" v="199459" />
	</node>
	<node id="3644088750" lat="68.4154095" lon="14.5507635" version="2" timestamp="2022-06-24T18:34:38Z" changeset="122814165" uid="3497659" user="NKA">
		<tag k="name" v="Grunnfør" />
		<tag k="place" v="hamlet" />
		<tag k="ssr:stedsnr" v="806284" />
	</node>
	<node id="4755466628" lat="68.5772091" lon="14.7693616" version="2" timestamp="2022-06-24T18:34:38Z" changeset="122814165" uid="3497659" user="NKA">
		<tag k="alt_name" v="Flatset ytre" />
		<tag k="name" v="Flatset" />
		<tag k="place" v="farm" />
		<tag k="ssr:stedsnr" v="260952" />
	</node>
	<node id="5320943521" lat="68.5682155" lon="14.8666131" version="2" timestamp="2022-01-26T06:22:04Z" changeset="116610177" uid="3497659" user="NKA">
		<tag k="junction" v="yes" />
		<tag k="name" v="Svingan" />
		<tag k="ssr:stedsnr" v="404279" />
	</node>
	<node id="6205774439" lat="68.5718839" lon="15.2256062" version="2" timestamp="2022-06-24T18:34:38Z" changeset="122814165" uid="3497659" user="NKA">
		<tag k="loc_name:se" v="Guitanášši" />
		<tag k="name" v="Kvitnes" />
		<tag k="name:no" v="Kvitnes" />
		<tag k="place" v="hamlet" />
		<tag k="ssr:stedsnr" v="17094" />
	</node>
	<node id="6205774466" lat="68.4534764" lon="15.0503844" version="2" timestamp="2022-06-24T18:34:38Z" changeset="122814165" uid="3497659" user="NKA">
		<tag k="name" v="Myrland" />
		<tag k="place" v="farm" />
		<tag k="ssr:stedsnr" v="442708" />
	</node>
	<node id="6205774479" lat="68.5315067" lon="15.2283879" version="2" timestamp="2022-06-24T18:34:38Z" changeset="122814165" uid="3497659" user="NKA">
		<tag k="name" v="Hennes" />
		<tag k="place" v="quarter" />
		<tag k="ssr:stedsnr" v="503366" />
	</node>
	<node id="6205774484" lat="68.4348852" lon="14.7417673" version="2" timestamp="2022-06-24T18:34:38Z" changeset="122814165" uid="3497659" user="NKA">
		<tag k="loc_name:se" v="Strunstádik" />
		<tag k="name" v="Strønstad" />
		<tag k="name:no" v="Strønstad" />
		<tag k="place" v="hamlet" />
		<tag k="ssr:stedsnr" v="138352" />
	</node>
	<node id="9844779203" lat="68.5693361" lon="15.2107805" version="1" timestamp="2022-06-24T18:34:38Z" changeset="122814165" uid="3497659" user="NKA">
		<tag k="name" v="Hogget" />
		<tag k="place" v="farm" />
		<tag k="ssr:stedsnr" v="806066" />
	</node>
	<node id="9844779204" lat="68.5777694" lon="14.7179111" version="1" timestamp="2022-06-24T18:34:38Z" changeset="122814165" uid="3497659" user="NKA">
		<tag k="name" v="Mølnvollen" />
		<tag k="place" v="farm" />
		<tag k="ssr:stedsnr" v="525004" />
	</node>
	<node id="9844779205" lat="68.5507278" lon="15.2018416" version="1" timestamp="2022-06-24T18:34:38Z" changeset="122814165" uid="3497659" user="NKA">
		<tag k="alt_name" v="Raen" />
		<tag k="name" v="Raene" />
		<tag k="place" v="farm" />
		<tag k="ssr:stedsnr" v="138129" />
	</node>
	<node id="9844779206" lat="68.5418988" lon="14.6621655" version="1" timestamp="2022-06-24T18:34:38Z" changeset="122814165" uid="3497659" user="NKA">
		<tag k="name" v="Hokland" />
		<tag k="place" v="hamlet" />
		<tag k="ssr:stedsnr" v="746987" />
	</node>
	<node id="9844779207" lat="68.5033231" lon="15.2348535" version="1" timestamp="2022-06-24T18:34:38Z" changeset="122814165" uid="3497659" user="NKA">
		<tag k="name" v="Kleiva" />
		<tag k="place" v="farm" />
		<tag k="ssr:stedsnr" v="200410" />
	</node>
	<node id="9844779208" lat="68.5746762" lon="14.7835052" version="1" timestamp="2022-06-24T18:34:38Z" changeset="122814165" uid="3497659" user="NKA">
		<tag k="name" v="Flatset" />
		<tag k="place" v="hamlet" />
		<tag k="ssr:stedsnr" v="1076261" />
	</node>
	<node id="9844779209" lat="68.5497577" lon="14.6401646" version="1" timestamp="2022-06-24T18:34:38Z" changeset="122814165" uid="3497659" user="NKA">
		<tag k="name" v="Taen" />
		<tag k="place" v="farm" />
		<tag k="ssr:stedsnr" v="563894" />
	</node>
	<node id="9844779210" lat="68.5354445" lon="14.8830472" version="1" timestamp="2022-06-24T18:34:38Z" changeset="122814165" uid="3497659" user="NKA">
		<tag k="name" v="Sorgenfri" />
		<tag k="place" v="farm" />
		<tag k="ssr:stedsnr" v="199994" />
	</node>
	<node id="9844779211" lat="68.5557583" lon="15.218664" version="1" timestamp="2022-06-24T18:34:38Z" changeset="122814165" uid="3497659" user="NKA">
		<tag k="alt_name" v="Setran" />
		<tag k="name" v="Sætran" />
		<tag k="place" v="farm" />
		<tag k="ssr:stedsnr" v="17125" />
	</node>
	<node id="9844779213" lat="68.5336584" lon="15.2105527" version="1" timestamp="2022-06-24T18:34:38Z" changeset="122814165" uid="3497659" user="NKA">
		<tag k="name" v="Hennesstranda" />
		<tag k="place" v="farm" />
		<tag k="ssr:stedsnr" v="563369" />
	</node>
	<node id="9844779214" lat="68.5779818" lon="14.7128853" version="1" timestamp="2022-06-24T18:34:38Z" changeset="122814165" uid="3497659" user="NKA">
		<tag k="alt_name" v="Breivik ytre" />
		<tag k="name" v="Ytter-Breivika" />
		<tag k="place" v="farm" />
		<tag k="ssr:stedsnr" v="525022" />
	</node>
	<node id="9844779215" lat="68.5813238" lon="14.6980287" version="1" timestamp="2022-06-24T18:34:38Z" changeset="122814165" uid="3497659" user="NKA">
		<tag k="name" v="Karihola" />
		<tag k="place" v="farm" />
		<tag k="ssr:stedsnr" v="39027" />
	</node>
	<node id="9844779216" lat="68.5069111" lon="14.8052167" version="1" timestamp="2022-06-24T18:34:38Z" changeset="122814165" uid="3497659" user="NKA">
		<tag k="name" v="Oksgjerdet" />
		<tag k="place" v="neighbourhood" />
		<tag k="ssr:stedsnr" v="458693" />
	</node>
	<node id="9844779517" lat="68.5815418" lon="14.663963" version="1" timestamp="2022-06-24T18:34:38Z" changeset="122814165" uid="3497659" user="NKA">
		<tag k="name" v="Røyrvika" />
		<tag k="place" v="farm" />
		<tag k="ssr:stedsnr" v="1076201" />
	</node>
	<node id="9844779518" lat="68.5728059" lon="14.8740467" version="1" timestamp="2022-06-24T18:34:38Z" changeset="122814165" uid="3497659" user="NKA">
		<tag k="name" v="Lappvika" />
		<tag k="place" v="farm" />
		<tag k="ssr:stedsnr" v="442936" />
	</node>
	<node id="9844779519" lat="68.4981278" lon="15.2917777" version="1" timestamp="2022-06-24T18:34:38Z" changeset="122814165" uid="3497659" user="NKA">
		<tag k="name" v="Sætra" />
		<tag k="place" v="isolated_dwelling" />
		<tag k="ssr:stedsnr" v="339384" />
	</node>
	<node id="9844779520" lat="68.5873889" lon="14.89965" version="1" timestamp="2022-06-24T18:34:38Z" changeset="122814165" uid="3497659" user="NKA">
		<tag k="name" v="Bjørnhaugen" />
		<tag k="place" v="farm" />
		<tag k="ssr:stedsnr" v="640134" />
	</node>
	<node id="9844779521" lat="68.5685334" lon="15.3066194" version="1" timestamp="2022-06-24T18:34:38Z" changeset="122814165" uid="3497659" user="NKA">
		<tag k="name" v="Paradis" />
		<tag k="place" v="farm" />
		<tag k="ssr:stedsnr" v="563078" />
	</node>
	<node id="9844779522" lat="68.5751028" lon="14.8137612" version="1" timestamp="2022-06-24T18:34:38Z" changeset="122814165" uid="3497659" user="NKA">
		<tag k="name" v="Skredal" />
		<tag k="place" v="farm" />
		<tag k="ssr:stedsnr" v="890321" />
	</node>
	<node id="9844779523" lat="68.5703527" lon="15.3259223" version="1" timestamp="2022-06-24T18:34:38Z" changeset="122814165" uid="3497659" user="NKA">
		<tag k="name" v="Paradiset" />
		<tag k="place" v="farm" />
		<tag k="ssr:stedsnr" v="544011" />
	</node>
	<node id="9844779524" lat="68.5695389" lon="14.8780389" version="1" timestamp="2022-06-24T18:34:38Z" changeset="122814165" uid="3497659" user="NKA">
		<tag k="name" v="Tømmervika" />
		<tag k="place" v="neighbourhood" />
		<tag k="ssr:stedsnr" v="458095" />
	</node>
	<node id="9844779525" lat="68.4727305" lon="15.3042945" version="1" timestamp="2022-06-24T18:34:38Z" changeset="122814165" uid="3497659" user="NKA">
		<tag k="name" v="Ingelsfjord - Gáisvuotna" />
		<tag k="name:no" v="Ingelsfjord" />
		<tag k="name:se" v="Gáisvuotna" />
		<tag k="place" v="hamlet" />
		<tag k="ssr:stedsnr" v="199766" />
	</node>
	<node id="9844779526" lat="68.4980028" lon="15.2909945" version="1" timestamp="2022-06-24T18:34:38Z" changeset="122814165" uid="3497659" user="NKA">
		<tag k="name" v="Sætran" />
		<tag k="place" v="neighbourhood" />
		<tag k="ssr:stedsnr" v="646827" />
	</node>
	<node id="9844779527" lat="68.6514685" lon="14.91747" version="1" timestamp="2022-06-24T18:34:38Z" changeset="122814165" uid="3497659" user="NKA">
		<tag k="name" v="Moen" />
		<tag k="place" v="farm" />
		<tag k="ssr:stedsnr" v="321665" />
	</node>
	<node id="9844779528" lat="68.5058722" lon="15.3462696" version="1" timestamp="2022-06-24T18:34:38Z" changeset="122814165" uid="3497659" user="NKA">
		<tag k="name" v="Gammelgården" />
		<tag k="place" v="isolated_dwelling" />
		<tag k="ssr:stedsnr" v="563394" />
	</node>
	<node id="9844779529" lat="68.5070058" lon="15.2739395" version="1" timestamp="2022-06-24T18:34:38Z" changeset="122814165" uid="3497659" user="NKA">
		<tag k="name" v="Finndalen" />
		<tag k="place" v="farm" />
		<tag k="ssr:stedsnr" v="521307" />
	</node>
	<node id="9844779530" lat="68.4570777" lon="15.1799001" version="1" timestamp="2022-06-24T18:34:38Z" changeset="122814165" uid="3497659" user="NKA">
		<tag k="name" v="Hanskjellvika" />
		<tag k="place" v="farm" />
		<tag k="ssr:stedsnr" v="745748" />
	</node>
	<node id="9844779531" lat="68.4683683" lon="15.1790656" version="1" timestamp="2022-06-24T18:34:38Z" changeset="122814165" uid="3497659" user="NKA">
		<tag k="name" v="Hanøyvika" />
		<tag k="place" v="hamlet" />
		<tag k="ssr:stedsnr" v="806754" />
	</node>
	<node id="9844779532" lat="68.4667946" lon="15.1771205" version="1" timestamp="2022-06-24T18:34:38Z" changeset="122814165" uid="3497659" user="NKA">
		<tag k="name" v="Leirosen" />
		<tag k="place" v="farm" />
		<tag k="ssr:stedsnr" v="78730" />
	</node>
	<node id="9844779533" lat="68.5762821" lon="14.7560035" version="1" timestamp="2022-06-24T18:34:38Z" changeset="122814165" uid="3497659" user="NKA">
		<tag k="name" v="Trolldalen" />
		<tag k="place" v="farm" />
		<tag k="ssr:stedsnr" v="282020" />
	</node>
	<node id="9844779534" lat="68.446572" lon="15.0339094" version="1" timestamp="2022-06-24T18:34:38Z" changeset="122814165" uid="3497659" user="NKA">
		<tag k="name" v="Fjorden" />
		<tag k="place" v="farm" />
		<tag k="ssr:stedsnr" v="783595" />
	</node>
	<node id="9844779535" lat="68.330375" lon="14.9339418" version="1" timestamp="2022-06-24T18:34:38Z" changeset="122814165" uid="3497659" user="NKA">
		<tag k="name" v="Korsneset" />
		<tag k="place" v="farm" />
		<tag k="ssr:stedsnr" v="684532" />
	</node>
	<node id="9844779536" lat="68.5744222" lon="14.8217389" version="1" timestamp="2022-06-24T18:34:38Z" changeset="122814165" uid="3497659" user="NKA">
		<tag k="alt_name" v="Laupstrandneset" />
		<tag k="name" v="Laupstrandodden" />
		<tag k="place" v="farm" />
		<tag k="ssr:stedsnr" v="138916" />
	</node>
	<node id="9844779537" lat="68.5757782" lon="14.7303057" version="1" timestamp="2022-06-24T18:34:38Z" changeset="122814165" uid="3497659" user="NKA">
		<tag k="alt_name" v="Breivik indre" />
		<tag k="name" v="Inner-Breivika" />
		<tag k="place" v="farm" />
		<tag k="ssr:stedsnr" v="221012" />
	</node>
	<node id="9844779538" lat="68.4941445" lon="15.3588111" version="1" timestamp="2022-06-24T18:34:38Z" changeset="122814165" uid="3497659" user="NKA">
		<tag k="name" v="Sørbotnen" />
		<tag k="place" v="isolated_dwelling" />
		<tag k="ssr:stedsnr" v="17653" />
	</node>
	<node id="9844779539" lat="68.570977" lon="14.8595672" version="1" timestamp="2022-06-24T18:34:38Z" changeset="122814165" uid="3497659" user="NKA">
		<tag k="name" v="Sjøvoll" />
		<tag k="place" v="farm" />
		<tag k="ssr:stedsnr" v="18915" />
	</node>
	<node id="9844779540" lat="68.6522973" lon="14.8497722" version="1" timestamp="2022-06-24T18:34:38Z" changeset="122814165" uid="3497659" user="NKA">
		<tag k="name" v="Vottesnes" />
		<tag k="place" v="farm" />
		<tag k="ssr:stedsnr" v="685678" />
	</node>
	<node id="9844779541" lat="68.5512195" lon="15.3862472" version="1" timestamp="2022-06-24T18:34:38Z" changeset="122814165" uid="3497659" user="NKA">
		<tag k="alt_name" v="Slåttene" />
		<tag k="name" v="Slåttan" />
		<tag k="place" v="locality" />
		<tag k="ssr:stedsnr" v="17109" />
	</node>
	<node id="9844779542" lat="68.4390755" lon="15.0052005" version="1" timestamp="2022-06-24T18:34:38Z" changeset="122814165" uid="3497659" user="NKA">
		<tag k="name" v="Falkfjorden - Fálkkesfierda" />
		<tag k="name:no" v="Falkfjorden" />
		<tag k="name:se" v="Fálkkesfierda" />
		<tag k="place" v="farm" />
		<tag k="ssr:stedsnr" v="77362" />
	</node>
	<node id="9844779543" lat="68.5684945" lon="14.629911" version="1" timestamp="2022-06-24T18:34:38Z" changeset="122814165" uid="3497659" user="NKA">
		<tag k="name" v="Kaldstadvågen" />
		<tag k="place" v="farm" />
		<tag k="ssr:stedsnr" v="39042" />
	</node>
	<node id="9844779544" lat="68.4643694" lon="15.2585112" version="1" timestamp="2022-06-24T18:34:38Z" changeset="122814165" uid="3497659" user="NKA">
		<tag k="loc_name:se" v="Stuorrovvi" />
		<tag k="name" v="Storå" />
		<tag k="name:no" v="Storå" />
		<tag k="place" v="hamlet" />
		<tag k="ssr:stedsnr" v="300799" />
	</node>
	<node id="9844779545" lat="68.4328291" lon="14.7869366" version="1" timestamp="2022-06-24T18:34:38Z" changeset="122814165" uid="3497659" user="NKA">
		<tag k="name" v="Vollan" />
		<tag k="place" v="farm" />
		<tag k="ssr:stedsnr" v="238421" />
	</node>
	<node id="9844779546" lat="68.5670784" lon="15.3395541" version="1" timestamp="2022-06-24T18:34:38Z" changeset="122814165" uid="3497659" user="NKA">
		<tag k="name" v="Fiskefjord" />
		<tag k="place" v="hamlet" />
		<tag k="ssr:stedsnr" v="41713" />
	</node>
	<node id="9844779547" lat="68.5406569" lon="14.9838798" version="1" timestamp="2022-06-24T18:34:38Z" changeset="122814165" uid="3497659" user="NKA">
		<tag k="name" v="Rønningen" />
		<tag k="place" v="farm" />
		<tag k="ssr:stedsnr" v="983687" />
	</node>
	<node id="9844779548" lat="68.351737" lon="15.0240059" version="1" timestamp="2022-06-24T18:34:38Z" changeset="122814165" uid="3497659" user="NKA">
		<tag k="name" v="Ulvøya" />
		<tag k="place" v="farm" />
		<tag k="ssr:stedsnr" v="866871" />
	</node>
	<node id="9844779549" lat="68.5301722" lon="14.689761" version="1" timestamp="2022-06-24T18:34:38Z" changeset="122814165" uid="3497659" user="NKA">
		<tag k="alt_name" v="Ånnstad, yt;Ytre Ånstad" />
		<tag k="name" v="Ytre Ånnstad" />
		<tag k="place" v="hamlet" />
		<tag k="ssr:stedsnr" v="18000" />
	</node>
	<node id="9844779550" lat="68.5708754" lon="14.6360994" version="1" timestamp="2022-06-24T18:34:38Z" changeset="122814165" uid="3497659" user="NKA">
		<tag k="name" v="Jerpvoll" />
		<tag k="place" v="farm" />
		<tag k="ssr:stedsnr" v="867918" />
	</node>
	<node id="9844779551" lat="68.3440468" lon="15.053256" version="1" timestamp="2022-06-24T18:34:38Z" changeset="122814165" uid="3497659" user="NKA">
		<tag k="name" v="Finnkjerka" />
		<tag k="place" v="farm" />
		<tag k="ssr:stedsnr" v="867995" />
	</node>
	<node id="9844779552" lat="68.5151195" lon="14.7252973" version="1" timestamp="2022-06-24T18:34:38Z" changeset="122814165" uid="3497659" user="NKA">
		<tag k="alt_name" v="Ångstad" />
		<tag k="name" v="Ongstad" />
		<tag k="place" v="hamlet" />
		<tag k="ssr:stedsnr" v="18925" />
	</node>
	<node id="9844779553" lat="68.3848986" lon="14.5933442" version="1" timestamp="2022-06-24T18:34:38Z" changeset="122814165" uid="3497659" user="NKA">
		<tag k="name" v="Grunnførfjorden" />
		<tag k="place" v="farm" />
		<tag k="ssr:stedsnr" v="199449" />
	</node>
	<node id="9844779554" lat="68.346975" lon="15.0109889" version="1" timestamp="2022-06-24T18:34:38Z" changeset="122814165" uid="3497659" user="NKA">
		<tag k="name" v="Lauksund" />
		<tag k="place" v="farm" />
		<tag k="ssr:stedsnr" v="562366" />
	</node>
	<node id="9844779555" lat="68.590535" lon="14.8611877" version="1" timestamp="2022-06-24T18:34:38Z" changeset="122814165" uid="3497659" user="NKA">
		<tag k="name" v="Holmsnes" />
		<tag k="place" v="hamlet" />
		<tag k="ssr:stedsnr" v="745585" />
	</node>
	<node id="9844779556" lat="68.5663556" lon="14.8569416" version="1" timestamp="2022-06-24T18:34:38Z" changeset="122814165" uid="3497659" user="NKA">
		<tag k="alt_name" v="Ålskogen" />
		<tag k="name" v="Ålskogan" />
		<tag k="place" v="farm" />
		<tag k="ssr:stedsnr" v="806932" />
	</node>
	<node id="9844779557" lat="68.6669867" lon="14.9457584" version="1" timestamp="2022-06-24T18:34:38Z" changeset="122814165" uid="3497659" user="NKA">
		<tag k="name" v="Grønning - Gronnegak" />
		<tag k="name:no" v="Grønning" />
		<tag k="name:se" v="Gronnegak" />
		<tag k="place" v="farm" />
		<tag k="ssr:stedsnr" v="928700" />
	</node>
	<node id="9844779558" lat="68.36795" lon="14.7646806" version="1" timestamp="2022-06-24T18:34:38Z" changeset="122814165" uid="3497659" user="NKA">
		<tag k="name" v="Vestgården" />
		<tag k="place" v="farm" />
		<tag k="ssr:stedsnr" v="957290" />
	</node>
	<node id="9844779559" lat="68.3520167" lon="15.0589999" version="1" timestamp="2022-06-24T18:34:38Z" changeset="122814165" uid="3497659" user="NKA">
		<tag k="name" v="Langneset" />
		<tag k="place" v="farm" />
		<tag k="ssr:stedsnr" v="17896" />
	</node>
	<node id="9844779560" lat="68.3913416" lon="15.1038001" version="1" timestamp="2022-06-24T18:34:38Z" changeset="122814165" uid="3497659" user="NKA">
		<tag k="name" v="Langnesvik" />
		<tag k="place" v="farm" />
		<tag k="ssr:stedsnr" v="685827" />
	</node>
	<node id="9844779561" lat="68.4462861" lon="15.0389528" version="1" timestamp="2022-06-24T18:34:38Z" changeset="122814165" uid="3497659" user="NKA">
		<tag k="name" v="Myrlandsfjorden" />
		<tag k="place" v="farm" />
		<tag k="ssr:stedsnr" v="927794" />
	</node>
	<node id="9844779562" lat="68.5860936" lon="14.9828394" version="1" timestamp="2022-06-24T18:34:38Z" changeset="122814165" uid="3497659" user="NKA">
		<tag k="name" v="Bitterstad" />
		<tag k="place" v="hamlet" />
		<tag k="ssr:stedsnr" v="685569" />
	</node>
	<node id="9844779563" lat="68.5887666" lon="14.8528722" version="1" timestamp="2022-06-24T18:34:38Z" changeset="122814165" uid="3497659" user="NKA">
		<tag k="name" v="Silsanden" />
		<tag k="place" v="farm" />
		<tag k="ssr:stedsnr" v="928534" />
	</node>
	<node id="9844779564" lat="68.6026377" lon="15.0846784" version="1" timestamp="2022-06-24T18:34:38Z" changeset="122814165" uid="3497659" user="NKA">
		<tag k="alt_name" v="Raen" />
		<tag k="name" v="Raene" />
		<tag k="place" v="farm" />
		<tag k="ssr:stedsnr" v="684042" />
	</node>
	<node id="9844779565" lat="68.4542813" lon="15.0236078" version="1" timestamp="2022-06-24T18:34:38Z" changeset="122814165" uid="3497659" user="NKA">
		<tag k="name" v="Kvannbekken" />
		<tag k="place" v="farm" />
		<tag k="ssr:stedsnr" v="806725" />
	</node>
	<node id="9844779566" lat="68.4995278" lon="14.7396751" version="1" timestamp="2022-06-24T18:34:38Z" changeset="122814165" uid="3497659" user="NKA">
		<tag k="name" v="Kvitsandvollen" />
		<tag k="place" v="locality" />
		<tag k="ssr:stedsnr" v="580728" />
	</node>
	<node id="9844779567" lat="68.4372611" lon="15.1487415" version="1" timestamp="2022-06-24T18:34:38Z" changeset="122814165" uid="3497659" user="NKA">
		<tag k="name" v="Nilsvika" />
		<tag k="place" v="farm" />
		<tag k="ssr:stedsnr" v="805779" />
	</node>
	<node id="9844779568" lat="68.6274205" lon="14.8209206" version="1" timestamp="2022-06-24T18:34:38Z" changeset="122814165" uid="3497659" user="NKA">
		<tag k="name" v="Varvika" />
		<tag k="place" v="hamlet" />
		<tag k="ssr:stedsnr" v="685490" />
	</node>
	<node id="9844779569" lat="68.5467939" lon="14.9919253" version="1" timestamp="2022-06-24T18:34:38Z" changeset="122814165" uid="3497659" user="NKA">
		<tag k="name" v="Skogly" />
		<tag k="place" v="farm" />
		<tag k="ssr:stedsnr" v="519474" />
	</node>
	<node id="9844779570" lat="68.6515722" lon="14.8993083" version="1" timestamp="2022-06-24T18:34:38Z" changeset="122814165" uid="3497659" user="NKA">
		<tag k="name" v="Mosanden" />
		<tag k="place" v="farm" />
		<tag k="ssr:stedsnr" v="260727" />
	</node>
	<node id="9844779571" lat="68.5460224" lon="14.6423351" version="1" timestamp="2022-06-24T18:34:38Z" changeset="122814165" uid="3497659" user="NKA">
		<tag k="name" v="Utbjørg" />
		<tag k="place" v="farm" />
		<tag k="ssr:stedsnr" v="382894" />
	</node>
	<node id="9844779572" lat="68.459707" lon="15.0470962" version="1" timestamp="2022-06-24T18:34:38Z" changeset="122814165" uid="3497659" user="NKA">
		<tag k="name" v="Nordgården" />
		<tag k="place" v="farm" />
		<tag k="ssr:stedsnr" v="905655" />
	</node>
	<node id="9844779573" lat="68.3471621" lon="15.053632" version="1" timestamp="2022-06-24T18:34:38Z" changeset="122814165" uid="3497659" user="NKA">
		<tag k="alt_name" v="Ramnvika;Ramnvik" />
		<tag k="name" v="Ramvika" />
		<tag k="place" v="farm" />
		<tag k="ssr:stedsnr" v="563996" />
	</node>
	<node id="9844779574" lat="68.5940315" lon="14.9098989" version="1" timestamp="2022-06-24T18:34:38Z" changeset="122814165" uid="3497659" user="NKA">
		<tag k="name" v="Sausletta" />
		<tag k="place" v="isolated_dwelling" />
		<tag k="ssr:stedsnr" v="397161" />
	</node>
	<node id="9844779575" lat="68.5644472" lon="14.6232393" version="1" timestamp="2022-06-24T18:34:38Z" changeset="122814165" uid="3497659" user="NKA">
		<tag k="alt_name" v="Finnseter" />
		<tag k="name" v="Finnsæter" />
		<tag k="place" v="farm" />
		<tag k="ssr:stedsnr" v="321893" />
	</node>
	<node id="9844779576" lat="68.6176806" lon="15.1256444" version="1" timestamp="2022-06-24T18:34:38Z" changeset="122814165" uid="3497659" user="NKA">
		<tag k="name" v="Lundan" />
		<tag k="place" v="farm" />
		<tag k="ssr:stedsnr" v="78005" />
	</node>
	<node id="9844779577" lat="68.4517167" lon="15.1736055" version="1" timestamp="2022-06-24T18:34:38Z" changeset="122814165" uid="3497659" user="NKA">
		<tag k="name" v="Skardet" />
		<tag k="place" v="farm" />
		<tag k="ssr:stedsnr" v="260755" />
	</node>
	<node id="9844779578" lat="68.3658945" lon="15.0365056" version="1" timestamp="2022-06-24T18:34:38Z" changeset="122814165" uid="3497659" user="NKA">
		<tag k="name" v="Ulvøyhamn" />
		<tag k="place" v="farm" />
		<tag k="ssr:stedsnr" v="77886" />
	</node>
	<node id="9844779579" lat="68.589667" lon="14.9630901" version="1" timestamp="2022-06-24T18:34:38Z" changeset="122814165" uid="3497659" user="NKA">
		<tag k="name" v="Rå - Rovvi" />
		<tag k="name:no" v="Rå" />
		<tag k="name:se" v="Rovvi" />
		<tag k="place" v="farm" />
		<tag k="ssr:stedsnr" v="381576" />
	</node>
	<node id="9844779580" lat="68.6177574" lon="14.8664102" version="1" timestamp="2022-06-24T18:34:38Z" changeset="122814165" uid="3497659" user="NKA">
		<tag k="name" v="Vik" />
		<tag k="place" v="hamlet" />
		<tag k="ssr:stedsnr" v="321469" />
	</node>
	<node id="9844779581" lat="68.5332056" lon="15.2531694" version="1" timestamp="2022-06-24T18:34:38Z" changeset="122814165" uid="3497659" user="NKA">
		<tag k="name" v="Storvollen" />
		<tag k="place" v="farm" />
		<tag k="ssr:stedsnr" v="381390" />
	</node>
	<node id="9844779582" lat="68.4699" lon="15.2255945" version="1" timestamp="2022-06-24T18:34:38Z" changeset="122814165" uid="3497659" user="NKA">
		<tag k="name" v="Hattvika" />
		<tag k="place" v="farm" />
		<tag k="ssr:stedsnr" v="381779" />
	</node>
	<node id="9844779583" lat="68.6458972" lon="14.9418027" version="1" timestamp="2022-06-24T18:34:38Z" changeset="122814165" uid="3497659" user="NKA">
		<tag k="name" v="Setran" />
		<tag k="place" v="locality" />
		<tag k="ssr:stedsnr" v="298553" />
	</node>
	<node id="9844779584" lat="68.5909583" lon="14.9848472" version="1" timestamp="2022-06-24T18:34:38Z" changeset="122814165" uid="3497659" user="NKA">
		<tag k="name" v="Teigan" />
		<tag k="place" v="farm" />
		<tag k="ssr:stedsnr" v="458260" />
	</node>
	<node id="9844779585" lat="68.5434777" lon="14.9749084" version="1" timestamp="2022-06-24T18:34:38Z" changeset="122814165" uid="3497659" user="NKA">
		<tag k="name" v="Lyngen" />
		<tag k="place" v="farm" />
		<tag k="ssr:stedsnr" v="624976" />
	</node>
	<node id="9844779586" lat="68.5545889" lon="14.9706805" version="1" timestamp="2022-06-24T18:34:38Z" changeset="122814165" uid="3497659" user="NKA">
		<tag k="name" v="Kråa" />
		<tag k="place" v="farm" />
		<tag k="ssr:stedsnr" v="624897" />
	</node>
	<node id="9844779587" lat="68.65795" lon="14.9794667" version="1" timestamp="2022-06-24T18:34:38Z" changeset="122814165" uid="3497659" user="NKA">
		<tag k="name" v="Toftene" />
		<tag k="place" v="farm" />
		<tag k="ssr:stedsnr" v="78715" />
	</node>
	<node id="9844779588" lat="68.5883787" lon="14.9352682" version="1" timestamp="2022-06-24T18:34:38Z" changeset="122814165" uid="3497659" user="NKA">
		<tag k="name" v="Hov" />
		<tag k="place" v="farm" />
		<tag k="ssr:stedsnr" v="624561" />
	</node>
	<node id="9844779589" lat="68.5404941" lon="14.9930658" version="1" timestamp="2022-06-24T18:34:38Z" changeset="122814165" uid="3497659" user="NKA">
		<tag k="name" v="Hadsel" />
		<tag k="place" v="hamlet" />
		<tag k="ssr:stedsnr" v="1076257" />
	</node>
	<node id="9844779590" lat="68.5672763" lon="14.9336812" version="1" timestamp="2022-06-24T18:34:38Z" changeset="122814165" uid="3497659" user="NKA">
		<tag k="name" v="Børøya - Bierák" />
		<tag k="name:no" v="Børøya" />
		<tag k="name:se" v="Bierák" />
		<tag k="place" v="farm" />
		<tag k="ssr:stedsnr" v="1076258" />
	</node>
	<node id="9844779591" lat="68.5610978" lon="15.2203777" version="1" timestamp="2022-06-24T18:34:38Z" changeset="122814165" uid="3497659" user="NKA">
		<tag k="name" v="Moa" />
		<tag k="place" v="farm" />
		<tag k="ssr:stedsnr" v="138119" />
	</node>
	<node id="9844779592" lat="68.6502055" lon="14.88615" version="1" timestamp="2022-06-24T18:34:38Z" changeset="122814165" uid="3497659" user="NKA">
		<tag k="name" v="Bugen" />
		<tag k="place" v="farm" />
		<tag k="ssr:stedsnr" v="867716" />
	</node>
	<node id="9844779593" lat="68.5407869" lon="14.9993397" version="1" timestamp="2022-06-24T18:34:38Z" changeset="122814165" uid="3497659" user="NKA">
		<tag k="name" v="Hadselsjyen" />
		<tag k="place" v="farm" />
		<tag k="ssr:stedsnr" v="358630" />
	</node>
	<node id="9844779594" lat="68.5163167" lon="15.2589084" version="1" timestamp="2022-06-24T18:34:38Z" changeset="122814165" uid="3497659" user="NKA">
		<tag k="name" v="Hamn" />
		<tag k="place" v="farm" />
		<tag k="ssr:stedsnr" v="161057" />
	</node>
	<node id="9844779595" lat="68.6654984" lon="14.9607017" version="1" timestamp="2022-06-24T18:34:38Z" changeset="122814165" uid="3497659" user="NKA">
		<tag k="name" v="Slettstrand" />
		<tag k="place" v="farm" />
		<tag k="ssr:stedsnr" v="283488" />
	</node>
	<node id="9844779596" lat="68.436175" lon="15.1811221" version="1" timestamp="2022-06-24T18:34:38Z" changeset="122814165" uid="3497659" user="NKA">
		<tag k="alt_name" v="Kongselv" />
		<tag k="name" v="Kongselva" />
		<tag k="place" v="hamlet" />
		<tag k="ssr:stedsnr" v="805759" />
	</node>
	<node id="9844779597" lat="68.3823974" lon="15.090213" version="1" timestamp="2022-06-24T18:34:38Z" changeset="122814165" uid="3497659" user="NKA">
		<tag k="alt_name" v="Brubrekk" />
		<tag k="name" v="Brubrekka" />
		<tag k="place" v="farm" />
		<tag k="ssr:stedsnr" v="138826" />
	</node>
	<node id="9844779598" lat="68.6381167" lon="14.8218613" version="1" timestamp="2022-06-24T18:34:38Z" changeset="122814165" uid="3497659" user="NKA">
		<tag k="alt_name" v="Fleines" />
		<tag k="name" v="Fleinnes" />
		<tag k="place" v="hamlet" />
		<tag k="ssr:stedsnr" v="563534" />
	</node>
	<node id="9844779599" lat="68.5754442" lon="15.2310358" version="1" timestamp="2022-06-24T18:34:38Z" changeset="122814165" uid="3497659" user="NKA">
		<tag k="name" v="Kvitnes - Guitanášši" />
		<tag k="name:no" v="Kvitnes" />
		<tag k="name:se" v="Guitanášši" />
		<tag k="place" v="farm" />
		<tag k="ssr:stedsnr" v="823893" />
	</node>
	<node id="9844779600" lat="68.6402167" lon="14.8139584" version="1" timestamp="2022-06-24T18:34:38Z" changeset="122814165" uid="3497659" user="NKA">
		<tag k="name" v="Ytre Fleinnes" />
		<tag k="place" v="farm" />
		<tag k="ssr:stedsnr" v="545209" />
	</node>
	<node id="9844779601" lat="68.5585292" lon="15.2161789" version="1" timestamp="2022-06-24T18:34:38Z" changeset="122814165" uid="3497659" user="NKA">
		<tag k="alt_name" v="Setervik" />
		<tag k="loc_name" v="Setervika" />
		<tag k="name" v="Sætervika" />
		<tag k="place" v="farm" />
		<tag k="ssr:stedsnr" v="78112" />
	</node>
	<node id="9844779602" lat="68.4606389" lon="15.0820056" version="1" timestamp="2022-06-24T18:34:38Z" changeset="122814165" uid="3497659" user="NKA">
		<tag k="name" v="Myran" />
		<tag k="place" v="farm" />
		<tag k="ssr:stedsnr" v="563721" />
	</node>
	<node id="9844779603" lat="68.5380833" lon="15.1922028" version="1" timestamp="2022-06-24T18:34:38Z" changeset="122814165" uid="3497659" user="NKA">
		<tag k="name" v="Gårdgrunnen" />
		<tag k="place" v="farm" />
		<tag k="ssr:stedsnr" v="884219" />
	</node>
	<node id="9844779604" lat="68.5532278" lon="15.2103195" version="1" timestamp="2022-06-24T18:34:38Z" changeset="122814165" uid="3497659" user="NKA">
		<tag k="alt_name" v="Lappkjerra" />
		<tag k="name" v="Lappkjerran" />
		<tag k="place" v="farm" />
		<tag k="ssr:stedsnr" v="745150" />
	</node>
	<node id="9844779605" lat="68.5729139" lon="15.2897055" version="1" timestamp="2022-06-24T18:34:38Z" changeset="122814165" uid="3497659" user="NKA">
		<tag k="name" v="Kvanntoelva" />
		<tag k="place" v="hamlet" />
		<tag k="ssr:stedsnr" v="745106" />
	</node>
	<node id="9844779606" lat="68.6409195" lon="14.9411251" version="1" timestamp="2022-06-24T18:34:38Z" changeset="122814165" uid="3497659" user="NKA">
		<tag k="name" v="Setre" />
		<tag k="place" v="locality" />
		<tag k="ssr:stedsnr" v="55532" />
	</node>
	<node id="9844779607" lat="68.5371478" lon="15.1966629" version="1" timestamp="2022-06-24T18:34:38Z" changeset="122814165" uid="3497659" user="NKA">
		<tag k="name" v="Hennes - Henánášši" />
		<tag k="name:no" v="Hennes" />
		<tag k="name:se" v="Henánášši" />
		<tag k="place" v="locality" />
		<tag k="ssr:stedsnr" v="1076193" />
	</node>
	<node id="9844779608" lat="68.5480805" lon="14.957236" version="1" timestamp="2022-06-24T18:34:38Z" changeset="122814165" uid="3497659" user="NKA">
		<tag k="name" v="Speiderhytta" />
		<tag k="place" v="isolated_dwelling" />
		<tag k="ssr:stedsnr" v="34380" />
	</node>
	<node id="9844779609" lat="68.4490019" lon="15.2016397" version="1" timestamp="2022-06-24T18:34:38Z" changeset="122814165" uid="3497659" user="NKA">
		<tag k="name" v="Steinbakken" />
		<tag k="place" v="farm" />
		<tag k="ssr:stedsnr" v="867736" />
	</node>
	<node id="9844779610" lat="68.5894167" lon="14.9499945" version="1" timestamp="2022-06-24T18:34:38Z" changeset="122814165" uid="3497659" user="NKA">
		<tag k="name" v="Råbogen" />
		<tag k="place" v="hamlet" />
		<tag k="ssr:stedsnr" v="33240" />
	</node>
	<node id="9844779611" lat="68.666075" lon="14.9751223" version="1" timestamp="2022-06-24T18:34:38Z" changeset="122814165" uid="3497659" user="NKA">
		<tag k="name" v="Slåttnes" />
		<tag k="place" v="hamlet" />
		<tag k="ssr:stedsnr" v="18658" />
	</node>
	<node id="9844779612" lat="68.3696889" lon="14.7751777" version="1" timestamp="2022-06-24T18:34:38Z" changeset="122814165" uid="3497659" user="NKA">
		<tag k="name" v="Leirvikhaugen" />
		<tag k="place" v="farm" />
		<tag k="ssr:stedsnr" v="684480" />
	</node>
	<node id="9844779613" lat="68.4633235" lon="15.1908029" version="1" timestamp="2022-06-24T18:34:38Z" changeset="122814165" uid="3497659" user="NKA">
		<tag k="name" v="Kveldro" />
		<tag k="place" v="farm" />
		<tag k="ssr:stedsnr" v="525855" />
	</node>
	<node id="9844779614" lat="68.5364139" lon="15.1988694" version="1" timestamp="2022-06-24T18:34:38Z" changeset="122814165" uid="3497659" user="NKA">
		<tag k="name" v="Harvollen" />
		<tag k="place" v="farm" />
		<tag k="ssr:stedsnr" v="745415" />
	</node>
	<node id="9844779615" lat="68.5699731" lon="15.2306189" version="1" timestamp="2022-06-24T18:34:38Z" changeset="122814165" uid="3497659" user="NKA">
		<tag k="name" v="Lauvbakken" />
		<tag k="place" v="farm" />
		<tag k="ssr:stedsnr" v="685073" />
	</node>
	<node id="9844779616" lat="68.5853834" lon="15.0417138" version="1" timestamp="2022-06-24T18:34:38Z" changeset="122814165" uid="3497659" user="NKA">
		<tag k="name" v="Raen" />
		<tag k="place" v="isolated_dwelling" />
		<tag k="ssr:stedsnr" v="761832" />
	</node>
	<node id="9844779617" lat="68.66052" lon="14.9237176" version="1" timestamp="2022-06-24T18:34:38Z" changeset="122814165" uid="3497659" user="NKA">
		<tag k="name" v="Kjørstad" />
		<tag k="place" v="hamlet" />
		<tag k="ssr:stedsnr" v="685691" />
	</node>
	<node id="9844779618" lat="68.5646778" lon="15.2128139" version="1" timestamp="2022-06-24T18:34:38Z" changeset="122814165" uid="3497659" user="NKA">
		<tag k="name" v="Steinsvik" />
		<tag k="place" v="farm" />
		<tag k="ssr:stedsnr" v="685072" />
	</node>
	<node id="9844779619" lat="68.5068527" lon="15.2739527" version="1" timestamp="2022-06-24T18:34:38Z" changeset="122814165" uid="3497659" user="NKA">
		<tag k="name" v="Vika" />
		<tag k="place" v="farm" />
		<tag k="ssr:stedsnr" v="442414" />
	</node>
	<node id="9844779620" lat="68.5684722" lon="15.2285194" version="1" timestamp="2022-06-24T18:34:38Z" changeset="122814165" uid="3497659" user="NKA">
		<tag k="name" v="Lauvmyra" />
		<tag k="place" v="farm" />
		<tag k="ssr:stedsnr" v="442093" />
	</node>
	<node id="9844779621" lat="68.5368391" lon="15.1901906" version="1" timestamp="2022-06-24T18:34:38Z" changeset="122814165" uid="3497659" user="NKA">
		<tag k="name" v="Bjønnvollen" />
		<tag k="place" v="farm" />
		<tag k="ssr:stedsnr" v="216233" />
	</node>
	<node id="9844779622" lat="68.6406887" lon="14.8203368" version="1" timestamp="2022-06-24T18:34:38Z" changeset="122814165" uid="3497659" user="NKA">
		<tag k="name" v="Øvre Fleinnes" />
		<tag k="place" v="farm" />
		<tag k="ssr:stedsnr" v="181228" />
	</node>
	<node id="9844779623" lat="68.5044303" lon="15.2466743" version="1" timestamp="2022-06-24T18:34:38Z" changeset="122814165" uid="3497659" user="NKA">
		<tag k="alt_name" v="Bogstrand" />
		<tag k="name" v="Bogstranda" />
		<tag k="place" v="farm" />
		<tag k="ssr:stedsnr" v="321392" />
	</node>
	<node id="9844779624" lat="68.5747528" lon="15.2832833" version="1" timestamp="2022-06-24T18:34:38Z" changeset="122814165" uid="3497659" user="NKA">
		<tag k="name" v="Kassenland" />
		<tag k="place" v="farm" />
		<tag k="ssr:stedsnr" v="155923" />
	</node>
	<node id="9844779625" lat="68.5822416" lon="15.0413222" version="1" timestamp="2022-06-24T18:34:38Z" changeset="122814165" uid="3497659" user="NKA">
		<tag k="name" v="Gammelgården" />
		<tag k="place" v="farm" />
		<tag k="ssr:stedsnr" v="116637" />
	</node>
	<node id="9844779626" lat="68.44825" lon="15.1687112" version="1" timestamp="2022-06-24T18:34:38Z" changeset="122814165" uid="3497659" user="NKA">
		<tag k="name" v="Nordnes" />
		<tag k="place" v="isolated_dwelling" />
		<tag k="ssr:stedsnr" v="623725" />
	</node>
	<node id="9844779627" lat="68.5391972" lon="15.1932194" version="1" timestamp="2022-06-24T18:34:38Z" changeset="122814165" uid="3497659" user="NKA">
		<tag k="name" v="Hennes, nedre" />
		<tag k="place" v="farm" />
		<tag k="ssr:stedsnr" v="823220" />
	</node>
	<node id="9844779628" lat="68.6000834" lon="15.0824417" version="1" timestamp="2022-06-24T18:34:38Z" changeset="122814165" uid="3497659" user="NKA">
		<tag k="name" v="Gammelgården" />
		<tag k="place" v="farm" />
		<tag k="ssr:stedsnr" v="260056" />
	</node>
	<node id="9844779629" lat="68.5324695" lon="15.2398083" version="1" timestamp="2022-06-24T18:34:38Z" changeset="122814165" uid="3497659" user="NKA">
		<tag k="alt_name" v="Breidstranda" />
		<tag k="name" v="Breistranda" />
		<tag k="place" v="farm" />
		<tag k="ssr:stedsnr" v="17415" />
	</node>
	<node id="9844779630" lat="68.5328756" lon="15.1983739" version="1" timestamp="2022-06-24T18:34:38Z" changeset="122814165" uid="3497659" user="NKA">
		<tag k="alt_name" v="Hennes, øvre" />
		<tag k="name" v="Øvre Hennes" />
		<tag k="place" v="farm" />
		<tag k="ssr:stedsnr" v="199392" />
	</node>
	<node id="9844779631" lat="68.4169057" lon="14.5477662" version="1" timestamp="2022-06-24T18:34:38Z" changeset="122814165" uid="3497659" user="NKA">
		<tag k="name" v="Laugbakken" />
		<tag k="place" v="farm" />
		<tag k="ssr:stedsnr" v="890200" />
	</node>
	<node id="9844779632" lat="68.4339777" lon="14.6208471" version="1" timestamp="2022-06-24T18:34:38Z" changeset="122814165" uid="3497659" user="NKA">
		<tag k="name" v="Landingsvorr" />
		<tag k="place" v="hamlet" />
		<tag k="ssr:stedsnr" v="950146" />
	</node>
	<node id="9844779633" lat="68.4242028" lon="14.6730112" version="1" timestamp="2022-06-24T18:34:38Z" changeset="122814165" uid="3497659" user="NKA">
		<tag k="name" v="Høgda" />
		<tag k="place" v="farm" />
		<tag k="ssr:stedsnr" v="889088" />
	</node>
	<node id="9844779634" lat="68.5729722" lon="15.2305833" version="1" timestamp="2022-06-24T18:34:38Z" changeset="122814165" uid="3497659" user="NKA">
		<tag k="name" v="Nygård" />
		<tag k="place" v="farm" />
		<tag k="ssr:stedsnr" v="502084" />
	</node>
	<node id="9844779635" lat="68.6179" lon="14.8385499" version="1" timestamp="2022-06-24T18:34:38Z" changeset="122814165" uid="3497659" user="NKA">
		<tag k="name" v="Kjerkgården" />
		<tag k="place" v="farm" />
		<tag k="ssr:stedsnr" v="42277" />
	</node>
	<node id="9844779636" lat="68.4212565" lon="14.7032497" version="1" timestamp="2022-06-24T18:34:38Z" changeset="122814165" uid="3497659" user="NKA">
		<tag k="alt_name" v="Seloter" />
		<tag k="name" v="Sellåter" />
		<tag k="place" v="hamlet" />
		<tag k="ssr:stedsnr" v="867388" />
	</node>
	<node id="9844779637" lat="68.5401195" lon="15.1904804" version="1" timestamp="2022-06-24T18:34:38Z" changeset="122814165" uid="3497659" user="NKA">
		<tag k="name" v="Svingjerdet" />
		<tag k="place" v="farm" />
		<tag k="ssr:stedsnr" v="641222" />
	</node>
	<node id="9844779638" lat="68.544612" lon="15.1974284" version="1" timestamp="2022-06-24T18:34:38Z" changeset="122814165" uid="3497659" user="NKA">
		<tag k="alt_name" v="Hennes, nedre" />
		<tag k="name" v="Nedre Hennes" />
		<tag k="place" v="farm" />
		<tag k="ssr:stedsnr" v="563107" />
	</node>
	<node id="9844779639" lat="68.5301833" lon="15.2617221" version="1" timestamp="2022-06-24T18:34:38Z" changeset="122814165" uid="3497659" user="NKA">
		<tag k="name" v="Nygård" />
		<tag k="place" v="farm" />
		<tag k="ssr:stedsnr" v="563367" />
	</node>
	<node id="9844779640" lat="68.4561719" lon="15.0477614" version="1" timestamp="2022-06-24T18:34:38Z" changeset="122814165" uid="3497659" user="NKA">
		<tag k="name" v="Heimergården" />
		<tag k="place" v="farm" />
		<tag k="ssr:stedsnr" v="661582" />
	</node>
	<node id="9844779641" lat="68.4309084" lon="15.2049417" version="1" timestamp="2022-06-24T18:34:38Z" changeset="122814165" uid="3497659" user="NKA">
		<tag k="alt_name:no" v="Kongsmark" />
		<tag k="loc_name:se" v="Gonga" />
		<tag k="name" v="Kongsmarka" />
		<tag k="name:no" v="Kongsmarka" />
		<tag k="place" v="hamlet" />
		<tag k="ssr:stedsnr" v="283924" />
	</node>
	<node id="9844779642" lat="68.4605694" lon="15.0505918" version="1" timestamp="2022-06-24T18:34:38Z" changeset="122814165" uid="3497659" user="NKA">
		<tag k="name" v="Hestleira" />
		<tag k="place" v="farm" />
		<tag k="ssr:stedsnr" v="199711" />
	</node>
	<node id="9844779643" lat="68.5280057" lon="15.2671678" version="1" timestamp="2022-06-24T18:34:38Z" changeset="122814165" uid="3497659" user="NKA">
		<tag k="name" v="Elverhøy" />
		<tag k="place" v="farm" />
		<tag k="ssr:stedsnr" v="624391" />
	</node>
	<node id="9844779644" lat="68.5557277" lon="15.2126945" version="1" timestamp="2022-06-24T18:34:38Z" changeset="122814165" uid="3497659" user="NKA">
		<tag k="alt_name" v="Litlesæter" />
		<tag k="name" v="Lilleseter" />
		<tag k="place" v="farm" />
		<tag k="ssr:stedsnr" v="624142" />
	</node>
	<node id="9844779645" lat="68.6729892" lon="15.0460642" version="1" timestamp="2022-06-24T18:34:38Z" changeset="122814165" uid="3497659" user="NKA">
		<tag k="alt_name" v="Straumfjord, ytre" />
		<tag k="name" v="Ytre Straumfjord" />
		<tag k="place" v="farm" />
		<tag k="ssr:stedsnr" v="927180" />
	</node>
	<node id="9844779646" lat="68.6247861" lon="15.1871417" version="1" timestamp="2022-06-24T18:34:38Z" changeset="122814165" uid="3497659" user="NKA">
		<tag k="name" v="Fagerheim" />
		<tag k="place" v="farm" />
		<tag k="ssr:stedsnr" v="867024" />
	</node>
	<node id="9844779647" lat="68.4480861" lon="15.0473972" version="1" timestamp="2022-06-24T18:34:38Z" changeset="122814165" uid="3497659" user="NKA">
		<tag k="name" v="Myrlandsbotn" />
		<tag k="place" v="farm" />
		<tag k="ssr:stedsnr" v="663802" />
	</node>
	<node id="9844779648" lat="68.6003083" lon="15.0173333" version="1" timestamp="2022-06-24T18:34:38Z" changeset="122814165" uid="3497659" user="NKA">
		<tag k="name" v="Rødlia" />
		<tag k="place" v="isolated_dwelling" />
		<tag k="ssr:stedsnr" v="155233" />
	</node>
	<node id="9844779649" lat="68.4336222" lon="14.6300667" version="1" timestamp="2022-06-24T18:34:38Z" changeset="122814165" uid="3497659" user="NKA">
		<tag k="name" v="Tufthaugen" />
		<tag k="place" v="farm" />
		<tag k="ssr:stedsnr" v="707136" />
	</node>
	<node id="9844779650" lat="68.4229556" lon="15.1299693" version="1" timestamp="2022-06-24T18:34:38Z" changeset="122814165" uid="3497659" user="NKA">
		<tag k="name" v="Olsanes" />
		<tag k="place" v="farm" />
		<tag k="ssr:stedsnr" v="17805" />
	</node>
	<node id="9844779651" lat="68.4102054" lon="15.1294594" version="1" timestamp="2022-06-24T18:34:38Z" changeset="122814165" uid="3497659" user="NKA">
		<tag k="alt_name" v="Raftstranda;Raftstranda, nordre;Nordre Raftstrand" />
		<tag k="name" v="Nordre Raftstranda" />
		<tag k="place" v="farm" />
		<tag k="ssr:stedsnr" v="17876" />
	</node>
	<node id="9844779652" lat="68.6000639" lon="15.0859028" version="1" timestamp="2022-06-24T18:34:38Z" changeset="122814165" uid="3497659" user="NKA">
		<tag k="alt_name:no" v="Hauknes" />
		<tag k="name" v="Haukenes - Hovkanášši" />
		<tag k="name:no" v="Haukenes" />
		<tag k="name:se" v="Hovkanášši" />
		<tag k="place" v="hamlet" />
		<tag k="ssr:stedsnr" v="17043" />
	</node>
	<node id="9844779653" lat="68.5320361" lon="15.221325" version="1" timestamp="2022-06-24T18:34:38Z" changeset="122814165" uid="3497659" user="NKA">
		<tag k="name" v="Olagarden" />
		<tag k="place" v="farm" />
		<tag k="ssr:stedsnr" v="34244" />
	</node>
	<node id="9844779654" lat="68.406675" lon="15.1207694" version="1" timestamp="2022-06-24T18:34:38Z" changeset="122814165" uid="3497659" user="NKA">
		<tag k="alt_name" v="Raftstranda, s;Søre Raftstrand" />
		<tag k="name" v="Søre Raftstranda" />
		<tag k="place" v="farm" />
		<tag k="ssr:stedsnr" v="867879" />
	</node>
	<node id="9844779655" lat="68.3887518" lon="14.7216065" version="1" timestamp="2022-06-24T18:34:38Z" changeset="122814165" uid="3497659" user="NKA">
		<tag k="name" v="Morfjorden - Murafierda" />
		<tag k="name:no" v="Morfjorden" />
		<tag k="name:se" v="Murafierda" />
		<tag k="place" v="hamlet" />
		<tag k="ssr:stedsnr" v="684453" />
	</node>
	<node id="9844779656" lat="68.5991194" lon="15.0702834" version="1" timestamp="2022-06-24T18:34:38Z" changeset="122814165" uid="3497659" user="NKA">
		<tag k="name" v="Røsslers Minde" />
		<tag k="place" v="isolated_dwelling" />
		<tag k="ssr:stedsnr" v="950511" />
	</node>
	<node id="9844779657" lat="68.4315555" lon="14.6453528" version="1" timestamp="2022-06-24T18:34:38Z" changeset="122814165" uid="3497659" user="NKA">
		<tag k="name" v="Nyheim" />
		<tag k="place" v="farm" />
		<tag k="ssr:stedsnr" v="78320" />
	</node>
	<node id="9844779658" lat="68.613778" lon="15.1548002" version="1" timestamp="2022-06-24T18:34:38Z" changeset="122814165" uid="3497659" user="NKA">
		<tag k="name" v="Nausthaugen" />
		<tag k="place" v="farm" />
		<tag k="ssr:stedsnr" v="458797" />
	</node>
	<node id="9844779659" lat="68.5984995" lon="15.0056089" version="1" timestamp="2022-06-24T18:34:38Z" changeset="122814165" uid="3497659" user="NKA">
		<tag k="name" v="Solheim" />
		<tag k="place" v="farm" />
		<tag k="ssr:stedsnr" v="1078821" />
	</node>
	<node id="9844779660" lat="68.601575" lon="15.0763807" version="1" timestamp="2022-06-24T18:34:38Z" changeset="122814165" uid="3497659" user="NKA">
		<tag k="name" v="Plassen" />
		<tag k="place" v="isolated_dwelling" />
		<tag k="ssr:stedsnr" v="397784" />
	</node>
	<node id="9844779661" lat="68.4330626" lon="14.6234446" version="1" timestamp="2022-06-24T18:34:38Z" changeset="122814165" uid="3497659" user="NKA">
		<tag k="name" v="Gammelgård" />
		<tag k="place" v="farm" />
		<tag k="ssr:stedsnr" v="889136" />
	</node>
	<node id="9844779662" lat="68.4478084" lon="14.9105028" version="1" timestamp="2022-06-24T18:34:38Z" changeset="122814165" uid="3497659" user="NKA">
		<tag k="name" v="Ringen" />
		<tag k="place" v="farm" />
		<tag k="ssr:stedsnr" v="562319" />
	</node>
	<node id="9844779663" lat="68.6175111" lon="15.1662194" version="1" timestamp="2022-06-24T18:34:38Z" changeset="122814165" uid="3497659" user="NKA">
		<tag k="name" v="Moen" />
		<tag k="place" v="farm" />
		<tag k="ssr:stedsnr" v="216745" />
	</node>
	<node id="9844779664" lat="68.5935255" lon="14.8520726" version="1" timestamp="2022-06-24T18:34:38Z" changeset="122814165" uid="3497659" user="NKA">
		<tag k="name" v="Raen" />
		<tag k="place" v="farm" />
		<tag k="ssr:stedsnr" v="588718" />
	</node>
	<node id="9844779665" lat="68.5915988" lon="15.0634249" version="1" timestamp="2022-06-24T18:34:38Z" changeset="122814165" uid="3497659" user="NKA">
		<tag k="alt_name" v="Kjellsnes" />
		<tag k="name" v="Kjeldnes" />
		<tag k="place" v="hamlet" />
		<tag k="ssr:stedsnr" v="381050" />
	</node>
	<node id="9844779666" lat="68.6136722" lon="15.1608889" version="1" timestamp="2022-06-24T18:34:38Z" changeset="122814165" uid="3497659" user="NKA">
		<tag k="name" v="Harvollen" />
		<tag k="place" v="farm" />
		<tag k="ssr:stedsnr" v="761804" />
	</node>
	<node id="9844779667" lat="68.6076361" lon="14.8841749" version="1" timestamp="2022-06-24T18:34:38Z" changeset="122814165" uid="3497659" user="NKA">
		<tag k="name" v="Vikbotnen" />
		<tag k="place" v="farm" />
		<tag k="ssr:stedsnr" v="441608" />
	</node>
	<node id="9844779668" lat="68.6529244" lon="14.8643813" version="1" timestamp="2022-06-24T18:34:38Z" changeset="122814165" uid="3497659" user="NKA">
		<tag k="name" v="Kvalsøya - Gulssik" />
		<tag k="name:no" v="Kvalsøya" />
		<tag k="name:se" v="Gulssik" />
		<tag k="place" v="farm" />
		<tag k="ssr:stedsnr" v="1076709" />
	</node>
	<node id="9844779669" lat="68.5992427" lon="15.0381201" version="1" timestamp="2022-06-24T18:34:38Z" changeset="122814165" uid="3497659" user="NKA">
		<tag k="name" v="Marka" />
		<tag k="place" v="hamlet" />
		<tag k="ssr:stedsnr" v="381055" />
	</node>
	<node id="9844779670" lat="68.5990322" lon="15.0456733" version="1" timestamp="2022-06-24T18:34:38Z" changeset="122814165" uid="3497659" user="NKA">
		<tag k="name" v="Maritbakken" />
		<tag k="place" v="isolated_dwelling" />
		<tag k="ssr:stedsnr" v="458826" />
	</node>
	<node id="9844779671" lat="68.4541761" lon="14.8959507" version="1" timestamp="2022-06-24T18:34:38Z" changeset="122814165" uid="3497659" user="NKA">
		<tag k="alt_name" v="Holdøy" />
		<tag k="name" v="Holdøya" />
		<tag k="place" v="farm" />
		<tag k="ssr:stedsnr" v="1076195" />
	</node>
	<node id="9844779672" lat="68.6190025" lon="14.8271357" version="1" timestamp="2022-06-24T18:34:38Z" changeset="122814165" uid="3497659" user="NKA">
		<tag k="alt_name" v="Kalsnes" />
		<tag k="name" v="Kallsnes" />
		<tag k="place" v="hamlet" />
		<tag k="ssr:stedsnr" v="200524" />
	</node>
	<node id="9844779673" lat="68.6111666" lon="15.1277889" version="1" timestamp="2022-06-24T18:34:38Z" changeset="122814165" uid="3497659" user="NKA">
		<tag k="name" v="Osbakkan" />
		<tag k="place" v="farm" />
		<tag k="ssr:stedsnr" v="458813" />
	</node>
	<node id="9844779674" lat="68.5990937" lon="15.0124371" version="1" timestamp="2022-06-24T18:34:38Z" changeset="122814165" uid="3497659" user="NKA">
		<tag k="name" v="Setervollen" />
		<tag k="place" v="isolated_dwelling" />
		<tag k="ssr:stedsnr" v="458261" />
	</node>
	<node id="9844779675" lat="68.611" lon="15.1169916" version="1" timestamp="2022-06-24T18:34:38Z" changeset="122814165" uid="3497659" user="NKA">
		<tag k="name" v="Marithaugen" />
		<tag k="place" v="farm" />
		<tag k="ssr:stedsnr" v="397807" />
	</node>
	<node id="9844779676" lat="68.4007298" lon="15.0972803" version="1" timestamp="2022-06-24T18:34:38Z" changeset="122814165" uid="3497659" user="NKA">
		<tag k="name" v="Fallet" />
		<tag k="place" v="farm" />
		<tag k="ssr:stedsnr" v="745874" />
	</node>
	<node id="9844779677" lat="68.6083179" lon="15.1268484" version="1" timestamp="2022-06-24T18:34:38Z" changeset="122814165" uid="3497659" user="NKA">
		<tag k="name" v="Gryttingsnes" />
		<tag k="place" v="farm" />
		<tag k="ssr:stedsnr" v="684039" />
	</node>
	<node id="9844779678" lat="68.6171071" lon="15.1375103" version="1" timestamp="2022-06-24T18:34:38Z" changeset="122814165" uid="3497659" user="NKA">
		<tag k="alt_name" v="Teigan" />
		<tag k="name" v="Teigen" />
		<tag k="place" v="farm" />
		<tag k="ssr:stedsnr" v="745019" />
	</node>
	<node id="9844779679" lat="68.5991633" lon="15.0466601" version="1" timestamp="2022-06-24T18:34:38Z" changeset="122814165" uid="3497659" user="NKA">
		<tag k="name" v="Setra" />
		<tag k="place" v="farm" />
		<tag k="ssr:stedsnr" v="259570" />
	</node>
	<node id="9844779680" lat="68.4281389" lon="14.608425" version="1" timestamp="2022-06-24T18:34:38Z" changeset="122814165" uid="3497659" user="NKA">
		<tag k="name" v="Solhøgda" />
		<tag k="place" v="farm" />
		<tag k="ssr:stedsnr" v="806363" />
	</node>
	<node id="9844779681" lat="68.608325" lon="15.1015112" version="1" timestamp="2022-06-24T18:34:38Z" changeset="122814165" uid="3497659" user="NKA">
		<tag k="name" v="Rabben" />
		<tag k="place" v="farm" />
		<tag k="ssr:stedsnr" v="199071" />
	</node>
	<node id="9844779682" lat="68.4018333" lon="14.7064889" version="1" timestamp="2022-06-24T18:34:38Z" changeset="122814165" uid="3497659" user="NKA">
		<tag k="name" v="Morfjordneset" />
		<tag k="place" v="farm" />
		<tag k="ssr:stedsnr" v="320311" />
	</node>
	<node id="9844779683" lat="68.5309722" lon="15.2703916" version="1" timestamp="2022-06-24T18:34:38Z" changeset="122814165" uid="3497659" user="NKA">
		<tag k="name" v="Elvebakken" />
		<tag k="place" v="farm" />
		<tag k="ssr:stedsnr" v="338836" />
	</node>
	<node id="9844779684" lat="68.6405805" lon="14.8186306" version="1" timestamp="2022-06-24T18:34:38Z" changeset="122814165" uid="3497659" user="NKA">
		<tag k="name" v="Skallan" />
		<tag k="place" v="isolated_dwelling" />
		<tag k="ssr:stedsnr" v="600632" />
	</node>
	<node id="9844779685" lat="68.6133916" lon="14.8725167" version="1" timestamp="2022-06-24T18:34:38Z" changeset="122814165" uid="3497659" user="NKA">
		<tag k="alt_name" v="Leite" />
		<tag k="name" v="Leitet" />
		<tag k="place" v="farm" />
		<tag k="ssr:stedsnr" v="745616" />
	</node>
	<node id="9844779686" lat="68.6050167" lon="15.0997056" version="1" timestamp="2022-06-24T18:34:38Z" changeset="122814165" uid="3497659" user="NKA">
		<tag k="name" v="Tjønnbogan" />
		<tag k="place" v="farm" />
		<tag k="ssr:stedsnr" v="33794" />
	</node>
	<node id="9844779687" lat="68.6158361" lon="15.1288638" version="1" timestamp="2022-06-24T18:34:38Z" changeset="122814165" uid="3497659" user="NKA">
		<tag k="name" v="Myra" />
		<tag k="place" v="farm" />
		<tag k="ssr:stedsnr" v="78004" />
	</node>
	<node id="9844779688" lat="68.6133889" lon="15.1308362" version="1" timestamp="2022-06-24T18:34:38Z" changeset="122814165" uid="3497659" user="NKA">
		<tag k="name" v="Nergården" />
		<tag k="place" v="farm" />
		<tag k="ssr:stedsnr" v="33811" />
	</node>
	<node id="9844779689" lat="68.6098583" lon="15.1176556" version="1" timestamp="2022-06-24T18:34:38Z" changeset="122814165" uid="3497659" user="NKA">
		<tag k="name" v="Grytting - Grivttegak" />
		<tag k="name:no" v="Grytting" />
		<tag k="name:se" v="Grivttegak" />
		<tag k="place" v="hamlet" />
		<tag k="ssr:stedsnr" v="745002" />
	</node>
	<node id="9844779690" lat="68.5847333" lon="14.6940487" version="1" timestamp="2022-06-24T18:34:38Z" changeset="122814165" uid="3497659" user="NKA">
		<tag k="alt_name" v="Dragnes" />
		<tag k="name" v="Dragneset" />
		<tag k="place" v="farm" />
		<tag k="ssr:stedsnr" v="17579" />
	</node>
	<node id="9844779691" lat="68.657629" lon="14.9190225" version="1" timestamp="2022-06-24T18:34:38Z" changeset="122814165" uid="3497659" user="NKA">
		<tag k="name" v="Leite" />
		<tag k="place" v="farm" />
		<tag k="ssr:stedsnr" v="952736" />
	</node>
	<node id="9844779692" lat="68.4145937" lon="14.8759112" version="1" timestamp="2022-06-24T18:34:38Z" changeset="122814165" uid="3497659" user="NKA">
		<tag k="name" v="Sløvra - Slurvvik" />
		<tag k="name:no" v="Sløvra" />
		<tag k="name:se" v="Slurvvik" />
		<tag k="place" v="hamlet" />
		<tag k="ssr:stedsnr" v="17319" />
	</node>
	<node id="9844779693" lat="68.4328041" lon="14.7277307" version="1" timestamp="2022-06-24T18:34:38Z" changeset="122814165" uid="3497659" user="NKA">
		<tag k="name" v="Strønstad - Strunstádik" />
		<tag k="name:no" v="Strønstad" />
		<tag k="name:se" v="Strunstádik" />
		<tag k="place" v="farm" />
		<tag k="ssr:stedsnr" v="1076199" />
	</node>
	<node id="9844779694" lat="68.3375675" lon="14.9489074" version="1" timestamp="2022-06-24T18:34:38Z" changeset="122814165" uid="3497659" user="NKA">
		<tag k="name" v="Brakset" />
		<tag k="place" v="farm" />
		<tag k="ssr:stedsnr" v="199424" />
	</node>
	<node id="9844779695" lat="68.3687941" lon="15.0310998" version="1" timestamp="2022-06-24T18:34:38Z" changeset="122814165" uid="3497659" user="NKA">
		<tag k="name" v="Svartsundet" />
		<tag k="place" v="farm" />
		<tag k="ssr:stedsnr" v="259925" />
	</node>
	<node id="9844779696" lat="68.4294698" lon="14.8598122" version="1" timestamp="2022-06-24T18:34:38Z" changeset="122814165" uid="3497659" user="NKA">
		<tag k="name" v="Årnøya" />
		<tag k="place" v="locality" />
		<tag k="ssr:stedsnr" v="1076198" />
	</node>
	<node id="9844779697" lat="68.3968646" lon="14.8265472" version="1" timestamp="2022-06-24T18:34:38Z" changeset="122814165" uid="3497659" user="NKA">
		<tag k="name" v="Brettvika" />
		<tag k="place" v="locality" />
		<tag k="ssr:stedsnr" v="1076196" />
	</node>
	<node id="9844779698" lat="68.5671973" lon="14.8496666" version="1" timestamp="2022-06-24T18:34:38Z" changeset="122814165" uid="3497659" user="NKA">
		<tag k="name" v="Bervika" />
		<tag k="place" v="hamlet" />
		<tag k="ssr:stedsnr" v="746919" />
	</node>
	<node id="9844779699" lat="68.5102824" lon="14.9192409" version="1" timestamp="2022-06-24T18:34:38Z" changeset="122814165" uid="3497659" user="NKA">
		<tag k="name" v="Innbjørg" />
		<tag k="place" v="farm" />
		<tag k="ssr:stedsnr" v="442958" />
	</node>
	<node id="9844779700" lat="68.504621" lon="15.3156386" version="1" timestamp="2022-06-24T18:34:38Z" changeset="122814165" uid="3497659" user="NKA">
		<tag k="name" v="Mellagården" />
		<tag k="place" v="farm" />
		<tag k="ssr:stedsnr" v="586020" />
	</node>
	<node id="9844779701" lat="68.5614889" lon="14.7396054" version="1" timestamp="2022-06-24T18:34:38Z" changeset="122814165" uid="3497659" user="NKA">
		<tag k="name" v="Løyken" />
		<tag k="place" v="farm" />
		<tag k="ssr:stedsnr" v="928921" />
	</node>
	<node id="9844779702" lat="68.588232" lon="14.8948714" version="1" timestamp="2022-06-24T18:34:38Z" changeset="122814165" uid="3497659" user="NKA">
		<tag k="name" v="Skogan" />
		<tag k="place" v="farm" />
		<tag k="ssr:stedsnr" v="701128" />
	</node>
	<node id="9844779703" lat="68.5734334" lon="14.8208583" version="1" timestamp="2022-06-24T18:34:38Z" changeset="122814165" uid="3497659" user="NKA">
		<tag k="name" v="Frydenlund" />
		<tag k="place" v="farm" />
		<tag k="ssr:stedsnr" v="745927" />
	</node>
	<node id="9844779704" lat="68.4680722" lon="15.4076307" version="1" timestamp="2022-06-24T18:34:38Z" changeset="122814165" uid="3497659" user="NKA">
		<tag k="name" v="Sætran" />
		<tag k="place" v="isolated_dwelling" />
		<tag k="ssr:stedsnr" v="521392" />
	</node>
	<node id="9844779705" lat="68.5574935" lon="14.619489" version="1" timestamp="2022-06-24T18:34:38Z" changeset="122814165" uid="3497659" user="NKA">
		<tag k="name" v="Storvik" />
		<tag k="place" v="farm" />
		<tag k="ssr:stedsnr" v="825548" />
	</node>
	<node id="9844779706" lat="68.5829889" lon="15.0375944" version="1" timestamp="2022-06-24T18:34:38Z" changeset="122814165" uid="3497659" user="NKA">
		<tag k="name" v="Skagen - Skáhki" />
		<tag k="name:no" v="Skagen" />
		<tag k="name:se" v="Skáhki" />
		<tag k="place" v="hamlet" />
		<tag k="ssr:stedsnr" v="381105" />
	</node>
	<node id="9844779707" lat="68.4556583" lon="14.8993889" version="1" timestamp="2022-06-24T18:34:38Z" changeset="122814165" uid="3497659" user="NKA">
		<tag k="name" v="Vassbakken" />
		<tag k="place" v="farm" />
		<tag k="ssr:stedsnr" v="77360" />
	</node>
	<node id="9844779708" lat="68.5704745" lon="15.3206065" version="1" timestamp="2022-06-24T18:34:38Z" changeset="122814165" uid="3497659" user="NKA">
		<tag k="name" v="Finnjorda" />
		<tag k="place" v="farm" />
		<tag k="ssr:stedsnr" v="502073" />
	</node>
	<node id="9844779709" lat="68.5889466" lon="14.8865325" version="1" timestamp="2022-06-24T18:34:38Z" changeset="122814165" uid="3497659" user="NKA">
		<tag k="name" v="Åsenden" />
		<tag k="place" v="farm" />
		<tag k="ssr:stedsnr" v="579123" />
	</node>
	<node id="9844779710" lat="68.5633067" lon="14.739543" version="1" timestamp="2022-06-24T18:34:38Z" changeset="122814165" uid="3497659" user="NKA">
		<tag k="alt_name" v="Vatndal" />
		<tag k="name" v="Vatndalen" />
		<tag k="place" v="farm" />
		<tag k="ssr:stedsnr" v="746902" />
	</node>
	<node id="9844779711" lat="68.5030857" lon="14.8790681" version="1" timestamp="2022-06-24T18:34:38Z" changeset="122814165" uid="3497659" user="NKA">
		<tag k="alt_name" v="Ekrene" />
		<tag k="name" v="Ekren" />
		<tag k="place" v="farm" />
		<tag k="ssr:stedsnr" v="503936" />
	</node>
	<node id="9844779712" lat="68.5952083" lon="14.846875" version="1" timestamp="2022-06-24T18:34:38Z" changeset="122814165" uid="3497659" user="NKA">
		<tag k="name" v="Solskinsvika" />
		<tag k="place" v="farm" />
		<tag k="ssr:stedsnr" v="745586" />
	</node>
	<node id="9844779713" lat="68.6043528" lon="15.0973917" version="1" timestamp="2022-06-24T18:34:38Z" changeset="122814165" uid="3497659" user="NKA">
		<tag k="alt_name" v="Tjørnboghøgda" />
		<tag k="name" v="Tjønnboghøgda" />
		<tag k="place" v="farm" />
		<tag k="ssr:stedsnr" v="684044" />
	</node>
	<node id="9844779714" lat="68.55884" lon="14.6817234" version="1" timestamp="2022-06-24T18:34:38Z" changeset="122814165" uid="3497659" user="NKA">
		<tag k="name" v="Dalen" />
		<tag k="place" v="locality" />
		<tag k="ssr:stedsnr" v="1076202" />
	</node>
	<node id="9844779715" lat="68.4322792" lon="14.6150645" version="1" timestamp="2022-06-24T18:34:38Z" changeset="122814165" uid="3497659" user="NKA">
		<tag k="name" v="Gammelgården" />
		<tag k="place" v="farm" />
		<tag k="ssr:stedsnr" v="161210" />
	</node>
	<node id="9844779716" lat="68.5260475" lon="14.7003378" version="1" timestamp="2022-06-24T18:34:38Z" changeset="122814165" uid="3497659" user="NKA">
		<tag k="alt_name" v="Ånnstad, in;Indre Ånstad" />
		<tag k="name" v="Indre Ånnstad" />
		<tag k="place" v="hamlet" />
		<tag k="ssr:stedsnr" v="504000" />
	</node>
	<node id="9844779717" lat="68.5031722" lon="14.7578416" version="1" timestamp="2022-06-24T18:34:38Z" changeset="122814165" uid="3497659" user="NKA">
		<tag k="name" v="Kroken" />
		<tag k="place" v="farm" />
		<tag k="ssr:stedsnr" v="944727" />
	</node>
	<node id="9844779718" lat="68.5756633" lon="14.6572297" version="1" timestamp="2022-06-24T18:34:38Z" changeset="122814165" uid="3497659" user="NKA">
		<tag k="name" v="Teigan" />
		<tag k="place" v="farm" />
		<tag k="ssr:stedsnr" v="867583" />
	</node>
	<node id="9844779719" lat="68.5027306" lon="15.3676166" version="1" timestamp="2022-06-24T18:34:38Z" changeset="122814165" uid="3497659" user="NKA">
		<tag k="name" v="Nordbotn" />
		<tag k="place" v="isolated_dwelling" />
		<tag k="ssr:stedsnr" v="642311" />
	</node>
	<node id="9844779720" lat="68.5826698" lon="14.6687265" version="1" timestamp="2022-06-24T18:34:38Z" changeset="122814165" uid="3497659" user="NKA">
		<tag k="alt_name" v="Røyrvika, nordre" />
		<tag k="name" v="Nordre Røyrvika" />
		<tag k="place" v="farm" />
		<tag k="ssr:stedsnr" v="442580" />
	</node>
	<node id="9844779721" lat="68.5275555" lon="14.6875916" version="1" timestamp="2022-06-24T18:34:38Z" changeset="122814165" uid="3497659" user="NKA">
		<tag k="name" v="Olshaugen" />
		<tag k="place" v="farm" />
		<tag k="ssr:stedsnr" v="398264" />
	</node>
	<node id="9844779722" lat="68.5011995" lon="14.8913947" version="1" timestamp="2022-06-24T18:34:38Z" changeset="122814165" uid="3497659" user="NKA">
		<tag k="name" v="Vassvika" />
		<tag k="place" v="farm" />
		<tag k="ssr:stedsnr" v="18956" />
	</node>
	<node id="9844779723" lat="68.509524" lon="15.2398636" version="1" timestamp="2022-06-24T18:34:38Z" changeset="122814165" uid="3497659" user="NKA">
		<tag k="name" v="Bogen" />
		<tag k="place" v="farm" />
		<tag k="ssr:stedsnr" v="78420" />
	</node>
	<node id="9844779724" lat="68.4816971" lon="15.2559597" version="1" timestamp="2022-06-24T18:34:38Z" changeset="122814165" uid="3497659" user="NKA">
		<tag k="name" v="Sommarset" />
		<tag k="place" v="hamlet" />
		<tag k="ssr:stedsnr" v="77728" />
	</node>
	<node id="9844779725" lat="68.5044101" lon="14.8420576" version="1" timestamp="2022-06-24T18:34:38Z" changeset="122814165" uid="3497659" user="NKA">
		<tag k="name" v="Gullstad" />
		<tag k="place" v="farm" />
		<tag k="ssr:stedsnr" v="867953" />
	</node>
	<node id="9844779726" lat="68.5054813" lon="14.8010081" version="1" timestamp="2022-06-24T18:34:38Z" changeset="122814165" uid="3497659" user="NKA">
		<tag k="name" v="Melbu" />
		<tag k="place" v="locality" />
		<tag k="ssr:stedsnr" v="1076205" />
	</node>
	<node id="9844779727" lat="68.5015007" lon="15.2418513" version="1" timestamp="2022-06-24T18:34:38Z" changeset="122814165" uid="3497659" user="NKA">
		<tag k="name" v="Dalelv" />
		<tag k="place" v="farm" />
		<tag k="ssr:stedsnr" v="746403" />
	</node>
	<node id="9844779728" lat="68.5797583" lon="14.6635389" version="1" timestamp="2022-06-24T18:34:38Z" changeset="122814165" uid="3497659" user="NKA">
		<tag k="name" v="Søre Røyrvika" />
		<tag k="place" v="farm" />
		<tag k="ssr:stedsnr" v="157448" />
	</node>
	<node id="9844779729" lat="68.5173528" lon="14.7106362" version="1" timestamp="2022-06-24T18:34:38Z" changeset="122814165" uid="3497659" user="NKA">
		<tag k="name" v="Stranda" />
		<tag k="place" v="farm" />
		<tag k="ssr:stedsnr" v="867945" />
	</node>
	<node id="9844779730" lat="68.5116377" lon="15.2678962" version="1" timestamp="2022-06-24T18:34:38Z" changeset="122814165" uid="3497659" user="NKA">
		<tag k="name" v="Tyttebærneset" />
		<tag k="old_name" v="Typernes" />
		<tag k="place" v="farm" />
		<tag k="ssr:stedsnr" v="624405" />
	</node>
	<node id="9844779731" lat="68.5773323" lon="14.6620514" version="1" timestamp="2022-06-24T18:34:38Z" changeset="122814165" uid="3497659" user="NKA">
		<tag k="name" v="Kongsteigan" />
		<tag k="place" v="farm" />
		<tag k="ssr:stedsnr" v="928542" />
	</node>
	<node id="9844779732" lat="68.5028815" lon="14.8557387" version="1" timestamp="2022-06-24T18:34:38Z" changeset="122814165" uid="3497659" user="NKA">
		<tag k="name" v="Husby" />
		<tag k="place" v="farm" />
		<tag k="ssr:stedsnr" v="78962" />
	</node>
	<node id="9844779733" lat="68.5024163" lon="15.2224473" version="1" timestamp="2022-06-24T18:34:38Z" changeset="122814165" uid="3497659" user="NKA">
		<tag k="name" v="Helgenes - Healggaláttik" />
		<tag k="name:no" v="Helgenes" />
		<tag k="name:se" v="Healggaláttik" />
		<tag k="place" v="hamlet" />
		<tag k="ssr:stedsnr" v="563395" />
	</node>
	<node id="9844779734" lat="68.5128696" lon="15.2437954" version="1" timestamp="2022-06-24T18:34:38Z" changeset="122814165" uid="3497659" user="NKA">
		<tag k="name" v="Ramnklubbvika" />
		<tag k="place" v="farm" />
		<tag k="ssr:stedsnr" v="563380" />
	</node>
	<node id="9844779735" lat="68.5752416" lon="14.7294638" version="1" timestamp="2022-06-24T18:34:38Z" changeset="122814165" uid="3497659" user="NKA">
		<tag k="alt_name" v="Breidvika" />
		<tag k="name" v="Breivika" />
		<tag k="place" v="hamlet" />
		<tag k="ssr:stedsnr" v="381928" />
	</node>
	<node id="9844779736" lat="68.5050678" lon="14.7462745" version="1" timestamp="2022-06-24T18:34:38Z" changeset="122814165" uid="3497659" user="NKA">
		<tag k="name" v="Haug" />
		<tag k="place" v="farm" />
		<tag k="ssr:stedsnr" v="18957" />
	</node>
	<node id="9844779737" lat="68.5878278" lon="14.8998994" version="1" timestamp="2022-06-24T18:34:38Z" changeset="122814165" uid="3497659" user="NKA">
		<tag k="name" v="Sandnes" />
		<tag k="place" v="quarter" />
		<tag k="ssr:stedsnr" v="17568" />
	</node>
	<node id="9844779738" lat="68.5682714" lon="14.857709" version="1" timestamp="2022-06-24T18:34:38Z" changeset="122814165" uid="3497659" user="NKA">
		<tag k="name" v="Nygård" />
		<tag k="place" v="farm" />
		<tag k="ssr:stedsnr" v="36586" />
	</node>
	<node id="9844779739" lat="68.5147368" lon="15.2628799" version="1" timestamp="2022-06-24T18:34:38Z" changeset="122814165" uid="3497659" user="NKA">
		<tag k="name" v="Hamneset" />
		<tag k="place" v="farm" />
		<tag k="ssr:stedsnr" v="381403" />
	</node>
	<node id="9844779740" lat="68.5527361" lon="14.9812195" version="1" timestamp="2022-06-24T18:34:38Z" changeset="122814165" uid="3497659" user="NKA">
		<tag k="name" v="Tomta" />
		<tag k="place" v="locality" />
		<tag k="ssr:stedsnr" v="823439" />
	</node>
	<node id="9844779741" lat="68.5644728" lon="14.8952188" version="1" timestamp="2022-06-24T18:34:38Z" changeset="122814165" uid="3497659" user="NKA">
		<tag k="name" v="Stokmarken" />
		<tag k="place" v="farm" />
		<tag k="ssr:stedsnr" v="1076259" />
	</node>
	<node id="9844779742" lat="68.5024371" lon="15.2446035" version="1" timestamp="2022-06-24T18:34:38Z" changeset="122814165" uid="3497659" user="NKA">
		<tag k="alt_name" v="Dalmo" />
		<tag k="name" v="Dalmoa" />
		<tag k="place" v="farm" />
		<tag k="ssr:stedsnr" v="624431" />
	</node>
	<node id="9844779743" lat="68.6064416" lon="15.1074278" version="1" timestamp="2022-06-24T18:34:38Z" changeset="122814165" uid="3497659" user="NKA">
		<tag k="name" v="Gryttingsnes" />
		<tag k="place" v="farm" />
		<tag k="ssr:stedsnr" v="822790" />
	</node>
	<node id="5314038184" lat="68.5647707" lon="14.7256207" version="1" timestamp="2017-12-31T20:26:16Z" changeset="55065669" uid="3296383" user="Reitstoen_import" />
	<node id="5314038186" lat="68.5647871" lon="14.7258485" version="1" timestamp="2017-12-31T20:26:16Z" changeset="55065669" uid="3296383" user="Reitstoen_import" />
	<node id="33595911" lat="68.5658364" lon="14.9155151" version="3" timestamp="2018-01-02T19:31:03Z" changeset="55109917" uid="3296383" user="Reitstoen_import" />
	<node id="5316931844" lat="68.5658563" lon="14.9155658" version="1" timestamp="2018-01-02T19:30:52Z" changeset="55109917" uid="3296383" user="Reitstoen_import" />
	<node id="5316932881" lat="68.5680873" lon="14.9210379" version="1" timestamp="2018-01-02T19:30:57Z" changeset="55109917" uid="3296383" user="Reitstoen_import" />
	<node id="33595930" lat="68.5697433" lon="14.985765" version="4" timestamp="2018-01-02T19:31:03Z" changeset="55109917" uid="3296383" user="Reitstoen_import" />
	<node id="893514328" lat="68.5699133" lon="14.9880072" version="3" timestamp="2018-01-02T19:31:04Z" changeset="55109917" uid="3296383" user="Reitstoen_import" />
	<node id="3377581052" lat="68.5698" lon="14.9867516" version="2" timestamp="2018-01-02T19:31:19Z" changeset="55109917" uid="3296383" user="Reitstoen_import" />
	<node id="5316932701" lat="68.5697542" lon="14.9859668" version="1" timestamp="2018-01-02T19:30:54Z" changeset="55109917" uid="3296383" user="Reitstoen_import" />
	<node id="5316932705" lat="68.5698612" lon="14.9874775" version="1" timestamp="2018-01-02T19:30:54Z" changeset="55109917" uid="3296383" user="Reitstoen_import" />
	<node id="33595931" lat="68.5700721" lon="14.9892064" version="3" timestamp="2018-01-02T19:31:03Z" changeset="55109917" uid="3296383" user="Reitstoen_import" />
	<node id="33595932" lat="68.570395" lon="14.9906361" version="3" timestamp="2018-01-02T19:31:04Z" changeset="55109917" uid="3296383" user="Reitstoen_import" />
	<node id="33595933" lat="68.5710112" lon="14.9923527" version="3" timestamp="2018-01-02T19:31:04Z" changeset="55109917" uid="3296383" user="Reitstoen_import" />
	<node id="33595934" lat="68.571805" lon="14.9938878" version="3" timestamp="2018-01-02T19:31:04Z" changeset="55109917" uid="3296383" user="Reitstoen_import" />
	<node id="893514053" lat="68.5714041" lon="14.9931595" version="2" timestamp="2018-01-02T19:31:04Z" changeset="55109917" uid="3296383" user="Reitstoen_import" />
	<node id="893514177" lat="68.5706848" lon="14.9915533" version="2" timestamp="2018-01-02T19:31:04Z" changeset="55109917" uid="3296383" user="Reitstoen_import" />
	<node id="893514356" lat="68.5702021" lon="14.9898465" version="2" timestamp="2018-01-02T19:31:04Z" changeset="55109917" uid="3296383" user="Reitstoen_import" />
	<node id="5316932709" lat="68.5699966" lon="14.9886939" version="1" timestamp="2018-01-02T19:30:55Z" changeset="55109917" uid="3296383" user="Reitstoen_import" />
	<node id="5316932719" lat="68.5705834" lon="14.9912541" version="1" timestamp="2018-01-02T19:30:55Z" changeset="55109917" uid="3296383" user="Reitstoen_import" />
	<node id="5316932723" lat="68.570779" lon="14.9918107" version="1" timestamp="2018-01-02T19:30:55Z" changeset="55109917" uid="3296383" user="Reitstoen_import" />
	<node id="5316932727" lat="68.5711799" lon="14.9927107" version="1" timestamp="2018-01-02T19:30:55Z" changeset="55109917" uid="3296383" user="Reitstoen_import" />
	<node id="5316932729" lat="68.5712741" lon="14.9928897" version="1" timestamp="2018-01-02T19:30:55Z" changeset="55109917" uid="3296383" user="Reitstoen_import" />
	<node id="5316932735" lat="68.5716715" lon="14.9936352" version="1" timestamp="2018-01-02T19:30:55Z" changeset="55109917" uid="3296383" user="Reitstoen_import" />
	<node id="33595935" lat="68.5733953" lon="14.9961441" version="3" timestamp="2018-01-02T19:31:04Z" changeset="55109917" uid="3296383" user="Reitstoen_import" />
	<node id="893514079" lat="68.5729684" lon="14.9955996" version="3" timestamp="2018-01-02T19:31:04Z" changeset="55109917" uid="3296383" user="Reitstoen_import" />
	<node id="3377581056" lat="68.5725522" lon="14.9950282" version="2" timestamp="2018-01-02T19:31:19Z" changeset="55109917" uid="3296383" user="Reitstoen_import" />
	<node id="5316932739" lat="68.5723871" lon="14.9948026" version="1" timestamp="2018-01-02T19:30:55Z" changeset="55109917" uid="3296383" user="Reitstoen_import" />
	<node id="5316932744" lat="68.5726929" lon="14.995244" version="1" timestamp="2018-01-02T19:30:55Z" changeset="55109917" uid="3296383" user="Reitstoen_import" />
	<node id="5316932745" lat="68.5728274" lon="14.9954353" version="1" timestamp="2018-01-02T19:30:55Z" changeset="55109917" uid="3296383" user="Reitstoen_import" />
	<node id="5316932748" lat="68.5731225" lon="14.9958081" version="1" timestamp="2018-01-02T19:30:55Z" changeset="55109917" uid="3296383" user="Reitstoen_import" />
	<node id="33595936" lat="68.5743791" lon="14.9971104" version="4" timestamp="2018-01-02T19:31:04Z" changeset="55109917" uid="3296383" user="Reitstoen_import" />
	<node id="893514253" lat="68.5741621" lon="14.9969191" version="3" timestamp="2018-01-02T19:31:04Z" changeset="55109917" uid="3296383" user="Reitstoen_import" />
	<node id="3377560565" lat="68.5768419" lon="14.9989444" version="2" timestamp="2018-01-02T17:44:29Z" changeset="55107263" uid="3296383" user="Reitstoen_import" />
	<node id="3377581057" lat="68.5752221" lon="14.997753" version="2" timestamp="2018-01-02T19:31:19Z" changeset="55109917" uid="3296383" user="Reitstoen_import" />
	<node id="5316932753" lat="68.5736957" lon="14.9964482" version="1" timestamp="2018-01-02T19:30:55Z" changeset="55109917" uid="3296383" user="Reitstoen_import" />
	<node id="5316932755" lat="68.5738051" lon="14.9965732" version="1" timestamp="2018-01-02T19:30:55Z" changeset="55109917" uid="3296383" user="Reitstoen_import" />
	<node id="5316932761" lat="68.5750141" lon="14.9976107" version="1" timestamp="2018-01-02T19:30:55Z" changeset="55109917" uid="3296383" user="Reitstoen_import" />
	<node id="5316932766" lat="68.5758087" lon="14.998192" version="1" timestamp="2018-01-02T19:30:55Z" changeset="55109917" uid="3296383" user="Reitstoen_import" />
	<node id="5316932768" lat="68.5760456" lon="14.9983588" version="1" timestamp="2018-01-02T19:30:56Z" changeset="55109917" uid="3296383" user="Reitstoen_import" />
	<node id="5316932770" lat="68.5761271" lon="14.9984324" version="1" timestamp="2018-01-02T19:30:56Z" changeset="55109917" uid="3296383" user="Reitstoen_import" />
	<node id="5316932772" lat="68.5767712" lon="14.9988862" version="1" timestamp="2018-01-02T19:30:56Z" changeset="55109917" uid="3296383" user="Reitstoen_import" />
	<node id="273451381" lat="68.4585754" lon="15.1842955" version="6" timestamp="2017-12-30T20:03:43Z" changeset="55043702" uid="3296383" user="Reitstoen_import" />
	<node id="5312502790" lat="68.458726" lon="15.1835953" version="1" timestamp="2017-12-30T20:03:31Z" changeset="55043702" uid="3296383" user="Reitstoen_import" />
	<node id="273451380" lat="68.4575425" lon="15.1899097" version="5" timestamp="2017-12-30T20:03:43Z" changeset="55043702" uid="3296383" user="Reitstoen_import" />
	<node id="1753149564" lat="68.4577562" lon="15.1886483" version="2" timestamp="2017-12-30T20:03:56Z" changeset="55043702" uid="3296383" user="Reitstoen_import" />
	<node id="1753149566" lat="68.4581469" lon="15.1864769" version="2" timestamp="2017-12-30T20:03:56Z" changeset="55043702" uid="3296383" user="Reitstoen_import" />
	<node id="5312502798" lat="68.4579567" lon="15.1875142" version="1" timestamp="2017-12-30T20:03:31Z" changeset="55043702" uid="3296383" user="Reitstoen_import" />
	<node id="5312502799" lat="68.4583664" lon="15.1853351" version="1" timestamp="2017-12-30T20:03:31Z" changeset="55043702" uid="3296383" user="Reitstoen_import" />
	<node id="1753149558" lat="68.456511" lon="15.1971858" version="2" timestamp="2017-12-30T20:03:56Z" changeset="55043702" uid="3296383" user="Reitstoen_import" />
	<node id="1753149560" lat="68.4569021" lon="15.1941572" version="2" timestamp="2017-12-30T20:03:56Z" changeset="55043702" uid="3296383" user="Reitstoen_import" />
	<node id="1753149562" lat="68.4572469" lon="15.1917618" version="2" timestamp="2017-12-30T20:03:56Z" changeset="55043702" uid="3296383" user="Reitstoen_import" />
	<node id="5312502800" lat="68.4570602" lon="15.1930353" version="1" timestamp="2017-12-30T20:03:31Z" changeset="55043702" uid="3296383" user="Reitstoen_import" />
	<node id="5312502802" lat="68.4567093" lon="15.1955714" version="1" timestamp="2017-12-30T20:03:31Z" changeset="55043702" uid="3296383" user="Reitstoen_import" />
	<node id="5312502804" lat="68.4562263" lon="15.1997278" version="1" timestamp="2017-12-30T20:03:31Z" changeset="55043702" uid="3296383" user="Reitstoen_import" />
	<node id="5312502805" lat="68.4563141" lon="15.1988652" version="1" timestamp="2017-12-30T20:03:31Z" changeset="55043702" uid="3296383" user="Reitstoen_import" />
	<node id="5312502806" lat="68.4562306" lon="15.1996853" version="1" timestamp="2017-12-30T20:03:31Z" changeset="55043702" uid="3296383" user="Reitstoen_import" />
	<way id="5030197" version="11" timestamp="2022-01-24T06:56:00Z" changeset="116526664" uid="3497659" user="NKA">
		<tag k="bridge" v="yes" />
		<tag k="bridge:structure" v="beam" />
		<tag k="highway" v="primary" />
		<tag k="lanes" v="2" />
		<tag k="layer" v="1" />
		<tag k="lit" v="yes" />
		<tag k="maxspeed" v="50" />
		<tag k="name" v="Børøybrua" />
		<tag k="ref" v="82" />
		<tag k="sidewalk" v="none" />
		<tag k="source:maxspeed" v="sign" />
		<tag k="ssr:stedsnr" v="238566" />
		<tag k="surface" v="asphalt" />
		<tag k="width" v="7" />
		<tag k="wikidata" v="Q4588847" />
		<nd ref="33595911" />
		<nd ref="5316931844" />
		<nd ref="5316932881" />
	</way>
	<way id="25115803" version="9" timestamp="2022-01-24T06:56:00Z" changeset="116526664" uid="3497659" user="NKA">
		<tag k="bridge" v="yes" />
		<tag k="bridge:structure" v="beam" />
		<tag k="highway" v="trunk" />
		<tag k="lanes" v="2" />
		<tag k="layer" v="1" />
		<tag k="lit" v="no" />
		<tag k="loc_name" v="Raftsundbrua" />
		<tag k="maxspeed" v="80" />
		<tag k="name" v="Raftsundet bru" />
		<tag k="ref" v="E 10" />
		<tag k="sidewalk" v="right" />
		<tag k="source:maxspeed" v="NO:rural" />
		<tag k="ssr:stedsnr" v="724030" />
		<tag k="surface" v="asphalt" />
		<tag k="width" v="7" />
		<tag k="wikidata" v="Q1301447" />
		<nd ref="5312502790" />
		<nd ref="273451381" />
		<nd ref="5312502799" />
		<nd ref="1753149566" />
		<nd ref="5312502798" />
		<nd ref="1753149564" />
		<nd ref="273451380" />
		<nd ref="1753149562" />
		<nd ref="5312502800" />
		<nd ref="1753149560" />
		<nd ref="5312502802" />
		<nd ref="1753149558" />
		<nd ref="5312502805" />
		<nd ref="5312502806" />
		<nd ref="5312502804" />
	</way>
	<way id="330759710" version="4" timestamp="2022-01-24T06:56:00Z" changeset="116526664" uid="3497659" user="NKA">
		<tag k="bridge" v="yes" />
		<tag k="bridge:structure" v="beam" />
		<tag k="highway" v="primary" />
		<tag k="lanes" v="2" />
		<tag k="layer" v="1" />
		<tag k="lit" v="yes" />
		<tag k="maxspeed" v="80" />
		<tag k="name" v="Hadselbrua" />
		<tag k="ref" v="82" />
		<tag k="sidewalk" v="both" />
		<tag k="source:maxspeed" v="NO:rural" />
		<tag k="ssr:stedsnr" v="400639" />
		<tag k="surface" v="asphalt" />
		<tag k="width" v="7" />
		<tag k="wikidata" v="Q3320115" />
		<nd ref="33595930" />
		<nd ref="5316932701" />
		<nd ref="3377581052" />
		<nd ref="5316932705" />
		<nd ref="893514328" />
		<nd ref="5316932709" />
		<nd ref="33595931" />
		<nd ref="893514356" />
		<nd ref="33595932" />
		<nd ref="5316932719" />
		<nd ref="893514177" />
		<nd ref="5316932723" />
		<nd ref="33595933" />
		<nd ref="5316932727" />
		<nd ref="5316932729" />
		<nd ref="893514053" />
		<nd ref="5316932735" />
		<nd ref="33595934" />
		<nd ref="5316932739" />
		<nd ref="3377581056" />
		<nd ref="5316932744" />
		<nd ref="5316932745" />
		<nd ref="893514079" />
		<nd ref="5316932748" />
		<nd ref="33595935" />
		<nd ref="5316932753" />
		<nd ref="5316932755" />
		<nd ref="893514253" />
		<nd ref="33595936" />
		<nd ref="5316932761" />
		<nd ref="3377581057" />
		<nd ref="5316932766" />
		<nd ref="5316932768" />
		<nd ref="5316932770" />
		<nd ref="5316932772" />
		<nd ref="3377560565" />
	</way>
	<way id="550171206" version="2" timestamp="2022-01-24T06:56:00Z" changeset="116526664" uid="3497659" user="NKA">
		<tag k="bridge" v="yes" />
		<tag k="highway" v="unclassified" />
		<tag k="layer" v="1" />
		<tag k="name" v="Kubrua" />
		<tag k="ssr:stedsnr" v="601429" />
		<nd ref="5314038186" />
		<nd ref="5314038184" />
	</way>
</osm>
