<?xml version="1.0" encoding="UTF-8"?>
<osm version="0.6" generator="osmapis">
	<node id="31264153" lat="62.3426629" lon="5.84686" version="12" timestamp="2022-08-14T17:23:25Z" changeset="124896780" uid="3497659" user="NKA">
		<tag k="name" v="Ulsteinvik" />
		<tag k="place" v="town" />
		<tag k="population" v="5929" />
		<tag k="population:date" v="2021-01-01" />
		<tag k="ref:ssb_tettsted" v="6051" />
		<tag k="source:population" v="SSB - befolkning i tettstedet" />
		<tag k="ssr:stedsnr" v="314818" />
	</node>
	<node id="6216710684" lat="62.2527364" lon="5.8934137" version="2" timestamp="2022-08-14T17:23:25Z" changeset="124896780" uid="3497659" user="NKA">
		<tag k="name" v="Eiksund" />
		<tag k="place" v="village" />
		<tag k="ssr:stedsnr" v="25614" />
	</node>
	<node id="7023236644" lat="62.2821382" lon="5.8684802" version="2" timestamp="2022-01-26T07:34:57Z" changeset="116611763" uid="3497659" user="NKA">
		<tag k="junction" v="yes" />
		<tag k="name" v="Haddalskrysset" />
		<tag k="ssr:stedsnr" v="988839" />
	</node>
	<node id="7023237775" lat="62.3385839" lon="5.8704776" version="2" timestamp="2022-01-26T07:34:57Z" changeset="116611763" uid="3497659" user="NKA">
		<tag k="junction" v="yes" />
		<tag k="name" v="Dalakrysset" />
		<tag k="ssr:stedsnr" v="988834" />
	</node>
	<node id="7023237822" lat="62.3558414" lon="5.8251613" version="2" timestamp="2022-01-26T07:34:57Z" changeset="116611763" uid="3497659" user="NKA">
		<tag k="junction" v="yes" />
		<tag k="name" v="Skeidekrysset" />
		<tag k="ssr:stedsnr" v="988820" />
	</node>
	<node id="7023238054" lat="62.3452444" lon="5.8512855" version="2" timestamp="2022-01-26T07:34:57Z" changeset="116611763" uid="3497659" user="NKA">
		<tag k="junction" v="yes" />
		<tag k="name" v="Skulekrysset" />
		<tag k="ssr:stedsnr" v="988826" />
	</node>
	<node id="7023238063" lat="62.3456519" lon="5.8533355" version="2" timestamp="2022-01-26T07:34:57Z" changeset="116611763" uid="3497659" user="NKA">
		<tag k="junction" v="yes" />
		<tag k="name" v="Vikebakkrysset" />
		<tag k="ssr:stedsnr" v="988827" />
	</node>
	<node id="7023241112" lat="62.3434342" lon="5.8716019" version="2" timestamp="2022-01-26T07:34:57Z" changeset="116611763" uid="3497659" user="NKA">
		<tag k="junction" v="yes" />
		<tag k="name" v="Hovsetkrysset" />
		<tag k="ssr:stedsnr" v="988829" />
	</node>
	<node id="7023245151" lat="62.3158949" lon="5.8407945" version="2" timestamp="2022-01-26T07:34:57Z" changeset="116611763" uid="3497659" user="NKA">
		<tag k="junction" v="yes" />
		<tag k="name" v="Sundgotkrysset" />
		<tag k="ssr:stedsnr" v="988837" />
	</node>
	<node id="7023245609" lat="62.3405774" lon="5.8928128" version="2" timestamp="2022-01-26T07:34:57Z" changeset="116611763" uid="3497659" user="NKA">
		<tag k="junction" v="yes" />
		<tag k="name" v="Varleitekrysset" />
		<tag k="ssr:stedsnr" v="988830" />
	</node>
	<node id="7023245654" lat="62.3373617" lon="5.873536" version="2" timestamp="2022-01-26T07:34:57Z" changeset="116611763" uid="3497659" user="NKA">
		<tag k="junction" v="yes" />
		<tag k="name" v="Holsekerkrysset" />
		<tag k="ssr:stedsnr" v="988833" />
	</node>
	<node id="7102203030" lat="62.3256077" lon="5.8018213" version="2" timestamp="2022-08-14T17:23:25Z" changeset="124896780" uid="3497659" user="NKA">
		<tag k="name" v="Dimna" />
		<tag k="place" v="hamlet" />
		<tag k="population" v="232" />
		<tag k="population:date" v="2019-01-01" />
		<tag k="ref:ssb_tettsted" v="6054" />
		<tag k="ssr:stedsnr" v="476807" />
	</node>
	<node id="9449229810" lat="62.3186645" lon="5.8659858" version="1" timestamp="2022-01-26T07:34:57Z" changeset="116611763" uid="3497659" user="NKA">
		<tag k="junction" v="yes" />
		<tag k="name" v="Hasundkrysset" />
		<tag k="ssr:stedsnr" v="988836" />
	</node>
	<node id="9449229811" lat="62.3446741" lon="5.8366397" version="1" timestamp="2022-01-26T07:34:57Z" changeset="116611763" uid="3497659" user="NKA">
		<tag k="junction" v="yes" />
		<tag k="name" v="Osneskrysset" />
		<tag k="ssr:stedsnr" v="988822" />
	</node>
	<node id="9449229812" lat="62.3380807" lon="5.8816418" version="1" timestamp="2022-01-26T07:34:57Z" changeset="116611763" uid="3497659" user="NKA">
		<tag k="junction" v="yes" />
		<tag k="name" v="Saunesmarkkrysset" />
		<tag k="ssr:stedsnr" v="988832" />
	</node>
	<node id="9449229813" lat="62.3421679" lon="5.867461" version="1" timestamp="2022-01-26T07:34:57Z" changeset="116611763" uid="3497659" user="NKA">
		<tag k="junction" v="yes" />
		<tag k="name" v="Støylekrysset" />
		<tag k="ssr:stedsnr" v="988828" />
	</node>
	<node id="9449229814" lat="62.3456308" lon="5.8353227" version="1" timestamp="2022-01-26T07:34:57Z" changeset="116611763" uid="3497659" user="NKA">
		<tag k="junction" v="yes" />
		<tag k="name" v="Reitenkrysset" />
		<tag k="ssr:stedsnr" v="988821" />
	</node>
	<node id="9449229815" lat="62.3392213" lon="5.8860742" version="1" timestamp="2022-01-26T07:34:57Z" changeset="116611763" uid="3497659" user="NKA">
		<tag k="junction" v="yes" />
		<tag k="name" v="Høddkrysset" />
		<tag k="ssr:stedsnr" v="988831" />
	</node>
	<node id="9953104771" lat="62.3273946" lon="5.8331592" version="1" timestamp="2022-08-14T17:23:25Z" changeset="124896780" uid="3497659" user="NKA">
		<tag k="name" v="Skjervane" />
		<tag k="place" v="farm" />
		<tag k="ssr:stedsnr" v="217416" />
	</node>
	<node id="9953104772" lat="62.3297818" lon="5.8283277" version="1" timestamp="2022-08-14T17:23:25Z" changeset="124896780" uid="3497659" user="NKA">
		<tag k="name" v="Tueneset" />
		<tag k="place" v="farm" />
		<tag k="ssr:stedsnr" v="763442" />
	</node>
	<node id="9953104773" lat="62.3411587" lon="5.8544868" version="1" timestamp="2022-08-14T17:23:25Z" changeset="124896780" uid="3497659" user="NKA">
		<tag k="name" v="Bakken" />
		<tag k="place" v="neighbourhood" />
		<tag k="ssr:stedsnr" v="581464" />
	</node>
	<node id="9953104774" lat="62.3479923" lon="5.8291588" version="1" timestamp="2022-08-14T17:23:25Z" changeset="124896780" uid="3497659" user="NKA">
		<tag k="name" v="Vollane" />
		<tag k="place" v="neighbourhood" />
		<tag k="ssr:stedsnr" v="521433" />
	</node>
	<node id="9953104775" lat="62.3315504" lon="5.7995324" version="1" timestamp="2022-08-14T17:23:25Z" changeset="124896780" uid="3497659" user="NKA">
		<tag k="name" v="Spjutøya" />
		<tag k="place" v="farm" />
		<tag k="ssr:stedsnr" v="982528" />
	</node>
	<node id="9953104776" lat="62.2967551" lon="5.911678" version="1" timestamp="2022-08-14T17:23:25Z" changeset="124896780" uid="3497659" user="NKA">
		<tag k="name" v="Moldskred" />
		<tag k="place" v="hamlet" />
		<tag k="ssr:stedsnr" v="11142" />
	</node>
	<node id="9953104777" lat="62.28899" lon="5.8938854" version="1" timestamp="2022-08-14T17:23:25Z" changeset="124896780" uid="3497659" user="NKA">
		<tag k="name" v="Ringstad" />
		<tag k="place" v="hamlet" />
		<tag k="ssr:stedsnr" v="11120" />
	</node>
	<node id="9953104778" lat="62.3276888" lon="5.8188259" version="1" timestamp="2022-08-14T17:23:25Z" changeset="124896780" uid="3497659" user="NKA">
		<tag k="alt_name" v="Våge" />
		<tag k="name" v="Vågane" />
		<tag k="place" v="hamlet" />
		<tag k="ssr:stedsnr" v="678775" />
	</node>
	<node id="9953104779" lat="62.3146249" lon="5.8612856" version="1" timestamp="2022-08-14T17:23:25Z" changeset="124896780" uid="3497659" user="NKA">
		<tag k="name" v="Hansgjerdet" />
		<tag k="place" v="farm" />
		<tag k="ssr:stedsnr" v="460478" />
	</node>
	<node id="9953104780" lat="62.2979944" lon="5.9173837" version="1" timestamp="2022-08-14T17:23:25Z" changeset="124896780" uid="3497659" user="NKA">
		<tag k="name" v="Framtun" />
		<tag k="place" v="farm" />
		<tag k="ssr:stedsnr" v="193144" />
	</node>
	<node id="9953104781" lat="62.3486757" lon="5.8256931" version="1" timestamp="2022-08-14T17:23:25Z" changeset="124896780" uid="3497659" user="NKA">
		<tag k="name" v="Halsen" />
		<tag k="place" v="locality" />
		<tag k="ssr:stedsnr" v="597801" />
	</node>
	<node id="9953104782" lat="62.3262332" lon="5.8136999" version="1" timestamp="2022-08-14T17:23:25Z" changeset="124896780" uid="3497659" user="NKA">
		<tag k="name" v="Vågeskaret" />
		<tag k="place" v="farm" />
		<tag k="ssr:stedsnr" v="156549" />
	</node>
	<node id="9953104783" lat="62.3073063" lon="5.8210285" version="1" timestamp="2022-08-14T17:23:25Z" changeset="124896780" uid="3497659" user="NKA">
		<tag k="name" v="Kjerringneset" />
		<tag k="place" v="farm" />
		<tag k="ssr:stedsnr" v="96666" />
	</node>
	<node id="9953104784" lat="62.305229" lon="5.9291214" version="1" timestamp="2022-08-14T17:23:25Z" changeset="124896780" uid="3497659" user="NKA">
		<tag k="name" v="Løset" />
		<tag k="place" v="farm" />
		<tag k="ssr:stedsnr" v="846116" />
	</node>
	<node id="9953104785" lat="62.4121777" lon="5.9257031" version="1" timestamp="2022-08-14T17:23:25Z" changeset="124896780" uid="3497659" user="NKA">
		<tag k="name" v="Støylen" />
		<tag k="place" v="locality" />
		<tag k="ssr:stedsnr" v="703495" />
	</node>
	<node id="9953104786" lat="62.2577584" lon="5.918242" version="1" timestamp="2022-08-14T17:23:25Z" changeset="124896780" uid="3497659" user="NKA">
		<tag k="alt_name" v="Gjerde" />
		<tag k="name" v="Gjerdet" />
		<tag k="place" v="farm" />
		<tag k="ssr:stedsnr" v="495224" />
	</node>
	<node id="9953104787" lat="62.36735" lon="5.8225476" version="1" timestamp="2022-08-14T17:23:25Z" changeset="124896780" uid="3497659" user="NKA">
		<tag k="name" v="Ivagarden" />
		<tag k="place" v="farm" />
		<tag k="ssr:stedsnr" v="10850" />
	</node>
	<node id="9953104788" lat="62.3592536" lon="5.8227239" version="1" timestamp="2022-08-14T17:23:25Z" changeset="124896780" uid="3497659" user="NKA">
		<tag k="name" v="Ulstein" />
		<tag k="place" v="hamlet" />
		<tag k="ssr:stedsnr" v="71896" />
	</node>
	<node id="9953104789" lat="62.3974916" lon="5.9105003" version="1" timestamp="2022-08-14T17:23:25Z" changeset="124896780" uid="3497659" user="NKA">
		<tag k="name" v="Høgestøylen" />
		<tag k="place" v="locality" />
		<tag k="ssr:stedsnr" v="338628" />
	</node>
	<node id="9953104790" lat="62.3033924" lon="5.8053857" version="1" timestamp="2022-08-14T17:23:25Z" changeset="124896780" uid="3497659" user="NKA">
		<tag k="name" v="Ertesvåg" />
		<tag k="place" v="hamlet" />
		<tag k="ssr:stedsnr" v="678745" />
	</node>
	<node id="9953104791" lat="62.3153003" lon="5.8366134" version="1" timestamp="2022-08-14T17:23:25Z" changeset="124896780" uid="3497659" user="NKA">
		<tag k="name" v="Legene" />
		<tag k="place" v="farm" />
		<tag k="ssr:stedsnr" v="703457" />
	</node>
	<node id="9953104792" lat="62.2813048" lon="5.8675646" version="1" timestamp="2022-08-14T17:23:25Z" changeset="124896780" uid="3497659" user="NKA">
		<tag k="name" v="Røysane" />
		<tag k="place" v="farm" />
		<tag k="ssr:stedsnr" v="763466" />
	</node>
	<node id="9953104793" lat="62.3444195" lon="5.8560643" version="1" timestamp="2022-08-14T17:23:25Z" changeset="124896780" uid="3497659" user="NKA">
		<tag k="name" v="Låna" />
		<tag k="place" v="neighbourhood" />
		<tag k="ssr:stedsnr" v="338355" />
	</node>
	<node id="9953104794" lat="62.3728319" lon="5.8218135" version="1" timestamp="2022-08-14T17:23:25Z" changeset="124896780" uid="3497659" user="NKA">
		<tag k="name" v="Nordre Ulstein" />
		<tag k="place" v="farm" />
		<tag k="ssr:stedsnr" v="537864" />
	</node>
	<node id="9953104795" lat="62.2910581" lon="5.8534637" version="1" timestamp="2022-08-14T17:23:25Z" changeset="124896780" uid="3497659" user="NKA">
		<tag k="name" v="Austre Garnes" />
		<tag k="place" v="farm" />
		<tag k="ssr:stedsnr" v="658785" />
	</node>
	<node id="9953104796" lat="62.3433694" lon="5.8282819" version="1" timestamp="2022-08-14T17:23:25Z" changeset="124896780" uid="3497659" user="NKA">
		<tag k="name" v="Osnes" />
		<tag k="place" v="hamlet" />
		<tag k="ssr:stedsnr" v="556848" />
	</node>
	<node id="9953104797" lat="62.3280555" lon="5.8347753" version="1" timestamp="2022-08-14T17:23:25Z" changeset="124896780" uid="3497659" user="NKA">
		<tag k="name" v="Gjerdet" />
		<tag k="place" v="farm" />
		<tag k="ssr:stedsnr" v="314812" />
	</node>
	<node id="9953104798" lat="62.2772429" lon="5.8743229" version="1" timestamp="2022-08-14T17:23:25Z" changeset="124896780" uid="3497659" user="NKA">
		<tag k="alt_name" v="Haddal, indre" />
		<tag k="name" v="Indre Haddal" />
		<tag k="place" v="farm" />
		<tag k="ssr:stedsnr" v="131181" />
	</node>
	<node id="9953104799" lat="62.2904083" lon="5.8575448" version="1" timestamp="2022-08-14T17:23:25Z" changeset="124896780" uid="3497659" user="NKA">
		<tag k="name" v="Elvebakken" />
		<tag k="place" v="farm" />
		<tag k="ssr:stedsnr" v="496132" />
	</node>
	<node id="9953104800" lat="62.2934927" lon="5.9057604" version="1" timestamp="2022-08-14T17:23:25Z" changeset="124896780" uid="3497659" user="NKA">
		<tag k="name" v="Svora" />
		<tag k="place" v="farm" />
		<tag k="ssr:stedsnr" v="156418" />
	</node>
	<node id="9953104801" lat="62.2529793" lon="5.8852011" version="1" timestamp="2022-08-14T17:23:25Z" changeset="124896780" uid="3497659" user="NKA">
		<tag k="name" v="Hasletun" />
		<tag k="old_name" v="&quot;HADERHEIM&quot;" />
		<tag k="place" v="isolated_dwelling" />
		<tag k="ssr:stedsnr" v="1085374" />
	</node>
	<node id="9953104802" lat="62.2568383" lon="5.9141091" version="1" timestamp="2022-08-14T17:23:25Z" changeset="124896780" uid="3497659" user="NKA">
		<tag k="alt_name" v="Ødegård" />
		<tag k="name" v="Øygarden" />
		<tag k="place" v="hamlet" />
		<tag k="ssr:stedsnr" v="10210" />
	</node>
	<node id="9953104803" lat="62.2920917" lon="5.9028808" version="1" timestamp="2022-08-14T17:23:25Z" changeset="124896780" uid="3497659" user="NKA">
		<tag k="name" v="Berg" />
		<tag k="place" v="farm" />
		<tag k="ssr:stedsnr" v="861125" />
	</node>
	<node id="9953104804" lat="62.3150889" lon="5.8236087" version="1" timestamp="2022-08-14T17:23:25Z" changeset="124896780" uid="3497659" user="NKA">
		<tag k="name" v="Høgtun" />
		<tag k="place" v="farm" />
		<tag k="ssr:stedsnr" v="617816" />
	</node>
	<node id="9953104805" lat="62.317835" lon="5.8354414" version="1" timestamp="2022-08-14T17:23:25Z" changeset="124896780" uid="3497659" user="NKA">
		<tag k="name" v="Åsen" />
		<tag k="place" v="farm" />
		<tag k="ssr:stedsnr" v="399460" />
	</node>
	<node id="9953104806" lat="62.3165285" lon="5.858985" version="1" timestamp="2022-08-14T17:23:25Z" changeset="124896780" uid="3497659" user="NKA">
		<tag k="name" v="Hasund" />
		<tag k="place" v="hamlet" />
		<tag k="ssr:stedsnr" v="496773" />
	</node>
	<node id="9953104807" lat="62.248501" lon="5.9093812" version="1" timestamp="2022-08-14T17:23:25Z" changeset="124896780" uid="3497659" user="NKA">
		<tag k="alt_name" v="Sunde" />
		<tag k="name" v="Sundet" />
		<tag k="place" v="hamlet" />
		<tag k="ssr:stedsnr" v="193132" />
	</node>
	<node id="9953104808" lat="62.2833932" lon="5.8716409" version="1" timestamp="2022-08-14T17:23:25Z" changeset="124896780" uid="3497659" user="NKA">
		<tag k="name" v="Bakkane" />
		<tag k="place" v="farm" />
		<tag k="ssr:stedsnr" v="278478" />
	</node>
	<node id="9953104809" lat="62.3955621" lon="5.8442546" version="1" timestamp="2022-08-14T17:23:25Z" changeset="124896780" uid="3497659" user="NKA">
		<tag k="alt_name" v="Roppane" />
		<tag k="name" v="Roppe" />
		<tag k="place" v="hamlet" />
		<tag k="ssr:stedsnr" v="557870" />
	</node>
	<node id="9953104810" lat="62.3419318" lon="5.8612618" version="1" timestamp="2022-08-14T17:23:25Z" changeset="124896780" uid="3497659" user="NKA">
		<tag k="name" v="Hovset" />
		<tag k="place" v="neighbourhood" />
		<tag k="ssr:stedsnr" v="460483" />
	</node>
	<node id="9953104811" lat="62.2798073" lon="5.8771124" version="1" timestamp="2022-08-14T17:23:25Z" changeset="124896780" uid="3497659" user="NKA">
		<tag k="alt_name" v="Myra" />
		<tag k="name" v="Myrane" />
		<tag k="place" v="neighbourhood" />
		<tag k="ssr:stedsnr" v="738189" />
	</node>
	<node id="9953104812" lat="62.2370139" lon="5.8913004" version="1" timestamp="2022-08-14T17:23:25Z" changeset="124896780" uid="3497659" user="NKA">
		<tag k="name" v="Einehola" />
		<tag k="place" v="farm" />
		<tag k="ssr:stedsnr" v="921169" />
	</node>
	<node id="9953104813" lat="62.3731639" lon="5.8362948" version="1" timestamp="2022-08-14T17:23:25Z" changeset="124896780" uid="3497659" user="NKA">
		<tag k="name" v="Langerysta" />
		<tag k="place" v="isolated_dwelling" />
		<tag k="ssr:stedsnr" v="399614" />
	</node>
	<node id="9953104814" lat="62.3755139" lon="5.8205032" version="1" timestamp="2022-08-14T17:23:25Z" changeset="124896780" uid="3497659" user="NKA">
		<tag k="name" v="Plassen" />
		<tag k="place" v="farm" />
		<tag k="ssr:stedsnr" v="799915" />
	</node>
	<node id="9953104815" lat="62.3383046" lon="5.8505376" version="1" timestamp="2022-08-14T17:23:25Z" changeset="124896780" uid="3497659" user="NKA">
		<tag k="name" v="Saunes" />
		<tag k="place" v="neighbourhood" />
		<tag k="ssr:stedsnr" v="496832" />
	</node>
	<node id="9953104816" lat="62.3057208" lon="5.8105336" version="1" timestamp="2022-08-14T17:23:25Z" changeset="124896780" uid="3497659" user="NKA">
		<tag k="name" v="Stranda" />
		<tag k="place" v="farm" />
		<tag k="ssr:stedsnr" v="338360" />
	</node>
	<node id="9953121417" lat="62.4033751" lon="5.8588577" version="1" timestamp="2022-08-14T17:23:25Z" changeset="124896780" uid="3497659" user="NKA">
		<tag k="name" v="Midtflø" />
		<tag k="place" v="farm" />
		<tag k="ssr:stedsnr" v="800935" />
	</node>
	<node id="9953121418" lat="62.3453887" lon="5.7837113" version="1" timestamp="2022-08-14T17:23:25Z" changeset="124896780" uid="3497659" user="NKA">
		<tag k="name" v="Store Hatløy" />
		<tag k="place" v="farm" />
		<tag k="ssr:stedsnr" v="824655" />
	</node>
	<node id="9953121419" lat="62.3545466" lon="5.8290693" version="1" timestamp="2022-08-14T17:23:25Z" changeset="124896780" uid="3497659" user="NKA">
		<tag k="name" v="Skeide" />
		<tag k="place" v="village" />
		<tag k="ssr:stedsnr" v="314820" />
	</node>
	<node id="9953121420" lat="62.356275" lon="5.828978" version="1" timestamp="2022-08-14T17:23:25Z" changeset="124896780" uid="3497659" user="NKA">
		<tag k="name" v="Bakken" />
		<tag k="place" v="farm" />
		<tag k="ssr:stedsnr" v="800860" />
	</node>
	<node id="9953121421" lat="62.4080432" lon="5.8631008" version="1" timestamp="2022-08-14T17:23:25Z" changeset="124896780" uid="3497659" user="NKA">
		<tag k="alt_name" v="Flø, ytre" />
		<tag k="name" v="Ytreflø" />
		<tag k="place" v="farm" />
		<tag k="ssr:stedsnr" v="11934" />
	</node>
	<node id="9953121422" lat="62.2960333" lon="5.8452087" version="1" timestamp="2022-08-14T17:23:25Z" changeset="124896780" uid="3497659" user="NKA">
		<tag k="name" v="Garnesgrenda" />
		<tag k="place" v="hamlet" />
		<tag k="ssr:stedsnr" v="234819" />
	</node>
	<node id="9953121423" lat="62.405601" lon="5.8717903" version="1" timestamp="2022-08-14T17:23:25Z" changeset="124896780" uid="3497659" user="NKA">
		<tag k="name" v="Løkvia" />
		<tag k="place" v="locality" />
		<tag k="ssr:stedsnr" v="35533" />
	</node>
	<node id="9953121424" lat="62.3110164" lon="5.8567419" version="1" timestamp="2022-08-14T17:23:25Z" changeset="124896780" uid="3497659" user="NKA">
		<tag k="alt_name" v="Garshol" />
		<tag k="name" v="Gardshol" />
		<tag k="place" v="hamlet" />
		<tag k="ssr:stedsnr" v="678753" />
	</node>
	<node id="9953121425" lat="62.3989568" lon="5.851712" version="1" timestamp="2022-08-14T17:23:25Z" changeset="124896780" uid="3497659" user="NKA">
		<tag k="alt_name" v="Flø, indre" />
		<tag k="name" v="Indreflø" />
		<tag k="place" v="farm" />
		<tag k="ssr:stedsnr" v="436869" />
	</node>
	<node id="9953121426" lat="62.3058019" lon="5.8549643" version="1" timestamp="2022-08-14T17:23:25Z" changeset="124896780" uid="3497659" user="NKA">
		<tag k="name" v="Botnen" />
		<tag k="place" v="hamlet" />
		<tag k="ssr:stedsnr" v="800718" />
	</node>
	<node id="9953121427" lat="62.4197639" lon="5.9047615" version="1" timestamp="2022-08-14T17:23:25Z" changeset="124896780" uid="3497659" user="NKA">
		<tag k="name" v="Støylane" />
		<tag k="place" v="locality" />
		<tag k="ssr:stedsnr" v="824471" />
	</node>
	<node id="9953121428" lat="62.363899" lon="5.8206011" version="1" timestamp="2022-08-14T17:23:25Z" changeset="124896780" uid="3497659" user="NKA">
		<tag k="name" v="Huslagarden" />
		<tag k="place" v="farm" />
		<tag k="ssr:stedsnr" v="824429" />
	</node>
	<node id="9953121429" lat="62.3660389" lon="5.8236919" version="1" timestamp="2022-08-14T17:23:25Z" changeset="124896780" uid="3497659" user="NKA">
		<tag k="name" v="Jensgarden" />
		<tag k="place" v="farm" />
		<tag k="ssr:stedsnr" v="192872" />
	</node>
	<node id="9953121430" lat="62.2958111" lon="5.846967" version="1" timestamp="2022-08-14T17:23:25Z" changeset="124896780" uid="3497659" user="NKA">
		<tag k="alt_name" v="Langeneset" />
		<tag k="name" v="Langenes" />
		<tag k="place" v="farm" />
		<tag k="ssr:stedsnr" v="314175" />
	</node>
	<node id="9953121431" lat="62.3735203" lon="5.8201251" version="1" timestamp="2022-08-14T17:23:25Z" changeset="124896780" uid="3497659" user="NKA">
		<tag k="name" v="Gåsnes" />
		<tag k="place" v="farm" />
		<tag k="ssr:stedsnr" v="355875" />
	</node>
	<node id="9953121432" lat="62.2979737" lon="5.7992168" version="1" timestamp="2022-08-14T17:23:25Z" changeset="124896780" uid="3497659" user="NKA">
		<tag k="name" v="Røyra" />
		<tag k="place" v="farm" />
		<tag k="ssr:stedsnr" v="982513" />
	</node>
	<node id="9953121433" lat="62.3455576" lon="5.8468332" version="1" timestamp="2022-08-14T17:23:25Z" changeset="124896780" uid="3497659" user="NKA">
		<tag k="name" v="Einehaugen" />
		<tag k="place" v="neighbourhood" />
		<tag k="ssr:stedsnr" v="399565" />
	</node>
	<node id="9953121434" lat="62.2977428" lon="5.8019129" version="1" timestamp="2022-08-14T17:23:25Z" changeset="124896780" uid="3497659" user="NKA">
		<tag k="alt_name" v="Røyra, indre;Røyra" />
		<tag k="name" v="Indre Røyra" />
		<tag k="place" v="farm" />
		<tag k="ssr:stedsnr" v="375747" />
	</node>
	<node id="9953121435" lat="62.3412583" lon="5.8706531" version="1" timestamp="2022-08-14T17:23:25Z" changeset="124896780" uid="3497659" user="NKA">
		<tag k="name" v="Støylane" />
		<tag k="place" v="neighbourhood" />
		<tag k="ssr:stedsnr" v="848270" />
	</node>
	<node id="9953121436" lat="62.3621092" lon="5.8236493" version="1" timestamp="2022-08-14T17:23:25Z" changeset="124896780" uid="3497659" user="NKA">
		<tag k="name" v="Jørnhaugane" />
		<tag k="place" v="farm" />
		<tag k="ssr:stedsnr" v="946581" />
	</node>
	<node id="9953121437" lat="62.3170945" lon="5.7921142" version="1" timestamp="2022-08-14T17:23:25Z" changeset="124896780" uid="3497659" user="NKA">
		<tag k="alt_name" v="Dimnastølen" />
		<tag k="name" v="Støylen" />
		<tag k="place" v="farm" />
		<tag k="ssr:stedsnr" v="557783" />
	</node>
	<node id="9953121438" lat="62.3365669" lon="5.8537586" version="1" timestamp="2022-08-14T17:23:25Z" changeset="124896780" uid="3497659" user="NKA">
		<tag k="name" v="Haugane" />
		<tag k="place" v="neighbourhood" />
		<tag k="ssr:stedsnr" v="460485" />
	</node>
	<node id="9953121439" lat="62.3240782" lon="5.8009598" version="1" timestamp="2022-08-14T17:23:25Z" changeset="124896780" uid="3497659" user="NKA">
		<tag k="name" v="Holane" />
		<tag k="place" v="farm" />
		<tag k="ssr:stedsnr" v="460479" />
	</node>
	<node id="9953121440" lat="62.3000028" lon="5.8361448" version="1" timestamp="2022-08-14T17:23:25Z" changeset="124896780" uid="3497659" user="NKA">
		<tag k="alt_name" v="Kvalneset" />
		<tag k="name" v="Kvalnes" />
		<tag k="place" v="farm" />
		<tag k="ssr:stedsnr" v="375125" />
	</node>
	<node id="9953121441" lat="62.3159544" lon="5.840256" version="1" timestamp="2022-08-14T17:23:25Z" changeset="124896780" uid="3497659" user="NKA">
		<tag k="alt_name" v="Sundgot" />
		<tag k="name" v="Sundgota" />
		<tag k="place" v="village" />
		<tag k="population" v="889" />
		<tag k="population:date" v="2021-01-01" />
		<tag k="ref:ssb_tettsted" v="6053" />
		<tag k="source:population" v="SSB - befolkning i tettstedet" />
		<tag k="ssr:stedsnr" v="557726" />
	</node>
	<node id="9953121442" lat="62.3496583" lon="5.8522474" version="1" timestamp="2022-08-14T17:23:25Z" changeset="124896780" uid="3497659" user="NKA">
		<tag k="name" v="Onglasætra" />
		<tag k="place" v="locality" />
		<tag k="ssr:stedsnr" v="338500" />
	</node>
	<node id="9953121443" lat="62.3721948" lon="5.782322" version="1" timestamp="2022-08-14T17:23:25Z" changeset="124896780" uid="3497659" user="NKA">
		<tag k="name" v="Vattøya" />
		<tag k="place" v="farm" />
		<tag k="ssr:stedsnr" v="982530" />
	</node>
	<node id="9953121444" lat="62.2830003" lon="5.8700211" version="1" timestamp="2022-08-14T17:23:25Z" changeset="124896780" uid="3497659" user="NKA">
		<tag k="alt_name" v="Haddal, ytre" />
		<tag k="name" v="Ytre Haddal" />
		<tag k="place" v="farm" />
		<tag k="ssr:stedsnr" v="678145" />
	</node>
	<node id="9953121445" lat="62.3674661" lon="5.82195" version="1" timestamp="2022-08-14T17:23:25Z" changeset="124896780" uid="3497659" user="NKA">
		<tag k="name" v="Husegarden" />
		<tag k="place" v="farm" />
		<tag k="ssr:stedsnr" v="460470" />
	</node>
	<node id="9953121446" lat="62.3667583" lon="5.8397753" version="1" timestamp="2022-08-14T17:23:25Z" changeset="124896780" uid="3497659" user="NKA">
		<tag k="name" v="Kåpa" />
		<tag k="place" v="isolated_dwelling" />
		<tag k="ssr:stedsnr" v="946421" />
	</node>
	<node id="9953121447" lat="62.3627305" lon="5.8236754" version="1" timestamp="2022-08-14T17:23:25Z" changeset="124896780" uid="3497659" user="NKA">
		<tag k="name" v="Gjerdet" />
		<tag k="place" v="farm" />
		<tag k="ssr:stedsnr" v="132863" />
	</node>
	<node id="9953121448" lat="62.2543354" lon="5.8556139" version="1" timestamp="2022-08-14T17:23:25Z" changeset="124896780" uid="3497659" user="NKA">
		<tag k="alt_name" v="Selvågane" />
		<tag k="name" v="Selvåg" />
		<tag k="place" v="hamlet" />
		<tag k="ssr:stedsnr" v="253244" />
	</node>
	<node id="9953121449" lat="62.2528336" lon="5.8749221" version="1" timestamp="2022-08-14T17:23:25Z" changeset="124896780" uid="3497659" user="NKA">
		<tag k="name" v="Havåg" />
		<tag k="old_name" v="Havågane" />
		<tag k="place" v="hamlet" />
		<tag k="ssr:stedsnr" v="253243" />
	</node>
	<node id="9953121450" lat="62.3228487" lon="5.7949103" version="1" timestamp="2022-08-14T17:23:25Z" changeset="124896780" uid="3497659" user="NKA">
		<tag k="name" v="Ytre-Dimna" />
		<tag k="place" v="farm" />
		<tag k="ssr:stedsnr" v="132772" />
	</node>
	<node id="9953121451" lat="62.3248805" lon="5.8362309" version="1" timestamp="2022-08-14T17:23:25Z" changeset="124896780" uid="3497659" user="NKA">
		<tag k="alt_name" v="Klubbeneset" />
		<tag k="name" v="Klubbenes" />
		<tag k="place" v="farm" />
		<tag k="ssr:stedsnr" v="193807" />
	</node>
	<node id="9953121452" lat="62.3149733" lon="5.8240335" version="1" timestamp="2022-08-14T17:23:25Z" changeset="124896780" uid="3497659" user="NKA">
		<tag k="name" v="Gjerdsbakkane" />
		<tag k="place" v="farm" />
		<tag k="ssr:stedsnr" v="156415" />
	</node>
	<node id="9953121453" lat="62.2521118" lon="5.8370637" version="1" timestamp="2022-08-14T17:23:25Z" changeset="124896780" uid="3497659" user="NKA">
		<tag k="name" v="Aursnes" />
		<tag k="place" v="hamlet" />
		<tag k="ssr:stedsnr" v="71230" />
	</node>
	<node id="9953121454" lat="62.286291" lon="5.8416476" version="1" timestamp="2022-08-14T17:23:25Z" changeset="124896780" uid="3497659" user="NKA">
		<tag k="loc_name" v="Gardnes" />
		<tag k="name" v="Garnes" />
		<tag k="place" v="hamlet" />
		<tag k="ssr:stedsnr" v="937095" />
	</node>
	<node id="9953121455" lat="62.3185575" lon="5.7994856" version="1" timestamp="2022-08-14T17:23:25Z" changeset="124896780" uid="3497659" user="NKA">
		<tag k="alt_name" v="Dimna, indre" />
		<tag k="name" v="Indre Dimna" />
		<tag k="place" v="farm" />
		<tag k="ssr:stedsnr" v="11783" />
	</node>
	<node id="9953121456" lat="62.2614711" lon="5.8392726" version="1" timestamp="2022-08-14T17:23:25Z" changeset="124896780" uid="3497659" user="NKA">
		<tag k="name" v="Håheim" />
		<tag k="place" v="hamlet" />
		<tag k="ssr:stedsnr" v="860189" />
	</node>
	<node id="9953121457" lat="62.327937" lon="5.8646092" version="1" timestamp="2022-08-14T17:23:25Z" changeset="124896780" uid="3497659" user="NKA">
		<tag k="alt_name" v="Strandabø" />
		<tag k="name" v="Strandabøen" />
		<tag k="place" v="hamlet" />
		<tag k="ssr:stedsnr" v="72785" />
	</node>
	<node id="9953121458" lat="62.3394881" lon="5.8651177" version="1" timestamp="2022-08-14T17:23:25Z" changeset="124896780" uid="3497659" user="NKA">
		<tag k="name" v="Holsekre" />
		<tag k="place" v="farm" />
		<tag k="ssr:stedsnr" v="35511" />
	</node>
	<node id="9953121459" lat="62.3139436" lon="5.9057847" version="1" timestamp="2022-08-14T17:23:25Z" changeset="124896780" uid="3497659" user="NKA">
		<tag k="loc_name" v="Fjella" />
		<tag k="name" v="Fjelle" />
		<tag k="place" v="hamlet" />
		<tag k="ssr:stedsnr" v="436752" />
	</node>
	<node id="9953121460" lat="62.2820861" lon="5.8688698" version="1" timestamp="2022-08-14T17:23:25Z" changeset="124896780" uid="3497659" user="NKA">
		<tag k="name" v="Haddal" />
		<tag k="place" v="village" />
		<tag k="ssr:stedsnr" v="86916" />
		<tag k="wikidata" v="Q1779398" />
	</node>
	<node id="9953121461" lat="62.3392954" lon="5.7799844" version="1" timestamp="2022-08-14T17:23:25Z" changeset="124896780" uid="3497659" user="NKA">
		<tag k="name" v="Litle Hatløy" />
		<tag k="place" v="farm" />
		<tag k="ssr:stedsnr" v="885439" />
	</node>
	<node id="9953121462" lat="62.4040541" lon="5.8507029" version="1" timestamp="2022-08-14T17:23:25Z" changeset="124896780" uid="3497659" user="NKA">
		<tag k="name" v="Flø" />
		<tag k="place" v="village" />
		<tag k="ssr:stedsnr" v="678917" />
	</node>
	<node id="9953121463" lat="62.3220512" lon="5.8377425" version="1" timestamp="2022-08-14T17:23:25Z" changeset="124896780" uid="3497659" user="NKA">
		<tag k="name" v="Kleiva" />
		<tag k="place" v="neighbourhood" />
		<tag k="ssr:stedsnr" v="193810" />
	</node>
	<node id="9953121464" lat="62.3635256" lon="5.8232746" version="1" timestamp="2022-08-14T17:23:25Z" changeset="124896780" uid="3497659" user="NKA">
		<tag k="name" v="Kolbeingarden" />
		<tag k="place" v="farm" />
		<tag k="ssr:stedsnr" v="35561" />
	</node>
	<node id="9953121465" lat="62.3216139" lon="5.8462697" version="1" timestamp="2022-08-14T17:23:25Z" changeset="124896780" uid="3497659" user="NKA">
		<tag k="name" v="Kvianeset" />
		<tag k="place" v="farm" />
		<tag k="ssr:stedsnr" v="436809" />
	</node>
	<node id="9953121466" lat="62.3036913" lon="5.8553461" version="1" timestamp="2022-08-14T17:23:25Z" changeset="124896780" uid="3497659" user="NKA">
		<tag k="name" v="Botnabakken" />
		<tag k="place" v="farm" />
		<tag k="ssr:stedsnr" v="861731" />
	</node>
	<node id="9953121467" lat="62.2424944" lon="5.8900421" version="1" timestamp="2022-08-14T17:23:25Z" changeset="124896780" uid="3497659" user="NKA">
		<tag k="name" v="Klungsvågen" />
		<tag k="place" v="farm" />
		<tag k="ssr:stedsnr" v="617177" />
	</node>
	<node id="9953121468" lat="62.2461861" lon="5.8981393" version="1" timestamp="2022-08-14T17:23:25Z" changeset="124896780" uid="3497659" user="NKA">
		<tag k="name" v="Hjellvika" />
		<tag k="place" v="farm" />
		<tag k="ssr:stedsnr" v="860172" />
	</node>
	<node id="9953121469" lat="62.3189553" lon="5.8448825" version="1" timestamp="2022-08-14T17:23:25Z" changeset="124896780" uid="3497659" user="NKA">
		<tag k="name" v="Dimnasund" />
		<tag k="place" v="hamlet" />
		<tag k="ssr:stedsnr" v="861805" />
	</node>
	<node id="9953121470" lat="62.31446" lon="5.843053" version="1" timestamp="2022-08-14T17:23:25Z" changeset="124896780" uid="3497659" user="NKA">
		<tag k="name" v="Sundgot" />
		<tag k="place" v="farm" />
		<tag k="ssr:stedsnr" v="642274" />
	</node>
	<node id="9953121471" lat="62.2749722" lon="5.9251976" version="1" timestamp="2022-08-14T17:23:25Z" changeset="124896780" uid="3497659" user="NKA">
		<tag k="historic" v="shieling" />
		<tag k="name" v="Eiksundsætra" />
		<tag k="place" v="isolated_dwelling" />
		<tag k="ssr:stedsnr" v="314186" />
	</node>
	<node id="9953121472" lat="62.3440344" lon="5.8499609" version="1" timestamp="2022-08-14T17:23:25Z" changeset="124896780" uid="3497659" user="NKA">
		<tag k="name" v="Vik" />
		<tag k="place" v="neighbourhood" />
		<tag k="ssr:stedsnr" v="780765" />
	</node>
	<node id="9953121473" lat="62.2327303" lon="5.8739052" version="1" timestamp="2022-08-14T17:23:25Z" changeset="124896780" uid="3497659" user="NKA">
		<tag k="name" v="Eika" />
		<tag k="place" v="hamlet" />
		<tag k="ssr:stedsnr" v="132152" />
	</node>
	<node id="9953121474" lat="62.3731349" lon="5.8834925" version="1" timestamp="2022-08-14T17:23:25Z" changeset="124896780" uid="3497659" user="NKA">
		<tag k="historic" v="shieling" />
		<tag k="name" v="Brunesetra" />
		<tag k="place" v="isolated_dwelling" />
		<tag k="ssr:stedsnr" v="241234" />
	</node>
	<node id="9953121475" lat="62.3699971" lon="5.8273387" version="1" timestamp="2022-08-14T17:23:25Z" changeset="124896780" uid="3497659" user="NKA">
		<tag k="name" v="Skokken" />
		<tag k="place" v="farm" />
		<tag k="ssr:stedsnr" v="763436" />
	</node>
	<node id="9953121476" lat="62.3293441" lon="5.8339062" version="1" timestamp="2022-08-14T17:23:25Z" changeset="124896780" uid="3497659" user="NKA">
		<tag k="alt_name" v="Breivik" />
		<tag k="name" v="Breidvik" />
		<tag k="place" v="hamlet" />
		<tag k="ssr:stedsnr" v="496802" />
	</node>
	<node id="9953121477" lat="62.3459643" lon="5.8351707" version="1" timestamp="2022-08-14T17:23:25Z" changeset="124896780" uid="3497659" user="NKA">
		<tag k="name" v="Reiten" />
		<tag k="place" v="neighbourhood" />
		<tag k="ssr:stedsnr" v="278490" />
	</node>
	<node id="9953121478" lat="62.3698778" lon="5.8281226" version="1" timestamp="2022-08-14T17:23:25Z" changeset="124896780" uid="3497659" user="NKA">
		<tag k="name" v="Slettebø" />
		<tag k="place" v="farm" />
		<tag k="ssr:stedsnr" v="738872" />
	</node>
	<node id="9953121479" lat="62.3199885" lon="5.8635954" version="1" timestamp="2022-08-14T17:23:25Z" changeset="124896780" uid="3497659" user="NKA">
		<tag k="alt_name" v="Sandvika" />
		<tag k="name" v="Sandvik" />
		<tag k="place" v="farm" />
		<tag k="ssr:stedsnr" v="800785" />
	</node>
	<node id="7023250173" lat="62.291664" lon="5.8513811" version="1" timestamp="2019-12-01T09:58:48Z" changeset="77777307" uid="3497659" user="NKA" />
	<node id="7023250174" lat="62.2916579" lon="5.8513577" version="1" timestamp="2019-12-01T09:58:48Z" changeset="77777307" uid="3497659" user="NKA" />
	<node id="7023250175" lat="62.2916362" lon="5.8512983" version="1" timestamp="2019-12-01T09:58:48Z" changeset="77777307" uid="3497659" user="NKA" />
	<node id="7023250176" lat="62.2916186" lon="5.8512653" version="1" timestamp="2019-12-01T09:58:48Z" changeset="77777307" uid="3497659" user="NKA" />
	<node id="7023250177" lat="62.2915881" lon="5.8512278" version="1" timestamp="2019-12-01T09:58:48Z" changeset="77777307" uid="3497659" user="NKA" />
	<node id="7023250178" lat="62.2915621" lon="5.8512098" version="1" timestamp="2019-12-01T09:58:48Z" changeset="77777307" uid="3497659" user="NKA" />
	<node id="7023250179" lat="62.2915429" lon="5.8512026" version="1" timestamp="2019-12-01T09:58:48Z" changeset="77777307" uid="3497659" user="NKA" />
	<node id="7023250180" lat="62.2915136" lon="5.8512025" version="1" timestamp="2019-12-01T09:58:48Z" changeset="77777307" uid="3497659" user="NKA" />
	<node id="7023250181" lat="62.2914737" lon="5.8512225" version="1" timestamp="2019-12-01T09:58:48Z" changeset="77777307" uid="3497659" user="NKA" />
	<node id="7023250182" lat="62.2914424" lon="5.8512573" version="1" timestamp="2019-12-01T09:58:48Z" changeset="77777307" uid="3497659" user="NKA" />
	<node id="7023250183" lat="62.2914083" lon="5.8513254" version="1" timestamp="2019-12-01T09:58:48Z" changeset="77777307" uid="3497659" user="NKA" />
	<node id="7023250184" lat="62.2913952" lon="5.8513671" version="1" timestamp="2019-12-01T09:58:48Z" changeset="77777307" uid="3497659" user="NKA" />
	<node id="7023250185" lat="62.2913839" lon="5.8514206" version="1" timestamp="2019-12-01T09:58:48Z" changeset="77777307" uid="3497659" user="NKA" />
	<node id="7023250186" lat="62.2913776" lon="5.8514733" version="1" timestamp="2019-12-01T09:58:48Z" changeset="77777307" uid="3497659" user="NKA" />
	<node id="7023250187" lat="62.2913754" lon="5.8515235" version="1" timestamp="2019-12-01T09:58:48Z" changeset="77777307" uid="3497659" user="NKA" />
	<node id="7023250188" lat="62.2913777" lon="5.8515862" version="1" timestamp="2019-12-01T09:58:48Z" changeset="77777307" uid="3497659" user="NKA" />
	<node id="7023250189" lat="62.2913879" lon="5.8516585" version="1" timestamp="2019-12-01T09:58:48Z" changeset="77777307" uid="3497659" user="NKA" />
	<node id="7023250190" lat="62.2914054" lon="5.8517236" version="1" timestamp="2019-12-01T09:58:48Z" changeset="77777307" uid="3497659" user="NKA" />
	<node id="7023250191" lat="62.2914303" lon="5.8517801" version="1" timestamp="2019-12-01T09:58:48Z" changeset="77777307" uid="3497659" user="NKA" />
	<node id="7023250192" lat="62.2914688" lon="5.8518302" version="1" timestamp="2019-12-01T09:58:48Z" changeset="77777307" uid="3497659" user="NKA" />
	<node id="7023250193" lat="62.2915147" lon="5.8518548" version="1" timestamp="2019-12-01T09:58:48Z" changeset="77777307" uid="3497659" user="NKA" />
	<node id="7023250194" lat="62.2915323" lon="5.8518558" version="1" timestamp="2019-12-01T09:58:48Z" changeset="77777307" uid="3497659" user="NKA" />
	<node id="7023250195" lat="62.2915691" lon="5.8518438" version="1" timestamp="2019-12-01T09:58:48Z" changeset="77777307" uid="3497659" user="NKA" />
	<node id="7023250196" lat="62.2915911" lon="5.8518266" version="1" timestamp="2019-12-01T09:58:48Z" changeset="77777307" uid="3497659" user="NKA" />
	<node id="7023250197" lat="62.2916116" lon="5.8518022" version="1" timestamp="2019-12-01T09:58:48Z" changeset="77777307" uid="3497659" user="NKA" />
	<node id="7023250198" lat="62.2916301" lon="5.8517715" version="1" timestamp="2019-12-01T09:58:48Z" changeset="77777307" uid="3497659" user="NKA" />
	<node id="7023250199" lat="62.2916462" lon="5.8517349" version="1" timestamp="2019-12-01T09:58:48Z" changeset="77777307" uid="3497659" user="NKA" />
	<node id="7023250200" lat="62.2916695" lon="5.8516497" version="1" timestamp="2019-12-01T09:58:48Z" changeset="77777307" uid="3497659" user="NKA" />
	<node id="7023250201" lat="62.2916767" lon="5.8516001" version="1" timestamp="2019-12-01T09:58:48Z" changeset="77777307" uid="3497659" user="NKA" />
	<node id="7023250202" lat="62.2916803" lon="5.8515247" version="1" timestamp="2019-12-01T09:58:48Z" changeset="77777307" uid="3497659" user="NKA" />
	<node id="7023250203" lat="62.2916759" lon="5.8514503" version="1" timestamp="2019-12-01T09:58:48Z" changeset="77777307" uid="3497659" user="NKA" />
	<node id="7023250323" lat="62.339997" lon="5.8517869" version="1" timestamp="2019-12-01T09:58:48Z" changeset="77777307" uid="3497659" user="NKA" />
	<node id="7023250324" lat="62.3400264" lon="5.8518002" version="1" timestamp="2019-12-01T09:58:48Z" changeset="77777307" uid="3497659" user="NKA" />
	<node id="7023250325" lat="62.3400409" lon="5.8518024" version="1" timestamp="2019-12-01T09:58:48Z" changeset="77777307" uid="3497659" user="NKA" />
	<node id="7023250326" lat="62.3400767" lon="5.8517902" version="1" timestamp="2019-12-01T09:58:48Z" changeset="77777307" uid="3497659" user="NKA" />
	<node id="7023250327" lat="62.3400958" lon="5.8517727" version="1" timestamp="2019-12-01T09:58:48Z" changeset="77777307" uid="3497659" user="NKA" />
	<node id="7023250328" lat="62.3401189" lon="5.8517388" version="1" timestamp="2019-12-01T09:58:48Z" changeset="77777307" uid="3497659" user="NKA" />
	<node id="7023250329" lat="62.3401387" lon="5.8516913" version="1" timestamp="2019-12-01T09:58:48Z" changeset="77777307" uid="3497659" user="NKA" />
	<node id="7023250330" lat="62.3401483" lon="5.851656" version="1" timestamp="2019-12-01T09:58:48Z" changeset="77777307" uid="3497659" user="NKA" />
	<node id="7023250331" lat="62.3401593" lon="5.8515801" version="1" timestamp="2019-12-01T09:58:48Z" changeset="77777307" uid="3497659" user="NKA" />
	<node id="7023250332" lat="62.3401607" lon="5.8515408" version="1" timestamp="2019-12-01T09:58:48Z" changeset="77777307" uid="3497659" user="NKA" />
	<node id="7023250333" lat="62.3401552" lon="5.8514635" version="1" timestamp="2019-12-01T09:58:48Z" changeset="77777307" uid="3497659" user="NKA" />
	<node id="7023250334" lat="62.3401394" lon="5.8513931" version="1" timestamp="2019-12-01T09:58:48Z" changeset="77777307" uid="3497659" user="NKA" />
	<node id="7023250335" lat="62.3401143" lon="5.851335" version="1" timestamp="2019-12-01T09:58:48Z" changeset="77777307" uid="3497659" user="NKA" />
	<node id="7023250336" lat="62.3400815" lon="5.8512955" version="1" timestamp="2019-12-01T09:58:48Z" changeset="77777307" uid="3497659" user="NKA" />
	<node id="7023250337" lat="62.3400449" lon="5.8512795" version="1" timestamp="2019-12-01T09:58:48Z" changeset="77777307" uid="3497659" user="NKA" />
	<node id="7023250338" lat="62.3400246" lon="5.8512809" version="1" timestamp="2019-12-01T09:58:48Z" changeset="77777307" uid="3497659" user="NKA" />
	<node id="7023250339" lat="62.3400041" lon="5.8512901" version="1" timestamp="2019-12-01T09:58:48Z" changeset="77777307" uid="3497659" user="NKA" />
	<node id="7023250340" lat="62.3399849" lon="5.8513066" version="1" timestamp="2019-12-01T09:58:48Z" changeset="77777307" uid="3497659" user="NKA" />
	<node id="7023250341" lat="62.3399596" lon="5.8513465" version="1" timestamp="2019-12-01T09:58:48Z" changeset="77777307" uid="3497659" user="NKA" />
	<node id="7023250342" lat="62.3399397" lon="5.8513896" version="1" timestamp="2019-12-01T09:58:48Z" changeset="77777307" uid="3497659" user="NKA" />
	<node id="7023250343" lat="62.3399219" lon="5.8514662" version="1" timestamp="2019-12-01T09:58:48Z" changeset="77777307" uid="3497659" user="NKA" />
	<node id="7023250344" lat="62.3399177" lon="5.8515087" version="1" timestamp="2019-12-01T09:58:48Z" changeset="77777307" uid="3497659" user="NKA" />
	<node id="7023250345" lat="62.3399167" lon="5.8515534" version="1" timestamp="2019-12-01T09:58:48Z" changeset="77777307" uid="3497659" user="NKA" />
	<node id="7023250346" lat="62.3399197" lon="5.8515976" version="1" timestamp="2019-12-01T09:58:48Z" changeset="77777307" uid="3497659" user="NKA" />
	<node id="7023250347" lat="62.3399334" lon="5.8516702" version="1" timestamp="2019-12-01T09:58:48Z" changeset="77777307" uid="3497659" user="NKA" />
	<node id="7023250348" lat="62.3399467" lon="5.8517109" version="1" timestamp="2019-12-01T09:58:48Z" changeset="77777307" uid="3497659" user="NKA" />
	<node id="7023250349" lat="62.3399603" lon="5.8517388" version="1" timestamp="2019-12-01T09:58:48Z" changeset="77777307" uid="3497659" user="NKA" />
	<node id="7023250350" lat="62.3399761" lon="5.8517643" version="1" timestamp="2019-12-01T09:58:48Z" changeset="77777307" uid="3497659" user="NKA" />
	<node id="7023238116" lat="62.3407815" lon="5.8532703" version="1" timestamp="2019-12-01T09:58:45Z" changeset="77777305" uid="3497659" user="NKA" />
	<node id="7023246712" lat="62.3408064" lon="5.8533902" version="1" timestamp="2019-12-01T09:58:48Z" changeset="77777307" uid="3497659" user="NKA" />
	<node id="7023246713" lat="62.3407986" lon="5.8533258" version="1" timestamp="2019-12-01T09:58:48Z" changeset="77777307" uid="3497659" user="NKA" />
	<node id="7023246714" lat="62.340646" lon="5.8532646" version="1" timestamp="2019-12-01T09:58:48Z" changeset="77777307" uid="3497659" user="NKA" />
	<node id="7023246719" lat="62.3407714" lon="5.8535674" version="1" timestamp="2019-12-01T09:58:48Z" changeset="77777307" uid="3497659" user="NKA" />
	<node id="7023246806" lat="62.3407509" lon="5.8532232" version="1" timestamp="2019-12-01T09:58:48Z" changeset="77777307" uid="3497659" user="NKA" />
	<node id="7023246807" lat="62.3407143" lon="5.8532056" version="1" timestamp="2019-12-01T09:58:48Z" changeset="77777307" uid="3497659" user="NKA" />
	<node id="7023246808" lat="62.3406773" lon="5.8532201" version="1" timestamp="2019-12-01T09:58:48Z" changeset="77777307" uid="3497659" user="NKA" />
	<node id="7023246813" lat="62.3406326" lon="5.853517" version="1" timestamp="2019-12-01T09:58:48Z" changeset="77777307" uid="3497659" user="NKA" />
	<node id="7023246883" lat="62.340792" lon="5.8535178" version="1" timestamp="2019-12-01T09:58:48Z" changeset="77777307" uid="3497659" user="NKA" />
	<node id="7023246884" lat="62.3408041" lon="5.8534566" version="1" timestamp="2019-12-01T09:58:48Z" changeset="77777307" uid="3497659" user="NKA" />
	<node id="7023246947" lat="62.3406276" lon="5.8533202" version="1" timestamp="2019-12-01T09:58:48Z" changeset="77777307" uid="3497659" user="NKA" />
	<node id="7023246948" lat="62.3406187" lon="5.8533857" version="1" timestamp="2019-12-01T09:58:48Z" changeset="77777307" uid="3497659" user="NKA" />
	<node id="7023246949" lat="62.3406205" lon="5.8534539" version="1" timestamp="2019-12-01T09:58:48Z" changeset="77777307" uid="3497659" user="NKA" />
	<node id="7023246950" lat="62.3406537" lon="5.8535677" version="1" timestamp="2019-12-01T09:58:48Z" changeset="77777307" uid="3497659" user="NKA" />
	<node id="7023246951" lat="62.3406814" lon="5.8536006" version="1" timestamp="2019-12-01T09:58:48Z" changeset="77777307" uid="3497659" user="NKA" />
	<node id="7023246952" lat="62.3407126" lon="5.8536119" version="1" timestamp="2019-12-01T09:58:48Z" changeset="77777307" uid="3497659" user="NKA" />
	<node id="7023246953" lat="62.3407437" lon="5.8536004" version="1" timestamp="2019-12-01T09:58:48Z" changeset="77777307" uid="3497659" user="NKA" />
	<node id="7023244697" lat="62.3312741" lon="5.8616626" version="1" timestamp="2019-12-01T09:58:45Z" changeset="77777305" uid="3497659" user="NKA" />
	<node id="7023244698" lat="62.331266" lon="5.86161" version="1" timestamp="2019-12-01T09:58:45Z" changeset="77777305" uid="3497659" user="NKA" />
	<node id="7023244699" lat="62.3312503" lon="5.8615661" version="1" timestamp="2019-12-01T09:58:45Z" changeset="77777305" uid="3497659" user="NKA" />
	<node id="7023244700" lat="62.3312287" lon="5.8615357" version="1" timestamp="2019-12-01T09:58:45Z" changeset="77777305" uid="3497659" user="NKA" />
	<node id="7023244701" lat="62.3312086" lon="5.8615233" version="1" timestamp="2019-12-01T09:58:45Z" changeset="77777305" uid="3497659" user="NKA" />
	<node id="7023244702" lat="62.3311876" lon="5.861523" version="1" timestamp="2019-12-01T09:58:45Z" changeset="77777305" uid="3497659" user="NKA" />
	<node id="7023244703" lat="62.3311674" lon="5.8615349" version="1" timestamp="2019-12-01T09:58:45Z" changeset="77777305" uid="3497659" user="NKA" />
	<node id="7023244704" lat="62.3311493" lon="5.861558" version="1" timestamp="2019-12-01T09:58:45Z" changeset="77777305" uid="3497659" user="NKA" />
	<node id="7023244705" lat="62.3311342" lon="5.8615926" version="1" timestamp="2019-12-01T09:58:45Z" changeset="77777305" uid="3497659" user="NKA" />
	<node id="7023244706" lat="62.3311243" lon="5.861635" version="1" timestamp="2019-12-01T09:58:45Z" changeset="77777305" uid="3497659" user="NKA" />
	<node id="7023244707" lat="62.3311203" lon="5.8616818" version="1" timestamp="2019-12-01T09:58:45Z" changeset="77777305" uid="3497659" user="NKA" />
	<node id="7023244708" lat="62.3311273" lon="5.8617583" version="1" timestamp="2019-12-01T09:58:45Z" changeset="77777305" uid="3497659" user="NKA" />
	<node id="7023244709" lat="62.3311498" lon="5.8618196" version="1" timestamp="2019-12-01T09:58:45Z" changeset="77777305" uid="3497659" user="NKA" />
	<node id="7023244710" lat="62.331172" lon="5.8618457" version="1" timestamp="2019-12-01T09:58:45Z" changeset="77777305" uid="3497659" user="NKA" />
	<node id="7023244711" lat="62.3311969" lon="5.8618551" version="1" timestamp="2019-12-01T09:58:45Z" changeset="77777305" uid="3497659" user="NKA" />
	<node id="7023244712" lat="62.3312219" lon="5.8618468" version="1" timestamp="2019-12-01T09:58:45Z" changeset="77777305" uid="3497659" user="NKA" />
	<node id="7023244713" lat="62.3312442" lon="5.8618215" version="1" timestamp="2019-12-01T09:58:45Z" changeset="77777305" uid="3497659" user="NKA" />
	<node id="7023244714" lat="62.3312591" lon="5.8617899" version="1" timestamp="2019-12-01T09:58:45Z" changeset="77777305" uid="3497659" user="NKA" />
	<node id="7023244715" lat="62.3312694" lon="5.861751" version="1" timestamp="2019-12-01T09:58:45Z" changeset="77777305" uid="3497659" user="NKA" />
	<node id="7023244716" lat="62.3312746" lon="5.8617075" version="1" timestamp="2019-12-01T09:58:45Z" changeset="77777305" uid="3497659" user="NKA" />
	<node id="7023250351" lat="62.3426539" lon="5.8470952" version="1" timestamp="2019-12-01T09:58:48Z" changeset="77777307" uid="3497659" user="NKA" />
	<node id="7023250352" lat="62.3426704" lon="5.8470948" version="1" timestamp="2019-12-01T09:58:48Z" changeset="77777307" uid="3497659" user="NKA" />
	<node id="7023250353" lat="62.3426948" lon="5.8470839" version="1" timestamp="2019-12-01T09:58:48Z" changeset="77777307" uid="3497659" user="NKA" />
	<node id="7023250354" lat="62.3427174" lon="5.8470614" version="1" timestamp="2019-12-01T09:58:48Z" changeset="77777307" uid="3497659" user="NKA" />
	<node id="7023250355" lat="62.342737" lon="5.8470283" version="1" timestamp="2019-12-01T09:58:48Z" changeset="77777307" uid="3497659" user="NKA" />
	<node id="7023250356" lat="62.3427526" lon="5.8469864" version="1" timestamp="2019-12-01T09:58:48Z" changeset="77777307" uid="3497659" user="NKA" />
	<node id="7023250357" lat="62.3427633" lon="5.846938" version="1" timestamp="2019-12-01T09:58:48Z" changeset="77777307" uid="3497659" user="NKA" />
	<node id="7023250358" lat="62.3427685" lon="5.8468855" version="1" timestamp="2019-12-01T09:58:48Z" changeset="77777307" uid="3497659" user="NKA" />
	<node id="7023250359" lat="62.3427667" lon="5.8468149" version="1" timestamp="2019-12-01T09:58:48Z" changeset="77777307" uid="3497659" user="NKA" />
	<node id="7023250360" lat="62.3427579" lon="5.8467601" version="1" timestamp="2019-12-01T09:58:48Z" changeset="77777307" uid="3497659" user="NKA" />
	<node id="7023250361" lat="62.3427431" lon="5.8467116" version="1" timestamp="2019-12-01T09:58:48Z" changeset="77777307" uid="3497659" user="NKA" />
	<node id="7023250362" lat="62.3427232" lon="5.8466725" version="1" timestamp="2019-12-01T09:58:48Z" changeset="77777307" uid="3497659" user="NKA" />
	<node id="7023250363" lat="62.3426995" lon="5.8466453" version="1" timestamp="2019-12-01T09:58:48Z" changeset="77777307" uid="3497659" user="NKA" />
	<node id="7023250364" lat="62.3426733" lon="5.8466315" version="1" timestamp="2019-12-01T09:58:48Z" changeset="77777307" uid="3497659" user="NKA" />
	<node id="7023250365" lat="62.342649" lon="5.8466314" version="1" timestamp="2019-12-01T09:58:48Z" changeset="77777307" uid="3497659" user="NKA" />
	<node id="7023250366" lat="62.3426252" lon="5.8466431" version="1" timestamp="2019-12-01T09:58:48Z" changeset="77777307" uid="3497659" user="NKA" />
	<node id="7023250367" lat="62.3426033" lon="5.8466659" version="1" timestamp="2019-12-01T09:58:48Z" changeset="77777307" uid="3497659" user="NKA" />
	<node id="7023250368" lat="62.3425843" lon="5.8466986" version="1" timestamp="2019-12-01T09:58:48Z" changeset="77777307" uid="3497659" user="NKA" />
	<node id="7023250369" lat="62.3425711" lon="5.8467335" version="1" timestamp="2019-12-01T09:58:48Z" changeset="77777307" uid="3497659" user="NKA" />
	<node id="7023250370" lat="62.3425612" lon="5.8467733" version="1" timestamp="2019-12-01T09:58:48Z" changeset="77777307" uid="3497659" user="NKA" />
	<node id="7023250371" lat="62.3425551" lon="5.8468164" version="1" timestamp="2019-12-01T09:58:48Z" changeset="77777307" uid="3497659" user="NKA" />
	<node id="7023250372" lat="62.3425529" lon="5.8468612" version="1" timestamp="2019-12-01T09:58:48Z" changeset="77777307" uid="3497659" user="NKA" />
	<node id="7023250373" lat="62.3425548" lon="5.8469061" version="1" timestamp="2019-12-01T09:58:48Z" changeset="77777307" uid="3497659" user="NKA" />
	<node id="7023250374" lat="62.3425637" lon="5.8469643" version="1" timestamp="2019-12-01T09:58:48Z" changeset="77777307" uid="3497659" user="NKA" />
	<node id="7023250375" lat="62.3425793" lon="5.8470154" version="1" timestamp="2019-12-01T09:58:48Z" changeset="77777307" uid="3497659" user="NKA" />
	<node id="7023250376" lat="62.3426006" lon="5.8470559" version="1" timestamp="2019-12-01T09:58:48Z" changeset="77777307" uid="3497659" user="NKA" />
	<node id="7023250377" lat="62.342626" lon="5.8470832" version="1" timestamp="2019-12-01T09:58:48Z" changeset="77777307" uid="3497659" user="NKA" />
	<way id="60774398" version="11" timestamp="2022-01-26T07:34:57Z" changeset="116611763" uid="3497659" user="NKA">
		<tag k="cycleway:right" v="no" />
		<tag k="highway" v="primary" />
		<tag k="junction" v="roundabout" />
		<tag k="lanes" v="1" />
		<tag k="lit" v="yes" />
		<tag k="maxspeed" v="60" />
		<tag k="name" v="Strandkrysset" />
		<tag k="oneway" v="yes" />
		<tag k="ref" v="61" />
		<tag k="ssr:stedsnr" v="988835" />
		<tag k="surface" v="asphalt" />
		<nd ref="7023244697" />
		<nd ref="7023244698" />
		<nd ref="7023244699" />
		<nd ref="7023244700" />
		<nd ref="7023244701" />
		<nd ref="7023244702" />
		<nd ref="7023244703" />
		<nd ref="7023244704" />
		<nd ref="7023244705" />
		<nd ref="7023244706" />
		<nd ref="7023244707" />
		<nd ref="7023244708" />
		<nd ref="7023244709" />
		<nd ref="7023244710" />
		<nd ref="7023244711" />
		<nd ref="7023244712" />
		<nd ref="7023244713" />
		<nd ref="7023244714" />
		<nd ref="7023244715" />
		<nd ref="7023244716" />
		<nd ref="7023244697" />
	</way>
	<way id="384090433" version="8" timestamp="2022-01-26T07:34:57Z" changeset="116611763" uid="3497659" user="NKA">
		<tag k="highway" v="primary" />
		<tag k="junction" v="roundabout" />
		<tag k="lane_markings" v="no" />
		<tag k="maxspeed" v="60" />
		<tag k="name" v="Garneskrysset" />
		<tag k="oneway" v="yes" />
		<tag k="ref" v="61" />
		<tag k="ssr:stedsnr" v="988838" />
		<tag k="surface" v="asphalt" />
		<nd ref="7023250173" />
		<nd ref="7023250174" />
		<nd ref="7023250175" />
		<nd ref="7023250176" />
		<nd ref="7023250177" />
		<nd ref="7023250178" />
		<nd ref="7023250179" />
		<nd ref="7023250180" />
		<nd ref="7023250181" />
		<nd ref="7023250182" />
		<nd ref="7023250183" />
		<nd ref="7023250184" />
		<nd ref="7023250185" />
		<nd ref="7023250186" />
		<nd ref="7023250187" />
		<nd ref="7023250188" />
		<nd ref="7023250189" />
		<nd ref="7023250190" />
		<nd ref="7023250191" />
		<nd ref="7023250192" />
		<nd ref="7023250193" />
		<nd ref="7023250194" />
		<nd ref="7023250195" />
		<nd ref="7023250196" />
		<nd ref="7023250197" />
		<nd ref="7023250198" />
		<nd ref="7023250199" />
		<nd ref="7023250200" />
		<nd ref="7023250201" />
		<nd ref="7023250202" />
		<nd ref="7023250203" />
		<nd ref="7023250173" />
	</way>
	<way id="675685824" version="4" timestamp="2022-01-26T07:34:57Z" changeset="116611763" uid="3497659" user="NKA">
		<tag k="cycleway:right" v="no" />
		<tag k="highway" v="primary" />
		<tag k="junction" v="roundabout" />
		<tag k="maxspeed" v="40" />
		<tag k="name" v="Sjøgatekrysset" />
		<tag k="oneway" v="yes" />
		<tag k="ref" v="61" />
		<tag k="ssr:stedsnr" v="988823" />
		<tag k="surface" v="asphalt" />
		<nd ref="7023250368" />
		<nd ref="7023250369" />
		<nd ref="7023250370" />
		<nd ref="7023250371" />
		<nd ref="7023250372" />
		<nd ref="7023250373" />
		<nd ref="7023250374" />
		<nd ref="7023250375" />
		<nd ref="7023250376" />
		<nd ref="7023250377" />
		<nd ref="7023250351" />
		<nd ref="7023250352" />
		<nd ref="7023250353" />
		<nd ref="7023250354" />
		<nd ref="7023250355" />
		<nd ref="7023250356" />
		<nd ref="7023250357" />
		<nd ref="7023250358" />
		<nd ref="7023250359" />
		<nd ref="7023250360" />
		<nd ref="7023250361" />
		<nd ref="7023250362" />
		<nd ref="7023250363" />
		<nd ref="7023250364" />
		<nd ref="7023250365" />
		<nd ref="7023250366" />
		<nd ref="7023250367" />
		<nd ref="7023250368" />
	</way>
	<way id="675685828" version="8" timestamp="2022-01-26T07:34:57Z" changeset="116611763" uid="3497659" user="NKA">
		<tag k="highway" v="primary" />
		<tag k="junction" v="roundabout" />
		<tag k="lane_markings" v="no" />
		<tag k="lit" v="yes" />
		<tag k="maxspeed" v="40" />
		<tag k="name" v="Sauneskrysset" />
		<tag k="oneway" v="yes" />
		<tag k="ref" v="61" />
		<tag k="ssr:stedsnr" v="988824" />
		<tag k="surface" v="asphalt" />
		<nd ref="7023250323" />
		<nd ref="7023250324" />
		<nd ref="7023250325" />
		<nd ref="7023250326" />
		<nd ref="7023250327" />
		<nd ref="7023250328" />
		<nd ref="7023250329" />
		<nd ref="7023250330" />
		<nd ref="7023250331" />
		<nd ref="7023250332" />
		<nd ref="7023250333" />
		<nd ref="7023250334" />
		<nd ref="7023250335" />
		<nd ref="7023250336" />
		<nd ref="7023250337" />
		<nd ref="7023250338" />
		<nd ref="7023250339" />
		<nd ref="7023250340" />
		<nd ref="7023250341" />
		<nd ref="7023250342" />
		<nd ref="7023250343" />
		<nd ref="7023250344" />
		<nd ref="7023250345" />
		<nd ref="7023250346" />
		<nd ref="7023250347" />
		<nd ref="7023250348" />
		<nd ref="7023250349" />
		<nd ref="7023250350" />
		<nd ref="7023250323" />
	</way>
	<way id="675685829" version="4" timestamp="2022-01-26T07:34:57Z" changeset="116611763" uid="3497659" user="NKA">
		<tag k="highway" v="tertiary" />
		<tag k="junction" v="roundabout" />
		<tag k="maxspeed" v="40" />
		<tag k="name" v="Brattørakrysset" />
		<tag k="oneway" v="yes" />
		<tag k="ssr:stedsnr" v="988825" />
		<tag k="surface" v="asphalt" />
		<nd ref="7023246714" />
		<nd ref="7023246947" />
		<nd ref="7023246948" />
		<nd ref="7023246949" />
		<nd ref="7023246813" />
		<nd ref="7023246950" />
		<nd ref="7023246951" />
		<nd ref="7023246952" />
		<nd ref="7023246953" />
		<nd ref="7023246719" />
		<nd ref="7023246883" />
		<nd ref="7023246884" />
		<nd ref="7023246712" />
		<nd ref="7023246713" />
		<nd ref="7023238116" />
		<nd ref="7023246806" />
		<nd ref="7023246807" />
		<nd ref="7023246808" />
		<nd ref="7023246714" />
	</way>
</osm>
