<?xml version="1.0" encoding="UTF-8"?>
<osm generator="osmapis" version="0.6">
	<node id="-446912" lat="59.9967944406" lon="5.83223332737">
		<tag k="fixme" v="consider boundary=protected_area and relevant protect_class if not nature reserve" />
		<tag k="leisure" v="nature_reserve" />
		<tag k="name" v="Eggja naturreservat" />
		<tag k="ssr:stedsnr" v="39809" />
	</node>
	<node id="-449244" lat="59.8222111083" lon="5.7609500038">
		<tag k="fixme" v="consider boundary=protected_area and relevant protect_class if not nature reserve" />
		<tag k="leisure" v="nature_reserve" />
		<tag k="name" v="Trollskjeret naturreservat" />
		<tag k="ssr:stedsnr" v="765852" />
	</node>
	<node id="-448330" lat="60.0208749982" lon="6.30709165878">
		<tag k="fixme" v="consider boundary=protected_area and relevant protect_class if not nature reserve" />
		<tag k="leisure" v="nature_reserve" />
		<tag k="name" v="Folgefonna nasjonalpark" />
		<tag k="ssr:stedsnr" v="524270" />
	</node>
	<node id="-447673" lat="59.7954444427" lon="5.93408332693">
		<tag k="fixme" v="consider boundary=protected_area and relevant protect_class if not nature reserve" />
		<tag k="leisure" v="nature_reserve" />
		<tag k="name" v="Holmedalsberget naturreservat" />
		<tag k="ssr:stedsnr" v="220956" />
	</node>
	<node id="-449034" lat="59.7555333351" lon="5.72366943726">
		<tag k="fixme" v="consider boundary=protected_area and relevant protect_class if not nature reserve" />
		<tag k="leisure" v="nature_reserve" />
		<tag k="name" v="Fjæraskjeret naturreservat" />
		<tag k="ssr:stedsnr" v="706033" />
	</node>
	<node id="-446607" lat="60.0427861136" lon="5.87016667224">
		<tag k="fixme" v="consider boundary=protected_area and relevant protect_class if not nature reserve" />
		<tag k="leisure" v="nature_reserve" />
		<tag k="name" v="Tveitane naturreservat" />
		<tag k="ssr:stedsnr" v="888844" />
	</node>
	<node id="-446571" lat="59.832677779" lon="5.89539166608">
		<tag k="fixme" v="consider boundary=protected_area and relevant protect_class if not nature reserve" />
		<tag k="leisure" v="nature_reserve" />
		<tag k="name" v="Tveitabotn naturreservat" />
		<tag k="ssr:stedsnr" v="888063" />
	</node>
	<node id="-448010" lat="59.814447225" lon="5.73285277225">
		<tag k="fixme" v="consider boundary=protected_area and relevant protect_class if not nature reserve" />
		<tag k="leisure" v="nature_reserve" />
		<tag k="name" v="Terneskjeret naturreservat" />
		<tag k="ssr:stedsnr" v="462888" />
	</node>
	<node id="-450025" lat="59.8596111084" lon="5.71716944212">
		<tag k="fixme" v="consider boundary=protected_area and relevant protect_class if not nature reserve" />
		<tag k="leisure" v="nature_reserve" />
		<tag k="name" v="Prestholmen" />
		<tag k="ssr:stedsnr" v="949147" />
	</node>
	<node id="-448071" lat="60.1209888888" lon="6.03826112011">
		<tag k="fixme" v="consider boundary=protected_area and relevant protect_class if not nature reserve" />
		<tag k="leisure" v="nature_reserve" />
		<tag k="name" v="Varaldsøy naturreservat" />
		<tag k="ssr:stedsnr" v="463917" />
	</node>
	<node id="-446786" lat="59.8363777817" lon="5.77538333">
		<tag k="name" v="Husnes" />
		<tag k="place" v="hamlet" />
		<tag k="ssr:stedsnr" v="30298" />
	</node>
</osm>
