<?xml version="1.0" encoding="UTF-8"?>
<osm generator="osmapis" version="0.6">
	<node id="-448489" lat="59.9457249981" lon="5.96911110587">
		<tag k="name" v="Sandvik" />
		<tag k="place" v="farm" />
		<tag k="ssr:stedsnr" v="583645" />
	</node>
	<node id="-447482" lat="60.1375164396" lon="6.23848548936">
		<tag k="fixme" v="consider place=hamlet" />
		<tag k="name" v="Bråtun" />
		<tag k="place" v="farm" />
		<tag k="ssr:stedsnr" v="186193" />
	</node>
	<node id="-448468" lat="59.7915194488" lon="6.09836944863">
		<tag k="fixme" v="consider place=hamlet" />
		<tag k="name" v="Åkra" />
		<tag k="place" v="village" />
		<tag k="ssr:stedsnr" v="576786" />
	</node>
	<node id="-449870" lat="59.9895111124" lon="6.02899166375">
		<tag k="alt_name" v="Rosendal;Rosendal baroni" />
		<tag k="name" v="Baroniet" />
		<tag k="place" v="isolated_dwelling" />
		<tag k="ssr:stedsnr" v="914482" />
	</node>
	<node id="-448463" lat="59.946752779" lon="5.98876389145">
		<tag k="name" v="Solbakken" />
		<tag k="place" v="farm" />
		<tag k="ssr:stedsnr" v="570024" />
	</node>
	<node id="-448462" lat="60.1178861153" lon="6.27265556035">
		<tag k="name" v="Sunndal" />
		<tag k="place" v="farm" />
		<tag k="ssr:stedsnr" v="566871" />
	</node>
	<node id="-448449" lat="60.1304638899" lon="6.31563611954">
		<tag k="name" v="Kamrygg" />
		<tag k="place" v="farm" />
		<tag k="ssr:stedsnr" v="551195" />
	</node>
	<node id="-448448" lat="60.1342547411" lon="6.25176124803">
		<tag k="fixme" v="consider place=hamlet" />
		<tag k="name" v="Bergstø" />
		<tag k="place" v="farm" />
		<tag k="ssr:stedsnr" v="551193" />
	</node>
	<node id="-448447" lat="60.1357638877" lon="6.24095556065">
		<tag k="name" v="Haugen" />
		<tag k="place" v="farm" />
		<tag k="ssr:stedsnr" v="551192" />
	</node>
	<node id="-446388" lat="59.9592166693" lon="6.01208055781">
		<tag k="name" v="Kleiva" />
		<tag k="place" v="farm" />
		<tag k="ssr:stedsnr" v="401643" />
	</node>
	<node id="-448434" lat="60.0906277754" lon="5.91529444346">
		<tag k="name" v="Nygard" />
		<tag k="place" v="isolated_dwelling" />
		<tag k="ssr:stedsnr" v="550936" />
	</node>
	<node id="-448431" lat="60.0210474565" lon="6.00302495817">
		<tag k="fixme" v="consider place=hamlet" />
		<tag k="name" v="Storekra" />
		<tag k="place" v="farm" />
		<tag k="ssr:stedsnr" v="550752" />
	</node>
	<node id="-448428" lat="60.021616665" lon="5.83135555547">
		<tag k="name" v="Nordås" />
		<tag k="place" v="isolated_dwelling" />
		<tag k="ssr:stedsnr" v="550647" />
	</node>
	<node id="-446378" lat="59.8076222206" lon="6.05897499818">
		<tag k="historic" v="shieling" />
		<tag k="name" v="Store Slottestølen" />
		<tag k="place" v="locality" />
		<tag k="ssr:stedsnr" v="401178" />
	</node>
	<node id="-446371" lat="60.0665307929" lon="6.04031212645">
		<tag k="name" v="Ytre Vardanes" />
		<tag k="place" v="farm" />
		<tag k="ssr:stedsnr" v="388038" />
	</node>
	<node id="-448418" lat="59.756832576" lon="5.81753911763">
		<tag k="alt_name" v="Bjørgo" />
		<tag k="fixme" v="consider place=hamlet" />
		<tag k="name" v="Bjørgjo" />
		<tag k="place" v="farm" />
		<tag k="ssr:stedsnr" v="550416" />
	</node>
	<node id="-448414" lat="59.7658580547" lon="5.98586982832">
		<tag k="fixme" v="consider place=hamlet" />
		<tag k="name" v="Sloke" />
		<tag k="place" v="farm" />
		<tag k="ssr:stedsnr" v="550357" />
	</node>
	<node id="-448413" lat="59.7716640556" lon="6.08331831181">
		<tag k="fixme" v="consider place=hamlet" />
		<tag k="name" v="Djupvik" />
		<tag k="place" v="farm" />
		<tag k="ssr:stedsnr" v="550348" />
	</node>
	<node id="-448412" lat="59.8377111081" lon="5.69529444723">
		<tag k="alt_name" v="Bjelland, øvre" />
		<tag k="name" v="Øvre Bjelland" />
		<tag k="place" v="farm" />
		<tag k="ssr:stedsnr" v="550316" />
	</node>
	<node id="-448409" lat="59.7826986895" lon="5.89893877945">
		<tag k="fixme" v="consider place=hamlet" />
		<tag k="name" v="Eikenes" />
		<tag k="place" v="farm" />
		<tag k="ssr:stedsnr" v="550283" />
	</node>
	<node id="-446359" lat="60.0669729237" lon="5.91461670883">
		<tag k="fixme" v="consider place=hamlet" />
		<tag k="name" v="Hamnarås" />
		<tag k="place" v="farm" />
		<tag k="ssr:stedsnr" v="368972" />
	</node>
	<node id="-446356" lat="60.1086155171" lon="6.14196216891">
		<tag k="fixme" v="consider place=hamlet" />
		<tag k="name" v="Maurangsneset" />
		<tag k="place" v="farm" />
		<tag k="ssr:stedsnr" v="368922" />
	</node>
	<node id="-447470" lat="59.9088305554" lon="5.92090000105">
		<tag k="name" v="Klammeren" />
		<tag k="place" v="farm" />
		<tag k="ssr:stedsnr" v="186066" />
	</node>
	<node id="-448399" lat="60.1402499983" lon="6.23849166077">
		<tag k="name" v="Solli" />
		<tag k="place" v="farm" />
		<tag k="ssr:stedsnr" v="550209" />
	</node>
	<node id="-448398" lat="59.8451999984" lon="6.1169944532">
		<tag k="historic" v="shieling" />
		<tag k="name" v="Ingastølen" />
		<tag k="place" v="locality" />
		<tag k="ssr:stedsnr" v="550195" />
	</node>
	<node id="-448396" lat="60.110483762" lon="6.22920369563">
		<tag k="alt_name" v="Krokar;Krokatræ" />
		<tag k="fixme" v="consider place=hamlet" />
		<tag k="name" v="Kroka" />
		<tag k="place" v="farm" />
		<tag k="ssr:stedsnr" v="550161" />
	</node>
	<node id="-446340" lat="59.9777722203" lon="6.01188610749">
		<tag k="name" v="Brotet" />
		<tag k="place" v="isolated_dwelling" />
		<tag k="ssr:stedsnr" v="368521" />
	</node>
	<node id="-448387" lat="59.91523611" lon="6.0045555521">
		<tag k="name" v="Landaheia" />
		<tag k="place" v="farm" />
		<tag k="ssr:stedsnr" v="550075" />
	</node>
	<node id="-448386" lat="59.9257916666" lon="6.08386666168">
		<tag k="historic" v="shieling" />
		<tag k="name" v="Faurlia" />
		<tag k="place" v="locality" />
		<tag k="ssr:stedsnr" v="550076" />
	</node>
	<node id="-448385" lat="59.9289388909" lon="5.86657777528">
		<tag k="alt_name" v="Leite" />
		<tag k="name" v="Leitet" />
		<tag k="place" v="farm" />
		<tag k="ssr:stedsnr" v="550062" />
	</node>
	<node id="-448381" lat="59.94342799" lon="5.97463595534">
		<tag k="name" v="Sandvik" />
		<tag k="place" v="hamlet" />
		<tag k="ssr:stedsnr" v="550018" />
	</node>
	<node id="-446331" lat="59.7617000037" lon="5.9905750035">
		<tag k="name" v="Søllesvik" />
		<tag k="place" v="farm" />
		<tag k="ssr:stedsnr" v="368415" />
	</node>
	<node id="-448370" lat="59.7336474917" lon="5.74225649462">
		<tag k="alt_name" v="Sydnes" />
		<tag k="fixme" v="consider place=hamlet" />
		<tag k="name" v="Sundnes" />
		<tag k="place" v="farm" />
		<tag k="ssr:stedsnr" v="549137" />
	</node>
	<node id="-446320" lat="59.8316027791" lon="5.73358611933">
		<tag k="name" v="Sveio" />
		<tag k="place" v="isolated_dwelling" />
		<tag k="ssr:stedsnr" v="368336" />
	</node>
	<node id="-448367" lat="59.7309662025" lon="5.65522434709">
		<tag k="alt_name" v="Nedre Aksdal" />
		<tag k="name" v="Aksdal" />
		<tag k="place" v="hamlet" />
		<tag k="ssr:stedsnr" v="549115" />
	</node>
	<node id="-448366" lat="59.8975765892" lon="5.94887215955">
		<tag k="name" v="Musland" />
		<tag k="place" v="hamlet" />
		<tag k="ssr:stedsnr" v="549113" />
	</node>
	<node id="-446317" lat="59.8316916688" lon="5.78379443691">
		<tag k="fixme" v="consider place=suburb, village or hamlet" />
		<tag k="name" v="Valen" />
		<tag k="place" v="quarter" />
		<tag k="ssr:stedsnr" v="368334" />
	</node>
	<node id="-448363" lat="59.8954249977" lon="5.95098889487">
		<tag k="alt_name" v="Musland, øvre" />
		<tag k="name" v="Øvre Musland" />
		<tag k="place" v="farm" />
		<tag k="ssr:stedsnr" v="549112" />
	</node>
	<node id="-446312" lat="59.8547639329" lon="5.7752481968">
		<tag k="fixme" v="consider place=hamlet" />
		<tag k="name" v="Helland" />
		<tag k="place" v="farm" />
		<tag k="ssr:stedsnr" v="368306" />
	</node>
	<node id="-446311" lat="59.8046027805" lon="6.02467500482">
		<tag k="historic" v="shieling" />
		<tag k="name" v="Gamlestølen" />
		<tag k="place" v="locality" />
		<tag k="ssr:stedsnr" v="368297" />
	</node>
	<node id="-446309" lat="59.8023660231" lon="5.91522009561">
		<tag k="fixme" v="consider place=hamlet" />
		<tag k="name" v="Tveit" />
		<tag k="place" v="farm" />
		<tag k="ssr:stedsnr" v="368287" />
	</node>
	<node id="-446307" lat="59.8153138914" lon="6.05870554808">
		<tag k="historic" v="shieling" />
		<tag k="name" v="Øvstebøstølen" />
		<tag k="place" v="locality" />
		<tag k="ssr:stedsnr" v="368263" />
	</node>
	<node id="-446304" lat="60.1580833352" lon="6.29285277488">
		<tag k="name" v="Køylo" />
		<tag k="place" v="farm" />
		<tag k="ssr:stedsnr" v="368247" />
	</node>
	<node id="-448351" lat="59.7307194481" lon="5.70410555812">
		<tag k="name" v="Karteid" />
		<tag k="place" v="farm" />
		<tag k="ssr:stedsnr" v="527084" />
	</node>
	<node id="-446300" lat="60.1463305541" lon="6.21845554748">
		<tag k="historic" v="shieling" />
		<tag k="name" v="Utigardssætret" />
		<tag k="place" v="locality" />
		<tag k="ssr:stedsnr" v="368233" />
	</node>
	<node id="-446296" lat="59.8492361131" lon="6.05799999527">
		<tag k="historic" v="shieling" />
		<tag k="name" v="Skitnastølen" />
		<tag k="place" v="locality" />
		<tag k="ssr:stedsnr" v="368204" />
	</node>
	<node id="-448337" lat="60.006111114" lon="5.73384444275">
		<tag k="alt_name" v="Hammarhaug nedre" />
		<tag k="name" v="Nedre Hammarhaug" />
		<tag k="place" v="farm" />
		<tag k="ssr:stedsnr" v="524783" />
	</node>
	<node id="-449848" lat="59.8171972192" lon="5.75203889302">
		<tag k="name" v="Myra" />
		<tag k="place" v="isolated_dwelling" />
		<tag k="ssr:stedsnr" v="914351" />
	</node>
	<node id="-446285" lat="59.9141250001" lon="6.05690555505">
		<tag k="historic" v="shieling" />
		<tag k="name" v="Aursdalsstølen" />
		<tag k="place" v="locality" />
		<tag k="ssr:stedsnr" v="368103" />
	</node>
	<node id="-446283" lat="59.9272137443" lon="5.88437553716">
		<tag k="fixme" v="consider place=hamlet" />
		<tag k="name" v="Kjerland" />
		<tag k="place" v="farm" />
		<tag k="ssr:stedsnr" v="368066" />
	</node>
	<node id="-446281" lat="59.9397912033" lon="6.0021076349">
		<tag k="fixme" v="consider place=hamlet" />
		<tag k="name" v="Tveito" />
		<tag k="place" v="farm" />
		<tag k="ssr:stedsnr" v="368037" />
	</node>
	<node id="-446279" lat="59.9128388925" lon="5.7933888851">
		<tag k="name" v="Elverum" />
		<tag k="place" v="farm" />
		<tag k="ssr:stedsnr" v="367694" />
	</node>
	<node id="-446277" lat="59.9959571997" lon="5.79123211633">
		<tag k="fixme" v="consider place=hamlet" />
		<tag k="name" v="Nerhus" />
		<tag k="place" v="farm" />
		<tag k="ssr:stedsnr" v="367644" />
	</node>
	<node id="-446276" lat="59.9668484646" lon="6.00981915169">
		<tag k="fixme" v="consider place=hamlet" />
		<tag k="name" v="Segleim" />
		<tag k="place" v="farm" />
		<tag k="ssr:stedsnr" v="367400" />
	</node>
	<node id="-446774" lat="60.1246697994" lon="5.93662158652">
		<tag k="fixme" v="consider place=hamlet" />
		<tag k="name" v="Hisdalen" />
		<tag k="place" v="farm" />
		<tag k="ssr:stedsnr" v="5863" />
	</node>
	<node id="-448321" lat="59.8139611071" lon="6.0297888816">
		<tag k="historic" v="shieling" />
		<tag k="name" v="Myrdalsstølen" />
		<tag k="place" v="locality" />
		<tag k="ssr:stedsnr" v="524155" />
	</node>
	<node id="-449504" lat="60.0594166671" lon="5.9020333375">
		<tag k="name" v="Dalen" />
		<tag k="place" v="isolated_dwelling" />
		<tag k="ssr:stedsnr" v="793968" />
	</node>
	<node id="-448305" lat="59.8027972189" lon="5.65352223099">
		<tag k="name" v="Gjerdet" />
		<tag k="place" v="farm" />
		<tag k="ssr:stedsnr" v="523957" />
	</node>
	<node id="-448304" lat="59.7877166677" lon="5.69828889079">
		<tag k="fixme" v="consider place=hamlet" />
		<tag k="name" v="Eide" />
		<tag k="place" v="farm" />
		<tag k="ssr:stedsnr" v="523955" />
	</node>
	<node id="-448302" lat="59.7310820668" lon="5.68764107615">
		<tag k="name" v="Øvrevik" />
		<tag k="place" v="farm" />
		<tag k="ssr:stedsnr" v="523946" />
	</node>
	<node id="-446253" lat="59.8438972183" lon="5.73575554768">
		<tag k="name" v="Røsslandslia" />
		<tag k="place" v="quarter" />
		<tag k="ssr:stedsnr" v="359861" />
	</node>
	<node id="-446245" lat="60.1643472182" lon="6.28484166404">
		<tag k="name" v="Osen" />
		<tag k="place" v="farm" />
		<tag k="ssr:stedsnr" v="347402" />
	</node>
	<node id="-448292" lat="59.836638893" lon="5.71995277848">
		<tag k="name" v="Slettestølen" />
		<tag k="place" v="farm" />
		<tag k="ssr:stedsnr" v="523888" />
	</node>
	<node id="-446242" lat="60.131080552" lon="6.01973056118">
		<tag k="historic" v="shieling" />
		<tag k="name" v="Åkerfonnastølen" />
		<tag k="place" v="locality" />
		<tag k="ssr:stedsnr" v="342897" />
	</node>
	<node id="-447792" lat="59.8034138489" lon="5.64625397542">
		<tag k="name" v="Haugane" />
		<tag k="place" v="farm" />
		<tag k="ssr:stedsnr" v="247317" />
	</node>
	<node id="-448286" lat="60.1035083353" lon="5.91666110762">
		<tag k="name" v="Solstrand" />
		<tag k="place" v="farm" />
		<tag k="ssr:stedsnr" v="523827" />
	</node>
	<node id="-448282" lat="60.1383472205" lon="5.93293333111">
		<tag k="fixme" v="consider place=hamlet" />
		<tag k="name" v="Holmedal" />
		<tag k="place" v="farm" />
		<tag k="ssr:stedsnr" v="523808" />
	</node>
	<node id="-447791" lat="59.8681861142" lon="5.7731722222">
		<tag k="building" v="industrial" />
		<tag k="industrial" v="factory" />
		<tag k="name" v="Søral" />
		<tag k="ssr:stedsnr" v="247290" />
	</node>
	<node id="-448269" lat="60.0238611085" lon="6.04019999812">
		<tag k="historic" v="shieling" />
		<tag k="name" v="Hovda" />
		<tag k="place" v="locality" />
		<tag k="ssr:stedsnr" v="523714" />
	</node>
	<node id="-446219" lat="59.913211112" lon="5.79141389055">
		<tag k="name" v="Høgestøl" />
		<tag k="place" v="farm" />
		<tag k="ssr:stedsnr" v="341957" />
	</node>
	<node id="-448263" lat="59.825638888" lon="6.01721944205">
		<tag k="name" v="Øyra" />
		<tag k="place" v="farm" />
		<tag k="ssr:stedsnr" v="523670" />
	</node>
	<node id="-446079" lat="60.0090416663" lon="5.85563888615">
		<tag k="name" v="Bakken" />
		<tag k="place" v="farm" />
		<tag k="ssr:stedsnr" v="308762" />
	</node>
	<node id="-448236" lat="59.8511361151" lon="5.71399721719">
		<tag k="alt_name" v="Grøstøl" />
		<tag k="fixme" v="consider place=hamlet" />
		<tag k="name" v="Gronstol" />
		<tag k="place" v="farm" />
		<tag k="ssr:stedsnr" v="522869" />
	</node>
	<node id="-448233" lat="59.859738885" lon="6.011624995">
		<tag k="name" v="Opstveit" />
		<tag k="place" v="farm" />
		<tag k="ssr:stedsnr" v="522604" />
	</node>
	<node id="-448222" lat="60.0265972257" lon="5.72238611896">
		<tag k="name" v="Sagvollen" />
		<tag k="place" v="isolated_dwelling" />
		<tag k="ssr:stedsnr" v="510150" />
	</node>
	<node id="-448221" lat="60.0317555514" lon="5.71729445056">
		<tag k="name" v="Solhaug" />
		<tag k="place" v="isolated_dwelling" />
		<tag k="ssr:stedsnr" v="510148" />
	</node>
	<node id="-446074" lat="60.0148697452" lon="6.00053193525">
		<tag k="fixme" v="consider place=hamlet" />
		<tag k="name" v="Løfall" />
		<tag k="place" v="farm" />
		<tag k="ssr:stedsnr" v="308751" />
	</node>
	<node id="-447439" lat="59.9525975151" lon="5.92123604525">
		<tag k="alt_name" v="Josnes" />
		<tag k="fixme" v="consider place=hamlet" />
		<tag k="name" v="Ljosnes" />
		<tag k="place" v="farm" />
		<tag k="ssr:stedsnr" v="185017" />
	</node>
	<node id="-448214" lat="60.0011833307" lon="5.79317499824">
		<tag k="name" v="Tråvik" />
		<tag k="place" v="farm" />
		<tag k="ssr:stedsnr" v="491628" />
	</node>
	<node id="-448212" lat="60.0500597659" lon="5.90945572">
		<tag k="fixme" v="consider place=hamlet" />
		<tag k="name" v="Eikeland" />
		<tag k="place" v="farm" />
		<tag k="ssr:stedsnr" v="490982" />
	</node>
	<node id="-447438" lat="60.003458329" lon="5.74416665948">
		<tag k="name" v="Hamarhaug" />
		<tag k="place" v="neighbourhood" />
		<tag k="ssr:stedsnr" v="177790" />
	</node>
	<node id="-448207" lat="60.0851388879" lon="6.19488610753">
		<tag k="historic" v="shieling" />
		<tag k="name" v="Tveitnessætret" />
		<tag k="place" v="locality" />
		<tag k="ssr:stedsnr" v="490943" />
	</node>
	<node id="-448203" lat="60.0933011503" lon="5.97408203963">
		<tag k="alt_name" v="Våge, nedre" />
		<tag k="fixme" v="consider place=hamlet" />
		<tag k="name" v="Nedre Våge" />
		<tag k="place" v="farm" />
		<tag k="ssr:stedsnr" v="490909" />
	</node>
	<node id="-448196" lat="60.0262527774" lon="5.80820000111">
		<tag k="name" v="Høgestølen" />
		<tag k="place" v="farm" />
		<tag k="ssr:stedsnr" v="490677" />
	</node>
	<node id="-448194" lat="60.0300539615" lon="5.73172322988">
		<tag k="name" v="Krokane" />
		<tag k="place" v="farm" />
		<tag k="ssr:stedsnr" v="490632" />
	</node>
	<node id="-448191" lat="60.161002921" lon="6.29737822625">
		<tag k="fixme" v="consider place=hamlet" />
		<tag k="name" v="Øyre" />
		<tag k="place" v="farm" />
		<tag k="ssr:stedsnr" v="490221" />
	</node>
	<node id="-448189" lat="60.1346193636" lon="6.22851229325">
		<tag k="alt_name" v="Øyjorda, nedre" />
		<tag k="fixme" v="consider place=hamlet" />
		<tag k="name" v="Nedre Øyjorda" />
		<tag k="place" v="farm" />
		<tag k="ssr:stedsnr" v="490184" />
	</node>
	<node id="-446139" lat="59.9031444422" lon="6.03354445124">
		<tag k="name" v="Aterstad" />
		<tag k="place" v="farm" />
		<tag k="ssr:stedsnr" v="341140" />
	</node>
	<node id="-448180" lat="60.1008444463" lon="5.94941388245">
		<tag k="alt_name" v="Kjærland" />
		<tag k="name" v="Kjerland" />
		<tag k="place" v="farm" />
		<tag k="ssr:stedsnr" v="489909" />
	</node>
	<node id="-448169" lat="59.9878249999" lon="6.04164443962">
		<tag k="name" v="Fossberg" />
		<tag k="place" v="farm" />
		<tag k="ssr:stedsnr" v="489472" />
	</node>
	<node id="-448165" lat="59.7663555581" lon="5.79028055608">
		<tag k="name" v="Kviteberg" />
		<tag k="place" v="farm" />
		<tag k="ssr:stedsnr" v="489426" />
	</node>
	<node id="-448164" lat="59.7564861147" lon="5.80743889706">
		<tag k="alt_name" v="Urdi" />
		<tag k="name" v="Urda" />
		<tag k="place" v="locality" />
		<tag k="ssr:stedsnr" v="489423" />
	</node>
	<node id="-448161" lat="59.7948695277" lon="5.72928952927">
		<tag k="name" v="Tofte" />
		<tag k="place" v="hamlet" />
		<tag k="ssr:stedsnr" v="489412" />
	</node>
	<node id="-448160" lat="59.8076776363" lon="5.81309526102">
		<tag k="fixme" v="consider place=hamlet" />
		<tag k="name" v="Sandvoll" />
		<tag k="place" v="farm" />
		<tag k="ssr:stedsnr" v="489404" />
	</node>
	<node id="-448159" lat="59.7593933922" lon="6.01476894167">
		<tag k="fixme" v="consider place=hamlet" />
		<tag k="name" v="Amland" />
		<tag k="place" v="farm" />
		<tag k="ssr:stedsnr" v="489403" />
	</node>
	<node id="-446106" lat="60.0139999991" lon="5.82015277754">
		<tag k="alt_name" v="Lydhamar" />
		<tag k="name" v="Nyhamar" />
		<tag k="place" v="farm" />
		<tag k="ssr:stedsnr" v="328141" />
	</node>
	<node id="-446105" lat="60.0080694488" lon="5.8041416627">
		<tag k="name" v="Ulke" />
		<tag k="place" v="farm" />
		<tag k="ssr:stedsnr" v="328138" />
	</node>
	<node id="-448151" lat="59.8177692273" lon="5.7570502855">
		<tag k="name" v="Solbakken" />
		<tag k="place" v="farm" />
		<tag k="ssr:stedsnr" v="489359" />
	</node>
	<node id="-446096" lat="60.0359007337" lon="5.87341542619">
		<tag k="fixme" v="consider place=hamlet" />
		<tag k="name" v="Atramadalen" />
		<tag k="place" v="farm" />
		<tag k="ssr:stedsnr" v="308998" />
	</node>
	<node id="-446094" lat="60.0563383297" lon="5.90573475879">
		<tag k="fixme" v="consider place=hamlet" />
		<tag k="name" v="Li" />
		<tag k="place" v="farm" />
		<tag k="ssr:stedsnr" v="308979" />
	</node>
	<node id="-448139" lat="59.8872777809" lon="5.77221665899">
		<tag k="alt_name" v="Langgota" />
		<tag k="name" v="Langgåta" />
		<tag k="place" v="hamlet" />
		<tag k="ssr:stedsnr" v="489293" />
	</node>
	<node id="-446089" lat="60.0965805512" lon="5.97375555008">
		<tag k="fixme" v="consider place=hamlet" />
		<tag k="name" v="Trå" />
		<tag k="place" v="farm" />
		<tag k="ssr:stedsnr" v="308911" />
	</node>
	<node id="-446088" lat="60.1043054284" lon="6.01180726373">
		<tag k="fixme" v="consider place=hamlet" />
		<tag k="name" v="Øye" />
		<tag k="place" v="farm" />
		<tag k="ssr:stedsnr" v="308912" />
	</node>
	<node id="-446669" lat="59.8596307148" lon="6.06231040123">
		<tag k="fixme" v="consider place=hamlet" />
		<tag k="name" v="Haugen" />
		<tag k="place" v="farm" />
		<tag k="ssr:stedsnr" v="990651" />
	</node>
	<node id="-446086" lat="60.1313083336" lon="6.05659166456">
		<tag k="name" v="Grovåkeren" />
		<tag k="place" v="locality" />
		<tag k="ssr:stedsnr" v="308877" />
	</node>
	<node id="-446085" lat="60.1891027786" lon="6.38305000745">
		<tag k="building" v="industrial" />
		<tag k="industrial" v="factory" />
		<tag k="name" v="Jukla kraftstasjon" />
		<tag k="ssr:stedsnr" v="308854" />
	</node>
	<node id="-446055" lat="60.1318249991" lon="6.33049166742">
		<tag k="building" v="industrial" />
		<tag k="industrial" v="factory" />
		<tag k="name" v="Mauranger kraftstasjon" />
		<tag k="ssr:stedsnr" v="308132" />
	</node>
	<node id="-448127" lat="60.1174861115" lon="6.26783888115">
		<tag k="fixme" v="consider place=hamlet" />
		<tag k="name" v="Sunndal" />
		<tag k="place" v="village" />
		<tag k="ssr:stedsnr" v="489187" />
	</node>
	<node id="-446078" lat="60.0101936449" lon="5.844188051">
		<tag k="name" v="Tufta" />
		<tag k="place" v="hamlet" />
		<tag k="ssr:stedsnr" v="308760" />
	</node>
	<node id="-446077" lat="60.0117858306" lon="5.9977644082">
		<tag k="alt_name" v="Myre" />
		<tag k="fixme" v="consider place=hamlet" />
		<tag k="name" v="Myra" />
		<tag k="place" v="farm" />
		<tag k="ssr:stedsnr" v="308759" />
	</node>
	<node id="-448124" lat="59.8591250003" lon="6.01532500883">
		<tag k="fixme" v="consider place=hamlet" />
		<tag k="name" v="Matersdalen" />
		<tag k="place" v="village" />
		<tag k="ssr:stedsnr" v="489173" />
	</node>
	<node id="-448123" lat="60.1089611147" lon="6.22442777374">
		<tag k="alt_name" v="Øyjordi" />
		<tag k="name" v="Øydjorda" />
		<tag k="place" v="farm" />
		<tag k="ssr:stedsnr" v="489170" />
	</node>
	<node id="-448122" lat="60.1155780675" lon="6.27290664089">
		<tag k="fixme" v="consider place=hamlet" />
		<tag k="name" v="Bondhus" />
		<tag k="place" v="farm" />
		<tag k="ssr:stedsnr" v="489168" />
	</node>
	<node id="-446073" lat="60.0284170023" lon="6.01029527686">
		<tag k="alt_name" v="Ruglebarmen" />
		<tag k="fixme" v="consider place=hamlet" />
		<tag k="name" v="Ruglebarm" />
		<tag k="place" v="farm" />
		<tag k="ssr:stedsnr" v="308741" />
	</node>
	<node id="-446072" lat="60.0151305529" lon="5.99934167067">
		<tag k="fixme" v="consider place=hamlet" />
		<tag k="name" v="Løfallsstranda" />
		<tag k="place" v="village" />
		<tag k="ssr:stedsnr" v="308739" />
	</node>
	<node id="-446071" lat="60.018362705" lon="5.80779364672">
		<tag k="name" v="Dale" />
		<tag k="place" v="hamlet" />
		<tag k="ssr:stedsnr" v="308691" />
	</node>
	<node id="-446066" lat="60.0310571856" lon="5.72013605472">
		<tag k="fixme" v="consider place=hamlet" />
		<tag k="name" v="Stussvik" />
		<tag k="place" v="farm" />
		<tag k="ssr:stedsnr" v="308616" />
	</node>
	<node id="-448111" lat="59.9254107149" lon="6.00355010486">
		<tag k="fixme" v="consider place=hamlet" />
		<tag k="name" v="Bakka" />
		<tag k="place" v="farm" />
		<tag k="ssr:stedsnr" v="489056" />
	</node>
	<node id="-448109" lat="59.9397373845" lon="5.99506581393">
		<tag k="fixme" v="consider place=hamlet" />
		<tag k="name" v="Hjelmeland" />
		<tag k="place" v="farm" />
		<tag k="ssr:stedsnr" v="489039" />
	</node>
	<node id="-448108" lat="59.9349734696" lon="5.99118043425">
		<tag k="fixme" v="consider place=hamlet" />
		<tag k="name" v="Rabben" />
		<tag k="place" v="farm" />
		<tag k="ssr:stedsnr" v="489037" />
	</node>
	<node id="-448107" lat="59.9431277796" lon="5.89020556391">
		<tag k="alt_name" v="Rød, yt;Rød" />
		<tag k="name" v="Ytre Rød" />
		<tag k="place" v="farm" />
		<tag k="ssr:stedsnr" v="489029" />
	</node>
	<node id="-446057" lat="60.1302444458" lon="6.32526944409">
		<tag k="name" v="Flota" />
		<tag k="place" v="farm" />
		<tag k="ssr:stedsnr" v="308162" />
	</node>
	<node id="-448103" lat="59.7326777738" lon="5.65764999864">
		<tag k="alt_name" v="Aksdal, øvre" />
		<tag k="name" v="Øvre Aksdal" />
		<tag k="place" v="farm" />
		<tag k="ssr:stedsnr" v="488093" />
	</node>
	<node id="-448101" lat="59.7182916622" lon="5.70049999512">
		<tag k="alt_name" v="Hamarsland" />
		<tag k="fixme" v="consider place=hamlet" />
		<tag k="name" v="Hammarsland" />
		<tag k="place" v="farm" />
		<tag k="ssr:stedsnr" v="488075" />
	</node>
	<node id="-446049" lat="60.0784916675" lon="6.29191945275">
		<tag k="historic" v="shieling" />
		<tag k="name" v="Nedstasætret" />
		<tag k="place" v="locality" />
		<tag k="ssr:stedsnr" v="308079" />
	</node>
	<node id="-448096" lat="59.7954500012" lon="5.73830277189">
		<tag k="name" v="Toftevåg" />
		<tag k="place" v="isolated_dwelling" />
		<tag k="ssr:stedsnr" v="468718" />
	</node>
	<node id="-448094" lat="59.9164583289" lon="5.7825888815">
		<tag k="name" v="Viki" />
		<tag k="place" v="isolated_dwelling" />
		<tag k="ssr:stedsnr" v="468365" />
	</node>
	<node id="-446044" lat="59.9298166702" lon="5.80832777367">
		<tag k="name" v="Ljosmyr" />
		<tag k="place" v="isolated_dwelling" />
		<tag k="ssr:stedsnr" v="307751" />
	</node>
	<node id="-448088" lat="60.1038356861" lon="6.01699788532">
		<tag k="historic" v="shieling" />
		<tag k="name" v="Øyestøl" />
		<tag k="place" v="locality" />
		<tag k="ssr:stedsnr" v="463978" />
	</node>
	<node id="-446038" lat="59.9659883366" lon="6.00016199193">
		<tag k="fixme" v="consider place=hamlet" />
		<tag k="name" v="Seim" />
		<tag k="place" v="farm" />
		<tag k="ssr:stedsnr" v="307490" />
	</node>
	<node id="-448081" lat="59.7580472261" lon="5.7483583407">
		<tag k="name" v="Arnavik" />
		<tag k="place" v="farm" />
		<tag k="ssr:stedsnr" v="463960" />
	</node>
	<node id="-446028" lat="59.7591008727" lon="5.75021952663">
		<tag k="fixme" v="consider place=hamlet" />
		<tag k="name" v="Ådnavik" />
		<tag k="place" v="farm" />
		<tag k="ssr:stedsnr" v="307413" />
	</node>
	<node id="-446027" lat="59.8026880529" lon="5.81889080346">
		<tag k="fixme" v="consider place=hamlet" />
		<tag k="name" v="Skarvaland" />
		<tag k="place" v="farm" />
		<tag k="ssr:stedsnr" v="307407" />
	</node>
	<node id="-446025" lat="59.7913777779" lon="5.68009165776">
		<tag k="fixme" v="consider place=suburb, village or hamlet" />
		<tag k="name" v="Eidsvik" />
		<tag k="place" v="quarter" />
		<tag k="ssr:stedsnr" v="307400" />
	</node>
	<node id="-446024" lat="59.7570707004" lon="6.03382167901">
		<tag k="alt_name" v="Trondheim" />
		<tag k="fixme" v="consider place=hamlet" />
		<tag k="name" v="Trondeim" />
		<tag k="place" v="farm" />
		<tag k="ssr:stedsnr" v="307394" />
	</node>
	<node id="-446022" lat="59.7867655599" lon="5.73432001297">
		<tag k="fixme" v="consider place=hamlet" />
		<tag k="name" v="Landa" />
		<tag k="place" v="farm" />
		<tag k="ssr:stedsnr" v="307386" />
	</node>
	<node id="-446019" lat="59.7685749998" lon="5.98580277685">
		<tag k="name" v="Nordbø" />
		<tag k="place" v="farm" />
		<tag k="ssr:stedsnr" v="307369" />
	</node>
	<node id="-446048" lat="60.0649305534" lon="6.28030833112">
		<tag k="historic" v="shieling" />
		<tag k="name" v="Fynderdalen" />
		<tag k="place" v="locality" />
		<tag k="ssr:stedsnr" v="308072" />
	</node>
	<node id="-446014" lat="59.7972500032" lon="5.9238500078">
		<tag k="name" v="Spannet" />
		<tag k="place" v="farm" />
		<tag k="ssr:stedsnr" v="307291" />
	</node>
	<node id="-448060" lat="60.062047222" lon="5.83489166147">
		<tag k="historic" v="shieling" />
		<tag k="name" v="Nettlandssetret" />
		<tag k="place" v="locality" />
		<tag k="ssr:stedsnr" v="463822" />
	</node>
	<node id="-446009" lat="59.8243777778" lon="6.04926944521">
		<tag k="historic" v="shieling" />
		<tag k="name" v="Vikastølen" />
		<tag k="place" v="locality" />
		<tag k="ssr:stedsnr" v="307280" />
	</node>
	<node id="-446007" lat="60.1773138858" lon="6.34279444813">
		<tag k="historic" v="shieling" />
		<tag k="name" v="Goddalen" />
		<tag k="place" v="locality" />
		<tag k="ssr:stedsnr" v="307271" />
	</node>
	<node id="-447753" lat="59.7786143616" lon="6.08970900512">
		<tag k="fixme" v="consider place=hamlet" />
		<tag k="name" v="Brekke" />
		<tag k="place" v="farm" />
		<tag k="ssr:stedsnr" v="246348" />
	</node>
	<node id="-448052" lat="60.0401578545" lon="6.10397897267">
		<tag k="alt_name" v="Myrdalsstølen" />
		<tag k="historic" v="shieling" />
		<tag k="loc_name" v="Myrdal" />
		<tag k="name" v="Myrdalssætret" />
		<tag k="place" v="locality" />
		<tag k="ssr:stedsnr" v="463718" />
	</node>
	<node id="-448051" lat="60.0694388903" lon="5.9741527812">
		<tag k="name" v="Låtrevik" />
		<tag k="place" v="farm" />
		<tag k="ssr:stedsnr" v="463714" />
	</node>
	<node id="-448035" lat="60.1760805554" lon="6.26153888273">
		<tag k="historic" v="shieling" />
		<tag k="name" v="Gjenfellestølane" />
		<tag k="place" v="locality" />
		<tag k="ssr:stedsnr" v="463313" />
	</node>
	<node id="-445986" lat="59.923091453" lon="6.00348606186">
		<tag k="fixme" v="consider place=hamlet" />
		<tag k="name" v="Myklebust" />
		<tag k="place" v="farm" />
		<tag k="ssr:stedsnr" v="307077" />
	</node>
	<node id="-445980" lat="59.9281306938" lon="5.84774016915">
		<tag k="fixme" v="consider place=hamlet" />
		<tag k="name" v="Eik" />
		<tag k="place" v="farm" />
		<tag k="ssr:stedsnr" v="307040" />
	</node>
	<node id="-445976" lat="59.9481833351" lon="5.90871943942">
		<tag k="alt_name" v="Kvernavika" />
		<tag k="name" v="Kvernavik" />
		<tag k="place" v="farm" />
		<tag k="ssr:stedsnr" v="307015" />
	</node>
	<node id="-445972" lat="59.7656563744" lon="6.04087323013">
		<tag k="alt_name" v="Haugstøl" />
		<tag k="fixme" v="consider place=hamlet" />
		<tag k="name" v="Haugsstøl" />
		<tag k="place" v="farm" />
		<tag k="ssr:stedsnr" v="307363" />
	</node>
	<node id="-445971" lat="59.7739999984" lon="5.86741943694">
		<tag k="name" v="Kolahaugen" />
		<tag k="place" v="farm" />
		<tag k="ssr:stedsnr" v="307346" />
	</node>
	<node id="-445968" lat="59.7909798739" lon="6.09426531327">
		<tag k="fixme" v="consider place=hamlet" />
		<tag k="name" v="Vika" />
		<tag k="place" v="farm" />
		<tag k="ssr:stedsnr" v="307332" />
	</node>
	<node id="-445965" lat="59.7857283209" lon="5.90465019827">
		<tag k="fixme" v="consider place=hamlet" />
		<tag k="name" v="Utåker" />
		<tag k="place" v="farm" />
		<tag k="ssr:stedsnr" v="307325" />
	</node>
	<node id="-446380" lat="59.8858980463" lon="5.96300387175">
		<tag k="fixme" v="consider place=hamlet" />
		<tag k="name" v="Fjellandsbølet" />
		<tag k="place" v="farm" />
		<tag k="ssr:stedsnr" v="401566" />
	</node>
	<node id="-448004" lat="59.7962861089" lon="5.82713888892">
		<tag k="name" v="Ersland" />
		<tag k="place" v="farm" />
		<tag k="ssr:stedsnr" v="462863" />
	</node>
	<node id="-450051" lat="59.7955611095" lon="5.6699194402">
		<tag k="name" v="Sandvik" />
		<tag k="place" v="isolated_dwelling" />
		<tag k="ssr:stedsnr" v="953755" />
	</node>
	<node id="-445946" lat="59.8507527776" lon="6.06487221713">
		<tag k="landuse" v="winter_sports" />
		<tag k="name" v="Fjellhaugen Skisenter" />
		<tag k="piste:type" v="downhill" />
		<tag k="ssr:stedsnr" v="282928" />
	</node>
	<node id="-447989" lat="60.0080833306" lon="5.99758888146">
		<tag k="historic" v="shieling" />
		<tag k="name" v="Flatestølen" />
		<tag k="place" v="locality" />
		<tag k="ssr:stedsnr" v="462629" />
	</node>
	<node id="-447742" lat="59.805375" lon="6.00191944385">
		<tag k="historic" v="shieling" />
		<tag k="name" v="Liarestølen" />
		<tag k="place" v="locality" />
		<tag k="ssr:stedsnr" v="246269" />
	</node>
	<node id="-450032" lat="59.8409138901" lon="5.70480555695">
		<tag k="fixme" v="consider place=hamlet" />
		<tag k="name" v="Våge" />
		<tag k="place" v="farm" />
		<tag k="ssr:stedsnr" v="949245" />
	</node>
	<node id="-450031" lat="59.9206722254" lon="5.90179444414">
		<tag k="name" v="Haugland vetle" />
		<tag k="place" v="farm" />
		<tag k="ssr:stedsnr" v="949238" />
	</node>
	<node id="-445933" lat="60.1146472254" lon="6.01395000778">
		<tag k="historic" v="shieling" />
		<tag k="name" v="Øvsthussetri" />
		<tag k="place" v="locality" />
		<tag k="ssr:stedsnr" v="281957" />
	</node>
	<node id="-446033" lat="59.9872166642" lon="6.03725000613">
		<tag k="name" v="Gjerde" />
		<tag k="place" v="farm" />
		<tag k="ssr:stedsnr" v="307457" />
	</node>
	<node id="-450012" lat="59.8544388918" lon="5.71010832687">
		<tag k="alt_name" v="Røyrvik" />
		<tag k="name" v="Rørvik" />
		<tag k="place" v="hamlet" />
		<tag k="ssr:stedsnr" v="948947" />
	</node>
	<node id="-447961" lat="59.7543697028" lon="5.71856172948">
		<tag k="name" v="Nordhus" />
		<tag k="place" v="farm" />
		<tag k="ssr:stedsnr" v="446692" />
	</node>
	<node id="-447958" lat="60.0421500024" lon="5.90061667287">
		<tag k="name" v="Stølen" />
		<tag k="place" v="farm" />
		<tag k="ssr:stedsnr" v="430975" />
	</node>
	<node id="-447956" lat="60.0648694454" lon="6.03740832736">
		<tag k="fixme" v="consider place=hamlet" />
		<tag k="loc_name" v="Lyngsstranda" />
		<tag k="name" v="Lyngstranda" />
		<tag k="place" v="village" />
		<tag k="ssr:stedsnr" v="430962" />
	</node>
	<node id="-447953" lat="60.008144441" lon="5.75330277853">
		<tag k="name" v="Ysteli" />
		<tag k="place" v="farm" />
		<tag k="ssr:stedsnr" v="430705" />
	</node>
	<node id="-450000" lat="60.0719527778" lon="5.89615555895">
		<tag k="historic" v="shieling" />
		<tag k="name" v="Erikstølen" />
		<tag k="place" v="locality" />
		<tag k="ssr:stedsnr" v="948833" />
	</node>
	<node id="-447951" lat="60.0007277812" lon="5.8154666662">
		<tag k="name" v="Troppa" />
		<tag k="place" v="isolated_dwelling" />
		<tag k="ssr:stedsnr" v="430688" />
	</node>
	<node id="-447947" lat="60.0901499957" lon="5.99507500441">
		<tag k="name" v="Dalen" />
		<tag k="place" v="farm" />
		<tag k="ssr:stedsnr" v="429931" />
	</node>
	<node id="-447946" lat="60.1078638861" lon="6.01001666826">
		<tag k="name" v="Tråna" />
		<tag k="place" v="isolated_dwelling" />
		<tag k="ssr:stedsnr" v="429928" />
	</node>
	<node id="-447944" lat="60.1876666656" lon="6.27740832724">
		<tag k="historic" v="shieling" />
		<tag k="name" v="Katturda" />
		<tag k="place" v="locality" />
		<tag k="ssr:stedsnr" v="429862" />
	</node>
	<node id="-447938" lat="60.0291249968" lon="6.03223889349">
		<tag k="historic" v="shieling" />
		<tag k="name" v="Strandasætret" />
		<tag k="place" v="locality" />
		<tag k="ssr:stedsnr" v="429743" />
	</node>
	<node id="-447937" lat="59.9450272514" lon="5.83848314266">
		<tag k="fixme" v="consider place=hamlet" />
		<tag k="name" v="Skorpo" />
		<tag k="place" v="farm" />
		<tag k="ssr:stedsnr" v="429726" />
	</node>
	<node id="-449978" lat="60.0247944466" lon="6.00455832581">
		<tag k="name" v="Storegjerdet" />
		<tag k="place" v="farm" />
		<tag k="ssr:stedsnr" v="948703" />
	</node>
	<node id="-445881" lat="59.8725749961" lon="5.76545000843">
		<tag k="name" v="Øyra" />
		<tag k="place" v="farm" />
		<tag k="ssr:stedsnr" v="281140" />
	</node>
	<node id="-447925" lat="59.7941527799" lon="5.7097027811">
		<tag k="name" v="Sæbøvik" />
		<tag k="place" v="village" />
		<tag k="ssr:stedsnr" v="429385" />
	</node>
	<node id="-447924" lat="59.7987166677" lon="5.71067778451">
		<tag k="name" v="Nygard" />
		<tag k="place" v="isolated_dwelling" />
		<tag k="ssr:stedsnr" v="429383" />
	</node>
	<node id="-446366" lat="60.1265470982" lon="6.05622585845">
		<tag k="fixme" v="consider place=hamlet" />
		<tag k="name" v="Haukanes" />
		<tag k="place" v="farm" />
		<tag k="ssr:stedsnr" v="369873" />
	</node>
	<node id="-447922" lat="59.7579186088" lon="6.04498770648">
		<tag k="alt_name" v="Indra Færavik;Feravika indre;Feravika, in" />
		<tag k="fixme" v="consider place=hamlet" />
		<tag k="name" v="Indre Feravika" />
		<tag k="place" v="farm" />
		<tag k="ssr:stedsnr" v="429374" />
	</node>
	<node id="-446365" lat="60.0233111151" lon="5.90344444633">
		<tag k="alt_name" v="Askestøda;Askestøa" />
		<tag k="name" v="Askestøi" />
		<tag k="place" v="locality" />
		<tag k="ssr:stedsnr" v="369736" />
	</node>
	<node id="-447915" lat="59.8003166623" lon="5.66195277299">
		<tag k="name" v="Naustvik" />
		<tag k="place" v="isolated_dwelling" />
		<tag k="ssr:stedsnr" v="429311" />
	</node>
	<node id="-447912" lat="59.7944857262" lon="6.09914814162">
		<tag k="fixme" v="consider place=hamlet" />
		<tag k="name" v="Åkra" />
		<tag k="place" v="farm" />
		<tag k="ssr:stedsnr" v="429282" />
	</node>
	<node id="-447911" lat="59.7790814425" lon="5.97429042791">
		<tag k="alt_name" v="Bauge, yt;Ytra Bauge" />
		<tag k="fixme" v="consider place=hamlet" />
		<tag k="name" v="Ytre Bauge" />
		<tag k="place" v="farm" />
		<tag k="ssr:stedsnr" v="429274" />
	</node>
	<node id="-447910" lat="59.8004416659" lon="6.0301611059">
		<tag k="historic" v="shieling" />
		<tag k="name" v="Alsåkerstølen" />
		<tag k="place" v="locality" />
		<tag k="ssr:stedsnr" v="429254" />
	</node>
	<node id="-445855" lat="59.8893055566" lon="5.77198055126">
		<tag k="name" v="Aksnes" />
		<tag k="place" v="farm" />
		<tag k="ssr:stedsnr" v="280918" />
	</node>
	<node id="-445846" lat="60.091405552" lon="5.91488055275">
		<tag k="historic" v="shieling" />
		<tag k="name" v="Bergtun" />
		<tag k="place" v="locality" />
		<tag k="ssr:stedsnr" v="280786" />
	</node>
	<node id="-446361" lat="60.1344764309" lon="6.22552635976">
		<tag k="alt_name" v="Øyjorda, øvre" />
		<tag k="fixme" v="consider place=hamlet" />
		<tag k="name" v="Øvre Øyjorda" />
		<tag k="place" v="farm" />
		<tag k="ssr:stedsnr" v="369170" />
	</node>
	<node id="-447892" lat="59.8587583359" lon="5.99354721658">
		<tag k="alt_name" v="Indre Matre" />
		<tag k="name" v="Matre" />
		<tag k="place" v="hamlet" />
		<tag k="ssr:stedsnr" v="429148" />
	</node>
	<node id="-447891" lat="60.1272333371" lon="6.33581389089">
		<tag k="historic" v="shieling" />
		<tag k="name" v="Øvrehussætret" />
		<tag k="place" v="locality" />
		<tag k="ssr:stedsnr" v="429141" />
	</node>
	<node id="-447886" lat="60.0907361111" lon="6.34308889527">
		<tag k="fixme" v="consider tourism=alpine_hut or tourism=chalet" />
		<tag k="name" v="Breidablikk" />
		<tag k="ssr:stedsnr" v="429113" />
		<tag k="tourism" v="wilderness_hut" />
	</node>
	<node id="-447880" lat="59.932089965" lon="5.99308777595">
		<tag k="fixme" v="consider place=hamlet" />
		<tag k="name" v="Fausk" />
		<tag k="place" v="farm" />
		<tag k="ssr:stedsnr" v="429053" />
	</node>
	<node id="-447879" lat="59.9232416447" lon="5.88072301208">
		<tag k="name" v="Døsland" />
		<tag k="place" v="hamlet" />
		<tag k="ssr:stedsnr" v="429050" />
	</node>
	<node id="-447875" lat="59.999130551" lon="5.79289166108">
		<tag k="fixme" v="consider place=hamlet" />
		<tag k="name" v="Tråvik" />
		<tag k="place" v="farm" />
		<tag k="ssr:stedsnr" v="428640" />
	</node>
	<node id="-447874" lat="59.9963855208" lon="5.78456857925">
		<tag k="fixme" v="consider place=hamlet" />
		<tag k="name" v="Berge" />
		<tag k="place" v="farm" />
		<tag k="ssr:stedsnr" v="428637" />
	</node>
	<node id="-445824" lat="59.8595388852" lon="5.99086111322">
		<tag k="alt_name" v="Indre Matre2" />
		<tag k="fixme" v="consider place=hamlet" />
		<tag k="name" v="Indre Matre" />
		<tag k="place" v="farm" />
		<tag k="ssr:stedsnr" v="280157" />
	</node>
	<node id="-449918" lat="59.7424901246" lon="5.71126635629">
		<tag k="name" v="Nordhus" />
		<tag k="place" v="farm" />
		<tag k="ssr:stedsnr" v="932638" />
	</node>
	<node id="-449917" lat="59.7397138864" lon="5.70417777899">
		<tag k="fixme" v="consider place=hamlet" />
		<tag k="name" v="Fjelberg" />
		<tag k="place" v="farm" />
		<tag k="ssr:stedsnr" v="932588" />
	</node>
	<node id="-445820" lat="59.8700194481" lon="5.97861388387">
		<tag k="historic" v="shieling" />
		<tag k="name" v="Stølane" />
		<tag k="place" v="locality" />
		<tag k="ssr:stedsnr" v="280120" />
	</node>
	<node id="-447866" lat="59.7826333323" lon="6.08818056416">
		<tag k="name" v="Lauvskor" />
		<tag k="place" v="locality" />
		<tag k="ssr:stedsnr" v="428296" />
	</node>
	<node id="-447865" lat="59.7833250018" lon="6.11601111196">
		<tag k="name" v="Vågsnes" />
		<tag k="place" v="farm" />
		<tag k="ssr:stedsnr" v="428293" />
	</node>
	<node id="-449912" lat="60.1044573889" lon="6.19340739102">
		<tag k="fixme" v="consider place=hamlet" />
		<tag k="name" v="Tveitnes" />
		<tag k="place" v="farm" />
		<tag k="ssr:stedsnr" v="915926" />
	</node>
	<node id="-445815" lat="60.0166611121" lon="6.00024999517">
		<tag k="name" v="Løfall" />
		<tag k="place" v="farm" />
		<tag k="ssr:stedsnr" v="273079" />
	</node>
	<node id="-449908" lat="60.1188694448" lon="6.07552777715">
		<tag k="name" v="Selvær" />
		<tag k="place" v="isolated_dwelling" />
		<tag k="ssr:stedsnr" v="915898" />
	</node>
	<node id="-447856" lat="59.8706944416" lon="5.96678611991">
		<tag k="name" v="Stølane" />
		<tag k="place" v="locality" />
		<tag k="ssr:stedsnr" v="428110" />
	</node>
	<node id="-449902" lat="60.0006691496" lon="5.86264167538">
		<tag k="alt_name" v="Støa" />
		<tag k="fixme" v="consider place=hamlet" />
		<tag k="name" v="Støda" />
		<tag k="place" v="farm" />
		<tag k="ssr:stedsnr" v="915765" />
	</node>
	<node id="-449901" lat="60.0035444407" lon="5.98503332938">
		<tag k="alt_name" v="Røynholm" />
		<tag k="name" v="Røyneholm" />
		<tag k="place" v="farm" />
		<tag k="ssr:stedsnr" v="915762" />
	</node>
	<node id="-449900" lat="60.0176455857" lon="6.00091468777">
		<tag k="fixme" v="consider place=hamlet" />
		<tag k="name" v="Veslekra" />
		<tag k="place" v="farm" />
		<tag k="ssr:stedsnr" v="915754" />
	</node>
	<node id="-449899" lat="60.011491664" lon="5.76550277574">
		<tag k="name" v="Skårastølen" />
		<tag k="place" v="isolated_dwelling" />
		<tag k="ssr:stedsnr" v="915702" />
	</node>
	<node id="-449898" lat="60.0150527784" lon="5.76605276979">
		<tag k="name" v="Holmen" />
		<tag k="place" v="farm" />
		<tag k="ssr:stedsnr" v="915699" />
	</node>
	<node id="-447846" lat="59.9583467231" lon="6.0258940262">
		<tag k="fixme" v="consider place=hamlet" />
		<tag k="name" v="Naterstad" />
		<tag k="place" v="farm" />
		<tag k="ssr:stedsnr" v="428001" />
	</node>
	<node id="-449893" lat="60.0233533153" lon="5.80414748729">
		<tag k="fixme" v="consider place=hamlet" />
		<tag k="name" v="Roaldstveit" />
		<tag k="place" v="farm" />
		<tag k="ssr:stedsnr" v="915655" />
	</node>
	<node id="-447844" lat="59.9578805515" lon="5.99287778553">
		<tag k="name" v="Lundsneset" />
		<tag k="place" v="quarter" />
		<tag k="ssr:stedsnr" v="420772" />
	</node>
	<node id="-447718" lat="59.9611444453" lon="6.08032222678">
		<tag k="historic" v="shieling" />
		<tag k="name" v="Kuhammaren" />
		<tag k="place" v="locality" />
		<tag k="ssr:stedsnr" v="246010" />
	</node>
	<node id="-449886" lat="60.158695583" lon="5.98304768526">
		<tag k="fixme" v="consider place=hamlet" />
		<tag k="name" v="Øyarhamn" />
		<tag k="place" v="farm" />
		<tag k="ssr:stedsnr" v="915539" />
	</node>
	<node id="-447837" lat="60.1133416645" lon="5.91074166866">
		<tag k="name" v="Sagholmen" />
		<tag k="place" v="farm" />
		<tag k="ssr:stedsnr" v="267040" />
	</node>
	<node id="-447836" lat="60.0378611088" lon="5.90444999278">
		<tag k="alt_name" v="Nettland indre" />
		<tag k="name" v="Indrenettland" />
		<tag k="place" v="farm" />
		<tag k="ssr:stedsnr" v="248999" />
	</node>
	<node id="-447835" lat="60.1100194424" lon="5.94430000416">
		<tag k="name" v="Utlebøen" />
		<tag k="place" v="isolated_dwelling" />
		<tag k="ssr:stedsnr" v="248936" />
	</node>
	<node id="-449881" lat="59.9181875826" lon="5.80661327731">
		<tag k="fixme" v="consider place=hamlet" />
		<tag k="name" v="Tveit" />
		<tag k="place" v="farm" />
		<tag k="ssr:stedsnr" v="914723" />
	</node>
	<node id="-447832" lat="60.0538613984" lon="6.02229604022">
		<tag k="name" v="Årsnes" />
		<tag k="place" v="hamlet" />
		<tag k="ssr:stedsnr" v="247982" />
	</node>
	<node id="-447831" lat="60.0581313057" lon="5.90834426109">
		<tag k="alt_name" v="Kirkhus" />
		<tag k="fixme" v="consider place=hamlet" />
		<tag k="name" v="Kyrkjehus" />
		<tag k="old_name" v="Bjørkhus" />
		<tag k="place" v="farm" />
		<tag k="ssr:stedsnr" v="247957" />
	</node>
	<node id="-449874" lat="59.9631750038" lon="6.05086388791">
		<tag k="historic" v="shieling" />
		<tag k="name" v="Gamlestøl" />
		<tag k="place" v="locality" />
		<tag k="ssr:stedsnr" v="914506" />
	</node>
	<node id="-449872" lat="59.991536108" lon="6.00027778398">
		<tag k="name" v="Vollen" />
		<tag k="place" v="farm" />
		<tag k="ssr:stedsnr" v="914488" />
	</node>
	<node id="-447822" lat="60.0167999994" lon="6.02636388528">
		<tag k="historic" v="shieling" />
		<tag k="name" v="Kjeldestølssætret" />
		<tag k="place" v="locality" />
		<tag k="ssr:stedsnr" v="247755" />
	</node>
	<node id="-449869" lat="59.9916677318" lon="6.0262764052">
		<tag k="fixme" v="consider place=hamlet" />
		<tag k="name" v="Eik" />
		<tag k="place" v="farm" />
		<tag k="ssr:stedsnr" v="914479" />
	</node>
	<node id="-447820" lat="60.0133644542" lon="5.80750658915">
		<tag k="fixme" v="consider place=hamlet" />
		<tag k="name" v="Husa" />
		<tag k="place" v="farm" />
		<tag k="ssr:stedsnr" v="247705" />
	</node>
	<node id="-449867" lat="59.9805611105" lon="6.0126750049">
		<tag k="name" v="Stølen" />
		<tag k="place" v="farm" />
		<tag k="ssr:stedsnr" v="914461" />
	</node>
	<node id="-447816" lat="59.9278717694" lon="5.83757347645">
		<tag k="fixme" v="consider place=hamlet" />
		<tag k="name" v="Steinsletta" />
		<tag k="place" v="farm" />
		<tag k="ssr:stedsnr" v="247681" />
	</node>
	<node id="-449861" lat="59.7723015511" lon="5.83060799951">
		<tag k="fixme" v="consider place=hamlet" />
		<tag k="name" v="Mjelkevik" />
		<tag k="place" v="farm" />
		<tag k="ssr:stedsnr" v="914434" />
	</node>
	<node id="-449857" lat="59.7612908647" lon="6.04135959578">
		<tag k="fixme" v="consider place=hamlet" />
		<tag k="name" v="Ølvestveit" />
		<tag k="place" v="farm" />
		<tag k="ssr:stedsnr" v="914393" />
	</node>
	<node id="-447807" lat="60.1634388886" lon="5.99338888307">
		<tag k="name" v="Myrane" />
		<tag k="place" v="isolated_dwelling" />
		<tag k="ssr:stedsnr" v="247535" />
	</node>
	<node id="-449854" lat="59.7675861147" lon="6.04917499535">
		<tag k="name" v="Løkene" />
		<tag k="place" v="farm" />
		<tag k="ssr:stedsnr" v="914364" />
	</node>
	<node id="-447800" lat="59.7965341188" lon="5.81911628489">
		<tag k="fixme" v="consider place=hamlet" />
		<tag k="name" v="Ersland" />
		<tag k="place" v="farm" />
		<tag k="ssr:stedsnr" v="247390" />
	</node>
	<node id="-449840" lat="59.7926277748" lon="6.08948056244">
		<tag k="alt_name" v="Heggland" />
		<tag k="name" v="Heggeland" />
		<tag k="place" v="farm" />
		<tag k="ssr:stedsnr" v="914310" />
	</node>
	<node id="-449839" lat="59.7971939264" lon="6.09581581123">
		<tag k="fixme" v="consider place=hamlet" />
		<tag k="name" v="Årtun" />
		<tag k="place" v="farm" />
		<tag k="ssr:stedsnr" v="914311" />
	</node>
	<node id="-447790" lat="59.860973381" lon="5.73377906062">
		<tag k="alt_name" v="Ryssland" />
		<tag k="fixme" v="consider place=hamlet" />
		<tag k="name" v="Røssland" />
		<tag k="place" v="farm" />
		<tag k="ssr:stedsnr" v="247268" />
	</node>
	<node id="-449834" lat="59.7927972195" lon="6.03650000667">
		<tag k="historic" v="shieling" />
		<tag k="name" v="Fatlandsstølen" />
		<tag k="place" v="locality" />
		<tag k="ssr:stedsnr" v="914287" />
	</node>
	<node id="-449832" lat="60.1652500027" lon="6.28160832934">
		<tag k="alt_name" v="Stølatræ" />
		<tag k="name" v="Træd" />
		<tag k="place" v="farm" />
		<tag k="ssr:stedsnr" v="914267" />
	</node>
	<node id="-447783" lat="60.1553555549" lon="6.23731389265">
		<tag k="alt_name" v="Heimeseterstølen" />
		<tag k="historic" v="shieling" />
		<tag k="name" v="Heimasætret" />
		<tag k="place" v="locality" />
		<tag k="ssr:stedsnr" v="247221" />
	</node>
	<node id="-447782" lat="59.8257099717" lon="5.98896429505">
		<tag k="fixme" v="consider place=hamlet" />
		<tag k="name" v="Materstveit" />
		<tag k="place" v="farm" />
		<tag k="ssr:stedsnr" v="247216" />
	</node>
	<node id="-447781" lat="59.8298633538" lon="6.01919136681">
		<tag k="fixme" v="consider place=hamlet" />
		<tag k="name" v="Heggland" />
		<tag k="place" v="farm" />
		<tag k="ssr:stedsnr" v="247217" />
	</node>
	<node id="-449824" lat="59.846300004" lon="6.05507499403">
		<tag k="historic" v="shieling" />
		<tag k="name" v="Bergsstølen" />
		<tag k="place" v="locality" />
		<tag k="ssr:stedsnr" v="914189" />
	</node>
	<node id="-447774" lat="60.1284000001" lon="6.32358610922">
		<tag k="name" v="Hålandsstølen" />
		<tag k="place" v="farm" />
		<tag k="ssr:stedsnr" v="247149" />
	</node>
	<node id="-447772" lat="59.8701163047" lon="6.06261512175">
		<tag k="historic" v="shieling" />
		<tag k="name" v="Bjørnabøle" />
		<tag k="place" v="locality" />
		<tag k="ssr:stedsnr" v="247145" />
	</node>
	<node id="-447768" lat="60.0763499999" lon="6.34756389266">
		<tag k="fixme" v="consider tourism=alpine_hut or tourism=chalet" />
		<tag k="name" v="Fonnabu" />
		<tag k="ssr:stedsnr" v="247083" />
		<tag k="tourism" v="wilderness_hut" />
	</node>
	<node id="-447763" lat="59.9927642337" lon="5.78667932763">
		<tag k="fixme" v="consider place=hamlet" />
		<tag k="name" v="Presthus" />
		<tag k="place" v="farm" />
		<tag k="ssr:stedsnr" v="246633" />
	</node>
	<node id="-447761" lat="59.96488611" lon="5.99616112008">
		<tag k="fixme" v="consider place=suburb, village or hamlet" />
		<tag k="name" v="Seimsfoss" />
		<tag k="place" v="quarter" />
		<tag k="ssr:stedsnr" v="246430" />
	</node>
	<node id="-447759" lat="59.7686246443" lon="5.78868437239">
		<tag k="alt_name" v="Røen" />
		<tag k="fixme" v="consider place=hamlet" />
		<tag k="name" v="Røo" />
		<tag k="place" v="farm" />
		<tag k="ssr:stedsnr" v="246404" />
	</node>
	<node id="-447758" lat="59.7652444484" lon="5.83670833095">
		<tag k="alt_name" v="Djupaviki" />
		<tag k="name" v="Djupevika" />
		<tag k="place" v="isolated_dwelling" />
		<tag k="ssr:stedsnr" v="246390" />
	</node>
	<node id="-449804" lat="59.9360305593" lon="6.04176666197">
		<tag k="historic" v="shieling" />
		<tag k="name" v="Skinabergsstølen" />
		<tag k="place" v="locality" />
		<tag k="ssr:stedsnr" v="914036" />
	</node>
	<node id="-447754" lat="59.7768916704" lon="6.02828610457">
		<tag k="historic" v="shieling" />
		<tag k="name" v="Kleivstølen" />
		<tag k="place" v="locality" />
		<tag k="ssr:stedsnr" v="246351" />
	</node>
	<node id="-449801" lat="59.950271064" lon="5.99056647468">
		<tag k="fixme" v="consider place=hamlet" />
		<tag k="name" v="Lund" />
		<tag k="place" v="farm" />
		<tag k="ssr:stedsnr" v="914021" />
	</node>
	<node id="-447751" lat="59.7725169763" lon="5.87378824335">
		<tag k="fixme" v="consider place=hamlet" />
		<tag k="name" v="Ølfernes" />
		<tag k="place" v="farm" />
		<tag k="ssr:stedsnr" v="246334" />
	</node>
	<node id="-449795" lat="59.7482952384" lon="5.74571426736">
		<tag k="fixme" v="consider place=hamlet" />
		<tag k="name" v="Fatland" />
		<tag k="place" v="farm" />
		<tag k="ssr:stedsnr" v="913150" />
	</node>
	<node id="-447745" lat="59.7855777768" lon="6.11446111346">
		<tag k="name" v="Nesheim" />
		<tag k="place" v="farm" />
		<tag k="ssr:stedsnr" v="246303" />
	</node>
	<node id="-449791" lat="59.7329601656" lon="5.69253345663">
		<tag k="fixme" v="consider place=hamlet" />
		<tag k="name" v="Vik" />
		<tag k="place" v="farm" />
		<tag k="ssr:stedsnr" v="913100" />
	</node>
	<node id="-449790" lat="59.8366500025" lon="5.7211277711">
		<tag k="name" v="Slettestølen" />
		<tag k="place" v="quarter" />
		<tag k="ssr:stedsnr" v="906872" />
	</node>
	<node id="-449788" lat="60.0230305575" lon="6.00266666764">
		<tag k="name" v="Helhaug" />
		<tag k="place" v="farm" />
		<tag k="ssr:stedsnr" v="874097" />
	</node>
	<node id="-447738" lat="59.8180750031" lon="6.09243889722">
		<tag k="fixme" v="multiple name tags, choose one and add the other to alt_name" />
		<tag k="historic" v="shieling" />
		<tag k="name" v="Gamlestølen;Årtunsstølen" />
		<tag k="old_name" v="Årtunstølen" />
		<tag k="place" v="locality" />
		<tag k="ssr:stedsnr" v="246235" />
	</node>
	<node id="-449785" lat="60.0491500032" lon="6.02237777806">
		<tag k="alt_name" v="Teigen" />
		<tag k="name" v="Pileteigen" />
		<tag k="place" v="farm" />
		<tag k="ssr:stedsnr" v="855996" />
	</node>
	<node id="-449783" lat="60.0348305553" lon="5.90700000441">
		<tag k="alt_name" v="Nettland ytre" />
		<tag k="name" v="Ytrenettland" />
		<tag k="place" v="farm" />
		<tag k="ssr:stedsnr" v="855989" />
	</node>
	<node id="-449782" lat="60.0420277789" lon="5.87454444494">
		<tag k="fixme" v="consider place=hamlet" />
		<tag k="name" v="Tveitane" />
		<tag k="place" v="farm" />
		<tag k="ssr:stedsnr" v="855974" />
	</node>
	<node id="-449781" lat="60.1030000041" lon="5.91426666068">
		<tag k="alt_name" v="Bjørklund" />
		<tag k="name" v="Sauahola" />
		<tag k="place" v="isolated_dwelling" />
		<tag k="ssr:stedsnr" v="855896" />
	</node>
	<node id="-447732" lat="59.9017111073" lon="6.03401667149">
		<tag k="historic" v="shieling" />
		<tag k="name" v="Aterstadsætra" />
		<tag k="place" v="locality" />
		<tag k="ssr:stedsnr" v="246106" />
	</node>
	<node id="-449774" lat="60.1046591167" lon="6.02659099793">
		<tag k="fixme" v="consider place=hamlet" />
		<tag k="name" v="Åkre" />
		<tag k="place" v="farm" />
		<tag k="ssr:stedsnr" v="854933" />
	</node>
	<node id="-449773" lat="60.1015692563" lon="6.17625026639">
		<tag k="fixme" v="consider place=hamlet" />
		<tag k="name" v="Fureberg" />
		<tag k="place" v="farm" />
		<tag k="ssr:stedsnr" v="854924" />
	</node>
	<node id="-449772" lat="60.0974805539" lon="5.95406389759">
		<tag k="name" v="Rosshovda" />
		<tag k="place" v="farm" />
		<tag k="ssr:stedsnr" v="854904" />
	</node>
	<node id="-449771" lat="60.099561107" lon="6.02037778608">
		<tag k="name" v="Knarrevika" />
		<tag k="place" v="isolated_dwelling" />
		<tag k="ssr:stedsnr" v="854900" />
	</node>
	<node id="-447721" lat="59.9441055535" lon="5.99374999997">
		<tag k="name" v="Ognhaugen" />
		<tag k="place" v="farm" />
		<tag k="ssr:stedsnr" v="246027" />
	</node>
	<node id="-449766" lat="60.0059656796" lon="5.86064425266">
		<tag k="fixme" v="consider place=hamlet" />
		<tag k="name" v="Skarvatun" />
		<tag k="place" v="farm" />
		<tag k="ssr:stedsnr" v="854758" />
	</node>
	<node id="-446655" lat="59.9876463475" lon="5.9496011482">
		<tag k="fixme" v="consider place=hamlet" />
		<tag k="name" v="Kalven" />
		<tag k="place" v="farm" />
		<tag k="ssr:stedsnr" v="990436" />
	</node>
	<node id="-447708" lat="59.8538805592" lon="5.70723055712">
		<tag k="name" v="Skuffene" />
		<tag k="place" v="isolated_dwelling" />
		<tag k="ssr:stedsnr" v="226612" />
	</node>
	<node id="-447705" lat="59.7937916665" lon="5.7272138853">
		<tag k="name" v="Videvoll" />
		<tag k="place" v="isolated_dwelling" />
		<tag k="ssr:stedsnr" v="225728" />
	</node>
	<node id="-449748" lat="59.7684900598" lon="6.04343940447">
		<tag k="alt_name" v="Skrome" />
		<tag k="fixme" v="consider place=hamlet" />
		<tag k="name" v="Skrumme" />
		<tag k="place" v="farm" />
		<tag k="ssr:stedsnr" v="854343" />
	</node>
	<node id="-449745" lat="59.816106291" lon="5.81545841761">
		<tag k="fixme" v="consider place=hamlet" />
		<tag k="name" v="Handaland" />
		<tag k="place" v="farm" />
		<tag k="ssr:stedsnr" v="854326" />
	</node>
	<node id="-449742" lat="59.8677288144" lon="5.74590120918">
		<tag k="fixme" v="consider place=hamlet" />
		<tag k="name" v="Bogsnes" />
		<tag k="place" v="farm" />
		<tag k="ssr:stedsnr" v="854288" />
	</node>
	<node id="-449741" lat="59.7973916643" lon="6.13237500256">
		<tag k="alt_name" v="Nedste Vågsstøl" />
		<tag k="historic" v="shieling" />
		<tag k="name" v="Vågsstølen" />
		<tag k="place" v="locality" />
		<tag k="ssr:stedsnr" v="854286" />
	</node>
	<node id="-447684" lat="59.9332972263" lon="5.87055554937">
		<tag k="historic" v="shieling" />
		<tag k="name" v="Stølen" />
		<tag k="place" v="locality" />
		<tag k="ssr:stedsnr" v="220982" />
	</node>
	<node id="-447055" lat="59.9257111141" lon="5.83999722481">
		<tag k="name" v="Pallane" />
		<tag k="place" v="farm" />
		<tag k="ssr:stedsnr" v="85097" />
	</node>
	<node id="-449719" lat="59.9201534691" lon="6.00734921714">
		<tag k="fixme" v="consider place=hamlet" />
		<tag k="name" v="Landa" />
		<tag k="place" v="farm" />
		<tag k="ssr:stedsnr" v="854053" />
	</node>
	<node id="-449717" lat="59.924605556" lon="6.15785834124">
		<tag k="historic" v="shieling" />
		<tag k="name" v="Blådalssætra" />
		<tag k="place" v="locality" />
		<tag k="ssr:stedsnr" v="854048" />
	</node>
	<node id="-449707" lat="59.7834305534" lon="5.80274166849">
		<tag k="alt_name" v="Høylandsbygdi" />
		<tag k="fixme" v="consider place=hamlet" />
		<tag k="name" v="Høylandsbygda" />
		<tag k="place" v="village" />
		<tag k="ssr:stedsnr" v="853388" />
	</node>
	<node id="-449697" lat="59.8854750015" lon="5.9618416723">
		<tag k="name" v="Friheim" />
		<tag k="old_name" v="Fridheim" />
		<tag k="place" v="farm" />
		<tag k="ssr:stedsnr" v="853096" />
	</node>
	<node id="-447641" lat="60.0307472238" lon="6.08367221377">
		<tag k="historic" v="shieling" />
		<tag k="name" v="Nipestølen" />
		<tag k="place" v="locality" />
		<tag k="ssr:stedsnr" v="220786" />
	</node>
	<node id="-449686" lat="59.7142156902" lon="5.71757789395">
		<tag k="fixme" v="consider place=hamlet" />
		<tag k="name" v="Dyrnes" />
		<tag k="place" v="farm" />
		<tag k="ssr:stedsnr" v="853057" />
	</node>
	<node id="-446318" lat="59.8365749972" lon="5.71704721916">
		<tag k="fixme" v="consider place=suburb, village or hamlet" />
		<tag k="name" v="Sunde" />
		<tag k="place" v="quarter" />
		<tag k="ssr:stedsnr" v="368335" />
	</node>
	<node id="-447633" lat="59.9852249978" lon="6.00924165821">
		<tag k="fixme" v="consider place=hamlet" />
		<tag k="name" v="Vang" />
		<tag k="place" v="farm" />
		<tag k="ssr:stedsnr" v="220752" />
	</node>
	<node id="-449675" lat="59.7905804675" lon="5.70486328028">
		<tag k="fixme" v="consider place=hamlet" />
		<tag k="name" v="Sjo" />
		<tag k="place" v="farm" />
		<tag k="ssr:stedsnr" v="832748" />
	</node>
	<node id="-449672" lat="60.0632666633" lon="5.89365555175">
		<tag k="historic" v="shieling" />
		<tag k="name" v="Stølane" />
		<tag k="place" v="locality" />
		<tag k="ssr:stedsnr" v="828864" />
	</node>
	<node id="-446315" lat="59.7972921866" lon="6.09033635803">
		<tag k="fixme" v="consider place=hamlet" />
		<tag k="name" v="Øvstebø" />
		<tag k="place" v="farm" />
		<tag k="ssr:stedsnr" v="368327" />
	</node>
	<node id="-446656" lat="59.8864245926" lon="5.7751796374">
		<tag k="fixme" v="consider place=hamlet" />
		<tag k="name" v="Langgåta" />
		<tag k="place" v="farm" />
		<tag k="ssr:stedsnr" v="990439" />
	</node>
	<node id="-449657" lat="59.8120416664" lon="6.08603889696">
		<tag k="historic" v="shieling" />
		<tag k="name" v="Slottestølen" />
		<tag k="place" v="locality" />
		<tag k="ssr:stedsnr" v="828170" />
	</node>
	<node id="-449643" lat="59.9155777739" lon="5.78632222991">
		<tag k="name" v="Hellvika" />
		<tag k="place" v="farm" />
		<tag k="ssr:stedsnr" v="827956" />
	</node>
	<node id="-449642" lat="59.7868389236" lon="5.7993908986">
		<tag k="fixme" v="consider place=hamlet" />
		<tag k="name" v="Hillestad" />
		<tag k="place" v="farm" />
		<tag k="ssr:stedsnr" v="827951" />
	</node>
	<node id="-449641" lat="59.7804945203" lon="5.80395377715">
		<tag k="fixme" v="consider place=hamlet" />
		<tag k="name" v="Hauge" />
		<tag k="place" v="farm" />
		<tag k="ssr:stedsnr" v="827950" />
	</node>
	<node id="-449640" lat="59.7772749981" lon="5.81312222863">
		<tag k="historic" v="shieling" />
		<tag k="name" v="Indrestølen" />
		<tag k="place" v="locality" />
		<tag k="ssr:stedsnr" v="827949" />
	</node>
	<node id="-449639" lat="59.7369776136" lon="5.65118152491">
		<tag k="alt_name" v="Aske" />
		<tag k="fixme" v="consider place=hamlet" />
		<tag k="name" v="Askje" />
		<tag k="place" v="farm" />
		<tag k="ssr:stedsnr" v="827947" />
	</node>
	<node id="-449638" lat="59.7304354004" lon="5.7031106312">
		<tag k="fixme" v="consider place=hamlet" />
		<tag k="name" v="Karteid" />
		<tag k="place" v="farm" />
		<tag k="ssr:stedsnr" v="827945" />
	</node>
	<node id="-449623" lat="60.0090083351" lon="5.76647222822">
		<tag k="name" v="Skukken" />
		<tag k="place" v="farm" />
		<tag k="ssr:stedsnr" v="827842" />
	</node>
	<node id="-447564" lat="60.0613944423" lon="6.03110556087">
		<tag k="name" v="Skortveit" />
		<tag k="place" v="farm" />
		<tag k="ssr:stedsnr" v="206051" />
	</node>
	<node id="-447563" lat="60.0674642013" lon="6.04315209551">
		<tag k="name" v="Indre Vardanes" />
		<tag k="place" v="farm" />
		<tag k="ssr:stedsnr" v="206050" />
	</node>
	<node id="-447562" lat="59.9952416636" lon="6.02335277112">
		<tag k="name" v="Mel" />
		<tag k="place" v="farm" />
		<tag k="ssr:stedsnr" v="206017" />
	</node>
	<node id="-447671" lat="59.8009861141" lon="5.65414999461">
		<tag k="name" v="Higraneset" />
		<tag k="place" v="farm" />
		<tag k="ssr:stedsnr" v="220948" />
	</node>
	<node id="-447560" lat="59.9192055563" lon="5.79089444611">
		<tag k="alt_name" v="Kroa" />
		<tag k="name" v="Kro" />
		<tag k="place" v="farm" />
		<tag k="ssr:stedsnr" v="206136" />
	</node>
	<node id="-447553" lat="60.0437874213" lon="5.90512795833">
		<tag k="fixme" v="consider place=hamlet" />
		<tag k="name" v="Hjortås" />
		<tag k="place" v="farm" />
		<tag k="ssr:stedsnr" v="187968" />
	</node>
	<node id="-447669" lat="59.7919336417" lon="5.73473597956">
		<tag k="fixme" v="consider place=hamlet" />
		<tag k="name" v="Hvidevoll" />
		<tag k="place" v="farm" />
		<tag k="ssr:stedsnr" v="220938" />
	</node>
	<node id="-449596" lat="59.9509638862" lon="5.99441945171">
		<tag k="name" v="Sæberg" />
		<tag k="place" v="farm" />
		<tag k="ssr:stedsnr" v="827700" />
	</node>
	<node id="-447547" lat="60.123186113" lon="6.05058333091">
		<tag k="alt_name" v="Ytterstø" />
		<tag k="name" v="Ytrestød" />
		<tag k="place" v="locality" />
		<tag k="ssr:stedsnr" v="187871" />
	</node>
	<node id="-447544" lat="60.0042583326" lon="5.76555000696">
		<tag k="name" v="Vikane" />
		<tag k="place" v="farm" />
		<tag k="ssr:stedsnr" v="187663" />
	</node>
	<node id="-447537" lat="60.1062549116" lon="6.00673664112">
		<tag k="fixme" v="consider place=hamlet" />
		<tag k="name" v="Gjerde" />
		<tag k="place" v="farm" />
		<tag k="ssr:stedsnr" v="186924" />
	</node>
	<node id="-447534" lat="60.0952134162" lon="5.98008827831">
		<tag k="fixme" v="consider place=hamlet" />
		<tag k="name" v="Tveit" />
		<tag k="place" v="farm" />
		<tag k="ssr:stedsnr" v="186909" />
	</node>
	<node id="-447528" lat="59.9674888469" lon="5.92850450284">
		<tag k="fixme" v="consider place=hamlet" />
		<tag k="name" v="Barmen" />
		<tag k="place" v="farm" />
		<tag k="ssr:stedsnr" v="186534" />
	</node>
	<node id="-447523" lat="59.9817754973" lon="5.94297299465">
		<tag k="fixme" v="consider place=hamlet" />
		<tag k="name" v="Øye" />
		<tag k="place" v="farm" />
		<tag k="ssr:stedsnr" v="186486" />
	</node>
	<node id="-447518" lat="59.7699972249" lon="6.05468332815">
		<tag k="name" v="Kalvahagen" />
		<tag k="place" v="locality" />
		<tag k="ssr:stedsnr" v="186375" />
	</node>
	<node id="-447513" lat="59.7758250023" lon="6.08538333979">
		<tag k="name" v="Askedalen" />
		<tag k="place" v="farm" />
		<tag k="ssr:stedsnr" v="186356" />
	</node>
	<node id="-450052" lat="59.9148472255" lon="5.78059721315">
		<tag k="name" v="Stølen" />
		<tag k="place" v="isolated_dwelling" />
		<tag k="ssr:stedsnr" v="954405" />
	</node>
	<node id="-447510" lat="59.8632166686" lon="5.7599861189">
		<tag k="alt_name" v="Ondarheim" />
		<tag k="fixme" v="consider place=hamlet" />
		<tag k="name" v="Onarheim" />
		<tag k="place" v="village" />
		<tag k="ssr:stedsnr" v="186290" />
	</node>
	<node id="-447504" lat="59.8032250006" lon="6.12359999231">
		<tag k="historic" v="shieling" />
		<tag k="name" v="Gamlestøl" />
		<tag k="place" v="locality" />
		<tag k="ssr:stedsnr" v="186273" />
	</node>
	<node id="-447498" lat="59.8268346874" lon="5.9952146947">
		<tag k="alt_name" v="Matre, yt" />
		<tag k="fixme" v="consider place=hamlet" />
		<tag k="name" v="Ytre Matre" />
		<tag k="place" v="farm" />
		<tag k="ssr:stedsnr" v="186219" />
	</node>
	<node id="-447495" lat="59.9897701444" lon="6.02043149994">
		<tag k="fixme" v="consider place=hamlet" />
		<tag k="name" v="Mel" />
		<tag k="place" v="farm" />
		<tag k="ssr:stedsnr" v="186517" />
	</node>
	<node id="-447492" lat="59.8450771987" lon="5.75976723245">
		<tag k="fixme" v="consider place=hamlet" />
		<tag k="name" v="Sundsteigen" />
		<tag k="place" v="farm" />
		<tag k="ssr:stedsnr" v="186337" />
	</node>
	<node id="-447483" lat="60.1395321565" lon="6.24147629196">
		<tag k="fixme" v="consider place=hamlet" />
		<tag k="name" v="Medhus" />
		<tag k="place" v="farm" />
		<tag k="ssr:stedsnr" v="186196" />
	</node>
	<node id="-449530" lat="60.0092583361" lon="5.80504722879">
		<tag k="name" v="Dalsjøen" />
		<tag k="place" v="farm" />
		<tag k="ssr:stedsnr" v="814170" />
	</node>
	<node id="-449529" lat="60.0960138874" lon="6.44129722228">
		<tag k="fixme" v="consider tourism=alpine_hut or tourism=chalet" />
		<tag k="name" v="Holmaskjer" />
		<tag k="old_name" v="Holmaskjerbu" />
		<tag k="ssr:stedsnr" v="814122" />
		<tag k="tourism" v="wilderness_hut" />
	</node>
	<node id="-447479" lat="60.1655667863" lon="6.29386377068">
		<tag k="fixme" v="consider place=hamlet" />
		<tag k="name" v="Flatebø" />
		<tag k="place" v="farm" />
		<tag k="ssr:stedsnr" v="186212" />
	</node>
	<node id="-447477" lat="60.1172562741" lon="6.27138786738">
		<tag k="fixme" v="consider place=hamlet" />
		<tag k="name" v="Sunndal" />
		<tag k="place" v="farm" />
		<tag k="ssr:stedsnr" v="186146" />
	</node>
	<node id="-449523" lat="59.9480999974" lon="5.97300277221">
		<tag k="name" v="Nygard" />
		<tag k="place" v="farm" />
		<tag k="ssr:stedsnr" v="813030" />
	</node>
	<node id="-449520" lat="60.0275515041" lon="5.84542837881">
		<tag k="fixme" v="consider place=hamlet" />
		<tag k="name" v="Røyrane" />
		<tag k="place" v="farm" />
		<tag k="ssr:stedsnr" v="794993" />
	</node>
	<node id="-449519" lat="60.0384727309" lon="5.86811593916">
		<tag k="fixme" v="consider place=hamlet" />
		<tag k="name" v="Kviteberg" />
		<tag k="place" v="farm" />
		<tag k="ssr:stedsnr" v="794978" />
	</node>
	<node id="-449518" lat="60.1054187606" lon="5.94785743557">
		<tag k="alt_name" v="Kjerrevik;Kjæravika" />
		<tag k="fixme" v="consider place=hamlet" />
		<tag k="name" v="Kjeravika" />
		<tag k="place" v="farm" />
		<tag k="ssr:stedsnr" v="794918" />
	</node>
	<node id="-449517" lat="60.1185388844" lon="6.17859443825">
		<tag k="historic" v="shieling" />
		<tag k="name" v="Maurangssætret" />
		<tag k="place" v="locality" />
		<tag k="ssr:stedsnr" v="794899" />
	</node>
	<node id="-449512" lat="60.1286522746" lon="6.23134236716">
		<tag k="fixme" v="consider place=hamlet" />
		<tag k="name" v="Eikenes" />
		<tag k="place" v="farm" />
		<tag k="ssr:stedsnr" v="794170" />
	</node>
	<node id="-449506" lat="60.0734785911" lon="6.0597084269">
		<tag k="alt_name" v="Store Svoldal" />
		<tag k="name" v="Svoldal" />
		<tag k="place" v="hamlet" />
		<tag k="ssr:stedsnr" v="793974" />
	</node>
	<node id="-447457" lat="59.7862764959" lon="5.75928004425">
		<tag k="fixme" v="consider place=hamlet" />
		<tag k="name" v="Fjelland" />
		<tag k="place" v="farm" />
		<tag k="ssr:stedsnr" v="185363" />
	</node>
	<node id="-447456" lat="59.7758361092" lon="5.8625055546">
		<tag k="fixme" v="consider place=hamlet" />
		<tag k="name" v="Leirvika" />
		<tag k="place" v="farm" />
		<tag k="ssr:stedsnr" v="185321" />
	</node>
	<node id="-449503" lat="60.0627005037" lon="5.92322039683">
		<tag k="alt_name" v="Gjerdmundshamn" />
		<tag k="fixme" v="consider place=hamlet" />
		<tag k="name" v="Gjermundshamn" />
		<tag k="place" v="farm" />
		<tag k="ssr:stedsnr" v="793966" />
	</node>
	<node id="-449502" lat="60.064130691" lon="5.91022586218">
		<tag k="fixme" v="consider place=hamlet" />
		<tag k="name" v="Hauge" />
		<tag k="place" v="farm" />
		<tag k="ssr:stedsnr" v="793964" />
	</node>
	<node id="-449499" lat="60.1035916696" lon="6.03378056337">
		<tag k="name" v="Nesheim" />
		<tag k="place" v="farm" />
		<tag k="ssr:stedsnr" v="793949" />
	</node>
	<node id="-447450" lat="59.8234861145" lon="5.93720556191">
		<tag k="historic" v="shieling" />
		<tag k="name" v="Holmedalsstøl" />
		<tag k="place" v="locality" />
		<tag k="ssr:stedsnr" v="185214" />
	</node>
	<node id="-447448" lat="59.7434737515" lon="5.78449459427">
		<tag k="alt_name" v="Svanevika;Svanevik" />
		<tag k="fixme" v="consider place=hamlet" />
		<tag k="name" v="Svinavik" />
		<tag k="place" v="farm" />
		<tag k="ssr:stedsnr" v="185101" />
	</node>
	<node id="-449495" lat="60.1048861095" lon="6.01410556204">
		<tag k="name" v="Fjellgardane" />
		<tag k="place" v="hamlet" />
		<tag k="ssr:stedsnr" v="793927" />
	</node>
	<node id="-447446" lat="59.7313212273" lon="5.69247330355">
		<tag k="fixme" v="consider place=hamlet" />
		<tag k="name" v="Dale" />
		<tag k="place" v="farm" />
		<tag k="ssr:stedsnr" v="185091" />
	</node>
	<node id="-447445" lat="59.8975527817" lon="6.11125833531">
		<tag k="historic" v="shieling" />
		<tag k="name" v="Grøningen" />
		<tag k="place" v="locality" />
		<tag k="ssr:stedsnr" v="185089" />
	</node>
	<node id="-449488" lat="60.0129416485" lon="5.82837068215">
		<tag k="alt_name" v="Kyrkjevågen" />
		<tag k="fixme" v="consider place=hamlet" />
		<tag k="name" v="Kyrkjevåg" />
		<tag k="place" v="farm" />
		<tag k="ssr:stedsnr" v="793731" />
	</node>
	<node id="-449487" lat="60.0082361108" lon="5.8045333344">
		<tag k="name" v="Hola" />
		<tag k="place" v="farm" />
		<tag k="ssr:stedsnr" v="793718" />
	</node>
	<node id="-449486" lat="59.7599500002" lon="6.00597499129">
		<tag k="name" v="Furdal" />
		<tag k="place" v="farm" />
		<tag k="ssr:stedsnr" v="793628" />
	</node>
	<node id="-449477" lat="59.7636742606" lon="6.00363829516">
		<tag k="fixme" v="consider place=hamlet" />
		<tag k="name" v="Furdal" />
		<tag k="place" v="farm" />
		<tag k="ssr:stedsnr" v="793380" />
	</node>
	<node id="-446966" lat="59.7806566184" lon="5.80159526615">
		<tag k="fixme" v="consider place=hamlet" />
		<tag k="name" v="Mehus" />
		<tag k="place" v="farm" />
		<tag k="ssr:stedsnr" v="64420" />
	</node>
	<node id="-449469" lat="59.7951777783" lon="5.91407499489">
		<tag k="name" v="Bruntveit" />
		<tag k="place" v="farm" />
		<tag k="ssr:stedsnr" v="793303" />
	</node>
	<node id="-449468" lat="59.8585687321" lon="5.72713446548">
		<tag k="name" v="Kaldestad" />
		<tag k="place" v="hamlet" />
		<tag k="ssr:stedsnr" v="793297" />
	</node>
	<node id="-447416" lat="59.9177944423" lon="6.00318055825">
		<tag k="name" v="Sponhaug" />
		<tag k="place" v="farm" />
		<tag k="ssr:stedsnr" v="160145" />
	</node>
	<node id="-449455" lat="60.0980999964" lon="6.28818888906">
		<tag k="name" v="Sandarvollen" />
		<tag k="place" v="locality" />
		<tag k="ssr:stedsnr" v="793140" />
	</node>
	<node id="-447404" lat="59.8234027787" lon="5.85792500274">
		<tag k="historic" v="shieling" />
		<tag k="name" v="Dalstøl" />
		<tag k="place" v="locality" />
		<tag k="ssr:stedsnr" v="159975" />
	</node>
	<node id="-449449" lat="59.9172319941" lon="5.9030506361">
		<tag k="alt_name" v="Haugland store" />
		<tag k="fixme" v="consider place=hamlet" />
		<tag k="name" v="Haugland" />
		<tag k="place" v="farm" />
		<tag k="ssr:stedsnr" v="793076" />
	</node>
	<node id="-449430" lat="59.7629166704" lon="5.79561666919">
		<tag k="name" v="Lia" />
		<tag k="place" v="farm" />
		<tag k="ssr:stedsnr" v="792391" />
	</node>
	<node id="-449422" lat="59.8910111096" lon="5.77129722094">
		<tag k="name" v="Løvik" />
		<tag k="place" v="farm" />
		<tag k="ssr:stedsnr" v="792250" />
	</node>
	<node id="-449414" lat="59.8602496553" lon="6.06206670846">
		<tag k="historic" v="shieling" />
		<tag k="name" v="Fjellhaugen" />
		<tag k="place" v="locality" />
		<tag k="ssr:stedsnr" v="792157" />
	</node>
	<node id="-447360" lat="60.0716055536" lon="6.10026666332">
		<tag k="historic" v="shieling" />
		<tag k="name" v="Takliselet" />
		<tag k="place" v="locality" />
		<tag k="ssr:stedsnr" v="159530" />
	</node>
	<node id="-449403" lat="59.7445714485" lon="5.71208622078">
		<tag k="fixme" v="consider place=hamlet" />
		<tag k="name" v="Nordhus" />
		<tag k="place" v="farm" />
		<tag k="ssr:stedsnr" v="792108" />
	</node>
	<node id="-447342" lat="59.8521888901" lon="5.70546667412">
		<tag k="alt_name" v="Rørvik øvre" />
		<tag k="name" v="Øvre Rørvik" />
		<tag k="place" v="farm" />
		<tag k="ssr:stedsnr" v="159282" />
	</node>
	<node id="-447341" lat="59.8639916651" lon="5.75897500342">
		<tag k="fixme" v="consider place=hamlet" />
		<tag k="name" v="Onarheim" />
		<tag k="place" v="farm" />
		<tag k="ssr:stedsnr" v="159226" />
	</node>
	<node id="-449384" lat="59.977132481" lon="5.95674872806">
		<tag k="fixme" v="consider place=hamlet" />
		<tag k="name" v="Snilstveit" />
		<tag k="place" v="farm" />
		<tag k="ssr:stedsnr" v="793470" />
	</node>
	<node id="-449377" lat="59.8271111094" lon="5.99283610507">
		<tag k="fixme" v="consider place=hamlet" />
		<tag k="name" v="Matre" />
		<tag k="place" v="village" />
		<tag k="ssr:stedsnr" v="772908" />
	</node>
	<node id="-449376" lat="59.7791138931" lon="6.08661666935">
		<tag k="name" v="Hagen" />
		<tag k="place" v="farm" />
		<tag k="ssr:stedsnr" v="772895" />
	</node>
	<node id="-447326" lat="60.0626944474" lon="6.0335111047">
		<tag k="name" v="Vardavik" />
		<tag k="place" v="farm" />
		<tag k="ssr:stedsnr" v="159126" />
	</node>
	<node id="-447311" lat="60.0119527814" lon="5.75742222272">
		<tag k="name" v="Vikane" />
		<tag k="place" v="farm" />
		<tag k="ssr:stedsnr" v="146135" />
	</node>
	<node id="-447308" lat="60.0465722234" lon="5.9020916708">
		<tag k="fixme" v="consider place=hamlet" />
		<tag k="name" v="Hatlestranda" />
		<tag k="place" v="village" />
		<tag k="ssr:stedsnr" v="126981" />
	</node>
	<node id="-447304" lat="60.0784043092" lon="5.91638110592">
		<tag k="alt_name" v="Femsteinevik" />
		<tag k="fixme" v="consider place=hamlet" />
		<tag k="name" v="Femsteinevika" />
		<tag k="place" v="farm" />
		<tag k="ssr:stedsnr" v="126944" />
	</node>
	<node id="-447301" lat="60.0907833873" lon="6.11444925123">
		<tag k="fixme" v="consider place=hamlet" />
		<tag k="name" v="Ænes" />
		<tag k="place" v="farm" />
		<tag k="ssr:stedsnr" v="126920" />
	</node>
	<node id="-449344" lat="59.8237388934" lon="5.91549167291">
		<tag k="name" v="Tverrberg" />
		<tag k="place" v="farm" />
		<tag k="ssr:stedsnr" v="766976" />
	</node>
	<node id="-449339" lat="59.7313916695" lon="5.653969451">
		<tag k="name" v="Nedre Aksdal" />
		<tag k="place" v="farm" />
		<tag k="ssr:stedsnr" v="766950" />
	</node>
	<node id="-449337" lat="59.8629194427" lon="5.77237499497">
		<tag k="name" v="Lyngstad" />
		<tag k="place" v="farm" />
		<tag k="ssr:stedsnr" v="766942" />
	</node>
	<node id="-449335" lat="59.8569638914" lon="5.74185277166">
		<tag k="name" v="Røssland" />
		<tag k="place" v="quarter" />
		<tag k="ssr:stedsnr" v="766934" />
	</node>
	<node id="-447285" lat="59.9942610536" lon="5.7793879675">
		<tag k="alt_name" v="Ljostveit;Lusstveit" />
		<tag k="fixme" v="consider place=hamlet" />
		<tag k="name" v="Lustveit" />
		<tag k="place" v="farm" />
		<tag k="ssr:stedsnr" v="125694" />
	</node>
	<node id="-447276" lat="59.9851861088" lon="6.03185555101">
		<tag k="name" v="Håland" />
		<tag k="place" v="farm" />
		<tag k="ssr:stedsnr" v="125468" />
	</node>
	<node id="-447964" lat="60.1520609562" lon="6.22608342022">
		<tag k="historic" v="shieling" />
		<tag k="name" v="Utigardssætret" />
		<tag k="place" v="locality" />
		<tag k="ssr:stedsnr" v="449588" />
	</node>
	<node id="-446257" lat="60.0617111129" lon="6.19133888717">
		<tag k="historic" v="shieling" />
		<tag k="name" v="Furebergssætret" />
		<tag k="place" v="locality" />
		<tag k="ssr:stedsnr" v="369964" />
	</node>
	<node id="-447268" lat="59.9003269941" lon="5.76858579408">
		<tag k="fixme" v="consider place=hamlet" />
		<tag k="name" v="Raudstein" />
		<tag k="place" v="farm" />
		<tag k="ssr:stedsnr" v="125294" />
	</node>
	<node id="-449312" lat="59.969427782" lon="6.08460278031">
		<tag k="historic" v="shieling" />
		<tag k="name" v="Jakopsetret" />
		<tag k="place" v="locality" />
		<tag k="ssr:stedsnr" v="766769" />
	</node>
	<node id="-447253" lat="59.8323000027" lon="6.11352499589">
		<tag k="historic" v="shieling" />
		<tag k="name" v="Åkrastølen" />
		<tag k="place" v="locality" />
		<tag k="ssr:stedsnr" v="125247" />
	</node>
	<node id="-446254" lat="60.1031527764" lon="5.94990555311">
		<tag k="name" v="Solheim" />
		<tag k="place" v="farm" />
		<tag k="ssr:stedsnr" v="369914" />
	</node>
	<node id="-447248" lat="59.8463848012" lon="5.98443153353">
		<tag k="fixme" v="consider place=hamlet" />
		<tag k="name" v="Vik" />
		<tag k="place" v="farm" />
		<tag k="ssr:stedsnr" v="125187" />
	</node>
	<node id="-447243" lat="60.1285983877" lon="6.32133170607">
		<tag k="fixme" v="consider place=hamlet" />
		<tag k="name" v="Gjerde" />
		<tag k="place" v="farm" />
		<tag k="ssr:stedsnr" v="125155" />
	</node>
	<node id="-447242" lat="59.8629361145" lon="6.10241666924">
		<tag k="historic" v="shieling" />
		<tag k="name" v="Nesjastøl" />
		<tag k="place" v="locality" />
		<tag k="ssr:stedsnr" v="125154" />
	</node>
	<node id="-447228" lat="59.8904000023" lon="6.12694999805">
		<tag k="historic" v="shieling" />
		<tag k="name" v="Storbjørnlistølen" />
		<tag k="place" v="locality" />
		<tag k="ssr:stedsnr" v="125108" />
	</node>
	<node id="-447226" lat="59.9242249966" lon="5.88366944405">
		<tag k="alt_name" v="Døsland, øvre" />
		<tag k="name" v="Øvre Døsland" />
		<tag k="place" v="farm" />
		<tag k="ssr:stedsnr" v="125058" />
	</node>
	<node id="-447225" lat="59.9279317957" lon="5.99900569099">
		<tag k="name" v="Røysland" />
		<tag k="place" v="hamlet" />
		<tag k="ssr:stedsnr" v="125050" />
	</node>
	<node id="-447223" lat="59.9329999991" lon="5.86338610376">
		<tag k="alt_name" v="Uskedal" />
		<tag k="name" v="Uskedalen" />
		<tag k="place" v="village" />
		<tag k="ssr:stedsnr" v="125043" />
	</node>
	<node id="-447220" lat="59.9475179704" lon="5.90688988472">
		<tag k="alt_name" v="Vollen" />
		<tag k="fixme" v="consider place=hamlet" />
		<tag k="name" v="Voll" />
		<tag k="place" v="farm" />
		<tag k="ssr:stedsnr" v="125028" />
	</node>
	<node id="-447219" lat="59.9435350998" lon="5.89310191889">
		<tag k="fixme" v="consider place=hamlet" />
		<tag k="name" v="Rød" />
		<tag k="place" v="farm" />
		<tag k="ssr:stedsnr" v="125027" />
	</node>
	<node id="-449266" lat="59.7695277738" lon="6.00263611771">
		<tag k="alt_name" v="Svelland indre;Indra Svelland" />
		<tag k="name" v="Indre Svelland" />
		<tag k="place" v="farm" />
		<tag k="ssr:stedsnr" v="766141" />
	</node>
	<node id="-447216" lat="59.9161402306" lon="5.78228437601">
		<tag k="fixme" v="consider place=hamlet" />
		<tag k="name" v="Hellvik" />
		<tag k="place" v="farm" />
		<tag k="ssr:stedsnr" v="124662" />
	</node>
	<node id="-447271" lat="59.7818861111" lon="6.09088055939">
		<tag k="name" v="Vikane" />
		<tag k="place" v="farm" />
		<tag k="ssr:stedsnr" v="125373" />
	</node>
	<node id="-447207" lat="59.7629192719" lon="6.06471907291">
		<tag k="fixme" v="consider place=hamlet" />
		<tag k="name" v="Alsåker" />
		<tag k="place" v="farm" />
		<tag k="ssr:stedsnr" v="125412" />
	</node>
	<node id="-447206" lat="59.7890707316" lon="5.77386576253">
		<tag k="fixme" v="consider place=hamlet" />
		<tag k="name" v="Gravdal" />
		<tag k="place" v="farm" />
		<tag k="ssr:stedsnr" v="125407" />
	</node>
	<node id="-447205" lat="59.7886500037" lon="5.83172778496">
		<tag k="name" v="Storvik" />
		<tag k="place" v="isolated_dwelling" />
		<tag k="ssr:stedsnr" v="125405" />
	</node>
	<node id="-447200" lat="59.7977722226" lon="6.12207500732">
		<tag k="alt_name" v="Øvre Vågsstøl" />
		<tag k="historic" v="shieling" />
		<tag k="name" v="Oppivågsstølen" />
		<tag k="place" v="locality" />
		<tag k="ssr:stedsnr" v="125333" />
	</node>
	<node id="-447952" lat="60.0079890561" lon="5.7373679584">
		<tag k="alt_name" v="Hammarhaug øvre" />
		<tag k="name" v="Hamarhaug" />
		<tag k="place" v="hamlet" />
		<tag k="ssr:stedsnr" v="430701" />
	</node>
	<node id="-449246" lat="59.834510713" lon="5.77694806843">
		<tag k="fixme" v="consider place=hamlet" />
		<tag k="name" v="Eikeland" />
		<tag k="place" v="farm" />
		<tag k="ssr:stedsnr" v="765868" />
	</node>
	<node id="-447186" lat="60.1068027789" lon="5.97281388804">
		<tag k="historic" v="shieling" />
		<tag k="name" v="Jakobsseter" />
		<tag k="place" v="locality" />
		<tag k="ssr:stedsnr" v="100000" />
	</node>
	<node id="-449233" lat="59.989283337" lon="6.01340555501">
		<tag k="name" v="Sørebøen" />
		<tag k="place" v="farm" />
		<tag k="ssr:stedsnr" v="765653" />
	</node>
	<node id="-447175" lat="59.8002388882" lon="5.6468833382">
		<tag k="name" v="Breidablikk" />
		<tag k="place" v="farm" />
		<tag k="ssr:stedsnr" v="99959" />
	</node>
	<node id="-449220" lat="59.9450611091" lon="5.8878694462">
		<tag k="name" v="Nikkelborg" />
		<tag k="place" v="farm" />
		<tag k="ssr:stedsnr" v="766530" />
	</node>
	<node id="-449216" lat="60.0107972228" lon="5.73319722063">
		<tag k="name" v="Nordheim" />
		<tag k="place" v="farm" />
		<tag k="ssr:stedsnr" v="753133" />
	</node>
	<node id="-446364" lat="60.0211016758" lon="5.89352838832">
		<tag k="fixme" v="consider place=hamlet" />
		<tag k="name" v="Teigen" />
		<tag k="place" v="farm" />
		<tag k="ssr:stedsnr" v="369733" />
	</node>
	<node id="-447165" lat="60.1572777821" lon="6.32506944983">
		<tag k="historic" v="shieling" />
		<tag k="name" v="Dalastøl" />
		<tag k="place" v="locality" />
		<tag k="ssr:stedsnr" v="99912" />
	</node>
	<node id="-449211" lat="59.9614527788" lon="5.99636945323">
		<tag k="fixme" v="consider place=suburb, village or hamlet" />
		<tag k="name" v="Høyland" />
		<tag k="place" v="quarter" />
		<tag k="ssr:stedsnr" v="752246" />
	</node>
	<node id="-446091" lat="60.0848261025" lon="5.97914938688">
		<tag k="fixme" v="consider place=hamlet" />
		<tag k="name" v="Skjelnes" />
		<tag k="place" v="farm" />
		<tag k="ssr:stedsnr" v="308949" />
	</node>
	<node id="-449208" lat="59.7419098039" lon="5.71071146628">
		<tag k="name" v="Nordhus" />
		<tag k="place" v="farm" />
		<tag k="ssr:stedsnr" v="749706" />
	</node>
	<node id="-449205" lat="60.0353500009" lon="5.86296111771">
		<tag k="name" v="Plasset" />
		<tag k="place" v="isolated_dwelling" />
		<tag k="ssr:stedsnr" v="733998" />
	</node>
	<node id="-449203" lat="60.0577944402" lon="6.02456389048">
		<tag k="alt_name" v="Ramsgrød" />
		<tag k="name" v="Ramsgrø" />
		<tag k="place" v="farm" />
		<tag k="ssr:stedsnr" v="733976" />
	</node>
	<node id="-449197" lat="60.0928929079" lon="5.98422124434">
		<tag k="fixme" v="consider place=hamlet" />
		<tag k="name" v="Haukås" />
		<tag k="place" v="farm" />
		<tag k="ssr:stedsnr" v="733911" />
	</node>
	<node id="-449196" lat="60.0922083376" lon="5.99702778624">
		<tag k="alt_name" v="Gjuvdal" />
		<tag k="fixme" v="consider place=hamlet" />
		<tag k="name" v="Gjuvsland" />
		<tag k="place" v="farm" />
		<tag k="ssr:stedsnr" v="733912" />
	</node>
	<node id="-449194" lat="60.1060633943" lon="5.91528670485">
		<tag k="alt_name" v="Vestervik" />
		<tag k="fixme" v="consider place=hamlet" />
		<tag k="name" v="Vestrevika" />
		<tag k="place" v="farm" />
		<tag k="ssr:stedsnr" v="733886" />
	</node>
	<node id="-449192" lat="60.0124620121" lon="5.76071693871">
		<tag k="alt_name" v="Håvika" />
		<tag k="fixme" v="consider place=hamlet" />
		<tag k="name" v="Håvik" />
		<tag k="place" v="farm" />
		<tag k="ssr:stedsnr" v="733686" />
	</node>
	<node id="-449181" lat="60.0892083348" lon="5.91201388507">
		<tag k="alt_name" v="Skora;Skori" />
		<tag k="fixme" v="consider place=hamlet" />
		<tag k="name" v="Bergtun" />
		<tag k="place" v="farm" />
		<tag k="ssr:stedsnr" v="732930" />
	</node>
	<node id="-449177" lat="60.0985848805" lon="5.97879110195">
		<tag k="alt_name" v="Øvre Våge" />
		<tag k="name" v="Våge" />
		<tag k="place" v="hamlet" />
		<tag k="ssr:stedsnr" v="732899" />
	</node>
	<node id="-449175" lat="60.0261166656" lon="6.00613332924">
		<tag k="name" v="Teigane" />
		<tag k="place" v="farm" />
		<tag k="ssr:stedsnr" v="732755" />
	</node>
	<node id="-449173" lat="59.9234583547" lon="5.80846575524">
		<tag k="fixme" v="consider place=hamlet" />
		<tag k="name" v="Bringedal" />
		<tag k="place" v="farm" />
		<tag k="ssr:stedsnr" v="732712" />
	</node>
	<node id="-449171" lat="59.97598611" lon="6.10510556163">
		<tag k="historic" v="shieling" />
		<tag k="name" v="Bjørndalen" />
		<tag k="place" v="locality" />
		<tag k="ssr:stedsnr" v="732531" />
	</node>
	<node id="-449169" lat="59.9709740108" lon="6.00444435587">
		<tag k="alt_name" v="Skeie" />
		<tag k="fixme" v="consider place=hamlet" />
		<tag k="name" v="Skeide" />
		<tag k="place" v="farm" />
		<tag k="ssr:stedsnr" v="732521" />
	</node>
	<node id="-449168" lat="59.9611822517" lon="6.01883495606">
		<tag k="fixme" v="consider place=hamlet" />
		<tag k="name" v="Guddal" />
		<tag k="place" v="farm" />
		<tag k="ssr:stedsnr" v="732516" />
	</node>
	<node id="-445890" lat="60.1171722216" lon="6.26612222961">
		<tag k="name" v="Mauranger" />
		<tag k="place" v="farm" />
		<tag k="ssr:stedsnr" v="281363" />
	</node>
	<node id="-449161" lat="59.7804956291" lon="5.81171824976">
		<tag k="fixme" v="consider place=hamlet" />
		<tag k="name" v="Tveito" />
		<tag k="place" v="farm" />
		<tag k="ssr:stedsnr" v="732449" />
	</node>
	<node id="-449160" lat="59.7617361098" lon="5.79175834139">
		<tag k="name" v="Stølsvik" />
		<tag k="place" v="farm" />
		<tag k="ssr:stedsnr" v="732432" />
	</node>
	<node id="-449159" lat="59.7587027739" lon="5.7923166729">
		<tag k="name" v="Neset" />
		<tag k="place" v="farm" />
		<tag k="ssr:stedsnr" v="732429" />
	</node>
	<node id="-447726" lat="59.7083885818" lon="5.71424411175">
		<tag k="alt_name" v="Bjellebø" />
		<tag k="fixme" v="consider place=hamlet" />
		<tag k="name" v="Bjøllebø" />
		<tag k="place" v="farm" />
		<tag k="ssr:stedsnr" v="246080" />
	</node>
	<node id="-449150" lat="59.7737523389" lon="5.97503745447">
		<tag k="fixme" v="consider place=hamlet" />
		<tag k="name" v="Baugstø" />
		<tag k="place" v="farm" />
		<tag k="ssr:stedsnr" v="732332" />
	</node>
	<node id="-449145" lat="59.8641916637" lon="5.75799444089">
		<tag k="name" v="Lund" />
		<tag k="place" v="farm" />
		<tag k="ssr:stedsnr" v="732297" />
	</node>
	<node id="-447095" lat="59.9032472183" lon="5.93516389081">
		<tag k="alt_name" v="Musland nedre" />
		<tag k="name" v="Nedre Musland" />
		<tag k="place" v="farm" />
		<tag k="ssr:stedsnr" v="98997" />
	</node>
	<node id="-447088" lat="59.8343555596" lon="5.77220278091">
		<tag k="name" v="Skorven" />
		<tag k="place" v="farm" />
		<tag k="ssr:stedsnr" v="98856" />
	</node>
	<node id="-449128" lat="59.8604499965" lon="6.01597222952">
		<tag k="name" v="Orradalen" />
		<tag k="place" v="hamlet" />
		<tag k="ssr:stedsnr" v="732175" />
	</node>
	<node id="-447076" lat="59.9978166664" lon="6.01963611704">
		<tag k="name" v="Gråten" />
		<tag k="place" v="farm" />
		<tag k="ssr:stedsnr" v="98682" />
	</node>
	<node id="-449110" lat="59.9484916643" lon="5.94324443966">
		<tag k="alt_name" v="Lii" />
		<tag k="name" v="Lia" />
		<tag k="place" v="farm" />
		<tag k="ssr:stedsnr" v="732032" />
	</node>
	<node id="-449106" lat="59.7200340513" lon="5.68347308512">
		<tag k="name" v="Øvrabø" />
		<tag k="place" v="hamlet" />
		<tag k="ssr:stedsnr" v="731100" />
	</node>
	<node id="-449103" lat="59.9252263311" lon="5.80594515585">
		<tag k="alt_name" v="Berget" />
		<tag k="name" v="Berge" />
		<tag k="place" v="hamlet" />
		<tag k="ssr:stedsnr" v="720717" />
	</node>
	<node id="-449102" lat="59.7409609388" lon="5.74560787975">
		<tag k="alt_name" v="Kika" />
		<tag k="fixme" v="consider place=hamlet" />
		<tag k="name" v="Kjeka" />
		<tag k="place" v="farm" />
		<tag k="ssr:stedsnr" v="720130" />
	</node>
	<node id="-447046" lat="60.0554804988" lon="5.90917833407">
		<tag k="fixme" v="consider place=hamlet" />
		<tag k="name" v="Skaga" />
		<tag k="place" v="farm" />
		<tag k="ssr:stedsnr" v="65982" />
	</node>
	<node id="-447039" lat="60.0872712152" lon="5.91431716845">
		<tag k="alt_name" v="Grønevik" />
		<tag k="fixme" v="consider place=hamlet" />
		<tag k="name" v="Grønevika" />
		<tag k="place" v="farm" />
		<tag k="ssr:stedsnr" v="65940" />
	</node>
	<node id="-447038" lat="60.1075872984" lon="6.01510017977">
		<tag k="fixme" v="consider place=hamlet" />
		<tag k="name" v="Øvsthus" />
		<tag k="place" v="farm" />
		<tag k="ssr:stedsnr" v="65935" />
	</node>
	<node id="-449084" lat="60.0155527801" lon="5.83237778606">
		<tag k="name" v="Bussevik" />
		<tag k="place" v="farm" />
		<tag k="ssr:stedsnr" v="706848" />
	</node>
	<node id="-449078" lat="60.0074194413" lon="5.73081389308">
		<tag k="alt_name" v="Gjerdsheim" />
		<tag k="name" v="Gjersheim" />
		<tag k="place" v="farm" />
		<tag k="ssr:stedsnr" v="706797" />
	</node>
	<node id="-447029" lat="60.0140437474" lon="5.99861152918">
		<tag k="fixme" v="consider place=hamlet" />
		<tag k="name" v="Pile" />
		<tag k="place" v="farm" />
		<tag k="ssr:stedsnr" v="65777" />
	</node>
	<node id="-446558" lat="59.789455558" lon="5.90246666181">
		<tag k="alt_name" v="Træ - øvre" />
		<tag k="name" v="Øvretræ" />
		<tag k="place" v="farm" />
		<tag k="ssr:stedsnr" v="887969" />
	</node>
	<node id="-447026" lat="60.027756658" lon="6.00861215415">
		<tag k="fixme" v="consider place=hamlet" />
		<tag k="name" v="Helle" />
		<tag k="place" v="farm" />
		<tag k="ssr:stedsnr" v="65766" />
	</node>
	<node id="-446973" lat="59.9261361097" lon="6.07660555279">
		<tag k="historic" v="shieling" />
		<tag k="name" v="Barnamyr" />
		<tag k="place" v="locality" />
		<tag k="ssr:stedsnr" v="65041" />
	</node>
	<node id="-447023" lat="60.0199773565" lon="5.82918978876">
		<tag k="fixme" v="consider place=hamlet" />
		<tag k="name" v="Åsen" />
		<tag k="place" v="farm" />
		<tag k="ssr:stedsnr" v="65659" />
	</node>
	<node id="-447022" lat="60.1552833365" lon="6.21668333681">
		<tag k="historic" v="shieling" />
		<tag k="name" v="Goddalen" />
		<tag k="place" v="locality" />
		<tag k="ssr:stedsnr" v="65605" />
	</node>
	<node id="-447014" lat="59.9654528861" lon="5.89975895375">
		<tag k="fixme" v="consider place=hamlet" />
		<tag k="name" v="Eidsvik" />
		<tag k="place" v="farm" />
		<tag k="ssr:stedsnr" v="65464" />
	</node>
	<node id="-447012" lat="59.7694195129" lon="5.99263560862">
		<tag k="alt_name" v="Ytra Svelland;Svelland ytre" />
		<tag k="name" v="Svelland" />
		<tag k="place" v="hamlet" />
		<tag k="ssr:stedsnr" v="65355" />
	</node>
	<node id="-447008" lat="60.0334333344" lon="6.01497499724">
		<tag k="name" v="Geitebu" />
		<tag k="place" v="farm" />
		<tag k="ssr:stedsnr" v="66986" />
	</node>
	<node id="-447006" lat="60.0358499963" lon="5.90596944708">
		<tag k="fixme" v="consider place=hamlet" />
		<tag k="name" v="Nettland" />
		<tag k="place" v="farm" />
		<tag k="ssr:stedsnr" v="66981" />
	</node>
	<node id="-447004" lat="60.0436277749" lon="5.89902499336">
		<tag k="fixme" v="consider place=hamlet" />
		<tag k="name" v="Hjortland" />
		<tag k="place" v="farm" />
		<tag k="ssr:stedsnr" v="66962" />
	</node>
	<node id="-447000" lat="60.167483329" lon="6.24334444123">
		<tag k="alt_name" v="Norddalsseter" />
		<tag k="historic" v="shieling" />
		<tag k="name" v="Norddalen" />
		<tag k="place" v="locality" />
		<tag k="ssr:stedsnr" v="65238" />
	</node>
	<node id="-446989" lat="60.1398728535" lon="6.24430775406">
		<tag k="fixme" v="consider place=hamlet" />
		<tag k="name" v="Bakka" />
		<tag k="place" v="farm" />
		<tag k="ssr:stedsnr" v="65200" />
	</node>
	<node id="-446988" lat="60.1318416686" lon="6.32342778409">
		<tag k="fixme" v="consider place=hamlet" />
		<tag k="name" v="Øvrehus" />
		<tag k="place" v="farm" />
		<tag k="ssr:stedsnr" v="65183" />
	</node>
	<node id="-446974" lat="59.9328277739" lon="6.00026110655">
		<tag k="name" v="Brekke" />
		<tag k="place" v="farm" />
		<tag k="ssr:stedsnr" v="65049" />
	</node>
	<node id="-449021" lat="59.9134916678" lon="5.78392222798">
		<tag k="name" v="Liland" />
		<tag k="place" v="farm" />
		<tag k="ssr:stedsnr" v="705946" />
	</node>
	<node id="-449019" lat="59.7340059662" lon="5.69061115662">
		<tag k="alt_name" v="Austhus" />
		<tag k="fixme" v="consider place=hamlet" />
		<tag k="name" v="Usthus" />
		<tag k="place" v="farm" />
		<tag k="ssr:stedsnr" v="705936" />
	</node>
	<node id="-449014" lat="59.8716222227" lon="5.76232500593">
		<tag k="name" v="Risnes" />
		<tag k="place" v="farm" />
		<tag k="ssr:stedsnr" v="705914" />
	</node>
	<node id="-446971" lat="59.9289388892" lon="5.99716110302">
		<tag k="name" v="Øydjord" />
		<tag k="place" v="farm" />
		<tag k="ssr:stedsnr" v="65036" />
	</node>
	<node id="-446961" lat="59.7887021979" lon="6.1110878716">
		<tag k="fixme" v="consider place=hamlet" />
		<tag k="name" v="Vågen" />
		<tag k="place" v="farm" />
		<tag k="ssr:stedsnr" v="64310" />
	</node>
	<node id="-446958" lat="59.7971361148" lon="5.91163054813">
		<tag k="name" v="Tveit" />
		<tag k="place" v="farm" />
		<tag k="ssr:stedsnr" v="64262" />
	</node>
	<node id="-449004" lat="59.8351944451" lon="5.7272888972">
		<tag k="name" v="Opsanger" />
		<tag k="place" v="quarter" />
		<tag k="ssr:stedsnr" v="705879" />
	</node>
	<node id="-448996" lat="59.9932388863" lon="6.00628332716">
		<tag k="name" v="Bjørke" />
		<tag k="place" v="farm" />
		<tag k="ssr:stedsnr" v="705737" />
	</node>
	<node id="-446939" lat="59.9007500018" lon="5.94150278529">
		<tag k="alt_name" v="Musland, nedre;Musland" />
		<tag k="name" v="Nedre Musland" />
		<tag k="place" v="farm" />
		<tag k="ssr:stedsnr" v="64067" />
	</node>
	<node id="-446937" lat="59.9446277742" lon="5.89460000876">
		<tag k="alt_name" v="Rød, in" />
		<tag k="name" v="Indre Rød" />
		<tag k="place" v="farm" />
		<tag k="ssr:stedsnr" v="64023" />
	</node>
	<node id="-446936" lat="59.9525888912" lon="5.97674445168">
		<tag k="fixme" v="consider place=suburb, village or hamlet" />
		<tag k="name" v="Dimmelsvik" />
		<tag k="place" v="quarter" />
		<tag k="ssr:stedsnr" v="64013" />
	</node>
	<node id="-446930" lat="59.7781705006" lon="5.9804851195">
		<tag k="alt_name" v="Bauge, in;Bauge;Indra Bauge" />
		<tag k="fixme" v="consider place=hamlet" />
		<tag k="name" v="Indre Bauge" />
		<tag k="place" v="farm" />
		<tag k="ssr:stedsnr" v="65289" />
	</node>
	<node id="-446927" lat="59.856586113" lon="5.7101249964">
		<tag k="fixme" v="consider place=suburb, village or hamlet" />
		<tag k="name" v="Røyrvikvåg" />
		<tag k="place" v="quarter" />
		<tag k="ssr:stedsnr" v="65271" />
	</node>
	<node id="-446541" lat="59.9954777757" lon="6.02420277468">
		<tag k="name" v="Kvia" />
		<tag k="place" v="farm" />
		<tag k="ssr:stedsnr" v="887696" />
	</node>
	<node id="-448967" lat="59.7927055538" lon="6.11766943786">
		<tag k="historic" v="shieling" />
		<tag k="name" v="Nystøl" />
		<tag k="place" v="locality" />
		<tag k="ssr:stedsnr" v="705232" />
	</node>
	<node id="-448959" lat="59.9304233736" lon="5.86388685268">
		<tag k="fixme" v="consider place=hamlet" />
		<tag k="name" v="Myklebust" />
		<tag k="place" v="farm" />
		<tag k="ssr:stedsnr" v="692134" />
	</node>
	<node id="-448957" lat="59.9430138847" lon="5.97696110389">
		<tag k="name" v="Nyland" />
		<tag k="place" v="farm" />
		<tag k="ssr:stedsnr" v="692014" />
	</node>
	<node id="-446906" lat="60.1254916667" lon="6.33604999532">
		<tag k="historic" v="shieling" />
		<tag k="name" v="Kuskorstølen" />
		<tag k="place" v="locality" />
		<tag k="ssr:stedsnr" v="39229" />
	</node>
	<node id="-448946" lat="60.0941252638" lon="5.96905274357">
		<tag k="fixme" v="consider place=hamlet" />
		<tag k="name" v="Svinland" />
		<tag k="place" v="farm" />
		<tag k="ssr:stedsnr" v="672933" />
	</node>
	<node id="-446894" lat="59.7814899684" lon="5.81031580894">
		<tag k="fixme" v="consider place=hamlet" />
		<tag k="name" v="Berhaug" />
		<tag k="place" v="farm" />
		<tag k="ssr:stedsnr" v="38956" />
	</node>
	<node id="-448938" lat="60.0071804492" lon="5.85566583478">
		<tag k="fixme" v="consider place=hamlet" />
		<tag k="name" v="Fugleberg" />
		<tag k="place" v="farm" />
		<tag k="ssr:stedsnr" v="672766" />
	</node>
	<node id="-448937" lat="60.0044388926" lon="5.86348888752">
		<tag k="name" v="Stølen" />
		<tag k="place" v="farm" />
		<tag k="ssr:stedsnr" v="672765" />
	</node>
	<node id="-448934" lat="60.0280569646" lon="5.89733080275">
		<tag k="name" v="Ask" />
		<tag k="place" v="hamlet" />
		<tag k="ssr:stedsnr" v="672751" />
	</node>
	<node id="-448933" lat="60.0239300451" lon="6.00491485931">
		<tag k="name" v="Gjerde" />
		<tag k="place" v="hamlet" />
		<tag k="ssr:stedsnr" v="672750" />
	</node>
	<node id="-446882" lat="60.0575527806" lon="5.91402221552">
		<tag k="alt_name" v="Boland nedre" />
		<tag k="name" v="Nedre Boland" />
		<tag k="place" v="farm" />
		<tag k="ssr:stedsnr" v="38898" />
	</node>
	<node id="-448918" lat="60.0861444443" lon="6.30679444364">
		<tag k="alt_name" v="Gardshamarsætri" />
		<tag k="historic" v="shieling" />
		<tag k="name" v="Gardshammar" />
		<tag k="place" v="locality" />
		<tag k="ssr:stedsnr" v="672109" />
	</node>
	<node id="-448917" lat="60.0840888915" lon="6.25970000332">
		<tag k="historic" v="shieling" />
		<tag k="name" v="Krokasætret" />
		<tag k="place" v="locality" />
		<tag k="ssr:stedsnr" v="672107" />
	</node>
	<node id="-448907" lat="59.9441638843" lon="5.84472499288">
		<tag k="name" v="Skorpo" />
		<tag k="place" v="farm" />
		<tag k="ssr:stedsnr" v="671571" />
	</node>
	<node id="-448903" lat="59.9656861127" lon="5.89744722452">
		<tag k="name" v="Lindestølen" />
		<tag k="place" v="farm" />
		<tag k="ssr:stedsnr" v="671471" />
	</node>
	<node id="-448902" lat="59.9903090586" lon="6.00955909658">
		<tag k="fixme" v="consider place=hamlet" />
		<tag k="name" v="Skåla" />
		<tag k="place" v="farm" />
		<tag k="ssr:stedsnr" v="671462" />
	</node>
	<node id="-448901" lat="59.9858916704" lon="6.01156666463">
		<tag k="name" v="Rosendal" />
		<tag k="place" v="village" />
		<tag k="ssr:stedsnr" v="671444" />
	</node>
	<node id="-448900" lat="59.9866999957" lon="6.04369999711">
		<tag k="name" v="Skolten" />
		<tag k="place" v="farm" />
		<tag k="ssr:stedsnr" v="671440" />
	</node>
	<node id="-448894" lat="59.7877344063" lon="5.67957757085">
		<tag k="fixme" v="consider place=hamlet" />
		<tag k="name" v="Sætre" />
		<tag k="place" v="farm" />
		<tag k="ssr:stedsnr" v="671370" />
	</node>
	<node id="-448891" lat="59.8357364359" lon="5.73296048205">
		<tag k="alt_name" v="Upsanger" />
		<tag k="fixme" v="consider place=hamlet" />
		<tag k="name" v="Opsanger" />
		<tag k="place" v="farm" />
		<tag k="ssr:stedsnr" v="671329" />
	</node>
	<node id="-448890" lat="59.8315111088" lon="5.72988055183">
		<tag k="name" v="Gongstø" />
		<tag k="place" v="farm" />
		<tag k="ssr:stedsnr" v="671317" />
	</node>
	<node id="-448889" lat="59.8344251835" lon="5.69832811371">
		<tag k="fixme" v="consider place=hamlet" />
		<tag k="name" v="Bjelland" />
		<tag k="place" v="farm" />
		<tag k="ssr:stedsnr" v="671316" />
	</node>
	<node id="-448887" lat="59.7826466479" lon="5.96290250766">
		<tag k="alt_name" v="Feravika;Feravika ytre;Ytra Færavik" />
		<tag k="fixme" v="consider place=hamlet" />
		<tag k="name" v="Ytre Feravika" />
		<tag k="place" v="farm" />
		<tag k="ssr:stedsnr" v="671296" />
	</node>
	<node id="-447209" lat="59.751433329" lon="5.74815278058">
		<tag k="name" v="Fatland" />
		<tag k="place" v="isolated_dwelling" />
		<tag k="ssr:stedsnr" v="125436" />
	</node>
	<node id="-448884" lat="59.7968249967" lon="5.99988610859">
		<tag k="historic" v="shieling" />
		<tag k="name" v="Sundsstøl" />
		<tag k="place" v="locality" />
		<tag k="ssr:stedsnr" v="671282" />
	</node>
	<node id="-448873" lat="59.9165499964" lon="6.18175555403">
		<tag k="name" v="Lægda" />
		<tag k="place" v="locality" />
		<tag k="ssr:stedsnr" v="671088" />
	</node>
	<node id="-446824" lat="59.8053138919" lon="6.06066389012">
		<tag k="historic" v="shieling" />
		<tag k="name" v="Vetle Slottestølen" />
		<tag k="place" v="locality" />
		<tag k="ssr:stedsnr" v="38169" />
	</node>
	<node id="-448870" lat="59.9190361082" lon="6.00378334191">
		<tag k="name" v="Ljoshaug" />
		<tag k="place" v="farm" />
		<tag k="ssr:stedsnr" v="671077" />
	</node>
	<node id="-448869" lat="59.9226388908" lon="5.87501111632">
		<tag k="name" v="Rinde" />
		<tag k="place" v="farm" />
		<tag k="ssr:stedsnr" v="671061" />
	</node>
	<node id="-448867" lat="59.9344000031" lon="6.04475833742">
		<tag k="historic" v="shieling" />
		<tag k="name" v="Håvardhaugssætret" />
		<tag k="place" v="locality" />
		<tag k="ssr:stedsnr" v="671050" />
	</node>
	<node id="-448866" lat="59.9380827835" lon="5.98610994323">
		<tag k="fixme" v="consider place=hamlet" />
		<tag k="name" v="Ripel" />
		<tag k="place" v="farm" />
		<tag k="ssr:stedsnr" v="671038" />
	</node>
	<node id="-448865" lat="59.9405888904" lon="5.980830549">
		<tag k="alt_name" v="Sandvik, øvre;Sandvik" />
		<tag k="name" v="Øvre Sandvik" />
		<tag k="place" v="farm" />
		<tag k="ssr:stedsnr" v="671037" />
	</node>
	<node id="-448861" lat="59.952697297" lon="5.9972328727">
		<tag k="fixme" v="consider place=hamlet" />
		<tag k="name" v="Setberg" />
		<tag k="place" v="farm" />
		<tag k="ssr:stedsnr" v="671015" />
	</node>
	<node id="-448858" lat="59.7153066759" lon="5.67302073372">
		<tag k="fixme" v="consider place=hamlet" />
		<tag k="name" v="Sæbø" />
		<tag k="place" v="farm" />
		<tag k="ssr:stedsnr" v="670078" />
	</node>
	<node id="-446693" lat="59.9474773663" lon="5.99582195274">
		<tag k="name" v="Åmvik" />
		<tag k="place" v="hamlet" />
		<tag k="ssr:stedsnr" v="4015" />
	</node>
	<node id="-448854" lat="59.7986397963" lon="5.92019742161">
		<tag k="fixme" v="consider place=hamlet" />
		<tag k="name" v="Holmedal" />
		<tag k="place" v="farm" />
		<tag k="ssr:stedsnr" v="671255" />
	</node>
	<node id="-448842" lat="60.0547899406" lon="5.90592359167">
		<tag k="fixme" v="consider place=hamlet" />
		<tag k="name" v="Gote" />
		<tag k="place" v="farm" />
		<tag k="ssr:stedsnr" v="648710" />
	</node>
	<node id="-448841" lat="60.1323972257" lon="6.02135277699">
		<tag k="historic" v="shieling" />
		<tag k="name" v="Vågsfonnastølen" />
		<tag k="place" v="locality" />
		<tag k="ssr:stedsnr" v="645932" />
	</node>
	<node id="-448835" lat="60.0032083302" lon="5.85950276921">
		<tag k="name" v="Skarvatun" />
		<tag k="place" v="farm" />
		<tag k="ssr:stedsnr" v="645812" />
	</node>
	<node id="-446785" lat="60.1030972186" lon="5.91418611112">
		<tag k="name" v="Bjørklund" />
		<tag k="place" v="farm" />
		<tag k="ssr:stedsnr" v="24046" />
	</node>
	<node id="-448831" lat="59.9928861089" lon="5.78506666058">
		<tag k="fixme" v="consider place=suburb, village or hamlet" />
		<tag k="name" v="Ølve" />
		<tag k="place" v="quarter" />
		<tag k="ssr:stedsnr" v="645791" />
	</node>
	<node id="-446780" lat="60.0578103051" lon="5.91401463332">
		<tag k="alt_name" v="Bogland" />
		<tag k="fixme" v="consider place=hamlet" />
		<tag k="name" v="Boland" />
		<tag k="place" v="farm" />
		<tag k="ssr:stedsnr" v="5975" />
	</node>
	<node id="-446779" lat="60.0684500006" lon="6.12524167468">
		<tag k="historic" v="shieling" />
		<tag k="name" v="Ænessætret" />
		<tag k="place" v="locality" />
		<tag k="ssr:stedsnr" v="5966" />
	</node>
	<node id="-446776" lat="60.1126371762" lon="5.94198897451">
		<tag k="alt_name" v="Sandvik" />
		<tag k="fixme" v="consider place=hamlet" />
		<tag k="name" v="Sandvika" />
		<tag k="place" v="farm" />
		<tag k="ssr:stedsnr" v="5883" />
	</node>
	<node id="-448822" lat="59.925738888" lon="5.88928055964">
		<tag k="name" v="Kjerland" />
		<tag k="place" v="farm" />
		<tag k="ssr:stedsnr" v="645233" />
	</node>
	<node id="-446771" lat="60.1315575454" lon="6.3190916678">
		<tag k="fixme" v="consider place=hamlet" />
		<tag k="name" v="Nedrehus" />
		<tag k="place" v="farm" />
		<tag k="ssr:stedsnr" v="5185" />
	</node>
	<node id="-448813" lat="60.0905444405" lon="5.96943332517">
		<tag k="name" v="Hellebergsvik" />
		<tag k="place" v="farm" />
		<tag k="ssr:stedsnr" v="644999" />
	</node>
	<node id="-448805" lat="59.739913888" lon="5.69827500749">
		<tag k="alt_name" v="Hamn" />
		<tag k="name" v="Havnen" />
		<tag k="place" v="farm" />
		<tag k="ssr:stedsnr" v="644950" />
	</node>
	<node id="-448802" lat="60.1296833345" lon="5.99089999116">
		<tag k="historic" v="shieling" />
		<tag k="name" v="Haukåssetret" />
		<tag k="place" v="locality" />
		<tag k="ssr:stedsnr" v="644941" />
	</node>
	<node id="-446742" lat="59.7734345747" lon="6.05507695099">
		<tag k="fixme" v="consider place=hamlet" />
		<tag k="name" v="Fatland" />
		<tag k="place" v="farm" />
		<tag k="ssr:stedsnr" v="4346" />
	</node>
	<node id="-446738" lat="59.7781972352" lon="6.07390897622">
		<tag k="fixme" v="consider place=hamlet" />
		<tag k="name" v="Hillesdal" />
		<tag k="place" v="farm" />
		<tag k="ssr:stedsnr" v="4337" />
	</node>
	<node id="-446737" lat="59.84378953" lon="5.76645230638">
		<tag k="fixme" v="consider place=hamlet" />
		<tag k="name" v="Teigen" />
		<tag k="place" v="farm" />
		<tag k="ssr:stedsnr" v="4322" />
	</node>
	<node id="-446728" lat="59.7867416683" lon="5.96628333766">
		<tag k="historic" v="shieling" />
		<tag k="name" v="Sundsstølane" />
		<tag k="place" v="locality" />
		<tag k="ssr:stedsnr" v="4291" />
	</node>
	<node id="-446727" lat="59.7928594777" lon="5.90621705833">
		<tag k="fixme" v="consider place=hamlet" />
		<tag k="name" v="Storhaug" />
		<tag k="place" v="farm" />
		<tag k="ssr:stedsnr" v="4288" />
	</node>
	<node id="-446723" lat="59.8054740232" lon="5.98463401045">
		<tag k="alt_name" v="Lii" />
		<tag k="fixme" v="consider place=hamlet" />
		<tag k="name" v="Lia" />
		<tag k="place" v="farm" />
		<tag k="ssr:stedsnr" v="4255" />
	</node>
	<node id="-446722" lat="59.7988138922" lon="5.97064444406">
		<tag k="name" v="Sunde" />
		<tag k="place" v="farm" />
		<tag k="ssr:stedsnr" v="4253" />
	</node>
	<node id="-446719" lat="60.1578055558" lon="6.30866666328">
		<tag k="historic" v="shieling" />
		<tag k="name" v="Smalastølen" />
		<tag k="place" v="locality" />
		<tag k="ssr:stedsnr" v="4226" />
	</node>
	<node id="-446714" lat="59.8533999993" lon="6.07143889468">
		<tag k="historic" v="shieling" />
		<tag k="name" v="Bjørkestølen" />
		<tag k="place" v="locality" />
		<tag k="ssr:stedsnr" v="4173" />
	</node>
	<node id="-446712" lat="59.8565930816" lon="6.01760540134">
		<tag k="alt_name" v="Okstveit" />
		<tag k="fixme" v="consider place=hamlet" />
		<tag k="name" v="Opstveit" />
		<tag k="place" v="farm" />
		<tag k="ssr:stedsnr" v="4166" />
	</node>
	<node id="-447869" lat="59.7611211452" lon="5.78776413449">
		<tag k="alt_name" v="Sjoangjo" />
		<tag k="fixme" v="consider place=hamlet" />
		<tag k="name" v="Sjoangen" />
		<tag k="place" v="farm" />
		<tag k="ssr:stedsnr" v="428368" />
	</node>
	<node id="-448741" lat="59.7826749976" lon="6.07938888129">
		<tag k="historic" v="shieling" />
		<tag k="name" v="Gamlestølen" />
		<tag k="place" v="locality" />
		<tag k="ssr:stedsnr" v="644213" />
	</node>
	<node id="-446682" lat="59.8203999985" lon="5.86035000189">
		<tag k="historic" v="shieling" />
		<tag k="name" v="Dalsstøl" />
		<tag k="place" v="locality" />
		<tag k="ssr:stedsnr" v="3192" />
	</node>
	<node id="-448722" lat="59.869258334" lon="5.74127499564">
		<tag k="name" v="Bogsnesteigen" />
		<tag k="place" v="farm" />
		<tag k="ssr:stedsnr" v="643913" />
	</node>
	<node id="-448717" lat="59.8170305572" lon="5.80292222969">
		<tag k="alt_name" v="Gongstø" />
		<tag k="fixme" v="consider place=hamlet" />
		<tag k="name" v="Gangstø" />
		<tag k="place" v="farm" />
		<tag k="ssr:stedsnr" v="643835" />
	</node>
	<node id="-448714" lat="59.9312638934" lon="5.81087500111">
		<tag k="name" v="Vågen" />
		<tag k="place" v="isolated_dwelling" />
		<tag k="ssr:stedsnr" v="631114" />
	</node>
	<node id="-446665" lat="59.7517483278" lon="5.83726206293">
		<tag k="fixme" v="consider place=hamlet" />
		<tag k="name" v="Toftekalven" />
		<tag k="place" v="farm" />
		<tag k="ssr:stedsnr" v="990582" />
	</node>
	<node id="-446664" lat="59.8460749353" lon="5.76943161566">
		<tag k="fixme" v="consider place=hamlet" />
		<tag k="name" v="Opsanger" />
		<tag k="place" v="farm" />
		<tag k="ssr:stedsnr" v="990581" />
	</node>
	<node id="-446663" lat="59.8165669796" lon="5.75398098971">
		<tag k="fixme" v="consider place=hamlet" />
		<tag k="name" v="Lauvøya" />
		<tag k="place" v="farm" />
		<tag k="ssr:stedsnr" v="990480" />
	</node>
	<node id="-446662" lat="59.7973578453" lon="5.65618297943">
		<tag k="fixme" v="consider place=hamlet" />
		<tag k="name" v="Halsnøy kloster" />
		<tag k="place" v="farm" />
		<tag k="ssr:stedsnr" v="990479" />
	</node>
	<node id="-446661" lat="59.8302474725" lon="5.78682686927">
		<tag k="fixme" v="consider place=hamlet" />
		<tag k="name" v="Valen" />
		<tag k="place" v="farm" />
		<tag k="ssr:stedsnr" v="990478" />
	</node>
	<node id="-446660" lat="60.1214029638" lon="5.93607881276">
		<tag k="fixme" v="consider place=hamlet" />
		<tag k="name" v="Berg" />
		<tag k="place" v="farm" />
		<tag k="ssr:stedsnr" v="990476" />
	</node>
	<node id="-446657" lat="59.8354688292" lon="5.71272626094">
		<tag k="fixme" v="consider place=hamlet" />
		<tag k="name" v="Sunde" />
		<tag k="place" v="farm" />
		<tag k="ssr:stedsnr" v="990443" />
	</node>
	<node id="-448704" lat="60.0472023795" lon="5.90431325338">
		<tag k="fixme" v="consider place=hamlet" />
		<tag k="name" v="Gjerde" />
		<tag k="place" v="farm" />
		<tag k="ssr:stedsnr" v="611980" />
	</node>
	<node id="-448703" lat="60.0716661874" lon="6.05493134382">
		<tag k="name" v="Bjørkedalen" />
		<tag k="place" v="farm" />
		<tag k="ssr:stedsnr" v="611976" />
	</node>
	<node id="-446654" lat="59.9870099618" lon="6.02469201524">
		<tag k="fixme" v="consider place=hamlet" />
		<tag k="name" v="Om" />
		<tag k="place" v="farm" />
		<tag k="ssr:stedsnr" v="990429" />
	</node>
	<node id="-446653" lat="60.06661091" lon="6.04226207985">
		<tag k="fixme" v="consider place=hamlet" />
		<tag k="name" v="Vardanes" />
		<tag k="place" v="farm" />
		<tag k="ssr:stedsnr" v="990426" />
	</node>
	<node id="-446652" lat="60.1183438696" lon="6.07563274306">
		<tag k="fixme" v="consider place=hamlet" />
		<tag k="name" v="Sild" />
		<tag k="place" v="farm" />
		<tag k="ssr:stedsnr" v="990425" />
	</node>
	<node id="-446651" lat="59.9829577019" lon="5.75435094302">
		<tag k="fixme" v="consider place=hamlet" />
		<tag k="name" v="Terøya" />
		<tag k="place" v="farm" />
		<tag k="ssr:stedsnr" v="990420" />
	</node>
	<node id="-446646" lat="60.0689512156" lon="6.0460657969">
		<tag k="name" v="Nesodden" />
		<tag k="place" v="farm" />
		<tag k="ssr:stedsnr" v="987351" />
	</node>
	<node id="-446645" lat="60.0704131715" lon="6.05307727504">
		<tag k="fixme" v="consider place=hamlet" />
		<tag k="name" v="Vesle Svoldal" />
		<tag k="place" v="farm" />
		<tag k="ssr:stedsnr" v="987343" />
	</node>
	<node id="-448691" lat="60.0110068687" lon="5.99552445571">
		<tag k="alt_name" v="Vedavika" />
		<tag k="fixme" v="consider place=hamlet" />
		<tag k="name" v="Vevik" />
		<tag k="place" v="farm" />
		<tag k="ssr:stedsnr" v="611791" />
	</node>
	<node id="-448689" lat="60.0181333379" lon="6.04985000037">
		<tag k="historic" v="shieling" />
		<tag k="name" v="Midsætret" />
		<tag k="place" v="locality" />
		<tag k="ssr:stedsnr" v="611779" />
	</node>
	<node id="-448685" lat="60.0199638911" lon="5.83557499377">
		<tag k="name" v="Myra" />
		<tag k="place" v="isolated_dwelling" />
		<tag k="ssr:stedsnr" v="611683" />
	</node>
	<node id="-446623" lat="59.7971722229" lon="5.68414722493">
		<tag k="alt_name" v="Limomnen" />
		<tag k="name" v="Limovnen" />
		<tag k="place" v="farm" />
		<tag k="ssr:stedsnr" v="888951" />
	</node>
	<node id="-448670" lat="60.1189749963" lon="6.33837500193">
		<tag k="historic" v="shieling" />
		<tag k="name" v="Gjerdsstølen" />
		<tag k="place" v="locality" />
		<tag k="ssr:stedsnr" v="611146" />
	</node>
	<node id="-446619" lat="59.8723000031" lon="5.76635278471">
		<tag k="name" v="Øyra" />
		<tag k="place" v="farm" />
		<tag k="ssr:stedsnr" v="888932" />
	</node>
	<node id="-448655" lat="59.9192111091" lon="5.79186111955">
		<tag k="fixme" v="consider place=hamlet" />
		<tag k="name" v="Herøysund" />
		<tag k="place" v="village" />
		<tag k="ssr:stedsnr" v="610717" />
	</node>
	<node id="-448654" lat="59.9929878604" lon="5.77680814429">
		<tag k="alt_name" v="Lønning" />
		<tag k="fixme" v="consider place=hamlet" />
		<tag k="name" v="Løning" />
		<tag k="place" v="farm" />
		<tag k="ssr:stedsnr" v="610691" />
	</node>
	<node id="-447853" lat="59.7304785902" lon="5.69985920372">
		<tag k="fixme" v="consider place=hamlet" />
		<tag k="name" v="Blokkhus" />
		<tag k="place" v="farm" />
		<tag k="ssr:stedsnr" v="428096" />
	</node>
	<node id="-447511" lat="59.7936989487" lon="5.96184655241">
		<tag k="fixme" v="consider place=hamlet" />
		<tag k="name" v="Sunde" />
		<tag k="place" v="farm" />
		<tag k="ssr:stedsnr" v="186293" />
	</node>
	<node id="-448648" lat="59.9911861772" lon="5.99216702542">
		<tag k="fixme" v="consider place=hamlet" />
		<tag k="name" v="Nes" />
		<tag k="place" v="farm" />
		<tag k="ssr:stedsnr" v="610512" />
	</node>
	<node id="-448647" lat="59.9906870461" lon="6.03104273371">
		<tag k="fixme" v="consider place=hamlet" />
		<tag k="name" v="Hatteberg" />
		<tag k="place" v="farm" />
		<tag k="ssr:stedsnr" v="610507" />
	</node>
	<node id="-448646" lat="59.9957777789" lon="6.00818055599">
		<tag k="historic" v="shieling" />
		<tag k="name" v="Skålastølen" />
		<tag k="place" v="locality" />
		<tag k="ssr:stedsnr" v="610508" />
	</node>
	<node id="-448645" lat="59.9917347199" lon="5.84976989654">
		<tag k="fixme" v="consider place=hamlet" />
		<tag k="name" v="Ulvanes" />
		<tag k="place" v="farm" />
		<tag k="ssr:stedsnr" v="610498" />
	</node>
	<node id="-448644" lat="59.9967315166" lon="6.01807297867">
		<tag k="fixme" v="consider place=hamlet" />
		<tag k="name" v="Kletta" />
		<tag k="place" v="farm" />
		<tag k="ssr:stedsnr" v="610496" />
	</node>
	<node id="-448643" lat="59.982960884" lon="6.01602931602">
		<tag k="fixme" v="consider place=hamlet" />
		<tag k="name" v="Malmanger" />
		<tag k="place" v="farm" />
		<tag k="ssr:stedsnr" v="610492" />
	</node>
	<node id="-448641" lat="59.7798610327" lon="5.79694416505">
		<tag k="alt_name" v="Skato" />
		<tag k="fixme" v="consider place=hamlet" />
		<tag k="name" v="Skata" />
		<tag k="place" v="farm" />
		<tag k="ssr:stedsnr" v="610469" />
	</node>
	<node id="-446754" lat="60.1535305555" lon="5.96654166268">
		<tag k="name" v="Oldervik" />
		<tag k="place" v="isolated_dwelling" />
		<tag k="ssr:stedsnr" v="4611" />
	</node>
	<node id="-448631" lat="59.8436416645" lon="5.74499443653">
		<tag k="name" v="Torboneset" />
		<tag k="place" v="farm" />
		<tag k="ssr:stedsnr" v="610366" />
	</node>
	<node id="-448625" lat="59.7938444478" lon="5.98256111305">
		<tag k="historic" v="shieling" />
		<tag k="name" v="Feravikstølen" />
		<tag k="place" v="locality" />
		<tag k="ssr:stedsnr" v="610331" />
	</node>
	<node id="-446576" lat="60.1181111092" lon="6.33239443994">
		<tag k="historic" v="shieling" />
		<tag k="name" v="Gamlestølen" />
		<tag k="place" v="locality" />
		<tag k="ssr:stedsnr" v="888246" />
	</node>
	<node id="-448623" lat="59.8637722242" lon="5.7453333271">
		<tag k="name" v="Husnes" />
		<tag k="place" v="village" />
		<tag k="ssr:stedsnr" v="610329" />
	</node>
	<node id="-448613" lat="59.8735234791" lon="5.97100973336">
		<tag k="fixme" v="consider place=hamlet" />
		<tag k="name" v="Fjellandsbø" />
		<tag k="place" v="farm" />
		<tag k="ssr:stedsnr" v="610150" />
	</node>
	<node id="-448606" lat="59.9227112661" lon="6.00693746011">
		<tag k="fixme" v="consider place=hamlet" />
		<tag k="name" v="Stuland" />
		<tag k="place" v="farm" />
		<tag k="ssr:stedsnr" v="610081" />
	</node>
	<node id="-447845" lat="60.109947222" lon="6.22584444289">
		<tag k="name" v="Krokatræ" />
		<tag k="place" v="farm" />
		<tag k="ssr:stedsnr" v="424291" />
	</node>
	<node id="-448604" lat="59.9299168965" lon="5.96540161013">
		<tag k="historic" v="shieling" />
		<tag k="name" v="Krukestølen" />
		<tag k="place" v="locality" />
		<tag k="ssr:stedsnr" v="610065" />
	</node>
	<node id="-448603" lat="59.9266178448" lon="5.86131735133">
		<tag k="name" v="Fet" />
		<tag k="place" v="hamlet" />
		<tag k="ssr:stedsnr" v="610059" />
	</node>
	<node id="-448599" lat="59.9513099759" lon="5.98252522158">
		<tag k="fixme" v="consider place=hamlet" />
		<tag k="name" v="Fet" />
		<tag k="place" v="farm" />
		<tag k="ssr:stedsnr" v="610020" />
	</node>
	<node id="-449209" lat="59.9460583365" lon="5.9578027846">
		<tag k="name" v="Grytevik" />
		<tag k="place" v="farm" />
		<tag k="ssr:stedsnr" v="752027" />
	</node>
	<node id="-448592" lat="59.727575221" lon="5.6874836573">
		<tag k="fixme" v="consider place=hamlet" />
		<tag k="name" v="Brekke" />
		<tag k="place" v="farm" />
		<tag k="ssr:stedsnr" v="609099" />
	</node>
	<node id="-446542" lat="59.8260750044" lon="6.06081388802">
		<tag k="historic" v="shieling" />
		<tag k="name" v="Vasstølen" />
		<tag k="place" v="locality" />
		<tag k="ssr:stedsnr" v="887711" />
	</node>
	<node id="-448589" lat="59.7175467029" lon="5.70894396631">
		<tag k="fixme" v="consider place=hamlet" />
		<tag k="name" v="Gjerde" />
		<tag k="place" v="farm" />
		<tag k="ssr:stedsnr" v="609068" />
	</node>
	<node id="-448588" lat="59.7540534529" lon="6.02159286014">
		<tag k="fixme" v="consider place=hamlet" />
		<tag k="name" v="Haugen" />
		<tag k="place" v="farm" />
		<tag k="ssr:stedsnr" v="610424" />
	</node>
	<node id="-446530" lat="59.8181861141" lon="6.0905916687">
		<tag k="historic" v="shieling" />
		<tag k="name" v="Gamlestølen" />
		<tag k="place" v="locality" />
		<tag k="ssr:stedsnr" v="887163" />
	</node>
	<node id="-446512" lat="59.7936638881" lon="5.72317777729">
		<tag k="name" v="Sæbø" />
		<tag k="place" v="hamlet" />
		<tag k="ssr:stedsnr" v="407773" />
	</node>
	<node id="-448541" lat="60.1403611097" lon="6.23565000858">
		<tag k="historic" v="shieling" />
		<tag k="name" v="Vårstøl" />
		<tag k="place" v="locality" />
		<tag k="ssr:stedsnr" v="584390" />
	</node>
	<node id="-446486" lat="59.7850583372" lon="5.90341665906">
		<tag k="name" v="Utåker" />
		<tag k="place" v="farm" />
		<tag k="ssr:stedsnr" v="402973" />
	</node>
	<node id="-446484" lat="59.7300870424" lon="5.69710759766">
		<tag k="fixme" v="consider place=hamlet" />
		<tag k="name" v="Berge" />
		<tag k="place" v="farm" />
		<tag k="ssr:stedsnr" v="402966" />
	</node>
	<node id="-446481" lat="59.7880222244" lon="5.77153888791">
		<tag k="name" v="Gravdal" />
		<tag k="place" v="farm" />
		<tag k="ssr:stedsnr" v="402957" />
	</node>
	<node id="-448525" lat="59.9312722183" lon="5.86721389572">
		<tag k="fixme" v="consider place=hamlet" />
		<tag k="name" v="Dønhaug" />
		<tag k="place" v="farm" />
		<tag k="ssr:stedsnr" v="584246" />
	</node>
</osm>
