<?xml version="1.0" encoding="UTF-8"?>
<osm generator="osmapis" version="0.6">
	<node id="-447358" lat="60.0717583339" lon="6.18193611196">
		<tag k="ford" v="yes" />
		<tag k="name" v="Hammarsvad" />
		<tag k="place" v="locality" />
		<tag k="ssr:stedsnr" v="159447" />
	</node>
	<node id="-449045" lat="59.8170361076" lon="6.05454999251">
		<tag k="highway" v="path" />
		<tag k="name" v="Hellekvilet" />
		<tag k="ssr:stedsnr" v="706174" />
	</node>
	<node id="-445961" lat="60.1081444463" lon="5.91439444612">
		<tag k="layer" v="-1" />
		<tag k="name" v="Vestervik" />
		<tag k="ssr:stedsnr" v="44651" />
		<tag k="tunnel" v="yes" />
	</node>
	<node id="-446199" lat="60.0202527759" lon="6.0524694443">
		<tag k="ford" v="yes" />
		<tag k="name" v="Breivad" />
		<tag k="place" v="locality" />
		<tag k="ssr:stedsnr" v="341798" />
	</node>
	<node id="-448240" lat="59.7508694437" lon="5.74537222613">
		<tag k="alt_name" v="Fatlandshamn" />
		<tag k="fixme" v="verify maritime location" />
		<tag k="mooring" v="yes" />
		<tag k="name" v="Fatlandshavn" />
		<tag k="place" v="locality" />
		<tag k="ssr:stedsnr" v="523048" />
	</node>
	<node id="-448356" lat="60.1312583297" lon="6.32443610832">
		<tag k="bridge" v="yes" />
		<tag k="layer" v="1" />
		<tag k="name" v="Austrepollen" />
		<tag k="ssr:stedsnr" v="532828" />
	</node>
	<node id="-448535" lat="60.0817527782" lon="6.29085555702">
		<tag k="ford" v="yes" />
		<tag k="name" v="Brufossvadet" />
		<tag k="place" v="locality" />
		<tag k="ssr:stedsnr" v="584326" />
	</node>
	<node id="-446825" lat="59.809158333" lon="6.06184999473">
		<tag k="highway" v="path" />
		<tag k="name" v="Haggardskvilet" />
		<tag k="ssr:stedsnr" v="38174" />
	</node>
	<node id="-447975" lat="59.7876916628" lon="6.03824999694">
		<tag k="ford" v="yes" />
		<tag k="name" v="Jentevad" />
		<tag k="place" v="locality" />
		<tag k="ssr:stedsnr" v="462560" />
	</node>
	<node id="-449677" lat="59.7965361105" lon="5.91761110804">
		<tag k="bridge" v="yes" />
		<tag k="layer" v="1" />
		<tag k="name" v="Holmedal" />
		<tag k="ssr:stedsnr" v="835888" />
	</node>
	<node id="-449380" lat="59.9218722197" lon="5.79899166043">
		<tag k="bridge" v="yes" />
		<tag k="layer" v="1" />
		<tag k="name" v="Bringedal" />
		<tag k="ssr:stedsnr" v="775827" />
	</node>
	<node id="-447715" lat="60.0061972182" lon="6.08269444339">
		<tag k="man_made" v="cairn" />
		<tag k="name" v="Melderskin" />
		<tag k="place" v="locality" />
		<tag k="ssr:stedsnr" v="233285" />
	</node>
	<node id="-447714" lat="60.0562833371" lon="6.02504166085">
		<tag k="bridge" v="yes" />
		<tag k="layer" v="1" />
		<tag k="name" v="Årsneselv" />
		<tag k="ssr:stedsnr" v="229861" />
	</node>
	<node id="-447713" lat="59.9506666637" lon="5.98737499577">
		<tag k="bridge" v="yes" />
		<tag k="layer" v="1" />
		<tag k="name" v="Fitje" />
		<tag k="ssr:stedsnr" v="228852" />
	</node>
	<node id="-445920" lat="60.0070777792" lon="5.74042222655">
		<tag k="highway" v="path" />
		<tag k="name" v="Stegen" />
		<tag k="ssr:stedsnr" v="281853" />
	</node>
	<node id="-448087" lat="59.8259472245" lon="5.82549723035">
		<tag k="highway" v="path" />
		<tag k="name" v="Halvgjenge" />
		<tag k="ssr:stedsnr" v="463977" />
	</node>
	<node id="-448093" lat="59.7953499961" lon="5.96284999583">
		<tag k="alt_name" v="Matre FK" />
		<tag k="amenity" v="ferry_terminal" />
		<tag k="name" v="Matre ferjekai" />
		<tag k="ssr:stedsnr" v="464620" />
	</node>
	<node id="-447195" lat="59.8053638889" lon="5.98223332872">
		<tag k="bridge" v="yes" />
		<tag k="layer" v="1" />
		<tag k="name" v="Sunde" />
		<tag k="ssr:stedsnr" v="107903" />
	</node>
	<node id="-449370" lat="60.094247223" lon="6.14890555152">
		<tag k="alt_name" v="Furuberg" />
		<tag k="layer" v="-1" />
		<tag k="loc_name" v="Furebergstunnelen" />
		<tag k="name" v="Furebergtunnelen" />
		<tag k="ssr:stedsnr" v="772438" />
		<tag k="tunnel" v="yes" />
	</node>
	<node id="-447193" lat="60.1002305534" lon="6.16880000331">
		<tag k="bridge" v="yes" />
		<tag k="layer" v="1" />
		<tag k="loc_name" v="Furebergsfossbrua" />
		<tag k="name" v="Furubergfossen" />
		<tag k="ssr:stedsnr" v="107885" />
	</node>
	<node id="-445912" lat="60.0869453644" lon="5.97310555551">
		<tag k="amenity" v="ferry_terminal" />
		<tag k="name" v="Varaldsøy ferjekai" />
		<tag k="ssr:stedsnr" v="281750" />
	</node>
	<node id="-448100" lat="59.9937111075" lon="5.78696388196">
		<tag k="bridge" v="yes" />
		<tag k="layer" v="1" />
		<tag k="name" v="Nerhus" />
		<tag k="ssr:stedsnr" v="470873" />
	</node>
	<node id="-450060" lat="59.9193222193" lon="5.79757778318">
		<tag k="bridge" v="yes" />
		<tag k="layer" v="1" />
		<tag k="name" v="Tveit" />
		<tag k="ssr:stedsnr" v="956895" />
	</node>
	<node id="-448850" lat="59.8585416698" lon="6.01676666896">
		<tag k="bridge" v="yes" />
		<tag k="layer" v="1" />
		<tag k="name" v="Blåfalli Kraftverk" />
		<tag k="ssr:stedsnr" v="653844" />
	</node>
	<node id="-448849" lat="59.9189444422" lon="5.79309444191">
		<tag k="bridge" v="yes" />
		<tag k="layer" v="1" />
		<tag k="name" v="Hellvik" />
		<tag k="ssr:stedsnr" v="652853" />
	</node>
	<node id="-446520" lat="59.8588777773" lon="5.77424166808">
		<tag k="bridge" v="yes" />
		<tag k="layer" v="1" />
		<tag k="name" v="Husnes" />
		<tag k="ssr:stedsnr" v="410872" />
	</node>
	<node id="-446926" lat="60.1175194442" lon="6.26809999781">
		<tag k="bridge" v="yes" />
		<tag k="layer" v="1" />
		<tag k="name" v="Sundal" />
		<tag k="ssr:stedsnr" v="46901" />
	</node>
	<node id="-449101" lat="59.7913638872" lon="6.09739444856">
		<tag k="bridge" v="yes" />
		<tag k="layer" v="1" />
		<tag k="name" v="Åkra" />
		<tag k="ssr:stedsnr" v="714853" />
	</node>
	<node id="-446924" lat="59.9612611118" lon="6.00977221519">
		<tag k="bridge" v="yes" />
		<tag k="layer" v="1" />
		<tag k="name" v="Guddal" />
		<tag k="ssr:stedsnr" v="46892" />
	</node>
	<node id="-448331" lat="59.8213999973" lon="5.72582222965">
		<tag k="layer" v="-1" />
		<tag k="name" v="Halsnøytunnelen" />
		<tag k="ssr:stedsnr" v="524310" />
		<tag k="tunnel" v="yes" />
	</node>
	<node id="-449098" lat="59.984988885" lon="6.0125722199">
		<tag k="bridge" v="yes" />
		<tag k="layer" v="1" />
		<tag k="name" v="Skåla" />
		<tag k="ssr:stedsnr" v="713884" />
	</node>
	<node id="-446519" lat="59.9208805575" lon="6.00464443762">
		<tag k="bridge" v="yes" />
		<tag k="layer" v="1" />
		<tag k="name" v="Landa" />
		<tag k="ssr:stedsnr" v="410870" />
	</node>
	<node id="-449096" lat="59.8111750044" lon="5.81371944056">
		<tag k="bridge" v="yes" />
		<tag k="layer" v="1" />
		<tag k="name" v="Handeland" />
		<tag k="ssr:stedsnr" v="713878" />
	</node>
	<node id="-449100" lat="59.7895222201" lon="5.90603334046">
		<tag k="bridge" v="yes" />
		<tag k="layer" v="1" />
		<tag k="name" v="Storhaug" />
		<tag k="ssr:stedsnr" v="713894" />
	</node>
	<node id="-449094" lat="60.164608332" lon="6.29415555827">
		<tag k="bridge" v="yes" />
		<tag k="layer" v="1" />
		<tag k="name" v="Flatebø" />
		<tag k="ssr:stedsnr" v="713845" />
	</node>
	<node id="-449093" lat="59.7652861096" lon="6.06443611772">
		<tag k="bridge" v="yes" />
		<tag k="layer" v="1" />
		<tag k="name" v="Fatland" />
		<tag k="ssr:stedsnr" v="713843" />
	</node>
	<node id="-449092" lat="59.9249250032" lon="5.87506667344">
		<tag k="bridge" v="yes" />
		<tag k="layer" v="1" />
		<tag k="name" v="Døsland" />
		<tag k="ssr:stedsnr" v="713842" />
	</node>
	<node id="-446787" lat="60.1224722223" lon="6.40501111745">
		<tag k="layer" v="-1" />
		<tag k="name" v="Folgefonntunnelen" />
		<tag k="ssr:stedsnr" v="36012" />
		<tag k="tunnel" v="yes" />
	</node>
	<node id="-446923" lat="59.9298472223" lon="5.86181944737">
		<tag k="bridge" v="yes" />
		<tag k="layer" v="1" />
		<tag k="name" v="Uskedal" />
		<tag k="ssr:stedsnr" v="46864" />
	</node>
	<node id="-445959" lat="60.1274750013" lon="6.31611666845">
		<tag k="bridge" v="yes" />
		<tag k="layer" v="1" />
		<tag k="name" v="Gjerde" />
		<tag k="ssr:stedsnr" v="289915" />
	</node>
	<node id="-448316" lat="59.810980552" lon="6.10495554923">
		<tag k="ford" v="yes" />
		<tag k="name" v="Seljevad" />
		<tag k="place" v="locality" />
		<tag k="ssr:stedsnr" v="524071" />
	</node>
	<node id="-446922" lat="59.9363972247" lon="6.00350556307">
		<tag k="bridge" v="yes" />
		<tag k="layer" v="1" />
		<tag k="name" v="Botnelv" />
		<tag k="ssr:stedsnr" v="46839" />
	</node>
	<node id="-445882" lat="60.1490722235" lon="6.2366999976">
		<tag k="highway" v="path" />
		<tag k="name" v="Øvstakvilet" />
		<tag k="ssr:stedsnr" v="281260" />
	</node>
	<node id="-446879" lat="60.0100027749" lon="5.86604166751">
		<tag k="highway" v="path" />
		<tag k="name" v="Grindastigen" />
		<tag k="ssr:stedsnr" v="38868" />
	</node>
	<node id="-448184" lat="60.0929638912" lon="6.29664999202">
		<tag k="highway" v="path" />
		<tag k="name" v="Gardshammarvegen" />
		<tag k="old_name" v="Keisarvegen" />
		<tag k="ssr:stedsnr" v="490119" />
	</node>
	<node id="-448985" lat="59.7802583326" lon="5.96416388467">
		<tag k="fixme" v="verify maritime location" />
		<tag k="mooring" v="yes" />
		<tag k="name" v="Øyvindsstø" />
		<tag k="place" v="locality" />
		<tag k="ssr:stedsnr" v="705646" />
	</node>
	<node id="-449590" lat="59.7850916642" lon="6.04358332979">
		<tag k="ford" v="yes" />
		<tag k="name" v="Steinbykset" />
		<tag k="place" v="locality" />
		<tag k="ssr:stedsnr" v="827613" />
	</node>
	<node id="-449097" lat="59.9648055529" lon="5.99628055457">
		<tag k="bridge" v="yes" />
		<tag k="layer" v="1" />
		<tag k="name" v="Seimsfoss" />
		<tag k="ssr:stedsnr" v="713883" />
	</node>
	<node id="-447795" lat="59.8123194464" lon="5.6578777826">
		<tag k="alt_name" v="Ranavika ferjekai;Ranavik" />
		<tag k="amenity" v="ferry_terminal" />
		<tag k="name" v="Ranavik ferjekai" />
		<tag k="ssr:stedsnr" v="247348" />
	</node>
	<node id="-447436" lat="60.1644916659" lon="6.28750000055">
		<tag k="bridge" v="yes" />
		<tag k="layer" v="1" />
		<tag k="name" v="Tveitelvo" />
		<tag k="ssr:stedsnr" v="167863" />
	</node>
	<node id="-446515" lat="60.0798472208" lon="6.07925832477">
		<tag k="layer" v="-1" />
		<tag k="name" v="Svoldal" />
		<tag k="ssr:stedsnr" v="408686" />
		<tag k="tunnel" v="yes" />
	</node>
	<node id="-448432" lat="60.0168431095" lon="5.99808874739">
		<tag k="alt_name" v="Løfallstrandi" />
		<tag k="amenity" v="ferry_terminal" />
		<tag k="name" v="Løfallstrand ferjekai" />
		<tag k="ssr:stedsnr" v="550757" />
	</node>
	<node id="-446639" lat="60.0706444431" lon="6.05129999585">
		<tag k="bridge" v="yes" />
		<tag k="layer" v="1" />
		<tag k="name" v="Vesle Svoldøla" />
		<tag k="ssr:stedsnr" v="896880" />
	</node>
	<node id="-449582" lat="59.7561277787" lon="6.04080277779">
		<tag k="fixme" v="verify maritime location" />
		<tag k="mooring" v="yes" />
		<tag k="name" v="Støa" />
		<tag k="place" v="locality" />
		<tag k="ssr:stedsnr" v="827565" />
	</node>
	<node id="-448585" lat="59.8358305517" lon="5.7099055636">
		<tag k="bridge" v="yes" />
		<tag k="layer" v="1" />
		<tag k="name" v="Sunde" />
		<tag k="ssr:stedsnr" v="592916" />
	</node>
	<node id="-446250" lat="59.9250305573" lon="5.79994444038">
		<tag k="bridge" v="yes" />
		<tag k="layer" v="1" />
		<tag k="name" v="Berge" />
		<tag k="ssr:stedsnr" v="350817" />
	</node>
	<node id="-446249" lat="60.0367138892" lon="6.01900000334">
		<tag k="bridge" v="yes" />
		<tag k="layer" v="1" />
		<tag k="name" v="Lindeelva" />
		<tag k="ssr:stedsnr" v="349905" />
	</node>
	<node id="-446244" lat="60.1019361096" lon="5.91608333438">
		<tag k="layer" v="-1" />
		<tag k="name" v="Bjørklund" />
		<tag k="ssr:stedsnr" v="347127" />
		<tag k="tunnel" v="yes" />
	</node>
	<node id="-446918" lat="60.0629555535" lon="5.91145000661">
		<tag k="layer" v="-1" />
		<tag k="name" v="Hauge" />
		<tag k="ssr:stedsnr" v="44453" />
		<tag k="tunnel" v="yes" />
	</node>
	<node id="-446640" lat="59.87837778" lon="6.03146389469">
		<tag k="bridge" v="yes" />
		<tag k="layer" v="1" />
		<tag k="name" v="Midthølen" />
		<tag k="ssr:stedsnr" v="896910" />
	</node>
	<node id="-449095" lat="59.8287222216" lon="5.79543610742">
		<tag k="bridge" v="yes" />
		<tag k="layer" v="1" />
		<tag k="name" v="Valen" />
		<tag k="ssr:stedsnr" v="713862" />
	</node>
	<node id="-445957" lat="60.0101416653" lon="5.73276388009">
		<tag k="bridge" v="yes" />
		<tag k="layer" v="1" />
		<tag k="name" v="Hamarhaug" />
		<tag k="ssr:stedsnr" v="289914" />
	</node>
	<node id="-447194" lat="59.9865111108" lon="6.01671943807">
		<tag k="bridge" v="yes" />
		<tag k="layer" v="1" />
		<tag k="name" v="Melselvo" />
		<tag k="ssr:stedsnr" v="107900" />
	</node>
	<node id="-447130" lat="60.1299472207" lon="6.23026944311">
		<tag k="highway" v="path" />
		<tag k="name" v="Sjoarsvegen" />
		<tag k="ssr:stedsnr" v="99359" />
	</node>
	<node id="-447437" lat="59.7660277792" lon="5.98398888806">
		<tag k="bridge" v="yes" />
		<tag k="layer" v="1" />
		<tag k="name" v="Baugstø" />
		<tag k="ssr:stedsnr" v="168824" />
	</node>
	<node id="-449099" lat="60.0734694458" lon="6.06665555945">
		<tag k="bridge" v="yes" />
		<tag k="layer" v="1" />
		<tag k="name" v="Svoldøla" />
		<tag k="ssr:stedsnr" v="713890" />
	</node>
	<node id="-450069" lat="59.7382002616" lon="5.70798142207">
		<tag k="amenity" v="ferry_terminal" />
		<tag k="name" v="Fjelberg ferjekai" />
		<tag k="ssr:stedsnr" v="978616" />
	</node>
	<node id="-450068" lat="59.7833082825" lon="5.90438428528">
		<tag k="amenity" v="ferry_terminal" />
		<tag k="name" v="Utåker ferjekai" />
		<tag k="ssr:stedsnr" v="978611" />
	</node>
	<node id="-450067" lat="60.0618284797" lon="5.92024079912">
		<tag k="amenity" v="ferry_terminal" />
		<tag k="name" v="Gjermundshamn ferjekai" />
		<tag k="ssr:stedsnr" v="978583" />
	</node>
	<node id="-450066" lat="60.0543331393" lon="6.01999634538">
		<tag k="amenity" v="ferry_terminal" />
		<tag k="name" v="Årsnes ferjekai" />
		<tag k="ssr:stedsnr" v="978582" />
	</node>
	<node id="-446925" lat="59.9408333316" lon="5.99928611663">
		<tag k="bridge" v="yes" />
		<tag k="layer" v="1" />
		<tag k="name" v="Tveitelv" />
		<tag k="ssr:stedsnr" v="46900" />
	</node>
	<node id="-449678" lat="59.7335277755" lon="5.73783055282">
		<tag k="amenity" v="ferry_terminal" />
		<tag k="name" v="Sydnes ferjekai" />
		<tag k="ssr:stedsnr" v="835898" />
	</node>
	<node id="-450061" lat="60.0759555542" lon="5.91426388405">
		<tag k="bridge" v="yes" />
		<tag k="layer" v="1" />
		<tag k="name" v="Vikselv" />
		<tag k="ssr:stedsnr" v="957854" />
	</node>
	<node id="-449676" lat="59.9208194446" lon="5.89719165899">
		<tag k="bridge" v="yes" />
		<tag k="layer" v="1" />
		<tag k="name" v="Haugland" />
		<tag k="ssr:stedsnr" v="835878" />
	</node>
	<node id="-450059" lat="59.8362277784" lon="5.72882777628">
		<tag k="bridge" v="yes" />
		<tag k="layer" v="1" />
		<tag k="name" v="Oppsanger" />
		<tag k="ssr:stedsnr" v="956890" />
	</node>
	<node id="-450058" lat="59.9470527817" lon="5.96172500453">
		<tag k="bridge" v="yes" />
		<tag k="layer" v="1" />
		<tag k="name" v="Okserelv" />
		<tag k="ssr:stedsnr" v="956889" />
	</node>
	<node id="-450057" lat="60.0110444422" lon="5.80686943593">
		<tag k="bridge" v="yes" />
		<tag k="layer" v="1" />
		<tag k="name" v="Husa" />
		<tag k="ssr:stedsnr" v="956886" />
	</node>
	<node id="-445960" lat="59.9587555533" lon="6.01988056144">
		<tag k="bridge" v="yes" />
		<tag k="layer" v="1" />
		<tag k="name" v="Naterstad" />
		<tag k="ssr:stedsnr" v="289918" />
	</node>
	<node id="-450055" lat="60.1034760222" lon="6.20649613116">
		<tag k="bridge" v="yes" />
		<tag k="layer" v="1" />
		<tag k="loc_name" v="Lielvbrua" />
		<tag k="name" v="Tveitneselva" />
		<tag k="ssr:stedsnr" v="956856" />
	</node>
	<node id="-445958" lat="59.8609888905" lon="5.77701388333">
		<tag k="bridge" v="yes" />
		<tag k="layer" v="1" />
		<tag k="name" v="Helland" />
		<tag k="ssr:stedsnr" v="289913" />
	</node>
	<node id="-447361" lat="60.1078805584" lon="6.13663332429">
		<tag k="landuse" v="harbour" />
		<tag k="name" v="Gapandehamn" />
		<tag k="seamark:type" v="harbour" />
		<tag k="ssr:stedsnr" v="159549" />
	</node>
	<node id="-445956" lat="59.7569472255" lon="5.74913333695">
		<tag k="bridge" v="yes" />
		<tag k="layer" v="1" />
		<tag k="name" v="Arnevik" />
		<tag k="ssr:stedsnr" v="289877" />
	</node>
	<node id="-450056" lat="59.9151083341" lon="5.7893055617">
		<tag k="bridge" v="yes" />
		<tag k="layer" v="1" />
		<tag k="name" v="Hellvik" />
		<tag k="ssr:stedsnr" v="956874" />
	</node>
	<node id="-447159" lat="60.0510750013" lon="5.85541944917">
		<tag k="ford" v="yes" />
		<tag k="name" v="Nettlandsvad" />
		<tag k="place" v="locality" />
		<tag k="ssr:stedsnr" v="99852" />
	</node>
	<node id="-448001" lat="59.7585638883" lon="5.80644443984">
		<tag k="highway" v="path" />
		<tag k="name" v="Bjørgastien" />
		<tag k="ssr:stedsnr" v="462850" />
	</node>
</osm>
