<?xml version="1.0" encoding="UTF-8"?>
<osm generator="osmapis" version="0.6">
	<node id="-449024" lat="59.7287222216" lon="5.74851944815">
		<tag k="name" v="Midtskogen" />
		<tag k="place" v="locality" />
		<tag k="ssr:stedsnr" v="705964" />
	</node>
	<node id="-446976" lat="60.0611666629" lon="6.31066666862">
		<tag k="name" v="Bondhusbrea" />
		<tag k="natural" v="glacier" />
		<tag k="ssr:stedsnr" v="65069" />
	</node>
	<node id="-450044" lat="60.0052083371" lon="5.74539444305">
		<tag k="name" v="Slettene" />
		<tag k="place" v="locality" />
		<tag k="ssr:stedsnr" v="949793" />
	</node>
	<node id="-445947" lat="60.1242027767" lon="6.30181666297">
		<tag k="name" v="Veasteinane" />
		<tag k="natural" v="stone" />
		<tag k="ssr:stedsnr" v="286398" />
	</node>
	<node id="-449013" lat="60.1711361154" lon="6.30485833465">
		<tag k="name" v="Glopura" />
		<tag k="natural" v="scree" />
		<tag k="ssr:stedsnr" v="705911" />
	</node>
	<node id="-446718" lat="60.1540138865" lon="6.25905834224">
		<tag k="alt_name" v="Flatebosvaene;Svodene" />
		<tag k="name" v="Flatebøsvodene" />
		<tag k="place" v="locality" />
		<tag k="ssr:stedsnr" v="4222" />
	</node>
	<node id="-445937" lat="59.9123000039" lon="5.77595276852">
		<tag k="name" v="Ulvemyra" />
		<tag k="natural" v="wetland" />
		<tag k="ssr:stedsnr" v="281965" />
	</node>
	<node id="-448496" lat="60.0720046508" lon="5.89300818593">
		<tag k="name" v="Bjørnebærmyr" />
		<tag k="natural" v="wetland" />
		<tag k="ssr:stedsnr" v="583759" />
	</node>
	<node id="-446447" lat="59.8072722183" lon="5.98059999379">
		<tag k="name" v="Fiskesteinen" />
		<tag k="natural" v="stone" />
		<tag k="ssr:stedsnr" v="402554" />
	</node>
	<node id="-448491" lat="59.799444448" lon="6.06513333632">
		<tag k="name" v="Tjelme" />
		<tag k="place" v="locality" />
		<tag k="ssr:stedsnr" v="583659" />
	</node>
	<node id="-446954" lat="59.8220249985" lon="5.96013056256">
		<tag k="name" v="Dalsurdene" />
		<tag k="natural" v="scree" />
		<tag k="ssr:stedsnr" v="64224" />
	</node>
	<node id="-448487" lat="60.0163972244" lon="6.01123056386">
		<tag k="name" v="Breimyr" />
		<tag k="natural" v="wetland" />
		<tag k="ssr:stedsnr" v="583630" />
	</node>
	<node id="-448486" lat="59.8983861153" lon="5.97161111401">
		<tag k="historic" v="shieling" />
		<tag k="name" v="Skorpestøl" />
		<tag k="place" v="locality" />
		<tag k="ssr:stedsnr" v="583599" />
	</node>
	<node id="-450021" lat="60.0829555524" lon="6.08889999229">
		<tag k="name" v="Veikjasteinen" />
		<tag k="natural" v="stone" />
		<tag k="ssr:stedsnr" v="949085" />
	</node>
	<node id="-448484" lat="59.979483332" lon="5.94360278279">
		<tag k="name" v="Hestavollen" />
		<tag k="place" v="locality" />
		<tag k="ssr:stedsnr" v="583592" />
	</node>
	<node id="-447459" lat="59.9668555531" lon="5.95313056431">
		<tag k="name" v="Svinaskogen" />
		<tag k="place" v="locality" />
		<tag k="ssr:stedsnr" v="185427" />
	</node>
	<node id="-445921" lat="60.0254333374" lon="5.74181665922">
		<tag k="name" v="Setramarka" />
		<tag k="place" v="locality" />
		<tag k="ssr:stedsnr" v="281852" />
	</node>
	<node id="-448991" lat="59.8596944411" lon="5.99665277666">
		<tag k="historic" v="shieling" />
		<tag k="name" v="Urestølen" />
		<tag k="place" v="locality" />
		<tag k="ssr:stedsnr" v="705686" />
	</node>
	<node id="-445914" lat="60.0275138852" lon="6.05413333038">
		<tag k="name" v="Bjørnamyra" />
		<tag k="natural" v="wetland" />
		<tag k="ssr:stedsnr" v="281762" />
	</node>
	<node id="-446422" lat="60.0529138919" lon="6.14181389039">
		<tag k="name" v="Nyskreda" />
		<tag k="natural" v="scree" />
		<tag k="ssr:stedsnr" v="402193" />
	</node>
	<node id="-446626" lat="59.7353527753" lon="5.72534443899">
		<tag k="name" v="Munkura" />
		<tag k="natural" v="scree" />
		<tag k="ssr:stedsnr" v="888966" />
	</node>
	<node id="-449989" lat="60.0328805521" lon="6.0905944369">
		<tag k="name" v="Kappelur" />
		<tag k="natural" v="scree" />
		<tag k="ssr:stedsnr" v="948802" />
	</node>
	<node id="-446402" lat="60.1671722261" lon="6.28912776877">
		<tag k="name" v="Hegrura" />
		<tag k="natural" v="scree" />
		<tag k="ssr:stedsnr" v="401872" />
	</node>
	<node id="-446401" lat="59.7909305553" lon="5.77214167299">
		<tag k="name" v="Hansasteinen" />
		<tag k="natural" v="stone" />
		<tag k="ssr:stedsnr" v="401860" />
	</node>
	<node id="-445886" lat="60.077902779" lon="6.29374722596">
		<tag k="name" v="Selura" />
		<tag k="natural" v="scree" />
		<tag k="ssr:stedsnr" v="281334" />
	</node>
	<node id="-449976" lat="59.8609944432" lon="5.9958333251">
		<tag k="historic" v="shieling" />
		<tag k="name" v="Gangestølen" />
		<tag k="place" v="locality" />
		<tag k="ssr:stedsnr" v="948692" />
	</node>
	<node id="-445877" lat="60.0988027737" lon="6.3013611056">
		<tag k="name" v="Selsteinskrea" />
		<tag k="natural" v="scree" />
		<tag k="ssr:stedsnr" v="281104" />
	</node>
	<node id="-447412" lat="59.9075249971" lon="5.91229445215">
		<tag k="name" v="Lauvskreda" />
		<tag k="natural" v="scree" />
		<tag k="ssr:stedsnr" v="159996" />
	</node>
	<node id="-446896" lat="59.9068194479" lon="5.77123333181">
		<tag k="name" v="Ilagemyr" />
		<tag k="natural" v="wetland" />
		<tag k="ssr:stedsnr" v="38962" />
	</node>
	<node id="-446389" lat="59.8061750019" lon="6.08222777138">
		<tag k="name" v="Snaremyr" />
		<tag k="natural" v="wetland" />
		<tag k="ssr:stedsnr" v="401649" />
	</node>
	<node id="-446893" lat="59.7749916682" lon="5.74780834171">
		<tag k="name" v="Ura" />
		<tag k="natural" v="scree" />
		<tag k="ssr:stedsnr" v="38952" />
	</node>
	<node id="-449963" lat="60.1104555592" lon="6.25452222498">
		<tag k="name" v="Nipasvoene" />
		<tag k="place" v="locality" />
		<tag k="ssr:stedsnr" v="948464" />
	</node>
	<node id="-446535" lat="59.9746638857" lon="6.00089999374">
		<tag k="name" v="Raudasteinen" />
		<tag k="natural" v="stone" />
		<tag k="ssr:stedsnr" v="887659" />
	</node>
	<node id="-449957" lat="60.0957555522" lon="6.27986388265">
		<tag k="name" v="Vasskredura" />
		<tag k="natural" v="scree" />
		<tag k="ssr:stedsnr" v="948429" />
	</node>
	<node id="-447396" lat="60.1332138881" lon="5.95343611356">
		<tag k="name" v="Stongaskogen" />
		<tag k="place" v="locality" />
		<tag k="ssr:stedsnr" v="159907" />
	</node>
	<node id="-446883" lat="60.1354111147" lon="5.95816945127">
		<tag k="name" v="Stongaskogen" />
		<tag k="place" v="locality" />
		<tag k="ssr:stedsnr" v="38906" />
	</node>
	<node id="-445935" lat="60.1223833326" lon="6.02820833847">
		<tag k="name" v="Kattuglemyr" />
		<tag k="natural" v="wetland" />
		<tag k="ssr:stedsnr" v="281960" />
	</node>
	<node id="-447382" lat="60.0232305531" lon="6.05860555357">
		<tag k="name" v="Stormyra" />
		<tag k="natural" v="wetland" />
		<tag k="ssr:stedsnr" v="159797" />
	</node>
	<node id="-449423" lat="59.8168805579" lon="6.11071944431">
		<tag k="name" v="Tausamyra" />
		<tag k="natural" v="wetland" />
		<tag k="ssr:stedsnr" v="792251" />
	</node>
	<node id="-445837" lat="59.9798222198" lon="6.03179722812">
		<tag k="name" v="Kufonn" />
		<tag k="place" v="locality" />
		<tag k="ssr:stedsnr" v="280658" />
	</node>
	<node id="-447370" lat="60.0351361077" lon="5.71363611862">
		<tag k="name" v="Lindura" />
		<tag k="natural" v="scree" />
		<tag k="ssr:stedsnr" v="159747" />
	</node>
	<node id="-447366" lat="59.9795527781" lon="6.0124305488">
		<tag k="historic" v="shieling" />
		<tag k="name" v="Kustølen" />
		<tag k="place" v="locality" />
		<tag k="ssr:stedsnr" v="159698" />
	</node>
	<node id="-446870" lat="60.1278638923" lon="6.05517500428">
		<tag k="name" v="Storåker" />
		<tag k="place" v="locality" />
		<tag k="ssr:stedsnr" v="38782" />
	</node>
	<node id="-446442" lat="60.0827472243" lon="6.11077778175">
		<tag k="name" v="Ospelundo" />
		<tag k="place" v="locality" />
		<tag k="ssr:stedsnr" v="402513" />
	</node>
	<node id="-446325" lat="59.7996444409" lon="5.67611110518">
		<tag k="name" v="Eidsmarka" />
		<tag k="place" v="locality" />
		<tag k="ssr:stedsnr" v="368368" />
	</node>
	<node id="-447345" lat="60.0772944471" lon="6.28598888048">
		<tag k="name" v="Hyttemyra" />
		<tag k="natural" v="wetland" />
		<tag k="ssr:stedsnr" v="159320" />
	</node>
	<node id="-448658" lat="60.0608555571" lon="6.33834999251">
		<tag k="name" v="Brufossbrea" />
		<tag k="natural" v="glacier" />
		<tag k="ssr:stedsnr" v="611076" />
	</node>
	<node id="-447335" lat="59.8999111074" lon="5.9381555595">
		<tag k="historic" v="shieling" />
		<tag k="name" v="Brustøl" />
		<tag k="place" v="locality" />
		<tag k="ssr:stedsnr" v="159673" />
	</node>
	<node id="-446523" lat="59.840461109" lon="5.98285000719">
		<tag k="name" v="Dreggura" />
		<tag k="natural" v="scree" />
		<tag k="ssr:stedsnr" v="887549" />
	</node>
	<node id="-448355" lat="59.9827361103" lon="6.01031110802">
		<tag k="name" v="Øyrane" />
		<tag k="place" v="locality" />
		<tag k="ssr:stedsnr" v="530418" />
	</node>
	<node id="-447329" lat="59.7873833351" lon="6.02616110589">
		<tag k="name" v="Mjåvassdiket" />
		<tag k="natural" v="wetland" />
		<tag k="ssr:stedsnr" v="159158" />
	</node>
	<node id="-448862" lat="59.948624996" lon="6.13300000756">
		<tag k="name" v="Hildalsøyra" />
		<tag k="place" v="locality" />
		<tag k="ssr:stedsnr" v="671024" />
	</node>
	<node id="-448485" lat="59.9362833379" lon="6.00385278442">
		<tag k="historic" v="shieling" />
		<tag k="name" v="Stølen" />
		<tag k="place" v="locality" />
		<tag k="ssr:stedsnr" v="583596" />
	</node>
	<node id="-449368" lat="60.0531861099" lon="5.91501666663">
		<tag k="name" v="Storemyr" />
		<tag k="natural" v="wetland" />
		<tag k="ssr:stedsnr" v="767884" />
	</node>
	<node id="-447827" lat="60.1066388853" lon="5.98894167457">
		<tag k="name" v="Bordmyr" />
		<tag k="natural" v="wetland" />
		<tag k="ssr:stedsnr" v="247923" />
	</node>
	<node id="-449359" lat="59.8472388869" lon="5.69872500124">
		<tag k="name" v="Gråura" />
		<tag k="natural" v="scree" />
		<tag k="ssr:stedsnr" v="767256" />
	</node>
	<node id="-449170" lat="59.9755249963" lon="6.00640000577">
		<tag k="name" v="Skeidshagen" />
		<tag k="place" v="locality" />
		<tag k="ssr:stedsnr" v="732522" />
	</node>
	<node id="-447817" lat="60.0063055593" lon="5.82768889381">
		<tag k="name" v="Tuftemarka" />
		<tag k="place" v="locality" />
		<tag k="ssr:stedsnr" v="247684" />
	</node>
	<node id="-446791" lat="60.0050666623" lon="6.00605833756">
		<tag k="name" v="Vegmyr" />
		<tag k="natural" v="wetland" />
		<tag k="ssr:stedsnr" v="37649" />
	</node>
	<node id="-448838" lat="60.0443166632" lon="5.85126110351">
		<tag k="name" v="Kvitebergsmyrane" />
		<tag k="natural" v="wetland" />
		<tag k="ssr:stedsnr" v="645853" />
	</node>
	<node id="-449348" lat="59.9109666693" lon="5.89914999237">
		<tag k="name" v="Utløemyr" />
		<tag k="natural" v="wetland" />
		<tag k="ssr:stedsnr" v="766991" />
	</node>
	<node id="-448826" lat="60.1472166669" lon="6.28254165772">
		<tag k="name" v="Sletteskreda" />
		<tag k="natural" v="scree" />
		<tag k="ssr:stedsnr" v="645269" />
	</node>
	<node id="-447967" lat="59.8076222204" lon="6.01160833445">
		<tag k="historic" v="shieling" />
		<tag k="name" v="Tveitestølen" />
		<tag k="place" v="locality" />
		<tag k="ssr:stedsnr" v="462525" />
	</node>
	<node id="-449588" lat="59.7689416666" lon="6.03463332979">
		<tag k="name" v="Hovemyra" />
		<tag k="natural" v="wetland" />
		<tag k="ssr:stedsnr" v="827600" />
	</node>
	<node id="-448309" lat="59.9282305567" lon="5.84983055583">
		<tag k="historic" v="shieling" />
		<tag k="name" v="Træstøl" />
		<tag k="place" v="locality" />
		<tag k="ssr:stedsnr" v="523981" />
	</node>
	<node id="-448809" lat="59.8167527821" lon="5.84569999394">
		<tag k="name" v="Feta" />
		<tag k="place" v="locality" />
		<tag k="ssr:stedsnr" v="644978" />
	</node>
	<node id="-448806" lat="59.9252888928" lon="5.79672499715">
		<tag k="name" v="Hagen" />
		<tag k="place" v="locality" />
		<tag k="ssr:stedsnr" v="644952" />
	</node>
	<node id="-447267" lat="59.803733329" lon="6.06251388383">
		<tag k="historic" v="shieling" />
		<tag k="name" v="Slåttestølen" />
		<tag k="place" v="locality" />
		<tag k="ssr:stedsnr" v="125293" />
	</node>
	<node id="-448289" lat="59.794105557" lon="5.81912778229">
		<tag k="name" v="Sjurasteinen" />
		<tag k="natural" v="stone" />
		<tag k="ssr:stedsnr" v="523879" />
	</node>
	<node id="-448285" lat="60.0704111114" lon="5.87366943901">
		<tag k="name" v="Steinsmyra" />
		<tag k="natural" v="wetland" />
		<tag k="ssr:stedsnr" v="523824" />
	</node>
	<node id="-446236" lat="59.9252305552" lon="5.88644166494">
		<tag k="landuse" v="meadow" />
		<tag k="name" v="Holmen" />
		<tag k="ssr:stedsnr" v="342232" />
	</node>
	<node id="-446232" lat="59.9808861094" lon="6.01453055401">
		<tag k="name" v="Askaskreda" />
		<tag k="natural" v="scree" />
		<tag k="ssr:stedsnr" v="342196" />
	</node>
	<node id="-446229" lat="60.1064750007" lon="5.96803611236">
		<tag k="name" v="Nepegravet" />
		<tag k="place" v="locality" />
		<tag k="ssr:stedsnr" v="341997" />
	</node>
	<node id="-446228" lat="59.9121444486" lon="5.92028055796">
		<tag k="historic" v="shieling" />
		<tag k="name" v="Grønestølen" />
		<tag k="place" v="locality" />
		<tag k="ssr:stedsnr" v="341996" />
	</node>
	<node id="-449296" lat="60.031952778" lon="6.16196388274">
		<tag k="name" v="Springura" />
		<tag k="natural" v="scree" />
		<tag k="ssr:stedsnr" v="766492" />
	</node>
	<node id="-448270" lat="60.0054194483" lon="6.02169444285">
		<tag k="name" v="Åsvoll" />
		<tag k="place" v="locality" />
		<tag k="ssr:stedsnr" v="523717" />
	</node>
	<node id="-446218" lat="59.7495583308" lon="5.68087778329">
		<tag k="name" v="Prestamarka" />
		<tag k="place" v="locality" />
		<tag k="ssr:stedsnr" v="341955" />
	</node>
	<node id="-449350" lat="59.9080194464" lon="5.93375278078">
		<tag k="historic" v="shieling" />
		<tag k="name" v="Vårstøl" />
		<tag k="place" v="locality" />
		<tag k="ssr:stedsnr" v="766995" />
	</node>
	<node id="-448774" lat="59.7953527816" lon="6.07638055423">
		<tag k="name" v="Brakatræet" />
		<tag k="place" v="locality" />
		<tag k="ssr:stedsnr" v="644700" />
	</node>
	<node id="-446211" lat="60.1593638902" lon="6.02520278626">
		<tag k="name" v="Plittateigen" />
		<tag k="place" v="locality" />
		<tag k="ssr:stedsnr" v="341930" />
	</node>
	<node id="-446210" lat="59.8541916667" lon="5.72351388615">
		<tag k="historic" v="shieling" />
		<tag k="name" v="Høgestølen" />
		<tag k="place" v="locality" />
		<tag k="ssr:stedsnr" v="341926" />
	</node>
	<node id="-448257" lat="60.084761115" lon="6.13046667392">
		<tag k="name" v="Fossamyr" />
		<tag k="natural" v="wetland" />
		<tag k="ssr:stedsnr" v="523562" />
	</node>
	<node id="-448767" lat="59.9266305551" lon="6.00901666739">
		<tag k="historic" v="shieling" />
		<tag k="name" v="Gamlestølen" />
		<tag k="place" v="locality" />
		<tag k="ssr:stedsnr" v="644651" />
	</node>
	<node id="-449278" lat="60.1026499986" lon="6.28743332654">
		<tag k="name" v="Gråura" />
		<tag k="natural" v="scree" />
		<tag k="ssr:stedsnr" v="766324" />
	</node>
	<node id="-446715" lat="59.8524694467" lon="6.11038611471">
		<tag k="name" v="Nesjamyrane" />
		<tag k="natural" v="wetland" />
		<tag k="ssr:stedsnr" v="4192" />
	</node>
	<node id="-449577" lat="60.0896944403" lon="6.16985833084">
		<tag k="name" v="Storemyr" />
		<tag k="natural" v="wetland" />
		<tag k="ssr:stedsnr" v="827428" />
	</node>
	<node id="-448756" lat="60.0363527819" lon="6.15680000398">
		<tag k="name" v="Kvitura" />
		<tag k="natural" v="scree" />
		<tag k="ssr:stedsnr" v="644526" />
	</node>
	<node id="-448753" lat="60.0782472188" lon="6.15289166923">
		<tag k="name" v="Rauneskogen" />
		<tag k="place" v="locality" />
		<tag k="ssr:stedsnr" v="644487" />
	</node>
	<node id="-446183" lat="60.0070499957" lon="6.02673054781">
		<tag k="name" v="Inngjerdet" />
		<tag k="place" v="locality" />
		<tag k="ssr:stedsnr" v="341706" />
	</node>
	<node id="-446180" lat="59.9032166678" lon="6.01176667266">
		<tag k="name" v="Korsbakkasteinen" />
		<tag k="natural" v="stone" />
		<tag k="ssr:stedsnr" v="341673" />
	</node>
	<node id="-446178" lat="59.7712944449" lon="5.97376111749">
		<tag k="name" v="Øyra" />
		<tag k="place" v="locality" />
		<tag k="ssr:stedsnr" v="341638" />
	</node>
	<node id="-448736" lat="60.0946111091" lon="6.28573888887">
		<tag k="name" v="Vassura" />
		<tag k="natural" v="scree" />
		<tag k="ssr:stedsnr" v="644151" />
	</node>
	<node id="-447706" lat="59.8651770728" lon="5.77625607154">
		<tag k="name" v="Ondarheimsøyri" />
		<tag k="place" v="locality" />
		<tag k="ssr:stedsnr" v="226599" />
	</node>
	<node id="-447702" lat="60.0563444447" lon="5.89593610645">
		<tag k="name" v="Storemyr" />
		<tag k="natural" v="wetland" />
		<tag k="ssr:stedsnr" v="221848" />
	</node>
	<node id="-446161" lat="60.0713694462" lon="6.12629444152">
		<tag k="historic" v="shieling" />
		<tag k="name" v="Småstølane" />
		<tag k="place" v="locality" />
		<tag k="ssr:stedsnr" v="341500" />
	</node>
	<node id="-446672" lat="59.954700003" lon="6.05529444239">
		<tag k="historic" v="shieling" />
		<tag k="name" v="Guddalsfita" />
		<tag k="place" v="locality" />
		<tag k="ssr:stedsnr" v="3010" />
	</node>
	<node id="-446157" lat="60.1038055528" lon="6.27063611409">
		<tag k="name" v="Storur" />
		<tag k="natural" v="scree" />
		<tag k="ssr:stedsnr" v="341434" />
	</node>
	<node id="-447179" lat="59.7535833323" lon="5.76759167362">
		<tag k="name" v="Øykjamarka" />
		<tag k="place" v="locality" />
		<tag k="ssr:stedsnr" v="99968" />
	</node>
	<node id="-447689" lat="59.9356472249" lon="5.9896694465">
		<tag k="name" v="Kvieryggen" />
		<tag k="place" v="locality" />
		<tag k="ssr:stedsnr" v="221181" />
	</node>
	<node id="-447174" lat="59.8075750013" lon="5.64001110774">
		<tag k="name" v="Revura" />
		<tag k="natural" v="scree" />
		<tag k="ssr:stedsnr" v="99955" />
	</node>
	<node id="-447679" lat="59.8218166687" lon="5.87583055503">
		<tag k="name" v="Øyrane" />
		<tag k="place" v="locality" />
		<tag k="ssr:stedsnr" v="220975" />
	</node>
	<node id="-448702" lat="60.076484333" lon="6.12309056314">
		<tag k="name" v="Storemyr" />
		<tag k="natural" v="wetland" />
		<tag k="ssr:stedsnr" v="611974" />
	</node>
	<node id="-449725" lat="60.0975805548" lon="6.37514444618">
		<tag k="name" v="Gråfjellsbrea" />
		<tag k="natural" v="glacier" />
		<tag k="ssr:stedsnr" v="854104" />
	</node>
	<node id="-449651" lat="60.1070694439" lon="5.94800832454">
		<tag k="name" v="Stegamarka" />
		<tag k="place" v="locality" />
		<tag k="ssr:stedsnr" v="827992" />
	</node>
	<node id="-447148" lat="60.0288333317" lon="5.77488611727">
		<tag k="name" v="Godoffmyrane" />
		<tag k="natural" v="wetland" />
		<tag k="ssr:stedsnr" v="99735" />
	</node>
	<node id="-447658" lat="60.1468666693" lon="5.98045278645">
		<tag k="name" v="Øyarhamnsmarka" />
		<tag k="place" v="locality" />
		<tag k="ssr:stedsnr" v="220888" />
	</node>
	<node id="-446632" lat="60.0904861139" lon="6.10963610938">
		<tag k="name" v="Øyri" />
		<tag k="place" v="locality" />
		<tag k="ssr:stedsnr" v="893456" />
	</node>
	<node id="-447650" lat="60.0802722266" lon="5.92139444442">
		<tag k="name" v="Femsteinane" />
		<tag k="natural" v="stone" />
		<tag k="ssr:stedsnr" v="220816" />
	</node>
	<node id="-447137" lat="60.110061107" lon="6.23327778517">
		<tag k="historic" v="shieling" />
		<tag k="name" v="Brakhaugstølen" />
		<tag k="place" v="locality" />
		<tag k="ssr:stedsnr" v="99421" />
	</node>
	<node id="-449183" lat="60.0821888852" lon="6.4054833377">
		<tag k="name" v="Store Kvelven" />
		<tag k="natural" v="glacier" />
		<tag k="ssr:stedsnr" v="733115" />
	</node>
	<node id="-447644" lat="59.975041668" lon="6.05476944989">
		<tag k="historic" v="shieling" />
		<tag k="name" v="Muraseteret" />
		<tag k="place" v="locality" />
		<tag k="ssr:stedsnr" v="220801" />
	</node>
	<node id="-446610" lat="60.146794442" lon="5.96859999328">
		<tag k="name" v="Klubbura" />
		<tag k="natural" v="scree" />
		<tag k="ssr:stedsnr" v="888875" />
	</node>
	<node id="-447632" lat="59.9940777818" lon="5.95089999106">
		<tag k="name" v="Sanden" />
		<tag k="natural" v="beach" />
		<tag k="ssr:stedsnr" v="220746" />
		<tag k="surface" v="sand" />
	</node>
	<node id="-447116" lat="59.9185222257" lon="5.84391944511">
		<tag k="name" v="Skrea" />
		<tag k="natural" v="scree" />
		<tag k="ssr:stedsnr" v="99235" />
	</node>
	<node id="-447624" lat="59.862475003" lon="6.00156944255">
		<tag k="name" v="Øykjahagen" />
		<tag k="place" v="locality" />
		<tag k="ssr:stedsnr" v="220675" />
	</node>
	<node id="-449669" lat="60.0156638911" lon="5.89788888126">
		<tag k="name" v="Låtesteinen" />
		<tag k="natural" v="stone" />
		<tag k="ssr:stedsnr" v="828814" />
	</node>
	<node id="-447618" lat="60.0697499972" lon="6.09342222798">
		<tag k="name" v="Helgesteinen" />
		<tag k="natural" v="stone" />
		<tag k="ssr:stedsnr" v="220535" />
	</node>
	<node id="-447617" lat="60.0774194449" lon="6.10320277517">
		<tag k="name" v="Taklimyr" />
		<tag k="natural" v="wetland" />
		<tag k="ssr:stedsnr" v="220528" />
	</node>
	<node id="-446592" lat="60.082358332" lon="6.17354444867">
		<tag k="name" v="Gråur" />
		<tag k="natural" v="scree" />
		<tag k="ssr:stedsnr" v="888353" />
	</node>
	<node id="-449663" lat="60.1350472181" lon="6.3327694518">
		<tag k="name" v="Bjøllura" />
		<tag k="natural" v="scree" />
		<tag k="ssr:stedsnr" v="828274" />
	</node>
	<node id="-448635" lat="59.8102944412" lon="5.71877777222">
		<tag k="name" v="Stormyra" />
		<tag k="natural" v="wetland" />
		<tag k="ssr:stedsnr" v="610393" />
	</node>
	<node id="-446464" lat="60.0679416696" lon="6.09760832877">
		<tag k="name" v="Longamyr" />
		<tag k="natural" v="wetland" />
		<tag k="ssr:stedsnr" v="402796" />
	</node>
	<node id="-446583" lat="60.1633972205" lon="6.25996666802">
		<tag k="name" v="Kjerringmyrane" />
		<tag k="natural" v="wetland" />
		<tag k="ssr:stedsnr" v="888291" />
	</node>
	<node id="-449654" lat="60.1070111146" lon="5.98181110646">
		<tag k="name" v="Vågsmarka" />
		<tag k="place" v="locality" />
		<tag k="ssr:stedsnr" v="827995" />
	</node>
	<node id="-446580" lat="60.0930805556" lon="6.29122777625">
		<tag k="historic" v="shieling" />
		<tag k="name" v="Stølane" />
		<tag k="place" v="locality" />
		<tag k="ssr:stedsnr" v="888275" />
	</node>
	<node id="-447603" lat="60.0830333328" lon="6.28220556383">
		<tag k="name" v="Ørnaholura" />
		<tag k="natural" v="scree" />
		<tag k="ssr:stedsnr" v="220354" />
	</node>
	<node id="-447602" lat="60.0736833304" lon="6.29965000243">
		<tag k="name" v="Fonnura" />
		<tag k="natural" v="scree" />
		<tag k="ssr:stedsnr" v="220348" />
	</node>
	<node id="-449647" lat="59.82223889" lon="5.92593055583">
		<tag k="name" v="Storemyr" />
		<tag k="natural" v="wetland" />
		<tag k="ssr:stedsnr" v="827979" />
	</node>
	<node id="-449133" lat="60.1586194421" lon="6.32350832589">
		<tag k="name" v="Bjørkholm" />
		<tag k="place" v="locality" />
		<tag k="ssr:stedsnr" v="732217" />
	</node>
	<node id="-446058" lat="60.1418805574" lon="6.2572527704">
		<tag k="name" v="Plasset" />
		<tag k="place" v="locality" />
		<tag k="ssr:stedsnr" v="308182" />
	</node>
	<node id="-447080" lat="59.8143500023" lon="6.08910833492">
		<tag k="name" v="Skog" />
		<tag k="place" v="locality" />
		<tag k="ssr:stedsnr" v="98722" />
	</node>
	<node id="-446053" lat="60.0801888849" lon="6.35622778211">
		<tag k="name" v="Breidablikkbrea" />
		<tag k="natural" v="glacier" />
		<tag k="ssr:stedsnr" v="308096" />
	</node>
	<node id="-447072" lat="59.9571666646" lon="5.99587500176">
		<tag k="name" v="Lundsmyra" />
		<tag k="natural" v="wetland" />
		<tag k="ssr:stedsnr" v="98636" />
	</node>
	<node id="-447068" lat="59.7878805595" lon="5.98938610454">
		<tag k="historic" v="shieling" />
		<tag k="name" v="Gamlestølen" />
		<tag k="place" v="locality" />
		<tag k="ssr:stedsnr" v="98533" />
	</node>
	<node id="-449625" lat="60.15555" lon="6.24395832839">
		<tag k="name" v="Jordene" />
		<tag k="place" v="locality" />
		<tag k="ssr:stedsnr" v="827871" />
	</node>
	<node id="-449622" lat="59.9918916678" lon="5.75960832914">
		<tag k="name" v="Oterura" />
		<tag k="natural" v="scree" />
		<tag k="ssr:stedsnr" v="827839" />
	</node>
	<node id="-448083" lat="59.7904555524" lon="5.88677222655">
		<tag k="name" v="Koparmyr" />
		<tag k="natural" v="wetland" />
		<tag k="ssr:stedsnr" v="463973" />
	</node>
	<node id="-447570" lat="59.86056389" lon="5.98630277503">
		<tag k="name" v="Træa" />
		<tag k="place" v="locality" />
		<tag k="ssr:stedsnr" v="219570" />
	</node>
	<node id="-446029" lat="60.0208749982" lon="6.30709165878">
		<tag k="name" v="Folgefonna" />
		<tag k="natural" v="glacier" />
		<tag k="ssr:stedsnr" v="307423" />
	</node>
	<node id="-447059" lat="59.8047944429" lon="6.06782500727">
		<tag k="name" v="Leitesmyrane" />
		<tag k="natural" v="wetland" />
		<tag k="ssr:stedsnr" v="98145" />
	</node>
	<node id="-446533" lat="59.9329694448" lon="5.98459722423">
		<tag k="name" v="Gråstein" />
		<tag k="natural" v="stone" />
		<tag k="ssr:stedsnr" v="887626" />
	</node>
	<node id="-447144" lat="60.0931166694" lon="6.16065276858">
		<tag k="name" v="Skotbergmyrane" />
		<tag k="natural" v="wetland" />
		<tag k="ssr:stedsnr" v="99499" />
	</node>
	<node id="-449599" lat="59.9846055554" lon="6.02235555827">
		<tag k="name" v="Omshagen" />
		<tag k="place" v="locality" />
		<tag k="ssr:stedsnr" v="827736" />
	</node>
	<node id="-448573" lat="59.8644305561" lon="5.74146110636">
		<tag k="name" v="Såtura" />
		<tag k="natural" v="scree" />
		<tag k="ssr:stedsnr" v="584951" />
	</node>
	<node id="-449595" lat="60.0174916666" lon="6.03993888699">
		<tag k="name" v="Langamyra" />
		<tag k="natural" v="wetland" />
		<tag k="ssr:stedsnr" v="827678" />
	</node>
	<node id="-446604" lat="60.0636888908" lon="5.86736389401">
		<tag k="name" v="Gråura" />
		<tag k="natural" v="scree" />
		<tag k="ssr:stedsnr" v="888805" />
	</node>
	<node id="-448566" lat="60.1482000013" lon="6.03953056435">
		<tag k="name" v="Strimleteigane" />
		<tag k="place" v="locality" />
		<tag k="ssr:stedsnr" v="584921" />
	</node>
	<node id="-448564" lat="60.1492805532" lon="5.96825834092">
		<tag k="name" v="Gloppura" />
		<tag k="natural" v="scree" />
		<tag k="ssr:stedsnr" v="584905" />
	</node>
	<node id="-448050" lat="60.0605055516" lon="6.14194444007">
		<tag k="name" v="Gråur" />
		<tag k="natural" v="scree" />
		<tag k="ssr:stedsnr" v="463712" />
	</node>
	<node id="-449584" lat="59.9456499963" lon="5.90939999759">
		<tag k="name" v="Skotur" />
		<tag k="natural" v="scree" />
		<tag k="ssr:stedsnr" v="827577" />
	</node>
	<node id="-448043" lat="60.0745694483" lon="6.07457499967">
		<tag k="name" v="Urahola" />
		<tag k="natural" v="scree" />
		<tag k="ssr:stedsnr" v="463451" />
	</node>
	<node id="-447678" lat="59.8221805566" lon="5.91012499838">
		<tag k="name" v="Storemyr" />
		<tag k="natural" v="wetland" />
		<tag k="ssr:stedsnr" v="220976" />
	</node>
	<node id="-449064" lat="60.093675001" lon="6.13719444553">
		<tag k="name" v="Otrasteinen" />
		<tag k="natural" v="stone" />
		<tag k="ssr:stedsnr" v="706458" />
	</node>
	<node id="-446503" lat="60.0530472183" lon="5.86358611133">
		<tag k="name" v="Storemyr" />
		<tag k="natural" v="wetland" />
		<tag k="ssr:stedsnr" v="403828" />
	</node>
	<node id="-447665" lat="59.8693861148" lon="5.77633889192">
		<tag k="name" v="Storemyr" />
		<tag k="natural" v="wetland" />
		<tag k="ssr:stedsnr" v="220926" />
	</node>
	<node id="-446214" lat="60.1166611157" lon="5.99389445118">
		<tag k="name" v="Tveitemarka" />
		<tag k="place" v="locality" />
		<tag k="ssr:stedsnr" v="341944" />
	</node>
	<node id="-447010" lat="59.8234027777" lon="5.82921111574">
		<tag k="name" v="Langmyra" />
		<tag k="natural" v="wetland" />
		<tag k="ssr:stedsnr" v="65347" />
	</node>
	<node id="-445983" lat="60.0399999969" lon="6.26416667199">
		<tag k="name" v="Pyttabrea" />
		<tag k="natural" v="glacier" />
		<tag k="ssr:stedsnr" v="307060" />
	</node>
	<node id="-449053" lat="60.0998111098" lon="6.29386388466">
		<tag k="name" v="Seljeskrea" />
		<tag k="natural" v="scree" />
		<tag k="ssr:stedsnr" v="706224" />
	</node>
	<node id="-446489" lat="60.0211027797" lon="5.81235555829">
		<tag k="name" v="Vollane" />
		<tag k="place" v="locality" />
		<tag k="ssr:stedsnr" v="402988" />
	</node>
	<node id="-449048" lat="60.0205416668" lon="6.06014445274">
		<tag k="name" v="Nyaskreda" />
		<tag k="natural" v="scree" />
		<tag k="ssr:stedsnr" v="706192" />
	</node>
	<node id="-448023" lat="59.9337833378" lon="6.0058444427">
		<tag k="name" v="Djupedalsskreda" />
		<tag k="natural" v="scree" />
		<tag k="ssr:stedsnr" v="463209" />
	</node>
	<node id="-448533" lat="60.0788888909" lon="6.29229167168">
		<tag k="name" v="Sælsteinen" />
		<tag k="natural" v="stone" />
		<tag k="ssr:stedsnr" v="584321" />
	</node>
	<node id="-446477" lat="60.1225055523" lon="5.97098889129">
		<tag k="name" v="Myraholet" />
		<tag k="natural" v="wetland" />
		<tag k="ssr:stedsnr" v="402938" />
	</node>
	<node id="-446476" lat="59.9660233134" lon="5.93565226086">
		<tag k="name" v="Leirsteinen" />
		<tag k="natural" v="stone" />
		<tag k="ssr:stedsnr" v="402935" />
	</node>
	<node id="-446472" lat="60.1354611084" lon="6.02060000176">
		<tag k="name" v="Mosasteinen" />
		<tag k="natural" v="stone" />
		<tag k="ssr:stedsnr" v="402906" />
	</node>
	<node id="-446471" lat="60.1439222199" lon="5.95593610269">
		<tag k="name" v="Endalausmyra" />
		<tag k="natural" v="wetland" />
		<tag k="ssr:stedsnr" v="402902" />
	</node>
</osm>
