<?xml version="1.0" encoding="UTF-8"?>
<osm version="0.6" generator="osmapis">
	<node id="281220335" lat="70.9456658" lon="27.3510542" version="8" timestamp="2022-07-10T07:23:33Z" changeset="123421913" uid="3497659" user="NKA">
		<tag k="loc_name:fkv" v="Kelavuono" />
		<tag k="name" v="Kjøllefjord" />
		<tag k="name:no" v="Kjøllefjord" />
		<tag k="name:se" v="Gilivuotna" />
		<tag k="place" v="village" />
		<tag k="population" v="879" />
		<tag k="population:date" v="2021-01-01" />
		<tag k="ref:ssb_tettsted" v="8631" />
		<tag k="source:population" v="SSB - befolkning i tettstedet" />
		<tag k="ssr:stedsnr" v="626228" />
		<tag k="start_date" v="before 1885" />
	</node>
	<node id="429775221" lat="71.1330909" lon="27.6534917" version="12" timestamp="2018-05-02T17:03:33Z" changeset="58620907" uid="3497659" user="NKA">
		<tag k="alt_name" v="Gidnegeahči" />
		<tag k="alt_name:cs" v="mys Kinnarodden" />
		<tag k="name" v="Kinnarodden" />
		<tag k="name:no" v="Kinnarodden" />
		<tag k="natural" v="cape" />
		<tag k="source" v="Kartverket" />
		<tag k="ssr:stedsnr" v="748492" />
		<tag k="wikidata" v="Q169998" />
		<tag k="wikipedia" v="nn:Kinnarodden" />
	</node>
	<node id="2353295140" lat="70.885603" lon="27.441936" version="2" timestamp="2018-05-02T17:03:48Z" changeset="58620907" uid="3497659" user="NKA">
		<tag k="name" v="Vika" />
		<tag k="name:no" v="Vika" />
		<tag k="natural" v="cape" />
		<tag k="source" v="Kartverket" />
		<tag k="ssr:stedsnr" v="81755" />
	</node>
	<node id="2353332183" lat="70.6633528" lon="27.1655447" version="3" timestamp="2022-07-10T07:23:33Z" changeset="123421913" uid="3497659" user="NKA">
		<tag k="name" v="Rundhaugen" />
		<tag k="name:no" v="Rundhaugen" />
		<tag k="place" v="farm" />
		<tag k="ssr:stedsnr" v="451400" />
	</node>
	<node id="2354187657" lat="71.023233" lon="27.363875" version="2" timestamp="2018-05-02T17:03:50Z" changeset="58620907" uid="3497659" user="NKA">
		<tag k="name" v="Landkomberget" />
		<tag k="name:no" v="Landkomberget" />
		<tag k="natural" v="peak" />
		<tag k="source" v="Kartverket" />
		<tag k="ssr:stedsnr" v="870481" />
	</node>
	<node id="2354196561" lat="71.0193517" lon="27.3701221" version="3" timestamp="2022-07-10T07:23:33Z" changeset="123421913" uid="3497659" user="NKA">
		<tag k="name" v="Skjøtningberg" />
		<tag k="name:no" v="Skjøtningberg" />
		<tag k="place" v="hamlet" />
		<tag k="ssr:stedsnr" v="687470" />
	</node>
	<node id="2354198253" lat="71.020656" lon="27.398389" version="2" timestamp="2018-05-02T17:03:50Z" changeset="58620907" uid="3497659" user="NKA">
		<tag k="name" v="Skjøtningbergneset" />
		<tag k="name:no" v="Skjøtningbergneset" />
		<tag k="natural" v="cape" />
		<tag k="source" v="Kartverket" />
		<tag k="ssr:stedsnr" v="566481" />
	</node>
	<node id="2354246988" lat="71.0249615" lon="27.5551603" version="3" timestamp="2018-05-02T17:03:50Z" changeset="58620907" uid="3497659" user="NKA">
		<tag k="alt_name" v="Bjørnsvika" />
		<tag k="name" v="Bjørnvika" />
		<tag k="name:no" v="Bjørnvika" />
		<tag k="natural" v="bay" />
		<tag k="source" v="Kartverket" />
		<tag k="ssr:stedsnr" v="748479" />
	</node>
	<node id="2354249651" lat="71.015836" lon="27.203664" version="2" timestamp="2018-05-02T17:03:51Z" changeset="58620907" uid="3497659" user="NKA">
		<tag k="name" v="Kjøllefjordneset" />
		<tag k="name:no" v="Kjøllefjordneset" />
		<tag k="natural" v="cape" />
		<tag k="source" v="Kartverket" />
		<tag k="ssr:stedsnr" v="626508" />
	</node>
	<node id="2354251504" lat="71.019061" lon="27.433561" version="2" timestamp="2018-05-02T17:03:51Z" changeset="58620907" uid="3497659" user="NKA">
		<tag k="name" v="Smørbringa" />
		<tag k="name:no" v="Smørbringa" />
		<tag k="natural" v="peak" />
		<tag k="source" v="Kartverket" />
		<tag k="ssr:stedsnr" v="748478" />
	</node>
	<node id="2354253004" lat="71.0131" lon="27.474036" version="2" timestamp="2018-05-02T17:03:51Z" changeset="58620907" uid="3497659" user="NKA">
		<tag k="name" v="Smørbringvika" />
		<tag k="name:no" v="Smørbringvika" />
		<tag k="natural" v="bay" />
		<tag k="source" v="Kartverket" />
		<tag k="ssr:stedsnr" v="809496" />
	</node>
	<node id="2354254754" lat="71.011119" lon="27.572125" version="2" timestamp="2018-05-02T17:03:51Z" changeset="58620907" uid="3497659" user="NKA">
		<tag k="name" v="Oksevika" />
		<tag k="name:no" v="Oksevika" />
		<tag k="natural" v="bay" />
		<tag k="source" v="Kartverket" />
		<tag k="ssr:stedsnr" v="566479" />
	</node>
	<node id="2354261076" lat="71.006281" lon="27.220928" version="2" timestamp="2018-05-02T17:03:51Z" changeset="58620907" uid="3497659" user="NKA">
		<tag k="alt_name" v="Altertavla" />
		<tag k="name" v="Čáhppesbákti" />
		<tag k="name:se" v="Čáhppesbákti" />
		<tag k="natural" v="cape" />
		<tag k="source" v="Kartverket" />
		<tag k="ssr:stedsnr" v="870503" />
	</node>
	<node id="2354261383" lat="71.006589" lon="27.234817" version="2" timestamp="2018-05-02T17:03:51Z" changeset="58620907" uid="3497659" user="NKA">
		<tag k="name" v="Kvitnakken" />
		<tag k="name:no" v="Kvitnakken" />
		<tag k="natural" v="peak" />
		<tag k="source" v="Kartverket" />
		<tag k="ssr:stedsnr" v="323506" />
	</node>
	<node id="2354262081" lat="71.006969" lon="27.253886" version="2" timestamp="2018-05-02T17:03:51Z" changeset="58620907" uid="3497659" user="NKA">
		<tag k="name" v="Svartnakken" />
		<tag k="name:no" v="Svartnakken" />
		<tag k="natural" v="peak" />
		<tag k="source" v="Kartverket" />
		<tag k="ssr:stedsnr" v="202505" />
	</node>
	<node id="2354284282" lat="71.010886" lon="27.409653" version="2" timestamp="2018-05-02T17:03:51Z" changeset="58620907" uid="3497659" user="NKA">
		<tag k="name" v="Vardefjellet" />
		<tag k="name:no" v="Vardefjellet" />
		<tag k="natural" v="peak" />
		<tag k="source" v="Kartverket" />
		<tag k="ssr:stedsnr" v="809519" />
	</node>
	<node id="2354284796" lat="71.003344" lon="27.485592" version="2" timestamp="2018-05-02T17:03:51Z" changeset="58620907" uid="3497659" user="NKA">
		<tag k="name" v="Avløysinga" />
		<tag k="name:no" v="Avløysinga" />
		<tag k="natural" v="peak" />
		<tag k="source" v="Kartverket" />
		<tag k="ssr:stedsnr" v="81525" />
	</node>
	<node id="2354288798" lat="71.0060781" lon="27.5117985" version="3" timestamp="2018-05-02T17:03:51Z" changeset="58620907" uid="3497659" user="NKA">
		<tag k="name" v="Otervika" />
		<tag k="name:no" v="Otervika" />
		<tag k="natural" v="bay" />
		<tag k="source" v="Kartverket" />
		<tag k="ssr:stedsnr" v="323512" />
	</node>
	<node id="2354289799" lat="71.007814" lon="27.573694" version="2" timestamp="2018-05-02T17:03:52Z" changeset="58620907" uid="3497659" user="NKA">
		<tag k="alt_name" v="Oksen" />
		<tag k="name" v="Vuoksá" />
		<tag k="name:se" v="Vuoksá" />
		<tag k="natural" v="peak" />
		<tag k="source" v="Kartverket" />
		<tag k="ssr:stedsnr" v="566505" />
	</node>
	<node id="2354292530" lat="71.004289" lon="27.408072" version="2" timestamp="2018-05-02T17:03:52Z" changeset="58620907" uid="3497659" user="NKA">
		<tag k="alt_name" v="Rubbeskardhøgda" />
		<tag k="name" v="Rubbeskarhøgda" />
		<tag k="name:no" v="Rubbeskarhøgda" />
		<tag k="natural" v="peak" />
		<tag k="source" v="Kartverket" />
		<tag k="ssr:stedsnr" v="323507" />
	</node>
	<node id="2354297752" lat="71.1097548" lon="27.6744732" version="3" timestamp="2018-05-02T17:03:52Z" changeset="58620907" uid="3497659" user="NKA">
		<tag k="name" v="Nordkinnfjellet" />
		<tag k="name:no" v="Nordkinnfjellet" />
		<tag k="natural" v="massif" />
		<tag k="source" v="Kartverket" />
		<tag k="ssr:stedsnr" v="688495" />
	</node>
	<node id="2354297760" lat="71.125531" lon="27.637981" version="6" timestamp="2021-03-01T16:00:44Z" changeset="100217429" uid="2077889" user="zsolt d">
		<tag k="alt_name" v="Kinnaren;Gidni" />
		<tag k="ele" v="237" />
		<tag k="name" v="Nordkinn" />
		<tag k="name:hu" v="Nordkinn-fok" />
		<tag k="name:no" v="Nordkinn" />
		<tag k="name:ru" v="Нордкин" />
		<tag k="natural" v="peak" />
		<tag k="old_name:da" v="Nordkyn" />
		<tag k="source" v="Kartverket" />
		<tag k="ssr:stedsnr" v="202499" />
		<tag k="start_date:name" v="before 1885" />
	</node>
	<node id="2354300005" lat="71.109839" lon="27.674467" version="3" timestamp="2021-03-01T16:00:44Z" changeset="100217429" uid="2077889" user="zsolt d">
		<tag k="ele" v="305.2" />
		<tag k="name" v="Reipnakktinden" />
		<tag k="name:no" v="Reipnakktinden" />
		<tag k="natural" v="peak" />
		<tag k="source" v="Kartverket" />
		<tag k="ssr:stedsnr" v="202497" />
	</node>
	<node id="2354300600" lat="71.090883" lon="27.681625" version="2" timestamp="2018-05-02T17:03:53Z" changeset="58620907" uid="3497659" user="NKA">
		<tag k="name" v="Magkeilfjordfjellet" />
		<tag k="name:no" v="Magkeilfjordfjellet" />
		<tag k="natural" v="peak" />
		<tag k="source" v="Kartverket" />
		<tag k="ssr:stedsnr" v="566459" />
	</node>
	<node id="2354492706" lat="71.126214" lon="27.633333" version="2" timestamp="2018-05-02T17:03:54Z" changeset="58620907" uid="3497659" user="NKA">
		<tag k="alt_name" v="Straumsneset" />
		<tag k="name" v="Straumsnes" />
		<tag k="name:no" v="Straumsnes" />
		<tag k="natural" v="cape" />
		<tag k="source" v="Kartverket" />
		<tag k="ssr:stedsnr" v="930511" />
	</node>
	<node id="2354584073" lat="71.027014" lon="27.216442" version="2" timestamp="2018-05-02T17:03:55Z" changeset="58620907" uid="3497659" user="NKA">
		<tag k="name" v="Raudnakken" />
		<tag k="name:no" v="Raudnakken" />
		<tag k="natural" v="cape" />
		<tag k="source" v="Kartverket" />
		<tag k="ssr:stedsnr" v="930494" />
	</node>
	<node id="2354584408" lat="71.022494" lon="27.215136" version="2" timestamp="2018-05-02T17:03:55Z" changeset="58620907" uid="3497659" user="NKA">
		<tag k="name" v="Kordelvika" />
		<tag k="name:no" v="Kordelvika" />
		<tag k="natural" v="bay" />
		<tag k="source" v="Kartverket" />
		<tag k="ssr:stedsnr" v="748474" />
	</node>
	<node id="2354584745" lat="71.024022" lon="27.338728" version="2" timestamp="2018-05-02T17:03:55Z" changeset="58620907" uid="3497659" user="NKA">
		<tag k="name" v="Utsikten" />
		<tag k="name:no" v="Utsikten" />
		<tag k="natural" v="peak" />
		<tag k="source" v="Kartverket" />
		<tag k="ssr:stedsnr" v="809493" />
	</node>
	<node id="2354585195" lat="71.010567" lon="27.214753" version="2" timestamp="2018-05-02T17:03:55Z" changeset="58620907" uid="3497659" user="NKA">
		<tag k="name" v="Skredan" />
		<tag k="name:no" v="Skredan" />
		<tag k="natural" v="hillside" />
		<tag k="source" v="Kartverket" />
		<tag k="ssr:stedsnr" v="809525" />
	</node>
	<node id="2354918778" lat="71.109592" lon="27.602925" version="3" timestamp="2018-05-02T17:04:04Z" changeset="58620907" uid="3497659" user="NKA">
		<tag k="alt_name" v="Kinnar-Sandfjorden" />
		<tag k="bay" v="fjord" />
		<tag k="name" v="Sáttovuotna" />
		<tag k="name:se" v="Sáttovuotna" />
		<tag k="natural" v="bay" />
		<tag k="source" v="Kartverket" />
		<tag k="ssr:stedsnr" v="748382" />
	</node>
	<node id="2354919433" lat="71.042078" lon="27.257419" version="2" timestamp="2018-05-02T17:04:04Z" changeset="58620907" uid="3497659" user="NKA">
		<tag k="name" v="Vesterneset" />
		<tag k="name:no" v="Vesterneset" />
		<tag k="natural" v="cape" />
		<tag k="source" v="Kartverket" />
		<tag k="ssr:stedsnr" v="20396" />
	</node>
	<node id="3453846969" lat="70.5727897" lon="27.0024437" version="5" timestamp="2022-07-10T07:23:33Z" changeset="123421913" uid="3497659" user="NKA">
		<tag k="name" v="Lebesby - Davvesiida" />
		<tag k="name:no" v="Lebesby" />
		<tag k="name:se" v="Davvesiida" />
		<tag k="place" v="village" />
		<tag k="ssr:stedsnr" v="383654" />
		<tag k="start_date" v="before 1885" />
	</node>
	<node id="4216400792" lat="70.4625462" lon="27.1062054" version="5" timestamp="2022-07-10T07:23:33Z" changeset="123421913" uid="3497659" user="NKA">
		<tag k="is_in" v="Lebesby Kommune, Finnmark, Norway" />
		<tag k="name" v="Ifjord - Idjavuotna" />
		<tag k="name:no" v="Ifjord" />
		<tag k="name:ru" v="Ифьёрд" />
		<tag k="name:se" v="Idjavuotna" />
		<tag k="old_name:se" v="Iddjavuodna" />
		<tag k="place" v="hamlet" />
		<tag k="population" v="10" />
		<tag k="postal_code" v="9740" />
		<tag k="ssr:stedsnr" v="566220" />
		<tag k="website" v="http://www.lebesby.kommune.no/ifjord.85924.no.html" />
	</node>
	<node id="5418851134" lat="70.9352471" lon="27.4262724" version="3" timestamp="2022-01-26T06:08:00Z" changeset="116609992" uid="3497659" user="NKA">
		<tag k="junction" v="yes" />
		<tag k="name" v="Kifjordkrysset" />
		<tag k="ssr:stedsnr" v="636987" />
	</node>
	<node id="5421154290" lat="70.6115033" lon="27.0469595" version="2" timestamp="2022-01-26T06:08:00Z" changeset="116609992" uid="3497659" user="NKA">
		<tag k="junction" v="yes" />
		<tag k="name" v="Kalakkrysset" />
		<tag k="ssr:stedsnr" v="879172" />
	</node>
	<node id="5466280686" lat="70.4892316" lon="27.0674864" version="2" timestamp="2022-01-26T06:08:00Z" changeset="116609992" uid="3497659" user="NKA">
		<tag k="junction" v="yes" />
		<tag k="name" v="Trollbuktkrysset" />
		<tag k="ssr:stedsnr" v="151549" />
	</node>
	<node id="5685668037" lat="70.3441142" lon="26.5111369" version="3" timestamp="2022-07-10T07:23:33Z" changeset="123421913" uid="3497659" user="NKA">
		<tag k="name" v="Kunes - Gussanjárga" />
		<tag k="name:no" v="Kunes" />
		<tag k="name:ru" v="Кунес" />
		<tag k="name:se" v="Gussanjárga" />
		<tag k="old_name:se" v="Gussanjarga" />
		<tag k="place" v="hamlet" />
		<tag k="ssr:stedsnr" v="687128" />
	</node>
	<node id="5764256980" lat="70.4210195" lon="26.6832326" version="2" timestamp="2022-07-10T07:23:33Z" changeset="123421913" uid="3497659" user="NKA">
		<tag k="alt_name" v="Landersfjordnes" />
		<tag k="name" v="Landersfjordneset" />
		<tag k="name:ru" v="Ланнерсфьорднесет" />
		<tag k="natural" v="cape" />
		<tag k="ssr:stedsnr" v="929170" />
	</node>
	<node id="6203030856" lat="70.8983509" lon="27.2252619" version="2" timestamp="2022-07-10T07:23:33Z" changeset="123421913" uid="3497659" user="NKA">
		<tag k="name" v="Dyfjord - Dáigevuonna" />
		<tag k="name:no" v="Dyfjord" />
		<tag k="name:se" v="Dáigevuonna" />
		<tag k="place" v="hamlet" />
		<tag k="ssr:stedsnr" v="383772" />
	</node>
	<node id="6203030860" lat="70.6574907" lon="26.5882346" version="2" timestamp="2022-07-10T07:23:33Z" changeset="123421913" uid="3497659" user="NKA">
		<tag k="alt_name" v="Veidnesklubben" />
		<tag k="name" v="Veidnes - Sáltesávju" />
		<tag k="name:no" v="Veidnes" />
		<tag k="name:se" v="Sáltesávju" />
		<tag k="old_name:no" v="Veidneset" />
		<tag k="place" v="hamlet" />
		<tag k="ssr:stedsnr" v="87572" />
	</node>
	<node id="6423856422" lat="70.4320038" lon="26.5863931" version="3" timestamp="2022-07-10T07:23:33Z" changeset="123421913" uid="3497659" user="NKA">
		<tag k="name" v="Laksefjordbotn" />
		<tag k="place" v="hamlet" />
		<tag k="ssr:stedsnr" v="322315" />
	</node>
	<node id="6900657423" lat="70.96171" lon="26.6834471" version="3" timestamp="2022-07-10T07:23:33Z" changeset="123421913" uid="3497659" user="NKA">
		<tag k="name" v="Sværholt" />
		<tag k="place" v="isolated_dwelling" />
		<tag k="ssr:stedsnr" v="141144" />
		<tag k="wikidata" v="Q12004460" />
		<tag k="wikipedia" v="no:Sværholt" />
	</node>
	<node id="7052423054" lat="70.8355731" lon="26.6617082" version="2" timestamp="2022-07-10T07:23:33Z" changeset="123421913" uid="3497659" user="NKA">
		<tag k="name" v="Tømmervik" />
		<tag k="place" v="hamlet" />
		<tag k="ssr:stedsnr" v="263274" />
	</node>
	<node id="9611735110" lat="70.8967965" lon="27.3019652" version="2" timestamp="2022-07-10T07:23:33Z" changeset="123421913" uid="3497659" user="NKA">
		<tag k="name" v="Galne Olavik" />
		<tag k="place" v="locality" />
		<tag k="ssr:stedsnr" v="25043" />
	</node>
	<node id="9878432550" lat="70.6526445" lon="26.6033493" version="1" timestamp="2022-07-10T07:23:33Z" changeset="123421913" uid="3497659" user="NKA">
		<tag k="name" v="Soltun" />
		<tag k="place" v="locality" />
		<tag k="ssr:stedsnr" v="879957" />
	</node>
	<node id="9878432551" lat="70.6598583" lon="26.5849717" version="1" timestamp="2022-07-10T07:23:33Z" changeset="123421913" uid="3497659" user="NKA">
		<tag k="name" v="Seljevoll" />
		<tag k="place" v="locality" />
		<tag k="ssr:stedsnr" v="879955" />
	</node>
	<node id="9878432552" lat="70.4606102" lon="27.069101" version="1" timestamp="2022-07-10T07:23:33Z" changeset="123421913" uid="3497659" user="NKA">
		<tag k="name" v="Grasdal" />
		<tag k="place" v="farm" />
		<tag k="ssr:stedsnr" v="25016" />
	</node>
	<node id="9878432553" lat="70.8876141" lon="27.3880106" version="1" timestamp="2022-07-10T07:23:33Z" changeset="123421913" uid="3497659" user="NKA">
		<tag k="name" v="Portvik" />
		<tag k="place" v="farm" />
		<tag k="ssr:stedsnr" v="875183" />
	</node>
	<node id="9878432554" lat="70.3622778" lon="26.4753275" version="1" timestamp="2022-07-10T07:23:33Z" changeset="123421913" uid="3497659" user="NKA">
		<tag k="name" v="Båtvik" />
		<tag k="place" v="farm" />
		<tag k="ssr:stedsnr" v="571695" />
	</node>
	<node id="9878432555" lat="71.0334555" lon="27.305247" version="1" timestamp="2022-07-10T07:23:33Z" changeset="123421913" uid="3497659" user="NKA">
		<tag k="name" v="Kjelsvik" />
		<tag k="place" v="locality" />
		<tag k="ssr:stedsnr" v="87859" />
	</node>
	<node id="9878432556" lat="70.3690237" lon="26.475511" version="1" timestamp="2022-07-10T07:23:33Z" changeset="123421913" uid="3497659" user="NKA">
		<tag k="name" v="Bakkeheimen" />
		<tag k="place" v="isolated_dwelling" />
		<tag k="ssr:stedsnr" v="335726" />
	</node>
	<node id="9878432557" lat="70.3504611" lon="26.5247413" version="1" timestamp="2022-07-10T07:23:33Z" changeset="123421913" uid="3497659" user="NKA">
		<tag k="name" v="Elvebakken" />
		<tag k="place" v="farm" />
		<tag k="ssr:stedsnr" v="92732" />
	</node>
	<node id="9878432558" lat="70.3430889" lon="26.5316773" version="1" timestamp="2022-07-10T07:23:33Z" changeset="123421913" uid="3497659" user="NKA">
		<tag k="name" v="Etnedal" />
		<tag k="place" v="farm" />
		<tag k="ssr:stedsnr" v="699710" />
	</node>
	<node id="9878432559" lat="70.8708534" lon="27.5046291" version="1" timestamp="2022-07-10T07:23:33Z" changeset="123421913" uid="3497659" user="NKA">
		<tag k="name" v="Nordmannset" />
		<tag k="place" v="hamlet" />
		<tag k="ssr:stedsnr" v="809785" />
	</node>
	<node id="9878432560" lat="70.9117666" lon="27.390091" version="1" timestamp="2022-07-10T07:23:33Z" changeset="123421913" uid="3497659" user="NKA">
		<tag k="name" v="Kistrand" />
		<tag k="place" v="locality" />
		<tag k="ssr:stedsnr" v="880894" />
	</node>
	<node id="9878432561" lat="70.9093975" lon="27.420758" version="1" timestamp="2022-07-10T07:23:33Z" changeset="123421913" uid="3497659" user="NKA">
		<tag k="name" v="FINNGAMVIKA" />
		<tag k="place" v="farm" />
		<tag k="ssr:stedsnr" v="1079872" />
	</node>
	<node id="9878432562" lat="70.4573779" lon="27.1059513" version="1" timestamp="2022-07-10T07:23:33Z" changeset="123421913" uid="3497659" user="NKA">
		<tag k="name" v="Skogfred" />
		<tag k="place" v="farm" />
		<tag k="ssr:stedsnr" v="208031" />
	</node>
	<node id="9878432563" lat="70.8541333" lon="27.5151931" version="1" timestamp="2022-07-10T07:23:33Z" changeset="123421913" uid="3497659" user="NKA">
		<tag k="name" v="Ørntindvik" />
		<tag k="place" v="locality" />
		<tag k="ssr:stedsnr" v="389165" />
	</node>
	<node id="9878432564" lat="70.6806834" lon="27.1590727" version="1" timestamp="2022-07-10T07:23:33Z" changeset="123421913" uid="3497659" user="NKA">
		<tag k="name" v="Straumen" />
		<tag k="place" v="isolated_dwelling" />
		<tag k="ssr:stedsnr" v="81693" />
	</node>
	<node id="9878432565" lat="70.6127603" lon="27.0507" version="1" timestamp="2022-07-10T07:23:33Z" changeset="123421913" uid="3497659" user="NKA">
		<tag k="name" v="Kalak" />
		<tag k="place" v="hamlet" />
		<tag k="ssr:stedsnr" v="809726" />
	</node>
	<node id="9878432566" lat="70.4586084" lon="27.1022811" version="1" timestamp="2022-07-10T07:23:33Z" changeset="123421913" uid="3497659" user="NKA">
		<tag k="name" v="Øvermo" />
		<tag k="place" v="farm" />
		<tag k="ssr:stedsnr" v="605616" />
	</node>
	<node id="9878432567" lat="70.8956672" lon="27.2749246" version="1" timestamp="2022-07-10T07:23:33Z" changeset="123421913" uid="3497659" user="NKA">
		<tag k="name" v="Brenngammen" />
		<tag k="old_name" v="M04/002 Brændgammen 1" />
		<tag k="place" v="farm" />
		<tag k="ssr:stedsnr" v="1082679" />
	</node>
	<node id="9878432568" lat="70.6104665" lon="27.0553561" version="1" timestamp="2022-07-10T07:23:33Z" changeset="123421913" uid="3497659" user="NKA">
		<tag k="name" v="Østre Kalak" />
		<tag k="place" v="farm" />
		<tag k="ssr:stedsnr" v="875428" />
	</node>
	<node id="9878432569" lat="70.583575" lon="27.2415943" version="1" timestamp="2022-07-10T07:23:33Z" changeset="123421913" uid="3497659" user="NKA">
		<tag k="name" v="Elvebakken" />
		<tag k="place" v="farm" />
		<tag k="ssr:stedsnr" v="262756" />
	</node>
	<node id="9878432570" lat="70.4555043" lon="26.9497804" version="1" timestamp="2022-07-10T07:23:33Z" changeset="123421913" uid="3497659" user="NKA">
		<tag k="name" v="Solbakken" />
		<tag k="place" v="farm" />
		<tag k="ssr:stedsnr" v="207085" />
	</node>
	<node id="9878432571" lat="70.66545" lon="27.2088667" version="1" timestamp="2022-07-10T07:23:33Z" changeset="123421913" uid="3497659" user="NKA">
		<tag k="alt_name" v="Store Torskefjord" />
		<tag k="name" v="Haug" />
		<tag k="place" v="farm" />
		<tag k="ssr:stedsnr" v="930693" />
	</node>
	<node id="9878432572" lat="70.6143444" lon="27.0453541" version="1" timestamp="2022-07-10T07:23:33Z" changeset="123421913" uid="3497659" user="NKA">
		<tag k="name" v="Vestre Kalak" />
		<tag k="place" v="farm" />
		<tag k="ssr:stedsnr" v="875433" />
	</node>
	<node id="9878432573" lat="70.5570601" lon="27.0170789" version="1" timestamp="2022-07-10T07:23:33Z" changeset="123421913" uid="3497659" user="NKA">
		<tag k="name" v="Bukta" />
		<tag k="place" v="hamlet" />
		<tag k="ssr:stedsnr" v="383652" />
	</node>
	<node id="9878432574" lat="70.6127667" lon="27.0673674" version="1" timestamp="2022-07-10T07:23:33Z" changeset="123421913" uid="3497659" user="NKA">
		<tag k="name" v="Sørstrand" />
		<tag k="place" v="locality" />
		<tag k="ssr:stedsnr" v="636194" />
	</node>
	<node id="9878432575" lat="70.5888477" lon="27.2836327" version="1" timestamp="2022-07-10T07:23:33Z" changeset="123421913" uid="3497659" user="NKA">
		<tag k="name" v="Bekkarfjordbotn" />
		<tag k="place" v="farm" />
		<tag k="ssr:stedsnr" v="269452" />
	</node>
	<node id="9878432576" lat="70.9142129" lon="27.3928623" version="1" timestamp="2022-07-10T07:23:33Z" changeset="123421913" uid="3497659" user="NKA">
		<tag k="name" v="Kifjord" />
		<tag k="place" v="hamlet" />
		<tag k="ssr:stedsnr" v="141190" />
	</node>
	<node id="9878432577" lat="70.5883722" lon="27.2838498" version="1" timestamp="2022-07-10T07:23:33Z" changeset="123421913" uid="3497659" user="NKA">
		<tag k="name" v="Kråbøl" />
		<tag k="place" v="farm" />
		<tag k="ssr:stedsnr" v="930759" />
	</node>
	<node id="9878432578" lat="70.4264306" lon="26.6425214" version="1" timestamp="2022-07-10T07:23:33Z" changeset="123421913" uid="3497659" user="NKA">
		<tag k="name" v="Elvevik" />
		<tag k="place" v="isolated_dwelling" />
		<tag k="ssr:stedsnr" v="692165" />
	</node>
	<node id="9878432579" lat="70.4382032" lon="26.5128162" version="1" timestamp="2022-07-10T07:23:33Z" changeset="123421913" uid="3497659" user="NKA">
		<tag k="name" v="Reinagnvika - Boazoluokta" />
		<tag k="name:no" v="Reinagnvika" />
		<tag k="name:se" v="Boazoluokta" />
		<tag k="old_name:se" v="Boazuluokta" />
		<tag k="place" v="isolated_dwelling" />
		<tag k="ssr:stedsnr" v="747323" />
	</node>
	<node id="9878432580" lat="70.5519417" lon="26.9964427" version="1" timestamp="2022-07-10T07:23:33Z" changeset="123421913" uid="3497659" user="NKA">
		<tag k="name" v="Stallnes" />
		<tag k="place" v="isolated_dwelling" />
		<tag k="ssr:stedsnr" v="510891" />
	</node>
	<node id="9878432581" lat="70.5129167" lon="26.5443745" version="1" timestamp="2022-07-10T07:23:33Z" changeset="123421913" uid="3497659" user="NKA">
		<tag k="name" v="Stordalen" />
		<tag k="place" v="farm" />
		<tag k="ssr:stedsnr" v="626676" />
	</node>
	<node id="9878432582" lat="70.6532056" lon="26.6136438" version="1" timestamp="2022-07-10T07:23:33Z" changeset="123421913" uid="3497659" user="NKA">
		<tag k="name" v="Lyngheim" />
		<tag k="place" v="locality" />
		<tag k="ssr:stedsnr" v="333939" />
	</node>
	<node id="9878432583" lat="70.4791805" lon="26.9284818" version="1" timestamp="2022-07-10T07:23:33Z" changeset="123421913" uid="3497659" user="NKA">
		<tag k="name" v="Storjord" />
		<tag k="place" v="locality" />
		<tag k="ssr:stedsnr" v="272996" />
	</node>
	<node id="9878432584" lat="70.8975368" lon="27.3056005" version="1" timestamp="2022-07-10T07:23:33Z" changeset="123421913" uid="3497659" user="NKA">
		<tag k="name" v="Brenngammen" />
		<tag k="old_name" v="F3189 H Brændgam 9" />
		<tag k="place" v="farm" />
		<tag k="ssr:stedsnr" v="1082696" />
	</node>
	<node id="9878432585" lat="70.7478334" lon="27.1138532" version="1" timestamp="2022-07-10T07:23:33Z" changeset="123421913" uid="3497659" user="NKA">
		<tag k="name" v="Vardnes" />
		<tag k="place" v="locality" />
		<tag k="ssr:stedsnr" v="572407" />
	</node>
	<node id="9878432586" lat="70.5489115" lon="26.9735676" version="1" timestamp="2022-07-10T07:23:33Z" changeset="123421913" uid="3497659" user="NKA">
		<tag k="name" v="Skjånes" />
		<tag k="place" v="farm" />
		<tag k="ssr:stedsnr" v="262637" />
	</node>
	<node id="9878432587" lat="70.9180174" lon="27.417482" version="1" timestamp="2022-07-10T07:23:33Z" changeset="123421913" uid="3497659" user="NKA">
		<tag k="name" v="Mursteinvik" />
		<tag k="place" v="farm" />
		<tag k="ssr:stedsnr" v="814215" />
	</node>
	<node id="9878432588" lat="70.5819471" lon="26.9914831" version="1" timestamp="2022-07-10T07:23:33Z" changeset="123421913" uid="3497659" user="NKA">
		<tag k="name" v="Karlmyr" />
		<tag k="place" v="farm" />
		<tag k="ssr:stedsnr" v="151589" />
	</node>
	<node id="9878432589" lat="70.5050167" lon="27.0329064" version="1" timestamp="2022-07-10T07:23:33Z" changeset="123421913" uid="3497659" user="NKA">
		<tag k="name" v="Skogvika" />
		<tag k="place" v="hamlet" />
		<tag k="ssr:stedsnr" v="869337" />
	</node>
	<node id="9878432590" lat="70.3447486" lon="26.515594" version="1" timestamp="2022-07-10T07:23:33Z" changeset="123421913" uid="3497659" user="NKA">
		<tag k="name" v="Moen" />
		<tag k="place" v="farm" />
		<tag k="ssr:stedsnr" v="395755" />
	</node>
	<node id="9878432591" lat="70.6966139" lon="27.1160448" version="1" timestamp="2022-07-10T07:23:33Z" changeset="123421913" uid="3497659" user="NKA">
		<tag k="name" v="Jordelva" />
		<tag k="place" v="isolated_dwelling" />
		<tag k="ssr:stedsnr" v="870682" />
	</node>
	<node id="9878432592" lat="70.8996069" lon="27.2248136" version="1" timestamp="2022-07-10T07:23:33Z" changeset="123421913" uid="3497659" user="NKA">
		<tag k="name" v="Dyfjordneset" />
		<tag k="old_name" v="M04/013 Dyfjordnæs" />
		<tag k="place" v="farm" />
		<tag k="ssr:stedsnr" v="1077057" />
	</node>
	<node id="9878432593" lat="70.9027035" lon="27.2396514" version="1" timestamp="2022-07-10T07:23:33Z" changeset="123421913" uid="3497659" user="NKA">
		<tag k="name" v="Østre Dyfjordbotn" />
		<tag k="old_name" v="M04/018 Dyfjordbunden ø;Dyfjordbotn" />
		<tag k="place" v="farm" />
		<tag k="ssr:stedsnr" v="1077046" />
	</node>
	<node id="9878432594" lat="70.9047526" lon="27.2356993" version="1" timestamp="2022-07-10T07:23:33Z" changeset="123421913" uid="3497659" user="NKA">
		<tag k="name" v="Vestre Dyfjordbotn" />
		<tag k="old_name" v="Dyfjordbunden v" />
		<tag k="place" v="farm" />
		<tag k="ssr:stedsnr" v="1077045" />
	</node>
	<node id="9878432595" lat="70.7920444" lon="27.2082251" version="1" timestamp="2022-07-10T07:23:33Z" changeset="123421913" uid="3497659" user="NKA">
		<tag k="name" v="Mårøy" />
		<tag k="place" v="farm" />
		<tag k="ssr:stedsnr" v="511346" />
	</node>
	<node id="9878432596" lat="70.6344341" lon="27.1104294" version="1" timestamp="2022-07-10T07:23:33Z" changeset="123421913" uid="3497659" user="NKA">
		<tag k="name" v="Tordenvik" />
		<tag k="place" v="locality" />
		<tag k="ssr:stedsnr" v="627710" />
	</node>
	<node id="9878432597" lat="70.6654974" lon="26.5450149" version="1" timestamp="2022-07-10T07:23:33Z" changeset="123421913" uid="3497659" user="NKA">
		<tag k="name" v="Steinbukt" />
		<tag k="place" v="farm" />
		<tag k="ssr:stedsnr" v="752783" />
	</node>
	<node id="9878432598" lat="70.6638083" lon="26.5448135" version="1" timestamp="2022-07-10T07:23:33Z" changeset="123421913" uid="3497659" user="NKA">
		<tag k="name" v="Myrland" />
		<tag k="place" v="farm" />
		<tag k="ssr:stedsnr" v="29915" />
	</node>
	<node id="9878432599" lat="70.5948333" lon="27.2781944" version="1" timestamp="2022-07-10T07:23:33Z" changeset="123421913" uid="3497659" user="NKA">
		<tag k="name" v="Solvang" />
		<tag k="place" v="farm" />
		<tag k="ssr:stedsnr" v="687729" />
	</node>
	<node id="9878432600" lat="70.5731039" lon="27.0140372" version="1" timestamp="2022-07-10T07:23:33Z" changeset="123421913" uid="3497659" user="NKA">
		<tag k="name" v="Øverbygda" />
		<tag k="place" v="hamlet" />
		<tag k="ssr:stedsnr" v="516581" />
	</node>
	<node id="9878432601" lat="70.8840493" lon="27.4130736" version="1" timestamp="2022-07-10T07:23:33Z" changeset="123421913" uid="3497659" user="NKA">
		<tag k="alt_name" v="Gamlevik" />
		<tag k="name" v="Gammelvika" />
		<tag k="place" v="farm" />
		<tag k="ssr:stedsnr" v="687763" />
	</node>
	<node id="9878432602" lat="70.665825" lon="27.1619114" version="1" timestamp="2022-07-10T07:23:33Z" changeset="123421913" uid="3497659" user="NKA">
		<tag k="name" v="Djuphol" />
		<tag k="place" v="isolated_dwelling" />
		<tag k="ssr:stedsnr" v="208471" />
	</node>
	<node id="9878432603" lat="70.7931533" lon="26.6928708" version="1" timestamp="2022-07-10T07:23:33Z" changeset="123421913" uid="3497659" user="NKA">
		<tag k="name" v="Springsteinen" />
		<tag k="old_name" v="M12/006 Springsten" />
		<tag k="place" v="farm" />
		<tag k="ssr:stedsnr" v="1082609" />
	</node>
	<node id="9878432604" lat="70.5894804" lon="27.2795748" version="1" timestamp="2022-07-10T07:23:33Z" changeset="123421913" uid="3497659" user="NKA">
		<tag k="name" v="Bekkarfjord" />
		<tag k="place" v="hamlet" />
		<tag k="ssr:stedsnr" v="747722" />
	</node>
	<node id="9878432605" lat="70.3061014" lon="26.3793887" version="1" timestamp="2022-07-10T07:23:33Z" changeset="123421913" uid="3497659" user="NKA">
		<tag k="name" v="Karlstad" />
		<tag k="place" v="isolated_dwelling" />
		<tag k="ssr:stedsnr" v="456641" />
	</node>
	<node id="9878432606" lat="70.5878754" lon="27.2315809" version="1" timestamp="2022-07-10T07:23:33Z" changeset="123421913" uid="3497659" user="NKA">
		<tag k="name" v="Steinbakken" />
		<tag k="place" v="farm" />
		<tag k="ssr:stedsnr" v="687735" />
	</node>
	<node id="9878432607" lat="70.8877195" lon="27.477374" version="1" timestamp="2022-07-10T07:23:33Z" changeset="123421913" uid="3497659" user="NKA">
		<tag k="alt_name" v="Djupvik" />
		<tag k="name" v="Djupvika" />
		<tag k="place" v="isolated_dwelling" />
		<tag k="ssr:stedsnr" v="930787" />
	</node>
	<node id="9878432608" lat="70.3756056" lon="26.5388551" version="1" timestamp="2022-07-10T07:23:33Z" changeset="123421913" uid="3497659" user="NKA">
		<tag k="name" v="Skjennes" />
		<tag k="place" v="farm" />
		<tag k="ssr:stedsnr" v="268719" />
	</node>
	<node id="9878432609" lat="70.3697111" lon="26.4786052" version="1" timestamp="2022-07-10T07:23:33Z" changeset="123421913" uid="3497659" user="NKA">
		<tag k="name" v="Olsborg" />
		<tag k="place" v="isolated_dwelling" />
		<tag k="ssr:stedsnr" v="760704" />
	</node>
	<node id="9878432610" lat="70.9161" lon="27.3977659" version="1" timestamp="2022-07-10T07:23:33Z" changeset="123421913" uid="3497659" user="NKA">
		<tag k="name" v="Krampenes" />
		<tag k="place" v="locality" />
		<tag k="ssr:stedsnr" v="207190" />
	</node>
	<node id="9878432611" lat="70.6830695" lon="27.1392171" version="1" timestamp="2022-07-10T07:23:33Z" changeset="123421913" uid="3497659" user="NKA">
		<tag k="name" v="Jonsneset" />
		<tag k="place" v="locality" />
		<tag k="ssr:stedsnr" v="329482" />
	</node>
	<node id="9878432612" lat="70.5229559" lon="26.9981969" version="1" timestamp="2022-07-10T07:23:33Z" changeset="123421913" uid="3497659" user="NKA">
		<tag k="name" v="Oldervik" />
		<tag k="place" v="hamlet" />
		<tag k="ssr:stedsnr" v="262648" />
	</node>
	<node id="9878432613" lat="70.8949606" lon="27.2685147" version="1" timestamp="2022-07-10T07:23:33Z" changeset="123421913" uid="3497659" user="NKA">
		<tag k="loc_name" v="Brenngammen" />
		<tag k="name" v="Brenngam" />
		<tag k="place" v="hamlet" />
		<tag k="ssr:stedsnr" v="141735" />
	</node>
	<node id="9878432614" lat="70.75775" lon="27.3466358" version="1" timestamp="2022-07-10T07:23:33Z" changeset="123421913" uid="3497659" user="NKA">
		<tag k="name" v="Vinterplassen" />
		<tag k="place" v="isolated_dwelling" />
		<tag k="ssr:stedsnr" v="870801" />
	</node>
	<node id="9878432615" lat="70.3460222" lon="26.5129997" version="1" timestamp="2022-07-10T07:23:33Z" changeset="123421913" uid="3497659" user="NKA">
		<tag k="name" v="Sørelv" />
		<tag k="place" v="farm" />
		<tag k="ssr:stedsnr" v="544997" />
	</node>
	<node id="9878432616" lat="70.9369084" lon="27.3987327" version="1" timestamp="2022-07-10T07:23:33Z" changeset="123421913" uid="3497659" user="NKA">
		<tag k="name" v="Nymo" />
		<tag k="place" v="locality" />
		<tag k="ssr:stedsnr" v="30942" />
	</node>
	<node id="9878438617" lat="70.9040549" lon="27.1735906" version="1" timestamp="2022-07-10T07:23:33Z" changeset="123421913" uid="3497659" user="NKA">
		<tag k="name" v="Garte - Gáica" />
		<tag k="name:no" v="Garte" />
		<tag k="name:se" v="Gáica" />
		<tag k="old_name:se" v="Gaica" />
		<tag k="place" v="isolated_dwelling" />
		<tag k="ssr:stedsnr" v="20784" />
	</node>
	<node id="9878438618" lat="70.3808583" lon="26.6283494" version="1" timestamp="2022-07-10T07:23:33Z" changeset="123421913" uid="3497659" user="NKA">
		<tag k="name" v="Under Fossen" />
		<tag k="place" v="farm" />
		<tag k="ssr:stedsnr" v="693743" />
	</node>
	<node id="9878438619" lat="70.5260722" lon="27.0229204" version="1" timestamp="2022-07-10T07:23:33Z" changeset="123421913" uid="3497659" user="NKA">
		<tag k="name" v="Nyrud" />
		<tag k="place" v="farm" />
		<tag k="ssr:stedsnr" v="262780" />
	</node>
	<node id="9878438620" lat="70.5212084" lon="26.5502161" version="1" timestamp="2022-07-10T07:23:33Z" changeset="123421913" uid="3497659" user="NKA">
		<tag k="name" v="Kjeldejord" />
		<tag k="place" v="farm" />
		<tag k="ssr:stedsnr" v="202668" />
	</node>
	<node id="9878438621" lat="70.3430694" lon="26.5105801" version="1" timestamp="2022-07-10T07:23:33Z" changeset="123421913" uid="3497659" user="NKA">
		<tag k="name" v="Storli" />
		<tag k="place" v="farm" />
		<tag k="ssr:stedsnr" v="396696" />
	</node>
	<node id="9878438622" lat="70.664341" lon="26.5533005" version="1" timestamp="2022-07-10T07:23:33Z" changeset="123421913" uid="3497659" user="NKA">
		<tag k="name" v="Lavsnes" />
		<tag k="place" v="farm" />
		<tag k="ssr:stedsnr" v="272908" />
	</node>
	<node id="9878438623" lat="70.4708916" lon="27.0764396" version="1" timestamp="2022-07-10T07:23:33Z" changeset="123421913" uid="3497659" user="NKA">
		<tag k="name" v="Leirpollen" />
		<tag k="place" v="farm" />
		<tag k="ssr:stedsnr" v="25020" />
	</node>
	<node id="9878438624" lat="70.6602994" lon="26.5717603" version="1" timestamp="2022-07-10T07:23:33Z" changeset="123421913" uid="3497659" user="NKA">
		<tag k="name" v="Sandmælen" />
		<tag k="place" v="farm" />
		<tag k="ssr:stedsnr" v="636964" />
	</node>
	<node id="9878438625" lat="70.6508389" lon="26.2788585" version="1" timestamp="2022-07-10T07:23:33Z" changeset="123421913" uid="3497659" user="NKA">
		<tag k="name" v="Solbakken" />
		<tag k="place" v="locality" />
		<tag k="ssr:stedsnr" v="757803" />
	</node>
	<node id="9878438626" lat="70.6661917" lon="27.1421253" version="1" timestamp="2022-07-10T07:23:33Z" changeset="123421913" uid="3497659" user="NKA">
		<tag k="name" v="Grønmo" />
		<tag k="place" v="farm" />
		<tag k="ssr:stedsnr" v="626706" />
	</node>
	<node id="9878438627" lat="70.6479916" lon="26.6077661" version="1" timestamp="2022-07-10T07:23:33Z" changeset="123421913" uid="3497659" user="NKA">
		<tag k="name" v="Sandbakken" />
		<tag k="place" v="farm" />
		<tag k="ssr:stedsnr" v="691782" />
	</node>
	<node id="9878438628" lat="70.6604305" lon="26.5729744" version="1" timestamp="2022-07-10T07:23:33Z" changeset="123421913" uid="3497659" user="NKA">
		<tag k="name" v="Bukta" />
		<tag k="place" v="farm" />
		<tag k="ssr:stedsnr" v="327742" />
	</node>
	<node id="9878438629" lat="70.6602201" lon="26.5775621" version="1" timestamp="2022-07-10T07:23:33Z" changeset="123421913" uid="3497659" user="NKA">
		<tag k="name" v="Krattås" />
		<tag k="place" v="farm" />
		<tag k="ssr:stedsnr" v="393948" />
	</node>
	<node id="9878438630" lat="70.7281306" lon="27.3027832" version="1" timestamp="2022-07-10T07:23:33Z" changeset="123421913" uid="3497659" user="NKA">
		<tag k="name" v="Austmo" />
		<tag k="place" v="isolated_dwelling" />
		<tag k="ssr:stedsnr" v="809697" />
	</node>
	<node id="9878438631" lat="70.462601" lon="26.9123993" version="1" timestamp="2022-07-10T07:23:33Z" changeset="123421913" uid="3497659" user="NKA">
		<tag k="name" v="Heimdal" />
		<tag k="place" v="hamlet" />
		<tag k="ssr:stedsnr" v="140353" />
	</node>
	<node id="9878438632" lat="70.4915084" lon="26.5466855" version="1" timestamp="2022-07-10T07:23:33Z" changeset="123421913" uid="3497659" user="NKA">
		<tag k="alt_name:no" v="Korsnes, ytre" />
		<tag k="name" v="Ytre Korsnes - Guovdabákti" />
		<tag k="name:no" v="Ytre Korsnes" />
		<tag k="name:se" v="Guovdabákti" />
		<tag k="old_name:se" v="Guovdabakti" />
		<tag k="place" v="isolated_dwelling" />
		<tag k="ssr:stedsnr" v="140380" />
	</node>
	<node id="9878438633" lat="70.6404166" lon="26.2603586" version="1" timestamp="2022-07-10T07:23:33Z" changeset="123421913" uid="3497659" user="NKA">
		<tag k="name" v="Gáhkkornjunni" />
		<tag k="name:se" v="Gáhkkornjunni" />
		<tag k="old_name:se" v="Gakkurnjunni" />
		<tag k="place" v="locality" />
		<tag k="ssr:stedsnr" v="383591" />
	</node>
	<node id="9878438634" lat="70.6583642" lon="26.5877434" version="1" timestamp="2022-07-10T07:23:33Z" changeset="123421913" uid="3497659" user="NKA">
		<tag k="alt_name" v="Veidnes øvre" />
		<tag k="name" v="Veines, øvre" />
		<tag k="place" v="farm" />
		<tag k="ssr:stedsnr" v="384619" />
	</node>
	<node id="9878438635" lat="70.7640722" lon="27.2918332" version="1" timestamp="2022-07-10T07:23:33Z" changeset="123421913" uid="3497659" user="NKA">
		<tag k="name" v="Sommarhamn" />
		<tag k="place" v="farm" />
		<tag k="ssr:stedsnr" v="86355" />
	</node>
	<node id="9878438636" lat="70.8937444" lon="26.711199" version="1" timestamp="2022-07-10T07:23:33Z" changeset="123421913" uid="3497659" user="NKA">
		<tag k="name" v="Hellervik" />
		<tag k="old_name" v="Hellarvik" />
		<tag k="place" v="isolated_dwelling" />
		<tag k="ssr:stedsnr" v="330642" />
	</node>
	<node id="9878438637" lat="70.4799684" lon="27.1051284" version="1" timestamp="2022-07-10T07:23:33Z" changeset="123421913" uid="3497659" user="NKA">
		<tag k="name" v="Prestbakken - Dážagáddi" />
		<tag k="name:no" v="Prestbakken" />
		<tag k="name:se" v="Dážagáddi" />
		<tag k="old_name:se" v="Dažsgaddi" />
		<tag k="place" v="farm" />
		<tag k="ssr:stedsnr" v="81246" />
	</node>
	<node id="9878438638" lat="70.4709223" lon="26.7624101" version="1" timestamp="2022-07-10T07:23:33Z" changeset="123421913" uid="3497659" user="NKA">
		<tag k="name" v="Sommarvik" />
		<tag k="place" v="isolated_dwelling" />
		<tag k="ssr:stedsnr" v="268164" />
	</node>
	<node id="9878438639" lat="70.4602755" lon="26.9115649" version="1" timestamp="2022-07-10T07:23:33Z" changeset="123421913" uid="3497659" user="NKA">
		<tag k="name" v="Elvebakken" />
		<tag k="place" v="farm" />
		<tag k="ssr:stedsnr" v="25062" />
	</node>
	<node id="9878438640" lat="70.4817405" lon="27.1011981" version="1" timestamp="2022-07-10T07:23:33Z" changeset="123421913" uid="3497659" user="NKA">
		<tag k="name" v="Nordmannset" />
		<tag k="place" v="farm" />
		<tag k="ssr:stedsnr" v="930224" />
	</node>
	<node id="9878438641" lat="70.7551097" lon="27.3565743" version="1" timestamp="2022-07-10T07:23:33Z" changeset="123421913" uid="3497659" user="NKA">
		<tag k="name" v="Elvestrand" />
		<tag k="place" v="farm" />
		<tag k="ssr:stedsnr" v="809805" />
	</node>
	<node id="9878438642" lat="70.6721163" lon="26.6054879" version="1" timestamp="2022-07-10T07:23:33Z" changeset="123421913" uid="3497659" user="NKA">
		<tag k="name" v="Holmjord" />
		<tag k="place" v="farm" />
		<tag k="ssr:stedsnr" v="636934" />
	</node>
	<node id="9878438643" lat="70.6589972" lon="26.596919" version="1" timestamp="2022-07-10T07:23:33Z" changeset="123421913" uid="3497659" user="NKA">
		<tag k="name" v="Veidnes" />
		<tag k="place" v="farm" />
		<tag k="ssr:stedsnr" v="395343" />
	</node>
	<node id="9878438644" lat="70.6525917" lon="26.2865308" version="1" timestamp="2022-07-10T07:23:33Z" changeset="123421913" uid="3497659" user="NKA">
		<tag k="name" v="Elvekroken" />
		<tag k="place" v="isolated_dwelling" />
		<tag k="ssr:stedsnr" v="150799" />
	</node>
	<node id="9878438645" lat="70.5535748" lon="27.0081919" version="1" timestamp="2022-07-10T07:23:33Z" changeset="123421913" uid="3497659" user="NKA">
		<tag k="name" v="Stranda" />
		<tag k="place" v="farm" />
		<tag k="ssr:stedsnr" v="692862" />
	</node>
	<node id="9878438646" lat="70.6164805" lon="26.4092416" version="1" timestamp="2022-07-10T07:23:33Z" changeset="123421913" uid="3497659" user="NKA">
		<tag k="name" v="Rognhaugen" />
		<tag k="place" v="isolated_dwelling" />
		<tag k="ssr:stedsnr" v="809575" />
	</node>
	<node id="9878438647" lat="70.7927957" lon="26.6924242" version="1" timestamp="2022-07-10T07:23:33Z" changeset="123421913" uid="3497659" user="NKA">
		<tag k="name" v="Springsteinen - Gilbegeađgi" />
		<tag k="name:no" v="Springsteinen" />
		<tag k="name:se" v="Gilbegeađgi" />
		<tag k="old_name:se" v="Gilbegæđgi" />
		<tag k="place" v="locality" />
		<tag k="ssr:stedsnr" v="445251" />
	</node>
	<node id="9878438648" lat="70.6833333" lon="26.4180525" version="1" timestamp="2022-07-10T07:23:33Z" changeset="123421913" uid="3497659" user="NKA">
		<tag k="name" v="Skoger" />
		<tag k="place" v="locality" />
		<tag k="ssr:stedsnr" v="93519" />
	</node>
	<node id="9878438649" lat="70.5879587" lon="27.2310218" version="1" timestamp="2022-07-10T07:23:33Z" changeset="123421913" uid="3497659" user="NKA">
		<tag k="name" v="Komagnes" />
		<tag k="place" v="farm" />
		<tag k="ssr:stedsnr" v="636161" />
	</node>
	<node id="9878438650" lat="70.6527139" lon="26.5976133" version="1" timestamp="2022-07-10T07:23:33Z" changeset="123421913" uid="3497659" user="NKA">
		<tag k="name" v="Storslett" />
		<tag k="place" v="locality" />
		<tag k="ssr:stedsnr" v="90954" />
	</node>
	<node id="9878438651" lat="70.4748972" lon="26.5705021" version="1" timestamp="2022-07-10T07:23:33Z" changeset="123421913" uid="3497659" user="NKA">
		<tag k="name" v="Indre Korsnes - Gáššnjárga" />
		<tag k="name:no" v="Indre Korsnes" />
		<tag k="name:se" v="Gáššnjárga" />
		<tag k="old_name:no" v="Korsnes, indre" />
		<tag k="old_name:se" v="Gaššnjarga" />
		<tag k="place" v="isolated_dwelling" />
		<tag k="ssr:stedsnr" v="747302" />
	</node>
	<node id="9878438652" lat="70.6607266" lon="26.56385" version="1" timestamp="2022-07-10T07:23:33Z" changeset="123421913" uid="3497659" user="NKA">
		<tag k="name" v="Rundjord" />
		<tag k="place" v="farm" />
		<tag k="ssr:stedsnr" v="333960" />
	</node>
	<node id="9878438653" lat="70.6547666" lon="26.5924828" version="1" timestamp="2022-07-10T07:23:33Z" changeset="123421913" uid="3497659" user="NKA">
		<tag k="name" v="Øvrejord" />
		<tag k="place" v="farm" />
		<tag k="ssr:stedsnr" v="514954" />
	</node>
	<node id="9878438654" lat="70.6239528" lon="26.607666" version="1" timestamp="2022-07-10T07:23:33Z" changeset="123421913" uid="3497659" user="NKA">
		<tag k="name" v="Skjelvika" />
		<tag k="place" v="farm" />
		<tag k="ssr:stedsnr" v="85731" />
	</node>
	<node id="9878438655" lat="70.4620355" lon="26.9725776" version="1" timestamp="2022-07-10T07:23:33Z" changeset="123421913" uid="3497659" user="NKA">
		<tag k="name" v="Holmestrand" />
		<tag k="place" v="farm" />
		<tag k="ssr:stedsnr" v="450081" />
	</node>
	<node id="9878438656" lat="70.3902361" lon="26.4975719" version="1" timestamp="2022-07-10T07:23:33Z" changeset="123421913" uid="3497659" user="NKA">
		<tag k="name" v="Matsjok" />
		<tag k="place" v="farm" />
		<tag k="ssr:stedsnr" v="328598" />
	</node>
	<node id="9878438657" lat="70.99395" lon="27.3284717" version="1" timestamp="2022-07-10T07:23:33Z" changeset="123421913" uid="3497659" user="NKA">
		<tag k="name" v="Bekkaslåtten" />
		<tag k="place" v="locality" />
		<tag k="ssr:stedsnr" v="384237" />
	</node>
	<node id="9878438658" lat="70.6549292" lon="26.5985397" version="1" timestamp="2022-07-10T07:23:33Z" changeset="123421913" uid="3497659" user="NKA">
		<tag k="name" v="Mellomjord" />
		<tag k="place" v="farm" />
		<tag k="ssr:stedsnr" v="211956" />
	</node>
	<node id="9878438659" lat="70.9297718" lon="27.4633993" version="1" timestamp="2022-07-10T07:23:33Z" changeset="123421913" uid="3497659" user="NKA">
		<tag k="name" v="Noatun" />
		<tag k="place" v="isolated_dwelling" />
		<tag k="ssr:stedsnr" v="394974" />
	</node>
	<node id="9878438660" lat="70.6588333" lon="26.5805806" version="1" timestamp="2022-07-10T07:23:33Z" changeset="123421913" uid="3497659" user="NKA">
		<tag k="name" v="Liland" />
		<tag k="place" v="farm" />
		<tag k="ssr:stedsnr" v="757967" />
	</node>
	<node id="9878438661" lat="70.3979889" lon="26.6080327" version="1" timestamp="2022-07-10T07:23:33Z" changeset="123421913" uid="3497659" user="NKA">
		<tag k="name" v="Adamsfjord" />
		<tag k="place" v="locality" />
		<tag k="ssr:stedsnr" v="631139" />
	</node>
	<node id="9878438662" lat="70.8243507" lon="26.7215863" version="1" timestamp="2022-07-10T07:23:33Z" changeset="123421913" uid="3497659" user="NKA">
		<tag k="alt_name" v="Godviknes" />
		<tag k="name" v="Godvik" />
		<tag k="place" v="farm" />
		<tag k="ssr:stedsnr" v="202234" />
	</node>
	<node id="9878438663" lat="70.843282" lon="27.4670982" version="1" timestamp="2022-07-10T07:23:33Z" changeset="123421913" uid="3497659" user="NKA">
		<tag k="alt_name" v="Eirsvåg" />
		<tag k="name" v="Ersvåg" />
		<tag k="place" v="isolated_dwelling" />
		<tag k="ssr:stedsnr" v="687784" />
	</node>
	<node id="9878438664" lat="71.0965501" lon="27.6275121" version="1" timestamp="2022-07-10T07:23:33Z" changeset="123421913" uid="3497659" user="NKA">
		<tag k="name" v="Sandfjord" />
		<tag k="place" v="locality" />
		<tag k="ssr:stedsnr" v="329630" />
	</node>
	<node id="9878438665" lat="70.9586854" lon="27.5145725" version="1" timestamp="2022-07-10T07:23:33Z" changeset="123421913" uid="3497659" user="NKA">
		<tag k="name" v="Valen" />
		<tag k="place" v="hamlet" />
		<tag k="ssr:stedsnr" v="869238" />
	</node>
	<node id="9878438666" lat="70.4683809" lon="26.9187619" version="1" timestamp="2022-07-10T07:23:33Z" changeset="123421913" uid="3497659" user="NKA">
		<tag k="name" v="Nyheim" />
		<tag k="place" v="farm" />
		<tag k="ssr:stedsnr" v="868305" />
	</node>
	<node id="9878438667" lat="70.6256659" lon="27.1690922" version="1" timestamp="2022-07-10T07:23:33Z" changeset="123421913" uid="3497659" user="NKA">
		<tag k="name" v="Storeng" />
		<tag k="place" v="locality" />
		<tag k="ssr:stedsnr" v="566709" />
	</node>
	<node id="9878438668" lat="70.4321304" lon="26.5884863" version="1" timestamp="2022-07-10T07:23:33Z" changeset="123421913" uid="3497659" user="NKA">
		<tag k="name" v="Brattholmen" />
		<tag k="place" v="locality" />
		<tag k="ssr:stedsnr" v="451237" />
	</node>
	<node id="9878438669" lat="70.6965555" lon="27.1182418" version="1" timestamp="2022-07-10T07:23:33Z" changeset="123421913" uid="3497659" user="NKA">
		<tag k="name" v="Plassen" />
		<tag k="place" v="farm" />
		<tag k="ssr:stedsnr" v="1079908" />
	</node>
	<node id="9878438670" lat="70.8155047" lon="26.7111153" version="1" timestamp="2022-07-10T07:23:33Z" changeset="123421913" uid="3497659" user="NKA">
		<tag k="name" v="Barluft - Bárluokta" />
		<tag k="name:no" v="Barluft" />
		<tag k="name:se" v="Bárluokta" />
		<tag k="old_name:se" v="Barluokta" />
		<tag k="place" v="isolated_dwelling" />
		<tag k="ssr:stedsnr" v="930255" />
	</node>
	<node id="9878438671" lat="70.6500473" lon="26.6133784" version="1" timestamp="2022-07-10T07:23:33Z" changeset="123421913" uid="3497659" user="NKA">
		<tag k="name" v="Elvejord" />
		<tag k="place" v="farm" />
		<tag k="ssr:stedsnr" v="454946" />
	</node>
	<node id="9878438672" lat="71.1135581" lon="27.6439091" version="1" timestamp="2022-07-10T07:23:33Z" changeset="123421913" uid="3497659" user="NKA">
		<tag k="alt_name" v="Sandfjordroren" />
		<tag k="name" v="Roren" />
		<tag k="place" v="locality" />
		<tag k="ssr:stedsnr" v="141499" />
	</node>
	<node id="9878438673" lat="70.9642945" lon="27.5667234" version="1" timestamp="2022-07-10T07:23:33Z" changeset="123421913" uid="3497659" user="NKA">
		<tag k="alt_name" v="Oksvåg" />
		<tag k="name" v="Oksevåg" />
		<tag k="place" v="neighbourhood" />
		<tag k="ssr:stedsnr" v="875610" />
	</node>
	<node id="9878438674" lat="70.6864083" lon="27.1672476" version="1" timestamp="2022-07-10T07:23:33Z" changeset="123421913" uid="3497659" user="NKA">
		<tag k="alt_name" v="Breidvik" />
		<tag k="name" v="Breivika" />
		<tag k="place" v="farm" />
		<tag k="ssr:stedsnr" v="202703" />
	</node>
	<node id="9878438675" lat="70.6606089" lon="26.5574171" version="1" timestamp="2022-07-10T07:23:33Z" changeset="123421913" uid="3497659" user="NKA">
		<tag k="name" v="Slettvoll" />
		<tag k="place" v="farm" />
		<tag k="ssr:stedsnr" v="454966" />
	</node>
	<node id="9878438676" lat="70.6141806" lon="26.6196937" version="1" timestamp="2022-07-10T07:23:33Z" changeset="123421913" uid="3497659" user="NKA">
		<tag k="alt_name" v="Nyhavn" />
		<tag k="loc_name" v="Boasbukta" />
		<tag k="name" v="Nyhamn" />
		<tag k="old_name" v="Bugten" />
		<tag k="place" v="locality" />
		<tag k="ssr:stedsnr" v="752737" />
	</node>
	<node id="9878438677" lat="70.8848018" lon="27.4131259" version="1" timestamp="2022-07-10T07:23:33Z" changeset="123421913" uid="3497659" user="NKA">
		<tag k="name" v="Vikhamn" />
		<tag k="place" v="hamlet" />
		<tag k="ssr:stedsnr" v="632197" />
	</node>
	<node id="9878438678" lat="70.7302278" lon="27.2952219" version="1" timestamp="2022-07-10T07:23:33Z" changeset="123421913" uid="3497659" user="NKA">
		<tag k="name" v="Strandjord" />
		<tag k="place" v="farm" />
		<tag k="ssr:stedsnr" v="146331" />
	</node>
	<node id="9878438679" lat="70.3884148" lon="26.6288081" version="1" timestamp="2022-07-10T07:23:33Z" changeset="123421913" uid="3497659" user="NKA">
		<tag k="name" v="Adamsfjord - Lárehiidgieddi" />
		<tag k="name:no" v="Adamsfjord" />
		<tag k="name:se" v="Lárehiidgieddi" />
		<tag k="old_name:se" v="Larehiidgieddi" />
		<tag k="place" v="isolated_dwelling" />
		<tag k="ssr:stedsnr" v="322147" />
	</node>
	<node id="9878438680" lat="70.5850699" lon="27.27308" version="1" timestamp="2022-07-10T07:23:33Z" changeset="123421913" uid="3497659" user="NKA">
		<tag k="name" v="Kroken" />
		<tag k="place" v="farm" />
		<tag k="ssr:stedsnr" v="140721" />
	</node>
	<node id="9878438681" lat="70.9561779" lon="27.5517094" version="1" timestamp="2022-07-10T07:23:33Z" changeset="123421913" uid="3497659" user="NKA">
		<tag k="alt_name" v="Sørbotn" />
		<tag k="name" v="Sørbotnen" />
		<tag k="place" v="farm" />
		<tag k="ssr:stedsnr" v="323222" />
	</node>
	<node id="9878438682" lat="70.917" lon="27.1309366" version="1" timestamp="2022-07-10T07:23:33Z" changeset="123421913" uid="3497659" user="NKA">
		<tag k="alt_name" v="Laukvik" />
		<tag k="name" v="Laukvika" />
		<tag k="place" v="farm" />
		<tag k="ssr:stedsnr" v="748191" />
	</node>
	<node id="9878438683" lat="70.5817778" lon="27.2490417" version="1" timestamp="2022-07-10T07:23:33Z" changeset="123421913" uid="3497659" user="NKA">
		<tag k="name" v="Sandbakken" />
		<tag k="place" v="farm" />
		<tag k="ssr:stedsnr" v="693435" />
	</node>
	<node id="9878438684" lat="70.8639678" lon="26.6674543" version="1" timestamp="2022-07-10T07:23:33Z" changeset="123421913" uid="3497659" user="NKA">
		<tag k="name" v="Hamnvær" />
		<tag k="place" v="farm" />
		<tag k="ssr:stedsnr" v="390944" />
	</node>
	<node id="9878438685" lat="70.6709083" lon="26.6069688" version="1" timestamp="2022-07-10T07:23:33Z" changeset="123421913" uid="3497659" user="NKA">
		<tag k="name" v="Holmbukt" />
		<tag k="place" v="hamlet" />
		<tag k="ssr:stedsnr" v="758936" />
	</node>
	<node id="9878438686" lat="70.3441523" lon="26.5243737" version="1" timestamp="2022-07-10T07:23:33Z" changeset="123421913" uid="3497659" user="NKA">
		<tag k="name" v="Kvilhaug" />
		<tag k="place" v="farm" />
		<tag k="ssr:stedsnr" v="577757" />
	</node>
	<node id="9878438687" lat="70.3646668" lon="26.4761134" version="1" timestamp="2022-07-10T07:23:33Z" changeset="123421913" uid="3497659" user="NKA">
		<tag k="name" v="Nordre Skjærnes" />
		<tag k="place" v="farm" />
		<tag k="ssr:stedsnr" v="820695" />
	</node>
	<node id="9878438688" lat="70.6670233" lon="27.1766067" version="1" timestamp="2022-07-10T07:23:33Z" changeset="123421913" uid="3497659" user="NKA">
		<tag k="alt_name" v="Torskefjord" />
		<tag k="loc_name" v="Torskefjorden" />
		<tag k="name" v="Store Torskefjord" />
		<tag k="place" v="hamlet" />
		<tag k="ssr:stedsnr" v="940863" />
	</node>
	<node id="9878438689" lat="70.900075" lon="27.1911753" version="1" timestamp="2022-07-10T07:23:33Z" changeset="123421913" uid="3497659" user="NKA">
		<tag k="name" v="Stormolla" />
		<tag k="place" v="isolated_dwelling" />
		<tag k="ssr:stedsnr" v="570034" />
	</node>
	<node id="9878438690" lat="70.4823389" lon="27.1011535" version="1" timestamp="2022-07-10T07:23:33Z" changeset="123421913" uid="3497659" user="NKA">
		<tag k="name" v="Leirbukt" />
		<tag k="place" v="hamlet" />
		<tag k="ssr:stedsnr" v="151576" />
	</node>
	<node id="9878438691" lat="70.4120921" lon="26.6974587" version="1" timestamp="2022-07-10T07:23:33Z" changeset="123421913" uid="3497659" user="NKA">
		<tag k="name" v="Landersfjord" />
		<tag k="place" v="hamlet" />
		<tag k="ssr:stedsnr" v="753132" />
	</node>
	<node id="9878438692" lat="70.5547389" lon="27.0290532" version="1" timestamp="2022-07-10T07:23:33Z" changeset="123421913" uid="3497659" user="NKA">
		<tag k="name" v="Sørli" />
		<tag k="place" v="farm" />
		<tag k="ssr:stedsnr" v="202751" />
	</node>
	<node id="9878438693" lat="70.9331584" lon="27.4081215" version="1" timestamp="2022-07-10T07:23:33Z" changeset="123421913" uid="3497659" user="NKA">
		<tag k="name" v="Wicklund" />
		<tag k="place" v="locality" />
		<tag k="ssr:stedsnr" v="455960" />
	</node>
	<node id="9878438694" lat="70.8966067" lon="27.3002251" version="1" timestamp="2022-07-10T07:23:33Z" changeset="123421913" uid="3497659" user="NKA">
		<tag k="name" v="Movik" />
		<tag k="place" v="farm" />
		<tag k="ssr:stedsnr" v="1075633" />
	</node>
	<node id="9878438695" lat="70.5065389" lon="27.0330202" version="1" timestamp="2022-07-10T07:23:33Z" changeset="123421913" uid="3497659" user="NKA">
		<tag k="name" v="Kjellbakken" />
		<tag k="place" v="farm" />
		<tag k="ssr:stedsnr" v="272488" />
	</node>
	<node id="9878438696" lat="70.9041525" lon="27.2390885" version="1" timestamp="2022-07-10T07:23:33Z" changeset="123421913" uid="3497659" user="NKA">
		<tag k="name" v="Dyfjordbotn" />
		<tag k="old_name" v="Dyfjordbotn 2" />
		<tag k="place" v="hamlet" />
		<tag k="ssr:stedsnr" v="1077009" />
	</node>
	<node id="9878438697" lat="70.6538945" lon="26.6125744" version="1" timestamp="2022-07-10T07:23:33Z" changeset="123421913" uid="3497659" user="NKA">
		<tag k="alt_name" v="Sandsletten" />
		<tag k="name" v="Sandslotten" />
		<tag k="place" v="farm" />
		<tag k="ssr:stedsnr" v="575946" />
	</node>
	<node id="9878438698" lat="70.4799579" lon="27.1050969" version="1" timestamp="2022-07-10T07:23:33Z" changeset="123421913" uid="3497659" user="NKA">
		<tag k="name" v="Prestelvbakken" />
		<tag k="place" v="farm" />
		<tag k="ssr:stedsnr" v="147282" />
	</node>
	<node id="9878438699" lat="70.6626806" lon="26.557258" version="1" timestamp="2022-07-10T07:23:33Z" changeset="123421913" uid="3497659" user="NKA">
		<tag k="name" v="Solheim" />
		<tag k="place" v="farm" />
		<tag k="ssr:stedsnr" v="393908" />
	</node>
	<node id="9878438700" lat="70.6664693" lon="26.5397948" version="1" timestamp="2022-07-10T07:23:33Z" changeset="123421913" uid="3497659" user="NKA">
		<tag k="name" v="Bergvang" />
		<tag k="place" v="farm" />
		<tag k="ssr:stedsnr" v="151924" />
	</node>
	<node id="9878438701" lat="70.6644845" lon="26.5488961" version="1" timestamp="2022-07-10T07:23:33Z" changeset="123421913" uid="3497659" user="NKA">
		<tag k="name" v="Vibukt" />
		<tag k="place" v="farm" />
		<tag k="ssr:stedsnr" v="85749" />
	</node>
	<node id="9878438702" lat="70.4706833" lon="26.9156147" version="1" timestamp="2022-07-10T07:23:33Z" changeset="123421913" uid="3497659" user="NKA">
		<tag k="name" v="Friarfjord" />
		<tag k="place" v="hamlet" />
		<tag k="ssr:stedsnr" v="25089" />
	</node>
	<node id="9878438703" lat="70.7283417" lon="27.2978024" version="1" timestamp="2022-07-10T07:23:33Z" changeset="123421913" uid="3497659" user="NKA">
		<tag k="name" v="Vestre Mårøyfjord" />
		<tag k="place" v="farm" />
		<tag k="ssr:stedsnr" v="935354" />
	</node>
	<node id="9878438704" lat="70.7368723" lon="26.6529576" version="1" timestamp="2022-07-10T07:23:33Z" changeset="123421913" uid="3497659" user="NKA">
		<tag k="name" v="Veidgam" />
		<tag k="place" v="isolated_dwelling" />
		<tag k="ssr:stedsnr" v="570831" />
	</node>
	<node id="9878438705" lat="70.7544333" lon="27.3582356" version="1" timestamp="2022-07-10T07:23:33Z" changeset="123421913" uid="3497659" user="NKA">
		<tag k="name" v="Mårøyfjord" />
		<tag k="place" v="hamlet" />
		<tag k="ssr:stedsnr" v="631357" />
	</node>
	<node id="9878438706" lat="70.5196333" lon="26.9934927" version="1" timestamp="2022-07-10T07:23:33Z" changeset="123421913" uid="3497659" user="NKA">
		<tag k="name" v="Nordre Auskarnes" />
		<tag k="place" v="farm" />
		<tag k="ssr:stedsnr" v="636527" />
	</node>
	<node id="9878438707" lat="70.6652192" lon="27.183836" version="1" timestamp="2022-07-10T07:23:33Z" changeset="123421913" uid="3497659" user="NKA">
		<tag k="name" v="Eidet" />
		<tag k="place" v="farm" />
		<tag k="ssr:stedsnr" v="202702" />
	</node>
	<node id="9878438708" lat="70.3530224" lon="26.5185934" version="1" timestamp="2022-07-10T07:23:33Z" changeset="123421913" uid="3497659" user="NKA">
		<tag k="name" v="Solbakken" />
		<tag k="place" v="isolated_dwelling" />
		<tag k="ssr:stedsnr" v="821524" />
	</node>
	<node id="9878438709" lat="70.4008994" lon="26.6349188" version="1" timestamp="2022-07-10T07:23:33Z" changeset="123421913" uid="3497659" user="NKA">
		<tag k="alt_name" v="Sommerset" />
		<tag k="name" v="Sommarset" />
		<tag k="place" v="hamlet" />
		<tag k="ssr:stedsnr" v="564150" />
	</node>
	<node id="9878438710" lat="70.6247092" lon="26.6075978" version="1" timestamp="2022-07-10T07:23:33Z" changeset="123421913" uid="3497659" user="NKA">
		<tag k="name" v="Skjellvika" />
		<tag k="old_name" v="M10/001 SKJÆLVIGEN" />
		<tag k="place" v="farm" />
		<tag k="ssr:stedsnr" v="1077354" />
	</node>
	<node id="9878438711" lat="70.4822333" lon="26.8093181" version="1" timestamp="2022-07-10T07:23:33Z" changeset="123421913" uid="3497659" user="NKA">
		<tag k="name" v="Vestre Eikvik" />
		<tag k="place" v="farm" />
		<tag k="ssr:stedsnr" v="86095" />
	</node>
	<node id="8679226323" lat="70.4461688" lon="26.6447586" version="1" timestamp="2021-04-29T10:24:29Z" changeset="103836185" uid="13196323" user="arnevidar" />
	<node id="8679226341" lat="70.4462312" lon="26.6440574" version="1" timestamp="2021-04-29T10:24:29Z" changeset="103836185" uid="13196323" user="arnevidar" />
	<node id="8679226348" lat="70.4464841" lon="26.6453482" version="1" timestamp="2021-04-29T10:24:29Z" changeset="103836185" uid="13196323" user="arnevidar" />
	<node id="8679226363" lat="70.4467106" lon="26.6445536" version="1" timestamp="2021-04-29T10:24:29Z" changeset="103836185" uid="13196323" user="arnevidar" />
	<node id="8679226368" lat="70.4462625" lon="26.64489" version="1" timestamp="2021-04-29T10:24:29Z" changeset="103836185" uid="13196323" user="arnevidar" />
	<node id="8679226381" lat="70.4465983" lon="26.6455989" version="1" timestamp="2021-04-29T10:24:29Z" changeset="103836185" uid="13196323" user="arnevidar" />
	<node id="8679226388" lat="70.446182" lon="26.6441334" version="1" timestamp="2021-04-29T10:24:29Z" changeset="103836185" uid="13196323" user="arnevidar" />
	<node id="8679226406" lat="70.4466849" lon="26.6444285" version="1" timestamp="2021-04-29T10:24:29Z" changeset="103836185" uid="13196323" user="arnevidar" />
	<node id="8679226412" lat="70.4463021" lon="26.6448824" version="1" timestamp="2021-04-29T10:24:29Z" changeset="103836185" uid="13196323" user="arnevidar" />
	<node id="8679226425" lat="70.4466815" lon="26.6453274" version="1" timestamp="2021-04-29T10:24:29Z" changeset="103836185" uid="13196323" user="arnevidar" />
	<node id="8679226431" lat="70.4461058" lon="26.6444157" version="1" timestamp="2021-04-29T10:24:29Z" changeset="103836185" uid="13196323" user="arnevidar" />
	<node id="8679226450" lat="70.4464925" lon="26.6439246" version="1" timestamp="2021-04-29T10:24:29Z" changeset="103836185" uid="13196323" user="arnevidar" />
	<node id="8679226457" lat="70.4463341" lon="26.6449121" version="1" timestamp="2021-04-29T10:24:29Z" changeset="103836185" uid="13196323" user="arnevidar" />
	<node id="8679226471" lat="70.446697" lon="26.6452218" version="1" timestamp="2021-04-29T10:24:29Z" changeset="103836185" uid="13196323" user="arnevidar" />
	<node id="8679226479" lat="70.4461013" lon="26.6444958" version="1" timestamp="2021-04-29T10:24:29Z" changeset="103836185" uid="13196323" user="arnevidar" />
	<node id="8679226500" lat="70.4464747" lon="26.6439121" version="1" timestamp="2021-04-29T10:24:29Z" changeset="103836185" uid="13196323" user="arnevidar" />
	<node id="8679226519" lat="70.446717" lon="26.6446346" version="1" timestamp="2021-04-29T10:24:29Z" changeset="103836185" uid="13196323" user="arnevidar" />
	<node id="8679225693" lat="70.4877722" lon="26.9144484" version="1" timestamp="2021-04-29T10:24:29Z" changeset="103836185" uid="13196323" user="arnevidar" />
	<node id="8679225694" lat="70.4874562" lon="26.9143469" version="1" timestamp="2021-04-29T10:24:29Z" changeset="103836185" uid="13196323" user="arnevidar" />
	<node id="8679225695" lat="70.4876681" lon="26.9141709" version="1" timestamp="2021-04-29T10:24:29Z" changeset="103836185" uid="13196323" user="arnevidar" />
	<node id="8679225696" lat="70.4878033" lon="26.9143657" version="1" timestamp="2021-04-29T10:24:29Z" changeset="103836185" uid="13196323" user="arnevidar" />
	<node id="8679225697" lat="70.4874587" lon="26.9145233" version="1" timestamp="2021-04-29T10:24:29Z" changeset="103836185" uid="13196323" user="arnevidar" />
	<node id="8679225698" lat="70.4876126" lon="26.9141636" version="1" timestamp="2021-04-29T10:24:29Z" changeset="103836185" uid="13196323" user="arnevidar" />
	<node id="8679225699" lat="70.4877783" lon="26.9143113" version="1" timestamp="2021-04-29T10:24:29Z" changeset="103836185" uid="13196323" user="arnevidar" />
	<node id="8679225700" lat="70.4874889" lon="26.9145517" version="1" timestamp="2021-04-29T10:24:29Z" changeset="103836185" uid="13196323" user="arnevidar" />
	<node id="8679225701" lat="70.4875259" lon="26.9141701" version="1" timestamp="2021-04-29T10:24:29Z" changeset="103836185" uid="13196323" user="arnevidar" />
	<node id="8679225702" lat="70.4877198" lon="26.914489" version="1" timestamp="2021-04-29T10:24:29Z" changeset="103836185" uid="13196323" user="arnevidar" />
	<node id="8679225703" lat="70.487467" lon="26.9142084" version="1" timestamp="2021-04-29T10:24:29Z" changeset="103836185" uid="13196323" user="arnevidar" />
	<node id="8679225704" lat="70.4876771" lon="26.9141886" version="1" timestamp="2021-04-29T10:24:29Z" changeset="103836185" uid="13196323" user="arnevidar" />
	<node id="8676195095" lat="70.5960672" lon="26.8819456" version="1" timestamp="2021-04-28T12:04:47Z" changeset="103775027" uid="13196323" user="arnevidar" />
	<node id="8676216832" lat="70.5968983" lon="26.8809968" version="1" timestamp="2021-04-28T12:04:47Z" changeset="103775027" uid="13196323" user="arnevidar" />
	<node id="8676216853" lat="70.5964895" lon="26.8809629" version="1" timestamp="2021-04-28T12:04:47Z" changeset="103775027" uid="13196323" user="arnevidar" />
	<node id="8676216872" lat="70.5960884" lon="26.8814074" version="1" timestamp="2021-04-28T12:04:47Z" changeset="103775027" uid="13196323" user="arnevidar" />
	<node id="8676216895" lat="70.5964964" lon="26.8823831" version="1" timestamp="2021-04-28T12:04:47Z" changeset="103775027" uid="13196323" user="arnevidar" />
	<node id="8676216905" lat="70.5970644" lon="26.8813229" version="1" timestamp="2021-04-28T12:04:47Z" changeset="103775027" uid="13196323" user="arnevidar" />
	<node id="8676216928" lat="70.5967498" lon="26.8805271" version="1" timestamp="2021-04-28T12:04:47Z" changeset="103775027" uid="13196323" user="arnevidar" />
	<node id="8676216947" lat="70.5962959" lon="26.8814402" version="1" timestamp="2021-04-28T12:04:47Z" changeset="103775027" uid="13196323" user="arnevidar" />
	<node id="8676216970" lat="70.5961226" lon="26.8822332" version="1" timestamp="2021-04-28T12:04:47Z" changeset="103775027" uid="13196323" user="arnevidar" />
	<node id="8676216982" lat="70.5974251" lon="26.8827043" version="1" timestamp="2021-04-28T12:04:47Z" changeset="103775027" uid="13196323" user="arnevidar" />
	<node id="8676217007" lat="70.5969648" lon="26.8808294" version="1" timestamp="2021-04-28T12:04:47Z" changeset="103775027" uid="13196323" user="arnevidar" />
	<node id="8676217027" lat="70.5964862" lon="26.8813447" version="1" timestamp="2021-04-28T12:04:47Z" changeset="103775027" uid="13196323" user="arnevidar" />
	<node id="8676217048" lat="70.596067" lon="26.8814588" version="1" timestamp="2021-04-28T12:04:47Z" changeset="103775027" uid="13196323" user="arnevidar" />
	<node id="8676217074" lat="70.5965623" lon="26.8823502" version="1" timestamp="2021-04-28T12:04:47Z" changeset="103775027" uid="13196323" user="arnevidar" />
	<node id="8676217084" lat="70.5969054" lon="26.8811462" version="1" timestamp="2021-04-28T12:04:47Z" changeset="103775027" uid="13196323" user="arnevidar" />
	<node id="8676217107" lat="70.596645" lon="26.8806076" version="1" timestamp="2021-04-28T12:04:47Z" changeset="103775027" uid="13196323" user="arnevidar" />
	<node id="8676217130" lat="70.5962581" lon="26.8813405" version="1" timestamp="2021-04-28T12:04:47Z" changeset="103775027" uid="13196323" user="arnevidar" />
	<node id="8676217151" lat="70.59616" lon="26.8823329" version="1" timestamp="2021-04-28T12:04:47Z" changeset="103775027" uid="13196323" user="arnevidar" />
	<node id="8676217163" lat="70.59737" lon="26.8823828" version="1" timestamp="2021-04-28T12:04:47Z" changeset="103775027" uid="13196323" user="arnevidar" />
	<node id="8676217188" lat="70.5969667" lon="26.8807982" version="1" timestamp="2021-04-28T12:04:47Z" changeset="103775027" uid="13196323" user="arnevidar" />
	<node id="8676217211" lat="70.5964078" lon="26.8817445" version="1" timestamp="2021-04-28T12:04:47Z" changeset="103775027" uid="13196323" user="arnevidar" />
	<node id="8676217231" lat="70.5960437" lon="26.8816029" version="1" timestamp="2021-04-28T12:04:47Z" changeset="103775027" uid="13196323" user="arnevidar" />
	<node id="8676217267" lat="70.5968826" lon="26.8810974" version="1" timestamp="2021-04-28T12:04:47Z" changeset="103775027" uid="13196323" user="arnevidar" />
	<node id="8676217291" lat="70.596528" lon="26.8807692" version="1" timestamp="2021-04-28T12:04:47Z" changeset="103775027" uid="13196323" user="arnevidar" />
	<node id="8676217312" lat="70.5962264" lon="26.8812991" version="1" timestamp="2021-04-28T12:04:47Z" changeset="103775027" uid="13196323" user="arnevidar" />
	<node id="8676217334" lat="70.596195" lon="26.8823658" version="1" timestamp="2021-04-28T12:04:47Z" changeset="103775027" uid="13196323" user="arnevidar" />
	<node id="8676217346" lat="70.5972786" lon="26.8819664" version="1" timestamp="2021-04-28T12:04:47Z" changeset="103775027" uid="13196323" user="arnevidar" />
	<node id="8676217368" lat="70.5969561" lon="26.8807356" version="1" timestamp="2021-04-28T12:04:47Z" changeset="103775027" uid="13196323" user="arnevidar" />
	<node id="8676217389" lat="70.5963887" lon="26.8817674" version="1" timestamp="2021-04-28T12:04:47Z" changeset="103775027" uid="13196323" user="arnevidar" />
	<node id="8676217410" lat="70.5960445" lon="26.8817214" version="1" timestamp="2021-04-28T12:04:47Z" changeset="103775027" uid="13196323" user="arnevidar" />
	<node id="8676217444" lat="70.59688" lon="26.8810652" version="1" timestamp="2021-04-28T12:04:47Z" changeset="103775027" uid="13196323" user="arnevidar" />
	<node id="8676217466" lat="70.596502" lon="26.8808486" version="1" timestamp="2021-04-28T12:04:47Z" changeset="103775027" uid="13196323" user="arnevidar" />
	<node id="8676217488" lat="70.5962028" lon="26.8813031" version="1" timestamp="2021-04-28T12:04:47Z" changeset="103775027" uid="13196323" user="arnevidar" />
	<node id="8676217511" lat="70.596484" lon="26.8824215" version="1" timestamp="2021-04-28T12:04:47Z" changeset="103775027" uid="13196323" user="arnevidar" />
	<node id="8676217522" lat="70.5971667" lon="26.8815438" version="1" timestamp="2021-04-28T12:04:47Z" changeset="103775027" uid="13196323" user="arnevidar" />
	<node id="8676217545" lat="70.59681" lon="26.8805543" version="1" timestamp="2021-04-28T12:04:47Z" changeset="103775027" uid="13196323" user="arnevidar" />
	<node id="8676217566" lat="70.5963598" lon="26.881763" version="1" timestamp="2021-04-28T12:04:47Z" changeset="103775027" uid="13196323" user="arnevidar" />
	<node id="8676195108" lat="70.5974531" lon="26.883098" version="1" timestamp="2021-04-28T12:04:47Z" changeset="103775027" uid="13196323" user="arnevidar" />
	<node id="8676216823" lat="70.5970494" lon="26.8836662" version="1" timestamp="2021-04-28T12:04:47Z" changeset="103775027" uid="13196323" user="arnevidar" />
	<node id="8676216999" lat="70.5972103" lon="26.8841304" version="1" timestamp="2021-04-28T12:04:47Z" changeset="103775027" uid="13196323" user="arnevidar" />
	<node id="8676217179" lat="70.5973315" lon="26.8842488" version="1" timestamp="2021-04-28T12:04:47Z" changeset="103775027" uid="13196323" user="arnevidar" />
	<node id="8676217241" lat="70.5974317" lon="26.8838538" version="1" timestamp="2021-04-28T12:04:47Z" changeset="103775027" uid="13196323" user="arnevidar" />
	<node id="8676217257" lat="70.5968917" lon="26.8833622" version="1" timestamp="2021-04-28T12:04:47Z" changeset="103775027" uid="13196323" user="arnevidar" />
	<node id="8676217360" lat="70.5973601" lon="26.884222" version="1" timestamp="2021-04-28T12:04:47Z" changeset="103775027" uid="13196323" user="arnevidar" />
	<node id="8676217420" lat="70.5974451" lon="26.8836687" version="1" timestamp="2021-04-28T12:04:47Z" changeset="103775027" uid="13196323" user="arnevidar" />
	<node id="8676217434" lat="70.5969159" lon="26.8833684" version="1" timestamp="2021-04-28T12:04:47Z" changeset="103775027" uid="13196323" user="arnevidar" />
	<node id="8676217446" lat="70.5973762" lon="26.8841515" version="1" timestamp="2021-04-28T12:04:47Z" changeset="103775027" uid="13196323" user="arnevidar" />
	<node id="8676217833" lat="70.6152749" lon="26.9271769" version="1" timestamp="2021-04-28T12:04:47Z" changeset="103775027" uid="13196323" user="arnevidar" />
	<node id="8676217834" lat="70.6150366" lon="26.9249618" version="1" timestamp="2021-04-28T12:04:47Z" changeset="103775027" uid="13196323" user="arnevidar" />
	<node id="8676217835" lat="70.6141799" lon="26.9260621" version="1" timestamp="2021-04-28T12:04:47Z" changeset="103775027" uid="13196323" user="arnevidar" />
	<node id="8676217838" lat="70.6147517" lon="26.9283632" version="1" timestamp="2021-04-28T12:04:47Z" changeset="103775027" uid="13196323" user="arnevidar" />
	<node id="8676217839" lat="70.6153816" lon="26.9259187" version="1" timestamp="2021-04-28T12:04:47Z" changeset="103775027" uid="13196323" user="arnevidar" />
	<node id="8676217840" lat="70.6142524" lon="26.9255102" version="1" timestamp="2021-04-28T12:04:47Z" changeset="103775027" uid="13196323" user="arnevidar" />
	<node id="8676217843" lat="70.6144288" lon="26.9279177" version="1" timestamp="2021-04-28T12:04:47Z" changeset="103775027" uid="13196323" user="arnevidar" />
	<node id="8676217845" lat="70.6153525" lon="26.9267237" version="1" timestamp="2021-04-28T12:04:47Z" changeset="103775027" uid="13196323" user="arnevidar" />
	<node id="8676217846" lat="70.6149802" lon="26.9248387" version="1" timestamp="2021-04-28T12:04:47Z" changeset="103775027" uid="13196323" user="arnevidar" />
	<node id="8676217847" lat="70.6142378" lon="26.9265452" version="1" timestamp="2021-04-28T12:04:47Z" changeset="103775027" uid="13196323" user="arnevidar" />
	<node id="8676217850" lat="70.6150797" lon="26.9280421" version="1" timestamp="2021-04-28T12:04:47Z" changeset="103775027" uid="13196323" user="arnevidar" />
	<node id="8676217851" lat="70.6152097" lon="26.9255898" version="1" timestamp="2021-04-28T12:04:47Z" changeset="103775027" uid="13196323" user="arnevidar" />
	<node id="8676217852" lat="70.6142055" lon="26.9256905" version="1" timestamp="2021-04-28T12:04:47Z" changeset="103775027" uid="13196323" user="arnevidar" />
	<node id="8676217855" lat="70.6145266" lon="26.9282922" version="1" timestamp="2021-04-28T12:04:47Z" changeset="103775027" uid="13196323" user="arnevidar" />
	<node id="8676217857" lat="70.6154588" lon="26.926244" version="1" timestamp="2021-04-28T12:04:47Z" changeset="103775027" uid="13196323" user="arnevidar" />
	<node id="8676217858" lat="70.6147" lon="26.9245216" version="1" timestamp="2021-04-28T12:04:47Z" changeset="103775027" uid="13196323" user="arnevidar" />
	<node id="8676217859" lat="70.6141547" lon="26.9271706" version="1" timestamp="2021-04-28T12:04:47Z" changeset="103775027" uid="13196323" user="arnevidar" />
	<node id="8676217861" lat="70.6151313" lon="26.9279706" version="1" timestamp="2021-04-28T12:04:47Z" changeset="103775027" uid="13196323" user="arnevidar" />
	<node id="8676217862" lat="70.6150477" lon="26.9252321" version="1" timestamp="2021-04-28T12:04:47Z" changeset="103775027" uid="13196323" user="arnevidar" />
	<node id="8676217863" lat="70.6141838" lon="26.9258195" version="1" timestamp="2021-04-28T12:04:47Z" changeset="103775027" uid="13196323" user="arnevidar" />
	<node id="8676217867" lat="70.6154609" lon="26.9261538" version="1" timestamp="2021-04-28T12:04:47Z" changeset="103775027" uid="13196323" user="arnevidar" />
	<node id="8676217868" lat="70.6145999" lon="26.9245256" version="1" timestamp="2021-04-28T12:04:47Z" changeset="103775027" uid="13196323" user="arnevidar" />
	<node id="8676217869" lat="70.6141487" lon="26.927178" version="1" timestamp="2021-04-28T12:04:47Z" changeset="103775027" uid="13196323" user="arnevidar" />
	<node id="8676217872" lat="70.6151733" lon="26.9278465" version="1" timestamp="2021-04-28T12:04:47Z" changeset="103775027" uid="13196323" user="arnevidar" />
	<node id="8676217873" lat="70.6150621" lon="26.9250518" version="1" timestamp="2021-04-28T12:04:47Z" changeset="103775027" uid="13196323" user="arnevidar" />
	<node id="8676217874" lat="70.6141752" lon="26.9259466" version="1" timestamp="2021-04-28T12:04:47Z" changeset="103775027" uid="13196323" user="arnevidar" />
	<node id="8676217875" lat="70.6146162" lon="26.9283407" version="1" timestamp="2021-04-28T12:04:47Z" changeset="103775027" uid="13196323" user="arnevidar" />
	<node id="8676217879" lat="70.6154444" lon="26.9260835" version="1" timestamp="2021-04-28T12:04:47Z" changeset="103775027" uid="13196323" user="arnevidar" />
	<node id="8676217880" lat="70.6144971" lon="26.9247627" version="1" timestamp="2021-04-28T12:04:47Z" changeset="103775027" uid="13196323" user="arnevidar" />
	<node id="8676217881" lat="70.6141797" lon="26.9273956" version="1" timestamp="2021-04-28T12:04:47Z" changeset="103775027" uid="13196323" user="arnevidar" />
	<node id="8679225677" lat="70.4849657" lon="27.0872097" version="1" timestamp="2021-04-29T10:24:29Z" changeset="103836185" uid="13196323" user="arnevidar" />
	<node id="8679225678" lat="70.484628" lon="27.0881429" version="1" timestamp="2021-04-29T10:24:29Z" changeset="103836185" uid="13196323" user="arnevidar" />
	<node id="8679225679" lat="70.4844399" lon="27.0875236" version="1" timestamp="2021-04-29T10:24:29Z" changeset="103836185" uid="13196323" user="arnevidar" />
	<node id="8679225680" lat="70.4848531" lon="27.0865819" version="1" timestamp="2021-04-29T10:24:29Z" changeset="103836185" uid="13196323" user="arnevidar" />
	<node id="8679225681" lat="70.4846481" lon="27.0880126" version="1" timestamp="2021-04-29T10:24:29Z" changeset="103836185" uid="13196323" user="arnevidar" />
	<node id="8679225682" lat="70.4844484" lon="27.0877823" version="1" timestamp="2021-04-29T10:24:29Z" changeset="103836185" uid="13196323" user="arnevidar" />
	<node id="8679225683" lat="70.4848152" lon="27.0874964" version="1" timestamp="2021-04-29T10:24:29Z" changeset="103836185" uid="13196323" user="arnevidar" />
	<node id="8679225684" lat="70.4847203" lon="27.0866963" version="1" timestamp="2021-04-29T10:24:29Z" changeset="103836185" uid="13196323" user="arnevidar" />
	<node id="8679225685" lat="70.4847304" lon="27.087652" version="1" timestamp="2021-04-29T10:24:29Z" changeset="103836185" uid="13196323" user="arnevidar" />
	<node id="8679225687" lat="70.4848646" lon="27.0875281" version="1" timestamp="2021-04-29T10:24:29Z" changeset="103836185" uid="13196323" user="arnevidar" />
	<node id="8679225688" lat="70.4845036" lon="27.0881939" version="1" timestamp="2021-04-29T10:24:29Z" changeset="103836185" uid="13196323" user="arnevidar" />
	<node id="8679225689" lat="70.48453" lon="27.0870924" version="1" timestamp="2021-04-29T10:24:29Z" changeset="103836185" uid="13196323" user="arnevidar" />
	<node id="8679225690" lat="70.4849593" lon="27.0873473" version="1" timestamp="2021-04-29T10:24:29Z" changeset="103836185" uid="13196323" user="arnevidar" />
	<node id="8679225691" lat="70.4845574" lon="27.0882054" version="1" timestamp="2021-04-29T10:24:29Z" changeset="103836185" uid="13196323" user="arnevidar" />
	<node id="8679225692" lat="70.4844638" lon="27.0872683" version="1" timestamp="2021-04-29T10:24:29Z" changeset="103836185" uid="13196323" user="arnevidar" />
	<node id="1910133761" lat="70.9883815" lon="27.3369653" version="2" timestamp="2018-04-25T15:37:48Z" changeset="58412312" uid="420980" user="NorNorth" />
	<node id="2393522978" lat="70.9899744" lon="27.3410214" version="2" timestamp="2018-04-25T15:37:51Z" changeset="58412312" uid="420980" user="NorNorth" />
	<node id="2393522995" lat="70.9894246" lon="27.339073" version="2" timestamp="2018-04-25T15:37:51Z" changeset="58412312" uid="420980" user="NorNorth" />
	<node id="2393523073" lat="70.9892684" lon="27.3388971" version="2" timestamp="2018-04-25T15:37:52Z" changeset="58412312" uid="420980" user="NorNorth" />
	<node id="2393523104" lat="70.9898905" lon="27.3403991" version="2" timestamp="2018-04-25T15:37:52Z" changeset="58412312" uid="420980" user="NorNorth" />
	<node id="2393523116" lat="70.9900443" lon="27.3413862" version="2" timestamp="2018-04-25T15:37:52Z" changeset="58412312" uid="420980" user="NorNorth" />
	<node id="2393523159" lat="70.9899209" lon="27.3408111" version="2" timestamp="2018-04-25T15:37:52Z" changeset="58412312" uid="420980" user="NorNorth" />
	<node id="2393523182" lat="70.9896413" lon="27.3395451" version="2" timestamp="2018-04-25T15:37:52Z" changeset="58412312" uid="420980" user="NorNorth" />
	<node id="2393523286" lat="70.9888141" lon="27.3380602" version="2" timestamp="2018-04-25T15:37:52Z" changeset="58412312" uid="420980" user="NorNorth" />
	<node id="2393523322" lat="70.9890052" lon="27.3383864" version="2" timestamp="2018-04-25T15:37:52Z" changeset="58412312" uid="420980" user="NorNorth" />
	<node id="2393523439" lat="70.9886627" lon="27.3376568" version="2" timestamp="2018-04-25T15:37:53Z" changeset="58412312" uid="420980" user="NorNorth" />
	<node id="2393523494" lat="70.989541" lon="27.3394765" version="2" timestamp="2018-04-25T15:37:53Z" changeset="58412312" uid="420980" user="NorNorth" />
	<node id="2393523549" lat="70.9885065" lon="27.3373092" version="2" timestamp="2018-04-25T15:37:53Z" changeset="58412312" uid="420980" user="NorNorth" />
	<node id="2393523561" lat="70.9896948" lon="27.3398412" version="2" timestamp="2018-04-25T15:37:53Z" changeset="58412312" uid="420980" user="NorNorth" />
	<node id="2393523605" lat="70.989145" lon="27.3388585" version="2" timestamp="2018-04-25T15:37:53Z" changeset="58412312" uid="420980" user="NorNorth" />
	<node id="2393523766" lat="70.9901211" lon="27.341472" version="2" timestamp="2018-04-25T15:37:54Z" changeset="58412312" uid="420980" user="NorNorth" />
	<node id="2393522993" lat="70.9913932" lon="27.3425449" version="2" timestamp="2018-04-25T15:37:51Z" changeset="58412312" uid="420980" user="NorNorth" />
	<node id="2393522994" lat="70.9904101" lon="27.3420771" version="2" timestamp="2018-04-25T15:37:51Z" changeset="58412312" uid="420980" user="NorNorth" />
	<node id="2393523003" lat="70.9916588" lon="27.3425449" version="2" timestamp="2018-04-25T15:37:51Z" changeset="58412312" uid="420980" user="NorNorth" />
	<node id="2393523005" lat="70.9904566" lon="27.3419441" version="2" timestamp="2018-04-25T15:37:51Z" changeset="58412312" uid="420980" user="NorNorth" />
	<node id="2393523007" lat="70.9909274" lon="27.3422917" version="2" timestamp="2018-04-25T15:37:51Z" changeset="58412312" uid="420980" user="NorNorth" />
	<node id="2393523022" lat="70.9902214" lon="27.3416254" version="2" timestamp="2018-04-25T15:37:51Z" changeset="58412312" uid="420980" user="NorNorth" />
	<node id="2393523058" lat="70.991477" lon="27.3425234" version="2" timestamp="2018-04-25T15:37:51Z" changeset="58412312" uid="420980" user="NorNorth" />
	<node id="2393523066" lat="70.9910647" lon="27.3424805" version="2" timestamp="2018-04-25T15:37:51Z" changeset="58412312" uid="420980" user="NorNorth" />
	<node id="2393523068" lat="70.991165" lon="27.3423775" version="2" timestamp="2018-04-25T15:37:52Z" changeset="58412312" uid="420980" user="NorNorth" />
	<node id="2393523247" lat="70.9903029" lon="27.3419012" version="2" timestamp="2018-04-25T15:37:52Z" changeset="58412312" uid="420980" user="NorNorth" />
	<node id="2393523278" lat="70.9912349" lon="27.3422273" version="2" timestamp="2018-04-25T15:37:52Z" changeset="58412312" uid="420980" user="NorNorth" />
	<node id="2393523297" lat="70.990522" lon="27.3418196" version="2" timestamp="2018-04-25T15:37:52Z" changeset="58412312" uid="420980" user="NorNorth" />
	<node id="2393523316" lat="70.9905779" lon="27.3418411" version="2" timestamp="2018-04-25T15:37:52Z" changeset="58412312" uid="420980" user="NorNorth" />
	<node id="2393523324" lat="70.9913093" lon="27.3423518" version="2" timestamp="2018-04-25T15:37:52Z" changeset="58412312" uid="420980" user="NorNorth" />
	<node id="2393523326" lat="70.9915889" lon="27.3426736" version="2" timestamp="2018-04-25T15:37:52Z" changeset="58412312" uid="420980" user="NorNorth" />
	<node id="2393523361" lat="70.9906618" lon="27.3419269" version="2" timestamp="2018-04-25T15:37:52Z" changeset="58412312" uid="420980" user="NorNorth" />
	<node id="2393523384" lat="70.991773" lon="27.3426136" version="2" timestamp="2018-04-25T15:37:53Z" changeset="58412312" uid="420980" user="NorNorth" />
	<node id="2393523579" lat="70.9906943" lon="27.3421157" version="2" timestamp="2018-04-25T15:37:53Z" changeset="58412312" uid="420980" user="NorNorth" />
	<node id="2393523740" lat="70.9907432" lon="27.342223" version="2" timestamp="2018-04-25T15:37:54Z" changeset="58412312" uid="420980" user="NorNorth" />
	<node id="2393523779" lat="70.9917915" lon="27.3428882" version="2" timestamp="2018-04-25T15:37:54Z" changeset="58412312" uid="420980" user="NorNorth" />
	<node id="2393522992" lat="70.9919128" lon="27.3430213" version="2" timestamp="2018-04-25T15:37:51Z" changeset="58412312" uid="420980" user="NorNorth" />
	<node id="2393522999" lat="70.9952472" lon="27.3459997" version="2" timestamp="2018-04-25T15:37:51Z" changeset="58412312" uid="420980" user="NorNorth" />
	<node id="2393523023" lat="70.9920571" lon="27.3430384" version="2" timestamp="2018-04-25T15:37:51Z" changeset="58412312" uid="420980" user="NorNorth" />
	<node id="2393523029" lat="70.9941491" lon="27.344416" version="2" timestamp="2018-04-25T15:37:51Z" changeset="58412312" uid="420980" user="NorNorth" />
	<node id="2393523082" lat="70.9936225" lon="27.3439826" version="2" timestamp="2018-04-25T15:37:52Z" changeset="58412312" uid="420980" user="NorNorth" />
	<node id="2393523166" lat="70.9964655" lon="27.3479566" version="2" timestamp="2018-04-25T15:37:52Z" changeset="58412312" uid="420980" user="NorNorth" />
	<node id="2393523194" lat="70.9932826" lon="27.3439869" version="2" timestamp="2018-04-25T15:37:52Z" changeset="58412312" uid="420980" user="NorNorth" />
	<node id="2393523240" lat="70.9947326" lon="27.3456821" version="2" timestamp="2018-04-25T15:37:52Z" changeset="58412312" uid="420980" user="NorNorth" />
	<node id="2393523311" lat="70.9930495" lon="27.3437251" version="2" timestamp="2018-04-25T15:37:52Z" changeset="58412312" uid="420980" user="NorNorth" />
	<node id="2393523314" lat="70.9928888" lon="27.3436822" version="2" timestamp="2018-04-25T15:37:52Z" changeset="58412312" uid="420980" user="NorNorth" />
	<node id="2393523430" lat="70.9925953" lon="27.3431886" version="2" timestamp="2018-04-25T15:37:53Z" changeset="58412312" uid="420980" user="NorNorth" />
	<node id="2393523505" lat="70.9927934" lon="27.3434504" version="2" timestamp="2018-04-25T15:37:53Z" changeset="58412312" uid="420980" user="NorNorth" />
	<node id="2393523508" lat="70.9931568" lon="27.3439439" version="2" timestamp="2018-04-25T15:37:53Z" changeset="58412312" uid="420980" user="NorNorth" />
	<node id="2393523530" lat="70.9962814" lon="27.3474802" version="2" timestamp="2018-04-25T15:37:53Z" changeset="58412312" uid="420980" user="NorNorth" />
	<node id="2393523600" lat="70.9935062" lon="27.3438581" version="2" timestamp="2018-04-25T15:37:53Z" changeset="58412312" uid="420980" user="NorNorth" />
	<node id="2393523608" lat="70.9938881" lon="27.3441542" version="2" timestamp="2018-04-25T15:37:53Z" changeset="58412312" uid="420980" user="NorNorth" />
	<node id="2393523684" lat="70.9957039" lon="27.346712" version="2" timestamp="2018-04-25T15:37:54Z" changeset="58412312" uid="420980" user="NorNorth" />
	<node id="2393523695" lat="70.9942549" lon="27.3449053" version="2" timestamp="2018-04-25T15:37:54Z" changeset="58412312" uid="420980" user="NorNorth" />
	<node id="2393523707" lat="70.9958971" lon="27.3469652" version="2" timestamp="2018-04-25T15:37:54Z" changeset="58412312" uid="420980" user="NorNorth" />
	<node id="2393523722" lat="70.9950586" lon="27.3459138" version="2" timestamp="2018-04-25T15:37:54Z" changeset="58412312" uid="420980" user="NorNorth" />
	<node id="2393523760" lat="70.992402" lon="27.3429998" version="2" timestamp="2018-04-25T15:37:54Z" changeset="58412312" uid="420980" user="NorNorth" />
	<node id="2393523761" lat="70.9944925" lon="27.3451843" version="2" timestamp="2018-04-25T15:37:54Z" changeset="58412312" uid="420980" user="NorNorth" />
	<node id="2393523762" lat="70.9923251" lon="27.34315" version="2" timestamp="2018-04-25T15:37:54Z" changeset="58412312" uid="420980" user="NorNorth" />
	<node id="2393523775" lat="70.9946183" lon="27.3454418" version="2" timestamp="2018-04-25T15:37:54Z" changeset="58412312" uid="420980" user="NorNorth" />
	<node id="2393523782" lat="70.9948978" lon="27.3458924" version="2" timestamp="2018-04-25T15:37:54Z" changeset="58412312" uid="420980" user="NorNorth" />
	<node id="2393522976" lat="70.997283" lon="27.349523" version="2" timestamp="2018-04-25T15:37:51Z" changeset="58412312" uid="420980" user="NorNorth" />
	<node id="2393523010" lat="70.9981807" lon="27.3539432" version="2" timestamp="2018-04-25T15:37:51Z" changeset="58412312" uid="420980" user="NorNorth" />
	<node id="2393523037" lat="70.9977686" lon="27.3518832" version="2" timestamp="2018-04-25T15:37:51Z" changeset="58412312" uid="420980" user="NorNorth" />
	<node id="2393523050" lat="70.9979966" lon="27.3530055" version="2" timestamp="2018-04-25T15:37:51Z" changeset="58412312" uid="420980" user="NorNorth" />
	<node id="2393523061" lat="70.9978943" lon="27.3525055" version="2" timestamp="2018-04-25T15:37:51Z" changeset="58412312" uid="420980" user="NorNorth" />
	<node id="2393523096" lat="70.9969871" lon="27.349111" version="2" timestamp="2018-04-25T15:37:52Z" changeset="58412312" uid="420980" user="NorNorth" />
	<node id="2393523107" lat="70.9969127" lon="27.3487505" version="2" timestamp="2018-04-25T15:37:52Z" changeset="58412312" uid="420980" user="NorNorth" />
	<node id="2393523141" lat="70.9982726" lon="27.3542823" version="2" timestamp="2018-04-25T15:37:52Z" changeset="58412312" uid="420980" user="NorNorth" />
	<node id="2393523202" lat="70.9981249" lon="27.3535463" version="2" timestamp="2018-04-25T15:37:52Z" changeset="58412312" uid="420980" user="NorNorth" />
	<node id="2393523335" lat="70.9971198" lon="27.3492183" version="2" timestamp="2018-04-25T15:37:52Z" changeset="58412312" uid="420980" user="NorNorth" />
	<node id="2393523355" lat="70.9974482" lon="27.3501624" version="2" timestamp="2018-04-25T15:37:52Z" changeset="58412312" uid="420980" user="NorNorth" />
	<node id="2393523381" lat="70.9967799" lon="27.3484072" version="2" timestamp="2018-04-25T15:37:53Z" changeset="58412312" uid="420980" user="NorNorth" />
	<node id="2393523440" lat="70.997779" lon="27.3514113" version="2" timestamp="2018-04-25T15:37:53Z" changeset="58412312" uid="420980" user="NorNorth" />
	<node id="2393523458" lat="70.9980561" lon="27.3532845" version="2" timestamp="2018-04-25T15:37:53Z" changeset="58412312" uid="420980" user="NorNorth" />
	<node id="2393523461" lat="70.9975904" lon="27.3505101" version="2" timestamp="2018-04-25T15:37:53Z" changeset="58412312" uid="420980" user="NorNorth" />
	<node id="2393523562" lat="70.9976673" lon="27.350789" version="2" timestamp="2018-04-25T15:37:53Z" changeset="58412312" uid="420980" user="NorNorth" />
	<node id="2393523607" lat="70.9977721" lon="27.3512396" version="2" timestamp="2018-04-25T15:37:53Z" changeset="58412312" uid="420980" user="NorNorth" />
	<node id="2393523021" lat="71.0024502" lon="27.3605479" version="2" timestamp="2018-04-25T15:37:51Z" changeset="58412312" uid="420980" user="NorNorth" />
	<node id="2393523033" lat="70.9991808" lon="27.357179" version="2" timestamp="2018-04-25T15:37:51Z" changeset="58412312" uid="420980" user="NorNorth" />
	<node id="2393523085" lat="70.9992671" lon="27.357355" version="2" timestamp="2018-04-25T15:37:52Z" changeset="58412312" uid="420980" user="NorNorth" />
	<node id="2393523124" lat="71.0022755" lon="27.3600973" version="2" timestamp="2018-04-25T15:37:52Z" changeset="58412312" uid="420980" user="NorNorth" />
	<node id="2393523218" lat="70.9994812" lon="27.3576511" version="2" timestamp="2018-04-25T15:37:52Z" changeset="58412312" uid="420980" user="NorNorth" />
	<node id="2393523357" lat="70.9990411" lon="27.3572005" version="2" timestamp="2018-04-25T15:37:52Z" changeset="58412312" uid="420980" user="NorNorth" />
	<node id="2393523360" lat="71.0021358" lon="27.3595823" version="2" timestamp="2018-04-25T15:37:52Z" changeset="58412312" uid="420980" user="NorNorth" />
	<node id="2393523368" lat="71.0001729" lon="27.3586382" version="2" timestamp="2018-04-25T15:37:52Z" changeset="58412312" uid="420980" user="NorNorth" />
	<node id="2393523375" lat="70.9996653" lon="27.3577627" version="2" timestamp="2018-04-25T15:37:52Z" changeset="58412312" uid="420980" user="NorNorth" />
	<node id="2393523385" lat="71.0019821" lon="27.3593677" version="2" timestamp="2018-04-25T15:37:53Z" changeset="58412312" uid="420980" user="NorNorth" />
	<node id="2393523395" lat="71.0024851" lon="27.3612345" version="2" timestamp="2018-04-25T15:37:53Z" changeset="58412312" uid="420980" user="NorNorth" />
	<node id="2393523396" lat="70.9988175" lon="27.3561276" version="2" timestamp="2018-04-25T15:37:53Z" changeset="58412312" uid="420980" user="NorNorth" />
	<node id="2393523426" lat="70.9988664" lon="27.3567928" version="2" timestamp="2018-04-25T15:37:53Z" changeset="58412312" uid="420980" user="NorNorth" />
	<node id="2393523429" lat="71.0025224" lon="27.3608097" version="2" timestamp="2018-04-25T15:37:53Z" changeset="58412312" uid="420980" user="NorNorth" />
	<node id="2393523472" lat="71.0017027" lon="27.3594321" version="2" timestamp="2018-04-25T15:37:53Z" changeset="58412312" uid="420980" user="NorNorth" />
	<node id="2393523486" lat="71.001286" lon="27.3595651" version="2" timestamp="2018-04-25T15:37:53Z" changeset="58412312" uid="420980" user="NorNorth" />
	<node id="2393523492" lat="71.000613" lon="27.3595179" version="2" timestamp="2018-04-25T15:37:53Z" changeset="58412312" uid="420980" user="NorNorth" />
	<node id="2393523536" lat="71.0008879" lon="27.3595866" version="2" timestamp="2018-04-25T15:37:53Z" changeset="58412312" uid="420980" user="NorNorth" />
	<node id="2393523537" lat="70.9984777" lon="27.3548659" version="2" timestamp="2018-04-25T15:37:53Z" changeset="58412312" uid="420980" user="NorNorth" />
	<node id="2393523540" lat="71.0010112" lon="27.3596252" version="2" timestamp="2018-04-25T15:37:53Z" changeset="58412312" uid="420980" user="NorNorth" />
	<node id="2393523577" lat="70.9986149" lon="27.3550547" version="2" timestamp="2018-04-25T15:37:53Z" changeset="58412312" uid="420980" user="NorNorth" />
	<node id="2393523585" lat="71.0004408" lon="27.3592433" version="2" timestamp="2018-04-25T15:37:53Z" changeset="58412312" uid="420980" user="NorNorth" />
	<node id="2393523596" lat="71.0007481" lon="27.3594579" version="2" timestamp="2018-04-25T15:37:53Z" changeset="58412312" uid="420980" user="NorNorth" />
	<node id="2393523696" lat="70.9987781" lon="27.3554453" version="2" timestamp="2018-04-25T15:37:54Z" changeset="58412312" uid="420980" user="NorNorth" />
	<node id="2393523753" lat="70.9997816" lon="27.3578442" version="2" timestamp="2018-04-25T15:37:54Z" changeset="58412312" uid="420980" user="NorNorth" />
	<node id="2393523776" lat="70.9999378" lon="27.3582777" version="2" timestamp="2018-04-25T15:37:54Z" changeset="58412312" uid="420980" user="NorNorth" />
	<node id="1698666567" lat="71.0033146" lon="27.3636063" version="3" timestamp="2018-04-25T15:37:46Z" changeset="58412312" uid="420980" user="NorNorth" />
	<node id="2393523049" lat="71.0037937" lon="27.3654445" version="2" timestamp="2018-04-25T15:37:51Z" changeset="58412312" uid="420980" user="NorNorth" />
	<node id="2393523123" lat="71.0028134" lon="27.3623289" version="2" timestamp="2018-04-25T15:37:52Z" changeset="58412312" uid="420980" user="NorNorth" />
	<node id="2393523183" lat="71.0046642" lon="27.3665775" version="2" timestamp="2018-04-25T15:37:52Z" changeset="58412312" uid="420980" user="NorNorth" />
	<node id="2393523201" lat="71.0042336" lon="27.3659381" version="2" timestamp="2018-04-25T15:37:52Z" changeset="58412312" uid="420980" user="NorNorth" />
	<node id="2393523270" lat="71.0049751" lon="27.3667385" version="2" timestamp="2018-04-25T15:37:52Z" changeset="58412312" uid="420980" user="NorNorth" />
	<node id="2393523373" lat="71.0040172" lon="27.3656806" version="2" timestamp="2018-04-25T15:37:52Z" changeset="58412312" uid="420980" user="NorNorth" />
	<node id="2393523379" lat="71.0030299" lon="27.3624791" version="2" timestamp="2018-04-25T15:37:52Z" changeset="58412312" uid="420980" user="NorNorth" />
	<node id="2393523407" lat="71.0036446" lon="27.3650326" version="2" timestamp="2018-04-25T15:37:53Z" changeset="58412312" uid="420980" user="NorNorth" />
	<node id="2393523408" lat="71.0034211" lon="27.3644961" version="2" timestamp="2018-04-25T15:37:53Z" changeset="58412312" uid="420980" user="NorNorth" />
	<node id="2393523467" lat="71.0024502" lon="27.361535" version="2" timestamp="2018-04-25T15:37:53Z" changeset="58412312" uid="420980" user="NorNorth" />
	<node id="2393523493" lat="71.003179" lon="27.3628482" version="2" timestamp="2018-04-25T15:37:53Z" changeset="58412312" uid="420980" user="NorNorth" />
	<node id="2393523531" lat="71.0024666" lon="27.3619255" version="2" timestamp="2018-04-25T15:37:53Z" changeset="58412312" uid="420980" user="NorNorth" />
	<node id="2393523630" lat="71.0026318" lon="27.3621358" version="2" timestamp="2018-04-25T15:37:54Z" changeset="58412312" uid="420980" user="NorNorth" />
	<node id="2393523666" lat="71.0045759" lon="27.3663672" version="2" timestamp="2018-04-25T15:37:54Z" changeset="58412312" uid="420980" user="NorNorth" />
	<node id="2393523724" lat="71.0032419" lon="27.363449" version="2" timestamp="2018-04-25T15:37:54Z" changeset="58412312" uid="420980" user="NorNorth" />
	<node id="2393523743" lat="71.0035258" lon="27.3647321" version="2" timestamp="2018-04-25T15:37:54Z" changeset="58412312" uid="420980" user="NorNorth" />
	<node id="2393523750" lat="71.0044407" lon="27.3661913" version="2" timestamp="2018-04-25T15:37:54Z" changeset="58412312" uid="420980" user="NorNorth" />
	<node id="2354584606" lat="71.0294369" lon="27.2987673" version="2" timestamp="2013-06-21T10:12:31Z" changeset="16641606" uid="1556391" user="relet" />
	<node id="2354584605" lat="71.0313097" lon="27.2901735" version="2" timestamp="2013-06-21T10:12:31Z" changeset="16641606" uid="1556391" user="relet" />
	<node id="1910137030" lat="71.0096965" lon="27.340296" version="1" timestamp="2012-09-11T16:20:50Z" changeset="13071568" uid="408257" user="awt" />
	<node id="1910137034" lat="71.0107749" lon="27.3414913" version="1" timestamp="2012-09-11T16:20:50Z" changeset="13071568" uid="408257" user="awt" />
	<node id="1910137036" lat="71.011429" lon="27.3401874" version="1" timestamp="2012-09-11T16:20:50Z" changeset="13071568" uid="408257" user="awt" />
	<node id="1910137039" lat="71.0119416" lon="27.3405133" version="1" timestamp="2012-09-11T16:20:50Z" changeset="13071568" uid="408257" user="awt" />
	<node id="1910137040" lat="71.0122421" lon="27.3401874" version="1" timestamp="2012-09-11T16:20:50Z" changeset="13071568" uid="408257" user="awt" />
	<node id="1910137026" lat="71.0086888" lon="27.3424148" version="1" timestamp="2012-09-11T16:20:49Z" changeset="13071568" uid="408257" user="awt" />
	<node id="1910137027" lat="71.0089363" lon="27.3444794" version="1" timestamp="2012-09-11T16:20:49Z" changeset="13071568" uid="408257" user="awt" />
	<node id="1910137028" lat="71.0094843" lon="27.3431211" version="1" timestamp="2012-09-11T16:20:49Z" changeset="13071568" uid="408257" user="awt" />
	<node id="1910137029" lat="71.0096081" lon="27.3436644" version="1" timestamp="2012-09-11T16:20:50Z" changeset="13071568" uid="408257" user="awt" />
	<node id="1910137031" lat="71.0097849" lon="27.3419259" version="1" timestamp="2012-09-11T16:20:50Z" changeset="13071568" uid="408257" user="awt" />
	<node id="1910137032" lat="71.0098379" lon="27.345077" version="1" timestamp="2012-09-11T16:20:50Z" changeset="13071568" uid="408257" user="awt" />
	<node id="1910137033" lat="71.0100147" lon="27.3426865" version="1" timestamp="2012-09-11T16:20:50Z" changeset="13071568" uid="408257" user="awt" />
	<node id="1910137035" lat="71.010881" lon="27.3438274" version="1" timestamp="2012-09-11T16:20:50Z" changeset="13071568" uid="408257" user="awt" />
	<node id="1910137038" lat="71.0117472" lon="27.3435014" version="1" timestamp="2012-09-11T16:20:50Z" changeset="13071568" uid="408257" user="awt" />
	<node id="1910137042" lat="71.0123128" lon="27.3421432" version="1" timestamp="2012-09-11T16:20:50Z" changeset="13071568" uid="408257" user="awt" />
	<node id="2354262738" lat="71.0055295" lon="27.3671427" version="4" timestamp="2022-03-27T22:14:33Z" changeset="118997722" uid="32112" user="SverigeFan" />
	<node id="2354267840" lat="71.0104626" lon="27.3662187" version="2" timestamp="2018-04-25T15:37:49Z" changeset="58412312" uid="420980" user="NorNorth" />
	<node id="2354267841" lat="71.0104051" lon="27.3658608" version="2" timestamp="2018-04-25T15:37:49Z" changeset="58412312" uid="420980" user="NorNorth" />
	<node id="2354267842" lat="71.0098473" lon="27.3657392" version="2" timestamp="2018-04-25T15:37:49Z" changeset="58412312" uid="420980" user="NorNorth" />
	<node id="2354267843" lat="71.0090998" lon="27.3650404" version="2" timestamp="2018-04-25T15:37:49Z" changeset="58412312" uid="420980" user="NorNorth" />
	<node id="2354267844" lat="71.0089922" lon="27.3654876" version="2" timestamp="2018-04-25T15:37:49Z" changeset="58412312" uid="420980" user="NorNorth" />
	<node id="2354267845" lat="71.0089404" lon="27.3655205" version="2" timestamp="2018-04-25T15:37:49Z" changeset="58412312" uid="420980" user="NorNorth" />
	<node id="2354267846" lat="71.0084828" lon="27.363945" version="2" timestamp="2018-04-25T15:37:49Z" changeset="58412312" uid="420980" user="NorNorth" />
	<node id="2354267847" lat="71.0081848" lon="27.3641943" version="2" timestamp="2018-04-25T15:37:49Z" changeset="58412312" uid="420980" user="NorNorth" />
	<node id="2354267848" lat="71.0080197" lon="27.3633506" version="2" timestamp="2018-04-25T15:37:49Z" changeset="58412312" uid="420980" user="NorNorth" />
	<node id="2354267849" lat="71.0079734" lon="27.3631818" version="2" timestamp="2018-04-25T15:37:49Z" changeset="58412312" uid="420980" user="NorNorth" />
	<node id="2354267850" lat="71.0078202" lon="27.3631394" version="2" timestamp="2018-04-25T15:37:49Z" changeset="58412312" uid="420980" user="NorNorth" />
	<node id="2354267851" lat="71.0078019" lon="27.3638608" version="2" timestamp="2018-04-25T15:37:49Z" changeset="58412312" uid="420980" user="NorNorth" />
	<node id="2354267852" lat="71.0072088" lon="27.3643916" version="2" timestamp="2018-04-25T15:37:49Z" changeset="58412312" uid="420980" user="NorNorth" />
	<node id="2354267853" lat="71.0067827" lon="27.3638633" version="2" timestamp="2018-04-25T15:37:49Z" changeset="58412312" uid="420980" user="NorNorth" />
	<node id="2354267854" lat="71.0068516" lon="27.3646725" version="2" timestamp="2018-04-25T15:37:49Z" changeset="58412312" uid="420980" user="NorNorth" />
	<node id="2354267855" lat="71.0065228" lon="27.3645586" version="2" timestamp="2018-04-25T15:37:49Z" changeset="58412312" uid="420980" user="NorNorth" />
	<node id="2354267856" lat="71.0063394" lon="27.364976" version="2" timestamp="2018-04-25T15:37:49Z" changeset="58412312" uid="420980" user="NorNorth" />
	<node id="2354267857" lat="71.0063122" lon="27.3655604" version="2" timestamp="2018-04-25T15:37:49Z" changeset="58412312" uid="420980" user="NorNorth" />
	<node id="2354267858" lat="71.0065432" lon="27.3659987" version="2" timestamp="2018-04-25T15:37:49Z" changeset="58412312" uid="420980" user="NorNorth" />
	<node id="2354267859" lat="71.0062647" lon="27.3661865" version="2" timestamp="2018-04-25T15:37:49Z" changeset="58412312" uid="420980" user="NorNorth" />
	<node id="2354267860" lat="71.0061899" lon="27.3657274" version="2" timestamp="2018-04-25T15:37:49Z" changeset="58412312" uid="420980" user="NorNorth" />
	<node id="2354267861" lat="71.0058682" lon="27.3660196" version="2" timestamp="2018-04-25T15:37:49Z" changeset="58412312" uid="420980" user="NorNorth" />
	<node id="2354267862" lat="71.0060648" lon="27.3664161" version="2" timestamp="2018-04-25T15:37:49Z" changeset="58412312" uid="420980" user="NorNorth" />
	<node id="2354267863" lat="71.0059318" lon="27.3668544" version="2" timestamp="2018-04-25T15:37:49Z" changeset="58412312" uid="420980" user="NorNorth" />
	<node id="2393522971" lat="71.0050972" lon="27.3670603" version="2" timestamp="2018-04-25T15:37:51Z" changeset="58412312" uid="420980" user="NorNorth" />
	<node id="5578641880" lat="71.0101881" lon="27.3671901" version="1" timestamp="2018-04-25T15:37:27Z" changeset="58412312" uid="420980" user="NorNorth" />
	<node id="5578641881" lat="71.010394" lon="27.3665464" version="1" timestamp="2018-04-25T15:37:27Z" changeset="58412312" uid="420980" user="NorNorth" />
	<node id="5578641882" lat="71.0103277" lon="27.3657417" version="1" timestamp="2018-04-25T15:37:27Z" changeset="58412312" uid="420980" user="NorNorth" />
	<node id="5578641883" lat="71.0093606" lon="27.3654199" version="1" timestamp="2018-04-25T15:37:27Z" changeset="58412312" uid="420980" user="NorNorth" />
	<node id="5578641884" lat="71.0090359" lon="27.3650765" version="1" timestamp="2018-04-25T15:37:27Z" changeset="58412312" uid="420980" user="NorNorth" />
	<node id="5578641885" lat="71.0088719" lon="27.3653662" version="1" timestamp="2018-04-25T15:37:27Z" changeset="58412312" uid="420980" user="NorNorth" />
	<node id="5578641886" lat="71.0086065" lon="27.3644435" version="1" timestamp="2018-04-25T15:37:27Z" changeset="58412312" uid="420980" user="NorNorth" />
	<node id="5578641887" lat="71.0085506" lon="27.3640358" version="1" timestamp="2018-04-25T15:37:27Z" changeset="58412312" uid="420980" user="NorNorth" />
	<node id="5578641888" lat="71.0080514" lon="27.3641646" version="1" timestamp="2018-04-25T15:37:27Z" changeset="58412312" uid="420980" user="NorNorth" />
	<node id="5578641889" lat="71.0080025" lon="27.3638213" version="1" timestamp="2018-04-25T15:37:27Z" changeset="58412312" uid="420980" user="NorNorth" />
	<node id="5578641890" lat="71.0077825" lon="27.3634136" version="1" timestamp="2018-04-25T15:37:27Z" changeset="58412312" uid="420980" user="NorNorth" />
	<node id="5578641891" lat="71.0060087" lon="27.3667502" version="1" timestamp="2018-04-25T15:37:27Z" changeset="58412312" uid="420980" user="NorNorth" />
	<node id="5578641892" lat="71.0067874" lon="27.3648512" version="1" timestamp="2018-04-25T15:37:27Z" changeset="58412312" uid="420980" user="NorNorth" />
	<node id="5578641893" lat="71.0069899" lon="27.364229" version="1" timestamp="2018-04-25T15:37:27Z" changeset="58412312" uid="420980" user="NorNorth" />
	<node id="5578641894" lat="71.0068537" lon="27.3638105" version="1" timestamp="2018-04-25T15:37:27Z" changeset="58412312" uid="420980" user="NorNorth" />
	<node id="5578641895" lat="71.0068083" lon="27.3642182" version="1" timestamp="2018-04-25T15:37:27Z" changeset="58412312" uid="420980" user="NorNorth" />
	<node id="5578641896" lat="71.0064277" lon="27.3663854" version="1" timestamp="2018-04-25T15:37:27Z" changeset="58412312" uid="420980" user="NorNorth" />
	<node id="5578641897" lat="71.0058655" lon="27.3661816" version="1" timestamp="2018-04-25T15:37:27Z" changeset="58412312" uid="420980" user="NorNorth" />
	<node id="9611734748" lat="71.0056211" lon="27.3669648" version="1" timestamp="2022-03-27T22:14:33Z" changeset="118997722" uid="32112" user="SverigeFan" />
	<node id="2354267832" lat="71.011402" lon="27.3735418" version="2" timestamp="2018-04-25T15:37:49Z" changeset="58412312" uid="420980" user="NorNorth" />
	<node id="2354267834" lat="71.0110407" lon="27.3724951" version="2" timestamp="2018-04-25T15:37:49Z" changeset="58412312" uid="420980" user="NorNorth" />
	<node id="2354267835" lat="71.0109278" lon="27.3717707" version="2" timestamp="2018-04-25T15:37:49Z" changeset="58412312" uid="420980" user="NorNorth" />
	<node id="2354267836" lat="71.010795" lon="27.3713208" version="2" timestamp="2018-04-25T15:37:49Z" changeset="58412312" uid="420980" user="NorNorth" />
	<node id="2354267837" lat="71.010295" lon="27.3715063" version="2" timestamp="2018-04-25T15:37:49Z" changeset="58412312" uid="420980" user="NorNorth" />
	<node id="2354267838" lat="71.0100547" lon="27.3712999" version="2" timestamp="2018-04-25T15:37:49Z" changeset="58412312" uid="420980" user="NorNorth" />
	<node id="2354267839" lat="71.0097133" lon="27.3692437" version="3" timestamp="2022-03-27T22:14:33Z" changeset="118997722" uid="32112" user="SverigeFan" />
	<node id="5578641875" lat="71.0099472" lon="27.3701727" version="1" timestamp="2018-04-25T15:37:26Z" changeset="58412312" uid="420980" user="NorNorth" />
	<node id="5578641876" lat="71.0097787" lon="27.3696671" version="2" timestamp="2022-03-27T22:14:33Z" changeset="118997722" uid="32112" user="SverigeFan" />
	<node id="5578641877" lat="71.0097604" lon="27.36844" version="2" timestamp="2022-03-27T22:14:33Z" changeset="118997722" uid="32112" user="SverigeFan" />
	<node id="5578641878" lat="71.009818" lon="27.3681664" version="1" timestamp="2018-04-25T15:37:27Z" changeset="58412312" uid="420980" user="NorNorth" />
	<node id="5578641879" lat="71.0099716" lon="27.3680055" version="1" timestamp="2018-04-25T15:37:27Z" changeset="58412312" uid="420980" user="NorNorth" />
	<node id="9611725408" lat="71.0099952" lon="27.3710901" version="1" timestamp="2022-03-27T22:14:33Z" changeset="118997722" uid="32112" user="SverigeFan" />
	<node id="9611725409" lat="71.0099498" lon="27.3705965" version="1" timestamp="2022-03-27T22:14:33Z" changeset="118997722" uid="32112" user="SverigeFan" />
	<node id="9611725410" lat="71.0099009" lon="27.3699769" version="1" timestamp="2022-03-27T22:14:33Z" changeset="118997722" uid="32112" user="SverigeFan" />
	<node id="9611725411" lat="71.0098232" lon="27.3698723" version="1" timestamp="2022-03-27T22:14:33Z" changeset="118997722" uid="32112" user="SverigeFan" />
	<node id="9611725412" lat="71.0097019" lon="27.3689362" version="1" timestamp="2022-03-27T22:14:33Z" changeset="118997722" uid="32112" user="SverigeFan" />
	<node id="2354267829" lat="71.0130555" lon="27.372611" version="2" timestamp="2018-04-25T15:37:48Z" changeset="58412312" uid="420980" user="NorNorth" />
	<node id="2354267830" lat="71.012545" lon="27.3716956" version="2" timestamp="2018-04-25T15:37:49Z" changeset="58412312" uid="420980" user="NorNorth" />
	<node id="2354267831" lat="71.0122997" lon="27.3729252" version="2" timestamp="2018-04-25T15:37:49Z" changeset="58412312" uid="420980" user="NorNorth" />
	<node id="2354267833" lat="71.0119582" lon="27.3735543" version="2" timestamp="2018-04-25T15:37:49Z" changeset="58412312" uid="420980" user="NorNorth" />
	<node id="5578641870" lat="71.0135533" lon="27.3739385" version="1" timestamp="2018-04-25T15:37:26Z" changeset="58412312" uid="420980" user="NorNorth" />
	<node id="5578641871" lat="71.0133124" lon="27.3731446" version="1" timestamp="2018-04-25T15:37:26Z" changeset="58412312" uid="420980" user="NorNorth" />
	<node id="5578641872" lat="71.0128691" lon="27.3724258" version="1" timestamp="2018-04-25T15:37:26Z" changeset="58412312" uid="420980" user="NorNorth" />
	<node id="5578641873" lat="71.0124397" lon="27.3718786" version="1" timestamp="2018-04-25T15:37:26Z" changeset="58412312" uid="420980" user="NorNorth" />
	<node id="5578641874" lat="71.0120837" lon="27.3733699" version="1" timestamp="2018-04-25T15:37:26Z" changeset="58412312" uid="420980" user="NorNorth" />
	<node id="2354267827" lat="71.0147491" lon="27.3790322" version="3" timestamp="2018-04-25T15:37:48Z" changeset="58412312" uid="420980" user="NorNorth" />
	<node id="2354267828" lat="71.0143196" lon="27.3761677" version="3" timestamp="2018-04-25T15:37:48Z" changeset="58412312" uid="420980" user="NorNorth" />
	<node id="2393523125" lat="71.0149511" lon="27.3788859" version="3" timestamp="2018-04-25T15:37:52Z" changeset="58412312" uid="420980" user="NorNorth" />
	<node id="2516767223" lat="71.0146474" lon="27.3787881" version="3" timestamp="2018-08-11T16:23:53Z" changeset="61569218" uid="32112" user="SverigeFan" />
	<node id="2516767225" lat="71.0145576" lon="27.3783037" version="3" timestamp="2018-08-11T16:23:53Z" changeset="61569218" uid="32112" user="SverigeFan" />
	<node id="2516767226" lat="71.014455" lon="27.3776482" version="3" timestamp="2018-08-11T16:23:53Z" changeset="61569218" uid="32112" user="SverigeFan" />
	<node id="2516767228" lat="71.0143898" lon="27.3766289" version="3" timestamp="2018-08-11T16:23:53Z" changeset="61569218" uid="32112" user="SverigeFan" />
	<node id="2516767229" lat="71.0138056" lon="27.3748102" version="3" timestamp="2018-08-11T16:23:53Z" changeset="61569218" uid="32112" user="SverigeFan" />
	<node id="5578641869" lat="71.0139232" lon="27.3753923" version="2" timestamp="2018-08-11T16:24:00Z" changeset="61569218" uid="32112" user="SverigeFan" />
	<node id="5825469316" lat="71.0141152" lon="27.3762238" version="1" timestamp="2018-08-11T16:23:38Z" changeset="61569218" uid="32112" user="SverigeFan" />
	<node id="5825469317" lat="71.0140018" lon="27.3759234" version="1" timestamp="2018-08-11T16:23:38Z" changeset="61569218" uid="32112" user="SverigeFan" />
	<node id="2354282754" lat="71.0114765" lon="27.3841504" version="2" timestamp="2013-06-20T23:02:51Z" changeset="16637262" uid="1556391" user="relet" />
	<node id="2354283961" lat="71.0112497" lon="27.3873814" version="1" timestamp="2013-06-20T23:02:51Z" changeset="16637262" uid="1556391" user="relet" />
	<node id="2354283963" lat="71.0114847" lon="27.3855695" version="1" timestamp="2013-06-20T23:02:51Z" changeset="16637262" uid="1556391" user="relet" />
	<node id="2354282773" lat="71.0092671" lon="27.3923428" version="2" timestamp="2013-06-20T23:02:51Z" changeset="16637262" uid="1556391" user="relet" />
	<node id="2354283958" lat="71.0100456" lon="27.3921926" version="1" timestamp="2013-06-20T23:02:51Z" changeset="16637262" uid="1556391" user="relet" />
	<node id="2354283960" lat="71.0107055" lon="27.3897142" version="1" timestamp="2013-06-20T23:02:51Z" changeset="16637262" uid="1556391" user="relet" />
	<node id="2354584935" lat="71.016803" lon="27.405483" version="1" timestamp="2013-06-21T10:13:41Z" changeset="16641623" uid="1556391" user="relet" />
	<node id="2354584936" lat="71.0181733" lon="27.4023254" version="2" timestamp="2013-06-21T10:14:12Z" changeset="16641627" uid="1556391" user="relet" />
	<node id="2354286422" lat="71.010813" lon="27.5047742" version="1" timestamp="2013-06-20T23:04:58Z" changeset="16637286" uid="1556391" user="relet" />
	<node id="2354286424" lat="71.0110957" lon="27.5049136" version="1" timestamp="2013-06-20T23:04:58Z" changeset="16637286" uid="1556391" user="relet" />
	<node id="2354285060" lat="71.011183" lon="27.5057076" version="2" timestamp="2013-06-20T23:04:58Z" changeset="16637286" uid="1556391" user="relet" />
	<node id="2354285066" lat="71.011463" lon="27.5083694" version="2" timestamp="2013-06-20T23:04:58Z" changeset="16637286" uid="1556391" user="relet" />
	<node id="2354285073" lat="71.0104534" lon="27.506995" version="2" timestamp="2013-06-20T23:04:58Z" changeset="16637286" uid="1556391" user="relet" />
	<node id="2354286416" lat="71.010792" lon="27.5097845" version="1" timestamp="2013-06-20T23:04:58Z" changeset="16637286" uid="1556391" user="relet" />
	<node id="2354286418" lat="71.0102369" lon="27.5088082" version="1" timestamp="2013-06-20T23:04:58Z" changeset="16637286" uid="1556391" user="relet" />
	<node id="2354286420" lat="71.0105895" lon="27.5055252" version="1" timestamp="2013-06-20T23:04:58Z" changeset="16637286" uid="1556391" user="relet" />
	<node id="2354286426" lat="71.0111633" lon="27.5091937" version="1" timestamp="2013-06-20T23:04:58Z" changeset="16637286" uid="1556391" user="relet" />
	<node id="2354245092" lat="71.0287185" lon="27.5285205" version="2" timestamp="2013-06-20T22:46:05Z" changeset="16637102" uid="1556391" user="relet" />
	<node id="2354245099" lat="71.027564" lon="27.5315353" version="2" timestamp="2013-06-20T22:46:05Z" changeset="16637102" uid="1556391" user="relet" />
	<node id="2354246351" lat="71.0285023" lon="27.5282201" version="1" timestamp="2013-06-20T22:46:05Z" changeset="16637102" uid="1556391" user="relet" />
	<node id="2354246353" lat="71.0281081" lon="27.528896" version="1" timestamp="2013-06-20T22:46:05Z" changeset="16637102" uid="1556391" user="relet" />
	<node id="2354246355" lat="71.0280349" lon="27.5294754" version="1" timestamp="2013-06-20T22:46:05Z" changeset="16637102" uid="1556391" user="relet" />
	<node id="2354246357" lat="71.0277419" lon="27.5303766" version="1" timestamp="2013-06-20T22:46:05Z" changeset="16637102" uid="1556391" user="relet" />
	<node id="2354246369" lat="71.0284116" lon="27.5315353" version="1" timestamp="2013-06-20T22:46:05Z" changeset="16637102" uid="1556391" user="relet" />
	<node id="2354246371" lat="71.0288441" lon="27.5297007" version="1" timestamp="2013-06-20T22:46:05Z" changeset="16637102" uid="1556391" user="relet" />
	<node id="2354245093" lat="71.0279512" lon="27.5320396" version="2" timestamp="2013-06-20T22:46:05Z" changeset="16637102" uid="1556391" user="relet" />
	<node id="2354246359" lat="71.0274663" lon="27.5330696" version="1" timestamp="2013-06-20T22:46:05Z" changeset="16637102" uid="1556391" user="relet" />
	<node id="2354246361" lat="71.02755" lon="27.5351939" version="1" timestamp="2013-06-20T22:46:05Z" changeset="16637102" uid="1556391" user="relet" />
	<node id="2354246363" lat="71.0278361" lon="27.5357303" version="1" timestamp="2013-06-20T22:46:05Z" changeset="16637102" uid="1556391" user="relet" />
	<node id="2354246365" lat="71.0280035" lon="27.5352261" version="1" timestamp="2013-06-20T22:46:05Z" changeset="16637102" uid="1556391" user="relet" />
	<node id="2354246367" lat="71.0280872" lon="27.5338957" version="1" timestamp="2013-06-20T22:46:05Z" changeset="16637102" uid="1556391" user="relet" />
	<node id="347464254" lat="71.0306654" lon="27.6076233" version="2" timestamp="2010-12-29T10:27:08Z" changeset="6796802" uid="38695" user="Kappler" />
	<node id="347464257" lat="71.0286601" lon="27.6069624" version="2" timestamp="2010-12-29T10:27:03Z" changeset="6796802" uid="38695" user="Kappler" />
	<node id="347464262" lat="71.0288749" lon="27.6109279" version="2" timestamp="2010-12-29T10:27:13Z" changeset="6796802" uid="38695" user="Kappler" />
	<node id="347464263" lat="71.0303073" lon="27.6197403" version="2" timestamp="2010-12-29T10:27:17Z" changeset="6796802" uid="38695" user="Kappler" />
	<node id="347464264" lat="71.0305222" lon="27.628773" version="2" timestamp="2010-12-29T10:27:03Z" changeset="6796802" uid="38695" user="Kappler" />
	<node id="347464253" lat="71.0325273" lon="27.613792" version="2" timestamp="2010-12-29T10:27:01Z" changeset="6796802" uid="38695" user="Kappler" />
	<node id="347464252" lat="71.0338878" lon="27.6237059" version="2" timestamp="2010-12-29T10:27:18Z" changeset="6796802" uid="38695" user="Kappler" />
	<node id="347464265" lat="71.0325273" lon="27.6314167" version="2" timestamp="2010-12-29T10:27:07Z" changeset="6796802" uid="38695" user="Kappler" />
	<node id="347464266" lat="71.0338878" lon="27.6303152" version="2" timestamp="2010-12-29T10:27:15Z" changeset="6796802" uid="38695" user="Kappler" />
	<node id="347464454" lat="71.0893964" lon="27.6427313" version="3" timestamp="2013-07-13T11:43:04Z" changeset="16935998" uid="32112" user="SverigeFan" />
	<node id="347464456" lat="71.0874721" lon="27.6417219" version="3" timestamp="2013-07-13T11:43:04Z" changeset="16935998" uid="32112" user="SverigeFan" />
	<node id="2383167038" lat="71.0877065" lon="27.6416878" version="1" timestamp="2013-07-13T11:43:00Z" changeset="16935998" uid="32112" user="SverigeFan" />
	<node id="2383167039" lat="71.0878439" lon="27.6413765" version="1" timestamp="2013-07-13T11:43:00Z" changeset="16935998" uid="32112" user="SverigeFan" />
	<node id="2383167050" lat="71.0886453" lon="27.6414614" version="1" timestamp="2013-07-13T11:43:00Z" changeset="16935998" uid="32112" user="SverigeFan" />
	<node id="2383167052" lat="71.0891304" lon="27.6418788" version="1" timestamp="2013-07-13T11:43:00Z" changeset="16935998" uid="32112" user="SverigeFan" />
	<node id="347464452" lat="71.089937" lon="27.6474479" version="3" timestamp="2013-07-13T11:43:04Z" changeset="16935998" uid="32112" user="SverigeFan" />
	<node id="347464458" lat="71.0862196" lon="27.6480605" version="2" timestamp="2010-12-29T10:27:17Z" changeset="6796802" uid="38695" user="Kappler" />
	<node id="2383167004" lat="71.0861837" lon="27.6485114" version="1" timestamp="2013-07-13T11:42:59Z" changeset="16935998" uid="32112" user="SverigeFan" />
	<node id="2383167005" lat="71.0861854" lon="27.6487607" version="1" timestamp="2013-07-13T11:42:59Z" changeset="16935998" uid="32112" user="SverigeFan" />
	<node id="2383167007" lat="71.0862711" lon="27.64901" version="1" timestamp="2013-07-13T11:43:00Z" changeset="16935998" uid="32112" user="SverigeFan" />
	<node id="2383167011" lat="71.0864328" lon="27.6489947" version="1" timestamp="2013-07-13T11:43:00Z" changeset="16935998" uid="32112" user="SverigeFan" />
	<node id="2383167013" lat="71.0865532" lon="27.6488624" version="1" timestamp="2013-07-13T11:43:00Z" changeset="16935998" uid="32112" user="SverigeFan" />
	<node id="2383167016" lat="71.086761" lon="27.6486742" version="1" timestamp="2013-07-13T11:43:00Z" changeset="16935998" uid="32112" user="SverigeFan" />
	<node id="2383167020" lat="71.0868588" lon="27.643244" version="1" timestamp="2013-07-13T11:43:00Z" changeset="16935998" uid="32112" user="SverigeFan" />
	<node id="2383167023" lat="71.0869589" lon="27.6487658" version="1" timestamp="2013-07-13T11:43:00Z" changeset="16935998" uid="32112" user="SverigeFan" />
	<node id="2383167025" lat="71.0871304" lon="27.6491118" version="1" timestamp="2013-07-13T11:43:00Z" changeset="16935998" uid="32112" user="SverigeFan" />
	<node id="2383167058" lat="71.0894009" lon="27.6435482" version="1" timestamp="2013-07-13T11:43:00Z" changeset="16935998" uid="32112" user="SverigeFan" />
	<node id="2383167059" lat="71.0894615" lon="27.6442534" version="1" timestamp="2013-07-13T11:43:00Z" changeset="16935998" uid="32112" user="SverigeFan" />
	<node id="2383167061" lat="71.0895249" lon="27.6489998" version="1" timestamp="2013-07-13T11:43:00Z" changeset="16935998" uid="32112" user="SverigeFan" />
	<node id="2383167062" lat="71.08983" lon="27.6450017" version="1" timestamp="2013-07-13T11:43:00Z" changeset="16935998" uid="32112" user="SverigeFan" />
	<node id="2383167063" lat="71.0898766" lon="27.6463113" version="1" timestamp="2013-07-13T11:43:00Z" changeset="16935998" uid="32112" user="SverigeFan" />
	<node id="347464461" lat="71.0891205" lon="27.6533823" version="3" timestamp="2013-07-13T11:43:04Z" changeset="16935998" uid="32112" user="SverigeFan" />
	<node id="2383167027" lat="71.0872425" lon="27.6496918" version="1" timestamp="2013-07-13T11:43:00Z" changeset="16935998" uid="32112" user="SverigeFan" />
	<node id="2383167034" lat="71.087348" lon="27.6498118" version="1" timestamp="2013-07-13T11:43:00Z" changeset="16935998" uid="32112" user="SverigeFan" />
	<node id="2383167040" lat="71.0878593" lon="27.650394" version="1" timestamp="2013-07-13T11:43:00Z" changeset="16935998" uid="32112" user="SverigeFan" />
	<node id="2383167042" lat="71.0879352" lon="27.6517576" version="1" timestamp="2013-07-13T11:43:00Z" changeset="16935998" uid="32112" user="SverigeFan" />
	<node id="2383167043" lat="71.0879418" lon="27.6514319" version="1" timestamp="2013-07-13T11:43:00Z" changeset="16935998" uid="32112" user="SverigeFan" />
	<node id="2383167045" lat="71.087988" lon="27.6509333" version="1" timestamp="2013-07-13T11:43:00Z" changeset="16935998" uid="32112" user="SverigeFan" />
	<node id="2383167047" lat="71.0880572" lon="27.6527956" version="1" timestamp="2013-07-13T11:43:00Z" changeset="16935998" uid="32112" user="SverigeFan" />
	<node id="2383167049" lat="71.0882188" lon="27.6532739" version="1" timestamp="2013-07-13T11:43:00Z" changeset="16935998" uid="32112" user="SverigeFan" />
	<node id="2383167051" lat="71.0888323" lon="27.6534265" version="1" timestamp="2013-07-13T11:43:00Z" changeset="16935998" uid="32112" user="SverigeFan" />
	<node id="2383167053" lat="71.0892644" lon="27.6509944" version="1" timestamp="2013-07-13T11:43:00Z" changeset="16935998" uid="32112" user="SverigeFan" />
	<node id="2383167054" lat="71.0893336" lon="27.6530194" version="1" timestamp="2013-07-13T11:43:00Z" changeset="16935998" uid="32112" user="SverigeFan" />
	<node id="2383167056" lat="71.0893732" lon="27.6521239" version="1" timestamp="2013-07-13T11:43:00Z" changeset="16935998" uid="32112" user="SverigeFan" />
	<node id="2383167060" lat="71.0894919" lon="27.6499055" version="1" timestamp="2013-07-13T11:43:00Z" changeset="16935998" uid="32112" user="SverigeFan" />
	<way id="31252778" version="3" timestamp="2018-05-02T17:08:55Z" changeset="58620907" uid="3497659" user="NKA">
		<tag k="name" v="Bjørnvikvannan" />
		<tag k="name:no" v="Bjørnvikvannan" />
		<tag k="natural" v="water" />
		<tag k="source" v="Kartverket" />
		<tag k="ssr:stedsnr" v="930493" />
		<nd ref="347464252" />
		<nd ref="347464266" />
		<nd ref="347464265" />
		<nd ref="347464264" />
		<nd ref="347464263" />
		<nd ref="347464262" />
		<nd ref="347464257" />
		<nd ref="347464254" />
		<nd ref="347464253" />
		<nd ref="347464252" />
	</way>
	<way id="31252797" version="4" timestamp="2018-05-02T17:08:56Z" changeset="58620907" uid="3497659" user="NKA">
		<tag k="name" v="Sandfjordvannet" />
		<tag k="name:no" v="Sandfjordvannet" />
		<tag k="natural" v="water" />
		<tag k="source" v="Kartverket" />
		<tag k="ssr:stedsnr" v="444423" />
		<nd ref="347464452" />
		<nd ref="2383167061" />
		<nd ref="2383167060" />
		<nd ref="2383167053" />
		<nd ref="2383167056" />
		<nd ref="2383167054" />
		<nd ref="347464461" />
		<nd ref="2383167051" />
		<nd ref="2383167049" />
		<nd ref="2383167047" />
		<nd ref="2383167042" />
		<nd ref="2383167043" />
		<nd ref="2383167045" />
		<nd ref="2383167040" />
		<nd ref="2383167034" />
		<nd ref="2383167027" />
		<nd ref="2383167025" />
		<nd ref="2383167023" />
		<nd ref="2383167016" />
		<nd ref="2383167013" />
		<nd ref="2383167011" />
		<nd ref="2383167007" />
		<nd ref="2383167005" />
		<nd ref="2383167004" />
		<nd ref="347464458" />
		<nd ref="2383167020" />
		<nd ref="347464456" />
		<nd ref="2383167038" />
		<nd ref="2383167039" />
		<nd ref="2383167050" />
		<nd ref="2383167052" />
		<nd ref="347464454" />
		<nd ref="2383167058" />
		<nd ref="2383167059" />
		<nd ref="2383167062" />
		<nd ref="2383167063" />
		<nd ref="347464452" />
	</way>
	<way id="226650699" version="4" timestamp="2018-05-02T17:09:20Z" changeset="58620907" uid="3497659" user="NKA">
		<tag k="name" v="Bjørnvikskjæret" />
		<tag k="name:no" v="Bjørnvikskjæret" />
		<tag k="natural" v="rock" />
		<tag k="source" v="Kartverket" />
		<tag k="ssr:stedsnr" v="566483" />
		<nd ref="2354245092" />
		<nd ref="2354246371" />
		<nd ref="2354246369" />
		<nd ref="2354245093" />
		<nd ref="2354246367" />
		<nd ref="2354246365" />
		<nd ref="2354246363" />
		<nd ref="2354246361" />
		<nd ref="2354246359" />
		<nd ref="2354245099" />
		<nd ref="2354246357" />
		<nd ref="2354246355" />
		<nd ref="2354246353" />
		<nd ref="2354246351" />
		<nd ref="2354245092" />
	</way>
	<way id="226654721" version="8" timestamp="2022-03-27T22:14:33Z" changeset="118997722" uid="32112" user="SverigeFan">
		<tag k="name" v="Mollvikelva" />
		<tag k="name:no" v="Mollvikelva" />
		<tag k="source" v="Kartverket" />
		<tag k="ssr:stedsnr" v="566497" />
		<tag k="waterway" v="river" />
		<nd ref="1910133761" />
		<nd ref="2393523549" />
		<nd ref="2393523439" />
		<nd ref="2393523286" />
		<nd ref="2393523322" />
		<nd ref="2393523605" />
		<nd ref="2393523073" />
		<nd ref="2393522995" />
		<nd ref="2393523494" />
		<nd ref="2393523182" />
		<nd ref="2393523561" />
		<nd ref="2393523104" />
		<nd ref="2393523159" />
		<nd ref="2393522978" />
		<nd ref="2393523116" />
		<nd ref="2393523766" />
		<nd ref="2393523022" />
		<nd ref="2393523247" />
		<nd ref="2393522994" />
		<nd ref="2393523005" />
		<nd ref="2393523297" />
		<nd ref="2393523316" />
		<nd ref="2393523361" />
		<nd ref="2393523579" />
		<nd ref="2393523740" />
		<nd ref="2393523007" />
		<nd ref="2393523066" />
		<nd ref="2393523068" />
		<nd ref="2393523278" />
		<nd ref="2393523324" />
		<nd ref="2393522993" />
		<nd ref="2393523058" />
		<nd ref="2393523326" />
		<nd ref="2393523003" />
		<nd ref="2393523384" />
		<nd ref="2393523779" />
		<nd ref="2393522992" />
		<nd ref="2393523023" />
		<nd ref="2393523762" />
		<nd ref="2393523760" />
		<nd ref="2393523430" />
		<nd ref="2393523505" />
		<nd ref="2393523314" />
		<nd ref="2393523311" />
		<nd ref="2393523508" />
		<nd ref="2393523194" />
		<nd ref="2393523600" />
		<nd ref="2393523082" />
		<nd ref="2393523608" />
		<nd ref="2393523029" />
		<nd ref="2393523695" />
		<nd ref="2393523761" />
		<nd ref="2393523775" />
		<nd ref="2393523240" />
		<nd ref="2393523782" />
		<nd ref="2393523722" />
		<nd ref="2393522999" />
		<nd ref="2393523684" />
		<nd ref="2393523707" />
		<nd ref="2393523530" />
		<nd ref="2393523166" />
		<nd ref="2393523381" />
		<nd ref="2393523107" />
		<nd ref="2393523096" />
		<nd ref="2393523335" />
		<nd ref="2393522976" />
		<nd ref="2393523355" />
		<nd ref="2393523461" />
		<nd ref="2393523562" />
		<nd ref="2393523607" />
		<nd ref="2393523440" />
		<nd ref="2393523037" />
		<nd ref="2393523061" />
		<nd ref="2393523050" />
		<nd ref="2393523458" />
		<nd ref="2393523202" />
		<nd ref="2393523010" />
		<nd ref="2393523141" />
		<nd ref="2393523537" />
		<nd ref="2393523577" />
		<nd ref="2393523696" />
		<nd ref="2393523396" />
		<nd ref="2393523426" />
		<nd ref="2393523357" />
		<nd ref="2393523033" />
		<nd ref="2393523085" />
		<nd ref="2393523218" />
		<nd ref="2393523375" />
		<nd ref="2393523753" />
		<nd ref="2393523776" />
		<nd ref="2393523368" />
		<nd ref="2393523585" />
		<nd ref="2393523492" />
		<nd ref="2393523596" />
		<nd ref="2393523536" />
		<nd ref="2393523540" />
		<nd ref="2393523486" />
		<nd ref="2393523472" />
		<nd ref="2393523385" />
		<nd ref="2393523360" />
		<nd ref="2393523124" />
		<nd ref="2393523021" />
		<nd ref="2393523429" />
		<nd ref="2393523395" />
		<nd ref="2393523467" />
		<nd ref="2393523531" />
		<nd ref="2393523630" />
		<nd ref="2393523123" />
		<nd ref="2393523379" />
		<nd ref="2393523493" />
		<nd ref="2393523724" />
		<nd ref="1698666567" />
		<nd ref="2393523408" />
		<nd ref="2393523743" />
		<nd ref="2393523407" />
		<nd ref="2393523049" />
		<nd ref="2393523373" />
		<nd ref="2393523201" />
		<nd ref="2393523750" />
		<nd ref="2393523666" />
		<nd ref="2393523183" />
		<nd ref="2393523270" />
		<nd ref="2393522971" />
		<nd ref="2354262738" />
		<nd ref="9611734748" />
		<nd ref="2354267863" />
		<nd ref="5578641891" />
		<nd ref="2354267862" />
		<nd ref="5578641897" />
		<nd ref="2354267861" />
		<nd ref="2354267860" />
		<nd ref="2354267859" />
		<nd ref="5578641896" />
		<nd ref="2354267858" />
		<nd ref="2354267857" />
		<nd ref="2354267856" />
		<nd ref="2354267855" />
		<nd ref="5578641892" />
		<nd ref="2354267854" />
		<nd ref="5578641895" />
		<nd ref="2354267853" />
		<nd ref="5578641894" />
		<nd ref="5578641893" />
		<nd ref="2354267852" />
		<nd ref="2354267851" />
		<nd ref="5578641890" />
		<nd ref="2354267850" />
		<nd ref="2354267849" />
		<nd ref="2354267848" />
		<nd ref="5578641889" />
		<nd ref="5578641888" />
		<nd ref="2354267847" />
		<nd ref="2354267846" />
		<nd ref="5578641887" />
		<nd ref="5578641886" />
		<nd ref="5578641885" />
		<nd ref="2354267845" />
		<nd ref="2354267844" />
		<nd ref="5578641884" />
		<nd ref="2354267843" />
		<nd ref="5578641883" />
		<nd ref="2354267842" />
		<nd ref="5578641882" />
		<nd ref="2354267841" />
		<nd ref="2354267840" />
		<nd ref="5578641881" />
		<nd ref="5578641880" />
		<nd ref="5578641879" />
		<nd ref="5578641878" />
		<nd ref="5578641877" />
		<nd ref="9611725412" />
		<nd ref="2354267839" />
		<nd ref="5578641876" />
		<nd ref="9611725411" />
		<nd ref="9611725410" />
		<nd ref="5578641875" />
		<nd ref="9611725409" />
		<nd ref="9611725408" />
		<nd ref="2354267838" />
		<nd ref="2354267837" />
		<nd ref="2354267836" />
		<nd ref="2354267835" />
		<nd ref="2354267834" />
		<nd ref="2354267832" />
		<nd ref="2354267833" />
		<nd ref="5578641874" />
		<nd ref="2354267831" />
		<nd ref="5578641873" />
		<nd ref="2354267830" />
		<nd ref="5578641872" />
		<nd ref="2354267829" />
		<nd ref="5578641871" />
		<nd ref="5578641870" />
		<nd ref="2516767229" />
		<nd ref="5578641869" />
		<nd ref="5825469317" />
		<nd ref="5825469316" />
		<nd ref="2354267828" />
		<nd ref="2516767228" />
		<nd ref="2516767226" />
		<nd ref="2516767225" />
		<nd ref="2516767223" />
		<nd ref="2354267827" />
		<nd ref="2393523125" />
	</way>
	<way id="226655841" version="3" timestamp="2018-05-02T17:09:20Z" changeset="58620907" uid="3497659" user="NKA">
		<tag k="name" v="Rubbeskardet" />
		<tag k="name:no" v="Rubbeskardet" />
		<tag k="natural" v="valley" />
		<tag k="source" v="Kartverket" />
		<tag k="ssr:stedsnr" v="870502" />
		<nd ref="2354282754" />
		<nd ref="2354283963" />
		<nd ref="2354283961" />
		<nd ref="2354283960" />
		<nd ref="2354283958" />
		<nd ref="2354282773" />
	</way>
	<way id="226656752" version="4" timestamp="2018-05-02T17:09:21Z" changeset="58620907" uid="3497659" user="NKA">
		<tag k="name" v="Avløysinga" />
		<tag k="name:no" v="Avløysinga" />
		<tag k="natural" v="rock" />
		<tag k="source" v="Kartverket" />
		<tag k="ssr:stedsnr" v="323510" />
		<nd ref="2354285060" />
		<nd ref="2354285066" />
		<nd ref="2354286426" />
		<nd ref="2354286416" />
		<nd ref="2354286418" />
		<nd ref="2354285073" />
		<nd ref="2354286420" />
		<nd ref="2354286422" />
		<nd ref="2354286424" />
		<nd ref="2354285060" />
	</way>
	<way id="226694746" version="2" timestamp="2018-05-02T17:09:21Z" changeset="58620907" uid="3497659" user="NKA">
		<tag k="name" v="Geailovággi" />
		<tag k="name:se" v="Geailovággi" />
		<tag k="natural" v="valley" />
		<tag k="source" v="Kartverket" />
		<tag k="ssr:stedsnr" v="384468" />
		<nd ref="2354584605" />
		<nd ref="2354584606" />
	</way>
	<way id="226694788" version="2" timestamp="2018-05-02T17:09:21Z" changeset="58620907" uid="3497659" user="NKA">
		<tag k="alt_name" v="Skjøtningberg, l" />
		<tag k="name" v="Lille Skjøtningberg" />
		<tag k="name:no" v="Lille Skjøtningberg" />
		<tag k="natural" v="valley" />
		<tag k="source" v="Kartverket" />
		<tag k="ssr:stedsnr" v="870484" />
		<nd ref="2354584935" />
		<nd ref="2354584936" />
	</way>
	<way id="936327860" version="1" timestamp="2021-04-28T12:04:47Z" changeset="103775027" uid="13196323" user="arnevidar">
		<tag k="name" v="Langholmskjæran" />
		<tag k="name:se" v="Ráigefeallá" />
		<tag k="natural" v="coastline" />
		<tag k="old_name:se" v="Raigefælla" />
		<tag k="place" v="islet" />
		<tag k="ssr:stedsnr" v="930648" />
		<nd ref="8676217446" />
		<nd ref="8676217241" />
		<nd ref="8676217420" />
		<nd ref="8676195108" />
		<nd ref="8676216982" />
		<nd ref="8676217163" />
		<nd ref="8676217346" />
		<nd ref="8676217522" />
		<nd ref="8676216905" />
		<nd ref="8676217084" />
		<nd ref="8676217267" />
		<nd ref="8676217444" />
		<nd ref="8676216832" />
		<nd ref="8676217007" />
		<nd ref="8676217188" />
		<nd ref="8676217368" />
		<nd ref="8676217545" />
		<nd ref="8676216928" />
		<nd ref="8676217107" />
		<nd ref="8676217291" />
		<nd ref="8676217466" />
		<nd ref="8676216853" />
		<nd ref="8676217027" />
		<nd ref="8676217211" />
		<nd ref="8676217389" />
		<nd ref="8676217566" />
		<nd ref="8676216947" />
		<nd ref="8676217130" />
		<nd ref="8676217312" />
		<nd ref="8676217488" />
		<nd ref="8676216872" />
		<nd ref="8676217048" />
		<nd ref="8676217231" />
		<nd ref="8676217410" />
		<nd ref="8676195095" />
		<nd ref="8676216970" />
		<nd ref="8676217151" />
		<nd ref="8676217334" />
		<nd ref="8676217511" />
		<nd ref="8676216895" />
		<nd ref="8676217074" />
		<nd ref="8676217257" />
		<nd ref="8676217434" />
		<nd ref="8676216823" />
		<nd ref="8676216999" />
		<nd ref="8676217179" />
		<nd ref="8676217360" />
		<nd ref="8676217446" />
	</way>
	<way id="936327867" version="1" timestamp="2021-04-28T12:04:47Z" changeset="103775027" uid="13196323" user="arnevidar">
		<tag k="name" v="Nordskjæran" />
		<tag k="name:se" v="Davvelásis" />
		<tag k="natural" v="coastline" />
		<tag k="old_name:se" v="Davvelasis" />
		<tag k="place" v="islet" />
		<tag k="ssr:stedsnr" v="505627" />
		<nd ref="8676217875" />
		<nd ref="8676217838" />
		<nd ref="8676217850" />
		<nd ref="8676217861" />
		<nd ref="8676217872" />
		<nd ref="8676217833" />
		<nd ref="8676217845" />
		<nd ref="8676217857" />
		<nd ref="8676217867" />
		<nd ref="8676217879" />
		<nd ref="8676217839" />
		<nd ref="8676217851" />
		<nd ref="8676217862" />
		<nd ref="8676217873" />
		<nd ref="8676217834" />
		<nd ref="8676217846" />
		<nd ref="8676217858" />
		<nd ref="8676217868" />
		<nd ref="8676217880" />
		<nd ref="8676217840" />
		<nd ref="8676217852" />
		<nd ref="8676217863" />
		<nd ref="8676217874" />
		<nd ref="8676217835" />
		<nd ref="8676217847" />
		<nd ref="8676217859" />
		<nd ref="8676217869" />
		<nd ref="8676217881" />
		<nd ref="8676217843" />
		<nd ref="8676217855" />
		<nd ref="8676217875" />
	</way>
	<way id="936672968" version="1" timestamp="2021-04-29T10:24:29Z" changeset="103836185" uid="13196323" user="arnevidar">
		<tag k="name" v="Leirbuktskjæret" />
		<tag k="natural" v="coastline" />
		<tag k="place" v="islet" />
		<tag k="ssr:stedsnr" v="880592" />
		<nd ref="8679225683" />
		<nd ref="8679225687" />
		<nd ref="8679225690" />
		<nd ref="8679225677" />
		<nd ref="8679225680" />
		<nd ref="8679225684" />
		<nd ref="8679225689" />
		<nd ref="8679225692" />
		<nd ref="8679225679" />
		<nd ref="8679225682" />
		<nd ref="8679225688" />
		<nd ref="8679225691" />
		<nd ref="8679225678" />
		<nd ref="8679225681" />
		<nd ref="8679225685" />
		<nd ref="8679225683" />
	</way>
	<way id="936672969" version="1" timestamp="2021-04-29T10:24:29Z" changeset="103836185" uid="13196323" user="arnevidar">
		<tag k="name" v="Skarvskjæret" />
		<tag k="natural" v="coastline" />
		<tag k="place" v="islet" />
		<tag k="ssr:stedsnr" v="929286" />
		<nd ref="8679225704" />
		<nd ref="8679225695" />
		<nd ref="8679225698" />
		<nd ref="8679225701" />
		<nd ref="8679225703" />
		<nd ref="8679225694" />
		<nd ref="8679225697" />
		<nd ref="8679225700" />
		<nd ref="8679225702" />
		<nd ref="8679225693" />
		<nd ref="8679225696" />
		<nd ref="8679225699" />
		<nd ref="8679225704" />
	</way>
	<way id="936672972" version="1" timestamp="2021-04-29T10:24:29Z" changeset="103836185" uid="13196323" user="arnevidar">
		<tag k="name" v="Rundskjæret" />
		<tag k="natural" v="coastline" />
		<tag k="place" v="islet" />
		<tag k="ssr:stedsnr" v="686324" />
		<nd ref="8679226348" />
		<nd ref="8679226381" />
		<nd ref="8679226425" />
		<nd ref="8679226471" />
		<nd ref="8679226519" />
		<nd ref="8679226363" />
		<nd ref="8679226406" />
		<nd ref="8679226450" />
		<nd ref="8679226500" />
		<nd ref="8679226341" />
		<nd ref="8679226388" />
		<nd ref="8679226431" />
		<nd ref="8679226479" />
		<nd ref="8679226323" />
		<nd ref="8679226368" />
		<nd ref="8679226412" />
		<nd ref="8679226457" />
		<nd ref="8679226348" />
	</way>
	<way id="180593884" version="1" timestamp="2012-09-11T16:20:50Z" changeset="13071568" uid="408257" user="awt">
		<tag k="natural" v="water" />
		<nd ref="1910137036" />
		<nd ref="1910137039" />
		<nd ref="1910137040" />
		<nd ref="1910137042" />
		<nd ref="1910137038" />
		<nd ref="1910137035" />
		<nd ref="1910137032" />
		<nd ref="1910137027" />
		<nd ref="1910137026" />
		<nd ref="1910137030" />
		<nd ref="1910137034" />
		<nd ref="1910137036" />
	</way>
	<way id="180593885" version="1" timestamp="2012-09-11T16:20:50Z" changeset="13071568" uid="408257" user="awt">
		<nd ref="1910137031" />
		<nd ref="1910137033" />
		<nd ref="1910137029" />
		<nd ref="1910137028" />
		<nd ref="1910137031" />
	</way>
	<relation id="2409617" version="3" timestamp="2018-05-02T17:10:40Z" changeset="58620907" uid="3497659" user="NKA">
		<tag k="name" v="Nonsvannet" />
		<tag k="name:no" v="Nonsvannet" />
		<tag k="natural" v="water" />
		<tag k="source" v="Kartverket" />
		<tag k="ssr:stedsnr" v="748501" />
		<tag k="type" v="multipolygon" />
		<member type="way" ref="180593884" role="outer" />
		<member type="way" ref="180593885" role="inner" />
	</relation>
</osm>
