<?xml version="1.0" encoding="UTF-8"?>
<osm version="0.6" generator="osmapis">
	<node id="1346546302" lat="70.0762627" lon="30.1022381" version="5" timestamp="2022-07-11T05:38:58Z" changeset="123455237" uid="3497659" user="NKA">
		<tag k="alt_name:no" v="Ekkerøy" />
		<tag k="name" v="Ekkerøya - Ekrea" />
		<tag k="name:fkv" v="Ekrea" />
		<tag k="name:no" v="Ekkerøya" />
		<tag k="name:se" v="Ihkkot" />
		<tag k="place" v="village" />
		<tag k="ssr:stedsnr" v="81496" />
	</node>
	<node id="1815543405" lat="70.1050275" lon="30.1937599" version="3" timestamp="2022-07-11T05:38:58Z" changeset="123455237" uid="3497659" user="NKA">
		<tag k="name" v="Krampenes - Kramppinen" />
		<tag k="name:fkv" v="Kramppinen" />
		<tag k="name:no" v="Krampenes" />
		<tag k="place" v="village" />
		<tag k="ssr:stedsnr" v="263556" />
	</node>
	<node id="1815543406" lat="70.0733785" lon="30.0324283" version="2" timestamp="2022-07-11T05:38:58Z" changeset="123455237" uid="3497659" user="NKA">
		<tag k="name" v="Golnes - Kullaselva" />
		<tag k="name:fkv" v="Kullaselva" />
		<tag k="name:no" v="Golnes" />
		<tag k="place" v="village" />
		<tag k="ssr:stedsnr" v="870482" />
	</node>
	<node id="1815543407" lat="70.067381" lon="29.9711576" version="2" timestamp="2022-07-11T05:38:58Z" changeset="123455237" uid="3497659" user="NKA">
		<tag k="alt_name:no" v="Salttjern, store;Salttjern" />
		<tag k="name" v="Store Salttjern - Sáltejávri - Salttijärvi" />
		<tag k="name:fkv" v="Salttijärvi" />
		<tag k="name:no" v="Store Salttjern" />
		<tag k="name:se" v="Sáltejávri" />
		<tag k="place" v="hamlet" />
		<tag k="ssr:stedsnr" v="565518" />
	</node>
	<node id="1815543408" lat="70.1116132" lon="29.3330186" version="9" timestamp="2022-07-11T05:38:58Z" changeset="123455237" uid="3497659" user="NKA">
		<tag k="name" v="Vestre Jakobselv - Ánnejohka - Annijoki" />
		<tag k="name:fkv" v="Annijoki" />
		<tag k="name:no" v="Vestre Jakobselv" />
		<tag k="name:se" v="Ánnejohka" />
		<tag k="place" v="village" />
		<tag k="population" v="491" />
		<tag k="population:date" v="2021-01-01" />
		<tag k="ref:ssb_tettsted" v="8522" />
		<tag k="source:population" v="SSB - befolkning i tettstedet" />
		<tag k="ssr:stedsnr" v="929611" />
	</node>
	<node id="1815543413" lat="70.0625733" lon="29.8566099" version="2" timestamp="2022-07-11T05:38:58Z" changeset="123455237" uid="3497659" user="NKA">
		<tag k="name" v="Kiby" />
		<tag k="place" v="village" />
		<tag k="ssr:stedsnr" v="748524" />
	</node>
	<node id="1815543416" lat="70.1007976" lon="29.3807599" version="2" timestamp="2022-07-11T05:38:58Z" changeset="123455237" uid="3497659" user="NKA">
		<tag k="alt_name:no" v="Kargil" />
		<tag k="name" v="Kariel - Gárjil - Karieli" />
		<tag k="name:fkv" v="Karieli" />
		<tag k="name:no" v="Kariel" />
		<tag k="name:se" v="Gárjil" />
		<tag k="place" v="village" />
		<tag k="ssr:stedsnr" v="808671" />
	</node>
	<node id="1815543417" lat="70.1891311" lon="30.3342562" version="5" timestamp="2022-07-11T05:38:58Z" changeset="123455237" uid="3497659" user="NKA">
		<tag k="name" v="Skallelv - Gállojohka - Kallijoki" />
		<tag k="name:fkv" v="Kallijoki" />
		<tag k="name:no" v="Skallelv" />
		<tag k="name:se" v="Gállojohka" />
		<tag k="place" v="village" />
		<tag k="ssr:stedsnr" v="566559" />
	</node>
	<node id="1997308009" lat="70.0741267" lon="29.749777" version="13" timestamp="2022-07-11T05:38:58Z" changeset="123455237" uid="3497659" user="NKA">
		<tag k="capital" v="4" />
		<tag k="name" v="Vadsø - Čáhcesuolu - Vesisaari" />
		<tag k="name:ckb" v="ڤادسۆ" />
		<tag k="name:fi" v="Vesisaari" />
		<tag k="name:fkv" v="Vesisaari" />
		<tag k="name:no" v="Vadsø" />
		<tag k="name:ru" v="Вадсё" />
		<tag k="name:se" v="Čáhcesuolu" />
		<tag k="place" v="town" />
		<tag k="population" v="4667" />
		<tag k="population:date" v="2021-01-01" />
		<tag k="ref:ssb_tettsted" v="8521" />
		<tag k="source:population" v="SSB - befolkning i tettstedet" />
		<tag k="ssr:stedsnr" v="80524" />
		<tag k="wikidata" v="Q7908355" />
	</node>
	<node id="5870897084" lat="70.0786118" lon="29.7191016" version="2" timestamp="2022-01-26T06:08:00Z" changeset="116609992" uid="3497659" user="NKA">
		<tag k="junction" v="yes" />
		<tag k="name" v="Deinbolls plass" />
		<tag k="ssr:stedsnr" v="576047" />
	</node>
	<node id="9880296632" lat="70.1200141" lon="29.2336474" version="1" timestamp="2022-07-11T05:38:58Z" changeset="123455237" uid="3497659" user="NKA">
		<tag k="alt_name" v="Indre Klubben" />
		<tag k="name" v="Klubben" />
		<tag k="old_name" v="Klubben, in" />
		<tag k="place" v="hamlet" />
		<tag k="ssr:stedsnr" v="323653" />
	</node>
	<node id="9880296633" lat="70.1074864" lon="29.361026" version="1" timestamp="2022-07-11T05:38:58Z" changeset="123455237" uid="3497659" user="NKA">
		<tag k="alt_name" v="Halsen, in" />
		<tag k="name" v="Indre Halsen" />
		<tag k="place" v="farm" />
		<tag k="ssr:stedsnr" v="868630" />
	</node>
	<node id="9880296634" lat="70.060606" lon="29.8775584" version="1" timestamp="2022-07-11T05:38:58Z" changeset="123455237" uid="3497659" user="NKA">
		<tag k="name" v="Samuelby" />
		<tag k="place" v="locality" />
		<tag k="ssr:stedsnr" v="819320" />
	</node>
	<node id="9880296635" lat="70.0660477" lon="29.9450763" version="1" timestamp="2022-07-11T05:38:58Z" changeset="123455237" uid="3497659" user="NKA">
		<tag k="alt_name" v="Høivik" />
		<tag k="name" v="Høyvik" />
		<tag k="place" v="hamlet" />
		<tag k="ssr:stedsnr" v="323525" />
	</node>
	<node id="9880296636" lat="70.0848615" lon="29.7150698" version="1" timestamp="2022-07-11T05:38:58Z" changeset="123455237" uid="3497659" user="NKA">
		<tag k="name" v="Prestelv vest" />
		<tag k="place" v="neighbourhood" />
		<tag k="ssr:stedsnr" v="273066" />
	</node>
	<node id="9880296637" lat="70.0987568" lon="29.4867546" version="1" timestamp="2022-07-11T05:38:58Z" changeset="123455237" uid="3497659" user="NKA">
		<tag k="name" v="Fugleberg" />
		<tag k="place" v="hamlet" />
		<tag k="ssr:stedsnr" v="758986" />
	</node>
	<node id="9880296638" lat="70.1176419" lon="29.2725828" version="1" timestamp="2022-07-11T05:38:58Z" changeset="123455237" uid="3497659" user="NKA">
		<tag k="name" v="Ytre Klubben" />
		<tag k="old_name" v="Klubben, yt" />
		<tag k="place" v="hamlet" />
		<tag k="ssr:stedsnr" v="262645" />
	</node>
	<node id="9880296639" lat="70.076813" lon="29.7607294" version="1" timestamp="2022-07-11T05:38:58Z" changeset="123455237" uid="3497659" user="NKA">
		<tag k="name" v="Stjerneplassen" />
		<tag k="place" v="neighbourhood" />
		<tag k="ssr:stedsnr" v="151346" />
	</node>
	<node id="9880296640" lat="70.1071518" lon="29.6493194" version="1" timestamp="2022-07-11T05:38:58Z" changeset="123455237" uid="3497659" user="NKA">
		<tag k="name" v="Tesnitten" />
		<tag k="place" v="isolated_dwelling" />
		<tag k="ssr:stedsnr" v="394032" />
	</node>
	<node id="9880296641" lat="70.0899615" lon="29.6416791" version="1" timestamp="2022-07-11T05:38:58Z" changeset="123455237" uid="3497659" user="NKA">
		<tag k="name" v="Laksebubukta" />
		<tag k="place" v="hamlet" />
		<tag k="ssr:stedsnr" v="940008" />
	</node>
	<node id="9880296642" lat="70.0828198" lon="29.7331446" version="1" timestamp="2022-07-11T05:38:58Z" changeset="123455237" uid="3497659" user="NKA">
		<tag k="name" v="Prestelvtorget" />
		<tag k="place" v="neighbourhood" />
		<tag k="ssr:stedsnr" v="151256" />
	</node>
	<node id="9880296643" lat="70.0769681" lon="29.7342224" version="1" timestamp="2022-07-11T05:38:58Z" changeset="123455237" uid="3497659" user="NKA">
		<tag k="name" v="Indrebyen" />
		<tag k="place" v="neighbourhood" />
		<tag k="ssr:stedsnr" v="942504" />
	</node>
	<node id="9880296644" lat="70.1547051" lon="30.3463386" version="1" timestamp="2022-07-11T05:38:58Z" changeset="123455237" uid="3497659" user="NKA">
		<tag k="loc_name" v="Nyhamn" />
		<tag k="name" v="Nyhavn" />
		<tag k="place" v="farm" />
		<tag k="ssr:stedsnr" v="209422" />
	</node>
	<node id="9880296645" lat="70.1856173" lon="30.341857" version="1" timestamp="2022-07-11T05:38:58Z" changeset="123455237" uid="3497659" user="NKA">
		<tag k="name" v="Neset" />
		<tag k="place" v="hamlet" />
		<tag k="ssr:stedsnr" v="979570" />
	</node>
	<node id="9880296646" lat="70.0910694" lon="29.5963935" version="1" timestamp="2022-07-11T05:38:58Z" changeset="123455237" uid="3497659" user="NKA">
		<tag k="name" v="Andersby" />
		<tag k="place" v="hamlet" />
		<tag k="ssr:stedsnr" v="263615" />
	</node>
	<node id="9880296647" lat="70.0977059" lon="29.6673681" version="1" timestamp="2022-07-11T05:38:58Z" changeset="123455237" uid="3497659" user="NKA">
		<tag k="name" v="Rødekorshytta" />
		<tag k="place" v="isolated_dwelling" />
		<tag k="ssr:stedsnr" v="758004" />
	</node>
	<node id="9880296648" lat="70.0868842" lon="29.7758737" version="1" timestamp="2022-07-11T05:38:58Z" changeset="123455237" uid="3497659" user="NKA">
		<tag k="name" v="Solbakken" />
		<tag k="place" v="farm" />
		<tag k="ssr:stedsnr" v="91222" />
	</node>
	<node id="9880296649" lat="70.0703228" lon="30.0019383" version="1" timestamp="2022-07-11T05:38:58Z" changeset="123455237" uid="3497659" user="NKA">
		<tag k="name" v="Lille Salttjern - Pikkujärvi" />
		<tag k="name:fkv" v="Pikkujärvi" />
		<tag k="name:no" v="Lille Salttjern" />
		<tag k="place" v="hamlet" />
		<tag k="ssr:stedsnr" v="698576" />
	</node>
	<node id="9880296650" lat="70.0787673" lon="30.0918414" version="1" timestamp="2022-07-11T05:38:58Z" changeset="123455237" uid="3497659" user="NKA">
		<tag k="name" v="Valen" />
		<tag k="place" v="neighbourhood" />
		<tag k="ssr:stedsnr" v="979563" />
	</node>
	<node id="9880296651" lat="70.0777365" lon="29.73865" version="1" timestamp="2022-07-11T05:38:58Z" changeset="123455237" uid="3497659" user="NKA">
		<tag k="name" v="Karl Rasmussens plass" />
		<tag k="place" v="square" />
		<tag k="ssr:stedsnr" v="273148" />
	</node>
	<node id="9880296652" lat="70.1112533" lon="30.1580549" version="1" timestamp="2022-07-11T05:38:58Z" changeset="123455237" uid="3497659" user="NKA">
		<tag k="name" v="Fossen" />
		<tag k="place" v="isolated_dwelling" />
		<tag k="ssr:stedsnr" v="698721" />
	</node>
	<node id="9880296653" lat="70.0725887" lon="30.0256739" version="1" timestamp="2022-07-11T05:38:58Z" changeset="123455237" uid="3497659" user="NKA">
		<tag k="name" v="Sisäpää" />
		<tag k="name:fkv" v="Sisäpää" />
		<tag k="place" v="neighbourhood" />
		<tag k="ssr:stedsnr" v="394578" />
	</node>
	<node id="9880296654" lat="70.1100229" lon="29.6480592" version="1" timestamp="2022-07-11T05:38:58Z" changeset="123455237" uid="3497659" user="NKA">
		<tag k="name" v="Gingengammen" />
		<tag k="place" v="isolated_dwelling" />
		<tag k="ssr:stedsnr" v="758034" />
	</node>
	<node id="9880296655" lat="70.1056393" lon="29.3370032" version="1" timestamp="2022-07-11T05:38:58Z" changeset="123455237" uid="3497659" user="NKA">
		<tag k="name" v="Finnes" />
		<tag k="place" v="farm" />
		<tag k="ssr:stedsnr" v="940082" />
	</node>
	<node id="9880296656" lat="70.0755523" lon="29.7780855" version="1" timestamp="2022-07-11T05:38:58Z" changeset="123455237" uid="3497659" user="NKA">
		<tag k="name" v="Ytrebyen" />
		<tag k="place" v="neighbourhood" />
		<tag k="ssr:stedsnr" v="275485" />
	</node>
	<node id="9880296657" lat="70.0834152" lon="29.6827892" version="1" timestamp="2022-07-11T05:38:58Z" changeset="123455237" uid="3497659" user="NKA">
		<tag k="name" v="Stykket" />
		<tag k="place" v="isolated_dwelling" />
		<tag k="ssr:stedsnr" v="716982" />
	</node>
	<node id="9880296658" lat="70.087008" lon="29.6679172" version="1" timestamp="2022-07-11T05:38:58Z" changeset="123455237" uid="3497659" user="NKA">
		<tag k="alt_name:no" v="Tomaselva" />
		<tag k="loc_name:se" v="Vuorjánjohka;Vuor'jam-jokka" />
		<tag k="name" v="Tomaselv - Turvejoki" />
		<tag k="name:fkv" v="Turvejoki" />
		<tag k="name:no" v="Tomaselv" />
		<tag k="place" v="hamlet" />
		<tag k="ssr:stedsnr" v="1071926" />
	</node>
	<node id="9880296659" lat="70.0697435" lon="30.0031932" version="1" timestamp="2022-07-11T05:38:58Z" changeset="123455237" uid="3497659" user="NKA">
		<tag k="name" v="Været" />
		<tag k="place" v="neighbourhood" />
		<tag k="ssr:stedsnr" v="30588" />
	</node>
	<node id="9880296660" lat="70.0982003" lon="29.395442" version="1" timestamp="2022-07-11T05:38:58Z" changeset="123455237" uid="3497659" user="NKA">
		<tag k="alt_name" v="Halsen, yt" />
		<tag k="name" v="Ytre Halsen" />
		<tag k="place" v="isolated_dwelling" />
		<tag k="ssr:stedsnr" v="625681" />
	</node>
	<node id="9880296661" lat="70.0618905" lon="29.8562214" version="1" timestamp="2022-07-11T05:38:58Z" changeset="123455237" uid="3497659" user="NKA">
		<tag k="name" v="Været" />
		<tag k="place" v="neighbourhood" />
		<tag k="ssr:stedsnr" v="30312" />
	</node>
	<node id="9880296662" lat="70.1175683" lon="29.2951043" version="1" timestamp="2022-07-11T05:38:58Z" changeset="123455237" uid="3497659" user="NKA">
		<tag k="alt_name:no" v="Skitenelva;Skitnelv" />
		<tag k="name" v="Skittenelv - Baikajohka" />
		<tag k="name:no" v="Skittenelv" />
		<tag k="name:se" v="Baikajohka" />
		<tag k="place" v="hamlet" />
		<tag k="ssr:stedsnr" v="808638" />
	</node>
	<node id="9880296663" lat="70.0804309" lon="29.7267448" version="1" timestamp="2022-07-11T05:38:58Z" changeset="123455237" uid="3497659" user="NKA">
		<tag k="name" v="St. Hanshaugen" />
		<tag k="place" v="neighbourhood" />
		<tag k="ssr:stedsnr" v="394214" />
	</node>
	<node id="9880296664" lat="70.0993844" lon="29.4369551" version="1" timestamp="2022-07-11T05:38:58Z" changeset="123455237" uid="3497659" user="NKA">
		<tag k="name" v="Paddeby" />
		<tag k="place" v="hamlet" />
		<tag k="ssr:stedsnr" v="809635" />
	</node>
	<node id="9880296665" lat="70.0848115" lon="29.7309834" version="1" timestamp="2022-07-11T05:38:58Z" changeset="123455237" uid="3497659" user="NKA">
		<tag k="name" v="Prestelv nord" />
		<tag k="place" v="neighbourhood" />
		<tag k="ssr:stedsnr" v="698194" />
	</node>
	<node id="9880296666" lat="70.1145727" lon="29.3175042" version="1" timestamp="2022-07-11T05:38:58Z" changeset="123455237" uid="3497659" user="NKA">
		<tag k="name" v="Vestsida" />
		<tag k="place" v="hamlet" />
		<tag k="ssr:stedsnr" v="576065" />
	</node>
	<node id="9880296667" lat="70.0756673" lon="30.1052132" version="1" timestamp="2022-07-11T05:38:58Z" changeset="123455237" uid="3497659" user="NKA">
		<tag k="name" v="Været" />
		<tag k="place" v="neighbourhood" />
		<tag k="ssr:stedsnr" v="516547" />
	</node>
	<node id="9880296668" lat="70.0835976" lon="29.757772" version="1" timestamp="2022-07-11T05:38:58Z" changeset="123455237" uid="3497659" user="NKA">
		<tag k="name" v="Fossgård" />
		<tag k="place" v="farm" />
		<tag k="ssr:stedsnr" v="869567" />
	</node>
	<node id="9880296669" lat="70.1338799" lon="29.3079534" version="1" timestamp="2022-07-11T05:38:58Z" changeset="123455237" uid="3497659" user="NKA">
		<tag k="name" v="Feriehjem" />
		<tag k="place" v="isolated_dwelling" />
		<tag k="ssr:stedsnr" v="697094" />
	</node>
	<node id="9880296670" lat="70.0695065" lon="30.0016092" version="1" timestamp="2022-07-11T05:38:58Z" changeset="123455237" uid="3497659" user="NKA">
		<tag k="alt_name" v="Salttjern, l" />
		<tag k="name" v="Lille Salttjern" />
		<tag k="place" v="farm" />
		<tag k="ssr:stedsnr" v="445491" />
	</node>
	<node id="9880296671" lat="70.10724" lon="29.337542" version="1" timestamp="2022-07-11T05:38:58Z" changeset="123455237" uid="3497659" user="NKA">
		<tag k="name" v="Lauriniemi" />
		<tag k="name:fkv" v="Lauriniemi" />
		<tag k="place" v="hamlet" />
		<tag k="ssr:stedsnr" v="979482" />
	</node>
	<node id="9880296672" lat="70.0865059" lon="29.7127393" version="1" timestamp="2022-07-11T05:38:58Z" changeset="123455237" uid="3497659" user="NKA">
		<tag k="name" v="Fjellheim" />
		<tag k="place" v="neighbourhood" />
		<tag k="ssr:stedsnr" v="940061" />
	</node>
	<node id="9299083913" lat="70.0990991" lon="29.4871895" version="1" timestamp="2021-12-01T06:52:54Z" changeset="114430318" uid="3497659" user="NKA" />
	<node id="9299083914" lat="70.0990949" lon="29.4873" version="1" timestamp="2021-12-01T06:52:54Z" changeset="114430318" uid="3497659" user="NKA" />
	<node id="9299083915" lat="70.0991012" lon="29.487302" version="1" timestamp="2021-12-01T06:52:54Z" changeset="114430318" uid="3497659" user="NKA" />
	<node id="9299083916" lat="70.0990988" lon="29.4873629" version="1" timestamp="2021-12-01T06:52:54Z" changeset="114430318" uid="3497659" user="NKA" />
	<node id="9299083917" lat="70.0990927" lon="29.4873609" version="1" timestamp="2021-12-01T06:52:54Z" changeset="114430318" uid="3497659" user="NKA" />
	<node id="9299083918" lat="70.0990883" lon="29.4874775" version="1" timestamp="2021-12-01T06:52:54Z" changeset="114430318" uid="3497659" user="NKA" />
	<node id="9299083919" lat="70.099018" lon="29.4874545" version="1" timestamp="2021-12-01T06:52:54Z" changeset="114430318" uid="3497659" user="NKA" />
	<node id="9299083920" lat="70.0990289" lon="29.4871665" version="1" timestamp="2021-12-01T06:52:54Z" changeset="114430318" uid="3497659" user="NKA" />
	<way id="226531788" version="6" timestamp="2021-12-01T06:53:02Z" changeset="114430327" uid="3497659" user="NKA">
		<tag k="building" v="house" />
		<tag k="name" v="Fugleberg" />
		<tag k="name:no" v="Fugleberg" />
		<tag k="ref:bygningsnr" v="192333741" />
		<tag k="ssr:stedsnr" v="263612" />
		<nd ref="9299083920" />
		<nd ref="9299083919" />
		<nd ref="9299083918" />
		<nd ref="9299083917" />
		<nd ref="9299083916" />
		<nd ref="9299083915" />
		<nd ref="9299083914" />
		<nd ref="9299083913" />
		<nd ref="9299083920" />
	</way>
</osm>
