<?xml version="1.0" encoding="UTF-8"?>
<osm generator="osmapis" version="0.6">
	<node id="-432123" lat="60.2740305593" lon="5.26630556218">
		<tag k="name" v="Neset" />
		<tag k="natural" v="cape" />
		<tag k="ssr:stedsnr" v="202850" />
	</node>
	<node id="-434170" lat="60.2269489081" lon="5.34492390512">
		<tag k="name" v="Skatevika" />
		<tag k="natural" v="bay" />
		<tag k="ssr:stedsnr" v="809912" />
	</node>
	<node id="-434168" lat="60.2168722223" lon="5.29203333891">
		<tag k="name" v="Nordre Sætevika" />
		<tag k="natural" v="bay" />
		<tag k="ssr:stedsnr" v="809905" />
	</node>
	<node id="-431444" lat="60.4033111142" lon="5.31845555753">
		<tag k="name" v="Skutevik" />
		<tag k="natural" v="bay" />
		<tag k="ssr:stedsnr" v="25734" />
	</node>
	<node id="-432117" lat="60.3205361143" lon="5.26509444095">
		<tag k="name" v="Ruskeneset" />
		<tag k="natural" v="cape" />
		<tag k="ssr:stedsnr" v="202815" />
	</node>
	<node id="-432114" lat="60.333892144" lon="5.24670855928">
		<tag k="name" v="Bjørgevika" />
		<tag k="natural" v="bay" />
		<tag k="ssr:stedsnr" v="202643" />
	</node>
	<node id="-432112" lat="60.3530833328" lon="5.17805832891">
		<tag k="name" v="Kristneset" />
		<tag k="natural" v="cape" />
		<tag k="ssr:stedsnr" v="202546" />
	</node>
	<node id="-432111" lat="60.3312572455" lon="5.24921089001">
		<tag k="name" v="Midtvika" />
		<tag k="natural" v="bay" />
		<tag k="ssr:stedsnr" v="202521" />
	</node>
	<node id="-432108" lat="60.4392444483" lon="5.30976666656">
		<tag k="name" v="Eidsvågholmane" />
		<tag k="place" v="islet" />
		<tag k="ssr:stedsnr" v="202369" />
	</node>
	<node id="-434155" lat="60.2651194484" lon="5.25128889081">
		<tag k="fixme" v="consider seamark:type=rock or natural=shoal" />
		<tag k="name" v="Skjenholmane" />
		<tag k="place" v="islet" />
		<tag k="ssr:stedsnr" v="809839" />
	</node>
	<node id="-432106" lat="60.4131444437" lon="5.31806944427">
		<tag k="fixme" v="consider seamark:type=rock or natural=shoal" />
		<tag k="name" v="Svineryggen" />
		<tag k="place" v="islet" />
		<tag k="ssr:stedsnr" v="202342" />
	</node>
	<node id="-434152" lat="60.2655083315" lon="5.27780277436">
		<tag k="name" v="Pålsholmen" />
		<tag k="place" v="islet" />
		<tag k="ssr:stedsnr" v="809821" />
	</node>
	<node id="-434150" lat="60.3213555595" lon="5.26865833479">
		<tag k="name" v="Nordåsstraumen" />
		<tag k="natural" v="strait" />
		<tag k="ssr:stedsnr" v="809800" />
	</node>
	<node id="-432094" lat="60.2711388899" lon="5.20901944132">
		<tag k="fixme" v="consider seamark:type=rock or natural=shoal" />
		<tag k="name" v="Fløvossen" />
		<tag k="place" v="islet" />
		<tag k="ssr:stedsnr" v="203130" />
	</node>
	<node id="-434131" lat="60.349336113" lon="5.19080278539">
		<tag k="name" v="Kruttbodneset" />
		<tag k="natural" v="cape" />
		<tag k="ssr:stedsnr" v="809585" />
	</node>
	<node id="-434129" lat="60.3404333307" lon="5.18151389586">
		<tag k="name" v="Trollholmen" />
		<tag k="place" v="islet" />
		<tag k="ssr:stedsnr" v="809579" />
	</node>
	<node id="-434128" lat="60.347633335" lon="5.22970000376">
		<tag k="name" v="Tømmervika" />
		<tag k="natural" v="bay" />
		<tag k="ssr:stedsnr" v="809577" />
	</node>
	<node id="-432120" lat="60.2676961069" lon="5.27048900643">
		<tag k="name" v="Røyta" />
		<tag k="natural" v="bay" />
		<tag k="ssr:stedsnr" v="202838" />
	</node>
	<node id="-434123" lat="60.3651666701" lon="5.17534167265">
		<tag k="name" v="Oksebåsen" />
		<tag k="natural" v="bay" />
		<tag k="ssr:stedsnr" v="809552" />
	</node>
	<node id="-432074" lat="60.3940233433" lon="5.27097526753">
		<tag k="name" v="Nygårdsviken" />
		<tag k="natural" v="bay" />
		<tag k="ssr:stedsnr" v="202055" />
	</node>
	<node id="-434120" lat="60.3596861137" lon="5.17623333574">
		<tag k="name" v="Kongshavnsholmen" />
		<tag k="place" v="islet" />
		<tag k="ssr:stedsnr" v="809542" />
	</node>
	<node id="-432067" lat="60.3789111074" lon="5.18414722797">
		<tag k="fixme" v="consider seamark:type=rock or natural=shoal" />
		<tag k="name" v="Dorgaskjeret" />
		<tag k="place" v="islet" />
		<tag k="ssr:stedsnr" v="202035" />
	</node>
	<node id="-432061" lat="60.3851361152" lon="5.19997222956">
		<tag k="name" v="Leirvikaneset" />
		<tag k="natural" v="cape" />
		<tag k="ssr:stedsnr" v="202016" />
	</node>
	<node id="-432059" lat="60.5073944449" lon="5.26606666513">
		<tag k="name" v="Smedneset" />
		<tag k="natural" v="cape" />
		<tag k="ssr:stedsnr" v="202280" />
	</node>
	<node id="-434102" lat="60.4735222257" lon="5.26310556224">
		<tag k="name" v="Morvikasanden" />
		<tag k="natural" v="bay" />
		<tag k="ssr:stedsnr" v="809328" />
	</node>
	<node id="-432050" lat="60.3869583302" lon="5.31517778274">
		<tag k="name" v="Dokken" />
		<tag k="natural" v="cape" />
		<tag k="ssr:stedsnr" v="188674" />
	</node>
	<node id="-431091" lat="60.3957472228" lon="5.23314445114">
		<tag k="name" v="Skålevikneset" />
		<tag k="natural" v="cape" />
		<tag k="ssr:stedsnr" v="385036" />
	</node>
	<node id="-432040" lat="60.2802777775" lon="5.20968611649">
		<tag k="name" v="Slettevika" />
		<tag k="natural" v="bay" />
		<tag k="ssr:stedsnr" v="187918" />
	</node>
	<node id="-431089" lat="60.3284527811" lon="5.20138333722">
		<tag k="name" v="Ytstaneset" />
		<tag k="natural" v="cape" />
		<tag k="ssr:stedsnr" v="385002" />
	</node>
	<node id="-432033" lat="60.3236888903" lon="5.32415278284">
		<tag k="name" v="Marmorøyen" />
		<tag k="place" v="island" />
		<tag k="ssr:stedsnr" v="187733" />
	</node>
	<node id="-432025" lat="60.2551277732" lon="5.31308610441">
		<tag k="bay" v="fjord" />
		<tag k="name" v="Fanafjorden" />
		<tag k="natural" v="bay" />
		<tag k="ssr:stedsnr" v="187825" />
	</node>
	<node id="-432023" lat="60.2937583361" lon="5.20062500722">
		<tag k="fixme" v="consider seamark:type=rock or natural=shoal" />
		<tag k="name" v="Fleslandsskjeret" />
		<tag k="place" v="islet" />
		<tag k="ssr:stedsnr" v="187813" />
	</node>
	<node id="-432022" lat="60.3992499992" lon="5.30653888096">
		<tag k="name" v="Nordnes" />
		<tag k="natural" v="cape" />
		<tag k="ssr:stedsnr" v="187649" />
	</node>
	<node id="-434064" lat="60.2625333349" lon="5.21240277884">
		<tag k="name" v="Nordre Egdholmsundet" />
		<tag k="natural" v="strait" />
		<tag k="ssr:stedsnr" v="809127" />
	</node>
	<node id="-434060" lat="60.2576805536" lon="5.23279445122">
		<tag k="name" v="Dråttninga" />
		<tag k="place" v="islet" />
		<tag k="ssr:stedsnr" v="809097" />
	</node>
	<node id="-434054" lat="60.25743056" lon="5.19902500354">
		<tag k="fixme" v="consider seamark:type=rock or natural=shoal" />
		<tag k="name" v="Svartaskjeret" />
		<tag k="place" v="islet" />
		<tag k="ssr:stedsnr" v="809074" />
	</node>
	<node id="-434052" lat="60.2466722176" lon="5.23487777162">
		<tag k="name" v="Skogvikneset" />
		<tag k="natural" v="cape" />
		<tag k="ssr:stedsnr" v="809056" />
	</node>
	<node id="-434048" lat="60.3210166688" lon="5.23062499386">
		<tag k="name" v="Sandvika" />
		<tag k="natural" v="bay" />
		<tag k="ssr:stedsnr" v="809045" />
	</node>
	<node id="-434496" lat="60.2292888916" lon="5.2618388813">
		<tag k="name" v="Rasmusvika" />
		<tag k="natural" v="bay" />
		<tag k="ssr:stedsnr" v="870965" />
	</node>
	<node id="-431998" lat="60.4279611109" lon="5.59326666893">
		<tag k="name" v="Kvernhusvika" />
		<tag k="natural" v="bay" />
		<tag k="ssr:stedsnr" v="187030" />
	</node>
	<node id="-434045" lat="60.3178417455" lon="5.21319200545">
		<tag k="name" v="Festervika" />
		<tag k="natural" v="bay" />
		<tag k="ssr:stedsnr" v="809039" />
	</node>
	<node id="-431996" lat="60.20395" lon="5.26932223033">
		<tag k="name" v="Kroken" />
		<tag k="natural" v="cape" />
		<tag k="ssr:stedsnr" v="186856" />
	</node>
	<node id="-431994" lat="60.4394861148" lon="5.29934721946">
		<tag k="name" v="Eidsvåg" />
		<tag k="natural" v="bay" />
		<tag k="ssr:stedsnr" v="178839" />
	</node>
	<node id="-434040" lat="60.4325694474" lon="5.45446666552">
		<tag k="name" v="Stamnesstø" />
		<tag k="natural" v="beach" />
		<tag k="place" v="locality" />
		<tag k="ssr:stedsnr" v="809022" />
	</node>
	<node id="-434039" lat="60.3884861078" lon="5.21187221365">
		<tag k="name" v="Olsvika" />
		<tag k="natural" v="bay" />
		<tag k="ssr:stedsnr" v="809017" />
	</node>
	<node id="-434033" lat="60.5081277796" lon="5.27027222913">
		<tag k="name" v="Nordrehavnen" />
		<tag k="natural" v="bay" />
		<tag k="ssr:stedsnr" v="795556" />
	</node>
	<node id="-434032" lat="60.5115635298" lon="5.35689045406">
		<tag k="name" v="Hylkjeneset" />
		<tag k="natural" v="cape" />
		<tag k="ssr:stedsnr" v="795536" />
	</node>
	<node id="-431980" lat="60.2622027779" lon="5.24400555509">
		<tag k="name" v="Solnes" />
		<tag k="natural" v="cape" />
		<tag k="ssr:stedsnr" v="146140" />
	</node>
	<node id="-431979" lat="60.2049222183" lon="5.25778889617">
		<tag k="name" v="Galtaflua" />
		<tag k="natural" v="shoal" />
		<tag k="place" v="locality" />
		<tag k="ssr:stedsnr" v="146022" />
	</node>
	<node id="-434025" lat="60.3160694426" lon="5.30466388717">
		<tag k="name" v="Ormøyna" />
		<tag k="place" v="island" />
		<tag k="ssr:stedsnr" v="794861" />
	</node>
	<node id="-434024" lat="60.3179250025" lon="5.29609999524">
		<tag k="name" v="Søvikaneset" />
		<tag k="natural" v="cape" />
		<tag k="ssr:stedsnr" v="794860" />
	</node>
	<node id="-434021" lat="60.3186000025" lon="5.31759999606">
		<tag k="name" v="Ulvøyna" />
		<tag k="place" v="island" />
		<tag k="ssr:stedsnr" v="794850" />
	</node>
	<node id="-434017" lat="60.3314385167" lon="5.27662075918">
		<tag k="name" v="Sælevatnet" />
		<tag k="natural" v="bay" />
		<tag k="ssr:stedsnr" v="794794" />
	</node>
	<node id="-434015" lat="60.3212027744" lon="5.24633333817">
		<tag k="name" v="Stamneset" />
		<tag k="natural" v="cape" />
		<tag k="ssr:stedsnr" v="794775" />
	</node>
	<node id="-431966" lat="60.2650166709" lon="5.28278333456">
		<tag k="name" v="Vestre Godalsvika" />
		<tag k="natural" v="bay" />
		<tag k="ssr:stedsnr" v="142824" />
	</node>
	<node id="-434011" lat="60.393730554" lon="5.22191389023">
		<tag k="name" v="Brøstaneset" />
		<tag k="natural" v="cape" />
		<tag k="ssr:stedsnr" v="794692" />
	</node>
	<node id="-431960" lat="60.2101027771" lon="5.28398333584">
		<tag k="name" v="Grøteidet" />
		<tag k="place" v="locality" />
		<tag k="ssr:stedsnr" v="142940" />
	</node>
	<node id="-434005" lat="60.3908027789" lon="5.31156389142">
		<tag k="name" v="Sydnes" />
		<tag k="natural" v="cape" />
		<tag k="ssr:stedsnr" v="794627" />
	</node>
	<node id="-431954" lat="60.4234222195" lon="5.53799444914">
		<tag k="name" v="Herlandsneset" />
		<tag k="natural" v="cape" />
		<tag k="ssr:stedsnr" v="142917" />
	</node>
	<node id="-431953" lat="60.2114666667" lon="5.29019167566">
		<tag k="name" v="Kattholmen" />
		<tag k="place" v="islet" />
		<tag k="ssr:stedsnr" v="142912" />
	</node>
	<node id="-433996" lat="60.4786164337" lon="5.4130690938">
		<tag k="name" v="Ervika" />
		<tag k="natural" v="bay" />
		<tag k="ssr:stedsnr" v="794384" />
	</node>
	<node id="-433994" lat="60.484905553" lon="5.25780832674">
		<tag k="name" v="Toppesanden" />
		<tag k="natural" v="beach" />
		<tag k="place" v="locality" />
		<tag k="ssr:stedsnr" v="794359" />
	</node>
	<node id="-433989" lat="60.2189416658" lon="5.31372499404">
		<tag k="name" v="Austneset" />
		<tag k="natural" v="cape" />
		<tag k="ssr:stedsnr" v="794033" />
	</node>
	<node id="-433987" lat="60.241875003" lon="5.24438333265">
		<tag k="name" v="Klokkholmen" />
		<tag k="place" v="islet" />
		<tag k="ssr:stedsnr" v="793695" />
	</node>
	<node id="-431938" lat="60.2571111082" lon="5.29850278325">
		<tag k="name" v="Hausneset" />
		<tag k="natural" v="cape" />
		<tag k="ssr:stedsnr" v="142789" />
	</node>
	<node id="-431937" lat="60.2439972256" lon="5.25543611581">
		<tag k="name" v="Djupevika" />
		<tag k="natural" v="bay" />
		<tag k="ssr:stedsnr" v="142780" />
	</node>
	<node id="-431928" lat="60.3433861072" lon="5.17996666012">
		<tag k="name" v="Pollen" />
		<tag k="natural" v="bay" />
		<tag k="ssr:stedsnr" v="142522" />
	</node>
	<node id="-433960" lat="60.2595837039" lon="5.28641190263">
		<tag k="name" v="Brandanesholmen" />
		<tag k="place" v="islet" />
		<tag k="ssr:stedsnr" v="749795" />
	</node>
	<node id="-433959" lat="60.257733335" lon="5.29451388171">
		<tag k="fixme" v="consider seamark:type=rock or natural=shoal" />
		<tag k="name" v="Olavikskjeret" />
		<tag k="place" v="islet" />
		<tag k="ssr:stedsnr" v="749793" />
	</node>
	<node id="-433958" lat="60.2449083316" lon="5.24611388484">
		<tag k="name" v="Steingardsvikane" />
		<tag k="natural" v="bay" />
		<tag k="ssr:stedsnr" v="749787" />
	</node>
	<node id="-433957" lat="60.2431555544" lon="5.2650083399">
		<tag k="name" v="Herøysundet" />
		<tag k="natural" v="strait" />
		<tag k="ssr:stedsnr" v="749780" />
	</node>
	<node id="-431908" lat="60.375265986" lon="5.17431552144">
		<tag k="name" v="Indre Steinevika" />
		<tag k="natural" v="bay" />
		<tag k="ssr:stedsnr" v="142047" />
	</node>
	<node id="-431907" lat="60.3763161813" lon="5.17668464588">
		<tag k="name" v="Skutevika" />
		<tag k="natural" v="bay" />
		<tag k="ssr:stedsnr" v="142045" />
	</node>
	<node id="-431905" lat="60.3444888888" lon="5.23506667403">
		<tag k="name" v="Mathopsvågen" />
		<tag k="natural" v="bay" />
		<tag k="ssr:stedsnr" v="142024" />
	</node>
	<node id="-431903" lat="60.3430335224" lon="5.2217634142">
		<tag k="name" v="Nordrepollen" />
		<tag k="natural" v="bay" />
		<tag k="ssr:stedsnr" v="142013" />
	</node>
	<node id="-431902" lat="60.3315565815" lon="5.21434851573">
		<tag k="name" v="Jystrevika" />
		<tag k="natural" v="bay" />
		<tag k="ssr:stedsnr" v="142012" />
	</node>
	<node id="-431899" lat="60.3349750019" lon="5.233530558">
		<tag k="name" v="Hårsundklubben" />
		<tag k="natural" v="cape" />
		<tag k="ssr:stedsnr" v="142003" />
	</node>
	<node id="-431897" lat="60.3300333357" lon="5.20143333942">
		<tag k="name" v="Skotavika" />
		<tag k="natural" v="bay" />
		<tag k="ssr:stedsnr" v="142001" />
	</node>
	<node id="-431896" lat="60.486882188" lon="5.40492814428">
		<tag k="name" v="Eikevika" />
		<tag k="natural" v="bay" />
		<tag k="ssr:stedsnr" v="141999" />
	</node>
	<node id="-431893" lat="60.2238361096" lon="5.2951916671">
		<tag k="name" v="Skipavika" />
		<tag k="natural" v="bay" />
		<tag k="ssr:stedsnr" v="141983" />
	</node>
	<node id="-433937" lat="60.3516916688" lon="5.18731667391">
		<tag k="name" v="Pakkbodneset" />
		<tag k="natural" v="cape" />
		<tag k="ssr:stedsnr" v="749531" />
	</node>
	<node id="-431885" lat="60.2124638874" lon="5.28268332738">
		<tag k="name" v="Vestrahavn" />
		<tag k="natural" v="bay" />
		<tag k="ssr:stedsnr" v="141919" />
	</node>
	<node id="-431884" lat="60.2150416697" lon="5.2904888898">
		<tag k="name" v="Bakarvikane" />
		<tag k="natural" v="bay" />
		<tag k="ssr:stedsnr" v="141920" />
	</node>
	<node id="-431883" lat="60.2191972239" lon="5.29230277006">
		<tag k="name" v="Såteviksholmen" />
		<tag k="place" v="islet" />
		<tag k="ssr:stedsnr" v="141970" />
	</node>
	<node id="-431874" lat="60.4580806041" lon="5.44191063023">
		<tag k="name" v="Merkesvika" />
		<tag k="natural" v="bay" />
		<tag k="ssr:stedsnr" v="141813" />
	</node>
	<node id="-431872" lat="60.2655861143" lon="5.26477499782">
		<tag k="name" v="Eikeneset" />
		<tag k="natural" v="cape" />
		<tag k="ssr:stedsnr" v="141810" />
	</node>
	<node id="-431871" lat="60.2662722237" lon="5.27151388779">
		<tag k="name" v="Kobbevika" />
		<tag k="natural" v="bay" />
		<tag k="ssr:stedsnr" v="141808" />
	</node>
	<node id="-431861" lat="60.3206138849" lon="5.26179721366">
		<tag k="name" v="Knappasundet" />
		<tag k="natural" v="strait" />
		<tag k="ssr:stedsnr" v="141775" />
	</node>
	<node id="-433904" lat="60.345369442" lon="5.22646111766">
		<tag k="name" v="Litleholmen" />
		<tag k="place" v="islet" />
		<tag k="ssr:stedsnr" v="749009" />
	</node>
	<node id="-433903" lat="60.4964833467" lon="5.3891896958">
		<tag k="name" v="Vollavika" />
		<tag k="natural" v="bay" />
		<tag k="ssr:stedsnr" v="748990" />
	</node>
	<node id="-433902" lat="60.4412694482" lon="5.4836972153">
		<tag k="name" v="Haggardsneset" />
		<tag k="natural" v="cape" />
		<tag k="ssr:stedsnr" v="748987" />
	</node>
	<node id="-433900" lat="60.485238892" lon="5.40709444501">
		<tag k="fixme" v="consider seamark:type=rock or natural=shoal" />
		<tag k="name" v="Kvernhusskjeret" />
		<tag k="place" v="islet" />
		<tag k="ssr:stedsnr" v="748973" />
	</node>
	<node id="-431851" lat="60.3520250037" lon="5.18082222459">
		<tag k="name" v="Kalandsholmen" />
		<tag k="place" v="islet" />
		<tag k="ssr:stedsnr" v="141530" />
	</node>
	<node id="-433898" lat="60.2265888847" lon="5.28848610288">
		<tag k="name" v="Nordre Eidet" />
		<tag k="place" v="locality" />
		<tag k="ssr:stedsnr" v="748951" />
	</node>
	<node id="-431849" lat="60.3295116317" lon="5.25005463187">
		<tag k="name" v="Hellersvika" />
		<tag k="natural" v="bay" />
		<tag k="ssr:stedsnr" v="141519" />
	</node>
	<node id="-431847" lat="60.4492388913" lon="5.29491110632">
		<tag k="name" v="Ingeborgvika" />
		<tag k="natural" v="bay" />
		<tag k="ssr:stedsnr" v="141401" />
	</node>
	<node id="-431846" lat="60.4532249967" lon="5.29009444479">
		<tag k="fixme" v="consider seamark:type=rock or natural=shoal" />
		<tag k="name" v="Storaskjeret" />
		<tag k="place" v="islet" />
		<tag k="ssr:stedsnr" v="141397" />
	</node>
	<node id="-433889" lat="60.219388886" lon="5.30375555224">
		<tag k="name" v="Husanesholmen" />
		<tag k="place" v="islet" />
		<tag k="ssr:stedsnr" v="748896" />
	</node>
	<node id="-431840" lat="60.3300611087" lon="5.21828610586">
		<tag k="name" v="Litla Bogøyna" />
		<tag k="place" v="island" />
		<tag k="ssr:stedsnr" v="141367" />
	</node>
	<node id="-432080" lat="60.445049999" lon="5.45351110653">
		<tag k="name" v="Apalneset" />
		<tag k="natural" v="cape" />
		<tag k="ssr:stedsnr" v="202095" />
	</node>
	<node id="-433886" lat="60.2207888854" lon="5.33435832676">
		<tag k="name" v="Trollholmen" />
		<tag k="place" v="islet" />
		<tag k="ssr:stedsnr" v="748887" />
	</node>
	<node id="-433873" lat="60.2685555523" lon="5.27852500927">
		<tag k="name" v="Grimseidsundet" />
		<tag k="natural" v="strait" />
		<tag k="ssr:stedsnr" v="748833" />
	</node>
	<node id="-433872" lat="60.265127781" lon="5.27555277893">
		<tag k="name" v="Bjørnaneset" />
		<tag k="natural" v="cape" />
		<tag k="ssr:stedsnr" v="748828" />
	</node>
	<node id="-431823" lat="60.4561555554" lon="5.27870277888">
		<tag k="name" v="Juvvika" />
		<tag k="natural" v="bay" />
		<tag k="ssr:stedsnr" v="141319" />
	</node>
	<node id="-431809" lat="60.2462388912" lon="5.23600833244">
		<tag k="name" v="Røytepollen" />
		<tag k="natural" v="bay" />
		<tag k="ssr:stedsnr" v="141051" />
	</node>
	<node id="-431807" lat="60.3197972181" lon="5.22071944959">
		<tag k="name" v="Grimstadholmen" />
		<tag k="place" v="islet" />
		<tag k="ssr:stedsnr" v="141044" />
	</node>
	<node id="-433853" lat="60.357766663" lon="5.17633888927">
		<tag k="name" v="Kalvholmen" />
		<tag k="place" v="islet" />
		<tag k="ssr:stedsnr" v="748532" />
	</node>
	<node id="-431804" lat="60.2952611089" lon="5.2081611147">
		<tag k="name" v="Knutsvika" />
		<tag k="natural" v="bay" />
		<tag k="ssr:stedsnr" v="141009" />
	</node>
	<node id="-433843" lat="60.4570055552" lon="5.27341388789">
		<tag k="fixme" v="consider seamark:type=rock or natural=shoal" />
		<tag k="name" v="Kipaskjeret" />
		<tag k="place" v="islet" />
		<tag k="ssr:stedsnr" v="748304" />
	</node>
	<node id="-431794" lat="60.2538305534" lon="5.24172222665">
		<tag k="name" v="Krokstøvika" />
		<tag k="natural" v="bay" />
		<tag k="ssr:stedsnr" v="141089" />
	</node>
	<node id="-432072" lat="60.3131583319" lon="5.20816943996">
		<tag k="fixme" v="consider seamark:type=rock or natural=shoal" />
		<tag k="name" v="Illskjeret" />
		<tag k="place" v="islet" />
		<tag k="ssr:stedsnr" v="202051" />
	</node>
	<node id="-433838" lat="60.5232305569" lon="5.31557778071">
		<tag k="name" v="Nordvika" />
		<tag k="natural" v="bay" />
		<tag k="ssr:stedsnr" v="748290" />
	</node>
	<node id="-431789" lat="60.3865388901" lon="5.30174167053">
		<tag k="name" v="Kirkebukten" />
		<tag k="natural" v="bay" />
		<tag k="ssr:stedsnr" v="141073" />
	</node>
	<node id="-431788" lat="60.2640527813" lon="5.23391666234">
		<tag k="name" v="Mørkevika" />
		<tag k="natural" v="bay" />
		<tag k="ssr:stedsnr" v="141072" />
	</node>
	<node id="-431786" lat="60.3889000041" lon="5.31116944795">
		<tag k="name" v="Jekteviken" />
		<tag k="natural" v="bay" />
		<tag k="ssr:stedsnr" v="141069" />
	</node>
	<node id="-431784" lat="60.3936083322" lon="5.2636694475">
		<tag k="name" v="Wallemsviken" />
		<tag k="natural" v="bay" />
		<tag k="ssr:stedsnr" v="141056" />
	</node>
	<node id="-431781" lat="60.446294448" lon="5.30733333347">
		<tag k="name" v="Båtneset" />
		<tag k="natural" v="cape" />
		<tag k="ssr:stedsnr" v="140381" />
	</node>
	<node id="-431774" lat="60.4776305561" lon="5.25553334054">
		<tag k="name" v="Steinsneset" />
		<tag k="natural" v="cape" />
		<tag k="ssr:stedsnr" v="127466" />
	</node>
	<node id="-433819" lat="60.2515166682" lon="5.23007776965">
		<tag k="name" v="Åleknappsundet" />
		<tag k="natural" v="strait" />
		<tag k="ssr:stedsnr" v="748097" />
	</node>
	<node id="-431764" lat="60.2510333368" lon="5.31734999963">
		<tag k="name" v="Salbuholmen" />
		<tag k="place" v="islet" />
		<tag k="ssr:stedsnr" v="126875" />
	</node>
	<node id="-431763" lat="60.2518166713" lon="5.23211111661">
		<tag k="name" v="Åleknappen" />
		<tag k="natural" v="cape" />
		<tag k="ssr:stedsnr" v="126873" />
	</node>
	<node id="-431762" lat="60.2181570777" lon="5.24891853023">
		<tag k="name" v="Storavika" />
		<tag k="natural" v="bay" />
		<tag k="ssr:stedsnr" v="126863" />
	</node>
	<node id="-433805" lat="60.3208666646" lon="5.21783333927">
		<tag k="name" v="Litleholmen" />
		<tag k="place" v="islet" />
		<tag k="ssr:stedsnr" v="748042" />
	</node>
	<node id="-431755" lat="60.2252304318" lon="5.28222928421">
		<tag k="name" v="Gjelevågen" />
		<tag k="natural" v="bay" />
		<tag k="ssr:stedsnr" v="126810" />
	</node>
	<node id="-433800" lat="60.3891111088" lon="5.20993332483">
		<tag k="name" v="Olsvikaneset" />
		<tag k="natural" v="cape" />
		<tag k="ssr:stedsnr" v="748025" />
	</node>
	<node id="-433798" lat="60.2999027744" lon="5.20570832644">
		<tag k="name" v="Botnaneset" />
		<tag k="natural" v="cape" />
		<tag k="ssr:stedsnr" v="748015" />
	</node>
	<node id="-432075" lat="60.4492595002" lon="5.45068207957">
		<tag k="name" v="Kvamsstøvika" />
		<tag k="natural" v="bay" />
		<tag k="ssr:stedsnr" v="202066" />
	</node>
	<node id="-433793" lat="60.2683722228" lon="5.2157194486">
		<tag k="name" v="Slåttholmen" />
		<tag k="place" v="islet" />
		<tag k="ssr:stedsnr" v="734905" />
	</node>
	<node id="-431741" lat="60.4295333374" lon="5.46033055176">
		<tag k="name" v="Arnavågen" />
		<tag k="natural" v="bay" />
		<tag k="ssr:stedsnr" v="126562" />
	</node>
	<node id="-433788" lat="60.3213083328" lon="5.29005000213">
		<tag k="name" v="Bøneset" />
		<tag k="natural" v="cape" />
		<tag k="ssr:stedsnr" v="734774" />
	</node>
	<node id="-433783" lat="60.4351305583" lon="5.27953054645">
		<tag k="name" v="Helleneset" />
		<tag k="natural" v="cape" />
		<tag k="ssr:stedsnr" v="734647" />
	</node>
	<node id="-431728" lat="60.216316217" lon="5.31752952373">
		<tag k="name" v="Austnesholmane" />
		<tag k="place" v="islet" />
		<tag k="ssr:stedsnr" v="125860" />
	</node>
	<node id="-431727" lat="60.2219553636" lon="5.31995104053">
		<tag k="name" v="Tortelsvika" />
		<tag k="natural" v="bay" />
		<tag k="ssr:stedsnr" v="125859" />
	</node>
	<node id="-431726" lat="60.2480254698" lon="5.23287383674">
		<tag k="alt_name" v="Holmevika" />
		<tag k="name" v="Holmevikane" />
		<tag k="natural" v="bay" />
		<tag k="ssr:stedsnr" v="125701" />
	</node>
	<node id="-431719" lat="60.5153916648" lon="5.3448166679">
		<tag k="name" v="Håflua" />
		<tag k="place" v="locality" />
		<tag k="seamark:type" v="rock" />
		<tag k="ssr:stedsnr" v="105165" />
	</node>
	<node id="-433767" lat="60.2589956436" lon="5.28419376732">
		<tag k="name" v="Store Brandaneset" />
		<tag k="natural" v="cape" />
		<tag k="ssr:stedsnr" v="733893" />
	</node>
	<node id="-431718" lat="60.4986472247" lon="5.38600833302">
		<tag k="name" v="Bukkehellaren" />
		<tag k="natural" v="cape" />
		<tag k="ssr:stedsnr" v="105160" />
	</node>
	<node id="-433764" lat="60.2550472248" lon="5.27548611676">
		<tag k="name" v="Grønevika" />
		<tag k="natural" v="bay" />
		<tag k="ssr:stedsnr" v="733870" />
	</node>
	<node id="-433763" lat="60.2311111112" lon="5.35793611298">
		<tag k="name" v="Nordvika" />
		<tag k="natural" v="bay" />
		<tag k="ssr:stedsnr" v="733859" />
	</node>
	<node id="-431712" lat="60.3928749962" lon="5.26263888215">
		<tag k="name" v="Wallemsneset" />
		<tag k="natural" v="cape" />
		<tag k="ssr:stedsnr" v="86725" />
	</node>
	<node id="-431710" lat="60.3823472204" lon="5.33551389681">
		<tag k="name" v="Florida" />
		<tag k="natural" v="cape" />
		<tag k="ssr:stedsnr" v="86410" />
	</node>
	<node id="-433757" lat="60.2235694408" lon="5.30512222884">
		<tag k="name" v="Austrevågen" />
		<tag k="natural" v="bay" />
		<tag k="ssr:stedsnr" v="733802" />
	</node>
	<node id="-431708" lat="60.4240611108" lon="5.54557222144">
		<tag k="name" v="Songstadneset" />
		<tag k="natural" v="cape" />
		<tag k="ssr:stedsnr" v="82914" />
	</node>
	<node id="-431704" lat="60.4992627833" lon="5.38548073628">
		<tag k="name" v="Gudmundshavnen" />
		<tag k="natural" v="bay" />
		<tag k="ssr:stedsnr" v="82751" />
	</node>
	<node id="-433749" lat="60.3935388846" lon="5.31156666575">
		<tag k="name" v="Nøstet" />
		<tag k="natural" v="cape" />
		<tag k="ssr:stedsnr" v="733663" />
	</node>
	<node id="-433741" lat="60.4601777782" lon="5.27065278575">
		<tag k="name" v="Danmarksneset" />
		<tag k="natural" v="cape" />
		<tag k="ssr:stedsnr" v="733520" />
	</node>
	<node id="-431691" lat="60.4373861134" lon="5.49081110568">
		<tag k="name" v="Kyrkjevollneset" />
		<tag k="natural" v="cape" />
		<tag k="ssr:stedsnr" v="81997" />
	</node>
	<node id="-431690" lat="60.2223888894" lon="5.29760556032">
		<tag k="name" v="Grindavika" />
		<tag k="natural" v="bay" />
		<tag k="ssr:stedsnr" v="81987" />
	</node>
	<node id="-433730" lat="60.2104444443" lon="5.29203610691">
		<tag k="name" v="Rishavnholmen" />
		<tag k="place" v="islet" />
		<tag k="ssr:stedsnr" v="732771" />
	</node>
	<node id="-431670" lat="60.2187444435" lon="5.30248888062">
		<tag k="name" v="Vestre Husanesholmen" />
		<tag k="place" v="islet" />
		<tag k="ssr:stedsnr" v="81889" />
	</node>
	<node id="-431666" lat="60.3916665565" lon="5.2597889854">
		<tag k="name" v="Gravdalsviken" />
		<tag k="natural" v="bay" />
		<tag k="ssr:stedsnr" v="82031" />
	</node>
	<node id="-431657" lat="60.2677000019" lon="5.32387777099">
		<tag k="name" v="Kylleren" />
		<tag k="natural" v="strait" />
		<tag k="ssr:stedsnr" v="81864" />
	</node>
	<node id="-431654" lat="60.2680499971" lon="5.25837222714">
		<tag k="name" v="Austre Ollforevågen" />
		<tag k="natural" v="bay" />
		<tag k="ssr:stedsnr" v="81844" />
	</node>
	<node id="-431652" lat="60.2644944449" lon="5.26396945215">
		<tag k="name" v="Eikevika" />
		<tag k="natural" v="bay" />
		<tag k="ssr:stedsnr" v="81833" />
	</node>
	<node id="-433696" lat="60.2234249997" lon="5.2784749967">
		<tag k="name" v="Straumen" />
		<tag k="natural" v="bay" />
		<tag k="ssr:stedsnr" v="688957" />
	</node>
	<node id="-433692" lat="60.2089514661" lon="5.24816228994">
		<tag k="name" v="Korsavika" />
		<tag k="natural" v="bay" />
		<tag k="ssr:stedsnr" v="688943" />
	</node>
	<node id="-433690" lat="60.2117527754" lon="5.28246389561">
		<tag k="name" v="Kveiteholet" />
		<tag k="natural" v="bay" />
		<tag k="ssr:stedsnr" v="688935" />
	</node>
	<node id="-433687" lat="60.4307388848" lon="5.58207222775">
		<tag k="name" v="Naustvika" />
		<tag k="natural" v="bay" />
		<tag k="ssr:stedsnr" v="688917" />
	</node>
	<node id="-433683" lat="60.2285472178" lon="5.3434277731">
		<tag k="name" v="Bekkjarvika" />
		<tag k="natural" v="bay" />
		<tag k="ssr:stedsnr" v="688904" />
	</node>
	<node id="-431634" lat="60.3472361145" lon="5.18567777959">
		<tag k="name" v="Vatnarneset" />
		<tag k="natural" v="cape" />
		<tag k="ssr:stedsnr" v="81582" />
	</node>
	<node id="-433752" lat="60.3557361068" lon="5.17904166676">
		<tag k="name" v="Sørehavn" />
		<tag k="natural" v="cape" />
		<tag k="ssr:stedsnr" v="733720" />
	</node>
	<node id="-433678" lat="60.2202944428" lon="5.3098500039">
		<tag k="name" v="Djupevika" />
		<tag k="natural" v="bay" />
		<tag k="ssr:stedsnr" v="688883" />
	</node>
	<node id="-433677" lat="60.2194111095" lon="5.31869166494">
		<tag k="name" v="Tortelsvikskaget" />
		<tag k="natural" v="cape" />
		<tag k="ssr:stedsnr" v="688881" />
	</node>
	<node id="-431627" lat="60.3619055517" lon="5.17918054766">
		<tag k="name" v="Gabrielsholmen" />
		<tag k="place" v="islet" />
		<tag k="ssr:stedsnr" v="81536" />
	</node>
	<node id="-431622" lat="60.2405111091" lon="5.29318055246">
		<tag k="name" v="Berneset" />
		<tag k="natural" v="cape" />
		<tag k="ssr:stedsnr" v="81386" />
	</node>
	<node id="-433669" lat="60.2594916671" lon="5.26627499942">
		<tag k="name" v="Røytepøyla" />
		<tag k="natural" v="bay" />
		<tag k="ssr:stedsnr" v="688843" />
	</node>
	<node id="-433667" lat="60.2707416625" lon="5.26564445378">
		<tag k="name" v="Vestre Eidsholmen" />
		<tag k="place" v="islet" />
		<tag k="ssr:stedsnr" v="688837" />
	</node>
	<node id="-431609" lat="60.4665666621" lon="5.27545555061">
		<tag k="fixme" v="consider seamark:type=rock or natural=shoal" />
		<tag k="name" v="Uraskjeret" />
		<tag k="place" v="islet" />
		<tag k="ssr:stedsnr" v="81321" />
	</node>
	<node id="-431578" lat="60.2584583319" lon="5.22694444733">
		<tag k="fixme" v="consider seamark:type=rock or natural=shoal" />
		<tag k="name" v="Nordre Fuglaskjeret" />
		<tag k="place" v="islet" />
		<tag k="ssr:stedsnr" v="81092" />
	</node>
	<node id="-433625" lat="60.3486138912" lon="5.18477222559">
		<tag k="fixme" v="consider seamark:type=rock or natural=shoal" />
		<tag k="name" v="Myraskjeret" />
		<tag k="place" v="islet" />
		<tag k="ssr:stedsnr" v="688561" />
	</node>
	<node id="-433623" lat="60.3468222201" lon="5.19090556073">
		<tag k="name" v="Setrevika" />
		<tag k="natural" v="bay" />
		<tag k="ssr:stedsnr" v="688557" />
	</node>
	<node id="-431573" lat="60.3895962756" lon="5.2943642534">
		<tag k="name" v="Sørevågen" />
		<tag k="natural" v="bay" />
		<tag k="ssr:stedsnr" v="81062" />
	</node>
	<node id="-431572" lat="60.408069446" lon="5.32071388951">
		<tag k="name" v="Sjøflyhavnen" />
		<tag k="natural" v="bay" />
		<tag k="ssr:stedsnr" v="81059" />
	</node>
	<node id="-433618" lat="60.3606611157" lon="5.1784000079">
		<tag k="name" v="Træsholmen" />
		<tag k="place" v="islet" />
		<tag k="ssr:stedsnr" v="688523" />
	</node>
	<node id="-431568" lat="60.2118944427" lon="5.28699444505">
		<tag k="name" v="Havnaholmen" />
		<tag k="place" v="islet" />
		<tag k="ssr:stedsnr" v="81049" />
	</node>
	<node id="-433615" lat="60.2399888884" lon="5.29138611041">
		<tag k="name" v="Botnavika" />
		<tag k="natural" v="bay" />
		<tag k="ssr:stedsnr" v="688382" />
	</node>
	<node id="-431566" lat="60.3771944482" lon="5.18943056286">
		<tag k="name" v="Breivika" />
		<tag k="natural" v="bay" />
		<tag k="ssr:stedsnr" v="81043" />
	</node>
	<node id="-431693" lat="60.2711555532" lon="5.22031389334">
		<tag k="name" v="Notatangen" />
		<tag k="natural" v="cape" />
		<tag k="ssr:stedsnr" v="82106" />
	</node>
	<node id="-431564" lat="60.3156666637" lon="5.20895555569">
		<tag k="fixme" v="consider seamark:type=rock or natural=shoal" />
		<tag k="name" v="Grasdalsskjeret" />
		<tag k="place" v="islet" />
		<tag k="ssr:stedsnr" v="81036" />
	</node>
	<node id="-431559" lat="60.3818983376" lon="5.19848606812">
		<tag k="name" v="Leirvika" />
		<tag k="natural" v="bay" />
		<tag k="ssr:stedsnr" v="81021" />
	</node>
	<node id="-431558" lat="60.4281666659" lon="5.46722221412">
		<tag k="name" v="Likstø" />
		<tag k="natural" v="beach" />
		<tag k="place" v="locality" />
		<tag k="ssr:stedsnr" v="81018" />
	</node>
	<node id="-431557" lat="60.3399666696" lon="5.18833333692">
		<tag k="name" v="Myravika" />
		<tag k="natural" v="bay" />
		<tag k="ssr:stedsnr" v="81016" />
	</node>
	<node id="-430568" lat="60.4492611151" lon="5.28066388356">
		<tag k="name" v="Storflua" />
		<tag k="natural" v="shoal" />
		<tag k="place" v="locality" />
		<tag k="ssr:stedsnr" v="269549" />
	</node>
	<node id="-431544" lat="60.2660222228" lon="5.22582777846">
		<tag k="fixme" v="consider seamark:type=rock or natural=shoal" />
		<tag k="name" v="Myntevikskjeret" />
		<tag k="place" v="islet" />
		<tag k="ssr:stedsnr" v="81124" />
	</node>
	<node id="-431531" lat="60.2758138923" lon="5.20891665971">
		<tag k="name" v="Vardaneset" />
		<tag k="natural" v="cape" />
		<tag k="ssr:stedsnr" v="67617" />
	</node>
	<node id="-431527" lat="60.5265574643" lon="5.29918426076">
		<tag k="name" v="Hordvikneset" />
		<tag k="natural" v="cape" />
		<tag k="ssr:stedsnr" v="67413" />
	</node>
	<node id="-431520" lat="60.2560250028" lon="5.23334166046">
		<tag k="name" v="Hjellestadosen" />
		<tag k="natural" v="bay" />
		<tag k="ssr:stedsnr" v="66886" />
	</node>
	<node id="-433565" lat="60.2735444478" lon="5.21322222713">
		<tag k="name" v="Breiavika" />
		<tag k="natural" v="bay" />
		<tag k="ssr:stedsnr" v="688119" />
	</node>
	<node id="-433562" lat="60.4292277815" lon="5.61692776849">
		<tag k="name" v="Synneset" />
		<tag k="natural" v="cape" />
		<tag k="ssr:stedsnr" v="688108" />
	</node>
	<node id="-431510" lat="60.3145833344" lon="5.2636999927">
		<tag k="name" v="Dolvika" />
		<tag k="natural" v="bay" />
		<tag k="ssr:stedsnr" v="66755" />
	</node>
	<node id="-433557" lat="60.2701250024" lon="5.22185832687">
		<tag k="name" v="Steingardsvika" />
		<tag k="natural" v="bay" />
		<tag k="ssr:stedsnr" v="688099" />
	</node>
	<node id="-433549" lat="60.3399194454" lon="5.18547499513">
		<tag k="name" v="Magnevika" />
		<tag k="natural" v="bay" />
		<tag k="ssr:stedsnr" v="688016" />
	</node>
	<node id="-433548" lat="60.3318585925" lon="5.22432528796">
		<tag k="name" v="Søra Sildavika" />
		<tag k="natural" v="bay" />
		<tag k="ssr:stedsnr" v="688009" />
	</node>
	<node id="-433547" lat="60.2284749981" lon="5.27480000372">
		<tag k="name" v="Stampavika" />
		<tag k="natural" v="bay" />
		<tag k="ssr:stedsnr" v="687971" />
	</node>
	<node id="-431498" lat="60.3769763862" lon="5.17779674251">
		<tag k="name" v="Tollneset" />
		<tag k="natural" v="cape" />
		<tag k="ssr:stedsnr" v="66634" />
	</node>
	<node id="-431491" lat="60.4301638936" lon="5.46457223012">
		<tag k="name" v="Storaneset" />
		<tag k="natural" v="cape" />
		<tag k="ssr:stedsnr" v="66589" />
	</node>
	<node id="-433537" lat="60.2600277799" lon="5.21351667523">
		<tag k="name" v="Egdholmsvågen" />
		<tag k="natural" v="bay" />
		<tag k="ssr:stedsnr" v="687072" />
	</node>
	<node id="-433535" lat="60.4351777779" lon="5.45763333674">
		<tag k="name" v="Holmen" />
		<tag k="natural" v="cape" />
		<tag k="ssr:stedsnr" v="687041" />
	</node>
	<node id="-431485" lat="60.4736499974" lon="5.42147222294">
		<tag k="alt_name" v="Breisteinsskjeret" />
		<tag k="fixme" v="consider seamark:type=rock or natural=shoal" />
		<tag k="name" v="Liaskjeret" />
		<tag k="place" v="islet" />
		<tag k="ssr:stedsnr" v="66510" />
	</node>
	<node id="-433531" lat="60.3220472239" lon="5.25606388896">
		<tag k="name" v="Knappen" />
		<tag k="natural" v="cape" />
		<tag k="ssr:stedsnr" v="674593" />
	</node>
	<node id="-433529" lat="60.2709749955" lon="5.21435554914">
		<tag k="name" v="Litle Løholmen" />
		<tag k="place" v="islet" />
		<tag k="ssr:stedsnr" v="673933" />
	</node>
	<node id="-431477" lat="60.5188777809" lon="5.3284999993">
		<tag k="name" v="Fiskaneset" />
		<tag k="natural" v="cape" />
		<tag k="ssr:stedsnr" v="66360" />
	</node>
	<node id="-434750" lat="60.400294446" lon="5.30168333922">
		<tag k="name" v="Nordnespynten" />
		<tag k="natural" v="cape" />
		<tag k="ssr:stedsnr" v="938048" />
	</node>
	<node id="-433515" lat="60.444361111" lon="5.45435555153">
		<tag k="name" v="Festtangen" />
		<tag k="natural" v="cape" />
		<tag k="ssr:stedsnr" v="673615" />
	</node>
	<node id="-434452" lat="60.24896389" lon="5.2725055474">
		<tag k="fixme" v="consider seamark:type=rock or natural=shoal" />
		<tag k="name" v="Mildeskjeret" />
		<tag k="place" v="islet" />
		<tag k="ssr:stedsnr" v="870766" />
	</node>
	<node id="-431447" lat="60.3827944427" lon="5.31919445108">
		<tag k="name" v="Damsgårdssundet" />
		<tag k="natural" v="strait" />
		<tag k="ssr:stedsnr" v="26450" />
	</node>
	<node id="-431446" lat="60.442759608" lon="5.29822711828">
		<tag k="alt_name" v="Tømmervika" />
		<tag k="name" v="Tømmervågen" />
		<tag k="natural" v="bay" />
		<tag k="ssr:stedsnr" v="25990" />
	</node>
	<node id="-430649" lat="60.2651435495" lon="5.21976023846">
		<tag k="name" v="Grunnasundholmane" />
		<tag k="place" v="islet" />
		<tag k="ssr:stedsnr" v="309912" />
	</node>
	<node id="-433492" lat="60.2199861133" lon="5.24634721479">
		<tag k="name" v="Storavikskaget" />
		<tag k="natural" v="cape" />
		<tag k="ssr:stedsnr" v="672829" />
	</node>
	<node id="-433485" lat="60.2392868204" lon="5.24681076413">
		<tag k="name" v="Store Svartholmen" />
		<tag k="place" v="islet" />
		<tag k="ssr:stedsnr" v="672656" />
	</node>
	<node id="-433483" lat="60.4164465297" lon="5.3083738085">
		<tag k="name" v="Nyhavn" />
		<tag k="natural" v="bay" />
		<tag k="ssr:stedsnr" v="672547" />
	</node>
	<node id="-433476" lat="60.2068972247" lon="5.27330832837">
		<tag k="name" v="Hendersvika" />
		<tag k="natural" v="bay" />
		<tag k="ssr:stedsnr" v="671767" />
	</node>
	<node id="-431425" lat="60.2656388909" lon="5.31788889292">
		<tag k="name" v="Vågsholmane" />
		<tag k="place" v="islet" />
		<tag k="ssr:stedsnr" v="21842" />
	</node>
	<node id="-431418" lat="60.2606749992" lon="5.30954722188">
		<tag k="name" v="Porsavika" />
		<tag k="natural" v="bay" />
		<tag k="ssr:stedsnr" v="21772" />
	</node>
	<node id="-433465" lat="60.4701972183" lon="5.46014166041">
		<tag k="alt_name" v="Steganeset" />
		<tag k="name" v="Stiganeset" />
		<tag k="natural" v="cape" />
		<tag k="ssr:stedsnr" v="650483" />
	</node>
	<node id="-433459" lat="60.3916449594" lon="5.28955918779">
		<tag k="name" v="Laksevågneset" />
		<tag k="natural" v="cape" />
		<tag k="ssr:stedsnr" v="634045" />
	</node>
	<node id="-433458" lat="60.3922250041" lon="5.30724999859">
		<tag k="name" v="Sydnesfluene" />
		<tag k="natural" v="shoal" />
		<tag k="place" v="locality" />
		<tag k="ssr:stedsnr" v="634043" />
	</node>
	<node id="-433453" lat="60.4937861082" lon="5.25968889741">
		<tag k="name" v="Bådalsneset" />
		<tag k="natural" v="cape" />
		<tag k="ssr:stedsnr" v="632539" />
	</node>
	<node id="-433452" lat="60.4544388872" lon="5.26971666409">
		<tag k="name" v="Danmarkskallen" />
		<tag k="natural" v="shoal" />
		<tag k="place" v="locality" />
		<tag k="ssr:stedsnr" v="632540" />
	</node>
	<node id="-433451" lat="60.203263891" lon="5.25230554995">
		<tag k="name" v="Ystekulten" />
		<tag k="natural" v="shoal" />
		<tag k="place" v="locality" />
		<tag k="ssr:stedsnr" v="631030" />
	</node>
	<node id="-433449" lat="60.4355999996" lon="5.49908610707">
		<tag k="name" v="Tuneset" />
		<tag k="natural" v="cape" />
		<tag k="ssr:stedsnr" v="628000" />
	</node>
	<node id="-433436" lat="60.4240388921" lon="5.56301666614">
		<tag k="name" v="Kløvvika" />
		<tag k="natural" v="bay" />
		<tag k="ssr:stedsnr" v="627937" />
	</node>
	<node id="-433434" lat="60.2265861126" lon="5.35292500551">
		<tag k="name" v="Hølen" />
		<tag k="natural" v="bay" />
		<tag k="ssr:stedsnr" v="627925" />
	</node>
	<node id="-433425" lat="60.2697999998" lon="5.32388611532">
		<tag k="name" v="Mjelkevika" />
		<tag k="natural" v="bay" />
		<tag k="ssr:stedsnr" v="627870" />
	</node>
	<node id="-433421" lat="60.2659861081" lon="5.27350832628">
		<tag k="name" v="Kobbeneset" />
		<tag k="natural" v="cape" />
		<tag k="ssr:stedsnr" v="627845" />
	</node>
	<node id="-433409" lat="60.3215222217" lon="5.24257499417">
		<tag k="name" v="Blåbærvika" />
		<tag k="natural" v="bay" />
		<tag k="ssr:stedsnr" v="627801" />
	</node>
	<node id="-433407" lat="60.2572805551" lon="5.2876055566">
		<tag k="name" v="Raunholmen" />
		<tag k="place" v="islet" />
		<tag k="ssr:stedsnr" v="627790" />
	</node>
	<node id="-431344" lat="60.4702722254" lon="5.42639167225">
		<tag k="name" v="Kråna" />
		<tag k="natural" v="bay" />
		<tag k="ssr:stedsnr" v="20846" />
	</node>
	<node id="-433387" lat="60.2302611154" lon="5.36342221451">
		<tag k="name" v="Fløytet" />
		<tag k="natural" v="shoal" />
		<tag k="place" v="locality" />
		<tag k="ssr:stedsnr" v="627642" />
	</node>
	<node id="-431338" lat="60.2285694477" lon="5.36448888526">
		<tag k="name" v="Sagavika" />
		<tag k="natural" v="bay" />
		<tag k="ssr:stedsnr" v="20666" />
	</node>
	<node id="-434044" lat="60.3207638865" lon="5.23904721853">
		<tag k="name" v="Indrevika" />
		<tag k="natural" v="bay" />
		<tag k="ssr:stedsnr" v="809037" />
	</node>
	<node id="-431333" lat="60.3394194411" lon="5.2411694482">
		<tag k="name" v="Djupakastet" />
		<tag k="natural" v="bay" />
		<tag k="ssr:stedsnr" v="20630" />
	</node>
	<node id="-431331" lat="60.3642027782" lon="5.17518611827">
		<tag k="name" v="Neset" />
		<tag k="natural" v="cape" />
		<tag k="ssr:stedsnr" v="20529" />
	</node>
	<node id="-431324" lat="60.4367638915" lon="5.31547221998">
		<tag k="name" v="Koparvika" />
		<tag k="natural" v="bay" />
		<tag k="ssr:stedsnr" v="20346" />
	</node>
	<node id="-433367" lat="60.4642194466" lon="5.27294999781">
		<tag k="name" v="Langetangen" />
		<tag k="natural" v="cape" />
		<tag k="ssr:stedsnr" v="627332" />
	</node>
	<node id="-431297" lat="60.2657583339" lon="5.22126389705">
		<tag k="name" v="Store Grunnasundholmen" />
		<tag k="place" v="islet" />
		<tag k="ssr:stedsnr" v="20121" />
	</node>
	<node id="-431291" lat="60.3799472205" lon="5.34691110557">
		<tag k="name" v="Tonningsneset" />
		<tag k="natural" v="cape" />
		<tag k="ssr:stedsnr" v="20070" />
	</node>
	<node id="-431288" lat="60.2566166626" lon="5.19518056187">
		<tag k="fixme" v="consider seamark:type=rock or natural=shoal" />
		<tag k="name" v="Jaktaskjeret" />
		<tag k="place" v="islet" />
		<tag k="ssr:stedsnr" v="20063" />
	</node>
	<node id="-431283" lat="60.3921559629" lon="5.28475391988">
		<tag k="name" v="Nordrevågen" />
		<tag k="natural" v="bay" />
		<tag k="ssr:stedsnr" v="20054" />
	</node>
	<node id="-431280" lat="60.3929234114" lon="5.25553036095">
		<tag k="name" v="Hesteviken" />
		<tag k="natural" v="bay" />
		<tag k="ssr:stedsnr" v="20035" />
	</node>
	<node id="-431273" lat="60.2548527808" lon="5.20225000199">
		<tag k="name" v="Spikaren" />
		<tag k="place" v="islet" />
		<tag k="ssr:stedsnr" v="6903" />
	</node>
	<node id="-433319" lat="60.2684277817" lon="5.22191944071">
		<tag k="fixme" v="consider seamark:type=rock or natural=shoal" />
		<tag k="name" v="Hestaberget" />
		<tag k="place" v="islet" />
		<tag k="ssr:stedsnr" v="627134" />
	</node>
	<node id="-431269" lat="60.5167777804" lon="5.33709166324">
		<tag k="name" v="Merkesneset" />
		<tag k="natural" v="cape" />
		<tag k="ssr:stedsnr" v="6516" />
	</node>
	<node id="-431268" lat="60.5062999995" lon="5.37538611087">
		<tag k="name" v="Neset" />
		<tag k="natural" v="cape" />
		<tag k="ssr:stedsnr" v="6502" />
	</node>
	<node id="-433305" lat="60.2615333335" lon="5.23472222596">
		<tag k="fixme" v="consider seamark:type=rock or natural=shoal" />
		<tag k="name" v="Synningaskjeret" />
		<tag k="place" v="islet" />
		<tag k="ssr:stedsnr" v="627078" />
	</node>
	<node id="-433297" lat="60.3904389617" lon="5.21659410893">
		<tag k="name" v="Gullvika" />
		<tag k="natural" v="bay" />
		<tag k="ssr:stedsnr" v="627005" />
	</node>
	<node id="-433289" lat="60.2243888853" lon="5.25039166449">
		<tag k="name" v="Rettarbenken" />
		<tag k="natural" v="cape" />
		<tag k="ssr:stedsnr" v="626950" />
	</node>
	<node id="-433285" lat="60.4413750009" lon="5.31349721476">
		<tag k="fixme" v="consider seamark:type=rock or natural=shoal" />
		<tag k="name" v="Vollaskjera" />
		<tag k="place" v="islet" />
		<tag k="ssr:stedsnr" v="626400" />
	</node>
	<node id="-433284" lat="60.4428305568" lon="5.31880277493">
		<tag k="name" v="Ervikbukta" />
		<tag k="natural" v="bay" />
		<tag k="ssr:stedsnr" v="626396" />
	</node>
	<node id="-431231" lat="60.451986114" lon="5.29488333816">
		<tag k="name" v="Åstveitvågen" />
		<tag k="natural" v="bay" />
		<tag k="ssr:stedsnr" v="5478" />
	</node>
	<node id="-433276" lat="60.2451166639" lon="5.23758888466">
		<tag k="name" v="Seløysundet" />
		<tag k="natural" v="strait" />
		<tag k="ssr:stedsnr" v="626045" />
	</node>
	<node id="-433275" lat="60.319541668" lon="5.21712499158">
		<tag k="name" v="Kvalvika" />
		<tag k="natural" v="bay" />
		<tag k="ssr:stedsnr" v="626039" />
	</node>
	<node id="-433267" lat="60.4233027737" lon="5.26819722388">
		<tag k="bay" v="fjord" />
		<tag k="name" v="Byfjorden" />
		<tag k="natural" v="bay" />
		<tag k="ssr:stedsnr" v="613525" />
	</node>
	<node id="-434707" lat="60.2667630255" lon="5.27567767234">
		<tag k="name" v="Saltvika" />
		<tag k="natural" v="bay" />
		<tag k="ssr:stedsnr" v="931848" />
	</node>
	<node id="-433263" lat="60.3376194411" lon="5.24369165955">
		<tag k="name" v="Kjerreidvika" />
		<tag k="natural" v="bay" />
		<tag k="ssr:stedsnr" v="612801" />
	</node>
	<node id="-431213" lat="60.241902778" lon="5.2360055575">
		<tag k="name" v="Seløyna" />
		<tag k="place" v="island" />
		<tag k="ssr:stedsnr" v="4031" />
	</node>
	<node id="-433260" lat="60.3314027823" lon="5.33748055805">
		<tag k="name" v="Kaninholmen" />
		<tag k="place" v="islet" />
		<tag k="ssr:stedsnr" v="612763" />
	</node>
	<node id="-432658" lat="60.4444861129" lon="5.47639167444">
		<tag k="name" v="Leirvikneset" />
		<tag k="natural" v="cape" />
		<tag k="ssr:stedsnr" v="445993" />
	</node>
	<node id="-433257" lat="60.3490002695" lon="5.18427852411">
		<tag k="name" v="Alvøpollen" />
		<tag k="natural" v="bay" />
		<tag k="ssr:stedsnr" v="612726" />
	</node>
	<node id="-433242" lat="60.2618805571" lon="5.28480832898">
		<tag k="name" v="Trettålen" />
		<tag k="natural" v="bay" />
		<tag k="ssr:stedsnr" v="611912" />
	</node>
	<node id="-431193" lat="60.2689373021" lon="5.16966680278">
		<tag k="bay" v="fjord" />
		<tag k="name" v="Raunefjorden" />
		<tag k="natural" v="bay" />
		<tag k="ssr:stedsnr" v="855941" />
	</node>
	<node id="-433224" lat="60.4296666631" lon="5.50278889819">
		<tag k="name" v="Tveitavika" />
		<tag k="natural" v="bay" />
		<tag k="ssr:stedsnr" v="590830" />
	</node>
	<node id="-433219" lat="60.4228591393" lon="5.29556468387">
		<tag k="name" v="Biskopshavn" />
		<tag k="natural" v="bay" />
		<tag k="ssr:stedsnr" v="570981" />
	</node>
	<node id="-431161" lat="60.5246694481" lon="5.71151110525">
		<tag k="bay" v="fjord" />
		<tag k="name" v="Sørfjorden" />
		<tag k="natural" v="bay" />
		<tag k="ssr:stedsnr" v="263791" />
	</node>
	<node id="-433195" lat="60.4377416698" lon="5.4900972304">
		<tag k="name" v="Vollavika" />
		<tag k="natural" v="bay" />
		<tag k="ssr:stedsnr" v="566998" />
	</node>
	<node id="-433187" lat="60.2194861096" lon="5.29426389565">
		<tag k="name" v="Krabbasundet" />
		<tag k="place" v="islet" />
		<tag k="ssr:stedsnr" v="566971" />
	</node>
	<node id="-433184" lat="60.4256982805" lon="5.45864877567">
		<tag k="name" v="Breivika" />
		<tag k="natural" v="bay" />
		<tag k="ssr:stedsnr" v="566954" />
	</node>
	<node id="-433180" lat="60.422030555" lon="5.46395555675">
		<tag k="name" v="Ådnagrunnen" />
		<tag k="place" v="locality" />
		<tag k="seamark:type" v="rock" />
		<tag k="ssr:stedsnr" v="566939" />
	</node>
	<node id="-433176" lat="60.2292527773" lon="5.35613610551">
		<tag k="name" v="Godmorvika" />
		<tag k="natural" v="bay" />
		<tag k="ssr:stedsnr" v="566919" />
	</node>
	<node id="-431126" lat="60.4154499964" lon="5.31013889259">
		<tag k="name" v="Møllegrunnen" />
		<tag k="natural" v="shoal" />
		<tag k="place" v="locality" />
		<tag k="ssr:stedsnr" v="392027" />
	</node>
	<node id="-433170" lat="60.5037079695" lon="5.379679488">
		<tag k="name" v="Hetlevika" />
		<tag k="natural" v="bay" />
		<tag k="ssr:stedsnr" v="566880" />
	</node>
	<node id="-431121" lat="60.4871472264" lon="5.25854166286">
		<tag k="name" v="Slettestølsneset" />
		<tag k="natural" v="cape" />
		<tag k="ssr:stedsnr" v="388991" />
	</node>
	<node id="-430936" lat="60.2574777771" lon="5.18946665827">
		<tag k="name" v="Litla Ospøyna" />
		<tag k="place" v="islet" />
		<tag k="ssr:stedsnr" v="384085" />
	</node>
	<node id="-433164" lat="60.2565638863" lon="5.28124722741">
		<tag k="name" v="Sandholeholmen" />
		<tag k="place" v="islet" />
		<tag k="ssr:stedsnr" v="566863" />
	</node>
	<node id="-431113" lat="60.2044194416" lon="5.26074444844">
		<tag k="fixme" v="consider seamark:type=rock or natural=shoal" />
		<tag k="name" v="Galten" />
		<tag k="place" v="islet" />
		<tag k="ssr:stedsnr" v="385911" />
	</node>
	<node id="-433141" lat="60.34443889" lon="5.18339721736">
		<tag k="name" v="Myrapollen" />
		<tag k="natural" v="bay" />
		<tag k="ssr:stedsnr" v="566552" />
	</node>
	<node id="-431092" lat="60.3951361127" lon="5.23593333804">
		<tag k="name" v="Skåleviksfjæra" />
		<tag k="natural" v="bay" />
		<tag k="ssr:stedsnr" v="385038" />
	</node>
	<node id="-433139" lat="60.3475194471" lon="5.23415833144">
		<tag k="name" v="Hetlevikhølen" />
		<tag k="natural" v="bay" />
		<tag k="ssr:stedsnr" v="566549" />
	</node>
	<node id="-431090" lat="60.3317900222" lon="5.23277832343">
		<tag k="name" v="Skværvika" />
		<tag k="natural" v="bay" />
		<tag k="ssr:stedsnr" v="385004" />
	</node>
	<node id="-433137" lat="60.3483807209" lon="5.19184049884">
		<tag k="name" v="Valsmogbukten" />
		<tag k="natural" v="bay" />
		<tag k="ssr:stedsnr" v="566537" />
	</node>
	<node id="-431088" lat="60.4490499965" lon="5.47282221376">
		<tag k="name" v="Klubben" />
		<tag k="natural" v="cape" />
		<tag k="ssr:stedsnr" v="384995" />
	</node>
	<node id="-433135" lat="60.3503194418" lon="5.17941944653">
		<tag k="name" v="Småholmen" />
		<tag k="place" v="islet" />
		<tag k="ssr:stedsnr" v="566523" />
	</node>
	<node id="-431086" lat="60.4396861125" lon="5.48693888104">
		<tag k="name" v="Sabrovika" />
		<tag k="natural" v="bay" />
		<tag k="ssr:stedsnr" v="384990" />
	</node>
	<node id="-431081" lat="60.2261083317" lon="5.27963611019">
		<tag k="name" v="Kjenesvika" />
		<tag k="natural" v="bay" />
		<tag k="ssr:stedsnr" v="384948" />
	</node>
	<node id="-431080" lat="60.4219828415" lon="5.52526038849">
		<tag k="name" v="Takkvamsbukta" />
		<tag k="natural" v="bay" />
		<tag k="ssr:stedsnr" v="384947" />
	</node>
	<node id="-433121" lat="60.5171083332" lon="5.33632778459">
		<tag k="name" v="Merkesneset" />
		<tag k="natural" v="cape" />
		<tag k="ssr:stedsnr" v="566280" />
	</node>
	<node id="-431071" lat="60.268741671" lon="5.21891111653">
		<tag k="name" v="Nordre Steinskjeret" />
		<tag k="place" v="islet" />
		<tag k="ssr:stedsnr" v="385138" />
	</node>
	<node id="-431068" lat="60.2729999986" lon="5.2207722167">
		<tag k="fixme" v="consider seamark:type=rock or natural=shoal" />
		<tag k="name" v="Notabuskjeret" />
		<tag k="place" v="islet" />
		<tag k="ssr:stedsnr" v="385118" />
	</node>
	<node id="-431067" lat="60.2263138932" lon="5.35713611959">
		<tag k="name" v="Hølsundet" />
		<tag k="natural" v="strait" />
		<tag k="ssr:stedsnr" v="384901" />
	</node>
	<node id="-431065" lat="60.2262500023" lon="5.34686944097">
		<tag k="name" v="Bakarvikneset" />
		<tag k="natural" v="cape" />
		<tag k="ssr:stedsnr" v="384895" />
	</node>
	<node id="-431058" lat="60.2188527749" lon="5.3169555541">
		<tag k="name" v="Bryllaupsvika" />
		<tag k="natural" v="bay" />
		<tag k="ssr:stedsnr" v="384871" />
	</node>
	<node id="-431055" lat="60.4799861098" lon="5.41225556336">
		<tag k="name" v="Klubben" />
		<tag k="natural" v="cape" />
		<tag k="ssr:stedsnr" v="384862" />
	</node>
	<node id="-431050" lat="60.2614249982" lon="5.31545556377">
		<tag k="name" v="Rundesterten" />
		<tag k="natural" v="cape" />
		<tag k="ssr:stedsnr" v="384845" />
	</node>
	<node id="-431046" lat="60.2619222261" lon="5.33096110993">
		<tag k="fixme" v="consider seamark:type=rock or natural=shoal" />
		<tag k="name" v="Notabuskjeret" />
		<tag k="place" v="islet" />
		<tag k="ssr:stedsnr" v="384831" />
	</node>
	<node id="-431044" lat="60.2714805586" lon="5.2673777735">
		<tag k="name" v="Austre Eidsholmen" />
		<tag k="place" v="islet" />
		<tag k="ssr:stedsnr" v="384821" />
	</node>
	<node id="-431040" lat="60.2672083322" lon="5.26889166333">
		<tag k="name" v="Åsaholmen" />
		<tag k="place" v="islet" />
		<tag k="ssr:stedsnr" v="384811" />
	</node>
	<node id="-433083" lat="60.2574972245" lon="5.23773054941">
		<tag k="name" v="Hammaren" />
		<tag k="natural" v="cape" />
		<tag k="ssr:stedsnr" v="566097" />
	</node>
	<node id="-434335" lat="60.4445194429" lon="5.31596666633">
		<tag k="name" v="Kotabukta" />
		<tag k="natural" v="bay" />
		<tag k="ssr:stedsnr" v="869395" />
	</node>
	<node id="-433075" lat="60.3184111092" lon="5.22010278521">
		<tag k="name" v="Vågen" />
		<tag k="natural" v="bay" />
		<tag k="ssr:stedsnr" v="566065" />
	</node>
	<node id="-430920" lat="60.3882127929" lon="5.20525146363">
		<tag k="name" v="Gjerdingsneset" />
		<tag k="natural" v="cape" />
		<tag k="ssr:stedsnr" v="384013" />
	</node>
	<node id="-433070" lat="60.377591664" lon="5.19110556317">
		<tag k="name" v="Nilsaneset" />
		<tag k="natural" v="cape" />
		<tag k="ssr:stedsnr" v="566045" />
	</node>
	<node id="-433066" lat="60.2847222201" lon="5.20406111895">
		<tag k="name" v="Risdalsvika" />
		<tag k="natural" v="bay" />
		<tag k="ssr:stedsnr" v="566035" />
	</node>
	<node id="-433063" lat="60.454061108" lon="5.287166662">
		<tag k="fixme" v="consider seamark:type=rock or natural=shoal" />
		<tag k="name" v="Midtskjeret" />
		<tag k="place" v="islet" />
		<tag k="ssr:stedsnr" v="565387" />
	</node>
	<node id="-431010" lat="60.3183527774" lon="5.26313889568">
		<tag k="name" v="Søreidneset" />
		<tag k="natural" v="cape" />
		<tag k="ssr:stedsnr" v="384775" />
	</node>
	<node id="-433050" lat="60.3094777741" lon="5.30230277806">
		<tag k="name" v="Steinsvikneset" />
		<tag k="natural" v="cape" />
		<tag k="ssr:stedsnr" v="551861" />
	</node>
	<node id="-433046" lat="60.2878777804" lon="5.20815833224">
		<tag k="name" v="Setevika" />
		<tag k="natural" v="bay" />
		<tag k="ssr:stedsnr" v="551832" />
	</node>
	<node id="-433045" lat="60.3343138887" lon="5.22583332926">
		<tag k="name" v="Stora Bogøyna" />
		<tag k="natural" v="cape" />
		<tag k="ssr:stedsnr" v="551817" />
	</node>
	<node id="-430996" lat="60.4542138919" lon="5.2890722242">
		<tag k="name" v="Båtsmannsvika" />
		<tag k="natural" v="bay" />
		<tag k="ssr:stedsnr" v="384390" />
	</node>
	<node id="-430995" lat="60.2429444451" lon="5.25959722696">
		<tag k="name" v="Storesjøane" />
		<tag k="natural" v="beach" />
		<tag k="place" v="locality" />
		<tag k="ssr:stedsnr" v="384374" />
	</node>
	<node id="-430985" lat="60.4607888868" lon="5.26839721605">
		<tag k="name" v="Knappen" />
		<tag k="natural" v="cape" />
		<tag k="ssr:stedsnr" v="384314" />
	</node>
	<node id="-434667" lat="60.3631083314" lon="5.17365832754">
		<tag k="fixme" v="consider seamark:type=rock or natural=shoal" />
		<tag k="name" v="Gullskjeret" />
		<tag k="place" v="islet" />
		<tag k="ssr:stedsnr" v="931539" />
	</node>
	<node id="-433007" lat="60.4441861119" lon="5.47525277037">
		<tag k="name" v="Leiro" />
		<tag k="natural" v="bay" />
		<tag k="ssr:stedsnr" v="551018" />
	</node>
	<node id="-430907" lat="60.5151611144" lon="5.27847500769">
		<tag k="name" v="Bogen" />
		<tag k="natural" v="bay" />
		<tag k="ssr:stedsnr" v="370544" />
	</node>
	<node id="-430944" lat="60.4306722227" lon="5.60366944683">
		<tag k="name" v="Risnestangen" />
		<tag k="natural" v="cape" />
		<tag k="ssr:stedsnr" v="384130" />
	</node>
	<node id="-430939" lat="60.2507833299" lon="5.23229999901">
		<tag k="name" v="Søre Ålevågen" />
		<tag k="natural" v="bay" />
		<tag k="ssr:stedsnr" v="384095" />
	</node>
	<node id="-432984" lat="60.4103712871" lon="5.31924317696">
		<tag k="name" v="Sandviken" />
		<tag k="natural" v="bay" />
		<tag k="ssr:stedsnr" v="513031" />
	</node>
	<node id="-430933" lat="60.3940933345" lon="5.26852383065">
		<tag k="name" v="Simonsviken" />
		<tag k="natural" v="bay" />
		<tag k="ssr:stedsnr" v="384066" />
	</node>
	<node id="-430931" lat="60.2449361065" lon="5.23457777061">
		<tag k="name" v="Olaholmen" />
		<tag k="place" v="islet" />
		<tag k="ssr:stedsnr" v="384056" />
	</node>
	<node id="-430927" lat="60.2454138904" lon="5.24046944873">
		<tag k="name" v="Okshammarsvika" />
		<tag k="natural" v="bay" />
		<tag k="ssr:stedsnr" v="384049" />
	</node>
	<node id="-432968" lat="60.2066944464" lon="5.26011389124">
		<tag k="name" v="Galtavika" />
		<tag k="natural" v="bay" />
		<tag k="ssr:stedsnr" v="506910" />
	</node>
	<node id="-430912" lat="60.3326416628" lon="5.32275277727">
		<tag k="name" v="Nordrevågen" />
		<tag k="natural" v="bay" />
		<tag k="ssr:stedsnr" v="384502" />
	</node>
	<node id="-432955" lat="60.2683416648" lon="5.3195444405">
		<tag k="name" v="Skjenholmen" />
		<tag k="natural" v="cape" />
		<tag k="ssr:stedsnr" v="506854" />
	</node>
	<node id="-432954" lat="60.269105553" lon="5.32796666393">
		<tag k="name" v="Bjørgvika" />
		<tag k="natural" v="bay" />
		<tag k="ssr:stedsnr" v="506852" />
	</node>
	<node id="-430905" lat="60.5121666625" lon="5.35299999172">
		<tag k="name" v="Hylkjebukta" />
		<tag k="natural" v="bay" />
		<tag k="ssr:stedsnr" v="370527" />
	</node>
	<node id="-432948" lat="60.2642000008" lon="5.28278332779">
		<tag k="fixme" v="consider seamark:type=rock or natural=shoal" />
		<tag k="name" v="Tretteskjeret" />
		<tag k="place" v="islet" />
		<tag k="ssr:stedsnr" v="506806" />
	</node>
	<node id="-432947" lat="60.2645722215" lon="5.28496111513">
		<tag k="name" v="Austre Godalsvika" />
		<tag k="natural" v="bay" />
		<tag k="ssr:stedsnr" v="506805" />
	</node>
	<node id="-430898" lat="60.2599972196" lon="5.3088388979">
		<tag k="name" v="Porsaneset" />
		<tag k="natural" v="cape" />
		<tag k="ssr:stedsnr" v="369880" />
	</node>
	<node id="-430899" lat="60.2596249967" lon="5.29093055886">
		<tag k="name" v="Furevikholmen" />
		<tag k="place" v="islet" />
		<tag k="ssr:stedsnr" v="369892" />
	</node>
	<node id="-432944" lat="60.3229721938" lon="5.26513944334">
		<tag k="name" v="Setevika" />
		<tag k="natural" v="bay" />
		<tag k="ssr:stedsnr" v="506785" />
	</node>
	<node id="-432943" lat="60.3171916693" lon="5.26121110476">
		<tag k="name" v="Torskaneset" />
		<tag k="natural" v="cape" />
		<tag k="ssr:stedsnr" v="506775" />
	</node>
	<node id="-432942" lat="60.260424996" lon="5.29273610505">
		<tag k="name" v="Furevika" />
		<tag k="natural" v="bay" />
		<tag k="ssr:stedsnr" v="506770" />
	</node>
	<node id="-432940" lat="60.2441888921" lon="5.27112221419">
		<tag k="name" v="Klubben" />
		<tag k="natural" v="cape" />
		<tag k="ssr:stedsnr" v="506758" />
	</node>
	<node id="-432938" lat="60.2503611086" lon="5.31745555983">
		<tag k="name" v="Salbusundet" />
		<tag k="natural" v="strait" />
		<tag k="ssr:stedsnr" v="506756" />
	</node>
	<node id="-434706" lat="60.2643333313" lon="5.24912221379">
		<tag k="name" v="Langeneset" />
		<tag k="natural" v="cape" />
		<tag k="ssr:stedsnr" v="931845" />
	</node>
	<node id="-430874" lat="60.3918266091" lon="5.22752800812">
		<tag k="name" v="Kjøkkelvika" />
		<tag k="natural" v="bay" />
		<tag k="ssr:stedsnr" v="369631" />
	</node>
	<node id="-430872" lat="60.4087861121" lon="5.31873888036">
		<tag k="name" v="Kristiansholm" />
		<tag k="natural" v="cape" />
		<tag k="ssr:stedsnr" v="369619" />
	</node>
	<node id="-430870" lat="60.3789777777" lon="5.3323166732">
		<tag k="name" v="Solheimsviken" />
		<tag k="natural" v="bay" />
		<tag k="ssr:stedsnr" v="369598" />
	</node>
	<node id="-431577" lat="60.2481000027" lon="5.23493055523">
		<tag k="name" v="Søre Holmevika" />
		<tag k="natural" v="bay" />
		<tag k="ssr:stedsnr" v="81077" />
	</node>
	<node id="-430867" lat="60.4162281944" lon="5.30532379714">
		<tag k="name" v="Hegreneset" />
		<tag k="natural" v="cape" />
		<tag k="ssr:stedsnr" v="369527" />
	</node>
	<node id="-430852" lat="60.2298055554" lon="5.26307221628">
		<tag k="name" v="Selvågstangen" />
		<tag k="natural" v="cape" />
		<tag k="ssr:stedsnr" v="368865" />
	</node>
	<node id="-432891" lat="60.5190138905" lon="5.2763638799">
		<tag k="name" v="Klauvaneset" />
		<tag k="natural" v="cape" />
		<tag k="ssr:stedsnr" v="506292" />
	</node>
	<node id="-430827" lat="60.4337666644" lon="5.50106111604">
		<tag k="name" v="Indrevika" />
		<tag k="natural" v="bay" />
		<tag k="ssr:stedsnr" v="324959" />
	</node>
	<node id="-430815" lat="60.2633083319" lon="5.28506388876">
		<tag k="name" v="Grasholmen" />
		<tag k="place" v="islet" />
		<tag k="ssr:stedsnr" v="324873" />
	</node>
	<node id="-430808" lat="60.2683499965" lon="5.31800832751">
		<tag k="name" v="Storevika" />
		<tag k="natural" v="bay" />
		<tag k="ssr:stedsnr" v="324854" />
	</node>
	<node id="-430806" lat="60.2611333318" lon="5.31148889637">
		<tag k="name" v="Djupevika" />
		<tag k="natural" v="bay" />
		<tag k="ssr:stedsnr" v="324849" />
	</node>
	<node id="-432853" lat="60.260666667" lon="5.21241665964">
		<tag k="name" v="Kistesundet" />
		<tag k="natural" v="strait" />
		<tag k="ssr:stedsnr" v="506129" />
	</node>
	<node id="-432850" lat="60.2611388906" lon="5.20882778085">
		<tag k="name" v="Kvalen" />
		<tag k="place" v="islet" />
		<tag k="ssr:stedsnr" v="506124" />
	</node>
	<node id="-432845" lat="60.4306972262" lon="5.62507776979">
		<tag k="fixme" v="consider seamark:type=rock or natural=shoal" />
		<tag k="name" v="Skjeret" />
		<tag k="place" v="islet" />
		<tag k="ssr:stedsnr" v="506109" />
	</node>
	<node id="-432828" lat="60.368506444" lon="5.17414890224">
		<tag k="name" v="Søre Drotningsvika" />
		<tag k="natural" v="bay" />
		<tag k="ssr:stedsnr" v="506022" />
	</node>
	<node id="-432827" lat="60.3445249999" lon="5.22899999685">
		<tag k="name" v="Storholmen" />
		<tag k="place" v="islet" />
		<tag k="ssr:stedsnr" v="506019" />
	</node>
	<node id="-432825" lat="60.339174998" lon="5.19485555814">
		<tag k="name" v="Storingavika" />
		<tag k="natural" v="bay" />
		<tag k="ssr:stedsnr" v="506017" />
	</node>
	<node id="-432823" lat="60.3282164009" lon="5.20732114946">
		<tag k="name" v="Hundavika" />
		<tag k="natural" v="bay" />
		<tag k="ssr:stedsnr" v="506011" />
	</node>
	<node id="-430773" lat="60.249733336" lon="5.26936389028">
		<tag k="name" v="Kyrkjehammaren" />
		<tag k="natural" v="cape" />
		<tag k="ssr:stedsnr" v="324766" />
	</node>
	<node id="-430772" lat="60.2493499993" lon="5.26814444248">
		<tag k="name" v="Mildevågen" />
		<tag k="natural" v="bay" />
		<tag k="ssr:stedsnr" v="324759" />
	</node>
	<node id="-432816" lat="60.2193222259" lon="5.29036944245">
		<tag k="name" v="Såtevikssundet" />
		<tag k="natural" v="strait" />
		<tag k="ssr:stedsnr" v="505969" />
	</node>
	<node id="-432815" lat="60.2329444452" lon="5.28671388516">
		<tag k="name" v="Seljevika" />
		<tag k="natural" v="bay" />
		<tag k="ssr:stedsnr" v="505950" />
	</node>
	<node id="-434290" lat="60.4288575753" lon="5.28839101782">
		<tag k="name" v="Eikeviken" />
		<tag k="natural" v="bay" />
		<tag k="ssr:stedsnr" v="855613" />
	</node>
	<node id="-432807" lat="60.2149083306" lon="5.24979445086">
		<tag k="name" v="Vindkjeften" />
		<tag k="natural" v="bay" />
		<tag k="ssr:stedsnr" v="505879" />
	</node>
	<node id="-432806" lat="60.2131666677" lon="5.24999999505">
		<tag k="name" v="Klenevågen" />
		<tag k="natural" v="bay" />
		<tag k="ssr:stedsnr" v="505876" />
	</node>
	<node id="-432804" lat="60.220680559" lon="5.30334721304">
		<tag k="name" v="Kalvaneset" />
		<tag k="natural" v="cape" />
		<tag k="ssr:stedsnr" v="505868" />
	</node>
	<node id="-432801" lat="60.2707638914" lon="5.28193888175">
		<tag k="name" v="Grimseidpollen" />
		<tag k="natural" v="bay" />
		<tag k="ssr:stedsnr" v="505406" />
	</node>
	<node id="-432800" lat="60.4521388851" lon="5.28559167468">
		<tag k="name" v="Våganeset" />
		<tag k="natural" v="cape" />
		<tag k="ssr:stedsnr" v="505398" />
	</node>
	<node id="-432791" lat="60.2552361119" lon="5.24101945249">
		<tag k="name" v="Hjellestadvika" />
		<tag k="natural" v="bay" />
		<tag k="ssr:stedsnr" v="505097" />
	</node>
	<node id="-432785" lat="60.4356839581" lon="5.45621192299">
		<tag k="name" v="Skaffarvika" />
		<tag k="natural" v="bay" />
		<tag k="ssr:stedsnr" v="505041" />
	</node>
	<node id="-432783" lat="60.2943638883" lon="5.20706388123">
		<tag k="name" v="Tangavika" />
		<tag k="natural" v="bay" />
		<tag k="ssr:stedsnr" v="505006" />
	</node>
	<node id="-432779" lat="60.2632333329" lon="5.18264167289">
		<tag k="name" v="Flatøyna" />
		<tag k="place" v="island" />
		<tag k="ssr:stedsnr" v="491928" />
	</node>
	<node id="-432777" lat="60.2712944447" lon="5.26172777805">
		<tag k="name" v="Øykjeneset" />
		<tag k="natural" v="cape" />
		<tag k="ssr:stedsnr" v="491914" />
	</node>
	<node id="-432774" lat="60.3122388908" lon="5.29986945267">
		<tag k="name" v="Storhusholmen" />
		<tag k="place" v="islet" />
		<tag k="ssr:stedsnr" v="491862" />
	</node>
	<node id="-431359" lat="60.3724277754" lon="5.16994445011">
		<tag k="name" v="Magataket" />
		<tag k="place" v="locality" />
		<tag k="ssr:stedsnr" v="21043" />
	</node>
	<node id="-432771" lat="60.3415638852" lon="5.18345555364">
		<tag k="name" v="Minnestraumen" />
		<tag k="natural" v="cape" />
		<tag k="ssr:stedsnr" v="491793" />
	</node>
	<node id="-431489" lat="60.4195235419" lon="5.30107225032">
		<tag k="name" v="Breiviken" />
		<tag k="natural" v="bay" />
		<tag k="ssr:stedsnr" v="66563" />
	</node>
	<node id="-432758" lat="60.3951833339" lon="5.27279999925">
		<tag k="name" v="Lyreneset" />
		<tag k="natural" v="cape" />
		<tag k="ssr:stedsnr" v="491684" />
	</node>
	<node id="-430709" lat="60.4328944472" lon="5.62749999112">
		<tag k="name" v="Ospeneset" />
		<tag k="natural" v="cape" />
		<tag k="ssr:stedsnr" v="324100" />
	</node>
	<node id="-431631" lat="60.3423750002" lon="5.17934167419">
		<tag k="name" v="Klubben" />
		<tag k="natural" v="cape" />
		<tag k="ssr:stedsnr" v="81572" />
	</node>
	<node id="-432746" lat="60.2664833307" lon="5.32462776913">
		<tag k="name" v="Stendaholmen" />
		<tag k="place" v="islet" />
		<tag k="ssr:stedsnr" v="490883" />
	</node>
	<node id="-432745" lat="60.2147944416" lon="5.28511667585">
		<tag k="name" v="Rishavn" />
		<tag k="natural" v="bay" />
		<tag k="ssr:stedsnr" v="490871" />
	</node>
	<node id="-432744" lat="60.2190611142" lon="5.29698610832">
		<tag k="name" v="Kjeøyna" />
		<tag k="place" v="islet" />
		<tag k="ssr:stedsnr" v="490868" />
	</node>
	<node id="-432742" lat="60.2249333372" lon="5.35824999584">
		<tag k="name" v="Storholmen" />
		<tag k="place" v="islet" />
		<tag k="ssr:stedsnr" v="490863" />
	</node>
	<node id="-431889" lat="60.2380027737" lon="5.28793056166">
		<tag k="name" v="Steinavika" />
		<tag k="natural" v="bay" />
		<tag k="ssr:stedsnr" v="141947" />
	</node>
	<node id="-432735" lat="60.3537694454" lon="5.18687777291">
		<tag k="name" v="Alvøen" />
		<tag k="natural" v="cape" />
		<tag k="ssr:stedsnr" v="490722" />
	</node>
	<node id="-432733" lat="60.3585583377" lon="5.23730277394">
		<tag k="name" v="Bjørndalspollen" />
		<tag k="natural" v="bay" />
		<tag k="ssr:stedsnr" v="490698" />
	</node>
	<node id="-432730" lat="60.3987472205" lon="5.24132777066">
		<tag k="name" v="Kvarven" />
		<tag k="natural" v="cape" />
		<tag k="ssr:stedsnr" v="490571" />
	</node>
	<node id="-430677" lat="60.4779638903" lon="5.25561665871">
		<tag k="name" v="Steinsvika" />
		<tag k="natural" v="bay" />
		<tag k="ssr:stedsnr" v="323328" />
	</node>
	<node id="-432721" lat="60.2099555545" lon="5.2458749917">
		<tag k="name" v="Korsen" />
		<tag k="natural" v="cape" />
		<tag k="ssr:stedsnr" v="489854" />
	</node>
	<node id="-430669" lat="60.4377222216" lon="5.45858611723">
		<tag k="name" v="Grønskjeret" />
		<tag k="natural" v="cape" />
		<tag k="ssr:stedsnr" v="323090" />
	</node>
	<node id="-430667" lat="60.3097416695" lon="5.20726388195">
		<tag k="name" v="Kvitursvika" />
		<tag k="natural" v="bay" />
		<tag k="ssr:stedsnr" v="323063" />
	</node>
	<node id="-430663" lat="60.3820362025" lon="5.1969480413">
		<tag k="name" v="Kahrsaneset" />
		<tag k="natural" v="cape" />
		<tag k="ssr:stedsnr" v="323019" />
	</node>
	<node id="-432710" lat="60.43433611" lon="5.5005777803">
		<tag k="name" v="Langeneset" />
		<tag k="natural" v="cape" />
		<tag k="ssr:stedsnr" v="468844" />
	</node>
	<node id="-430660" lat="60.2893527782" lon="5.20247500287">
		<tag k="name" v="Saltvika" />
		<tag k="natural" v="bay" />
		<tag k="ssr:stedsnr" v="323002" />
	</node>
	<node id="-432705" lat="60.2597722179" lon="5.32800278323">
		<tag k="name" v="Fosseflua" />
		<tag k="natural" v="shoal" />
		<tag k="place" v="locality" />
		<tag k="ssr:stedsnr" v="450212" />
	</node>
	<node id="-432704" lat="60.2948904275" lon="5.20657665482">
		<tag k="name" v="Tangen" />
		<tag k="natural" v="cape" />
		<tag k="ssr:stedsnr" v="449025" />
	</node>
	<node id="-434751" lat="60.3927694461" lon="5.31138332661">
		<tag k="name" v="Nøstebukten" />
		<tag k="natural" v="bay" />
		<tag k="ssr:stedsnr" v="938051" />
	</node>
	<node id="-430654" lat="60.2780999994" lon="5.21973889111">
		<tag k="name" v="Slettepollen" />
		<tag k="natural" v="bay" />
		<tag k="ssr:stedsnr" v="309938" />
	</node>
	<node id="-430651" lat="60.2712444467" lon="5.21151111765">
		<tag k="name" v="Store Løholmen" />
		<tag k="place" v="islet" />
		<tag k="ssr:stedsnr" v="309925" />
	</node>
	<node id="-432697" lat="60.215852782" lon="5.31668056305">
		<tag k="name" v="Vestre Austnesholmen" />
		<tag k="place" v="islet" />
		<tag k="ssr:stedsnr" v="446928" />
	</node>
	<node id="-432696" lat="60.4306527766" lon="5.57804444694">
		<tag k="name" v="Romslaneset" />
		<tag k="natural" v="cape" />
		<tag k="ssr:stedsnr" v="446920" />
	</node>
	<node id="-434743" lat="60.2529666626" lon="5.32276111422">
		<tag k="name" v="Apalneset" />
		<tag k="natural" v="cape" />
		<tag k="ssr:stedsnr" v="935188" />
	</node>
	<node id="-432694" lat="60.2589972246" lon="5.28162222355">
		<tag k="name" v="Søre Mørkevågen" />
		<tag k="natural" v="bay" />
		<tag k="ssr:stedsnr" v="446780" />
	</node>
	<node id="-430645" lat="60.2613361078" lon="5.23777777136">
		<tag k="name" v="Synningane" />
		<tag k="natural" v="cape" />
		<tag k="ssr:stedsnr" v="309901" />
	</node>
	<node id="-430644" lat="60.2609138924" lon="5.20590555377">
		<tag k="name" v="Kuholmen" />
		<tag k="place" v="islet" />
		<tag k="ssr:stedsnr" v="309896" />
	</node>
	<node id="-434738" lat="60.4240083376" lon="5.51317221304">
		<tag k="name" v="Geitneset" />
		<tag k="natural" v="cape" />
		<tag k="ssr:stedsnr" v="931976" />
	</node>
	<node id="-430639" lat="60.3227527808" lon="5.21152222653">
		<tag k="bay" v="fjord" />
		<tag k="name" v="Grimstadfjorden" />
		<tag k="natural" v="bay" />
		<tag k="ssr:stedsnr" v="309770" />
	</node>
	<node id="-434189" lat="60.3702780144" lon="5.17233558685">
		<tag k="name" v="Danevika" />
		<tag k="natural" v="bay" />
		<tag k="ssr:stedsnr" v="810044" />
	</node>
	<node id="-434731" lat="60.2120027804" lon="5.2911166625">
		<tag k="fixme" v="consider seamark:type=rock or natural=shoal" />
		<tag k="name" v="Gulaskjeret" />
		<tag k="place" v="islet" />
		<tag k="ssr:stedsnr" v="931946" />
	</node>
	<node id="-434725" lat="60.2064222244" lon="5.25649443619">
		<tag k="fixme" v="consider seamark:type=rock or natural=shoal" />
		<tag k="name" v="Donhavnskjeret" />
		<tag k="place" v="islet" />
		<tag k="ssr:stedsnr" v="931923" />
	</node>
	<node id="-432669" lat="60.2727888905" lon="5.21438055944">
		<tag k="name" v="Røysatangen" />
		<tag k="natural" v="bay" />
		<tag k="ssr:stedsnr" v="446128" />
	</node>
	<node id="-430620" lat="60.4454083316" lon="5.28153610642">
		<tag k="name" v="Eidsvågsneset" />
		<tag k="natural" v="cape" />
		<tag k="ssr:stedsnr" v="309540" />
	</node>
	<node id="-434266" lat="60.4408416646" lon="5.48234166954">
		<tag k="name" v="Haggardsvika" />
		<tag k="natural" v="bay" />
		<tag k="ssr:stedsnr" v="855018" />
	</node>
	<node id="-432665" lat="60.3745607444" lon="5.1718377988">
		<tag k="name" v="Ytre Steinevika" />
		<tag k="natural" v="bay" />
		<tag k="ssr:stedsnr" v="446038" />
	</node>
	<node id="-434710" lat="60.2665138871" lon="5.25504999632">
		<tag k="name" v="Vestre Ollforevågen" />
		<tag k="natural" v="bay" />
		<tag k="ssr:stedsnr" v="931854" />
	</node>
	<node id="-432661" lat="60.3280666669" lon="5.22662778515">
		<tag k="name" v="Tangen" />
		<tag k="natural" v="cape" />
		<tag k="ssr:stedsnr" v="446015" />
	</node>
	<node id="-432660" lat="60.4349888847" lon="5.50118610808">
		<tag k="name" v="Skottlandssida" />
		<tag k="natural" v="beach" />
		<tag k="place" v="locality" />
		<tag k="ssr:stedsnr" v="446000" />
	</node>
	<node id="-432659" lat="60.2204833314" lon="5.29580832894">
		<tag k="name" v="Øynaklubben" />
		<tag k="natural" v="cape" />
		<tag k="ssr:stedsnr" v="445995" />
	</node>
	<node id="-430610" lat="60.2260499963" lon="5.27581389212">
		<tag k="name" v="Leirvågen" />
		<tag k="natural" v="bay" />
		<tag k="ssr:stedsnr" v="308835" />
	</node>
	<node id="-432656" lat="60.2223916665" lon="5.29356388175">
		<tag k="fixme" v="consider seamark:type=rock or natural=shoal" />
		<tag k="name" v="Skipavikskjeret" />
		<tag k="place" v="islet" />
		<tag k="ssr:stedsnr" v="445991" />
	</node>
	<node id="-434701" lat="60.2441000029" lon="5.30393056308">
		<tag k="name" v="Småvikane" />
		<tag k="natural" v="bay" />
		<tag k="ssr:stedsnr" v="931830" />
	</node>
	<node id="-432650" lat="60.423344441" lon="5.5175777762">
		<tag k="name" v="Takkvamsneset" />
		<tag k="natural" v="cape" />
		<tag k="ssr:stedsnr" v="445973" />
	</node>
	<node id="-434696" lat="60.2477361087" lon="5.27141666103">
		<tag k="name" v="Giljeneset" />
		<tag k="natural" v="cape" />
		<tag k="ssr:stedsnr" v="931803" />
	</node>
	<node id="-432647" lat="60.2317138933" lon="5.28493611949">
		<tag k="name" v="Dysjaholmen" />
		<tag k="place" v="islet" />
		<tag k="ssr:stedsnr" v="445959" />
	</node>
	<node id="-432638" lat="60.2286073536" lon="5.33823927399">
		<tag k="name" v="Ospevika" />
		<tag k="natural" v="bay" />
		<tag k="ssr:stedsnr" v="445916" />
	</node>
	<node id="-430588" lat="60.2078444403" lon="5.24982221996">
		<tag k="name" v="Spranget" />
		<tag k="natural" v="cape" />
		<tag k="ssr:stedsnr" v="307858" />
	</node>
	<node id="-432624" lat="60.2635166645" lon="5.31542500622">
		<tag k="name" v="Hordnesvågen" />
		<tag k="natural" v="bay" />
		<tag k="ssr:stedsnr" v="445861" />
	</node>
	<node id="-434671" lat="60.3440251263" lon="5.17733910336">
		<tag k="name" v="Godvika" />
		<tag k="natural" v="bay" />
		<tag k="ssr:stedsnr" v="931555" />
	</node>
	<node id="-434670" lat="60.3553416674" lon="5.23943333913">
		<tag k="name" v="Lauvvika" />
		<tag k="natural" v="bay" />
		<tag k="ssr:stedsnr" v="931550" />
	</node>
	<node id="-432619" lat="60.2623833307" lon="5.26523054735">
		<tag k="name" v="Klubben" />
		<tag k="natural" v="cape" />
		<tag k="ssr:stedsnr" v="445828" />
	</node>
	<node id="-432618" lat="60.263844444" lon="5.27717221955">
		<tag k="name" v="Nordre Mørkevågen" />
		<tag k="natural" v="bay" />
		<tag k="ssr:stedsnr" v="445826" />
	</node>
	<node id="-432616" lat="60.2461027748" lon="5.30879444005">
		<tag k="name" v="Naustvika" />
		<tag k="natural" v="bay" />
		<tag k="ssr:stedsnr" v="445818" />
	</node>
	<node id="-434663" lat="60.2625388858" lon="5.23744166355">
		<tag k="name" v="Synningasundet" />
		<tag k="natural" v="strait" />
		<tag k="ssr:stedsnr" v="931379" />
	</node>
	<node id="-434662" lat="60.4416833362" lon="5.2812277699">
		<tag k="name" v="Frøviken" />
		<tag k="natural" v="bay" />
		<tag k="ssr:stedsnr" v="931347" />
	</node>
	<node id="-432613" lat="60.316475004" lon="5.26285832582">
		<tag k="name" v="Kuvavika" />
		<tag k="natural" v="bay" />
		<tag k="ssr:stedsnr" v="445799" />
	</node>
	<node id="-434656" lat="60.5204381495" lon="5.27431520164">
		<tag k="name" v="Nordvika" />
		<tag k="natural" v="bay" />
		<tag k="ssr:stedsnr" v="931295" />
	</node>
	<node id="-432602" lat="60.3535722263" lon="5.23920555149">
		<tag k="name" v="Setrevika" />
		<tag k="natural" v="bay" />
		<tag k="ssr:stedsnr" v="445576" />
	</node>
	<node id="-432598" lat="60.3624250022" lon="5.17777221422">
		<tag k="fixme" v="consider seamark:type=rock or natural=shoal" />
		<tag k="name" v="Flataskjeret" />
		<tag k="place" v="islet" />
		<tag k="ssr:stedsnr" v="445538" />
	</node>
	<node id="-432585" lat="60.4717888887" lon="5.26623889617">
		<tag k="name" v="Kråna" />
		<tag k="natural" v="bay" />
		<tag k="ssr:stedsnr" v="445319" />
	</node>
	<node id="-432584" lat="60.4632888896" lon="5.27222500224">
		<tag k="name" v="Bekkjarvika" />
		<tag k="natural" v="bay" />
		<tag k="ssr:stedsnr" v="445312" />
	</node>
	<node id="-432581" lat="60.5201083328" lon="5.28387499445">
		<tag k="name" v="Kalvaneset" />
		<tag k="natural" v="cape" />
		<tag k="ssr:stedsnr" v="445290" />
	</node>
	<node id="-433909" lat="60.2760277769" lon="5.22145556424">
		<tag k="name" v="Gitlapollen" />
		<tag k="natural" v="bay" />
		<tag k="ssr:stedsnr" v="749098" />
	</node>
	<node id="-434615" lat="60.2600027795" lon="5.1885166699">
		<tag k="name" v="Lamholmen" />
		<tag k="place" v="islet" />
		<tag k="ssr:stedsnr" v="931078" />
	</node>
	<node id="-434610" lat="60.3850444403" lon="5.26514721947">
		<tag k="name" v="Skjeneviken" />
		<tag k="natural" v="bay" />
		<tag k="ssr:stedsnr" v="931065" />
	</node>
	<node id="-434599" lat="60.2242087187" lon="5.24987973802">
		<tag k="name" v="Rokesteinen" />
		<tag k="natural" v="cape" />
		<tag k="ssr:stedsnr" v="930941" />
	</node>
	<node id="-434598" lat="60.4479444429" lon="5.2945611187">
		<tag k="fixme" v="consider seamark:type=rock or natural=shoal" />
		<tag k="name" v="Tertnesskjera" />
		<tag k="place" v="islet" />
		<tag k="ssr:stedsnr" v="930397" />
	</node>
	<node id="-432546" lat="60.2627777766" lon="5.22666944649">
		<tag k="name" v="Grunnosen" />
		<tag k="natural" v="strait" />
		<tag k="ssr:stedsnr" v="445122" />
	</node>
	<node id="-434590" lat="60.2523416645" lon="5.23444723127">
		<tag k="name" v="Nordre Ålevågen" />
		<tag k="natural" v="bay" />
		<tag k="ssr:stedsnr" v="930096" />
	</node>
	<node id="-434589" lat="60.2575277822" lon="5.22821111549">
		<tag k="fixme" v="consider seamark:type=rock or natural=shoal" />
		<tag k="name" v="Søre Fuglaskjeret" />
		<tag k="place" v="islet" />
		<tag k="ssr:stedsnr" v="930092" />
	</node>
	<node id="-432539" lat="60.2602749971" lon="5.23618612019">
		<tag k="name" v="Gardsendvika" />
		<tag k="natural" v="bay" />
		<tag k="ssr:stedsnr" v="445091" />
	</node>
	<node id="-434584" lat="60.3188083308" lon="5.21334444643">
		<tag k="name" v="Skoraflua" />
		<tag k="place" v="locality" />
		<tag k="seamark:type" v="rock" />
		<tag k="ssr:stedsnr" v="930037" />
	</node>
	<node id="-432530" lat="60.2572165183" lon="5.20177499074">
		<tag k="fixme" v="consider seamark:type=rock or natural=shoal" />
		<tag k="name" v="Klubbaskjeret" />
		<tag k="place" v="islet" />
		<tag k="ssr:stedsnr" v="445067" />
	</node>
	<node id="-432527" lat="60.3779111108" lon="5.19608332456">
		<tag k="name" v="Godvik" />
		<tag k="natural" v="bay" />
		<tag k="ssr:stedsnr" v="445047" />
	</node>
	<node id="-432526" lat="60.3786722182" lon="5.18614722774">
		<tag k="name" v="Laksaneset" />
		<tag k="natural" v="cape" />
		<tag k="ssr:stedsnr" v="445045" />
	</node>
	<node id="-432525" lat="60.2406694405" lon="5.23988333242">
		<tag k="name" v="Kobbesundet" />
		<tag k="natural" v="strait" />
		<tag k="ssr:stedsnr" v="445044" />
	</node>
	<node id="-432516" lat="60.5205583358" lon="5.28743055337">
		<tag k="name" v="Tellevikabukta" />
		<tag k="natural" v="bay" />
		<tag k="ssr:stedsnr" v="431405" />
	</node>
	<node id="-432511" lat="60.2634666678" lon="5.17175832854">
		<tag k="name" v="Raunane" />
		<tag k="place" v="islet" />
		<tag k="ssr:stedsnr" v="430924" />
	</node>
	<node id="-432508" lat="60.2642027743" lon="5.26950555379">
		<tag k="name" v="Vestrepollen" />
		<tag k="natural" v="bay" />
		<tag k="ssr:stedsnr" v="430898" />
	</node>
	<node id="-432507" lat="60.2583944416" lon="5.1937194374">
		<tag k="name" v="Ospøyna" />
		<tag k="place" v="island" />
		<tag k="ssr:stedsnr" v="430890" />
	</node>
	<node id="-432506" lat="60.2621583376" lon="5.24060833786">
		<tag k="name" v="Kviturspollen" />
		<tag k="natural" v="bay" />
		<tag k="ssr:stedsnr" v="430888" />
	</node>
	<node id="-432505" lat="60.2639916678" lon="5.21166110613">
		<tag k="name" v="Nordre Egdholmen" />
		<tag k="place" v="islet" />
		<tag k="ssr:stedsnr" v="430887" />
	</node>
	<node id="-432503" lat="60.2637111121" lon="5.30867221825">
		<tag k="name" v="Hordnes" />
		<tag k="natural" v="cape" />
		<tag k="ssr:stedsnr" v="430881" />
	</node>
	<node id="-432498" lat="60.3071388919" lon="5.20940833921">
		<tag k="name" v="Lindevika" />
		<tag k="natural" v="bay" />
		<tag k="ssr:stedsnr" v="430845" />
	</node>
	<node id="-432494" lat="60.3197722263" lon="5.31004723032">
		<tag k="name" v="Nordåsvatnet" />
		<tag k="natural" v="bay" />
		<tag k="ssr:stedsnr" v="430742" />
	</node>
	<node id="-432488" lat="60.3584416633" lon="5.21641388848">
		<tag k="name" v="Langaneset" />
		<tag k="natural" v="cape" />
		<tag k="ssr:stedsnr" v="430692" />
	</node>
	<node id="-432486" lat="60.3944072257" lon="5.25835147979">
		<tag k="name" v="Gravdalsbukten" />
		<tag k="natural" v="bay" />
		<tag k="ssr:stedsnr" v="430669" />
	</node>
	<node id="-434531" lat="60.2167083345" lon="5.25949445288">
		<tag k="name" v="Korsneset" />
		<tag k="natural" v="cape" />
		<tag k="ssr:stedsnr" v="915866" />
	</node>
	<node id="-434529" lat="60.2247305598" lon="5.29116388998">
		<tag k="name" v="Eidsvågen" />
		<tag k="natural" v="bay" />
		<tag k="ssr:stedsnr" v="915818" />
	</node>
	<node id="-434526" lat="60.2427916652" lon="5.26864443929">
		<tag k="name" v="Herøy" />
		<tag k="place" v="islet" />
		<tag k="ssr:stedsnr" v="915659" />
	</node>
	<node id="-434524" lat="60.3829416668" lon="5.34285555111">
		<tag k="name" v="Store Lungegårdsvannet" />
		<tag k="natural" v="bay" />
		<tag k="ssr:stedsnr" v="915620" />
	</node>
	<node id="-434517" lat="60.2149638924" lon="5.30528055161">
		<tag k="name" v="Langøyna" />
		<tag k="place" v="islet" />
		<tag k="ssr:stedsnr" v="914844" />
	</node>
	<node id="-434516" lat="60.2025055561" lon="5.29438611972">
		<tag k="bay" v="fjord" />
		<tag k="name" v="Lysefjorden" />
		<tag k="natural" v="bay" />
		<tag k="ssr:stedsnr" v="914771" />
	</node>
	<node id="-434508" lat="60.2241083295" lon="5.345911116">
		<tag k="name" v="Bakarvikfluene" />
		<tag k="natural" v="shoal" />
		<tag k="place" v="locality" />
		<tag k="ssr:stedsnr" v="874010" />
	</node>
	<node id="-432459" lat="60.2384630813" lon="5.24267203801">
		<tag k="name" v="Litle Svartholmen" />
		<tag k="place" v="islet" />
		<tag k="ssr:stedsnr" v="429661" />
	</node>
	<node id="-432454" lat="60.3782722226" lon="5.33219444054">
		<tag k="name" v="Krohnviken" />
		<tag k="natural" v="bay" />
		<tag k="ssr:stedsnr" v="268399" />
	</node>
	<node id="-432451" lat="60.2100500008" lon="5.28575278455">
		<tag k="name" v="Grøteidholmen" />
		<tag k="place" v="islet" />
		<tag k="ssr:stedsnr" v="264932" />
	</node>
	<node id="-434498" lat="60.2182166669" lon="5.29817222812">
		<tag k="name" v="Tyssevika" />
		<tag k="natural" v="bay" />
		<tag k="ssr:stedsnr" v="870976" />
	</node>
	<node id="-432448" lat="60.2171638865" lon="5.31829166087">
		<tag k="name" v="Austre Austnesholmen" />
		<tag k="place" v="islet" />
		<tag k="ssr:stedsnr" v="264909" />
	</node>
	<node id="-434495" lat="60.2267666631" lon="5.25625277801">
		<tag k="name" v="Moldvikane" />
		<tag k="natural" v="bay" />
		<tag k="ssr:stedsnr" v="870966" />
	</node>
	<node id="-432446" lat="60.2600638898" lon="5.30493611235">
		<tag k="name" v="Ervika" />
		<tag k="natural" v="bay" />
		<tag k="ssr:stedsnr" v="264766" />
	</node>
	<node id="-432445" lat="60.2578250008" lon="5.33313054951">
		<tag k="name" v="Sagavika" />
		<tag k="natural" v="bay" />
		<tag k="ssr:stedsnr" v="264764" />
	</node>
	<node id="-434492" lat="60.2277000003" lon="5.27725276893">
		<tag k="name" v="Kjeneset" />
		<tag k="natural" v="cape" />
		<tag k="ssr:stedsnr" v="870959" />
	</node>
	<node id="-432443" lat="60.2440722266" lon="5.24700278201">
		<tag k="name" v="Fløsholmen" />
		<tag k="place" v="islet" />
		<tag k="ssr:stedsnr" v="264760" />
	</node>
	<node id="-434490" lat="60.2258888862" lon="5.29007222496">
		<tag k="name" v="Søre Eidet" />
		<tag k="place" v="locality" />
		<tag k="ssr:stedsnr" v="870943" />
	</node>
	<node id="-431839" lat="60.2617138866" lon="5.23655556215">
		<tag k="name" v="Synninganeset" />
		<tag k="natural" v="cape" />
		<tag k="old_name" v="Flyen" />
		<tag k="ssr:stedsnr" v="141363" />
	</node>
	<node id="-432438" lat="60.2671500033" lon="5.21994722718">
		<tag k="fixme" v="consider seamark:type=rock or natural=shoal" />
		<tag k="name" v="Søre Steinskjeret" />
		<tag k="place" v="islet" />
		<tag k="ssr:stedsnr" v="264130" />
	</node>
	<node id="-434483" lat="60.2178611151" lon="5.31297222053">
		<tag k="name" v="Austnesvika" />
		<tag k="natural" v="bay" />
		<tag k="ssr:stedsnr" v="870914" />
	</node>
	<node id="-434481" lat="60.2268026487" lon="5.33479631609">
		<tag k="name" v="Særvika" />
		<tag k="natural" v="bay" />
		<tag k="ssr:stedsnr" v="870902" />
	</node>
	<node id="-432427" lat="60.4244611135" lon="5.5102250047">
		<tag k="name" v="Sandvika" />
		<tag k="natural" v="bay" />
		<tag k="ssr:stedsnr" v="263970" />
	</node>
	<node id="-432425" lat="60.2273802991" lon="5.28727254901">
		<tag k="name" v="Krokeidvågen" />
		<tag k="natural" v="bay" />
		<tag k="ssr:stedsnr" v="263951" />
	</node>
	<node id="-434466" lat="60.2725555558" lon="5.25985277538">
		<tag k="name" v="Årvika" />
		<tag k="natural" v="bay" />
		<tag k="ssr:stedsnr" v="870836" />
	</node>
	<node id="-434465" lat="60.272305557" lon="5.26567778118">
		<tag k="name" v="Vågsbøpollen" />
		<tag k="natural" v="bay" />
		<tag k="ssr:stedsnr" v="870837" />
	</node>
	<node id="-434459" lat="60.5094414354" lon="5.36908493141">
		<tag k="name" v="Holavika" />
		<tag k="natural" v="bay" />
		<tag k="ssr:stedsnr" v="870816" />
	</node>
	<node id="-434456" lat="60.2636283358" lon="5.2784700712">
		<tag k="name" v="Litle Brandaneset" />
		<tag k="natural" v="cape" />
		<tag k="ssr:stedsnr" v="870809" />
	</node>
	<node id="-434455" lat="60.322044441" lon="5.24723056145">
		<tag k="name" v="Stamsneset" />
		<tag k="natural" v="cape" />
		<tag k="ssr:stedsnr" v="870792" />
	</node>
	<node id="-434454" lat="60.2535499983" lon="5.27393055182">
		<tag k="name" v="Hollendervika" />
		<tag k="natural" v="bay" />
		<tag k="ssr:stedsnr" v="870777" />
	</node>
	<node id="-434453" lat="60.2597388862" lon="5.29363611509">
		<tag k="name" v="Olavikholmen" />
		<tag k="place" v="islet" />
		<tag k="ssr:stedsnr" v="870773" />
	</node>
	<node id="-432404" lat="60.2678138915" lon="5.25171110866">
		<tag k="name" v="Ådlandsstraumen" />
		<tag k="natural" v="strait" />
		<tag k="ssr:stedsnr" v="263838" />
	</node>
	<node id="-434450" lat="60.251386114" lon="5.31945555784">
		<tag k="name" v="Buaneset" />
		<tag k="natural" v="cape" />
		<tag k="ssr:stedsnr" v="870758" />
	</node>
	<node id="-434449" lat="60.2525222211" lon="5.32219443701">
		<tag k="name" v="Apalvika" />
		<tag k="natural" v="bay" />
		<tag k="ssr:stedsnr" v="870756" />
	</node>
	<node id="-432400" lat="60.322361112" lon="5.27798889226">
		<tag k="name" v="Brakaneset" />
		<tag k="natural" v="cape" />
		<tag k="ssr:stedsnr" v="263794" />
	</node>
	<node id="-432397" lat="60.2552305576" lon="5.27764721858">
		<tag k="name" v="Geitahalsen" />
		<tag k="natural" v="cape" />
		<tag k="ssr:stedsnr" v="263772" />
	</node>
	<node id="-432389" lat="60.2253555535" lon="5.36860555159">
		<tag k="name" v="Djupevika" />
		<tag k="natural" v="bay" />
		<tag k="ssr:stedsnr" v="263645" />
	</node>
	<node id="-432383" lat="60.3506333356" lon="5.18908332778">
		<tag k="name" v="Grunnevågen" />
		<tag k="natural" v="bay" />
		<tag k="ssr:stedsnr" v="263566" />
	</node>
	<node id="-430805" lat="60.2664920031" lon="5.32797933424">
		<tag k="fixme" v="consider seamark:type=rock or natural=shoal" />
		<tag k="name" v="Flataskjeret" />
		<tag k="place" v="islet" />
		<tag k="ssr:stedsnr" v="324846" />
	</node>
	<node id="-434426" lat="60.3542060269" lon="5.18305183586">
		<tag k="name" v="Juvik" />
		<tag k="natural" v="bay" />
		<tag k="ssr:stedsnr" v="870548" />
	</node>
	<node id="-434424" lat="60.3631749985" lon="5.18099722313">
		<tag k="name" v="Ramsvik" />
		<tag k="natural" v="bay" />
		<tag k="ssr:stedsnr" v="870540" />
	</node>
	<node id="-434421" lat="60.362538891" lon="5.17566667124">
		<tag k="name" v="Lyngholmen" />
		<tag k="place" v="islet" />
		<tag k="ssr:stedsnr" v="870521" />
	</node>
	<node id="-434420" lat="60.2442361083" lon="5.22761111176">
		<tag k="name" v="Kinnarosen" />
		<tag k="natural" v="strait" />
		<tag k="ssr:stedsnr" v="870389" />
	</node>
	<node id="-434419" lat="60.2414055523" lon="5.27077222999">
		<tag k="name" v="Nova" />
		<tag k="natural" v="cape" />
		<tag k="ssr:stedsnr" v="870382" />
	</node>
	<node id="-432369" lat="60.5251361074" lon="5.30635555037">
		<tag k="name" v="Bakkavika" />
		<tag k="natural" v="bay" />
		<tag k="ssr:stedsnr" v="263316" />
	</node>
	<node id="-434554" lat="60.3463666687" lon="5.23096388808">
		<tag k="name" v="Tømmervikneset" />
		<tag k="natural" v="cape" />
		<tag k="ssr:stedsnr" v="916747" />
	</node>
	<node id="-432340" lat="60.2741249979" lon="5.21991389004">
		<tag k="name" v="Mariholmen" />
		<tag k="place" v="islet" />
		<tag k="ssr:stedsnr" v="263168" />
	</node>
	<node id="-432339" lat="60.2751888909" lon="5.21938055793">
		<tag k="name" v="Lønningshavn" />
		<tag k="natural" v="bay" />
		<tag k="ssr:stedsnr" v="263166" />
	</node>
	<node id="-432328" lat="60.2613694486" lon="5.21279445294">
		<tag k="name" v="Søre Egdholmsundet" />
		<tag k="natural" v="strait" />
		<tag k="ssr:stedsnr" v="263132" />
	</node>
	<node id="-432316" lat="60.4511201945" lon="5.45849994588">
		<tag k="name" v="Båtavika" />
		<tag k="natural" v="bay" />
		<tag k="ssr:stedsnr" v="263089" />
	</node>
	<node id="-432315" lat="60.2044749968" lon="5.27023055225">
		<tag k="name" v="Krokaholmen" />
		<tag k="place" v="islet" />
		<tag k="ssr:stedsnr" v="263077" />
	</node>
	<node id="-434361" lat="60.2488499997" lon="5.23305278467">
		<tag k="name" v="Nordre Holmevika" />
		<tag k="natural" v="bay" />
		<tag k="ssr:stedsnr" v="870093" />
	</node>
	<node id="-434358" lat="60.4517111107" lon="5.45000833457">
		<tag k="name" v="Senholmen" />
		<tag k="place" v="islet" />
		<tag k="ssr:stedsnr" v="870087" />
	</node>
	<node id="-434354" lat="60.4527416662" lon="5.46550555099">
		<tag k="name" v="Gygrasteinen" />
		<tag k="natural" v="cape" />
		<tag k="ssr:stedsnr" v="870076" />
	</node>
	<node id="-432305" lat="60.2984972245" lon="5.20775277795">
		<tag k="name" v="Kvernavika" />
		<tag k="natural" v="bay" />
		<tag k="ssr:stedsnr" v="263017" />
	</node>
	<node id="-432303" lat="60.3445916667" lon="5.22398056149">
		<tag k="name" v="Notaneset" />
		<tag k="natural" v="cape" />
		<tag k="ssr:stedsnr" v="263011" />
	</node>
	<node id="-432302" lat="60.2917666655" lon="5.2066444422">
		<tag k="name" v="Fleslandsvika" />
		<tag k="natural" v="bay" />
		<tag k="ssr:stedsnr" v="263006" />
	</node>
	<node id="-432301" lat="60.2903609203" lon="5.20194324958">
		<tag k="name" v="Saltvikneset" />
		<tag k="natural" v="cape" />
		<tag k="ssr:stedsnr" v="263004" />
	</node>
	<node id="-432300" lat="60.4463722197" lon="5.28500555149">
		<tag k="name" v="Maltmannen" />
		<tag k="place" v="locality" />
		<tag k="seamark:type" v="rock" />
		<tag k="ssr:stedsnr" v="262388" />
	</node>
	<node id="-432297" lat="60.4409249991" lon="5.30222500038">
		<tag k="name" v="Lillevågen" />
		<tag k="natural" v="bay" />
		<tag k="ssr:stedsnr" v="262362" />
	</node>
	<node id="-434344" lat="60.3202416639" lon="5.23561944872">
		<tag k="name" v="Hopsvika" />
		<tag k="natural" v="bay" />
		<tag k="ssr:stedsnr" v="870039" />
	</node>
	<node id="-432295" lat="60.3931472247" lon="5.28172777092">
		<tag k="name" v="Olderneset" />
		<tag k="natural" v="cape" />
		<tag k="ssr:stedsnr" v="249595" />
	</node>
	<node id="-432293" lat="60.5017444412" lon="5.26120833658">
		<tag k="name" v="Storåkervika" />
		<tag k="natural" v="bay" />
		<tag k="ssr:stedsnr" v="249484" />
	</node>
	<node id="-432289" lat="60.2667083378" lon="5.21131945163">
		<tag k="fixme" v="multiple name tags, choose one and add the other to alt_name" />
		<tag k="name" v="Flatevossen;Høgevossen" />
		<tag k="place" v="islet" />
		<tag k="ssr:stedsnr" v="248919" />
	</node>
	<node id="-432288" lat="60.2632861074" lon="5.27873888169">
		<tag k="name" v="Litle Brandaneset" />
		<tag k="natural" v="cape" />
		<tag k="ssr:stedsnr" v="248907" />
	</node>
	<node id="-432287" lat="60.2590611107" lon="5.18533887998">
		<tag k="name" v="Vardholmen" />
		<tag k="place" v="islet" />
		<tag k="ssr:stedsnr" v="248903" />
	</node>
	<node id="-432286" lat="60.2593750001" lon="5.21231944394">
		<tag k="name" v="Søre Egdholmen" />
		<tag k="place" v="islet" />
		<tag k="ssr:stedsnr" v="248900" />
	</node>
	<node id="-434333" lat="60.4120611151" lon="5.31869999613">
		<tag k="fixme" v="consider seamark:type=rock or natural=shoal" />
		<tag k="name" v="Måseskjæret" />
		<tag k="place" v="islet" />
		<tag k="ssr:stedsnr" v="869376" />
	</node>
	<node id="-434330" lat="60.2600166629" lon="5.20863888625">
		<tag k="name" v="Kuholmssundet" />
		<tag k="natural" v="strait" />
		<tag k="ssr:stedsnr" v="869074" />
	</node>
	<node id="-434329" lat="60.4486527771" lon="5.45815000789">
		<tag k="name" v="Tona" />
		<tag k="natural" v="cape" />
		<tag k="ssr:stedsnr" v="869072" />
	</node>
	<node id="-432279" lat="60.3274694485" lon="5.20320000394">
		<tag k="name" v="Årholmen" />
		<tag k="place" v="islet" />
		<tag k="ssr:stedsnr" v="248800" />
	</node>
	<node id="-434343" lat="60.376759343" lon="5.17926678727">
		<tag k="name" v="Nordre Drotningsvika" />
		<tag k="natural" v="bay" />
		<tag k="ssr:stedsnr" v="870030" />
	</node>
	<node id="-432271" lat="60.3951777734" lon="5.26520833027">
		<tag k="name" v="Gravdalsneset" />
		<tag k="natural" v="cape" />
		<tag k="ssr:stedsnr" v="248690" />
	</node>
	<node id="-434314" lat="60.256591667" lon="5.33079999303">
		<tag k="name" v="Saganeset" />
		<tag k="natural" v="cape" />
		<tag k="ssr:stedsnr" v="855886" />
	</node>
	<node id="-434310" lat="60.2260611118" lon="5.34028888909">
		<tag k="fixme" v="consider seamark:type=rock or natural=shoal" />
		<tag k="name" v="Tretteskjeret" />
		<tag k="place" v="islet" />
		<tag k="ssr:stedsnr" v="855849" />
	</node>
	<node id="-432261" lat="60.4411361132" lon="5.28084166">
		<tag k="name" v="Midtneset" />
		<tag k="natural" v="cape" />
		<tag k="ssr:stedsnr" v="248530" />
	</node>
	<node id="-432260" lat="60.4543756773" lon="5.4599059798">
		<tag k="name" v="Garnestangen" />
		<tag k="natural" v="cape" />
		<tag k="ssr:stedsnr" v="248511" />
	</node>
	<node id="-432259" lat="60.4427055553" lon="5.30625277167">
		<tag k="name" v="Eidsvågen" />
		<tag k="natural" v="bay" />
		<tag k="ssr:stedsnr" v="248501" />
	</node>
	<node id="-434305" lat="60.3248317368" lon="5.25227240178">
		<tag k="name" v="Maggevika" />
		<tag k="natural" v="bay" />
		<tag k="ssr:stedsnr" v="855808" />
	</node>
	<node id="-434303" lat="60.3174500031" lon="5.2521638825">
		<tag k="name" v="Bergsvika" />
		<tag k="natural" v="bay" />
		<tag k="ssr:stedsnr" v="855783" />
	</node>
	<node id="-434302" lat="60.3293222211" lon="5.33136944833">
		<tag k="name" v="Hopsneset" />
		<tag k="natural" v="cape" />
		<tag k="ssr:stedsnr" v="855772" />
	</node>
	<node id="-434296" lat="60.3984751789" lon="5.3152536552">
		<tag k="name" v="Vågen" />
		<tag k="natural" v="bay" />
		<tag k="ssr:stedsnr" v="855704" />
	</node>
	<node id="-432246" lat="60.2078194412" lon="5.25626111836">
		<tag k="name" v="Donhavn" />
		<tag k="natural" v="bay" />
		<tag k="ssr:stedsnr" v="247844" />
	</node>
	<node id="-432244" lat="60.1991499988" lon="5.25032499768">
		<tag k="fixme" v="consider seamark:type=rock or natural=shoal" />
		<tag k="name" v="Blia" />
		<tag k="place" v="islet" />
		<tag k="ssr:stedsnr" v="247773" />
	</node>
	<node id="-432242" lat="60.2402861087" lon="5.24164444648">
		<tag k="name" v="Laksholmen" />
		<tag k="place" v="islet" />
		<tag k="ssr:stedsnr" v="247650" />
	</node>
	<node id="-434283" lat="60.4457305594" lon="5.30129722464">
		<tag k="name" v="Storøya" />
		<tag k="place" v="islet" />
		<tag k="ssr:stedsnr" v="855509" />
	</node>
	<node id="-434282" lat="60.4641000034" lon="5.27564166431">
		<tag k="name" v="Kvernavika" />
		<tag k="natural" v="bay" />
		<tag k="ssr:stedsnr" v="855407" />
	</node>
	<node id="-434281" lat="60.4675694441" lon="5.27533889216">
		<tag k="name" v="Morvika" />
		<tag k="natural" v="bay" />
		<tag k="ssr:stedsnr" v="855408" />
	</node>
	<node id="-434279" lat="60.2425305521" lon="5.24906388944">
		<tag k="name" v="Sauaneset" />
		<tag k="natural" v="cape" />
		<tag k="ssr:stedsnr" v="855352" />
	</node>
	<node id="-431750" lat="60.3920888871" lon="5.29819999397">
		<tag k="bay" v="fjord" />
		<tag k="name" v="Puddefjorden" />
		<tag k="natural" v="bay" />
		<tag k="ssr:stedsnr" v="126675" />
	</node>
	<node id="-432226" lat="60.2542722224" lon="5.28087221603">
		<tag k="fixme" v="consider seamark:type=rock or natural=shoal" />
		<tag k="name" v="Geitaskjeret" />
		<tag k="place" v="islet" />
		<tag k="ssr:stedsnr" v="207193" />
	</node>
	<node id="-432225" lat="60.2880694468" lon="5.2028333327">
		<tag k="name" v="Setevikneset" />
		<tag k="natural" v="cape" />
		<tag k="ssr:stedsnr" v="206187" />
	</node>
	<node id="-434267" lat="60.4231666637" lon="5.55559444897">
		<tag k="name" v="Danskevika" />
		<tag k="natural" v="bay" />
		<tag k="ssr:stedsnr" v="855047" />
	</node>
	<node id="-432218" lat="60.4257111097" lon="5.50613611328">
		<tag k="name" v="Nordrevika" />
		<tag k="natural" v="bay" />
		<tag k="ssr:stedsnr" v="203972" />
	</node>
	<node id="-434264" lat="60.2084111077" lon="5.28928888539">
		<tag k="name" v="Bulderholmen" />
		<tag k="place" v="islet" />
		<tag k="ssr:stedsnr" v="854757" />
	</node>
	<node id="-434263" lat="60.2468861112" lon="5.26419443694">
		<tag k="name" v="Skipaneset" />
		<tag k="natural" v="cape" />
		<tag k="ssr:stedsnr" v="854656" />
	</node>
	<node id="-434262" lat="60.2384333367" lon="5.29880555598">
		<tag k="name" v="Breivika" />
		<tag k="natural" v="bay" />
		<tag k="ssr:stedsnr" v="854654" />
	</node>
	<node id="-434261" lat="60.2646250006" lon="5.21916110692">
		<tag k="name" v="Litle Grunnasundholmen" />
		<tag k="place" v="islet" />
		<tag k="ssr:stedsnr" v="870135" />
	</node>
	<node id="-432211" lat="60.4245750029" lon="5.55250555537">
		<tag k="name" v="Klubben" />
		<tag k="natural" v="cape" />
		<tag k="ssr:stedsnr" v="203925" />
	</node>
	<node id="-432210" lat="60.4765862884" lon="5.41591710115">
		<tag k="name" v="Matvika" />
		<tag k="natural" v="bay" />
		<tag k="ssr:stedsnr" v="203923" />
	</node>
	<node id="-434253" lat="60.2619388927" lon="5.21352500023">
		<tag k="name" v="Dukholmen" />
		<tag k="place" v="islet" />
		<tag k="ssr:stedsnr" v="870123" />
	</node>
	<node id="-431116" lat="60.2095888851" lon="5.28381388883">
		<tag k="name" v="Grøteidvika" />
		<tag k="natural" v="bay" />
		<tag k="ssr:stedsnr" v="385937" />
	</node>
	<node id="-434235" lat="60.419979135" lon="5.29898586319">
		<tag k="name" v="Fagerneset" />
		<tag k="natural" v="cape" />
		<tag k="ssr:stedsnr" v="814742" />
	</node>
	<node id="-434229" lat="60.2174805565" lon="5.31691389741">
		<tag k="name" v="Laksholmen" />
		<tag k="place" v="islet" />
		<tag k="ssr:stedsnr" v="810922" />
	</node>
	<node id="-434224" lat="60.2629444456" lon="5.33036110465">
		<tag k="name" v="Fanaholmen" />
		<tag k="place" v="islet" />
		<tag k="ssr:stedsnr" v="810857" />
	</node>
	<node id="-434220" lat="60.2539999964" lon="5.32620555637">
		<tag k="name" v="Hovdavika" />
		<tag k="natural" v="bay" />
		<tag k="ssr:stedsnr" v="810771" />
	</node>
	<node id="-434181" lat="60.2192361088" lon="5.29746111468">
		<tag k="name" v="Kjeøyna" />
		<tag k="place" v="islet" />
		<tag k="ssr:stedsnr" v="809981" />
	</node>
	<node id="-432145" lat="60.3359916674" lon="5.19848888293">
		<tag k="name" v="Bekkjarvika" />
		<tag k="natural" v="bay" />
		<tag k="ssr:stedsnr" v="203004" />
	</node>
	<node id="-434190" lat="60.222947225" lon="5.33837222976">
		<tag k="name" v="Flatøyna" />
		<tag k="place" v="island" />
		<tag k="ssr:stedsnr" v="810055" />
	</node>
	<node id="-432141" lat="60.229322222" lon="5.26441945263">
		<tag k="name" v="Selvågen" />
		<tag k="natural" v="bay" />
		<tag k="ssr:stedsnr" v="202973" />
	</node>
	<node id="-434188" lat="60.3303281134" lon="5.21095327359">
		<tag k="name" v="Skarvika" />
		<tag k="natural" v="bay" />
		<tag k="ssr:stedsnr" v="810017" />
	</node>
	<node id="-434187" lat="60.3285413813" lon="5.22923187765">
		<tag k="name" v="Tangavika" />
		<tag k="natural" v="bay" />
		<tag k="ssr:stedsnr" v="810007" />
	</node>
	<node id="-434185" lat="60.220936115" lon="5.29009723061">
		<tag k="name" v="Djupevika" />
		<tag k="natural" v="bay" />
		<tag k="ssr:stedsnr" v="809996" />
	</node>
	<node id="-434184" lat="60.4485839076" lon="5.47290016518">
		<tag k="name" v="Klubbavika" />
		<tag k="natural" v="bay" />
		<tag k="ssr:stedsnr" v="809993" />
	</node>
	<node id="-432135" lat="60.2150583303" lon="5.29373333046">
		<tag k="name" v="Søre Sætevika" />
		<tag k="natural" v="bay" />
		<tag k="ssr:stedsnr" v="202943" />
	</node>
	<node id="-432133" lat="60.2256444482" lon="5.35301944417">
		<tag k="name" v="Svedneholmen" />
		<tag k="place" v="islet" />
		<tag k="ssr:stedsnr" v="202922" />
	</node>
	<node id="-434180" lat="60.2186083331" lon="5.28964721377">
		<tag k="name" v="Såtevika" />
		<tag k="natural" v="bay" />
		<tag k="ssr:stedsnr" v="809975" />
	</node>
	<node id="-432129" lat="60.2181694449" lon="5.31651944184">
		<tag k="fixme" v="consider seamark:type=rock or natural=shoal" />
		<tag k="name" v="Levra" />
		<tag k="place" v="islet" />
		<tag k="ssr:stedsnr" v="202899" />
	</node>
</osm>
