<?xml version="1.0" encoding="UTF-8"?>
<osm generator="osmapis" version="0.6">
	<node id="-432128" lat="60.367874998" lon="5.31180277301">
		<tag k="name" v="Lauvstakken" />
		<tag k="place" v="isolated_dwelling" />
		<tag k="ssr:stedsnr" v="66734" />
	</node>
	<node id="-432127" lat="60.3720083303" lon="5.33711111103">
		<tag k="name" v="Solheim" />
		<tag k="place" v="village" />
		<tag k="ssr:stedsnr" v="66732" />
	</node>
	<node id="-432126" lat="60.3452222211" lon="5.25989999272">
		<tag k="fixme" v="consider place=suburb, village or hamlet" />
		<tag k="name" v="Hesjaholten" />
		<tag k="place" v="quarter" />
		<tag k="ssr:stedsnr" v="66705" />
	</node>
	<node id="-432117" lat="60.3895746629" lon="5.26235175295">
		<tag k="name" v="Gravdal" />
		<tag k="place" v="village" />
		<tag k="ssr:stedsnr" v="66618" />
	</node>
	<node id="-432116" lat="60.3856492229" lon="5.20701864758">
		<tag k="fixme" v="consider place=hamlet" />
		<tag k="name" v="Gjerdingen" />
		<tag k="place" v="farm" />
		<tag k="ssr:stedsnr" v="66613" />
	</node>
	<node id="-432115" lat="60.3892504503" lon="5.28268239374">
		<tag k="fixme" v="consider place=suburb, village or hamlet" />
		<tag k="name" v="Holen" />
		<tag k="place" v="quarter" />
		<tag k="ssr:stedsnr" v="66600" />
	</node>
	<node id="-432111" lat="60.448316671" lon="5.44990554924">
		<tag k="name" v="Kvamsstø" />
		<tag k="place" v="farm" />
		<tag k="ssr:stedsnr" v="66577" />
	</node>
	<node id="-432109" lat="60.4220305592" lon="5.46823611325">
		<tag k="name" v="Arna" />
		<tag k="place" v="suburb" />
		<tag k="ssr:stedsnr" v="66561" />
	</node>
	<node id="-432108" lat="60.4268138849" lon="5.4545888942">
		<tag k="name" v="Mjeldheimsli" />
		<tag k="place" v="farm" />
		<tag k="ssr:stedsnr" v="66541" />
	</node>
	<node id="-432101" lat="60.4768397766" lon="5.32535089586">
		<tag k="fixme" v="consider place=hamlet" />
		<tag k="name" v="Saurås" />
		<tag k="place" v="farm" />
		<tag k="ssr:stedsnr" v="66405" />
	</node>
	<node id="-432100" lat="60.4797327944" lon="5.35986275001">
		<tag k="fixme" v="consider place=hamlet" />
		<tag k="name" v="Eikås" />
		<tag k="place" v="farm" />
		<tag k="ssr:stedsnr" v="66390" />
	</node>
	<node id="-434147" lat="60.280633335" lon="5.25477500353">
		<tag k="name" v="Fristad" />
		<tag k="place" v="farm" />
		<tag k="ssr:stedsnr" v="673944" />
	</node>
	<node id="-434145" lat="60.2692666625" lon="5.27395554788">
		<tag k="name" v="Åsen" />
		<tag k="place" v="isolated_dwelling" />
		<tag k="ssr:stedsnr" v="673923" />
	</node>
	<node id="-434144" lat="60.2650901362" lon="5.35525767773">
		<tag k="name" v="Nordheim" />
		<tag k="place" v="farm" />
		<tag k="ssr:stedsnr" v="673913" />
	</node>
	<node id="-434143" lat="60.3118702342" lon="5.27009790306">
		<tag k="fixme" v="consider place=hamlet" />
		<tag k="name" v="Søreide" />
		<tag k="place" v="farm" />
		<tag k="ssr:stedsnr" v="673871" />
	</node>
	<node id="-434142" lat="60.3145444437" lon="5.36870555243">
		<tag k="fixme" v="consider place=suburb, village or hamlet" />
		<tag k="name" v="Øvsttun" />
		<tag k="place" v="quarter" />
		<tag k="ssr:stedsnr" v="673868" />
	</node>
	<node id="-432093" lat="60.3395353613" lon="5.50782834491">
		<tag k="fixme" v="consider place=hamlet" />
		<tag k="name" v="Øvstebø" />
		<tag k="place" v="farm" />
		<tag k="ssr:stedsnr" v="66187" />
	</node>
	<node id="-434140" lat="60.3060416637" lon="5.45465277188">
		<tag k="name" v="Fagerdal" />
		<tag k="place" v="farm" />
		<tag k="ssr:stedsnr" v="673845" />
	</node>
	<node id="-434138" lat="60.3392249968" lon="5.22812500533">
		<tag k="landuse" v="military" />
		<tag k="name" v="Haakonsvern" />
		<tag k="ssr:stedsnr" v="673805" />
	</node>
	<node id="-432089" lat="60.4284825334" lon="5.57925540689">
		<tag k="fixme" v="consider place=hamlet" />
		<tag k="name" v="Nedre Romslo" />
		<tag k="place" v="farm" />
		<tag k="ssr:stedsnr" v="66030" />
	</node>
	<node id="-434136" lat="60.3952583355" lon="5.38462777453">
		<tag k="name" v="Kobbeltveit" />
		<tag k="place" v="isolated_dwelling" />
		<tag k="ssr:stedsnr" v="673678" />
	</node>
	<node id="-434135" lat="60.4328305528" lon="5.34855555646">
		<tag k="name" v="Sundsbakk" />
		<tag k="place" v="farm" />
		<tag k="ssr:stedsnr" v="673634" />
	</node>
	<node id="-434134" lat="60.4342888898" lon="5.28459444795">
		<tag k="fixme" v="consider place=suburb, village or hamlet" />
		<tag k="name" v="Hellen" />
		<tag k="place" v="quarter" />
		<tag k="ssr:stedsnr" v="673624" />
	</node>
	<node id="-434131" lat="60.4573866678" lon="5.4316015657">
		<tag k="name" v="Sætre" />
		<tag k="place" v="isolated_dwelling" />
		<tag k="ssr:stedsnr" v="673526" />
	</node>
	<node id="-432082" lat="60.3002632861" lon="5.32978014305">
		<tag k="fixme" v="consider place=hamlet" />
		<tag k="name" v="Sørås" />
		<tag k="place" v="farm" />
		<tag k="ssr:stedsnr" v="66823" />
	</node>
	<node id="-434129" lat="60.5109473427" lon="5.35099845274">
		<tag k="fixme" v="consider place=hamlet" />
		<tag k="name" v="Hylkje" />
		<tag k="place" v="farm" />
		<tag k="ssr:stedsnr" v="673495" />
	</node>
	<node id="-432078" lat="60.3067202922" lon="5.32298948033">
		<tag k="fixme" v="consider place=suburb, village or hamlet" />
		<tag k="name" v="Nordås" />
		<tag k="place" v="quarter" />
		<tag k="ssr:stedsnr" v="54122" />
	</node>
	<node id="-434125" lat="60.378161107" lon="5.51074445215">
		<tag k="name" v="Nordre Bjørndalen" />
		<tag k="place" v="farm" />
		<tag k="ssr:stedsnr" v="673141" />
	</node>
	<node id="-434120" lat="60.4198742531" lon="5.5217491829">
		<tag k="fixme" v="consider place=hamlet" />
		<tag k="name" v="Indre Takkvam" />
		<tag k="place" v="farm" />
		<tag k="ssr:stedsnr" v="673072" />
	</node>
	<node id="-434115" lat="60.2602000019" lon="5.33721666347">
		<tag k="fixme" v="consider place=suburb, village or hamlet" />
		<tag k="name" v="Fanahammaren" />
		<tag k="place" v="quarter" />
		<tag k="ssr:stedsnr" v="672890" />
	</node>
	<node id="-434114" lat="60.2508038924" lon="5.32323206674">
		<tag k="fixme" v="consider place=hamlet" />
		<tag k="name" v="Salbu" />
		<tag k="place" v="farm" />
		<tag k="ssr:stedsnr" v="672884" />
	</node>
	<node id="-434113" lat="60.3169018171" lon="5.44644679569">
		<tag k="fixme" v="consider place=hamlet" />
		<tag k="name" v="Riple" />
		<tag k="place" v="farm" />
		<tag k="ssr:stedsnr" v="672874" />
	</node>
	<node id="-434112" lat="60.3075277755" lon="5.34790834031">
		<tag k="fixme" v="consider place=suburb, village or hamlet" />
		<tag k="name" v="Skjold" />
		<tag k="place" v="quarter" />
		<tag k="ssr:stedsnr" v="672859" />
	</node>
	<node id="-434110" lat="60.2932217634" lon="5.21128199497">
		<tag k="fixme" v="consider place=hamlet" />
		<tag k="name" v="Flesland" />
		<tag k="place" v="farm" />
		<tag k="ssr:stedsnr" v="672838" />
	</node>
	<node id="-434107" lat="60.378495399" lon="5.44702903585">
		<tag k="fixme" v="consider place=hamlet" />
		<tag k="name" v="Haugo" />
		<tag k="place" v="farm" />
		<tag k="ssr:stedsnr" v="672722" />
	</node>
	<node id="-434105" lat="60.3687861102" lon="5.22606944982">
		<tag k="name" v="Loddefjord" />
		<tag k="place" v="village" />
		<tag k="ssr:stedsnr" v="672705" />
	</node>
	<node id="-434103" lat="60.3600472209" lon="5.2317444472">
		<tag k="name" v="Hetlevik" />
		<tag k="place" v="village" />
		<tag k="ssr:stedsnr" v="672680" />
	</node>
	<node id="-434101" lat="60.239405552" lon="5.2928083342">
		<tag k="name" v="Botnavika" />
		<tag k="place" v="farm" />
		<tag k="ssr:stedsnr" v="672653" />
	</node>
	<node id="-434097" lat="60.4746892075" lon="5.35950624848">
		<tag k="fixme" v="consider place=hamlet" />
		<tag k="name" v="Birkeland" />
		<tag k="place" v="farm" />
		<tag k="ssr:stedsnr" v="672496" />
	</node>
	<node id="-432036" lat="60.2886083324" lon="5.31142500114">
		<tag k="name" v="Nyrå" />
		<tag k="place" v="farm" />
		<tag k="ssr:stedsnr" v="21748" />
	</node>
	<node id="-434079" lat="60.2917305551" lon="5.26533055414">
		<tag k="name" v="Ytrebygda" />
		<tag k="place" v="village" />
		<tag k="ssr:stedsnr" v="642153" />
	</node>
	<node id="-434078" lat="60.4475944453" lon="5.58474167281">
		<tag k="fixme" v="consider place=suburb, village or hamlet" />
		<tag k="name" v="Eikeviken" />
		<tag k="place" v="quarter" />
		<tag k="ssr:stedsnr" v="642058" />
	</node>
	<node id="-434068" lat="60.346966665" lon="5.33707499627">
		<tag k="fixme" v="consider place=suburb, village or hamlet" />
		<tag k="name" v="Fjøsanger" />
		<tag k="place" v="quarter" />
		<tag k="ssr:stedsnr" v="630003" />
	</node>
	<node id="-432006" lat="60.3139721602" lon="5.44024486196">
		<tag k="name" v="Nedre Totland" />
		<tag k="place" v="farm" />
		<tag k="ssr:stedsnr" v="21240" />
	</node>
	<node id="-432001" lat="60.4824295237" lon="5.27905692631">
		<tag k="fixme" v="consider place=hamlet" />
		<tag k="name" v="Nordre Toppe" />
		<tag k="place" v="farm" />
		<tag k="ssr:stedsnr" v="21224" />
	</node>
	<node id="-434044" lat="60.2546408412" lon="5.25368850777">
		<tag k="fixme" v="consider place=hamlet" />
		<tag k="name" v="Søre Hjellestad" />
		<tag k="place" v="farm" />
		<tag k="ssr:stedsnr" v="627869" />
	</node>
	<node id="-434041" lat="60.2759305523" lon="5.29195833719">
		<tag k="name" v="Tveitane" />
		<tag k="place" v="farm" />
		<tag k="ssr:stedsnr" v="627860" />
	</node>
	<node id="-435177" lat="60.3166116447" lon="5.35755248218">
		<tag k="fixme" v="consider place=hamlet" />
		<tag k="name" v="Midtun" />
		<tag k="place" v="farm" />
		<tag k="ssr:stedsnr" v="916875" />
	</node>
	<node id="-434035" lat="60.2298027776" lon="5.33868056317">
		<tag k="name" v="Heggvik" />
		<tag k="place" v="farm" />
		<tag k="ssr:stedsnr" v="627840" />
	</node>
	<node id="-434029" lat="60.4493027772" lon="5.3727638947">
		<tag k="name" v="Søre Hjortland" />
		<tag k="place" v="farm" />
		<tag k="ssr:stedsnr" v="627815" />
	</node>
	<node id="-431979" lat="60.4311277796" lon="5.64435555839">
		<tag k="name" v="Holene" />
		<tag k="place" v="farm" />
		<tag k="ssr:stedsnr" v="21002" />
	</node>
	<node id="-433124" lat="60.265290209" lon="5.40588225066">
		<tag k="fixme" v="consider place=hamlet" />
		<tag k="name" v="Kismul" />
		<tag k="place" v="farm" />
		<tag k="ssr:stedsnr" v="430886" />
	</node>
	<node id="-432099" lat="60.4941500006" lon="5.35691944456">
		<tag k="name" v="Jonsterhaugen" />
		<tag k="place" v="farm" />
		<tag k="ssr:stedsnr" v="66381" />
	</node>
	<node id="-432097" lat="60.5187638876" lon="5.2990861148">
		<tag k="name" v="Hordvik" />
		<tag k="place" v="farm" />
		<tag k="ssr:stedsnr" v="66359" />
	</node>
	<node id="-435168" lat="60.3970611157" lon="5.33064167172">
		<tag k="name" v="Skansen" />
		<tag k="place" v="isolated_dwelling" />
		<tag k="ssr:stedsnr" v="916717" />
	</node>
	<node id="-435167" lat="60.3968713506" lon="5.45414399858">
		<tag k="fixme" v="consider place=hamlet" />
		<tag k="name" v="Tangeland" />
		<tag k="place" v="farm" />
		<tag k="ssr:stedsnr" v="916709" />
	</node>
	<node id="-432081" lat="60.2919899231" lon="5.31729907346">
		<tag k="fixme" v="consider place=hamlet" />
		<tag k="name" v="Rå" />
		<tag k="place" v="farm" />
		<tag k="ssr:stedsnr" v="66820" />
	</node>
	<node id="-433966" lat="60.5181888922" lon="5.29812221901">
		<tag k="name" v="Balane" />
		<tag k="place" v="farm" />
		<tag k="ssr:stedsnr" v="627247" />
	</node>
	<node id="-435164" lat="60.3824916686" lon="5.46569722259">
		<tag k="fixme" v="consider place=suburb, village or hamlet" />
		<tag k="name" v="Espeland" />
		<tag k="place" v="quarter" />
		<tag k="ssr:stedsnr" v="916679" />
	</node>
	<node id="-433957" lat="60.4017027795" lon="5.45244166551">
		<tag k="name" v="Dalen" />
		<tag k="place" v="farm" />
		<tag k="ssr:stedsnr" v="627225" />
	</node>
	<node id="-435163" lat="60.3863752178" lon="5.21181426366">
		<tag k="fixme" v="consider place=hamlet" />
		<tag k="name" v="Olsvik" />
		<tag k="place" v="farm" />
		<tag k="ssr:stedsnr" v="916666" />
	</node>
	<node id="-431895" lat="60.2710108089" lon="5.45294800932">
		<tag k="fixme" v="consider place=hamlet" />
		<tag k="name" v="Engevik" />
		<tag k="place" v="farm" />
		<tag k="ssr:stedsnr" v="6916" />
	</node>
	<node id="-431893" lat="60.3167041272" lon="5.21448087405">
		<tag k="fixme" v="consider place=hamlet" />
		<tag k="name" v="Festervik" />
		<tag k="place" v="farm" />
		<tag k="ssr:stedsnr" v="6777" />
	</node>
	<node id="-431891" lat="60.5079496148" lon="5.30232002184">
		<tag k="fixme" v="consider place=hamlet" />
		<tag k="name" v="Falkanger" />
		<tag k="place" v="farm" />
		<tag k="ssr:stedsnr" v="6534" />
	</node>
	<node id="-431888" lat="60.4848883531" lon="5.34587688493">
		<tag k="fixme" v="consider place=hamlet" />
		<tag k="name" v="Teigland" />
		<tag k="place" v="farm" />
		<tag k="ssr:stedsnr" v="6425" />
	</node>
	<node id="-431887" lat="60.486929997" lon="5.32581892139">
		<tag k="fixme" v="consider place=hamlet" />
		<tag k="name" v="Vestlia" />
		<tag k="place" v="farm" />
		<tag k="ssr:stedsnr" v="6419" />
	</node>
	<node id="-431882" lat="60.2762138877" lon="5.29294445117">
		<tag k="name" v="Helgheim" />
		<tag k="place" v="farm" />
		<tag k="ssr:stedsnr" v="5914" />
	</node>
	<node id="-433929" lat="60.4463194441" lon="5.37576944343">
		<tag k="historic" v="shieling" />
		<tag k="name" v="Grønstølen" />
		<tag k="place" v="locality" />
		<tag k="ssr:stedsnr" v="627107" />
	</node>
	<node id="-431880" lat="60.2753690099" lon="5.27476323869">
		<tag k="fixme" v="consider place=hamlet" />
		<tag k="name" v="Mildestveit" />
		<tag k="place" v="farm" />
		<tag k="ssr:stedsnr" v="5913" />
	</node>
	<node id="-431879" lat="60.2503095235" lon="5.26152282761">
		<tag k="fixme" v="consider place=hamlet" />
		<tag k="name" v="Litle Milde" />
		<tag k="place" v="farm" />
		<tag k="ssr:stedsnr" v="5851" />
	</node>
	<node id="-431878" lat="60.3039883208" lon="5.29826900493">
		<tag k="fixme" v="consider place=hamlet" />
		<tag k="name" v="Steinsvik" />
		<tag k="place" v="farm" />
		<tag k="ssr:stedsnr" v="5818" />
	</node>
	<node id="-431877" lat="60.2885604468" lon="5.28213310024">
		<tag k="fixme" v="consider place=hamlet" />
		<tag k="name" v="Håvardstun" />
		<tag k="place" v="farm" />
		<tag k="ssr:stedsnr" v="5800" />
	</node>
	<node id="-431876" lat="60.2890666678" lon="5.29293333079">
		<tag k="name" v="Nordre Skage" />
		<tag k="place" v="farm" />
		<tag k="ssr:stedsnr" v="5799" />
	</node>
	<node id="-431875" lat="60.2884419801" lon="5.24309045432">
		<tag k="fixme" v="consider place=hamlet" />
		<tag k="name" v="Liland" />
		<tag k="place" v="farm" />
		<tag k="ssr:stedsnr" v="5788" />
	</node>
	<node id="-431874" lat="60.3742652102" lon="5.45912417641">
		<tag k="fixme" v="consider place=hamlet" />
		<tag k="name" v="Lone" />
		<tag k="place" v="farm" />
		<tag k="ssr:stedsnr" v="5730" />
	</node>
	<node id="-431873" lat="60.3604194481" lon="5.20030554823">
		<tag k="name" v="Slettebakken" />
		<tag k="place" v="locality" />
		<tag k="ssr:stedsnr" v="5714" />
	</node>
	<node id="-431872" lat="60.3753911718" lon="5.17834142091">
		<tag k="name" v="Nordre Drotningsvik" />
		<tag k="place" v="farm" />
		<tag k="ssr:stedsnr" v="5706" />
	</node>
	<node id="-431871" lat="60.3645757464" lon="5.17642922078">
		<tag k="fixme" v="consider place=hamlet" />
		<tag k="name" v="Ramsvik" />
		<tag k="place" v="farm" />
		<tag k="ssr:stedsnr" v="5702" />
	</node>
	<node id="-431870" lat="60.3620527749" lon="5.22096943943">
		<tag k="fixme" v="consider place=suburb, village or hamlet" />
		<tag k="name" v="Vadmyra" />
		<tag k="place" v="quarter" />
		<tag k="ssr:stedsnr" v="5695" />
	</node>
	<node id="-433917" lat="60.3881527753" lon="5.22722500914">
		<tag k="name" v="Festergården" />
		<tag k="place" v="farm" />
		<tag k="ssr:stedsnr" v="627027" />
	</node>
	<node id="-433916" lat="60.3724444435" lon="5.18080277714">
		<tag k="name" v="Stien" />
		<tag k="place" v="farm" />
		<tag k="ssr:stedsnr" v="627022" />
	</node>
	<node id="-431865" lat="60.3660117952" lon="5.45278560673">
		<tag k="fixme" v="consider place=hamlet" />
		<tag k="name" v="Haukeland" />
		<tag k="place" v="farm" />
		<tag k="ssr:stedsnr" v="5674" />
	</node>
	<node id="-431862" lat="60.4059027784" lon="5.44876666732">
		<tag k="alt_name" v="Rødland, midt" />
		<tag k="name" v="Midt-Rødland" />
		<tag k="place" v="farm" />
		<tag k="ssr:stedsnr" v="5639" />
	</node>
	<node id="-431859" lat="60.3884083343" lon="5.35433610707">
		<tag k="fixme" v="consider place=suburb, village or hamlet" />
		<tag k="name" v="Starefossen" />
		<tag k="place" v="quarter" />
		<tag k="ssr:stedsnr" v="5610" />
	</node>
	<node id="-435155" lat="60.4979834481" lon="5.35461796511">
		<tag k="fixme" v="consider place=hamlet" />
		<tag k="name" v="Almås" />
		<tag k="place" v="farm" />
		<tag k="ssr:stedsnr" v="916427" />
	</node>
	<node id="-431856" lat="60.4579444452" lon="5.28265277981">
		<tag k="name" v="Tertnes" />
		<tag k="place" v="village" />
		<tag k="ssr:stedsnr" v="5537" />
	</node>
	<node id="-431854" lat="60.4683888915" lon="5.33580000296">
		<tag k="fixme" v="consider place=suburb, village or hamlet" />
		<tag k="name" v="Nyborg" />
		<tag k="place" v="quarter" />
		<tag k="ssr:stedsnr" v="5515" />
	</node>
	<node id="-431853" lat="60.4507527791" lon="5.39242499824">
		<tag k="name" v="Bustevollen" />
		<tag k="place" v="farm" />
		<tag k="ssr:stedsnr" v="5486" />
	</node>
	<node id="-431850" lat="60.492971311" lon="5.29520121499">
		<tag k="fixme" v="consider place=hamlet" />
		<tag k="name" v="Baugtveit" />
		<tag k="place" v="farm" />
		<tag k="ssr:stedsnr" v="5382" />
	</node>
	<node id="-431845" lat="60.3706024914" lon="5.47366590265">
		<tag k="fixme" v="consider place=hamlet" />
		<tag k="name" v="Neset" />
		<tag k="place" v="farm" />
		<tag k="ssr:stedsnr" v="5176" />
	</node>
	<node id="-431841" lat="60.4034888916" lon="5.51051944951">
		<tag k="historic" v="shieling" />
		<tag k="name" v="Ådnasetra" />
		<tag k="place" v="locality" />
		<tag k="ssr:stedsnr" v="5076" />
	</node>
	<node id="-435152" lat="60.3773833375" lon="5.50818333707">
		<tag k="name" v="Hagen" />
		<tag k="place" v="farm" />
		<tag k="ssr:stedsnr" v="916142" />
	</node>
	<node id="-431838" lat="60.4234856647" lon="5.50859457248">
		<tag k="fixme" v="consider place=hamlet" />
		<tag k="name" v="Tunestveit" />
		<tag k="place" v="farm" />
		<tag k="ssr:stedsnr" v="5045" />
	</node>
	<node id="-431837" lat="60.4276583328" lon="5.62339444723">
		<tag k="name" v="Trengereid" />
		<tag k="place" v="village" />
		<tag k="ssr:stedsnr" v="5029" />
	</node>
	<node id="-431836" lat="60.4375560508" lon="5.47165091986">
		<tag k="fixme" v="consider place=hamlet" />
		<tag k="name" v="Åsheim" />
		<tag k="place" v="farm" />
		<tag k="ssr:stedsnr" v="5017" />
	</node>
	<node id="-431835" lat="60.4312323733" lon="5.49751105063">
		<tag k="name" v="Tunes" />
		<tag k="place" v="farm" />
		<tag k="ssr:stedsnr" v="5016" />
	</node>
	<node id="-433882" lat="60.2963805557" lon="5.31247777996">
		<tag k="name" v="Råmyr" />
		<tag k="place" v="farm" />
		<tag k="ssr:stedsnr" v="612825" />
	</node>
	<node id="-431833" lat="60.3837361111" lon="5.30160000681">
		<tag k="name" v="Damsgård" />
		<tag k="place" v="farm" />
		<tag k="ssr:stedsnr" v="267275" />
	</node>
	<node id="-431832" lat="60.3894783028" lon="5.28339803379">
		<tag k="amenity" v="school" />
		<tag k="name" v="Holen skole" />
		<tag k="ssr:stedsnr" v="991216" />
	</node>
	<node id="-433877" lat="60.3313461298" lon="5.39706150376">
		<tag k="alt_name" v="Dyngeland, nedre" />
		<tag k="fixme" v="consider place=hamlet" />
		<tag k="name" v="Nedre Dyngeland" />
		<tag k="place" v="farm" />
		<tag k="ssr:stedsnr" v="612754" />
	</node>
	<node id="-433876" lat="60.3456472191" lon="5.19301110865">
		<tag k="name" v="Solbakken" />
		<tag k="place" v="farm" />
		<tag k="ssr:stedsnr" v="612729" />
	</node>
	<node id="-433874" lat="60.3495095043" lon="5.38138294187">
		<tag k="alt_name" v="Helgesæter" />
		<tag k="name" v="Helgeseter" />
		<tag k="place" v="farm" />
		<tag k="ssr:stedsnr" v="612719" />
	</node>
	<node id="-433873" lat="60.3563760821" lon="5.42624500688">
		<tag k="fixme" v="consider place=hamlet" />
		<tag k="name" v="Erdal" />
		<tag k="place" v="farm" />
		<tag k="ssr:stedsnr" v="612714" />
	</node>
	<node id="-433868" lat="60.4905444405" lon="5.26118055949">
		<tag k="name" v="Ladberget" />
		<tag k="place" v="farm" />
		<tag k="ssr:stedsnr" v="612418" />
	</node>
	<node id="-433866" lat="60.3320277785" lon="5.50573055959">
		<tag k="name" v="Leitet" />
		<tag k="place" v="farm" />
		<tag k="ssr:stedsnr" v="612221" />
	</node>
	<node id="-433857" lat="60.3090936662" lon="5.28838065493">
		<tag k="fixme" v="consider place=hamlet" />
		<tag k="name" v="Søvik" />
		<tag k="place" v="farm" />
		<tag k="ssr:stedsnr" v="611862" />
	</node>
	<node id="-433856" lat="60.2340531955" lon="5.35821283667">
		<tag k="fixme" v="consider place=hamlet" />
		<tag k="name" v="Nordvik" />
		<tag k="place" v="farm" />
		<tag k="ssr:stedsnr" v="611855" />
	</node>
	<node id="-431392" lat="60.2514000004" lon="5.27048594498">
		<tag k="fixme" v="consider place=hamlet" />
		<tag k="name" v="Store Milde" />
		<tag k="place" v="farm" />
		<tag k="ssr:stedsnr" v="324767" />
	</node>
	<node id="-433854" lat="60.3779055525" lon="5.36349443725">
		<tag k="amenity" v="university" />
		<tag k="name" v="Ålrekstad" />
		<tag k="ssr:stedsnr" v="611746" />
	</node>
	<node id="-433853" lat="60.4058694463" lon="5.32418055083">
		<tag k="name" v="Sandviken" />
		<tag k="place" v="village" />
		<tag k="ssr:stedsnr" v="611586" />
	</node>
	<node id="-433852" lat="60.2963527786" lon="5.48187222247">
		<tag k="name" v="Bjørndalen" />
		<tag k="place" v="farm" />
		<tag k="ssr:stedsnr" v="611259" />
	</node>
	<node id="-431803" lat="60.45247765" lon="5.37016297865">
		<tag k="fixme" v="consider place=hamlet" />
		<tag k="name" v="Hjortland" />
		<tag k="place" v="farm" />
		<tag k="ssr:stedsnr" v="990808" />
	</node>
	<node id="-431802" lat="60.5083222293" lon="5.34198531033">
		<tag k="fixme" v="consider place=hamlet" />
		<tag k="name" v="Tuft" />
		<tag k="place" v="farm" />
		<tag k="ssr:stedsnr" v="990790" />
	</node>
	<node id="-433849" lat="60.3612048021" lon="5.47878925432">
		<tag k="fixme" v="consider place=hamlet" />
		<tag k="name" v="Unneland" />
		<tag k="place" v="farm" />
		<tag k="ssr:stedsnr" v="611161" />
	</node>
	<node id="-431800" lat="60.3585086109" lon="5.18070822159">
		<tag k="fixme" v="consider place=hamlet" />
		<tag k="name" v="Bakken" />
		<tag k="place" v="farm" />
		<tag k="ssr:stedsnr" v="990740" />
	</node>
	<node id="-431799" lat="60.358319771" lon="5.24555386533">
		<tag k="fixme" v="consider place=hamlet" />
		<tag k="name" v="Bjørndal" />
		<tag k="place" v="farm" />
		<tag k="ssr:stedsnr" v="990735" />
	</node>
	<node id="-431797" lat="60.2625980466" lon="5.35148000867">
		<tag k="fixme" v="consider place=hamlet" />
		<tag k="name" v="Fana prestegåd" />
		<tag k="place" v="farm" />
		<tag k="ssr:stedsnr" v="990663" />
	</node>
	<node id="-431796" lat="60.3296989624" lon="5.25802894322">
		<tag k="fixme" v="consider place=hamlet" />
		<tag k="name" v="Knappen" />
		<tag k="place" v="farm" />
		<tag k="ssr:stedsnr" v="990658" />
	</node>
	<node id="-433843" lat="60.3152281459" lon="5.44085282237">
		<tag k="name" v="Totland" />
		<tag k="place" v="hamlet" />
		<tag k="ssr:stedsnr" v="593166" />
	</node>
	<node id="-431794" lat="60.3402279515" lon="5.35255799408">
		<tag k="fixme" v="consider place=hamlet" />
		<tag k="name" v="Fantoft" />
		<tag k="place" v="farm" />
		<tag k="ssr:stedsnr" v="990656" />
	</node>
	<node id="-431793" lat="60.3462480572" lon="5.38478158336">
		<tag k="fixme" v="consider place=hamlet" />
		<tag k="name" v="Sædal" />
		<tag k="place" v="farm" />
		<tag k="ssr:stedsnr" v="990655" />
	</node>
	<node id="-433840" lat="60.370466671" lon="5.17476389597">
		<tag k="name" v="Søre Drotningsvik" />
		<tag k="old_name" v="Søra Drotningvik" />
		<tag k="place" v="farm" />
		<tag k="ssr:stedsnr" v="571780" />
	</node>
	<node id="-433837" lat="60.4185277806" lon="5.31093333969">
		<tag k="fixme" v="consider place=suburb, village or hamlet" />
		<tag k="name" v="Nyhavn" />
		<tag k="place" v="quarter" />
		<tag k="ssr:stedsnr" v="570977" />
	</node>
	<node id="-433828" lat="60.4099472183" lon="5.55075277308">
		<tag k="historic" v="shieling" />
		<tag k="name" v="Songstadsetra" />
		<tag k="place" v="locality" />
		<tag k="ssr:stedsnr" v="567914" />
	</node>
	<node id="-433827" lat="60.4080388857" lon="5.55392222889">
		<tag k="historic" v="shieling" />
		<tag k="name" v="Setra" />
		<tag k="place" v="locality" />
		<tag k="ssr:stedsnr" v="567912" />
	</node>
	<node id="-431778" lat="60.3572124319" lon="5.34063465375">
		<tag k="fixme" v="consider place=suburb, village or hamlet" />
		<tag k="name" v="Kristianborg" />
		<tag k="place" v="quarter" />
		<tag k="ssr:stedsnr" v="1072134" />
	</node>
	<node id="-433823" lat="60.2988416678" lon="5.31186110273">
		<tag k="name" v="Myrheim" />
		<tag k="place" v="farm" />
		<tag k="ssr:stedsnr" v="567724" />
	</node>
	<node id="-433821" lat="60.2700138848" lon="5.42123611711">
		<tag k="name" v="Kalandsneset" />
		<tag k="place" v="farm" />
		<tag k="ssr:stedsnr" v="567565" />
	</node>
	<node id="-431760" lat="60.3694308913" lon="5.3498959217">
		<tag k="name" v="Kronstadplassen" />
		<tag k="place" v="square" />
		<tag k="ssr:stedsnr" v="891130" />
	</node>
	<node id="-431759" lat="60.3622361115" lon="5.37368333405">
		<tag k="name" v="Landås" />
		<tag k="place" v="village" />
		<tag k="ssr:stedsnr" v="886197" />
	</node>
	<node id="-431758" lat="60.4783527773" lon="5.32132778115">
		<tag k="fixme" v="consider place=hamlet" />
		<tag k="name" v="Midtbygda" />
		<tag k="place" v="village" />
		<tag k="ssr:stedsnr" v="476333" />
	</node>
	<node id="-432066" lat="60.4624416675" lon="5.32640555707">
		<tag k="name" v="Sørebø" />
		<tag k="place" v="isolated_dwelling" />
		<tag k="ssr:stedsnr" v="25989" />
	</node>
	<node id="-431745" lat="60.4171138895" lon="5.31047778118">
		<tag k="name" v="Elsero" />
		<tag k="place" v="farm" />
		<tag k="ssr:stedsnr" v="392175" />
	</node>
	<node id="-431740" lat="60.3797388922" lon="5.21995278536">
		<tag k="name" v="Fredheim" />
		<tag k="place" v="farm" />
		<tag k="ssr:stedsnr" v="389789" />
	</node>
	<node id="-431739" lat="60.3840555597" lon="5.32809445005">
		<tag k="leisure" v="park" />
		<tag k="name" v="Nygårdsparken" />
		<tag k="ssr:stedsnr" v="389441" />
	</node>
	<node id="-431734" lat="60.4130583295" lon="5.52437221819">
		<tag k="historic" v="shieling" />
		<tag k="name" v="Holsetra" />
		<tag k="place" v="locality" />
		<tag k="ssr:stedsnr" v="385939" />
	</node>
	<node id="-433753" lat="60.3606305548" lon="5.18166111847">
		<tag k="name" v="Træet" />
		<tag k="place" v="farm" />
		<tag k="ssr:stedsnr" v="566521" />
	</node>
	<node id="-435129" lat="60.4031583357" lon="5.33277222155">
		<tag k="name" v="Breistølen" />
		<tag k="place" v="isolated_dwelling" />
		<tag k="ssr:stedsnr" v="878036" />
	</node>
	<node id="-431700" lat="60.3801111069" lon="5.51801666152">
		<tag k="name" v="Litle Bjørndalen" />
		<tag k="place" v="farm" />
		<tag k="ssr:stedsnr" v="384954" />
	</node>
	<node id="-431695" lat="60.4269027753" lon="5.47579722083">
		<tag k="name" v="Teigen" />
		<tag k="place" v="farm" />
		<tag k="ssr:stedsnr" v="384940" />
	</node>
	<node id="-433741" lat="60.5145944484" lon="5.34286389248">
		<tag k="name" v="Nedre Tuft" />
		<tag k="place" v="farm" />
		<tag k="ssr:stedsnr" v="566281" />
	</node>
	<node id="-433739" lat="60.5038972214" lon="5.34648333532">
		<tag k="name" v="Søre Tuft" />
		<tag k="place" v="farm" />
		<tag k="ssr:stedsnr" v="566277" />
	</node>
	<node id="-431690" lat="60.4524416634" lon="5.39381111659">
		<tag k="name" v="Veslebakken" />
		<tag k="place" v="farm" />
		<tag k="ssr:stedsnr" v="385170" />
	</node>
	<node id="-431678" lat="60.3859527756" lon="5.54747777225">
		<tag k="historic" v="shieling" />
		<tag k="name" v="Kråsetra" />
		<tag k="place" v="locality" />
		<tag k="ssr:stedsnr" v="384879" />
	</node>
	<node id="-433720" lat="60.4905972254" lon="5.26685555131">
		<tag k="name" v="Sørgard" />
		<tag k="place" v="farm" />
		<tag k="ssr:stedsnr" v="566187" />
	</node>
	<node id="-433719" lat="60.480902826" lon="5.28243097564">
		<tag k="fixme" v="consider place=hamlet" />
		<tag k="name" v="Søre Toppe" />
		<tag k="place" v="farm" />
		<tag k="ssr:stedsnr" v="566186" />
	</node>
	<node id="-431664" lat="60.2648361155" lon="5.34179167505">
		<tag k="name" v="Frøysvoll" />
		<tag k="place" v="farm" />
		<tag k="ssr:stedsnr" v="384833" />
	</node>
	<node id="-433699" lat="60.4037250035" lon="5.5004666672">
		<tag k="historic" v="shieling" />
		<tag k="name" v="Garnessetra" />
		<tag k="place" v="locality" />
		<tag k="ssr:stedsnr" v="566088" />
	</node>
	<node id="-433696" lat="60.3870527743" lon="5.25871388604">
		<tag k="name" v="Øvrebø" />
		<tag k="place" v="farm" />
		<tag k="ssr:stedsnr" v="566070" />
	</node>
	<node id="-433691" lat="60.3790750019" lon="5.25599165938">
		<tag k="name" v="Søre Banuren" />
		<tag k="place" v="farm" />
		<tag k="ssr:stedsnr" v="566052" />
	</node>
	<node id="-431640" lat="60.2744388883" lon="5.37382222579">
		<tag k="name" v="Ytre Hamre" />
		<tag k="place" v="farm" />
		<tag k="ssr:stedsnr" v="384668" />
	</node>
	<node id="-433679" lat="60.5108805515" lon="5.35896110756">
		<tag k="amenity" v="university" />
		<tag k="name" v="Åsane Folkehøgskule" />
		<tag k="ssr:stedsnr" v="552551" />
	</node>
	<node id="-433675" lat="60.277796675" lon="5.35045415808">
		<tag k="fixme" v="consider place=hamlet" />
		<tag k="name" v="Øvre Titlestad" />
		<tag k="place" v="farm" />
		<tag k="ssr:stedsnr" v="551932" />
	</node>
	<node id="-433672" lat="60.2644250038" lon="5.28852777213">
		<tag k="name" v="Øyjordsbakken" />
		<tag k="place" v="farm" />
		<tag k="ssr:stedsnr" v="551911" />
	</node>
	<node id="-433670" lat="60.3101611203" lon="5.39545397379">
		<tag k="fixme" v="consider place=hamlet" />
		<tag k="name" v="Myrdal" />
		<tag k="place" v="farm" />
		<tag k="ssr:stedsnr" v="551865" />
	</node>
	<node id="-433668" lat="60.3007804927" lon="5.37796962959">
		<tag k="fixme" v="consider place=hamlet" />
		<tag k="name" v="Kirkebirkeland" />
		<tag k="place" v="farm" />
		<tag k="ssr:stedsnr" v="551854" />
	</node>
	<node id="-433662" lat="60.3118389348" lon="5.25860538082">
		<tag k="fixme" v="consider place=hamlet" />
		<tag k="name" v="Dolvik" />
		<tag k="place" v="farm" />
		<tag k="ssr:stedsnr" v="551775" />
	</node>
	<node id="-433661" lat="60.323958928" lon="5.38991617786">
		<tag k="alt_name" v="Dyngeland, øvre" />
		<tag k="fixme" v="consider place=hamlet" />
		<tag k="name" v="Øvre Dyngeland" />
		<tag k="place" v="farm" />
		<tag k="ssr:stedsnr" v="551764" />
	</node>
	<node id="-433658" lat="60.376469441" lon="5.36138889802">
		<tag k="fixme" v="consider place=suburb, village or hamlet" />
		<tag k="name" v="Årstad" />
		<tag k="place" v="quarter" />
		<tag k="ssr:stedsnr" v="551743" />
	</node>
	<node id="-433655" lat="60.3616000034" lon="5.29681667038">
		<tag k="name" v="Fyllingsdalen" />
		<tag k="place" v="suburb" />
		<tag k="ssr:stedsnr" v="551702" />
	</node>
	<node id="-433654" lat="60.3932307856" lon="5.32449509551">
		<tag k="name" v="Bergen" />
		<tag k="place" v="town" />
		<tag k="ssr:stedsnr" v="551660" />
	</node>
	<node id="-431605" lat="60.3002420179" lon="5.43605502645">
		<tag k="historic" v="shieling" />
		<tag k="name" v="Riplestølen" />
		<tag k="place" v="locality" />
		<tag k="ssr:stedsnr" v="384326" />
	</node>
	<node id="-433652" lat="60.3786658148" lon="5.1980806643">
		<tag k="fixme" v="consider place=hamlet" />
		<tag k="name" v="Godvik" />
		<tag k="place" v="farm" />
		<tag k="ssr:stedsnr" v="551650" />
	</node>
	<node id="-433651" lat="60.3786583314" lon="5.34388054748">
		<tag k="fixme" v="consider place=suburb, village or hamlet" />
		<tag k="name" v="Møllendal" />
		<tag k="place" v="quarter" />
		<tag k="ssr:stedsnr" v="551644" />
	</node>
	<node id="-433649" lat="60.3726861138" lon="5.20145277485">
		<tag k="name" v="Nydalen" />
		<tag k="place" v="farm" />
		<tag k="ssr:stedsnr" v="551636" />
	</node>
	<node id="-433647" lat="60.3871500034" lon="5.43493888486">
		<tag k="name" v="Øyjorda" />
		<tag k="place" v="farm" />
		<tag k="ssr:stedsnr" v="551627" />
	</node>
	<node id="-433645" lat="60.3936361082" lon="5.33907500103">
		<tag k="name" v="Skansemyren" />
		<tag k="place" v="quarter" />
		<tag k="ssr:stedsnr" v="551621" />
	</node>
	<node id="-431596" lat="60.5147692835" lon="5.29190416104">
		<tag k="fixme" v="consider place=hamlet" />
		<tag k="name" v="Tellevik" />
		<tag k="place" v="farm" />
		<tag k="ssr:stedsnr" v="384290" />
	</node>
	<node id="-433643" lat="60.4177124698" lon="5.4708544185">
		<tag k="name" v="Indre Arna" />
		<tag k="place" v="village" />
		<tag k="ssr:stedsnr" v="551559" />
	</node>
	<node id="-431591" lat="60.5051444477" lon="5.34301667421">
		<tag k="name" v="Midtre Tuft" />
		<tag k="place" v="farm" />
		<tag k="ssr:stedsnr" v="384267" />
	</node>
	<node id="-433637" lat="60.3219222201" lon="5.50985278649">
		<tag k="name" v="Stølshaugen" />
		<tag k="place" v="farm" />
		<tag k="ssr:stedsnr" v="551245" />
	</node>
	<node id="-431582" lat="60.4000861103" lon="5.44407223074">
		<tag k="historic" v="shieling" />
		<tag k="name" v="Tangelandssetra" />
		<tag k="place" v="locality" />
		<tag k="ssr:stedsnr" v="384223" />
	</node>
	<node id="-431562" lat="60.4288410985" lon="5.62457655746">
		<tag k="fixme" v="consider place=hamlet" />
		<tag k="name" v="Trengereid" />
		<tag k="place" v="farm" />
		<tag k="ssr:stedsnr" v="384131" />
	</node>
	<node id="-433608" lat="60.4712249998" lon="5.32748889084">
		<tag k="name" v="Åsane" />
		<tag k="place" v="suburb" />
		<tag k="ssr:stedsnr" v="513840" />
	</node>
	<node id="-433606" lat="60.3819557322" lon="5.30941522767">
		<tag k="fixme" v="consider place=suburb, village or hamlet" />
		<tag k="name" v="Frydenbø" />
		<tag k="place" v="quarter" />
		<tag k="ssr:stedsnr" v="509298" />
	</node>
	<node id="-433605" lat="60.3276583376" lon="5.3366305511">
		<tag k="fixme" v="consider place=suburb, village or hamlet" />
		<tag k="name" v="Hopsbukta" />
		<tag k="place" v="quarter" />
		<tag k="ssr:stedsnr" v="509032" />
	</node>
	<node id="-433604" lat="60.3231888895" lon="5.34311388554">
		<tag k="fixme" v="consider place=suburb, village or hamlet" />
		<tag k="name" v="Kloppedal" />
		<tag k="place" v="quarter" />
		<tag k="ssr:stedsnr" v="509031" />
	</node>
	<node id="-431551" lat="60.4063361109" lon="5.32222221318">
		<tag k="name" v="Småmøllen" />
		<tag k="place" v="farm" />
		<tag k="ssr:stedsnr" v="384070" />
	</node>
	<node id="-433577" lat="60.3556249989" lon="5.45878056289">
		<tag k="name" v="Nygard" />
		<tag k="place" v="farm" />
		<tag k="ssr:stedsnr" v="506860" />
	</node>
	<node id="-431528" lat="60.3431666679" lon="5.29820277101">
		<tag k="fixme" v="consider place=suburb, village or hamlet" />
		<tag k="name" v="Ortuflaten" />
		<tag k="place" v="quarter" />
		<tag k="ssr:stedsnr" v="370821" />
	</node>
	<node id="-431527" lat="60.3441916704" lon="5.26209999538">
		<tag k="name" v="Allestadhaugen" />
		<tag k="place" v="neighbourhood" />
		<tag k="ssr:stedsnr" v="370820" />
	</node>
	<node id="-431526" lat="60.3405032811" lon="5.21641552046">
		<tag k="fixme" v="consider place=hamlet" />
		<tag k="name" v="Mathopen" />
		<tag k="place" v="farm" />
		<tag k="ssr:stedsnr" v="370817" />
	</node>
	<node id="-431523" lat="60.5162504224" lon="5.31480880397">
		<tag k="name" v="Hordvik" />
		<tag k="place" v="hamlet" />
		<tag k="ssr:stedsnr" v="370542" />
	</node>
	<node id="-431520" lat="60.5222413265" lon="5.31825319843">
		<tag k="fixme" v="consider place=hamlet" />
		<tag k="name" v="Steinstø" />
		<tag k="place" v="farm" />
		<tag k="ssr:stedsnr" v="370423" />
	</node>
	<node id="-431518" lat="60.2746755479" lon="5.42464898457">
		<tag k="fixme" v="consider place=hamlet" />
		<tag k="name" v="Austevoll" />
		<tag k="place" v="farm" />
		<tag k="ssr:stedsnr" v="369895" />
	</node>
	<node id="-431514" lat="60.2289876244" lon="5.36850166228">
		<tag k="fixme" v="consider place=hamlet" />
		<tag k="name" v="Sagstad" />
		<tag k="place" v="farm" />
		<tag k="ssr:stedsnr" v="369861" />
	</node>
	<node id="-431513" lat="60.3180356754" lon="5.27911902015">
		<tag k="fixme" v="consider place=hamlet" />
		<tag k="name" v="Nordeide" />
		<tag k="place" v="farm" />
		<tag k="ssr:stedsnr" v="369856" />
	</node>
	<node id="-431508" lat="60.2271888905" lon="5.29714722004">
		<tag k="fixme" v="consider place=hamlet" />
		<tag k="name" v="Krokeide" />
		<tag k="place" v="village" />
		<tag k="ssr:stedsnr" v="369802" />
	</node>
	<node id="-431507" lat="60.2895939848" lon="5.41014624183">
		<tag k="fixme" v="consider place=hamlet" />
		<tag k="name" v="Stigen" />
		<tag k="place" v="farm" />
		<tag k="ssr:stedsnr" v="369798" />
	</node>
	<node id="-431506" lat="60.2812824663" lon="5.21532143242">
		<tag k="fixme" v="consider place=hamlet" />
		<tag k="name" v="Sletten" />
		<tag k="place" v="farm" />
		<tag k="ssr:stedsnr" v="369795" />
	</node>
	<node id="-431504" lat="60.331688886" lon="5.32084166685">
		<tag k="name" v="Kråkenes" />
		<tag k="place" v="village" />
		<tag k="ssr:stedsnr" v="369754" />
	</node>
	<node id="-431503" lat="60.339291666" lon="5.3583722265">
		<tag k="fixme" v="consider place=suburb, village or hamlet" />
		<tag k="name" v="Nattland" />
		<tag k="place" v="quarter" />
		<tag k="ssr:stedsnr" v="369752" />
	</node>
	<node id="-433548" lat="60.3063527743" lon="5.27549444624">
		<tag k="name" v="Skarpsno" />
		<tag k="place" v="farm" />
		<tag k="ssr:stedsnr" v="506697" />
	</node>
	<node id="-431499" lat="60.3642750016" lon="5.19399165758">
		<tag k="name" v="Fristad" />
		<tag k="place" v="isolated_dwelling" />
		<tag k="ssr:stedsnr" v="369678" />
	</node>
	<node id="-431498" lat="60.354244442" lon="5.36840555988">
		<tag k="fixme" v="consider place=suburb, village or hamlet" />
		<tag k="name" v="Mannsverk" />
		<tag k="place" v="quarter" />
		<tag k="ssr:stedsnr" v="369672" />
	</node>
	<node id="-431497" lat="60.3542800393" lon="5.31178216106">
		<tag k="fixme" v="consider place=hamlet" />
		<tag k="name" v="Helgeplasset" />
		<tag k="place" v="farm" />
		<tag k="ssr:stedsnr" v="369670" />
	</node>
	<node id="-431496" lat="60.3551500011" lon="5.33509999977">
		<tag k="name" v="Grønnestølen" />
		<tag k="place" v="isolated_dwelling" />
		<tag k="ssr:stedsnr" v="369669" />
	</node>
	<node id="-431495" lat="60.3583500035" lon="5.46619444618">
		<tag k="name" v="Eikeli" />
		<tag k="place" v="farm" />
		<tag k="ssr:stedsnr" v="369664" />
	</node>
	<node id="-431494" lat="60.3613750043" lon="5.23262222365">
		<tag k="name" v="Bjørndalsøyra" />
		<tag k="place" v="isolated_dwelling" />
		<tag k="ssr:stedsnr" v="369652" />
	</node>
	<node id="-431492" lat="60.3613055515" lon="5.46294999611">
		<tag k="name" v="Eik" />
		<tag k="place" v="farm" />
		<tag k="ssr:stedsnr" v="369635" />
	</node>
	<node id="-433539" lat="60.2861305521" lon="5.31791666716">
		<tag k="name" v="Råtræet" />
		<tag k="place" v="farm" />
		<tag k="ssr:stedsnr" v="506627" />
	</node>
	<node id="-431488" lat="60.3747527758" lon="5.18728889745">
		<tag k="name" v="Breidvika" />
		<tag k="place" v="quarter" />
		<tag k="ssr:stedsnr" v="369607" />
	</node>
	<node id="-431482" lat="60.4720592309" lon="5.31064403937">
		<tag k="fixme" v="consider place=hamlet" />
		<tag k="name" v="Myrdal" />
		<tag k="place" v="farm" />
		<tag k="ssr:stedsnr" v="369387" />
	</node>
	<node id="-431480" lat="60.2909323438" lon="5.47723409419">
		<tag k="fixme" v="consider place=hamlet" />
		<tag k="name" v="Haugland" />
		<tag k="place" v="farm" />
		<tag k="ssr:stedsnr" v="369253" />
	</node>
	<node id="-431477" lat="60.3191012627" lon="5.47438400161">
		<tag k="fixme" v="consider place=hamlet" />
		<tag k="name" v="Frotveit" />
		<tag k="place" v="farm" />
		<tag k="ssr:stedsnr" v="369217" />
	</node>
	<node id="-431476" lat="60.3331190196" lon="5.52917506147">
		<tag k="fixme" v="consider place=hamlet" />
		<tag k="name" v="Hausdal" />
		<tag k="place" v="farm" />
		<tag k="ssr:stedsnr" v="369193" />
	</node>
	<node id="-431474" lat="60.3374073988" lon="5.49309164007">
		<tag k="fixme" v="consider place=hamlet" />
		<tag k="name" v="Bontveit" />
		<tag k="place" v="farm" />
		<tag k="ssr:stedsnr" v="369182" />
	</node>
	<node id="-431470" lat="60.4077761281" lon="5.48298712131">
		<tag k="fixme" v="consider place=hamlet" />
		<tag k="name" v="Arnatveit" />
		<tag k="place" v="farm" />
		<tag k="ssr:stedsnr" v="369056" />
	</node>
	<node id="-433517" lat="60.2827134253" lon="5.29730784638">
		<tag k="fixme" v="consider place=hamlet" />
		<tag k="name" v="Ytre Midtun" />
		<tag k="place" v="farm" />
		<tag k="ssr:stedsnr" v="506383" />
	</node>
	<node id="-431468" lat="60.2356027785" lon="5.29860555865">
		<tag k="name" v="Breivik" />
		<tag k="place" v="farm" />
		<tag k="ssr:stedsnr" v="368863" />
	</node>
	<node id="-431466" lat="60.3990361072" lon="5.30262499368">
		<tag k="fixme" v="consider natural=beach + surface=sand" />
		<tag k="leisure" v="swimming_area" />
		<tag k="name" v="Nordnes Park og Sjøbad" />
		<tag k="place" v="locality" />
		<tag k="ssr:stedsnr" v="361593" />
	</node>
	<node id="-431449" lat="60.3823777789" lon="5.50387499794">
		<tag k="historic" v="shieling" />
		<tag k="name" v="Setstølen" />
		<tag k="place" v="locality" />
		<tag k="ssr:stedsnr" v="324976" />
	</node>
	<node id="-433496" lat="60.3220361136" lon="5.44638055033">
		<tag k="name" v="Vollen" />
		<tag k="place" v="farm" />
		<tag k="ssr:stedsnr" v="506233" />
	</node>
	<node id="-431398" lat="60.3432510443" lon="5.2790236043">
		<tag k="fixme" v="consider place=hamlet" />
		<tag k="name" v="Vestre Sælen" />
		<tag k="place" v="farm" />
		<tag k="ssr:stedsnr" v="324594" />
	</node>
	<node id="-433440" lat="60.4360194407" lon="5.63052777208">
		<tag k="name" v="Skulstadstøa" />
		<tag k="place" v="locality" />
		<tag k="ssr:stedsnr" v="506003" />
	</node>
	<node id="-433422" lat="60.3934305601" lon="5.3371305623">
		<tag k="name" v="Martensgården" />
		<tag k="place" v="farm" />
		<tag k="ssr:stedsnr" v="505407" />
	</node>
	<node id="-433413" lat="60.4701333306" lon="5.27911666864">
		<tag k="name" v="Bystehøyen" />
		<tag k="place" v="farm" />
		<tag k="ssr:stedsnr" v="505311" />
	</node>
	<node id="-431312" lat="60.4146166691" lon="5.63668888243">
		<tag k="name" v="Dyven" />
		<tag k="place" v="farm" />
		<tag k="ssr:stedsnr" v="324001" />
	</node>
	<node id="-433400" lat="60.2778142486" lon="5.25048486349">
		<tag k="fixme" v="consider place=hamlet" />
		<tag k="name" v="Ådland" />
		<tag k="place" v="farm" />
		<tag k="ssr:stedsnr" v="491941" />
	</node>
	<node id="-433397" lat="60.2852174755" lon="5.40178143233">
		<tag k="fixme" v="consider place=hamlet" />
		<tag k="name" v="Nedre Sandven" />
		<tag k="place" v="farm" />
		<tag k="ssr:stedsnr" v="491922" />
	</node>
	<node id="-433395" lat="60.2730694405" lon="5.34865832901">
		<tag k="name" v="Solegarden" />
		<tag k="place" v="farm" />
		<tag k="ssr:stedsnr" v="491904" />
	</node>
	<node id="-433394" lat="60.319048287" lon="5.44343928231">
		<tag k="alt_name" v="Totland, øvre" />
		<tag k="name" v="Øvre Totland" />
		<tag k="place" v="farm" />
		<tag k="ssr:stedsnr" v="491877" />
	</node>
	<node id="-431345" lat="60.3132801169" lon="5.36917988021">
		<tag k="fixme" v="consider place=hamlet" />
		<tag k="name" v="Øvsttun" />
		<tag k="place" v="farm" />
		<tag k="ssr:stedsnr" v="324164" />
	</node>
	<node id="-433392" lat="60.2906888886" lon="5.43003888349">
		<tag k="name" v="Hedneli" />
		<tag k="place" v="farm" />
		<tag k="ssr:stedsnr" v="491809" />
	</node>
	<node id="-431338" lat="60.3390500014" lon="5.36628333686">
		<tag k="name" v="Nedre Nattland" />
		<tag k="place" v="farm" />
		<tag k="ssr:stedsnr" v="324140" />
	</node>
	<node id="-433385" lat="60.3247000044" lon="5.34147500365">
		<tag k="fixme" v="consider place=suburb, village or hamlet" />
		<tag k="name" v="Hop" />
		<tag k="place" v="quarter" />
		<tag k="ssr:stedsnr" v="491736" />
	</node>
	<node id="-433383" lat="60.4390503639" lon="5.34305117755">
		<tag k="name" v="Selvik" />
		<tag k="place" v="hamlet" />
		<tag k="ssr:stedsnr" v="491548" />
	</node>
	<node id="-433382" lat="60.4382722197" lon="5.28623056349">
		<tag k="fixme" v="consider place=suburb, village or hamlet" />
		<tag k="name" v="Lønborg" />
		<tag k="place" v="quarter" />
		<tag k="ssr:stedsnr" v="491546" />
	</node>
	<node id="-433381" lat="60.4516777744" lon="5.46186388736">
		<tag k="fixme" v="consider place=hamlet" />
		<tag k="name" v="Garnes" />
		<tag k="place" v="farm" />
		<tag k="ssr:stedsnr" v="491538" />
	</node>
	<node id="-433380" lat="60.4055980527" lon="5.45082598968">
		<tag k="name" v="Rødland" />
		<tag k="place" v="hamlet" />
		<tag k="ssr:stedsnr" v="491535" />
	</node>
	<node id="-433379" lat="60.4494611108" lon="5.32179723131">
		<tag k="fixme" v="consider place=suburb, village or hamlet" />
		<tag k="name" v="Åstveit" />
		<tag k="place" v="quarter" />
		<tag k="ssr:stedsnr" v="491536" />
	</node>
	<node id="-433375" lat="60.3838749998" lon="5.22849443629">
		<tag k="name" v="Nybø" />
		<tag k="place" v="farm" />
		<tag k="ssr:stedsnr" v="491643" />
	</node>
	<node id="-433374" lat="60.3815250004" lon="5.21018889503">
		<tag k="name" v="Bjørkelia" />
		<tag k="place" v="farm" />
		<tag k="ssr:stedsnr" v="491642" />
	</node>
	<node id="-433372" lat="60.4800029903" lon="5.32547976797">
		<tag k="name" v="Angeltveit" />
		<tag k="place" v="farm" />
		<tag k="ssr:stedsnr" v="491458" />
	</node>
	<node id="-433370" lat="60.4876694459" lon="5.33098056113">
		<tag k="name" v="Dalabygda" />
		<tag k="place" v="hamlet" />
		<tag k="ssr:stedsnr" v="491407" />
	</node>
	<node id="-433369" lat="60.4883131077" lon="5.28610940672">
		<tag k="fixme" v="consider place=hamlet" />
		<tag k="name" v="Hitland" />
		<tag k="place" v="farm" />
		<tag k="ssr:stedsnr" v="491402" />
	</node>
	<node id="-433367" lat="60.4043000044" lon="5.48184167145">
		<tag k="name" v="Eikestølen" />
		<tag k="place" v="farm" />
		<tag k="ssr:stedsnr" v="491086" />
	</node>
	<node id="-431317" lat="60.3704108544" lon="5.29963123177">
		<tag k="fixme" v="consider place=hamlet" />
		<tag k="name" v="Tjønnen" />
		<tag k="place" v="farm" />
		<tag k="ssr:stedsnr" v="324059" />
	</node>
	<node id="-433363" lat="60.2272555594" lon="5.37095833618">
		<tag k="name" v="Djupvik" />
		<tag k="place" v="farm" />
		<tag k="ssr:stedsnr" v="490865" />
	</node>
	<node id="-431314" lat="60.3788694409" lon="5.21553054791">
		<tag k="name" v="Søre Fagerdalen" />
		<tag k="place" v="farm" />
		<tag k="ssr:stedsnr" v="324032" />
	</node>
	<node id="-433360" lat="60.3104087795" lon="5.31843492465">
		<tag k="fixme" v="consider place=hamlet" />
		<tag k="name" v="Nordås" />
		<tag k="place" v="farm" />
		<tag k="ssr:stedsnr" v="490843" />
	</node>
	<node id="-433359" lat="60.2991049417" lon="5.39952662672">
		<tag k="fixme" v="consider place=hamlet" />
		<tag k="name" v="Ljosvoll" />
		<tag k="place" v="farm" />
		<tag k="ssr:stedsnr" v="490838" />
	</node>
	<node id="-433358" lat="60.2993031627" lon="5.44976644365">
		<tag k="fixme" v="consider place=hamlet" />
		<tag k="name" v="Gimmeland" />
		<tag k="place" v="farm" />
		<tag k="ssr:stedsnr" v="490833" />
	</node>
	<node id="-433357" lat="60.24648889" lon="5.36714444849">
		<tag k="name" v="Søre Sædalen" />
		<tag k="place" v="farm" />
		<tag k="ssr:stedsnr" v="490828" />
	</node>
	<node id="-433352" lat="60.2470888912" lon="5.31407222878">
		<tag k="name" v="Kippeveden" />
		<tag k="place" v="farm" />
		<tag k="ssr:stedsnr" v="490680" />
	</node>
	<node id="-433351" lat="60.4127611123" lon="5.44821388342">
		<tag k="alt_name" v="Rødland, nordre" />
		<tag k="name" v="Nordre Rødland" />
		<tag k="place" v="farm" />
		<tag k="ssr:stedsnr" v="490658" />
	</node>
	<node id="-433348" lat="60.4559500009" lon="5.31398333987">
		<tag k="fixme" v="consider place=suburb, village or hamlet" />
		<tag k="name" v="Åstveitskogen" />
		<tag k="place" v="quarter" />
		<tag k="ssr:stedsnr" v="490538" />
	</node>
	<node id="-433347" lat="60.4566861143" lon="5.33173055677">
		<tag k="name" v="Kolåsen" />
		<tag k="place" v="farm" />
		<tag k="ssr:stedsnr" v="490536" />
	</node>
	<node id="-433343" lat="60.4349613324" lon="5.64284960688">
		<tag k="fixme" v="multiple name tags, choose one and add the other to alt_name; consider place=hamlet" />
		<tag k="name" v="Skulstad;Nordre Skulstad" />
		<tag k="place" v="farm" />
		<tag k="ssr:stedsnr" v="490057" />
	</node>
	<node id="-434378" lat="60.2966404109" lon="5.34223879763">
		<tag k="fixme" v="consider place=hamlet" />
		<tag k="name" v="Apeltun" />
		<tag k="place" v="farm" />
		<tag k="ssr:stedsnr" v="733839" />
	</node>
	<node id="-435384" lat="60.3014745036" lon="5.31080503086">
		<tag k="name" v="Fagerheim" />
		<tag k="place" v="farm" />
		<tag k="ssr:stedsnr" v="974230" />
	</node>
	<node id="-435380" lat="60.4071027691" lon="5.64052035436">
		<tag k="name" v="Gullbotn" />
		<tag k="place" v="locality" />
		<tag k="ssr:stedsnr" v="957998" />
	</node>
	<node id="-434651" lat="60.3431039733" lon="5.18829717661">
		<tag k="fixme" v="consider place=hamlet" />
		<tag k="name" v="Myren" />
		<tag k="place" v="farm" />
		<tag k="ssr:stedsnr" v="795803" />
	</node>
	<node id="-433326" lat="60.3834388896" lon="5.32431389571">
		<tag k="alt_name" v="Møhlenspris" />
		<tag k="name" v="Møhlenpris" />
		<tag k="place" v="suburb" />
		<tag k="ssr:stedsnr" v="450420" />
	</node>
	<node id="-435368" lat="60.5064666626" lon="5.37050278627">
		<tag k="name" v="Fredsvoll" />
		<tag k="place" v="farm" />
		<tag k="ssr:stedsnr" v="954151" />
	</node>
	<node id="-431271" lat="60.2861304005" lon="5.3965351302">
		<tag k="fixme" v="consider place=hamlet" />
		<tag k="name" v="Øvre Sandven" />
		<tag k="place" v="farm" />
		<tag k="ssr:stedsnr" v="309933" />
	</node>
	<node id="-431270" lat="60.2766989967" lon="5.35434505815">
		<tag k="fixme" v="consider place=hamlet" />
		<tag k="name" v="Nedre Titlestad" />
		<tag k="place" v="farm" />
		<tag k="ssr:stedsnr" v="309931" />
	</node>
	<node id="-431265" lat="60.27303056" lon="5.38187500169">
		<tag k="name" v="Selsvik" />
		<tag k="place" v="farm" />
		<tag k="ssr:stedsnr" v="309907" />
	</node>
	<node id="-431260" lat="60.2875893832" lon="5.38898392473">
		<tag k="fixme" v="consider place=hamlet" />
		<tag k="name" v="Hatlestad" />
		<tag k="place" v="farm" />
		<tag k="ssr:stedsnr" v="309826" />
	</node>
	<node id="-431259" lat="60.2921116045" lon="5.37960731919">
		<tag k="fixme" v="consider place=hamlet" />
		<tag k="name" v="Valla" />
		<tag k="place" v="farm" />
		<tag k="ssr:stedsnr" v="309825" />
	</node>
	<node id="-431256" lat="60.3133945531" lon="5.24859786029">
		<tag k="fixme" v="consider place=hamlet" />
		<tag k="name" v="Hammarsland" />
		<tag k="place" v="farm" />
		<tag k="ssr:stedsnr" v="309760" />
	</node>
	<node id="-431255" lat="60.3889269422" lon="5.2901135273">
		<tag k="name" v="Laksevåg" />
		<tag k="place" v="suburb" />
		<tag k="ssr:stedsnr" v="309696" />
	</node>
	<node id="-431253" lat="60.3306028772" lon="5.35515650143">
		<tag k="fixme" v="consider place=hamlet" />
		<tag k="name" v="Tveiterås" />
		<tag k="place" v="farm" />
		<tag k="ssr:stedsnr" v="309740" />
	</node>
	<node id="-433300" lat="60.3485249969" lon="5.35545277951">
		<tag k="name" v="Slettebakken" />
		<tag k="place" v="farm" />
		<tag k="ssr:stedsnr" v="446587" />
	</node>
	<node id="-433298" lat="60.3506332861" lon="5.33133095368">
		<tag k="fixme" v="consider place=hamlet" />
		<tag k="name" v="Nygård" />
		<tag k="place" v="farm" />
		<tag k="ssr:stedsnr" v="446562" />
	</node>
	<node id="-433296" lat="60.4973583333" lon="5.34904722526">
		<tag k="name" v="Almås" />
		<tag k="place" v="farm" />
		<tag k="ssr:stedsnr" v="446348" />
	</node>
	<node id="-431247" lat="60.3069222251" lon="5.49143888138">
		<tag k="name" v="Øvre Fjelltveit" />
		<tag k="place" v="farm" />
		<tag k="ssr:stedsnr" v="309272" />
	</node>
	<node id="-431246" lat="60.3246398419" lon="5.51612628032">
		<tag k="fixme" v="consider place=hamlet" />
		<tag k="name" v="Samdal" />
		<tag k="place" v="farm" />
		<tag k="ssr:stedsnr" v="309266" />
	</node>
	<node id="-431245" lat="60.3190319473" lon="5.51089381645">
		<tag k="fixme" v="consider place=hamlet" />
		<tag k="name" v="Håland" />
		<tag k="place" v="farm" />
		<tag k="ssr:stedsnr" v="309265" />
	</node>
	<node id="-431244" lat="60.3786750589" lon="5.49667537037">
		<tag k="fixme" v="consider place=hamlet" />
		<tag k="name" v="Skåldal" />
		<tag k="place" v="farm" />
		<tag k="ssr:stedsnr" v="309143" />
	</node>
	<node id="-434370" lat="60.2819305561" lon="5.24710000611">
		<tag k="fixme" v="consider place=hamlet" />
		<tag k="name" v="Blomsterdalen" />
		<tag k="place" v="village" />
		<tag k="ssr:stedsnr" v="733791" />
	</node>
	<node id="-431237" lat="60.4556596535" lon="5.41255292519">
		<tag k="fixme" v="consider place=hamlet" />
		<tag k="name" v="Gaupås" />
		<tag k="place" v="farm" />
		<tag k="ssr:stedsnr" v="309541" />
	</node>
	<node id="-431236" lat="60.5149805548" lon="5.34339999947">
		<tag k="alt_name" v="Tuft, nedre" />
		<tag k="name" v="Nedre Tuft" />
		<tag k="place" v="farm" />
		<tag k="ssr:stedsnr" v="309512" />
	</node>
	<node id="-431235" lat="60.5044361109" lon="5.34395278426">
		<tag k="alt_name" v="Tuft, midtre" />
		<tag k="name" v="Midtre Tuft" />
		<tag k="place" v="farm" />
		<tag k="ssr:stedsnr" v="309506" />
	</node>
	<node id="-431233" lat="60.2554305546" lon="5.36232499614">
		<tag k="historic" v="shieling" />
		<tag k="name" v="Fanasæter" />
		<tag k="place" v="locality" />
		<tag k="ssr:stedsnr" v="308994" />
	</node>
	<node id="-431232" lat="60.2678284825" lon="5.3678481565">
		<tag k="name" v="Ånes" />
		<tag k="place" v="farm" />
		<tag k="ssr:stedsnr" v="308888" />
	</node>
	<node id="-431230" lat="60.3058749992" lon="5.27642776947">
		<tag k="name" v="Skarpsno" />
		<tag k="place" v="farm" />
		<tag k="ssr:stedsnr" v="308840" />
	</node>
	<node id="-431223" lat="60.3552327093" lon="5.2903655778">
		<tag k="fixme" v="consider place=hamlet" />
		<tag k="name" v="Nedre Fyllingen" />
		<tag k="place" v="farm" />
		<tag k="ssr:stedsnr" v="308664" />
	</node>
	<node id="-431217" lat="60.4714064222" lon="5.39069373726">
		<tag k="fixme" v="consider place=hamlet" />
		<tag k="name" v="Hetlebakka" />
		<tag k="place" v="farm" />
		<tag k="ssr:stedsnr" v="308496" />
	</node>
	<node id="-431213" lat="60.3693861092" lon="5.55939167581">
		<tag k="name" v="Redningshytta" />
		<tag k="place" v="isolated_dwelling" />
		<tag k="ssr:stedsnr" v="308141" />
	</node>
	<node id="-431210" lat="60.4194577602" lon="5.53015518316">
		<tag k="fixme" v="consider place=hamlet" />
		<tag k="name" v="Holo" />
		<tag k="place" v="farm" />
		<tag k="ssr:stedsnr" v="308051" />
	</node>
	<node id="-431209" lat="60.4232970772" lon="5.54520078013">
		<tag k="fixme" v="consider place=hamlet" />
		<tag k="name" v="Ytre Songstad" />
		<tag k="place" v="farm" />
		<tag k="ssr:stedsnr" v="308052" />
	</node>
	<node id="-431208" lat="60.422243843" lon="5.51676737643">
		<tag k="fixme" v="consider place=hamlet" />
		<tag k="name" v="Ytre Takkvam" />
		<tag k="place" v="farm" />
		<tag k="ssr:stedsnr" v="308050" />
	</node>
	<node id="-431207" lat="60.4282880384" lon="5.47210340403">
		<tag k="fixme" v="consider place=hamlet" />
		<tag k="name" v="Seim" />
		<tag k="place" v="farm" />
		<tag k="ssr:stedsnr" v="308042" />
	</node>
	<node id="-433254" lat="60.3874583375" lon="5.54691110935">
		<tag k="historic" v="shieling" />
		<tag k="name" v="Brattlandsetra" />
		<tag k="place" v="locality" />
		<tag k="ssr:stedsnr" v="445907" />
	</node>
	<node id="-434705" lat="60.3132305594" lon="5.51674444925">
		<tag k="building" v="industrial" />
		<tag k="industrial" v="factory" />
		<tag k="name" v="Gamlesaga" />
		<tag k="ssr:stedsnr" v="809246" />
	</node>
	<node id="-431204" lat="60.4832083305" lon="5.40711389573">
		<tag k="name" v="Nygård" />
		<tag k="place" v="farm" />
		<tag k="ssr:stedsnr" v="299853" />
	</node>
	<node id="-431190" lat="60.2634222209" lon="5.34590277855">
		<tag k="name" v="Fana" />
		<tag k="place" v="suburb" />
		<tag k="ssr:stedsnr" v="279165" />
	</node>
	<node id="-431189" lat="60.4011527817" lon="5.32069722684">
		<tag k="landuse" v="military" />
		<tag k="name" v="Sverresborg" />
		<tag k="ssr:stedsnr" v="271039" />
	</node>
	<node id="-435284" lat="60.3639277763" lon="5.18093889589">
		<tag k="name" v="Stykket" />
		<tag k="place" v="farm" />
		<tag k="ssr:stedsnr" v="931538" />
	</node>
	<node id="-431187" lat="60.4698499973" lon="5.27504444829">
		<tag k="fixme" v="consider place=suburb, village or hamlet" />
		<tag k="name" v="Morvik" />
		<tag k="place" v="quarter" />
		<tag k="ssr:stedsnr" v="269548" />
	</node>
	<node id="-433212" lat="60.4296027797" lon="5.29199167173">
		<tag k="name" v="Nyland" />
		<tag k="place" v="farm" />
		<tag k="ssr:stedsnr" v="445372" />
	</node>
	<node id="-435251" lat="60.3238250034" lon="5.39259445021">
		<tag k="name" v="Nedre Dyngeland" />
		<tag k="place" v="farm" />
		<tag k="ssr:stedsnr" v="931167" />
	</node>
	<node id="-435240" lat="60.4533361079" lon="5.40589445336">
		<tag k="name" v="Gaupås" />
		<tag k="place" v="farm" />
		<tag k="ssr:stedsnr" v="931109" />
	</node>
	<node id="-435238" lat="60.2549999995" lon="5.43689723053">
		<tag k="name" v="Haugen" />
		<tag k="place" v="farm" />
		<tag k="ssr:stedsnr" v="931101" />
	</node>
	<node id="-434364" lat="60.3927214469" lon="5.23576612329">
		<tag k="fixme" v="consider place=hamlet" />
		<tag k="name" v="Skålevik" />
		<tag k="place" v="farm" />
		<tag k="ssr:stedsnr" v="733655" />
	</node>
	<node id="-433169" lat="60.2690944462" lon="5.2352916675">
		<tag k="name" v="Stølane" />
		<tag k="place" v="farm" />
		<tag k="ssr:stedsnr" v="445131" />
	</node>
	<node id="-435211" lat="60.4938777785" lon="5.26317499326">
		<tag k="name" v="Nordgard" />
		<tag k="place" v="farm" />
		<tag k="ssr:stedsnr" v="930355" />
	</node>
	<node id="-433156" lat="60.3748250003" lon="5.26111666507">
		<tag k="name" v="Lyngbødalen" />
		<tag k="place" v="farm" />
		<tag k="ssr:stedsnr" v="445079" />
	</node>
	<node id="-434713" lat="60.5078805601" lon="5.29403055797">
		<tag k="historic" v="shieling" />
		<tag k="name" v="Nysetra" />
		<tag k="place" v="locality" />
		<tag k="ssr:stedsnr" v="809288" />
	</node>
	<node id="-435192" lat="60.4028527779" lon="5.38672500243">
		<tag k="name" v="Tarlebøtræet" />
		<tag k="place" v="farm" />
		<tag k="ssr:stedsnr" v="931261" />
	</node>
	<node id="-435179" lat="60.3140749974" lon="5.44842776957">
		<tag k="name" v="Krekjebærhaugen" />
		<tag k="place" v="farm" />
		<tag k="ssr:stedsnr" v="931203" />
	</node>
	<node id="-433129" lat="60.2718130407" lon="5.38671509203">
		<tag k="fixme" v="consider place=hamlet" />
		<tag k="name" v="Sele" />
		<tag k="place" v="farm" />
		<tag k="ssr:stedsnr" v="430900" />
	</node>
	<node id="-435176" lat="60.3209473332" lon="5.38558670068">
		<tag k="fixme" v="consider place=hamlet" />
		<tag k="name" v="Milleshaug" />
		<tag k="place" v="farm" />
		<tag k="ssr:stedsnr" v="916874" />
	</node>
	<node id="-435175" lat="60.3391749987" lon="5.31823610524">
		<tag k="name" v="Haneborg" />
		<tag k="place" v="isolated_dwelling" />
		<tag k="ssr:stedsnr" v="916826" />
	</node>
	<node id="-435173" lat="60.3286222253" lon="5.20643888213">
		<tag k="name" v="Noatun" />
		<tag k="place" v="isolated_dwelling" />
		<tag k="ssr:stedsnr" v="916806" />
	</node>
	<node id="-435172" lat="60.3346555533" lon="5.20334444591">
		<tag k="name" v="Hilleren" />
		<tag k="place" v="village" />
		<tag k="ssr:stedsnr" v="916805" />
	</node>
	<node id="-435171" lat="60.3451999985" lon="5.17875000125">
		<tag k="fixme" v="consider place=suburb, village or hamlet" />
		<tag k="name" v="Håkonshella" />
		<tag k="place" v="quarter" />
		<tag k="ssr:stedsnr" v="916746" />
	</node>
	<node id="-433122" lat="60.25367778" lon="5.33325834132">
		<tag k="name" v="Nybø" />
		<tag k="place" v="farm" />
		<tag k="ssr:stedsnr" v="430871" />
	</node>
	<node id="-433121" lat="60.3136333294" lon="5.43344722672">
		<tag k="alt_name" v="Totland, nedre" />
		<tag k="name" v="Nedre Totland" />
		<tag k="place" v="farm" />
		<tag k="ssr:stedsnr" v="430867" />
	</node>
	<node id="-433120" lat="60.3106043603" lon="5.28866085267">
		<tag k="fixme" v="consider place=hamlet" />
		<tag k="name" v="Haukeland" />
		<tag k="place" v="farm" />
		<tag k="ssr:stedsnr" v="430859" />
	</node>
	<node id="-433119" lat="60.3162722241" lon="5.35438055665">
		<tag k="name" v="Nesttun" />
		<tag k="place" v="village" />
		<tag k="ssr:stedsnr" v="430851" />
	</node>
	<node id="-433117" lat="60.3076694403" lon="5.28423611516">
		<tag k="name" v="Smoghaugen" />
		<tag k="place" v="farm" />
		<tag k="ssr:stedsnr" v="430841" />
	</node>
	<node id="-433116" lat="60.2908111141" lon="5.30958055401">
		<tag k="name" v="Vestre Rå" />
		<tag k="place" v="farm" />
		<tag k="ssr:stedsnr" v="430819" />
	</node>
	<node id="-433115" lat="60.2866878437" lon="5.28679197206">
		<tag k="fixme" v="consider place=hamlet" />
		<tag k="name" v="Skage" />
		<tag k="place" v="farm" />
		<tag k="ssr:stedsnr" v="430801" />
	</node>
	<node id="-435161" lat="60.3871861149" lon="5.34542777085">
		<tag k="fixme" v="consider place=suburb, village or hamlet" />
		<tag k="name" v="Kalfaret" />
		<tag k="place" v="quarter" />
		<tag k="ssr:stedsnr" v="916658" />
	</node>
	<node id="-433111" lat="60.3549722238" lon="5.29031111509">
		<tag k="name" v="Lauvåsen" />
		<tag k="place" v="farm" />
		<tag k="ssr:stedsnr" v="430707" />
	</node>
	<node id="-433110" lat="60.3527027809" lon="5.28690832424">
		<tag k="name" v="Sælensminde" />
		<tag k="place" v="farm" />
		<tag k="ssr:stedsnr" v="430702" />
	</node>
	<node id="-435157" lat="60.5033638916" lon="5.34813610986">
		<tag k="alt_name" v="Tuft, s" />
		<tag k="name" v="Søre Tuft" />
		<tag k="place" v="farm" />
		<tag k="ssr:stedsnr" v="916491" />
	</node>
	<node id="-435156" lat="60.4901138927" lon="5.37403056317">
		<tag k="name" v="Myrsæter" />
		<tag k="place" v="farm" />
		<tag k="ssr:stedsnr" v="916450" />
	</node>
	<node id="-433107" lat="60.3616027769" lon="5.35498610323">
		<tag k="name" v="Minde" />
		<tag k="place" v="village" />
		<tag k="ssr:stedsnr" v="430690" />
	</node>
	<node id="-435154" lat="60.4870389363" lon="5.32819153128">
		<tag k="fixme" v="consider place=hamlet" />
		<tag k="name" v="Melingen" />
		<tag k="place" v="farm" />
		<tag k="ssr:stedsnr" v="916415" />
	</node>
	<node id="-433104" lat="60.4266999963" lon="5.36582500534">
		<tag k="name" v="Træet" />
		<tag k="place" v="farm" />
		<tag k="ssr:stedsnr" v="430585" />
	</node>
	<node id="-433102" lat="60.4275448101" lon="5.36240380827">
		<tag k="fixme" v="consider place=hamlet" />
		<tag k="name" v="Jordal" />
		<tag k="place" v="farm" />
		<tag k="ssr:stedsnr" v="430579" />
	</node>
	<node id="-435149" lat="60.4256036379" lon="5.65272531953">
		<tag k="name" v="Kråni" />
		<tag k="place" v="farm" />
		<tag k="ssr:stedsnr" v="916071" />
	</node>
	<node id="-433098" lat="60.4606527744" lon="5.30826110847">
		<tag k="fixme" v="consider place=suburb, village or hamlet" />
		<tag k="name" v="Ulsetåsen" />
		<tag k="place" v="quarter" />
		<tag k="ssr:stedsnr" v="430550" />
	</node>
	<node id="-433097" lat="60.4462083368" lon="5.41025000219">
		<tag k="name" v="Dalen" />
		<tag k="place" v="farm" />
		<tag k="ssr:stedsnr" v="430523" />
	</node>
	<node id="-435143" lat="60.2521055595" lon="5.2645694486">
		<tag k="name" v="Milde" />
		<tag k="place" v="hamlet" />
		<tag k="ssr:stedsnr" v="915666" />
	</node>
	<node id="-433094" lat="60.4862388868" lon="5.40380277191">
		<tag k="alt_name" v="Breidstein" />
		<tag k="fixme" v="consider place=suburb, village or hamlet" />
		<tag k="name" v="Breistein" />
		<tag k="place" v="quarter" />
		<tag k="ssr:stedsnr" v="430408" />
	</node>
	<node id="-433093" lat="60.4814577008" lon="5.38255803576">
		<tag k="fixme" v="consider place=hamlet" />
		<tag k="name" v="Brurås" />
		<tag k="place" v="farm" />
		<tag k="ssr:stedsnr" v="430391" />
	</node>
	<node id="-433092" lat="60.4958500012" lon="5.38945000777">
		<tag k="name" v="Solvang" />
		<tag k="place" v="isolated_dwelling" />
		<tag k="ssr:stedsnr" v="430385" />
	</node>
	<node id="-435135" lat="60.422626062" lon="5.53819798246">
		<tag k="fixme" v="consider place=hamlet" />
		<tag k="name" v="Herland" />
		<tag k="place" v="farm" />
		<tag k="ssr:stedsnr" v="915061" />
	</node>
	<node id="-433086" lat="60.3592881702" lon="5.47480063609">
		<tag k="fixme" v="consider place=hamlet" />
		<tag k="name" v="Li" />
		<tag k="place" v="farm" />
		<tag k="ssr:stedsnr" v="430176" />
	</node>
	<node id="-433081" lat="60.4445777746" lon="5.47188056213">
		<tag k="name" v="Garnes" />
		<tag k="place" v="village" />
		<tag k="ssr:stedsnr" v="430015" />
	</node>
	<node id="-433076" lat="60.3831972948" lon="5.30453056713">
		<tag k="fixme" v="consider place=suburb, village or hamlet" />
		<tag k="name" v="Damsgård" />
		<tag k="place" v="quarter" />
		<tag k="ssr:stedsnr" v="430624" />
	</node>
	<node id="-433073" lat="60.2957805555" lon="5.21289444294">
		<tag k="name" v="Flesland" />
		<tag k="place" v="hamlet" />
		<tag k="ssr:stedsnr" v="267016" />
	</node>
	<node id="-433072" lat="60.3365250015" lon="5.32247221684">
		<tag k="fixme" v="consider place=suburb, village or hamlet" />
		<tag k="name" v="Kråkenes" />
		<tag k="place" v="quarter" />
		<tag k="ssr:stedsnr" v="267004" />
	</node>
	<node id="-435104" lat="60.4635111075" lon="5.39456667545">
		<tag k="historic" v="shieling" />
		<tag k="name" v="Gamlesetra" />
		<tag k="place" v="locality" />
		<tag k="ssr:stedsnr" v="870928" />
	</node>
	<node id="-433015" lat="60.3151333343" lon="5.339880553">
		<tag k="name" v="Vaulardal" />
		<tag k="place" v="farm" />
		<tag k="ssr:stedsnr" v="263727" />
	</node>
	<node id="-432867" lat="60.4296631656" lon="5.60326568288">
		<tag k="fixme" v="consider place=hamlet" />
		<tag k="name" v="Risnes" />
		<tag k="place" v="farm" />
		<tag k="ssr:stedsnr" v="248039" />
	</node>
	<node id="-431250" lat="60.4859777785" lon="5.40445834019">
		<tag k="name" v="Eikhaugen" />
		<tag k="place" v="farm" />
		<tag k="ssr:stedsnr" v="309462" />
	</node>
	<node id="-435027" lat="60.4781407935" lon="5.32729823885">
		<tag k="fixme" v="consider place=hamlet" />
		<tag k="name" v="Angeltveit" />
		<tag k="place" v="farm" />
		<tag k="ssr:stedsnr" v="870337" />
	</node>
	<node id="-435016" lat="60.5054067055" lon="5.30284281623">
		<tag k="fixme" v="consider place=hamlet" />
		<tag k="name" v="Sætre" />
		<tag k="place" v="farm" />
		<tag k="ssr:stedsnr" v="870284" />
	</node>
	<node id="-435002" lat="60.3954055515" lon="5.38876389004">
		<tag k="name" v="Hardbakkaplasset" />
		<tag k="place" v="farm" />
		<tag k="ssr:stedsnr" v="870219" />
	</node>
	<node id="-434987" lat="60.3150730345" lon="5.37538617622">
		<tag k="fixme" v="consider place=hamlet" />
		<tag k="name" v="Ulsmåg" />
		<tag k="place" v="farm" />
		<tag k="ssr:stedsnr" v="870169" />
	</node>
	<node id="-432929" lat="60.3725138875" lon="5.21504166537">
		<tag k="name" v="Vestremarka" />
		<tag k="place" v="farm" />
		<tag k="ssr:stedsnr" v="263050" />
	</node>
	<node id="-435332" lat="60.3552972238" lon="5.4209416621">
		<tag k="name" v="Gamla Kolhuset" />
		<tag k="place" v="locality" />
		<tag k="ssr:stedsnr" v="931882" />
	</node>
	<node id="-432914" lat="60.5076749967" lon="5.34267499339">
		<tag k="alt_name" v="Tuft, nordre" />
		<tag k="name" v="Nordre Tuft" />
		<tag k="place" v="farm" />
		<tag k="ssr:stedsnr" v="249488" />
	</node>
	<node id="-432912" lat="60.2762638848" lon="5.23489999891">
		<tag k="name" v="Espeland" />
		<tag k="place" v="hamlet" />
		<tag k="ssr:stedsnr" v="248953" />
	</node>
	<node id="-432911" lat="60.2825511766" lon="5.37987728017">
		<tag k="alt_name" v="Hamre, indre" />
		<tag k="fixme" v="consider place=hamlet" />
		<tag k="name" v="Indre Hamre" />
		<tag k="place" v="farm" />
		<tag k="ssr:stedsnr" v="248944" />
	</node>
	<node id="-432910" lat="60.2666305576" lon="5.23220555133">
		<tag k="name" v="Myntevik" />
		<tag k="place" v="farm" />
		<tag k="ssr:stedsnr" v="248923" />
	</node>
	<node id="-434952" lat="60.4448555573" lon="5.31497778566">
		<tag k="name" v="Bjørnsløypet" />
		<tag k="place" v="farm" />
		<tag k="ssr:stedsnr" v="869402" />
	</node>
	<node id="-432903" lat="60.298491665" lon="5.31539443792">
		<tag k="name" v="Folldalen" />
		<tag k="place" v="farm" />
		<tag k="ssr:stedsnr" v="248844" />
	</node>
	<node id="-432902" lat="60.2820097288" lon="5.26343186423">
		<tag k="fixme" v="consider place=hamlet" />
		<tag k="name" v="Nedre Birkeland" />
		<tag k="place" v="farm" />
		<tag k="ssr:stedsnr" v="248832" />
	</node>
	<node id="-432898" lat="60.377161114" lon="5.34399444375">
		<tag k="name" v="Kronstad" />
		<tag k="place" v="village" />
		<tag k="ssr:stedsnr" v="248760" />
	</node>
	<node id="-432889" lat="60.3810701049" lon="5.19935350811">
		<tag k="fixme" v="consider place=hamlet" />
		<tag k="name" v="Leirvika" />
		<tag k="place" v="farm" />
		<tag k="ssr:stedsnr" v="248652" />
	</node>
	<node id="-434934" lat="60.5043055599" lon="5.36157778223">
		<tag k="name" v="Solbakken" />
		<tag k="place" v="farm" />
		<tag k="ssr:stedsnr" v="856520" />
	</node>
	<node id="-432885" lat="60.434652024" lon="5.32748478276">
		<tag k="fixme" v="consider place=hamlet" />
		<tag k="name" v="Øvre-Eide" />
		<tag k="place" v="farm" />
		<tag k="ssr:stedsnr" v="248619" />
	</node>
	<node id="-434932" lat="60.2868794736" lon="5.43514473459">
		<tag k="fixme" v="consider place=hamlet" />
		<tag k="name" v="Almeland" />
		<tag k="place" v="farm" />
		<tag k="ssr:stedsnr" v="855923" />
	</node>
	<node id="-434931" lat="60.2708611086" lon="5.23285555468">
		<tag k="name" v="Strandli" />
		<tag k="place" v="farm" />
		<tag k="ssr:stedsnr" v="855908" />
	</node>
	<node id="-432878" lat="60.4832083305" lon="5.40711389573">
		<tag k="name" v="Midtteigen" />
		<tag k="place" v="farm" />
		<tag k="ssr:stedsnr" v="248390" />
	</node>
	<node id="-434925" lat="60.2870466793" lon="5.26637713152">
		<tag k="fixme" v="consider place=hamlet" />
		<tag k="name" v="Øvre Birkeland" />
		<tag k="place" v="farm" />
		<tag k="ssr:stedsnr" v="855842" />
	</node>
	<node id="-434924" lat="60.3456527798" lon="5.28036388278">
		<tag k="name" v="Sælen" />
		<tag k="place" v="village" />
		<tag k="ssr:stedsnr" v="855839" />
	</node>
	<node id="-434923" lat="60.3354655634" lon="5.25129020101">
		<tag k="fixme" v="consider place=suburb, village or hamlet" />
		<tag k="name" v="Bjørge" />
		<tag k="place" v="quarter" />
		<tag k="ssr:stedsnr" v="855823" />
	</node>
	<node id="-434920" lat="60.3178078824" lon="5.23800032733">
		<tag k="fixme" v="consider place=hamlet" />
		<tag k="name" v="Hope" />
		<tag k="place" v="farm" />
		<tag k="ssr:stedsnr" v="855790" />
	</node>
	<node id="-434917" lat="60.3701842552" lon="5.30425522895">
		<tag k="name" v="Samdalen" />
		<tag k="place" v="farm" />
		<tag k="ssr:stedsnr" v="855767" />
	</node>
	<node id="-434915" lat="60.3600459158" lon="5.17656943767">
		<tag k="fixme" v="consider place=hamlet" />
		<tag k="name" v="Kongshavn" />
		<tag k="place" v="farm" />
		<tag k="ssr:stedsnr" v="855743" />
	</node>
	<node id="-434914" lat="60.3598028265" lon="5.44283924701">
		<tag k="fixme" v="consider place=hamlet" />
		<tag k="name" v="Nedre Brattland" />
		<tag k="place" v="farm" />
		<tag k="ssr:stedsnr" v="855716" />
	</node>
	<node id="-434913" lat="60.3636559563" lon="5.44269922066">
		<tag k="fixme" v="consider place=hamlet" />
		<tag k="name" v="Øvre Brattland" />
		<tag k="place" v="farm" />
		<tag k="ssr:stedsnr" v="855713" />
	</node>
	<node id="-432863" lat="60.2423184533" lon="5.30718723807">
		<tag k="fixme" v="consider place=hamlet" />
		<tag k="name" v="Rød" />
		<tag k="place" v="farm" />
		<tag k="ssr:stedsnr" v="247654" />
	</node>
	<node id="-434908" lat="60.3880070279" lon="5.22819941112">
		<tag k="fixme" v="consider place=suburb, village or hamlet" />
		<tag k="name" v="Kjøkkelvik" />
		<tag k="place" v="quarter" />
		<tag k="ssr:stedsnr" v="855651" />
	</node>
	<node id="-434905" lat="60.4418111077" lon="5.41956388857">
		<tag k="name" v="Solbakken" />
		<tag k="place" v="farm" />
		<tag k="ssr:stedsnr" v="855608" />
	</node>
	<node id="-434904" lat="60.4281388912" lon="5.36806667305">
		<tag k="name" v="Stallane" />
		<tag k="place" v="farm" />
		<tag k="ssr:stedsnr" v="855571" />
	</node>
	<node id="-434902" lat="60.4463944459" lon="5.4001805619">
		<tag k="name" v="Botn" />
		<tag k="place" v="farm" />
		<tag k="ssr:stedsnr" v="855518" />
	</node>
	<node id="-434901" lat="60.4487060783" lon="5.40404141423">
		<tag k="fixme" v="consider place=hamlet" />
		<tag k="name" v="Haugland" />
		<tag k="place" v="farm" />
		<tag k="ssr:stedsnr" v="855520" />
	</node>
	<node id="-434900" lat="60.440466666" lon="5.323249994">
		<tag k="fixme" v="consider place=suburb, village or hamlet" />
		<tag k="name" v="Ervik" />
		<tag k="place" v="quarter" />
		<tag k="ssr:stedsnr" v="855511" />
	</node>
	<node id="-434896" lat="60.4922010904" lon="5.34855199697">
		<tag k="fixme" v="consider place=hamlet" />
		<tag k="name" v="Sæterstøl" />
		<tag k="place" v="farm" />
		<tag k="ssr:stedsnr" v="855397" />
	</node>
	<node id="-432847" lat="60.4252944411" lon="5.65109166068">
		<tag k="name" v="Skulstad" />
		<tag k="place" v="farm" />
		<tag k="ssr:stedsnr" v="208964" />
	</node>
	<node id="-434429" lat="60.3745833344" lon="5.31136944356">
		<tag k="name" v="Stranden" />
		<tag k="place" v="farm" />
		<tag k="ssr:stedsnr" v="748071" />
	</node>
	<node id="-434853" lat="60.4012305601" lon="5.32560833975">
		<tag k="name" v="Bergenhus" />
		<tag k="place" v="suburb" />
		<tag k="ssr:stedsnr" v="825111" />
	</node>
	<node id="-432802" lat="60.3681916707" lon="5.30466389554">
		<tag k="name" v="Iversland" />
		<tag k="place" v="farm" />
		<tag k="ssr:stedsnr" v="203700" />
	</node>
	<node id="-434849" lat="60.3338916655" lon="5.21278889803">
		<tag k="fixme" v="consider place=suburb, village or hamlet" />
		<tag k="name" v="Mathopen" />
		<tag k="place" v="quarter" />
		<tag k="ssr:stedsnr" v="813089" />
	</node>
	<node id="-434841" lat="60.4169777803" lon="5.53771389506">
		<tag k="historic" v="shieling" />
		<tag k="name" v="Setra" />
		<tag k="place" v="locality" />
		<tag k="ssr:stedsnr" v="810901" />
	</node>
	<node id="-434967" lat="60.3813194471" lon="5.25780278016">
		<tag k="name" v="Nordre Banuren" />
		<tag k="place" v="farm" />
		<tag k="ssr:stedsnr" v="870065" />
	</node>
	<node id="-434824" lat="60.3417472258" lon="5.24900834121">
		<tag k="name" v="Sæleidet" />
		<tag k="place" v="farm" />
		<tag k="ssr:stedsnr" v="810579" />
	</node>
	<node id="-434819" lat="60.4023333315" lon="5.42737499486">
		<tag k="historic" v="shieling" />
		<tag k="name" v="Borgasetra" />
		<tag k="place" v="locality" />
		<tag k="ssr:stedsnr" v="810225" />
	</node>
	<node id="-435304" lat="60.4372416656" lon="5.344011104">
		<tag k="name" v="Nedre Selvik" />
		<tag k="place" v="farm" />
		<tag k="ssr:stedsnr" v="931734" />
	</node>
	<node id="-432746" lat="60.3572027788" lon="5.46829999098">
		<tag k="name" v="Fagerdal" />
		<tag k="place" v="farm" />
		<tag k="ssr:stedsnr" v="202877" />
	</node>
	<node id="-434774" lat="60.3553111133" lon="5.5203638852">
		<tag k="historic" v="shieling" />
		<tag k="name" v="Dyrdalssetra" />
		<tag k="place" v="locality" />
		<tag k="ssr:stedsnr" v="809848" />
	</node>
	<node id="-432702" lat="60.3469194481" lon="5.37973888619">
		<tag k="name" v="Sædalsplasset" />
		<tag k="place" v="farm" />
		<tag k="ssr:stedsnr" v="202110" />
	</node>
	<node id="-434749" lat="60.341213892" lon="5.24391388311">
		<tag k="name" v="Stordalen" />
		<tag k="place" v="farm" />
		<tag k="ssr:stedsnr" v="809624" />
	</node>
	<node id="-434289" lat="60.3555722258" lon="5.45525000081">
		<tag k="name" v="Myrvang" />
		<tag k="place" v="farm" />
		<tag k="ssr:stedsnr" v="688858" />
	</node>
	<node id="-431881" lat="60.2836657873" lon="5.30788850665">
		<tag k="fixme" v="consider place=hamlet" />
		<tag k="name" v="Skeie" />
		<tag k="place" v="farm" />
		<tag k="ssr:stedsnr" v="5915" />
	</node>
	<node id="-432675" lat="60.2728341192" lon="5.33084901371">
		<tag k="fixme" v="consider place=hamlet" />
		<tag k="name" v="Stend" />
		<tag k="place" v="farm" />
		<tag k="ssr:stedsnr" v="188922" />
	</node>
	<node id="-432673" lat="60.3214249969" lon="5.44705832605">
		<tag k="name" v="Ruken" />
		<tag k="place" v="farm" />
		<tag k="ssr:stedsnr" v="188889" />
	</node>
	<node id="-432669" lat="60.4319777795" lon="5.42342777542">
		<tag k="historic" v="shieling" />
		<tag k="name" v="Kvamsstølen" />
		<tag k="place" v="locality" />
		<tag k="ssr:stedsnr" v="188657" />
	</node>
	<node id="-432665" lat="60.4891636382" lon="5.35978777162">
		<tag k="fixme" v="consider place=hamlet" />
		<tag k="name" v="Haukås" />
		<tag k="place" v="farm" />
		<tag k="ssr:stedsnr" v="188473" />
	</node>
	<node id="-432658" lat="60.2765666642" lon="5.376336116">
		<tag k="alt_name" v="Hamre, ytre" />
		<tag k="fixme" v="consider place=hamlet" />
		<tag k="name" v="Ytre Hamre" />
		<tag k="place" v="farm" />
		<tag k="ssr:stedsnr" v="187911" />
	</node>
	<node id="-432657" lat="60.2954627891" lon="5.35995917418">
		<tag k="fixme" v="consider place=hamlet" />
		<tag k="name" v="Smørås" />
		<tag k="place" v="farm" />
		<tag k="ssr:stedsnr" v="187799" />
	</node>
	<node id="-432652" lat="60.3598666639" lon="5.18449167036">
		<tag k="name" v="Bakkastølen" />
		<tag k="place" v="isolated_dwelling" />
		<tag k="ssr:stedsnr" v="187709" />
	</node>
	<node id="-432651" lat="60.3606166655" lon="5.19429444066">
		<tag k="name" v="Sanddalen" />
		<tag k="place" v="isolated_dwelling" />
		<tag k="ssr:stedsnr" v="187708" />
	</node>
	<node id="-432650" lat="60.3515499994" lon="5.24244444497">
		<tag k="name" v="Straumsmyra" />
		<tag k="place" v="farm" />
		<tag k="ssr:stedsnr" v="187687" />
	</node>
	<node id="-432649" lat="60.3525027816" lon="5.30698889167">
		<tag k="name" v="Søregarden" />
		<tag k="place" v="farm" />
		<tag k="ssr:stedsnr" v="187682" />
	</node>
	<node id="-432648" lat="60.3505638892" lon="5.29830556329">
		<tag k="name" v="Dalen" />
		<tag k="place" v="neighbourhood" />
		<tag k="ssr:stedsnr" v="187680" />
	</node>
	<node id="-432646" lat="60.3086339435" lon="5.41034866951">
		<tag k="fixme" v="consider place=hamlet" />
		<tag k="name" v="Fjellbirkeland" />
		<tag k="place" v="farm" />
		<tag k="ssr:stedsnr" v="187846" />
	</node>
	<node id="-432641" lat="60.4023555556" lon="5.32141111298">
		<tag k="name" v="Skuteviken" />
		<tag k="place" v="suburb" />
		<tag k="ssr:stedsnr" v="187630" />
	</node>
	<node id="-432640" lat="60.4036361098" lon="5.45039999579">
		<tag k="alt_name" v="Rødland, s;Rødland" />
		<tag k="name" v="Søre Rødland" />
		<tag k="place" v="farm" />
		<tag k="ssr:stedsnr" v="187617" />
	</node>
	<node id="-432638" lat="60.3812305552" lon="5.35537500788">
		<tag k="fixme" v="consider place=suburb, village or hamlet" />
		<tag k="name" v="Fløen" />
		<tag k="place" v="quarter" />
		<tag k="ssr:stedsnr" v="187602" />
	</node>
	<node id="-434685" lat="60.3356944411" lon="5.36814723047">
		<tag k="name" v="Roligheten" />
		<tag k="place" v="farm" />
		<tag k="ssr:stedsnr" v="809144" />
	</node>
	<node id="-432633" lat="60.4757322005" lon="5.31787201786">
		<tag k="fixme" v="consider place=hamlet" />
		<tag k="name" v="Ulset" />
		<tag k="place" v="farm" />
		<tag k="ssr:stedsnr" v="187392" />
	</node>
	<node id="-434666" lat="60.3768314138" lon="5.19417628514">
		<tag k="fixme" v="consider place=hamlet" />
		<tag k="name" v="Stølen" />
		<tag k="place" v="farm" />
		<tag k="ssr:stedsnr" v="809053" />
	</node>
	<node id="-432617" lat="60.4365199398" lon="5.48692168352">
		<tag k="name" v="Kyrkjevollen" />
		<tag k="place" v="farm" />
		<tag k="ssr:stedsnr" v="187015" />
	</node>
	<node id="-432615" lat="60.2796861106" lon="5.31384167572">
		<tag k="name" v="Søre Skeie" />
		<tag k="place" v="farm" />
		<tag k="ssr:stedsnr" v="182086" />
	</node>
	<node id="-434657" lat="60.2827111143" lon="5.23222222195">
		<tag k="name" v="Myrbø" />
		<tag k="place" v="farm" />
		<tag k="ssr:stedsnr" v="809025" />
	</node>
	<node id="-432606" lat="60.3093749994" lon="5.37036666015">
		<tag k="fixme" v="consider place=suburb, village or hamlet" />
		<tag k="name" v="Elvenes" />
		<tag k="place" v="quarter" />
		<tag k="ssr:stedsnr" v="157173" />
	</node>
	<node id="-432603" lat="60.3956166633" lon="5.30895277489">
		<tag k="building" v="industrial" />
		<tag k="industrial" v="factory" />
		<tag k="name" v="Georgernes" />
		<tag k="ssr:stedsnr" v="149044" />
	</node>
	<node id="-434650" lat="60.3466500016" lon="5.38373610621">
		<tag k="alt_name" v="Sædal, øvre" />
		<tag k="name" v="Øvre Sædal" />
		<tag k="place" v="farm" />
		<tag k="ssr:stedsnr" v="795784" />
	</node>
	<node id="-432601" lat="60.4860222225" lon="5.38646944783">
		<tag k="leisure" v="pitch" />
		<tag k="name" v="Bergen Travpark" />
		<tag k="ssr:stedsnr" v="146509" />
	</node>
	<node id="-434647" lat="60.3767638858" lon="5.50971666923">
		<tag k="name" v="Søre Bjørndalen" />
		<tag k="place" v="farm" />
		<tag k="ssr:stedsnr" v="795164" />
	</node>
	<node id="-432597" lat="60.4335068089" lon="5.49187091568">
		<tag k="fixme" v="consider place=hamlet" />
		<tag k="name" v="Litle Tunes" />
		<tag k="place" v="farm" />
		<tag k="ssr:stedsnr" v="142986" />
	</node>
	<node id="-434644" lat="60.2796100879" lon="5.41240448093">
		<tag k="fixme" v="consider place=hamlet" />
		<tag k="name" v="Smådal" />
		<tag k="place" v="farm" />
		<tag k="ssr:stedsnr" v="794915" />
	</node>
	<node id="-434643" lat="60.2748300376" lon="5.41950962463">
		<tag k="fixme" v="consider place=hamlet" />
		<tag k="name" v="Kaland" />
		<tag k="place" v="farm" />
		<tag k="ssr:stedsnr" v="794914" />
	</node>
	<node id="-434639" lat="60.3193277816" lon="5.37475000164">
		<tag k="fixme" v="consider place=suburb, village or hamlet" />
		<tag k="name" v="Ulsmåg" />
		<tag k="place" v="quarter" />
		<tag k="ssr:stedsnr" v="794854" />
	</node>
	<node id="-434638" lat="60.3195832289" lon="5.32942764384">
		<tag k="alt_name" v="Trollhaugen" />
		<tag k="name" v="Troldhaugen" />
		<tag k="place" v="isolated_dwelling" />
		<tag k="ssr:stedsnr" v="794851" />
	</node>
	<node id="-434634" lat="60.2884252957" lon="5.35307289111">
		<tag k="fixme" v="consider place=hamlet" />
		<tag k="name" v="Nøttveit" />
		<tag k="place" v="farm" />
		<tag k="ssr:stedsnr" v="794815" />
	</node>
	<node id="-434632" lat="60.3299777262" lon="5.20810847657">
		<tag k="fixme" v="consider place=hamlet" />
		<tag k="name" v="Skaret" />
		<tag k="place" v="farm" />
		<tag k="ssr:stedsnr" v="794790" />
	</node>
	<node id="-432583" lat="60.4091666642" lon="5.53000555776">
		<tag k="historic" v="shieling" />
		<tag k="name" v="Dalsetra" />
		<tag k="place" v="locality" />
		<tag k="ssr:stedsnr" v="142944" />
	</node>
	<node id="-434630" lat="60.326608335" lon="5.30236389708">
		<tag k="fixme" v="consider place=hamlet" />
		<tag k="name" v="Bønes" />
		<tag k="place" v="village" />
		<tag k="ssr:stedsnr" v="794771" />
	</node>
	<node id="-434629" lat="60.3705805577" lon="5.19865000882">
		<tag k="name" v="Nyborg" />
		<tag k="place" v="farm" />
		<tag k="ssr:stedsnr" v="794719" />
	</node>
	<node id="-434626" lat="60.3771606182" lon="5.27097448769">
		<tag k="name" v="Lyngbø" />
		<tag k="place" v="village" />
		<tag k="ssr:stedsnr" v="794656" />
	</node>
	<node id="-434625" lat="60.3798694448" lon="5.31293333997">
		<tag k="name" v="Gyldenpris" />
		<tag k="place" v="village" />
		<tag k="ssr:stedsnr" v="794655" />
	</node>
	<node id="-434624" lat="60.37946111" lon="5.23200277883">
		<tag k="fixme" v="multiple name tags, choose one and add the other to alt_name" />
		<tag k="name" v="Nygård;Plasset" />
		<tag k="place" v="farm" />
		<tag k="ssr:stedsnr" v="794649" />
	</node>
	<node id="-434623" lat="60.3880388872" lon="5.44105000351">
		<tag k="name" v="Leitet" />
		<tag k="place" v="farm" />
		<tag k="ssr:stedsnr" v="794637" />
	</node>
	<node id="-434622" lat="60.3913255842" lon="5.43729478404">
		<tag k="fixme" v="consider place=hamlet" />
		<tag k="name" v="Borgo" />
		<tag k="place" v="farm" />
		<tag k="ssr:stedsnr" v="794634" />
	</node>
	<node id="-434619" lat="60.419169242" lon="5.46050093921">
		<tag k="fixme" v="consider place=hamlet" />
		<tag k="name" v="Mjeldheim" />
		<tag k="place" v="farm" />
		<tag k="ssr:stedsnr" v="794574" />
	</node>
	<node id="-434617" lat="60.4587055532" lon="5.43908054783">
		<tag k="name" v="Ytre Arna" />
		<tag k="place" v="village" />
		<tag k="ssr:stedsnr" v="794553" />
	</node>
	<node id="-434615" lat="60.4541138922" lon="5.39853611834">
		<tag k="name" v="Kalsås" />
		<tag k="place" v="farm" />
		<tag k="ssr:stedsnr" v="794495" />
	</node>
	<node id="-434614" lat="60.452949999" lon="5.36808333493">
		<tag k="alt_name" v="Hjortland, nordre" />
		<tag k="name" v="Nordre Hjortland" />
		<tag k="place" v="farm" />
		<tag k="ssr:stedsnr" v="794491" />
	</node>
	<node id="-434611" lat="60.4977411962" lon="5.38143046064">
		<tag k="name" v="Vestlandsheimen" />
		<tag k="place" v="locality" />
		<tag k="ssr:stedsnr" v="794376" />
	</node>
	<node id="-432559" lat="60.3598249987" lon="5.29472777553">
		<tag k="name" v="Traudalen" />
		<tag k="place" v="farm" />
		<tag k="ssr:stedsnr" v="142656" />
	</node>
	<node id="-432556" lat="60.2571333362" lon="5.35158610947">
		<tag k="name" v="Rambergstunet" />
		<tag k="place" v="farm" />
		<tag k="ssr:stedsnr" v="142769" />
	</node>
	<node id="-434591" lat="60.492141664" lon="5.37578610552">
		<tag k="name" v="Vollaplassen" />
		<tag k="place" v="isolated_dwelling" />
		<tag k="ssr:stedsnr" v="772166" />
	</node>
	<node id="-434589" lat="60.3750972232" lon="5.19394999483">
		<tag k="name" v="Stølen" />
		<tag k="place" v="farm" />
		<tag k="ssr:stedsnr" v="753781" />
	</node>
	<node id="-432536" lat="60.3192665689" lon="5.4435519855">
		<tag k="name" v="Øvre Totland" />
		<tag k="place" v="farm" />
		<tag k="ssr:stedsnr" v="142227" />
	</node>
	<node id="-432534" lat="60.3972999983" lon="5.39064999538">
		<tag k="name" v="Hardbakka" />
		<tag k="place" v="farm" />
		<tag k="ssr:stedsnr" v="142219" />
	</node>
	<node id="-434571" lat="60.2973027738" lon="5.31123333966">
		<tag k="name" v="Råstølen" />
		<tag k="place" v="farm" />
		<tag k="ssr:stedsnr" v="749766" />
	</node>
	<node id="-434562" lat="60.3656249997" lon="5.25227778015">
		<tag k="name" v="Nordre Tennebekk" />
		<tag k="place" v="farm" />
		<tag k="ssr:stedsnr" v="749701" />
	</node>
	<node id="-434557" lat="60.3559861126" lon="5.31117778017">
		<tag k="name" v="Utgård" />
		<tag k="place" v="farm" />
		<tag k="ssr:stedsnr" v="749569" />
	</node>
	<node id="-432507" lat="60.2272777781" lon="5.29430000067">
		<tag k="fixme" v="consider place=hamlet" />
		<tag k="name" v="Krokeide" />
		<tag k="place" v="farm" />
		<tag k="ssr:stedsnr" v="141933" />
	</node>
	<node id="-435169" lat="60.354793112" lon="5.44744757601">
		<tag k="fixme" v="consider place=hamlet" />
		<tag k="name" v="Søylen" />
		<tag k="place" v="farm" />
		<tag k="ssr:stedsnr" v="916736" />
	</node>
	<node id="-432509" lat="60.4262305589" lon="5.44015000063">
		<tag k="historic" v="shieling" />
		<tag k="name" v="Austrestølane" />
		<tag k="place" v="locality" />
		<tag k="ssr:stedsnr" v="141943" />
	</node>
	<node id="-432481" lat="60.4677196209" lon="5.42493987946">
		<tag k="fixme" v="consider place=hamlet" />
		<tag k="name" v="Breisteinslia" />
		<tag k="place" v="farm" />
		<tag k="ssr:stedsnr" v="141773" />
	</node>
	<node id="-432477" lat="60.2822026087" lon="5.38069553069">
		<tag k="name" v="Indre Hamre" />
		<tag k="place" v="farm" />
		<tag k="ssr:stedsnr" v="141641" />
	</node>
	<node id="-432476" lat="60.3395444477" lon="5.27687500359">
		<tag k="name" v="Sælehaugen" />
		<tag k="place" v="farm" />
		<tag k="ssr:stedsnr" v="141630" />
	</node>
	<node id="-432474" lat="60.3421944464" lon="5.31006110749">
		<tag k="name" v="Gullstølen" />
		<tag k="place" v="farm" />
		<tag k="ssr:stedsnr" v="141536" />
	</node>
	<node id="-432465" lat="60.3385380916" lon="5.20868687077">
		<tag k="fixme" v="consider place=hamlet" />
		<tag k="name" v="Sætre" />
		<tag k="place" v="farm" />
		<tag k="ssr:stedsnr" v="141383" />
	</node>
	<node id="-432451" lat="60.4888222192" lon="5.27957778631">
		<tag k="name" v="Træet" />
		<tag k="place" v="farm" />
		<tag k="ssr:stedsnr" v="141345" />
	</node>
	<node id="-434911" lat="60.3999555582" lon="5.31845555316">
		<tag k="landuse" v="military" />
		<tag k="name" v="Bergenhus" />
		<tag k="ssr:stedsnr" v="855702" />
	</node>
	<node id="-434485" lat="60.4376138917" lon="5.34681945304">
		<tag k="name" v="Øvre Selvik" />
		<tag k="place" v="farm" />
		<tag k="ssr:stedsnr" v="748798" />
	</node>
	<node id="-432424" lat="60.5089361104" lon="5.27473054966">
		<tag k="name" v="Slettebakken" />
		<tag k="place" v="farm" />
		<tag k="ssr:stedsnr" v="141285" />
	</node>
	<node id="-432400" lat="60.2698999962" lon="5.30313889156">
		<tag k="name" v="Gråmyra" />
		<tag k="place" v="farm" />
		<tag k="ssr:stedsnr" v="127919" />
	</node>
	<node id="-432397" lat="60.3509027814" lon="5.44343055883">
		<tag k="name" v="Søyleplasset" />
		<tag k="place" v="farm" />
		<tag k="ssr:stedsnr" v="127809" />
	</node>
	<node id="-432396" lat="60.4302638924" lon="5.30032500625">
		<tag k="name" v="Øyjorden" />
		<tag k="place" v="isolated_dwelling" />
		<tag k="ssr:stedsnr" v="127648" />
	</node>
	<node id="-432394" lat="60.4919694429" lon="5.39616945152">
		<tag k="name" v="Vollen" />
		<tag k="place" v="farm" />
		<tag k="ssr:stedsnr" v="127455" />
	</node>
	<node id="-432392" lat="60.4763361118" lon="5.35573056266">
		<tag k="name" v="Vågsbotn" />
		<tag k="place" v="farm" />
		<tag k="ssr:stedsnr" v="127439" />
	</node>
	<node id="-432391" lat="60.4879147492" lon="5.33278388793">
		<tag k="fixme" v="consider place=hamlet" />
		<tag k="name" v="Espelen" />
		<tag k="place" v="farm" />
		<tag k="ssr:stedsnr" v="127409" />
	</node>
	<node id="-432389" lat="60.3837083294" lon="5.52412221378">
		<tag k="name" v="Minne" />
		<tag k="place" v="farm" />
		<tag k="ssr:stedsnr" v="127118" />
	</node>
	<node id="-432388" lat="60.2489694455" lon="5.3675083362">
		<tag k="name" v="Nordre Sædalen" />
		<tag k="place" v="farm" />
		<tag k="ssr:stedsnr" v="126995" />
	</node>
	<node id="-432387" lat="60.266672226" lon="5.4191499944">
		<tag k="name" v="Framneset" />
		<tag k="place" v="farm" />
		<tag k="ssr:stedsnr" v="126882" />
	</node>
	<node id="-432386" lat="60.2588277769" lon="5.30376111054">
		<tag k="name" v="Ervik" />
		<tag k="place" v="farm" />
		<tag k="ssr:stedsnr" v="126879" />
	</node>
	<node id="-432382" lat="60.2755566287" lon="5.26907459252">
		<tag k="fixme" v="consider place=hamlet" />
		<tag k="name" v="Vågsbøen" />
		<tag k="place" v="farm" />
		<tag k="ssr:stedsnr" v="126914" />
	</node>
	<node id="-432381" lat="60.3673388844" lon="5.37291665924">
		<tag k="fixme" v="consider place=suburb, village or hamlet" />
		<tag k="name" v="Lægdene" />
		<tag k="place" v="quarter" />
		<tag k="ssr:stedsnr" v="126718" />
	</node>
	<node id="-432380" lat="60.3740305509" lon="5.35935554715">
		<tag k="alt_name" v="Haukeland sjukehus;Haukeland sykehus" />
		<tag k="amenity" v="hospital" />
		<tag k="name" v="Haukeland universitetssjukehus" />
		<tag k="old_name" v="Haukeland Universitetssykehus" />
		<tag k="ssr:stedsnr" v="126716" />
	</node>
	<node id="-432379" lat="60.3617365686" lon="5.45182430115">
		<tag k="name" v="Haukeland" />
		<tag k="place" v="farm" />
		<tag k="ssr:stedsnr" v="126713" />
	</node>
	<node id="-432374" lat="60.2860437933" lon="5.23247114846">
		<tag k="fixme" v="consider place=hamlet" />
		<tag k="name" v="Lønningen" />
		<tag k="place" v="farm" />
		<tag k="ssr:stedsnr" v="126792" />
	</node>
	<node id="-432373" lat="60.3196051595" lon="5.2297858233">
		<tag k="fixme" v="consider place=hamlet" />
		<tag k="name" v="Grimstad" />
		<tag k="place" v="farm" />
		<tag k="ssr:stedsnr" v="126753" />
	</node>
	<node id="-432372" lat="60.3466222926" lon="5.33244466626">
		<tag k="fixme" v="consider place=hamlet" />
		<tag k="name" v="Fjøsanger" />
		<tag k="place" v="farm" />
		<tag k="ssr:stedsnr" v="126684" />
	</node>
	<node id="-432369" lat="60.3996611119" lon="5.38755555765">
		<tag k="name" v="Tarlebø" />
		<tag k="place" v="isolated_dwelling" />
		<tag k="ssr:stedsnr" v="126658" />
	</node>
	<node id="-432368" lat="60.4637863511" lon="5.29320361711">
		<tag k="fixme" v="consider place=hamlet" />
		<tag k="name" v="Haukedal" />
		<tag k="place" v="farm" />
		<tag k="ssr:stedsnr" v="126549" />
	</node>
	<node id="-432367" lat="60.4653111111" lon="5.35988611932">
		<tag k="fixme" v="consider place=suburb, village or hamlet" />
		<tag k="name" v="Flaktveit" />
		<tag k="place" v="quarter" />
		<tag k="ssr:stedsnr" v="126529" />
	</node>
	<node id="-432366" lat="60.3761861152" lon="5.30643333017">
		<tag k="fixme" v="consider place=suburb, village or hamlet" />
		<tag k="name" v="Melkeplassen" />
		<tag k="place" v="quarter" />
		<tag k="ssr:stedsnr" v="126631" />
	</node>
	<node id="-432365" lat="60.3750749965" lon="5.23040277336">
		<tag k="name" v="Myra" />
		<tag k="place" v="farm" />
		<tag k="ssr:stedsnr" v="126629" />
	</node>
	<node id="-432364" lat="60.3779472192" lon="5.23315834097">
		<tag k="name" v="Krabbedalen" />
		<tag k="place" v="farm" />
		<tag k="ssr:stedsnr" v="126624" />
	</node>
	<node id="-432363" lat="60.4378186904" lon="5.45223853008">
		<tag k="alt_name" v="Arna, ytre" />
		<tag k="fixme" v="consider place=hamlet" />
		<tag k="name" v="Ytre Arna" />
		<tag k="place" v="farm" />
		<tag k="ssr:stedsnr" v="126601" />
	</node>
	<node id="-434410" lat="60.2734490375" lon="5.29305218618">
		<tag k="fixme" v="consider place=hamlet" />
		<tag k="name" v="Grimseid" />
		<tag k="place" v="farm" />
		<tag k="ssr:stedsnr" v="734909" />
	</node>
	<node id="-432360" lat="60.490495536" lon="5.26804432078">
		<tag k="fixme" v="consider place=hamlet" />
		<tag k="name" v="Mjølkeråen" />
		<tag k="place" v="farm" />
		<tag k="ssr:stedsnr" v="126391" />
	</node>
	<node id="-434406" lat="60.3472477112" lon="5.41168589714">
		<tag k="fixme" v="consider place=hamlet" />
		<tag k="name" v="Grimen" />
		<tag k="place" v="farm" />
		<tag k="ssr:stedsnr" v="734781" />
	</node>
	<node id="-434405" lat="60.3244111094" lon="5.26873611872">
		<tag k="name" v="Straume" />
		<tag k="place" v="village" />
		<tag k="ssr:stedsnr" v="734776" />
	</node>
	<node id="-432355" lat="60.3685972263" lon="5.49735833372">
		<tag k="name" v="Ramsdalen" />
		<tag k="place" v="farm" />
		<tag k="ssr:stedsnr" v="126157" />
	</node>
	<node id="-434402" lat="60.3309472225" lon="5.29866388711">
		<tag k="fixme" v="consider place=suburb, village or hamlet" />
		<tag k="name" v="Bønesberget" />
		<tag k="place" v="quarter" />
		<tag k="ssr:stedsnr" v="734764" />
	</node>
	<node id="-434401" lat="60.3934888878" lon="5.42494443736">
		<tag k="name" v="Borgatræet" />
		<tag k="place" v="farm" />
		<tag k="ssr:stedsnr" v="734665" />
	</node>
	<node id="-434400" lat="60.434518267" lon="5.42524419133">
		<tag k="name" v="Kvamme" />
		<tag k="place" v="hamlet" />
		<tag k="ssr:stedsnr" v="734651" />
	</node>
	<node id="-432351" lat="60.4320083374" lon="5.63898888015">
		<tag k="name" v="Nedste Holene" />
		<tag k="place" v="farm" />
		<tag k="ssr:stedsnr" v="126037" />
	</node>
	<node id="-434398" lat="60.4643277734" lon="5.34158888438">
		<tag k="name" v="Li" />
		<tag k="place" v="farm" />
		<tag k="ssr:stedsnr" v="734570" />
	</node>
	<node id="-434396" lat="60.5058749983" lon="5.26738889498">
		<tag k="name" v="Salhus" />
		<tag k="place" v="village" />
		<tag k="ssr:stedsnr" v="734511" />
	</node>
	<node id="-434394" lat="60.3030230464" lon="5.49262081058">
		<tag k="fixme" v="consider place=hamlet" />
		<tag k="name" v="Fjelltveit" />
		<tag k="old_name" v="Tveiten, nedre;Tveiten" />
		<tag k="place" v="farm" />
		<tag k="ssr:stedsnr" v="734267" />
	</node>
	<node id="-432338" lat="60.4336166708" lon="5.45227777494">
		<tag k="name" v="Ytre Arna" />
		<tag k="place" v="farm" />
		<tag k="ssr:stedsnr" v="104993" />
	</node>
	<node id="-434384" lat="60.2606778229" lon="5.43833568188">
		<tag k="fixme" v="consider place=hamlet" />
		<tag k="name" v="Bahus" />
		<tag k="place" v="farm" />
		<tag k="ssr:stedsnr" v="733999" />
	</node>
	<node id="-434382" lat="60.2676666712" lon="5.43011389277">
		<tag k="name" v="Kalandseidet" />
		<tag k="place" v="farm" />
		<tag k="ssr:stedsnr" v="733882" />
	</node>
	<node id="-434381" lat="60.2573583364" lon="5.33901389641">
		<tag k="alt_name" v="Fanavollen" />
		<tag k="name" v="Fanastølen" />
		<tag k="place" v="farm" />
		<tag k="ssr:stedsnr" v="733873" />
	</node>
	<node id="-432330" lat="60.3132555584" lon="5.26939444842">
		<tag k="fixme" v="consider place=suburb, village or hamlet" />
		<tag k="name" v="Søreidgrenda" />
		<tag k="place" v="quarter" />
		<tag k="ssr:stedsnr" v="85020" />
	</node>
	<node id="-434377" lat="60.3044202305" lon="5.36819918258">
		<tag k="fixme" v="consider place=hamlet" />
		<tag k="name" v="Litletveiten" />
		<tag k="place" v="farm" />
		<tag k="ssr:stedsnr" v="733837" />
	</node>
	<node id="-432322" lat="60.2552749956" lon="5.33284165865">
		<tag k="name" v="Nybø" />
		<tag k="place" v="farm" />
		<tag k="ssr:stedsnr" v="82740" />
	</node>
	<node id="-434369" lat="60.3768361121" lon="5.45409444229">
		<tag k="name" v="Lono" />
		<tag k="place" v="farm" />
		<tag k="ssr:stedsnr" v="733730" />
	</node>
	<node id="-434366" lat="60.3483940821" lon="5.28434542066">
		<tag k="fixme" v="consider place=suburb, village or hamlet" />
		<tag k="name" v="Sælemyra" />
		<tag k="place" v="quarter" />
		<tag k="ssr:stedsnr" v="733689" />
	</node>
	<node id="-432316" lat="60.3230111088" lon="5.39138056336">
		<tag k="name" v="Nedrebø" />
		<tag k="place" v="farm" />
		<tag k="ssr:stedsnr" v="82135" />
	</node>
	<node id="-434361" lat="60.4237999961" lon="5.29531944379">
		<tag k="fixme" v="consider place=suburb, village or hamlet" />
		<tag k="name" v="Biskopshavn" />
		<tag k="place" v="quarter" />
		<tag k="ssr:stedsnr" v="733584" />
	</node>
	<node id="-434359" lat="60.4645999991" lon="5.32912499564">
		<tag k="name" v="Åsen" />
		<tag k="place" v="farm" />
		<tag k="ssr:stedsnr" v="733524" />
	</node>
	<node id="-434358" lat="60.4639347417" lon="5.38148195907">
		<tag k="fixme" v="consider place=hamlet" />
		<tag k="name" v="Blinde" />
		<tag k="place" v="farm" />
		<tag k="ssr:stedsnr" v="733521" />
	</node>
	<node id="-434356" lat="60.4671955594" lon="5.35015461435">
		<tag k="fixme" v="consider place=hamlet" />
		<tag k="name" v="Li" />
		<tag k="place" v="farm" />
		<tag k="ssr:stedsnr" v="733504" />
	</node>
	<node id="-434355" lat="60.4457833319" lon="5.31256110299">
		<tag k="name" v="Vikedalen" />
		<tag k="place" v="farm" />
		<tag k="ssr:stedsnr" v="733492" />
	</node>
	<node id="-435367" lat="60.4812916708" lon="5.40990556224">
		<tag k="name" v="Nygård" />
		<tag k="place" v="isolated_dwelling" />
		<tag k="ssr:stedsnr" v="954145" />
	</node>
	<node id="-434353" lat="60.3351111952" lon="5.50508811249">
		<tag k="fixme" v="consider place=hamlet" />
		<tag k="name" v="Lund" />
		<tag k="place" v="farm" />
		<tag k="ssr:stedsnr" v="733193" />
	</node>
	<node id="-434352" lat="60.3472722225" lon="5.50244999832">
		<tag k="historic" v="shieling" />
		<tag k="name" v="Bjørnastølen" />
		<tag k="place" v="locality" />
		<tag k="ssr:stedsnr" v="733174" />
	</node>
	<node id="-434347" lat="60.4233201535" lon="5.55170700146">
		<tag k="fixme" v="consider place=hamlet" />
		<tag k="name" v="Indre Songstad" />
		<tag k="place" v="farm" />
		<tag k="ssr:stedsnr" v="733070" />
	</node>
	<node id="-434334" lat="60.4198111146" lon="5.30498889413">
		<tag k="name" v="Breiviken" />
		<tag k="place" v="village" />
		<tag k="ssr:stedsnr" v="703059" />
	</node>
	<node id="-432266" lat="60.3047871841" lon="5.33263470867">
		<tag k="fixme" v="consider place=hamlet" />
		<tag k="name" v="Skjold" />
		<tag k="place" v="farm" />
		<tag k="ssr:stedsnr" v="81725" />
	</node>
	<node id="-432264" lat="60.3638111147" lon="5.25494999805">
		<tag k="name" v="Søre Tennebekk" />
		<tag k="place" v="farm" />
		<tag k="ssr:stedsnr" v="81698" />
	</node>
	<node id="-434303" lat="60.4085833291" lon="5.56289444834">
		<tag k="historic" v="shieling" />
		<tag k="name" v="Skylefonnstølen" />
		<tag k="place" v="locality" />
		<tag k="ssr:stedsnr" v="688915" />
	</node>
	<node id="-431807" lat="60.4316627771" lon="5.49809285965">
		<tag k="fixme" v="consider place=hamlet" />
		<tag k="name" v="Store Tunes" />
		<tag k="place" v="farm" />
		<tag k="ssr:stedsnr" v="990816" />
	</node>
	<node id="-431806" lat="60.426626367" lon="5.57334960825">
		<tag k="fixme" v="consider place=hamlet" />
		<tag k="name" v="Øvre Romslo" />
		<tag k="place" v="farm" />
		<tag k="ssr:stedsnr" v="990815" />
	</node>
	<node id="-432242" lat="60.4868805522" lon="5.25788888669">
		<tag k="name" v="Nedre Slettestølen" />
		<tag k="place" v="farm" />
		<tag k="ssr:stedsnr" v="81363" />
	</node>
	<node id="-432241" lat="60.4864138892" lon="5.27747221512">
		<tag k="name" v="Støbotn" />
		<tag k="place" v="farm" />
		<tag k="ssr:stedsnr" v="81359" />
	</node>
	<node id="-431805" lat="60.4453695384" lon="5.30153315839">
		<tag k="fixme" v="consider place=hamlet" />
		<tag k="name" v="Storøya" />
		<tag k="place" v="farm" />
		<tag k="ssr:stedsnr" v="990810" />
	</node>
	<node id="-431804" lat="60.4551911546" lon="5.33251848261">
		<tag k="fixme" v="consider place=hamlet" />
		<tag k="name" v="Rødland" />
		<tag k="place" v="farm" />
		<tag k="ssr:stedsnr" v="990809" />
	</node>
	<node id="-434276" lat="60.2436305582" lon="5.30970000307">
		<tag k="name" v="Brattstølen" />
		<tag k="place" v="farm" />
		<tag k="ssr:stedsnr" v="688817" />
	</node>
	<node id="-432225" lat="60.5064944413" lon="5.34202222453">
		<tag k="name" v="Nordre Tuft" />
		<tag k="place" v="farm" />
		<tag k="ssr:stedsnr" v="81282" />
	</node>
	<node id="-431801" lat="60.3738291815" lon="5.17258597684">
		<tag k="fixme" v="consider place=hamlet" />
		<tag k="name" v="Drotningsvik" />
		<tag k="place" v="farm" />
		<tag k="ssr:stedsnr" v="990742" />
	</node>
	<node id="-432207" lat="60.3900916658" lon="5.37795555659">
		<tag k="historic" v="shieling" />
		<tag k="name" v="Karistølen" />
		<tag k="place" v="locality" />
		<tag k="ssr:stedsnr" v="81169" />
	</node>
	<node id="-434253" lat="60.3407888872" lon="5.28267778489">
		<tag k="name" v="Åsgård" />
		<tag k="place" v="farm" />
		<tag k="ssr:stedsnr" v="688628" />
	</node>
	<node id="-435159" lat="60.4367750002" lon="5.31031944663">
		<tag k="name" v="Eidsvåg" />
		<tag k="place" v="village" />
		<tag k="ssr:stedsnr" v="916547" />
	</node>
	<node id="-432195" lat="60.3161777814" lon="5.23917778553">
		<tag k="name" v="Høgestølen" />
		<tag k="place" v="farm" />
		<tag k="ssr:stedsnr" v="81066" />
	</node>
	<node id="-432184" lat="60.3930611079" lon="5.23433611055">
		<tag k="name" v="Kvernane" />
		<tag k="place" v="farm" />
		<tag k="ssr:stedsnr" v="81028" />
	</node>
	<node id="-431795" lat="60.3418657569" lon="5.33628027053">
		<tag k="fixme" v="consider place=hamlet" />
		<tag k="name" v="Gamlehaugen" />
		<tag k="place" v="farm" />
		<tag k="ssr:stedsnr" v="990657" />
	</node>
	<node id="-434204" lat="60.3901861156" lon="5.42476111157">
		<tag k="historic" v="shieling" />
		<tag k="name" v="Geitsetra" />
		<tag k="place" v="locality" />
		<tag k="ssr:stedsnr" v="688205" />
	</node>
	<node id="-432147" lat="60.2806388928" lon="5.22866943681">
		<tag k="name" v="Solbakken" />
		<tag k="place" v="farm" />
		<tag k="ssr:stedsnr" v="66927" />
	</node>
	<node id="-432146" lat="60.2982443384" lon="5.43503393304">
		<tag k="fixme" v="consider place=hamlet" />
		<tag k="name" v="Hedno" />
		<tag k="place" v="farm" />
		<tag k="ssr:stedsnr" v="66923" />
	</node>
	<node id="-432145" lat="60.2818722225" lon="5.35240000083">
		<tag k="name" v="Tveitane" />
		<tag k="place" v="farm" />
		<tag k="ssr:stedsnr" v="66917" />
	</node>
	<node id="-432144" lat="60.2734027808" lon="5.24092776839">
		<tag k="name" v="Vasstølen" />
		<tag k="place" v="farm" />
		<tag k="ssr:stedsnr" v="66903" />
	</node>
	<node id="-432143" lat="60.2758250004" lon="5.41741389241">
		<tag k="fixme" v="consider place=hamlet" />
		<tag k="name" v="Kaland" />
		<tag k="place" v="village" />
		<tag k="ssr:stedsnr" v="66892" />
	</node>
	<node id="-432142" lat="60.2607499968" lon="5.25361666706">
		<tag k="fixme" v="consider place=suburb, village or hamlet" />
		<tag k="name" v="Hjellestad" />
		<tag k="place" v="quarter" />
		<tag k="ssr:stedsnr" v="66887" />
	</node>
	<node id="-432140" lat="60.2616849571" lon="5.43324539457">
		<tag k="fixme" v="consider place=hamlet" />
		<tag k="name" v="Fortunet" />
		<tag k="place" v="farm" />
		<tag k="ssr:stedsnr" v="66877" />
	</node>
	<node id="-432139" lat="60.2631746607" lon="5.4423766123">
		<tag k="fixme" v="consider place=hamlet" />
		<tag k="name" v="Lyngbø" />
		<tag k="place" v="farm" />
		<tag k="ssr:stedsnr" v="66876" />
	</node>
	<node id="-432138" lat="60.3173888918" lon="5.38186389309">
		<tag k="name" v="Engeset" />
		<tag k="place" v="farm" />
		<tag k="ssr:stedsnr" v="66862" />
	</node>
	<node id="-432137" lat="60.2276194467" lon="5.34763611653">
		<tag k="name" v="Bakarvik" />
		<tag k="place" v="farm" />
		<tag k="ssr:stedsnr" v="66857" />
	</node>
	<node id="-432136" lat="60.3349416655" lon="5.26448611513">
		<tag k="fixme" v="consider place=suburb, village or hamlet" />
		<tag k="name" v="Varden" />
		<tag k="place" v="quarter" />
		<tag k="ssr:stedsnr" v="66800" />
	</node>
	<node id="-432135" lat="60.3503611078" lon="5.42486110895">
		<tag k="name" v="Åsen" />
		<tag k="place" v="isolated_dwelling" />
		<tag k="ssr:stedsnr" v="66782" />
	</node>
	<node id="-432134" lat="60.3366361101" lon="5.34606667207">
		<tag k="fixme" v="consider place=suburb, village or hamlet" />
		<tag k="name" v="Paradis" />
		<tag k="place" v="quarter" />
		<tag k="ssr:stedsnr" v="66761" />
	</node>
	<node id="-432133" lat="60.3251592102" lon="5.29903397125">
		<tag k="fixme" v="consider place=hamlet" />
		<tag k="name" v="Bønes" />
		<tag k="place" v="farm" />
		<tag k="ssr:stedsnr" v="66762" />
	</node>
	<node id="-432132" lat="60.3392276898" lon="5.39824215803">
		<tag k="fixme" v="consider place=hamlet" />
		<tag k="name" v="Helldal" />
		<tag k="place" v="farm" />
		<tag k="ssr:stedsnr" v="66759" />
	</node>
	<node id="-432130" lat="60.3283338658" lon="5.36592103972">
		<tag k="fixme" v="consider place=hamlet" />
		<tag k="name" v="Sanddal" />
		<tag k="place" v="farm" />
		<tag k="ssr:stedsnr" v="66742" />
	</node>
	<node id="-432129" lat="60.3625425423" lon="5.29520289173">
		<tag k="fixme" v="consider place=hamlet" />
		<tag k="name" v="Øvre Fyllingen" />
		<tag k="place" v="farm" />
		<tag k="ssr:stedsnr" v="66735" />
	</node>
</osm>
