<?xml version="1.0" encoding="UTF-8"?>
<osm generator="osmapis" version="0.6">
	<node id="-432127" lat="60.4752944468" lon="5.37110833638">
		<tag k="name" v="Mjølsteinen" />
		<tag k="natural" v="stone" />
		<tag k="ssr:stedsnr" v="202896" />
	</node>
	<node id="-433661" lat="60.2686861113" lon="5.28703333868">
		<tag k="name" v="Utgjerdet" />
		<tag k="place" v="locality" />
		<tag k="ssr:stedsnr" v="688823" />
	</node>
	<node id="-431612" lat="60.2849611135" lon="5.50260277137">
		<tag k="name" v="Kolamilsteinen" />
		<tag k="natural" v="stone" />
		<tag k="ssr:stedsnr" v="81328" />
	</node>
	<node id="-434171" lat="60.480502775" lon="5.39473332579">
		<tag k="name" v="Fjellsteinen" />
		<tag k="natural" v="stone" />
		<tag k="ssr:stedsnr" v="809917" />
	</node>
	<node id="-432121" lat="60.2737472216" lon="5.29448610422">
		<tag k="name" v="Ramnabergsmyra" />
		<tag k="natural" v="wetland" />
		<tag k="ssr:stedsnr" v="202841" />
	</node>
	<node id="-433142" lat="60.2768555577" lon="5.44481666738">
		<tag k="name" v="Havet" />
		<tag k="natural" v="wetland" />
		<tag k="ssr:stedsnr" v="566569" />
	</node>
	<node id="-434669" lat="60.3530611091" lon="5.18429166987">
		<tag k="name" v="Hansaslåttet" />
		<tag k="place" v="locality" />
		<tag k="ssr:stedsnr" v="931549" />
	</node>
	<node id="-432620" lat="60.3392388887" lon="5.52506388752">
		<tag k="name" v="Slåttene" />
		<tag k="place" v="locality" />
		<tag k="ssr:stedsnr" v="445831" />
	</node>
	<node id="-434154" lat="60.3416055538" lon="5.48105555966">
		<tag k="name" v="Revura" />
		<tag k="natural" v="scree" />
		<tag k="ssr:stedsnr" v="809834" />
	</node>
	<node id="-434661" lat="60.4310916628" lon="5.45309723056">
		<tag k="historic" v="shieling" />
		<tag k="name" v="Ledstølen" />
		<tag k="place" v="locality" />
		<tag k="ssr:stedsnr" v="931334" />
	</node>
	<node id="-431582" lat="60.3232833376" lon="5.43262222454">
		<tag k="name" v="Fossamyra" />
		<tag k="natural" v="wetland" />
		<tag k="ssr:stedsnr" v="81154" />
	</node>
	<node id="-431069" lat="60.2586222215" lon="5.42833888952">
		<tag k="name" v="Stormyra" />
		<tag k="natural" v="wetland" />
		<tag k="ssr:stedsnr" v="385126" />
	</node>
	<node id="-433116" lat="60.291813886" lon="5.37170832745">
		<tag k="historic" v="shieling" />
		<tag k="name" v="Vallastølen" />
		<tag k="place" v="locality" />
		<tag k="ssr:stedsnr" v="566260" />
	</node>
	<node id="-434651" lat="60.2837055589" lon="5.36289166179">
		<tag k="name" v="Klyftasteinane" />
		<tag k="natural" v="stone" />
		<tag k="ssr:stedsnr" v="931282" />
	</node>
	<node id="-434138" lat="60.2873916651" lon="5.3414805602">
		<tag k="name" v="Soleimyra" />
		<tag k="natural" v="wetland" />
		<tag k="ssr:stedsnr" v="809659" />
	</node>
	<node id="-434647" lat="60.5178361069" lon="5.31187777723">
		<tag k="name" v="Solkiken" />
		<tag k="place" v="locality" />
		<tag k="ssr:stedsnr" v="931271" />
	</node>
	<node id="-433622" lat="60.3592500018" lon="5.18758611004">
		<tag k="name" v="Gåsemyren" />
		<tag k="natural" v="wetland" />
		<tag k="ssr:stedsnr" v="688546" />
	</node>
	<node id="-433621" lat="60.3633305538" lon="5.20358889753">
		<tag k="name" v="Slettebakksmyra" />
		<tag k="natural" v="wetland" />
		<tag k="ssr:stedsnr" v="688545" />
	</node>
	<node id="-432594" lat="60.3981944423" lon="5.35016110545">
		<tag k="name" v="Revuren" />
		<tag k="natural" v="scree" />
		<tag k="ssr:stedsnr" v="445419" />
	</node>
	<node id="-433614" lat="60.2892666648" lon="5.2808722217">
		<tag k="historic" v="shieling" />
		<tag k="name" v="Sikestølen" />
		<tag k="place" v="locality" />
		<tag k="ssr:stedsnr" v="688380" />
	</node>
	<node id="-433610" lat="60.2868277785" lon="5.52674167518">
		<tag k="name" v="Gråura" />
		<tag k="natural" v="scree" />
		<tag k="ssr:stedsnr" v="688327" />
	</node>
	<node id="-432073" lat="60.3144416626" lon="5.22118334112">
		<tag k="name" v="Trollmyra" />
		<tag k="natural" v="wetland" />
		<tag k="ssr:stedsnr" v="202056" />
	</node>
	<node id="-434630" lat="60.3838972211" lon="5.43519999663">
		<tag k="name" v="Smogevollane" />
		<tag k="place" v="locality" />
		<tag k="ssr:stedsnr" v="931144" />
	</node>
	<node id="-433093" lat="60.3102861092" lon="5.40410278114">
		<tag k="landuse" v="meadow" />
		<tag k="name" v="Slåttene" />
		<tag k="ssr:stedsnr" v="566135" />
	</node>
	<node id="-434678" lat="60.3364166642" lon="5.25210832724">
		<tag k="name" v="Raten" />
		<tag k="place" v="locality" />
		<tag k="ssr:stedsnr" v="931625" />
	</node>
	<node id="-434113" lat="60.4647472237" lon="5.42164444109">
		<tag k="historic" v="shieling" />
		<tag k="name" v="Fjellstølen" />
		<tag k="place" v="locality" />
		<tag k="ssr:stedsnr" v="809395" />
	</node>
	<node id="-434112" lat="60.4378861105" lon="5.33524444326">
		<tag k="name" v="Slåttene" />
		<tag k="place" v="locality" />
		<tag k="ssr:stedsnr" v="809384" />
	</node>
	<node id="-434621" lat="60.4283194402" lon="5.66870278158">
		<tag k="historic" v="shieling" />
		<tag k="name" v="Trollabotsstølen" />
		<tag k="place" v="locality" />
		<tag k="ssr:stedsnr" v="931098" />
	</node>
	<node id="-432572" lat="60.3194500007" lon="5.50341388218">
		<tag k="name" v="Plasset" />
		<tag k="place" v="locality" />
		<tag k="ssr:stedsnr" v="445238" />
	</node>
	<node id="-433081" lat="60.4057361143" lon="5.51148055015">
		<tag k="name" v="Harasteinen" />
		<tag k="natural" v="stone" />
		<tag k="ssr:stedsnr" v="566089" />
	</node>
	<node id="-434614" lat="60.3725194482" lon="5.31109166372">
		<tag k="name" v="Klauvsteinen" />
		<tag k="natural" v="stone" />
		<tag k="ssr:stedsnr" v="931076" />
	</node>
	<node id="-432052" lat="60.3123583309" lon="5.20888889636">
		<tag k="name" v="Kvitura" />
		<tag k="natural" v="scree" />
		<tag k="ssr:stedsnr" v="188791" />
	</node>
	<node id="-433585" lat="60.3752472215" lon="5.41290555118">
		<tag k="name" v="Smedmyra" />
		<tag k="natural" v="wetland" />
		<tag k="ssr:stedsnr" v="688195" />
	</node>
	<node id="-431062" lat="60.231527775" lon="5.33197499692">
		<tag k="name" v="Storamyra" />
		<tag k="natural" v="wetland" />
		<tag k="ssr:stedsnr" v="384886" />
	</node>
	<node id="-434090" lat="60.2903833355" lon="5.37504444993">
		<tag k="name" v="Revasteinen" />
		<tag k="natural" v="stone" />
		<tag k="ssr:stedsnr" v="809256" />
	</node>
	<node id="-432544" lat="60.4248430122" lon="5.6186941095">
		<tag k="name" v="Slåttene" />
		<tag k="place" v="locality" />
		<tag k="ssr:stedsnr" v="445116" />
	</node>
	<node id="-432538" lat="60.4086027808" lon="5.52112222527">
		<tag k="historic" v="shieling" />
		<tag k="name" v="Gamlestølen" />
		<tag k="place" v="locality" />
		<tag k="ssr:stedsnr" v="445089" />
	</node>
	<node id="-434582" lat="60.2855583315" lon="5.2255694382">
		<tag k="landuse" v="meadow" />
		<tag k="name" v="Stykket" />
		<tag k="ssr:stedsnr" v="930026" />
	</node>
	<node id="-434067" lat="60.318955559" lon="5.39524444107">
		<tag k="name" v="Eidsmyra" />
		<tag k="natural" v="wetland" />
		<tag k="ssr:stedsnr" v="809136" />
	</node>
	<node id="-433552" lat="60.3820416643" lon="5.25230833699">
		<tag k="name" v="Revura" />
		<tag k="natural" v="scree" />
		<tag k="ssr:stedsnr" v="688059" />
	</node>
	<node id="-434726" lat="60.2797444449" lon="5.27782499437">
		<tag k="name" v="Stormyra" />
		<tag k="natural" v="wetland" />
		<tag k="ssr:stedsnr" v="931930" />
	</node>
	<node id="-433022" lat="60.4764444422" lon="5.41343055738">
		<tag k="name" v="Ervikmyra" />
		<tag k="natural" v="wetland" />
		<tag k="ssr:stedsnr" v="551389" />
	</node>
	<node id="-430970" lat="60.2924027734" lon="5.36755555008">
		<tag k="name" v="Vardamyra" />
		<tag k="natural" v="wetland" />
		<tag k="ssr:stedsnr" v="384252" />
	</node>
	<node id="-430958" lat="60.4941527775" lon="5.29988333691">
		<tag k="name" v="Klantesteinen" />
		<tag k="natural" v="stone" />
		<tag k="ssr:stedsnr" v="384187" />
	</node>
	<node id="-430823" lat="60.4102361088" lon="5.61179166686">
		<tag k="name" v="Gråura" />
		<tag k="natural" v="scree" />
		<tag k="ssr:stedsnr" v="324950" />
	</node>
	<node id="-433509" lat="60.3484361147" lon="5.47747499705">
		<tag k="name" v="Storamyra" />
		<tag k="natural" v="wetland" />
		<tag k="ssr:stedsnr" v="673189" />
	</node>
	<node id="-431969" lat="60.3392388887" lon="5.52506388752">
		<tag k="name" v="Slåttene" />
		<tag k="place" v="locality" />
		<tag k="ssr:stedsnr" v="142832" />
	</node>
	<node id="-432981" lat="60.4289999958" lon="5.47347221769">
		<tag k="name" v="Ekra" />
		<tag k="place" v="locality" />
		<tag k="ssr:stedsnr" v="506958" />
	</node>
	<node id="-432980" lat="60.4304305586" lon="5.4825611088">
		<tag k="name" v="Langtomyra" />
		<tag k="natural" v="wetland" />
		<tag k="ssr:stedsnr" v="506956" />
	</node>
	<node id="-433439" lat="60.3335361081" lon="5.51776944057">
		<tag k="historic" v="shieling" />
		<tag k="name" v="Askestølen" />
		<tag k="place" v="locality" />
		<tag k="ssr:stedsnr" v="627944" />
	</node>
	<node id="-431933" lat="60.2788000016" lon="5.44770833414">
		<tag k="name" v="Hjortamyra" />
		<tag k="natural" v="wetland" />
		<tag k="ssr:stedsnr" v="142550" />
	</node>
	<node id="-434491" lat="60.4042750008" lon="5.61976666804">
		<tag k="historic" v="shieling" />
		<tag k="name" v="Nedre Gullstølen" />
		<tag k="place" v="locality" />
		<tag k="ssr:stedsnr" v="870946" />
	</node>
	<node id="-432952" lat="60.3490555553" lon="5.47686945312">
		<tag k="name" v="Storamyra" />
		<tag k="natural" v="wetland" />
		<tag k="ssr:stedsnr" v="506833" />
	</node>
	<node id="-434484" lat="60.2801861156" lon="5.26720556009">
		<tag k="name" v="Hausbergsekkja" />
		<tag k="natural" v="wetland" />
		<tag k="ssr:stedsnr" v="870916" />
	</node>
	<node id="-434654" lat="60.2926666666" lon="5.40060278158">
		<tag k="name" v="Nipsura" />
		<tag k="natural" v="scree" />
		<tag k="ssr:stedsnr" v="931290" />
	</node>
	<node id="-432946" lat="60.2449250028" lon="5.31365000487">
		<tag k="name" v="Rindamyrane" />
		<tag k="natural" v="wetland" />
		<tag k="ssr:stedsnr" v="506796" />
	</node>
	<node id="-431920" lat="60.4800861077" lon="5.29282778265">
		<tag k="historic" v="shieling" />
		<tag k="name" v="Stølane" />
		<tag k="place" v="locality" />
		<tag k="ssr:stedsnr" v="142323" />
	</node>
	<node id="-434478" lat="60.3868583346" lon="5.5310722298">
		<tag k="historic" v="shieling" />
		<tag k="name" v="Fjellstølen" />
		<tag k="place" v="locality" />
		<tag k="ssr:stedsnr" v="870877" />
	</node>
	<node id="-431837" lat="60.4303472249" lon="5.34063889213">
		<tag k="name" v="Stormyra" />
		<tag k="natural" v="wetland" />
		<tag k="ssr:stedsnr" v="141354" />
	</node>
	<node id="-433446" lat="60.4454444458" lon="5.471905558">
		<tag k="name" v="Ura" />
		<tag k="natural" v="scree" />
		<tag k="ssr:stedsnr" v="627990" />
	</node>
	<node id="-433445" lat="60.3803166626" lon="5.49183333063">
		<tag k="historic" v="shieling" />
		<tag k="name" v="Bjørkestølen" />
		<tag k="place" v="locality" />
		<tag k="ssr:stedsnr" v="627982" />
	</node>
	<node id="-433444" lat="60.4308277801" lon="5.49114166201">
		<tag k="historic" v="shieling" />
		<tag k="name" v="Tingstølen" />
		<tag k="place" v="locality" />
		<tag k="ssr:stedsnr" v="627970" />
	</node>
	<node id="-433443" lat="60.4239888881" lon="5.47858889164">
		<tag k="name" v="Urane" />
		<tag k="natural" v="scree" />
		<tag k="ssr:stedsnr" v="627968" />
	</node>
	<node id="-433951" lat="60.2926250045" lon="5.24618333428">
		<tag k="name" v="Tveitane" />
		<tag k="place" v="locality" />
		<tag k="ssr:stedsnr" v="749747" />
	</node>
	<node id="-432918" lat="60.3396972245" lon="5.26013889385">
		<tag k="name" v="Skogadotten" />
		<tag k="place" v="locality" />
		<tag k="ssr:stedsnr" v="506618" />
	</node>
	<node id="-432405" lat="60.2720888845" lon="5.29163332854">
		<tag k="name" v="Stølsmyra" />
		<tag k="natural" v="wetland" />
		<tag k="ssr:stedsnr" v="263840" />
	</node>
	<node id="-431406" lat="60.2644361095" lon="5.39991944556">
		<tag k="historic" v="shieling" />
		<tag k="name" v="Steinstølen" />
		<tag k="place" v="locality" />
		<tag k="ssr:stedsnr" v="21677" />
	</node>
	<node id="-431377" lat="60.3410611094" lon="5.46132777167">
		<tag k="historic" v="shieling" />
		<tag k="name" v="Karvestølen" />
		<tag k="place" v="locality" />
		<tag k="ssr:stedsnr" v="21211" />
	</node>
	<node id="-434445" lat="60.3014666683" lon="5.28704167269">
		<tag k="name" v="Feråsmyra" />
		<tag k="natural" v="wetland" />
		<tag k="ssr:stedsnr" v="870723" />
	</node>
	<node id="-433419" lat="60.3420583298" lon="5.49026666754">
		<tag k="name" v="Geitasteinane" />
		<tag k="natural" v="stone" />
		<tag k="ssr:stedsnr" v="627843" />
	</node>
	<node id="-433929" lat="60.3070222259" lon="5.42933055578">
		<tag k="name" v="Flottorvene" />
		<tag k="natural" v="wetland" />
		<tag k="ssr:stedsnr" v="749226" />
	</node>
	<node id="-431366" lat="60.4221111132" lon="5.65144166663">
		<tag k="name" v="Træene" />
		<tag k="place" v="locality" />
		<tag k="ssr:stedsnr" v="21131" />
	</node>
	<node id="-434437" lat="60.2642611152" lon="5.40658888987">
		<tag k="historic" v="shieling" />
		<tag k="name" v="Kismulstølen" />
		<tag k="place" v="locality" />
		<tag k="ssr:stedsnr" v="870679" />
	</node>
	<node id="-433923" lat="60.3155277781" lon="5.45368610364">
		<tag k="name" v="Hestatræet" />
		<tag k="place" v="locality" />
		<tag k="ssr:stedsnr" v="749194" />
	</node>
	<node id="-432384" lat="60.2793027741" lon="5.46823055787">
		<tag k="name" v="Høljemyrane" />
		<tag k="natural" v="wetland" />
		<tag k="ssr:stedsnr" v="263576" />
	</node>
	<node id="-432895" lat="60.2961805536" lon="5.45273889245">
		<tag k="historic" v="shieling" />
		<tag k="name" v="Andersstølen" />
		<tag k="place" v="locality" />
		<tag k="ssr:stedsnr" v="506324" />
	</node>
	<node id="-433918" lat="60.4507833314" lon="5.37093333923">
		<tag k="name" v="Bolga" />
		<tag k="place" v="locality" />
		<tag k="ssr:stedsnr" v="749166" />
	</node>
	<node id="-433405" lat="60.2493611086" lon="5.33486944679">
		<tag k="name" v="Bukkamyrane" />
		<tag k="natural" v="wetland" />
		<tag k="ssr:stedsnr" v="627776" />
	</node>
	<node id="-433916" lat="60.3786555521" lon="5.45455276934">
		<tag k="name" v="Ekra" />
		<tag k="place" v="locality" />
		<tag k="ssr:stedsnr" v="749143" />
	</node>
	<node id="-431354" lat="60.4226527732" lon="5.43899443831">
		<tag k="name" v="Træene" />
		<tag k="place" v="locality" />
		<tag k="ssr:stedsnr" v="20956" />
	</node>
	<node id="-433401" lat="60.2888861142" lon="5.25143055265">
		<tag k="name" v="Såtemyrane" />
		<tag k="natural" v="wetland" />
		<tag k="ssr:stedsnr" v="627747" />
	</node>
	<node id="-433910" lat="60.2603305528" lon="5.42552500581">
		<tag k="name" v="Stemmemyra" />
		<tag k="natural" v="wetland" />
		<tag k="ssr:stedsnr" v="749099" />
	</node>
	<node id="-434217" lat="60.2887055557" lon="5.32234166972">
		<tag k="historic" v="shieling" />
		<tag k="name" v="Stølen" />
		<tag k="place" v="locality" />
		<tag k="ssr:stedsnr" v="810755" />
	</node>
	<node id="-432371" lat="60.389230559" lon="5.43152777568">
		<tag k="historic" v="shieling" />
		<tag k="name" v="Stølen" />
		<tag k="place" v="locality" />
		<tag k="ssr:stedsnr" v="263350" />
	</node>
	<node id="-433920" lat="60.3246166711" lon="5.46703888603">
		<tag k="name" v="Gråsteinen" />
		<tag k="natural" v="stone" />
		<tag k="ssr:stedsnr" v="749178" />
	</node>
	<node id="-434387" lat="60.4093388906" lon="5.44990555004">
		<tag k="name" v="Hardfita" />
		<tag k="place" v="locality" />
		<tag k="ssr:stedsnr" v="870223" />
	</node>
	<node id="-433389" lat="60.2791083301" lon="5.40130555267">
		<tag k="name" v="Steinen" />
		<tag k="natural" v="stone" />
		<tag k="ssr:stedsnr" v="627665" />
	</node>
	<node id="-433899" lat="60.2335833317" lon="5.29023611816">
		<tag k="name" v="Svartefjorden" />
		<tag k="natural" v="wetland" />
		<tag k="ssr:stedsnr" v="748957" />
	</node>
	<node id="-430826" lat="60.4190694456" lon="5.51730277238">
		<tag k="historic" v="shieling" />
		<tag k="name" v="Ospestølen" />
		<tag k="place" v="locality" />
		<tag k="ssr:stedsnr" v="324960" />
	</node>
	<node id="-434727" lat="60.4196694463" lon="5.55139444538">
		<tag k="historic" v="shieling" />
		<tag k="name" v="Nystølen" />
		<tag k="place" v="locality" />
		<tag k="ssr:stedsnr" v="931929" />
	</node>
	<node id="-432360" lat="60.3140166673" lon="5.51170278362">
		<tag k="name" v="Naustbakken" />
		<tag k="place" v="locality" />
		<tag k="ssr:stedsnr" v="263270" />
	</node>
	<node id="-433383" lat="60.2571333351" lon="5.40976388074">
		<tag k="name" v="Pålamyra" />
		<tag k="natural" v="wetland" />
		<tag k="ssr:stedsnr" v="627617" />
	</node>
	<node id="-431398" lat="60.3593472243" lon="5.19301944886">
		<tag k="historic" v="shieling" />
		<tag k="name" v="Grønestølen" />
		<tag k="place" v="locality" />
		<tag k="ssr:stedsnr" v="21552" />
	</node>
	<node id="-432354" lat="60.4106777808" lon="5.44058889431">
		<tag k="name" v="Slåttene" />
		<tag k="place" v="locality" />
		<tag k="ssr:stedsnr" v="263230" />
	</node>
	<node id="-432349" lat="60.3297055569" lon="5.4392333287">
		<tag k="name" v="Huldresteinen" />
		<tag k="natural" v="stone" />
		<tag k="ssr:stedsnr" v="263202" />
	</node>
	<node id="-433368" lat="60.4057694489" lon="5.38459722584">
		<tag k="historic" v="shieling" />
		<tag k="name" v="Stølane" />
		<tag k="place" v="locality" />
		<tag k="ssr:stedsnr" v="627348" />
	</node>
	<node id="-431396" lat="60.3583333326" lon="5.39519166026">
		<tag k="historic" v="shieling" />
		<tag k="name" v="Vasstølen" />
		<tag k="place" v="locality" />
		<tag k="ssr:stedsnr" v="21346" />
	</node>
	<node id="-432851" lat="60.4373416697" lon="5.38806944399">
		<tag k="name" v="Trollmyra" />
		<tag k="natural" v="wetland" />
		<tag k="ssr:stedsnr" v="506127" />
	</node>
	<node id="-432336" lat="60.3717861091" lon="5.45016666225">
		<tag k="name" v="Botnamyra" />
		<tag k="natural" v="wetland" />
		<tag k="ssr:stedsnr" v="263161" />
	</node>
	<node id="-434380" lat="60.3196638916" lon="5.46774166911">
		<tag k="name" v="Minnesteinen" />
		<tag k="natural" v="stone" />
		<tag k="ssr:stedsnr" v="870203" />
	</node>
	<node id="-431307" lat="60.3122527815" lon="5.51024722245">
		<tag k="name" v="Trosamyra" />
		<tag k="natural" v="wetland" />
		<tag k="ssr:stedsnr" v="20239" />
	</node>
	<node id="-433354" lat="60.5069777804" lon="5.332163893">
		<tag k="name" v="Revura" />
		<tag k="natural" v="scree" />
		<tag k="ssr:stedsnr" v="627281" />
	</node>
	<node id="-431816" lat="60.3279083303" lon="5.38675556097">
		<tag k="name" v="Utlebøen" />
		<tag k="place" v="locality" />
		<tag k="ssr:stedsnr" v="141153" />
	</node>
	<node id="-430789" lat="60.304799996" lon="5.25925555776">
		<tag k="name" v="Lonemyra" />
		<tag k="natural" v="wetland" />
		<tag k="ssr:stedsnr" v="324688" />
	</node>
	<node id="-432320" lat="60.4009388924" lon="5.52369722037">
		<tag k="historic" v="shieling" />
		<tag k="name" v="Grønetølen" />
		<tag k="place" v="locality" />
		<tag k="ssr:stedsnr" v="263107" />
	</node>
	<node id="-433855" lat="60.3654805593" lon="5.17556944532">
		<tag k="name" v="Oteruren" />
		<tag k="natural" v="scree" />
		<tag k="ssr:stedsnr" v="748548" />
	</node>
	<node id="-433854" lat="60.3559972225" lon="5.17731110586">
		<tag k="name" v="Kampesteinen" />
		<tag k="natural" v="stone" />
		<tag k="ssr:stedsnr" v="748534" />
	</node>
	<node id="-430781" lat="60.2602944487" lon="5.39389722982">
		<tag k="name" v="Ramsdalsmyra" />
		<tag k="natural" v="wetland" />
		<tag k="ssr:stedsnr" v="324595" />
	</node>
	<node id="-432842" lat="60.4462361133" lon="5.40610832987">
		<tag k="name" v="Krossen" />
		<tag k="place" v="locality" />
		<tag k="ssr:stedsnr" v="506103" />
	</node>
	<node id="-433337" lat="60.3949861081" lon="5.39494167361">
		<tag k="name" v="Slættene" />
		<tag k="place" v="locality" />
		<tag k="ssr:stedsnr" v="627212" />
	</node>
	<node id="-434357" lat="60.3823999968" lon="5.24910834084">
		<tag k="name" v="Rapa" />
		<tag k="natural" v="scree" />
		<tag k="ssr:stedsnr" v="870085" />
	</node>
	<node id="-432307" lat="60.3710055554" lon="5.17364445002">
		<tag k="name" v="Kroken" />
		<tag k="place" v="locality" />
		<tag k="ssr:stedsnr" v="263037" />
	</node>
	<node id="-433329" lat="60.3212250016" lon="5.44529166622">
		<tag k="name" v="Steintræet" />
		<tag k="place" v="locality" />
		<tag k="ssr:stedsnr" v="627184" />
	</node>
	<node id="-430792" lat="60.3136027744" lon="5.24219167368">
		<tag k="name" v="Myrane" />
		<tag k="natural" v="wetland" />
		<tag k="ssr:stedsnr" v="324786" />
	</node>
	<node id="-434719" lat="60.3942805568" lon="5.55433055732">
		<tag k="name" v="Kopesteinen" />
		<tag k="natural" v="stone" />
		<tag k="ssr:stedsnr" v="931889" />
	</node>
	<node id="-433834" lat="60.2844833296" lon="5.41403332837">
		<tag k="name" v="Storlimyra" />
		<tag k="natural" v="wetland" />
		<tag k="ssr:stedsnr" v="748264" />
	</node>
	<node id="-433321" lat="60.377911115" lon="5.44086111168">
		<tag k="name" v="Storura" />
		<tag k="natural" v="scree" />
		<tag k="ssr:stedsnr" v="627149" />
	</node>
	<node id="-434339" lat="60.2957638912" lon="5.23942778467">
		<tag k="name" v="Sikane" />
		<tag k="natural" v="wetland" />
		<tag k="ssr:stedsnr" v="870004" />
	</node>
	<node id="-430752" lat="60.3116861071" lon="5.47405556359">
		<tag k="name" v="Svarthamremyra" />
		<tag k="natural" v="wetland" />
		<tag k="ssr:stedsnr" v="324262" />
	</node>
	<node id="-434629" lat="60.3852388903" lon="5.4457472206">
		<tag k="name" v="Høljemyra" />
		<tag k="natural" v="wetland" />
		<tag k="ssr:stedsnr" v="931142" />
	</node>
	<node id="-434332" lat="60.4974583338" lon="5.28299445092">
		<tag k="name" v="Høljamyra" />
		<tag k="natural" v="wetland" />
		<tag k="ssr:stedsnr" v="869365" />
	</node>
	<node id="-432792" lat="60.2585805537" lon="5.23744999729">
		<tag k="name" v="Lurarøysa" />
		<tag k="natural" v="scree" />
		<tag k="ssr:stedsnr" v="505099" />
	</node>
	<node id="-434326" lat="60.3812750016" lon="5.44649166684">
		<tag k="name" v="Steinsvollen" />
		<tag k="place" v="locality" />
		<tag k="ssr:stedsnr" v="870147" />
	</node>
	<node id="-430740" lat="60.3222472217" lon="5.4877861181">
		<tag k="historic" v="shieling" />
		<tag k="name" v="Haldorsstølen" />
		<tag k="place" v="locality" />
		<tag k="ssr:stedsnr" v="324205" />
	</node>
	<node id="-432787" lat="60.3154111077" lon="5.229608341">
		<tag k="name" v="Martellahaugen" />
		<tag k="natural" v="wetland" />
		<tag k="ssr:stedsnr" v="505063" />
	</node>
	<node id="-432784" lat="60.2822833335" lon="5.2099611114">
		<tag k="name" v="Årebrotsmyra" />
		<tag k="natural" v="wetland" />
		<tag k="ssr:stedsnr" v="505031" />
	</node>
	<node id="-434319" lat="60.5134861128" lon="5.33380277848">
		<tag k="name" v="Langemyrane" />
		<tag k="natural" v="wetland" />
		<tag k="ssr:stedsnr" v="856541" />
	</node>
	<node id="-430734" lat="60.3191500027" lon="5.45092221773">
		<tag k="name" v="Geithusmyra" />
		<tag k="natural" v="wetland" />
		<tag k="ssr:stedsnr" v="324181" />
	</node>
	<node id="-431239" lat="60.380738889" lon="5.25146389583">
		<tag k="name" v="Banuren" />
		<tag k="natural" v="scree" />
		<tag k="ssr:stedsnr" v="5625" />
	</node>
	<node id="-434625" lat="60.2600805548" lon="5.43490555021">
		<tag k="name" v="Bahustræet" />
		<tag k="place" v="locality" />
		<tag k="ssr:stedsnr" v="931114" />
	</node>
	<node id="-433796" lat="60.2842138878" lon="5.44665000335">
		<tag k="name" v="Smørkisen" />
		<tag k="natural" v="scree" />
		<tag k="ssr:stedsnr" v="734930" />
	</node>
	<node id="-430722" lat="60.3861444402" lon="5.43764166729">
		<tag k="name" v="Træene" />
		<tag k="place" v="locality" />
		<tag k="ssr:stedsnr" v="324141" />
	</node>
	<node id="-431230" lat="60.4946416687" lon="5.37448334069">
		<tag k="name" v="Haukåsmyrane" />
		<tag k="natural" v="wetland" />
		<tag k="ssr:stedsnr" v="5385" />
	</node>
	<node id="-433270" lat="60.4307916705" lon="5.45498889501">
		<tag k="name" v="Gamlatræet" />
		<tag k="place" v="locality" />
		<tag k="ssr:stedsnr" v="626017" />
	</node>
	<node id="-431732" lat="60.4215166679" lon="5.6424805465">
		<tag k="name" v="Kråmyrane" />
		<tag k="natural" v="wetland" />
		<tag k="ssr:stedsnr" v="126063" />
	</node>
	<node id="-431219" lat="60.4148555574" lon="5.64460000018">
		<tag k="name" v="Lonane" />
		<tag k="natural" v="wetland" />
		<tag k="ssr:stedsnr" v="5070" />
	</node>
	<node id="-430702" lat="60.4122611135" lon="5.50698055176">
		<tag k="historic" v="shieling" />
		<tag k="name" v="Gullstølane" />
		<tag k="place" v="locality" />
		<tag k="ssr:stedsnr" v="324069" />
	</node>
	<node id="-433771" lat="60.3887666623" lon="5.50378333815">
		<tag k="name" v="Larsmyrane" />
		<tag k="natural" v="wetland" />
		<tag k="ssr:stedsnr" v="734124" />
	</node>
	<node id="-430625" lat="60.3847888901" lon="5.54114999207">
		<tag k="name" v="Tausamyrane" />
		<tag k="natural" v="wetland" />
		<tag k="ssr:stedsnr" v="309131" />
	</node>
	<node id="-434275" lat="60.3734777782" lon="5.54326666546">
		<tag k="name" v="Leinane" />
		<tag k="natural" v="wetland" />
		<tag k="ssr:stedsnr" v="855152" />
	</node>
	<node id="-433247" lat="60.3430361098" lon="5.49412777936">
		<tag k="historic" v="shieling" />
		<tag k="name" v="Humlestølen" />
		<tag k="place" v="locality" />
		<tag k="ssr:stedsnr" v="612193" />
	</node>
	<node id="-434703" lat="60.3363472233" lon="5.5273555589">
		<tag k="name" v="Knutaslåtta" />
		<tag k="place" v="locality" />
		<tag k="ssr:stedsnr" v="931837" />
	</node>
	<node id="-430680" lat="60.4427527763" lon="5.32910554735">
		<tag k="name" v="Urane" />
		<tag k="natural" v="scree" />
		<tag k="ssr:stedsnr" v="323366" />
	</node>
	<node id="-430777" lat="60.2549027742" lon="5.37121110458">
		<tag k="name" v="Stormyra" />
		<tag k="natural" v="wetland" />
		<tag k="ssr:stedsnr" v="324584" />
	</node>
	<node id="-431697" lat="60.3521472216" lon="5.32970555311">
		<tag k="name" v="Kopesteinen" />
		<tag k="natural" v="stone" />
		<tag k="ssr:stedsnr" v="82550" />
	</node>
	<node id="-432206" lat="60.2721611149" lon="5.33380833126">
		<tag k="name" v="Krohnestykket" />
		<tag k="place" v="locality" />
		<tag k="ssr:stedsnr" v="203869" />
	</node>
	<node id="-430668" lat="60.2506388895" lon="5.23940000733">
		<tag k="name" v="Håsteinmyra" />
		<tag k="natural" v="wetland" />
		<tag k="ssr:stedsnr" v="323086" />
	</node>
	<node id="-432199" lat="60.3444222224" lon="5.50011388092">
		<tag k="name" v="Langemyra" />
		<tag k="natural" v="wetland" />
		<tag k="ssr:stedsnr" v="203837" />
	</node>
	<node id="-434443" lat="60.3083444462" lon="5.2783055602">
		<tag k="name" v="Flotane" />
		<tag k="place" v="locality" />
		<tag k="ssr:stedsnr" v="870707" />
	</node>
	<node id="-431680" lat="60.4191499963" lon="5.44244444497">
		<tag k="name" v="Slåttene" />
		<tag k="place" v="locality" />
		<tag k="ssr:stedsnr" v="81944" />
	</node>
	<node id="-432209" lat="60.4563222231" lon="5.38942500037">
		<tag k="name" v="Kvernhusmyrane" />
		<tag k="natural" v="wetland" />
		<tag k="ssr:stedsnr" v="203922" />
	</node>
	<node id="-433210" lat="60.4065333377" lon="5.56925833744">
		<tag k="name" v="Gullvellmyrane" />
		<tag k="natural" v="wetland" />
		<tag k="ssr:stedsnr" v="567916" />
	</node>
	<node id="-433207" lat="60.4039138905" lon="5.55010277091">
		<tag k="name" v="Tausamyrane" />
		<tag k="natural" v="wetland" />
		<tag k="ssr:stedsnr" v="567903" />
	</node>
	<node id="-432693" lat="60.2541916665" lon="5.34513056204">
		<tag k="name" v="Storamyra" />
		<tag k="natural" v="wetland" />
		<tag k="ssr:stedsnr" v="446768" />
	</node>
	<node id="-434228" lat="60.4258361116" lon="5.57373889757">
		<tag k="historic" v="shieling" />
		<tag k="name" v="Stølen" />
		<tag k="place" v="locality" />
		<tag k="ssr:stedsnr" v="810921" />
	</node>
	<node id="-430771" lat="60.3692694482" lon="5.43758055988">
		<tag k="historic" v="shieling" />
		<tag k="name" v="Setstølen" />
		<tag k="place" v="locality" />
		<tag k="ssr:stedsnr" v="324750" />
	</node>
	<node id="-432688" lat="60.2937611132" lon="5.29570278427">
		<tag k="name" v="Sikene" />
		<tag k="natural" v="wetland" />
		<tag k="ssr:stedsnr" v="446741" />
	</node>
	<node id="-433282" lat="60.48490556" lon="5.28827499979">
		<tag k="name" v="Småskogen" />
		<tag k="place" v="locality" />
		<tag k="ssr:stedsnr" v="626370" />
	</node>
	<node id="-432684" lat="60.2823638922" lon="5.43630834078">
		<tag k="name" v="Vidamyra" />
		<tag k="natural" v="wetland" />
		<tag k="ssr:stedsnr" v="446695" />
	</node>
	<node id="-432683" lat="60.282066669" lon="5.44215278035">
		<tag k="name" v="Sekkene" />
		<tag k="natural" v="wetland" />
		<tag k="ssr:stedsnr" v="446694" />
	</node>
	<node id="-432169" lat="60.3570944478" lon="5.18875000021">
		<tag k="name" v="Gosen" />
		<tag k="place" v="locality" />
		<tag k="ssr:stedsnr" v="203539" />
	</node>
	<node id="-433192" lat="60.49053056" lon="5.37751944937">
		<tag k="name" v="Myrsæter" />
		<tag k="place" v="locality" />
		<tag k="ssr:stedsnr" v="566983" />
	</node>
	<node id="-433191" lat="60.4926666644" lon="5.3723083265">
		<tag k="name" v="Haukåsskogen" />
		<tag k="place" v="locality" />
		<tag k="ssr:stedsnr" v="566980" />
	</node>
	<node id="-432166" lat="60.3206444452" lon="5.47443889153">
		<tag k="historic" v="shieling" />
		<tag k="name" v="Stølane" />
		<tag k="place" v="locality" />
		<tag k="ssr:stedsnr" v="203240" />
	</node>
	<node id="-431537" lat="60.248608337" lon="5.42331111903">
		<tag k="name" v="Drogemyra" />
		<tag k="natural" v="wetland" />
		<tag k="ssr:stedsnr" v="81110" />
	</node>
	<node id="-433698" lat="60.4021666707" lon="5.63058888784">
		<tag k="name" v="Hardingamyra" />
		<tag k="natural" v="wetland" />
		<tag k="ssr:stedsnr" v="688958" />
	</node>
	<node id="-432673" lat="60.4033888926" lon="5.45400832451">
		<tag k="name" v="Maurneset" />
		<tag k="place" v="locality" />
		<tag k="ssr:stedsnr" v="446257" />
	</node>
	<node id="-433695" lat="60.4164" lon="5.52756666628">
		<tag k="name" v="Tveitane" />
		<tag k="place" v="locality" />
		<tag k="ssr:stedsnr" v="688954" />
	</node>
	<node id="-433693" lat="60.4649000023" lon="5.41073611151">
		<tag k="name" v="Høljamyra" />
		<tag k="natural" v="wetland" />
		<tag k="ssr:stedsnr" v="688946" />
	</node>
	<node id="-432155" lat="60.3722444487" lon="5.43448055168">
		<tag k="name" v="Revura" />
		<tag k="natural" v="scree" />
		<tag k="ssr:stedsnr" v="203190" />
	</node>
	<node id="-431640" lat="60.3604472186" lon="5.25535834234">
		<tag k="name" v="Storamyra" />
		<tag k="natural" v="wetland" />
		<tag k="ssr:stedsnr" v="81677" />
	</node>
	<node id="-432151" lat="60.379469441" lon="5.44429444028">
		<tag k="name" v="Skitnatæet" />
		<tag k="place" v="locality" />
		<tag k="ssr:stedsnr" v="203171" />
	</node>
	<node id="-431119" lat="60.4062500033" lon="5.63108054725">
		<tag k="historic" v="shieling" />
		<tag k="name" v="Gamlestølen" />
		<tag k="place" v="locality" />
		<tag k="ssr:stedsnr" v="385950" />
	</node>
	<node id="-431630" lat="60.3668583371" lon="5.19835000407">
		<tag k="name" v="Klemmesteinane" />
		<tag k="natural" v="stone" />
		<tag k="ssr:stedsnr" v="81565" />
	</node>
	<node id="-432652" lat="60.3820805521" lon="5.47606666581">
		<tag k="name" v="Moldamyrane" />
		<tag k="natural" v="wetland" />
		<tag k="ssr:stedsnr" v="445979" />
	</node>
	<node id="-433675" lat="60.2747333308" lon="5.3084499938">
		<tag k="name" v="Pittemyra" />
		<tag k="natural" v="wetland" />
		<tag k="ssr:stedsnr" v="688869" />
	</node>
	<node id="-434697" lat="60.2405527805" lon="5.31503056008">
		<tag k="name" v="Grua" />
		<tag k="natural" v="wetland" />
		<tag k="ssr:stedsnr" v="931822" />
	</node>
	<node id="-432136" lat="60.4161833348" lon="5.44536667501">
		<tag k="name" v="Søretræene" />
		<tag k="place" v="locality" />
		<tag k="ssr:stedsnr" v="202955" />
	</node>
	<node id="-434695" lat="60.3652999991" lon="5.43865277658">
		<tag k="name" v="Vårdalsmyra" />
		<tag k="natural" v="wetland" />
		<tag k="ssr:stedsnr" v="931789" />
	</node>
	<node id="-432646" lat="60.2296500009" lon="5.28821665883">
		<tag k="name" v="Dysjane" />
		<tag k="place" v="locality" />
		<tag k="ssr:stedsnr" v="445960" />
	</node>
	<node id="-431108" lat="60.2382999971" lon="5.37002221967">
		<tag k="name" v="Sagastokken" />
		<tag k="place" v="locality" />
		<tag k="ssr:stedsnr" v="385755" />
	</node>
	<node id="-434179" lat="60.2342611067" lon="5.30825277667">
		<tag k="name" v="Rosemyrane" />
		<tag k="natural" v="wetland" />
		<tag k="ssr:stedsnr" v="809971" />
	</node>
	<node id="-432641" lat="60.3457222204" lon="5.54192777488">
		<tag k="landuse" v="meadow" />
		<tag k="name" v="Hesjane" />
		<tag k="ssr:stedsnr" v="445933" />
	</node>
</osm>
