<?xml version="1.0" encoding="UTF-8"?>
<osm generator="osmapis" version="0.6">
	<node id="-433791" lat="60.342886674" lon="5.33677615178">
		<tag k="name" v="Gamlehaugen" />
		<tag k="ssr:stedsnr" v="734809" />
		<tag k="tourism" v="attraction" />
	</node>
	<node id="-433524" lat="60.3156416698" lon="5.35641944584">
		<tag k="alt_name" v="Birkeland" />
		<tag k="amenity" v="place_of_worship" />
		<tag k="denomination" v="lutheran" />
		<tag k="name" v="Birkeland kirke" />
		<tag k="religion" v="christian" />
		<tag k="ssr:stedsnr" v="673865" />
	</node>
	<node id="-434291" lat="60.4244194417" lon="5.29866111942">
		<tag k="alt_name" v="Biskopshavn" />
		<tag k="amenity" v="place_of_worship" />
		<tag k="denomination" v="lutheran" />
		<tag k="name" v="Biskopshavn kirke" />
		<tag k="religion" v="christian" />
		<tag k="ssr:stedsnr" v="855625" />
	</node>
	<node id="-430834" lat="60.3965666707" lon="5.32419444826">
		<tag k="name" v="Bryggen" />
		<tag k="ssr:stedsnr" v="331032" />
		<tag k="tourism" v="attraction" />
	</node>
	<node id="-430833" lat="60.3996361085" lon="5.31743610864">
		<tag k="name" v="Håkonshallen" />
		<tag k="ssr:stedsnr" v="331031" />
		<tag k="tourism" v="attraction" />
	</node>
	<node id="-434542" lat="60.4583250027" lon="5.43935555165">
		<tag k="alt_name" v="Ytre Arna" />
		<tag k="amenity" v="place_of_worship" />
		<tag k="denomination" v="lutheran" />
		<tag k="name" v="Ytre Arna kirke" />
		<tag k="religion" v="christian" />
		<tag k="ssr:stedsnr" v="916535" />
	</node>
	<node id="-430866" lat="60.4191722193" lon="5.46758332795">
		<tag k="alt_name" v="Arna" />
		<tag k="amenity" v="place_of_worship" />
		<tag k="denomination" v="lutheran" />
		<tag k="name" v="Arna kyrkje" />
		<tag k="religion" v="christian" />
		<tag k="ssr:stedsnr" v="369523" />
	</node>
	<node id="-430570" lat="60.3948583345" lon="5.32769444295">
		<tag k="amenity" v="place_of_worship" />
		<tag k="denomination" v="lutheran" />
		<tag k="name" v="Korskirken" />
		<tag k="religion" v="christian" />
		<tag k="ssr:stedsnr" v="271008" />
	</node>
	<node id="-432229" lat="60.4057083318" lon="5.32546944061">
		<tag k="alt_name" v="Sandviken;Sandviken kirke" />
		<tag k="amenity" v="place_of_worship" />
		<tag k="denomination" v="lutheran" />
		<tag k="name" v="Sandvikskirken" />
		<tag k="religion" v="christian" />
		<tag k="ssr:stedsnr" v="210033" />
	</node>
	<node id="-432228" lat="60.3867750039" lon="5.33149166461">
		<tag k="amenity" v="place_of_worship" />
		<tag k="denomination" v="lutheran" />
		<tag k="name" v="St. Jacobs kirke" />
		<tag k="religion" v="christian" />
		<tag k="ssr:stedsnr" v="210020" />
	</node>
	<node id="-431194" lat="60.399154228" lon="5.31846973764">
		<tag k="name" v="Rosenkrantztårnet" />
		<tag k="ssr:stedsnr" v="991140" />
		<tag k="tourism" v="attraction" />
	</node>
	<node id="-431192" lat="60.3530173922" lon="5.29641481032">
		<tag k="amenity" v="place_of_worship" />
		<tag k="denomination" v="lutheran" />
		<tag k="name" v="Fyllingsdalen kirke" />
		<tag k="religion" v="christian" />
		<tag k="ssr:stedsnr" v="990961" />
	</node>
	<node id="-431191" lat="60.3629726639" lon="5.35618011327">
		<tag k="amenity" v="place_of_worship" />
		<tag k="denomination" v="lutheran" />
		<tag k="name" v="Fridalen kirke" />
		<tag k="religion" v="christian" />
		<tag k="ssr:stedsnr" v="990959" />
	</node>
	<node id="-431190" lat="60.4386282404" lon="5.31740272458">
		<tag k="amenity" v="place_of_worship" />
		<tag k="denomination" v="lutheran" />
		<tag k="name" v="Eidsvåg kirke" />
		<tag k="religion" v="christian" />
		<tag k="ssr:stedsnr" v="990955" />
	</node>
	<node id="-431189" lat="60.3899651242" lon="5.33253388774">
		<tag k="name" v="Nonneseter kapell" />
		<tag k="ssr:stedsnr" v="990953" />
		<tag k="tourism" v="attraction" />
	</node>
	<node id="-431188" lat="60.3917391896" lon="5.33274020633">
		<tag k="amenity" v="place_of_worship" />
		<tag k="denomination" v="lutheran" />
		<tag k="name" v="St. Jørgen kirke" />
		<tag k="religion" v="christian" />
		<tag k="ssr:stedsnr" v="990952" />
	</node>
	<node id="-433489" lat="60.3664444421" lon="5.22727777153">
		<tag k="alt_name" v="Loddefjord" />
		<tag k="amenity" v="place_of_worship" />
		<tag k="denomination" v="lutheran" />
		<tag k="name" v="Loddefjord kirke" />
		<tag k="religion" v="christian" />
		<tag k="ssr:stedsnr" v="672710" />
	</node>
	<node id="-431696" lat="60.3592305574" lon="5.3989416715">
		<tag k="name" v="Krossen" />
		<tag k="place" v="locality" />
		<tag k="ssr:stedsnr" v="82312" />
	</node>
	<node id="-434510" lat="60.3299999978" lon="5.30141944691">
		<tag k="amenity" v="place_of_worship" />
		<tag k="denomination" v="lutheran" />
		<tag k="name" v="Bønes kirke" />
		<tag k="religion" v="christian" />
		<tag k="ssr:stedsnr" v="875814" />
	</node>
	<node id="-432457" lat="60.387213291" lon="5.27349518206">
		<tag k="alt_name" v="Nygård" />
		<tag k="amenity" v="place_of_worship" />
		<tag k="denomination" v="lutheran" />
		<tag k="name" v="Nygård kirke" />
		<tag k="religion" v="christian" />
		<tag k="ssr:stedsnr" v="430638" />
	</node>
	<node id="-433222" lat="60.3789916632" lon="5.32343610914">
		<tag k="amenity" v="place_of_worship" />
		<tag k="denomination" v="lutheran" />
		<tag k="name" v="St. Markus kirke" />
		<tag k="religion" v="christian" />
		<tag k="ssr:stedsnr" v="574021" />
	</node>
	<node id="-433986" lat="60.388850004" lon="5.32815277401">
		<tag k="amenity" v="community_centre" />
		<tag k="name" v="Grieghallen" />
		<tag k="ssr:stedsnr" v="788334" />
	</node>
	<node id="-431169" lat="60.3726093964" lon="5.33544992631">
		<tag k="amenity" v="place_of_worship" />
		<tag k="denomination" v="lutheran" />
		<tag k="name" v="Solheim kirke" />
		<tag k="religion" v="christian" />
		<tag k="ssr:stedsnr" v="990359" />
	</node>
	<node id="-431168" lat="60.340574503" lon="5.26969516774">
		<tag k="amenity" v="place_of_worship" />
		<tag k="denomination" v="lutheran" />
		<tag k="name" v="Sælen kirke" />
		<tag k="religion" v="christian" />
		<tag k="ssr:stedsnr" v="990356" />
	</node>
	<node id="-431167" lat="60.2825643836" lon="5.25297949153">
		<tag k="amenity" v="place_of_worship" />
		<tag k="denomination" v="lutheran" />
		<tag k="name" v="Ytrebygda kirke" />
		<tag k="religion" v="christian" />
		<tag k="ssr:stedsnr" v="990352" />
	</node>
	<node id="-431166" lat="60.3751102185" lon="5.35237769082">
		<tag k="amenity" v="place_of_worship" />
		<tag k="denomination" v="lutheran" />
		<tag k="name" v="Årstad kirke" />
		<tag k="religion" v="christian" />
		<tag k="ssr:stedsnr" v="990346" />
	</node>
	<node id="-431165" lat="60.4669877263" lon="5.32199532358">
		<tag k="amenity" v="place_of_worship" />
		<tag k="denomination" v="lutheran" />
		<tag k="name" v="Åsane kirke" />
		<tag k="religion" v="christian" />
		<tag k="ssr:stedsnr" v="990345" />
	</node>
	<node id="-434236" lat="60.3890555557" lon="5.32357222181">
		<tag k="amenity" v="place_of_worship" />
		<tag k="denomination" v="lutheran" />
		<tag k="name" v="St. Pauls kirke" />
		<tag k="religion" v="christian" />
		<tag k="ssr:stedsnr" v="817007" />
	</node>
	<node id="-433974" lat="60.432138891" lon="5.28813055839">
		<tag k="name" v="Skaten" />
		<tag k="place" v="locality" />
		<tag k="ssr:stedsnr" v="754546" />
	</node>
	<node id="-431177" lat="60.3846167673" lon="5.3493406072">
		<tag k="amenity" v="place_of_worship" />
		<tag k="denomination" v="lutheran" />
		<tag k="name" v="Bergen døvekirke" />
		<tag k="religion" v="christian" />
		<tag k="ssr:stedsnr" v="990731" />
	</node>
	<node id="-433713" lat="60.3855333372" lon="5.30063333575">
		<tag k="alt_name" v="Laksevåg" />
		<tag k="amenity" v="place_of_worship" />
		<tag k="denomination" v="lutheran" />
		<tag k="name" v="Laksevåg kirke" />
		<tag k="religion" v="christian" />
		<tag k="ssr:stedsnr" v="691366" />
	</node>
	<node id="-433456" lat="60.3885416623" lon="5.31934444277">
		<tag k="alt_name" v="Johannes kirke" />
		<tag k="amenity" v="place_of_worship" />
		<tag k="denomination" v="lutheran" />
		<tag k="name" v="Johanneskirken" />
		<tag k="religion" v="christian" />
		<tag k="ssr:stedsnr" v="634011" />
	</node>
	<node id="-432047" lat="60.4747902594" lon="5.32581365227">
		<tag k="amenity" v="place_of_worship" />
		<tag k="denomination" v="lutheran" />
		<tag k="name" v="Åsane gamle kirke" />
		<tag k="religion" v="christian" />
		<tag k="ssr:stedsnr" v="188484" />
	</node>
	<node id="-433454" lat="60.3939194423" lon="5.33045000048">
		<tag k="amenity" v="place_of_worship" />
		<tag k="denomination" v="lutheran" />
		<tag k="name" v="Bergen domkirke" />
		<tag k="old_name" v="Domkirken" />
		<tag k="religion" v="christian" />
		<tag k="ssr:stedsnr" v="632812" />
	</node>
	<node id="-432042" lat="60.2633328262" lon="5.34818689937">
		<tag k="alt_name" v="Fana" />
		<tag k="amenity" v="place_of_worship" />
		<tag k="denomination" v="lutheran" />
		<tag k="name" v="Fana kirke" />
		<tag k="religion" v="christian" />
		<tag k="ssr:stedsnr" v="187875" />
	</node>
	<node id="-431529" lat="60.503269016" lon="5.2623124008">
		<tag k="alt_name" v="Salhus" />
		<tag k="amenity" v="place_of_worship" />
		<tag k="denomination" v="lutheran" />
		<tag k="name" v="Salhus kirke" />
		<tag k="religion" v="christian" />
		<tag k="ssr:stedsnr" v="67502" />
	</node>
	<node id="-431778" lat="60.314927774" lon="5.27314166286">
		<tag k="alt_name" v="Søreide" />
		<tag k="amenity" v="place_of_worship" />
		<tag k="denomination" v="lutheran" />
		<tag k="name" v="Søreide kirke" />
		<tag k="religion" v="christian" />
		<tag k="ssr:stedsnr" v="127877" />
	</node>
	<node id="-434458" lat="60.3372861068" lon="5.50845555087">
		<tag k="name" v="Øvstebøtræet" />
		<tag k="place" v="locality" />
		<tag k="ssr:stedsnr" v="870814" />
	</node>
	<node id="-433455" lat="60.3970222202" lon="5.31106389375">
		<tag k="amenity" v="place_of_worship" />
		<tag k="denomination" v="lutheran" />
		<tag k="name" v="Nykirken" />
		<tag k="religion" v="christian" />
		<tag k="ssr:stedsnr" v="634004" />
	</node>
	<node id="-431125" lat="60.3989277795" lon="5.323363893">
		<tag k="amenity" v="place_of_worship" />
		<tag k="denomination" v="lutheran" />
		<tag k="name" v="Mariakirken" />
		<tag k="religion" v="christian" />
		<tag k="ssr:stedsnr" v="392001" />
	</node>
	<node id="-432274" lat="60.3528277812" lon="5.35700555974">
		<tag k="alt_name" v="Slettebakken" />
		<tag k="amenity" v="place_of_worship" />
		<tag k="denomination" v="lutheran" />
		<tag k="name" v="Slettebakken kirke" />
		<tag k="religion" v="christian" />
		<tag k="ssr:stedsnr" v="248723" />
	</node>
	<node id="-432273" lat="60.3516055553" lon="5.34495277493">
		<tag k="amenity" v="place_of_worship" />
		<tag k="denomination" v="lutheran" />
		<tag k="name" v="Storetveit kirke" />
		<tag k="religion" v="christian" />
		<tag k="ssr:stedsnr" v="248720" />
	</node>
	<node id="-430607" lat="60.3642833301" lon="5.37183610538">
		<tag k="alt_name" v="Landås" />
		<tag k="amenity" v="place_of_worship" />
		<tag k="denomination" v="lutheran" />
		<tag k="name" v="Landås kirke" />
		<tag k="religion" v="christian" />
		<tag k="ssr:stedsnr" v="308666" />
	</node>
	<node id="-431170" lat="60.3058407853" lon="5.33324318241">
		<tag k="amenity" v="place_of_worship" />
		<tag k="denomination" v="lutheran" />
		<tag k="name" v="Skjold kirke" />
		<tag k="religion" v="christian" />
		<tag k="ssr:stedsnr" v="990360" />
	</node>
	<node id="-431242" lat="60.3944416675" lon="5.34319722535">
		<tag k="name" v="Fløyen" />
		<tag k="ssr:stedsnr" v="5653" />
		<tag k="tourism" v="viewpoint" />
	</node>
	<node id="-432772" lat="60.339313328" lon="5.35326762179">
		<tag k="alt_name" v="Fantoft" />
		<tag k="amenity" v="place_of_worship" />
		<tag k="denomination" v="lutheran" />
		<tag k="name" v="Fantoft stavkirke" />
		<tag k="religion" v="christian" />
		<tag k="ssr:stedsnr" v="491803" />
	</node>
</osm>
