<?xml version="1.0" encoding="UTF-8"?>
<osm generator="osmapis" version="0.6">
	<node id="-432125" lat="60.3532885075" lon="5.44093987117">
		<tag k="name" v="Søylevatnet" />
		<tag k="natural" v="water" />
		<tag k="ssr:stedsnr" v="66699" />
	</node>
	<node id="-432123" lat="60.3601274636" lon="5.38820368802">
		<tag k="name" v="Nubbevatnet" />
		<tag k="natural" v="water" />
		<tag k="ssr:stedsnr" v="66680" />
	</node>
	<node id="-432122" lat="60.394981155" lon="5.3523803334">
		<tag k="name" v="Skomakerdiket" />
		<tag k="natural" v="water" />
		<tag k="ssr:stedsnr" v="66662" />
	</node>
	<node id="-434168" lat="60.3728138933" lon="5.19739722473">
		<tag k="name" v="Stølavatnet" />
		<tag k="natural" v="water" />
		<tag k="ssr:stedsnr" v="688034" />
		<tag k="water" v="lake" />
	</node>
	<node id="-432114" lat="60.4279444399" lon="5.31792221702">
		<tag k="name" v="Langevatnet" />
		<tag k="natural" v="water" />
		<tag k="ssr:stedsnr" v="66593" />
	</node>
	<node id="-434160" lat="60.4471650998" lon="5.32071138084">
		<tag k="name" v="Sjurastemma" />
		<tag k="natural" v="water" />
		<tag k="ssr:stedsnr" v="687380" />
		<tag k="water" v="lake" />
	</node>
	<node id="-435197" lat="60.2910472211" lon="5.24051111034">
		<tag k="name" v="Vetlaveita" />
		<tag k="ssr:stedsnr" v="930019" />
		<tag k="waterway" v="drain" />
	</node>
	<node id="-432102" lat="60.4796206218" lon="5.30601366554">
		<tag k="name" v="Ulsetstemma" />
		<tag k="natural" v="water" />
		<tag k="ssr:stedsnr" v="66406" />
	</node>
	<node id="-432096" lat="60.2909003931" lon="5.50109790652">
		<tag k="name" v="Langetjørna" />
		<tag k="natural" v="water" />
		<tag k="ssr:stedsnr" v="66259" />
	</node>
	<node id="-434139" lat="60.288544442" lon="5.30693888422">
		<tag k="name" v="Skeievatnet" />
		<tag k="natural" v="water" />
		<tag k="ssr:stedsnr" v="673830" />
	</node>
	<node id="-434137" lat="60.3643993404" lon="5.46344533953">
		<tag k="name" v="Haukelandsvatnet" />
		<tag k="natural" v="water" />
		<tag k="ssr:stedsnr" v="673694" />
		<tag k="water" v="lake" />
	</node>
	<node id="-432085" lat="60.2496000018" lon="5.25598611089">
		<tag k="name" v="Mildevatnet" />
		<tag k="natural" v="water" />
		<tag k="ssr:stedsnr" v="65678" />
	</node>
	<node id="-432120" lat="60.4042247843" lon="5.40082788408">
		<tag k="name" v="Langelivatnet" />
		<tag k="natural" v="water" />
		<tag k="ssr:stedsnr" v="66653" />
	</node>
	<node id="-433485" lat="60.2806972251" lon="5.23921388857">
		<tag k="name" v="Midtretjørna" />
		<tag k="natural" v="water" />
		<tag k="ssr:stedsnr" v="506167" />
		<tag k="water" v="pond" />
	</node>
	<node id="-434124" lat="60.3877222182" lon="5.55716944864">
		<tag k="name" v="Svartavatnet" />
		<tag k="natural" v="water" />
		<tag k="ssr:stedsnr" v="673138" />
		<tag k="water" v="lake" />
	</node>
	<node id="-434123" lat="60.4130399423" lon="5.61149560408">
		<tag k="name" v="Langatjørna" />
		<tag k="natural" v="water" />
		<tag k="ssr:stedsnr" v="673094" />
	</node>
	<node id="-434119" lat="60.4226666704" lon="5.64012499738">
		<tag k="name" v="Nordsta Kråtjørna" />
		<tag k="natural" v="water" />
		<tag k="ssr:stedsnr" v="673069" />
	</node>
	<node id="-434111" lat="60.3098166712" lon="5.46002500675">
		<tag k="name" v="Grindåsbekken" />
		<tag k="ssr:stedsnr" v="672856" />
		<tag k="waterway" v="stream" />
	</node>
	<node id="-434847" lat="60.4078777774" lon="5.58092223043">
		<tag k="name" v="Tverrelva" />
		<tag k="ssr:stedsnr" v="810927" />
		<tag k="waterway" v="stream" />
	</node>
	<node id="-432055" lat="60.4208833352" lon="5.54059165886">
		<tag k="name" v="Holebekken" />
		<tag k="ssr:stedsnr" v="21907" />
		<tag k="waterway" v="stream" />
	</node>
	<node id="-434098" lat="60.4689444456" lon="5.3955277688">
		<tag k="name" v="Hetlebakkstemma" />
		<tag k="natural" v="water" />
		<tag k="ssr:stedsnr" v="672500" />
		<tag k="water" v="lake" />
	</node>
	<node id="-435222" lat="60.4832833303" lon="5.36255555856">
		<tag k="name" v="Sponga" />
		<tag k="natural" v="cape" />
		<tag k="ssr:stedsnr" v="930991" />
	</node>
	<node id="-432038" lat="60.3637305547" lon="5.42980277203">
		<tag k="name" v="Grytebakkelva" />
		<tag k="ssr:stedsnr" v="21766" />
		<tag k="waterway" v="stream" />
	</node>
	<node id="-432026" lat="60.26619167" lon="5.40855555959">
		<tag k="name" v="Tangane" />
		<tag k="natural" v="cape" />
		<tag k="ssr:stedsnr" v="21676" />
	</node>
	<node id="-432021" lat="60.2762638848" lon="5.47094166896">
		<tag k="name" v="Tjørna" />
		<tag k="natural" v="water" />
		<tag k="ssr:stedsnr" v="21584" />
		<tag k="water" v="pond" />
	</node>
	<node id="-432013" lat="60.3988333373" lon="5.36061388162">
		<tag k="name" v="Blåmansvatnet" />
		<tag k="natural" v="water" />
		<tag k="ssr:stedsnr" v="21284" />
		<tag k="water" v="lake" />
	</node>
	<node id="-434059" lat="60.4079805554" lon="5.59483889081">
		<tag k="name" v="Orfallet" />
		<tag k="ssr:stedsnr" v="627963" />
		<tag k="waterway" v="stream" />
	</node>
	<node id="-434047" lat="60.2714127365" lon="5.35576176565">
		<tag k="name" v="Ågottjørna" />
		<tag k="natural" v="water" />
		<tag k="ssr:stedsnr" v="627877" />
	</node>
	<node id="-434036" lat="60.3398416686" lon="5.50964443668">
		<tag k="name" v="Svarpen" />
		<tag k="natural" v="waterfall" />
		<tag k="ssr:stedsnr" v="627841" />
	</node>
	<node id="-434028" lat="60.3221843011" lon="5.2873000561">
		<tag k="name" v="Skjelvika" />
		<tag k="natural" v="bay" />
		<tag k="ssr:stedsnr" v="627806" />
	</node>
	<node id="-434017" lat="60.2935742203" lon="5.28829786544">
		<tag k="name" v="Håvardstunvatnet" />
		<tag k="natural" v="water" />
		<tag k="ssr:stedsnr" v="627732" />
		<tag k="water" v="lake" />
	</node>
	<node id="-431967" lat="60.3622888884" lon="5.47386111587">
		<tag k="name" v="Våganeset" />
		<tag k="natural" v="cape" />
		<tag k="ssr:stedsnr" v="20853" />
	</node>
	<node id="-434014" lat="60.3176888868" lon="5.33265833669">
		<tag k="name" v="Skiparvika" />
		<tag k="natural" v="bay" />
		<tag k="ssr:stedsnr" v="627720" />
	</node>
	<node id="-434011" lat="60.3483722256" lon="5.26402222641">
		<tag k="name" v="Litla Krokatjørna" />
		<tag k="natural" v="water" />
		<tag k="ssr:stedsnr" v="627692" />
	</node>
	<node id="-434008" lat="60.2751944423" lon="5.3851194513">
		<tag k="name" v="Torneskjeret" />
		<tag k="place" v="islet" />
		<tag k="ssr:stedsnr" v="627666" />
	</node>
	<node id="-431953" lat="60.3271888925" lon="5.30718055108">
		<tag k="name" v="Stølsvika" />
		<tag k="natural" v="bay" />
		<tag k="ssr:stedsnr" v="20539" />
	</node>
	<node id="-433999" lat="60.2771638869" lon="5.4338583359">
		<tag k="name" v="Kvernhusbekken" />
		<tag k="ssr:stedsnr" v="627580" />
		<tag k="waterway" v="stream" />
	</node>
	<node id="-433993" lat="60.3620849851" lon="5.18944345583">
		<tag k="name" v="Vardevatnet" />
		<tag k="natural" v="water" />
		<tag k="ssr:stedsnr" v="627550" />
	</node>
	<node id="-433988" lat="60.4054111072" lon="5.34828054758">
		<tag k="name" v="Nedrediket" />
		<tag k="natural" v="water" />
		<tag k="ssr:stedsnr" v="627423" />
		<tag k="water" v="pond" />
	</node>
	<node id="-433987" lat="60.3681964586" lon="5.27298164609">
		<tag k="name" v="Nipetjørna" />
		<tag k="natural" v="water" />
		<tag k="ssr:stedsnr" v="627384" />
	</node>
	<node id="-433980" lat="60.5210361088" lon="5.31121944623">
		<tag k="name" v="Prestbrua" />
		<tag k="place" v="locality" />
		<tag k="ssr:stedsnr" v="627312" />
	</node>
	<node id="-431931" lat="60.3010888901" lon="5.42155832688">
		<tag k="name" v="Svanetangen" />
		<tag k="natural" v="cape" />
		<tag k="ssr:stedsnr" v="20265" />
	</node>
	<node id="-433460" lat="60.4090777759" lon="5.52804722416">
		<tag k="name" v="Tverrfossen" />
		<tag k="natural" v="waterfall" />
		<tag k="ssr:stedsnr" v="506096" />
	</node>
	<node id="-431923" lat="60.3925333292" lon="5.45306388929">
		<tag k="name" v="Lyngholmen" />
		<tag k="place" v="islet" />
		<tag k="ssr:stedsnr" v="20163" />
	</node>
	<node id="-431914" lat="60.4016749988" lon="5.49533055235">
		<tag k="name" v="Katlane" />
		<tag k="ssr:stedsnr" v="20079" />
		<tag k="waterway" v="stream" />
	</node>
	<node id="-433960" lat="60.3969083346" lon="5.45604999949">
		<tag k="name" v="Rosshølen" />
		<tag k="place" v="locality" />
		<tag k="ssr:stedsnr" v="627235" />
	</node>
	<node id="-433958" lat="60.4022600226" lon="5.46177452204">
		<tag k="name" v="Krokavassneset" />
		<tag k="natural" v="cape" />
		<tag k="ssr:stedsnr" v="627227" />
	</node>
	<node id="-431907" lat="60.3845194481" lon="5.24363611146">
		<tag k="name" v="Søre Skåleviksvatnet" />
		<tag k="natural" v="water" />
		<tag k="ssr:stedsnr" v="20058" />
		<tag k="water" v="lake" />
	</node>
	<node id="-431906" lat="60.3163916627" lon="5.22001111291">
		<tag k="name" v="Kvernabekken" />
		<tag k="ssr:stedsnr" v="20056" />
		<tag k="waterway" v="stream" />
	</node>
	<node id="-433953" lat="60.372050002" lon="5.39777777365">
		<tag k="name" v="Vassdalvatnet" />
		<tag k="natural" v="water" />
		<tag k="ssr:stedsnr" v="627208" />
		<tag k="water" v="lake" />
	</node>
	<node id="-433950" lat="60.375097222" lon="5.38586111058">
		<tag k="name" v="Lægdetjernet" />
		<tag k="natural" v="water" />
		<tag k="ssr:stedsnr" v="627195" />
		<tag k="water" v="pond" />
	</node>
	<node id="-433942" lat="60.3358944456" lon="5.39924722204">
		<tag k="name" v="Mundalsvika" />
		<tag k="natural" v="bay" />
		<tag k="ssr:stedsnr" v="627160" />
	</node>
	<node id="-433941" lat="60.3343416634" lon="5.3917305584">
		<tag k="name" v="Midtunelva" />
		<tag k="ssr:stedsnr" v="627161" />
		<tag k="waterway" v="river" />
	</node>
	<node id="-431886" lat="60.3042499957" lon="5.52066944778">
		<tag k="name" v="Hisbotnelva" />
		<tag k="ssr:stedsnr" v="6247" />
		<tag k="waterway" v="stream" />
	</node>
	<node id="-433932" lat="60.4267444423" lon="5.68636944099">
		<tag k="name" v="Høystakkevika" />
		<tag k="natural" v="bay" />
		<tag k="ssr:stedsnr" v="627121" />
	</node>
	<node id="-431883" lat="60.406305555" lon="5.59330277519">
		<tag k="name" v="Gulltjørna" />
		<tag k="natural" v="water" />
		<tag k="ssr:stedsnr" v="6103" />
	</node>
	<node id="-434816" lat="60.4119444414" lon="5.42551944662">
		<tag k="name" v="Deilevatnet" />
		<tag k="natural" v="water" />
		<tag k="ssr:stedsnr" v="810219" />
		<tag k="water" v="pond" />
	</node>
	<node id="-433918" lat="60.3681249998" lon="5.19019722678">
		<tag k="name" v="Alvelona" />
		<tag k="natural" v="water" />
		<tag k="ssr:stedsnr" v="627042" />
		<tag k="water" v="pond" />
	</node>
	<node id="-431864" lat="60.4015916698" lon="5.46216388671">
		<tag k="name" v="Krokavatnet" />
		<tag k="natural" v="water" />
		<tag k="ssr:stedsnr" v="5654" />
	</node>
	<node id="-433911" lat="60.4835305548" lon="5.37071666824">
		<tag k="name" v="Kråvatnet" />
		<tag k="natural" v="water" />
		<tag k="ssr:stedsnr" v="626992" />
	</node>
	<node id="-431861" lat="60.3940083529" lon="5.45123291305">
		<tag k="name" v="Tangelandsvatnet" />
		<tag k="natural" v="water" />
		<tag k="ssr:stedsnr" v="5628" />
	</node>
	<node id="-431855" lat="60.4724632926" lon="5.34022648088">
		<tag k="name" v="Liavatnet" />
		<tag k="natural" v="water" />
		<tag k="ssr:stedsnr" v="5516" />
	</node>
	<node id="-431849" lat="60.2979583313" lon="5.48961388271">
		<tag k="name" v="Fjelltveitvatnet" />
		<tag k="natural" v="water" />
		<tag k="ssr:stedsnr" v="5271" />
	</node>
	<node id="-435153" lat="60.3323388864" lon="5.53424444074">
		<tag k="name" v="Hausdalselva" />
		<tag k="ssr:stedsnr" v="916222" />
		<tag k="waterway" v="river" />
	</node>
	<node id="-431844" lat="60.3666032135" lon="5.58499294011">
		<tag k="name" v="Gullfjelltjørnane" />
		<tag k="natural" v="water" />
		<tag k="ssr:stedsnr" v="5162" />
		<tag k="water" v="lake" />
	</node>
	<node id="-432079" lat="60.3435555597" lon="5.28793334178">
		<tag k="name" v="Orrtuvatnet" />
		<tag k="natural" v="water" />
		<tag k="ssr:stedsnr" v="66803" />
	</node>
	<node id="-433872" lat="60.3556051749" lon="5.21623672555">
		<tag k="name" v="Storavatnet" />
		<tag k="natural" v="water" />
		<tag k="ssr:stedsnr" v="612707" />
		<tag k="water" v="lake" />
	</node>
	<node id="-433870" lat="60.4114694404" lon="5.38897777981">
		<tag k="name" v="Tarlebøvatnet" />
		<tag k="natural" v="water" />
		<tag k="ssr:stedsnr" v="612669" />
	</node>
	<node id="-433863" lat="60.3790638904" lon="5.57798888154">
		<tag k="name" v="Markskiltjørna" />
		<tag k="natural" v="water" />
		<tag k="ssr:stedsnr" v="612171" />
	</node>
	<node id="-433861" lat="60.4181613462" lon="5.60848607966">
		<tag k="name" v="Risnestjørnane" />
		<tag k="natural" v="water" />
		<tag k="ssr:stedsnr" v="612090" />
		<tag k="water" v="lake" />
	</node>
	<node id="-433836" lat="60.5115222241" lon="5.2944472235">
		<tag k="name" v="Tellevikelva" />
		<tag k="old_name" v="Tellevikelvi" />
		<tag k="ssr:stedsnr" v="570453" />
		<tag k="waterway" v="river" />
	</node>
	<node id="-433835" lat="60.4048805536" lon="5.62596388943">
		<tag k="name" v="Fossane" />
		<tag k="natural" v="waterfall" />
		<tag k="ssr:stedsnr" v="567956" />
	</node>
	<node id="-433834" lat="60.4178361096" lon="5.51843055359">
		<tag k="name" v="Storelva" />
		<tag k="ssr:stedsnr" v="567952" />
		<tag k="waterway" v="river" />
	</node>
	<node id="-433833" lat="60.2105361137" lon="5.27201388351">
		<tag k="name" v="Henderstjørna" />
		<tag k="natural" v="water" />
		<tag k="ssr:stedsnr" v="567941" />
		<tag k="water" v="pond" />
	</node>
	<node id="-433830" lat="60.4572055539" lon="5.39193334239">
		<tag k="name" v="Kolhusvatnet" />
		<tag k="natural" v="water" />
		<tag k="ssr:stedsnr" v="567918" />
	</node>
	<node id="-433820" lat="60.2652305534" lon="5.44216111493">
		<tag k="name" v="Straumane" />
		<tag k="ssr:stedsnr" v="567561" />
		<tag k="waterway" v="river" />
	</node>
	<node id="-433816" lat="60.4527277798" lon="5.39740276975">
		<tag k="name" v="Kalsåsvatnet" />
		<tag k="natural" v="water" />
		<tag k="ssr:stedsnr" v="567108" />
		<tag k="water" v="lake" />
	</node>
	<node id="-433815" lat="60.3994930202" lon="5.6154877584">
		<tag k="name" v="Mannaleittørna" />
		<tag k="natural" v="water" />
		<tag k="ssr:stedsnr" v="567065" />
	</node>
	<node id="-433812" lat="60.3856222209" lon="5.47542222025">
		<tag k="name" v="Setbekken" />
		<tag k="ssr:stedsnr" v="566995" />
		<tag k="waterway" v="stream" />
	</node>
	<node id="-433804" lat="60.2389111133" lon="5.31332777931">
		<tag k="name" v="Litla Munketjørna" />
		<tag k="natural" v="water" />
		<tag k="ssr:stedsnr" v="566964" />
		<tag k="water" v="pond" />
	</node>
	<node id="-433794" lat="60.2259972229" lon="5.30737499162">
		<tag k="name" v="Kvernhuselva" />
		<tag k="ssr:stedsnr" v="566914" />
		<tag k="waterway" v="stream" />
	</node>
	<node id="-433792" lat="60.214736107" lon="5.25726666319">
		<tag k="name" v="Midttjørna" />
		<tag k="natural" v="water" />
		<tag k="ssr:stedsnr" v="566909" />
		<tag k="water" v="pond" />
	</node>
	<node id="-433785" lat="60.265372225" lon="5.33471666727">
		<tag k="name" v="Åletrætjørna" />
		<tag k="natural" v="water" />
		<tag k="ssr:stedsnr" v="566865" />
	</node>
	<node id="-433781" lat="60.2714027809" lon="5.25006944373">
		<tag k="name" v="Ådlandsbekken" />
		<tag k="ssr:stedsnr" v="566856" />
		<tag k="waterway" v="stream" />
	</node>
	<node id="-433777" lat="60.4157130911" lon="5.39475313672">
		<tag k="name" v="Øvre Jordalsvatnet" />
		<tag k="natural" v="water" />
		<tag k="ssr:stedsnr" v="566818" />
		<tag k="water" v="lake" />
	</node>
	<node id="-433776" lat="60.3166741213" lon="5.28469578156">
		<tag k="name" v="Mjelkevika" />
		<tag k="natural" v="bay" />
		<tag k="ssr:stedsnr" v="566796" />
	</node>
	<node id="-433775" lat="60.3180171215" lon="5.2810500017">
		<tag k="name" v="Nordeidvika" />
		<tag k="natural" v="bay" />
		<tag k="ssr:stedsnr" v="566794" />
	</node>
	<node id="-433768" lat="60.274480552" lon="5.38417778661">
		<tag k="name" v="Selsneset" />
		<tag k="natural" v="cape" />
		<tag k="ssr:stedsnr" v="566661" />
	</node>
	<node id="-431719" lat="60.2632138857" lon="5.43909167272">
		<tag k="name" v="Bahusneset" />
		<tag k="natural" v="cape" />
		<tag k="ssr:stedsnr" v="385588" />
	</node>
	<node id="-431718" lat="60.2578722224" lon="5.38148056039">
		<tag k="name" v="Jordavatnet" />
		<tag k="natural" v="water" />
		<tag k="ssr:stedsnr" v="385587" />
		<tag k="water" v="lake" />
	</node>
	<node id="-431717" lat="60.2731416653" lon="5.41848333003">
		<tag k="name" v="Kalandsvika" />
		<tag k="natural" v="bay" />
		<tag k="ssr:stedsnr" v="385570" />
	</node>
	<node id="-433764" lat="60.2511722193" lon="5.39682500159">
		<tag k="name" v="Ulvvassvika" />
		<tag k="natural" v="bay" />
		<tag k="ssr:stedsnr" v="566624" />
	</node>
	<node id="-431715" lat="60.3506554782" lon="5.32020534769">
		<tag k="name" v="Langatjørna" />
		<tag k="natural" v="water" />
		<tag k="ssr:stedsnr" v="385565" />
	</node>
	<node id="-431714" lat="60.3233333326" lon="5.47969444115">
		<tag k="name" v="Elvakroken" />
		<tag k="ssr:stedsnr" v="385219" />
		<tag k="waterway" v="river" />
	</node>
	<node id="-431712" lat="60.3204250031" lon="5.48360000503">
		<tag k="name" v="Neset" />
		<tag k="natural" v="cape" />
		<tag k="ssr:stedsnr" v="385217" />
	</node>
	<node id="-433759" lat="60.3441100411" lon="5.20112356675">
		<tag k="name" v="Ytste Rotatjørna" />
		<tag k="natural" v="water" />
		<tag k="ssr:stedsnr" v="566551" />
	</node>
	<node id="-433755" lat="60.3328194441" lon="5.34045278022">
		<tag k="name" v="Torpevika" />
		<tag k="natural" v="bay" />
		<tag k="ssr:stedsnr" v="566527" />
	</node>
	<node id="-433752" lat="60.3301416711" lon="5.32159444838">
		<tag k="name" v="Austrevågen" />
		<tag k="natural" v="bay" />
		<tag k="ssr:stedsnr" v="566511" />
	</node>
	<node id="-433751" lat="60.3345666665" lon="5.35003055774">
		<tag k="name" v="Eikelundstjørna" />
		<tag k="natural" v="water" />
		<tag k="ssr:stedsnr" v="566509" />
	</node>
	<node id="-431687" lat="60.2534722236" lon="5.42713888042">
		<tag k="name" v="Kvernhusbekken" />
		<tag k="ssr:stedsnr" v="385125" />
		<tag k="waterway" v="stream" />
	</node>
	<node id="-433734" lat="60.4109027822" lon="5.37438334072">
		<tag k="name" v="Svarthammartjørna" />
		<tag k="natural" v="water" />
		<tag k="ssr:stedsnr" v="566258" />
		<tag k="water" v="pond" />
	</node>
	<node id="-431677" lat="60.3836416633" lon="5.55317221451">
		<tag k="name" v="Svartavassøyra" />
		<tag k="natural" v="shoal" />
		<tag k="place" v="locality" />
		<tag k="ssr:stedsnr" v="384876" />
	</node>
	<node id="-433717" lat="60.3249444418" lon="5.45043610924">
		<tag k="name" v="Litleskobekken" />
		<tag k="ssr:stedsnr" v="566169" />
		<tag k="waterway" v="stream" />
	</node>
	<node id="-431668" lat="60.355866665" lon="5.4667833251">
		<tag k="name" v="Klubbaelva" />
		<tag k="ssr:stedsnr" v="384847" />
		<tag k="waterway" v="stream" />
	</node>
	<node id="-433714" lat="60.3330436109" lon="5.35731689954">
		<tag k="name" v="Myravatnet" />
		<tag k="natural" v="water" />
		<tag k="ssr:stedsnr" v="566144" />
		<tag k="water" v="lake" />
	</node>
	<node id="-432733" lat="60.335833332" lon="5.28062221643">
		<tag k="name" v="Sælaholmen" />
		<tag k="place" v="islet" />
		<tag k="ssr:stedsnr" v="202640" />
	</node>
	<node id="-431660" lat="60.3629555572" lon="5.57867777897">
		<tag k="name" v="Gullfjellfossen" />
		<tag k="natural" v="waterfall" />
		<tag k="ssr:stedsnr" v="384814" />
	</node>
	<node id="-431659" lat="60.4562833302" lon="5.41214166249">
		<tag k="name" v="Neset" />
		<tag k="natural" v="cape" />
		<tag k="ssr:stedsnr" v="384812" />
	</node>
	<node id="-433704" lat="60.2575444444" lon="5.43955833085">
		<tag k="name" v="Vedavika" />
		<tag k="natural" v="bay" />
		<tag k="ssr:stedsnr" v="566102" />
	</node>
	<node id="-431646" lat="60.3103666641" lon="5.297288886">
		<tag k="name" v="Søvika" />
		<tag k="natural" v="bay" />
		<tag k="ssr:stedsnr" v="384695" />
	</node>
	<node id="-433692" lat="60.3779666644" lon="5.25966110968">
		<tag k="name" v="Mølleelven" />
		<tag k="ssr:stedsnr" v="566053" />
		<tag k="waterway" v="stream" />
	</node>
	<node id="-431638" lat="60.2718722196" lon="5.37430833032">
		<tag k="name" v="Klubben" />
		<tag k="natural" v="cape" />
		<tag k="ssr:stedsnr" v="384661" />
	</node>
	<node id="-431633" lat="60.3371722212" lon="5.27781944171">
		<tag k="name" v="Neset" />
		<tag k="natural" v="cape" />
		<tag k="ssr:stedsnr" v="384604" />
	</node>
	<node id="-433680" lat="60.4288027807" lon="5.29330000255">
		<tag k="name" v="Eikevikstjernet" />
		<tag k="natural" v="water" />
		<tag k="ssr:stedsnr" v="565333" />
	</node>
	<node id="-431629" lat="60.3296555562" lon="5.34486666142">
		<tag k="name" v="Hopsvannet" />
		<tag k="natural" v="water" />
		<tag k="ssr:stedsnr" v="384518" />
		<tag k="water" v="lake" />
	</node>
	<node id="-431628" lat="60.3534416642" lon="5.18071388711">
		<tag k="name" v="Eidet" />
		<tag k="natural" v="strait" />
		<tag k="ssr:stedsnr" v="384512" />
	</node>
	<node id="-433674" lat="60.2789012978" lon="5.29215341028">
		<tag k="name" v="Grimseidvatnet" />
		<tag k="natural" v="water" />
		<tag k="ssr:stedsnr" v="551928" />
	</node>
	<node id="-431620" lat="60.2984361145" lon="5.24824722967">
		<tag k="name" v="Svartatjørna" />
		<tag k="natural" v="water" />
		<tag k="ssr:stedsnr" v="384715" />
		<tag k="water" v="pond" />
	</node>
	<node id="-431619" lat="60.320449998" lon="5.31875554809">
		<tag k="name" v="Flatøyna" />
		<tag k="place" v="islet" />
		<tag k="ssr:stedsnr" v="384707" />
	</node>
	<node id="-433666" lat="60.2245472255" lon="5.31458889418">
		<tag k="name" v="Litlavatnet" />
		<tag k="natural" v="water" />
		<tag k="ssr:stedsnr" v="551842" />
	</node>
	<node id="-431617" lat="60.3350976913" lon="5.34046872289">
		<tag k="name" v="Dødehavet" />
		<tag k="natural" v="water" />
		<tag k="ssr:stedsnr" v="384501" />
	</node>
	<node id="-433659" lat="60.3238555536" lon="5.35184999542">
		<tag k="name" v="Nesttunvatnet" />
		<tag k="natural" v="water" />
		<tag k="ssr:stedsnr" v="551755" />
	</node>
	<node id="-431609" lat="60.4833555543" lon="5.33711110446">
		<tag k="name" v="Kjeneset" />
		<tag k="natural" v="cape" />
		<tag k="ssr:stedsnr" v="384345" />
	</node>
	<node id="-431601" lat="60.4575055545" lon="5.28995832556">
		<tag k="name" v="Tertnestjørna" />
		<tag k="natural" v="water" />
		<tag k="ssr:stedsnr" v="384313" />
	</node>
	<node id="-433648" lat="60.387577781" lon="5.24197776853">
		<tag k="name" v="Skåleviksvatnet" />
		<tag k="natural" v="water" />
		<tag k="ssr:stedsnr" v="551634" />
		<tag k="water" v="lake" />
	</node>
	<node id="-431597" lat="60.3061222211" lon="5.51257500122">
		<tag k="name" v="Litlalomtjørna" />
		<tag k="natural" v="water" />
		<tag k="ssr:stedsnr" v="384291" />
		<tag k="water" v="pond" />
	</node>
	<node id="-433640" lat="60.2935250009" lon="5.49882500722">
		<tag k="name" v="Skoratjørna" />
		<tag k="natural" v="water" />
		<tag k="ssr:stedsnr" v="551277" />
	</node>
	<node id="-433639" lat="60.3123557071" lon="5.54482988037">
		<tag k="name" v="Søtetjørna" />
		<tag k="natural" v="water" />
		<tag k="ssr:stedsnr" v="551254" />
	</node>
	<node id="-431583" lat="60.3180222258" lon="5.48874444727">
		<tag k="name" v="Orfallet" />
		<tag k="ssr:stedsnr" v="384229" />
		<tag k="waterway" v="rapids" />
	</node>
	<node id="-433628" lat="60.4367027821" lon="5.65716111677">
		<tag k="name" v="Verkane" />
		<tag k="natural" v="cape" />
		<tag k="ssr:stedsnr" v="551051" />
	</node>
	<node id="-431577" lat="60.3316833307" lon="5.42082221554">
		<tag k="name" v="Fjellklovevatnet" />
		<tag k="natural" v="water" />
		<tag k="ssr:stedsnr" v="384197" />
	</node>
	<node id="-431569" lat="60.3042527123" lon="5.35885797663">
		<tag k="name" v="Tranevatnet" />
		<tag k="natural" v="water" />
		<tag k="ssr:stedsnr" v="384155" />
		<tag k="water" v="lake" />
	</node>
	<node id="-431564" lat="60.343163886" lon="5.38814723048">
		<tag k="name" v="Såtetjørna" />
		<tag k="natural" v="water" />
		<tag k="ssr:stedsnr" v="384138" />
		<tag k="water" v="pond" />
	</node>
	<node id="-433594" lat="60.4131103688" lon="5.60584541514">
		<tag k="name" v="Timbertjørna" />
		<tag k="natural" v="water" />
		<tag k="ssr:stedsnr" v="506934" />
	</node>
	<node id="-431538" lat="60.2933916639" lon="5.23933055967">
		<tag k="name" v="Storaveita" />
		<tag k="ssr:stedsnr" v="384025" />
		<tag k="waterway" v="drain" />
	</node>
	<node id="-431535" lat="60.4148194435" lon="5.35767778023">
		<tag k="name" v="Rundemansdiket" />
		<tag k="natural" v="water" />
		<tag k="ssr:stedsnr" v="384010" />
		<tag k="water" v="pond" />
	</node>
	<node id="-433581" lat="60.3616000015" lon="5.46207778525">
		<tag k="name" v="Klubbaneset" />
		<tag k="natural" v="cape" />
		<tag k="ssr:stedsnr" v="506873" />
	</node>
	<node id="-431517" lat="60.2740303739" lon="5.39483219773">
		<tag k="name" v="Kalandsvatnet" />
		<tag k="natural" v="water" />
		<tag k="ssr:stedsnr" v="369894" />
		<tag k="water" v="lake" />
	</node>
	<node id="-431511" lat="60.3035805556" lon="5.22113333352">
		<tag k="name" v="Langavatnet" />
		<tag k="natural" v="water" />
		<tag k="ssr:stedsnr" v="369837" />
		<tag k="water" v="lake" />
	</node>
	<node id="-431510" lat="60.2993888883" lon="5.42119166643">
		<tag k="name" v="Stignavatnet" />
		<tag k="natural" v="water" />
		<tag k="ssr:stedsnr" v="369825" />
	</node>
	<node id="-431509" lat="60.2938750453" lon="5.27244588217">
		<tag k="name" v="Birkelandsvatnet" />
		<tag k="natural" v="water" />
		<tag k="ssr:stedsnr" v="369812" />
	</node>
	<node id="-433556" lat="60.2555055584" lon="5.33588888586">
		<tag k="name" v="Sagabekken" />
		<tag k="ssr:stedsnr" v="506753" />
		<tag k="waterway" v="stream" />
	</node>
	<node id="-433555" lat="60.2941416695" lon="5.32538611177">
		<tag k="name" v="Råtjørna" />
		<tag k="natural" v="water" />
		<tag k="ssr:stedsnr" v="506749" />
		<tag k="water" v="pond" />
	</node>
	<node id="-431505" lat="60.3347277799" lon="5.28053888026">
		<tag k="name" v="Løtveitneset" />
		<tag k="natural" v="cape" />
		<tag k="ssr:stedsnr" v="369773" />
	</node>
	<node id="-431502" lat="60.3239138854" lon="5.30428611246">
		<tag k="name" v="Bønesholmen" />
		<tag k="place" v="islet" />
		<tag k="ssr:stedsnr" v="369732" />
	</node>
	<node id="-433546" lat="60.3560972223" lon="5.29729721756">
		<tag k="name" v="Lynghaugtjørna" />
		<tag k="natural" v="water" />
		<tag k="ssr:stedsnr" v="506667" />
	</node>
	<node id="-433544" lat="60.2673250019" lon="5.40352777415">
		<tag k="name" v="Klubbane" />
		<tag k="natural" v="cape" />
		<tag k="ssr:stedsnr" v="506662" />
	</node>
	<node id="-433543" lat="60.2737833318" lon="5.41559999384">
		<tag k="name" v="Åkerneset" />
		<tag k="natural" v="cape" />
		<tag k="ssr:stedsnr" v="506657" />
	</node>
	<node id="-431493" lat="60.3646675618" lon="5.30345431697">
		<tag k="name" v="Storavatnet" />
		<tag k="natural" v="water" />
		<tag k="ssr:stedsnr" v="369649" />
	</node>
	<node id="-433535" lat="60.3347083323" lon="5.27735277844">
		<tag k="name" v="Ternaholmen" />
		<tag k="place" v="islet" />
		<tag k="ssr:stedsnr" v="506607" />
	</node>
	<node id="-431486" lat="60.3825750012" lon="5.26227160606">
		<tag k="name" v="Gravdalsvatnet" />
		<tag k="natural" v="water" />
		<tag k="ssr:stedsnr" v="369593" />
	</node>
	<node id="-431485" lat="60.4439194411" lon="5.43087500494">
		<tag k="name" v="Spåkevatnet" />
		<tag k="natural" v="water" />
		<tag k="ssr:stedsnr" v="369548" />
		<tag k="water" v="lake" />
	</node>
	<node id="-433532" lat="60.2665111096" lon="5.42248055801">
		<tag k="name" v="Ertersvågen" />
		<tag k="natural" v="bay" />
		<tag k="ssr:stedsnr" v="506587" />
	</node>
	<node id="-433531" lat="60.3532555532" lon="5.3402972148">
		<tag k="name" v="Kristianborgvannet" />
		<tag k="natural" v="water" />
		<tag k="ssr:stedsnr" v="506586" />
		<tag k="water" v="lake" />
	</node>
	<node id="-433527" lat="60.2716111129" lon="5.42093611523">
		<tag k="name" v="Vassgrasvika" />
		<tag k="natural" v="bay" />
		<tag k="ssr:stedsnr" v="506552" />
	</node>
	<node id="-431478" lat="60.3166388856" lon="5.5156722154">
		<tag k="name" v="Samdalselva" />
		<tag k="ssr:stedsnr" v="369220" />
		<tag k="waterway" v="river" />
	</node>
	<node id="-433525" lat="60.358730559" lon="5.20146110553">
		<tag k="name" v="Slettebakksvika" />
		<tag k="natural" v="bay" />
		<tag k="ssr:stedsnr" v="506534" />
	</node>
	<node id="-433524" lat="60.3444666684" lon="5.33478333797">
		<tag k="name" v="Fjøsangerbukten" />
		<tag k="natural" v="bay" />
		<tag k="ssr:stedsnr" v="506529" />
	</node>
	<node id="-433523" lat="60.3294999975" lon="5.3163055546">
		<tag k="name" v="Sørevågen" />
		<tag k="natural" v="bay" />
		<tag k="ssr:stedsnr" v="506512" />
	</node>
	<node id="-433522" lat="60.3406499968" lon="5.34988055899">
		<tag k="name" v="Hundatjørna" />
		<tag k="natural" v="water" />
		<tag k="ssr:stedsnr" v="506508" />
		<tag k="water" v="pond" />
	</node>
	<node id="-431336" lat="60.3068583352" lon="5.36878888018">
		<tag k="name" v="Storelva" />
		<tag k="ssr:stedsnr" v="324133" />
		<tag k="waterway" v="river" />
	</node>
	<node id="-433725" lat="60.322227778" lon="5.52446944866">
		<tag k="name" v="Storalomtjørna" />
		<tag k="natural" v="water" />
		<tag k="ssr:stedsnr" v="566218" />
	</node>
	<node id="-431453" lat="60.3904364823" lon="5.32836016384">
		<tag k="name" v="Smålungeren" />
		<tag k="natural" v="water" />
		<tag k="ssr:stedsnr" v="331040" />
		<tag k="water" v="lake" />
	</node>
	<node id="-434746" lat="60.3546833344" lon="5.22584445318">
		<tag k="name" v="Hetleviktjørna" />
		<tag k="natural" v="water" />
		<tag k="ssr:stedsnr" v="809581" />
	</node>
	<node id="-433497" lat="60.3165027786" lon="5.49423610739">
		<tag k="name" v="Bylitjørna" />
		<tag k="natural" v="water" />
		<tag k="ssr:stedsnr" v="506238" />
		<tag k="water" v="pond" />
	</node>
	<node id="-433490" lat="60.3953361141" lon="5.39301110779">
		<tag k="name" v="Bogstifossen" />
		<tag k="natural" v="waterfall" />
		<tag k="ssr:stedsnr" v="506205" />
	</node>
	<node id="-431437" lat="60.4612722204" lon="5.40649999192">
		<tag k="name" v="Vikane" />
		<tag k="natural" v="bay" />
		<tag k="ssr:stedsnr" v="324907" />
	</node>
	<node id="-431435" lat="60.4170444438" lon="5.57247222905">
		<tag k="name" v="Vintapparen" />
		<tag k="ssr:stedsnr" v="324899" />
		<tag k="waterway" v="stream" />
	</node>
	<node id="-433481" lat="60.3371416683" lon="5.40094444823">
		<tag k="name" v="Monsholmen" />
		<tag k="place" v="islet" />
		<tag k="ssr:stedsnr" v="506156" />
	</node>
	<node id="-433480" lat="60.3046888935" lon="5.37447778274">
		<tag k="name" v="Litletveittjørna" />
		<tag k="natural" v="water" />
		<tag k="ssr:stedsnr" v="506153" />
	</node>
	<node id="-433479" lat="60.3392944476" lon="5.38271945108">
		<tag k="name" v="Sanddalselva" />
		<tag k="ssr:stedsnr" v="506152" />
		<tag k="waterway" v="river" />
	</node>
	<node id="-433475" lat="60.3464611113" lon="5.39619166758">
		<tag k="name" v="Austlibekken" />
		<tag k="ssr:stedsnr" v="506144" />
		<tag k="waterway" v="stream" />
	</node>
	<node id="-431425" lat="60.3536999962" lon="5.48417777264">
		<tag k="name" v="Rambjørgselva" />
		<tag k="ssr:stedsnr" v="324850" />
		<tag k="waterway" v="river" />
	</node>
	<node id="-431420" lat="60.368111111" lon="5.57669722423">
		<tag k="name" v="Ålen" />
		<tag k="ssr:stedsnr" v="324834" />
		<tag k="waterway" v="stream" />
	</node>
	<node id="-433467" lat="60.4268472212" lon="5.61908333956">
		<tag k="name" v="Slåttebekken" />
		<tag k="ssr:stedsnr" v="506122" />
		<tag k="waterway" v="stream" />
	</node>
	<node id="-433463" lat="60.2592277758" lon="5.43884167191">
		<tag k="name" v="Tangane" />
		<tag k="natural" v="cape" />
		<tag k="ssr:stedsnr" v="506107" />
	</node>
	<node id="-431412" lat="60.319041665" lon="5.24213054945">
		<tag k="name" v="Storavatnet" />
		<tag k="natural" v="water" />
		<tag k="ssr:stedsnr" v="324790" />
	</node>
	<node id="-432473" lat="60.3268555597" lon="5.30890833803">
		<tag k="name" v="Fureholmen" />
		<tag k="place" v="islet" />
		<tag k="ssr:stedsnr" v="141535" />
	</node>
	<node id="-431409" lat="60.3161279982" lon="5.28735082059">
		<tag k="name" v="Naustvika" />
		<tag k="natural" v="bay" />
		<tag k="ssr:stedsnr" v="324783" />
	</node>
	<node id="-433454" lat="60.379255555" lon="5.35026111681">
		<tag k="name" v="Møllendalselven" />
		<tag k="ssr:stedsnr" v="506080" />
		<tag k="waterway" v="river" />
	</node>
	<node id="-433453" lat="60.4354055518" lon="5.39724444053">
		<tag k="name" v="Fossen" />
		<tag k="natural" v="waterfall" />
		<tag k="ssr:stedsnr" v="506079" />
	</node>
	<node id="-433449" lat="60.3885388889" lon="5.24019999626">
		<tag k="name" v="Orfallet" />
		<tag k="ssr:stedsnr" v="506063" />
		<tag k="waterway" v="stream" />
	</node>
	<node id="-431400" lat="60.3425833364" lon="5.25226388606">
		<tag k="name" v="Elvareidet" />
		<tag k="natural" v="strait" />
		<tag k="ssr:stedsnr" v="324596" />
	</node>
	<node id="-431397" lat="60.2571416663" lon="5.39538610231">
		<tag k="name" v="Ramsdalstjørna" />
		<tag k="natural" v="water" />
		<tag k="ssr:stedsnr" v="324591" />
	</node>
	<node id="-433443" lat="60.3438500031" lon="5.21451111774">
		<tag k="name" v="Rotatjørna" />
		<tag k="natural" v="water" />
		<tag k="ssr:stedsnr" v="506012" />
	</node>
	<node id="-431394" lat="60.3580944403" lon="5.31580277662">
		<tag k="name" v="Fossen" />
		<tag k="natural" v="waterfall" />
		<tag k="ssr:stedsnr" v="324552" />
	</node>
	<node id="-433439" lat="60.4933138919" lon="5.39019722247">
		<tag k="name" v="Gjesthaugtjørna" />
		<tag k="natural" v="water" />
		<tag k="ssr:stedsnr" v="505994" />
	</node>
	<node id="-433438" lat="60.4843166674" lon="5.36295278075">
		<tag k="name" v="Kipevatnet" />
		<tag k="natural" v="water" />
		<tag k="ssr:stedsnr" v="505990" />
		<tag k="water" v="lake" />
	</node>
	<node id="-431386" lat="60.3788749972" lon="5.21208610905">
		<tag k="name" v="Ørjabekken" />
		<tag k="ssr:stedsnr" v="324366" />
		<tag k="waterway" v="stream" />
	</node>
	<node id="-431372" lat="60.4016999958" lon="5.37901110336">
		<tag k="name" v="Tindebekken" />
		<tag k="ssr:stedsnr" v="324270" />
		<tag k="waterway" v="stream" />
	</node>
	<node id="-431371" lat="60.4090346942" lon="5.40075411603">
		<tag k="name" v="Norrønavatnet" />
		<tag k="natural" v="water" />
		<tag k="ssr:stedsnr" v="324268" />
		<tag k="water" v="lake" />
	</node>
	<node id="-431369" lat="60.3521305533" lon="5.38810833023">
		<tag k="name" v="Orebekken" />
		<tag k="ssr:stedsnr" v="324254" />
		<tag k="waterway" v="stream" />
	</node>
	<node id="-431368" lat="60.3578138447" lon="5.40322858415">
		<tag k="name" v="Nordre Gløvrevatnet" />
		<tag k="natural" v="water" />
		<tag k="ssr:stedsnr" v="324252" />
		<tag k="water" v="lake" />
	</node>
	<node id="-431366" lat="60.3544406627" lon="5.40261612116">
		<tag k="name" v="Søre Gløvrevatnet" />
		<tag k="natural" v="water" />
		<tag k="ssr:stedsnr" v="324249" />
		<tag k="water" v="lake" />
	</node>
	<node id="-433399" lat="60.2891444442" lon="5.43191110714">
		<tag k="name" v="Austevollselva" />
		<tag k="ssr:stedsnr" v="491936" />
		<tag k="waterway" v="river" />
	</node>
	<node id="-431347" lat="60.3875611147" lon="5.37129721429">
		<tag k="name" v="Garpeklubben" />
		<tag k="natural" v="cape" />
		<tag k="ssr:stedsnr" v="324167" />
	</node>
	<node id="-431342" lat="60.3357833356" lon="5.40046388334">
		<tag k="name" v="Fureholmen" />
		<tag k="place" v="islet" />
		<tag k="ssr:stedsnr" v="324149" />
	</node>
	<node id="-433389" lat="60.3340886672" lon="5.26415400723">
		<tag k="name" v="Sandeidet" />
		<tag k="natural" v="strait" />
		<tag k="ssr:stedsnr" v="491779" />
	</node>
	<node id="-433388" lat="60.3411818693" lon="5.44321122718">
		<tag k="name" v="Furedalsvatnet" />
		<tag k="natural" v="water" />
		<tag k="ssr:stedsnr" v="491773" />
	</node>
	<node id="-433387" lat="60.3343305595" lon="5.41171666447">
		<tag k="name" v="Langavatnet" />
		<tag k="natural" v="water" />
		<tag k="ssr:stedsnr" v="491763" />
	</node>
	<node id="-433384" lat="60.3544627134" lon="5.3536660888">
		<tag k="name" v="Tveitevannet" />
		<tag k="natural" v="water" />
		<tag k="ssr:stedsnr" v="491711" />
	</node>
	<node id="-431326" lat="60.2552638753" lon="5.43927294707">
		<tag k="name" v="Røykenesvatnet" />
		<tag k="natural" v="water" />
		<tag k="ssr:stedsnr" v="324090" />
		<tag k="water" v="lake" />
	</node>
	<node id="-433373" lat="60.4343869302" lon="5.33738976318">
		<tag k="name" v="Jordalsvatnet" />
		<tag k="natural" v="water" />
		<tag k="ssr:stedsnr" v="491625" />
		<tag k="water" v="lake" />
	</node>
	<node id="-431322" lat="60.3995111081" lon="5.48246943979">
		<tag k="name" v="Meåsbekken" />
		<tag k="ssr:stedsnr" v="324073" />
		<tag k="waterway" v="stream" />
	</node>
	<node id="-433368" lat="60.3817444279" lon="5.54379993062">
		<tag k="name" v="Kurlatjørna" />
		<tag k="natural" v="water" />
		<tag k="ssr:stedsnr" v="491120" />
	</node>
	<node id="-432475" lat="60.248994448" lon="5.37057777426">
		<tag k="name" v="Sædalstjørna" />
		<tag k="natural" v="water" />
		<tag k="ssr:stedsnr" v="141606" />
	</node>
	<node id="-433356" lat="60.3689879589" lon="5.20478705678">
		<tag k="name" v="Kiplevatnet" />
		<tag k="natural" v="water" />
		<tag k="ssr:stedsnr" v="490732" />
	</node>
	<node id="-431307" lat="60.2277444405" lon="5.31662777424">
		<tag k="name" v="Midtvadet" />
		<tag k="natural" v="strait" />
		<tag k="ssr:stedsnr" v="323901" />
	</node>
	<node id="-433354" lat="60.3458668972" lon="5.2499880639">
		<tag k="name" v="Bjørndalsvatnet" />
		<tag k="natural" v="water" />
		<tag k="ssr:stedsnr" v="490718" />
		<tag k="water" v="lake" />
	</node>
	<node id="-431301" lat="60.398577781" lon="5.35147500221">
		<tag k="name" v="Revurtjernet" />
		<tag k="natural" v="water" />
		<tag k="ssr:stedsnr" v="323400" />
		<tag k="water" v="pond" />
	</node>
	<node id="-431300" lat="60.4392116212" lon="5.2869913002">
		<tag k="name" v="Helvetesvatnet" />
		<tag k="natural" v="water" />
		<tag k="ssr:stedsnr" v="323385" />
		<tag k="water" v="lake" />
	</node>
	<node id="-433344" lat="60.4216638848" lon="5.50438888516">
		<tag k="name" v="Tveitaelva" />
		<tag k="ssr:stedsnr" v="490064" />
		<tag k="waterway" v="stream" />
	</node>
	<node id="-434719" lat="60.4781019052" lon="5.33375595225">
		<tag k="name" v="Banntjørna" />
		<tag k="natural" v="water" />
		<tag k="ssr:stedsnr" v="809329" />
	</node>
	<node id="-433322" lat="60.4119249968" lon="5.64281944805">
		<tag k="name" v="Teinelva" />
		<tag k="ssr:stedsnr" v="446964" />
		<tag k="waterway" v="river" />
	</node>
	<node id="-431268" lat="60.2705361151" lon="5.34036665982">
		<tag k="name" v="Stendavatnet" />
		<tag k="natural" v="water" />
		<tag k="ssr:stedsnr" v="309919" />
	</node>
	<node id="-431266" lat="60.2781583342" lon="5.46129166991">
		<tag k="name" v="Langøyna" />
		<tag k="place" v="island" />
		<tag k="ssr:stedsnr" v="309911" />
	</node>
	<node id="-433310" lat="60.2838239664" lon="5.27705723831">
		<tag k="name" v="Skagetjørna" />
		<tag k="natural" v="water" />
		<tag k="ssr:stedsnr" v="446755" />
	</node>
	<node id="-431261" lat="60.3213527766" lon="5.3936555484">
		<tag k="name" v="Dyngelandsvatnet" />
		<tag k="natural" v="water" />
		<tag k="ssr:stedsnr" v="309876" />
	</node>
	<node id="-431258" lat="60.3445555535" lon="5.41441944464">
		<tag k="name" v="Grimevatnet" />
		<tag k="natural" v="water" />
		<tag k="ssr:stedsnr" v="309781" />
		<tag k="water" v="lake" />
	</node>
	<node id="-435055" lat="60.3659568821" lon="5.30712927152">
		<tag k="name" v="Litlavatnet" />
		<tag k="natural" v="water" />
		<tag k="ssr:stedsnr" v="870692" />
	</node>
	<node id="-435351" lat="60.4060055557" lon="5.63832221687">
		<tag k="name" v="Kvernafossen" />
		<tag k="ssr:stedsnr" v="931962" />
		<tag k="waterway" v="rapids" />
	</node>
	<node id="-433301" lat="60.2646055534" lon="5.43751111689">
		<tag k="name" v="Eidatjørna" />
		<tag k="natural" v="water" />
		<tag k="ssr:stedsnr" v="446586" />
		<tag k="water" v="lake" />
	</node>
	<node id="-433284" lat="60.340224996" lon="5.20763055284">
		<tag k="name" v="Kattatjørna" />
		<tag k="natural" v="water" />
		<tag k="ssr:stedsnr" v="446027" />
		<tag k="water" v="pond" />
	</node>
	<node id="-433283" lat="60.3421194405" lon="5.2105527845">
		<tag k="name" v="Kvernhusvatnet" />
		<tag k="natural" v="water" />
		<tag k="ssr:stedsnr" v="446021" />
	</node>
	<node id="-435328" lat="60.3587416623" lon="5.54315555326">
		<tag k="name" v="Grovene" />
		<tag k="ssr:stedsnr" v="931858" />
		<tag k="waterway" v="stream" />
	</node>
	<node id="-431231" lat="60.2668479474" lon="5.36470640544">
		<tag k="name" v="Klokkarvatnet" />
		<tag k="natural" v="water" />
		<tag k="ssr:stedsnr" v="308883" />
		<tag k="water" v="lake" />
	</node>
	<node id="-433273" lat="60.2317833328" lon="5.30496944387">
		<tag k="name" v="Vasslibekken" />
		<tag k="ssr:stedsnr" v="445984" />
		<tag k="waterway" v="stream" />
	</node>
	<node id="-431218" lat="60.4557991168" lon="5.37480829581">
		<tag k="name" v="Kråvatnet" />
		<tag k="natural" v="water" />
		<tag k="ssr:stedsnr" v="308521" />
		<tag k="water" v="lake" />
	</node>
	<node id="-431215" lat="60.3338750039" lon="5.47170554643">
		<tag k="name" v="Gunlatjørna" />
		<tag k="natural" v="water" />
		<tag k="ssr:stedsnr" v="308167" />
	</node>
	<node id="-435306" lat="60.3061111089" lon="5.3020000066">
		<tag k="name" v="Steinsvika" />
		<tag k="natural" v="bay" />
		<tag k="ssr:stedsnr" v="931742" />
	</node>
	<node id="-435305" lat="60.3080027758" lon="5.3062805621">
		<tag k="name" v="Kannevikneset" />
		<tag k="natural" v="cape" />
		<tag k="ssr:stedsnr" v="931743" />
	</node>
	<node id="-433256" lat="60.4158111127" lon="5.53346667293">
		<tag k="name" v="Tverrelva" />
		<tag k="ssr:stedsnr" v="445910" />
		<tag k="waterway" v="stream" />
	</node>
	<node id="-435302" lat="60.2649805527" lon="5.41210277037">
		<tag k="name" v="Indre Sandvika" />
		<tag k="natural" v="bay" />
		<tag k="ssr:stedsnr" v="931703" />
	</node>
	<node id="-431205" lat="60.2990361116" lon="5.50717777535">
		<tag k="name" v="Ulvvatnet" />
		<tag k="natural" v="water" />
		<tag k="ssr:stedsnr" v="308248" />
	</node>
	<node id="-435298" lat="60.2745527755" lon="5.40036667062">
		<tag k="name" v="Sinesodden" />
		<tag k="natural" v="cape" />
		<tag k="ssr:stedsnr" v="931673" />
	</node>
	<node id="-433248" lat="60.3503555537" lon="5.42732223004">
		<tag k="name" v="Enneset" />
		<tag k="natural" v="cape" />
		<tag k="ssr:stedsnr" v="445881" />
	</node>
	<node id="-435295" lat="60.3391833359" lon="5.28095833842">
		<tag k="name" v="Øyrane" />
		<tag k="natural" v="bay" />
		<tag k="ssr:stedsnr" v="931630" />
	</node>
	<node id="-435293" lat="60.2544255273" lon="5.38741982318">
		<tag k="name" v="Hamretjørnane" />
		<tag k="natural" v="water" />
		<tag k="ssr:stedsnr" v="931618" />
		<tag k="water" v="lake" />
	</node>
	<node id="-433242" lat="60.2589694479" lon="5.27214165829">
		<tag k="name" v="Mørkevatnet" />
		<tag k="natural" v="water" />
		<tag k="ssr:stedsnr" v="445856" />
	</node>
	<node id="-431192" lat="60.460733336" lon="5.43893332464">
		<tag k="name" v="Osen" />
		<tag k="natural" v="bay" />
		<tag k="ssr:stedsnr" v="286536" />
	</node>
	<node id="-433232" lat="60.3672638928" lon="5.46045277693">
		<tag k="name" v="Kjeholmen" />
		<tag k="place" v="islet" />
		<tag k="ssr:stedsnr" v="445767" />
	</node>
	<node id="-433226" lat="60.2886944436" lon="5.3502749973">
		<tag k="name" v="Nøttveittjørna" />
		<tag k="natural" v="water" />
		<tag k="ssr:stedsnr" v="445649" />
		<tag k="water" v="pond" />
	</node>
	<node id="-433224" lat="60.254805555" lon="5.40180833662">
		<tag k="name" v="Stemmetjørna" />
		<tag k="natural" v="water" />
		<tag k="ssr:stedsnr" v="445623" />
		<tag k="water" v="pond" />
	</node>
	<node id="-435269" lat="60.2992305563" lon="5.49127778211">
		<tag k="name" v="Neset" />
		<tag k="natural" v="cape" />
		<tag k="ssr:stedsnr" v="931283" />
	</node>
	<node id="-433220" lat="60.3596827746" lon="5.18680856501">
		<tag k="name" v="Kattatjørnet" />
		<tag k="natural" v="water" />
		<tag k="ssr:stedsnr" v="445556" />
		<tag k="water" v="pond" />
	</node>
	<node id="-433219" lat="60.3277138918" lon="5.31614721734">
		<tag k="name" v="Fureodden" />
		<tag k="natural" v="cape" />
		<tag k="ssr:stedsnr" v="445542" />
	</node>
	<node id="-435259" lat="60.3969795766" lon="5.40338907763">
		<tag k="name" v="Hardbakkatjørna" />
		<tag k="natural" v="water" />
		<tag k="ssr:stedsnr" v="931202" />
	</node>
	<node id="-433208" lat="60.4841333349" lon="5.33823888241">
		<tag k="name" v="Hellevika" />
		<tag k="natural" v="bay" />
		<tag k="ssr:stedsnr" v="445328" />
	</node>
	<node id="-435253" lat="60.3979138873" lon="5.46417499403">
		<tag k="name" v="Kvernafossen" />
		<tag k="natural" v="waterfall" />
		<tag k="ssr:stedsnr" v="931176" />
	</node>
	<node id="-433202" lat="60.5245194471" lon="5.30800833061">
		<tag k="name" v="Bakarhavnen" />
		<tag k="natural" v="bay" />
		<tag k="ssr:stedsnr" v="445295" />
	</node>
	<node id="-435249" lat="60.3706194477" lon="5.46191389555">
		<tag k="name" v="Karatangen" />
		<tag k="natural" v="cape" />
		<tag k="ssr:stedsnr" v="931159" />
	</node>
	<node id="-433188" lat="60.2988222229" lon="5.38756666235">
		<tag k="name" v="Karihølen" />
		<tag k="natural" v="water" />
		<tag k="ssr:stedsnr" v="445228" />
		<tag k="water" v="pond" />
	</node>
	<node id="-435232" lat="60.4018166659" lon="5.49073610857">
		<tag k="name" v="Kvernafossen" />
		<tag k="natural" v="waterfall" />
		<tag k="ssr:stedsnr" v="931084" />
	</node>
	<node id="-435229" lat="60.3691666646" lon="5.34643611071">
		<tag k="name" v="Solheimsvatnet" />
		<tag k="natural" v="water" />
		<tag k="ssr:stedsnr" v="931071" />
		<tag k="water" v="lake" />
	</node>
	<node id="-433177" lat="60.3470277763" lon="5.41831388947">
		<tag k="name" v="Grimeneset" />
		<tag k="natural" v="cape" />
		<tag k="ssr:stedsnr" v="445157" />
	</node>
	<node id="-433174" lat="60.3733666677" lon="5.41584167242">
		<tag k="name" v="Øvstegjelsvatnet" />
		<tag k="natural" v="water" />
		<tag k="ssr:stedsnr" v="445149" />
		<tag k="water" v="lake" />
	</node>
	<node id="-433173" lat="60.3365444442" lon="5.40182500465">
		<tag k="name" v="Bøkmannsholmen" />
		<tag k="place" v="islet" />
		<tag k="ssr:stedsnr" v="445147" />
	</node>
	<node id="-435208" lat="60.4816111157" lon="5.35166111532">
		<tag k="name" v="Krosslivatnet" />
		<tag k="natural" v="water" />
		<tag k="ssr:stedsnr" v="930332" />
	</node>
	<node id="-433152" lat="60.4454499982" lon="5.45878888782">
		<tag k="name" v="Kjelåna" />
		<tag k="ssr:stedsnr" v="445073" />
		<tag k="waterway" v="stream" />
	</node>
	<node id="-433149" lat="60.3138111125" lon="5.23236111053">
		<tag k="name" v="Høgestølsbekken" />
		<tag k="ssr:stedsnr" v="445059" />
		<tag k="waterway" v="stream" />
	</node>
	<node id="-431274" lat="60.4047777734" lon="5.47233610417">
		<tag k="name" v="Storelva" />
		<tag k="ssr:stedsnr" v="310599" />
		<tag k="waterway" v="river" />
	</node>
	<node id="-434687" lat="60.3361638905" lon="5.40257500698">
		<tag k="name" v="Bruraholmen" />
		<tag k="place" v="islet" />
		<tag k="ssr:stedsnr" v="809151" />
	</node>
	<node id="-435191" lat="60.3148583348" lon="5.52236389192">
		<tag k="name" v="Tømmerdalsfossen" />
		<tag k="natural" v="waterfall" />
		<tag k="ssr:stedsnr" v="931258" />
	</node>
	<node id="-433140" lat="60.4290603517" lon="5.46661111929">
		<tag k="name" v="Krokavika" />
		<tag k="natural" v="bay" />
		<tag k="ssr:stedsnr" v="445013" />
	</node>
	<node id="-433137" lat="60.4524555577" lon="5.31962221306">
		<tag k="name" v="Griggastemma" />
		<tag k="natural" v="water" />
		<tag k="ssr:stedsnr" v="437408" />
		<tag k="water" v="lake" />
	</node>
	<node id="-433135" lat="60.3084496928" lon="5.50845123727">
		<tag k="name" v="Samdalsvatnet" />
		<tag k="natural" v="water" />
		<tag k="ssr:stedsnr" v="431269" />
	</node>
	<node id="-433130" lat="60.2690527774" lon="5.26369721949">
		<tag k="name" v="Drageidet" />
		<tag k="natural" v="strait" />
		<tag k="ssr:stedsnr" v="430911" />
	</node>
	<node id="-433112" lat="60.3724635288" lon="5.25508702156">
		<tag k="name" v="Liavatnet" />
		<tag k="natural" v="water" />
		<tag k="ssr:stedsnr" v="430712" />
		<tag k="water" v="lake" />
	</node>
	<node id="-433105" lat="60.4120833324" lon="5.34078611328">
		<tag k="name" v="Storevatnet" />
		<tag k="natural" v="water" />
		<tag k="ssr:stedsnr" v="430598" />
	</node>
	<node id="-435146" lat="60.3084083353" lon="5.43049444087">
		<tag k="name" v="Lonane" />
		<tag k="ssr:stedsnr" v="915834" />
		<tag k="waterway" v="river" />
	</node>
	<node id="-433095" lat="60.4522861109" lon="5.30367222978">
		<tag k="name" v="Åstveitvatnet" />
		<tag k="natural" v="water" />
		<tag k="ssr:stedsnr" v="430490" />
		<tag k="water" v="lake" />
	</node>
	<node id="-433091" lat="60.4813479034" lon="5.33888658368">
		<tag k="name" v="Langavatnet" />
		<tag k="natural" v="water" />
		<tag k="ssr:stedsnr" v="430378" />
		<tag k="water" v="lake" />
	</node>
	<node id="-433090" lat="60.485456823" lon="5.35618376775">
		<tag k="name" v="Haukåsvatnet" />
		<tag k="natural" v="water" />
		<tag k="ssr:stedsnr" v="430376" />
		<tag k="water" v="lake" />
	</node>
	<node id="-435134" lat="60.4337892348" lon="5.65112492753">
		<tag k="name" v="Skulstadvatnet" />
		<tag k="natural" v="water" />
		<tag k="ssr:stedsnr" v="915051" />
		<tag k="water" v="lake" />
	</node>
	<node id="-435131" lat="60.3511499957" lon="5.52196666239">
		<tag k="name" v="Dyrdalsvatnet" />
		<tag k="natural" v="water" />
		<tag k="ssr:stedsnr" v="915182" />
		<tag k="water" v="lake" />
	</node>
	<node id="-435130" lat="60.3508833361" lon="5.57252500839">
		<tag k="name" v="Tverrelva" />
		<tag k="ssr:stedsnr" v="915180" />
		<tag k="waterway" v="river" />
	</node>
	<node id="-435128" lat="60.4043361091" lon="5.3347472137">
		<tag k="name" v="Mulelven" />
		<tag k="ssr:stedsnr" v="878035" />
		<tag k="waterway" v="river" />
	</node>
	<node id="-434332" lat="60.4604749969" lon="5.28631389134">
		<tag k="name" v="Tertnesstemma" />
		<tag k="natural" v="water" />
		<tag k="ssr:stedsnr" v="692985" />
		<tag k="water" v="lake" />
	</node>
	<node id="-435110" lat="60.4216138873" lon="5.49001388042">
		<tag k="name" v="Bruggaren" />
		<tag k="place" v="locality" />
		<tag k="ssr:stedsnr" v="870964" />
	</node>
	<node id="-433056" lat="60.4406527761" lon="5.66942778642">
		<tag k="name" v="Månabekken" />
		<tag k="ssr:stedsnr" v="264065" />
		<tag k="waterway" v="stream" />
	</node>
	<node id="-435103" lat="60.3388138867" lon="5.56646110444">
		<tag k="name" v="Årøyane" />
		<tag k="natural" v="cape" />
		<tag k="ssr:stedsnr" v="870929" />
	</node>
	<node id="-435090" lat="60.3522194418" lon="5.43058333234">
		<tag k="name" v="Djupevika" />
		<tag k="natural" v="bay" />
		<tag k="ssr:stedsnr" v="870862" />
	</node>
	<node id="-433038" lat="60.2299166657" lon="5.34767500641">
		<tag k="name" v="Bekkjarviktjørna" />
		<tag k="natural" v="water" />
		<tag k="ssr:stedsnr" v="263911" />
		<tag k="water" v="pond" />
	</node>
	<node id="-435085" lat="60.3573833348" lon="5.49603332565">
		<tag k="name" v="Liatjørna" />
		<tag k="natural" v="water" />
		<tag k="ssr:stedsnr" v="870843" />
		<tag k="water" v="pond" />
	</node>
	<node id="-435073" lat="60.3336472206" lon="5.4862833302">
		<tag k="name" v="Sandgotebekken" />
		<tag k="ssr:stedsnr" v="870812" />
		<tag k="waterway" v="stream" />
	</node>
	<node id="-433023" lat="60.262802774" lon="5.2590055649">
		<tag k="name" v="Kolavatnet" />
		<tag k="natural" v="water" />
		<tag k="ssr:stedsnr" v="263827" />
	</node>
	<node id="-433021" lat="60.3201222181" lon="5.28170000907">
		<tag k="name" v="Hestaklubben" />
		<tag k="natural" v="cape" />
		<tag k="ssr:stedsnr" v="263800" />
	</node>
	<node id="-435067" lat="60.2597111128" lon="5.34367221372">
		<tag k="name" v="Fanaelva" />
		<tag k="ssr:stedsnr" v="870761" />
		<tag k="waterway" v="river" />
	</node>
	<node id="-433018" lat="60.3199995109" lon="5.29133452929">
		<tag k="name" v="Kyrkjetangen" />
		<tag k="natural" v="cape" />
		<tag k="ssr:stedsnr" v="263782" />
	</node>
	<node id="-433016" lat="60.2965944462" lon="5.29704722942">
		<tag k="name" v="Steinsvikvatnet" />
		<tag k="natural" v="water" />
		<tag k="ssr:stedsnr" v="263746" />
	</node>
	<node id="-433012" lat="60.353222356" lon="5.28278865822">
		<tag k="name" v="Lauvåstjørna" />
		<tag k="natural" v="water" />
		<tag k="ssr:stedsnr" v="263693" />
	</node>
	<node id="-433011" lat="60.2709472263" lon="5.38101388802">
		<tag k="name" v="Mjelkevika" />
		<tag k="natural" v="bay" />
		<tag k="ssr:stedsnr" v="263679" />
	</node>
	<node id="-435058" lat="60.3245305564" lon="5.32814721788">
		<tag k="name" v="Marmorsundet" />
		<tag k="natural" v="strait" />
		<tag k="ssr:stedsnr" v="870702" />
	</node>
	<node id="-433008" lat="60.3405527747" lon="5.25479444418">
		<tag k="name" v="Fureneset" />
		<tag k="natural" v="cape" />
		<tag k="ssr:stedsnr" v="263639" />
	</node>
	<node id="-433007" lat="60.3411113691" lon="5.25725636601">
		<tag k="name" v="Gjerdsvika" />
		<tag k="natural" v="bay" />
		<tag k="ssr:stedsnr" v="263635" />
	</node>
	<node id="-435054" lat="60.2639972181" lon="5.4039194424">
		<tag k="name" v="Kismulelva" />
		<tag k="ssr:stedsnr" v="870683" />
		<tag k="waterway" v="stream" />
	</node>
	<node id="-435051" lat="60.2704416678" lon="5.36989444605">
		<tag k="name" v="Hamretjørna" />
		<tag k="natural" v="water" />
		<tag k="ssr:stedsnr" v="870657" />
	</node>
	<node id="-435050" lat="60.276908335" lon="5.41199445022">
		<tag k="name" v="Søraneset" />
		<tag k="natural" v="cape" />
		<tag k="ssr:stedsnr" v="870655" />
	</node>
	<node id="-432999" lat="60.3559833315" lon="5.18196666891">
		<tag k="name" v="Tjørnet" />
		<tag k="natural" v="water" />
		<tag k="ssr:stedsnr" v="263550" />
		<tag k="water" v="pond" />
	</node>
	<node id="-432997" lat="60.3285027773" lon="5.27683055298">
		<tag k="name" v="Røyseneset" />
		<tag k="natural" v="cape" />
		<tag k="ssr:stedsnr" v="263540" />
	</node>
	<node id="-432995" lat="60.240897226" lon="5.2916555532">
		<tag k="name" v="Vorholmen" />
		<tag k="place" v="islet" />
		<tag k="ssr:stedsnr" v="263392" />
	</node>
	<node id="-434367" lat="60.3550555535" lon="5.19793610637">
		<tag k="name" v="Småvatnet" />
		<tag k="natural" v="water" />
		<tag k="ssr:stedsnr" v="733717" />
		<tag k="water" v="lake" />
	</node>
	<node id="-435038" lat="60.3364888896" lon="5.33711389283">
		<tag k="name" v="Paradisbukten" />
		<tag k="natural" v="bay" />
		<tag k="ssr:stedsnr" v="870530" />
	</node>
	<node id="-432982" lat="60.3131750028" lon="5.49049444834">
		<tag k="name" v="Frotveitelva" />
		<tag k="ssr:stedsnr" v="263275" />
		<tag k="waterway" v="river" />
	</node>
	<node id="-432977" lat="60.3018305598" lon="5.41353055386">
		<tag k="name" v="Digervadet" />
		<tag k="natural" v="shoal" />
		<tag k="place" v="locality" />
		<tag k="ssr:stedsnr" v="263253" />
	</node>
	<node id="-435018" lat="60.3014805599" lon="5.50350000769">
		<tag k="name" v="Sagelva" />
		<tag k="ssr:stedsnr" v="870297" />
		<tag k="waterway" v="river" />
	</node>
	<node id="-432961" lat="60.3466222207" lon="5.42353888263">
		<tag k="name" v="Kattavika" />
		<tag k="natural" v="bay" />
		<tag k="ssr:stedsnr" v="263172" />
	</node>
	<node id="-432955" lat="60.3806583291" lon="5.44110000397">
		<tag k="name" v="Fosselva" />
		<tag k="ssr:stedsnr" v="263155" />
		<tag k="waterway" v="stream" />
	</node>
	<node id="-434998" lat="60.3288583304" lon="5.45845555075">
		<tag k="name" v="Slåttelifossen" />
		<tag k="natural" v="waterfall" />
		<tag k="ssr:stedsnr" v="870208" />
	</node>
	<node id="-434995" lat="60.3872222243" lon="5.42427500815">
		<tag k="name" v="Søre Bjørnselva" />
		<tag k="ssr:stedsnr" v="870199" />
		<tag k="waterway" v="stream" />
	</node>
	<node id="-432946" lat="60.3120138923" lon="5.3962166747">
		<tag k="name" v="Holmen" />
		<tag k="place" v="islet" />
		<tag k="ssr:stedsnr" v="263127" />
	</node>
	<node id="-434988" lat="60.2819972216" lon="5.23715556453">
		<tag k="name" v="Ljosartjørna" />
		<tag k="natural" v="water" />
		<tag k="ssr:stedsnr" v="870168" />
		<tag k="water" v="pond" />
	</node>
	<node id="-432939" lat="60.3962250038" lon="5.47603332559">
		<tag k="name" v="Kolbakkane" />
		<tag k="ssr:stedsnr" v="263106" />
		<tag k="waterway" v="stream" />
	</node>
	<node id="-432938" lat="60.405993727" lon="5.64306565353">
		<tag k="name" v="Øyjordsvatnet" />
		<tag k="natural" v="water" />
		<tag k="ssr:stedsnr" v="263095" />
		<tag k="water" v="lake" />
	</node>
	<node id="-434985" lat="60.3719055522" lon="5.45873889255">
		<tag k="name" v="Lonaneset" />
		<tag k="natural" v="cape" />
		<tag k="ssr:stedsnr" v="870154" />
	</node>
	<node id="-434984" lat="60.4504833332" lon="5.40820555578">
		<tag k="name" v="Beitelsvatnet" />
		<tag k="natural" v="water" />
		<tag k="ssr:stedsnr" v="870115" />
		<tag k="water" v="lake" />
	</node>
	<node id="-432934" lat="60.3786354715" lon="5.26789484324">
		<tag k="name" v="Lyngbøvatnet" />
		<tag k="natural" v="water" />
		<tag k="ssr:stedsnr" v="263076" />
		<tag k="water" v="lake" />
	</node>
	<node id="-432926" lat="60.3027166664" lon="5.22779443799">
		<tag k="name" v="Tverråna" />
		<tag k="ssr:stedsnr" v="263020" />
		<tag k="waterway" v="stream" />
	</node>
	<node id="-432924" lat="60.2981936612" lon="5.23619579582">
		<tag k="name" v="Træsvatnet" />
		<tag k="natural" v="water" />
		<tag k="ssr:stedsnr" v="263015" />
	</node>
	<node id="-434969" lat="60.3123611155" lon="5.21283889479">
		<tag k="name" v="Steinfjellstjørna" />
		<tag k="natural" v="water" />
		<tag k="ssr:stedsnr" v="870071" />
	</node>
	<node id="-434966" lat="60.3047061601" lon="5.23359005658">
		<tag k="name" v="Auretjørna" />
		<tag k="natural" v="water" />
		<tag k="ssr:stedsnr" v="870063" />
	</node>
	<node id="-434963" lat="60.4304721727" lon="5.35414989711">
		<tag k="name" v="Indrevatnet" />
		<tag k="natural" v="water" />
		<tag k="ssr:stedsnr" v="870049" />
		<tag k="water" v="lake" />
	</node>
	<node id="-434962" lat="60.4288709108" lon="5.38280923168">
		<tag k="name" v="Ulskebjørnstemma" />
		<tag k="natural" v="water" />
		<tag k="ssr:stedsnr" v="870046" />
	</node>
	<node id="-435331" lat="60.2712944443" lon="5.34947499469">
		<tag k="name" v="Titlestadtjørna" />
		<tag k="natural" v="water" />
		<tag k="ssr:stedsnr" v="931880" />
	</node>
	<node id="-434958" lat="60.391133334" lon="5.23764999516">
		<tag k="name" v="Fossen" />
		<tag k="natural" v="waterfall" />
		<tag k="ssr:stedsnr" v="870027" />
	</node>
	<node id="-434957" lat="60.2849611158" lon="5.21741389678">
		<tag k="name" v="Gåstjørna" />
		<tag k="natural" v="water" />
		<tag k="ssr:stedsnr" v="870026" />
		<tag k="water" v="pond" />
	</node>
	<node id="-434956" lat="60.3434861114" lon="5.20519166997">
		<tag k="name" v="Inste Rotatjørna" />
		<tag k="natural" v="water" />
		<tag k="ssr:stedsnr" v="870012" />
	</node>
	<node id="-432905" lat="60.2975805523" lon="5.33346389076">
		<tag k="name" v="Apeltunvatnet" />
		<tag k="natural" v="water" />
		<tag k="ssr:stedsnr" v="248860" />
	</node>
	<node id="-432900" lat="60.3386810079" lon="5.25574274063">
		<tag k="name" v="Gjeddevatnet" />
		<tag k="natural" v="water" />
		<tag k="ssr:stedsnr" v="248826" />
		<tag k="water" v="lake" />
	</node>
	<node id="-432897" lat="60.3768777762" lon="5.39857499985">
		<tag k="name" v="Skomakarvatnet" />
		<tag k="natural" v="water" />
		<tag k="ssr:stedsnr" v="248744" />
	</node>
	<node id="-432896" lat="60.3650938145" lon="5.26127088064">
		<tag k="name" v="Tennebekktjørna" />
		<tag k="natural" v="water" />
		<tag k="ssr:stedsnr" v="248734" />
	</node>
	<node id="-432895" lat="60.3524480479" lon="5.26732399434">
		<tag k="name" v="Stora Krokatjørna" />
		<tag k="natural" v="water" />
		<tag k="ssr:stedsnr" v="248725" />
	</node>
	<node id="-432892" lat="60.3671250025" lon="5.46520000371">
		<tag k="name" v="Langeneset" />
		<tag k="natural" v="cape" />
		<tag k="ssr:stedsnr" v="248707" />
	</node>
	<node id="-435327" lat="60.4610499958" lon="5.41780833254">
		<tag k="name" v="Gulsbekken" />
		<tag k="ssr:stedsnr" v="931859" />
		<tag k="waterway" v="stream" />
	</node>
	<node id="-434933" lat="60.2777361102" lon="5.40223610553">
		<tag k="name" v="Sineset" />
		<tag k="natural" v="cape" />
		<tag k="ssr:stedsnr" v="855931" />
	</node>
	<node id="-434928" lat="60.3142250004" lon="5.39861112">
		<tag k="name" v="Myrdalsvatnet" />
		<tag k="natural" v="water" />
		<tag k="ssr:stedsnr" v="855872" />
		<tag k="water" v="lake" />
	</node>
	<node id="-432876" lat="60.3438427207" lon="5.59071801036">
		<tag k="name" v="Litla Brekkevatnet" />
		<tag k="natural" v="water" />
		<tag k="ssr:stedsnr" v="248191" />
	</node>
	<node id="-432841" lat="60.3854499971" lon="5.52646945106">
		<tag k="name" v="Dalelva" />
		<tag k="ssr:stedsnr" v="203993" />
		<tag k="waterway" v="stream" />
	</node>
	<node id="-432832" lat="60.2803555552" lon="5.24475276963">
		<tag k="name" v="Vestratjørna" />
		<tag k="natural" v="water" />
		<tag k="ssr:stedsnr" v="203927" />
	</node>
	<node id="-434871" lat="60.4224194407" lon="5.62983332557">
		<tag k="name" v="Manndalselva" />
		<tag k="ssr:stedsnr" v="870128" />
		<tag k="waterway" v="river" />
	</node>
	<node id="-434870" lat="60.4195527747" lon="5.62301110395">
		<tag k="name" v="Skredbekken" />
		<tag k="ssr:stedsnr" v="870126" />
		<tag k="waterway" v="river" />
	</node>
	<node id="-432810" lat="60.3001361105" lon="5.34666666557">
		<tag k="name" v="Iglavatnet" />
		<tag k="natural" v="water" />
		<tag k="ssr:stedsnr" v="203748" />
	</node>
	<node id="-434972" lat="60.4049277767" lon="5.63557778012">
		<tag k="name" v="Gamlestølstjørna" />
		<tag k="natural" v="water" />
		<tag k="ssr:stedsnr" v="870079" />
	</node>
	<node id="-432804" lat="60.3100527737" lon="5.29105556053">
		<tag k="name" v="Søvikatjørna" />
		<tag k="natural" v="water" />
		<tag k="ssr:stedsnr" v="203710" />
	</node>
	<node id="-434848" lat="60.4082805578" lon="5.6067749971">
		<tag k="name" v="Risnestjørna" />
		<tag k="natural" v="water" />
		<tag k="ssr:stedsnr" v="810956" />
	</node>
	<node id="-432799" lat="60.3583999983" lon="5.25403333853">
		<tag k="name" v="Svartatjørna" />
		<tag k="natural" v="water" />
		<tag k="ssr:stedsnr" v="203681" />
	</node>
	<node id="-432798" lat="60.2680820944" lon="5.3669976052">
		<tag k="name" v="Ånes" />
		<tag k="natural" v="cape" />
		<tag k="ssr:stedsnr" v="203679" />
	</node>
	<node id="-432797" lat="60.2721638864" lon="5.39098332495">
		<tag k="name" v="Selsklubben" />
		<tag k="natural" v="cape" />
		<tag k="ssr:stedsnr" v="203669" />
	</node>
	<node id="-432796" lat="60.2713583316" lon="5.37551389102">
		<tag k="name" v="Bruarneset" />
		<tag k="natural" v="cape" />
		<tag k="ssr:stedsnr" v="203667" />
	</node>
	<node id="-434842" lat="60.4213277798" lon="5.58282778035">
		<tag k="name" v="Kolgrova" />
		<tag k="ssr:stedsnr" v="810904" />
		<tag k="waterway" v="stream" />
	</node>
	<node id="-432793" lat="60.3615702554" lon="5.30920014236">
		<tag k="name" v="Svartatjørna" />
		<tag k="natural" v="water" />
		<tag k="ssr:stedsnr" v="203577" />
	</node>
	<node id="-434837" lat="60.2478777792" lon="5.26355832579">
		<tag k="name" v="Vågelva" />
		<tag k="ssr:stedsnr" v="810784" />
		<tag k="waterway" v="stream" />
	</node>
	<node id="-432783" lat="60.3888166699" lon="5.424008334">
		<tag k="name" v="Nordre Bjørnselva" />
		<tag k="ssr:stedsnr" v="203221" />
		<tag k="waterway" v="stream" />
	</node>
	<node id="-434829" lat="60.2806722184" lon="5.46497222629">
		<tag k="name" v="Holmen" />
		<tag k="place" v="islet" />
		<tag k="ssr:stedsnr" v="810693" />
	</node>
	<node id="-434825" lat="60.2625194434" lon="5.44006110435">
		<tag k="name" v="Bahusvatnet" />
		<tag k="natural" v="water" />
		<tag k="ssr:stedsnr" v="810580" />
		<tag k="water" v="lake" />
	</node>
	<node id="-434823" lat="60.2730805548" lon="5.42228054816">
		<tag k="name" v="Tangen" />
		<tag k="natural" v="cape" />
		<tag k="ssr:stedsnr" v="810569" />
	</node>
	<node id="-432768" lat="60.2866138869" lon="5.4650277771">
		<tag k="name" v="Fossabekken" />
		<tag k="ssr:stedsnr" v="203326" />
		<tag k="waterway" v="stream" />
	</node>
	<node id="-432766" lat="60.4152972205" lon="5.64226943627">
		<tag k="name" v="Lonane" />
		<tag k="natural" v="water" />
		<tag k="ssr:stedsnr" v="203006" />
		<tag k="water" v="lake" />
	</node>
	<node id="-434808" lat="60.2563361127" lon="5.42148332812">
		<tag k="name" v="Gamletjørna" />
		<tag k="natural" v="water" />
		<tag k="ssr:stedsnr" v="810123" />
		<tag k="water" v="pond" />
	</node>
	<node id="-434802" lat="60.4141444432" lon="5.61273889243">
		<tag k="name" v="Rundtjørna" />
		<tag k="natural" v="water" />
		<tag k="ssr:stedsnr" v="810003" />
	</node>
	<node id="-432745" lat="60.3509194412" lon="5.43473889419">
		<tag k="name" v="Langaneset" />
		<tag k="natural" v="cape" />
		<tag k="ssr:stedsnr" v="202870" />
	</node>
	<node id="-432744" lat="60.3493749982" lon="5.44206944269">
		<tag k="name" v="Furdalselva" />
		<tag k="ssr:stedsnr" v="202864" />
		<tag k="waterway" v="river" />
	</node>
	<node id="-432736" lat="60.3380555565" lon="5.25150554899">
		<tag k="name" v="Botnavika" />
		<tag k="natural" v="bay" />
		<tag k="ssr:stedsnr" v="202656" />
	</node>
	<node id="-434783" lat="60.4764555549" lon="5.38415833518">
		<tag k="name" v="Birkelandsstemma" />
		<tag k="natural" v="water" />
		<tag k="ssr:stedsnr" v="809902" />
	</node>
	<node id="-435301" lat="60.2642250027" lon="5.38648334018">
		<tag k="name" v="Tverrbekken" />
		<tag k="ssr:stedsnr" v="931698" />
		<tag k="waterway" v="stream" />
	</node>
	<node id="-434778" lat="60.350766666" lon="5.44599167306">
		<tag k="name" v="Risabekken" />
		<tag k="ssr:stedsnr" v="809864" />
		<tag k="waterway" v="stream" />
	</node>
	<node id="-434777" lat="60.3640194423" lon="5.47346944843">
		<tag k="name" v="Unnelandsneset" />
		<tag k="natural" v="cape" />
		<tag k="ssr:stedsnr" v="809856" />
	</node>
	<node id="-434775" lat="60.3557666648" lon="5.47439444562">
		<tag k="name" v="Stallafossen" />
		<tag k="natural" v="waterfall" />
		<tag k="ssr:stedsnr" v="809852" />
	</node>
	<node id="-432227" lat="60.4982722255" lon="5.27167500047">
		<tag k="name" v="Åreina" />
		<tag k="natural" v="water" />
		<tag k="ssr:stedsnr" v="81291" />
	</node>
	<node id="-432716" lat="60.2425555585" lon="5.38425278392">
		<tag k="name" v="Nilsatjørna" />
		<tag k="natural" v="water" />
		<tag k="ssr:stedsnr" v="203132" />
		<tag k="water" v="pond" />
	</node>
	<node id="-434763" lat="60.3121694488" lon="5.30188055439">
		<tag k="name" v="Ternholmen" />
		<tag k="place" v="islet" />
		<tag k="ssr:stedsnr" v="809728" />
	</node>
	<node id="-434761" lat="60.3169583306" lon="5.30117222758">
		<tag k="name" v="Søviksundet" />
		<tag k="natural" v="strait" />
		<tag k="ssr:stedsnr" v="809717" />
	</node>
	<node id="-434757" lat="60.2784527822" lon="5.40854999999">
		<tag k="name" v="Sandholmen" />
		<tag k="place" v="islet" />
		<tag k="ssr:stedsnr" v="809670" />
	</node>
	<node id="-434756" lat="60.2767694471" lon="5.40390276997">
		<tag k="name" v="Mørkevågen" />
		<tag k="natural" v="bay" />
		<tag k="ssr:stedsnr" v="809669" />
	</node>
	<node id="-434752" lat="60.3342805545" lon="5.26874444472">
		<tag k="name" v="Skitnakastet" />
		<tag k="natural" v="bay" />
		<tag k="ssr:stedsnr" v="809645" />
	</node>
	<node id="-434751" lat="60.3369888861" lon="5.27416667049">
		<tag k="name" v="Jomfruneset" />
		<tag k="natural" v="cape" />
		<tag k="ssr:stedsnr" v="809644" />
	</node>
	<node id="-432698" lat="60.401963892" lon="5.51070834161">
		<tag k="name" v="Tjørna" />
		<tag k="natural" v="water" />
		<tag k="ssr:stedsnr" v="202082" />
		<tag k="water" v="pond" />
	</node>
	<node id="-434743" lat="60.3664666665" lon="5.20450278467">
		<tag k="name" v="Litle Kiplevatnet" />
		<tag k="natural" v="water" />
		<tag k="ssr:stedsnr" v="809569" />
	</node>
	<node id="-434742" lat="60.3679583359" lon="5.22469167264">
		<tag k="name" v="Klasatjørna" />
		<tag k="natural" v="water" />
		<tag k="ssr:stedsnr" v="809566" />
		<tag k="water" v="pond" />
	</node>
	<node id="-434738" lat="60.3269083365" lon="5.31833611405">
		<tag k="name" v="Austreneset" />
		<tag k="natural" v="cape" />
		<tag k="ssr:stedsnr" v="809546" />
	</node>
	<node id="-434737" lat="60.3282333301" lon="5.31595556115">
		<tag k="name" v="Midtneset" />
		<tag k="natural" v="cape" />
		<tag k="ssr:stedsnr" v="809545" />
	</node>
	<node id="-432677" lat="60.3160027765" lon="5.50544444141">
		<tag k="name" v="Hålandsbekken" />
		<tag k="ssr:stedsnr" v="202231" />
		<tag k="waterway" v="stream" />
	</node>
	<node id="-432671" lat="60.3875445997" lon="5.3677465686">
		<tag k="name" v="Svartediket" />
		<tag k="natural" v="water" />
		<tag k="ssr:stedsnr" v="188678" />
		<tag k="water" v="lake" />
	</node>
	<node id="-434717" lat="60.4746972254" lon="5.34762777424">
		<tag k="name" v="Lontjørna" />
		<tag k="natural" v="water" />
		<tag k="ssr:stedsnr" v="809310" />
		<tag k="water" v="pond" />
	</node>
	<node id="-434716" lat="60.4698222195" lon="5.33053611086">
		<tag k="name" v="Forvatnet" />
		<tag k="natural" v="water" />
		<tag k="ssr:stedsnr" v="809307" />
		<tag k="water" v="lake" />
	</node>
	<node id="-434712" lat="60.2849249988" lon="5.39236943672">
		<tag k="name" v="Haggardsvika" />
		<tag k="natural" v="bay" />
		<tag k="ssr:stedsnr" v="809289" />
	</node>
	<node id="-434711" lat="60.2833083337" lon="5.39388333352">
		<tag k="name" v="Tangen" />
		<tag k="natural" v="cape" />
		<tag k="ssr:stedsnr" v="809287" />
	</node>
	<node id="-434710" lat="60.2856083333" lon="5.38734721669">
		<tag k="name" v="Grasskjeret" />
		<tag k="place" v="islet" />
		<tag k="ssr:stedsnr" v="809284" />
	</node>
	<node id="-432661" lat="60.2463472254" lon="5.39574722466">
		<tag k="alt_name" v="Ulvvatnet;Svartevatnet" />
		<tag k="name" v="Svartavatnet" />
		<tag k="natural" v="water" />
		<tag k="ssr:stedsnr" v="187998" />
		<tag k="water" v="lake" />
	</node>
	<node id="-432656" lat="60.2350166647" lon="5.3824194483">
		<tag k="name" v="Sagstadelva" />
		<tag k="ssr:stedsnr" v="187793" />
		<tag k="waterway" v="river" />
	</node>
	<node id="-435288" lat="60.366588887" lon="5.2150305547">
		<tag k="name" v="Peneset" />
		<tag k="natural" v="cape" />
		<tag k="ssr:stedsnr" v="931554" />
	</node>
	<node id="-434700" lat="60.4988805571" lon="5.33023333589">
		<tag k="name" v="Svortetjørna" />
		<tag k="natural" v="water" />
		<tag k="ssr:stedsnr" v="809233" />
		<tag k="water" v="pond" />
	</node>
	<node id="-432644" lat="60.231555886" lon="5.29946278356">
		<tag k="name" v="Storavatnet" />
		<tag k="natural" v="water" />
		<tag k="ssr:stedsnr" v="187822" />
	</node>
	<node id="-434944" lat="60.3710416666" lon="5.46821388352">
		<tag k="name" v="Stølavika" />
		<tag k="natural" v="bay" />
		<tag k="ssr:stedsnr" v="870152" />
	</node>
	<node id="-434686" lat="60.3724361089" lon="5.44312221486">
		<tag k="name" v="Årebekken" />
		<tag k="ssr:stedsnr" v="809149" />
		<tag k="waterway" v="stream" />
	</node>
	<node id="-432635" lat="60.3753888919" lon="5.21184999698">
		<tag k="name" v="Ørjebekken" />
		<tag k="ssr:stedsnr" v="187597" />
		<tag k="waterway" v="stream" />
	</node>
	<node id="-434682" lat="60.3160499975" lon="5.41012222685">
		<tag k="name" v="Ljoselva" />
		<tag k="ssr:stedsnr" v="809130" />
		<tag k="waterway" v="stream" />
	</node>
	<node id="-434681" lat="60.3154194449" lon="5.39489999601">
		<tag k="name" v="Eidsvika" />
		<tag k="natural" v="bay" />
		<tag k="ssr:stedsnr" v="809128" />
	</node>
	<node id="-434679" lat="60.4304555582" lon="5.63368889513">
		<tag k="name" v="Skulstadelva" />
		<tag k="ssr:stedsnr" v="809117" />
		<tag k="waterway" v="river" />
	</node>
	<node id="-432629" lat="60.3406111126" lon="5.47487500155">
		<tag k="name" v="Krokvatnet" />
		<tag k="natural" v="water" />
		<tag k="ssr:stedsnr" v="187198" />
	</node>
	<node id="-434940" lat="60.309149997" lon="5.39931388951">
		<tag k="name" v="Myrdalselva" />
		<tag k="ssr:stedsnr" v="870141" />
		<tag k="waterway" v="river" />
	</node>
	<node id="-434652" lat="60.4422888866" lon="5.34284722006">
		<tag k="name" v="Nedgardselva" />
		<tag k="ssr:stedsnr" v="808360" />
		<tag k="waterway" v="stream" />
	</node>
	<node id="-432598" lat="60.3779527771" lon="5.51933888867">
		<tag k="name" v="Osen" />
		<tag k="natural" v="bay" />
		<tag k="ssr:stedsnr" v="142990" />
	</node>
	<node id="-434642" lat="60.2741055573" lon="5.45547499791">
		<tag k="name" v="Hauglandsvatnet" />
		<tag k="natural" v="water" />
		<tag k="ssr:stedsnr" v="794907" />
		<tag k="water" v="lake" />
	</node>
	<node id="-432593" lat="60.4179444478" lon="5.54174722919">
		<tag k="name" v="Kjerringaelva" />
		<tag k="ssr:stedsnr" v="142895" />
		<tag k="waterway" v="river" />
	</node>
	<node id="-434636" lat="60.3082499998" lon="5.37776388253">
		<tag k="name" v="Birkelandsvatnet" />
		<tag k="natural" v="water" />
		<tag k="ssr:stedsnr" v="794844" />
	</node>
	<node id="-434628" lat="60.3628666673" lon="5.39905000083">
		<tag k="name" v="Stemmevatnet" />
		<tag k="natural" v="water" />
		<tag k="ssr:stedsnr" v="794703" />
		<tag k="water" v="lake" />
	</node>
	<node id="-432576" lat="60.4212472179" lon="5.56560277866">
		<tag k="name" v="Risparelva" />
		<tag k="ssr:stedsnr" v="142922" />
		<tag k="waterway" v="river" />
	</node>
	<node id="-434620" lat="60.4426944454" lon="5.44339721995">
		<tag k="name" v="Stemmevatnet" />
		<tag k="natural" v="water" />
		<tag k="ssr:stedsnr" v="794610" />
		<tag k="water" v="lake" />
	</node>
	<node id="-435274" lat="60.3084944435" lon="5.51333054834">
		<tag k="name" v="Fiskebekken" />
		<tag k="ssr:stedsnr" v="931299" />
		<tag k="waterway" v="stream" />
	</node>
	<node id="-434618" lat="60.4217852477" lon="5.32439398712">
		<tag k="name" v="Munkebotsvatnet" />
		<tag k="natural" v="water" />
		<tag k="ssr:stedsnr" v="794562" />
	</node>
	<node id="-432566" lat="60.3128361126" lon="5.32011945043">
		<tag k="name" v="Langaneset" />
		<tag k="natural" v="cape" />
		<tag k="ssr:stedsnr" v="142715" />
	</node>
	<node id="-434604" lat="60.2418472264" lon="5.37014721417">
		<tag k="name" v="Nordvikvatnet" />
		<tag k="natural" v="water" />
		<tag k="ssr:stedsnr" v="793839" />
	</node>
	<node id="-432555" lat="60.2735722187" lon="5.372883333">
		<tag k="name" v="Naustvika" />
		<tag k="natural" v="bay" />
		<tag k="ssr:stedsnr" v="142650" />
	</node>
	<node id="-432552" lat="60.3468500043" lon="5.21202500526">
		<tag k="name" v="Vassenden" />
		<tag k="natural" v="water" />
		<tag k="ssr:stedsnr" v="142536" />
		<tag k="water" v="lake" />
	</node>
	<node id="-432550" lat="60.3417361083" lon="5.1953333269">
		<tag k="name" v="Kongstjørna" />
		<tag k="natural" v="water" />
		<tag k="ssr:stedsnr" v="142525" />
		<tag k="water" v="pond" />
	</node>
	<node id="-434586" lat="60.4169638922" lon="5.50902500687">
		<tag k="name" v="Munkelva" />
		<tag k="ssr:stedsnr" v="749961" />
		<tag k="waterway" v="river" />
	</node>
	<node id="-432535" lat="60.3122805597" lon="5.46223056054">
		<tag k="name" v="Grindåsbekken" />
		<tag k="ssr:stedsnr" v="142220" />
		<tag k="waterway" v="stream" />
	</node>
	<node id="-431419" lat="60.4628611133" lon="5.41961111452">
		<tag k="name" v="Liatjørna" />
		<tag k="natural" v="water" />
		<tag k="ssr:stedsnr" v="324833" />
	</node>
	<node id="-432525" lat="60.3414641281" lon="5.20466308275">
		<tag k="name" v="Stemmegardsvatnet" />
		<tag k="natural" v="water" />
		<tag k="ssr:stedsnr" v="142019" />
	</node>
	<node id="-434568" lat="60.2957111118" lon="5.24596388273">
		<tag k="name" v="Stemmebekken" />
		<tag k="ssr:stedsnr" v="749746" />
		<tag k="waterway" v="stream" />
	</node>
	<node id="-434563" lat="60.3198472193" lon="5.34357778316">
		<tag k="name" v="Kloppedalstjørna" />
		<tag k="natural" v="water" />
		<tag k="ssr:stedsnr" v="749720" />
		<tag k="water" v="pond" />
	</node>
	<node id="-432513" lat="60.2301500005" lon="5.30980832954">
		<tag k="name" v="Anderstjørna" />
		<tag k="natural" v="water" />
		<tag k="ssr:stedsnr" v="141977" />
		<tag k="water" v="pond" />
	</node>
	<node id="-434558" lat="60.276811112" lon="5.46482500797">
		<tag k="name" v="Sagelva" />
		<tag k="ssr:stedsnr" v="749570" />
		<tag k="waterway" v="stream" />
	</node>
	<node id="-434550" lat="60.4062861078" lon="5.3682916741">
		<tag k="name" v="Store Tindevatnet" />
		<tag k="natural" v="water" />
		<tag k="ssr:stedsnr" v="749332" />
		<tag k="water" v="lake" />
	</node>
	<node id="-434540" lat="60.394013892" lon="5.36762499295">
		<tag k="name" v="Kviturbekken" />
		<tag k="ssr:stedsnr" v="749206" />
		<tag k="waterway" v="stream" />
	</node>
	<node id="-432491" lat="60.3656750039" lon="5.47059444472">
		<tag k="name" v="Kattaneset" />
		<tag k="natural" v="cape" />
		<tag k="ssr:stedsnr" v="141732" />
	</node>
	<node id="-432489" lat="60.4038999972" lon="5.56793612031">
		<tag k="name" v="Svanatjørna" />
		<tag k="natural" v="water" />
		<tag k="ssr:stedsnr" v="141887" />
		<tag k="water" v="pond" />
	</node>
	<node id="-434531" lat="60.4234611071" lon="5.59723610992">
		<tag k="name" v="Tverrelva" />
		<tag k="ssr:stedsnr" v="749123" />
		<tag k="waterway" v="river" />
	</node>
	<node id="-432480" lat="60.3240610619" lon="5.28893291606">
		<tag k="name" v="Engvika" />
		<tag k="natural" v="bay" />
		<tag k="ssr:stedsnr" v="141771" />
	</node>
	<node id="-434523" lat="60.2590361082" lon="5.44401112026">
		<tag k="name" v="Breidalselva" />
		<tag k="ssr:stedsnr" v="749091" />
		<tag k="waterway" v="stream" />
	</node>
	<node id="-434521" lat="60.4404027778" lon="5.66389166701">
		<tag k="name" v="Lisetelva" />
		<tag k="ssr:stedsnr" v="749055" />
		<tag k="waterway" v="river" />
	</node>
	<node id="-432471" lat="60.3417166625" lon="5.33124167512">
		<tag k="name" v="Langeholmen" />
		<tag k="place" v="islet" />
		<tag k="ssr:stedsnr" v="141524" />
	</node>
	<node id="-432463" lat="60.3114611087" lon="5.32613888862">
		<tag k="name" v="Skjoldabukta" />
		<tag k="natural" v="bay" />
		<tag k="ssr:stedsnr" v="141374" />
	</node>
	<node id="-432462" lat="60.3616694399" lon="5.24543610574">
		<tag k="name" v="Bjørndalstjørna" />
		<tag k="natural" v="water" />
		<tag k="ssr:stedsnr" v="141368" />
	</node>
	<node id="-434503" lat="60.3973412179" lon="5.58405205083">
		<tag k="name" v="Tjørnane" />
		<tag k="natural" v="water" />
		<tag k="ssr:stedsnr" v="748889" />
		<tag k="water" v="lake" />
	</node>
	<node id="-432454" lat="60.309892875" lon="5.50600416621">
		<tag k="name" v="Tømmervika" />
		<tag k="natural" v="bay" />
		<tag k="ssr:stedsnr" v="141292" />
	</node>
	<node id="-434501" lat="60.2635638856" lon="5.28906666894">
		<tag k="name" v="Øyjordstjørna" />
		<tag k="natural" v="water" />
		<tag k="ssr:stedsnr" v="748884" />
	</node>
	<node id="-434500" lat="60.3576083329" lon="5.46294722632">
		<tag k="name" v="Nygardsvika" />
		<tag k="natural" v="bay" />
		<tag k="ssr:stedsnr" v="748880" />
	</node>
	<node id="-434230" lat="60.4086833365" lon="5.36684444281">
		<tag k="name" v="Lille Tindevatnet" />
		<tag k="natural" v="water" />
		<tag k="ssr:stedsnr" v="688338" />
		<tag k="water" v="lake" />
	</node>
	<node id="-432450" lat="60.4900222236" lon="5.32348332418">
		<tag k="name" v="Dalselva" />
		<tag k="ssr:stedsnr" v="141340" />
		<tag k="waterway" v="stream" />
	</node>
	<node id="-434496" lat="60.2731305566" lon="5.32216666735">
		<tag k="name" v="Pålamyrsbekken" />
		<tag k="ssr:stedsnr" v="748869" />
		<tag k="waterway" v="stream" />
	</node>
	<node id="-434495" lat="60.3490277821" lon="5.43131667303">
		<tag k="name" v="Fattigvika" />
		<tag k="natural" v="bay" />
		<tag k="ssr:stedsnr" v="748867" />
	</node>
	<node id="-434494" lat="60.3494194465" lon="5.42292221494">
		<tag k="name" v="Liavika" />
		<tag k="natural" v="bay" />
		<tag k="ssr:stedsnr" v="748864" />
	</node>
	<node id="-434493" lat="60.3674888885" lon="5.47659722387">
		<tag k="name" v="Elvatangen" />
		<tag k="natural" v="cape" />
		<tag k="ssr:stedsnr" v="748855" />
	</node>
	<node id="-432442" lat="60.3073666684" lon="5.51631666796">
		<tag k="name" v="Fiskebekktjørna" />
		<tag k="natural" v="water" />
		<tag k="ssr:stedsnr" v="141302" />
		<tag k="water" v="pond" />
	</node>
	<node id="-432441" lat="60.3204833343" lon="5.51465276887">
		<tag k="name" v="Vaulen" />
		<tag k="place" v="locality" />
		<tag k="ssr:stedsnr" v="141215" />
	</node>
	<node id="-432440" lat="60.3892555566" lon="5.43899722015">
		<tag k="name" v="Borgaelva" />
		<tag k="ssr:stedsnr" v="141182" />
		<tag k="waterway" v="river" />
	</node>
	<node id="-432439" lat="60.3945388869" lon="5.46791944137">
		<tag k="name" v="Tangelandselva" />
		<tag k="ssr:stedsnr" v="141164" />
		<tag k="waterway" v="river" />
	</node>
	<node id="-434483" lat="60.2672250015" lon="5.3961416669">
		<tag k="name" v="Ytre Sandvika" />
		<tag k="natural" v="bay" />
		<tag k="ssr:stedsnr" v="748691" />
	</node>
	<node id="-434480" lat="60.276122223" lon="5.37140278481">
		<tag k="name" v="Sevedalsbekken" />
		<tag k="ssr:stedsnr" v="748662" />
		<tag k="waterway" v="stream" />
	</node>
	<node id="-434477" lat="60.2377805589" lon="5.38624443871">
		<tag k="name" v="Nilsafossen" />
		<tag k="natural" v="waterfall" />
		<tag k="ssr:stedsnr" v="748648" />
	</node>
	<node id="-434476" lat="60.3407722242" lon="5.25850277856">
		<tag k="name" v="Skaget" />
		<tag k="natural" v="cape" />
		<tag k="ssr:stedsnr" v="748645" />
	</node>
	<node id="-435250" lat="60.3047388901" lon="5.40401388628">
		<tag k="name" v="Storefossen" />
		<tag k="natural" v="waterfall" />
		<tag k="ssr:stedsnr" v="931164" />
	</node>
	<node id="-434474" lat="60.3388305596" lon="5.26231665812">
		<tag k="name" v="Myratjørna" />
		<tag k="natural" v="water" />
		<tag k="ssr:stedsnr" v="748641" />
		<tag k="water" v="pond" />
	</node>
	<node id="-434473" lat="60.3453833303" lon="5.26081666267">
		<tag k="name" v="Hesjaholttjørna" />
		<tag k="natural" v="water" />
		<tag k="ssr:stedsnr" v="748631" />
	</node>
	<node id="-434472" lat="60.2584083376" lon="5.40249722401">
		<tag k="name" v="Stemmebekken" />
		<tag k="ssr:stedsnr" v="748627" />
		<tag k="waterway" v="stream" />
	</node>
	<node id="-432423" lat="60.2949833344" lon="5.5208972254">
		<tag k="name" v="Sølverelva" />
		<tag k="ssr:stedsnr" v="141277" />
		<tag k="waterway" v="stream" />
	</node>
	<node id="-434468" lat="60.3285416626" lon="5.26323611216">
		<tag k="name" v="Knappatjørna" />
		<tag k="natural" v="water" />
		<tag k="ssr:stedsnr" v="748523" />
	</node>
	<node id="-434465" lat="60.4257083297" lon="5.31452499965">
		<tag k="name" v="Garpetjernet" />
		<tag k="natural" v="water" />
		<tag k="ssr:stedsnr" v="748339" />
		<tag k="water" v="pond" />
	</node>
	<node id="-432412" lat="60.3719749991" lon="5.26220000152">
		<tag k="name" v="Skitnetjørna" />
		<tag k="natural" v="water" />
		<tag k="ssr:stedsnr" v="141079" />
	</node>
	<node id="-432411" lat="60.4542194443" lon="5.43295277219">
		<tag k="name" v="Gamsebotstjørna" />
		<tag k="natural" v="water" />
		<tag k="ssr:stedsnr" v="141077" />
	</node>
	<node id="-435370" lat="60.3989361126" lon="5.46189444103">
		<tag k="name" v="Dalselvi" />
		<tag k="ssr:stedsnr" v="954919" />
		<tag k="waterway" v="river" />
	</node>
	<node id="-432393" lat="60.4409027809" lon="5.36327499865">
		<tag k="name" v="Setervatnet" />
		<tag k="natural" v="water" />
		<tag k="ssr:stedsnr" v="127577" />
		<tag k="water" v="lake" />
	</node>
	<node id="-432390" lat="60.3772916637" lon="5.47517223113">
		<tag k="name" v="Skåldalselva" />
		<tag k="ssr:stedsnr" v="127136" />
		<tag k="waterway" v="river" />
	</node>
	<node id="-434433" lat="60.4521861069" lon="5.42254443656">
		<tag k="name" v="Spåkelva" />
		<tag k="ssr:stedsnr" v="748083" />
		<tag k="waterway" v="river" />
	</node>
	<node id="-432378" lat="60.3075888865" lon="5.37440278227">
		<tag k="name" v="Elvenes" />
		<tag k="natural" v="cape" />
		<tag k="ssr:stedsnr" v="126851" />
	</node>
	<node id="-434420" lat="60.3712986396" lon="5.18277072156">
		<tag k="name" v="Stiavatnet" />
		<tag k="natural" v="water" />
		<tag k="ssr:stedsnr" v="748040" />
	</node>
	<node id="-432358" lat="60.338205554" lon="5.50838610819">
		<tag k="name" v="Dyrdalselva" />
		<tag k="ssr:stedsnr" v="126184" />
		<tag k="waterway" v="stream" />
	</node>
	<node id="-432357" lat="60.3498609006" lon="5.48406843737">
		<tag k="name" v="Rambjørgvatnet" />
		<tag k="natural" v="water" />
		<tag k="ssr:stedsnr" v="126162" />
		<tag k="water" v="lake" />
	</node>
	<node id="-432352" lat="60.4189075889" lon="5.64047356521">
		<tag k="name" v="Midttjørna" />
		<tag k="natural" v="water" />
		<tag k="ssr:stedsnr" v="126062" />
	</node>
	<node id="-434397" lat="60.5071444436" lon="5.35700277932">
		<tag k="name" v="Hylkjestemma" />
		<tag k="natural" v="water" />
		<tag k="ssr:stedsnr" v="734518" />
		<tag k="water" v="lake" />
	</node>
	<node id="-433082" lat="60.4212138915" lon="5.57259165892">
		<tag k="name" v="Romslaelva" />
		<tag k="ssr:stedsnr" v="430054" />
		<tag k="waterway" v="river" />
	</node>
	<node id="-434392" lat="60.3190500034" lon="5.48543332424">
		<tag k="name" v="Frotveitvatnet" />
		<tag k="natural" v="water" />
		<tag k="ssr:stedsnr" v="734251" />
	</node>
	<node id="-434389" lat="60.3807534197" lon="5.52596837905">
		<tag k="name" v="Osavatnet" />
		<tag k="natural" v="water" />
		<tag k="ssr:stedsnr" v="734136" />
		<tag k="water" v="lake" />
	</node>
	<node id="-432335" lat="60.4654694415" lon="5.30725833289">
		<tag k="name" v="Dalelva" />
		<tag k="ssr:stedsnr" v="87531" />
		<tag k="waterway" v="river" />
	</node>
	<node id="-434374" lat="60.301709572" lon="5.27932489802">
		<tag k="name" v="Skranevatnet" />
		<tag k="natural" v="water" />
		<tag k="ssr:stedsnr" v="733811" />
	</node>
	<node id="-434372" lat="60.2877555599" lon="5.36007499424">
		<tag k="name" v="Bjørnevatnet" />
		<tag k="natural" v="water" />
		<tag k="ssr:stedsnr" v="733801" />
	</node>
	<node id="-434371" lat="60.2295845205" lon="5.32268515143">
		<tag k="name" v="Hisdalsvatnet" />
		<tag k="natural" v="water" />
		<tag k="ssr:stedsnr" v="733799" />
	</node>
	<node id="-432319" lat="60.2774722236" lon="5.45391388361">
		<tag k="name" v="Ljøsåna" />
		<tag k="ssr:stedsnr" v="82562" />
		<tag k="waterway" v="stream" />
	</node>
	<node id="-434362" lat="60.4062499962" lon="5.41365278679">
		<tag k="name" v="Borgavatnet" />
		<tag k="natural" v="water" />
		<tag k="ssr:stedsnr" v="733639" />
	</node>
	<node id="-434360" lat="60.4581660972" lon="5.41265700622">
		<tag k="name" v="Gaupåsvatnet" />
		<tag k="natural" v="water" />
		<tag k="ssr:stedsnr" v="733523" />
		<tag k="water" v="lake" />
	</node>
	<node id="-432308" lat="60.3823805551" lon="5.49834444868">
		<tag k="name" v="Styggegjelselva" />
		<tag k="ssr:stedsnr" v="81975" />
		<tag k="waterway" v="stream" />
	</node>
	<node id="-432307" lat="60.3796166626" lon="5.52465555314">
		<tag k="name" v="Oldraneset" />
		<tag k="natural" v="cape" />
		<tag k="ssr:stedsnr" v="81970" />
	</node>
	<node id="-432306" lat="60.2369472197" lon="5.31541111037">
		<tag k="name" v="Stora Munketjørna" />
		<tag k="natural" v="water" />
		<tag k="ssr:stedsnr" v="81969" />
	</node>
	<node id="-434351" lat="60.3926679933" lon="5.48086443803">
		<tag k="name" v="Raudtjørn" />
		<tag k="natural" v="water" />
		<tag k="ssr:stedsnr" v="733110" />
	</node>
	<node id="-432302" lat="60.4196916665" lon="5.41640278523">
		<tag k="name" v="Gjøtta" />
		<tag k="ssr:stedsnr" v="81957" />
		<tag k="waterway" v="stream" />
	</node>
	<node id="-434348" lat="60.4302805572" lon="5.66110833965">
		<tag k="name" v="Holmavasselva" />
		<tag k="ssr:stedsnr" v="733077" />
		<tag k="waterway" v="river" />
	</node>
	<node id="-432298" lat="60.4142694485" lon="5.53131389095">
		<tag k="name" v="Holaelva" />
		<tag k="ssr:stedsnr" v="81920" />
		<tag k="waterway" v="river" />
	</node>
	<node id="-432285" lat="60.3149583297" lon="5.29696666319">
		<tag k="name" v="Slettevika" />
		<tag k="natural" v="bay" />
		<tag k="ssr:stedsnr" v="81795" />
	</node>
	<node id="-432284" lat="60.317091667" lon="5.28397776931">
		<tag k="name" v="Kuholmen" />
		<tag k="place" v="islet" />
		<tag k="ssr:stedsnr" v="81792" />
	</node>
	<node id="-432282" lat="60.3195277763" lon="5.34930276894">
		<tag k="name" v="Litle Nesttunvatnet" />
		<tag k="natural" v="water" />
		<tag k="ssr:stedsnr" v="81735" />
		<tag k="water" v="lake" />
	</node>
	<node id="-432277" lat="60.3680888887" lon="5.47403056446">
		<tag k="name" v="Nesvika" />
		<tag k="natural" v="bay" />
		<tag k="ssr:stedsnr" v="81859" />
	</node>
	<node id="-434324" lat="60.3754555523" lon="5.56544165804">
		<tag k="name" v="Markskilfossen" />
		<tag k="natural" v="waterfall" />
		<tag k="ssr:stedsnr" v="688992" />
	</node>
	<node id="-432268" lat="60.3140833327" lon="5.32966388424">
		<tag k="name" v="Lahammaren" />
		<tag k="natural" v="cape" />
		<tag k="ssr:stedsnr" v="81729" />
	</node>
	<node id="-432267" lat="60.3105166642" lon="5.31602777547">
		<tag k="name" v="Breivika" />
		<tag k="natural" v="bay" />
		<tag k="ssr:stedsnr" v="81727" />
	</node>
	<node id="-432259" lat="60.2760166682" lon="5.40599445257">
		<tag k="name" v="Jødeholmen" />
		<tag k="place" v="islet" />
		<tag k="ssr:stedsnr" v="81671" />
	</node>
	<node id="-432256" lat="60.2826777739" lon="5.46766388716">
		<tag k="name" v="Neset" />
		<tag k="natural" v="cape" />
		<tag k="ssr:stedsnr" v="81601" />
	</node>
	<node id="-434302" lat="60.4182249969" lon="5.57151111272">
		<tag k="name" v="Tungefossen" />
		<tag k="natural" v="waterfall" />
		<tag k="ssr:stedsnr" v="688909" />
	</node>
	<node id="-432249" lat="60.3288027781" lon="5.30841111879">
		<tag k="name" v="Kvernabekken" />
		<tag k="ssr:stedsnr" v="81545" />
		<tag k="waterway" v="stream" />
	</node>
	<node id="-432245" lat="60.4971670054" lon="5.2984232576">
		<tag k="name" v="Baugtveitstemma" />
		<tag k="natural" v="water" />
		<tag k="old_name" v="Bogtveitvatnet" />
		<tag k="ssr:stedsnr" v="81425" />
	</node>
	<node id="-432239" lat="60.4074861125" lon="5.35587500078">
		<tag k="name" v="Storediket" />
		<tag k="natural" v="water" />
		<tag k="ssr:stedsnr" v="81350" />
		<tag k="water" v="lake" />
	</node>
	<node id="-434285" lat="60.2749888849" lon="5.24493889061">
		<tag k="name" v="Ådlandsvatnet" />
		<tag k="natural" v="water" />
		<tag k="ssr:stedsnr" v="688841" />
	</node>
	<node id="-432091" lat="60.3879666648" lon="5.54115556426">
		<tag k="name" v="Paddebekken" />
		<tag k="ssr:stedsnr" v="66119" />
		<tag k="waterway" v="stream" />
	</node>
	<node id="-434272" lat="60.318633336" lon="5.29441944921">
		<tag k="name" v="Fleinevaket" />
		<tag k="natural" v="cape" />
		<tag k="ssr:stedsnr" v="688796" />
	</node>
	<node id="-434267" lat="60.3688222241" lon="5.45734444958">
		<tag k="name" v="Forneset" />
		<tag k="natural" v="cape" />
		<tag k="ssr:stedsnr" v="688767" />
	</node>
	<node id="-434262" lat="60.3664500043" lon="5.25499444007">
		<tag k="name" v="Tennebekken" />
		<tag k="ssr:stedsnr" v="688692" />
		<tag k="waterway" v="stream" />
	</node>
	<node id="-434254" lat="60.3385527771" lon="5.27483610838">
		<tag k="name" v="Sponavika" />
		<tag k="natural" v="bay" />
		<tag k="ssr:stedsnr" v="688630" />
	</node>
	<node id="-434249" lat="60.3515583355" lon="5.35031388245">
		<tag k="name" v="Storetveitvannet" />
		<tag k="natural" v="water" />
		<tag k="ssr:stedsnr" v="688595" />
		<tag k="water" v="lake" />
	</node>
	<node id="-432188" lat="60.4357722248" lon="5.44022500193">
		<tag k="name" v="Ullbergvatnet" />
		<tag k="natural" v="water" />
		<tag k="ssr:stedsnr" v="81045" />
	</node>
	<node id="-432182" lat="60.4324944454" lon="5.44199444297">
		<tag k="name" v="Grunnavatnet" />
		<tag k="natural" v="water" />
		<tag k="ssr:stedsnr" v="81025" />
		<tag k="water" v="pond" />
	</node>
	<node id="-432174" lat="60.2946111156" lon="5.22333333352">
		<tag k="name" v="Lonebogane" />
		<tag k="ssr:stedsnr" v="81007" />
		<tag k="waterway" v="stream" />
	</node>
	<node id="-434221" lat="60.2868805566" lon="5.38835277712">
		<tag k="name" v="Gorvika" />
		<tag k="natural" v="bay" />
		<tag k="ssr:stedsnr" v="688297" />
	</node>
	<node id="-434212" lat="60.3970611112" lon="5.44813889757">
		<tag k="name" v="Mølsbekken" />
		<tag k="ssr:stedsnr" v="688242" />
		<tag k="waterway" v="stream" />
	</node>
	<node id="-432161" lat="60.2604111069" lon="5.44029999286">
		<tag k="name" v="Straumen" />
		<tag k="ssr:stedsnr" v="81116" />
		<tag k="waterway" v="river" />
	</node>
	<node id="-434208" lat="60.3206527756" lon="5.48209443989">
		<tag k="name" v="Utlevika" />
		<tag k="natural" v="bay" />
		<tag k="ssr:stedsnr" v="688215" />
	</node>
	<node id="-434201" lat="60.3160527802" lon="5.43129444255">
		<tag k="name" v="Sandbekken" />
		<tag k="ssr:stedsnr" v="688193" />
		<tag k="waterway" v="stream" />
	</node>
	<node id="-434199" lat="60.3348833349" lon="5.42168333992">
		<tag k="name" v="Tjørna" />
		<tag k="natural" v="water" />
		<tag k="ssr:stedsnr" v="688191" />
		<tag k="water" v="pond" />
	</node>
	<node id="-432149" lat="60.5034942828" lon="5.27760329418">
		<tag k="name" v="Milastemma" />
		<tag k="natural" v="water" />
		<tag k="old_name" v="Mjåstemma" />
		<tag k="ssr:stedsnr" v="67499" />
	</node>
	<node id="-434196" lat="60.3807499976" lon="5.39452222677">
		<tag k="name" v="Høkerfossen" />
		<tag k="natural" v="waterfall" />
		<tag k="ssr:stedsnr" v="688186" />
	</node>
	<node id="-434184" lat="60.318463889" lon="5.40069999471">
		<tag k="name" v="Apalvika" />
		<tag k="natural" v="bay" />
		<tag k="ssr:stedsnr" v="688126" />
	</node>
	<node id="-434180" lat="60.4473249976" lon="5.40265277872">
		<tag k="name" v="Ristangen" />
		<tag k="natural" v="cape" />
		<tag k="ssr:stedsnr" v="688110" />
	</node>
</osm>
