<?xml version="1.0" encoding="UTF-8"?>
<osm generator="osmapis" version="0.6">
	<node id="-328855" lat="59.3551888861" lon="7.35135277627">
		<tag k="name" v="Jarevegen" />
		<tag k="ssr:date" v="2016-05-10" />
		<tag k="ssr:gruppe" v="veg" />
		<tag k="ssr:hovedgruppe" v="infrastruktur" />
		<tag k="ssr:stedsnr" v="659641" />
		<tag k="ssr:type" v="vegstrekning" />
	</node>
	<node id="-330478" lat="59.3569138869" lon="7.35807777913">
		<tag k="name" v="Bykle kommune" />
		<tag k="ssr:date" v="2016-05-11" />
		<tag k="ssr:gruppe" v="administrativeIndelinger" />
		<tag k="ssr:hovedgruppe" v="offentligAdministrasjon" />
		<tag k="ssr:stedsnr" v="874183" />
		<tag k="ssr:type" v="kommune" />
	</node>
	<node id="-324731" lat="59.4091133517" lon="7.45141055299">
		<tag k="name" v="GlidbjÃ¸rgsheii" />
		<tag k="ssr:date" v="2019-05-31" />
		<tag k="ssr:gruppe" v="veg" />
		<tag k="ssr:hovedgruppe" v="infrastruktur" />
		<tag k="ssr:stedsnr" v="1054764" />
		<tag k="ssr:type" v="adressenavn" />
	</node>
	<node id="-324730" lat="59.4942643509" lon="7.34113915848">
		<tag k="name" v="Enden" />
		<tag k="ssr:date" v="2019-05-31" />
		<tag k="ssr:gruppe" v="veg" />
		<tag k="ssr:hovedgruppe" v="infrastruktur" />
		<tag k="ssr:stedsnr" v="1054760" />
		<tag k="ssr:type" v="adressenavn" />
	</node>
</osm>
