<?xml version="1.0" encoding="UTF-8"?>
<osm generator="osmapis" version="0.6">
	<node id="-14048" lat="68.1082244633" lon="18.0523178431">
		<tag k="historic" v="boundary_stone" />
		<tag k="man_made" v="cairn" />
		<tag k="name" v="Caihnavaggirøysa" />
		<tag k="old_name" v="Cainhavagge røys;Kiaina Vaggi Røset" />
		<tag k="place" v="locality" />
		<tag k="ssr:stedsnr" v="778016" />
	</node>
	<node id="-14047" lat="68.1036881776" lon="17.3548022682">
		<tag k="alt_name" v="Kjårdavatnrøysa" />
		<tag k="historic" v="boundary_stone" />
		<tag k="man_made" v="cairn" />
		<tag k="name" v="Tjårdavatnrøysa" />
		<tag k="old_name" v="Ipta Jaure Røset" />
		<tag k="place" v="locality" />
		<tag k="ssr:stedsnr" v="171102" />
	</node>
	<node id="-14046" lat="68.0186932949" lon="17.9537034752">
		<tag k="historic" v="boundary_stone" />
		<tag k="man_made" v="cairn" />
		<tag k="name" v="Coarvejavrirøysa" />
		<tag k="old_name" v="Coarvvejavrre røys;Kiørvi Jaure Røset" />
		<tag k="place" v="locality" />
		<tag k="ssr:stedsnr" v="50019" />
	</node>
	<node id="-14045" lat="68.1987952056" lon="18.1513441198">
		<tag k="historic" v="boundary_stone" />
		<tag k="man_made" v="cairn" />
		<tag k="name" v="Allakasrøysa" />
		<tag k="old_name" v="Allagaisrøset;Allagas røys" />
		<tag k="place" v="locality" />
		<tag k="ssr:stedsnr" v="900027" />
	</node>
	<node id="-14044" lat="68.0121176452" lon="17.0472263633">
		<tag k="alt_name" v="Naidirøysa" />
		<tag k="historic" v="boundary_stone" />
		<tag k="man_made" v="cairn" />
		<tag k="name" v="Noaiderøysa" />
		<tag k="old_name" v="Naidi Røset;Naidi røys" />
		<tag k="place" v="locality" />
		<tag k="ssr:stedsnr" v="717113" />
	</node>
	<node id="-14043" lat="68.4898099742" lon="18.1177334753">
		<tag k="historic" v="boundary_stone" />
		<tag k="man_made" v="cairn" />
		<tag k="name" v="Suolo Kievelrøysa" />
		<tag k="old_name" v="Sola kievel Røset" />
		<tag k="place" v="locality" />
		<tag k="ssr:stedsnr" v="717475" />
	</node>
	<node id="-12793" lat="68.0383805549" lon="17.6647527767">
		<tag k="historic" v="boundary_stone" />
		<tag k="man_made" v="cairn" />
		<tag k="name" v="Vestre Jouvvacorrurøysa" />
		<tag k="old_name" v="Vestre Jova Tiorro Røset;v Jovaskjøris røys" />
		<tag k="place" v="locality" />
		<tag k="ssr:stedsnr" v="414115" />
	</node>
	<node id="-10904" lat="68.3189833308" lon="16.7848444461">
		<tag k="fixme" v="specify shooting=range, clay_pigeon etc" />
		<tag k="leisure" v="pitch" />
		<tag k="name" v="Midtsynken" />
		<tag k="sport" v="shooting" />
		<tag k="ssr:stedsnr" v="601563" />
	</node>
	<node id="-13111" lat="67.9693666673" lon="17.8997527654">
		<tag k="historic" v="boundary_stone" />
		<tag k="man_made" v="cairn" />
		<tag k="name" v="Ivarsteinen" />
		<tag k="old_name" v="Ivarsteen;Ivarstein røys" />
		<tag k="place" v="locality" />
		<tag k="ssr:stedsnr" v="623654" />
	</node>
	<node id="-13524" lat="68.2490194491" lon="18.1388861026">
		<tag k="alt_name" v="Sjangelirøysa" />
		<tag k="historic" v="boundary_stone" />
		<tag k="man_made" v="cairn" />
		<tag k="name" v="Sjanglirøysa" />
		<tag k="old_name" v="Skangala røys;Sjangli røys;Skangala Røset" />
		<tag k="place" v="locality" />
		<tag k="ssr:stedsnr" v="777451" />
	</node>
	<node id="-13939" lat="68.5365138896" lon="18.1259194413">
		<tag k="alt_name" v="Store Rævrerøysa" />
		<tag k="historic" v="boundary_stone" />
		<tag k="man_made" v="cairn" />
		<tag k="name" v="Stuora Revrri-røysa" />
		<tag k="old_name" v="Store Reuri Røset" />
		<tag k="place" v="locality" />
		<tag k="ssr:stedsnr" v="959408" />
	</node>
	<node id="-11442" lat="68.4059333351" lon="18.1010694471">
		<tag k="historic" v="boundary_stone" />
		<tag k="man_made" v="cairn" />
		<tag k="name" v="Katteratrøysa" />
		<tag k="old_name" v="Kadderoivi Røset" />
		<tag k="place" v="locality" />
		<tag k="ssr:stedsnr" v="899456" />
	</node>
	<node id="-13745" lat="68.3404638913" lon="18.1146111018">
		<tag k="alt_name" v="Dossaganrøysa" />
		<tag k="historic" v="boundary_stone" />
		<tag k="man_made" v="cairn" />
		<tag k="name" v="Dossagemrøysa" />
		<tag k="old_name" v="Tosadem Røset" />
		<tag k="place" v="locality" />
		<tag k="ssr:stedsnr" v="838482" />
	</node>
	<node id="-12783" lat="68.3056222195" lon="16.7117055543">
		<tag k="fixme" v="consider boundary=protected_area and relevant protect_class if not nature reserve" />
		<tag k="leisure" v="nature_reserve" />
		<tag k="name" v="Grunnvatnet naturreservat" />
		<tag k="ssr:stedsnr" v="403620" />
	</node>
	<node id="-11916" lat="68.0017249991" lon="17.7897722192">
		<tag k="historic" v="boundary_stone" />
		<tag k="man_made" v="cairn" />
		<tag k="name" v="Østre Jouvvacorrurøysa" />
		<tag k="old_name" v="Østre Jova Tiorro Røset;ø Jovaskjøris røys" />
		<tag k="place" v="locality" />
		<tag k="ssr:stedsnr" v="111019" />
	</node>
	<node id="-13962" lat="68.472416148" lon="17.5036389422">
		<tag k="name" v="Øyjorda" />
		<tag k="place" v="locality" />
		<tag k="ssr:stedsnr" v="988392" />
	</node>
	<node id="-9516" lat="68.101536111" lon="17.2525694424">
		<tag k="alt_name" v="Sidajaurerøysa" />
		<tag k="historic" v="boundary_stone" />
		<tag k="man_made" v="cairn" />
		<tag k="name" v="Siidasjavrirøysa" />
		<tag k="old_name" v="Sita Jaure Røset;Sidasjavrre røys" />
		<tag k="place" v="locality" />
		<tag k="ssr:stedsnr" v="232136" />
	</node>
	<node id="-13470" lat="68.5551694432" lon="17.5715500024">
		<tag k="fixme" v="specify shooting=range, clay_pigeon etc" />
		<tag k="leisure" v="pitch" />
		<tag k="name" v="Bergmyra skytebane" />
		<tag k="sport" v="shooting" />
		<tag k="ssr:stedsnr" v="753399" />
	</node>
	<node id="-14051" lat="68.0748411581" lon="17.4953668734">
		<tag k="historic" v="boundary_stone" />
		<tag k="man_made" v="cairn" />
		<tag k="name" v="Mierffasrøysa" />
		<tag k="old_name" v="Mærfas Røset;Morfas røys" />
		<tag k="place" v="locality" />
		<tag k="ssr:stedsnr" v="353136" />
	</node>
	<node id="-14050" lat="68.0504613094" lon="17.1804944811">
		<tag k="historic" v="boundary_stone" />
		<tag k="man_made" v="cairn" />
		<tag k="name" v="Baugefjellsrøysa" />
		<tag k="old_name" v="Pauda Røset;Pauki Røset;Paukis røys" />
		<tag k="place" v="locality" />
		<tag k="ssr:stedsnr" v="293157" />
	</node>
	<node id="-11067" lat="68.1461416664" lon="18.0956222141">
		<tag k="alt_name" v="Gallanjohkarøysa" />
		<tag k="historic" v="boundary_stone" />
		<tag k="man_made" v="cairn" />
		<tag k="name" v="Galamjåkkarøysa" />
		<tag k="old_name" v="Kalam Joks Røset;Galamjok røys" />
		<tag k="place" v="locality" />
		<tag k="ssr:stedsnr" v="900021" />
	</node>
</osm>
