<?xml version="1.0" encoding="UTF-8"?>
<osm version="0.6" generator="osmapis">
	<node lat="68.17186666539773" lon="16.262602787117945" id="-11586">
		<tag k="name" v="Haukøygrunnen" />
		<tag k="natural" v="shoal" />
		<tag k="place" v="locality" />
		<tag k="ssr:stedsnr" v="286496" />
	</node>
	<node lat="68.33989166426643" lon="16.194844442057786" id="-11597">
		<tag k="alt_name" v="Vallevika" />
		<tag k="name" v="Valbukta" />
		<tag k="natural" v="bay" />
		<tag k="ssr:stedsnr" v="17361" />
	</node>
	<node lat="68.33451111478765" lon="16.334552781597832" id="-11617">
		<tag k="name" v="Tennholmen" />
		<tag k="place" v="islet" />
		<tag k="ssr:stedsnr" v="17699" />
	</node>
	<node lat="68.38442499625764" lon="17.254524996774027" id="-11632">
		<tag k="name" v="Forneset" />
		<tag k="natural" v="cape" />
		<tag k="ssr:stedsnr" v="18951" />
	</node>
	<node lat="68.41406111028597" lon="16.783316659743704" id="-11662">
		<tag k="fixme" v="consider seamark:type=rock or natural=shoal" />
		<tag k="name" v="Kvalbaken" />
		<tag k="place" v="islet" />
		<tag k="ssr:stedsnr" v="25288" />
	</node>
	<node lat="68.25872500332375" lon="16.155808339311317" id="-11673">
		<tag k="name" v="Simagrunnen" />
		<tag k="natural" v="shoal" />
		<tag k="place" v="locality" />
		<tag k="ssr:stedsnr" v="36966" />
	</node>
	<node lat="68.33984444487429" lon="16.17257499578424" id="-11678">
		<tag k="name" v="Lyngsnes" />
		<tag k="natural" v="cape" />
		<tag k="ssr:stedsnr" v="39217" />
	</node>
	<node lat="68.17739443999027" lon="16.59194444914761" id="-11689">
		<tag k="name" v="Steneset" />
		<tag k="natural" v="cape" />
		<tag k="ssr:stedsnr" v="42304" />
	</node>
	<node lat="68.28253332972409" lon="17.37620832293876" id="-11702">
		<tag k="name" v="Leirosen" />
		<tag k="natural" v="bay" />
		<tag k="ssr:stedsnr" v="240745" />
	</node>
	<node lat="68.28639444744647" lon="16.469252780404904" id="-11714">
		<tag k="name" v="Ånepollen" />
		<tag k="natural" v="bay" />
		<tag k="ssr:stedsnr" v="77612" />
	</node>
	<node lat="68.35141110692526" lon="16.920525007440975" id="-11746">
		<tag k="name" v="Måseholmen" />
		<tag k="place" v="islet" />
		<tag k="ssr:stedsnr" v="78900" />
	</node>
	<node lat="68.35140556011936" lon="16.94041943952388" id="-11747">
		<tag k="name" v="Einerneset" />
		<tag k="natural" v="cape" />
		<tag k="ssr:stedsnr" v="78901" />
	</node>
	<node lat="68.07823611214411" lon="16.39345000317076" id="-11754">
		<tag k="name" v="Ravsnjarka" />
		<tag k="natural" v="cape" />
		<tag k="ssr:stedsnr" v="82732" />
	</node>
	<node lat="68.43898055566748" lon="17.70250277244296" id="-11780">
		<tag k="name" v="Røyrstranda" />
		<tag k="natural" v="beach" />
		<tag k="ssr:stedsnr" v="86023" />
	</node>
	<node lat="68.40839444285868" lon="16.523158325767195" id="-11799">
		<tag k="name" v="Jøvik" />
		<tag k="natural" v="bay" />
		<tag k="ssr:stedsnr" v="100617" />
	</node>
	<node lat="68.29494722225286" lon="17.35573056185553" id="-11800">
		<tag k="name" v="Skjellneset" />
		<tag k="natural" v="cape" />
		<tag k="ssr:stedsnr" v="100668" />
	</node>
	<node lat="68.2359166656767" lon="16.244863878407333" id="-11812">
		<tag k="fixme" v="consider seamark:type=rock or natural=shoal" />
		<tag k="name" v="Lappvikskjæret" />
		<tag k="place" v="islet" />
		<tag k="ssr:stedsnr" v="104412" />
	</node>
	<node lat="68.24141666266794" lon="16.21704444476414" id="-11813">
		<tag k="name" v="Storgrunnen" />
		<tag k="natural" v="bay" />
		<tag k="ssr:stedsnr" v="104416" />
	</node>
	<node lat="68.35575833473031" lon="16.09146389067403" id="-11824">
		<tag k="alt_name" v="Sjøvika, yt" />
		<tag k="fixme" v="multiple name tags, choose one and add the other to alt_name" />
		<tag k="name" v="Hestvikosen;Ytre Sjøvika" />
		<tag k="natural" v="bay" />
		<tag k="ssr:stedsnr" v="137311" />
	</node>
	<node lat="68.35157222150804" lon="16.074550004340452" id="-11837">
		<tag k="alt_name" v="Akselhamn" />
		<tag k="name" v="Akselhamna" />
		<tag k="natural" v="bay" />
		<tag k="ssr:stedsnr" v="138351" />
	</node>
	<node lat="68.33330555177665" lon="16.162188878151156" id="-11838">
		<tag k="fixme" v="multiple name tags, choose one and add the other to alt_name" />
		<tag k="name" v="Sandværet;Storværet" />
		<tag k="place" v="island" />
		<tag k="ssr:stedsnr" v="138392" />
	</node>
	<node lat="68.26273333472031" lon="17.40468611437471" id="-11857">
		<tag k="name" v="Nausttofta" />
		<tag k="natural" v="cape" />
		<tag k="ssr:stedsnr" v="138800" />
	</node>
	<node lat="68.17234722543266" lon="16.74732221713025" id="-11908">
		<tag k="name" v="Kjårneset" />
		<tag k="natural" v="cape" />
		<tag k="ssr:stedsnr" v="259580" />
	</node>
	<node lat="68.24329444560966" lon="16.583955549685147" id="-11929">
		<tag k="name" v="Kobbnesgrunnen" />
		<tag k="natural" v="shoal" />
		<tag k="place" v="locality" />
		<tag k="ssr:stedsnr" v="164504" />
	</node>
	<node lat="68.43180277614253" lon="17.73497499097956" id="-11938">
		<tag k="alt_name" v="Klubbnes" />
		<tag k="name" v="Klubbneset" />
		<tag k="natural" v="cape" />
		<tag k="ssr:stedsnr" v="260248" />
	</node>
	<node lat="68.44536388486046" lon="17.643016661277688" id="-11939">
		<tag k="name" v="Mølnneset" />
		<tag k="natural" v="cape" />
		<tag k="ssr:stedsnr" v="260270" />
	</node>
	<node lat="68.35574999842491" lon="16.243224997508722" id="-11950">
		<tag k="fixme" v="consider seamark:type=rock or natural=shoal" />
		<tag k="name" v="Engelsøyskjæran" />
		<tag k="place" v="islet" />
		<tag k="ssr:stedsnr" v="260719" />
	</node>
	<node lat="68.32949722512356" lon="16.238638878098136" id="-11955">
		<tag k="name" v="Hestneset" />
		<tag k="natural" v="cape" />
		<tag k="ssr:stedsnr" v="260683" />
	</node>
	<node lat="68.35348611057447" lon="16.241186119010194" id="-11960">
		<tag k="alt_name" v="Løngøya" />
		<tag k="name" v="Lyngøya" />
		<tag k="place" v="islet" />
		<tag k="ssr:stedsnr" v="260732" />
	</node>
	<node lat="68.37884999939855" lon="16.314252765775734" id="-11962">
		<tag k="fixme" v="consider seamark:type=rock or natural=shoal" />
		<tag k="name" v="Sandvikskjæret" />
		<tag k="place" v="islet" />
		<tag k="ssr:stedsnr" v="260737" />
	</node>
	<node lat="68.36910555416104" lon="16.900808340918612" id="-11985">
		<tag k="name" v="Ballsnes" />
		<tag k="natural" v="cape" />
		<tag k="ssr:stedsnr" v="260943" />
	</node>
	<node lat="68.4249444431556" lon="17.343508319343254" id="-11991">
		<tag k="name" v="Båtberget" />
		<tag k="natural" v="cape" />
		<tag k="ssr:stedsnr" v="260987" />
	</node>
	<node lat="68.47004722543679" lon="17.537716662325447" id="-11997">
		<tag k="name" v="Jektvika" />
		<tag k="natural" v="bay" />
		<tag k="ssr:stedsnr" v="261737" />
	</node>
	<node lat="68.31726906302002" lon="17.286509603057382" id="-12001">
		<tag k="alt_name" v="Lengenes" />
		<tag k="name" v="Lengnes" />
		<tag k="natural" v="cape" />
		<tag k="ssr:stedsnr" v="261836" />
	</node>
	<node lat="68.31797221883808" lon="16.141686116911952" id="-12042">
		<tag k="name" v="Svartholmen" />
		<tag k="place" v="islet" />
		<tag k="ssr:stedsnr" v="199361" />
	</node>
	<node lat="68.33392221785968" lon="16.038591668947095" id="-12043">
		<tag k="name" v="Langosodden" />
		<tag k="natural" v="cape" />
		<tag k="ssr:stedsnr" v="199375" />
	</node>
	<node lat="68.40742222270802" lon="17.426005553863437" id="-12051">
		<tag k="name" v="Fagernesstraumen" />
		<tag k="name:no" v="Fagernesstraumen" />
		<tag k="name:se" v="Čoalbmi" />
		<tag k="natural" v="strait" />
		<tag k="ssr:stedsnr" v="199278" />
	</node>
	<node lat="68.4027083330121" lon="16.553311099656927" id="-12064">
		<tag k="alt_name" v="Vargfjord" />
		<tag k="bay" v="fjord" />
		<tag k="name" v="Vargfjorden" />
		<tag k="natural" v="bay" />
		<tag k="ssr:stedsnr" v="199764" />
	</node>
	<node lat="68.42078611115852" lon="16.612991676529635" id="-12065">
		<tag k="alt_name" v="Bondeskjæret" />
		<tag k="fixme" v="consider seamark:type=rock or natural=shoal" />
		<tag k="name" v="Bonskjæret" />
		<tag k="place" v="islet" />
		<tag k="ssr:stedsnr" v="199457" />
	</node>
	<node lat="68.32590555475569" lon="16.265216666638803" id="-12070">
		<tag k="name" v="Hestnesodden" />
		<tag k="natural" v="cape" />
		<tag k="ssr:stedsnr" v="199664" />
	</node>
	<node lat="68.39251944898466" lon="16.891741657465627" id="-12089">
		<tag k="name" v="Kvernnesbåen" />
		<tag k="natural" v="shoal" />
		<tag k="place" v="locality" />
		<tag k="ssr:stedsnr" v="201000" />
	</node>
	<node lat="68.43499166387667" lon="17.718566673231166" id="-12098">
		<tag k="name" v="Bergvik" />
		<tag k="natural" v="bay" />
		<tag k="ssr:stedsnr" v="268019" />
	</node>
	<node lat="68.44049444370545" lon="17.709894438752357" id="-12099">
		<tag k="name" v="Sørnesodden" />
		<tag k="natural" v="cape" />
		<tag k="ssr:stedsnr" v="268022" />
	</node>
	<node lat="68.41503889369538" lon="17.301758321004314" id="-12123">
		<tag k="name" v="Sjøbuneset" />
		<tag k="natural" v="cape" />
		<tag k="ssr:stedsnr" v="268540" />
	</node>
	<node lat="68.3645444458286" lon="16.897947217978235" id="-12132">
		<tag k="name" v="Kobberstranda" />
		<tag k="natural" v="beach" />
		<tag k="ssr:stedsnr" v="207248" />
	</node>
	<node lat="68.54778889320163" lon="17.538524993799957" id="-12135">
		<tag k="name" v="Prestjordneset" />
		<tag k="name:no" v="Prestjordneset" />
		<tag k="name:se" v="Dáktenjárga" />
		<tag k="natural" v="cape" />
		<tag k="ssr:stedsnr" v="207404" />
	</node>
	<node lat="68.30386666748646" lon="16.055502772909104" id="-12153">
		<tag k="name" v="Breifallet" />
		<tag k="natural" v="shoal" />
		<tag k="place" v="locality" />
		<tag k="ssr:stedsnr" v="218106" />
	</node>
	<node lat="68.30695833508868" lon="16.124380552137904" id="-12155">
		<tag k="name" v="Fallan" />
		<tag k="natural" v="shoal" />
		<tag k="place" v="locality" />
		<tag k="ssr:stedsnr" v="218110" />
	</node>
	<node lat="68.40194999903669" lon="16.55778889751339" id="-12157">
		<tag k="name" v="Klubbreite" />
		<tag k="natural" v="bay" />
		<tag k="ssr:stedsnr" v="221602" />
	</node>
	<node lat="68.17693610903999" lon="16.56160554843194" id="-12165">
		<tag k="name" v="Bergneset" />
		<tag k="natural" v="cape" />
		<tag k="ssr:stedsnr" v="225324" />
	</node>
	<node lat="68.45206666646307" lon="17.511005547254296" id="-12179">
		<tag k="name" v="Ytre Djupvikneset" />
		<tag k="natural" v="cape" />
		<tag k="ssr:stedsnr" v="450330" />
	</node>
	<node lat="68.3558805555945" lon="16.917102788056845" id="-12183">
		<tag k="name" v="Hattholmgrunnen" />
		<tag k="natural" v="shoal" />
		<tag k="place" v="locality" />
		<tag k="ssr:stedsnr" v="450364" />
	</node>
	<node lat="68.50584166512641" lon="17.53706110615124" id="-12208">
		<tag k="fixme" v="consider seamark:type=rock or natural=shoal" />
		<tag k="name" v="Storslettskjæret" />
		<tag k="place" v="islet" />
		<tag k="ssr:stedsnr" v="455248" />
	</node>
	<node lat="68.34853055946772" lon="16.107561101140988" id="-12209">
		<tag k="loc_name:se" v="Bárka" />
		<tag k="name" v="Barøya" />
		<tag k="name:no" v="Barøya" />
		<tag k="place" v="island" />
		<tag k="ssr:stedsnr" v="259305" />
	</node>
	<node lat="68.35831388647277" lon="16.182616671945297" id="-12210">
		<tag k="fixme" v="consider seamark:type=rock or natural=shoal" />
		<tag k="name" v="Svartskjæret" />
		<tag k="place" v="islet" />
		<tag k="ssr:stedsnr" v="259320" />
	</node>
	<node lat="68.37795000164182" lon="17.55068889729856" id="-12214">
		<tag k="name" v="Utrorvika" />
		<tag k="natural" v="bay" />
		<tag k="ssr:stedsnr" v="259205" />
	</node>
	<node lat="68.44928888967864" lon="17.57794166376048" id="-12229">
		<tag k="fixme" v="consider seamark:type=rock or natural=shoal" />
		<tag k="name" v="Kvitskjæret" />
		<tag k="place" v="islet" />
		<tag k="ssr:stedsnr" v="260267" />
	</node>
	<node lat="68.47974444439967" lon="17.476933336645974" id="-12239">
		<tag k="name" v="Korsvika" />
		<tag k="natural" v="bay" />
		<tag k="ssr:stedsnr" v="260798" />
	</node>
	<node lat="68.32492222067333" lon="17.257794432737576" id="-12240">
		<tag k="name" v="Buholmen" />
		<tag k="place" v="islet" />
		<tag k="ssr:stedsnr" v="260909" />
	</node>
	<node lat="68.3589472225407" lon="16.96534721183645" id="-12244">
		<tag k="fixme" v="multiple name tags, choose one and add the other to alt_name; consider seamark:type=rock or natural=shoal" />
		<tag k="name" v="Arnesklubben;Åklubben;Klubben" />
		<tag k="place" v="islet" />
		<tag k="ssr:stedsnr" v="260959" />
	</node>
	<node lat="68.39080555900826" lon="16.88453888420132" id="-12245">
		<tag k="name" v="Kvernneset" />
		<tag k="natural" v="cape" />
		<tag k="ssr:stedsnr" v="260963" />
	</node>
	<node lat="68.3979472195202" lon="16.856150007382098" id="-12246">
		<tag k="name" v="Hesjeholmen" />
		<tag k="place" v="islet" />
		<tag k="ssr:stedsnr" v="261000" />
	</node>
	<node lat="68.38092777572864" lon="17.04401666900904" id="-12247">
		<tag k="name" v="Otervika" />
		<tag k="natural" v="bay" />
		<tag k="ssr:stedsnr" v="261950" />
	</node>
	<node lat="68.3250194426755" lon="16.343008322530405" id="-12257">
		<tag k="alt_name" v="Pålsnessnaget" />
		<tag k="name" v="Pollsnessnaget" />
		<tag k="natural" v="shoal" />
		<tag k="place" v="locality" />
		<tag k="ssr:stedsnr" v="264553" />
	</node>
	<node lat="68.47318611448637" lon="17.639038890549678" id="-12281">
		<tag k="name" v="Finnstøa" />
		<tag k="natural" v="beach" />
		<tag k="ssr:stedsnr" v="268384" />
	</node>
	<node lat="68.44437500229134" lon="17.38664443641701" id="-12289">
		<tag k="fixme" v="consider seamark:type=rock or natural=shoal" />
		<tag k="name" v="Kvitvikskjæret" />
		<tag k="place" v="islet" />
		<tag k="ssr:stedsnr" v="273393" />
	</node>
	<node lat="68.28892499760927" lon="16.423719437327435" id="-12294">
		<tag k="fixme" v="consider seamark:type=rock or natural=shoal" />
		<tag k="name" v="Kobbskjæret" />
		<tag k="place" v="islet" />
		<tag k="ssr:stedsnr" v="282318" />
	</node>
	<node lat="68.2975416644806" lon="17.349402768739953" id="-12305">
		<tag k="fixme" v="consider seamark:type=rock or natural=shoal" />
		<tag k="name" v="Slettskjæran" />
		<tag k="place" v="islet" />
		<tag k="ssr:stedsnr" v="282680" />
	</node>
	<node lat="68.39245833017715" lon="16.872577763855077" id="-12310">
		<tag k="name" v="Hestvika" />
		<tag k="natural" v="bay" />
		<tag k="ssr:stedsnr" v="282880" />
	</node>
	<node lat="68.33347499606182" lon="16.207736108074194" id="-12325">
		<tag k="fixme" v="consider seamark:type=rock or natural=shoal" />
		<tag k="name" v="Langskjæret" />
		<tag k="place" v="islet" />
		<tag k="ssr:stedsnr" v="464389" />
	</node>
	<node lat="68.33668889011709" lon="17.27421389343479" id="-12331">
		<tag k="name" v="Kongsbakkneset" />
		<tag k="natural" v="cape" />
		<tag k="ssr:stedsnr" v="464834" />
	</node>
	<node lat="68.41709722200048" lon="16.644480556749496" id="-12342">
		<tag k="name" v="Storvika" />
		<tag k="natural" v="bay" />
		<tag k="ssr:stedsnr" v="320467" />
	</node>
	<node lat="68.31506111496836" lon="17.283922231606557" id="-12427">
		<tag k="name" v="Innerneset" />
		<tag k="natural" v="cape" />
		<tag k="ssr:stedsnr" v="328961" />
	</node>
	<node lat="68.32702777426404" lon="16.12250832002103" id="-12433">
		<tag k="fixme" v="consider seamark:type=rock or natural=shoal" />
		<tag k="name" v="Ørnskjæret" />
		<tag k="place" v="islet" />
		<tag k="ssr:stedsnr" v="339117" />
	</node>
	<node lat="68.09170833370268" lon="16.63062499309698" id="-12454">
		<tag k="name" v="Tjuvsteinlandet" />
		<tag k="natural" v="beach" />
		<tag k="ssr:stedsnr" v="346168" />
	</node>
	<node lat="68.37546111005753" lon="17.55653611801898" id="-12461">
		<tag k="name" v="Beisfjordgubben" />
		<tag k="natural" v="cape" />
		<tag k="ssr:stedsnr" v="380214" />
	</node>
	<node lat="68.23892777941842" lon="16.60246389770049" id="-12464">
		<tag k="name" v="Kobbeneset" />
		<tag k="natural" v="cape" />
		<tag k="ssr:stedsnr" v="380518" />
	</node>
	<node lat="68.16459721833259" lon="16.345969434162228" id="-12499">
		<tag k="name" v="Bergneset" />
		<tag k="natural" v="cape" />
		<tag k="ssr:stedsnr" v="381603" />
	</node>
	<node lat="68.3535000045987" lon="16.94642776773937" id="-12507">
		<tag k="name" v="Krokleira" />
		<tag k="natural" v="bay" />
		<tag k="ssr:stedsnr" v="381902" />
	</node>
	<node lat="68.38002499642182" lon="17.210074988190442" id="-12513">
		<tag k="fixme" v="multiple name tags, choose one and add the other to alt_name" />
		<tag k="name" v="Løbergneset;Lauvbergklubben" />
		<tag k="natural" v="cape" />
		<tag k="ssr:stedsnr" v="382957" />
	</node>
	<node lat="68.25388055545747" lon="17.3755610975673" id="-12538">
		<tag k="name" v="Øverøyran" />
		<tag k="natural" v="cape" />
		<tag k="ssr:stedsnr" v="388463" />
	</node>
	<node lat="68.25518610831084" lon="17.382672224588674" id="-12539">
		<tag k="name" v="Nerøyran" />
		<tag k="place" v="island" />
		<tag k="ssr:stedsnr" v="388465" />
	</node>
	<node lat="68.46963055592778" lon="17.510902771306515" id="-12553">
		<tag k="name" v="Skjellvika" />
		<tag k="natural" v="bay" />
		<tag k="ssr:stedsnr" v="389401" />
	</node>
	<node lat="68.34908611562444" lon="16.862036105136603" id="-12558">
		<tag k="name" v="Slåttstranda" />
		<tag k="natural" v="beach" />
		<tag k="ssr:stedsnr" v="389296" />
	</node>
	<node lat="68.54641944316731" lon="17.5417555437222" id="-12572">
		<tag k="name" v="Prestjordodden" />
		<tag k="natural" v="cape" />
		<tag k="ssr:stedsnr" v="403091" />
	</node>
	<node lat="68.2957277766232" lon="17.35522777099704" id="-12580">
		<tag k="name" v="Yttersandvika" />
		<tag k="natural" v="bay" />
		<tag k="ssr:stedsnr" v="403684" />
	</node>
	<node lat="68.33975555656164" lon="16.183641657867195" id="-12594">
		<tag k="alt_name" v="Littjholmen" />
		<tag k="name" v="Litleholmen" />
		<tag k="place" v="islet" />
		<tag k="ssr:stedsnr" v="441305" />
	</node>
	<node lat="68.36677222341767" lon="16.994691675707777" id="-12624">
		<tag k="alt_name" v="Grønholmen" />
		<tag k="name" v="Grønnholmen" />
		<tag k="place" v="islet" />
		<tag k="ssr:stedsnr" v="442934" />
	</node>
	<node lat="68.38963611260655" lon="17.100202781062745" id="-12626">
		<tag k="name" v="Risøya" />
		<tag k="place" v="island" />
		<tag k="ssr:stedsnr" v="442989" />
	</node>
	<node lat="68.48135277481944" lon="17.474958334229196" id="-12653">
		<tag k="fixme" v="consider seamark:type=rock or natural=shoal" />
		<tag k="name" v="Likholmskjæret" />
		<tag k="place" v="islet" />
		<tag k="ssr:stedsnr" v="450241" />
	</node>
	<node lat="68.35906666708159" lon="16.88582499356865" id="-12654">
		<tag k="name" v="Torrungstranda" />
		<tag k="natural" v="beach" />
		<tag k="ssr:stedsnr" v="450245" />
	</node>
	<node lat="68.29782778076303" lon="16.50101389827254" id="-12677">
		<tag k="name" v="Hella" />
		<tag k="natural" v="shoal" />
		<tag k="place" v="locality" />
		<tag k="ssr:stedsnr" v="461546" />
	</node>
	<node lat="68.44259722057842" lon="17.656613874745364" id="-12683">
		<tag k="name" v="Nøkkelvika" />
		<tag k="natural" v="bay" />
		<tag k="ssr:stedsnr" v="464079" />
	</node>
	<node lat="68.39595555800454" lon="16.532522216542066" id="-12687">
		<tag k="name" v="Breineset" />
		<tag k="natural" v="cape" />
		<tag k="ssr:stedsnr" v="464653" />
	</node>
	<node lat="68.17738611043313" lon="16.331016657160163" id="-12692">
		<tag k="name" v="Nesskallen" />
		<tag k="natural" v="shoal" />
		<tag k="place" v="locality" />
		<tag k="ssr:stedsnr" v="467505" />
	</node>
	<node lat="68.35323889168068" lon="16.179777775543357" id="-12699">
		<tag k="name" v="Buholmen" />
		<tag k="place" v="islet" />
		<tag k="ssr:stedsnr" v="502303" />
	</node>
	<node lat="68.16537221963364" lon="16.742213876249398" id="-12703">
		<tag k="bay" v="fjord" />
		<tag k="name" v="Tauselvhavet" />
		<tag k="natural" v="bay" />
		<tag k="ssr:stedsnr" v="502613" />
	</node>
	<node lat="68.35220833638307" lon="16.289002768196028" id="-12714">
		<tag k="name" v="Storvika" />
		<tag k="natural" v="bay" />
		<tag k="ssr:stedsnr" v="502689" />
	</node>
	<node lat="68.03748333436303" lon="16.42001387867717" id="-12718">
		<tag k="name" v="Juovvaluokta - Urdvika" />
		<tag k="name:no" v="Urdvika" />
		<tag k="name:smj" v="Juovvaluokta" />
		<tag k="natural" v="bay" />
		<tag k="ssr:stedsnr" v="502814" />
	</node>
	<node lat="68.18662222126837" lon="16.253355550565253" id="-12726">
		<tag k="bay" v="fjord" />
		<tag k="name" v="Haukøyfjorden" />
		<tag k="natural" v="bay" />
		<tag k="ssr:stedsnr" v="502595" />
	</node>
	<node lat="68.44148333220029" lon="17.701022217991916" id="-12734">
		<tag k="name" v="Straumen" />
		<tag k="natural" v="strait" />
		<tag k="ssr:stedsnr" v="503172" />
	</node>
	<node lat="68.46914722286283" lon="17.500722226215665" id="-12739">
		<tag k="name" v="Slåttvika" />
		<tag k="natural" v="bay" />
		<tag k="ssr:stedsnr" v="503435" />
	</node>
	<node lat="68.3386749959376" lon="17.276038893506982" id="-12742">
		<tag k="name" v="Mølnvika" />
		<tag k="natural" v="bay" />
		<tag k="ssr:stedsnr" v="503808" />
	</node>
	<node lat="68.3199555601001" lon="17.262083326738733" id="-12744">
		<tag k="name" v="Karvevika" />
		<tag k="natural" v="bay" />
		<tag k="ssr:stedsnr" v="503822" />
	</node>
	<node lat="68.49153611197427" lon="17.498708331773397" id="-12745">
		<tag k="name" v="Tennholmen" />
		<tag k="place" v="islet" />
		<tag k="ssr:stedsnr" v="503722" />
	</node>
	<node lat="68.47379166413452" lon="17.565749991907396" id="-12758">
		<tag k="name" v="Gjerdeneset" />
		<tag k="natural" v="cape" />
		<tag k="ssr:stedsnr" v="510402" />
	</node>
	<node lat="68.31685277968936" lon="17.281213886100637" id="-12778">
		<tag k="name" v="Stranda" />
		<tag k="natural" v="beach" />
		<tag k="ssr:stedsnr" v="510966" />
	</node>
	<node lat="68.317099998128" lon="17.27089165935059" id="-12779">
		<tag k="name" v="Seljevika" />
		<tag k="natural" v="bay" />
		<tag k="ssr:stedsnr" v="510967" />
	</node>
	<node lat="68.35488889208952" lon="16.207438877636083" id="-12789">
		<tag k="name" v="Engelsøya" />
		<tag k="place" v="island" />
		<tag k="ssr:stedsnr" v="684329" />
	</node>
	<node lat="68.41347500160694" lon="16.782724987175307" id="-12791">
		<tag k="name" v="Djupvikneset" />
		<tag k="natural" v="cape" />
		<tag k="ssr:stedsnr" v="684471" />
	</node>
	<node lat="68.25896388938912" lon="16.625586099192372" id="-12798">
		<tag k="name" v="Myrnes" />
		<tag k="natural" v="cape" />
		<tag k="ssr:stedsnr" v="684536" />
	</node>
	<node lat="68.4040250036909" lon="16.80202777188113" id="-12818">
		<tag k="alt_name" v="Framvik" />
		<tag k="name" v="Framvika" />
		<tag k="natural" v="bay" />
		<tag k="ssr:stedsnr" v="684736" />
	</node>
	<node lat="68.31274166351858" lon="17.305208341518547" id="-12843">
		<tag k="name" v="Kobbesteinvika" />
		<tag k="natural" v="bay" />
		<tag k="ssr:stedsnr" v="524864" />
	</node>
	<node lat="68.48328333238851" lon="17.478519453018606" id="-12860">
		<tag k="name" v="Likholmen" />
		<tag k="place" v="islet" />
		<tag k="ssr:stedsnr" v="685739" />
	</node>
	<node lat="68.34738889308467" lon="16.918919446057945" id="-12871">
		<tag k="name" v="Bruaneset" />
		<tag k="natural" v="cape" />
		<tag k="ssr:stedsnr" v="685881" />
	</node>
	<node lat="68.35303889269828" lon="16.88600276921259" id="-12873">
		<tag k="alt_name" v="Ballangsfjorden" />
		<tag k="bay" v="fjord" />
		<tag k="name" v="Ballangen" />
		<tag k="natural" v="bay" />
		<tag k="ssr:stedsnr" v="685887" />
	</node>
	<node lat="68.3743166687955" lon="17.253747217867097" id="-12886">
		<tag k="name" v="Lappstøa" />
		<tag k="natural" v="cape" />
		<tag k="ssr:stedsnr" v="685967" />
	</node>
	<node lat="68.3765333302515" lon="17.5561416577029" id="-12911">
		<tag k="name" v="Bertneset" />
		<tag k="natural" v="cape" />
		<tag k="ssr:stedsnr" v="692273" />
	</node>
	<node lat="68.3737749993591" lon="17.575650005189285" id="-12913">
		<tag k="name" v="Torvenauststøa" />
		<tag k="natural" v="beach" />
		<tag k="ssr:stedsnr" v="692299" />
	</node>
	<node lat="68.44541944093015" lon="17.6388749986982" id="-12914">
		<tag k="name" v="Leira" />
		<tag k="natural" v="beach" />
		<tag k="ssr:stedsnr" v="692316" />
	</node>
	<node lat="68.35210833775984" lon="16.900880547997616" id="-12919">
		<tag k="fixme" v="consider seamark:type=rock or natural=shoal" />
		<tag k="name" v="Forrnesskjærran" />
		<tag k="place" v="islet" />
		<tag k="ssr:stedsnr" v="692363" />
	</node>
	<node lat="68.38528055964129" lon="17.073880545936294" id="-12929">
		<tag k="name" v="Sildvikodden" />
		<tag k="natural" v="cape" />
		<tag k="ssr:stedsnr" v="692735" />
	</node>
	<node lat="68.4115500001799" lon="17.42517222992325" id="-12962">
		<tag k="name" v="Fagernesleira" />
		<tag k="natural" v="bay" />
		<tag k="ssr:stedsnr" v="570555" />
	</node>
	<node lat="68.43258888518717" lon="17.72927221952749" id="-12966">
		<tag k="name" v="Yttervika" />
		<tag k="natural" v="bay" />
		<tag k="ssr:stedsnr" v="571012" />
	</node>
	<node lat="68.49188888611341" lon="17.503963883080832" id="-12972">
		<tag k="fixme" v="consider seamark:type=rock or natural=shoal" />
		<tag k="name" v="Tennholmskjæret" />
		<tag k="place" v="islet" />
		<tag k="ssr:stedsnr" v="571556" />
	</node>
	<node lat="68.49605277523762" lon="17.51510000577977" id="-12983">
		<tag k="name" v="Klubba" />
		<tag k="place" v="islet" />
		<tag k="ssr:stedsnr" v="571415" />
	</node>
	<node lat="68.4928750027516" lon="17.514205549388315" id="-12985">
		<tag k="name" v="Osen" />
		<tag k="natural" v="bay" />
		<tag k="ssr:stedsnr" v="571419" />
	</node>
	<node lat="68.29703888814134" lon="16.449383329209155" id="-12996">
		<tag k="name" v="Rettneset" />
		<tag k="natural" v="cape" />
		<tag k="ssr:stedsnr" v="582510" />
	</node>
	<node lat="68.4063305553061" lon="16.80454722660459" id="-13048">
		<tag k="fixme" v="consider seamark:type=rock or natural=shoal" />
		<tag k="name" v="Framskjæret" />
		<tag k="place" v="islet" />
		<tag k="ssr:stedsnr" v="623766" />
	</node>
	<node lat="68.25840555372604" lon="17.360466658826272" id="-13053">
		<tag k="name" v="Reinneset" />
		<tag k="natural" v="cape" />
		<tag k="ssr:stedsnr" v="624805" />
	</node>
	<node lat="68.38956110924701" lon="17.125291670985092" id="-13059">
		<tag k="alt_name" v="Klubben, yt" />
		<tag k="fixme" v="consider seamark:type=rock or natural=shoal" />
		<tag k="name" v="Ytre Klubben" />
		<tag k="place" v="islet" />
		<tag k="ssr:stedsnr" v="624989" />
	</node>
	<node lat="68.40550000263222" lon="16.83380000326155" id="-13060">
		<tag k="loc_name" v="Reinskjærgrunnen" />
		<tag k="name" v="Reinskjærgrunna" />
		<tag k="natural" v="shoal" />
		<tag k="place" v="locality" />
		<tag k="ssr:stedsnr" v="624991" />
	</node>
	<node lat="68.35298611061471" lon="16.947574987918568" id="-13099">
		<tag k="name" v="Åkerneset" />
		<tag k="natural" v="cape" />
		<tag k="ssr:stedsnr" v="631341" />
	</node>
	<node lat="68.49790277316484" lon="17.518986117361404" id="-13101">
		<tag k="name" v="Rødholmen" />
		<tag k="place" v="islet" />
		<tag k="ssr:stedsnr" v="631384" />
	</node>
	<node lat="68.49223611179005" lon="17.509544448439716" id="-13102">
		<tag k="fixme" v="consider seamark:type=rock or natural=shoal" />
		<tag k="name" v="Laukholmskjæret" />
		<tag k="place" v="islet" />
		<tag k="ssr:stedsnr" v="631387" />
	</node>
	<node lat="68.48830278243628" lon="17.50139998906839" id="-13105">
		<tag k="fixme" v="consider seamark:type=rock or natural=shoal" />
		<tag k="name" v="Kattsteinen" />
		<tag k="place" v="islet" />
		<tag k="ssr:stedsnr" v="631535" />
	</node>
	<node lat="68.48658611241893" lon="17.488163880132774" id="-13106">
		<tag k="fixme" v="consider seamark:type=rock or natural=shoal" />
		<tag k="name" v="Skjæret" />
		<tag k="place" v="islet" />
		<tag k="ssr:stedsnr" v="631539" />
	</node>
	<node lat="68.49115000322762" lon="17.432180564672116" id="-13124">
		<tag k="name" v="Skolten" />
		<tag k="natural" v="shoal" />
		<tag k="place" v="locality" />
		<tag k="ssr:stedsnr" v="636290" />
	</node>
	<node lat="68.23715277984613" lon="17.35062499081541" id="-13125">
		<tag k="name" v="Laukvikhamn" />
		<tag k="natural" v="bay" />
		<tag k="ssr:stedsnr" v="636908" />
	</node>
	<node lat="68.33614722355316" lon="16.135288880457253" id="-13128">
		<tag k="name" v="Sortvika" />
		<tag k="natural" v="bay" />
		<tag k="ssr:stedsnr" v="706270" />
	</node>
	<node lat="68.33340555191681" lon="16.07230832349957" id="-13130">
		<tag k="name" v="Storvika" />
		<tag k="natural" v="bay" />
		<tag k="ssr:stedsnr" v="706379" />
	</node>
	<node lat="68.37362222403465" lon="16.912350004666358" id="-13156">
		<tag k="name" v="Kårholmen" />
		<tag k="place" v="islet" />
		<tag k="ssr:stedsnr" v="645886" />
	</node>
	<node lat="68.27211388781636" lon="16.629100006145023" id="-13165">
		<tag k="name" v="Mølnhola" />
		<tag k="natural" v="bay" />
		<tag k="ssr:stedsnr" v="706654" />
	</node>
	<node lat="68.1929499990645" lon="16.540594433795295" id="-13172">
		<tag k="name" v="Djupvikneset" />
		<tag k="natural" v="cape" />
		<tag k="ssr:stedsnr" v="649308" />
	</node>
	<node lat="68.22927778031642" lon="16.460947222097662" id="-13181">
		<tag k="name" v="Kristenheimneset" />
		<tag k="natural" v="cape" />
		<tag k="ssr:stedsnr" v="710278" />
	</node>
	<node lat="68.3106999965116" lon="16.34696666060584" id="-13192">
		<tag k="name" v="Teppkilneset" />
		<tag k="natural" v="cape" />
		<tag k="ssr:stedsnr" v="684613" />
	</node>
	<node lat="68.54459166989233" lon="17.522272215164623" id="-13209">
		<tag k="name" v="Kvitbergvika" />
		<tag k="natural" v="bay" />
		<tag k="ssr:stedsnr" v="685703" />
	</node>
	<node lat="68.4996583381279" lon="17.520930549202117" id="-13215">
		<tag k="fixme" v="multiple name tags, choose one and add the other to alt_name" />
		<tag k="name" v="Kufiskholmen;Kufiskskjæret" />
		<tag k="place" v="islet" />
		<tag k="ssr:stedsnr" v="685795" />
	</node>
	<node lat="68.34213888769315" lon="16.83628055467016" id="-13242">
		<tag k="name" v="Finnvika" />
		<tag k="natural" v="bay" />
		<tag k="ssr:stedsnr" v="692406" />
	</node>
	<node lat="68.40987221813006" lon="17.43737778437082" id="-13247">
		<tag k="name" v="Holmen" />
		<tag k="natural" v="cape" />
		<tag k="ssr:stedsnr" v="692510" />
	</node>
	<node lat="68.49830555283454" lon="17.526722223868767" id="-13254">
		<tag k="name" v="Munnholmen" />
		<tag k="natural" v="cape" />
		<tag k="ssr:stedsnr" v="693420" />
	</node>
	<node lat="68.42227778219294" lon="16.74211666614668" id="-13257">
		<tag k="fixme" v="consider seamark:type=rock or natural=shoal" />
		<tag k="name" v="Kalvskjæret" />
		<tag k="place" v="islet" />
		<tag k="ssr:stedsnr" v="694282" />
	</node>
	<node lat="68.26940555779294" lon="16.338141674560998" id="-13258">
		<tag k="name" v="Eidebukta" />
		<tag k="natural" v="bay" />
		<tag k="ssr:stedsnr" v="704509" />
	</node>
	<node lat="68.30725833808116" lon="17.321513880294667" id="-13262">
		<tag k="name" v="Yttervika" />
		<tag k="natural" v="bay" />
		<tag k="ssr:stedsnr" v="706881" />
	</node>
	<node lat="68.3316611139032" lon="16.213530567733436" id="-13279">
		<tag k="fixme" v="consider seamark:type=rock or natural=shoal" />
		<tag k="name" v="Sandskjæran" />
		<tag k="place" v="islet" />
		<tag k="ssr:stedsnr" v="745404" />
	</node>
	<node lat="68.0433611091751" lon="16.356324995851974" id="-13287">
		<tag k="name" v="Durrá - Tørrnes" />
		<tag k="name:no" v="Tørrnes" />
		<tag k="name:smj" v="Durrá" />
		<tag k="natural" v="cape" />
		<tag k="old_name:smj" v="Durra" />
		<tag k="ssr:stedsnr" v="745508" />
	</node>
	<node lat="68.34917499701257" lon="16.243833336221407" id="-13304">
		<tag k="fixme" v="consider seamark:type=rock or natural=shoal" />
		<tag k="name" v="Langskjæret" />
		<tag k="place" v="islet" />
		<tag k="ssr:stedsnr" v="745723" />
	</node>
	<node lat="68.47190277734883" lon="17.628213874006065" id="-13321">
		<tag k="name" v="Dalholmen" />
		<tag k="name:no" v="Dalholmen" />
		<tag k="name:se" v="Ralttáksuolu" />
		<tag k="place" v="islet" />
		<tag k="ssr:stedsnr" v="746722" />
	</node>
	<node lat="68.40028333496782" lon="16.817372212776938" id="-13345">
		<tag k="name" v="Jonsholmen" />
		<tag k="place" v="islet" />
		<tag k="ssr:stedsnr" v="753210" />
	</node>
	<node lat="68.42121111500896" lon="17.303744448576538" id="-13352">
		<tag k="name" v="Tangvika" />
		<tag k="natural" v="bay" />
		<tag k="ssr:stedsnr" v="753472" />
	</node>
	<node lat="68.51545277356108" lon="17.552763887089572" id="-13354">
		<tag k="name" v="Lilleklubben" />
		<tag k="place" v="islet" />
		<tag k="ssr:stedsnr" v="753371" />
	</node>
	<node lat="68.44650555306309" lon="17.425113897686582" id="-13363">
		<tag k="name" v="Vassvika" />
		<tag k="natural" v="bay" />
		<tag k="ssr:stedsnr" v="758447" />
	</node>
	<node lat="68.44156388629526" lon="17.388802772230434" id="-13364">
		<tag k="name" v="Kvitvikberget" />
		<tag k="natural" v="cape" />
		<tag k="ssr:stedsnr" v="758717" />
	</node>
	<node lat="68.34536111466062" lon="16.20763889735373" id="-13368">
		<tag k="name" v="Kalvneset" />
		<tag k="natural" v="cape" />
		<tag k="ssr:stedsnr" v="767253" />
	</node>
	<node lat="68.21379722154053" lon="16.227772220883452" id="-13374">
		<tag k="name" v="Skarbergbukta" />
		<tag k="natural" v="bay" />
		<tag k="ssr:stedsnr" v="771454" />
	</node>
	<node lat="68.44686666458472" lon="17.717636096627206" id="-13411">
		<tag k="name" v="Tyttebærvika" />
		<tag k="natural" v="bay" />
		<tag k="ssr:stedsnr" v="814007" />
	</node>
	<node lat="68.47161388625155" lon="17.54556943394393" id="-13418">
		<tag k="name" v="Stråvika" />
		<tag k="natural" v="bay" />
		<tag k="ssr:stedsnr" v="814446" />
	</node>
	<node lat="68.51364999626435" lon="17.54899443563666" id="-13422">
		<tag k="name" v="Eitervikneset" />
		<tag k="natural" v="cape" />
		<tag k="ssr:stedsnr" v="814453" />
	</node>
	<node lat="68.32813611018842" lon="16.116569454360597" id="-13434">
		<tag k="name" v="Ørnskjærskallan" />
		<tag k="natural" v="shoal" />
		<tag k="place" v="locality" />
		<tag k="ssr:stedsnr" v="825067" />
	</node>
	<node lat="68.33279721928336" lon="16.149008319602984" id="-13439">
		<tag k="name" v="Elenholmen" />
		<tag k="place" v="islet" />
		<tag k="ssr:stedsnr" v="828367" />
	</node>
	<node lat="68.33245555480357" lon="16.232999997065903" id="-13442">
		<tag k="name" v="Hamn" />
		<tag k="natural" v="cape" />
		<tag k="ssr:stedsnr" v="828374" />
	</node>
	<node lat="68.40837778071116" lon="16.569774996532082" id="-13445">
		<tag k="name" v="Strømsnes" />
		<tag k="natural" v="cape" />
		<tag k="ssr:stedsnr" v="828609" />
	</node>
	<node lat="68.33143332988594" lon="16.17330833896224" id="-13456">
		<tag k="name" v="Kråkholmen" />
		<tag k="place" v="islet" />
		<tag k="ssr:stedsnr" v="927390" />
	</node>
	<node lat="68.11842221832562" lon="16.28191667321844" id="-13472">
		<tag k="alt_name:no" v="Fredagsvikneset" />
		<tag k="name" v="Ráhtáluovtnjárgga - Fredagsviknes" />
		<tag k="name:no" v="Fredagsviknes" />
		<tag k="name:smj" v="Ráhtáluovtnjárgga" />
		<tag k="natural" v="cape" />
		<tag k="old_name:smj" v="Rattaluoktnjárga" />
		<tag k="ssr:stedsnr" v="927583" />
	</node>
	<node lat="68.36123333294867" lon="16.270008342435343" id="-13479">
		<tag k="alt_name" v="Hamnes" />
		<tag k="name" v="Hamnnes" />
		<tag k="natural" v="cape" />
		<tag k="ssr:stedsnr" v="927684" />
	</node>
	<node lat="68.40184444479013" lon="16.545947224168163" id="-13494">
		<tag k="name" v="Skognes" />
		<tag k="natural" v="cape" />
		<tag k="ssr:stedsnr" v="927747" />
	</node>
	<node lat="68.37003055684382" lon="16.901102786822257" id="-13495">
		<tag k="name" v="Tranhalsen" />
		<tag k="natural" v="cape" />
		<tag k="ssr:stedsnr" v="927934" />
	</node>
	<node lat="68.43644444448007" lon="17.716499986213456" id="-13500">
		<tag k="name" v="Pålvika" />
		<tag k="natural" v="bay" />
		<tag k="ssr:stedsnr" v="928172" />
	</node>
	<node lat="68.412677780952" lon="17.83925833322198" id="-13504">
		<tag k="name" v="Håkjerringgrunnen" />
		<tag k="natural" v="shoal" />
		<tag k="place" v="locality" />
		<tag k="ssr:stedsnr" v="928211" />
	</node>
	<node lat="68.53431666359194" lon="17.501944439193505" id="-13516">
		<tag k="name" v="Galtneset" />
		<tag k="natural" v="cape" />
		<tag k="ssr:stedsnr" v="928690" />
	</node>
	<node lat="68.47367222042531" lon="17.47247776755129" id="-13522">
		<tag k="alt_name" v="Nilslarsvika" />
		<tag k="name" v="Nils Larsvika" />
		<tag k="natural" v="bay" />
		<tag k="ssr:stedsnr" v="928737" />
	</node>
	<node lat="68.4847805563978" lon="17.485258321751832" id="-13524">
		<tag k="alt_name" v="Raudholmen" />
		<tag k="name" v="Rødholmen" />
		<tag k="place" v="islet" />
		<tag k="ssr:stedsnr" v="928747" />
	</node>
	<node lat="68.35844722231761" lon="17.266055555894262" id="-13532">
		<tag k="name" v="Skredvika" />
		<tag k="natural" v="bay" />
		<tag k="ssr:stedsnr" v="928871" />
	</node>
	<node lat="68.36499444232867" lon="17.25827222565949" id="-13538">
		<tag k="name" v="Hesjevika" />
		<tag k="natural" v="bay" />
		<tag k="ssr:stedsnr" v="928923" />
	</node>
	<node lat="68.4433555582616" lon="17.391441654580046" id="-13544">
		<tag k="name" v="Kvitvika" />
		<tag k="natural" v="bay" />
		<tag k="ssr:stedsnr" v="928981" />
	</node>
	<node lat="68.41547777945034" lon="17.212955560721472" id="-13545">
		<tag k="name" v="Skjomgrunnen" />
		<tag k="natural" v="shoal" />
		<tag k="place" v="locality" />
		<tag k="ssr:stedsnr" v="928991" />
	</node>
	<node lat="68.4329999963495" lon="17.381883319151058" id="-13548">
		<tag k="name" v="Framnesodden" />
		<tag k="natural" v="cape" />
		<tag k="ssr:stedsnr" v="867976" />
	</node>
	<node lat="68.42182777974176" lon="17.31395834430388" id="-13549">
		<tag k="alt_name" v="Emmenes" />
		<tag k="name" v="Emmeneset" />
		<tag k="natural" v="cape" />
		<tag k="ssr:stedsnr" v="867981" />
	</node>
	<node lat="68.40958611304379" lon="17.43173056386045" id="-13610">
		<tag k="name" v="Fagerneset" />
		<tag k="natural" v="cape" />
		<tag k="ssr:stedsnr" v="880900" />
	</node>
	<node lat="68.23576111200049" lon="16.23458056675094" id="-13637">
		<tag k="name" v="Kobbsteinen" />
		<tag k="natural" v="shoal" />
		<tag k="place" v="locality" />
		<tag k="ssr:stedsnr" v="892417" />
	</node>
	<node lat="68.11103333531119" lon="16.221283330886454" id="-13639">
		<tag k="name" v="Ytre Balten" />
		<tag k="natural" v="shoal" />
		<tag k="place" v="locality" />
		<tag k="ssr:stedsnr" v="892481" />
	</node>
	<node lat="68.20908889010241" lon="16.25564444959068" id="-13651">
		<tag k="name" v="Makholmneset" />
		<tag k="natural" v="cape" />
		<tag k="ssr:stedsnr" v="927527" />
	</node>
	<node lat="68.27295555333691" lon="16.716924991374366" id="-13655">
		<tag k="name" v="Grunnvassbotn" />
		<tag k="natural" v="bay" />
		<tag k="ssr:stedsnr" v="927559" />
	</node>
	<node lat="68.28527777596186" lon="16.500488887048686" id="-13660">
		<tag k="name" v="Ånepollen" />
		<tag k="natural" v="bay" />
		<tag k="ssr:stedsnr" v="927452" />
	</node>
	<node lat="68.37769999826118" lon="16.301991670452026" id="-13668">
		<tag k="fixme" v="consider seamark:type=rock or natural=shoal" />
		<tag k="name" v="Oterhaugskjæret" />
		<tag k="place" v="islet" />
		<tag k="ssr:stedsnr" v="927702" />
	</node>
	<node lat="68.37900277937473" lon="17.59501387836687" id="-13697">
		<tag k="name" v="Osen" />
		<tag k="natural" v="bay" />
		<tag k="ssr:stedsnr" v="935337" />
	</node>
	<node lat="68.52863315453067" lon="17.481862464232048" id="-13700">
		<tag k="name" v="Slettjordneset" />
		<tag k="natural" v="cape" />
		<tag k="ssr:stedsnr" v="935295" />
	</node>
	<node lat="68.46668055481553" lon="17.473016666508205" id="-13713">
		<tag k="name" v="Øyjordtangen" />
		<tag k="natural" v="cape" />
		<tag k="ssr:stedsnr" v="936239" />
	</node>
	<node lat="68.33111388690207" lon="16.037613882003093" id="-13718">
		<tag k="name" v="Langosholmen" />
		<tag k="place" v="islet" />
		<tag k="ssr:stedsnr" v="946087" />
	</node>
	<node lat="68.3230361066848" lon="16.0943611210741" id="-13719">
		<tag k="name" v="Laukvikbåan" />
		<tag k="natural" v="shoal" />
		<tag k="place" v="locality" />
		<tag k="ssr:stedsnr" v="946091" />
	</node>
	<node lat="68.36501388888867" lon="16.910386109550284" id="-13720">
		<tag k="name" v="Steingrunnen" />
		<tag k="natural" v="shoal" />
		<tag k="place" v="locality" />
		<tag k="ssr:stedsnr" v="946694" />
	</node>
	<node lat="68.17466666914393" lon="16.356772222347217" id="-13728">
		<tag k="name" v="Sørnesskallen" />
		<tag k="natural" v="shoal" />
		<tag k="place" v="locality" />
		<tag k="ssr:stedsnr" v="953539" />
	</node>
	<node lat="68.31430278103883" lon="16.094408323961588" id="-13866">
		<tag k="fixme" v="consider seamark:type=rock or natural=shoal" />
		<tag k="name" v="Linveitskjæran" />
		<tag k="place" v="islet" />
		<tag k="ssr:stedsnr" v="17386" />
	</node>
	<node lat="68.2631333315797" lon="16.17570555313324" id="-13879">
		<tag k="name" v="Bietsisjsuoloj - Bekkenesholmen" />
		<tag k="name:no" v="Bekkenesholmen" />
		<tag k="name:smj" v="Bietsisjsuoloj" />
		<tag k="place" v="islet" />
		<tag k="ssr:stedsnr" v="17419" />
	</node>
	<node lat="68.2045166653007" lon="16.631574994835898" id="-13880">
		<tag k="bay" v="fjord" />
		<tag k="name" v="Áhtávuodna" />
		<tag k="name:no" v="Efjorden" />
		<tag k="name:smj" v="Áhtávuodna" />
		<tag k="natural" v="bay" />
		<tag k="old_name:smj" v="Átavuotna" />
		<tag k="ssr:stedsnr" v="17533" />
	</node>
	<node lat="68.41516388961438" lon="16.56554445217893" id="-13900">
		<tag k="name" v="Korshamn" />
		<tag k="natural" v="cape" />
		<tag k="ssr:stedsnr" v="17486" />
	</node>
	<node lat="68.40914167060264" lon="16.513099999528247" id="-13901">
		<tag k="alt_name" v="Moltforrvika" />
		<tag k="name" v="Moltforvika" />
		<tag k="natural" v="bay" />
		<tag k="ssr:stedsnr" v="17498" />
	</node>
	<node lat="68.33413333353855" lon="16.079258324839753" id="-13913">
		<tag k="name" v="Barøyodden" />
		<tag k="natural" v="cape" />
		<tag k="ssr:stedsnr" v="18415" />
	</node>
	<node lat="68.35143055677631" lon="16.914074999841606" id="-13917">
		<tag k="name" v="Arnesholmen" />
		<tag k="place" v="islet" />
		<tag k="ssr:stedsnr" v="18858" />
	</node>
	<node lat="68.34709444677428" lon="16.907450009621176" id="-13919">
		<tag k="name" v="Leirosen" />
		<tag k="natural" v="bay" />
		<tag k="ssr:stedsnr" v="18876" />
	</node>
	<node lat="68.38383333291412" lon="17.033955562783667" id="-13923">
		<tag k="alt_name" v="Klubben" />
		<tag k="fixme" v="consider seamark:type=rock or natural=shoal" />
		<tag k="name" v="Saltvikklubben" />
		<tag k="place" v="islet" />
		<tag k="ssr:stedsnr" v="18932" />
	</node>
	<node lat="68.38511110809019" lon="17.077874999966056" id="-13924">
		<tag k="alt_name" v="Sildvika, in" />
		<tag k="name" v="Inner-Sildvik" />
		<tag k="natural" v="bay" />
		<tag k="ssr:stedsnr" v="18934" />
	</node>
	<node lat="68.4196888890818" lon="17.297919448705684" id="-13927">
		<tag k="name" v="Tangodden" />
		<tag k="natural" v="cape" />
		<tag k="ssr:stedsnr" v="18979" />
	</node>
	<node lat="68.41621389008588" lon="17.395930552912798" id="-13929">
		<tag k="name" v="Jektvika" />
		<tag k="natural" v="bay" />
		<tag k="ssr:stedsnr" v="18993" />
	</node>
	<node lat="68.44756388788011" lon="17.62611945174216" id="-13954">
		<tag k="name" v="Mulvika" />
		<tag k="natural" v="bay" />
		<tag k="ssr:stedsnr" v="25357" />
	</node>
	<node lat="68.44720000054517" lon="17.621061108648732" id="-13955">
		<tag k="name" v="Neset" />
		<tag k="natural" v="cape" />
		<tag k="ssr:stedsnr" v="25358" />
	</node>
	<node lat="68.34958055709617" lon="16.89060834016167" id="-13956">
		<tag k="name" v="Anutvika" />
		<tag k="natural" v="bay" />
		<tag k="ssr:stedsnr" v="25365" />
	</node>
	<node lat="68.35001944094714" lon="16.894597212105552" id="-13958">
		<tag k="name" v="Forrnesodden" />
		<tag k="natural" v="cape" />
		<tag k="ssr:stedsnr" v="25386" />
	</node>
	<node lat="68.4056694404032" lon="17.422380552400266" id="-13973">
		<tag k="name" v="Millerjordnes" />
		<tag k="natural" v="cape" />
		<tag k="ssr:stedsnr" v="25605" />
	</node>
	<node lat="68.41861666847699" lon="17.390100008031894" id="-13975">
		<tag k="name" v="Klokkarberget" />
		<tag k="natural" v="beach" />
		<tag k="ssr:stedsnr" v="25613" />
	</node>
	<node lat="68.3930611121718" lon="17.143466657606886" id="-13977">
		<tag k="name" v="Bryggeberget" />
		<tag k="natural" v="cape" />
		<tag k="ssr:stedsnr" v="25848" />
	</node>
	<node lat="68.40089166956514" lon="17.278577780854913" id="-13980">
		<tag k="name" v="Håkvikstranda" />
		<tag k="natural" v="beach" />
		<tag k="ssr:stedsnr" v="25963" />
	</node>
	<node lat="68.33221666556217" lon="16.082544447521112" id="-13984">
		<tag k="fixme" v="consider seamark:type=rock or natural=shoal" />
		<tag k="name" v="Skarvskiten" />
		<tag k="place" v="islet" />
		<tag k="ssr:stedsnr" v="39335" />
	</node>
	<node lat="68.33136944756527" lon="16.046875001198206" id="-13985">
		<tag k="name" v="Breiosen" />
		<tag k="natural" v="bay" />
		<tag k="ssr:stedsnr" v="39336" />
	</node>
	<node lat="68.28366111034707" lon="17.375791655446445" id="-13998">
		<tag k="name" v="Oternes" />
		<tag k="natural" v="cape" />
		<tag k="ssr:stedsnr" v="39700" />
	</node>
	<node lat="68.37506388773294" lon="17.032688890578246" id="-13999">
		<tag k="name" v="Kuholmen" />
		<tag k="place" v="islet" />
		<tag k="ssr:stedsnr" v="39884" />
	</node>
	<node lat="68.37564999728605" lon="17.033033326182313" id="-14000">
		<tag k="name" v="Rundholmen" />
		<tag k="place" v="islet" />
		<tag k="ssr:stedsnr" v="39885" />
	</node>
	<node lat="68.30266388737333" lon="17.336905545846257" id="-14001">
		<tag k="fixme" v="consider seamark:type=rock or natural=shoal" />
		<tag k="name" v="Per-Elsa-steinen" />
		<tag k="place" v="islet" />
		<tag k="ssr:stedsnr" v="39828" />
	</node>
	<node lat="68.08668055287677" lon="16.536833340682833" id="-14004">
		<tag k="name" v="Slåtvika" />
		<tag k="natural" v="beach" />
		<tag k="ssr:stedsnr" v="42149" />
	</node>
	<node lat="68.20714722615547" lon="16.211000004199587" id="-14005">
		<tag k="name" v="Skarberggrunnen" />
		<tag k="natural" v="bay" />
		<tag k="ssr:stedsnr" v="43416" />
	</node>
	<node lat="68.49373888811482" lon="17.34484444946305" id="-14012">
		<tag k="alt_name" v="Tortenneset, yt" />
		<tag k="name" v="Ytter-Tortenneset" />
		<tag k="natural" v="cape" />
		<tag k="ssr:stedsnr" v="77561" />
	</node>
	<node lat="68.25869999814604" lon="16.2872555432314" id="-14014">
		<tag k="name" v="Skårnesodden" />
		<tag k="natural" v="cape" />
		<tag k="ssr:stedsnr" v="77576" />
	</node>
	<node lat="68.41845555243452" lon="16.60237498969973" id="-14019">
		<tag k="name" v="Porsøybogen" />
		<tag k="natural" v="bay" />
		<tag k="ssr:stedsnr" v="78472" />
	</node>
	<node lat="68.2301333377792" lon="16.808116665231367" id="-14028">
		<tag k="name" v="Langneset" />
		<tag k="natural" v="cape" />
		<tag k="ssr:stedsnr" v="77521" />
	</node>
	<node lat="68.33863333418215" lon="16.279530566606123" id="-14051">
		<tag k="fixme" v="multiple name tags, choose one and add the other to alt_name" />
		<tag k="name" v="Strandneset;Hellarneset" />
		<tag k="natural" v="cape" />
		<tag k="ssr:stedsnr" v="78683" />
	</node>
	<node lat="68.37179722139207" lon="17.027483342623217" id="-14072">
		<tag k="name" v="Saltvikøya" />
		<tag k="place" v="island" />
		<tag k="ssr:stedsnr" v="78933" />
	</node>
	<node lat="68.40774167034357" lon="17.289780547315882" id="-14078">
		<tag k="name" v="Håkvika" />
		<tag k="name:no" v="Håkvika" />
		<tag k="name:se" v="Láiri" />
		<tag k="natural" v="bay" />
		<tag k="ssr:stedsnr" v="78985" />
	</node>
	<node lat="68.481466664198" lon="17.480544435924823" id="-14081">
		<tag k="name" v="Løvika" />
		<tag k="natural" v="bay" />
		<tag k="ssr:stedsnr" v="79725" />
	</node>
	<node lat="68.38233888670693" lon="17.204008323929706" id="-14085">
		<tag k="name" v="Klemsteinvika" />
		<tag k="natural" v="bay" />
		<tag k="ssr:stedsnr" v="79943" />
	</node>
	<node lat="68.40528055351305" lon="16.66916389303517" id="-14114">
		<tag k="name" v="Åneset" />
		<tag k="natural" v="cape" />
		<tag k="ssr:stedsnr" v="85160" />
	</node>
	<node lat="68.38453333445135" lon="17.200730563873922" id="-14116">
		<tag k="name" v="Hamnvika" />
		<tag k="natural" v="bay" />
		<tag k="ssr:stedsnr" v="85419" />
	</node>
	<node lat="68.41334444833417" lon="17.416613884834927" id="-14117">
		<tag k="alt_name" v="Skarvenes" />
		<tag k="name" v="Skarveneset" />
		<tag k="natural" v="cape" />
		<tag k="ssr:stedsnr" v="85520" />
	</node>
	<node lat="68.46525833366637" lon="17.48018055036683" id="-14128">
		<tag k="name" v="Gunnelvika" />
		<tag k="natural" v="bay" />
		<tag k="ssr:stedsnr" v="86268" />
	</node>
	<node lat="68.44683889267131" lon="17.432125008100876" id="-14149">
		<tag k="name" v="Slåttvikstrand" />
		<tag k="natural" v="beach" />
		<tag k="ssr:stedsnr" v="91728" />
	</node>
	<node lat="68.30441111130686" lon="17.332452772654552" id="-14150">
		<tag k="fixme" v="multiple name tags, choose one and add the other to alt_name" />
		<tag k="name" v="Heimervika;Isakvika" />
		<tag k="natural" v="bay" />
		<tag k="ssr:stedsnr" v="91986" />
	</node>
	<node lat="68.3563722186634" lon="16.198502768312437" id="-14155">
		<tag k="name" v="Fuglneset" />
		<tag k="natural" v="cape" />
		<tag k="ssr:stedsnr" v="100244" />
	</node>
	<node lat="68.29173610991626" lon="16.437002770633498" id="-14158">
		<tag k="name" v="Innerodden" />
		<tag k="natural" v="cape" />
		<tag k="ssr:stedsnr" v="100345" />
	</node>
	<node lat="68.33082222556423" lon="16.18485277055224" id="-14159">
		<tag k="fixme" v="consider seamark:type=rock or natural=shoal" />
		<tag k="name" v="Tjeldskjæret" />
		<tag k="place" v="islet" />
		<tag k="ssr:stedsnr" v="100346" />
	</node>
	<node lat="68.31040555645771" lon="17.312008331392896" id="-14170">
		<tag k="name" v="Røyrvika" />
		<tag k="natural" v="bay" />
		<tag k="ssr:stedsnr" v="100851" />
	</node>
	<node lat="68.27219999971034" lon="17.399619432578113" id="-14175">
		<tag k="name" v="Aspevikklubben" />
		<tag k="natural" v="cape" />
		<tag k="ssr:stedsnr" v="119741" />
	</node>
	<node lat="68.44679166673548" lon="17.404569442905437" id="-14178">
		<tag k="name" v="Einarvika" />
		<tag k="natural" v="bay" />
		<tag k="ssr:stedsnr" v="119986" />
	</node>
	<node lat="68.27476111145018" lon="16.24075832571875" id="-14186">
		<tag k="name" v="Hurimaklubben" />
		<tag k="natural" v="cape" />
		<tag k="ssr:stedsnr" v="137540" />
	</node>
	<node lat="68.30970278194086" lon="16.163652772820726" id="-14197">
		<tag k="alt_name" v="Bremvika, litle;Littj-Bremvika" />
		<tag k="name" v="Litle Bremvika" />
		<tag k="natural" v="bay" />
		<tag k="ssr:stedsnr" v="138378" />
	</node>
	<node lat="68.33392777411471" lon="16.057913878872814" id="-14199">
		<tag k="name" v="Barøyodden" />
		<tag k="natural" v="cape" />
		<tag k="ssr:stedsnr" v="138390" />
	</node>
	<node lat="68.34107777763693" lon="16.17865555490669" id="-14201">
		<tag k="name" v="Valen" />
		<tag k="natural" v="strait" />
		<tag k="ssr:stedsnr" v="138338" />
	</node>
	<node lat="68.42040833149161" lon="16.719513897311074" id="-14205">
		<tag k="name" v="Hestekjelda" />
		<tag k="natural" v="cape" />
		<tag k="ssr:stedsnr" v="138489" />
	</node>
	<node lat="68.15501388770002" lon="16.255586119285326" id="-14209">
		<tag k="name" v="Tørrskallen" />
		<tag k="natural" v="shoal" />
		<tag k="place" v="locality" />
		<tag k="ssr:stedsnr" v="138621" />
	</node>
	<node lat="68.32587499544566" lon="16.244927785739932" id="-14214">
		<tag k="name" v="Vallebukta" />
		<tag k="natural" v="bay" />
		<tag k="ssr:stedsnr" v="138661" />
	</node>
	<node lat="68.11460277564133" lon="16.495080556599863" id="-14225">
		<tag k="name" v="Lagmannsneset" />
		<tag k="natural" v="cape" />
		<tag k="ssr:stedsnr" v="138585" />
	</node>
	<node lat="68.3503805566623" lon="16.239919434397148" id="-14229">
		<tag k="fixme" v="consider seamark:type=rock or natural=shoal" />
		<tag k="name" v="Rundskjæret" />
		<tag k="place" v="islet" />
		<tag k="ssr:stedsnr" v="138717" />
	</node>
	<node lat="68.36523611096484" lon="16.98738610992016" id="-14242">
		<tag k="fixme" v="consider seamark:type=rock or natural=shoal" />
		<tag k="name" v="Basken" />
		<tag k="place" v="islet" />
		<tag k="ssr:stedsnr" v="138923" />
	</node>
	<node lat="68.3223527790007" lon="16.171702768418175" id="-14246">
		<tag k="name" v="Korsneset" />
		<tag k="natural" v="cape" />
		<tag k="ssr:stedsnr" v="139473" />
	</node>
	<node lat="68.33348610767678" lon="17.27745834162771" id="-14254">
		<tag k="name" v="Kongsbakkneset" />
		<tag k="natural" v="cape" />
		<tag k="ssr:stedsnr" v="139829" />
	</node>
	<node lat="68.42066666883355" lon="16.62539721071899" id="-14293">
		<tag k="name" v="Elvenes" />
		<tag k="natural" v="cape" />
		<tag k="ssr:stedsnr" v="145450" />
	</node>
	<node lat="68.49472222497833" lon="17.51675834087882" id="-14308">
		<tag k="name" v="Flatholmen" />
		<tag k="natural" v="cape" />
		<tag k="ssr:stedsnr" v="146378" />
	</node>
	<node lat="68.39122500283734" lon="17.18856388922542" id="-14325">
		<tag k="name" v="Røsåsneset" />
		<tag k="natural" v="cape" />
		<tag k="ssr:stedsnr" v="146854" />
	</node>
	<node lat="68.49764999936735" lon="17.499788892677117" id="-14331">
		<tag k="fixme" v="consider seamark:type=rock or natural=shoal" />
		<tag k="name" v="Purkeskjæret" />
		<tag k="place" v="islet" />
		<tag k="ssr:stedsnr" v="151291" />
	</node>
	<node lat="68.47557777483236" lon="17.560744436094847" id="-14333">
		<tag k="name" v="Leirvikneset" />
		<tag k="natural" v="cape" />
		<tag k="ssr:stedsnr" v="151334" />
	</node>
	<node lat="68.30464166918209" lon="16.1599777750787" id="-14334">
		<tag k="name" v="Store Bremvikneset" />
		<tag k="natural" v="cape" />
		<tag k="ssr:stedsnr" v="157573" />
	</node>
	<node lat="68.3151888860927" lon="16.290811100719377" id="-14346">
		<tag k="name" v="Moldforvika" />
		<tag k="natural" v="bay" />
		<tag k="ssr:stedsnr" v="160216" />
	</node>
	<node lat="68.35705555797041" lon="16.211855565620066" id="-14348">
		<tag k="name" v="Skarstadneset" />
		<tag k="natural" v="cape" />
		<tag k="ssr:stedsnr" v="160228" />
	</node>
	<node lat="68.28685278211005" lon="16.4874750029147" id="-14350">
		<tag k="name" v="Silsandvika" />
		<tag k="natural" v="bay" />
		<tag k="ssr:stedsnr" v="160321" />
	</node>
	<node lat="68.3333111071515" lon="16.095122225024266" id="-14353">
		<tag k="name" v="Bjørnhola" />
		<tag k="natural" v="bay" />
		<tag k="ssr:stedsnr" v="160358" />
	</node>
	<node lat="68.10528888818669" lon="16.227827782261468" id="-14370">
		<tag k="name" v="Indre Balten" />
		<tag k="natural" v="shoal" />
		<tag k="place" v="locality" />
		<tag k="ssr:stedsnr" v="164567" />
	</node>
	<node lat="68.4532638895445" lon="17.50201387539425" id="-14385">
		<tag k="name" v="Bjørnskjæret" />
		<tag k="natural" v="cape" />
		<tag k="ssr:stedsnr" v="199235" />
	</node>
	<node lat="68.3909444481293" lon="17.541577788301584" id="-14386">
		<tag k="name" v="Olderneset" />
		<tag k="natural" v="cape" />
		<tag k="ssr:stedsnr" v="199239" />
	</node>
	<node lat="68.27622500355307" lon="16.14010278745979" id="-14393">
		<tag k="alt_name" v="Bremnesskjeret" />
		<tag k="fixme" v="consider seamark:type=rock or natural=shoal" />
		<tag k="name" v="Bremnesskjæret" />
		<tag k="place" v="islet" />
		<tag k="ssr:stedsnr" v="199400" />
	</node>
	<node lat="68.39040555351168" lon="16.41600554797959" id="-14409">
		<tag k="name" v="Finnvikklubben" />
		<tag k="natural" v="cape" />
		<tag k="ssr:stedsnr" v="199737" />
	</node>
	<node lat="68.33766666466472" lon="16.227091677024944" id="-14419">
		<tag k="alt_name" v="Refsholmen" />
		<tag k="name" v="Revsholmen" />
		<tag k="place" v="islet" />
		<tag k="ssr:stedsnr" v="199700" />
	</node>
	<node lat="68.50060000243373" lon="17.53798889187088" id="-14427">
		<tag k="name" v="Elvhaugen" />
		<tag k="natural" v="cape" />
		<tag k="ssr:stedsnr" v="200640" />
	</node>
	<node lat="68.47072777618932" lon="17.52244167178909" id="-14429">
		<tag k="name" v="Storskjevika" />
		<tag k="natural" v="bay" />
		<tag k="ssr:stedsnr" v="200743" />
	</node>
	<node lat="68.5254861095207" lon="17.56425832097293" id="-14430">
		<tag k="name" v="Einvika" />
		<tag k="natural" v="bay" />
		<tag k="ssr:stedsnr" v="200650" />
	</node>
	<node lat="68.52648333377925" lon="17.468394430123553" id="-14431">
		<tag k="name" v="Herjangsholmen" />
		<tag k="natural" v="cape" />
		<tag k="ssr:stedsnr" v="200651" />
	</node>
	<node lat="68.32780277914787" lon="17.25790833400958" id="-14435">
		<tag k="name" v="Kvitholmen" />
		<tag k="place" v="islet" />
		<tag k="ssr:stedsnr" v="200828" />
	</node>
	<node lat="68.41289166403651" lon="17.40740833286223" id="-14444">
		<tag k="alt_name" v="Lyngnes;Lyngenes" />
		<tag k="name" v="Lyngneset" />
		<tag k="natural" v="cape" />
		<tag k="ssr:stedsnr" v="200988" />
	</node>
	<node lat="68.38638332922473" lon="17.0417333291503" id="-14478">
		<tag k="name" v="Salttønna" />
		<tag k="natural" v="shoal" />
		<tag k="place" v="locality" />
		<tag k="ssr:stedsnr" v="207429" />
	</node>
	<node lat="68.35520000431542" lon="16.94971666181405" id="-14482">
		<tag k="name" v="Holmodden" />
		<tag k="natural" v="cape" />
		<tag k="ssr:stedsnr" v="207354" />
	</node>
	<node lat="68.38507499833675" lon="17.071255549983956" id="-14490">
		<tag k="name" v="Mellom Sildvik" />
		<tag k="natural" v="bay" />
		<tag k="ssr:stedsnr" v="207737" />
	</node>
	<node lat="68.31581944703646" lon="17.2782888759211" id="-14495">
		<tag k="name" v="Ytterneset" />
		<tag k="natural" v="cape" />
		<tag k="ssr:stedsnr" v="207962" />
	</node>
	<node lat="68.36059166541992" lon="17.2620388968798" id="-14499">
		<tag k="fixme" v="consider seamark:type=rock or natural=shoal" />
		<tag k="name" v="Brurskjæret" />
		<tag k="place" v="islet" />
		<tag k="ssr:stedsnr" v="221833" />
	</node>
	<node lat="68.33020555219201" lon="16.162977787791018" id="-14506">
		<tag k="name" v="Gulføttingen" />
		<tag k="place" v="islet" />
		<tag k="ssr:stedsnr" v="221355" />
	</node>
	<node lat="68.33237499909282" lon="16.21843056476791" id="-14507">
		<tag k="fixme" v="consider seamark:type=rock or natural=shoal" />
		<tag k="name" v="Sandskjæret" />
		<tag k="place" v="islet" />
		<tag k="ssr:stedsnr" v="221359" />
	</node>
	<node lat="68.03628611341709" lon="16.370144434769855" id="-14511">
		<tag k="fixme" v="multiple name tags, choose one and add the other to alt_name" />
		<tag k="name" v="Tørrnesvika;Grindvika" />
		<tag k="natural" v="bay" />
		<tag k="ssr:stedsnr" v="221937" />
	</node>
	<node lat="68.18077777612223" lon="16.478236118250205" id="-14513">
		<tag k="name" v="Tallerkneset" />
		<tag k="natural" v="cape" />
		<tag k="ssr:stedsnr" v="225269" />
	</node>
	<node lat="68.32837499927909" lon="16.159002782481547" id="-14525">
		<tag k="name" v="Hundlorten" />
		<tag k="place" v="islet" />
		<tag k="ssr:stedsnr" v="282339" />
	</node>
	<node lat="68.36131111066203" lon="17.261358329901526" id="-14536">
		<tag k="name" v="Brurskjærvika" />
		<tag k="natural" v="bay" />
		<tag k="ssr:stedsnr" v="282844" />
	</node>
	<node lat="68.37360555325925" lon="17.030927787244465" id="-14538">
		<tag k="name" v="Geitholmen" />
		<tag k="place" v="islet" />
		<tag k="ssr:stedsnr" v="282894" />
	</node>
	<node lat="68.35940833561538" lon="17.022027776538632" id="-14539">
		<tag k="name" v="Rånbogen" />
		<tag k="natural" v="bay" />
		<tag k="ssr:stedsnr" v="282896" />
	</node>
	<node lat="68.04386944407831" lon="16.33921666730023" id="-14544">
		<tag k="name" v="Tørrnesgrunnen" />
		<tag k="natural" v="shoal" />
		<tag k="place" v="locality" />
		<tag k="ssr:stedsnr" v="285145" />
	</node>
	<node lat="68.34141388638166" lon="16.202936109351317" id="-14570">
		<tag k="alt_name" v="Revelsøy" />
		<tag k="name" v="Revelsøya" />
		<tag k="place" v="island" />
		<tag k="ssr:stedsnr" v="320329" />
	</node>
	<node lat="68.32515833371455" lon="16.214088877556126" id="-14571">
		<tag k="name" v="Kobbhola" />
		<tag k="natural" v="bay" />
		<tag k="ssr:stedsnr" v="320366" />
	</node>
	<node lat="68.34895277960987" lon="16.895286105600707" id="-14600">
		<tag k="name" v="Forneset" />
		<tag k="natural" v="cape" />
		<tag k="ssr:stedsnr" v="321427" />
	</node>
	<node lat="68.32102500053517" lon="17.26300277117907" id="-14606">
		<tag k="name" v="Karvenes" />
		<tag k="natural" v="cape" />
		<tag k="ssr:stedsnr" v="321849" />
	</node>
	<node lat="68.32477777980564" lon="17.27356667675638" id="-14612">
		<tag k="name" v="Leirosen" />
		<tag k="natural" v="bay" />
		<tag k="ssr:stedsnr" v="321826" />
	</node>
	<node lat="68.43126388549629" lon="17.38667778224924" id="-14619">
		<tag k="name" v="Framnes" />
		<tag k="natural" v="cape" />
		<tag k="ssr:stedsnr" v="321972" />
	</node>
	<node lat="68.40425000312632" lon="16.89031112071586" id="-14620">
		<tag k="name" v="Hesjeholmskallen" />
		<tag k="natural" v="shoal" />
		<tag k="place" v="locality" />
		<tag k="ssr:stedsnr" v="321986" />
	</node>
	<node lat="68.34617222405971" lon="16.886019431815036" id="-14663">
		<tag k="name" v="Tyttebærneset" />
		<tag k="natural" v="cape" />
		<tag k="ssr:stedsnr" v="328331" />
	</node>
	<node lat="68.35335000088365" lon="16.942919454227965" id="-14676">
		<tag k="name" v="Ennerneset" />
		<tag k="natural" v="cape" />
		<tag k="ssr:stedsnr" v="328339" />
	</node>
	<node lat="68.44745555731303" lon="17.409619440009887" id="-14682">
		<tag k="alt_name" v="Litlevika" />
		<tag k="name" v="Lillevika" />
		<tag k="natural" v="bay" />
		<tag k="ssr:stedsnr" v="333694" />
	</node>
	<node lat="68.2766138902792" lon="16.219669447444414" id="-14683">
		<tag k="name" v="Skargrunnen" />
		<tag k="natural" v="shoal" />
		<tag k="place" v="locality" />
		<tag k="ssr:stedsnr" v="339960" />
	</node>
	<node lat="68.32270000192482" lon="16.34633888665623" id="-14684">
		<tag k="name" v="Kufiskneset" />
		<tag k="natural" v="cape" />
		<tag k="ssr:stedsnr" v="340531" />
	</node>
	<node lat="68.40936110882464" lon="16.50278611684862" id="-14685">
		<tag k="name" v="Merrvika" />
		<tag k="natural" v="bay" />
		<tag k="ssr:stedsnr" v="342574" />
	</node>
	<node lat="68.31811388585032" lon="16.31953054899158" id="-14690">
		<tag k="name" v="Svenskholman" />
		<tag k="place" v="islet" />
		<tag k="ssr:stedsnr" v="342235" />
	</node>
	<node lat="68.28382222629811" lon="16.59953333716503" id="-14697">
		<tag k="name" v="Storvika" />
		<tag k="natural" v="bay" />
		<tag k="ssr:stedsnr" v="342614" />
	</node>
	<node lat="68.07476944019271" lon="16.672338887167445" id="-14701">
		<tag k="name" v="Roveneset" />
		<tag k="natural" v="cape" />
		<tag k="ssr:stedsnr" v="345154" />
	</node>
	<node lat="68.33064166907076" lon="16.047227769146225" id="-14718">
		<tag k="name" v="Vikodden" />
		<tag k="natural" v="cape" />
		<tag k="ssr:stedsnr" v="380380" />
	</node>
	<node lat="68.20217778026282" lon="16.60467500119516" id="-14719">
		<tag k="name" v="Kistbotnhavet" />
		<tag k="natural" v="bay" />
		<tag k="ssr:stedsnr" v="380554" />
	</node>
	<node lat="68.45229166941388" lon="17.555274995649253" id="-14746">
		<tag k="alt_name" v="Djupvika, in" />
		<tag k="name" v="Indre Djupvik" />
		<tag k="natural" v="bay" />
		<tag k="ssr:stedsnr" v="381243" />
	</node>
	<node lat="68.30752221911413" lon="16.037755546277108" id="-14747">
		<tag k="name" v="Storbåen" />
		<tag k="natural" v="shoal" />
		<tag k="place" v="locality" />
		<tag k="ssr:stedsnr" v="381348" />
	</node>
	<node lat="68.30153333600681" lon="16.159430555152245" id="-14748">
		<tag k="alt_name" v="Bremvika, store;Stor-Bremvika" />
		<tag k="name" v="Store Bremvika" />
		<tag k="natural" v="bay" />
		<tag k="ssr:stedsnr" v="381349" />
	</node>
	<node lat="68.43651839789122" lon="17.67046943545686" id="-14768">
		<tag k="name" v="Slåttvika" />
		<tag k="natural" v="bay" />
		<tag k="ssr:stedsnr" v="381465" />
	</node>
	<node lat="68.50258611269125" lon="17.537536112836996" id="-14784">
		<tag k="name" v="Løneset" />
		<tag k="natural" v="cape" />
		<tag k="ssr:stedsnr" v="381653" />
	</node>
	<node lat="68.49570278069591" lon="17.490555549161893" id="-14785">
		<tag k="alt_name" v="Auguren" />
		<tag k="fixme" v="multiple name tags, choose one and add the other to alt_name; consider seamark:type=rock or natural=shoal" />
		<tag k="name" v="Uren;Augoren" />
		<tag k="place" v="islet" />
		<tag k="ssr:stedsnr" v="381829" />
	</node>
	<node lat="68.3133638938074" lon="17.301802767224665" id="-14793">
		<tag k="name" v="Tømmervika" />
		<tag k="natural" v="bay" />
		<tag k="ssr:stedsnr" v="381887" />
	</node>
	<node lat="68.48940833078683" lon="17.49184167126245" id="-14799">
		<tag k="name" v="Flatholmen" />
		<tag k="place" v="islet" />
		<tag k="ssr:stedsnr" v="382740" />
	</node>
	<node lat="68.46796666533815" lon="17.467397228549363" id="-14801">
		<tag k="alt_name" v="Græsholmen" />
		<tag k="name" v="Grasholmen" />
		<tag k="place" v="islet" />
		<tag k="ssr:stedsnr" v="382748" />
	</node>
	<node lat="68.33358610813139" lon="16.822886107286205" id="-14805">
		<tag k="name" v="Tømmernes" />
		<tag k="natural" v="cape" />
		<tag k="ssr:stedsnr" v="382845" />
	</node>
	<node lat="68.39422221957388" lon="17.25160833368558" id="-14807">
		<tag k="name" v="Einebærneset" />
		<tag k="natural" v="cape" />
		<tag k="ssr:stedsnr" v="382999" />
	</node>
	<node lat="68.4007222253728" lon="16.859499993782595" id="-14808">
		<tag k="name" v="Lysgrunna" />
		<tag k="natural" v="shoal" />
		<tag k="place" v="locality" />
		<tag k="ssr:stedsnr" v="383000" />
	</node>
	<node lat="68.52494166936273" lon="17.435525004250497" id="-14831">
		<tag k="name" v="Oldervika" />
		<tag k="natural" v="bay" />
		<tag k="ssr:stedsnr" v="389318" />
	</node>
	<node lat="68.47806389044075" lon="17.47685278641992" id="-14839">
		<tag k="name" v="Målvika" />
		<tag k="natural" v="bay" />
		<tag k="ssr:stedsnr" v="389254" />
	</node>
	<node lat="68.48989721895332" lon="17.50000276496657" id="-14858">
		<tag k="name" v="Holmestøa" />
		<tag k="natural" v="shoal" />
		<tag k="place" v="locality" />
		<tag k="ssr:stedsnr" v="389572" />
	</node>
	<node lat="68.48832222141819" lon="17.496736102198025" id="-14860">
		<tag k="name" v="Mølnelvosen" />
		<tag k="natural" v="shoal" />
		<tag k="place" v="locality" />
		<tag k="ssr:stedsnr" v="389579" />
	</node>
	<node lat="68.48801388792158" lon="17.499583319948194" id="-14861">
		<tag k="name" v="Seljeklubben" />
		<tag k="natural" v="cape" />
		<tag k="ssr:stedsnr" v="389583" />
	</node>
	<node lat="68.3243722236405" lon="17.267255560634656" id="-14868">
		<tag k="alt_name" v="Holmestrand" />
		<tag k="name" v="Holmestranda" />
		<tag k="natural" v="beach" />
		<tag k="ssr:stedsnr" v="394970" />
	</node>
	<node lat="68.25451944746126" lon="17.356983340110368" id="-14869">
		<tag k="name" v="Harevika" />
		<tag k="natural" v="bay" />
		<tag k="ssr:stedsnr" v="394920" />
	</node>
	<node lat="68.41041666245705" lon="16.81593334136742" id="-14871">
		<tag k="name" v="Framskjærgrunnen" />
		<tag k="natural" v="shoal" />
		<tag k="place" v="locality" />
		<tag k="ssr:stedsnr" v="400653" />
	</node>
	<node lat="68.03617500177627" lon="16.376897213600785" id="-14876">
		<tag k="name" v="Grindvikneset" />
		<tag k="natural" v="cape" />
		<tag k="ssr:stedsnr" v="403191" />
	</node>
	<node lat="68.31814166572848" lon="16.169008330193325" id="-14882">
		<tag k="name" v="Mastervika" />
		<tag k="natural" v="bay" />
		<tag k="ssr:stedsnr" v="403348" />
	</node>
	<node lat="68.05460555933891" lon="16.358113894516126" id="-14891">
		<tag k="name" v="Mannberget" />
		<tag k="natural" v="cape" />
		<tag k="ssr:stedsnr" v="407148" />
	</node>
	<node lat="68.27591944257938" lon="17.390491661473806" id="-14897">
		<tag k="name" v="Mølnneset" />
		<tag k="natural" v="cape" />
		<tag k="ssr:stedsnr" v="423761" />
	</node>
	<node lat="68.06213955413361" lon="16.359465367143773" id="-14899">
		<tag k="alt_name:no" v="Bjørknes" />
		<tag k="name" v="Soahkenjárgga - Bjerkneset" />
		<tag k="name:no" v="Bjerkneset" />
		<tag k="name:smj" v="Soahkenjárgga" />
		<tag k="natural" v="cape" />
		<tag k="old_name:smj" v="Soahkenjárga" />
		<tag k="ssr:stedsnr" v="441501" />
	</node>
	<node lat="68.41575555692869" lon="16.655924996047265" id="-14904">
		<tag k="name" v="Rognodden" />
		<tag k="natural" v="cape" />
		<tag k="ssr:stedsnr" v="441465" />
	</node>
	<node lat="68.14654166712818" lon="16.26263054723674" id="-14918">
		<tag k="name" v="Grindvika" />
		<tag k="natural" v="bay" />
		<tag k="ssr:stedsnr" v="441847" />
	</node>
	<node lat="68.46592777974499" lon="17.485475005233756" id="-14921">
		<tag k="name" v="Kufiskvika" />
		<tag k="natural" v="bay" />
		<tag k="ssr:stedsnr" v="442250" />
	</node>
	<node lat="68.33693611251309" lon="16.25285832674909" id="-14922">
		<tag k="alt_name" v="Straumøya" />
		<tag k="name" v="Straumsøya" />
		<tag k="place" v="island" />
		<tag k="ssr:stedsnr" v="442449" />
	</node>
	<node lat="68.30015277497994" lon="16.361977768153267" id="-14932">
		<tag k="alt_name" v="Teppkilen, in;Indre Teppkilen" />
		<tag k="fixme" v="multiple name tags, choose one and add the other to alt_name" />
		<tag k="name" v="Teppkilen;Inner-Teppkilen" />
		<tag k="natural" v="bay" />
		<tag k="ssr:stedsnr" v="442614" />
	</node>
	<node lat="68.30672500317216" lon="16.356041662003463" id="-14933">
		<tag k="alt_name" v="Teppkilen, yt;Ytre Teppkilen" />
		<tag k="name" v="Ytter-Teppkilen" />
		<tag k="natural" v="bay" />
		<tag k="ssr:stedsnr" v="442616" />
	</node>
	<node lat="68.11905555702317" lon="16.3010694485403" id="-14947">
		<tag k="name" v="Kobbvika" />
		<tag k="natural" v="bay" />
		<tag k="ssr:stedsnr" v="442573" />
	</node>
	<node lat="68.1048361158157" lon="16.31668054428705" id="-14948">
		<tag k="alt_name:no" v="Urdvika" />
		<tag k="name" v="Juovvaluokta - Urvika" />
		<tag k="name:no" v="Urvika" />
		<tag k="name:smj" v="Juovvaluokta" />
		<tag k="natural" v="bay" />
		<tag k="ssr:stedsnr" v="442575" />
	</node>
	<node lat="68.47418889002907" lon="17.577063894436506" id="-14968">
		<tag k="name" v="Kalvikneset" />
		<tag k="natural" v="cape" />
		<tag k="ssr:stedsnr" v="443711" />
	</node>
	<node lat="68.38312777773653" lon="17.044019448284708" id="-14976">
		<tag k="name" v="Saltvikneset" />
		<tag k="natural" v="cape" />
		<tag k="ssr:stedsnr" v="443944" />
	</node>
	<node lat="68.3986277756045" lon="16.5420249981777" id="-15010">
		<tag k="fixme" v="multiple name tags, choose one and add the other to alt_name" />
		<tag k="name" v="Kvalnes;Kalvneset" />
		<tag k="natural" v="cape" />
		<tag k="ssr:stedsnr" v="502762" />
	</node>
	<node lat="68.31136389322495" lon="16.083613879082485" id="-15012">
		<tag k="fixme" v="consider seamark:type=rock or natural=shoal" />
		<tag k="name" v="Vallebåan" />
		<tag k="place" v="islet" />
		<tag k="ssr:stedsnr" v="502347" />
	</node>
	<node lat="68.31325277515742" lon="16.0704277752504" id="-15013">
		<tag k="fixme" v="consider seamark:type=rock or natural=shoal" />
		<tag k="name" v="Skarvskjæret" />
		<tag k="place" v="islet" />
		<tag k="ssr:stedsnr" v="502348" />
	</node>
	<node lat="68.33276111034994" lon="16.074705559327864" id="-15014">
		<tag k="fixme" v="consider seamark:type=rock or natural=shoal" />
		<tag k="name" v="Skarvskiten" />
		<tag k="place" v="islet" />
		<tag k="ssr:stedsnr" v="502361" />
	</node>
	<node lat="68.32990000121363" lon="16.051702784889102" id="-15015">
		<tag k="fixme" v="consider seamark:type=rock or natural=shoal" />
		<tag k="name" v="Vikskjæran" />
		<tag k="place" v="islet" />
		<tag k="ssr:stedsnr" v="502362" />
	</node>
	<node lat="68.33470000350677" lon="16.151955545186023" id="-15016">
		<tag k="name" v="Leia" />
		<tag k="natural" v="strait" />
		<tag k="ssr:stedsnr" v="502363" />
	</node>
	<node lat="68.3194999996186" lon="16.30505276525593" id="-15030">
		<tag k="fixme" v="consider seamark:type=rock or natural=shoal" />
		<tag k="name" v="Gåsøyan" />
		<tag k="place" v="islet" />
		<tag k="ssr:stedsnr" v="502635" />
	</node>
	<node lat="68.31983889117544" lon="16.255194455162513" id="-15042">
		<tag k="name" v="Ungsmaløya" />
		<tag k="place" v="island" />
		<tag k="ssr:stedsnr" v="502658" />
	</node>
	<node lat="68.38474444866793" lon="17.52834722306446" id="-15063">
		<tag k="name" v="Smalneset" />
		<tag k="natural" v="cape" />
		<tag k="ssr:stedsnr" v="503440" />
	</node>
	<node lat="68.47496111475762" lon="17.632555545570753" id="-15129">
		<tag k="name" v="Storvika" />
		<tag k="natural" v="bay" />
		<tag k="ssr:stedsnr" v="510326" />
	</node>
	<node lat="68.3822444410996" lon="17.58721388471056" id="-15134">
		<tag k="name" v="Fjøsnes" />
		<tag k="natural" v="cape" />
		<tag k="ssr:stedsnr" v="510338" />
	</node>
	<node lat="68.41467500072116" lon="17.403558339650342" id="-15146">
		<tag k="alt_name" v="Jektnes" />
		<tag k="name" v="Jektneset" />
		<tag k="natural" v="cape" />
		<tag k="ssr:stedsnr" v="510627" />
	</node>
	<node lat="68.42161389068984" lon="17.383580549960953" id="-15155">
		<tag k="loc_name:se" v="Oŋkanjárga" />
		<tag k="name" v="Ankeneset" />
		<tag k="name:no" v="Ankeneset" />
		<tag k="natural" v="cape" />
		<tag k="ssr:stedsnr" v="516994" />
	</node>
	<node lat="68.32314166716566" lon="16.244141664055228" id="-15165">
		<tag k="fixme" v="consider seamark:type=rock or natural=shoal" />
		<tag k="name" v="Fløskjæret" />
		<tag k="place" v="islet" />
		<tag k="ssr:stedsnr" v="524328" />
	</node>
	<node lat="68.32663333221517" lon="16.242705552760498" id="-15166">
		<tag k="name" v="Rishågosen" />
		<tag k="natural" v="bay" />
		<tag k="ssr:stedsnr" v="524329" />
	</node>
	<node lat="68.32313889258434" lon="16.137966674448414" id="-15194">
		<tag k="fixme" v="multiple name tags, choose one and add the other to alt_name" />
		<tag k="name" v="Valle;Flatholmen" />
		<tag k="place" v="islet" />
		<tag k="ssr:stedsnr" v="562349" />
	</node>
	<node lat="68.33420833684266" lon="16.211975010321677" id="-15195">
		<tag k="name" v="Ingeborgholmen" />
		<tag k="place" v="islet" />
		<tag k="ssr:stedsnr" v="562357" />
	</node>
	<node lat="68.20695278078135" lon="16.7730805603369" id="-15198">
		<tag k="name" v="Tomasneset" />
		<tag k="natural" v="cape" />
		<tag k="ssr:stedsnr" v="562513" />
	</node>
	<node lat="68.37155277683928" lon="16.27684721659713" id="-15220">
		<tag k="name" v="Skarstadfoten" />
		<tag k="natural" v="cape" />
		<tag k="ssr:stedsnr" v="562686" />
	</node>
	<node lat="68.43494831690276" lon="17.683623284207123" id="-15230">
		<tag k="name" v="Kollvika" />
		<tag k="natural" v="bay" />
		<tag k="ssr:stedsnr" v="563188" />
	</node>
	<node lat="68.42119999916311" lon="16.747091676618247" id="-15237">
		<tag k="name" v="Skavika" />
		<tag k="natural" v="bay" />
		<tag k="ssr:stedsnr" v="563483" />
	</node>
	<node lat="68.51162222564435" lon="17.54628333297001" id="-15264">
		<tag k="alt_name" v="Kaftvika" />
		<tag k="name" v="Koftvika" />
		<tag k="natural" v="bay" />
		<tag k="ssr:stedsnr" v="563655" />
	</node>
	<node lat="68.5237222266464" lon="17.42348333469908" id="-15266">
		<tag k="alt_name" v="Trollvik" />
		<tag k="name" v="Trollvika" />
		<tag k="natural" v="bay" />
		<tag k="ssr:stedsnr" v="563659" />
	</node>
	<node lat="68.52945277383428" lon="17.564094438248375" id="-15269">
		<tag k="alt_name" v="Kalvvika" />
		<tag k="name" v="Kvalvika" />
		<tag k="natural" v="bay" />
		<tag k="ssr:stedsnr" v="563665" />
	</node>
	<node lat="68.39088888906558" lon="17.06117220973813" id="-15282">
		<tag k="name" v="Vidrekøyan" />
		<tag k="place" v="island" />
		<tag k="ssr:stedsnr" v="563994" />
	</node>
	<node lat="68.35396666651073" lon="16.916036099904982" id="-15298">
		<tag k="name" v="Hattholmen" />
		<tag k="place" v="islet" />
		<tag k="ssr:stedsnr" v="563912" />
	</node>
	<node lat="68.4029444491463" lon="16.82636665995108" id="-15306">
		<tag k="fixme" v="consider seamark:type=rock or natural=shoal" />
		<tag k="name" v="Reinskjæret" />
		<tag k="place" v="islet" />
		<tag k="ssr:stedsnr" v="563995" />
	</node>
	<node lat="68.25724444249772" lon="17.371522213081388" id="-15336">
		<tag k="name" v="Reinvika" />
		<tag k="natural" v="bay" />
		<tag k="ssr:stedsnr" v="570449" />
	</node>
	<node lat="68.42093055838701" lon="17.386619432109594" id="-15339">
		<tag k="name" v="Ankenesleira" />
		<tag k="natural" v="beach" />
		<tag k="ssr:stedsnr" v="570540" />
	</node>
	<node lat="68.4440416634557" lon="17.651561105556134" id="-15344">
		<tag k="name" v="Hestvika" />
		<tag k="natural" v="bay" />
		<tag k="ssr:stedsnr" v="571072" />
	</node>
	<node lat="68.55907777455941" lon="17.668416672045485" id="-15346">
		<tag k="name" v="Lavraneset" />
		<tag k="natural" v="cape" />
		<tag k="ssr:stedsnr" v="571043" />
	</node>
	<node lat="68.5374138882114" lon="17.507336096457482" id="-15349">
		<tag k="name" v="Tømmervika" />
		<tag k="natural" v="bay" />
		<tag k="ssr:stedsnr" v="571291" />
	</node>
	<node lat="68.3554138897069" lon="17.023086119189312" id="-15354">
		<tag k="name" v="Sandvika" />
		<tag k="natural" v="bay" />
		<tag k="ssr:stedsnr" v="571387" />
	</node>
	<node lat="68.09435833533823" lon="16.34202500657498" id="-15363">
		<tag k="name" v="Olderviknes" />
		<tag k="natural" v="cape" />
		<tag k="ssr:stedsnr" v="571573" />
	</node>
	<node lat="68.40822221810944" lon="17.306819443100697" id="-15368">
		<tag k="name" v="Stranda" />
		<tag k="natural" v="beach" />
		<tag k="ssr:stedsnr" v="571539" />
	</node>
	<node lat="68.39217777791407" lon="17.132777763960263" id="-15372">
		<tag k="name" v="Lundneset" />
		<tag k="natural" v="cape" />
		<tag k="ssr:stedsnr" v="571840" />
	</node>
	<node lat="68.33324444406979" lon="16.033805560600616" id="-15380">
		<tag k="name" v="Prestbåen" />
		<tag k="place" v="locality" />
		<tag k="seamark:type" v="rock" />
		<tag k="ssr:stedsnr" v="581119" />
	</node>
	<node lat="68.42039166794935" lon="16.707986109944937" id="-15381">
		<tag k="name" v="Skårnesgrunnen" />
		<tag k="natural" v="shoal" />
		<tag k="place" v="locality" />
		<tag k="ssr:stedsnr" v="582665" />
	</node>
	<node lat="68.28959444882692" lon="17.36186666232388" id="-15385">
		<tag k="name" v="Lillevika" />
		<tag k="natural" v="bay" />
		<tag k="ssr:stedsnr" v="585733" />
	</node>
	<node lat="68.2880361110586" lon="17.367838895979617" id="-15386">
		<tag k="name" v="Brennviknes" />
		<tag k="natural" v="cape" />
		<tag k="ssr:stedsnr" v="585735" />
	</node>
	<node lat="68.3954055515796" lon="17.522497227002336" id="-15391">
		<tag k="name" v="Olderneslandet" />
		<tag k="natural" v="beach" />
		<tag k="ssr:stedsnr" v="585082" />
	</node>
	<node lat="68.31410000046652" lon="17.30245833265234" id="-15401">
		<tag k="name" v="Mølnvika" />
		<tag k="natural" v="bay" />
		<tag k="ssr:stedsnr" v="585870" />
	</node>
	<node lat="68.27395000255463" lon="17.395249994072156" id="-15408">
		<tag k="name" v="Aspevika" />
		<tag k="natural" v="bay" />
		<tag k="ssr:stedsnr" v="604747" />
	</node>
	<node lat="68.33156389256499" lon="16.15188333906571" id="-15412">
		<tag k="alt_name" v="Vestreværet" />
		<tag k="name" v="Vesterværet" />
		<tag k="place" v="island" />
		<tag k="ssr:stedsnr" v="623378" />
	</node>
	<node lat="68.31977222034571" lon="16.28662498811134" id="-15432">
		<tag k="name" v="Gåsneset" />
		<tag k="natural" v="cape" />
		<tag k="ssr:stedsnr" v="623647" />
	</node>
	<node lat="68.44835833777371" lon="17.445230542974144" id="-15445">
		<tag k="name" v="Taraldsvika" />
		<tag k="natural" v="bay" />
		<tag k="ssr:stedsnr" v="624223" />
	</node>
	<node lat="68.45497500408736" lon="17.531991654403654" id="-15446">
		<tag k="name" v="Forsneset" />
		<tag k="natural" v="cape" />
		<tag k="ssr:stedsnr" v="624225" />
	</node>
	<node lat="68.49340277766859" lon="17.511172218590286" id="-15457">
		<tag k="name" v="Laukholmen" />
		<tag k="place" v="islet" />
		<tag k="ssr:stedsnr" v="624799" />
	</node>
	<node lat="68.52033055227224" lon="17.565863895443684" id="-15460">
		<tag k="name" v="Laksklubben" />
		<tag k="natural" v="cape" />
		<tag k="ssr:stedsnr" v="624646" />
	</node>
	<node lat="68.47626110997419" lon="17.475744443451" id="-15462">
		<tag k="name" v="Sildvika" />
		<tag k="natural" v="bay" />
		<tag k="ssr:stedsnr" v="624753" />
	</node>
	<node lat="68.356799998775" lon="16.957424996258705" id="-15469">
		<tag k="name" v="Arnes" />
		<tag k="natural" v="cape" />
		<tag k="ssr:stedsnr" v="624927" />
	</node>
	<node lat="68.38271944749764" lon="16.90360556406458" id="-15478">
		<tag k="name" v="Bøholmen" />
		<tag k="place" v="islet" />
		<tag k="ssr:stedsnr" v="624959" />
	</node>
	<node lat="68.39273611333894" lon="17.170825005476118" id="-15481">
		<tag k="name" v="Krøkebærneset" />
		<tag k="natural" v="cape" />
		<tag k="ssr:stedsnr" v="624996" />
	</node>
	<node lat="68.4059000004949" lon="17.268116656631257" id="-15482">
		<tag k="name" v="Skjomnesøyra" />
		<tag k="natural" v="shoal" />
		<tag k="place" v="locality" />
		<tag k="ssr:stedsnr" v="624998" />
	</node>
	<node lat="68.44727500284077" lon="17.592972228905214" id="-15517">
		<tag k="name" v="Fornesvika" />
		<tag k="natural" v="bay" />
		<tag k="ssr:stedsnr" v="631326" />
	</node>
	<node lat="68.2566166671312" lon="17.399169434316278" id="-15530">
		<tag k="name" v="Brattøyra" />
		<tag k="natural" v="shoal" />
		<tag k="place" v="locality" />
		<tag k="ssr:stedsnr" v="631574" />
	</node>
	<node lat="68.49083055532111" lon="17.501980562847685" id="-15533">
		<tag k="name" v="Gamalnaustøa" />
		<tag k="natural" v="shoal" />
		<tag k="place" v="locality" />
		<tag k="ssr:stedsnr" v="631522" />
	</node>
	<node lat="68.48993333522463" lon="17.50232500247007" id="-15534">
		<tag k="name" v="Skogholmen" />
		<tag k="place" v="islet" />
		<tag k="ssr:stedsnr" v="631523" />
	</node>
	<node lat="68.39979721808417" lon="16.814283339399246" id="-15542">
		<tag k="name" v="Mølnvika" />
		<tag k="natural" v="bay" />
		<tag k="ssr:stedsnr" v="632289" />
	</node>
	<node lat="68.3274333325533" lon="17.284186108838398" id="-15544">
		<tag k="name" v="Osen" />
		<tag k="natural" v="bay" />
		<tag k="ssr:stedsnr" v="632975" />
	</node>
	<node lat="68.33112222121427" lon="17.249277784501935" id="-15548">
		<tag k="name" v="Holmegrunnen" />
		<tag k="natural" v="shoal" />
		<tag k="place" v="locality" />
		<tag k="ssr:stedsnr" v="636966" />
	</node>
	<node lat="68.28393611129363" lon="16.574347217365837" id="-15549">
		<tag k="name" v="Skjellgrunnen" />
		<tag k="natural" v="shoal" />
		<tag k="place" v="locality" />
		<tag k="ssr:stedsnr" v="643522" />
	</node>
	<node lat="68.39730555849751" lon="17.509044450824927" id="-15551">
		<tag k="name" v="Indre Grorlineset" />
		<tag k="natural" v="cape" />
		<tag k="ssr:stedsnr" v="645052" />
	</node>
	<node lat="68.34185555871149" lon="16.216097210817054" id="-15553">
		<tag k="name" v="Revelsøyhamn" />
		<tag k="natural" v="bay" />
		<tag k="ssr:stedsnr" v="645245" />
	</node>
	<node lat="68.33927499849632" lon="16.24970833021199" id="-15554">
		<tag k="name" v="Jettavika" />
		<tag k="natural" v="bay" />
		<tag k="ssr:stedsnr" v="645254" />
	</node>
	<node lat="68.34489999615154" lon="16.17929722907459" id="-15560">
		<tag k="name" v="Valneset" />
		<tag k="natural" v="cape" />
		<tag k="ssr:stedsnr" v="645260" />
	</node>
	<node lat="68.32248332925023" lon="16.17825832648815" id="-15561">
		<tag k="name" v="Vallekorsnes" />
		<tag k="natural" v="cape" />
		<tag k="ssr:stedsnr" v="645351" />
	</node>
	<node lat="68.17563611413472" lon="16.552113894797177" id="-15569">
		<tag k="name" v="Stefjord" />
		<tag k="natural" v="cape" />
		<tag k="ssr:stedsnr" v="649317" />
	</node>
	<node lat="68.39795000295857" lon="17.500713899777463" id="-15588">
		<tag k="name" v="Ytre Grorlineset" />
		<tag k="natural" v="cape" />
		<tag k="ssr:stedsnr" v="732694" />
	</node>
	<node lat="68.46520555395963" lon="17.476952763714745" id="-15599">
		<tag k="name" v="Øyjordneset" />
		<tag k="natural" v="cape" />
		<tag k="ssr:stedsnr" v="745250" />
	</node>
	<node lat="68.45405833372727" lon="17.54738610095857" id="-15600">
		<tag k="name" v="Steinsvika" />
		<tag k="natural" v="bay" />
		<tag k="ssr:stedsnr" v="745257" />
	</node>
	<node lat="68.17229722290989" lon="16.36350278342723" id="-15604">
		<tag k="name" v="Sørnesholmen" />
		<tag k="place" v="islet" />
		<tag k="ssr:stedsnr" v="745600" />
	</node>
	<node lat="68.33292221863104" lon="16.251061104035298" id="-15606">
		<tag k="name" v="Straumsøysundet" />
		<tag k="natural" v="strait" />
		<tag k="ssr:stedsnr" v="745687" />
	</node>
	<node lat="68.53296388701798" lon="17.569666651462708" id="-15647">
		<tag k="alt_name" v="Hamnvik" />
		<tag k="name" v="Hamnvika" />
		<tag k="natural" v="bay" />
		<tag k="ssr:stedsnr" v="745767" />
	</node>
	<node lat="68.36383889338579" lon="16.896016661701363" id="-15663">
		<tag k="name" v="Munken" />
		<tag k="natural" v="cape" />
		<tag k="ssr:stedsnr" v="745945" />
	</node>
	<node lat="68.38406666846298" lon="17.06487499978791" id="-15675">
		<tag k="alt_name" v="Sildvika, yt" />
		<tag k="name" v="Ytter-Sildvik" />
		<tag k="natural" v="bay" />
		<tag k="ssr:stedsnr" v="746935" />
	</node>
	<node lat="68.42463610880725" lon="17.39563611746765" id="-15678">
		<tag k="alt_name:no" v="Beisfjord" />
		<tag k="bay" v="fjord" />
		<tag k="name" v="Beisfjorden" />
		<tag k="name:no" v="Beisfjorden" />
		<tag k="name:se" v="Ušmá" />
		<tag k="natural" v="bay" />
		<tag k="ssr:stedsnr" v="746986" />
	</node>
	<node lat="68.41858333765187" lon="16.705344437971974" id="-15715">
		<tag k="name" v="Neset" />
		<tag k="natural" v="cape" />
		<tag k="ssr:stedsnr" v="752183" />
	</node>
	<node lat="68.47108332945963" lon="17.5221944464231" id="-15731">
		<tag k="name" v="Blåbærvika" />
		<tag k="natural" v="bay" />
		<tag k="ssr:stedsnr" v="753324" />
	</node>
	<node lat="68.46891944067829" lon="17.50902778215324" id="-15733">
		<tag k="name" v="Jektneset" />
		<tag k="natural" v="cape" />
		<tag k="ssr:stedsnr" v="753334" />
	</node>
	<node lat="68.49985277533811" lon="17.541430540771877" id="-15735">
		<tag k="name" v="Åneset" />
		<tag k="natural" v="cape" />
		<tag k="ssr:stedsnr" v="753346" />
	</node>
	<node lat="68.33449722151505" lon="16.823547209252283" id="-15742">
		<tag k="name" v="Ballangsvika" />
		<tag k="natural" v="bay" />
		<tag k="ssr:stedsnr" v="753378" />
	</node>
	<node lat="68.2558833307401" lon="17.397969446720037" id="-15750">
		<tag k="name" v="Marstokken" />
		<tag k="natural" v="shoal" />
		<tag k="place" v="locality" />
		<tag k="ssr:stedsnr" v="753538" />
	</node>
	<node lat="68.4214499993454" lon="17.298583328409034" id="-15765">
		<tag k="name" v="Kattnesen" />
		<tag k="place" v="locality" />
		<tag k="seamark:type" v="rock" />
		<tag k="ssr:stedsnr" v="758110" />
	</node>
	<node lat="68.31897222095259" lon="16.286538887702115" id="-15775">
		<tag k="name" v="Falkneset" />
		<tag k="natural" v="cape" />
		<tag k="ssr:stedsnr" v="767257" />
	</node>
	<node lat="68.31960278181552" lon="16.117144440387776" id="-15780">
		<tag k="name" v="Vallebøen" />
		<tag k="natural" v="shoal" />
		<tag k="place" v="locality" />
		<tag k="ssr:stedsnr" v="767376" />
	</node>
	<node lat="68.29405277919064" lon="17.355005563062917" id="-15782">
		<tag k="name" v="Innersandvika" />
		<tag k="natural" v="bay" />
		<tag k="ssr:stedsnr" v="767688" />
	</node>
	<node lat="68.3255138848957" lon="17.269869452252152" id="-15790">
		<tag k="name" v="Forrholmen" />
		<tag k="place" v="islet" />
		<tag k="ssr:stedsnr" v="767894" />
	</node>
	<node lat="68.32443888675937" lon="17.261047218925743" id="-15793">
		<tag k="name" v="Flatholmen" />
		<tag k="place" v="islet" />
		<tag k="ssr:stedsnr" v="767882" />
	</node>
	<node lat="68.0695388862628" lon="16.376869450123476" id="-15794">
		<tag k="name" v="Storåstrand" />
		<tag k="natural" v="beach" />
		<tag k="ssr:stedsnr" v="771335" />
	</node>
	<node lat="68.35697221954922" lon="16.13948887546659" id="-15812">
		<tag k="alt_name" v="Sjyvika" />
		<tag k="name" v="Sjøvika" />
		<tag k="natural" v="bay" />
		<tag k="ssr:stedsnr" v="805325" />
	</node>
	<node lat="68.0346500039617" lon="16.434333335495502" id="-15822">
		<tag k="name" v="Biehtsenjárgga - Forneset" />
		<tag k="name:no" v="Forneset" />
		<tag k="name:smj" v="Biehtsenjárgga" />
		<tag k="natural" v="cape" />
		<tag k="old_name:smj" v="Beahcenjárga" />
		<tag k="ssr:stedsnr" v="805793" />
	</node>
	<node lat="68.45261388981908" lon="17.47020277963784" id="-15830">
		<tag k="name" v="Grunnstadvika" />
		<tag k="natural" v="bay" />
		<tag k="ssr:stedsnr" v="806213" />
	</node>
	<node lat="68.44990833528095" lon="17.706050001416724" id="-15831">
		<tag k="name" v="Langstranda" />
		<tag k="natural" v="beach" />
		<tag k="ssr:stedsnr" v="806219" />
	</node>
	<node lat="68.45263055700765" lon="17.51381110400128" id="-15832">
		<tag k="alt_name" v="Djupvika, yt" />
		<tag k="name" v="Ytre Djupvik" />
		<tag k="natural" v="bay" />
		<tag k="ssr:stedsnr" v="806222" />
	</node>
	<node lat="68.40617500025934" lon="17.446205541308846" id="-15853">
		<tag k="name" v="Kvitsandøyra" />
		<tag k="natural" v="bay" />
		<tag k="ssr:stedsnr" v="806268" />
	</node>
	<node lat="68.41920000198317" lon="16.593727774384625" id="-15856">
		<tag k="name" v="Porsøya" />
		<tag k="place" v="island" />
		<tag k="ssr:stedsnr" v="806456" />
	</node>
	<node lat="68.32553360922893" lon="16.345915160132996" id="-15869">
		<tag k="alt_name" v="Pollneset" />
		<tag k="name" v="Pollsnes" />
		<tag k="natural" v="cape" />
		<tag k="old_name" v="Pålsnesodden" />
		<tag k="ssr:stedsnr" v="806631" />
	</node>
	<node lat="68.25431389058909" lon="17.381288878482433" id="-15884">
		<tag k="name" v="Øyran" />
		<tag k="place" v="island" />
		<tag k="ssr:stedsnr" v="806834" />
	</node>
	<node lat="68.38768055318434" lon="16.90203610965044" id="-15900">
		<tag k="fixme" v="consider seamark:type=rock or natural=shoal" />
		<tag k="name" v="Buskjæret" />
		<tag k="place" v="islet" />
		<tag k="ssr:stedsnr" v="807941" />
	</node>
	<node lat="68.38513055532806" lon="17.19733332636033" id="-15937">
		<tag k="name" v="Holtvika" />
		<tag k="natural" v="bay" />
		<tag k="ssr:stedsnr" v="813456" />
	</node>
	<node lat="68.46637778003608" lon="17.470227774407203" id="-15943">
		<tag k="name" v="Langstrand" />
		<tag k="natural" v="beach" />
		<tag k="ssr:stedsnr" v="814301" />
	</node>
	<node lat="68.4537138874657" lon="17.520855547599822" id="-15946">
		<tag k="name" v="Perlappberget" />
		<tag k="natural" v="cape" />
		<tag k="ssr:stedsnr" v="814374" />
	</node>
	<node lat="68.52372499832668" lon="17.425977770321982" id="-15949">
		<tag k="name" v="Trollvikneset" />
		<tag k="natural" v="cape" />
		<tag k="ssr:stedsnr" v="814361" />
	</node>
	<node lat="68.35560555870828" lon="16.964872212095358" id="-15954">
		<tag k="name" v="Rånlynen" />
		<tag k="natural" v="cape" />
		<tag k="ssr:stedsnr" v="814489" />
	</node>
	<node lat="68.42515555802794" lon="17.341819431994345" id="-15957">
		<tag k="name" v="Hatteberget" />
		<tag k="natural" v="cape" />
		<tag k="ssr:stedsnr" v="814574" />
	</node>
	<node lat="68.1590611080878" lon="16.407791668572635" id="-15958">
		<tag k="name" v="Knappneset" />
		<tag k="natural" v="cape" />
		<tag k="ssr:stedsnr" v="814614" />
	</node>
	<node lat="68.42212499918655" lon="17.286658330068917" id="-15967">
		<tag k="name" v="Tanggrunnen" />
		<tag k="natural" v="shoal" />
		<tag k="place" v="locality" />
		<tag k="ssr:stedsnr" v="819106" />
	</node>
	<node lat="68.34196944420034" lon="16.187958320918842" id="-15974">
		<tag k="name" v="Storvika" />
		<tag k="natural" v="bay" />
		<tag k="ssr:stedsnr" v="828246" />
	</node>
	<node lat="68.18506667077068" lon="16.574894448778647" id="-15981">
		<tag k="name" v="Skredneset" />
		<tag k="natural" v="cape" />
		<tag k="ssr:stedsnr" v="832341" />
	</node>
	<node lat="68.31283055552413" lon="17.301383332603518" id="-15982">
		<tag k="name" v="Tømmervikholmen" />
		<tag k="place" v="islet" />
		<tag k="ssr:stedsnr" v="889875" />
	</node>
	<node lat="68.37406944253668" lon="17.584947220049717" id="-15999">
		<tag k="name" v="Øyra" />
		<tag k="natural" v="cape" />
		<tag k="ssr:stedsnr" v="866111" />
	</node>
	<node lat="68.03871944290528" lon="16.39659443241838" id="-16026">
		<tag k="name" v="Gådjeluokta - Grindvika" />
		<tag k="name:no" v="Grindvika" />
		<tag k="name:smj" v="Gådjeluokta" />
		<tag k="natural" v="bay" />
		<tag k="old_name:smj" v="Godjeluokta" />
		<tag k="ssr:stedsnr" v="866808" />
	</node>
	<node lat="68.39198333207763" lon="17.130291665285625" id="-16044">
		<tag k="alt_name" v="Klubben, in" />
		<tag k="fixme" v="consider seamark:type=rock or natural=shoal" />
		<tag k="name" v="Indre Klubben" />
		<tag k="place" v="islet" />
		<tag k="ssr:stedsnr" v="867991" />
	</node>
	<node lat="68.44576666968167" lon="17.608566671952968" id="-16048">
		<tag k="name" v="Leirbukta" />
		<tag k="natural" v="bay" />
		<tag k="ssr:stedsnr" v="867247" />
	</node>
	<node lat="68.45339444113735" lon="17.482275004553184" id="-16049">
		<tag k="name" v="Karistranda" />
		<tag k="name:no" v="Karistranda" />
		<tag k="name:se" v="Sáddoviervá" />
		<tag k="natural" v="beach" />
		<tag k="ssr:stedsnr" v="867252" />
	</node>
	<node lat="68.32555833524641" lon="16.182152776137148" id="-16052">
		<tag k="name" v="Tynnholmen" />
		<tag k="place" v="islet" />
		<tag k="ssr:stedsnr" v="867381" />
	</node>
	<node lat="68.44774444284225" lon="17.596799990655764" id="-16053">
		<tag k="name" v="Forneset" />
		<tag k="natural" v="cape" />
		<tag k="ssr:stedsnr" v="867466" />
	</node>
	<node lat="68.28706666298496" lon="16.14847778356987" id="-16057">
		<tag k="name" v="Bremneset" />
		<tag k="natural" v="cape" />
		<tag k="ssr:stedsnr" v="867365" />
	</node>
	<node lat="68.31428333450822" lon="16.170436110424774" id="-16058">
		<tag k="name" v="Bubergvika" />
		<tag k="natural" v="bay" />
		<tag k="ssr:stedsnr" v="867375" />
	</node>
	<node lat="68.3495250024177" lon="16.25701389625568" id="-16072">
		<tag k="name" v="Godmorholmen" />
		<tag k="place" v="islet" />
		<tag k="ssr:stedsnr" v="867685" />
	</node>
	<node lat="68.35582777810761" lon="16.22405000363708" id="-16075">
		<tag k="fixme" v="consider seamark:type=rock or natural=shoal" />
		<tag k="name" v="Engelsøyvarden" />
		<tag k="place" v="islet" />
		<tag k="ssr:stedsnr" v="867700" />
	</node>
	<node lat="68.2170250022417" lon="17.315744447621924" id="-16090">
		<tag k="name" v="Strandsteinlandet" />
		<tag k="natural" v="beach" />
		<tag k="ssr:stedsnr" v="867766" />
	</node>
	<node lat="68.342183334948" lon="16.834000009990536" id="-16147">
		<tag k="name" v="Finneset" />
		<tag k="natural" v="cape" />
		<tag k="ssr:stedsnr" v="874453" />
	</node>
	<node lat="68.35657777881153" lon="16.95384721857484" id="-16150">
		<tag k="name" v="Rugevika" />
		<tag k="natural" v="bay" />
		<tag k="ssr:stedsnr" v="874376" />
	</node>
	<node lat="68.4146166632696" lon="16.57474998728564" id="-16153">
		<tag k="name" v="Hamnnes" />
		<tag k="natural" v="cape" />
		<tag k="ssr:stedsnr" v="874476" />
	</node>
	<node lat="68.52443055498881" lon="17.440944451675477" id="-16172">
		<tag k="name" v="Bakkejordneset" />
		<tag k="natural" v="cape" />
		<tag k="ssr:stedsnr" v="875315" />
	</node>
	<node lat="68.37779444526016" lon="16.897636121990583" id="-16177">
		<tag k="name" v="Elveberget" />
		<tag k="natural" v="cape" />
		<tag k="ssr:stedsnr" v="875351" />
	</node>
	<node lat="68.3741083339223" lon="17.566280552096973" id="-16179">
		<tag k="name" v="Sennes" />
		<tag k="natural" v="cape" />
		<tag k="ssr:stedsnr" v="875363" />
	</node>
	<node lat="68.44799999645643" lon="17.63086666350485" id="-16181">
		<tag k="name" v="Aspeneset" />
		<tag k="natural" v="cape" />
		<tag k="ssr:stedsnr" v="875372" />
	</node>
	<node lat="68.38814167146094" lon="16.892849988368326" id="-16186">
		<tag k="name" v="Måsdraget" />
		<tag k="natural" v="cape" />
		<tag k="ssr:stedsnr" v="876426" />
	</node>
	<node lat="68.38397777408903" lon="17.05592776912975" id="-16188">
		<tag k="name" v="Sildvikneset" />
		<tag k="natural" v="cape" />
		<tag k="ssr:stedsnr" v="875747" />
	</node>
	<node lat="68.39325277757672" lon="17.161686100457075" id="-16189">
		<tag k="name" v="Feneset" />
		<tag k="natural" v="cape" />
		<tag k="ssr:stedsnr" v="875834" />
	</node>
	<node lat="68.42280833138686" lon="17.41342222887774" id="-16192">
		<tag k="name" v="Narvikbukta" />
		<tag k="natural" v="bay" />
		<tag k="ssr:stedsnr" v="880388" />
	</node>
	<node lat="68.45187222521584" lon="17.56253056542546" id="-16193">
		<tag k="name" v="Hellarneset" />
		<tag k="natural" v="cape" />
		<tag k="ssr:stedsnr" v="880393" />
	</node>
	<node lat="68.41821110839217" lon="17.39116388966702" id="-16195">
		<tag k="name" v="Klokkarvika" />
		<tag k="natural" v="bay" />
		<tag k="ssr:stedsnr" v="935610" />
	</node>
	<node lat="68.32018333436612" lon="16.29924721874751" id="-16200">
		<tag k="name" v="Gåsjenesøyan" />
		<tag k="place" v="islet" />
		<tag k="ssr:stedsnr" v="889272" />
	</node>
	<node lat="68.35828055179994" lon="16.118777781639228" id="-16201">
		<tag k="fixme" v="consider seamark:type=rock or natural=shoal" />
		<tag k="name" v="Hestvikskjæran" />
		<tag k="place" v="islet" />
		<tag k="ssr:stedsnr" v="889278" />
	</node>
	<node lat="68.34894167035914" lon="16.063980552751328" id="-16202">
		<tag k="name" v="Strætvikran" />
		<tag k="natural" v="bay" />
		<tag k="ssr:stedsnr" v="889398" />
	</node>
	<node lat="68.46543055230974" lon="17.49182498975539" id="-16213">
		<tag k="name" v="Ytternes" />
		<tag k="natural" v="cape" />
		<tag k="ssr:stedsnr" v="936267" />
	</node>
	<node lat="68.39409999909232" lon="17.47914999337081" id="-16219">
		<tag k="name" v="Lappneset" />
		<tag k="natural" v="cape" />
		<tag k="ssr:stedsnr" v="940352" />
	</node>
	<node lat="68.32370000077633" lon="17.260586105387592" id="-16220">
		<tag k="name" v="Høgholmen" />
		<tag k="place" v="islet" />
		<tag k="ssr:stedsnr" v="940974" />
	</node>
	<node lat="68.09015277374499" lon="16.41446666483893" id="-16221">
		<tag k="name" v="Storvika" />
		<tag k="natural" v="bay" />
		<tag k="ssr:stedsnr" v="949173" />
	</node>
	<node lat="68.33518611151057" lon="16.16376667019758" id="-16224">
		<tag k="name" v="Sandværan" />
		<tag k="place" v="islet" />
		<tag k="ssr:stedsnr" v="949256" />
	</node>
</osm>
