<?xml version="1.0" encoding="UTF-8"?>
<osm version="0.6" generator="osmapis">
	<node lat="68.09245555317887" lon="16.364680560849635" id="-11589">
		<tag k="fixme" v="consider place=suburb, village or hamlet" />
		<tag k="name" v="Oaffe - Kjøpsnes" />
		<tag k="name:no" v="Kjøpsnes" />
		<tag k="name:smj" v="Oaffe" />
		<tag k="old_name:smj" v="Oaffi" />
		<tag k="place" v="quarter" />
		<tag k="ssr:stedsnr" v="16510" />
	</node>
	<node lat="68.17919999680723" lon="17.554099985444736" id="-11606">
		<tag k="name" v="Grønvoll" />
		<tag k="place" v="farm" />
		<tag k="ssr:stedsnr" v="17709" />
	</node>
	<node lat="68.34701245806372" lon="16.57076150631614" id="-11607">
		<tag k="fixme" v="consider place=hamlet" />
		<tag k="name" v="Haugen" />
		<tag k="place" v="farm" />
		<tag k="ssr:stedsnr" v="17710" />
	</node>
	<node lat="68.2073177788864" lon="17.520630862392764" id="-11611">
		<tag k="fixme" v="consider place=hamlet" />
		<tag k="name" v="Stiberg" />
		<tag k="place" v="farm" />
		<tag k="ssr:stedsnr" v="17725" />
	</node>
	<node lat="68.5575305592157" lon="17.61954443869772" id="-11612">
		<tag k="name" v="Fagerjorda" />
		<tag k="place" v="farm" />
		<tag k="ssr:stedsnr" v="17728" />
	</node>
	<node lat="68.36687777859166" lon="16.88519167497809" id="-11621">
		<tag k="name" v="Jonsvollen" />
		<tag k="place" v="farm" />
		<tag k="ssr:stedsnr" v="17920" />
	</node>
	<node lat="68.54170277909374" lon="17.570588881303653" id="-11626">
		<tag k="name" v="Medby" />
		<tag k="place" v="hamlet" />
		<tag k="ssr:stedsnr" v="18660" />
	</node>
	<node lat="68.46338851687874" lon="17.689135205814683" id="-11649">
		<tag k="name" v="Solbakken" />
		<tag k="place" v="farm" />
		<tag k="ssr:stedsnr" v="25011" />
	</node>
	<node lat="68.36208611101155" lon="16.87042222362954" id="-11659">
		<tag k="name" v="Einhaugen" />
		<tag k="place" v="farm" />
		<tag k="ssr:stedsnr" v="25280" />
	</node>
	<node lat="68.54996666318392" lon="17.51182221546123" id="-11665">
		<tag k="name" v="Myrbakken" />
		<tag k="place" v="farm" />
		<tag k="ssr:stedsnr" v="25425" />
	</node>
	<node lat="68.44503333814514" lon="17.430636105358904" id="-11672">
		<tag k="name" v="Finnbekken" />
		<tag k="place" v="farm" />
		<tag k="ssr:stedsnr" v="30711" />
	</node>
	<node lat="68.29454166291525" lon="16.428869453119475" id="-11693">
		<tag k="name" v="Leirpollen" />
		<tag k="place" v="neighbourhood" />
		<tag k="ssr:stedsnr" v="56620" />
	</node>
	<node lat="68.28150556024929" lon="16.508416658251097" id="-11694">
		<tag k="name" v="Halvarøy i Efjord" />
		<tag k="place" v="neighbourhood" />
		<tag k="ssr:stedsnr" v="56621" />
	</node>
	<node lat="68.44206944198419" lon="17.412925006878062" id="-11698">
		<tag k="amenity" v="hospital" />
		<tag k="name" v="Narvik sykehus" />
		<tag k="ssr:stedsnr" v="58640" />
	</node>
	<node lat="68.4126361115995" lon="17.439186113079547" id="-11700">
		<tag k="amenity" v="school" />
		<tag k="name" v="Fagernes skole" />
		<tag k="ssr:stedsnr" v="58709" />
	</node>
	<node lat="68.27264166286709" lon="17.399327766481566" id="-11701">
		<tag k="name" v="Aspevik søndre" />
		<tag k="place" v="farm" />
		<tag k="ssr:stedsnr" v="240735" />
	</node>
	<node lat="68.08729722312722" lon="16.408156538147836" id="-11709">
		<tag k="fixme" v="consider place=hamlet" />
		<tag k="name" v="Njássje" />
		<tag k="name:no" v="Nes" />
		<tag k="name:smj" v="Njássje" />
		<tag k="old_name:smj" v="Nášši" />
		<tag k="place" v="farm" />
		<tag k="ssr:stedsnr" v="77553" />
	</node>
	<node lat="68.18311944058767" lon="16.73662221697612" id="-11715">
		<tag k="name" v="Langstranda" />
		<tag k="place" v="locality" />
		<tag k="ssr:stedsnr" v="77625" />
	</node>
	<node lat="68.32380331311793" lon="16.60348650724516" id="-11731">
		<tag k="fixme" v="consider place=hamlet" />
		<tag k="name" v="Grindhaugen" />
		<tag k="place" v="farm" />
		<tag k="ssr:stedsnr" v="78644" />
	</node>
	<node lat="68.5603545827915" lon="17.706087793861" id="-11734">
		<tag k="name" v="Midtgård" />
		<tag k="place" v="farm" />
		<tag k="ssr:stedsnr" v="78696" />
	</node>
	<node lat="68.5534642995816" lon="17.72016693993103" id="-11740">
		<tag k="alt_name" v="Gamberget" />
		<tag k="name" v="Gamberg" />
		<tag k="place" v="farm" />
		<tag k="ssr:stedsnr" v="78745" />
	</node>
	<node lat="68.3535901700231" lon="16.864915792745197" id="-11742">
		<tag k="fixme" v="multiple name tags, choose one and add the other to alt_name" />
		<tag k="name" v="Hamn;Hamnvik" />
		<tag k="place" v="farm" />
		<tag k="ssr:stedsnr" v="78906" />
	</node>
	<node lat="68.43610416396564" lon="17.399966079209403" id="-11778">
		<tag k="name" v="Framnes" />
		<tag k="place" v="suburb" />
		<tag k="ssr:stedsnr" v="86003" />
	</node>
	<node lat="68.04903611490005" lon="17.031694455195122" id="-11791">
		<tag k="fixme" v="consider tourism=alpine_hut or tourism=chalet" />
		<tag k="name" v="Paurohytta" />
		<tag k="old_name" v="Paurohyttene;Pauro" />
		<tag k="ssr:stedsnr" v="87576" />
		<tag k="tourism" v="wilderness_hut" />
	</node>
	<node lat="68.31816666955474" lon="17.89923888688174" id="-11808">
		<tag k="fixme" v="consider tourism=alpine_hut or tourism=chalet" />
		<tag k="name" v="Hunddalshytta" />
		<tag k="old_name" v="Hunddalshyttene;Hundalshytta" />
		<tag k="ssr:stedsnr" v="102216" />
		<tag k="tourism" v="wilderness_hut" />
	</node>
	<node lat="68.02826944852931" lon="16.478761109200075" id="-11810">
		<tag k="name" v="Sommarset" />
		<tag k="place" v="isolated_dwelling" />
		<tag k="ssr:stedsnr" v="103210" />
	</node>
	<node lat="68.11878610804642" lon="16.30439721302855" id="-11811">
		<tag k="name" v="Kobbvika" />
		<tag k="place" v="isolated_dwelling" />
		<tag k="ssr:stedsnr" v="104290" />
	</node>
	<node lat="68.33259166560437" lon="16.809436108647436" id="-11815">
		<tag k="name" v="Kiselva" />
		<tag k="place" v="quarter" />
		<tag k="ssr:stedsnr" v="116605" />
	</node>
	<node lat="68.30027221900164" lon="16.645850007478536" id="-11831">
		<tag k="name" v="Vassli" />
		<tag k="place" v="farm" />
		<tag k="ssr:stedsnr" v="138604" />
	</node>
	<node lat="68.30374883058428" lon="16.74277053467602" id="-11832">
		<tag k="fixme" v="consider place=hamlet" />
		<tag k="name" v="Haugen" />
		<tag k="place" v="farm" />
		<tag k="ssr:stedsnr" v="138609" />
	</node>
	<node lat="68.10423611118948" lon="16.503319442050643" id="-11842">
		<tag k="name" v="Allmenningen" />
		<tag k="place" v="isolated_dwelling" />
		<tag k="ssr:stedsnr" v="138590" />
	</node>
	<node lat="68.29048888966535" lon="16.62532778783705" id="-11843">
		<tag k="name" v="Hestvika" />
		<tag k="place" v="farm" />
		<tag k="ssr:stedsnr" v="138591" />
	</node>
	<node lat="68.34887499770745" lon="16.585299999378744" id="-11847">
		<tag k="alt_name" v="Fjellfoss" />
		<tag k="name" v="Fjellfors" />
		<tag k="place" v="farm" />
		<tag k="ssr:stedsnr" v="138692" />
	</node>
	<node lat="68.3588000023034" lon="16.85676111918361" id="-11861">
		<tag k="alt_name" v="Sørslett" />
		<tag k="name" v="Sørsletta" />
		<tag k="place" v="farm" />
		<tag k="ssr:stedsnr" v="138938" />
	</node>
	<node lat="68.46485000218102" lon="17.68414166656604" id="-11863">
		<tag k="name" v="Hjemmemoen" />
		<tag k="place" v="farm" />
		<tag k="ssr:stedsnr" v="139743" />
	</node>
	<node lat="68.39886182835674" lon="17.28926184583163" id="-11868">
		<tag k="alt_name" v="Håkvik søndre" />
		<tag k="fixme" v="consider place=hamlet" />
		<tag k="name" v="Søndre Håkvik" />
		<tag k="old_name" v="Håkvika, s" />
		<tag k="place" v="farm" />
		<tag k="ssr:stedsnr" v="139996" />
	</node>
	<node lat="68.24149722230705" lon="17.41180834154155" id="-11894">
		<tag k="name" v="Sandmoen" />
		<tag k="place" v="farm" />
		<tag k="ssr:stedsnr" v="146471" />
	</node>
	<node lat="68.21513333608493" lon="17.474411110103436" id="-11915">
		<tag k="name" v="Sæterbrukan" />
		<tag k="place" v="isolated_dwelling" />
		<tag k="ssr:stedsnr" v="259640" />
	</node>
	<node lat="68.1808482423371" lon="17.553293036631985" id="-11918">
		<tag k="alt_name" v="Bogholmen" />
		<tag k="name" v="Bokholmen" />
		<tag k="place" v="hamlet" />
		<tag k="ssr:stedsnr" v="259662" />
	</node>
	<node lat="68.34624119086263" lon="16.80718464097346" id="-11961">
		<tag k="name" v="Vårtun" />
		<tag k="place" v="farm" />
		<tag k="ssr:stedsnr" v="260734" />
	</node>
	<node lat="68.55322880214352" lon="17.744724684594154" id="-11971">
		<tag k="alt_name" v="Elvemoen" />
		<tag k="name" v="Elvemo" />
		<tag k="place" v="farm" />
		<tag k="ssr:stedsnr" v="260787" />
	</node>
	<node lat="68.25275790354637" lon="17.39722199477084" id="-11972">
		<tag k="alt_name" v="Elvegården" />
		<tag k="name" v="Søndre Elvegården" />
		<tag k="place" v="farm" />
		<tag k="ssr:stedsnr" v="260789" />
	</node>
	<node lat="68.32644444843018" lon="17.291713884017298" id="-11978">
		<tag k="alt_name" v="Lundlien" />
		<tag k="name" v="Lundlia" />
		<tag k="place" v="farm" />
		<tag k="ssr:stedsnr" v="260877" />
	</node>
	<node lat="68.38929722207833" lon="17.1860027755206" id="-11987">
		<tag k="name" v="Røsåsen" />
		<tag k="place" v="farm" />
		<tag k="ssr:stedsnr" v="260969" />
	</node>
	<node lat="68.41064166940608" lon="17.408044432547122" id="-11992">
		<tag k="name" v="Nyborg" />
		<tag k="place" v="quarter" />
		<tag k="ssr:stedsnr" v="260988" />
	</node>
	<node lat="68.41152777670347" lon="16.77857776586823" id="-11995">
		<tag k="name" v="Djupvikåsen" />
		<tag k="place" v="neighbourhood" />
		<tag k="ssr:stedsnr" v="177604" />
	</node>
	<node lat="68.43915000072772" lon="17.398047231262794" id="-11999">
		<tag k="amenity" v="school" />
		<tag k="name" v="Narvik videregående skole - studiested Solhaugen" />
		<tag k="old_name" v="Solhaugen videregående skole" />
		<tag k="ssr:stedsnr" v="180614" />
	</node>
	<node lat="68.25431828455987" lon="17.406427662117643" id="-12000">
		<tag k="alt_name" v="Elvegården" />
		<tag k="fixme" v="consider place=hamlet" />
		<tag k="name" v="Midtre Elvegården" />
		<tag k="place" v="farm" />
		<tag k="ssr:stedsnr" v="180723" />
	</node>
	<node lat="68.30848332957478" lon="17.068299986269214" id="-12002">
		<tag k="name" v="Bakkeli" />
		<tag k="place" v="farm" />
		<tag k="ssr:stedsnr" v="261839" />
	</node>
	<node lat="68.41934166344282" lon="16.723747208679136" id="-12032">
		<tag k="name" v="Lønset" />
		<tag k="place" v="farm" />
		<tag k="ssr:stedsnr" v="198465" />
	</node>
	<node lat="68.28004340907871" lon="16.63860931861063" id="-12035">
		<tag k="alt_name" v="Slottli" />
		<tag k="name" v="Slåttlia" />
		<tag k="place" v="farm" />
		<tag k="ssr:stedsnr" v="198569" />
	</node>
	<node lat="68.26146666854606" lon="16.7077944474931" id="-12053">
		<tag k="name" v="Nerdal" />
		<tag k="place" v="isolated_dwelling" />
		<tag k="ssr:stedsnr" v="199555" />
	</node>
	<node lat="68.5571527750683" lon="17.737297216154214" id="-12063">
		<tag k="name" v="Lyngmoen" />
		<tag k="place" v="farm" />
		<tag k="ssr:stedsnr" v="199763" />
	</node>
	<node lat="68.17602221931055" lon="16.70200833487581" id="-12068">
		<tag k="name" v="Stonga" />
		<tag k="place" v="isolated_dwelling" />
		<tag k="ssr:stedsnr" v="199617" />
	</node>
	<node lat="68.33053888888823" lon="16.789924998123926" id="-12071">
		<tag k="fixme" v="consider place=hamlet" />
		<tag k="name" v="Bjørkåsen" />
		<tag k="place" v="village" />
		<tag k="ssr:stedsnr" v="199666" />
	</node>
	<node lat="68.56251278713113" lon="17.692441441236884" id="-12083">
		<tag k="name" v="Nordgård" />
		<tag k="place" v="farm" />
		<tag k="ssr:stedsnr" v="200693" />
	</node>
	<node lat="68.56091029264907" lon="17.73234897807203" id="-12084">
		<tag k="fixme" v="consider place=hamlet" />
		<tag k="name" v="Vasshaugen" />
		<tag k="place" v="farm" />
		<tag k="ssr:stedsnr" v="200694" />
	</node>
	<node lat="68.47145451637961" lon="17.646885679673243" id="-12087">
		<tag k="name" v="Liljedal" />
		<tag k="place" v="farm" />
		<tag k="ssr:stedsnr" v="200748" />
	</node>
	<node lat="68.3546555544659" lon="16.96511388283108" id="-12134">
		<tag k="fixme" v="consider place=hamlet" />
		<tag k="name" v="Hamn" />
		<tag k="place" v="village" />
		<tag k="ssr:stedsnr" v="207432" />
	</node>
	<node lat="68.40520555337665" lon="17.30831667177928" id="-12143">
		<tag k="alt_name:no" v="Håkvika" />
		<tag k="fixme" v="consider place=suburb, village or hamlet" />
		<tag k="name" v="Håkvik" />
		<tag k="name:no" v="Håkvik" />
		<tag k="name:se" v="Ginnasluokta" />
		<tag k="place" v="quarter" />
		<tag k="ssr:stedsnr" v="268934" />
	</node>
	<node lat="68.4441888926311" lon="17.43626389117062" id="-12150">
		<tag k="leisure" v="park" />
		<tag k="name" v="Carl Gulbrandsons park" />
		<tag k="ssr:stedsnr" v="212725" />
	</node>
	<node lat="68.33374999831584" lon="16.06589167715276" id="-12154">
		<tag k="name" v="Barøyodden" />
		<tag k="place" v="isolated_dwelling" />
		<tag k="ssr:stedsnr" v="218108" />
	</node>
	<node lat="68.41946389261061" lon="17.355425005447565" id="-12158">
		<tag k="leisure" v="pitch" />
		<tag k="name" v="Strandagutten" />
		<tag k="ssr:stedsnr" v="221617" />
	</node>
	<node lat="68.08090277640922" lon="16.398483323627232" id="-12164">
		<tag k="name" v="Lapplæger" />
		<tag k="place" v="isolated_dwelling" />
		<tag k="ssr:stedsnr" v="224035" />
	</node>
	<node lat="68.44789444003064" lon="17.71465000475558" id="-12170">
		<tag k="name" v="Hornberget" />
		<tag k="place" v="farm" />
		<tag k="ssr:stedsnr" v="450009" />
	</node>
	<node lat="68.54651667023319" lon="17.512074995967573" id="-12181">
		<tag k="name" v="Løberg" />
		<tag k="place" v="farm" />
		<tag k="ssr:stedsnr" v="450339" />
	</node>
	<node lat="68.37708611389844" lon="17.03829444360471" id="-12191">
		<tag k="name" v="Saltviknes" />
		<tag k="place" v="neighbourhood" />
		<tag k="ssr:stedsnr" v="237598" />
	</node>
	<node lat="68.39956111547652" lon="17.340552776755768" id="-12201">
		<tag k="name" v="Fredheim" />
		<tag k="place" v="farm" />
		<tag k="ssr:stedsnr" v="450961" />
	</node>
	<node lat="68.20178865276844" lon="16.67172114537529" id="-12218">
		<tag k="name" v="Aspenes" />
		<tag k="place" v="locality" />
		<tag k="ssr:stedsnr" v="259504" />
	</node>
	<node lat="68.2848277756128" lon="16.657016657741515" id="-12219">
		<tag k="name" v="Aspenes" />
		<tag k="place" v="isolated_dwelling" />
		<tag k="ssr:stedsnr" v="259557" />
	</node>
	<node lat="68.3613138914429" lon="16.850152786283616" id="-12242">
		<tag k="name" v="Ålund" />
		<tag k="place" v="farm" />
		<tag k="ssr:stedsnr" v="260954" />
	</node>
	<node lat="68.0985722262084" lon="16.363866656621553" id="-12259">
		<tag k="name" v="Pæsa" />
		<tag k="place" v="quarter" />
		<tag k="ssr:stedsnr" v="264747" />
	</node>
	<node lat="68.32394444056793" lon="17.284730555767236" id="-12274">
		<tag k="name" v="Rydningen" />
		<tag k="place" v="farm" />
		<tag k="ssr:stedsnr" v="267983" />
	</node>
	<node lat="68.09842778122346" lon="16.373572233168762" id="-12284">
		<tag k="leisure" v="pitch" />
		<tag k="name" v="Helljorda" />
		<tag k="ssr:stedsnr" v="268582" />
	</node>
	<node lat="68.550668632473" lon="17.535678411143817" id="-12292">
		<tag k="alt_name" v="Prestjord;Store Bjerkvik" />
		<tag k="fixme" v="consider place=hamlet" />
		<tag k="name" v="Prestjorda" />
		<tag k="place" v="farm" />
		<tag k="ssr:stedsnr" v="282102" />
	</node>
	<node lat="68.4402972197422" lon="17.46373609779224" id="-12297">
		<tag k="fixme" v="consider tourism=alpine_hut or tourism=chalet" />
		<tag k="name" v="Fossestua" />
		<tag k="ssr:stedsnr" v="282520" />
		<tag k="tourism" v="wilderness_hut" />
	</node>
	<node lat="68.34303333389052" lon="16.82024723251739" id="-12313">
		<tag k="name" v="Langåsen" />
		<tag k="place" v="quarter" />
		<tag k="ssr:stedsnr" v="298583" />
	</node>
	<node lat="68.41568610844404" lon="16.587263886203417" id="-12314">
		<tag k="name" v="Porsøya" />
		<tag k="place" v="neighbourhood" />
		<tag k="ssr:stedsnr" v="298592" />
	</node>
	<node lat="68.36816388827489" lon="16.603372224180816" id="-12324">
		<tag k="name" v="Karihaugen" />
		<tag k="place" v="farm" />
		<tag k="ssr:stedsnr" v="464351" />
	</node>
	<node lat="68.3041888891245" lon="17.334952768683635" id="-12332">
		<tag k="name" v="Fredheim" />
		<tag k="place" v="farm" />
		<tag k="ssr:stedsnr" v="464887" />
	</node>
	<node lat="68.2340249989181" lon="17.42042500492995" id="-12333">
		<tag k="leisure" v="pitch" />
		<tag k="name" v="Skjomen Golfpark" />
		<tag k="ssr:stedsnr" v="466495" />
	</node>
	<node lat="68.24355031728727" lon="16.755177619962097" id="-12337">
		<tag k="name" v="Skogheim" />
		<tag k="place" v="farm" />
		<tag k="ssr:stedsnr" v="320542" />
	</node>
	<node lat="68.37357222543335" lon="16.83760278969615" id="-12362">
		<tag k="name" v="Bødalen" />
		<tag k="place" v="farm" />
		<tag k="ssr:stedsnr" v="320916" />
	</node>
	<node lat="68.55164863584288" lon="17.614308551407873" id="-12373">
		<tag k="name" v="Fjellmoen" />
		<tag k="place" v="farm" />
		<tag k="ssr:stedsnr" v="321704" />
	</node>
	<node lat="68.53681110968071" lon="17.88946387874524" id="-12382">
		<tag k="alt_name" v="Nævrastua" />
		<tag k="fixme" v="consider tourism=alpine_hut or tourism=chalet" />
		<tag k="name" v="Næverfjellhytta" />
		<tag k="ssr:stedsnr" v="321689" />
		<tag k="tourism" v="wilderness_hut" />
	</node>
	<node lat="68.31568055104908" lon="17.062597230161924" id="-12383">
		<tag k="alt_name" v="Nordmoen, øvre" />
		<tag k="name" v="Øvre Nordmoen" />
		<tag k="place" v="farm" />
		<tag k="ssr:stedsnr" v="321828" />
	</node>
	<node lat="68.33479166813004" lon="17.27975554503348" id="-12384">
		<tag k="name" v="Mehus" />
		<tag k="place" v="farm" />
		<tag k="ssr:stedsnr" v="321830" />
	</node>
	<node lat="68.34501666948319" lon="16.8374499878445" id="-12385">
		<tag k="name" v="Bakkehaug" />
		<tag k="place" v="farm" />
		<tag k="ssr:stedsnr" v="321880" />
	</node>
	<node lat="68.25417500411581" lon="17.40010833981464" id="-12421">
		<tag k="name" v="Vollen" />
		<tag k="place" v="farm" />
		<tag k="ssr:stedsnr" v="328566" />
	</node>
	<node lat="68.39266944804162" lon="16.852633330080216" id="-12434">
		<tag k="name" v="Heggemoen" />
		<tag k="place" v="farm" />
		<tag k="ssr:stedsnr" v="339696" />
	</node>
	<node lat="68.38877167163396" lon="17.5519171781551" id="-12438">
		<tag k="name" v="Gammelheimen" />
		<tag k="place" v="locality" />
		<tag k="ssr:stedsnr" v="342050" />
	</node>
	<node lat="68.37368055802385" lon="17.414297210349666" id="-12442">
		<tag k="name" v="Myrhaug" />
		<tag k="place" v="farm" />
		<tag k="ssr:stedsnr" v="342644" />
	</node>
	<node lat="68.36307231703904" lon="17.46591669528916" id="-12443">
		<tag k="alt_name" v="Hauklien nedre" />
		<tag k="name" v="Nedre Hauklia" />
		<tag k="place" v="farm" />
		<tag k="ssr:stedsnr" v="342609" />
	</node>
	<node lat="68.37422156689308" lon="17.41197001827212" id="-12445">
		<tag k="alt_name" v="Mattisjorden øvre" />
		<tag k="name" v="Øvre Mattisjorda" />
		<tag k="place" v="farm" />
		<tag k="ssr:stedsnr" v="342646" />
	</node>
	<node lat="68.40215833230708" lon="16.545749987955453" id="-12448">
		<tag k="name" v="Skogmo" />
		<tag k="place" v="farm" />
		<tag k="ssr:stedsnr" v="342576" />
	</node>
	<node lat="68.34566110693844" lon="16.833527775716984" id="-12456">
		<tag k="name" v="Husvannet" />
		<tag k="place" v="quarter" />
		<tag k="ssr:stedsnr" v="359612" />
	</node>
	<node lat="68.3342861096244" lon="16.761186102035072" id="-12457">
		<tag k="name" v="Bjerke" />
		<tag k="old_name" v="Mørkhola" />
		<tag k="place" v="farm" />
		<tag k="ssr:stedsnr" v="477373" />
	</node>
	<node lat="68.28161109511399" lon="16.66568011525892" id="-12475">
		<tag k="fixme" v="multiple name tags, choose one and add the other to alt_name" />
		<tag k="name" v="Venes;Sørelv" />
		<tag k="place" v="farm" />
		<tag k="ssr:stedsnr" v="380608" />
	</node>
	<node lat="68.28481111158699" lon="16.59153609872625" id="-12476">
		<tag k="name" v="Storvika" />
		<tag k="place" v="isolated_dwelling" />
		<tag k="ssr:stedsnr" v="380611" />
	</node>
	<node lat="68.34524999909563" lon="16.81625556376675" id="-12487">
		<tag k="name" v="Utland" />
		<tag k="place" v="farm" />
		<tag k="ssr:stedsnr" v="381709" />
	</node>
	<node lat="68.55139385466951" lon="17.716565679707852" id="-12488">
		<tag k="name" v="Sørgård" />
		<tag k="place" v="farm" />
		<tag k="ssr:stedsnr" v="381713" />
	</node>
	<node lat="68.5701527740478" lon="17.573886101765126" id="-12498">
		<tag k="name" v="Nylund" />
		<tag k="place" v="farm" />
		<tag k="ssr:stedsnr" v="381748" />
	</node>
	<node lat="68.29914444320039" lon="16.70709720881703" id="-12500">
		<tag k="name" v="Sørli" />
		<tag k="place" v="farm" />
		<tag k="ssr:stedsnr" v="381606" />
	</node>
	<node lat="68.30106859474186" lon="16.70449864602386" id="-12501">
		<tag k="fixme" v="consider place=hamlet" />
		<tag k="name" v="Djupåsen" />
		<tag k="place" v="farm" />
		<tag k="ssr:stedsnr" v="381608" />
	</node>
	<node lat="68.32510220662002" lon="16.22988952716454" id="-12503">
		<tag k="fixme" v="consider place=hamlet" />
		<tag k="name" v="Valle" />
		<tag k="place" v="village" />
		<tag k="ssr:stedsnr" v="381664" />
	</node>
	<node lat="68.21457778101619" lon="17.497836099007483" id="-12504">
		<tag k="name" v="Yttermo" />
		<tag k="place" v="farm" />
		<tag k="ssr:stedsnr" v="381675" />
	</node>
	<node lat="68.5588186623372" lon="17.73677753073002" id="-12543">
		<tag k="alt_name" v="Nordkild" />
		<tag k="fixme" v="consider place=hamlet" />
		<tag k="name" v="Nordkjelda" />
		<tag k="place" v="farm" />
		<tag k="ssr:stedsnr" v="389047" />
	</node>
	<node lat="68.10057976749904" lon="17.23476776061198" id="-12564">
		<tag k="fixme" v="consider tourism=alpine_hut or tourism=chalet" />
		<tag k="name" v="Sitashytta" />
		<tag k="old_name" v="Sitashyttene" />
		<tag k="ssr:stedsnr" v="390552" />
		<tag k="tourism" v="wilderness_hut" />
	</node>
	<node lat="68.3455111123592" lon="16.3228916570858" id="-12587">
		<tag k="name" v="Sæterosen" />
		<tag k="place" v="neighbourhood" />
		<tag k="ssr:stedsnr" v="420643" />
	</node>
	<node lat="68.3192888867154" lon="16.664302766572032" id="-12612">
		<tag k="name" v="Ertsås" />
		<tag k="place" v="farm" />
		<tag k="ssr:stedsnr" v="442634" />
	</node>
	<node lat="68.55946111255787" lon="17.56951387597125" id="-12616">
		<tag k="alt_name" v="Dalmoen" />
		<tag k="name" v="Dalmo" />
		<tag k="place" v="isolated_dwelling" />
		<tag k="ssr:stedsnr" v="442712" />
	</node>
	<node lat="68.38795555467514" lon="16.62825277035387" id="-12617">
		<tag k="name" v="Brattli" />
		<tag k="place" v="farm" />
		<tag k="ssr:stedsnr" v="442762" />
	</node>
	<node lat="68.35851388653936" lon="16.87811944565687" id="-12625">
		<tag k="name" v="Skjønnvika" />
		<tag k="place" v="farm" />
		<tag k="ssr:stedsnr" v="442943" />
	</node>
	<node lat="68.2540943301342" lon="17.401814741154443" id="-12649">
		<tag k="fixme" v="consider place=hamlet" />
		<tag k="name" v="Pundsletta" />
		<tag k="place" v="farm" />
		<tag k="ssr:stedsnr" v="449567" />
	</node>
	<node lat="68.54813260994884" lon="17.529324051201336" id="-12656">
		<tag k="fixme" v="consider place=hamlet" />
		<tag k="name" v="Skog" />
		<tag k="place" v="farm" />
		<tag k="ssr:stedsnr" v="450327" />
	</node>
	<node lat="68.32507777492461" lon="17.2905805552533" id="-12676">
		<tag k="name" v="Bakken" />
		<tag k="place" v="farm" />
		<tag k="ssr:stedsnr" v="455970" />
	</node>
	<node lat="68.38252499819154" lon="17.05866388536672" id="-12694">
		<tag k="name" v="Sildvikneset" />
		<tag k="place" v="neighbourhood" />
		<tag k="ssr:stedsnr" v="480604" />
	</node>
	<node lat="68.35522813597832" lon="16.15413098577255" id="-12700">
		<tag k="fixme" v="consider place=hamlet" />
		<tag k="name" v="Barøya" />
		<tag k="place" v="farm" />
		<tag k="ssr:stedsnr" v="502331" />
	</node>
	<node lat="68.31097777401345" lon="16.716958338682215" id="-12705">
		<tag k="name" v="Elvenes" />
		<tag k="place" v="farm" />
		<tag k="ssr:stedsnr" v="502624" />
	</node>
	<node lat="68.31351666740977" lon="16.71276667049206" id="-12706">
		<tag k="name" v="Skogvoll" />
		<tag k="place" v="farm" />
		<tag k="ssr:stedsnr" v="502625" />
	</node>
	<node lat="68.3382249962793" lon="16.76803054588639" id="-12710">
		<tag k="name" v="Kvannmoen" />
		<tag k="place" v="farm" />
		<tag k="ssr:stedsnr" v="502684" />
	</node>
	<node lat="68.342886111754" lon="16.831433323828286" id="-12716">
		<tag k="name" v="Ballangen - Bálák" />
		<tag k="name:no" v="Ballangen" />
		<tag k="name:se" v="Bálák" />
		<tag k="place" v="village" />
		<tag k="ssr:stedsnr" v="502692" />
	</node>
	<node lat="68.20139835577558" lon="17.53686115939414" id="-12717">
		<tag k="fixme" v="consider place=hamlet" />
		<tag k="name" v="Gamnes" />
		<tag k="place" v="farm" />
		<tag k="ssr:stedsnr" v="502694" />
	</node>
	<node lat="68.36444166783072" lon="16.58187221691922" id="-12732">
		<tag k="name" v="Henrikhaugen" />
		<tag k="place" v="farm" />
		<tag k="ssr:stedsnr" v="502732" />
	</node>
	<node lat="68.30783333319489" lon="17.083108340725747" id="-12743">
		<tag k="name" v="Daleng" />
		<tag k="place" v="isolated_dwelling" />
		<tag k="ssr:stedsnr" v="503817" />
	</node>
	<node lat="68.31539166730944" lon="16.731288893387365" id="-12759">
		<tag k="name" v="Bruksåsmoen" />
		<tag k="place" v="farm" />
		<tag k="ssr:stedsnr" v="510411" />
	</node>
	<node lat="68.25096110950801" lon="17.395175003071696" id="-12773">
		<tag k="name" v="Lillejorden" />
		<tag k="place" v="farm" />
		<tag k="ssr:stedsnr" v="510601" />
	</node>
	<node lat="68.42002500357687" lon="16.727444441314212" id="-12783">
		<tag k="name" v="Lenset" />
		<tag k="place" v="farm" />
		<tag k="ssr:stedsnr" v="512326" />
	</node>
	<node lat="68.4188083336453" lon="16.743252787862534" id="-12790">
		<tag k="name" v="Aspemoen" />
		<tag k="place" v="farm" />
		<tag k="ssr:stedsnr" v="684470" />
	</node>
	<node lat="68.32450344706137" lon="16.698986943139385" id="-12799">
		<tag k="fixme" v="consider place=hamlet" />
		<tag k="name" v="Kalvåsen" />
		<tag k="place" v="farm" />
		<tag k="ssr:stedsnr" v="684628" />
	</node>
	<node lat="68.29647221978391" lon="16.697444440130305" id="-12805">
		<tag k="name" v="Brattli" />
		<tag k="place" v="farm" />
		<tag k="ssr:stedsnr" v="684586" />
	</node>
	<node lat="68.15810833770385" lon="16.737547217259216" id="-12807">
		<tag k="name" v="Tauselva" />
		<tag k="place" v="locality" />
		<tag k="ssr:stedsnr" v="684591" />
	</node>
	<node lat="68.41170000169095" lon="16.569361107931574" id="-12813">
		<tag k="name" v="Hamnes" />
		<tag k="place" v="farm" />
		<tag k="ssr:stedsnr" v="684731" />
	</node>
	<node lat="68.41121944529965" lon="16.580674995120738" id="-12814">
		<tag k="fixme" v="consider place=hamlet" />
		<tag k="name" v="Hamnesstranda" />
		<tag k="place" v="village" />
		<tag k="ssr:stedsnr" v="684733" />
	</node>
	<node lat="68.44775763052655" lon="17.718221889347742" id="-12828">
		<tag k="alt_name" v="Tyttebærvik" />
		<tag k="fixme" v="consider place=hamlet" />
		<tag k="name" v="Tyttebærvika" />
		<tag k="place" v="farm" />
		<tag k="ssr:stedsnr" v="685186" />
	</node>
	<node lat="68.31662221932628" lon="16.64838889819425" id="-12835">
		<tag k="name" v="Åsen Gård" />
		<tag k="place" v="farm" />
		<tag k="ssr:stedsnr" v="524710" />
	</node>
	<node lat="68.51710168660506" lon="17.55809218580379" id="-12845">
		<tag k="name" v="Myra" />
		<tag k="place" v="farm" />
		<tag k="ssr:stedsnr" v="685629" />
	</node>
	<node lat="68.56017457637564" lon="17.631294114703003" id="-12851">
		<tag k="alt_name" v="Gammalheimen" />
		<tag k="name" v="Gammelheimen" />
		<tag k="place" v="farm" />
		<tag k="ssr:stedsnr" v="685667" />
	</node>
	<node lat="68.55743299422143" lon="17.626197585610075" id="-12852">
		<tag k="name" v="Bergetun" />
		<tag k="place" v="farm" />
		<tag k="ssr:stedsnr" v="685668" />
	</node>
	<node lat="68.55343333287912" lon="17.714866659300775" id="-12853">
		<tag k="name" v="Bakkejorda" />
		<tag k="place" v="isolated_dwelling" />
		<tag k="ssr:stedsnr" v="685672" />
	</node>
	<node lat="68.46443055857438" lon="17.686175005913963" id="-12858">
		<tag k="name" v="Solbakken" />
		<tag k="place" v="farm" />
		<tag k="ssr:stedsnr" v="685756" />
	</node>
	<node lat="68.33607499919728" lon="17.01729166619215" id="-12865">
		<tag k="name" v="Lasseheimen" />
		<tag k="place" v="farm" />
		<tag k="ssr:stedsnr" v="685853" />
	</node>
	<node lat="68.0949907922743" lon="16.438720781835954" id="-12878">
		<tag k="name" v="Storvika" />
		<tag k="place" v="locality" />
		<tag k="ssr:stedsnr" v="528305" />
	</node>
	<node lat="68.39188611343903" lon="16.860311109314537" id="-12884">
		<tag k="alt_name" v="Aspelund" />
		<tag k="name" v="Asplund" />
		<tag k="place" v="farm" />
		<tag k="ssr:stedsnr" v="685999" />
	</node>
	<node lat="68.31504444734054" lon="16.431705549727454" id="-12888">
		<tag k="name" v="Håkonsethavn" />
		<tag k="place" v="quarter" />
		<tag k="ssr:stedsnr" v="541625" />
	</node>
	<node lat="68.37625833580769" lon="16.885691669141305" id="-12920">
		<tag k="name" v="Åsheim" />
		<tag k="place" v="farm" />
		<tag k="ssr:stedsnr" v="564955" />
	</node>
	<node lat="68.25155979425624" lon="17.399528006321002" id="-12924">
		<tag k="alt_name" v="Elvegården søndre" />
		<tag k="fixme" v="consider place=hamlet" />
		<tag k="name" v="Søndre Elvegården" />
		<tag k="place" v="farm" />
		<tag k="ssr:stedsnr" v="692547" />
	</node>
	<node lat="68.25106388601384" lon="17.399699990955135" id="-12925">
		<tag k="name" v="Øvergarden" />
		<tag k="place" v="farm" />
		<tag k="ssr:stedsnr" v="692552" />
	</node>
	<node lat="68.24580485178714" lon="16.722498011990986" id="-13005">
		<tag k="fixme" v="consider place=hamlet" />
		<tag k="name" v="Nymo" />
		<tag k="place" v="farm" />
		<tag k="ssr:stedsnr" v="585589" />
	</node>
	<node lat="68.44094166307693" lon="17.432424997466" id="-13010">
		<tag k="name" v="Bromsgård" />
		<tag k="place" v="farm" />
		<tag k="ssr:stedsnr" v="697697" />
	</node>
	<node lat="68.44420555638801" lon="17.425330546233134" id="-13011">
		<tag k="name" v="Vassvik" />
		<tag k="place" v="suburb" />
		<tag k="ssr:stedsnr" v="601121" />
	</node>
	<node lat="68.59904999852711" lon="17.83103055925973" id="-13012">
		<tag k="fixme" v="consider tourism=alpine_hut or tourism=chalet" />
		<tag k="name" v="Slottet" />
		<tag k="ssr:stedsnr" v="601150" />
		<tag k="tourism" v="wilderness_hut" />
	</node>
	<node lat="68.50190277670868" lon="18.079647229787973" id="-13013">
		<tag k="fixme" v="consider tourism=alpine_hut or tourism=chalet" />
		<tag k="name" v="Nye Holmvassbu" />
		<tag k="ssr:stedsnr" v="601151" />
		<tag k="tourism" v="wilderness_hut" />
	</node>
	<node lat="68.3672249971962" lon="16.646172215203364" id="-13014">
		<tag k="name" v="Håfjellet" />
		<tag k="place" v="neighbourhood" />
		<tag k="ssr:stedsnr" v="601556" />
	</node>
	<node lat="68.33430555678989" lon="16.94551945369982" id="-13015">
		<tag k="name" v="Arneslia-Bruavann" />
		<tag k="place" v="quarter" />
		<tag k="ssr:stedsnr" v="601560" />
	</node>
	<node lat="68.41442777915658" lon="17.433966673817295" id="-13017">
		<tag k="name" v="Orhaugen" />
		<tag k="place" v="isolated_dwelling" />
		<tag k="ssr:stedsnr" v="698892" />
	</node>
	<node lat="68.36080000265345" lon="17.61257777893234" id="-13022">
		<tag k="alt_name" v="Tømmerbakken, nedre" />
		<tag k="name" v="Nedre Tømmerbakken" />
		<tag k="place" v="farm" />
		<tag k="ssr:stedsnr" v="623168" />
	</node>
	<node lat="68.29801944291614" lon="16.629736117996305" id="-13029">
		<tag k="alt_name" v="Fagermo" />
		<tag k="name" v="Fagermoen" />
		<tag k="place" v="farm" />
		<tag k="ssr:stedsnr" v="623623" />
	</node>
	<node lat="68.3117070643446" lon="16.370927467513557" id="-13052">
		<tag k="fixme" v="consider place=hamlet" />
		<tag k="name" v="Forneset" />
		<tag k="place" v="farm" />
		<tag k="ssr:stedsnr" v="624466" />
	</node>
	<node lat="68.53040529676748" lon="17.48321694240004" id="-13054">
		<tag k="alt_name" v="Sletjorden" />
		<tag k="fixme" v="consider place=hamlet" />
		<tag k="name" v="Slettjorda" />
		<tag k="place" v="farm" />
		<tag k="ssr:stedsnr" v="624713" />
	</node>
	<node lat="68.48967778090584" lon="17.516147216153147" id="-13055">
		<tag k="alt_name" v="Litlemoen" />
		<tag k="name" v="Lillemo" />
		<tag k="place" v="farm" />
		<tag k="ssr:stedsnr" v="624763" />
	</node>
	<node lat="68.03944320238605" lon="16.366660980877363" id="-13126">
		<tag k="alt_name" v="Tørnes søndre" />
		<tag k="fixme" v="consider place=hamlet" />
		<tag k="name" v="Søndre Tørnes" />
		<tag k="place" v="farm" />
		<tag k="ssr:stedsnr" v="706193" />
	</node>
	<node lat="68.31734766966703" lon="16.73947267191456" id="-13133">
		<tag k="fixme" v="consider place=hamlet" />
		<tag k="name" v="Bruksjorda" />
		<tag k="place" v="farm" />
		<tag k="ssr:stedsnr" v="706493" />
	</node>
	<node lat="68.30223169093688" lon="16.6418598964684" id="-13147">
		<tag k="name" v="Djupvatn" />
		<tag k="place" v="farm" />
		<tag k="ssr:stedsnr" v="645700" />
	</node>
	<node lat="68.31410555804405" lon="17.06512223150829" id="-13161">
		<tag k="name" v="Eiterdalmo" />
		<tag k="place" v="farm" />
		<tag k="ssr:stedsnr" v="645927" />
	</node>
	<node lat="68.05930833119412" lon="17.592855547600468" id="-13175">
		<tag k="fixme" v="consider tourism=alpine_hut or tourism=chalet" />
		<tag k="name" v="Skoaddejávre" />
		<tag k="old_name" v="Skoaddejávrihytta" />
		<tag k="ssr:stedsnr" v="662603" />
		<tag k="tourism" v="wilderness_hut" />
	</node>
	<node lat="68.34850277741215" lon="16.894033326066253" id="-13176">
		<tag k="name" v="Fornes" />
		<tag k="place" v="quarter" />
		<tag k="ssr:stedsnr" v="662608" />
	</node>
	<node lat="68.3365833302892" lon="16.83233611103699" id="-13177">
		<tag k="name" v="Ballangsleira" />
		<tag k="place" v="quarter" />
		<tag k="ssr:stedsnr" v="662609" />
	</node>
	<node lat="68.30759166566139" lon="17.063561112698977" id="-13178">
		<tag k="name" v="Elveseter Råndalen" />
		<tag k="place" v="neighbourhood" />
		<tag k="ssr:stedsnr" v="662613" />
	</node>
	<node lat="68.4474000007731" lon="17.44083055544667" id="-13180">
		<tag k="name" v="Groms plass" />
		<tag k="place" v="square" />
		<tag k="ssr:stedsnr" v="665702" />
	</node>
	<node lat="68.24292499770239" lon="16.35566943080539" id="-13182">
		<tag k="name" v="Bukta" />
		<tag k="place" v="farm" />
		<tag k="ssr:stedsnr" v="710449" />
	</node>
	<node lat="68.17388889002807" lon="17.545816666705324" id="-13194">
		<tag k="alt_name" v="Tangen, øvre;Tangen øvre" />
		<tag k="name" v="Øvre Tangen" />
		<tag k="place" v="farm" />
		<tag k="ssr:stedsnr" v="684616" />
	</node>
	<node lat="68.18227777810036" lon="17.55360000020297" id="-13196">
		<tag k="name" v="Rosenvoll" />
		<tag k="place" v="farm" />
		<tag k="ssr:stedsnr" v="684651" />
	</node>
	<node lat="68.17761110796162" lon="17.781324998426253" id="-13197">
		<tag k="name" v="Stasjonsholmen" />
		<tag k="place" v="locality" />
		<tag k="ssr:stedsnr" v="684654" />
	</node>
	<node lat="68.46764166631901" lon="17.689483340720933" id="-13214">
		<tag k="name" v="Lian" />
		<tag k="place" v="farm" />
		<tag k="ssr:stedsnr" v="685755" />
	</node>
	<node lat="68.16421110937745" lon="16.47384444757152" id="-13217">
		<tag k="name" v="Nygård" />
		<tag k="place" v="farm" />
		<tag k="ssr:stedsnr" v="893255" />
	</node>
	<node lat="68.32329999806767" lon="17.269041657652892" id="-13230">
		<tag k="name" v="Solhaug" />
		<tag k="place" v="farm" />
		<tag k="ssr:stedsnr" v="689633" />
	</node>
	<node lat="68.34722778271575" lon="16.786513878678466" id="-13244">
		<tag k="name" v="Kråfjellet" />
		<tag k="place" v="farm" />
		<tag k="ssr:stedsnr" v="692419" />
	</node>
	<node lat="68.41141944607621" lon="17.311747224926318" id="-13246">
		<tag k="name" v="Løvoll" />
		<tag k="place" v="farm" />
		<tag k="ssr:stedsnr" v="692488" />
	</node>
	<node lat="68.32123333726254" lon="17.28315832682887" id="-13248">
		<tag k="alt_name" v="Lengnes nordre ytre" />
		<tag k="name" v="Lengenes ytre" />
		<tag k="place" v="farm" />
		<tag k="ssr:stedsnr" v="692977" />
	</node>
	<node lat="68.38016110849082" lon="16.341424989897355" id="-13267">
		<tag k="name" v="Lyngvika" />
		<tag k="place" v="neighbourhood" />
		<tag k="ssr:stedsnr" v="723595" />
	</node>
	<node lat="68.43058888842162" lon="17.448897210166134" id="-13269">
		<tag k="name" v="Skistua" />
		<tag k="place" v="isolated_dwelling" />
		<tag k="ssr:stedsnr" v="726532" />
	</node>
	<node lat="68.36337777565079" lon="17.597227771423146" id="-13275">
		<tag k="name" v="Gamman" />
		<tag k="place" v="farm" />
		<tag k="ssr:stedsnr" v="745185" />
	</node>
	<node lat="68.3162956545741" lon="16.633440292083375" id="-13285">
		<tag k="alt_name" v="Djupdalåsen" />
		<tag k="name" v="Djupdalsåsen" />
		<tag k="place" v="hamlet" />
		<tag k="ssr:stedsnr" v="745626" />
	</node>
	<node lat="68.10404048622514" lon="16.447289083083156" id="-13291">
		<tag k="fixme" v="consider place=hamlet" />
		<tag k="name" v="Råssegiedde - Hestvika" />
		<tag k="name:no" v="Hestvika" />
		<tag k="name:smj" v="Råssegiedde" />
		<tag k="old_name:smj" v="Rossegiedde" />
		<tag k="place" v="farm" />
		<tag k="ssr:stedsnr" v="745582" />
	</node>
	<node lat="68.2958208220336" lon="16.807114315389157" id="-13293">
		<tag k="alt_name" v="Hestnesvik" />
		<tag k="fixme" v="consider place=hamlet" />
		<tag k="name" v="Vika" />
		<tag k="place" v="farm" />
		<tag k="ssr:stedsnr" v="745590" />
	</node>
	<node lat="68.18281666399737" lon="16.681413896267717" id="-13294">
		<tag k="name" v="Råna - Rávnno" />
		<tag k="name:no" v="Råna" />
		<tag k="name:smj" v="Rávnno" />
		<tag k="old_name:smj" v="Rátnu" />
		<tag k="place" v="isolated_dwelling" />
		<tag k="ssr:stedsnr" v="745591" />
	</node>
	<node lat="68.3445944462876" lon="16.77203332799486" id="-13297">
		<tag k="name" v="Brattland" />
		<tag k="place" v="farm" />
		<tag k="ssr:stedsnr" v="745703" />
	</node>
	<node lat="68.55390665579178" lon="17.60710280803431" id="-13298">
		<tag k="name" v="Myrvang" />
		<tag k="place" v="farm" />
		<tag k="ssr:stedsnr" v="745708" />
	</node>
	<node lat="68.55663969296855" lon="17.608389843082495" id="-13305">
		<tag k="name" v="Dalberget" />
		<tag k="place" v="farm" />
		<tag k="ssr:stedsnr" v="745724" />
	</node>
	<node lat="68.5560751781624" lon="17.562635235646464" id="-13306">
		<tag k="name" v="Bjørkvang" />
		<tag k="place" v="farm" />
		<tag k="ssr:stedsnr" v="745727" />
	</node>
	<node lat="68.3321527778599" lon="16.782719454692366" id="-13308">
		<tag k="name" v="Storkroken" />
		<tag k="place" v="farm" />
		<tag k="ssr:stedsnr" v="745679" />
	</node>
	<node lat="68.54510833602141" lon="17.566049996355314" id="-13316">
		<tag k="name" v="Elvegården" />
		<tag k="ssr:stedsnr" v="745780" />
		<tag k="tourism" v="camp_site" />
	</node>
	<node lat="68.33443055166222" lon="16.83659722306332" id="-13323">
		<tag k="alt_name" v="Ballangen, store" />
		<tag k="name" v="Storballangen" />
		<tag k="place" v="farm" />
		<tag k="ssr:stedsnr" v="746817" />
	</node>
	<node lat="68.40053333242562" lon="16.79909722697331" id="-13361">
		<tag k="name" v="Silsandmoen" />
		<tag k="place" v="farm" />
		<tag k="ssr:stedsnr" v="755318" />
	</node>
	<node lat="68.4158305377437" lon="16.703970657106307" id="-13373">
		<tag k="fixme" v="consider place=hamlet" />
		<tag k="name" v="Skårnes" />
		<tag k="place" v="farm" />
		<tag k="ssr:stedsnr" v="767512" />
	</node>
	<node lat="68.41188333376208" lon="17.439105558801653" id="-13380">
		<tag k="leisure" v="pitch" />
		<tag k="name" v="Fagernes idrettsbane" />
		<tag k="ssr:stedsnr" v="908716" />
	</node>
	<node lat="68.19810833562501" lon="17.9634555475796" id="-13383">
		<tag k="fixme" v="consider tourism=alpine_hut or tourism=chalet" />
		<tag k="name" v="Storsteinshytta" />
		<tag k="ssr:stedsnr" v="781422" />
		<tag k="tourism" v="wilderness_hut" />
	</node>
	<node lat="68.41893610778541" lon="16.60942222844669" id="-13386">
		<tag k="name" v="Storskarhaugen" />
		<tag k="place" v="neighbourhood" />
		<tag k="ssr:stedsnr" v="784627" />
	</node>
	<node lat="68.33733889227942" lon="16.344194438392353" id="-13387">
		<tag k="name" v="Kobbvik" />
		<tag k="place" v="neighbourhood" />
		<tag k="ssr:stedsnr" v="784631" />
	</node>
	<node lat="68.42194167132381" lon="17.366313878318696" id="-13389">
		<tag k="name" v="Stranda" />
		<tag k="place" v="quarter" />
		<tag k="ssr:stedsnr" v="787220" />
	</node>
	<node lat="68.38694783236254" lon="16.626249997759317" id="-13406">
		<tag k="fixme" v="consider place=hamlet" />
		<tag k="name" v="Jakobheimen" />
		<tag k="place" v="farm" />
		<tag k="ssr:stedsnr" v="813181" />
	</node>
	<node lat="68.40798055582859" lon="16.60899167423191" id="-13408">
		<tag k="name" v="Bjørnkammeret" />
		<tag k="place" v="isolated_dwelling" />
		<tag k="ssr:stedsnr" v="813404" />
	</node>
	<node lat="68.32865555197836" lon="17.285622219263292" id="-13425">
		<tag k="alt_name" v="Hallervik" />
		<tag k="name" v="Hallaarvik" />
		<tag k="place" v="farm" />
		<tag k="ssr:stedsnr" v="814987" />
	</node>
	<node lat="68.31142222460234" lon="17.065244433269978" id="-13447">
		<tag k="name" v="Elvestad" />
		<tag k="place" v="farm" />
		<tag k="ssr:stedsnr" v="828914" />
	</node>
	<node lat="68.40423333534076" lon="17.98563889289706" id="-13452">
		<tag k="fixme" v="consider tourism=alpine_hut or tourism=chalet" />
		<tag k="name" v="Vokterboligen" />
		<tag k="ssr:stedsnr" v="842426" />
		<tag k="tourism" v="wilderness_hut" />
	</node>
	<node lat="68.19330000009275" lon="16.70322776707428" id="-13463">
		<tag k="name" v="Allmenningen" />
		<tag k="place" v="isolated_dwelling" />
		<tag k="ssr:stedsnr" v="927530" />
	</node>
	<node lat="68.406101950643" lon="16.52183422721364" id="-13465">
		<tag k="fixme" v="consider place=hamlet" />
		<tag k="name" v="Jevika" />
		<tag k="place" v="farm" />
		<tag k="ssr:stedsnr" v="927494" />
	</node>
	<node lat="68.21061662711524" lon="17.50421353155534" id="-13477">
		<tag k="fixme" v="consider place=hamlet" />
		<tag k="name" v="Haugbakken" />
		<tag k="place" v="farm" />
		<tag k="ssr:stedsnr" v="927678" />
	</node>
	<node lat="68.20787500149396" lon="17.514302765480778" id="-13478">
		<tag k="name" v="Nymoen" />
		<tag k="place" v="farm" />
		<tag k="ssr:stedsnr" v="927680" />
	</node>
	<node lat="68.35230000097789" lon="16.81049166674435" id="-13487">
		<tag k="name" v="Fjellheim" />
		<tag k="place" v="farm" />
		<tag k="ssr:stedsnr" v="927699" />
	</node>
	<node lat="68.55828513979942" lon="17.645944254898552" id="-13511">
		<tag k="name" v="Vassbakken" />
		<tag k="place" v="farm" />
		<tag k="ssr:stedsnr" v="928646" />
	</node>
	<node lat="68.47311666524992" lon="17.508605550126095" id="-13512">
		<tag k="name" v="Øyjorda" />
		<tag k="place" v="hamlet" />
		<tag k="ssr:stedsnr" v="928763" />
	</node>
	<node lat="68.55564653572054" lon="17.526150877107035" id="-13513">
		<tag k="name" v="Vollan" />
		<tag k="place" v="farm" />
		<tag k="ssr:stedsnr" v="928658" />
	</node>
	<node lat="68.47682865368131" lon="17.56677749360258" id="-13520">
		<tag k="alt_name" v="Leirvik" />
		<tag k="fixme" v="consider place=hamlet" />
		<tag k="name" v="Leirvika" />
		<tag k="place" v="farm" />
		<tag k="ssr:stedsnr" v="928726" />
	</node>
	<node lat="68.34646111252877" lon="16.889661117735915" id="-13535">
		<tag k="alt_name" v="Fornes" />
		<tag k="name" v="Forrnes" />
		<tag k="place" v="farm" />
		<tag k="ssr:stedsnr" v="928889" />
	</node>
	<node lat="68.35690555666912" lon="17.009358323902628" id="-13541">
		<tag k="name" v="Råna" />
		<tag k="place" v="farm" />
		<tag k="ssr:stedsnr" v="928930" />
	</node>
	<node lat="68.36254999858166" lon="16.874383339396044" id="-13542">
		<tag k="name" v="Brenna" />
		<tag k="place" v="farm" />
		<tag k="ssr:stedsnr" v="928940" />
	</node>
	<node lat="68.39188611343903" lon="16.860311109314537" id="-13543">
		<tag k="alt_name" v="Norheim" />
		<tag k="name" v="Nordheim" />
		<tag k="place" v="farm" />
		<tag k="ssr:stedsnr" v="928943" />
	</node>
	<node lat="68.38999166247874" lon="16.873149998868854" id="-13551">
		<tag k="name" v="Hestvika" />
		<tag k="place" v="farm" />
		<tag k="ssr:stedsnr" v="867946" />
	</node>
	<node lat="68.29763333741818" lon="16.635163886654816" id="-13620">
		<tag k="name" v="Ivarjord nedre" />
		<tag k="place" v="farm" />
		<tag k="ssr:stedsnr" v="888703" />
	</node>
	<node lat="68.36179166362332" lon="17.472927786011965" id="-13634">
		<tag k="name" v="Holmesletten" />
		<tag k="place" v="farm" />
		<tag k="ssr:stedsnr" v="889639" />
	</node>
	<node lat="68.20147778063887" lon="16.373419435282294" id="-13638">
		<tag k="name" v="Lyngmo" />
		<tag k="place" v="farm" />
		<tag k="ssr:stedsnr" v="892470" />
	</node>
	<node lat="68.44153888951783" lon="17.400424995684123" id="-13643">
		<tag k="leisure" v="pitch" />
		<tag k="name" v="Jaklamyra idrettsbaner" />
		<tag k="ssr:stedsnr" v="908654" />
	</node>
	<node lat="68.25665833758762" lon="17.406291667244847" id="-13644">
		<tag k="alt_name" v="Nordre Elvegård;Elvegård" />
		<tag k="fixme" v="consider place=hamlet" />
		<tag k="name" v="Nordre Elvegården" />
		<tag k="place" v="farm" />
		<tag k="ssr:stedsnr" v="909255" />
	</node>
	<node lat="68.19327134419156" lon="16.703168214625602" id="-13652">
		<tag k="name" v="Strand" />
		<tag k="place" v="farm" />
		<tag k="ssr:stedsnr" v="927528" />
	</node>
	<node lat="68.31024722468266" lon="16.78809999417114" id="-13662">
		<tag k="name" v="Storvika" />
		<tag k="place" v="farm" />
		<tag k="ssr:stedsnr" v="927621" />
	</node>
	<node lat="68.18901944414272" lon="16.715305544967066" id="-13669">
		<tag k="name" v="Sommarbakk" />
		<tag k="place" v="locality" />
		<tag k="ssr:stedsnr" v="927602" />
	</node>
	<node lat="68.56151700120117" lon="17.689667464832137" id="-13678">
		<tag k="name" v="Vestgård" />
		<tag k="place" v="farm" />
		<tag k="ssr:stedsnr" v="928653" />
	</node>
	<node lat="68.38277600794954" lon="16.88846366255481" id="-13683">
		<tag k="fixme" v="consider place=hamlet" />
		<tag k="name" v="Bø" />
		<tag k="place" v="farm" />
		<tag k="ssr:stedsnr" v="928959" />
	</node>
	<node lat="68.37470833394059" lon="16.88556388523949" id="-13684">
		<tag k="name" v="Øversletta" />
		<tag k="place" v="farm" />
		<tag k="ssr:stedsnr" v="928963" />
	</node>
	<node lat="68.55767777594134" lon="17.72475000302773" id="-13693">
		<tag k="name" v="Solbakk" />
		<tag k="place" v="farm" />
		<tag k="ssr:stedsnr" v="935046" />
	</node>
	<node lat="68.32748889269938" lon="16.798277771091097" id="-13730">
		<tag k="name" v="Sjåhaugen" />
		<tag k="place" v="quarter" />
		<tag k="ssr:stedsnr" v="965606" />
	</node>
	<node lat="68.37121592064594" lon="16.895568668259752" id="-13732">
		<tag k="name" v="Balsnes" />
		<tag k="place" v="farm" />
		<tag k="ssr:stedsnr" v="972868" />
	</node>
	<node lat="68.37064150521842" lon="16.889555158342855" id="-13733">
		<tag k="fixme" v="consider place=hamlet" />
		<tag k="name" v="Balsnes" />
		<tag k="place" v="farm" />
		<tag k="ssr:stedsnr" v="972869" />
	</node>
	<node lat="68.35376339609819" lon="16.819722473055965" id="-13774">
		<tag k="name" v="Langsett" />
		<tag k="place" v="farm" />
		<tag k="ssr:stedsnr" v="989483" />
	</node>
	<node lat="68.22401834447219" lon="16.321746954790807" id="-13855">
		<tag k="fixme" v="consider place=hamlet" />
		<tag k="name" v="Lattásj" />
		<tag k="name:no" v="Lysvoll" />
		<tag k="name:smj" v="Lattásj" />
		<tag k="old_name:smj" v="Láttaš" />
		<tag k="place" v="farm" />
		<tag k="ssr:stedsnr" v="16480" />
	</node>
	<node lat="68.29274329180028" lon="17.36456033843134" id="-13867">
		<tag k="alt_name" v="Sandvik søndre;Sandvika" />
		<tag k="fixme" v="consider place=hamlet" />
		<tag k="name" v="Søndre Sandvika" />
		<tag k="place" v="farm" />
		<tag k="ssr:stedsnr" v="17838" />
	</node>
	<node lat="68.2730115960043" lon="17.39919597900159" id="-13871">
		<tag k="name" v="Aspevik" />
		<tag k="place" v="farm" />
		<tag k="ssr:stedsnr" v="17846" />
	</node>
	<node lat="68.37683051960116" lon="17.413620783039" id="-13922">
		<tag k="name" v="Mattisjorda" />
		<tag k="place" v="hamlet" />
		<tag k="ssr:stedsnr" v="18952" />
	</node>
	<node lat="68.39049999662289" lon="17.141616656375028" id="-13925">
		<tag k="fixme" v="consider place=hamlet" />
		<tag k="name" v="Vidrek" />
		<tag k="name:no" v="Vidrek" />
		<tag k="name:se" v="Vierák" />
		<tag k="place" v="village" />
		<tag k="ssr:stedsnr" v="18939" />
	</node>
	<node lat="68.09433055933297" lon="16.355280566231027" id="-13931">
		<tag k="name" v="Smines" />
		<tag k="place" v="quarter" />
		<tag k="ssr:stedsnr" v="21760" />
	</node>
	<node lat="68.30317777396185" lon="17.36710554409439" id="-13989">
		<tag k="name" v="Øvergammen" />
		<tag k="place" v="locality" />
		<tag k="ssr:stedsnr" v="39640" />
	</node>
	<node lat="68.30898888681791" lon="16.639977767744643" id="-13994">
		<tag k="leisure" v="pitch" />
		<tag k="name" v="Sportsplassen" />
		<tag k="ssr:stedsnr" v="39654" />
	</node>
	<node lat="68.2317777753417" lon="16.738111118090785" id="-14027">
		<tag k="name" v="Rognstad" />
		<tag k="place" v="farm" />
		<tag k="ssr:stedsnr" v="77519" />
	</node>
	<node lat="68.33670833486235" lon="16.75927499126795" id="-14049">
		<tag k="name" v="Solheim" />
		<tag k="place" v="farm" />
		<tag k="ssr:stedsnr" v="78671" />
	</node>
	<node lat="68.56708564476878" lon="17.57211077532995" id="-14058">
		<tag k="name" v="Nordmo" />
		<tag k="place" v="farm" />
		<tag k="ssr:stedsnr" v="78717" />
	</node>
	<node lat="68.25646944425944" lon="17.40254445208492" id="-14062">
		<tag k="fixme" v="consider place=suburb, village or hamlet" />
		<tag k="name" v="Elvegård" />
		<tag k="place" v="quarter" />
		<tag k="ssr:stedsnr" v="78820" />
	</node>
	<node lat="68.29986247121734" lon="17.347647228885062" id="-14065">
		<tag k="fixme" v="consider place=hamlet" />
		<tag k="name" v="Forså" />
		<tag k="place" v="farm" />
		<tag k="ssr:stedsnr" v="78831" />
	</node>
	<node lat="68.36998055973554" lon="16.81859999869065" id="-14067">
		<tag k="name" v="Forsheim" />
		<tag k="place" v="farm" />
		<tag k="ssr:stedsnr" v="78923" />
	</node>
	<node lat="68.36047499901379" lon="16.846461097787426" id="-14073">
		<tag k="name" v="Molund" />
		<tag k="place" v="farm" />
		<tag k="ssr:stedsnr" v="78937" />
	</node>
	<node lat="68.39062222358517" lon="17.175175009367287" id="-14079">
		<tag k="name" v="Bjerkelund" />
		<tag k="place" v="farm" />
		<tag k="ssr:stedsnr" v="78986" />
	</node>
	<node lat="68.3099305554956" lon="17.064647213220045" id="-14082">
		<tag k="name" v="Elvesæter" />
		<tag k="place" v="farm" />
		<tag k="ssr:stedsnr" v="79856" />
	</node>
	<node lat="68.3887277787213" lon="16.856913888892112" id="-14089">
		<tag k="name" v="Nordgård" />
		<tag k="place" v="farm" />
		<tag k="ssr:stedsnr" v="79929" />
	</node>
	<node lat="68.4141222241842" lon="16.692402779438655" id="-14119">
		<tag k="name" v="Busthaugen" />
		<tag k="place" v="farm" />
		<tag k="ssr:stedsnr" v="85165" />
	</node>
	<node lat="68.55739444498256" lon="17.6540222227425" id="-14140">
		<tag k="name" v="Gammelgården" />
		<tag k="place" v="farm" />
		<tag k="ssr:stedsnr" v="86468" />
	</node>
	<node lat="68.30890833021039" lon="17.06370554929457" id="-14153">
		<tag k="name" v="Gammelgården" />
		<tag k="place" v="farm" />
		<tag k="ssr:stedsnr" v="99945" />
	</node>
	<node lat="68.35421111497382" lon="16.15387778029134" id="-14157">
		<tag k="name" v="Barøygården" />
		<tag k="place" v="farm" />
		<tag k="ssr:stedsnr" v="100252" />
	</node>
	<node lat="68.23074722088258" lon="16.64809998833584" id="-14163">
		<tag k="name" v="Sommarset" />
		<tag k="place" v="locality" />
		<tag k="ssr:stedsnr" v="100597" />
	</node>
	<node lat="68.2852499965013" lon="16.715677778159833" id="-14165">
		<tag k="name" v="Sjåfjell" />
		<tag k="place" v="farm" />
		<tag k="ssr:stedsnr" v="100628" />
	</node>
	<node lat="68.36907222553391" lon="17.432441661716187" id="-14167">
		<tag k="name" v="Fagerli" />
		<tag k="place" v="farm" />
		<tag k="ssr:stedsnr" v="100634" />
	</node>
	<node lat="68.23148333344629" lon="16.46406111539713" id="-14171">
		<tag k="name" v="Vik" />
		<tag k="place" v="isolated_dwelling" />
		<tag k="ssr:stedsnr" v="104252" />
	</node>
	<node lat="68.35451666720107" lon="17.01177223132328" id="-14172">
		<tag k="name" v="Råna" />
		<tag k="place" v="neighbourhood" />
		<tag k="ssr:stedsnr" v="116546" />
	</node>
	<node lat="68.23163889099821" lon="16.261636119446568" id="-14180">
		<tag k="name" v="Lappvika" />
		<tag k="place" v="isolated_dwelling" />
		<tag k="ssr:stedsnr" v="137488" />
	</node>
	<node lat="68.28653333080022" lon="16.621527768608363" id="-14187">
		<tag k="name" v="Skogvoll" />
		<tag k="place" v="farm" />
		<tag k="ssr:stedsnr" v="137551" />
	</node>
	<node lat="68.35375999809413" lon="16.587519759867984" id="-14227">
		<tag k="fixme" v="consider place=hamlet" />
		<tag k="name" v="Bakken" />
		<tag k="place" v="farm" />
		<tag k="ssr:stedsnr" v="138714" />
	</node>
	<node lat="68.46526667031081" lon="17.69774721991768" id="-14234">
		<tag k="name" v="Nymoen" />
		<tag k="place" v="farm" />
		<tag k="ssr:stedsnr" v="138774" />
	</node>
	<node lat="68.25228055591911" lon="17.40640000400798" id="-14317">
		<tag k="name" v="Lundemo" />
		<tag k="place" v="farm" />
		<tag k="ssr:stedsnr" v="146548" />
	</node>
	<node lat="68.37243190112062" lon="17.599004889196298" id="-14327">
		<tag k="name" v="Brenna" />
		<tag k="place" v="farm" />
		<tag k="ssr:stedsnr" v="147339" />
	</node>
	<node lat="68.38340555187013" lon="16.896544450300322" id="-14329">
		<tag k="name" v="Ytterbø" />
		<tag k="place" v="farm" />
		<tag k="ssr:stedsnr" v="148073" />
	</node>
	<node lat="68.42875277716244" lon="17.427780548263627" id="-14330">
		<tag k="name" v="Kleiva" />
		<tag k="place" v="isolated_dwelling" />
		<tag k="ssr:stedsnr" v="151736" />
	</node>
	<node lat="68.25871110871532" lon="16.624636109770414" id="-14335">
		<tag k="name" v="Lappnes" />
		<tag k="place" v="isolated_dwelling" />
		<tag k="ssr:stedsnr" v="158536" />
	</node>
	<node lat="68.53708888941789" lon="17.575208323630594" id="-14345">
		<tag k="name" v="Medby søndre" />
		<tag k="place" v="farm" />
		<tag k="ssr:stedsnr" v="160129" />
	</node>
	<node lat="68.34435833049228" lon="16.19136111277946" id="-14349">
		<tag k="name" v="Olaheimen" />
		<tag k="place" v="locality" />
		<tag k="ssr:stedsnr" v="160237" />
	</node>
	<node lat="68.37338055292368" lon="17.415774991015052" id="-14363">
		<tag k="name" v="Bakkehaug" />
		<tag k="place" v="farm" />
		<tag k="ssr:stedsnr" v="160665" />
	</node>
	<node lat="68.30316110922173" lon="17.358155543120404" id="-14364">
		<tag k="name" v="Nergammen" />
		<tag k="place" v="locality" />
		<tag k="ssr:stedsnr" v="160670" />
	</node>
	<node lat="68.20101110925563" lon="16.676136110144512" id="-14371">
		<tag k="name" v="Aspvik" />
		<tag k="place" v="isolated_dwelling" />
		<tag k="ssr:stedsnr" v="164552" />
	</node>
	<node lat="68.5540888860521" lon="17.540216651099822" id="-14374">
		<tag k="name" v="Elvelund" />
		<tag k="place" v="farm" />
		<tag k="ssr:stedsnr" v="179201" />
	</node>
	<node lat="68.28341667049297" lon="17.37646944445138" id="-14375">
		<tag k="name" v="Aspelund" />
		<tag k="place" v="farm" />
		<tag k="ssr:stedsnr" v="180757" />
	</node>
	<node lat="68.35355555956224" lon="17.981427769201385" id="-14383">
		<tag k="name" v="Smimuren" />
		<tag k="place" v="isolated_dwelling" />
		<tag k="ssr:stedsnr" v="199148" />
	</node>
	<node lat="68.54973953361907" lon="17.533126179461267" id="-14421">
		<tag k="alt_name" v="Prestjord" />
		<tag k="name" v="Prestjorda" />
		<tag k="place" v="farm" />
		<tag k="ssr:stedsnr" v="199770" />
	</node>
	<node lat="68.48141110833056" lon="17.55533889636772" id="-14428">
		<tag k="name" v="Holtan" />
		<tag k="place" v="farm" />
		<tag k="ssr:stedsnr" v="200726" />
	</node>
	<node lat="68.31087777758968" lon="17.075558337643336" id="-14436">
		<tag k="name" v="Elverum" />
		<tag k="place" v="farm" />
		<tag k="ssr:stedsnr" v="200831" />
	</node>
	<node lat="68.34332221922391" lon="16.885636101392997" id="-14439">
		<tag k="name" v="Nybø" />
		<tag k="place" v="farm" />
		<tag k="ssr:stedsnr" v="200881" />
	</node>
	<node lat="68.38464999918914" lon="16.88697221163136" id="-14441">
		<tag k="name" v="Bømoen" />
		<tag k="place" v="farm" />
		<tag k="ssr:stedsnr" v="200936" />
	</node>
	<node lat="68.09439999698073" lon="16.350638893153537" id="-14455">
		<tag k="name" v="Sommarset" />
		<tag k="place" v="quarter" />
		<tag k="ssr:stedsnr" v="204719" />
	</node>
	<node lat="68.25308611301149" lon="17.40399999174979" id="-14479">
		<tag k="name" v="Tangen" />
		<tag k="place" v="farm" />
		<tag k="ssr:stedsnr" v="207562" />
	</node>
	<node lat="68.38948333736943" lon="17.140872216020203" id="-14493">
		<tag k="name" v="Vollen" />
		<tag k="place" v="farm" />
		<tag k="ssr:stedsnr" v="207852" />
	</node>
	<node lat="68.31625555450096" lon="17.290827772112618" id="-14494">
		<tag k="name" v="Øvergård" />
		<tag k="place" v="farm" />
		<tag k="ssr:stedsnr" v="207960" />
	</node>
	<node lat="68.47129721853457" lon="17.474686095200262" id="-14496">
		<tag k="name" v="Laukvik" />
		<tag k="place" v="isolated_dwelling" />
		<tag k="ssr:stedsnr" v="212314" />
	</node>
	<node lat="68.06570555435755" lon="16.369827777431297" id="-14498">
		<tag k="name" v="Måhkke" />
		<tag k="name:smj" v="Måhkke" />
		<tag k="old_name:smj" v="Mohkki" />
		<tag k="place" v="isolated_dwelling" />
		<tag k="ssr:stedsnr" v="219859" />
	</node>
	<node lat="68.31692778169797" lon="17.062661103551868" id="-14509">
		<tag k="name" v="Øvre Stemnes" />
		<tag k="place" v="farm" />
		<tag k="ssr:stedsnr" v="221895" />
	</node>
	<node lat="68.44389444544925" lon="17.530391657110776" id="-14512">
		<tag k="fixme" v="consider tourism=alpine_hut or tourism=chalet" />
		<tag k="name" v="Funnhytta" />
		<tag k="ssr:stedsnr" v="223143" />
		<tag k="tourism" v="wilderness_hut" />
	</node>
	<node lat="68.44524166434995" lon="17.44327776970134" id="-14516">
		<tag k="name" v="Taraldsvik" />
		<tag k="place" v="suburb" />
		<tag k="ssr:stedsnr" v="273745" />
	</node>
	<node lat="68.44103889148879" lon="17.409894443241967" id="-14517">
		<tag k="name" v="Frydenlund" />
		<tag k="place" v="suburb" />
		<tag k="ssr:stedsnr" v="273755" />
	</node>
	<node lat="68.35198333797936" lon="16.868541659744462" id="-14518">
		<tag k="name" v="Ytre Ballangen" />
		<tag k="place" v="farm" />
		<tag k="ssr:stedsnr" v="279667" />
	</node>
	<node lat="68.3602777804215" lon="16.88884165834487" id="-14519">
		<tag k="name" v="Murstrand" />
		<tag k="place" v="isolated_dwelling" />
		<tag k="ssr:stedsnr" v="279750" />
	</node>
	<node lat="68.54889444908811" lon="17.537841654936134" id="-14520">
		<tag k="name" v="Nergård" />
		<tag k="place" v="farm" />
		<tag k="ssr:stedsnr" v="282096" />
	</node>
	<node lat="68.54813055631591" lon="17.571591656754276" id="-14523">
		<tag k="name" v="Øverland" />
		<tag k="place" v="farm" />
		<tag k="ssr:stedsnr" v="282156" />
	</node>
	<node lat="68.30867777755338" lon="17.071494439932973" id="-14541">
		<tag k="name" v="Haugen" />
		<tag k="place" v="farm" />
		<tag k="ssr:stedsnr" v="282936" />
	</node>
	<node lat="68.0408472265381" lon="16.368594438896857" id="-14543">
		<tag k="name" v="Lia" />
		<tag k="place" v="farm" />
		<tag k="ssr:stedsnr" v="285141" />
	</node>
	<node lat="68.56710000161718" lon="17.574644448131775" id="-14548">
		<tag k="name" v="Nordmo" />
		<tag k="place" v="farm" />
		<tag k="ssr:stedsnr" v="300196" />
	</node>
	<node lat="68.44150277438679" lon="17.40613054845785" id="-14551">
		<tag k="leisure" v="pitch" />
		<tag k="name" v="Narvik Stadion" />
		<tag k="ssr:stedsnr" v="301614" />
	</node>
	<node lat="68.31930555899534" lon="16.73847222259865" id="-14569">
		<tag k="name" v="Bakkan" />
		<tag k="place" v="farm" />
		<tag k="ssr:stedsnr" v="320620" />
	</node>
	<node lat="68.55231389225074" lon="17.73020832901961" id="-14573">
		<tag k="name" v="Elvebakk" />
		<tag k="place" v="farm" />
		<tag k="ssr:stedsnr" v="321711" />
	</node>
	<node lat="68.19000555258675" lon="17.783941652618765" id="-14581">
		<tag k="fixme" v="consider tourism=alpine_hut or tourism=chalet" />
		<tag k="name" v="Losistua" />
		<tag k="old_name" v="Lossihytta" />
		<tag k="ssr:stedsnr" v="320656" />
		<tag k="tourism" v="wilderness_hut" />
	</node>
	<node lat="68.20149721925003" lon="17.501894452396424" id="-14582">
		<tag k="name" v="Råvi" />
		<tag k="place" v="locality" />
		<tag k="ssr:stedsnr" v="320658" />
	</node>
	<node lat="68.20112777671737" lon="17.540752782270385" id="-14583">
		<tag k="name" v="Elvebakken" />
		<tag k="place" v="farm" />
		<tag k="ssr:stedsnr" v="320665" />
	</node>
	<node lat="68.21008610906684" lon="17.50761110863029" id="-14584">
		<tag k="name" v="Nygård" />
		<tag k="place" v="farm" />
		<tag k="ssr:stedsnr" v="320668" />
	</node>
	<node lat="68.20769999828566" lon="17.515755546909684" id="-14585">
		<tag k="name" v="Stibergmoen" />
		<tag k="place" v="farm" />
		<tag k="ssr:stedsnr" v="320670" />
	</node>
	<node lat="68.55297067124391" lon="17.602856516265465" id="-14603">
		<tag k="name" v="Elverum" />
		<tag k="place" v="farm" />
		<tag k="ssr:stedsnr" v="321660" />
	</node>
	<node lat="68.55741666265115" lon="17.55844721238047" id="-14604">
		<tag k="name" v="Enrum" />
		<tag k="place" v="farm" />
		<tag k="ssr:stedsnr" v="321662" />
	</node>
	<node lat="68.28071599480772" lon="17.382338214606442" id="-14610">
		<tag k="name" v="Berglund" />
		<tag k="place" v="farm" />
		<tag k="ssr:stedsnr" v="321819" />
	</node>
	<node lat="68.35824722477764" lon="16.867550009039316" id="-14614">
		<tag k="name" v="Fagerli" />
		<tag k="place" v="farm" />
		<tag k="ssr:stedsnr" v="321919" />
	</node>
	<node lat="68.35093055337094" lon="16.944147223777794" id="-14615">
		<tag k="fixme" v="consider place=hamlet" />
		<tag k="name" v="Arnes" />
		<tag k="place" v="village" />
		<tag k="ssr:stedsnr" v="321868" />
	</node>
	<node lat="68.35483611027641" lon="16.865730549320624" id="-14617">
		<tag k="alt_name" v="Slåttstranda" />
		<tag k="name" v="Slåttstrand" />
		<tag k="place" v="hamlet" />
		<tag k="ssr:stedsnr" v="321872" />
	</node>
	<node lat="68.32007221969232" lon="16.782041668446233" id="-14670">
		<tag k="name" v="Midtsynken" />
		<tag k="place" v="farm" />
		<tag k="ssr:stedsnr" v="328397" />
	</node>
	<node lat="68.39819444227653" lon="17.96788331942122" id="-14680">
		<tag k="fixme" v="consider tourism=alpine_hut or tourism=chalet" />
		<tag k="name" v="Katterat fjellstue" />
		<tag k="ssr:stedsnr" v="330148" />
		<tag k="tourism" v="wilderness_hut" />
	</node>
	<node lat="68.43616666350343" lon="17.440216660080015" id="-14681">
		<tag k="name" v="Oskarsborg" />
		<tag k="place" v="isolated_dwelling" />
		<tag k="ssr:stedsnr" v="333681" />
	</node>
	<node lat="68.54531868450468" lon="17.571022886716264" id="-14688">
		<tag k="fixme" v="consider place=hamlet" />
		<tag k="name" v="Elvegården" />
		<tag k="place" v="farm" />
		<tag k="ssr:stedsnr" v="342073" />
	</node>
	<node lat="68.30500000038724" lon="16.63510833237999" id="-14695">
		<tag k="name" v="Nordmo" />
		<tag k="place" v="farm" />
		<tag k="ssr:stedsnr" v="342665" />
	</node>
	<node lat="68.16828336909795" lon="17.554957632416638" id="-14700">
		<tag k="fixme" v="consider tourism=alpine_hut or tourism=chalet" />
		<tag k="name" v="Fjellbu" />
		<tag k="ssr:stedsnr" v="344147" />
		<tag k="tourism" v="wilderness_hut" />
	</node>
	<node lat="68.12219999971464" lon="16.42362500553899" id="-14702">
		<tag k="name" v="Sørli" />
		<tag k="place" v="farm" />
		<tag k="ssr:stedsnr" v="346282" />
	</node>
	<node lat="68.40103889052004" lon="16.647261119059618" id="-14706">
		<tag k="name" v="Skavåsen" />
		<tag k="place" v="quarter" />
		<tag k="ssr:stedsnr" v="359616" />
	</node>
	<node lat="68.31133142793027" lon="16.420493076686384" id="-14707">
		<tag k="name" v="Håkonset" />
		<tag k="place" v="farm" />
		<tag k="ssr:stedsnr" v="359621" />
	</node>
	<node lat="68.4407027774045" lon="17.41558611653454" id="-14711">
		<tag k="amenity" v="school" />
		<tag k="name" v="Frydenlund skole" />
		<tag k="old_name" v="Tårnveien-Villaveien barneskole" />
		<tag k="ssr:stedsnr" v="361654" />
	</node>
	<node lat="68.44194999650033" lon="17.418574991517097" id="-14712">
		<tag k="amenity" v="sports_centre" />
		<tag k="name" v="Idrettens hus" />
		<tag k="ssr:stedsnr" v="361645" />
	</node>
	<node lat="68.33273333540477" lon="16.720066667377484" id="-14725">
		<tag k="name" v="Hesjelia" />
		<tag k="place" v="farm" />
		<tag k="ssr:stedsnr" v="381689" />
	</node>
	<node lat="68.41453333770461" lon="16.650800000503605" id="-14730">
		<tag k="alt_name" v="Rognan" />
		<tag k="name" v="Rognmo" />
		<tag k="place" v="farm" />
		<tag k="ssr:stedsnr" v="380495" />
	</node>
	<node lat="68.38805277883895" lon="16.64378887621078" id="-14758">
		<tag k="alt_name" v="Lauvslett" />
		<tag k="name" v="Løvslett" />
		<tag k="place" v="farm" />
		<tag k="ssr:stedsnr" v="381759" />
	</node>
	<node lat="68.53153462235963" lon="17.4712582353042" id="-14759">
		<tag k="name" v="Herjangen" />
		<tag k="place" v="hamlet" />
		<tag k="ssr:stedsnr" v="381763" />
	</node>
	<node lat="68.55258502364369" lon="17.611906352551337" id="-14763">
		<tag k="alt_name" v="Fjeldheim" />
		<tag k="name" v="Fjellheim" />
		<tag k="place" v="farm" />
		<tag k="ssr:stedsnr" v="381770" />
	</node>
	<node lat="68.29745955123047" lon="16.630502698540095" id="-14772">
		<tag k="alt_name" v="Ivarjord" />
		<tag k="name" v="Ivarjorda" />
		<tag k="place" v="farm" />
		<tag k="ssr:stedsnr" v="381588" />
	</node>
	<node lat="68.31147499836564" lon="16.449227766470763" id="-14781">
		<tag k="name" v="Skjåvika" />
		<tag k="place" v="isolated_dwelling" />
		<tag k="ssr:stedsnr" v="381645" />
	</node>
	<node lat="68.31681238061323" lon="16.71123153657804" id="-14783">
		<tag k="fixme" v="consider place=hamlet" />
		<tag k="name" v="Tuva" />
		<tag k="place" v="farm" />
		<tag k="ssr:stedsnr" v="381652" />
	</node>
	<node lat="68.36165555558047" lon="16.853225001703347" id="-14797">
		<tag k="name" v="Vassbotn" />
		<tag k="place" v="farm" />
		<tag k="ssr:stedsnr" v="381946" />
	</node>
	<node lat="68.31971388511795" lon="17.058308331004216" id="-14802">
		<tag k="alt_name" v="Nordmoen, nedre" />
		<tag k="name" v="Nedre Nordmoen" />
		<tag k="place" v="farm" />
		<tag k="ssr:stedsnr" v="382833" />
	</node>
	<node lat="68.39785555293" lon="16.819969438666003" id="-14806">
		<tag k="name" v="Hekkelstrand" />
		<tag k="place" v="farm" />
		<tag k="ssr:stedsnr" v="382992" />
	</node>
	<node lat="68.41766388602973" lon="17.381411116429838" id="-14824">
		<tag k="amenity" v="school" />
		<tag k="name" v="Ankenes skole" />
		<tag k="ssr:stedsnr" v="388566" />
	</node>
	<node lat="68.19767500290891" lon="18.083386100335755" id="-14857">
		<tag k="fixme" v="consider tourism=alpine_hut or tourism=chalet" />
		<tag k="name" v="Cunojávrihytta" />
		<tag k="old_name" v="Čunojávrihyttene;Čunojávrihytta" />
		<tag k="ssr:stedsnr" v="389571" />
		<tag k="tourism" v="wilderness_hut" />
	</node>
	<node lat="68.41953333367678" lon="17.38251111484286" id="-14870">
		<tag k="name" v="Haugen" />
		<tag k="place" v="isolated_dwelling" />
		<tag k="ssr:stedsnr" v="394978" />
	</node>
	<node lat="68.39278055505278" lon="16.85332500927896" id="-14883">
		<tag k="name" v="Heggåa" />
		<tag k="place" v="farm" />
		<tag k="ssr:stedsnr" v="403561" />
	</node>
	<node lat="68.29494166577555" lon="17.359438888690505" id="-14888">
		<tag k="name" v="Rosenborg" />
		<tag k="place" v="farm" />
		<tag k="ssr:stedsnr" v="403692" />
	</node>
	<node lat="68.32194166748027" lon="16.67978333592224" id="-14895">
		<tag k="name" v="Pippira sijda" />
		<tag k="name:smj" v="Pippira sijda" />
		<tag k="place" v="hamlet" />
		<tag k="ssr:stedsnr" v="420620" />
	</node>
	<node lat="68.52666563494496" lon="17.44509066622963" id="-14901">
		<tag k="alt_name" v="Bakkejorden" />
		<tag k="fixme" v="consider place=hamlet" />
		<tag k="name" v="Bakkejorda" />
		<tag k="place" v="farm" />
		<tag k="ssr:stedsnr" v="442654" />
	</node>
	<node lat="68.33641944781535" lon="16.54662777989668" id="-14903">
		<tag k="alt_name" v="Rundhaug" />
		<tag k="name" v="Rundhaugen" />
		<tag k="place" v="farm" />
		<tag k="ssr:stedsnr" v="442662" />
	</node>
	<node lat="68.30498611100757" lon="16.782413895747073" id="-14939">
		<tag k="name" v="Hestnes" />
		<tag k="place" v="farm" />
		<tag k="ssr:stedsnr" v="442632" />
	</node>
	<node lat="68.34125833335251" lon="16.783150007281108" id="-14940">
		<tag k="name" v="Utheim" />
		<tag k="place" v="farm" />
		<tag k="ssr:stedsnr" v="442700" />
	</node>
	<node lat="68.35130000087321" lon="16.815880550735272" id="-14943">
		<tag k="name" v="Haugen" />
		<tag k="place" v="farm" />
		<tag k="ssr:stedsnr" v="442721" />
	</node>
	<node lat="68.56005277333047" lon="17.668094444118033" id="-14944">
		<tag k="name" v="Sæter" />
		<tag k="place" v="isolated_dwelling" />
		<tag k="ssr:stedsnr" v="442727" />
	</node>
	<node lat="68.36226389114954" lon="16.55939722765142" id="-14951">
		<tag k="name" v="Klippenborg" />
		<tag k="place" v="farm" />
		<tag k="ssr:stedsnr" v="442750" />
	</node>
	<node lat="68.38366944297654" lon="16.577499991550816" id="-14952">
		<tag k="name" v="Grønli" />
		<tag k="place" v="farm" />
		<tag k="ssr:stedsnr" v="442765" />
	</node>
	<node lat="68.55012777379198" lon="17.716211111067" id="-14955">
		<tag k="name" v="Nyheim" />
		<tag k="place" v="farm" />
		<tag k="ssr:stedsnr" v="442779" />
	</node>
	<node lat="68.26049427303603" lon="17.047658356100186" id="-14961">
		<tag k="fixme" v="consider place=hamlet" />
		<tag k="name" v="Ránuvuopmi" />
		<tag k="name:no" v="Rånvassbotn" />
		<tag k="name:se" v="Ránuvuopmi" />
		<tag k="old_name:se" v="Ranovuobmi" />
		<tag k="place" v="farm" />
		<tag k="ssr:stedsnr" v="442809" />
	</node>
	<node lat="68.31307038484134" lon="17.067970023551343" id="-14974">
		<tag k="fixme" v="consider place=hamlet" />
		<tag k="name" v="Eiterelvmoen" />
		<tag k="place" v="farm" />
		<tag k="ssr:stedsnr" v="443826" />
	</node>
	<node lat="68.37603302460333" lon="17.044659944189885" id="-14977">
		<tag k="fixme" v="consider place=hamlet" />
		<tag k="name" v="Saltvika" />
		<tag k="place" v="farm" />
		<tag k="ssr:stedsnr" v="443965" />
	</node>
	<node lat="68.34847602179065" lon="17.5068235086262" id="-15002">
		<tag k="fixme" v="consider place=hamlet" />
		<tag k="name" v="Munklia" />
		<tag k="place" v="farm" />
		<tag k="ssr:stedsnr" v="502122" />
	</node>
	<node lat="68.36104871750068" lon="17.48031054257855" id="-15007">
		<tag k="fixme" v="consider place=hamlet" />
		<tag k="name" v="Hauklia" />
		<tag k="place" v="farm" />
		<tag k="ssr:stedsnr" v="502134" />
	</node>
	<node lat="68.2361338751132" lon="17.347682460748107" id="-15009">
		<tag k="fixme" v="consider place=hamlet" />
		<tag k="name" v="Laukvik" />
		<tag k="place" v="farm" />
		<tag k="ssr:stedsnr" v="502750" />
	</node>
	<node lat="68.08136666446741" lon="16.551372217487422" id="-15022">
		<tag k="fixme" v="multiple name tags, choose one and add the other to alt_name" />
		<tag k="name" v="Geinnodahka;Sommarset" />
		<tag k="place" v="isolated_dwelling" />
		<tag k="ssr:stedsnr" v="502547" />
	</node>
	<node lat="68.28346944661095" lon="16.68523887916363" id="-15026">
		<tag k="name" v="Kjølstad" />
		<tag k="place" v="farm" />
		<tag k="ssr:stedsnr" v="502568" />
	</node>
	<node lat="68.55885753358483" lon="17.72140081998162" id="-15040">
		<tag k="name" v="Solli" />
		<tag k="place" v="farm" />
		<tag k="ssr:stedsnr" v="503688" />
	</node>
	<node lat="68.32458889341396" lon="16.748830549173846" id="-15043">
		<tag k="alt_name" v="Reinvadhøgda" />
		<tag k="name" v="Reinveghøgda" />
		<tag k="place" v="farm" />
		<tag k="ssr:stedsnr" v="502660" />
	</node>
	<node lat="68.33708055208686" lon="16.550302783896228" id="-15045">
		<tag k="name" v="Elvebakken" />
		<tag k="place" v="farm" />
		<tag k="ssr:stedsnr" v="502665" />
	</node>
	<node lat="68.44422079598951" lon="17.622875122046082" id="-15056">
		<tag k="fixme" v="consider place=hamlet" />
		<tag k="name" v="Fagerjorda" />
		<tag k="place" v="farm" />
		<tag k="ssr:stedsnr" v="503186" />
	</node>
	<node lat="68.3668611081551" lon="17.04236110123037" id="-15073">
		<tag k="fixme" v="consider place=hamlet" />
		<tag k="name" v="Rånbogen" />
		<tag k="place" v="village" />
		<tag k="ssr:stedsnr" v="503879" />
	</node>
	<node lat="68.40923498824867" lon="17.31432354822396" id="-15076">
		<tag k="alt_name" v="Håkvika, nordre;Håkvik nordre" />
		<tag k="fixme" v="consider place=hamlet" />
		<tag k="name" v="Nordre Håkvik" />
		<tag k="place" v="farm" />
		<tag k="ssr:stedsnr" v="503978" />
	</node>
	<node lat="68.40224166526934" lon="17.332824991550293" id="-15078">
		<tag k="name" v="Åsli" />
		<tag k="place" v="farm" />
		<tag k="ssr:stedsnr" v="503993" />
	</node>
	<node lat="68.39480555526028" lon="16.84701389042143" id="-15079">
		<tag k="alt_name" v="Karvevika" />
		<tag k="name" v="Karvevik" />
		<tag k="place" v="farm" />
		<tag k="ssr:stedsnr" v="503998" />
	</node>
	<node lat="68.38543611285753" lon="17.192422211139153" id="-15083">
		<tag k="name" v="Holtvik" />
		<tag k="place" v="farm" />
		<tag k="ssr:stedsnr" v="503926" />
	</node>
	<node lat="68.3812222186831" lon="17.07769444670223" id="-15084">
		<tag k="name" v="Nygård" />
		<tag k="place" v="farm" />
		<tag k="ssr:stedsnr" v="503947" />
	</node>
	<node lat="68.09828610965245" lon="16.386950002947" id="-15102">
		<tag k="name" v="Hestnes" />
		<tag k="place" v="quarter" />
		<tag k="ssr:stedsnr" v="507753" />
	</node>
	<node lat="68.54851666618215" lon="17.530761113345577" id="-15131">
		<tag k="name" v="Haugen" />
		<tag k="place" v="farm" />
		<tag k="ssr:stedsnr" v="510329" />
	</node>
	<node lat="68.44336944608165" lon="17.645708326625055" id="-15135">
		<tag k="name" v="Sletten østre" />
		<tag k="place" v="farm" />
		<tag k="ssr:stedsnr" v="510344" />
	</node>
	<node lat="68.2555972188517" lon="17.403474996826713" id="-15147">
		<tag k="amenity" v="school" />
		<tag k="name" v="Elvegård skole" />
		<tag k="ssr:stedsnr" v="510596" />
	</node>
	<node lat="68.29367827275954" lon="17.997653026824896" id="-15154">
		<tag k="alt_name" v="Kvilebua" />
		<tag k="fixme" v="consider tourism=alpine_hut or tourism=chalet" />
		<tag k="name" v="Oallavagge" />
		<tag k="ssr:stedsnr" v="513891" />
		<tag k="tourism" v="wilderness_hut" />
	</node>
	<node lat="68.54015833089429" lon="17.574505551082545" id="-15163">
		<tag k="name" v="Medby nordre" />
		<tag k="place" v="farm" />
		<tag k="ssr:stedsnr" v="524133" />
	</node>
	<node lat="68.29684409012029" lon="17.357319340537522" id="-15170">
		<tag k="alt_name" v="Sandvik nordre;Sandvika" />
		<tag k="fixme" v="consider place=hamlet" />
		<tag k="name" v="Nordre Sandvika" />
		<tag k="place" v="farm" />
		<tag k="ssr:stedsnr" v="524671" />
	</node>
	<node lat="68.34078888870526" lon="16.56581944199661" id="-15175">
		<tag k="name" v="Høgli" />
		<tag k="place" v="farm" />
		<tag k="ssr:stedsnr" v="563672" />
	</node>
	<node lat="68.4116583319754" lon="16.782972224821357" id="-15180">
		<tag k="name" v="Djupvikneset" />
		<tag k="place" v="neighbourhood" />
		<tag k="ssr:stedsnr" v="541593" />
	</node>
	<node lat="68.35019722390656" lon="16.29022222917902" id="-15181">
		<tag k="name" v="Straumen" />
		<tag k="place" v="neighbourhood" />
		<tag k="ssr:stedsnr" v="541628" />
	</node>
	<node lat="68.56933611416511" lon="17.79557777709179" id="-15182">
		<tag k="name" v="Karengamma" />
		<tag k="place" v="locality" />
		<tag k="ssr:stedsnr" v="543255" />
	</node>
	<node lat="68.35919999771366" lon="17.613605551284486" id="-15192">
		<tag k="alt_name" v="Tømmerbakken, øvre" />
		<tag k="name" v="Øvre Tømmerbakken" />
		<tag k="place" v="farm" />
		<tag k="ssr:stedsnr" v="562135" />
	</node>
	<node lat="68.07314714281446" lon="16.395277698208748" id="-15204">
		<tag k="fixme" v="consider place=hamlet" />
		<tag k="name" v="Jågåsijdda - Storå" />
		<tag k="name:no" v="Storå" />
		<tag k="name:smj" v="Jågåsijdda" />
		<tag k="old_name:smj" v="Jogasiida" />
		<tag k="place" v="farm" />
		<tag k="ssr:stedsnr" v="562562" />
	</node>
	<node lat="68.27399690725632" lon="16.725792066738105" id="-15205">
		<tag k="name" v="Grunnstad" />
		<tag k="place" v="farm" />
		<tag k="ssr:stedsnr" v="562565" />
	</node>
	<node lat="68.1416444468416" lon="16.335638877948753" id="-15208">
		<tag k="name" v="Nes" />
		<tag k="place" v="farm" />
		<tag k="ssr:stedsnr" v="562628" />
	</node>
	<node lat="68.3726277771196" lon="16.60750555293942" id="-15224">
		<tag k="name" v="Karihaugen" />
		<tag k="place" v="farm" />
		<tag k="ssr:stedsnr" v="562695" />
	</node>
	<node lat="68.2999888883104" lon="16.67062498826601" id="-15246">
		<tag k="name" v="Ramstad" />
		<tag k="place" v="isolated_dwelling" />
		<tag k="ssr:stedsnr" v="563592" />
	</node>
	<node lat="68.31958055794381" lon="16.675461110905374" id="-15256">
		<tag k="name" v="Langbakken" />
		<tag k="place" v="farm" />
		<tag k="ssr:stedsnr" v="563622" />
	</node>
	<node lat="68.3222027733533" lon="16.655586117366184" id="-15257">
		<tag k="name" v="Brattbakken" />
		<tag k="place" v="farm" />
		<tag k="ssr:stedsnr" v="563623" />
	</node>
	<node lat="68.51697811058278" lon="17.55958327624329" id="-15261">
		<tag k="name" v="Halsen" />
		<tag k="place" v="farm" />
		<tag k="ssr:stedsnr" v="563649" />
	</node>
	<node lat="68.32427979253023" lon="16.629129670637198" id="-15270">
		<tag k="alt_name" v="Håfjell" />
		<tag k="name" v="Håfjellet" />
		<tag k="place" v="hamlet" />
		<tag k="ssr:stedsnr" v="563666" />
	</node>
	<node lat="68.55867049928361" lon="17.56936350600048" id="-15271">
		<tag k="alt_name" v="Øymoen" />
		<tag k="name" v="Øymo" />
		<tag k="place" v="farm" />
		<tag k="ssr:stedsnr" v="563731" />
	</node>
	<node lat="68.34474166306694" lon="16.773138877467034" id="-15275">
		<tag k="alt_name" v="Storfjeld" />
		<tag k="name" v="Storfjell" />
		<tag k="place" v="farm" />
		<tag k="ssr:stedsnr" v="563711" />
	</node>
	<node lat="68.55743111809913" lon="17.62618821049315" id="-15276">
		<tag k="name" v="Berglund" />
		<tag k="place" v="farm" />
		<tag k="ssr:stedsnr" v="563715" />
	</node>
	<node lat="68.38656666939711" lon="17.128444441905476" id="-15304">
		<tag k="name" v="Skogset" />
		<tag k="place" v="farm" />
		<tag k="ssr:stedsnr" v="563957" />
	</node>
	<node lat="68.26088333547354" lon="17.407463883742473" id="-15337">
		<tag k="name" v="Nordgård" />
		<tag k="place" v="farm" />
		<tag k="ssr:stedsnr" v="570516" />
	</node>
	<node lat="68.44354166266208" lon="17.641152775382114" id="-15352">
		<tag k="alt_name" v="Sletten vestre" />
		<tag k="name" v="Vestre Sletten" />
		<tag k="place" v="farm" />
		<tag k="ssr:stedsnr" v="571361" />
	</node>
	<node lat="68.4150666677054" lon="16.627749996701546" id="-15358">
		<tag k="name" v="Magretjorda" />
		<tag k="place" v="farm" />
		<tag k="ssr:stedsnr" v="571480" />
	</node>
	<node lat="68.41997499922219" lon="17.32065276618178" id="-15376">
		<tag k="fixme" v="consider place=suburb, village or hamlet" />
		<tag k="name" v="Emmenes" />
		<tag k="place" v="quarter" />
		<tag k="ssr:stedsnr" v="576091" />
	</node>
	<node lat="68.21480555165311" lon="17.360194448145517" id="-15379">
		<tag k="name" v="Sætran" />
		<tag k="place" v="locality" />
		<tag k="ssr:stedsnr" v="576929" />
	</node>
	<node lat="68.54741388820085" lon="17.52411666107453" id="-15387">
		<tag k="name" v="Bekkevoll" />
		<tag k="place" v="farm" />
		<tag k="ssr:stedsnr" v="585101" />
	</node>
	<node lat="68.34228610647385" lon="16.196305560725662" id="-15395">
		<tag k="name" v="Løbukta" />
		<tag k="place" v="isolated_dwelling" />
		<tag k="ssr:stedsnr" v="585236" />
	</node>
	<node lat="68.33678333632388" lon="16.325127778993274" id="-15404">
		<tag k="name" v="Storkobbvik" />
		<tag k="place" v="neighbourhood" />
		<tag k="ssr:stedsnr" v="601593" />
	</node>
	<node lat="68.34301110811158" lon="16.311113890929164" id="-15405">
		<tag k="name" v="Lomtjern" />
		<tag k="place" v="neighbourhood" />
		<tag k="ssr:stedsnr" v="601594" />
	</node>
	<node lat="68.55844166927248" lon="17.538599999370245" id="-15407">
		<tag k="name" v="Nybakken" />
		<tag k="place" v="farm" />
		<tag k="ssr:stedsnr" v="603170" />
	</node>
	<node lat="68.3548472189568" lon="17.48729444348827" id="-15409">
		<tag k="alt_name" v="Vandmoen" />
		<tag k="name" v="Vassmoen" />
		<tag k="place" v="farm" />
		<tag k="ssr:stedsnr" v="623145" />
	</node>
	<node lat="68.33739309044346" lon="16.558176493846453" id="-15418">
		<tag k="alt_name" v="Elveslett;Søndre Elvesletta" />
		<tag k="fixme" v="consider place=hamlet" />
		<tag k="name" v="Elvesletta" />
		<tag k="place" v="farm" />
		<tag k="ssr:stedsnr" v="623672" />
	</node>
	<node lat="68.33853611159999" lon="16.77363610229815" id="-15420">
		<tag k="name" v="Slettås" />
		<tag k="place" v="farm" />
		<tag k="ssr:stedsnr" v="623680" />
	</node>
	<node lat="68.55816472438521" lon="17.71655461669818" id="-15451">
		<tag k="alt_name" v="Anderheimen" />
		<tag k="fixme" v="consider place=hamlet" />
		<tag k="name" v="Andersheimen" />
		<tag k="place" v="farm" />
		<tag k="ssr:stedsnr" v="624683" />
	</node>
	<node lat="68.56178967553154" lon="17.69513336439686" id="-15454">
		<tag k="name" v="Fedreheim" />
		<tag k="place" v="farm" />
		<tag k="ssr:stedsnr" v="624700" />
	</node>
	<node lat="68.47286708432131" lon="17.641580682436615" id="-15455">
		<tag k="fixme" v="consider place=hamlet" />
		<tag k="name" v="Trældal" />
		<tag k="name:no" v="Trældal" />
		<tag k="name:se" v="Raltták" />
		<tag k="place" v="farm" />
		<tag k="ssr:stedsnr" v="624782" />
	</node>
	<node lat="68.38639722497082" lon="16.872055564552323" id="-15470">
		<tag k="name" v="Myrlund" />
		<tag k="place" v="farm" />
		<tag k="ssr:stedsnr" v="624931" />
	</node>
	<node lat="68.38680000302105" lon="16.888905544974918" id="-15471">
		<tag k="fixme" v="consider place=hamlet" />
		<tag k="name" v="Bøstrand" />
		<tag k="place" v="village" />
		<tag k="ssr:stedsnr" v="624936" />
	</node>
	<node lat="68.3819861083377" lon="17.123830544949755" id="-15472">
		<tag k="name" v="Brubakken" />
		<tag k="place" v="farm" />
		<tag k="ssr:stedsnr" v="624945" />
	</node>
	<node lat="68.39649936101782" lon="17.271242742609424" id="-15480">
		<tag k="name" v="Skjomnes" />
		<tag k="place" v="hamlet" />
		<tag k="ssr:stedsnr" v="624995" />
	</node>
	<node lat="68.56238055829527" lon="17.669363887339976" id="-15518">
		<tag k="historic" v="shieling" />
		<tag k="name" v="Sæter" />
		<tag k="place" v="isolated_dwelling" />
		<tag k="ssr:stedsnr" v="631038" />
	</node>
	<node lat="68.52905405807974" lon="17.46176141349513" id="-15522">
		<tag k="alt_name" v="Kråkberget store" />
		<tag k="name" v="Store Kråkberget" />
		<tag k="place" v="farm" />
		<tag k="ssr:stedsnr" v="631250" />
	</node>
	<node lat="68.40665833002781" lon="17.32538611124376" id="-15532">
		<tag k="name" v="Heimstad" />
		<tag k="place" v="farm" />
		<tag k="ssr:stedsnr" v="631512" />
	</node>
	<node lat="68.42106944183321" lon="17.380727784573626" id="-15535">
		<tag k="name" v="Ankenes" />
		<tag k="name:no" v="Ankenes" />
		<tag k="name:se" v="Oŋká" />
		<tag k="place" v="village" />
		<tag k="ssr:stedsnr" v="631525" />
	</node>
	<node lat="68.31917422655482" lon="17.285520215527338" id="-15540">
		<tag k="alt_name" v="Lengnes nordre" />
		<tag k="fixme" v="consider place=hamlet" />
		<tag k="name" v="Nordre Lengnes" />
		<tag k="place" v="farm" />
		<tag k="ssr:stedsnr" v="631961" />
	</node>
	<node lat="68.25731389053038" lon="17.41117499562506" id="-15570">
		<tag k="name" v="Stongmobakken" />
		<tag k="place" v="quarter" />
		<tag k="ssr:stedsnr" v="662113" />
	</node>
	<node lat="68.29298889028313" lon="16.471275009371748" id="-15572">
		<tag k="name" v="Halvarøy" />
		<tag k="place" v="neighbourhood" />
		<tag k="ssr:stedsnr" v="662628" />
	</node>
	<node lat="68.2963888860091" lon="16.635000001586004" id="-15578">
		<tag k="name" v="Ivarhaug" />
		<tag k="place" v="farm" />
		<tag k="ssr:stedsnr" v="889706" />
	</node>
	<node lat="68.43747499890038" lon="17.435102783737303" id="-15584">
		<tag k="name" v="Oscarsborg" />
		<tag k="place" v="suburb" />
		<tag k="ssr:stedsnr" v="723141" />
	</node>
	<node lat="68.2827171589478" lon="16.721757832107414" id="-15591">
		<tag k="fixme" v="consider place=hamlet" />
		<tag k="name" v="Skjåfjellet" />
		<tag k="place" v="farm" />
		<tag k="ssr:stedsnr" v="744537" />
	</node>
	<node lat="68.29585278014135" lon="16.692247217796893" id="-15605">
		<tag k="name" v="Neset" />
		<tag k="place" v="farm" />
		<tag k="ssr:stedsnr" v="745601" />
	</node>
	<node lat="68.33905000393423" lon="16.7451916713346" id="-15607">
		<tag k="name" v="Granlia" />
		<tag k="place" v="farm" />
		<tag k="ssr:stedsnr" v="745690" />
	</node>
	<node lat="68.41016389057114" lon="16.686700003357206" id="-15609">
		<tag k="fixme" v="consider place=hamlet" />
		<tag k="name" v="Skårnes" />
		<tag k="place" v="village" />
		<tag k="ssr:stedsnr" v="745786" />
	</node>
	<node lat="68.4019564923189" lon="16.768843796986832" id="-15610">
		<tag k="alt_name" v="Djupvik" />
		<tag k="fixme" v="consider place=hamlet" />
		<tag k="name" v="Djupvika" />
		<tag k="place" v="farm" />
		<tag k="ssr:stedsnr" v="745789" />
	</node>
	<node lat="68.54701110951781" lon="17.527552765111455" id="-15612">
		<tag k="name" v="Haugen" />
		<tag k="place" v="quarter" />
		<tag k="ssr:stedsnr" v="745797" />
	</node>
	<node lat="68.4166916623174" lon="16.61348055353353" id="-15614">
		<tag k="fixme" v="multiple name tags, choose one and add the other to alt_name" />
		<tag k="name" v="Austvika;Løkke" />
		<tag k="place" v="farm" />
		<tag k="ssr:stedsnr" v="745466" />
	</node>
	<node lat="68.37716944623894" lon="16.572666655095464" id="-15638">
		<tag k="name" v="Fagerli" />
		<tag k="place" v="farm" />
		<tag k="ssr:stedsnr" v="745742" />
	</node>
	<node lat="68.39148888651364" lon="16.58348054897473" id="-15644">
		<tag k="alt_name" v="Forshaug" />
		<tag k="name" v="Fosshaugen" />
		<tag k="place" v="farm" />
		<tag k="ssr:stedsnr" v="745759" />
	</node>
	<node lat="68.53037566179039" lon="17.462279134089812" id="-15645">
		<tag k="alt_name" v="Kråberget" />
		<tag k="fixme" v="consider place=hamlet" />
		<tag k="name" v="Kråkberget" />
		<tag k="place" v="farm" />
		<tag k="ssr:stedsnr" v="745761" />
	</node>
	<node lat="68.29761111013454" lon="17.13376389726276" id="-15650">
		<tag k="name" v="Sætran" />
		<tag k="place" v="locality" />
		<tag k="ssr:stedsnr" v="745839" />
	</node>
	<node lat="68.3651194483281" lon="17.04383612051729" id="-15661">
		<tag k="name" v="Ranset" />
		<tag k="place" v="farm" />
		<tag k="ssr:stedsnr" v="745929" />
	</node>
	<node lat="68.5265861341162" lon="17.457113158254863" id="-15664">
		<tag k="alt_name" v="Ytregaard" />
		<tag k="name" v="Ytregård" />
		<tag k="place" v="farm" />
		<tag k="ssr:stedsnr" v="746628" />
	</node>
	<node lat="68.42996110917434" lon="17.39173334120853" id="-15677">
		<tag k="building" v="industrial" />
		<tag k="industrial" v="factory" />
		<tag k="name" v="Malmkaia" />
		<tag k="ssr:stedsnr" v="746983" />
	</node>
	<node lat="68.34436110812426" lon="16.90495278541213" id="-15728">
		<tag k="name" v="Krokdalen" />
		<tag k="place" v="farm" />
		<tag k="ssr:stedsnr" v="753315" />
	</node>
	<node lat="68.34930555315034" lon="16.934113885901834" id="-15730">
		<tag k="name" v="Skjellneset" />
		<tag k="place" v="farm" />
		<tag k="ssr:stedsnr" v="753317" />
	</node>
	<node lat="68.37406997430269" lon="16.89093334632132" id="-15736">
		<tag k="alt_name" v="Elvesletta" />
		<tag k="fixme" v="consider place=hamlet" />
		<tag k="name" v="Elvsletta" />
		<tag k="place" v="farm" />
		<tag k="ssr:stedsnr" v="753282" />
	</node>
	<node lat="68.11938611346287" lon="17.950208341600167" id="-15763">
		<tag k="fixme" v="consider tourism=alpine_hut or tourism=chalet" />
		<tag k="name" v="Cáihnavággihytta" />
		<tag k="old_name" v="Čáihnavaggihytta;Cáihnavággihyttene;Čáihnavággihytta" />
		<tag k="ssr:stedsnr" v="755914" />
		<tag k="tourism" v="wilderness_hut" />
	</node>
	<node lat="68.33560813598405" lon="16.54581284115429" id="-15776">
		<tag k="alt_name" v="Rundhaug Vestre" />
		<tag k="fixme" v="consider place=hamlet" />
		<tag k="name" v="Vestre Rundhaugen" />
		<tag k="place" v="farm" />
		<tag k="ssr:stedsnr" v="767352" />
	</node>
	<node lat="68.37525546254226" lon="17.395559353512283" id="-15787">
		<tag k="alt_name" v="Mattisjorden nedre;Mattisjord nedre" />
		<tag k="name" v="Nedre Mattisjorda" />
		<tag k="place" v="farm" />
		<tag k="ssr:stedsnr" v="767682" />
	</node>
	<node lat="68.4014305599175" lon="16.786477777773406" id="-15795">
		<tag k="name" v="Djupvik" />
		<tag k="place" v="neighbourhood" />
		<tag k="ssr:stedsnr" v="784593" />
	</node>
	<node lat="68.4424916687501" lon="17.405308332266817" id="-15796">
		<tag k="amenity" v="sports_centre" />
		<tag k="name" v="Narvikhallen" />
		<tag k="ssr:stedsnr" v="786624" />
	</node>
	<node lat="68.40246666979567" lon="16.603486120011887" id="-15800">
		<tag k="name" v="Harvollen" />
		<tag k="place" v="farm" />
		<tag k="ssr:stedsnr" v="805732" />
	</node>
	<node lat="68.40201666821388" lon="16.535027789312384" id="-15801">
		<tag k="name" v="Sæterteigen" />
		<tag k="place" v="farm" />
		<tag k="ssr:stedsnr" v="805730" />
	</node>
	<node lat="68.2462222188204" lon="16.715672225373435" id="-15805">
		<tag k="name" v="Furuhaug" />
		<tag k="place" v="farm" />
		<tag k="ssr:stedsnr" v="805561" />
	</node>
	<node lat="68.3474287028192" lon="16.58504367313514" id="-15844">
		<tag k="fixme" v="consider place=hamlet" />
		<tag k="name" v="Kvitfors" />
		<tag k="place" v="farm" />
		<tag k="ssr:stedsnr" v="806689" />
	</node>
	<node lat="68.38491461785804" lon="16.713317545138423" id="-15849">
		<tag k="fixme" v="consider place=hamlet" />
		<tag k="name" v="Storhaugen" />
		<tag k="place" v="farm" />
		<tag k="ssr:stedsnr" v="806757" />
	</node>
	<node lat="68.31736666975377" lon="16.76989165543822" id="-15870">
		<tag k="name" v="Brattåsen" />
		<tag k="place" v="farm" />
		<tag k="ssr:stedsnr" v="806639" />
	</node>
	<node lat="68.20270277449545" lon="17.529213896851235" id="-15871">
		<tag k="alt_name" v="Lauvås" />
		<tag k="name" v="Løvås" />
		<tag k="place" v="farm" />
		<tag k="ssr:stedsnr" v="806698" />
	</node>
	<node lat="68.56299370763469" lon="17.65932749581617" id="-15874">
		<tag k="alt_name" v="Fjeldal" />
		<tag k="name" v="Fjelldal" />
		<tag k="place" v="farm" />
		<tag k="ssr:stedsnr" v="806723" />
	</node>
	<node lat="68.56286111011707" lon="17.657569443928338" id="-15875">
		<tag k="name" v="Myrhaug" />
		<tag k="place" v="isolated_dwelling" />
		<tag k="ssr:stedsnr" v="806726" />
	</node>
	<node lat="68.56169706792345" lon="17.73166259956411" id="-15877">
		<tag k="name" v="Bakkelund" />
		<tag k="place" v="farm" />
		<tag k="ssr:stedsnr" v="806737" />
	</node>
	<node lat="68.37331944488467" lon="16.892477773399577" id="-15889">
		<tag k="name" v="Sletta" />
		<tag k="place" v="farm" />
		<tag k="ssr:stedsnr" v="806916" />
	</node>
	<node lat="68.3588222245675" lon="16.84098055646293" id="-15891">
		<tag k="name" v="Vinterhesjan" />
		<tag k="place" v="farm" />
		<tag k="ssr:stedsnr" v="806928" />
	</node>
	<node lat="68.36265555961168" lon="16.885708342413473" id="-15892">
		<tag k="name" v="Sandbakk" />
		<tag k="place" v="farm" />
		<tag k="ssr:stedsnr" v="806939" />
	</node>
	<node lat="68.3239939386589" lon="16.348118733967258" id="-15906">
		<tag k="name" v="Pollsnes" />
		<tag k="place" v="farm" />
		<tag k="ssr:stedsnr" v="810560" />
	</node>
	<node lat="68.55876666710333" lon="17.709108321041874" id="-15929">
		<tag k="name" v="Lundli" />
		<tag k="place" v="farm" />
		<tag k="ssr:stedsnr" v="814050" />
	</node>
	<node lat="68.3895347674278" lon="17.164452342364736" id="-15936">
		<tag k="fixme" v="consider place=hamlet" />
		<tag k="name" v="Vidrek" />
		<tag k="place" v="farm" />
		<tag k="ssr:stedsnr" v="813454" />
	</node>
	<node lat="68.39092777810426" lon="17.158400006144053" id="-15965">
		<tag k="name" v="Åsheim" />
		<tag k="place" v="farm" />
		<tag k="ssr:stedsnr" v="814857" />
	</node>
	<node lat="68.53711049411918" lon="17.576472962005735" id="-15969">
		<tag k="fixme" v="consider place=hamlet" />
		<tag k="name" v="Medby" />
		<tag k="place" v="farm" />
		<tag k="ssr:stedsnr" v="828140" />
	</node>
	<node lat="68.20667778069146" lon="17.518638890469003" id="-15972">
		<tag k="name" v="Einmoen" />
		<tag k="place" v="farm" />
		<tag k="ssr:stedsnr" v="828102" />
	</node>
	<node lat="68.04371770557655" lon="16.360579120895604" id="-15973">
		<tag k="alt_name" v="Tørnes nordre" />
		<tag k="fixme" v="consider place=hamlet" />
		<tag k="name" v="Nordre Tørnes" />
		<tag k="place" v="farm" />
		<tag k="ssr:stedsnr" v="828185" />
	</node>
	<node lat="68.37541944033717" lon="17.41188056400162" id="-15975">
		<tag k="name" v="Dalhaug" />
		<tag k="place" v="farm" />
		<tag k="ssr:stedsnr" v="828678" />
	</node>
	<node lat="68.35554444807644" lon="16.58226667539398" id="-15976">
		<tag k="name" v="Slåttli" />
		<tag k="place" v="farm" />
		<tag k="ssr:stedsnr" v="828699" />
	</node>
	<node lat="68.03893333497105" lon="17.83738888921734" id="-15979">
		<tag k="alt_name" v="Gautelishyttene" />
		<tag k="fixme" v="consider tourism=alpine_hut or tourism=chalet" />
		<tag k="name" v="Gautelishytta" />
		<tag k="ssr:stedsnr" v="830667" />
		<tag k="tourism" v="wilderness_hut" />
	</node>
	<node lat="68.3443749966989" lon="16.82803055667587" id="-15986">
		<tag k="name" v="Sentrum Nord" />
		<tag k="place" v="quarter" />
		<tag k="ssr:stedsnr" v="845639" />
	</node>
	<node lat="68.39516111448891" lon="16.848016678317133" id="-15987">
		<tag k="name" v="Karvevika" />
		<tag k="place" v="quarter" />
		<tag k="ssr:stedsnr" v="845641" />
	</node>
	<node lat="68.33364444289853" lon="16.814130551093083" id="-15988">
		<tag k="name" v="Stormyra" />
		<tag k="place" v="quarter" />
		<tag k="ssr:stedsnr" v="845643" />
	</node>
	<node lat="68.28363055883139" lon="17.385433336820686" id="-15991">
		<tag k="historic" v="shieling" />
		<tag k="name" v="Berglundsætran" />
		<tag k="place" v="isolated_dwelling" />
		<tag k="ssr:stedsnr" v="847748" />
	</node>
	<node lat="68.39838333203177" lon="16.594380559322598" id="-16023">
		<tag k="name" v="Furuholt" />
		<tag k="place" v="farm" />
		<tag k="ssr:stedsnr" v="866726" />
	</node>
	<node lat="68.09502222392487" lon="16.341441672312282" id="-16065">
		<tag k="alt_name" v="Oldervika" />
		<tag k="name" v="Oldervik" />
		<tag k="place" v="isolated_dwelling" />
		<tag k="ssr:stedsnr" v="867605" />
	</node>
	<node lat="68.37054166722608" lon="16.559650011104218" id="-16081">
		<tag k="alt_name" v="Løvdalen" />
		<tag k="name" v="Lauvdalen" />
		<tag k="place" v="farm" />
		<tag k="ssr:stedsnr" v="867733" />
	</node>
	<node lat="68.56856690873722" lon="17.570522272546135" id="-16082">
		<tag k="name" v="Skoglund" />
		<tag k="place" v="farm" />
		<tag k="ssr:stedsnr" v="867739" />
	</node>
	<node lat="68.54143824698276" lon="17.570360776627716" id="-16086">
		<tag k="name" v="Rødberget" />
		<tag k="place" v="farm" />
		<tag k="ssr:stedsnr" v="867756" />
	</node>
	<node lat="68.32131667062023" lon="17.056602778548438" id="-16097">
		<tag k="alt_name" v="Stemnes" />
		<tag k="name" v="Nedre Stemnes" />
		<tag k="place" v="farm" />
		<tag k="ssr:stedsnr" v="867865" />
	</node>
	<node lat="68.33512874325535" lon="17.281645701305163" id="-16098">
		<tag k="fixme" v="consider place=hamlet" />
		<tag k="name" v="Kongsbakk" />
		<tag k="place" v="farm" />
		<tag k="ssr:stedsnr" v="867870" />
	</node>
	<node lat="68.0965944462763" lon="16.361733336426653" id="-16116">
		<tag k="name" v="Kleiva" />
		<tag k="place" v="quarter" />
		<tag k="ssr:stedsnr" v="871729" />
	</node>
	<node lat="68.37035833287939" lon="16.57821388522642" id="-16134">
		<tag k="name" v="Myrslett" />
		<tag k="place" v="farm" />
		<tag k="ssr:stedsnr" v="874177" />
	</node>
	<node lat="68.41981944077172" lon="16.71953056230495" id="-16138">
		<tag k="name" v="Eidet" />
		<tag k="place" v="farm" />
		<tag k="ssr:stedsnr" v="874232" />
	</node>
	<node lat="68.34351111477837" lon="16.835511102536522" id="-16143">
		<tag k="name" v="Gammelgården" />
		<tag k="place" v="farm" />
		<tag k="ssr:stedsnr" v="874437" />
	</node>
	<node lat="68.4053611071879" lon="17.414949997840615" id="-16155">
		<tag k="name" v="Millerjord" />
		<tag k="place" v="farm" />
		<tag k="ssr:stedsnr" v="874603" />
	</node>
	<node lat="68.31693317306653" lon="17.287695665628487" id="-16160">
		<tag k="alt_name" v="Lengnes søndre" />
		<tag k="fixme" v="consider place=hamlet" />
		<tag k="name" v="Søndre Lengnes" />
		<tag k="place" v="farm" />
		<tag k="ssr:stedsnr" v="874943" />
	</node>
	<node lat="68.38456388962256" lon="16.627686098528855" id="-16161">
		<tag k="name" v="Henrikheimen" />
		<tag k="place" v="farm" />
		<tag k="ssr:stedsnr" v="875240" />
	</node>
	<node lat="68.55138055385106" lon="17.52938054318172" id="-16183">
		<tag k="loc_name:se" v="Spárbalássá" />
		<tag k="name" v="Prestjord" />
		<tag k="name:no" v="Prestjord" />
		<tag k="place" v="hamlet" />
		<tag k="ssr:stedsnr" v="875464" />
	</node>
	<node lat="68.54806666856302" lon="17.52355277675043" id="-16184">
		<tag k="name" v="Sletthaug" />
		<tag k="place" v="farm" />
		<tag k="ssr:stedsnr" v="875421" />
	</node>
	<node lat="68.37746667087013" lon="17.60304998829895" id="-16199">
		<tag k="amenity" v="school" />
		<tag k="name" v="Beisfjord skole" />
		<tag k="ssr:stedsnr" v="889139" />
	</node>
	<node lat="68.47233333231324" lon="17.502530543306108" id="-16214">
		<tag k="name" v="Øverlund" />
		<tag k="place" v="farm" />
		<tag k="ssr:stedsnr" v="936268" />
	</node>
	<node lat="68.4788222253743" lon="17.55140555191767" id="-16218">
		<tag k="name" v="Lauksletta" />
		<tag k="place" v="farm" />
		<tag k="ssr:stedsnr" v="940325" />
	</node>
	<node lat="68.40761944374735" lon="17.45026944141019" id="-16234">
		<tag k="name" v="Kvitsandøyra" />
		<tag k="place" v="quarter" />
		<tag k="ssr:stedsnr" v="968720" />
	</node>
	<node lat="68.05067694983164" lon="17.133064131468952" id="-16236">
		<tag k="fixme" v="consider tourism=alpine_hut or tourism=chalet" />
		<tag k="name" v="Baugebua" />
		<tag k="ssr:stedsnr" v="972949" />
		<tag k="tourism" v="wilderness_hut" />
	</node>
	<node lat="68.36724258891391" lon="16.279809628984797" id="-16237">
		<tag k="fixme" v="consider place=hamlet" />
		<tag k="name" v="Skarstad" />
		<tag k="place" v="farm" />
		<tag k="ssr:stedsnr" v="974346" />
	</node>
	<node lat="68.50246665192853" lon="18.079022554302185" id="-16245">
		<tag k="fixme" v="consider tourism=alpine_hut or tourism=chalet" />
		<tag k="name" v="Gamle Holmvassbu" />
		<tag k="ssr:stedsnr" v="978850" />
		<tag k="tourism" v="wilderness_hut" />
	</node>
	<node lat="68.02619395130215" lon="17.865555966136238" id="-16246">
		<tag k="fixme" v="consider tourism=alpine_hut or tourism=chalet" />
		<tag k="name" v="Vassheim" />
		<tag k="ssr:stedsnr" v="978851" />
		<tag k="tourism" v="wilderness_hut" />
	</node>
	<node lat="68.4731293950475" lon="17.642588589046373" id="-16264">
		<tag k="name" v="Trældal" />
		<tag k="place" v="farm" />
		<tag k="ssr:stedsnr" v="984151" />
	</node>
	<node lat="68.4741957819427" lon="17.643562663357596" id="-16265">
		<tag k="name" v="Trældal" />
		<tag k="place" v="farm" />
		<tag k="ssr:stedsnr" v="984152" />
	</node>
	<node lat="68.47508108377833" lon="17.64421421893851" id="-16266">
		<tag k="name" v="Trældal" />
		<tag k="place" v="farm" />
		<tag k="ssr:stedsnr" v="984153" />
	</node>
	<node lat="68.3501531365587" lon="16.800253980944053" id="-16275">
		<tag k="name" v="Solvoll" />
		<tag k="place" v="farm" />
		<tag k="ssr:stedsnr" v="989480" />
	</node>
	<node lat="68.31784202901355" lon="17.28780285343629" id="-16772">
		<tag k="alt_name" v="Lengenes" />
		<tag k="name" v="Lengnes" />
		<tag k="place" v="hamlet" />
		<tag k="ssr:stedsnr" v="1075779" />
	</node>
	<node lat="68.4464352711567" lon="17.409768335957956" id="-16773">
		<tag k="alt_name" v="Lillevik" />
		<tag k="name" v="Lillevika" />
		<tag k="place" v="locality" />
		<tag k="ssr:stedsnr" v="1076483" />
	</node>
	<node lat="68.43240138783362" lon="17.39732116500041" id="-16774">
		<tag k="fixme" v="consider place=hamlet" />
		<tag k="name" v="Framnes" />
		<tag k="place" v="farm" />
		<tag k="ssr:stedsnr" v="1076484" />
	</node>
	<node lat="68.42445869814044" lon="17.439361194725144" id="-16775">
		<tag k="name" v="Narvik" />
		<tag k="place" v="locality" />
		<tag k="ssr:stedsnr" v="1076485" />
	</node>
	<node lat="68.40800948681556" lon="17.458691174247807" id="-16776">
		<tag k="name" v="Fagernes" />
		<tag k="place" v="locality" />
		<tag k="ssr:stedsnr" v="1076486" />
	</node>
	<node lat="68.39107929364438" lon="17.545265930553363" id="-16777">
		<tag k="fixme" v="consider place=hamlet" />
		<tag k="name" v="Oldernes" />
		<tag k="place" v="farm" />
		<tag k="ssr:stedsnr" v="1076487" />
	</node>
	<node lat="68.37956812041362" lon="17.601834044468276" id="-16778">
		<tag k="fixme" v="consider place=hamlet" />
		<tag k="name" v="Beisfjord" />
		<tag k="place" v="farm" />
		<tag k="ssr:stedsnr" v="1076488" />
	</node>
	<node lat="68.41539777002987" lon="17.379976027933942" id="-16779">
		<tag k="name" v="Ankenes" />
		<tag k="place" v="locality" />
		<tag k="ssr:stedsnr" v="1076489" />
	</node>
	<node lat="68.41895389505758" lon="17.326649873508266" id="-16780">
		<tag k="name" v="Emmenes" />
		<tag k="place" v="locality" />
		<tag k="ssr:stedsnr" v="1076490" />
	</node>
	<node lat="68.32570153808493" lon="17.290440480985147" id="-16781">
		<tag k="fixme" v="consider place=hamlet" />
		<tag k="name" v="Hallarvik" />
		<tag k="place" v="farm" />
		<tag k="ssr:stedsnr" v="1076498" />
	</node>
	<node lat="68.29386981320746" lon="17.36407496279921" id="-16782">
		<tag k="name" v="Sandvika" />
		<tag k="place" v="hamlet" />
		<tag k="ssr:stedsnr" v="1076504" />
	</node>
	<node lat="68.17540977415705" lon="17.53466836857724" id="-16783">
		<tag k="name" v="Tangen" />
		<tag k="place" v="locality" />
		<tag k="ssr:stedsnr" v="1076505" />
	</node>
	<node lat="68.25303069901096" lon="17.324937995781816" id="-16784">
		<tag k="name" v="Tømmernes" />
		<tag k="place" v="locality" />
		<tag k="ssr:stedsnr" v="1076506" />
	</node>
	<node lat="68.1730709534068" lon="16.420704580531435" id="-16785">
		<tag k="name" v="Mulbukta" />
		<tag k="place" v="locality" />
		<tag k="ssr:stedsnr" v="1076515" />
	</node>
	<node lat="68.09672156349872" lon="16.35680841558208" id="-16786">
		<tag k="name" v="Kjøpsvik" />
		<tag k="place" v="locality" />
		<tag k="ssr:stedsnr" v="1076516" />
	</node>
	<node lat="68.09476025670375" lon="16.36951217809293" id="-16787">
		<tag k="name" v="Kjøpsnes" />
		<tag k="place" v="hamlet" />
		<tag k="ssr:stedsnr" v="1076517" />
	</node>
	<node lat="68.0966406460334" lon="16.378548607237832" id="-16788">
		<tag k="fixme" v="consider place=hamlet" />
		<tag k="name" v="Kjøpsneshaugen" />
		<tag k="place" v="farm" />
		<tag k="ssr:stedsnr" v="1076518" />
	</node>
	<node lat="68.28310093061083" lon="16.84272581872623" id="-16789">
		<tag k="name" v="Nordre Stokkedalen" />
		<tag k="place" v="locality" />
		<tag k="ssr:stedsnr" v="1076651" />
	</node>
	<node lat="68.3400876945703" lon="16.56762196336646" id="-16790">
		<tag k="fixme" v="consider place=hamlet" />
		<tag k="name" v="Nordre Elvesletta" />
		<tag k="place" v="farm" />
		<tag k="ssr:stedsnr" v="1076652" />
	</node>
	<node lat="68.33815494995329" lon="16.55123774800163" id="-16791">
		<tag k="fixme" v="consider place=hamlet" />
		<tag k="name" v="Østre Rundhaugen" />
		<tag k="place" v="farm" />
		<tag k="ssr:stedsnr" v="1076653" />
	</node>
	<node lat="68.26649880021051" lon="16.715575178417296" id="-16792">
		<tag k="fixme" v="consider place=hamlet" />
		<tag k="name" v="Bjørk" />
		<tag k="place" v="farm" />
		<tag k="ssr:stedsnr" v="1076654" />
	</node>
	<node lat="68.25684789517781" lon="16.70411018233435" id="-16793">
		<tag k="name" v="Fosslund" />
		<tag k="place" v="locality" />
		<tag k="ssr:stedsnr" v="1076655" />
	</node>
	<node lat="68.23056408910803" lon="16.737650860372018" id="-16794">
		<tag k="fixme" v="consider place=hamlet" />
		<tag k="name" v="Rognstad" />
		<tag k="place" v="farm" />
		<tag k="ssr:stedsnr" v="1076656" />
	</node>
	<node lat="68.49244534518755" lon="17.327598378601852" id="-16795">
		<tag k="name" v="Tortenås" />
		<tag k="place" v="locality" />
		<tag k="ssr:stedsnr" v="1076465" />
	</node>
	<node lat="68.574306320171" lon="17.57618960627091" id="-16796">
		<tag k="alt_name" v="Lille Bjerkvik" />
		<tag k="fixme" v="consider place=hamlet" />
		<tag k="name" v="Bjerkvik" />
		<tag k="place" v="farm" />
		<tag k="ssr:stedsnr" v="1076466" />
	</node>
	<node lat="68.55996612402066" lon="17.666782993337574" id="-16797">
		<tag k="name" v="Larsheimen" />
		<tag k="place" v="locality" />
		<tag k="ssr:stedsnr" v="1076467" />
	</node>
	<node lat="68.5623874327131" lon="17.694017654420087" id="-16798">
		<tag k="alt_name" v="Nedre Harvigvatnet" />
		<tag k="fixme" v="consider place=hamlet" />
		<tag k="name" v="Nedre Hartvikvatnet" />
		<tag k="place" v="farm" />
		<tag k="ssr:stedsnr" v="1076468" />
	</node>
	<node lat="68.55621058367404" lon="17.733500667547453" id="-16799">
		<tag k="fixme" v="consider place=hamlet" />
		<tag k="name" v="Vassdalen" />
		<tag k="place" v="farm" />
		<tag k="ssr:stedsnr" v="1076470" />
	</node>
	<node lat="68.56153115751623" lon="17.786099281358638" id="-16800">
		<tag k="name" v="Vassdalen" />
		<tag k="place" v="locality" />
		<tag k="ssr:stedsnr" v="1076471" />
	</node>
	<node lat="68.55247735177976" lon="17.712620243603347" id="-16801">
		<tag k="fixme" v="consider place=hamlet" />
		<tag k="name" v="Øvre Hartvikvatnet" />
		<tag k="place" v="farm" />
		<tag k="ssr:stedsnr" v="1076472" />
	</node>
	<node lat="68.54186609597271" lon="17.573538230730446" id="-16802">
		<tag k="fixme" v="consider place=hamlet" />
		<tag k="name" v="Medby" />
		<tag k="place" v="farm" />
		<tag k="ssr:stedsnr" v="1076473" />
	</node>
	<node lat="68.431462929414" lon="17.729424244562757" id="-16803">
		<tag k="alt_name" v="Klubneset" />
		<tag k="fixme" v="consider place=hamlet" />
		<tag k="name" v="Klubbneset" />
		<tag k="place" v="farm" />
		<tag k="ssr:stedsnr" v="1076480" />
	</node>
	<node lat="68.44621968212353" lon="17.447187087690118" id="-16804">
		<tag k="alt_name" v="Taraldsvik" />
		<tag k="fixme" v="consider place=hamlet" />
		<tag k="name" v="Taraldsvika" />
		<tag k="place" v="farm" />
		<tag k="ssr:stedsnr" v="1076482" />
	</node>
	<node lat="68.06234822947877" lon="16.361376627771975" id="-16805">
		<tag k="fixme" v="consider place=hamlet" />
		<tag k="name" v="Bjerkneset" />
		<tag k="place" v="farm" />
		<tag k="ssr:stedsnr" v="1076541" />
	</node>
	<node lat="68.04177386067343" lon="16.360767103031066" id="-16806">
		<tag k="name" v="Tørnes" />
		<tag k="place" v="hamlet" />
		<tag k="ssr:stedsnr" v="1076542" />
	</node>
	<node lat="68.32976661681829" lon="16.308905151377424" id="-16807">
		<tag k="fixme" v="consider place=hamlet" />
		<tag k="name" v="Rødøya" />
		<tag k="place" v="farm" />
		<tag k="ssr:stedsnr" v="1076543" />
	</node>
	<node lat="68.25822319799171" lon="16.71980035015221" id="-16808">
		<tag k="fixme" v="consider place=hamlet" />
		<tag k="name" v="Melkedalen" />
		<tag k="place" v="farm" />
		<tag k="ssr:stedsnr" v="1076560" />
	</node>
	<node lat="68.27619300966036" lon="16.423268370766397" id="-16809">
		<tag k="name" v="Haugen" />
		<tag k="place" v="locality" />
		<tag k="ssr:stedsnr" v="1076566" />
	</node>
	<node lat="68.32694403674867" lon="16.228626983464704" id="-16810">
		<tag k="fixme" v="consider place=hamlet" />
		<tag k="name" v="Valle" />
		<tag k="place" v="farm" />
		<tag k="ssr:stedsnr" v="1076568" />
	</node>
	<node lat="68.24349259503808" lon="16.751971572839615" id="-16811">
		<tag k="alt_name" v="Skogheim" />
		<tag k="fixme" v="consider place=hamlet" />
		<tag k="name" v="Sjurvassli" />
		<tag k="place" v="farm" />
		<tag k="ssr:stedsnr" v="1076569" />
	</node>
	<node lat="68.23698766622165" lon="16.748693590440816" id="-16812">
		<tag k="fixme" v="consider place=hamlet" />
		<tag k="name" v="Sjurvassbotn" />
		<tag k="place" v="farm" />
		<tag k="ssr:stedsnr" v="1076570" />
	</node>
	<node lat="68.25111828146787" lon="16.73643929050914" id="-16813">
		<tag k="alt_name" v="Øvre Melkedalen" />
		<tag k="fixme" v="consider place=hamlet" />
		<tag k="name" v="Melkedalen" />
		<tag k="place" v="farm" />
		<tag k="ssr:stedsnr" v="1076575" />
	</node>
	<node lat="68.23605575628169" lon="16.723574589039192" id="-16814">
		<tag k="name" v="Lyngmo" />
		<tag k="place" v="locality" />
		<tag k="ssr:stedsnr" v="1076578" />
	</node>
	<node lat="68.2516448326896" lon="16.715988089788155" id="-16815">
		<tag k="alt_name" v="Lillevann" />
		<tag k="fixme" v="consider place=hamlet" />
		<tag k="name" v="Litlevatnet" />
		<tag k="place" v="farm" />
		<tag k="ssr:stedsnr" v="1076579" />
	</node>
	<node lat="68.26079940712935" lon="16.696297476610717" id="-16816">
		<tag k="fixme" v="consider place=hamlet" />
		<tag k="name" v="Kjønnstad" />
		<tag k="place" v="farm" />
		<tag k="ssr:stedsnr" v="1076580" />
	</node>
	<node lat="68.31941590744039" lon="17.062974898843127" id="-16817">
		<tag k="fixme" v="consider place=hamlet" />
		<tag k="name" v="Stemnes" />
		<tag k="place" v="farm" />
		<tag k="ssr:stedsnr" v="1076585" />
	</node>
	<node lat="68.33835370987752" lon="17.014541930212147" id="-16818">
		<tag k="fixme" v="consider place=hamlet" />
		<tag k="name" v="Råna" />
		<tag k="place" v="farm" />
		<tag k="ssr:stedsnr" v="1076587" />
	</node>
	<node lat="68.35097260319866" lon="16.958046220339178" id="-16819">
		<tag k="fixme" v="consider place=hamlet" />
		<tag k="name" v="Arnes" />
		<tag k="place" v="farm" />
		<tag k="ssr:stedsnr" v="1076598" />
	</node>
	<node lat="68.33008294246247" lon="16.79892604072281" id="-16820">
		<tag k="name" v="Ballangen" />
		<tag k="place" v="hamlet" />
		<tag k="ssr:stedsnr" v="1076599" />
	</node>
	<node lat="68.31606365968014" lon="16.72732066083442" id="-16821">
		<tag k="fixme" v="consider place=hamlet" />
		<tag k="name" v="Bruksåsen" />
		<tag k="place" v="farm" />
		<tag k="ssr:stedsnr" v="1076600" />
	</node>
	<node lat="68.29933225565483" lon="16.64587400773606" id="-16822">
		<tag k="fixme" v="consider place=hamlet" />
		<tag k="name" v="Djupvatnet" />
		<tag k="place" v="farm" />
		<tag k="ssr:stedsnr" v="1076604" />
	</node>
	<node lat="68.32681075278484" lon="16.60311980961667" id="-16823">
		<tag k="alt_name" v="Nordhaug;Nordhaugen" />
		<tag k="fixme" v="consider place=hamlet" />
		<tag k="name" v="Nordre Grindhaugen" />
		<tag k="place" v="farm" />
		<tag k="ssr:stedsnr" v="1076627" />
	</node>
	<node lat="68.2946526293264" lon="16.65409761186051" id="-16824">
		<tag k="name" v="Skafoss" />
		<tag k="place" v="locality" />
		<tag k="ssr:stedsnr" v="1076628" />
	</node>
	<node lat="68.28523946685847" lon="16.681174991654753" id="-16825">
		<tag k="name" v="Nordre Langåsen" />
		<tag k="place" v="locality" />
		<tag k="ssr:stedsnr" v="1076629" />
	</node>
	<node lat="68.28232528195889" lon="16.685081998735924" id="-16826">
		<tag k="fixme" v="consider place=hamlet" />
		<tag k="name" v="Midtre Langåsen" />
		<tag k="place" v="farm" />
		<tag k="ssr:stedsnr" v="1076633" />
	</node>
	<node lat="68.29365726116671" lon="16.65680033240945" id="-16827">
		<tag k="name" v="Langåsen" />
		<tag k="place" v="locality" />
		<tag k="ssr:stedsnr" v="1076644" />
	</node>
	<node lat="68.27199139978386" lon="16.702087144241155" id="-16828">
		<tag k="fixme" v="consider place=hamlet" />
		<tag k="name" v="Søndre Langåsen" />
		<tag k="place" v="farm" />
		<tag k="ssr:stedsnr" v="1076648" />
	</node>
	<node lat="68.3058521763219" lon="16.78943834581523" id="-16829">
		<tag k="alt_name" v="Hestnes" />
		<tag k="fixme" v="consider place=hamlet" />
		<tag k="name" v="Hestneset" />
		<tag k="place" v="farm" />
		<tag k="ssr:stedsnr" v="1076650" />
	</node>
	<node lat="68.31671043931823" lon="16.575848587292082" id="-16830">
		<tag k="name" v="Håfjell" />
		<tag k="place" v="locality" />
		<tag k="ssr:stedsnr" v="1076671" />
	</node>
	<node lat="68.3238763779728" lon="17.10908863390922" id="-16831">
		<tag k="name" v="Indre Ballangen" />
		<tag k="place" v="locality" />
		<tag k="ssr:stedsnr" v="1076672" />
	</node>
	<node lat="68.29263585570266" lon="16.64205070150391" id="-16833">
		<tag k="name" v="Skafosli" />
		<tag k="place" v="farm" />
		<tag k="ssr:stedsnr" v="1079826" />
	</node>
	<node lat="68.29059176422766" lon="16.64623236320783" id="-16839">
		<tag k="name" v="Skafossnes" />
		<tag k="place" v="farm" />
		<tag k="ssr:stedsnr" v="1079831" />
	</node>
	<node lat="68.3393920601687" lon="16.824780806713978" id="-16840">
		<tag k="amenity" v="school" />
		<tag k="name" v="Ballangen skole" />
		<tag k="ssr:stedsnr" v="1080103" />
	</node>
	<node lat="68.55239528438693" lon="17.553547539912636" id="-16841">
		<tag k="amenity" v="school" />
		<tag k="name" v="Bjerkvik skole" />
		<tag k="ssr:stedsnr" v="1080104" />
	</node>
	<node lat="68.40377730489108" lon="17.310308103212268" id="-16843">
		<tag k="amenity" v="school" />
		<tag k="name" v="Håkvik skole" />
		<tag k="ssr:stedsnr" v="1080106" />
	</node>
	<node lat="68.43533072313623" lon="17.442387094493892" id="-16845">
		<tag k="amenity" v="school" />
		<tag k="name" v="Skistua barneskole" />
		<tag k="ssr:stedsnr" v="1080108" />
	</node>
	<node lat="68.27749065637575" lon="16.51977754439297" id="-16850">
		<tag k="name" v="Henriknes" />
		<tag k="place" v="farm" />
		<tag k="ssr:stedsnr" v="1081434" />
	</node>
</osm>
