<?xml version="1.0" encoding="UTF-8"?>
<osm version="0.6" generator="osmapis">
	<node lat="68.36100000252638" lon="17.924163875522538" id="-11587">
		<tag k="name" v="Raudtindvatnet" />
		<tag k="natural" v="water" />
		<tag k="ssr:stedsnr" v="16128" />
	</node>
	<node lat="68.30172499680438" lon="17.49947499785557" id="-11594">
		<tag k="name" v="Gaskabeaijávri" />
		<tag k="name:se" v="Gaskabeaijávri" />
		<tag k="natural" v="water" />
		<tag k="ssr:stedsnr" v="17219" />
	</node>
	<node lat="68.36460277888641" lon="17.94805276555988" id="-11596">
		<tag k="name" v="Langvatnet" />
		<tag k="natural" v="water" />
		<tag k="ssr:stedsnr" v="17171" />
	</node>
	<node lat="68.28936388651667" lon="16.73767498714519" id="-11599">
		<tag k="name" v="Durmålsvatnet" />
		<tag k="natural" v="water" />
		<tag k="ssr:stedsnr" v="17607" />
	</node>
	<node lat="68.29634166380684" lon="16.766055563462093" id="-11600">
		<tag k="name" v="Kvannvika" />
		<tag k="natural" v="bay" />
		<tag k="ssr:stedsnr" v="17609" />
	</node>
	<node lat="68.30148611272026" lon="16.79426388205782" id="-11601">
		<tag k="name" v="Hestneselva" />
		<tag k="ssr:stedsnr" v="17612" />
		<tag k="waterway" v="stream" />
	</node>
	<node lat="68.19066110651585" lon="17.550091668958935" id="-11608">
		<tag k="name" v="Storfallet" />
		<tag k="natural" v="waterfall" />
		<tag k="ssr:stedsnr" v="17714" />
	</node>
	<node lat="68.3500888931168" lon="16.71144166407566" id="-11613">
		<tag k="name" v="Grytvatnet" />
		<tag k="natural" v="water" />
		<tag k="ssr:stedsnr" v="17731" />
	</node>
	<node lat="68.27892499757694" lon="17.40933889239824" id="-11620">
		<tag k="name" v="Mølnelva" />
		<tag k="ssr:stedsnr" v="17852" />
		<tag k="waterway" v="river" />
	</node>
	<node lat="68.56997777445379" lon="17.452191666698287" id="-11624">
		<tag k="name" v="Langvatnet" />
		<tag k="natural" v="water" />
		<tag k="ssr:stedsnr" v="18648" />
	</node>
	<node lat="68.53650000225124" lon="17.360449997913257" id="-11633">
		<tag k="name" v="Storelva" />
		<tag k="name:no" v="Storelva" />
		<tag k="name:se" v="Badje-Stuorjohka" />
		<tag k="ssr:stedsnr" v="20538" />
		<tag k="waterway" v="river" />
	</node>
	<node lat="68.53372499937659" lon="17.36137498731159" id="-11634">
		<tag k="name" v="Båtvatnet" />
		<tag k="natural" v="water" />
		<tag k="ssr:stedsnr" v="20586" />
		<tag k="water" v="lake" />
	</node>
	<node lat="68.46635833738321" lon="17.67139443767129" id="-11651">
		<tag k="name" v="Skjellelva" />
		<tag k="ssr:stedsnr" v="25023" />
		<tag k="waterway" v="river" />
	</node>
	<node lat="68.31574999901058" lon="16.67363888247426" id="-11653">
		<tag k="name" v="Kvannhollbekken" />
		<tag k="ssr:stedsnr" v="25125" />
		<tag k="waterway" v="stream" />
	</node>
	<node lat="68.36776111466887" lon="16.881619432541235" id="-11658">
		<tag k="name" v="Saltvassodden" />
		<tag k="natural" v="cape" />
		<tag k="ssr:stedsnr" v="25279" />
	</node>
	<node lat="68.52215832965796" lon="17.365758340145774" id="-11660">
		<tag k="name" v="Fuglvatnan" />
		<tag k="natural" v="water" />
		<tag k="ssr:stedsnr" v="25283" />
		<tag k="water" v="lake" />
	</node>
	<node lat="68.40688611454534" lon="16.76365834318225" id="-11661">
		<tag k="name" v="Bekkelva" />
		<tag k="ssr:stedsnr" v="25286" />
		<tag k="waterway" v="river" />
	</node>
	<node lat="68.41016388536133" lon="17.316397230914035" id="-11667">
		<tag k="name" v="Mølnelva" />
		<tag k="ssr:stedsnr" v="25522" />
		<tag k="waterway" v="river" />
	</node>
	<node lat="68.18011389279326" lon="17.549644443145073" id="-11676">
		<tag k="name" v="Bogholmstranden" />
		<tag k="natural" v="beach" />
		<tag k="ssr:stedsnr" v="39077" />
	</node>
	<node lat="68.3698027782078" lon="16.55502778599465" id="-11679">
		<tag k="name" v="Snøgropelva" />
		<tag k="ssr:stedsnr" v="39569" />
		<tag k="waterway" v="stream" />
	</node>
	<node lat="68.20775000038005" lon="17.48810555654139" id="-11687">
		<tag k="name" v="Kobbhølla" />
		<tag k="natural" v="water" />
		<tag k="ssr:stedsnr" v="39679" />
		<tag k="water" v="lake" />
	</node>
	<node lat="68.5494666670124" lon="17.682411118097193" id="-11697">
		<tag k="name" v="Bjerkeneset" />
		<tag k="natural" v="cape" />
		<tag k="ssr:stedsnr" v="58175" />
	</node>
	<node lat="68.55504166900107" lon="17.74628889809832" id="-11699">
		<tag k="name" v="Lamholmen" />
		<tag k="place" v="islet" />
		<tag k="ssr:stedsnr" v="240260" />
	</node>
	<node lat="68.3742972191695" lon="17.98568054409357" id="-11707">
		<tag k="name" v="Tindelva" />
		<tag k="ssr:stedsnr" v="77150" />
		<tag k="waterway" v="stream" />
	</node>
	<node lat="68.35981111484388" lon="17.945783324595396" id="-11708">
		<tag k="name" v="Krokvatnet" />
		<tag k="natural" v="water" />
		<tag k="ssr:stedsnr" v="77154" />
	</node>
	<node lat="68.05700278128991" lon="17.861066668275587" id="-11716">
		<tag k="name" v="Trehakfjellvatnet" />
		<tag k="natural" v="water" />
		<tag k="ssr:stedsnr" v="77659" />
		<tag k="water" v="lake" />
	</node>
	<node lat="68.30957499746961" lon="17.043899990678007" id="-11748">
		<tag k="loc_name:se" v="Ráhajávrre" />
		<tag k="name" v="Ránujávri" />
		<tag k="name:no" v="Storvatnet" />
		<tag k="name:se" v="Ránujávri" />
		<tag k="natural" v="water" />
		<tag k="old_name:se" v="Ranojavri" />
		<tag k="ssr:stedsnr" v="79854" />
		<tag k="water" v="lake" />
	</node>
	<node lat="68.32233889248985" lon="16.67391667516992" id="-11773">
		<tag k="name" v="Pippirabekken" />
		<tag k="ssr:stedsnr" v="85096" />
		<tag k="waterway" v="stream" />
	</node>
	<node lat="68.5884972215567" lon="17.609491675543378" id="-11779">
		<tag k="name" v="Svartkråelva" />
		<tag k="ssr:stedsnr" v="86004" />
		<tag k="waterway" v="stream" />
	</node>
	<node lat="68.35078055435845" lon="16.95317221742288" id="-11789">
		<tag k="name" v="Åkerneselva" />
		<tag k="ssr:stedsnr" v="86387" />
		<tag k="waterway" v="stream" />
	</node>
	<node lat="68.3747583372001" lon="16.560666655236666" id="-11796">
		<tag k="name" v="Skredelva" />
		<tag k="ssr:stedsnr" v="100302" />
		<tag k="waterway" v="stream" />
	</node>
	<node lat="68.30088610805875" lon="17.359205560495074" id="-11801">
		<tag k="name" v="Mølnelva" />
		<tag k="ssr:stedsnr" v="100670" />
		<tag k="waterway" v="stream" />
	</node>
	<node lat="68.31276111224119" lon="16.784622232565688" id="-11806">
		<tag k="name" v="Storvika" />
		<tag k="natural" v="bay" />
		<tag k="ssr:stedsnr" v="100572" />
	</node>
	<node lat="68.36383333697242" lon="17.575750010570957" id="-11821">
		<tag k="name" v="Naustbakkelva" />
		<tag k="ssr:stedsnr" v="137107" />
		<tag k="waterway" v="stream" />
	</node>
	<node lat="68.34679999742647" lon="17.489933319627653" id="-11822">
		<tag k="name" v="Litlevatnet" />
		<tag k="natural" v="water" />
		<tag k="ssr:stedsnr" v="137092" />
	</node>
	<node lat="68.34247499789187" lon="17.75992221574182" id="-11823">
		<tag k="name" v="Klubbvatnet - Šlubbojávri" />
		<tag k="name:no" v="Klubbvatnet" />
		<tag k="name:se" v="Šlubbojávri" />
		<tag k="natural" v="water" />
		<tag k="ssr:stedsnr" v="137099" />
		<tag k="water" v="lake" />
	</node>
	<node lat="68.38556111052549" lon="17.597869442675968" id="-11829">
		<tag k="alt_name" v="Heimeelva" />
		<tag k="name" v="Heimelielva" />
		<tag k="ssr:stedsnr" v="138238" />
		<tag k="waterway" v="stream" />
	</node>
	<node lat="68.31977500271059" lon="16.703130546757393" id="-11835">
		<tag k="alt_name" v="Holbekken" />
		<tag k="name" v="Hulbekken" />
		<tag k="ssr:stedsnr" v="138647" />
		<tag k="waterway" v="stream" />
	</node>
	<node lat="68.05641389260714" lon="16.51884722138042" id="-11840">
		<tag k="name" v="Vesterskardvatnet" />
		<tag k="natural" v="water" />
		<tag k="ssr:stedsnr" v="138513" />
	</node>
	<node lat="68.29662222115589" lon="16.77172500706201" id="-11846">
		<tag k="name" v="Skogneset" />
		<tag k="natural" v="cape" />
		<tag k="ssr:stedsnr" v="138599" />
	</node>
	<node lat="68.37388611075929" lon="17.401838882976527" id="-11858">
		<tag k="name" v="Nervatnet - Vuollegeašjávri" />
		<tag k="name:no" v="Nervatnet" />
		<tag k="name:se" v="Vuollegeašjávri" />
		<tag k="natural" v="water" />
		<tag k="old_name:se" v="Vuollegæšjavri" />
		<tag k="ssr:stedsnr" v="138912" />
		<tag k="water" v="lake" />
	</node>
	<node lat="68.25510277931811" lon="16.989474995283985" id="-11864">
		<tag k="name" v="Botneidvatnan" />
		<tag k="natural" v="water" />
		<tag k="ssr:stedsnr" v="139787" />
	</node>
	<node lat="68.38311944197679" lon="17.395099997820463" id="-11865">
		<tag k="name" v="Akselelva" />
		<tag k="ssr:stedsnr" v="139943" />
		<tag k="waterway" v="stream" />
	</node>
	<node lat="68.37951111087604" lon="17.36296388165654" id="-11866">
		<tag k="name" v="Silvatnet" />
		<tag k="natural" v="water" />
		<tag k="ssr:stedsnr" v="139947" />
	</node>
	<node lat="68.35047222329598" lon="16.824886103330947" id="-11891">
		<tag k="name" v="Langblåelva" />
		<tag k="ssr:stedsnr" v="146404" />
		<tag k="waterway" v="river" />
	</node>
	<node lat="68.33102499623085" lon="16.823950002249063" id="-11892">
		<tag k="name" v="Kiselva" />
		<tag k="ssr:stedsnr" v="146428" />
		<tag k="waterway" v="river" />
	</node>
	<node lat="68.37152500316517" lon="17.823111113281264" id="-11901">
		<tag k="name" v="Daudvatnet" />
		<tag k="natural" v="water" />
		<tag k="ssr:stedsnr" v="259129" />
		<tag k="water" v="lake" />
	</node>
	<node lat="68.22723333425523" lon="18.032205545270987" id="-11913">
		<tag k="name" v="Sealggajohka" />
		<tag k="name:se" v="Sealggajohka" />
		<tag k="ssr:stedsnr" v="259614" />
		<tag k="waterway" v="river" />
	</node>
	<node lat="68.20049722500154" lon="17.608752775565414" id="-11920">
		<tag k="name" v="Unna-Loasaš" />
		<tag k="name:se" v="Unna-Loasaš" />
		<tag k="natural" v="water" />
		<tag k="old_name:se" v="Loasaš, unna" />
		<tag k="ssr:stedsnr" v="259676" />
	</node>
	<node lat="68.18790833059172" lon="16.870169453531517" id="-11921">
		<tag k="name" v="Skårvatnet" />
		<tag k="natural" v="water" />
		<tag k="ssr:stedsnr" v="259679" />
		<tag k="water" v="lake" />
	</node>
	<node lat="68.11605833642714" lon="17.214569438670623" id="-11923">
		<tag k="name" v="Forsvatnet" />
		<tag k="natural" v="water" />
		<tag k="ssr:stedsnr" v="259694" />
		<tag k="water" v="lake" />
	</node>
	<node lat="68.15803055637207" lon="17.174324989611407" id="-11924">
		<tag k="name" v="Snøvatnet" />
		<tag k="natural" v="water" />
		<tag k="ssr:stedsnr" v="259703" />
		<tag k="water" v="lake" />
	</node>
	<node lat="68.39533889308116" lon="16.71009166022554" id="-11927">
		<tag k="fixme" v="multiple name tags, choose one and add the other to alt_name" />
		<tag k="name" v="Skårneselva;Skarnesdalelva" />
		<tag k="ssr:stedsnr" v="259747" />
		<tag k="waterway" v="river" />
	</node>
	<node lat="68.27919999931095" lon="18.126841669565458" id="-11931">
		<tag k="name" v="Válfojohka" />
		<tag k="name:se" v="Válfojohka" />
		<tag k="ssr:stedsnr" v="260118" />
		<tag k="waterway" v="stream" />
	</node>
	<node lat="68.44101666759309" lon="17.469158326037057" id="-11936">
		<tag k="name" v="Taraldsvikelva" />
		<tag k="ssr:stedsnr" v="260234" />
		<tag k="waterway" v="stream" />
	</node>
	<node lat="68.2982499994102" lon="16.592883325167957" id="-11947">
		<tag k="alt_name" v="Gullikvatnet" />
		<tag k="name" v="Gulliklivatnet" />
		<tag k="natural" v="water" />
		<tag k="ssr:stedsnr" v="260634" />
	</node>
	<node lat="68.31393055146545" lon="16.602580562048967" id="-11948">
		<tag k="name" v="Skogelva" />
		<tag k="ssr:stedsnr" v="260635" />
		<tag k="waterway" v="stream" />
	</node>
	<node lat="68.2621805555798" lon="16.870588879191576" id="-11949">
		<tag k="name" v="Børsvatnet - Bođatjávri" />
		<tag k="name:no" v="Børsvatnet" />
		<tag k="name:se" v="Bođatjávri" />
		<tag k="natural" v="water" />
		<tag k="old_name:se" v="Bådatjavri" />
		<tag k="ssr:stedsnr" v="260639" />
		<tag k="water" v="lake" />
	</node>
	<node lat="68.33470277519643" lon="16.73659166951636" id="-11956">
		<tag k="name" v="Nøkkelelva" />
		<tag k="ssr:stedsnr" v="260690" />
		<tag k="waterway" v="stream" />
	</node>
	<node lat="68.54600833392503" lon="17.428199992242956" id="-11964">
		<tag k="name" v="Djupelva" />
		<tag k="ssr:stedsnr" v="260766" />
		<tag k="waterway" v="stream" />
	</node>
	<node lat="68.3801027748199" lon="16.34735555107607" id="-11966">
		<tag k="name" v="Lomtjønna" />
		<tag k="natural" v="water" />
		<tag k="ssr:stedsnr" v="260769" />
	</node>
	<node lat="68.22447500114401" lon="17.095813882720435" id="-11968">
		<tag k="name" v="Isvatnet" />
		<tag k="natural" v="water" />
		<tag k="ssr:stedsnr" v="260781" />
		<tag k="water" v="lake" />
	</node>
	<node lat="68.5458083295925" lon="17.714513873815974" id="-11969">
		<tag k="name" v="Kjukelva" />
		<tag k="ssr:stedsnr" v="260782" />
		<tag k="waterway" v="stream" />
	</node>
	<node lat="68.54325555553669" lon="17.766466653459197" id="-11970">
		<tag k="name" v="Litlebalakvatnet - Bálakjávri" />
		<tag k="name:no" v="Litlebalakvatnet" />
		<tag k="name:se" v="Bálakjávri" />
		<tag k="natural" v="water" />
		<tag k="old_name:se" v="Balagjavri" />
		<tag k="ssr:stedsnr" v="260784" />
	</node>
	<node lat="68.32692777752239" lon="17.29373334167597" id="-11977">
		<tag k="alt_name" v="Skjelelva" />
		<tag k="name" v="Skjellelva" />
		<tag k="ssr:stedsnr" v="260876" />
		<tag k="waterway" v="stream" />
	</node>
	<node lat="68.34204166666511" lon="16.9317444354924" id="-11984">
		<tag k="name" v="Arneselva" />
		<tag k="ssr:stedsnr" v="260942" />
		<tag k="waterway" v="stream" />
	</node>
	<node lat="68.37677222593533" lon="17.137330543513514" id="-11989">
		<tag k="name" v="Djupåga" />
		<tag k="ssr:stedsnr" v="260976" />
		<tag k="waterway" v="stream" />
	</node>
	<node lat="68.27861944341956" lon="16.71145000868811" id="-12036">
		<tag k="name" v="Grunnvatnet" />
		<tag k="natural" v="water" />
		<tag k="ssr:stedsnr" v="198572" />
		<tag k="water" v="lake" />
	</node>
	<node lat="68.38541389240437" lon="17.599261115298038" id="-12049">
		<tag k="name" v="Kaldelva" />
		<tag k="ssr:stedsnr" v="199258" />
		<tag k="waterway" v="stream" />
	</node>
	<node lat="68.35738098583676" lon="16.50417132276242" id="-12055">
		<tag k="alt_name" v="Kobbedalselva" />
		<tag k="loc_name" v="Koppdalselva" />
		<tag k="name" v="Kobbdalselva" />
		<tag k="ssr:stedsnr" v="199709" />
		<tag k="waterway" v="stream" />
	</node>
	<node lat="68.35518055747609" lon="16.733988900254992" id="-12058">
		<tag k="name" v="Langvatnet" />
		<tag k="natural" v="water" />
		<tag k="ssr:stedsnr" v="199719" />
	</node>
	<node lat="68.13127222621094" lon="17.050388894461395" id="-12059">
		<tag k="name" v="Langvatnet - Guovddelisjávrre" />
		<tag k="name:no" v="Langvatnet" />
		<tag k="name:se" v="Guovddelisjávrre" />
		<tag k="natural" v="water" />
		<tag k="old_name:se" v="Guovdelasjávri;Guovddelasjávrre" />
		<tag k="ssr:stedsnr" v="199722" />
		<tag k="water" v="lake" />
	</node>
	<node lat="68.09130833215075" lon="17.014780558436502" id="-12061">
		<tag k="name" v="Baugevatnet" />
		<tag k="natural" v="water" />
		<tag k="ssr:stedsnr" v="199729" />
		<tag k="water" v="lake" />
	</node>
	<node lat="68.2224055576059" lon="16.869033340568702" id="-12062">
		<tag k="name" v="Sennvatnet" />
		<tag k="natural" v="water" />
		<tag k="ssr:stedsnr" v="199759" />
	</node>
	<node lat="68.52005278175068" lon="18.102536100412078" id="-12077">
		<tag k="name" v="Reavrrejávri" />
		<tag k="name:se" v="Reavrrejávri" />
		<tag k="natural" v="water" />
		<tag k="old_name:se" v="Rævrejavri" />
		<tag k="ssr:stedsnr" v="200271" />
		<tag k="water" v="lake" />
	</node>
	<node lat="68.57111944246202" lon="17.44070556235502" id="-12085">
		<tag k="name" v="Heimvatnet" />
		<tag k="natural" v="water" />
		<tag k="ssr:stedsnr" v="200698" />
	</node>
	<node lat="68.52697777880311" lon="17.329669437808118" id="-12092">
		<tag k="name" v="Langvatnet" />
		<tag k="natural" v="water" />
		<tag k="ssr:stedsnr" v="202608" />
	</node>
	<node lat="68.56150555776517" lon="17.719550005628534" id="-12102">
		<tag k="name" v="Bierrajohka" />
		<tag k="name:se" v="Bierrajohka" />
		<tag k="ssr:stedsnr" v="268056" />
		<tag k="waterway" v="stream" />
	</node>
	<node lat="68.42813888937398" lon="17.56683332262959" id="-12106">
		<tag k="name" v="Isvatnet - Jiekŋajávri" />
		<tag k="name:no" v="Isvatnet" />
		<tag k="name:se" v="Jiekŋajávri" />
		<tag k="natural" v="water" />
		<tag k="ssr:stedsnr" v="204691" />
		<tag k="water" v="lake" />
	</node>
	<node lat="68.36543055397199" lon="16.88541110055493" id="-12111">
		<tag k="name" v="Husvatnet" />
		<tag k="natural" v="water" />
		<tag k="ssr:stedsnr" v="268256" />
	</node>
	<node lat="68.1831666641709" lon="17.55304722359453" id="-12156">
		<tag k="name" v="Vinbærholmen" />
		<tag k="place" v="islet" />
		<tag k="ssr:stedsnr" v="221082" />
	</node>
	<node lat="68.50839444654981" lon="17.360261116105942" id="-12174">
		<tag k="name" v="Hansevadet" />
		<tag k="place" v="locality" />
		<tag k="ssr:stedsnr" v="450261" />
	</node>
	<node lat="68.41024166518291" lon="17.38784720758372" id="-12193">
		<tag k="name" v="Vedbergelva" />
		<tag k="ssr:stedsnr" v="450626" />
		<tag k="waterway" v="river" />
	</node>
	<node lat="68.38658888656734" lon="16.89461943769745" id="-12206">
		<tag k="alt_name" v="Jektnes" />
		<tag k="name" v="Jektneset" />
		<tag k="natural" v="cape" />
		<tag k="ssr:stedsnr" v="451433" />
	</node>
	<node lat="68.0420166645208" lon="16.377066656590994" id="-12223">
		<tag k="name" v="Storelva" />
		<tag k="ssr:stedsnr" v="259817" />
		<tag k="waterway" v="stream" />
	</node>
	<node lat="68.45599166285047" lon="17.720438875527584" id="-12228">
		<tag k="name" v="Strandelva" />
		<tag k="ssr:stedsnr" v="260254" />
		<tag k="waterway" v="stream" />
	</node>
	<node lat="68.10721944494256" lon="16.3622388821805" id="-12231">
		<tag k="fixme" v="multiple name tags, choose one and add the other to alt_name" />
		<tag k="name" v="Hestneselva;Kjøpsvikvatnelva" />
		<tag k="ssr:stedsnr" v="260603" />
		<tag k="waterway" v="stream" />
	</node>
	<node lat="68.59195832959279" lon="17.626602763357578" id="-12232">
		<tag k="name" v="Diamantdalsvatnan" />
		<tag k="natural" v="water" />
		<tag k="ssr:stedsnr" v="260551" />
		<tag k="water" v="lake" />
	</node>
	<node lat="68.57562778172675" lon="17.548013890877243" id="-12236">
		<tag k="alt_name" v="Snøslettelva" />
		<tag k="name" v="Snyslettelva" />
		<tag k="ssr:stedsnr" v="260564" />
		<tag k="waterway" v="stream" />
	</node>
	<node lat="68.35825277789242" lon="17.04406943382232" id="-12243">
		<tag k="name" v="Rånbogelva" />
		<tag k="ssr:stedsnr" v="260958" />
		<tag k="waterway" v="stream" />
	</node>
	<node lat="68.53541666723785" lon="17.319613890108048" id="-12249">
		<tag k="name" v="Gåsvatnet" />
		<tag k="natural" v="water" />
		<tag k="ssr:stedsnr" v="263574" />
	</node>
	<node lat="68.40133333773295" lon="16.762861104177745" id="-12277">
		<tag k="name" v="Stabburselva" />
		<tag k="ssr:stedsnr" v="268279" />
		<tag k="waterway" v="river" />
	</node>
	<node lat="68.40926944430346" lon="17.45166667372462" id="-12290">
		<tag k="name" v="Mølnelva" />
		<tag k="ssr:stedsnr" v="273909" />
		<tag k="waterway" v="river" />
	</node>
	<node lat="68.34446111135205" lon="16.076983339369928" id="-12295">
		<tag k="name" v="Diket" />
		<tag k="natural" v="water" />
		<tag k="ssr:stedsnr" v="282386" />
	</node>
	<node lat="68.26926666623936" lon="16.71343609830391" id="-12300">
		<tag k="name" v="Eggevika" />
		<tag k="natural" v="bay" />
		<tag k="ssr:stedsnr" v="282624" />
	</node>
	<node lat="68.3666583337538" lon="17.44775000921967" id="-12302">
		<tag k="name" v="Klubbneset" />
		<tag k="natural" v="cape" />
		<tag k="ssr:stedsnr" v="282629" />
	</node>
	<node lat="68.35140555388513" lon="16.58732220962663" id="-12306">
		<tag k="name" v="Mølnelva" />
		<tag k="ssr:stedsnr" v="282697" />
		<tag k="waterway" v="stream" />
	</node>
	<node lat="68.21104166836275" lon="17.487111112511307" id="-12307">
		<tag k="name" v="Hestneset" />
		<tag k="natural" v="cape" />
		<tag k="ssr:stedsnr" v="282718" />
	</node>
	<node lat="68.21065833049013" lon="17.4922611144392" id="-12308">
		<tag k="name" v="Hesthølla" />
		<tag k="natural" v="water" />
		<tag k="ssr:stedsnr" v="282724" />
		<tag k="water" v="lake" />
	</node>
	<node lat="68.1814222180855" lon="17.549136109363058" id="-12322">
		<tag k="name" v="Lorishølla" />
		<tag k="natural" v="water" />
		<tag k="ssr:stedsnr" v="464116" />
		<tag k="water" v="lake" />
	</node>
	<node lat="68.15472777922706" lon="16.690344448513148" id="-12343">
		<tag k="alt_name" v="Koppvatnet, l" />
		<tag k="name" v="Litle Koppvatnet" />
		<tag k="natural" v="water" />
		<tag k="ssr:stedsnr" v="320602" />
	</node>
	<node lat="68.21138333554092" lon="17.098577768133307" id="-12348">
		<tag k="name" v="Straumvatnet" />
		<tag k="natural" v="water" />
		<tag k="ssr:stedsnr" v="320696" />
	</node>
	<node lat="68.30490000227877" lon="16.752605546009946" id="-12355">
		<tag k="name" v="Høgholman" />
		<tag k="place" v="islet" />
		<tag k="ssr:stedsnr" v="320594" />
	</node>
	<node lat="68.12457221996635" lon="17.23408055886795" id="-12359">
		<tag k="name" v="Vadbakkvatnet" />
		<tag k="natural" v="water" />
		<tag k="ssr:stedsnr" v="320706" />
	</node>
	<node lat="68.51386944245719" lon="17.579305540700325" id="-12367">
		<tag k="name" v="Gårdselva" />
		<tag k="ssr:stedsnr" v="321603" />
		<tag k="waterway" v="stream" />
	</node>
	<node lat="68.57758889026032" lon="17.446538888932693" id="-12371">
		<tag k="name" v="Maridalsvatnet - Váibmojávri" />
		<tag k="name:no" v="Maridalsvatnet" />
		<tag k="name:se" v="Váibmojávri" />
		<tag k="natural" v="water" />
		<tag k="old_name:se" v="Vaibmujavri" />
		<tag k="ssr:stedsnr" v="321513" />
		<tag k="water" v="lake" />
	</node>
	<node lat="68.60926944947151" lon="17.846655542220443" id="-12372">
		<tag k="name" v="Riikojávri - Grasvatnet" />
		<tag k="name:no" v="Grasvatnet" />
		<tag k="name:se" v="Riikojávri" />
		<tag k="natural" v="water" />
		<tag k="old_name:se" v="Riikujavri" />
		<tag k="ssr:stedsnr" v="321525" />
		<tag k="water" v="lake" />
	</node>
	<node lat="68.57366666744096" lon="17.45111388170573" id="-12379">
		<tag k="name" v="Rompa" />
		<tag k="natural" v="water" />
		<tag k="ssr:stedsnr" v="321685" />
	</node>
	<node lat="68.34889999672201" lon="17.1724694469642" id="-12386">
		<tag k="name" v="Bakhammarvatnet" />
		<tag k="natural" v="water" />
		<tag k="ssr:stedsnr" v="321882" />
	</node>
	<node lat="68.37881944327385" lon="16.61671667630775" id="-12415">
		<tag k="name" v="Lille Holmvatnet" />
		<tag k="natural" v="water" />
		<tag k="ssr:stedsnr" v="328158" />
		<tag k="water" v="lake" />
	</node>
	<node lat="68.33910278085382" lon="17.019683342454098" id="-12418">
		<tag k="name" v="Kringelneset" />
		<tag k="natural" v="cape" />
		<tag k="ssr:stedsnr" v="328358" />
	</node>
	<node lat="68.47265833364875" lon="17.644686117176107" id="-12419">
		<tag k="name" v="Mølnelva" />
		<tag k="ssr:stedsnr" v="328362" />
		<tag k="waterway" v="river" />
	</node>
	<node lat="68.06899166568033" lon="16.442133330811203" id="-12422">
		<tag k="name" v="Skredelva" />
		<tag k="ssr:stedsnr" v="328572" />
		<tag k="waterway" v="stream" />
	</node>
	<node lat="68.3893916678632" lon="16.82608888724741" id="-12430">
		<tag k="name" v="Lillevatnet" />
		<tag k="natural" v="water" />
		<tag k="ssr:stedsnr" v="329263" />
	</node>
	<node lat="68.27002500153259" lon="16.713130551580736" id="-12444">
		<tag k="name" v="Skogholmen" />
		<tag k="natural" v="cape" />
		<tag k="ssr:stedsnr" v="342610" />
	</node>
	<node lat="68.34549167062393" lon="17.28607499434632" id="-12446">
		<tag k="name" v="Teistbergelva" />
		<tag k="ssr:stedsnr" v="342806" />
		<tag k="waterway" v="stream" />
	</node>
	<node lat="68.38179444331844" lon="16.56613889116752" id="-12449">
		<tag k="name" v="Grønlibekkelva" />
		<tag k="ssr:stedsnr" v="342584" />
		<tag k="waterway" v="stream" />
	</node>
	<node lat="68.27578888755372" lon="16.721408323652096" id="-12451">
		<tag k="name" v="Vassvika" />
		<tag k="natural" v="bay" />
		<tag k="ssr:stedsnr" v="342601" />
	</node>
	<node lat="68.38603055371735" lon="17.593733332046025" id="-12460">
		<tag k="name" v="Fjøsneselva" />
		<tag k="ssr:stedsnr" v="380210" />
		<tag k="waterway" v="stream" />
	</node>
	<node lat="68.38247221891488" lon="17.95148889135884" id="-12462">
		<tag k="name" v="Karlsenvatnet" />
		<tag k="natural" v="water" />
		<tag k="ssr:stedsnr" v="380219" />
	</node>
	<node lat="68.26328611524487" lon="16.803133331141872" id="-12471">
		<tag k="name" v="Hesteskovatnet" />
		<tag k="natural" v="water" />
		<tag k="ssr:stedsnr" v="380585" />
	</node>
	<node lat="68.2775722231684" lon="16.711902765920318" id="-12473">
		<tag k="name" v="Hestholmen" />
		<tag k="place" v="islet" />
		<tag k="ssr:stedsnr" v="380605" />
	</node>
	<node lat="68.42074999930165" lon="18.06024998934278" id="-12480">
		<tag k="name" v="Sivertsenvatnet" />
		<tag k="natural" v="water" />
		<tag k="ssr:stedsnr" v="381108" />
	</node>
	<node lat="68.45975555875353" lon="18.037888888639802" id="-12484">
		<tag k="name" v="Geitvatnan" />
		<tag k="name:no" v="Geitvatnan" />
		<tag k="name:se" v="Gáicajávrrit" />
		<tag k="natural" v="water" />
		<tag k="ssr:stedsnr" v="381179" />
	</node>
	<node lat="68.4168333314451" lon="17.691288889584502" id="-12485">
		<tag k="name" v="Boazojávri" />
		<tag k="name:se" v="Boazojávri" />
		<tag k="natural" v="water" />
		<tag k="ssr:stedsnr" v="381268" />
	</node>
	<node lat="68.33876944929504" lon="16.351180547476897" id="-12486">
		<tag k="name" v="Kutjønna" />
		<tag k="natural" v="water" />
		<tag k="ssr:stedsnr" v="381704" />
	</node>
	<node lat="68.35667500343042" lon="16.545647215899354" id="-12489">
		<tag k="loc_name" v="Firholtelva" />
		<tag k="name" v="Tirholelva" />
		<tag k="ssr:stedsnr" v="381716" />
		<tag k="waterway" v="stream" />
	</node>
	<node lat="68.36326110765755" lon="16.591208335058266" id="-12495">
		<tag k="name" v="Stopålvatnet" />
		<tag k="natural" v="water" />
		<tag k="ssr:stedsnr" v="381744" />
		<tag k="water" v="lake" />
	</node>
	<node lat="68.34383333176122" lon="16.942544444851674" id="-12512">
		<tag k="alt_name" v="Skjelelva" />
		<tag k="name" v="Skjellelva" />
		<tag k="ssr:stedsnr" v="382904" />
		<tag k="waterway" v="stream" />
	</node>
	<node lat="68.33394444449313" lon="16.836602787081436" id="-12537">
		<tag k="name" v="Steinabekken" />
		<tag k="ssr:stedsnr" v="388421" />
		<tag k="waterway" v="stream" />
	</node>
	<node lat="68.1643694430039" lon="16.81673332174447" id="-12540">
		<tag k="alt_name" v="Okselva" />
		<tag k="name" v="Økselva" />
		<tag k="ssr:stedsnr" v="388843" />
		<tag k="waterway" v="stream" />
	</node>
	<node lat="68.33355000408699" lon="17.049961111822327" id="-12577">
		<tag k="name" v="Telgelandskilda" />
		<tag k="ssr:stedsnr" v="403929" />
		<tag k="waterway" v="stream" />
	</node>
	<node lat="68.37391666585823" lon="17.393400000159893" id="-12579">
		<tag k="name" v="Trongen" />
		<tag k="natural" v="strait" />
		<tag k="ssr:stedsnr" v="403677" />
	</node>
	<node lat="68.3591222193355" lon="17.488222207006224" id="-12593">
		<tag k="name" v="Larselva" />
		<tag k="ssr:stedsnr" v="441144" />
		<tag k="waterway" v="stream" />
	</node>
	<node lat="68.29299166983272" lon="16.798572221456" id="-12601">
		<tag k="name" v="Sjuriholmen" />
		<tag k="place" v="islet" />
		<tag k="ssr:stedsnr" v="441596" />
	</node>
	<node lat="68.28710833493133" lon="16.7962055598376" id="-12602">
		<tag k="name" v="Tømmervika" />
		<tag k="natural" v="bay" />
		<tag k="ssr:stedsnr" v="441599" />
	</node>
	<node lat="68.1970861139344" lon="17.105841656423557" id="-12603">
		<tag k="alt_name" v="Bukkevatnet, nordre" />
		<tag k="name" v="Nordre Bukkevatnet" />
		<tag k="natural" v="water" />
		<tag k="ssr:stedsnr" v="441710" />
		<tag k="water" v="lake" />
	</node>
	<node lat="68.09684166319508" lon="17.22868334034298" id="-12604">
		<tag k="name" v="Sijdasjávrre" />
		<tag k="name:smj" v="Sijdasjávrre" />
		<tag k="natural" v="water" />
		<tag k="old_name:smj" v="Siidasjávri;Siiddasjávri" />
		<tag k="ssr:stedsnr" v="441718" />
	</node>
	<node lat="68.12286944753068" lon="17.58978334323664" id="-12606">
		<tag k="name" v="Holmen" />
		<tag k="place" v="islet" />
		<tag k="ssr:stedsnr" v="441664" />
	</node>
	<node lat="68.2678527805496" lon="16.73567499908164" id="-12611">
		<tag k="name" v="Botnelva" />
		<tag k="ssr:stedsnr" v="442446" />
		<tag k="waterway" v="stream" />
	</node>
	<node lat="68.29357862879372" lon="16.694644364744807" id="-12615">
		<tag k="name" v="Knutvatnet" />
		<tag k="natural" v="water" />
		<tag k="ssr:stedsnr" v="442588" />
	</node>
	<node lat="68.39926667100612" lon="17.32745832538848" id="-12671">
		<tag k="name" v="Revneset" />
		<tag k="natural" v="cape" />
		<tag k="ssr:stedsnr" v="450964" />
	</node>
	<node lat="68.332358336686" lon="17.228033333748137" id="-12675">
		<tag k="name" v="Kjerringelva" />
		<tag k="ssr:stedsnr" v="455010" />
		<tag k="waterway" v="river" />
	</node>
	<node lat="68.20197500332661" lon="17.5287472304709" id="-12679">
		<tag k="name" v="Øverneset" />
		<tag k="natural" v="cape" />
		<tag k="ssr:stedsnr" v="464008" />
	</node>
	<node lat="68.27598055387402" lon="16.706116658248522" id="-12690">
		<tag k="name" v="Sommarsetlandet" />
		<tag k="natural" v="cape" />
		<tag k="ssr:stedsnr" v="464664" />
	</node>
	<node lat="68.54312777643392" lon="17.72374999444537" id="-12695">
		<tag k="name" v="Krokelva" />
		<tag k="ssr:stedsnr" v="483184" />
		<tag k="waterway" v="stream" />
	</node>
	<node lat="68.16644721894122" lon="16.639894434793202" id="-12701">
		<tag k="name" v="Koppvatnet" />
		<tag k="natural" v="water" />
		<tag k="ssr:stedsnr" v="502611" />
		<tag k="water" v="lake" />
	</node>
	<node lat="68.15666944494933" lon="16.714319450759564" id="-12704">
		<tag k="alt_name" v="Koppelva" />
		<tag k="name" v="Koppvasselva" />
		<tag k="ssr:stedsnr" v="502616" />
		<tag k="waterway" v="stream" />
	</node>
	<node lat="68.34298611366555" lon="16.54054165867368" id="-12711">
		<tag k="name" v="Jernelva" />
		<tag k="ssr:stedsnr" v="502686" />
		<tag k="waterway" v="stream" />
	</node>
	<node lat="68.34908055697038" lon="16.59253332320078" id="-12713">
		<tag k="name" v="Kvitforselva" />
		<tag k="ssr:stedsnr" v="502688" />
		<tag k="waterway" v="stream" />
	</node>
	<node lat="68.1097222233379" lon="16.81391387915036" id="-12722">
		<tag k="name" v="Gámalåptjávrre - Gammeloftvatnet" />
		<tag k="name:no" v="Gammeloftvatnet" />
		<tag k="name:smj" v="Gámalåptjávrre" />
		<tag k="natural" v="water" />
		<tag k="old_name:smj" v="Gámaloptjávri" />
		<tag k="ssr:stedsnr" v="502576" />
		<tag k="water" v="lake" />
	</node>
	<node lat="68.14159999969304" lon="17.298080564654665" id="-12731">
		<tag k="name" v="Middagsvatnet - Gaskabeaijávri" />
		<tag k="name:no" v="Middagsvatnet" />
		<tag k="name:se" v="Gaskabeaijávri" />
		<tag k="natural" v="water" />
		<tag k="ssr:stedsnr" v="502731" />
		<tag k="water" v="lake" />
	</node>
	<node lat="68.36744999818187" lon="18.010227783989276" id="-12736">
		<tag k="name" v="Tindvatnet" />
		<tag k="natural" v="water" />
		<tag k="ssr:stedsnr" v="503084" />
		<tag k="water" v="lake" />
	</node>
	<node lat="68.41064722701886" lon="18.076208324197466" id="-12737">
		<tag k="name" v="Jovikvatnet" />
		<tag k="natural" v="water" />
		<tag k="ssr:stedsnr" v="503089" />
	</node>
	<node lat="68.3301194431053" lon="16.83616111998737" id="-12740">
		<tag k="name" v="Stria" />
		<tag k="ssr:stedsnr" v="503437" />
		<tag k="waterway" v="stream" />
	</node>
	<node lat="68.40176388921125" lon="16.730494451104786" id="-12757">
		<tag k="name" v="Olmostjønna" />
		<tag k="natural" v="water" />
		<tag k="ssr:stedsnr" v="510264" />
	</node>
	<node lat="68.37099444103814" lon="16.88768888778365" id="-12767">
		<tag k="name" v="Storelva" />
		<tag k="ssr:stedsnr" v="510306" />
		<tag k="waterway" v="stream" />
	</node>
	<node lat="68.35051944241052" lon="16.949241671183884" id="-12770">
		<tag k="name" v="Lundelva" />
		<tag k="ssr:stedsnr" v="510358" />
		<tag k="waterway" v="stream" />
	</node>
	<node lat="68.23754999575779" lon="16.765775007847946" id="-12784">
		<tag k="name" v="Lillevatnet" />
		<tag k="natural" v="water" />
		<tag k="ssr:stedsnr" v="513778" />
	</node>
	<node lat="68.37889722322822" lon="17.489827774088088" id="-12788">
		<tag k="name" v="Njoammeljávri" />
		<tag k="name:no" v="Harhausvatnet" />
		<tag k="name:se" v="Njoammeljávri" />
		<tag k="natural" v="water" />
		<tag k="ssr:stedsnr" v="684236" />
		<tag k="water" v="lake" />
	</node>
	<node lat="68.17563333351293" lon="16.802063889287652" id="-12797">
		<tag k="name" v="Skårvasseidet" />
		<tag k="place" v="locality" />
		<tag k="ssr:stedsnr" v="684584" />
	</node>
	<node lat="68.30117777863147" lon="16.737455562008666" id="-12806">
		<tag k="name" v="Haugvika" />
		<tag k="natural" v="bay" />
		<tag k="ssr:stedsnr" v="684587" />
	</node>
	<node lat="68.1872499966672" lon="17.176438891105576" id="-12810">
		<tag k="name" v="Kjelvatnet" />
		<tag k="natural" v="water" />
		<tag k="ssr:stedsnr" v="684673" />
		<tag k="water" v="lake" />
	</node>
	<node lat="68.35114722076747" lon="16.535391669941045" id="-12812">
		<tag k="name" v="Stordalselva" />
		<tag k="name:no" v="Stordalselva" />
		<tag k="name:se" v="Gobdariehpijohka" />
		<tag k="ssr:stedsnr" v="684685" />
		<tag k="waterway" v="stream" />
	</node>
	<node lat="68.23070833043326" lon="16.86117222001506" id="-12817">
		<tag k="alt_name" v="Sennvatnet, l" />
		<tag k="name" v="Litle Sennvatnet" />
		<tag k="natural" v="water" />
		<tag k="ssr:stedsnr" v="684735" />
	</node>
	<node lat="68.38804722549455" lon="18.009405544846988" id="-12821">
		<tag k="name" v="Skieltejohka" />
		<tag k="name:se" v="Skieltejohka" />
		<tag k="ssr:stedsnr" v="685085" />
		<tag k="waterway" v="stream" />
	</node>
	<node lat="68.37401666753335" lon="17.37891109861848" id="-12840">
		<tag k="name" v="Myggbukta" />
		<tag k="natural" v="bay" />
		<tag k="ssr:stedsnr" v="524657" />
	</node>
	<node lat="68.5387000034779" lon="17.59870277610247" id="-12848">
		<tag k="name" v="Medbyelva" />
		<tag k="ssr:stedsnr" v="685706" />
		<tag k="waterway" v="stream" />
	</node>
	<node lat="68.54411389152887" lon="17.637983320520583" id="-12850">
		<tag k="name" v="Fjellkråelva" />
		<tag k="ssr:stedsnr" v="685715" />
		<tag k="waterway" v="stream" />
	</node>
	<node lat="68.55761110755465" lon="17.6813888855888" id="-12854">
		<tag k="name" v="Hartvikvatnet - Árajávri" />
		<tag k="name:no" v="Hartvikvatnet" />
		<tag k="name:se" v="Árajávri" />
		<tag k="natural" v="water" />
		<tag k="old_name:se" v="Arajavri" />
		<tag k="ssr:stedsnr" v="685674" />
		<tag k="water" v="lake" />
	</node>
	<node lat="68.55540000462226" lon="17.444261098818707" id="-12855">
		<tag k="name" v="Grovfjordeidet" />
		<tag k="place" v="locality" />
		<tag k="ssr:stedsnr" v="685677" />
	</node>
	<node lat="68.54810000347123" lon="17.7931138961434" id="-12856">
		<tag k="name" v="Kopparfjellelva" />
		<tag k="ssr:stedsnr" v="685686" />
		<tag k="waterway" v="river" />
	</node>
	<node lat="68.57185833122792" lon="17.430900002163987" id="-12857">
		<tag k="name" v="Elvevatnet" />
		<tag k="natural" v="water" />
		<tag k="ssr:stedsnr" v="685688" />
	</node>
	<node lat="68.33549721995837" lon="16.877558338387907" id="-12866">
		<tag k="alt_name" v="Kaldåga" />
		<tag k="name" v="Kaldåa" />
		<tag k="ssr:stedsnr" v="685854" />
		<tag k="waterway" v="stream" />
	</node>
	<node lat="68.30610833659067" lon="17.05940278062088" id="-12867">
		<tag k="name" v="Støttingsneset" />
		<tag k="natural" v="cape" />
		<tag k="ssr:stedsnr" v="685859" />
	</node>
	<node lat="68.30368610815124" lon="17.056663892565282" id="-12868">
		<tag k="name" v="Kvitsteinneset" />
		<tag k="natural" v="cape" />
		<tag k="ssr:stedsnr" v="685862" />
	</node>
	<node lat="68.30412499973997" lon="17.117225004320215" id="-12874">
		<tag k="name" v="Eiterelva" />
		<tag k="ssr:stedsnr" v="685816" />
		<tag k="waterway" v="river" />
	</node>
	<node lat="68.34687778025999" lon="17.14044999270802" id="-12877">
		<tag k="name" v="Vesterdalselva" />
		<tag k="ssr:stedsnr" v="685896" />
		<tag k="waterway" v="stream" />
	</node>
	<node lat="68.35596389076028" lon="17.007288879108458" id="-12880">
		<tag k="name" v="Saltvatnet" />
		<tag k="natural" v="water" />
		<tag k="ssr:stedsnr" v="685929" />
	</node>
	<node lat="68.3980611113162" lon="17.334630553606093" id="-12883">
		<tag k="name" v="Håkvikelva" />
		<tag k="name:no" v="Håkvikelva" />
		<tag k="name:se" v="Ginnasvuomijohka" />
		<tag k="old_name:se" v="Ginnasvuomejåkka" />
		<tag k="ssr:stedsnr" v="685994" />
		<tag k="waterway" v="river" />
	</node>
	<node lat="68.38001111495502" lon="17.09741387659625" id="-12885">
		<tag k="name" v="Åga" />
		<tag k="ssr:stedsnr" v="685960" />
		<tag k="waterway" v="stream" />
	</node>
	<node lat="68.56309444778613" lon="17.388691654658146" id="-12892">
		<tag k="name" v="Isaksentjønna" />
		<tag k="natural" v="water" />
		<tag k="ssr:stedsnr" v="687924" />
	</node>
	<node lat="68.46895833191039" lon="17.653594447491212" id="-12918">
		<tag k="name" v="Simavikelva" />
		<tag k="ssr:stedsnr" v="692359" />
		<tag k="waterway" v="river" />
	</node>
	<node lat="68.25956389280198" lon="17.408183344773143" id="-12923">
		<tag k="name" v="Mølnbekken" />
		<tag k="ssr:stedsnr" v="692541" />
		<tag k="waterway" v="stream" />
	</node>
	<node lat="68.39655277350366" lon="16.84228611732448" id="-12951">
		<tag k="name" v="Merkingsåa" />
		<tag k="ssr:stedsnr" v="693295" />
		<tag k="waterway" v="stream" />
	</node>
	<node lat="68.53674166914799" lon="17.388930559790353" id="-12954">
		<tag k="name" v="Langmyrvatnet" />
		<tag k="natural" v="water" />
		<tag k="ssr:stedsnr" v="693352" />
		<tag k="water" v="lake" />
	</node>
	<node lat="68.29850833683648" lon="16.659363883487337" id="-12964">
		<tag k="name" v="Svanholmen" />
		<tag k="place" v="islet" />
		<tag k="ssr:stedsnr" v="571160" />
	</node>
	<node lat="68.43279999786732" lon="17.67091666424558" id="-12965">
		<tag k="name" v="Lielva" />
		<tag k="ssr:stedsnr" v="571008" />
		<tag k="waterway" v="river" />
	</node>
	<node lat="68.36923333426823" lon="16.894522229174594" id="-12976">
		<tag k="name" v="Husvatnet" />
		<tag k="natural" v="water" />
		<tag k="ssr:stedsnr" v="571248" />
	</node>
	<node lat="68.52843055699941" lon="17.426799986129403" id="-12982">
		<tag k="name" v="Stakkedalselva" />
		<tag k="ssr:stedsnr" v="571263" />
		<tag k="waterway" v="river" />
	</node>
	<node lat="68.35453611470359" lon="16.78925000482571" id="-12988">
		<tag k="name" v="Kvantoelva" />
		<tag k="ssr:stedsnr" v="571448" />
		<tag k="waterway" v="stream" />
	</node>
	<node lat="68.31100555813632" lon="16.747886099612945" id="-13004">
		<tag k="name" v="Skanshaugvika" />
		<tag k="natural" v="bay" />
		<tag k="ssr:stedsnr" v="585554" />
	</node>
	<node lat="68.36829167002792" lon="16.660763892681672" id="-13007">
		<tag k="name" v="Småvatnan" />
		<tag k="natural" v="water" />
		<tag k="ssr:stedsnr" v="585697" />
		<tag k="water" v="lake" />
	</node>
	<node lat="68.36553333314805" lon="17.863561105935716" id="-13020">
		<tag k="name" v="Ruoidnajávri" />
		<tag k="name:no" v="Inner-Sildvikvatnet" />
		<tag k="name:se" v="Ruoidnajávri" />
		<tag k="natural" v="water" />
		<tag k="ssr:stedsnr" v="623163" />
		<tag k="water" v="lake" />
	</node>
	<node lat="68.36558333410554" lon="17.433527784397796" id="-13021">
		<tag k="name" v="Revneset" />
		<tag k="natural" v="cape" />
		<tag k="ssr:stedsnr" v="623164" />
	</node>
	<node lat="68.29121388693137" lon="16.725597232111603" id="-13025">
		<tag k="name" v="Durmålselva" />
		<tag k="ssr:stedsnr" v="623611" />
		<tag k="waterway" v="stream" />
	</node>
	<node lat="68.30480833433323" lon="16.78081389926653" id="-13026">
		<tag k="name" v="Hestneset" />
		<tag k="natural" v="cape" />
		<tag k="ssr:stedsnr" v="623613" />
	</node>
	<node lat="68.17688333085562" lon="16.627205560146837" id="-13028">
		<tag k="name" v="Stefjordeidet" />
		<tag k="place" v="locality" />
		<tag k="ssr:stedsnr" v="623621" />
	</node>
	<node lat="68.06515555942174" lon="16.761816675008333" id="-13030">
		<tag k="alt_name" v="Elveskardselva" />
		<tag k="name" v="Elveskardelva" />
		<tag k="ssr:stedsnr" v="623521" />
		<tag k="waterway" v="stream" />
	</node>
	<node lat="68.06682221827843" lon="16.58415554539558" id="-13034">
		<tag k="alt_name" v="Mølnelvvatnet, nedre" />
		<tag k="name" v="Nedre Mølnelvvatnet" />
		<tag k="natural" v="water" />
		<tag k="ssr:stedsnr" v="623570" />
	</node>
	<node lat="68.17649444352443" lon="17.109119452292965" id="-13038">
		<tag k="alt_name" v="Bukkevatnet, s" />
		<tag k="name" v="Søndre Bukkevatnet" />
		<tag k="natural" v="water" />
		<tag k="ssr:stedsnr" v="623710" />
		<tag k="water" v="lake" />
	</node>
	<node lat="68.15236944390794" lon="18.009836115282788" id="-13045">
		<tag k="name" v="Kalikselva - Čáihnajohka" />
		<tag k="name:no" v="Kalikselva" />
		<tag k="name:se" v="Čáihnajohka" />
		<tag k="ssr:stedsnr" v="623879" />
		<tag k="waterway" v="river" />
	</node>
	<node lat="68.4095583326687" lon="16.74400000077394" id="-13047">
		<tag k="name" v="Gardselva" />
		<tag k="ssr:stedsnr" v="623763" />
		<tag k="waterway" v="stream" />
	</node>
	<node lat="68.261747225312" lon="17.64325277185846" id="-13050">
		<tag k="name" v="Nihkejohka" />
		<tag k="name:se" v="Nihkejohka" />
		<tag k="ssr:stedsnr" v="624186" />
		<tag k="waterway" v="stream" />
	</node>
	<node lat="68.37201388575104" lon="17.308191670168842" id="-13057">
		<tag k="name" v="Geitknausvatnet" />
		<tag k="natural" v="water" />
		<tag k="ssr:stedsnr" v="624908" />
	</node>
	<node lat="68.37941389150679" lon="17.634200007948685" id="-13064">
		<tag k="name" v="Mølnelva" />
		<tag k="name:no" v="Mølnelva" />
		<tag k="name:se" v="Millojohka" />
		<tag k="ssr:stedsnr" v="628424" />
		<tag k="waterway" v="river" />
	</node>
	<node lat="68.3729305550182" lon="16.85201667124056" id="-13089">
		<tag k="name" v="Bjørnbåselva" />
		<tag k="ssr:stedsnr" v="631233" />
		<tag k="waterway" v="stream" />
	</node>
	<node lat="68.35310277379162" lon="16.950366674376724" id="-13098">
		<tag k="name" v="Osen" />
		<tag k="natural" v="bay" />
		<tag k="ssr:stedsnr" v="631340" />
	</node>
	<node lat="68.41530833717941" lon="17.37715000649347" id="-13109">
		<tag k="name" v="Mølnbekken" />
		<tag k="ssr:stedsnr" v="631598" />
		<tag k="waterway" v="stream" />
	</node>
	<node lat="68.28396111429566" lon="16.43145277522523" id="-13132">
		<tag k="name" v="Leirpollelva" />
		<tag k="ssr:stedsnr" v="706348" />
		<tag k="waterway" v="river" />
	</node>
	<node lat="68.17133611238062" lon="17.554263898983297" id="-13136">
		<tag k="name" v="Langhola" />
		<tag k="place" v="islet" />
		<tag k="ssr:stedsnr" v="645111" />
	</node>
	<node lat="68.28849444688501" lon="16.67734721037565" id="-13143">
		<tag k="name" v="Åselva" />
		<tag k="ssr:stedsnr" v="645627" />
		<tag k="waterway" v="river" />
	</node>
	<node lat="68.34484721933353" lon="17.46323888705942" id="-13144">
		<tag k="name" v="Skjellelva" />
		<tag k="ssr:stedsnr" v="645630" />
		<tag k="waterway" v="stream" />
	</node>
	<node lat="68.24675832963742" lon="16.72178888666305" id="-13151">
		<tag k="name" v="Tomashaugelva" />
		<tag k="ssr:stedsnr" v="645590" />
		<tag k="waterway" v="stream" />
	</node>
	<node lat="68.3283083357746" lon="16.609280545136645" id="-13153">
		<tag k="name" v="Kringlabekken" />
		<tag k="ssr:stedsnr" v="645714" />
		<tag k="waterway" v="stream" />
	</node>
	<node lat="68.40709721963168" lon="16.498180559937328" id="-13158">
		<tag k="name" v="Merrvikelva" />
		<tag k="ssr:stedsnr" v="706615" />
		<tag k="waterway" v="stream" />
	</node>
	<node lat="68.29262222167709" lon="16.68157499181589" id="-13159">
		<tag k="name" v="Neset" />
		<tag k="natural" v="cape" />
		<tag k="ssr:stedsnr" v="706622" />
	</node>
	<node lat="68.32181111513262" lon="17.05577221875702" id="-13160">
		<tag k="name" v="Nesodden" />
		<tag k="natural" v="cape" />
		<tag k="ssr:stedsnr" v="645923" />
	</node>
	<node lat="68.5379829255129" lon="17.95144408434162" id="-13179">
		<tag k="name" v="Gussajávrrit" />
		<tag k="name:no" v="Kubergvatnan" />
		<tag k="name:se" v="Gussajávrrit" />
		<tag k="natural" v="water" />
		<tag k="old_name:se" v="Gussajavrit" />
		<tag k="ssr:stedsnr" v="663314" />
		<tag k="water" v="lake" />
	</node>
	<node lat="68.0563611103537" lon="16.54694165711455" id="-13190">
		<tag k="alt_name" v="Mølnelvvatnet, øvre" />
		<tag k="name" v="Øvre Mølnelvvatnet" />
		<tag k="natural" v="water" />
		<tag k="ssr:stedsnr" v="684498" />
	</node>
	<node lat="68.19435833548863" lon="17.555452782096513" id="-13199">
		<tag k="name" v="Litlefallet" />
		<tag k="natural" v="waterfall" />
		<tag k="ssr:stedsnr" v="684662" />
	</node>
	<node lat="68.20939999759186" lon="17.692366665207327" id="-13200">
		<tag k="name" v="Lossivatnet - Loasejávri" />
		<tag k="name:no" v="Lossivatnet" />
		<tag k="name:se" v="Loasejávri" />
		<tag k="natural" v="water" />
		<tag k="ssr:stedsnr" v="684668" />
		<tag k="water" v="lake" />
	</node>
	<node lat="68.17696110865165" lon="17.358580557664933" id="-13201">
		<tag k="name" v="Durmålsvatnet" />
		<tag k="natural" v="water" />
		<tag k="ssr:stedsnr" v="684702" />
		<tag k="water" v="lake" />
	</node>
	<node lat="68.1493416638119" lon="16.736347229347324" id="-13202">
		<tag k="name" v="Tauselva" />
		<tag k="ssr:stedsnr" v="684597" />
		<tag k="waterway" v="stream" />
	</node>
	<node lat="68.24545833102893" lon="17.027963884013896" id="-13205">
		<tag k="name" v="Storeggvatnet" />
		<tag k="natural" v="water" />
		<tag k="ssr:stedsnr" v="684746" />
	</node>
	<node lat="68.32461111361293" lon="17.31403333215003" id="-13212">
		<tag k="name" v="Stokkslettelva" />
		<tag k="ssr:stedsnr" v="685843" />
		<tag k="waterway" v="stream" />
	</node>
	<node lat="68.46829722419481" lon="17.699511119412715" id="-13213">
		<tag k="name" v="Åselva" />
		<tag k="ssr:stedsnr" v="685745" />
		<tag k="waterway" v="stream" />
	</node>
	<node lat="68.52610277521774" lon="17.3570583226725" id="-13218">
		<tag k="name" v="Knivslirvatnet" />
		<tag k="natural" v="water" />
		<tag k="ssr:stedsnr" v="687596" />
	</node>
	<node lat="68.52638888435692" lon="17.393166671219653" id="-13219">
		<tag k="alt_name" v="Bergvatnan" />
		<tag k="name" v="Bergvatnet" />
		<tag k="natural" v="water" />
		<tag k="ssr:stedsnr" v="687597" />
	</node>
	<node lat="68.34962777690824" lon="16.797938885599557" id="-13243">
		<tag k="name" v="Tøstebrynnelva" />
		<tag k="ssr:stedsnr" v="692417" />
		<tag k="waterway" v="stream" />
	</node>
	<node lat="68.20298055900143" lon="17.53281945499748" id="-13256">
		<tag k="name" v="Stibergneset" />
		<tag k="natural" v="cape" />
		<tag k="ssr:stedsnr" v="694012" />
	</node>
	<node lat="68.28525000311346" lon="17.734716654411958" id="-13276">
		<tag k="name" v="Leirvatnet" />
		<tag k="name:no" v="Leirvatnet" />
		<tag k="name:se" v="Láirejávri" />
		<tag k="natural" v="water" />
		<tag k="ssr:stedsnr" v="745192" />
		<tag k="water" v="lake" />
	</node>
	<node lat="68.50823055773307" lon="18.019127773694958" id="-13277">
		<tag k="name" v="Holmelva - Suolojárjohka" />
		<tag k="name:no" v="Holmelva" />
		<tag k="name:se" v="Suolojárjohka" />
		<tag k="old_name:se" v="Suolujarjåkka" />
		<tag k="ssr:stedsnr" v="745303" />
		<tag k="waterway" v="stream" />
	</node>
	<node lat="68.51186666463994" lon="18.017875000272337" id="-13278">
		<tag k="name" v="Karenelva - Gádjajohka" />
		<tag k="name:no" v="Karenelva" />
		<tag k="name:se" v="Gádjajohka" />
		<tag k="old_name:se" v="Gaddjajåkka" />
		<tag k="ssr:stedsnr" v="745309" />
		<tag k="waterway" v="river" />
	</node>
	<node lat="68.15473055444312" lon="16.588497229137488" id="-13282">
		<tag k="name" v="Svartvatnet" />
		<tag k="natural" v="water" />
		<tag k="ssr:stedsnr" v="745611" />
	</node>
	<node lat="68.35220277902054" lon="16.575933344917452" id="-13302">
		<tag k="name" v="Bakkevatnet" />
		<tag k="natural" v="water" />
		<tag k="ssr:stedsnr" v="745719" />
	</node>
	<node lat="68.3353638882502" lon="16.784208327554015" id="-13309">
		<tag k="name" v="Lomtjønna" />
		<tag k="natural" v="water" />
		<tag k="ssr:stedsnr" v="745681" />
	</node>
	<node lat="68.33751111042733" lon="16.780663896941782" id="-13310">
		<tag k="name" v="Djupåa" />
		<tag k="ssr:stedsnr" v="745682" />
		<tag k="waterway" v="stream" />
	</node>
	<node lat="68.3460638862468" lon="17.01180277225284" id="-13324">
		<tag k="alt_name" v="Trombakkhøla" />
		<tag k="name" v="Trondbakkhølla" />
		<tag k="natural" v="water" />
		<tag k="ssr:stedsnr" v="746867" />
	</node>
	<node lat="68.33777222447951" lon="17.000822223548603" id="-13325">
		<tag k="name" v="Strielva" />
		<tag k="ssr:stedsnr" v="746871" />
		<tag k="waterway" v="stream" />
	</node>
	<node lat="68.55481944154685" lon="17.39497777765002" id="-13328">
		<tag k="name" v="Maridalselva" />
		<tag k="name:no" v="Maridalselva" />
		<tag k="name:se" v="Váibmojohka" />
		<tag k="ssr:stedsnr" v="748603" />
		<tag k="waterway" v="river" />
	</node>
	<node lat="68.2385749969032" lon="17.40797221101224" id="-13350">
		<tag k="name" v="Prestslåttelva" />
		<tag k="ssr:stedsnr" v="753457" />
		<tag k="waterway" v="river" />
	</node>
	<node lat="68.34439722279687" lon="16.83150554437772" id="-13355">
		<tag k="name" v="Husvatnet" />
		<tag k="natural" v="water" />
		<tag k="ssr:stedsnr" v="753372" />
		<tag k="water" v="lake" />
	</node>
	<node lat="68.17233333756555" lon="17.548319446272888" id="-13366">
		<tag k="name" v="Migmaurneset" />
		<tag k="natural" v="cape" />
		<tag k="ssr:stedsnr" v="767094" />
	</node>
	<node lat="68.238186109647" lon="16.72568888107497" id="-13370">
		<tag k="name" v="Melkelvneset" />
		<tag k="natural" v="cape" />
		<tag k="ssr:stedsnr" v="767613" />
	</node>
	<node lat="68.2921166688288" lon="16.714569443697147" id="-13371">
		<tag k="name" v="Durmålselvbukta" />
		<tag k="natural" v="bay" />
		<tag k="ssr:stedsnr" v="767640" />
	</node>
	<node lat="68.2476138921432" lon="16.750899999948967" id="-13372">
		<tag k="name" v="Kampelva" />
		<tag k="ssr:stedsnr" v="767504" />
		<tag k="waterway" v="stream" />
	</node>
	<node lat="68.53893333335932" lon="17.898213892338408" id="-13385">
		<tag k="name" v="Beassekjávrrit" />
		<tag k="name:se" v="Beassekjávrrit" />
		<tag k="natural" v="water" />
		<tag k="old_name:se" v="Bæssegjavrit" />
		<tag k="ssr:stedsnr" v="784160" />
		<tag k="water" v="lake" />
	</node>
	<node lat="68.53336388725832" lon="17.277483341988535" id="-13391">
		<tag k="name" v="Skallvasselva" />
		<tag k="ssr:stedsnr" v="809591" />
		<tag k="waterway" v="stream" />
	</node>
	<node lat="68.47825555890002" lon="17.665286119147677" id="-13412">
		<tag k="name" v="Nevelva" />
		<tag k="ssr:stedsnr" v="814012" />
		<tag k="waterway" v="river" />
	</node>
	<node lat="68.36843611400194" lon="16.84805000783639" id="-13415">
		<tag k="name" v="Kjørbekkdalelva" />
		<tag k="ssr:stedsnr" v="814315" />
		<tag k="waterway" v="stream" />
	</node>
	<node lat="68.40785833130774" lon="17.35887778245621" id="-13423">
		<tag k="name" v="Lomtjønna" />
		<tag k="natural" v="water" />
		<tag k="ssr:stedsnr" v="814626" />
	</node>
	<node lat="68.39972499779495" lon="16.74450000518317" id="-13427">
		<tag k="name" v="Bjørntuvelva" />
		<tag k="ssr:stedsnr" v="815243" />
		<tag k="waterway" v="river" />
	</node>
	<node lat="68.5292027797898" lon="17.420674990404542" id="-13430">
		<tag k="name" v="Lapp-Anna-fjellelva" />
		<tag k="ssr:stedsnr" v="935255" />
		<tag k="waterway" v="river" />
	</node>
	<node lat="68.40151944702576" lon="16.769405545861478" id="-13431">
		<tag k="name" v="Mølnelva" />
		<tag k="ssr:stedsnr" v="935256" />
		<tag k="waterway" v="river" />
	</node>
	<node lat="68.3677138924139" lon="17.451680552530767" id="-13443">
		<tag k="name" v="Klubbneselva" />
		<tag k="ssr:stedsnr" v="828626" />
		<tag k="waterway" v="stream" />
	</node>
	<node lat="68.31197500409733" lon="17.33332499945327" id="-13448">
		<tag k="name" v="Lille Erikelva" />
		<tag k="ssr:stedsnr" v="828867" />
		<tag k="waterway" v="stream" />
	</node>
	<node lat="68.35534167034926" lon="17.490600011061986" id="-13457">
		<tag k="name" v="Skilelva" />
		<tag k="ssr:stedsnr" v="927136" />
		<tag k="waterway" v="stream" />
	</node>
	<node lat="68.39327500378204" lon="17.885416672464917" id="-13460">
		<tag k="name" v="Kviturvatnet" />
		<tag k="natural" v="water" />
		<tag k="ssr:stedsnr" v="927231" />
	</node>
	<node lat="68.38337222244863" lon="17.938666661388982" id="-13462">
		<tag k="name" v="Tappelvvatnet" />
		<tag k="natural" v="water" />
		<tag k="old_name" v="Tappelvatnet" />
		<tag k="ssr:stedsnr" v="927244" />
	</node>
	<node lat="68.13907777861779" lon="17.515186108378135" id="-13470">
		<tag k="name" v="Tverrelva" />
		<tag k="ssr:stedsnr" v="927629" />
		<tag k="waterway" v="stream" />
	</node>
	<node lat="68.28239167072502" lon="16.714516672891396" id="-13471">
		<tag k="name" v="Mellomneset" />
		<tag k="natural" v="cape" />
		<tag k="ssr:stedsnr" v="927580" />
	</node>
	<node lat="68.3151972267608" lon="16.757886103421583" id="-13480">
		<tag k="name" v="Brattåsvika" />
		<tag k="natural" v="bay" />
		<tag k="ssr:stedsnr" v="927634" />
	</node>
	<node lat="68.15098888990985" lon="17.35419167611885" id="-13490">
		<tag k="name" v="Vasstjønnan" />
		<tag k="natural" v="water" />
		<tag k="ssr:stedsnr" v="927718" />
	</node>
	<node lat="68.38051944250759" lon="16.66530832404934" id="-13491">
		<tag k="name" v="Storjordvatnan" />
		<tag k="natural" v="water" />
		<tag k="ssr:stedsnr" v="927727" />
		<tag k="water" v="lake" />
	</node>
	<node lat="68.22517777419664" lon="16.841511120110965" id="-13492">
		<tag k="name" v="Ørretvatnet" />
		<tag k="natural" v="water" />
		<tag k="ssr:stedsnr" v="927742" />
	</node>
	<node lat="68.33593333375333" lon="17.4820944412083" id="-13497">
		<tag k="alt_name" v="Gunhildelva" />
		<tag k="name" v="Gunnhildelva" />
		<tag k="ssr:stedsnr" v="928118" />
		<tag k="waterway" v="stream" />
	</node>
	<node lat="68.50602777662732" lon="18.066424984783914" id="-13505">
		<tag k="name" v="Holmvatnet - Suolojávri" />
		<tag k="name:no" v="Holmvatnet" />
		<tag k="name:se" v="Suolojávri" />
		<tag k="natural" v="water" />
		<tag k="old_name:se" v="Suolujavri" />
		<tag k="ssr:stedsnr" v="928239" />
		<tag k="water" v="lake" />
	</node>
	<node lat="68.51948610715553" lon="17.581794434567847" id="-13510">
		<tag k="name" v="Moelva" />
		<tag k="ssr:stedsnr" v="928607" />
		<tag k="waterway" v="stream" />
	</node>
	<node lat="68.56559721864245" lon="17.791358341345187" id="-13514">
		<tag k="name" v="Vassdalselva - Eatnu" />
		<tag k="name:no" v="Vassdalselva" />
		<tag k="name:se" v="Eatnu" />
		<tag k="old_name:se" v="Ædno" />
		<tag k="ssr:stedsnr" v="928668" />
		<tag k="waterway" v="river" />
	</node>
	<node lat="68.54051666268654" lon="17.811916663985215" id="-13515">
		<tag k="name" v="Kopparfjellvatnet - Noalčejávri" />
		<tag k="name:no" v="Kopparfjellvatnet" />
		<tag k="name:se" v="Noalčejávri" />
		<tag k="natural" v="water" />
		<tag k="old_name:se" v="Noalčejavri" />
		<tag k="ssr:stedsnr" v="928687" />
	</node>
	<node lat="68.26587222292731" lon="17.27535556306895" id="-13527">
		<tag k="name" v="Tverrelva" />
		<tag k="ssr:stedsnr" v="928778" />
		<tag k="waterway" v="stream" />
	</node>
	<node lat="68.25005833499071" lon="16.941277787064383" id="-13530">
		<tag k="name" v="Skredelva" />
		<tag k="ssr:stedsnr" v="928790" />
		<tag k="waterway" v="stream" />
	</node>
	<node lat="68.35395277680189" lon="17.125177774421022" id="-13533">
		<tag k="name" v="Storvatnet" />
		<tag k="natural" v="water" />
		<tag k="ssr:stedsnr" v="928874" />
	</node>
	<node lat="68.34435555516247" lon="17.015311103076673" id="-13536">
		<tag k="name" v="Vassneset" />
		<tag k="natural" v="cape" />
		<tag k="ssr:stedsnr" v="928898" />
	</node>
	<node lat="68.35983332854147" lon="16.83695556330078" id="-13537">
		<tag k="name" v="Stria" />
		<tag k="ssr:stedsnr" v="928920" />
		<tag k="waterway" v="stream" />
	</node>
	<node lat="68.56194166953516" lon="17.659763877944755" id="-13546">
		<tag k="name" v="Sprutelva" />
		<tag k="ssr:stedsnr" v="935482" />
		<tag k="waterway" v="stream" />
	</node>
	<node lat="68.36095277614608" lon="16.857513891709026" id="-13550">
		<tag k="alt_name" v="Åga" />
		<tag k="name" v="Åa" />
		<tag k="ssr:stedsnr" v="867944" />
		<tag k="waterway" v="stream" />
	</node>
	<node lat="68.11753611025607" lon="16.30797223246681" id="-13583">
		<tag k="name" v="Kobbvikelva" />
		<tag k="ssr:stedsnr" v="875580" />
		<tag k="waterway" v="river" />
	</node>
	<node lat="68.38783888557273" lon="16.611427770201164" id="-13608">
		<tag k="name" v="Tjærmilåsbekken" />
		<tag k="ssr:stedsnr" v="935195" />
		<tag k="waterway" v="stream" />
	</node>
	<node lat="68.32268055547596" lon="16.69537499777954" id="-13615">
		<tag k="name" v="Botnlausvatnet" />
		<tag k="natural" v="water" />
		<tag k="ssr:stedsnr" v="935120" />
		<tag k="water" v="lake" />
	</node>
	<node lat="68.35195832940366" lon="16.939608321899588" id="-13621">
		<tag k="name" v="Fineosen" />
		<tag k="natural" v="bay" />
		<tag k="ssr:stedsnr" v="935364" />
	</node>
	<node lat="68.17803611368132" lon="17.548086115785196" id="-13624">
		<tag k="name" v="Neset" />
		<tag k="natural" v="cape" />
		<tag k="ssr:stedsnr" v="889121" />
	</node>
	<node lat="68.25203888900597" lon="16.746377773895475" id="-13626">
		<tag k="name" v="Lomvasselva" />
		<tag k="ssr:stedsnr" v="889506" />
		<tag k="waterway" v="stream" />
	</node>
	<node lat="68.39691667080785" lon="16.552866671910753" id="-13632">
		<tag k="name" v="Mikkelelva" />
		<tag k="ssr:stedsnr" v="889630" />
		<tag k="waterway" v="stream" />
	</node>
	<node lat="68.06251388894005" lon="16.470619432287016" id="-13648">
		<tag k="fixme" v="multiple name tags, choose one and add the other to alt_name" />
		<tag k="name" v="Vaisaelva;Vájsájåhkå" />
		<tag k="name:smj" v="Vaisaelva;Vájsájåhkå" />
		<tag k="old_name:smj" v="Váisajohka" />
		<tag k="ssr:stedsnr" v="927506" />
		<tag k="waterway" v="stream" />
	</node>
	<node lat="68.1887555523458" lon="17.585672229540904" id="-13666">
		<tag k="name" v="Lossielva" />
		<tag k="ssr:stedsnr" v="927666" />
		<tag k="waterway" v="river" />
	</node>
	<node lat="68.18550277462805" lon="17.55118331877374" id="-13667">
		<tag k="name" v="Taterholmen" />
		<tag k="place" v="islet" />
		<tag k="ssr:stedsnr" v="927671" />
	</node>
	<node lat="68.39806666422521" lon="16.638502772940377" id="-13670">
		<tag k="name" v="Svartvatnet" />
		<tag k="natural" v="water" />
		<tag k="ssr:stedsnr" v="927752" />
	</node>
	<node lat="68.31129166502855" lon="17.105766662722345" id="-13673">
		<tag k="name" v="Lasselva" />
		<tag k="ssr:stedsnr" v="927872" />
		<tag k="waterway" v="stream" />
	</node>
	<node lat="68.37017222449738" lon="18.101033335426628" id="-13675">
		<tag k="name" v="Dossaganjohka" />
		<tag k="name:se" v="Dossaganjohka" />
		<tag k="ssr:stedsnr" v="928081" />
		<tag k="waterway" v="stream" />
	</node>
	<node lat="68.38033888583722" lon="17.32068055316399" id="-13682">
		<tag k="name" v="Klefterågelva" />
		<tag k="ssr:stedsnr" v="928958" />
		<tag k="waterway" v="stream" />
	</node>
	<node lat="68.37452778132514" lon="16.63038055789342" id="-13694">
		<tag k="name" v="Bruelva" />
		<tag k="ssr:stedsnr" v="935140" />
		<tag k="waterway" v="river" />
	</node>
	<node lat="68.33272222428265" lon="16.7625611193075" id="-13701">
		<tag k="name" v="Mørkholbekken" />
		<tag k="ssr:stedsnr" v="935440" />
		<tag k="waterway" v="stream" />
	</node>
	<node lat="68.55924722011603" lon="17.58233331849399" id="-13708">
		<tag k="name" v="Nåkkvatnet" />
		<tag k="natural" v="water" />
		<tag k="ssr:stedsnr" v="935469" />
		<tag k="water" v="lake" />
	</node>
	<node lat="68.28185833614694" lon="16.416108334347694" id="-13721">
		<tag k="name" v="Holmen" />
		<tag k="place" v="islet" />
		<tag k="ssr:stedsnr" v="949308" />
	</node>
	<node lat="68.2962833309983" lon="16.800083331961662" id="-13726">
		<tag k="name" v="Vika" />
		<tag k="natural" v="bay" />
		<tag k="ssr:stedsnr" v="949531" />
	</node>
	<node lat="68.28775049278569" lon="16.69289608540851" id="-13727">
		<tag k="name" v="Åsvatnet" />
		<tag k="natural" v="water" />
		<tag k="ssr:stedsnr" v="949595" />
		<tag k="water" v="lake" />
	</node>
	<node lat="68.18673611330098" lon="16.828999990046242" id="-13858">
		<tag k="name" v="Lensmannsneset" />
		<tag k="natural" v="cape" />
		<tag k="ssr:stedsnr" v="16655" />
	</node>
	<node lat="68.20757777605365" lon="16.892833326178412" id="-13860">
		<tag k="name" v="Røvatnet" />
		<tag k="natural" v="water" />
		<tag k="ssr:stedsnr" v="16665" />
		<tag k="water" v="lake" />
	</node>
	<node lat="68.15433611313638" lon="16.82278333559694" id="-13861">
		<tag k="alt_name" v="Botnelva" />
		<tag k="name" v="Nordbotnelva" />
		<tag k="ssr:stedsnr" v="16692" />
		<tag k="waterway" v="stream" />
	</node>
	<node lat="68.27686110901209" lon="16.70005555288171" id="-13862">
		<tag k="name" v="Langosen" />
		<tag k="natural" v="bay" />
		<tag k="ssr:stedsnr" v="16538" />
	</node>
	<node lat="68.29047777586139" lon="17.045874997081537" id="-13868">
		<tag k="name" v="Slåttbakkbukta" />
		<tag k="natural" v="bay" />
		<tag k="ssr:stedsnr" v="17839" />
	</node>
	<node lat="68.36585556031633" lon="17.053238882534465" id="-13872">
		<tag k="name" v="Sandbakkelva" />
		<tag k="ssr:stedsnr" v="17937" />
		<tag k="waterway" v="stream" />
	</node>
	<node lat="68.377975000302" lon="17.9818972113798" id="-13876">
		<tag k="name" v="Sørdalsfossen" />
		<tag k="natural" v="waterfall" />
		<tag k="ssr:stedsnr" v="17267" />
	</node>
	<node lat="68.40292499725518" lon="17.661102778654282" id="-13878">
		<tag k="name" v="Tøttavatnet" />
		<tag k="natural" v="water" />
		<tag k="ssr:stedsnr" v="17292" />
	</node>
	<node lat="68.58362500256324" lon="17.74049165574936" id="-13884">
		<tag k="name" v="Leaiggasjávri" />
		<tag k="name:no" v="Stor-Leigasvatnet" />
		<tag k="name:se" v="Leaiggasjávri" />
		<tag k="natural" v="water" />
		<tag k="old_name:se" v="Læigasjavri" />
		<tag k="ssr:stedsnr" v="17552" />
		<tag k="water" v="lake" />
	</node>
	<node lat="68.13019722361042" lon="16.625369435504822" id="-13887">
		<tag k="alt_name" v="Russvikvatnet, øvre" />
		<tag k="name" v="Øvre Russvikvatnet" />
		<tag k="natural" v="water" />
		<tag k="ssr:stedsnr" v="17585" />
		<tag k="water" v="lake" />
	</node>
	<node lat="68.2926388887279" lon="16.64448332086328" id="-13889">
		<tag k="name" v="Skaforsen - Billágorži" />
		<tag k="name:no" v="Skaforsen" />
		<tag k="name:se" v="Billágorži" />
		<tag k="natural" v="waterfall" />
		<tag k="old_name:se" v="Billagårži" />
		<tag k="ssr:stedsnr" v="17599" />
	</node>
	<node lat="68.30825555499112" lon="16.720986113426854" id="-13893">
		<tag k="fixme" v="multiple name tags, choose one and add the other to alt_name" />
		<tag k="name" v="Børselva;Børsvatnelva" />
		<tag k="ssr:stedsnr" v="17646" />
		<tag k="waterway" v="river" />
	</node>
	<node lat="68.06643055302992" lon="17.693486100228714" id="-13894">
		<tag k="name" v="Čoarddajávri" />
		<tag k="name:no" v="Øvre Kjørrisvatnet" />
		<tag k="name:se" v="Čoarddajávri" />
		<tag k="natural" v="water" />
		<tag k="ssr:stedsnr" v="17671" />
		<tag k="water" v="lake" />
	</node>
	<node lat="68.27621389112039" lon="16.670874990778415" id="-13898">
		<tag k="name" v="Sørelva" />
		<tag k="ssr:stedsnr" v="17467" />
		<tag k="waterway" v="river" />
	</node>
	<node lat="68.33621388897323" lon="16.374772224811878" id="-13903">
		<tag k="name" v="Kobbvikvatnan" />
		<tag k="natural" v="water" />
		<tag k="ssr:stedsnr" v="17691" />
		<tag k="water" v="lake" />
	</node>
	<node lat="68.38824166290357" lon="16.786238896275037" id="-13904">
		<tag k="name" v="Mølnvikelva" />
		<tag k="ssr:stedsnr" v="17756" />
		<tag k="waterway" v="stream" />
	</node>
	<node lat="68.40701111294717" lon="16.576744433282627" id="-13905">
		<tag k="alt_name" v="Skjellelva" />
		<tag k="name" v="Skjelelva" />
		<tag k="ssr:stedsnr" v="17768" />
		<tag k="waterway" v="stream" />
	</node>
	<node lat="68.53615555498386" lon="17.473011106801376" id="-13912">
		<tag k="name" v="Mølnelva" />
		<tag k="ssr:stedsnr" v="18162" />
		<tag k="waterway" v="stream" />
	</node>
	<node lat="68.54885833239604" lon="17.70134443257236" id="-13914">
		<tag k="name" v="Hallarneset" />
		<tag k="natural" v="cape" />
		<tag k="ssr:stedsnr" v="18664" />
	</node>
	<node lat="68.35320555328119" lon="17.191205552859294" id="-13916">
		<tag k="name" v="Jollvatnet" />
		<tag k="natural" v="water" />
		<tag k="ssr:stedsnr" v="18854" />
	</node>
	<node lat="68.4052777766828" lon="17.3975611078539" id="-13928">
		<tag k="name" v="Storelva" />
		<tag k="ssr:stedsnr" v="18989" />
		<tag k="waterway" v="stream" />
	</node>
	<node lat="68.29580277649386" lon="16.668936109361976" id="-13961">
		<tag k="name" v="Lilleholmen" />
		<tag k="place" v="islet" />
		<tag k="ssr:stedsnr" v="25157" />
	</node>
	<node lat="68.38695277899855" lon="16.819991655924333" id="-13965">
		<tag k="name" v="Annervatnet" />
		<tag k="natural" v="water" />
		<tag k="ssr:stedsnr" v="25253" />
	</node>
	<node lat="68.24283055258711" lon="17.40352777720113" id="-13967">
		<tag k="name" v="Prestslåttosen" />
		<tag k="natural" v="bay" />
		<tag k="ssr:stedsnr" v="25499" />
	</node>
	<node lat="68.38817221917871" lon="17.31080277318773" id="-13979">
		<tag k="name" v="Billtlielva" />
		<tag k="ssr:stedsnr" v="25955" />
		<tag k="waterway" v="river" />
	</node>
	<node lat="68.05521667170754" lon="16.395491655600015" id="-13981">
		<tag k="name" v="Tørnesvatnet" />
		<tag k="natural" v="water" />
		<tag k="ssr:stedsnr" v="39174" />
	</node>
	<node lat="68.17345277802285" lon="17.547286099939367" id="-13982">
		<tag k="name" v="Orhølla" />
		<tag k="natural" v="water" />
		<tag k="ssr:stedsnr" v="39080" />
		<tag k="water" v="lake" />
	</node>
	<node lat="68.17798333550232" lon="17.550322214194285" id="-13983">
		<tag k="name" v="Langhola" />
		<tag k="natural" v="cape" />
		<tag k="ssr:stedsnr" v="39083" />
	</node>
	<node lat="68.30954444548428" lon="16.641911112352286" id="-13993">
		<tag k="name" v="Kjorlsjokka" />
		<tag k="ssr:stedsnr" v="39653" />
		<tag k="waterway" v="stream" />
	</node>
	<node lat="68.27559167085172" lon="16.72383888584889" id="-13996">
		<tag k="name" v="Moelva" />
		<tag k="ssr:stedsnr" v="39596" />
		<tag k="waterway" v="stream" />
	</node>
	<node lat="68.34050555862173" lon="17.90671109784686" id="-14022">
		<tag k="name" v="Šlubbojávri" />
		<tag k="name:se" v="Šlubbojávri" />
		<tag k="natural" v="water" />
		<tag k="ssr:stedsnr" v="77141" />
	</node>
	<node lat="68.34552777398962" lon="16.054591666394195" id="-14026">
		<tag k="alt_name" v="Løngosen" />
		<tag k="name" v="Lyngosen" />
		<tag k="natural" v="bay" />
		<tag k="ssr:stedsnr" v="77327" />
	</node>
	<node lat="68.43449166358897" lon="17.634558336590466" id="-14037">
		<tag k="name" v="Fagerjordelva" />
		<tag k="ssr:stedsnr" v="78226" />
		<tag k="waterway" v="stream" />
	</node>
	<node lat="68.1713333303486" lon="16.695524987562386" id="-14048">
		<tag k="name" v="Fjellelva" />
		<tag k="ssr:stedsnr" v="78584" />
		<tag k="waterway" v="stream" />
	</node>
	<node lat="68.34035555848797" lon="16.31083610612286" id="-14050">
		<tag k="name" v="Lomtjønnan" />
		<tag k="natural" v="water" />
		<tag k="ssr:stedsnr" v="78682" />
		<tag k="water" v="lake" />
	</node>
	<node lat="68.18881111096808" lon="17.95996389498157" id="-14052">
		<tag k="name" v="Sáttojohka" />
		<tag k="name:se" v="Sáttojohka" />
		<tag k="ssr:stedsnr" v="78684" />
		<tag k="waterway" v="stream" />
	</node>
	<node lat="68.31425555526194" lon="16.776516669989984" id="-14055">
		<tag k="name" v="Lendinga" />
		<tag k="natural" v="cape" />
		<tag k="ssr:stedsnr" v="78623" />
	</node>
	<node lat="68.56865833555437" lon="17.440569446439103" id="-14057">
		<tag k="name" v="Trekanten" />
		<tag k="natural" v="water" />
		<tag k="ssr:stedsnr" v="78716" />
	</node>
	<node lat="68.38812778195778" lon="16.513963880015687" id="-14060">
		<tag k="fixme" v="multiple name tags, choose one and add the other to alt_name" />
		<tag k="name" v="Vargfjordelva;Botnelva" />
		<tag k="ssr:stedsnr" v="78725" />
		<tag k="waterway" v="river" />
	</node>
	<node lat="68.36258333365402" lon="17.387149988501346" id="-14074">
		<tag k="name" v="Middagselva" />
		<tag k="ssr:stedsnr" v="78938" />
		<tag k="waterway" v="stream" />
	</node>
	<node lat="68.36545277421227" lon="17.368041674632135" id="-14075">
		<tag k="name" v="Peppartuvelva" />
		<tag k="ssr:stedsnr" v="78940" />
		<tag k="waterway" v="stream" />
	</node>
	<node lat="68.47838055245721" lon="17.57186667516919" id="-14080">
		<tag k="name" v="Mølnelva" />
		<tag k="ssr:stedsnr" v="79719" />
		<tag k="waterway" v="stream" />
	</node>
	<node lat="68.33836666703179" lon="17.033855548093054" id="-14083">
		<tag k="name" v="Oldervika" />
		<tag k="natural" v="bay" />
		<tag k="ssr:stedsnr" v="79885" />
	</node>
	<node lat="68.34200277588431" lon="17.01754167657752" id="-14084">
		<tag k="alt_name:no" v="Kringlevatnet" />
		<tag k="name" v="Kringelvatnet - Riŋggaljávri" />
		<tag k="name:no" v="Kringelvatnet" />
		<tag k="name:se" v="Riŋggaljávri" />
		<tag k="natural" v="water" />
		<tag k="old_name:se" v="Riŋgaljavri" />
		<tag k="ssr:stedsnr" v="79888" />
		<tag k="water" v="lake" />
	</node>
	<node lat="68.37567222699316" lon="16.84013332640784" id="-14087">
		<tag k="name" v="Lomvatnet" />
		<tag k="natural" v="water" />
		<tag k="ssr:stedsnr" v="79951" />
	</node>
	<node lat="68.53208333102366" lon="17.406191657282157" id="-14090">
		<tag k="name" v="Trollvikelva" />
		<tag k="ssr:stedsnr" v="81588" />
		<tag k="waterway" v="stream" />
	</node>
	<node lat="68.53692221974937" lon="17.38340555150553" id="-14091">
		<tag k="alt_name" v="Båtvatnet, l" />
		<tag k="name" v="Lille Båtvatnet" />
		<tag k="natural" v="water" />
		<tag k="ssr:stedsnr" v="81590" />
	</node>
	<node lat="68.32466111263356" lon="16.68129167424642" id="-14112">
		<tag k="name" v="Mellomelva" />
		<tag k="ssr:stedsnr" v="85114" />
		<tag k="waterway" v="river" />
	</node>
	<node lat="68.35830000423209" lon="16.636683339099346" id="-14115">
		<tag k="name" v="Ottarvatnet" />
		<tag k="natural" v="water" />
		<tag k="ssr:stedsnr" v="85120" />
		<tag k="water" v="lake" />
	</node>
	<node lat="68.0457833325626" lon="16.384300010717826" id="-14151">
		<tag k="name" v="Tørneselva" />
		<tag k="ssr:stedsnr" v="99237" />
		<tag k="waterway" v="stream" />
	</node>
	<node lat="68.36263056008069" lon="17.475741662807913" id="-14166">
		<tag k="name" v="Holmelva" />
		<tag k="ssr:stedsnr" v="100632" />
		<tag k="waterway" v="stream" />
	</node>
	<node lat="68.37551666863114" lon="17.385175003585484" id="-14169">
		<tag k="name" v="Håkarneset" />
		<tag k="natural" v="cape" />
		<tag k="ssr:stedsnr" v="100659" />
	</node>
	<node lat="68.31938055975907" lon="16.20325278402555" id="-14198">
		<tag k="name" v="Osen" />
		<tag k="natural" v="bay" />
		<tag k="ssr:stedsnr" v="138383" />
	</node>
	<node lat="68.2559916662994" lon="16.749341662030766" id="-14204">
		<tag k="name" v="Lomvatnet" />
		<tag k="natural" v="water" />
		<tag k="ssr:stedsnr" v="138549" />
	</node>
	<node lat="68.14774444575936" lon="16.7974388841434" id="-14211">
		<tag k="name" v="Saltelva" />
		<tag k="ssr:stedsnr" v="138630" />
		<tag k="waterway" v="stream" />
	</node>
	<node lat="68.02104999918778" lon="17.054283332592703" id="-14218">
		<tag k="name" v="Lábttjejávrre" />
		<tag k="name:smj" v="Lábttjejávrre" />
		<tag k="natural" v="water" />
		<tag k="old_name:smj" v="Lavzejávri" />
		<tag k="ssr:stedsnr" v="138683" />
		<tag k="water" v="lake" />
	</node>
	<node lat="68.06083333783211" lon="16.726216657999824" id="-14222">
		<tag k="name" v="Doaresjåhkå" />
		<tag k="name:no" v="Tverrelva" />
		<tag k="name:smj" v="Doaresjåhkå" />
		<tag k="old_name:smj" v="Doaresjohka" />
		<tag k="ssr:stedsnr" v="138559" />
		<tag k="waterway" v="river" />
	</node>
	<node lat="68.14681110715428" lon="16.822905562976874" id="-14231">
		<tag k="name" v="Sørbotnelva" />
		<tag k="ssr:stedsnr" v="138733" />
		<tag k="waterway" v="stream" />
	</node>
	<node lat="68.19883611348602" lon="18.136083329025816" id="-14235">
		<tag k="name" v="Rádjejohka" />
		<tag k="name:se" v="Rádjejohka" />
		<tag k="ssr:stedsnr" v="138868" />
		<tag k="waterway" v="river" />
	</node>
	<node lat="68.46367499799061" lon="18.07501110045798" id="-14244">
		<tag k="alt_name" v="Ørnvatnet, øvre" />
		<tag k="name" v="Øvre Ørnvatnet" />
		<tag k="natural" v="water" />
		<tag k="ssr:stedsnr" v="139166" />
	</node>
	<node lat="68.48173333603411" lon="17.911255547724576" id="-14247">
		<tag k="name" v="Smalvatnet" />
		<tag k="natural" v="water" />
		<tag k="ssr:stedsnr" v="139718" />
	</node>
	<node lat="68.25924444128694" lon="17.197502762980985" id="-14251">
		<tag k="name" v="Čáhppesjávri" />
		<tag k="name:se" v="Čáhppesjávri" />
		<tag k="natural" v="water" />
		<tag k="old_name:se" v="Čappesjavri" />
		<tag k="ssr:stedsnr" v="139756" />
	</node>
	<node lat="68.34881944215105" lon="17.007333332941922" id="-14255">
		<tag k="name" v="Eidet" />
		<tag k="place" v="locality" />
		<tag k="ssr:stedsnr" v="139879" />
	</node>
	<node lat="68.35385833304048" lon="16.985174991952483" id="-14256">
		<tag k="name" v="Storelva" />
		<tag k="ssr:stedsnr" v="139880" />
		<tag k="waterway" v="stream" />
	</node>
	<node lat="68.33789444634888" lon="17.01829444802843" id="-14315">
		<tag k="name" v="Lassheimelva" />
		<tag k="ssr:stedsnr" v="146355" />
		<tag k="waterway" v="stream" />
	</node>
	<node lat="68.15762500493234" lon="17.89804165363033" id="-14322">
		<tag k="name" v="Steinelva" />
		<tag k="ssr:stedsnr" v="146599" />
		<tag k="waterway" v="stream" />
	</node>
	<node lat="68.37148055331765" lon="17.597838896520457" id="-14338">
		<tag k="name" v="Hesjedalsvatnet" />
		<tag k="natural" v="water" />
		<tag k="ssr:stedsnr" v="160096" />
	</node>
	<node lat="68.20025833642958" lon="17.54463888494662" id="-14341">
		<tag k="name" v="Jakobneset" />
		<tag k="natural" v="cape" />
		<tag k="ssr:stedsnr" v="160015" />
	</node>
	<node lat="68.39793055279121" lon="17.51517776805211" id="-14344">
		<tag k="name" v="Greteelva" />
		<tag k="ssr:stedsnr" v="160046" />
		<tag k="waterway" v="stream" />
	</node>
	<node lat="68.31026110712246" lon="16.277316672007377" id="-14347">
		<tag k="name" v="Inståa" />
		<tag k="natural" v="bay" />
		<tag k="ssr:stedsnr" v="160220" />
	</node>
	<node lat="68.28706388639823" lon="16.711961113482534" id="-14355">
		<tag k="name" v="Rundvatnet" />
		<tag k="natural" v="bay" />
		<tag k="ssr:stedsnr" v="160608" />
	</node>
	<node lat="68.2926611093889" lon="16.66711109829019" id="-14358">
		<tag k="name" v="Søndagsneset" />
		<tag k="natural" v="cape" />
		<tag k="ssr:stedsnr" v="160631" />
	</node>
	<node lat="68.26718055167302" lon="16.69650277763649" id="-14361">
		<tag k="name" v="Ruonkaelva" />
		<tag k="ssr:stedsnr" v="160662" />
		<tag k="waterway" v="stream" />
	</node>
	<node lat="68.22554444108764" lon="17.44169444724435" id="-14367">
		<tag k="name" v="Berghølla" />
		<tag k="natural" v="water" />
		<tag k="ssr:stedsnr" v="160749" />
		<tag k="water" v="lake" />
	</node>
	<node lat="68.38216111276147" lon="17.121461110714062" id="-14369">
		<tag k="name" v="Åa" />
		<tag k="ssr:stedsnr" v="163936" />
		<tag k="waterway" v="stream" />
	</node>
	<node lat="68.26049722290561" lon="17.432913886370542" id="-14376">
		<tag k="name" v="Svendelva" />
		<tag k="ssr:stedsnr" v="180744" />
		<tag k="waterway" v="stream" />
	</node>
	<node lat="68.28259166412698" lon="16.39814166027087" id="-14379">
		<tag k="fixme" v="multiple name tags, choose one and add the other to alt_name" />
		<tag k="name" v="Leirpollvatnet;Storvatnet" />
		<tag k="natural" v="water" />
		<tag k="ssr:stedsnr" v="198584" />
		<tag k="water" v="lake" />
	</node>
	<node lat="68.31124166497142" lon="17.76323889359561" id="-14390">
		<tag k="name" v="Helligvatnet - Basejávri" />
		<tag k="name:no" v="Helligvatnet" />
		<tag k="name:se" v="Basejávri" />
		<tag k="natural" v="water" />
		<tag k="ssr:stedsnr" v="199197" />
		<tag k="water" v="lake" />
	</node>
	<node lat="68.31559722584265" lon="17.685899993658516" id="-14391">
		<tag k="name" v="Storfjellvatnet" />
		<tag k="natural" v="water" />
		<tag k="ssr:stedsnr" v="199198" />
		<tag k="water" v="lake" />
	</node>
	<node lat="68.06180833172272" lon="16.495633323690274" id="-14394">
		<tag k="name" v="Vájsájávrre" />
		<tag k="name:smj" v="Vájsájávrre" />
		<tag k="natural" v="water" />
		<tag k="old_name:smj" v="Váisajávri" />
		<tag k="ssr:stedsnr" v="199496" />
	</node>
	<node lat="68.4093250026069" lon="17.59503054591475" id="-14395">
		<tag k="name" v="Isvatnet" />
		<tag k="name:no" v="Isvatnet" />
		<tag k="name:se" v="Jiekŋajávri" />
		<tag k="natural" v="water" />
		<tag k="ssr:stedsnr" v="199450" />
		<tag k="water" v="lake" />
	</node>
	<node lat="68.58585277865953" lon="17.59383610742217" id="-14397">
		<tag k="name" v="Kvitsteinelva" />
		<tag k="ssr:stedsnr" v="199539" />
		<tag k="waterway" v="stream" />
	</node>
	<node lat="68.31900000064157" lon="16.684916660791192" id="-14402">
		<tag k="name" v="Tverråselva" />
		<tag k="ssr:stedsnr" v="199643" />
		<tag k="waterway" v="stream" />
	</node>
	<node lat="68.37186111029796" lon="16.80190832904951" id="-14408">
		<tag k="alt_name" v="Lillevatnet" />
		<tag k="name" v="Litlevatnet" />
		<tag k="natural" v="water" />
		<tag k="ssr:stedsnr" v="199733" />
	</node>
	<node lat="68.39672500299979" lon="16.786886101780645" id="-14410">
		<tag k="name" v="Silsandelva" />
		<tag k="ssr:stedsnr" v="199738" />
		<tag k="waterway" v="stream" />
	</node>
	<node lat="68.05855555354934" lon="16.45265833816914" id="-14411">
		<tag k="name" v="Funtaelva" />
		<tag k="ssr:stedsnr" v="199499" />
		<tag k="waterway" v="stream" />
	</node>
	<node lat="68.11666389329928" lon="16.393055553561258" id="-14413">
		<tag k="name" v="Storbotnelva" />
		<tag k="ssr:stedsnr" v="199584" />
		<tag k="waterway" v="stream" />
	</node>
	<node lat="68.10755555259298" lon="16.65711389173163" id="-14415">
		<tag k="name" v="Storelvvatnet" />
		<tag k="natural" v="water" />
		<tag k="ssr:stedsnr" v="199601" />
	</node>
	<node lat="68.0439888900079" lon="16.96881943459654" id="-14416">
		<tag k="name" v="Båvrojávrre" />
		<tag k="name:smj" v="Båvrojávrre" />
		<tag k="natural" v="water" />
		<tag k="old_name:smj" v="Bovrojávri" />
		<tag k="ssr:stedsnr" v="199685" />
		<tag k="water" v="lake" />
	</node>
	<node lat="68.18640000412466" lon="17.783691671294655" id="-14418">
		<tag k="name" v="Loasejohka" />
		<tag k="name:se" v="Loasejohka" />
		<tag k="ssr:stedsnr" v="199696" />
		<tag k="waterway" v="river" />
	</node>
	<node lat="68.55040000256925" lon="17.633419443669542" id="-14426">
		<tag k="name" v="Elvegårdselva" />
		<tag k="ssr:stedsnr" v="200159" />
		<tag k="waterway" v="river" />
	</node>
	<node lat="68.33835832879646" lon="16.924366674119636" id="-14440">
		<tag k="name" v="Tverrvegelva" />
		<tag k="ssr:stedsnr" v="200893" />
		<tag k="waterway" v="stream" />
	</node>
	<node lat="68.20907221739634" lon="17.48839445049221" id="-14510">
		<tag k="name" v="Kobbeneset" />
		<tag k="natural" v="cape" />
		<tag k="ssr:stedsnr" v="221696" />
	</node>
	<node lat="68.24714444686023" lon="16.731369444988786" id="-14524">
		<tag k="name" v="Dammen" />
		<tag k="natural" v="strait" />
		<tag k="ssr:stedsnr" v="282492" />
	</node>
	<node lat="68.2927249959821" lon="16.64704999433029" id="-14531">
		<tag k="name" v="Maurnes" />
		<tag k="natural" v="cape" />
		<tag k="ssr:stedsnr" v="282639" />
	</node>
	<node lat="68.28372778150523" lon="16.634094432939964" id="-14532">
		<tag k="name" v="Slåttlines" />
		<tag k="natural" v="cape" />
		<tag k="ssr:stedsnr" v="282640" />
	</node>
	<node lat="68.19763055412804" lon="17.529402767618997" id="-14554">
		<tag k="name" v="Steinvegelva" />
		<tag k="ssr:stedsnr" v="306023" />
		<tag k="waterway" v="stream" />
	</node>
	<node lat="68.04564721801835" lon="16.52670832985725" id="-14558">
		<tag k="name" v="Stordalselva" />
		<tag k="ssr:stedsnr" v="320493" />
		<tag k="waterway" v="river" />
	</node>
	<node lat="68.12355833189336" lon="17.475708325780733" id="-14567">
		<tag k="name" v="Iptojávri" />
		<tag k="name:se" v="Iptojávri" />
		<tag k="natural" v="water" />
		<tag k="ssr:stedsnr" v="320615" />
		<tag k="water" v="lake" />
	</node>
	<node lat="68.14009999675785" lon="16.35510000890864" id="-14575">
		<tag k="name" v="Mellomgårdselva" />
		<tag k="ssr:stedsnr" v="320550" />
		<tag k="waterway" v="stream" />
	</node>
	<node lat="68.2844000024474" lon="16.711811108006415" id="-14577">
		<tag k="name" v="Vinterneset" />
		<tag k="natural" v="cape" />
		<tag k="ssr:stedsnr" v="320563" />
	</node>
	<node lat="68.1873499995374" lon="17.042161115989426" id="-14586">
		<tag k="name" v="Geitvatnet" />
		<tag k="natural" v="water" />
		<tag k="ssr:stedsnr" v="320680" />
		<tag k="water" v="lake" />
	</node>
	<node lat="68.46135000070052" lon="17.882136106560193" id="-14590">
		<tag k="alt_name" v="Haugfjellvatnet, øvre" />
		<tag k="name" v="Øvre Haugfjellvatnet" />
		<tag k="natural" v="water" />
		<tag k="ssr:stedsnr" v="320778" />
		<tag k="water" v="lake" />
	</node>
	<node lat="68.18763611537744" lon="18.054238879500083" id="-14591">
		<tag k="name" v="Ákšoluoppal" />
		<tag k="name:se" v="Ákšoluoppal" />
		<tag k="natural" v="water" />
		<tag k="ssr:stedsnr" v="320870" />
	</node>
	<node lat="68.49146944152247" lon="18.02186111757129" id="-14594">
		<tag k="name" v="Lomtjønna" />
		<tag k="natural" v="water" />
		<tag k="ssr:stedsnr" v="321154" />
	</node>
	<node lat="68.31494166414573" lon="17.58177499670168" id="-14596">
		<tag k="name" v="Einarajávri" />
		<tag k="name:se" v="Einarajávri" />
		<tag k="natural" v="water" />
		<tag k="ssr:stedsnr" v="321166" />
	</node>
	<node lat="68.3039916630216" lon="17.450774995519286" id="-14597">
		<tag k="name" v="Bihparjávri" />
		<tag k="name:se" v="Bihparjávri" />
		<tag k="natural" v="water" />
		<tag k="ssr:stedsnr" v="321177" />
	</node>
	<node lat="68.39766389187237" lon="16.657338879027765" id="-14599">
		<tag k="name" v="Dalelva" />
		<tag k="ssr:stedsnr" v="321423" />
		<tag k="waterway" v="river" />
	</node>
	<node lat="68.59863333091812" lon="17.619374987327777" id="-14601">
		<tag k="name" v="Gratangseidet" />
		<tag k="name:no" v="Gratangseidet" />
		<tag k="name:se" v="Rivttákáidi" />
		<tag k="place" v="locality" />
		<tag k="ssr:stedsnr" v="321527" />
	</node>
	<node lat="68.36455000491993" lon="17.35389165813165" id="-14613">
		<tag k="name" v="Peppartuvvatnet" />
		<tag k="natural" v="water" />
		<tag k="ssr:stedsnr" v="321913" />
	</node>
	<node lat="68.35259444443852" lon="16.838655548540842" id="-14616">
		<tag k="alt_name" v="Alfonvatnet" />
		<tag k="name" v="Alfanvatnet" />
		<tag k="natural" v="water" />
		<tag k="ssr:stedsnr" v="321870" />
	</node>
	<node lat="68.37454999700638" lon="17.046300006911377" id="-14618">
		<tag k="name" v="Mølnelva" />
		<tag k="ssr:stedsnr" v="321944" />
		<tag k="waterway" v="stream" />
	</node>
	<node lat="68.52128333018067" lon="17.34605000605977" id="-14623">
		<tag k="name" v="Fuglevatnan" />
		<tag k="natural" v="water" />
		<tag k="ssr:stedsnr" v="323640" />
		<tag k="water" v="lake" />
	</node>
	<node lat="68.37809721845927" lon="17.046769447880173" id="-14655">
		<tag k="name" v="Oterelva" />
		<tag k="ssr:stedsnr" v="328731" />
		<tag k="waterway" v="stream" />
	</node>
	<node lat="68.52897222506952" lon="17.353102786473627" id="-14660">
		<tag k="name" v="Knivslirelva" />
		<tag k="ssr:stedsnr" v="328235" />
		<tag k="waterway" v="river" />
	</node>
	<node lat="68.34330555402471" lon="16.88844721305916" id="-14662">
		<tag k="name" v="Kjelkebekken" />
		<tag k="ssr:stedsnr" v="328327" />
		<tag k="waterway" v="stream" />
	</node>
	<node lat="68.05786666372444" lon="16.44529998909832" id="-14689">
		<tag k="name" v="Fonteelva" />
		<tag k="ssr:stedsnr" v="342177" />
		<tag k="waterway" v="stream" />
	</node>
	<node lat="68.23482221930699" lon="16.743636098527702" id="-14691">
		<tag k="name" v="Brattmålelva" />
		<tag k="ssr:stedsnr" v="342449" />
		<tag k="waterway" v="stream" />
	</node>
	<node lat="68.3042694486469" lon="17.37434998937398" id="-14692">
		<tag k="name" v="Kvantforsen" />
		<tag k="natural" v="waterfall" />
		<tag k="ssr:stedsnr" v="342652" />
	</node>
	<node lat="68.33958611136511" lon="16.556169434959795" id="-14727">
		<tag k="name" v="Botnelva" />
		<tag k="ssr:stedsnr" v="381695" />
		<tag k="waterway" v="stream" />
	</node>
	<node lat="68.24952777540388" lon="16.7202972091411" id="-14732">
		<tag k="alt_name" v="Lillevatnet" />
		<tag k="fixme" v="multiple name tags, choose one and add the other to alt_name" />
		<tag k="name" v="Litlevatnet;Lille Sjurvatnet" />
		<tag k="natural" v="water" />
		<tag k="ssr:stedsnr" v="380590" />
	</node>
	<node lat="68.01970000046707" lon="16.96527498950553" id="-14740">
		<tag k="name" v="Noajdejávrre" />
		<tag k="name:smj" v="Noajdejávrre" />
		<tag k="natural" v="water" />
		<tag k="old_name:smj" v="Noaidejávri" />
		<tag k="ssr:stedsnr" v="380698" />
		<tag k="water" v="lake" />
	</node>
	<node lat="68.5872777811851" lon="17.633277781451298" id="-14751">
		<tag k="name" v="Øyvatnet" />
		<tag k="natural" v="water" />
		<tag k="ssr:stedsnr" v="381529" />
	</node>
	<node lat="68.59183333356913" lon="17.58135834231601" id="-14753">
		<tag k="loc_name:se" v="Spárbalássájohka" />
		<tag k="name" v="Prestjordelva" />
		<tag k="name:no" v="Prestjordelva" />
		<tag k="ssr:stedsnr" v="381538" />
		<tag k="waterway" v="river" />
	</node>
	<node lat="68.5775749974108" lon="17.604863896577573" id="-14754">
		<tag k="name" v="Tverrelva" />
		<tag k="ssr:stedsnr" v="381539" />
		<tag k="waterway" v="stream" />
	</node>
	<node lat="68.5370749954884" lon="17.45627500417143" id="-14760">
		<tag k="name" v="Herjangselva" />
		<tag k="ssr:stedsnr" v="381764" />
		<tag k="waterway" v="stream" />
	</node>
	<node lat="68.37804999559452" lon="16.613130564623543" id="-14761">
		<tag k="fixme" v="multiple name tags, choose one and add the other to alt_name" />
		<tag k="name" v="Holmvatnet;Store Holmvatnet" />
		<tag k="natural" v="water" />
		<tag k="ssr:stedsnr" v="381767" />
		<tag k="water" v="lake" />
	</node>
	<node lat="68.11072222455651" lon="16.313291658518125" id="-14770">
		<tag k="alt_name" v="Kobbviktjørna" />
		<tag k="name" v="Kobbvikvatnet" />
		<tag k="natural" v="water" />
		<tag k="ssr:stedsnr" v="381581" />
	</node>
	<node lat="68.10754166888883" lon="16.352361116999962" id="-14771">
		<tag k="name" v="Kjøpsvikvatnet" />
		<tag k="natural" v="water" />
		<tag k="ssr:stedsnr" v="381583" />
	</node>
	<node lat="68.30629166497982" lon="16.611050008032258" id="-14776">
		<tag k="name" v="Olaelva" />
		<tag k="ssr:stedsnr" v="381628" />
		<tag k="waterway" v="stream" />
	</node>
	<node lat="68.31029166666224" lon="16.73910277748731" id="-14779">
		<tag k="fixme" v="multiple name tags, choose one and add the other to alt_name" />
		<tag k="name" v="Bruksjordforsen;Børsvassforsen" />
		<tag k="natural" v="waterfall" />
		<tag k="ssr:stedsnr" v="381637" />
	</node>
	<node lat="68.2562416689754" lon="17.29924166175515" id="-14786">
		<tag k="name" v="Asekvatnet" />
		<tag k="natural" v="water" />
		<tag k="ssr:stedsnr" v="381837" />
	</node>
	<node lat="68.22000277758171" lon="18.09503888554492" id="-14791">
		<tag k="name" v="Vávratjohka" />
		<tag k="name:se" v="Vávratjohka" />
		<tag k="ssr:stedsnr" v="381884" />
		<tag k="waterway" v="stream" />
	</node>
	<node lat="68.16131388652119" lon="18.0562749916782" id="-14794">
		<tag k="name" v="Gállanjohka" />
		<tag k="name:se" v="Gállanjohka" />
		<tag k="ssr:stedsnr" v="381888" />
		<tag k="waterway" v="stream" />
	</node>
	<node lat="68.35593611468632" lon="17.095886114593245" id="-14796">
		<tag k="name" v="Hesjebakkvatnet" />
		<tag k="natural" v="water" />
		<tag k="ssr:stedsnr" v="381940" />
	</node>
	<node lat="68.4698527796275" lon="17.859144432406215" id="-14800">
		<tag k="alt_name" v="Haugfjellvatnet, nedre" />
		<tag k="name" v="Nedre Haugfjellvatnet" />
		<tag k="natural" v="water" />
		<tag k="ssr:stedsnr" v="382747" />
		<tag k="water" v="lake" />
	</node>
	<node lat="68.54331111134753" lon="17.38204722483026" id="-14809">
		<tag k="alt_name" v="Storelvforsen" />
		<tag k="name" v="Storelvfossen" />
		<tag k="natural" v="waterfall" />
		<tag k="ssr:stedsnr" v="384571" />
	</node>
	<node lat="68.23177222254625" lon="17.421949991230782" id="-14823">
		<tag k="name" v="Sælbotosen" />
		<tag k="natural" v="bay" />
		<tag k="ssr:stedsnr" v="388459" />
	</node>
	<node lat="68.40665555450528" lon="17.353522228852267" id="-14825">
		<tag k="name" v="Mølnelva" />
		<tag k="ssr:stedsnr" v="388570" />
		<tag k="waterway" v="river" />
	</node>
	<node lat="68.40775555927833" lon="17.390075010931607" id="-14826">
		<tag k="name" v="Sandgropelva" />
		<tag k="ssr:stedsnr" v="388576" />
		<tag k="waterway" v="river" />
	</node>
	<node lat="68.4657499979289" lon="17.68445278268976" id="-14829">
		<tag k="name" v="Moelva" />
		<tag k="ssr:stedsnr" v="389022" />
		<tag k="waterway" v="river" />
	</node>
	<node lat="68.31871944184539" lon="16.666541652654338" id="-14830">
		<tag k="name" v="Fiskedammen" />
		<tag k="natural" v="water" />
		<tag k="ssr:stedsnr" v="389131" />
	</node>
	<node lat="68.36983055282515" lon="17.607269432810266" id="-14833">
		<tag k="name" v="Sørsidstorneset" />
		<tag k="natural" v="cape" />
		<tag k="ssr:stedsnr" v="389331" />
	</node>
	<node lat="68.36602222497436" lon="17.60036944979049" id="-14834">
		<tag k="name" v="Nordsidstorneset" />
		<tag k="natural" v="cape" />
		<tag k="ssr:stedsnr" v="389332" />
	</node>
	<node lat="68.51884722448855" lon="17.391397212717255" id="-14842">
		<tag k="name" v="Krokelva" />
		<tag k="ssr:stedsnr" v="389283" />
		<tag k="waterway" v="river" />
	</node>
	<node lat="68.49620277741545" lon="17.553052771325067" id="-14847">
		<tag k="name" v="Per Rasmuselva" />
		<tag k="ssr:stedsnr" v="389469" />
		<tag k="waterway" v="river" />
	</node>
	<node lat="68.26498888966326" lon="17.244380565395705" id="-14863">
		<tag k="name" v="Storelvneset" />
		<tag k="natural" v="cape" />
		<tag k="ssr:stedsnr" v="389522" />
	</node>
	<node lat="68.31694999889704" lon="17.059313899010498" id="-14885">
		<tag k="name" v="Åskenes" />
		<tag k="natural" v="cape" />
		<tag k="ssr:stedsnr" v="403934" />
	</node>
	<node lat="68.32954167003523" lon="16.59749999807075" id="-14889">
		<tag k="name" v="Rundhaugbekken" />
		<tag k="ssr:stedsnr" v="403708" />
		<tag k="waterway" v="stream" />
	</node>
	<node lat="68.38689999836225" lon="17.74866944446526" id="-14898">
		<tag k="name" v="Langvatnet" />
		<tag k="natural" v="water" />
		<tag k="ssr:stedsnr" v="441218" />
	</node>
	<node lat="68.32851667039645" lon="16.574174988930817" id="-14902">
		<tag k="name" v="Dalvatnet" />
		<tag k="natural" v="water" />
		<tag k="ssr:stedsnr" v="442658" />
	</node>
	<node lat="68.08263888762274" lon="16.517922226236866" id="-14913">
		<tag k="name" v="Guomojjåhkå" />
		<tag k="name:smj" v="Guomojjåhkå" />
		<tag k="old_name:smj" v="Guomojohka" />
		<tag k="ssr:stedsnr" v="441533" />
		<tag k="waterway" v="stream" />
	</node>
	<node lat="68.29889444498349" lon="16.75978055175053" id="-14931">
		<tag k="name" v="Klubben" />
		<tag k="place" v="islet" />
		<tag k="ssr:stedsnr" v="442612" />
	</node>
	<node lat="68.37130833219071" lon="16.654369453566765" id="-14945">
		<tag k="name" v="Holmvatnet" />
		<tag k="natural" v="water" />
		<tag k="ssr:stedsnr" v="442730" />
		<tag k="water" v="lake" />
	</node>
	<node lat="68.37537222102797" lon="16.751958340972774" id="-14946">
		<tag k="name" v="Nilsheimelva" />
		<tag k="ssr:stedsnr" v="442732" />
		<tag k="waterway" v="stream" />
	</node>
	<node lat="68.38009722364455" lon="16.74368610629993" id="-14953">
		<tag k="name" v="Nilsheimforsen" />
		<tag k="natural" v="waterfall" />
		<tag k="ssr:stedsnr" v="442768" />
	</node>
	<node lat="68.27934722451522" lon="17.271708342431385" id="-14958">
		<tag k="name" v="Gjerdhaugvatnet" />
		<tag k="natural" v="water" />
		<tag k="ssr:stedsnr" v="442865" />
	</node>
	<node lat="68.2511944413332" lon="17.287969431006275" id="-14965">
		<tag k="name" v="Kvanntovatnan" />
		<tag k="natural" v="water" />
		<tag k="ssr:stedsnr" v="442830" />
	</node>
	<node lat="68.37551388517507" lon="17.19182776657814" id="-14966">
		<tag k="name" v="Løbergelva" />
		<tag k="ssr:stedsnr" v="442963" />
		<tag k="waterway" v="stream" />
	</node>
	<node lat="68.32125555214037" lon="16.941466666693238" id="-14973">
		<tag k="name" v="Småvatnan" />
		<tag k="natural" v="water" />
		<tag k="ssr:stedsnr" v="443820" />
	</node>
	<node lat="68.57101666706915" lon="17.413274993151393" id="-14978">
		<tag k="name" v="Treholmtjønna" />
		<tag k="natural" v="water" />
		<tag k="ssr:stedsnr" v="444940" />
	</node>
	<node lat="68.30430555583915" lon="16.715761109855038" id="-15001">
		<tag k="name" v="Djupvika" />
		<tag k="natural" v="bay" />
		<tag k="ssr:stedsnr" v="449162" />
	</node>
	<node lat="68.2383305563023" lon="16.737738894221568" id="-15003">
		<tag k="name" v="Sjurvatnet" />
		<tag k="natural" v="water" />
		<tag k="ssr:stedsnr" v="502496" />
		<tag k="water" v="lake" />
	</node>
	<node lat="68.22505833141614" lon="16.721313890133246" id="-15004">
		<tag k="name" v="Melkevasseidet" />
		<tag k="place" v="locality" />
		<tag k="ssr:stedsnr" v="502498" />
	</node>
	<node lat="68.37789444201647" lon="16.86388610471003" id="-15017">
		<tag k="name" v="Bøelva" />
		<tag k="ssr:stedsnr" v="502459" />
		<tag k="waterway" v="river" />
	</node>
	<node lat="68.26256666567681" lon="16.691272213581954" id="-15020">
		<tag k="name" v="Storskarelva" />
		<tag k="ssr:stedsnr" v="502541" />
		<tag k="waterway" v="stream" />
	</node>
	<node lat="68.29073333714017" lon="16.39233332700682" id="-15034">
		<tag k="name" v="Rundvatnet" />
		<tag k="natural" v="water" />
		<tag k="ssr:stedsnr" v="502598" />
	</node>
	<node lat="68.07726666929551" lon="17.757066657379927" id="-15041">
		<tag k="name" v="Nuorjjojohka" />
		<tag k="name:se" v="Nuorjjojohka" />
		<tag k="ssr:stedsnr" v="502657" />
		<tag k="waterway" v="stream" />
	</node>
	<node lat="68.42356110981952" lon="17.53557776640011" id="-15055">
		<tag k="name" v="Forsnesvatnet" />
		<tag k="natural" v="water" />
		<tag k="ssr:stedsnr" v="503176" />
		<tag k="water" v="lake" />
	</node>
	<node lat="68.46399722595261" lon="18.093938893497782" id="-15058">
		<tag k="name" v="Langvatnet" />
		<tag k="natural" v="water" />
		<tag k="ssr:stedsnr" v="503156" />
	</node>
	<node lat="68.47400555693477" lon="17.718650007301786" id="-15066">
		<tag k="name" v="Svartvatnet" />
		<tag k="natural" v="water" />
		<tag k="ssr:stedsnr" v="503738" />
	</node>
	<node lat="68.36222499758833" lon="17.419427781192116" id="-15075">
		<tag k="name" v="Sørbukta" />
		<tag k="natural" v="bay" />
		<tag k="ssr:stedsnr" v="503893" />
	</node>
	<node lat="68.40116944061" lon="17.408722211906888" id="-15077">
		<tag k="name" v="Millerjordelva" />
		<tag k="ssr:stedsnr" v="503992" />
		<tag k="waterway" v="stream" />
	</node>
	<node lat="68.34072777753133" lon="17.113300008209787" id="-15082">
		<tag k="name" v="Råntindvatnet - Gaskabeaijávri" />
		<tag k="name:no" v="Råntindvatnet" />
		<tag k="name:se" v="Gaskabeaijávri" />
		<tag k="natural" v="water" />
		<tag k="old_name:se" v="Gaskabæijavri" />
		<tag k="ssr:stedsnr" v="503858" />
		<tag k="water" v="lake" />
	</node>
	<node lat="68.54246111145123" lon="17.482769454101405" id="-15122">
		<tag k="name" v="Lødalelva" />
		<tag k="ssr:stedsnr" v="510300" />
		<tag k="waterway" v="river" />
	</node>
	<node lat="68.37333611211625" lon="16.648597228034575" id="-15124">
		<tag k="name" v="Langvatnet" />
		<tag k="natural" v="water" />
		<tag k="ssr:stedsnr" v="510141" />
		<tag k="water" v="lake" />
	</node>
	<node lat="68.39310555125142" lon="16.713966666573633" id="-15125">
		<tag k="name" v="Furuhaugfossen" />
		<tag k="natural" v="waterfall" />
		<tag k="ssr:stedsnr" v="510213" />
	</node>
	<node lat="68.20826944662146" lon="17.552655561175907" id="-15161">
		<tag k="name" v="Lossielva" />
		<tag k="ssr:stedsnr" v="524093" />
		<tag k="waterway" v="stream" />
	</node>
	<node lat="68.37729444374742" lon="17.5962638793662" id="-15162">
		<tag k="name" v="Kjønna" />
		<tag k="natural" v="water" />
		<tag k="ssr:stedsnr" v="524094" />
	</node>
	<node lat="68.30130000374547" lon="16.78998055110677" id="-15168">
		<tag k="alt_name" v="Gammel-hestnes" />
		<tag k="name" v="Gammelhestnes" />
		<tag k="natural" v="cape" />
		<tag k="ssr:stedsnr" v="524536" />
	</node>
	<node lat="68.22373333587932" lon="17.45312778630704" id="-15174">
		<tag k="name" v="Olderholmen" />
		<tag k="place" v="islet" />
		<tag k="ssr:stedsnr" v="524749" />
	</node>
	<node lat="68.37083055967356" lon="17.523272215699564" id="-15189">
		<tag k="name" v="Skavtuvvatnan" />
		<tag k="natural" v="water" />
		<tag k="ssr:stedsnr" v="562127" />
	</node>
	<node lat="68.36801666611628" lon="17.794205556458152" id="-15191">
		<tag k="name" v="Blåisvatnet - Jápmajávri" />
		<tag k="name:no" v="Blåisvatnet" />
		<tag k="name:se" v="Jápmajávri" />
		<tag k="natural" v="water" />
		<tag k="ssr:stedsnr" v="562132" />
		<tag k="water" v="lake" />
	</node>
	<node lat="68.28676944233972" lon="16.643155545371584" id="-15199">
		<tag k="alt_name" v="Skjelnes" />
		<tag k="name" v="Skjellnes" />
		<tag k="natural" v="cape" />
		<tag k="ssr:stedsnr" v="562576" />
	</node>
	<node lat="68.07153611460396" lon="16.764408333775748" id="-15203">
		<tag k="name" v="Lægdvatnet" />
		<tag k="natural" v="water" />
		<tag k="ssr:stedsnr" v="562548" />
	</node>
	<node lat="68.27541388613054" lon="16.427030565834254" id="-15207">
		<tag k="name" v="Sørelva" />
		<tag k="ssr:stedsnr" v="562571" />
		<tag k="waterway" v="stream" />
	</node>
	<node lat="68.1418916661591" lon="17.474358329947428" id="-15209">
		<tag k="name" v="Iptojohka" />
		<tag k="name:se" v="Iptojohka" />
		<tag k="ssr:stedsnr" v="562634" />
		<tag k="waterway" v="stream" />
	</node>
	<node lat="68.16728611151885" lon="17.793947220816545" id="-15210">
		<tag k="name" v="Stasjonselva - Skearrojohka" />
		<tag k="name:no" v="Stasjonselva" />
		<tag k="name:se" v="Skearrojohka" />
		<tag k="ssr:stedsnr" v="562635" />
		<tag k="waterway" v="river" />
	</node>
	<node lat="68.02687563691119" lon="17.95363414044339" id="-15211">
		<tag k="name" v="Čoarvejávri" />
		<tag k="name:se" v="Čoarvejávri" />
		<tag k="natural" v="water" />
		<tag k="ssr:stedsnr" v="562636" />
		<tag k="water" v="lake" />
	</node>
	<node lat="68.24727777689088" lon="17.690169433163884" id="-15215">
		<tag k="name" v="Nihkejávri" />
		<tag k="name:se" v="Nihkejávri" />
		<tag k="natural" v="water" />
		<tag k="ssr:stedsnr" v="562660" />
		<tag k="water" v="lake" />
	</node>
	<node lat="68.07410555792492" lon="16.93049166107607" id="-15221">
		<tag k="name" v="Fonnvatnet" />
		<tag k="natural" v="water" />
		<tag k="ssr:stedsnr" v="562688" />
		<tag k="water" v="lake" />
	</node>
	<node lat="68.37131944839622" lon="16.623802788535052" id="-15223">
		<tag k="name" v="Okselva" />
		<tag k="ssr:stedsnr" v="562694" />
		<tag k="waterway" v="stream" />
	</node>
	<node lat="68.39511944774277" lon="16.756908333494984" id="-15225">
		<tag k="fixme" v="multiple name tags, choose one and add the other to alt_name" />
		<tag k="name" v="Kjerringvikelva;Kjerringelva" />
		<tag k="ssr:stedsnr" v="562702" />
		<tag k="waterway" v="stream" />
	</node>
	<node lat="68.4053222190748" lon="16.58121389595792" id="-15226">
		<tag k="name" v="Sivertvatnet" />
		<tag k="natural" v="water" />
		<tag k="ssr:stedsnr" v="562716" />
	</node>
	<node lat="68.15756944831882" lon="16.469447223231047" id="-15227">
		<tag k="name" v="Storelva" />
		<tag k="ssr:stedsnr" v="562824" />
		<tag k="waterway" v="stream" />
	</node>
	<node lat="68.32920833118737" lon="18.115686102672264" id="-15228">
		<tag k="name" v="Dossaganjávri" />
		<tag k="name:se" v="Dossaganjávri" />
		<tag k="natural" v="water" />
		<tag k="ssr:stedsnr" v="563086" />
		<tag k="water" v="lake" />
	</node>
	<node lat="68.31546666380144" lon="17.971872207849632" id="-15229">
		<tag k="name" v="Oallajohka" />
		<tag k="name:se" v="Oallajohka" />
		<tag k="ssr:stedsnr" v="563180" />
		<tag k="waterway" v="river" />
	</node>
	<node lat="68.55310000342601" lon="18.113205557324573" id="-15233">
		<tag k="name" v="Isvatnet - Jiekŋajávri" />
		<tag k="name:no" v="Isvatnet" />
		<tag k="name:se" v="Jiekŋajávri" />
		<tag k="natural" v="water" />
		<tag k="old_name:se" v="Jiegnajavri" />
		<tag k="ssr:stedsnr" v="563262" />
		<tag k="water" v="lake" />
	</node>
	<node lat="68.43945555699491" lon="17.54094444303876" id="-15234">
		<tag k="name" v="Forsneselva" />
		<tag k="ssr:stedsnr" v="563222" />
		<tag k="waterway" v="stream" />
	</node>
	<node lat="68.29952777993425" lon="16.748847223785365" id="-15235">
		<tag k="alt_name" v="Langnes" />
		<tag k="name" v="Langneset" />
		<tag k="natural" v="cape" />
		<tag k="ssr:stedsnr" v="563431" />
	</node>
	<node lat="68.57819167027557" lon="17.64598888982189" id="-15238">
		<tag k="name" v="Ørnebergvatnet" />
		<tag k="natural" v="water" />
		<tag k="ssr:stedsnr" v="563509" />
	</node>
	<node lat="68.0993416648926" lon="16.680508332867188" id="-15243">
		<tag k="name" v="Skjelelva" />
		<tag k="ssr:stedsnr" v="563575" />
		<tag k="waterway" v="stream" />
	</node>
	<node lat="68.11900278007296" lon="16.34106110705072" id="-15254">
		<tag k="name" v="Steinfjellvatnet" />
		<tag k="natural" v="water" />
		<tag k="ssr:stedsnr" v="563564" />
	</node>
	<node lat="68.31998610970277" lon="16.6391333196674" id="-15258">
		<tag k="name" v="Storelva" />
		<tag k="ssr:stedsnr" v="563625" />
		<tag k="waterway" v="stream" />
	</node>
	<node lat="68.34862499938852" lon="16.59385832510272" id="-15274">
		<tag k="name" v="Kvitforsen" />
		<tag k="natural" v="waterfall" />
		<tag k="ssr:stedsnr" v="563708" />
	</node>
	<node lat="68.55141666835496" lon="17.7658083309985" id="-15278">
		<tag k="alt_name:no" v="Hulelva" />
		<tag k="name" v="Holelva - Ráigejohka" />
		<tag k="name:no" v="Holelva" />
		<tag k="name:se" v="Ráigejohka" />
		<tag k="old_name:se" v="Raigejåkka" />
		<tag k="ssr:stedsnr" v="563777" />
		<tag k="waterway" v="stream" />
	</node>
	<node lat="68.36846944054037" lon="16.82111665798004" id="-15291">
		<tag k="name" v="Slettbakkelva" />
		<tag k="ssr:stedsnr" v="563934" />
		<tag k="waterway" v="stream" />
	</node>
	<node lat="68.31369721982617" lon="17.328791665051995" id="-15296">
		<tag k="name" v="Erikelva" />
		<tag k="ssr:stedsnr" v="563883" />
		<tag k="waterway" v="stream" />
	</node>
	<node lat="68.36898055248184" lon="16.637683334489378" id="-15329">
		<tag k="name" v="Holmvasselva" />
		<tag k="ssr:stedsnr" v="570124" />
		<tag k="waterway" v="river" />
	</node>
	<node lat="68.40677222242654" lon="17.359975005791227" id="-15340">
		<tag k="name" v="Svartdalstjønna" />
		<tag k="natural" v="water" />
		<tag k="ssr:stedsnr" v="570545" />
	</node>
	<node lat="68.5559194413295" lon="17.617194433038726" id="-15359">
		<tag k="name" v="Tverrelva" />
		<tag k="ssr:stedsnr" v="571481" />
		<tag k="waterway" v="river" />
	</node>
	<node lat="68.53578611349376" lon="17.401958324841022" id="-15364">
		<tag k="name" v="Trollvatnet" />
		<tag k="natural" v="water" />
		<tag k="ssr:stedsnr" v="571299" />
		<tag k="water" v="lake" />
	</node>
	<node lat="68.24147222652657" lon="16.7598611142765" id="-15375">
		<tag k="loc_name" v="Sagelva" />
		<tag k="name" v="Storelva" />
		<tag k="ssr:stedsnr" v="573763" />
		<tag k="waterway" v="stream" />
	</node>
	<node lat="68.29310277422924" lon="16.673855559843506" id="-15383">
		<tag k="name" v="Storholmen" />
		<tag k="place" v="islet" />
		<tag k="ssr:stedsnr" v="585625" />
	</node>
	<node lat="68.24931389029325" lon="16.726405552595523" id="-15398">
		<tag k="name" v="Vedneset" />
		<tag k="natural" v="cape" />
		<tag k="ssr:stedsnr" v="585587" />
	</node>
	<node lat="68.37934167003681" lon="16.66475834446178" id="-15400">
		<tag k="name" v="Storjordvatnet" />
		<tag k="natural" v="water" />
		<tag k="ssr:stedsnr" v="585684" />
	</node>
	<node lat="68.33360833362762" lon="16.043074997418827" id="-15411">
		<tag k="name" v="Langosen" />
		<tag k="natural" v="bay" />
		<tag k="ssr:stedsnr" v="623376" />
	</node>
	<node lat="68.11821388619002" lon="17.887588874246646" id="-15417">
		<tag k="name" v="Čáihnajávrrit" />
		<tag k="name:se" v="Čáihnajávrrit" />
		<tag k="natural" v="water" />
		<tag k="ssr:stedsnr" v="623669" />
		<tag k="water" v="lake" />
	</node>
	<node lat="68.39168055464634" lon="16.638963881925108" id="-15424">
		<tag k="name" v="Lysvatnet" />
		<tag k="natural" v="water" />
		<tag k="ssr:stedsnr" v="623749" />
	</node>
	<node lat="68.29858611511989" lon="16.622069451161387" id="-15428">
		<tag k="name" v="Dalelva" />
		<tag k="ssr:stedsnr" v="623633" />
		<tag k="waterway" v="stream" />
	</node>
	<node lat="68.15913333709833" lon="17.979919442316437" id="-15433">
		<tag k="name" v="Kalikselva" />
		<tag k="ssr:stedsnr" v="623648" />
		<tag k="waterway" v="stream" />
	</node>
	<node lat="68.17963055581345" lon="17.826241665972354" id="-15435">
		<tag k="name" v="Čunojohka" />
		<tag k="name:se" v="Čunojohka" />
		<tag k="ssr:stedsnr" v="623653" />
		<tag k="waterway" v="river" />
	</node>
	<node lat="68.3242138862049" lon="18.025675003897753" id="-15439">
		<tag k="name" v="Suolojávri" />
		<tag k="name:se" v="Suolojávri" />
		<tag k="natural" v="water" />
		<tag k="old_name:se" v="Suolajavri" />
		<tag k="ssr:stedsnr" v="624096" />
		<tag k="water" v="lake" />
	</node>
	<node lat="68.58735555895205" lon="17.63778888309379" id="-15449">
		<tag k="name" v="Småvatnan" />
		<tag k="natural" v="water" />
		<tag k="ssr:stedsnr" v="624529" />
		<tag k="water" v="lake" />
	</node>
	<node lat="68.31363332981589" lon="17.000924991811534" id="-15458">
		<tag k="name" v="Seljenesskreda" />
		<tag k="natural" v="cape" />
		<tag k="ssr:stedsnr" v="624856" />
	</node>
	<node lat="68.50212777562685" lon="17.54295831802163" id="-15459">
		<tag k="name" v="Elvhaugosen" />
		<tag k="natural" v="bay" />
		<tag k="ssr:stedsnr" v="624636" />
	</node>
	<node lat="68.55829444625452" lon="17.83346666657383" id="-15461">
		<tag k="name" v="Stuorabálakjávrrit" />
		<tag k="name:se" v="Stuorabálakjávrrit" />
		<tag k="natural" v="water" />
		<tag k="old_name:se" v="Stuorabalagjavrit" />
		<tag k="ssr:stedsnr" v="624738" />
	</node>
	<node lat="68.33760833337973" lon="16.89559999350881" id="-15476">
		<tag k="name" v="Krokelva" />
		<tag k="ssr:stedsnr" v="624894" />
		<tag k="waterway" v="stream" />
	</node>
	<node lat="68.3768749985001" lon="17.125808330059105" id="-15479">
		<tag k="name" v="Vidrekelva" />
		<tag k="ssr:stedsnr" v="624966" />
		<tag k="waterway" v="stream" />
	</node>
	<node lat="68.51764166373638" lon="17.354263881442005" id="-15484">
		<tag k="name" v="Innerstorelva" />
		<tag k="ssr:stedsnr" v="626644" />
		<tag k="waterway" v="stream" />
	</node>
	<node lat="68.24624722523497" lon="16.88711111554381" id="-15487">
		<tag k="name" v="Garnelva" />
		<tag k="ssr:stedsnr" v="628367" />
		<tag k="waterway" v="river" />
	</node>
	<node lat="68.55480277605753" lon="17.72248889103768" id="-15520">
		<tag k="name" v="Gambergfossen" />
		<tag k="natural" v="waterfall" />
		<tag k="ssr:stedsnr" v="631053" />
	</node>
	<node lat="68.48984444698907" lon="17.540308319890276" id="-15526">
		<tag k="name" v="Lillevatnet" />
		<tag k="natural" v="water" />
		<tag k="ssr:stedsnr" v="631423" />
		<tag k="water" v="lake" />
	</node>
	<node lat="68.23659444550172" lon="16.730402773730948" id="-15556">
		<tag k="name" v="Teltholmen" />
		<tag k="place" v="islet" />
		<tag k="ssr:stedsnr" v="645494" />
	</node>
	<node lat="68.33838611017266" lon="17.285386105549126" id="-15565">
		<tag k="name" v="Mølnelva" />
		<tag k="ssr:stedsnr" v="645828" />
		<tag k="waterway" v="stream" />
	</node>
	<node lat="68.34261388785586" lon="17.28406110046649" id="-15566">
		<tag k="name" v="Loftelva" />
		<tag k="ssr:stedsnr" v="645829" />
		<tag k="waterway" v="stream" />
	</node>
	<node lat="68.28829721862193" lon="16.628363881843235" id="-15582">
		<tag k="name" v="Hestvika" />
		<tag k="natural" v="bay" />
		<tag k="ssr:stedsnr" v="889661" />
	</node>
	<node lat="68.0951666637328" lon="16.76167777256369" id="-15590">
		<tag k="name" v="Austerdalselva" />
		<tag k="ssr:stedsnr" v="744498" />
		<tag k="waterway" v="river" />
	</node>
	<node lat="68.28234999885457" lon="16.81668332766295" id="-15592">
		<tag k="name" v="Stokkedalholmen" />
		<tag k="place" v="islet" />
		<tag k="ssr:stedsnr" v="744538" />
	</node>
	<node lat="68.29082778040579" lon="16.797336099899034" id="-15593">
		<tag k="name" v="Kariholmen" />
		<tag k="place" v="islet" />
		<tag k="ssr:stedsnr" v="744543" />
	</node>
	<node lat="68.28159999940569" lon="16.48194721436392" id="-15595">
		<tag k="name" v="Sæterelva" />
		<tag k="ssr:stedsnr" v="744548" />
		<tag k="waterway" v="stream" />
	</node>
	<node lat="68.34730277377992" lon="16.10368888099316" id="-15602">
		<tag k="name" v="Lomtjønna" />
		<tag k="natural" v="water" />
		<tag k="ssr:stedsnr" v="745351" />
	</node>
	<node lat="68.29004999731815" lon="16.187550004919103" id="-15603">
		<tag k="name" v="Bremvikvatnan" />
		<tag k="natural" v="water" />
		<tag k="ssr:stedsnr" v="745383" />
	</node>
	<node lat="68.05216666738107" lon="16.857494445629968" id="-15608">
		<tag k="name" v="Skogvatnet" />
		<tag k="natural" v="water" />
		<tag k="ssr:stedsnr" v="745692" />
		<tag k="water" v="lake" />
	</node>
	<node lat="68.57703055201128" lon="17.557183330596793" id="-15615">
		<tag k="name" v="Sæterelva" />
		<tag k="ssr:stedsnr" v="745529" />
		<tag k="waterway" v="stream" />
	</node>
	<node lat="68.0677861112988" lon="16.513880557434682" id="-15622">
		<tag k="name" v="Sommarsetvatnet" />
		<tag k="natural" v="water" />
		<tag k="ssr:stedsnr" v="745551" />
	</node>
	<node lat="68.16443713376805" lon="17.572241176976434" id="-15623">
		<tag k="name" v="Nordelvkorset" />
		<tag k="natural" v="bay" />
		<tag k="ssr:stedsnr" v="745636" />
	</node>
	<node lat="67.98457500222328" lon="17.87748054455032" id="-15625">
		<tag k="name" v="Vannaksvatnet - Vanasjávri" />
		<tag k="name:no" v="Vannaksvatnet" />
		<tag k="name:se" v="Vanasjávri" />
		<tag k="natural" v="water" />
		<tag k="ssr:stedsnr" v="745642" />
		<tag k="water" v="lake" />
	</node>
	<node lat="68.03548055732719" lon="17.732230546012037" id="-15626">
		<tag k="name" v="Jorbesjávri" />
		<tag k="name:se" v="Jorbesjávri" />
		<tag k="natural" v="water" />
		<tag k="ssr:stedsnr" v="745646" />
	</node>
	<node lat="68.05967778248379" lon="17.949197209229897" id="-15627">
		<tag k="name" v="Čoarvejávrrit" />
		<tag k="name:se" v="Čoarvejávrrit" />
		<tag k="natural" v="water" />
		<tag k="ssr:stedsnr" v="745649" />
		<tag k="water" v="lake" />
	</node>
	<node lat="68.20848889011103" lon="17.49509445271369" id="-15629">
		<tag k="name" v="Skjoma" />
		<tag k="ssr:stedsnr" v="745663" />
		<tag k="waterway" v="river" />
	</node>
	<node lat="68.11161111088032" lon="17.363513884246736" id="-15634">
		<tag k="name" v="Čoađgejávri" />
		<tag k="name:no" v="Tjårdavatnet" />
		<tag k="name:se" v="Čoađgejávri" />
		<tag k="natural" v="water" />
		<tag k="old_name:se" v="Čoadgejávri" />
		<tag k="ssr:stedsnr" v="745736" />
		<tag k="water" v="lake" />
	</node>
	<node lat="68.5744305551407" lon="17.818694441078108" id="-15639">
		<tag k="name" v="Storforsen" />
		<tag k="natural" v="waterfall" />
		<tag k="ssr:stedsnr" v="745747" />
	</node>
	<node lat="68.15045555220222" lon="17.10495833559579" id="-15641">
		<tag k="name" v="Kobbvatnet" />
		<tag k="natural" v="water" />
		<tag k="ssr:stedsnr" v="745752" />
		<tag k="water" v="lake" />
	</node>
	<node lat="68.56612222655922" lon="17.464255552976987" id="-15643">
		<tag k="name" v="Djupvatnet" />
		<tag k="natural" v="water" />
		<tag k="ssr:stedsnr" v="745755" />
	</node>
	<node lat="68.30021388964221" lon="17.359136115835163" id="-15654">
		<tag k="name" v="Slettelva" />
		<tag k="ssr:stedsnr" v="745849" />
		<tag k="waterway" v="stream" />
	</node>
	<node lat="68.47254999669228" lon="17.919705551107388" id="-15665">
		<tag k="name" v="Grøndalsvatnet" />
		<tag k="natural" v="water" />
		<tag k="ssr:stedsnr" v="746725" />
	</node>
	<node lat="68.47821666644016" lon="17.66062221658939" id="-15666">
		<tag k="name" v="Nevelva" />
		<tag k="ssr:stedsnr" v="746729" />
		<tag k="waterway" v="stream" />
	</node>
	<node lat="68.51819721790925" lon="17.26823889089519" id="-15684">
		<tag k="name" v="Hellarelva" />
		<tag k="ssr:stedsnr" v="748632" />
		<tag k="waterway" v="stream" />
	</node>
	<node lat="68.35913333715467" lon="16.645197219983412" id="-15714">
		<tag k="name" v="Storvatnet" />
		<tag k="natural" v="water" />
		<tag k="ssr:stedsnr" v="752173" />
		<tag k="water" v="lake" />
	</node>
	<node lat="68.56198946463375" lon="17.693134688519084" id="-15723">
		<tag k="name" v="Knutelva" />
		<tag k="ssr:stedsnr" v="753034" />
		<tag k="waterway" v="river" />
	</node>
	<node lat="68.3323027816021" lon="16.542538883974398" id="-15777">
		<tag k="name" v="Rundhaugelva" />
		<tag k="ssr:stedsnr" v="767355" />
		<tag k="waterway" v="stream" />
	</node>
	<node lat="68.31535833479715" lon="16.194916659819906" id="-15778">
		<tag k="name" v="Brennskogosen" />
		<tag k="natural" v="bay" />
		<tag k="ssr:stedsnr" v="767368" />
	</node>
	<node lat="68.31935277434032" lon="16.19565833523413" id="-15779">
		<tag k="name" v="Øyosen" />
		<tag k="natural" v="bay" />
		<tag k="ssr:stedsnr" v="767370" />
	</node>
	<node lat="68.39578055826462" lon="16.531050011412344" id="-15781">
		<tag k="name" v="Revnes" />
		<tag k="natural" v="cape" />
		<tag k="ssr:stedsnr" v="767631" />
	</node>
	<node lat="68.30224444660674" lon="17.368416676289012" id="-15783">
		<tag k="name" v="Kvateelva" />
		<tag k="ssr:stedsnr" v="767695" />
		<tag k="waterway" v="stream" />
	</node>
	<node lat="68.34457222570646" lon="16.704213878081795" id="-15784">
		<tag k="name" v="Grytvatnet" />
		<tag k="natural" v="water" />
		<tag k="ssr:stedsnr" v="767707" />
	</node>
	<node lat="68.31954166296319" lon="16.639741656843746" id="-15785">
		<tag k="name" v="Klubbnesodden" />
		<tag k="natural" v="cape" />
		<tag k="ssr:stedsnr" v="767725" />
	</node>
	<node lat="68.07801666410133" lon="16.801999989671746" id="-15802">
		<tag k="name" v="Nekkelvvatnet" />
		<tag k="natural" v="water" />
		<tag k="ssr:stedsnr" v="805555" />
	</node>
	<node lat="68.23070555307314" lon="16.72978888409385" id="-15813">
		<tag k="name" v="Botnelva" />
		<tag k="ssr:stedsnr" v="805512" />
		<tag k="waterway" v="stream" />
	</node>
	<node lat="68.22589722306385" lon="16.80817778538354" id="-15814">
		<tag k="name" v="Hjertvatnet - Vájmmojávrre" />
		<tag k="name:no" v="Hjertvatnet" />
		<tag k="name:smj" v="Vájmmojávrre" />
		<tag k="natural" v="water" />
		<tag k="old_name:smj" v="Vájmmojávvre" />
		<tag k="ssr:stedsnr" v="805518" />
		<tag k="water" v="lake" />
	</node>
	<node lat="68.219583337939" lon="16.26373332238996" id="-15815">
		<tag k="alt_name" v="Langmarkvatnet" />
		<tag k="name" v="Øvervatnet" />
		<tag k="natural" v="water" />
		<tag k="ssr:stedsnr" v="805519" />
	</node>
	<node lat="68.22352222425059" lon="16.515055554994817" id="-15816">
		<tag k="name" v="Tverrlandsvatnet" />
		<tag k="natural" v="water" />
		<tag k="ssr:stedsnr" v="805522" />
		<tag k="water" v="lake" />
	</node>
	<node lat="68.28345278028817" lon="16.375177767046182" id="-15820">
		<tag k="name" v="Tindelva" />
		<tag k="ssr:stedsnr" v="805590" />
		<tag k="waterway" v="stream" />
	</node>
	<node lat="68.36740000388279" lon="18.049872210599137" id="-15828">
		<tag k="name" v="Brantenvatnet - Skieltejávri" />
		<tag k="name:no" v="Brantenvatnet" />
		<tag k="name:se" v="Skieltejávri" />
		<tag k="natural" v="water" />
		<tag k="ssr:stedsnr" v="806079" />
		<tag k="water" v="lake" />
	</node>
	<node lat="68.37897500055612" lon="17.724327783954312" id="-15833">
		<tag k="name" v="Rundtindvatnet - Rávdojávri" />
		<tag k="name:no" v="Rundtindvatnet" />
		<tag k="name:se" v="Rávdojávri" />
		<tag k="natural" v="water" />
		<tag k="ssr:stedsnr" v="806137" />
		<tag k="water" v="lake" />
	</node>
	<node lat="68.11453333674963" lon="17.68506110422632" id="-15840">
		<tag k="name" v="Kobbvatnet - Nuorjjojávri" />
		<tag k="name:no" v="Kobbvatnet" />
		<tag k="name:se" v="Nuorjjojávri" />
		<tag k="natural" v="water" />
		<tag k="ssr:stedsnr" v="806659" />
		<tag k="water" v="lake" />
	</node>
	<node lat="68.24799166767505" lon="17.990891655133616" id="-15843">
		<tag k="name" v="Sealggajávri" />
		<tag k="name:se" v="Sealggajávri" />
		<tag k="natural" v="water" />
		<tag k="ssr:stedsnr" v="806676" />
		<tag k="water" v="lake" />
	</node>
	<node lat="68.31826389081924" lon="16.826874992650325" id="-15854">
		<tag k="name" v="Tverrelva" />
		<tag k="ssr:stedsnr" v="806441" />
		<tag k="waterway" v="river" />
	</node>
	<node lat="68.19264444641028" lon="16.79389444895531" id="-15862">
		<tag k="name" v="Skårvasselva" />
		<tag k="ssr:stedsnr" v="806577" />
		<tag k="waterway" v="river" />
	</node>
	<node lat="68.37016666686856" lon="16.781761103463314" id="-15878">
		<tag k="name" v="Bøvatnet" />
		<tag k="natural" v="water" />
		<tag k="ssr:stedsnr" v="806740" />
		<tag k="water" v="lake" />
	</node>
	<node lat="68.30182500390094" lon="17.411711101827546" id="-15880">
		<tag k="name" v="Slettelvvatnet" />
		<tag k="natural" v="water" />
		<tag k="ssr:stedsnr" v="806849" />
	</node>
	<node lat="68.36539721934244" lon="16.870227782441145" id="-15888">
		<tag k="name" v="Saltvatnet" />
		<tag k="natural" v="water" />
		<tag k="ssr:stedsnr" v="806914" />
		<tag k="water" v="lake" />
	</node>
	<node lat="68.31989722450456" lon="17.32568889900385" id="-15899">
		<tag k="name" v="Bruelva" />
		<tag k="ssr:stedsnr" v="807860" />
		<tag k="waterway" v="stream" />
	</node>
	<node lat="68.32736944040478" lon="16.94019445347103" id="-15902">
		<tag k="name" v="Bruavatnet" />
		<tag k="natural" v="water" />
		<tag k="ssr:stedsnr" v="807827" />
		<tag k="water" v="lake" />
	</node>
	<node lat="68.38369722616396" lon="16.834808335343116" id="-15903">
		<tag k="fixme" v="multiple name tags, choose one and add the other to alt_name" />
		<tag k="name" v="Heggåga;Heggåelv" />
		<tag k="ssr:stedsnr" v="807937" />
		<tag k="waterway" v="river" />
	</node>
	<node lat="68.36233055467615" lon="17.448597208527993" id="-15916">
		<tag k="name" v="Storvatnet" />
		<tag k="name:no" v="Storvatnet" />
		<tag k="name:se" v="Stuorajávri" />
		<tag k="natural" v="water" />
		<tag k="ssr:stedsnr" v="810440" />
		<tag k="water" v="lake" />
	</node>
	<node lat="68.27084722190958" lon="17.418119438943755" id="-15938">
		<tag k="name" v="Urelva" />
		<tag k="ssr:stedsnr" v="813560" />
		<tag k="waterway" v="river" />
	</node>
	<node lat="68.38646484665323" lon="16.81361513546206" id="-15941">
		<tag k="name" v="Trivatnet" />
		<tag k="natural" v="water" />
		<tag k="ssr:stedsnr" v="814298" />
		<tag k="water" v="lake" />
	</node>
	<node lat="68.39205555882305" lon="16.788186108363448" id="-15966">
		<tag k="name" v="Kvitforsen" />
		<tag k="natural" v="waterfall" />
		<tag k="ssr:stedsnr" v="815301" />
	</node>
	<node lat="68.15883889251889" lon="17.549716655063115" id="-15970">
		<tag k="name" v="Sørelvkorset" />
		<tag k="natural" v="water" />
		<tag k="ssr:stedsnr" v="828046" />
		<tag k="water" v="lake" />
	</node>
	<node lat="68.22688889273681" lon="17.430330555438417" id="-15977">
		<tag k="name" v="Sandhølla" />
		<tag k="natural" v="water" />
		<tag k="ssr:stedsnr" v="828745" />
		<tag k="water" v="lake" />
	</node>
	<node lat="68.26189999705713" lon="16.754755561293322" id="-15993">
		<tag k="alt_name" v="Tunnelelva" />
		<tag k="name" v="Tunelva" />
		<tag k="ssr:stedsnr" v="866530" />
		<tag k="waterway" v="stream" />
	</node>
	<node lat="68.27998611335207" lon="16.714433326135158" id="-15996">
		<tag k="name" v="Vadholmen" />
		<tag k="place" v="islet" />
		<tag k="ssr:stedsnr" v="866554" />
	</node>
	<node lat="68.41382777958133" lon="16.73031943441052" id="-16004">
		<tag k="name" v="Skavikelva" />
		<tag k="ssr:stedsnr" v="866459" />
		<tag k="waterway" v="stream" />
	</node>
	<node lat="68.2944638843368" lon="16.79897778618745" id="-16008">
		<tag k="name" v="Storholmen" />
		<tag k="place" v="islet" />
		<tag k="ssr:stedsnr" v="866565" />
	</node>
	<node lat="68.12573333431172" lon="17.585377785331655" id="-16013">
		<tag k="name" v="Kobbelva" />
		<tag k="ssr:stedsnr" v="866607" />
		<tag k="waterway" v="river" />
	</node>
	<node lat="68.15804999989994" lon="17.44515554799827" id="-16015">
		<tag k="fixme" v="multiple name tags, choose one and add the other to alt_name" />
		<tag k="name" v="Čáhppesjávri;Rundtindvatnet" />
		<tag k="name:se" v="Čáhppesjávri;Rundtindvatnet" />
		<tag k="natural" v="water" />
		<tag k="ssr:stedsnr" v="866617" />
		<tag k="water" v="lake" />
	</node>
	<node lat="68.0302138842073" lon="17.810255558203693" id="-16016">
		<tag k="name" v="Gautelisvatnet - Guovdelisjávri" />
		<tag k="name:no" v="Gautelisvatnet" />
		<tag k="name:se" v="Guovdelisjávri" />
		<tag k="natural" v="water" />
		<tag k="ssr:stedsnr" v="866626" />
		<tag k="water" v="lake" />
	</node>
	<node lat="68.28362499734236" lon="17.991758336199553" id="-16027">
		<tag k="name" v="Oallajávri" />
		<tag k="name:se" v="Oallajávri" />
		<tag k="natural" v="water" />
		<tag k="ssr:stedsnr" v="867188" />
		<tag k="water" v="lake" />
	</node>
	<node lat="68.49596666343488" lon="18.08791387818672" id="-16028">
		<tag k="name" v="Holmvatnan" />
		<tag k="natural" v="water" />
		<tag k="ssr:stedsnr" v="867192" />
		<tag k="water" v="lake" />
	</node>
	<node lat="68.29270833383492" lon="18.09976387842805" id="-16033">
		<tag k="name" v="Válfojávri" />
		<tag k="name:se" v="Válfojávri" />
		<tag k="natural" v="water" />
		<tag k="ssr:stedsnr" v="867112" />
		<tag k="water" v="lake" />
	</node>
	<node lat="68.1990500025354" lon="18.09730277969052" id="-16035">
		<tag k="name" v="Čunojávri" />
		<tag k="name:se" v="Čunojávri" />
		<tag k="natural" v="water" />
		<tag k="ssr:stedsnr" v="867875" />
		<tag k="water" v="lake" />
	</node>
	<node lat="68.35097778056033" lon="17.008422217850242" id="-16042">
		<tag k="name" v="Støvelhøla" />
		<tag k="place" v="locality" />
		<tag k="ssr:stedsnr" v="867909" />
	</node>
	<node lat="68.38589999683279" lon="17.300049994573836" id="-16045">
		<tag k="name" v="Mølnelva" />
		<tag k="ssr:stedsnr" v="867997" />
		<tag k="waterway" v="stream" />
	</node>
	<node lat="68.42773055402486" lon="17.88203333174548" id="-16046">
		<tag k="name" v="Lomvatnet" />
		<tag k="natural" v="water" />
		<tag k="ssr:stedsnr" v="867229" />
	</node>
	<node lat="68.4227472198278" lon="17.69115831771244" id="-16055">
		<tag k="name" v="Mølnelva" />
		<tag k="ssr:stedsnr" v="867482" />
		<tag k="waterway" v="stream" />
	</node>
	<node lat="68.47994167096736" lon="17.53750276574974" id="-16061">
		<tag k="name" v="Bruelva" />
		<tag k="ssr:stedsnr" v="867772" />
		<tag k="waterway" v="stream" />
	</node>
	<node lat="68.29876388805461" lon="16.665525006325513" id="-16066">
		<tag k="name" v="Djupvatnet" />
		<tag k="natural" v="water" />
		<tag k="ssr:stedsnr" v="867613" />
		<tag k="water" v="lake" />
	</node>
	<node lat="68.51822222574016" lon="17.785197211123272" id="-16070">
		<tag k="name" v="Čáhppesjávri" />
		<tag k="name:se" v="Čáhppesjávri" />
		<tag k="natural" v="water" />
		<tag k="old_name:se" v="Čappesjavri" />
		<tag k="ssr:stedsnr" v="867655" />
	</node>
	<node lat="68.34196944795168" lon="16.753711107918473" id="-16074">
		<tag k="name" v="Botnelva" />
		<tag k="ssr:stedsnr" v="867697" />
		<tag k="waterway" v="stream" />
	</node>
	<node lat="68.36476334856118" lon="16.77758507426357" id="-16076">
		<tag k="name" v="Myrvatnet" />
		<tag k="natural" v="water" />
		<tag k="ssr:stedsnr" v="867702" />
	</node>
	<node lat="68.35252777399762" lon="16.65626111785296" id="-16077">
		<tag k="name" v="Fuglevatnet" />
		<tag k="natural" v="water" />
		<tag k="ssr:stedsnr" v="867714" />
		<tag k="water" v="lake" />
	</node>
	<node lat="68.39136110969494" lon="16.695455566036202" id="-16083">
		<tag k="name" v="Kvannelva" />
		<tag k="ssr:stedsnr" v="867745" />
		<tag k="waterway" v="stream" />
	</node>
	<node lat="68.51994722063229" lon="18.03561666499119" id="-16084">
		<tag k="name" v="Gádjajávri" />
		<tag k="name:no" v="Karenvatnet" />
		<tag k="name:se" v="Gádjajávri" />
		<tag k="natural" v="water" />
		<tag k="old_name:se" v="Gaddjajavri" />
		<tag k="ssr:stedsnr" v="867753" />
	</node>
	<node lat="68.559183336379" lon="17.700130542533245" id="-16130">
		<tag k="name" v="Gaupanjárga" />
		<tag k="name:se" v="Gaupanjárga" />
		<tag k="natural" v="cape" />
		<tag k="ssr:stedsnr" v="874058" />
	</node>
	<node lat="68.40000555098558" lon="16.702525007693442" id="-16139">
		<tag k="name" v="Stilla" />
		<tag k="natural" v="water" />
		<tag k="ssr:stedsnr" v="874234" />
		<tag k="water" v="lake" />
	</node>
	<node lat="68.32563888842027" lon="16.789424988821636" id="-16145">
		<tag k="name" v="Syllmoelva" />
		<tag k="ssr:stedsnr" v="874439" />
		<tag k="waterway" v="river" />
	</node>
	<node lat="68.53298889142968" lon="17.290063876330642" id="-16156">
		<tag k="name" v="Midalselva" />
		<tag k="ssr:stedsnr" v="875512" />
		<tag k="waterway" v="stream" />
	</node>
	<node lat="68.36925000119086" lon="16.810569440740444" id="-16166">
		<tag k="name" v="Trolldalselva" />
		<tag k="ssr:stedsnr" v="875297" />
		<tag k="waterway" v="stream" />
	</node>
	<node lat="68.24892222317797" lon="17.399724992462072" id="-16204">
		<tag k="name" v="Toftosen" />
		<tag k="natural" v="bay" />
		<tag k="ssr:stedsnr" v="935500" />
	</node>
	<node lat="68.52658611065775" lon="17.439405565400516" id="-16217">
		<tag k="name" v="Bekken" />
		<tag k="ssr:stedsnr" v="936279" />
		<tag k="waterway" v="stream" />
	</node>
	<node lat="68.31416944464353" lon="16.75249443762716" id="-16227">
		<tag k="name" v="Nilsvika" />
		<tag k="natural" v="bay" />
		<tag k="ssr:stedsnr" v="949470" />
	</node>
	<node lat="68.29810000054611" lon="17.3670388818716" id="-16228">
		<tag k="name" v="Skjellelva" />
		<tag k="ssr:stedsnr" v="949686" />
		<tag k="waterway" v="stream" />
	</node>
	<node lat="68.3640435226857" lon="16.778394629602865" id="-16282">
		<tag k="name" v="Trolldalvatnet" />
		<tag k="natural" v="water" />
		<tag k="ssr:stedsnr" v="990999" />
	</node>
</osm>
