<?xml version="1.0" encoding="UTF-8"?>
<<<<<<< HEAD
<osm version="0.6" generator="osmapis">
	<node lat="68.44285000393461" lon="17.45237221267234" id="-3917">
=======
<osm generator="osmapis" version="0.6">
	<node id="-116863" lat="68.30011111" lon="16.4310888809">
		<tag k="name" v="Haugen" />
		<tag k="place" v="locality" />
		<tag k="ssr:stedsnr" v="806601" />
	</node>
	<node id="-113022" lat="68.3709722207" lon="17.2349055469">
		<tag k="name" v="Skjærvikneset" />
		<tag k="place" v="locality" />
		<tag k="ssr:stedsnr" v="264642" />
	</node>
	<node id="-114427" lat="68.4396305564" lon="17.4133249939">
		<tag k="amenity" v="place_of_worship" />
		<tag k="denomination" v="lutheran" />
		<tag k="name" v="Narvik kirke" />
		<tag k="religion" v="christian" />
		<tag k="ssr:stedsnr" v="908626" />
	</node>
	<node id="-116090" lat="68.4320249987" lon="17.4268694459">
		<tag k="name" v="Museum" />
		<tag k="ssr:stedsnr" v="420942" />
		<tag k="tourism" v="museum" />
	</node>
	<node id="-113391" lat="68.1426666665" lon="16.4017499883">
		<tag k="name" v="Lappkjerringan" />
		<tag k="name:no" v="Lappkjerringan" />
		<tag k="place" v="locality" />
		<tag k="ssr:stedsnr" v="446967" />
	</node>
	<node id="-113902" lat="68.3751666699" lon="16.2868138951">
		<tag k="name" v="Himmel på jord" />
		<tag k="place" v="locality" />
		<tag k="ssr:stedsnr" v="507516" />
	</node>
	<node id="-115565" lat="68.4172861092" lon="16.6178361018">
		<tag k="cemetery" v="grave" />
		<tag k="name" v="Kjelde kirkegård" />
		<tag k="place" v="locality" />
		<tag k="ssr:stedsnr" v="206426" />
	</node>
	<node id="-116832" lat="68.4412277826" lon="17.4503916593">
		<tag k="cemetery" v="grave" />
		<tag k="name" v="Narvik gravlund" />
		<tag k="place" v="locality" />
		<tag k="ssr:stedsnr" v="787518" />
	</node>
	<node id="-114011" lat="68.2553833355" lon="17.4007361075">
>>>>>>> e1d4bc35ff8a6074a6f2e91616a996b547c36f15
		<tag k="amenity" v="place_of_worship" />
		<tag k="denomination" v="lutheran" />
		<tag k="name" v="Fredskapellet" />
		<tag k="religion" v="christian" />
		<tag k="ssr:stedsnr" v="119614" />
	</node>
<<<<<<< HEAD
	<node lat="68.44271961072891" lon="17.436073471102784" id="-4299">
		<tag k="name" v="Rallaren" />
=======
	<node id="-116566" lat="68.4508583305" lon="17.709880559">
		<tag k="cemetery" v="grave" />
		<tag k="name" v="Hergot gravlund" />
>>>>>>> e1d4bc35ff8a6074a6f2e91616a996b547c36f15
		<tag k="place" v="locality" />
		<tag k="ssr:stedsnr" v="240606" />
	</node>
<<<<<<< HEAD
	<node lat="68.43202499865664" lon="17.426869445944583" id="-4680">
		<tag k="name" v="Museum" />
		<tag k="ssr:stedsnr" v="420942" />
		<tag k="tourism" v="museum" />
	</node>
	<node lat="68.44047499864111" lon="17.43813333398306" id="-4837">
=======
	<node id="-113103" lat="68.4352527806" lon="18.068347224">
>>>>>>> e1d4bc35ff8a6074a6f2e91616a996b547c36f15
		<tag k="amenity" v="place_of_worship" />
		<tag k="denomination" v="lutheran" />
		<tag k="name" v="Katolske kirke" />
		<tag k="religion" v="christian" />
		<tag k="ssr:stedsnr" v="505602" />
	</node>
<<<<<<< HEAD
	<node lat="68.25538333545055" lon="17.40073610753329" id="-4952">
		<tag k="amenity" v="place_of_worship" />
		<tag k="denomination" v="lutheran" />
		<tag k="name" v="Skjomen kirke" />
		<tag k="religion" v="christian" />
		<tag k="ssr:stedsnr" v="685803" />
	</node>
	<node lat="68.3865777819856" lon="17.14122776556494" id="-5022">
		<tag k="cemetery" v="grave" />
		<tag k="name" v="Vidrek gravlund" />
=======
	<node id="-112840" lat="68.4427416672" lon="17.435936117">
		<tag k="name" v="Rallaren" />
>>>>>>> e1d4bc35ff8a6074a6f2e91616a996b547c36f15
		<tag k="place" v="locality" />
		<tag k="ssr:stedsnr" v="692847" />
	</node>
	<node lat="68.38194444119314" lon="17.04739166369964" id="-5088">
		<tag k="name" v="Salttønna" />
		<tag k="place" v="locality" />
		<tag k="ssr:stedsnr" v="582704" />
	</node>
<<<<<<< HEAD
	<node lat="68.45085833047703" lon="17.709880559006614" id="-5213">
		<tag k="cemetery" v="grave" />
		<tag k="name" v="Hergot gravlund" />
		<tag k="place" v="locality" />
		<tag k="ssr:stedsnr" v="634435" />
	</node>
	<node lat="68.439630556413" lon="17.413324993889482" id="-5466">
		<tag k="amenity" v="place_of_worship" />
		<tag k="denomination" v="lutheran" />
		<tag k="name" v="Narvik kirke" />
		<tag k="religion" v="christian" />
		<tag k="ssr:stedsnr" v="908626" />
	</node>
	<node lat="68.38919376013061" lon="17.572912282993855" id="-5522">
		<tag k="name" v="Lapphaugen" />
		<tag k="place" v="locality" />
		<tag k="ssr:stedsnr" v="819377" />
	</node>
	<node lat="68.39355000495073" lon="17.822461102101048" id="-5648">
		<tag k="name" v="Fortet" />
		<tag k="place" v="locality" />
		<tag k="ssr:stedsnr" v="871718" />
	</node>
	<node lat="68.54768055281892" lon="17.56514166768193" id="-5710">
		<tag k="cemetery" v="grave" />
		<tag k="name" v="Bjerkvik kirkegård" />
		<tag k="place" v="locality" />
		<tag k="ssr:stedsnr" v="889114" />
	</node>
	<node lat="68.27148889055216" lon="16.63532500103438" id="-5716">
		<tag k="name" v="Forsaforsen laksetrapp" />
		<tag k="place" v="locality" />
		<tag k="ssr:stedsnr" v="889648" />
	</node>
	<node lat="68.43525278057962" lon="18.06834722400679" id="-6242">
=======
	<node id="-115526" lat="68.4210111065" lon="17.3787722252">
		<tag k="amenity" v="place_of_worship" />
		<tag k="denomination" v="lutheran" />
		<tag k="name" v="Ankenes kirke" />
		<tag k="religion" v="christian" />
		<tag k="ssr:stedsnr" v="200983" />
	</node>
	<node id="-113715" lat="68.4404749986" lon="17.438133334">
>>>>>>> e1d4bc35ff8a6074a6f2e91616a996b547c36f15
		<tag k="amenity" v="place_of_worship" />
		<tag k="denomination" v="lutheran" />
		<tag k="name" v="Bjørnfjell sportskapell" />
		<tag k="religion" v="christian" />
		<tag k="ssr:stedsnr" v="142737" />
	</node>
<<<<<<< HEAD
	<node lat="68.14436111329452" lon="16.417616678470218" id="-6257">
		<tag k="name" v="Slåtten" />
		<tag k="name:no" v="Slåtten" />
=======
	<node id="-117170" lat="68.393550005" lon="17.8224611021">
		<tag k="name" v="Fortet" />
		<tag k="place" v="locality" />
		<tag k="ssr:stedsnr" v="871718" />
	</node>
	<node id="-113967" lat="68.4050833371" lon="17.3105333414">
		<tag k="cemetery" v="grave" />
		<tag k="name" v="Håkvik kirkegård" />
>>>>>>> e1d4bc35ff8a6074a6f2e91616a996b547c36f15
		<tag k="place" v="locality" />
		<tag k="ssr:stedsnr" v="143951" />
	</node>
	<node lat="68.42101110653032" lon="17.378772225227614" id="-6414">
		<tag k="amenity" v="place_of_worship" />
		<tag k="denomination" v="lutheran" />
		<tag k="name" v="Ankenes kirke" />
		<tag k="religion" v="christian" />
		<tag k="ssr:stedsnr" v="200983" />
	</node>
<<<<<<< HEAD
	<node lat="68.41728610923143" lon="16.617836101803523" id="-6440">
=======
	<node id="-114093" lat="68.386577782" lon="17.1412277656">
>>>>>>> e1d4bc35ff8a6074a6f2e91616a996b547c36f15
		<tag k="cemetery" v="grave" />
		<tag k="name" v="Kjelde kirkegård" />
		<tag k="place" v="locality" />
		<tag k="ssr:stedsnr" v="206426" />
	</node>
<<<<<<< HEAD
	<node lat="68.14266666646671" lon="16.40174998834832" id="-6966">
		<tag k="name" v="Lappkjerringan" />
		<tag k="name:no" v="Lappkjerringan" />
=======
	<node id="-115368" lat="68.1443611133" lon="16.4176166785">
		<tag k="name" v="Slåtten" />
		<tag k="name:no" v="Slåtten" />
>>>>>>> e1d4bc35ff8a6074a6f2e91616a996b547c36f15
		<tag k="place" v="locality" />
		<tag k="ssr:stedsnr" v="446967" />
	</node>
<<<<<<< HEAD
	<node lat="68.37516666989121" lon="16.286813895052653" id="-7054">
		<tag k="name" v="Himmel på jord" />
		<tag k="place" v="locality" />
		<tag k="ssr:stedsnr" v="507516" />
	</node>
	<node lat="68.40508333714254" lon="17.310533341426343" id="-7108">
=======
	<node id="-114338" lat="68.3356083313" lon="16.8183194449">
>>>>>>> e1d4bc35ff8a6074a6f2e91616a996b547c36f15
		<tag k="cemetery" v="grave" />
		<tag k="name" v="Håkvik kirkegård" />
		<tag k="place" v="locality" />
		<tag k="ssr:stedsnr" v="510528" />
	</node>
<<<<<<< HEAD
	<node lat="68.44122778263095" lon="17.45039165928643" id="-7760">
		<tag k="cemetery" v="grave" />
		<tag k="name" v="Narvik gravlund" />
		<tag k="place" v="locality" />
		<tag k="ssr:stedsnr" v="787518" />
	</node>
	<node lat="68.54844166260509" lon="17.56172222907675" id="-7812">
=======
	<node id="-114344" lat="68.2714888906" lon="16.635325001">
		<tag k="name" v="Forsaforsen laksetrapp" />
		<tag k="place" v="locality" />
		<tag k="ssr:stedsnr" v="889648" />
	</node>
	<node id="-116892" lat="68.5484416626" lon="17.5617222291">
>>>>>>> e1d4bc35ff8a6074a6f2e91616a996b547c36f15
		<tag k="alt_name" v="Bjerkvik" />
		<tag k="amenity" v="place_of_worship" />
		<tag k="denomination" v="lutheran" />
		<tag k="name" v="Bjerkvik kirke" />
		<tag k="religion" v="christian" />
		<tag k="ssr:stedsnr" v="806759" />
	</node>
<<<<<<< HEAD
	<node lat="68.3001111100224" lon="16.43108888087188" id="-7827">
		<tag k="name" v="Haugen" />
		<tag k="place" v="locality" />
		<tag k="ssr:stedsnr" v="806601" />
	</node>
	<node lat="68.3356083312835" lon="16.818319444866415" id="-8164">
=======
	<node id="-114456" lat="68.0966277745" lon="16.3743305584">
		<tag k="amenity" v="place_of_worship" />
		<tag k="denomination" v="lutheran" />
		<tag k="name" v="Tysfjord" />
		<tag k="name:no" v="Tysfjord" />
		<tag k="religion" v="christian" />
		<tag k="ssr:stedsnr" v="771285" />
	</node>
	<node id="-114325" lat="68.5476805528" lon="17.5651416677">
>>>>>>> e1d4bc35ff8a6074a6f2e91616a996b547c36f15
		<tag k="cemetery" v="grave" />
		<tag k="name" v="Ballangen kirkegård" />
		<tag k="place" v="locality" />
		<tag k="ssr:stedsnr" v="889532" />
	</node>
<<<<<<< HEAD
	<node lat="68.33956974693704" lon="16.820484938728026" id="-8214">
=======
	<node id="-117010" lat="68.3891937601" lon="17.572912283">
		<tag k="name" v="Lapphaugen" />
		<tag k="place" v="locality" />
		<tag k="ssr:stedsnr" v="819377" />
	</node>
	<node id="-117265" lat="68.4054260299" lon="16.6604377802">
>>>>>>> e1d4bc35ff8a6074a6f2e91616a996b547c36f15
		<tag k="amenity" v="place_of_worship" />
		<tag k="denomination" v="lutheran" />
		<tag k="name" v="Ballangen kirke" />
		<tag k="religion" v="christian" />
		<tag k="ssr:stedsnr" v="990267" />
	</node>
<<<<<<< HEAD
	<node lat="68.40542602988255" lon="16.66043778019754" id="-8215">
=======
	<node id="-117264" lat="68.3395697469" lon="16.8204849387">
>>>>>>> e1d4bc35ff8a6074a6f2e91616a996b547c36f15
		<tag k="amenity" v="place_of_worship" />
		<tag k="denomination" v="lutheran" />
		<tag k="name" v="Kjeldebotn kirke" />
		<tag k="religion" v="christian" />
		<tag k="ssr:stedsnr" v="990268" />
	</node>
<<<<<<< HEAD
	<node lat="68.4046333970361" lon="17.31121180823187" id="-8216">
=======
	<node id="-115215" lat="68.4428500039" lon="17.4523722127">
>>>>>>> e1d4bc35ff8a6074a6f2e91616a996b547c36f15
		<tag k="amenity" v="place_of_worship" />
		<tag k="denomination" v="lutheran" />
		<tag k="name" v="Håkvik kapell" />
		<tag k="religion" v="christian" />
<<<<<<< HEAD
		<tag k="ssr:stedsnr" v="990304" />
	</node>
	<node lat="68.0968341164963" lon="16.37450670257615" id="-8312">
		<tag k="alt_name" v="Tysfjord" />
		<tag k="amenity" v="place_of_worship" />
		<tag k="denomination" v="lutheran" />
		<tag k="name" v="Kjøpsvik kirke" />
		<tag k="religion" v="christian" />
		<tag k="ssr:stedsnr" v="1082602" />
=======
		<tag k="ssr:stedsnr" v="119614" />
	</node>
	<node id="-114797" lat="68.404633397" lon="17.3112118082">
		<tag k="amenity" v="place_of_worship" />
		<tag k="denomination" v="lutheran" />
		<tag k="name" v="Håkvik kapell" />
		<tag k="religion" v="christian" />
		<tag k="ssr:stedsnr" v="990304" />
	</node>
	<node id="-114185" lat="68.3819444412" lon="17.0473916637">
		<tag k="name" v="Salttønna" />
		<tag k="place" v="locality" />
		<tag k="ssr:stedsnr" v="582704" />
>>>>>>> e1d4bc35ff8a6074a6f2e91616a996b547c36f15
	</node>
</osm>
