<?xml version="1.0" encoding="UTF-8"?>
<osm generator="osmapis" version="0.6">
	<node id="-116096" lat="68.5521250007" lon="17.5037027765">
		<tag k="highway" v="path" />
		<tag k="name" v="Veltrøddvegen" />
		<tag k="ssr:stedsnr" v="524037" />
	</node>
	<node id="-116989" lat="68.3516250009" lon="17.0106999875">
		<tag k="highway" v="path" />
		<tag k="name" v="Geitstien" />
		<tag k="ssr:stedsnr" v="814415" />
	</node>
	<node id="-116342" lat="68.4290305565" lon="17.4230194447">
		<tag k="man_made" v="quay" />
		<tag k="name" v="Nordkaien" />
		<tag k="place" v="locality" />
		<tag k="ssr:stedsnr" v="576754" />
	</node>
	<node id="-115603" lat="68.4269666701" lon="17.4269888948">
		<tag k="man_made" v="quay" />
		<tag k="name" v="Fiskekaien" />
		<tag k="place" v="locality" />
		<tag k="ssr:stedsnr" v="212651" />
	</node>
	<node id="-115440" lat="68.3400916642" lon="16.861591657">
		<tag k="landuse" v="harbour" />
		<tag k="name" v="Kaldåosen Marina" />
		<tag k="seamark:type" v="harbour" />
		<tag k="ssr:stedsnr" v="177614" />
	</node>
	<node id="-114279" lat="68.5784861151" lon="17.5938666605">
		<tag k="highway" v="path" />
		<tag k="name" v="Kvanndalsvingen" />
		<tag k="ssr:stedsnr" v="878484" />
	</node>
	<node id="-114148" lat="68.2563750015" lon="16.6193638971">
		<tag k="highway" v="path" />
		<tag k="name" v="Gangstien" />
		<tag k="ssr:stedsnr" v="706637" />
	</node>
	<node id="-115169" lat="68.3511361153" lon="16.7506361186">
		<tag k="highway" v="path" />
		<tag k="name" v="Storjordvegen" />
		<tag k="ssr:stedsnr" v="86445" />
	</node>
	<node id="-113375" lat="68.4680472268" lon="17.7046444386">
		<tag k="highway" v="path" />
		<tag k="name" v="Fjellveien" />
		<tag k="ssr:stedsnr" v="446721" />
	</node>
	<node id="-114782" lat="68.3487555555" lon="16.1797861137">
		<tag k="fixme" v="verify maritime location" />
		<tag k="mooring" v="yes" />
		<tag k="name" v="Gangstøa" />
		<tag k="place" v="locality" />
		<tag k="ssr:stedsnr" v="949254" />
	</node>
	<node id="-113881" lat="68.3292083317" lon="16.7526777848">
		<tag k="junction" v="yes" />
		<tag k="name" v="Melkedalskrysset" />
		<tag k="place" v="locality" />
		<tag k="ssr:stedsnr" v="502661" />
	</node>
	<node id="-114404" lat="68.4352444455" lon="18.0032777751">
		<tag k="name" v="Søsterbekk holdeplass" />
		<tag k="railway" v="halt" />
		<tag k="ssr:stedsnr" v="746170" />
		<tag k="train" v="yes" />
	</node>
	<node id="-113750" lat="68.3012805537" lon="17.3406694494">
		<tag k="fixme" v="verify maritime location" />
		<tag k="mooring" v="yes" />
		<tag k="name" v="Finnstøa" />
		<tag k="place" v="locality" />
		<tag k="ssr:stedsnr" v="403860" />
	</node>
	<node id="-112825" lat="68.3229916689" lon="16.6375166737">
		<tag k="highway" v="path" />
		<tag k="name" v="Molandvegen" />
		<tag k="ssr:stedsnr" v="39673" />
	</node>
	<node id="-116819" lat="68.3714583337" lon="17.0419111154">
		<tag k="highway" v="path" />
		<tag k="name" v="Saltvikstien" />
		<tag k="ssr:stedsnr" v="875744" />
	</node>
	<node id="-114760" lat="68.4083277776" lon="17.9904555422">
		<tag k="highway" v="path" />
		<tag k="name" v="Rallarveien" />
		<tag k="ssr:stedsnr" v="932706" />
	</node>
	<node id="-115143" lat="68.3818250035" lon="16.6736444539">
		<tag k="highway" v="path" />
		<tag k="name" v="Håfjellvegen" />
		<tag k="ssr:stedsnr" v="85142" />
	</node>
	<node id="-116286" lat="68.4417416645" lon="17.4413638865">
		<tag k="name" v="Narvik stasjon - Nárviika" />
		<tag k="name:no" v="Narvik stasjon" />
		<tag k="name:se" v="Nárviika" />
		<tag k="railway" v="station" />
		<tag k="ssr:stedsnr" v="569717" />
		<tag k="train" v="yes" />
	</node>
	<node id="-116575" lat="68.1680500022" lon="17.5443722291">
		<tag k="bridge" v="yes" />
		<tag k="layer" v="1" />
		<tag k="name" v="Sørelvbrua" />
		<tag k="ssr:stedsnr" v="645109" />
	</node>
	<node id="-113976" lat="68.4322805592" lon="18.0711944471">
		<tag k="name" v="Bjørnfjell stasjon" />
		<tag k="railway" v="station" />
		<tag k="ssr:stedsnr" v="685171" />
		<tag k="train" v="yes" />
	</node>
	<node id="-113206" lat="68.3976615448" lon="17.9658239565">
		<tag k="name" v="Katterat stasjon" />
		<tag k="railway" v="station" />
		<tag k="ssr:stedsnr" v="199248" />
		<tag k="train" v="yes" />
	</node>
	<node id="-113585" lat="68.4037944469" lon="17.7910277797">
		<tag k="name" v="Rombak stasjon - Ruoppat" />
		<tag k="name:no" v="Rombak stasjon" />
		<tag k="name:se" v="Ruoppat" />
		<tag k="railway" v="station" />
		<tag k="ssr:stedsnr" v="502235" />
		<tag k="train" v="yes" />
	</node>
	<node id="-115376" lat="68.3993972202" lon="16.6814111103">
		<tag k="highway" v="path" />
		<tag k="name" v="Lappvegen" />
		<tag k="ssr:stedsnr" v="145185" />
	</node>
	<node id="-113838" lat="68.3535583374" lon="16.86801389">
		<tag k="leisure" v="marina" />
		<tag k="name" v="Hamn" />
		<tag k="ssr:stedsnr" v="662623" />
	</node>
	<node id="-116781" lat="68.4153638857" lon="17.4240694396">
		<tag k="man_made" v="quay" />
		<tag k="name" v="Fagerneskaia" />
		<tag k="place" v="locality" />
		<tag k="ssr:stedsnr" v="753572" />
	</node>
	<node id="-115756" lat="68.0731249977" lon="16.4087888931">
		<tag k="ford" v="yes" />
		<tag k="name" v="Vadet" />
		<tag k="name:no" v="Vadet" />
		<tag k="place" v="locality" />
		<tag k="ssr:stedsnr" v="325671" />
	</node>
	<node id="-114980" lat="68.3131666627" lon="17.2946499982">
		<tag k="fixme" v="verify maritime location" />
		<tag k="mooring" v="yes" />
		<tag k="name" v="Nordmannstøa" />
		<tag k="place" v="locality" />
		<tag k="ssr:stedsnr" v="39856" />
	</node>
	<node id="-114336" lat="68.4401916657" lon="17.4696527646">
		<tag k="landuse" v="industrial" />
		<tag k="name" v="Taraldsvikfossen kraftverk" />
		<tag k="power" v="plant" />
		<tag k="ssr:stedsnr" v="889520" />
	</node>
	<node id="-115615" lat="68.4339245021" lon="17.6564995893">
		<tag k="name" v="Straumsnes stasjon" />
		<tag k="railway" v="station" />
		<tag k="ssr:stedsnr" v="321187" />
		<tag k="train" v="yes" />
	</node>
	<node id="-115224" lat="68.4121861065" lon="17.4239055637">
		<tag k="landuse" v="harbour" />
		<tag k="name" v="Narvikterminalen" />
		<tag k="seamark:type" v="harbour" />
		<tag k="ssr:stedsnr" v="121906" />
	</node>
	<node id="-113070" lat="68.5391499996" lon="17.4805749979">
		<tag k="highway" v="path" />
		<tag k="name" v="Buvegen" />
		<tag k="ssr:stedsnr" v="268331" />
	</node>
	<node id="-115595" lat="68.2324500033" lon="16.2346944479">
		<tag k="amenity" v="ferry_terminal" />
		<tag k="name" v="Skarberget" />
		<tag k="name:no" v="Skarberget" />
		<tag k="ssr:stedsnr" v="207744" />
	</node>
	<node id="-116361" lat="68.4292250043" lon="17.4087277678">
		<tag k="landuse" v="harbour" />
		<tag k="name" v="Narvik havn" />
		<tag k="seamark:type" v="harbour" />
		<tag k="ssr:stedsnr" v="585626" />
	</node>
</osm>
