<?xml version="1.0" encoding="UTF-8"?>
<<<<<<< HEAD
<osm version="0.6" generator="osmapis">
	<node lat="68.2159611082846" lon="16.203399995029137" id="-3744">
		<tag k="name" v="Nesmyra" />
		<tag k="name:no" v="Nesmyra" />
		<tag k="natural" v="wetland" />
		<tag k="ssr:stedsnr" v="22938" />
	</node>
	<node lat="68.2371249985641" lon="16.33731111763901" id="-3746">
		<tag k="name" v="Middagsmyra" />
		<tag k="name:no" v="Middagsmyra" />
		<tag k="natural" v="wetland" />
		<tag k="ssr:stedsnr" v="22988" />
	</node>
	<node lat="68.34174444264923" lon="17.034722225967162" id="-3757">
		<tag k="name" v="Småskreden" />
		<tag k="natural" v="scree" />
		<tag k="ssr:stedsnr" v="25381" />
	</node>
	<node lat="68.49478889173244" lon="17.55513887912264" id="-3767">
		<tag k="name" v="Heggholuran" />
		<tag k="natural" v="scree" />
		<tag k="ssr:stedsnr" v="25429" />
	</node>
	<node lat="68.32092222115908" lon="16.626205566088814" id="-3786">
		<tag k="name" v="Klubbnesmyra" />
		<tag k="natural" v="wetland" />
		<tag k="ssr:stedsnr" v="39670" />
	</node>
	<node lat="68.44811111080303" lon="17.728497218206297" id="-3789">
		<tag k="name" v="Gollejeaggi" />
		<tag k="name:se" v="Gollejeaggi" />
		<tag k="natural" v="wetland" />
		<tag k="ssr:stedsnr" v="40681" />
	</node>
	<node lat="68.27986110857832" lon="17.386761119738853" id="-3804">
		<tag k="name" v="Storuran" />
		<tag k="natural" v="scree" />
		<tag k="ssr:stedsnr" v="240747" />
	</node>
	<node lat="68.21572777578781" lon="17.287461111996773" id="-3821">
		<tag k="name" v="Litlerapet" />
		<tag k="natural" v="scree" />
		<tag k="ssr:stedsnr" v="77704" />
	</node>
	<node lat="68.33835555496886" lon="16.905491655256945" id="-3845">
		<tag k="name" v="Dommarka" />
		<tag k="place" v="locality" />
		<tag k="ssr:stedsnr" v="78916" />
	</node>
	<node lat="68.35811111231051" lon="16.5923861105513" id="-3870">
		<tag k="name" v="Kattvassmyra" />
=======
<osm generator="osmapis" version="0.6">
	<node id="-113664" lat="68.5739666706" lon="17.5725388908">
		<tag k="name" v="Ola-løa" />
		<tag k="place" v="locality" />
		<tag k="ssr:stedsnr" v="389015" />
	</node>
	<node id="-116735" lat="68.4019666672" lon="16.6846250004">
		<tag k="name" v="Skjellmyra" />
		<tag k="natural" v="wetland" />
		<tag k="ssr:stedsnr" v="752193" />
	</node>
	<node id="-116218" lat="68.2343083296" lon="17.1847888781">
		<tag k="name" v="Frostisen - Ruostajiekŋa" />
		<tag k="name:no" v="Frostisen" />
		<tag k="name:se" v="Ruostajiekŋa" />
		<tag k="natural" v="glacier" />
		<tag k="old_name:se" v="Ruostajiekńa;Ruostajiekna;Ruosstajiegńa" />
		<tag k="ssr:stedsnr" v="563767" />
	</node>
	<node id="-115796" lat="68.4835027783" lon="17.5523638844">
		<tag k="name" v="Langmyra" />
		<tag k="natural" v="wetland" />
		<tag k="ssr:stedsnr" v="328390" />
	</node>
	<node id="-114166" lat="68.3563916659" lon="16.8636277854">
		<tag k="name" v="Leirvikmyra" />
		<tag k="natural" v="wetland" />
		<tag k="ssr:stedsnr" v="571458" />
	</node>
	<node id="-116724" lat="68.5181666641" lon="17.8945666528">
		<tag k="name" v="Lappkjerringmyra" />
		<tag k="natural" v="wetland" />
		<tag k="ssr:stedsnr" v="750726" />
	</node>
	<node id="-117235" lat="68.1559583378" lon="16.762297215">
		<tag k="name" v="Kirkestein" />
		<tag k="natural" v="stone" />
		<tag k="ssr:stedsnr" v="953437" />
	</node>
	<node id="-115186" lat="68.3440833319" lon="16.1626916763">
		<tag k="name" v="Fortkråa" />
		<tag k="natural" v="wetland" />
		<tag k="ssr:stedsnr" v="100250" />
	</node>
	<node id="-114161" lat="68.5490750005" lon="17.5032472173">
		<tag k="name" v="Rødsand-slåtta" />
		<tag k="place" v="locality" />
		<tag k="ssr:stedsnr" v="571331" />
	</node>
	<node id="-114160" lat="68.5292666714" lon="17.4712111012">
		<tag k="name" v="Samlingsjorda" />
		<tag k="place" v="locality" />
		<tag k="ssr:stedsnr" v="571323" />
	</node>
	<node id="-113647" lat="68.3320972211" lon="16.3850861191">
		<tag k="name" v="Stortuva" />
		<tag k="natural" v="wetland" />
		<tag k="ssr:stedsnr" v="385559" />
	</node>
	<node id="-115965" lat="68.2235472268" lon="17.3025583221">
		<tag k="name" v="Storrapet" />
		<tag k="natural" v="scree" />
		<tag k="ssr:stedsnr" v="381778" />
	</node>
	<node id="-116811" lat="68.3706861078" lon="17.4021083383">
		<tag k="name" v="Stormyra" />
>>>>>>> e1d4bc35ff8a6074a6f2e91616a996b547c36f15
		<tag k="natural" v="wetland" />
		<tag k="ssr:stedsnr" v="85131" />
	</node>
<<<<<<< HEAD
	<node lat="68.36310833646147" lon="16.885411105995377" id="-3882">
		<tag k="name" v="Sjurkjerran" />
		<tag k="place" v="locality" />
		<tag k="ssr:stedsnr" v="86282" />
	</node>
	<node lat="68.38423333149049" lon="17.127227778814586" id="-3910">
		<tag k="name" v="Vargemyra" />
		<tag k="natural" v="wetland" />
		<tag k="ssr:stedsnr" v="102932" />
	</node>
	<node lat="68.32712221769138" lon="16.67081667247548" id="-3980">
		<tag k="name" v="Muskmyra øst" />
		<tag k="natural" v="wetland" />
		<tag k="ssr:stedsnr" v="145146" />
	</node>
	<node lat="68.4307861067758" lon="17.670116672608675" id="-3982">
		<tag k="name" v="Tettingsmyra" />
		<tag k="natural" v="wetland" />
		<tag k="ssr:stedsnr" v="146019" />
	</node>
	<node lat="68.47688055180295" lon="17.593405545286156" id="-3986">
		<tag k="name" v="Daluran" />
		<tag k="natural" v="scree" />
		<tag k="ssr:stedsnr" v="146313" />
	</node>
	<node lat="68.57018888690436" lon="17.63018609604497" id="-3993">
		<tag k="name" v="Kvanndalmyra" />
		<tag k="natural" v="wetland" />
		<tag k="ssr:stedsnr" v="146430" />
	</node>
	<node lat="68.24129444500679" lon="17.41864165699683" id="-3996">
		<tag k="name" v="Brenna" />
		<tag k="place" v="locality" />
		<tag k="ssr:stedsnr" v="146477" />
	</node>
	<node lat="68.26861388888896" lon="17.283938896822836" id="-4074">
		<tag k="name" v="Tverrelvmyra" />
		<tag k="natural" v="wetland" />
		<tag k="ssr:stedsnr" v="260828" />
	</node>
	<node lat="68.32544166637031" lon="17.056099992862816" id="-4078">
		<tag k="name" v="Åkran" />
		<tag k="place" v="locality" />
		<tag k="ssr:stedsnr" v="260883" />
	</node>
	<node lat="68.4385361086704" lon="17.712263880143748" id="-4092">
		<tag k="landuse" v="quarry" />
		<tag k="name" v="Sørnes" />
		<tag k="ssr:stedsnr" v="177127" />
	</node>
	<node lat="68.20065277744227" lon="17.536522214309123" id="-4103">
		<tag k="name" v="Olderskogen" />
		<tag k="place" v="locality" />
		<tag k="ssr:stedsnr" v="186019" />
	</node>
	<node lat="68.22039166389679" lon="17.310802768614398" id="-4105">
		<tag k="name" v="Rapan" />
		<tag k="place" v="locality" />
		<tag k="ssr:stedsnr" v="264511" />
	</node>
	<node lat="68.47113888463245" lon="17.74249444069658" id="-4111">
		<tag k="name" v="Småvassmyran" />
		<tag k="natural" v="wetland" />
		<tag k="ssr:stedsnr" v="264673" />
	</node>
	<node lat="68.49176389015312" lon="17.33758333839088" id="-4121">
		<tag k="landuse" v="meadow" />
		<tag k="name" v="Husmannsteigen" />
		<tag k="ssr:stedsnr" v="264634" />
	</node>
	<node lat="68.56498611153401" lon="17.633641653505034" id="-4180">
		<tag k="name" v="Mellommyra" />
		<tag k="natural" v="wetland" />
		<tag k="ssr:stedsnr" v="200690" />
	</node>
	<node lat="68.34556110922524" lon="16.752902778068762" id="-4213">
		<tag k="name" v="Botnmyra" />
		<tag k="natural" v="wetland" />
		<tag k="ssr:stedsnr" v="268440" />
	</node>
	<node lat="68.38097499687106" lon="17.256988877384856" id="-4219">
		<tag k="name" v="Storuran" />
		<tag k="natural" v="scree" />
		<tag k="ssr:stedsnr" v="268537" />
	</node>
	<node lat="68.36784999695698" lon="16.902613896928056" id="-4230">
		<tag k="name" v="Neita" />
		<tag k="place" v="locality" />
		<tag k="ssr:stedsnr" v="207252" />
	</node>
	<node lat="68.23281666325192" lon="17.43296944000595" id="-4237">
		<tag k="name" v="Kams" />
		<tag k="place" v="locality" />
		<tag k="ssr:stedsnr" v="268752" />
	</node>
	<node lat="68.31748610684139" lon="17.27465555274515" id="-4265">
		<tag k="name" v="Skogåkeren" />
		<tag k="place" v="locality" />
		<tag k="ssr:stedsnr" v="449952" />
	</node>
	<node lat="68.56891944874715" lon="17.761605553475796" id="-4269">
		<tag k="name" v="Luomejeaggi" />
		<tag k="name:se" v="Luomejeaggi" />
		<tag k="natural" v="wetland" />
		<tag k="ssr:stedsnr" v="450040" />
	</node>
	<node lat="68.55603055387499" lon="17.60367498490154" id="-4285">
		<tag k="name" v="Skjellsteinen" />
		<tag k="natural" v="stone" />
		<tag k="ssr:stedsnr" v="450493" />
	</node>
	<node lat="68.3827944416678" lon="17.116436109925758" id="-4293">
		<tag k="name" v="Kjerksteinen" />
		<tag k="natural" v="stone" />
		<tag k="ssr:stedsnr" v="450754" />
	</node>
	<node lat="68.3859972214081" lon="17.13578888384239" id="-4295">
		<tag k="name" v="Banmyra" />
		<tag k="natural" v="wetland" />
		<tag k="ssr:stedsnr" v="450849" />
	</node>
	<node lat="68.34034166769325" lon="17.96707776554987" id="-4308">
		<tag k="name" v="Passmyra" />
		<tag k="natural" v="wetland" />
		<tag k="ssr:stedsnr" v="259125" />
	</node>
	<node lat="68.0826499982687" lon="18.015080553129618" id="-4322">
		<tag k="name" v="Rivgojiekŋa" />
		<tag k="name:se" v="Rivgojiekŋa" />
		<tag k="natural" v="glacier" />
		<tag k="old_name:se" v="Rivgojiekna" />
		<tag k="ssr:stedsnr" v="259875" />
	</node>
	<node lat="68.26734166732051" lon="17.054366662534342" id="-4348">
		<tag k="name" v="Dikan" />
		<tag k="natural" v="scree" />
		<tag k="ssr:stedsnr" v="264343" />
	</node>
	<node lat="68.32451666920956" lon="16.369316661608867" id="-4353">
		<tag k="name" v="Strykmyra" />
		<tag k="natural" v="wetland" />
		<tag k="ssr:stedsnr" v="264550" />
	</node>
	<node lat="68.09063610771716" lon="16.626508330526423" id="-4360">
		<tag k="name" v="Sykalan" />
		<tag k="name:no" v="Sykalan" />
		<tag k="natural" v="scree" />
		<tag k="ssr:stedsnr" v="264791" />
	</node>
	<node lat="68.24658055281186" lon="17.420119448636807" id="-4368">
		<tag k="name" v="Sjanglibanen" />
		<tag k="natural" v="stone" />
		<tag k="ssr:stedsnr" v="267432" />
	</node>
	<node lat="68.53407222451881" lon="17.422552781074682" id="-4374">
		<tag k="name" v="Sølv-ura" />
		<tag k="natural" v="scree" />
		<tag k="ssr:stedsnr" v="268307" />
	</node>
	<node lat="68.47645833546319" lon="17.65086945129888" id="-4376">
		<tag k="name" v="Bjørnskolten" />
		<tag k="place" v="locality" />
		<tag k="ssr:stedsnr" v="268381" />
	</node>
	<node lat="68.54968889170537" lon="17.59153609884271" id="-4379">
		<tag k="name" v="Elvegårdsmyran" />
		<tag k="natural" v="wetland" />
		<tag k="ssr:stedsnr" v="268432" />
	</node>
	<node lat="68.2036000012891" lon="17.502025003547715" id="-4387">
		<tag k="name" v="Råvislåttene" />
		<tag k="place" v="locality" />
		<tag k="ssr:stedsnr" v="282015" />
	</node>
	<node lat="68.34803611373363" lon="16.09969167377974" id="-4392">
		<tag k="name" v="Akselhamnmyra" />
		<tag k="natural" v="wetland" />
		<tag k="ssr:stedsnr" v="282387" />
	</node>
	<node lat="68.24107499891336" lon="16.722302782117335" id="-4418">
		<tag k="name" v="Melkeplassen" />
		<tag k="natural" v="wetland" />
		<tag k="ssr:stedsnr" v="464632" />
	</node>
	<node lat="68.23063333454067" lon="17.445936108738078" id="-4422">
		<tag k="name" v="Løbakken" />
		<tag k="place" v="locality" />
		<tag k="ssr:stedsnr" v="464782" />
	</node>
	<node lat="68.26263611122822" lon="16.354088895277922" id="-4431">
=======
	<node id="-116203" lat="68.323566665" lon="16.5938527804">
		<tag k="name" v="Storsteinmyra" />
		<tag k="natural" v="wetland" />
		<tag k="ssr:stedsnr" v="563662" />
	</node>
	<node id="-115178" lat="68.4215944484" lon="17.4325666659">
		<tag k="name" v="Storstein" />
		<tag k="natural" v="stone" />
		<tag k="ssr:stedsnr" v="91667" />
	</node>
	<node id="-114153" lat="68.3963305539" lon="17.3117083292">
		<tag k="name" v="Blautmyra" />
		<tag k="natural" v="wetland" />
		<tag k="ssr:stedsnr" v="570938" />
	</node>
	<node id="-114663" lat="68.389572221" lon="17.1477555547">
		<tag k="name" v="Glugga" />
		<tag k="place" v="locality" />
		<tag k="ssr:stedsnr" v="935860" />
	</node>
	<node id="-117221" lat="68.5455944436" lon="17.4862805594">
		<tag k="name" v="Jørnmyra" />
		<tag k="natural" v="wetland" />
		<tag k="ssr:stedsnr" v="875350" />
	</node>
	<node id="-117217" lat="68.4732111118" lon="17.4954000077">
		<tag k="name" v="Hundbergskogen" />
		<tag k="place" v="locality" />
		<tag k="ssr:stedsnr" v="875302" />
	</node>
	<node id="-117214" lat="68.3778555554" lon="16.8677861156">
		<tag k="name" v="Mølnmyrbakkmyra" />
		<tag k="natural" v="wetland" />
		<tag k="ssr:stedsnr" v="875291" />
	</node>
	<node id="-113116" lat="68.479291664" lon="17.4968583317">
		<tag k="name" v="Våtmyra" />
		<tag k="natural" v="wetland" />
		<tag k="ssr:stedsnr" v="146264" />
	</node>
	<node id="-113115" lat="68.5210000003" lon="17.403038877">
		<tag k="name" v="Lillemyra" />
		<tag k="natural" v="wetland" />
		<tag k="ssr:stedsnr" v="146260" />
	</node>
	<node id="-114650" lat="68.4835555584" lon="17.5267944554">
		<tag k="name" v="Kleivmyra" />
		<tag k="natural" v="wetland" />
		<tag k="ssr:stedsnr" v="935371" />
	</node>
	<node id="-115161" lat="68.3631083365" lon="16.885411106">
		<tag k="name" v="Sjurkjerran" />
		<tag k="place" v="locality" />
		<tag k="ssr:stedsnr" v="86282" />
	</node>
	<node id="-114647" lat="68.4341666642" lon="17.6428416661">
		<tag k="name" v="Jeklomyra" />
		<tag k="natural" v="wetland" />
		<tag k="ssr:stedsnr" v="935319" />
	</node>
	<node id="-115158" lat="68.472347218" lon="17.6790944511">
		<tag k="name" v="Dalgammyra" />
		<tag k="natural" v="wetland" />
		<tag k="ssr:stedsnr" v="86035" />
	</node>
	<node id="-114645" lat="68.3904777755" lon="16.6418722183">
		<tag k="name" v="Bergvassmyra" />
		<tag k="natural" v="wetland" />
		<tag k="ssr:stedsnr" v="935202" />
	</node>
	<node id="-114132" lat="68.3692111134" lon="16.6297833247">
		<tag k="name" v="Stormyra" />
		<tag k="natural" v="wetland" />
		<tag k="ssr:stedsnr" v="570129" />
	</node>
	<node id="-116558" lat="68.5355888906" lon="17.396052783">
		<tag k="name" v="Kvalemyra" />
		<tag k="natural" v="wetland" />
		<tag k="ssr:stedsnr" v="632347" />
	</node>
	<node id="-113106" lat="68.5821916649" lon="17.5716583388">
		<tag k="name" v="Storskogen" />
		<tag k="place" v="locality" />
		<tag k="ssr:stedsnr" v="146002" />
	</node>
	<node id="-116688" lat="68.3387305549" lon="17.0400083234">
		<tag k="name" v="Trongvegurda" />
		<tag k="natural" v="scree" />
		<tag k="ssr:stedsnr" v="746873" />
	</node>
	<node id="-117198" lat="68.3969638898" lon="16.6456944423">
		<tag k="name" v="Skavåsmyra" />
		<tag k="natural" v="wetland" />
		<tag k="ssr:stedsnr" v="874245" />
	</node>
	<node id="-115661" lat="68.3772134074" lon="16.8122340098">
		<tag k="alt_name" v="Daulappen" />
		<tag k="name" v="Daudlappen" />
		<tag k="place" v="locality" />
		<tag k="ssr:stedsnr" v="320703" />
	</node>
	<node id="-113612" lat="68.1676472233" lon="16.7702749891">
		<tag k="alt_name" v="Skarstein" />
		<tag k="name" v="Skorsteinen" />
		<tag k="natural" v="stone" />
		<tag k="ssr:stedsnr" v="502612" />
	</node>
	<node id="-115590" lat="68.2454944435" lon="17.4058333392">
		<tag k="name" v="Krøkjebærholmen" />
		<tag k="place" v="locality" />
		<tag k="ssr:stedsnr" v="207474" />
	</node>
	<node id="-114632" lat="68.2518527737" lon="16.3841222127">
		<tag k="name" v="Nordfjellmyra" />
		<tag k="name:no" v="Nordfjellmyra" />
		<tag k="natural" v="wetland" />
		<tag k="ssr:stedsnr" v="932999" />
	</node>
	<node id="-115142" lat="68.3581111123" lon="16.5923861106">
		<tag k="name" v="Kattvassmyra" />
		<tag k="natural" v="wetland" />
		<tag k="ssr:stedsnr" v="85131" />
	</node>
	<node id="-117187" lat="68.5654000017" lon="17.6894694479">
		<tag k="name" v="Urbakken" />
		<tag k="natural" v="scree" />
		<tag k="ssr:stedsnr" v="874048" />
	</node>
	<node id="-115137" lat="68.2308111123" lon="16.3128500106">
		<tag k="name" v="Sennmyra" />
		<tag k="name:no" v="Sennmyra" />
		<tag k="natural" v="wetland" />
		<tag k="ssr:stedsnr" v="82983" />
	</node>
	<node id="-114623" lat="68.1403249984" lon="16.3020805453">
		<tag k="name" v="Holmura" />
		<tag k="name:no" v="Holmura" />
		<tag k="natural" v="scree" />
		<tag k="ssr:stedsnr" v="932953" />
	</node>
	<node id="-113597" lat="68.2690944451" lon="16.4299333242">
		<tag k="name" v="Leirpollmarka" />
		<tag k="place" v="locality" />
		<tag k="ssr:stedsnr" v="502554" />
	</node>
	<node id="-114106" lat="68.3664083346" lon="16.8956138835">
		<tag k="name" v="Flotta" />
		<tag k="place" v="locality" />
		<tag k="ssr:stedsnr" v="693317" />
	</node>
	<node id="-114105" lat="68.3924305562" lon="16.8211916589">
		<tag k="name" v="Bjørnbåsmyra" />
		<tag k="natural" v="wetland" />
		<tag k="ssr:stedsnr" v="693314" />
	</node>
	<node id="-114614" lat="68.3534444486" lon="17.6647416621">
		<tag k="name" v="Rasan" />
		<tag k="natural" v="scree" />
		<tag k="ssr:stedsnr" v="932669" />
	</node>
	<node id="-113077" lat="68.3809749969" lon="17.2569888774">
		<tag k="name" v="Storuran" />
		<tag k="natural" v="scree" />
		<tag k="ssr:stedsnr" v="268537" />
	</node>
	<node id="-114100" lat="68.492044447" lon="17.5321388763">
		<tag k="name" v="Gommarmyran" />
		<tag k="natural" v="wetland" />
		<tag k="ssr:stedsnr" v="693415" />
	</node>
	<node id="-115635" lat="68.2834361074" lon="16.6734861047">
		<tag k="name" v="Langåsmyra" />
		<tag k="natural" v="wetland" />
		<tag k="ssr:stedsnr" v="320555" />
	</node>
	<node id="-114097" lat="68.4741805586" lon="17.5235500096">
		<tag k="name" v="Tømmerholtet" />
		<tag k="place" v="locality" />
		<tag k="ssr:stedsnr" v="693398" />
	</node>
	<node id="-117168" lat="68.4716416637" lon="17.7247916693">
		<tag k="name" v="Kvannmyra" />
		<tag k="natural" v="wetland" />
		<tag k="ssr:stedsnr" v="871688" />
	</node>
	<node id="-113071" lat="68.5496888917" lon="17.5915360988">
		<tag k="name" v="Elvegårdsmyran" />
		<tag k="natural" v="wetland" />
		<tag k="ssr:stedsnr" v="268432" />
	</node>
	<node id="-117166" lat="68.3760833329" lon="17.1447833254">
		<tag k="name" v="Djupåmyran" />
		<tag k="natural" v="wetland" />
		<tag k="ssr:stedsnr" v="871593" />
	</node>
	<node id="-115629" lat="68.2626361112" lon="16.3540888953">
>>>>>>> e1d4bc35ff8a6074a6f2e91616a996b547c36f15
		<tag k="name" v="Stor-Skarvsteinen" />
		<tag k="name:no" v="Stor-Skarvsteinen" />
		<tag k="natural" v="stone" />
		<tag k="ssr:stedsnr" v="320534" />
	</node>
<<<<<<< HEAD
	<node lat="68.37721340742284" lon="16.812234009781243" id="-4453">
		<tag k="alt_name" v="Daulappen" />
		<tag k="name" v="Daudlappen" />
		<tag k="place" v="locality" />
		<tag k="ssr:stedsnr" v="320703" />
	</node>
	<node lat="68.53106666966963" lon="17.379011101946304" id="-4482">
		<tag k="name" v="Båtvassmyra" />
		<tag k="natural" v="wetland" />
		<tag k="ssr:stedsnr" v="323575" />
	</node>
	<node lat="68.27331944569892" lon="17.04556944501183" id="-4484">
		<tag k="name" v="Holsmedura" />
		<tag k="natural" v="scree" />
		<tag k="ssr:stedsnr" v="325393" />
	</node>
	<node lat="68.3603638885115" lon="16.86991389551199" id="-4505">
		<tag k="name" v="Husvassmyra" />
		<tag k="natural" v="wetland" />
		<tag k="ssr:stedsnr" v="328407" />
	</node>
	<node lat="68.34740833287931" lon="16.828388879974295" id="-4506">
		<tag k="name" v="Åsmyran" />
		<tag k="natural" v="wetland" />
		<tag k="ssr:stedsnr" v="328411" />
	</node>
	<node lat="68.55149166629823" lon="17.514188884696203" id="-4509">
		<tag k="name" v="Gamman" />
		<tag k="place" v="locality" />
		<tag k="ssr:stedsnr" v="328417" />
	</node>
	<node lat="68.31900277913542" lon="17.62996110861282" id="-4614">
		<tag k="name" v="Brennmyra" />
		<tag k="natural" v="wetland" />
		<tag k="ssr:stedsnr" v="385720" />
	</node>
	<node lat="68.12501667121748" lon="16.339797214879848" id="-4626">
		<tag k="name" v="Svabakken" />
		<tag k="name:no" v="Svabakken" />
		<tag k="place" v="locality" />
		<tag k="ssr:stedsnr" v="385965" />
	</node>
	<node lat="68.26100555836177" lon="16.358283342863228" id="-4628">
		<tag k="name" v="Uran" />
		<tag k="name:no" v="Uran" />
		<tag k="natural" v="scree" />
		<tag k="ssr:stedsnr" v="385994" />
	</node>
	<node lat="68.37659167066143" lon="16.894061108491144" id="-4631">
		<tag k="name" v="Kalvegarden" />
		<tag k="place" v="locality" />
		<tag k="ssr:stedsnr" v="388289" />
	</node>
	<node lat="68.35855277669597" lon="16.826586099776275" id="-4654">
		<tag k="name" v="Fjellmyra" />
		<tag k="natural" v="wetland" />
		<tag k="ssr:stedsnr" v="389298" />
	</node>
	<node lat="68.37450555862759" lon="17.043413886797904" id="-4657">
		<tag k="name" v="Bautastein" />
		<tag k="natural" v="stone" />
		<tag k="ssr:stedsnr" v="389742" />
	</node>
	<node lat="68.28521944214388" lon="16.683433335245944" id="-4663">
		<tag k="name" v="Fuorsovuopmi" />
		<tag k="name:se" v="Fuorsovuopmi" />
		<tag k="place" v="locality" />
		<tag k="ssr:stedsnr" v="485051" />
	</node>
	<node lat="68.31870833573345" lon="16.233541676850134" id="-4669">
		<tag k="name" v="Topphågmyra" />
		<tag k="natural" v="wetland" />
		<tag k="ssr:stedsnr" v="403352" />
	</node>
	<node lat="68.22540278023538" lon="17.448327768264715" id="-4671">
		<tag k="name" v="Bruvollen" />
		<tag k="place" v="locality" />
		<tag k="ssr:stedsnr" v="403767" />
	</node>
	<node lat="68.23845555357312" lon="16.279630544494538" id="-4733">
		<tag k="name" v="Grønnstranda" />
		<tag k="name:no" v="Grønnstranda" />
		<tag k="place" v="locality" />
		<tag k="ssr:stedsnr" v="446982" />
	</node>
	<node lat="68.22961944608477" lon="16.27341667018255" id="-4735">
		<tag k="name" v="Lappvikmyra" />
		<tag k="name:no" v="Lappvikmyra" />
		<tag k="natural" v="wetland" />
		<tag k="ssr:stedsnr" v="446990" />
	</node>
	<node lat="68.39390832890933" lon="16.640033342720294" id="-4738">
		<tag k="name" v="Vintervegmyra" />
		<tag k="natural" v="wetland" />
		<tag k="ssr:stedsnr" v="449231" />
	</node>
	<node lat="68.38607500459545" lon="17.328636099540315" id="-4742">
		<tag k="name" v="Forrholtmyra" />
		<tag k="natural" v="wetland" />
		<tag k="ssr:stedsnr" v="449914" />
	</node>
	<node lat="68.4063166685701" lon="16.747647227607775" id="-4746">
		<tag k="name" v="Tuvmyra" />
		<tag k="natural" v="wetland" />
		<tag k="ssr:stedsnr" v="450274" />
	</node>
	<node lat="68.48546944257093" lon="17.541869447349033" id="-4748">
		<tag k="name" v="Vermarka" />
		<tag k="place" v="locality" />
		<tag k="ssr:stedsnr" v="450419" />
	</node>
	<node lat="68.55669722455256" lon="17.645716665515383" id="-4750">
		<tag k="name" v="Kildmyra" />
		<tag k="natural" v="wetland" />
		<tag k="ssr:stedsnr" v="450466" />
	</node>
	<node lat="68.34092499977322" lon="17.00561666948922" id="-4758">
		<tag k="name" v="Kringelskogen" />
		<tag k="place" v="locality" />
		<tag k="ssr:stedsnr" v="450376" />
	</node>
	<node lat="68.23980000148103" lon="17.412230547181913" id="-4761">
		<tag k="name" v="Gjentholmen" />
		<tag k="place" v="locality" />
		<tag k="ssr:stedsnr" v="450524" />
	</node>
	<node lat="68.38650555882104" lon="17.571147220678792" id="-4773">
		<tag k="name" v="Jordenden" />
		<tag k="place" v="locality" />
		<tag k="ssr:stedsnr" v="464071" />
	</node>
	<node lat="68.16764722334645" lon="16.770274989130435" id="-4793">
		<tag k="alt_name" v="Skarstein" />
		<tag k="name" v="Skorsteinen" />
		<tag k="natural" v="stone" />
		<tag k="ssr:stedsnr" v="502612" />
	</node>
	<node lat="68.55619166898649" lon="17.70972499051438" id="-4847">
		<tag k="name" v="Storskogen" />
		<tag k="place" v="locality" />
		<tag k="ssr:stedsnr" v="510046" />
	</node>
	<node lat="68.56232500233237" lon="17.734972222133507" id="-4848">
		<tag k="name" v="Edvartslåtta" />
		<tag k="place" v="locality" />
		<tag k="ssr:stedsnr" v="510057" />
	</node>
	<node lat="68.33303055689282" lon="16.81426110465093" id="-4854">
		<tag k="name" v="Stormyra" />
		<tag k="natural" v="wetland" />
		<tag k="ssr:stedsnr" v="510424" />
	</node>
	<node lat="68.31601944011369" lon="16.72081388658367" id="-4857">
		<tag k="name" v="Gresmyra" />
		<tag k="natural" v="wetland" />
		<tag k="ssr:stedsnr" v="510151" />
	</node>
	<node lat="68.35407778174465" lon="16.95031944140398" id="-4860">
		<tag k="name" v="Legda" />
		<tag k="place" v="locality" />
		<tag k="ssr:stedsnr" v="510357" />
	</node>
	<node lat="68.246222218995" lon="17.417305542759788" id="-4863">
		<tag k="name" v="Kvitbergmyra" />
		<tag k="natural" v="wetland" />
		<tag k="ssr:stedsnr" v="510502" />
	</node>
	<node lat="68.39436110734526" lon="17.306686117240815" id="-4868">
		<tag k="name" v="Slåttdalabone" />
		<tag k="place" v="locality" />
		<tag k="ssr:stedsnr" v="510954" />
	</node>
	<node lat="68.23901389094787" lon="17.430919433977387" id="-4894">
		<tag k="name" v="Stormyra" />
		<tag k="natural" v="wetland" />
		<tag k="ssr:stedsnr" v="684638" />
	</node>
	<node lat="68.24204722363457" lon="17.865297210075088" id="-4895">
		<tag k="name" v="Sealggajiekŋa" />
		<tag k="name:se" v="Sealggajiekŋa" />
		<tag k="natural" v="glacier" />
		<tag k="old_name:se" v="Sealggajiekna" />
		<tag k="ssr:stedsnr" v="684643" />
	</node>
	<node lat="68.137188891796" lon="16.92326666757435" id="-4907">
		<tag k="fixme" v="multiple name tags, choose one and add the other to alt_name" />
		<tag k="name" v="Skårisen;Botnisen" />
		<tag k="natural" v="glacier" />
		<tag k="ssr:stedsnr" v="684694" />
	</node>
	<node lat="68.30054444624636" lon="17.349761115459216" id="-4929">
		<tag k="name" v="Øverjorda" />
		<tag k="place" v="locality" />
		<tag k="ssr:stedsnr" v="524642" />
	</node>
	<node lat="68.38376666594611" lon="16.693102777674294" id="-5008">
		<tag k="name" v="Lappsteinen" />
		<tag k="natural" v="stone" />
		<tag k="ssr:stedsnr" v="692166" />
	</node>
	<node lat="68.53894444931387" lon="17.483116656870436" id="-5012">
		<tag k="name" v="Dalskogen" />
		<tag k="place" v="locality" />
		<tag k="ssr:stedsnr" v="693375" />
	</node>
	<node lat="68.25824722018677" lon="17.40491388112043" id="-5013">
		<tag k="name" v="Flåtta" />
		<tag k="place" v="locality" />
		<tag k="ssr:stedsnr" v="692539" />
	</node>
	<node lat="68.06767777965577" lon="16.389275006597263" id="-5029">
		<tag k="name" v="Kariheimen" />
		<tag k="name:no" v="Kariheimen" />
		<tag k="place" v="locality" />
		<tag k="ssr:stedsnr" v="567665" />
	</node>
	<node lat="68.09170833370268" lon="16.63062499309698" id="-5037">
		<tag k="name" v="Tjuvsteinen" />
		<tag k="name:no" v="Tjuvsteinen" />
		<tag k="natural" v="stone" />
		<tag k="ssr:stedsnr" v="567773" />
	</node>
	<node lat="68.47418055860953" lon="17.523550009627638" id="-5048">
		<tag k="name" v="Tømmerholtet" />
		<tag k="place" v="locality" />
		<tag k="ssr:stedsnr" v="693398" />
	</node>
	<node lat="68.40580277828255" lon="17.4053444381043" id="-5054">
		<tag k="name" v="Kvantesteinen" />
		<tag k="natural" v="stone" />
		<tag k="ssr:stedsnr" v="570558" />
	</node>
	<node lat="68.44540277959295" lon="17.603569443161508" id="-5060">
		<tag k="name" v="Storura" />
		<tag k="natural" v="scree" />
		<tag k="ssr:stedsnr" v="571354" />
	</node>
	<node lat="68.36136666684544" lon="16.864108334117315" id="-5070">
		<tag k="name" v="Saltvassmyra" />
		<tag k="natural" v="wetland" />
		<tag k="ssr:stedsnr" v="571258" />
	</node>
	<node lat="68.35639166591858" lon="16.863627785405672" id="-5082">
		<tag k="name" v="Leirvikmyra" />
		<tag k="natural" v="wetland" />
		<tag k="ssr:stedsnr" v="571458" />
	</node>
	<node lat="68.34825833251018" lon="16.15073611097022" id="-5093">
		<tag k="name" v="Fjellmyra" />
		<tag k="natural" v="wetland" />
		<tag k="ssr:stedsnr" v="585239" />
	</node>
	<node lat="68.54242500305632" lon="17.722244433983228" id="-5109">
		<tag k="name" v="Kumyran" />
		<tag k="natural" v="wetland" />
		<tag k="ssr:stedsnr" v="604164" />
	</node>
	<node lat="68.35686389077954" lon="17.83054721617722" id="-5114">
		<tag k="name" v="Blåisen - Beajojiekŋa" />
		<tag k="name:no" v="Blåisen" />
		<tag k="name:se" v="Beajojiekŋa" />
		<tag k="natural" v="glacier" />
		<tag k="ssr:stedsnr" v="623172" />
	</node>
	<node lat="68.37478055658995" lon="16.825030562639807" id="-5147">
		<tag k="name" v="Sikan" />
		<tag k="natural" v="wetland" />
		<tag k="ssr:stedsnr" v="624904" />
	</node>
	<node lat="68.34791110880742" lon="16.82333887735663" id="-5153">
		<tag k="fixme" v="multiple name tags, choose one and add the other to alt_name" />
		<tag k="name" v="Ivarmyra;Åsmyra" />
		<tag k="natural" v="wetland" />
		<tag k="ssr:stedsnr" v="624880" />
	</node>
	<node lat="68.40274166981985" lon="17.84919721496999" id="-5169">
		<tag k="name" v="Kvitura" />
		<tag k="natural" v="scree" />
		<tag k="ssr:stedsnr" v="628708" />
	</node>
	<node lat="68.51971944417161" lon="17.39354443833519" id="-5181">
		<tag k="name" v="Stormyra" />
		<tag k="natural" v="wetland" />
		<tag k="ssr:stedsnr" v="631234" />
	</node>
	<node lat="68.34870555961487" lon="16.955233334473323" id="-5191">
		<tag k="name" v="Forraholtet" />
		<tag k="place" v="locality" />
		<tag k="ssr:stedsnr" v="631345" />
	</node>
	<node lat="68.53558889057993" lon="17.39605278302363" id="-5208">
		<tag k="name" v="Kvalemyra" />
		<tag k="natural" v="wetland" />
		<tag k="ssr:stedsnr" v="632347" />
	</node>
	<node lat="68.39435832962832" lon="16.76216944187094" id="-5210">
		<tag k="name" v="Ura" />
		<tag k="natural" v="scree" />
		<tag k="ssr:stedsnr" v="633290" />
	</node>
	<node lat="68.20030000106236" lon="17.507750001897794" id="-5224">
		<tag k="name" v="Råvimyra" />
		<tag k="natural" v="wetland" />
		<tag k="ssr:stedsnr" v="645008" />
	</node>
	<node lat="68.08038888688128" lon="16.578166666668604" id="-5277">
		<tag k="historic" v="shieling" />
		<tag k="name" v="Jæbbmá" />
		<tag k="name:smj" v="Jæbbmá" />
		<tag k="place" v="locality" />
		<tag k="ssr:stedsnr" v="684546" />
	</node>
	<node lat="68.26007778173866" lon="17.03497501007258" id="-5311">
		<tag k="name" v="Kvolvet" />
		<tag k="place" v="locality" />
		<tag k="ssr:stedsnr" v="689384" />
	</node>
	<node lat="68.2274805585045" lon="16.30646389521132" id="-5323">
		<tag k="name" v="Lysvollmarka" />
		<tag k="name:no" v="Lysvollmarka" />
=======
	<node id="-116651" lat="68.3097833339" lon="16.6694055528">
		<tag k="name" v="Ballangsmarka" />
		<tag k="place" v="locality" />
		<tag k="ssr:stedsnr" v="745615" />
	</node>
	<node id="-113066" lat="68.4764583355" lon="17.6508694513">
		<tag k="name" v="Bjørnskolten" />
		<tag k="place" v="locality" />
		<tag k="ssr:stedsnr" v="268381" />
	</node>
	<node id="-116295" lat="68.4058027783" lon="17.4053444381">
		<tag k="name" v="Kvantesteinen" />
		<tag k="natural" v="stone" />
		<tag k="ssr:stedsnr" v="570558" />
	</node>
	<node id="-114941" lat="68.4897777773" lon="17.5246972112">
		<tag k="name" v="Sandveglegden" />
		<tag k="place" v="locality" />
		<tag k="ssr:stedsnr" v="25399" />
	</node>
	<node id="-112796" lat="68.2159611083" lon="16.203399995">
		<tag k="name" v="Nesmyra" />
		<tag k="name:no" v="Nesmyra" />
		<tag k="natural" v="wetland" />
		<tag k="ssr:stedsnr" v="22938" />
	</node>
	<node id="-112881" lat="68.482155554" lon="17.6457361168">
		<tag k="name" v="Tindslåtten" />
		<tag k="place" v="locality" />
		<tag k="ssr:stedsnr" v="86356" />
	</node>
	<node id="-113572" lat="68.2955472251" lon="16.7149249954">
		<tag k="name" v="Ivarmyra" />
		<tag k="natural" v="wetland" />
		<tag k="ssr:stedsnr" v="381613" />
	</node>
	<node id="-114081" lat="68.3942361084" lon="16.6315888846">
		<tag k="name" v="Vassbotn" />
		<tag k="natural" v="wetland" />
		<tag k="ssr:stedsnr" v="692208" />
	</node>
	<node id="-114080" lat="68.3837666659" lon="16.6931027777">
		<tag k="name" v="Lappsteinen" />
		<tag k="natural" v="stone" />
		<tag k="ssr:stedsnr" v="692166" />
	</node>
	<node id="-115613" lat="68.4344201259" lon="17.6961217896">
		<tag k="name" v="Tarvaldjorda" />
		<tag k="place" v="locality" />
		<tag k="ssr:stedsnr" v="321178" />
	</node>
	<node id="-117148" lat="68.3057888895" lon="17.1114916598">
		<tag k="name" v="Bjørnsteinmyra" />
		<tag k="natural" v="wetland" />
		<tag k="ssr:stedsnr" v="867880" />
	</node>
	<node id="-117231" lat="68.5368333307" lon="17.5715333396">
		<tag k="name" v="Jordsenden" />
		<tag k="place" v="locality" />
		<tag k="ssr:stedsnr" v="875442" />
	</node>
	<node id="-114070" lat="68.4339694477" lon="17.6874805662">
		<tag k="name" v="Storura" />
		<tag k="natural" v="scree" />
		<tag k="ssr:stedsnr" v="692008" />
	</node>
	<node id="-116117" lat="68.3304083375" lon="16.6044055489">
		<tag k="name" v="Sumpvassmyra" />
		<tag k="natural" v="wetland" />
		<tag k="ssr:stedsnr" v="524695" />
	</node>
	<node id="-114066" lat="68.2274805585" lon="16.3064638952">
		<tag k="name" v="Lysvollmarka" />
		<tag k="name:no" v="Lysvollmarka" />
		<tag k="place" v="locality" />
		<tag k="ssr:stedsnr" v="689984" />
	</node>
	<node id="-114577" lat="68.3174861149" lon="17.2333138829">
		<tag k="name" v="Bukkuran" />
		<tag k="natural" v="scree" />
		<tag k="ssr:stedsnr" v="928859" />
	</node>
	<node id="-113552" lat="68.2852194421" lon="16.6834333352">
		<tag k="name" v="Fuorsovuopmi" />
		<tag k="name:se" v="Fuorsovuopmi" />
		<tag k="place" v="locality" />
		<tag k="ssr:stedsnr" v="485051" />
	</node>
	<node id="-113039" lat="68.0906361077" lon="16.6265083305">
		<tag k="name" v="Sykalan" />
		<tag k="name:no" v="Sykalan" />
		<tag k="natural" v="scree" />
		<tag k="ssr:stedsnr" v="264791" />
	</node>
	<node id="-117229" lat="68.5064166638" lon="17.5457027784">
		<tag k="name" v="Bringgamman" />
		<tag k="place" v="locality" />
		<tag k="ssr:stedsnr" v="875405" />
	</node>
	<node id="-114391" lat="68.0094055546" lon="16.8041527865">
		<tag k="name" v="Gihtsejiegŋa" />
		<tag k="name:smj" v="Gihtsejiegŋa" />
		<tag k="natural" v="glacier" />
		<tag k="old_name:smj" v="Gihtsejiegńa;Gihtsejiekŋa;Gihccejiekŋa" />
		<tag k="ssr:stedsnr" v="745765" />
	</node>
	<node id="-114924" lat="68.5443833303" lon="17.4789499902">
		<tag k="name" v="Hopskogen" />
		<tag k="place" v="locality" />
		<tag k="ssr:stedsnr" v="25337" />
	</node>
	<node id="-113542" lat="68.5514916663" lon="17.5141888847">
		<tag k="name" v="Gamman" />
		<tag k="place" v="locality" />
		<tag k="ssr:stedsnr" v="328417" />
	</node>
	<node id="-113028" lat="68.4711388846" lon="17.7424944407">
		<tag k="name" v="Småvassmyran" />
		<tag k="natural" v="wetland" />
		<tag k="ssr:stedsnr" v="264673" />
	</node>
	<node id="-113539" lat="68.3474083329" lon="16.82838888">
		<tag k="name" v="Åsmyran" />
		<tag k="natural" v="wetland" />
		<tag k="ssr:stedsnr" v="328411" />
	</node>
	<node id="-113538" lat="68.3603638885" lon="16.8699138955">
		<tag k="name" v="Husvassmyra" />
		<tag k="natural" v="wetland" />
		<tag k="ssr:stedsnr" v="328407" />
	</node>
	<node id="-114701" lat="68.3003944406" lon="16.6123305648">
		<tag k="name" v="Storforsmyra" />
		<tag k="natural" v="wetland" />
		<tag k="ssr:stedsnr" v="949690" />
	</node>
	<node id="-113536" lat="68.3322444485" lon="16.686583338">
		<tag k="name" v="Trollsteinen" />
		<tag k="natural" v="stone" />
		<tag k="ssr:stedsnr" v="328116" />
	</node>
	<node id="-113533" lat="68.222541664" lon="16.2482083371">
		<tag k="name" v="Langosmyra" />
		<tag k="name:no" v="Langosmyra" />
		<tag k="natural" v="wetland" />
		<tag k="ssr:stedsnr" v="325928" />
	</node>
	<node id="-113020" lat="68.4917638902" lon="17.3375833384">
		<tag k="landuse" v="meadow" />
		<tag k="name" v="Husmannsteigen" />
		<tag k="ssr:stedsnr" v="264634" />
	</node>
	<node id="-113018" lat="68.3245166692" lon="16.3693166616">
		<tag k="name" v="Strykmyra" />
		<tag k="natural" v="wetland" />
		<tag k="ssr:stedsnr" v="264550" />
	</node>
	<node id="-115576" lat="68.367849997" lon="16.9026138969">
		<tag k="name" v="Neita" />
		<tag k="place" v="locality" />
		<tag k="ssr:stedsnr" v="207252" />
	</node>
	<node id="-113015" lat="68.2203916639" lon="17.3108027686">
		<tag k="name" v="Rapan" />
		<tag k="place" v="locality" />
		<tag k="ssr:stedsnr" v="264511" />
	</node>
	<node id="-114038" lat="68.2582472202" lon="17.4049138811">
		<tag k="name" v="Flåtta" />
		<tag k="place" v="locality" />
		<tag k="ssr:stedsnr" v="692539" />
	</node>
	<node id="-113012" lat="68.2673416673" lon="17.0543666625">
		<tag k="name" v="Dikan" />
		<tag k="natural" v="scree" />
		<tag k="ssr:stedsnr" v="264343" />
	</node>
	<node id="-113523" lat="68.2410749989" lon="16.7223027821">
		<tag k="name" v="Melkeplassen" />
		<tag k="natural" v="wetland" />
		<tag k="ssr:stedsnr" v="464632" />
	</node>
	<node id="-113522" lat="68.2306333345" lon="17.4459361087">
		<tag k="name" v="Løbakken" />
		<tag k="place" v="locality" />
		<tag k="ssr:stedsnr" v="464782" />
	</node>
	<node id="-116081" lat="68.2137499989" lon="17.4835138746">
		<tag k="name" v="Haugbakkolderskogen" />
		<tag k="place" v="locality" />
		<tag k="ssr:stedsnr" v="403739" />
	</node>
	<node id="-116077" lat="68.244116669" lon="16.7031361082">
		<tag k="name" v="Storfjellmyra" />
		<tag k="natural" v="wetland" />
		<tag k="ssr:stedsnr" v="403590" />
	</node>
	<node id="-113515" lat="68.3865055588" lon="17.5711472207">
		<tag k="name" v="Jordenden" />
		<tag k="place" v="locality" />
		<tag k="ssr:stedsnr" v="464071" />
	</node>
	<node id="-114919" lat="68.3284527753" lon="16.7198000085">
		<tag k="name" v="Siedjorda" />
		<tag k="place" v="locality" />
		<tag k="ssr:stedsnr" v="25159" />
	</node>
	<node id="-112893" lat="68.309077782" lon="16.1837722189">
		<tag k="name" v="Brennskogen" />
		<tag k="place" v="locality" />
		<tag k="ssr:stedsnr" v="100354" />
	</node>
	<node id="-115559" lat="68.0745166647" lon="16.6390444436">
		<tag k="name" v="Osturan" />
		<tag k="name:no" v="Osturan" />
		<tag k="natural" v="scree" />
		<tag k="ssr:stedsnr" v="204742" />
	</node>
	<node id="-115089" lat="68.338355555" lon="16.9054916553">
		<tag k="name" v="Dommarka" />
		<tag k="place" v="locality" />
		<tag k="ssr:stedsnr" v="78916" />
	</node>
	<node id="-113507" lat="68.2036000013" lon="17.5020250035">
		<tag k="name" v="Råvislåttene" />
		<tag k="place" v="locality" />
		<tag k="ssr:stedsnr" v="282015" />
	</node>
	<node id="-115549" lat="68.511691669" lon="17.7770916752">
		<tag k="name" v="Svartura" />
		<tag k="natural" v="scree" />
		<tag k="ssr:stedsnr" v="204663" />
	</node>
	<node id="-116572" lat="68.2003000011" lon="17.5077500019">
		<tag k="name" v="Råvimyra" />
		<tag k="natural" v="wetland" />
		<tag k="ssr:stedsnr" v="645008" />
	</node>
	<node id="-113499" lat="68.2328166633" lon="17.43296944">
		<tag k="name" v="Kams" />
		<tag k="place" v="locality" />
		<tag k="ssr:stedsnr" v="268752" />
	</node>
	<node id="-115546" lat="68.1849277771" lon="17.3195250085">
		<tag k="name" v="Småmoan" />
		<tag k="place" v="locality" />
		<tag k="ssr:stedsnr" v="204643" />
	</node>
	<node id="-116111" lat="68.3005444462" lon="17.3497611155">
		<tag k="name" v="Øverjorda" />
		<tag k="place" v="locality" />
		<tag k="ssr:stedsnr" v="524642" />
	</node>
	<node id="-114925" lat="68.3749694429" lon="16.8899305451">
		<tag k="name" v="Løhammaren" />
		<tag k="place" v="locality" />
		<tag k="ssr:stedsnr" v="25344" />
	</node>
	<node id="-113495" lat="68.5340722245" lon="17.4225527811">
		<tag k="name" v="Sølv-ura" />
		<tag k="natural" v="scree" />
		<tag k="ssr:stedsnr" v="268307" />
	</node>
	<node id="-112981" lat="68.3254416664" lon="17.0560999929">
		<tag k="name" v="Åkran" />
		<tag k="place" v="locality" />
		<tag k="ssr:stedsnr" v="260883" />
	</node>
	<node id="-116562" lat="68.3943583296" lon="16.7621694419">
		<tag k="name" v="Ura" />
		<tag k="natural" v="scree" />
		<tag k="ssr:stedsnr" v="633290" />
	</node>
	<node id="-115427" lat="68.3748777777" lon="16.7113249945">
		<tag k="name" v="Håfjellmarka" />
		<tag k="place" v="locality" />
		<tag k="ssr:stedsnr" v="160688" />
	</node>
	<node id="-112976" lat="68.2686138889" lon="17.2839388968">
		<tag k="name" v="Tverrelvmyra" />
		<tag k="natural" v="wetland" />
		<tag k="ssr:stedsnr" v="260828" />
	</node>
	<node id="-116047" lat="68.3388027788" lon="16.8902916543">
		<tag k="name" v="Lillemyra" />
		<tag k="natural" v="wetland" />
		<tag k="ssr:stedsnr" v="389385" />
	</node>
	<node id="-113486" lat="68.2465805528" lon="17.4201194486">
		<tag k="name" v="Sjanglibanen" />
		<tag k="natural" v="stone" />
		<tag k="ssr:stedsnr" v="267432" />
	</node>
	<node id="-116555" lat="68.3913166621" lon="17.1442722284">
		<tag k="name" v="Flåtta" />
		<tag k="place" v="locality" />
		<tag k="ssr:stedsnr" v="631873" />
	</node>
	<node id="-113990" lat="68.3901749967" lon="16.8793750075">
		<tag k="name" v="Kvennes" />
		<tag k="place" v="locality" />
		<tag k="ssr:stedsnr" v="512265" />
	</node>
	<node id="-116037" lat="68.3585527767" lon="16.8265860998">
		<tag k="name" v="Fjellmyra" />
		<tag k="natural" v="wetland" />
		<tag k="ssr:stedsnr" v="389298" />
	</node>
	<node id="-113950" lat="68.2420472236" lon="17.8652972101">
		<tag k="name" v="Sealggajiekŋa" />
		<tag k="name:se" v="Sealggajiekŋa" />
		<tag k="natural" v="glacier" />
		<tag k="old_name:se" v="Sealggajiekna" />
		<tag k="ssr:stedsnr" v="684643" />
	</node>
	<node id="-115511" lat="68.5649861115" lon="17.6336416535">
		<tag k="name" v="Mellommyra" />
		<tag k="natural" v="wetland" />
		<tag k="ssr:stedsnr" v="200690" />
	</node>
	<node id="-112940" lat="68.0826499983" lon="18.0150805531">
		<tag k="name" v="Rivgojiekŋa" />
		<tag k="name:se" v="Rivgojiekŋa" />
		<tag k="natural" v="glacier" />
		<tag k="old_name:se" v="Rivgojiekna" />
		<tag k="ssr:stedsnr" v="259875" />
	</node>
	<node id="-116019" lat="68.3765916707" lon="16.8940611085">
		<tag k="name" v="Kalvegarden" />
		<tag k="place" v="locality" />
		<tag k="ssr:stedsnr" v="388289" />
	</node>
	<node id="-116530" lat="68.5197194442" lon="17.3935444383">
		<tag k="name" v="Stormyra" />
		<tag k="natural" v="wetland" />
		<tag k="ssr:stedsnr" v="631234" />
	</node>
	<node id="-116528" lat="68.3487055596" lon="16.9552333345">
		<tag k="name" v="Forraholtet" />
		<tag k="place" v="locality" />
		<tag k="ssr:stedsnr" v="631345" />
	</node>
	<node id="-114991" lat="68.5497194436" lon="17.7583416566">
		<tag k="name" v="Gekjago-jeaggi" />
		<tag k="name:se" v="Gekjago-jeaggi" />
		<tag k="natural" v="wetland" />
		<tag k="ssr:stedsnr" v="58260" />
	</node>
	<node id="-113965" lat="68.3892750041" lon="17.2502888853">
		<tag k="name" v="Slåttlisteinen" />
		<tag k="natural" v="stone" />
		<tag k="ssr:stedsnr" v="510522" />
	</node>
	<node id="-116524" lat="68.5632388896" lon="17.7002750073">
		<tag k="name" v="Knutmyra" />
		<tag k="natural" v="wetland" />
		<tag k="ssr:stedsnr" v="631048" />
	</node>
	<node id="-114475" lat="68.2243388858" lon="16.2878638761">
		<tag k="name" v="Langmarka" />
		<tag k="name:no" v="Langmarka" />
>>>>>>> e1d4bc35ff8a6074a6f2e91616a996b547c36f15
		<tag k="place" v="locality" />
		<tag k="ssr:stedsnr" v="927511" />
	</node>
<<<<<<< HEAD
	<node lat="68.43396944772495" lon="17.68748056618626" id="-5326">
		<tag k="name" v="Storura" />
		<tag k="natural" v="scree" />
		<tag k="ssr:stedsnr" v="692008" />
	</node>
	<node lat="68.39423610843082" lon="16.631588884644973" id="-5330">
		<tag k="name" v="Vassbotn" />
		<tag k="natural" v="wetland" />
		<tag k="ssr:stedsnr" v="692208" />
	</node>
	<node lat="68.39243055622697" lon="16.821191658912866" id="-5339">
		<tag k="name" v="Bjørnbåsmyra" />
		<tag k="natural" v="wetland" />
		<tag k="ssr:stedsnr" v="693314" />
	</node>
	<node lat="68.36640833458772" lon="16.89561388348753" id="-5340">
		<tag k="name" v="Flotta" />
		<tag k="place" v="locality" />
		<tag k="ssr:stedsnr" v="693317" />
	</node>
	<node lat="68.49204444703243" lon="17.53213887632632" id="-5342">
		<tag k="name" v="Gommarmyran" />
		<tag k="natural" v="wetland" />
		<tag k="ssr:stedsnr" v="693415" />
	</node>
	<node lat="68.30978333386001" lon="16.66940555279515" id="-5372">
		<tag k="name" v="Ballangsmarka" />
		<tag k="place" v="locality" />
		<tag k="ssr:stedsnr" v="745615" />
	</node>
	<node lat="68.5608527767126" lon="17.6020694399016" id="-5392">
		<tag k="name" v="Herjangsmarka" />
		<tag k="place" v="locality" />
		<tag k="ssr:stedsnr" v="745722" />
	</node>
	<node lat="68.33873055489354" lon="17.040008323357178" id="-5415">
		<tag k="name" v="Trongvegurda" />
		<tag k="natural" v="scree" />
		<tag k="ssr:stedsnr" v="746873" />
	</node>
	<node lat="68.38426111320385" lon="17.202769439864586" id="-5440">
		<tag k="name" v="Klemsteinan" />
		<tag k="natural" v="stone" />
		<tag k="ssr:stedsnr" v="753464" />
	</node>
	<node lat="68.33839722087487" lon="16.82489445351496" id="-5445">
		<tag k="name" v="Finnjord" />
		<tag k="place" v="locality" />
		<tag k="ssr:stedsnr" v="753375" />
	</node>
	<node lat="68.32234444376178" lon="17.312058335276987" id="-5449">
		<tag k="name" v="Hestmyra" />
		<tag k="natural" v="wetland" />
		<tag k="ssr:stedsnr" v="753951" />
	</node>
	<node lat="68.20418055612141" lon="17.3281388795578" id="-5485">
		<tag k="name" v="Storura" />
		<tag k="natural" v="scree" />
		<tag k="ssr:stedsnr" v="810632" />
	</node>
	<node lat="68.53537777427753" lon="17.57876110050386" id="-5510">
		<tag k="name" v="Innermedby" />
		<tag k="place" v="locality" />
		<tag k="ssr:stedsnr" v="814450" />
	</node>
	<node lat="68.03888888801238" lon="16.37868611987977" id="-5524">
		<tag k="name" v="Tjukkskogen" />
		<tag k="name:no" v="Tjukkskogen" />
		<tag k="place" v="locality" />
		<tag k="ssr:stedsnr" v="828179" />
	</node>
	<node lat="68.39120832924604" lon="17.987563884095522" id="-5548">
		<tag k="name" v="Sørdalsmyra" />
		<tag k="natural" v="wetland" />
		<tag k="ssr:stedsnr" v="927230" />
	</node>
	<node lat="68.31748611492702" lon="17.233313882944582" id="-5619">
		<tag k="name" v="Bukkuran" />
		<tag k="natural" v="scree" />
		<tag k="ssr:stedsnr" v="928859" />
	</node>
	<node lat="68.35344444855805" lon="17.664741662111023" id="-5677">
		<tag k="name" v="Rasan" />
		<tag k="natural" v="scree" />
		<tag k="ssr:stedsnr" v="932669" />
	</node>
	<node lat="68.25185277373451" lon="16.3841222127231" id="-5692">
		<tag k="name" v="Nordfjellmyra" />
		<tag k="name:no" v="Nordfjellmyra" />
		<tag k="natural" v="wetland" />
		<tag k="ssr:stedsnr" v="932999" />
	</node>
	<node lat="68.39047777552757" lon="16.64187221829905" id="-5706">
		<tag k="name" v="Bergvassmyra" />
		<tag k="natural" v="wetland" />
		<tag k="ssr:stedsnr" v="935202" />
	</node>
	<node lat="68.48355555837708" lon="17.526794455429837" id="-5709">
		<tag k="name" v="Kleivmyra" />
		<tag k="natural" v="wetland" />
		<tag k="ssr:stedsnr" v="935371" />
	</node>
	<node lat="68.37807222290353" lon="16.665274995475386" id="-5720">
		<tag k="name" v="Storjorda" />
		<tag k="natural" v="wetland" />
		<tag k="ssr:stedsnr" v="889638" />
	</node>
	<node lat="68.2440694435967" lon="16.713797211255308" id="-5722">
		<tag k="name" v="Forrhaugmyra" />
		<tag k="natural" v="wetland" />
		<tag k="ssr:stedsnr" v="889594" />
	</node>
	<node lat="68.2745805601491" lon="17.411763885105177" id="-5729">
=======
	<node id="-113450" lat="68.3403416677" lon="17.9670777655">
		<tag k="name" v="Passmyra" />
		<tag k="natural" v="wetland" />
		<tag k="ssr:stedsnr" v="259125" />
	</node>
	<node id="-114984" lat="68.4481111108" lon="17.7284972182">
		<tag k="name" v="Gollejeaggi" />
		<tag k="name:se" v="Gollejeaggi" />
		<tag k="natural" v="wetland" />
		<tag k="ssr:stedsnr" v="40681" />
	</node>
	<node id="-116518" lat="68.2316194438" lon="16.2005388848">
		<tag k="name" v="Stormyra" />
		<tag k="name:no" v="Stormyra" />
		<tag k="natural" v="wetland" />
		<tag k="ssr:stedsnr" v="628918" />
	</node>
	<node id="-116517" lat="68.2192277792" lon="16.2473583362">
		<tag k="name" v="Hallmyra" />
		<tag k="name:no" v="Hallmyra" />
		<tag k="natural" v="wetland" />
		<tag k="ssr:stedsnr" v="628917" />
	</node>
	<node id="-116003" lat="68.3190027791" lon="17.6299611086">
		<tag k="name" v="Brennmyra" />
		<tag k="natural" v="wetland" />
		<tag k="ssr:stedsnr" v="385720" />
	</node>
	<node id="-115743" lat="68.2733194457" lon="17.045569445">
		<tag k="name" v="Holsmedura" />
		<tag k="natural" v="scree" />
		<tag k="ssr:stedsnr" v="325393" />
	</node>
	<node id="-113441" lat="68.3859972214" lon="17.1357888838">
		<tag k="name" v="Banmyra" />
		<tag k="natural" v="wetland" />
		<tag k="ssr:stedsnr" v="450849" />
	</node>
	<node id="-114464" lat="68.3912083292" lon="17.9875638841">
		<tag k="name" v="Sørdalsmyra" />
		<tag k="natural" v="wetland" />
		<tag k="ssr:stedsnr" v="927230" />
	</node>
	<node id="-116016" lat="68.2610055584" lon="16.3582833429">
		<tag k="name" v="Uran" />
		<tag k="name:no" v="Uran" />
		<tag k="natural" v="scree" />
		<tag k="ssr:stedsnr" v="385994" />
	</node>
	<node id="-113438" lat="68.5560305539" lon="17.6036749849">
		<tag k="name" v="Skjellsteinen" />
		<tag k="natural" v="stone" />
		<tag k="ssr:stedsnr" v="450493" />
	</node>
	<node id="-115997" lat="68.2086777771" lon="17.3356805604">
		<tag k="name" v="Gangarneslandet" />
		<tag k="place" v="locality" />
		<tag k="ssr:stedsnr" v="385547" />
	</node>
	<node id="-117210" lat="68.3825611088" lon="17.3675444522">
		<tag k="name" v="Sennklubbmyra" />
		<tag k="natural" v="wetland" />
		<tag k="ssr:stedsnr" v="874601" />
	</node>
	<node id="-113433" lat="68.5566972246" lon="17.6457166655">
		<tag k="name" v="Kildmyra" />
		<tag k="natural" v="wetland" />
		<tag k="ssr:stedsnr" v="450466" />
	</node>
	<node id="-116503" lat="68.3668861152" lon="16.3172888964">
		<tag k="name" v="Uran" />
		<tag k="natural" v="scree" />
		<tag k="ssr:stedsnr" v="628534" />
	</node>
	<node id="-114734" lat="68.5475277787" lon="17.5018833413">
		<tag k="name" v="Nubbeslåtta" />
		<tag k="place" v="locality" />
		<tag k="ssr:stedsnr" v="875317" />
	</node>
	<node id="-113425" lat="68.4854694426" lon="17.5418694473">
		<tag k="name" v="Vermarka" />
		<tag k="place" v="locality" />
		<tag k="ssr:stedsnr" v="450419" />
	</node>
	<node id="-114904" lat="68.1608805528" lon="17.651324998">
		<tag k="name" v="Stormyra" />
		<tag k="natural" v="wetland" />
		<tag k="ssr:stedsnr" v="22656" />
	</node>
	<node id="-113422" lat="68.4063166686" lon="16.7476472276">
		<tag k="name" v="Tuvmyra" />
		<tag k="natural" v="wetland" />
		<tag k="ssr:stedsnr" v="450274" />
	</node>
	<node id="-114956" lat="68.2370888932" lon="17.4300111008">
		<tag k="name" v="Slåkkamyra" />
		<tag k="natural" v="wetland" />
		<tag k="ssr:stedsnr" v="25771" />
	</node>
	<node id="-114050" lat="68.2600777817" lon="17.0349750101">
		<tag k="name" v="Kvolvet" />
		<tag k="place" v="locality" />
		<tag k="ssr:stedsnr" v="689384" />
	</node>
	<node id="-114442" lat="68.3954249964" lon="17.3287444452">
		<tag k="name" v="Blåmyra" />
		<tag k="natural" v="wetland" />
		<tag k="ssr:stedsnr" v="753938" />
	</node>
	<node id="-113111" lat="68.4896749969" lon="17.5207111114">
		<tag k="name" v="Kvantamyra" />
		<tag k="natural" v="wetland" />
		<tag k="ssr:stedsnr" v="146370" />
	</node>
	<node id="-117000" lat="68.5636249955" lon="17.6240611146">
		<tag k="name" v="Vedhoggan" />
		<tag k="place" v="locality" />
		<tag k="ssr:stedsnr" v="814496" />
	</node>
	<node id="-116012" lat="68.1250166712" lon="16.3397972149">
		<tag k="name" v="Svabakken" />
		<tag k="name:no" v="Svabakken" />
		<tag k="place" v="locality" />
		<tag k="ssr:stedsnr" v="385965" />
	</node>
	<node id="-114436" lat="68.5606944459" lon="17.6756777856">
		<tag k="name" v="Vaddas" />
		<tag k="name:se" v="Vaddas" />
		<tag k="place" v="locality" />
		<tag k="ssr:stedsnr" v="753029" />
	</node>
	<node id="-113923" lat="68.5623250023" lon="17.7349722221">
		<tag k="name" v="Edvartslåtta" />
		<tag k="place" v="locality" />
		<tag k="ssr:stedsnr" v="510057" />
	</node>
	<node id="-116994" lat="68.5353777743" lon="17.5787611005">
		<tag k="name" v="Innermedby" />
		<tag k="place" v="locality" />
		<tag k="ssr:stedsnr" v="814450" />
	</node>
	<node id="-113963" lat="68.246222219" lon="17.4173055428">
		<tag k="name" v="Kvitbergmyra" />
		<tag k="natural" v="wetland" />
		<tag k="ssr:stedsnr" v="510502" />
	</node>
	<node id="-114432" lat="68.2745805601" lon="17.4117638851">
>>>>>>> e1d4bc35ff8a6074a6f2e91616a996b547c36f15
		<tag k="name" v="Aspeskogen" />
		<tag k="place" v="locality" />
		<tag k="ssr:stedsnr" v="908762" />
	</node>
<<<<<<< HEAD
	<node lat="68.22433888581806" lon="16.287863876095056" id="-5736">
		<tag k="name" v="Langmarka" />
		<tag k="name:no" v="Langmarka" />
		<tag k="place" v="locality" />
		<tag k="ssr:stedsnr" v="927511" />
	</node>
	<node lat="68.14032499839809" lon="16.302080545308424" id="-5779">
		<tag k="name" v="Holmura" />
		<tag k="name:no" v="Holmura" />
		<tag k="natural" v="scree" />
		<tag k="ssr:stedsnr" v="932953" />
	</node>
	<node lat="68.43416666422371" lon="17.642841666108385" id="-5783">
		<tag k="name" v="Jeklomyra" />
		<tag k="natural" v="wetland" />
		<tag k="ssr:stedsnr" v="935319" />
	</node>
	<node lat="68.38957222096474" lon="17.147755554669736" id="-5799">
		<tag k="name" v="Glugga" />
		<tag k="place" v="locality" />
		<tag k="ssr:stedsnr" v="935860" />
	</node>
	<node lat="68.07531944000989" lon="16.67295000734776" id="-5861">
		<tag k="historic" v="shieling" />
		<tag k="name" v="Roavve" />
		<tag k="name:smj" v="Roavve" />
		<tag k="place" v="locality" />
		<tag k="ssr:stedsnr" v="17557" />
	</node>
	<node lat="68.26643888716903" lon="18.07222221201094" id="-5886">
		<tag k="name" v="Beatnatjiekŋa" />
		<tag k="name:se" v="Beatnatjiekŋa" />
		<tag k="natural" v="glacier" />
		<tag k="old_name:se" v="Beatnatjiekna" />
		<tag k="ssr:stedsnr" v="18081" />
	</node>
	<node lat="68.27586666289653" lon="17.041397225430984" id="-5908">
		<tag k="name" v="Gruvsteinan" />
		<tag k="natural" v="stone" />
		<tag k="ssr:stedsnr" v="22379" />
	</node>
	<node lat="68.49673611460898" lon="17.327883334700875" id="-5910">
		<tag k="name" v="Tortennesmyran" />
		<tag k="natural" v="wetland" />
		<tag k="ssr:stedsnr" v="22648" />
	</node>
	<node lat="68.16088055282351" lon="17.65132499795441" id="-5911">
		<tag k="name" v="Stormyra" />
		<tag k="natural" v="wetland" />
		<tag k="ssr:stedsnr" v="22656" />
	</node>
	<node lat="68.32265277819525" lon="17.630080549735222" id="-5915">
		<tag k="name" v="Stormyra" />
		<tag k="natural" v="wetland" />
		<tag k="ssr:stedsnr" v="22688" />
	</node>
	<node lat="68.5443833303013" lon="17.478949990249205" id="-5927">
		<tag k="name" v="Hopskogen" />
		<tag k="place" v="locality" />
		<tag k="ssr:stedsnr" v="25337" />
	</node>
	<node lat="68.37496944291115" lon="16.889930545116325" id="-5928">
		<tag k="name" v="Løhammaren" />
		<tag k="place" v="locality" />
		<tag k="ssr:stedsnr" v="25344" />
	</node>
	<node lat="68.4897777772607" lon="17.524697211216534" id="-5936">
		<tag k="name" v="Sandveglegden" />
		<tag k="place" v="locality" />
		<tag k="ssr:stedsnr" v="25399" />
	</node>
	<node lat="68.32845277534612" lon="16.719800008466283" id="-5938">
		<tag k="name" v="Siedjorda" />
		<tag k="place" v="locality" />
		<tag k="ssr:stedsnr" v="25159" />
	</node>
	<node lat="68.33881111144683" lon="16.810116673117705" id="-5945">
		<tag k="name" v="Langåsmyra" />
		<tag k="natural" v="wetland" />
		<tag k="ssr:stedsnr" v="25442" />
	</node>
	<node lat="68.56474166825372" lon="17.540516658047064" id="-5946">
		<tag k="name" v="Uran" />
		<tag k="natural" v="scree" />
		<tag k="ssr:stedsnr" v="25445" />
	</node>
	<node lat="68.40611388646542" lon="17.408858335470512" id="-5950">
		<tag k="name" v="Kleftersteinen" />
		<tag k="natural" v="stone" />
		<tag k="ssr:stedsnr" v="25606" />
	</node>
	<node lat="68.23708889319825" lon="17.43001110077053" id="-5952">
		<tag k="name" v="Slåkkamyra" />
		<tag k="natural" v="wetland" />
		<tag k="ssr:stedsnr" v="25771" />
	</node>
	<node lat="68.30883333559952" lon="16.647655554076042" id="-5968">
		<tag k="name" v="Nasmyra" />
		<tag k="natural" v="wetland" />
		<tag k="ssr:stedsnr" v="39652" />
	</node>
	<node lat="68.2216805530277" lon="17.469294449998078" id="-5971">
		<tag k="name" v="Fjellgåddolderskogen" />
		<tag k="place" v="locality" />
		<tag k="ssr:stedsnr" v="39724" />
	</node>
	<node lat="68.36593889181133" lon="17.47534999061625" id="-5973">
		<tag k="name" v="Mellommarka" />
		<tag k="place" v="locality" />
		<tag k="ssr:stedsnr" v="39600" />
	</node>
	<node lat="68.5497194435921" lon="17.758341656631845" id="-5983">
		<tag k="name" v="Gekjago-jeaggi" />
		<tag k="name:se" v="Gekjago-jeaggi" />
		<tag k="natural" v="wetland" />
		<tag k="ssr:stedsnr" v="58260" />
	</node>
	<node lat="68.18216111292277" lon="17.33082500404365" id="-6073">
=======
	<node id="-115584" lat="68.3482527753" lon="17.0107305638">
		<tag k="name" v="Plantefeltet" />
		<tag k="place" v="locality" />
		<tag k="ssr:stedsnr" v="207365" />
	</node>
	<node id="-113406" lat="68.5689194487" lon="17.7616055535">
		<tag k="name" v="Luomejeaggi" />
		<tag k="name:se" v="Luomejeaggi" />
		<tag k="natural" v="wetland" />
		<tag k="ssr:stedsnr" v="450040" />
	</node>
	<node id="-116477" lat="68.3747805566" lon="16.8250305626">
		<tag k="name" v="Sikan" />
		<tag k="natural" v="wetland" />
		<tag k="ssr:stedsnr" v="624904" />
	</node>
	<node id="-114693" lat="68.2999361114" lon="17.7743805517">
		<tag k="name" v="Basejiekŋa" />
		<tag k="name:se" v="Basejiekŋa" />
		<tag k="natural" v="glacier" />
		<tag k="ssr:stedsnr" v="867209" />
	</node>
	<node id="-113962" lat="68.1371888918" lon="16.9232666676">
		<tag k="fixme" v="multiple name tags, choose one and add the other to alt_name" />
		<tag k="name" v="Botnisen;Skårisen" />
		<tag k="natural" v="glacier" />
		<tag k="ssr:stedsnr" v="684694" />
	</node>
	<node id="-113401" lat="68.3174861068" lon="17.2746555527">
		<tag k="name" v="Skogåkeren" />
		<tag k="place" v="locality" />
		<tag k="ssr:stedsnr" v="449952" />
	</node>
	<node id="-116472" lat="68.3479111088" lon="16.8233388774">
		<tag k="fixme" v="multiple name tags, choose one and add the other to alt_name" />
		<tag k="name" v="Ivarmyra;Åsmyra" />
		<tag k="natural" v="wetland" />
		<tag k="ssr:stedsnr" v="624880" />
	</node>
	<node id="-115446" lat="68.2006527774" lon="17.5365222143">
		<tag k="name" v="Olderskogen" />
		<tag k="place" v="locality" />
		<tag k="ssr:stedsnr" v="186019" />
	</node>
	<node id="-114729" lat="68.4792944424" lon="17.4887277688">
		<tag k="name" v="Tømmermyra" />
		<tag k="natural" v="wetland" />
		<tag k="ssr:stedsnr" v="875257" />
	</node>
	<node id="-115504" lat="68.2771138867" lon="17.2843888895">
		<tag k="name" v="Stormyra" />
		<tag k="natural" v="wetland" />
		<tag k="ssr:stedsnr" v="199839" />
	</node>
	<node id="-113395" lat="68.2296194461" lon="16.2734166702">
		<tag k="name" v="Lappvikmyra" />
		<tag k="name:no" v="Lappvikmyra" />
		<tag k="natural" v="wetland" />
		<tag k="ssr:stedsnr" v="446990" />
	</node>
	<node id="-114930" lat="68.3417444426" lon="17.034722226">
		<tag k="name" v="Småskreden" />
		<tag k="natural" v="scree" />
		<tag k="ssr:stedsnr" v="25381" />
	</node>
	<node id="-113393" lat="68.2384555536" lon="16.2796305445">
		<tag k="name" v="Grønnstranda" />
		<tag k="name:no" v="Grønnstranda" />
		<tag k="place" v="locality" />
		<tag k="ssr:stedsnr" v="446982" />
	</node>
	<node id="-115437" lat="68.4385361087" lon="17.7122638801">
		<tag k="landuse" v="quarry" />
		<tag k="name" v="Sørnes" />
		<tag k="ssr:stedsnr" v="177127" />
	</node>
	<node id="-113388" lat="68.3202999996" lon="16.4234416568">
		<tag k="name" v="Flatmarka" />
		<tag k="natural" v="wetland" />
		<tag k="ssr:stedsnr" v="446954" />
	</node>
	<node id="-114411" lat="68.3469638847" lon="17.2827722262">
		<tag k="name" v="Kongsbakklemman" />
		<tag k="place" v="locality" />
		<tag k="ssr:stedsnr" v="746864" />
	</node>
	<node id="-112871" lat="68.4062083307" lon="16.6927888831">
		<tag k="name" v="Sveet" />
		<tag k="place" v="locality" />
		<tag k="ssr:stedsnr" v="85164" />
	</node>
	<node id="-115428" lat="68.2867055528" lon="17.3700249972">
		<tag k="name" v="Klemsteinan" />
		<tag k="natural" v="stone" />
		<tag k="ssr:stedsnr" v="160728" />
	</node>
	<node id="-116451" lat="68.5550472247" lon="17.6275027656">
		<tag k="name" v="Stormyra" />
		<tag k="natural" v="wetland" />
		<tag k="ssr:stedsnr" v="624678" />
	</node>
	<node id="-114912" lat="68.2371249986" lon="16.3373111176">
		<tag k="name" v="Middagsmyra" />
		<tag k="name:no" v="Middagsmyra" />
		<tag k="natural" v="wetland" />
		<tag k="ssr:stedsnr" v="22988" />
	</node>
	<node id="-115152" lat="68.3919500028" lon="17.3440749977">
		<tag k="name" v="Morrmyra" />
		<tag k="natural" v="wetland" />
		<tag k="ssr:stedsnr" v="85938" />
	</node>
	<node id="-114908" lat="68.3226527782" lon="17.6300805497">
		<tag k="name" v="Stormyra" />
		<tag k="natural" v="wetland" />
		<tag k="ssr:stedsnr" v="22688" />
	</node>
	<node id="-116955" lat="68.3778166634" lon="16.617800003">
		<tag k="name" v="Holmvassmyra" />
		<tag k="natural" v="wetland" />
		<tag k="ssr:stedsnr" v="813118" />
	</node>
	<node id="-112856" lat="68.1821611129" lon="17.330825004">
>>>>>>> e1d4bc35ff8a6074a6f2e91616a996b547c36f15
		<tag k="name" v="Storskreda" />
		<tag k="natural" v="scree" />
		<tag k="ssr:stedsnr" v="82658" />
	</node>
<<<<<<< HEAD
	<node lat="68.2308111123425" lon="16.312850010593323" id="-6079">
		<tag k="name" v="Sennmyra" />
		<tag k="name:no" v="Sennmyra" />
		<tag k="natural" v="wetland" />
		<tag k="ssr:stedsnr" v="82983" />
	</node>
	<node lat="68.40620833066231" lon="16.69278888308269" id="-6093">
		<tag k="name" v="Sveet" />
		<tag k="place" v="locality" />
		<tag k="ssr:stedsnr" v="85164" />
	</node>
	<node lat="68.3919500027629" lon="17.344074997651862" id="-6096">
		<tag k="name" v="Morrmyra" />
		<tag k="natural" v="wetland" />
		<tag k="ssr:stedsnr" v="85938" />
	</node>
	<node lat="68.47234721803771" lon="17.67909445112327" id="-6097">
		<tag k="name" v="Dalgammyra" />
		<tag k="natural" v="wetland" />
		<tag k="ssr:stedsnr" v="86035" />
	</node>
	<node lat="68.46016389239948" lon="17.737127787327534" id="-6099">
		<tag k="name" v="Lillevassuran" />
		<tag k="natural" v="scree" />
		<tag k="ssr:stedsnr" v="86014" />
	</node>
	<node lat="68.48215555398956" lon="17.645736116811722" id="-6106">
		<tag k="name" v="Tindslåtten" />
		<tag k="place" v="locality" />
		<tag k="ssr:stedsnr" v="86356" />
	</node>
	<node lat="68.42159444844125" lon="17.432566665863625" id="-6121">
		<tag k="name" v="Storstein" />
		<tag k="natural" v="stone" />
		<tag k="ssr:stedsnr" v="91667" />
	</node>
	<node lat="68.34408333190437" lon="16.162691676331974" id="-6129">
		<tag k="name" v="Fortkråa" />
		<tag k="natural" v="wetland" />
		<tag k="ssr:stedsnr" v="100250" />
	</node>
	<node lat="68.30907778195049" lon="16.183772218874466" id="-6133">
		<tag k="name" v="Brennskogen" />
		<tag k="place" v="locality" />
		<tag k="ssr:stedsnr" v="100354" />
	</node>
	<node lat="68.21421666841451" lon="18.0024527791827" id="-6209">
		<tag k="name" v="Muohtaguobla" />
		<tag k="name:se" v="Muohtaguobla" />
		<tag k="place" v="locality" />
		<tag k="ssr:stedsnr" v="138869" />
	</node>
	<node lat="68.4848555578764" lon="17.51996111211595" id="-6220">
		<tag k="name" v="Stormyra - Seavgojeaggi" />
		<tag k="name:no" v="Stormyra" />
		<tag k="name:se" v="Seavgojeaggi" />
		<tag k="natural" v="wetland" />
		<tag k="ssr:stedsnr" v="139727" />
	</node>
	<node lat="68.25863055839044" lon="17.043000010147797" id="-6223">
		<tag k="name" v="Slåttlemmen" />
		<tag k="place" v="locality" />
		<tag k="ssr:stedsnr" v="139761" />
	</node>
	<node lat="68.51624999616621" lon="17.958102775863367" id="-6246">
		<tag k="name" v="Holmvassmyran" />
		<tag k="natural" v="wetland" />
		<tag k="ssr:stedsnr" v="142763" />
	</node>
	<node lat="68.40535000070514" lon="16.688413887323986" id="-6263">
		<tag k="name" v="Bjennmyra" />
		<tag k="natural" v="wetland" />
		<tag k="ssr:stedsnr" v="145211" />
	</node>
	<node lat="68.5821916649341" lon="17.571658338792147" id="-6267">
		<tag k="name" v="Storskogen" />
		<tag k="place" v="locality" />
		<tag k="ssr:stedsnr" v="146002" />
	</node>
	<node lat="68.5210000002648" lon="17.403038877047106" id="-6268">
		<tag k="name" v="Lillemyra" />
		<tag k="natural" v="wetland" />
		<tag k="ssr:stedsnr" v="146260" />
	</node>
	<node lat="68.47929166401308" lon="17.49685833165617" id="-6269">
		<tag k="name" v="Våtmyra" />
		<tag k="natural" v="wetland" />
		<tag k="ssr:stedsnr" v="146264" />
	</node>
	<node lat="68.5261916630728" lon="17.425669450436875" id="-6270">
		<tag k="name" v="Tverrvegbergskogen" />
		<tag k="place" v="locality" />
		<tag k="ssr:stedsnr" v="146284" />
	</node>
	<node lat="68.36170833527346" lon="16.83146112231403" id="-6275">
		<tag k="name" v="Striteigen" />
		<tag k="place" v="locality" />
		<tag k="ssr:stedsnr" v="146249" />
	</node>
	<node lat="68.48967499694396" lon="17.52071111141859" id="-6278">
		<tag k="name" v="Kvantamyra" />
		<tag k="natural" v="wetland" />
		<tag k="ssr:stedsnr" v="146370" />
	</node>
	<node lat="68.3911277786371" lon="17.26751389699527" id="-6281">
		<tag k="name" v="Toppmyra" />
		<tag k="natural" v="wetland" />
		<tag k="ssr:stedsnr" v="146496" />
	</node>
	<node lat="68.5601916683239" lon="17.597163884955624" id="-6287">
		<tag k="name" v="Langmyra" />
		<tag k="natural" v="wetland" />
		<tag k="ssr:stedsnr" v="146441" />
	</node>
	<node lat="68.28670555279115" lon="17.370024997197444" id="-6330">
		<tag k="name" v="Klemsteinan" />
		<tag k="natural" v="stone" />
		<tag k="ssr:stedsnr" v="160728" />
	</node>
	<node lat="68.37487777768817" lon="16.711324994522844" id="-6336">
		<tag k="name" v="Håfjellmarka" />
		<tag k="place" v="locality" />
		<tag k="ssr:stedsnr" v="160688" />
	</node>
	<node lat="68.3177833327426" lon="16.612100005635856" id="-6374">
		<tag k="alt_name" v="Skogelvmyrene" />
		<tag k="name" v="Skogelvmyran" />
		<tag k="natural" v="wetland" />
		<tag k="ssr:stedsnr" v="199645" />
	</node>
	<node lat="68.27711388669529" lon="17.284388889497308" id="-6394">
		<tag k="name" v="Stormyra" />
		<tag k="natural" v="wetland" />
		<tag k="ssr:stedsnr" v="199839" />
	</node>
	<node lat="68.18492777706018" lon="17.319525008529677" id="-6418">
		<tag k="name" v="Småmoan" />
		<tag k="place" v="locality" />
		<tag k="ssr:stedsnr" v="204643" />
	</node>
	<node lat="68.07451666466716" lon="16.639044443644256" id="-6429">
		<tag k="name" v="Osturan" />
		<tag k="name:no" v="Osturan" />
		<tag k="natural" v="scree" />
		<tag k="ssr:stedsnr" v="204742" />
	</node>
	<node lat="68.5116916689682" lon="17.777091675193205" id="-6434">
		<tag k="name" v="Svartura" />
		<tag k="natural" v="scree" />
		<tag k="ssr:stedsnr" v="204663" />
	</node>
	<node lat="68.32686110883395" lon="16.66334720848972" id="-6439">
		<tag k="name" v="Muskmyra vest" />
		<tag k="natural" v="wetland" />
		<tag k="ssr:stedsnr" v="206159" />
	</node>
	<node lat="68.53859999785682" lon="17.484552763460737" id="-6448">
		<tag k="name" v="Kjerringåmen" />
		<tag k="place" v="locality" />
		<tag k="ssr:stedsnr" v="207316" />
	</node>
	<node lat="68.34825277528178" lon="17.01073056377498" id="-6454">
		<tag k="name" v="Plantefeltet" />
		<tag k="place" v="locality" />
		<tag k="ssr:stedsnr" v="207365" />
	</node>
	<node lat="68.24549444352432" lon="17.40583333921603" id="-6457">
		<tag k="name" v="Krøkjebærholmen" />
		<tag k="place" v="locality" />
		<tag k="ssr:stedsnr" v="207474" />
	</node>
	<node lat="68.04725833235337" lon="16.36228333745733" id="-6471">
		<tag k="name" v="Kumyra" />
		<tag k="name:no" v="Kumyra" />
		<tag k="natural" v="wetland" />
		<tag k="ssr:stedsnr" v="221182" />
	</node>
	<node lat="68.15307500238522" lon="16.78857223021379" id="-6485">
		<tag k="name" v="Mannstein" />
		<tag k="natural" v="stone" />
		<tag k="ssr:stedsnr" v="225437" />
	</node>
	<node lat="68.34356388701069" lon="17.27810832066296" id="-6505">
		<tag k="name" v="Tjuvsteinen" />
		<tag k="natural" v="stone" />
		<tag k="ssr:stedsnr" v="282835" />
	</node>
	<node lat="68.55493055383907" lon="17.555249994955638" id="-6517">
		<tag k="name" v="Dybfesjordet" />
		<tag k="place" v="locality" />
		<tag k="ssr:stedsnr" v="300191" />
	</node>
	<node lat="68.28343610742614" lon="16.673486104737325" id="-6546">
		<tag k="name" v="Langåsmyra" />
		<tag k="natural" v="wetland" />
		<tag k="ssr:stedsnr" v="320555" />
	</node>
	<node lat="68.43442012594777" lon="17.69612178962791" id="-6568">
		<tag k="name" v="Tarvaldjorda" />
		<tag k="place" v="locality" />
		<tag k="ssr:stedsnr" v="321178" />
	</node>
	<node lat="68.22254166399131" lon="16.24820833706101" id="-6604">
		<tag k="name" v="Langosmyra" />
		<tag k="name:no" v="Langosmyra" />
		<tag k="natural" v="wetland" />
		<tag k="ssr:stedsnr" v="325928" />
	</node>
	<node lat="68.27367222380907" lon="17.338716676203394" id="-6614">
		<tag k="landuse" v="quarry" />
		<tag k="name" v="Bruddet" />
		<tag k="ssr:stedsnr" v="325664" />
	</node>
	<node lat="68.33224444851211" lon="16.686583338018433" id="-6623">
		<tag k="name" v="Trollsteinen" />
		<tag k="natural" v="stone" />
		<tag k="ssr:stedsnr" v="328116" />
	</node>
	<node lat="68.47533888747365" lon="17.683472230670418" id="-6625">
		<tag k="name" v="Tømmermyra" />
		<tag k="natural" v="wetland" />
		<tag k="ssr:stedsnr" v="328030" />
	</node>
	<node lat="68.48350277827096" lon="17.552363884355557" id="-6637">
		<tag k="name" v="Langmyra" />
		<tag k="natural" v="wetland" />
		<tag k="ssr:stedsnr" v="328390" />
	</node>
	<node lat="68.24753333263774" lon="17.399377773668974" id="-6641">
		<tag k="name" v="Hestøyra" />
		<tag k="place" v="locality" />
		<tag k="ssr:stedsnr" v="328466" />
	</node>
	<node lat="68.24091666955756" lon="17.404836114837394" id="-6642">
		<tag k="name" v="Prestslåtta" />
		<tag k="place" v="locality" />
		<tag k="ssr:stedsnr" v="328472" />
	</node>
	<node lat="68.18817222519067" lon="17.54672498802136" id="-6656">
		<tag k="name" v="Tateruran" />
		<tag k="natural" v="scree" />
		<tag k="ssr:stedsnr" v="342027" />
	</node>
	<node lat="68.45826110905743" lon="17.739436113184592" id="-6714">
		<tag k="name" v="Gulløymyra" />
		<tag k="natural" v="wetland" />
		<tag k="ssr:stedsnr" v="381237" />
	</node>
	<node lat="68.29554722511683" lon="16.714924995379103" id="-6744">
		<tag k="name" v="Ivarmyra" />
		<tag k="natural" v="wetland" />
		<tag k="ssr:stedsnr" v="381613" />
	</node>
	<node lat="68.36946666888252" lon="17.405263895106497" id="-6757">
		<tag k="name" v="Håvikmyran" />
		<tag k="natural" v="wetland" />
		<tag k="ssr:stedsnr" v="381925" />
	</node>
	<node lat="68.22354722683724" lon="17.3025583221308" id="-6758">
		<tag k="name" v="Storrapet" />
		<tag k="natural" v="scree" />
		<tag k="ssr:stedsnr" v="381778" />
	</node>
	<node lat="68.2086777770718" lon="17.335680560422812" id="-6779">
		<tag k="name" v="Gangarneslandet" />
		<tag k="place" v="locality" />
		<tag k="ssr:stedsnr" v="385547" />
	</node>
	<node lat="68.33209722108673" lon="16.38508611906939" id="-6782">
		<tag k="name" v="Stortuva" />
		<tag k="natural" v="wetland" />
		<tag k="ssr:stedsnr" v="385559" />
	</node>
	<node lat="68.57396667057971" lon="17.572538890828724" id="-6796">
		<tag k="name" v="Ola-løa" />
		<tag k="place" v="locality" />
		<tag k="ssr:stedsnr" v="389015" />
	</node>
	<node lat="68.33880277881053" lon="16.890291654253012" id="-6813">
		<tag k="name" v="Lillemyra" />
		<tag k="natural" v="wetland" />
		<tag k="ssr:stedsnr" v="389385" />
	</node>
	<node lat="68.24411666898762" lon="16.703136108161328" id="-6848">
		<tag k="name" v="Storfjellmyra" />
		<tag k="natural" v="wetland" />
		<tag k="ssr:stedsnr" v="403590" />
	</node>
	<node lat="68.21374999886335" lon="17.483513874594415" id="-6852">
		<tag k="name" v="Haugbakkolderskogen" />
		<tag k="place" v="locality" />
		<tag k="ssr:stedsnr" v="403739" />
	</node>
	<node lat="68.60231111461397" lon="17.93635000054816" id="-6894">
		<tag k="name" v="Rivtindbreda" />
		<tag k="natural" v="glacier" />
		<tag k="ssr:stedsnr" v="442555" />
	</node>
	<node lat="68.5616194457541" lon="17.552491668804294" id="-6908">
		<tag k="name" v="Prestjordmarka" />
		<tag k="place" v="locality" />
		<tag k="ssr:stedsnr" v="442714" />
	</node>
	<node lat="68.19960833111104" lon="17.357886117015234" id="-6934">
		<tag k="name" v="Kvitskreda" />
		<tag k="natural" v="scree" />
		<tag k="ssr:stedsnr" v="446514" />
	</node>
	<node lat="68.32029999957679" lon="16.423441656800925" id="-6963">
		<tag k="name" v="Flatmarka" />
		<tag k="natural" v="wetland" />
		<tag k="ssr:stedsnr" v="446954" />
	</node>
	<node lat="68.2690944451341" lon="16.429933324189438" id="-6991">
		<tag k="name" v="Leirpollmarka" />
		<tag k="place" v="locality" />
		<tag k="ssr:stedsnr" v="502554" />
	</node>
	<node lat="68.22760555437016" lon="17.311369445388777" id="-7053">
		<tag k="landuse" v="meadow" />
		<tag k="name" v="Olderskogen" />
		<tag k="ssr:stedsnr" v="507488" />
	</node>
	<node lat="68.37725277541142" lon="17.118494446295664" id="-7062">
		<tag k="name" v="Torvmyra" />
		<tag k="natural" v="wetland" />
		<tag k="ssr:stedsnr" v="507626" />
	</node>
	<node lat="68.47537777406626" lon="17.49091943012316" id="-7093">
		<tag k="name" v="Tømmerbakkmyra" />
		<tag k="natural" v="wetland" />
		<tag k="ssr:stedsnr" v="510229" />
	</node>
	<node lat="68.36543055243165" lon="16.88907776339196" id="-7095">
		<tag k="name" v="Hesteloftet" />
		<tag k="place" v="locality" />
		<tag k="ssr:stedsnr" v="510242" />
	</node>
	<node lat="68.34940555941608" lon="16.845719433983017" id="-7103">
		<tag k="name" v="Tranmyra" />
		<tag k="natural" v="wetland" />
		<tag k="ssr:stedsnr" v="510438" />
	</node>
	<node lat="68.38927500406143" lon="17.25028888526833" id="-7106">
		<tag k="name" v="Slåttlisteinen" />
		<tag k="natural" v="stone" />
		<tag k="ssr:stedsnr" v="510522" />
	</node>
	<node lat="68.39017499668549" lon="16.879375007480615" id="-7119">
		<tag k="name" v="Kvennes" />
		<tag k="place" v="locality" />
		<tag k="ssr:stedsnr" v="512265" />
	</node>
	<node lat="68.33040833747575" lon="16.60440554893343" id="-7139">
		<tag k="name" v="Sumpvassmyra" />
		<tag k="natural" v="wetland" />
		<tag k="ssr:stedsnr" v="524695" />
	</node>
	<node lat="68.32356666498895" lon="16.593852780422623" id="-7232">
		<tag k="name" v="Storsteinmyra" />
		<tag k="natural" v="wetland" />
		<tag k="ssr:stedsnr" v="563662" />
	</node>
	<node lat="68.23430832962069" lon="17.184788878082525" id="-7249">
		<tag k="name" v="Frostisen - Ruostajiekŋa" />
		<tag k="name:no" v="Frostisen" />
		<tag k="name:se" v="Ruostajiekŋa" />
		<tag k="natural" v="glacier" />
		<tag k="old_name:se" v="Ruostajiekńa;Ruostajiekna;Ruosstajiegńa" />
		<tag k="ssr:stedsnr" v="563767" />
	</node>
	<node lat="68.37431110935952" lon="17.069108334327417" id="-7264">
		<tag k="name" v="Stormyra" />
		<tag k="natural" v="wetland" />
		<tag k="ssr:stedsnr" v="563973" />
	</node>
	<node lat="68.3231416638368" lon="16.403486099881867" id="-7276">
		<tag k="name" v="Brennmyran" />
		<tag k="natural" v="wetland" />
		<tag k="ssr:stedsnr" v="567543" />
	</node>
	<node lat="68.0771250010462" lon="16.39998888409107" id="-7278">
		<tag k="name" v="Lapplægerskogen" />
		<tag k="name:no" v="Lapplægerskogen" />
		<tag k="place" v="locality" />
		<tag k="ssr:stedsnr" v="567686" />
	</node>
	<node lat="68.3692111133538" lon="16.629783324692436" id="-7294">
		<tag k="name" v="Stormyra" />
		<tag k="natural" v="wetland" />
		<tag k="ssr:stedsnr" v="570129" />
	</node>
	<node lat="68.39633055388657" lon="17.311708329249228" id="-7306">
		<tag k="name" v="Blautmyra" />
		<tag k="natural" v="wetland" />
		<tag k="ssr:stedsnr" v="570938" />
	</node>
	<node lat="68.46528611040432" lon="17.70064165143545" id="-7309">
		<tag k="name" v="Slåtten" />
		<tag k="place" v="locality" />
		<tag k="ssr:stedsnr" v="571035" />
	</node>
	<node lat="68.44365000230037" lon="17.631380562278192" id="-7317">
		<tag k="name" v="Stormyra" />
		<tag k="natural" v="wetland" />
		<tag k="ssr:stedsnr" v="571365" />
	</node>
	<node lat="68.34060000248392" lon="17.028647220614495" id="-7319">
		<tag k="name" v="Steinan" />
		<tag k="natural" v="stone" />
		<tag k="ssr:stedsnr" v="571392" />
	</node>
	<node lat="68.52926667135529" lon="17.471211101194385" id="-7329">
		<tag k="name" v="Samlingsjorda" />
		<tag k="place" v="locality" />
		<tag k="ssr:stedsnr" v="571323" />
	</node>
	<node lat="68.54907500051856" lon="17.503247217340483" id="-7330">
		<tag k="name" v="Rødsand-slåtta" />
		<tag k="place" v="locality" />
		<tag k="ssr:stedsnr" v="571331" />
	</node>
	<node lat="68.40575000060588" lon="17.34359720855255" id="-7333">
		<tag k="name" v="Skavåsmyra" />
		<tag k="natural" v="wetland" />
		<tag k="ssr:stedsnr" v="571541" />
	</node>
	<node lat="68.06291388963032" lon="16.429158341782436" id="-7356">
		<tag k="name" v="Sennmyra" />
		<tag k="name:no" v="Sennmyra" />
		<tag k="natural" v="wetland" />
		<tag k="ssr:stedsnr" v="585174" />
	</node>
	<node lat="68.22658888763407" lon="17.46399723112786" id="-7361">
		<tag k="name" v="Jagarloft" />
		<tag k="place" v="locality" />
		<tag k="ssr:stedsnr" v="585752" />
	</node>
	<node lat="68.55480277826418" lon="17.569461099702224" id="-7370">
		<tag k="name" v="Bergmyra" />
		<tag k="natural" v="wetland" />
		<tag k="ssr:stedsnr" v="603165" />
	</node>
	<node lat="68.55504722471083" lon="17.62750276561586" id="-7414">
		<tag k="name" v="Stormyra" />
		<tag k="natural" v="wetland" />
		<tag k="ssr:stedsnr" v="624678" />
	</node>
	<node lat="68.28960555655415" lon="17.012152766085723" id="-7454">
		<tag k="name" v="Bjørnsteinen" />
		<tag k="natural" v="stone" />
		<tag k="ssr:stedsnr" v="628390" />
	</node>
	<node lat="68.36688611523438" lon="16.31728889640894" id="-7458">
		<tag k="name" v="Uran" />
		<tag k="natural" v="scree" />
		<tag k="ssr:stedsnr" v="628534" />
	</node>
	<node lat="68.07522778152145" lon="16.399975003578525" id="-7461">
		<tag k="name" v="Gaskageddi" />
		<tag k="name:no" v="Gaskageddi" />
		<tag k="place" v="locality" />
		<tag k="ssr:stedsnr" v="628663" />
	</node>
	<node lat="68.2192277791715" lon="16.2473583361851" id="-7469">
		<tag k="name" v="Hallmyra" />
		<tag k="name:no" v="Hallmyra" />
		<tag k="natural" v="wetland" />
		<tag k="ssr:stedsnr" v="628917" />
	</node>
	<node lat="68.23161944380604" lon="16.200538884843926" id="-7470">
		<tag k="name" v="Stormyra" />
		<tag k="name:no" v="Stormyra" />
		<tag k="natural" v="wetland" />
		<tag k="ssr:stedsnr" v="628918" />
	</node>
	<node lat="68.56323888959936" lon="17.7002750072652" id="-7483">
		<tag k="name" v="Knutmyra" />
		<tag k="natural" v="wetland" />
		<tag k="ssr:stedsnr" v="631048" />
	</node>
	<node lat="68.49868889249578" lon="17.552369451585854" id="-7489">
		<tag k="name" v="Ramnuran" />
		<tag k="natural" v="scree" />
		<tag k="ssr:stedsnr" v="631415" />
	</node>
	<node lat="68.56493888899908" lon="17.60219165655574" id="-7492">
		<tag k="name" v="Grenerli-myra" />
		<tag k="natural" v="wetland" />
		<tag k="ssr:stedsnr" v="631457" />
	</node>
	<node lat="68.39131666208581" lon="17.14427222843826" id="-7500">
		<tag k="name" v="Flåtta" />
		<tag k="place" v="locality" />
		<tag k="ssr:stedsnr" v="631873" />
	</node>
	<node lat="68.17039444742467" lon="17.56233332764774" id="-7588">
		<tag k="name" v="Svartskogen" />
		<tag k="place" v="locality" />
		<tag k="ssr:stedsnr" v="745637" />
	</node>
	<node lat="68.00940555463862" lon="16.80415278647976" id="-7610">
		<tag k="name" v="Gihtsejiegŋa" />
		<tag k="name:smj" v="Gihtsejiegŋa" />
		<tag k="natural" v="glacier" />
		<tag k="old_name:smj" v="Gihtsejiegńa;Gihtsejiekŋa;Gihccejiekŋa" />
		<tag k="ssr:stedsnr" v="745765" />
	</node>
	<node lat="68.34696388466055" lon="17.28277222621869" id="-7637">
		<tag k="name" v="Kongsbakklemman" />
		<tag k="place" v="locality" />
		<tag k="ssr:stedsnr" v="746864" />
	</node>
	<node lat="68.5181666640933" lon="17.894566652756147" id="-7666">
		<tag k="name" v="Lappkjerringmyra" />
		<tag k="natural" v="wetland" />
		<tag k="ssr:stedsnr" v="750726" />
	</node>
	<node lat="68.40196666723496" lon="16.68462500038019" id="-7678">
		<tag k="name" v="Skjellmyra" />
		<tag k="natural" v="wetland" />
		<tag k="ssr:stedsnr" v="752193" />
	</node>
	<node lat="68.57572499676154" lon="17.610822210627003" id="-7681">
		<tag k="name" v="Kvanndalmyra" />
		<tag k="natural" v="wetland" />
		<tag k="ssr:stedsnr" v="753002" />
	</node>
	<node lat="68.5681194463449" lon="17.69241111622454" id="-7683">
		<tag k="name" v="Storura" />
		<tag k="natural" v="scree" />
		<tag k="ssr:stedsnr" v="753027" />
	</node>
	<node lat="68.56069444589929" lon="17.675677785572084" id="-7684">
		<tag k="name" v="Vaddas" />
		<tag k="name:se" v="Vaddas" />
		<tag k="place" v="locality" />
		<tag k="ssr:stedsnr" v="753029" />
	</node>
	<node lat="68.34269166759242" lon="17.028102781561998" id="-7694">
		<tag k="name" v="Storskreden" />
		<tag k="natural" v="scree" />
		<tag k="ssr:stedsnr" v="753333" />
	</node>
	<node lat="68.5039388870687" lon="17.54188887853931" id="-7696">
		<tag k="name" v="Gunnelmyra" />
		<tag k="natural" v="wetland" />
		<tag k="ssr:stedsnr" v="753344" />
	</node>
	<node lat="68.37606944521536" lon="17.55792776736479" id="-7702">
		<tag k="name" v="Storsteinen" />
		<tag k="natural" v="stone" />
		<tag k="ssr:stedsnr" v="753298" />
	</node>
	<node lat="68.49679444474498" lon="17.54867221329472" id="-7707">
		<tag k="name" v="Skavåsmyra" />
		<tag k="natural" v="wetland" />
		<tag k="ssr:stedsnr" v="753390" />
	</node>
	<node lat="68.24915833223751" lon="17.407247214732113" id="-7711">
		<tag k="name" v="Hopslåtta" />
		<tag k="place" v="locality" />
		<tag k="ssr:stedsnr" v="753449" />
	</node>
	<node lat="68.39542499640598" lon="17.328744445228267" id="-7717">
		<tag k="name" v="Blåmyra" />
		<tag k="natural" v="wetland" />
		<tag k="ssr:stedsnr" v="753938" />
	</node>
	<node lat="68.53697221904234" lon="17.395130552567363" id="-7719">
		<tag k="name" v="Langmyra" />
		<tag k="natural" v="wetland" />
		<tag k="ssr:stedsnr" v="754366" />
	</node>
	<node lat="68.38791111140029" lon="16.73715832632659" id="-7723">
		<tag k="name" v="Djupvikbakmarka" />
		<tag k="place" v="locality" />
		<tag k="ssr:stedsnr" v="755276" />
	</node>
	<node lat="68.19276666819839" lon="17.55097776676836" id="-7735">
		<tag k="name" v="Storfallmyra" />
		<tag k="natural" v="wetland" />
		<tag k="ssr:stedsnr" v="767029" />
	</node>
	<node lat="68.3706861077609" lon="17.40210833827977" id="-7749">
		<tag k="name" v="Stormyra" />
		<tag k="natural" v="wetland" />
		<tag k="ssr:stedsnr" v="767683" />
	</node>
	<node lat="68.32244166396977" lon="16.59899167590735" id="-7829">
		<tag k="alt_name" v="Fosshaugmyra" />
		<tag k="name" v="Forshaugmyra" />
		<tag k="natural" v="wetland" />
		<tag k="ssr:stedsnr" v="806628" />
	</node>
	<node lat="68.28559444793824" lon="17.010138895501456" id="-7856">
		<tag k="name" v="Metallskreda" />
		<tag k="natural" v="scree" />
		<tag k="ssr:stedsnr" v="810394" />
	</node>
	<node lat="68.4837277808133" lon="17.54735554372016" id="-7859">
		<tag k="name" v="Svemyra" />
		<tag k="natural" v="wetland" />
		<tag k="ssr:stedsnr" v="807731" />
	</node>
	<node lat="68.5030694482205" lon="17.36662500190894" id="-7870">
		<tag k="name" v="Aspenesuran" />
		<tag k="natural" v="scree" />
		<tag k="ssr:stedsnr" v="810648" />
	</node>
	<node lat="68.48778055330004" lon="17.328244445366533" id="-7871">
		<tag k="name" v="Finnsteinan" />
		<tag k="natural" v="stone" />
		<tag k="ssr:stedsnr" v="810656" />
	</node>
	<node lat="68.2927972187303" lon="17.249511108148752" id="-7873">
		<tag k="name" v="Forsmyra" />
		<tag k="natural" v="wetland" />
		<tag k="ssr:stedsnr" v="810673" />
	</node>
	<node lat="68.09242499791226" lon="16.60339167677442" id="-7885">
		<tag k="name" v="Otersteinen" />
		<tag k="name:no" v="Otersteinen" />
		<tag k="natural" v="stone" />
		<tag k="ssr:stedsnr" v="810803" />
	</node>
	<node lat="68.37781666339771" lon="16.61780000303913" id="-7892">
		<tag k="name" v="Holmvassmyra" />
		<tag k="natural" v="wetland" />
		<tag k="ssr:stedsnr" v="813118" />
	</node>
	<node lat="68.56362499549161" lon="17.62406111463818" id="-7916">
		<tag k="name" v="Vedhoggan" />
		<tag k="place" v="locality" />
		<tag k="ssr:stedsnr" v="814496" />
	</node>
	<node lat="68.29993611141096" lon="17.77438055167806" id="-7992">
		<tag k="name" v="Basejiekŋa" />
		<tag k="name:se" v="Basejiekŋa" />
		<tag k="natural" v="glacier" />
		<tag k="ssr:stedsnr" v="867209" />
	</node>
	<node lat="68.30578888953151" lon="17.11149165977237" id="-7997">
		<tag k="name" v="Bjørnsteinmyra" />
		<tag k="natural" v="wetland" />
		<tag k="ssr:stedsnr" v="867880" />
	</node>
	<node lat="68.47164166369805" lon="17.724791669277327" id="-8070">
		<tag k="name" v="Kvannmyra" />
		<tag k="natural" v="wetland" />
		<tag k="ssr:stedsnr" v="871688" />
	</node>
	<node lat="68.3760833329398" lon="17.144783325404735" id="-8072">
		<tag k="name" v="Djupåmyran" />
		<tag k="natural" v="wetland" />
		<tag k="ssr:stedsnr" v="871593" />
	</node>
	<node lat="68.43223611435867" lon="17.6990666677002" id="-8087">
		<tag k="name" v="Bjørkemyra" />
		<tag k="natural" v="wetland" />
		<tag k="ssr:stedsnr" v="874024" />
	</node>
	<node lat="68.56540000168411" lon="17.689469447854915" id="-8089">
		<tag k="name" v="Urbakken" />
		<tag k="natural" v="scree" />
		<tag k="ssr:stedsnr" v="874048" />
	</node>
	<node lat="68.39696388978948" lon="16.645694442337376" id="-8102">
		<tag k="name" v="Skavåsmyra" />
		<tag k="natural" v="wetland" />
		<tag k="ssr:stedsnr" v="874245" />
	</node>
	<node lat="68.38256110878984" lon="17.367544452242523" id="-8115">
		<tag k="name" v="Sennklubbmyra" />
		<tag k="natural" v="wetland" />
		<tag k="ssr:stedsnr" v="874601" />
	</node>
	<node lat="68.47929444242585" lon="17.488727768848456" id="-8123">
		<tag k="name" v="Tømmermyra" />
		<tag k="natural" v="wetland" />
		<tag k="ssr:stedsnr" v="875257" />
	</node>
	<node lat="68.37785555540765" lon="16.867786115609505" id="-8125">
		<tag k="name" v="Mølnmyrbakkmyra" />
		<tag k="natural" v="wetland" />
		<tag k="ssr:stedsnr" v="875291" />
	</node>
	<node lat="68.47321111183842" lon="17.49540000771963" id="-8128">
		<tag k="name" v="Hundbergskogen" />
		<tag k="place" v="locality" />
		<tag k="ssr:stedsnr" v="875302" />
	</node>
	<node lat="68.50641666384075" lon="17.54570277843911" id="-8130">
		<tag k="name" v="Bringgamman" />
		<tag k="place" v="locality" />
		<tag k="ssr:stedsnr" v="875405" />
	</node>
	<node lat="68.54752777868647" lon="17.50188334132485" id="-8134">
		<tag k="name" v="Nubbeslåtta" />
		<tag k="place" v="locality" />
		<tag k="ssr:stedsnr" v="875317" />
	</node>
	<node lat="68.54559444360437" lon="17.48628055939911" id="-8137">
		<tag k="name" v="Jørnmyra" />
		<tag k="natural" v="wetland" />
		<tag k="ssr:stedsnr" v="875350" />
	</node>
	<node lat="68.5368333307498" lon="17.571533339589333" id="-8146">
		<tag k="name" v="Jordsenden" />
		<tag k="place" v="locality" />
		<tag k="ssr:stedsnr" v="875442" />
	</node>
	<node lat="68.3918416694609" lon="17.26066665420248" id="-8166">
		<tag k="name" v="Langmyra" />
		<tag k="natural" v="wetland" />
		<tag k="ssr:stedsnr" v="935518" />
	</node>
	<node lat="68.19838889056217" lon="17.536680555477766" id="-8184">
		<tag k="name" v="Grønmyra" />
		<tag k="natural" v="wetland" />
		<tag k="ssr:stedsnr" v="949020" />
	</node>
	<node lat="68.34897777380843" lon="16.119947220546198" id="-8186">
		<tag k="name" v="Trollmyra" />
		<tag k="natural" v="wetland" />
		<tag k="ssr:stedsnr" v="949258" />
	</node>
	<node lat="68.30039444063124" lon="16.612330564848055" id="-8190">
		<tag k="name" v="Storforsmyra" />
		<tag k="natural" v="wetland" />
		<tag k="ssr:stedsnr" v="949690" />
	</node>
	<node lat="68.15595833776587" lon="16.762297214974513" id="-8193">
		<tag k="name" v="Kirkestein" />
		<tag k="natural" v="stone" />
		<tag k="ssr:stedsnr" v="953437" />
=======
	<node id="-114903" lat="68.4967361146" lon="17.3278833347">
		<tag k="name" v="Tortennesmyran" />
		<tag k="natural" v="wetland" />
		<tag k="ssr:stedsnr" v="22648" />
	</node>
	<node id="-115414" lat="68.5549305538" lon="17.555249995">
		<tag k="name" v="Dybfesjordet" />
		<tag k="place" v="locality" />
		<tag k="ssr:stedsnr" v="300191" />
	</node>
	<node id="-114899" lat="68.2758666629" lon="17.0413972254">
		<tag k="name" v="Gruvsteinan" />
		<tag k="natural" v="stone" />
		<tag k="ssr:stedsnr" v="22379" />
	</node>
	<node id="-113443" lat="68.3827944417" lon="17.1164361099">
		<tag k="name" v="Kjerksteinen" />
		<tag k="natural" v="stone" />
		<tag k="ssr:stedsnr" v="450754" />
	</node>
	<node id="-114383" lat="68.5608527767" lon="17.6020694399">
		<tag k="name" v="Herjangsmarka" />
		<tag k="place" v="locality" />
		<tag k="ssr:stedsnr" v="745722" />
	</node>
	<node id="-116941" lat="68.0924249979" lon="16.6033916768">
		<tag k="name" v="Otersteinen" />
		<tag k="name:no" v="Otersteinen" />
		<tag k="natural" v="stone" />
		<tag k="ssr:stedsnr" v="810803" />
	</node>
	<node id="-114722" lat="68.4322361144" lon="17.6990666677">
		<tag k="name" v="Bjørkemyra" />
		<tag k="natural" v="wetland" />
		<tag k="ssr:stedsnr" v="874024" />
	</node>
	<node id="-112841" lat="68.2798611086" lon="17.3867611197">
		<tag k="name" v="Storuran" />
		<tag k="natural" v="scree" />
		<tag k="ssr:stedsnr" v="240747" />
	</node>
	<node id="-114977" lat="68.3659388918" lon="17.4753499906">
		<tag k="name" v="Mellommarka" />
		<tag k="place" v="locality" />
		<tag k="ssr:stedsnr" v="39600" />
	</node>
	<node id="-115396" lat="68.3911277786" lon="17.267513897">
		<tag k="name" v="Toppmyra" />
		<tag k="natural" v="wetland" />
		<tag k="ssr:stedsnr" v="146496" />
	</node>
	<node id="-115155" lat="68.4601638924" lon="17.7371277873">
		<tag k="name" v="Lillevassuran" />
		<tag k="natural" v="scree" />
		<tag k="ssr:stedsnr" v="86014" />
	</node>
	<node id="-116929" lat="68.2927972187" lon="17.2495111081">
		<tag k="name" v="Forsmyra" />
		<tag k="natural" v="wetland" />
		<tag k="ssr:stedsnr" v="810673" />
	</node>
	<node id="-115392" lat="68.5701888869" lon="17.630186096">
		<tag k="name" v="Kvanndalmyra" />
		<tag k="natural" v="wetland" />
		<tag k="ssr:stedsnr" v="146430" />
	</node>
	<node id="-113109" lat="68.4768805518" lon="17.5934055453">
		<tag k="name" v="Daluran" />
		<tag k="natural" v="scree" />
		<tag k="ssr:stedsnr" v="146313" />
	</node>
	<node id="-116926" lat="68.5030694482" lon="17.3666250019">
		<tag k="name" v="Aspenesuran" />
		<tag k="natural" v="scree" />
		<tag k="ssr:stedsnr" v="810648" />
	</node>
	<node id="-116925" lat="68.2041805561" lon="17.3281388796">
		<tag k="name" v="Storura" />
		<tag k="natural" v="scree" />
		<tag k="ssr:stedsnr" v="810632" />
	</node>
	<node id="-112828" lat="68.221680553" lon="17.46929445">
		<tag k="name" v="Fjellgåddolderskogen" />
		<tag k="place" v="locality" />
		<tag k="ssr:stedsnr" v="39724" />
	</node>
	<node id="-115580" lat="68.5385999979" lon="17.4845527635">
		<tag k="name" v="Kjerringåmen" />
		<tag k="place" v="locality" />
		<tag k="ssr:stedsnr" v="207316" />
	</node>
	<node id="-112824" lat="68.3209222212" lon="16.6262055661">
		<tag k="name" v="Klubbnesmyra" />
		<tag k="natural" v="wetland" />
		<tag k="ssr:stedsnr" v="39670" />
	</node>
	<node id="-115382" lat="68.5261916631" lon="17.4256694504">
		<tag k="name" v="Tverrvegbergskogen" />
		<tag k="place" v="locality" />
		<tag k="ssr:stedsnr" v="146284" />
	</node>
	<node id="-112821" lat="68.3088333356" lon="16.6476555541">
		<tag k="name" v="Nasmyra" />
		<tag k="natural" v="wetland" />
		<tag k="ssr:stedsnr" v="39652" />
	</node>
	<node id="-115380" lat="68.4307861068" lon="17.6701166726">
		<tag k="name" v="Tettingsmyra" />
		<tag k="natural" v="wetland" />
		<tag k="ssr:stedsnr" v="146019" />
	</node>
	<node id="-114867" lat="68.2664388872" lon="18.072222212">
		<tag k="name" v="Beatnatjiekŋa" />
		<tag k="name:se" v="Beatnatjiekŋa" />
		<tag k="natural" v="glacier" />
		<tag k="old_name:se" v="Beatnatjiekna" />
		<tag k="ssr:stedsnr" v="18081" />
	</node>
	<node id="-115377" lat="68.4053500007" lon="16.6884138873">
		<tag k="name" v="Bjennmyra" />
		<tag k="natural" v="wetland" />
		<tag k="ssr:stedsnr" v="145211" />
	</node>
	<node id="-113949" lat="68.2390138909" lon="17.430919434">
		<tag k="name" v="Stormyra" />
		<tag k="natural" v="wetland" />
		<tag k="ssr:stedsnr" v="684638" />
	</node>
	<node id="-113322" lat="68.5616194458" lon="17.5524916688">
		<tag k="name" v="Prestjordmarka" />
		<tag k="place" v="locality" />
		<tag k="ssr:stedsnr" v="442714" />
	</node>
	<node id="-114342" lat="68.3780722229" lon="16.6652749955">
		<tag k="name" v="Storjorda" />
		<tag k="natural" v="wetland" />
		<tag k="ssr:stedsnr" v="889638" />
	</node>
	<node id="-113828" lat="68.2398000015" lon="17.4122305472">
		<tag k="name" v="Gjentholmen" />
		<tag k="place" v="locality" />
		<tag k="ssr:stedsnr" v="450524" />
	</node>
	<node id="-114339" lat="68.2440694436" lon="16.7137972113">
		<tag k="name" v="Forrhaugmyra" />
		<tag k="natural" v="wetland" />
		<tag k="ssr:stedsnr" v="889594" />
	</node>
	<node id="-116927" lat="68.4877805533" lon="17.3282444454">
		<tag k="name" v="Finnsteinan" />
		<tag k="natural" v="stone" />
		<tag k="ssr:stedsnr" v="810656" />
	</node>
	<node id="-117019" lat="68.038888888" lon="16.3786861199">
		<tag k="name" v="Tjukkskogen" />
		<tag k="name:no" v="Tjukkskogen" />
		<tag k="place" v="locality" />
		<tag k="ssr:stedsnr" v="828179" />
	</node>
	<node id="-113823" lat="68.3860750046" lon="17.3286360995">
		<tag k="name" v="Forrholtmyra" />
		<tag k="natural" v="wetland" />
		<tag k="ssr:stedsnr" v="449914" />
	</node>
	<node id="-113822" lat="68.3939083289" lon="16.6400333427">
		<tag k="name" v="Vintervegmyra" />
		<tag k="natural" v="wetland" />
		<tag k="ssr:stedsnr" v="449231" />
	</node>
	<node id="-116380" lat="68.3568638908" lon="17.8305472162">
		<tag k="name" v="Blåisen - Beajojiekŋa" />
		<tag k="name:no" v="Blåisen" />
		<tag k="name:se" v="Beajojiekŋa" />
		<tag k="natural" v="glacier" />
		<tag k="ssr:stedsnr" v="623172" />
	</node>
	<node id="-115355" lat="68.5162499962" lon="17.9581027759">
		<tag k="name" v="Holmvassmyran" />
		<tag k="natural" v="wetland" />
		<tag k="ssr:stedsnr" v="142763" />
	</node>
	<node id="-114842" lat="68.07531944" lon="16.6729500073">
		<tag k="historic" v="shieling" />
		<tag k="name" v="Roavve" />
		<tag k="name:smj" v="Roavve" />
		<tag k="place" v="locality" />
		<tag k="ssr:stedsnr" v="17557" />
	</node>
	<node id="-114329" lat="68.5389444493" lon="17.4831166569">
		<tag k="name" v="Dalskogen" />
		<tag k="place" v="locality" />
		<tag k="ssr:stedsnr" v="693375" />
	</node>
	<node id="-112792" lat="68.1530750024" lon="16.7885722302">
		<tag k="name" v="Mannstein" />
		<tag k="natural" v="stone" />
		<tag k="ssr:stedsnr" v="225437" />
	</node>
	<node id="-115737" lat="68.5310666697" lon="17.3790111019">
		<tag k="name" v="Båtvassmyra" />
		<tag k="natural" v="wetland" />
		<tag k="ssr:stedsnr" v="323575" />
	</node>
	<node id="-116372" lat="68.5424250031" lon="17.722244434">
		<tag k="name" v="Kumyran" />
		<tag k="natural" v="wetland" />
		<tag k="ssr:stedsnr" v="604164" />
	</node>
	<node id="-113810" lat="68.1996083311" lon="17.357886117">
		<tag k="name" v="Kvitskreda" />
		<tag k="natural" v="scree" />
		<tag k="ssr:stedsnr" v="446514" />
	</node>
	<node id="-115395" lat="68.241294445" lon="17.418641657">
		<tag k="name" v="Brenna" />
		<tag k="place" v="locality" />
		<tag k="ssr:stedsnr" v="146477" />
	</node>
	<node id="-113296" lat="68.6023111146" lon="17.9363500005">
		<tag k="name" v="Rivtindbreda" />
		<tag k="natural" v="glacier" />
		<tag k="ssr:stedsnr" v="442555" />
	</node>
	<node id="-116365" lat="68.2265888876" lon="17.4639972311">
		<tag k="name" v="Jagarloft" />
		<tag k="place" v="locality" />
		<tag k="ssr:stedsnr" v="585752" />
	</node>
	<node id="-114942" lat="68.4947888917" lon="17.5551388791">
		<tag k="name" v="Heggholuran" />
		<tag k="natural" v="scree" />
		<tag k="ssr:stedsnr" v="25429" />
	</node>
	<node id="-115393" lat="68.5601916683" lon="17.597163885">
		<tag k="name" v="Langmyra" />
		<tag k="natural" v="wetland" />
		<tag k="ssr:stedsnr" v="146441" />
	</node>
	<node id="-116865" lat="68.322441664" lon="16.5989916759">
		<tag k="alt_name" v="Fosshaugmyra" />
		<tag k="name" v="Forshaugmyra" />
		<tag k="natural" v="wetland" />
		<tag k="ssr:stedsnr" v="806628" />
	</node>
	<node id="-115904" lat="68.4582611091" lon="17.7394361132">
		<tag k="name" v="Gulløymyra" />
		<tag k="natural" v="wetland" />
		<tag k="ssr:stedsnr" v="381237" />
	</node>
	<node id="-116350" lat="68.3482583325" lon="16.150736111">
		<tag k="name" v="Fjellmyra" />
		<tag k="natural" v="wetland" />
		<tag k="ssr:stedsnr" v="585239" />
	</node>
	<node id="-115325" lat="68.2586305584" lon="17.0430000101">
		<tag k="name" v="Slåttlemmen" />
		<tag k="place" v="locality" />
		<tag k="ssr:stedsnr" v="139761" />
	</node>
	<node id="-116348" lat="68.0629138896" lon="16.4291583418">
		<tag k="name" v="Sennmyra" />
		<tag k="name:no" v="Sennmyra" />
		<tag k="natural" v="wetland" />
		<tag k="ssr:stedsnr" v="585174" />
	</node>
	<node id="-114944" lat="68.3388111114" lon="16.8101166731">
		<tag k="name" v="Langåsmyra" />
		<tag k="natural" v="wetland" />
		<tag k="ssr:stedsnr" v="25442" />
	</node>
	<node id="-115321" lat="68.4848555579" lon="17.5199611121">
		<tag k="name" v="Stormyra - Seavgojeaggi" />
		<tag k="name:no" v="Stormyra" />
		<tag k="name:se" v="Seavgojeaggi" />
		<tag k="natural" v="wetland" />
		<tag k="ssr:stedsnr" v="139727" />
	</node>
	<node id="-113784" lat="68.3494055594" lon="16.845719434">
		<tag k="name" v="Tranmyra" />
		<tag k="natural" v="wetland" />
		<tag k="ssr:stedsnr" v="510438" />
	</node>
	<node id="-113782" lat="68.3330305569" lon="16.8142611047">
		<tag k="name" v="Stormyra" />
		<tag k="natural" v="wetland" />
		<tag k="ssr:stedsnr" v="510424" />
	</node>
	<node id="-114293" lat="68.0803888869" lon="16.5781666667">
		<tag k="historic" v="shieling" />
		<tag k="name" v="Jæbbmá" />
		<tag k="name:smj" v="Jæbbmá" />
		<tag k="place" v="locality" />
		<tag k="ssr:stedsnr" v="684546" />
	</node>
	<node id="-115823" lat="68.1881722252" lon="17.546724988">
		<tag k="name" v="Tateruran" />
		<tag k="natural" v="scree" />
		<tag k="ssr:stedsnr" v="342027" />
	</node>
	<node id="-113774" lat="68.3540777817" lon="16.9503194414">
		<tag k="name" v="Legda" />
		<tag k="place" v="locality" />
		<tag k="ssr:stedsnr" v="510357" />
	</node>
	<node id="-116331" lat="68.4057500006" lon="17.3435972086">
		<tag k="name" v="Skavåsmyra" />
		<tag k="natural" v="wetland" />
		<tag k="ssr:stedsnr" v="571541" />
	</node>
	<node id="-115306" lat="68.2142166684" lon="18.0024527792">
		<tag k="name" v="Muohtaguobla" />
		<tag k="name:se" v="Muohtaguobla" />
		<tag k="place" v="locality" />
		<tag k="ssr:stedsnr" v="138869" />
	</node>
	<node id="-115388" lat="68.3617083353" lon="16.8314611223">
		<tag k="name" v="Striteigen" />
		<tag k="place" v="locality" />
		<tag k="ssr:stedsnr" v="146249" />
	</node>
	<node id="-113788" lat="68.3943611073" lon="17.3066861172">
		<tag k="name" v="Slåttdalabone" />
		<tag k="place" v="locality" />
		<tag k="ssr:stedsnr" v="510954" />
	</node>
	<node id="-116497" lat="68.2896055566" lon="17.0121527661">
		<tag k="name" v="Bjørnsteinen" />
		<tag k="natural" v="stone" />
		<tag k="ssr:stedsnr" v="628390" />
	</node>
	<node id="-113764" lat="68.3654305524" lon="16.8890777634">
		<tag k="name" v="Hesteloftet" />
		<tag k="place" v="locality" />
		<tag k="ssr:stedsnr" v="510242" />
	</node>
	<node id="-113250" lat="68.0472583324" lon="16.3622833375">
		<tag k="name" v="Kumyra" />
		<tag k="name:no" v="Kumyra" />
		<tag k="natural" v="wetland" />
		<tag k="ssr:stedsnr" v="221182" />
	</node>
	<node id="-116321" lat="68.3406000025" lon="17.0286472206">
		<tag k="name" v="Steinan" />
		<tag k="natural" v="stone" />
		<tag k="ssr:stedsnr" v="571392" />
	</node>
	<node id="-114784" lat="68.3489777738" lon="16.1199472205">
		<tag k="name" v="Trollmyra" />
		<tag k="natural" v="wetland" />
		<tag k="ssr:stedsnr" v="949258" />
	</node>
	<node id="-116319" lat="68.4436500023" lon="17.6313805623">
		<tag k="name" v="Stormyra" />
		<tag k="natural" v="wetland" />
		<tag k="ssr:stedsnr" v="571365" />
	</node>
	<node id="-113758" lat="68.556191669" lon="17.7097249905">
		<tag k="name" v="Storskogen" />
		<tag k="place" v="locality" />
		<tag k="ssr:stedsnr" v="510046" />
	</node>
	<node id="-114780" lat="68.1983888906" lon="17.5366805555">
		<tag k="name" v="Grønmyra" />
		<tag k="natural" v="wetland" />
		<tag k="ssr:stedsnr" v="949020" />
	</node>
	<node id="-116315" lat="68.4454027796" lon="17.6035694432">
		<tag k="name" v="Storura" />
		<tag k="natural" v="scree" />
		<tag k="ssr:stedsnr" v="571354" />
	</node>
	<node id="-113751" lat="68.3160194401" lon="16.7208138866">
		<tag k="name" v="Gresmyra" />
		<tag k="natural" v="wetland" />
		<tag k="ssr:stedsnr" v="510151" />
	</node>
	<node id="-115373" lat="68.3271222177" lon="16.6708166725">
		<tag k="name" v="Muskmyra øst" />
		<tag k="natural" v="wetland" />
		<tag k="ssr:stedsnr" v="145146" />
	</node>
	<node id="-113236" lat="68.3268611088" lon="16.6633472085">
		<tag k="name" v="Muskmyra vest" />
		<tag k="natural" v="wetland" />
		<tag k="ssr:stedsnr" v="206159" />
	</node>
	<node id="-113747" lat="68.2254027802" lon="17.4483277683">
		<tag k="name" v="Bruvollen" />
		<tag k="place" v="locality" />
		<tag k="ssr:stedsnr" v="403767" />
	</node>
	<node id="-114770" lat="68.3918416695" lon="17.2606666542">
		<tag k="name" v="Langmyra" />
		<tag k="natural" v="wetland" />
		<tag k="ssr:stedsnr" v="935518" />
	</node>
	<node id="-113744" lat="68.3187083357" lon="16.2335416769">
		<tag k="name" v="Topphågmyra" />
		<tag k="natural" v="wetland" />
		<tag k="ssr:stedsnr" v="403352" />
	</node>
	<node id="-116302" lat="68.3613666668" lon="16.8641083341">
		<tag k="name" v="Saltvassmyra" />
		<tag k="natural" v="wetland" />
		<tag k="ssr:stedsnr" v="571258" />
	</node>
	<node id="-115789" lat="68.2409166696" lon="17.4048361148">
		<tag k="name" v="Prestslåtta" />
		<tag k="place" v="locality" />
		<tag k="ssr:stedsnr" v="328472" />
	</node>
	<node id="-115788" lat="68.2475333326" lon="17.3993777737">
		<tag k="name" v="Hestøyra" />
		<tag k="place" v="locality" />
		<tag k="ssr:stedsnr" v="328466" />
	</node>
	<node id="-113762" lat="68.4753777741" lon="17.4909194301">
		<tag k="name" v="Tømmerbakkmyra" />
		<tag k="natural" v="wetland" />
		<tag k="ssr:stedsnr" v="510229" />
	</node>
	<node id="-116298" lat="68.4652861104" lon="17.7006416514">
		<tag k="name" v="Slåtten" />
		<tag k="place" v="locality" />
		<tag k="ssr:stedsnr" v="571035" />
	</node>
	<node id="-114247" lat="68.564938889" lon="17.6021916566">
		<tag k="name" v="Grenerli-myra" />
		<tag k="natural" v="wetland" />
		<tag k="ssr:stedsnr" v="631457" />
	</node>
	<node id="-114245" lat="68.4986888925" lon="17.5523694516">
		<tag k="name" v="Ramnuran" />
		<tag k="natural" v="scree" />
		<tag k="ssr:stedsnr" v="631415" />
	</node>
	<node id="-113419" lat="68.3409249998" lon="17.0056166695">
		<tag k="name" v="Kringelskogen" />
		<tag k="place" v="locality" />
		<tag k="ssr:stedsnr" v="450376" />
	</node>
	<node id="-113215" lat="68.3177833327" lon="16.6121000056">
		<tag k="alt_name" v="Skogelvmyrene" />
		<tag k="name" v="Skogelvmyran" />
		<tag k="natural" v="wetland" />
		<tag k="ssr:stedsnr" v="199645" />
	</node>
	<node id="-116798" lat="68.1927666682" lon="17.5509777668">
		<tag k="name" v="Storfallmyra" />
		<tag k="natural" v="wetland" />
		<tag k="ssr:stedsnr" v="767029" />
	</node>
	<node id="-116917" lat="68.2855944479" lon="17.0101388955">
		<tag k="name" v="Metallskreda" />
		<tag k="natural" v="scree" />
		<tag k="ssr:stedsnr" v="810394" />
	</node>
	<node id="-115772" lat="68.4753388875" lon="17.6834722307">
		<tag k="name" v="Tømmermyra" />
		<tag k="natural" v="wetland" />
		<tag k="ssr:stedsnr" v="328030" />
	</node>
	<node id="-115978" lat="68.3694666689" lon="17.4052638951">
		<tag k="name" v="Håvikmyran" />
		<tag k="natural" v="wetland" />
		<tag k="ssr:stedsnr" v="381925" />
	</node>
	<node id="-116753" lat="68.3426916676" lon="17.0281027816">
		<tag k="name" v="Storskreden" />
		<tag k="natural" v="scree" />
		<tag k="ssr:stedsnr" v="753333" />
	</node>
	<node id="-113716" lat="68.2276055544" lon="17.3113694454">
		<tag k="landuse" v="meadow" />
		<tag k="name" v="Olderskogen" />
		<tag k="ssr:stedsnr" v="507488" />
	</node>
	<node id="-116787" lat="68.3879111114" lon="16.7371583263">
		<tag k="name" v="Djupvikbakmarka" />
		<tag k="place" v="locality" />
		<tag k="ssr:stedsnr" v="755276" />
	</node>
	<node id="-116272" lat="68.0917083337" lon="16.6306249931">
		<tag k="name" v="Tjuvsteinen" />
		<tag k="name:no" v="Tjuvsteinen" />
		<tag k="natural" v="stone" />
		<tag k="ssr:stedsnr" v="567773" />
	</node>
	<node id="-116783" lat="68.536972219" lon="17.3951305526">
		<tag k="name" v="Langmyra" />
		<tag k="natural" v="wetland" />
		<tag k="ssr:stedsnr" v="754366" />
	</node>
	<node id="-116782" lat="68.3223444438" lon="17.3120583353">
		<tag k="name" v="Hestmyra" />
		<tag k="natural" v="wetland" />
		<tag k="ssr:stedsnr" v="753951" />
	</node>
	<node id="-114220" lat="68.0752277815" lon="16.3999750036">
		<tag k="name" v="Gaskageddi" />
		<tag k="name:no" v="Gaskageddi" />
		<tag k="place" v="locality" />
		<tag k="ssr:stedsnr" v="628663" />
	</node>
	<node id="-115754" lat="68.2736722238" lon="17.3387166762">
		<tag k="landuse" v="quarry" />
		<tag k="name" v="Bruddet" />
		<tag k="ssr:stedsnr" v="325664" />
	</node>
	<node id="-114951" lat="68.4061138865" lon="17.4088583355">
		<tag k="name" v="Kleftersteinen" />
		<tag k="natural" v="stone" />
		<tag k="ssr:stedsnr" v="25606" />
	</node>
	<node id="-116264" lat="68.077125001" lon="16.3999888841">
		<tag k="name" v="Lapplægerskogen" />
		<tag k="name:no" v="Lapplægerskogen" />
		<tag k="place" v="locality" />
		<tag k="ssr:stedsnr" v="567686" />
	</node>
	<node id="-116060" lat="68.3745055586" lon="17.0434138868">
		<tag k="name" v="Bautastein" />
		<tag k="natural" v="stone" />
		<tag k="ssr:stedsnr" v="389742" />
	</node>
	<node id="-116774" lat="68.3842611132" lon="17.2027694399">
		<tag k="name" v="Klemsteinan" />
		<tag k="natural" v="stone" />
		<tag k="ssr:stedsnr" v="753464" />
	</node>
	<node id="-113073" lat="68.3455611092" lon="16.7529027781">
		<tag k="name" v="Botnmyra" />
		<tag k="natural" v="wetland" />
		<tag k="ssr:stedsnr" v="268440" />
	</node>
	<node id="-114212" lat="68.4027416698" lon="17.849197215">
		<tag k="name" v="Kvitura" />
		<tag k="natural" v="scree" />
		<tag k="ssr:stedsnr" v="628708" />
	</node>
	<node id="-116771" lat="68.2491583322" lon="17.4072472147">
		<tag k="name" v="Hopslåtta" />
		<tag k="place" v="locality" />
		<tag k="ssr:stedsnr" v="753449" />
	</node>
	<node id="-116258" lat="68.0676777797" lon="16.3892750066">
		<tag k="name" v="Kariheimen" />
		<tag k="name:no" v="Kariheimen" />
		<tag k="place" v="locality" />
		<tag k="ssr:stedsnr" v="567665" />
	</node>
	<node id="-116255" lat="68.3231416638" lon="16.4034860999">
		<tag k="name" v="Brennmyran" />
		<tag k="natural" v="wetland" />
		<tag k="ssr:stedsnr" v="567543" />
	</node>
	<node id="-113182" lat="68.343563887" lon="17.2781083207">
		<tag k="name" v="Tjuvsteinen" />
		<tag k="natural" v="stone" />
		<tag k="ssr:stedsnr" v="282835" />
	</node>
	<node id="-116765" lat="68.4967944447" lon="17.5486722133">
		<tag k="name" v="Skavåsmyra" />
		<tag k="natural" v="wetland" />
		<tag k="ssr:stedsnr" v="753390" />
	</node>
	<node id="-114203" lat="68.5548027783" lon="17.5694610997">
		<tag k="name" v="Bergmyra" />
		<tag k="natural" v="wetland" />
		<tag k="ssr:stedsnr" v="603165" />
	</node>
	<node id="-116655" lat="68.1703944474" lon="17.5623333276">
		<tag k="name" v="Svartskogen" />
		<tag k="place" v="locality" />
		<tag k="ssr:stedsnr" v="745637" />
	</node>
	<node id="-116760" lat="68.3383972209" lon="16.8248944535">
		<tag k="name" v="Finnjord" />
		<tag k="place" v="locality" />
		<tag k="ssr:stedsnr" v="753375" />
	</node>
	<node id="-116245" lat="68.3743111094" lon="17.0691083343">
		<tag k="name" v="Stormyra" />
		<tag k="natural" v="wetland" />
		<tag k="ssr:stedsnr" v="563973" />
	</node>
	<node id="-116755" lat="68.5039388871" lon="17.5418888785">
		<tag k="name" v="Gunnelmyra" />
		<tag k="natural" v="wetland" />
		<tag k="ssr:stedsnr" v="753344" />
	</node>
	<node id="-114435" lat="68.5681194463" lon="17.6924111162">
		<tag k="name" v="Storura" />
		<tag k="natural" v="scree" />
		<tag k="ssr:stedsnr" v="753027" />
	</node>
	<node id="-113726" lat="68.3772527754" lon="17.1184944463">
		<tag k="name" v="Torvmyra" />
		<tag k="natural" v="wetland" />
		<tag k="ssr:stedsnr" v="507626" />
	</node>
	<node id="-116909" lat="68.4837277808" lon="17.5473555437">
		<tag k="name" v="Svemyra" />
		<tag k="natural" v="wetland" />
		<tag k="ssr:stedsnr" v="807731" />
	</node>
	<node id="-116748" lat="68.3760694452" lon="17.5579277674">
		<tag k="name" v="Storsteinen" />
		<tag k="natural" v="stone" />
		<tag k="ssr:stedsnr" v="753298" />
	</node>
	<node id="-115031" lat="68.2157277758" lon="17.287461112">
		<tag k="name" v="Litlerapet" />
		<tag k="natural" v="scree" />
		<tag k="ssr:stedsnr" v="77704" />
	</node>
	<node id="-113160" lat="68.3480361137" lon="16.0996916738">
		<tag k="name" v="Akselhamnmyra" />
		<tag k="natural" v="wetland" />
		<tag k="ssr:stedsnr" v="282387" />
	</node>
	<node id="-115207" lat="68.3842333315" lon="17.1272277788">
		<tag k="name" v="Vargemyra" />
		<tag k="natural" v="wetland" />
		<tag k="ssr:stedsnr" v="102932" />
	</node>
	<node id="-114945" lat="68.5647416683" lon="17.540516658">
		<tag k="name" v="Uran" />
		<tag k="natural" v="scree" />
		<tag k="ssr:stedsnr" v="25445" />
	</node>
	<node id="-116738" lat="68.5757249968" lon="17.6108222106">
		<tag k="name" v="Kvanndalmyra" />
		<tag k="natural" v="wetland" />
		<tag k="ssr:stedsnr" v="753002" />
>>>>>>> e1d4bc35ff8a6074a6f2e91616a996b547c36f15
	</node>
</osm>
