<?xml version="1.0" encoding="UTF-8"?>
<osm generator="osmapis" version="0.6">
	<node id="-459776" lat="60.668244481" lon="6.63171366406">
		<tag k="name" v="Raundals-Liaset" />
		<tag k="ssr:date" v="2019-05-30" />
		<tag k="ssr:gruppe" v="veg" />
		<tag k="ssr:hovedgruppe" v="infrastruktur" />
		<tag k="ssr:stedsnr" v="1039395" />
		<tag k="ssr:type" v="adressenavn" />
	</node>
	<node id="-459775" lat="60.6662093275" lon="6.77345862755">
		<tag k="name" v="Vetlaheggstølen" />
		<tag k="ssr:date" v="2019-05-30" />
		<tag k="ssr:gruppe" v="veg" />
		<tag k="ssr:hovedgruppe" v="infrastruktur" />
		<tag k="ssr:stedsnr" v="1039394" />
		<tag k="ssr:type" v="adressenavn" />
	</node>
	<node id="-459774" lat="60.6714291068" lon="6.74280059053">
		<tag k="name" v="Reimesstølen" />
		<tag k="ssr:date" v="2019-05-30" />
		<tag k="ssr:gruppe" v="veg" />
		<tag k="ssr:hovedgruppe" v="infrastruktur" />
		<tag k="ssr:stedsnr" v="1039393" />
		<tag k="ssr:type" v="adressenavn" />
	</node>
	<node id="-459773" lat="60.6680023467" lon="6.52036824869">
		<tag k="name" v="Koladiket" />
		<tag k="ssr:date" v="2019-05-30" />
		<tag k="ssr:gruppe" v="veg" />
		<tag k="ssr:hovedgruppe" v="infrastruktur" />
		<tag k="ssr:stedsnr" v="1039388" />
		<tag k="ssr:type" v="adressenavn" />
	</node>
	<node id="-459772" lat="60.685632357" lon="6.7322241886">
		<tag k="name" v="Brekkestølsvegen" />
		<tag k="ssr:date" v="2019-05-30" />
		<tag k="ssr:gruppe" v="veg" />
		<tag k="ssr:hovedgruppe" v="infrastruktur" />
		<tag k="ssr:stedsnr" v="1039387" />
		<tag k="ssr:type" v="adressenavn" />
	</node>
	<node id="-459771" lat="60.6815918307" lon="6.72700722862">
		<tag k="name" v="Gamle Reimesvegen" />
		<tag k="ssr:date" v="2019-05-30" />
		<tag k="ssr:gruppe" v="veg" />
		<tag k="ssr:hovedgruppe" v="infrastruktur" />
		<tag k="ssr:stedsnr" v="1039386" />
		<tag k="ssr:type" v="adressenavn" />
	</node>
	<node id="-459770" lat="60.7626033228" lon="6.51749875629">
		<tag k="name" v="Lundset" />
		<tag k="ssr:date" v="2019-05-30" />
		<tag k="ssr:gruppe" v="veg" />
		<tag k="ssr:hovedgruppe" v="infrastruktur" />
		<tag k="ssr:stedsnr" v="1039385" />
		<tag k="ssr:type" v="adressenavn" />
	</node>
	<node id="-459769" lat="60.6275341894" lon="6.42683161043">
		<tag k="name" v="Vadet" />
		<tag k="ssr:date" v="2019-05-30" />
		<tag k="ssr:gruppe" v="veg" />
		<tag k="ssr:hovedgruppe" v="infrastruktur" />
		<tag k="ssr:stedsnr" v="1039288" />
		<tag k="ssr:type" v="adressenavn" />
	</node>
	<node id="-459768" lat="60.6296015538" lon="6.08289630048">
		<tag k="name" v="Vossedalen" />
		<tag k="ssr:date" v="2019-05-30" />
		<tag k="ssr:gruppe" v="veg" />
		<tag k="ssr:hovedgruppe" v="infrastruktur" />
		<tag k="ssr:stedsnr" v="1039509" />
		<tag k="ssr:type" v="adressenavn" />
	</node>
	<node id="-459767" lat="60.6457335159" lon="6.0587894068">
		<tag k="name" v="Holemarki" />
		<tag k="ssr:date" v="2019-05-30" />
		<tag k="ssr:gruppe" v="veg" />
		<tag k="ssr:hovedgruppe" v="infrastruktur" />
		<tag k="ssr:stedsnr" v="1039508" />
		<tag k="ssr:type" v="adressenavn" />
	</node>
	<node id="-459766" lat="60.8600459741" lon="6.49332610417">
		<tag k="name" v="Klypeteigen" />
		<tag k="ssr:date" v="2019-05-30" />
		<tag k="ssr:gruppe" v="veg" />
		<tag k="ssr:hovedgruppe" v="infrastruktur" />
		<tag k="ssr:stedsnr" v="1039506" />
		<tag k="ssr:type" v="adressenavn" />
	</node>
	<node id="-459765" lat="60.8428978165" lon="6.68667005527">
		<tag k="name" v="Sivle" />
		<tag k="ssr:date" v="2019-05-30" />
		<tag k="ssr:gruppe" v="veg" />
		<tag k="ssr:hovedgruppe" v="infrastruktur" />
		<tag k="ssr:stedsnr" v="1038381" />
		<tag k="ssr:type" v="adressenavn" />
	</node>
	<node id="-459764" lat="60.6124301883" lon="6.47456662739">
		<tag k="name" v="Merkvane" />
		<tag k="ssr:date" v="2019-05-30" />
		<tag k="ssr:gruppe" v="veg" />
		<tag k="ssr:hovedgruppe" v="infrastruktur" />
		<tag k="ssr:stedsnr" v="1038380" />
		<tag k="ssr:type" v="adressenavn" />
	</node>
	<node id="-459763" lat="60.688750077" lon="6.73599789586">
		<tag k="name" v="Solnutane" />
		<tag k="ssr:date" v="2019-05-30" />
		<tag k="ssr:gruppe" v="veg" />
		<tag k="ssr:hovedgruppe" v="infrastruktur" />
		<tag k="ssr:stedsnr" v="1038379" />
		<tag k="ssr:type" v="adressenavn" />
	</node>
	<node id="-459762" lat="60.6820443593" lon="6.74170332291">
		<tag k="name" v="Reimesvegen" />
		<tag k="ssr:date" v="2019-05-30" />
		<tag k="ssr:gruppe" v="veg" />
		<tag k="ssr:hovedgruppe" v="infrastruktur" />
		<tag k="ssr:stedsnr" v="1038378" />
		<tag k="ssr:type" v="adressenavn" />
	</node>
	<node id="-459761" lat="60.620862663" lon="6.42446389846">
		<tag k="name" v="Bergslitræet" />
		<tag k="ssr:date" v="2019-05-30" />
		<tag k="ssr:gruppe" v="veg" />
		<tag k="ssr:hovedgruppe" v="infrastruktur" />
		<tag k="ssr:stedsnr" v="1038375" />
		<tag k="ssr:type" v="adressenavn" />
	</node>
	<node id="-459760" lat="60.6490769055" lon="6.38749335891">
		<tag k="name" v="Valbergstjørni" />
		<tag k="ssr:date" v="2019-05-30" />
		<tag k="ssr:gruppe" v="veg" />
		<tag k="ssr:hovedgruppe" v="infrastruktur" />
		<tag k="ssr:stedsnr" v="1038374" />
		<tag k="ssr:type" v="adressenavn" />
	</node>
	<node id="-459759" lat="60.8210991833" lon="6.49419904953">
		<tag k="name" v="Øvste Ulvundsstølen" />
		<tag k="ssr:date" v="2019-05-30" />
		<tag k="ssr:gruppe" v="veg" />
		<tag k="ssr:hovedgruppe" v="infrastruktur" />
		<tag k="ssr:stedsnr" v="1038368" />
		<tag k="ssr:type" v="adressenavn" />
	</node>
	<node id="-459758" lat="60.7451206431" lon="6.42076373907">
		<tag k="name" v="Hommedalstjørni" />
		<tag k="ssr:date" v="2019-05-30" />
		<tag k="ssr:gruppe" v="veg" />
		<tag k="ssr:hovedgruppe" v="infrastruktur" />
		<tag k="ssr:stedsnr" v="1038366" />
		<tag k="ssr:type" v="adressenavn" />
	</node>
	<node id="-459757" lat="60.80823432" lon="6.51372517902">
		<tag k="name" v="Vinjahaugen" />
		<tag k="ssr:date" v="2019-05-30" />
		<tag k="ssr:gruppe" v="veg" />
		<tag k="ssr:hovedgruppe" v="infrastruktur" />
		<tag k="ssr:stedsnr" v="1038362" />
		<tag k="ssr:type" v="adressenavn" />
	</node>
	<node id="-460140" lat="60.6278027786" lon="6.41832500462">
		<tag k="alt_name" v="Voss" />
		<tag k="name" v="Voss kommune" />
		<tag k="ssr:date" v="2019-02-26" />
		<tag k="ssr:gruppe" v="administrativeIndelinger" />
		<tag k="ssr:hovedgruppe" v="offentligAdministrasjon" />
		<tag k="ssr:stedsnr" v="327594" />
		<tag k="ssr:type" v="kommune" />
	</node>
	<node id="-459755" lat="60.7368080471" lon="6.36448026586">
		<tag k="name" v="Tvinnestølen" />
		<tag k="ssr:date" v="2019-05-30" />
		<tag k="ssr:gruppe" v="veg" />
		<tag k="ssr:hovedgruppe" v="infrastruktur" />
		<tag k="ssr:stedsnr" v="1038355" />
		<tag k="ssr:type" v="adressenavn" />
	</node>
	<node id="-459754" lat="60.6201007299" lon="6.55927325449">
		<tag k="name" v="Opelandsstølen" />
		<tag k="ssr:date" v="2019-05-30" />
		<tag k="ssr:gruppe" v="veg" />
		<tag k="ssr:hovedgruppe" v="infrastruktur" />
		<tag k="ssr:stedsnr" v="1038354" />
		<tag k="ssr:type" v="adressenavn" />
	</node>
	<node id="-459753" lat="60.8235966196" lon="6.33269056639">
		<tag k="name" v="Stranda-Torvedalen" />
		<tag k="ssr:date" v="2019-05-30" />
		<tag k="ssr:gruppe" v="veg" />
		<tag k="ssr:hovedgruppe" v="infrastruktur" />
		<tag k="ssr:stedsnr" v="1038353" />
		<tag k="ssr:type" v="adressenavn" />
	</node>
	<node id="-460648" lat="2.17641879616" lon="57.6988661034">
		<tag k="name" v="Vikafjellsvegen" />
		<tag k="ssr:date" v="2019-12-09" />
		<tag k="ssr:gruppe" v="veg" />
		<tag k="ssr:hovedgruppe" v="infrastruktur" />
		<tag k="ssr:stedsnr" v="1073870" />
		<tag k="ssr:type" v="adressenavn" />
	</node>
	<node id="-460646" lat="60.7840171687" lon="6.56491511161">
		<tag k="name" v="Framnes" />
		<tag k="ssr:date" v="2019-11-27" />
		<tag k="ssr:gruppe" v="veg" />
		<tag k="ssr:hovedgruppe" v="infrastruktur" />
		<tag k="ssr:stedsnr" v="1073571" />
		<tag k="ssr:type" v="adressenavn" />
	</node>
	<node id="-460645" lat="60.791508833" lon="6.51980712362">
		<tag k="name" v="Posthagen" />
		<tag k="ssr:date" v="2019-11-18" />
		<tag k="ssr:gruppe" v="veg" />
		<tag k="ssr:hovedgruppe" v="infrastruktur" />
		<tag k="ssr:stedsnr" v="1073316" />
		<tag k="ssr:type" v="vegstrekning" />
	</node>
	<node id="-459752" lat="60.8061135798" lon="6.31391220261">
		<tag k="name" v="Kvitanosstølen" />
		<tag k="ssr:date" v="2019-05-30" />
		<tag k="ssr:gruppe" v="veg" />
		<tag k="ssr:hovedgruppe" v="infrastruktur" />
		<tag k="ssr:stedsnr" v="1038352" />
		<tag k="ssr:type" v="adressenavn" />
	</node>
	<node id="-459756" lat="60.8306561585" lon="6.42792026578">
		<tag k="name" v="Tveitastølen" />
		<tag k="ssr:date" v="2019-05-30" />
		<tag k="ssr:gruppe" v="veg" />
		<tag k="ssr:hovedgruppe" v="infrastruktur" />
		<tag k="ssr:stedsnr" v="1038357" />
		<tag k="ssr:type" v="adressenavn" />
	</node>
	<node id="-459786" lat="60.5580257248" lon="6.58724238187">
		<tag k="name" v="Grønlii" />
		<tag k="ssr:date" v="2019-05-30" />
		<tag k="ssr:gruppe" v="veg" />
		<tag k="ssr:hovedgruppe" v="infrastruktur" />
		<tag k="ssr:stedsnr" v="1039409" />
		<tag k="ssr:type" v="adressenavn" />
	</node>
	<node id="-459807" lat="60.5478507721" lon="6.22067443631">
		<tag k="name" v="Grånolten" />
		<tag k="ssr:date" v="2019-05-30" />
		<tag k="ssr:gruppe" v="veg" />
		<tag k="ssr:hovedgruppe" v="infrastruktur" />
		<tag k="ssr:stedsnr" v="1039476" />
		<tag k="ssr:type" v="adressenavn" />
	</node>
	<node id="-459780" lat="60.6867922475" lon="6.61295196202">
		<tag k="name" v="Raundals-Håset" />
		<tag k="ssr:date" v="2019-05-30" />
		<tag k="ssr:gruppe" v="veg" />
		<tag k="ssr:hovedgruppe" v="infrastruktur" />
		<tag k="ssr:stedsnr" v="1039401" />
		<tag k="ssr:type" v="adressenavn" />
	</node>
	<node id="-459816" lat="60.6290090225" lon="6.00757544874">
		<tag k="name" v="Jørnevikstølen" />
		<tag k="ssr:date" v="2019-05-30" />
		<tag k="ssr:gruppe" v="veg" />
		<tag k="ssr:hovedgruppe" v="infrastruktur" />
		<tag k="ssr:stedsnr" v="1039513" />
		<tag k="ssr:type" v="adressenavn" />
	</node>
	<node id="-459815" lat="60.6564448654" lon="6.269769252">
		<tag k="name" v="Listred" />
		<tag k="ssr:date" v="2019-05-30" />
		<tag k="ssr:gruppe" v="veg" />
		<tag k="ssr:hovedgruppe" v="infrastruktur" />
		<tag k="ssr:stedsnr" v="1039494" />
		<tag k="ssr:type" v="adressenavn" />
	</node>
	<node id="-459814" lat="60.6464458814" lon="6.36236621914">
		<tag k="name" v="Kiseldur" />
		<tag k="ssr:date" v="2019-05-30" />
		<tag k="ssr:gruppe" v="veg" />
		<tag k="ssr:hovedgruppe" v="infrastruktur" />
		<tag k="ssr:stedsnr" v="1039490" />
		<tag k="ssr:type" v="adressenavn" />
	</node>
	<node id="-459813" lat="60.6735556289" lon="6.32834116256">
		<tag k="name" v="Hedlo" />
		<tag k="ssr:date" v="2019-05-30" />
		<tag k="ssr:gruppe" v="veg" />
		<tag k="ssr:hovedgruppe" v="infrastruktur" />
		<tag k="ssr:stedsnr" v="1039489" />
		<tag k="ssr:type" v="adressenavn" />
	</node>
	<node id="-459812" lat="60.5463233702" lon="6.17347380853">
		<tag k="name" v="Nestås-Øyaset" />
		<tag k="ssr:date" v="2019-05-30" />
		<tag k="ssr:gruppe" v="veg" />
		<tag k="ssr:hovedgruppe" v="infrastruktur" />
		<tag k="ssr:stedsnr" v="1039483" />
		<tag k="ssr:type" v="adressenavn" />
	</node>
	<node id="-459811" lat="60.5495865881" lon="6.11851392483">
		<tag k="name" v="Nore Hamlagrø" />
		<tag k="ssr:date" v="2019-05-30" />
		<tag k="ssr:gruppe" v="veg" />
		<tag k="ssr:hovedgruppe" v="infrastruktur" />
		<tag k="ssr:stedsnr" v="1039482" />
		<tag k="ssr:type" v="adressenavn" />
	</node>
	<node id="-459810" lat="60.5801615253" lon="6.16390631915">
		<tag k="name" v="Lundaholmen" />
		<tag k="ssr:date" v="2019-05-30" />
		<tag k="ssr:gruppe" v="veg" />
		<tag k="ssr:hovedgruppe" v="infrastruktur" />
		<tag k="ssr:stedsnr" v="1039481" />
		<tag k="ssr:type" v="adressenavn" />
	</node>
	<node id="-459809" lat="60.6020856347" lon="6.20497734544">
		<tag k="name" v="Sandfjellsrusti" />
		<tag k="ssr:date" v="2019-05-30" />
		<tag k="ssr:gruppe" v="veg" />
		<tag k="ssr:hovedgruppe" v="infrastruktur" />
		<tag k="ssr:stedsnr" v="1039480" />
		<tag k="ssr:type" v="adressenavn" />
	</node>
	<node id="-459808" lat="60.5317714165" lon="6.07958159506">
		<tag k="name" v="Røvhaugane" />
		<tag k="ssr:date" v="2019-05-30" />
		<tag k="ssr:gruppe" v="veg" />
		<tag k="ssr:hovedgruppe" v="infrastruktur" />
		<tag k="ssr:stedsnr" v="1039479" />
		<tag k="ssr:type" v="adressenavn" />
	</node>
	<node id="-464799" lat="60.8816104596" lon="6.30047518531">
		<tag k="name" v="Vestlandet" />
		<tag k="ssr:date" v="2019-01-06" />
		<tag k="ssr:gruppe" v="administrativeIndelinger" />
		<tag k="ssr:hovedgruppe" v="offentligAdministrasjon" />
		<tag k="ssr:stedsnr" v="974777" />
		<tag k="ssr:type" v="annenAdministrativInndeling" />
	</node>
	<node id="-459806" lat="60.5614962137" lon="6.24250036408">
		<tag k="name" v="Torfinnsosen" />
		<tag k="ssr:date" v="2019-05-30" />
		<tag k="ssr:gruppe" v="veg" />
		<tag k="ssr:hovedgruppe" v="infrastruktur" />
		<tag k="ssr:stedsnr" v="1039475" />
		<tag k="ssr:type" v="adressenavn" />
	</node>
	<node id="-459805" lat="60.543169026" lon="6.22779363992">
		<tag k="name" v="Kvålsdalen" />
		<tag k="ssr:date" v="2019-05-30" />
		<tag k="ssr:gruppe" v="veg" />
		<tag k="ssr:hovedgruppe" v="infrastruktur" />
		<tag k="ssr:stedsnr" v="1039474" />
		<tag k="ssr:type" v="adressenavn" />
	</node>
	<node id="-459804" lat="60.726021763" lon="6.18122993536">
		<tag k="name" v="Fannadalsvegen" />
		<tag k="ssr:date" v="2019-05-30" />
		<tag k="ssr:gruppe" v="veg" />
		<tag k="ssr:hovedgruppe" v="infrastruktur" />
		<tag k="ssr:stedsnr" v="1039473" />
		<tag k="ssr:type" v="adressenavn" />
	</node>
	<node id="-459803" lat="60.5781399328" lon="6.21595924826">
		<tag k="name" v="Flatøyni" />
		<tag k="ssr:date" v="2019-05-30" />
		<tag k="ssr:gruppe" v="veg" />
		<tag k="ssr:hovedgruppe" v="infrastruktur" />
		<tag k="ssr:stedsnr" v="1039471" />
		<tag k="ssr:type" v="adressenavn" />
	</node>
	<node id="-459802" lat="60.5746423011" lon="6.22104175993">
		<tag k="name" v="Kluftatjørni" />
		<tag k="ssr:date" v="2019-05-30" />
		<tag k="ssr:gruppe" v="veg" />
		<tag k="ssr:hovedgruppe" v="infrastruktur" />
		<tag k="ssr:stedsnr" v="1039470" />
		<tag k="ssr:type" v="adressenavn" />
	</node>
	<node id="-459801" lat="60.5444550179" lon="6.18983040917">
		<tag k="name" v="Sveindalen" />
		<tag k="ssr:date" v="2019-05-30" />
		<tag k="ssr:gruppe" v="veg" />
		<tag k="ssr:hovedgruppe" v="infrastruktur" />
		<tag k="ssr:stedsnr" v="1039468" />
		<tag k="ssr:type" v="adressenavn" />
	</node>
	<node id="-459800" lat="60.5608891114" lon="6.29783993942">
		<tag k="name" v="Slåttebakkahorgi" />
		<tag k="ssr:date" v="2019-05-30" />
		<tag k="ssr:gruppe" v="veg" />
		<tag k="ssr:hovedgruppe" v="infrastruktur" />
		<tag k="ssr:stedsnr" v="1039467" />
		<tag k="ssr:type" v="adressenavn" />
	</node>
	<node id="-459799" lat="60.5560563159" lon="6.2791911519">
		<tag k="name" v="Grøno" />
		<tag k="ssr:date" v="2019-05-30" />
		<tag k="ssr:gruppe" v="veg" />
		<tag k="ssr:hovedgruppe" v="infrastruktur" />
		<tag k="ssr:stedsnr" v="1039466" />
		<tag k="ssr:type" v="adressenavn" />
	</node>
	<node id="-459798" lat="60.5413188734" lon="6.34433986368">
		<tag k="name" v="Torfinnsdalen" />
		<tag k="ssr:date" v="2019-05-30" />
		<tag k="ssr:gruppe" v="veg" />
		<tag k="ssr:hovedgruppe" v="infrastruktur" />
		<tag k="ssr:stedsnr" v="1039465" />
		<tag k="ssr:type" v="adressenavn" />
	</node>
	<node id="-459797" lat="60.6615788126" lon="5.96141242133">
		<tag k="name" v="Dunsen" />
		<tag k="ssr:date" v="2019-05-30" />
		<tag k="ssr:gruppe" v="veg" />
		<tag k="ssr:hovedgruppe" v="infrastruktur" />
		<tag k="ssr:stedsnr" v="1039463" />
		<tag k="ssr:type" v="adressenavn" />
	</node>
	<node id="-459796" lat="60.7313985641" lon="6.49861043773">
		<tag k="name" v="Hustveit" />
		<tag k="ssr:date" v="2019-05-30" />
		<tag k="ssr:gruppe" v="veg" />
		<tag k="ssr:hovedgruppe" v="infrastruktur" />
		<tag k="ssr:stedsnr" v="1039461" />
		<tag k="ssr:type" v="adressenavn" />
	</node>
	<node id="-459795" lat="60.6136268293" lon="6.4877328962">
		<tag k="name" v="Nedre Skutlesåsen" />
		<tag k="ssr:date" v="2019-05-30" />
		<tag k="ssr:gruppe" v="veg" />
		<tag k="ssr:hovedgruppe" v="infrastruktur" />
		<tag k="ssr:stedsnr" v="1039457" />
		<tag k="ssr:type" v="adressenavn" />
	</node>
	<node id="-459794" lat="60.6139878585" lon="6.48744162518">
		<tag k="name" v="Øvre Skutlesåsen" />
		<tag k="ssr:date" v="2019-05-30" />
		<tag k="ssr:gruppe" v="veg" />
		<tag k="ssr:hovedgruppe" v="infrastruktur" />
		<tag k="ssr:stedsnr" v="1039456" />
		<tag k="ssr:type" v="adressenavn" />
	</node>
	<node id="-459793" lat="60.6154264563" lon="6.47354455301">
		<tag k="name" v="Vikeshagen" />
		<tag k="ssr:date" v="2019-05-30" />
		<tag k="ssr:gruppe" v="veg" />
		<tag k="ssr:hovedgruppe" v="infrastruktur" />
		<tag k="ssr:stedsnr" v="1039451" />
		<tag k="ssr:type" v="adressenavn" />
	</node>
	<node id="-459792" lat="60.7199482968" lon="6.43067004234">
		<tag k="name" v="Kroni" />
		<tag k="ssr:date" v="2019-05-30" />
		<tag k="ssr:gruppe" v="veg" />
		<tag k="ssr:hovedgruppe" v="infrastruktur" />
		<tag k="ssr:stedsnr" v="1039449" />
		<tag k="ssr:type" v="adressenavn" />
	</node>
	<node id="-459791" lat="60.6889393449" lon="6.84225145696">
		<tag k="name" v="Urdlandsstølen" />
		<tag k="ssr:date" v="2019-05-30" />
		<tag k="ssr:gruppe" v="veg" />
		<tag k="ssr:hovedgruppe" v="infrastruktur" />
		<tag k="ssr:stedsnr" v="1039438" />
		<tag k="ssr:type" v="adressenavn" />
	</node>
	<node id="-459790" lat="60.7122533026" lon="6.90481808783">
		<tag k="name" v="Ljosanddalen" />
		<tag k="ssr:date" v="2019-05-30" />
		<tag k="ssr:gruppe" v="veg" />
		<tag k="ssr:hovedgruppe" v="infrastruktur" />
		<tag k="ssr:stedsnr" v="1039427" />
		<tag k="ssr:type" v="adressenavn" />
	</node>
	<node id="-459789" lat="60.6936615044" lon="6.67196979474">
		<tag k="name" v="Beres-Øyaset" />
		<tag k="ssr:date" v="2019-05-30" />
		<tag k="ssr:gruppe" v="veg" />
		<tag k="ssr:hovedgruppe" v="infrastruktur" />
		<tag k="ssr:stedsnr" v="1039420" />
		<tag k="ssr:type" v="adressenavn" />
	</node>
	<node id="-459788" lat="60.6725814227" lon="6.56626646148">
		<tag k="name" v="Meringavegen" />
		<tag k="ssr:date" v="2019-05-30" />
		<tag k="ssr:gruppe" v="veg" />
		<tag k="ssr:hovedgruppe" v="infrastruktur" />
		<tag k="ssr:stedsnr" v="1039416" />
		<tag k="ssr:type" v="adressenavn" />
	</node>
	<node id="-459787" lat="60.6136797727" lon="6.63265609953">
		<tag k="name" v="Dalset" />
		<tag k="ssr:date" v="2019-05-30" />
		<tag k="ssr:gruppe" v="veg" />
		<tag k="ssr:hovedgruppe" v="infrastruktur" />
		<tag k="ssr:stedsnr" v="1039410" />
		<tag k="ssr:type" v="adressenavn" />
	</node>
	<node id="-463626" lat="60.6426222239" lon="6.48849443554">
		<tag k="name" v="Bergensbana" />
		<tag k="ssr:date" v="2016-05-11" />
		<tag k="ssr:gruppe" v="bane" />
		<tag k="ssr:hovedgruppe" v="infrastruktur" />
		<tag k="ssr:stedsnr" v="713476" />
		<tag k="ssr:type" v="banestrekning" />
	</node>
	<node id="-459785" lat="60.6283281483" lon="6.63224381781">
		<tag k="name" v="Steindro" />
		<tag k="ssr:date" v="2019-05-30" />
		<tag k="ssr:gruppe" v="veg" />
		<tag k="ssr:hovedgruppe" v="infrastruktur" />
		<tag k="ssr:stedsnr" v="1039408" />
		<tag k="ssr:type" v="adressenavn" />
	</node>
	<node id="-459784" lat="60.6157772213" lon="6.62987047775">
		<tag k="name" v="Krakalii" />
		<tag k="ssr:date" v="2019-05-30" />
		<tag k="ssr:gruppe" v="veg" />
		<tag k="ssr:hovedgruppe" v="infrastruktur" />
		<tag k="ssr:stedsnr" v="1039407" />
		<tag k="ssr:type" v="adressenavn" />
	</node>
	<node id="-459783" lat="60.5677036572" lon="6.62605031543">
		<tag k="name" v="Lyklaset" />
		<tag k="ssr:date" v="2019-05-30" />
		<tag k="ssr:gruppe" v="veg" />
		<tag k="ssr:hovedgruppe" v="infrastruktur" />
		<tag k="ssr:stedsnr" v="1039404" />
		<tag k="ssr:type" v="adressenavn" />
	</node>
	<node id="-459782" lat="60.56083147" lon="6.61281324397">
		<tag k="name" v="Kjeatjørni" />
		<tag k="ssr:date" v="2019-05-30" />
		<tag k="ssr:gruppe" v="veg" />
		<tag k="ssr:hovedgruppe" v="infrastruktur" />
		<tag k="ssr:stedsnr" v="1039403" />
		<tag k="ssr:type" v="adressenavn" />
	</node>
	<node id="-459781" lat="60.7026251174" lon="6.59215185537">
		<tag k="name" v="Stegabergsvegen" />
		<tag k="ssr:date" v="2019-05-30" />
		<tag k="ssr:gruppe" v="veg" />
		<tag k="ssr:hovedgruppe" v="infrastruktur" />
		<tag k="ssr:stedsnr" v="1039402" />
		<tag k="ssr:type" v="adressenavn" />
	</node>
	<node id="-460036" lat="60.8386024263" lon="6.68840123219">
		<tag k="name" v="Stalheimskleivi" />
		<tag k="ssr:date" v="2019-04-05" />
		<tag k="ssr:gruppe" v="veg" />
		<tag k="ssr:hovedgruppe" v="infrastruktur" />
		<tag k="ssr:stedsnr" v="312777" />
		<tag k="ssr:type" v="vegstrekning" />
	</node>
	<node id="-459779" lat="60.6664958701" lon="6.78271385775">
		<tag k="name" v="Vollbotnen" />
		<tag k="ssr:date" v="2019-05-30" />
		<tag k="ssr:gruppe" v="veg" />
		<tag k="ssr:hovedgruppe" v="infrastruktur" />
		<tag k="ssr:stedsnr" v="1039400" />
		<tag k="ssr:type" v="adressenavn" />
	</node>
	<node id="-459778" lat="60.6832973624" lon="6.65013643867">
		<tag k="name" v="Mon" />
		<tag k="ssr:date" v="2019-05-30" />
		<tag k="ssr:gruppe" v="veg" />
		<tag k="ssr:hovedgruppe" v="infrastruktur" />
		<tag k="ssr:stedsnr" v="1039398" />
		<tag k="ssr:type" v="adressenavn" />
	</node>
	<node id="-459777" lat="60.6631712368" lon="6.68329641659">
		<tag k="name" v="Bjørnset" />
		<tag k="ssr:date" v="2019-05-30" />
		<tag k="ssr:gruppe" v="veg" />
		<tag k="ssr:hovedgruppe" v="infrastruktur" />
		<tag k="ssr:stedsnr" v="1039396" />
		<tag k="ssr:type" v="adressenavn" />
	</node>
</osm>
