<?xml version="1.0" encoding="UTF-8"?>
<osm generator="osmapis" version="0.6">
	<node id="-151540" lat="60.9372861081" lon="9.08311111939">
		<tag k="name" v="Nørdreåne" />
		<tag k="ssr:stedsnr" v="963831" />
		<tag k="waterway" v="stream" />
	</node>
	<node id="-149491" lat="60.9406805526" lon="9.38679444001">
		<tag k="name" v="Mælomsbekken" />
		<tag k="ssr:stedsnr" v="179390" />
		<tag k="waterway" v="stream" />
	</node>
	<node id="-151537" lat="60.827194443" lon="9.13361666235">
		<tag k="name" v="Sanderstølbekken" />
		<tag k="ssr:stedsnr" v="963805" />
		<tag k="waterway" v="stream" />
	</node>
	<node id="-151536" lat="60.93874722" lon="9.05652221872">
		<tag k="name" v="Robølstjernet" />
		<tag k="natural" v="water" />
		<tag k="old_name" v="Robølstjednet" />
		<tag k="ssr:stedsnr" v="963795" />
	</node>
	<node id="-151534" lat="60.864324996" lon="9.21255000075">
		<tag k="name" v="Høvdahølen" />
		<tag k="natural" v="water" />
		<tag k="ssr:stedsnr" v="964535" />
		<tag k="water" v="pond" />
	</node>
	<node id="-149485" lat="60.951552779" lon="9.30335277315">
		<tag k="name" v="Lortevike" />
		<tag k="natural" v="bay" />
		<tag k="ssr:stedsnr" v="179345" />
	</node>
	<node id="-149481" lat="60.9678527738" lon="9.40376666815">
		<tag k="name" v="Binnhøvdtjernet" />
		<tag k="natural" v="water" />
		<tag k="old_name" v="Binnhøvdtjednet" />
		<tag k="ssr:stedsnr" v="179256" />
	</node>
	<node id="-151528" lat="60.9285861153" lon="9.00701111448">
		<tag k="name" v="Størrtjernet" />
		<tag k="natural" v="water" />
		<tag k="old_name" v="Størrtjednet" />
		<tag k="ssr:stedsnr" v="963049" />
	</node>
	<node id="-151524" lat="61.0421666649" lon="9.4203000059">
		<tag k="name" v="Nedre Bjørnaskardstjernet" />
		<tag k="natural" v="water" />
		<tag k="old_name" v="Nedre Bjødnaskardstjednet" />
		<tag k="ssr:stedsnr" v="950865" />
	</node>
	<node id="-151523" lat="61.0078777746" lon="9.39399166857">
		<tag k="name" v="Gølleikshølen" />
		<tag k="place" v="locality" />
		<tag k="ssr:stedsnr" v="949981" />
	</node>
	<node id="-151522" lat="61.1182083325" lon="9.53297500636">
		<tag k="name" v="Heisenn" />
		<tag k="natural" v="water" />
		<tag k="ssr:stedsnr" v="949776" />
		<tag k="water" v="lake" />
	</node>
	<node id="-151516" lat="61.0034222225" lon="9.26680832576">
		<tag k="name" v="Slettbrenna" />
		<tag k="natural" v="water" />
		<tag k="ssr:stedsnr" v="949498" />
		<tag k="water" v="lake" />
	</node>
	<node id="-151512" lat="60.9782619307" lon="9.17347679626">
		<tag k="name" v="Lavøddin" />
		<tag k="natural" v="cape" />
		<tag k="ssr:stedsnr" v="949475" />
	</node>
	<node id="-149457" lat="60.8792305599" lon="9.35890000294">
		<tag k="name" v="Nystøltjernet" />
		<tag k="natural" v="water" />
		<tag k="old_name" v="Nystøltjednet" />
		<tag k="ssr:stedsnr" v="178786" />
	</node>
	<node id="-151503" lat="60.8795194406" lon="9.19163611944">
		<tag k="name" v="Gjølma" />
		<tag k="ssr:stedsnr" v="920368" />
		<tag k="waterway" v="stream" />
	</node>
	<node id="-151494" lat="60.8898527803" lon="9.28308889419">
		<tag k="name" v="Bløytjernet" />
		<tag k="natural" v="water" />
		<tag k="ssr:stedsnr" v="919680" />
		<tag k="water" v="lake" />
	</node>
	<node id="-151491" lat="60.9715527747" lon="9.38380277856">
		<tag k="alt_name" v="Nysetbøtten" />
		<tag k="name" v="Nysetbotn" />
		<tag k="natural" v="water" />
		<tag k="ssr:stedsnr" v="919597" />
	</node>
	<node id="-151490" lat="60.9657861076" lon="9.35974444232">
		<tag k="name" v="Åkroken" />
		<tag k="place" v="locality" />
		<tag k="ssr:stedsnr" v="919598" />
	</node>
	<node id="-149437" lat="60.8758277806" lon="9.26228056072">
		<tag k="name" v="Sandekilen" />
		<tag k="natural" v="strait" />
		<tag k="ssr:stedsnr" v="175601" />
	</node>
	<node id="-151482" lat="60.8413638857" lon="9.21421944642">
		<tag k="alt_name" v="Eiketjernet" />
		<tag k="name" v="Elketjernet" />
		<tag k="natural" v="water" />
		<tag k="old_name" v="Eiketjednet" />
		<tag k="ssr:stedsnr" v="919447" />
	</node>
	<node id="-149433" lat="61.0491972182" lon="9.19485277351">
		<tag k="name" v="Ljøsenghaugmyre" />
		<tag k="natural" v="water" />
		<tag k="ssr:stedsnr" v="175225" />
	</node>
	<node id="-151480" lat="60.8766861116" lon="9.08280555539">
		<tag k="name" v="Herkja" />
		<tag k="ssr:stedsnr" v="919433" />
		<tag k="waterway" v="stream" />
	</node>
	<node id="-151477" lat="60.9170138902" lon="8.93224722475">
		<tag k="name" v="Brennatjern" />
		<tag k="natural" v="water" />
		<tag k="old_name" v="Brennatjednet" />
		<tag k="ssr:stedsnr" v="919377" />
	</node>
	<node id="-151475" lat="60.9816638863" lon="9.43047500913">
		<tag k="alt_name" v="Kalvetjernet, vestre" />
		<tag k="name" v="Vestre Kalvetjernet" />
		<tag k="natural" v="water" />
		<tag k="old_name" v="Heimdre Kælvetjednet" />
		<tag k="ssr:stedsnr" v="919357" />
	</node>
	<node id="-151474" lat="60.9747249982" lon="9.32486665776">
		<tag k="name" v="Månoelve" />
		<tag k="ssr:stedsnr" v="919350" />
		<tag k="waterway" v="stream" />
	</node>
	<node id="-149423" lat="60.8324305544" lon="9.10899166154">
		<tag k="name" v="Øynefossen" />
		<tag k="ssr:stedsnr" v="174808" />
		<tag k="waterway" v="rapids" />
	</node>
	<node id="-151469" lat="60.9523111083" lon="8.97376388526">
		<tag k="alt_name" v="Løkjabekken" />
		<tag k="name" v="Løkabekken" />
		<tag k="ssr:stedsnr" v="919106" />
		<tag k="waterway" v="stream" />
	</node>
	<node id="-149417" lat="60.8900972204" lon="8.98785832998">
		<tag k="name" v="Svartbekk" />
		<tag k="ssr:stedsnr" v="174254" />
		<tag k="waterway" v="stream" />
	</node>
	<node id="-149415" lat="60.8855277784" lon="9.06755554648">
		<tag k="name" v="Storstølåne" />
		<tag k="ssr:stedsnr" v="174106" />
		<tag k="waterway" v="stream" />
	</node>
	<node id="-149414" lat="60.8919472231" lon="8.95295832603">
		<tag k="name" v="Sjurstjernet" />
		<tag k="natural" v="water" />
		<tag k="old_name" v="Sjurstjednet" />
		<tag k="ssr:stedsnr" v="173635" />
	</node>
	<node id="-151461" lat="60.8582749975" lon="9.37465555023">
		<tag k="name" v="Sørheimstølstjernet" />
		<tag k="natural" v="water" />
		<tag k="ssr:stedsnr" v="918723" />
	</node>
	<node id="-151457" lat="61.0211500038" lon="9.2624027804">
		<tag k="name" v="Jodokktjernet" />
		<tag k="natural" v="water" />
		<tag k="old_name" v="Jodokktjednet" />
		<tag k="ssr:stedsnr" v="918640" />
	</node>
	<node id="-151456" lat="61.0037777803" lon="9.39225278286">
		<tag k="name" v="Pilsettjernet" />
		<tag k="natural" v="water" />
		<tag k="ssr:stedsnr" v="918613" />
	</node>
	<node id="-151454" lat="61.1831027769" lon="9.43544999244">
		<tag k="fixme" v="multiple name tags, choose one and add the other to alt_name" />
		<tag k="loc_name" v="Fullsennvikje;Storevike;Storevikje" />
		<tag k="name" v="Fullsennvike;Storeviki" />
		<tag k="natural" v="bay" />
		<tag k="ssr:stedsnr" v="917953" />
	</node>
	<node id="-151452" lat="61.1551527784" lon="9.48905833209">
		<tag k="fixme" v="multiple name tags, choose one and add the other to alt_name" />
		<tag k="name" v="Fullmjøtjernet;Tjernet" />
		<tag k="natural" v="water" />
		<tag k="old_name" v="Fullmjøtjednet" />
		<tag k="ssr:stedsnr" v="917941" />
	</node>
	<node id="-151451" lat="61.1133049454" lon="9.49165166509">
		<tag k="name" v="Etnsenn" />
		<tag k="natural" v="water" />
		<tag k="ssr:stedsnr" v="917894" />
		<tag k="water" v="lake" />
	</node>
	<node id="-149486" lat="61.0199638932" lon="9.31070277815">
		<tag k="name" v="Maurlandsøddin" />
		<tag k="natural" v="cape" />
		<tag k="ssr:stedsnr" v="179344" />
	</node>
	<node id="-149391" lat="60.9454083347" lon="9.49862778382">
		<tag k="name" v="Heimveglitjernet" />
		<tag k="natural" v="water" />
		<tag k="old_name" v="Heimveglitjednet" />
		<tag k="ssr:stedsnr" v="130548" />
	</node>
	<node id="-151436" lat="60.7960329556" lon="9.2368380875">
		<tag k="name" v="Pluggevike" />
		<tag k="natural" v="bay" />
		<tag k="ssr:stedsnr" v="908765" />
	</node>
	<node id="-149383" lat="60.9142305553" lon="9.29545555741">
		<tag k="name" v="Åbjøra" />
		<tag k="ssr:stedsnr" v="130480" />
		<tag k="waterway" v="river" />
	</node>
	<node id="-149378" lat="60.8389472266" lon="9.2032027807">
		<tag k="name" v="Flåstølputten" />
		<tag k="natural" v="water" />
		<tag k="ssr:stedsnr" v="130388" />
	</node>
	<node id="-149376" lat="60.9368083336" lon="8.99021944533">
		<tag k="name" v="Kamrudbekken" />
		<tag k="old_name" v="Kammerudbekken" />
		<tag k="ssr:stedsnr" v="130368" />
		<tag k="waterway" v="stream" />
	</node>
	<node id="-151423" lat="60.9837222205" lon="9.23545000147">
		<tag k="name" v="Veslefjorden" />
		<tag k="natural" v="water" />
		<tag k="ssr:stedsnr" v="908452" />
	</node>
	<node id="-149373" lat="60.9847500022" lon="9.49626944999">
		<tag k="name" v="Hundetjernet" />
		<tag k="natural" v="water" />
		<tag k="old_name" v="Hundetjednet" />
		<tag k="ssr:stedsnr" v="130329" />
	</node>
	<node id="-149371" lat="60.9737499993" lon="9.48181666332">
		<tag k="name" v="Grytebekken" />
		<tag k="ssr:stedsnr" v="130318" />
		<tag k="waterway" v="stream" />
	</node>
	<node id="-151417" lat="60.942113889" lon="9.32343333316">
		<tag k="name" v="Urde" />
		<tag k="natural" v="beach" />
		<tag k="ssr:stedsnr" v="908400" />
	</node>
	<node id="-151414" lat="61.0204583339" lon="9.29063333028">
		<tag k="name" v="Vesle Hattøye" />
		<tag k="place" v="island" />
		<tag k="ssr:stedsnr" v="908382" />
	</node>
	<node id="-151409" lat="60.9611944466" lon="9.30331388059">
		<tag k="name" v="Håishølen" />
		<tag k="natural" v="water" />
		<tag k="ssr:stedsnr" v="908360" />
		<tag k="water" v="lake" />
	</node>
	<node id="-149357" lat="60.8457749982" lon="9.33185833044">
		<tag k="alt_name" v="Eivatnet" />
		<tag k="fixme" v="multiple name tags, choose one and add the other to alt_name" />
		<tag k="loc_name" v="Øyvasstøltjernet" />
		<tag k="name" v="Eidvatnet;Eivasstøltjernet" />
		<tag k="natural" v="water" />
		<tag k="old_name" v="Eivasstøltjednet" />
		<tag k="ssr:stedsnr" v="129657" />
	</node>
	<node id="-149354" lat="60.8471972254" lon="9.34466666454">
		<tag k="name" v="Makalausputten" />
		<tag k="natural" v="water" />
		<tag k="ssr:stedsnr" v="129646" />
	</node>
	<node id="-149351" lat="60.8391361098" lon="9.37526388638">
		<tag k="name" v="Kalvetjerne" />
		<tag k="natural" v="water" />
		<tag k="old_name" v="Kælvetjedne" />
		<tag k="ssr:stedsnr" v="129615" />
		<tag k="water" v="lake" />
	</node>
	<node id="-151397" lat="60.8871055532" lon="9.46137222177">
		<tag k="name" v="Røyrmyrtjernet" />
		<tag k="natural" v="water" />
		<tag k="old_name" v="Røyrmyrtjednet" />
		<tag k="ssr:stedsnr" v="908079" />
	</node>
	<node id="-149347" lat="61.024283333" lon="9.34571110283">
		<tag k="fixme" v="multiple name tags, choose one and add the other to alt_name" />
		<tag k="name" v="Fiskeløysa;Fiskeløystjernet" />
		<tag k="natural" v="water" />
		<tag k="old_name" v="Fiskeløystjednet" />
		<tag k="ssr:stedsnr" v="129574" />
	</node>
	<node id="-149343" lat="61.1157055547" lon="9.55820277873">
		<tag k="name" v="Baktjernet" />
		<tag k="natural" v="water" />
		<tag k="old_name" v="Baktjednet" />
		<tag k="ssr:stedsnr" v="128897" />
	</node>
	<node id="-151390" lat="60.928641666" lon="9.41710554737">
		<tag k="name" v="Rudsbekken" />
		<tag k="ssr:stedsnr" v="907597" />
		<tag k="waterway" v="stream" />
	</node>
	<node id="-151386" lat="61.0230249993" lon="9.36885000841">
		<tag k="name" v="Smørlibekken" />
		<tag k="ssr:stedsnr" v="907510" />
		<tag k="waterway" v="stream" />
	</node>
	<node id="-149337" lat="61.0171808955" lon="9.20968524007">
		<tag k="alt_name" v="Sebufjorden" />
		<tag k="name" v="Sæbufjorden" />
		<tag k="natural" v="water" />
		<tag k="ssr:stedsnr" v="128778" />
		<tag k="water" v="lake" />
	</node>
	<node id="-151379" lat="61.0443916705" lon="9.25123056083">
		<tag k="name" v="Skålin" />
		<tag k="natural" v="water" />
		<tag k="ssr:stedsnr" v="907182" />
	</node>
	<node id="-149329" lat="60.7915916661" lon="9.22413889592">
		<tag k="name" v="Hengifosstjernet" />
		<tag k="natural" v="water" />
		<tag k="old_name" v="Hengifosstjednet" />
		<tag k="ssr:stedsnr" v="119745" />
	</node>
	<node id="-151374" lat="60.8766940795" lon="9.27166047339">
		<tag k="name" v="Åbjørsøddin" />
		<tag k="natural" v="cape" />
		<tag k="ssr:stedsnr" v="906900" />
	</node>
	<node id="-149325" lat="60.993677776" lon="9.21973611729">
		<tag k="name" v="Hunkevike" />
		<tag k="natural" v="bay" />
		<tag k="ssr:stedsnr" v="119637" />
	</node>
	<node id="-151372" lat="60.8718694427" lon="9.41201944985">
		<tag k="name" v="Jehandvike" />
		<tag k="natural" v="bay" />
		<tag k="ssr:stedsnr" v="906848" />
	</node>
	<node id="-151371" lat="60.8079527737" lon="9.22259722644">
		<tag k="name" v="Rausanden" />
		<tag k="natural" v="beach" />
		<tag k="ssr:stedsnr" v="906833" />
	</node>
	<node id="-149321" lat="60.9872194411" lon="9.25159166367">
		<tag k="name" v="Håvelsrudvike" />
		<tag k="natural" v="bay" />
		<tag k="ssr:stedsnr" v="119454" />
	</node>
	<node id="-151363" lat="60.9504805511" lon="9.1658111068">
		<tag k="name" v="Nysetsletta" />
		<tag k="ssr:stedsnr" v="906543" />
		<tag k="waterway" v="stream" />
	</node>
	<node id="-149314" lat="60.9659166668" lon="9.29161388339">
		<tag k="name" v="Fasle-elve" />
		<tag k="ssr:stedsnr" v="119358" />
		<tag k="waterway" v="river" />
	</node>
	<node id="-151360" lat="60.8528277757" lon="9.34115556009">
		<tag k="name" v="Brenntjernet" />
		<tag k="natural" v="water" />
		<tag k="old_name" v="Brenntjednet" />
		<tag k="ssr:stedsnr" v="906426" />
	</node>
	<node id="-151358" lat="60.8897916677" lon="9.4397583316">
		<tag k="name" v="Åskjerfjorden" />
		<tag k="natural" v="water" />
		<tag k="ssr:stedsnr" v="906065" />
		<tag k="water" v="lake" />
	</node>
	<node id="-150836" lat="61.0117750026" lon="9.31154722345">
		<tag k="name" v="Buatjernet" />
		<tag k="natural" v="water" />
		<tag k="old_name" v="Buatjednet" />
		<tag k="ssr:stedsnr" v="726519" />
	</node>
	<node id="-151350" lat="60.8725888887" lon="9.25190556322">
		<tag k="name" v="Notøddin" />
		<tag k="natural" v="cape" />
		<tag k="ssr:stedsnr" v="904554" />
	</node>
	<node id="-151349" lat="60.8706222208" lon="9.21607222062">
		<tag k="name" v="Gjølma" />
		<tag k="ssr:stedsnr" v="904531" />
		<tag k="waterway" v="river" />
	</node>
	<node id="-151348" lat="61.1839416653" lon="9.44318611116">
		<tag k="name" v="Gastgjevaren" />
		<tag k="natural" v="cape" />
		<tag k="ssr:stedsnr" v="904451" />
	</node>
	<node id="-149299" lat="61.0222444479" lon="9.34434443902">
		<tag k="name" v="Fiskeløysbekken" />
		<tag k="ssr:stedsnr" v="118533" />
		<tag k="waterway" v="stream" />
	</node>
	<node id="-149298" lat="61.0262416686" lon="9.34360832467">
		<tag k="name" v="Nystølelve" />
		<tag k="ssr:stedsnr" v="118532" />
		<tag k="waterway" v="river" />
	</node>
	<node id="-149296" lat="61.0189249974" lon="9.27648611239">
		<tag k="name" v="Buviklandet" />
		<tag k="natural" v="cape" />
		<tag k="ssr:stedsnr" v="118370" />
	</node>
	<node id="-149291" lat="61.0206166697" lon="9.1860666737">
		<tag k="name" v="Oddebekken" />
		<tag k="ssr:stedsnr" v="118068" />
		<tag k="waterway" v="stream" />
	</node>
	<node id="-149468" lat="61.0025444463" lon="9.19258056227">
		<tag k="name" v="Hyllebekken" />
		<tag k="ssr:stedsnr" v="179022" />
		<tag k="waterway" v="stream" />
	</node>
	<node id="-151333" lat="60.9250111151" lon="9.12222221846">
		<tag k="name" v="Rovetrølltjernet" />
		<tag k="natural" v="water" />
		<tag k="old_name" v="Rovetrølltjednet" />
		<tag k="ssr:stedsnr" v="903770" />
		<tag k="water" v="pond" />
	</node>
	<node id="-149284" lat="60.8725027746" lon="9.27660000899">
		<tag k="name" v="Langedragsøddin" />
		<tag k="natural" v="cape" />
		<tag k="ssr:stedsnr" v="117887" />
	</node>
	<node id="-151329" lat="60.83433333" lon="9.11273332775">
		<tag k="name" v="Øynehølen" />
		<tag k="natural" v="water" />
		<tag k="ssr:stedsnr" v="903110" />
		<tag k="water" v="lake" />
	</node>
	<node id="-149277" lat="60.8062316888" lon="9.21130554832">
		<tag k="name" v="Stakavike" />
		<tag k="natural" v="bay" />
		<tag k="ssr:stedsnr" v="117805" />
	</node>
	<node id="-149269" lat="60.9585111067" lon="9.10729999937">
		<tag k="name" v="Rystølbekken" />
		<tag k="ssr:stedsnr" v="117597" />
		<tag k="waterway" v="stream" />
	</node>
	<node id="-148782" lat="60.9824739462" lon="9.35560915918">
		<tag k="name" v="Løavike" />
		<tag k="natural" v="bay" />
		<tag k="ssr:stedsnr" v="361772" />
	</node>
	<node id="-151311" lat="60.9640194438" lon="9.22662499411">
		<tag k="name" v="Brennabekken" />
		<tag k="ssr:stedsnr" v="859590" />
		<tag k="waterway" v="stream" />
	</node>
	<node id="-151309" lat="60.9613694406" lon="9.460230557">
		<tag k="name" v="Gullringbekken" />
		<tag k="ssr:stedsnr" v="859575" />
		<tag k="waterway" v="stream" />
	</node>
	<node id="-151308" lat="60.9520000008" lon="9.49441111992">
		<tag k="name" v="Stølslitjernet" />
		<tag k="natural" v="water" />
		<tag k="ssr:stedsnr" v="859554" />
	</node>
	<node id="-151307" lat="60.948519442" lon="9.46746111979">
		<tag k="name" v="Fjelltjernet" />
		<tag k="natural" v="water" />
		<tag k="ssr:stedsnr" v="859555" />
	</node>
	<node id="-149255" lat="60.9228666693" lon="9.40293888478">
		<tag k="name" v="Bøaelve" />
		<tag k="ssr:stedsnr" v="115189" />
		<tag k="waterway" v="river" />
	</node>
	<node id="-151298" lat="60.9071083291" lon="9.37204443526">
		<tag k="alt_name" v="Skarselve" />
		<tag k="name" v="Skardelvi" />
		<tag k="ssr:stedsnr" v="859459" />
		<tag k="waterway" v="stream" />
	</node>
	<node id="-149243" lat="60.9647999995" lon="9.0911805627">
		<tag k="name" v="Krøsskjelda" />
		<tag k="natural" v="spring" />
		<tag k="ssr:stedsnr" v="114595" />
	</node>
	<node id="-151290" lat="60.9460111136" lon="9.18431943733">
		<tag k="name" v="Nysetbekken" />
		<tag k="ssr:stedsnr" v="859364" />
		<tag k="waterway" v="stream" />
	</node>
	<node id="-151288" lat="60.9494666644" lon="9.11077500075">
		<tag k="name" v="Nyløoelvi" />
		<tag k="ssr:stedsnr" v="859361" />
		<tag k="waterway" v="stream" />
	</node>
	<node id="-151287" lat="60.9464166693" lon="9.15434721339">
		<tag k="alt_name" v="Håvrudstølselve" />
		<tag k="name" v="Håvrudstølsbekken" />
		<tag k="ssr:stedsnr" v="859358" />
		<tag k="waterway" v="stream" />
	</node>
	<node id="-149237" lat="60.8885944421" lon="8.94026667532">
		<tag k="name" v="Langehaugtjernet" />
		<tag k="natural" v="water" />
		<tag k="old_name" v="Langehaugtjednet" />
		<tag k="ssr:stedsnr" v="113660" />
	</node>
	<node id="-151284" lat="60.9789805567" lon="9.237330556">
		<tag k="name" v="Storøyi" />
		<tag k="natural" v="cape" />
		<tag k="ssr:stedsnr" v="859327" />
	</node>
	<node id="-149235" lat="60.8791666684" lon="9.05783611995">
		<tag k="name" v="Brendeøddin" />
		<tag k="natural" v="cape" />
		<tag k="ssr:stedsnr" v="113288" />
	</node>
	<node id="-149234" lat="60.8725777753" lon="9.07458333471">
		<tag k="name" v="Hølbekken" />
		<tag k="ssr:stedsnr" v="113284" />
		<tag k="waterway" v="stream" />
	</node>
	<node id="-151281" lat="60.9279361153" lon="9.46896666957">
		<tag k="name" v="Venevatnet" />
		<tag k="natural" v="water" />
		<tag k="ssr:stedsnr" v="859511" />
	</node>
	<node id="-149232" lat="61.1170305564" lon="9.56847499621">
		<tag k="name" v="Killingøyatn" />
		<tag k="place" v="island" />
		<tag k="ssr:stedsnr" v="113003" />
	</node>
	<node id="-151279" lat="60.9518027806" lon="8.98879444251">
		<tag k="alt_name" v="Granheimstjerni" />
		<tag k="loc_name" v="Granheimstjernet" />
		<tag k="name" v="Graneistjernet" />
		<tag k="natural" v="water" />
		<tag k="old_name" v="Graneistjednet" />
		<tag k="ssr:stedsnr" v="859100" />
	</node>
	<node id="-149230" lat="61.1125750001" lon="9.64135555804">
		<tag k="name" v="Røssjøelve" />
		<tag k="ssr:stedsnr" v="113609" />
		<tag k="waterway" v="river" />
	</node>
	<node id="-149229" lat="60.8291888875" lon="9.05348054711">
		<tag k="name" v="Rangshøla" />
		<tag k="ssr:stedsnr" v="113604" />
		<tag k="waterway" v="river" />
	</node>
	<node id="-149226" lat="60.998525" lon="9.42075833732">
		<tag k="name" v="Svartetjernet" />
		<tag k="natural" v="water" />
		<tag k="old_name" v="Svartetjednet" />
		<tag k="ssr:stedsnr" v="100942" />
	</node>
	<node id="-151273" lat="61.1175555517" lon="9.65156388073">
		<tag k="name" v="Tukthusputten" />
		<tag k="natural" v="water" />
		<tag k="ssr:stedsnr" v="858744" />
	</node>
	<node id="-149224" lat="60.902727777" lon="8.91071110304">
		<tag k="name" v="Torestjernet" />
		<tag k="natural" v="water" />
		<tag k="old_name" v="Torestjednet" />
		<tag k="ssr:stedsnr" v="100863" />
	</node>
	<node id="-151271" lat="60.8813249967" lon="9.5361444375">
		<tag k="name" v="Nystøltjernet" />
		<tag k="natural" v="water" />
		<tag k="ssr:stedsnr" v="858722" />
	</node>
	<node id="-151269" lat="60.8693333344" lon="9.36215554797">
		<tag k="name" v="Langevatnet" />
		<tag k="natural" v="water" />
		<tag k="ssr:stedsnr" v="858704" />
	</node>
	<node id="-151267" lat="60.8491500018" lon="9.25962778128">
		<tag k="name" v="Klubbestadtjernet" />
		<tag k="natural" v="water" />
		<tag k="ssr:stedsnr" v="858670" />
	</node>
	<node id="-151263" lat="60.9658222265" lon="9.11524721929">
		<tag k="name" v="Mjølkebekken" />
		<tag k="ssr:stedsnr" v="858104" />
		<tag k="waterway" v="stream" />
	</node>
	<node id="-151261" lat="61.12435" lon="9.45373889202">
		<tag k="name" v="Nisa" />
		<tag k="ssr:stedsnr" v="857925" />
		<tag k="waterway" v="stream" />
	</node>
	<node id="-151260" lat="61.1381777749" lon="9.54155556119">
		<tag k="alt_name" v="Svarthammarbekken" />
		<tag k="name" v="Svarthamarbekken" />
		<tag k="ssr:stedsnr" v="857919" />
		<tag k="waterway" v="stream" />
	</node>
	<node id="-149208" lat="60.9670805523" lon="9.3959388818">
		<tag k="name" v="Raneisettjernet" />
		<tag k="natural" v="water" />
		<tag k="ssr:stedsnr" v="70606" />
	</node>
	<node id="-149202" lat="60.8869250036" lon="9.38013333648">
		<tag k="name" v="Brennatjernet" />
		<tag k="natural" v="water" />
		<tag k="old_name" v="Brennatjednet" />
		<tag k="ssr:stedsnr" v="70711" />
	</node>
	<node id="-149201" lat="60.9222361141" lon="9.50617777315">
		<tag k="name" v="Langevatnet" />
		<tag k="natural" v="water" />
		<tag k="ssr:stedsnr" v="70489" />
	</node>
	<node id="-151248" lat="60.8573138933" lon="9.27164444107">
		<tag k="name" v="Bekkjivikøddin" />
		<tag k="natural" v="cape" />
		<tag k="ssr:stedsnr" v="847999" />
	</node>
	<node id="-151241" lat="60.9835138859" lon="9.42006110911">
		<tag k="name" v="Kalvetjernputten" />
		<tag k="natural" v="water" />
		<tag k="old_name" v="Kælvetjednputten" />
		<tag k="ssr:stedsnr" v="847621" />
	</node>
	<node id="-149191" lat="60.8363416634" lon="9.17193332974">
		<tag k="alt_name" v="Hervassbekken" />
		<tag k="name" v="Hærvassbekken" />
		<tag k="ssr:stedsnr" v="70428" />
		<tag k="waterway" v="stream" />
	</node>
	<node id="-149190" lat="60.875763892" lon="9.02974443779">
		<tag k="name" v="Hurrabekken" />
		<tag k="ssr:stedsnr" v="70380" />
		<tag k="waterway" v="stream" />
	</node>
	<node id="-151236" lat="60.9784722246" lon="9.40088888772">
		<tag k="name" v="Hølbekken" />
		<tag k="ssr:stedsnr" v="847573" />
		<tag k="waterway" v="stream" />
	</node>
	<node id="-151234" lat="60.9997972181" lon="9.27570833211">
		<tag k="name" v="Slibrøttjernet" />
		<tag k="natural" v="water" />
		<tag k="old_name" v="Slibrøttjednet" />
		<tag k="ssr:stedsnr" v="847519" />
	</node>
	<node id="-149183" lat="60.9483694472" lon="8.96883887986">
		<tag k="name" v="Simlebekken" />
		<tag k="ssr:stedsnr" v="70098" />
		<tag k="waterway" v="stream" />
	</node>
	<node id="-149180" lat="60.9719166625" lon="9.1736611159">
		<tag k="alt_name" v="Strøndafjorden;Strandefjorden" />
		<tag k="name" v="Strondafjorden" />
		<tag k="natural" v="water" />
		<tag k="old_name" v="Stondafjorden" />
		<tag k="ssr:stedsnr" v="70076" />
		<tag k="water" v="lake" />
	</node>
	<node id="-151222" lat="61.0287111142" lon="9.2903194355">
		<tag k="name" v="Dokkøye" />
		<tag k="place" v="island" />
		<tag k="ssr:stedsnr" v="847427" />
	</node>
	<node id="-149173" lat="61.0062305534" lon="9.26039271159">
		<tag k="name" v="Koltjern" />
		<tag k="natural" v="water" />
		<tag k="old_name" v="Køltjednet" />
		<tag k="ssr:stedsnr" v="69611" />
	</node>
	<node id="-149166" lat="61.144552782" lon="9.44914444746">
		<tag k="name" v="Krosstjernet" />
		<tag k="natural" v="water" />
		<tag k="old_name" v="Krøsstjednet" />
		<tag k="ssr:stedsnr" v="68941" />
	</node>
	<node id="-149164" lat="61.1921111116" lon="9.51647499258">
		<tag k="name" v="Steintjernbekken" />
		<tag k="ssr:stedsnr" v="68976" />
		<tag k="waterway" v="stream" />
	</node>
	<node id="-149162" lat="61.1850361074" lon="9.5416499948">
		<tag k="name" v="Steintjernet" />
		<tag k="natural" v="water" />
		<tag k="old_name" v="Øystre Steintjernet" />
		<tag k="ssr:stedsnr" v="68953" />
	</node>
	<node id="-149161" lat="61.0908333358" lon="9.44669999122">
		<tag k="alt_name" v="Valegrovelve" />
		<tag k="name" v="Veslegrovi" />
		<tag k="ssr:stedsnr" v="68891" />
		<tag k="waterway" v="stream" />
	</node>
	<node id="-151208" lat="61.0441805525" lon="9.2587444408">
		<tag k="name" v="Gamlemannstjernet" />
		<tag k="natural" v="water" />
		<tag k="old_name" v="Gamlemannstjednet" />
		<tag k="ssr:stedsnr" v="847336" />
	</node>
	<node id="-149158" lat="61.1194773402" lon="9.56781550303">
		<tag k="name" v="Røssjøen" />
		<tag k="natural" v="water" />
		<tag k="ssr:stedsnr" v="68907" />
		<tag k="water" v="lake" />
	</node>
	<node id="-149157" lat="61.0204555546" lon="9.29390277353">
		<tag k="name" v="Leirin" />
		<tag k="natural" v="water" />
		<tag k="ssr:stedsnr" v="68590" />
		<tag k="water" v="lake" />
	</node>
	<node id="-149148" lat="60.8297249981" lon="9.30889166249">
		<tag k="name" v="Kvednaføssen" />
		<tag k="natural" v="waterfall" />
		<tag k="ssr:stedsnr" v="58964" />
	</node>
	<node id="-149147" lat="60.9585111095" lon="9.41727499752">
		<tag k="name" v="Urdebakktjernet" />
		<tag k="natural" v="water" />
		<tag k="old_name" v="Urdebakktjednet" />
		<tag k="ssr:stedsnr" v="58862" />
	</node>
	<node id="-151193" lat="60.9639083372" lon="9.35713888447">
		<tag k="name" v="Ukseputten" />
		<tag k="natural" v="water" />
		<tag k="ssr:stedsnr" v="847184" />
		<tag k="water" v="pond" />
	</node>
	<node id="-149136" lat="60.9372166632" lon="9.35056667248">
		<tag k="name" v="Djupøye" />
		<tag k="place" v="islet" />
		<tag k="ssr:stedsnr" v="58605" />
	</node>
	<node id="-151183" lat="60.9923777761" lon="9.36999167467">
		<tag k="name" v="Såputten" />
		<tag k="natural" v="water" />
		<tag k="ssr:stedsnr" v="847114" />
		<tag k="water" v="pond" />
	</node>
	<node id="-151181" lat="60.8862055589" lon="9.44656389077">
		<tag k="name" v="Åskjerfossen" />
		<tag k="ssr:stedsnr" v="847078" />
		<tag k="waterway" v="rapids" />
	</node>
	<node id="-149130" lat="60.8906722196" lon="9.24628055663">
		<tag k="name" v="Brenderotbekken" />
		<tag k="ssr:stedsnr" v="58501" />
		<tag k="waterway" v="stream" />
	</node>
	<node id="-151174" lat="60.8609444439" lon="9.36839722147">
		<tag k="name" v="Dusanesbekken" />
		<tag k="ssr:stedsnr" v="846795" />
		<tag k="waterway" v="stream" />
	</node>
	<node id="-151173" lat="60.8640777782" lon="9.34462777189">
		<tag k="name" v="Rishøvdtjerne" />
		<tag k="natural" v="water" />
		<tag k="old_name" v="Rishøvdtjedne" />
		<tag k="ssr:stedsnr" v="846792" />
		<tag k="water" v="lake" />
	</node>
	<node id="-151172" lat="60.8845527757" lon="9.37336666248">
		<tag k="name" v="Torkjellstøltjernet" />
		<tag k="natural" v="water" />
		<tag k="old_name" v="Tørkjellstøltjednet" />
		<tag k="ssr:stedsnr" v="846710" />
	</node>
	<node id="-149119" lat="60.9544419185" lon="9.30436092661">
		<tag k="name" v="Turre Syndet" />
		<tag k="natural" v="strait" />
		<tag k="ssr:stedsnr" v="58373" />
	</node>
	<node id="-151163" lat="60.8180277745" lon="9.24224722178">
		<tag k="alt_name" v="Hervassosen" />
		<tag k="name" v="Hærvassosen" />
		<tag k="natural" v="bay" />
		<tag k="ssr:stedsnr" v="845849" />
	</node>
	<node id="-151159" lat="60.9965111155" lon="9.50497777475">
		<tag k="name" v="Kvannebekken" />
		<tag k="ssr:stedsnr" v="844447" />
		<tag k="waterway" v="stream" />
	</node>
	<node id="-151147" lat="60.8387472232" lon="9.14242221545">
		<tag k="name" v="Krokute låten" />
		<tag k="natural" v="water" />
		<tag k="ssr:stedsnr" v="843121" />
		<tag k="water" v="lake" />
	</node>
	<node id="-151146" lat="60.8348472216" lon="9.09524167404">
		<tag k="name" v="Nørdre Fløtatjernet" />
		<tag k="natural" v="water" />
		<tag k="old_name" v="Nørre Fløtatjednet" />
		<tag k="ssr:stedsnr" v="843108" />
	</node>
	<node id="-149094" lat="61.0114916674" lon="9.34637221662">
		<tag k="name" v="Tjørejellbekken" />
		<tag k="ssr:stedsnr" v="58117" />
		<tag k="waterway" v="stream" />
	</node>
	<node id="-151140" lat="60.9697416642" lon="9.04704721721">
		<tag k="name" v="Einarsetåne" />
		<tag k="ssr:stedsnr" v="842945" />
		<tag k="waterway" v="stream" />
	</node>
	<node id="-149090" lat="60.9815638865" lon="9.14793889582">
		<tag k="name" v="Hømandbergødde" />
		<tag k="natural" v="cape" />
		<tag k="ssr:stedsnr" v="58082" />
	</node>
	<node id="-151136" lat="60.8760611074" lon="9.06039166535">
		<tag k="name" v="Lusetjernet" />
		<tag k="natural" v="water" />
		<tag k="old_name" v="Lusetjedne" />
		<tag k="ssr:stedsnr" v="842262" />
	</node>
	<node id="-151133" lat="60.8544000012" lon="9.17821388701">
		<tag k="alt_name" v="Vasetøye" />
		<tag k="name" v="Vadsetøye" />
		<tag k="place" v="islet" />
		<tag k="ssr:stedsnr" v="842831" />
	</node>
	<node id="-151128" lat="61.034477777" lon="9.17812499343">
		<tag k="name" v="Føssahølen" />
		<tag k="place" v="locality" />
		<tag k="ssr:stedsnr" v="829984" />
	</node>
	<node id="-149078" lat="60.912924998" lon="9.21147223005">
		<tag k="name" v="Hyllerstøltjernet" />
		<tag k="natural" v="water" />
		<tag k="old_name" v="Hyllerstøltjednet" />
		<tag k="ssr:stedsnr" v="56685" />
	</node>
	<node id="-151122" lat="61.0593527775" lon="9.36743612019">
		<tag k="name" v="Skogputten" />
		<tag k="natural" v="water" />
		<tag k="ssr:stedsnr" v="828733" />
		<tag k="water" v="pond" />
	</node>
	<node id="-151119" lat="60.9769614854" lon="9.15481516785">
		<tag k="name" v="Føllångloøddin" />
		<tag k="natural" v="cape" />
		<tag k="ssr:stedsnr" v="828526" />
	</node>
	<node id="-151116" lat="61.0507305582" lon="9.38500554648">
		<tag k="name" v="Skrindefetbekken" />
		<tag k="ssr:stedsnr" v="828445" />
		<tag k="waterway" v="stream" />
	</node>
	<node id="-151114" lat="61.0382888912" lon="9.41419444286">
		<tag k="name" v="Turtejuvbekken" />
		<tag k="old_name" v="Turteijuvbekken" />
		<tag k="ssr:stedsnr" v="828418" />
		<tag k="waterway" v="stream" />
	</node>
	<node id="-149059" lat="60.8733166654" lon="9.2609722291">
		<tag k="name" v="Kambaltjernet" />
		<tag k="natural" v="water" />
		<tag k="old_name" v="Kambaltjednet" />
		<tag k="ssr:stedsnr" v="54597" />
	</node>
	<node id="-151106" lat="60.7831297551" lon="9.25478011531">
		<tag k="name" v="Naustvolltjernet" />
		<tag k="natural" v="water" />
		<tag k="old_name" v="Naustvølltjednet" />
		<tag k="ssr:stedsnr" v="798749" />
	</node>
	<node id="-151104" lat="60.9133777741" lon="9.47391389798">
		<tag k="name" v="Åbortjernet" />
		<tag k="natural" v="water" />
		<tag k="ssr:stedsnr" v="798696" />
	</node>
	<node id="-151103" lat="60.893494447" lon="9.39045833894">
		<tag k="name" v="Bjørnaholtjernet" />
		<tag k="natural" v="water" />
		<tag k="old_name" v="Bjødnahøltjednet" />
		<tag k="ssr:stedsnr" v="798689" />
	</node>
	<node id="-151100" lat="60.9044138927" lon="9.52602222405">
		<tag k="alt_name" v="Rotvatnet, nedre" />
		<tag k="name" v="Nedre Rotvatnet" />
		<tag k="natural" v="water" />
		<tag k="ssr:stedsnr" v="798681" />
	</node>
	<node id="-151099" lat="60.8950805599" lon="9.23057499284">
		<tag k="name" v="Øystølbekken" />
		<tag k="ssr:stedsnr" v="798679" />
		<tag k="waterway" v="stream" />
	</node>
	<node id="-149050" lat="60.9269250019" lon="9.19015000173">
		<tag k="name" v="Saustølbekken" />
		<tag k="ssr:stedsnr" v="54012" />
		<tag k="waterway" v="stream" />
	</node>
	<node id="-149048" lat="60.913383334" lon="9.19882778695">
		<tag k="name" v="Vendebekken" />
		<tag k="ssr:stedsnr" v="53943" />
		<tag k="waterway" v="stream" />
	</node>
	<node id="-151086" lat="60.9408318693" lon="8.97115226723">
		<tag k="name" v="Valtjernet" />
		<tag k="natural" v="water" />
		<tag k="old_name" v="Valtjednet" />
		<tag k="ssr:stedsnr" v="798363" />
		<tag k="water" v="lake" />
	</node>
	<node id="-149035" lat="61.1083888881" lon="9.64180832755">
		<tag k="name" v="Skyttarøddin" />
		<tag k="natural" v="cape" />
		<tag k="ssr:stedsnr" v="52619" />
	</node>
	<node id="-149034" lat="60.8275944418" lon="9.07988333195">
		<tag k="name" v="Øndehølen" />
		<tag k="natural" v="water" />
		<tag k="ssr:stedsnr" v="52600" />
		<tag k="water" v="lake" />
	</node>
	<node id="-151080" lat="60.9807499995" lon="9.25872500125">
		<tag k="alt_name" v="Tingnesøddin" />
		<tag k="name" v="Tingnesodden" />
		<tag k="natural" v="cape" />
		<tag k="ssr:stedsnr" v="798327" />
	</node>
	<node id="-149029" lat="61.0068361147" lon="9.39464444895">
		<tag k="name" v="Pilsetbekken" />
		<tag k="ssr:stedsnr" v="39940" />
		<tag k="waterway" v="stream" />
	</node>
	<node id="-149028" lat="61.0413500035" lon="9.41141665881">
		<tag k="name" v="Øvre Bjørnaskardstjernet" />
		<tag k="natural" v="water" />
		<tag k="old_name" v="Øvre Bjødnaskardstjednet" />
		<tag k="ssr:stedsnr" v="39873" />
	</node>
	<node id="-151073" lat="60.9608777783" lon="9.0088083357">
		<tag k="name" v="Nystøltjernet" />
		<tag k="natural" v="water" />
		<tag k="old_name" v="Nystøltjednet" />
		<tag k="ssr:stedsnr" v="798121" />
	</node>
	<node id="-151070" lat="60.9758027777" lon="9.08045832897">
		<tag k="name" v="Ryeelvi" />
		<tag k="ssr:stedsnr" v="798079" />
		<tag k="waterway" v="stream" />
	</node>
	<node id="-149021" lat="60.9808194432" lon="9.09769444413">
		<tag k="name" v="Ryeelve" />
		<tag k="ssr:stedsnr" v="39567" />
		<tag k="waterway" v="river" />
	</node>
	<node id="-151068" lat="60.8292499968" lon="9.31368334211">
		<tag k="alt_name" v="Åkersåne" />
		<tag k="name" v="Åkersåni" />
		<tag k="ssr:stedsnr" v="797848" />
		<tag k="waterway" v="stream" />
	</node>
	<node id="-151067" lat="60.8732055574" lon="9.40510833981">
		<tag k="name" v="Kjerringputten" />
		<tag k="natural" v="water" />
		<tag k="ssr:stedsnr" v="797719" />
	</node>
	<node id="-151065" lat="60.8705027818" lon="9.40111945023">
		<tag k="alt_name" v="Slettetjernet" />
		<tag k="name" v="Slettevatnet" />
		<tag k="natural" v="water" />
		<tag k="old_name" v="Slettetjednet" />
		<tag k="ssr:stedsnr" v="797700" />
	</node>
	<node id="-151062" lat="61.1145583313" lon="9.66911945055">
		<tag k="alt_name" v="Røssjøelve" />
		<tag k="name" v="Røssjøelvi" />
		<tag k="ssr:stedsnr" v="797673" />
		<tag k="waterway" v="stream" />
	</node>
	<node id="-151061" lat="60.8414027756" lon="9.24641111958">
		<tag k="name" v="Grønedokktjernet" />
		<tag k="natural" v="water" />
		<tag k="old_name" v="Grønedokktjednet" />
		<tag k="ssr:stedsnr" v="797665" />
	</node>
	<node id="-151060" lat="61.0245416696" lon="9.4066499929">
		<tag k="name" v="Skrivartjernet" />
		<tag k="natural" v="water" />
		<tag k="old_name" v="Skrivartjednet" />
		<tag k="ssr:stedsnr" v="797598" />
	</node>
	<node id="-149011" lat="61.02514444" lon="9.36778333883">
		<tag k="name" v="Tveitastølvadet" />
		<tag k="ssr:stedsnr" v="33614" />
		<tag k="waterway" v="stream" />
	</node>
	<node id="-151058" lat="61.0161500023" lon="9.28124999696">
		<tag k="alt_name" v="Kælken" />
		<tag k="name" v="Kalken" />
		<tag k="natural" v="water" />
		<tag k="ssr:stedsnr" v="797545" />
	</node>
	<node id="-151057" lat="61.012349999" lon="9.42894999349">
		<tag k="fixme" v="multiple name tags, choose one and add the other to alt_name" />
		<tag k="name" v="Smørlilangetjernet;Langetjernet" />
		<tag k="natural" v="water" />
		<tag k="old_name" v="Langetjednet" />
		<tag k="ssr:stedsnr" v="797540" />
	</node>
	<node id="-149002" lat="60.9654833294" lon="9.46104166077">
		<tag k="name" v="Kivostjernet" />
		<tag k="natural" v="water" />
		<tag k="old_name" v="Kivostjednet" />
		<tag k="ssr:stedsnr" v="9609" />
	</node>
	<node id="-151049" lat="61.0828583312" lon="9.42044444075">
		<tag k="alt_name" v="Valegrovtjernet, nordre" />
		<tag k="name" v="Nørdre Valegrovtjernet" />
		<tag k="natural" v="water" />
		<tag k="ssr:stedsnr" v="796911" />
	</node>
	<node id="-148998" lat="60.9413000008" lon="9.34706389071">
		<tag k="name" v="Røyrtjernet" />
		<tag k="natural" v="water" />
		<tag k="old_name" v="Røyrtjednet" />
		<tag k="ssr:stedsnr" v="9567" />
	</node>
	<node id="-151044" lat="61.0336888871" lon="9.35568334239">
		<tag k="name" v="Kruktjernet" />
		<tag k="natural" v="water" />
		<tag k="old_name" v="Kruktjednet" />
		<tag k="ssr:stedsnr" v="796568" />
	</node>
	<node id="-151042" lat="61.0263305535" lon="9.28501944064">
		<tag k="alt_name" v="Skørsfjorden" />
		<tag k="name" v="Storfjorden" />
		<tag k="natural" v="water" />
		<tag k="ssr:stedsnr" v="796560" />
	</node>
	<node id="-151039" lat="60.962475001" lon="9.43237778172">
		<tag k="name" v="Engetjernet" />
		<tag k="natural" v="water" />
		<tag k="old_name" v="Engitjednet" />
		<tag k="ssr:stedsnr" v="798562" />
	</node>
	<node id="-151033" lat="60.9364055515" lon="9.26731388035">
		<tag k="name" v="Sigridsettjernet" />
		<tag k="natural" v="water" />
		<tag k="ssr:stedsnr" v="798520" />
	</node>
	<node id="-151032" lat="60.9329361142" lon="9.35774721348">
		<tag k="alt_name" v="Hestøye" />
		<tag k="name" v="Hestøyi" />
		<tag k="place" v="islet" />
		<tag k="ssr:stedsnr" v="798517" />
	</node>
	<node id="-151030" lat="60.925611107" lon="9.28225833922">
		<tag k="name" v="Åbortjernet" />
		<tag k="natural" v="water" />
		<tag k="old_name" v="Øbbertjednet" />
		<tag k="ssr:stedsnr" v="798503" />
	</node>
	<node id="-148978" lat="60.9920666677" lon="9.29094167463">
		<tag k="name" v="Sustjernet" />
		<tag k="natural" v="water" />
		<tag k="old_name" v="Sustjednet" />
		<tag k="ssr:stedsnr" v="9302" />
	</node>
	<node id="-148975" lat="60.9544277736" lon="9.15216945001">
		<tag k="name" v="Geispa" />
		<tag k="ssr:stedsnr" v="9088" />
		<tag k="waterway" v="river" />
	</node>
	<node id="-148974" lat="60.9497277769" lon="9.00453888019">
		<tag k="name" v="Djupedalsbekken" />
		<tag k="ssr:stedsnr" v="9083" />
		<tag k="waterway" v="stream" />
	</node>
	<node id="-151021" lat="60.9546805532" lon="9.42507222871">
		<tag k="name" v="Svartetjernet" />
		<tag k="natural" v="water" />
		<tag k="old_name" v="Svartetjednet" />
		<tag k="ssr:stedsnr" v="786786" />
	</node>
	<node id="-151020" lat="60.9802722246" lon="9.33366944956">
		<tag k="name" v="Tørtaelve" />
		<tag k="ssr:stedsnr" v="786752" />
		<tag k="waterway" v="river" />
	</node>
	<node id="-148963" lat="60.8747416659" lon="9.30528610675">
		<tag k="name" v="Nysetbekken" />
		<tag k="ssr:stedsnr" v="8731" />
		<tag k="waterway" v="stream" />
	</node>
	<node id="-151008" lat="60.9672333332" lon="9.48513888676">
		<tag k="name" v="Robølsbekken" />
		<tag k="ssr:stedsnr" v="786519" />
		<tag k="waterway" v="stream" />
	</node>
	<node id="-148954" lat="61.1850583331" lon="9.46883889759">
		<tag k="name" v="Fullsenn" />
		<tag k="natural" v="water" />
		<tag k="old_name" v="Fullsennfjorden" />
		<tag k="ssr:stedsnr" v="7962" />
		<tag k="water" v="lake" />
	</node>
	<node id="-151001" lat="60.9433694415" lon="9.27176944251">
		<tag k="name" v="Puttatn" />
		<tag k="natural" v="water" />
		<tag k="ssr:stedsnr" v="786402" />
		<tag k="water" v="pond" />
	</node>
	<node id="-148952" lat="61.1485944443" lon="9.56300556165">
		<tag k="name" v="Ongletjernbekken" />
		<tag k="old_name" v="Ongletjednbekken" />
		<tag k="ssr:stedsnr" v="7926" />
		<tag k="waterway" v="stream" />
	</node>
	<node id="-148951" lat="61.1299555547" lon="9.48922778144">
		<tag k="fixme" v="multiple name tags, choose one and add the other to alt_name" />
		<tag k="name" v="Foldatjerne;Kvannetjernet" />
		<tag k="natural" v="water" />
		<tag k="old_name" v="Kvannetjednet" />
		<tag k="ssr:stedsnr" v="7924" />
		<tag k="water" v="lake" />
	</node>
	<node id="-150998" lat="60.9488305598" lon="9.30723889531">
		<tag k="name" v="Storsøye" />
		<tag k="place" v="islet" />
		<tag k="ssr:stedsnr" v="786383" />
	</node>
	<node id="-148948" lat="61.0819388908" lon="9.34975000057">
		<tag k="name" v="Haugerudtjernet" />
		<tag k="natural" v="water" />
		<tag k="ssr:stedsnr" v="7896" />
	</node>
	<node id="-150995" lat="60.9389416626" lon="9.32469444357">
		<tag k="name" v="Størrøddin" />
		<tag k="natural" v="cape" />
		<tag k="ssr:stedsnr" v="786367" />
	</node>
	<node id="-148946" lat="61.0688583301" lon="9.28618610982">
		<tag k="name" v="Skardåstjerne" />
		<tag k="natural" v="water" />
		<tag k="old_name" v="Skardåstjernet;Skardåstjednet" />
		<tag k="ssr:stedsnr" v="7880" />
		<tag k="water" v="lake" />
	</node>
	<node id="-148945" lat="61.0633250038" lon="9.34495278653">
		<tag k="name" v="Grøslitjernet" />
		<tag k="natural" v="water" />
		<tag k="old_name" v="Grøslitjednet" />
		<tag k="ssr:stedsnr" v="7877" />
	</node>
	<node id="-150989" lat="60.9627805556" lon="9.30892499758">
		<tag k="name" v="Brustogoelve" />
		<tag k="ssr:stedsnr" v="786341" />
		<tag k="waterway" v="stream" />
	</node>
	<node id="-150981" lat="61.0809916696" lon="9.43074999266">
		<tag k="name" v="Valegrovtjerne" />
		<tag k="natural" v="water" />
		<tag k="old_name" v="Valegrovtjedna" />
		<tag k="ssr:stedsnr" v="786223" />
		<tag k="water" v="lake" />
	</node>
	<node id="-150971" lat="60.9074500045" lon="9.27511389207">
		<tag k="name" v="Bjødnabekken" />
		<tag k="ssr:stedsnr" v="784942" />
		<tag k="waterway" v="stream" />
	</node>
	<node id="-150970" lat="60.9066666629" lon="9.28884166669">
		<tag k="name" v="Mønaevjo" />
		<tag k="natural" v="water" />
		<tag k="ssr:stedsnr" v="784938" />
		<tag k="water" v="lake" />
	</node>
	<node id="-150967" lat="60.8986333301" lon="9.29639999076">
		<tag k="name" v="Endrebekken" />
		<tag k="ssr:stedsnr" v="784895" />
		<tag k="waterway" v="stream" />
	</node>
	<node id="-150966" lat="60.8073250013" lon="9.23773611631">
		<tag k="name" v="Åborputten" />
		<tag k="natural" v="bay" />
		<tag k="old_name" v="Øbberputten" />
		<tag k="ssr:stedsnr" v="784827" />
	</node>
	<node id="-150965" lat="60.8090749978" lon="9.252508338">
		<tag k="name" v="Kassyndet" />
		<tag k="natural" v="strait" />
		<tag k="ssr:stedsnr" v="784818" />
	</node>
	<node id="-150962" lat="60.8451166683" lon="9.33732221875">
		<tag k="name" v="Eivassbekkosen" />
		<tag k="natural" v="bay" />
		<tag k="ssr:stedsnr" v="784210" />
	</node>
	<node id="-150960" lat="60.9083805539" lon="9.46518056306">
		<tag k="name" v="Øygardselve" />
		<tag k="ssr:stedsnr" v="784007" />
		<tag k="waterway" v="river" />
	</node>
	<node id="-148911" lat="61.067052781" lon="9.3379194497">
		<tag k="name" v="Nustadbekken" />
		<tag k="ssr:stedsnr" v="889737" />
		<tag k="waterway" v="stream" />
	</node>
	<node id="-148907" lat="60.9842222197" lon="9.17116111677">
		<tag k="name" v="Sislebekken" />
		<tag k="ssr:stedsnr" v="889608" />
		<tag k="waterway" v="stream" />
	</node>
	<node id="-150954" lat="60.8732361131" lon="9.25592499284">
		<tag k="name" v="Vestre Ågreine" />
		<tag k="natural" v="strait" />
		<tag k="ssr:stedsnr" v="782578" />
	</node>
	<node id="-150950" lat="60.9060527821" lon="9.41682776881">
		<tag k="name" v="Søreisyndet" />
		<tag k="natural" v="strait" />
		<tag k="ssr:stedsnr" v="782061" />
	</node>
	<node id="-148900" lat="61.0454638864" lon="9.34337221544">
		<tag k="name" v="Skørvadn" />
		<tag k="natural" v="water" />
		<tag k="ssr:stedsnr" v="889459" />
	</node>
	<node id="-148899" lat="61.0361361072" lon="9.39295277925">
		<tag k="name" v="Rundtupp" />
		<tag k="natural" v="water" />
		<tag k="ssr:stedsnr" v="889448" />
	</node>
	<node id="-149403" lat="61.0699583327" lon="9.36624444962">
		<tag k="name" v="Urdstøltjernet" />
		<tag k="natural" v="water" />
		<tag k="old_name" v="Urdstøltjednet" />
		<tag k="ssr:stedsnr" v="160713" />
	</node>
	<node id="-148894" lat="61.0239555583" lon="9.18690000865">
		<tag k="name" v="Kattevike" />
		<tag k="natural" v="bay" />
		<tag k="ssr:stedsnr" v="889032" />
	</node>
	<node id="-148892" lat="61.0703166659" lon="9.26083610776">
		<tag k="name" v="Tostølstjernet" />
		<tag k="natural" v="water" />
		<tag k="old_name" v="Tostølstjednet" />
		<tag k="ssr:stedsnr" v="479073" />
	</node>
	<node id="-148890" lat="61.0734166699" lon="9.33256111902">
		<tag k="name" v="Nustadbekken" />
		<tag k="ssr:stedsnr" v="479069" />
		<tag k="waterway" v="stream" />
	</node>
	<node id="-150933" lat="60.9326500031" lon="9.14981389713">
		<tag k="name" v="Ænadn" />
		<tag k="ssr:stedsnr" v="781116" />
		<tag k="waterway" v="stream" />
	</node>
	<node id="-150931" lat="61.1130333292" lon="9.62210278196">
		<tag k="name" v="Stubben" />
		<tag k="natural" v="strait" />
		<tag k="ssr:stedsnr" v="780571" />
	</node>
	<node id="-148880" lat="60.9309500038" lon="9.14617222852">
		<tag k="name" v="Nørdreåne" />
		<tag k="ssr:stedsnr" v="478084" />
		<tag k="waterway" v="stream" />
	</node>
	<node id="-148873" lat="60.8911249972" lon="8.93655833506">
		<tag k="name" v="Uletjernet" />
		<tag k="natural" v="water" />
		<tag k="old_name" v="Uletjednet" />
		<tag k="ssr:stedsnr" v="477706" />
	</node>
	<node id="-148872" lat="60.9640277742" lon="8.97414445212">
		<tag k="name" v="Langevatnet" />
		<tag k="natural" v="water" />
		<tag k="ssr:stedsnr" v="477614" />
	</node>
	<node id="-148864" lat="60.9831638889" lon="9.10799444248">
		<tag k="name" v="Ryesanden" />
		<tag k="natural" v="cape" />
		<tag k="ssr:stedsnr" v="403606" />
	</node>
	<node id="-150906" lat="60.9596111106" lon="9.36745000349">
		<tag k="name" v="Svartetjernet" />
		<tag k="natural" v="water" />
		<tag k="old_name" v="Svartetjednet" />
		<tag k="ssr:stedsnr" v="737602" />
	</node>
	<node id="-150905" lat="60.95920557" lon="9.38643997688">
		<tag k="name" v="Kvitingen" />
		<tag k="natural" v="water" />
		<tag k="ssr:stedsnr" v="737600" />
		<tag k="water" v="lake" />
	</node>
	<node id="-148856" lat="60.91340278" lon="9.51634444606">
		<tag k="alt_name" v="Rotvatnet, øvre" />
		<tag k="name" v="Øvre Rotvatnet" />
		<tag k="natural" v="water" />
		<tag k="ssr:stedsnr" v="373739" />
	</node>
	<node id="-148845" lat="60.931383336" lon="9.44521666481">
		<tag k="name" v="Rudstøltjernet" />
		<tag k="natural" v="water" />
		<tag k="old_name" v="Rudstøltjednet" />
		<tag k="ssr:stedsnr" v="373555" />
	</node>
	<node id="-148843" lat="60.9298277773" lon="9.49259165956">
		<tag k="name" v="Kringletjernet" />
		<tag k="natural" v="water" />
		<tag k="ssr:stedsnr" v="373545" />
	</node>
	<node id="-148839" lat="60.9212638855" lon="9.37790554934">
		<tag k="name" v="Hagatjernet" />
		<tag k="natural" v="water" />
		<tag k="old_name" v="Hagatjednet" />
		<tag k="ssr:stedsnr" v="373519" />
	</node>
	<node id="-150885" lat="60.9900111083" lon="9.22462499834">
		<tag k="alt_name" v="Neselve" />
		<tag k="name" v="Neselvi" />
		<tag k="ssr:stedsnr" v="737295" />
		<tag k="waterway" v="river" />
	</node>
	<node id="-148836" lat="60.8834083939" lon="9.00075169534">
		<tag k="alt_name" v="Tindulvtjerni, litle;Litle Tindulvtjerni" />
		<tag k="name" v="Vesle Tindulvtjernet" />
		<tag k="natural" v="water" />
		<tag k="old_name" v="Vesle Tindulvtjednet" />
		<tag k="ssr:stedsnr" v="373443" />
		<tag k="water" v="lake" />
	</node>
	<node id="-148710" lat="60.9634750001" lon="9.18353334178">
		<tag k="name" v="Solbjørghølen" />
		<tag k="place" v="locality" />
		<tag k="ssr:stedsnr" v="359472" />
	</node>
	<node id="-148833" lat="60.9306222237" lon="9.00130834105">
		<tag k="name" v="Storrtjern" />
		<tag k="natural" v="water" />
		<tag k="ssr:stedsnr" v="373405" />
	</node>
	<node id="-148831" lat="60.9027222205" lon="8.90346665963">
		<tag k="alt_name" v="Revulentjerni" />
		<tag k="name" v="Revulentjerne" />
		<tag k="natural" v="water" />
		<tag k="ssr:stedsnr" v="373380" />
		<tag k="water" v="lake" />
	</node>
	<node id="-148830" lat="60.9274666712" lon="9.19920833933">
		<tag k="alt_name" v="Krøssåne" />
		<tag k="name" v="Krossåni" />
		<tag k="ssr:stedsnr" v="373369" />
		<tag k="waterway" v="stream" />
	</node>
	<node id="-148828" lat="60.964286112" lon="8.97214721753">
		<tag k="name" v="Langevatnet" />
		<tag k="natural" v="water" />
		<tag k="ssr:stedsnr" v="373091" />
	</node>
	<node id="-150875" lat="60.8716888913" lon="9.5062055544">
		<tag k="name" v="Rakatjernet" />
		<tag k="natural" v="water" />
		<tag k="ssr:stedsnr" v="736705" />
	</node>
	<node id="-148825" lat="60.9774300095" lon="9.15373966368">
		<tag k="alt_name" v="Kattøye" />
		<tag k="name" v="Kattøyni" />
		<tag k="place" v="islet" />
		<tag k="ssr:stedsnr" v="373066" />
	</node>
	<node id="-150867" lat="61.0285055525" lon="9.24899444097">
		<tag k="name" v="Leirtjernbekken" />
		<tag k="ssr:stedsnr" v="736560" />
		<tag k="waterway" v="stream" />
	</node>
	<node id="-148816" lat="60.8804916648" lon="9.34178055046">
		<tag k="name" v="Kranketjernet" />
		<tag k="natural" v="water" />
		<tag k="old_name" v="Kranketjednet" />
		<tag k="ssr:stedsnr" v="372710" />
	</node>
	<node id="-148807" lat="61.1904555579" lon="9.44371667417">
		<tag k="name" v="Raudodden" />
		<tag k="natural" v="cape" />
		<tag k="ssr:stedsnr" v="371978" />
	</node>
	<node id="-148806" lat="61.1733250014" lon="9.59737499185">
		<tag k="name" v="Tapptjerne" />
		<tag k="natural" v="water" />
		<tag k="ssr:stedsnr" v="371964" />
		<tag k="water" v="lake" />
	</node>
	<node id="-148804" lat="61.1464555583" lon="9.49581388695">
		<tag k="name" v="Fullmjøen" />
		<tag k="natural" v="water" />
		<tag k="ssr:stedsnr" v="371933" />
		<tag k="water" v="lake" />
	</node>
	<node id="-148802" lat="61.0782250028" lon="9.39875277254">
		<tag k="alt_name" v="Putteskardtjernet" />
		<tag k="name" v="Putteskåltjernet" />
		<tag k="natural" v="water" />
		<tag k="old_name" v="Putteskåltjednet" />
		<tag k="ssr:stedsnr" v="371886" />
	</node>
	<node id="-148800" lat="61.0019916674" lon="9.0287499932">
		<tag k="alt_name" v="Syndeiselve" />
		<tag k="fixme" v="multiple name tags, choose one and add the other to alt_name" />
		<tag k="name" v="Sundheimselvi;Vasetåne" />
		<tag k="ssr:stedsnr" v="371770" />
		<tag k="waterway" v="river" />
	</node>
	<node id="-150847" lat="60.7897472187" lon="9.26069444073">
		<tag k="name" v="Fjelltjernbekken" />
		<tag k="old_name" v="Fjelltjednbekken" />
		<tag k="ssr:stedsnr" v="726728" />
		<tag k="waterway" v="stream" />
	</node>
	<node id="-148797" lat="61.04765833" lon="9.29908056082">
		<tag k="name" v="Neversetbekken" />
		<tag k="ssr:stedsnr" v="371611" />
		<tag k="waterway" v="stream" />
	</node>
	<node id="-148796" lat="61.0420444476" lon="9.2704611166">
		<tag k="name" v="Grytaelvi" />
		<tag k="ssr:stedsnr" v="371606" />
		<tag k="waterway" v="stream" />
	</node>
	<node id="-150843" lat="60.9472638883" lon="9.33888056141">
		<tag k="name" v="Odneputtatn" />
		<tag k="natural" v="water" />
		<tag k="ssr:stedsnr" v="726602" />
		<tag k="water" v="pond" />
	</node>
	<node id="-148791" lat="60.9638083302" lon="9.44480832836">
		<tag k="name" v="Surtetjernet" />
		<tag k="natural" v="water" />
		<tag k="old_name" v="Surtetjednet" />
		<tag k="ssr:stedsnr" v="361887" />
	</node>
	<node id="-150837" lat="61.0124388917" lon="9.29975277573">
		<tag k="name" v="Steinfinntjernet" />
		<tag k="natural" v="water" />
		<tag k="old_name" v="Steinfinntjednet" />
		<tag k="ssr:stedsnr" v="726520" />
	</node>
	<node id="-148788" lat="61.1168777792" lon="9.56871389425">
		<tag k="name" v="Killingøyatn" />
		<tag k="place" v="island" />
		<tag k="ssr:stedsnr" v="361862" />
	</node>
	<node id="-148787" lat="60.8786249989" lon="9.47334999608">
		<tag k="name" v="Storkastrenna" />
		<tag k="place" v="locality" />
		<tag k="ssr:stedsnr" v="361828" />
	</node>
	<node id="-150834" lat="60.9648555538" lon="9.48744723131">
		<tag k="name" v="Kattetjernet" />
		<tag k="natural" v="water" />
		<tag k="old_name" v="Kattetjednet" />
		<tag k="ssr:stedsnr" v="726513" />
	</node>
	<node id="-148785" lat="60.9633666682" lon="9.44051666293">
		<tag k="name" v="Engiosen" />
		<tag k="natural" v="bay" />
		<tag k="ssr:stedsnr" v="361822" />
	</node>
	<node id="-150830" lat="60.9399583308" lon="9.31998056419">
		<tag k="name" v="Svarthølen" />
		<tag k="natural" v="strait" />
		<tag k="ssr:stedsnr" v="726396" />
	</node>
	<node id="-148781" lat="60.9895750024" lon="9.38027222301">
		<tag k="name" v="Røvstjernet" />
		<tag k="natural" v="water" />
		<tag k="old_name" v="Røvstjednet" />
		<tag k="ssr:stedsnr" v="361763" />
	</node>
	<node id="-148780" lat="60.7922111104" lon="9.26372777113">
		<tag k="name" v="Fjelltjernet" />
		<tag k="natural" v="water" />
		<tag k="old_name" v="Fjelltjednet" />
		<tag k="ssr:stedsnr" v="361746" />
	</node>
	<node id="-148774" lat="60.9506944452" lon="9.14353054767">
		<tag k="name" v="Stutebekken" />
		<tag k="ssr:stedsnr" v="361623" />
		<tag k="waterway" v="stream" />
	</node>
	<node id="-150818" lat="61.1382749999" lon="9.66436389692">
		<tag k="name" v="Djuptjernbekken" />
		<tag k="old_name" v="Djuptjednbekken" />
		<tag k="ssr:stedsnr" v="725821" />
		<tag k="waterway" v="stream" />
	</node>
	<node id="-148769" lat="60.9171861095" lon="9.29819444591">
		<tag k="name" v="Kvannefossen" />
		<tag k="natural" v="waterfall" />
		<tag k="ssr:stedsnr" v="361590" />
	</node>
	<node id="-150816" lat="60.8827888877" lon="9.47694722901">
		<tag k="name" v="Vesleelve" />
		<tag k="ssr:stedsnr" v="725794" />
		<tag k="waterway" v="river" />
	</node>
	<node id="-150814" lat="60.9262555515" lon="9.30973332959">
		<tag k="name" v="Leirhølle" />
		<tag k="natural" v="water" />
		<tag k="ssr:stedsnr" v="725533" />
		<tag k="water" v="lake" />
	</node>
	<node id="-150812" lat="61.0303444464" lon="9.43435555208">
		<tag k="name" v="Jutulstølelve" />
		<tag k="ssr:stedsnr" v="725514" />
		<tag k="waterway" v="river" />
	</node>
	<node id="-150805" lat="60.9573638864" lon="9.3013222288">
		<tag k="name" v="Fiskarberget" />
		<tag k="natural" v="cape" />
		<tag k="ssr:stedsnr" v="725319" />
	</node>
	<node id="-150804" lat="60.9594916646" lon="9.30241111165">
		<tag k="name" v="Håiselve" />
		<tag k="ssr:stedsnr" v="725317" />
		<tag k="waterway" v="river" />
	</node>
	<node id="-150794" lat="60.9865916632" lon="9.49755834175">
		<tag k="name" v="Fetjasetelve" />
		<tag k="ssr:stedsnr" v="725042" />
		<tag k="waterway" v="river" />
	</node>
	<node id="-150789" lat="60.8094388347" lon="9.22776212072">
		<tag k="name" v="Ådnevike" />
		<tag k="natural" v="bay" />
		<tag k="ssr:stedsnr" v="724817" />
	</node>
	<node id="-148739" lat="60.9913916641" lon="9.29700277522">
		<tag k="name" v="Garlivadet" />
		<tag k="natural" v="strait" />
		<tag k="ssr:stedsnr" v="361313" />
	</node>
	<node id="-148733" lat="61.0042222202" lon="9.10277499446">
		<tag k="name" v="Belgjisøye" />
		<tag k="place" v="islet" />
		<tag k="ssr:stedsnr" v="361178" />
	</node>
	<node id="-148732" lat="61.006358332" lon="9.10318888826">
		<tag k="name" v="Øddeberget" />
		<tag k="natural" v="cape" />
		<tag k="ssr:stedsnr" v="361177" />
	</node>
	<node id="-148731" lat="60.9655499979" lon="9.37413054818">
		<tag k="name" v="Frøskebekken" />
		<tag k="ssr:stedsnr" v="361176" />
		<tag k="waterway" v="stream" />
	</node>
	<node id="-148730" lat="61.0009611087" lon="9.15220833385">
		<tag k="name" v="Mollestadbekken" />
		<tag k="ssr:stedsnr" v="361164" />
		<tag k="waterway" v="stream" />
	</node>
	<node id="-149375" lat="60.9276333304" lon="9.01505278613">
		<tag k="fixme" v="multiple name tags, choose one and add the other to alt_name" />
		<tag k="name" v="Gråbeintjernet;Rundtjern" />
		<tag k="natural" v="water" />
		<tag k="old_name" v="Gråbeintjednet" />
		<tag k="ssr:stedsnr" v="130348" />
	</node>
	<node id="-150774" lat="61.1930444478" lon="9.44432777966">
		<tag k="name" v="Ranøddadn" />
		<tag k="natural" v="cape" />
		<tag k="ssr:stedsnr" v="722423" />
	</node>
	<node id="-148719" lat="60.9022638905" lon="9.35396111681">
		<tag k="name" v="Ørmetjernet" />
		<tag k="natural" v="water" />
		<tag k="old_name" v="Ørmetjednet" />
		<tag k="ssr:stedsnr" v="360710" />
	</node>
	<node id="-148712" lat="60.802633906" lon="9.21539945196">
		<tag k="name" v="Hallingvike" />
		<tag k="natural" v="bay" />
		<tag k="ssr:stedsnr" v="359788" />
	</node>
	<node id="-150758" lat="60.9014972267" lon="9.18614443951">
		<tag k="name" v="Kinnetjernet" />
		<tag k="natural" v="water" />
		<tag k="old_name" v="Kinnetjednet" />
		<tag k="ssr:stedsnr" v="721025" />
	</node>
	<node id="-150756" lat="60.9259749963" lon="9.20711388205">
		<tag k="name" v="Moatjetnet" />
		<tag k="natural" v="water" />
		<tag k="old_name" v="Moatjednet" />
		<tag k="ssr:stedsnr" v="721005" />
	</node>
	<node id="-148705" lat="61.003591664" lon="9.50089445041">
		<tag k="name" v="Slettabekken" />
		<tag k="ssr:stedsnr" v="358451" />
		<tag k="waterway" v="stream" />
	</node>
	<node id="-150752" lat="60.9625000044" lon="9.06264166961">
		<tag k="name" v="Åsdokke" />
		<tag k="ssr:stedsnr" v="720584" />
		<tag k="waterway" v="stream" />
	</node>
	<node id="-150751" lat="60.891497221" lon="8.9802666736">
		<tag k="name" v="Midtbekk" />
		<tag k="ssr:stedsnr" v="720176" />
		<tag k="waterway" v="stream" />
	</node>
	<node id="-150748" lat="60.8870388874" lon="9.06241943659">
		<tag k="name" v="Tøppolbekken" />
		<tag k="ssr:stedsnr" v="720109" />
		<tag k="waterway" v="stream" />
	</node>
	<node id="-148687" lat="60.8269611087" lon="9.0904749939">
		<tag k="name" v="Ryefossen" />
		<tag k="natural" v="waterfall" />
		<tag k="ssr:stedsnr" v="356632" />
	</node>
	<node id="-150744" lat="61.0445777806" lon="9.3533611155">
		<tag k="name" v="Hølstøltjernet" />
		<tag k="natural" v="water" />
		<tag k="old_name" v="Hølstøltjednet" />
		<tag k="ssr:stedsnr" v="707476" />
	</node>
	<node id="-150741" lat="60.9394750033" lon="9.48441944774">
		<tag k="name" v="Vesleividalsvatnet" />
		<tag k="natural" v="water" />
		<tag k="ssr:stedsnr" v="706335" />
	</node>
	<node id="-148692" lat="60.9342777803" lon="9.02088611212">
		<tag k="name" v="Fjellstølbekken" />
		<tag k="ssr:stedsnr" v="356945" />
		<tag k="waterway" v="stream" />
	</node>
	<node id="-148691" lat="60.9201416631" lon="9.20027221463">
		<tag k="name" v="Kinnebekken" />
		<tag k="ssr:stedsnr" v="356922" />
		<tag k="waterway" v="stream" />
	</node>
	<node id="-150737" lat="61.0616083344" lon="9.35316110922">
		<tag k="name" v="Fantetjernet" />
		<tag k="natural" v="water" />
		<tag k="old_name" v="Fantetjednet" />
		<tag k="ssr:stedsnr" v="707784" />
	</node>
	<node id="-150736" lat="61.058236111" lon="9.36203333216">
		<tag k="name" v="Dalselve" />
		<tag k="ssr:stedsnr" v="707760" />
		<tag k="waterway" v="river" />
	</node>
	<node id="-150735" lat="61.0503777755" lon="9.1940333348">
		<tag k="name" v="Ljøsenghaugtjernet" />
		<tag k="natural" v="water" />
		<tag k="old_name" v="Ljøsenghaugtjednet" />
		<tag k="ssr:stedsnr" v="693803" />
	</node>
	<node id="-150734" lat="60.8930666625" lon="9.38481667361">
		<tag k="name" v="Kyrtjernet" />
		<tag k="natural" v="water" />
		<tag k="old_name" v="Kyrtjednet" />
		<tag k="ssr:stedsnr" v="677730" />
	</node>
	<node id="-148685" lat="60.8800055599" lon="9.06901944113">
		<tag k="name" v="Hagatjernet" />
		<tag k="natural" v="water" />
		<tag k="old_name" v="Hagatjednet" />
		<tag k="ssr:stedsnr" v="356288" />
	</node>
	<node id="-150731" lat="60.9465500028" lon="9.4522777723">
		<tag k="alt_name" v="Freningen" />
		<tag k="name" v="Fræningen" />
		<tag k="natural" v="water" />
		<tag k="ssr:stedsnr" v="677593" />
	</node>
	<node id="-150730" lat="60.9471499986" lon="9.48396111573">
		<tag k="name" v="Ragnhildtjernet" />
		<tag k="natural" v="water" />
		<tag k="old_name" v="Ragnhildtjednet" />
		<tag k="ssr:stedsnr" v="677589" />
	</node>
	<node id="-150725" lat="60.9033666706" lon="9.15393332461">
		<tag k="name" v="Kroktjern" />
		<tag k="natural" v="water" />
		<tag k="ssr:stedsnr" v="677364" />
	</node>
	<node id="-148675" lat="61.0609416696" lon="9.39572499394">
		<tag k="name" v="Stavsengelve" />
		<tag k="ssr:stedsnr" v="342766" />
		<tag k="waterway" v="river" />
	</node>
	<node id="-148674" lat="61.1207194472" lon="9.50541944474">
		<tag k="name" v="Lomstjernet" />
		<tag k="natural" v="water" />
		<tag k="old_name" v="Lomstjednet" />
		<tag k="ssr:stedsnr" v="342750" />
	</node>
	<node id="-148663" lat="60.9493000023" lon="9.47934721381">
		<tag k="loc_name" v="Veslefræningen" />
		<tag k="name" v="Veslefreningen" />
		<tag k="natural" v="water" />
		<tag k="ssr:stedsnr" v="342236" />
	</node>
	<node id="-149022" lat="61.077199998" lon="9.34013888235">
		<tag k="name" v="Nedre Haugrudtjernet" />
		<tag k="natural" v="water" />
		<tag k="old_name" v="Nedre Haugrudtjednet" />
		<tag k="ssr:stedsnr" v="39687" />
	</node>
	<node id="-148654" lat="60.9071888933" lon="9.41229167457">
		<tag k="alt_name" v="Pøllavike" />
		<tag k="name" v="Polleviki" />
		<tag k="natural" v="bay" />
		<tag k="ssr:stedsnr" v="313752" />
	</node>
	<node id="-148652" lat="60.9103000034" lon="9.50193333469">
		<tag k="alt_name" v="Fetatjørnane" />
		<tag k="name" v="Fetatjerne" />
		<tag k="natural" v="water" />
		<tag k="old_name" v="Fetatjedne" />
		<tag k="ssr:stedsnr" v="313743" />
		<tag k="water" v="lake" />
	</node>
	<node id="-150699" lat="60.982897218" lon="9.39711388398">
		<tag k="name" v="Størrtjernet" />
		<tag k="natural" v="water" />
		<tag k="ssr:stedsnr" v="676368" />
	</node>
	<node id="-150698" lat="60.9884750043" lon="9.43243056399">
		<tag k="alt_name" v="Kalvetjernet, austre" />
		<tag k="name" v="Øystre Kalvetjernet" />
		<tag k="natural" v="water" />
		<tag k="old_name" v="Øystre Kælvetjednet" />
		<tag k="ssr:stedsnr" v="676366" />
	</node>
	<node id="-148648" lat="60.9417777814" lon="9.2372777811">
		<tag k="name" v="Heimstøltjernet" />
		<tag k="natural" v="water" />
		<tag k="old_name" v="Heimstøltjednet" />
		<tag k="ssr:stedsnr" v="313581" />
	</node>
	<node id="-148643" lat="60.9728888924" lon="8.97518889258">
		<tag k="name" v="Sauhølen" />
		<tag k="natural" v="water" />
		<tag k="ssr:stedsnr" v="313111" />
	</node>
	<node id="-150683" lat="61.0124180996" lon="9.3323839935">
		<tag k="name" v="Sørhelltjernet" />
		<tag k="natural" v="water" />
		<tag k="old_name" v="Sørhelltjednet" />
		<tag k="ssr:stedsnr" v="675551" />
	</node>
	<node id="-150682" lat="61.0152138844" lon="9.37795278645">
		<tag k="name" v="Smørlitjernet" />
		<tag k="natural" v="water" />
		<tag k="old_name" v="Smørlitjednet" />
		<tag k="ssr:stedsnr" v="675549" />
	</node>
	<node id="-148632" lat="60.8805944446" lon="9.54183055206">
		<tag k="name" v="Øytjernet" />
		<tag k="natural" v="water" />
		<tag k="old_name" v="Øytjednet" />
		<tag k="ssr:stedsnr" v="312654" />
	</node>
	<node id="-150677" lat="61.0769111077" lon="9.42755832478">
		<tag k="name" v="Skjenartjernet" />
		<tag k="natural" v="water" />
		<tag k="old_name" v="Skjenartjednet" />
		<tag k="ssr:stedsnr" v="674870" />
	</node>
	<node id="-150675" lat="60.9371499962" lon="9.33753611878">
		<tag k="name" v="Fossnes" />
		<tag k="natural" v="cape" />
		<tag k="ssr:stedsnr" v="665852" />
	</node>
	<node id="-148622" lat="60.9193361145" lon="9.08518332921">
		<tag k="name" v="Haugatjern" />
		<tag k="natural" v="water" />
		<tag k="old_name" v="Haugatjednet" />
		<tag k="ssr:stedsnr" v="312357" />
	</node>
	<node id="-148617" lat="61.1208138917" lon="9.66269165946">
		<tag k="name" v="Osihaugputten" />
		<tag k="natural" v="water" />
		<tag k="ssr:stedsnr" v="311760" />
	</node>
	<node id="-150663" lat="60.8885083353" lon="9.24055278322">
		<tag k="name" v="Sandebekken" />
		<tag k="ssr:stedsnr" v="665515" />
		<tag k="waterway" v="stream" />
	</node>
	<node id="-150662" lat="60.9302972255" lon="9.37220555294">
		<tag k="name" v="Timannsøddin" />
		<tag k="natural" v="cape" />
		<tag k="ssr:stedsnr" v="665454" />
	</node>
	<node id="-150659" lat="61.0191194422" lon="9.29903888988">
		<tag k="name" v="Brukaøye" />
		<tag k="place" v="island" />
		<tag k="ssr:stedsnr" v="665415" />
	</node>
	<node id="-150657" lat="61.0176888923" lon="9.30152222355">
		<tag k="name" v="Kråkesundet" />
		<tag k="natural" v="strait" />
		<tag k="ssr:stedsnr" v="665408" />
	</node>
	<node id="-148607" lat="61.0432916627" lon="9.33468054894">
		<tag k="name" v="Tronstjernet" />
		<tag k="natural" v="water" />
		<tag k="old_name" v="Trondstjednet" />
		<tag k="ssr:stedsnr" v="311601" />
	</node>
	<node id="-148600" lat="61.1760361092" lon="9.53811112005">
		<tag k="name" v="Svartetjern" />
		<tag k="natural" v="water" />
		<tag k="old_name" v="Heimre Steintjernet;Svartetjedn" />
		<tag k="ssr:stedsnr" v="310967" />
	</node>
	<node id="-148598" lat="61.0701388914" lon="9.37428610558">
		<tag k="alt_name" v="Dalsåne" />
		<tag k="name" v="Dalselvi" />
		<tag k="ssr:stedsnr" v="310879" />
		<tag k="waterway" v="stream" />
	</node>
	<node id="-150641" lat="60.9903222201" lon="9.38346111045">
		<tag k="name" v="Øvre Røvstjernet" />
		<tag k="natural" v="water" />
		<tag k="old_name" v="Øvre Røvstjednet" />
		<tag k="ssr:stedsnr" v="664747" />
	</node>
	<node id="-148592" lat="61.0138138921" lon="9.15076667178">
		<tag k="name" v="Gøestjernet" />
		<tag k="natural" v="water" />
		<tag k="old_name" v="Gøestjednet" />
		<tag k="ssr:stedsnr" v="310769" />
	</node>
	<node id="-150636" lat="60.920841663" lon="9.29717777194">
		<tag k="name" v="Høgefossen" />
		<tag k="natural" v="waterfall" />
		<tag k="ssr:stedsnr" v="664559" />
	</node>
	<node id="-150635" lat="60.9210988585" lon="9.29666441206">
		<tag k="name" v="Høgeføssevjo" />
		<tag k="place" v="locality" />
		<tag k="ssr:stedsnr" v="664553" />
	</node>
	<node id="-150634" lat="60.9128305598" lon="9.29114721979">
		<tag k="name" v="Krøssånøyevjo" />
		<tag k="natural" v="water" />
		<tag k="ssr:stedsnr" v="664541" />
		<tag k="water" v="lake" />
	</node>
	<node id="-148585" lat="60.9672249959" lon="9.4411972216">
		<tag k="name" v="Rundemyre" />
		<tag k="natural" v="water" />
		<tag k="ssr:stedsnr" v="301867" />
	</node>
	<node id="-148584" lat="60.9537777815" lon="9.42910277255">
		<tag k="name" v="Fekelputten" />
		<tag k="natural" v="water" />
		<tag k="ssr:stedsnr" v="301789" />
	</node>
	<node id="-148582" lat="60.9319249995" lon="9.35473332713">
		<tag k="name" v="Veilatn" />
		<tag k="natural" v="strait" />
		<tag k="ssr:stedsnr" v="301585" />
	</node>
	<node id="-149009" lat="60.806916666" lon="9.30154166247">
		<tag k="name" v="Haugsjøen" />
		<tag k="natural" v="water" />
		<tag k="ssr:stedsnr" v="9808" />
	</node>
	<node id="-150627" lat="61.0270888892" lon="9.30131667338">
		<tag k="name" v="Stølsfjorden" />
		<tag k="place" v="locality" />
		<tag k="ssr:stedsnr" v="664364" />
	</node>
	<node id="-150624" lat="60.9645583344" lon="9.30050278315">
		<tag k="name" v="Fjøshølen" />
		<tag k="natural" v="water" />
		<tag k="ssr:stedsnr" v="664316" />
		<tag k="water" v="lake" />
	</node>
	<node id="-150623" lat="60.9690138845" lon="9.27378055222">
		<tag k="loc_name" v="Førsodden" />
		<tag k="name" v="Førsøddin" />
		<tag k="natural" v="cape" />
		<tag k="ssr:stedsnr" v="664308" />
	</node>
	<node id="-148571" lat="60.9489166668" lon="9.30548611558">
		<tag k="name" v="Dråpsyndet" />
		<tag k="natural" v="strait" />
		<tag k="ssr:stedsnr" v="301356" />
	</node>
	<node id="-148569" lat="61.0202666712" lon="9.32800277703">
		<tag k="name" v="Nystølelve" />
		<tag k="ssr:stedsnr" v="301334" />
		<tag k="waterway" v="river" />
	</node>
	<node id="-148564" lat="60.9577805566" lon="9.38761111115">
		<tag k="name" v="Tangadn" />
		<tag k="natural" v="cape" />
		<tag k="old_name" v="Tangaden" />
		<tag k="ssr:stedsnr" v="301240" />
	</node>
	<node id="-148561" lat="60.966755554" lon="9.37002500349">
		<tag k="name" v="Åborputten" />
		<tag k="natural" v="water" />
		<tag k="old_name" v="Øbberputten" />
		<tag k="ssr:stedsnr" v="301155" />
		<tag k="water" v="pond" />
	</node>
	<node id="-150604" lat="60.8814222248" lon="9.4058416664">
		<tag k="name" v="Otertjernet" />
		<tag k="natural" v="water" />
		<tag k="old_name" v="Otertjednet" />
		<tag k="ssr:stedsnr" v="663815" />
	</node>
	<node id="-148555" lat="60.9993527783" lon="9.37436111034">
		<tag k="name" v="Nystølputten" />
		<tag k="natural" v="water" />
		<tag k="ssr:stedsnr" v="301080" />
	</node>
	<node id="-150602" lat="60.8388333366" lon="9.34382222619">
		<tag k="name" v="Øyvasstølbekken" />
		<tag k="ssr:stedsnr" v="663775" />
		<tag k="waterway" v="stream" />
	</node>
	<node id="-148553" lat="60.8516805579" lon="9.2771361142">
		<tag k="name" v="Lortevika" />
		<tag k="natural" v="bay" />
		<tag k="ssr:stedsnr" v="300992" />
	</node>
	<node id="-150597" lat="60.9657861106" lon="9.17448055063">
		<tag k="name" v="Køllabekken" />
		<tag k="ssr:stedsnr" v="663426" />
		<tag k="waterway" v="stream" />
	</node>
	<node id="-150596" lat="60.9258000013" lon="9.45659999395">
		<tag k="name" v="Grånhølen" />
		<tag k="natural" v="water" />
		<tag k="old_name" v="Grånholen" />
		<tag k="ssr:stedsnr" v="663055" />
	</node>
	<node id="-148546" lat="60.963430556" lon="9.21446666173">
		<tag k="name" v="Heggisbekken" />
		<tag k="ssr:stedsnr" v="300460" />
		<tag k="waterway" v="stream" />
	</node>
	<node id="-148544" lat="60.8945416635" lon="9.51119722628">
		<tag k="name" v="Rasmustjernet" />
		<tag k="natural" v="water" />
		<tag k="old_name" v="Rasmustjednet" />
		<tag k="ssr:stedsnr" v="300446" />
	</node>
	<node id="-148542" lat="61.0151111133" lon="9.27567500649">
		<tag k="name" v="Dalabuvike" />
		<tag k="natural" v="bay" />
		<tag k="ssr:stedsnr" v="300416" />
	</node>
	<node id="-148539" lat="60.9329388909" lon="9.26088611787">
		<tag k="name" v="Slettabekken" />
		<tag k="ssr:stedsnr" v="300372" />
		<tag k="waterway" v="stream" />
	</node>
	<node id="-148538" lat="60.9498194405" lon="9.31125555475">
		<tag k="name" v="Smeden" />
		<tag k="natural" v="bay" />
		<tag k="ssr:stedsnr" v="300368" />
	</node>
	<node id="-150583" lat="60.8592611073" lon="9.19359444384">
		<tag k="loc_name" v="Vadgila" />
		<tag k="name" v="Vagila" />
		<tag k="natural" v="water" />
		<tag k="ssr:stedsnr" v="660670" />
		<tag k="water" v="lake" />
	</node>
	<node id="-150582" lat="60.8745611112" lon="9.24867778275">
		<tag k="name" v="Rotjernkilen" />
		<tag k="natural" v="water" />
		<tag k="old_name" v="Rotjednkilen" />
		<tag k="ssr:stedsnr" v="660608" />
		<tag k="water" v="lake" />
	</node>
	<node id="-148659" lat="61.0520388858" lon="9.16924721594">
		<tag k="name" v="Øystre Slidreåne" />
		<tag k="ssr:stedsnr" v="331794" />
		<tag k="waterway" v="river" />
	</node>
	<node id="-150575" lat="60.8342333362" lon="9.10081388593">
		<tag k="name" v="Søre Fløtatjernet" />
		<tag k="natural" v="water" />
		<tag k="old_name" v="Sørre Fløtatjednet" />
		<tag k="ssr:stedsnr" v="660108" />
	</node>
	<node id="-150574" lat="60.9086388895" lon="9.41346944229">
		<tag k="name" v="Pøllaøye" />
		<tag k="place" v="island" />
		<tag k="ssr:stedsnr" v="660076" />
	</node>
	<node id="-150570" lat="60.8565472237" lon="9.55784166021">
		<tag k="name" v="Kirkebergtjernet" />
		<tag k="natural" v="water" />
		<tag k="old_name" v="Kirkebergtjednet" />
		<tag k="ssr:stedsnr" v="659903" />
	</node>
	<node id="-150563" lat="60.8920388883" lon="9.0463972271">
		<tag k="name" v="Klukkarhaugbekken" />
		<tag k="ssr:stedsnr" v="659099" />
		<tag k="waterway" v="stream" />
	</node>
	<node id="-149111" lat="61.0543749972" lon="9.24593889428">
		<tag k="name" v="Halle" />
		<tag k="natural" v="water" />
		<tag k="ssr:stedsnr" v="58341" />
	</node>
	<node id="-148511" lat="60.8726777778" lon="9.2470805587">
		<tag k="name" v="Mørkrudkilen" />
		<tag k="natural" v="water" />
		<tag k="ssr:stedsnr" v="297582" />
		<tag k="water" v="lake" />
	</node>
	<node id="-148508" lat="60.8689388861" lon="9.24493333985">
		<tag k="name" v="Fiskebergøye" />
		<tag k="place" v="island" />
		<tag k="ssr:stedsnr" v="297522" />
	</node>
	<node id="-148507" lat="60.9015222259" lon="9.51691388303">
		<tag k="name" v="Hølbekken" />
		<tag k="ssr:stedsnr" v="297478" />
		<tag k="waterway" v="stream" />
	</node>
	<node id="-148505" lat="60.9941611134" lon="9.4693555478">
		<tag k="name" v="Hallaelve" />
		<tag k="ssr:stedsnr" v="297414" />
		<tag k="waterway" v="river" />
	</node>
	<node id="-148504" lat="61.0069000019" lon="9.48267499919">
		<tag k="name" v="Søre Fjelltjernet" />
		<tag k="natural" v="water" />
		<tag k="old_name" v="Søre Fjelltjednet" />
		<tag k="ssr:stedsnr" v="297410" />
	</node>
	<node id="-148503" lat="61.0103388847" lon="9.4699277758">
		<tag k="name" v="Midtre Fjelltjernet" />
		<tag k="natural" v="water" />
		<tag k="old_name" v="Midtre Fjelltjednet" />
		<tag k="ssr:stedsnr" v="297409" />
	</node>
	<node id="-148493" lat="60.8504749962" lon="9.15818888868">
		<tag k="name" v="Fiskebekken" />
		<tag k="ssr:stedsnr" v="296699" />
		<tag k="waterway" v="stream" />
	</node>
	<node id="-150537" lat="60.9041249978" lon="9.49433055706">
		<tag k="name" v="Nykkeputten" />
		<tag k="natural" v="water" />
		<tag k="ssr:stedsnr" v="616721" />
	</node>
	<node id="-148651" lat="60.8934611085" lon="9.34326389056">
		<tag k="name" v="Dalløotjernet" />
		<tag k="natural" v="water" />
		<tag k="old_name" v="Dalløotjednet" />
		<tag k="ssr:stedsnr" v="313738" />
	</node>
	<node id="-150523" lat="60.86213889" lon="9.1224583385">
		<tag k="name" v="Fiskebekken" />
		<tag k="ssr:stedsnr" v="616403" />
		<tag k="waterway" v="stream" />
	</node>
	<node id="-150522" lat="60.8735020359" lon="9.00826529506">
		<tag k="alt_name" v="Tindulvtjerni store" />
		<tag k="name" v="Store Tindulvtjernet" />
		<tag k="natural" v="water" />
		<tag k="old_name" v="Store Tindulvtjednet" />
		<tag k="ssr:stedsnr" v="616396" />
		<tag k="water" v="lake" />
	</node>
	<node id="-150521" lat="60.9048027805" lon="8.94954443906">
		<tag k="name" v="Brennatjernbekken" />
		<tag k="old_name" v="Brennatjednbekken" />
		<tag k="ssr:stedsnr" v="616372" />
		<tag k="waterway" v="stream" />
	</node>
	<node id="-148472" lat="61.0090944459" lon="9.41065276894">
		<tag k="name" v="Krøssbekkjitn" />
		<tag k="ssr:stedsnr" v="282996" />
		<tag k="waterway" v="stream" />
	</node>
	<node id="-148471" lat="61.1185250008" lon="9.56957499823">
		<tag k="name" v="Rabbatn" />
		<tag k="natural" v="water" />
		<tag k="ssr:stedsnr" v="282777" />
	</node>
	<node id="-148467" lat="61.0666222186" lon="9.38134443635">
		<tag k="name" v="Krøssænadn" />
		<tag k="natural" v="bay" />
		<tag k="ssr:stedsnr" v="282733" />
	</node>
	<node id="-150514" lat="60.7962450581" lon="9.24225418416">
		<tag k="alt_name" v="Stogodalselve" />
		<tag k="loc_name" v="Stuguelvi" />
		<tag k="name" v="Stogoelvi" />
		<tag k="ssr:stedsnr" v="615825" />
		<tag k="waterway" v="stream" />
	</node>
	<node id="-150510" lat="60.8278886773" lon="9.33352108376">
		<tag k="name" v="Kvitingen" />
		<tag k="natural" v="water" />
		<tag k="ssr:stedsnr" v="615618" />
		<tag k="water" v="lake" />
	</node>
	<node id="-148457" lat="61.0531194459" lon="9.18278888207">
		<tag k="name" v="Meisdalsbekken" />
		<tag k="ssr:stedsnr" v="269823" />
		<tag k="waterway" v="stream" />
	</node>
	<node id="-150501" lat="60.9776555545" lon="9.29715277411">
		<tag k="name" v="Leireelvi" />
		<tag k="ssr:stedsnr" v="615344" />
		<tag k="waterway" v="stream" />
	</node>
	<node id="-150500" lat="60.9884833301" lon="9.40237777348">
		<tag k="name" v="Fjeslitjernet" />
		<tag k="natural" v="water" />
		<tag k="old_name" v="Fjeslitjednet" />
		<tag k="ssr:stedsnr" v="615341" />
	</node>
	<node id="-148768" lat="60.987027777" lon="9.39192222071">
		<tag k="name" v="Fjeslilangtjernet" />
		<tag k="natural" v="water" />
		<tag k="old_name" v="Fjesli-langtjednet" />
		<tag k="ssr:stedsnr" v="361588" />
	</node>
	<node id="-150498" lat="60.9727416637" lon="9.43195555549">
		<tag k="name" v="Kritetjernet" />
		<tag k="natural" v="water" />
		<tag k="ssr:stedsnr" v="615326" />
	</node>
	<node id="-150491" lat="60.9991083373" lon="9.0672972212">
		<tag k="name" v="Sundheimselvi" />
		<tag k="ssr:stedsnr" v="615050" />
		<tag k="waterway" v="stream" />
	</node>
	<node id="-150490" lat="60.862634178" lon="9.55610828045">
		<tag k="name" v="Tonsvatnet" />
		<tag k="natural" v="water" />
		<tag k="ssr:stedsnr" v="614696" />
		<tag k="water" v="lake" />
	</node>
	<node id="-150487" lat="61.0528833343" lon="9.37560277669">
		<tag k="name" v="Skrinda" />
		<tag k="ssr:stedsnr" v="614636" />
		<tag k="waterway" v="stream" />
	</node>
	<node id="-150485" lat="61.0169109984" lon="9.31066988511">
		<tag k="name" v="Susfjorden" />
		<tag k="natural" v="water" />
		<tag k="ssr:stedsnr" v="614547" />
	</node>
	<node id="-149326" lat="60.9952472244" lon="9.21976666311">
		<tag k="name" v="Fløtadn" />
		<tag k="place" v="locality" />
		<tag k="ssr:stedsnr" v="119639" />
	</node>
	<node id="-150482" lat="61.1736333315" lon="9.49384722347">
		<tag k="name" v="Fjellbekken" />
		<tag k="ssr:stedsnr" v="613960" />
		<tag k="waterway" v="stream" />
	</node>
	<node id="-150481" lat="61.1631111093" lon="9.55751666885">
		<tag k="alt_name" v="Reintjern" />
		<tag k="name" v="Reinetjernet" />
		<tag k="natural" v="water" />
		<tag k="old_name" v="Reinetjednet" />
		<tag k="ssr:stedsnr" v="613940" />
	</node>
	<node id="-150477" lat="61.0854805555" lon="9.37711666412">
		<tag k="name" v="Åbortjernet" />
		<tag k="natural" v="water" />
		<tag k="old_name" v="Abbortjødnet" />
		<tag k="ssr:stedsnr" v="613893" />
	</node>
	<node id="-150469" lat="60.7966250007" lon="9.20951111922">
		<tag k="name" v="Elgshødnbekken" />
		<tag k="ssr:stedsnr" v="604768" />
		<tag k="waterway" v="stream" />
	</node>
	<node id="-149323" lat="60.930972221" lon="9.35221388647">
		<tag k="name" v="Broke" />
		<tag k="natural" v="bay" />
		<tag k="ssr:stedsnr" v="119613" />
	</node>
	<node id="-150461" lat="60.7776055588" lon="9.25755000229">
		<tag k="name" v="Meitebekk" />
		<tag k="ssr:stedsnr" v="604742" />
		<tag k="waterway" v="stream" />
	</node>
	<node id="-150456" lat="60.9871388899" lon="9.01073889644">
		<tag k="name" v="Goddokk" />
		<tag k="natural" v="water" />
		<tag k="ssr:stedsnr" v="604353" />
		<tag k="water" v="pond" />
	</node>
	<node id="-150452" lat="60.9524333349" lon="9.38043889657">
		<tag k="name" v="Myklebandtjernet" />
		<tag k="natural" v="water" />
		<tag k="old_name" v="Myklebandtjednet" />
		<tag k="ssr:stedsnr" v="604217" />
	</node>
	<node id="-150449" lat="60.9823583307" lon="9.14387778125">
		<tag k="name" v="Joavike" />
		<tag k="natural" v="bay" />
		<tag k="ssr:stedsnr" v="604083" />
	</node>
	<node id="-150436" lat="60.9271138917" lon="9.31106944182">
		<tag k="name" v="Linåkerevjo" />
		<tag k="natural" v="water" />
		<tag k="ssr:stedsnr" v="603568" />
		<tag k="water" v="lake" />
	</node>
	<node id="-148635" lat="60.8797611068" lon="9.52083610812">
		<tag k="name" v="Plassabekken" />
		<tag k="ssr:stedsnr" v="312678" />
		<tag k="waterway" v="stream" />
	</node>
	<node id="-150432" lat="61.0301194446" lon="9.36110277002">
		<tag k="name" v="Magatjernet" />
		<tag k="natural" v="water" />
		<tag k="old_name" v="Magatjednet" />
		<tag k="ssr:stedsnr" v="603553" />
	</node>
	<node id="-150427" lat="61.0257305562" lon="9.28068888282">
		<tag k="name" v="Vintervegøddin" />
		<tag k="natural" v="cape" />
		<tag k="ssr:stedsnr" v="603372" />
	</node>
	<node id="-150424" lat="60.9630472194" lon="9.27673889702">
		<tag k="name" v="Fjordvike" />
		<tag k="natural" v="bay" />
		<tag k="ssr:stedsnr" v="603329" />
	</node>
	<node id="-150423" lat="60.9688861096" lon="9.27948610615">
		<tag k="name" v="Førssyndet" />
		<tag k="natural" v="strait" />
		<tag k="ssr:stedsnr" v="603318" />
	</node>
	<node id="-150421" lat="61.0425555564" lon="9.26360277102">
		<tag k="name" v="Stavlitjernet" />
		<tag k="natural" v="water" />
		<tag k="old_name" v="Stavlitjednet" />
		<tag k="ssr:stedsnr" v="603298" />
	</node>
	<node id="-148973" lat="60.9548666707" lon="8.96284999895">
		<tag k="alt_name" v="Simletjerni, midtre" />
		<tag k="name" v="Midtre Simletjernet" />
		<tag k="natural" v="water" />
		<tag k="old_name" v="Midtre Semletjednet" />
		<tag k="ssr:stedsnr" v="9081" />
	</node>
	<node id="-150412" lat="61.023772218" lon="9.2013111137">
		<tag k="name" v="Høljivikøddin" />
		<tag k="natural" v="cape" />
		<tag k="ssr:stedsnr" v="603050" />
	</node>
	<node id="-150410" lat="60.9749722196" lon="9.49519722063">
		<tag k="name" v="Andreaputten" />
		<tag k="natural" v="water" />
		<tag k="ssr:stedsnr" v="603021" />
		<tag k="water" v="pond" />
	</node>
	<node id="-148972" lat="60.9500194456" lon="8.96555278462">
		<tag k="alt_name" v="Simletjerni, s" />
		<tag k="name" v="Søre Simletjernet" />
		<tag k="natural" v="water" />
		<tag k="ssr:stedsnr" v="9078" />
	</node>
	<node id="-150406" lat="60.897127777" lon="9.27793610487">
		<tag k="name" v="Gamlestølbekken" />
		<tag k="ssr:stedsnr" v="602874" />
		<tag k="waterway" v="stream" />
	</node>
	<node id="-150405" lat="60.8092555571" lon="9.20979721972">
		<tag k="name" v="Grånøddin" />
		<tag k="natural" v="cape" />
		<tag k="ssr:stedsnr" v="602812" />
	</node>
	<node id="-150404" lat="60.8037643181" lon="9.21540921326">
		<tag k="name" v="Hallingøddin" />
		<tag k="natural" v="cape" />
		<tag k="ssr:stedsnr" v="602806" />
	</node>
	<node id="-150400" lat="60.964216671" lon="9.1863277849">
		<tag k="name" v="Høgefoss" />
		<tag k="ssr:stedsnr" v="602465" />
		<tag k="waterway" v="rapids" />
	</node>
	<node id="-150394" lat="61.0124916681" lon="9.46021110488">
		<tag k="name" v="Nørdre Fjelltjernet" />
		<tag k="natural" v="water" />
		<tag k="old_name" v="Nørdre Fjelltjednet" />
		<tag k="ssr:stedsnr" v="600413" />
	</node>
	<node id="-150391" lat="61.0100333295" lon="9.48730832881">
		<tag k="name" v="Grøvabekken" />
		<tag k="ssr:stedsnr" v="600398" />
		<tag k="waterway" v="stream" />
	</node>
	<node id="-150383" lat="60.8376555561" lon="9.13185833749">
		<tag k="name" v="Nedre Fløtatn" />
		<tag k="natural" v="water" />
		<tag k="ssr:stedsnr" v="599106" />
		<tag k="water" v="lake" />
	</node>
	<node id="-150377" lat="60.8250500015" lon="9.07129166097">
		<tag k="name" v="Lyserbekken" />
		<tag k="ssr:stedsnr" v="598634" />
		<tag k="waterway" v="stream" />
	</node>
	<node id="-150375" lat="60.9830499959" lon="9.23899166331">
		<tag k="name" v="Vesleøye" />
		<tag k="place" v="island" />
		<tag k="ssr:stedsnr" v="604428" />
	</node>
	<node id="-150370" lat="60.9923222241" lon="9.3868111062">
		<tag k="name" v="Håvårdsputten" />
		<tag k="natural" v="water" />
		<tag k="ssr:stedsnr" v="596122" />
		<tag k="water" v="pond" />
	</node>
	<node id="-150364" lat="61.0679388922" lon="9.36946389743">
		<tag k="name" v="Hohøvdabekken" />
		<tag k="ssr:stedsnr" v="585725" />
		<tag k="waterway" v="stream" />
	</node>
	<node id="-150362" lat="61.0504777818" lon="9.33842777244">
		<tag k="name" v="Temmerskaltjernet" />
		<tag k="natural" v="water" />
		<tag k="old_name" v="Temmerskaltjednet" />
		<tag k="ssr:stedsnr" v="585422" />
	</node>
	<node id="-150354" lat="60.9684361086" lon="9.36941666055">
		<tag k="name" v="Tjernsettjernet" />
		<tag k="natural" v="water" />
		<tag k="old_name" v="Tjernsettjednet" />
		<tag k="ssr:stedsnr" v="555578" />
	</node>
	<node id="-150352" lat="60.9625472243" lon="9.44925277235">
		<tag k="name" v="Tjernstøltjernet" />
		<tag k="natural" v="water" />
		<tag k="old_name" v="Tjednestøltjednet" />
		<tag k="ssr:stedsnr" v="555562" />
	</node>
	<node id="-150345" lat="60.9283361147" lon="9.48817777828">
		<tag k="name" v="Steintjernet" />
		<tag k="natural" v="water" />
		<tag k="old_name" v="Steintjednet" />
		<tag k="ssr:stedsnr" v="555485" />
	</node>
	<node id="-150339" lat="60.9762861079" lon="9.40753055611">
		<tag k="name" v="Kinnatjerne" />
		<tag k="natural" v="water" />
		<tag k="old_name" v="Øystre Kinnatjednet;Vestre Kinnatjednet" />
		<tag k="ssr:stedsnr" v="555298" />
		<tag k="water" v="lake" />
	</node>
	<node id="-150338" lat="60.9748666683" lon="9.51070833342">
		<tag k="name" v="Maursettjernet" />
		<tag k="natural" v="water" />
		<tag k="old_name" v="Maursettjednet" />
		<tag k="ssr:stedsnr" v="555291" />
	</node>
	<node id="-148960" lat="60.8566522698" lon="9.27629679107">
		<tag k="name" v="Pardisfjorden" />
		<tag k="natural" v="water" />
		<tag k="ssr:stedsnr" v="8685" />
		<tag k="water" v="lake" />
	</node>
	<node id="-150332" lat="60.8146111118" lon="9.27501111589">
		<tag k="name" v="Huldratjernet" />
		<tag k="natural" v="water" />
		<tag k="old_name" v="Huldrastøltjednet" />
		<tag k="ssr:stedsnr" v="554884" />
	</node>
	<node id="-150331" lat="60.812867296" lon="9.25484190618">
		<tag k="alt_name" v="Hærevatnet" />
		<tag k="loc_name" v="Hervatnet" />
		<tag k="name" v="Hærvatnet" />
		<tag k="natural" v="water" />
		<tag k="ssr:stedsnr" v="554883" />
		<tag k="water" v="lake" />
	</node>
	<node id="-150330" lat="60.8701722227" lon="9.41503610433">
		<tag k="name" v="Damtjern" />
		<tag k="natural" v="water" />
		<tag k="old_name" v="Damtjednet" />
		<tag k="ssr:stedsnr" v="554718" />
	</node>
	<node id="-150329" lat="60.8690244341" lon="9.26764104908">
		<tag k="name" v="Ølsjøen" />
		<tag k="natural" v="water" />
		<tag k="ssr:stedsnr" v="554716" />
		<tag k="water" v="lake" />
	</node>
	<node id="-150328" lat="60.8626972227" lon="9.38542221635">
		<tag k="alt_name" v="Ørmekula" />
		<tag k="name" v="Ormekula" />
		<tag k="natural" v="water" />
		<tag k="ssr:stedsnr" v="554704" />
	</node>
	<node id="-150325" lat="60.9978555515" lon="9.36184166315">
		<tag k="name" v="Øystøltjernet" />
		<tag k="natural" v="water" />
		<tag k="old_name" v="Øystøltjednet" />
		<tag k="ssr:stedsnr" v="554347" />
	</node>
	<node id="-150324" lat="60.9934694407" lon="9.48873332544">
		<tag k="name" v="Fetjasettjernet" />
		<tag k="natural" v="water" />
		<tag k="ssr:stedsnr" v="554345" />
	</node>
	<node id="-150322" lat="61.1916166661" lon="9.4351944474">
		<tag k="name" v="Finnefjorden" />
		<tag k="natural" v="bay" />
		<tag k="ssr:stedsnr" v="553973" />
	</node>
	<node id="-150321" lat="61.186130559" lon="9.56424999573">
		<tag k="name" v="Godbekken" />
		<tag k="ssr:stedsnr" v="553951" />
		<tag k="waterway" v="stream" />
	</node>
	<node id="-150320" lat="61.1525555597" lon="9.57283055072">
		<tag k="name" v="Ongletjern" />
		<tag k="natural" v="water" />
		<tag k="old_name" v="Ongletjedn" />
		<tag k="ssr:stedsnr" v="553941" />
	</node>
	<node id="-150318" lat="61.1202194454" lon="9.42803056327">
		<tag k="name" v="Nisetjernet" />
		<tag k="natural" v="water" />
		<tag k="old_name" v="Nisetjednet" />
		<tag k="ssr:stedsnr" v="553932" />
	</node>
	<node id="-150317" lat="61.1322722189" lon="9.50367222508">
		<tag k="name" v="Langetjernet" />
		<tag k="natural" v="water" />
		<tag k="old_name" v="Langetjednet" />
		<tag k="ssr:stedsnr" v="553931" />
	</node>
	<node id="-150313" lat="61.1377750034" lon="9.6355111031">
		<tag k="alt_name" v="Sebuhaugbekken" />
		<tag k="name" v="Sæbuhaugbekken" />
		<tag k="ssr:stedsnr" v="553708" />
		<tag k="waterway" v="stream" />
	</node>
	<node id="-150308" lat="61.0423111069" lon="9.42041111348">
		<tag k="name" v="Bjørnaskardtjerne" />
		<tag k="natural" v="water" />
		<tag k="ssr:stedsnr" v="553569" />
		<tag k="water" v="lake" />
	</node>
	<node id="-148614" lat="61.0598583361" lon="9.35497500746">
		<tag k="name" v="Grøslibekken" />
		<tag k="ssr:stedsnr" v="311648" />
		<tag k="waterway" v="stream" />
	</node>
	<node id="-150296" lat="60.8974555547" lon="9.24356666264">
		<tag k="loc_name" v="Astridbekken" />
		<tag k="name" v="Astribekken" />
		<tag k="ssr:stedsnr" v="544501" />
		<tag k="waterway" v="stream" />
	</node>
	<node id="-150291" lat="60.8608916637" lon="9.27740000855">
		<tag k="name" v="Kulbøttvike" />
		<tag k="natural" v="bay" />
		<tag k="ssr:stedsnr" v="544000" />
	</node>
	<node id="-148611" lat="61.0166083368" lon="9.44927778177">
		<tag k="name" v="Ågotstølbekken" />
		<tag k="ssr:stedsnr" v="311611" />
		<tag k="waterway" v="stream" />
	</node>
	<node id="-148897" lat="60.9326303622" lon="9.50282122094">
		<tag k="name" v="Storividalsvatnet" />
		<tag k="natural" v="water" />
		<tag k="ssr:stedsnr" v="889341" />
		<tag k="water" v="lake" />
	</node>
	<node id="-150277" lat="60.9219611117" lon="9.28233889543">
		<tag k="name" v="Tømmerdongkjelda" />
		<tag k="natural" v="spring" />
		<tag k="ssr:stedsnr" v="543586" />
	</node>
	<node id="-148950" lat="61.133941668" lon="9.49767777058">
		<tag k="name" v="Folda" />
		<tag k="ssr:stedsnr" v="7923" />
		<tag k="waterway" v="river" />
	</node>
	<node id="-150268" lat="60.9411500011" lon="9.42179167386">
		<tag k="name" v="Ravangsbekken" />
		<tag k="ssr:stedsnr" v="543440" />
		<tag k="waterway" v="stream" />
	</node>
	<node id="-150267" lat="60.8952166661" lon="9.51533610718">
		<tag k="name" v="Steinputten" />
		<tag k="natural" v="water" />
		<tag k="ssr:stedsnr" v="543437" />
	</node>
	<node id="-150266" lat="61.0170749982" lon="9.28627221753">
		<tag k="name" v="Buvikøye" />
		<tag k="natural" v="cape" />
		<tag k="ssr:stedsnr" v="543409" />
	</node>
	<node id="-150263" lat="60.9508805542" lon="9.30613334217">
		<tag k="name" v="Umulsøye" />
		<tag k="place" v="islet" />
		<tag k="ssr:stedsnr" v="543366" />
	</node>
	<node id="-150261" lat="60.9671888921" lon="9.28432778671">
		<tag k="name" v="Vesleøye" />
		<tag k="place" v="islet" />
		<tag k="ssr:stedsnr" v="543347" />
	</node>
	<node id="-150254" lat="61.0013638918" lon="9.03945832742">
		<tag k="name" v="Hippisbekken" />
		<tag k="ssr:stedsnr" v="543312" />
		<tag k="waterway" v="stream" />
	</node>
	<node id="-150253" lat="60.9761277773" lon="9.27709166644">
		<tag k="name" v="Svartevike" />
		<tag k="natural" v="bay" />
		<tag k="ssr:stedsnr" v="543308" />
	</node>
	<node id="-150229" lat="60.908474997" lon="9.29103333445">
		<tag k="alt_name" v="Kvittingsevjo" />
		<tag k="name" v="Kvitingsevjo" />
		<tag k="natural" v="water" />
		<tag k="ssr:stedsnr" v="542921" />
		<tag k="water" v="lake" />
	</node>
	<node id="-150225" lat="60.8089144835" lon="9.24529338435">
		<tag k="name" v="Tangefjorden" />
		<tag k="natural" v="water" />
		<tag k="ssr:stedsnr" v="542820" />
	</node>
	<node id="-150224" lat="60.8008805567" lon="9.22106110711">
		<tag k="name" v="Fuglesteinatn" />
		<tag k="natural" v="cape" />
		<tag k="ssr:stedsnr" v="542808" />
	</node>
	<node id="-150222" lat="60.8898750012" lon="9.36432499188">
		<tag k="name" v="Tørkjellstølbekken" />
		<tag k="ssr:stedsnr" v="542716" />
		<tag k="waterway" v="stream" />
	</node>
	<node id="-150220" lat="60.9135666707" lon="9.47364722917">
		<tag k="name" v="Åborputten" />
		<tag k="natural" v="water" />
		<tag k="old_name" v="Øbberputten" />
		<tag k="ssr:stedsnr" v="542026" />
		<tag k="water" v="pond" />
	</node>
	<node id="-149281" lat="60.871641669" lon="9.41015555692">
		<tag k="name" v="Verkelve" />
		<tag k="ssr:stedsnr" v="117840" />
		<tag k="waterway" v="river" />
	</node>
	<node id="-150206" lat="60.8752916675" lon="9.25634722915">
		<tag k="name" v="Rundetjernet" />
		<tag k="natural" v="water" />
		<tag k="old_name" v="Rundetjednet" />
		<tag k="ssr:stedsnr" v="539597" />
	</node>
	<node id="-150205" lat="60.8744805525" lon="9.26145833184">
		<tag k="name" v="Heimre Ågreine" />
		<tag k="natural" v="strait" />
		<tag k="ssr:stedsnr" v="539595" />
	</node>
	<node id="-150200" lat="60.9223000009" lon="9.42381111816">
		<tag k="name" v="Ronsdalsbekken" />
		<tag k="ssr:stedsnr" v="539148" />
		<tag k="waterway" v="stream" />
	</node>
	<node id="-150181" lat="61.1146527822" lon="9.48513333682">
		<tag k="loc_name" v="Buodden" />
		<tag k="name" v="Buøddin" />
		<tag k="natural" v="cape" />
		<tag k="ssr:stedsnr" v="525773" />
	</node>
	<node id="-150180" lat="61.1251277801" lon="9.4729861178">
		<tag k="name" v="Etna" />
		<tag k="ssr:stedsnr" v="525765" />
		<tag k="waterway" v="river" />
	</node>
	<node id="-150167" lat="60.9376972229" lon="9.45162221969">
		<tag k="name" v="Lomtjernet" />
		<tag k="natural" v="water" />
		<tag k="old_name" v="Lomtjednet" />
		<tag k="ssr:stedsnr" v="524238" />
	</node>
	<node id="-150165" lat="60.8966944428" lon="9.33108333662">
		<tag k="alt_name" v="Kvittingsbekken" />
		<tag k="name" v="Kvitingsbekken" />
		<tag k="ssr:stedsnr" v="507739" />
		<tag k="waterway" v="stream" />
	</node>
	<node id="-150160" lat="60.9757194482" lon="8.99820555739">
		<tag k="alt_name" v="Vesleåne;Vesle Åne" />
		<tag k="name" v="Vesleåni" />
		<tag k="ssr:stedsnr" v="495123" />
		<tag k="waterway" v="stream" />
	</node>
	<node id="-150156" lat="60.8985083306" lon="9.49732222645">
		<tag k="name" v="Svartetjernet" />
		<tag k="natural" v="water" />
		<tag k="ssr:stedsnr" v="494696" />
	</node>
	<node id="-148688" lat="60.9210694462" lon="9.38485832783">
		<tag k="name" v="Brurberget" />
		<tag k="natural" v="cape" />
		<tag k="ssr:stedsnr" v="356793" />
	</node>
	<node id="-150144" lat="60.9602694415" lon="9.38444721948">
		<tag k="alt_name" v="Bukkøye" />
		<tag k="name" v="Bukkøyi" />
		<tag k="place" v="islet" />
		<tag k="ssr:stedsnr" v="494565" />
	</node>
	<node id="-150142" lat="60.9425583358" lon="9.42764166842">
		<tag k="name" v="Ravangstjernet" />
		<tag k="natural" v="water" />
		<tag k="old_name" v="Ravangstjednet" />
		<tag k="ssr:stedsnr" v="494535" />
	</node>
	<node id="-148586" lat="60.9555722259" lon="9.40281666709">
		<tag k="name" v="Vesletjernet" />
		<tag k="natural" v="water" />
		<tag k="old_name" v="Vesletjednet" />
		<tag k="ssr:stedsnr" v="301883" />
	</node>
	<node id="-150135" lat="60.92250556" lon="9.45317499897">
		<tag k="alt_name" v="Diserudtjernet" />
		<tag k="name" v="Disrudstølstjernet" />
		<tag k="natural" v="water" />
		<tag k="old_name" v="Disrudstølstjednet" />
		<tag k="ssr:stedsnr" v="494483" />
	</node>
	<node id="-150132" lat="60.8245666691" lon="9.16997777265">
		<tag k="alt_name" v="Stuguelvi" />
		<tag k="name" v="Stogoelve" />
		<tag k="ssr:stedsnr" v="494422" />
		<tag k="waterway" v="stream" />
	</node>
	<node id="-150131" lat="60.9296361145" lon="9.17016667406">
		<tag k="name" v="Maursettjernet" />
		<tag k="natural" v="water" />
		<tag k="old_name" v="Maursettjednet" />
		<tag k="ssr:stedsnr" v="494385" />
	</node>
	<node id="-150130" lat="60.9452388852" lon="9.12052500474">
		<tag k="name" v="Skålåni" />
		<tag k="ssr:stedsnr" v="494367" />
		<tag k="waterway" v="stream" />
	</node>
	<node id="-150125" lat="60.9725805557" lon="9.45161388316">
		<tag k="name" v="Skåletjernet" />
		<tag k="natural" v="water" />
		<tag k="old_name" v="Skåletjednet" />
		<tag k="ssr:stedsnr" v="494324" />
	</node>
	<node id="-150119" lat="60.8750166628" lon="8.83933054649">
		<tag k="name" v="Tisleifjorden" />
		<tag k="natural" v="water" />
		<tag k="old_name" v="Tisleifjord;Tesleien" />
		<tag k="ssr:stedsnr" v="494116" />
		<tag k="water" v="lake" />
	</node>
	<node id="-150116" lat="61.151761107" lon="9.63730000708">
		<tag k="alt_name" v="Djuptjernet, nedre" />
		<tag k="name" v="Nedre Djuptjernet" />
		<tag k="natural" v="water" />
		<tag k="old_name" v="Nere Djuptjednet" />
		<tag k="ssr:stedsnr" v="493760" />
	</node>
	<node id="-150115" lat="61.1151916628" lon="9.61687222102">
		<tag k="name" v="Steinbutjerne" />
		<tag k="natural" v="water" />
		<tag k="old_name" v="Øystre Steinbutjednet;Vestre Steinbutjednet" />
		<tag k="ssr:stedsnr" v="493737" />
		<tag k="water" v="lake" />
	</node>
	<node id="-150112" lat="61.0155305552" lon="9.35568056456">
		<tag k="name" v="Løyntjernet" />
		<tag k="natural" v="water" />
		<tag k="old_name" v="Løyntjednet" />
		<tag k="ssr:stedsnr" v="493535" />
	</node>
	<node id="-150111" lat="61.2241277791" lon="9.48713055747">
		<tag k="alt_name" v="Stigtjernet" />
		<tag k="name" v="Stitjern" />
		<tag k="natural" v="water" />
		<tag k="old_name" v="Stigtjednet" />
		<tag k="ssr:stedsnr" v="492995" />
	</node>
	<node id="-148581" lat="60.9393388851" lon="9.33438610197">
		<tag k="name" v="Amrudøye" />
		<tag k="natural" v="cape" />
		<tag k="ssr:stedsnr" v="301579" />
	</node>
	<node id="-150107" lat="61.1393055571" lon="9.42832777187">
		<tag k="alt_name" v="Svultebekken" />
		<tag k="name" v="Svultabekken" />
		<tag k="ssr:stedsnr" v="492919" />
		<tag k="waterway" v="stream" />
	</node>
	<node id="-150106" lat="61.0809055574" lon="9.43126387986">
		<tag k="alt_name" v="Valegrovtjernet, s" />
		<tag k="name" v="Søre Valegrovtjernet" />
		<tag k="natural" v="water" />
		<tag k="ssr:stedsnr" v="492886" />
	</node>
	<node id="-150100" lat="61.0336500029" lon="9.41013333335">
		<tag k="name" v="Turtegjuvtjernet" />
		<tag k="natural" v="water" />
		<tag k="old_name" v="Turtejuvtjednet" />
		<tag k="ssr:stedsnr" v="493585" />
	</node>
	<node id="-150097" lat="61.0062361086" lon="9.2974000063">
		<tag k="name" v="Leirelvi" />
		<tag k="ssr:stedsnr" v="493558" />
		<tag k="waterway" v="stream" />
	</node>
	<node id="-150096" lat="61.0029611101" lon="9.32804167475">
		<tag k="name" v="Svartetjernet" />
		<tag k="natural" v="water" />
		<tag k="old_name" v="Svartjednet" />
		<tag k="ssr:stedsnr" v="493556" />
	</node>
	<node id="-150094" lat="60.9351166697" lon="9.33568888096">
		<tag k="name" v="Sagabakktjernet" />
		<tag k="natural" v="water" />
		<tag k="old_name" v="Sagabakktjednet" />
		<tag k="ssr:stedsnr" v="483896" />
	</node>
	<node id="-150093" lat="60.9533138893" lon="9.43961943972">
		<tag k="name" v="Skotjernet" />
		<tag k="natural" v="water" />
		<tag k="old_name" v="Skotjednet" />
		<tag k="ssr:stedsnr" v="483823" />
	</node>
	<node id="-150091" lat="60.7990340396" lon="9.22634149061">
		<tag k="name" v="Bjødnavike" />
		<tag k="natural" v="bay" />
		<tag k="ssr:stedsnr" v="483762" />
	</node>
	<node id="-150089" lat="60.9367000031" lon="9.35581945097">
		<tag k="name" v="Lortøye" />
		<tag k="place" v="islet" />
		<tag k="ssr:stedsnr" v="483614" />
	</node>
	<node id="-150088" lat="60.9446944461" lon="9.34356111489">
		<tag k="name" v="Nordåkselve" />
		<tag k="ssr:stedsnr" v="483609" />
		<tag k="waterway" v="stream" />
	</node>
	<node id="-150087" lat="60.9612166663" lon="9.50268332649">
		<tag k="name" v="Kyrkjeknattjernet" />
		<tag k="natural" v="water" />
		<tag k="old_name" v="Kjørkjiknatt-tjednet" />
		<tag k="ssr:stedsnr" v="483531" />
	</node>
	<node id="-150083" lat="60.9276083314" lon="9.37427500656">
		<tag k="name" v="Strømstadputten" />
		<tag k="natural" v="water" />
		<tag k="ssr:stedsnr" v="483440" />
		<tag k="water" v="pond" />
	</node>
	<node id="-150078" lat="61.0247722197" lon="9.29670555419">
		<tag k="name" v="Dalaøye" />
		<tag k="natural" v="cape" />
		<tag k="ssr:stedsnr" v="483380" />
	</node>
	<node id="-148575" lat="60.9292944487" lon="9.35870555563">
		<tag k="name" v="Kjeldevike" />
		<tag k="natural" v="bay" />
		<tag k="ssr:stedsnr" v="301390" />
	</node>
	<node id="-150071" lat="61.0071472201" lon="9.3428861099">
		<tag k="name" v="Kariputten" />
		<tag k="natural" v="water" />
		<tag k="ssr:stedsnr" v="483120" />
	</node>
	<node id="-150049" lat="61.0226472239" lon="9.27945832613">
		<tag k="name" v="Netøye" />
		<tag k="place" v="island" />
		<tag k="ssr:stedsnr" v="482397" />
	</node>
	<node id="-150045" lat="61.0204111144" lon="9.30809723059">
		<tag k="name" v="Storøye" />
		<tag k="natural" v="water" />
		<tag k="ssr:stedsnr" v="482352" />
	</node>
	<node id="-150044" lat="61.0199749999" lon="9.31020277061">
		<tag k="name" v="Maurlandssyndet" />
		<tag k="natural" v="strait" />
		<tag k="ssr:stedsnr" v="482350" />
	</node>
	<node id="-149133" lat="60.967319448" lon="9.44999166558">
		<tag k="name" v="Skålebekken" />
		<tag k="ssr:stedsnr" v="58541" />
		<tag k="waterway" v="stream" />
	</node>
	<node id="-150031" lat="60.9495666651" lon="9.35156944652">
		<tag k="name" v="Bakkedammen" />
		<tag k="ssr:stedsnr" v="482070" />
		<tag k="waterway" v="dam" />
	</node>
	<node id="-150026" lat="60.9721138862" lon="9.46890000286">
		<tag k="name" v="Stordokkputten" />
		<tag k="natural" v="water" />
		<tag k="ssr:stedsnr" v="482032" />
	</node>
	<node id="-150021" lat="60.8998638883" lon="9.28759999403">
		<tag k="name" v="Kinna" />
		<tag k="ssr:stedsnr" v="481880" />
		<tag k="waterway" v="rapids" />
	</node>
	<node id="-150020" lat="60.8831999962" lon="9.34466666095">
		<tag k="name" v="Svartetjernet" />
		<tag k="natural" v="water" />
		<tag k="old_name" v="Svartetjednet" />
		<tag k="ssr:stedsnr" v="481876" />
	</node>
	<node id="-150019" lat="60.8801333332" lon="9.36690555938">
		<tag k="name" v="Valetjernet" />
		<tag k="natural" v="water" />
		<tag k="old_name" v="Valetjednet" />
		<tag k="ssr:stedsnr" v="481863" />
	</node>
	<node id="-150016" lat="60.8683111117" lon="9.42488054988">
		<tag k="name" v="Liaelve" />
		<tag k="ssr:stedsnr" v="481842" />
		<tag k="waterway" v="river" />
	</node>
	<node id="-150014" lat="60.8287202824" lon="9.33737834682">
		<tag k="name" v="Kvitingsøddin" />
		<tag k="natural" v="cape" />
		<tag k="ssr:stedsnr" v="481754" />
	</node>
	<node id="-150009" lat="60.9044507543" lon="9.41529711034">
		<tag k="name" v="Vinterøddin" />
		<tag k="natural" v="cape" />
		<tag k="ssr:stedsnr" v="481073" />
	</node>
	<node id="-149588" lat="60.7757833337" lon="9.26261944008">
		<tag k="name" v="Meitebekktjernet" />
		<tag k="natural" v="water" />
		<tag k="old_name" v="Meitebekktjednet" />
		<tag k="ssr:stedsnr" v="191754" />
	</node>
	<node id="-149999" lat="60.973172218" lon="9.11867500566">
		<tag k="name" v="Mjølkebekken" />
		<tag k="ssr:stedsnr" v="464634" />
		<tag k="waterway" v="stream" />
	</node>
	<node id="-149983" lat="60.8165777803" lon="9.28730833728">
		<tag k="name" v="Skutetjernet" />
		<tag k="natural" v="water" />
		<tag k="old_name" v="Skutetjednet" />
		<tag k="ssr:stedsnr" v="434820" />
	</node>
	<node id="-149982" lat="60.9502305589" lon="9.41821944987">
		<tag k="name" v="Damtjernet" />
		<tag k="natural" v="water" />
		<tag k="ssr:stedsnr" v="434564" />
	</node>
	<node id="-149976" lat="60.9346303429" lon="9.35160185835">
		<tag k="fixme" v="multiple name tags, choose one and add the other to alt_name" />
		<tag k="name" v="Aurdalsfjorden;Dokkafjorden" />
		<tag k="natural" v="water" />
		<tag k="ssr:stedsnr" v="434514" />
		<tag k="water" v="lake" />
	</node>
	<node id="-149964" lat="60.8564361153" lon="8.98426111268">
		<tag k="name" v="Geiterygga" />
		<tag k="ssr:stedsnr" v="434381" />
		<tag k="waterway" v="stream" />
	</node>
	<node id="-149962" lat="60.9520916671" lon="9.20248333146">
		<tag k="name" v="Gausåkbekken" />
		<tag k="ssr:stedsnr" v="434358" />
		<tag k="waterway" v="stream" />
	</node>
	<node id="-149239" lat="60.8371194489" lon="9.12777222906">
		<tag k="name" v="Kapaøye" />
		<tag k="place" v="island" />
		<tag k="ssr:stedsnr" v="114103" />
	</node>
	<node id="-149960" lat="60.9867541486" lon="9.35217936929">
		<tag k="name" v="Håkontjern" />
		<tag k="natural" v="water" />
		<tag k="old_name" v="Håkontjedn" />
		<tag k="ssr:stedsnr" v="434325" />
	</node>
	<node id="-149958" lat="60.9805861109" lon="9.39359722338">
		<tag k="name" v="Langetjernet" />
		<tag k="natural" v="water" />
		<tag k="old_name" v="Langetjednet" />
		<tag k="ssr:stedsnr" v="434308" />
	</node>
	<node id="-149957" lat="60.9962888905" lon="9.27648888251">
		<tag k="name" v="Kvernatjernet" />
		<tag k="natural" v="water" />
		<tag k="old_name" v="Kvednatjednet" />
		<tag k="ssr:stedsnr" v="434286" />
	</node>
	<node id="-149944" lat="61.1453749991" lon="9.65760556178">
		<tag k="name" v="Djuptjernbekken" />
		<tag k="old_name" v="Djuptjednbekken" />
		<tag k="ssr:stedsnr" v="433756" />
		<tag k="waterway" v="stream" />
	</node>
	<node id="-149236" lat="60.8325305562" lon="9.04336945195">
		<tag k="name" v="Risparøye" />
		<tag k="place" v="island" />
		<tag k="ssr:stedsnr" v="113601" />
	</node>
	<node id="-149941" lat="60.8757277751" lon="9.33745555556">
		<tag k="name" v="Nysettjernet" />
		<tag k="natural" v="water" />
		<tag k="old_name" v="Nysettjednet" />
		<tag k="ssr:stedsnr" v="433691" />
	</node>
	<node id="-149939" lat="61.009974999" lon="9.30730832677">
		<tag k="name" v="Buatjern" />
		<tag k="natural" v="water" />
		<tag k="ssr:stedsnr" v="433524" />
	</node>
	<node id="-149937" lat="60.8052932231" lon="9.22193559332">
		<tag k="loc_name" v="Stugufjorden" />
		<tag k="name" v="Stogofjorden" />
		<tag k="natural" v="water" />
		<tag k="ssr:stedsnr" v="433475" />
		<tag k="water" v="lake" />
	</node>
	<node id="-149936" lat="61.1960666654" lon="9.46439445311">
		<tag k="name" v="Framnes" />
		<tag k="natural" v="cape" />
		<tag k="ssr:stedsnr" v="432986" />
	</node>
	<node id="-149933" lat="61.0978999966" lon="9.37961666267">
		<tag k="name" v="Stakketjernet" />
		<tag k="natural" v="water" />
		<tag k="old_name" v="Stekketjednet;Stakktjednet" />
		<tag k="ssr:stedsnr" v="432916" />
	</node>
	<node id="-149914" lat="60.9861055574" lon="9.46979167071">
		<tag k="name" v="Forosetbekken" />
		<tag k="ssr:stedsnr" v="428483" />
		<tag k="waterway" v="stream" />
	</node>
	<node id="-149231" lat="61.1090222222" lon="9.63681110629">
		<tag k="name" v="Skjæret" />
		<tag k="place" v="islet" />
		<tag k="ssr:stedsnr" v="113627" />
	</node>
	<node id="-149912" lat="60.785844441" lon="9.25045277778">
		<tag k="alt_name" v="Nausvøllosen" />
		<tag k="name" v="Naustvollosen" />
		<tag k="natural" v="bay" />
		<tag k="ssr:stedsnr" v="423743" />
	</node>
	<node id="-149910" lat="61.0024861135" lon="9.29805000412">
		<tag k="name" v="Grobakk" />
		<tag k="ssr:stedsnr" v="423615" />
		<tag k="waterway" v="river" />
	</node>
	<node id="-149896" lat="60.8810805573" lon="9.47725555813">
		<tag k="name" v="Hølet" />
		<tag k="place" v="locality" />
		<tag k="ssr:stedsnr" v="422841" />
	</node>
	<node id="-149895" lat="60.9789055555" lon="9.36567777406">
		<tag k="name" v="Rundetjernet" />
		<tag k="natural" v="water" />
		<tag k="old_name" v="Rundetjednet" />
		<tag k="ssr:stedsnr" v="422749" />
	</node>
	<node id="-149894" lat="60.9767250035" lon="9.35898333337">
		<tag k="name" v="Ukseputten" />
		<tag k="natural" v="water" />
		<tag k="old_name" v="Ukesputten" />
		<tag k="ssr:stedsnr" v="422706" />
		<tag k="water" v="pond" />
	</node>
	<node id="-149888" lat="60.9839222194" lon="9.48361944958">
		<tag k="name" v="Vinkjelda" />
		<tag k="natural" v="water" />
		<tag k="ssr:stedsnr" v="422547" />
	</node>
	<node id="-149225" lat="60.9954527768" lon="9.42106943534">
		<tag k="name" v="Steinbrenntjernet" />
		<tag k="natural" v="water" />
		<tag k="old_name" v="Steinbrenntjednet" />
		<tag k="ssr:stedsnr" v="100938" />
	</node>
	<node id="-149867" lat="61.0037111129" lon="9.39184999207">
		<tag k="name" v="Pilsettjernet" />
		<tag k="natural" v="water" />
		<tag k="old_name" v="Pilsettjednet" />
		<tag k="ssr:stedsnr" v="422091" />
	</node>
	<node id="-149223" lat="61.1003472184" lon="9.49865832746">
		<tag k="name" v="Storevike" />
		<tag k="natural" v="bay" />
		<tag k="ssr:stedsnr" v="100757" />
	</node>
	<node id="-149858" lat="60.9047194422" lon="9.2884722219">
		<tag k="name" v="Grønøye" />
		<tag k="natural" v="water" />
		<tag k="ssr:stedsnr" v="421881" />
	</node>
	<node id="-149856" lat="60.87888889" lon="9.41269999601">
		<tag k="name" v="Glennetjernet" />
		<tag k="natural" v="water" />
		<tag k="old_name" v="Glennetjednet" />
		<tag k="ssr:stedsnr" v="421841" />
	</node>
	<node id="-149854" lat="60.8079666664" lon="9.21283889388">
		<tag k="name" v="Vesleøye" />
		<tag k="place" v="islet" />
		<tag k="ssr:stedsnr" v="421836" />
	</node>
	<node id="-149221" lat="60.9853083337" lon="9.11001388744">
		<tag k="name" v="Ryeøyne" />
		<tag k="place" v="islet" />
		<tag k="ssr:stedsnr" v="100610" />
	</node>
	<node id="-149849" lat="60.9239194415" lon="9.26793333872">
		<tag k="name" v="Bruhallputten" />
		<tag k="natural" v="water" />
		<tag k="ssr:stedsnr" v="420674" />
		<tag k="water" v="pond" />
	</node>
	<node id="-150042" lat="61.0507916709" lon="9.25726111871">
		<tag k="name" v="Erstradbekken" />
		<tag k="ssr:stedsnr" v="482314" />
		<tag k="waterway" v="stream" />
	</node>
	<node id="-149842" lat="60.8616916685" lon="9.36759445287">
		<tag k="name" v="Lallaputten" />
		<tag k="natural" v="water" />
		<tag k="ssr:stedsnr" v="420382" />
	</node>
	<node id="-149840" lat="60.8913972203" lon="9.43736666297">
		<tag k="name" v="Kattsyndet" />
		<tag k="natural" v="strait" />
		<tag k="ssr:stedsnr" v="420053" />
	</node>
	<node id="-149837" lat="61.0576222232" lon="9.33107222015">
		<tag k="name" v="Høldalsbekken" />
		<tag k="ssr:stedsnr" v="419083" />
		<tag k="waterway" v="stream" />
	</node>
	<node id="-149835" lat="60.8481805585" lon="9.15385277744">
		<tag k="loc_name" v="Brennefoss" />
		<tag k="name" v="Brenneføss" />
		<tag k="natural" v="waterfall" />
		<tag k="ssr:stedsnr" v="418684" />
	</node>
	<node id="-149556" lat="60.8568027794" lon="9.35899721869">
		<tag k="alt_name" v="Mørkagånga" />
		<tag k="name" v="Myrkegonga" />
		<tag k="natural" v="water" />
		<tag k="ssr:stedsnr" v="190658" />
	</node>
	<node id="-149813" lat="60.8978277771" lon="9.00062777982">
		<tag k="name" v="Raubekk" />
		<tag k="ssr:stedsnr" v="417229" />
		<tag k="waterway" v="stream" />
	</node>
	<node id="-149806" lat="60.9256277798" lon="9.05832500409">
		<tag k="name" v="Lusetjernet" />
		<tag k="natural" v="water" />
		<tag k="old_name" v="Lusetjednet" />
		<tag k="ssr:stedsnr" v="417041" />
	</node>
	<node id="-149805" lat="60.8334611098" lon="9.05405556188">
		<tag k="alt_name" v="Svenesføssen" />
		<tag k="name" v="Svenesfossen" />
		<tag k="natural" v="waterfall" />
		<tag k="ssr:stedsnr" v="416598" />
	</node>
	<node id="-149798" lat="60.9071222224" lon="9.22586388551">
		<tag k="name" v="Åstjernet" />
		<tag k="natural" v="water" />
		<tag k="ssr:stedsnr" v="252710" />
	</node>
	<node id="-149795" lat="60.9668972207" lon="9.28738611098">
		<tag k="name" v="Faslefoss" />
		<tag k="natural" v="waterfall" />
		<tag k="ssr:stedsnr" v="252582" />
	</node>
	<node id="-149790" lat="60.95320723" lon="9.30721480682">
		<tag k="name" v="Fløafjorden" />
		<tag k="natural" v="water" />
		<tag k="ssr:stedsnr" v="252548" />
		<tag k="water" v="lake" />
	</node>
	<node id="-149787" lat="60.9405250002" lon="9.32740555596">
		<tag k="name" v="Øvstevatnet" />
		<tag k="natural" v="water" />
		<tag k="ssr:stedsnr" v="252524" />
	</node>
	<node id="-149786" lat="60.9423194478" lon="9.30894999753">
		<tag k="alt_name" v="Skamåne" />
		<tag k="name" v="Skamåni" />
		<tag k="ssr:stedsnr" v="252522" />
		<tag k="waterway" v="stream" />
	</node>
	<node id="-149785" lat="60.9338583355" lon="9.46766944733">
		<tag k="name" v="Storstøltjernet" />
		<tag k="natural" v="water" />
		<tag k="old_name" v="Storstøltjednet" />
		<tag k="ssr:stedsnr" v="252494" />
	</node>
	<node id="-149783" lat="60.921352782" lon="9.47226388974">
		<tag k="name" v="Svartetjernet" />
		<tag k="natural" v="water" />
		<tag k="old_name" v="Svartetjednet" />
		<tag k="ssr:stedsnr" v="252461" />
	</node>
	<node id="-149780" lat="60.8986527785" lon="8.95167499986">
		<tag k="name" v="Fiskebekken" />
		<tag k="ssr:stedsnr" v="252384" />
		<tag k="waterway" v="stream" />
	</node>
	<node id="-149779" lat="60.8953611128" lon="9.04048610278">
		<tag k="alt_name" v="Hallingåne" />
		<tag k="name" v="Hallingåni" />
		<tag k="ssr:stedsnr" v="252381" />
		<tag k="waterway" v="stream" />
	</node>
	<node id="-149778" lat="60.8800666665" lon="9.05566388892">
		<tag k="alt_name" v="Gaukelitjernan" />
		<tag k="name" v="Gaukelitjernet" />
		<tag k="natural" v="water" />
		<tag k="old_name" v="Gaukelitjednet" />
		<tag k="ssr:stedsnr" v="252375" />
	</node>
	<node id="-149760" lat="60.8654777744" lon="9.35373333131">
		<tag k="name" v="Knutsfettjernet" />
		<tag k="natural" v="water" />
		<tag k="old_name" v="Knutsfetttjednet" />
		<tag k="ssr:stedsnr" v="251703" />
	</node>
	<node id="-149757" lat="60.8535944428" lon="9.34817500604">
		<tag k="name" v="Jartrudtjernet" />
		<tag k="natural" v="water" />
		<tag k="old_name" v="Gjartrudstjednet" />
		<tag k="ssr:stedsnr" v="251675" />
	</node>
	<node id="-149756" lat="60.8488138928" lon="9.25228055305">
		<tag k="name" v="Grønedokkbekken" />
		<tag k="ssr:stedsnr" v="251668" />
		<tag k="waterway" v="stream" />
	</node>
	<node id="-148522" lat="60.8738416664" lon="9.42151110954">
		<tag k="name" v="Tevatnet" />
		<tag k="natural" v="water" />
		<tag k="ssr:stedsnr" v="299840" />
		<tag k="water" v="pond" />
	</node>
	<node id="-149753" lat="61.0011000029" lon="9.38682500843">
		<tag k="alt_name" v="Lorteputten" />
		<tag k="name" v="Lorteputt" />
		<tag k="natural" v="water" />
		<tag k="ssr:stedsnr" v="251578" />
	</node>
	<node id="-149749" lat="60.8186472229" lon="9.08480555588">
		<tag k="alt_name" v="Elgshødnbekken" />
		<tag k="name" v="Eidtjernbekken" />
		<tag k="ssr:stedsnr" v="251462" />
		<tag k="waterway" v="stream" />
	</node>
	<node id="-149743" lat="61.1529944486" lon="9.5446527865">
		<tag k="name" v="Reina" />
		<tag k="ssr:stedsnr" v="250935" />
		<tag k="waterway" v="stream" />
	</node>
	<node id="-149740" lat="61.1548861123" lon="9.62167778355">
		<tag k="alt_name" v="Djuptjernet, øvre" />
		<tag k="name" v="Øvre Djuptjernet" />
		<tag k="natural" v="water" />
		<tag k="old_name" v="Øvre Djuptjednet" />
		<tag k="ssr:stedsnr" v="250733" />
	</node>
	<node id="-149739" lat="61.1269279563" lon="9.67149365819">
		<tag k="alt_name" v="Sebu-Røssjøen" />
		<tag k="name" v="Sæbu-Røssjøen" />
		<tag k="natural" v="water" />
		<tag k="ssr:stedsnr" v="250700" />
		<tag k="water" v="lake" />
	</node>
	<node id="-149737" lat="61.0513749989" lon="9.3275472266">
		<tag k="name" v="Tjerndalstjerne" />
		<tag k="natural" v="water" />
		<tag k="old_name" v="Tjednsdals-tjedne" />
		<tag k="ssr:stedsnr" v="250616" />
		<tag k="water" v="lake" />
	</node>
	<node id="-149731" lat="61.0264666682" lon="9.26536943623">
		<tag k="name" v="Leirtjernet" />
		<tag k="natural" v="water" />
		<tag k="old_name" v="Leirtjednet" />
		<tag k="ssr:stedsnr" v="250556" />
	</node>
	<node id="-149729" lat="61.1692861139" lon="9.48830832621">
		<tag k="name" v="Raudbekken" />
		<tag k="ssr:stedsnr" v="249971" />
		<tag k="waterway" v="stream" />
	</node>
	<node id="-149200" lat="60.919925001" lon="9.46303888869">
		<tag k="name" v="Damtjernet" />
		<tag k="natural" v="water" />
		<tag k="old_name" v="Damtjednet" />
		<tag k="ssr:stedsnr" v="70487" />
	</node>
	<node id="-149724" lat="60.9226861068" lon="9.52786111988">
		<tag k="name" v="Kalvetjerne" />
		<tag k="natural" v="water" />
		<tag k="old_name" v="Kælvetjedne" />
		<tag k="ssr:stedsnr" v="479393" />
		<tag k="water" v="lake" />
	</node>
	<node id="-148857" lat="60.9086444416" lon="9.52425277544">
		<tag k="alt_name" v="Blåleirputten" />
		<tag k="name" v="Leirputten" />
		<tag k="natural" v="water" />
		<tag k="ssr:stedsnr" v="373741" />
	</node>
	<node id="-149715" lat="60.8797333313" lon="9.48727223081">
		<tag k="name" v="Dammen" />
		<tag k="natural" v="water" />
		<tag k="ssr:stedsnr" v="240837" />
		<tag k="water" v="pond" />
	</node>
	<node id="-149539" lat="61.0440083291" lon="9.42910000346">
		<tag k="alt_name" v="Bjødnaskardsbekken" />
		<tag k="name" v="Bjørnaskardbekken" />
		<tag k="ssr:stedsnr" v="189582" />
		<tag k="waterway" v="stream" />
	</node>
	<node id="-149704" lat="60.9425000034" lon="9.43801389074">
		<tag k="name" v="Skoputten" />
		<tag k="natural" v="water" />
		<tag k="ssr:stedsnr" v="240581" />
		<tag k="water" v="pond" />
	</node>
	<node id="-149703" lat="60.9686083375" lon="9.47237778435">
		<tag k="name" v="Skjenangselve" />
		<tag k="ssr:stedsnr" v="240547" />
		<tag k="waterway" v="river" />
	</node>
	<node id="-149700" lat="60.9032805578" lon="9.24398056094">
		<tag k="name" v="Øvrestølfetidn" />
		<tag k="natural" v="water" />
		<tag k="old_name" v="Øvrestølfetiden" />
		<tag k="ssr:stedsnr" v="240536" />
	</node>
	<node id="-149698" lat="61.0001138871" lon="9.3258000049">
		<tag k="name" v="Raukøllhalle" />
		<tag k="natural" v="water" />
		<tag k="ssr:stedsnr" v="240526" />
		<tag k="water" v="pond" />
	</node>
	<node id="-149691" lat="61.0239861107" lon="9.29549445083">
		<tag k="name" v="Langøye" />
		<tag k="place" v="island" />
		<tag k="ssr:stedsnr" v="240435" />
	</node>
	<node id="-149682" lat="60.9520666623" lon="9.30627499863">
		<tag k="name" v="Geiteryggen" />
		<tag k="place" v="islet" />
		<tag k="ssr:stedsnr" v="240373" />
	</node>
	<node id="-149680" lat="61.0167777771" lon="9.32593334218">
		<tag k="name" v="Sørhellbekken" />
		<tag k="ssr:stedsnr" v="240367" />
		<tag k="waterway" v="stream" />
	</node>
	<node id="-149676" lat="61.042486114" lon="9.27154444667">
		<tag k="name" v="Pyttingatn" />
		<tag k="natural" v="water" />
		<tag k="ssr:stedsnr" v="240336" />
	</node>
	<node id="-149666" lat="60.9769888875" lon="9.32558055266">
		<tag k="name" v="Høgeføss" />
		<tag k="ssr:stedsnr" v="240289" />
		<tag k="waterway" v="rapids" />
	</node>
	<node id="-149661" lat="60.9555277771" lon="9.36876944222">
		<tag k="name" v="Tubbetjernet" />
		<tag k="natural" v="water" />
		<tag k="old_name" v="Tubbetjednet" />
		<tag k="ssr:stedsnr" v="240230" />
		<tag k="water" v="pond" />
	</node>
	<node id="-149530" lat="60.9444833319" lon="9.30859999735">
		<tag k="name" v="Hengslet" />
		<tag k="natural" v="beach" />
		<tag k="ssr:stedsnr" v="180386" />
	</node>
	<node id="-149657" lat="60.9752749986" lon="9.48622222209">
		<tag k="name" v="Skjenangselve" />
		<tag k="ssr:stedsnr" v="240039" />
		<tag k="waterway" v="river" />
	</node>
	<node id="-149647" lat="60.8877166664" lon="9.34154722221">
		<tag k="name" v="Timannstøltjernet" />
		<tag k="natural" v="water" />
		<tag k="old_name" v="Timannstøltjedne" />
		<tag k="ssr:stedsnr" v="238723" />
	</node>
	<node id="-149645" lat="60.9146166685" lon="9.23619444382">
		<tag k="name" v="Mørkabekken" />
		<tag k="ssr:stedsnr" v="238667" />
		<tag k="waterway" v="stream" />
	</node>
	<node id="-149644" lat="60.9564305531" lon="9.19398055838">
		<tag k="name" v="Lobekken" />
		<tag k="ssr:stedsnr" v="238577" />
		<tag k="waterway" v="stream" />
	</node>
	<node id="-149632" lat="60.8610194479" lon="9.20150277725">
		<tag k="name" v="Kvisseløyidn" />
		<tag k="place" v="island" />
		<tag k="ssr:stedsnr" v="236630" />
	</node>
	<node id="-149625" lat="60.9215444477" lon="9.12373888149">
		<tag k="name" v="Sandbakkbekken" />
		<tag k="ssr:stedsnr" v="235816" />
		<tag k="waterway" v="stream" />
	</node>
	<node id="-149622" lat="60.9102583296" lon="9.13427777476">
		<tag k="name" v="Kroktjernet" />
		<tag k="natural" v="water" />
		<tag k="old_name" v="Kroktjednet" />
		<tag k="ssr:stedsnr" v="235807" />
	</node>
	<node id="-149620" lat="60.8237249999" lon="9.08094165792">
		<tag k="name" v="Bakkhusbekken" />
		<tag k="ssr:stedsnr" v="235687" />
		<tag k="waterway" v="stream" />
	</node>
	<node id="-149612" lat="60.9402416669" lon="9.10793888585">
		<tag k="name" v="Regine Nordmannkulpen" />
		<tag k="natural" v="spring" />
		<tag k="ssr:stedsnr" v="235140" />
	</node>
	<node id="-149611" lat="60.9302805539" lon="9.15026389598">
		<tag k="name" v="Søreåne" />
		<tag k="ssr:stedsnr" v="235122" />
		<tag k="waterway" v="stream" />
	</node>
	<node id="-149603" lat="61.0650555579" lon="9.36294723083">
		<tag k="name" v="Urdstølputten" />
		<tag k="natural" v="water" />
		<tag k="ssr:stedsnr" v="221707" />
		<tag k="water" v="pond" />
	</node>
	<node id="-148837" lat="60.8469361085" lon="9.14893333395">
		<tag k="name" v="Tisleia" />
		<tag k="ssr:stedsnr" v="373459" />
		<tag k="waterway" v="river" />
	</node>
	<node id="-149595" lat="61.0273361146" lon="9.18395833953">
		<tag k="name" v="Kilen" />
		<tag k="natural" v="bay" />
		<tag k="ssr:stedsnr" v="221018" />
	</node>
	<node id="-149594" lat="60.9287527741" lon="9.45486944392">
		<tag k="name" v="Gyristøltjernet" />
		<tag k="natural" v="water" />
		<tag k="old_name" v="Gyristøltjednet" />
		<tag k="ssr:stedsnr" v="221225" />
	</node>
	<node id="-149593" lat="60.9338861142" lon="9.45546110612">
		<tag k="name" v="Aureputten" />
		<tag k="natural" v="water" />
		<tag k="ssr:stedsnr" v="221226" />
	</node>
	<node id="-151636" lat="60.8510068904" lon="9.28263601311">
		<tag k="name" v="Sagabakkøddin" />
		<tag k="natural" v="cape" />
		<tag k="ssr:stedsnr" v="968999" />
	</node>
	<node id="-151634" lat="60.8567194403" lon="9.30981667204">
		<tag k="name" v="Vinkjelda" />
		<tag k="natural" v="spring" />
		<tag k="old_name" v="Vinkjeldø" />
		<tag k="ssr:stedsnr" v="968991" />
	</node>
	<node id="-151632" lat="61.1621750031" lon="9.48194166418">
		<tag k="name" v="Susstølelve" />
		<tag k="natural" v="water" />
		<tag k="ssr:stedsnr" v="968956" />
	</node>
	<node id="-151631" lat="60.8272222178" lon="9.29912221679">
		<tag k="name" v="Diserudbekken" />
		<tag k="ssr:stedsnr" v="968957" />
		<tag k="waterway" v="stream" />
	</node>
	<node id="-151629" lat="60.9511833315" lon="9.39404721842">
		<tag k="name" v="Erstøltjernet" />
		<tag k="natural" v="water" />
		<tag k="old_name" v="Erstøltjednet" />
		<tag k="ssr:stedsnr" v="968879" />
	</node>
	<node id="-151625" lat="60.7909333301" lon="9.24566111311">
		<tag k="name" v="Bergahølen" />
		<tag k="natural" v="water" />
		<tag k="ssr:stedsnr" v="968761" />
	</node>
	<node id="-149574" lat="60.9431222188" lon="8.99446389686">
		<tag k="name" v="Knattetjernet" />
		<tag k="natural" v="water" />
		<tag k="old_name" v="Knattetjednet" />
		<tag k="ssr:stedsnr" v="191361" />
	</node>
	<node id="-151621" lat="61.0041722244" lon="9.21468610688">
		<tag k="name" v="Langøye" />
		<tag k="natural" v="cape" />
		<tag k="ssr:stedsnr" v="968602" />
	</node>
	<node id="-149174" lat="60.8543166712" lon="9.33106944471">
		<tag k="alt_name" v="Lortetjernet" />
		<tag k="name" v="Lortputten" />
		<tag k="natural" v="water" />
		<tag k="old_name" v="Lortetjednet" />
		<tag k="ssr:stedsnr" v="69682" />
	</node>
	<node id="-149570" lat="60.9985000018" lon="9.4736166589">
		<tag k="name" v="Gropabekken" />
		<tag k="ssr:stedsnr" v="191285" />
		<tag k="waterway" v="stream" />
	</node>
	<node id="-151617" lat="60.9831277737" lon="9.39621665772">
		<tag k="name" v="Størrtjernet" />
		<tag k="natural" v="water" />
		<tag k="old_name" v="Størrtjednet" />
		<tag k="ssr:stedsnr" v="968587" />
	</node>
	<node id="-151613" lat="60.996475" lon="9.50483055895">
		<tag k="name" v="Kvannebekken" />
		<tag k="ssr:stedsnr" v="968562" />
		<tag k="waterway" v="stream" />
	</node>
	<node id="-149563" lat="60.8271000026" lon="9.26695277442">
		<tag k="name" v="Strangetjerne" />
		<tag k="natural" v="water" />
		<tag k="old_name" v="Strangetjednet" />
		<tag k="ssr:stedsnr" v="190872" />
		<tag k="water" v="lake" />
	</node>
	<node id="-149562" lat="60.8263500007" lon="9.30743888674">
		<tag k="alt_name" v="Svartejednet" />
		<tag k="name" v="Svartetjernet" />
		<tag k="natural" v="water" />
		<tag k="ssr:stedsnr" v="190870" />
	</node>
	<node id="-151606" lat="60.9796361081" lon="9.23599167508">
		<tag k="name" v="Storøye" />
		<tag k="natural" v="cape" />
		<tag k="ssr:stedsnr" v="968434" />
	</node>
	<node id="-148489" lat="60.8267500006" lon="9.09356389064">
		<tag k="name" v="Øvre Fløtatn" />
		<tag k="natural" v="water" />
		<tag k="ssr:stedsnr" v="296090" />
	</node>
	<node id="-151604" lat="60.9333722205" lon="9.37094722857">
		<tag k="name" v="Feragensøye" />
		<tag k="place" v="islet" />
		<tag k="ssr:stedsnr" v="968413" />
	</node>
	<node id="-151600" lat="61.0189686399" lon="9.29287287744">
		<tag k="name" v="Bergsøddin" />
		<tag k="natural" v="cape" />
		<tag k="ssr:stedsnr" v="968378" />
	</node>
	<node id="-151599" lat="60.9388833317" lon="9.32301388586">
		<tag k="name" v="Temmerhølen" />
		<tag k="natural" v="bay" />
		<tag k="ssr:stedsnr" v="968376" />
	</node>
	<node id="-149544" lat="61.0780349688" lon="9.32658519801">
		<tag k="name" v="Siglovatnet" />
		<tag k="natural" v="water" />
		<tag k="ssr:stedsnr" v="189894" />
		<tag k="water" v="lake" />
	</node>
	<node id="-151591" lat="60.954877774" lon="9.30509999378">
		<tag k="name" v="Rustadøye" />
		<tag k="place" v="islet" />
		<tag k="ssr:stedsnr" v="968353" />
	</node>
	<node id="-151588" lat="60.9883694481" lon="9.30000555315">
		<tag k="name" v="Fløtatn" />
		<tag k="ssr:stedsnr" v="968299" />
		<tag k="waterway" v="river" />
	</node>
	<node id="-151587" lat="60.9763138914" lon="9.29512500039">
		<tag k="name" v="Leirefossen" />
		<tag k="ssr:stedsnr" v="968275" />
		<tag k="waterway" v="rapids" />
	</node>
	<node id="-149537" lat="61.0584096111" lon="9.32340511546">
		<tag k="alt_name" v="Bilbakktjernet" />
		<tag k="loc_name" v="Bilibakktjernet" />
		<tag k="name" v="Bilebakktjernet" />
		<tag k="natural" v="water" />
		<tag k="old_name" v="Bilebakktjednet" />
		<tag k="ssr:stedsnr" v="189566" />
	</node>
	<node id="-149534" lat="60.9443888862" lon="9.43634167187">
		<tag k="name" v="Frenningsbekken" />
		<tag k="ssr:stedsnr" v="180554" />
		<tag k="waterway" v="stream" />
	</node>
	<node id="-151578" lat="61.0089055518" lon="9.39322778059">
		<tag k="name" v="Smørlielve" />
		<tag k="ssr:stedsnr" v="968095" />
		<tag k="waterway" v="river" />
	</node>
	<node id="-149527" lat="61.0156138895" lon="9.30115277505">
		<tag k="name" v="Krakkebrenna" />
		<tag k="natural" v="water" />
		<tag k="ssr:stedsnr" v="180351" />
	</node>
	<node id="-149524" lat="60.9964750007" lon="9.09003334121">
		<tag k="name" v="Syndelselve" />
		<tag k="ssr:stedsnr" v="180304" />
		<tag k="waterway" v="river" />
	</node>
	<node id="-149518" lat="60.9512111105" lon="9.40530832769">
		<tag k="name" v="Myretjernet" />
		<tag k="natural" v="water" />
		<tag k="old_name" v="Myretjednet" />
		<tag k="ssr:stedsnr" v="179876" />
	</node>
	<node id="-150529" lat="60.9453666681" lon="9.3831583398">
		<tag k="name" v="Kvitingsbekken" />
		<tag k="ssr:stedsnr" v="616559" />
		<tag k="waterway" v="stream" />
	</node>
	<node id="-151556" lat="60.8632944485" lon="9.20575000015">
		<tag k="name" v="Sandhølen" />
		<tag k="natural" v="water" />
		<tag k="ssr:stedsnr" v="964639" />
		<tag k="water" v="lake" />
	</node>
	<node id="-151554" lat="61.1882444488" lon="9.44617499679">
		<tag k="name" v="Langevike" />
		<tag k="natural" v="bay" />
		<tag k="ssr:stedsnr" v="964467" />
	</node>
	<node id="-149505" lat="60.9726055525" lon="9.43153611579">
		<tag k="name" v="Kritetjernet" />
		<tag k="natural" v="water" />
		<tag k="old_name" v="Kritetjednet" />
		<tag k="ssr:stedsnr" v="179576" />
	</node>
</osm>
