<?xml version="1.0" encoding="UTF-8"?>
<<<<<<< HEAD
<osm version="0.6" generator="osmapis">
	<node lat="59.24020000185137" lon="11.571783335824751" id="-13361">
		<tag k="loc_name" v="Teigsørvannet" />
		<tag k="name" v="Teigsørvann" />
=======
<osm generator="osmapis" version="0.6">
	<node id="-234983" lat="59.3335595621" lon="11.7178914696">
		<tag k="name" v="Dyvelen" />
		<tag k="natural" v="water" />
		<tag k="ssr:stedsnr" v="538438" />
	</node>
	<node id="-234979" lat="59.312483832" lon="11.5754649439">
		<tag k="name" v="Hellesåbukta" />
		<tag k="natural" v="bay" />
		<tag k="ssr:stedsnr" v="476423" />
	</node>
	<node id="-234978" lat="59.3220531961" lon="11.5768656181">
		<tag k="name" v="Mellemsjøen" />
		<tag k="natural" v="water" />
		<tag k="ssr:stedsnr" v="962063" />
	</node>
	<node id="-234976" lat="59.3367224812" lon="11.6931429278">
		<tag k="name" v="Kutjern" />
		<tag k="natural" v="water" />
		<tag k="ssr:stedsnr" v="228632" />
	</node>
	<node id="-234975" lat="59.0852083344" lon="11.6769055541">
		<tag k="alt_name" v="Bjørketjern" />
		<tag k="name" v="Bjørke" />
		<tag k="natural" v="water" />
		<tag k="ssr:stedsnr" v="851454" />
	</node>
	<node id="-234972" lat="59.2549914867" lon="11.6132781941">
		<tag k="name" v="Vestre Tretjern" />
>>>>>>> e1d4bc35ff8a6074a6f2e91616a996b547c36f15
		<tag k="natural" v="water" />
		<tag k="ssr:stedsnr" v="1152" />
	</node>
<<<<<<< HEAD
	<node lat="59.0866305510528" lon="11.73356667017948" id="-13365">
		<tag k="name" v="Abbortjern" />
		<tag k="natural" v="water" />
		<tag k="ssr:stedsnr" v="1501" />
	</node>
	<node lat="59.15633611197468" lon="11.703874998677211" id="-13366">
		<tag k="name" v="Aspern" />
=======
	<node id="-234969" lat="59.2033927202" lon="11.6342263694">
		<tag k="name" v="Asketjern" />
		<tag k="natural" v="water" />
		<tag k="ssr:stedsnr" v="989417" />
	</node>
	<node id="-234965" lat="59.0794222269" lon="11.7640703753">
		<tag k="name" v="Grøtesbubekken" />
		<tag k="ssr:stedsnr" v="982297" />
		<tag k="waterway" v="stream" />
	</node>
	<node id="-234963" lat="59.203139083" lon="11.7824560419">
		<tag k="name" v="Byrvanna" />
>>>>>>> e1d4bc35ff8a6074a6f2e91616a996b547c36f15
		<tag k="natural" v="water" />
		<tag k="ssr:stedsnr" v="2005" />
		<tag k="water" v="lake" />
	</node>
<<<<<<< HEAD
	<node lat="59.286705556198825" lon="11.594925005271191" id="-13370">
		<tag k="alt_name" v="Sjølbuvannet" />
		<tag k="name" v="Skibuvannet" />
=======
	<node id="-234962" lat="59.204245815" lon="11.6187705022">
		<tag k="name" v="Stendamtjerna" />
>>>>>>> e1d4bc35ff8a6074a6f2e91616a996b547c36f15
		<tag k="natural" v="water" />
		<tag k="ssr:stedsnr" v="3642" />
	</node>
<<<<<<< HEAD
	<node lat="59.258391668566794" lon="11.596858328956925" id="-13371">
		<tag k="alt_name" v="Setertjern" />
		<tag k="name" v="Setertjernet" />
=======
	<node id="-234961" lat="59.0848774853" lon="11.69742138">
		<tag k="name" v="Tjernimellem" />
>>>>>>> e1d4bc35ff8a6074a6f2e91616a996b547c36f15
		<tag k="natural" v="water" />
		<tag k="ssr:stedsnr" v="3711" />
	</node>
<<<<<<< HEAD
	<node lat="59.25396218439404" lon="11.559687556502535" id="-13373">
		<tag k="fixme" v="multiple name tags, choose one and add the other to alt_name" />
		<tag k="name" v="Kampetjernet;Blanktjerna" />
=======
	<node id="-234959" lat="59.1826714835" lon="11.7576233378">
		<tag k="name" v="Busterudtjerna" />
>>>>>>> e1d4bc35ff8a6074a6f2e91616a996b547c36f15
		<tag k="natural" v="water" />
		<tag k="ssr:stedsnr" v="3729" />
	</node>
<<<<<<< HEAD
	<node lat="59.32013611522393" lon="11.663477777035403" id="-13375">
		<tag k="name" v="Bøenbunn" />
		<tag k="natural" v="bay" />
		<tag k="ssr:stedsnr" v="6014" />
	</node>
	<node lat="59.04400000142035" lon="11.704666660499495" id="-13381">
		<tag k="name" v="Stokkebukt" />
		<tag k="natural" v="bay" />
		<tag k="ssr:stedsnr" v="232923" />
	</node>
	<node lat="59.28021666717036" lon="11.654633337436815" id="-13382">
		<tag k="name" v="Tenebekken" />
		<tag k="ssr:stedsnr" v="233100" />
		<tag k="waterway" v="stream" />
	</node>
	<node lat="59.080838892448604" lon="11.68518889719319" id="-13383">
		<tag k="name" v="Mosetjern" />
=======
	<node id="-234957" lat="59.2428916685" lon="11.5797361067">
		<tag k="name" v="Blekketjern" />
>>>>>>> e1d4bc35ff8a6074a6f2e91616a996b547c36f15
		<tag k="natural" v="water" />
		<tag k="ssr:stedsnr" v="233061" />
	</node>
<<<<<<< HEAD
	<node lat="59.26461111115389" lon="11.743433332184468" id="-13385">
		<tag k="name" v="Hallesbytjernet" />
=======
	<node id="-234956" lat="59.1963277808" lon="11.6505361099">
		<tag k="name" v="Mellomdyvel" />
>>>>>>> e1d4bc35ff8a6074a6f2e91616a996b547c36f15
		<tag k="natural" v="water" />
		<tag k="ssr:stedsnr" v="233162" />
	</node>
<<<<<<< HEAD
	<node lat="59.3165055553041" lon="11.718683337344986" id="-13386">
		<tag k="name" v="Nebba" />
		<tag k="natural" v="cape" />
		<tag k="ssr:stedsnr" v="233210" />
	</node>
	<node lat="59.308983335237194" lon="11.75423055817296" id="-13391">
		<tag k="name" v="Tjøsteltjern" />
=======
	<node id="-234954" lat="59.1550568352" lon="11.7739074841">
		<tag k="name" v="Kroktjern" />
>>>>>>> e1d4bc35ff8a6074a6f2e91616a996b547c36f15
		<tag k="natural" v="water" />
		<tag k="ssr:stedsnr" v="233820" />
	</node>
<<<<<<< HEAD
	<node lat="59.276133332238025" lon="11.788916665547731" id="-13392">
		<tag k="name" v="Erttjern" />
=======
	<node id="-234953" lat="59.2196472195" lon="11.6521694426">
		<tag k="name" v="Blanketjern" />
>>>>>>> e1d4bc35ff8a6074a6f2e91616a996b547c36f15
		<tag k="natural" v="water" />
		<tag k="ssr:stedsnr" v="233827" />
	</node>
<<<<<<< HEAD
	<node lat="59.2905583296159" lon="11.80165554967764" id="-13393">
		<tag k="name" v="Bjørnesundet" />
=======
	<node id="-234952" lat="59.2207305525" lon="11.685994444">
		<tag k="name" v="Solbergsundet" />
>>>>>>> e1d4bc35ff8a6074a6f2e91616a996b547c36f15
		<tag k="natural" v="strait" />
		<tag k="ssr:stedsnr" v="233974" />
	</node>
<<<<<<< HEAD
	<node lat="59.22473055266137" lon="11.683802782790652" id="-13396">
		<tag k="name" v="Kalveneset" />
		<tag k="natural" v="cape" />
		<tag k="ssr:stedsnr" v="234548" />
	</node>
	<node lat="59.156397221718436" lon="11.735966669492758" id="-13404">
		<tag k="name" v="Kolsbukta" />
=======
	<node id="-234949" lat="59.2793027746" lon="11.8045055514">
		<tag k="name" v="Nordre Hjerpenes bukt" />
>>>>>>> e1d4bc35ff8a6074a6f2e91616a996b547c36f15
		<tag k="natural" v="bay" />
		<tag k="ssr:stedsnr" v="51704" />
	</node>
<<<<<<< HEAD
	<node lat="59.22321944242972" lon="11.682122221753696" id="-13410">
		<tag k="name" v="Svennebukta" />
=======
	<node id="-234948" lat="59.2737861088" lon="11.802805558">
		<tag k="name" v="Hølen" />
>>>>>>> e1d4bc35ff8a6074a6f2e91616a996b547c36f15
		<tag k="natural" v="bay" />
		<tag k="ssr:stedsnr" v="52282" />
	</node>
<<<<<<< HEAD
	<node lat="59.194706127536584" lon="11.782985357819669" id="-13414">
		<tag k="name" v="Svenskedyvlene" />
=======
	<node id="-234947" lat="59.2767055529" lon="11.730605556">
		<tag k="name" v="Byrvanna" />
>>>>>>> e1d4bc35ff8a6074a6f2e91616a996b547c36f15
		<tag k="natural" v="water" />
		<tag k="ssr:stedsnr" v="52914" />
		<tag k="water" v="lake" />
	</node>
<<<<<<< HEAD
	<node lat="59.194805554438695" lon="11.759038890919605" id="-13415">
		<tag k="name" v="Vindtjern" />
		<tag k="natural" v="water" />
		<tag k="ssr:stedsnr" v="52916" />
	</node>
	<node lat="59.24670833240176" lon="11.575255546807448" id="-13417">
		<tag k="name" v="Nordre Hagetjern" />
		<tag k="natural" v="water" />
		<tag k="ssr:stedsnr" v="52984" />
	</node>
	<node lat="59.2317972184651" lon="11.809825003299247" id="-13419">
		<tag k="fixme" v="multiple name tags, choose one and add the other to alt_name" />
		<tag k="name" v="Rødstjern;Rødsvann" />
		<tag k="natural" v="water" />
		<tag k="ssr:stedsnr" v="62122" />
	</node>
	<node lat="59.237602190478576" lon="11.825214177007599" id="-13422">
		<tag k="name" v="Salholmen" />
		<tag k="place" v="islet" />
		<tag k="ssr:stedsnr" v="62226" />
	</node>
	<node lat="59.08563889226363" lon="11.684041663319798" id="-13423">
		<tag k="name" v="Svarttjern" />
		<tag k="natural" v="water" />
		<tag k="ssr:stedsnr" v="62484" />
	</node>
	<node lat="59.19746667082444" lon="11.774033336224917" id="-13431">
		<tag k="alt_name" v="Elgtjern" />
		<tag k="name" v="Nordre Elgtjern" />
=======
	<node id="-234945" lat="59.1582166678" lon="11.7314055505">
		<tag k="name" v="Tripperødbukta" />
		<tag k="natural" v="bay" />
		<tag k="ssr:stedsnr" v="961683" />
	</node>
	<node id="-234944" lat="59.1502138917" lon="11.6664888947">
		<tag k="name" v="Aspetangbukta" />
		<tag k="natural" v="bay" />
		<tag k="ssr:stedsnr" v="961500" />
	</node>
	<node id="-234943" lat="59.1530027794" lon="11.6837944429">
		<tag k="name" v="Bjørnebauen" />
		<tag k="natural" v="bay" />
		<tag k="ssr:stedsnr" v="961480" />
	</node>
	<node id="-234942" lat="59.180347218" lon="11.6905083262">
		<tag k="name" v="Mellebyelva" />
		<tag k="ssr:stedsnr" v="961335" />
		<tag k="waterway" v="river" />
	</node>
	<node id="-234941" lat="59.2968361081" lon="11.5887916595">
		<tag k="name" v="Hellesåbekken" />
		<tag k="ssr:stedsnr" v="961327" />
		<tag k="waterway" v="stream" />
	</node>
	<node id="-234939" lat="59.1311166633" lon="11.7057333358">
		<tag k="name" v="Koddetjern" />
>>>>>>> e1d4bc35ff8a6074a6f2e91616a996b547c36f15
		<tag k="natural" v="water" />
		<tag k="ssr:stedsnr" v="244075" />
	</node>
<<<<<<< HEAD
	<node lat="59.23298333105464" lon="11.648766666610136" id="-13434">
		<tag k="name" v="Lakasdammen" />
		<tag k="natural" v="water" />
		<tag k="ssr:stedsnr" v="244149" />
	</node>
	<node lat="59.23154444369234" lon="11.581349993281263" id="-13436">
		<tag k="name" v="Ørvassbekken" />
		<tag k="ssr:stedsnr" v="244161" />
		<tag k="waterway" v="stream" />
	</node>
	<node lat="59.21542499864382" lon="11.609013888075586" id="-13438">
		<tag k="name" v="Smalørvann" />
		<tag k="natural" v="water" />
		<tag k="ssr:stedsnr" v="244171" />
	</node>
	<node lat="59.247450149093766" lon="11.566247439894138" id="-13441">
		<tag k="alt_name" v="Fyldengørvann" />
		<tag k="name" v="Følingørvann" />
=======
	<node id="-234930" lat="59.2987367523" lon="11.8030703222">
		<tag k="alt_name" v="Koløa" />
		<tag k="name" v="Koløya" />
		<tag k="place" v="islet" />
		<tag k="ssr:stedsnr" v="853652" />
	</node>
	<node id="-234928" lat="59.2524388913" lon="11.8192777753">
		<tag k="name" v="Mosbekkbukta" />
		<tag k="natural" v="bay" />
		<tag k="ssr:stedsnr" v="853612" />
	</node>
	<node id="-234925" lat="59.2684611093" lon="11.8163388918">
		<tag k="alt_name" v="Mosvikøa" />
		<tag k="name" v="Mosvikøya" />
		<tag k="place" v="islet" />
		<tag k="ssr:stedsnr" v="853709" />
	</node>
	<node id="-234924" lat="59.3110833308" lon="11.7076166721">
		<tag k="alt_name" v="Langetjern" />
		<tag k="name" v="Langetjernet" />
>>>>>>> e1d4bc35ff8a6074a6f2e91616a996b547c36f15
		<tag k="natural" v="water" />
		<tag k="old_name" v="Fyllingsørvatn;Fyllingsørvann" />
		<tag k="ssr:stedsnr" v="244248" />
		<tag k="water" v="lake" />
	</node>
<<<<<<< HEAD
	<node lat="59.12208055981548" lon="11.715713896348161" id="-13444">
		<tag k="name" v="Holmetjern" />
=======
	<node id="-234923" lat="59.0878388884" lon="11.6958250056">
		<tag k="alt_name" v="Tjernimellom" />
		<tag k="name" v="Nordre Tjernimellem" />
>>>>>>> e1d4bc35ff8a6074a6f2e91616a996b547c36f15
		<tag k="natural" v="water" />
		<tag k="ssr:stedsnr" v="245046" />
	</node>
<<<<<<< HEAD
	<node lat="59.2982333375286" lon="11.79487222330423" id="-13446">
		<tag k="alt_name" v="Løvøa" />
		<tag k="name" v="Lauvøya" />
=======
	<node id="-234921" lat="59.1735944417" lon="11.7099805471">
		<tag k="alt_name" v="Vestgårdøa" />
		<tag k="name" v="Vestgårdøya" />
>>>>>>> e1d4bc35ff8a6074a6f2e91616a996b547c36f15
		<tag k="place" v="islet" />
		<tag k="ssr:stedsnr" v="246639" />
	</node>
<<<<<<< HEAD
	<node lat="59.280611107589884" lon="11.757922227502528" id="-13449">
		<tag k="name" v="Trestikle" />
=======
	<node id="-234918" lat="59.1372846038" lon="11.6481581462">
		<tag k="name" v="Klaretjern" />
>>>>>>> e1d4bc35ff8a6074a6f2e91616a996b547c36f15
		<tag k="natural" v="water" />
		<tag k="ssr:stedsnr" v="246670" />
	</node>
<<<<<<< HEAD
	<node lat="59.280752777523055" lon="11.743974993810358" id="-13451">
		<tag k="alt_name" v="Kroktjern" />
		<tag k="name" v="Kroktjernet" />
		<tag k="natural" v="water" />
		<tag k="ssr:stedsnr" v="246674" />
	</node>
	<node lat="59.31650000383261" lon="11.66373889191227" id="-13454">
		<tag k="name" v="Mokalltjernet" />
=======
	<node id="-234917" lat="59.0737694468" lon="11.6845638805">
		<tag k="alt_name" v="Gravdalstjern" />
		<tag k="name" v="Gravedalstjernet" />
		<tag k="natural" v="water" />
		<tag k="ssr:stedsnr" v="851374" />
	</node>
	<node id="-234912" lat="59.2093388875" lon="11.7546416595">
		<tag k="name" v="Sjafet" />
		<tag k="ssr:stedsnr" v="851156" />
		<tag k="waterway" v="stream" />
	</node>
	<node id="-234906" lat="59.254416666" lon="11.5639083376">
		<tag k="name" v="Blanktjern" />
>>>>>>> e1d4bc35ff8a6074a6f2e91616a996b547c36f15
		<tag k="natural" v="water" />
		<tag k="ssr:stedsnr" v="98012" />
	</node>
<<<<<<< HEAD
	<node lat="59.235436114750364" lon="11.67520832885167" id="-13457">
		<tag k="name" v="Mørkebukt" />
		<tag k="natural" v="bay" />
		<tag k="ssr:stedsnr" v="98478" />
	</node>
	<node lat="59.32996667018574" lon="11.66869721905939" id="-13458">
		<tag k="name" v="Ulven" />
		<tag k="place" v="islet" />
		<tag k="ssr:stedsnr" v="248052" />
	</node>
	<node lat="59.15675833359524" lon="11.732827781140989" id="-13468">
		<tag k="name" v="Trulseholmen" />
		<tag k="natural" v="cape" />
		<tag k="ssr:stedsnr" v="112671" />
	</node>
	<node lat="59.15948055745105" lon="11.723002777725133" id="-13469">
		<tag k="name" v="Grotmålskjæret" />
		<tag k="place" v="islet" />
		<tag k="ssr:stedsnr" v="112672" />
	</node>
	<node lat="59.23231111034817" lon="11.586372217665856" id="-13475">
		<tag k="name" v="Fjelltjern" />
=======
	<node id="-234903" lat="59.1909277803" lon="11.6100861069">
		<tag k="name" v="Store sundet" />
		<tag k="natural" v="strait" />
		<tag k="ssr:stedsnr" v="841995" />
	</node>
	<node id="-234902" lat="59.1893583346" lon="11.6069027735">
		<tag k="name" v="Lille sundet" />
		<tag k="natural" v="strait" />
		<tag k="ssr:stedsnr" v="841994" />
	</node>
	<node id="-234893" lat="59.146652776" lon="11.7146916709">
		<tag k="name" v="Høyneset" />
		<tag k="natural" v="cape" />
		<tag k="ssr:stedsnr" v="840486" />
	</node>
	<node id="-234892" lat="59.1669694488" lon="11.6895972212">
		<tag k="name" v="Løken" />
		<tag k="natural" v="strait" />
		<tag k="ssr:stedsnr" v="840351" />
	</node>
	<node id="-234875" lat="59.0813083312" lon="11.7489944469">
		<tag k="name" v="Latjern" />
		<tag k="natural" v="water" />
		<tag k="ssr:stedsnr" v="827432" />
		<tag k="water" v="pond" />
	</node>
	<node id="-234867" lat="59.2672999986" lon="11.5784777719">
		<tag k="name" v="Andetjern" />
		<tag k="natural" v="water" />
		<tag k="ssr:stedsnr" v="826381" />
	</node>
	<node id="-234863" lat="59.2807500039" lon="11.5753500003">
		<tag k="name" v="Vesle Blanketjern" />
>>>>>>> e1d4bc35ff8a6074a6f2e91616a996b547c36f15
		<tag k="natural" v="water" />
		<tag k="ssr:stedsnr" v="113986" />
	</node>
<<<<<<< HEAD
	<node lat="59.29728942999772" lon="11.774834175761953" id="-13480">
		<tag k="alt_name" v="Pålstadvika" />
		<tag k="name" v="Pollstadvika" />
=======
	<node id="-234860" lat="59.3293333365" lon="11.6438027713">
		<tag k="name" v="Store Bauen" />
>>>>>>> e1d4bc35ff8a6074a6f2e91616a996b547c36f15
		<tag k="natural" v="bay" />
		<tag k="ssr:stedsnr" v="124615" />
	</node>
<<<<<<< HEAD
	<node lat="59.28857500201869" lon="11.572569449070853" id="-13481">
		<tag k="name" v="Holmetjern" />
=======
	<node id="-234858" lat="59.2700250034" lon="11.5982166591">
		<tag k="alt_name" v="Furutjern" />
		<tag k="name" v="Furutjernet" />
>>>>>>> e1d4bc35ff8a6074a6f2e91616a996b547c36f15
		<tag k="natural" v="water" />
		<tag k="ssr:stedsnr" v="124622" />
	</node>
<<<<<<< HEAD
	<node lat="59.274822223965664" lon="11.564686109243608" id="-13484">
		<tag k="alt_name" v="Sambudalstjern" />
		<tag k="name" v="Samedaltjernet" />
=======
	<node id="-234855" lat="59.2787749967" lon="11.5665444426">
		<tag k="alt_name" v="Skjølja" />
		<tag k="name" v="Sjulitjernet" />
>>>>>>> e1d4bc35ff8a6074a6f2e91616a996b547c36f15
		<tag k="natural" v="water" />
		<tag k="ssr:stedsnr" v="124665" />
	</node>
<<<<<<< HEAD
	<node lat="59.26639444658427" lon="11.797088884276494" id="-13485">
		<tag k="alt_name" v="Tolsbytjern" />
		<tag k="name" v="Tolsbytjernet" />
=======
	<node id="-234854" lat="59.287130554" lon="11.7968249926">
		<tag k="alt_name" v="Gjeddetjern" />
		<tag k="name" v="Gjeddetjernet" />
>>>>>>> e1d4bc35ff8a6074a6f2e91616a996b547c36f15
		<tag k="natural" v="water" />
		<tag k="ssr:stedsnr" v="124669" />
	</node>
<<<<<<< HEAD
	<node lat="59.26968610703725" lon="11.607091670668563" id="-13487">
		<tag k="name" v="Helvetestjern" />
=======
	<node id="-234849" lat="59.2616444453" lon="11.7894333376">
		<tag k="alt_name" v="Gubberudtjernet" />
		<tag k="name" v="Gubberødtjern" />
>>>>>>> e1d4bc35ff8a6074a6f2e91616a996b547c36f15
		<tag k="natural" v="water" />
		<tag k="ssr:stedsnr" v="158349" />
	</node>
<<<<<<< HEAD
	<node lat="59.28191389295188" lon="11.57775555662031" id="-13489">
		<tag k="name" v="Blanketjern" />
=======
	<node id="-234846" lat="59.2281381201" lon="11.5977900967">
		<tag k="name" v="Buerørvann" />
>>>>>>> e1d4bc35ff8a6074a6f2e91616a996b547c36f15
		<tag k="natural" v="water" />
		<tag k="ssr:stedsnr" v="158356" />
	</node>
<<<<<<< HEAD
	<node lat="59.11588332990359" lon="11.74487778365254" id="-13498">
		<tag k="name" v="Husetjern" />
=======
	<node id="-234845" lat="59.220845812" lon="11.7661570042">
		<tag k="fixme" v="multiple name tags, choose one and add the other to alt_name" />
		<tag k="name" v="Andtjern;Damtjern" />
>>>>>>> e1d4bc35ff8a6074a6f2e91616a996b547c36f15
		<tag k="natural" v="water" />
		<tag k="ssr:stedsnr" v="172407" />
	</node>
<<<<<<< HEAD
	<node lat="59.1224444403475" lon="11.65927777691414" id="-13499">
		<tag k="name" v="Vardekolltjern" />
=======
	<node id="-234842" lat="59.0461666683" lon="11.7232666697">
		<tag k="name" v="Korstjern" />
>>>>>>> e1d4bc35ff8a6074a6f2e91616a996b547c36f15
		<tag k="natural" v="water" />
		<tag k="ssr:stedsnr" v="172421" />
	</node>
<<<<<<< HEAD
	<node lat="59.14996389208741" lon="11.685516669041771" id="-13501">
		<tag k="name" v="Flintesand" />
		<tag k="natural" v="bay" />
		<tag k="ssr:stedsnr" v="172504" />
	</node>
	<node lat="59.30268611290678" lon="11.770780554320838" id="-13504">
		<tag k="name" v="Mørkvik" />
		<tag k="natural" v="bay" />
		<tag k="ssr:stedsnr" v="172820" />
	</node>
	<node lat="59.26878889251332" lon="11.808713894543327" id="-13506">
		<tag k="name" v="Mosviktangen" />
		<tag k="natural" v="cape" />
		<tag k="ssr:stedsnr" v="172826" />
	</node>
	<node lat="59.134647226572476" lon="11.714405552908769" id="-13507">
		<tag k="name" v="Tretjern" />
=======
	<node id="-234841" lat="59.0431361102" lon="11.6997666593">
		<tag k="name" v="Vabutangen" />
		<tag k="natural" v="cape" />
		<tag k="ssr:stedsnr" v="790429" />
	</node>
	<node id="-234838" lat="59.2329027818" lon="11.5945527806">
		<tag k="name" v="Hønetjern" />
>>>>>>> e1d4bc35ff8a6074a6f2e91616a996b547c36f15
		<tag k="natural" v="water" />
		<tag k="ssr:stedsnr" v="172859" />
	</node>
<<<<<<< HEAD
	<node lat="59.2193722202584" lon="11.630766665739154" id="-13510">
		<tag k="name" v="Godthull" />
=======
	<node id="-234836" lat="59.2225249971" lon="11.5819333254">
		<tag k="name" v="Lunnetjern" />
>>>>>>> e1d4bc35ff8a6074a6f2e91616a996b547c36f15
		<tag k="natural" v="water" />
		<tag k="ssr:stedsnr" v="173305" />
	</node>
<<<<<<< HEAD
	<node lat="59.18378610912173" lon="11.756733325134244" id="-13512">
		<tag k="name" v="Nordre Busterudtjern" />
=======
	<node id="-234833" lat="59.1858499967" lon="11.6181916682">
		<tag k="name" v="Kutjern" />
>>>>>>> e1d4bc35ff8a6074a6f2e91616a996b547c36f15
		<tag k="natural" v="water" />
		<tag k="ssr:stedsnr" v="173913" />
	</node>
<<<<<<< HEAD
	<node lat="59.0670305580036" lon="11.736525004625657" id="-13514">
		<tag k="alt_name" v="Søndre Høyklevtjern" />
		<tag k="name" v="Søndre Høykleivtjern" />
		<tag k="natural" v="water" />
		<tag k="ssr:stedsnr" v="183358" />
	</node>
	<node lat="59.07600277593432" lon="11.732455551595327" id="-13516">
		<tag k="name" v="Tangetjern" />
		<tag k="natural" v="water" />
		<tag k="ssr:stedsnr" v="183363" />
	</node>
	<node lat="59.19605555717517" lon="11.77838889461773" id="-13517">
		<tag k="alt_name" v="Elgtjern" />
		<tag k="name" v="Søndre Elgtjern" />
		<tag k="natural" v="water" />
		<tag k="ssr:stedsnr" v="184043" />
	</node>
	<node lat="59.19230833490511" lon="11.751252779161605" id="-13518">
		<tag k="name" v="Kverntjern" />
		<tag k="natural" v="water" />
		<tag k="ssr:stedsnr" v="184048" />
	</node>
	<node lat="59.054600003327735" lon="11.713799999761351" id="-13523">
		<tag k="alt_name" v="Bekkengtjern" />
		<tag k="name" v="Bekkengtjernet" />
=======
	<node id="-234830" lat="59.2150055583" lon="11.6883111148">
		<tag k="name" v="Skotsbergelva" />
		<tag k="ssr:stedsnr" v="780301" />
		<tag k="waterway" v="river" />
	</node>
	<node id="-234825" lat="59.2095277814" lon="11.7183694523">
		<tag k="name" v="Skinnerfossen" />
		<tag k="natural" v="waterfall" />
		<tag k="ssr:stedsnr" v="780293" />
	</node>
	<node id="-234821" lat="59.2956777797" lon="11.7820500078">
		<tag k="name" v="Engerlandet" />
		<tag k="natural" v="cape" />
		<tag k="ssr:stedsnr" v="779964" />
	</node>
	<node id="-234819" lat="59.314194446" lon="11.7825972257">
		<tag k="name" v="Kråkevikholmen" />
		<tag k="place" v="islet" />
		<tag k="ssr:stedsnr" v="779947" />
	</node>
	<node id="-234816" lat="59.0631500041" lon="11.7126999967">
		<tag k="name" v="Jontjern" />
>>>>>>> e1d4bc35ff8a6074a6f2e91616a996b547c36f15
		<tag k="natural" v="water" />
		<tag k="ssr:stedsnr" v="184443" />
	</node>
<<<<<<< HEAD
	<node lat="59.314391664384424" lon="11.740605561739017" id="-13526">
		<tag k="name" v="Metartjern" />
		<tag k="natural" v="water" />
		<tag k="ssr:stedsnr" v="185605" />
	</node>
	<node lat="59.31506113347723" lon="11.717801446913192" id="-13527">
		<tag k="alt_name" v="Bøensætretjern" />
		<tag k="name" v="Setertjernet" />
		<tag k="natural" v="water" />
		<tag k="ssr:stedsnr" v="185608" />
	</node>
	<node lat="59.29095832948567" lon="11.66793888904048" id="-13528">
		<tag k="name" v="Fangeøya" />
=======
	<node id="-234814" lat="59.0404944443" lon="11.710372227">
		<tag k="name" v="Jacobsholene" />
		<tag k="natural" v="bay" />
		<tag k="ssr:stedsnr" v="779932" />
	</node>
	<node id="-234813" lat="59.2968777811" lon="11.7734194509">
		<tag k="name" v="Pålstadvika" />
		<tag k="natural" v="bay" />
		<tag k="ssr:stedsnr" v="779795" />
	</node>
	<node id="-234812" lat="59.304388892" lon="11.7721666735">
		<tag k="name" v="Mørkvikholmen" />
>>>>>>> e1d4bc35ff8a6074a6f2e91616a996b547c36f15
		<tag k="place" v="islet" />
		<tag k="ssr:stedsnr" v="185643" />
	</node>
<<<<<<< HEAD
	<node lat="59.319725297857886" lon="11.57845868086617" id="-13531">
		<tag k="fixme" v="multiple name tags, choose one and add the other to alt_name" />
		<tag k="name" v="Kolbjørnviksjøen;Kolviksjøen" />
=======
	<node id="-234810" lat="59.2892111105" lon="11.7429888892">
		<tag k="name" v="Lyngartjern" />
>>>>>>> e1d4bc35ff8a6074a6f2e91616a996b547c36f15
		<tag k="natural" v="water" />
		<tag k="old_name" v="Kolbjørnsvik Sjø" />
		<tag k="ssr:stedsnr" v="185588" />
		<tag k="water" v="lake" />
	</node>
<<<<<<< HEAD
	<node lat="59.319272415586795" lon="11.636805704987424" id="-13532">
		<tag k="name" v="Bredmostjern" />
		<tag k="natural" v="water" />
		<tag k="ssr:stedsnr" v="185592" />
	</node>
	<node lat="59.33672248119112" lon="11.693142927804807" id="-13541">
		<tag k="name" v="Kutjern" />
		<tag k="natural" v="water" />
		<tag k="ssr:stedsnr" v="228632" />
	</node>
	<node lat="59.26985277913859" lon="11.662850005335883" id="-13544">
		<tag k="name" v="Rivesundet" />
		<tag k="natural" v="strait" />
		<tag k="ssr:stedsnr" v="234087" />
	</node>
	<node lat="59.21223055977491" lon="11.621788889650045" id="-13545">
		<tag k="name" v="Abbortjern" />
=======
	<node id="-234809" lat="59.1379527753" lon="11.6789611161">
		<tag k="name" v="Remnetangen" />
		<tag k="natural" v="cape" />
		<tag k="ssr:stedsnr" v="779499" />
	</node>
	<node id="-234802" lat="59.3161972194" lon="11.6963555481">
		<tag k="name" v="Ringsholmen" />
		<tag k="place" v="islet" />
		<tag k="ssr:stedsnr" v="779182" />
	</node>
	<node id="-234797" lat="59.2751055584" lon="11.6660166585">
		<tag k="name" v="Klokkernebba" />
		<tag k="natural" v="cape" />
		<tag k="ssr:stedsnr" v="779054" />
	</node>
	<node id="-234795" lat="59.3092611097" lon="11.6477777793">
		<tag k="name" v="Torgettjernet" />
>>>>>>> e1d4bc35ff8a6074a6f2e91616a996b547c36f15
		<tag k="natural" v="water" />
		<tag k="ssr:stedsnr" v="234314" />
	</node>
<<<<<<< HEAD
	<node lat="59.19689444370471" lon="11.614516659665858" id="-13547">
		<tag k="name" v="Nedre Fløtma" />
=======
	<node id="-234794" lat="59.0857083309" lon="11.6940027863">
		<tag k="name" v="Vestre Tjernimellem" />
>>>>>>> e1d4bc35ff8a6074a6f2e91616a996b547c36f15
		<tag k="natural" v="water" />
		<tag k="ssr:stedsnr" v="234905" />
	</node>
<<<<<<< HEAD
	<node lat="59.24316110888808" lon="11.82643611584869" id="-13553">
		<tag k="name" v="Svartodde" />
		<tag k="natural" v="cape" />
		<tag k="ssr:stedsnr" v="244238" />
	</node>
	<node lat="59.04819166294327" lon="11.683250006503934" id="-13555">
		<tag k="fixme" v="multiple name tags, choose one and add the other to alt_name" />
		<tag k="name" v="Kvernbukta;Kasebukta" />
		<tag k="natural" v="bay" />
		<tag k="ssr:stedsnr" v="244434" />
	</node>
	<node lat="59.20392130146998" lon="11.764314043132497" id="-13556">
		<tag k="alt_name" v="Fiskeløstjerna" />
		<tag k="name" v="Fiskeløs" />
=======
	<node id="-234785" lat="59.1238694465" lon="11.7252777782">
		<tag k="name" v="Galteryggtjern" />
		<tag k="natural" v="water" />
		<tag k="ssr:stedsnr" v="766270" />
	</node>
	<node id="-234783" lat="59.1800833315" lon="11.6504694524">
		<tag k="name" v="Løkholtbekken" />
		<tag k="ssr:stedsnr" v="766260" />
		<tag k="waterway" v="stream" />
	</node>
	<node id="-234778" lat="59.0739916659" lon="11.7414972299">
		<tag k="name" v="Jonshøljen" />
>>>>>>> e1d4bc35ff8a6074a6f2e91616a996b547c36f15
		<tag k="natural" v="water" />
		<tag k="ssr:stedsnr" v="244191" />
		<tag k="water" v="lake" />
	</node>
<<<<<<< HEAD
	<node lat="59.05565278090889" lon="11.679033329192112" id="-13557">
		<tag k="name" v="Skogfjorden" />
=======
	<node id="-234777" lat="59.2519527823" lon="11.6074388865">
		<tag k="name" v="Setertjern" />
>>>>>>> e1d4bc35ff8a6074a6f2e91616a996b547c36f15
		<tag k="natural" v="water" />
		<tag k="ssr:stedsnr" v="244387" />
		<tag k="water" v="lake" />
	</node>
<<<<<<< HEAD
	<node lat="59.11759444591341" lon="11.726505555110535" id="-13559">
		<tag k="fixme" v="multiple name tags, choose one and add the other to alt_name" />
		<tag k="name" v="Lundebredtjern;Bredtjern" />
		<tag k="natural" v="water" />
		<tag k="ssr:stedsnr" v="244482" />
	</node>
	<node lat="59.25639856762073" lon="11.65612037150792" id="-13560">
		<tag k="name" v="Følingøya" />
=======
	<node id="-234776" lat="59.3098166673" lon="11.7235805629">
		<tag k="name" v="Myrsnipa" />
		<tag k="natural" v="bay" />
		<tag k="ssr:stedsnr" v="644047" />
	</node>
	<node id="-234771" lat="59.2729638854" lon="11.6704638837">
		<tag k="name" v="Kavringen" />
>>>>>>> e1d4bc35ff8a6074a6f2e91616a996b547c36f15
		<tag k="place" v="islet" />
		<tag k="ssr:stedsnr" v="245602" />
	</node>
<<<<<<< HEAD
	<node lat="59.25344999712737" lon="11.776850007279643" id="-13561">
		<tag k="alt_name" v="Igletjern" />
		<tag k="name" v="Igletjernet" />
=======
	<node id="-234770" lat="59.2731889493" lon="11.5775864882">
		<tag k="alt_name" v="Elgtjern" />
		<tag k="name" v="Elgetjernet" />
>>>>>>> e1d4bc35ff8a6074a6f2e91616a996b547c36f15
		<tag k="natural" v="water" />
		<tag k="ssr:stedsnr" v="245609" />
	</node>
<<<<<<< HEAD
	<node lat="59.29943333627287" lon="11.5913777740908" id="-13564">
		<tag k="alt_name" v="Mørketjerna" />
		<tag k="name" v="Mørketjern" />
=======
	<node id="-234767" lat="59.2843249991" lon="11.7347972229">
		<tag k="alt_name" v="Smørtjern" />
		<tag k="name" v="Smørtjernet" />
>>>>>>> e1d4bc35ff8a6074a6f2e91616a996b547c36f15
		<tag k="natural" v="water" />
		<tag k="ssr:stedsnr" v="246634" />
	</node>
<<<<<<< HEAD
	<node lat="59.28420583876764" lon="11.610168409794197" id="-13567">
		<tag k="name" v="Berggrøttjerna" />
=======
	<node id="-234763" lat="59.1129951504" lon="11.7167568441">
		<tag k="name" v="Langetjern" />
>>>>>>> e1d4bc35ff8a6074a6f2e91616a996b547c36f15
		<tag k="natural" v="water" />
		<tag k="ssr:stedsnr" v="280308" />
		<tag k="water" v="lake" />
	</node>
<<<<<<< HEAD
	<node lat="59.22829166494712" lon="11.615711102874057" id="-13569">
		<tag k="name" v="Nebbtjern" />
=======
	<node id="-234762" lat="59.096838892" lon="11.7579166657">
		<tag k="name" v="Latjern" />
>>>>>>> e1d4bc35ff8a6074a6f2e91616a996b547c36f15
		<tag k="natural" v="water" />
		<tag k="ssr:stedsnr" v="280514" />
	</node>
<<<<<<< HEAD
	<node lat="59.09133888548108" lon="11.762386115887763" id="-13571">
		<tag k="name" v="Abbortjern" />
		<tag k="natural" v="water" />
		<tag k="ssr:stedsnr" v="281420" />
	</node>
	<node lat="59.25222777970824" lon="11.67049166657561" id="-13575">
		<tag k="name" v="Revtangen" />
=======
	<node id="-234761" lat="59.0457249998" lon="11.7097861058">
		<tag k="name" v="Lundsneset" />
>>>>>>> e1d4bc35ff8a6074a6f2e91616a996b547c36f15
		<tag k="natural" v="cape" />
		<tag k="ssr:stedsnr" v="462435" />
	</node>
<<<<<<< HEAD
	<node lat="59.132222224127524" lon="11.662694449911768" id="-13582">
		<tag k="name" v="Sølebukta" />
		<tag k="natural" v="bay" />
		<tag k="ssr:stedsnr" v="294423" />
	</node>
	<node lat="59.219977779915" lon="11.695469439746793" id="-13583">
		<tag k="name" v="Hølen" />
		<tag k="place" v="locality" />
		<tag k="ssr:stedsnr" v="294309" />
	</node>
	<node lat="59.211052782216925" lon="11.642199992158824" id="-13584">
		<tag k="name" v="Bestedalstjern" />
=======
	<node id="-234757" lat="59.1640055581" lon="11.7553500053">
		<tag k="name" v="Trulsetjern" />
		<tag k="natural" v="water" />
		<tag k="ssr:stedsnr" v="608099" />
	</node>
	<node id="-234755" lat="59.181405559" lon="11.7594083346">
		<tag k="name" v="Søndre Busterudtjern" />
>>>>>>> e1d4bc35ff8a6074a6f2e91616a996b547c36f15
		<tag k="natural" v="water" />
		<tag k="ssr:stedsnr" v="294328" />
	</node>
<<<<<<< HEAD
	<node lat="59.20515000295274" lon="11.603919452459804" id="-13589">
		<tag k="name" v="Langetjern" />
=======
	<node id="-234752" lat="59.0814527776" lon="11.7210888838">
		<tag k="alt_name" v="Søndre Stangebråttjern" />
		<tag k="name" v="Søndre Stangebråttjernet" />
>>>>>>> e1d4bc35ff8a6074a6f2e91616a996b547c36f15
		<tag k="natural" v="water" />
		<tag k="ssr:stedsnr" v="294975" />
	</node>
<<<<<<< HEAD
	<node lat="59.30536111039513" lon="11.66404445301045" id="-13590">
		<tag k="name" v="Strømselva" />
		<tag k="ssr:stedsnr" v="463032" />
		<tag k="waterway" v="river" />
	</node>
	<node lat="59.145486517185745" lon="11.65402737795753" id="-13594">
		<tag k="name" v="Asprekfjorden" />
		<tag k="natural" v="water" />
		<tag k="ssr:stedsnr" v="306013" />
		<tag k="water" v="lake" />
	</node>
	<node lat="59.296211114225606" lon="11.712569439699438" id="-13601">
		<tag k="name" v="Abbortjernet" />
=======
	<node id="-234746" lat="59.2975833322" lon="11.7817138904">
		<tag k="name" v="Røsnesholmen" />
		<tag k="place" v="islet" />
		<tag k="ssr:stedsnr" v="597978" />
	</node>
	<node id="-234745" lat="59.3109138884" lon="11.7713277762">
		<tag k="name" v="Fonkeneset" />
		<tag k="natural" v="cape" />
		<tag k="ssr:stedsnr" v="597963" />
	</node>
	<node id="-234742" lat="59.17562778" lon="11.762186111">
		<tag k="name" v="Kverntjern" />
>>>>>>> e1d4bc35ff8a6074a6f2e91616a996b547c36f15
		<tag k="natural" v="water" />
		<tag k="old_name" v="Abbortjern" />
		<tag k="ssr:stedsnr" v="326180" />
	</node>
<<<<<<< HEAD
	<node lat="59.25516944503521" lon="11.602894439269253" id="-13602">
		<tag k="name" v="Brannskattjern" />
		<tag k="natural" v="water" />
		<tag k="ssr:stedsnr" v="340355" />
	</node>
	<node lat="59.252258332152145" lon="11.592988895451276" id="-13603">
		<tag k="name" v="Skotjern" />
=======
	<node id="-234741" lat="59.1484277782" lon="11.7333722161">
		<tag k="name" v="Båtsvika" />
		<tag k="natural" v="bay" />
		<tag k="ssr:stedsnr" v="597942" />
	</node>
	<node id="-234738" lat="59.1998555525" lon="11.6174583381">
		<tag k="name" v="Øvre Fløtma" />
>>>>>>> e1d4bc35ff8a6074a6f2e91616a996b547c36f15
		<tag k="natural" v="water" />
		<tag k="ssr:stedsnr" v="340362" />
	</node>
<<<<<<< HEAD
	<node lat="59.30957500220302" lon="11.718886119572167" id="-13606">
		<tag k="name" v="Løken" />
		<tag k="ssr:stedsnr" v="341051" />
		<tag k="waterway" v="river" />
	</node>
	<node lat="59.21215555860136" lon="11.751819437651541" id="-13609">
		<tag k="name" v="Igletjern" />
		<tag k="natural" v="water" />
		<tag k="ssr:stedsnr" v="354214" />
	</node>
	<node lat="59.20921666614107" lon="11.768894450093132" id="-13610">
		<tag k="name" v="Kutjern" />
		<tag k="natural" v="water" />
		<tag k="ssr:stedsnr" v="354219" />
	</node>
	<node lat="59.22718055219283" lon="11.760638896793965" id="-13613">
		<tag k="name" v="Tretjerna" />
=======
	<node id="-234735" lat="59.2859916689" lon="11.8005083388">
		<tag k="name" v="Mørkevik" />
		<tag k="natural" v="bay" />
		<tag k="ssr:stedsnr" v="597817" />
	</node>
	<node id="-234733" lat="59.2697722205" lon="11.8043888866">
		<tag k="name" v="Revetangen" />
		<tag k="natural" v="cape" />
		<tag k="ssr:stedsnr" v="597803" />
	</node>
	<node id="-234732" lat="59.3096222183" lon="11.7698694364">
		<tag k="name" v="Fonkebukta" />
		<tag k="natural" v="bay" />
		<tag k="ssr:stedsnr" v="597799" />
	</node>
	<node id="-234730" lat="59.2207611092" lon="11.632750003">
		<tag k="name" v="Hjertetjern" />
>>>>>>> e1d4bc35ff8a6074a6f2e91616a996b547c36f15
		<tag k="natural" v="water" />
		<tag k="ssr:stedsnr" v="354153" />
	</node>
<<<<<<< HEAD
	<node lat="59.149666667761004" lon="11.66689999259344" id="-13615">
		<tag k="name" v="Aspetangen" />
		<tag k="natural" v="cape" />
		<tag k="ssr:stedsnr" v="354507" />
	</node>
	<node lat="59.273474995598384" lon="11.80425278112155" id="-13617">
		<tag k="name" v="Slommetangen" />
=======
	<node id="-234728" lat="59.1481916638" lon="11.687405564">
		<tag k="name" v="Gåseskjærholmen" />
		<tag k="place" v="islet" />
		<tag k="ssr:stedsnr" v="597472" />
	</node>
	<node id="-234725" lat="59.2207361078" lon="11.6883249958">
		<tag k="name" v="Flatebyneset" />
>>>>>>> e1d4bc35ff8a6074a6f2e91616a996b547c36f15
		<tag k="natural" v="cape" />
		<tag k="ssr:stedsnr" v="354812" />
	</node>
<<<<<<< HEAD
	<node lat="59.27076944284107" lon="11.668099992971065" id="-13618">
		<tag k="name" v="Omernebba" />
		<tag k="natural" v="cape" />
		<tag k="ssr:stedsnr" v="355101" />
	</node>
	<node lat="59.20461715892002" lon="11.621569562385938" id="-13622">
		<tag k="name" v="Nedre Stendamtjern" />
=======
	<node id="-234717" lat="59.1508833304" lon="11.6540333415">
		<tag k="name" v="Øvre Brunebukta" />
		<tag k="natural" v="bay" />
		<tag k="ssr:stedsnr" v="596467" />
	</node>
	<node id="-234712" lat="59.2575222199" lon="11.6142499953">
		<tag k="name" v="Nordre Tretjern" />
>>>>>>> e1d4bc35ff8a6074a6f2e91616a996b547c36f15
		<tag k="natural" v="water" />
		<tag k="ssr:stedsnr" v="355307" />
	</node>
<<<<<<< HEAD
	<node lat="59.20442889156601" lon="11.615684411754897" id="-13623">
		<tag k="name" v="Øvre Stendamtjern" />
		<tag k="natural" v="water" />
		<tag k="ssr:stedsnr" v="355308" />
	</node>
	<node lat="59.223274997597834" lon="11.690749996140225" id="-13624">
		<tag k="name" v="Kjeungpina" />
=======
	<node id="-234710" lat="59.3125361148" lon="11.666433338">
		<tag k="name" v="Mokallen" />
		<tag k="natural" v="strait" />
		<tag k="ssr:stedsnr" v="583018" />
	</node>
	<node id="-234708" lat="59.2296930338" lon="11.6886610533">
		<tag k="name" v="Fossbyskjæra" />
>>>>>>> e1d4bc35ff8a6074a6f2e91616a996b547c36f15
		<tag k="place" v="islet" />
		<tag k="ssr:stedsnr" v="355309" />
	</node>
<<<<<<< HEAD
	<node lat="59.214694442177624" lon="11.644338896176649" id="-13625">
		<tag k="name" v="Rompeskytlene" />
=======
	<node id="-234704" lat="59.2577487262" lon="11.6033810049">
		<tag k="alt_name" v="Abbortjernet" />
		<tag k="name" v="Vestre Abbortjern" />
>>>>>>> e1d4bc35ff8a6074a6f2e91616a996b547c36f15
		<tag k="natural" v="water" />
		<tag k="ssr:stedsnr" v="355311" />
	</node>
<<<<<<< HEAD
	<node lat="59.18780000155982" lon="11.708483328708148" id="-13630">
		<tag k="name" v="Kovfjorden" />
=======
	<node id="-234699" lat="59.281658329" lon="11.571152773">
		<tag k="alt_name" v="Kroktjern" />
		<tag k="name" v="Kroktjernet" />
>>>>>>> e1d4bc35ff8a6074a6f2e91616a996b547c36f15
		<tag k="natural" v="water" />
		<tag k="ssr:stedsnr" v="355871" />
	</node>
<<<<<<< HEAD
	<node lat="59.157808334670015" lon="11.691625001015247" id="-13632">
		<tag k="name" v="Båtsvika" />
		<tag k="natural" v="bay" />
		<tag k="ssr:stedsnr" v="475479" />
	</node>
	<node lat="59.148705551939955" lon="11.70980000359243" id="-13634">
		<tag k="name" v="Lommeholmen" />
=======
	<node id="-234698" lat="59.2920583342" lon="11.6537833256">
		<tag k="name" v="Nesøya" />
>>>>>>> e1d4bc35ff8a6074a6f2e91616a996b547c36f15
		<tag k="place" v="islet" />
		<tag k="ssr:stedsnr" v="475447" />
	</node>
<<<<<<< HEAD
	<node lat="59.1498333288749" lon="11.655736114795243" id="-13635">
		<tag k="name" v="Østensvikbukta" />
=======
	<node id="-234696" lat="59.3142722231" lon="11.6224916752">
		<tag k="name" v="Kilesjøen" />
>>>>>>> e1d4bc35ff8a6074a6f2e91616a996b547c36f15
		<tag k="natural" v="bay" />
		<tag k="ssr:stedsnr" v="475510" />
	</node>
<<<<<<< HEAD
	<node lat="59.06434444852557" lon="11.72685555475252" id="-13637">
		<tag k="name" v="Fiskeløstjern" />
=======
	<node id="-234695" lat="59.3203249969" lon="11.6310944402">
		<tag k="alt_name" v="Brynhildstjern" />
		<tag k="name" v="Brynhildtjern" />
>>>>>>> e1d4bc35ff8a6074a6f2e91616a996b547c36f15
		<tag k="natural" v="water" />
		<tag k="ssr:stedsnr" v="476065" />
	</node>
<<<<<<< HEAD
	<node lat="59.0887722240472" lon="11.690855553341416" id="-13641">
		<tag k="name" v="Søndre Enertjern" />
=======
	<node id="-234694" lat="59.3201472208" lon="11.7408055484">
		<tag k="name" v="Smørtjernet" />
>>>>>>> e1d4bc35ff8a6074a6f2e91616a996b547c36f15
		<tag k="natural" v="water" />
		<tag k="ssr:stedsnr" v="476022" />
	</node>
<<<<<<< HEAD
	<node lat="59.311341664633204" lon="11.714299995374487" id="-13642">
		<tag k="name" v="Langenes" />
		<tag k="natural" v="cape" />
		<tag k="ssr:stedsnr" v="476188" />
	</node>
	<node lat="59.219788892338045" lon="11.626119441475192" id="-13643">
		<tag k="name" v="Setertjern" />
=======
	<node id="-234692" lat="59.0337773609" lon="11.7104385772">
		<tag k="name" v="Tåkeholmen" />
		<tag k="place" v="islet" />
		<tag k="ssr:stedsnr" v="548436" />
	</node>
	<node id="-234686" lat="59.1395249976" lon="11.7018638845">
		<tag k="name" v="Lille Blanketjern" />
>>>>>>> e1d4bc35ff8a6074a6f2e91616a996b547c36f15
		<tag k="natural" v="water" />
		<tag k="ssr:stedsnr" v="476330" />
	</node>
<<<<<<< HEAD
	<node lat="59.31248383203361" lon="11.575464943904658" id="-13645">
		<tag k="name" v="Hellesåbukta" />
		<tag k="natural" v="bay" />
		<tag k="ssr:stedsnr" v="476423" />
	</node>
	<node lat="59.1483777793315" lon="11.68666945177169" id="-13646">
		<tag k="name" v="Gåseskjæra" />
		<tag k="place" v="islet" />
		<tag k="ssr:stedsnr" v="476470" />
	</node>
	<node lat="59.147791664952805" lon="11.711824998298647" id="-13647">
		<tag k="name" v="Øvre Døhaugbukta" />
		<tag k="natural" v="bay" />
		<tag k="ssr:stedsnr" v="476472" />
	</node>
	<node lat="59.10658610840614" lon="11.681544449741127" id="-13651">
		<tag k="name" v="Helvetestjern" />
=======
	<node id="-234683" lat="59.1528861148" lon="11.7386027709">
		<tag k="alt_name" v="Rauneset" />
		<tag k="name" v="Raudsneset" />
		<tag k="natural" v="cape" />
		<tag k="ssr:stedsnr" v="548005" />
	</node>
	<node id="-234682" lat="59.0930805547" lon="11.7304277797">
		<tag k="name" v="Svarttjern" />
>>>>>>> e1d4bc35ff8a6074a6f2e91616a996b547c36f15
		<tag k="natural" v="water" />
		<tag k="ssr:stedsnr" v="476825" />
	</node>
<<<<<<< HEAD
	<node lat="59.19848553521259" lon="11.61455476850264" id="-13653">
		<tag k="name" v="Knivtjern" />
=======
	<node id="-234681" lat="59.0562333327" lon="11.7167750058">
		<tag k="name" v="Langetjern" />
>>>>>>> e1d4bc35ff8a6074a6f2e91616a996b547c36f15
		<tag k="natural" v="water" />
		<tag k="ssr:stedsnr" v="476890" />
	</node>
<<<<<<< HEAD
	<node lat="59.21437500007162" lon="11.63468889099702" id="-13654">
		<tag k="alt_name" v="Faulitjern" />
		<tag k="name" v="Fugletjern" />
=======
	<node id="-234678" lat="59.2104547684" lon="11.7654676332">
		<tag k="name" v="Lerketjern" />
>>>>>>> e1d4bc35ff8a6074a6f2e91616a996b547c36f15
		<tag k="natural" v="water" />
		<tag k="ssr:stedsnr" v="365161" />
	</node>
<<<<<<< HEAD
	<node lat="59.06765833172186" lon="11.721252775338476" id="-13655">
		<tag k="alt_name" v="Store Brattjern" />
		<tag k="name" v="Store Brattetjern" />
=======
	<node id="-234676" lat="59.1167500038" lon="11.6891305533">
		<tag k="name" v="Dagtjern" />
>>>>>>> e1d4bc35ff8a6074a6f2e91616a996b547c36f15
		<tag k="natural" v="water" />
		<tag k="ssr:stedsnr" v="365394" />
	</node>
<<<<<<< HEAD
	<node lat="59.089708332259235" lon="11.682805554098765" id="-13657">
		<tag k="name" v="Gudetjern" />
=======
	<node id="-234670" lat="59.2008555558" lon="11.7695305529">
		<tag k="name" v="Tretterdyvelen" />
>>>>>>> e1d4bc35ff8a6074a6f2e91616a996b547c36f15
		<tag k="natural" v="water" />
		<tag k="ssr:stedsnr" v="366510" />
	</node>
<<<<<<< HEAD
	<node lat="59.266097221089595" lon="11.805891663584152" id="-13659">
		<tag k="name" v="Tolsbybukta" />
=======
	<node id="-234664" lat="59.0587277789" lon="11.6795555559">
		<tag k="name" v="Skogsbukta" />
>>>>>>> e1d4bc35ff8a6074a6f2e91616a996b547c36f15
		<tag k="natural" v="bay" />
		<tag k="ssr:stedsnr" v="367708" />
	</node>
<<<<<<< HEAD
	<node lat="59.27318055971539" lon="11.599108326181815" id="-13662">
		<tag k="name" v="Abbortjern" />
=======
	<node id="-234657" lat="59.2218333307" lon="11.6232444465">
		<tag k="name" v="Torvtjern" />
>>>>>>> e1d4bc35ff8a6074a6f2e91616a996b547c36f15
		<tag k="natural" v="water" />
		<tag k="ssr:stedsnr" v="401325" />
	</node>
<<<<<<< HEAD
	<node lat="59.27257222235975" lon="11.60794444368446" id="-13663">
		<tag k="name" v="Mosetjern" />
		<tag k="natural" v="water" />
		<tag k="ssr:stedsnr" v="401327" />
	</node>
	<node lat="59.295263889133636" lon="11.659636108598159" id="-13666">
		<tag k="alt_name" v="Stenesvik" />
		<tag k="name" v="Stenersvik" />
=======
	<node id="-234653" lat="59.1550333368" lon="11.7362250042">
		<tag k="name" v="Laholmen" />
		<tag k="natural" v="cape" />
		<tag k="ssr:stedsnr" v="536667" />
	</node>
	<node id="-234647" lat="59.2745092268" lon="11.6644893021">
		<tag k="name" v="Gurivik" />
>>>>>>> e1d4bc35ff8a6074a6f2e91616a996b547c36f15
		<tag k="natural" v="bay" />
		<tag k="ssr:stedsnr" v="402030" />
	</node>
<<<<<<< HEAD
	<node lat="59.0733777811908" lon="11.717241672590784" id="-13667">
		<tag k="alt_name" v="Lille Brattjern;Skogråtjern" />
		<tag k="name" v="Lille Brattetjern" />
		<tag k="natural" v="water" />
		<tag k="old_name" v="Skøgråstjernet" />
		<tag k="ssr:stedsnr" v="402431" />
	</node>
	<node lat="59.187625002312984" lon="11.645252778789645" id="-13671">
		<tag k="name" v="Lindtjern" />
=======
	<node id="-234646" lat="59.2786361114" lon="11.6493666631">
		<tag k="name" v="Flisbekken" />
		<tag k="ssr:stedsnr" v="536101" />
		<tag k="waterway" v="stream" />
	</node>
	<node id="-234643" lat="59.0902944405" lon="11.7344861176">
		<tag k="name" v="Kjerringtjern" />
>>>>>>> e1d4bc35ff8a6074a6f2e91616a996b547c36f15
		<tag k="natural" v="water" />
		<tag k="ssr:stedsnr" v="487065" />
	</node>
<<<<<<< HEAD
	<node lat="59.07432500128982" lon="11.707102773834714" id="-13672">
		<tag k="name" v="Dragontjern" />
=======
	<node id="-234634" lat="59.264669447" lon="11.6085861191">
		<tag k="name" v="Langevannshølen" />
>>>>>>> e1d4bc35ff8a6074a6f2e91616a996b547c36f15
		<tag k="natural" v="water" />
		<tag k="ssr:stedsnr" v="486430" />
	</node>
<<<<<<< HEAD
	<node lat="59.17257499902259" lon="11.764333326806144" id="-13674">
		<tag k="name" v="Korstjern" />
=======
	<node id="-234630" lat="59.299863887" lon="11.5946805577">
		<tag k="name" v="Mørketjern" />
>>>>>>> e1d4bc35ff8a6074a6f2e91616a996b547c36f15
		<tag k="natural" v="water" />
		<tag k="ssr:stedsnr" v="487098" />
	</node>
<<<<<<< HEAD
	<node lat="59.0838038649161" lon="11.69833178339889" id="-13677">
		<tag k="name" v="Østre Tjernimellem" />
=======
	<node id="-234628" lat="59.3315916667" lon="11.726341663">
		<tag k="alt_name" v="Abbortjern" />
		<tag k="name" v="Abbortjernet" />
>>>>>>> e1d4bc35ff8a6074a6f2e91616a996b547c36f15
		<tag k="natural" v="water" />
		<tag k="ssr:stedsnr" v="415039" />
	</node>
<<<<<<< HEAD
	<node lat="59.0468722218191" lon="11.72927222136518" id="-13678">
		<tag k="name" v="Budalsvika" />
		<tag k="natural" v="bay" />
		<tag k="ssr:stedsnr" v="415050" />
	</node>
	<node lat="59.113889464862645" lon="11.678293669817844" id="-13683">
		<tag k="name" v="Bredtjern" />
=======
	<node id="-234627" lat="59.2809416672" lon="11.8080111168">
		<tag k="alt_name" v="Denes" />
		<tag k="name" v="Degernes" />
		<tag k="natural" v="cape" />
		<tag k="ssr:stedsnr" v="428701" />
	</node>
	<node id="-234623" lat="59.2922444415" lon="11.704011114">
		<tag k="alt_name" v="Morttjern" />
		<tag k="name" v="Morttjernet" />
>>>>>>> e1d4bc35ff8a6074a6f2e91616a996b547c36f15
		<tag k="natural" v="water" />
		<tag k="ssr:stedsnr" v="488066" />
		<tag k="water" v="lake" />
	</node>
<<<<<<< HEAD
	<node lat="59.13305277486491" lon="11.698452785441948" id="-13684">
		<tag k="name" v="Halvfartjern" />
=======
	<node id="-234622" lat="59.2898055528" lon="11.7801305565">
		<tag k="alt_name" v="Engertjern" />
		<tag k="name" v="Engertjernet" />
>>>>>>> e1d4bc35ff8a6074a6f2e91616a996b547c36f15
		<tag k="natural" v="water" />
		<tag k="ssr:stedsnr" v="488037" />
	</node>
<<<<<<< HEAD
	<node lat="59.339494447102574" lon="11.658819445812691" id="-13693">
		<tag k="name" v="Bøensfjorden" />
=======
	<node id="-234621" lat="59.2867999995" lon="11.5837611039">
		<tag k="alt_name" v="Botiltjern" />
		<tag k="name" v="Botiltjernet" />
>>>>>>> e1d4bc35ff8a6074a6f2e91616a996b547c36f15
		<tag k="natural" v="water" />
		<tag k="ssr:stedsnr" v="488739" />
	</node>
<<<<<<< HEAD
	<node lat="59.16931389123378" lon="11.70005555704365" id="-13698">
		<tag k="name" v="Grinderholmen" />
		<tag k="place" v="islet" />
		<tag k="ssr:stedsnr" v="427106" />
	</node>
	<node lat="59.131027781066" lon="11.728766661999636" id="-13700">
		<tag k="alt_name" v="Gravdalstjern" />
		<tag k="name" v="Gravdalstjernet" />
=======
	<node id="-234620" lat="59.3187111098" lon="11.6882750068">
		<tag k="alt_name" v="Duserudtjernet" />
		<tag k="name" v="Duserudtjern" />
		<tag k="natural" v="water" />
		<tag k="ssr:stedsnr" v="427633" />
	</node>
	<node id="-234619" lat="59.056452781" lon="11.730691664">
		<tag k="name" v="Blekketjern" />
>>>>>>> e1d4bc35ff8a6074a6f2e91616a996b547c36f15
		<tag k="natural" v="water" />
		<tag k="ssr:stedsnr" v="427031" />
	</node>
<<<<<<< HEAD
	<node lat="59.13553333638045" lon="11.70653333674555" id="-13701">
		<tag k="name" v="Store Blanketjern" />
		<tag k="natural" v="water" />
		<tag k="ssr:stedsnr" v="427034" />
	</node>
	<node lat="59.18995278124785" lon="11.630138885515917" id="-13702">
=======
	<node id="-234613" lat="59.2436055555" lon="11.794975007">
		<tag k="alt_name" v="Trantjern" />
		<tag k="name" v="Tranetjern" />
		<tag k="natural" v="water" />
		<tag k="ssr:stedsnr" v="427262" />
	</node>
	<node id="-234612" lat="59.1534249963" lon="11.6883749952">
		<tag k="alt_name" v="Høyneset" />
		<tag k="name" v="Høgneset" />
		<tag k="natural" v="cape" />
		<tag k="ssr:stedsnr" v="427001" />
	</node>
	<node id="-234610" lat="59.1899527812" lon="11.6301388855">
>>>>>>> e1d4bc35ff8a6074a6f2e91616a996b547c36f15
		<tag k="name" v="Sørtjern" />
		<tag k="natural" v="water" />
		<tag k="ssr:stedsnr" v="427073" />
	</node>
<<<<<<< HEAD
	<node lat="59.31511111065787" lon="11.781266675375528" id="-13704">
		<tag k="alt_name" v="Grasneset" />
		<tag k="name" v="Gressneset" />
		<tag k="natural" v="cape" />
		<tag k="ssr:stedsnr" v="428626" />
	</node>
	<node lat="59.31601666523531" lon="11.753130550543455" id="-13705">
		<tag k="name" v="Skrikebekken" />
		<tag k="ssr:stedsnr" v="428628" />
		<tag k="waterway" v="stream" />
	</node>
	<node lat="59.286799999504005" lon="11.583761103893922" id="-13706">
		<tag k="alt_name" v="Botiltjern" />
		<tag k="name" v="Botiltjernet" />
=======
	<node id="-234609" lat="59.1160500249" lon="11.670493311">
		<tag k="fixme" v="multiple name tags, choose one and add the other to alt_name" />
		<tag k="name" v="Nøstholtjern;Store Sildremyrtjern" />
>>>>>>> e1d4bc35ff8a6074a6f2e91616a996b547c36f15
		<tag k="natural" v="water" />
		<tag k="ssr:stedsnr" v="428657" />
	</node>
<<<<<<< HEAD
	<node lat="59.289805552783335" lon="11.780130556458529" id="-13707">
		<tag k="alt_name" v="Engertjern" />
		<tag k="name" v="Engertjernet" />
=======
	<node id="-234607" lat="59.059155555" lon="11.7248000078">
		<tag k="name" v="Øretjern" />
>>>>>>> e1d4bc35ff8a6074a6f2e91616a996b547c36f15
		<tag k="natural" v="water" />
		<tag k="ssr:stedsnr" v="428667" />
	</node>
<<<<<<< HEAD
	<node lat="59.29224444145863" lon="11.704011114014438" id="-13708">
		<tag k="alt_name" v="Morttjern" />
		<tag k="name" v="Morttjernet" />
		<tag k="natural" v="water" />
		<tag k="ssr:stedsnr" v="428669" />
	</node>
	<node lat="59.25991666686446" lon="11.56473889180559" id="-13718">
		<tag k="name" v="Bolsbota" />
		<tag k="place" v="locality" />
		<tag k="ssr:stedsnr" v="671732" />
	</node>
	<node lat="59.327897225575285" lon="11.636236118758447" id="-13724">
		<tag k="name" v="Vatnemellemtjern" />
=======
	<node id="-234604" lat="59.2003916675" lon="11.7001444447">
		<tag k="alt_name" v="Tordyvelen" />
		<tag k="name" v="Tordivelen" />
		<tag k="natural" v="strait" />
		<tag k="ssr:stedsnr" v="426181" />
	</node>
	<node id="-234600" lat="59.2204805577" lon="11.5997416724">
		<tag k="name" v="Skolleborgørvann" />
		<tag k="natural" v="bay" />
		<tag k="ssr:stedsnr" v="426160" />
	</node>
	<node id="-234592" lat="59.1966388905" lon="11.6392638959">
		<tag k="name" v="Holvannsdammen" />
>>>>>>> e1d4bc35ff8a6074a6f2e91616a996b547c36f15
		<tag k="natural" v="water" />
		<tag k="ssr:stedsnr" v="674045" />
	</node>
<<<<<<< HEAD
	<node lat="59.134224997784436" lon="11.731102771782835" id="-13726">
		<tag k="name" v="Gørrputt" />
=======
	<node id="-234591" lat="59.2532972185" lon="11.590066669">
		<tag k="name" v="Skotjern" />
>>>>>>> e1d4bc35ff8a6074a6f2e91616a996b547c36f15
		<tag k="natural" v="water" />
		<tag k="ssr:stedsnr" v="476275" />
		<tag k="water" v="pond" />
	</node>
<<<<<<< HEAD
	<node lat="59.16452500146559" lon="11.775952777671803" id="-13729">
		<tag k="name" v="Fagerlitjern" />
		<tag k="natural" v="water" />
		<tag k="ssr:stedsnr" v="476936" />
	</node>
	<node lat="59.29698611148329" lon="11.759900001766436" id="-13731">
		<tag k="name" v="Størholttjern" />
		<tag k="natural" v="water" />
		<tag k="ssr:stedsnr" v="476961" />
	</node>
	<node lat="59.21987222424686" lon="11.5906166632618" id="-13732">
		<tag k="name" v="Saueskinnstjern" />
		<tag k="natural" v="water" />
		<tag k="ssr:stedsnr" v="476969" />
	</node>
	<node lat="59.206825003988854" lon="11.597461116051262" id="-13733">
		<tag k="name" v="Grevlingtjern" />
		<tag k="natural" v="water" />
		<tag k="ssr:stedsnr" v="476974" />
	</node>
	<node lat="59.215630552515606" lon="11.843316662680468" id="-13736">
		<tag k="name" v="Store Le" />
=======
	<node id="-234588" lat="59.2129750002" lon="11.7111972152">
		<tag k="name" v="Kopperødfossen" />
		<tag k="natural" v="waterfall" />
		<tag k="ssr:stedsnr" v="416288" />
	</node>
	<node id="-234584" lat="59.2946888909" lon="11.793844439">
		<tag k="name" v="Bryggerhusneset" />
		<tag k="natural" v="cape" />
		<tag k="ssr:stedsnr" v="415966" />
	</node>
	<node id="-234580" lat="59.1479000023" lon="11.6601861126">
		<tag k="alt_name" v="Neset" />
		<tag k="name" v="Østensvikneset" />
		<tag k="natural" v="cape" />
		<tag k="ssr:stedsnr" v="415536" />
	</node>
	<node id="-234567" lat="59.0468722218" lon="11.7292722214">
		<tag k="name" v="Budalsvika" />
		<tag k="natural" v="bay" />
		<tag k="ssr:stedsnr" v="415050" />
	</node>
	<node id="-234566" lat="59.0838038649" lon="11.6983317834">
		<tag k="name" v="Østre Tjernimellem" />
>>>>>>> e1d4bc35ff8a6074a6f2e91616a996b547c36f15
		<tag k="natural" v="water" />
		<tag k="ssr:stedsnr" v="486236" />
		<tag k="water" v="lake" />
	</node>
<<<<<<< HEAD
	<node lat="59.08818391567415" lon="11.741591098293345" id="-13739">
		<tag k="fixme" v="multiple name tags, choose one and add the other to alt_name" />
		<tag k="name" v="Nordre Morttjern;Nordre Mortvannet" />
=======
	<node id="-234565" lat="59.0421444451" lon="11.7229694391">
		<tag k="name" v="Søndre Boksjø" />
>>>>>>> e1d4bc35ff8a6074a6f2e91616a996b547c36f15
		<tag k="natural" v="water" />
		<tag k="ssr:stedsnr" v="486498" />
		<tag k="water" v="lake" />
	</node>
<<<<<<< HEAD
	<node lat="59.20374389336417" lon="11.5987871904875" id="-13743">
		<tag k="name" v="Dortetjern" />
=======
	<node id="-234562" lat="59.2453222223" lon="11.6904361127">
		<tag k="name" v="Lilledalstjernet" />
>>>>>>> e1d4bc35ff8a6074a6f2e91616a996b547c36f15
		<tag k="natural" v="water" />
		<tag k="ssr:stedsnr" v="487170" />
	</node>
<<<<<<< HEAD
	<node lat="59.09597778192405" lon="11.692027769496546" id="-13746">
		<tag k="alt_name" v="Skrømsletjern" />
		<tag k="name" v="Skremsletjern" />
=======
	<node id="-234560" lat="59.0733777812" lon="11.7172416726">
		<tag k="alt_name" v="Lille Brattjern;Skogråtjern" />
		<tag k="name" v="Lille Brattetjern" />
>>>>>>> e1d4bc35ff8a6074a6f2e91616a996b547c36f15
		<tag k="natural" v="water" />
		<tag k="ssr:stedsnr" v="487475" />
	</node>
<<<<<<< HEAD
	<node lat="59.2749833291739" lon="11.602369452559183" id="-13751">
		<tag k="alt_name" v="Bukketjern" />
		<tag k="name" v="Bukketjernet" />
=======
	<node id="-234558" lat="59.2952638891" lon="11.6596361086">
		<tag k="alt_name" v="Stenesvik" />
		<tag k="name" v="Stenersvik" />
		<tag k="natural" v="bay" />
		<tag k="ssr:stedsnr" v="402030" />
	</node>
	<node id="-234555" lat="59.2623027785" lon="11.5641305608">
		<tag k="name" v="Sølskuttjern" />
>>>>>>> e1d4bc35ff8a6074a6f2e91616a996b547c36f15
		<tag k="natural" v="water" />
		<tag k="ssr:stedsnr" v="488707" />
	</node>
<<<<<<< HEAD
	<node lat="59.25274166488909" lon="11.597638891520392" id="-13753">
		<tag k="name" v="Ormetjern" />
=======
	<node id="-234552" lat="59.2725722224" lon="11.6079444437">
		<tag k="name" v="Mosetjern" />
>>>>>>> e1d4bc35ff8a6074a6f2e91616a996b547c36f15
		<tag k="natural" v="water" />
		<tag k="ssr:stedsnr" v="523404" />
	</node>
<<<<<<< HEAD
	<node lat="59.264669447012324" lon="11.608586119070361" id="-13754">
		<tag k="name" v="Langevannshølen" />
=======
	<node id="-234551" lat="59.2731805597" lon="11.5991083262">
		<tag k="name" v="Abbortjern" />
>>>>>>> e1d4bc35ff8a6074a6f2e91616a996b547c36f15
		<tag k="natural" v="water" />
		<tag k="ssr:stedsnr" v="523415" />
	</node>
<<<<<<< HEAD
	<node lat="59.27077225681956" lon="11.589182176165314" id="-13755">
		<tag k="name" v="Setertjerna" />
=======
	<node id="-234549" lat="59.2715194441" lon="11.5941194468">
		<tag k="name" v="Blanktjern" />
>>>>>>> e1d4bc35ff8a6074a6f2e91616a996b547c36f15
		<tag k="natural" v="water" />
		<tag k="ssr:stedsnr" v="523374" />
		<tag k="water" v="lake" />
	</node>
<<<<<<< HEAD
	<node lat="59.27450922676627" lon="11.66448930208005" id="-13760">
		<tag k="name" v="Gurivik" />
		<tag k="natural" v="bay" />
		<tag k="ssr:stedsnr" v="536104" />
	</node>
	<node lat="59.31410832957229" lon="11.705241661862122" id="-13762">
		<tag k="name" v="Storebukt" />
		<tag k="natural" v="bay" />
		<tag k="ssr:stedsnr" v="536184" />
	</node>
	<node lat="59.15503333681056" lon="11.736225004200788" id="-13763">
		<tag k="name" v="Laholmen" />
=======
	<node id="-234545" lat="59.2660972211" lon="11.8058916636">
		<tag k="name" v="Tolsbybukta" />
		<tag k="natural" v="bay" />
		<tag k="ssr:stedsnr" v="367708" />
	</node>
	<node id="-234538" lat="59.0906500003" lon="11.7150444506">
		<tag k="alt_name" v="Nordre Stangebråttjernet" />
		<tag k="name" v="Nordre Stangebråttjern" />
		<tag k="natural" v="water" />
		<tag k="ssr:stedsnr" v="366513" />
	</node>
	<node id="-234537" lat="59.0897083323" lon="11.6828055541">
		<tag k="name" v="Gudetjern" />
		<tag k="natural" v="water" />
		<tag k="ssr:stedsnr" v="366510" />
	</node>
	<node id="-234531" lat="59.1269999959" lon="11.6397361193">
		<tag k="alt_name" v="Nøsthølelva" />
		<tag k="name" v="Nøstholelva" />
		<tag k="ssr:stedsnr" v="366039" />
		<tag k="waterway" v="stream" />
	</node>
	<node id="-234530" lat="59.1309083343" lon="11.6370999956">
		<tag k="name" v="Engeneset" />
>>>>>>> e1d4bc35ff8a6074a6f2e91616a996b547c36f15
		<tag k="natural" v="cape" />
		<tag k="ssr:stedsnr" v="536667" />
	</node>
<<<<<<< HEAD
	<node lat="59.22183333067212" lon="11.623244446511327" id="-13767">
		<tag k="name" v="Torvtjern" />
=======
	<node id="-234529" lat="59.1334499983" lon="11.6885027763">
		<tag k="alt_name" v="Paletjern;Poletjern" />
		<tag k="name" v="Påletjern" />
>>>>>>> e1d4bc35ff8a6074a6f2e91616a996b547c36f15
		<tag k="natural" v="water" />
		<tag k="ssr:stedsnr" v="537308" />
	</node>
<<<<<<< HEAD
	<node lat="59.21378888920436" lon="11.765041670132518" id="-13770">
=======
	<node id="-234528" lat="59.1393666709" lon="11.6594333377">
>>>>>>> e1d4bc35ff8a6074a6f2e91616a996b547c36f15
		<tag k="name" v="Kverntjern" />
		<tag k="natural" v="water" />
		<tag k="ssr:stedsnr" v="537203" />
	</node>
<<<<<<< HEAD
	<node lat="59.22463055315917" lon="11.766163896726667" id="-13771">
		<tag k="name" v="Store Abbortjern" />
=======
	<node id="-234527" lat="59.1347111155" lon="11.669074992">
		<tag k="alt_name" v="Remnevannet" />
		<tag k="name" v="Remne" />
>>>>>>> e1d4bc35ff8a6074a6f2e91616a996b547c36f15
		<tag k="natural" v="water" />
		<tag k="ssr:stedsnr" v="537207" />
	</node>
<<<<<<< HEAD
	<node lat="59.058727778860074" lon="11.679555555905512" id="-13774">
		<tag k="name" v="Skogsbukta" />
		<tag k="natural" v="bay" />
		<tag k="ssr:stedsnr" v="537474" />
	</node>
	<node lat="59.20085555583815" lon="11.769530552858248" id="-13777">
		<tag k="name" v="Tretterdyvelen" />
		<tag k="natural" v="water" />
		<tag k="ssr:stedsnr" v="537905" />
	</node>
	<node lat="59.21274166911683" lon="11.598155554560488" id="-13781">
		<tag k="name" v="Stangebråttjern" />
=======
	<node id="-234524" lat="59.1182583319" lon="11.7068638871">
		<tag k="name" v="Gryta" />
		<tag k="natural" v="water" />
		<tag k="ssr:stedsnr" v="365484" />
	</node>
	<node id="-234523" lat="59.0676583317" lon="11.7212527753">
		<tag k="alt_name" v="Store Brattjern" />
		<tag k="name" v="Store Brattetjern" />
		<tag k="natural" v="water" />
		<tag k="ssr:stedsnr" v="365394" />
	</node>
	<node id="-234522" lat="59.2065055553" lon="11.6735055635">
		<tag k="name" v="Signalbekken" />
		<tag k="ssr:stedsnr" v="365179" />
		<tag k="waterway" v="stream" />
	</node>
	<node id="-234519" lat="59.2143750001" lon="11.634688891">
		<tag k="alt_name" v="Faulitjern" />
		<tag k="name" v="Fugletjern" />
>>>>>>> e1d4bc35ff8a6074a6f2e91616a996b547c36f15
		<tag k="natural" v="water" />
		<tag k="ssr:stedsnr" v="537970" />
	</node>
<<<<<<< HEAD
	<node lat="59.210454768363455" lon="11.765467633157893" id="-13782">
		<tag k="name" v="Lerketjern" />
=======
	<node id="-234517" lat="59.1962833301" lon="11.6020194416">
		<tag k="name" v="Store Småtjern" />
>>>>>>> e1d4bc35ff8a6074a6f2e91616a996b547c36f15
		<tag k="natural" v="water" />
		<tag k="ssr:stedsnr" v="547180" />
	</node>
<<<<<<< HEAD
	<node lat="59.11675000382636" lon="11.68913055331321" id="-13785">
		<tag k="name" v="Dagtjern" />
=======
	<node id="-234510" lat="59.1878000016" lon="11.7084833287">
		<tag k="name" v="Kovfjorden" />
>>>>>>> e1d4bc35ff8a6074a6f2e91616a996b547c36f15
		<tag k="natural" v="water" />
		<tag k="ssr:stedsnr" v="547071" />
	</node>
<<<<<<< HEAD
	<node lat="59.15288611477406" lon="11.738602770876984" id="-13786">
		<tag k="alt_name" v="Rauneset" />
		<tag k="name" v="Raudsneset" />
		<tag k="natural" v="cape" />
		<tag k="ssr:stedsnr" v="548005" />
	</node>
	<node lat="59.29205833417137" lon="11.653783325611661" id="-13794">
		<tag k="name" v="Nesøya" />
=======
	<node id="-234508" lat="59.2146944422" lon="11.6443388962">
		<tag k="name" v="Rompeskytlene" />
		<tag k="natural" v="water" />
		<tag k="ssr:stedsnr" v="355311" />
	</node>
	<node id="-234507" lat="59.2232749976" lon="11.6907499961">
		<tag k="name" v="Kjeungpina" />
>>>>>>> e1d4bc35ff8a6074a6f2e91616a996b547c36f15
		<tag k="place" v="islet" />
		<tag k="ssr:stedsnr" v="549657" />
	</node>
<<<<<<< HEAD
	<node lat="59.28493888678907" lon="11.578372215142336" id="-13798">
		<tag k="name" v="Nedre Svensketjern" />
=======
	<node id="-234506" lat="59.2044288916" lon="11.6156844118">
		<tag k="name" v="Øvre Stendamtjern" />
>>>>>>> e1d4bc35ff8a6074a6f2e91616a996b547c36f15
		<tag k="natural" v="water" />
		<tag k="ssr:stedsnr" v="583342" />
	</node>
<<<<<<< HEAD
	<node lat="59.25752221987079" lon="11.614249995273637" id="-13799">
		<tag k="name" v="Nordre Tretjern" />
=======
	<node id="-234505" lat="59.2046171589" lon="11.6215695624">
		<tag k="name" v="Nedre Stendamtjern" />
>>>>>>> e1d4bc35ff8a6074a6f2e91616a996b547c36f15
		<tag k="natural" v="water" />
		<tag k="ssr:stedsnr" v="583357" />
	</node>
<<<<<<< HEAD
	<node lat="59.15088333044642" lon="11.654033341474541" id="-13803">
		<tag k="name" v="Øvre Brunebukta" />
		<tag k="natural" v="bay" />
		<tag k="ssr:stedsnr" v="596467" />
	</node>
	<node lat="59.058986106776466" lon="11.728366669406864" id="-13804">
		<tag k="name" v="Blekketjern" />
=======
	<node id="-234501" lat="59.2707694428" lon="11.668099993">
		<tag k="name" v="Omernebba" />
		<tag k="natural" v="cape" />
		<tag k="ssr:stedsnr" v="355101" />
	</node>
	<node id="-234498" lat="59.2518861115" lon="11.7962694403">
		<tag k="name" v="Dyvlene" />
>>>>>>> e1d4bc35ff8a6074a6f2e91616a996b547c36f15
		<tag k="natural" v="water" />
		<tag k="ssr:stedsnr" v="597052" />
	</node>
<<<<<<< HEAD
	<node lat="59.30962221825079" lon="11.76986943636431" id="-13806">
		<tag k="name" v="Fonkebukta" />
		<tag k="natural" v="bay" />
		<tag k="ssr:stedsnr" v="597799" />
	</node>
	<node lat="59.156777777725274" lon="11.715455549695076" id="-13812">
		<tag k="name" v="Store Trollhatt" />
		<tag k="place" v="islet" />
		<tag k="ssr:stedsnr" v="608005" />
	</node>
	<node lat="59.27318894931588" lon="11.5775864881914" id="-13819">
		<tag k="alt_name" v="Elgtjern" />
		<tag k="name" v="Elgetjernet" />
=======
	<node id="-234494" lat="59.1496666678" lon="11.6668999926">
		<tag k="name" v="Aspetangen" />
		<tag k="natural" v="cape" />
		<tag k="ssr:stedsnr" v="354507" />
	</node>
	<node id="-234486" lat="59.2092166661" lon="11.7688944501">
		<tag k="name" v="Kutjern" />
		<tag k="natural" v="water" />
		<tag k="ssr:stedsnr" v="354219" />
	</node>
	<node id="-234485" lat="59.2121555586" lon="11.7518194377">
		<tag k="name" v="Igletjern" />
>>>>>>> e1d4bc35ff8a6074a6f2e91616a996b547c36f15
		<tag k="natural" v="water" />
		<tag k="ssr:stedsnr" v="610734" />
	</node>
<<<<<<< HEAD
	<node lat="59.299847222341505" lon="11.61700554817095" id="-13824">
		<tag k="name" v="Vestre Kilebunn" />
		<tag k="natural" v="bay" />
		<tag k="ssr:stedsnr" v="705046" />
	</node>
	<node lat="59.073991665913056" lon="11.74149722987552" id="-13835">
		<tag k="name" v="Jonshøljen" />
=======
	<node id="-234482" lat="59.2271805522" lon="11.7606388968">
		<tag k="name" v="Tretjerna" />
		<tag k="natural" v="water" />
		<tag k="ssr:stedsnr" v="354153" />
	</node>
	<node id="-234477" lat="59.0729055592" lon="11.7304333312">
		<tag k="alt_name" v="Skogrostjern;Skogråstjernet" />
		<tag k="name" v="Skogråstjern" />
>>>>>>> e1d4bc35ff8a6074a6f2e91616a996b547c36f15
		<tag k="natural" v="water" />
		<tag k="ssr:stedsnr" v="644423" />
	</node>
<<<<<<< HEAD
	<node lat="59.05297302383822" lon="11.689588150330145" id="-13839">
		<tag k="name" v="Ramsnestjern" />
=======
	<node id="-234476" lat="59.072038887" lon="11.7531027856">
		<tag k="name" v="Lysevannet" />
>>>>>>> e1d4bc35ff8a6074a6f2e91616a996b547c36f15
		<tag k="natural" v="water" />
		<tag k="ssr:stedsnr" v="657924" />
		<tag k="water" v="lake" />
	</node>
<<<<<<< HEAD
	<node lat="59.09566389150776" lon="11.698274999112748" id="-13840">
		<tag k="name" v="Pernilletjern" />
=======
	<node id="-234475" lat="59.0813583324" lon="11.6961750063">
		<tag k="name" v="Søndre Tjernimellem" />
>>>>>>> e1d4bc35ff8a6074a6f2e91616a996b547c36f15
		<tag k="natural" v="water" />
		<tag k="ssr:stedsnr" v="658012" />
	</node>
<<<<<<< HEAD
	<node lat="59.27489721991866" lon="11.62671110350399" id="-13842">
		<tag k="name" v="Lindtjern" />
=======
	<node id="-234473" lat="59.1219444412" lon="11.7334805624">
		<tag k="name" v="Dyvelen" />
>>>>>>> e1d4bc35ff8a6074a6f2e91616a996b547c36f15
		<tag k="natural" v="water" />
		<tag k="ssr:stedsnr" v="658092" />
	</node>
<<<<<<< HEAD
	<node lat="59.23745000133942" lon="11.7586111101883" id="-13846">
		<tag k="name" v="Kulltjern" />
=======
	<node id="-234472" lat="59.1785055582" lon="11.6530083319">
		<tag k="name" v="Fiskedam" />
>>>>>>> e1d4bc35ff8a6074a6f2e91616a996b547c36f15
		<tag k="natural" v="water" />
		<tag k="ssr:stedsnr" v="658146" />
		<tag k="water" v="pond" />
	</node>
<<<<<<< HEAD
	<node lat="59.269019440243405" lon="11.749527776191695" id="-13850">
		<tag k="name" v="Bamseslor" />
		<tag k="place" v="locality" />
		<tag k="ssr:stedsnr" v="658791" />
	</node>
	<node lat="59.315427773762984" lon="11.776194450539212" id="-13852">
		<tag k="name" v="Kråkevik" />
=======
	<node id="-234471" lat="59.3095750022" lon="11.7188861196">
		<tag k="name" v="Løken" />
		<tag k="ssr:stedsnr" v="341051" />
		<tag k="waterway" v="river" />
	</node>
	<node id="-234467" lat="59.2987611117" lon="11.6195750022">
		<tag k="name" v="Kilebunn" />
>>>>>>> e1d4bc35ff8a6074a6f2e91616a996b547c36f15
		<tag k="natural" v="bay" />
		<tag k="ssr:stedsnr" v="658938" />
	</node>
<<<<<<< HEAD
	<node lat="59.31745555696105" lon="11.581027784047762" id="-13854">
		<tag k="name" v="Nesset" />
		<tag k="natural" v="cape" />
		<tag k="ssr:stedsnr" v="659541" />
	</node>
	<node lat="59.1348597423042" lon="11.630177508728364" id="-13860">
		<tag k="alt_name" v="Trollnestjern" />
		<tag k="name" v="Trollnestjernet" />
=======
	<node id="-234464" lat="59.2522583322" lon="11.5929888955">
		<tag k="name" v="Skotjern" />
		<tag k="natural" v="water" />
		<tag k="ssr:stedsnr" v="340362" />
	</node>
	<node id="-234463" lat="59.255169445" lon="11.6028944393">
		<tag k="name" v="Brannskattjern" />
>>>>>>> e1d4bc35ff8a6074a6f2e91616a996b547c36f15
		<tag k="natural" v="water" />
		<tag k="ssr:stedsnr" v="670025" />
		<tag k="water" v="lake" />
	</node>
<<<<<<< HEAD
	<node lat="59.2557245831949" lon="11.615400267933694" id="-13861">
		<tag k="name" v="Tretjerna" />
=======
	<node id="-234460" lat="59.2962111142" lon="11.7125694397">
		<tag k="name" v="Abbortjernet" />
>>>>>>> e1d4bc35ff8a6074a6f2e91616a996b547c36f15
		<tag k="natural" v="water" />
		<tag k="ssr:stedsnr" v="670603" />
		<tag k="water" v="lake" />
	</node>
<<<<<<< HEAD
	<node lat="59.253719440257086" lon="11.575922215304564" id="-13863">
		<tag k="alt_name" v="Svarttjern" />
		<tag k="name" v="Svarttjernet" />
=======
	<node id="-234456" lat="59.277502781" lon="11.796208333">
		<tag k="alt_name" v="Litjern" />
		<tag k="name" v="Litjernet" />
>>>>>>> e1d4bc35ff8a6074a6f2e91616a996b547c36f15
		<tag k="natural" v="water" />
		<tag k="ssr:stedsnr" v="670727" />
	</node>
<<<<<<< HEAD
	<node lat="59.25860936171072" lon="11.57963205363628" id="-13864">
		<tag k="name" v="Brutjerna" />
=======
	<node id="-234451" lat="59.1454865172" lon="11.654027378">
		<tag k="name" v="Asprekfjorden" />
>>>>>>> e1d4bc35ff8a6074a6f2e91616a996b547c36f15
		<tag k="natural" v="water" />
		<tag k="ssr:stedsnr" v="670729" />
		<tag k="water" v="lake" />
	</node>
<<<<<<< HEAD
	<node lat="59.26731944406931" lon="11.601872225503568" id="-13867">
		<tag k="name" v="Kavringtjern" />
=======
	<node id="-234450" lat="59.0672388884" lon="11.676850005">
		<tag k="name" v="Krukebukta" />
		<tag k="natural" v="bay" />
		<tag k="ssr:stedsnr" v="305401" />
	</node>
	<node id="-234440" lat="59.2424194558" lon="11.5914762173">
		<tag k="name" v="Djupvann" />
>>>>>>> e1d4bc35ff8a6074a6f2e91616a996b547c36f15
		<tag k="natural" v="water" />
		<tag k="ssr:stedsnr" v="705402" />
	</node>
<<<<<<< HEAD
	<node lat="59.14279444616109" lon="11.657166674590371" id="-13870">
		<tag k="name" v="Kvernbauen" />
		<tag k="natural" v="bay" />
		<tag k="ssr:stedsnr" v="718528" />
	</node>
	<node lat="59.218461112809464" lon="11.645522214478108" id="-13871">
		<tag k="name" v="Blekketjern" />
=======
	<node id="-234438" lat="59.1140555581" lon="11.7235527829">
		<tag k="name" v="Lindtjern" />
		<tag k="natural" v="water" />
		<tag k="ssr:stedsnr" v="304459" />
	</node>
	<node id="-234433" lat="59.3211972243" lon="11.6447861103">
		<tag k="alt_name" v="Bergtjernet" />
		<tag k="name" v="Søndre Bergtjern" />
>>>>>>> e1d4bc35ff8a6074a6f2e91616a996b547c36f15
		<tag k="natural" v="water" />
		<tag k="ssr:stedsnr" v="719319" />
	</node>
<<<<<<< HEAD
	<node lat="59.1641583318444" lon="11.765669452299377" id="-13874">
		<tag k="name" v="Elgtjern" />
		<tag k="natural" v="water" />
		<tag k="ssr:stedsnr" v="719920" />
	</node>
	<node lat="59.16285277503173" lon="11.770952775703295" id="-13875">
		<tag k="name" v="Elgtjernsdyvelen" />
=======
	<node id="-234432" lat="59.3246833289" lon="11.6604055554">
		<tag k="name" v="Blåsuppen" />
		<tag k="natural" v="strait" />
		<tag k="ssr:stedsnr" v="188063" />
	</node>
	<node id="-234431" lat="59.3251277822" lon="11.6429666722">
		<tag k="name" v="Nordre Bergtjern" />
>>>>>>> e1d4bc35ff8a6074a6f2e91616a996b547c36f15
		<tag k="natural" v="water" />
		<tag k="ssr:stedsnr" v="719921" />
	</node>
<<<<<<< HEAD
	<node lat="59.07866111456902" lon="11.742883331380295" id="-13882">
		<tag k="alt_name" v="Søndre Morttjern" />
		<tag k="name" v="Søndre Mortvannet" />
=======
	<node id="-234428" lat="59.270991669" lon="11.7124194533">
		<tag k="alt_name" v="Abbortjern" />
		<tag k="name" v="Abbortjernet" />
>>>>>>> e1d4bc35ff8a6074a6f2e91616a996b547c36f15
		<tag k="natural" v="water" />
		<tag k="ssr:stedsnr" v="729467" />
	</node>
<<<<<<< HEAD
	<node lat="59.08371673503542" lon="11.728502315388829" id="-13883">
		<tag k="fixme" v="multiple name tags, choose one and add the other to alt_name" />
		<tag k="name" v="Kroktjern;Kolstjern" />
=======
	<node id="-234427" lat="59.275447221" lon="11.5853250067">
		<tag k="alt_name" v="Kutjern" />
		<tag k="name" v="Kutjernet" />
>>>>>>> e1d4bc35ff8a6074a6f2e91616a996b547c36f15
		<tag k="natural" v="water" />
		<tag k="ssr:stedsnr" v="729469" />
	</node>
<<<<<<< HEAD
	<node lat="59.3162805536764" lon="11.719561118892774" id="-13885">
		<tag k="name" v="Kaninholmen" />
=======
	<node id="-234422" lat="59.2909583295" lon="11.667938889">
		<tag k="name" v="Fangeøya" />
>>>>>>> e1d4bc35ff8a6074a6f2e91616a996b547c36f15
		<tag k="place" v="islet" />
		<tag k="ssr:stedsnr" v="901176" />
	</node>
<<<<<<< HEAD
	<node lat="59.1683611148408" lon="11.656894438671051" id="-13894">
		<tag k="name" v="Bøentjernet" />
=======
	<node id="-234420" lat="59.3150611335" lon="11.7178014469">
		<tag k="alt_name" v="Bøensætretjern" />
		<tag k="name" v="Setertjernet" />
>>>>>>> e1d4bc35ff8a6074a6f2e91616a996b547c36f15
		<tag k="natural" v="water" />
		<tag k="ssr:stedsnr" v="901249" />
	</node>
<<<<<<< HEAD
	<node lat="59.1756833298794" lon="11.615819437735492" id="-13897">
		<tag k="name" v="Igletjern" />
=======
	<node id="-234419" lat="59.3143916644" lon="11.7406055617">
		<tag k="name" v="Metartjern" />
>>>>>>> e1d4bc35ff8a6074a6f2e91616a996b547c36f15
		<tag k="natural" v="water" />
		<tag k="ssr:stedsnr" v="901338" />
	</node>
<<<<<<< HEAD
	<node lat="59.16486133163347" lon="11.690751934580417" id="-13898">
		<tag k="name" v="Hagebukta" />
		<tag k="natural" v="bay" />
		<tag k="ssr:stedsnr" v="901340" />
	</node>
	<node lat="59.30735000147628" lon="11.746416672288234" id="-13899">
		<tag k="name" v="Eketjern" />
=======
	<node id="-234418" lat="59.3192724156" lon="11.636805705">
		<tag k="alt_name" v="Bredmosetjern" />
		<tag k="name" v="Breidmosetjernet" />
		<tag k="natural" v="water" />
		<tag k="ssr:stedsnr" v="185592" />
	</node>
	<node id="-234417" lat="59.321758337" lon="11.5773444503">
		<tag k="alt_name" v="Kolbjørnsviksjøen" />
		<tag k="name" v="Kolbjørnviksjøen" />
		<tag k="natural" v="water" />
		<tag k="old_name" v="Kolbjørnsvik Sjø" />
		<tag k="ssr:stedsnr" v="185588" />
		<tag k="water" v="lake" />
	</node>
	<node id="-234415" lat="59.0546000033" lon="11.7137999998">
		<tag k="alt_name" v="Bekkengtjern" />
		<tag k="name" v="Bekkengtjernet" />
>>>>>>> e1d4bc35ff8a6074a6f2e91616a996b547c36f15
		<tag k="natural" v="water" />
		<tag k="ssr:stedsnr" v="731618" />
	</node>
<<<<<<< HEAD
	<node lat="59.14741666450125" lon="11.681888888660662" id="-13903">
		<tag k="name" v="Gåseskjærnebba" />
=======
	<node id="-234414" lat="59.0492777792" lon="11.6888250076">
		<tag k="name" v="Ramsneset" />
>>>>>>> e1d4bc35ff8a6074a6f2e91616a996b547c36f15
		<tag k="natural" v="cape" />
		<tag k="ssr:stedsnr" v="901477" />
	</node>
<<<<<<< HEAD
	<node lat="59.15095277967087" lon="11.677775007804277" id="-13904">
		<tag k="name" v="Rustadbukta" />
		<tag k="natural" v="bay" />
		<tag k="ssr:stedsnr" v="901478" />
	</node>
	<node lat="59.15173610800673" lon="11.719133331458261" id="-13905">
		<tag k="name" v="Brennevinskjæret" />
		<tag k="place" v="islet" />
		<tag k="ssr:stedsnr" v="901481" />
	</node>
	<node lat="59.14644721767591" lon="11.699547229706686" id="-13906">
		<tag k="alt_name" v="Døhaugbukta" />
		<tag k="name" v="Nedre Døhaugbukta" />
		<tag k="natural" v="bay" />
		<tag k="ssr:stedsnr" v="901484" />
	</node>
	<node lat="59.179377778300676" lon="11.722486117262818" id="-13908">
		<tag k="name" v="Aspestrandtjernet" />
=======
	<node id="-234411" lat="59.1990900681" lon="11.6443159978">
		<tag k="alt_name" v="Holvannet" />
		<tag k="name" v="Holevannet" />
		<tag k="natural" v="water" />
		<tag k="ssr:stedsnr" v="184178" />
		<tag k="water" v="lake" />
	</node>
	<node id="-234410" lat="59.2098502715" lon="11.5906330178">
		<tag k="name" v="Rødvann" />
		<tag k="natural" v="water" />
		<tag k="ssr:stedsnr" v="184167" />
		<tag k="water" v="lake" />
	</node>
	<node id="-234403" lat="59.0760027759" lon="11.7324555516">
		<tag k="name" v="Tangetjern" />
		<tag k="natural" v="water" />
		<tag k="ssr:stedsnr" v="183363" />
	</node>
	<node id="-234401" lat="59.067030558" lon="11.7365250046">
		<tag k="alt_name" v="Søndre Høyklevtjern" />
		<tag k="name" v="Søndre Høykleivtjern" />
>>>>>>> e1d4bc35ff8a6074a6f2e91616a996b547c36f15
		<tag k="natural" v="water" />
		<tag k="ssr:stedsnr" v="901670" />
	</node>
<<<<<<< HEAD
	<node lat="59.20165555972419" lon="11.74790832965655" id="-13910">
		<tag k="name" v="Rødstjern" />
=======
	<node id="-234398" lat="59.2069055596" lon="11.6072777763">
		<tag k="name" v="Bautjern" />
>>>>>>> e1d4bc35ff8a6074a6f2e91616a996b547c36f15
		<tag k="natural" v="water" />
		<tag k="ssr:stedsnr" v="901931" />
	</node>
<<<<<<< HEAD
	<node lat="59.14893888643943" lon="11.734688891651064" id="-13911">
		<tag k="name" v="Åmulen" />
		<tag k="natural" v="cape" />
		<tag k="ssr:stedsnr" v="901945" />
	</node>
	<node lat="59.27510555840358" lon="11.666016658476224" id="-13921">
		<tag k="name" v="Klokkernebba" />
		<tag k="natural" v="cape" />
		<tag k="ssr:stedsnr" v="779054" />
	</node>
	<node lat="59.13795277532271" lon="11.678961116071063" id="-13926">
		<tag k="name" v="Remnetangen" />
		<tag k="natural" v="cape" />
		<tag k="ssr:stedsnr" v="779499" />
	</node>
	<node lat="59.21500555826097" lon="11.68831111480983" id="-13931">
		<tag k="name" v="Skotsbergelva" />
		<tag k="ssr:stedsnr" v="780301" />
		<tag k="waterway" v="river" />
	</node>
	<node lat="59.222524997054684" lon="11.581933325372807" id="-13933">
		<tag k="name" v="Lunnetjern" />
=======
	<node id="-234397" lat="59.2207000001" lon="11.5796749996">
		<tag k="name" v="Lunnetjern" />
		<tag k="natural" v="water" />
		<tag k="ssr:stedsnr" v="173962" />
	</node>
	<node id="-234395" lat="59.1785805538" lon="11.7644888879">
		<tag k="name" v="Haugetjern" />
>>>>>>> e1d4bc35ff8a6074a6f2e91616a996b547c36f15
		<tag k="natural" v="water" />
		<tag k="ssr:stedsnr" v="780960" />
	</node>
<<<<<<< HEAD
	<node lat="59.1858499966694" lon="11.618191668199573" id="-13936">
		<tag k="name" v="Kutjern" />
=======
	<node id="-234393" lat="59.1707694446" lon="11.7696861144">
		<tag k="name" v="Hedtjern" />
>>>>>>> e1d4bc35ff8a6074a6f2e91616a996b547c36f15
		<tag k="natural" v="water" />
		<tag k="ssr:stedsnr" v="780861" />
	</node>
<<<<<<< HEAD
	<node lat="59.27800555995833" lon="11.56325832875528" id="-13938">
		<tag k="name" v="Voletjern" />
=======
	<node id="-234391" lat="59.1837861091" lon="11.7567333251">
		<tag k="name" v="Nordre Busterudtjern" />
>>>>>>> e1d4bc35ff8a6074a6f2e91616a996b547c36f15
		<tag k="natural" v="water" />
		<tag k="ssr:stedsnr" v="781549" />
	</node>
<<<<<<< HEAD
	<node lat="59.23750833030375" lon="11.610152780692221" id="-13941">
		<tag k="name" v="Åbogen" />
		<tag k="ssr:stedsnr" v="911131" />
		<tag k="waterway" v="stream" />
	</node>
	<node lat="59.22084581197906" lon="11.76615700424349" id="-13944">
		<tag k="fixme" v="multiple name tags, choose one and add the other to alt_name" />
		<tag k="name" v="Damtjern;Andtjern" />
=======
	<node id="-234389" lat="59.3325027738" lon="11.7021666705">
		<tag k="name" v="Kutjernbekken" />
		<tag k="ssr:stedsnr" v="173390" />
		<tag k="waterway" v="stream" />
	</node>
	<node id="-234388" lat="59.2193722203" lon="11.6307666657">
		<tag k="name" v="Godthull" />
>>>>>>> e1d4bc35ff8a6074a6f2e91616a996b547c36f15
		<tag k="natural" v="water" />
		<tag k="ssr:stedsnr" v="790118" />
	</node>
<<<<<<< HEAD
	<node lat="59.07089999597606" lon="11.722574997998288" id="-13945">
		<tag k="name" v="Størmyrtjern" />
		<tag k="natural" v="water" />
		<tag k="ssr:stedsnr" v="790403" />
	</node>
	<node lat="59.072138891711745" lon="11.680547225160803" id="-13946">
		<tag k="name" v="Kruketjern" />
=======
	<node id="-234380" lat="59.1346472266" lon="11.7144055529">
		<tag k="name" v="Tretjern" />
		<tag k="natural" v="water" />
		<tag k="ssr:stedsnr" v="172859" />
	</node>
	<node id="-234378" lat="59.2687888925" lon="11.8087138945">
		<tag k="name" v="Mosviktangen" />
		<tag k="natural" v="cape" />
		<tag k="ssr:stedsnr" v="172826" />
	</node>
	<node id="-234376" lat="59.3026861129" lon="11.7707805543">
		<tag k="name" v="Mørkvik" />
		<tag k="natural" v="bay" />
		<tag k="ssr:stedsnr" v="172820" />
	</node>
	<node id="-234373" lat="59.1224444403" lon="11.6592777769">
		<tag k="name" v="Vardekolltjern" />
>>>>>>> e1d4bc35ff8a6074a6f2e91616a996b547c36f15
		<tag k="natural" v="water" />
		<tag k="ssr:stedsnr" v="790394" />
	</node>
<<<<<<< HEAD
	<node lat="59.0736138923968" lon="11.739719440547216" id="-13947">
		<tag k="alt_name" v="Nordre Høyklevtjern" />
		<tag k="name" v="Nordre Høykleivtjern" />
=======
	<node id="-234372" lat="59.1158833299" lon="11.7448777837">
		<tag k="name" v="Husetjern" />
>>>>>>> e1d4bc35ff8a6074a6f2e91616a996b547c36f15
		<tag k="natural" v="water" />
		<tag k="ssr:stedsnr" v="790399" />
	</node>
<<<<<<< HEAD
	<node lat="59.14584167106076" lon="11.664938892294616" id="-13948">
		<tag k="alt_name" v="Nøttesundet" />
		<tag k="name" v="Nøtesundet" />
		<tag k="natural" v="strait" />
		<tag k="ssr:stedsnr" v="791010" />
	</node>
	<node lat="59.27877499666834" lon="11.56654444259708" id="-13949">
		<tag k="alt_name" v="Skjølja" />
		<tag k="name" v="Sjulitjernet" />
=======
	<node id="-234367" lat="59.3134444451" lon="11.7030777824">
		<tag k="name" v="Bjørnesund" />
		<tag k="natural" v="strait" />
		<tag k="ssr:stedsnr" v="172194" />
	</node>
	<node id="-234365" lat="59.2163444434" lon="11.7800583315">
		<tag k="name" v="Trantjern" />
		<tag k="natural" v="water" />
		<tag k="ssr:stedsnr" v="172149" />
	</node>
	<node id="-234364" lat="59.2248777738" lon="11.7898666647">
		<tag k="name" v="Kippingtjern" />
>>>>>>> e1d4bc35ff8a6074a6f2e91616a996b547c36f15
		<tag k="natural" v="water" />
		<tag k="ssr:stedsnr" v="792677" />
	</node>
<<<<<<< HEAD
	<node lat="59.27002500335326" lon="11.598216659093978" id="-13952">
		<tag k="alt_name" v="Furutjern" />
		<tag k="name" v="Furutjernet" />
=======
	<node id="-234362" lat="59.1026749977" lon="11.6864944489">
		<tag k="name" v="Himmerikstjern" />
>>>>>>> e1d4bc35ff8a6074a6f2e91616a996b547c36f15
		<tag k="natural" v="water" />
		<tag k="ssr:stedsnr" v="792701" />
	</node>
<<<<<<< HEAD
	<node lat="59.17968889287677" lon="11.642277774006745" id="-13954">
		<tag k="alt_name" v="Haugtjern" />
		<tag k="name" v="Hagatjern" />
=======
	<node id="-234361" lat="59.1164083375" lon="11.6570611048">
		<tag k="name" v="Nøsthøltjern" />
>>>>>>> e1d4bc35ff8a6074a6f2e91616a996b547c36f15
		<tag k="natural" v="water" />
		<tag k="ssr:stedsnr" v="912083" />
	</node>
<<<<<<< HEAD
	<node lat="59.08301110999816" lon="11.709991663711774" id="-13955">
		<tag k="name" v="Abbortjern" />
=======
	<node id="-234357" lat="59.2583305532" lon="11.6079249954">
		<tag k="name" v="Nordre Abbortjern" />
>>>>>>> e1d4bc35ff8a6074a6f2e91616a996b547c36f15
		<tag k="natural" v="water" />
		<tag k="ssr:stedsnr" v="912298" />
	</node>
<<<<<<< HEAD
	<node lat="59.214631416423735" lon="11.770946418111873" id="-13957">
		<tag k="fixme" v="multiple name tags, choose one and add the other to alt_name" />
		<tag k="name" v="Lerkefet;Sjafettjern" />
		<tag k="natural" v="water" />
		<tag k="ssr:stedsnr" v="912161" />
	</node>
	<node lat="59.32161944235512" lon="11.656422222934314" id="-13960">
		<tag k="name" v="Strømsholmene" />
		<tag k="place" v="islet" />
		<tag k="ssr:stedsnr" v="795012" />
	</node>
	<node lat="59.32226944004935" lon="11.65793333238535" id="-13961">
		<tag k="name" v="Latefoss" />
		<tag k="natural" v="strait" />
		<tag k="ssr:stedsnr" v="795016" />
	</node>
	<node lat="59.32285277652565" lon="11.661599997692962" id="-13962">
		<tag k="name" v="Bøentjernet" />
=======
	<node id="-234355" lat="59.2641722197" lon="11.6168305469">
		<tag k="name" v="Slettebakktjern" />
		<tag k="natural" v="water" />
		<tag k="ssr:stedsnr" v="159485" />
	</node>
	<node id="-234354" lat="59.2961055583" lon="11.6501277832">
		<tag k="name" v="Nestbukta" />
		<tag k="natural" v="bay" />
		<tag k="ssr:stedsnr" v="159030" />
	</node>
	<node id="-234351" lat="59.2630694454" lon="11.5729972227">
		<tag k="name" v="Øvre Laua" />
		<tag k="natural" v="water" />
		<tag k="ssr:stedsnr" v="158383" />
	</node>
	<node id="-234350" lat="59.267855557" lon="11.6070555627">
		<tag k="name" v="Gretetjern" />
		<tag k="natural" v="water" />
		<tag k="ssr:stedsnr" v="158372" />
	</node>
	<node id="-234349" lat="59.281913893" lon="11.5777555566">
		<tag k="name" v="Blanketjern" />
>>>>>>> e1d4bc35ff8a6074a6f2e91616a996b547c36f15
		<tag k="natural" v="water" />
		<tag k="ssr:stedsnr" v="795018" />
	</node>
<<<<<<< HEAD
	<node lat="59.12422499847907" lon="11.672733333031939" id="-13966">
		<tag k="name" v="Abbortjern" />
=======
	<node id="-234347" lat="59.269686107" lon="11.6070916707">
		<tag k="name" v="Helvetestjern" />
>>>>>>> e1d4bc35ff8a6074a6f2e91616a996b547c36f15
		<tag k="natural" v="water" />
		<tag k="ssr:stedsnr" v="913047" />
	</node>
<<<<<<< HEAD
	<node lat="59.12998333276583" lon="11.750880560071346" id="-13967">
		<tag k="alt_name" v="Svaretjern" />
		<tag k="name" v="Svarødtjern" />
=======
	<node id="-234346" lat="59.3291416633" lon="11.7193222198">
		<tag k="alt_name" v="Buretjernet" />
		<tag k="name" v="Buretjern" />
>>>>>>> e1d4bc35ff8a6074a6f2e91616a996b547c36f15
		<tag k="natural" v="water" />
		<tag k="ssr:stedsnr" v="913052" />
	</node>
<<<<<<< HEAD
	<node lat="59.25646389307978" lon="11.556619437852971" id="-13970">
		<tag k="fixme" v="multiple name tags, choose one and add the other to alt_name" />
		<tag k="name" v="Lauva;Kampetjerna" />
		<tag k="natural" v="water" />
		<tag k="ssr:stedsnr" v="913719" />
	</node>
	<node lat="59.26729999857897" lon="11.578477771892073" id="-13976">
		<tag k="name" v="Andetjern" />
=======
	<node id="-234345" lat="59.2548777746" lon="11.5932055541">
		<tag k="alt_name" v="Ormetjern" />
		<tag k="name" v="Ormetjerna" />
		<tag k="natural" v="water" />
		<tag k="ssr:stedsnr" v="124694" />
		<tag k="water" v="lake" />
	</node>
	<node id="-234343" lat="59.2644194448" lon="11.5881916614">
		<tag k="alt_name" v="Holmetjern" />
		<tag k="name" v="Holmtjernet" />
>>>>>>> e1d4bc35ff8a6074a6f2e91616a996b547c36f15
		<tag k="natural" v="water" />
		<tag k="ssr:stedsnr" v="826381" />
	</node>
<<<<<<< HEAD
	<node lat="59.33702222326512" lon="11.644330560106201" id="-13977">
		<tag k="name" v="Furuholmen" />
		<tag k="place" v="islet" />
		<tag k="ssr:stedsnr" v="827007" />
	</node>
	<node lat="59.081308331160166" lon="11.748994446888586" id="-13979">
		<tag k="name" v="Latjern" />
=======
	<node id="-234342" lat="59.266783329" lon="11.6708583347">
		<tag k="alt_name" v="Riveøa" />
		<tag k="name" v="Riveøya" />
		<tag k="place" v="islet" />
		<tag k="ssr:stedsnr" v="124680" />
	</node>
	<node id="-234341" lat="59.2650111131" lon="11.601872221">
		<tag k="alt_name" v="Langtjernet" />
		<tag k="name" v="Langvanna" />
		<tag k="natural" v="water" />
		<tag k="ssr:stedsnr" v="124678" />
	</node>
	<node id="-234339" lat="59.2663944466" lon="11.7970888843">
		<tag k="alt_name" v="Tolsbytjern" />
		<tag k="name" v="Tolsbytjernet" />
		<tag k="natural" v="water" />
		<tag k="ssr:stedsnr" v="124669" />
	</node>
	<node id="-234338" lat="59.274822224" lon="11.5646861092">
		<tag k="alt_name" v="Sambudalstjern" />
		<tag k="name" v="Samedaltjernet" />
>>>>>>> e1d4bc35ff8a6074a6f2e91616a996b547c36f15
		<tag k="natural" v="water" />
		<tag k="ssr:stedsnr" v="827432" />
		<tag k="water" v="pond" />
	</node>
<<<<<<< HEAD
	<node lat="59.14665277601077" lon="11.71469167085768" id="-13989">
		<tag k="name" v="Høyneset" />
		<tag k="natural" v="cape" />
		<tag k="ssr:stedsnr" v="840486" />
	</node>
	<node lat="59.159644443333534" lon="11.706658329001804" id="-13990">
		<tag k="name" v="Husebukta" />
=======
	<node id="-234335" lat="59.288575002" lon="11.5725694491">
		<tag k="name" v="Holmetjern" />
		<tag k="natural" v="water" />
		<tag k="ssr:stedsnr" v="124622" />
	</node>
	<node id="-234334" lat="59.2952611074" lon="11.7876027826">
		<tag k="name" v="Pollstadvika" />
>>>>>>> e1d4bc35ff8a6074a6f2e91616a996b547c36f15
		<tag k="natural" v="bay" />
		<tag k="ssr:stedsnr" v="840679" />
	</node>
<<<<<<< HEAD
	<node lat="59.20498333374586" lon="11.696266669536488" id="-13992">
		<tag k="name" v="Vabutangen" />
		<tag k="natural" v="cape" />
		<tag k="ssr:stedsnr" v="841312" />
	</node>
	<node lat="59.073769446816314" lon="11.684563880504594" id="-14003">
		<tag k="alt_name" v="Gravdalstjern" />
		<tag k="name" v="Gravedalstjernet" />
=======
	<node id="-234333" lat="59.3090916646" lon="11.7346083321">
		<tag k="alt_name" v="Abbortjern" />
		<tag k="name" v="Abbortjernet" />
>>>>>>> e1d4bc35ff8a6074a6f2e91616a996b547c36f15
		<tag k="natural" v="water" />
		<tag k="ssr:stedsnr" v="851374" />
	</node>
<<<<<<< HEAD
	<node lat="59.26846110934205" lon="11.816338891835937" id="-14004">
		<tag k="alt_name" v="Mosvikøa" />
		<tag k="name" v="Mosvikøya" />
		<tag k="place" v="islet" />
		<tag k="ssr:stedsnr" v="853709" />
	</node>
	<node lat="59.252438891325006" lon="11.819277775284993" id="-14010">
		<tag k="name" v="Mosbekkbukta" />
		<tag k="natural" v="bay" />
		<tag k="ssr:stedsnr" v="853612" />
	</node>
	<node lat="59.29873675231819" lon="11.803070322219186" id="-14011">
		<tag k="name" v="Kolløya" />
=======
	<node id="-234329" lat="59.1342583337" lon="11.6744250044">
		<tag k="name" v="Lomholmen" />
		<tag k="place" v="islet" />
		<tag k="ssr:stedsnr" v="123031" />
	</node>
	<node id="-234323" lat="59.2342499966" lon="11.6057361094">
		<tag k="name" v="Høgfossen" />
		<tag k="natural" v="waterfall" />
		<tag k="ssr:stedsnr" v="122131" />
	</node>
	<node id="-234321" lat="59.2323111103" lon="11.5863722177">
		<tag k="name" v="Fjelltjern" />
		<tag k="natural" v="water" />
		<tag k="ssr:stedsnr" v="113986" />
	</node>
	<node id="-234313" lat="59.3192999974" lon="11.7787611176">
		<tag k="name" v="Astridholmen" />
>>>>>>> e1d4bc35ff8a6074a6f2e91616a996b547c36f15
		<tag k="place" v="islet" />
		<tag k="ssr:stedsnr" v="853652" />
	</node>
<<<<<<< HEAD
	<node lat="59.29047222209802" lon="11.805266660673164" id="-14012">
		<tag k="alt_name" v="Bjørnøa" />
		<tag k="name" v="Bjørnøya" />
		<tag k="place" v="islet" />
		<tag k="ssr:stedsnr" v="853667" />
	</node>
	<node lat="59.231114298707524" lon="11.625017969240547" id="-14016">
		<tag k="name" v="Høyfossen" />
=======
	<node id="-234304" lat="59.1594805575" lon="11.7230027777">
		<tag k="name" v="Grotmålskjæret" />
		<tag k="place" v="islet" />
		<tag k="ssr:stedsnr" v="112672" />
	</node>
	<node id="-234303" lat="59.1567583336" lon="11.7328277811">
		<tag k="name" v="Trulseholmen" />
		<tag k="natural" v="cape" />
		<tag k="ssr:stedsnr" v="112671" />
	</node>
	<node id="-234297" lat="59.216063886" lon="11.6502805536">
		<tag k="name" v="Tutjern" />
		<tag k="natural" v="water" />
		<tag k="ssr:stedsnr" v="112352" />
	</node>
	<node id="-234296" lat="59.2241999973" lon="11.7795222155">
		<tag k="name" v="Kollerøddyvelen" />
>>>>>>> e1d4bc35ff8a6074a6f2e91616a996b547c36f15
		<tag k="natural" v="water" />
		<tag k="ssr:stedsnr" v="887503" />
		<tag k="water" v="lake" />
	</node>
<<<<<<< HEAD
	<node lat="59.25476111025151" lon="11.67056666058477" id="-14020">
		<tag k="name" v="Buernebba" />
=======
	<node id="-234292" lat="59.0430749973" lon="11.7222583304">
		<tag k="name" v="Bekengbukt" />
		<tag k="natural" v="bay" />
		<tag k="ssr:stedsnr" v="112065" />
	</node>
	<node id="-234287" lat="59.3090027776" lon="11.6661388843">
		<tag k="name" v="Strømsneset" />
>>>>>>> e1d4bc35ff8a6074a6f2e91616a996b547c36f15
		<tag k="natural" v="cape" />
		<tag k="ssr:stedsnr" v="887455" />
	</node>
<<<<<<< HEAD
	<node lat="59.25445278148072" lon="11.646436107798996" id="-14021">
		<tag k="name" v="Teigsbukta" />
=======
	<node id="-234283" lat="59.2354361148" lon="11.6752083289">
		<tag k="name" v="Mørkebukt" />
>>>>>>> e1d4bc35ff8a6074a6f2e91616a996b547c36f15
		<tag k="natural" v="bay" />
		<tag k="ssr:stedsnr" v="887458" />
	</node>
<<<<<<< HEAD
	<node lat="59.11659722260007" lon="11.697563896408058" id="-14025">
		<tag k="name" v="Gøtelitjern" />
=======
	<node id="-234282" lat="59.2844833309" lon="11.5710500084">
		<tag k="name" v="Øvre Svensketjern" />
>>>>>>> e1d4bc35ff8a6074a6f2e91616a996b547c36f15
		<tag k="natural" v="water" />
		<tag k="ssr:stedsnr" v="901055" />
	</node>
<<<<<<< HEAD
	<node lat="59.27875000085892" lon="11.795855563417426" id="-14029">
		<tag k="name" v="Ungerodde" />
=======
	<node id="-234281" lat="59.2874277802" lon="11.5906944414">
		<tag k="name" v="Framnes" />
>>>>>>> e1d4bc35ff8a6074a6f2e91616a996b547c36f15
		<tag k="natural" v="cape" />
		<tag k="ssr:stedsnr" v="901808" />
	</node>
<<<<<<< HEAD
	<node lat="59.19493055419371" lon="11.648605552187691" id="-14031">
		<tag k="name" v="Søndre Dyvel" />
		<tag k="natural" v="water" />
		<tag k="ssr:stedsnr" v="901904" />
	</node>
	<node lat="59.1953055538483" lon="11.603258335590168" id="-14032">
		<tag k="name" v="Lille Småtjern" />
		<tag k="natural" v="water" />
		<tag k="ssr:stedsnr" v="901979" />
	</node>
	<node lat="59.24484872941101" lon="11.57584309690665" id="-14033">
		<tag k="name" v="Søndre Hagetjern" />
=======
	<node id="-234278" lat="59.2787277784" lon="11.5889083367">
		<tag k="alt_name" v="Stubbetjern" />
		<tag k="name" v="Stubbetjernet" />
		<tag k="natural" v="water" />
		<tag k="ssr:stedsnr" v="64697" />
	</node>
	<node id="-234275" lat="59.3205305547" lon="11.6608361197">
		<tag k="alt_name" v="Bøenneset" />
		<tag k="name" v="Bøensneset" />
		<tag k="natural" v="cape" />
		<tag k="ssr:stedsnr" v="64628" />
	</node>
	<node id="-234269" lat="59.119169445" lon="11.6624833342">
		<tag k="alt_name" v="Halvortjern" />
		<tag k="name" v="Halvorstjern" />
		<tag k="natural" v="water" />
		<tag k="ssr:stedsnr" v="63079" />
	</node>
	<node id="-234268" lat="59.1370166683" lon="11.6779250055">
		<tag k="alt_name" v="Vesleremne" />
		<tag k="name" v="Lille Remne" />
		<tag k="natural" v="bay" />
		<tag k="ssr:stedsnr" v="63044" />
	</node>
	<node id="-234264" lat="59.0856388923" lon="11.6840416633">
		<tag k="name" v="Svarttjern" />
>>>>>>> e1d4bc35ff8a6074a6f2e91616a996b547c36f15
		<tag k="natural" v="water" />
		<tag k="ssr:stedsnr" v="901985" />
	</node>
<<<<<<< HEAD
	<node lat="59.15980833549002" lon="11.709750003392593" id="-14036">
		<tag k="alt_name" v="Løvøa" />
		<tag k="name" v="Løvøya" />
		<tag k="place" v="island" />
		<tag k="ssr:stedsnr" v="912113" />
	</node>
	<node lat="59.300916670332214" lon="11.609797229806288" id="-14045">
		<tag k="alt_name" v="Raketjern" />
		<tag k="name" v="Rakketjernet" />
=======
	<node id="-234263" lat="59.1136499986" lon="11.6951999913">
		<tag k="name" v="Morttjern" />
		<tag k="natural" v="water" />
		<tag k="ssr:stedsnr" v="62458" />
	</node>
	<node id="-234261" lat="59.2470444431" lon="11.6032694473">
		<tag k="alt_name" v="Helvedestjern" />
		<tag k="name" v="Helvetestjern" />
>>>>>>> e1d4bc35ff8a6074a6f2e91616a996b547c36f15
		<tag k="natural" v="water" />
		<tag k="ssr:stedsnr" v="913637" />
	</node>
<<<<<<< HEAD
	<node lat="59.30637499707362" lon="11.785541660780458" id="-14047">
		<tag k="alt_name" v="Bøenøa" />
		<tag k="name" v="Bøensøya" />
=======
	<node id="-234258" lat="59.2376021905" lon="11.825214177">
		<tag k="name" v="Salholmen" />
>>>>>>> e1d4bc35ff8a6074a6f2e91616a996b547c36f15
		<tag k="place" v="islet" />
		<tag k="ssr:stedsnr" v="913642" />
	</node>
<<<<<<< HEAD
	<node lat="59.32065000000895" lon="11.65717221633378" id="-14049">
		<tag k="name" v="Kjerringskrevet" />
		<tag k="place" v="islet" />
		<tag k="ssr:stedsnr" v="916008" />
	</node>
	<node lat="59.261841671071245" lon="11.622794449217524" id="-14052">
		<tag k="name" v="Sauelaua" />
=======
	<node id="-234252" lat="59.2317972185" lon="11.8098250033">
		<tag k="fixme" v="multiple name tags, choose one and add the other to alt_name" />
		<tag k="name" v="Rødstjern;Rødsvann" />
>>>>>>> e1d4bc35ff8a6074a6f2e91616a996b547c36f15
		<tag k="natural" v="water" />
		<tag k="ssr:stedsnr" v="948505" />
	</node>
<<<<<<< HEAD
	<node lat="59.25376111223034" lon="11.616716667548582" id="-14053">
		<tag k="name" v="Søndre Tretjern" />
=======
	<node id="-234247" lat="59.2586996231" lon="11.6697153682">
		<tag k="fixme" v="multiple name tags, choose one and add the other to alt_name" />
		<tag k="name" v="Ara;Aremarksjøen" />
>>>>>>> e1d4bc35ff8a6074a6f2e91616a996b547c36f15
		<tag k="natural" v="water" />
		<tag k="ssr:stedsnr" v="948514" />
		<tag k="water" v="pond" />
	</node>
<<<<<<< HEAD
	<node lat="59.25595277743629" lon="11.649552785996233" id="-14055">
		<tag k="name" v="Mørkevik" />
		<tag k="natural" v="bay" />
		<tag k="ssr:stedsnr" v="948500" />
	</node>
	<node lat="59.18034721801784" lon="11.690508326215244" id="-14060">
		<tag k="name" v="Mellebyelva" />
		<tag k="ssr:stedsnr" v="961335" />
		<tag k="waterway" v="river" />
	</node>
	<node lat="59.131116663290236" lon="11.705733335808484" id="-14061">
		<tag k="name" v="Koddetjern" />
=======
	<node id="-234243" lat="59.2467083324" lon="11.5752555468">
		<tag k="name" v="Nordre Hagetjern" />
>>>>>>> e1d4bc35ff8a6074a6f2e91616a996b547c36f15
		<tag k="natural" v="water" />
		<tag k="ssr:stedsnr" v="961450" />
	</node>
<<<<<<< HEAD
	<node lat="59.150213891696254" lon="11.666488894739127" id="-14065">
		<tag k="name" v="Aspetangbukta" />
=======
	<node id="-234239" lat="59.2232194424" lon="11.6821222218">
		<tag k="name" v="Svennebukta" />
>>>>>>> e1d4bc35ff8a6074a6f2e91616a996b547c36f15
		<tag k="natural" v="bay" />
		<tag k="ssr:stedsnr" v="961500" />
	</node>
<<<<<<< HEAD
	<node lat="59.27378610881349" lon="11.802805557972773" id="-14067">
		<tag k="name" v="Hølen" />
=======
	<node id="-234236" lat="59.2980027797" lon="11.7704361175">
		<tag k="name" v="Skrivelsåa" />
>>>>>>> e1d4bc35ff8a6074a6f2e91616a996b547c36f15
		<tag k="natural" v="bay" />
		<tag k="ssr:stedsnr" v="961830" />
	</node>
<<<<<<< HEAD
	<node lat="59.27930277459052" lon="11.80450555135576" id="-14068">
		<tag k="name" v="Nordre Hjerpenes bukt" />
		<tag k="natural" v="bay" />
		<tag k="ssr:stedsnr" v="961836" />
	</node>
	<node lat="59.2207305524697" lon="11.685994443960212" id="-14069">
		<tag k="name" v="Solbergsundet" />
		<tag k="natural" v="strait" />
		<tag k="ssr:stedsnr" v="962289" />
	</node>
	<node lat="59.155056835162455" lon="11.773907484081395" id="-14070">
		<tag k="name" v="Kroktjern" />
=======
	<node id="-234229" lat="59.0975361119" lon="11.6846444419">
		<tag k="name" v="Øvretjern" />
		<tag k="natural" v="water" />
		<tag k="ssr:stedsnr" v="51041" />
	</node>
	<node id="-234227" lat="59.1186249989" lon="11.3695805616">
		<tag k="name" v="Haldenvassdraget" />
>>>>>>> e1d4bc35ff8a6074a6f2e91616a996b547c36f15
		<tag k="natural" v="water" />
		<tag k="ssr:stedsnr" v="962646" />
		<tag k="water" v="lake" />
	</node>
<<<<<<< HEAD
	<node lat="59.19632778083998" lon="11.650536109923324" id="-14073">
		<tag k="name" v="Mellomdyvel" />
=======
	<node id="-234224" lat="59.2277027737" lon="11.6195749916">
		<tag k="name" v="Smitjern" />
>>>>>>> e1d4bc35ff8a6074a6f2e91616a996b547c36f15
		<tag k="natural" v="water" />
		<tag k="ssr:stedsnr" v="962889" />
	</node>
<<<<<<< HEAD
	<node lat="59.20424581498692" lon="11.618770502222459" id="-14076">
		<tag k="name" v="Stendamtjerna" />
=======
	<node id="-234222" lat="59.3036388863" lon="11.7018972173">
		<tag k="name" v="Lundehøydtjern" />
>>>>>>> e1d4bc35ff8a6074a6f2e91616a996b547c36f15
		<tag k="natural" v="water" />
		<tag k="ssr:stedsnr" v="981171" />
		<tag k="water" v="lake" />
	</node>
<<<<<<< HEAD
	<node lat="59.20313908298282" lon="11.782456041923576" id="-14077">
		<tag k="name" v="Byrvanna" />
=======
	<node id="-234218" lat="59.2722305562" lon="11.6012638959">
		<tag k="name" v="Kjerringtjern" />
>>>>>>> e1d4bc35ff8a6074a6f2e91616a996b547c36f15
		<tag k="natural" v="water" />
		<tag k="ssr:stedsnr" v="981176" />
		<tag k="water" v="lake" />
	</node>
<<<<<<< HEAD
	<node lat="59.07942222694729" lon="11.764070375265884" id="-14079">
		<tag k="name" v="Grøtesbubekken" />
		<tag k="ssr:stedsnr" v="982297" />
		<tag k="waterway" v="stream" />
	</node>
	<node lat="59.210386107501506" lon="11.606924995668495" id="-14082">
		<tag k="alt_name" v="Kreaktjern" />
		<tag k="name" v="Greaktjern" />
		<tag k="natural" v="water" />
		<tag k="ssr:stedsnr" v="1178" />
	</node>
	<node lat="59.05390555404125" lon="11.696563888648862" id="-14083">
		<tag k="name" v="Gardsvika" />
=======
	<node id="-234214" lat="59.3201361152" lon="11.663477777">
		<tag k="name" v="Bøenbunn" />
>>>>>>> e1d4bc35ff8a6074a6f2e91616a996b547c36f15
		<tag k="natural" v="bay" />
		<tag k="ssr:stedsnr" v="1434" />
	</node>
<<<<<<< HEAD
	<node lat="59.11247777379724" lon="11.656286107902432" id="-14085">
		<tag k="name" v="Koven" />
=======
	<node id="-234213" lat="59.2847305595" lon="11.7936083327">
		<tag k="alt_name" v="Morttjern" />
		<tag k="name" v="Morttjernet" />
>>>>>>> e1d4bc35ff8a6074a6f2e91616a996b547c36f15
		<tag k="natural" v="water" />
		<tag k="ssr:stedsnr" v="1464" />
	</node>
<<<<<<< HEAD
	<node lat="59.12171389144301" lon="11.695394440808743" id="-14086">
		<tag k="name" v="Gøtelitjern" />
=======
	<node id="-234212" lat="59.2867055562" lon="11.5949250053">
		<tag k="alt_name" v="Sjølbuvannet" />
		<tag k="name" v="Skibuvannet" />
>>>>>>> e1d4bc35ff8a6074a6f2e91616a996b547c36f15
		<tag k="natural" v="water" />
		<tag k="ssr:stedsnr" v="1474" />
	</node>
<<<<<<< HEAD
	<node lat="59.19408635492056" lon="11.619585577540963" id="-14087">
		<tag k="fixme" v="multiple name tags, choose one and add the other to alt_name" />
		<tag k="name" v="Kroktjern;Krokvann" />
=======
	<node id="-234207" lat="59.0957611127" lon="11.7055277693">
		<tag k="alt_name" v="Halvortjern" />
		<tag k="name" v="Halvorstjern" />
>>>>>>> e1d4bc35ff8a6074a6f2e91616a996b547c36f15
		<tag k="natural" v="water" />
		<tag k="ssr:stedsnr" v="2064" />
		<tag k="water" v="lake" />
	</node>
	<node lat="59.16533611219838" lon="11.684599993683637" id="-14093">
		<tag k="alt_name" v="Ulsrødtjernet" />
		<tag k="name" v="Ulsrødtjern" />
		<tag k="natural" v="water" />
		<tag k="ssr:stedsnr" v="2119" />
	</node>
	<node lat="59.244344442481925" lon="11.767636104531464" id="-14094">
		<tag k="name" v="Kollerødtjernet" />
		<tag k="natural" v="water" />
		<tag k="ssr:stedsnr" v="2244" />
		<tag k="water" v="lake" />
	</node>
<<<<<<< HEAD
	<node lat="59.036200001738344" lon="11.710536118566718" id="-14096">
=======
	<node id="-234206" lat="59.0362000017" lon="11.7105361186">
>>>>>>> e1d4bc35ff8a6074a6f2e91616a996b547c36f15
		<tag k="alt_name" v="Lundeøya" />
		<tag k="name" v="Lundøya" />
		<tag k="place" v="islet" />
		<tag k="ssr:stedsnr" v="2422" />
	</node>
<<<<<<< HEAD
	<node lat="59.09576111268137" lon="11.705527769277303" id="-14097">
		<tag k="alt_name" v="Halvortjern" />
		<tag k="name" v="Halvorstjern" />
=======
	<node id="-234205" lat="59.1653361122" lon="11.6845999937">
		<tag k="alt_name" v="Ulsrødtjernet" />
		<tag k="name" v="Ulsrødtjern" />
>>>>>>> e1d4bc35ff8a6074a6f2e91616a996b547c36f15
		<tag k="natural" v="water" />
		<tag k="ssr:stedsnr" v="2471" />
	</node>
<<<<<<< HEAD
	<node lat="59.28473055954459" lon="11.793608332665775" id="-14100">
		<tag k="alt_name" v="Morttjern" />
		<tag k="name" v="Morttjernet" />
=======
	<node id="-234199" lat="59.1940863549" lon="11.6195855775">
		<tag k="fixme" v="multiple name tags, choose one and add the other to alt_name" />
		<tag k="name" v="Kroktjern;Krokvann" />
>>>>>>> e1d4bc35ff8a6074a6f2e91616a996b547c36f15
		<tag k="natural" v="water" />
		<tag k="ssr:stedsnr" v="3650" />
	</node>
<<<<<<< HEAD
	<node lat="59.286997223186646" lon="11.66880556236468" id="-14101">
		<tag k="alt_name" v="Hestholmen" />
		<tag k="name" v="Hesteholmen" />
		<tag k="place" v="islet" />
		<tag k="ssr:stedsnr" v="3661" />
	</node>
	<node lat="59.250986110653706" lon="11.596541658198754" id="-14104">
		<tag k="name" v="Skotjern" />
=======
	<node id="-234197" lat="59.156336112" lon="11.7038749987">
		<tag k="name" v="Aspern" />
>>>>>>> e1d4bc35ff8a6074a6f2e91616a996b547c36f15
		<tag k="natural" v="water" />
		<tag k="ssr:stedsnr" v="37373" />
	</node>
<<<<<<< HEAD
	<node lat="59.25993333576054" lon="11.59025556008882" id="-14105">
		<tag k="name" v="Elgtjern" />
=======
	<node id="-234196" lat="59.0866305511" lon="11.7335666702">
		<tag k="name" v="Abbortjern" />
>>>>>>> e1d4bc35ff8a6074a6f2e91616a996b547c36f15
		<tag k="natural" v="water" />
		<tag k="ssr:stedsnr" v="37375" />
	</node>
<<<<<<< HEAD
	<node lat="59.27223055620995" lon="11.601263895929955" id="-14109">
		<tag k="name" v="Kjerringtjern" />
=======
	<node id="-234194" lat="59.1217138914" lon="11.6953944408">
		<tag k="name" v="Gøtelitjern" />
>>>>>>> e1d4bc35ff8a6074a6f2e91616a996b547c36f15
		<tag k="natural" v="water" />
		<tag k="ssr:stedsnr" v="37335" />
	</node>
<<<<<<< HEAD
	<node lat="59.303638886256905" lon="11.701897217254878" id="-14113">
		<tag k="name" v="Lundehøydtjern" />
=======
	<node id="-234193" lat="59.1124777738" lon="11.6562861079">
		<tag k="name" v="Koven" />
>>>>>>> e1d4bc35ff8a6074a6f2e91616a996b547c36f15
		<tag k="natural" v="water" />
		<tag k="ssr:stedsnr" v="38046" />
	</node>
<<<<<<< HEAD
	<node lat="59.231308333613484" lon="11.680619452477405" id="-14114">
		<tag k="name" v="Dysletbukt" />
=======
	<node id="-234191" lat="59.053905554" lon="11.6965638886">
		<tag k="name" v="Gardsvika" />
>>>>>>> e1d4bc35ff8a6074a6f2e91616a996b547c36f15
		<tag k="natural" v="bay" />
		<tag k="ssr:stedsnr" v="38470" />
	</node>
<<<<<<< HEAD
	<node lat="59.22770277371677" lon="11.619574991601313" id="-14116">
		<tag k="name" v="Smitjern" />
=======
	<node id="-234188" lat="59.2103861075" lon="11.6069249957">
		<tag k="alt_name" v="Kreaktjern" />
		<tag k="name" v="Greaktjern" />
>>>>>>> e1d4bc35ff8a6074a6f2e91616a996b547c36f15
		<tag k="natural" v="water" />
		<tag k="ssr:stedsnr" v="38494" />
	</node>
<<<<<<< HEAD
	<node lat="59.11862499891141" lon="11.36958056164283" id="-14119">
		<tag k="name" v="Haldenvassdraget" />
=======
	<node id="-234187" lat="59.2402000019" lon="11.5717833358">
		<tag k="loc_name" v="Teigsørvannet" />
		<tag k="name" v="Teigsørvann" />
>>>>>>> e1d4bc35ff8a6074a6f2e91616a996b547c36f15
		<tag k="natural" v="water" />
		<tag k="ssr:stedsnr" v="44920" />
		<tag k="water" v="lake" />
	</node>
<<<<<<< HEAD
	<node lat="59.09753611190274" lon="11.684644441892452" id="-14121">
		<tag k="name" v="Øvretjern" />
=======
	<node id="-234184" lat="59.1949555547" lon="11.599711119">
		<tag k="name" v="Moltemyrtjern" />
>>>>>>> e1d4bc35ff8a6074a6f2e91616a996b547c36f15
		<tag k="natural" v="water" />
		<tag k="ssr:stedsnr" v="51041" />
	</node>
<<<<<<< HEAD
	<node lat="59.28533333454104" lon="11.658808334414422" id="-14123">
		<tag k="name" v="Trillingskjæra" />
		<tag k="place" v="islet" />
		<tag k="ssr:stedsnr" v="51056" />
	</node>
	<node lat="59.09824444000773" lon="11.739380561558274" id="-14127">
		<tag k="name" v="Bikkjetjern" />
=======
	<node id="-234181" lat="59.2779277773" lon="11.7128833299">
		<tag k="name" v="Dyvlene" />
>>>>>>> e1d4bc35ff8a6074a6f2e91616a996b547c36f15
		<tag k="natural" v="water" />
		<tag k="ssr:stedsnr" v="51456" />
	</node>
<<<<<<< HEAD
	<node lat="59.29800277967276" lon="11.770436117504499" id="-14128">
		<tag k="name" v="Skrivelsåa" />
		<tag k="natural" v="bay" />
		<tag k="ssr:stedsnr" v="51812" />
	</node>
	<node lat="59.193466669188815" lon="11.641419437202906" id="-14132">
		<tag k="name" v="Sauetjern" />
=======
	<node id="-234180" lat="59.2550527754" lon="11.697800002">
		<tag k="name" v="Iglerødtjern" />
>>>>>>> e1d4bc35ff8a6074a6f2e91616a996b547c36f15
		<tag k="natural" v="water" />
		<tag k="ssr:stedsnr" v="52893" />
	</node>
<<<<<<< HEAD
	<node lat="59.258699623130454" lon="11.669715368191039" id="-14135">
		<tag k="fixme" v="multiple name tags, choose one and add the other to alt_name" />
		<tag k="name" v="Ara;Aremarksjøen" />
=======
	<node id="-234177" lat="59.2062277752" lon="11.7825972194">
		<tag k="name" v="Nordre Byrvann" />
>>>>>>> e1d4bc35ff8a6074a6f2e91616a996b547c36f15
		<tag k="natural" v="water" />
		<tag k="ssr:stedsnr" v="55133" />
		<tag k="water" v="lake" />
	</node>
<<<<<<< HEAD
	<node lat="59.11916944495803" lon="11.662483334152512" id="-14137">
		<tag k="alt_name" v="Halvortjern" />
		<tag k="name" v="Halvorstjern" />
=======
	<node id="-234174" lat="59.2537611122" lon="11.6167166675">
		<tag k="name" v="Søndre Tretjern" />
>>>>>>> e1d4bc35ff8a6074a6f2e91616a996b547c36f15
		<tag k="natural" v="water" />
		<tag k="ssr:stedsnr" v="63079" />
	</node>
<<<<<<< HEAD
	<node lat="59.19892697843961" lon="11.78333235076346" id="-14139">
		<tag k="name" v="Søndre Byrvann" />
=======
	<node id="-234173" lat="59.2618416711" lon="11.6227944492">
		<tag k="name" v="Sauelaua" />
>>>>>>> e1d4bc35ff8a6074a6f2e91616a996b547c36f15
		<tag k="natural" v="water" />
		<tag k="ssr:stedsnr" v="62063" />
		<tag k="water" v="lake" />
	</node>
<<<<<<< HEAD
	<node lat="59.24704444307149" lon="11.603269447311483" id="-14148">
		<tag k="alt_name" v="Helvedestjern" />
		<tag k="name" v="Helvetestjern" />
=======
	<node id="-234172" lat="59.2986027806" lon="11.7283222273">
		<tag k="name" v="Hagetjern" />
>>>>>>> e1d4bc35ff8a6074a6f2e91616a996b547c36f15
		<tag k="natural" v="water" />
		<tag k="ssr:stedsnr" v="62240" />
	</node>
<<<<<<< HEAD
	<node lat="59.11364999856098" lon="11.69519999126529" id="-14149">
		<tag k="name" v="Morttjern" />
=======
	<node id="-234169" lat="59.32065" lon="11.6571722163">
		<tag k="name" v="Kjerringskrevet" />
		<tag k="place" v="islet" />
		<tag k="ssr:stedsnr" v="916008" />
	</node>
	<node id="-234165" lat="59.2787500009" lon="11.7958555634">
		<tag k="name" v="Ungerodde" />
		<tag k="natural" v="cape" />
		<tag k="ssr:stedsnr" v="901808" />
	</node>
	<node id="-234164" lat="59.1949305542" lon="11.6486055522">
		<tag k="name" v="Søndre Dyvel" />
>>>>>>> e1d4bc35ff8a6074a6f2e91616a996b547c36f15
		<tag k="natural" v="water" />
		<tag k="ssr:stedsnr" v="62458" />
	</node>
<<<<<<< HEAD
	<node lat="59.137016668346526" lon="11.677925005511002" id="-14150">
		<tag k="alt_name" v="Vesleremne" />
		<tag k="name" v="Lille Remne" />
		<tag k="natural" v="bay" />
		<tag k="ssr:stedsnr" v="63044" />
	</node>
	<node lat="59.27872777840719" lon="11.588908336696827" id="-14154">
		<tag k="alt_name" v="Stubbetjern" />
		<tag k="name" v="Stubbetjernet" />
		<tag k="natural" v="water" />
		<tag k="ssr:stedsnr" v="64697" />
	</node>
	<node lat="59.320530554653566" lon="11.660836119683717" id="-14158">
		<tag k="alt_name" v="Bøenneset" />
		<tag k="name" v="Bøensneset" />
		<tag k="natural" v="cape" />
		<tag k="ssr:stedsnr" v="64628" />
	</node>
	<node lat="59.28742778020816" lon="11.590694441352664" id="-14165">
		<tag k="name" v="Framnes" />
		<tag k="natural" v="cape" />
		<tag k="ssr:stedsnr" v="98340" />
	</node>
	<node lat="59.28448333093159" lon="11.571050008426742" id="-14166">
		<tag k="name" v="Øvre Svensketjern" />
		<tag k="natural" v="water" />
		<tag k="ssr:stedsnr" v="98343" />
	</node>
	<node lat="59.25574444669333" lon="11.585780557684203" id="-14167">
		<tag k="name" v="Skotjern" />
=======
	<node id="-234163" lat="59.1474166645" lon="11.6818888887">
		<tag k="name" v="Gåseskjærnebba" />
		<tag k="natural" v="cape" />
		<tag k="ssr:stedsnr" v="901477" />
	</node>
	<node id="-234157" lat="59.1165972226" lon="11.6975638964">
		<tag k="name" v="Gøtelitjern" />
		<tag k="natural" v="water" />
		<tag k="ssr:stedsnr" v="901055" />
	</node>
	<node id="-234153" lat="59.2544527815" lon="11.6464361078">
		<tag k="name" v="Teigsbukta" />
		<tag k="natural" v="bay" />
		<tag k="ssr:stedsnr" v="887458" />
	</node>
	<node id="-234152" lat="59.2547611103" lon="11.6705666606">
		<tag k="name" v="Buernebba" />
		<tag k="natural" v="cape" />
		<tag k="ssr:stedsnr" v="887455" />
	</node>
	<node id="-234148" lat="59.2311142987" lon="11.6250179692">
		<tag k="name" v="Høyfossen" />
		<tag k="natural" v="water" />
		<tag k="ssr:stedsnr" v="887503" />
		<tag k="water" v="lake" />
	</node>
	<node id="-234144" lat="59.2559527774" lon="11.649552786">
		<tag k="name" v="Mørkevik" />
		<tag k="natural" v="bay" />
		<tag k="ssr:stedsnr" v="948500" />
	</node>
	<node id="-234141" lat="59.250641671" lon="11.5781305547">
		<tag k="name" v="Nordre Krokvann" />
		<tag k="natural" v="water" />
		<tag k="ssr:stedsnr" v="948376" />
	</node>
	<node id="-234136" lat="59.2904722221" lon="11.8052666607">
		<tag k="alt_name" v="Bjørnøa" />
		<tag k="name" v="Bjørnøya" />
		<tag k="place" v="islet" />
		<tag k="ssr:stedsnr" v="853667" />
	</node>
	<node id="-234133" lat="59.089819444" lon="11.7759361077">
		<tag k="fixme" v="multiple name tags, choose one and add the other to alt_name" />
		<tag k="name" v="Nestjern;Grøtesbutjern" />
>>>>>>> e1d4bc35ff8a6074a6f2e91616a996b547c36f15
		<tag k="natural" v="water" />
		<tag k="ssr:stedsnr" v="98354" />
	</node>
<<<<<<< HEAD
	<node lat="59.309002777579956" lon="11.666138884292993" id="-14168">
		<tag k="name" v="Strømsneset" />
		<tag k="natural" v="cape" />
		<tag k="ssr:stedsnr" v="99042" />
	</node>
	<node lat="59.06386943996643" lon="11.67555833546973" id="-14171">
		<tag k="name" v="Innlandsøyene" />
		<tag k="place" v="island" />
		<tag k="ssr:stedsnr" v="111915" />
	</node>
	<node lat="59.04307499732252" lon="11.722258330359882" id="-14175">
		<tag k="name" v="Bekengbukt" />
		<tag k="natural" v="bay" />
		<tag k="ssr:stedsnr" v="112065" />
	</node>
	<node lat="59.224199997329414" lon="11.779522215475225" id="-14177">
		<tag k="name" v="Kollerøddyvelen" />
		<tag k="natural" v="water" />
		<tag k="ssr:stedsnr" v="112247" />
	</node>
	<node lat="59.12757222213551" lon="11.735536105098477" id="-14178">
		<tag k="name" v="Halvfartjern" />
=======
	<node id="-234129" lat="59.2049833337" lon="11.6962666695">
		<tag k="name" v="Vabutangen" />
		<tag k="natural" v="cape" />
		<tag k="ssr:stedsnr" v="841312" />
	</node>
	<node id="-234127" lat="59.0580833301" lon="11.6889083325">
		<tag k="name" v="Dynvik" />
		<tag k="natural" v="bay" />
		<tag k="ssr:stedsnr" v="840923" />
	</node>
	<node id="-234126" lat="59.1596444433" lon="11.706658329">
		<tag k="name" v="Husebukta" />
		<tag k="natural" v="bay" />
		<tag k="ssr:stedsnr" v="840679" />
	</node>
	<node id="-234123" lat="59.2760972179" lon="11.803083329">
		<tag k="name" v="Søndre Hjerpenes bukt" />
		<tag k="natural" v="bay" />
		<tag k="ssr:stedsnr" v="840822" />
	</node>
	<node id="-234121" lat="59.3370222233" lon="11.6443305601">
		<tag k="name" v="Furuholmen" />
		<tag k="place" v="islet" />
		<tag k="ssr:stedsnr" v="827007" />
	</node>
	<node id="-234120" lat="59.3228527765" lon="11.6615999977">
		<tag k="name" v="Bøentjernet" />
		<tag k="natural" v="water" />
		<tag k="ssr:stedsnr" v="795018" />
	</node>
	<node id="-234119" lat="59.32226944" lon="11.6579333324">
		<tag k="name" v="Latefoss" />
		<tag k="natural" v="strait" />
		<tag k="ssr:stedsnr" v="795016" />
	</node>
	<node id="-234118" lat="59.3216194424" lon="11.6564222229">
		<tag k="name" v="Strømsholmene" />
		<tag k="place" v="islet" />
		<tag k="ssr:stedsnr" v="795012" />
	</node>
	<node id="-234116" lat="59.1323833343" lon="11.6515999969">
		<tag k="name" v="Lomtjern" />
		<tag k="natural" v="water" />
		<tag k="ssr:stedsnr" v="791026" />
	</node>
	<node id="-234115" lat="59.1458416711" lon="11.6649388923">
		<tag k="alt_name" v="Nøttesundet" />
		<tag k="name" v="Nøtesundet" />
		<tag k="natural" v="strait" />
		<tag k="ssr:stedsnr" v="791010" />
	</node>
	<node id="-234114" lat="59.0736138924" lon="11.7397194405">
		<tag k="alt_name" v="Nordre Høyklevtjern" />
		<tag k="name" v="Nordre Høykleivtjern" />
		<tag k="natural" v="water" />
		<tag k="ssr:stedsnr" v="790399" />
	</node>
	<node id="-234113" lat="59.0721388917" lon="11.6805472252">
		<tag k="name" v="Kruketjern" />
		<tag k="natural" v="water" />
		<tag k="ssr:stedsnr" v="790394" />
	</node>
	<node id="-234110" lat="59.0565750036" lon="11.6732611112">
		<tag k="name" v="Langeneset" />
		<tag k="natural" v="cape" />
		<tag k="ssr:stedsnr" v="790375" />
	</node>
	<node id="-234109" lat="59.070899996" lon="11.722574998">
		<tag k="name" v="Størmyrtjern" />
>>>>>>> e1d4bc35ff8a6074a6f2e91616a996b547c36f15
		<tag k="natural" v="water" />
		<tag k="ssr:stedsnr" v="112318" />
	</node>
<<<<<<< HEAD
	<node lat="59.21606388602694" lon="11.65028055362343" id="-14180">
		<tag k="name" v="Tutjern" />
=======
	<node id="-234108" lat="59.27800556" lon="11.5632583288">
		<tag k="name" v="Voletjern" />
>>>>>>> e1d4bc35ff8a6074a6f2e91616a996b547c36f15
		<tag k="natural" v="water" />
		<tag k="ssr:stedsnr" v="112352" />
	</node>
<<<<<<< HEAD
	<node lat="59.145836111755855" lon="11.737011117033168" id="-14188">
		<tag k="name" v="Holmegilelva" />
		<tag k="ssr:stedsnr" v="112927" />
		<tag k="waterway" v="river" />
	</node>
	<node lat="59.31929999737679" lon="11.778761117553834" id="-14192">
		<tag k="name" v="Astridholmen" />
=======
	<node id="-234103" lat="59.227277775" lon="11.6682416604">
		<tag k="name" v="Hagedammen" />
		<tag k="natural" v="water" />
		<tag k="ssr:stedsnr" v="766479" />
	</node>
	<node id="-234101" lat="59.2379749992" lon="11.6815277703">
		<tag k="name" v="Gullholmen" />
>>>>>>> e1d4bc35ff8a6074a6f2e91616a996b547c36f15
		<tag k="place" v="islet" />
		<tag k="ssr:stedsnr" v="112948" />
	</node>
<<<<<<< HEAD
	<node lat="59.23424999663444" lon="11.605736109424434" id="-14195">
		<tag k="name" v="Høgfossen" />
		<tag k="natural" v="waterfall" />
		<tag k="ssr:stedsnr" v="122131" />
	</node>
	<node lat="59.13425833366715" lon="11.674425004412393" id="-14201">
		<tag k="name" v="Lomholmen" />
=======
	<node id="-234100" lat="59.2564638931" lon="11.5566194379">
		<tag k="fixme" v="multiple name tags, choose one and add the other to alt_name" />
		<tag k="name" v="Kampetjerna;Lauva" />
		<tag k="natural" v="water" />
		<tag k="ssr:stedsnr" v="913719" />
	</node>
	<node id="-234096" lat="59.3063749971" lon="11.7855416608">
		<tag k="alt_name" v="Bøenøa" />
		<tag k="name" v="Bøensøya" />
>>>>>>> e1d4bc35ff8a6074a6f2e91616a996b547c36f15
		<tag k="place" v="islet" />
		<tag k="ssr:stedsnr" v="123031" />
	</node>
<<<<<<< HEAD
	<node lat="59.309091664574225" lon="11.734608332099894" id="-14203">
		<tag k="alt_name" v="Abbortjern" />
		<tag k="name" v="Abbortjernet" />
=======
	<node id="-234094" lat="59.3009166703" lon="11.6097972298">
		<tag k="alt_name" v="Raketjern" />
		<tag k="name" v="Rakketjernet" />
>>>>>>> e1d4bc35ff8a6074a6f2e91616a996b547c36f15
		<tag k="natural" v="water" />
		<tag k="ssr:stedsnr" v="124596" />
	</node>
<<<<<<< HEAD
	<node lat="59.26575023005184" lon="11.606819746129238" id="-14204">
		<tag k="alt_name" v="Langtjernet" />
		<tag k="name" v="Langvanna" />
=======
	<node id="-234091" lat="59.2687277815" lon="11.582147229">
		<tag k="name" v="Andetjern" />
>>>>>>> e1d4bc35ff8a6074a6f2e91616a996b547c36f15
		<tag k="natural" v="water" />
		<tag k="ssr:stedsnr" v="124678" />
		<tag k="water" v="lake" />
	</node>
<<<<<<< HEAD
	<node lat="59.26678332895483" lon="11.670858334697016" id="-14205">
		<tag k="alt_name" v="Riveøa" />
		<tag k="name" v="Riveøya" />
		<tag k="place" v="islet" />
		<tag k="ssr:stedsnr" v="124680" />
	</node>
	<node lat="59.264419444792935" lon="11.58819166136709" id="-14206">
		<tag k="alt_name" v="Holmetjern" />
		<tag k="name" v="Holmtjernet" />
=======
	<node id="-234090" lat="59.2680777766" lon="11.6124611095">
		<tag k="name" v="Ulvedalstjern" />
		<tag k="natural" v="water" />
		<tag k="ssr:stedsnr" v="765344" />
	</node>
	<node id="-234087" lat="59.1299833328" lon="11.7508805601">
		<tag k="alt_name" v="Svarødtjern" />
		<tag k="name" v="Svaretjern" />
>>>>>>> e1d4bc35ff8a6074a6f2e91616a996b547c36f15
		<tag k="natural" v="water" />
		<tag k="ssr:stedsnr" v="124682" />
	</node>
<<<<<<< HEAD
	<node lat="59.25487777455085" lon="11.593205554111782" id="-14208">
		<tag k="alt_name" v="Ormetjern" />
		<tag k="name" v="Ormetjerna" />
=======
	<node id="-234086" lat="59.1242249985" lon="11.672733333">
		<tag k="name" v="Abbortjern" />
>>>>>>> e1d4bc35ff8a6074a6f2e91616a996b547c36f15
		<tag k="natural" v="water" />
		<tag k="ssr:stedsnr" v="124694" />
		<tag k="water" v="lake" />
	</node>
<<<<<<< HEAD
	<node lat="59.32914166330802" lon="11.719322219757254" id="-14209">
		<tag k="alt_name" v="Buretjernet" />
		<tag k="name" v="Buretjern" />
=======
	<node id="-234082" lat="59.08301111" lon="11.7099916637">
		<tag k="name" v="Abbortjern" />
>>>>>>> e1d4bc35ff8a6074a6f2e91616a996b547c36f15
		<tag k="natural" v="water" />
		<tag k="ssr:stedsnr" v="124695" />
	</node>
<<<<<<< HEAD
	<node lat="59.26785555697402" lon="11.607055562675626" id="-14210">
		<tag k="name" v="Gretetjern" />
		<tag k="natural" v="water" />
		<tag k="ssr:stedsnr" v="158372" />
	</node>
	<node lat="59.26306944537249" lon="11.572997222663954" id="-14211">
		<tag k="name" v="Øvre Laua" />
		<tag k="natural" v="water" />
		<tag k="ssr:stedsnr" v="158383" />
	</node>
	<node lat="59.29610555832226" lon="11.650127783183024" id="-14213">
		<tag k="name" v="Nestbukta" />
		<tag k="natural" v="bay" />
		<tag k="ssr:stedsnr" v="159030" />
	</node>
	<node lat="59.25833055320228" lon="11.607924995381943" id="-14214">
		<tag k="name" v="Nordre Abbortjern" />
		<tag k="natural" v="water" />
		<tag k="ssr:stedsnr" v="159395" />
	</node>
	<node lat="59.26417221974253" lon="11.616830546912398" id="-14215">
		<tag k="name" v="Slettebakktjern" />
		<tag k="natural" v="water" />
		<tag k="ssr:stedsnr" v="159485" />
	</node>
	<node lat="59.313444445067425" lon="11.703077782358836" id="-14220">
		<tag k="name" v="Bjørnesund" />
		<tag k="natural" v="strait" />
		<tag k="ssr:stedsnr" v="172194" />
	</node>
	<node lat="59.11640833747138" lon="11.657061104835934" id="-14221">
		<tag k="name" v="Nøsthøltjern" />
		<tag k="natural" v="water" />
		<tag k="ssr:stedsnr" v="172044" />
	</node>
	<node lat="59.10267499769748" lon="11.686494448927512" id="-14222">
		<tag k="name" v="Himmerikstjern" />
=======
	<node id="-234079" lat="59.2146314164" lon="11.7709464181">
		<tag k="fixme" v="multiple name tags, choose one and add the other to alt_name" />
		<tag k="name" v="Lerkefet;Sjafettjern" />
		<tag k="natural" v="water" />
		<tag k="ssr:stedsnr" v="912161" />
	</node>
	<node id="-234076" lat="59.1598083355" lon="11.7097500034">
		<tag k="alt_name" v="Løvøa" />
		<tag k="name" v="Løvøya" />
		<tag k="place" v="island" />
		<tag k="ssr:stedsnr" v="912113" />
	</node>
	<node id="-234071" lat="59.1796888929" lon="11.642277774">
		<tag k="alt_name" v="Haugtjern" />
		<tag k="name" v="Hagatjern" />
		<tag k="natural" v="water" />
		<tag k="ssr:stedsnr" v="912083" />
	</node>
	<node id="-234067" lat="59.2375083303" lon="11.6101527807">
		<tag k="name" v="Åbogen" />
		<tag k="ssr:stedsnr" v="911131" />
		<tag k="waterway" v="stream" />
	</node>
	<node id="-234065" lat="59.2448487294" lon="11.5758430969">
		<tag k="name" v="Søndre Hagetjern" />
		<tag k="natural" v="water" />
		<tag k="ssr:stedsnr" v="901985" />
	</node>
	<node id="-234064" lat="59.1953055538" lon="11.6032583356">
		<tag k="name" v="Lille Småtjern" />
		<tag k="natural" v="water" />
		<tag k="ssr:stedsnr" v="901979" />
	</node>
	<node id="-234062" lat="59.1489388864" lon="11.7346888917">
		<tag k="name" v="Åmulen" />
		<tag k="natural" v="cape" />
		<tag k="ssr:stedsnr" v="901945" />
	</node>
	<node id="-234061" lat="59.2016555597" lon="11.7479083297">
		<tag k="name" v="Rødstjern" />
		<tag k="natural" v="water" />
		<tag k="ssr:stedsnr" v="901931" />
	</node>
	<node id="-234059" lat="59.1464472177" lon="11.6995472297">
		<tag k="alt_name" v="Døhaugbukta" />
		<tag k="name" v="Nedre Døhaugbukta" />
		<tag k="natural" v="bay" />
		<tag k="ssr:stedsnr" v="901484" />
	</node>
	<node id="-234058" lat="59.151736108" lon="11.7191333315">
		<tag k="name" v="Brennevinskjæret" />
		<tag k="place" v="islet" />
		<tag k="ssr:stedsnr" v="901481" />
	</node>
	<node id="-234057" lat="59.1509527797" lon="11.6777750078">
		<tag k="name" v="Rustadbukta" />
		<tag k="natural" v="bay" />
		<tag k="ssr:stedsnr" v="901478" />
	</node>
	<node id="-234056" lat="59.1793777783" lon="11.7224861173">
		<tag k="name" v="Aspestrandtjernet" />
		<tag k="natural" v="water" />
		<tag k="ssr:stedsnr" v="901670" />
	</node>
	<node id="-234055" lat="59.1648613316" lon="11.6907519346">
		<tag k="name" v="Hagebukta" />
		<tag k="natural" v="bay" />
		<tag k="ssr:stedsnr" v="901340" />
	</node>
	<node id="-234054" lat="59.1756833299" lon="11.6158194377">
		<tag k="name" v="Igletjern" />
>>>>>>> e1d4bc35ff8a6074a6f2e91616a996b547c36f15
		<tag k="natural" v="water" />
		<tag k="ssr:stedsnr" v="172049" />
		<tag k="water" v="pond" />
	</node>
<<<<<<< HEAD
	<node lat="59.224877773768895" lon="11.789866664671852" id="-14224">
		<tag k="name" v="Kippingtjern" />
=======
	<node id="-234053" lat="59.3112333333" lon="11.5767444387">
		<tag k="loc_name" v="Kolviksjøen" />
		<tag k="name" v="Kullviksjøen" />
>>>>>>> e1d4bc35ff8a6074a6f2e91616a996b547c36f15
		<tag k="natural" v="water" />
		<tag k="ssr:stedsnr" v="172135" />
	</node>
<<<<<<< HEAD
	<node lat="59.2163444433885" lon="11.780058331457596" id="-14225">
		<tag k="name" v="Trantjern" />
=======
	<node id="-234050" lat="59.1683611148" lon="11.6568944387">
		<tag k="name" v="Bøentjernet" />
>>>>>>> e1d4bc35ff8a6074a6f2e91616a996b547c36f15
		<tag k="natural" v="water" />
		<tag k="ssr:stedsnr" v="172149" />
	</node>
<<<<<<< HEAD
	<node lat="59.14531110842606" lon="11.664163884645237" id="-14230">
		<tag k="name" v="Postøya" />
		<tag k="place" v="islet" />
		<tag k="ssr:stedsnr" v="172534" />
	</node>
	<node lat="59.14808333614672" lon="11.652872221379686" id="-14231">
		<tag k="name" v="Grågåsnebba" />
=======
	<node id="-234047" lat="59.3162805537" lon="11.7195611189">
		<tag k="name" v="Kaninholmen" />
		<tag k="place" v="islet" />
		<tag k="ssr:stedsnr" v="901176" />
	</node>
	<node id="-234044" lat="59.3073500015" lon="11.7464166723">
		<tag k="name" v="Eketjern" />
		<tag k="natural" v="water" />
		<tag k="ssr:stedsnr" v="731618" />
	</node>
	<node id="-234033" lat="59.1460777778" lon="11.7078777728">
		<tag k="name" v="Gravdalbukta" />
		<tag k="natural" v="bay" />
		<tag k="ssr:stedsnr" v="719440" />
	</node>
	<node id="-234029" lat="59.2972138881" lon="11.6516555638">
		<tag k="name" v="Møvik" />
		<tag k="natural" v="bay" />
		<tag k="ssr:stedsnr" v="888027" />
	</node>
	<node id="-234025" lat="59.3154277738" lon="11.7761944505">
		<tag k="name" v="Kråkevik" />
		<tag k="natural" v="bay" />
		<tag k="ssr:stedsnr" v="658938" />
	</node>
	<node id="-234018" lat="59.1440111096" lon="11.6832472148">
		<tag k="name" v="Sandbekkbukta" />
		<tag k="natural" v="bay" />
		<tag k="ssr:stedsnr" v="658463" />
	</node>
	<node id="-234017" lat="59.1485777783" lon="11.682172224">
		<tag k="name" v="Gåseskjæret" />
>>>>>>> e1d4bc35ff8a6074a6f2e91616a996b547c36f15
		<tag k="natural" v="cape" />
		<tag k="ssr:stedsnr" v="172535" />
	</node>
<<<<<<< HEAD
	<node lat="59.15023333066997" lon="11.652425006102622" id="-14232">
		<tag k="name" v="Nedre Brunebukta" />
		<tag k="natural" v="bay" />
		<tag k="ssr:stedsnr" v="172537" />
	</node>
	<node lat="59.33250277382237" lon="11.702166670539077" id="-14240">
		<tag k="name" v="Kutjernbekken" />
		<tag k="ssr:stedsnr" v="173390" />
		<tag k="waterway" v="stream" />
	</node>
	<node lat="59.17076944458953" lon="11.7696861143961" id="-14241">
		<tag k="name" v="Hedtjern" />
=======
	<node id="-234013" lat="59.2830694434" lon="11.6592638965">
		<tag k="name" v="Isingen" />
		<tag k="place" v="islet" />
		<tag k="ssr:stedsnr" v="658061" />
	</node>
	<node id="-234012" lat="59.2849055555" lon="11.6551750028">
		<tag k="name" v="Strete" />
		<tag k="natural" v="cape" />
		<tag k="ssr:stedsnr" v="658060" />
	</node>
	<node id="-234011" lat="59.1008749997" lon="11.6896722151">
		<tag k="name" v="Torsengertjern" />
>>>>>>> e1d4bc35ff8a6074a6f2e91616a996b547c36f15
		<tag k="natural" v="water" />
		<tag k="ssr:stedsnr" v="173924" />
	</node>
<<<<<<< HEAD
	<node lat="59.17858055380588" lon="11.764488887857418" id="-14243">
		<tag k="name" v="Haugetjern" />
=======
	<node id="-234010" lat="59.1148222186" lon="11.7184277831">
		<tag k="name" v="Lindtjernungen" />
>>>>>>> e1d4bc35ff8a6074a6f2e91616a996b547c36f15
		<tag k="natural" v="water" />
		<tag k="ssr:stedsnr" v="173928" />
	</node>
<<<<<<< HEAD
	<node lat="59.22070000006444" lon="11.579674999621814" id="-14245">
		<tag k="name" v="Lunnetjern" />
		<tag k="natural" v="water" />
		<tag k="ssr:stedsnr" v="173962" />
	</node>
	<node lat="59.206905559586225" lon="11.607277776270163" id="-14246">
		<tag k="name" v="Bautjern" />
=======
	<node id="-234009" lat="59.0529730238" lon="11.6895881503">
		<tag k="name" v="Ramsnestjern" />
		<tag k="natural" v="water" />
		<tag k="ssr:stedsnr" v="657924" />
		<tag k="water" v="lake" />
	</node>
	<node id="-234007" lat="59.1453888868" lon="11.6342999972">
		<tag k="name" v="Fjellbekken" />
		<tag k="ssr:stedsnr" v="657518" />
		<tag k="waterway" v="stream" />
	</node>
	<node id="-234004" lat="59.2743527815" lon="11.7470944364">
		<tag k="name" v="Møtjern" />
>>>>>>> e1d4bc35ff8a6074a6f2e91616a996b547c36f15
		<tag k="natural" v="water" />
		<tag k="ssr:stedsnr" v="173971" />
	</node>
<<<<<<< HEAD
	<node lat="59.15331388786836" lon="11.71056110563017" id="-14254">
		<tag k="name" v="Lille Trollhatt" />
		<tag k="place" v="islet" />
		<tag k="ssr:stedsnr" v="184006" />
	</node>
	<node lat="59.20985027150301" lon="11.59063301784364" id="-14258">
		<tag k="name" v="Rødvann" />
=======
	<node id="-233999" lat="59.3332583345" lon="11.7569527801">
		<tag k="name" v="Setervika" />
		<tag k="natural" v="bay" />
		<tag k="ssr:stedsnr" v="731583" />
	</node>
	<node id="-233998" lat="59.2533564965" lon="11.6362061219">
		<tag k="alt_name" v="Kvernetjern" />
		<tag k="name" v="Kvernetjernet" />
>>>>>>> e1d4bc35ff8a6074a6f2e91616a996b547c36f15
		<tag k="natural" v="water" />
		<tag k="ssr:stedsnr" v="184167" />
		<tag k="water" v="lake" />
	</node>
<<<<<<< HEAD
	<node lat="59.19909006812385" lon="11.644315997761124" id="-14259">
		<tag k="alt_name" v="Holvannet" />
		<tag k="name" v="Holevannet" />
=======
	<node id="-233997" lat="59.141248138" lon="11.742495427">
		<tag k="alt_name" v="Kasetjern" />
		<tag k="name" v="Kasetjernet" />
>>>>>>> e1d4bc35ff8a6074a6f2e91616a996b547c36f15
		<tag k="natural" v="water" />
		<tag k="ssr:stedsnr" v="184178" />
		<tag k="water" v="lake" />
	</node>
<<<<<<< HEAD
	<node lat="59.04927777922653" lon="11.68882500762172" id="-14260">
		<tag k="name" v="Ramsneset" />
		<tag k="natural" v="cape" />
		<tag k="ssr:stedsnr" v="184386" />
	</node>
	<node lat="59.12667777381623" lon="11.685019450936467" id="-14261">
		<tag k="name" v="Gøtelielva" />
		<tag k="ssr:stedsnr" v="185054" />
		<tag k="waterway" v="stream" />
	</node>
	<node lat="59.12750000219728" lon="11.754177778208616" id="-14262">
		<tag k="alt_name" v="Svarødvassdraget" />
		<tag k="name" v="Svarelva" />
		<tag k="ssr:stedsnr" v="185057" />
		<tag k="waterway" v="river" />
	</node>
	<node lat="59.27544722102522" lon="11.585325006700499" id="-14263">
		<tag k="alt_name" v="Kutjern" />
		<tag k="name" v="Kutjernet" />
=======
	<node id="-233994" lat="59.1022250004" lon="11.7404111164">
		<tag k="name" v="Heitjern" />
		<tag k="natural" v="water" />
		<tag k="ssr:stedsnr" v="730458" />
	</node>
	<node id="-233989" lat="59.083716735" lon="11.7285023154">
		<tag k="fixme" v="multiple name tags, choose one and add the other to alt_name" />
		<tag k="name" v="Kolstjern;Kroktjern" />
>>>>>>> e1d4bc35ff8a6074a6f2e91616a996b547c36f15
		<tag k="natural" v="water" />
		<tag k="ssr:stedsnr" v="185682" />
	</node>
<<<<<<< HEAD
	<node lat="59.27099166899093" lon="11.712419453331348" id="-14264">
		<tag k="alt_name" v="Abbortjern" />
		<tag k="name" v="Abbortjernet" />
=======
	<node id="-233988" lat="59.0786611146" lon="11.7428833314">
		<tag k="alt_name" v="Søndre Morttjern" />
		<tag k="name" v="Søndre Mortvannet" />
>>>>>>> e1d4bc35ff8a6074a6f2e91616a996b547c36f15
		<tag k="natural" v="water" />
		<tag k="ssr:stedsnr" v="185697" />
	</node>
<<<<<<< HEAD
	<node lat="59.32512778216533" lon="11.642966672212355" id="-14265">
		<tag k="name" v="Nordre Bergtjern" />
=======
	<node id="-233983" lat="59.162852775" lon="11.7709527757">
		<tag k="name" v="Elgtjernsdyvelen" />
>>>>>>> e1d4bc35ff8a6074a6f2e91616a996b547c36f15
		<tag k="natural" v="water" />
		<tag k="ssr:stedsnr" v="188057" />
	</node>
<<<<<<< HEAD
	<node lat="59.32468332891797" lon="11.6604055553713" id="-14266">
		<tag k="name" v="Blåsuppen" />
		<tag k="natural" v="strait" />
		<tag k="ssr:stedsnr" v="188063" />
	</node>
	<node lat="59.32119722427427" lon="11.644786110251856" id="-14267">
		<tag k="alt_name" v="Bergtjernet" />
		<tag k="name" v="Søndre Bergtjern" />
=======
	<node id="-233982" lat="59.1641583318" lon="11.7656694523">
		<tag k="name" v="Elgtjern" />
>>>>>>> e1d4bc35ff8a6074a6f2e91616a996b547c36f15
		<tag k="natural" v="water" />
		<tag k="ssr:stedsnr" v="191776" />
	</node>
<<<<<<< HEAD
	<node lat="59.292583331069864" lon="11.586255563436486" id="-14269">
		<tag k="name" v="Gressdalhølen" />
=======
	<node id="-233980" lat="59.2648555568" lon="11.5803611025">
		<tag k="alt_name" v="Laua" />
		<tag k="name" v="Lauvå" />
>>>>>>> e1d4bc35ff8a6074a6f2e91616a996b547c36f15
		<tag k="natural" v="water" />
		<tag k="ssr:stedsnr" v="219338" />
	</node>
<<<<<<< HEAD
	<node lat="59.25535278101547" lon="11.597380562540257" id="-14276">
		<tag k="name" v="Bikkjetjern" />
=======
	<node id="-233979" lat="59.2008611077" lon="11.6321638868">
		<tag k="name" v="Stutetjern" />
>>>>>>> e1d4bc35ff8a6074a6f2e91616a996b547c36f15
		<tag k="natural" v="water" />
		<tag k="ssr:stedsnr" v="280338" />
	</node>
<<<<<<< HEAD
	<node lat="59.2681277789368" lon="11.569852782242968" id="-14277">
		<tag k="name" v="Kroktjern" />
=======
	<node id="-233968" lat="59.2184611128" lon="11.6455222145">
		<tag k="name" v="Blekketjern" />
>>>>>>> e1d4bc35ff8a6074a6f2e91616a996b547c36f15
		<tag k="natural" v="water" />
		<tag k="ssr:stedsnr" v="280358" />
	</node>
<<<<<<< HEAD
	<node lat="59.23520277339004" lon="11.687061119098473" id="-14278">
		<tag k="name" v="Sjøvikbukta" />
		<tag k="natural" v="bay" />
		<tag k="ssr:stedsnr" v="280480" />
	</node>
	<node lat="59.29343333413125" lon="11.658122228375547" id="-14282">
		<tag k="name" v="Nestangen" />
		<tag k="natural" v="cape" />
		<tag k="ssr:stedsnr" v="281027" />
	</node>
	<node lat="59.32257500192637" lon="11.77224167341851" id="-14285">
		<tag k="name" v="Stubbvik" />
		<tag k="natural" v="bay" />
		<tag k="ssr:stedsnr" v="294953" />
	</node>
	<node lat="59.039969444198846" lon="11.71571944626429" id="-14286">
		<tag k="name" v="Bjørndalsbukt" />
		<tag k="natural" v="bay" />
		<tag k="ssr:stedsnr" v="293937" />
	</node>
	<node lat="59.32044722306741" lon="11.578388897183768" id="-14287">
		<tag k="name" v="Kolbjørnvikøya" />
		<tag k="place" v="island" />
		<tag k="ssr:stedsnr" v="294057" />
	</node>
	<node lat="59.094194445327254" lon="11.68679166408944" id="-14291">
		<tag k="name" v="Nordre Enertjern" />
=======
	<node id="-233964" lat="59.1567777777" lon="11.7154555497">
		<tag k="name" v="Store Trollhatt" />
		<tag k="place" v="islet" />
		<tag k="ssr:stedsnr" v="608005" />
	</node>
	<node id="-233961" lat="59.318747218" lon="11.5779972134">
		<tag k="name" v="Foreningsøya" />
		<tag k="place" v="island" />
		<tag k="ssr:stedsnr" v="719068" />
	</node>
	<node id="-233958" lat="59.1427944462" lon="11.6571666746">
		<tag k="name" v="Kvernbauen" />
		<tag k="natural" v="bay" />
		<tag k="ssr:stedsnr" v="718528" />
	</node>
	<node id="-233955" lat="59.1289972216" lon="11.6823166749">
		<tag k="name" v="Kjerrgilpølen" />
		<tag k="place" v="locality" />
		<tag k="ssr:stedsnr" v="718490" />
	</node>
	<node id="-233952" lat="59.3088166664" lon="11.5790916683">
		<tag k="name" v="Hellesåa" />
		<tag k="ssr:stedsnr" v="718329" />
		<tag k="waterway" v="river" />
	</node>
	<node id="-233950" lat="59.2479717926" lon="11.5821437377">
		<tag k="name" v="Søndre Krokvann" />
		<tag k="natural" v="water" />
		<tag k="ssr:stedsnr" v="598976" />
		<tag k="water" v="lake" />
	</node>
	<node id="-233945" lat="59.0589861068" lon="11.7283666694">
		<tag k="name" v="Blekketjern" />
>>>>>>> e1d4bc35ff8a6074a6f2e91616a996b547c36f15
		<tag k="natural" v="water" />
		<tag k="ssr:stedsnr" v="294021" />
	</node>
<<<<<<< HEAD
	<node lat="59.217050704003384" lon="11.792419295907777" id="-14294">
		<tag k="name" v="Røvann" />
=======
	<node id="-233942" lat="59.2265722204" lon="11.6154555579">
		<tag k="name" v="Anetjern" />
>>>>>>> e1d4bc35ff8a6074a6f2e91616a996b547c36f15
		<tag k="natural" v="water" />
		<tag k="ssr:stedsnr" v="294162" />
		<tag k="water" v="lake" />
	</node>
<<<<<<< HEAD
	<node lat="59.316211112153844" lon="11.715233337741244" id="-14299">
		<tag k="name" v="Bubotnen" />
		<tag k="natural" v="bay" />
		<tag k="ssr:stedsnr" v="294183" />
	</node>
	<node lat="59.22032778173927" lon="11.636325005010782" id="-14301">
		<tag k="name" v="Brundokktjern" />
=======
	<node id="-233941" lat="59.2849388868" lon="11.5783722151">
		<tag k="name" v="Nedre Svensketjern" />
		<tag k="natural" v="water" />
		<tag k="ssr:stedsnr" v="583342" />
	</node>
	<node id="-233930" lat="59.2673194441" lon="11.6018722255">
		<tag k="name" v="Kavringtjern" />
>>>>>>> e1d4bc35ff8a6074a6f2e91616a996b547c36f15
		<tag k="natural" v="water" />
		<tag k="ssr:stedsnr" v="294343" />
	</node>
<<<<<<< HEAD
	<node lat="59.17687500389041" lon="11.695538885776614" id="-14303">
		<tag k="name" v="Grinderbukta" />
=======
	<node id="-233927" lat="59.2998472223" lon="11.6170055482">
		<tag k="name" v="Vestre Kilebunn" />
>>>>>>> e1d4bc35ff8a6074a6f2e91616a996b547c36f15
		<tag k="natural" v="bay" />
		<tag k="ssr:stedsnr" v="294345" />
	</node>
<<<<<<< HEAD
	<node lat="59.18221110905436" lon="11.71031665922733" id="-14304">
		<tag k="name" v="Kovholmen" />
		<tag k="place" v="islet" />
		<tag k="ssr:stedsnr" v="294346" />
	</node>
	<node lat="59.196481805593855" lon="11.6291558370768" id="-14306">
		<tag k="name" v="Skålbutjern" />
=======
	<node id="-233922" lat="59.1888916688" lon="11.6059750065">
		<tag k="name" v="Kroktjerndammen" />
		<tag k="ssr:stedsnr" v="537998" />
		<tag k="waterway" v="dam" />
	</node>
	<node id="-233921" lat="59.2127416691" lon="11.5981555546">
		<tag k="name" v="Stangebråttjern" />
>>>>>>> e1d4bc35ff8a6074a6f2e91616a996b547c36f15
		<tag k="natural" v="water" />
		<tag k="ssr:stedsnr" v="294891" />
	</node>
<<<<<<< HEAD
	<node lat="59.196697226419474" lon="11.652280564102602" id="-14308">
		<tag k="name" v="Nordre Dyvel" />
=======
	<node id="-233920" lat="59.2246305532" lon="11.7661638967">
		<tag k="name" v="Store Abbortjern" />
>>>>>>> e1d4bc35ff8a6074a6f2e91616a996b547c36f15
		<tag k="natural" v="water" />
		<tag k="ssr:stedsnr" v="294900" />
	</node>
<<<<<<< HEAD
	<node lat="59.27638333518054" lon="11.767116660271734" id="-14310">
		<tag k="name" v="Røsertjern" />
=======
	<node id="-233919" lat="59.2137888892" lon="11.7650416701">
		<tag k="name" v="Kverntjern" />
>>>>>>> e1d4bc35ff8a6074a6f2e91616a996b547c36f15
		<tag k="natural" v="water" />
		<tag k="ssr:stedsnr" v="294771" />
	</node>
<<<<<<< HEAD
	<node lat="59.11405555812467" lon="11.723552782938624" id="-14317">
		<tag k="name" v="Lindtjern" />
		<tag k="natural" v="water" />
		<tag k="ssr:stedsnr" v="304459" />
	</node>
	<node lat="59.06723888843243" lon="11.676850004952085" id="-14326">
		<tag k="name" v="Krukebukta" />
		<tag k="natural" v="bay" />
		<tag k="ssr:stedsnr" v="305401" />
	</node>
	<node lat="59.24241945582243" lon="11.591476217263041" id="-14328">
		<tag k="name" v="Djupvann" />
=======
	<node id="-233917" lat="59.1673361154" lon="11.6923722253">
		<tag k="name" v="Neset" />
		<tag k="natural" v="cape" />
		<tag k="ssr:stedsnr" v="536354" />
	</node>
	<node id="-233916" lat="59.3141083296" lon="11.7052416619">
		<tag k="name" v="Storebukt" />
		<tag k="natural" v="bay" />
		<tag k="ssr:stedsnr" v="536184" />
	</node>
	<node id="-233910" lat="59.2707722568" lon="11.5891821762">
		<tag k="name" v="Setertjerna" />
		<tag k="natural" v="water" />
		<tag k="ssr:stedsnr" v="523374" />
		<tag k="water" v="lake" />
	</node>
	<node id="-233909" lat="59.2527416649" lon="11.5976388915">
		<tag k="name" v="Ormetjern" />
>>>>>>> e1d4bc35ff8a6074a6f2e91616a996b547c36f15
		<tag k="natural" v="water" />
		<tag k="ssr:stedsnr" v="305250" />
		<tag k="water" v="lake" />
	</node>
<<<<<<< HEAD
	<node lat="59.277502781026016" lon="11.796208333045568" id="-14331">
		<tag k="alt_name" v="Litjern" />
		<tag k="name" v="Litjernet" />
=======
	<node id="-233907" lat="59.1330527749" lon="11.6984527854">
		<tag k="name" v="Halvfartjern" />
>>>>>>> e1d4bc35ff8a6074a6f2e91616a996b547c36f15
		<tag k="natural" v="water" />
		<tag k="ssr:stedsnr" v="306674" />
	</node>
<<<<<<< HEAD
	<node lat="59.072905559245655" lon="11.730433331214611" id="-14336">
		<tag k="alt_name" v="Skogrostjern;Skogråstjernet" />
		<tag k="name" v="Skogråstjern" />
=======
	<node id="-233904" lat="59.3278972256" lon="11.6362361188">
		<tag k="name" v="Vatnemellemtjern" />
>>>>>>> e1d4bc35ff8a6074a6f2e91616a996b547c36f15
		<tag k="natural" v="water" />
		<tag k="ssr:stedsnr" v="354052" />
	</node>
<<<<<<< HEAD
	<node lat="59.298761111727224" lon="11.619575002188983" id="-14342">
		<tag k="name" v="Kilebunn" />
		<tag k="natural" v="bay" />
		<tag k="ssr:stedsnr" v="341036" />
	</node>
	<node lat="59.12194444121119" lon="11.733480562422764" id="-14344">
		<tag k="name" v="Dyvelen" />
=======
	<node id="-233899" lat="59.2969861115" lon="11.7599000018">
		<tag k="name" v="Størholttjern" />
		<tag k="natural" v="water" />
		<tag k="ssr:stedsnr" v="476961" />
	</node>
	<node id="-233896" lat="59.1065861084" lon="11.6815444497">
		<tag k="name" v="Helvetestjern" />
>>>>>>> e1d4bc35ff8a6074a6f2e91616a996b547c36f15
		<tag k="natural" v="water" />
		<tag k="ssr:stedsnr" v="341293" />
	</node>
<<<<<<< HEAD
	<node lat="59.24836666572259" lon="11.668188889535918" id="-14345">
		<tag k="name" v="Eskildsvik" />
=======
	<node id="-233894" lat="59.147791665" lon="11.7118249983">
		<tag k="name" v="Øvre Døhaugbukta" />
>>>>>>> e1d4bc35ff8a6074a6f2e91616a996b547c36f15
		<tag k="natural" v="bay" />
		<tag k="ssr:stedsnr" v="341494" />
	</node>
<<<<<<< HEAD
	<node lat="59.178505558172475" lon="11.653008331935407" id="-14346">
		<tag k="name" v="Fiskedam" />
		<tag k="natural" v="water" />
		<tag k="ssr:stedsnr" v="341284" />
	</node>
	<node lat="59.2578638886422" lon="11.653650005713745" id="-14347">
		<tag k="name" v="Dritærskjær" />
=======
	<node id="-233893" lat="59.1483777793" lon="11.6866694518">
		<tag k="name" v="Gåseskjæra" />
>>>>>>> e1d4bc35ff8a6074a6f2e91616a996b547c36f15
		<tag k="place" v="islet" />
		<tag k="ssr:stedsnr" v="341476" />
	</node>
<<<<<<< HEAD
	<node lat="59.25188611147039" lon="11.79626944026461" id="-14348">
		<tag k="name" v="Dyvlene" />
		<tag k="natural" v="water" />
		<tag k="ssr:stedsnr" v="354855" />
	</node>
	<node lat="59.08135833243402" lon="11.696175006335265" id="-14350">
		<tag k="name" v="Søndre Tjernimellem" />
		<tag k="natural" v="water" />
		<tag k="ssr:stedsnr" v="354037" />
	</node>
	<node lat="59.07203888700652" lon="11.753102785635175" id="-14351">
		<tag k="name" v="Lysevannet" />
=======
	<node id="-233889" lat="59.2599166669" lon="11.5647388918">
		<tag k="name" v="Bolsbota" />
		<tag k="place" v="locality" />
		<tag k="ssr:stedsnr" v="671732" />
	</node>
	<node id="-233887" lat="59.2586093617" lon="11.5796320536">
		<tag k="name" v="Brutjerna" />
		<tag k="natural" v="water" />
		<tag k="ssr:stedsnr" v="670729" />
		<tag k="water" v="lake" />
	</node>
	<node id="-233886" lat="59.2537194403" lon="11.5759222153">
		<tag k="alt_name" v="Svarttjern" />
		<tag k="name" v="Svarttjernet" />
>>>>>>> e1d4bc35ff8a6074a6f2e91616a996b547c36f15
		<tag k="natural" v="water" />
		<tag k="ssr:stedsnr" v="354047" />
		<tag k="water" v="lake" />
	</node>
	<node lat="59.19628333006437" lon="11.602019441596122" id="-14369">
		<tag k="name" v="Store Småtjern" />
		<tag k="natural" v="water" />
		<tag k="ssr:stedsnr" v="355995" />
	</node>
	<node lat="59.206505555323936" lon="11.673505563477221" id="-14373">
		<tag k="name" v="Signalbekken" />
		<tag k="ssr:stedsnr" v="365179" />
		<tag k="waterway" v="stream" />
	</node>
	<node lat="59.11825833187412" lon="11.706863887110172" id="-14374">
		<tag k="name" v="Gryta" />
		<tag k="natural" v="water" />
		<tag k="ssr:stedsnr" v="365484" />
	</node>
	<node lat="59.13090833425383" lon="11.637099995610116" id="-14375">
		<tag k="name" v="Engeneset" />
		<tag k="natural" v="cape" />
		<tag k="ssr:stedsnr" v="366037" />
	</node>
	<node lat="59.12699999591792" lon="11.639736119303711" id="-14376">
		<tag k="alt_name" v="Nøsthølelva" />
		<tag k="name" v="Nøstholelva" />
		<tag k="ssr:stedsnr" v="366039" />
		<tag k="waterway" v="stream" />
	</node>
<<<<<<< HEAD
	<node lat="59.134711115489424" lon="11.669074992016016" id="-14381">
		<tag k="alt_name" v="Remnevannet" />
		<tag k="name" v="Remne" />
		<tag k="natural" v="water" />
		<tag k="ssr:stedsnr" v="366024" />
		<tag k="water" v="lake" />
	</node>
	<node lat="59.139366670868824" lon="11.659433337650917" id="-14382">
		<tag k="name" v="Kverntjern" />
=======
	<node id="-233884" lat="59.2697805583" lon="11.5634277817">
		<tag k="alt_name" v="Ormetjern" />
		<tag k="name" v="Ormetjernet" />
		<tag k="natural" v="water" />
		<tag k="ssr:stedsnr" v="670702" />
	</node>
	<node id="-233883" lat="59.3089722248" lon="11.7775833423">
		<tag k="alt_name" v="Jordsnes" />
		<tag k="name" v="Jordnes" />
		<tag k="natural" v="cape" />
		<tag k="ssr:stedsnr" v="670657" />
	</node>
	<node id="-233882" lat="59.3065250014" lon="11.7207333258">
		<tag k="alt_name" v="Djuptjern" />
		<tag k="name" v="Djupetjernet" />
>>>>>>> e1d4bc35ff8a6074a6f2e91616a996b547c36f15
		<tag k="natural" v="water" />
		<tag k="ssr:stedsnr" v="366025" />
	</node>
<<<<<<< HEAD
	<node lat="59.13344999831319" lon="11.688502776262363" id="-14383">
		<tag k="alt_name" v="Paletjern;Poletjern" />
		<tag k="name" v="Påletjern" />
		<tag k="natural" v="water" />
		<tag k="ssr:stedsnr" v="366027" />
	</node>
	<node lat="59.09065000028951" lon="11.715044450620077" id="-14386">
		<tag k="alt_name" v="Nordre Stangebråttjernet" />
		<tag k="name" v="Nordre Stangebråttjern" />
=======
	<node id="-233880" lat="59.3113555553" lon="11.7508000079">
		<tag k="alt_name" v="Tjøsteltjerna" />
		<tag k="name" v="Tjøstøltjerna" />
		<tag k="natural" v="water" />
		<tag k="ssr:stedsnr" v="670632" />
		<tag k="water" v="lake" />
	</node>
	<node id="-233879" lat="59.2557245832" lon="11.6154002679">
		<tag k="name" v="Tretjerna" />
>>>>>>> e1d4bc35ff8a6074a6f2e91616a996b547c36f15
		<tag k="natural" v="water" />
		<tag k="ssr:stedsnr" v="366513" />
	</node>
<<<<<<< HEAD
	<node lat="59.271519444058846" lon="11.594119446804042" id="-14394">
		<tag k="name" v="Blanktjern" />
=======
	<node id="-233878" lat="59.1348597423" lon="11.6301775087">
		<tag k="alt_name" v="Trollnestjern" />
		<tag k="name" v="Trollnestjernet" />
>>>>>>> e1d4bc35ff8a6074a6f2e91616a996b547c36f15
		<tag k="natural" v="water" />
		<tag k="ssr:stedsnr" v="401321" />
	</node>
<<<<<<< HEAD
	<node lat="59.262302778493606" lon="11.564130560803205" id="-14397">
		<tag k="name" v="Sølskuttjern" />
=======
	<node id="-233873" lat="59.1987666677" lon="11.5960249989">
		<tag k="name" v="Djupvann" />
>>>>>>> e1d4bc35ff8a6074a6f2e91616a996b547c36f15
		<tag k="natural" v="water" />
		<tag k="ssr:stedsnr" v="401355" />
	</node>
<<<<<<< HEAD
	<node lat="59.245322222303564" lon="11.690436112711218" id="-14400">
		<tag k="name" v="Lilledalstjernet" />
=======
	<node id="-233866" lat="59.1794638915" lon="11.6237916721">
		<tag k="name" v="Langetjern" />
>>>>>>> e1d4bc35ff8a6074a6f2e91616a996b547c36f15
		<tag k="natural" v="water" />
		<tag k="ssr:stedsnr" v="402493" />
	</node>
<<<<<<< HEAD
	<node lat="59.04214444508423" lon="11.722969439121462" id="-14404">
		<tag k="name" v="Søndre Boksjø" />
=======
	<node id="-233863" lat="59.1032641933" lon="11.7753479771">
		<tag k="name" v="Urdevannet" />
>>>>>>> e1d4bc35ff8a6074a6f2e91616a996b547c36f15
		<tag k="natural" v="water" />
		<tag k="ssr:stedsnr" v="414925" />
		<tag k="water" v="lake" />
	</node>
<<<<<<< HEAD
	<node lat="59.147900002341295" lon="11.660186112552754" id="-14412">
		<tag k="alt_name" v="Neset" />
		<tag k="name" v="Østensvikneset" />
		<tag k="natural" v="cape" />
		<tag k="ssr:stedsnr" v="415536" />
	</node>
	<node lat="59.21297500024334" lon="11.711197215227411" id="-14414">
		<tag k="name" v="Kopperødfossen" />
		<tag k="natural" v="waterfall" />
		<tag k="ssr:stedsnr" v="416288" />
	</node>
	<node lat="59.29468889088923" lon="11.793844439047778" id="-14421">
		<tag k="name" v="Bryggerhusneset" />
=======
	<node id="-233859" lat="59.3053611104" lon="11.664044453">
		<tag k="name" v="Strømselva" />
		<tag k="ssr:stedsnr" v="463032" />
		<tag k="waterway" v="river" />
	</node>
	<node id="-233858" lat="59.317455557" lon="11.581027784">
		<tag k="name" v="Nesset" />
>>>>>>> e1d4bc35ff8a6074a6f2e91616a996b547c36f15
		<tag k="natural" v="cape" />
		<tag k="ssr:stedsnr" v="415966" />
	</node>
<<<<<<< HEAD
	<node lat="59.2532972184642" lon="11.59006666898758" id="-14424">
		<tag k="name" v="Skotjern" />
		<tag k="natural" v="water" />
		<tag k="ssr:stedsnr" v="416495" />
	</node>
	<node lat="59.19663889046821" lon="11.639263895871355" id="-14425">
		<tag k="name" v="Holvannsdammen" />
=======
	<node id="-233857" lat="59.2690194402" lon="11.7495277762">
		<tag k="name" v="Bamseslor" />
		<tag k="place" v="locality" />
		<tag k="ssr:stedsnr" v="658791" />
	</node>
	<node id="-233855" lat="59.1968972196" lon="11.6055166624">
		<tag k="name" v="Steinkalltjern" />
>>>>>>> e1d4bc35ff8a6074a6f2e91616a996b547c36f15
		<tag k="natural" v="water" />
		<tag k="ssr:stedsnr" v="416879" />
	</node>
<<<<<<< HEAD
	<node lat="59.22048055771574" lon="11.599741672381391" id="-14430">
		<tag k="name" v="Skolleborgørvann" />
		<tag k="natural" v="bay" />
		<tag k="ssr:stedsnr" v="426160" />
	</node>
	<node lat="59.20039166746514" lon="11.70014444468545" id="-14434">
		<tag k="alt_name" v="Tordyvelen" />
		<tag k="name" v="Tordivelen" />
		<tag k="natural" v="strait" />
		<tag k="ssr:stedsnr" v="426181" />
	</node>
	<node lat="59.05915555496345" lon="11.724800007755995" id="-14435">
		<tag k="name" v="Øretjern" />
=======
	<node id="-233853" lat="59.2106694468" lon="11.6033583361">
		<tag k="name" v="De små Kreaktjern" />
>>>>>>> e1d4bc35ff8a6074a6f2e91616a996b547c36f15
		<tag k="natural" v="water" />
		<tag k="ssr:stedsnr" v="426358" />
	</node>
<<<<<<< HEAD
	<node lat="59.15342499626597" lon="11.68837499521782" id="-14437">
		<tag k="alt_name" v="Høyneset" />
		<tag k="name" v="Høgneset" />
		<tag k="natural" v="cape" />
		<tag k="ssr:stedsnr" v="427001" />
	</node>
	<node lat="59.116050024896836" lon="11.670493311044625" id="-14443">
		<tag k="fixme" v="multiple name tags, choose one and add the other to alt_name" />
		<tag k="name" v="Nøstholtjern;Store Sildremyrtjern" />
=======
	<node id="-233852" lat="59.2251972256" lon="11.5753500069">
		<tag k="name" v="Monsa" />
>>>>>>> e1d4bc35ff8a6074a6f2e91616a996b547c36f15
		<tag k="natural" v="water" />
		<tag k="ssr:stedsnr" v="427064" />
	</node>
<<<<<<< HEAD
	<node lat="59.24360555553615" lon="11.794975006971026" id="-14444">
		<tag k="alt_name" v="Trantjern" />
		<tag k="name" v="Tranetjern" />
=======
	<node id="-233843" lat="59.2253500025" lon="11.7630861034">
		<tag k="name" v="Lille Abbortjern" />
>>>>>>> e1d4bc35ff8a6074a6f2e91616a996b547c36f15
		<tag k="natural" v="water" />
		<tag k="ssr:stedsnr" v="427262" />
	</node>
<<<<<<< HEAD
	<node lat="59.0564527809777" lon="11.730691664023123" id="-14449">
		<tag k="name" v="Blekketjern" />
=======
	<node id="-233842" lat="59.2374500013" lon="11.7586111102">
		<tag k="name" v="Kulltjern" />
>>>>>>> e1d4bc35ff8a6074a6f2e91616a996b547c36f15
		<tag k="natural" v="water" />
		<tag k="ssr:stedsnr" v="427446" />
	</node>
<<<<<<< HEAD
	<node lat="59.31871110979811" lon="11.688275006835124" id="-14450">
		<tag k="alt_name" v="Duserudtjernet" />
		<tag k="name" v="Duserudtjern" />
=======
	<node id="-233839" lat="59.0956638915" lon="11.6982749991">
		<tag k="name" v="Pernilletjern" />
>>>>>>> e1d4bc35ff8a6074a6f2e91616a996b547c36f15
		<tag k="natural" v="water" />
		<tag k="ssr:stedsnr" v="427633" />
	</node>
<<<<<<< HEAD
	<node lat="59.250161110749694" lon="11.582794442240749" id="-14452">
		<tag k="alt_name" v="Kroktjerna" />
		<tag k="name" v="Østre Krokvann" />
=======
	<node id="-233838" lat="59.2748972199" lon="11.6267111035">
		<tag k="name" v="Lindtjern" />
>>>>>>> e1d4bc35ff8a6074a6f2e91616a996b547c36f15
		<tag k="natural" v="water" />
		<tag k="ssr:stedsnr" v="428728" />
	</node>
<<<<<<< HEAD
	<node lat="59.32869999946951" lon="11.659366659450285" id="-14453">
=======
	<node id="-233834" lat="59.3286999995" lon="11.6593666595">
>>>>>>> e1d4bc35ff8a6074a6f2e91616a996b547c36f15
		<tag k="name" v="Bøensøya" />
		<tag k="place" v="islet" />
		<tag k="ssr:stedsnr" v="428732" />
	</node>
<<<<<<< HEAD
	<node lat="59.33159166670323" lon="11.726341663046986" id="-14454">
		<tag k="alt_name" v="Abbortjern" />
		<tag k="name" v="Abbortjernet" />
=======
	<node id="-233833" lat="59.2501611107" lon="11.5827944422">
		<tag k="alt_name" v="Kroktjerna" />
		<tag k="name" v="Østre Krokvann" />
>>>>>>> e1d4bc35ff8a6074a6f2e91616a996b547c36f15
		<tag k="natural" v="water" />
		<tag k="ssr:stedsnr" v="428590" />
	</node>
<<<<<<< HEAD
	<node lat="59.28094166720963" lon="11.808011116825568" id="-14456">
		<tag k="alt_name" v="Denes" />
		<tag k="name" v="Degernes" />
		<tag k="natural" v="cape" />
		<tag k="ssr:stedsnr" v="428701" />
	</node>
	<node lat="59.31135555525575" lon="11.75080000787415" id="-14457">
		<tag k="alt_name" v="Tjøsteltjerna" />
		<tag k="name" v="Tjøstøltjerna" />
		<tag k="natural" v="water" />
		<tag k="ssr:stedsnr" v="670632" />
		<tag k="water" v="lake" />
	</node>
	<node lat="59.30652500143615" lon="11.720733325754667" id="-14459">
		<tag k="alt_name" v="Djuptjern" />
		<tag k="name" v="Djupetjernet" />
		<tag k="natural" v="water" />
		<tag k="ssr:stedsnr" v="670645" />
	</node>
	<node lat="59.30897222483016" lon="11.777583342329063" id="-14460">
		<tag k="alt_name" v="Jordsnes" />
		<tag k="name" v="Jordnes" />
=======
	<node id="-233828" lat="59.3160166652" lon="11.7531305505">
		<tag k="name" v="Skrikebekken" />
		<tag k="ssr:stedsnr" v="428628" />
		<tag k="waterway" v="stream" />
	</node>
	<node id="-233827" lat="59.3151111107" lon="11.7812666754">
		<tag k="alt_name" v="Grasneset" />
		<tag k="name" v="Gressneset" />
>>>>>>> e1d4bc35ff8a6074a6f2e91616a996b547c36f15
		<tag k="natural" v="cape" />
		<tag k="ssr:stedsnr" v="670657" />
	</node>
<<<<<<< HEAD
	<node lat="59.269780558310444" lon="11.56342778173586" id="-14461">
		<tag k="alt_name" v="Ormetjern" />
		<tag k="name" v="Ormetjernet" />
=======
	<node id="-233825" lat="59.1355333364" lon="11.7065333367">
		<tag k="name" v="Store Blanketjern" />
>>>>>>> e1d4bc35ff8a6074a6f2e91616a996b547c36f15
		<tag k="natural" v="water" />
		<tag k="ssr:stedsnr" v="670702" />
	</node>
<<<<<<< HEAD
	<node lat="59.29986388696229" lon="11.594680557712431" id="-14462">
		<tag k="name" v="Mørketjern" />
=======
	<node id="-233824" lat="59.1310277811" lon="11.728766662">
		<tag k="alt_name" v="Gravdalstjern" />
		<tag k="name" v="Gravdalstjernet" />
>>>>>>> e1d4bc35ff8a6074a6f2e91616a996b547c36f15
		<tag k="natural" v="water" />
		<tag k="ssr:stedsnr" v="522332" />
	</node>
<<<<<<< HEAD
	<node lat="59.09029444049169" lon="11.73448611764009" id="-14474">
		<tag k="name" v="Kjerringtjern" />
		<tag k="natural" v="water" />
		<tag k="ssr:stedsnr" v="536054" />
	</node>
	<node lat="59.278636111409476" lon="11.649366663066333" id="-14477">
		<tag k="name" v="Flisbekken" />
		<tag k="ssr:stedsnr" v="536101" />
		<tag k="waterway" v="stream" />
	</node>
	<node lat="59.16733611538815" lon="11.692372225330162" id="-14481">
		<tag k="name" v="Neset" />
=======
	<node id="-233819" lat="59.1693138912" lon="11.700055557">
		<tag k="name" v="Grinderholmen" />
		<tag k="place" v="islet" />
		<tag k="ssr:stedsnr" v="427106" />
	</node>
	<node id="-233813" lat="59.2734749956" lon="11.8042527811">
		<tag k="name" v="Slommetangen" />
>>>>>>> e1d4bc35ff8a6074a6f2e91616a996b547c36f15
		<tag k="natural" v="cape" />
		<tag k="ssr:stedsnr" v="536354" />
	</node>
<<<<<<< HEAD
	<node lat="59.18889166883098" lon="11.605975006459605" id="-14490">
		<tag k="name" v="Kroktjerndammen" />
		<tag k="ssr:stedsnr" v="537998" />
		<tag k="waterway" v="dam" />
	</node>
	<node lat="59.333559562067954" lon="11.717891469601508" id="-14492">
		<tag k="name" v="Dyvelen" />
=======
	<node id="-233809" lat="59.3394944471" lon="11.6588194458">
		<tag k="name" v="Bøensfjorden" />
>>>>>>> e1d4bc35ff8a6074a6f2e91616a996b547c36f15
		<tag k="natural" v="water" />
		<tag k="ssr:stedsnr" v="538438" />
	</node>
<<<<<<< HEAD
	<node lat="59.05623333274652" lon="11.716775005828154" id="-14495">
		<tag k="name" v="Langetjern" />
=======
	<node id="-233808" lat="59.2749833292" lon="11.6023694526">
		<tag k="alt_name" v="Bukketjern" />
		<tag k="name" v="Bukketjernet" />
>>>>>>> e1d4bc35ff8a6074a6f2e91616a996b547c36f15
		<tag k="natural" v="water" />
		<tag k="ssr:stedsnr" v="547460" />
	</node>
<<<<<<< HEAD
	<node lat="59.09308055473738" lon="11.730427779714711" id="-14496">
		<tag k="name" v="Svarttjern" />
=======
	<node id="-233803" lat="59.1138894649" lon="11.6782936698">
		<tag k="alt_name" v="Bredtjern" />
		<tag k="name" v="Breidtjern" />
>>>>>>> e1d4bc35ff8a6074a6f2e91616a996b547c36f15
		<tag k="natural" v="water" />
		<tag k="ssr:stedsnr" v="547530" />
	</node>
<<<<<<< HEAD
	<node lat="59.139524997603495" lon="11.701863884487377" id="-14498">
		<tag k="name" v="Lille Blanketjern" />
=======
	<node id="-233802" lat="59.0959777819" lon="11.6920277695">
		<tag k="alt_name" v="Skrømsletjern" />
		<tag k="name" v="Skremsletjern" />
>>>>>>> e1d4bc35ff8a6074a6f2e91616a996b547c36f15
		<tag k="natural" v="water" />
		<tag k="ssr:stedsnr" v="548035" />
	</node>
<<<<<<< HEAD
	<node lat="59.033777360907415" lon="11.710438577231537" id="-14501">
		<tag k="name" v="Tåkeholmen" />
		<tag k="place" v="islet" />
		<tag k="ssr:stedsnr" v="548436" />
	</node>
	<node lat="59.28165832896302" lon="11.571152773041218" id="-14502">
		<tag k="alt_name" v="Kroktjern" />
		<tag k="name" v="Kroktjernet" />
=======
	<node id="-233798" lat="59.2037438934" lon="11.5987871905">
		<tag k="name" v="Dortetjern" />
>>>>>>> e1d4bc35ff8a6074a6f2e91616a996b547c36f15
		<tag k="natural" v="water" />
		<tag k="ssr:stedsnr" v="549684" />
	</node>
<<<<<<< HEAD
	<node lat="59.320147220823785" lon="11.74080554836238" id="-14504">
		<tag k="name" v="Smørtjernet" />
=======
	<node id="-233795" lat="59.172574999" lon="11.7643333268">
		<tag k="name" v="Korstjern" />
>>>>>>> e1d4bc35ff8a6074a6f2e91616a996b547c36f15
		<tag k="natural" v="water" />
		<tag k="ssr:stedsnr" v="549611" />
	</node>
<<<<<<< HEAD
	<node lat="59.32032499692144" lon="11.631094440172735" id="-14505">
		<tag k="alt_name" v="Brynhildstjern" />
		<tag k="name" v="Brynhildtjern" />
=======
	<node id="-233793" lat="59.1876250023" lon="11.6452527788">
		<tag k="name" v="Lindtjern" />
>>>>>>> e1d4bc35ff8a6074a6f2e91616a996b547c36f15
		<tag k="natural" v="water" />
		<tag k="ssr:stedsnr" v="549614" />
	</node>
<<<<<<< HEAD
	<node lat="59.314272223052285" lon="11.62249167521512" id="-14506">
		<tag k="name" v="Kilesjøen" />
		<tag k="natural" v="bay" />
		<tag k="ssr:stedsnr" v="549618" />
	</node>
	<node lat="59.25774872616329" lon="11.603381004945291" id="-14509">
		<tag k="alt_name" v="Abbortjernet" />
		<tag k="name" v="Vestre Abbortjern" />
=======
	<node id="-233792" lat="59.0881839157" lon="11.7415910983">
		<tag k="fixme" v="multiple name tags, choose one and add the other to alt_name" />
		<tag k="name" v="Nordre Morttjern;Nordre Mortvannet" />
>>>>>>> e1d4bc35ff8a6074a6f2e91616a996b547c36f15
		<tag k="natural" v="water" />
		<tag k="ssr:stedsnr" v="549724" />
	</node>
<<<<<<< HEAD
	<node lat="59.22969303377185" lon="11.68866105330304" id="-14511">
		<tag k="name" v="Fossbyskjæra" />
		<tag k="place" v="islet" />
		<tag k="ssr:stedsnr" v="582439" />
	</node>
	<node lat="59.312536114787356" lon="11.666433337991034" id="-14514">
		<tag k="name" v="Mokallen" />
		<tag k="natural" v="strait" />
		<tag k="ssr:stedsnr" v="583018" />
	</node>
	<node lat="59.22657222041412" lon="11.615455557877059" id="-14517">
		<tag k="name" v="Anetjern" />
=======
	<node id="-233789" lat="59.0743250013" lon="11.7071027738">
		<tag k="name" v="Dragontjern" />
>>>>>>> e1d4bc35ff8a6074a6f2e91616a996b547c36f15
		<tag k="natural" v="water" />
		<tag k="ssr:stedsnr" v="583500" />
	</node>
<<<<<<< HEAD
	<node lat="59.220736107832565" lon="11.688324995794659" id="-14532">
		<tag k="name" v="Flatebyneset" />
		<tag k="natural" v="cape" />
		<tag k="ssr:stedsnr" v="597333" />
	</node>
	<node lat="59.148191663757956" lon="11.68740556404414" id="-14535">
		<tag k="name" v="Gåseskjærholmen" />
		<tag k="place" v="islet" />
		<tag k="ssr:stedsnr" v="597472" />
	</node>
	<node lat="59.22076110917834" lon="11.632750003025667" id="-14537">
		<tag k="name" v="Hjertetjern" />
		<tag k="natural" v="water" />
		<tag k="ssr:stedsnr" v="597545" />
	</node>
	<node lat="59.26977222049198" lon="11.804388886630562" id="-14539">
		<tag k="name" v="Revetangen" />
		<tag k="natural" v="cape" />
		<tag k="ssr:stedsnr" v="597803" />
	</node>
	<node lat="59.285991668935736" lon="11.80050833878183" id="-14541">
		<tag k="name" v="Mørkevik" />
		<tag k="natural" v="bay" />
		<tag k="ssr:stedsnr" v="597817" />
	</node>
	<node lat="59.17562777999579" lon="11.762186111042695" id="-14542">
		<tag k="name" v="Kverntjern" />
=======
	<node id="-233788" lat="59.2156305525" lon="11.8433166627">
		<tag k="name" v="Store Le" />
>>>>>>> e1d4bc35ff8a6074a6f2e91616a996b547c36f15
		<tag k="natural" v="water" />
		<tag k="ssr:stedsnr" v="597949" />
	</node>
<<<<<<< HEAD
	<node lat="59.31091388836223" lon="11.771327776165325" id="-14545">
		<tag k="name" v="Fonkeneset" />
		<tag k="natural" v="cape" />
		<tag k="ssr:stedsnr" v="597963" />
	</node>
	<node lat="59.2975833321642" lon="11.781713890426168" id="-14546">
		<tag k="name" v="Røsnesholmen" />
=======
	<node id="-233787" lat="59.2483666657" lon="11.6681888895">
		<tag k="name" v="Eskildsvik" />
		<tag k="natural" v="bay" />
		<tag k="ssr:stedsnr" v="341494" />
	</node>
	<node id="-233786" lat="59.2578638886" lon="11.6536500057">
		<tag k="name" v="Dritærskjær" />
>>>>>>> e1d4bc35ff8a6074a6f2e91616a996b547c36f15
		<tag k="place" v="islet" />
		<tag k="ssr:stedsnr" v="597978" />
	</node>
<<<<<<< HEAD
	<node lat="59.19985555253854" lon="11.617458338103683" id="-14548">
		<tag k="name" v="Øvre Fløtma" />
=======
	<node id="-233783" lat="59.1645250015" lon="11.7759527777">
		<tag k="name" v="Fagerlitjern" />
>>>>>>> e1d4bc35ff8a6074a6f2e91616a996b547c36f15
		<tag k="natural" v="water" />
		<tag k="ssr:stedsnr" v="597898" />
	</node>
<<<<<<< HEAD
	<node lat="59.148427778206795" lon="11.733372216089402" id="-14549">
		<tag k="name" v="Båtsvika" />
		<tag k="natural" v="bay" />
		<tag k="ssr:stedsnr" v="597942" />
	</node>
	<node lat="59.24797179257602" lon="11.582143737661914" id="-14552">
		<tag k="name" v="Søndre Krokvann" />
=======
	<node id="-233782" lat="59.1984855352" lon="11.6145547685">
		<tag k="name" v="Knivtjern" />
		<tag k="natural" v="water" />
		<tag k="ssr:stedsnr" v="476890" />
	</node>
	<node id="-233780" lat="59.206825004" lon="11.5974611161">
		<tag k="name" v="Grevlingtjern" />
>>>>>>> e1d4bc35ff8a6074a6f2e91616a996b547c36f15
		<tag k="natural" v="water" />
		<tag k="ssr:stedsnr" v="598976" />
		<tag k="water" v="lake" />
	</node>
<<<<<<< HEAD
	<node lat="59.16400555810444" lon="11.755350005330035" id="-14555">
		<tag k="name" v="Trulsetjern" />
=======
	<node id="-233779" lat="59.2198722242" lon="11.5906166633">
		<tag k="name" v="Saueskinnstjern" />
>>>>>>> e1d4bc35ff8a6074a6f2e91616a996b547c36f15
		<tag k="natural" v="water" />
		<tag k="ssr:stedsnr" v="608099" />
	</node>
<<<<<<< HEAD
	<node lat="59.081452777603566" lon="11.721088883784384" id="-14559">
		<tag k="alt_name" v="Søndre Stangebråttjern" />
		<tag k="name" v="Søndre Stangebråttjernet" />
=======
	<node id="-233775" lat="59.2197888923" lon="11.6261194415">
		<tag k="name" v="Setertjern" />
>>>>>>> e1d4bc35ff8a6074a6f2e91616a996b547c36f15
		<tag k="natural" v="water" />
		<tag k="ssr:stedsnr" v="607476" />
	</node>
<<<<<<< HEAD
	<node lat="59.18140555904474" lon="11.75940833459879" id="-14561">
		<tag k="name" v="Søndre Busterudtjern" />
=======
	<node id="-233774" lat="59.1342249978" lon="11.7311027718">
		<tag k="name" v="Gørrputt" />
>>>>>>> e1d4bc35ff8a6074a6f2e91616a996b547c36f15
		<tag k="natural" v="water" />
		<tag k="ssr:stedsnr" v="608067" />
	</node>
<<<<<<< HEAD
	<node lat="59.04572499978186" lon="11.709786105805138" id="-14564">
		<tag k="name" v="Lundsneset" />
=======
	<node id="-233773" lat="59.3113416646" lon="11.7142999954">
		<tag k="name" v="Langenes" />
>>>>>>> e1d4bc35ff8a6074a6f2e91616a996b547c36f15
		<tag k="natural" v="cape" />
		<tag k="ssr:stedsnr" v="608437" />
	</node>
<<<<<<< HEAD
	<node lat="59.09683889198951" lon="11.757916665723402" id="-14565">
		<tag k="name" v="Latjern" />
=======
	<node id="-233769" lat="59.0643444485" lon="11.7268555548">
		<tag k="name" v="Fiskeløstjern" />
>>>>>>> e1d4bc35ff8a6074a6f2e91616a996b547c36f15
		<tag k="natural" v="water" />
		<tag k="ssr:stedsnr" v="608458" />
	</node>
<<<<<<< HEAD
	<node lat="59.11299515044139" lon="11.716756844086401" id="-14566">
		<tag k="name" v="Langetjern" />
		<tag k="natural" v="water" />
		<tag k="ssr:stedsnr" v="609042" />
		<tag k="water" v="lake" />
	</node>
	<node lat="59.284324999050305" lon="11.73479722290832" id="-14569">
		<tag k="alt_name" v="Smørtjern" />
		<tag k="name" v="Smørtjernet" />
		<tag k="natural" v="water" />
		<tag k="ssr:stedsnr" v="609655" />
	</node>
	<node lat="59.27296388538149" lon="11.670463883719167" id="-14573">
		<tag k="name" v="Kavringen" />
=======
	<node id="-233768" lat="59.088772224" lon="11.6908555533">
		<tag k="name" v="Søndre Enertjern" />
		<tag k="natural" v="water" />
		<tag k="ssr:stedsnr" v="476022" />
	</node>
	<node id="-233766" lat="59.1498333289" lon="11.6557361148">
		<tag k="name" v="Østensvikbukta" />
		<tag k="natural" v="bay" />
		<tag k="ssr:stedsnr" v="475510" />
	</node>
	<node id="-233764" lat="59.1578083347" lon="11.691625001">
		<tag k="name" v="Båtsvika" />
		<tag k="natural" v="bay" />
		<tag k="ssr:stedsnr" v="475479" />
	</node>
	<node id="-233762" lat="59.1487055519" lon="11.7098000036">
		<tag k="name" v="Lommeholmen" />
>>>>>>> e1d4bc35ff8a6074a6f2e91616a996b547c36f15
		<tag k="place" v="islet" />
		<tag k="ssr:stedsnr" v="610743" />
	</node>
<<<<<<< HEAD
	<node lat="59.26485555679771" lon="11.580361102450315" id="-14574">
		<tag k="alt_name" v="Laua" />
		<tag k="name" v="Lauvå" />
		<tag k="natural" v="water" />
		<tag k="ssr:stedsnr" v="610755" />
	</node>
	<node lat="59.3098166673477" lon="11.723580562917064" id="-14578">
		<tag k="name" v="Myrsnipa" />
		<tag k="natural" v="bay" />
		<tag k="ssr:stedsnr" v="644047" />
	</node>
	<node lat="59.25195278228745" lon="11.607438886488762" id="-14579">
		<tag k="name" v="Setertjern" />
=======
	<node id="-233754" lat="59.2522277797" lon="11.6704916666">
		<tag k="name" v="Revtangen" />
		<tag k="natural" v="cape" />
		<tag k="ssr:stedsnr" v="462435" />
	</node>
	<node id="-233750" lat="59.2282916649" lon="11.6157111029">
		<tag k="name" v="Nebbtjern" />
>>>>>>> e1d4bc35ff8a6074a6f2e91616a996b547c36f15
		<tag k="natural" v="water" />
		<tag k="ssr:stedsnr" v="644363" />
	</node>
<<<<<<< HEAD
	<node lat="59.11482221861824" lon="11.718427783137479" id="-14583">
		<tag k="name" v="Lindtjernungen" />
		<tag k="natural" v="water" />
		<tag k="ssr:stedsnr" v="658056" />
	</node>
	<node lat="59.10087499974741" lon="11.689672215101647" id="-14584">
		<tag k="name" v="Torsengertjern" />
=======
	<node id="-233748" lat="59.2842058388" lon="11.6101684098">
		<tag k="name" v="Berggrøttjerna" />
		<tag k="natural" v="water" />
		<tag k="ssr:stedsnr" v="280308" />
		<tag k="water" v="lake" />
	</node>
	<node id="-233747" lat="59.2534499971" lon="11.7768500073">
		<tag k="alt_name" v="Igletjern" />
		<tag k="name" v="Igletjernet" />
>>>>>>> e1d4bc35ff8a6074a6f2e91616a996b547c36f15
		<tag k="natural" v="water" />
		<tag k="ssr:stedsnr" v="658057" />
	</node>
<<<<<<< HEAD
	<node lat="59.284905555544746" lon="11.6551750027966" id="-14585">
		<tag k="name" v="Strete" />
		<tag k="natural" v="cape" />
		<tag k="ssr:stedsnr" v="658060" />
	</node>
	<node lat="59.28306944336319" lon="11.659263896457272" id="-14586">
		<tag k="name" v="Isingen" />
=======
	<node id="-233746" lat="59.2563985676" lon="11.6561203715">
		<tag k="name" v="Følingøya" />
>>>>>>> e1d4bc35ff8a6074a6f2e91616a996b547c36f15
		<tag k="place" v="islet" />
		<tag k="ssr:stedsnr" v="658061" />
	</node>
<<<<<<< HEAD
	<node lat="59.225350002498914" lon="11.763086103420637" id="-14589">
		<tag k="name" v="Lille Abbortjern" />
=======
	<node id="-233739" lat="59.2154249986" lon="11.6090138881">
		<tag k="name" v="Smalørvann" />
>>>>>>> e1d4bc35ff8a6074a6f2e91616a996b547c36f15
		<tag k="natural" v="water" />
		<tag k="ssr:stedsnr" v="658148" />
	</node>
<<<<<<< HEAD
	<node lat="59.145388886812796" lon="11.634299997180152" id="-14594">
		<tag k="name" v="Fjellbekken" />
		<tag k="ssr:stedsnr" v="657518" />
		<tag k="waterway" v="stream" />
	</node>
	<node lat="59.196897219559645" lon="11.60551666237706" id="-14597">
		<tag k="name" v="Steinkalltjern" />
=======
	<node id="-233737" lat="59.2315444437" lon="11.5813499933">
		<tag k="name" v="Ørvassbekken" />
		<tag k="ssr:stedsnr" v="244161" />
		<tag k="waterway" v="stream" />
	</node>
	<node id="-233731" lat="59.205150003" lon="11.6039194525">
		<tag k="name" v="Langetjern" />
>>>>>>> e1d4bc35ff8a6074a6f2e91616a996b547c36f15
		<tag k="natural" v="water" />
		<tag k="ssr:stedsnr" v="658994" />
	</node>
<<<<<<< HEAD
	<node lat="59.14857777832507" lon="11.682172224047594" id="-14601">
		<tag k="name" v="Gåseskjæret" />
		<tag k="natural" v="cape" />
		<tag k="ssr:stedsnr" v="658459" />
	</node>
	<node lat="59.144011109583445" lon="11.683247214804439" id="-14602">
		<tag k="name" v="Sandbekkbukta" />
=======
	<node id="-233728" lat="59.3225750019" lon="11.7722416734">
		<tag k="name" v="Stubbvik" />
>>>>>>> e1d4bc35ff8a6074a6f2e91616a996b547c36f15
		<tag k="natural" v="bay" />
		<tag k="ssr:stedsnr" v="658463" />
	</node>
<<<<<<< HEAD
	<node lat="59.22519722563047" lon="11.57535000685761" id="-14604">
		<tag k="name" v="Monsa" />
=======
	<node id="-233725" lat="59.1966972264" lon="11.6522805641">
		<tag k="name" v="Nordre Dyvel" />
>>>>>>> e1d4bc35ff8a6074a6f2e91616a996b547c36f15
		<tag k="natural" v="water" />
		<tag k="ssr:stedsnr" v="658553" />
	</node>
<<<<<<< HEAD
	<node lat="59.2106694468237" lon="11.603358336129931" id="-14608">
		<tag k="name" v="De små Kreaktjern" />
=======
	<node id="-233723" lat="59.1964818056" lon="11.6291558371">
		<tag k="name" v="Skålbutjern" />
>>>>>>> e1d4bc35ff8a6074a6f2e91616a996b547c36f15
		<tag k="natural" v="water" />
		<tag k="ssr:stedsnr" v="658962" />
		<tag k="water" v="lake" />
	</node>
<<<<<<< HEAD
	<node lat="59.10326419334212" lon="11.775347977094766" id="-14611">
		<tag k="name" v="Urdevannet" />
		<tag k="natural" v="water" />
		<tag k="ssr:stedsnr" v="668463" />
		<tag k="water" v="lake" />
	</node>
	<node lat="59.179463891462746" lon="11.623791672050597" id="-14614">
		<tag k="name" v="Langetjern" />
=======
	<node id="-233716" lat="59.2763833352" lon="11.7671166603">
		<tag k="name" v="Røsertjern" />
		<tag k="natural" v="water" />
		<tag k="ssr:stedsnr" v="294771" />
	</node>
	<node id="-233715" lat="59.1322222241" lon="11.6626944499">
		<tag k="name" v="Sølebukta" />
		<tag k="natural" v="bay" />
		<tag k="ssr:stedsnr" v="294423" />
	</node>
	<node id="-233713" lat="59.1822111091" lon="11.7103166592">
		<tag k="name" v="Kovholmen" />
		<tag k="place" v="islet" />
		<tag k="ssr:stedsnr" v="294346" />
	</node>
	<node id="-233712" lat="59.1768750039" lon="11.6955388858">
		<tag k="name" v="Grinderbukta" />
		<tag k="natural" v="bay" />
		<tag k="ssr:stedsnr" v="294345" />
	</node>
	<node id="-233710" lat="59.2203277817" lon="11.636325005">
		<tag k="name" v="Brundokktjern" />
>>>>>>> e1d4bc35ff8a6074a6f2e91616a996b547c36f15
		<tag k="natural" v="water" />
		<tag k="ssr:stedsnr" v="669064" />
	</node>
<<<<<<< HEAD
	<node lat="59.1987666677393" lon="11.596024998869778" id="-14617">
		<tag k="name" v="Djupvann" />
=======
	<node id="-233709" lat="59.2110527822" lon="11.6421999922">
		<tag k="name" v="Bestedalstjern" />
>>>>>>> e1d4bc35ff8a6074a6f2e91616a996b547c36f15
		<tag k="natural" v="water" />
		<tag k="ssr:stedsnr" v="669151" />
	</node>
<<<<<<< HEAD
	<node lat="59.1289972216462" lon="11.682316674860264" id="-14625">
		<tag k="name" v="Kjerrgilpølen" />
		<tag k="place" v="locality" />
		<tag k="ssr:stedsnr" v="718490" />
	</node>
	<node lat="59.308816666379535" lon="11.57909166829055" id="-14626">
		<tag k="name" v="Hellesåa" />
		<tag k="ssr:stedsnr" v="718329" />
		<tag k="waterway" v="river" />
	</node>
	<node lat="59.31874721796333" lon="11.577997213413283" id="-14632">
		<tag k="name" v="Foreningsøya" />
		<tag k="place" v="island" />
		<tag k="ssr:stedsnr" v="719068" />
	</node>
	<node lat="59.14607777776449" lon="11.707877772802687" id="-14636">
		<tag k="name" v="Gravdalbukta" />
		<tag k="natural" v="bay" />
		<tag k="ssr:stedsnr" v="719440" />
	</node>
	<node lat="59.20086110772198" lon="11.632163886758299" id="-14640">
		<tag k="name" v="Stutetjern" />
=======
	<node id="-233708" lat="59.2199777799" lon="11.6954694397">
		<tag k="name" v="Hølen" />
		<tag k="place" v="locality" />
		<tag k="ssr:stedsnr" v="294309" />
	</node>
	<node id="-233705" lat="59.3162111122" lon="11.7152333377">
		<tag k="name" v="Bubotnen" />
		<tag k="natural" v="bay" />
		<tag k="ssr:stedsnr" v="294183" />
	</node>
	<node id="-233703" lat="59.217050704" lon="11.7924192959">
		<tag k="name" v="Røvann" />
		<tag k="natural" v="water" />
		<tag k="ssr:stedsnr" v="294162" />
		<tag k="water" v="lake" />
	</node>
	<node id="-233695" lat="59.3204472231" lon="11.5783888972">
		<tag k="name" v="Kolbjørnsvikøya" />
		<tag k="place" v="island" />
		<tag k="ssr:stedsnr" v="294057" />
	</node>
	<node id="-233694" lat="59.0941944453" lon="11.6867916641">
		<tag k="name" v="Nordre Enertjern" />
		<tag k="natural" v="water" />
		<tag k="ssr:stedsnr" v="294021" />
	</node>
	<node id="-233692" lat="59.0399694442" lon="11.7157194463">
		<tag k="name" v="Bjørndalsbukt" />
		<tag k="natural" v="bay" />
		<tag k="ssr:stedsnr" v="293937" />
	</node>
	<node id="-233686" lat="59.1275000022" lon="11.7541777782">
		<tag k="alt_name" v="Svarødvassdraget" />
		<tag k="name" v="Svarelva" />
		<tag k="ssr:stedsnr" v="185057" />
		<tag k="waterway" v="river" />
	</node>
	<node id="-233685" lat="59.1266777738" lon="11.6850194509">
		<tag k="name" v="Gøtelielva" />
		<tag k="ssr:stedsnr" v="185054" />
		<tag k="waterway" v="stream" />
	</node>
	<node id="-233684" lat="59.1923083349" lon="11.7512527792">
		<tag k="name" v="Kverntjern" />
>>>>>>> e1d4bc35ff8a6074a6f2e91616a996b547c36f15
		<tag k="natural" v="water" />
		<tag k="ssr:stedsnr" v="719861" />
	</node>
<<<<<<< HEAD
	<node lat="59.102225000383875" lon="11.740411116429106" id="-14653">
		<tag k="name" v="Heitjern" />
		<tag k="natural" v="water" />
		<tag k="ssr:stedsnr" v="730458" />
	</node>
	<node lat="59.141248137974785" lon="11.742495426963993" id="-14654">
		<tag k="alt_name" v="Kasetjern" />
		<tag k="name" v="Kasetjernet" />
		<tag k="natural" v="water" />
		<tag k="ssr:stedsnr" v="731033" />
		<tag k="water" v="lake" />
	</node>
	<node lat="59.27435278149891" lon="11.747094436447348" id="-14655">
		<tag k="name" v="Møtjern" />
=======
	<node id="-233683" lat="59.1960555572" lon="11.7783888946">
		<tag k="alt_name" v="Elgtjern" />
		<tag k="name" v="Søndre Elgtjern" />
		<tag k="natural" v="water" />
		<tag k="ssr:stedsnr" v="184043" />
	</node>
	<node id="-233679" lat="59.1533138879" lon="11.7105611056">
		<tag k="name" v="Lille Trollhatt" />
		<tag k="place" v="islet" />
		<tag k="ssr:stedsnr" v="184006" />
	</node>
	<node id="-233678" lat="59.1502333307" lon="11.6524250061">
		<tag k="name" v="Nedre Brunebukta" />
		<tag k="natural" v="bay" />
		<tag k="ssr:stedsnr" v="172537" />
	</node>
	<node id="-233677" lat="59.1480833361" lon="11.6528722214">
		<tag k="name" v="Grågåsnebba" />
		<tag k="natural" v="cape" />
		<tag k="ssr:stedsnr" v="172535" />
	</node>
	<node id="-233676" lat="59.1453111084" lon="11.6641638846">
		<tag k="name" v="Postøya" />
		<tag k="place" v="islet" />
		<tag k="ssr:stedsnr" v="172534" />
	</node>
	<node id="-233672" lat="59.1499638921" lon="11.685516669">
		<tag k="name" v="Flintesand" />
		<tag k="natural" v="bay" />
		<tag k="ssr:stedsnr" v="172504" />
	</node>
	<node id="-233671" lat="59.0913388855" lon="11.7623861159">
		<tag k="name" v="Abbortjern" />
>>>>>>> e1d4bc35ff8a6074a6f2e91616a996b547c36f15
		<tag k="natural" v="water" />
		<tag k="ssr:stedsnr" v="731680" />
	</node>
<<<<<<< HEAD
	<node lat="59.25335649646794" lon="11.6362061219137" id="-14656">
		<tag k="alt_name" v="Kvernetjern" />
		<tag k="name" v="Kvernetjernet" />
		<tag k="natural" v="water" />
		<tag k="ssr:stedsnr" v="731578" />
	</node>
	<node lat="59.33325833450535" lon="11.756952780065008" id="-14657">
		<tag k="name" v="Setervika" />
=======
	<node id="-233670" lat="59.2934333341" lon="11.6581222284">
		<tag k="name" v="Nestangen" />
		<tag k="natural" v="cape" />
		<tag k="ssr:stedsnr" v="281027" />
	</node>
	<node id="-233665" lat="59.2352027734" lon="11.6870611191">
		<tag k="name" v="Sjøvikbukta" />
>>>>>>> e1d4bc35ff8a6074a6f2e91616a996b547c36f15
		<tag k="natural" v="bay" />
		<tag k="ssr:stedsnr" v="731583" />
	</node>
<<<<<<< HEAD
	<node lat="59.26807777659204" lon="11.612461109511788" id="-14661">
		<tag k="name" v="Ulvedalstjern" />
=======
	<node id="-233663" lat="59.2681277789" lon="11.5698527822">
		<tag k="name" v="Kroktjern" />
>>>>>>> e1d4bc35ff8a6074a6f2e91616a996b547c36f15
		<tag k="natural" v="water" />
		<tag k="ssr:stedsnr" v="765344" />
	</node>
<<<<<<< HEAD
	<node lat="59.2687277815278" lon="11.582147228965516" id="-14662">
		<tag k="name" v="Andetjern" />
=======
	<node id="-233662" lat="59.255352781" lon="11.5973805625">
		<tag k="name" v="Bikkjetjern" />
>>>>>>> e1d4bc35ff8a6074a6f2e91616a996b547c36f15
		<tag k="natural" v="water" />
		<tag k="ssr:stedsnr" v="765354" />
	</node>
<<<<<<< HEAD
	<node lat="59.18008333151346" lon="11.650469452431487" id="-14666">
		<tag k="name" v="Løkholtbekken" />
		<tag k="ssr:stedsnr" v="766260" />
		<tag k="waterway" v="stream" />
	</node>
	<node lat="59.12386944645599" lon="11.725277778236153" id="-14668">
		<tag k="name" v="Galteryggtjern" />
=======
	<node id="-233651" lat="59.1458361118" lon="11.737011117">
		<tag k="name" v="Holmegilelva" />
		<tag k="ssr:stedsnr" v="112927" />
		<tag k="waterway" v="river" />
	</node>
	<node id="-233647" lat="59.1275722221" lon="11.7355361051">
		<tag k="name" v="Halvfartjern" />
>>>>>>> e1d4bc35ff8a6074a6f2e91616a996b547c36f15
		<tag k="natural" v="water" />
		<tag k="ssr:stedsnr" v="766270" />
	</node>
<<<<<<< HEAD
	<node lat="59.23797499920109" lon="11.681527770261242" id="-14671">
		<tag k="name" v="Gullholmen" />
		<tag k="place" v="islet" />
		<tag k="ssr:stedsnr" v="766458" />
	</node>
	<node lat="59.227277775009206" lon="11.668241660389162" id="-14672">
		<tag k="name" v="Hagedammen" />
=======
	<node id="-233645" lat="59.06386944" lon="11.6755583355">
		<tag k="name" v="Innlandsøyene" />
		<tag k="place" v="island" />
		<tag k="ssr:stedsnr" v="111915" />
	</node>
	<node id="-233644" lat="59.2557444467" lon="11.5857805577">
		<tag k="name" v="Skotjern" />
>>>>>>> e1d4bc35ff8a6074a6f2e91616a996b547c36f15
		<tag k="natural" v="water" />
		<tag k="ssr:stedsnr" v="766479" />
	</node>
<<<<<<< HEAD
	<node lat="59.08570833094636" lon="11.694002786307673" id="-14676">
		<tag k="name" v="Vestre Tjernimellem" />
=======
	<node id="-233640" lat="59.3165000038" lon="11.6637388919">
		<tag k="name" v="Mokalltjernet" />
>>>>>>> e1d4bc35ff8a6074a6f2e91616a996b547c36f15
		<tag k="natural" v="water" />
		<tag k="ssr:stedsnr" v="779039" />
	</node>
<<<<<<< HEAD
	<node lat="59.30926110974609" lon="11.647777779258593" id="-14677">
		<tag k="name" v="Torgettjernet" />
		<tag k="natural" v="water" />
		<tag k="ssr:stedsnr" v="779040" />
	</node>
	<node lat="59.31619721941217" lon="11.69635554810749" id="-14683">
		<tag k="name" v="Ringsholmen" />
=======
	<node id="-233639" lat="59.3299666702" lon="11.6686972191">
		<tag k="name" v="Ulven" />
>>>>>>> e1d4bc35ff8a6074a6f2e91616a996b547c36f15
		<tag k="place" v="islet" />
		<tag k="ssr:stedsnr" v="779182" />
	</node>
<<<<<<< HEAD
	<node lat="59.06315000408978" lon="11.712699996698243" id="-14685">
		<tag k="name" v="Jontjern" />
=======
	<node id="-233636" lat="59.2807527775" lon="11.7439749938">
		<tag k="alt_name" v="Kroktjern" />
		<tag k="name" v="Kroktjernet" />
>>>>>>> e1d4bc35ff8a6074a6f2e91616a996b547c36f15
		<tag k="natural" v="water" />
		<tag k="ssr:stedsnr" v="779924" />
	</node>
<<<<<<< HEAD
	<node lat="59.28921111052496" lon="11.742988889234688" id="-14686">
		<tag k="name" v="Lyngartjern" />
=======
	<node id="-233634" lat="59.2806111076" lon="11.7579222275">
		<tag k="name" v="Trestikle" />
>>>>>>> e1d4bc35ff8a6074a6f2e91616a996b547c36f15
		<tag k="natural" v="water" />
		<tag k="ssr:stedsnr" v="779772" />
	</node>
<<<<<<< HEAD
	<node lat="59.30438889202941" lon="11.772166673486023" id="-14688">
		<tag k="name" v="Mørkvikholmen" />
=======
	<node id="-233631" lat="59.2982333375" lon="11.7948722233">
		<tag k="alt_name" v="Løvøa" />
		<tag k="name" v="Lauvøya" />
>>>>>>> e1d4bc35ff8a6074a6f2e91616a996b547c36f15
		<tag k="place" v="islet" />
		<tag k="ssr:stedsnr" v="779793" />
	</node>
<<<<<<< HEAD
	<node lat="59.2956777796988" lon="11.782050007802143" id="-14689">
		<tag k="name" v="Engerlandet" />
		<tag k="natural" v="cape" />
		<tag k="ssr:stedsnr" v="779964" />
	</node>
	<node lat="59.04049444425784" lon="11.710372227020889" id="-14690">
		<tag k="name" v="Jacobsholene" />
		<tag k="natural" v="bay" />
		<tag k="ssr:stedsnr" v="779932" />
	</node>
	<node lat="59.31419444597441" lon="11.78259722568452" id="-14693">
		<tag k="name" v="Kråkevikholmen" />
		<tag k="place" v="islet" />
		<tag k="ssr:stedsnr" v="779947" />
	</node>
	<node lat="59.20952778139302" lon="11.71836945234411" id="-14696">
		<tag k="name" v="Skinnerfossen" />
		<tag k="natural" v="waterfall" />
		<tag k="ssr:stedsnr" v="780293" />
	</node>
	<node lat="59.23290278180333" lon="11.594552780598026" id="-14700">
		<tag k="name" v="Hønetjern" />
=======
	<node id="-233630" lat="59.2994333363" lon="11.5913777741">
		<tag k="alt_name" v="Mørketjerna" />
		<tag k="name" v="Mørketjern" />
		<tag k="natural" v="water" />
		<tag k="ssr:stedsnr" v="246634" />
	</node>
	<node id="-233627" lat="59.1220805598" lon="11.7157138963">
		<tag k="name" v="Holmetjern" />
		<tag k="natural" v="water" />
		<tag k="ssr:stedsnr" v="245046" />
	</node>
	<node id="-233625" lat="59.1175944459" lon="11.7265055551">
		<tag k="alt_name" v="Lundebredtjern" />
		<tag k="name" v="Breidtjern" />
>>>>>>> e1d4bc35ff8a6074a6f2e91616a996b547c36f15
		<tag k="natural" v="water" />
		<tag k="ssr:stedsnr" v="780975" />
	</node>
<<<<<<< HEAD
	<node lat="59.22813812008483" lon="11.59779009673223" id="-14702">
		<tag k="name" v="Buerørvann" />
=======
	<node id="-233624" lat="59.0556527809" lon="11.6790333292">
		<tag k="name" v="Skogfjorden" />
>>>>>>> e1d4bc35ff8a6074a6f2e91616a996b547c36f15
		<tag k="natural" v="water" />
		<tag k="ssr:stedsnr" v="790129" />
		<tag k="water" v="lake" />
	</node>
<<<<<<< HEAD
	<node lat="59.04313611023039" lon="11.69976665930103" id="-14703">
		<tag k="name" v="Vabutangen" />
		<tag k="natural" v="cape" />
		<tag k="ssr:stedsnr" v="790429" />
	</node>
	<node lat="59.04616666828204" lon="11.723266669713933" id="-14704">
		<tag k="name" v="Korstjern" />
=======
	<node id="-233623" lat="59.0481916629" lon="11.6832500065">
		<tag k="fixme" v="multiple name tags, choose one and add the other to alt_name" />
		<tag k="name" v="Kasebukta;Kvernbukta" />
		<tag k="natural" v="bay" />
		<tag k="ssr:stedsnr" v="244434" />
	</node>
	<node id="-233622" lat="59.2474501491" lon="11.5662474399">
		<tag k="alt_name" v="Fyldengørvann" />
		<tag k="name" v="Følingørvann" />
>>>>>>> e1d4bc35ff8a6074a6f2e91616a996b547c36f15
		<tag k="natural" v="water" />
		<tag k="ssr:stedsnr" v="790431" />
	</node>
<<<<<<< HEAD
	<node lat="59.0565750035503" lon="11.673261111205024" id="-14705">
		<tag k="name" v="Langeneset" />
=======
	<node id="-233621" lat="59.2431611089" lon="11.8264361158">
		<tag k="name" v="Svartodde" />
>>>>>>> e1d4bc35ff8a6074a6f2e91616a996b547c36f15
		<tag k="natural" v="cape" />
		<tag k="ssr:stedsnr" v="790375" />
	</node>
<<<<<<< HEAD
	<node lat="59.132383334314916" lon="11.6515999968762" id="-14708">
		<tag k="name" v="Lomtjern" />
=======
	<node id="-233619" lat="59.2329833311" lon="11.6487666666">
		<tag k="name" v="Lakasdammen" />
>>>>>>> e1d4bc35ff8a6074a6f2e91616a996b547c36f15
		<tag k="natural" v="water" />
		<tag k="ssr:stedsnr" v="791026" />
	</node>
<<<<<<< HEAD
	<node lat="59.26164444533496" lon="11.789433337639665" id="-14711">
		<tag k="alt_name" v="Gubberudtjernet" />
		<tag k="name" v="Gubberødtjern" />
=======
	<node id="-233617" lat="59.2039213015" lon="11.7643140431">
		<tag k="alt_name" v="Fiskeløstjerna" />
		<tag k="name" v="Fiskeløs" />
>>>>>>> e1d4bc35ff8a6074a6f2e91616a996b547c36f15
		<tag k="natural" v="water" />
		<tag k="ssr:stedsnr" v="791725" />
	</node>
<<<<<<< HEAD
	<node lat="59.287130554027335" lon="11.796824992550162" id="-14717">
		<tag k="alt_name" v="Gjeddetjern" />
		<tag k="name" v="Gjeddetjernet" />
=======
	<node id="-233613" lat="59.1974666708" lon="11.7740333362">
		<tag k="alt_name" v="Elgtjern" />
		<tag k="name" v="Nordre Elgtjern" />
>>>>>>> e1d4bc35ff8a6074a6f2e91616a996b547c36f15
		<tag k="natural" v="water" />
		<tag k="ssr:stedsnr" v="792672" />
	</node>
<<<<<<< HEAD
	<node lat="59.329333336492844" lon="11.643802771294226" id="-14718">
		<tag k="name" v="Store Bauen" />
		<tag k="natural" v="bay" />
		<tag k="ssr:stedsnr" v="795076" />
	</node>
	<node lat="59.28075000393477" lon="11.575350000298247" id="-14720">
		<tag k="name" v="Vesle Blanketjern" />
=======
	<node id="-233608" lat="59.1934666692" lon="11.6414194372">
		<tag k="name" v="Sauetjern" />
		<tag k="natural" v="water" />
		<tag k="ssr:stedsnr" v="52893" />
	</node>
	<node id="-233604" lat="59.1948055544" lon="11.7590388909">
		<tag k="name" v="Vindtjern" />
>>>>>>> e1d4bc35ff8a6074a6f2e91616a996b547c36f15
		<tag k="natural" v="water" />
		<tag k="ssr:stedsnr" v="826354" />
	</node>
<<<<<<< HEAD
	<node lat="59.166969448753655" lon="11.689597221224357" id="-14737">
		<tag k="name" v="Løken" />
		<tag k="natural" v="strait" />
		<tag k="ssr:stedsnr" v="840351" />
	</node>
	<node lat="59.276097217918355" lon="11.803083329016633" id="-14743">
		<tag k="name" v="Søndre Hjerpenes bukt" />
=======
	<node id="-233603" lat="59.1947061275" lon="11.7829853578">
		<tag k="name" v="Svenskedyvlene" />
		<tag k="natural" v="water" />
		<tag k="ssr:stedsnr" v="52914" />
		<tag k="water" v="lake" />
	</node>
	<node id="-233598" lat="59.1563972217" lon="11.7359666695">
		<tag k="name" v="Kolsbukta" />
>>>>>>> e1d4bc35ff8a6074a6f2e91616a996b547c36f15
		<tag k="natural" v="bay" />
		<tag k="ssr:stedsnr" v="840822" />
	</node>
<<<<<<< HEAD
	<node lat="59.0580833301132" lon="11.688908332457016" id="-14744">
		<tag k="name" v="Dynvik" />
		<tag k="natural" v="bay" />
		<tag k="ssr:stedsnr" v="840923" />
	</node>
	<node lat="59.18935833461265" lon="11.606902773540595" id="-14748">
		<tag k="name" v="Lille sundet" />
		<tag k="natural" v="strait" />
		<tag k="ssr:stedsnr" v="841994" />
	</node>
	<node lat="59.190927780317665" lon="11.61008610693395" id="-14749">
		<tag k="name" v="Store sundet" />
		<tag k="natural" v="strait" />
		<tag k="ssr:stedsnr" v="841995" />
	</node>
	<node lat="59.25441666600572" lon="11.563908337599532" id="-14750">
		<tag k="name" v="Blanktjern" />
=======
	<node id="-233597" lat="59.09824444" lon="11.7393805616">
		<tag k="name" v="Bikkjetjern" />
		<tag k="natural" v="water" />
		<tag k="ssr:stedsnr" v="51456" />
	</node>
	<node id="-233596" lat="59.2853333345" lon="11.6588083344">
		<tag k="name" v="Trillingskjæra" />
		<tag k="place" v="islet" />
		<tag k="ssr:stedsnr" v="51056" />
	</node>
	<node id="-233590" lat="59.1968944437" lon="11.6145166597">
		<tag k="name" v="Nedre Fløtma" />
>>>>>>> e1d4bc35ff8a6074a6f2e91616a996b547c36f15
		<tag k="natural" v="water" />
		<tag k="ssr:stedsnr" v="842545" />
	</node>
<<<<<<< HEAD
	<node lat="59.08520833438718" lon="11.676905554121623" id="-14753">
		<tag k="alt_name" v="Bjørketjern" />
		<tag k="name" v="Bjørke" />
		<tag k="natural" v="water" />
		<tag k="ssr:stedsnr" v="851454" />
	</node>
	<node lat="59.08981944403917" lon="11.775936107667695" id="-14754">
		<tag k="fixme" v="multiple name tags, choose one and add the other to alt_name" />
		<tag k="name" v="Nestjern;Grøtesbutjern" />
=======
	<node id="-233589" lat="59.2247305527" lon="11.6838027828">
		<tag k="name" v="Kalveneset" />
		<tag k="natural" v="cape" />
		<tag k="ssr:stedsnr" v="234548" />
	</node>
	<node id="-233586" lat="59.2122305598" lon="11.6217888897">
		<tag k="name" v="Abbortjern" />
>>>>>>> e1d4bc35ff8a6074a6f2e91616a996b547c36f15
		<tag k="natural" v="water" />
		<tag k="ssr:stedsnr" v="851469" />
	</node>
<<<<<<< HEAD
	<node lat="59.20933888747802" lon="11.754641659455414" id="-14756">
		<tag k="name" v="Sjafet" />
		<tag k="ssr:stedsnr" v="851156" />
		<tag k="waterway" v="stream" />
	</node>
	<node lat="59.17359444170386" lon="11.709980547058725" id="-14761">
		<tag k="alt_name" v="Vestgårdøa" />
		<tag k="name" v="Vestgårdøya" />
		<tag k="place" v="islet" />
		<tag k="ssr:stedsnr" v="852096" />
	</node>
	<node lat="59.1372846037537" lon="11.64815814622828" id="-14764">
		<tag k="name" v="Klaretjern" />
=======
	<node id="-233584" lat="59.2698527791" lon="11.6628500053">
		<tag k="name" v="Rivesundet" />
		<tag k="natural" v="strait" />
		<tag k="ssr:stedsnr" v="234087" />
	</node>
	<node id="-233583" lat="59.2905583296" lon="11.8016555497">
		<tag k="name" v="Bjørnesundet" />
		<tag k="natural" v="strait" />
		<tag k="ssr:stedsnr" v="233974" />
	</node>
	<node id="-233582" lat="59.2761333322" lon="11.7889166655">
		<tag k="name" v="Erttjern" />
>>>>>>> e1d4bc35ff8a6074a6f2e91616a996b547c36f15
		<tag k="natural" v="water" />
		<tag k="ssr:stedsnr" v="852031" />
	</node>
<<<<<<< HEAD
	<node lat="59.08783888838194" lon="11.695825005642044" id="-14767">
		<tag k="alt_name" v="Tjernimellom" />
		<tag k="name" v="Nordre Tjernimellem" />
=======
	<node id="-233581" lat="59.3089833352" lon="11.7542305582">
		<tag k="name" v="Tjøsteltjern" />
>>>>>>> e1d4bc35ff8a6074a6f2e91616a996b547c36f15
		<tag k="natural" v="water" />
		<tag k="ssr:stedsnr" v="852488" />
	</node>
<<<<<<< HEAD
	<node lat="59.3110833307994" lon="11.707616672070488" id="-14769">
		<tag k="alt_name" v="Langetjern" />
		<tag k="name" v="Langetjernet" />
		<tag k="natural" v="water" />
		<tag k="ssr:stedsnr" v="852634" />
	</node>
	<node lat="59.29721388805804" lon="11.651655563779606" id="-14773">
		<tag k="name" v="Møvik" />
		<tag k="natural" v="bay" />
		<tag k="ssr:stedsnr" v="888027" />
	</node>
	<node lat="59.298602780643385" lon="11.72832222726522" id="-14775">
		<tag k="name" v="Hagetjern" />
=======
	<node id="-233577" lat="59.3165055553" lon="11.7186833373">
		<tag k="name" v="Nebba" />
		<tag k="natural" v="cape" />
		<tag k="ssr:stedsnr" v="233210" />
	</node>
	<node id="-233576" lat="59.2646111112" lon="11.7434333322">
		<tag k="name" v="Hallesbytjernet" />
>>>>>>> e1d4bc35ff8a6074a6f2e91616a996b547c36f15
		<tag k="natural" v="water" />
		<tag k="ssr:stedsnr" v="948064" />
	</node>
<<<<<<< HEAD
	<node lat="59.250641670958764" lon="11.578130554673397" id="-14778">
		<tag k="name" v="Nordre Krokvann" />
		<tag k="natural" v="water" />
		<tag k="ssr:stedsnr" v="948376" />
	</node>
	<node lat="59.29683610814714" lon="11.588791659497701" id="-14784">
		<tag k="name" v="Hellesåbekken" />
		<tag k="ssr:stedsnr" v="961327" />
		<tag k="waterway" v="stream" />
	</node>
	<node lat="59.206227775158105" lon="11.782597219381362" id="-14785">
		<tag k="name" v="Nordre Byrvann" />
=======
	<node id="-233574" lat="59.2802166672" lon="11.6546333374">
		<tag k="name" v="Tenebekken" />
		<tag k="ssr:stedsnr" v="233100" />
		<tag k="waterway" v="stream" />
	</node>
	<node id="-233571" lat="59.0808388924" lon="11.6851888972">
		<tag k="name" v="Mosetjern" />
>>>>>>> e1d4bc35ff8a6074a6f2e91616a996b547c36f15
		<tag k="natural" v="water" />
		<tag k="ssr:stedsnr" v="961169" />
		<tag k="water" v="lake" />
	</node>
<<<<<<< HEAD
	<node lat="59.153002779369565" lon="11.683794442890184" id="-14786">
		<tag k="name" v="Bjørnebauen" />
=======
	<node id="-233570" lat="59.0440000014" lon="11.7046666605">
		<tag k="name" v="Stokkebukt" />
>>>>>>> e1d4bc35ff8a6074a6f2e91616a996b547c36f15
		<tag k="natural" v="bay" />
		<tag k="ssr:stedsnr" v="961480" />
	</node>
<<<<<<< HEAD
	<node lat="59.27778692963134" lon="11.732864828747946" id="-14787">
		<tag k="name" v="Byrvanna" />
		<tag k="natural" v="water" />
		<tag k="ssr:stedsnr" v="961782" />
		<tag k="water" v="lake" />
	</node>
	<node lat="59.158216667822536" lon="11.731405550534665" id="-14788">
		<tag k="name" v="Tripperødbukta" />
=======
	<node id="-233568" lat="59.2313083336" lon="11.6806194525">
		<tag k="name" v="Dysletbukt" />
>>>>>>> e1d4bc35ff8a6074a6f2e91616a996b547c36f15
		<tag k="natural" v="bay" />
		<tag k="ssr:stedsnr" v="961683" />
	</node>
<<<<<<< HEAD
	<node lat="59.32205319614618" lon="11.576865618124971" id="-14789">
		<tag k="name" v="Mellomsjøen" />
=======
	<node id="-233565" lat="59.2599333358" lon="11.5902555601">
		<tag k="name" v="Elgtjern" />
>>>>>>> e1d4bc35ff8a6074a6f2e91616a996b547c36f15
		<tag k="natural" v="water" />
		<tag k="ssr:stedsnr" v="962063" />
	</node>
<<<<<<< HEAD
	<node lat="59.25505277535275" lon="11.697800002049156" id="-14790">
		<tag k="name" v="Iglerødtjern" />
=======
	<node id="-233564" lat="59.2509861107" lon="11.5965416582">
		<tag k="name" v="Skotjern" />
>>>>>>> e1d4bc35ff8a6074a6f2e91616a996b547c36f15
		<tag k="natural" v="water" />
		<tag k="ssr:stedsnr" v="962066" />
	</node>
<<<<<<< HEAD
	<node lat="59.27792777731928" lon="11.712883329896625" id="-14791">
		<tag k="name" v="Dyvlene" />
		<tag k="natural" v="water" />
		<tag k="ssr:stedsnr" v="962080" />
	</node>
	<node lat="59.219647219452504" lon="11.652169442568377" id="-14794">
		<tag k="name" v="Blanketjern" />
=======
	<node id="-233551" lat="59.2869972232" lon="11.6688055624">
		<tag k="alt_name" v="Hestholmen" />
		<tag k="name" v="Hesteholmen" />
		<tag k="place" v="islet" />
		<tag k="ssr:stedsnr" v="3661" />
	</node>
	<node id="-233550" lat="59.2925833311" lon="11.5862555634">
		<tag k="name" v="Gressdalhølen" />
>>>>>>> e1d4bc35ff8a6074a6f2e91616a996b547c36f15
		<tag k="natural" v="water" />
		<tag k="ssr:stedsnr" v="962299" />
	</node>
<<<<<<< HEAD
	<node lat="59.2428916684737" lon="11.57973610666086" id="-14796">
		<tag k="name" v="Blekketjern" />
=======
	<node id="-233548" lat="59.2539621844" lon="11.5596875565">
		<tag k="fixme" v="multiple name tags, choose one and add the other to alt_name" />
		<tag k="name" v="Blanktjerna;Kampetjernet" />
>>>>>>> e1d4bc35ff8a6074a6f2e91616a996b547c36f15
		<tag k="natural" v="water" />
		<tag k="ssr:stedsnr" v="962984" />
	</node>
<<<<<<< HEAD
	<node lat="59.194955554667764" lon="11.599711118983992" id="-14797">
		<tag k="name" v="Moltemyrtjern" />
=======
	<node id="-233546" lat="59.2583916686" lon="11.596858329">
		<tag k="alt_name" v="Setertjern" />
		<tag k="name" v="Setertjernet" />
>>>>>>> e1d4bc35ff8a6074a6f2e91616a996b547c36f15
		<tag k="natural" v="water" />
		<tag k="ssr:stedsnr" v="962975" />
	</node>
<<<<<<< HEAD
	<node lat="59.18267148350553" lon="11.757623337815923" id="-14798">
		<tag k="name" v="Busterudtjerna" />
=======
	<node id="-233543" lat="59.2443444425" lon="11.7676361045">
		<tag k="name" v="Kollerødtjernet" />
>>>>>>> e1d4bc35ff8a6074a6f2e91616a996b547c36f15
		<tag k="natural" v="water" />
		<tag k="ssr:stedsnr" v="981149" />
		<tag k="water" v="lake" />
	</node>
	<node lat="59.08487748530193" lon="11.697421379972662" id="-14800">
		<tag k="name" v="Tjernimellem" />
		<tag k="natural" v="water" />
		<tag k="ssr:stedsnr" v="981158" />
		<tag k="water" v="lake" />
	</node>
	<node lat="59.203392720156224" lon="11.63422636938486" id="-14803">
		<tag k="name" v="Asketjern" />
		<tag k="natural" v="water" />
		<tag k="ssr:stedsnr" v="989417" />
	</node>
	<node lat="59.25499148670001" lon="11.613278194141241" id="-14806">
		<tag k="name" v="Vestre Tretjern" />
		<tag k="natural" v="water" />
		<tag k="ssr:stedsnr" v="1074659" />
	</node>
</osm>
