<?xml version="1.0" encoding="UTF-8"?>
<osm version="0.6" generator="osmapis">
	<node lat="59.26303889171099" lon="11.554974993089449" id="-16152">
		<tag k="alt_name" v="Seterbergrøs" />
		<tag k="man_made" v="cairn" />
		<tag k="name" v="Seterbergrøys" />
		<tag k="place" v="locality" />
		<tag k="ssr:stedsnr" v="3720" />
	</node>
	<node lat="59.29150833372773" lon="11.577919437093634" id="-16326">
		<tag k="man_made" v="cairn" />
		<tag k="name" v="Lervikrøset" />
		<tag k="place" v="locality" />
		<tag k="ssr:stedsnr" v="234335" />
	</node>
	<node lat="59.11991666426551" lon="11.760124991084083" id="-16611">
		<tag k="bridge" v="yes" />
		<tag k="layer" v="1" />
		<tag k="name" v="Lundekloppa" />
		<tag k="ssr:stedsnr" v="706258" />
	</node>
	<node lat="59.23287500082819" lon="11.671644449588744" id="-16697">
		<tag k="bridge" v="yes" />
		<tag k="layer" v="1" />
		<tag k="name" v="Mjølnerød" />
		<tag k="ssr:stedsnr" v="774563" />
	</node>
	<node lat="59.22079444688477" lon="11.69666666384833" id="-16698">
		<tag k="bridge" v="yes" />
		<tag k="layer" v="1" />
		<tag k="name" v="Fossby" />
		<tag k="ssr:stedsnr" v="774565" />
	</node>
	<node lat="59.254997225838906" lon="11.643477776346325" id="-16699">
		<tag k="bridge" v="yes" />
		<tag k="layer" v="1" />
		<tag k="name" v="Verksbrua" />
		<tag k="ssr:stedsnr" v="774571" />
	</node>
	<node lat="59.29945000044846" lon="11.649147227859281" id="-16950">
		<tag k="bridge" v="yes" />
		<tag k="layer" v="1" />
		<tag k="name" v="Stenbrua" />
		<tag k="ssr:stedsnr" v="107535" />
	</node>
	<node lat="59.300797046884874" lon="11.660409660231903" id="-17053">
		<tag k="bridge" v="yes" />
		<tag k="layer" v="1" />
		<tag k="name" v="Strømfoss kanal" />
		<tag k="ssr:stedsnr" v="228572" />
	</node>
	<node lat="59.20628889252211" lon="11.693161108324858" id="-17063">
		<tag k="bridge" v="yes" />
		<tag k="layer" v="1" />
		<tag k="name" v="Skotsbergbrua" />
		<tag k="ssr:stedsnr" v="289545" />
	</node>
	<node lat="59.301518691491225" lon="11.65971930465778" id="-17064">
		<tag k="bridge" v="yes" />
		<tag k="layer" v="1" />
		<tag k="name" v="Strømfoss" />
		<tag k="ssr:stedsnr" v="289551" />
	</node>
	<node lat="59.151866669104216" lon="11.633994444885136" id="-17197">
		<tag k="man_made" v="cairn" />
		<tag k="name" v="Korsrøs" />
		<tag k="place" v="locality" />
		<tag k="ssr:stedsnr" v="415530" />
	</node>
	<node lat="59.148730559114554" lon="11.722744448539444" id="-17316">
		<tag k="man_made" v="quay" />
		<tag k="name" v="Holmegilbrygga" />
		<tag k="place" v="locality" />
		<tag k="ssr:stedsnr" v="597476" />
	</node>
	<node lat="59.1405194404379" lon="11.659824999248789" id="-17402">
		<tag k="bridge" v="yes" />
		<tag k="layer" v="1" />
		<tag k="name" v="Sunds" />
		<tag k="ssr:stedsnr" v="713535" />
	</node>
	<node lat="59.3004944407384" lon="11.660027772363582" id="-17499">
		<tag k="name" v="Strømsfoss" />
		<tag k="old_name" v="Strømsfoss sluse" />
		<tag k="ssr:stedsnr" v="813273" />
		<tag k="waterway" v="lock_gate" />
	</node>
	<node lat="59.258386111211884" lon="11.686619447024293" id="-17512">
		<tag k="bridge" v="yes" />
		<tag k="layer" v="1" />
		<tag k="name" v="Skjulstad" />
		<tag k="ssr:stedsnr" v="835550" />
	</node>
	<node lat="59.24759999963517" lon="11.68053056416259" id="-17526">
		<tag k="man_made" v="quay" />
		<tag k="name" v="Brygga" />
		<tag k="place" v="locality" />
		<tag k="ssr:stedsnr" v="841072" />
	</node>
	<node lat="59.21015358010305" lon="11.669975940748639" id="-17581">
		<tag k="man_made" v="cairn" />
		<tag k="name" v="Skotsbergvarden" />
		<tag k="place" v="locality" />
		<tag k="ssr:stedsnr" v="981298" />
	</node>
</osm>
