<?xml version="1.0" encoding="UTF-8"?>
<osm version="0.6" generator="osmapis">
	<node lat="59.291099996507754" lon="11.60962499924435" id="-24319">
		<tag k="name" v="Asperiholtet" />
		<tag k="place" v="locality" />
		<tag k="ssr:stedsnr" v="37320" />
	</node>
	<node lat="59.29105000215215" lon="11.685494437063856" id="-24321">
		<tag k="name" v="Madserød" />
		<tag k="place" v="locality" />
		<tag k="ssr:stedsnr" v="38039" />
	</node>
	<node lat="59.14590555163235" lon="11.662322216351566" id="-24324">
		<tag k="name" v="Postyrn" />
		<tag k="place" v="locality" />
		<tag k="ssr:stedsnr" v="50469" />
	</node>
	<node lat="59.31184166475498" lon="11.629913884788044" id="-24328">
		<tag k="name" v="Halvorhytta" />
		<tag k="place" v="locality" />
		<tag k="ssr:stedsnr" v="51069" />
	</node>
	<node lat="59.22415833250642" lon="11.646402782932395" id="-24340">
		<tag k="name" v="Ulvehytta" />
		<tag k="place" v="locality" />
		<tag k="ssr:stedsnr" v="52287" />
	</node>
	<node lat="59.14277222105214" lon="11.74122778203692" id="-24357">
		<tag k="amenity" v="place_of_worship" />
		<tag k="denomination" v="lutheran" />
		<tag k="name" v="Holmgill kirke" />
		<tag k="religion" v="christian" />
		<tag k="ssr:stedsnr" v="63023" />
	</node>
	<node lat="59.32974721783075" lon="11.721816665497018" id="-24368">
		<tag k="name" v="Sververlarskas" />
		<tag k="place" v="locality" />
		<tag k="ssr:stedsnr" v="233264" />
	</node>
	<node lat="59.305244448525436" lon="11.625538888966519" id="-24369">
		<tag k="name" v="Siljeholthagen" />
		<tag k="place" v="locality" />
		<tag k="ssr:stedsnr" v="233081" />
	</node>
	<node lat="59.11861388810271" lon="11.76220554746242" id="-24383">
		<tag k="name" v="Brattli" />
		<tag k="place" v="locality" />
		<tag k="ssr:stedsnr" v="99279" />
	</node>
	<node lat="59.17859721938924" lon="11.73685000563228" id="-24386">
		<tag k="name" v="Havrekas" />
		<tag k="place" v="locality" />
		<tag k="ssr:stedsnr" v="234939" />
	</node>
	<node lat="59.10563889118706" lon="11.694344444142208" id="-24391">
		<tag k="name" v="Halvorslund" />
		<tag k="place" v="locality" />
		<tag k="ssr:stedsnr" v="112067" />
	</node>
	<node lat="59.181011114714806" lon="11.75615833100384" id="-24399">
		<tag k="name" v="Feklev" />
		<tag k="place" v="locality" />
		<tag k="ssr:stedsnr" v="112907" />
	</node>
	<node lat="59.290047221672594" lon="11.60752499305682" id="-24431">
		<tag k="name" v="Det høye kastet" />
		<tag k="place" v="locality" />
		<tag k="ssr:stedsnr" v="159367" />
	</node>
	<node lat="59.15264444274851" lon="11.673272226559655" id="-24451">
		<tag k="name" v="Sandekra" />
		<tag k="place" v="locality" />
		<tag k="ssr:stedsnr" v="172505" />
	</node>
	<node lat="59.31283611252554" lon="11.624683331833339" id="-24479">
		<tag k="name" v="Velta" />
		<tag k="place" v="locality" />
		<tag k="ssr:stedsnr" v="220011" />
	</node>
	<node lat="59.286325000386626" lon="11.60271110287433" id="-24505">
		<tag k="name" v="Svendhøyingen" />
		<tag k="place" v="locality" />
		<tag k="ssr:stedsnr" v="280313" />
	</node>
	<node lat="59.08106111201534" lon="11.731850001388553" id="-24510">
		<tag k="name" v="Hesten" />
		<tag k="place" v="locality" />
		<tag k="ssr:stedsnr" v="294095" />
	</node>
	<node lat="59.20661388782525" lon="11.703386108293682" id="-24511">
		<tag k="name" v="Vollebakken" />
		<tag k="place" v="locality" />
		<tag k="ssr:stedsnr" v="294301" />
	</node>
	<node lat="59.16340833383017" lon="11.661863883257121" id="-24515">
		<tag k="name" v="Ola Bøens kas" />
		<tag k="place" v="locality" />
		<tag k="ssr:stedsnr" v="294344" />
	</node>
	<node lat="59.31505555711389" lon="11.639424993064903" id="-24535">
		<tag k="name" v="Sneplogen" />
		<tag k="place" v="locality" />
		<tag k="ssr:stedsnr" v="341009" />
	</node>
	<node lat="59.31324166808805" lon="11.634522216934078" id="-24536">
		<tag k="name" v="Hestemyrholen" />
		<tag k="place" v="locality" />
		<tag k="ssr:stedsnr" v="341014" />
	</node>
	<node lat="59.29336666755561" lon="11.628277777940424" id="-24539">
		<tag k="name" v="Lundestadhella" />
		<tag k="place" v="locality" />
		<tag k="ssr:stedsnr" v="462049" />
	</node>
	<node lat="59.31061111164238" lon="11.766522217986179" id="-24552">
		<tag k="name" v="Fonken" />
		<tag k="place" v="locality" />
		<tag k="ssr:stedsnr" v="354802" />
	</node>
	<node lat="59.31632500419771" lon="11.61748333453897" id="-24559">
		<tag k="name" v="Kileklevene" />
		<tag k="place" v="locality" />
		<tag k="ssr:stedsnr" v="355378" />
	</node>
	<node lat="59.244708336334554" lon="11.681858340340208" id="-24589">
		<tag k="amenity" v="place_of_worship" />
		<tag k="denomination" v="lutheran" />
		<tag k="name" v="Aremark kirke" />
		<tag k="religion" v="christian" />
		<tag k="ssr:stedsnr" v="390309" />
	</node>
	<node lat="59.261438890748714" lon="11.588158337287034" id="-24591">
		<tag k="name" v="Festningen" />
		<tag k="place" v="locality" />
		<tag k="ssr:stedsnr" v="401348" />
	</node>
	<node lat="59.329341666955" lon="11.724016668871974" id="-24599">
		<tag k="name" v="Høkedal" />
		<tag k="place" v="locality" />
		<tag k="ssr:stedsnr" v="415251" />
	</node>
	<node lat="59.14572777603519" lon="11.670913895700055" id="-24600">
		<tag k="name" v="Sundshagen" />
		<tag k="place" v="locality" />
		<tag k="ssr:stedsnr" v="415513" />
	</node>
	<node lat="59.173769442468384" lon="11.67836944256369" id="-24610">
		<tag k="name" v="Ørken" />
		<tag k="place" v="locality" />
		<tag k="ssr:stedsnr" v="476348" />
	</node>
	<node lat="59.306202779348915" lon="11.748119449470629" id="-24628">
		<tag k="name" v="Våla" />
		<tag k="place" v="locality" />
		<tag k="ssr:stedsnr" v="476795" />
	</node>
	<node lat="59.32696388468439" lon="11.665277769129316" id="-24645">
		<tag k="name" v="Stubbene" />
		<tag k="place" v="locality" />
		<tag k="ssr:stedsnr" v="431063" />
	</node>
	<node lat="59.177575002956225" lon="11.776136107784746" id="-24664">
		<tag k="name" v="Skjulsbua" />
		<tag k="place" v="locality" />
		<tag k="ssr:stedsnr" v="476912" />
	</node>
	<node lat="59.31513611519239" lon="11.662752783844462" id="-24709">
		<tag k="name" v="Rotvelta" />
		<tag k="place" v="locality" />
		<tag k="ssr:stedsnr" v="523020" />
	</node>
	<node lat="59.25482499578228" lon="11.758683337421344" id="-24720">
		<tag k="name" v="Kalerød" />
		<tag k="place" v="locality" />
		<tag k="ssr:stedsnr" v="536784" />
	</node>
	<node lat="59.169355554181145" lon="11.641202782454835" id="-24722">
		<tag k="name" v="Engkasene" />
		<tag k="place" v="locality" />
		<tag k="ssr:stedsnr" v="537313" />
	</node>
	<node lat="59.149144441890606" lon="11.650627776124146" id="-24757">
		<tag k="name" v="Saga" />
		<tag k="place" v="locality" />
		<tag k="ssr:stedsnr" v="596469" />
	</node>
	<node lat="59.33508333070798" lon="11.674180559058604" id="-24758">
		<tag k="name" v="Marn" />
		<tag k="place" v="locality" />
		<tag k="ssr:stedsnr" v="597217" />
	</node>
	<node lat="59.324538890967695" lon="11.708725003281343" id="-24786">
		<tag k="name" v="Benkasa" />
		<tag k="place" v="locality" />
		<tag k="ssr:stedsnr" v="779246" />
	</node>
	<node lat="59.319941664859215" lon="11.65454999823318" id="-24787">
		<tag k="name" v="Klokkerhyttslorene" />
		<tag k="place" v="locality" />
		<tag k="ssr:stedsnr" v="644006" />
	</node>
	<node lat="59.33439722408725" lon="11.677344450059538" id="-24799">
		<tag k="name" v="Bauen" />
		<tag k="place" v="locality" />
		<tag k="ssr:stedsnr" v="658212" />
	</node>
	<node lat="59.178019440931386" lon="11.612672214733918" id="-24836">
		<tag k="name" v="Hestesprengen" />
		<tag k="place" v="locality" />
		<tag k="ssr:stedsnr" v="719979" />
	</node>
	<node lat="59.30063333735235" lon="11.643452780493911" id="-24847">
		<tag k="name" v="Neshagen" />
		<tag k="place" v="locality" />
		<tag k="ssr:stedsnr" v="765056" />
	</node>
	<node lat="59.22631389322437" lon="11.749822220805639" id="-24859">
		<tag k="name" v="Lillemoholtet" />
		<tag k="place" v="locality" />
		<tag k="ssr:stedsnr" v="779123" />
	</node>
	<node lat="59.12160278063796" lon="11.687541663987666" id="-24862">
		<tag k="name" v="Kjellskas" />
		<tag k="place" v="locality" />
		<tag k="ssr:stedsnr" v="779452" />
	</node>
	<node lat="59.29434999555754" lon="11.781169452579958" id="-24868">
		<tag k="name" v="Grønne bakke" />
		<tag k="place" v="locality" />
		<tag k="ssr:stedsnr" v="779955" />
	</node>
	<node lat="59.21904721884876" lon="11.608922217528164" id="-24873">
		<tag k="name" v="Seida" />
		<tag k="place" v="locality" />
		<tag k="ssr:stedsnr" v="780965" />
	</node>
	<node lat="59.24929444488286" lon="11.55673333253406" id="-24912">
		<tag k="name" v="Alskens furu" />
		<tag k="place" v="locality" />
		<tag k="ssr:stedsnr" v="826367" />
	</node>
	<node lat="59.236272224926154" lon="11.657266668843503" id="-24918">
		<tag k="name" v="Kjerringholtet" />
		<tag k="place" v="locality" />
		<tag k="ssr:stedsnr" v="827512" />
	</node>
	<node lat="59.1686472251336" lon="11.624330554145136" id="-24922">
		<tag k="name" v="Bastli" />
		<tag k="place" v="locality" />
		<tag k="ssr:stedsnr" v="840329" />
	</node>
	<node lat="59.16602777346628" lon="11.629869444533313" id="-24923">
		<tag k="name" v="Sagholtet" />
		<tag k="place" v="locality" />
		<tag k="ssr:stedsnr" v="840331" />
	</node>
	<node lat="59.18136388453989" lon="11.74030832966476" id="-24934">
		<tag k="name" v="Fyllingbakken" />
		<tag k="place" v="locality" />
		<tag k="ssr:stedsnr" v="841908" />
	</node>
	<node lat="59.191730559425174" lon="11.729738885797493" id="-24935">
		<tag k="name" v="Tempelet" />
		<tag k="place" v="locality" />
		<tag k="ssr:stedsnr" v="841890" />
	</node>
	<node lat="59.14162777511897" lon="11.638611103707458" id="-24967">
		<tag k="name" v="Fjellemoen" />
		<tag k="place" v="locality" />
		<tag k="ssr:stedsnr" v="900515" />
	</node>
	<node lat="59.274244443594306" lon="11.624852768994076" id="-24973">
		<tag k="name" v="Korsdalen" />
		<tag k="place" v="locality" />
		<tag k="ssr:stedsnr" v="901074" />
	</node>
	<node lat="59.3172583313459" lon="11.772530563796968" id="-24982">
		<tag k="name" v="Peisen" />
		<tag k="place" v="locality" />
		<tag k="ssr:stedsnr" v="901962" />
	</node>
	<node lat="59.3140222181047" lon="11.698536110432562" id="-25007">
		<tag k="name" v="Tjernskas" />
		<tag k="place" v="locality" />
		<tag k="ssr:stedsnr" v="961194" />
	</node>
	<node lat="59.244705559264034" lon="11.661447229084379" id="-25038">
		<tag k="name" v="Jenseholtet" />
		<tag k="place" v="locality" />
		<tag k="ssr:stedsnr" v="37514" />
	</node>
	<node lat="59.19181389047751" lon="11.606791669062178" id="-25058">
		<tag k="name" v="Stenli" />
		<tag k="place" v="locality" />
		<tag k="ssr:stedsnr" v="52996" />
	</node>
	<node lat="59.27769721966489" lon="11.5766472246818" id="-25086">
		<tag k="name" v="Skarpsno" />
		<tag k="place" v="locality" />
		<tag k="ssr:stedsnr" v="98326" />
	</node>
	<node lat="59.18358055506832" lon="11.713977773175479" id="-25104">
		<tag k="name" v="Koven" />
		<tag k="place" v="locality" />
		<tag k="ssr:stedsnr" v="112880" />
	</node>
	<node lat="59.21326111142299" lon="11.685775004476008" id="-25116">
		<tag k="name" v="Plassbakken" />
		<tag k="place" v="locality" />
		<tag k="ssr:stedsnr" v="113297" />
	</node>
	<node lat="59.2202222217381" lon="11.70234167453471" id="-25117">
		<tag k="name" v="Reershaugen" />
		<tag k="place" v="locality" />
		<tag k="ssr:stedsnr" v="113299" />
	</node>
	<node lat="59.3280333306589" lon="11.703552785433004" id="-25153">
		<tag k="name" v="Bjørnholtet" />
		<tag k="place" v="locality" />
		<tag k="ssr:stedsnr" v="172250" />
	</node>
	<node lat="59.15482221967282" lon="11.667372226522133" id="-25157">
		<tag k="name" v="Svartekasene" />
		<tag k="place" v="locality" />
		<tag k="ssr:stedsnr" v="172523" />
	</node>
	<node lat="59.15907499989358" lon="11.660319439639702" id="-25158">
		<tag k="name" v="Ødegårdshagen" />
		<tag k="place" v="locality" />
		<tag k="ssr:stedsnr" v="172529" />
	</node>
	<node lat="59.30952499564627" lon="11.750811117632248" id="-25163">
		<tag k="name" v="Elgholtet" />
		<tag k="place" v="locality" />
		<tag k="ssr:stedsnr" v="172824" />
	</node>
	<node lat="59.279569440866204" lon="11.774011117015698" id="-25166">
		<tag k="name" v="Storedal" />
		<tag k="place" v="locality" />
		<tag k="ssr:stedsnr" v="172801" />
	</node>
	<node lat="59.27305000030036" lon="11.629291669141004" id="-25171">
		<tag k="name" v="Guriklev" />
		<tag k="place" v="locality" />
		<tag k="ssr:stedsnr" v="173074" />
	</node>
	<node lat="59.157233335213604" lon="11.659824991850405" id="-25175">
		<tag k="name" v="Lier" />
		<tag k="place" v="locality" />
		<tag k="ssr:stedsnr" v="173478" />
	</node>
	<node lat="59.17841389098962" lon="11.740511113459089" id="-25178">
		<tag k="name" v="Brekkebakken" />
		<tag k="place" v="locality" />
		<tag k="ssr:stedsnr" v="173926" />
	</node>
	<node lat="59.20000000368141" lon="11.702075008298623" id="-25181">
		<tag k="name" v="Fosseslora" />
		<tag k="place" v="locality" />
		<tag k="ssr:stedsnr" v="173877" />
	</node>
	<node lat="59.298611113319915" lon="11.64703888123966" id="-25182">
		<tag k="name" v="Slora" />
		<tag k="place" v="locality" />
		<tag k="ssr:stedsnr" v="174583" />
	</node>
	<node lat="59.15756666800857" lon="11.643477770701383" id="-25222">
		<tag k="name" v="Lundestadholtet" />
		<tag k="place" v="locality" />
		<tag k="ssr:stedsnr" v="293512" />
	</node>
	<node lat="59.22527777996136" lon="11.750036110081528" id="-25227">
		<tag k="name" v="Åsekjær" />
		<tag k="place" v="locality" />
		<tag k="ssr:stedsnr" v="294128" />
	</node>
	<node lat="59.282597219429654" lon="11.624058340151766" id="-25231">
		<tag k="name" v="Skredderkneken" />
		<tag k="place" v="locality" />
		<tag k="ssr:stedsnr" v="294060" />
	</node>
	<node lat="59.20471111087213" lon="11.736294437351981" id="-25234">
		<tag k="name" v="Snekkerkasa" />
		<tag k="place" v="locality" />
		<tag k="ssr:stedsnr" v="294155" />
	</node>
	<node lat="59.16533055936889" lon="11.679844446295784" id="-25239">
		<tag k="name" v="Ulsrødkasa" />
		<tag k="place" v="locality" />
		<tag k="ssr:stedsnr" v="294375" />
	</node>
	<node lat="59.29757222524269" lon="11.612580558555994" id="-25271">
		<tag k="alt_name" v="Nessætre" />
		<tag k="name" v="Nessetret" />
		<tag k="place" v="locality" />
		<tag k="ssr:stedsnr" v="340339" />
	</node>
	<node lat="59.29236944018985" lon="11.591913891794796" id="-25272">
		<tag k="name" v="Dyvel" />
		<tag k="place" v="locality" />
		<tag k="ssr:stedsnr" v="340341" />
	</node>
	<node lat="59.23051666978072" lon="11.75212500864065" id="-25283">
		<tag k="name" v="Fjellbekk" />
		<tag k="place" v="locality" />
		<tag k="ssr:stedsnr" v="354152" />
	</node>
	<node lat="59.20588333330186" lon="11.728450006819122" id="-25289">
		<tag k="name" v="Sagbakken" />
		<tag k="place" v="locality" />
		<tag k="ssr:stedsnr" v="354181" />
	</node>
	<node lat="59.32429444468514" lon="11.663980558440535" id="-25315">
		<tag k="name" v="Vabuhaugen" />
		<tag k="place" v="locality" />
		<tag k="ssr:stedsnr" v="370069" />
	</node>
	<node lat="59.29124999677746" lon="11.618716662119029" id="-25316">
		<tag k="name" v="Storeli" />
		<tag k="place" v="locality" />
		<tag k="ssr:stedsnr" v="401061" />
	</node>
	<node lat="59.15667500066957" lon="11.674250006244415" id="-25327">
		<tag k="name" v="Rugkasa" />
		<tag k="place" v="locality" />
		<tag k="ssr:stedsnr" v="414472" />
	</node>
	<node lat="59.26689166556918" lon="11.772241665861339" id="-25331">
		<tag k="name" v="Gottenborg" />
		<tag k="place" v="locality" />
		<tag k="ssr:stedsnr" v="415142" />
	</node>
	<node lat="59.26464166684556" lon="11.808441671967955" id="-25341">
		<tag k="name" v="Torskastet" />
		<tag k="place" v="locality" />
		<tag k="ssr:stedsnr" v="415890" />
	</node>
	<node lat="59.29308332945349" lon="11.791691665078146" id="-25344">
		<tag k="name" v="Tyvekista" />
		<tag k="place" v="locality" />
		<tag k="ssr:stedsnr" v="415967" />
	</node>
	<node lat="59.32018055266964" lon="11.695333327275064" id="-25405">
		<tag k="name" v="Dammen" />
		<tag k="place" v="locality" />
		<tag k="ssr:stedsnr" v="536183" />
	</node>
	<node lat="59.28226666893928" lon="11.799972222020061" id="-25415">
		<tag k="name" v="Bukkesten" />
		<tag k="place" v="locality" />
		<tag k="ssr:stedsnr" v="536812" />
	</node>
	<node lat="59.15222777581259" lon="11.688580553522726" id="-25422">
		<tag k="name" v="Kakeløsen" />
		<tag k="place" v="locality" />
		<tag k="ssr:stedsnr" v="537456" />
	</node>
	<node lat="59.224536113710364" lon="11.616650008439029" id="-25466">
		<tag k="name" v="Smia" />
		<tag k="place" v="locality" />
		<tag k="ssr:stedsnr" v="597344" />
	</node>
	<node lat="59.24815000158711" lon="11.821522214110768" id="-25475">
		<tag k="name" v="Mosbekkhagen" />
		<tag k="place" v="locality" />
		<tag k="ssr:stedsnr" v="597876" />
	</node>
	<node lat="59.27803889337206" lon="11.572986105373126" id="-25497">
		<tag k="name" v="Gjeterfjøset" />
		<tag k="place" v="locality" />
		<tag k="ssr:stedsnr" v="643330" />
	</node>
	<node lat="59.24580000271409" lon="11.761408331878018" id="-25519">
		<tag k="name" v="Furuset" />
		<tag k="place" v="locality" />
		<tag k="ssr:stedsnr" v="658132" />
	</node>
	<node lat="59.188130555073414" lon="11.624511109489598" id="-25529">
		<tag k="name" v="Fugleleken" />
		<tag k="place" v="locality" />
		<tag k="ssr:stedsnr" v="658857" />
	</node>
	<node lat="59.23275832927304" lon="11.637005561305102" id="-25535">
		<tag k="name" v="Fylaholtet" />
		<tag k="place" v="locality" />
		<tag k="ssr:stedsnr" v="705547" />
	</node>
	<node lat="59.311769444703614" lon="11.667463882224478" id="-25538">
		<tag k="name" v="Brekkebakken" />
		<tag k="place" v="locality" />
		<tag k="ssr:stedsnr" v="705037" />
	</node>
	<node lat="59.30340555133463" lon="11.641491668127903" id="-25540">
		<tag k="name" v="Madseholtet" />
		<tag k="place" v="locality" />
		<tag k="ssr:stedsnr" v="705053" />
	</node>
	<node lat="59.24665833401017" lon="11.780650007042603" id="-25559">
		<tag k="name" v="Bjørnestokken" />
		<tag k="place" v="locality" />
		<tag k="ssr:stedsnr" v="719761" />
	</node>
	<node lat="59.2563749986656" lon="11.770002770189068" id="-25566">
		<tag k="name" v="Reset" />
		<tag k="place" v="locality" />
		<tag k="ssr:stedsnr" v="719772" />
	</node>
	<node lat="59.235969446078656" lon="11.821338882150323" id="-25594">
		<tag k="name" v="Svarte odde" />
		<tag k="place" v="locality" />
		<tag k="ssr:stedsnr" v="779130" />
	</node>
	<node lat="59.21533055627076" lon="11.759416659438658" id="-25596">
		<tag k="name" v="Damslor" />
		<tag k="place" v="locality" />
		<tag k="ssr:stedsnr" v="779196" />
	</node>
	<node lat="59.1687388930391" lon="11.688422230136476" id="-25599">
		<tag k="name" v="Nebba" />
		<tag k="place" v="locality" />
		<tag k="ssr:stedsnr" v="779372" />
	</node>
	<node lat="59.20768333467901" lon="11.700858340646578" id="-25605">
		<tag k="name" v="Vollene" />
		<tag k="place" v="locality" />
		<tag k="ssr:stedsnr" v="780284" />
	</node>
	<node lat="59.1888555575594" lon="11.600630556470293" id="-25621">
		<tag k="name" v="Tjæregrava" />
		<tag k="place" v="locality" />
		<tag k="ssr:stedsnr" v="780995" />
	</node>
	<node lat="59.30132222488762" lon="11.655980554919706" id="-25643">
		<tag k="name" v="Analyst" />
		<tag k="place" v="locality" />
		<tag k="ssr:stedsnr" v="827043" />
	</node>
	<node lat="59.22979166446652" lon="11.69449167308687" id="-25698">
		<tag k="name" v="Sorgenfri" />
		<tag k="place" v="locality" />
		<tag k="ssr:stedsnr" v="947459" />
	</node>
	<node lat="59.29240555435406" lon="11.605000004621258" id="-25703">
		<tag k="alt_name" v="Lerviksætre" />
		<tag k="name" v="Lerviksetret" />
		<tag k="place" v="locality" />
		<tag k="ssr:stedsnr" v="948347" />
	</node>
	<node lat="59.17751666676691" lon="11.62555277762083" id="-25706">
		<tag k="name" v="Stenmoen" />
		<tag k="place" v="locality" />
		<tag k="ssr:stedsnr" v="949252" />
	</node>
	<node lat="59.12742500214084" lon="11.674030556249521" id="-25717">
		<tag k="name" v="Seterholtet" />
		<tag k="place" v="locality" />
		<tag k="ssr:stedsnr" v="961453" />
	</node>
</osm>
