<?xml version="1.0" encoding="UTF-8"?>
<<<<<<< HEAD
<osm version="0.6" generator="osmapis">
	<node lat="59.152097218028544" lon="11.64338889488978" id="-13380">
		<tag k="name" v="Nøklemose" />
		<tag k="natural" v="wetland" />
		<tag k="ssr:stedsnr" v="232410" />
	</node>
	<node lat="59.25018888956604" lon="11.807391670784638" id="-13405">
		<tag k="name" v="Runde mose" />
		<tag k="natural" v="wetland" />
		<tag k="ssr:stedsnr" v="51872" />
	</node>
	<node lat="59.251188887525075" lon="11.7897722140889" id="-13406">
		<tag k="name" v="Bjørnemosen" />
		<tag k="natural" v="wetland" />
		<tag k="ssr:stedsnr" v="51876" />
	</node>
	<node lat="59.223941663133964" lon="11.656938884090295" id="-13411">
		<tag k="name" v="Bjørnemyr" />
=======
<osm generator="osmapis" version="0.6">
	<node id="-234496" lat="59.2553222179" lon="11.7724944426">
		<tag k="name" v="Resmyra" />
>>>>>>> e1d4bc35ff8a6074a6f2e91616a996b547c36f15
		<tag k="natural" v="wetland" />
		<tag k="ssr:stedsnr" v="52283" />
	</node>
<<<<<<< HEAD
	<node lat="59.23236111446573" lon="11.769558330643555" id="-13420">
		<tag k="alt_name" v="Rødmyr" />
		<tag k="name" v="Rørmyr" />
=======
	<node id="-234493" lat="59.1546555523" lon="11.6742500027">
		<tag k="name" v="Ørnemyr" />
>>>>>>> e1d4bc35ff8a6074a6f2e91616a996b547c36f15
		<tag k="natural" v="wetland" />
		<tag k="ssr:stedsnr" v="62123" />
	</node>
<<<<<<< HEAD
	<node lat="59.27437778172293" lon="11.703805553735071" id="-13452">
		<tag k="name" v="Skrikebergmosen" />
=======
	<node id="-234492" lat="59.1569083317" lon="11.6817555581">
		<tag k="name" v="Rustadmosen" />
>>>>>>> e1d4bc35ff8a6074a6f2e91616a996b547c36f15
		<tag k="natural" v="wetland" />
		<tag k="ssr:stedsnr" v="246678" />
	</node>
<<<<<<< HEAD
	<node lat="59.2726638897244" lon="11.720083339556036" id="-13453">
		<tag k="name" v="Hallesbymosen" />
=======
	<node id="-234491" lat="59.1541166695" lon="11.6403416734">
		<tag k="name" v="Bredmose" />
>>>>>>> e1d4bc35ff8a6074a6f2e91616a996b547c36f15
		<tag k="natural" v="wetland" />
		<tag k="ssr:stedsnr" v="246692" />
	</node>
<<<<<<< HEAD
	<node lat="59.29296111241466" lon="11.614474992822755" id="-13455">
		<tag k="name" v="Trollemyr" />
=======
	<node id="-234489" lat="59.1321083352" lon="11.6409722186">
		<tag k="name" v="Gåsemosen" />
>>>>>>> e1d4bc35ff8a6074a6f2e91616a996b547c36f15
		<tag k="natural" v="wetland" />
		<tag k="ssr:stedsnr" v="98303" />
	</node>
<<<<<<< HEAD
	<node lat="59.217883332309576" lon="11.600174991950292" id="-13474">
		<tag k="landuse" v="quarry" />
		<tag k="name" v="Gruba" />
		<tag k="ssr:stedsnr" v="113968" />
	</node>
	<node lat="59.29114444699151" lon="11.717552775271947" id="-13482">
		<tag k="fixme" v="multiple name tags, choose one and add the other to alt_name" />
		<tag k="name" v="Fugleleikmosen;Fuglelekmosen" />
=======
	<node id="-233976" lat="59.2582916687" lon="11.7845111089">
		<tag k="name" v="Grådalsmosen" />
>>>>>>> e1d4bc35ff8a6074a6f2e91616a996b547c36f15
		<tag k="natural" v="wetland" />
		<tag k="ssr:stedsnr" v="124630" />
	</node>
<<<<<<< HEAD
	<node lat="59.31159444763071" lon="11.683900002346741" id="-13492">
		<tag k="name" v="Trollemosen" />
=======
	<node id="-233969" lat="59.1629638852" lon="11.6454333329">
		<tag k="name" v="Hagemyr" />
>>>>>>> e1d4bc35ff8a6074a6f2e91616a996b547c36f15
		<tag k="natural" v="wetland" />
		<tag k="ssr:stedsnr" v="159055" />
	</node>
<<<<<<< HEAD
	<node lat="59.207052777021396" lon="11.771241661033516" id="-13497">
		<tag k="name" v="Korsblekkemyr" />
=======
	<node id="-234478" lat="59.1137888878" lon="11.7059388877">
		<tag k="name" v="Kalkemyrene" />
>>>>>>> e1d4bc35ff8a6074a6f2e91616a996b547c36f15
		<tag k="natural" v="wetland" />
		<tag k="ssr:stedsnr" v="172207" />
	</node>
<<<<<<< HEAD
	<node lat="59.1711277768562" lon="11.626516665237965" id="-13500">
		<tag k="name" v="Klunkemosen" />
=======
	<node id="-233962" lat="59.2739277785" lon="11.7095638827">
		<tag k="name" v="Kloppemosen" />
>>>>>>> e1d4bc35ff8a6074a6f2e91616a996b547c36f15
		<tag k="natural" v="wetland" />
		<tag k="ssr:stedsnr" v="172362" />
	</node>
<<<<<<< HEAD
	<node lat="59.194719441750756" lon="11.694841658911336" id="-13551">
		<tag k="name" v="Nordbyskogen" />
		<tag k="place" v="locality" />
		<tag k="ssr:stedsnr" v="244085" />
	</node>
	<node lat="59.094183333879734" lon="11.754652774851314" id="-13563">
		<tag k="name" v="Langemyr" />
=======
	<node id="-233757" lat="59.2261111086" lon="11.6190861149">
		<tag k="name" v="Smimyrene" />
		<tag k="natural" v="wetland" />
		<tag k="ssr:stedsnr" v="462490" />
	</node>
	<node id="-234469" lat="59.310908337" lon="11.6888361032">
		<tag k="name" v="Langmyra" />
>>>>>>> e1d4bc35ff8a6074a6f2e91616a996b547c36f15
		<tag k="natural" v="wetland" />
		<tag k="ssr:stedsnr" v="245427" />
	</node>
<<<<<<< HEAD
	<node lat="59.226111108633255" lon="11.619086114864581" id="-13578">
		<tag k="name" v="Smimyrene" />
=======
	<node id="-233954" lat="59.1587833366" lon="11.6250972204">
		<tag k="name" v="Hiåsmyra" />
>>>>>>> e1d4bc35ff8a6074a6f2e91616a996b547c36f15
		<tag k="natural" v="wetland" />
		<tag k="ssr:stedsnr" v="462490" />
	</node>
<<<<<<< HEAD
	<node lat="59.287497225710865" lon="11.749788885604309" id="-13586">
		<tag k="name" v="Delingsmyrene" />
=======
	<node id="-234977" lat="59.3331651921" lon="11.7161044285">
		<tag k="name" v="Dyvelen" />
		<tag k="natural" v="wetland" />
		<tag k="ssr:stedsnr" v="610650" />
	</node>
	<node id="-234661" lat="59.2109416679" lon="11.7451694403">
		<tag k="name" v="Vintermyr" />
		<tag k="natural" v="wetland" />
		<tag k="ssr:stedsnr" v="537143" />
	</node>
	<node id="-233948" lat="59.3085138871" lon="11.6474583309">
		<tag k="name" v="Torgetmosen" />
>>>>>>> e1d4bc35ff8a6074a6f2e91616a996b547c36f15
		<tag k="natural" v="wetland" />
		<tag k="ssr:stedsnr" v="294781" />
	</node>
<<<<<<< HEAD
	<node lat="59.24665833401017" lon="11.780650007042603" id="-13587">
		<tag k="name" v="Korsmosen" />
=======
	<node id="-233946" lat="59.0793083304" lon="11.6857861055">
		<tag k="name" v="Ørnelundmosen" />
>>>>>>> e1d4bc35ff8a6074a6f2e91616a996b547c36f15
		<tag k="natural" v="wetland" />
		<tag k="ssr:stedsnr" v="294783" />
	</node>
<<<<<<< HEAD
	<node lat="59.31090833697309" lon="11.688836103185329" id="-13604">
		<tag k="name" v="Langmyra" />
=======
	<node id="-233637" lat="59.2743777817" lon="11.7038055537">
		<tag k="name" v="Skrikebergmosen" />
		<tag k="natural" v="wetland" />
		<tag k="ssr:stedsnr" v="246678" />
	</node>
	<node id="-233940" lat="59.2915972203" lon="11.5861472274">
		<tag k="name" v="Lervikmosen" />
>>>>>>> e1d4bc35ff8a6074a6f2e91616a996b547c36f15
		<tag k="natural" v="wetland" />
		<tag k="ssr:stedsnr" v="341045" />
	</node>
<<<<<<< HEAD
	<node lat="59.187269447091005" lon="11.757661112043738" id="-13627">
		<tag k="name" v="Hegårdsmosen" />
=======
	<node id="-233939" lat="59.2798888929" lon="11.6148944534">
		<tag k="name" v="Jerpedalsmyra" />
>>>>>>> e1d4bc35ff8a6074a6f2e91616a996b547c36f15
		<tag k="natural" v="wetland" />
		<tag k="ssr:stedsnr" v="355905" />
	</node>
<<<<<<< HEAD
	<node lat="59.182699995537554" lon="11.744286114425389" id="-13628">
		<tag k="name" v="Tømmermyr" />
=======
	<node id="-233938" lat="59.2933666677" lon="11.6238166645">
		<tag k="name" v="Fuglelekmyra" />
>>>>>>> e1d4bc35ff8a6074a6f2e91616a996b547c36f15
		<tag k="natural" v="wetland" />
		<tag k="ssr:stedsnr" v="355909" />
	</node>
<<<<<<< HEAD
	<node lat="59.28674166690466" lon="11.619091666459592" id="-13638">
		<tag k="name" v="Berggrøtmyra" />
		<tag k="natural" v="wetland" />
		<tag k="ssr:stedsnr" v="476082" />
	</node>
	<node lat="59.26961111319251" lon="11.708466669902384" id="-13640">
		<tag k="name" v="Trollmosen" />
=======
	<node id="-234231" lat="59.2282999957" lon="11.7532249954">
		<tag k="name" v="Langemose" />
		<tag k="natural" v="wetland" />
		<tag k="ssr:stedsnr" v="51145" />
	</node>
	<node id="-233841" lat="59.0886055569" lon="11.6984555576">
		<tag k="name" v="Rødmyrhølet" />
		<tag k="natural" v="wetland" />
		<tag k="ssr:stedsnr" v="658041" />
	</node>
	<node id="-234938" lat="59.2435111147" lon="11.7890750001">
		<tag k="name" v="Hvittenstensmosen" />
>>>>>>> e1d4bc35ff8a6074a6f2e91616a996b547c36f15
		<tag k="natural" v="wetland" />
		<tag k="ssr:stedsnr" v="476095" />
	</node>
<<<<<<< HEAD
	<node lat="59.321841667023236" lon="11.636188897601981" id="-13714">
		<tag k="name" v="Bredmosen" />
=======
	<node id="-234933" lat="59.2623777794" lon="11.7071194367">
		<tag k="alt_name" v="Langemyra" />
		<tag k="name" v="Langmyra" />
>>>>>>> e1d4bc35ff8a6074a6f2e91616a996b547c36f15
		<tag k="natural" v="wetland" />
		<tag k="ssr:stedsnr" v="431054" />
	</node>
<<<<<<< HEAD
	<node lat="59.32433055987626" lon="11.647175000808708" id="-13715">
		<tag k="name" v="Otermyr" />
=======
	<node id="-233897" lat="59.2530055558" lon="11.7905527705">
		<tag k="name" v="Langemyr" />
>>>>>>> e1d4bc35ff8a6074a6f2e91616a996b547c36f15
		<tag k="natural" v="wetland" />
		<tag k="ssr:stedsnr" v="431058" />
	</node>
<<<<<<< HEAD
	<node lat="59.12785277928973" lon="11.691125005038403" id="-13725">
		<tag k="name" v="Pålemyrene" />
=======
	<node id="-234396" lat="59.1787277821" lon="11.7719055567">
		<tag k="name" v="Tapmyr" />
>>>>>>> e1d4bc35ff8a6074a6f2e91616a996b547c36f15
		<tag k="natural" v="wetland" />
		<tag k="ssr:stedsnr" v="475473" />
	</node>
<<<<<<< HEAD
	<node lat="59.25300555583922" lon="11.790552770473287" id="-13734">
		<tag k="name" v="Langemyr" />
		<tag k="natural" v="wetland" />
		<tag k="ssr:stedsnr" v="476857" />
	</node>
	<node lat="59.26760833089983" lon="11.624658336310217" id="-13756">
		<tag k="name" v="Februmosen" />
		<tag k="natural" v="wetland" />
		<tag k="ssr:stedsnr" v="523514" />
	</node>
	<node lat="59.202894445829266" lon="11.75126666181044" id="-13776">
		<tag k="name" v="Rødstjernsmosen" />
=======
	<node id="-233966" lat="59.2326222258" lon="11.7814888806">
		<tag k="name" v="Bredmosen" />
		<tag k="natural" v="wetland" />
		<tag k="ssr:stedsnr" v="719122" />
	</node>
	<node id="-234382" lat="59.3188527775" lon="11.7689861048">
		<tag k="name" v="Rørmyr" />
		<tag k="natural" v="wetland" />
		<tag k="ssr:stedsnr" v="172953" />
	</node>
	<node id="-234887" lat="59.2673638907" lon="11.7436722231">
		<tag k="name" v="Hallesbymosen" />
>>>>>>> e1d4bc35ff8a6074a6f2e91616a996b547c36f15
		<tag k="natural" v="wetland" />
		<tag k="ssr:stedsnr" v="537903" />
	</node>
<<<<<<< HEAD
	<node lat="59.20267499931642" lon="11.704350005458048" id="-13784">
		<tag k="name" v="Tillermyra" />
=======
	<node id="-234885" lat="59.3083361099" lon="11.637619439">
		<tag k="name" v="Langemyr" />
>>>>>>> e1d4bc35ff8a6074a6f2e91616a996b547c36f15
		<tag k="natural" v="wetland" />
		<tag k="ssr:stedsnr" v="547196" />
	</node>
<<<<<<< HEAD
	<node lat="59.081552773864416" lon="11.749327772190691" id="-13800">
		<tag k="name" v="Lamosen" />
=======
	<node id="-234371" lat="59.1711277769" lon="11.6265166652">
		<tag k="name" v="Klunkemosen" />
>>>>>>> e1d4bc35ff8a6074a6f2e91616a996b547c36f15
		<tag k="natural" v="wetland" />
		<tag k="ssr:stedsnr" v="584409" />
	</node>
<<<<<<< HEAD
	<node lat="59.18758333171369" lon="11.773288887966979" id="-13807">
		<tag k="name" v="Orrelekmyr" />
=======
	<node id="-234370" lat="59.326841667" lon="11.7142361161">
		<tag k="name" v="Bukkemosen" />
>>>>>>> e1d4bc35ff8a6074a6f2e91616a996b547c36f15
		<tag k="natural" v="wetland" />
		<tag k="ssr:stedsnr" v="597932" />
	</node>
<<<<<<< HEAD
	<node lat="59.22742778191192" lon="11.659208333977542" id="-13836">
		<tag k="name" v="Rottemyr" />
=======
	<node id="-234368" lat="59.207052777" lon="11.771241661">
		<tag k="name" v="Korsblekkemyr" />
>>>>>>> e1d4bc35ff8a6074a6f2e91616a996b547c36f15
		<tag k="natural" v="wetland" />
		<tag k="ssr:stedsnr" v="644514" />
	</node>
<<<<<<< HEAD
	<node lat="59.08860555687316" lon="11.698455557642122" id="-13841">
		<tag k="name" v="Rødmyrhølet" />
=======
	<node id="-233854" lat="59.190600004" lon="11.6987055521">
		<tag k="name" v="Delemyr" />
>>>>>>> e1d4bc35ff8a6074a6f2e91616a996b547c36f15
		<tag k="natural" v="wetland" />
		<tag k="ssr:stedsnr" v="658041" />
	</node>
<<<<<<< HEAD
	<node lat="59.0986833365935" lon="11.741547225723318" id="-13847">
=======
	<node id="-233851" lat="59.0986833366" lon="11.7415472257">
>>>>>>> e1d4bc35ff8a6074a6f2e91616a996b547c36f15
		<tag k="name" v="Mortvannsmyr" />
		<tag k="natural" v="wetland" />
		<tag k="ssr:stedsnr" v="658413" />
	</node>
<<<<<<< HEAD
	<node lat="59.3059805538174" lon="11.73689166937888" id="-13849">
		<tag k="name" v="Vintermosen" />
=======
	<node id="-234872" lat="59.29658611" lon="11.7071166677">
		<tag k="name" v="Langnesmosen" />
		<tag k="natural" v="wetland" />
		<tag k="ssr:stedsnr" v="827052" />
	</node>
	<node id="-233845" lat="59.2416027774" lon="11.8164388947">
		<tag k="name" v="Bråtemosen" />
>>>>>>> e1d4bc35ff8a6074a6f2e91616a996b547c36f15
		<tag k="natural" v="wetland" />
		<tag k="ssr:stedsnr" v="658782" />
	</node>
<<<<<<< HEAD
	<node lat="59.18737499666283" lon="11.767511116745878" id="-13851">
		<tag k="name" v="Bjørnelimosen" />
		<tag k="natural" v="wetland" />
		<tag k="ssr:stedsnr" v="658903" />
	</node>
	<node lat="59.26100555923545" lon="11.574211104322336" id="-13866">
		<tag k="name" v="Brutjernmosen" />
=======
	<node id="-234865" lat="59.2893194412" lon="11.5853777745">
		<tag k="name" v="Høymyra" />
>>>>>>> e1d4bc35ff8a6074a6f2e91616a996b547c36f15
		<tag k="natural" v="wetland" />
		<tag k="ssr:stedsnr" v="705412" />
	</node>
<<<<<<< HEAD
	<node lat="59.25829166869765" lon="11.784511108884669" id="-13872">
		<tag k="name" v="Grådalsmosen" />
=======
	<node id="-234864" lat="59.2821277771" lon="11.5959972257">
		<tag k="name" v="Rivehøymyr" />
>>>>>>> e1d4bc35ff8a6074a6f2e91616a996b547c36f15
		<tag k="natural" v="wetland" />
		<tag k="ssr:stedsnr" v="719770" />
	</node>
<<<<<<< HEAD
	<node lat="59.15373055671079" lon="11.651874999080794" id="-13878">
		<tag k="name" v="Hyttemyr" />
=======
	<node id="-233836" lat="59.3243305599" lon="11.6471750008">
		<tag k="name" v="Otermyr" />
>>>>>>> e1d4bc35ff8a6074a6f2e91616a996b547c36f15
		<tag k="natural" v="wetland" />
		<tag k="ssr:stedsnr" v="900498" />
	</node>
<<<<<<< HEAD
	<node lat="59.2775861131131" lon="11.626638888700377" id="-13881">
		<tag k="name" v="Mattismoltemyr" />
=======
	<node id="-233835" lat="59.321841667" lon="11.6361888976">
		<tag k="name" v="Bredmosen" />
>>>>>>> e1d4bc35ff8a6074a6f2e91616a996b547c36f15
		<tag k="natural" v="wetland" />
		<tag k="ssr:stedsnr" v="901075" />
	</node>
<<<<<<< HEAD
	<node lat="59.31641666575046" lon="11.701450002789553" id="-13887">
		<tag k="name" v="Hestemyr" />
=======
	<node id="-234344" lat="59.2601361114" lon="11.7146444513">
		<tag k="name" v="Bredmosen" />
>>>>>>> e1d4bc35ff8a6074a6f2e91616a996b547c36f15
		<tag k="natural" v="wetland" />
		<tag k="ssr:stedsnr" v="901183" />
	</node>
<<<<<<< HEAD
	<node lat="59.24347499832861" lon="11.771866670953953" id="-13891">
		<tag k="name" v="Seterbrumosen" />
=======
	<node id="-233829" lat="59.3052888905" lon="11.5995361127">
		<tag k="name" v="Lervikmosen" />
>>>>>>> e1d4bc35ff8a6074a6f2e91616a996b547c36f15
		<tag k="natural" v="wetland" />
		<tag k="ssr:stedsnr" v="901121" />
	</node>
<<<<<<< HEAD
	<node lat="59.1092361115143" lon="11.73409166065903" id="-13915">
		<tag k="name" v="Jacobsmyr" />
		<tag k="natural" v="wetland" />
		<tag k="ssr:stedsnr" v="766388" />
	</node>
	<node lat="59.21608611086289" lon="11.648755557788274" id="-13929">
=======
	<node id="-234336" lat="59.291144447" lon="11.7175527753">
		<tag k="fixme" v="multiple name tags, choose one and add the other to alt_name" />
		<tag k="name" v="Fugleleikmosen;Fuglelekmosen" />
		<tag k="natural" v="wetland" />
		<tag k="ssr:stedsnr" v="124630" />
	</node>
	<node id="-234320" lat="59.2178833323" lon="11.600174992">
		<tag k="landuse" v="quarry" />
		<tag k="name" v="Gruba" />
		<tag k="ssr:stedsnr" v="113968" />
	</node>
	<node id="-234831" lat="59.2160861109" lon="11.6487555578">
>>>>>>> e1d4bc35ff8a6074a6f2e91616a996b547c36f15
		<tag k="historic" v="shieling" />
		<tag k="name" v="Tuseter" />
		<tag k="place" v="locality" />
		<tag k="ssr:stedsnr" v="780304" />
	</node>
<<<<<<< HEAD
	<node lat="59.220508337675334" lon="11.6911111059058" id="-13930">
=======
	<node id="-234829" lat="59.2205083377" lon="11.6911111059">
>>>>>>> e1d4bc35ff8a6074a6f2e91616a996b547c36f15
		<tag k="name" v="Sandslora" />
		<tag k="natural" v="beach" />
		<tag k="ssr:stedsnr" v="780300" />
		<tag k="surface" v="sand" />
	</node>
<<<<<<< HEAD
	<node lat="59.289319441201144" lon="11.585377774527862" id="-13974">
		<tag k="name" v="Høymyra" />
=======
	<node id="-234311" lat="59.1761722242" lon="11.7732749956">
		<tag k="name" v="Langemyr" />
>>>>>>> e1d4bc35ff8a6074a6f2e91616a996b547c36f15
		<tag k="natural" v="wetland" />
		<tag k="ssr:stedsnr" v="826366" />
	</node>
<<<<<<< HEAD
	<node lat="59.28934166996043" lon="11.766199993718685" id="-13991">
		<tag k="name" v="Bredmose" />
		<tag k="natural" v="wetland" />
		<tag k="ssr:stedsnr" v="840828" />
	</node>
	<node lat="59.262377779383435" lon="11.707119436650322" id="-14007">
		<tag k="alt_name" v="Langemyra" />
		<tag k="name" v="Langmyra" />
=======
	<node id="-233611" lat="59.2682749993" lon="11.6930722269">
		<tag k="name" v="Kloppemosen" />
		<tag k="natural" v="wetland" />
		<tag k="ssr:stedsnr" v="64736" />
	</node>
	<node id="-234798" lat="59.2805833341" lon="11.6245527725">
		<tag k="name" v="Storemyr" />
>>>>>>> e1d4bc35ff8a6074a6f2e91616a996b547c36f15
		<tag k="natural" v="wetland" />
		<tag k="ssr:stedsnr" v="853736" />
	</node>
<<<<<<< HEAD
	<node lat="59.176133331690785" lon="11.643755549766537" id="-14015">
		<tag k="name" v="Åsgårdmosen" />
		<tag k="natural" v="wetland" />
		<tag k="ssr:stedsnr" v="887254" />
	</node>
	<node lat="59.23292499593627" lon="11.65402499119685" id="-14017">
		<tag k="name" v="Lakasmyr" />
=======
	<node id="-233772" lat="59.2696111132" lon="11.7084666699">
		<tag k="name" v="Trollmosen" />
		<tag k="natural" v="wetland" />
		<tag k="ssr:stedsnr" v="476095" />
	</node>
	<node id="-233770" lat="59.2867416669" lon="11.6190916665">
		<tag k="name" v="Berggrøtmyra" />
>>>>>>> e1d4bc35ff8a6074a6f2e91616a996b547c36f15
		<tag k="natural" v="wetland" />
		<tag k="ssr:stedsnr" v="887505" />
	</node>
<<<<<<< HEAD
	<node lat="59.313961115015005" lon="11.650708333550483" id="-14044">
		<tag k="name" v="Bjørnemyr" />
=======
	<node id="-234280" lat="59.2838916669" lon="11.6138666751">
		<tag k="name" v="Berggrøtmosen" />
>>>>>>> e1d4bc35ff8a6074a6f2e91616a996b547c36f15
		<tag k="natural" v="wetland" />
		<tag k="ssr:stedsnr" v="913607" />
	</node>
<<<<<<< HEAD
	<node lat="59.18039444317249" lon="11.662555558587805" id="-14054">
		<tag k="name" v="Mosserødmosen" />
=======
	<node id="-234788" lat="59.2292944436" lon="11.6645083333">
		<tag k="name" v="Moltemosen" />
>>>>>>> e1d4bc35ff8a6074a6f2e91616a996b547c36f15
		<tag k="natural" v="wetland" />
		<tag k="ssr:stedsnr" v="948284" />
	</node>
<<<<<<< HEAD
	<node lat="59.24351111471899" lon="11.789075000068106" id="-14057">
		<tag k="name" v="Hvittenstensmosen" />
=======
	<node id="-234787" lat="59.1092361115" lon="11.7340916607">
		<tag k="name" v="Jacobsmyr" />
>>>>>>> e1d4bc35ff8a6074a6f2e91616a996b547c36f15
		<tag k="natural" v="wetland" />
		<tag k="ssr:stedsnr" v="961136" />
	</node>
<<<<<<< HEAD
	<node lat="59.31851389072991" lon="11.677272223685351" id="-14099">
		<tag k="alt_name" v="Bingemosen" />
		<tag k="name" v="Bingmyr" />
=======
	<node id="-234781" lat="59.3283305525" lon="11.6804888919">
		<tag k="name" v="Bøenmosen" />
>>>>>>> e1d4bc35ff8a6074a6f2e91616a996b547c36f15
		<tag k="natural" v="wetland" />
		<tag k="ssr:stedsnr" v="3592" />
	</node>
<<<<<<< HEAD
	<node lat="59.24586111142717" lon="11.570824997337755" id="-14102">
		<tag k="name" v="Følinghagen" />
		<tag k="place" v="locality" />
		<tag k="ssr:stedsnr" v="24858" />
	</node>
	<node lat="59.294272224545566" lon="11.60920000764491" id="-14106">
		<tag k="name" v="Setermosen" />
=======
	<node id="-234779" lat="59.2274277819" lon="11.659208334">
		<tag k="name" v="Rottemyr" />
>>>>>>> e1d4bc35ff8a6074a6f2e91616a996b547c36f15
		<tag k="natural" v="wetland" />
		<tag k="ssr:stedsnr" v="37315" />
	</node>
<<<<<<< HEAD
	<node lat="59.29101110851797" lon="11.602838886076833" id="-14108">
		<tag k="name" v="Storedalsmyra" />
=======
	<node id="-234256" lat="59.2214333363" lon="11.7430999952">
		<tag k="alt_name" v="Fuglelekmosen" />
		<tag k="name" v="Fugleleikmosen" />
>>>>>>> e1d4bc35ff8a6074a6f2e91616a996b547c36f15
		<tag k="natural" v="wetland" />
		<tag k="ssr:stedsnr" v="37328" />
	</node>
<<<<<<< HEAD
	<node lat="59.24889444534439" lon="11.620975002069425" id="-14110">
		<tag k="name" v="Ekelimyr" />
		<tag k="natural" v="wetland" />
		<tag k="ssr:stedsnr" v="37478" />
	</node>
	<node lat="59.10427499934588" lon="11.701941661743883" id="-14122">
		<tag k="name" v="Hølmyr" />
=======
	<node id="-234253" lat="59.2323611145" lon="11.7695583306">
		<tag k="alt_name" v="Rødmyr" />
		<tag k="name" v="Rørmyr" />
		<tag k="natural" v="wetland" />
		<tag k="ssr:stedsnr" v="62123" />
	</node>
	<node id="-234249" lat="59.1995111138" lon="11.7489805541">
		<tag k="alt_name" v="Svartemose" />
		<tag k="name" v="Svartemosen" />
>>>>>>> e1d4bc35ff8a6074a6f2e91616a996b547c36f15
		<tag k="natural" v="wetland" />
		<tag k="ssr:stedsnr" v="51052" />
	</node>
<<<<<<< HEAD
	<node lat="59.22829999566624" lon="11.753224995403544" id="-14125">
		<tag k="name" v="Langemose" />
=======
	<node id="-233734" lat="59.152097218" lon="11.6433888949">
		<tag k="name" v="Nøklemose" />
>>>>>>> e1d4bc35ff8a6074a6f2e91616a996b547c36f15
		<tag k="natural" v="wetland" />
		<tag k="ssr:stedsnr" v="51145" />
	</node>
<<<<<<< HEAD
	<node lat="59.24053055623692" lon="11.802336103160583" id="-14126">
		<tag k="name" v="Dammyra" />
=======
	<node id="-234245" lat="59.1899249994" lon="11.5982777778">
		<tag k="name" v="Hansesetermosen" />
>>>>>>> e1d4bc35ff8a6074a6f2e91616a996b547c36f15
		<tag k="natural" v="wetland" />
		<tag k="ssr:stedsnr" v="51154" />
	</node>
<<<<<<< HEAD
	<node lat="59.189924999360066" lon="11.598277777836278" id="-14134">
		<tag k="name" v="Hansesætermosen" />
=======
	<node id="-234240" lat="59.2239416631" lon="11.6569388841">
		<tag k="name" v="Bjørnemyr" />
>>>>>>> e1d4bc35ff8a6074a6f2e91616a996b547c36f15
		<tag k="natural" v="wetland" />
		<tag k="ssr:stedsnr" v="52998" />
	</node>
<<<<<<< HEAD
	<node lat="59.19951111378001" lon="11.74898055413981" id="-14138">
		<tag k="alt_name" v="Svartemose" />
		<tag k="name" v="Svartemosen" />
=======
	<node id="-233856" lat="59.3059805538" lon="11.7368916694">
		<tag k="name" v="Vintermosen" />
		<tag k="natural" v="wetland" />
		<tag k="ssr:stedsnr" v="658782" />
	</node>
	<node id="-234235" lat="59.2511888875" lon="11.7897722141">
		<tag k="name" v="Bjørnemosen" />
>>>>>>> e1d4bc35ff8a6074a6f2e91616a996b547c36f15
		<tag k="natural" v="wetland" />
		<tag k="ssr:stedsnr" v="62062" />
	</node>
<<<<<<< HEAD
	<node lat="59.2214333362756" lon="11.743099995241664" id="-14143">
		<tag k="alt_name" v="Fuglelekmosen" />
		<tag k="name" v="Fugleleikmosen" />
=======
	<node id="-234743" lat="59.3250611104" lon="11.7401138864">
		<tag k="name" v="Ingeridsmosen" />
>>>>>>> e1d4bc35ff8a6074a6f2e91616a996b547c36f15
		<tag k="natural" v="wetland" />
		<tag k="ssr:stedsnr" v="62140" />
	</node>
<<<<<<< HEAD
	<node lat="59.26827499929579" lon="11.693072226931848" id="-14156">
		<tag k="name" v="Kloppemosen" />
=======
	<node id="-233718" lat="59.246658334" lon="11.780650007">
		<tag k="name" v="Korsmosen" />
>>>>>>> e1d4bc35ff8a6074a6f2e91616a996b547c36f15
		<tag k="natural" v="wetland" />
		<tag k="ssr:stedsnr" v="64736" />
	</node>
<<<<<<< HEAD
	<node lat="59.28389166693075" lon="11.61386667511181" id="-14164">
		<tag k="name" v="Berggrøtmosen" />
=======
	<node id="-233717" lat="59.2874972257" lon="11.7497888856">
		<tag k="name" v="Delingsmyrene" />
>>>>>>> e1d4bc35ff8a6074a6f2e91616a996b547c36f15
		<tag k="natural" v="wetland" />
		<tag k="ssr:stedsnr" v="98330" />
	</node>
<<<<<<< HEAD
	<node lat="59.17617222416673" lon="11.773274995562186" id="-14190">
		<tag k="name" v="Langemyr" />
=======
	<node id="-234739" lat="59.1875833317" lon="11.773288888">
		<tag k="name" v="Orrelekmyr" />
>>>>>>> e1d4bc35ff8a6074a6f2e91616a996b547c36f15
		<tag k="natural" v="wetland" />
		<tag k="ssr:stedsnr" v="112940" />
	</node>
<<<<<<< HEAD
	<node lat="59.26013611142076" lon="11.714644451331798" id="-14207">
		<tag k="name" v="Bredmosen" />
=======
	<node id="-234736" lat="59.2568805593" lon="11.7917472164">
		<tag k="name" v="Styggemyr" />
>>>>>>> e1d4bc35ff8a6074a6f2e91616a996b547c36f15
		<tag k="natural" v="wetland" />
		<tag k="ssr:stedsnr" v="124686" />
	</node>
<<<<<<< HEAD
	<node lat="59.326841667014975" lon="11.714236116055899" id="-14227">
		<tag k="name" v="Bukkemosen" />
		<tag k="natural" v="wetland" />
		<tag k="ssr:stedsnr" v="172253" />
	</node>
	<node lat="59.31885277753752" lon="11.768986104754742" id="-14234">
		<tag k="name" v="Rørmyr" />
		<tag k="natural" v="wetland" />
		<tag k="ssr:stedsnr" v="172953" />
	</node>
	<node lat="59.17872778214128" lon="11.7719055566829" id="-14244">
		<tag k="name" v="Tapmyr" />
		<tag k="natural" v="wetland" />
		<tag k="ssr:stedsnr" v="173935" />
	</node>
	<node lat="59.23635833272829" lon="11.651733335943169" id="-14281">
		<tag k="name" v="Bredmosen" />
=======
	<node id="-234219" lat="59.2488944453" lon="11.6209750021">
		<tag k="name" v="Ekelimyr" />
		<tag k="natural" v="wetland" />
		<tag k="ssr:stedsnr" v="37478" />
	</node>
	<node id="-234217" lat="59.2910111085" lon="11.6028388861">
		<tag k="name" v="Storedalsmyra" />
		<tag k="natural" v="wetland" />
		<tag k="ssr:stedsnr" v="37328" />
	</node>
	<node id="-234216" lat="59.2458611114" lon="11.5708249973">
		<tag k="name" v="Følinghagen" />
		<tag k="place" v="locality" />
		<tag k="ssr:stedsnr" v="24858" />
	</node>
	<node id="-234722" lat="59.3202749959" lon="11.7102472243">
		<tag k="name" v="Bottenmyra" />
>>>>>>> e1d4bc35ff8a6074a6f2e91616a996b547c36f15
		<tag k="natural" v="wetland" />
		<tag k="ssr:stedsnr" v="280496" />
	</node>
<<<<<<< HEAD
	<node lat="59.11378888776148" lon="11.705938887745644" id="-14337">
		<tag k="name" v="Kalkemyrene" />
=======
	<node id="-234209" lat="59.3185138907" lon="11.6772722237">
		<tag k="alt_name" v="Bingemosen" />
		<tag k="name" v="Bingmyr" />
>>>>>>> e1d4bc35ff8a6074a6f2e91616a996b547c36f15
		<tag k="natural" v="wetland" />
		<tag k="ssr:stedsnr" v="354058" />
	</node>
<<<<<<< HEAD
	<node lat="59.13210833517487" lon="11.640972218554422" id="-14349">
		<tag k="name" v="Gåsemosen" />
=======
	<node id="-234714" lat="59.0815527739" lon="11.7493277722">
		<tag k="name" v="Lamosen" />
>>>>>>> e1d4bc35ff8a6074a6f2e91616a996b547c36f15
		<tag k="natural" v="wetland" />
		<tag k="ssr:stedsnr" v="354413" />
	</node>
<<<<<<< HEAD
	<node lat="59.154116669470035" lon="11.640341673420284" id="-14356">
		<tag k="name" v="Bredmose" />
=======
	<node id="-233763" lat="59.1278527793" lon="11.691125005">
		<tag k="name" v="Pålemyrene" />
		<tag k="natural" v="wetland" />
		<tag k="ssr:stedsnr" v="475473" />
	</node>
	<node id="-234703" lat="59.2661833352" lon="11.7210583345">
		<tag k="name" v="Rødsbredmosen" />
>>>>>>> e1d4bc35ff8a6074a6f2e91616a996b547c36f15
		<tag k="natural" v="wetland" />
		<tag k="ssr:stedsnr" v="354464" />
	</node>
<<<<<<< HEAD
	<node lat="59.15690833171324" lon="11.681755558053798" id="-14357">
		<tag k="name" v="Rustadmosen" />
=======
	<node id="-233668" lat="59.2363583327" lon="11.6517333359">
		<tag k="name" v="Bredmosen" />
>>>>>>> e1d4bc35ff8a6074a6f2e91616a996b547c36f15
		<tag k="natural" v="wetland" />
		<tag k="ssr:stedsnr" v="354484" />
	</node>
<<<<<<< HEAD
	<node lat="59.15465555228517" lon="11.674250002745316" id="-14358">
		<tag k="name" v="Ørnemyr" />
=======
	<node id="-233658" lat="59.3115944476" lon="11.6839000023">
		<tag k="name" v="Trollemosen" />
>>>>>>> e1d4bc35ff8a6074a6f2e91616a996b547c36f15
		<tag k="natural" v="wetland" />
		<tag k="ssr:stedsnr" v="354487" />
	</node>
<<<<<<< HEAD
	<node lat="59.255322217941995" lon="11.77249444264216" id="-14363">
		<tag k="name" v="Resmyra" />
=======
	<node id="-234680" lat="59.2026749993" lon="11.7043500055">
		<tag k="name" v="Tillermyra" />
>>>>>>> e1d4bc35ff8a6074a6f2e91616a996b547c36f15
		<tag k="natural" v="wetland" />
		<tag k="ssr:stedsnr" v="354792" />
	</node>
<<<<<<< HEAD
	<node lat="59.28005000246677" lon="11.71886388197501" id="-14365">
		<tag k="name" v="Store Rumpemosen" />
		<tag k="natural" v="wetland" />
		<tag k="ssr:stedsnr" v="355094" />
	</node>
	<node lat="59.278524997289544" lon="11.594230560951491" id="-14398">
		<tag k="name" v="Dyvelmyr" />
=======
	<node id="-234160" lat="59.2775861131" lon="11.6266388887">
		<tag k="name" v="Mattismoltemyr" />
>>>>>>> e1d4bc35ff8a6074a6f2e91616a996b547c36f15
		<tag k="natural" v="wetland" />
		<tag k="ssr:stedsnr" v="401323" />
	</node>
<<<<<<< HEAD
	<node lat="59.226252774372085" lon="11.78228332493662" id="-14406">
		<tag k="name" v="Duemyr" />
=======
	<node id="-234669" lat="59.2028944458" lon="11.7512666618">
		<tag k="name" v="Rødstjernsmosen" />
>>>>>>> e1d4bc35ff8a6074a6f2e91616a996b547c36f15
		<tag k="natural" v="wetland" />
		<tag k="ssr:stedsnr" v="415132" />
	</node>
<<<<<<< HEAD
	<node lat="59.21481666797081" lon="11.784349994078404" id="-14409">
		<tag k="name" v="Røvannsmosen" />
=======
	<node id="-234154" lat="59.2434749983" lon="11.771866671">
		<tag k="name" v="Seterbrumosen" />
>>>>>>> e1d4bc35ff8a6074a6f2e91616a996b547c36f15
		<tag k="natural" v="wetland" />
		<tag k="ssr:stedsnr" v="415171" />
	</node>
<<<<<<< HEAD
	<node lat="59.26939722211889" lon="11.714363893848848" id="-14419">
		<tag k="name" v="Abbortjernmosen" />
=======
	<node id="-233641" lat="59.2929611124" lon="11.6144749928">
		<tag k="name" v="Trollemyr" />
>>>>>>> e1d4bc35ff8a6074a6f2e91616a996b547c36f15
		<tag k="natural" v="wetland" />
		<tag k="ssr:stedsnr" v="416077" />
	</node>
<<<<<<< HEAD
	<node lat="59.24312500032979" lon="11.73861389234984" id="-14445">
		<tag k="name" v="Vestskogen" />
		<tag k="place" v="locality" />
		<tag k="ssr:stedsnr" v="427263" />
	</node>
	<node lat="59.30528889054272" lon="11.599536112718068" id="-14451">
		<tag k="name" v="Lervikmosen" />
		<tag k="natural" v="wetland" />
		<tag k="ssr:stedsnr" v="428636" />
	</node>
	<node lat="59.072530559427655" lon="11.727280556813305" id="-14476">
		<tag k="alt_name" v="Kirstismyra" />
		<tag k="name" v="Kjerstismyra" />
=======
	<node id="-233638" lat="59.2726638897" lon="11.7200833396">
		<tag k="name" v="Hallesbymosen" />
>>>>>>> e1d4bc35ff8a6074a6f2e91616a996b547c36f15
		<tag k="natural" v="wetland" />
		<tag k="ssr:stedsnr" v="536061" />
	</node>
<<<<<<< HEAD
	<node lat="59.22986111191261" lon="11.760538892132983" id="-14478">
		<tag k="name" v="Tretjernsmosen" />
=======
	<node id="-234149" lat="59.2329249959" lon="11.6540249912">
		<tag k="name" v="Lakasmyr" />
>>>>>>> e1d4bc35ff8a6074a6f2e91616a996b547c36f15
		<tag k="natural" v="wetland" />
		<tag k="ssr:stedsnr" v="536137" />
	</node>
<<<<<<< HEAD
	<node lat="59.225194440781095" lon="11.739863885358574" id="-14479">
		<tag k="name" v="Dammyr" />
=======
	<node id="-234147" lat="59.1761333317" lon="11.6437555498">
		<tag k="name" v="Åsgårdmosen" />
>>>>>>> e1d4bc35ff8a6074a6f2e91616a996b547c36f15
		<tag k="natural" v="wetland" />
		<tag k="ssr:stedsnr" v="536140" />
	</node>
<<<<<<< HEAD
	<node lat="59.254708336474984" lon="11.806624994559304" id="-14483">
=======
	<node id="-234655" lat="59.2547083365" lon="11.8066249946">
>>>>>>> e1d4bc35ff8a6074a6f2e91616a996b547c36f15
		<tag k="name" v="Veamyra" />
		<tag k="natural" v="wetland" />
		<tag k="ssr:stedsnr" v="536861" />
	</node>
<<<<<<< HEAD
	<node lat="59.21094166790096" lon="11.745169440343242" id="-14485">
		<tag k="name" v="Vintermyr" />
=======
	<node id="-233628" lat="59.0941833339" lon="11.7546527749">
		<tag k="name" v="Langemyr" />
>>>>>>> e1d4bc35ff8a6074a6f2e91616a996b547c36f15
		<tag k="natural" v="wetland" />
		<tag k="ssr:stedsnr" v="537143" />
	</node>
<<<<<<< HEAD
	<node lat="59.26618333522289" lon="11.721058334460615" id="-14508">
		<tag k="name" v="Rødsbredmosen" />
=======
	<node id="-234139" lat="59.1803944432" lon="11.6625555586">
		<tag k="name" v="Mosserødmosen" />
>>>>>>> e1d4bc35ff8a6074a6f2e91616a996b547c36f15
		<tag k="natural" v="wetland" />
		<tag k="ssr:stedsnr" v="549720" />
	</node>
<<<<<<< HEAD
	<node lat="59.29336666773318" lon="11.623816664473038" id="-14513">
		<tag k="name" v="Fuglelekmyra" />
=======
	<node id="-234649" lat="59.2251944408" lon="11.7398638854">
		<tag k="name" v="Dammyr" />
>>>>>>> e1d4bc35ff8a6074a6f2e91616a996b547c36f15
		<tag k="natural" v="wetland" />
		<tag k="ssr:stedsnr" v="583061" />
	</node>
<<<<<<< HEAD
	<node lat="59.27988889285254" lon="11.614894453427297" id="-14515">
		<tag k="name" v="Jerpedalsmyra" />
=======
	<node id="-234648" lat="59.2298611119" lon="11.7605388921">
		<tag k="name" v="Tretjernsmosen" />
>>>>>>> e1d4bc35ff8a6074a6f2e91616a996b547c36f15
		<tag k="natural" v="wetland" />
		<tag k="ssr:stedsnr" v="583322" />
	</node>
<<<<<<< HEAD
	<node lat="59.29159722028307" lon="11.586147227360842" id="-14516">
		<tag k="name" v="Lervikmosen" />
=======
	<node id="-234645" lat="59.0725305594" lon="11.7272805568">
		<tag k="alt_name" v="Kirstismyra" />
		<tag k="name" v="Kjerstismyra" />
>>>>>>> e1d4bc35ff8a6074a6f2e91616a996b547c36f15
		<tag k="natural" v="wetland" />
		<tag k="ssr:stedsnr" v="583324" />
	</node>
<<<<<<< HEAD
	<node lat="59.25688055929849" lon="11.791747216381957" id="-14525">
		<tag k="name" v="Styggemyr" />
=======
	<node id="-234128" lat="59.2917777796" lon="11.7918138841">
		<tag k="name" v="Delingsmosen" />
>>>>>>> e1d4bc35ff8a6074a6f2e91616a996b547c36f15
		<tag k="natural" v="wetland" />
		<tag k="ssr:stedsnr" v="597863" />
	</node>
<<<<<<< HEAD
	<node lat="59.07930833038999" lon="11.685786105459407" id="-14526">
		<tag k="name" v="Ørnelundmosen" />
		<tag k="natural" v="wetland" />
		<tag k="ssr:stedsnr" v="597066" />
	</node>
	<node lat="59.30851388711563" lon="11.647458330899763" id="-14528">
		<tag k="name" v="Torgetmosen" />
=======
	<node id="-233615" lat="59.1947194418" lon="11.6948416589">
		<tag k="name" v="Nordbyskogen" />
		<tag k="place" v="locality" />
		<tag k="ssr:stedsnr" v="244085" />
	</node>
	<node id="-234124" lat="59.28934167" lon="11.7661999937">
		<tag k="name" v="Bredmose" />
>>>>>>> e1d4bc35ff8a6074a6f2e91616a996b547c36f15
		<tag k="natural" v="wetland" />
		<tag k="ssr:stedsnr" v="597084" />
	</node>
<<<<<<< HEAD
	<node lat="59.32027499588731" lon="11.710247224283854" id="-14530">
		<tag k="name" v="Bottenmyra" />
=======
	<node id="-234635" lat="59.2676083309" lon="11.6246583363">
		<tag k="name" v="Februmosen" />
>>>>>>> e1d4bc35ff8a6074a6f2e91616a996b547c36f15
		<tag k="natural" v="wetland" />
		<tag k="ssr:stedsnr" v="597222" />
	</node>
<<<<<<< HEAD
	<node lat="59.32506111041709" lon="11.7401138863985" id="-14543">
		<tag k="name" v="Ingeridsmosen" />
=======
	<node id="-234122" lat="59.1674166685" lon="11.6744944505">
		<tag k="name" v="Vintermyra" />
>>>>>>> e1d4bc35ff8a6074a6f2e91616a996b547c36f15
		<tag k="natural" v="wetland" />
		<tag k="ssr:stedsnr" v="597953" />
	</node>
<<<<<<< HEAD
	<node lat="59.31205833137501" lon="11.68759165844862" id="-14570">
		<tag k="name" v="Langmyra" />
=======
	<node id="-233599" lat="59.2501888896" lon="11.8073916708">
		<tag k="name" v="Runde mose" />
>>>>>>> e1d4bc35ff8a6074a6f2e91616a996b547c36f15
		<tag k="natural" v="wetland" />
		<tag k="ssr:stedsnr" v="609601" />
	</node>
<<<<<<< HEAD
	<node lat="59.33316519206481" lon="11.716104428468132" id="-14572">
		<tag k="name" v="Dyvelen" />
		<tag k="natural" v="wetland" />
		<tag k="ssr:stedsnr" v="610650" />
	</node>
	<node lat="59.24160277735571" lon="11.816438894711512" id="-14591">
		<tag k="name" v="Bråtemosen" />
=======
	<node id="-233595" lat="59.1042749993" lon="11.7019416617">
		<tag k="name" v="Hølmyr" />
>>>>>>> e1d4bc35ff8a6074a6f2e91616a996b547c36f15
		<tag k="natural" v="wetland" />
		<tag k="ssr:stedsnr" v="658154" />
	</node>
<<<<<<< HEAD
	<node lat="59.190600004031396" lon="11.698705552064752" id="-14596">
		<tag k="name" v="Delemyr" />
=======
	<node id="-233594" lat="59.2405305562" lon="11.8023361032">
		<tag k="name" v="Dammyra" />
>>>>>>> e1d4bc35ff8a6074a6f2e91616a996b547c36f15
		<tag k="natural" v="wetland" />
		<tag k="ssr:stedsnr" v="658987" />
	</node>
<<<<<<< HEAD
	<node lat="59.151422217717844" lon="11.639486118970693" id="-14599">
		<tag k="name" v="Rørmyr" />
		<tag k="natural" v="wetland" />
		<tag k="ssr:stedsnr" v="658528" />
	</node>
	<node lat="59.15878333661088" lon="11.625097220416492" id="-14628">
		<tag k="name" v="Hiåsmyra" />
=======
	<node id="-234614" lat="59.2431250003" lon="11.7386138923">
		<tag k="name" v="Vestskogen" />
		<tag k="place" v="locality" />
		<tag k="ssr:stedsnr" v="427263" />
	</node>
	<node id="-234093" lat="59.313961115" lon="11.6507083336">
		<tag k="name" v="Bjørnemyr" />
>>>>>>> e1d4bc35ff8a6074a6f2e91616a996b547c36f15
		<tag k="natural" v="wetland" />
		<tag k="ssr:stedsnr" v="718464" />
	</node>
<<<<<<< HEAD
	<node lat="59.238258329544536" lon="11.751836104513" id="-14631">
		<tag k="name" v="Moltemyr" />
=======
	<node id="-234586" lat="59.2693972221" lon="11.7143638938">
		<tag k="name" v="Abbortjernmosen" />
>>>>>>> e1d4bc35ff8a6074a6f2e91616a996b547c36f15
		<tag k="natural" v="wetland" />
		<tag k="ssr:stedsnr" v="719191" />
	</node>
<<<<<<< HEAD
	<node lat="59.273927778451785" lon="11.709563882747906" id="-14633">
		<tag k="name" v="Kloppemosen" />
		<tag k="natural" v="wetland" />
		<tag k="ssr:stedsnr" v="719072" />
	</node>
	<node lat="59.23262222576886" lon="11.781488880587357" id="-14635">
		<tag k="name" v="Bredmosen" />
		<tag k="natural" v="wetland" />
		<tag k="ssr:stedsnr" v="719122" />
	</node>
	<node lat="59.16296388520661" lon="11.645433332850262" id="-14638">
		<tag k="name" v="Hagemyr" />
		<tag k="natural" v="wetland" />
		<tag k="ssr:stedsnr" v="719321" />
	</node>
	<node lat="59.33198889067862" lon="11.738313891540857" id="-14646">
		<tag k="name" v="Nevermyr" />
=======
	<node id="-234573" lat="59.214816668" lon="11.7843499941">
		<tag k="name" v="Røvannsmosen" />
>>>>>>> e1d4bc35ff8a6074a6f2e91616a996b547c36f15
		<tag k="natural" v="wetland" />
		<tag k="ssr:stedsnr" v="719932" />
	</node>
<<<<<<< HEAD
	<node lat="59.32833055247305" lon="11.680488891852702" id="-14663">
		<tag k="name" v="Bøenmosen" />
=======
	<node id="-234571" lat="59.2262527744" lon="11.7822833249">
		<tag k="name" v="Duemyr" />
>>>>>>> e1d4bc35ff8a6074a6f2e91616a996b547c36f15
		<tag k="natural" v="wetland" />
		<tag k="ssr:stedsnr" v="766010" />
	</node>
<<<<<<< HEAD
	<node lat="59.22929444363638" lon="11.664508333282908" id="-14669">
		<tag k="name" v="Moltemosen" />
=======
	<node id="-234049" lat="59.3164166658" lon="11.7014500028">
		<tag k="name" v="Hestemyr" />
>>>>>>> e1d4bc35ff8a6074a6f2e91616a996b547c36f15
		<tag k="natural" v="wetland" />
		<tag k="ssr:stedsnr" v="766447" />
	</node>
<<<<<<< HEAD
	<node lat="59.28058333407012" lon="11.624552772525924" id="-14681">
		<tag k="name" v="Storemyr" />
=======
	<node id="-234043" lat="59.1537305567" lon="11.6518749991">
		<tag k="name" v="Hyttemyr" />
>>>>>>> e1d4bc35ff8a6074a6f2e91616a996b547c36f15
		<tag k="natural" v="wetland" />
		<tag k="ssr:stedsnr" v="779071" />
	</node>
<<<<<<< HEAD
	<node lat="59.28212777705786" lon="11.595997225666805" id="-14721">
		<tag k="name" v="Rivehøymyr" />
=======
	<node id="-234550" lat="59.2785249973" lon="11.594230561">
		<tag k="name" v="Dyvelmyr" />
>>>>>>> e1d4bc35ff8a6074a6f2e91616a996b547c36f15
		<tag k="natural" v="wetland" />
		<tag k="ssr:stedsnr" v="826361" />
	</node>
<<<<<<< HEAD
	<node lat="59.29658611001731" lon="11.707116667744643" id="-14725">
		<tag k="name" v="Langnesmosen" />
=======
	<node id="-234031" lat="59.2382583295" lon="11.7518361045">
		<tag k="name" v="Moltemyr" />
>>>>>>> e1d4bc35ff8a6074a6f2e91616a996b547c36f15
		<tag k="natural" v="wetland" />
		<tag k="ssr:stedsnr" v="827052" />
	</node>
<<<<<<< HEAD
	<node lat="59.30833610986189" lon="11.637619439013685" id="-14733">
		<tag k="name" v="Langemyr" />
=======
	<node id="-234030" lat="59.2610055592" lon="11.5742111043">
		<tag k="name" v="Brutjernmosen" />
>>>>>>> e1d4bc35ff8a6074a6f2e91616a996b547c36f15
		<tag k="natural" v="wetland" />
		<tag k="ssr:stedsnr" v="840086" />
	</node>
<<<<<<< HEAD
	<node lat="59.26736389070737" lon="11.743672223064303" id="-14736">
		<tag k="name" v="Hallesbymosen" />
=======
	<node id="-234765" lat="59.3120583314" lon="11.6875916584">
		<tag k="name" v="Langmyra" />
		<tag k="natural" v="wetland" />
		<tag k="ssr:stedsnr" v="609601" />
	</node>
	<node id="-234024" lat="59.1873749967" lon="11.7675111167">
		<tag k="name" v="Bjørnelimosen" />
>>>>>>> e1d4bc35ff8a6074a6f2e91616a996b547c36f15
		<tag k="natural" v="wetland" />
		<tag k="ssr:stedsnr" v="840148" />
	</node>
<<<<<<< HEAD
	<node lat="59.16741666849843" lon="11.674494450484328" id="-14738">
		<tag k="name" v="Vintermyra" />
=======
	<node id="-234020" lat="59.1514222177" lon="11.639486119">
		<tag k="name" v="Rørmyr" />
>>>>>>> e1d4bc35ff8a6074a6f2e91616a996b547c36f15
		<tag k="natural" v="wetland" />
		<tag k="ssr:stedsnr" v="840357" />
	</node>
<<<<<<< HEAD
	<node lat="59.291777779586816" lon="11.791813884052425" id="-14742">
		<tag k="name" v="Delingsmosen" />
=======
	<node id="-233562" lat="59.2942722245" lon="11.6092000076">
		<tag k="name" v="Setermosen" />
		<tag k="natural" v="wetland" />
		<tag k="ssr:stedsnr" v="37315" />
	</node>
	<node id="-234514" lat="59.1826999955" lon="11.7442861144">
		<tag k="name" v="Tømmermyr" />
>>>>>>> e1d4bc35ff8a6074a6f2e91616a996b547c36f15
		<tag k="natural" v="wetland" />
		<tag k="ssr:stedsnr" v="840959" />
	</node>
	<node id="-234513" lat="59.1872694471" lon="11.757661112">
		<tag k="name" v="Hegårdsmosen" />
		<tag k="natural" v="wetland" />
		<tag k="ssr:stedsnr" v="355905" />
	</node>
	<node id="-234500" lat="59.2800500025" lon="11.718863882">
		<tag k="name" v="Store Rumpemosen" />
		<tag k="natural" v="wetland" />
		<tag k="ssr:stedsnr" v="355094" />
	</node>
	<node id="-233985" lat="59.3319888907" lon="11.7383138915">
		<tag k="name" v="Nevermyr" />
		<tag k="natural" v="wetland" />
		<tag k="ssr:stedsnr" v="719932" />
	</node>
</osm>
