<?xml version="1.0" encoding="UTF-8"?>
<<<<<<< HEAD
<osm version="0.6" generator="osmapis">
	<node lat="59.19447777571605" lon="11.7418138873687" id="-13362">
		<tag k="alt_name" v="Vinmo" />
		<tag k="name" v="Vindmo" />
=======
<osm generator="osmapis" version="0.6">
	<node id="-234984" lat="59.3016595053" lon="11.6316299295">
		<tag k="fixme" v="consider place=hamlet" />
		<tag k="name" v="Siljeholt" />
		<tag k="place" v="farm" />
		<tag k="ssr:stedsnr" v="1077363" />
	</node>
	<node id="-234980" lat="59.2857075763" lon="11.6433488685">
		<tag k="fixme" v="consider place=hamlet" />
		<tag k="name" v="Søndre Lervik" />
		<tag k="place" v="farm" />
		<tag k="ssr:stedsnr" v="1077056" />
	</node>
	<node id="-234967" lat="59.3278486015" lon="11.6918166018">
		<tag k="name" v="Bøenødegården" />
>>>>>>> e1d4bc35ff8a6074a6f2e91616a996b547c36f15
		<tag k="place" v="locality" />
		<tag k="ssr:stedsnr" v="1190" />
	</node>
<<<<<<< HEAD
	<node lat="59.147038893200595" lon="11.756308330799602" id="-13367">
		<tag k="name" v="Løkka" />
		<tag k="place" v="farm" />
		<tag k="ssr:stedsnr" v="2026" />
	</node>
	<node lat="59.29989109145128" lon="11.665947723455405" id="-13369">
=======
	<node id="-234964" lat="59.2105210356" lon="11.6905499168">
		<tag k="name" v="Skodsberg" />
		<tag k="place" v="farm" />
		<tag k="ssr:stedsnr" v="981778" />
	</node>
	<node id="-234960" lat="59.0946151563" lon="11.710320815">
		<tag k="alt_name" v="Stangebråtan" />
		<tag k="name" v="Stangebråten" />
		<tag k="place" v="locality" />
		<tag k="ssr:stedsnr" v="981157" />
	</node>
	<node id="-234951" lat="59.2932437726" lon="11.6788756353">
>>>>>>> e1d4bc35ff8a6074a6f2e91616a996b547c36f15
		<tag k="fixme" v="consider place=hamlet" />
		<tag k="name" v="Lund" />
		<tag k="place" v="farm" />
		<tag k="ssr:stedsnr" v="3636" />
	</node>
<<<<<<< HEAD
	<node lat="59.329157255984654" lon="11.69379698055448" id="-13374">
		<tag k="alt_name" v="Bøenødegård nordre;Nordre Bøenødegård;Søndre Nordre Bønøgården" />
		<tag k="name" v="Nordre Bøenødegården" />
=======
	<node id="-234946" lat="59.1645083343" lon="11.7223694462">
		<tag k="name" v="Grotmål" />
>>>>>>> e1d4bc35ff8a6074a6f2e91616a996b547c36f15
		<tag k="place" v="farm" />
		<tag k="ssr:stedsnr" v="3731" />
	</node>
<<<<<<< HEAD
	<node lat="59.323904026639035" lon="11.672623946818039" id="-13376">
		<tag k="fixme" v="consider place=hamlet" />
		<tag k="name" v="Søndre Bøen" />
=======
	<node id="-234935" lat="59.1688965979" lon="11.6611720106">
		<tag k="alt_name" v="Bøen vestre" />
		<tag k="name" v="Vestre Bøen" />
>>>>>>> e1d4bc35ff8a6074a6f2e91616a996b547c36f15
		<tag k="place" v="farm" />
		<tag k="ssr:stedsnr" v="6058" />
	</node>
<<<<<<< HEAD
	<node lat="59.23051666978072" lon="11.75212500864065" id="-13384">
		<tag k="name" v="Vegne" />
=======
	<node id="-234934" lat="59.3267598519" lon="11.6728932825">
		<tag k="fixme" v="consider place=hamlet" />
		<tag k="name" v="Nordre Bøen" />
>>>>>>> e1d4bc35ff8a6074a6f2e91616a996b547c36f15
		<tag k="place" v="farm" />
		<tag k="ssr:stedsnr" v="233148" />
	</node>
<<<<<<< HEAD
	<node lat="59.212455554143354" lon="11.753824999199532" id="-13387">
		<tag k="name" v="Nordre Bråtane" />
		<tag k="place" v="locality" />
		<tag k="ssr:stedsnr" v="233240" />
	</node>
	<node lat="59.32366944220042" lon="11.657216671317775" id="-13394">
		<tag k="name" v="Klokkerhytta" />
		<tag k="place" v="isolated_dwelling" />
		<tag k="ssr:stedsnr" v="234400" />
	</node>
	<node lat="59.14496388682791" lon="11.730105547999083" id="-13397">
		<tag k="name" v="Øvre Holmegil" />
		<tag k="place" v="farm" />
		<tag k="ssr:stedsnr" v="234925" />
	</node>
	<node lat="59.3309916659174" lon="11.686502773241607" id="-13398">
		<tag k="name" v="Bjørkeli" />
=======
	<node id="-234932" lat="59.2689248069" lon="11.7907905624">
		<tag k="fixme" v="consider place=hamlet" />
		<tag k="name" v="Leksrød" />
		<tag k="place" v="farm" />
		<tag k="ssr:stedsnr" v="853720" />
	</node>
	<node id="-234931" lat="59.2729638861" lon="11.6893166645">
		<tag k="name" v="Toverød" />
		<tag k="place" v="farm" />
		<tag k="ssr:stedsnr" v="853716" />
	</node>
	<node id="-234929" lat="59.3071305556" lon="11.6296194372">
		<tag k="alt_name" v="Øvre Våla" />
		<tag k="name" v="Våla" />
		<tag k="place" v="locality" />
		<tag k="ssr:stedsnr" v="853645" />
	</node>
	<node id="-234927" lat="59.2518027823" lon="11.7027722223">
		<tag k="name" v="Rishaugen" />
>>>>>>> e1d4bc35ff8a6074a6f2e91616a996b547c36f15
		<tag k="place" v="farm" />
		<tag k="ssr:stedsnr" v="38001" />
	</node>
<<<<<<< HEAD
	<node lat="59.17600536226922" lon="11.69189308862873" id="-13403">
		<tag k="fixme" v="consider place=hamlet" />
		<tag k="name" v="Grinder" />
		<tag k="place" v="farm" />
		<tag k="ssr:stedsnr" v="51381" />
	</node>
	<node lat="59.20988610727566" lon="11.691572221231063" id="-13407">
		<tag k="name" v="Søndre Skotsberg" />
		<tag k="place" v="farm" />
		<tag k="ssr:stedsnr" v="52270" />
	</node>
	<node lat="59.225060527992966" lon="11.69785659260857" id="-13408">
		<tag k="alt_name" v="Fosbyåsen" />
		<tag k="name" v="Fossbyåsen" />
		<tag k="place" v="quarter" />
		<tag k="ssr:stedsnr" v="52278" />
	</node>
	<node lat="59.24598889214735" lon="11.663619445269577" id="-13418">
		<tag k="name" v="Buer" />
		<tag k="place" v="neighbourhood" />
		<tag k="ssr:stedsnr" v="55117" />
	</node>
	<node lat="59.15328055896516" lon="11.679058326756026" id="-13424">
		<tag k="name" v="Rustad" />
=======
	<node id="-234926" lat="59.2511276661" lon="11.7123233581">
		<tag k="name" v="Langedal" />
		<tag k="place" v="locality" />
		<tag k="ssr:stedsnr" v="853605" />
	</node>
	<node id="-234920" lat="59.1308555538" lon="11.7535944508">
		<tag k="alt_name" v="Nordre Svarød" />
		<tag k="name" v="Svarød" />
		<tag k="place" v="isolated_dwelling" />
		<tag k="ssr:stedsnr" v="852047" />
	</node>
	<node id="-234919" lat="59.130527778" lon="11.7635499949">
		<tag k="name" v="Husa" />
		<tag k="place" v="locality" />
		<tag k="ssr:stedsnr" v="852046" />
	</node>
	<node id="-234916" lat="59.0555833323" lon="11.6891305468">
		<tag k="alt_name" v="Skogsødegården" />
		<tag k="name" v="Ødegården" />
		<tag k="place" v="isolated_dwelling" />
		<tag k="ssr:stedsnr" v="851357" />
	</node>
	<node id="-234914" lat="59.2063667368" lon="11.7183174507">
		<tag k="fixme" v="consider place=hamlet" />
		<tag k="name" v="Glenne" />
>>>>>>> e1d4bc35ff8a6074a6f2e91616a996b547c36f15
		<tag k="place" v="farm" />
		<tag k="ssr:stedsnr" v="63001" />
	</node>
<<<<<<< HEAD
	<node lat="59.17493967311091" lon="11.694091527849091" id="-13428">
		<tag k="name" v="Grinder" />
=======
	<node id="-234913" lat="59.2015611103" lon="11.6782111178">
		<tag k="name" v="Vesttorp" />
>>>>>>> e1d4bc35ff8a6074a6f2e91616a996b547c36f15
		<tag k="place" v="farm" />
		<tag k="ssr:stedsnr" v="63111" />
	</node>
<<<<<<< HEAD
	<node lat="59.17216300558564" lon="11.650561809471132" id="-13429">
=======
	<node id="-234911" lat="59.2140256435" lon="11.6981092989">
>>>>>>> e1d4bc35ff8a6074a6f2e91616a996b547c36f15
		<tag k="fixme" v="consider place=hamlet" />
		<tag k="name" v="Åsgård" />
		<tag k="place" v="farm" />
		<tag k="ssr:stedsnr" v="63114" />
	</node>
<<<<<<< HEAD
	<node lat="59.2745666694451" lon="11.643977783753513" id="-13430">
		<tag k="name" v="Hola" />
		<tag k="place" v="locality" />
		<tag k="ssr:stedsnr" v="64716" />
	</node>
	<node lat="59.19192777388926" lon="11.73533888823614" id="-13432">
		<tag k="name" v="Rødsholtet" />
=======
	<node id="-234910" lat="59.2370611112" lon="11.7377250031">
		<tag k="alt_name" v="Teigen" />
		<tag k="name" v="Flatlandsteigen" />
>>>>>>> e1d4bc35ff8a6074a6f2e91616a996b547c36f15
		<tag k="place" v="farm" />
		<tag k="ssr:stedsnr" v="244080" />
	</node>
<<<<<<< HEAD
	<node lat="59.23561666247921" lon="11.691724992705174" id="-13435">
		<tag k="name" v="Haugland" />
=======
	<node id="-234909" lat="59.1805444455" lon="11.6098166737">
		<tag k="alt_name" v="Tostlund" />
		<tag k="name" v="Tostelund" />
>>>>>>> e1d4bc35ff8a6074a6f2e91616a996b547c36f15
		<tag k="place" v="farm" />
		<tag k="ssr:stedsnr" v="244151" />
	</node>
<<<<<<< HEAD
	<node lat="59.217505552860274" lon="11.755141666997671" id="-13440">
		<tag k="alt_name" v="Spanndalen" />
		<tag k="name" v="Spondalen" />
		<tag k="place" v="farm" />
		<tag k="ssr:stedsnr" v="244174" />
	</node>
	<node lat="59.25494166600422" lon="11.68659722126012" id="-13445">
		<tag k="name" v="Arebekken" />
=======
	<node id="-234905" lat="59.1696583311" lon="11.7292194433">
		<tag k="name" v="Nordli" />
		<tag k="place" v="isolated_dwelling" />
		<tag k="ssr:stedsnr" v="841923" />
	</node>
	<node id="-234901" lat="59.1897250044" lon="11.6910888876">
		<tag k="name" v="Nordby" />
>>>>>>> e1d4bc35ff8a6074a6f2e91616a996b547c36f15
		<tag k="place" v="farm" />
		<tag k="ssr:stedsnr" v="245600" />
	</node>
<<<<<<< HEAD
	<node lat="59.29680247251979" lon="11.654229585144659" id="-13447">
		<tag k="fixme" v="consider place=hamlet" />
		<tag k="name" v="Nes" />
=======
	<node id="-234897" lat="59.2551722226" lon="11.7019861127">
		<tag k="alt_name" v="Iglerød søndre" />
		<tag k="name" v="Søndre Iglerød" />
>>>>>>> e1d4bc35ff8a6074a6f2e91616a996b547c36f15
		<tag k="place" v="farm" />
		<tag k="ssr:stedsnr" v="246646" />
	</node>
<<<<<<< HEAD
	<node lat="59.275391668374404" lon="11.759149999318188" id="-13450">
		<tag k="name" v="Lajordet" />
		<tag k="place" v="farm" />
		<tag k="ssr:stedsnr" v="246672" />
	</node>
	<node lat="59.14314444574844" lon="11.659799992427912" id="-13460">
		<tag k="name" v="Sund" />
		<tag k="place" v="farm" />
		<tag k="ssr:stedsnr" v="111482" />
	</node>
	<node lat="59.13032777471794" lon="11.755563887648709" id="-13464">
		<tag k="name" v="Søndre Svarød" />
=======
	<node id="-234894" lat="59.1598499997" lon="11.6679722231">
		<tag k="name" v="Ødegårdene" />
>>>>>>> e1d4bc35ff8a6074a6f2e91616a996b547c36f15
		<tag k="place" v="locality" />
		<tag k="ssr:stedsnr" v="112319" />
	</node>
<<<<<<< HEAD
	<node lat="59.24824444348991" lon="11.75853611604801" id="-13465">
		<tag k="name" v="Bakkene" />
=======
	<node id="-234888" lat="59.1109611083" lon="11.7468972159">
		<tag k="name" v="Øvre Lund" />
>>>>>>> e1d4bc35ff8a6074a6f2e91616a996b547c36f15
		<tag k="place" v="locality" />
		<tag k="ssr:stedsnr" v="112786" />
	</node>
<<<<<<< HEAD
	<node lat="59.199791662607176" lon="11.704791666682931" id="-13471">
		<tag k="name" v="Fossen" />
		<tag k="place" v="locality" />
		<tag k="ssr:stedsnr" v="112881" />
	</node>
	<node lat="59.19651111384661" lon="11.617991659936763" id="-13472">
		<tag k="fixme" v="multiple name tags, choose one and add the other to alt_name" />
		<tag k="name" v="Valbergsetret;Svensbysetret" />
		<tag k="place" v="locality" />
		<tag k="ssr:stedsnr" v="112885" />
	</node>
	<node lat="59.23693888503371" lon="11.816036110730762" id="-13478">
		<tag k="name" v="Bråten" />
		<tag k="place" v="isolated_dwelling" />
		<tag k="ssr:stedsnr" v="123267" />
	</node>
	<node lat="59.166215094140874" lon="11.652481918527725" id="-13479">
		<tag k="fixme" v="consider place=hamlet" />
		<tag k="name" v="Slorer" />
=======
	<node id="-234884" lat="59.2903153966" lon="11.6477952881">
		<tag k="fixme" v="consider place=hamlet" />
		<tag k="name" v="Nordre Lervik" />
		<tag k="place" v="farm" />
		<tag k="ssr:stedsnr" v="840067" />
	</node>
	<node id="-234881" lat="59.2618055571" lon="11.685402775">
		<tag k="name" v="Skjulstad" />
		<tag k="place" v="neighbourhood" />
		<tag k="ssr:stedsnr" v="831027" />
	</node>
	<node id="-234880" lat="59.3284638929" lon="11.645475009">
		<tag k="name" v="Strøm" />
		<tag k="place" v="neighbourhood" />
		<tag k="ssr:stedsnr" v="831025" />
	</node>
	<node id="-234879" lat="59.1668361154" lon="11.6646666655">
		<tag k="alt_name" v="Bøen østre;Ytre Bøen" />
		<tag k="name" v="Østre Bøen" />
>>>>>>> e1d4bc35ff8a6074a6f2e91616a996b547c36f15
		<tag k="place" v="farm" />
		<tag k="ssr:stedsnr" v="123125" />
	</node>
<<<<<<< HEAD
	<node lat="59.276497223228596" lon="11.647058339850936" id="-13483">
		<tag k="name" v="Ødegården" />
		<tag k="place" v="locality" />
		<tag k="ssr:stedsnr" v="124638" />
	</node>
	<node lat="59.27239722367366" lon="11.68098611464165" id="-13486">
		<tag k="name" v="Rud" />
=======
	<node id="-234877" lat="59.227877778" lon="11.7345027855">
		<tag k="name" v="Espelundhagen" />
>>>>>>> e1d4bc35ff8a6074a6f2e91616a996b547c36f15
		<tag k="place" v="farm" />
		<tag k="ssr:stedsnr" v="124672" />
	</node>
<<<<<<< HEAD
	<node lat="59.276541665989235" lon="11.584636109974975" id="-13488">
		<tag k="name" v="Kutjernshytta" />
=======
	<node id="-234876" lat="59.2304027776" lon="11.7353888855">
		<tag k="name" v="Espelundhagen" />
>>>>>>> e1d4bc35ff8a6074a6f2e91616a996b547c36f15
		<tag k="place" v="isolated_dwelling" />
		<tag k="ssr:stedsnr" v="158353" />
	</node>
<<<<<<< HEAD
	<node lat="59.225616664891824" lon="11.715933335986016" id="-13490">
		<tag k="name" v="Holtekasa" />
		<tag k="place" v="farm" />
		<tag k="ssr:stedsnr" v="158454" />
	</node>
	<node lat="59.30759166513411" lon="11.715738881007466" id="-13493">
		<tag k="name" v="Langenes" />
		<tag k="place" v="locality" />
		<tag k="ssr:stedsnr" v="159057" />
	</node>
	<node lat="59.28496666246414" lon="11.609455553156097" id="-13494">
		<tag k="name" v="Berggrøthytta" />
=======
	<node id="-234874" lat="59.2972249984" lon="11.6752472267">
		<tag k="name" v="Nordenhaug" />
>>>>>>> e1d4bc35ff8a6074a6f2e91616a996b547c36f15
		<tag k="place" v="isolated_dwelling" />
		<tag k="ssr:stedsnr" v="159365" />
	</node>
<<<<<<< HEAD
	<node lat="59.14656667007026" lon="11.74021945079004" id="-13513">
		<tag k="name" v="Haugen" />
		<tag k="place" v="farm" />
		<tag k="ssr:stedsnr" v="173920" />
	</node>
	<node lat="59.052191668727694" lon="11.737258330330498" id="-13524">
		<tag k="fixme" v="consider tourism=alpine_hut or tourism=chalet" />
		<tag k="name" v="Budalsvika" />
		<tag k="ssr:stedsnr" v="184445" />
		<tag k="tourism" v="wilderness_hut" />
	</node>
	<node lat="59.295994442979335" lon="11.74225278519255" id="-13525">
		<tag k="name" v="Knatterød" />
=======
	<node id="-234869" lat="59.3233472197" lon="11.691683332">
		<tag k="name" v="Kvernekasa" />
>>>>>>> e1d4bc35ff8a6074a6f2e91616a996b547c36f15
		<tag k="place" v="locality" />
		<tag k="ssr:stedsnr" v="185631" />
	</node>
<<<<<<< HEAD
	<node lat="59.28314089625236" lon="11.7782928323012" id="-13529">
		<tag k="fixme" v="consider place=hamlet" />
		<tag k="name" v="Enger" />
=======
	<node id="-234868" lat="59.245261109" lon="11.6955194367">
		<tag k="name" v="Lilledal" />
>>>>>>> e1d4bc35ff8a6074a6f2e91616a996b547c36f15
		<tag k="place" v="farm" />
		<tag k="ssr:stedsnr" v="185649" />
	</node>
<<<<<<< HEAD
	<node lat="59.28867618186504" lon="11.702838289998581" id="-13530">
		<tag k="alt_name" v="Fangesætret, nordre;Fangesætre;Nordre Fangesætret" />
		<tag k="name" v="Nordre Fangesetret" />
=======
	<node id="-234859" lat="59.2600472186" lon="11.7586138968">
		<tag k="name" v="Gleng" />
>>>>>>> e1d4bc35ff8a6074a6f2e91616a996b547c36f15
		<tag k="place" v="farm" />
		<tag k="ssr:stedsnr" v="185651" />
	</node>
<<<<<<< HEAD
	<node lat="59.25653055351085" lon="11.76509999405313" id="-13533">
		<tag k="name" v="Moen" />
=======
	<node id="-234857" lat="59.2840944406" lon="11.6928472272">
		<tag k="name" v="Fangehagen" />
>>>>>>> e1d4bc35ff8a6074a6f2e91616a996b547c36f15
		<tag k="place" v="farm" />
		<tag k="ssr:stedsnr" v="185706" />
	</node>
<<<<<<< HEAD
	<node lat="59.26288816175578" lon="11.819332026845307" id="-13534">
		<tag k="name" v="Sikerød" />
=======
	<node id="-234856" lat="59.2743750003" lon="11.7928444463">
		<tag k="name" v="Lia" />
>>>>>>> e1d4bc35ff8a6074a6f2e91616a996b547c36f15
		<tag k="place" v="isolated_dwelling" />
		<tag k="ssr:stedsnr" v="185709" />
	</node>
<<<<<<< HEAD
	<node lat="59.27197458968763" lon="11.661174540356681" id="-13535">
		<tag k="alt_name" v="Rive søndre" />
		<tag k="fixme" v="consider place=hamlet" />
		<tag k="name" v="Søndre Rive" />
=======
	<node id="-234853" lat="59.2870361108" lon="11.6454861117">
		<tag k="alt_name" v="Lervik søndre" />
		<tag k="name" v="Søndre Lervik" />
		<tag k="old_name" v="Lervik midtre" />
>>>>>>> e1d4bc35ff8a6074a6f2e91616a996b547c36f15
		<tag k="place" v="farm" />
		<tag k="ssr:stedsnr" v="185678" />
	</node>
<<<<<<< HEAD
	<node lat="59.31881389116631" lon="11.721838883614623" id="-13539">
		<tag k="name" v="Øvre Sørenskas" />
=======
	<node id="-234851" lat="59.2985333336" lon="11.7563361195">
		<tag k="name" v="Størholtet" />
>>>>>>> e1d4bc35ff8a6074a6f2e91616a996b547c36f15
		<tag k="place" v="locality" />
		<tag k="ssr:stedsnr" v="220289" />
	</node>
<<<<<<< HEAD
	<node lat="59.26145569018036" lon="11.640270800207654" id="-13540">
		<tag k="name" v="Nordre Følingen" />
=======
	<node id="-234850" lat="59.2954638853" lon="11.7460583275">
		<tag k="alt_name" v="Lagerrholt" />
		<tag k="name" v="Laggarholtet" />
>>>>>>> e1d4bc35ff8a6074a6f2e91616a996b547c36f15
		<tag k="place" v="farm" />
		<tag k="ssr:stedsnr" v="220491" />
	</node>
<<<<<<< HEAD
	<node lat="59.27670277939851" lon="11.640527779544778" id="-13543">
		<tag k="name" v="Søndre Dagerød" />
		<tag k="place" v="farm" />
		<tag k="ssr:stedsnr" v="233093" />
	</node>
	<node lat="59.18228404094884" lon="11.720514816834749" id="-13549">
		<tag k="alt_name" v="Aspestrand vestre;Aspestrand;Vestgården" />
		<tag k="fixme" v="consider place=hamlet" />
		<tag k="name" v="Vestre Aspestrand" />
=======
	<node id="-234848" lat="59.303461111" lon="11.7233694509">
		<tag k="name" v="Djupetjernkasa" />
		<tag k="place" v="isolated_dwelling" />
		<tag k="ssr:stedsnr" v="791652" />
	</node>
	<node id="-234847" lat="59.2200472262" lon="11.7042722172">
		<tag k="alt_name" v="Haugby" />
		<tag k="name" v="Haugeby" />
>>>>>>> e1d4bc35ff8a6074a6f2e91616a996b547c36f15
		<tag k="place" v="farm" />
		<tag k="ssr:stedsnr" v="244102" />
	</node>
<<<<<<< HEAD
	<node lat="59.23434999883128" lon="11.742294449022673" id="-13550">
		<tag k="name" v="Rovedal" />
=======
	<node id="-234843" lat="59.2349365992" lon="11.6954588147">
		<tag k="fixme" v="consider place=hamlet" />
		<tag k="name" v="Flatland" />
>>>>>>> e1d4bc35ff8a6074a6f2e91616a996b547c36f15
		<tag k="place" v="farm" />
		<tag k="ssr:stedsnr" v="244139" />
	</node>
<<<<<<< HEAD
	<node lat="59.18121111143682" lon="11.60493333102962" id="-13552">
		<tag k="name" v="Moen" />
		<tag k="place" v="farm" />
		<tag k="ssr:stedsnr" v="244088" />
	</node>
	<node lat="59.081133334277105" lon="11.681861107279486" id="-13558">
		<tag k="name" v="Ørnelund" />
=======
	<node id="-234840" lat="59.2419944448" lon="11.6831250035">
		<tag k="name" v="Kirkeng" />
		<tag k="ssr:stedsnr" v="786144" />
		<tag k="tourism" v="camp_site" />
	</node>
	<node id="-234834" lat="59.1809915532" lon="11.7241256606">
		<tag k="name" v="Aspestrand" />
		<tag k="place" v="hamlet" />
		<tag k="ssr:stedsnr" v="780865" />
	</node>
	<node id="-234832" lat="59.1837611071" lon="11.6379888923">
		<tag k="name" v="Sandtorp" />
>>>>>>> e1d4bc35ff8a6074a6f2e91616a996b547c36f15
		<tag k="place" v="locality" />
		<tag k="ssr:stedsnr" v="244502" />
	</node>
<<<<<<< HEAD
	<node lat="59.23829444842833" lon="11.787300003587267" id="-13562">
		<tag k="name" v="Doktorhytta" />
		<tag k="place" v="isolated_dwelling" />
		<tag k="ssr:stedsnr" v="245221" />
	</node>
	<node lat="59.22163889070876" lon="11.696424994550771" id="-13565">
		<tag k="fixme" v="consider place=hamlet" />
		<tag k="name" v="Fossby" />
		<tag k="place" v="village" />
		<tag k="ssr:stedsnr" v="267329" />
	</node>
	<node lat="59.24620833759938" lon="11.682766664587902" id="-13566">
		<tag k="fixme" v="consider place=hamlet" />
		<tag k="name" v="Aremark" />
		<tag k="place" v="village" />
		<tag k="ssr:stedsnr" v="273384" />
	</node>
	<node lat="59.29716944365318" lon="11.658258327751426" id="-13570">
		<tag k="name" v="Nordre Nes" />
=======
	<node id="-234827" lat="59.2229388913" lon="11.6948249951">
		<tag k="name" v="Vestre Fosby" />
		<tag k="place" v="farm" />
		<tag k="ssr:stedsnr" v="780295" />
	</node>
	<node id="-234826" lat="59.2098638884" lon="11.7232666582">
		<tag k="name" v="Haug" />
		<tag k="place" v="farm" />
		<tag k="ssr:stedsnr" v="780294" />
	</node>
	<node id="-234824" lat="59.216866671" lon="11.7162888851">
		<tag k="alt_name" v="Kopperød mellem" />
		<tag k="name" v="Mellom-Kopperød" />
>>>>>>> e1d4bc35ff8a6074a6f2e91616a996b547c36f15
		<tag k="place" v="farm" />
		<tag k="ssr:stedsnr" v="281021" />
	</node>
<<<<<<< HEAD
	<node lat="59.29830555982508" lon="11.636913897101001" id="-13572">
		<tag k="name" v="Nordre Pina" />
		<tag k="place" v="locality" />
		<tag k="ssr:stedsnr" v="462046" />
	</node>
	<node lat="59.243611110619774" lon="11.756161107556542" id="-13579">
		<tag k="name" v="Kverndalen" />
		<tag k="place" v="farm" />
		<tag k="ssr:stedsnr" v="294117" />
	</node>
	<node lat="59.2623166636844" lon="11.7799611067537" id="-13588">
		<tag k="name" v="Holtebrekke" />
=======
	<node id="-234811" lat="59.2979777768" lon="11.7724361128">
		<tag k="name" v="Pålstad" />
		<tag k="place" v="isolated_dwelling" />
		<tag k="ssr:stedsnr" v="779788" />
	</node>
	<node id="-234796" lat="59.3041111093" lon="11.6478888906">
		<tag k="name" v="Madserød" />
>>>>>>> e1d4bc35ff8a6074a6f2e91616a996b547c36f15
		<tag k="place" v="locality" />
		<tag k="ssr:stedsnr" v="294787" />
	</node>
<<<<<<< HEAD
	<node lat="59.218011109960266" lon="11.691458336925617" id="-13591">
		<tag k="name" v="Skotsbergåsen" />
=======
	<node id="-234790" lat="59.329961115" lon="11.6349361145">
		<tag k="name" v="Vatnemellom" />
>>>>>>> e1d4bc35ff8a6074a6f2e91616a996b547c36f15
		<tag k="place" v="neighbourhood" />
		<tag k="ssr:stedsnr" v="300092" />
	</node>
<<<<<<< HEAD
	<node lat="59.236569444534204" lon="11.629563886074953" id="-13592">
		<tag k="name" v="Føllholtet" />
		<tag k="place" v="locality" />
		<tag k="ssr:stedsnr" v="304127" />
	</node>
	<node lat="59.19535809035342" lon="11.677030495478483" id="-13593">
		<tag k="alt_name" v="Mørholt;Mørholt øvre" />
		<tag k="name" v="Øvre Mørholt" />
=======
	<node id="-234789" lat="59.2268722101" lon="11.7235606034">
		<tag k="fixme" v="consider place=hamlet" />
		<tag k="name" v="Søndre Espelund" />
		<tag k="place" v="farm" />
		<tag k="ssr:stedsnr" v="766451" />
	</node>
	<node id="-234786" lat="59.3185406188" lon="11.7222292597">
		<tag k="name" v="Nedre Sørenskas" />
>>>>>>> e1d4bc35ff8a6074a6f2e91616a996b547c36f15
		<tag k="place" v="farm" />
		<tag k="ssr:stedsnr" v="305170" />
	</node>
<<<<<<< HEAD
	<node lat="59.14133055862203" lon="11.750916667188488" id="-13595">
		<tag k="name" v="Haugen" />
		<tag k="place" v="farm" />
		<tag k="ssr:stedsnr" v="306022" />
	</node>
	<node lat="59.279774995552636" lon="11.695772225408687" id="-13597">
		<tag k="name" v="Østeby" />
=======
	<node id="-234784" lat="59.1736333336" lon="11.6530666592">
		<tag k="name" v="Vestre Åsgård" />
		<tag k="place" v="farm" />
		<tag k="ssr:stedsnr" v="766263" />
	</node>
	<node id="-234782" lat="59.2941861125" lon="11.6339777794">
		<tag k="name" v="Lundestad" />
		<tag k="place" v="locality" />
		<tag k="ssr:stedsnr" v="766031" />
	</node>
	<node id="-234775" lat="59.3111888877" lon="11.6691055602">
		<tag k="name" v="Brekka" />
>>>>>>> e1d4bc35ff8a6074a6f2e91616a996b547c36f15
		<tag k="place" v="farm" />
		<tag k="ssr:stedsnr" v="306681" />
	</node>
<<<<<<< HEAD
	<node lat="59.28026666405269" lon="11.677691670300213" id="-13598">
		<tag k="name" v="Fangebukta" />
		<tag k="place" v="neighbourhood" />
		<tag k="ssr:stedsnr" v="466025" />
	</node>
	<node lat="59.23904999852177" lon="11.682997213506635" id="-13599">
		<tag k="name" v="Kirkeng" />
		<tag k="place" v="neighbourhood" />
		<tag k="ssr:stedsnr" v="466026" />
	</node>
	<node lat="59.25535833439967" lon="11.679963887242222" id="-13600">
		<tag k="name" v="Arebekken" />
		<tag k="place" v="neighbourhood" />
		<tag k="ssr:stedsnr" v="466027" />
	</node>
	<node lat="59.21204721802537" lon="11.755699999830739" id="-13611">
		<tag k="name" v="Søndre Bråtane" />
=======
	<node id="-234774" lat="59.2373361073" lon="11.6881583323">
		<tag k="name" v="Sjøvik" />
		<tag k="place" v="farm" />
		<tag k="ssr:stedsnr" v="643450" />
	</node>
	<node id="-234772" lat="59.277683337" lon="11.5886194464">
		<tag k="alt_name" v="Nordrive sætre" />
		<tag k="name" v="Nordrivesetret" />
		<tag k="place" v="locality" />
		<tag k="ssr:stedsnr" v="643328" />
	</node>
	<node id="-234769" lat="59.2737055539" lon="11.5884583268">
		<tag k="alt_name" v="Dagerødsætre;Dagerødsætret" />
		<tag k="historic" v="shieling" />
		<tag k="name" v="Dagerødsetret" />
>>>>>>> e1d4bc35ff8a6074a6f2e91616a996b547c36f15
		<tag k="place" v="locality" />
		<tag k="ssr:stedsnr" v="354226" />
	</node>
<<<<<<< HEAD
	<node lat="59.2079956668929" lon="11.72752019130215" id="-13620">
		<tag k="alt_name" v="Haug øvre" />
		<tag k="fixme" v="consider place=hamlet" />
		<tag k="name" v="Øvre Haug" />
=======
	<node id="-234768" lat="59.2783869229" lon="11.6371117136">
		<tag k="fixme" v="consider place=hamlet" />
		<tag k="name" v="Dagerød" />
		<tag k="place" v="farm" />
		<tag k="ssr:stedsnr" v="610718" />
	</node>
	<node id="-234759" lat="59.1611491755" lon="11.685510204">
		<tag k="fixme" v="consider place=hamlet" />
		<tag k="name" v="Ulsrød" />
>>>>>>> e1d4bc35ff8a6074a6f2e91616a996b547c36f15
		<tag k="place" v="farm" />
		<tag k="ssr:stedsnr" v="355301" />
	</node>
<<<<<<< HEAD
	<node lat="59.258177779914696" lon="11.698327771530247" id="-13639">
		<tag k="alt_name" v="Iglerød vestre" />
		<tag k="name" v="Vestre Iglerød" />
=======
	<node id="-234758" lat="59.1640638851" lon="11.7242388945">
		<tag k="alt_name" v="Grotmal" />
		<tag k="name" v="Grotmål" />
>>>>>>> e1d4bc35ff8a6074a6f2e91616a996b547c36f15
		<tag k="place" v="farm" />
		<tag k="ssr:stedsnr" v="476087" />
	</node>
<<<<<<< HEAD
	<node lat="59.15600555748658" lon="11.660938889487436" id="-13648">
		<tag k="name" v="Solstad" />
=======
	<node id="-234754" lat="59.0930416626" lon="11.7107138875">
		<tag k="alt_name" v="Stangebråtan" />
		<tag k="name" v="Søndre Stangebråten" />
>>>>>>> e1d4bc35ff8a6074a6f2e91616a996b547c36f15
		<tag k="place" v="farm" />
		<tag k="ssr:stedsnr" v="476518" />
	</node>
<<<<<<< HEAD
	<node lat="59.24926666929472" lon="11.754811108356085" id="-13649">
		<tag k="name" v="Moskasa" />
		<tag k="place" v="locality" />
		<tag k="ssr:stedsnr" v="476783" />
	</node>
	<node lat="59.25457946939323" lon="11.737455119311221" id="-13658">
		<tag k="fixme" v="consider place=hamlet" />
		<tag k="name" v="Rød" />
=======
	<node id="-234753" lat="59.0854777744" lon="11.7566083314">
		<tag k="name" v="Petersborg" />
		<tag k="place" v="isolated_dwelling" />
		<tag k="ssr:stedsnr" v="607492" />
	</node>
	<node id="-234748" lat="59.2871999996" lon="11.6782027825">
		<tag k="alt_name" v="Mellem-Fange" />
		<tag k="name" v="Mellom-Fange" />
>>>>>>> e1d4bc35ff8a6074a6f2e91616a996b547c36f15
		<tag k="place" v="farm" />
		<tag k="ssr:stedsnr" v="367602" />
	</node>
<<<<<<< HEAD
	<node lat="59.259597604283364" lon="11.809379536850047" id="-13660">
		<tag k="fixme" v="consider place=hamlet" />
		<tag k="name" v="Mosviken" />
=======
	<node id="-234747" lat="59.2977527809" lon="11.6941027718">
		<tag k="fixme" v="multiple name tags, choose one and add the other to alt_name" />
		<tag k="name" v="Fangemyra;Myra" />
>>>>>>> e1d4bc35ff8a6074a6f2e91616a996b547c36f15
		<tag k="place" v="farm" />
		<tag k="ssr:stedsnr" v="367724" />
	</node>
<<<<<<< HEAD
	<node lat="59.23528611162788" lon="11.665097230185852" id="-13664">
		<tag k="name" v="Mjølnerød" />
		<tag k="place" v="locality" />
		<tag k="ssr:stedsnr" v="401485" />
	</node>
	<node lat="59.23249722368812" lon="11.67925833840802" id="-13668">
		<tag k="name" v="Granly" />
		<tag k="place" v="locality" />
		<tag k="ssr:stedsnr" v="402485" />
	</node>
	<node lat="59.15943055819944" lon="11.730138884940985" id="-13675">
		<tag k="name" v="Tripperød" />
		<tag k="place" v="locality" />
		<tag k="ssr:stedsnr" v="487101" />
	</node>
	<node lat="59.142799093178084" lon="11.762242688774478" id="-13680">
		<tag k="alt_name" v="Bjørkebekk;Store Bjerkebekk;Bjerkebekk" />
		<tag k="name" v="Store Bjørkebekk" />
=======
	<node id="-234740" lat="59.1432722182" lon="11.7391694441">
		<tag k="name" v="Neset" />
		<tag k="place" v="farm" />
		<tag k="ssr:stedsnr" v="597933" />
	</node>
	<node id="-234734" lat="59.2675472253" lon="11.7891111192">
		<tag k="name" v="Kasa" />
		<tag k="place" v="farm" />
		<tag k="ssr:stedsnr" v="597804" />
	</node>
	<node id="-234724" lat="59.225180553" lon="11.7170388919">
		<tag k="name" v="Solbakken" />
		<tag k="place" v="farm" />
		<tag k="ssr:stedsnr" v="597319" />
	</node>
	<node id="-234723" lat="59.2465999986" lon="11.6513888903">
		<tag k="name" v="Korset" />
>>>>>>> e1d4bc35ff8a6074a6f2e91616a996b547c36f15
		<tag k="place" v="locality" />
		<tag k="ssr:stedsnr" v="488019" />
	</node>
<<<<<<< HEAD
	<node lat="59.216442265552075" lon="11.628229322345142" id="-13686">
		<tag k="name" v="Nordbyseter" />
=======
	<node id="-234711" lat="59.2967083302" lon="11.6376166629">
		<tag k="name" v="Søndre Pina" />
>>>>>>> e1d4bc35ff8a6074a6f2e91616a996b547c36f15
		<tag k="place" v="locality" />
		<tag k="ssr:stedsnr" v="416304" />
	</node>
<<<<<<< HEAD
	<node lat="59.31269721913808" lon="11.595869447474698" id="-13687">
		<tag k="name" v="Søndre Kilebråten" />
		<tag k="place" v="farm" />
		<tag k="ssr:stedsnr" v="416305" />
	</node>
	<node lat="59.20024839594083" lon="11.731007244450335" id="-13688">
		<tag k="fixme" v="consider place=hamlet" />
		<tag k="name" v="Rød" />
=======
	<node id="-234709" lat="59.3244888861" lon="11.6942333326">
		<tag k="name" v="Hagen" />
		<tag k="place" v="isolated_dwelling" />
		<tag k="ssr:stedsnr" v="583006" />
	</node>
	<node id="-234707" lat="59.2385527768" lon="11.6922527746">
		<tag k="name" v="Vikheim" />
>>>>>>> e1d4bc35ff8a6074a6f2e91616a996b547c36f15
		<tag k="place" v="farm" />
		<tag k="ssr:stedsnr" v="416892" />
	</node>
<<<<<<< HEAD
	<node lat="59.19042777533399" lon="11.68098610686745" id="-13691">
		<tag k="name" v="Bakås" />
		<tag k="place" v="locality" />
		<tag k="ssr:stedsnr" v="416990" />
	</node>
	<node lat="59.280311110904464" lon="11.645669446647661" id="-13692">
		<tag k="alt_name" v="Rivegård" />
		<tag k="name" v="Riveødegård" />
=======
	<node id="-234706" lat="59.1846750045" lon="11.6706249997">
		<tag k="name" v="Vestlifeltet" />
		<tag k="place" v="quarter" />
		<tag k="ssr:stedsnr" v="567222" />
	</node>
	<node id="-234702" lat="59.2604111109" lon="11.780819442">
		<tag k="alt_name" v="Klokkestein" />
		<tag k="name" v="Klokkesten" />
>>>>>>> e1d4bc35ff8a6074a6f2e91616a996b547c36f15
		<tag k="place" v="farm" />
		<tag k="ssr:stedsnr" v="488680" />
	</node>
<<<<<<< HEAD
	<node lat="59.267452774243814" lon="11.682986116503654" id="-13694">
		<tag k="alt_name" v="Fangekasa" />
		<tag k="name" v="Kasa" />
=======
	<node id="-234701" lat="59.2714977697" lon="11.767955367">
		<tag k="fixme" v="consider place=hamlet" />
		<tag k="name" v="Røser" />
>>>>>>> e1d4bc35ff8a6074a6f2e91616a996b547c36f15
		<tag k="place" v="farm" />
		<tag k="ssr:stedsnr" v="489752" />
	</node>
<<<<<<< HEAD
	<node lat="59.25958610678446" lon="11.740947219650383" id="-13695">
		<tag k="alt_name" v="Hallesby søndre;Søndre Hallesby" />
		<tag k="name" v="Sør-Hallesby" />
=======
	<node id="-234700" lat="59.2737472198" lon="11.7815222302">
		<tag k="name" v="Engerødegården" />
>>>>>>> e1d4bc35ff8a6074a6f2e91616a996b547c36f15
		<tag k="place" v="farm" />
		<tag k="ssr:stedsnr" v="489759" />
	</node>
<<<<<<< HEAD
	<node lat="59.17435555398303" lon="11.626636114681727" id="-13699">
		<tag k="name" v="Grøte" />
		<tag k="place" v="locality" />
		<tag k="ssr:stedsnr" v="427110" />
	</node>
	<node lat="59.290111113072776" lon="11.677305556951" id="-13709">
		<tag k="alt_name" v="Fange mellem;Fange" />
		<tag k="name" v="Mellom-Fange" />
		<tag k="old_name" v="Mellem-Fange" />
=======
	<node id="-234697" lat="59.3062508993" lon="11.6539997501">
		<tag k="fixme" v="consider place=hamlet" />
		<tag k="name" v="Strøm" />
		<tag k="place" v="farm" />
		<tag k="ssr:stedsnr" v="549637" />
	</node>
	<node id="-234690" lat="59.1813959387" lon="11.7314573806">
		<tag k="alt_name" v="Aspestrand østre;Østgården" />
		<tag k="fixme" v="consider place=hamlet" />
		<tag k="name" v="Østre Aspestrand" />
>>>>>>> e1d4bc35ff8a6074a6f2e91616a996b547c36f15
		<tag k="place" v="farm" />
		<tag k="ssr:stedsnr" v="428671" />
	</node>
<<<<<<< HEAD
	<node lat="59.26506532842578" lon="11.645179593588344" id="-13711">
=======
	<node id="-234689" lat="59.192966772" lon="11.6777427374">
>>>>>>> e1d4bc35ff8a6074a6f2e91616a996b547c36f15
		<tag k="fixme" v="consider place=hamlet" />
		<tag k="name" v="Holt" />
		<tag k="place" v="farm" />
		<tag k="ssr:stedsnr" v="428710" />
	</node>
<<<<<<< HEAD
	<node lat="59.26611666999192" lon="11.651202776801432" id="-13712">
		<tag k="alt_name" v="Holt" />
		<tag k="name" v="Østre Holt" />
=======
	<node id="-234684" lat="59.1427444436" lon="11.7600749952">
		<tag k="name" v="Myra" />
>>>>>>> e1d4bc35ff8a6074a6f2e91616a996b547c36f15
		<tag k="place" v="farm" />
		<tag k="ssr:stedsnr" v="428711" />
	</node>
<<<<<<< HEAD
	<node lat="59.26327499777286" lon="11.760558324408905" id="-13713">
		<tag k="alt_name" v="Torkildsrød" />
		<tag k="name" v="Torkelsrød" />
=======
	<node id="-234679" lat="59.2158444417" lon="11.7101083267">
		<tag k="alt_name" v="Gjerdsenga" />
		<tag k="name" v="Jersengen" />
>>>>>>> e1d4bc35ff8a6074a6f2e91616a996b547c36f15
		<tag k="place" v="farm" />
		<tag k="ssr:stedsnr" v="428718" />
	</node>
<<<<<<< HEAD
	<node lat="59.325526487328524" lon="11.673004116553921" id="-13717">
		<tag k="name" v="Bøen" />
		<tag k="place" v="hamlet" />
		<tag k="ssr:stedsnr" v="671641" />
	</node>
	<node lat="59.2560466747858" lon="11.700012911444803" id="-13719">
=======
	<node id="-234677" lat="59.2382694449" lon="11.6749027811">
		<tag k="name" v="Tangen" />
		<tag k="place" v="locality" />
		<tag k="ssr:stedsnr" v="547152" />
	</node>
	<node id="-234660" lat="59.2611591278" lon="11.7439609849">
>>>>>>> e1d4bc35ff8a6074a6f2e91616a996b547c36f15
		<tag k="fixme" v="consider place=hamlet" />
		<tag k="name" v="Iglerød" />
		<tag k="place" v="farm" />
		<tag k="ssr:stedsnr" v="671737" />
	</node>
<<<<<<< HEAD
	<node lat="59.260052776358044" lon="11.7357833270589" id="-13720">
		<tag k="name" v="Rødsmoen" />
=======
	<node id="-234659" lat="59.2576194463" lon="11.7013194522">
		<tag k="alt_name" v="Iglerød nordre" />
		<tag k="name" v="Nordre Iglerød" />
>>>>>>> e1d4bc35ff8a6074a6f2e91616a996b547c36f15
		<tag k="place" v="farm" />
		<tag k="ssr:stedsnr" v="671738" />
	</node>
<<<<<<< HEAD
	<node lat="59.228919441521526" lon="11.724277784365615" id="-13722">
		<tag k="name" v="Bekkevangen" />
		<tag k="place" v="locality" />
		<tag k="ssr:stedsnr" v="462461" />
	</node>
	<node lat="59.24645555602119" lon="11.691613894567821" id="-13723">
		<tag k="name" v="Nybo" />
=======
	<node id="-234656" lat="59.2437833363" lon="11.6414166713">
		<tag k="name" v="Gressholt" />
		<tag k="place" v="locality" />
		<tag k="ssr:stedsnr" v="537278" />
	</node>
	<node id="-234651" lat="59.2494000026" lon="11.7467888834">
		<tag k="name" v="Nordre Kollerød" />
		<tag k="place" v="farm" />
		<tag k="ssr:stedsnr" v="536782" />
	</node>
	<node id="-234650" lat="59.2679888913" lon="11.7824055523">
		<tag k="alt_name" v="Leksrødkasene" />
		<tag k="name" v="Kasene" />
>>>>>>> e1d4bc35ff8a6074a6f2e91616a996b547c36f15
		<tag k="place" v="locality" />
		<tag k="ssr:stedsnr" v="462472" />
	</node>
<<<<<<< HEAD
	<node lat="59.24238055853535" lon="11.682277775677806" id="-13735">
		<tag k="alt_name" v="Kirkeng nordre" />
		<tag k="name" v="Nordre Kirkeng" />
		<tag k="place" v="farm" />
		<tag k="ssr:stedsnr" v="483186" />
	</node>
	<node lat="59.22998055814042" lon="11.74007222696252" id="-13737">
		<tag k="name" v="Frydenlund" />
=======
	<node id="-234642" lat="59.3053749962" lon="11.646211106">
		<tag k="name" v="Østre Torget" />
		<tag k="place" v="isolated_dwelling" />
		<tag k="ssr:stedsnr" v="536046" />
	</node>
	<node id="-234641" lat="59.3057583344" lon="11.6437805512">
		<tag k="name" v="Vestre Torget" />
		<tag k="place" v="locality" />
		<tag k="ssr:stedsnr" v="536045" />
	</node>
	<node id="-234639" lat="59.2460722207" lon="11.7157194513">
		<tag k="name" v="Holmen" />
		<tag k="place" v="locality" />
		<tag k="ssr:stedsnr" v="523535" />
	</node>
	<node id="-234638" lat="59.2281777773" lon="11.72795278">
		<tag k="name" v="Espelund" />
>>>>>>> e1d4bc35ff8a6074a6f2e91616a996b547c36f15
		<tag k="place" v="farm" />
		<tag k="ssr:stedsnr" v="486102" />
	</node>
<<<<<<< HEAD
	<node lat="59.22340378697714" lon="11.69557392863328" id="-13741">
		<tag k="fixme" v="consider place=hamlet" />
		<tag k="name" v="Fossby" />
=======
	<node id="-234633" lat="59.3074888893" lon="11.6606805589">
		<tag k="name" v="Nordre Strøm" />
>>>>>>> e1d4bc35ff8a6074a6f2e91616a996b547c36f15
		<tag k="place" v="farm" />
		<tag k="ssr:stedsnr" v="487154" />
	</node>
<<<<<<< HEAD
	<node lat="59.21871944530103" lon="11.732766674256814" id="-13742">
		<tag k="name" v="Tolverød" />
=======
	<node id="-234631" lat="59.2405499969" lon="11.6943916693">
		<tag k="name" v="Nordre Wiig" />
>>>>>>> e1d4bc35ff8a6074a6f2e91616a996b547c36f15
		<tag k="place" v="farm" />
		<tag k="ssr:stedsnr" v="487167" />
	</node>
<<<<<<< HEAD
	<node lat="59.196447223036365" lon="11.72046388342226" id="-13744">
		<tag k="fixme" v="multiple name tags, choose one and add the other to alt_name" />
		<tag k="name" v="Glennekasa;Bikkjerød" />
=======
	<node id="-234626" lat="59.282197224" lon="11.6964555509">
		<tag k="name" v="Nordby" />
>>>>>>> e1d4bc35ff8a6074a6f2e91616a996b547c36f15
		<tag k="place" v="farm" />
		<tag k="ssr:stedsnr" v="487172" />
	</node>
<<<<<<< HEAD
	<node lat="59.2070195666642" lon="11.720524811488284" id="-13745">
		<tag k="name" v="Haug" />
		<tag k="place" v="hamlet" />
		<tag k="ssr:stedsnr" v="487175" />
	</node>
	<node lat="59.251443188916895" lon="11.640017141383277" id="-13747">
		<tag k="fixme" v="consider place=hamlet" />
		<tag k="name" v="Teigen" />
=======
	<node id="-234624" lat="59.2901111131" lon="11.677305557">
		<tag k="alt_name" v="Fange mellem;Fange" />
		<tag k="name" v="Mellom-Fange" />
		<tag k="old_name" v="Mellem-Fange" />
>>>>>>> e1d4bc35ff8a6074a6f2e91616a996b547c36f15
		<tag k="place" v="farm" />
		<tag k="ssr:stedsnr" v="488605" />
	</node>
<<<<<<< HEAD
	<node lat="59.28980681789483" lon="11.642300100759174" id="-13748">
		<tag k="name" v="Lervik" />
		<tag k="place" v="hamlet" />
		<tag k="ssr:stedsnr" v="488649" />
	</node>
	<node lat="59.28366702423026" lon="11.645438835068475" id="-13749">
		<tag k="alt_name" v="Lervik søndre" />
		<tag k="name" v="Søndre Lervik" />
		<tag k="place" v="farm" />
		<tag k="ssr:stedsnr" v="488655" />
	</node>
	<node lat="59.27808888725169" lon="11.781894443426488" id="-13750">
		<tag k="name" v="Nyset" />
=======
	<node id="-234617" lat="59.2400944434" lon="11.6484944512">
		<tag k="alt_name" v="Buerødegård" />
		<tag k="name" v="Buerøgården" />
		<tag k="place" v="isolated_dwelling" />
		<tag k="ssr:stedsnr" v="427271" />
	</node>
	<node id="-234616" lat="59.2430333327" lon="11.6456027838">
		<tag k="name" v="Bakkeli" />
		<tag k="place" v="isolated_dwelling" />
		<tag k="ssr:stedsnr" v="427270" />
	</node>
	<node id="-234615" lat="59.248090033" lon="11.6817705573">
		<tag k="alt_name" v="Prestegården" />
		<tag k="fixme" v="consider place=hamlet" />
		<tag k="name" v="Aremark prestegård" />
>>>>>>> e1d4bc35ff8a6074a6f2e91616a996b547c36f15
		<tag k="place" v="farm" />
		<tag k="ssr:stedsnr" v="488692" />
	</node>
<<<<<<< HEAD
	<node lat="59.24940000259336" lon="11.746788883410456" id="-13765">
		<tag k="name" v="Nordre Kollerød" />
=======
	<node id="-234611" lat="59.1838035379" lon="11.6665489805">
		<tag k="fixme" v="consider place=hamlet" />
		<tag k="name" v="Berger" />
>>>>>>> e1d4bc35ff8a6074a6f2e91616a996b547c36f15
		<tag k="place" v="farm" />
		<tag k="ssr:stedsnr" v="536782" />
	</node>
<<<<<<< HEAD
	<node lat="59.25761944625106" lon="11.701319452160462" id="-13769">
		<tag k="alt_name" v="Iglerød nordre" />
		<tag k="name" v="Nordre Iglerød" />
=======
	<node id="-234603" lat="59.1995944402" lon="11.7050333287">
		<tag k="name" v="Fossen" />
>>>>>>> e1d4bc35ff8a6074a6f2e91616a996b547c36f15
		<tag k="place" v="farm" />
		<tag k="ssr:stedsnr" v="537069" />
	</node>
<<<<<<< HEAD
	<node lat="59.24378333627111" lon="11.641416671258758" id="-13772">
		<tag k="name" v="Gressholt" />
=======
	<node id="-234602" lat="59.2013638857" lon="11.7373916735">
		<tag k="name" v="Rødsmoen" />
>>>>>>> e1d4bc35ff8a6074a6f2e91616a996b547c36f15
		<tag k="place" v="locality" />
		<tag k="ssr:stedsnr" v="537278" />
	</node>
<<<<<<< HEAD
	<node lat="59.21584444171332" lon="11.710108326681489" id="-13783">
		<tag k="alt_name" v="Gjerdsenga" />
		<tag k="name" v="Jersengen" />
		<tag k="place" v="farm" />
		<tag k="ssr:stedsnr" v="547181" />
	</node>
	<node lat="59.142744443641305" lon="11.760074995151623" id="-13787">
		<tag k="name" v="Myra" />
		<tag k="place" v="farm" />
		<tag k="ssr:stedsnr" v="548019" />
	</node>
	<node lat="59.19296677200695" lon="11.677742737393336" id="-13788">
=======
	<node id="-234597" lat="59.3078916697" lon="11.6244944529">
		<tag k="name" v="Våla" />
		<tag k="place" v="neighbourhood" />
		<tag k="ssr:stedsnr" v="419130" />
	</node>
	<node id="-234596" lat="59.1904277753" lon="11.6809861069">
		<tag k="name" v="Bakås" />
		<tag k="place" v="locality" />
		<tag k="ssr:stedsnr" v="416990" />
	</node>
	<node id="-234593" lat="59.2002483959" lon="11.7310072445">
>>>>>>> e1d4bc35ff8a6074a6f2e91616a996b547c36f15
		<tag k="fixme" v="consider place=hamlet" />
		<tag k="name" v="Årbu" />
		<tag k="place" v="farm" />
		<tag k="ssr:stedsnr" v="548068" />
	</node>
<<<<<<< HEAD
	<node lat="59.18139593872626" lon="11.731457380555373" id="-13789">
		<tag k="alt_name" v="Aspestrand østre;Østgården" />
		<tag k="fixme" v="consider place=hamlet" />
		<tag k="name" v="Østre Aspestrand" />
=======
	<node id="-234589" lat="59.2146194425" lon="11.6960805606">
		<tag k="name" v="Nedre Flateby" />
>>>>>>> e1d4bc35ff8a6074a6f2e91616a996b547c36f15
		<tag k="place" v="farm" />
		<tag k="ssr:stedsnr" v="548078" />
	</node>
<<<<<<< HEAD
	<node lat="59.30625089931631" lon="11.653999750076181" id="-13792">
		<tag k="fixme" v="consider place=hamlet" />
		<tag k="name" v="Strøm" />
		<tag k="place" v="farm" />
		<tag k="ssr:stedsnr" v="549637" />
	</node>
	<node lat="59.27149776970369" lon="11.767955366980805" id="-13793">
		<tag k="fixme" v="consider place=hamlet" />
		<tag k="name" v="Røser" />
=======
	<node id="-234583" lat="59.298647223" lon="11.7569250032">
		<tag k="alt_name" v="Størholt nordre" />
		<tag k="name" v="Nordre Størholt" />
		<tag k="place" v="locality" />
		<tag k="ssr:stedsnr" v="415965" />
	</node>
	<node id="-234579" lat="59.1585805554" lon="11.6532138895">
		<tag k="alt_name" v="Østensvik øvre" />
		<tag k="name" v="Øvre Østensvik" />
>>>>>>> e1d4bc35ff8a6074a6f2e91616a996b547c36f15
		<tag k="place" v="farm" />
		<tag k="ssr:stedsnr" v="549705" />
	</node>
<<<<<<< HEAD
	<node lat="59.18467500451803" lon="11.670624999650347" id="-13795">
		<tag k="name" v="Vestlifeltet" />
		<tag k="place" v="quarter" />
		<tag k="ssr:stedsnr" v="567222" />
	</node>
	<node lat="59.32448888607308" lon="11.694233332566238" id="-13796">
		<tag k="name" v="Hagen" />
=======
	<node id="-234561" lat="59.2324972237" lon="11.6792583384">
		<tag k="name" v="Granly" />
		<tag k="place" v="isolated_dwelling" />
		<tag k="ssr:stedsnr" v="402485" />
	</node>
	<node id="-234556" lat="59.2352861116" lon="11.6650972302">
		<tag k="name" v="Mjølnerød" />
>>>>>>> e1d4bc35ff8a6074a6f2e91616a996b547c36f15
		<tag k="place" v="locality" />
		<tag k="ssr:stedsnr" v="583006" />
	</node>
<<<<<<< HEAD
	<node lat="59.296708330182156" lon="11.637616662921282" id="-13797">
		<tag k="name" v="Søndre Pina" />
		<tag k="place" v="locality" />
		<tag k="ssr:stedsnr" v="583040" />
	</node>
	<node lat="59.246599998613085" lon="11.651388890283906" id="-13805">
		<tag k="name" v="Korset" />
		<tag k="place" v="locality" />
		<tag k="ssr:stedsnr" v="597307" />
	</node>
	<node lat="59.14327221820918" lon="11.739169444125277" id="-13808">
		<tag k="name" v="Neset" />
=======
	<node id="-234546" lat="59.2595976043" lon="11.8093795369">
		<tag k="fixme" v="consider place=hamlet" />
		<tag k="name" v="Mosviken" />
		<tag k="place" v="farm" />
		<tag k="ssr:stedsnr" v="367724" />
	</node>
	<node id="-234544" lat="59.2794027754" lon="11.6933888815">
		<tag k="name" v="Sloreby" />
>>>>>>> e1d4bc35ff8a6074a6f2e91616a996b547c36f15
		<tag k="place" v="farm" />
		<tag k="ssr:stedsnr" v="597933" />
	</node>
<<<<<<< HEAD
	<node lat="59.2977527808716" lon="11.694102771754078" id="-13809">
		<tag k="fixme" v="multiple name tags, choose one and add the other to alt_name" />
		<tag k="name" v="Fangemyra;Myra" />
=======
	<node id="-234543" lat="59.2775944426" lon="11.696969449">
		<tag k="name" v="Elvestad" />
>>>>>>> e1d4bc35ff8a6074a6f2e91616a996b547c36f15
		<tag k="place" v="farm" />
		<tag k="ssr:stedsnr" v="598056" />
	</node>
<<<<<<< HEAD
	<node lat="59.22004722616601" lon="11.704272217178085" id="-13810">
		<tag k="alt_name" v="Haugby" />
		<tag k="name" v="Haugeby" />
=======
	<node id="-234542" lat="59.3089306429" lon="11.613495225">
		<tag k="fixme" v="consider place=hamlet" />
		<tag k="name" v="Kilen" />
>>>>>>> e1d4bc35ff8a6074a6f2e91616a996b547c36f15
		<tag k="place" v="farm" />
		<tag k="ssr:stedsnr" v="790141" />
	</node>
<<<<<<< HEAD
	<node lat="59.09304166259865" lon="11.710713887511398" id="-13811">
		<tag k="alt_name" v="Stangebråtan" />
		<tag k="name" v="Søndre Stangebråten" />
=======
	<node id="-234541" lat="59.3057027814" lon="11.5847222231">
		<tag k="alt_name" v="Hellesåen;Helleåsen, østre" />
		<tag k="name" v="Østre Hellesåen" />
>>>>>>> e1d4bc35ff8a6074a6f2e91616a996b547c36f15
		<tag k="place" v="farm" />
		<tag k="ssr:stedsnr" v="607494" />
	</node>
<<<<<<< HEAD
	<node lat="59.16114917549002" lon="11.685510204037135" id="-13813">
=======
	<node id="-234539" lat="59.2545794694" lon="11.7374551193">
>>>>>>> e1d4bc35ff8a6074a6f2e91616a996b547c36f15
		<tag k="fixme" v="consider place=hamlet" />
		<tag k="name" v="Ulsrød" />
		<tag k="place" v="farm" />
<<<<<<< HEAD
		<tag k="ssr:stedsnr" v="608105" />
	</node>
	<node lat="59.14256110791705" lon="11.664838883383494" id="-13814">
		<tag k="alt_name" v="Sund" />
		<tag k="name" v="Øvre Sund" />
=======
		<tag k="ssr:stedsnr" v="367602" />
	</node>
	<node id="-234536" lat="59.1613111113" lon="11.6578500066">
		<tag k="name" v="Granli" />
		<tag k="place" v="isolated_dwelling" />
		<tag k="ssr:stedsnr" v="366108" />
	</node>
	<node id="-234534" lat="59.1876749982" lon="11.5919916678">
		<tag k="name" v="Virås" />
>>>>>>> e1d4bc35ff8a6074a6f2e91616a996b547c36f15
		<tag k="place" v="farm" />
		<tag k="ssr:stedsnr" v="609013" />
	</node>
<<<<<<< HEAD
	<node lat="59.30087635281849" lon="11.659426026425326" id="-13816">
		<tag k="fixme" v="consider place=hamlet" />
		<tag k="name" v="Strømsfoss" />
		<tag k="place" v="village" />
		<tag k="ssr:stedsnr" v="609644" />
	</node>
	<node lat="59.278386922863405" lon="11.637111713639808" id="-13817">
=======
	<node id="-234533" lat="59.1872166626" lon="11.6006138929">
		<tag k="name" v="Hansesetret" />
		<tag k="place" v="locality" />
		<tag k="ssr:stedsnr" v="366056" />
	</node>
	<node id="-234526" lat="59.1437184719" lon="11.7228925455">
>>>>>>> e1d4bc35ff8a6074a6f2e91616a996b547c36f15
		<tag k="fixme" v="consider place=hamlet" />
		<tag k="name" v="Dagerød" />
		<tag k="place" v="farm" />
<<<<<<< HEAD
		<tag k="ssr:stedsnr" v="610718" />
	</node>
	<node lat="59.27370555387301" lon="11.588458326774722" id="-13818">
		<tag k="alt_name" v="Dagerødsætre;Dagerødsætret" />
		<tag k="historic" v="shieling" />
		<tag k="name" v="Dagerødsetret" />
		<tag k="place" v="isolated_dwelling" />
		<tag k="ssr:stedsnr" v="610733" />
	</node>
	<node lat="59.22945072832961" lon="11.728140214568878" id="-13822">
		<tag k="fixme" v="consider place=hamlet" />
		<tag k="name" v="Nordre Espelund" />
=======
		<tag k="ssr:stedsnr" v="366016" />
	</node>
	<node id="-234520" lat="59.2150390202" lon="11.6820026215">
		<tag k="fixme" v="consider place=hamlet" />
		<tag k="name" v="Tromopp" />
		<tag k="place" v="farm" />
		<tag k="ssr:stedsnr" v="365165" />
	</node>
	<node id="-234518" lat="59.1150305521" lon="11.698472216">
		<tag k="alt_name" v="Mortfallet" />
		<tag k="name" v="Mortefallet" />
		<tag k="place" v="isolated_dwelling" />
		<tag k="ssr:stedsnr" v="365068" />
	</node>
	<node id="-234516" lat="59.1445166624" lon="11.7522444383">
		<tag k="name" v="Nydal" />
		<tag k="place" v="farm" />
		<tag k="ssr:stedsnr" v="355920" />
	</node>
	<node id="-234515" lat="59.1474352103" lon="11.7344605355">
		<tag k="name" v="Nedre Holmegil" />
>>>>>>> e1d4bc35ff8a6074a6f2e91616a996b547c36f15
		<tag k="place" v="farm" />
		<tag k="ssr:stedsnr" v="705540" />
	</node>
<<<<<<< HEAD
	<node lat="59.30621111130956" lon="11.660808334281096" id="-13826">
		<tag k="alt_name" v="Mellem-Strøm" />
		<tag k="name" v="Mellom-Strøm" />
=======
	<node id="-234504" lat="59.2079956669" lon="11.7275201913">
		<tag k="alt_name" v="Haug øvre" />
		<tag k="fixme" v="consider place=hamlet" />
		<tag k="name" v="Øvre Haug" />
>>>>>>> e1d4bc35ff8a6074a6f2e91616a996b547c36f15
		<tag k="place" v="farm" />
		<tag k="ssr:stedsnr" v="705055" />
	</node>
<<<<<<< HEAD
	<node lat="59.30570555140494" lon="11.714044440571056" id="-13830">
		<tag k="name" v="Langenesåsen" />
		<tag k="place" v="locality" />
		<tag k="ssr:stedsnr" v="706046" />
	</node>
	<node lat="59.27768333700177" lon="11.588619446403834" id="-13832">
		<tag k="alt_name" v="Nordrive sætre" />
		<tag k="name" v="Nordrivesetret" />
		<tag k="place" v="locality" />
		<tag k="ssr:stedsnr" v="643328" />
	</node>
	<node lat="59.3111888877327" lon="11.669105560245763" id="-13834">
		<tag k="name" v="Brekka" />
=======
	<node id="-234502" lat="59.215870782" lon="11.7155514798">
		<tag k="alt_name" v="Kopperød østre" />
		<tag k="name" v="Østre Kopperød" />
		<tag k="place" v="farm" />
		<tag k="ssr:stedsnr" v="355297" />
	</node>
	<node id="-234499" lat="59.2673861088" lon="11.8041916647">
		<tag k="name" v="Tolsbysand" />
		<tag k="place" v="farm" />
		<tag k="ssr:stedsnr" v="354871" />
	</node>
	<node id="-234495" lat="59.1626833323" lon="11.6884027845">
		<tag k="name" v="Ulsrød" />
>>>>>>> e1d4bc35ff8a6074a6f2e91616a996b547c36f15
		<tag k="place" v="farm" />
		<tag k="ssr:stedsnr" v="644028" />
	</node>
<<<<<<< HEAD
	<node lat="59.31720555770681" lon="11.727336115937007" id="-13843">
		<tag k="alt_name" v="Bøensætrehagen" />
		<tag k="historic" v="shieling" />
		<tag k="name" v="Bøenseterhagen" />
		<tag k="place" v="isolated_dwelling" />
		<tag k="ssr:stedsnr" v="658203" />
	</node>
	<node lat="59.21876111383898" lon="11.683911118560845" id="-13848">
		<tag k="name" v="Skakkestad" />
=======
	<node id="-234487" lat="59.212047218" lon="11.7556999998">
		<tag k="name" v="Søndre Bråtane" />
		<tag k="place" v="locality" />
		<tag k="ssr:stedsnr" v="354226" />
	</node>
	<node id="-234479" lat="59.2793777762" lon="11.6398222266">
		<tag k="alt_name" v="Dagerød vestre" />
		<tag k="name" v="Vestre Dagerød" />
>>>>>>> e1d4bc35ff8a6074a6f2e91616a996b547c36f15
		<tag k="place" v="farm" />
		<tag k="ssr:stedsnr" v="658336" />
	</node>
<<<<<<< HEAD
	<node lat="59.29828333009209" lon="11.756300004010178" id="-13853">
		<tag k="alt_name" v="Størholt søndre" />
		<tag k="name" v="Søndre Størholt" />
		<tag k="place" v="locality" />
		<tag k="ssr:stedsnr" v="658940" />
	</node>
	<node lat="59.314597138691084" lon="11.721993608085604" id="-13855">
		<tag k="alt_name" v="Nordre Bøensætre;Djuptjernkasa" />
		<tag k="historic" v="shieling" />
		<tag k="name" v="Nordre Bøensetret" />
		<tag k="place" v="isolated_dwelling" />
		<tag k="ssr:stedsnr" v="709223" />
	</node>
	<node lat="59.224077774321415" lon="11.667905552625177" id="-13859">
		<tag k="alt_name" v="Hagen" />
		<tag k="name" v="Haugen" />
=======
	<node id="-234468" lat="59.3016555574" lon="11.6365055576">
		<tag k="name" v="Østre Siljeholt" />
		<tag k="place" v="farm" />
		<tag k="ssr:stedsnr" v="341040" />
	</node>
	<node id="-234459" lat="59.2598630124" lon="11.6418941083">
		<tag k="fixme" v="consider place=hamlet" />
		<tag k="name" v="Følingen" />
		<tag k="place" v="farm" />
		<tag k="ssr:stedsnr" v="307738" />
	</node>
	<node id="-234458" lat="59.3332138933" lon="11.6829138836">
		<tag k="name" v="Nygård" />
>>>>>>> e1d4bc35ff8a6074a6f2e91616a996b547c36f15
		<tag k="place" v="locality" />
		<tag k="ssr:stedsnr" v="669135" />
	</node>
<<<<<<< HEAD
	<node lat="59.256772222741525" lon="11.798811113473443" id="-13862">
		<tag k="name" v="Berget" />
=======
	<node id="-234457" lat="59.2797749956" lon="11.6957722254">
		<tag k="name" v="Østeby" />
>>>>>>> e1d4bc35ff8a6074a6f2e91616a996b547c36f15
		<tag k="place" v="isolated_dwelling" />
		<tag k="ssr:stedsnr" v="670724" />
	</node>
<<<<<<< HEAD
	<node lat="59.15751110922156" lon="11.648897219752461" id="-13869">
		<tag k="alt_name" v="Østensvik øvre" />
		<tag k="name" v="Øvre Østensvik" />
=======
	<node id="-234455" lat="59.3149388863" lon="11.6754972267">
		<tag k="name" v="Holteberg" />
>>>>>>> e1d4bc35ff8a6074a6f2e91616a996b547c36f15
		<tag k="place" v="farm" />
		<tag k="ssr:stedsnr" v="718522" />
	</node>
<<<<<<< HEAD
	<node lat="59.22240000306732" lon="11.697341671292996" id="-13879">
		<tag k="name" v="Østre Fossby" />
=======
	<node id="-234452" lat="59.1413305586" lon="11.7509166672">
		<tag k="name" v="Haugen" />
>>>>>>> e1d4bc35ff8a6074a6f2e91616a996b547c36f15
		<tag k="place" v="farm" />
		<tag k="ssr:stedsnr" v="727974" />
	</node>
<<<<<<< HEAD
	<node lat="59.27890277513268" lon="11.6446305476178" id="-13884">
		<tag k="name" v="Dagerød" />
=======
	<node id="-234449" lat="59.2053944481" lon="11.6924611151">
		<tag k="name" v="Nygård" />
>>>>>>> e1d4bc35ff8a6074a6f2e91616a996b547c36f15
		<tag k="place" v="farm" />
		<tag k="ssr:stedsnr" v="901078" />
	</node>
<<<<<<< HEAD
	<node lat="59.154494440561635" lon="11.755352776684427" id="-13888">
		<tag k="name" v="Løndal" />
		<tag k="place" v="locality" />
		<tag k="ssr:stedsnr" v="730007" />
	</node>
	<node lat="59.19000316549282" lon="11.685152546148197" id="-13889">
		<tag k="fixme" v="consider place=hamlet" />
		<tag k="name" v="Nordby" />
=======
	<node id="-234448" lat="59.2123320197" lon="11.7052544076">
		<tag k="fixme" v="consider place=hamlet" />
		<tag k="name" v="Krossby" />
		<tag k="place" v="farm" />
		<tag k="ssr:stedsnr" v="305175" />
	</node>
	<node id="-234447" lat="59.1959183105" lon="11.6767760822">
		<tag k="alt_name" v="Mørholt;Mørholt øvre" />
		<tag k="name" v="Øvre Mørholt" />
>>>>>>> e1d4bc35ff8a6074a6f2e91616a996b547c36f15
		<tag k="place" v="farm" />
		<tag k="ssr:stedsnr" v="730067" />
	</node>
<<<<<<< HEAD
	<node lat="59.20585776252689" lon="11.724292529374061" id="-13895">
		<tag k="alt_name" v="Haug nedre" />
		<tag k="fixme" v="consider place=hamlet" />
		<tag k="name" v="Nedre Haug" />
		<tag k="place" v="farm" />
		<tag k="ssr:stedsnr" v="901299" />
	</node>
	<node lat="59.28654611071032" lon="11.701417841164012" id="-13900">
		<tag k="alt_name" v="Fangesætret, s;Fangesætre;Søndre Fangesætret" />
		<tag k="name" v="Søndre Fangesetret" />
=======
	<node id="-234444" lat="59.1766144728" lon="11.6573733703">
		<tag k="fixme" v="consider place=hamlet" />
		<tag k="name" v="Mosserød" />
		<tag k="place" v="farm" />
		<tag k="ssr:stedsnr" v="305097" />
	</node>
	<node id="-234441" lat="59.1883595933" lon="11.6715160213">
		<tag k="fixme" v="consider place=hamlet" />
		<tag k="name" v="Kvisler" />
>>>>>>> e1d4bc35ff8a6074a6f2e91616a996b547c36f15
		<tag k="place" v="farm" />
		<tag k="ssr:stedsnr" v="731660" />
	</node>
<<<<<<< HEAD
	<node lat="59.257208881232884" lon="11.750464055920032" id="-13901">
		<tag k="alt_name" v="Framgården" />
		<tag k="fixme" v="consider place=hamlet" />
		<tag k="name" v="Frammegård" />
		<tag k="place" v="farm" />
		<tag k="ssr:stedsnr" v="731725" />
	</node>
	<node lat="59.33167777523654" lon="11.70254166771087" id="-13902">
		<tag k="name" v="Nordby" />
		<tag k="place" v="locality" />
		<tag k="ssr:stedsnr" v="731730" />
	</node>
	<node lat="59.245480495205705" lon="11.710322575438704" id="-13916">
		<tag k="alt_name" v="Kirkerød øvre" />
		<tag k="name" v="Øvre Kirkerød" />
=======
	<node id="-234439" lat="59.2462427994" lon="11.7116933347">
		<tag k="name" v="Kirkerød" />
		<tag k="place" v="locality" />
		<tag k="ssr:stedsnr" v="305242" />
	</node>
	<node id="-234434" lat="59.2365694445" lon="11.6295638861">
		<tag k="name" v="Føllholtet" />
		<tag k="place" v="locality" />
		<tag k="ssr:stedsnr" v="304127" />
	</node>
	<node id="-234430" lat="59.2626333323" lon="11.8194722233">
		<tag k="name" v="Sikerød" />
		<tag k="place" v="isolated_dwelling" />
		<tag k="ssr:stedsnr" v="185709" />
	</node>
	<node id="-234429" lat="59.2565305535" lon="11.7650999941">
		<tag k="name" v="Moen" />
		<tag k="place" v="farm" />
		<tag k="ssr:stedsnr" v="185706" />
	</node>
	<node id="-234425" lat="59.2719745897" lon="11.6611745404">
		<tag k="alt_name" v="Rive søndre" />
		<tag k="fixme" v="consider place=hamlet" />
		<tag k="name" v="Søndre Rive" />
		<tag k="place" v="farm" />
		<tag k="ssr:stedsnr" v="185678" />
	</node>
	<node id="-234424" lat="59.2886777808" lon="11.7028166748">
		<tag k="alt_name" v="Fangesætret, nordre;Fangesætre;Nordre Fangesætret" />
		<tag k="name" v="Nordre Fangesetret" />
>>>>>>> e1d4bc35ff8a6074a6f2e91616a996b547c36f15
		<tag k="place" v="farm" />
		<tag k="ssr:stedsnr" v="766460" />
	</node>
<<<<<<< HEAD
	<node lat="59.16048889252026" lon="11.68763611863269" id="-13924">
		<tag k="name" v="Ulsrød" />
=======
	<node id="-234423" lat="59.2831408963" lon="11.7782928323">
		<tag k="fixme" v="consider place=hamlet" />
		<tag k="name" v="Enger" />
>>>>>>> e1d4bc35ff8a6074a6f2e91616a996b547c36f15
		<tag k="place" v="farm" />
		<tag k="ssr:stedsnr" v="779512" />
	</node>
<<<<<<< HEAD
	<node lat="59.1837611071024" lon="11.637988892256024" id="-13935">
		<tag k="name" v="Sandtorp" />
=======
	<node id="-234421" lat="59.295994443" lon="11.7422527852">
		<tag k="name" v="Knatterød" />
>>>>>>> e1d4bc35ff8a6074a6f2e91616a996b547c36f15
		<tag k="place" v="locality" />
		<tag k="ssr:stedsnr" v="780858" />
	</node>
<<<<<<< HEAD
	<node lat="59.18099155320031" lon="11.724125660615483" id="-13937">
		<tag k="name" v="Aspestrand" />
		<tag k="place" v="hamlet" />
		<tag k="ssr:stedsnr" v="780865" />
	</node>
	<node lat="59.17213833739704" lon="11.655225627952317" id="-13939">
		<tag k="name" v="Østre Åsgård" />
=======
	<node id="-234416" lat="59.0521916687" lon="11.7372583303">
		<tag k="fixme" v="consider tourism=alpine_hut or tourism=chalet" />
		<tag k="name" v="Budalsvika" />
		<tag k="ssr:stedsnr" v="184445" />
		<tag k="tourism" v="wilderness_hut" />
	</node>
	<node id="-234407" lat="59.2281583337" lon="11.7030055509">
		<tag k="alt_name" v="Myrene" />
		<tag k="name" v="Myrane" />
>>>>>>> e1d4bc35ff8a6074a6f2e91616a996b547c36f15
		<tag k="place" v="farm" />
		<tag k="ssr:stedsnr" v="909970" />
	</node>
	<node lat="59.24199444478667" lon="11.683125003474448" id="-13940">
		<tag k="name" v="Kirkeng" />
		<tag k="ssr:stedsnr" v="786144" />
		<tag k="tourism" v="camp_site" />
	</node>
<<<<<<< HEAD
	<node lat="59.23493659919656" lon="11.695458814749824" id="-13942">
		<tag k="fixme" v="consider place=hamlet" />
		<tag k="name" v="Flatland" />
		<tag k="place" v="farm" />
		<tag k="ssr:stedsnr" v="790100" />
	</node>
	<node lat="59.27437500034865" lon="11.792844446304608" id="-13950">
		<tag k="name" v="Lia" />
		<tag k="place" v="isolated_dwelling" />
		<tag k="ssr:stedsnr" v="792685" />
	</node>
	<node lat="59.28409444058638" lon="11.6928472271971" id="-13951">
		<tag k="name" v="Fangehagen" />
=======
	<node id="-234406" lat="59.2272859581" lon="11.736191394">
		<tag k="name" v="Espelund" />
		<tag k="place" v="hamlet" />
		<tag k="ssr:stedsnr" v="183142" />
	</node>
	<node id="-234404" lat="59.2371722267" lon="11.696055549">
		<tag k="name" v="Lundeby" />
>>>>>>> e1d4bc35ff8a6074a6f2e91616a996b547c36f15
		<tag k="place" v="farm" />
		<tag k="ssr:stedsnr" v="792695" />
	</node>
<<<<<<< HEAD
	<node lat="59.21223854073703" lon="11.754886699550044" id="-13958">
		<tag k="alt_name" v="Bråten" />
		<tag k="name" v="Bråtane" />
		<tag k="place" v="locality" />
		<tag k="ssr:stedsnr" v="912169" />
	</node>
	<node lat="59.24023467265621" lon="11.695955128157816" id="-13959">
		<tag k="fixme" v="consider place=hamlet" />
		<tag k="name" v="Vik" />
=======
	<node id="-234392" lat="59.1465666701" lon="11.7402194508">
		<tag k="name" v="Haugen" />
>>>>>>> e1d4bc35ff8a6074a6f2e91616a996b547c36f15
		<tag k="place" v="farm" />
		<tag k="ssr:stedsnr" v="912251" />
	</node>
<<<<<<< HEAD
	<node lat="59.277583663565764" lon="11.659147677632559" id="-13963">
		<tag k="fixme" v="consider place=hamlet" />
		<tag k="name" v="Nordre Rive" />
=======
	<node id="-234386" lat="59.2161861071" lon="11.7092611047">
		<tag k="name" v="Jersengen" />
>>>>>>> e1d4bc35ff8a6074a6f2e91616a996b547c36f15
		<tag k="place" v="farm" />
		<tag k="ssr:stedsnr" v="913687" />
	</node>
<<<<<<< HEAD
	<node lat="59.14535463110398" lon="11.693384631799121" id="-13964">
		<tag k="name" v="Holmegilkasene" />
=======
	<node id="-234379" lat="59.2778527797" lon="11.8038055609">
		<tag k="name" v="Hjerpenes" />
>>>>>>> e1d4bc35ff8a6074a6f2e91616a996b547c36f15
		<tag k="place" v="locality" />
		<tag k="ssr:stedsnr" v="913013" />
	</node>
<<<<<<< HEAD
	<node lat="59.28870464503156" lon="11.67723839312894" id="-13969">
		<tag k="name" v="Fange" />
		<tag k="place" v="hamlet" />
		<tag k="ssr:stedsnr" v="913666" />
	</node>
	<node lat="59.31433055673104" lon="11.59621944713081" id="-13971">
		<tag k="alt_name" v="Bråten" />
		<tag k="name" v="Nordre Kilebråten" />
=======
	<node id="-234366" lat="59.3140263686" lon="11.7212551353">
		<tag k="alt_name" v="Søndre Bøensætre" />
		<tag k="name" v="Søndre Bøensetret" />
		<tag k="place" v="isolated_dwelling" />
		<tag k="ssr:stedsnr" v="172180" />
	</node>
	<node id="-234353" lat="59.2965333346" lon="11.6577499983">
		<tag k="name" v="Søndre Nes" />
>>>>>>> e1d4bc35ff8a6074a6f2e91616a996b547c36f15
		<tag k="place" v="farm" />
		<tag k="ssr:stedsnr" v="914667" />
	</node>
<<<<<<< HEAD
	<node lat="59.26251985612664" lon="11.747890141142507" id="-13972">
		<tag k="alt_name" v="Hallesby nordre;Nordre Hallesby" />
		<tag k="name" v="Nord-Hallesby" />
		<tag k="place" v="farm" />
		<tag k="ssr:stedsnr" v="914748" />
	</node>
	<node lat="59.26180555707436" lon="11.685402774981785" id="-13982">
		<tag k="name" v="Skjulstad" />
		<tag k="place" v="neighbourhood" />
		<tag k="ssr:stedsnr" v="831027" />
	</node>
	<node lat="59.110961108259815" lon="11.746897215859452" id="-13988">
		<tag k="name" v="Øvre Lund" />
		<tag k="place" v="locality" />
		<tag k="ssr:stedsnr" v="840393" />
	</node>
	<node lat="59.18972500444564" lon="11.691088887573517" id="-13999">
		<tag k="name" v="Nordby" />
=======
	<node id="-234352" lat="59.2256166649" lon="11.715933336">
		<tag k="name" v="Holtekasa" />
		<tag k="place" v="farm" />
		<tag k="ssr:stedsnr" v="158454" />
	</node>
	<node id="-234348" lat="59.276541666" lon="11.58463611">
		<tag k="name" v="Kutjernshytta" />
		<tag k="place" v="isolated_dwelling" />
		<tag k="ssr:stedsnr" v="158353" />
	</node>
	<node id="-234340" lat="59.2723972237" lon="11.6809861146">
		<tag k="name" v="Rud" />
		<tag k="place" v="farm" />
		<tag k="ssr:stedsnr" v="124672" />
	</node>
	<node id="-234337" lat="59.2764972232" lon="11.6470583399">
		<tag k="name" v="Ødegården" />
		<tag k="place" v="locality" />
		<tag k="ssr:stedsnr" v="124638" />
	</node>
	<node id="-234332" lat="59.3186448161" lon="11.7213514613">
		<tag k="alt_name" v="Nedre Sørenskas" />
		<tag k="name" v="Sørenskas" />
		<tag k="place" v="isolated_dwelling" />
		<tag k="ssr:stedsnr" v="124592" />
	</node>
	<node id="-234331" lat="59.1662150941" lon="11.6524819185">
		<tag k="fixme" v="consider place=hamlet" />
		<tag k="name" v="Slorer" />
>>>>>>> e1d4bc35ff8a6074a6f2e91616a996b547c36f15
		<tag k="place" v="farm" />
		<tag k="ssr:stedsnr" v="841988" />
	</node>
<<<<<<< HEAD
	<node lat="59.23706111120112" lon="11.737725003144597" id="-14000">
		<tag k="alt_name" v="Teigen" />
		<tag k="name" v="Flatlandsteigen" />
=======
	<node id="-234330" lat="59.1827527752" lon="11.6154861059">
		<tag k="name" v="Sørli" />
>>>>>>> e1d4bc35ff8a6074a6f2e91616a996b547c36f15
		<tag k="place" v="farm" />
		<tag k="ssr:stedsnr" v="851122" />
	</node>
<<<<<<< HEAD
	<node lat="59.18054444553743" lon="11.60981667371908" id="-14001">
		<tag k="alt_name" v="Tostlund" />
		<tag k="name" v="Tostelund" />
=======
	<node id="-234328" lat="59.1529872021" lon="11.663022079">
		<tag k="alt_name" v="Østensvik nedre" />
		<tag k="fixme" v="consider place=hamlet" />
		<tag k="name" v="Nedre Østensvik" />
>>>>>>> e1d4bc35ff8a6074a6f2e91616a996b547c36f15
		<tag k="place" v="farm" />
		<tag k="ssr:stedsnr" v="851079" />
	</node>
<<<<<<< HEAD
	<node lat="59.272963886097244" lon="11.689316664452798" id="-14005">
		<tag k="name" v="Toverød" />
=======
	<node id="-234326" lat="59.1123750029" lon="11.7661361065">
		<tag k="name" v="Neverlund" />
>>>>>>> e1d4bc35ff8a6074a6f2e91616a996b547c36f15
		<tag k="place" v="farm" />
		<tag k="ssr:stedsnr" v="853716" />
	</node>
<<<<<<< HEAD
	<node lat="59.26892480689578" lon="11.790790562365707" id="-14006">
		<tag k="fixme" v="consider place=hamlet" />
		<tag k="name" v="Leksrød" />
=======
	<node id="-234324" lat="59.2164641668" lon="11.7167801181">
		<tag k="name" v="Kopperød" />
>>>>>>> e1d4bc35ff8a6074a6f2e91616a996b547c36f15
		<tag k="place" v="farm" />
		<tag k="ssr:stedsnr" v="853720" />
	</node>
<<<<<<< HEAD
	<node lat="59.25112766613431" lon="11.712323358121782" id="-14008">
		<tag k="name" v="Langedal" />
=======
	<node id="-234322" lat="59.2336083293" lon="11.5834555516">
		<tag k="name" v="Fjell" />
>>>>>>> e1d4bc35ff8a6074a6f2e91616a996b547c36f15
		<tag k="place" v="locality" />
		<tag k="ssr:stedsnr" v="853605" />
	</node>
<<<<<<< HEAD
	<node lat="59.25180278227383" lon="11.70277222233658" id="-14009">
		<tag k="name" v="Rishaugen" />
=======
	<node id="-234316" lat="59.241685908" lon="11.6466572212">
		<tag k="name" v="Åsheim" />
>>>>>>> e1d4bc35ff8a6074a6f2e91616a996b547c36f15
		<tag k="place" v="farm" />
		<tag k="ssr:stedsnr" v="853606" />
	</node>
<<<<<<< HEAD
	<node lat="59.29277777966657" lon="11.678377770914361" id="-14013">
		<tag k="alt_name" v="Fange nordre" />
		<tag k="name" v="Nord-Fange" />
=======
	<node id="-234315" lat="59.2514361141" lon="11.715233337">
		<tag k="alt_name" v="Langedal nordre" />
		<tag k="name" v="Nordre Langedal" />
>>>>>>> e1d4bc35ff8a6074a6f2e91616a996b547c36f15
		<tag k="place" v="farm" />
		<tag k="ssr:stedsnr" v="853674" />
	</node>
<<<<<<< HEAD
	<node lat="59.32606944266966" lon="11.689980564052949" id="-14014">
		<tag k="alt_name" v="Bøenødegård søndre;Søndre Bøenødegård;Søndre Bønøgården" />
		<tag k="name" v="Søndre Bøenødegården" />
=======
	<node id="-234314" lat="59.2564861108" lon="11.6953694511">
		<tag k="name" v="Aspelund" />
>>>>>>> e1d4bc35ff8a6074a6f2e91616a996b547c36f15
		<tag k="place" v="farm" />
		<tag k="ssr:stedsnr" v="887004" />
	</node>
<<<<<<< HEAD
	<node lat="59.26629722212148" lon="11.6423722246544" id="-14018">
		<tag k="name" v="Vestre Holt" />
		<tag k="place" v="farm" />
		<tag k="ssr:stedsnr" v="887453" />
	</node>
	<node lat="59.26530555413756" lon="11.64341665963354" id="-14019">
		<tag k="name" v="Vestre Holt" />
		<tag k="place" v="farm" />
		<tag k="ssr:stedsnr" v="887454" />
	</node>
	<node lat="59.208797226097396" lon="11.726194437681075" id="-14027">
		<tag k="alt_name" v="Haug østre" />
		<tag k="name" v="Østre Haug" />
		<tag k="place" v="farm" />
		<tag k="ssr:stedsnr" v="901306" />
	</node>
	<node lat="59.28605000286435" lon="11.65101388134974" id="-14034">
		<tag k="name" v="Lervik" />
		<tag k="place" v="neighbourhood" />
		<tag k="ssr:stedsnr" v="905108" />
	</node>
	<node lat="59.15903889116492" lon="11.738727783844041" id="-14037">
		<tag k="name" v="Bråten" />
		<tag k="place" v="farm" />
		<tag k="ssr:stedsnr" v="912115" />
	</node>
	<node lat="59.156175000558086" lon="11.745041671487618" id="-14038">
		<tag k="name" v="Holtet" />
		<tag k="place" v="farm" />
		<tag k="ssr:stedsnr" v="912007" />
	</node>
	<node lat="59.172390069466516" lon="11.719143918444754" id="-14039">
		<tag k="alt_name" v="Aspestrand søndre;Aspestrand;Sørgården" />
		<tag k="fixme" v="consider place=hamlet" />
		<tag k="name" v="Søndre Aspestrand" />
=======
	<node id="-234312" lat="59.332066664" lon="11.7546916734">
		<tag k="alt_name" v="Korneliussætre" />
		<tag k="historic" v="shieling" />
		<tag k="name" v="Korneliussetret" />
		<tag k="place" v="locality" />
		<tag k="ssr:stedsnr" v="112947" />
	</node>
	<node id="-234310" lat="59.1432500035" lon="11.7529999954">
		<tag k="alt_name" v="Bjerkebekk" />
		<tag k="name" v="Bjørkebekk" />
		<tag k="place" v="hamlet" />
		<tag k="ssr:stedsnr" v="112932" />
	</node>
	<node id="-234308" lat="59.1965111138" lon="11.6179916599">
		<tag k="fixme" v="multiple name tags, choose one and add the other to alt_name" />
		<tag k="name" v="Valbergsetret;Svensbysetret" />
		<tag k="place" v="locality" />
		<tag k="ssr:stedsnr" v="112885" />
	</node>
	<node id="-234307" lat="59.1997916626" lon="11.7047916667">
		<tag k="name" v="Fossen" />
		<tag k="place" v="locality" />
		<tag k="ssr:stedsnr" v="112881" />
	</node>
	<node id="-234305" lat="59.2635166626" lon="11.7905888914">
		<tag k="name" v="Gubberød" />
		<tag k="place" v="isolated_dwelling" />
		<tag k="ssr:stedsnr" v="112861" />
	</node>
	<node id="-234301" lat="59.2482444435" lon="11.758536116">
		<tag k="name" v="Bakkene" />
		<tag k="place" v="isolated_dwelling" />
		<tag k="ssr:stedsnr" v="112786" />
	</node>
	<node id="-234289" lat="59.1431444457" lon="11.6597999924">
		<tag k="name" v="Sund" />
>>>>>>> e1d4bc35ff8a6074a6f2e91616a996b547c36f15
		<tag k="place" v="farm" />
		<tag k="ssr:stedsnr" v="912092" />
	</node>
<<<<<<< HEAD
	<node lat="59.16810706638181" lon="11.720650357027575" id="-14040">
		<tag k="name" v="Mo" />
		<tag k="place" v="farm" />
		<tag k="ssr:stedsnr" v="912095" />
	</node>
	<node lat="59.167859036179195" lon="11.662881055392049" id="-14041">
		<tag k="alt_name" v="Ytre Bøen" />
		<tag k="fixme" v="consider place=hamlet" />
		<tag k="name" v="Bøen" />
=======
	<node id="-234285" lat="59.2410583364" lon="11.6875583385">
		<tag k="loc_name" v="Listeberg" />
		<tag k="name" v="Listeberghaugen" />
		<tag k="place" v="quarter" />
		<tag k="ssr:stedsnr" v="98492" />
	</node>
	<node id="-234284" lat="59.2253916665" lon="11.7275555487">
		<tag k="name" v="Østre Espelund" />
>>>>>>> e1d4bc35ff8a6074a6f2e91616a996b547c36f15
		<tag k="place" v="farm" />
		<tag k="ssr:stedsnr" v="912098" />
	</node>
<<<<<<< HEAD
	<node lat="59.30327257064698" lon="11.63413616360878" id="-14048">
		<tag k="alt_name" v="Siljeholt" />
		<tag k="name" v="Vestre Siljeholt" />
		<tag k="place" v="farm" />
		<tag k="ssr:stedsnr" v="913649" />
	</node>
	<node lat="59.16450833428301" lon="11.722369446246825" id="-14066">
		<tag k="name" v="Grotmål" />
=======
	<node id="-234279" lat="59.2913277818" lon="11.6388666709">
		<tag k="name" v="Hyllestad" />
		<tag k="place" v="locality" />
		<tag k="ssr:stedsnr" v="98036" />
	</node>
	<node id="-234277" lat="59.3143449419" lon="11.7223174631">
		<tag k="name" v="Bøensetret" />
>>>>>>> e1d4bc35ff8a6074a6f2e91616a996b547c36f15
		<tag k="place" v="farm" />
		<tag k="ssr:stedsnr" v="961686" />
	</node>
<<<<<<< HEAD
	<node lat="59.210521035571226" lon="11.690549916787727" id="-14078">
		<tag k="name" v="Skodsberg" />
=======
	<node id="-234276" lat="59.3285638877" lon="11.6342666728">
		<tag k="alt_name" v="Vatnemellem" />
		<tag k="name" v="Vatnemellom" />
		<tag k="place" v="locality" />
		<tag k="ssr:stedsnr" v="64631" />
	</node>
	<node id="-234274" lat="59.2519665319" lon="11.6543126654">
		<tag k="fixme" v="consider place=hamlet" />
		<tag k="name" v="Buer" />
>>>>>>> e1d4bc35ff8a6074a6f2e91616a996b547c36f15
		<tag k="place" v="farm" />
		<tag k="ssr:stedsnr" v="981778" />
	</node>
<<<<<<< HEAD
	<node lat="59.32784860153196" lon="11.691816601763277" id="-14080">
		<tag k="name" v="Bøenødegården" />
=======
	<node id="-234273" lat="59.1633666698" lon="11.6373083353">
		<tag k="name" v="Slorerkasa" />
>>>>>>> e1d4bc35ff8a6074a6f2e91616a996b547c36f15
		<tag k="place" v="locality" />
		<tag k="ssr:stedsnr" v="985614" />
	</node>
<<<<<<< HEAD
	<node lat="59.18546595636494" lon="11.689982886472368" id="-14088">
=======
	<node id="-234272" lat="59.1721630056" lon="11.6505618095">
>>>>>>> e1d4bc35ff8a6074a6f2e91616a996b547c36f15
		<tag k="fixme" v="consider place=hamlet" />
		<tag k="name" v="Rød" />
		<tag k="place" v="farm" />
		<tag k="ssr:stedsnr" v="2073" />
	</node>
<<<<<<< HEAD
	<node lat="59.18225445424032" lon="11.675888429565308" id="-14089">
		<tag k="fixme" v="consider place=hamlet" />
		<tag k="name" v="Svensby" />
=======
	<node id="-234271" lat="59.1749396731" lon="11.6940915278">
		<tag k="name" v="Grinder" />
>>>>>>> e1d4bc35ff8a6074a6f2e91616a996b547c36f15
		<tag k="place" v="farm" />
		<tag k="ssr:stedsnr" v="2092" />
	</node>
<<<<<<< HEAD
	<node lat="59.1819555515666" lon="11.686936116486002" id="-14090">
		<tag k="alt_name" v="Melby" />
		<tag k="name" v="Melleby" />
		<tag k="place" v="farm" />
		<tag k="ssr:stedsnr" v="2095" />
	</node>
	<node lat="59.172072224801845" lon="11.748052774605462" id="-14091">
		<tag k="fixme" v="multiple name tags, choose one and add the other to alt_name" />
		<tag k="name" v="Kjærhytta;Nordlihytta" />
		<tag k="place" v="isolated_dwelling" />
		<tag k="ssr:stedsnr" v="2112" />
	</node>
	<node lat="59.243155552376486" lon="11.710805551036017" id="-14095">
		<tag k="name" v="Sandbekk" />
=======
	<node id="-234265" lat="59.153280559" lon="11.6790583268">
		<tag k="name" v="Rustad" />
		<tag k="place" v="isolated_dwelling" />
		<tag k="ssr:stedsnr" v="63001" />
	</node>
	<node id="-234262" lat="59.0595138901" lon="11.6828083374">
		<tag k="name" v="Skogen" />
		<tag k="place" v="locality" />
		<tag k="ssr:stedsnr" v="62385" />
	</node>
	<node id="-234259" lat="59.2422833353" lon="11.6822527727">
		<tag k="name" v="Kirkeng" />
>>>>>>> e1d4bc35ff8a6074a6f2e91616a996b547c36f15
		<tag k="place" v="farm" />
		<tag k="ssr:stedsnr" v="2245" />
	</node>
<<<<<<< HEAD
	<node lat="59.24193055709009" lon="11.70924999467928" id="-14111">
		<tag k="name" v="Sandbekk" />
=======
	<node id="-234257" lat="59.2144500029" lon="11.7353861146">
		<tag k="name" v="Rønningen" />
>>>>>>> e1d4bc35ff8a6074a6f2e91616a996b547c36f15
		<tag k="place" v="farm" />
		<tag k="ssr:stedsnr" v="37482" />
	</node>
<<<<<<< HEAD
	<node lat="59.23676944206784" lon="11.68637777855778" id="-14118">
		<tag k="name" v="Sjøvik" />
		<tag k="place" v="neighbourhood" />
		<tag k="ssr:stedsnr" v="41022" />
	</node>
	<node lat="59.2503027815721" lon="11.714844436193" id="-14129">
		<tag k="alt_name" v="Langedal søndre" />
		<tag k="name" v="Søndre Langedal" />
=======
	<node id="-234255" lat="59.2326749961" lon="11.6637694517">
		<tag k="name" v="Plassen" />
>>>>>>> e1d4bc35ff8a6074a6f2e91616a996b547c36f15
		<tag k="place" v="farm" />
		<tag k="ssr:stedsnr" v="52063" />
	</node>
<<<<<<< HEAD
	<node lat="59.19552892605602" lon="11.678509631027168" id="-14130">
		<tag k="alt_name" v="Mørholt nedre" />
		<tag k="name" v="Nedre Mørholt" />
=======
	<node id="-234250" lat="59.1889249958" lon="11.7331000076">
		<tag k="name" v="Løverød" />
>>>>>>> e1d4bc35ff8a6074a6f2e91616a996b547c36f15
		<tag k="place" v="farm" />
		<tag k="ssr:stedsnr" v="52882" />
	</node>
	<node lat="59.202927775285424" lon="11.69528054716019" id="-14131">
		<tag k="name" v="Sommerro" />
		<tag k="old_name" v="Sommero" />
		<tag k="place" v="isolated_dwelling" />
		<tag k="ssr:stedsnr" v="52883" />
	</node>
<<<<<<< HEAD
	<node lat="59.218011109960266" lon="11.691458336925617" id="-14136">
=======
	<node id="-234248" lat="59.21801111" lon="11.6914583369">
>>>>>>> e1d4bc35ff8a6074a6f2e91616a996b547c36f15
		<tag k="alt_name" v="Fladebyåsen" />
		<tag k="name" v="Flatebyåsen" />
		<tag k="place" v="quarter" />
		<tag k="ssr:stedsnr" v="59117" />
	</node>
<<<<<<< HEAD
	<node lat="59.1889249957711" lon="11.733100007639202" id="-14140">
		<tag k="name" v="Løverød" />
		<tag k="place" v="farm" />
		<tag k="ssr:stedsnr" v="62066" />
	</node>
	<node lat="59.23267499610276" lon="11.663769451735083" id="-14142">
		<tag k="name" v="Plassen" />
=======
	<node id="-234246" lat="59.2459888921" lon="11.6636194453">
		<tag k="name" v="Buer" />
		<tag k="place" v="neighbourhood" />
		<tag k="ssr:stedsnr" v="55117" />
	</node>
	<node id="-234237" lat="59.225060528" lon="11.6978565926">
		<tag k="alt_name" v="Fosbyåsen" />
		<tag k="name" v="Fossbyåsen" />
		<tag k="place" v="quarter" />
		<tag k="ssr:stedsnr" v="52278" />
	</node>
	<node id="-234234" lat="59.1760053623" lon="11.6918930886">
		<tag k="fixme" v="consider place=hamlet" />
		<tag k="name" v="Grinder" />
		<tag k="place" v="farm" />
		<tag k="ssr:stedsnr" v="51381" />
	</node>
	<node id="-234226" lat="59.21801111" lon="11.6914583369">
		<tag k="name" v="Skotsbergåsen" />
		<tag k="place" v="neighbourhood" />
		<tag k="ssr:stedsnr" v="300092" />
	</node>
	<node id="-234225" lat="59.2367694421" lon="11.6863777786">
		<tag k="name" v="Sjøvik" />
		<tag k="place" v="neighbourhood" />
		<tag k="ssr:stedsnr" v="41022" />
	</node>
	<node id="-234220" lat="59.2419305571" lon="11.7092499947">
		<tag k="name" v="Sandbekk" />
>>>>>>> e1d4bc35ff8a6074a6f2e91616a996b547c36f15
		<tag k="place" v="farm" />
		<tag k="ssr:stedsnr" v="62136" />
	</node>
<<<<<<< HEAD
	<node lat="59.0595138901392" lon="11.682808337411924" id="-14144">
		<tag k="name" v="Skogen" />
		<tag k="place" v="locality" />
		<tag k="ssr:stedsnr" v="62385" />
	</node>
	<node lat="59.21445000292558" lon="11.73538611460721" id="-14145">
		<tag k="name" v="Rønningen" />
=======
	<node id="-234215" lat="59.3239040266" lon="11.6726239468">
		<tag k="fixme" v="consider place=hamlet" />
		<tag k="name" v="Søndre Bøen" />
>>>>>>> e1d4bc35ff8a6074a6f2e91616a996b547c36f15
		<tag k="place" v="farm" />
		<tag k="ssr:stedsnr" v="62158" />
	</node>
<<<<<<< HEAD
	<node lat="59.24228333534907" lon="11.682252772738757" id="-14146">
		<tag k="name" v="Kirkeng" />
=======
	<node id="-234211" lat="59.2998910915" lon="11.6659477235">
		<tag k="fixme" v="consider place=hamlet" />
		<tag k="name" v="Lund" />
>>>>>>> e1d4bc35ff8a6074a6f2e91616a996b547c36f15
		<tag k="place" v="farm" />
		<tag k="ssr:stedsnr" v="62234" />
	</node>
<<<<<<< HEAD
	<node lat="59.163366669752335" lon="11.637308335304038" id="-14151">
		<tag k="name" v="Slorerkasa" />
		<tag k="place" v="locality" />
		<tag k="ssr:stedsnr" v="63127" />
	</node>
	<node lat="59.25196653190343" lon="11.65431266542921" id="-14152">
		<tag k="fixme" v="consider place=hamlet" />
		<tag k="name" v="Buer" />
=======
	<node id="-234203" lat="59.1720722248" lon="11.7480527746">
		<tag k="fixme" v="multiple name tags, choose one and add the other to alt_name" />
		<tag k="name" v="Kjærhytta;Nordlihytta" />
		<tag k="place" v="isolated_dwelling" />
		<tag k="ssr:stedsnr" v="2112" />
	</node>
	<node id="-234202" lat="59.1819555516" lon="11.6869361165">
		<tag k="alt_name" v="Melby" />
		<tag k="name" v="Melleby" />
>>>>>>> e1d4bc35ff8a6074a6f2e91616a996b547c36f15
		<tag k="place" v="farm" />
		<tag k="ssr:stedsnr" v="64616" />
	</node>
<<<<<<< HEAD
	<node lat="59.31434494193687" lon="11.722317463088256" id="-14153">
		<tag k="name" v="Bøensetret" />
=======
	<node id="-234201" lat="59.1822544542" lon="11.6758884296">
		<tag k="fixme" v="consider place=hamlet" />
		<tag k="name" v="Svensby" />
>>>>>>> e1d4bc35ff8a6074a6f2e91616a996b547c36f15
		<tag k="place" v="farm" />
		<tag k="ssr:stedsnr" v="64656" />
	</node>
<<<<<<< HEAD
	<node lat="59.26431308390428" lon="11.796991310509089" id="-14155">
=======
	<node id="-234200" lat="59.1854659564" lon="11.6899828865">
>>>>>>> e1d4bc35ff8a6074a6f2e91616a996b547c36f15
		<tag k="fixme" v="consider place=hamlet" />
		<tag k="name" v="Tolsby" />
		<tag k="place" v="farm" />
		<tag k="ssr:stedsnr" v="64729" />
	</node>
<<<<<<< HEAD
	<node lat="59.25801111542316" lon="11.688069436572908" id="-14157">
		<tag k="name" v="Skjulstad" />
=======
	<node id="-234198" lat="59.1470388932" lon="11.7563083308">
		<tag k="name" v="Løkka" />
>>>>>>> e1d4bc35ff8a6074a6f2e91616a996b547c36f15
		<tag k="place" v="farm" />
		<tag k="ssr:stedsnr" v="64741" />
	</node>
<<<<<<< HEAD
	<node lat="59.32856388770967" lon="11.634266672770234" id="-14159">
		<tag k="alt_name" v="Vatnemellem" />
		<tag k="name" v="Vatnemellom" />
=======
	<node id="-234189" lat="59.1944777757" lon="11.7418138874">
		<tag k="alt_name" v="Vinmo" />
		<tag k="name" v="Vindmo" />
>>>>>>> e1d4bc35ff8a6074a6f2e91616a996b547c36f15
		<tag k="place" v="locality" />
		<tag k="ssr:stedsnr" v="64631" />
	</node>
<<<<<<< HEAD
	<node lat="59.291327781828855" lon="11.638866670941432" id="-14160">
		<tag k="name" v="Hyllestad" />
		<tag k="place" v="locality" />
		<tag k="ssr:stedsnr" v="98036" />
	</node>
	<node lat="59.22539166645516" lon="11.727555548699042" id="-14161">
		<tag k="name" v="Østre Espelund" />
=======
	<node id="-234183" lat="59.1758388865" lon="11.730519436">
		<tag k="name" v="Ødegården" />
		<tag k="place" v="locality" />
		<tag k="ssr:stedsnr" v="962923" />
	</node>
	<node id="-234176" lat="59.0969861117" lon="11.7111472167">
		<tag k="name" v="Nordre Stangebråten" />
		<tag k="place" v="farm" />
		<tag k="ssr:stedsnr" v="961058" />
	</node>
	<node id="-234171" lat="59.3058305526" lon="11.6604805574">
		<tag k="name" v="Nordre Strøm" />
>>>>>>> e1d4bc35ff8a6074a6f2e91616a996b547c36f15
		<tag k="place" v="farm" />
		<tag k="ssr:stedsnr" v="98486" />
	</node>
<<<<<<< HEAD
	<node lat="59.24105833644065" lon="11.687558338488252" id="-14162">
		<tag k="loc_name" v="Listeberg" />
		<tag k="name" v="Listeberghaugen" />
		<tag k="place" v="quarter" />
		<tag k="ssr:stedsnr" v="98492" />
	</node>
	<node lat="59.25143611410073" lon="11.71523333695288" id="-14173">
		<tag k="alt_name" v="Langedal nordre" />
		<tag k="name" v="Nordre Langedal" />
=======
	<node id="-234168" lat="59.2860500029" lon="11.6510138813">
		<tag k="name" v="Lervik" />
		<tag k="place" v="neighbourhood" />
		<tag k="ssr:stedsnr" v="905108" />
	</node>
	<node id="-234161" lat="59.2087972261" lon="11.7261944377">
		<tag k="alt_name" v="Haug østre" />
		<tag k="name" v="Østre Haug" />
>>>>>>> e1d4bc35ff8a6074a6f2e91616a996b547c36f15
		<tag k="place" v="farm" />
		<tag k="ssr:stedsnr" v="113069" />
	</node>
<<<<<<< HEAD
	<node lat="59.241685908045255" lon="11.646657221167453" id="-14184">
		<tag k="name" v="Åsheim" />
		<tag k="place" v="isolated_dwelling" />
		<tag k="ssr:stedsnr" v="113295" />
	</node>
	<node lat="59.26351666259044" lon="11.790588891437794" id="-14187">
		<tag k="name" v="Gubberød" />
		<tag k="place" v="locality" />
		<tag k="ssr:stedsnr" v="112861" />
	</node>
	<node lat="59.143453878415364" lon="11.754428309352358" id="-14189">
		<tag k="alt_name" v="Bjerkebekk" />
		<tag k="name" v="Bjørkebekk" />
		<tag k="place" v="hamlet" />
		<tag k="ssr:stedsnr" v="112932" />
	</node>
	<node lat="59.33206666395047" lon="11.754691673432786" id="-14191">
		<tag k="alt_name" v="Korneliussætre" />
		<tag k="historic" v="shieling" />
		<tag k="name" v="Korneliussetret" />
=======
	<node id="-234151" lat="59.2653055541" lon="11.6434166596">
		<tag k="name" v="Vestre Holt" />
		<tag k="place" v="farm" />
		<tag k="ssr:stedsnr" v="887454" />
	</node>
	<node id="-234150" lat="59.2662972221" lon="11.6423722247">
		<tag k="name" v="Vestre Holt" />
		<tag k="place" v="farm" />
		<tag k="ssr:stedsnr" v="887453" />
	</node>
	<node id="-234146" lat="59.3260694427" lon="11.6899805641">
		<tag k="alt_name" v="Bøenødegård søndre;Søndre Bøenødegård;Søndre Bønøgården" />
		<tag k="name" v="Søndre Bøenødegården" />
		<tag k="place" v="farm" />
		<tag k="ssr:stedsnr" v="887004" />
	</node>
	<node id="-234138" lat="59.3244888861" lon="11.6942333326">
		<tag k="name" v="Hagen" />
>>>>>>> e1d4bc35ff8a6074a6f2e91616a996b547c36f15
		<tag k="place" v="isolated_dwelling" />
		<tag k="ssr:stedsnr" v="112947" />
	</node>
<<<<<<< HEAD
	<node lat="59.25648611084962" lon="11.695369451110635" id="-14193">
		<tag k="name" v="Aspelund" />
=======
	<node id="-234137" lat="59.2927777797" lon="11.6783777709">
		<tag k="alt_name" v="Fange nordre" />
		<tag k="name" v="Nord-Fange" />
>>>>>>> e1d4bc35ff8a6074a6f2e91616a996b547c36f15
		<tag k="place" v="farm" />
		<tag k="ssr:stedsnr" v="113066" />
	</node>
<<<<<<< HEAD
	<node lat="59.21646416683395" lon="11.716780118108629" id="-14196">
		<tag k="name" v="Kopperød" />
=======
	<node id="-234135" lat="59.1467178575" lon="11.750969874">
		<tag k="alt_name" v="Mellomgården" />
		<tag k="fixme" v="multiple name tags, choose one and add the other to alt_name" />
		<tag k="name" v="Bjerkebekk;Mellomgård" />
>>>>>>> e1d4bc35ff8a6074a6f2e91616a996b547c36f15
		<tag k="place" v="farm" />
		<tag k="ssr:stedsnr" v="122154" />
	</node>
<<<<<<< HEAD
	<node lat="59.11237500294237" lon="11.76613610651855" id="-14198">
		<tag k="name" v="Neverlund" />
=======
	<node id="-234134" lat="59.1423916645" lon="11.6341750084">
		<tag k="name" v="Fjell" />
>>>>>>> e1d4bc35ff8a6074a6f2e91616a996b547c36f15
		<tag k="place" v="farm" />
		<tag k="ssr:stedsnr" v="122449" />
	</node>
<<<<<<< HEAD
	<node lat="59.15298720209845" lon="11.663022078968622" id="-14199">
		<tag k="alt_name" v="Østensvik nedre" />
		<tag k="fixme" v="consider place=hamlet" />
		<tag k="name" v="Nedre Østensvik" />
=======
	<node id="-234132" lat="59.2584096332" lon="11.6429782691">
		<tag k="name" v="Søndre Følingen" />
>>>>>>> e1d4bc35ff8a6074a6f2e91616a996b547c36f15
		<tag k="place" v="farm" />
		<tag k="ssr:stedsnr" v="123003" />
	</node>
<<<<<<< HEAD
	<node lat="59.182752775240964" lon="11.61548610593257" id="-14200">
		<tag k="name" v="Sørli" />
=======
	<node id="-234107" lat="59.1604888925" lon="11.6876361186">
		<tag k="name" v="Ulsrød" />
>>>>>>> e1d4bc35ff8a6074a6f2e91616a996b547c36f15
		<tag k="place" v="farm" />
		<tag k="ssr:stedsnr" v="123093" />
	</node>
<<<<<<< HEAD
	<node lat="59.31864481605127" lon="11.721351461303273" id="-14202">
		<tag k="alt_name" v="Nedre Sørenskas" />
		<tag k="name" v="Sørenskas" />
=======
	<node id="-234105" lat="59.2625198561" lon="11.7478901411">
		<tag k="alt_name" v="Hallesby nordre;Nordre Hallesby" />
		<tag k="name" v="Nord-Hallesby" />
>>>>>>> e1d4bc35ff8a6074a6f2e91616a996b547c36f15
		<tag k="place" v="farm" />
		<tag k="ssr:stedsnr" v="124592" />
	</node>
<<<<<<< HEAD
	<node lat="59.296533334566064" lon="11.657749998316792" id="-14212">
		<tag k="name" v="Søndre Nes" />
=======
	<node id="-234104" lat="59.3143305567" lon="11.5962194471">
		<tag k="alt_name" v="Bråten" />
		<tag k="name" v="Nordre Kilebråten" />
>>>>>>> e1d4bc35ff8a6074a6f2e91616a996b547c36f15
		<tag k="place" v="farm" />
		<tag k="ssr:stedsnr" v="159027" />
	</node>
<<<<<<< HEAD
	<node lat="59.314026368647625" lon="11.721255135310328" id="-14219">
		<tag k="alt_name" v="Søndre Bøensætre" />
		<tag k="historic" v="shieling" />
		<tag k="name" v="Søndre Bøensetret" />
		<tag k="place" v="isolated_dwelling" />
		<tag k="ssr:stedsnr" v="172180" />
	</node>
	<node lat="59.277852779669985" lon="11.803805560919535" id="-14236">
		<tag k="name" v="Hjerpenes" />
		<tag k="place" v="locality" />
		<tag k="ssr:stedsnr" v="172831" />
	</node>
	<node lat="59.21618610712547" lon="11.709261104698284" id="-14238">
		<tag k="name" v="Jersengen" />
=======
	<node id="-234102" lat="59.2454804952" lon="11.7103225754">
		<tag k="alt_name" v="Kirkerød øvre" />
		<tag k="name" v="Øvre Kirkerød" />
>>>>>>> e1d4bc35ff8a6074a6f2e91616a996b547c36f15
		<tag k="place" v="farm" />
		<tag k="ssr:stedsnr" v="173283" />
	</node>
<<<<<<< HEAD
	<node lat="59.23717222671461" lon="11.696055549026411" id="-14250">
		<tag k="name" v="Lundeby" />
=======
	<node id="-234099" lat="59.2775836636" lon="11.6591476776">
		<tag k="fixme" v="consider place=hamlet" />
		<tag k="name" v="Nordre Rive" />
>>>>>>> e1d4bc35ff8a6074a6f2e91616a996b547c36f15
		<tag k="place" v="farm" />
		<tag k="ssr:stedsnr" v="183108" />
	</node>
<<<<<<< HEAD
	<node lat="59.227630870851364" lon="11.728014701491308" id="-14252">
		<tag k="name" v="Espelund" />
=======
	<node id="-234098" lat="59.2890148477" lon="11.6777530542">
		<tag k="name" v="Fange" />
>>>>>>> e1d4bc35ff8a6074a6f2e91616a996b547c36f15
		<tag k="place" v="hamlet" />
		<tag k="ssr:stedsnr" v="183142" />
	</node>
<<<<<<< HEAD
	<node lat="59.228158333685336" lon="11.703005550894105" id="-14253">
		<tag k="alt_name" v="Myrene" />
		<tag k="name" v="Myrane" />
=======
	<node id="-234097" lat="59.3032725706" lon="11.6341361636">
		<tag k="alt_name" v="Siljeholt" />
		<tag k="name" v="Vestre Siljeholt" />
>>>>>>> e1d4bc35ff8a6074a6f2e91616a996b547c36f15
		<tag k="place" v="farm" />
		<tag k="ssr:stedsnr" v="183143" />
	</node>
<<<<<<< HEAD
	<node lat="59.15002550013097" lon="11.763925586293075" id="-14255">
		<tag k="name" v="Kolsbu" />
=======
	<node id="-234084" lat="59.145444448" lon="11.6919083383">
		<tag k="name" v="Holmegilkasene" />
>>>>>>> e1d4bc35ff8a6074a6f2e91616a996b547c36f15
		<tag k="place" v="locality" />
		<tag k="ssr:stedsnr" v="184010" />
	</node>
<<<<<<< HEAD
	<node lat="59.138680552429356" lon="11.744377777918766" id="-14256">
		<tag k="alt_name" v="Kvernmoen" />
		<tag k="name" v="Kvernemoen" />
		<tag k="place" v="isolated_dwelling" />
		<tag k="ssr:stedsnr" v="184022" />
	</node>
	<node lat="59.136727782185204" lon="11.774419449269322" id="-14257">
		<tag k="alt_name" v="Allingmoen" />
		<tag k="name" v="Alingmoen" />
=======
	<node id="-234081" lat="59.2402346727" lon="11.6959551282">
		<tag k="fixme" v="consider place=hamlet" />
		<tag k="name" v="Vik" />
		<tag k="place" v="farm" />
		<tag k="ssr:stedsnr" v="912251" />
	</node>
	<node id="-234080" lat="59.2122385407" lon="11.7548866996">
		<tag k="alt_name" v="Bråten" />
		<tag k="name" v="Bråtane" />
		<tag k="place" v="locality" />
		<tag k="ssr:stedsnr" v="912169" />
	</node>
	<node id="-234077" lat="59.1590388912" lon="11.7387277838">
		<tag k="name" v="Bråten" />
		<tag k="place" v="farm" />
		<tag k="ssr:stedsnr" v="912115" />
	</node>
	<node id="-234074" lat="59.1678590362" lon="11.6628810554">
		<tag k="alt_name" v="Ytre Bøen" />
		<tag k="fixme" v="consider place=hamlet" />
		<tag k="name" v="Bøen" />
>>>>>>> e1d4bc35ff8a6074a6f2e91616a996b547c36f15
		<tag k="place" v="farm" />
		<tag k="ssr:stedsnr" v="184027" />
	</node>
<<<<<<< HEAD
	<node lat="59.22865277941454" lon="11.697469442548993" id="-14268">
		<tag k="name" v="Myrland" />
=======
	<node id="-234073" lat="59.1681070664" lon="11.720650357">
		<tag k="name" v="Mo" />
>>>>>>> e1d4bc35ff8a6074a6f2e91616a996b547c36f15
		<tag k="place" v="farm" />
		<tag k="ssr:stedsnr" v="219453" />
	</node>
<<<<<<< HEAD
	<node lat="59.239050003750485" lon="11.696922220383074" id="-14275">
		<tag k="name" v="Søndre Vik" />
=======
	<node id="-234072" lat="59.1723900695" lon="11.7191439184">
		<tag k="alt_name" v="Aspestrand søndre;Aspestrand;Sørgården" />
		<tag k="fixme" v="consider place=hamlet" />
		<tag k="name" v="Søndre Aspestrand" />
>>>>>>> e1d4bc35ff8a6074a6f2e91616a996b547c36f15
		<tag k="place" v="farm" />
		<tag k="ssr:stedsnr" v="279449" />
	</node>
<<<<<<< HEAD
	<node lat="59.24563975757589" lon="11.708982581926415" id="-14279">
		<tag k="alt_name" v="Kirkerød lille" />
		<tag k="name" v="Lille Kirkerød" />
=======
	<node id="-234069" lat="59.1561750006" lon="11.7450416715">
		<tag k="name" v="Holtet" />
>>>>>>> e1d4bc35ff8a6074a6f2e91616a996b547c36f15
		<tag k="place" v="farm" />
		<tag k="ssr:stedsnr" v="280488" />
	</node>
<<<<<<< HEAD
	<node lat="59.24660555410181" lon="11.70986944796626" id="-14280">
		<tag k="alt_name" v="Kirkerød vestre" />
		<tag k="name" v="Vestre Kirkerød" />
=======
	<node id="-234066" lat="59.1721383374" lon="11.655225628">
		<tag k="name" v="Østre Åsgård" />
>>>>>>> e1d4bc35ff8a6074a6f2e91616a996b547c36f15
		<tag k="place" v="farm" />
		<tag k="ssr:stedsnr" v="280490" />
	</node>
<<<<<<< HEAD
	<node lat="59.27823611471491" lon="11.640716667599598" id="-14292">
		<tag k="name" v="Dagerød" />
=======
	<node id="-234051" lat="59.2058577625" lon="11.7242925294">
		<tag k="alt_name" v="Haug nedre" />
		<tag k="fixme" v="consider place=hamlet" />
		<tag k="name" v="Nedre Haug" />
>>>>>>> e1d4bc35ff8a6074a6f2e91616a996b547c36f15
		<tag k="place" v="farm" />
		<tag k="ssr:stedsnr" v="294082" />
	</node>
<<<<<<< HEAD
	<node lat="59.24566388740418" lon="11.748750003635267" id="-14298">
		<tag k="name" v="Søndre Kollerød" />
=======
	<node id="-234046" lat="59.2789027751" lon="11.6446305476">
		<tag k="name" v="Dagerød" />
>>>>>>> e1d4bc35ff8a6074a6f2e91616a996b547c36f15
		<tag k="place" v="farm" />
		<tag k="ssr:stedsnr" v="294174" />
	</node>
<<<<<<< HEAD
	<node lat="59.32258888454484" lon="11.6771000081092" id="-14300">
		<tag k="name" v="Bingen" />
=======
	<node id="-234041" lat="59.3316777752" lon="11.7025416677">
		<tag k="name" v="Nordby" />
>>>>>>> e1d4bc35ff8a6074a6f2e91616a996b547c36f15
		<tag k="place" v="locality" />
		<tag k="ssr:stedsnr" v="294188" />
	</node>
<<<<<<< HEAD
	<node lat="59.1979972257572" lon="11.742411107783703" id="-14309">
		<tag k="name" v="Rødskasa" />
		<tag k="place" v="locality" />
		<tag k="ssr:stedsnr" v="294919" />
	</node>
	<node lat="59.215206133423145" lon="11.697792336435146" id="-14313">
		<tag k="name" v="Øvre Fladeby" />
=======
	<node id="-234040" lat="59.2572088812" lon="11.7504640559">
		<tag k="alt_name" v="Framgården" />
		<tag k="fixme" v="consider place=hamlet" />
		<tag k="name" v="Frammegård" />
		<tag k="place" v="farm" />
		<tag k="ssr:stedsnr" v="731725" />
	</node>
	<node id="-234038" lat="59.1900031655" lon="11.6851525461">
		<tag k="fixme" v="consider place=hamlet" />
		<tag k="name" v="Nordby" />
>>>>>>> e1d4bc35ff8a6074a6f2e91616a996b547c36f15
		<tag k="place" v="farm" />
		<tag k="ssr:stedsnr" v="302963" />
	</node>
<<<<<<< HEAD
	<node lat="59.18835959333793" lon="11.671516021262104" id="-14318">
		<tag k="fixme" v="consider place=hamlet" />
		<tag k="name" v="Kvisler" />
		<tag k="place" v="farm" />
		<tag k="ssr:stedsnr" v="305067" />
	</node>
	<node lat="59.1766144727933" lon="11.657373370261825" id="-14321">
=======
	<node id="-234037" lat="59.2224000031" lon="11.6973416713">
		<tag k="name" v="Østre Fossby" />
		<tag k="place" v="farm" />
		<tag k="ssr:stedsnr" v="727974" />
	</node>
	<node id="-234032" lat="59.2096777817" lon="11.7504638815">
		<tag k="name" v="Husebakken" />
		<tag k="place" v="locality" />
		<tag k="ssr:stedsnr" v="719216" />
	</node>
	<node id="-234028" lat="59.2819472217" lon="11.5797777834">
		<tag k="name" v="Blanketjernhytta" />
		<tag k="place" v="isolated_dwelling" />
		<tag k="ssr:stedsnr" v="887340" />
	</node>
	<node id="-234027" lat="59.1591658658" lon="11.6533708214">
>>>>>>> e1d4bc35ff8a6074a6f2e91616a996b547c36f15
		<tag k="fixme" v="consider place=hamlet" />
		<tag k="name" v="Mosserød" />
		<tag k="place" v="farm" />
<<<<<<< HEAD
		<tag k="ssr:stedsnr" v="305097" />
	</node>
	<node lat="59.212332019700106" lon="11.705254407593166" id="-14324">
		<tag k="fixme" v="consider place=hamlet" />
		<tag k="name" v="Krossby" />
=======
		<tag k="ssr:stedsnr" v="661318" />
	</node>
	<node id="-234026" lat="59.2982833301" lon="11.756300004">
		<tag k="alt_name" v="Størholt søndre" />
		<tag k="name" v="Søndre Størholt" />
		<tag k="place" v="isolated_dwelling" />
		<tag k="ssr:stedsnr" v="658940" />
	</node>
	<node id="-234023" lat="59.1856722183" lon="11.7286083247">
		<tag k="name" v="Lauvmyr" />
>>>>>>> e1d4bc35ff8a6074a6f2e91616a996b547c36f15
		<tag k="place" v="farm" />
		<tag k="ssr:stedsnr" v="305175" />
	</node>
<<<<<<< HEAD
	<node lat="59.20539444805899" lon="11.692461115110124" id="-14325">
		<tag k="name" v="Nygård" />
=======
	<node id="-234021" lat="59.202075003" lon="11.6830749922">
		<tag k="name" v="Løkka" />
>>>>>>> e1d4bc35ff8a6074a6f2e91616a996b547c36f15
		<tag k="place" v="farm" />
		<tag k="ssr:stedsnr" v="305176" />
	</node>
<<<<<<< HEAD
	<node lat="59.24624279944845" lon="11.711693334684616" id="-14327">
		<tag k="name" v="Kirkerød" />
		<tag k="place" v="locality" />
		<tag k="ssr:stedsnr" v="305242" />
	</node>
	<node lat="59.31493888631036" lon="11.675497226737626" id="-14330">
		<tag k="name" v="Holteberg" />
		<tag k="place" v="farm" />
		<tag k="ssr:stedsnr" v="306589" />
	</node>
	<node lat="59.33321389333721" lon="11.682913883588132" id="-14332">
		<tag k="name" v="Nygård" />
		<tag k="place" v="locality" />
		<tag k="ssr:stedsnr" v="306723" />
	</node>
	<node lat="59.259863012431296" lon="11.641894108317938" id="-14335">
		<tag k="fixme" v="consider place=hamlet" />
		<tag k="name" v="Følingen" />
=======
	<node id="-234015" lat="59.2546000027" lon="11.6830972298">
		<tag k="name" v="Arebo" />
		<tag k="ssr:stedsnr" v="658066" />
		<tag k="tourism" v="guest_house" />
	</node>
	<node id="-234003" lat="59.2865583337" lon="11.7013388895">
		<tag k="alt_name" v="Fangesætret, s;Fangesætre;Søndre Fangesætret" />
		<tag k="name" v="Søndre Fangesetret" />
		<tag k="place" v="isolated_dwelling" />
		<tag k="ssr:stedsnr" v="731660" />
	</node>
	<node id="-234002" lat="59.3000722245" lon="11.6801249938">
		<tag k="alt_name" v="Kommesaren" />
		<tag k="name" v="Kommisaren" />
		<tag k="place" v="isolated_dwelling" />
		<tag k="ssr:stedsnr" v="731644" />
	</node>
	<node id="-234001" lat="59.2943277744" lon="11.6468111044">
		<tag k="alt_name" v="Nesødegården" />
		<tag k="name" v="Nesødegård" />
>>>>>>> e1d4bc35ff8a6074a6f2e91616a996b547c36f15
		<tag k="place" v="farm" />
		<tag k="ssr:stedsnr" v="307738" />
	</node>
<<<<<<< HEAD
	<node lat="59.30165555744694" lon="11.63650555756025" id="-14343">
		<tag k="name" v="Østre Siljeholt" />
=======
	<node id="-234000" lat="59.2502305573" lon="11.8158861142">
		<tag k="name" v="Mosbekk" />
>>>>>>> e1d4bc35ff8a6074a6f2e91616a996b547c36f15
		<tag k="place" v="farm" />
		<tag k="ssr:stedsnr" v="341040" />
	</node>
<<<<<<< HEAD
	<node lat="59.279377776168054" lon="11.63982222664122" id="-14352">
		<tag k="alt_name" v="Dagerød vestre" />
		<tag k="name" v="Vestre Dagerød" />
=======
	<node id="-233993" lat="59.221280552" lon="11.7147250019">
		<tag k="alt_name" v="Holtet" />
		<tag k="name" v="Haugebyholtet" />
>>>>>>> e1d4bc35ff8a6074a6f2e91616a996b547c36f15
		<tag k="place" v="farm" />
		<tag k="ssr:stedsnr" v="354097" />
	</node>
<<<<<<< HEAD
	<node lat="59.16268333233613" lon="11.6884027844977" id="-14362">
		<tag k="name" v="Ulsrød" />
		<tag k="place" v="farm" />
		<tag k="ssr:stedsnr" v="354687" />
	</node>
	<node lat="59.26738610876339" lon="11.804191664698967" id="-14364">
		<tag k="name" v="Tolsbysand" />
		<tag k="place" v="farm" />
		<tag k="ssr:stedsnr" v="354871" />
	</node>
	<node lat="59.14743521034887" lon="11.734460535500052" id="-14367">
		<tag k="name" v="Nedre Holmegil" />
=======
	<node id="-233992" lat="59.2247722248" lon="11.7530777735">
		<tag k="name" v="Krokstad" />
		<tag k="place" v="locality" />
		<tag k="ssr:stedsnr" v="730141" />
	</node>
	<node id="-233990" lat="59.1544944406" lon="11.7553527767">
		<tag k="name" v="Løndal" />
		<tag k="place" v="locality" />
		<tag k="ssr:stedsnr" v="730007" />
	</node>
	<node id="-233987" lat="59.1131444423" lon="11.7507388917">
		<tag k="alt_name" v="Lund" />
		<tag k="name" v="Nedre Lund" />
>>>>>>> e1d4bc35ff8a6074a6f2e91616a996b547c36f15
		<tag k="place" v="farm" />
		<tag k="ssr:stedsnr" v="355914" />
	</node>
<<<<<<< HEAD
	<node lat="59.14451666239116" lon="11.752244438277788" id="-14368">
		<tag k="name" v="Nydal" />
		<tag k="place" v="farm" />
		<tag k="ssr:stedsnr" v="355920" />
	</node>
	<node lat="59.11503055214409" lon="11.698472215982507" id="-14370">
		<tag k="alt_name" v="Mortfallet" />
		<tag k="name" v="Mortefallet" />
=======
	<node id="-233984" lat="59.1755361149" lon="11.7385305565">
		<tag k="name" v="Bukkemoen" />
		<tag k="place" v="locality" />
		<tag k="ssr:stedsnr" v="719925" />
	</node>
	<node id="-233981" lat="59.3307682804" lon="11.7106875475">
		<tag k="name" v="Burås" />
>>>>>>> e1d4bc35ff8a6074a6f2e91616a996b547c36f15
		<tag k="place" v="isolated_dwelling" />
		<tag k="ssr:stedsnr" v="365068" />
	</node>
<<<<<<< HEAD
	<node lat="59.21503902015261" lon="11.682002621506614" id="-14371">
		<tag k="fixme" v="consider place=hamlet" />
		<tag k="name" v="Tromopp" />
		<tag k="place" v="farm" />
		<tag k="ssr:stedsnr" v="365165" />
	</node>
	<node lat="59.18721666256505" lon="11.600613892880116" id="-14378">
		<tag k="name" v="Hansesætret" />
=======
	<node id="-233975" lat="59.2599694485" lon="11.7308277826">
		<tag k="name" v="Kleva" />
>>>>>>> e1d4bc35ff8a6074a6f2e91616a996b547c36f15
		<tag k="place" v="locality" />
		<tag k="ssr:stedsnr" v="366056" />
	</node>
<<<<<<< HEAD
	<node lat="59.18767499818678" lon="11.591991667838915" id="-14379">
		<tag k="name" v="Virås" />
		<tag k="place" v="farm" />
		<tag k="ssr:stedsnr" v="366059" />
	</node>
	<node lat="59.14540298093569" lon="11.733187400273234" id="-14380">
		<tag k="fixme" v="consider place=hamlet" />
		<tag k="name" v="Holmegil" />
=======
	<node id="-233974" lat="59.3008763528" lon="11.6594260264">
		<tag k="fixme" v="consider place=hamlet" />
		<tag k="name" v="Strømsfoss" />
		<tag k="place" v="village" />
		<tag k="ssr:stedsnr" v="609644" />
	</node>
	<node id="-233972" lat="59.3038362304" lon="11.6652128886">
		<tag k="fixme" v="consider place=hamlet" />
		<tag k="name" v="Bergstrøm" />
>>>>>>> e1d4bc35ff8a6074a6f2e91616a996b547c36f15
		<tag k="place" v="farm" />
		<tag k="ssr:stedsnr" v="366016" />
	</node>
<<<<<<< HEAD
	<node lat="59.16166095255433" lon="11.6579579425697" id="-14385">
		<tag k="name" v="Granli" />
=======
	<node id="-233971" lat="59.1809111069" lon="11.6950527712">
		<tag k="name" v="Rødskasa" />
>>>>>>> e1d4bc35ff8a6074a6f2e91616a996b547c36f15
		<tag k="place" v="locality" />
		<tag k="ssr:stedsnr" v="366108" />
	</node>
<<<<<<< HEAD
	<node lat="59.27759444256485" lon="11.696969449035963" id="-14387">
		<tag k="name" v="Elvestad" />
=======
	<node id="-233970" lat="59.1425611079" lon="11.6648388834">
		<tag k="alt_name" v="Sund" />
		<tag k="name" v="Øvre Sund" />
>>>>>>> e1d4bc35ff8a6074a6f2e91616a996b547c36f15
		<tag k="place" v="farm" />
		<tag k="ssr:stedsnr" v="367693" />
	</node>
<<<<<<< HEAD
	<node lat="59.279402775380255" lon="11.693388881459002" id="-14388">
		<tag k="name" v="Sloreby" />
		<tag k="place" v="farm" />
		<tag k="ssr:stedsnr" v="367695" />
	</node>
	<node lat="59.305702781434135" lon="11.584722223053804" id="-14390">
		<tag k="alt_name" v="Hellesåen;Helleåsen, østre" />
		<tag k="name" v="Østre Hellesåen" />
=======
	<node id="-233967" lat="59.1971444445" lon="11.6257638908">
		<tag k="alt_name" v="Kvislersæter" />
		<tag k="historic" v="shieling" />
		<tag k="loc_name" v="Kvislersætret" />
		<tag k="name" v="Kvislerseter" />
		<tag k="place" v="locality" />
		<tag k="ssr:stedsnr" v="608163" />
	</node>
	<node id="-233965" lat="59.2480539965" lon="11.7455323148">
		<tag k="fixme" v="consider place=hamlet" />
		<tag k="name" v="Kollerød" />
>>>>>>> e1d4bc35ff8a6074a6f2e91616a996b547c36f15
		<tag k="place" v="farm" />
		<tag k="ssr:stedsnr" v="367635" />
	</node>
<<<<<<< HEAD
	<node lat="59.30893064292651" lon="11.61349522499026" id="-14391">
=======
	<node id="-233963" lat="59.2839443328" lon="11.6788463066">
>>>>>>> e1d4bc35ff8a6074a6f2e91616a996b547c36f15
		<tag k="fixme" v="consider place=hamlet" />
		<tag k="name" v="Kilen" />
		<tag k="place" v="farm" />
		<tag k="ssr:stedsnr" v="367639" />
	</node>
<<<<<<< HEAD
	<node lat="59.15858055542962" lon="11.65321388954482" id="-14401">
=======
	<node id="-233957" lat="59.1575111092" lon="11.6488972198">
>>>>>>> e1d4bc35ff8a6074a6f2e91616a996b547c36f15
		<tag k="alt_name" v="Østensvik øvre" />
		<tag k="name" v="Øvre Østensvik" />
		<tag k="place" v="farm" />
		<tag k="ssr:stedsnr" v="415535" />
	</node>
<<<<<<< HEAD
	<node lat="59.214619442507264" lon="11.696080560645058" id="-14415">
		<tag k="name" v="Nedre Flateby" />
		<tag k="place" v="farm" />
		<tag k="ssr:stedsnr" v="416294" />
	</node>
	<node lat="59.2986472229924" lon="11.756925003178841" id="-14420">
		<tag k="alt_name" v="Størholt nordre" />
		<tag k="name" v="Nordre Størholt" />
=======
	<node id="-233937" lat="59.3145971387" lon="11.7219936081">
		<tag k="alt_name" v="Nordre Bøensætre;Djuptjernkasa" />
		<tag k="name" v="Nordre Bøensetret" />
		<tag k="place" v="isolated_dwelling" />
		<tag k="ssr:stedsnr" v="709223" />
	</node>
	<node id="-233935" lat="59.3057055514" lon="11.7140444406">
		<tag k="name" v="Langenesåsen" />
>>>>>>> e1d4bc35ff8a6074a6f2e91616a996b547c36f15
		<tag k="place" v="locality" />
		<tag k="ssr:stedsnr" v="415965" />
	</node>
<<<<<<< HEAD
	<node lat="59.307891669746404" lon="11.624494452910685" id="-14426">
		<tag k="name" v="Våla" />
		<tag k="place" v="neighbourhood" />
		<tag k="ssr:stedsnr" v="419130" />
	</node>
	<node lat="59.23034167093979" lon="11.781441658363375" id="-14428">
		<tag k="name" v="Kollerødhytta" />
		<tag k="place" v="isolated_dwelling" />
		<tag k="ssr:stedsnr" v="426133" />
	</node>
	<node lat="59.20136388569381" lon="11.737391673462634" id="-14432">
		<tag k="name" v="Rødsmoen" />
		<tag k="place" v="locality" />
		<tag k="ssr:stedsnr" v="426178" />
	</node>
	<node lat="59.19959444018751" lon="11.705033328675462" id="-14433">
		<tag k="name" v="Fossen" />
=======
	<node id="-233931" lat="59.2305887894" lon="11.7285329404">
		<tag k="fixme" v="consider place=hamlet" />
		<tag k="name" v="Nordre Espelund" />
		<tag k="place" v="farm" />
		<tag k="ssr:stedsnr" v="705540" />
	</node>
	<node id="-233929" lat="59.3062111113" lon="11.6608083343">
		<tag k="alt_name" v="Mellem-Strøm" />
		<tag k="name" v="Mellom-Strøm" />
		<tag k="place" v="farm" />
		<tag k="ssr:stedsnr" v="705055" />
	</node>
	<node id="-233908" lat="59.2514431889" lon="11.6400171414">
		<tag k="fixme" v="consider place=hamlet" />
		<tag k="name" v="Teigen" />
		<tag k="place" v="farm" />
		<tag k="ssr:stedsnr" v="488605" />
	</node>
	<node id="-233905" lat="59.1428111079" lon="11.7622333395">
		<tag k="alt_name" v="Store Bjerkebekk;Bjerkebekk" />
		<tag k="name" v="Bjørkebekk" />
>>>>>>> e1d4bc35ff8a6074a6f2e91616a996b547c36f15
		<tag k="place" v="farm" />
		<tag k="ssr:stedsnr" v="426180" />
	</node>
<<<<<<< HEAD
	<node lat="59.148032882315285" lon="11.750522052574631" id="-14438">
		<tag k="alt_name" v="Nordgård;Bjerkebekk" />
		<tag k="name" v="Nordgården" />
=======
	<node id="-233903" lat="59.223403787" lon="11.6955739286">
		<tag k="fixme" v="consider place=hamlet" />
		<tag k="name" v="Fossby" />
>>>>>>> e1d4bc35ff8a6074a6f2e91616a996b547c36f15
		<tag k="place" v="farm" />
		<tag k="ssr:stedsnr" v="427007" />
	</node>
<<<<<<< HEAD
	<node lat="59.15088889008045" lon="11.750652782905128" id="-14439">
		<tag k="name" v="Sand" />
=======
	<node id="-233900" lat="59.2299805581" lon="11.740072227">
		<tag k="name" v="Frydenlund" />
>>>>>>> e1d4bc35ff8a6074a6f2e91616a996b547c36f15
		<tag k="place" v="farm" />
		<tag k="ssr:stedsnr" v="427008" />
	</node>
<<<<<<< HEAD
	<node lat="59.1402666670476" lon="11.746025006189205" id="-14440">
		<tag k="name" v="Kasa" />
=======
	<node id="-233892" lat="59.1560055575" lon="11.6609388895">
		<tag k="name" v="Solstad" />
>>>>>>> e1d4bc35ff8a6074a6f2e91616a996b547c36f15
		<tag k="place" v="farm" />
		<tag k="ssr:stedsnr" v="427019" />
	</node>
<<<<<<< HEAD
	<node lat="59.18380353792353" lon="11.666548980491305" id="-14441">
		<tag k="fixme" v="consider place=hamlet" />
		<tag k="name" v="Berger" />
=======
	<node id="-233891" lat="59.2600527764" lon="11.7357833271">
		<tag k="name" v="Rødsmoen" />
>>>>>>> e1d4bc35ff8a6074a6f2e91616a996b547c36f15
		<tag k="place" v="farm" />
		<tag k="ssr:stedsnr" v="427101" />
	</node>
<<<<<<< HEAD
	<node lat="59.2466790984728" lon="11.683537950949233" id="-14446">
		<tag k="alt_name" v="Aremark prestegård" />
=======
	<node id="-233890" lat="59.2560466748" lon="11.7000129114">
>>>>>>> e1d4bc35ff8a6074a6f2e91616a996b547c36f15
		<tag k="fixme" v="consider place=hamlet" />
		<tag k="name" v="Prestegården" />
		<tag k="place" v="farm" />
		<tag k="ssr:stedsnr" v="427268" />
	</node>
<<<<<<< HEAD
	<node lat="59.24298078774695" lon="11.64562184413306" id="-14447">
		<tag k="name" v="Bakkeli" />
		<tag k="place" v="locality" />
		<tag k="ssr:stedsnr" v="427270" />
	</node>
	<node lat="59.24009444340107" lon="11.648494451164861" id="-14448">
		<tag k="alt_name" v="Buerødegård" />
		<tag k="name" v="Buerøgården" />
=======
	<node id="-233888" lat="59.3255264873" lon="11.6730041166">
		<tag k="name" v="Bøen" />
		<tag k="place" v="hamlet" />
		<tag k="ssr:stedsnr" v="671641" />
	</node>
	<node id="-233885" lat="59.2567722227" lon="11.7988111135">
		<tag k="name" v="Berget" />
>>>>>>> e1d4bc35ff8a6074a6f2e91616a996b547c36f15
		<tag k="place" v="isolated_dwelling" />
		<tag k="ssr:stedsnr" v="427271" />
	</node>
	<node lat="59.28219722399424" lon="11.696455550899492" id="-14455">
		<tag k="name" v="Nordby" />
		<tag k="place" v="farm" />
		<tag k="ssr:stedsnr" v="428689" />
	</node>
<<<<<<< HEAD
	<node lat="59.30909893187123" lon="11.673488875375565" id="-14458">
=======
	<node id="-233881" lat="59.3090989319" lon="11.6734888754">
>>>>>>> e1d4bc35ff8a6074a6f2e91616a996b547c36f15
		<tag k="fixme" v="consider place=hamlet" />
		<tag k="name" v="Aslakstrøm" />
		<tag k="place" v="farm" />
		<tag k="ssr:stedsnr" v="670643" />
	</node>
<<<<<<< HEAD
	<node lat="59.24054999685559" lon="11.694391669291845" id="-14463">
		<tag k="name" v="Nordre Wiig" />
=======
	<node id="-233877" lat="59.2092277758" lon="11.7375111175">
		<tag k="name" v="Jettemoen" />
		<tag k="place" v="locality" />
		<tag k="ssr:stedsnr" v="669164" />
	</node>
	<node id="-233874" lat="59.2088493817" lon="11.6915458041">
		<tag k="fixme" v="consider place=hamlet" />
		<tag k="name" v="Skotsberg" />
>>>>>>> e1d4bc35ff8a6074a6f2e91616a996b547c36f15
		<tag k="place" v="farm" />
		<tag k="ssr:stedsnr" v="522455" />
	</node>
<<<<<<< HEAD
	<node lat="59.30748888928476" lon="11.660680558946181" id="-14464">
		<tag k="name" v="Nordre Strøm" />
=======
	<node id="-233871" lat="59.2298910202" lon="11.679374503">
		<tag k="fixme" v="consider place=hamlet" />
		<tag k="name" v="Skolleborg" />
>>>>>>> e1d4bc35ff8a6074a6f2e91616a996b547c36f15
		<tag k="place" v="farm" />
		<tag k="ssr:stedsnr" v="523055" />
	</node>
<<<<<<< HEAD
	<node lat="59.246072220665226" lon="11.715719451312772" id="-14466">
		<tag k="name" v="Holmen" />
=======
	<node id="-233870" lat="59.2240777743" lon="11.6679055526">
		<tag k="alt_name" v="Hagen" />
		<tag k="name" v="Haugen" />
>>>>>>> e1d4bc35ff8a6074a6f2e91616a996b547c36f15
		<tag k="place" v="locality" />
		<tag k="ssr:stedsnr" v="523535" />
	</node>
<<<<<<< HEAD
	<node lat="59.30575833435914" lon="11.643780551216071" id="-14472">
		<tag k="name" v="Vestre Torget" />
		<tag k="place" v="locality" />
		<tag k="ssr:stedsnr" v="536045" />
	</node>
	<node lat="59.30537499623423" lon="11.646211106018" id="-14473">
		<tag k="name" v="Østre Torget" />
		<tag k="place" v="locality" />
		<tag k="ssr:stedsnr" v="536046" />
	</node>
	<node lat="59.26798889126401" lon="11.782405552292378" id="-14480">
		<tag k="alt_name" v="Leksrødkasene" />
		<tag k="name" v="Kasene" />
		<tag k="place" v="locality" />
		<tag k="ssr:stedsnr" v="536147" />
	</node>
	<node lat="59.261159127827746" lon="11.743960984894464" id="-14484">
		<tag k="fixme" v="consider place=hamlet" />
		<tag k="name" v="Hallesby" />
		<tag k="place" v="farm" />
		<tag k="ssr:stedsnr" v="537135" />
	</node>
	<node lat="59.23803009588245" lon="11.674845027212253" id="-14494">
		<tag k="name" v="Tangen" />
		<tag k="place" v="locality" />
		<tag k="ssr:stedsnr" v="547152" />
	</node>
	<node lat="59.27374721984305" lon="11.781522230159274" id="-14503">
		<tag k="name" v="Engerødegården" />
		<tag k="place" v="farm" />
		<tag k="ssr:stedsnr" v="549688" />
	</node>
	<node lat="59.26041111090776" lon="11.780819442040343" id="-14507">
		<tag k="alt_name" v="Klokkestein" />
		<tag k="name" v="Klokkesten" />
=======
	<node id="-233869" lat="59.1574138892" lon="11.6545555579">
		<tag k="alt_name" v="Østensvik øvre" />
		<tag k="name" v="Øvre Østensvik" />
		<tag k="place" v="farm" />
		<tag k="ssr:stedsnr" v="669104" />
	</node>
	<node id="-233865" lat="59.1883555584" lon="11.7445111199">
		<tag k="alt_name" v="Sandåker" />
		<tag k="name" v="Sandaker" />
		<tag k="place" v="isolated_dwelling" />
		<tag k="ssr:stedsnr" v="669054" />
	</node>
	<node id="-233862" lat="59.2371833347" lon="11.7147638932">
		<tag k="alt_name" v="Skulstad" />
		<tag k="name" v="Skjulstad" />
		<tag k="place" v="farm" />
		<tag k="ssr:stedsnr" v="668121" />
	</node>
	<node id="-233861" lat="59.2390499985" lon="11.6829972135">
		<tag k="name" v="Kirkeng" />
		<tag k="place" v="neighbourhood" />
		<tag k="ssr:stedsnr" v="466026" />
	</node>
	<node id="-233860" lat="59.2802666641" lon="11.6776916703">
		<tag k="name" v="Fangebukta" />
		<tag k="place" v="neighbourhood" />
		<tag k="ssr:stedsnr" v="466025" />
	</node>
	<node id="-233849" lat="59.2187611138" lon="11.6839111186">
		<tag k="name" v="Skakkestad" />
		<tag k="place" v="farm" />
		<tag k="ssr:stedsnr" v="658336" />
	</node>
	<node id="-233846" lat="59.3172055577" lon="11.7273361159">
		<tag k="alt_name" v="Bøensætrehagen" />
		<tag k="name" v="Bøenseterhagen" />
		<tag k="place" v="isolated_dwelling" />
		<tag k="ssr:stedsnr" v="658203" />
	</node>
	<node id="-233832" lat="59.2632749978" lon="11.7605583244">
		<tag k="alt_name" v="Torkildsrød" />
		<tag k="name" v="Torkelsrød" />
>>>>>>> e1d4bc35ff8a6074a6f2e91616a996b547c36f15
		<tag k="place" v="farm" />
		<tag k="ssr:stedsnr" v="549715" />
	</node>
<<<<<<< HEAD
	<node lat="59.23855277678578" lon="11.692252774632031" id="-14512">
		<tag k="name" v="Vikheim" />
=======
	<node id="-233831" lat="59.26611667" lon="11.6512027768">
		<tag k="alt_name" v="Holt" />
		<tag k="name" v="Østre Holt" />
>>>>>>> e1d4bc35ff8a6074a6f2e91616a996b547c36f15
		<tag k="place" v="farm" />
		<tag k="ssr:stedsnr" v="582436" />
	</node>
<<<<<<< HEAD
	<node lat="59.22518055296422" lon="11.717038891867873" id="-14531">
		<tag k="name" v="Solbakken" />
=======
	<node id="-233830" lat="59.2650653284" lon="11.6451795936">
		<tag k="fixme" v="consider place=hamlet" />
		<tag k="name" v="Holt" />
>>>>>>> e1d4bc35ff8a6074a6f2e91616a996b547c36f15
		<tag k="place" v="farm" />
		<tag k="ssr:stedsnr" v="597319" />
	</node>
<<<<<<< HEAD
	<node lat="59.26754722533679" lon="11.789111119206881" id="-14540">
=======
	<node id="-233823" lat="59.140266667" lon="11.7460250062">
>>>>>>> e1d4bc35ff8a6074a6f2e91616a996b547c36f15
		<tag k="name" v="Kasa" />
		<tag k="place" v="farm" />
		<tag k="ssr:stedsnr" v="597804" />
	</node>
<<<<<<< HEAD
	<node lat="59.28719999959276" lon="11.678202782544687" id="-14550">
		<tag k="alt_name" v="Mellem-Fange" />
		<tag k="name" v="Mellom-Fange" />
=======
	<node id="-233822" lat="59.1508888901" lon="11.7506527829">
		<tag k="name" v="Sand" />
>>>>>>> e1d4bc35ff8a6074a6f2e91616a996b547c36f15
		<tag k="place" v="farm" />
		<tag k="ssr:stedsnr" v="598084" />
	</node>
<<<<<<< HEAD
	<node lat="59.16406388511041" lon="11.724238894462243" id="-14556">
		<tag k="alt_name" v="Grotmal" />
		<tag k="name" v="Grotmål" />
=======
	<node id="-233821" lat="59.1480328823" lon="11.7505220526">
		<tag k="alt_name" v="Nordgården" />
		<tag k="fixme" v="multiple name tags, choose one and add the other to alt_name" />
		<tag k="name" v="Bjerkebekk;Nordgård" />
>>>>>>> e1d4bc35ff8a6074a6f2e91616a996b547c36f15
		<tag k="place" v="farm" />
		<tag k="ssr:stedsnr" v="608101" />
	</node>
<<<<<<< HEAD
	<node lat="59.24805399652198" lon="11.745532314835591" id="-14558">
		<tag k="fixme" v="consider place=hamlet" />
		<tag k="name" v="Kollerød" />
		<tag k="place" v="farm" />
		<tag k="ssr:stedsnr" v="608224" />
	</node>
	<node lat="59.0854777744182" lon="11.756608331425749" id="-14560">
		<tag k="name" v="Petersborg" />
=======
	<node id="-233820" lat="59.174355554" lon="11.6266361147">
		<tag k="name" v="Grøte" />
		<tag k="place" v="locality" />
		<tag k="ssr:stedsnr" v="427110" />
	</node>
	<node id="-233818" lat="59.2303416709" lon="11.7814416584">
		<tag k="name" v="Kollerødhytta" />
>>>>>>> e1d4bc35ff8a6074a6f2e91616a996b547c36f15
		<tag k="place" v="isolated_dwelling" />
		<tag k="ssr:stedsnr" v="607492" />
	</node>
<<<<<<< HEAD
	<node lat="59.197144444482106" lon="11.625763890806015" id="-14563">
		<tag k="alt_name" v="Kvislersæter" />
		<tag k="historic" v="shieling" />
		<tag k="loc_name" v="Kvislersætret" />
		<tag k="name" v="Kvislerseter" />
		<tag k="place" v="isolated_dwelling" />
		<tag k="ssr:stedsnr" v="608163" />
	</node>
	<node lat="59.30383623042011" lon="11.665212888572315" id="-14571">
		<tag k="fixme" v="consider place=hamlet" />
		<tag k="name" v="Bergstrøm" />
=======
	<node id="-233817" lat="59.3126972191" lon="11.5958694475">
		<tag k="name" v="Søndre Kilebråten" />
>>>>>>> e1d4bc35ff8a6074a6f2e91616a996b547c36f15
		<tag k="place" v="farm" />
		<tag k="ssr:stedsnr" v="609614" />
	</node>
<<<<<<< HEAD
	<node lat="59.33076828041161" lon="11.7106875475119" id="-14575">
		<tag k="name" v="Burås" />
		<tag k="place" v="isolated_dwelling" />
		<tag k="ssr:stedsnr" v="610766" />
	</node>
	<node lat="59.23733610727463" lon="11.68815833230865" id="-14577">
		<tag k="name" v="Sjøvik" />
=======
	<node id="-233816" lat="59.2164422656" lon="11.6282293223">
		<tag k="name" v="Nordbyseter" />
		<tag k="place" v="locality" />
		<tag k="ssr:stedsnr" v="416304" />
	</node>
	<node id="-233811" lat="59.2595861068" lon="11.7409472197">
		<tag k="alt_name" v="Hallesby søndre;Søndre Hallesby" />
		<tag k="name" v="Sør-Hallesby" />
>>>>>>> e1d4bc35ff8a6074a6f2e91616a996b547c36f15
		<tag k="place" v="farm" />
		<tag k="ssr:stedsnr" v="643450" />
	</node>
<<<<<<< HEAD
	<node lat="59.25460000272173" lon="11.683097229821222" id="-14588">
		<tag k="name" v="Arebo" />
		<tag k="ssr:stedsnr" v="658066" />
		<tag k="tourism" v="guest_house" />
	</node>
	<node lat="59.20207500297969" lon="11.683074992235813" id="-14605">
		<tag k="name" v="Løkka" />
=======
	<node id="-233810" lat="59.2674527742" lon="11.6829861165">
		<tag k="alt_name" v="Fangekasa" />
		<tag k="name" v="Kasa" />
>>>>>>> e1d4bc35ff8a6074a6f2e91616a996b547c36f15
		<tag k="place" v="farm" />
		<tag k="ssr:stedsnr" v="658855" />
	</node>
<<<<<<< HEAD
	<node lat="59.185672218262674" lon="11.728608324717667" id="-14607">
		<tag k="name" v="Lauvmyr" />
=======
	<node id="-233807" lat="59.2780888873" lon="11.7818944434">
		<tag k="name" v="Nyset" />
>>>>>>> e1d4bc35ff8a6074a6f2e91616a996b547c36f15
		<tag k="place" v="farm" />
		<tag k="ssr:stedsnr" v="658867" />
	</node>
<<<<<<< HEAD
	<node lat="59.15916586577117" lon="11.653370821378541" id="-14609">
		<tag k="fixme" v="consider place=hamlet" />
		<tag k="name" v="Østensvik" />
=======
	<node id="-233806" lat="59.2803111109" lon="11.6456694466">
		<tag k="alt_name" v="Rivegård" />
		<tag k="name" v="Riveødegård" />
>>>>>>> e1d4bc35ff8a6074a6f2e91616a996b547c36f15
		<tag k="place" v="farm" />
		<tag k="ssr:stedsnr" v="661318" />
	</node>
<<<<<<< HEAD
	<node lat="59.237183334729245" lon="11.714763893168653" id="-14610">
		<tag k="alt_name" v="Skulstad" />
		<tag k="name" v="Skjulstad" />
=======
	<node id="-233805" lat="59.2836670242" lon="11.6454388351">
		<tag k="alt_name" v="Lervik søndre" />
		<tag k="name" v="Søndre Lervik" />
>>>>>>> e1d4bc35ff8a6074a6f2e91616a996b547c36f15
		<tag k="place" v="farm" />
		<tag k="ssr:stedsnr" v="668121" />
	</node>
<<<<<<< HEAD
	<node lat="59.15741388918108" lon="11.65455555787514" id="-14612">
		<tag k="alt_name" v="Østensvik øvre" />
		<tag k="name" v="Øvre Østensvik" />
		<tag k="place" v="farm" />
		<tag k="ssr:stedsnr" v="669104" />
	</node>
	<node lat="59.18835555840683" lon="11.744511119930461" id="-14613">
		<tag k="alt_name" v="Sandåker" />
		<tag k="name" v="Sandaker" />
		<tag k="place" v="locality" />
		<tag k="ssr:stedsnr" v="669054" />
	</node>
	<node lat="59.22989102023315" lon="11.6793745030436" id="-14615">
		<tag k="fixme" v="consider place=hamlet" />
		<tag k="name" v="Skolleborg" />
=======
	<node id="-233804" lat="59.2898068179" lon="11.6423001008">
		<tag k="name" v="Lervik" />
		<tag k="place" v="hamlet" />
		<tag k="ssr:stedsnr" v="488649" />
	</node>
	<node id="-233800" lat="59.2070195667" lon="11.7205248115">
		<tag k="name" v="Haug" />
		<tag k="place" v="hamlet" />
		<tag k="ssr:stedsnr" v="487175" />
	</node>
	<node id="-233799" lat="59.196447223" lon="11.7204638834">
		<tag k="fixme" v="multiple name tags, choose one and add the other to alt_name" />
		<tag k="name" v="Bikkjerød;Glennekasa" />
>>>>>>> e1d4bc35ff8a6074a6f2e91616a996b547c36f15
		<tag k="place" v="farm" />
		<tag k="ssr:stedsnr" v="669138" />
	</node>
<<<<<<< HEAD
	<node lat="59.208849381680466" lon="11.69154580410079" id="-14618">
		<tag k="fixme" v="consider place=hamlet" />
		<tag k="name" v="Skotsberg" />
=======
	<node id="-233797" lat="59.2187194453" lon="11.7327666743">
		<tag k="name" v="Tolverød" />
>>>>>>> e1d4bc35ff8a6074a6f2e91616a996b547c36f15
		<tag k="place" v="farm" />
		<tag k="ssr:stedsnr" v="669156" />
	</node>
<<<<<<< HEAD
	<node lat="59.20922777580374" lon="11.737511117497874" id="-14621">
		<tag k="name" v="Jettemoen" />
		<tag k="place" v="locality" />
		<tag k="ssr:stedsnr" v="669164" />
	</node>
	<node lat="59.28394433284212" lon="11.678846306568277" id="-14634">
		<tag k="fixme" v="consider place=hamlet" />
		<tag k="name" v="Sør-Fange" />
		<tag k="place" v="farm" />
		<tag k="ssr:stedsnr" v="719076" />
	</node>
	<node lat="59.20967778165811" lon="11.750463881516135" id="-14637">
		<tag k="name" v="Husebakken" />
		<tag k="place" v="locality" />
		<tag k="ssr:stedsnr" v="719216" />
	</node>
	<node lat="59.18091110687052" lon="11.695052771221684" id="-14639">
		<tag k="name" v="Rødskasa" />
		<tag k="place" v="locality" />
		<tag k="ssr:stedsnr" v="719322" />
	</node>
	<node lat="59.25996944854573" lon="11.730827782645985" id="-14643">
		<tag k="name" v="Kleva" />
		<tag k="place" v="locality" />
		<tag k="ssr:stedsnr" v="719764" />
	</node>
	<node lat="59.17553611489361" lon="11.738530556535693" id="-14645">
		<tag k="name" v="Bukkemoen" />
		<tag k="place" v="locality" />
		<tag k="ssr:stedsnr" v="719925" />
	</node>
	<node lat="59.111948450464205" lon="11.748238963666406" id="-14648">
		<tag k="name" v="Lund" />
=======
	<node id="-233796" lat="59.1594305582" lon="11.7301388849">
		<tag k="name" v="Tripperød" />
		<tag k="place" v="isolated_dwelling" />
		<tag k="ssr:stedsnr" v="487101" />
	</node>
	<node id="-233785" lat="59.2423805585" lon="11.6822777757">
		<tag k="alt_name" v="Kirkeng nordre" />
		<tag k="name" v="Nordre Kirkeng" />
		<tag k="place" v="farm" />
		<tag k="ssr:stedsnr" v="483186" />
	</node>
	<node id="-233777" lat="59.2492666693" lon="11.7548111084">
		<tag k="name" v="Moskasa" />
		<tag k="place" v="isolated_dwelling" />
		<tag k="ssr:stedsnr" v="476783" />
	</node>
	<node id="-233771" lat="59.2581777799" lon="11.6983277715">
		<tag k="alt_name" v="Iglerød vestre" />
		<tag k="name" v="Vestre Iglerød" />
		<tag k="place" v="farm" />
		<tag k="ssr:stedsnr" v="476087" />
	</node>
	<node id="-233759" lat="59.2152061334" lon="11.6977923364">
		<tag k="name" v="Øvre Fladeby" />
		<tag k="place" v="farm" />
		<tag k="ssr:stedsnr" v="302963" />
	</node>
	<node id="-233758" lat="59.2553583344" lon="11.6799638872">
		<tag k="name" v="Arebekken" />
		<tag k="place" v="neighbourhood" />
		<tag k="ssr:stedsnr" v="466027" />
	</node>
	<node id="-233756" lat="59.246455556" lon="11.6916138946">
		<tag k="name" v="Nybo" />
		<tag k="place" v="isolated_dwelling" />
		<tag k="ssr:stedsnr" v="462472" />
	</node>
	<node id="-233755" lat="59.2289194415" lon="11.7242777844">
		<tag k="name" v="Bekkevangen" />
>>>>>>> e1d4bc35ff8a6074a6f2e91616a996b547c36f15
		<tag k="place" v="locality" />
		<tag k="ssr:stedsnr" v="729460" />
	</node>
<<<<<<< HEAD
	<node lat="59.22477222475548" lon="11.753077773478298" id="-14649">
		<tag k="name" v="Krokstad" />
=======
	<node id="-233751" lat="59.2983055598" lon="11.6369138971">
		<tag k="name" v="Nordre Pina" />
>>>>>>> e1d4bc35ff8a6074a6f2e91616a996b547c36f15
		<tag k="place" v="locality" />
		<tag k="ssr:stedsnr" v="730141" />
	</node>
	<node lat="59.221280552047595" lon="11.714725001928278" id="-14650">
		<tag k="alt_name" v="Holtet" />
		<tag k="name" v="Haugebyholtet" />
		<tag k="place" v="farm" />
		<tag k="ssr:stedsnr" v="730143" />
	</node>
	<node lat="59.250230557293584" lon="11.815886114233868" id="-14658">
		<tag k="name" v="Mosbekk" />
		<tag k="place" v="farm" />
		<tag k="ssr:stedsnr" v="731585" />
	</node>
	<node lat="59.29432777438289" lon="11.646811104365744" id="-14659">
		<tag k="alt_name" v="Nesødegården" />
		<tag k="name" v="Nesødegård" />
		<tag k="place" v="farm" />
		<tag k="ssr:stedsnr" v="731642" />
	</node>
<<<<<<< HEAD
	<node lat="59.29992824566506" lon="11.680169721718041" id="-14660">
		<tag k="alt_name" v="Kommesaren" />
		<tag k="name" v="Kommisaren" />
		<tag k="place" v="locality" />
		<tag k="ssr:stedsnr" v="731644" />
	</node>
	<node lat="59.29418611250758" lon="11.633977779374362" id="-14664">
		<tag k="name" v="Lundestad" />
=======
	<node id="-233745" lat="59.2382944484" lon="11.7873000036">
		<tag k="name" v="Doktorhytta" />
		<tag k="place" v="isolated_dwelling" />
		<tag k="ssr:stedsnr" v="245221" />
	</node>
	<node id="-233742" lat="59.0811333343" lon="11.6818611073">
		<tag k="name" v="Ørnelund" />
>>>>>>> e1d4bc35ff8a6074a6f2e91616a996b547c36f15
		<tag k="place" v="locality" />
		<tag k="ssr:stedsnr" v="766031" />
	</node>
<<<<<<< HEAD
	<node lat="59.31854061878662" lon="11.722229259691948" id="-14665">
		<tag k="name" v="Nedre Sørenskas" />
=======
	<node id="-233741" lat="59.2175055529" lon="11.755141667">
		<tag k="alt_name" v="Spanndalen" />
		<tag k="name" v="Spondalen" />
>>>>>>> e1d4bc35ff8a6074a6f2e91616a996b547c36f15
		<tag k="place" v="farm" />
		<tag k="ssr:stedsnr" v="766241" />
	</node>
<<<<<<< HEAD
	<node lat="59.17363333361796" lon="11.65306665917648" id="-14667">
		<tag k="name" v="Vestre Åsgård" />
=======
	<node id="-233736" lat="59.1822840409" lon="11.7205148168">
		<tag k="alt_name" v="Aspestrand vestre;Aspestrand;Vestgården" />
		<tag k="fixme" v="consider place=hamlet" />
		<tag k="name" v="Vestre Aspestrand" />
>>>>>>> e1d4bc35ff8a6074a6f2e91616a996b547c36f15
		<tag k="place" v="farm" />
		<tag k="ssr:stedsnr" v="766263" />
	</node>
<<<<<<< HEAD
	<node lat="59.226872210078426" lon="11.723560603404566" id="-14670">
		<tag k="fixme" v="consider place=hamlet" />
		<tag k="name" v="Søndre Espelund" />
		<tag k="place" v="farm" />
		<tag k="ssr:stedsnr" v="766451" />
	</node>
	<node lat="59.32996111503567" lon="11.634936114471767" id="-14673">
		<tag k="name" v="Vatnemellom" />
		<tag k="place" v="neighbourhood" />
		<tag k="ssr:stedsnr" v="770021" />
	</node>
	<node lat="59.30411110933688" lon="11.647888890593283" id="-14678">
		<tag k="name" v="Madserød" />
		<tag k="place" v="locality" />
		<tag k="ssr:stedsnr" v="779041" />
	</node>
	<node lat="59.29795330682718" lon="11.772132890593578" id="-14687">
		<tag k="name" v="Pålstad" />
=======
	<node id="-233726" lat="59.1979972258" lon="11.7424111078">
		<tag k="name" v="Rødskasa" />
		<tag k="place" v="locality" />
		<tag k="ssr:stedsnr" v="294919" />
	</node>
	<node id="-233722" lat="59.2623027815" lon="11.818638883">
		<tag k="name" v="Sikerød" />
		<tag k="place" v="isolated_dwelling" />
		<tag k="ssr:stedsnr" v="294869" />
	</node>
	<node id="-233719" lat="59.2623166637" lon="11.7799611068">
		<tag k="name" v="Holtebrekke" />
		<tag k="place" v="isolated_dwelling" />
		<tag k="ssr:stedsnr" v="294787" />
	</node>
	<node id="-233706" lat="59.3225888845" lon="11.6771000081">
		<tag k="name" v="Bingen" />
>>>>>>> e1d4bc35ff8a6074a6f2e91616a996b547c36f15
		<tag k="place" v="locality" />
		<tag k="ssr:stedsnr" v="779788" />
	</node>
<<<<<<< HEAD
	<node lat="59.20986388840117" lon="11.72326665821879" id="-14697">
		<tag k="name" v="Haug" />
=======
	<node id="-233704" lat="59.2456638874" lon="11.7487500036">
		<tag k="name" v="Søndre Kollerød" />
>>>>>>> e1d4bc35ff8a6074a6f2e91616a996b547c36f15
		<tag k="place" v="farm" />
		<tag k="ssr:stedsnr" v="780294" />
	</node>
<<<<<<< HEAD
	<node lat="59.222938891256504" lon="11.694824995096162" id="-14698">
		<tag k="name" v="Vestre Fosby" />
=======
	<node id="-233699" lat="59.2436111106" lon="11.7561611076">
		<tag k="name" v="Kverndalen" />
>>>>>>> e1d4bc35ff8a6074a6f2e91616a996b547c36f15
		<tag k="place" v="farm" />
		<tag k="ssr:stedsnr" v="780295" />
	</node>
<<<<<<< HEAD
	<node lat="59.30346111098035" lon="11.72336945088416" id="-14710">
		<tag k="name" v="Djupetjernkasa" />
		<tag k="place" v="isolated_dwelling" />
		<tag k="ssr:stedsnr" v="791652" />
	</node>
	<node lat="59.26004721855577" lon="11.758613896843679" id="-14712">
		<tag k="name" v="Gleng" />
=======
	<node id="-233697" lat="59.2782361147" lon="11.6407166676">
		<tag k="name" v="Dagerød" />
		<tag k="place" v="farm" />
		<tag k="ssr:stedsnr" v="294082" />
	</node>
	<node id="-233682" lat="59.1367277822" lon="11.7744194493">
		<tag k="alt_name" v="Allingmoen" />
		<tag k="name" v="Alingmoen" />
>>>>>>> e1d4bc35ff8a6074a6f2e91616a996b547c36f15
		<tag k="place" v="farm" />
		<tag k="ssr:stedsnr" v="792723" />
	</node>
<<<<<<< HEAD
	<node lat="59.295463885252026" lon="11.746058327549132" id="-14713">
		<tag k="alt_name" v="Lagerrholt" />
		<tag k="name" v="Laggarholtet" />
		<tag k="place" v="farm" />
		<tag k="ssr:stedsnr" v="792647" />
	</node>
	<node lat="59.29845724093813" lon="11.756058417574101" id="-14714">
		<tag k="name" v="Størholtet" />
		<tag k="place" v="locality" />
		<tag k="ssr:stedsnr" v="792649" />
	</node>
	<node lat="59.28703611076789" lon="11.645486111712971" id="-14716">
		<tag k="alt_name" v="Lervik søndre" />
		<tag k="name" v="Søndre Lervik" />
		<tag k="old_name" v="Lervik midtre" />
=======
	<node id="-233681" lat="59.1386805524" lon="11.7443777779">
		<tag k="alt_name" v="Kvernmoen" />
		<tag k="name" v="Kvernemoen" />
		<tag k="place" v="isolated_dwelling" />
		<tag k="ssr:stedsnr" v="184022" />
	</node>
	<node id="-233680" lat="59.1503527763" lon="11.7645888811">
		<tag k="name" v="Kolsbu" />
		<tag k="place" v="isolated_dwelling" />
		<tag k="ssr:stedsnr" v="184010" />
	</node>
	<node id="-233669" lat="59.2971694437" lon="11.6582583278">
		<tag k="name" v="Nordre Nes" />
>>>>>>> e1d4bc35ff8a6074a6f2e91616a996b547c36f15
		<tag k="place" v="farm" />
		<tag k="ssr:stedsnr" v="792656" />
	</node>
<<<<<<< HEAD
	<node lat="59.245261108964726" lon="11.695519436712345" id="-14722">
		<tag k="name" v="Lilledal" />
=======
	<node id="-233667" lat="59.2466055541" lon="11.709869448">
		<tag k="alt_name" v="Kirkerød vestre" />
		<tag k="name" v="Vestre Kirkerød" />
>>>>>>> e1d4bc35ff8a6074a6f2e91616a996b547c36f15
		<tag k="place" v="farm" />
		<tag k="ssr:stedsnr" v="826471" />
	</node>
<<<<<<< HEAD
	<node lat="59.32334721973955" lon="11.691683332015943" id="-14723">
		<tag k="name" v="Kvernekasa" />
		<tag k="place" v="locality" />
		<tag k="ssr:stedsnr" v="827001" />
	</node>
	<node lat="59.29742389145496" lon="11.673896558239113" id="-14727">
		<tag k="name" v="Nordenhaug" />
=======
	<node id="-233666" lat="59.2456397576" lon="11.7089825819">
		<tag k="alt_name" v="Kirkerød lille" />
		<tag k="name" v="Lille Kirkerød" />
		<tag k="place" v="farm" />
		<tag k="ssr:stedsnr" v="280488" />
	</node>
	<node id="-233660" lat="59.2849666625" lon="11.6094555532">
		<tag k="name" v="Berggrøthytta" />
>>>>>>> e1d4bc35ff8a6074a6f2e91616a996b547c36f15
		<tag k="place" v="locality" />
		<tag k="ssr:stedsnr" v="827055" />
	</node>
<<<<<<< HEAD
	<node lat="59.23040277761364" lon="11.735388885453627" id="-14728">
		<tag k="name" v="Espelundhagen" />
=======
	<node id="-233659" lat="59.3075916651" lon="11.715738881">
		<tag k="name" v="Langenes" />
>>>>>>> e1d4bc35ff8a6074a6f2e91616a996b547c36f15
		<tag k="place" v="locality" />
		<tag k="ssr:stedsnr" v="827503" />
	</node>
<<<<<<< HEAD
	<node lat="59.22787777803801" lon="11.734502785539558" id="-14729">
		<tag k="name" v="Espelundhagen" />
=======
	<node id="-233656" lat="59.2390500038" lon="11.6969222204">
		<tag k="name" v="Søndre Vik" />
>>>>>>> e1d4bc35ff8a6074a6f2e91616a996b547c36f15
		<tag k="place" v="farm" />
		<tag k="ssr:stedsnr" v="827505" />
	</node>
<<<<<<< HEAD
	<node lat="59.16683611541767" lon="11.664666665545084" id="-14730">
		<tag k="alt_name" v="Bøen østre;Ytre Bøen" />
		<tag k="name" v="Østre Bøen" />
		<tag k="place" v="farm" />
		<tag k="ssr:stedsnr" v="830248" />
	</node>
	<node lat="59.328463892864676" lon="11.645475008962004" id="-14731">
		<tag k="name" v="Strøm" />
		<tag k="place" v="neighbourhood" />
		<tag k="ssr:stedsnr" v="831025" />
	</node>
	<node lat="59.29031539663859" lon="11.64779528805141" id="-14734">
=======
	<node id="-233655" lat="59.2462083376" lon="11.6827666646">
		<tag k="fixme" v="consider place=hamlet" />
		<tag k="name" v="Aremark" />
		<tag k="place" v="village" />
		<tag k="ssr:stedsnr" v="273384" />
	</node>
	<node id="-233654" lat="59.2216388907" lon="11.6964249946">
>>>>>>> e1d4bc35ff8a6074a6f2e91616a996b547c36f15
		<tag k="fixme" v="consider place=hamlet" />
		<tag k="name" v="Nordre Lervik" />
		<tag k="place" v="farm" />
		<tag k="ssr:stedsnr" v="840067" />
	</node>
<<<<<<< HEAD
	<node lat="59.15984999974349" lon="11.667972223115923" id="-14739">
		<tag k="name" v="Ødegårdene" />
		<tag k="place" v="locality" />
		<tag k="ssr:stedsnr" v="840500" />
	</node>
	<node lat="59.255172222573215" lon="11.701986112690388" id="-14745">
		<tag k="alt_name" v="Iglerød søndre" />
		<tag k="name" v="Søndre Iglerød" />
		<tag k="place" v="farm" />
		<tag k="ssr:stedsnr" v="841076" />
	</node>
	<node lat="59.16965833108826" lon="11.729219443344196" id="-14747">
		<tag k="name" v="Nordli" />
=======
	<node id="-233653" lat="59.236938885" lon="11.8160361107">
		<tag k="name" v="Bråten" />
		<tag k="place" v="isolated_dwelling" />
		<tag k="ssr:stedsnr" v="123267" />
	</node>
	<node id="-233648" lat="59.1303277747" lon="11.7555638876">
		<tag k="name" v="Søndre Svarød" />
>>>>>>> e1d4bc35ff8a6074a6f2e91616a996b547c36f15
		<tag k="place" v="locality" />
		<tag k="ssr:stedsnr" v="841923" />
	</node>
<<<<<<< HEAD
	<node lat="59.25840963324674" lon="11.642978269120128" id="-14752">
		<tag k="name" v="Søndre Følingen" />
=======
	<node id="-233635" lat="59.2753916684" lon="11.7591499993">
		<tag k="name" v="Lajordet" />
>>>>>>> e1d4bc35ff8a6074a6f2e91616a996b547c36f15
		<tag k="place" v="farm" />
		<tag k="ssr:stedsnr" v="849976" />
	</node>
<<<<<<< HEAD
	<node lat="59.21402564346123" lon="11.698109298856894" id="-14755">
=======
	<node id="-233632" lat="59.2968024725" lon="11.6542295851">
>>>>>>> e1d4bc35ff8a6074a6f2e91616a996b547c36f15
		<tag k="fixme" v="consider place=hamlet" />
		<tag k="name" v="Flateby" />
		<tag k="place" v="farm" />
		<tag k="ssr:stedsnr" v="851154" />
	</node>
<<<<<<< HEAD
	<node lat="59.20156111028148" lon="11.67821111776654" id="-14757">
		<tag k="name" v="Vesttorp" />
=======
	<node id="-233629" lat="59.254941666" lon="11.6865972213">
		<tag k="name" v="Arebekken" />
>>>>>>> e1d4bc35ff8a6074a6f2e91616a996b547c36f15
		<tag k="place" v="farm" />
		<tag k="ssr:stedsnr" v="851164" />
	</node>
<<<<<<< HEAD
	<node lat="59.20636673677071" lon="11.718317450679876" id="-14758">
		<tag k="fixme" v="consider place=hamlet" />
		<tag k="name" v="Glenne" />
=======
	<node id="-233620" lat="59.2356166625" lon="11.6917249927">
		<tag k="name" v="Haugland" />
>>>>>>> e1d4bc35ff8a6074a6f2e91616a996b547c36f15
		<tag k="place" v="farm" />
		<tag k="ssr:stedsnr" v="851166" />
	</node>
<<<<<<< HEAD
	<node lat="59.055583332341484" lon="11.689130546849098" id="-14760">
		<tag k="alt_name" v="Skogsødegården" />
		<tag k="name" v="Ødegården" />
		<tag k="place" v="isolated_dwelling" />
		<tag k="ssr:stedsnr" v="851357" />
	</node>
	<node lat="59.14239166448577" lon="11.634175008408054" id="-14762">
		<tag k="name" v="Fjell" />
=======
	<node id="-233618" lat="59.2343499988" lon="11.742294449">
		<tag k="name" v="Rovedal" />
		<tag k="place" v="farm" />
		<tag k="ssr:stedsnr" v="244139" />
	</node>
	<node id="-233616" lat="59.1812111114" lon="11.604933331">
		<tag k="name" v="Moen" />
>>>>>>> e1d4bc35ff8a6074a6f2e91616a996b547c36f15
		<tag k="place" v="farm" />
		<tag k="ssr:stedsnr" v="852019" />
	</node>
<<<<<<< HEAD
	<node lat="59.14671785749897" lon="11.750969873978349" id="-14763">
		<tag k="alt_name" v="Mellomgård;Bjerkebekk" />
		<tag k="name" v="Mellomgården" />
=======
	<node id="-233614" lat="59.1919277739" lon="11.7353388882">
		<tag k="name" v="Rødsholtet" />
>>>>>>> e1d4bc35ff8a6074a6f2e91616a996b547c36f15
		<tag k="place" v="farm" />
		<tag k="ssr:stedsnr" v="852021" />
	</node>
<<<<<<< HEAD
	<node lat="59.13052777802911" lon="11.763549994902176" id="-14765">
		<tag k="name" v="Husa" />
		<tag k="place" v="locality" />
		<tag k="ssr:stedsnr" v="852046" />
	</node>
	<node lat="59.13085555384545" lon="11.753594450788334" id="-14766">
		<tag k="name" v="Svarød" />
		<tag k="place" v="locality" />
		<tag k="ssr:stedsnr" v="852047" />
	</node>
	<node lat="59.30712959304911" lon="11.629608820091704" id="-14770">
		<tag k="alt_name" v="Øvre Våla" />
		<tag k="name" v="Våla" />
=======
	<node id="-233612" lat="59.2580111154" lon="11.6880694366">
		<tag k="name" v="Skjulstad" />
		<tag k="place" v="farm" />
		<tag k="ssr:stedsnr" v="64741" />
	</node>
	<node id="-233610" lat="59.2643130839" lon="11.7969913105">
		<tag k="fixme" v="consider place=hamlet" />
		<tag k="name" v="Tolsby" />
		<tag k="place" v="farm" />
		<tag k="ssr:stedsnr" v="64729" />
	</node>
	<node id="-233609" lat="59.2745666694" lon="11.6439777838">
		<tag k="name" v="Hola" />
>>>>>>> e1d4bc35ff8a6074a6f2e91616a996b547c36f15
		<tag k="place" v="locality" />
		<tag k="ssr:stedsnr" v="853645" />
	</node>
<<<<<<< HEAD
	<node lat="59.32675985194892" lon="11.67289328246556" id="-14771">
		<tag k="fixme" v="consider place=hamlet" />
		<tag k="name" v="Nordre Bøen" />
		<tag k="place" v="farm" />
		<tag k="ssr:stedsnr" v="856049" />
	</node>
	<node lat="59.281947221675914" lon="11.579777783410696" id="-14772">
		<tag k="name" v="Blanketjernhytta" />
=======
	<node id="-233607" lat="59.2029277753" lon="11.6952805472">
		<tag k="name" v="Sommerro" />
		<tag k="old_name" v="Sommero" />
>>>>>>> e1d4bc35ff8a6074a6f2e91616a996b547c36f15
		<tag k="place" v="isolated_dwelling" />
		<tag k="ssr:stedsnr" v="887340" />
	</node>
<<<<<<< HEAD
	<node lat="59.305830552583515" lon="11.660480557354408" id="-14774">
		<tag k="name" v="Nordre Strøm" />
=======
	<node id="-233606" lat="59.1951300895" lon="11.6790439185">
		<tag k="alt_name" v="Mørholt nedre" />
		<tag k="name" v="Nedre Mørholt" />
>>>>>>> e1d4bc35ff8a6074a6f2e91616a996b547c36f15
		<tag k="place" v="farm" />
		<tag k="ssr:stedsnr" v="948061" />
	</node>
<<<<<<< HEAD
	<node lat="59.16889659787195" lon="11.661172010561053" id="-14779">
		<tag k="alt_name" v="Bøen vestre" />
		<tag k="name" v="Vestre Bøen" />
=======
	<node id="-233601" lat="59.2098861073" lon="11.6915722212">
		<tag k="name" v="Søndre Skotsberg" />
>>>>>>> e1d4bc35ff8a6074a6f2e91616a996b547c36f15
		<tag k="place" v="farm" />
		<tag k="ssr:stedsnr" v="951451" />
	</node>
<<<<<<< HEAD
	<node lat="59.096986111689496" lon="11.711147216739258" id="-14783">
		<tag k="name" v="Nordre Stangebråten" />
=======
	<node id="-233600" lat="59.2503027816" lon="11.7148444362">
		<tag k="alt_name" v="Langedal søndre" />
		<tag k="name" v="Søndre Langedal" />
>>>>>>> e1d4bc35ff8a6074a6f2e91616a996b547c36f15
		<tag k="place" v="farm" />
		<tag k="ssr:stedsnr" v="961058" />
	</node>
<<<<<<< HEAD
	<node lat="59.293243772630866" lon="11.678875635257763" id="-14792">
		<tag k="fixme" v="consider place=hamlet" />
		<tag k="name" v="Nord-Fange" />
=======
	<node id="-233591" lat="59.1449638868" lon="11.730105548">
		<tag k="name" v="Øvre Holmegil" />
>>>>>>> e1d4bc35ff8a6074a6f2e91616a996b547c36f15
		<tag k="place" v="farm" />
		<tag k="ssr:stedsnr" v="962083" />
	</node>
<<<<<<< HEAD
	<node lat="59.17583888648218" lon="11.730519436027686" id="-14795">
		<tag k="name" v="Ødegården" />
		<tag k="place" v="locality" />
		<tag k="ssr:stedsnr" v="962923" />
	</node>
	<node lat="59.09461515625174" lon="11.710320815036933" id="-14799">
		<tag k="alt_name" v="Stangebråtan" />
		<tag k="name" v="Stangebråten" />
=======
	<node id="-233588" lat="59.3236694422" lon="11.6572166713">
		<tag k="name" v="Klokkerhytta" />
		<tag k="place" v="isolated_dwelling" />
		<tag k="ssr:stedsnr" v="234400" />
	</node>
	<node id="-233578" lat="59.2124555541" lon="11.7538249992">
		<tag k="name" v="Nordre Bråtane" />
>>>>>>> e1d4bc35ff8a6074a6f2e91616a996b547c36f15
		<tag k="place" v="locality" />
		<tag k="ssr:stedsnr" v="981157" />
	</node>
<<<<<<< HEAD
	<node lat="59.285707576340485" lon="11.643348868454563" id="-14809">
		<tag k="fixme" v="consider place=hamlet" />
		<tag k="name" v="Søndre Lervik" />
=======
	<node id="-233575" lat="59.2305166698" lon="11.7521250086">
		<tag k="name" v="Vegne" />
>>>>>>> e1d4bc35ff8a6074a6f2e91616a996b547c36f15
		<tag k="place" v="farm" />
		<tag k="ssr:stedsnr" v="1077056" />
	</node>
<<<<<<< HEAD
	<node lat="59.30165950533617" lon="11.631629929471018" id="-14811">
		<tag k="fixme" v="consider place=hamlet" />
		<tag k="name" v="Siljeholt" />
=======
	<node id="-233573" lat="59.2767027794" lon="11.6405277795">
		<tag k="name" v="Søndre Dagerød" />
>>>>>>> e1d4bc35ff8a6074a6f2e91616a996b547c36f15
		<tag k="place" v="farm" />
		<tag k="ssr:stedsnr" v="1077363" />
	</node>
<<<<<<< HEAD
	<node lat="59.195963293175375" lon="11.677866056680273" id="-14812">
		<tag k="fixme" v="consider place=hamlet" />
		<tag k="name" v="Mørholt" />
=======
	<node id="-233567" lat="59.3309916659" lon="11.6865027732">
		<tag k="name" v="Bjørkeli" />
>>>>>>> e1d4bc35ff8a6074a6f2e91616a996b547c36f15
		<tag k="place" v="farm" />
		<tag k="ssr:stedsnr" v="1077408" />
	</node>
<<<<<<< HEAD
	<node lat="59.11300251873188" lon="11.75095327490322" id="-14815">
		<tag k="name" v="Nedre Lund" />
=======
	<node id="-233556" lat="59.2614556902" lon="11.6402708002">
		<tag k="name" v="Nordre Følingen" />
>>>>>>> e1d4bc35ff8a6074a6f2e91616a996b547c36f15
		<tag k="place" v="farm" />
		<tag k="ssr:stedsnr" v="1081066" />
	</node>
<<<<<<< HEAD
	<node lat="59.13138677641459" lon="11.753100738903303" id="-14816">
		<tag k="name" v="Nordre Svarød" />
		<tag k="place" v="locality" />
		<tag k="ssr:stedsnr" v="1081330" />
	</node>
	<node lat="59.28869533495346" lon="11.702913289907087" id="-14819">
		<tag k="loc_name" v="Sætret" />
		<tag k="name" v="Fangesetret" />
		<tag k="place" v="locality" />
		<tag k="ssr:stedsnr" v="1082009" />
=======
	<node id="-233554" lat="59.3188138912" lon="11.7218388836">
		<tag k="name" v="Øvre Sørenskas" />
		<tag k="place" v="locality" />
		<tag k="ssr:stedsnr" v="220289" />
	</node>
	<node id="-233549" lat="59.329157256" lon="11.6937969806">
		<tag k="alt_name" v="Bøenødegård nordre;Nordre Bøenødegård;Søndre Nordre Bønøgården" />
		<tag k="name" v="Nordre Bøenødegården" />
		<tag k="place" v="farm" />
		<tag k="ssr:stedsnr" v="3731" />
	</node>
	<node id="-233545" lat="59.2286527794" lon="11.6974694425">
		<tag k="name" v="Myrland" />
		<tag k="place" v="farm" />
		<tag k="ssr:stedsnr" v="219453" />
	</node>
	<node id="-233544" lat="59.2431555524" lon="11.710805551">
		<tag k="name" v="Sandbekk" />
		<tag k="place" v="farm" />
		<tag k="ssr:stedsnr" v="2245" />
>>>>>>> e1d4bc35ff8a6074a6f2e91616a996b547c36f15
	</node>
</osm>
