<?xml version="1.0" encoding="UTF-8"?>
<<<<<<< HEAD
<osm version="0.6" generator="osmapis">
	<node lat="59.23588333382217" lon="11.711313889239062" id="-13360">
		<tag k="fixme" v="consider natural=peak for the most distinct mountains in the district" />
		<tag k="name" v="Flatlandsåsen" />
		<tag k="natural" v="hill" />
		<tag k="place" v="locality" />
		<tag k="ssr:stedsnr" v="1138" />
	</node>
	<node lat="59.21011666466079" lon="11.784386105346893" id="-13363">
		<tag k="alt_name" v="Lemberga" />
		<tag k="fixme" v="consider natural=peak for the most distinct mountains in the district" />
		<tag k="name" v="Lemberget" />
		<tag k="natural" v="hill" />
		<tag k="place" v="locality" />
		<tag k="ssr:stedsnr" v="1195" />
	</node>
	<node lat="59.077930558507674" lon="11.702238881205995" id="-13364">
		<tag k="fixme" v="consider natural=peak for the most distinct mountains in the district" />
		<tag k="name" v="Salskrukkøfsa" />
		<tag k="natural" v="hill" />
		<tag k="place" v="locality" />
		<tag k="ssr:stedsnr" v="1488" />
	</node>
	<node lat="59.310286107572466" lon="11.608161115266572" id="-13368">
		<tag k="fixme" v="consider natural=peak for the most distinct mountains in the district" />
		<tag k="name" v="Kileåsen" />
		<tag k="natural" v="hill" />
		<tag k="place" v="locality" />
		<tag k="ssr:stedsnr" v="3623" />
	</node>
	<node lat="59.13993333467637" lon="11.679711109215276" id="-13389">
		<tag k="fixme" v="consider natural=peak for the most distinct mountains in the district" />
		<tag k="name" v="Kjerringøfsa" />
		<tag k="natural" v="hill" />
		<tag k="place" v="locality" />
		<tag k="ssr:stedsnr" v="233514" />
	</node>
	<node lat="59.25252221927016" lon="11.781250005931952" id="-13390">
		<tag k="fixme" v="consider natural=peak for the most distinct mountains in the district" />
		<tag k="name" v="Igletjernshøyda" />
		<tag k="natural" v="hill" />
		<tag k="place" v="locality" />
		<tag k="ssr:stedsnr" v="233807" />
	</node>
	<node lat="59.16434722475181" lon="11.659066660537956" id="-13395">
		<tag k="fixme" v="consider natural=peak for the most distinct mountains in the district" />
		<tag k="name" v="Viggen" />
		<tag k="natural" v="hill" />
		<tag k="place" v="locality" />
		<tag k="ssr:stedsnr" v="234268" />
	</node>
	<node lat="59.223197222243385" lon="11.743066673209995" id="-13402">
		<tag k="fixme" v="consider natural=peak for the most distinct mountains in the district" />
		<tag k="name" v="Dammyråsen" />
		<tag k="natural" v="hill" />
		<tag k="place" v="locality" />
		<tag k="ssr:stedsnr" v="51227" />
	</node>
	<node lat="59.20838611182031" lon="11.639416666426051" id="-13409">
		<tag k="fixme" v="consider natural=peak for the most distinct mountains in the district" />
		<tag k="name" v="Abbortjernhøyda" />
		<tag k="natural" v="hill" />
		<tag k="place" v="locality" />
		<tag k="ssr:stedsnr" v="52279" />
	</node>
	<node lat="59.219186113620005" lon="11.624758328784436" id="-13412">
=======
<osm generator="osmapis" version="0.6">
	<node id="-233642" lat="59.2721444408" lon="11.5725250037">
		<tag k="name" v="Ormtjerndalen" />
		<tag k="natural" v="valley" />
		<tag k="place" v="locality" />
		<tag k="ssr:stedsnr" v="98316" />
	</node>
	<node id="-234490" lat="59.1605722228" lon="11.63489167">
		<tag k="name" v="Slorerdalen" />
		<tag k="natural" v="valley" />
		<tag k="place" v="locality" />
		<tag k="ssr:stedsnr" v="354457" />
	</node>
	<node id="-233727" lat="59.1494499992" lon="11.7389972193">
		<tag k="name" v="Norgårdlandet" />
		<tag k="place" v="locality" />
		<tag k="ssr:stedsnr" v="294936" />
	</node>
	<node id="-234488" lat="59.1622361098" lon="11.6800388881">
		<tag k="fixme" v="consider natural=peak for the most distinct mountains in the district" />
		<tag k="name" v="Revehiåsen" />
		<tag k="natural" v="hill" />
		<tag k="place" v="locality" />
		<tag k="ssr:stedsnr" v="354370" />
	</node>
	<node id="-234254" lat="59.2412583358" lon="11.6110944423">
		<tag k="name" v="Lauvliene" />
		<tag k="natural" v="slope" />
		<tag k="place" v="locality" />
		<tag k="ssr:stedsnr" v="62133" />
	</node>
	<node id="-233973" lat="59.3031305546" lon="11.7577972239">
		<tag k="alt_name" v="Grevlinghøyda" />
>>>>>>> e1d4bc35ff8a6074a6f2e91616a996b547c36f15
		<tag k="fixme" v="consider natural=peak for the most distinct mountains in the district" />
		<tag k="name" v="Seterhøyda" />
		<tag k="natural" v="hill" />
		<tag k="place" v="locality" />
		<tag k="ssr:stedsnr" v="52284" />
	</node>
<<<<<<< HEAD
	<node lat="59.14638888677031" lon="11.729413881844675" id="-13416">
		<tag k="fixme" v="consider natural=peak for the most distinct mountains in the district" />
		<tag k="name" v="Bryggehaugen" />
		<tag k="natural" v="hill" />
=======
	<node id="-234483" lat="59.2457333358" lon="11.8006944432">
		<tag k="name" v="Vannskille" />
>>>>>>> e1d4bc35ff8a6074a6f2e91616a996b547c36f15
		<tag k="place" v="locality" />
		<tag k="ssr:stedsnr" v="52923" />
	</node>
<<<<<<< HEAD
	<node lat="59.18520555218944" lon="11.685899998348113" id="-13421">
		<tag k="alt_name" v="Tauås" />
		<tag k="fixme" v="consider natural=peak for the most distinct mountains in the district" />
		<tag k="name" v="Taugås" />
		<tag k="natural" v="hill" />
		<tag k="place" v="locality" />
		<tag k="ssr:stedsnr" v="62085" />
	</node>
	<node lat="59.13997777663981" lon="11.72759165814313" id="-13425">
=======
	<node id="-234480" lat="59.2308166711" lon="11.765911106">
>>>>>>> e1d4bc35ff8a6074a6f2e91616a996b547c36f15
		<tag k="fixme" v="consider natural=peak for the most distinct mountains in the district" />
		<tag k="name" v="Middagsåsen" />
		<tag k="natural" v="hill" />
		<tag k="place" v="locality" />
		<tag k="ssr:stedsnr" v="63020" />
	</node>
<<<<<<< HEAD
	<node lat="59.16921666876045" lon="11.740772219778693" id="-13427">
		<tag k="alt_name" v="Amundhaugen" />
		<tag k="name" v="Amundhøgda" />
=======
	<node id="-233960" lat="59.0678138885" lon="11.7044833268">
		<tag k="fixme" v="consider natural=peak for the most distinct mountains in the district" />
		<tag k="name" v="Bekkengøfsa" />
>>>>>>> e1d4bc35ff8a6074a6f2e91616a996b547c36f15
		<tag k="natural" v="hill" />
		<tag k="place" v="locality" />
		<tag k="ssr:stedsnr" v="63105" />
	</node>
<<<<<<< HEAD
	<node lat="59.317261114495246" lon="11.743597229165609" id="-13433">
		<tag k="name" v="Ufredsdraua" />
=======
	<node id="-233959" lat="59.0489916706" lon="11.7178083381">
		<tag k="name" v="Bekkengdalen" />
>>>>>>> e1d4bc35ff8a6074a6f2e91616a996b547c36f15
		<tag k="natural" v="valley" />
		<tag k="place" v="locality" />
		<tag k="ssr:stedsnr" v="294955" />
	</node>
	<node lat="59.214752780417975" lon="11.660358332264382" id="-13437">
		<tag k="name" v="Stordalen" />
		<tag k="natural" v="valley" />
		<tag k="place" v="locality" />
		<tag k="ssr:stedsnr" v="244170" />
	</node>
<<<<<<< HEAD
	<node lat="59.21833889282371" lon="11.650666667179289" id="-13439">
=======
	<node id="-234470" lat="59.297161112" lon="11.6823055538">
>>>>>>> e1d4bc35ff8a6074a6f2e91616a996b547c36f15
		<tag k="fixme" v="consider natural=peak for the most distinct mountains in the district" />
		<tag k="name" v="Seterhøgda" />
		<tag k="natural" v="hill" />
		<tag k="place" v="locality" />
		<tag k="ssr:stedsnr" v="244172" />
	</node>
<<<<<<< HEAD
	<node lat="59.08029444389313" lon="11.71405277053942" id="-13442">
		<tag k="alt_name" v="Abbortjernåsen" />
=======
	<node id="-233956" lat="59.1512416699" lon="11.6451944477">
>>>>>>> e1d4bc35ff8a6074a6f2e91616a996b547c36f15
		<tag k="fixme" v="consider natural=peak for the most distinct mountains in the district" />
		<tag k="name" v="Abbortjernsåsen" />
		<tag k="natural" v="hill" />
		<tag k="place" v="locality" />
		<tag k="ssr:stedsnr" v="244499" />
	</node>
<<<<<<< HEAD
	<node lat="59.10732500099392" lon="11.720169437994317" id="-13443">
		<tag k="name" v="Djupedal" />
		<tag k="natural" v="valley" />
=======
	<node id="-233953" lat="59.1344916661" lon="11.6908083347">
		<tag k="name" v="Pålebakkene" />
		<tag k="natural" v="slope" />
>>>>>>> e1d4bc35ff8a6074a6f2e91616a996b547c36f15
		<tag k="place" v="locality" />
		<tag k="ssr:stedsnr" v="244465" />
	</node>
<<<<<<< HEAD
	<node lat="59.2784999979452" lon="11.571916667911642" id="-13448">
		<tag k="alt_name" v="Skjøljakollen" />
		<tag k="fixme" v="consider natural=peak for the most distinct mountains in the district" />
		<tag k="name" v="Sjulikollen" />
		<tag k="natural" v="hill" />
		<tag k="place" v="locality" />
		<tag k="ssr:stedsnr" v="246664" />
	</node>
	<node lat="59.2721444408299" lon="11.572525003680246" id="-13456">
		<tag k="name" v="Ormtjerndalen" />
		<tag k="natural" v="valley" />
=======
	<node id="-233552" lat="59.3255500041" lon="11.6829083275">
		<tag k="fixme" v="consider natural=peak for the most distinct mountains in the district" />
		<tag k="name" v="Gressbekkåsen" />
		<tag k="natural" v="hill" />
		<tag k="place" v="locality" />
		<tag k="ssr:stedsnr" v="220005" />
	</node>
	<node id="-233949" lat="59.2458777808" lon="11.7911277829">
		<tag k="fixme" v="consider natural=peak for the most distinct mountains in the district" />
		<tag k="name" v="Hvittenstenshøyda" />
		<tag k="natural" v="hill" />
>>>>>>> e1d4bc35ff8a6074a6f2e91616a996b547c36f15
		<tag k="place" v="locality" />
		<tag k="ssr:stedsnr" v="98316" />
	</node>
<<<<<<< HEAD
	<node lat="59.27986666679668" lon="11.619633326247056" id="-13461">
		<tag k="name" v="Jerpedalen" />
		<tag k="natural" v="valley" />
		<tag k="place" v="locality" />
		<tag k="ssr:stedsnr" v="112109" />
	</node>
	<node lat="59.289624995763965" lon="11.631097216005287" id="-13462">
		<tag k="name" v="Brudedalen" />
		<tag k="natural" v="valley" />
		<tag k="place" v="locality" />
		<tag k="ssr:stedsnr" v="112078" />
	</node>
	<node lat="59.31714444767756" lon="11.710033335248086" id="-13463">
		<tag k="fixme" v="consider natural=peak for the most distinct mountains in the district" />
		<tag k="name" v="Ingieråsen" />
		<tag k="natural" v="hill" />
		<tag k="place" v="locality" />
		<tag k="ssr:stedsnr" v="112221" />
	</node>
	<node lat="59.18370277815545" lon="11.76607499712516" id="-13467">
=======
	<node id="-233978" lat="59.2700611152" lon="11.7452749917">
		<tag k="fixme" v="consider natural=peak for the most distinct mountains in the district" />
		<tag k="name" v="Gjølstadåsen" />
		<tag k="natural" v="hill" />
		<tag k="place" v="locality" />
		<tag k="ssr:stedsnr" v="719739" />
	</node>
	<node id="-233943" lat="59.2290277804" lon="11.6313888828">
>>>>>>> e1d4bc35ff8a6074a6f2e91616a996b547c36f15
		<tag k="fixme" v="consider natural=peak for the most distinct mountains in the district" />
		<tag k="name" v="Busterudhøyda" />
		<tag k="natural" v="hill" />
		<tag k="place" v="locality" />
		<tag k="ssr:stedsnr" v="112920" />
	</node>
<<<<<<< HEAD
	<node lat="59.2015444416231" lon="11.641833340266595" id="-13473">
		<tag k="name" v="Høye ås" />
=======
	<node id="-234454" lat="59.1304333329" lon="11.6993527803">
		<tag k="alt_name" v="Gøteliås" />
		<tag k="fixme" v="consider natural=peak for the most distinct mountains in the district" />
		<tag k="name" v="Gøteliåsen" />
>>>>>>> e1d4bc35ff8a6074a6f2e91616a996b547c36f15
		<tag k="natural" v="hill" />
		<tag k="place" v="locality" />
		<tag k="ssr:stedsnr" v="112890" />
	</node>
<<<<<<< HEAD
	<node lat="59.07088611257327" lon="11.710536106478099" id="-13476">
		<tag k="alt_name" v="Langeås" />
=======
	<node id="-234453" lat="59.1314555555" lon="11.7032250043">
>>>>>>> e1d4bc35ff8a6074a6f2e91616a996b547c36f15
		<tag k="fixme" v="consider natural=peak for the most distinct mountains in the district" />
		<tag k="name" v="Den lange åsen" />
		<tag k="natural" v="hill" />
		<tag k="place" v="locality" />
		<tag k="ssr:stedsnr" v="122403" />
	</node>
<<<<<<< HEAD
	<node lat="59.08951388905018" lon="11.762100004162303" id="-13477">
		<tag k="alt_name" v="Abbortjernhøyda" />
		<tag k="fixme" v="consider natural=peak for the most distinct mountains in the district" />
		<tag k="name" v="Abbortjernshøgda" />
		<tag k="natural" v="hill" />
		<tag k="place" v="locality" />
		<tag k="ssr:stedsnr" v="122470" />
	</node>
	<node lat="59.30691944831353" lon="11.700099999403776" id="-13491">
		<tag k="fixme" v="consider natural=peak for the most distinct mountains in the district" />
		<tag k="name" v="Bergstrømhøyda" />
		<tag k="natural" v="hill" />
		<tag k="place" v="locality" />
		<tag k="ssr:stedsnr" v="159054" />
	</node>
	<node lat="59.26048333524464" lon="11.562872216976205" id="-13496">
		<tag k="name" v="Laulunddalen" />
		<tag k="natural" v="valley" />
		<tag k="place" v="locality" />
		<tag k="ssr:stedsnr" v="159400" />
	</node>
	<node lat="59.156702781069775" lon="11.774024999310862" id="-13503">
		<tag k="fixme" v="consider natural=peak for the most distinct mountains in the district" />
		<tag k="name" v="Kroktjernshøyda" />
=======
	<node id="-234232" lat="59.2231972222" lon="11.7430666732">
		<tag k="fixme" v="consider natural=peak for the most distinct mountains in the district" />
		<tag k="name" v="Dammyråsen" />
		<tag k="natural" v="hill" />
		<tag k="place" v="locality" />
		<tag k="ssr:stedsnr" v="51227" />
	</node>
	<node id="-234446" lat="59.2127638852" lon="11.5961250041">
		<tag k="fixme" v="consider natural=peak for the most distinct mountains in the district" />
		<tag k="name" v="Stangebråtåsen" />
		<tag k="natural" v="hill" />
		<tag k="place" v="locality" />
		<tag k="ssr:stedsnr" v="305160" />
	</node>
	<node id="-234445" lat="59.2099091319" lon="11.6697319906">
		<tag k="fixme" v="multiple name tags, choose one and add the other to alt_name; consider natural=peak for the most distinct mountains in the district" />
		<tag k="name" v="Vardeåsen;Skotsbergåsen" />
>>>>>>> e1d4bc35ff8a6074a6f2e91616a996b547c36f15
		<tag k="natural" v="hill" />
		<tag k="place" v="locality" />
		<tag k="ssr:stedsnr" v="172708" />
	</node>
<<<<<<< HEAD
	<node lat="59.31364166506106" lon="11.734008329507434" id="-13508">
		<tag k="fixme" v="consider natural=peak for the most distinct mountains in the district" />
		<tag k="name" v="Metartjernshøyda" />
		<tag k="natural" v="hill" />
		<tag k="place" v="locality" />
		<tag k="ssr:stedsnr" v="172959" />
	</node>
	<node lat="59.075030558567505" lon="11.745855548693765" id="-13515">
		<tag k="alt_name" v="Høyklevåsen" />
		<tag k="fixme" v="consider natural=peak for the most distinct mountains in the district" />
		<tag k="name" v="Høykleivåsen" />
		<tag k="natural" v="hill" />
		<tag k="place" v="locality" />
		<tag k="ssr:stedsnr" v="183362" />
	</node>
	<node lat="59.188916668660795" lon="11.617183325580356" id="-13519">
		<tag k="alt_name" v="Sørliåsen" />
=======
	<node id="-234955" lat="59.1877541211" lon="11.7805162048">
		<tag k="name" v="Bikkjurda" />
		<tag k="natural" v="hill" />
		<tag k="place" v="locality" />
		<tag k="ssr:stedsnr" v="962885" />
	</node>
	<node id="-234442" lat="59.1862083298" lon="11.6493833334">
		<tag k="name" v="Moene" />
		<tag k="place" v="locality" />
		<tag k="ssr:stedsnr" v="305076" />
	</node>
	<node id="-234950" lat="59.1363638871" lon="11.711741669">
		<tag k="name" v="Tretjernsdalen" />
		<tag k="natural" v="valley" />
		<tag k="place" v="locality" />
		<tag k="ssr:stedsnr" v="961868" />
	</node>
	<node id="-234437" lat="59.0992138932" lon="11.6778777743">
		<tag k="alt_name" v="Vedøfsa" />
>>>>>>> e1d4bc35ff8a6074a6f2e91616a996b547c36f15
		<tag k="fixme" v="consider natural=peak for the most distinct mountains in the district" />
		<tag k="name" v="Sørliåsene" />
		<tag k="natural" v="hill" />
		<tag k="place" v="locality" />
		<tag k="ssr:stedsnr" v="184054" />
	</node>
<<<<<<< HEAD
	<node lat="59.2449583349589" lon="11.80457777024389" id="-13520">
		<tag k="alt_name" v="Skimtefjellet" />
=======
	<node id="-234436" lat="59.1025888932" lon="11.6923916603">
		<tag k="alt_name" v="Torsengåsen" />
>>>>>>> e1d4bc35ff8a6074a6f2e91616a996b547c36f15
		<tag k="fixme" v="consider natural=peak for the most distinct mountains in the district" />
		<tag k="name" v="Skimtefjell" />
		<tag k="natural" v="hill" />
		<tag k="place" v="locality" />
		<tag k="ssr:stedsnr" v="184229" />
	</node>
<<<<<<< HEAD
	<node lat="59.24725277651207" lon="11.727933325846866" id="-13521">
		<tag k="fixme" v="consider natural=peak for the most distinct mountains in the district" />
		<tag k="name" v="Øfsa" />
=======
	<node id="-234435" lat="59.1075166655" lon="11.7639499979">
		<tag k="name" v="Storehaug" />
>>>>>>> e1d4bc35ff8a6074a6f2e91616a996b547c36f15
		<tag k="natural" v="hill" />
		<tag k="place" v="locality" />
		<tag k="ssr:stedsnr" v="184234" />
	</node>
<<<<<<< HEAD
	<node lat="59.15394999697113" lon="11.644124997805429" id="-13522">
		<tag k="fixme" v="consider natural=peak for the most distinct mountains in the district" />
		<tag k="name" v="Steinsåsen" />
		<tag k="natural" v="hill" />
		<tag k="place" v="locality" />
		<tag k="ssr:stedsnr" v="184110" />
	</node>
	<node lat="59.27030555837626" lon="11.622266670258133" id="-13536">
		<tag k="name" v="Ulvedalen" />
		<tag k="natural" v="valley" />
		<tag k="place" v="locality" />
		<tag k="ssr:stedsnr" v="185679" />
	</node>
	<node lat="59.12657500364913" lon="11.728622227157771" id="-13537">
		<tag k="name" v="Gravdalen" />
		<tag k="natural" v="valley" />
		<tag k="place" v="locality" />
		<tag k="ssr:stedsnr" v="220322" />
	</node>
	<node lat="59.25062222305843" lon="11.626211111717174" id="-13538">
		<tag k="fixme" v="consider natural=peak for the most distinct mountains in the district" />
		<tag k="name" v="Seljedalshøyda" />
		<tag k="natural" v="hill" />
=======
	<node id="-233875" lat="59.2060305535" lon="11.6422305495">
		<tag k="name" v="Bestedalen" />
		<tag k="natural" v="valley" />
		<tag k="place" v="locality" />
		<tag k="ssr:stedsnr" v="669158" />
	</node>
	<node id="-234940" lat="59.1365999998" lon="11.7207138903">
		<tag k="name" v="Gravdalen" />
		<tag k="natural" v="valley" />
		<tag k="place" v="locality" />
		<tag k="ssr:stedsnr" v="961452" />
	</node>
	<node id="-234426" lat="59.2703055584" lon="11.6222666703">
		<tag k="name" v="Ulvedalen" />
		<tag k="natural" v="valley" />
		<tag k="place" v="locality" />
		<tag k="ssr:stedsnr" v="185679" />
	</node>
	<node id="-233913" lat="59.2267222214" lon="11.630666672">
		<tag k="name" v="Vinterbakken" />
		<tag k="natural" v="slope" />
>>>>>>> e1d4bc35ff8a6074a6f2e91616a996b547c36f15
		<tag k="place" v="locality" />
		<tag k="ssr:stedsnr" v="220510" />
	</node>
<<<<<<< HEAD
	<node lat="59.07311944501615" lon="11.693522226734473" id="-13554">
		<tag k="alt_name" v="Gravdalsøfsa" />
		<tag k="name" v="Gravedalsøfsa" />
		<tag k="natural" v="hill" />
=======
	<node id="-234936" lat="59.3248749994" lon="11.7046555605">
		<tag k="name" v="Dalene" />
		<tag k="natural" v="valley" />
>>>>>>> e1d4bc35ff8a6074a6f2e91616a996b547c36f15
		<tag k="place" v="locality" />
		<tag k="ssr:stedsnr" v="244406" />
	</node>
<<<<<<< HEAD
	<node lat="59.154194445854806" lon="11.632983340076137" id="-13576">
		<tag k="fixme" v="consider natural=peak for the most distinct mountains in the district" />
		<tag k="name" v="Orreberget" />
		<tag k="natural" v="hill" />
=======
	<node id="-233911" lat="59.2903888896" lon="11.5984888888">
		<tag k="name" v="Storedal" />
		<tag k="natural" v="valley" />
>>>>>>> e1d4bc35ff8a6074a6f2e91616a996b547c36f15
		<tag k="place" v="locality" />
		<tag k="ssr:stedsnr" v="293476" />
	</node>
<<<<<<< HEAD
	<node lat="59.094175000700595" lon="11.702419453057146" id="-13577">
=======
	<node id="-233906" lat="59.1339138869" lon="11.6525277703">
		<tag k="alt_name" v="Lomtjernhøyda" />
>>>>>>> e1d4bc35ff8a6074a6f2e91616a996b547c36f15
		<tag k="fixme" v="consider natural=peak for the most distinct mountains in the district" />
		<tag k="name" v="Halvorshøgda" />
		<tag k="natural" v="hill" />
		<tag k="place" v="locality" />
		<tag k="ssr:stedsnr" v="294018" />
	</node>
<<<<<<< HEAD
	<node lat="59.22552778009055" lon="11.786747225050561" id="-13581">
		<tag k="fixme" v="consider natural=peak for the most distinct mountains in the district" />
		<tag k="name" v="Runde kolle" />
		<tag k="natural" v="hill" />
		<tag k="place" v="locality" />
		<tag k="ssr:stedsnr" v="294132" />
	</node>
	<node lat="59.28050833082621" lon="11.792225001759466" id="-13585">
=======
	<node id="-233650" lat="59.1837027782" lon="11.7660749971">
		<tag k="fixme" v="consider natural=peak for the most distinct mountains in the district" />
		<tag k="name" v="Busterudhøyda" />
		<tag k="natural" v="hill" />
		<tag k="place" v="locality" />
		<tag k="ssr:stedsnr" v="112920" />
	</node>
	<node id="-233902" lat="59.1617027796" lon="11.6242166748">
>>>>>>> e1d4bc35ff8a6074a6f2e91616a996b547c36f15
		<tag k="fixme" v="consider natural=peak for the most distinct mountains in the district" />
		<tag k="name" v="Morttjernhøyda" />
		<tag k="natural" v="hill" />
		<tag k="place" v="locality" />
		<tag k="ssr:stedsnr" v="294814" />
	</node>
<<<<<<< HEAD
	<node lat="59.13043333288911" lon="11.699352780258213" id="-13596">
		<tag k="alt_name" v="Gøteliås" />
=======
	<node id="-234413" lat="59.2472527765" lon="11.7279333258">
>>>>>>> e1d4bc35ff8a6074a6f2e91616a996b547c36f15
		<tag k="fixme" v="consider natural=peak for the most distinct mountains in the district" />
		<tag k="name" v="Gøteliåsen" />
		<tag k="natural" v="hill" />
		<tag k="place" v="locality" />
		<tag k="ssr:stedsnr" v="306061" />
	</node>
<<<<<<< HEAD
	<node lat="59.29716111197766" lon="11.682305553769773" id="-13605">
=======
	<node id="-234412" lat="59.244958335" lon="11.8045777702">
		<tag k="alt_name" v="Skimtefjellet" />
>>>>>>> e1d4bc35ff8a6074a6f2e91616a996b547c36f15
		<tag k="fixme" v="consider natural=peak for the most distinct mountains in the district" />
		<tag k="name" v="Korpåsen" />
		<tag k="natural" v="hill" />
		<tag k="place" v="locality" />
		<tag k="ssr:stedsnr" v="341049" />
	</node>
<<<<<<< HEAD
	<node lat="59.160572222838724" lon="11.634891669988782" id="-13614">
		<tag k="name" v="Slorerdalen" />
		<tag k="natural" v="valley" />
=======
	<node id="-234922" lat="59.0954666629" lon="11.7347250043">
		<tag k="name" v="Mortvasskollene" />
		<tag k="natural" v="hill" />
>>>>>>> e1d4bc35ff8a6074a6f2e91616a996b547c36f15
		<tag k="place" v="locality" />
		<tag k="ssr:stedsnr" v="354457" />
	</node>
<<<<<<< HEAD
	<node lat="59.218697218025184" lon="11.710352777741996" id="-13619">
=======
	<node id="-234409" lat="59.153949997" lon="11.6441249978">
>>>>>>> e1d4bc35ff8a6074a6f2e91616a996b547c36f15
		<tag k="fixme" v="consider natural=peak for the most distinct mountains in the district" />
		<tag k="name" v="Jersengåsen" />
		<tag k="natural" v="hill" />
		<tag k="place" v="locality" />
		<tag k="ssr:stedsnr" v="355298" />
	</node>
<<<<<<< HEAD
	<node lat="59.187269447091005" lon="11.757661112043738" id="-13626">
=======
	<node id="-234408" lat="59.1889166687" lon="11.6171833256">
		<tag k="alt_name" v="Sørliåsen" />
>>>>>>> e1d4bc35ff8a6074a6f2e91616a996b547c36f15
		<tag k="fixme" v="consider natural=peak for the most distinct mountains in the district" />
		<tag k="name" v="Stendamåsen" />
		<tag k="natural" v="hill" />
		<tag k="place" v="locality" />
		<tag k="ssr:stedsnr" v="355904" />
	</node>
<<<<<<< HEAD
	<node lat="59.19533055460972" lon="11.783672227726193" id="-13631">
		<tag k="name" v="Stuteklev" />
=======
	<node id="-233895" lat="59.1528527742" lon="11.7700055531">
		<tag k="fixme" v="consider natural=peak for the most distinct mountains in the district" />
		<tag k="name" v="Snaråsen" />
		<tag k="natural" v="hill" />
>>>>>>> e1d4bc35ff8a6074a6f2e91616a996b547c36f15
		<tag k="place" v="locality" />
		<tag k="ssr:stedsnr" v="355900" />
	</node>
<<<<<<< HEAD
	<node lat="59.15821111024169" lon="11.686058327414772" id="-13633">
		<tag k="name" v="Ulsrøddalen" />
		<tag k="natural" v="valley" />
		<tag k="place" v="locality" />
		<tag k="ssr:stedsnr" v="475480" />
	</node>
	<node lat="59.157541664673914" lon="11.674544445081011" id="-13636">
		<tag k="fixme" v="consider natural=peak for the most distinct mountains in the district" />
		<tag k="name" v="Ødegårdsåsen" />
		<tag k="natural" v="hill" />
=======
	<node id="-234405" lat="59.2289750036" lon="11.6343111144">
		<tag k="name" v="Bjørkeliene" />
		<tag k="natural" v="slope" />
>>>>>>> e1d4bc35ff8a6074a6f2e91616a996b547c36f15
		<tag k="place" v="locality" />
		<tag k="ssr:stedsnr" v="475514" />
	</node>
<<<<<<< HEAD
	<node lat="59.197572223736536" lon="11.699255549045224" id="-13652">
		<tag k="fixme" v="consider natural=peak for the most distinct mountains in the district" />
		<tag k="name" v="Nordbyåsen" />
		<tag k="natural" v="hill" />
		<tag k="place" v="locality" />
		<tag k="ssr:stedsnr" v="476883" />
	</node>
	<node lat="59.149736110863344" lon="11.773722215692569" id="-13656">
		<tag k="fixme" v="multiple name tags, choose one and add the other to alt_name; consider natural=peak for the most distinct mountains in the district" />
		<tag k="name" v="Raudkoll;Kolsbuåsen" />
		<tag k="natural" v="hill" />
		<tag k="place" v="locality" />
		<tag k="ssr:stedsnr" v="366003" />
	</node>
	<node lat="59.29779722657497" lon="11.668477778264862" id="-13665">
=======
	<node id="-234915" lat="59.2476277762" lon="11.790711113">
>>>>>>> e1d4bc35ff8a6074a6f2e91616a996b547c36f15
		<tag k="fixme" v="consider natural=peak for the most distinct mountains in the district" />
		<tag k="name" v="Lunneåsen" />
		<tag k="natural" v="hill" />
		<tag k="place" v="locality" />
		<tag k="ssr:stedsnr" v="402029" />
	</node>
<<<<<<< HEAD
	<node lat="59.107502781303495" lon="11.742147230636695" id="-13669">
=======
	<node id="-234402" lat="59.0750305586" lon="11.7458555487">
		<tag k="alt_name" v="Høyklevåsen" />
>>>>>>> e1d4bc35ff8a6074a6f2e91616a996b547c36f15
		<tag k="fixme" v="consider natural=peak for the most distinct mountains in the district" />
		<tag k="name" v="Lundeheia" />
		<tag k="natural" v="hill" />
		<tag k="place" v="locality" />
		<tag k="ssr:stedsnr" v="486468" />
	</node>
<<<<<<< HEAD
	<node lat="59.077641669412905" lon="11.755574995905933" id="-13670">
		<tag k="alt_name" v="Ulverompene" />
		<tag k="fixme" v="consider natural=peak for the most distinct mountains in the district" />
		<tag k="name" v="Ulverumpene" />
		<tag k="natural" v="hill" />
		<tag k="place" v="locality" />
		<tag k="ssr:stedsnr" v="486488" />
	</node>
	<node lat="59.172000003905254" lon="11.639091663948193" id="-13673">
		<tag k="alt_name" v="Engkashøyda" />
=======
	<node id="-234399" lat="59.2481805579" lon="11.5956777849">
>>>>>>> e1d4bc35ff8a6074a6f2e91616a996b547c36f15
		<tag k="fixme" v="consider natural=peak for the most distinct mountains in the district" />
		<tag k="name" v="Engkashøgda" />
		<tag k="natural" v="hill" />
		<tag k="place" v="locality" />
		<tag k="ssr:stedsnr" v="487090" />
	</node>
<<<<<<< HEAD
	<node lat="59.097249995545255" lon="11.763538895100845" id="-13676">
		<tag k="fixme" v="consider natural=peak for the most distinct mountains in the district" />
		<tag k="name" v="Latjernsåsen" />
		<tag k="natural" v="hill" />
		<tag k="place" v="locality" />
		<tag k="ssr:stedsnr" v="487470" />
	</node>
	<node lat="59.13391388688821" lon="11.65252777025217" id="-13681">
		<tag k="alt_name" v="Lomtjernhøyda" />
=======
	<node id="-234908" lat="59.1158722243" lon="11.6844361138">
		<tag k="alt_name" v="Dagtjernhøyda" />
>>>>>>> e1d4bc35ff8a6074a6f2e91616a996b547c36f15
		<tag k="fixme" v="consider natural=peak for the most distinct mountains in the district" />
		<tag k="name" v="Lomtjernhøgda" />
		<tag k="natural" v="hill" />
		<tag k="place" v="locality" />
		<tag k="ssr:stedsnr" v="488031" />
	</node>
	<node lat="59.19598889175739" lon="11.75246111875466" id="-13689">
		<tag k="name" v="Vindtjernkleva" />
		<tag k="place" v="locality" />
		<tag k="ssr:stedsnr" v="416895" />
	</node>
	<node lat="59.19169444544318" lon="11.766705548930688" id="-13690">
		<tag k="name" v="Halvfarkleva" />
		<tag k="place" v="locality" />
		<tag k="ssr:stedsnr" v="416898" />
	</node>
<<<<<<< HEAD
	<node lat="59.224699998545915" lon="11.651769448122582" id="-13696">
=======
	<node id="-234052" lat="59.210302775" lon="11.7032222248">
		<tag k="name" v="Krossbyhaugen" />
		<tag k="natural" v="hill" />
		<tag k="place" v="locality" />
		<tag k="ssr:stedsnr" v="901300" />
	</node>
	<node id="-234900" lat="59.2218333307" lon="11.6232444465">
>>>>>>> e1d4bc35ff8a6074a6f2e91616a996b547c36f15
		<tag k="fixme" v="consider natural=peak for the most distinct mountains in the district" />
		<tag k="name" v="Korpås" />
		<tag k="natural" v="hill" />
		<tag k="place" v="locality" />
		<tag k="ssr:stedsnr" v="426158" />
	</node>
<<<<<<< HEAD
	<node lat="59.105502779562194" lon="11.728747224395176" id="-13697">
		<tag k="alt_name" v="Mellemheia" />
=======
	<node id="-234899" lat="59.2164694401" lon="11.6213611182">
>>>>>>> e1d4bc35ff8a6074a6f2e91616a996b547c36f15
		<tag k="fixme" v="consider natural=peak for the most distinct mountains in the district" />
		<tag k="name" v="Mellomheia" />
		<tag k="natural" v="hill" />
		<tag k="place" v="locality" />
<<<<<<< HEAD
		<tag k="ssr:stedsnr" v="426437" />
	</node>
	<node lat="59.248069444954375" lon="11.630924999030103" id="-13703">
=======
		<tag k="ssr:stedsnr" v="841331" />
	</node>
	<node id="-234898" lat="59.2200277734" lon="11.667797226">
		<tag k="name" v="Bikkjedalen" />
		<tag k="natural" v="valley" />
		<tag k="place" v="locality" />
		<tag k="ssr:stedsnr" v="841330" />
	</node>
	<node id="-234384" lat="59.3136416651" lon="11.7340083295">
>>>>>>> e1d4bc35ff8a6074a6f2e91616a996b547c36f15
		<tag k="fixme" v="consider natural=peak for the most distinct mountains in the district" />
		<tag k="name" v="Gresholtkollen" />
		<tag k="natural" v="hill" />
		<tag k="place" v="locality" />
		<tag k="ssr:stedsnr" v="427272" />
	</node>
<<<<<<< HEAD
	<node lat="59.282724997204966" lon="11.617288888467082" id="-13710">
		<tag k="alt_name" v="Berggrøten" />
=======
	<node id="-234895" lat="59.2739666706" lon="11.7535611057">
>>>>>>> e1d4bc35ff8a6074a6f2e91616a996b547c36f15
		<tag k="fixme" v="consider natural=peak for the most distinct mountains in the district" />
		<tag k="name" v="Bergrøten" />
		<tag k="natural" v="hill" />
		<tag k="place" v="locality" />
		<tag k="ssr:stedsnr" v="428675" />
	</node>
<<<<<<< HEAD
	<node lat="59.29611666925922" lon="11.621497222189479" id="-13721">
		<tag k="name" v="Skjellgropa" />
=======
	<node id="-234381" lat="59.2556999999" lon="11.8010027785">
		<tag k="name" v="Merradalen" />
		<tag k="natural" v="valley" />
>>>>>>> e1d4bc35ff8a6074a6f2e91616a996b547c36f15
		<tag k="place" v="locality" />
		<tag k="ssr:stedsnr" v="462061" />
	</node>
<<<<<<< HEAD
	<node lat="59.15285277421506" lon="11.770005553134192" id="-13727">
=======
	<node id="-233868" lat="59.158794445" lon="11.6767916584">
		<tag k="alt_name" v="Brenteåsene" />
>>>>>>> e1d4bc35ff8a6074a6f2e91616a996b547c36f15
		<tag k="fixme" v="consider natural=peak for the most distinct mountains in the district" />
		<tag k="name" v="Snaråsen" />
		<tag k="natural" v="hill" />
		<tag k="place" v="locality" />
		<tag k="ssr:stedsnr" v="476664" />
	</node>
<<<<<<< HEAD
	<node lat="59.1711472199733" lon="11.730986117190573" id="-13730">
		<tag k="fixme" v="consider natural=peak for the most distinct mountains in the district" />
		<tag k="name" v="Høyås" />
=======
	<node id="-234891" lat="59.1622805552" lon="11.6577166714">
		<tag k="name" v="Smelleberget" />
>>>>>>> e1d4bc35ff8a6074a6f2e91616a996b547c36f15
		<tag k="natural" v="hill" />
		<tag k="place" v="locality" />
		<tag k="ssr:stedsnr" v="476938" />
	</node>
<<<<<<< HEAD
	<node lat="59.23621389180955" lon="11.77558610305793" id="-13738">
		<tag k="alt_name" v="Løvheia" />
		<tag k="fixme" v="consider natural=peak for the most distinct mountains in the district" />
		<tag k="name" v="Lauen" />
		<tag k="natural" v="hill" />
		<tag k="place" v="locality" />
		<tag k="ssr:stedsnr" v="486104" />
	</node>
	<node lat="59.1617027796382" lon="11.624216674758083" id="-13740">
=======
	<node id="-233864" lat="59.0771888847" lon="11.7353777751">
>>>>>>> e1d4bc35ff8a6074a6f2e91616a996b547c36f15
		<tag k="fixme" v="consider natural=peak for the most distinct mountains in the district" />
		<tag k="name" v="Hiås" />
		<tag k="natural" v="hill" />
		<tag k="place" v="locality" />
		<tag k="ssr:stedsnr" v="487105" />
	</node>
<<<<<<< HEAD
	<node lat="59.25906666268432" lon="11.632091666303841" id="-13757">
=======
	<node id="-234886" lat="59.2641277802" lon="11.77508889">
>>>>>>> e1d4bc35ff8a6074a6f2e91616a996b547c36f15
		<tag k="fixme" v="consider natural=peak for the most distinct mountains in the district" />
		<tag k="name" v="Stueåsen" />
		<tag k="natural" v="hill" />
		<tag k="place" v="locality" />
		<tag k="ssr:stedsnr" v="523515" />
	</node>
<<<<<<< HEAD
	<node lat="59.22672222143595" lon="11.630666671966765" id="-13759">
		<tag k="name" v="Vinterbakken" />
		<tag k="natural" v="slope" />
=======
	<node id="-234155" lat="59.2350333317" lon="11.8101777695">
		<tag k="fixme" v="consider natural=peak for the most distinct mountains in the district" />
		<tag k="name" v="Bråtenåsen" />
		<tag k="natural" v="hill" />
		<tag k="place" v="locality" />
		<tag k="ssr:stedsnr" v="901128" />
	</node>
	<node id="-234363" lat="59.0790611126" lon="11.7111111158">
		<tag k="name" v="Abbortjerndraua" />
		<tag k="natural" v="valley" />
>>>>>>> e1d4bc35ff8a6074a6f2e91616a996b547c36f15
		<tag k="place" v="locality" />
		<tag k="ssr:stedsnr" v="523559" />
	</node>
<<<<<<< HEAD
	<node lat="59.251461110905886" lon="11.626469452598439" id="-13773">
		<tag k="name" v="Seljedalen" />
		<tag k="natural" v="valley" />
=======
	<node id="-233850" lat="59.1674972235" lon="11.619936116">
		<tag k="fixme" v="consider natural=peak for the most distinct mountains in the district" />
		<tag k="name" v="Langåsen" />
		<tag k="natural" v="hill" />
>>>>>>> e1d4bc35ff8a6074a6f2e91616a996b547c36f15
		<tag k="place" v="locality" />
		<tag k="ssr:stedsnr" v="537520" />
	</node>
<<<<<<< HEAD
	<node lat="59.300416663769276" lon="11.767119438130491" id="-13775">
=======
	<node id="-234873" lat="59.2967694407" lon="11.7003500055">
>>>>>>> e1d4bc35ff8a6074a6f2e91616a996b547c36f15
		<tag k="fixme" v="consider natural=peak for the most distinct mountains in the district" />
		<tag k="name" v="Mørkvikhøyda" />
		<tag k="natural" v="hill" />
		<tag k="place" v="locality" />
		<tag k="ssr:stedsnr" v="537767" />
	</node>
<<<<<<< HEAD
	<node lat="59.192402781266416" lon="11.769808329580327" id="-13778">
		<tag k="name" v="Halvfardalen" />
=======
	<node id="-233848" lat="59.2225861125" lon="11.7160777732">
		<tag k="name" v="Stoppedalen" />
>>>>>>> e1d4bc35ff8a6074a6f2e91616a996b547c36f15
		<tag k="natural" v="valley" />
		<tag k="place" v="locality" />
		<tag k="ssr:stedsnr" v="537906" />
	</node>
<<<<<<< HEAD
	<node lat="59.16550277510309" lon="11.760336113109574" id="-13779">
=======
	<node id="-233876" lat="59.2093388875" lon="11.7546416595">
		<tag k="fixme" v="consider natural=peak for the most distinct mountains in the district" />
		<tag k="name" v="Røyås" />
		<tag k="natural" v="hill" />
		<tag k="place" v="locality" />
		<tag k="ssr:stedsnr" v="669163" />
	</node>
	<node id="-234870" lat="59.3175944423" lon="11.6690638834">
>>>>>>> e1d4bc35ff8a6074a6f2e91616a996b547c36f15
		<tag k="fixme" v="consider natural=peak for the most distinct mountains in the district" />
		<tag k="name" v="Trulsetjernhøyda" />
		<tag k="natural" v="hill" />
		<tag k="place" v="locality" />
		<tag k="ssr:stedsnr" v="537917" />
	</node>
<<<<<<< HEAD
	<node lat="59.17985000222326" lon="11.733272223854472" id="-13780">
		<tag k="name" v="Ormhaugen" />
=======
	<node id="-234356" lat="59.2562944484" lon="11.6291749945">
		<tag k="fixme" v="consider natural=peak for the most distinct mountains in the district" />
		<tag k="name" v="Høyås" />
>>>>>>> e1d4bc35ff8a6074a6f2e91616a996b547c36f15
		<tag k="natural" v="hill" />
		<tag k="place" v="locality" />
		<tag k="ssr:stedsnr" v="537925" />
	</node>
<<<<<<< HEAD
	<node lat="59.17311111040996" lon="11.75834167099596" id="-13790">
		<tag k="alt_name" v="Kverntjernhøyda" />
		<tag k="name" v="Kverntjernshøgda" />
		<tag k="natural" v="hill" />
		<tag k="place" v="locality" />
		<tag k="ssr:stedsnr" v="548079" />
	</node>
	<node lat="59.09829999761579" lon="11.71919721551614" id="-13791">
		<tag k="fixme" v="consider natural=peak for the most distinct mountains in the district" />
		<tag k="name" v="Lundene" />
		<tag k="natural" v="hill" />
		<tag k="place" v="locality" />
		<tag k="ssr:stedsnr" v="548454" />
	</node>
	<node lat="59.30313055462291" lon="11.757797223943724" id="-13815">
		<tag k="alt_name" v="Grevlinghøyda" />
		<tag k="fixme" v="consider natural=peak for the most distinct mountains in the district" />
		<tag k="name" v="Grevlinghøgda" />
		<tag k="natural" v="hill" />
		<tag k="place" v="locality" />
		<tag k="ssr:stedsnr" v="609637" />
	</node>
	<node lat="59.22911666615523" lon="11.719524996139352" id="-13820">
		<tag k="fixme" v="consider natural=peak for the most distinct mountains in the district" />
		<tag k="name" v="Kirkeåsen" />
		<tag k="natural" v="hill" />
		<tag k="place" v="locality" />
		<tag k="ssr:stedsnr" v="704427" />
	</node>
	<node lat="59.22568055546344" lon="11.713361117790313" id="-13821">
		<tag k="name" v="Perkollen" />
		<tag k="natural" v="hill" />
		<tag k="place" v="locality" />
		<tag k="ssr:stedsnr" v="704428" />
	</node>
	<node lat="59.226647223342944" lon="11.66225000792174" id="-13827">
		<tag k="name" v="Grandalen" />
		<tag k="natural" v="valley" />
=======
	<node id="-233790" lat="59.1075027813" lon="11.7421472306">
		<tag k="fixme" v="consider natural=peak for the most distinct mountains in the district" />
		<tag k="name" v="Lundeheia" />
		<tag k="natural" v="hill" />
		<tag k="place" v="locality" />
		<tag k="ssr:stedsnr" v="486468" />
	</node>
	<node id="-234387" lat="59.2210138911" lon="11.6740111043">
		<tag k="fixme" v="consider natural=peak for the most distinct mountains in the district" />
		<tag k="name" v="Skakkestadåsen" />
		<tag k="natural" v="hill" />
		<tag k="place" v="locality" />
		<tag k="ssr:stedsnr" v="173296" />
	</node>
	<node id="-233840" lat="59.0911111151" lon="11.6773833301">
		<tag k="fixme" v="consider natural=peak for the most distinct mountains in the district" />
		<tag k="name" v="Rytterøfsa" />
		<tag k="natural" v="hill" />
		<tag k="place" v="locality" />
		<tag k="ssr:stedsnr" v="658014" />
	</node>
	<node id="-234852" lat="59.2925888846" lon="11.7305972176">
		<tag k="alt_name" v="Skavlen" />
		<tag k="fixme" v="consider natural=peak for the most distinct mountains in the district" />
		<tag k="name" v="Skavelen" />
		<tag k="natural" v="hill" />
		<tag k="place" v="locality" />
		<tag k="ssr:stedsnr" v="792651" />
	</node>
	<node id="-233923" lat="59.2291166662" lon="11.7195249961">
		<tag k="fixme" v="consider natural=peak for the most distinct mountains in the district" />
		<tag k="name" v="Kirkeåsen" />
		<tag k="natural" v="hill" />
		<tag k="place" v="locality" />
		<tag k="ssr:stedsnr" v="704427" />
	</node>
	<node id="-233826" lat="59.1333055562" lon="11.7668000046">
		<tag k="fixme" v="consider natural=peak for the most distinct mountains in the district" />
		<tag k="name" v="Husåsen" />
		<tag k="natural" v="hill" />
>>>>>>> e1d4bc35ff8a6074a6f2e91616a996b547c36f15
		<tag k="place" v="locality" />
		<tag k="ssr:stedsnr" v="705558" />
	</node>
<<<<<<< HEAD
	<node lat="59.240544447204094" lon="11.671066669246688" id="-13829">
=======
	<node id="-233872" lat="59.1956777804" lon="11.6083083257">
		<tag k="alt_name" v="Steinkallåsen" />
		<tag k="fixme" v="consider natural=peak for the most distinct mountains in the district" />
		<tag k="name" v="Steinkollåsen" />
		<tag k="natural" v="hill" />
		<tag k="place" v="locality" />
		<tag k="ssr:stedsnr" v="669150" />
	</node>
	<node id="-234844" lat="59.2344722188" lon="11.7861277771">
		<tag k="alt_name" v="Trolldalshøyda" />
>>>>>>> e1d4bc35ff8a6074a6f2e91616a996b547c36f15
		<tag k="fixme" v="consider natural=peak for the most distinct mountains in the district" />
		<tag k="name" v="Kirkeåsen" />
		<tag k="natural" v="hill" />
		<tag k="place" v="locality" />
		<tag k="ssr:stedsnr" v="705552" />
	</node>
<<<<<<< HEAD
	<node lat="59.077188884708704" lon="11.735377775127343" id="-13856">
=======
	<node id="-234383" lat="59.3168055599" lon="11.7684499977">
		<tag k="fixme" v="consider natural=peak for the most distinct mountains in the district" />
		<tag k="name" v="Skrikerbekkhøyda" />
		<tag k="natural" v="hill" />
		<tag k="place" v="locality" />
		<tag k="ssr:stedsnr" v="172954" />
	</node>
	<node id="-234327" lat="59.0895138891" lon="11.7621000042">
		<tag k="alt_name" v="Abbortjernhøyda" />
>>>>>>> e1d4bc35ff8a6074a6f2e91616a996b547c36f15
		<tag k="fixme" v="consider natural=peak for the most distinct mountains in the district" />
		<tag k="name" v="Tangetjernfjellet" />
		<tag k="natural" v="hill" />
		<tag k="place" v="locality" />
		<tag k="ssr:stedsnr" v="668492" />
	</node>
<<<<<<< HEAD
	<node lat="59.16047222011799" lon="11.771355554723174" id="-13857">
		<tag k="fixme" v="consider natural=peak for the most distinct mountains in the district" />
		<tag k="name" v="Fagerliåsen" />
=======
	<node id="-233814" lat="59.1449638915" lon="11.7535916746">
		<tag k="name" v="Tornehaug" />
>>>>>>> e1d4bc35ff8a6074a6f2e91616a996b547c36f15
		<tag k="natural" v="hill" />
		<tag k="place" v="locality" />
		<tag k="ssr:stedsnr" v="669095" />
	</node>
<<<<<<< HEAD
	<node lat="59.1587944449511" lon="11.676791658422045" id="-13858">
		<tag k="alt_name" v="Brenteåsene" />
		<tag k="fixme" v="consider natural=peak for the most distinct mountains in the district" />
		<tag k="name" v="Brenteåsen" />
		<tag k="natural" v="hill" />
		<tag k="place" v="locality" />
		<tag k="ssr:stedsnr" v="669099" />
	</node>
	<node lat="59.32983888863293" lon="11.676633326160555" id="-13865">
		<tag k="fixme" v="consider natural=peak for the most distinct mountains in the district" />
		<tag k="name" v="Koppervikåsen" />
=======
	<node id="-234325" lat="59.1496138899" lon="11.7020166596">
		<tag k="alt_name" v="Døhaug" />
		<tag k="name" v="Dødhaug" />
		<tag k="natural" v="hill" />
		<tag k="place" v="locality" />
		<tag k="ssr:stedsnr" v="122442" />
	</node>
	<node id="-234835" lat="59.1786888905" lon="11.7748972303">
		<tag k="name" v="Lauvdal" />
		<tag k="natural" v="valley" />
		<tag k="place" v="locality" />
		<tag k="ssr:stedsnr" v="780911" />
	</node>
	<node id="-234319" lat="59.2163944421" lon="11.5793499957">
		<tag k="name" v="Store Kokka" />
>>>>>>> e1d4bc35ff8a6074a6f2e91616a996b547c36f15
		<tag k="natural" v="hill" />
		<tag k="place" v="locality" />
		<tag k="ssr:stedsnr" v="705013" />
	</node>
<<<<<<< HEAD
	<node lat="59.151241669852645" lon="11.645194447665222" id="-13868">
=======
	<node id="-234828" lat="59.2172111092" lon="11.69278056">
>>>>>>> e1d4bc35ff8a6074a6f2e91616a996b547c36f15
		<tag k="fixme" v="consider natural=peak for the most distinct mountains in the district" />
		<tag k="name" v="Signalen" />
		<tag k="natural" v="hill" />
		<tag k="place" v="locality" />
		<tag k="ssr:stedsnr" v="718513" />
	</node>
<<<<<<< HEAD
	<node lat="59.333444444423755" lon="11.697491673172573" id="-13876">
=======
	<node id="-233801" lat="59.0972499955" lon="11.7635388951">
>>>>>>> e1d4bc35ff8a6074a6f2e91616a996b547c36f15
		<tag k="fixme" v="consider natural=peak for the most distinct mountains in the district" />
		<tag k="name" v="Kutjernhøyda" />
		<tag k="natural" v="hill" />
		<tag k="place" v="locality" />
		<tag k="ssr:stedsnr" v="720418" />
	</node>
<<<<<<< HEAD
	<node lat="59.1577166688864" lon="11.688677775800103" id="-13877">
=======
	<node id="-234822" lat="59.2666972177" lon="11.7063583391">
>>>>>>> e1d4bc35ff8a6074a6f2e91616a996b547c36f15
		<tag k="fixme" v="consider natural=peak for the most distinct mountains in the district" />
		<tag k="name" v="Daleåsen" />
		<tag k="natural" v="hill" />
		<tag k="place" v="locality" />
		<tag k="ssr:stedsnr" v="900478" />
	</node>
<<<<<<< HEAD
	<node lat="59.33508333070798" lon="11.674180559058604" id="-13886">
		<tag k="fixme" v="consider natural=peak for the most distinct mountains in the district" />
		<tag k="name" v="Kutjernhøyda" />
		<tag k="natural" v="hill" />
		<tag k="place" v="locality" />
		<tag k="ssr:stedsnr" v="901179" />
	</node>
	<node lat="59.182577780567144" lon="11.748880553824552" id="-13890">
		<tag k="alt_name" v="Kisleberget" />
=======
	<node id="-234309" lat="59.2015444416" lon="11.6418333403">
		<tag k="name" v="Høye ås" />
		<tag k="natural" v="hill" />
		<tag k="place" v="locality" />
		<tag k="ssr:stedsnr" v="112890" />
	</node>
	<node id="-234818" lat="59.3200916633" lon="11.7537749933">
		<tag k="name" v="Duvledalen" />
		<tag k="natural" v="valley" />
		<tag k="place" v="locality" />
		<tag k="ssr:stedsnr" v="779945" />
	</node>
	<node id="-234817" lat="59.0466833341" lon="11.71520278">
>>>>>>> e1d4bc35ff8a6074a6f2e91616a996b547c36f15
		<tag k="fixme" v="consider natural=peak for the most distinct mountains in the district" />
		<tag k="name" v="Kisselberget" />
		<tag k="natural" v="hill" />
		<tag k="place" v="locality" />
		<tag k="ssr:stedsnr" v="730086" />
	</node>
<<<<<<< HEAD
	<node lat="59.23503333172428" lon="11.810177769537495" id="-13892">
		<tag k="fixme" v="consider natural=peak for the most distinct mountains in the district" />
		<tag k="name" v="Bråtenåsen" />
		<tag k="natural" v="hill" />
		<tag k="place" v="locality" />
		<tag k="ssr:stedsnr" v="901128" />
	</node>
	<node lat="59.089541671110645" lon="11.725452770485367" id="-13893">
		<tag k="alt_name" v="Høyestang" />
=======
	<node id="-233791" lat="59.0776416694" lon="11.7555749959">
		<tag k="alt_name" v="Ulverompene" />
		<tag k="fixme" v="consider natural=peak for the most distinct mountains in the district" />
		<tag k="name" v="Ulverumpene" />
		<tag k="natural" v="hill" />
		<tag k="place" v="locality" />
		<tag k="ssr:stedsnr" v="486488" />
	</node>
	<node id="-234302" lat="59.3056611066" lon="11.7549805604">
		<tag k="name" v="Bjørndalen" />
		<tag k="natural" v="valley" />
		<tag k="place" v="locality" />
		<tag k="ssr:stedsnr" v="112796" />
	</node>
	<node id="-233781" lat="59.1975722237" lon="11.699255549">
		<tag k="fixme" v="consider natural=peak for the most distinct mountains in the district" />
		<tag k="name" v="Nordbyåsen" />
		<tag k="natural" v="hill" />
		<tag k="place" v="locality" />
		<tag k="ssr:stedsnr" v="476883" />
	</node>
	<node id="-234300" lat="59.1429361154" lon="11.6943388968">
>>>>>>> e1d4bc35ff8a6074a6f2e91616a996b547c36f15
		<tag k="fixme" v="consider natural=peak for the most distinct mountains in the district" />
		<tag k="name" v="Høgestang" />
		<tag k="natural" v="hill" />
		<tag k="place" v="locality" />
		<tag k="ssr:stedsnr" v="730519" />
	</node>
<<<<<<< HEAD
	<node lat="59.21030277502015" lon="11.703222224799315" id="-13896">
		<tag k="name" v="Krossbyhaugen" />
		<tag k="natural" v="hill" />
=======
	<node id="-234299" lat="59.1697249992" lon="11.6853861183">
		<tag k="name" v="Tjernsdalen" />
		<tag k="natural" v="valley" />
>>>>>>> e1d4bc35ff8a6074a6f2e91616a996b547c36f15
		<tag k="place" v="locality" />
		<tag k="ssr:stedsnr" v="901300" />
	</node>
<<<<<<< HEAD
	<node lat="59.14032499817666" lon="11.681944441276093" id="-13907">
		<tag k="name" v="Kjerringdalen" />
=======
	<node id="-234298" lat="59.1734305564" lon="11.611658342">
		<tag k="name" v="Tyvholtdalen" />
>>>>>>> e1d4bc35ff8a6074a6f2e91616a996b547c36f15
		<tag k="natural" v="valley" />
		<tag k="place" v="locality" />
		<tag k="ssr:stedsnr" v="901485" />
	</node>
<<<<<<< HEAD
	<node lat="59.179211109072064" lon="11.765994441097138" id="-13909">
		<tag k="name" v="Rødeberg" />
=======
	<node id="-233784" lat="59.17114722" lon="11.7309861172">
		<tag k="fixme" v="consider natural=peak for the most distinct mountains in the district" />
		<tag k="name" v="Høyås" />
>>>>>>> e1d4bc35ff8a6074a6f2e91616a996b547c36f15
		<tag k="natural" v="hill" />
		<tag k="place" v="locality" />
		<tag k="ssr:stedsnr" v="901953" />
	</node>
<<<<<<< HEAD
	<node lat="59.24936666460834" lon="11.604644444154005" id="-13914">
=======
	<node id="-234295" lat="59.3171444477" lon="11.7100333352">
>>>>>>> e1d4bc35ff8a6074a6f2e91616a996b547c36f15
		<tag k="fixme" v="consider natural=peak for the most distinct mountains in the district" />
		<tag k="name" v="Eikelihøyda" />
		<tag k="natural" v="hill" />
		<tag k="place" v="locality" />
<<<<<<< HEAD
		<tag k="ssr:stedsnr" v="765333" />
	</node>
	<node lat="59.171186114124986" lon="11.619641674572444" id="-13922">
=======
		<tag k="ssr:stedsnr" v="112221" />
	</node>
	<node id="-234294" lat="59.2896249958" lon="11.631097216">
		<tag k="name" v="Brudedalen" />
		<tag k="natural" v="valley" />
		<tag k="place" v="locality" />
		<tag k="ssr:stedsnr" v="112078" />
	</node>
	<node id="-234805" lat="59.1711861141" lon="11.6196416746">
>>>>>>> e1d4bc35ff8a6074a6f2e91616a996b547c36f15
		<tag k="name" v="Elggravdalen" />
		<tag k="natural" v="valley" />
		<tag k="place" v="locality" />
		<tag k="ssr:stedsnr" v="779363" />
	</node>
<<<<<<< HEAD
	<node lat="59.152333331503236" lon="11.659061109686398" id="-13923">
=======
	<node id="-234291" lat="59.2641416636" lon="11.7532750079">
>>>>>>> e1d4bc35ff8a6074a6f2e91616a996b547c36f15
		<tag k="fixme" v="consider natural=peak for the most distinct mountains in the district" />
		<tag k="name" v="Humlegårdsåsen" />
		<tag k="natural" v="hill" />
		<tag k="place" v="locality" />
		<tag k="ssr:stedsnr" v="779504" />
	</node>
<<<<<<< HEAD
	<node lat="59.26585833595488" lon="11.80329443783215" id="-13927">
		<tag k="fixme" v="consider natural=peak for the most distinct mountains in the district" />
		<tag k="name" v="Vaktåsen" />
		<tag k="natural" v="hill" />
=======
	<node id="-234290" lat="59.2347305556" lon="11.7626694493">
		<tag k="name" v="Siljedalen" />
		<tag k="natural" v="valley" />
>>>>>>> e1d4bc35ff8a6074a6f2e91616a996b547c36f15
		<tag k="place" v="locality" />
		<tag k="ssr:stedsnr" v="779861" />
	</node>
<<<<<<< HEAD
	<node lat="59.178688890454715" lon="11.774897230310517" id="-13932">
		<tag k="name" v="Lauvdal" />
=======
	<node id="-234801" lat="59.2394944462" lon="11.7546027862">
		<tag k="name" v="Mardalen" />
>>>>>>> e1d4bc35ff8a6074a6f2e91616a996b547c36f15
		<tag k="natural" v="valley" />
		<tag k="place" v="locality" />
		<tag k="ssr:stedsnr" v="780911" />
	</node>
<<<<<<< HEAD
	<node lat="59.23447221879335" lon="11.786127777097036" id="-13943">
		<tag k="alt_name" v="Trolldalshøyda" />
=======
	<node id="-233767" lat="59.1575416647" lon="11.6745444451">
>>>>>>> e1d4bc35ff8a6074a6f2e91616a996b547c36f15
		<tag k="fixme" v="consider natural=peak for the most distinct mountains in the district" />
		<tag k="name" v="Trollhøgda" />
		<tag k="natural" v="hill" />
		<tag k="place" v="locality" />
		<tag k="ssr:stedsnr" v="790105" />
	</node>
<<<<<<< HEAD
	<node lat="59.186177775916384" lon="11.713922229358232" id="-13953">
		<tag k="fixme" v="consider natural=peak for the most distinct mountains in the district" />
		<tag k="name" v="Kovåsen" />
		<tag k="natural" v="hill" />
=======
	<node id="-233765" lat="59.1582111102" lon="11.6860583274">
		<tag k="name" v="Ulsrøddalen" />
		<tag k="natural" v="valley" />
>>>>>>> e1d4bc35ff8a6074a6f2e91616a996b547c36f15
		<tag k="place" v="locality" />
		<tag k="ssr:stedsnr" v="912079" />
	</node>
<<<<<<< HEAD
	<node lat="59.22676944520484" lon="11.771141669979796" id="-13956">
		<tag k="alt_name" v="Rivekrake" />
		<tag k="fixme" v="consider natural=peak for the most distinct mountains in the district" />
		<tag k="name" v="Rivekrakken" />
		<tag k="natural" v="hill" />
		<tag k="place" v="locality" />
		<tag k="ssr:stedsnr" v="912148" />
	</node>
	<node lat="59.13969167023449" lon="11.716949996128381" id="-13965">
		<tag k="name" v="Gravdalen" />
		<tag k="natural" v="valley" />
		<tag k="place" v="locality" />
		<tag k="ssr:stedsnr" v="913014" />
	</node>
	<node lat="59.12130833525985" lon="11.766144441537667" id="-13968">
		<tag k="fixme" v="consider natural=peak for the most distinct mountains in the district" />
		<tag k="name" v="Sandbekkåsen" />
		<tag k="natural" v="hill" />
		<tag k="place" v="locality" />
		<tag k="ssr:stedsnr" v="913054" />
	</node>
	<node lat="59.317594442257686" lon="11.669063883421193" id="-13978">
		<tag k="fixme" v="consider natural=peak for the most distinct mountains in the district" />
		<tag k="name" v="Mokallåsen" />
		<tag k="natural" v="hill" />
		<tag k="place" v="locality" />
		<tag k="ssr:stedsnr" v="827010" />
	</node>
	<node lat="59.16228055520124" lon="11.657716671416424" id="-13987">
		<tag k="name" v="Smelleberget" />
=======
	<node id="-234374" lat="59.1567027811" lon="11.7740249993">
		<tag k="fixme" v="consider natural=peak for the most distinct mountains in the district" />
		<tag k="name" v="Kroktjernshøyda" />
		<tag k="natural" v="hill" />
		<tag k="place" v="locality" />
		<tag k="ssr:stedsnr" v="172708" />
	</node>
	<node id="-233947" lat="59.0845027739" lon="11.689194449">
		<tag k="fixme" v="consider natural=peak for the most distinct mountains in the district" />
		<tag k="name" v="Lille Ørnelund" />
		<tag k="natural" v="hill" />
		<tag k="place" v="locality" />
		<tag k="ssr:stedsnr" v="597067" />
	</node>
	<node id="-234270" lat="59.1692166688" lon="11.7407722198">
		<tag k="alt_name" v="Amundhaugen" />
		<tag k="name" v="Amundhøgda" />
>>>>>>> e1d4bc35ff8a6074a6f2e91616a996b547c36f15
		<tag k="natural" v="hill" />
		<tag k="place" v="locality" />
		<tag k="ssr:stedsnr" v="840332" />
	</node>
<<<<<<< HEAD
	<node lat="59.22002777342905" lon="11.667797226024385" id="-13993">
		<tag k="name" v="Bikkjedalen" />
		<tag k="natural" v="valley" />
		<tag k="place" v="locality" />
		<tag k="ssr:stedsnr" v="841330" />
	</node>
	<node lat="59.216469440142546" lon="11.621361118193127" id="-13994">
=======
	<node id="-233605" lat="59.1463888868" lon="11.7294138818">
		<tag k="fixme" v="consider natural=peak for the most distinct mountains in the district" />
		<tag k="name" v="Bryggehaugen" />
		<tag k="natural" v="hill" />
		<tag k="place" v="locality" />
		<tag k="ssr:stedsnr" v="52923" />
	</node>
	<node id="-234780" lat="59.2346305549" lon="11.6234555468">
>>>>>>> e1d4bc35ff8a6074a6f2e91616a996b547c36f15
		<tag k="fixme" v="consider natural=peak for the most distinct mountains in the district" />
		<tag k="name" v="Abbortjernhøyda" />
		<tag k="natural" v="hill" />
		<tag k="place" v="locality" />
		<tag k="ssr:stedsnr" v="841331" />
	</node>
<<<<<<< HEAD
	<node lat="59.22183333067212" lon="11.623244446511327" id="-13995">
=======
	<node id="-234266" lat="59.1399777766" lon="11.7275916581">
>>>>>>> e1d4bc35ff8a6074a6f2e91616a996b547c36f15
		<tag k="fixme" v="consider natural=peak for the most distinct mountains in the district" />
		<tag k="name" v="Gjetås" />
		<tag k="natural" v="hill" />
		<tag k="place" v="locality" />
		<tag k="ssr:stedsnr" v="841335" />
	</node>
<<<<<<< HEAD
	<node lat="59.18216666800812" lon="11.764358334202196" id="-13996">
		<tag k="name" v="Svendsås" />
		<tag k="natural" v="hill" />
=======
	<node id="-233753" lat="59.2961166693" lon="11.6214972222">
		<tag k="name" v="Skjellgropa" />
>>>>>>> e1d4bc35ff8a6074a6f2e91616a996b547c36f15
		<tag k="place" v="locality" />
		<tag k="ssr:stedsnr" v="841905" />
	</node>
<<<<<<< HEAD
	<node lat="59.247627776173985" lon="11.790711112979315" id="-14002">
		<tag k="fixme" v="consider natural=peak for the most distinct mountains in the district" />
		<tag k="name" v="Kollerødfjellet" />
		<tag k="natural" v="hill" />
		<tag k="place" v="locality" />
		<tag k="ssr:stedsnr" v="851222" />
	</node>
	<node lat="59.10819166684595" lon="11.70078054932933" id="-14024">
		<tag k="fixme" v="consider natural=peak for the most distinct mountains in the district" />
		<tag k="name" v="Hølåsen" />
		<tag k="natural" v="hill" />
		<tag k="place" v="locality" />
		<tag k="ssr:stedsnr" v="901054" />
	</node>
	<node lat="59.28536389042456" lon="11.625955552306793" id="-14026">
		<tag k="fixme" v="consider natural=peak for the most distinct mountains in the district" />
		<tag k="name" v="Godås" />
		<tag k="natural" v="hill" />
=======
	<node id="-234807" lat="59.1670472213" lon="11.6816055505">
		<tag k="fixme" v="consider natural=peak for the most distinct mountains in the district" />
		<tag k="name" v="Tjernsåsen" />
		<tag k="natural" v="hill" />
		<tag k="place" v="locality" />
		<tag k="ssr:stedsnr" v="779378" />
	</node>
	<node id="-233689" lat="59.1541944459" lon="11.6329833401">
		<tag k="fixme" v="consider natural=peak for the most distinct mountains in the district" />
		<tag k="name" v="Orreberget" />
		<tag k="natural" v="hill" />
		<tag k="place" v="locality" />
		<tag k="ssr:stedsnr" v="293476" />
	</node>
	<node id="-234260" lat="59.2428611138" lon="11.6645666691">
		<tag k="fixme" v="consider natural=peak for the most distinct mountains in the district" />
		<tag k="name" v="Tangenåsene" />
		<tag k="natural" v="hill" />
		<tag k="place" v="locality" />
		<tag k="ssr:stedsnr" v="62237" />
	</node>
	<node id="-233744" lat="59.107325001" lon="11.720169438">
		<tag k="name" v="Djupedal" />
		<tag k="natural" v="valley" />
>>>>>>> e1d4bc35ff8a6074a6f2e91616a996b547c36f15
		<tag k="place" v="locality" />
		<tag k="ssr:stedsnr" v="901060" />
	</node>
<<<<<<< HEAD
	<node lat="59.166677780899875" lon="11.72040834098483" id="-14028">
		<tag k="name" v="Drakehaugen" />
=======
	<node id="-233743" lat="59.073119445" lon="11.6935222267">
		<tag k="alt_name" v="Gravdalsøfsa" />
		<tag k="name" v="Gravedalsøfsa" />
>>>>>>> e1d4bc35ff8a6074a6f2e91616a996b547c36f15
		<tag k="natural" v="hill" />
		<tag k="place" v="locality" />
		<tag k="ssr:stedsnr" v="901368" />
	</node>
<<<<<<< HEAD
	<node lat="59.25101389269403" lon="11.792494439338666" id="-14030">
=======
	<node id="-234766" lat="59.2933138848" lon="11.5986777717">
		<tag k="alt_name" v="Tilleråsen" />
>>>>>>> e1d4bc35ff8a6074a6f2e91616a996b547c36f15
		<tag k="fixme" v="consider natural=peak for the most distinct mountains in the district" />
		<tag k="name" v="Dammyrkollen" />
		<tag k="natural" v="hill" />
		<tag k="place" v="locality" />
		<tag k="ssr:stedsnr" v="901864" />
	</node>
<<<<<<< HEAD
	<node lat="59.10576389098139" lon="11.704080548349923" id="-14035">
		<tag k="fixme" v="consider natural=peak for the most distinct mountains in the district" />
		<tag k="name" v="Hølåsen" />
=======
	<node id="-234764" lat="59.1280500016" lon="11.738913883">
		<tag k="name" v="Halvfarhaugene" />
>>>>>>> e1d4bc35ff8a6074a6f2e91616a996b547c36f15
		<tag k="natural" v="hill" />
		<tag k="place" v="locality" />
		<tag k="ssr:stedsnr" v="911461" />
	</node>
<<<<<<< HEAD
	<node lat="59.16880833113938" lon="11.624377782095406" id="-14042">
=======
	<node id="-234251" lat="59.1852055522" lon="11.6858999983">
		<tag k="alt_name" v="Tauås" />
>>>>>>> e1d4bc35ff8a6074a6f2e91616a996b547c36f15
		<tag k="fixme" v="consider natural=peak for the most distinct mountains in the district" />
		<tag k="name" v="Bastliåsen" />
		<tag k="natural" v="hill" />
		<tag k="place" v="locality" />
<<<<<<< HEAD
		<tag k="ssr:stedsnr" v="912100" />
	</node>
	<node lat="59.091058337894864" lon="11.697669441531016" id="-14043">
=======
		<tag k="ssr:stedsnr" v="62085" />
	</node>
	<node id="-233738" lat="59.2147527804" lon="11.6603583323">
		<tag k="name" v="Stordalen" />
		<tag k="natural" v="valley" />
		<tag k="place" v="locality" />
		<tag k="ssr:stedsnr" v="244170" />
	</node>
	<node id="-234760" lat="59.2214666679" lon="11.7831861044">
		<tag k="alt_name" v="Matholhøydene" />
>>>>>>> e1d4bc35ff8a6074a6f2e91616a996b547c36f15
		<tag k="fixme" v="consider natural=peak for the most distinct mountains in the district" />
		<tag k="name" v="Ekebakkåsen" />
		<tag k="natural" v="hill" />
		<tag k="place" v="locality" />
		<tag k="ssr:stedsnr" v="912516" />
	</node>
<<<<<<< HEAD
	<node lat="59.30092221850788" lon="11.775855559461888" id="-14046">
=======
	<node id="-233735" lat="59.1399333347" lon="11.6797111092">
>>>>>>> e1d4bc35ff8a6074a6f2e91616a996b547c36f15
		<tag k="fixme" v="consider natural=peak for the most distinct mountains in the district" />
		<tag k="name" v="Mørkvikhøgda" />
		<tag k="natural" v="hill" />
		<tag k="place" v="locality" />
		<tag k="ssr:stedsnr" v="913639" />
	</node>
<<<<<<< HEAD
	<node lat="59.25877499570107" lon="11.584272217842887" id="-14051">
=======
	<node id="-234756" lat="59.1894638863" lon="11.6341055508">
		<tag k="alt_name" v="Lindtjernåsene" />
>>>>>>> e1d4bc35ff8a6074a6f2e91616a996b547c36f15
		<tag k="fixme" v="consider natural=peak for the most distinct mountains in the district" />
		<tag k="name" v="Skotjernhøyda" />
		<tag k="natural" v="hill" />
		<tag k="place" v="locality" />
		<tag k="ssr:stedsnr" v="948390" />
	</node>
	<node lat="59.32487499940973" lon="11.70465556047131" id="-14058">
		<tag k="name" v="Dalene" />
		<tag k="natural" v="valley" />
		<tag k="place" v="locality" />
		<tag k="ssr:stedsnr" v="961187" />
	</node>
<<<<<<< HEAD
	<node lat="59.13659999979781" lon="11.720713890345442" id="-14062">
		<tag k="name" v="Gravdalen" />
		<tag k="natural" v="valley" />
		<tag k="place" v="locality" />
		<tag k="ssr:stedsnr" v="961452" />
	</node>
	<node lat="59.11970833655607" lon="11.687916667563119" id="-14064">
=======
	<node id="-233730" lat="59.3202416636" lon="11.7573222151">
>>>>>>> e1d4bc35ff8a6074a6f2e91616a996b547c36f15
		<tag k="fixme" v="consider natural=peak for the most distinct mountains in the district" />
		<tag k="name" v="Kjellskashøyd" />
		<tag k="natural" v="hill" />
		<tag k="place" v="locality" />
		<tag k="ssr:stedsnr" v="961454" />
	</node>
<<<<<<< HEAD
	<node lat="59.2554027754473" lon="11.604333339310834" id="-14071">
=======
	<node id="-234241" lat="59.2191861136" lon="11.6247583288">
>>>>>>> e1d4bc35ff8a6074a6f2e91616a996b547c36f15
		<tag k="fixme" v="consider natural=peak for the most distinct mountains in the district" />
		<tag k="name" v="Brannskatthøyda" />
		<tag k="natural" v="hill" />
		<tag k="place" v="locality" />
		<tag k="ssr:stedsnr" v="962523" />
	</node>
<<<<<<< HEAD
	<node lat="59.187754121125835" lon="11.780516204829766" id="-14072">
		<tag k="name" v="Bikkjurda" />
		<tag k="natural" v="hill" />
		<tag k="place" v="locality" />
		<tag k="ssr:stedsnr" v="962885" />
	</node>
	<node lat="59.10070833112108" lon="11.683844452658445" id="-14084">
=======
	<node id="-234751" lat="59.2395305563" lon="11.5947055473">
		<tag k="alt_name" v="Rogdalshøyda" />
>>>>>>> e1d4bc35ff8a6074a6f2e91616a996b547c36f15
		<tag k="fixme" v="consider natural=peak for the most distinct mountains in the district" />
		<tag k="name" v="Lille Vedøfsa" />
		<tag k="natural" v="hill" />
		<tag k="place" v="locality" />
		<tag k="ssr:stedsnr" v="1460" />
	</node>
<<<<<<< HEAD
	<node lat="59.160961108484756" lon="11.665136118797347" id="-14092">
		<tag k="fixme" v="consider natural=peak for the most distinct mountains in the district" />
		<tag k="name" v="Øgårdsåsen" />
		<tag k="natural" v="hill" />
		<tag k="place" v="locality" />
		<tag k="ssr:stedsnr" v="2117" />
	</node>
	<node lat="59.25064722035908" lon="11.783202770653965" id="-14098">
		<tag k="alt_name" v="Bjørnemoshøyda" />
=======
	<node id="-234238" lat="59.2083861118" lon="11.6394166664">
		<tag k="fixme" v="consider natural=peak for the most distinct mountains in the district" />
		<tag k="name" v="Abbortjernhøyda" />
		<tag k="natural" v="hill" />
		<tag k="place" v="locality" />
		<tag k="ssr:stedsnr" v="52279" />
	</node>
	<node id="-234749" lat="59.2705944459" lon="11.6178861087">
>>>>>>> e1d4bc35ff8a6074a6f2e91616a996b547c36f15
		<tag k="fixme" v="consider natural=peak for the most distinct mountains in the district" />
		<tag k="name" v="Bjørnemoshøgda" />
		<tag k="natural" v="hill" />
		<tag k="place" v="locality" />
		<tag k="ssr:stedsnr" v="3588" />
	</node>
<<<<<<< HEAD
	<node lat="59.23387777987886" lon="11.642072223330448" id="-14115">
=======
	<node id="-233724" lat="59.2010027799" lon="11.6212249995">
>>>>>>> e1d4bc35ff8a6074a6f2e91616a996b547c36f15
		<tag k="fixme" v="consider natural=peak for the most distinct mountains in the district" />
		<tag k="name" v="Fylaholtåsene" />
		<tag k="natural" v="hill" />
		<tag k="place" v="locality" />
		<tag k="ssr:stedsnr" v="38476" />
	</node>
<<<<<<< HEAD
	<node lat="59.258122223710416" lon="11.61968332635199" id="-14117">
=======
	<node id="-233721" lat="59.2805083308" lon="11.7922250018">
>>>>>>> e1d4bc35ff8a6074a6f2e91616a996b547c36f15
		<tag k="fixme" v="consider natural=peak for the most distinct mountains in the district" />
		<tag k="name" v="Bjelledalshøyda" />
		<tag k="natural" v="hill" />
		<tag k="place" v="locality" />
		<tag k="ssr:stedsnr" v="38449" />
	</node>
<<<<<<< HEAD
	<node lat="59.08494166872682" lon="11.704016669689478" id="-14120">
		<tag k="fixme" v="consider natural=peak for the most distinct mountains in the district" />
		<tag k="name" v="Skogmyrhøydene" />
		<tag k="natural" v="hill" />
		<tag k="place" v="locality" />
		<tag k="ssr:stedsnr" v="51033" />
	</node>
	<node lat="59.23659166683576" lon="11.765591667439177" id="-14124">
=======
	<node id="-234744" lat="59.3190250033" lon="11.7454972145">
		<tag k="fixme" v="consider natural=peak for the most distinct mountains in the district" />
		<tag k="name" v="Kuåsen" />
		<tag k="natural" v="hill" />
		<tag k="place" v="locality" />
		<tag k="ssr:stedsnr" v="597959" />
	</node>
	<node id="-234230" lat="59.2365916668" lon="11.7655916674">
>>>>>>> e1d4bc35ff8a6074a6f2e91616a996b547c36f15
		<tag k="name" v="Delingsdalen" />
		<tag k="natural" v="valley" />
		<tag k="place" v="locality" />
		<tag k="ssr:stedsnr" v="51136" />
	</node>
<<<<<<< HEAD
	<node lat="59.241258335785425" lon="11.611094442337484" id="-14141">
		<tag k="name" v="Lauvliene" />
		<tag k="natural" v="slope" />
		<tag k="place" v="locality" />
		<tag k="ssr:stedsnr" v="62133" />
	</node>
	<node lat="59.242861113767354" lon="11.664566669061992" id="-14147">
		<tag k="fixme" v="consider natural=peak for the most distinct mountains in the district" />
		<tag k="name" v="Tangenåsene" />
		<tag k="natural" v="hill" />
		<tag k="place" v="locality" />
		<tag k="ssr:stedsnr" v="62237" />
	</node>
	<node lat="59.305661106634716" lon="11.754980560366674" id="-14172">
		<tag k="name" v="Bjørndalen" />
		<tag k="natural" v="valley" />
		<tag k="place" v="locality" />
		<tag k="ssr:stedsnr" v="112796" />
	</node>
	<node lat="59.234730555634414" lon="11.762669449315482" id="-14174">
		<tag k="name" v="Siljedalen" />
		<tag k="natural" v="valley" />
=======
	<node id="-234228" lat="59.0849416687" lon="11.7040166697">
		<tag k="fixme" v="consider natural=peak for the most distinct mountains in the district" />
		<tag k="name" v="Skogmyrhøydene" />
		<tag k="natural" v="hill" />
		<tag k="place" v="locality" />
		<tag k="ssr:stedsnr" v="51033" />
	</node>
	<node id="-234716" lat="59.1578000036" lon="11.6271722251">
		<tag k="name" v="Lillemørkmoen" />
		<tag k="place" v="locality" />
		<tag k="ssr:stedsnr" v="596420" />
	</node>
	<node id="-234223" lat="59.2581222237" lon="11.6196833264">
		<tag k="fixme" v="consider natural=peak for the most distinct mountains in the district" />
		<tag k="name" v="Bjelledalshøyda" />
		<tag k="natural" v="hill" />
>>>>>>> e1d4bc35ff8a6074a6f2e91616a996b547c36f15
		<tag k="place" v="locality" />
		<tag k="ssr:stedsnr" v="112163" />
	</node>
<<<<<<< HEAD
	<node lat="59.2641416636323" lon="11.753275007866424" id="-14179">
		<tag k="fixme" v="consider natural=peak for the most distinct mountains in the district" />
		<tag k="name" v="Kuåsen" />
		<tag k="natural" v="hill" />
		<tag k="place" v="locality" />
		<tag k="ssr:stedsnr" v="112180" />
	</node>
	<node lat="59.17343055638167" lon="11.61165834204319" id="-14181">
		<tag k="name" v="Tyvholtdalen" />
		<tag k="natural" v="valley" />
=======
	<node id="-234731" lat="59.1500999998" lon="11.7502611073">
		<tag k="name" v="Kathaugen" />
		<tag k="natural" v="hill" />
>>>>>>> e1d4bc35ff8a6074a6f2e91616a996b547c36f15
		<tag k="place" v="locality" />
		<tag k="ssr:stedsnr" v="112361" />
	</node>
<<<<<<< HEAD
	<node lat="59.16972499921084" lon="11.685386118251412" id="-14182">
		<tag k="name" v="Tjernsdalen" />
		<tag k="natural" v="valley" />
		<tag k="place" v="locality" />
		<tag k="ssr:stedsnr" v="112382" />
	</node>
	<node lat="59.14293611543395" lon="11.694338896760982" id="-14183">
		<tag k="fixme" v="consider natural=peak for the most distinct mountains in the district" />
		<tag k="name" v="Svartåsen" />
		<tag k="natural" v="hill" />
		<tag k="place" v="locality" />
		<tag k="ssr:stedsnr" v="112498" />
	</node>
	<node lat="59.216394442065166" lon="11.57934999574913" id="-14194">
		<tag k="name" v="Store Kokka" />
		<tag k="natural" v="hill" />
		<tag k="place" v="locality" />
		<tag k="ssr:stedsnr" v="113966" />
	</node>
	<node lat="59.149613889883824" lon="11.702016659603492" id="-14197">
		<tag k="alt_name" v="Døhaug" />
		<tag k="name" v="Dødhaug" />
=======
	<node id="-234727" lat="59.1355138891" lon="11.653350003">
		<tag k="name" v="Klaretjernåsen" />
>>>>>>> e1d4bc35ff8a6074a6f2e91616a996b547c36f15
		<tag k="natural" v="hill" />
		<tag k="place" v="locality" />
		<tag k="ssr:stedsnr" v="122442" />
	</node>
<<<<<<< HEAD
	<node lat="59.2562944483526" lon="11.629174994450654" id="-14216">
=======
	<node id="-233701" lat="59.2255277801" lon="11.7867472251">
>>>>>>> e1d4bc35ff8a6074a6f2e91616a996b547c36f15
		<tag k="fixme" v="consider natural=peak for the most distinct mountains in the district" />
		<tag k="name" v="Høyås" />
		<tag k="natural" v="hill" />
		<tag k="place" v="locality" />
		<tag k="ssr:stedsnr" v="159497" />
	</node>
	<node lat="59.07906111261126" lon="11.711111115826666" id="-14223">
		<tag k="name" v="Abbortjerndraua" />
		<tag k="natural" v="valley" />
		<tag k="place" v="locality" />
		<tag k="ssr:stedsnr" v="172052" />
	</node>
<<<<<<< HEAD
	<node lat="59.3168055598989" lon="11.768449997728066" id="-14235">
=======
	<node id="-234208" lat="59.2506472204" lon="11.7832027707">
		<tag k="alt_name" v="Bjørnemoshøyda" />
		<tag k="fixme" v="consider natural=peak for the most distinct mountains in the district" />
		<tag k="name" v="Bjørnemoshøgda" />
		<tag k="natural" v="hill" />
		<tag k="place" v="locality" />
		<tag k="ssr:stedsnr" v="3588" />
	</node>
	<node id="-234210" lat="59.3102861076" lon="11.6081611153">
>>>>>>> e1d4bc35ff8a6074a6f2e91616a996b547c36f15
		<tag k="fixme" v="consider natural=peak for the most distinct mountains in the district" />
		<tag k="name" v="Skrikerbekkhøyda" />
		<tag k="natural" v="hill" />
		<tag k="place" v="locality" />
		<tag k="ssr:stedsnr" v="172954" />
	</node>
<<<<<<< HEAD
	<node lat="59.2556999998848" lon="11.801002778500564" id="-14237">
		<tag k="name" v="Merradalen" />
=======
	<node id="-234720" lat="59.209452778" lon="11.7846666703">
		<tag k="name" v="Trolldalen" />
>>>>>>> e1d4bc35ff8a6074a6f2e91616a996b547c36f15
		<tag k="natural" v="valley" />
		<tag k="place" v="locality" />
		<tag k="ssr:stedsnr" v="172883" />
	</node>
<<<<<<< HEAD
	<node lat="59.22101389109481" lon="11.674011104316802" id="-14239">
		<tag k="fixme" v="consider natural=peak for the most distinct mountains in the district" />
		<tag k="name" v="Skakkestadåsen" />
		<tag k="natural" v="hill" />
=======
	<node id="-234719" lat="59.2225833334" lon="11.7882944487">
		<tag k="name" v="Bestedalen" />
		<tag k="natural" v="valley" />
>>>>>>> e1d4bc35ff8a6074a6f2e91616a996b547c36f15
		<tag k="place" v="locality" />
		<tag k="ssr:stedsnr" v="173296" />
	</node>
<<<<<<< HEAD
	<node lat="59.24818055792529" lon="11.595677784892636" id="-14247">
=======
	<node id="-233693" lat="59.0941750007" lon="11.7024194531">
>>>>>>> e1d4bc35ff8a6074a6f2e91616a996b547c36f15
		<tag k="fixme" v="consider natural=peak for the most distinct mountains in the district" />
		<tag k="name" v="Djupvannshøyda" />
		<tag k="natural" v="hill" />
		<tag k="place" v="locality" />
		<tag k="ssr:stedsnr" v="173982" />
	</node>
<<<<<<< HEAD
	<node lat="59.228975003635526" lon="11.63431111435856" id="-14251">
		<tag k="name" v="Bjørkeliene" />
		<tag k="natural" v="slope" />
		<tag k="place" v="locality" />
		<tag k="ssr:stedsnr" v="183139" />
	</node>
	<node lat="59.32555000413378" lon="11.68290832753711" id="-14270">
=======
	<node id="-234204" lat="59.1609611085" lon="11.6651361188">
		<tag k="fixme" v="consider natural=peak for the most distinct mountains in the district" />
		<tag k="name" v="Øgårdsåsen" />
		<tag k="natural" v="hill" />
		<tag k="place" v="locality" />
		<tag k="ssr:stedsnr" v="2117" />
	</node>
	<node id="-233691" lat="59.1590388932" lon="11.6426111138">
>>>>>>> e1d4bc35ff8a6074a6f2e91616a996b547c36f15
		<tag k="fixme" v="consider natural=peak for the most distinct mountains in the district" />
		<tag k="name" v="Gressbekkåsen" />
		<tag k="natural" v="hill" />
		<tag k="place" v="locality" />
		<tag k="ssr:stedsnr" v="220005" />
	</node>
<<<<<<< HEAD
	<node lat="59.25235555303087" lon="11.626222213574705" id="-14274">
		<tag k="fixme" v="consider natural=peak for the most distinct mountains in the district" />
		<tag k="name" v="Seljedalshøyda" />
		<tag k="natural" v="hill" />
		<tag k="place" v="locality" />
		<tag k="ssr:stedsnr" v="280465" />
	</node>
	<node lat="59.15903889323318" lon="11.642611113770048" id="-14290">
		<tag k="fixme" v="consider natural=peak for the most distinct mountains in the district" />
		<tag k="name" v="Jonekasåsen" />
		<tag k="natural" v="hill" />
		<tag k="place" v="locality" />
		<tag k="ssr:stedsnr" v="293515" />
	</node>
	<node lat="59.30759166242091" lon="11.762694448888228" id="-14305">
		<tag k="fixme" v="consider natural=peak for the most distinct mountains in the district" />
		<tag k="name" v="Tjøsteltjernshøyda" />
		<tag k="natural" v="hill" />
		<tag k="place" v="locality" />
		<tag k="ssr:stedsnr" v="294801" />
	</node>
	<node lat="59.20100277994016" lon="11.621224999513185" id="-14307">
=======
	<node id="-234106" lat="59.1523333315" lon="11.6590611097">
		<tag k="fixme" v="consider natural=peak for the most distinct mountains in the district" />
		<tag k="name" v="Humlegårdsåsen" />
		<tag k="natural" v="hill" />
		<tag k="place" v="locality" />
		<tag k="ssr:stedsnr" v="779504" />
	</node>
	<node id="-234713" lat="59.2581555518" lon="11.5684333379">
		<tag k="fixme" v="consider natural=peak for the most distinct mountains in the district" />
		<tag k="name" v="Kampetjernhøyda" />
		<tag k="natural" v="hill" />
		<tag k="place" v="locality" />
		<tag k="ssr:stedsnr" v="583368" />
	</node>
	<node id="-234195" lat="59.0779305585" lon="11.7022388812">
		<tag k="fixme" v="consider natural=peak for the most distinct mountains in the district" />
		<tag k="name" v="Salskrukkøfsa" />
		<tag k="natural" v="hill" />
		<tag k="place" v="locality" />
		<tag k="ssr:stedsnr" v="1488" />
	</node>
	<node id="-234705" lat="59.3222805574" lon="11.6693611074">
>>>>>>> e1d4bc35ff8a6074a6f2e91616a996b547c36f15
		<tag k="fixme" v="consider natural=peak for the most distinct mountains in the district" />
		<tag k="name" v="Røyterås" />
		<tag k="natural" v="hill" />
		<tag k="place" v="locality" />
		<tag k="ssr:stedsnr" v="294895" />
	</node>
	<node lat="59.149449999193955" lon="11.738997219301917" id="-14311">
		<tag k="name" v="Norgårdlandet" />
		<tag k="place" v="locality" />
		<tag k="ssr:stedsnr" v="294936" />
	</node>
<<<<<<< HEAD
	<node lat="59.32024166358779" lon="11.757322215129083" id="-14312">
=======
	<node id="-234192" lat="59.1007083311" lon="11.6838444527">
>>>>>>> e1d4bc35ff8a6074a6f2e91616a996b547c36f15
		<tag k="fixme" v="consider natural=peak for the most distinct mountains in the district" />
		<tag k="name" v="Duvledalshøyda" />
		<tag k="natural" v="hill" />
		<tag k="place" v="locality" />
		<tag k="ssr:stedsnr" v="294957" />
	</node>
<<<<<<< HEAD
	<node lat="59.107516665457176" lon="11.763949997873704" id="-14314">
		<tag k="name" v="Storehaug" />
=======
	<node id="-234190" lat="59.2101166647" lon="11.7843861053">
		<tag k="alt_name" v="Lemberga" />
		<tag k="fixme" v="consider natural=peak for the most distinct mountains in the district" />
		<tag k="name" v="Lemberget" />
>>>>>>> e1d4bc35ff8a6074a6f2e91616a996b547c36f15
		<tag k="natural" v="hill" />
		<tag k="place" v="locality" />
		<tag k="ssr:stedsnr" v="304443" />
	</node>
<<<<<<< HEAD
	<node lat="59.10258889323488" lon="11.692391660322055" id="-14315">
		<tag k="alt_name" v="Torsengåsen" />
		<tag k="fixme" v="consider natural=peak for the most distinct mountains in the district" />
		<tag k="name" v="Toresengeråsen" />
		<tag k="natural" v="hill" />
		<tag k="place" v="locality" />
		<tag k="ssr:stedsnr" v="304444" />
	</node>
	<node lat="59.09921389315107" lon="11.677877774315984" id="-14316">
		<tag k="alt_name" v="Vedøfsa" />
		<tag k="fixme" v="consider natural=peak for the most distinct mountains in the district" />
		<tag k="name" v="Store Vedøfsa" />
		<tag k="natural" v="hill" />
		<tag k="place" v="locality" />
		<tag k="ssr:stedsnr" v="304447" />
	</node>
	<node lat="59.18620832976458" lon="11.649383333436877" id="-14319">
		<tag k="name" v="Moene" />
=======
	<node id="-233933" lat="59.2405444472" lon="11.6710666692">
		<tag k="fixme" v="consider natural=peak for the most distinct mountains in the district" />
		<tag k="name" v="Kirkeåsen" />
		<tag k="natural" v="hill" />
		<tag k="place" v="locality" />
		<tag k="ssr:stedsnr" v="705552" />
	</node>
	<node id="-234668" lat="59.182166668" lon="11.7643583342">
		<tag k="name" v="Knekedal" />
		<tag k="natural" v="valley" />
		<tag k="place" v="locality" />
		<tag k="ssr:stedsnr" v="537893" />
	</node>
	<node id="-234182" lat="59.2554027754" lon="11.6043333393">
		<tag k="fixme" v="consider natural=peak for the most distinct mountains in the district" />
		<tag k="name" v="Brannskatthøyda" />
		<tag k="natural" v="hill" />
>>>>>>> e1d4bc35ff8a6074a6f2e91616a996b547c36f15
		<tag k="place" v="locality" />
		<tag k="ssr:stedsnr" v="305076" />
	</node>
<<<<<<< HEAD
	<node lat="59.17345555391449" lon="11.675316672093262" id="-14320">
=======
	<node id="-234693" lat="59.0982999976" lon="11.7191972155">
>>>>>>> e1d4bc35ff8a6074a6f2e91616a996b547c36f15
		<tag k="fixme" v="consider natural=peak for the most distinct mountains in the district" />
		<tag k="name" v="Ørnekula" />
		<tag k="natural" v="hill" />
		<tag k="place" v="locality" />
		<tag k="ssr:stedsnr" v="305095" />
	</node>
<<<<<<< HEAD
	<node lat="59.20990913191123" lon="11.669731990640846" id="-14322">
		<tag k="fixme" v="multiple name tags, choose one and add the other to alt_name; consider natural=peak for the most distinct mountains in the district" />
		<tag k="name" v="Vardeåsen;Skotsbergåsen" />
		<tag k="natural" v="hill" />
		<tag k="place" v="locality" />
		<tag k="ssr:stedsnr" v="305153" />
	</node>
	<node lat="59.21276388518604" lon="11.596125004124225" id="-14323">
		<tag k="fixme" v="consider natural=peak for the most distinct mountains in the district" />
		<tag k="name" v="Stangebråtåsen" />
		<tag k="natural" v="hill" />
		<tag k="place" v="locality" />
		<tag k="ssr:stedsnr" v="305160" />
	</node>
	<node lat="59.13145555554221" lon="11.703225004294902" id="-14329">
=======
	<node id="-234179" lat="59.1197083366" lon="11.6879166676">
		<tag k="fixme" v="consider natural=peak for the most distinct mountains in the district" />
		<tag k="name" v="Kjellskashøyd" />
		<tag k="natural" v="hill" />
		<tag k="place" v="locality" />
		<tag k="ssr:stedsnr" v="961454" />
	</node>
	<node id="-234443" lat="59.1734555539" lon="11.6753166721">
		<tag k="fixme" v="consider natural=peak for the most distinct mountains in the district" />
		<tag k="name" v="Ørnekula" />
		<tag k="natural" v="hill" />
		<tag k="place" v="locality" />
		<tag k="ssr:stedsnr" v="305095" />
	</node>
	<node id="-233664" lat="59.252355553" lon="11.6262222136">
>>>>>>> e1d4bc35ff8a6074a6f2e91616a996b547c36f15
		<tag k="fixme" v="consider natural=peak for the most distinct mountains in the district" />
		<tag k="name" v="Blankefjell" />
		<tag k="natural" v="hill" />
		<tag k="place" v="locality" />
<<<<<<< HEAD
		<tag k="ssr:stedsnr" v="306042" />
	</node>
	<node lat="59.32563333384422" lon="11.756861110338747" id="-14333">
		<tag k="alt_name" v="Høgås, østre" />
=======
		<tag k="ssr:stedsnr" v="280465" />
	</node>
	<node id="-234687" lat="59.123499997" lon="11.6612638944">
		<tag k="fixme" v="consider natural=peak for the most distinct mountains in the district" />
		<tag k="name" v="Vardekollen" />
		<tag k="natural" v="hill" />
		<tag k="place" v="locality" />
		<tag k="ssr:stedsnr" v="548046" />
	</node>
	<node id="-233720" lat="59.3075916624" lon="11.7626944489">
		<tag k="fixme" v="consider natural=peak for the most distinct mountains in the district" />
		<tag k="name" v="Tjøsteltjernshøyda" />
		<tag k="natural" v="hill" />
		<tag k="place" v="locality" />
		<tag k="ssr:stedsnr" v="294801" />
	</node>
	<node id="-234685" lat="59.1383749973" lon="11.6414499921">
		<tag k="alt_name" v="Klaretjernhøyda" />
>>>>>>> e1d4bc35ff8a6074a6f2e91616a996b547c36f15
		<tag k="fixme" v="consider natural=peak for the most distinct mountains in the district" />
		<tag k="name" v="Østre Høyås" />
		<tag k="natural" v="hill" />
		<tag k="place" v="locality" />
<<<<<<< HEAD
		<tag k="ssr:stedsnr" v="306726" />
	</node>
	<node lat="59.327269446303056" lon="11.734119450449475" id="-14334">
		<tag k="alt_name" v="Høgås, vestre" />
=======
		<tag k="ssr:stedsnr" v="548029" />
	</node>
	<node id="-233657" lat="59.3069194483" lon="11.7000999994">
>>>>>>> e1d4bc35ff8a6074a6f2e91616a996b547c36f15
		<tag k="fixme" v="consider natural=peak for the most distinct mountains in the district" />
		<tag k="name" v="Vestre Høyås" />
		<tag k="natural" v="hill" />
		<tag k="place" v="locality" />
		<tag k="ssr:stedsnr" v="306727" />
	</node>
<<<<<<< HEAD
	<node lat="59.245733335816695" lon="11.80069444318158" id="-14353">
		<tag k="name" v="Vannskille" />
		<tag k="place" v="locality" />
		<tag k="ssr:stedsnr" v="354162" />
	</node>
	<node lat="59.230816671076276" lon="11.765911105962052" id="-14355">
=======
	<node id="-233844" lat="59.2388000023" lon="11.7938805627">
		<tag k="name" v="Trolldalen" />
		<tag k="natural" v="valley" />
		<tag k="place" v="locality" />
		<tag k="ssr:stedsnr" v="658153" />
	</node>
	<node id="-234166" lat="59.2510138927" lon="11.7924944393">
>>>>>>> e1d4bc35ff8a6074a6f2e91616a996b547c36f15
		<tag k="fixme" v="consider natural=peak for the most distinct mountains in the district" />
		<tag k="name" v="Siljedalshøydene" />
		<tag k="natural" v="hill" />
		<tag k="place" v="locality" />
		<tag k="ssr:stedsnr" v="354149" />
	</node>
<<<<<<< HEAD
	<node lat="59.16223610984933" lon="11.68003888813889" id="-14359">
=======
	<node id="-233652" lat="59.0708861126" lon="11.7105361065">
		<tag k="alt_name" v="Langeås" />
>>>>>>> e1d4bc35ff8a6074a6f2e91616a996b547c36f15
		<tag k="fixme" v="consider natural=peak for the most distinct mountains in the district" />
		<tag k="name" v="Revehiåsen" />
		<tag k="natural" v="hill" />
		<tag k="place" v="locality" />
		<tag k="ssr:stedsnr" v="354370" />
	</node>
<<<<<<< HEAD
	<node lat="59.144963891546986" lon="11.753591674581488" id="-14360">
		<tag k="name" v="Tornehaug" />
=======
	<node id="-234162" lat="59.1666777809" lon="11.720408341">
		<tag k="name" v="Drakehaugen" />
>>>>>>> e1d4bc35ff8a6074a6f2e91616a996b547c36f15
		<tag k="natural" v="hill" />
		<tag k="place" v="locality" />
		<tag k="ssr:stedsnr" v="354840" />
	</node>
<<<<<<< HEAD
	<node lat="59.24759444654404" lon="11.790655551618746" id="-14361">
		<tag k="name" v="Runde kolle" />
=======
	<node id="-234673" lat="59.1798500022" lon="11.7332722239">
		<tag k="name" v="Ormhaugen" />
>>>>>>> e1d4bc35ff8a6074a6f2e91616a996b547c36f15
		<tag k="natural" v="hill" />
		<tag k="place" v="locality" />
		<tag k="ssr:stedsnr" v="354845" />
	</node>
<<<<<<< HEAD
	<node lat="59.21940278216708" lon="11.639461106535437" id="-14372">
=======
	<node id="-234672" lat="59.1655027751" lon="11.7603361131">
>>>>>>> e1d4bc35ff8a6074a6f2e91616a996b547c36f15
		<tag k="fixme" v="consider natural=peak for the most distinct mountains in the district" />
		<tag k="name" v="Snupperås" />
		<tag k="natural" v="hill" />
		<tag k="place" v="locality" />
		<tag k="ssr:stedsnr" v="365167" />
	</node>
<<<<<<< HEAD
	<node lat="59.1228166701324" lon="11.678355563974224" id="-14377">
		<tag k="alt_name" v="Seterhøydene" />
		<tag k="fixme" v="consider natural=peak for the most distinct mountains in the district" />
		<tag k="name" v="Seterhøgdene" />
		<tag k="natural" v="hill" />
=======
	<node id="-234671" lat="59.1924027813" lon="11.7698083296">
		<tag k="name" v="Halvfardalen" />
		<tag k="natural" v="valley" />
>>>>>>> e1d4bc35ff8a6074a6f2e91616a996b547c36f15
		<tag k="place" v="locality" />
		<tag k="ssr:stedsnr" v="366044" />
	</node>
<<<<<<< HEAD
	<node lat="59.16062500389061" lon="11.751019451217093" id="-14384">
		<tag k="alt_name" v="Ørneredet" />
=======
	<node id="-234158" lat="59.2853638904" lon="11.6259555523">
>>>>>>> e1d4bc35ff8a6074a6f2e91616a996b547c36f15
		<tag k="fixme" v="consider natural=peak for the most distinct mountains in the district" />
		<tag k="name" v="Ørnereiret" />
		<tag k="natural" v="hill" />
		<tag k="place" v="locality" />
		<tag k="ssr:stedsnr" v="366103" />
	</node>
<<<<<<< HEAD
	<node lat="59.30463333560558" lon="11.70025278649308" id="-14389">
		<tag k="alt_name" v="Lundehøyda" />
		<tag k="fixme" v="consider natural=peak for the most distinct mountains in the district" />
		<tag k="name" v="Lundehøgda" />
		<tag k="natural" v="hill" />
		<tag k="place" v="locality" />
		<tag k="ssr:stedsnr" v="367634" />
	</node>
	<node lat="59.253863891538685" lon="11.59763610519719" id="-14395">
=======
	<node id="-233934" lat="59.2266472233" lon="11.6622500079">
		<tag k="name" v="Grandalen" />
		<tag k="natural" v="valley" />
		<tag k="place" v="locality" />
		<tag k="ssr:stedsnr" v="705558" />
	</node>
	<node id="-234156" lat="59.1081916668" lon="11.7007805493">
		<tag k="fixme" v="consider natural=peak for the most distinct mountains in the district" />
		<tag k="name" v="Hølåsen" />
		<tag k="natural" v="hill" />
		<tag k="place" v="locality" />
		<tag k="ssr:stedsnr" v="901054" />
	</node>
	<node id="-234667" lat="59.3100138902" lon="11.7404305494">
>>>>>>> e1d4bc35ff8a6074a6f2e91616a996b547c36f15
		<tag k="fixme" v="consider natural=peak for the most distinct mountains in the district" />
		<tag k="name" v="Ormetjernshøyda" />
		<tag k="natural" v="hill" />
		<tag k="place" v="locality" />
		<tag k="ssr:stedsnr" v="401341" />
	</node>
<<<<<<< HEAD
	<node lat="59.2915083334973" lon="11.69232776928991" id="-14399">
=======
	<node id="-234666" lat="59.3004166638" lon="11.7671194381">
>>>>>>> e1d4bc35ff8a6074a6f2e91616a996b547c36f15
		<tag k="fixme" v="consider natural=peak for the most distinct mountains in the district" />
		<tag k="name" v="Rødsåsen" />
		<tag k="natural" v="hill" />
		<tag k="place" v="locality" />
		<tag k="ssr:stedsnr" v="402041" />
	</node>
<<<<<<< HEAD
	<node lat="59.1505305553649" lon="11.676447221508402" id="-14403">
		<tag k="name" v="Tretteråsen" />
		<tag k="natural" v="hill" />
=======
	<node id="-234665" lat="59.2514611109" lon="11.6264694526">
		<tag k="name" v="Seljedalen" />
		<tag k="natural" v="valley" />
>>>>>>> e1d4bc35ff8a6074a6f2e91616a996b547c36f15
		<tag k="place" v="locality" />
		<tag k="ssr:stedsnr" v="414475" />
	</node>
<<<<<<< HEAD
	<node lat="59.23940555127649" lon="11.784022224903321" id="-14405">
		<tag k="fixme" v="consider natural=peak for the most distinct mountains in the district" />
		<tag k="name" v="Kjeppås" />
		<tag k="natural" v="hill" />
=======
	<node id="-234663" lat="59.1431361079" lon="11.6768833403">
		<tag k="name" v="Sundkastet" />
		<tag k="natural" v="slope" />
>>>>>>> e1d4bc35ff8a6074a6f2e91616a996b547c36f15
		<tag k="place" v="locality" />
		<tag k="ssr:stedsnr" v="415131" />
	</node>
<<<<<<< HEAD
	<node lat="59.098013884557226" lon="11.710127783385634" id="-14407">
		<tag k="name" v="Skolestueåsen" />
		<tag k="natural" v="hill" />
		<tag k="place" v="locality" />
		<tag k="ssr:stedsnr" v="415052" />
	</node>
	<node lat="59.278052778957125" lon="11.620441672690946" id="-14408">
=======
	<node id="-233633" lat="59.2784999979" lon="11.5719166679">
		<tag k="alt_name" v="Skjøljakollen" />
>>>>>>> e1d4bc35ff8a6074a6f2e91616a996b547c36f15
		<tag k="fixme" v="consider natural=peak for the most distinct mountains in the district" />
		<tag k="name" v="Glosås" />
		<tag k="natural" v="hill" />
		<tag k="place" v="locality" />
		<tag k="ssr:stedsnr" v="415081" />
	</node>
<<<<<<< HEAD
	<node lat="59.2230472192607" lon="11.790558333390788" id="-14410">
=======
	<node id="-234143" lat="59.2587749957" lon="11.5842722178">
>>>>>>> e1d4bc35ff8a6074a6f2e91616a996b547c36f15
		<tag k="fixme" v="consider natural=peak for the most distinct mountains in the district" />
		<tag k="name" v="Kippingtjernhøyda" />
		<tag k="natural" v="hill" />
		<tag k="place" v="locality" />
		<tag k="ssr:stedsnr" v="415174" />
	</node>
<<<<<<< HEAD
	<node lat="59.14734444733625" lon="11.646869437411224" id="-14413">
=======
	<node id="-234654" lat="59.2483027943" lon="11.7850380005">
>>>>>>> e1d4bc35ff8a6074a6f2e91616a996b547c36f15
		<tag k="fixme" v="consider natural=peak for the most distinct mountains in the district" />
		<tag k="name" v="Rødås" />
		<tag k="natural" v="hill" />
		<tag k="place" v="locality" />
		<tag k="ssr:stedsnr" v="415491" />
	</node>
<<<<<<< HEAD
	<node lat="59.21343332935826" lon="11.628994438772187" id="-14416">
		<tag k="name" v="Abbortjerndalen" />
=======
	<node id="-233925" lat="59.3298388886" lon="11.6766333262">
		<tag k="fixme" v="consider natural=peak for the most distinct mountains in the district" />
		<tag k="name" v="Koppervikåsen" />
		<tag k="natural" v="hill" />
		<tag k="place" v="locality" />
		<tag k="ssr:stedsnr" v="705013" />
	</node>
	<node id="-234140" lat="59.2517638865" lon="11.6016333375">
		<tag k="name" v="Ormetjernsdalen" />
>>>>>>> e1d4bc35ff8a6074a6f2e91616a996b547c36f15
		<tag k="natural" v="valley" />
		<tag k="place" v="locality" />
		<tag k="ssr:stedsnr" v="416298" />
	</node>
<<<<<<< HEAD
	<node lat="59.25497778103586" lon="11.785291670928006" id="-14418">
		<tag k="name" v="Storkarsdal" />
		<tag k="natural" v="valley" />
		<tag k="place" v="locality" />
		<tag k="ssr:stedsnr" v="415869" />
	</node>
	<node lat="59.2394055544781" lon="11.633538881523934" id="-14423">
=======
	<node id="-233626" lat="59.0802944439" lon="11.7140527705">
		<tag k="alt_name" v="Abbortjernåsen" />
>>>>>>> e1d4bc35ff8a6074a6f2e91616a996b547c36f15
		<tag k="fixme" v="consider natural=peak for the most distinct mountains in the district" />
		<tag k="name" v="Gressholtkollen" />
		<tag k="natural" v="hill" />
		<tag k="place" v="locality" />
		<tag k="ssr:stedsnr" v="416282" />
	</node>
<<<<<<< HEAD
	<node lat="59.12028610932996" lon="11.74318611863272" id="-14429">
		<tag k="alt_name" v="Bjerkeliene" />
		<tag k="name" v="Bjørkeliene" />
		<tag k="natural" v="slope" />
=======
	<node id="-233924" lat="59.2256805555" lon="11.7133611178">
		<tag k="name" v="Perkollen" />
		<tag k="natural" v="hill" />
		<tag k="place" v="locality" />
		<tag k="ssr:stedsnr" v="704428" />
	</node>
	<node id="-234644" lat="59.0515166687" lon="11.7263277801">
		<tag k="name" v="Folungdalen" />
		<tag k="natural" v="valley" />
>>>>>>> e1d4bc35ff8a6074a6f2e91616a996b547c36f15
		<tag k="place" v="locality" />
		<tag k="ssr:stedsnr" v="426448" />
	</node>
<<<<<<< HEAD
	<node lat="59.20815277830015" lon="11.627538892533089" id="-14431">
		<tag k="fixme" v="consider natural=peak for the most distinct mountains in the district" />
		<tag k="name" v="Abbortjernåsen" />
=======
	<node id="-234130" lat="59.182166668" lon="11.7643583342">
		<tag k="name" v="Svendsås" />
>>>>>>> e1d4bc35ff8a6074a6f2e91616a996b547c36f15
		<tag k="natural" v="hill" />
		<tag k="place" v="locality" />
		<tag k="ssr:stedsnr" v="426164" />
	</node>
<<<<<<< HEAD
	<node lat="59.064850003750884" lon="11.723738890676772" id="-14436">
=======
	<node id="-234691" lat="59.1731111104" lon="11.758341671">
		<tag k="alt_name" v="Kverntjernhøyda" />
		<tag k="name" v="Kverntjernshøgda" />
		<tag k="natural" v="hill" />
		<tag k="place" v="locality" />
		<tag k="ssr:stedsnr" v="548079" />
	</node>
	<node id="-234125" lat="59.2479388852" lon="11.7907861123">
>>>>>>> e1d4bc35ff8a6074a6f2e91616a996b547c36f15
		<tag k="fixme" v="consider natural=peak for the most distinct mountains in the district" />
		<tag k="name" v="Bukkeholøfsa" />
		<tag k="natural" v="hill" />
		<tag k="place" v="locality" />
		<tag k="ssr:stedsnr" v="426360" />
	</node>
<<<<<<< HEAD
	<node lat="59.13330555618076" lon="11.766800004645821" id="-14442">
=======
	<node id="-234636" lat="59.2590666627" lon="11.6320916663">
>>>>>>> e1d4bc35ff8a6074a6f2e91616a996b547c36f15
		<tag k="fixme" v="consider natural=peak for the most distinct mountains in the district" />
		<tag k="name" v="Husåsen" />
		<tag k="natural" v="hill" />
		<tag k="place" v="locality" />
		<tag k="ssr:stedsnr" v="427038" />
	</node>
<<<<<<< HEAD
	<node lat="59.290388889614626" lon="11.598488888809896" id="-14465">
		<tag k="name" v="Storedal" />
		<tag k="natural" v="valley" />
		<tag k="place" v="locality" />
		<tag k="ssr:stedsnr" v="523394" />
	</node>
	<node lat="59.2375527781302" lon="11.665380562958873" id="-14467">
		<tag k="fixme" v="consider natural=peak for the most distinct mountains in the district" />
		<tag k="name" v="Mjølnerødåsene" />
		<tag k="natural" v="hill" />
		<tag k="place" v="locality" />
		<tag k="ssr:stedsnr" v="523556" />
	</node>
	<node lat="59.051516668680435" lon="11.726327780142672" id="-14475">
		<tag k="name" v="Folungdalen" />
		<tag k="natural" v="valley" />
=======
	<node id="-234117" lat="59.1359999973" lon="11.7565750068">
		<tag k="fixme" v="consider natural=peak for the most distinct mountains in the district" />
		<tag k="name" v="Skåkåsen" />
		<tag k="natural" v="hill" />
>>>>>>> e1d4bc35ff8a6074a6f2e91616a996b547c36f15
		<tag k="place" v="locality" />
		<tag k="ssr:stedsnr" v="536056" />
	</node>
<<<<<<< HEAD
	<node lat="59.24830279431106" lon="11.785038000542881" id="-14482">
=======
	<node id="-234625" lat="59.2827249972" lon="11.6172888885">
		<tag k="alt_name" v="Berggrøten" />
>>>>>>> e1d4bc35ff8a6074a6f2e91616a996b547c36f15
		<tag k="fixme" v="consider natural=peak for the most distinct mountains in the district" />
		<tag k="name" v="Korsmoshøyda" />
		<tag k="natural" v="hill" />
		<tag k="place" v="locality" />
		<tag k="ssr:stedsnr" v="536856" />
	</node>
<<<<<<< HEAD
	<node lat="59.1431361078796" lon="11.676883340269328" id="-14487">
		<tag k="name" v="Sundkastet" />
		<tag k="natural" v="slope" />
		<tag k="place" v="locality" />
		<tag k="ssr:stedsnr" v="537459" />
	</node>
	<node lat="59.310013890173735" lon="11.740430549373778" id="-14488">
=======
	<node id="-234112" lat="59.0610805516" lon="11.7423499998">
		<tag k="alt_name" v="Landbladåsen" />
>>>>>>> e1d4bc35ff8a6074a6f2e91616a996b547c36f15
		<tag k="fixme" v="consider natural=peak for the most distinct mountains in the district" />
		<tag k="name" v="Eketjernshøyda" />
		<tag k="natural" v="hill" />
		<tag k="place" v="locality" />
		<tag k="ssr:stedsnr" v="537780" />
	</node>
	<node lat="59.18216666800812" lon="11.764358334202196" id="-14489">
		<tag k="name" v="Knekedal" />
		<tag k="natural" v="valley" />
		<tag k="place" v="locality" />
		<tag k="ssr:stedsnr" v="537893" />
	</node>
<<<<<<< HEAD
	<node lat="59.3004388899326" lon="11.732966659035245" id="-14491">
		<tag k="fixme" v="consider natural=peak for the most distinct mountains in the district" />
		<tag k="name" v="Korpås" />
		<tag k="natural" v="hill" />
		<tag k="place" v="locality" />
		<tag k="ssr:stedsnr" v="537947" />
	</node>
	<node lat="59.1383749973394" lon="11.641449992136984" id="-14497">
		<tag k="alt_name" v="Klaretjernhøyda" />
		<tag k="fixme" v="consider natural=peak for the most distinct mountains in the district" />
		<tag k="name" v="Klaretjernhøgda" />
		<tag k="natural" v="hill" />
		<tag k="place" v="locality" />
		<tag k="ssr:stedsnr" v="548029" />
	</node>
	<node lat="59.1234999969811" lon="11.661263894382946" id="-14499">
		<tag k="fixme" v="consider natural=peak for the most distinct mountains in the district" />
		<tag k="name" v="Vardekollen" />
		<tag k="natural" v="hill" />
		<tag k="place" v="locality" />
		<tag k="ssr:stedsnr" v="548046" />
	</node>
	<node lat="59.128366669452575" lon="11.722158334546812" id="-14500">
		<tag k="fixme" v="consider natural=peak for the most distinct mountains in the district" />
		<tag k="name" v="Galteryggen" />
		<tag k="natural" v="hill" />
		<tag k="place" v="locality" />
		<tag k="ssr:stedsnr" v="548050" />
	</node>
	<node lat="59.32228055736064" lon="11.669361107359736" id="-14510">
=======
	<node id="-234688" lat="59.1283666695" lon="11.7221583345">
		<tag k="fixme" v="consider natural=peak for the most distinct mountains in the district" />
		<tag k="name" v="Galteryggen" />
		<tag k="natural" v="hill" />
		<tag k="place" v="locality" />
		<tag k="ssr:stedsnr" v="548050" />
	</node>
	<node id="-234618" lat="59.248069445" lon="11.630924999">
		<tag k="fixme" v="consider natural=peak for the most distinct mountains in the district" />
		<tag k="name" v="Gresholtkollen" />
		<tag k="natural" v="hill" />
		<tag k="place" v="locality" />
		<tag k="ssr:stedsnr" v="427272" />
	</node>
	<node id="-234175" lat="59.0566388918" lon="11.7266472246">
		<tag k="name" v="Bukkehøldalen" />
		<tag k="natural" v="valley" />
		<tag k="place" v="locality" />
		<tag k="ssr:stedsnr" v="961053" />
	</node>
	<node id="-234089" lat="59.2493666646" lon="11.6046444442">
		<tag k="fixme" v="consider natural=peak for the most distinct mountains in the district" />
		<tag k="name" v="Eikelihøyda" />
		<tag k="natural" v="hill" />
		<tag k="place" v="locality" />
		<tag k="ssr:stedsnr" v="765333" />
	</node>
	<node id="-233867" lat="59.1604722201" lon="11.7713555547">
		<tag k="fixme" v="consider natural=peak for the most distinct mountains in the district" />
		<tag k="name" v="Fagerliåsen" />
		<tag k="natural" v="hill" />
		<tag k="place" v="locality" />
		<tag k="ssr:stedsnr" v="669095" />
	</node>
	<node id="-233585" lat="59.1643472248" lon="11.6590666605">
>>>>>>> e1d4bc35ff8a6074a6f2e91616a996b547c36f15
		<tag k="fixme" v="consider natural=peak for the most distinct mountains in the district" />
		<tag k="name" v="Karlsåsen" />
		<tag k="natural" v="hill" />
		<tag k="place" v="locality" />
		<tag k="ssr:stedsnr" v="552067" />
	</node>
<<<<<<< HEAD
	<node lat="59.22902778043352" lon="11.63138888280738" id="-14518">
		<tag k="fixme" v="consider natural=peak for the most distinct mountains in the district" />
		<tag k="name" v="Stabbås" />
		<tag k="natural" v="hill" />
		<tag k="place" v="locality" />
		<tag k="ssr:stedsnr" v="583501" />
	</node>
	<node lat="59.25815555183829" lon="11.568433337871967" id="-14519">
=======
	<node id="-234608" lat="59.0648500038" lon="11.7237388907">
		<tag k="fixme" v="consider natural=peak for the most distinct mountains in the district" />
		<tag k="name" v="Bukkeholøfsa" />
		<tag k="natural" v="hill" />
		<tag k="place" v="locality" />
		<tag k="ssr:stedsnr" v="426360" />
	</node>
	<node id="-234095" lat="59.3009222185" lon="11.7758555595">
>>>>>>> e1d4bc35ff8a6074a6f2e91616a996b547c36f15
		<tag k="fixme" v="consider natural=peak for the most distinct mountains in the district" />
		<tag k="name" v="Kampetjernhøyda" />
		<tag k="natural" v="hill" />
		<tag k="place" v="locality" />
		<tag k="ssr:stedsnr" v="583368" />
	</node>
<<<<<<< HEAD
	<node lat="59.22258333343698" lon="11.788294448749758" id="-14521">
		<tag k="name" v="Bestedalen" />
		<tag k="natural" v="valley" />
		<tag k="place" v="locality" />
		<tag k="ssr:stedsnr" v="597177" />
	</node>
	<node lat="59.20945277800407" lon="11.784666670326805" id="-14522">
		<tag k="name" v="Trolldalen" />
		<tag k="natural" v="valley" />
		<tag k="place" v="locality" />
		<tag k="ssr:stedsnr" v="597184" />
	</node>
	<node lat="59.157800003565605" lon="11.6271722250587" id="-14523">
		<tag k="name" v="Lillemørkmoen" />
=======
	<node id="-234606" lat="59.1202861093" lon="11.7431861186">
		<tag k="alt_name" v="Bjerkeliene" />
		<tag k="name" v="Bjørkeliene" />
		<tag k="natural" v="slope" />
		<tag k="place" v="locality" />
		<tag k="ssr:stedsnr" v="426448" />
	</node>
	<node id="-234605" lat="59.1055027796" lon="11.7287472244">
		<tag k="alt_name" v="Mellemheia" />
		<tag k="fixme" v="consider natural=peak for the most distinct mountains in the district" />
		<tag k="name" v="Mellomheia" />
		<tag k="natural" v="hill" />
		<tag k="place" v="locality" />
		<tag k="ssr:stedsnr" v="426437" />
	</node>
	<node id="-233580" lat="59.2525222193" lon="11.7812500059">
		<tag k="fixme" v="consider natural=peak for the most distinct mountains in the district" />
		<tag k="name" v="Igletjernshøyda" />
		<tag k="natural" v="hill" />
		<tag k="place" v="locality" />
		<tag k="ssr:stedsnr" v="233807" />
	</node>
	<node id="-234358" lat="59.2604833352" lon="11.562872217">
		<tag k="name" v="Laulunddalen" />
		<tag k="natural" v="valley" />
		<tag k="place" v="locality" />
		<tag k="ssr:stedsnr" v="159400" />
	</node>
	<node id="-234601" lat="59.2081527783" lon="11.6275388925">
		<tag k="fixme" v="consider natural=peak for the most distinct mountains in the district" />
		<tag k="name" v="Abbortjernåsen" />
		<tag k="natural" v="hill" />
>>>>>>> e1d4bc35ff8a6074a6f2e91616a996b547c36f15
		<tag k="place" v="locality" />
		<tag k="ssr:stedsnr" v="596420" />
	</node>
<<<<<<< HEAD
	<node lat="59.24587778077737" lon="11.791127782943228" id="-14524">
=======
	<node id="-234088" lat="59.1213083353" lon="11.7661444415">
>>>>>>> e1d4bc35ff8a6074a6f2e91616a996b547c36f15
		<tag k="fixme" v="consider natural=peak for the most distinct mountains in the district" />
		<tag k="name" v="Hvittenstenshøyda" />
		<tag k="natural" v="hill" />
		<tag k="place" v="locality" />
		<tag k="ssr:stedsnr" v="597136" />
	</node>
<<<<<<< HEAD
	<node lat="59.08450277388621" lon="11.689194448999485" id="-14527">
=======
	<node id="-234599" lat="59.2246999985" lon="11.6517694481">
>>>>>>> e1d4bc35ff8a6074a6f2e91616a996b547c36f15
		<tag k="fixme" v="consider natural=peak for the most distinct mountains in the district" />
		<tag k="name" v="Lille Ørnelund" />
		<tag k="natural" v="hill" />
		<tag k="place" v="locality" />
<<<<<<< HEAD
		<tag k="ssr:stedsnr" v="597067" />
	</node>
	<node lat="59.13551388911198" lon="11.653350003045585" id="-14534">
		<tag k="name" v="Klaretjernåsen" />
		<tag k="natural" v="hill" />
=======
		<tag k="ssr:stedsnr" v="426158" />
	</node>
	<node id="-234750" lat="59.2333972206" lon="11.7998750061">
		<tag k="alt_name" v="Skråhøyda" />
		<tag k="fixme" v="consider natural=peak for the most distinct mountains in the district" />
		<tag k="name" v="Skråhøgda" />
		<tag k="natural" v="hill" />
		<tag k="place" v="locality" />
		<tag k="ssr:stedsnr" v="607129" />
	</node>
	<node id="-234085" lat="59.1396916702" lon="11.7169499961">
		<tag k="name" v="Gravdalen" />
		<tag k="natural" v="valley" />
		<tag k="place" v="locality" />
		<tag k="ssr:stedsnr" v="913014" />
	</node>
	<node id="-234595" lat="59.1916944454" lon="11.7667055489">
		<tag k="name" v="Halvfarkleva" />
>>>>>>> e1d4bc35ff8a6074a6f2e91616a996b547c36f15
		<tag k="place" v="locality" />
		<tag k="ssr:stedsnr" v="597417" />
	</node>
<<<<<<< HEAD
	<node lat="59.1500999997568" lon="11.750261107290488" id="-14538">
		<tag k="name" v="Kathaugen" />
		<tag k="natural" v="hill" />
=======
	<node id="-234594" lat="59.1959888918" lon="11.7524611188">
		<tag k="name" v="Vindtjernkleva" />
>>>>>>> e1d4bc35ff8a6074a6f2e91616a996b547c36f15
		<tag k="place" v="locality" />
		<tag k="ssr:stedsnr" v="597592" />
	</node>
<<<<<<< HEAD
	<node lat="59.31902500334076" lon="11.745497214539146" id="-14544">
=======
	<node id="-233569" lat="59.2338777799" lon="11.6420722233">
>>>>>>> e1d4bc35ff8a6074a6f2e91616a996b547c36f15
		<tag k="fixme" v="consider natural=peak for the most distinct mountains in the district" />
		<tag k="name" v="Kuåsen" />
		<tag k="natural" v="hill" />
		<tag k="place" v="locality" />
<<<<<<< HEAD
		<tag k="ssr:stedsnr" v="597959" />
	</node>
	<node lat="59.27059444585969" lon="11.617886108679844" id="-14551">
=======
		<tag k="ssr:stedsnr" v="38476" />
	</node>
	<node id="-234590" lat="59.2134333294" lon="11.6289944388">
		<tag k="name" v="Abbortjerndalen" />
		<tag k="natural" v="valley" />
		<tag k="place" v="locality" />
		<tag k="ssr:stedsnr" v="416298" />
	</node>
	<node id="-234587" lat="59.2394055545" lon="11.6335388815">
>>>>>>> e1d4bc35ff8a6074a6f2e91616a996b547c36f15
		<tag k="fixme" v="consider natural=peak for the most distinct mountains in the district" />
		<tag k="name" v="Ulvedalshøyda" />
		<tag k="natural" v="hill" />
		<tag k="place" v="locality" />
		<tag k="ssr:stedsnr" v="598086" />
	</node>
<<<<<<< HEAD
	<node lat="59.2333972205626" lon="11.799875006097489" id="-14553">
		<tag k="alt_name" v="Skråhøyda" />
=======
	<node id="-233560" lat="59.3272694463" lon="11.7341194504">
		<tag k="alt_name" v="Høgås, vestre" />
>>>>>>> e1d4bc35ff8a6074a6f2e91616a996b547c36f15
		<tag k="fixme" v="consider natural=peak for the most distinct mountains in the district" />
		<tag k="name" v="Skråhøgda" />
		<tag k="natural" v="hill" />
		<tag k="place" v="locality" />
		<tag k="ssr:stedsnr" v="607129" />
	</node>
<<<<<<< HEAD
	<node lat="59.23953055626763" lon="11.594705547341926" id="-14554">
		<tag k="alt_name" v="Rogdalshøyda" />
=======
	<node id="-233559" lat="59.3256333338" lon="11.7568611103">
		<tag k="alt_name" v="Høgås, østre" />
>>>>>>> e1d4bc35ff8a6074a6f2e91616a996b547c36f15
		<tag k="fixme" v="consider natural=peak for the most distinct mountains in the district" />
		<tag k="name" v="Rogdalshøgda" />
		<tag k="natural" v="hill" />
		<tag k="place" v="locality" />
		<tag k="ssr:stedsnr" v="607141" />
	</node>
<<<<<<< HEAD
	<node lat="59.22146666793898" lon="11.783186104421173" id="-14557">
		<tag k="alt_name" v="Matholhøydene" />
		<tag k="fixme" v="consider natural=peak for the most distinct mountains in the district" />
		<tag k="name" v="Matholhøgda" />
		<tag k="natural" v="hill" />
		<tag k="place" v="locality" />
		<tag k="ssr:stedsnr" v="608138" />
	</node>
	<node lat="59.18946388631494" lon="11.634105550798873" id="-14562">
		<tag k="alt_name" v="Lindtjernåsene" />
=======
	<node id="-233558" lat="59.2506222231" lon="11.6262111117">
		<tag k="fixme" v="consider natural=peak for the most distinct mountains in the district" />
		<tag k="name" v="Seljedalshøyda" />
		<tag k="natural" v="hill" />
		<tag k="place" v="locality" />
		<tag k="ssr:stedsnr" v="220510" />
	</node>
	<node id="-234581" lat="59.254977781" lon="11.7852916709">
		<tag k="name" v="Storkarsdal" />
		<tag k="natural" v="valley" />
		<tag k="place" v="locality" />
		<tag k="ssr:stedsnr" v="415869" />
	</node>
	<node id="-234068" lat="59.105763891" lon="11.7040805483">
>>>>>>> e1d4bc35ff8a6074a6f2e91616a996b547c36f15
		<tag k="fixme" v="consider natural=peak for the most distinct mountains in the district" />
		<tag k="name" v="Lindtjernsåsene" />
		<tag k="natural" v="hill" />
		<tag k="place" v="locality" />
		<tag k="ssr:stedsnr" v="608069" />
	</node>
<<<<<<< HEAD
	<node lat="59.12805000156062" lon="11.73891388300772" id="-14567">
		<tag k="name" v="Halvfarhaugene" />
		<tag k="natural" v="hill" />
=======
	<node id="-233555" lat="59.1265750036" lon="11.7286222272">
		<tag k="name" v="Gravdalen" />
		<tag k="natural" v="valley" />
>>>>>>> e1d4bc35ff8a6074a6f2e91616a996b547c36f15
		<tag k="place" v="locality" />
		<tag k="ssr:stedsnr" v="609043" />
	</node>
<<<<<<< HEAD
	<node lat="59.293313884793704" lon="11.59867777167043" id="-14568">
		<tag k="alt_name" v="Tilleråsen" />
=======
	<node id="-234083" lat="59.0910583379" lon="11.6976694415">
		<tag k="fixme" v="consider natural=peak for the most distinct mountains in the district" />
		<tag k="name" v="Ekebakkåsen" />
		<tag k="natural" v="hill" />
		<tag k="place" v="locality" />
		<tag k="ssr:stedsnr" v="912516" />
	</node>
	<node id="-234576" lat="59.1473444473" lon="11.6468694374">
>>>>>>> e1d4bc35ff8a6074a6f2e91616a996b547c36f15
		<tag k="fixme" v="consider natural=peak for the most distinct mountains in the district" />
		<tag k="name" v="Tillerås" />
		<tag k="natural" v="hill" />
		<tag k="place" v="locality" />
		<tag k="ssr:stedsnr" v="609648" />
	</node>
<<<<<<< HEAD
	<node lat="59.23463055491665" lon="11.623455546777377" id="-14580">
		<tag k="fixme" v="consider natural=peak for the most distinct mountains in the district" />
		<tag k="name" v="Høyfossåsen" />
		<tag k="natural" v="hill" />
		<tag k="place" v="locality" />
		<tag k="ssr:stedsnr" v="644521" />
	</node>
	<node lat="59.28931666434681" lon="11.624119446763997" id="-14587">
=======
	<node id="-233912" lat="59.2375527781" lon="11.665380563">
		<tag k="fixme" v="consider natural=peak for the most distinct mountains in the district" />
		<tag k="name" v="Mjølnerødåsene" />
		<tag k="natural" v="hill" />
		<tag k="place" v="locality" />
		<tag k="ssr:stedsnr" v="523556" />
	</node>
	<node id="-234574" lat="59.2230472193" lon="11.7905583334">
>>>>>>> e1d4bc35ff8a6074a6f2e91616a996b547c36f15
		<tag k="fixme" v="consider natural=peak for the most distinct mountains in the district" />
		<tag k="name" v="Ørsknatten" />
		<tag k="natural" v="hill" />
		<tag k="place" v="locality" />
		<tag k="ssr:stedsnr" v="658065" />
	</node>
<<<<<<< HEAD
	<node lat="59.23880000232438" lon="11.793880562729152" id="-14590">
		<tag k="name" v="Trolldalen" />
=======
	<node id="-234060" lat="59.1403249982" lon="11.6819444413">
		<tag k="name" v="Kjerringdalen" />
>>>>>>> e1d4bc35ff8a6074a6f2e91616a996b547c36f15
		<tag k="natural" v="valley" />
		<tag k="place" v="locality" />
		<tag k="ssr:stedsnr" v="658153" />
	</node>
<<<<<<< HEAD
	<node lat="59.15919166521532" lon="11.695511116750682" id="-14593">
		<tag k="fixme" v="consider natural=peak for the most distinct mountains in the district" />
		<tag k="name" v="Ulsrødåsen" />
		<tag k="natural" v="hill" />
		<tag k="place" v="locality" />
		<tag k="ssr:stedsnr" v="657494" />
	</node>
	<node lat="59.0911111150699" lon="11.677383330094893" id="-14595">
=======
	<node id="-234570" lat="59.2394055513" lon="11.7840222249">
		<tag k="fixme" v="consider natural=peak for the most distinct mountains in the district" />
		<tag k="name" v="Kjeppås" />
		<tag k="natural" v="hill" />
		<tag k="place" v="locality" />
		<tag k="ssr:stedsnr" v="415131" />
	</node>
	<node id="-234569" lat="59.278052779" lon="11.6204416727">
>>>>>>> e1d4bc35ff8a6074a6f2e91616a996b547c36f15
		<tag k="fixme" v="consider natural=peak for the most distinct mountains in the district" />
		<tag k="name" v="Rytterøfsa" />
		<tag k="natural" v="hill" />
		<tag k="place" v="locality" />
		<tag k="ssr:stedsnr" v="658014" />
	</node>
<<<<<<< HEAD
	<node lat="59.222586112501844" lon="11.716077773232142" id="-14598">
		<tag k="name" v="Stoppedalen" />
		<tag k="natural" v="valley" />
=======
	<node id="-234568" lat="59.0980138846" lon="11.7101277834">
		<tag k="name" v="Skolestueåsen" />
		<tag k="natural" v="hill" />
>>>>>>> e1d4bc35ff8a6074a6f2e91616a996b547c36f15
		<tag k="place" v="locality" />
		<tag k="ssr:stedsnr" v="658318" />
	</node>
<<<<<<< HEAD
	<node lat="59.16749722349138" lon="11.619936116022293" id="-14600">
=======
	<node id="-233740" lat="59.2183388928" lon="11.6506666672">
		<tag k="fixme" v="consider natural=peak for the most distinct mountains in the district" />
		<tag k="name" v="Seterhøgda" />
		<tag k="natural" v="hill" />
		<tag k="place" v="locality" />
		<tag k="ssr:stedsnr" v="244172" />
	</node>
	<node id="-233542" lat="59.2358833338" lon="11.7113138892">
>>>>>>> e1d4bc35ff8a6074a6f2e91616a996b547c36f15
		<tag k="fixme" v="consider natural=peak for the most distinct mountains in the district" />
		<tag k="name" v="Langåsen" />
		<tag k="natural" v="hill" />
		<tag k="place" v="locality" />
		<tag k="ssr:stedsnr" v="658355" />
	</node>
<<<<<<< HEAD
	<node lat="59.14103610790021" lon="11.707513893356285" id="-14603">
		<tag k="fixme" v="multiple name tags, choose one and add the other to alt_name; consider natural=peak for the most distinct mountains in the district" />
		<tag k="name" v="Halvfartjernhøyda;Gravedalsåsen" />
=======
	<node id="-234564" lat="59.1505305554" lon="11.6764472215">
		<tag k="name" v="Tretteråsen" />
>>>>>>> e1d4bc35ff8a6074a6f2e91616a996b547c36f15
		<tag k="natural" v="hill" />
		<tag k="place" v="locality" />
		<tag k="ssr:stedsnr" v="658468" />
	</node>
<<<<<<< HEAD
	<node lat="59.195677780374105" lon="11.608308325667139" id="-14616">
		<tag k="alt_name" v="Steinkallåsen" />
		<tag k="fixme" v="consider natural=peak for the most distinct mountains in the district" />
		<tag k="name" v="Steinkollåsen" />
		<tag k="natural" v="hill" />
		<tag k="place" v="locality" />
		<tag k="ssr:stedsnr" v="669150" />
	</node>
	<node lat="59.206030553465055" lon="11.64223054945091" id="-14619">
		<tag k="name" v="Bestedalen" />
		<tag k="natural" v="valley" />
=======
	<node id="-233794" lat="59.1720000039" lon="11.6390916639">
		<tag k="alt_name" v="Engkashøyda" />
		<tag k="fixme" v="consider natural=peak for the most distinct mountains in the district" />
		<tag k="name" v="Engkashøgda" />
		<tag k="natural" v="hill" />
		<tag k="place" v="locality" />
		<tag k="ssr:stedsnr" v="487090" />
	</node>
	<node id="-234048" lat="59.3350833307" lon="11.6741805591">
		<tag k="fixme" v="consider natural=peak for the most distinct mountains in the district" />
		<tag k="name" v="Kutjernhøyda" />
		<tag k="natural" v="hill" />
>>>>>>> e1d4bc35ff8a6074a6f2e91616a996b547c36f15
		<tag k="place" v="locality" />
		<tag k="ssr:stedsnr" v="669158" />
	</node>
<<<<<<< HEAD
	<node lat="59.20933888747802" lon="11.754641659455414" id="-14620">
=======
	<node id="-234559" lat="59.2915083335" lon="11.6923277693">
>>>>>>> e1d4bc35ff8a6074a6f2e91616a996b547c36f15
		<tag k="fixme" v="consider natural=peak for the most distinct mountains in the district" />
		<tag k="name" v="Røyås" />
		<tag k="natural" v="hill" />
		<tag k="place" v="locality" />
		<tag k="ssr:stedsnr" v="669163" />
	</node>
<<<<<<< HEAD
	<node lat="59.1344916661093" lon="11.690808334729999" id="-14627">
		<tag k="name" v="Pålebakkene" />
		<tag k="natural" v="slope" />
		<tag k="place" v="locality" />
		<tag k="ssr:stedsnr" v="718458" />
	</node>
	<node lat="59.04899167060813" lon="11.717808338114367" id="-14629">
		<tag k="name" v="Bekkengdalen" />
		<tag k="natural" v="valley" />
		<tag k="place" v="locality" />
		<tag k="ssr:stedsnr" v="718935" />
	</node>
	<node lat="59.06781388853335" lon="11.704483326829907" id="-14630">
=======
	<node id="-234557" lat="59.2977972266" lon="11.6684777783">
		<tag k="fixme" v="consider natural=peak for the most distinct mountains in the district" />
		<tag k="name" v="Lunneåsen" />
		<tag k="natural" v="hill" />
		<tag k="place" v="locality" />
		<tag k="ssr:stedsnr" v="402029" />
	</node>
	<node id="-234042" lat="59.1577166689" lon="11.6886777758">
>>>>>>> e1d4bc35ff8a6074a6f2e91616a996b547c36f15
		<tag k="fixme" v="consider natural=peak for the most distinct mountains in the district" />
		<tag k="name" v="Bekkengøfsa" />
		<tag k="natural" v="hill" />
		<tag k="place" v="locality" />
		<tag k="ssr:stedsnr" v="718937" />
	</node>
<<<<<<< HEAD
	<node lat="59.270061115217224" lon="11.745274991651222" id="-14641">
=======
	<node id="-234553" lat="59.2538638915" lon="11.5976361052">
>>>>>>> e1d4bc35ff8a6074a6f2e91616a996b547c36f15
		<tag k="fixme" v="consider natural=peak for the most distinct mountains in the district" />
		<tag k="name" v="Gjølstadåsen" />
		<tag k="natural" v="hill" />
		<tag k="place" v="locality" />
		<tag k="ssr:stedsnr" v="719739" />
	</node>
<<<<<<< HEAD
	<node lat="59.24644444581717" lon="11.657494444055745" id="-14651">
		<tag k="name" v="Korset" />
		<tag k="natural" v="hill" />
		<tag k="place" v="locality" />
		<tag k="ssr:stedsnr" v="730241" />
	</node>
	<node lat="59.048772221453646" lon="11.708024994226887" id="-14652">
=======
	<node id="-234039" lat="59.0487722215" lon="11.7080249942">
>>>>>>> e1d4bc35ff8a6074a6f2e91616a996b547c36f15
		<tag k="alt_name" v="Gråbeinåsen" />
		<tag k="fixme" v="consider natural=peak for the most distinct mountains in the district" />
		<tag k="name" v="Gråbenåsen" />
		<tag k="natural" v="hill" />
		<tag k="place" v="locality" />
		<tag k="ssr:stedsnr" v="730444" />
	</node>
<<<<<<< HEAD
	<node lat="59.16704722134363" lon="11.681605550519741" id="-14675">
		<tag k="fixme" v="consider natural=peak for the most distinct mountains in the district" />
		<tag k="name" v="Tjernsåsen" />
		<tag k="natural" v="hill" />
		<tag k="place" v="locality" />
		<tag k="ssr:stedsnr" v="779378" />
	</node>
	<node lat="59.23949444621485" lon="11.754602786150805" id="-14682">
		<tag k="name" v="Mardalen" />
		<tag k="natural" v="valley" />
=======
	<node id="-234036" lat="59.3334444444" lon="11.6974916732">
		<tag k="fixme" v="consider natural=peak for the most distinct mountains in the district" />
		<tag k="name" v="Kutjernhøyda" />
		<tag k="natural" v="hill" />
>>>>>>> e1d4bc35ff8a6074a6f2e91616a996b547c36f15
		<tag k="place" v="locality" />
		<tag k="ssr:stedsnr" v="779162" />
	</node>
<<<<<<< HEAD
	<node lat="59.04668333410184" lon="11.715202780029754" id="-14691">
		<tag k="fixme" v="consider natural=peak for the most distinct mountains in the district" />
		<tag k="name" v="Duvleøfsa" />
		<tag k="natural" v="hill" />
		<tag k="place" v="locality" />
		<tag k="ssr:stedsnr" v="779933" />
	</node>
	<node lat="59.32009166334797" lon="11.75377499333826" id="-14692">
		<tag k="name" v="Duvledalen" />
		<tag k="natural" v="valley" />
		<tag k="place" v="locality" />
		<tag k="ssr:stedsnr" v="779945" />
	</node>
	<node lat="59.26669721773638" lon="11.706358339121408" id="-14694">
		<tag k="fixme" v="consider natural=peak for the most distinct mountains in the district" />
		<tag k="name" v="Løvås" />
		<tag k="natural" v="hill" />
		<tag k="place" v="locality" />
		<tag k="ssr:stedsnr" v="780084" />
	</node>
	<node lat="59.21721110915596" lon="11.692780560010362" id="-14699">
=======
	<node id="-234078" lat="59.2267694452" lon="11.77114167">
		<tag k="alt_name" v="Rivekrake" />
		<tag k="fixme" v="consider natural=peak for the most distinct mountains in the district" />
		<tag k="name" v="Rivekrakken" />
		<tag k="natural" v="hill" />
		<tag k="place" v="locality" />
		<tag k="ssr:stedsnr" v="912148" />
	</node>
	<node id="-234540" lat="59.3046333356" lon="11.7002527865">
		<tag k="alt_name" v="Lundehøyda" />
>>>>>>> e1d4bc35ff8a6074a6f2e91616a996b547c36f15
		<tag k="fixme" v="consider natural=peak for the most distinct mountains in the district" />
		<tag k="name" v="Trosteberget" />
		<tag k="natural" v="hill" />
		<tag k="place" v="locality" />
		<tag k="ssr:stedsnr" v="780296" />
	</node>
<<<<<<< HEAD
	<node lat="59.055263885100885" lon="11.709600007978176" id="-14706">
		<tag k="fixme" v="consider natural=peak for the most distinct mountains in the district" />
		<tag k="name" v="Duvleøfsa" />
		<tag k="natural" v="hill" />
		<tag k="place" v="locality" />
		<tag k="ssr:stedsnr" v="790379" />
	</node>
	<node lat="59.061080551617835" lon="11.742349999762908" id="-14707">
		<tag k="alt_name" v="Landbladåsen" />
		<tag k="fixme" v="consider natural=peak for the most distinct mountains in the district" />
		<tag k="name" v="Landebladkollen" />
		<tag k="natural" v="hill" />
		<tag k="place" v="locality" />
		<tag k="ssr:stedsnr" v="790385" />
	</node>
	<node lat="59.13599999726098" lon="11.75657500678477" id="-14709">
=======
	<node id="-234674" lat="59.3004388899" lon="11.732966659">
		<tag k="fixme" v="consider natural=peak for the most distinct mountains in the district" />
		<tag k="name" v="Korpås" />
		<tag k="natural" v="hill" />
		<tag k="place" v="locality" />
		<tag k="ssr:stedsnr" v="537947" />
	</node>
	<node id="-233991" lat="59.1825777806" lon="11.7488805538">
		<tag k="alt_name" v="Kisleberget" />
		<tag k="fixme" v="consider natural=peak for the most distinct mountains in the district" />
		<tag k="name" v="Kisselberget" />
		<tag k="natural" v="hill" />
		<tag k="place" v="locality" />
		<tag k="ssr:stedsnr" v="730086" />
	</node>
	<node id="-234535" lat="59.1606250039" lon="11.7510194512">
		<tag k="alt_name" v="Ørneredet" />
>>>>>>> e1d4bc35ff8a6074a6f2e91616a996b547c36f15
		<tag k="fixme" v="consider natural=peak for the most distinct mountains in the district" />
		<tag k="name" v="Skåkåsen" />
		<tag k="natural" v="hill" />
		<tag k="place" v="locality" />
		<tag k="ssr:stedsnr" v="791034" />
	</node>
<<<<<<< HEAD
	<node lat="59.292588884569284" lon="11.730597217603954" id="-14715">
		<tag k="alt_name" v="Skavlen" />
=======
	<node id="-234532" lat="59.1228166701" lon="11.678355564">
		<tag k="alt_name" v="Seterhøydene" />
>>>>>>> e1d4bc35ff8a6074a6f2e91616a996b547c36f15
		<tag k="fixme" v="consider natural=peak for the most distinct mountains in the district" />
		<tag k="name" v="Skavelen" />
		<tag k="natural" v="hill" />
		<tag k="place" v="locality" />
		<tag k="ssr:stedsnr" v="792651" />
	</node>
<<<<<<< HEAD
	<node lat="59.296769440718585" lon="11.700350005485651" id="-14726">
		<tag k="fixme" v="consider natural=peak for the most distinct mountains in the district" />
		<tag k="name" v="Høyfjell" />
=======
	<node id="-234019" lat="59.1410361079" lon="11.7075138934">
		<tag k="fixme" v="multiple name tags, choose one and add the other to alt_name; consider natural=peak for the most distinct mountains in the district" />
		<tag k="name" v="Gravedalsåsen;Halvfartjernhøyda" />
>>>>>>> e1d4bc35ff8a6074a6f2e91616a996b547c36f15
		<tag k="natural" v="hill" />
		<tag k="place" v="locality" />
		<tag k="ssr:stedsnr" v="827054" />
	</node>
<<<<<<< HEAD
	<node lat="59.264127780231334" lon="11.775088890032837" id="-14735">
		<tag k="fixme" v="consider natural=peak for the most distinct mountains in the district" />
		<tag k="name" v="Bukkeklevåsen" />
		<tag k="natural" v="hill" />
		<tag k="place" v="locality" />
		<tag k="ssr:stedsnr" v="840147" />
	</node>
	<node lat="59.27396667059548" lon="11.753561105684826" id="-14740">
=======
	<node id="-234075" lat="59.1688083311" lon="11.6243777821">
		<tag k="fixme" v="consider natural=peak for the most distinct mountains in the district" />
		<tag k="name" v="Bastliåsen" />
		<tag k="natural" v="hill" />
		<tag k="place" v="locality" />
		<tag k="ssr:stedsnr" v="912100" />
	</node>
	<node id="-234014" lat="59.2893166643" lon="11.6241194468">
>>>>>>> e1d4bc35ff8a6074a6f2e91616a996b547c36f15
		<tag k="fixme" v="consider natural=peak for the most distinct mountains in the district" />
		<tag k="name" v="Lajordshøyda" />
		<tag k="natural" v="hill" />
		<tag k="place" v="locality" />
		<tag k="ssr:stedsnr" v="840771" />
	</node>
<<<<<<< HEAD
	<node lat="59.247938885217415" lon="11.790786112270869" id="-14741">
		<tag k="fixme" v="consider natural=peak for the most distinct mountains in the district" />
		<tag k="name" v="Trantjernhøyda" />
=======
	<node id="-234525" lat="59.1497361109" lon="11.7737222157">
		<tag k="fixme" v="multiple name tags, choose one and add the other to alt_name; consider natural=peak for the most distinct mountains in the district" />
		<tag k="name" v="Kolsbuåsen;Raudkoll" />
>>>>>>> e1d4bc35ff8a6074a6f2e91616a996b547c36f15
		<tag k="natural" v="hill" />
		<tag k="place" v="locality" />
		<tag k="ssr:stedsnr" v="840859" />
	</node>
<<<<<<< HEAD
	<node lat="59.11587222433115" lon="11.68443611383758" id="-14759">
		<tag k="alt_name" v="Dagtjernhøyda" />
=======
	<node id="-234521" lat="59.2194027822" lon="11.6394611065">
>>>>>>> e1d4bc35ff8a6074a6f2e91616a996b547c36f15
		<tag k="fixme" v="consider natural=peak for the most distinct mountains in the district" />
		<tag k="name" v="Dagtjernhøgda" />
		<tag k="natural" v="hill" />
		<tag k="place" v="locality" />
		<tag k="ssr:stedsnr" v="851063" />
	</node>
<<<<<<< HEAD
	<node lat="59.09546666291234" lon="11.73472500431219" id="-14768">
		<tag k="name" v="Mortvasskollene" />
=======
	<node id="-234008" lat="59.1591916652" lon="11.6955111168">
		<tag k="fixme" v="consider natural=peak for the most distinct mountains in the district" />
		<tag k="name" v="Ulsrødåsen" />
>>>>>>> e1d4bc35ff8a6074a6f2e91616a996b547c36f15
		<tag k="natural" v="hill" />
		<tag k="place" v="locality" />
		<tag k="ssr:stedsnr" v="852439" />
	</node>
	<node lat="59.251763886482756" lon="11.601633337544152" id="-14777">
		<tag k="name" v="Ormetjernsdalen" />
		<tag k="natural" v="valley" />
		<tag k="place" v="locality" />
		<tag k="ssr:stedsnr" v="948375" />
	</node>
	<node lat="59.05663889182423" lon="11.72664722458954" id="-14782">
		<tag k="name" v="Bukkehøldalen" />
		<tag k="natural" v="valley" />
		<tag k="place" v="locality" />
		<tag k="ssr:stedsnr" v="961053" />
	</node>
	<node lat="59.13636388711415" lon="11.711741668952671" id="-14793">
		<tag k="name" v="Tretjernsdalen" />
		<tag k="natural" v="valley" />
		<tag k="place" v="locality" />
		<tag k="ssr:stedsnr" v="961868" />
	</node>
	<node id="-234111" lat="59.0552638851" lon="11.709600008">
		<tag k="fixme" v="consider natural=peak for the most distinct mountains in the district" />
		<tag k="name" v="Duvleøfsa" />
		<tag k="natural" v="hill" />
		<tag k="place" v="locality" />
		<tag k="ssr:stedsnr" v="790379" />
	</node>
	<node id="-233646" lat="59.2798666668" lon="11.6196333262">
		<tag k="name" v="Jerpedalen" />
		<tag k="natural" v="valley" />
		<tag k="place" v="locality" />
		<tag k="ssr:stedsnr" v="112109" />
	</node>
	<node id="-234512" lat="59.1872694471" lon="11.757661112">
		<tag k="fixme" v="consider natural=peak for the most distinct mountains in the district" />
		<tag k="name" v="Stendamåsen" />
		<tag k="natural" v="hill" />
		<tag k="place" v="locality" />
		<tag k="ssr:stedsnr" v="355904" />
	</node>
	<node id="-234511" lat="59.1953305546" lon="11.7836722277">
		<tag k="name" v="Stuteklev" />
		<tag k="place" v="locality" />
		<tag k="ssr:stedsnr" v="355900" />
	</node>
	<node id="-233901" lat="59.2362138918" lon="11.7755861031">
		<tag k="alt_name" v="Løvheia" />
		<tag k="fixme" v="consider natural=peak for the most distinct mountains in the district" />
		<tag k="name" v="Lauen" />
		<tag k="natural" v="hill" />
		<tag k="place" v="locality" />
		<tag k="ssr:stedsnr" v="486104" />
	</node>
	<node id="-233996" lat="59.0895416711" lon="11.7254527705">
		<tag k="alt_name" v="Høyestang" />
		<tag k="fixme" v="consider natural=peak for the most distinct mountains in the district" />
		<tag k="name" v="Høgestang" />
		<tag k="natural" v="hill" />
		<tag k="place" v="locality" />
		<tag k="ssr:stedsnr" v="730519" />
	</node>
	<node id="-233995" lat="59.2464444458" lon="11.6574944441">
		<tag k="name" v="Korset" />
		<tag k="natural" v="hill" />
		<tag k="place" v="locality" />
		<tag k="ssr:stedsnr" v="730241" />
	</node>
	<node id="-234503" lat="59.218697218" lon="11.7103527777">
		<tag k="fixme" v="consider natural=peak for the most distinct mountains in the district" />
		<tag k="name" v="Jersengåsen" />
		<tag k="natural" v="hill" />
		<tag k="place" v="locality" />
		<tag k="ssr:stedsnr" v="355298" />
	</node>
	<node id="-234815" lat="59.265858336" lon="11.8032944378">
		<tag k="fixme" v="consider natural=peak for the most distinct mountains in the district" />
		<tag k="name" v="Vaktåsen" />
		<tag k="natural" v="hill" />
		<tag k="place" v="locality" />
		<tag k="ssr:stedsnr" v="779861" />
	</node>
	<node id="-233729" lat="59.3172611145" lon="11.7435972292">
		<tag k="name" v="Ufredsdraua" />
		<tag k="natural" v="valley" />
		<tag k="place" v="locality" />
		<tag k="ssr:stedsnr" v="294955" />
	</node>
	<node id="-234070" lat="59.1861777759" lon="11.7139222294">
		<tag k="fixme" v="consider natural=peak for the most distinct mountains in the district" />
		<tag k="name" v="Kovåsen" />
		<tag k="natural" v="hill" />
		<tag k="place" v="locality" />
		<tag k="ssr:stedsnr" v="912079" />
	</node>
	<node id="-234167" lat="59.1792111091" lon="11.7659944411">
		<tag k="name" v="Rødeberg" />
		<tag k="natural" v="hill" />
		<tag k="place" v="locality" />
		<tag k="ssr:stedsnr" v="901953" />
	</node>
	<node id="-234497" lat="59.2475944465" lon="11.7906555516">
		<tag k="name" v="Runde kolle" />
		<tag k="natural" v="hill" />
		<tag k="place" v="locality" />
		<tag k="ssr:stedsnr" v="354845" />
	</node>
</osm>
