<?xml version="1.0" encoding="UTF-8"?>
<osm version="0.6" generator="osmapis">
	<node lat="59.13602499967077" lon="11.77791111644416" id="-24876">
		<tag k="historic" v="boundary_stone" />
		<tag k="man_made" v="cairn" />
		<tag k="name" v="Allingsmurrøysa" />
		<tag k="old_name" v="Allings Muurs Røset" />
		<tag k="place" v="locality" />
		<tag k="ssr:stedsnr" v="231972" />
	</node>
	<node lat="59.26536666854332" lon="11.82559722861358" id="-25107">
		<tag k="historic" v="boundary_stone" />
		<tag k="man_made" v="cairn" />
		<tag k="name" v="Mosvikrøysa" />
		<tag k="old_name" v="Mosvigsøens Røset" />
		<tag k="place" v="locality" />
		<tag k="ssr:stedsnr" v="352671" />
	</node>
	<node lat="59.140174995970014" lon="11.777599995292885" id="-25128">
		<tag k="historic" v="boundary_stone" />
		<tag k="man_made" v="cairn" />
		<tag k="name" v="Solumsrøysa" />
		<tag k="old_name" v="Solums Raasteens Røse" />
		<tag k="place" v="locality" />
		<tag k="ssr:stedsnr" v="474797" />
	</node>
	<node lat="59.05109644126006" lon="11.736138413281001" id="-25300">
		<tag k="historic" v="boundary_stone" />
		<tag k="man_made" v="cairn" />
		<tag k="name" v="Budalsvika" />
		<tag k="old_name" v="Budalswigen" />
		<tag k="place" v="locality" />
		<tag k="ssr:stedsnr" v="594107" />
	</node>
	<node lat="59.232013892265634" lon="11.811894449946072" id="-25301">
		<tag k="historic" v="boundary_stone" />
		<tag k="man_made" v="cairn" />
		<tag k="name" v="Enighetsrøysa" />
		<tag k="old_name" v="Eenigheds Røset" />
		<tag k="place" v="locality" />
		<tag k="ssr:stedsnr" v="595659" />
	</node>
	<node lat="59.06023138908485" lon="11.74377409249412" id="-25336">
		<tag k="historic" v="boundary_stone" />
		<tag k="man_made" v="cairn" />
		<tag k="name" v="Budalen" />
		<tag k="old_name" v="Bodalen" />
		<tag k="place" v="locality" />
		<tag k="ssr:stedsnr" v="655198" />
	</node>
	<node lat="59.164666669266694" lon="11.776069451120524" id="-25337">
		<tag k="historic" v="boundary_stone" />
		<tag k="man_made" v="cairn" />
		<tag k="name" v="Fagerlitjernet" />
		<tag k="old_name" v="Fagerliekiærnet" />
		<tag k="place" v="locality" />
		<tag k="ssr:stedsnr" v="656807" />
	</node>
	<node lat="59.07266335836537" lon="11.75539566360868" id="-25481">
		<tag k="alt_name" v="Grøtesbubekken" />
		<tag k="historic" v="boundary_stone" />
		<tag k="man_made" v="cairn" />
		<tag k="name" v="Grøtesbekken" />
		<tag k="place" v="locality" />
		<tag k="ssr:stedsnr" v="828088" />
	</node>
	<node lat="59.22530833177867" lon="11.800805561547298" id="-25483">
		<tag k="historic" v="boundary_stone" />
		<tag k="man_made" v="cairn" />
		<tag k="name" v="Slorerøysa" />
		<tag k="old_name" v="Sloer Røset" />
		<tag k="place" v="locality" />
		<tag k="ssr:stedsnr" v="838679" />
	</node>
	<node lat="59.156022552951484" lon="11.777057724745694" id="-25522">
		<tag k="historic" v="boundary_stone" />
		<tag k="man_made" v="cairn" />
		<tag k="name" v="Kroktjernsrøysa" />
		<tag k="old_name" v="Krogkiærns Røset" />
		<tag k="place" v="locality" />
		<tag k="ssr:stedsnr" v="899813" />
	</node>
	<node lat="59.07963611494378" lon="11.764658331688494" id="-25969">
		<tag k="historic" v="boundary_stone" />
		<tag k="man_made" v="cairn" />
		<tag k="name" v="Grötesbäcken" />
		<tag k="old_name" v="Grøtesbekken" />
		<tag k="place" v="locality" />
		<tag k="ssr:stedsnr" v="534916" />
	</node>
	<node lat="59.12140851092267" lon="11.766367522181058" id="-25971">
		<tag k="historic" v="boundary_stone" />
		<tag k="man_made" v="cairn" />
		<tag k="name" v="Klovsteinsrøysa" />
		<tag k="old_name" v="Klovsteens Røset" />
		<tag k="place" v="locality" />
		<tag k="ssr:stedsnr" v="535979" />
	</node>
	<node lat="59.194460619280605" lon="11.782197863163947" id="-26082">
		<tag k="historic" v="boundary_stone" />
		<tag k="man_made" v="cairn" />
		<tag k="name" v="Vestre Dyvelen" />
		<tag k="place" v="locality" />
		<tag k="ssr:stedsnr" v="656800" />
	</node>
	<node lat="59.1949972257233" lon="11.78382221864083" id="-26092">
		<tag k="historic" v="boundary_stone" />
		<tag k="man_made" v="cairn" />
		<tag k="name" v="Østre Dyvelen" />
		<tag k="place" v="locality" />
		<tag k="ssr:stedsnr" v="656859" />
	</node>
	<node lat="59.23781666512886" lon="11.826122224312748" id="-26124">
		<tag k="historic" v="boundary_stone" />
		<tag k="man_made" v="cairn" />
		<tag k="name" v="Salholmsrøysa" />
		<tag k="old_name" v="Salholms Røset" />
		<tag k="place" v="locality" />
		<tag k="ssr:stedsnr" v="717680" />
	</node>
</osm>
