<?xml version="1.0" encoding="UTF-8"?>
<osm version="0.6" generator="osmapis">
	<node lat="60.72098888619019" lon="5.278283332050693" id="-77938">
		<tag k="fixme" v="consider boundary=protected_area and relevant protect_class if not nature reserve" />
		<tag k="leisure" v="nature_reserve" />
		<tag k="name" v="Natås naturreservat" />
		<tag k="ssr:stedsnr" v="348153" />
	</node>
	<node lat="60.54185255408752" lon="5.237610811433354" id="-79030">
		<tag k="fixme" v="consider boundary=protected_area and relevant protect_class if not nature reserve" />
		<tag k="leisure" v="nature_reserve" />
		<tag k="name" v="Smineset friluftsområde" />
		<tag k="ssr:stedsnr" v="713263" />
	</node>
	<node lat="60.54574166657549" lon="5.237016674324099" id="-79245">
		<tag k="fixme" v="consider boundary=protected_area and relevant protect_class if not nature reserve" />
		<tag k="leisure" v="nature_reserve" />
		<tag k="name" v="Håøya friluftsområde" />
		<tag k="ssr:stedsnr" v="774273" />
	</node>
</osm>
