<?xml version="1.0" encoding="UTF-8"?>
<osm version="0.6" generator="osmapis">
	<node lat="60.69252778019768" lon="4.92890833468422" id="-37545">
		<tag k="bay" v="fjord" />
		<tag k="name" v="Makrellvågen" />
		<tag k="natural" v="bay" />
		<tag k="ssr:stedsnr" v="6806" />
	</node>
	<node lat="60.74549444014351" lon="4.884663880563236" id="-37547">
		<tag k="name" v="Småholmane" />
		<tag k="place" v="islet" />
		<tag k="ssr:stedsnr" v="6882" />
	</node>
	<node lat="60.678902774238" lon="5.073825006383004" id="-37548">
		<tag k="name" v="Tangen" />
		<tag k="natural" v="cape" />
		<tag k="ssr:stedsnr" v="7065" />
	</node>
	<node lat="60.65142500118449" lon="5.003119443172939" id="-37550">
		<tag k="name" v="Byrkjelandsvågen" />
		<tag k="natural" v="bay" />
		<tag k="ssr:stedsnr" v="6988" />
	</node>
	<node lat="60.749294440273786" lon="5.2423638853320345" id="-37554">
		<tag k="name" v="Hånesholmen" />
		<tag k="place" v="islet" />
		<tag k="ssr:stedsnr" v="9739" />
	</node>
	<node lat="60.728763888226545" lon="4.88238611911825" id="-37558">
		<tag k="name" v="Håholmen" />
		<tag k="place" v="islet" />
		<tag k="ssr:stedsnr" v="24184" />
	</node>
	<node lat="60.657374996968926" lon="5.244591660704556" id="-37559">
		<tag k="name" v="Kjevika" />
		<tag k="natural" v="bay" />
		<tag k="ssr:stedsnr" v="24306" />
	</node>
	<node lat="60.7114166670664" lon="5.038247222266954" id="-37560">
		<tag k="name" v="Juneset" />
		<tag k="natural" v="cape" />
		<tag k="ssr:stedsnr" v="24242" />
	</node>
	<node lat="60.635152781639846" lon="5.222147217202734" id="-37561">
		<tag k="name" v="Mongstadvågen" />
		<tag k="natural" v="bay" />
		<tag k="ssr:stedsnr" v="24296" />
	</node>
	<node lat="60.60553610913932" lon="4.947730561657079" id="-37562">
		<tag k="fixme" v="consider seamark:type=rock or natural=shoal" />
		<tag k="name" v="Storskjeret" />
		<tag k="place" v="islet" />
		<tag k="ssr:stedsnr" v="24673" />
	</node>
	<node lat="60.656238886452655" lon="4.909008340853998" id="-37564">
		<tag k="fixme" v="consider seamark:type=rock or natural=shoal" />
		<tag k="name" v="Grøningskjeret" />
		<tag k="place" v="islet" />
		<tag k="ssr:stedsnr" v="24683" />
	</node>
	<node lat="60.77362467858292" lon="5.147756912465579" id="-37565">
		<tag k="name" v="Langøysundet" />
		<tag k="natural" v="strait" />
		<tag k="ssr:stedsnr" v="25201" />
	</node>
	<node lat="60.76728995347473" lon="5.169289588141553" id="-37566">
		<tag k="name" v="Klauvholmen" />
		<tag k="place" v="islet" />
		<tag k="ssr:stedsnr" v="25204" />
	</node>
	<node lat="60.561975002523845" lon="5.0422166704330245" id="-37567">
		<tag k="name" v="Rylandsvågen" />
		<tag k="natural" v="bay" />
		<tag k="ssr:stedsnr" v="25582" />
	</node>
	<node lat="60.568875002595846" lon="5.032111112696543" id="-37568">
		<tag k="name" v="Kippevikholmen" />
		<tag k="place" v="islet" />
		<tag k="ssr:stedsnr" v="25583" />
	</node>
	<node lat="60.5723541721886" lon="5.087582369962885" id="-37580">
		<tag k="name" v="Kjeholmen" />
		<tag k="place" v="islet" />
		<tag k="ssr:stedsnr" v="44074" />
	</node>
	<node lat="60.746252780008795" lon="5.253463897610854" id="-37585">
		<tag k="name" v="Søre Lotrebogane" />
		<tag k="natural" v="bay" />
		<tag k="ssr:stedsnr" v="44205" />
	</node>
	<node lat="60.649183336460915" lon="5.383330557795527" id="-37592">
		<tag k="fixme" v="multiple name tags, choose one and add the other to alt_name" />
		<tag k="name" v="Asgardholmane;Hegrasteøyna" />
		<tag k="place" v="islet" />
		<tag k="ssr:stedsnr" v="44305" />
	</node>
	<node lat="60.78318610943532" lon="5.0860055515890386" id="-37602">
		<tag k="name" v="Gulholmen" />
		<tag k="place" v="islet" />
		<tag k="ssr:stedsnr" v="44436" />
	</node>
	<node lat="60.789597220279624" lon="5.089311109349284" id="-37603">
		<tag k="name" v="Nordre Øytangen" />
		<tag k="natural" v="cape" />
		<tag k="ssr:stedsnr" v="44439" />
	</node>
	<node lat="60.78763333655657" lon="5.08623333455461" id="-37604">
		<tag k="fixme" v="consider seamark:type=rock or natural=shoal" />
		<tag k="name" v="Skarveskjeret" />
		<tag k="place" v="islet" />
		<tag k="ssr:stedsnr" v="44444" />
	</node>
	<node lat="60.77646666809389" lon="5.0443527819024325" id="-37606">
		<tag k="name" v="Grevika" />
		<tag k="natural" v="bay" />
		<tag k="ssr:stedsnr" v="44455" />
	</node>
	<node lat="60.73258055152845" lon="5.069000002813762" id="-37609">
		<tag k="name" v="Brakøyosen" />
		<tag k="natural" v="bay" />
		<tag k="ssr:stedsnr" v="44478" />
	</node>
	<node lat="60.6572000021835" lon="5.3572638823301615" id="-37610">
		<tag k="name" v="Timmervika" />
		<tag k="natural" v="bay" />
		<tag k="ssr:stedsnr" v="44483" />
	</node>
	<node lat="60.663677777909214" lon="5.358236117070846" id="-37612">
		<tag k="name" v="Haugsneset" />
		<tag k="natural" v="cape" />
		<tag k="ssr:stedsnr" v="44488" />
	</node>
	<node lat="60.6672194425114" lon="4.902741657854909" id="-37633">
		<tag k="name" v="Kramvågen" />
		<tag k="natural" v="bay" />
		<tag k="ssr:stedsnr" v="45305" />
	</node>
	<node lat="60.73116666482162" lon="5.137013896056311" id="-37635">
		<tag k="name" v="Saltnesklubben" />
		<tag k="natural" v="cape" />
		<tag k="ssr:stedsnr" v="45202" />
	</node>
	<node lat="60.727927777247345" lon="4.854558335166441" id="-37636">
		<tag k="name" v="Bøøysundet" />
		<tag k="natural" v="strait" />
		<tag k="ssr:stedsnr" v="45203" />
	</node>
	<node lat="60.72649444100458" lon="4.862777772906997" id="-37637">
		<tag k="name" v="Tretholmen" />
		<tag k="place" v="islet" />
		<tag k="ssr:stedsnr" v="45206" />
	</node>
	<node lat="60.720025003119396" lon="4.855852773497406" id="-37638">
		<tag k="name" v="Skage" />
		<tag k="natural" v="cape" />
		<tag k="ssr:stedsnr" v="45207" />
	</node>
	<node lat="60.72923888851042" lon="4.870958333294373" id="-37639">
		<tag k="name" v="Belarøysundet" />
		<tag k="natural" v="strait" />
		<tag k="ssr:stedsnr" v="45212" />
	</node>
	<node lat="60.64509999987482" lon="4.9425944449925145" id="-37642">
		<tag k="name" v="Djupekastet" />
		<tag k="natural" v="bay" />
		<tag k="ssr:stedsnr" v="45277" />
	</node>
	<node lat="60.659321692912656" lon="4.988107489448477" id="-37644">
		<tag k="name" v="Naustvågen" />
		<tag k="natural" v="bay" />
		<tag k="ssr:stedsnr" v="45284" />
	</node>
	<node lat="60.69401504015275" lon="5.366772930040999" id="-37647">
		<tag k="name" v="Stykkeneset" />
		<tag k="natural" v="cape" />
		<tag k="ssr:stedsnr" v="45423" />
	</node>
	<node lat="60.646583333874176" lon="5.449905549562113" id="-37648">
		<tag k="name" v="Hageneset" />
		<tag k="natural" v="cape" />
		<tag k="ssr:stedsnr" v="45430" />
	</node>
	<node lat="60.69734721906449" lon="4.886213885407561" id="-37649">
		<tag k="name" v="Rekevika" />
		<tag k="natural" v="bay" />
		<tag k="ssr:stedsnr" v="45370" />
	</node>
	<node lat="60.67811666763494" lon="5.45791110529532" id="-37654">
		<tag k="name" v="Stongeneset" />
		<tag k="natural" v="cape" />
		<tag k="ssr:stedsnr" v="45553" />
	</node>
	<node lat="60.699586106919966" lon="5.052636113277871" id="-37660">
		<tag k="name" v="Skjelvika" />
		<tag k="natural" v="bay" />
		<tag k="ssr:stedsnr" v="45592" />
	</node>
	<node lat="60.69807222037279" lon="5.068633341740803" id="-37662">
		<tag k="name" v="Rådmannsøya" />
		<tag k="place" v="island" />
		<tag k="ssr:stedsnr" v="45597" />
	</node>
	<node lat="60.53325555473057" lon="5.252941663280525" id="-37686">
		<tag k="name" v="Notaneset" />
		<tag k="natural" v="cape" />
		<tag k="ssr:stedsnr" v="46284" />
	</node>
	<node lat="60.61073332919328" lon="5.025347217993114" id="-37689">
		<tag k="name" v="Gutholmen" />
		<tag k="place" v="islet" />
		<tag k="ssr:stedsnr" v="46471" />
	</node>
	<node lat="60.73557500145691" lon="5.147638886781595" id="-37702">
		<tag k="alt_name" v="Ådnevik" />
		<tag k="name" v="Ådnevika" />
		<tag k="natural" v="bay" />
		<tag k="ssr:stedsnr" v="66617" />
	</node>
	<node lat="60.668877780954816" lon="4.898786111481843" id="-37706">
		<tag k="name" v="Steinholmen" />
		<tag k="place" v="islet" />
		<tag k="ssr:stedsnr" v="66992" />
	</node>
	<node lat="60.666699294176595" lon="4.89895348378965" id="-37707">
		<tag k="name" v="Steinholmflua" />
		<tag k="natural" v="shoal" />
		<tag k="place" v="locality" />
		<tag k="ssr:stedsnr" v="66996" />
	</node>
	<node lat="60.66027777619" lon="4.905669452545194" id="-37708">
		<tag k="alt_name" v="Kvitsandbåen" />
		<tag k="name" v="Kvitsandboen" />
		<tag k="natural" v="shoal" />
		<tag k="place" v="locality" />
		<tag k="ssr:stedsnr" v="66998" />
	</node>
	<node lat="60.55291388911323" lon="5.237319446641121" id="-37710">
		<tag k="name" v="Ospholmflua" />
		<tag k="natural" v="shoal" />
		<tag k="place" v="locality" />
		<tag k="ssr:stedsnr" v="67111" />
	</node>
	<node lat="60.60153611300883" lon="5.423397213372922" id="-37711">
		<tag k="name" v="Innegardsvågen" />
		<tag k="natural" v="bay" />
		<tag k="ssr:stedsnr" v="67126" />
	</node>
	<node lat="60.6751555560901" lon="5.122897225704261" id="-37714">
		<tag k="name" v="Langeneset" />
		<tag k="natural" v="cape" />
		<tag k="ssr:stedsnr" v="67057" />
	</node>
	<node lat="60.718008334793495" lon="5.158130552537714" id="-37719">
		<tag k="alt_name" v="Langøy" />
		<tag k="name" v="Langøyna" />
		<tag k="place" v="islet" />
		<tag k="ssr:stedsnr" v="67657" />
	</node>
	<node lat="60.69879999706229" lon="4.905900005391825" id="-37722">
		<tag k="name" v="Kvalheimsneset" />
		<tag k="natural" v="cape" />
		<tag k="ssr:stedsnr" v="67805" />
	</node>
	<node lat="60.72921388453986" lon="4.949424993879943" id="-37725">
		<tag k="name" v="Trollholmen" />
		<tag k="place" v="islet" />
		<tag k="ssr:stedsnr" v="67825" />
	</node>
	<node lat="60.71459999684721" lon="4.868655552600721" id="-37726">
		<tag k="name" v="Onglesundet" />
		<tag k="natural" v="strait" />
		<tag k="ssr:stedsnr" v="67842" />
	</node>
	<node lat="60.712913886183316" lon="4.867516674004199" id="-37727">
		<tag k="name" v="Knappen" />
		<tag k="natural" v="cape" />
		<tag k="ssr:stedsnr" v="67844" />
	</node>
	<node lat="60.724566665419175" lon="5.028600000854406" id="-37728">
		<tag k="name" v="Leiholmane" />
		<tag k="place" v="islet" />
		<tag k="ssr:stedsnr" v="67845" />
	</node>
	<node lat="60.68917778003971" lon="4.912227769567358" id="-37729">
		<tag k="name" v="Lyngholmen" />
		<tag k="place" v="islet" />
		<tag k="ssr:stedsnr" v="67788" />
	</node>
	<node lat="60.648344442044326" lon="4.944194444548519" id="-37731">
		<tag k="name" v="Toska" />
		<tag k="place" v="island" />
		<tag k="ssr:stedsnr" v="67995" />
	</node>
	<node lat="60.80865833747841" lon="5.0479500048867365" id="-37732">
		<tag k="name" v="Gardsendflua" />
		<tag k="natural" v="shoal" />
		<tag k="place" v="locality" />
		<tag k="ssr:stedsnr" v="69061" />
	</node>
	<node lat="60.76281944574319" lon="5.190944435931659" id="-37739">
		<tag k="fixme" v="consider seamark:type=rock or natural=shoal" />
		<tag k="name" v="Morteskjeret" />
		<tag k="place" v="islet" />
		<tag k="ssr:stedsnr" v="69728" />
	</node>
	<node lat="60.65184167046695" lon="5.000819451756739" id="-37743">
		<tag k="fixme" v="consider seamark:type=rock or natural=shoal" />
		<tag k="name" v="Flatskjeret" />
		<tag k="place" v="islet" />
		<tag k="ssr:stedsnr" v="85186" />
	</node>
	<node lat="60.687847220986214" lon="4.921049997788512" id="-37744">
		<tag k="name" v="Søre Byngevågen" />
		<tag k="natural" v="bay" />
		<tag k="ssr:stedsnr" v="85191" />
	</node>
	<node lat="60.68545278000257" lon="5.146516674674074" id="-37745">
		<tag k="name" v="Skjelvikflua" />
		<tag k="natural" v="shoal" />
		<tag k="place" v="locality" />
		<tag k="ssr:stedsnr" v="85225" />
	</node>
	<node lat="60.68765048012469" lon="5.10117632687988" id="-37746">
		<tag k="fixme" v="consider seamark:type=rock or natural=shoal" />
		<tag k="name" v="Bispen" />
		<tag k="place" v="islet" />
		<tag k="ssr:stedsnr" v="85231" />
	</node>
	<node lat="60.547272221570864" lon="5.043597213719525" id="-37750">
		<tag k="name" v="Odden" />
		<tag k="natural" v="cape" />
		<tag k="ssr:stedsnr" v="85511" />
	</node>
	<node lat="60.744550000537195" lon="4.919316660145187" id="-37751">
		<tag k="name" v="Kråka" />
		<tag k="place" v="islet" />
		<tag k="ssr:stedsnr" v="85803" />
	</node>
	<node lat="60.62762602241703" lon="5.258868190175408" id="-37752">
		<tag k="name" v="Søra Totlandsvika" />
		<tag k="natural" v="bay" />
		<tag k="old_name" v="Søra Totlandsvik" />
		<tag k="ssr:stedsnr" v="86614" />
	</node>
	<node lat="60.66874722317238" lon="5.17484165757569" id="-37753">
		<tag k="name" v="Toftingflua" />
		<tag k="natural" v="shoal" />
		<tag k="place" v="locality" />
		<tag k="ssr:stedsnr" v="86882" />
	</node>
	<node lat="60.680705558629285" lon="5.571430557690142" id="-37754">
		<tag k="alt_name" v="Ystasundet" />
		<tag k="name" v="Ytstasundet" />
		<tag k="natural" v="strait" />
		<tag k="ssr:stedsnr" v="248327" />
	</node>
	<node lat="60.725136108504806" lon="5.177650007989144" id="-37765">
		<tag k="name" v="Haukåsstraumen" />
		<tag k="natural" v="strait" />
		<tag k="ssr:stedsnr" v="248664" />
	</node>
	<node lat="60.74700456518496" lon="5.257026875836562" id="-37766">
		<tag k="alt_name" v="Apeneset" />
		<tag k="name" v="Ospeneset" />
		<tag k="natural" v="cape" />
		<tag k="ssr:stedsnr" v="248683" />
	</node>
	<node lat="60.68968333388816" lon="5.579786116542469" id="-37770">
		<tag k="name" v="Leirvika" />
		<tag k="natural" v="bay" />
		<tag k="ssr:stedsnr" v="249021" />
	</node>
	<node lat="60.5867583351475" lon="5.40624999858901" id="-37774">
		<tag k="name" v="Storneset" />
		<tag k="natural" v="cape" />
		<tag k="ssr:stedsnr" v="249044" />
	</node>
	<node lat="60.54753333075022" lon="5.229983340376861" id="-37777">
		<tag k="name" v="Håøysundet" />
		<tag k="natural" v="strait" />
		<tag k="ssr:stedsnr" v="249085" />
	</node>
	<node lat="60.77777222373675" lon="5.151416662840465" id="-37791">
		<tag k="name" v="Storebukttangen" />
		<tag k="natural" v="cape" />
		<tag k="ssr:stedsnr" v="105202" />
	</node>
	<node lat="60.7495865936562" lon="5.2394441728858885" id="-37805">
		<tag k="name" v="Nordre Hånessundet" />
		<tag k="natural" v="strait" />
		<tag k="ssr:stedsnr" v="105197" />
	</node>
	<node lat="60.67807499568853" lon="5.200941664193141" id="-37816">
		<tag k="name" v="Bruvollsanden" />
		<tag k="natural" v="beach" />
		<tag k="ssr:stedsnr" v="105289" />
	</node>
	<node lat="60.72336849934835" lon="5.323985807761649" id="-37819">
		<tag k="name" v="Rekevika" />
		<tag k="natural" v="bay" />
		<tag k="ssr:stedsnr" v="105404" />
	</node>
	<node lat="60.64779770407099" lon="5.135043231826013" id="-37820">
		<tag k="name" v="Nordre Haukåsneset" />
		<tag k="natural" v="cape" />
		<tag k="ssr:stedsnr" v="105406" />
	</node>
	<node lat="60.61904999940785" lon="5.204172227854756" id="-37821">
		<tag k="name" v="Jordvågen" />
		<tag k="natural" v="bay" />
		<tag k="ssr:stedsnr" v="105424" />
	</node>
	<node lat="60.728986109642584" lon="4.9749111024863115" id="-37825">
		<tag k="name" v="Endrevika" />
		<tag k="natural" v="bay" />
		<tag k="ssr:stedsnr" v="105473" />
	</node>
	<node lat="60.717874999287154" lon="5.09311110813242" id="-37826">
		<tag k="name" v="Skjeltholmen" />
		<tag k="place" v="islet" />
		<tag k="ssr:stedsnr" v="105483" />
	</node>
	<node lat="60.58490833207869" lon="5.162497213647862" id="-37827">
		<tag k="name" v="Kvernhusa" />
		<tag k="natural" v="cape" />
		<tag k="ssr:stedsnr" v="105484" />
	</node>
	<node lat="60.66090555379028" lon="5.420516659484243" id="-37828">
		<tag k="name" v="Klenevågen" />
		<tag k="natural" v="bay" />
		<tag k="ssr:stedsnr" v="105488" />
	</node>
	<node lat="60.73053333673032" lon="5.096950003957954" id="-37829">
		<tag k="name" v="Grunnevågen" />
		<tag k="natural" v="bay" />
		<tag k="ssr:stedsnr" v="105489" />
	</node>
	<node lat="60.65262778124975" lon="5.4378861061387544" id="-37830">
		<tag k="fixme" v="consider seamark:type=rock or natural=shoal" />
		<tag k="name" v="Søskjeret" />
		<tag k="place" v="islet" />
		<tag k="ssr:stedsnr" v="105491" />
	</node>
	<node lat="60.678949996380084" lon="5.104861117307314" id="-37839">
		<tag k="name" v="Vaurevågen" />
		<tag k="natural" v="bay" />
		<tag k="ssr:stedsnr" v="105576" />
	</node>
	<node lat="60.63874721964149" lon="5.117363889856267" id="-37851">
		<tag k="alt_name" v="Taulsvågen" />
		<tag k="name" v="Taulevågen" />
		<tag k="natural" v="bay" />
		<tag k="ssr:stedsnr" v="105832" />
	</node>
	<node lat="60.64340063572726" lon="5.133919195917879" id="-37852">
		<tag k="name" v="Sørevika" />
		<tag k="natural" v="bay" />
		<tag k="ssr:stedsnr" v="105836" />
	</node>
	<node lat="60.566399998725245" lon="5.379677769862975" id="-37866">
		<tag k="name" v="Leknestangen" />
		<tag k="natural" v="cape" />
		<tag k="ssr:stedsnr" v="249451" />
	</node>
	<node lat="60.536500004526594" lon="5.250758340157313" id="-37867">
		<tag k="name" v="Kjeldevika" />
		<tag k="natural" v="bay" />
		<tag k="ssr:stedsnr" v="106279" />
	</node>
	<node lat="60.5383361093779" lon="5.249177777001239" id="-37868">
		<tag k="name" v="Hjeltaneset" />
		<tag k="natural" v="cape" />
		<tag k="ssr:stedsnr" v="106285" />
	</node>
	<node lat="60.56763333026001" lon="4.991186112828505" id="-37869">
		<tag k="fixme" v="consider seamark:type=rock or natural=shoal" />
		<tag k="name" v="Stora Ieskjeret" />
		<tag k="place" v="islet" />
		<tag k="ssr:stedsnr" v="106295" />
	</node>
	<node lat="60.65325000380114" lon="4.919097227624602" id="-37870">
		<tag k="name" v="Store Grøningen" />
		<tag k="place" v="island" />
		<tag k="ssr:stedsnr" v="106298" />
	</node>
	<node lat="60.65508889058033" lon="4.912061116906946" id="-37871">
		<tag k="name" v="Steinholmane" />
		<tag k="place" v="islet" />
		<tag k="ssr:stedsnr" v="106302" />
	</node>
	<node lat="60.55543055311778" lon="5.031772222331846" id="-37873">
		<tag k="name" v="Kyrkjevika" />
		<tag k="natural" v="bay" />
		<tag k="ssr:stedsnr" v="106310" />
	</node>
	<node lat="60.692764491029365" lon="5.4033547550902625" id="-37878">
		<tag k="name" v="Klenevågen" />
		<tag k="natural" v="bay" />
		<tag k="ssr:stedsnr" v="106385" />
	</node>
	<node lat="60.60718333441081" lon="5.099544441484766" id="-37880">
		<tag k="name" v="Naustvika" />
		<tag k="natural" v="bay" />
		<tag k="ssr:stedsnr" v="106504" />
	</node>
	<node lat="60.634302778926816" lon="5.0215916679391865" id="-37882">
		<tag k="name" v="Halvarholet" />
		<tag k="natural" v="bay" />
		<tag k="ssr:stedsnr" v="106571" />
	</node>
	<node lat="60.71999722121047" lon="4.905266671888124" id="-37886">
		<tag k="name" v="Søre Langholmen" />
		<tag k="place" v="islet" />
		<tag k="ssr:stedsnr" v="106484" />
	</node>
	<node lat="60.720716667715024" lon="4.905211118072445" id="-37887">
		<tag k="name" v="Sjenholmen" />
		<tag k="place" v="islet" />
		<tag k="ssr:stedsnr" v="106487" />
	</node>
	<node lat="60.72923055235402" lon="4.905861104627733" id="-37888">
		<tag k="name" v="Vassvika" />
		<tag k="natural" v="bay" />
		<tag k="ssr:stedsnr" v="106494" />
	</node>
	<node lat="60.654661112458435" lon="5.59551667237315" id="-37895">
		<tag k="name" v="Bakarbukta" />
		<tag k="natural" v="bay" />
		<tag k="ssr:stedsnr" v="106788" />
	</node>
	<node lat="60.54176986336865" lon="5.274166459104483" id="-37900">
		<tag k="alt_name" v="Haglsundet;Haglesundet" />
		<tag k="name" v="Hagelsundet" />
		<tag k="natural" v="strait" />
		<tag k="ssr:stedsnr" v="249436" />
	</node>
	<node lat="60.61217499889955" lon="5.054575002189388" id="-37903">
		<tag k="fixme" v="consider seamark:type=rock or natural=shoal" />
		<tag k="name" v="Skipsskjera" />
		<tag k="place" v="islet" />
		<tag k="ssr:stedsnr" v="107444" />
	</node>
	<node lat="60.619063891716166" lon="5.473627775573193" id="-37913">
		<tag k="name" v="Dyrsvika" />
		<tag k="natural" v="bay" />
		<tag k="ssr:stedsnr" v="249709" />
	</node>
	<node lat="60.6817305578281" lon="4.933477781940626" id="-37915">
		<tag k="name" v="Brømstøholmane" />
		<tag k="place" v="islet" />
		<tag k="ssr:stedsnr" v="249778" />
	</node>
	<node lat="60.71158333229546" lon="4.985163882879862" id="-37918">
		<tag k="name" v="Norangspollen" />
		<tag k="natural" v="bay" />
		<tag k="ssr:stedsnr" v="249827" />
	</node>
	<node lat="60.611369448725" lon="5.081624998902014" id="-37921">
		<tag k="alt_name" v="Bongnestraumen" />
		<tag k="name" v="Bognestraumen" />
		<tag k="natural" v="strait" />
		<tag k="ssr:stedsnr" v="249954" />
	</node>
	<node lat="60.56652222298748" lon="5.000877772600645" id="-37922">
		<tag k="name" v="Ietangen" />
		<tag k="natural" v="cape" />
		<tag k="ssr:stedsnr" v="249914" />
	</node>
	<node lat="60.58055278186721" lon="5.008180561259058" id="-37923">
		<tag k="name" v="Fløholmen" />
		<tag k="place" v="islet" />
		<tag k="ssr:stedsnr" v="249916" />
	</node>
	<node lat="60.57252500212935" lon="5.014069438065005" id="-37924">
		<tag k="name" v="Risholmen" />
		<tag k="place" v="islet" />
		<tag k="ssr:stedsnr" v="249920" />
	</node>
	<node lat="60.5742861134916" lon="5.006944446128744" id="-37925">
		<tag k="alt_name" v="Torkelstangen" />
		<tag k="name" v="Torkjellstangen" />
		<tag k="natural" v="cape" />
		<tag k="ssr:stedsnr" v="249921" />
	</node>
	<node lat="60.58185833218656" lon="4.989950003601893" id="-37926">
		<tag k="name" v="Sætreosen" />
		<tag k="natural" v="strait" />
		<tag k="ssr:stedsnr" v="249924" />
	</node>
	<node lat="60.60228056006902" lon="4.997888895138488" id="-37928">
		<tag k="name" v="Husebøvågen" />
		<tag k="natural" v="bay" />
		<tag k="ssr:stedsnr" v="249935" />
	</node>
	<node lat="60.62740394385309" lon="4.925041023452076" id="-37929">
		<tag k="bay" v="fjord" />
		<tag k="name" v="Mangersfjorden" />
		<tag k="natural" v="bay" />
		<tag k="ssr:stedsnr" v="249958" />
	</node>
	<node lat="60.63511666722202" lon="5.0173694447688675" id="-37930">
		<tag k="name" v="Mangersøyna" />
		<tag k="place" v="island" />
		<tag k="ssr:stedsnr" v="249967" />
	</node>
	<node lat="60.79810277801489" lon="5.072147226064631" id="-37932">
		<tag k="name" v="Hamneflua" />
		<tag k="natural" v="shoal" />
		<tag k="place" v="locality" />
		<tag k="ssr:stedsnr" v="251010" />
	</node>
	<node lat="60.79457499784579" lon="4.984352778736733" id="-37933">
		<tag k="fixme" v="multiple name tags, choose one and add the other to alt_name" />
		<tag k="name" v="Midttangsvågen;Hegrevika" />
		<tag k="natural" v="bay" />
		<tag k="ssr:stedsnr" v="251024" />
	</node>
	<node lat="60.82421389220116" lon="5.00310832382027" id="-37935">
		<tag k="name" v="Kvalen" />
		<tag k="place" v="islet" />
		<tag k="ssr:stedsnr" v="251082" />
	</node>
	<node lat="60.762527776712105" lon="5.040455547470914" id="-37936">
		<tag k="alt_name" v="Matholmane;Store Mathholmen" />
		<tag k="name" v="Store Matholmen" />
		<tag k="place" v="islet" />
		<tag k="ssr:stedsnr" v="251180" />
	</node>
	<node lat="60.78740000056986" lon="5.079824996562832" id="-37938">
		<tag k="name" v="Gardsendholmen" />
		<tag k="place" v="islet" />
		<tag k="ssr:stedsnr" v="251262" />
	</node>
	<node lat="60.77506666361633" lon="5.15153332910936" id="-37943">
		<tag k="name" v="Langøyna" />
		<tag k="place" v="islet" />
		<tag k="ssr:stedsnr" v="251708" />
	</node>
	<node lat="60.772508334267116" lon="5.171433340534524" id="-37944">
		<tag k="alt_name" v="Grøningane" />
		<tag k="name" v="Grøningen" />
		<tag k="place" v="islet" />
		<tag k="ssr:stedsnr" v="251724" />
	</node>
	<node lat="60.62675000246402" lon="5.179033330586824" id="-37949">
		<tag k="name" v="Radsundet" />
		<tag k="natural" v="strait" />
		<tag k="ssr:stedsnr" v="127225" />
	</node>
	<node lat="60.635699996699174" lon="5.1519638947712085" id="-37950">
		<tag k="name" v="Lyseknappen" />
		<tag k="natural" v="cape" />
		<tag k="ssr:stedsnr" v="127226" />
	</node>
	<node lat="60.686205558681515" lon="4.923066675332516" id="-37960">
		<tag k="name" v="Byngjo" />
		<tag k="natural" v="cape" />
		<tag k="ssr:stedsnr" v="127807" />
	</node>
	<node lat="60.62303068367021" lon="5.49069311473472" id="-37961">
		<tag k="alt_name" v="Drangsneset" />
		<tag k="name" v="Drengsneset" />
		<tag k="natural" v="cape" />
		<tag k="ssr:stedsnr" v="127748" />
	</node>
	<node lat="60.68310278030747" lon="5.09107500655266" id="-37962">
		<tag k="name" v="Vågane" />
		<tag k="natural" v="bay" />
		<tag k="ssr:stedsnr" v="127791" />
	</node>
	<node lat="60.65652499821817" lon="4.992855556682606" id="-37963">
		<tag k="name" v="Kvalvika" />
		<tag k="natural" v="bay" />
		<tag k="ssr:stedsnr" v="127800" />
	</node>
	<node lat="60.82722500165427" lon="4.983527769241244" id="-37970">
		<tag k="name" v="Austretaren" />
		<tag k="natural" v="shoal" />
		<tag k="place" v="locality" />
		<tag k="ssr:stedsnr" v="129092" />
	</node>
	<node lat="60.777116663305016" lon="5.02008611903508" id="-37972">
		<tag k="alt_name" v="Keiløy" />
		<tag k="name" v="Keila" />
		<tag k="place" v="island" />
		<tag k="ssr:stedsnr" v="130207" />
	</node>
	<node lat="60.783369447233234" lon="5.09168610868018" id="-37974">
		<tag k="name" v="Tvibergøyna" />
		<tag k="place" v="island" />
		<tag k="ssr:stedsnr" v="130214" />
	</node>
	<node lat="60.78658033681825" lon="5.0928944866473005" id="-37978">
		<tag k="alt_name" v="Øyeholmen" />
		<tag k="name" v="Øyholmen" />
		<tag k="place" v="islet" />
		<tag k="ssr:stedsnr" v="146174" />
	</node>
	<node lat="60.78189167027399" lon="5.089347224529787" id="-37979">
		<tag k="name" v="Lyngholmen" />
		<tag k="place" v="islet" />
		<tag k="ssr:stedsnr" v="146175" />
	</node>
	<node lat="60.75984933272491" lon="5.185553453122469" id="-37980">
		<tag k="alt_name" v="Garnholmen" />
		<tag k="name" v="Garnhusholmen" />
		<tag k="place" v="islet" />
		<tag k="ssr:stedsnr" v="146184" />
	</node>
	<node lat="60.534777777543454" lon="5.102888891688768" id="-37981">
		<tag k="name" v="Sørastøa" />
		<tag k="natural" v="bay" />
		<tag k="ssr:stedsnr" v="146571" />
	</node>
	<node lat="60.719672222971774" lon="5.169366673044762" id="-37982">
		<tag k="name" v="Gullnakken" />
		<tag k="natural" v="cape" />
		<tag k="ssr:stedsnr" v="146861" />
	</node>
	<node lat="60.66059444445589" lon="5.36767221804441" id="-37988">
		<tag k="name" v="Gilsneset" />
		<tag k="natural" v="cape" />
		<tag k="ssr:stedsnr" v="165306" />
	</node>
	<node lat="60.70979721807659" lon="5.124597227725034" id="-37989">
		<tag k="alt_name" v="Sildevågen" />
		<tag k="name" v="Sildavågen" />
		<tag k="natural" v="bay" />
		<tag k="ssr:stedsnr" v="165314" />
	</node>
	<node lat="60.671838887886615" lon="5.12642777955718" id="-37990">
		<tag k="name" v="Kaldneset" />
		<tag k="natural" v="cape" />
		<tag k="ssr:stedsnr" v="165262" />
	</node>
	<node lat="60.680041669881085" lon="5.141994442128161" id="-37991">
		<tag k="name" v="Brislingavika" />
		<tag k="natural" v="bay" />
		<tag k="ssr:stedsnr" v="165274" />
	</node>
	<node lat="60.50727778030746" lon="5.210374994024816" id="-37997">
		<tag k="name" v="Svinsvågneset" />
		<tag k="natural" v="cape" />
		<tag k="ssr:stedsnr" v="166009" />
	</node>
	<node lat="60.56554222117896" lon="5.089696923082184" id="-38003">
		<tag k="name" v="Onesholmen" />
		<tag k="place" v="islet" />
		<tag k="ssr:stedsnr" v="166080" />
	</node>
	<node lat="60.7336972177453" lon="5.140516662010665" id="-38010">
		<tag k="name" v="Skitnevågen" />
		<tag k="natural" v="bay" />
		<tag k="ssr:stedsnr" v="166225" />
	</node>
	<node lat="60.71581666862988" lon="5.133697225736815" id="-38016">
		<tag k="name" v="Bårdneset" />
		<tag k="natural" v="cape" />
		<tag k="ssr:stedsnr" v="166180" />
	</node>
	<node lat="60.666197224561124" lon="4.920758331810499" id="-38019">
		<tag k="name" v="Lamvågen" />
		<tag k="natural" v="bay" />
		<tag k="ssr:stedsnr" v="166308" />
	</node>
	<node lat="60.60717221942864" lon="5.433572225293887" id="-38022">
		<tag k="name" v="Bjørndalsvika" />
		<tag k="natural" v="bay" />
		<tag k="ssr:stedsnr" v="166311" />
	</node>
	<node lat="60.673363427469816" lon="5.3762352416283745" id="-38028">
		<tag k="name" v="Tyskeneset" />
		<tag k="natural" v="cape" />
		<tag k="ssr:stedsnr" v="166402" />
	</node>
	<node lat="60.57845555208154" lon="5.2193249985119605" id="-38029">
		<tag k="name" v="Kråkevika" />
		<tag k="natural" v="bay" />
		<tag k="ssr:stedsnr" v="166405" />
	</node>
	<node lat="60.60880278016171" lon="5.204425002968931" id="-38033">
		<tag k="name" v="Torsvika" />
		<tag k="natural" v="bay" />
		<tag k="ssr:stedsnr" v="166413" />
	</node>
	<node lat="60.66379722645873" lon="5.576880552537139" id="-38035">
		<tag k="name" v="Sjurneset" />
		<tag k="natural" v="cape" />
		<tag k="ssr:stedsnr" v="166602" />
	</node>
	<node lat="60.62971388632869" lon="5.496675007359308" id="-38047">
		<tag k="name" v="Skåraholmen" />
		<tag k="place" v="islet" />
		<tag k="ssr:stedsnr" v="166515" />
	</node>
	<node lat="60.63960277749247" lon="5.007488896811999" id="-38053">
		<tag k="name" v="Krabbestraumen" />
		<tag k="natural" v="bay" />
		<tag k="ssr:stedsnr" v="166582" />
	</node>
	<node lat="60.606086107330555" lon="5.1417694359915025" id="-38055">
		<tag k="name" v="Buvika" />
		<tag k="natural" v="bay" />
		<tag k="ssr:stedsnr" v="166721" />
	</node>
	<node lat="60.624419447340294" lon="5.170202781271929" id="-38056">
		<tag k="name" v="Solheimsvika" />
		<tag k="natural" v="bay" />
		<tag k="ssr:stedsnr" v="166724" />
	</node>
	<node lat="60.54954721770791" lon="5.240127770711761" id="-38065">
		<tag k="name" v="Sandvikane" />
		<tag k="natural" v="bay" />
		<tag k="ssr:stedsnr" v="167259" />
	</node>
	<node lat="60.5778388849628" lon="5.012675005637454" id="-38071">
		<tag k="name" v="Sandvika" />
		<tag k="natural" v="bay" />
		<tag k="ssr:stedsnr" v="167319" />
	</node>
	<node lat="60.55686944715028" lon="5.034513882454137" id="-38073">
		<tag k="name" v="Gamlesvika" />
		<tag k="natural" v="bay" />
		<tag k="ssr:stedsnr" v="167326" />
	</node>
	<node lat="60.541172224571994" lon="5.050022223536164" id="-38076">
		<tag k="name" v="Beitingsvika" />
		<tag k="natural" v="bay" />
		<tag k="ssr:stedsnr" v="167371" />
	</node>
	<node lat="60.60694444411287" lon="5.0088722171027555" id="-38078">
		<tag k="name" v="Torskevika" />
		<tag k="natural" v="bay" />
		<tag k="ssr:stedsnr" v="167461" />
	</node>
	<node lat="60.570235322328045" lon="5.22943443859854" id="-38087">
		<tag k="name" v="Alverstraumen" />
		<tag k="natural" v="strait" />
		<tag k="ssr:stedsnr" v="188089" />
	</node>
	<node lat="60.69231666852586" lon="4.913527779922867" id="-38098">
		<tag k="name" v="Grønholmen" />
		<tag k="place" v="islet" />
		<tag k="ssr:stedsnr" v="188813" />
	</node>
	<node lat="60.74765555268053" lon="4.831427769436291" id="-38100">
		<tag k="alt_name" v="Sandholmen" />
		<tag k="name" v="Sandholmane" />
		<tag k="place" v="islet" />
		<tag k="ssr:stedsnr" v="188884" />
	</node>
	<node lat="60.745108331728694" lon="4.919186117862736" id="-38101">
		<tag k="bay" v="fjord" />
		<tag k="name" v="Hoplandsosen" />
		<tag k="natural" v="bay" />
		<tag k="ssr:stedsnr" v="188895" />
	</node>
	<node lat="60.56562499772846" lon="5.039886111572534" id="-38103">
		<tag k="name" v="Rosslandspollen" />
		<tag k="natural" v="bay" />
		<tag k="ssr:stedsnr" v="188928" />
	</node>
	<node lat="60.58290278010901" lon="4.9989916645306405" id="-38104">
		<tag k="alt_name" v="Skorpøy" />
		<tag k="name" v="Skorpo" />
		<tag k="place" v="islet" />
		<tag k="ssr:stedsnr" v="188939" />
	</node>
	<node lat="60.59337499899608" lon="4.980402774783052" id="-38106">
		<tag k="name" v="Buhelrevika" />
		<tag k="natural" v="bay" />
		<tag k="ssr:stedsnr" v="188945" />
	</node>
	<node lat="60.61316388773584" lon="5.06437778365984" id="-38108">
		<tag k="fixme" v="multiple name tags, choose one and add the other to alt_name" />
		<tag k="name" v="Øytangen;Nordre Bongnetangen" />
		<tag k="natural" v="cape" />
		<tag k="ssr:stedsnr" v="188970" />
	</node>
	<node lat="60.63111111008901" lon="4.997055555307705" id="-38109">
		<tag k="name" v="Toskeflua" />
		<tag k="natural" v="shoal" />
		<tag k="place" v="locality" />
		<tag k="ssr:stedsnr" v="188973" />
	</node>
	<node lat="60.638919446755104" lon="4.942669444541115" id="-38111">
		<tag k="alt_name" v="Lamholmen, nordre" />
		<tag k="name" v="Nordre Lamholmen" />
		<tag k="place" v="islet" />
		<tag k="ssr:stedsnr" v="188977" />
	</node>
	<node lat="60.78134444554258" lon="5.183552774733634" id="-38118">
		<tag k="bay" v="fjord" />
		<tag k="name" v="Fensfjorden" />
		<tag k="natural" v="bay" />
		<tag k="ssr:stedsnr" v="263243" />
	</node>
	<node lat="60.57042500002631" lon="5.188947229679646" id="-38121">
		<tag k="name" v="Søra Merkesvika" />
		<tag k="natural" v="bay" />
		<tag k="old_name" v="Søra Merkesvik" />
		<tag k="ssr:stedsnr" v="267470" />
	</node>
	<node lat="60.77808435968145" lon="5.004907316733192" id="-38123">
		<tag k="name" v="Vabeinsflua" />
		<tag k="natural" v="shoal" />
		<tag k="place" v="locality" />
		<tag k="ssr:stedsnr" v="267129" />
	</node>
	<node lat="60.62311944480529" lon="5.075333329685226" id="-38124">
		<tag k="name" v="Nordre Bogevågen" />
		<tag k="natural" v="bay" />
		<tag k="ssr:stedsnr" v="267197" />
	</node>
	<node lat="60.78080278085486" lon="5.033552772509314" id="-38126">
		<tag k="name" v="Parisholmen" />
		<tag k="place" v="islet" />
		<tag k="ssr:stedsnr" v="267148" />
	</node>
	<node lat="60.791755559611474" lon="5.071297223637404" id="-38127">
		<tag k="name" v="Kvernhusneset" />
		<tag k="natural" v="cape" />
		<tag k="ssr:stedsnr" v="267156" />
	</node>
	<node lat="60.77982818050224" lon="5.13798134748019" id="-38128">
		<tag k="fixme" v="consider seamark:type=rock or natural=shoal" />
		<tag k="name" v="Austskjeret" />
		<tag k="place" v="islet" />
		<tag k="ssr:stedsnr" v="267160" />
	</node>
	<node lat="60.72749722351644" lon="4.888847215070976" id="-38129">
		<tag k="name" v="Syltesundet" />
		<tag k="natural" v="strait" />
		<tag k="ssr:stedsnr" v="267176" />
	</node>
	<node lat="60.63245277396503" lon="5.282300009551911" id="-38130">
		<tag k="name" v="Botn" />
		<tag k="natural" v="bay" />
		<tag k="ssr:stedsnr" v="267291" />
	</node>
	<node lat="60.66887499559774" lon="5.130894441563762" id="-38131">
		<tag k="alt_name" v="Bergfjordvågen" />
		<tag k="name" v="Berfjordvågen" />
		<tag k="natural" v="bay" />
		<tag k="ssr:stedsnr" v="267256" />
	</node>
	<node lat="60.67157499763322" lon="5.131319439068356" id="-38132">
		<tag k="name" v="Søre Langenesvågen" />
		<tag k="natural" v="bay" />
		<tag k="ssr:stedsnr" v="267258" />
	</node>
	<node lat="60.53474166289144" lon="5.271011110780724" id="-38133">
		<tag k="name" v="Lakseneset" />
		<tag k="natural" v="cape" />
		<tag k="ssr:stedsnr" v="267481" />
	</node>
	<node lat="60.619255551768" lon="5.183108337552206" id="-38134">
		<tag k="name" v="Salsneset" />
		<tag k="natural" v="cape" />
		<tag k="ssr:stedsnr" v="267495" />
	</node>
	<node lat="60.56809166410008" lon="5.044499993641757" id="-38135">
		<tag k="name" v="Mjølkevika" />
		<tag k="natural" v="bay" />
		<tag k="ssr:stedsnr" v="267549" />
	</node>
	<node lat="60.63659166285135" lon="4.951700003438835" id="-38137">
		<tag k="fixme" v="consider seamark:type=rock or natural=shoal" />
		<tag k="name" v="Lamholmskjeret" />
		<tag k="place" v="islet" />
		<tag k="ssr:stedsnr" v="267676" />
	</node>
	<node lat="60.71071944688485" lon="4.874166673224444" id="-38138">
		<tag k="name" v="Hestholmvågen" />
		<tag k="natural" v="bay" />
		<tag k="ssr:stedsnr" v="206207" />
	</node>
	<node lat="60.73458889223464" lon="4.848258327019435" id="-38139">
		<tag k="fixme" v="consider seamark:type=rock or natural=shoal" />
		<tag k="name" v="Bøskjeret" />
		<tag k="place" v="islet" />
		<tag k="ssr:stedsnr" v="206208" />
	</node>
	<node lat="60.73202499972718" lon="4.93436665940358" id="-38141">
		<tag k="alt_name" v="Lokkevågen" />
		<tag k="name" v="Lokkevågane" />
		<tag k="natural" v="bay" />
		<tag k="ssr:stedsnr" v="206212" />
	</node>
	<node lat="60.60455833342091" lon="4.949608324303558" id="-38142">
		<tag k="name" v="Klokkarneset" />
		<tag k="natural" v="cape" />
		<tag k="ssr:stedsnr" v="206649" />
	</node>
	<node lat="60.6091527747531" lon="5.057152774801288" id="-38146">
		<tag k="name" v="Kvalvikneset" />
		<tag k="natural" v="cape" />
		<tag k="ssr:stedsnr" v="207603" />
	</node>
	<node lat="60.68790555935252" lon="5.179072220604424" id="-38148">
		<tag k="name" v="Håvarden" />
		<tag k="natural" v="shoal" />
		<tag k="place" v="locality" />
		<tag k="ssr:stedsnr" v="268859" />
	</node>
	<node lat="60.715527779889285" lon="5.175016658403071" id="-38149">
		<tag k="fixme" v="consider seamark:type=rock or natural=shoal" />
		<tag k="name" v="Maråsskjeret" />
		<tag k="place" v="islet" />
		<tag k="ssr:stedsnr" v="268864" />
	</node>
	<node lat="60.67173014830304" lon="5.1661832346176855" id="-38159">
		<tag k="name" v="Nothusholmane" />
		<tag k="place" v="islet" />
		<tag k="ssr:stedsnr" v="226292" />
	</node>
	<node lat="60.57730101078221" lon="5.2278508869452605" id="-38160">
		<tag k="fixme" v="consider seamark:type=rock or natural=shoal" />
		<tag k="loc_name" v="Hundaskjeret" />
		<tag k="name" v="Hundeskjeret" />
		<tag k="place" v="islet" />
		<tag k="ssr:stedsnr" v="226442" />
	</node>
	<node lat="60.63733888563446" lon="5.44508333098487" id="-38163">
		<tag k="name" v="Hopen" />
		<tag k="natural" v="bay" />
		<tag k="ssr:stedsnr" v="226343" />
	</node>
	<node lat="60.691216666249545" lon="5.340019440057031" id="-38166">
		<tag k="name" v="Tverrneset" />
		<tag k="natural" v="cape" />
		<tag k="ssr:stedsnr" v="226804" />
	</node>
	<node lat="60.640063885686864" lon="5.395169446376469" id="-38168">
		<tag k="name" v="Svindalsvågen" />
		<tag k="natural" v="bay" />
		<tag k="ssr:stedsnr" v="226809" />
	</node>
	<node lat="60.712738886495245" lon="5.031980547313458" id="-38171">
		<tag k="name" v="Notneset" />
		<tag k="natural" v="cape" />
		<tag k="ssr:stedsnr" v="226742" />
	</node>
	<node lat="60.713105552271514" lon="5.033794453282548" id="-38172">
		<tag k="name" v="Skarpneset" />
		<tag k="natural" v="cape" />
		<tag k="ssr:stedsnr" v="226744" />
	</node>
	<node lat="60.63966667006603" lon="5.21243610599814" id="-38197">
		<tag k="name" v="Vallevika" />
		<tag k="natural" v="bay" />
		<tag k="ssr:stedsnr" v="227333" />
	</node>
	<node lat="60.638355556025466" lon="5.2151888838725675" id="-38198">
		<tag k="name" v="Pollen" />
		<tag k="natural" v="bay" />
		<tag k="ssr:stedsnr" v="227335" />
	</node>
	<node lat="60.6903361127717" lon="5.367819451062103" id="-38200">
		<tag k="name" v="Storvika" />
		<tag k="natural" v="bay" />
		<tag k="ssr:stedsnr" v="227376" />
	</node>
	<node lat="60.66970939567407" lon="5.1014174276328985" id="-38203">
		<tag k="name" v="Søre Eidsvika" />
		<tag k="natural" v="bay" />
		<tag k="ssr:stedsnr" v="227550" />
	</node>
	<node lat="60.66154166592989" lon="4.966505549748496" id="-38204">
		<tag k="name" v="Vassvika" />
		<tag k="natural" v="bay" />
		<tag k="ssr:stedsnr" v="227289" />
	</node>
	<node lat="60.645708329377435" lon="5.4463583372676245" id="-38206">
		<tag k="name" v="Åmundsholmen" />
		<tag k="place" v="islet" />
		<tag k="ssr:stedsnr" v="227433" />
	</node>
	<node lat="60.72683056006905" lon="5.071816670358483" id="-38209">
		<tag k="name" v="Skata" />
		<tag k="place" v="islet" />
		<tag k="ssr:stedsnr" v="227485" />
	</node>
	<node lat="60.72300000415574" lon="4.930513892483979" id="-38211">
		<tag k="name" v="Klubben" />
		<tag k="natural" v="cape" />
		<tag k="ssr:stedsnr" v="227491" />
	</node>
	<node lat="60.74111666838887" lon="5.076069440130151" id="-38212">
		<tag k="name" v="Vanlukka" />
		<tag k="place" v="island" />
		<tag k="ssr:stedsnr" v="227496" />
	</node>
	<node lat="60.713080555602275" lon="4.917322214087559" id="-38213">
		<tag k="name" v="Hanevika" />
		<tag k="natural" v="bay" />
		<tag k="ssr:stedsnr" v="227501" />
	</node>
	<node lat="60.690919447171524" lon="5.580872220336459" id="-38217">
		<tag k="name" v="Steinneset" />
		<tag k="natural" v="cape" />
		<tag k="ssr:stedsnr" v="227734" />
	</node>
	<node lat="60.727845577505235" lon="5.650559249679035" id="-38224">
		<tag k="name" v="Stortoneset" />
		<tag k="natural" v="cape" />
		<tag k="ssr:stedsnr" v="227938" />
	</node>
	<node lat="60.72793611093059" lon="5.659813881617397" id="-38231">
		<tag k="name" v="Vetle Askvika" />
		<tag k="natural" v="bay" />
		<tag k="ssr:stedsnr" v="227986" />
	</node>
	<node lat="60.514041668863186" lon="5.247391659011778" id="-38233">
		<tag k="name" v="Badevika" />
		<tag k="natural" v="bay" />
		<tag k="ssr:stedsnr" v="228282" />
	</node>
	<node lat="60.54003610963555" lon="5.24513056452814" id="-38241">
		<tag k="name" v="Flatøyosen" />
		<tag k="natural" v="bay" />
		<tag k="ssr:stedsnr" v="449492" />
	</node>
	<node lat="60.5363694428818" lon="5.246122215835551" id="-38244">
		<tag k="name" v="Lensmannsflua" />
		<tag k="natural" v="shoal" />
		<tag k="place" v="locality" />
		<tag k="ssr:stedsnr" v="449510" />
	</node>
	<node lat="60.57251944586601" lon="5.2056694392137395" id="-38245">
		<tag k="name" v="Gondstøholmen" />
		<tag k="place" v="islet" />
		<tag k="ssr:stedsnr" v="449628" />
	</node>
	<node lat="60.70291944359455" lon="5.1814305487986525" id="-38248">
		<tag k="name" v="Høyvikneset" />
		<tag k="natural" v="cape" />
		<tag k="ssr:stedsnr" v="248172" />
	</node>
	<node lat="60.74034999709366" lon="5.262741676080154" id="-38252">
		<tag k="name" v="Vadbuneset" />
		<tag k="natural" v="cape" />
		<tag k="ssr:stedsnr" v="248654" />
	</node>
	<node lat="60.658136113088176" lon="4.9097888883553145" id="-38255">
		<tag k="alt_name" v="Stora Arneset" />
		<tag k="name" v="Arneset" />
		<tag k="natural" v="cape" />
		<tag k="ssr:stedsnr" v="248998" />
	</node>
	<node lat="60.66268333064607" lon="4.943599994515527" id="-38256">
		<tag k="name" v="Floskallane" />
		<tag k="natural" v="shoal" />
		<tag k="place" v="locality" />
		<tag k="ssr:stedsnr" v="249000" />
	</node>
	<node lat="60.643580555999904" lon="4.998422228985556" id="-38262">
		<tag k="fixme" v="consider seamark:type=rock or natural=shoal" />
		<tag k="name" v="Gulaskjeret" />
		<tag k="place" v="islet" />
		<tag k="ssr:stedsnr" v="267206" />
	</node>
	<node lat="60.69553055435926" lon="5.0819194524864715" id="-38263">
		<tag k="name" v="Kyrkjeholmen" />
		<tag k="place" v="islet" />
		<tag k="ssr:stedsnr" v="267217" />
	</node>
	<node lat="60.70285556008696" lon="5.09137222664716" id="-38264">
		<tag k="name" v="Utlurtangane" />
		<tag k="natural" v="cape" />
		<tag k="ssr:stedsnr" v="267243" />
	</node>
	<node lat="60.69175833627654" lon="5.125483337370336" id="-38265">
		<tag k="name" v="Gongstøa" />
		<tag k="natural" v="bay" />
		<tag k="ssr:stedsnr" v="267245" />
	</node>
	<node lat="60.76826388815562" lon="5.033597222320107" id="-38266">
		<tag k="name" v="Keilegavlvika" />
		<tag k="natural" v="bay" />
		<tag k="ssr:stedsnr" v="267113" />
	</node>
	<node lat="60.75122499832229" lon="5.048708341242465" id="-38267">
		<tag k="name" v="Bjelkesundholmen" />
		<tag k="place" v="islet" />
		<tag k="ssr:stedsnr" v="267114" />
	</node>
	<node lat="60.71966110719466" lon="4.972030554480926" id="-38269">
		<tag k="fixme" v="consider seamark:type=rock or natural=shoal" />
		<tag k="name" v="Treskarskjera" />
		<tag k="place" v="islet" />
		<tag k="ssr:stedsnr" v="267182" />
	</node>
	<node lat="60.59788610811153" lon="5.084541664125732" id="-38270">
		<tag k="fixme" v="consider seamark:type=rock or natural=shoal" />
		<tag k="name" v="Vågsmunnskjeret" />
		<tag k="place" v="islet" />
		<tag k="ssr:stedsnr" v="267636" />
	</node>
	<node lat="60.74859999903546" lon="4.849000000545087" id="-38271">
		<tag k="name" v="Myrbærholmen" />
		<tag k="place" v="islet" />
		<tag k="ssr:stedsnr" v="267833" />
	</node>
	<node lat="60.763841669103115" lon="5.112730551788077" id="-38277">
		<tag k="name" v="Gjerdvågstraumen" />
		<tag k="natural" v="strait" />
		<tag k="ssr:stedsnr" v="287032" />
	</node>
	<node lat="60.547141669166685" lon="5.273422224199844" id="-38279">
		<tag k="name" v="Litlavika" />
		<tag k="natural" v="bay" />
		<tag k="ssr:stedsnr" v="287086" />
	</node>
	<node lat="60.71916388765317" lon="5.186024997426069" id="-38285">
		<tag k="name" v="Haugsneset" />
		<tag k="natural" v="cape" />
		<tag k="ssr:stedsnr" v="287202" />
	</node>
	<node lat="60.636636115195394" lon="5.237775003135745" id="-38291">
		<tag k="name" v="Pålsholet" />
		<tag k="natural" v="bay" />
		<tag k="ssr:stedsnr" v="287102" />
	</node>
	<node lat="60.76257500393537" lon="5.184913890094952" id="-38298">
		<tag k="name" v="Lyngholmen" />
		<tag k="place" v="islet" />
		<tag k="ssr:stedsnr" v="287179" />
	</node>
	<node lat="60.71666944191961" lon="5.128625002410424" id="-38300">
		<tag k="name" v="Vågane" />
		<tag k="natural" v="bay" />
		<tag k="ssr:stedsnr" v="287191" />
	</node>
	<node lat="60.6792666652029" lon="5.1440694478569915" id="-38304">
		<tag k="name" v="Tjørnnesklumpen" />
		<tag k="natural" v="cape" />
		<tag k="ssr:stedsnr" v="287306" />
	</node>
	<node lat="60.69939444604557" lon="5.14595278537945" id="-38307">
		<tag k="name" v="Dordihusvika" />
		<tag k="natural" v="bay" />
		<tag k="ssr:stedsnr" v="287337" />
	</node>
	<node lat="60.56486944452687" lon="5.224566659389459" id="-38312">
		<tag k="fixme" v="consider seamark:type=rock or natural=shoal" />
		<tag k="name" v="Hillandskjera" />
		<tag k="place" v="islet" />
		<tag k="ssr:stedsnr" v="287432" />
	</node>
	<node lat="60.577966649083" lon="5.226243832649273" id="-38314">
		<tag k="name" v="Geitøyna" />
		<tag k="place" v="island" />
		<tag k="ssr:stedsnr" v="287437" />
	</node>
	<node lat="60.5760055514447" lon="5.378238889457283" id="-38320">
		<tag k="name" v="Fløsviknakken" />
		<tag k="natural" v="cape" />
		<tag k="ssr:stedsnr" v="287383" />
	</node>
	<node lat="60.79148055865483" lon="4.9961361160598585" id="-38321">
		<tag k="name" v="Midttangvågen" />
		<tag k="natural" v="bay" />
		<tag k="ssr:stedsnr" v="287503" />
	</node>
	<node lat="60.737275000285656" lon="5.065927772470446" id="-38322">
		<tag k="name" v="Skrubbholmen" />
		<tag k="place" v="islet" />
		<tag k="ssr:stedsnr" v="287532" />
	</node>
	<node lat="60.72150555149047" lon="5.0935333396694285" id="-38323">
		<tag k="name" v="Straumsøyna" />
		<tag k="place" v="island" />
		<tag k="ssr:stedsnr" v="287536" />
	</node>
	<node lat="60.72493361031028" lon="5.049838252786043" id="-38326">
		<tag k="bay" v="fjord" />
		<tag k="name" v="Lurefjorden" />
		<tag k="natural" v="bay" />
		<tag k="ssr:stedsnr" v="287590" />
	</node>
	<node lat="60.73742777501207" lon="5.08193055889136" id="-38327">
		<tag k="name" v="Bøholmen" />
		<tag k="place" v="islet" />
		<tag k="ssr:stedsnr" v="287596" />
	</node>
	<node lat="60.68939166899814" lon="5.11068611140228" id="-38329">
		<tag k="name" v="Utlurvågen" />
		<tag k="natural" v="bay" />
		<tag k="ssr:stedsnr" v="287601" />
	</node>
	<node lat="60.606382479166534" lon="5.1189728240658425" id="-38335">
		<tag k="name" v="Inste Grimstevika" />
		<tag k="natural" v="bay" />
		<tag k="ssr:stedsnr" v="287738" />
	</node>
	<node lat="60.602277776057306" lon="5.199844445872285" id="-38338">
		<tag k="name" v="Storsandane" />
		<tag k="natural" v="beach" />
		<tag k="ssr:stedsnr" v="287793" />
	</node>
	<node lat="60.55342222162496" lon="5.012474999991254" id="-38348">
		<tag k="name" v="Nordre Klubben" />
		<tag k="natural" v="cape" />
		<tag k="ssr:stedsnr" v="288302" />
	</node>
	<node lat="60.69092222607368" lon="4.922599990711659" id="-38349">
		<tag k="name" v="Notneset" />
		<tag k="natural" v="cape" />
		<tag k="ssr:stedsnr" v="288329" />
	</node>
	<node lat="60.70729444391068" lon="4.915249996613388" id="-38351">
		<tag k="name" v="Stølevågen" />
		<tag k="natural" v="bay" />
		<tag k="ssr:stedsnr" v="288337" />
	</node>
	<node lat="60.63912499699624" lon="5.033638892990378" id="-38354">
		<tag k="name" v="Mangerspollen" />
		<tag k="natural" v="bay" />
		<tag k="ssr:stedsnr" v="288540" />
	</node>
	<node lat="60.63758055696097" lon="5.003858333386746" id="-38355">
		<tag k="name" v="Klubbetangen" />
		<tag k="natural" v="cape" />
		<tag k="ssr:stedsnr" v="288543" />
	</node>
	<node lat="60.636319446671486" lon="5.013172224392165" id="-38356">
		<tag k="name" v="Kjebogen" />
		<tag k="natural" v="bay" />
		<tag k="ssr:stedsnr" v="288549" />
	</node>
	<node lat="60.57462777601263" lon="5.013197224106608" id="-38359">
		<tag k="name" v="Garnvikneset" />
		<tag k="natural" v="cape" />
		<tag k="ssr:stedsnr" v="288287" />
	</node>
	<node lat="60.69174055293281" lon="5.124954899260801" id="-38362">
		<tag k="name" v="Gangstø" />
		<tag k="natural" v="bay" />
		<tag k="ssr:stedsnr" v="288297" />
	</node>
	<node lat="60.55391944867189" lon="5.076805556092534" id="-38365">
		<tag k="name" v="Vadholmen" />
		<tag k="place" v="islet" />
		<tag k="ssr:stedsnr" v="288409" />
	</node>
	<node lat="60.60920833731569" lon="5.191625000608627" id="-38381">
		<tag k="name" v="Storheimsstø" />
		<tag k="natural" v="bay" />
		<tag k="ssr:stedsnr" v="289002" />
	</node>
	<node lat="60.52535443383921" lon="5.154180709531887" id="-38385">
		<tag k="name" v="Holmeknappen" />
		<tag k="natural" v="cape" />
		<tag k="ssr:stedsnr" v="289381" />
	</node>
	<node lat="60.54576389098568" lon="5.0908833294174025" id="-38389">
		<tag k="name" v="Eidet" />
		<tag k="place" v="locality" />
		<tag k="ssr:stedsnr" v="289536" />
	</node>
	<node lat="60.7110000029963" lon="5.380008335728335" id="-38396">
		<tag k="name" v="Flustaken" />
		<tag k="natural" v="shoal" />
		<tag k="place" v="locality" />
		<tag k="ssr:stedsnr" v="309138" />
	</node>
	<node lat="60.676313885314485" lon="5.126805564944671" id="-38404">
		<tag k="alt_name" v="Nordre Langenesvågen" />
		<tag k="name" v="Austvågen" />
		<tag k="natural" v="bay" />
		<tag k="ssr:stedsnr" v="309184" />
	</node>
	<node lat="60.675024995936475" lon="5.152616659289832" id="-38405">
		<tag k="name" v="Toptingasundet" />
		<tag k="natural" v="strait" />
		<tag k="ssr:stedsnr" v="309188" />
	</node>
	<node lat="60.72265555241902" lon="5.365077777581229" id="-38411">
		<tag k="bay" v="fjord" />
		<tag k="name" v="Austfjorden" />
		<tag k="natural" v="bay" />
		<tag k="ssr:stedsnr" v="309687" />
	</node>
	<node lat="60.69940555189914" lon="5.07064165855194" id="-38412">
		<tag k="alt_name" v="Teigholmen" />
		<tag k="name" v="Sauholmen" />
		<tag k="place" v="islet" />
		<tag k="ssr:stedsnr" v="309803" />
	</node>
	<node lat="60.70625119265964" lon="4.902347951688223" id="-38413">
		<tag k="name" v="Nåla" />
		<tag k="natural" v="cape" />
		<tag k="ssr:stedsnr" v="309815" />
	</node>
	<node lat="60.70431944887534" lon="4.900683338575864" id="-38414">
		<tag k="name" v="Marøystraumen" />
		<tag k="natural" v="strait" />
		<tag k="ssr:stedsnr" v="309818" />
	</node>
	<node lat="60.722602773613566" lon="4.96468332481798" id="-38415">
		<tag k="name" v="Fiskemannssundet" />
		<tag k="natural" v="strait" />
		<tag k="ssr:stedsnr" v="309842" />
	</node>
	<node lat="60.69621389100573" lon="5.061202770728929" id="-38417">
		<tag k="name" v="Krosshamna" />
		<tag k="natural" v="bay" />
		<tag k="ssr:stedsnr" v="309737" />
	</node>
	<node lat="60.673222220797236" lon="4.903041672038218" id="-38422">
		<tag k="name" v="Skjeggholmen" />
		<tag k="place" v="islet" />
		<tag k="ssr:stedsnr" v="309997" />
	</node>
	<node lat="60.67763611040427" lon="4.872266662141258" id="-38423">
		<tag k="name" v="Duveskallen" />
		<tag k="natural" v="shoal" />
		<tag k="place" v="locality" />
		<tag k="ssr:stedsnr" v="309998" />
	</node>
	<node lat="60.54952221870389" lon="5.020894444271553" id="-38454">
		<tag k="name" v="Vardholmen" />
		<tag k="place" v="islet" />
		<tag k="ssr:stedsnr" v="469099" />
	</node>
	<node lat="60.74130833291121" lon="5.240480548710169" id="-38456">
		<tag k="name" v="Troveneset" />
		<tag k="natural" v="cape" />
		<tag k="ssr:stedsnr" v="469192" />
	</node>
	<node lat="60.74726944251203" lon="5.245425009386297" id="-38463">
		<tag k="name" v="Håneset" />
		<tag k="natural" v="cape" />
		<tag k="ssr:stedsnr" v="469146" />
	</node>
	<node lat="60.76449166221675" lon="5.117863888827686" id="-38464">
		<tag k="name" v="Flatholmen" />
		<tag k="place" v="islet" />
		<tag k="ssr:stedsnr" v="469147" />
	</node>
	<node lat="60.77581944171324" lon="5.1588666612191805" id="-38466">
		<tag k="name" v="Tyskebukta" />
		<tag k="natural" v="bay" />
		<tag k="ssr:stedsnr" v="469152" />
	</node>
	<node lat="60.76099722425017" lon="5.124738891710492" id="-38467">
		<tag k="name" v="Høgholmen" />
		<tag k="place" v="islet" />
		<tag k="ssr:stedsnr" v="469154" />
	</node>
	<node lat="60.69427222116487" lon="4.914186114159707" id="-38472">
		<tag k="name" v="Vøvika" />
		<tag k="natural" v="bay" />
		<tag k="ssr:stedsnr" v="469253" />
	</node>
	<node lat="60.70644166879241" lon="4.887313889701399" id="-38473">
		<tag k="name" v="Gardsendvika" />
		<tag k="natural" v="bay" />
		<tag k="ssr:stedsnr" v="469255" />
	</node>
	<node lat="60.6734361145967" lon="5.120116670808026" id="-38474">
		<tag k="name" v="Kaldnesholmane" />
		<tag k="place" v="islet" />
		<tag k="ssr:stedsnr" v="469256" />
	</node>
	<node lat="60.68655277740646" lon="4.9284805598227805" id="-38476">
		<tag k="name" v="Knappen" />
		<tag k="natural" v="cape" />
		<tag k="ssr:stedsnr" v="469330" />
	</node>
	<node lat="60.702694445318386" lon="5.3842999974783865" id="-38478">
		<tag k="name" v="Klungerholmflua" />
		<tag k="place" v="locality" />
		<tag k="seamark:type" v="rock" />
		<tag k="ssr:stedsnr" v="469295" />
	</node>
	<node lat="60.611208336390895" lon="5.401152771462503" id="-38481">
		<tag k="name" v="Vika" />
		<tag k="natural" v="bay" />
		<tag k="ssr:stedsnr" v="469346" />
	</node>
	<node lat="60.58318333661497" lon="5.368811105622138" id="-38482">
		<tag k="name" v="Grønvika" />
		<tag k="natural" v="bay" />
		<tag k="ssr:stedsnr" v="469347" />
	</node>
	<node lat="60.57646388810069" lon="5.198486110628489" id="-38485">
		<tag k="fixme" v="consider seamark:type=rock or natural=shoal" />
		<tag k="name" v="Kverneskjera" />
		<tag k="place" v="islet" />
		<tag k="ssr:stedsnr" v="469416" />
	</node>
	<node lat="60.702347222901395" lon="5.421925002292565" id="-38486">
		<tag k="alt_name" v="Skoravika, nordre" />
		<tag k="name" v="Nordre Skoravika" />
		<tag k="natural" v="bay" />
		<tag k="ssr:stedsnr" v="469417" />
	</node>
	<node lat="60.74396666750485" lon="4.879224996826906" id="-38488">
		<tag k="name" v="Borholmen" />
		<tag k="place" v="islet" />
		<tag k="ssr:stedsnr" v="469420" />
	</node>
	<node lat="60.73789166696342" lon="4.902163882557413" id="-38490">
		<tag k="name" v="Kvernhusneset" />
		<tag k="natural" v="cape" />
		<tag k="ssr:stedsnr" v="469422" />
	</node>
	<node lat="60.73436389064836" lon="5.304180563729792" id="-38496">
		<tag k="name" v="Naustholmen" />
		<tag k="place" v="islet" />
		<tag k="ssr:stedsnr" v="469392" />
	</node>
	<node lat="60.729369448043464" lon="5.064758341197133" id="-38500">
		<tag k="name" v="Dragøyholmane" />
		<tag k="place" v="islet" />
		<tag k="ssr:stedsnr" v="469521" />
	</node>
	<node lat="60.665152861482845" lon="5.360082723031367" id="-38503">
		<tag k="fixme" v="consider seamark:type=rock or natural=shoal" />
		<tag k="loc_name" v="Kobbaskjeret" />
		<tag k="name" v="Kobbaskjæret" />
		<tag k="place" v="islet" />
		<tag k="ssr:stedsnr" v="469525" />
	</node>
	<node lat="60.68158055407152" lon="5.108616666384894" id="-38508">
		<tag k="name" v="Lushola" />
		<tag k="natural" v="bay" />
		<tag k="ssr:stedsnr" v="469590" />
	</node>
	<node lat="60.59576111017203" lon="5.1647416591774915" id="-38521">
		<tag k="name" v="Grasholmen" />
		<tag k="place" v="islet" />
		<tag k="ssr:stedsnr" v="469793" />
	</node>
	<node lat="60.67170000145949" lon="5.468619437261117" id="-38532">
		<tag k="name" v="Naustvika" />
		<tag k="natural" v="bay" />
		<tag k="ssr:stedsnr" v="469754" />
	</node>
	<node lat="60.65827055291223" lon="4.991597907434302" id="-38540">
		<tag k="name" v="Skuthamna" />
		<tag k="natural" v="bay" />
		<tag k="ssr:stedsnr" v="327258" />
	</node>
	<node lat="60.689869134566514" lon="5.058525793920432" id="-38541">
		<tag k="name" v="Blomskogvik" />
		<tag k="natural" v="bay" />
		<tag k="ssr:stedsnr" v="327264" />
	</node>
	<node lat="60.54349166921479" lon="5.297702782167593" id="-38545">
		<tag k="name" v="Kvassneset" />
		<tag k="natural" v="cape" />
		<tag k="ssr:stedsnr" v="327513" />
	</node>
	<node lat="60.677897220054646" lon="5.126400006527108" id="-38548">
		<tag k="name" v="Seglholmen" />
		<tag k="natural" v="cape" />
		<tag k="ssr:stedsnr" v="328257" />
	</node>
	<node lat="60.56145555368587" lon="5.03819722466418" id="-38551">
		<tag k="name" v="Lundeneset" />
		<tag k="natural" v="cape" />
		<tag k="ssr:stedsnr" v="470229" />
	</node>
	<node lat="60.514552779144395" lon="5.190286119448461" id="-38552">
		<tag k="name" v="Kjerringabukta" />
		<tag k="natural" v="bay" />
		<tag k="ssr:stedsnr" v="328562" />
	</node>
	<node lat="60.5731527819137" lon="4.993244452244171" id="-38553">
		<tag k="name" v="Ieskorpa" />
		<tag k="natural" v="strait" />
		<tag k="ssr:stedsnr" v="328571" />
	</node>
	<node lat="60.55063333201562" lon="5.015511106334594" id="-38554">
		<tag k="name" v="Lamholmen" />
		<tag k="place" v="islet" />
		<tag k="ssr:stedsnr" v="328575" />
	</node>
	<node lat="60.591047224517936" lon="5.096575007724655" id="-38555">
		<tag k="name" v="Indra Kylpa" />
		<tag k="natural" v="bay" />
		<tag k="ssr:stedsnr" v="328659" />
	</node>
	<node lat="60.53932222367541" lon="5.252866668004474" id="-38556">
		<tag k="name" v="Marusvika" />
		<tag k="natural" v="bay" />
		<tag k="ssr:stedsnr" v="470254" />
	</node>
	<node lat="60.63898610906651" lon="5.215794438255737" id="-38557">
		<tag k="name" v="Pollneset" />
		<tag k="natural" v="cape" />
		<tag k="ssr:stedsnr" v="470299" />
	</node>
	<node lat="60.63306388531831" lon="5.227894452462697" id="-38559">
		<tag k="name" v="Storsteinvika" />
		<tag k="natural" v="bay" />
		<tag k="ssr:stedsnr" v="470301" />
	</node>
	<node lat="60.644194021074355" lon="5.1420999931494125" id="-38560">
		<tag k="name" v="Ospevika" />
		<tag k="natural" v="bay" />
		<tag k="ssr:stedsnr" v="470308" />
	</node>
	<node lat="60.5504277774489" lon="5.032494452995755" id="-38562">
		<tag k="name" v="Eikelandsvika" />
		<tag k="natural" v="bay" />
		<tag k="ssr:stedsnr" v="470333" />
	</node>
	<node lat="60.527594443064295" lon="5.135874996055994" id="-38564">
		<tag k="fixme" v="consider seamark:type=rock or natural=shoal" />
		<tag k="name" v="Ingeskjeret" />
		<tag k="place" v="islet" />
		<tag k="ssr:stedsnr" v="470343" />
	</node>
	<node lat="60.73760000126724" lon="4.901180558674282" id="-38568">
		<tag k="name" v="Kvernhusvågen" />
		<tag k="natural" v="bay" />
		<tag k="ssr:stedsnr" v="470359" />
	</node>
	<node lat="60.61841388868936" lon="5.081408338070945" id="-38570">
		<tag k="name" v="Djuvvika" />
		<tag k="natural" v="bay" />
		<tag k="ssr:stedsnr" v="470536" />
	</node>
	<node lat="60.72600833193972" lon="4.885341673735938" id="-38578">
		<tag k="fixme" v="consider seamark:type=rock or natural=shoal" />
		<tag k="loc_name" v="Kattholmskjer" />
		<tag k="name" v="Kattholmskjær" />
		<tag k="place" v="islet" />
		<tag k="ssr:stedsnr" v="470484" />
	</node>
	<node lat="60.63608055368027" lon="5.45563889769829" id="-38598">
		<tag k="name" v="Knutsvika" />
		<tag k="natural" v="bay" />
		<tag k="ssr:stedsnr" v="348155" />
	</node>
	<node lat="60.71623333696029" lon="5.136194447710413" id="-38599">
		<tag k="name" v="Vestrevågen" />
		<tag k="natural" v="bay" />
		<tag k="ssr:stedsnr" v="348173" />
	</node>
	<node lat="60.71484059724605" lon="5.159497143205138" id="-38600">
		<tag k="name" v="Osundholmen" />
		<tag k="place" v="islet" />
		<tag k="ssr:stedsnr" v="348178" />
	</node>
	<node lat="60.630144441269636" lon="5.177869439251682" id="-38611">
		<tag k="name" v="Slumpen" />
		<tag k="natural" v="bay" />
		<tag k="ssr:stedsnr" v="348328" />
	</node>
	<node lat="60.59577777515393" lon="5.215772227423895" id="-38614">
		<tag k="name" v="Indrefossvika" />
		<tag k="natural" v="bay" />
		<tag k="ssr:stedsnr" v="348366" />
	</node>
	<node lat="60.71836944774227" lon="4.858700008712209" id="-38616">
		<tag k="name" v="Forsøyvågen" />
		<tag k="natural" v="bay" />
		<tag k="ssr:stedsnr" v="348216" />
	</node>
	<node lat="60.73203611180932" lon="5.158486106755975" id="-38617">
		<tag k="name" v="Spjeldnessundet" />
		<tag k="natural" v="strait" />
		<tag k="ssr:stedsnr" v="348218" />
	</node>
	<node lat="60.70736666665127" lon="4.881936118605746" id="-38619">
		<tag k="name" v="Eldnesvågen" />
		<tag k="natural" v="bay" />
		<tag k="ssr:stedsnr" v="348254" />
	</node>
	<node lat="60.636649996273974" lon="4.960124996999104" id="-38622">
		<tag k="name" v="Eidvikneset" />
		<tag k="natural" v="cape" />
		<tag k="ssr:stedsnr" v="348265" />
	</node>
	<node lat="60.65583055905634" lon="4.9957027835914145" id="-38624">
		<tag k="name" v="Skjeltevika" />
		<tag k="natural" v="bay" />
		<tag k="ssr:stedsnr" v="348277" />
	</node>
	<node lat="60.825494444632945" lon="4.998452774242845" id="-38625">
		<tag k="name" v="Klubben" />
		<tag k="place" v="island" />
		<tag k="ssr:stedsnr" v="348406" />
	</node>
	<node lat="60.70230555360286" lon="5.349050006937147" id="-38626">
		<tag k="name" v="Litlevika" />
		<tag k="natural" v="bay" />
		<tag k="ssr:stedsnr" v="348410" />
	</node>
	<node lat="60.682669448832826" lon="5.088044447872673" id="-38632">
		<tag k="name" v="Stølevika" />
		<tag k="natural" v="bay" />
		<tag k="ssr:stedsnr" v="348511" />
	</node>
	<node lat="60.676811112057315" lon="5.605094440200185" id="-38639">
		<tag k="name" v="Porsvika" />
		<tag k="natural" v="bay" />
		<tag k="ssr:stedsnr" v="348754" />
	</node>
	<node lat="60.67085833188371" lon="5.583500003470136" id="-38640">
		<tag k="name" v="Lindebugen" />
		<tag k="natural" v="bay" />
		<tag k="ssr:stedsnr" v="348764" />
	</node>
	<node lat="60.72006666718467" lon="4.9681583340283435" id="-38642">
		<tag k="name" v="Ostevika" />
		<tag k="natural" v="bay" />
		<tag k="ssr:stedsnr" v="348454" />
	</node>
	<node lat="60.71716944777569" lon="4.91162500414314" id="-38644">
		<tag k="name" v="Kjeneset" />
		<tag k="natural" v="cape" />
		<tag k="ssr:stedsnr" v="348460" />
	</node>
	<node lat="60.59593611168954" lon="5.117333338007026" id="-38645">
		<tag k="name" v="Riplevika" />
		<tag k="natural" v="bay" />
		<tag k="ssr:stedsnr" v="348461" />
	</node>
	<node lat="60.711374998589534" lon="5.039319453676753" id="-38647">
		<tag k="name" v="Tunneset" />
		<tag k="natural" v="cape" />
		<tag k="ssr:stedsnr" v="348602" />
	</node>
	<node lat="60.611177779670506" lon="4.980338897726984" id="-38657">
		<tag k="name" v="Klenevågen" />
		<tag k="natural" v="bay" />
		<tag k="ssr:stedsnr" v="349465" />
	</node>
	<node lat="60.54255384878467" lon="5.253273238836127" id="-38658">
		<tag k="name" v="Langaneset" />
		<tag k="natural" v="cape" />
		<tag k="ssr:stedsnr" v="349307" />
	</node>
	<node lat="60.606591667709026" lon="5.107000004399051" id="-38664">
		<tag k="name" v="Apalneset" />
		<tag k="natural" v="cape" />
		<tag k="ssr:stedsnr" v="370020" />
	</node>
	<node lat="60.64086111049307" lon="5.400516659360187" id="-38667">
		<tag k="name" v="Æsevågen" />
		<tag k="natural" v="bay" />
		<tag k="ssr:stedsnr" v="370044" />
	</node>
	<node lat="60.642061115242925" lon="5.446094438790721" id="-38669">
		<tag k="alt_name" v="Storøy" />
		<tag k="name" v="Storøyna" />
		<tag k="place" v="islet" />
		<tag k="ssr:stedsnr" v="370048" />
	</node>
	<node lat="60.64463332969396" lon="5.445427776327684" id="-38670">
		<tag k="name" v="Tosko" />
		<tag k="place" v="islet" />
		<tag k="ssr:stedsnr" v="370049" />
	</node>
	<node lat="60.615986114011434" lon="5.122622214942162" id="-38671">
		<tag k="name" v="Kvamsøyhøgda" />
		<tag k="place" v="islet" />
		<tag k="ssr:stedsnr" v="370064" />
	</node>
	<node lat="60.68553333124541" lon="5.446686109459755" id="-38675">
		<tag k="name" v="Dyrdalsvika" />
		<tag k="natural" v="bay" />
		<tag k="ssr:stedsnr" v="370179" />
	</node>
	<node lat="60.67069513920802" lon="5.168070315579832" id="-38678">
		<tag k="fixme" v="multiple name tags, choose one and add the other to alt_name" />
		<tag k="name" v="Nothusholmane;Toftingholmen" />
		<tag k="place" v="islet" />
		<tag k="ssr:stedsnr" v="370268" />
	</node>
	<node lat="60.7234500023987" lon="5.0804194495741815" id="-38684">
		<tag k="name" v="Skarvøyna" />
		<tag k="place" v="islet" />
		<tag k="ssr:stedsnr" v="370768" />
	</node>
	<node lat="60.72691110840907" lon="5.086330554382524" id="-38685">
		<tag k="alt_name" v="Spjøtøyna" />
		<tag k="name" v="Spjotøyna" />
		<tag k="place" v="island" />
		<tag k="ssr:stedsnr" v="370769" />
	</node>
	<node lat="60.73500555590046" lon="4.884280562141474" id="-38687">
		<tag k="name" v="Syltneset" />
		<tag k="natural" v="cape" />
		<tag k="ssr:stedsnr" v="370862" />
	</node>
	<node lat="60.72743610676962" lon="4.872400000803034" id="-38688">
		<tag k="name" v="Dyrøya" />
		<tag k="place" v="island" />
		<tag k="ssr:stedsnr" v="370869" />
	</node>
	<node lat="60.77137778163977" lon="5.124241659895215" id="-38692">
		<tag k="name" v="Selvågen" />
		<tag k="natural" v="bay" />
		<tag k="ssr:stedsnr" v="372953" />
	</node>
	<node lat="60.63275277836034" lon="5.030841660574665" id="-38694">
		<tag k="fixme" v="consider seamark:type=rock or natural=shoal" />
		<tag k="name" v="Fugleskjeret" />
		<tag k="place" v="islet" />
		<tag k="ssr:stedsnr" v="387293" />
	</node>
	<node lat="60.700777778018924" lon="4.869794446345905" id="-38695">
		<tag k="name" v="Nordra Bøflua" />
		<tag k="natural" v="shoal" />
		<tag k="place" v="locality" />
		<tag k="ssr:stedsnr" v="388201" />
	</node>
	<node lat="60.6359694463023" lon="5.276586109055658" id="-38696">
		<tag k="name" v="Holmasundet" />
		<tag k="natural" v="strait" />
		<tag k="ssr:stedsnr" v="388302" />
	</node>
	<node lat="60.695780556147426" lon="5.164677778967133" id="-38697">
		<tag k="name" v="Kvalvågen" />
		<tag k="natural" v="bay" />
		<tag k="ssr:stedsnr" v="388291" />
	</node>
	<node lat="60.74258332938032" lon="4.839033335310244" id="-38698">
		<tag k="name" v="Store Klovning" />
		<tag k="place" v="islet" />
		<tag k="ssr:stedsnr" v="388819" />
	</node>
	<node lat="60.61191944507011" lon="5.203269438311109" id="-38699">
		<tag k="name" v="Lammaneset" />
		<tag k="natural" v="cape" />
		<tag k="ssr:stedsnr" v="389610" />
	</node>
	<node lat="60.6295689389464" lon="5.253988289818162" id="-38700">
		<tag k="name" v="Nordra Totlandsvika" />
		<tag k="natural" v="bay" />
		<tag k="old_name" v="Nordra Totlandsvik" />
		<tag k="ssr:stedsnr" v="389631" />
	</node>
	<node lat="60.73571944787145" lon="4.9005916614402905" id="-38715">
		<tag k="name" v="Melkevika" />
		<tag k="natural" v="bay" />
		<tag k="ssr:stedsnr" v="408442" />
	</node>
	<node lat="60.5992972192666" lon="5.407550003772962" id="-38716">
		<tag k="fixme" v="consider seamark:type=rock or natural=shoal" />
		<tag k="name" v="Kobbaskjeret" />
		<tag k="place" v="islet" />
		<tag k="ssr:stedsnr" v="408304" />
	</node>
	<node lat="60.70948888614635" lon="5.166980549157657" id="-38717">
		<tag k="name" v="Naustvika" />
		<tag k="natural" v="bay" />
		<tag k="ssr:stedsnr" v="408339" />
	</node>
	<node lat="60.59334722560168" lon="5.136241662041066" id="-38721">
		<tag k="name" v="Kyrkjesundet" />
		<tag k="natural" v="strait" />
		<tag k="ssr:stedsnr" v="408506" />
	</node>
	<node lat="60.69310833730593" lon="5.552844443377643" id="-38724">
		<tag k="name" v="Eikefetneset" />
		<tag k="natural" v="cape" />
		<tag k="ssr:stedsnr" v="408700" />
	</node>
	<node lat="60.554377773258835" lon="5.311752770940838" id="-38732">
		<tag k="name" v="Gjervika" />
		<tag k="natural" v="bay" />
		<tag k="ssr:stedsnr" v="409096" />
	</node>
	<node lat="60.71470833244009" lon="4.866199998935486" id="-38736">
		<tag k="name" v="Anglesund" />
		<tag k="natural" v="strait" />
		<tag k="ssr:stedsnr" v="409245" />
	</node>
	<node lat="60.7486888904799" lon="4.85588610383563" id="-38738">
		<tag k="name" v="Skarpholmen" />
		<tag k="place" v="islet" />
		<tag k="ssr:stedsnr" v="409246" />
	</node>
	<node lat="60.72395833664136" lon="5.2028972199868475" id="-38742">
		<tag k="name" v="Klubben" />
		<tag k="natural" v="cape" />
		<tag k="ssr:stedsnr" v="409199" />
	</node>
	<node lat="60.56966944432764" lon="5.385877773013465" id="-38743">
		<tag k="name" v="Fatavika" />
		<tag k="natural" v="bay" />
		<tag k="ssr:stedsnr" v="409341" />
	</node>
	<node lat="60.57361389126977" lon="5.384722228950885" id="-38744">
		<tag k="name" v="Litleholmen" />
		<tag k="place" v="islet" />
		<tag k="ssr:stedsnr" v="409343" />
	</node>
	<node lat="60.64361111142281" lon="5.229822229148218" id="-38745">
		<tag k="name" v="Nesvika" />
		<tag k="natural" v="bay" />
		<tag k="ssr:stedsnr" v="409322" />
	</node>
	<node lat="60.65824166775824" lon="4.982811106485365" id="-38753">
		<tag k="name" v="Hellaneset" />
		<tag k="natural" v="cape" />
		<tag k="ssr:stedsnr" v="409299" />
	</node>
	<node lat="60.699887036007695" lon="5.388692990031019" id="-38754">
		<tag k="name" v="Kyrkjesundet" />
		<tag k="natural" v="strait" />
		<tag k="ssr:stedsnr" v="409412" />
	</node>
	<node lat="60.728227775472206" lon="4.962361106475598" id="-38755">
		<tag k="name" v="Hola" />
		<tag k="natural" v="bay" />
		<tag k="ssr:stedsnr" v="409451" />
	</node>
	<node lat="60.71839444442533" lon="5.105494449555515" id="-38757">
		<tag k="name" v="Hanøystraumen" />
		<tag k="natural" v="strait" />
		<tag k="ssr:stedsnr" v="409494" />
	</node>
	<node lat="60.61528333652701" lon="5.472652775378043" id="-38760">
		<tag k="name" v="Merkesneset" />
		<tag k="natural" v="cape" />
		<tag k="ssr:stedsnr" v="409605" />
	</node>
	<node lat="60.64706388912602" lon="5.113172218011986" id="-38761">
		<tag k="name" v="Klubben" />
		<tag k="place" v="islet" />
		<tag k="ssr:stedsnr" v="409606" />
	</node>
	<node lat="60.57366944414712" lon="5.229769444053965" id="-38765">
		<tag k="name" v="Alvervika" />
		<tag k="natural" v="bay" />
		<tag k="ssr:stedsnr" v="409394" />
	</node>
	<node lat="60.63227777477335" lon="5.492288893702831" id="-38766">
		<tag k="name" v="Grunnevågen" />
		<tag k="natural" v="bay" />
		<tag k="ssr:stedsnr" v="409506" />
	</node>
	<node lat="60.69755833333669" lon="5.092325005977575" id="-38767">
		<tag k="name" v="Smørhavnen" />
		<tag k="natural" v="bay" />
		<tag k="ssr:stedsnr" v="409511" />
	</node>
	<node lat="60.65947222405125" lon="5.094075008536136" id="-38774">
		<tag k="name" v="Litleholmen" />
		<tag k="place" v="islet" />
		<tag k="ssr:stedsnr" v="409553" />
	</node>
	<node lat="60.57250833753331" lon="5.183394435375572" id="-38788">
		<tag k="name" v="Utrenna" />
		<tag k="natural" v="bay" />
		<tag k="ssr:stedsnr" v="410246" />
	</node>
	<node lat="60.563744444965195" lon="5.047624992021524" id="-38789">
		<tag k="name" v="Storavika" />
		<tag k="natural" v="bay" />
		<tag k="ssr:stedsnr" v="410249" />
	</node>
	<node lat="60.56362778173751" lon="5.042633335880217" id="-38790">
		<tag k="name" v="Saueneset" />
		<tag k="natural" v="cape" />
		<tag k="ssr:stedsnr" v="410250" />
	</node>
	<node lat="60.56168055702666" lon="4.994755554640844" id="-38792">
		<tag k="name" v="Laksenesest" />
		<tag k="natural" v="cape" />
		<tag k="ssr:stedsnr" v="410310" />
	</node>
	<node lat="60.578555552581236" lon="5.012597223218263" id="-38793">
		<tag k="name" v="Åvneset" />
		<tag k="natural" v="cape" />
		<tag k="ssr:stedsnr" v="410317" />
	</node>
	<node lat="60.551911770293856" lon="5.020245697943788" id="-38794">
		<tag k="name" v="Søreklubben" />
		<tag k="natural" v="cape" />
		<tag k="ssr:stedsnr" v="410327" />
	</node>
	<node lat="60.553384408180364" lon="5.25045672411566" id="-38808">
		<tag k="bay" v="fjord" />
		<tag k="name" v="Kvernafjorden" />
		<tag k="natural" v="bay" />
		<tag k="ssr:stedsnr" v="431107" />
	</node>
	<node lat="60.558427776681825" lon="5.226469446877689" id="-38809">
		<tag k="name" v="Tjuvholmen" />
		<tag k="place" v="islet" />
		<tag k="ssr:stedsnr" v="431111" />
	</node>
	<node lat="60.604508331339055" lon="5.438455560270756" id="-38810">
		<tag k="alt_name" v="Eiknesvågen" />
		<tag k="name" v="Eknesvågen" />
		<tag k="natural" v="bay" />
		<tag k="ssr:stedsnr" v="431113" />
	</node>
	<node lat="60.68493333007591" lon="5.4463138949381955" id="-38812">
		<tag k="name" v="Dyrdalsneset" />
		<tag k="natural" v="cape" />
		<tag k="ssr:stedsnr" v="491152" />
	</node>
	<node lat="60.684655554639264" lon="5.382436110541527" id="-38813">
		<tag k="name" v="Langholmen" />
		<tag k="place" v="islet" />
		<tag k="ssr:stedsnr" v="491159" />
	</node>
	<node lat="60.68251666542467" lon="5.102086120156995" id="-38823">
		<tag k="alt_name" v="Salhus" />
		<tag k="name" v="Salhuset" />
		<tag k="place" v="island" />
		<tag k="ssr:stedsnr" v="491168" />
	</node>
	<node lat="60.63032778052303" lon="5.518299994934038" id="-38830">
		<tag k="alt_name" v="Skorabogen" />
		<tag k="name" v="Skårabogen" />
		<tag k="natural" v="bay" />
		<tag k="ssr:stedsnr" v="431739" />
	</node>
	<node lat="60.71263889181575" lon="4.902799996258991" id="-38833">
		<tag k="name" v="Bøneset" />
		<tag k="natural" v="cape" />
		<tag k="ssr:stedsnr" v="431842" />
	</node>
	<node lat="60.7133249953257" lon="5.032136103610359" id="-38834">
		<tag k="name" v="Pino" />
		<tag k="natural" v="cape" />
		<tag k="ssr:stedsnr" v="431844" />
	</node>
	<node lat="60.72120555301245" lon="4.932575008789615" id="-38835">
		<tag k="alt_name" v="Vågsbotnen, in;Indre Vågsbotn" />
		<tag k="name" v="Indre Vågsbotnen" />
		<tag k="natural" v="bay" />
		<tag k="ssr:stedsnr" v="431849" />
	</node>
	<node lat="60.71782778208408" lon="4.8651027783201055" id="-38836">
		<tag k="alt_name" v="Forsøy" />
		<tag k="name" v="Forsøyna" />
		<tag k="place" v="island" />
		<tag k="ssr:stedsnr" v="431854" />
	</node>
	<node lat="60.541497218631996" lon="5.288005554686655" id="-38837">
		<tag k="name" v="Knarvik" />
		<tag k="natural" v="bay" />
		<tag k="ssr:stedsnr" v="491427" />
	</node>
	<node lat="60.59143333179269" lon="4.99265277294555" id="-38838">
		<tag k="alt_name" v="Sætrevik" />
		<tag k="name" v="Sætrevika" />
		<tag k="natural" v="bay" />
		<tag k="ssr:stedsnr" v="431942" />
	</node>
	<node lat="60.61135833294943" lon="4.983136115659479" id="-38840">
		<tag k="name" v="Skålholmane" />
		<tag k="place" v="islet" />
		<tag k="ssr:stedsnr" v="431952" />
	</node>
	<node lat="60.654041776623" lon="4.992681527189635" id="-38841">
		<tag k="alt_name" v="Træsholmen" />
		<tag k="name" v="Trædsholmen" />
		<tag k="place" v="islet" />
		<tag k="ssr:stedsnr" v="431986" />
	</node>
	<node lat="60.546686115444864" lon="5.237422221701905" id="-38845">
		<tag k="name" v="Håøyna" />
		<tag k="place" v="islet" />
		<tag k="ssr:stedsnr" v="491443" />
	</node>
	<node lat="60.55119999846847" lon="5.237516664521457" id="-38846">
		<tag k="name" v="Ospholmen" />
		<tag k="place" v="islet" />
		<tag k="ssr:stedsnr" v="491444" />
	</node>
	<node lat="60.79907221990927" lon="5.0660222250108795" id="-38851">
		<tag k="name" v="Hamna" />
		<tag k="natural" v="bay" />
		<tag k="ssr:stedsnr" v="433010" />
	</node>
	<node lat="60.8262000029753" lon="4.980194444715401" id="-38853">
		<tag k="name" v="Vestretaren" />
		<tag k="natural" v="shoal" />
		<tag k="place" v="locality" />
		<tag k="ssr:stedsnr" v="433079" />
	</node>
	<node lat="60.74977222107368" lon="4.878016660445798" id="-38855">
		<tag k="alt_name" v="Jibbersholmane;Jibbersholmen" />
		<tag k="name" v="Jibbesholmane" />
		<tag k="place" v="islet" />
		<tag k="ssr:stedsnr" v="433200" />
	</node>
	<node lat="60.68979999947163" lon="4.919366660814544" id="-38860">
		<tag k="name" v="Pollen" />
		<tag k="natural" v="bay" />
		<tag k="ssr:stedsnr" v="491774" />
	</node>
	<node lat="60.709013884608126" lon="4.902416662338989" id="-38863">
		<tag k="name" v="Ingholmen" />
		<tag k="place" v="islet" />
		<tag k="ssr:stedsnr" v="491806" />
	</node>
	<node lat="60.70244444625883" lon="5.087291673155579" id="-38864">
		<tag k="alt_name" v="Kalvsundet" />
		<tag k="name" v="Kalvssundet" />
		<tag k="natural" v="strait" />
		<tag k="ssr:stedsnr" v="491739" />
	</node>
	<node lat="60.68576666684553" lon="5.0919805501727415" id="-38866">
		<tag k="name" v="Sandsundet" />
		<tag k="natural" v="strait" />
		<tag k="ssr:stedsnr" v="491754" />
	</node>
	<node lat="60.71899166828223" lon="4.907588887491442" id="-38867">
		<tag k="name" v="Kjenesholmen" />
		<tag k="place" v="islet" />
		<tag k="ssr:stedsnr" v="491830" />
	</node>
	<node lat="60.73078889197964" lon="4.878727786361298" id="-38868">
		<tag k="name" v="Kalvøyna" />
		<tag k="place" v="islet" />
		<tag k="ssr:stedsnr" v="491839" />
	</node>
	<node lat="60.738930557022506" lon="4.884788889299957" id="-38869">
		<tag k="alt_name" v="Villangervågen" />
		<tag k="bay" v="fjord" />
		<tag k="name" v="Villangsvågen" />
		<tag k="natural" v="bay" />
		<tag k="ssr:stedsnr" v="491847" />
	</node>
	<node lat="60.73910833197731" lon="4.926725002669263" id="-38870">
		<tag k="name" v="Langøyna" />
		<tag k="place" v="islet" />
		<tag k="ssr:stedsnr" v="491850" />
	</node>
	<node lat="60.72363888626283" lon="4.892088891629903" id="-38872">
		<tag k="name" v="Sjelkholmen" />
		<tag k="place" v="islet" />
		<tag k="ssr:stedsnr" v="491855" />
	</node>
	<node lat="60.613791668589805" lon="4.970875006588507" id="-38873">
		<tag k="name" v="Sandvika" />
		<tag k="natural" v="bay" />
		<tag k="ssr:stedsnr" v="491943" />
	</node>
	<node lat="60.636027779690295" lon="5.005394440761391" id="-38876">
		<tag k="name" v="Grønholmane" />
		<tag k="place" v="islet" />
		<tag k="ssr:stedsnr" v="491968" />
	</node>
	<node lat="60.590430553850474" lon="5.151016659681717" id="-38878">
		<tag k="name" v="Vardneset" />
		<tag k="natural" v="cape" />
		<tag k="ssr:stedsnr" v="492032" />
	</node>
	<node lat="60.60887221808562" lon="5.01433889417747" id="-38885">
		<tag k="name" v="Orneset" />
		<tag k="natural" v="cape" />
		<tag k="ssr:stedsnr" v="492939" />
	</node>
	<node lat="60.75793332930156" lon="5.0470861184136195" id="-38891">
		<tag k="alt_name" v="Risaosen" />
		<tag k="bay" v="fjord" />
		<tag k="name" v="Risasjøen" />
		<tag k="natural" v="bay" />
		<tag k="ssr:stedsnr" v="494153" />
	</node>
	<node lat="60.76672499897249" lon="5.11648055019242" id="-38897">
		<tag k="name" v="Gausvågen" />
		<tag k="natural" v="bay" />
		<tag k="ssr:stedsnr" v="494678" />
	</node>
	<node lat="60.73575555425298" lon="4.898622214720342" id="-38898">
		<tag k="name" v="Høgholmen" />
		<tag k="place" v="islet" />
		<tag k="ssr:stedsnr" v="449212" />
	</node>
	<node lat="60.67915278009277" lon="4.941688894048763" id="-38901">
		<tag k="name" v="Hestholmen" />
		<tag k="place" v="islet" />
		<tag k="ssr:stedsnr" v="449241" />
	</node>
	<node lat="60.64949999627174" lon="5.109986111596402" id="-38902">
		<tag k="name" v="Revikneset" />
		<tag k="natural" v="cape" />
		<tag k="ssr:stedsnr" v="449272" />
	</node>
	<node lat="60.78250555326385" lon="4.998277773434814" id="-38903">
		<tag k="name" v="Brattholmen" />
		<tag k="place" v="islet" />
		<tag k="ssr:stedsnr" v="449187" />
	</node>
	<node lat="60.620611109860434" lon="5.253791663802449" id="-38904">
		<tag k="name" v="Nordra Gardvika" />
		<tag k="natural" v="bay" />
		<tag k="ssr:stedsnr" v="449304" />
	</node>
	<node lat="60.61517778130639" lon="5.072458341549684" id="-38905">
		<tag k="name" v="Blodflua" />
		<tag k="natural" v="shoal" />
		<tag k="place" v="locality" />
		<tag k="ssr:stedsnr" v="449611" />
	</node>
	<node lat="60.5680249984264" lon="5.212569440580579" id="-38908">
		<tag k="name" v="Lauvvikneset" />
		<tag k="natural" v="cape" />
		<tag k="ssr:stedsnr" v="450665" />
	</node>
	<node lat="60.74065832927604" lon="5.274144452682414" id="-38909">
		<tag k="name" v="Sævråsneset" />
		<tag k="natural" v="cape" />
		<tag k="ssr:stedsnr" v="450871" />
	</node>
	<node lat="60.62434166415758" lon="5.245566664636527" id="-38910">
		<tag k="name" v="Lianeset" />
		<tag k="natural" v="cape" />
		<tag k="ssr:stedsnr" v="450885" />
	</node>
	<node lat="60.63765380718968" lon="5.460736645996217" id="-38913">
		<tag k="alt_name" v="Kvommaset;Kvammeneset" />
		<tag k="name" v="Kvommaneset" />
		<tag k="natural" v="cape" />
		<tag k="ssr:stedsnr" v="673054" />
	</node>
	<node lat="60.58661111376092" lon="5.411852785884343" id="-38922">
		<tag k="alt_name" v="Glesholmen;Glossholmen" />
		<tag k="name" v="Glosholmen" />
		<tag k="place" v="islet" />
		<tag k="ssr:stedsnr" v="673131" />
	</node>
	<node lat="60.69625277695202" lon="5.570361105424373" id="-38929">
		<tag k="alt_name" v="Havnneset" />
		<tag k="name" v="Hamnneset" />
		<tag k="natural" v="cape" />
		<tag k="ssr:stedsnr" v="673275" />
	</node>
	<node lat="60.7200388876957" lon="5.085844450334179" id="-38933">
		<tag k="name" v="Turøyna" />
		<tag k="place" v="islet" />
		<tag k="ssr:stedsnr" v="673742" />
	</node>
	<node lat="60.729016670810076" lon="5.00238888981669" id="-38936">
		<tag k="name" v="Tangen" />
		<tag k="natural" v="cape" />
		<tag k="ssr:stedsnr" v="673837" />
	</node>
	<node lat="60.718950002456545" lon="4.899202779045456" id="-38937">
		<tag k="alt_name" v="Syltavågen" />
		<tag k="bay" v="fjord" />
		<tag k="name" v="Syltvågen" />
		<tag k="natural" v="bay" />
		<tag k="ssr:stedsnr" v="673850" />
	</node>
	<node lat="60.740699996624826" lon="4.922244449549796" id="-38938">
		<tag k="name" v="Teistholmen" />
		<tag k="place" v="islet" />
		<tag k="ssr:stedsnr" v="673854" />
	</node>
	<node lat="60.746755558866056" lon="4.810108335140776" id="-38940">
		<tag k="name" v="Sandholmflua" />
		<tag k="natural" v="shoal" />
		<tag k="place" v="locality" />
		<tag k="ssr:stedsnr" v="673874" />
	</node>
	<node lat="60.6533968315854" lon="4.927933495878176" id="-38943">
		<tag k="alt_name" v="Grunnevågen, store" />
		<tag k="name" v="Store Grunnevågen" />
		<tag k="natural" v="bay" />
		<tag k="ssr:stedsnr" v="673986" />
	</node>
	<node lat="60.702091663929686" lon="5.135163887683996" id="-38945">
		<tag k="name" v="Klammersholmane" />
		<tag k="place" v="islet" />
		<tag k="ssr:stedsnr" v="674153" />
	</node>
	<node lat="60.660008331105374" lon="5.420749995356303" id="-38949">
		<tag k="name" v="Askelandsøyna" />
		<tag k="place" v="islet" />
		<tag k="ssr:stedsnr" v="674196" />
	</node>
	<node lat="60.65724999998265" lon="4.987597216181294" id="-38952">
		<tag k="name" v="Munkholmen" />
		<tag k="place" v="islet" />
		<tag k="ssr:stedsnr" v="674787" />
	</node>
	<node lat="60.55171944439909" lon="5.2319277856338555" id="-38960">
		<tag k="fixme" v="consider seamark:type=rock or natural=shoal" />
		<tag k="name" v="Ospholmskjeret" />
		<tag k="place" v="islet" />
		<tag k="ssr:stedsnr" v="469065" />
	</node>
	<node lat="60.574077421772984" lon="5.1053089355792745" id="-38964">
		<tag k="name" v="Storholmen" />
		<tag k="place" v="islet" />
		<tag k="ssr:stedsnr" v="469081" />
	</node>
	<node lat="60.56789976801481" lon="5.106239315840872" id="-38967">
		<tag k="name" v="Skralevika" />
		<tag k="natural" v="bay" />
		<tag k="ssr:stedsnr" v="469085" />
	</node>
	<node lat="60.7325361096645" lon="5.120469449403958" id="-38971">
		<tag k="name" v="Sysloktangane" />
		<tag k="natural" v="cape" />
		<tag k="ssr:stedsnr" v="469206" />
	</node>
	<node lat="60.72234166645722" lon="5.168341666145427" id="-38973">
		<tag k="name" v="Ørneneset" />
		<tag k="natural" v="cape" />
		<tag k="ssr:stedsnr" v="469214" />
	</node>
	<node lat="60.67073610976158" lon="5.1272000062994" id="-38976">
		<tag k="name" v="Gjerdhaugvika" />
		<tag k="natural" v="bay" />
		<tag k="ssr:stedsnr" v="469265" />
	</node>
	<node lat="60.595633335657084" lon="5.403911117566853" id="-38978">
		<tag k="name" v="Saltneset" />
		<tag k="natural" v="cape" />
		<tag k="ssr:stedsnr" v="469276" />
	</node>
	<node lat="60.72338208481374" lon="5.2118149607757625" id="-38984">
		<tag k="name" v="Vågsvika" />
		<tag k="natural" v="bay" />
		<tag k="ssr:stedsnr" v="469178" />
	</node>
	<node lat="60.710316666037265" lon="5.14651945180697" id="-38988">
		<tag k="name" v="Breivika" />
		<tag k="natural" v="bay" />
		<tag k="ssr:stedsnr" v="469307" />
	</node>
	<node lat="60.710302780551906" lon="5.166438892032507" id="-38990">
		<tag k="fixme" v="consider seamark:type=rock or natural=shoal" />
		<tag k="name" v="Naustskjeret" />
		<tag k="place" v="islet" />
		<tag k="ssr:stedsnr" v="469316" />
	</node>
	<node lat="60.697947222761194" lon="5.1517222254324935" id="-38991">
		<tag k="name" v="Træsvika" />
		<tag k="natural" v="bay" />
		<tag k="ssr:stedsnr" v="469317" />
	</node>
	<node lat="60.66182777987458" lon="5.115505562283059" id="-38995">
		<tag k="name" v="Bruknappneset" />
		<tag k="natural" v="cape" />
		<tag k="ssr:stedsnr" v="469382" />
	</node>
	<node lat="60.67956389087878" lon="5.38853888917295" id="-38998">
		<tag k="name" v="Risholmen" />
		<tag k="place" v="islet" />
		<tag k="ssr:stedsnr" v="469411" />
	</node>
	<node lat="60.72679722516678" lon="5.661563897277849" id="-38999">
		<tag k="name" v="Åsneset" />
		<tag k="natural" v="cape" />
		<tag k="ssr:stedsnr" v="469412" />
	</node>
	<node lat="60.674086109391936" lon="5.376447220713319" id="-39000">
		<tag k="name" v="Gyltodden" />
		<tag k="natural" v="cape" />
		<tag k="ssr:stedsnr" v="469413" />
	</node>
	<node lat="60.70344721870084" lon="5.605297231234107" id="-39002">
		<tag k="name" v="Botsholmneset" />
		<tag k="natural" v="cape" />
		<tag k="ssr:stedsnr" v="469468" />
	</node>
	<node lat="60.771636107416306" lon="5.100069444392772" id="-39003">
		<tag k="name" v="Nordre Lauvåsvika" />
		<tag k="natural" v="bay" />
		<tag k="ssr:stedsnr" v="469479" />
	</node>
	<node lat="60.78061330709536" lon="5.025989085695799" id="-39008">
		<tag k="name" v="Vestre Aurevika" />
		<tag k="natural" v="bay" />
		<tag k="ssr:stedsnr" v="469502" />
	</node>
	<node lat="60.722997226857295" lon="5.089900004108146" id="-39011">
		<tag k="name" v="Kjerringastraumen" />
		<tag k="natural" v="strait" />
		<tag k="ssr:stedsnr" v="469506" />
	</node>
	<node lat="60.66974166343624" lon="5.107661113811041" id="-39013">
		<tag k="name" v="Øytangane" />
		<tag k="natural" v="cape" />
		<tag k="ssr:stedsnr" v="469567" />
	</node>
	<node lat="60.67659192199326" lon="5.088549468404819" id="-39014">
		<tag k="alt_name" v="Vestre Eidsvika" />
		<tag k="name" v="Vestra Eidsvika" />
		<tag k="natural" v="bay" />
		<tag k="ssr:stedsnr" v="469570" />
	</node>
	<node lat="60.74468055241171" lon="5.068683335693476" id="-39016">
		<tag k="name" v="Austreneset" />
		<tag k="natural" v="cape" />
		<tag k="ssr:stedsnr" v="469582" />
	</node>
	<node lat="60.61541944725699" lon="5.187694440416988" id="-39025">
		<tag k="name" v="Bjervika" />
		<tag k="natural" v="bay" />
		<tag k="ssr:stedsnr" v="469773" />
	</node>
	<node lat="60.50806667092641" lon="5.234927774549611" id="-39034">
		<tag k="name" v="Bøneset" />
		<tag k="natural" v="cape" />
		<tag k="ssr:stedsnr" v="470020" />
	</node>
	<node lat="60.659555551740084" lon="4.910211118159365" id="-39040">
		<tag k="alt_name" v="Arnesvågen, s" />
		<tag k="name" v="Store Arnesvågen" />
		<tag k="natural" v="bay" />
		<tag k="ssr:stedsnr" v="470268" />
	</node>
	<node lat="60.5681222214414" lon="4.993683332152938" id="-39041">
		<tag k="name" v="Ietangen" />
		<tag k="natural" v="cape" />
		<tag k="ssr:stedsnr" v="470269" />
	</node>
	<node lat="60.665430551700986" lon="5.179749994497001" id="-39046">
		<tag k="name" v="Gardsendvika" />
		<tag k="natural" v="bay" />
		<tag k="ssr:stedsnr" v="470320" />
	</node>
	<node lat="60.61267777739307" lon="4.9748472178698915" id="-39049">
		<tag k="name" v="Glyvra" />
		<tag k="natural" v="bay" />
		<tag k="ssr:stedsnr" v="470375" />
	</node>
	<node lat="60.60729722200146" lon="4.98673054993047" id="-39050">
		<tag k="fixme" v="consider seamark:type=rock or natural=shoal" />
		<tag k="name" v="Grønbakkvikskjeret" />
		<tag k="place" v="islet" />
		<tag k="ssr:stedsnr" v="470379" />
	</node>
	<node lat="60.604947224850065" lon="5.087469446103528" id="-39051">
		<tag k="name" v="Lindevika" />
		<tag k="natural" v="bay" />
		<tag k="ssr:stedsnr" v="470510" />
	</node>
	<node lat="60.701413884967536" lon="5.066344445954849" id="-39054">
		<tag k="name" v="Småholmen" />
		<tag k="place" v="islet" />
		<tag k="ssr:stedsnr" v="470625" />
	</node>
	<node lat="60.676300264502856" lon="5.084621523930745" id="-39058">
		<tag k="name" v="Grunnesundet" />
		<tag k="natural" v="strait" />
		<tag k="ssr:stedsnr" v="470690" />
	</node>
	<node lat="60.82189444892064" lon="4.994102786132799" id="-39061">
		<tag k="name" v="Håvarden" />
		<tag k="place" v="island" />
		<tag k="ssr:stedsnr" v="676075" />
	</node>
	<node lat="60.77847588464183" lon="5.130312054758648" id="-39067">
		<tag k="name" v="Dyrkollvika" />
		<tag k="natural" v="bay" />
		<tag k="ssr:stedsnr" v="676669" />
	</node>
	<node lat="60.7233333373613" lon="5.34672778477715" id="-39082">
		<tag k="name" v="Kråka" />
		<tag k="place" v="islet" />
		<tag k="ssr:stedsnr" v="491179" />
	</node>
	<node lat="60.696980552792" lon="5.098444448242306" id="-39083">
		<tag k="name" v="Luro" />
		<tag k="place" v="island" />
		<tag k="ssr:stedsnr" v="491186" />
	</node>
	<node lat="60.661293391355514" lon="5.3607983653332365" id="-39087">
		<tag k="name" v="Haugsholmane" />
		<tag k="place" v="islet" />
		<tag k="ssr:stedsnr" v="491200" />
	</node>
	<node lat="60.56584999975369" lon="5.217858339878881" id="-39088">
		<tag k="name" v="Radtangen" />
		<tag k="natural" v="cape" />
		<tag k="ssr:stedsnr" v="491078" />
	</node>
	<node lat="60.55889166658932" lon="5.035761109831243" id="-39099">
		<tag k="name" v="Leirholmen" />
		<tag k="place" v="islet" />
		<tag k="ssr:stedsnr" v="491916" />
	</node>
	<node lat="60.564652774748055" lon="5.047819451583104" id="-39101">
		<tag k="name" v="Vikebøholmen" />
		<tag k="place" v="islet" />
		<tag k="ssr:stedsnr" v="491921" />
	</node>
	<node lat="60.56893888669847" lon="5.004849995006324" id="-39102">
		<tag k="alt_name" v="Kobbavågen" />
		<tag k="name" v="Kobbevågen" />
		<tag k="natural" v="bay" />
		<tag k="ssr:stedsnr" v="491926" />
	</node>
	<node lat="60.64278611320551" lon="4.937038892694377" id="-39107">
		<tag k="fixme" v="consider seamark:type=rock or natural=shoal" />
		<tag k="name" v="Svartskjeret" />
		<tag k="place" v="islet" />
		<tag k="ssr:stedsnr" v="491991" />
	</node>
	<node lat="60.728400000075936" lon="4.957288895136153" id="-39109">
		<tag k="alt_name" v="Ropeneset;Rapneset;Rappeneset" />
		<tag k="name" v="Rapeneset" />
		<tag k="natural" v="cape" />
		<tag k="ssr:stedsnr" v="491822" />
	</node>
	<node lat="60.80034166618667" lon="5.0644083349631055" id="-39112">
		<tag k="alt_name" v="Skåten" />
		<tag k="fixme" v="consider seamark:type=rock or natural=shoal" />
		<tag k="name" v="Skoten" />
		<tag k="place" v="islet" />
		<tag k="ssr:stedsnr" v="493007" />
	</node>
	<node lat="60.764100003109455" lon="5.183113879936697" id="-39115">
		<tag k="alt_name" v="Raudholmane" />
		<tag k="name" v="Raudholmen" />
		<tag k="place" v="islet" />
		<tag k="ssr:stedsnr" v="494665" />
	</node>
	<node lat="60.770563887029574" lon="5.108427777181105" id="-39116">
		<tag k="name" v="Drageneset" />
		<tag k="natural" v="cape" />
		<tag k="ssr:stedsnr" v="494947" />
	</node>
	<node lat="60.65573055147147" lon="4.9152833416349235" id="-39118">
		<tag k="name" v="Grøningssundet" />
		<tag k="natural" v="strait" />
		<tag k="ssr:stedsnr" v="508703" />
	</node>
	<node lat="60.714688885941776" lon="5.118352776554511" id="-39120">
		<tag k="name" v="Mikkelvågen" />
		<tag k="natural" v="bay" />
		<tag k="ssr:stedsnr" v="509327" />
	</node>
	<node lat="60.651280553987284" lon="4.97133333339507" id="-39121">
		<tag k="name" v="Bekkjeflua" />
		<tag k="natural" v="shoal" />
		<tag k="place" v="locality" />
		<tag k="ssr:stedsnr" v="509653" />
	</node>
	<node lat="60.72555000028922" lon="4.957102784372324" id="-39122">
		<tag k="name" v="Purka" />
		<tag k="natural" v="cape" />
		<tag k="ssr:stedsnr" v="510208" />
	</node>
	<node lat="60.696708334435364" lon="5.109575004638933" id="-39123">
		<tag k="name" v="Naustevik" />
		<tag k="natural" v="bay" />
		<tag k="ssr:stedsnr" v="510271" />
	</node>
	<node lat="60.79395342115562" lon="4.996934149330486" id="-39124">
		<tag k="name" v="Notholmen" />
		<tag k="place" v="islet" />
		<tag k="ssr:stedsnr" v="510169" />
	</node>
	<node lat="60.5576472266753" lon="5.03456666730285" id="-39125">
		<tag k="name" v="Langaneset" />
		<tag k="natural" v="cape" />
		<tag k="ssr:stedsnr" v="510609" />
	</node>
	<node lat="60.63570609060196" lon="5.028368430911476" id="-39126">
		<tag k="name" v="Selfallet" />
		<tag k="natural" v="cape" />
		<tag k="ssr:stedsnr" v="513574" />
	</node>
	<node lat="60.66941388735064" lon="5.450794435545418" id="-39130">
		<tag k="name" v="Kallhella" />
		<tag k="natural" v="cape" />
		<tag k="ssr:stedsnr" v="529248" />
	</node>
	<node lat="60.67377222147099" lon="5.440586112435987" id="-39131">
		<tag k="name" v="Velandskjele" />
		<tag k="natural" v="bay" />
		<tag k="ssr:stedsnr" v="529249" />
	</node>
	<node lat="60.67000000167351" lon="4.901955546255671" id="-39133">
		<tag k="name" v="Duesundet" />
		<tag k="natural" v="strait" />
		<tag k="ssr:stedsnr" v="529423" />
	</node>
	<node lat="60.50953055711845" lon="5.204891666018153" id="-39144">
		<tag k="name" v="Sognevika" />
		<tag k="natural" v="bay" />
		<tag k="ssr:stedsnr" v="530014" />
	</node>
	<node lat="60.511344447803474" lon="5.201986113899957" id="-39145">
		<tag k="name" v="Dalstø" />
		<tag k="natural" v="bay" />
		<tag k="ssr:stedsnr" v="530016" />
	</node>
	<node lat="60.506627779157014" lon="5.230208328531077" id="-39147">
		<tag k="name" v="Haltejohansvika" />
		<tag k="natural" v="bay" />
		<tag k="ssr:stedsnr" v="530023" />
	</node>
	<node lat="60.65325555284532" lon="5.246247217849457" id="-39154">
		<tag k="name" v="Klungertona" />
		<tag k="natural" v="cape" />
		<tag k="ssr:stedsnr" v="530134" />
	</node>
	<node lat="60.597766662905386" lon="5.418280547334215" id="-39159">
		<tag k="name" v="Smalneset" />
		<tag k="natural" v="cape" />
		<tag k="ssr:stedsnr" v="530304" />
	</node>
	<node lat="60.63568055752748" lon="4.964933331208269" id="-39160">
		<tag k="name" v="Eidvika" />
		<tag k="natural" v="bay" />
		<tag k="ssr:stedsnr" v="530311" />
	</node>
	<node lat="60.66355555170589" lon="4.961330548681025" id="-39163">
		<tag k="name" v="Søre Træsvågen" />
		<tag k="natural" v="bay" />
		<tag k="ssr:stedsnr" v="530323" />
	</node>
	<node lat="60.60158333780395" lon="5.406897225253364" id="-39164">
		<tag k="name" v="Grimsneset" />
		<tag k="natural" v="cape" />
		<tag k="ssr:stedsnr" v="530325" />
	</node>
	<node lat="60.700141662086004" lon="5.336094436883078" id="-39177">
		<tag k="fixme" v="consider seamark:type=rock or natural=shoal" />
		<tag k="name" v="Kobbeskjeret" />
		<tag k="place" v="islet" />
		<tag k="ssr:stedsnr" v="530270" />
	</node>
	<node lat="60.733166670864016" lon="4.88219999860512" id="-39181">
		<tag k="name" v="Stuttetången" />
		<tag k="natural" v="cape" />
		<tag k="ssr:stedsnr" v="530407" />
	</node>
	<node lat="60.74205555955608" lon="4.902372213363111" id="-39183">
		<tag k="name" v="Vaulevågen" />
		<tag k="natural" v="bay" />
		<tag k="ssr:stedsnr" v="530412" />
	</node>
	<node lat="60.70181246052225" lon="5.394669630259973" id="-39184">
		<tag k="name" v="Søreholmen" />
		<tag k="place" v="islet" />
		<tag k="ssr:stedsnr" v="530417" />
	</node>
	<node lat="60.72173610674272" lon="5.104124994071986" id="-39187">
		<tag k="name" v="Petterholmen" />
		<tag k="place" v="islet" />
		<tag k="ssr:stedsnr" v="530509" />
	</node>
	<node lat="60.62317500144449" lon="5.074911118956833" id="-39191">
		<tag k="name" v="Nordvågen" />
		<tag k="natural" v="bay" />
		<tag k="ssr:stedsnr" v="530528" />
	</node>
	<node lat="60.68266944222436" lon="5.106927786038534" id="-39196">
		<tag k="name" v="Breiavika" />
		<tag k="natural" v="bay" />
		<tag k="ssr:stedsnr" v="530592" />
	</node>
	<node lat="60.68601325356022" lon="5.385491585674492" id="-39198">
		<tag k="name" v="Sjurneset" />
		<tag k="natural" v="cape" />
		<tag k="ssr:stedsnr" v="530597" />
	</node>
	<node lat="60.72187222367243" lon="5.029711109050759" id="-39199">
		<tag k="name" v="Austraneset" />
		<tag k="natural" v="cape" />
		<tag k="ssr:stedsnr" v="530702" />
	</node>
	<node lat="60.781844446273944" lon="5.033027778568243" id="-39210">
		<tag k="name" v="Storevika" />
		<tag k="natural" v="bay" />
		<tag k="ssr:stedsnr" v="530486" />
	</node>
	<node lat="60.79221110834192" lon="5.000919436163792" id="-39212">
		<tag k="fixme" v="consider seamark:type=rock or natural=shoal" />
		<tag k="name" v="Lågeskjersanden" />
		<tag k="place" v="islet" />
		<tag k="ssr:stedsnr" v="530492" />
	</node>
	<node lat="60.715933332525594" lon="5.0256138925863665" id="-39217">
		<tag k="alt_name" v="Nordre Vallersvågen" />
		<tag k="name" v="Nordre Valdersvåg" />
		<tag k="natural" v="bay" />
		<tag k="ssr:stedsnr" v="530688" />
	</node>
	<node lat="60.60702499865166" lon="4.991122218430786" id="-39232">
		<tag k="name" v="Kalvetrævika" />
		<tag k="natural" v="bay" />
		<tag k="ssr:stedsnr" v="531425" />
	</node>
	<node lat="60.605261114771125" lon="5.001386108568448" id="-39236">
		<tag k="name" v="Mjelkevika" />
		<tag k="natural" v="bay" />
		<tag k="ssr:stedsnr" v="531450" />
	</node>
	<node lat="60.539127775986195" lon="5.091141668798059" id="-39237">
		<tag k="name" v="Leirvika" />
		<tag k="natural" v="bay" />
		<tag k="ssr:stedsnr" v="531310" />
	</node>
	<node lat="60.570519447604205" lon="4.9987027822080785" id="-39238">
		<tag k="name" v="Grøneneset" />
		<tag k="natural" v="cape" />
		<tag k="ssr:stedsnr" v="531312" />
	</node>
	<node lat="60.685731203739536" lon="5.59628239951419" id="-39249">
		<tag k="alt_name" v="Hokøyna" />
		<tag k="name" v="Hokøy" />
		<tag k="place" v="island" />
		<tag k="ssr:stedsnr" v="551342" />
	</node>
	<node lat="60.55252499912247" lon="5.022063889402664" id="-39251">
		<tag k="name" v="Skjeljeholmen" />
		<tag k="place" v="islet" />
		<tag k="ssr:stedsnr" v="551907" />
	</node>
	<node lat="60.64268888647456" lon="5.231033338874954" id="-39258">
		<tag k="alt_name" v="Bønestangen" />
		<tag k="name" v="Nestangen" />
		<tag k="natural" v="cape" />
		<tag k="ssr:stedsnr" v="552210" />
	</node>
	<node lat="60.59544444774966" lon="5.206427776288974" id="-39260">
		<tag k="name" v="Djupvikneset" />
		<tag k="natural" v="cape" />
		<tag k="ssr:stedsnr" v="552108" />
	</node>
	<node lat="60.69913611162272" lon="5.346080551748972" id="-39262">
		<tag k="name" v="Hodnaneset" />
		<tag k="natural" v="cape" />
		<tag k="ssr:stedsnr" v="552138" />
	</node>
	<node lat="60.69127499781622" lon="5.577691673459001" id="-39265">
		<tag k="name" v="Rossholmen" />
		<tag k="place" v="islet" />
		<tag k="ssr:stedsnr" v="552404" />
	</node>
	<node lat="60.665461107766234" lon="4.959349992822839" id="-39271">
		<tag k="name" v="Trædsvågen" />
		<tag k="natural" v="bay" />
		<tag k="ssr:stedsnr" v="552815" />
	</node>
	<node lat="60.74654999876972" lon="4.901938882602025" id="-39273">
		<tag k="alt_name" v="Synnøy" />
		<tag k="name" v="Synnøyna" />
		<tag k="place" v="islet" />
		<tag k="ssr:stedsnr" v="552898" />
	</node>
	<node lat="60.79288611329412" lon="5.0900611194590235" id="-39277">
		<tag k="alt_name" v="Ternskjeret" />
		<tag k="fixme" v="consider seamark:type=rock or natural=shoal" />
		<tag k="name" v="Terneskjeret" />
		<tag k="place" v="islet" />
		<tag k="ssr:stedsnr" v="554016" />
	</node>
	<node lat="60.664694440200975" lon="5.115661104788324" id="-39281">
		<tag k="name" v="Festeneset" />
		<tag k="natural" v="cape" />
		<tag k="ssr:stedsnr" v="692271" />
	</node>
	<node lat="60.70176944630724" lon="5.184227777530014" id="-39282">
		<tag k="name" v="Kvernhusholmane" />
		<tag k="place" v="islet" />
		<tag k="ssr:stedsnr" v="692138" />
	</node>
	<node lat="60.78763889114516" lon="4.9925777747072795" id="-39283">
		<tag k="fixme" v="consider seamark:type=rock or natural=shoal" />
		<tag k="name" v="Såteflua" />
		<tag k="place" v="islet" />
		<tag k="ssr:stedsnr" v="692169" />
	</node>
	<node lat="60.74921944694251" lon="4.855919434984837" id="-39285">
		<tag k="fixme" v="consider seamark:type=rock or natural=shoal" />
		<tag k="name" v="Skarpskjeret" />
		<tag k="place" v="islet" />
		<tag k="ssr:stedsnr" v="692832" />
	</node>
	<node lat="60.56345555212762" lon="4.9858250083902025" id="-39287">
		<tag k="name" v="Det naua" />
		<tag k="natural" v="strait" />
		<tag k="ssr:stedsnr" v="692931" />
	</node>
	<node lat="60.64916374582017" lon="5.206154174027017" id="-39289">
		<tag k="name" v="Litloksaklubben" />
		<tag k="place" v="islet" />
		<tag k="ssr:stedsnr" v="570259" />
	</node>
	<node lat="60.60254848592078" lon="5.200056340059454" id="-39290">
		<tag k="name" v="Sandvik" />
		<tag k="natural" v="bay" />
		<tag k="ssr:stedsnr" v="570602" />
	</node>
	<node lat="60.59574444342336" lon="5.09121944293184" id="-39291">
		<tag k="name" v="Havrøyvågen" />
		<tag k="natural" v="bay" />
		<tag k="ssr:stedsnr" v="570609" />
	</node>
	<node lat="60.74143055277915" lon="4.85811667111539" id="-39292">
		<tag k="alt_name" v="Eggesholmane" />
		<tag k="name" v="Eggesholmen" />
		<tag k="place" v="islet" />
		<tag k="ssr:stedsnr" v="570820" />
	</node>
	<node lat="60.671413884626" lon="5.577516658097164" id="-39298">
		<tag k="name" v="Lindetoneset" />
		<tag k="natural" v="cape" />
		<tag k="ssr:stedsnr" v="589870" />
	</node>
	<node lat="60.738447219471546" lon="5.273908334596232" id="-39301">
		<tag k="name" v="Vikane" />
		<tag k="natural" v="bay" />
		<tag k="ssr:stedsnr" v="590206" />
	</node>
	<node lat="60.749611106852036" lon="5.21372778134844" id="-39302">
		<tag k="name" v="Djuvvika" />
		<tag k="natural" v="bay" />
		<tag k="ssr:stedsnr" v="590209" />
	</node>
	<node lat="60.72029166958808" lon="5.168780555052285" id="-39305">
		<tag k="name" v="Gulnakken" />
		<tag k="natural" v="cape" />
		<tag k="ssr:stedsnr" v="590225" />
	</node>
	<node lat="60.71828333705601" lon="5.14977778058447" id="-39306">
		<tag k="name" v="Djuvvikholmen" />
		<tag k="place" v="islet" />
		<tag k="ssr:stedsnr" v="590227" />
	</node>
	<node lat="60.675188889916996" lon="5.470311114703939" id="-39315">
		<tag k="name" v="Murtevika" />
		<tag k="natural" v="bay" />
		<tag k="ssr:stedsnr" v="590264" />
	</node>
	<node lat="60.69617500273537" lon="5.429763896632614" id="-39316">
		<tag k="fixme" v="consider seamark:type=rock or natural=shoal" />
		<tag k="name" v="Skoreskjeret" />
		<tag k="place" v="islet" />
		<tag k="ssr:stedsnr" v="590266" />
	</node>
	<node lat="60.59679722300562" lon="5.422552769580608" id="-39319">
		<tag k="name" v="Furuvika" />
		<tag k="natural" v="bay" />
		<tag k="ssr:stedsnr" v="590277" />
	</node>
	<node lat="60.596763885082474" lon="5.430258335588506" id="-39320">
		<tag k="name" v="Stabbevika" />
		<tag k="natural" v="bay" />
		<tag k="ssr:stedsnr" v="590278" />
	</node>
	<node lat="60.64252777487701" lon="5.434097216632611" id="-39322">
		<tag k="name" v="Kvalvika" />
		<tag k="natural" v="bay" />
		<tag k="ssr:stedsnr" v="590309" />
	</node>
	<node lat="60.711913885023904" lon="5.145202777510607" id="-39324">
		<tag k="name" v="Sviddaneset" />
		<tag k="natural" v="cape" />
		<tag k="ssr:stedsnr" v="590320" />
	</node>
	<node lat="60.73014444647358" lon="5.316375002319739" id="-39327">
		<tag k="name" v="Stongevika" />
		<tag k="natural" v="bay" />
		<tag k="ssr:stedsnr" v="590381" />
	</node>
	<node lat="60.62995278138168" lon="5.556480556549051" id="-39336">
		<tag k="name" v="Storneset" />
		<tag k="natural" v="cape" />
		<tag k="ssr:stedsnr" v="590554" />
	</node>
	<node lat="60.53421666263454" lon="5.100255561383989" id="-39357">
		<tag k="name" v="Turneset" />
		<tag k="natural" v="cape" />
		<tag k="ssr:stedsnr" v="591263" />
	</node>
	<node lat="60.72533611265289" lon="4.9588222153315495" id="-39362">
		<tag k="name" v="Vinterstøa" />
		<tag k="natural" v="bay" />
		<tag k="ssr:stedsnr" v="591428" />
	</node>
	<node lat="60.63483610930851" lon="5.025841671885455" id="-39366">
		<tag k="name" v="Ellingvika" />
		<tag k="natural" v="bay" />
		<tag k="ssr:stedsnr" v="591553" />
	</node>
	<node lat="60.606680553351794" lon="5.39410554749106" id="-39385">
		<tag k="alt_name" v="Eikangvågen" />
		<tag k="name" v="Eikangervågen" />
		<tag k="natural" v="bay" />
		<tag k="ssr:stedsnr" v="612024" />
	</node>
	<node lat="60.69825277891633" lon="5.594088889041623" id="-39391">
		<tag k="name" v="Vikaholmen" />
		<tag k="place" v="islet" />
		<tag k="ssr:stedsnr" v="612274" />
	</node>
	<node lat="60.69743610829621" lon="5.611116667833587" id="-39392">
		<tag k="bay" v="fjord" />
		<tag k="name" v="Romarheimsfjorden" />
		<tag k="natural" v="bay" />
		<tag k="ssr:stedsnr" v="612284" />
	</node>
	<node lat="60.5103555543629" lon="5.255605555734599" id="-39393">
		<tag k="bay" v="fjord" />
		<tag k="name" v="Salhusfjorden" />
		<tag k="natural" v="bay" />
		<tag k="ssr:stedsnr" v="612403" />
	</node>
	<node lat="60.7058594176372" lon="4.891269524386274" id="-39396">
		<tag k="name" v="Marøy" />
		<tag k="place" v="island" />
		<tag k="ssr:stedsnr" v="612816" />
	</node>
	<node lat="60.71596388665467" lon="5.026269439619108" id="-39397">
		<tag k="name" v="Pinetangen" />
		<tag k="natural" v="cape" />
		<tag k="ssr:stedsnr" v="612817" />
	</node>
	<node lat="60.70972499644367" lon="4.867355550920328" id="-39398">
		<tag k="alt_name" v="Onglebåen" />
		<tag k="name" v="Ongleboen" />
		<tag k="natural" v="shoal" />
		<tag k="place" v="locality" />
		<tag k="ssr:stedsnr" v="612818" />
	</node>
	<node lat="60.67224010261298" lon="5.094866454330899" id="-39400">
		<tag k="alt_name" v="Grunnasundet" />
		<tag k="name" v="Grunnesundet" />
		<tag k="natural" v="strait" />
		<tag k="ssr:stedsnr" v="612760" />
	</node>
	<node lat="60.744199996309696" lon="4.834430556176406" id="-39402">
		<tag k="alt_name" v="Høgsteinen" />
		<tag k="name" v="Øysteinane" />
		<tag k="place" v="islet" />
		<tag k="ssr:stedsnr" v="612862" />
	</node>
	<node lat="60.747200000944886" lon="4.868352769827048" id="-39403">
		<tag k="alt_name" v="Tjørneholmen;Tjørnarholmane" />
		<tag k="name" v="Tjørnarholmen" />
		<tag k="place" v="islet" />
		<tag k="ssr:stedsnr" v="612865" />
	</node>
	<node lat="60.73883611424049" lon="4.869261117414853" id="-39404">
		<tag k="alt_name" v="Rikstadøy" />
		<tag k="name" v="Rikstadøyna" />
		<tag k="place" v="islet" />
		<tag k="ssr:stedsnr" v="612866" />
	</node>
	<node lat="60.59126388689399" lon="5.13600556412273" id="-39406">
		<tag k="name" v="Ådlandsvågen" />
		<tag k="natural" v="bay" />
		<tag k="ssr:stedsnr" v="613104" />
	</node>
	<node lat="60.601677776831906" lon="5.074791672778676" id="-39412">
		<tag k="name" v="Geitneset" />
		<tag k="natural" v="cape" />
		<tag k="ssr:stedsnr" v="613930" />
	</node>
	<node lat="60.75438333346184" lon="5.230227784763468" id="-39420">
		<tag k="name" v="Storflua" />
		<tag k="natural" v="shoal" />
		<tag k="place" v="locality" />
		<tag k="ssr:stedsnr" v="615720" />
	</node>
	<node lat="60.69826111122835" lon="4.874555554484565" id="-39423">
		<tag k="name" v="Søra Bøflua" />
		<tag k="natural" v="shoal" />
		<tag k="place" v="locality" />
		<tag k="ssr:stedsnr" v="630240" />
	</node>
	<node lat="60.66871666941472" lon="4.954458326345078" id="-39424">
		<tag k="name" v="Øyjordspollen" />
		<tag k="natural" v="bay" />
		<tag k="ssr:stedsnr" v="630241" />
	</node>
	<node lat="60.62364166512638" lon="5.173936120093226" id="-39425">
		<tag k="name" v="Solheimneset" />
		<tag k="natural" v="cape" />
		<tag k="ssr:stedsnr" v="630248" />
	</node>
	<node lat="60.78431389002289" lon="5.083333338029945" id="-39426">
		<tag k="name" v="Hatleflua" />
		<tag k="natural" v="shoal" />
		<tag k="place" v="locality" />
		<tag k="ssr:stedsnr" v="631175" />
	</node>
	<node lat="60.705938890643154" lon="4.877716673473491" id="-39427">
		<tag k="name" v="Eldneset" />
		<tag k="natural" v="cape" />
		<tag k="ssr:stedsnr" v="631184" />
	</node>
	<node lat="60.7086750006716" lon="4.926533326862729" id="-39428">
		<tag k="name" v="Kastevik" />
		<tag k="natural" v="bay" />
		<tag k="ssr:stedsnr" v="631192" />
	</node>
	<node lat="60.729788890413445" lon="4.97549445296522" id="-39429">
		<tag k="name" v="Klubbeflua" />
		<tag k="natural" v="shoal" />
		<tag k="place" v="locality" />
		<tag k="ssr:stedsnr" v="631196" />
	</node>
	<node lat="60.6739527775843" lon="5.208688894146419" id="-39431">
		<tag k="name" v="Træsneset" />
		<tag k="natural" v="cape" />
		<tag k="ssr:stedsnr" v="631599" />
	</node>
	<node lat="60.54715000254405" lon="5.303855558189347" id="-39432">
		<tag k="name" v="Rossavika" />
		<tag k="natural" v="bay" />
		<tag k="ssr:stedsnr" v="632640" />
	</node>
	<node lat="60.74966389026298" lon="5.120155557463081" id="-39434">
		<tag k="name" v="Kattedalsvika" />
		<tag k="natural" v="bay" />
		<tag k="ssr:stedsnr" v="650213" />
	</node>
	<node lat="60.660338887659485" lon="5.367630564356483" id="-39435">
		<tag k="name" v="Hjellsneset" />
		<tag k="natural" v="cape" />
		<tag k="ssr:stedsnr" v="650239" />
	</node>
	<node lat="60.70414444334941" lon="5.1638805499352225" id="-39437">
		<tag k="name" v="Vestevågen" />
		<tag k="natural" v="bay" />
		<tag k="ssr:stedsnr" v="650300" />
	</node>
	<node lat="60.711283333825534" lon="5.166213892653731" id="-39438">
		<tag k="name" v="Trælandsvågen" />
		<tag k="natural" v="bay" />
		<tag k="ssr:stedsnr" v="650302" />
	</node>
	<node lat="60.67012777627449" lon="4.948597224059307" id="-39440">
		<tag k="name" v="Sandholmen" />
		<tag k="place" v="islet" />
		<tag k="ssr:stedsnr" v="650401" />
	</node>
	<node lat="60.6203750033906" lon="5.264127781282247" id="-39448">
		<tag k="name" v="Hoplandsvågen" />
		<tag k="natural" v="bay" />
		<tag k="ssr:stedsnr" v="651111" />
	</node>
	<node lat="60.57224164748238" lon="5.109932980287417" id="-39451">
		<tag k="name" v="Minneset" />
		<tag k="natural" v="cape" />
		<tag k="ssr:stedsnr" v="651088" />
	</node>
	<node lat="60.754530555997455" lon="5.192977770470052" id="-39454">
		<tag k="name" v="Fossevika" />
		<tag k="natural" v="bay" />
		<tag k="ssr:stedsnr" v="651212" />
	</node>
	<node lat="60.75246388424432" lon="5.19984166009376" id="-39455">
		<tag k="name" v="Lyngvika" />
		<tag k="natural" v="bay" />
		<tag k="ssr:stedsnr" v="651213" />
	</node>
	<node lat="60.749116663914" lon="4.851613882009178" id="-39458">
		<tag k="name" v="Myrbærholmane" />
		<tag k="place" v="islet" />
		<tag k="ssr:stedsnr" v="651234" />
	</node>
	<node lat="60.69891111309151" lon="5.3450805557665575" id="-39459">
		<tag k="name" v="Hodneneset" />
		<tag k="natural" v="cape" />
		<tag k="ssr:stedsnr" v="651241" />
	</node>
	<node lat="60.64573611319622" lon="4.968363893018344" id="-39461">
		<tag k="name" v="Skårneset" />
		<tag k="natural" v="cape" />
		<tag k="ssr:stedsnr" v="651284" />
	</node>
	<node lat="60.5930444416762" lon="5.371883336453593" id="-39462">
		<tag k="name" v="Larsholmen" />
		<tag k="place" v="islet" />
		<tag k="ssr:stedsnr" v="651287" />
	</node>
	<node lat="60.60498888602235" lon="5.402469439443172" id="-39463">
		<tag k="name" v="Straumen" />
		<tag k="natural" v="strait" />
		<tag k="ssr:stedsnr" v="651292" />
	</node>
	<node lat="60.58632500398425" lon="5.378449990428268" id="-39464">
		<tag k="fixme" v="consider seamark:type=rock or natural=shoal" />
		<tag k="name" v="Kyrkjeskjeret" />
		<tag k="place" v="islet" />
		<tag k="ssr:stedsnr" v="651293" />
	</node>
	<node lat="60.71788333706609" lon="5.12696667032296" id="-39467">
		<tag k="name" v="Bårdnesholmen" />
		<tag k="place" v="islet" />
		<tag k="ssr:stedsnr" v="651184" />
	</node>
	<node lat="60.713877773858194" lon="5.134927774613063" id="-39468">
		<tag k="name" v="Mosholmen" />
		<tag k="place" v="islet" />
		<tag k="ssr:stedsnr" v="651186" />
	</node>
	<node lat="60.724788887732785" lon="5.126475004649128" id="-39469">
		<tag k="name" v="Austretangen" />
		<tag k="natural" v="cape" />
		<tag k="ssr:stedsnr" v="651189" />
	</node>
	<node lat="60.718030553383805" lon="5.11566667510201" id="-39470">
		<tag k="name" v="Midtneset" />
		<tag k="natural" v="cape" />
		<tag k="ssr:stedsnr" v="651192" />
	</node>
	<node lat="60.72166682733302" lon="5.189927353638036" id="-39471">
		<tag k="name" v="Ålesholmen" />
		<tag k="place" v="islet" />
		<tag k="ssr:stedsnr" v="651196" />
	</node>
	<node lat="60.71811944247011" lon="5.200691663470645" id="-39472">
		<tag k="name" v="Klubben" />
		<tag k="natural" v="cape" />
		<tag k="ssr:stedsnr" v="651197" />
	</node>
	<node lat="60.665544447571975" lon="4.9034083351480255" id="-39474">
		<tag k="name" v="Kvitsanden" />
		<tag k="natural" v="cape" />
		<tag k="ssr:stedsnr" v="651311" />
	</node>
	<node lat="60.69190277625861" lon="4.913636113292143" id="-39479">
		<tag k="name" v="Televika" />
		<tag k="natural" v="bay" />
		<tag k="ssr:stedsnr" v="651350" />
	</node>
	<node lat="60.69122221841621" lon="4.911266662400361" id="-39480">
		<tag k="name" v="Nordre Byngja" />
		<tag k="natural" v="cape" />
		<tag k="ssr:stedsnr" v="651351" />
	</node>
	<node lat="60.69827500042566" lon="4.899708327606927" id="-39481">
		<tag k="alt_name" v="Kvolmesundet" />
		<tag k="name" v="Kvolmesund" />
		<tag k="natural" v="strait" />
		<tag k="ssr:stedsnr" v="651385" />
	</node>
	<node lat="60.73356111557356" lon="5.30368611382798" id="-39482">
		<tag k="name" v="Naustdalsvika" />
		<tag k="natural" v="bay" />
		<tag k="ssr:stedsnr" v="651387" />
	</node>
	<node lat="60.72395705588117" lon="5.323354536378531" id="-39483">
		<tag k="name" v="Rekevikneset" />
		<tag k="natural" v="cape" />
		<tag k="ssr:stedsnr" v="651390" />
	</node>
	<node lat="60.72064166293711" lon="4.907597226823377" id="-39484">
		<tag k="name" v="Stølevika" />
		<tag k="natural" v="bay" />
		<tag k="ssr:stedsnr" v="651394" />
	</node>
	<node lat="60.690394800544325" lon="5.38792059780004" id="-39485">
		<tag k="name" v="Henriksvika" />
		<tag k="natural" v="bay" />
		<tag k="ssr:stedsnr" v="651396" />
	</node>
	<node lat="60.64143610898387" lon="5.440013898223315" id="-39487">
		<tag k="name" v="Notholmen" />
		<tag k="place" v="islet" />
		<tag k="ssr:stedsnr" v="651446" />
	</node>
	<node lat="60.593500000116094" lon="5.139855553760861" id="-39488">
		<tag k="name" v="Sinko" />
		<tag k="natural" v="cape" />
		<tag k="ssr:stedsnr" v="651487" />
	</node>
	<node lat="60.72759444285438" lon="5.079075001283546" id="-39491">
		<tag k="name" v="Sjøneset" />
		<tag k="natural" v="cape" />
		<tag k="ssr:stedsnr" v="651493" />
	</node>
	<node lat="60.727511115190865" lon="4.986819437215" id="-39492">
		<tag k="name" v="Nisevikane" />
		<tag k="natural" v="bay" />
		<tag k="ssr:stedsnr" v="651495" />
	</node>
	<node lat="60.7213583374028" lon="4.899844447819416" id="-39496">
		<tag k="name" v="Nordre Langholmen" />
		<tag k="place" v="islet" />
		<tag k="ssr:stedsnr" v="651502" />
	</node>
	<node lat="60.645130558565185" lon="5.005302780304103" id="-39499">
		<tag k="name" v="Søre Slåttholmen" />
		<tag k="place" v="islet" />
		<tag k="ssr:stedsnr" v="651610" />
	</node>
	<node lat="60.64629999723009" lon="5.002497225583457" id="-39500">
		<tag k="name" v="Nordre Slåttholmen" />
		<tag k="place" v="islet" />
		<tag k="ssr:stedsnr" v="651611" />
	</node>
	<node lat="60.689194611368556" lon="5.377908799585943" id="-39513">
		<tag k="name" v="Straumen" />
		<tag k="natural" v="bay" />
		<tag k="ssr:stedsnr" v="651598" />
	</node>
	<node lat="60.60081110953094" lon="4.957061110428916" id="-39534">
		<tag k="name" v="Sjøholmen" />
		<tag k="place" v="islet" />
		<tag k="ssr:stedsnr" v="652292" />
	</node>
	<node lat="60.590791669284116" lon="4.985541667356407" id="-39535">
		<tag k="name" v="Flataneset" />
		<tag k="natural" v="cape" />
		<tag k="ssr:stedsnr" v="652295" />
	</node>
	<node lat="60.53243888948416" lon="5.261972218163952" id="-39536">
		<tag k="name" v="Solbergsvika" />
		<tag k="natural" v="bay" />
		<tag k="ssr:stedsnr" v="652298" />
	</node>
	<node lat="60.63193055561744" lon="5.241275003402503" id="-39550">
		<tag k="bay" v="fjord" />
		<tag k="name" v="Seimsfjorden" />
		<tag k="natural" v="bay" />
		<tag k="ssr:stedsnr" v="673223" />
	</node>
	<node lat="60.65926388875142" lon="5.234916669360257" id="-39551">
		<tag k="alt_name" v="Kråkosen" />
		<tag k="name" v="Kråkeosen" />
		<tag k="natural" v="strait" />
		<tag k="ssr:stedsnr" v="673263" />
	</node>
	<node lat="60.674133335024834" lon="5.384552784672153" id="-39553">
		<tag k="bay" v="fjord" />
		<tag k="name" v="Hindnesfjorden" />
		<tag k="natural" v="bay" />
		<tag k="ssr:stedsnr" v="673160" />
	</node>
	<node lat="60.677724996011705" lon="5.156416670259102" id="-39554">
		<tag k="name" v="Børøyna" />
		<tag k="place" v="island" />
		<tag k="ssr:stedsnr" v="673162" />
	</node>
	<node lat="60.704902782107794" lon="4.915616663008778" id="-39563">
		<tag k="alt_name" v="Dregeneset" />
		<tag k="name" v="Drageneset" />
		<tag k="natural" v="cape" />
		<tag k="ssr:stedsnr" v="673828" />
	</node>
	<node lat="60.5322500040758" lon="5.217686110780953" id="-39565">
		<tag k="name" v="Holsnøy" />
		<tag k="place" v="island" />
		<tag k="ssr:stedsnr" v="673909" />
	</node>
	<node lat="60.54287221978929" lon="5.038933337532416" id="-39566">
		<tag k="name" v="Beitingflua" />
		<tag k="natural" v="shoal" />
		<tag k="place" v="locality" />
		<tag k="ssr:stedsnr" v="673920" />
	</node>
	<node lat="60.63251666397642" lon="4.994080559825779" id="-39567">
		<tag k="name" v="Austra Tåna" />
		<tag k="natural" v="cape" />
		<tag k="ssr:stedsnr" v="673956" />
	</node>
	<node lat="60.6346305586417" lon="5.042447219896741" id="-39568">
		<tag k="name" v="Eriksholmen" />
		<tag k="place" v="islet" />
		<tag k="ssr:stedsnr" v="673960" />
	</node>
	<node lat="60.634813887505864" lon="4.993355547546399" id="-39570">
		<tag k="alt_name" v="Åbersholmen" />
		<tag k="name" v="Åbergsholmen" />
		<tag k="place" v="islet" />
		<tag k="ssr:stedsnr" v="673968" />
	</node>
	<node lat="60.6492749978028" lon="4.9990111024595345" id="-39571">
		<tag k="name" v="Skageneset" />
		<tag k="natural" v="cape" />
		<tag k="ssr:stedsnr" v="673977" />
	</node>
	<node lat="60.753636113376864" lon="4.87272499412982" id="-39576">
		<tag k="name" v="Taren" />
		<tag k="natural" v="shoal" />
		<tag k="place" v="locality" />
		<tag k="ssr:stedsnr" v="676199" />
	</node>
	<node lat="60.75110833155394" lon="4.845469450144625" id="-39577">
		<tag k="alt_name" v="Niklandsholmen" />
		<tag k="name" v="Niklansholmane" />
		<tag k="place" v="islet" />
		<tag k="ssr:stedsnr" v="676202" />
	</node>
	<node lat="60.67495000062891" lon="4.9372194487847345" id="-39582">
		<tag k="name" v="Vågeneståa" />
		<tag k="natural" v="cape" />
		<tag k="ssr:stedsnr" v="893425" />
	</node>
	<node lat="60.6214194452463" lon="5.264369448028372" id="-39594">
		<tag k="name" v="Rydlandsneset" />
		<tag k="natural" v="cape" />
		<tag k="ssr:stedsnr" v="894105" />
	</node>
	<node lat="60.62708071810186" lon="5.259531640747052" id="-39595">
		<tag k="name" v="Holtavika" />
		<tag k="natural" v="bay" />
		<tag k="ssr:stedsnr" v="894106" />
	</node>
	<node lat="60.646933333772935" lon="5.258180547107538" id="-39599">
		<tag k="name" v="Steinsvika" />
		<tag k="natural" v="bay" />
		<tag k="ssr:stedsnr" v="894055" />
	</node>
	<node lat="60.71952500298496" lon="5.189144448263207" id="-39604">
		<tag k="name" v="Bordvika" />
		<tag k="natural" v="bay" />
		<tag k="ssr:stedsnr" v="894195" />
	</node>
	<node lat="60.661505557996655" lon="5.239294436995422" id="-39610">
		<tag k="name" v="Trelevika" />
		<tag k="natural" v="bay" />
		<tag k="ssr:stedsnr" v="894130" />
	</node>
	<node lat="60.743408330535914" lon="5.241022214183965" id="-39616">
		<tag k="name" v="Naustvågen" />
		<tag k="natural" v="bay" />
		<tag k="ssr:stedsnr" v="894219" />
	</node>
	<node lat="60.631849996097515" lon="5.034888886578177" id="-39620">
		<tag k="name" v="Nesflua" />
		<tag k="natural" v="shoal" />
		<tag k="place" v="locality" />
		<tag k="ssr:stedsnr" v="691293" />
	</node>
	<node lat="60.73049166589899" lon="5.1599305478936515" id="-39621">
		<tag k="name" v="Spjeldnestangen" />
		<tag k="natural" v="cape" />
		<tag k="ssr:stedsnr" v="894236" />
	</node>
	<node lat="60.73132778152768" lon="5.145274992501918" id="-39622">
		<tag k="name" v="Galtevika" />
		<tag k="natural" v="bay" />
		<tag k="ssr:stedsnr" v="894237" />
	</node>
	<node lat="60.69963888476435" lon="5.337030558244532" id="-39630">
		<tag k="fixme" v="consider seamark:type=rock or natural=shoal" />
		<tag k="name" v="Storskjeret" />
		<tag k="place" v="islet" />
		<tag k="ssr:stedsnr" v="894256" />
	</node>
	<node lat="60.61311111495691" lon="4.973502780022201" id="-39634">
		<tag k="name" v="Insteodden" />
		<tag k="natural" v="cape" />
		<tag k="ssr:stedsnr" v="691675" />
	</node>
	<node lat="60.66106666289318" lon="5.365541667773759" id="-39636">
		<tag k="name" v="Hjellsnesvika" />
		<tag k="natural" v="bay" />
		<tag k="ssr:stedsnr" v="894294" />
	</node>
	<node lat="60.60127778071986" lon="5.416958337305946" id="-39638">
		<tag k="name" v="Neset" />
		<tag k="natural" v="cape" />
		<tag k="ssr:stedsnr" v="894299" />
	</node>
	<node lat="60.66246111411548" lon="4.953355552330478" id="-39642">
		<tag k="fixme" v="consider seamark:type=rock or natural=shoal" />
		<tag k="name" v="Leveren" />
		<tag k="place" v="islet" />
		<tag k="ssr:stedsnr" v="692221" />
	</node>
	<node lat="60.69371666864926" lon="5.383608336275943" id="-39644">
		<tag k="name" v="Svinningsneset" />
		<tag k="natural" v="cape" />
		<tag k="ssr:stedsnr" v="894475" />
	</node>
	<node lat="60.769188885097755" lon="5.104241665986802" id="-39645">
		<tag k="name" v="Søra Lauvåsvika" />
		<tag k="natural" v="bay" />
		<tag k="ssr:stedsnr" v="894490" />
	</node>
	<node lat="60.65487499918878" lon="4.912002786000476" id="-39652">
		<tag k="fixme" v="consider seamark:type=rock or natural=shoal" />
		<tag k="name" v="Steinskjeret" />
		<tag k="place" v="islet" />
		<tag k="ssr:stedsnr" v="692670" />
	</node>
	<node lat="60.732313888250566" lon="5.074522225674123" id="-39654">
		<tag k="name" v="Kartholmen" />
		<tag k="place" v="islet" />
		<tag k="ssr:stedsnr" v="894533" />
	</node>
	<node lat="60.60315833625005" lon="5.2105694437223935" id="-39662">
		<tag k="name" v="Fosseneset" />
		<tag k="natural" v="cape" />
		<tag k="ssr:stedsnr" v="693624" />
	</node>
	<node lat="60.68946389109671" lon="5.592027773869299" id="-39665">
		<tag k="name" v="Vågen" />
		<tag k="natural" v="bay" />
		<tag k="ssr:stedsnr" v="894779" />
	</node>
	<node lat="60.729432092194784" lon="5.6531770213565595" id="-39677">
		<tag k="name" v="Revsneset" />
		<tag k="natural" v="cape" />
		<tag k="ssr:stedsnr" v="894992" />
	</node>
	<node lat="60.63987777533733" lon="4.958911108445448" id="-39680">
		<tag k="name" v="Sømminga" />
		<tag k="natural" v="bay" />
		<tag k="ssr:stedsnr" v="895250" />
	</node>
	<node lat="60.57496944043133" lon="5.015430556491435" id="-39684">
		<tag k="name" v="Garnvika" />
		<tag k="natural" v="bay" />
		<tag k="ssr:stedsnr" v="895281" />
	</node>
	<node lat="60.70278055286809" lon="4.8994111190117575" id="-39686">
		<tag k="name" v="Nordre Heimvika" />
		<tag k="natural" v="bay" />
		<tag k="ssr:stedsnr" v="895338" />
	</node>
	<node lat="60.70222500323873" lon="4.920011115457729" id="-39690">
		<tag k="bay" v="fjord" />
		<tag k="name" v="Bøosen" />
		<tag k="natural" v="bay" />
		<tag k="ssr:stedsnr" v="895349" />
	</node>
	<node lat="60.556824999240625" lon="5.011205550945384" id="-39691">
		<tag k="fixme" v="consider seamark:type=rock or natural=shoal" />
		<tag k="name" v="Indreskjeret" />
		<tag k="place" v="islet" />
		<tag k="ssr:stedsnr" v="895292" />
	</node>
	<node lat="60.685711112804874" lon="4.924758327089935" id="-39693">
		<tag k="name" v="Sørebyngja" />
		<tag k="natural" v="cape" />
		<tag k="ssr:stedsnr" v="895302" />
	</node>
	<node lat="60.61056389032395" lon="4.9862027829431534" id="-39698">
		<tag k="fixme" v="consider seamark:type=rock or natural=shoal" />
		<tag k="name" v="Stora Lyrskjeret" />
		<tag k="place" v="islet" />
		<tag k="ssr:stedsnr" v="895392" />
	</node>
	<node lat="60.60614722331153" lon="5.086772226280345" id="-39705">
		<tag k="name" v="Søre Øytangen" />
		<tag k="natural" v="cape" />
		<tag k="ssr:stedsnr" v="895493" />
	</node>
	<node lat="60.61328055121163" lon="5.071841659608271" id="-39706">
		<tag k="name" v="Ranevika" />
		<tag k="natural" v="bay" />
		<tag k="ssr:stedsnr" v="895494" />
	</node>
	<node lat="60.61283056016339" lon="5.073975003897482" id="-39710">
		<tag k="name" v="Ranen" />
		<tag k="natural" v="cape" />
		<tag k="ssr:stedsnr" v="895500" />
	</node>
	<node lat="60.642244444049595" lon="5.3942527801934546" id="-39714">
		<tag k="name" v="Litle Notholmen" />
		<tag k="place" v="islet" />
		<tag k="ssr:stedsnr" v="895447" />
	</node>
	<node lat="60.645491667619524" lon="5.114275004907327" id="-39716">
		<tag k="name" v="Grønholmen" />
		<tag k="place" v="islet" />
		<tag k="ssr:stedsnr" v="895571" />
	</node>
	<node lat="60.60495832936138" lon="5.134291663081435" id="-39723">
		<tag k="name" v="Knappen" />
		<tag k="natural" v="cape" />
		<tag k="ssr:stedsnr" v="895710" />
	</node>
	<node lat="60.60629167008835" lon="5.000869442670732" id="-39735">
		<tag k="name" v="Lyngholmen" />
		<tag k="place" v="islet" />
		<tag k="ssr:stedsnr" v="896448" />
	</node>
	<node lat="60.670008333070506" lon="5.12951944365235" id="-39742">
		<tag k="name" v="Lammeneset" />
		<tag k="natural" v="cape" />
		<tag k="ssr:stedsnr" v="711292" />
	</node>
	<node lat="60.70316110902088" lon="5.167197224512879" id="-39743">
		<tag k="name" v="Holmen" />
		<tag k="place" v="islet" />
		<tag k="ssr:stedsnr" v="711311" />
	</node>
	<node lat="60.55454722365647" lon="5.227986107500354" id="-39755">
		<tag k="bay" v="fjord" />
		<tag k="name" v="Slimo" />
		<tag k="natural" v="bay" />
		<tag k="ssr:stedsnr" v="712057" />
	</node>
	<node lat="60.5661812907093" lon="5.084736085464454" id="-39762">
		<tag k="name" v="Grønnevika" />
		<tag k="natural" v="bay" />
		<tag k="ssr:stedsnr" v="712085" />
	</node>
	<node lat="60.76349444326099" lon="5.119113882943785" id="-39773">
		<tag k="name" v="Ospholmen" />
		<tag k="place" v="islet" />
		<tag k="ssr:stedsnr" v="712131" />
	</node>
	<node lat="60.56773610747102" lon="5.223622223889103" id="-39774">
		<tag k="name" v="Austre Radtangen" />
		<tag k="natural" v="cape" />
		<tag k="ssr:stedsnr" v="712133" />
	</node>
	<node lat="60.74836111427324" lon="5.248072223574891" id="-39775">
		<tag k="name" v="Nordre Lotrebogane" />
		<tag k="natural" v="bay" />
		<tag k="ssr:stedsnr" v="712176" />
	</node>
	<node lat="60.74232499693736" lon="5.2398694395280145" id="-39776">
		<tag k="name" v="Langholmen" />
		<tag k="place" v="islet" />
		<tag k="ssr:stedsnr" v="712178" />
	</node>
	<node lat="60.73926666505224" lon="4.875902771481092" id="-39777">
		<tag k="name" v="Syltanestången" />
		<tag k="natural" v="cape" />
		<tag k="ssr:stedsnr" v="712181" />
	</node>
	<node lat="60.74246944667732" lon="4.838552783969737" id="-39780">
		<tag k="name" v="Storeklovningen" />
		<tag k="place" v="islet" />
		<tag k="ssr:stedsnr" v="712185" />
	</node>
	<node lat="60.743333330952886" lon="4.834430558411791" id="-39786">
		<tag k="name" v="Øysteinhabnen" />
		<tag k="natural" v="strait" />
		<tag k="ssr:stedsnr" v="712196" />
	</node>
	<node lat="60.60850555122861" lon="5.398936109910772" id="-39788">
		<tag k="name" v="Solstrand" />
		<tag k="natural" v="bay" />
		<tag k="ssr:stedsnr" v="712311" />
	</node>
	<node lat="60.713886109612574" lon="4.982680551283551" id="-39801">
		<tag k="name" v="Kastevika" />
		<tag k="natural" v="bay" />
		<tag k="ssr:stedsnr" v="712431" />
	</node>
	<node lat="60.72115278099772" lon="4.9698305540225185" id="-39802">
		<tag k="name" v="Setevika" />
		<tag k="natural" v="bay" />
		<tag k="ssr:stedsnr" v="712432" />
	</node>
	<node lat="60.64141389131076" lon="5.393086112283461" id="-39807">
		<tag k="name" v="Årneset" />
		<tag k="natural" v="cape" />
		<tag k="ssr:stedsnr" v="712441" />
	</node>
	<node lat="60.687722220537054" lon="5.101194452064869" id="-39812">
		<tag k="fixme" v="consider seamark:type=rock or natural=shoal" />
		<tag k="name" v="Biskopen" />
		<tag k="place" v="islet" />
		<tag k="ssr:stedsnr" v="712529" />
	</node>
	<node lat="60.743752775561916" lon="5.0679749939241105" id="-39815">
		<tag k="name" v="Vestreneset" />
		<tag k="natural" v="cape" />
		<tag k="ssr:stedsnr" v="712537" />
	</node>
	<node lat="60.72528889041358" lon="5.009805557607037" id="-39822">
		<tag k="name" v="Sildnesvika" />
		<tag k="natural" v="bay" />
		<tag k="ssr:stedsnr" v="712688" />
	</node>
	<node lat="60.60260555645746" lon="5.153011103182989" id="-39829">
		<tag k="fixme" v="consider seamark:type=rock or natural=shoal" />
		<tag k="name" v="Skutlebergskjeret" />
		<tag k="place" v="islet" />
		<tag k="ssr:stedsnr" v="712782" />
	</node>
	<node lat="60.72890833681384" lon="4.970202769038488" id="-39830">
		<tag k="name" v="Ramsvikneset" />
		<tag k="natural" v="cape" />
		<tag k="ssr:stedsnr" v="712789" />
	</node>
	<node lat="60.536075002648666" lon="5.248719442811921" id="-39838">
		<tag k="name" v="Hatleholmen" />
		<tag k="place" v="islet" />
		<tag k="ssr:stedsnr" v="713277" />
	</node>
	<node lat="60.53171944164174" lon="5.251633326795552" id="-39839">
		<tag k="name" v="Brodden" />
		<tag k="natural" v="cape" />
		<tag k="ssr:stedsnr" v="713285" />
	</node>
	<node lat="60.60365833219969" lon="5.199588884694192" id="-39845">
		<tag k="name" v="Storsandvik" />
		<tag k="natural" v="bay" />
		<tag k="ssr:stedsnr" v="714004" />
	</node>
	<node lat="60.67636666838022" lon="4.890227770689486" id="-39849">
		<tag k="alt_name" v="Nordra Flesa" />
		<tag k="name" v="Flesa" />
		<tag k="place" v="islet" />
		<tag k="ssr:stedsnr" v="723982" />
	</node>
	<node lat="60.78088332984618" lon="5.104191663436203" id="-39850">
		<tag k="name" v="Tyborgøysundet" />
		<tag k="natural" v="strait" />
		<tag k="ssr:stedsnr" v="955458" />
	</node>
	<node lat="60.70404999978768" lon="4.878744449285875" id="-39869">
		<tag k="name" v="Kvolmosen" />
		<tag k="natural" v="strait" />
		<tag k="ssr:stedsnr" v="734815" />
	</node>
	<node lat="60.54499444523923" lon="5.044422221859877" id="-39870">
		<tag k="name" v="Kippevikholmen" />
		<tag k="place" v="islet" />
		<tag k="ssr:stedsnr" v="734902" />
	</node>
	<node lat="60.679224996871724" lon="4.939752769410551" id="-39872">
		<tag k="name" v="Eltrevågen" />
		<tag k="natural" v="bay" />
		<tag k="ssr:stedsnr" v="734788" />
	</node>
	<node lat="60.675086113595405" lon="4.938477770531321" id="-39873">
		<tag k="name" v="Tåna" />
		<tag k="natural" v="cape" />
		<tag k="ssr:stedsnr" v="734789" />
	</node>
	<node lat="60.557475004297174" lon="5.0295083385702695" id="-39876">
		<tag k="name" v="Eikevika" />
		<tag k="natural" v="bay" />
		<tag k="ssr:stedsnr" v="734910" />
	</node>
	<node lat="60.785789270872385" lon="5.092524242158558" id="-39881">
		<tag k="alt_name" v="Øyvågen, nordre" />
		<tag k="name" v="Nordre Øyvågen" />
		<tag k="natural" v="bay" />
		<tag k="ssr:stedsnr" v="736685" />
	</node>
	<node lat="60.82214999781215" lon="5.007527779279515" id="-39882">
		<tag k="name" v="Jektholmen" />
		<tag k="place" v="islet" />
		<tag k="ssr:stedsnr" v="737074" />
	</node>
	<node lat="60.743588886897214" lon="5.073961109261845" id="-39890">
		<tag k="name" v="Hestholmen" />
		<tag k="place" v="islet" />
		<tag k="ssr:stedsnr" v="752126" />
	</node>
	<node lat="60.617416670177725" lon="5.189544443324233" id="-39891">
		<tag k="name" v="Salsbåen" />
		<tag k="natural" v="shoal" />
		<tag k="place" v="locality" />
		<tag k="ssr:stedsnr" v="752513" />
	</node>
	<node lat="60.559519444805346" lon="5.018325001023999" id="-39892">
		<tag k="name" v="Leirestraumen" />
		<tag k="natural" v="bay" />
		<tag k="ssr:stedsnr" v="753553" />
	</node>
	<node lat="60.52781794018623" lon="5.136202927221912" id="-39893">
		<tag k="name" v="Gardsendvika" />
		<tag k="natural" v="bay" />
		<tag k="ssr:stedsnr" v="753557" />
	</node>
	<node lat="60.51038333011289" lon="5.199244448709405" id="-39904">
		<tag k="name" v="Dalstøneset" />
		<tag k="natural" v="cape" />
		<tag k="ssr:stedsnr" v="772018" />
	</node>
	<node lat="60.571830225232986" lon="5.106073116275263" id="-39907">
		<tag k="name" v="Øyneset" />
		<tag k="natural" v="cape" />
		<tag k="ssr:stedsnr" v="772076" />
	</node>
	<node lat="60.57266916349741" lon="5.096426060764373" id="-39908">
		<tag k="name" v="Brendeholmen" />
		<tag k="place" v="island" />
		<tag k="ssr:stedsnr" v="772077" />
	</node>
	<node lat="60.70204722474243" lon="5.183491658796474" id="-39909">
		<tag k="name" v="Nordre Kvernhusholmen" />
		<tag k="place" v="islet" />
		<tag k="ssr:stedsnr" v="772309" />
	</node>
	<node lat="60.70871944368397" lon="5.154905550008077" id="-39912">
		<tag k="name" v="Båtefløytet" />
		<tag k="natural" v="bay" />
		<tag k="ssr:stedsnr" v="772326" />
	</node>
	<node lat="60.6518638861195" lon="5.37641388565912" id="-39913">
		<tag k="name" v="Midtsundet" />
		<tag k="natural" v="strait" />
		<tag k="ssr:stedsnr" v="772269" />
	</node>
	<node lat="60.63326111382068" lon="5.157088893395552" id="-39921">
		<tag k="name" v="Båtevika" />
		<tag k="natural" v="bay" />
		<tag k="ssr:stedsnr" v="772818" />
	</node>
	<node lat="60.64017589875123" lon="5.137330696202963" id="-39923">
		<tag k="name" v="Notlevågen" />
		<tag k="natural" v="bay" />
		<tag k="ssr:stedsnr" v="772823" />
	</node>
	<node lat="60.65141944069555" lon="5.375680548659255" id="-39925">
		<tag k="name" v="Ospholmen" />
		<tag k="place" v="islet" />
		<tag k="ssr:stedsnr" v="772765" />
	</node>
	<node lat="60.77904689444529" lon="5.1319318956092" id="-39936">
		<tag k="name" v="Dyrkollneset" />
		<tag k="natural" v="cape" />
		<tag k="ssr:stedsnr" v="773213" />
	</node>
	<node lat="60.748188887513784" lon="4.824124997058109" id="-39939">
		<tag k="fixme" v="consider seamark:type=rock or natural=shoal" />
		<tag k="name" v="Svartskjeret" />
		<tag k="place" v="islet" />
		<tag k="ssr:stedsnr" v="773221" />
	</node>
	<node lat="60.710175000182495" lon="4.922166673960386" id="-39955">
		<tag k="name" v="Sjåsundet" />
		<tag k="natural" v="strait" />
		<tag k="ssr:stedsnr" v="773376" />
	</node>
	<node lat="60.73446388746109" lon="5.29795555620524" id="-39957">
		<tag k="name" v="Kippevika" />
		<tag k="natural" v="bay" />
		<tag k="ssr:stedsnr" v="773378" />
	</node>
	<node lat="60.67825555137189" lon="5.3613555614971125" id="-39958">
		<tag k="name" v="Djuvvika" />
		<tag k="natural" v="bay" />
		<tag k="ssr:stedsnr" v="773384" />
	</node>
	<node lat="60.676936106916976" lon="5.39265278418135" id="-39959">
		<tag k="name" v="Sjåneset" />
		<tag k="natural" v="cape" />
		<tag k="ssr:stedsnr" v="773385" />
	</node>
	<node lat="60.72780555924454" lon="4.890266657664292" id="-39960">
		<tag k="name" v="Vikane" />
		<tag k="natural" v="bay" />
		<tag k="ssr:stedsnr" v="773387" />
	</node>
	<node lat="60.742486113386796" lon="4.897744452021163" id="-39961">
		<tag k="name" v="Ospholmen" />
		<tag k="place" v="islet" />
		<tag k="ssr:stedsnr" v="773389" />
	</node>
	<node lat="60.58919166774195" lon="5.2161666608852695" id="-39962">
		<tag k="name" v="Årsholmsundet" />
		<tag k="natural" v="strait" />
		<tag k="ssr:stedsnr" v="773391" />
	</node>
	<node lat="60.6917111140025" lon="5.1030944522760375" id="-39963">
		<tag k="name" v="Skarpeneset" />
		<tag k="natural" v="cape" />
		<tag k="ssr:stedsnr" v="773505" />
	</node>
	<node lat="60.63916389074698" lon="5.010769440457615" id="-39970">
		<tag k="name" v="Gerhardspollen" />
		<tag k="natural" v="bay" />
		<tag k="ssr:stedsnr" v="773574" />
	</node>
	<node lat="60.69799988216851" lon="5.3897659519569" id="-39973">
		<tag k="name" v="Langeneset" />
		<tag k="natural" v="cape" />
		<tag k="ssr:stedsnr" v="773421" />
	</node>
	<node lat="60.79426388872366" lon="4.995786114461609" id="-39974">
		<tag k="name" v="Notholmen" />
		<tag k="place" v="islet" />
		<tag k="ssr:stedsnr" v="773474" />
	</node>
	<node lat="60.72717222085133" lon="5.100516658636547" id="-39975">
		<tag k="name" v="Brakøyholmane" />
		<tag k="place" v="islet" />
		<tag k="ssr:stedsnr" v="773475" />
	</node>
	<node lat="60.72844722097184" lon="4.880805563612613" id="-39977">
		<tag k="name" v="Håøyane" />
		<tag k="place" v="island" />
		<tag k="ssr:stedsnr" v="773483" />
	</node>
	<node lat="60.69406110867489" lon="5.594336116850439" id="-39979">
		<tag k="name" v="Haukøyna" />
		<tag k="place" v="island" />
		<tag k="ssr:stedsnr" v="773494" />
	</node>
	<node lat="60.65063888970435" lon="5.595238890887679" id="-39988">
		<tag k="name" v="Bakarneset" />
		<tag k="natural" v="cape" />
		<tag k="ssr:stedsnr" v="773759" />
	</node>
	<node lat="60.595938885315235" lon="5.2052305469898394" id="-40001">
		<tag k="name" v="Juvika" />
		<tag k="natural" v="bay" />
		<tag k="ssr:stedsnr" v="774005" />
	</node>
	<node lat="60.66898889188327" lon="4.935313881121675" id="-40011">
		<tag k="name" v="Langholmane" />
		<tag k="place" v="islet" />
		<tag k="ssr:stedsnr" v="775251" />
	</node>
	<node lat="60.70025833083322" lon="5.052619444056945" id="-40027">
		<tag k="name" v="Skjelvikneset" />
		<tag k="natural" v="cape" />
		<tag k="ssr:stedsnr" v="795805" />
	</node>
	<node lat="60.72251110801513" lon="4.852330550453166" id="-40029">
		<tag k="bay" v="fjord" />
		<tag k="name" v="Gullosen" />
		<tag k="natural" v="bay" />
		<tag k="ssr:stedsnr" v="795859" />
	</node>
	<node lat="60.72554166815151" lon="4.854400000590124" id="-40030">
		<tag k="name" v="Horsøyna" />
		<tag k="place" v="islet" />
		<tag k="ssr:stedsnr" v="795860" />
	</node>
	<node lat="60.72805278132236" lon="4.885650004011425" id="-40031">
		<tag k="name" v="Feitholmen" />
		<tag k="place" v="islet" />
		<tag k="ssr:stedsnr" v="795861" />
	</node>
	<node lat="60.60704166837208" lon="5.064300000719295" id="-40035">
		<tag k="name" v="Landsvikosen" />
		<tag k="natural" v="strait" />
		<tag k="ssr:stedsnr" v="795963" />
	</node>
	<node lat="60.63397500390946" lon="5.02393332855511" id="-40037">
		<tag k="name" v="Steinholmen" />
		<tag k="place" v="islet" />
		<tag k="ssr:stedsnr" v="795970" />
	</node>
	<node lat="60.638177779625885" lon="4.958505561769834" id="-40038">
		<tag k="alt_name" v="Toskavågen" />
		<tag k="name" v="Toskevågen" />
		<tag k="natural" v="bay" />
		<tag k="ssr:stedsnr" v="795975" />
	</node>
	<node lat="60.63460555522767" lon="5.028577785596805" id="-40040">
		<tag k="alt_name" v="Mangervågen" />
		<tag k="name" v="Mangersvågen" />
		<tag k="natural" v="bay" />
		<tag k="ssr:stedsnr" v="795980" />
	</node>
	<node lat="60.64436944107046" lon="5.441227783750188" id="-40046">
		<tag k="name" v="Langøyna" />
		<tag k="place" v="islet" />
		<tag k="ssr:stedsnr" v="916038" />
	</node>
	<node lat="60.69894999958443" lon="4.872774994866587" id="-40049">
		<tag k="alt_name" v="Marøybåen" />
		<tag k="name" v="Marøyboen" />
		<tag k="natural" v="shoal" />
		<tag k="place" v="locality" />
		<tag k="ssr:stedsnr" v="916839" />
	</node>
	<node lat="60.72505832998663" lon="5.018280556897588" id="-40050">
		<tag k="alt_name" v="Fesøy" />
		<tag k="name" v="Fesøyna" />
		<tag k="place" v="island" />
		<tag k="ssr:stedsnr" v="916848" />
	</node>
	<node lat="60.72093333458326" lon="4.903611119820216" id="-40051">
		<tag k="name" v="Langholmen" />
		<tag k="place" v="islet" />
		<tag k="ssr:stedsnr" v="916854" />
	</node>
	<node lat="60.73718888666018" lon="4.825624998517428" id="-40052">
		<tag k="alt_name" v="Kråkebåen" />
		<tag k="name" v="Kråkeboen" />
		<tag k="natural" v="shoal" />
		<tag k="place" v="locality" />
		<tag k="ssr:stedsnr" v="916859" />
	</node>
	<node lat="60.558758330332545" lon="5.011052783279874" id="-40053">
		<tag k="fixme" v="multiple name tags, choose one and add the other to alt_name" />
		<tag k="name" v="Øpsesundet;Ieosen" />
		<tag k="natural" v="strait" />
		<tag k="ssr:stedsnr" v="916926" />
	</node>
	<node lat="60.690630558814085" lon="5.179625004832833" id="-40054">
		<tag k="alt_name" v="Nordre Håvardsvika" />
		<tag k="loc_name" v="Nordra Håvardsvik" />
		<tag k="name" v="Nordra Håvardsvika" />
		<tag k="natural" v="bay" />
		<tag k="ssr:stedsnr" v="916144" />
	</node>
	<node lat="60.69538055865936" lon="5.591827782907342" id="-40063">
		<tag k="name" v="Langholmen" />
		<tag k="place" v="islet" />
		<tag k="ssr:stedsnr" v="916393" />
	</node>
	<node lat="60.688747223942826" lon="4.9058361139816435" id="-40067">
		<tag k="alt_name" v="Otterholmen" />
		<tag k="name" v="Otreholmen" />
		<tag k="place" v="islet" />
		<tag k="ssr:stedsnr" v="916802" />
	</node>
	<node lat="60.676974996381055" lon="4.913975002331162" id="-40070">
		<tag k="alt_name" v="Helleosen" />
		<tag k="name" v="Hellosen" />
		<tag k="natural" v="strait" />
		<tag k="ssr:stedsnr" v="916992" />
	</node>
	<node lat="60.66985277477374" lon="4.932377769853015" id="-40071">
		<tag k="name" v="Langholmane" />
		<tag k="place" v="islet" />
		<tag k="ssr:stedsnr" v="916996" />
	</node>
	<node lat="60.54131666506863" lon="5.278477777754886" id="-40072">
		<tag k="name" v="Klubben" />
		<tag k="natural" v="cape" />
		<tag k="ssr:stedsnr" v="917026" />
	</node>
	<node lat="60.74766944348977" lon="5.232525003725381" id="-40074">
		<tag k="alt_name" v="Litløy" />
		<tag k="name" v="Litløyna" />
		<tag k="place" v="islet" />
		<tag k="ssr:stedsnr" v="917658" />
	</node>
	<node lat="60.53015555544759" lon="5.250941673459714" id="-40077">
		<tag k="name" v="Krossnessundet" />
		<tag k="natural" v="strait" />
		<tag k="ssr:stedsnr" v="917368" />
	</node>
	<node lat="60.8181930295091" lon="5.007686893616699" id="-40079">
		<tag k="name" v="Leirvågen" />
		<tag k="natural" v="bay" />
		<tag k="ssr:stedsnr" v="919081" />
	</node>
	<node lat="60.69572222146434" lon="4.889883330052693" id="-40080">
		<tag k="name" v="Nordre Stokknesvågen" />
		<tag k="natural" v="bay" />
		<tag k="ssr:stedsnr" v="813204" />
	</node>
	<node lat="60.64260833207518" lon="4.988455548368612" id="-40081">
		<tag k="name" v="Skrubbholmane" />
		<tag k="place" v="islet" />
		<tag k="ssr:stedsnr" v="813210" />
	</node>
	<node lat="60.66255000303082" lon="4.909580556694222" id="-40082">
		<tag k="name" v="Litla Arneset" />
		<tag k="natural" v="cape" />
		<tag k="ssr:stedsnr" v="813212" />
	</node>
	<node lat="60.66152499566117" lon="5.240647225618721" id="-40083">
		<tag k="name" v="Trælavik" />
		<tag k="natural" v="bay" />
		<tag k="ssr:stedsnr" v="813280" />
	</node>
	<node lat="60.69713333618078" lon="5.194697228751676" id="-40084">
		<tag k="name" v="Pamphavet" />
		<tag k="natural" v="bay" />
		<tag k="ssr:stedsnr" v="813282" />
	</node>
	<node lat="60.638016666280166" lon="5.273622221748335" id="-40085">
		<tag k="name" v="Lausholmen" />
		<tag k="place" v="islet" />
		<tag k="ssr:stedsnr" v="813287" />
	</node>
	<node lat="60.51194722506927" lon="5.244774995489278" id="-40086">
		<tag k="name" v="Kråkeneset" />
		<tag k="natural" v="cape" />
		<tag k="ssr:stedsnr" v="813489" />
	</node>
	<node lat="60.6049555523515" lon="5.013544447275523" id="-40087">
		<tag k="name" v="Vestevågen" />
		<tag k="natural" v="bay" />
		<tag k="ssr:stedsnr" v="813605" />
	</node>
	<node lat="60.61308889163161" lon="5.037338895967394" id="-40088">
		<tag k="name" v="Ytra Gjerdneset" />
		<tag k="natural" v="cape" />
		<tag k="ssr:stedsnr" v="813609" />
	</node>
	<node lat="60.651380553731954" lon="4.937205558411934" id="-40089">
		<tag k="name" v="Risholmen" />
		<tag k="place" v="islet" />
		<tag k="ssr:stedsnr" v="813676" />
	</node>
	<node lat="60.776769446546325" lon="5.1500611183010605" id="-40090">
		<tag k="name" v="Storebukta" />
		<tag k="natural" v="bay" />
		<tag k="ssr:stedsnr" v="918743" />
	</node>
	<node lat="60.783216667578316" lon="5.125605556496605" id="-40091">
		<tag k="name" v="Smalnesflua" />
		<tag k="natural" v="shoal" />
		<tag k="place" v="locality" />
		<tag k="ssr:stedsnr" v="918747" />
	</node>
	<node lat="60.5471916667753" lon="5.260852773145671" id="-40092">
		<tag k="name" v="Skjeljevikane" />
		<tag k="natural" v="bay" />
		<tag k="ssr:stedsnr" v="814600" />
	</node>
	<node lat="60.763172221079245" lon="5.187766663953323" id="-40093">
		<tag k="name" v="Sersjantflua" />
		<tag k="natural" v="shoal" />
		<tag k="place" v="locality" />
		<tag k="ssr:stedsnr" v="814938" />
	</node>
	<node lat="60.76953611166938" lon="5.176350005613342" id="-40094">
		<tag k="name" v="Breidflua" />
		<tag k="natural" v="shoal" />
		<tag k="place" v="locality" />
		<tag k="ssr:stedsnr" v="814942" />
	</node>
	<node lat="60.78146644870018" lon="5.0819347462843245" id="-40095">
		<tag k="fixme" v="multiple name tags, choose one and add the other to alt_name" />
		<tag k="name" v="Knarrvika;Knarrviksvika" />
		<tag k="natural" v="bay" />
		<tag k="ssr:stedsnr" v="919224" />
	</node>
	<node lat="60.69399166824806" lon="5.0970333313012715" id="-40100">
		<tag k="fixme" v="consider seamark:type=rock or natural=shoal" />
		<tag k="name" v="Kuskjeret" />
		<tag k="place" v="islet" />
		<tag k="ssr:stedsnr" v="817171" />
	</node>
	<node lat="60.77043055788531" lon="5.165394436149136" id="-40101">
		<tag k="name" v="Lyngholmen" />
		<tag k="place" v="islet" />
		<tag k="ssr:stedsnr" v="919673" />
	</node>
	<node lat="60.75799999608283" lon="5.109177770119792" id="-40102">
		<tag k="alt_name" v="Jervågen" />
		<tag k="name" v="Gjerdvågen" />
		<tag k="natural" v="bay" />
		<tag k="ssr:stedsnr" v="919685" />
	</node>
	<node lat="60.75110277581376" lon="5.11579722722904" id="-40108">
		<tag k="name" v="Midttangen" />
		<tag k="natural" v="cape" />
		<tag k="ssr:stedsnr" v="833231" />
	</node>
	<node lat="60.64860833696775" lon="5.428152784314099" id="-40109">
		<tag k="name" v="Storskrida" />
		<tag k="natural" v="cape" />
		<tag k="ssr:stedsnr" v="833307" />
	</node>
	<node lat="60.65199166294711" lon="5.421900002704906" id="-40110">
		<tag k="name" v="Stolsneset" />
		<tag k="natural" v="cape" />
		<tag k="ssr:stedsnr" v="833308" />
	</node>
	<node lat="60.67275555637362" lon="5.374030553052646" id="-40111">
		<tag k="name" v="Gyltevågen" />
		<tag k="natural" v="bay" />
		<tag k="ssr:stedsnr" v="833313" />
	</node>
	<node lat="60.524577778496756" lon="5.159688888167759" id="-40115">
		<tag k="name" v="Proppavika" />
		<tag k="natural" v="bay" />
		<tag k="ssr:stedsnr" v="835404" />
	</node>
	<node lat="60.61634444419447" lon="4.953502786274933" id="-40117">
		<tag k="fixme" v="consider seamark:type=rock or natural=shoal" />
		<tag k="name" v="Barbuskjeret" />
		<tag k="place" v="islet" />
		<tag k="ssr:stedsnr" v="835435" />
	</node>
	<node lat="60.73248610767603" lon="5.0612333263965485" id="-40123">
		<tag k="name" v="Dragøyna" />
		<tag k="place" v="island" />
		<tag k="ssr:stedsnr" v="855774" />
	</node>
	<node lat="60.653038885858706" lon="4.917091670336734" id="-40128">
		<tag k="alt_name" v="Grøningen" />
		<tag k="name" v="Storegrøningen" />
		<tag k="place" v="islet" />
		<tag k="ssr:stedsnr" v="855990" />
	</node>
	<node lat="60.709240785550605" lon="5.064293503705588" id="-40149">
		<tag k="name" v="Lurøykalven" />
		<tag k="place" v="island" />
		<tag k="ssr:stedsnr" v="856828" />
	</node>
	<node lat="60.751224999524176" lon="4.82857499297641" id="-40152">
		<tag k="name" v="Svartskjernakken" />
		<tag k="natural" v="shoal" />
		<tag k="place" v="locality" />
		<tag k="ssr:stedsnr" v="858205" />
	</node>
	<node lat="60.76064166282588" lon="5.191497221004262" id="-40155">
		<tag k="name" v="Nautevågen" />
		<tag k="natural" v="bay" />
		<tag k="ssr:stedsnr" v="858718" />
	</node>
	<node lat="60.678105551726134" lon="5.111586120615721" id="-40156">
		<tag k="name" v="Luresteinen" />
		<tag k="natural" v="cape" />
		<tag k="ssr:stedsnr" v="935264" />
	</node>
	<node lat="60.699058336287685" lon="4.923577776297933" id="-40157">
		<tag k="name" v="Bøvågen" />
		<tag k="natural" v="bay" />
		<tag k="ssr:stedsnr" v="870763" />
	</node>
	<node lat="60.73701110962465" lon="4.936325009025306" id="-40158">
		<tag k="name" v="Tjørnarholmen" />
		<tag k="place" v="islet" />
		<tag k="ssr:stedsnr" v="935192" />
	</node>
	<node lat="60.77265000281728" lon="5.098802774296453" id="-40160">
		<tag k="name" v="Ångholmen" />
		<tag k="place" v="islet" />
		<tag k="ssr:stedsnr" v="935176" />
	</node>
	<node lat="60.625552781674344" lon="5.067352779127495" id="-40161">
		<tag k="name" v="Skarpeneset" />
		<tag k="natural" v="cape" />
		<tag k="ssr:stedsnr" v="935212" />
	</node>
	<node lat="60.68754999581257" lon="4.922108329125287" id="-40164">
		<tag k="name" v="Byngjevågen" />
		<tag k="natural" v="bay" />
		<tag k="ssr:stedsnr" v="893327" />
	</node>
	<node lat="60.54699444465783" lon="5.302013896078264" id="-40180">
		<tag k="name" v="Rossvika" />
		<tag k="natural" v="bay" />
		<tag k="ssr:stedsnr" v="894084" />
	</node>
	<node lat="60.60192499737131" lon="5.450202771850776" id="-40182">
		<tag k="name" v="Breivika" />
		<tag k="natural" v="bay" />
		<tag k="ssr:stedsnr" v="894303" />
	</node>
	<node lat="60.67665000031813" lon="5.1412638805574105" id="-40183">
		<tag k="name" v="Persvika" />
		<tag k="natural" v="bay" />
		<tag k="ssr:stedsnr" v="894304" />
	</node>
	<node lat="60.759563889265344" lon="5.1297027717457935" id="-40184">
		<tag k="name" v="Mjelkevika" />
		<tag k="natural" v="bay" />
		<tag k="ssr:stedsnr" v="894166" />
	</node>
	<node lat="60.601522221233274" lon="5.3601638894785095" id="-40185">
		<tag k="name" v="Fyllingavågen" />
		<tag k="natural" v="bay" />
		<tag k="ssr:stedsnr" v="894328" />
	</node>
	<node lat="60.698893285525074" lon="5.191650502656262" id="-40186">
		<tag k="name" v="Herborgholmen" />
		<tag k="place" v="islet" />
		<tag k="ssr:stedsnr" v="894331" />
	</node>
	<node lat="60.60760555146385" lon="5.392888886291189" id="-40193">
		<tag k="name" v="Vågen" />
		<tag k="natural" v="bay" />
		<tag k="ssr:stedsnr" v="894374" />
	</node>
	<node lat="60.58194722545349" lon="5.3699472153574455" id="-40196">
		<tag k="name" v="Hillesvågen" />
		<tag k="natural" v="bay" />
		<tag k="ssr:stedsnr" v="894379" />
	</node>
	<node lat="60.576522222590505" lon="5.227738884287168" id="-40200">
		<tag k="name" v="Kyrkholmen" />
		<tag k="place" v="islet" />
		<tag k="ssr:stedsnr" v="894440" />
	</node>
	<node lat="60.620930559554665" lon="5.205374996122516" id="-40203">
		<tag k="name" v="Skarsneset" />
		<tag k="natural" v="cape" />
		<tag k="ssr:stedsnr" v="894458" />
	</node>
	<node lat="60.76289999944229" lon="5.0578888805998865" id="-40204">
		<tag k="name" v="Vaulen" />
		<tag k="natural" v="cape" />
		<tag k="ssr:stedsnr" v="894461" />
	</node>
	<node lat="60.74534999900544" lon="4.898169438052829" id="-40205">
		<tag k="name" v="Rossneshavn" />
		<tag k="natural" v="bay" />
		<tag k="ssr:stedsnr" v="894465" />
	</node>
	<node lat="60.729152454210265" lon="4.9699968631702305" id="-40207">
		<tag k="name" v="Ildalsvika" />
		<tag k="natural" v="bay" />
		<tag k="ssr:stedsnr" v="894511" />
	</node>
	<node lat="60.731261112067834" lon="5.081374998065877" id="-40208">
		<tag k="name" v="Steinneset" />
		<tag k="natural" v="cape" />
		<tag k="ssr:stedsnr" v="894520" />
	</node>
	<node lat="60.69905441265546" lon="5.5977197215034975" id="-40209">
		<tag k="name" v="Vetleholmen" />
		<tag k="place" v="islet" />
		<tag k="ssr:stedsnr" v="894558" />
	</node>
	<node lat="60.69483333374932" lon="5.592325007237416" id="-40210">
		<tag k="name" v="Klubben" />
		<tag k="place" v="islet" />
		<tag k="ssr:stedsnr" v="894559" />
	</node>
	<node lat="60.68767777687189" lon="5.067977771917003" id="-40213">
		<tag k="name" v="Kolevikane" />
		<tag k="natural" v="bay" />
		<tag k="ssr:stedsnr" v="894581" />
	</node>
	<node lat="60.62604166724637" lon="5.167108338278865" id="-40218">
		<tag k="name" v="Splintevika" />
		<tag k="natural" v="bay" />
		<tag k="ssr:stedsnr" v="894727" />
	</node>
	<node lat="60.6023527773228" lon="5.06603055944609" id="-40232">
		<tag k="name" v="Naustvika" />
		<tag k="natural" v="bay" />
		<tag k="ssr:stedsnr" v="895308" />
	</node>
	<node lat="60.584588885576935" lon="4.995836112980028" id="-40233">
		<tag k="name" v="Skorpesundet" />
		<tag k="natural" v="strait" />
		<tag k="ssr:stedsnr" v="895309" />
	</node>
	<node lat="60.536072222634274" lon="5.271425008333356" id="-40237">
		<tag k="name" v="Austegardsfjæra" />
		<tag k="natural" v="bay" />
		<tag k="ssr:stedsnr" v="895318" />
	</node>
	<node lat="60.653222220022386" lon="5.229077780133387" id="-40238">
		<tag k="name" v="Skarpneset" />
		<tag k="natural" v="cape" />
		<tag k="ssr:stedsnr" v="895320" />
	</node>
	<node lat="60.655411115332655" lon="5.199108337766723" id="-40240">
		<tag k="name" v="Horndragsvika" />
		<tag k="natural" v="bay" />
		<tag k="ssr:stedsnr" v="895323" />
	</node>
	<node lat="60.65759444046585" lon="5.19725278041688" id="-40242">
		<tag k="name" v="Oksebåsen" />
		<tag k="natural" v="bay" />
		<tag k="ssr:stedsnr" v="895326" />
	</node>
	<node lat="60.73705773087366" lon="4.9235782556556895" id="-40243">
		<tag k="alt_name" v="Jatevika" />
		<tag k="name" v="Jektevika" />
		<tag k="natural" v="bay" />
		<tag k="ssr:stedsnr" v="895361" />
	</node>
	<node lat="60.603691666850146" lon="5.2085305646367095" id="-40244">
		<tag k="name" v="Ytrefossvika" />
		<tag k="natural" v="bay" />
		<tag k="ssr:stedsnr" v="895366" />
	</node>
	<node lat="60.70976110860315" lon="5.040463894380048" id="-40252">
		<tag k="name" v="Mortevågen" />
		<tag k="natural" v="bay" />
		<tag k="ssr:stedsnr" v="895614" />
	</node>
	<node lat="60.585449997032" lon="5.229072224676119" id="-40271">
		<tag k="name" v="Kvamsvågen" />
		<tag k="natural" v="bay" />
		<tag k="ssr:stedsnr" v="916120" />
	</node>
	<node lat="60.597338887017585" lon="5.152774991420518" id="-40272">
		<tag k="name" v="Sæbøholmane" />
		<tag k="place" v="islet" />
		<tag k="ssr:stedsnr" v="916016" />
	</node>
	<node lat="60.656183334544025" lon="5.244233339765553" id="-40281">
		<tag k="name" v="Kjeviktangen" />
		<tag k="natural" v="cape" />
		<tag k="ssr:stedsnr" v="916213" />
	</node>
	<node lat="60.7174238565439" lon="5.2042809177568" id="-40283">
		<tag k="alt_name" v="Gaulevik" />
		<tag k="name" v="Gaulevika" />
		<tag k="natural" v="bay" />
		<tag k="ssr:stedsnr" v="916172" />
	</node>
	<node lat="60.61235440605115" lon="5.46957180215892" id="-40288">
		<tag k="name" v="Askvika" />
		<tag k="natural" v="bay" />
		<tag k="ssr:stedsnr" v="916766" />
	</node>
	<node lat="60.69294999569988" lon="5.063583325804718" id="-40290">
		<tag k="alt_name" v="Geitevik" />
		<tag k="name" v="Geitevågen" />
		<tag k="natural" v="bay" />
		<tag k="ssr:stedsnr" v="916782" />
	</node>
	<node lat="60.73333611284127" lon="5.288261112593532" id="-40291">
		<tag k="alt_name" v="Hodnelandsvågen, nordre" />
		<tag k="name" v="Nordre Hodnelandsvågen" />
		<tag k="natural" v="bay" />
		<tag k="ssr:stedsnr" v="916665" />
	</node>
	<node lat="60.715275001728756" lon="5.111416657527803" id="-40293">
		<tag k="name" v="Straumsneset" />
		<tag k="natural" v="cape" />
		<tag k="ssr:stedsnr" v="916674" />
	</node>
	<node lat="60.72246388721664" lon="5.1699500015434525" id="-40294">
		<tag k="name" v="Grunnevågen" />
		<tag k="natural" v="bay" />
		<tag k="ssr:stedsnr" v="916684" />
	</node>
	<node lat="60.70007777786921" lon="5.063849997439489" id="-40298">
		<tag k="name" v="Nordreholmen" />
		<tag k="place" v="islet" />
		<tag k="ssr:stedsnr" v="916819" />
	</node>
	<node lat="60.72102500001566" lon="5.03716666594437" id="-40299">
		<tag k="alt_name" v="Loddeskjeret;Loddå" />
		<tag k="name" v="Loddo" />
		<tag k="place" v="islet" />
		<tag k="ssr:stedsnr" v="916827" />
	</node>
	<node lat="60.7294916665165" lon="4.812563897101275" id="-40300">
		<tag k="name" v="Høgsteinsgrunnen" />
		<tag k="natural" v="shoal" />
		<tag k="place" v="locality" />
		<tag k="ssr:stedsnr" v="916860" />
	</node>
	<node lat="60.72515862192456" lon="4.845809424274813" id="-40301">
		<tag k="name" v="Svartskjeret" />
		<tag k="place" v="islet" />
		<tag k="ssr:stedsnr" v="916864" />
	</node>
	<node lat="60.630691667295245" lon="5.043005549300984" id="-40302">
		<tag k="name" v="Mangersneset" />
		<tag k="natural" v="cape" />
		<tag k="ssr:stedsnr" v="916963" />
	</node>
	<node lat="60.60817778177434" lon="4.945863886416268" id="-40312">
		<tag k="fixme" v="consider seamark:type=rock or natural=shoal" />
		<tag k="name" v="Katten" />
		<tag k="place" v="islet" />
		<tag k="ssr:stedsnr" v="934637" />
	</node>
	<node lat="60.63461666520519" lon="4.965161103981318" id="-40313">
		<tag k="name" v="Årneset" />
		<tag k="natural" v="cape" />
		<tag k="ssr:stedsnr" v="934647" />
	</node>
	<node lat="60.7270611119571" lon="5.102413880310566" id="-40314">
		<tag k="name" v="Brakøyholmen" />
		<tag k="place" v="islet" />
		<tag k="ssr:stedsnr" v="935139" />
	</node>
	<node lat="60.76868055334542" lon="5.023141664848986" id="-40315">
		<tag k="fixme" v="consider seamark:type=rock or natural=shoal" />
		<tag k="name" v="Småskjeret" />
		<tag k="place" v="islet" />
		<tag k="ssr:stedsnr" v="935142" />
	</node>
	<node lat="60.65861944087488" lon="5.196044447500182" id="-40317">
		<tag k="fixme" v="consider seamark:type=rock or natural=shoal" />
		<tag k="name" v="Handragskjeret" />
		<tag k="place" v="islet" />
		<tag k="ssr:stedsnr" v="935304" />
	</node>
	<node lat="60.744886107551125" lon="4.871613886661735" id="-40318">
		<tag k="fixme" v="consider seamark:type=rock or natural=shoal" />
		<tag k="name" v="Skarpskjeret" />
		<tag k="place" v="islet" />
		<tag k="ssr:stedsnr" v="935838" />
	</node>
	<node lat="60.760522218309525" lon="5.205533325030225" id="-40319">
		<tag k="name" v="Ådneflua" />
		<tag k="natural" v="shoal" />
		<tag k="place" v="locality" />
		<tag k="ssr:stedsnr" v="935934" />
	</node>
	<node lat="60.772319440933735" lon="5.12148611479847" id="-40320">
		<tag k="name" v="Tvibergnes" />
		<tag k="natural" v="cape" />
		<tag k="ssr:stedsnr" v="935984" />
	</node>
	<node lat="60.656383336056486" lon="5.234227773731027" id="-40322">
		<tag k="name" v="Lotrebogane" />
		<tag k="place" v="locality" />
		<tag k="seamark:type" v="rock" />
		<tag k="ssr:stedsnr" v="954106" />
	</node>
	<node lat="60.62626389048525" lon="5.545777782355178" id="-40324">
		<tag k="name" v="Mulsneset" />
		<tag k="natural" v="cape" />
		<tag k="ssr:stedsnr" v="953846" />
	</node>
	<node lat="60.62809818856485" lon="5.255685975623033" id="-40325">
		<tag k="name" v="Totlandsvika" />
		<tag k="natural" v="bay" />
		<tag k="ssr:stedsnr" v="954092" />
	</node>
	<node lat="60.598952778981506" lon="5.415966659859654" id="-40326">
		<tag k="name" v="Eidadalstangen" />
		<tag k="natural" v="cape" />
		<tag k="ssr:stedsnr" v="954247" />
	</node>
	<node lat="60.71069444601291" lon="5.345980556436482" id="-40331">
		<tag k="name" v="Haraldsneset" />
		<tag k="natural" v="cape" />
		<tag k="ssr:stedsnr" v="954754" />
	</node>
	<node lat="60.731450001615656" lon="4.86322777242489" id="-40334">
		<tag k="name" v="Kråka" />
		<tag k="place" v="islet" />
		<tag k="ssr:stedsnr" v="955210" />
	</node>
	<node lat="60.71775277732365" lon="5.149433340718499" id="-40335">
		<tag k="name" v="Djuvvikneset" />
		<tag k="natural" v="cape" />
		<tag k="ssr:stedsnr" v="955215" />
	</node>
	<node lat="60.705877776251874" lon="4.901474994850834" id="-40344">
		<tag k="name" v="Nålevågen" />
		<tag k="natural" v="bay" />
		<tag k="ssr:stedsnr" v="955260" />
	</node>
	<node lat="60.709255558897574" lon="4.9047416705193925" id="-40345">
		<tag k="name" v="Ingholmsundet" />
		<tag k="natural" v="strait" />
		<tag k="ssr:stedsnr" v="955262" />
	</node>
	<node lat="60.57656388485823" lon="5.376680558446795" id="-40353">
		<tag k="name" v="Fløsvika" />
		<tag k="natural" v="bay" />
		<tag k="ssr:stedsnr" v="955342" />
	</node>
	<node lat="60.57564166458218" lon="5.2237388864170935" id="-40355">
		<tag k="name" v="Hillandsvika" />
		<tag k="natural" v="bay" />
		<tag k="ssr:stedsnr" v="955398" />
	</node>
	<node lat="60.67221111527384" lon="5.106902776450422" id="-40360">
		<tag k="name" v="Undervågen" />
		<tag k="natural" v="bay" />
		<tag k="ssr:stedsnr" v="955541" />
	</node>
	<node lat="60.702163888571334" lon="5.083905552269861" id="-40365">
		<tag k="name" v="Breivika" />
		<tag k="natural" v="bay" />
		<tag k="ssr:stedsnr" v="955557" />
	</node>
	<node lat="60.756474997663176" lon="5.059163896515803" id="-40369">
		<tag k="name" v="Doveneset" />
		<tag k="natural" v="cape" />
		<tag k="ssr:stedsnr" v="955443" />
	</node>
	<node lat="60.78177500125229" lon="5.085836104653401" id="-40373">
		<tag k="name" v="Toppholmen" />
		<tag k="place" v="islet" />
		<tag k="ssr:stedsnr" v="955456" />
	</node>
	<node lat="60.72055277332174" lon="4.900597219679082" id="-40376">
		<tag k="name" v="Kubitholmen" />
		<tag k="place" v="islet" />
		<tag k="ssr:stedsnr" v="955492" />
	</node>
	<node lat="60.626087866747646" lon="5.546070349152104" id="-40382">
		<tag k="name" v="Mulen" />
		<tag k="natural" v="cape" />
		<tag k="ssr:stedsnr" v="955616" />
	</node>
	<node lat="60.53466110869652" lon="5.0982861148761" id="-40391">
		<tag k="name" v="Altersvika" />
		<tag k="natural" v="bay" />
		<tag k="ssr:stedsnr" v="956340" />
	</node>
	<node lat="60.579327776820875" lon="5.01266388471564" id="-40392">
		<tag k="name" v="Rishola" />
		<tag k="natural" v="bay" />
		<tag k="ssr:stedsnr" v="956341" />
	</node>
	<node lat="60.53883055225311" lon="5.2517833360344195" id="-40393">
		<tag k="name" v="Djupavika" />
		<tag k="natural" v="bay" />
		<tag k="ssr:stedsnr" v="956303" />
	</node>
	<node lat="60.564688884396155" lon="4.997924995899659" id="-40394">
		<tag k="fixme" v="consider seamark:type=rock or natural=shoal" />
		<tag k="name" v="Litla Ieskjeret" />
		<tag k="place" v="islet" />
		<tag k="ssr:stedsnr" v="956325" />
	</node>
	<node lat="60.812608334165745" lon="5.041224993862465" id="-40399">
		<tag k="name" v="Hjellneset" />
		<tag k="natural" v="cape" />
		<tag k="ssr:stedsnr" v="966640" />
	</node>
	<node lat="60.58458611057864" lon="5.226797223252643" id="-40417">
		<tag k="alt_name" v="Tveitneset" />
		<tag k="name" v="Tveitaneset" />
		<tag k="natural" v="cape" />
		<tag k="ssr:stedsnr" v="6127" />
	</node>
	<node lat="60.574613890332415" lon="5.226700005725767" id="-40418">
		<tag k="name" v="Kongsøyna" />
		<tag k="place" v="islet" />
		<tag k="ssr:stedsnr" v="6132" />
	</node>
	<node lat="60.66829444317269" lon="5.3601499918644215" id="-40424">
		<tag k="bay" v="fjord" />
		<tag k="name" v="Dalafjorden" />
		<tag k="natural" v="bay" />
		<tag k="ssr:stedsnr" v="6229" />
	</node>
	<node lat="60.68286389089639" lon="5.589780548749652" id="-40430">
		<tag k="name" v="Midtsundet" />
		<tag k="natural" v="strait" />
		<tag k="ssr:stedsnr" v="6398" />
	</node>
	<node lat="60.72946667083463" lon="5.31910278572311" id="-40435">
		<tag k="name" v="Stonganeset" />
		<tag k="natural" v="cape" />
		<tag k="ssr:stedsnr" v="6664" />
	</node>
	<node lat="60.717836109839176" lon="5.1095999992183785" id="-40437">
		<tag k="name" v="Hanøyna" />
		<tag k="place" v="islet" />
		<tag k="ssr:stedsnr" v="6670" />
	</node>
	<node lat="60.726944442987204" lon="5.150622228598771" id="-40438">
		<tag k="alt_name" v="Lindåsosane" />
		<tag k="name" v="Spjeldnesosen" />
		<tag k="natural" v="strait" />
		<tag k="ssr:stedsnr" v="6671" />
	</node>
	<node lat="60.72206944329419" lon="5.1483972218200975" id="-40439">
		<tag k="name" v="Ternholmane" />
		<tag k="place" v="islet" />
		<tag k="ssr:stedsnr" v="6674" />
	</node>
	<node lat="60.734150001878206" lon="5.281650008324093" id="-40440">
		<tag k="name" v="Sævråsvågen" />
		<tag k="natural" v="bay" />
		<tag k="ssr:stedsnr" v="6650" />
	</node>
	<node lat="60.723602778622315" lon="4.927755558757778" id="-40441">
		<tag k="alt_name" v="Vågsbotnen, yt;Ytre Vågsbotn" />
		<tag k="name" v="Ytre Vågsbotnen" />
		<tag k="natural" v="bay" />
		<tag k="ssr:stedsnr" v="6837" />
	</node>
	<node lat="60.72359166457633" lon="5.010038892792275" id="-40442">
		<tag k="name" v="Fesøysundet" />
		<tag k="natural" v="strait" />
		<tag k="ssr:stedsnr" v="6840" />
	</node>
	<node lat="60.736411114676166" lon="4.858780549490068" id="-40443">
		<tag k="name" v="Vardøyna" />
		<tag k="place" v="island" />
		<tag k="ssr:stedsnr" v="6851" />
	</node>
	<node lat="60.55674999972423" lon="5.00087776878824" id="-40446">
		<tag k="name" v="Øpso" />
		<tag k="place" v="island" />
		<tag k="ssr:stedsnr" v="6927" />
	</node>
	<node lat="60.698177776497985" lon="5.089277770263051" id="-40449">
		<tag k="name" v="Kalvstangen" />
		<tag k="natural" v="cape" />
		<tag k="ssr:stedsnr" v="6754" />
	</node>
	<node lat="60.738944446401995" lon="4.838655556559495" id="-40450">
		<tag k="alt_name" v="Kråka" />
		<tag k="name" v="Kråko" />
		<tag k="place" v="islet" />
		<tag k="ssr:stedsnr" v="6852" />
	</node>
	<node lat="60.64513610900834" lon="4.93806110564122" id="-40452">
		<tag k="alt_name" v="Endersholmen" />
		<tag k="name" v="Innersholmen" />
		<tag k="place" v="islet" />
		<tag k="ssr:stedsnr" v="6998" />
	</node>
	<node lat="60.777591669106066" lon="5.1246111149002145" id="-40455">
		<tag k="name" v="Smalneset" />
		<tag k="natural" v="cape" />
		<tag k="ssr:stedsnr" v="8723" />
	</node>
	<node lat="60.80539084893859" lon="5.05554364743352" id="-40456">
		<tag k="name" v="Grunnevika" />
		<tag k="natural" v="bay" />
		<tag k="ssr:stedsnr" v="9007" />
	</node>
	<node lat="60.634625001764746" lon="5.156400001607742" id="-40458">
		<tag k="fixme" v="consider seamark:type=rock or natural=shoal" />
		<tag k="name" v="Kobbaskjeret" />
		<tag k="place" v="islet" />
		<tag k="ssr:stedsnr" v="23307" />
	</node>
	<node lat="60.7814527820342" lon="5.026411105802698" id="-40459">
		<tag k="name" v="Aurevikane" />
		<tag k="natural" v="bay" />
		<tag k="ssr:stedsnr" v="24167" />
	</node>
	<node lat="60.657155551488565" lon="5.098127786052733" id="-40460">
		<tag k="name" v="Storholmen" />
		<tag k="place" v="islet" />
		<tag k="ssr:stedsnr" v="24254" />
	</node>
	<node lat="60.57983611133587" lon="5.190541669428039" id="-40462">
		<tag k="name" v="Hjeltskjerneset" />
		<tag k="natural" v="cape" />
		<tag k="ssr:stedsnr" v="24546" />
	</node>
	<node lat="60.606533335314595" lon="5.122044443657803" id="-40463">
		<tag k="name" v="Stolane" />
		<tag k="natural" v="cape" />
		<tag k="ssr:stedsnr" v="25641" />
	</node>
	<node lat="60.59841388766329" lon="5.162538885975091" id="-40464">
		<tag k="alt_name" v="Furevika" />
		<tag k="name" v="Furevik" />
		<tag k="natural" v="bay" />
		<tag k="ssr:stedsnr" v="25662" />
	</node>
	<node lat="60.60252777911331" lon="5.154572229899663" id="-40465">
		<tag k="fixme" v="consider seamark:type=rock or natural=shoal" />
		<tag k="name" v="Skutebergskjeret" />
		<tag k="place" v="islet" />
		<tag k="ssr:stedsnr" v="25663" />
	</node>
	<node lat="60.59199444371111" lon="5.093336107414593" id="-40466">
		<tag k="name" v="Ytra Kylpa" />
		<tag k="natural" v="bay" />
		<tag k="ssr:stedsnr" v="25667" />
	</node>
	<node lat="60.73590833012925" lon="5.286536107206328" id="-40467">
		<tag k="name" v="Storholmen" />
		<tag k="place" v="islet" />
		<tag k="ssr:stedsnr" v="25864" />
	</node>
	<node lat="60.69773055706729" lon="5.109608325606854" id="-40474">
		<tag k="name" v="Naustneset" />
		<tag k="natural" v="cape" />
		<tag k="ssr:stedsnr" v="44513" />
	</node>
	<node lat="60.69578888843125" lon="5.111305560184449" id="-40475">
		<tag k="name" v="Skrubbenesvika" />
		<tag k="natural" v="bay" />
		<tag k="ssr:stedsnr" v="44516" />
	</node>
	<node lat="60.771747218905055" lon="5.126719447446145" id="-40476">
		<tag k="name" v="Småvikane" />
		<tag k="natural" v="bay" />
		<tag k="ssr:stedsnr" v="45141" />
	</node>
	<node lat="60.55260277926354" lon="5.229233340175305" id="-40488">
		<tag k="name" v="Kvernaflua" />
		<tag k="place" v="locality" />
		<tag k="seamark:type" v="rock" />
		<tag k="ssr:stedsnr" v="44224" />
	</node>
	<node lat="60.66258055526695" lon="5.364499994140829" id="-40499">
		<tag k="name" v="Gangstøneset" />
		<tag k="natural" v="cape" />
		<tag k="ssr:stedsnr" v="44259" />
	</node>
	<node lat="60.6024722231775" lon="5.4533222148714815" id="-40501">
		<tag k="name" v="Naustvika" />
		<tag k="natural" v="bay" />
		<tag k="ssr:stedsnr" v="44265" />
	</node>
</osm>
