<?xml version="1.0" encoding="UTF-8"?>
<osm version="0.6" generator="osmapis">
	<node lat="60.55551111056278" lon="5.314352783325243" id="-38363">
		<tag k="name" v="Krabbura" />
		<tag k="natural" v="scree" />
		<tag k="ssr:stedsnr" v="44107" />
	</node>
	<node lat="60.55463889016407" lon="5.145724991884935" id="-38367">
		<tag k="name" v="Storamyra" />
		<tag k="natural" v="wetland" />
		<tag k="ssr:stedsnr" v="44013" />
	</node>
	<node lat="60.57202499690083" lon="5.284286111569128" id="-38377">
		<tag k="name" v="Mosura" />
		<tag k="natural" v="scree" />
		<tag k="ssr:stedsnr" v="44165" />
	</node>
	<node lat="60.69883611507833" lon="5.535299992020552" id="-38410">
		<tag k="name" v="Nonsteinane" />
		<tag k="natural" v="stone" />
		<tag k="ssr:stedsnr" v="44722" />
	</node>
	<node lat="60.73499444282644" lon="5.181427783954128" id="-38420">
		<tag k="name" v="Lindura" />
		<tag k="natural" v="scree" />
		<tag k="ssr:stedsnr" v="45191" />
	</node>
	<node lat="60.767811110337675" lon="5.642527773726907" id="-38466">
		<tag k="name" v="Kusteinen" />
		<tag k="natural" v="stone" />
		<tag k="ssr:stedsnr" v="45901" />
	</node>
	<node lat="60.57311388541552" lon="5.05091111580804" id="-38469">
		<tag k="name" v="Porsmyra" />
		<tag k="natural" v="wetland" />
		<tag k="ssr:stedsnr" v="46309" />
	</node>
	<node lat="60.520858331169656" lon="5.181305553241924" id="-38477">
		<tag k="name" v="Storamyra" />
		<tag k="natural" v="wetland" />
		<tag k="ssr:stedsnr" v="46416" />
	</node>
	<node lat="60.71948610894351" lon="5.257202780554996" id="-38606">
		<tag k="landuse" v="meadow" />
		<tag k="name" v="Storafitjena" />
		<tag k="ssr:stedsnr" v="105402" />
	</node>
	<node lat="60.682372221474" lon="4.941697230839905" id="-38612">
		<tag k="name" v="Sekjena" />
		<tag k="natural" v="wetland" />
		<tag k="ssr:stedsnr" v="105426" />
	</node>
	<node lat="60.68463333081194" lon="5.408166669049356" id="-38622">
		<tag k="name" v="Melskogen" />
		<tag k="place" v="locality" />
		<tag k="ssr:stedsnr" v="105613" />
	</node>
	<node lat="60.71509166422949" lon="5.009352774500256" id="-38634">
		<tag k="name" v="Skaråsmyra" />
		<tag k="natural" v="wetland" />
		<tag k="ssr:stedsnr" v="105684" />
	</node>
	<node lat="60.73303055474354" lon="5.627975001841461" id="-38645">
		<tag k="name" v="Krokmyrane" />
		<tag k="natural" v="wetland" />
		<tag k="ssr:stedsnr" v="105940" />
	</node>
	<node lat="60.63114166363701" lon="5.342769442341309" id="-38652">
		<tag k="name" v="Stormyra" />
		<tag k="natural" v="wetland" />
		<tag k="ssr:stedsnr" v="106011" />
	</node>
	<node lat="60.79892778151077" lon="5.679311108983078" id="-38784">
		<tag k="name" v="Altervollane" />
		<tag k="place" v="locality" />
		<tag k="ssr:stedsnr" v="165903" />
	</node>
	<node lat="60.56555833602687" lon="5.245447218113608" id="-38802">
		<tag k="name" v="Breimyra" />
		<tag k="natural" v="wetland" />
		<tag k="ssr:stedsnr" v="166110" />
	</node>
	<node lat="60.686305559507964" lon="5.031013891670919" id="-38828">
		<tag k="name" v="Nonsteinsmyra" />
		<tag k="natural" v="wetland" />
		<tag k="ssr:stedsnr" v="166632" />
	</node>
	<node lat="60.67278888915605" lon="5.088469445809379" id="-38832">
		<tag k="name" v="Nipemyra" />
		<tag k="natural" v="wetland" />
		<tag k="ssr:stedsnr" v="166648" />
	</node>
	<node lat="60.65054444434306" lon="5.075002778241644" id="-38838">
		<tag k="historic" v="shieling" />
		<tag k="name" v="Stølen" />
		<tag k="place" v="locality" />
		<tag k="ssr:stedsnr" v="166563" />
	</node>
	<node lat="60.63971111024291" lon="5.022238889058809" id="-38841">
		<tag k="name" v="Svemyra" />
		<tag k="natural" v="wetland" />
		<tag k="ssr:stedsnr" v="166574" />
	</node>
	<node lat="60.8015111067212" lon="5.041211110531773" id="-38906">
		<tag k="name" v="Austremyrane" />
		<tag k="natural" v="wetland" />
		<tag k="ssr:stedsnr" v="191008" />
	</node>
	<node lat="60.52631110701667" lon="5.24188888503998" id="-39021">
		<tag k="name" v="Løftingasteinen" />
		<tag k="natural" v="stone" />
		<tag k="ssr:stedsnr" v="228304" />
	</node>
	<node lat="60.59780277826291" lon="5.04819167485463" id="-39025">
		<tag k="name" v="Grøne skogane" />
		<tag k="place" v="locality" />
		<tag k="ssr:stedsnr" v="228388" />
	</node>
	<node lat="60.55415833379736" lon="5.1100833280769375" id="-39028">
		<tag k="name" v="Kringlemyra" />
		<tag k="natural" v="wetland" />
		<tag k="ssr:stedsnr" v="228541" />
	</node>
	<node lat="60.59695833036423" lon="5.237102784033689" id="-39063">
		<tag k="name" v="Godmyra" />
		<tag k="natural" v="wetland" />
		<tag k="ssr:stedsnr" v="287010" />
	</node>
	<node lat="60.576375000149625" lon="5.333502769164844" id="-39069">
		<tag k="landuse" v="peat_cutting" />
		<tag k="name" v="Torvhusa" />
		<tag k="ssr:stedsnr" v="287088" />
	</node>
	<node lat="60.71523333322148" lon="5.259849991848802" id="-39088">
		<tag k="landuse" v="meadow" />
		<tag k="name" v="Småfitjena" />
		<tag k="ssr:stedsnr" v="287180" />
	</node>
	<node lat="60.68392777953772" lon="5.308886109735632" id="-39090">
		<tag k="name" v="Merkesmyra" />
		<tag k="natural" v="wetland" />
		<tag k="ssr:stedsnr" v="287193" />
	</node>
	<node lat="60.73695278165552" lon="4.879550000349999" id="-39100">
		<tag k="name" v="Tångemyrane" />
		<tag k="natural" v="wetland" />
		<tag k="ssr:stedsnr" v="287431" />
	</node>
	<node lat="60.63980277605786" lon="5.565211120088736" id="-39114">
		<tag k="name" v="Stortorgmyra" />
		<tag k="natural" v="wetland" />
		<tag k="ssr:stedsnr" v="287588" />
	</node>
	<node lat="60.81095278238486" lon="5.647547225847238" id="-39130">
		<tag k="name" v="Urateigen" />
		<tag k="place" v="locality" />
		<tag k="ssr:stedsnr" v="288009" />
	</node>
	<node lat="60.644888893171895" lon="5.369527784927889" id="-39156">
		<tag k="name" v="Skarsmyra" />
		<tag k="natural" v="wetland" />
		<tag k="ssr:stedsnr" v="288427" />
	</node>
	<node lat="60.602633337841176" lon="5.23750555838453" id="-39227">
		<tag k="name" v="Heiabergmyra" />
		<tag k="natural" v="wetland" />
		<tag k="ssr:stedsnr" v="469019" />
	</node>
	<node lat="60.61553610970729" lon="5.130961108142959" id="-39315">
		<tag k="name" v="Stigemyra" />
		<tag k="natural" v="wetland" />
		<tag k="ssr:stedsnr" v="469738" />
	</node>
	<node lat="60.70216111039149" lon="5.566949998064806" id="-39316">
		<tag k="name" v="Stormyra" />
		<tag k="natural" v="wetland" />
		<tag k="ssr:stedsnr" v="469743" />
	</node>
	<node lat="60.7200472179527" lon="4.922527782056706" id="-39362">
		<tag k="historic" v="shieling" />
		<tag k="name" v="Brustølen" />
		<tag k="place" v="locality" />
		<tag k="ssr:stedsnr" v="470478" />
	</node>
	<node lat="60.712172224633534" lon="4.933586108768991" id="-39369">
		<tag k="name" v="Sjørhaugmyra" />
		<tag k="natural" v="wetland" />
		<tag k="ssr:stedsnr" v="470495" />
	</node>
	<node lat="60.64102500059747" lon="5.33822221633562" id="-39381">
		<tag k="landuse" v="meadow" />
		<tag k="name" v="Saukefita" />
		<tag k="ssr:stedsnr" v="348009" />
	</node>
	<node lat="60.70994722616625" lon="4.969900001379142" id="-39399">
		<tag k="historic" v="shieling" />
		<tag k="name" v="Veststølen" />
		<tag k="place" v="locality" />
		<tag k="ssr:stedsnr" v="348325" />
	</node>
	<node lat="60.62683332917141" lon="5.063641673473083" id="-39423">
		<tag k="name" v="Merkesmyra" />
		<tag k="natural" v="wetland" />
		<tag k="ssr:stedsnr" v="348578" />
	</node>
	<node lat="60.616705556803545" lon="5.141324995221116" id="-39425">
		<tag k="name" v="Stølemyr" />
		<tag k="natural" v="wetland" />
		<tag k="ssr:stedsnr" v="348713" />
	</node>
	<node lat="60.701930556975135" lon="5.027580558038751" id="-39553">
		<tag k="name" v="Søkkjena" />
		<tag k="natural" v="wetland" />
		<tag k="ssr:stedsnr" v="409620" />
	</node>
	<node lat="60.80924166806617" lon="5.644674994378948" id="-39743">
		<tag k="name" v="Trollsura" />
		<tag k="natural" v="scree" />
		<tag k="ssr:stedsnr" v="469004" />
	</node>
	<node lat="60.80303888891643" lon="5.6299249931205955" id="-39747">
		<tag k="name" v="Svaena" />
		<tag k="place" v="locality" />
		<tag k="ssr:stedsnr" v="469061" />
	</node>
	<node lat="60.58729721770506" lon="5.14803610856747" id="-39801">
		<tag k="name" v="Rundamyra" />
		<tag k="natural" v="wetland" />
		<tag k="ssr:stedsnr" v="469513" />
	</node>
	<node lat="60.66008888895057" lon="5.341302770338085" id="-39824">
		<tag k="name" v="Kløvemyrane" />
		<tag k="natural" v="wetland" />
		<tag k="ssr:stedsnr" v="470061" />
	</node>
	<node lat="60.670905552862955" lon="5.062922221917367" id="-39845">
		<tag k="name" v="Såtemyra" />
		<tag k="natural" v="wetland" />
		<tag k="ssr:stedsnr" v="470662" />
	</node>
	<node lat="60.59841111145825" lon="5.381294438947668" id="-39951">
		<tag k="name" v="Kjerrena" />
		<tag k="place" v="locality" />
		<tag k="ssr:stedsnr" v="530317" />
	</node>
	<node lat="60.62138055812045" lon="5.102708327043559" id="-39979">
		<tag k="name" v="Høljemyrane" />
		<tag k="natural" v="wetland" />
		<tag k="ssr:stedsnr" v="530527" />
	</node>
	<node lat="60.61333055372777" lon="5.111361118938734" id="-39995">
		<tag k="name" v="Revurmyra" />
		<tag k="natural" v="wetland" />
		<tag k="ssr:stedsnr" v="530477" />
	</node>
	<node lat="60.70731667016549" lon="5.537283338163768" id="-40007">
		<tag k="name" v="Stallabrotet" />
		<tag k="natural" v="scree" />
		<tag k="ssr:stedsnr" v="530700" />
	</node>
	<node lat="60.72871666995842" lon="5.636274991437446" id="-40013">
		<tag k="name" v="Strokedalensmyra" />
		<tag k="natural" v="wetland" />
		<tag k="ssr:stedsnr" v="530940" />
	</node>
	<node lat="60.607361110116955" lon="4.979524996429893" id="-40022">
		<tag k="name" v="Vardemyra" />
		<tag k="natural" v="wetland" />
		<tag k="ssr:stedsnr" v="531432" />
	</node>
	<node lat="60.70654722007984" lon="5.2839222247074416" id="-40096">
		<tag k="name" v="Stortjørnmyra" />
		<tag k="natural" v="wetland" />
		<tag k="ssr:stedsnr" v="590229" />
	</node>
	<node lat="60.71273055258687" lon="5.538236115434799" id="-40128">
		<tag k="name" v="Olderkjerret" />
		<tag k="place" v="locality" />
		<tag k="ssr:stedsnr" v="590711" />
	</node>
	<node lat="60.598602776177145" lon="4.976905556563561" id="-40144">
		<tag k="name" v="Svartemyra" />
		<tag k="natural" v="wetland" />
		<tag k="ssr:stedsnr" v="591305" />
	</node>
	<node lat="60.58721111411715" lon="5.1945194399551715" id="-40152">
		<tag k="name" v="Soltveitmyrane" />
		<tag k="natural" v="wetland" />
		<tag k="ssr:stedsnr" v="591367" />
	</node>
	<node lat="60.61576944117945" lon="5.086755556176378" id="-40154">
		<tag k="name" v="Langemyra" />
		<tag k="natural" v="wetland" />
		<tag k="ssr:stedsnr" v="591505" />
	</node>
	<node lat="60.65822777715612" lon="5.080388885025783" id="-40297">
		<tag k="historic" v="shieling" />
		<tag k="name" v="Haugstølen" />
		<tag k="place" v="locality" />
		<tag k="ssr:stedsnr" v="651584" />
	</node>
	<node lat="60.76049166479341" lon="5.603475006657033" id="-40314">
		<tag k="name" v="Kløvsteinane" />
		<tag k="natural" v="stone" />
		<tag k="ssr:stedsnr" v="651887" />
	</node>
	<node lat="60.786233331405946" lon="5.628783334148765" id="-40322">
		<tag k="name" v="Jungkallmyrane" />
		<tag k="natural" v="wetland" />
		<tag k="ssr:stedsnr" v="651994" />
	</node>
	<node lat="60.680011109493584" lon="5.202552786089251" id="-40422">
		<tag k="name" v="Fagrevellena" />
		<tag k="natural" v="wetland" />
		<tag k="ssr:stedsnr" v="894267" />
	</node>
	<node lat="60.64027222094242" lon="5.128513889776402" id="-40461">
		<tag k="name" v="Storemyra" />
		<tag k="natural" v="wetland" />
		<tag k="ssr:stedsnr" v="894842" />
	</node>
	<node lat="60.73499444201609" lon="5.65355833905087" id="-40464">
		<tag k="name" v="Høydalsmyra" />
		<tag k="natural" v="wetland" />
		<tag k="ssr:stedsnr" v="894987" />
	</node>
	<node lat="60.53526944295184" lon="5.239011104723957" id="-40470">
		<tag k="name" v="Fossemarka" />
		<tag k="place" v="locality" />
		<tag k="ssr:stedsnr" v="895266" />
	</node>
	<node lat="60.53512499647731" lon="5.1092722272595035" id="-40472">
		<tag k="name" v="Klubbmyra" />
		<tag k="natural" v="wetland" />
		<tag k="ssr:stedsnr" v="895272" />
	</node>
	<node lat="60.54519722064995" lon="5.0491416666292945" id="-40476">
		<tag k="name" v="Langemyra" />
		<tag k="natural" v="wetland" />
		<tag k="ssr:stedsnr" v="895339" />
	</node>
	<node lat="60.6291583289045" lon="5.400977777772786" id="-40501">
		<tag k="name" v="Stormyra" />
		<tag k="natural" v="wetland" />
		<tag k="ssr:stedsnr" v="895441" />
	</node>
	<node lat="60.74118055557865" lon="5.517130554180114" id="-40520">
		<tag k="name" v="Sauasteinen" />
		<tag k="natural" v="stone" />
		<tag k="ssr:stedsnr" v="895597" />
	</node>
	<node lat="60.78579722220811" lon="5.049152780109978" id="-40593">
		<tag k="name" v="Semyra" />
		<tag k="natural" v="wetland" />
		<tag k="ssr:stedsnr" v="712435" />
	</node>
	<node lat="60.657091663246604" lon="5.44939166602889" id="-40594">
		<tag k="name" v="Pittjordsmyra" />
		<tag k="natural" v="wetland" />
		<tag k="ssr:stedsnr" v="712436" />
	</node>
</osm>
