<?xml version="1.0" encoding="UTF-8"?>
<osm version="0.6" generator="osmapis">
	<node lat="60.60949923918728" lon="5.266159065635153" id="-49452">
		<tag k="fixme" v="consider place=hamlet" />
		<tag k="name" v="Fiskeset" />
		<tag k="place" v="farm" />
		<tag k="ssr:stedsnr" v="6011" />
	</node>
	<node lat="60.57562105580321" lon="5.287623608839857" id="-49457">
		<tag k="name" v="Åse" />
		<tag k="place" v="hamlet" />
		<tag k="ssr:stedsnr" v="6066" />
	</node>
	<node lat="60.575316668485215" lon="5.345702776123094" id="-49458">
		<tag k="name" v="Dalabygdi" />
		<tag k="place" v="hamlet" />
		<tag k="ssr:stedsnr" v="6070" />
	</node>
	<node lat="60.66052500032023" lon="5.18735278236736" id="-49459">
		<tag k="name" v="Myksvoll" />
		<tag k="place" v="farm" />
		<tag k="ssr:stedsnr" v="6254" />
	</node>
	<node lat="60.662277778779575" lon="5.278302786209955" id="-49460">
		<tag k="name" v="Djupviki" />
		<tag k="place" v="farm" />
		<tag k="ssr:stedsnr" v="6257" />
	</node>
	<node lat="60.66354721802739" lon="4.981302769845895" id="-49464">
		<tag k="name" v="Hella" />
		<tag k="place" v="hamlet" />
		<tag k="ssr:stedsnr" v="6808" />
	</node>
	<node lat="60.707301563628405" lon="4.892460683279988" id="-49473">
		<tag k="name" v="Marøy" />
		<tag k="place" v="farm" />
		<tag k="ssr:stedsnr" v="20787" />
	</node>
	<node lat="60.53012778077707" lon="5.133930550198172" id="-49489">
		<tag k="name" v="Orrhøyen" />
		<tag k="place" v="quarter" />
		<tag k="ssr:stedsnr" v="40061" />
	</node>
	<node lat="60.56017777679497" lon="5.31730833246954" id="-49491">
		<tag k="name" v="Grøttveit" />
		<tag k="place" v="farm" />
		<tag k="ssr:stedsnr" v="44106" />
	</node>
	<node lat="60.57599166859752" lon="5.2868444375709505" id="-49507">
		<tag k="name" v="Åse" />
		<tag k="place" v="farm" />
		<tag k="ssr:stedsnr" v="44166" />
	</node>
	<node lat="60.6093138895818" lon="5.38256944413562" id="-49512">
		<tag k="historic" v="shieling" />
		<tag k="name" v="Litlestølen" />
		<tag k="place" v="isolated_dwelling" />
		<tag k="ssr:stedsnr" v="44311" />
	</node>
	<node lat="60.646447220185806" lon="5.348183340309357" id="-49538">
		<tag k="name" v="Husebø" />
		<tag k="place" v="farm" />
		<tag k="ssr:stedsnr" v="45015" />
	</node>
	<node lat="60.71412222411373" lon="5.052183341703534" id="-49545">
		<tag k="name" v="Kalven" />
		<tag k="place" v="farm" />
		<tag k="ssr:stedsnr" v="45106" />
	</node>
	<node lat="60.667094442987974" lon="5.496550003770602" id="-49574">
		<tag k="historic" v="shieling" />
		<tag k="name" v="Andåssetra" />
		<tag k="place" v="isolated_dwelling" />
		<tag k="ssr:stedsnr" v="45575" />
	</node>
	<node lat="60.75225832973745" lon="5.493549994885404" id="-49586">
		<tag k="historic" v="shieling" />
		<tag k="name" v="Gamlesetra" />
		<tag k="place" v="isolated_dwelling" />
		<tag k="ssr:stedsnr" v="45608" />
	</node>
	<node lat="60.68982854937563" lon="5.042366192820353" id="-49589">
		<tag k="fixme" v="consider place=hamlet" />
		<tag k="name" v="Ystebø" />
		<tag k="place" v="farm" />
		<tag k="ssr:stedsnr" v="45622" />
	</node>
	<node lat="60.55350833026959" lon="5.278433337641055" id="-49616">
		<tag k="name" v="Juvikstølen" />
		<tag k="place" v="quarter" />
		<tag k="ssr:stedsnr" v="56789" />
	</node>
	<node lat="60.52083632549496" lon="5.2315875676207755" id="-49619">
		<tag k="fixme" v="consider place=hamlet" />
		<tag k="name" v="Langeland" />
		<tag k="place" v="farm" />
		<tag k="ssr:stedsnr" v="66364" />
	</node>
	<node lat="60.56136944612543" lon="5.051550008052458" id="-49622">
		<tag k="fixme" v="consider place=suburb, village or hamlet" />
		<tag k="name" v="Vikebø" />
		<tag k="place" v="quarter" />
		<tag k="ssr:stedsnr" v="66904" />
	</node>
	<node lat="60.570238545727854" lon="5.078459902323858" id="-49623">
		<tag k="alt_name" v="Åsbø" />
		<tag k="fixme" v="consider place=hamlet" />
		<tag k="name" v="Åsebø" />
		<tag k="place" v="farm" />
		<tag k="ssr:stedsnr" v="66909" />
	</node>
	<node lat="60.55537033433792" lon="5.21222365977185" id="-49627">
		<tag k="name" v="Skarpeneset" />
		<tag k="place" v="hamlet" />
		<tag k="ssr:stedsnr" v="67105" />
	</node>
	<node lat="60.599088892168545" lon="5.203272216294048" id="-49630">
		<tag k="name" v="Kallneset" />
		<tag k="place" v="farm" />
		<tag k="ssr:stedsnr" v="67045" />
	</node>
	<node lat="60.62391944481134" lon="5.138461115617079" id="-49631">
		<tag k="name" v="Holo" />
		<tag k="place" v="farm" />
		<tag k="ssr:stedsnr" v="67049" />
	</node>
	<node lat="60.51197499969025" lon="5.229494449056493" id="-49635">
		<tag k="fixme" v="consider place=suburb, village or hamlet" />
		<tag k="name" v="Vikane" />
		<tag k="place" v="quarter" />
		<tag k="ssr:stedsnr" v="67516" />
	</node>
	<node lat="60.7429638906922" lon="5.1556444406741075" id="-49639">
		<tag k="fixme" v="consider place=suburb, village or hamlet" />
		<tag k="name" v="Kolås" />
		<tag k="place" v="quarter" />
		<tag k="ssr:stedsnr" v="67694" />
	</node>
	<node lat="60.76106810007293" lon="5.069385713096116" id="-49651">
		<tag k="fixme" v="consider place=hamlet" />
		<tag k="name" v="Risa" />
		<tag k="place" v="farm" />
		<tag k="ssr:stedsnr" v="69192" />
	</node>
	<node lat="60.64203695685427" lon="5.0489957714985385" id="-49660">
		<tag k="name" v="Hesthaugen" />
		<tag k="place" v="farm" />
		<tag k="ssr:stedsnr" v="82223" />
	</node>
	<node lat="60.62968682120172" lon="5.140095814399016" id="-49675">
		<tag k="fixme" v="consider place=hamlet" />
		<tag k="name" v="Dale" />
		<tag k="place" v="farm" />
		<tag k="ssr:stedsnr" v="248030" />
	</node>
	<node lat="60.63065555960004" lon="5.181113886721488" id="-49677">
		<tag k="loc_name" v="Nappane" />
		<tag k="name" v="Nappen" />
		<tag k="place" v="farm" />
		<tag k="ssr:stedsnr" v="248041" />
	</node>
	<node lat="60.68796327195726" lon="5.324644381278127" id="-49680">
		<tag k="fixme" v="consider place=hamlet" />
		<tag k="name" v="Bjørnevoll" />
		<tag k="place" v="farm" />
		<tag k="ssr:stedsnr" v="249134" />
	</node>
	<node lat="60.68635996011209" lon="5.340996002607009" id="-49681">
		<tag k="fixme" v="consider place=hamlet" />
		<tag k="name" v="Jordal" />
		<tag k="place" v="farm" />
		<tag k="ssr:stedsnr" v="249135" />
	</node>
	<node lat="60.73768611560569" lon="5.639338896531273" id="-49682">
		<tag k="name" v="Nordli" />
		<tag k="place" v="farm" />
		<tag k="ssr:stedsnr" v="248434" />
	</node>
	<node lat="60.62903333176588" lon="5.435438890817992" id="-49686">
		<tag k="name" v="Bjørgetrædet" />
		<tag k="place" v="farm" />
		<tag k="ssr:stedsnr" v="249004" />
	</node>
	<node lat="60.60466145995858" lon="5.175079452759266" id="-49687">
		<tag k="alt_name" v="Storheim" />
		<tag k="fixme" v="consider place=hamlet" />
		<tag k="name" v="Storeim" />
		<tag k="place" v="farm" />
		<tag k="ssr:stedsnr" v="249010" />
	</node>
	<node lat="60.657019899985336" lon="4.956079559061015" id="-49690">
		<tag k="alt_name" v="Flone" />
		<tag k="fixme" v="consider place=hamlet" />
		<tag k="name" v="Floni" />
		<tag k="place" v="farm" />
		<tag k="ssr:stedsnr" v="248989" />
	</node>
	<node lat="60.61776306964199" lon="5.14736850325999" id="-49691">
		<tag k="fixme" v="consider place=hamlet" />
		<tag k="name" v="Kvamme" />
		<tag k="place" v="farm" />
		<tag k="ssr:stedsnr" v="249048" />
	</node>
	<node lat="60.55122270775602" lon="5.193132264930922" id="-49696">
		<tag k="fixme" v="consider place=hamlet" />
		<tag k="name" v="Grasdal" />
		<tag k="place" v="farm" />
		<tag k="ssr:stedsnr" v="249087" />
	</node>
	<node lat="60.588991667261546" lon="5.287538883845818" id="-49704">
		<tag k="historic" v="shieling" />
		<tag k="name" v="Slåstølen" />
		<tag k="place" v="isolated_dwelling" />
		<tag k="ssr:stedsnr" v="105033" />
	</node>
	<node lat="60.55270277921816" lon="5.28192499877899" id="-49708">
		<tag k="historic" v="shieling" />
		<tag k="name" v="Juvikstølen" />
		<tag k="place" v="isolated_dwelling" />
		<tag k="ssr:stedsnr" v="105093" />
	</node>
	<node lat="60.65801944618566" lon="5.343624999288912" id="-49711">
		<tag k="name" v="Kløvheim" />
		<tag k="place" v="farm" />
		<tag k="ssr:stedsnr" v="249182" />
	</node>
	<node lat="60.587313884863" lon="5.352538891472288" id="-49724">
		<tag k="name" v="Teviki" />
		<tag k="place" v="farm" />
		<tag k="ssr:stedsnr" v="105306" />
	</node>
	<node lat="60.59026389162509" lon="5.3924722215293865" id="-49728">
		<tag k="fixme" v="consider place=hamlet" />
		<tag k="name" v="Fyllingsnes" />
		<tag k="place" v="farm" />
		<tag k="ssr:stedsnr" v="105319" />
	</node>
	<node lat="60.66473797185315" lon="5.324284181083007" id="-49730">
		<tag k="fixme" v="consider place=hamlet" />
		<tag k="name" v="Reikerås" />
		<tag k="place" v="farm" />
		<tag k="ssr:stedsnr" v="249230" />
	</node>
	<node lat="60.71673825248634" lon="5.620918540537949" id="-49752">
		<tag k="alt_name" v="Litle Aurdal;Vetleurdal" />
		<tag k="fixme" v="consider place=hamlet" />
		<tag k="name" v="Vetle-Aurdal" />
		<tag k="place" v="farm" />
		<tag k="ssr:stedsnr" v="249288" />
	</node>
	<node lat="60.718033333234395" lon="4.997636106858969" id="-49764">
		<tag k="name" v="Åsheim" />
		<tag k="place" v="farm" />
		<tag k="ssr:stedsnr" v="105696" />
	</node>
	<node lat="60.64501944016861" lon="5.085125004044958" id="-49801">
		<tag k="name" v="Sævdal" />
		<tag k="place" v="farm" />
		<tag k="ssr:stedsnr" v="106584" />
	</node>
	<node lat="60.51320555263092" lon="5.242516659395145" id="-49802">
		<tag k="name" v="Frekhaug" />
		<tag k="place" v="village" />
		<tag k="ssr:stedsnr" v="249497" />
	</node>
	<node lat="60.54529721897639" lon="5.2820777846658515" id="-49817">
		<tag k="name" v="Knarvik" />
		<tag k="place" v="village" />
		<tag k="ssr:stedsnr" v="249433" />
	</node>
	<node lat="60.54234168334956" lon="5.159747606144969" id="-49819">
		<tag k="name" v="Tveit" />
		<tag k="old_name" v="Tveiten" />
		<tag k="place" v="hamlet" />
		<tag k="ssr:stedsnr" v="249440" />
	</node>
	<node lat="60.74332593883113" lon="5.0809585228881735" id="-49832">
		<tag k="fixme" v="consider place=hamlet" />
		<tag k="name" v="Finnesbø" />
		<tag k="place" v="farm" />
		<tag k="ssr:stedsnr" v="249740" />
	</node>
	<node lat="60.70833341842468" lon="4.9312208879634145" id="-49835">
		<tag k="fixme" v="consider place=hamlet" />
		<tag k="name" v="Rikstad" />
		<tag k="place" v="farm" />
		<tag k="ssr:stedsnr" v="249818" />
	</node>
	<node lat="60.72551315245014" lon="4.974441269603103" id="-49837">
		<tag k="fixme" v="consider place=hamlet" />
		<tag k="name" v="Straume" />
		<tag k="place" v="farm" />
		<tag k="ssr:stedsnr" v="249836" />
	</node>
	<node lat="60.75391110746398" lon="5.6291555546555525" id="-49852">
		<tag k="name" v="Gamlesætri" />
		<tag k="place" v="farm" />
		<tag k="ssr:stedsnr" v="251058" />
	</node>
	<node lat="60.78223790810359" lon="5.077768473710164" id="-49855">
		<tag k="alt_name" v="Knarrviki;Knarvik" />
		<tag k="fixme" v="consider place=hamlet" />
		<tag k="name" v="Knarrvik" />
		<tag k="place" v="farm" />
		<tag k="ssr:stedsnr" v="251261" />
	</node>
	<node lat="60.801327699225226" lon="5.637380122423372" id="-49859">
		<tag k="alt_name" v="Dyrkolbotn;Dyrkollbotn" />
		<tag k="fixme" v="consider place=hamlet" />
		<tag k="name" v="Dyrkollebotnen" />
		<tag k="old_name" v="Dyrkollbotnen" />
		<tag k="place" v="farm" />
		<tag k="ssr:stedsnr" v="251503" />
	</node>
	<node lat="60.63881944783455" lon="5.114419447417965" id="-49866">
		<tag k="name" v="Namntveit" />
		<tag k="place" v="hamlet" />
		<tag k="ssr:stedsnr" v="127212" />
	</node>
	<node lat="60.673233239350225" lon="5.250098648096255" id="-49869">
		<tag k="fixme" v="consider place=hamlet" />
		<tag k="name" v="Grimstad" />
		<tag k="place" v="farm" />
		<tag k="ssr:stedsnr" v="127254" />
	</node>
	<node lat="60.59546840288472" lon="5.359854945979846" id="-49871">
		<tag k="alt_name" v="Hjelmås" />
		<tag k="fixme" v="consider place=hamlet" />
		<tag k="name" v="Hjelmåsen" />
		<tag k="place" v="farm" />
		<tag k="ssr:stedsnr" v="127106" />
	</node>
	<node lat="60.580699846301826" lon="5.247436233630678" id="-49872">
		<tag k="fixme" v="consider place=hamlet" />
		<tag k="name" v="Erstad" />
		<tag k="place" v="farm" />
		<tag k="ssr:stedsnr" v="127113" />
	</node>
	<node lat="60.68215598812173" lon="5.392839479295841" id="-49874">
		<tag k="alt_name" v="Hølleland" />
		<tag k="fixme" v="consider place=hamlet" />
		<tag k="name" v="Hølland" />
		<tag k="place" v="farm" />
		<tag k="ssr:stedsnr" v="127150" />
	</node>
	<node lat="60.708142514195295" lon="5.210138958031188" id="-49875">
		<tag k="fixme" v="consider place=hamlet" />
		<tag k="name" v="Brunnsland" />
		<tag k="place" v="farm" />
		<tag k="ssr:stedsnr" v="127200" />
	</node>
	<node lat="60.74162067165316" lon="5.181445069179569" id="-49884">
		<tag k="fixme" v="consider place=hamlet" />
		<tag k="name" v="Holmås" />
		<tag k="place" v="farm" />
		<tag k="ssr:stedsnr" v="128656" />
	</node>
	<node lat="60.73810376048281" lon="5.119119592346665" id="-49885">
		<tag k="fixme" v="consider place=hamlet" />
		<tag k="name" v="Syslok" />
		<tag k="place" v="farm" />
		<tag k="ssr:stedsnr" v="128661" />
	</node>
	<node lat="60.74120277549155" lon="5.103188889333535" id="-49887">
		<tag k="name" v="Lyngbø" />
		<tag k="place" v="farm" />
		<tag k="ssr:stedsnr" v="128664" />
	</node>
	<node lat="60.68522771393939" lon="4.939451324640462" id="-49894">
		<tag k="fixme" v="consider place=hamlet" />
		<tag k="name" v="Nedre Kvalheim" />
		<tag k="place" v="farm" />
		<tag k="ssr:stedsnr" v="145233" />
	</node>
	<node lat="60.73869999908246" lon="5.140261108194832" id="-49925">
		<tag k="name" v="Skjerje" />
		<tag k="place" v="farm" />
		<tag k="ssr:stedsnr" v="166210" />
	</node>
	<node lat="60.748124999772266" lon="5.1725583367807015" id="-49929">
		<tag k="name" v="Jordgamme" />
		<tag k="place" v="locality" />
		<tag k="ssr:stedsnr" v="166228" />
	</node>
	<node lat="60.62292499991656" lon="5.4182000059310935" id="-49935">
		<tag k="name" v="Vasshelle" />
		<tag k="place" v="farm" />
		<tag k="ssr:stedsnr" v="166305" />
	</node>
	<node lat="60.65783611039169" lon="4.923650004114817" id="-49938">
		<tag k="name" v="Uttoska" />
		<tag k="place" v="farm" />
		<tag k="ssr:stedsnr" v="166309" />
	</node>
	<node lat="60.61675000129134" lon="5.379269443680775" id="-49944">
		<tag k="name" v="Eikangerlid" />
		<tag k="place" v="farm" />
		<tag k="ssr:stedsnr" v="166327" />
	</node>
	<node lat="60.63895278072544" lon="5.174597215823708" id="-49945">
		<tag k="name" v="Titland" />
		<tag k="place" v="farm" />
		<tag k="ssr:stedsnr" v="166329" />
	</node>
	<node lat="60.5800611142248" lon="5.213519450280694" id="-49948">
		<tag k="alt_name" v="Soltveit søre" />
		<tag k="fixme" v="consider place=hamlet" />
		<tag k="name" v="Søre Soltveit" />
		<tag k="place" v="farm" />
		<tag k="ssr:stedsnr" v="166408" />
	</node>
	<node lat="60.57890277826754" lon="5.23091666479908" id="-49952">
		<tag k="alt_name" v="Tveiten nedre" />
		<tag k="name" v="Nedre Tveiten" />
		<tag k="place" v="farm" />
		<tag k="ssr:stedsnr" v="166414" />
	</node>
	<node lat="60.671108331193054" lon="5.022424994425648" id="-49960">
		<tag k="name" v="Helland" />
		<tag k="place" v="farm" />
		<tag k="ssr:stedsnr" v="166640" />
	</node>
	<node lat="60.640388885576755" lon="5.0411722139482675" id="-49968">
		<tag k="alt_name" v="Manger Nedre" />
		<tag k="name" v="Nedre Manger" />
		<tag k="place" v="farm" />
		<tag k="ssr:stedsnr" v="166566" />
	</node>
	<node lat="60.601836112703275" lon="5.06222499328305" id="-49984">
		<tag k="fixme" v="consider place=hamlet" />
		<tag k="name" v="Landsvik" />
		<tag k="place" v="farm" />
		<tag k="ssr:stedsnr" v="167273" />
	</node>
	<node lat="60.51291388924461" lon="5.2435611047041" id="-49985">
		<tag k="name" v="Skansen" />
		<tag k="place" v="farm" />
		<tag k="ssr:stedsnr" v="167279" />
	</node>
	<node lat="60.597169442867646" lon="5.057191675355105" id="-49993">
		<tag k="historic" v="shieling" />
		<tag k="name" v="Heststølen" />
		<tag k="place" v="isolated_dwelling" />
		<tag k="ssr:stedsnr" v="167363" />
	</node>
	<node lat="60.60887820499363" lon="5.243060765852403" id="-50001">
		<tag k="name" v="Elsås" />
		<tag k="place" v="hamlet" />
		<tag k="ssr:stedsnr" v="188013" />
	</node>
	<node lat="60.61026110951799" lon="5.3886555537793654" id="-50002">
		<tag k="name" v="Eikanger" />
		<tag k="place" v="hamlet" />
		<tag k="ssr:stedsnr" v="188022" />
	</node>
	<node lat="60.616058336825795" lon="5.183991671042692" id="-50003">
		<tag k="name" v="Solstrand" />
		<tag k="place" v="farm" />
		<tag k="ssr:stedsnr" v="188073" />
	</node>
	<node lat="60.72040813733363" lon="5.214788366188079" id="-50006">
		<tag k="fixme" v="consider place=hamlet" />
		<tag k="name" v="Våge" />
		<tag k="place" v="farm" />
		<tag k="ssr:stedsnr" v="188205" />
	</node>
	<node lat="60.55906329607183" lon="5.168973880450027" id="-50007">
		<tag k="fixme" v="consider place=hamlet" />
		<tag k="name" v="Hestnes" />
		<tag k="place" v="farm" />
		<tag k="ssr:stedsnr" v="188103" />
	</node>
	<node lat="60.60436507233008" lon="5.4143236454263715" id="-50008">
		<tag k="alt_name" v="Eidsnes, yt" />
		<tag k="fixme" v="consider place=hamlet" />
		<tag k="name" v="Ytre Eidsnes" />
		<tag k="place" v="farm" />
		<tag k="ssr:stedsnr" v="188109" />
	</node>
	<node lat="60.60444444805509" lon="5.449072216951773" id="-50009">
		<tag k="alt_name" v="Eiknes" />
		<tag k="name" v="Eknes" />
		<tag k="place" v="hamlet" />
		<tag k="ssr:stedsnr" v="188113" />
	</node>
	<node lat="60.54603244412207" lon="5.2157201550512635" id="-50012">
		<tag k="fixme" v="consider place=hamlet" />
		<tag k="name" v="Moldekleiv" />
		<tag k="place" v="farm" />
		<tag k="ssr:stedsnr" v="188474" />
	</node>
	<node lat="60.67409166375499" lon="5.605638893073129" id="-50014">
		<tag k="name" v="Pynten" />
		<tag k="place" v="farm" />
		<tag k="ssr:stedsnr" v="188380" />
	</node>
	<node lat="60.691836109165514" lon="4.968436110135605" id="-50017">
		<tag k="fixme" v="consider place=hamlet" />
		<tag k="name" v="Listveiten" />
		<tag k="place" v="farm" />
		<tag k="ssr:stedsnr" v="188815" />
	</node>
	<node lat="60.59319166411999" lon="4.990074992353546" id="-50023">
		<tag k="name" v="Sætre" />
		<tag k="place" v="farm" />
		<tag k="ssr:stedsnr" v="188944" />
	</node>
	<node lat="60.600955557801974" lon="4.964488880146544" id="-50025">
		<tag k="name" v="Skjeljanger" />
		<tag k="place" v="hamlet" />
		<tag k="ssr:stedsnr" v="188957" />
	</node>
	<node lat="60.66120851974997" lon="5.025728593568836" id="-50030">
		<tag k="name" v="Tveiten" />
		<tag k="place" v="hamlet" />
		<tag k="ssr:stedsnr" v="188979" />
	</node>
	<node lat="60.64266388805336" lon="4.966388889656543" id="-50033">
		<tag k="name" v="Toska" />
		<tag k="place" v="hamlet" />
		<tag k="ssr:stedsnr" v="188984" />
	</node>
	<node lat="60.7695277732506" lon="5.609786103275998" id="-50034">
		<tag k="historic" v="shieling" />
		<tag k="name" v="Laksebotnen" />
		<tag k="place" v="isolated_dwelling" />
		<tag k="ssr:stedsnr" v="190464" />
	</node>
	<node lat="60.710816669316074" lon="4.885924990809553" id="-50037">
		<tag k="name" v="Marøy" />
		<tag k="place" v="farm" />
		<tag k="ssr:stedsnr" v="263761" />
	</node>
	<node lat="60.709883331678306" lon="4.889055556605699" id="-50038">
		<tag k="name" v="Marøy" />
		<tag k="place" v="farm" />
		<tag k="ssr:stedsnr" v="263762" />
	</node>
	<node lat="60.702830553999085" lon="4.927972222289198" id="-50043">
		<tag k="name" v="Nordbø" />
		<tag k="place" v="farm" />
		<tag k="ssr:stedsnr" v="267198" />
	</node>
	<node lat="60.71175000315968" lon="4.981552782400213" id="-50058">
		<tag k="fixme" v="consider place=hamlet" />
		<tag k="name" v="Norangsvågen" />
		<tag k="place" v="village" />
		<tag k="ssr:stedsnr" v="206209" />
	</node>
	<node lat="60.732691670339804" lon="5.106244436224882" id="-50063">
		<tag k="name" v="Skornes" />
		<tag k="place" v="farm" />
		<tag k="ssr:stedsnr" v="207139" />
	</node>
	<node lat="60.622086109243696" lon="5.083930555236469" id="-50065">
		<tag k="name" v="Bogehamn" />
		<tag k="place" v="hamlet" />
		<tag k="ssr:stedsnr" v="207612" />
	</node>
	<node lat="60.63596565275537" lon="5.028654452222837" id="-50069">
		<tag k="name" v="Selfallet" />
		<tag k="place" v="farm" />
		<tag k="ssr:stedsnr" v="210539" />
	</node>
	<node lat="60.745883976264366" lon="5.065164750534135" id="-50070">
		<tag k="fixme" v="consider place=hamlet" />
		<tag k="name" v="Risøy" />
		<tag k="place" v="farm" />
		<tag k="ssr:stedsnr" v="328152" />
	</node>
	<node lat="60.59306389081115" lon="5.364119450724112" id="-50071">
		<tag k="name" v="Hjelmås" />
		<tag k="place" v="hamlet" />
		<tag k="ssr:stedsnr" v="213374" />
	</node>
	<node lat="60.55366110740262" lon="5.008402778726907" id="-50072">
		<tag k="name" v="Øpso" />
		<tag k="place" v="farm" />
		<tag k="ssr:stedsnr" v="218626" />
	</node>
	<node lat="60.509216665551456" lon="5.227063882208495" id="-50073">
		<tag k="name" v="Frekhaugmarka" />
		<tag k="place" v="quarter" />
		<tag k="ssr:stedsnr" v="222006" />
	</node>
	<node lat="60.56679444066818" lon="5.364422221196161" id="-50117">
		<tag k="alt_name" v="Mundal nedre" />
		<tag k="name" v="Nedre Mundal" />
		<tag k="place" v="farm" />
		<tag k="ssr:stedsnr" v="227336" />
	</node>
	<node lat="60.56604166327862" lon="5.126763897921096" id="-50164">
		<tag k="alt_name" v="Gripsgard;Gripsgård" />
		<tag k="name" v="Gripen" />
		<tag k="place" v="farm" />
		<tag k="ssr:stedsnr" v="248065" />
	</node>
	<node lat="60.67185012320321" lon="5.472813883585077" id="-50167">
		<tag k="alt_name" v="Andås" />
		<tag k="fixme" v="consider place=hamlet" />
		<tag k="name" v="Odnåsen" />
		<tag k="place" v="farm" />
		<tag k="ssr:stedsnr" v="248320" />
	</node>
	<node lat="60.55814697592417" lon="5.052126684925287" id="-50172">
		<tag k="name" v="Ryland" />
		<tag k="place" v="hamlet" />
		<tag k="ssr:stedsnr" v="248920" />
	</node>
	<node lat="60.66476535793006" lon="5.422770349504152" id="-50176">
		<tag k="fixme" v="consider place=hamlet" />
		<tag k="name" v="Rød" />
		<tag k="place" v="farm" />
		<tag k="ssr:stedsnr" v="249219" />
	</node>
	<node lat="60.67619999691841" lon="5.410450008660738" id="-50178">
		<tag k="alt_name" v="Veland, øvre;Veland" />
		<tag k="name" v="Øvre Veland" />
		<tag k="place" v="farm" />
		<tag k="ssr:stedsnr" v="249200" />
	</node>
	<node lat="60.54572221837152" lon="5.1361000061225175" id="-50179">
		<tag k="name" v="Indre-Brakstad" />
		<tag k="place" v="farm" />
		<tag k="ssr:stedsnr" v="454698" />
	</node>
	<node lat="60.72915530970543" lon="5.184836648741914" id="-50190">
		<tag k="fixme" v="consider place=hamlet" />
		<tag k="name" v="Haukås" />
		<tag k="place" v="farm" />
		<tag k="ssr:stedsnr" v="268894" />
	</node>
	<node lat="60.69752500116379" lon="5.263305562985277" id="-50193">
		<tag k="name" v="Nordre Fjellsbø" />
		<tag k="place" v="farm" />
		<tag k="ssr:stedsnr" v="287027" />
	</node>
	<node lat="60.60793610777984" lon="5.246352776939248" id="-50196">
		<tag k="historic" v="shieling" />
		<tag k="name" v="Gullstølen" />
		<tag k="place" v="isolated_dwelling" />
		<tag k="ssr:stedsnr" v="287036" />
	</node>
	<node lat="60.54208145680906" lon="5.159277251196936" id="-50201">
		<tag k="name" v="Tveiten" />
		<tag k="place" v="farm" />
		<tag k="ssr:stedsnr" v="287094" />
	</node>
	<node lat="60.51061944393982" lon="5.227963895574952" id="-50202">
		<tag k="name" v="Vikane" />
		<tag k="place" v="farm" />
		<tag k="ssr:stedsnr" v="287097" />
	</node>
	<node lat="60.676522221996116" lon="5.331338890222131" id="-50204">
		<tag k="name" v="Kleiva" />
		<tag k="place" v="farm" />
		<tag k="ssr:stedsnr" v="287211" />
	</node>
	<node lat="60.742313886723075" lon="5.236041665841345" id="-50205">
		<tag k="name" v="Vabø" />
		<tag k="place" v="farm" />
		<tag k="ssr:stedsnr" v="287213" />
	</node>
	<node lat="60.671786111327116" lon="5.250044450883323" id="-50207">
		<tag k="name" v="Søre Grimstad" />
		<tag k="place" v="farm" />
		<tag k="ssr:stedsnr" v="287229" />
	</node>
	<node lat="60.74552500163034" lon="5.172488889977653" id="-50208">
		<tag k="alt_name" v="Fonnebust" />
		<tag k="name" v="Fonnebost" />
		<tag k="place" v="village" />
		<tag k="ssr:stedsnr" v="287233" />
	</node>
	<node lat="60.563883330552244" lon="5.054149992523184" id="-50210">
		<tag k="fixme" v="consider place=hamlet" />
		<tag k="name" v="Vikebø" />
		<tag k="place" v="farm" />
		<tag k="ssr:stedsnr" v="287104" />
	</node>
	<node lat="60.5540210139716" lon="5.007053994867855" id="-50212">
		<tag k="fixme" v="consider place=hamlet" />
		<tag k="name" v="Øpso" />
		<tag k="place" v="farm" />
		<tag k="ssr:stedsnr" v="287108" />
	</node>
	<node lat="60.7146361111769" lon="5.124991668590241" id="-50221">
		<tag k="name" v="Kvalvågnes" />
		<tag k="place" v="farm" />
		<tag k="ssr:stedsnr" v="287201" />
	</node>
	<node lat="60.614261113564424" lon="5.386847229832157" id="-50224">
		<tag k="alt_name" v="Eikanger øvre" />
		<tag k="name" v="Øvre Eikanger" />
		<tag k="place" v="farm" />
		<tag k="ssr:stedsnr" v="287333" />
	</node>
	<node lat="60.661958328786746" lon="5.420627772819403" id="-50226">
		<tag k="fixme" v="consider place=hamlet" />
		<tag k="name" v="Askelandsvågen" />
		<tag k="place" v="village" />
		<tag k="ssr:stedsnr" v="287287" />
	</node>
	<node lat="60.581150002705996" lon="5.208830548153698" id="-50231">
		<tag k="alt_name" v="Soltveit nordre" />
		<tag k="fixme" v="consider place=hamlet" />
		<tag k="name" v="Nordre Soltveit" />
		<tag k="place" v="farm" />
		<tag k="ssr:stedsnr" v="287434" />
	</node>
	<node lat="60.60219999835823" lon="5.178388891788627" id="-50255">
		<tag k="name" v="Nordre Haukeland" />
		<tag k="place" v="farm" />
		<tag k="ssr:stedsnr" v="287788" />
	</node>
	<node lat="60.65925833708746" lon="5.3449083417382095" id="-50262">
		<tag k="name" v="Kløvheim" />
		<tag k="place" v="farm" />
		<tag k="ssr:stedsnr" v="288086" />
	</node>
	<node lat="60.72774636270073" lon="5.643515453255129" id="-50264">
		<tag k="name" v="Romarheim" />
		<tag k="place" v="village" />
		<tag k="ssr:stedsnr" v="287999" />
	</node>
	<node lat="60.567711108630704" lon="5.053769446428765" id="-50265">
		<tag k="name" v="Rossland" />
		<tag k="place" v="hamlet" />
		<tag k="ssr:stedsnr" v="288130" />
	</node>
	<node lat="60.66256944202041" lon="5.030791661330858" id="-50289">
		<tag k="alt_name" v="Tveiten nedre" />
		<tag k="fixme" v="consider place=hamlet" />
		<tag k="name" v="Nedre Tveiten" />
		<tag k="place" v="farm" />
		<tag k="ssr:stedsnr" v="288494" />
	</node>
	<node lat="60.56991944204084" lon="5.186480560317541" id="-50311">
		<tag k="name" v="Nymark" />
		<tag k="place" v="farm" />
		<tag k="ssr:stedsnr" v="309134" />
	</node>
	<node lat="60.6143555572607" lon="5.252430560750163" id="-50315">
		<tag k="name" v="Nymark" />
		<tag k="place" v="farm" />
		<tag k="ssr:stedsnr" v="309012" />
	</node>
	<node lat="60.61055727737593" lon="5.211167135944965" id="-50316">
		<tag k="fixme" v="consider place=hamlet" />
		<tag k="name" v="Selevoll" />
		<tag k="place" v="farm" />
		<tag k="ssr:stedsnr" v="309014" />
	</node>
	<node lat="60.61824106717562" lon="5.431219730514603" id="-50317">
		<tag k="fixme" v="consider place=hamlet" />
		<tag k="name" v="Bjørndal" />
		<tag k="place" v="farm" />
		<tag k="ssr:stedsnr" v="309021" />
	</node>
	<node lat="60.625022303185006" lon="5.268308114259385" id="-50318">
		<tag k="alt_name" v="Rydland" />
		<tag k="fixme" v="consider place=hamlet" />
		<tag k="name" v="Ryland" />
		<tag k="place" v="farm" />
		<tag k="ssr:stedsnr" v="309041" />
	</node>
	<node lat="60.556297813492876" lon="5.137804608030159" id="-50320">
		<tag k="alt_name" v="Mørtveit;Mortveit" />
		<tag k="fixme" v="consider place=hamlet" />
		<tag k="name" v="Myrtveit" />
		<tag k="place" v="farm" />
		<tag k="ssr:stedsnr" v="309090" />
	</node>
	<node lat="60.55696388848187" lon="5.2682833360191115" id="-50321">
		<tag k="name" v="Nygarden" />
		<tag k="place" v="farm" />
		<tag k="ssr:stedsnr" v="309095" />
	</node>
	<node lat="60.7117981425067" lon="5.5412789467663925" id="-50324">
		<tag k="fixme" v="consider place=hamlet" />
		<tag k="name" v="Eikemo" />
		<tag k="place" v="farm" />
		<tag k="ssr:stedsnr" v="309333" />
	</node>
	<node lat="60.693195840261836" lon="5.031664363528182" id="-50336">
		<tag k="fixme" v="consider place=hamlet" />
		<tag k="name" v="Gjerde" />
		<tag k="place" v="farm" />
		<tag k="ssr:stedsnr" v="309780" />
	</node>
	<node lat="60.591075675039015" lon="5.282247978805818" id="-50342">
		<tag k="fixme" v="consider place=hamlet" />
		<tag k="name" v="Hjelmtveit" />
		<tag k="place" v="farm" />
		<tag k="ssr:stedsnr" v="310104" />
	</node>
	<node lat="60.53225277409717" lon="5.191391661106748" id="-50343">
		<tag k="name" v="Dale" />
		<tag k="place" v="hamlet" />
		<tag k="ssr:stedsnr" v="310410" />
	</node>
	<node lat="60.52816962129258" lon="5.176052031252732" id="-50345">
		<tag k="fixme" v="consider place=hamlet" />
		<tag k="name" v="Hopland" />
		<tag k="place" v="farm" />
		<tag k="ssr:stedsnr" v="310397" />
	</node>
	<node lat="60.68297777568819" lon="4.935780547334945" id="-50347">
		<tag k="name" v="Brømstølen" />
		<tag k="place" v="farm" />
		<tag k="ssr:stedsnr" v="468298" />
	</node>
	<node lat="60.568372224269346" lon="5.2481194438213254" id="-50348">
		<tag k="historic" v="shieling" />
		<tag k="name" v="Grønstølen" />
		<tag k="place" v="isolated_dwelling" />
		<tag k="ssr:stedsnr" v="469117" />
	</node>
	<node lat="60.603638892474336" lon="5.27839722492493" id="-50366">
		<tag k="name" v="Nyland" />
		<tag k="place" v="farm" />
		<tag k="ssr:stedsnr" v="469045" />
	</node>
	<node lat="60.568544443184116" lon="5.340836108690773" id="-50377">
		<tag k="historic" v="shieling" />
		<tag k="name" v="Setret" />
		<tag k="place" v="isolated_dwelling" />
		<tag k="ssr:stedsnr" v="469134" />
	</node>
	<node lat="60.572933330493555" lon="5.3481527825127575" id="-50379">
		<tag k="alt_name" v="Mundal øvre" />
		<tag k="name" v="Øvre Mundal" />
		<tag k="place" v="farm" />
		<tag k="ssr:stedsnr" v="469139" />
	</node>
	<node lat="60.605413891248936" lon="5.026852774847015" id="-50386">
		<tag k="name" v="Kårbø" />
		<tag k="place" v="hamlet" />
		<tag k="ssr:stedsnr" v="469157" />
	</node>
	<node lat="60.60382537559601" lon="5.448631901187366" id="-50389">
		<tag k="name" v="Eknes" />
		<tag k="place" v="hamlet" />
		<tag k="ssr:stedsnr" v="469251" />
	</node>
	<node lat="60.694333331232926" lon="5.40433889018412" id="-50407">
		<tag k="name" v="Nesbø" />
		<tag k="place" v="farm" />
		<tag k="ssr:stedsnr" v="469421" />
	</node>
	<node lat="60.573955558191074" lon="5.233230562841757" id="-50411">
		<tag k="alt_name" v="Tveiten øvre" />
		<tag k="name" v="Øvre Tveiten" />
		<tag k="place" v="farm" />
		<tag k="ssr:stedsnr" v="469431" />
	</node>
	<node lat="60.713344442275826" lon="5.056158332579045" id="-50422">
		<tag k="name" v="Kalven" />
		<tag k="place" v="farm" />
		<tag k="ssr:stedsnr" v="469537" />
	</node>
	<node lat="60.59414167035052" lon="5.167230550907036" id="-50441">
		<tag k="name" v="Galteneset" />
		<tag k="place" v="farm" />
		<tag k="ssr:stedsnr" v="469795" />
	</node>
	<node lat="60.65024722466369" lon="5.130163892847302" id="-50460">
		<tag k="name" v="Pesvik" />
		<tag k="place" v="isolated_dwelling" />
		<tag k="ssr:stedsnr" v="327280" />
	</node>
	<node lat="60.64577499609735" lon="5.20229444341721" id="-50525">
		<tag k="name" v="Litleoksa" />
		<tag k="place" v="farm" />
		<tag k="ssr:stedsnr" v="348321" />
	</node>
	<node lat="60.56911944467241" lon="5.373063888593787" id="-50526">
		<tag k="fixme" v="consider place=hamlet" />
		<tag k="loc_name" v="Leiknes" />
		<tag k="name" v="Leknes" />
		<tag k="place" v="farm" />
		<tag k="ssr:stedsnr" v="348323" />
	</node>
	<node lat="60.68503598432117" lon="5.235025584154492" id="-50533">
		<tag k="fixme" v="consider place=hamlet" />
		<tag k="name" v="Konglevoll" />
		<tag k="place" v="farm" />
		<tag k="ssr:stedsnr" v="348206" />
	</node>
	<node lat="60.66351666929456" lon="4.97442777105305" id="-50538">
		<tag k="historic" v="shieling" />
		<tag k="name" v="Stølen" />
		<tag k="place" v="isolated_dwelling" />
		<tag k="ssr:stedsnr" v="348257" />
	</node>
	<node lat="60.642727777027055" lon="4.964933337639027" id="-50539">
		<tag k="fixme" v="consider place=hamlet" />
		<tag k="name" v="Toska" />
		<tag k="place" v="farm" />
		<tag k="ssr:stedsnr" v="348260" />
	</node>
	<node lat="60.6346555595914" lon="5.491269438137167" id="-50547">
		<tag k="name" v="Vågen" />
		<tag k="place" v="farm" />
		<tag k="ssr:stedsnr" v="348505" />
	</node>
	<node lat="60.64285000207607" lon="5.06282777580684" id="-50553">
		<tag k="alt_name" v="Solend Søre" />
		<tag k="name" v="Søre Solend" />
		<tag k="place" v="farm" />
		<tag k="ssr:stedsnr" v="348580" />
	</node>
	<node lat="60.55450000260622" lon="5.16993888344705" id="-50578">
		<tag k="name" v="Hestnes" />
		<tag k="place" v="farm" />
		<tag k="ssr:stedsnr" v="356301" />
	</node>
	<node lat="60.62782146242431" lon="5.416882341774031" id="-50580">
		<tag k="alt_name" v="Eidsheim" />
		<tag k="fixme" v="consider place=hamlet" />
		<tag k="name" v="Æse" />
		<tag k="place" v="farm" />
		<tag k="ssr:stedsnr" v="370002" />
	</node>
	<node lat="60.6139825953154" lon="5.307450464618922" id="-50581">
		<tag k="fixme" v="consider place=hamlet" />
		<tag k="name" v="Kleivdal" />
		<tag k="place" v="farm" />
		<tag k="ssr:stedsnr" v="370012" />
	</node>
	<node lat="60.627709739526885" lon="5.099658402075607" id="-50584">
		<tag k="fixme" v="consider place=hamlet" />
		<tag k="name" v="Kartveit" />
		<tag k="place" v="farm" />
		<tag k="ssr:stedsnr" v="370041" />
	</node>
	<node lat="60.5747987830221" lon="5.237955534945669" id="-50591">
		<tag k="name" v="Tveiten" />
		<tag k="place" v="hamlet" />
		<tag k="ssr:stedsnr" v="370086" />
	</node>
	<node lat="60.73632778075541" lon="5.550205550925574" id="-50600">
		<tag k="historic" v="shieling" />
		<tag k="name" v="Store-Aurdalssætra" />
		<tag k="place" v="isolated_dwelling" />
		<tag k="ssr:stedsnr" v="370483" />
	</node>
	<node lat="60.740175002947645" lon="4.911808335564294" id="-50604">
		<tag k="name" v="Svena" />
		<tag k="place" v="farm" />
		<tag k="ssr:stedsnr" v="370861" />
	</node>
	<node lat="60.64581944162604" lon="5.083513884248344" id="-50607">
		<tag k="fixme" v="consider place=hamlet" />
		<tag k="name" v="Sævdal" />
		<tag k="place" v="farm" />
		<tag k="ssr:stedsnr" v="370967" />
	</node>
	<node lat="60.67919641600924" lon="4.998031447845558" id="-50608">
		<tag k="name" v="Myking" />
		<tag k="place" v="hamlet" />
		<tag k="ssr:stedsnr" v="370986" />
	</node>
	<node lat="60.69586388775846" lon="5.308872216952863" id="-50611">
		<tag k="name" v="Nævdal" />
		<tag k="place" v="farm" />
		<tag k="ssr:stedsnr" v="480683" />
	</node>
	<node lat="60.53314217456792" lon="5.207505921471056" id="-50619">
		<tag k="fixme" v="consider place=hamlet" />
		<tag k="name" v="Nedre Sagstad" />
		<tag k="place" v="farm" />
		<tag k="ssr:stedsnr" v="393630" />
	</node>
	<node lat="60.51188889223874" lon="5.240516671080343" id="-50620">
		<tag k="name" v="Jonsokgrenda" />
		<tag k="place" v="quarter" />
		<tag k="ssr:stedsnr" v="404008" />
	</node>
	<node lat="60.565036110811505" lon="5.100138896819696" id="-50651">
		<tag k="name" v="Oneset" />
		<tag k="place" v="farm" />
		<tag k="ssr:stedsnr" v="409097" />
	</node>
	<node lat="60.660161113942216" lon="5.0248722306397395" id="-50690">
		<tag k="alt_name" v="Tveiten øvre" />
		<tag k="fixme" v="consider place=hamlet" />
		<tag k="name" v="Øvre Tveiten" />
		<tag k="place" v="farm" />
		<tag k="ssr:stedsnr" v="409541" />
	</node>
	<node lat="60.6218611089168" lon="5.141288885215904" id="-50694">
		<tag k="fixme" v="consider place=hamlet" />
		<tag k="name" v="Hole" />
		<tag k="place" v="farm" />
		<tag k="ssr:stedsnr" v="409718" />
	</node>
	<node lat="60.61881944362393" lon="5.17748888002336" id="-50705">
		<tag k="amenity" v="school" />
		<tag k="name" v="Sæbø" />
		<tag k="ssr:stedsnr" v="410001" />
	</node>
	<node lat="60.58585511956054" lon="5.13967723019663" id="-50716">
		<tag k="name" v="Ådland" />
		<tag k="place" v="hamlet" />
		<tag k="ssr:stedsnr" v="491100" />
	</node>
	<node lat="60.720475091311734" lon="5.517986253218162" id="-50718">
		<tag k="alt_name" v="Eikemosetra" />
		<tag k="historic" v="shieling" />
		<tag k="name" v="Eikemosætra" />
		<tag k="place" v="isolated_dwelling" />
		<tag k="ssr:stedsnr" v="491298" />
	</node>
	<node lat="60.62273381158767" lon="5.212385129177033" id="-50719">
		<tag k="alt_name" v="Litleskaret" />
		<tag k="fixme" v="consider place=hamlet" />
		<tag k="name" v="Litleskardet" />
		<tag k="place" v="farm" />
		<tag k="ssr:stedsnr" v="491047" />
	</node>
	<node lat="60.56293975826117" lon="5.140116511028548" id="-50724">
		<tag k="fixme" v="consider place=hamlet" />
		<tag k="name" v="Håtuft" />
		<tag k="place" v="farm" />
		<tag k="ssr:stedsnr" v="491071" />
	</node>
	<node lat="60.57273122774959" lon="5.177086816255815" id="-50725">
		<tag k="fixme" v="consider place=hamlet" />
		<tag k="name" v="Gaustad" />
		<tag k="place" v="farm" />
		<tag k="ssr:stedsnr" v="491121" />
	</node>
	<node lat="60.61896666328808" lon="5.349624997190482" id="-50732">
		<tag k="name" v="Vassbygdi" />
		<tag k="place" v="hamlet" />
		<tag k="ssr:stedsnr" v="431057" />
	</node>
	<node lat="60.642160863776574" lon="5.179942071105035" id="-50734">
		<tag k="fixme" v="consider place=hamlet" />
		<tag k="name" v="Smørdal" />
		<tag k="place" v="farm" />
		<tag k="ssr:stedsnr" v="431212" />
	</node>
	<node lat="60.64070833401774" lon="5.134655555886426" id="-50735">
		<tag k="name" v="Nøtlevågen" />
		<tag k="place" v="farm" />
		<tag k="ssr:stedsnr" v="431216" />
	</node>
	<node lat="60.643883546745684" lon="5.236724960471281" id="-50736">
		<tag k="fixme" v="consider place=hamlet" />
		<tag k="name" v="Neset" />
		<tag k="place" v="farm" />
		<tag k="ssr:stedsnr" v="431219" />
	</node>
	<node lat="60.65623889214759" lon="5.32597500273921" id="-50737">
		<tag k="fixme" v="consider place=hamlet" />
		<tag k="loc_name" v="Tveito" />
		<tag k="name" v="Øvretveito" />
		<tag k="place" v="farm" />
		<tag k="ssr:stedsnr" v="431222" />
	</node>
	<node lat="60.66835665475795" lon="5.154915709084576" id="-50739">
		<tag k="fixme" v="consider place=hamlet" />
		<tag k="name" v="Skotsund" />
		<tag k="place" v="farm" />
		<tag k="ssr:stedsnr" v="431254" />
	</node>
	<node lat="60.693638439131995" lon="5.594409816690229" id="-50742">
		<tag k="fixme" v="consider place=hamlet" />
		<tag k="name" v="Hokøyni" />
		<tag k="place" v="farm" />
		<tag k="ssr:stedsnr" v="431400" />
	</node>
	<node lat="60.669758561781045" lon="5.271131965886668" id="-50744">
		<tag k="fixme" v="consider place=hamlet" />
		<tag k="name" v="Seli" />
		<tag k="place" v="farm" />
		<tag k="ssr:stedsnr" v="491248" />
	</node>
	<node lat="60.69917500290722" lon="5.585741662448644" id="-50746">
		<tag k="alt_name" v="Vikanes" />
		<tag k="fixme" v="consider place=hamlet" />
		<tag k="name" v="Vikaneset" />
		<tag k="place" v="village" />
		<tag k="ssr:stedsnr" v="491252" />
	</node>
	<node lat="60.538255557861056" lon="5.106538891483054" id="-50747">
		<tag k="name" v="Fløksand" />
		<tag k="place" v="hamlet" />
		<tag k="ssr:stedsnr" v="431442" />
	</node>
	<node lat="60.60189166999157" lon="5.053541662375507" id="-50757">
		<tag k="name" v="Landsvik" />
		<tag k="old_name" v="Nordra Landsvik;Søra Landsvik" />
		<tag k="place" v="hamlet" />
		<tag k="ssr:stedsnr" v="431945" />
	</node>
	<node lat="60.77038076046402" lon="5.034999554073173" id="-50772">
		<tag k="fixme" v="consider place=hamlet" />
		<tag k="name" v="Keilegavlen" />
		<tag k="place" v="farm" />
		<tag k="ssr:stedsnr" v="433188" />
	</node>
	<node lat="60.76913888802316" lon="5.634738882507336" id="-50775">
		<tag k="alt_name" v="Svartholsetra" />
		<tag k="historic" v="shieling" />
		<tag k="name" v="Svartholet" />
		<tag k="old_name" v="Svartholsetri" />
		<tag k="place" v="isolated_dwelling" />
		<tag k="ssr:stedsnr" v="433431" />
	</node>
	<node lat="60.72312777680663" lon="5.215194450510799" id="-50776">
		<tag k="name" v="Vågseidet" />
		<tag k="place" v="isolated_dwelling" />
		<tag k="ssr:stedsnr" v="491655" />
	</node>
	<node lat="60.70182777469758" lon="5.039575009344878" id="-50779">
		<tag k="name" v="Skjelvik" />
		<tag k="place" v="hamlet" />
		<tag k="ssr:stedsnr" v="491795" />
	</node>
	<node lat="60.65703785685006" lon="5.089367912622337" id="-50783">
		<tag k="fixme" v="consider place=hamlet" />
		<tag k="name" v="Haugstad" />
		<tag k="place" v="farm" />
		<tag k="ssr:stedsnr" v="491746" />
	</node>
	<node lat="60.647250001783526" lon="5.275941672142528" id="-50797">
		<tag k="name" v="Nystølen" />
		<tag k="place" v="farm" />
		<tag k="ssr:stedsnr" v="492154" />
	</node>
	<node lat="60.74144748775133" lon="5.234488573930391" id="-50798">
		<tag k="fixme" v="consider place=hamlet" />
		<tag k="name" v="Vadbu" />
		<tag k="place" v="farm" />
		<tag k="ssr:stedsnr" v="492651" />
	</node>
	<node lat="60.68061467376506" lon="5.060244992466966" id="-50799">
		<tag k="fixme" v="consider place=hamlet" />
		<tag k="name" v="Pletten" />
		<tag k="place" v="farm" />
		<tag k="ssr:stedsnr" v="492755" />
	</node>
	<node lat="60.65849722029586" lon="4.994975004241919" id="-50801">
		<tag k="name" v="Skutehamni" />
		<tag k="place" v="farm" />
		<tag k="ssr:stedsnr" v="492762" />
	</node>
	<node lat="60.75938999132929" lon="5.091226576168382" id="-50810">
		<tag k="fixme" v="consider place=hamlet" />
		<tag k="name" v="Kårdal" />
		<tag k="place" v="farm" />
		<tag k="ssr:stedsnr" v="494156" />
	</node>
	<node lat="60.706857765876975" lon="4.893364780771234" id="-50812">
		<tag k="name" v="Marøy" />
		<tag k="place" v="farm" />
		<tag k="ssr:stedsnr" v="445776" />
	</node>
	<node lat="60.6738574214198" lon="4.945994704945214" id="-50818">
		<tag k="fixme" v="consider place=hamlet" />
		<tag k="name" v="Nordre Vågenes" />
		<tag k="place" v="farm" />
		<tag k="ssr:stedsnr" v="449240" />
	</node>
	<node lat="60.642024503210095" lon="5.427548097647354" id="-50829">
		<tag k="fixme" v="consider place=hamlet" />
		<tag k="name" v="Bjørgo" />
		<tag k="place" v="farm" />
		<tag k="ssr:stedsnr" v="673041" />
	</node>
	<node lat="60.62930205284868" lon="5.265272284350245" id="-50830">
		<tag k="fixme" v="consider place=hamlet" />
		<tag k="name" v="Totland" />
		<tag k="place" v="farm" />
		<tag k="ssr:stedsnr" v="673052" />
	</node>
	<node lat="60.667874995655616" lon="5.59455554939529" id="-50834">
		<tag k="alt_name" v="Paddøyhavnen;Hamn" />
		<tag k="name" v="Paddøyhamn" />
		<tag k="place" v="farm" />
		<tag k="ssr:stedsnr" v="673654" />
	</node>
	<node lat="60.72745836910671" lon="5.281022514978575" id="-50836">
		<tag k="alt_name" v="Ringås" />
		<tag k="fixme" v="consider place=hamlet" />
		<tag k="name" v="Ringåsen" />
		<tag k="place" v="farm" />
		<tag k="ssr:stedsnr" v="673663" />
	</node>
	<node lat="60.68638056022563" lon="5.134869450154419" id="-50841">
		<tag k="alt_name" v="Grønås" />
		<tag k="name" v="Grønåsen" />
		<tag k="place" v="farm" />
		<tag k="ssr:stedsnr" v="673146" />
	</node>
	<node lat="60.68945411669573" lon="5.451348296653005" id="-50843">
		<tag k="fixme" v="consider place=hamlet" />
		<tag k="name" v="Dyrdal" />
		<tag k="place" v="farm" />
		<tag k="ssr:stedsnr" v="673155" />
	</node>
	<node lat="60.700419447318076" lon="5.324316671544163" id="-50844">
		<tag k="name" v="Myking" />
		<tag k="place" v="hamlet" />
		<tag k="ssr:stedsnr" v="673191" />
	</node>
	<node lat="60.71004727130083" lon="5.315292724552907" id="-50845">
		<tag k="alt_name" v="Hodne" />
		<tag k="fixme" v="consider place=hamlet" />
		<tag k="name" v="Hodno" />
		<tag k="place" v="farm" />
		<tag k="ssr:stedsnr" v="673196" />
	</node>
	<node lat="60.702824193503915" lon="5.548990190606327" id="-50846">
		<tag k="fixme" v="consider place=hamlet" />
		<tag k="name" v="Eikefet" />
		<tag k="place" v="farm" />
		<tag k="ssr:stedsnr" v="673274" />
	</node>
	<node lat="60.65958055692391" lon="5.474341665091112" id="-50848">
		<tag k="name" v="Stalltræet" />
		<tag k="place" v="farm" />
		<tag k="ssr:stedsnr" v="673353" />
	</node>
	<node lat="60.5630030840285" lon="5.31556301269161" id="-50850">
		<tag k="fixme" v="consider place=hamlet" />
		<tag k="name" v="Nepstad" />
		<tag k="place" v="farm" />
		<tag k="ssr:stedsnr" v="673450" />
	</node>
	<node lat="60.63257500140639" lon="5.557355556005572" id="-50852">
		<tag k="fixme" v="consider place=hamlet" />
		<tag k="name" v="Molvikagrendi" />
		<tag k="place" v="village" />
		<tag k="ssr:stedsnr" v="673700" />
	</node>
	<node lat="60.71486388808079" lon="4.989341675530621" id="-50853">
		<tag k="name" v="Hovet" />
		<tag k="place" v="farm" />
		<tag k="ssr:stedsnr" v="673832" />
	</node>
	<node lat="60.70384376448938" lon="4.934367584524662" id="-50859">
		<tag k="fixme" v="consider place=hamlet" />
		<tag k="name" v="Bø" />
		<tag k="place" v="farm" />
		<tag k="ssr:stedsnr" v="673793" />
	</node>
	<node lat="60.58878055237069" lon="5.394844439983053" id="-50862">
		<tag k="alt_name" v="Fylingsnes" />
		<tag k="name" v="Fylingsneset" />
		<tag k="place" v="hamlet" />
		<tag k="ssr:stedsnr" v="674095" />
	</node>
	<node lat="60.53136584649584" lon="5.143365397908515" id="-50868">
		<tag k="fixme" v="consider place=hamlet" />
		<tag k="name" v="Hjartås" />
		<tag k="place" v="farm" />
		<tag k="ssr:stedsnr" v="674382" />
	</node>
	<node lat="60.73638611163024" lon="5.161022216077941" id="-50869">
		<tag k="name" v="Lindås" />
		<tag k="place" v="village" />
		<tag k="ssr:stedsnr" v="674686" />
	</node>
	<node lat="60.688600000964946" lon="5.213286107429196" id="-50893">
		<tag k="name" v="Træland" />
		<tag k="place" v="farm" />
		<tag k="ssr:stedsnr" v="469223" />
	</node>
	<node lat="60.72879387980225" lon="5.236372981250038" id="-50899">
		<tag k="historic" v="shieling" />
		<tag k="name" v="Vabøstølen" />
		<tag k="place" v="isolated_dwelling" />
		<tag k="ssr:stedsnr" v="469162" />
	</node>
	<node lat="60.61036944097142" lon="5.390655551066708" id="-50907">
		<tag k="name" v="Eikangervåg" />
		<tag k="place" v="farm" />
		<tag k="ssr:stedsnr" v="469312" />
	</node>
	<node lat="60.70687499992088" lon="5.494777779491065" id="-50936">
		<tag k="historic" v="shieling" />
		<tag k="name" v="Rødlandssetra" />
		<tag k="place" v="isolated_dwelling" />
		<tag k="ssr:stedsnr" v="469712" />
	</node>
	<node lat="60.70326944091704" lon="5.515158326717812" id="-50940">
		<tag k="historic" v="shieling" />
		<tag k="name" v="Gamlesetra" />
		<tag k="place" v="isolated_dwelling" />
		<tag k="ssr:stedsnr" v="469718" />
	</node>
	<node lat="60.61298611177337" lon="5.165052786064377" id="-50941">
		<tag k="alt_name" v="Tjore Nedre" />
		<tag k="name" v="Nedre Tjore" />
		<tag k="place" v="farm" />
		<tag k="ssr:stedsnr" v="469761" />
	</node>
	<node lat="60.67771944672886" lon="4.998477784563017" id="-50973">
		<tag k="fixme" v="consider place=hamlet" />
		<tag k="name" v="Sætre" />
		<tag k="place" v="farm" />
		<tag k="ssr:stedsnr" v="470660" />
	</node>
	<node lat="60.752659179925104" lon="5.1767332477262125" id="-50986">
		<tag k="fixme" v="consider place=hamlet" />
		<tag k="name" v="Fonnebost" />
		<tag k="place" v="farm" />
		<tag k="ssr:stedsnr" v="676731" />
	</node>
	<node lat="60.72994444249514" lon="4.917080553096945" id="-50988">
		<tag k="name" v="Villanger" />
		<tag k="place" v="hamlet" />
		<tag k="ssr:stedsnr" v="734851" />
	</node>
	<node lat="60.62061111344263" lon="5.269613892624112" id="-50992">
		<tag k="name" v="Seim" />
		<tag k="place" v="hamlet" />
		<tag k="ssr:stedsnr" v="491010" />
	</node>
	<node lat="60.61224905787371" lon="5.2468041959225085" id="-50994">
		<tag k="alt_name" v="Otterås" />
		<tag k="fixme" v="consider place=hamlet" />
		<tag k="name" v="Odderås" />
		<tag k="place" v="farm" />
		<tag k="ssr:stedsnr" v="491013" />
	</node>
	<node lat="60.60446666233875" lon="5.278094446865115" id="-50996">
		<tag k="name" v="Nyland" />
		<tag k="place" v="farm" />
		<tag k="ssr:stedsnr" v="491029" />
	</node>
	<node lat="60.59816944555044" lon="5.222519448171895" id="-50997">
		<tag k="alt_name" v="Fosse, in;Fosse" />
		<tag k="name" v="Indre Fosse" />
		<tag k="place" v="farm" />
		<tag k="ssr:stedsnr" v="491030" />
	</node>
	<node lat="60.59026730841799" lon="5.236002852079954" id="-50998">
		<tag k="fixme" v="consider place=hamlet" />
		<tag k="name" v="Håland" />
		<tag k="place" v="farm" />
		<tag k="ssr:stedsnr" v="491103" />
	</node>
	<node lat="60.636085878846615" lon="5.206147746132889" id="-51008">
		<tag k="fixme" v="consider place=hamlet" />
		<tag k="name" v="Storoksa" />
		<tag k="place" v="farm" />
		<tag k="ssr:stedsnr" v="491205" />
	</node>
	<node lat="60.63729689606537" lon="5.122617552901465" id="-51010">
		<tag k="fixme" v="consider place=hamlet" />
		<tag k="name" v="Vågstaule" />
		<tag k="place" v="farm" />
		<tag k="ssr:stedsnr" v="491215" />
	</node>
	<node lat="60.63441048119821" lon="5.124185344527585" id="-51011">
		<tag k="fixme" v="consider place=hamlet" />
		<tag k="name" v="Lunde" />
		<tag k="place" v="farm" />
		<tag k="ssr:stedsnr" v="491216" />
	</node>
	<node lat="60.678102775897706" lon="5.395761111998687" id="-51013">
		<tag k="alt_name" v="Veland, nedre;Veland" />
		<tag k="name" v="Nedre Veland" />
		<tag k="place" v="farm" />
		<tag k="ssr:stedsnr" v="491225" />
	</node>
	<node lat="60.625416737672595" lon="5.476487519298064" id="-51016">
		<tag k="alt_name" v="Eido;Ostereido" />
		<tag k="name" v="Eide" />
		<tag k="place" v="hamlet" />
		<tag k="ssr:stedsnr" v="491714" />
	</node>
	<node lat="60.55831881141516" lon="5.068076626993318" id="-51018">
		<tag k="fixme" v="consider place=hamlet" />
		<tag k="name" v="Skintveit" />
		<tag k="place" v="farm" />
		<tag k="ssr:stedsnr" v="491919" />
	</node>
	<node lat="60.66867418019454" lon="5.011246482562997" id="-51024">
		<tag k="fixme" v="consider place=hamlet" />
		<tag k="name" v="Dalland" />
		<tag k="place" v="farm" />
		<tag k="ssr:stedsnr" v="491985" />
	</node>
	<node lat="60.71923842702372" lon="4.920547538030006" id="-51028">
		<tag k="fixme" v="consider place=hamlet" />
		<tag k="name" v="Utsylta" />
		<tag k="place" v="farm" />
		<tag k="ssr:stedsnr" v="491826" />
	</node>
	<node lat="60.52852601297911" lon="5.239975231075706" id="-51029">
		<tag k="fixme" v="consider place=hamlet" />
		<tag k="name" v="Fosse" />
		<tag k="place" v="farm" />
		<tag k="ssr:stedsnr" v="492376" />
	</node>
	<node lat="60.77915833108303" lon="5.070630563516191" id="-51031">
		<tag k="fixme" v="consider place=hamlet" />
		<tag k="name" v="Hellestveit" />
		<tag k="place" v="farm" />
		<tag k="ssr:stedsnr" v="493205" />
	</node>
	<node lat="60.70786388895846" lon="4.8965083411935435" id="-51035">
		<tag k="name" v="Marøy" />
		<tag k="place" v="farm" />
		<tag k="ssr:stedsnr" v="506761" />
	</node>
	<node lat="60.67796388584185" lon="5.216683337411042" id="-51037">
		<tag k="name" v="Skarvberget" />
		<tag k="place" v="farm" />
		<tag k="ssr:stedsnr" v="509308" />
	</node>
	<node lat="60.68060555329704" lon="5.2222777690619475" id="-51047">
		<tag k="fixme" v="consider place=hamlet" />
		<tag k="name" v="Bruvoll" />
		<tag k="place" v="farm" />
		<tag k="ssr:stedsnr" v="529218" />
	</node>
	<node lat="60.65421110677663" lon="5.381716669006238" id="-51056">
		<tag k="name" v="Åsgård" />
		<tag k="place" v="farm" />
		<tag k="ssr:stedsnr" v="529494" />
	</node>
	<node lat="60.59239444395219" lon="5.363372216764977" id="-51079">
		<tag k="name" v="Hjelmås" />
		<tag k="place" v="village" />
		<tag k="ssr:stedsnr" v="530316" />
	</node>
	<node lat="60.73254444270313" lon="5.057699993476788" id="-51107">
		<tag k="name" v="Skansen" />
		<tag k="place" v="farm" />
		<tag k="ssr:stedsnr" v="530519" />
	</node>
	<node lat="60.7845527766793" lon="5.040763895800936" id="-51129">
		<tag k="name" v="Hope" />
		<tag k="place" v="farm" />
		<tag k="ssr:stedsnr" v="530491" />
	</node>
	<node lat="60.7781138883702" lon="5.631541673146646" id="-51138">
		<tag k="historic" v="shieling" />
		<tag k="name" v="Nysetra" />
		<tag k="place" v="isolated_dwelling" />
		<tag k="ssr:stedsnr" v="530903" />
	</node>
	<node lat="60.57269166760853" lon="5.221519446622687" id="-51165">
		<tag k="name" v="Hilland" />
		<tag k="place" v="quarter" />
		<tag k="ssr:stedsnr" v="541787" />
	</node>
	<node lat="60.58633578888161" lon="5.239286557772577" id="-51166">
		<tag k="name" v="Kvamme" />
		<tag k="place" v="hamlet" />
		<tag k="ssr:stedsnr" v="551120" />
	</node>
	<node lat="60.607715027211675" lon="5.322141101115778" id="-51173">
		<tag k="alt_name" v="Hallsteindal" />
		<tag k="fixme" v="consider place=hamlet" />
		<tag k="name" v="Hallsteindalen" />
		<tag k="place" v="farm" />
		<tag k="ssr:stedsnr" v="552039" />
	</node>
	<node lat="60.5561493305222" lon="5.303055499542704" id="-51174">
		<tag k="alt_name" v="Gjerdviki, yt;Gjervik" />
		<tag k="fixme" v="consider place=hamlet" />
		<tag k="name" v="Ytre Gjerdviki" />
		<tag k="old_name" v="Gjerdviki" />
		<tag k="place" v="farm" />
		<tag k="ssr:stedsnr" v="552099" />
	</node>
	<node lat="60.64396415923455" lon="5.126822693761772" id="-51175">
		<tag k="fixme" v="consider place=hamlet" />
		<tag k="name" v="Askeland" />
		<tag k="place" v="farm" />
		<tag k="ssr:stedsnr" v="552205" />
	</node>
	<node lat="60.65080138139691" lon="5.283406504523684" id="-51177">
		<tag k="alt_name" v="Leivestad, s;Leivestad Søre" />
		<tag k="name" v="Søre Leivestad" />
		<tag k="place" v="farm" />
		<tag k="ssr:stedsnr" v="552215" />
	</node>
	<node lat="60.69396944657517" lon="5.313927770357003" id="-51181">
		<tag k="fixme" v="consider place=hamlet" />
		<tag k="name" v="Nævdal" />
		<tag k="place" v="farm" />
		<tag k="ssr:stedsnr" v="552139" />
	</node>
	<node lat="60.64367953610118" lon="5.512027243071168" id="-51187">
		<tag k="fixme" v="consider place=hamlet" />
		<tag k="name" v="Husdalen" />
		<tag k="place" v="farm" />
		<tag k="ssr:stedsnr" v="552707" />
	</node>
	<node lat="60.67885234435903" lon="4.986179248365112" id="-51190">
		<tag k="alt_name" v="Grindeim" />
		<tag k="fixme" v="consider place=hamlet" />
		<tag k="name" v="Grindheim" />
		<tag k="place" v="farm" />
		<tag k="ssr:stedsnr" v="552817" />
	</node>
	<node lat="60.59734002234532" lon="5.002268449633231" id="-51193">
		<tag k="fixme" v="consider place=hamlet" />
		<tag k="name" v="Brotshaug" />
		<tag k="place" v="farm" />
		<tag k="ssr:stedsnr" v="552952" />
	</node>
	<node lat="60.60532727996258" lon="5.0248418497137175" id="-51194">
		<tag k="fixme" v="consider place=hamlet" />
		<tag k="name" v="Kårbø" />
		<tag k="place" v="farm" />
		<tag k="ssr:stedsnr" v="552953" />
	</node>
	<node lat="60.785480229597844" lon="5.622280695549384" id="-51198">
		<tag k="fixme" v="consider place=hamlet" />
		<tag k="name" v="Nipa" />
		<tag k="place" v="farm" />
		<tag k="ssr:stedsnr" v="554477" />
	</node>
	<node lat="60.70700833791496" lon="4.8961194464720155" id="-51204">
		<tag k="name" v="Marøy" />
		<tag k="place" v="farm" />
		<tag k="ssr:stedsnr" v="566769" />
	</node>
	<node lat="60.66417499929556" lon="5.234494438570622" id="-51212">
		<tag k="building" v="industrial" />
		<tag k="industrial" v="factory" />
		<tag k="name" v="Nesfossen" />
		<tag k="ssr:stedsnr" v="693618" />
	</node>
	<node lat="60.563786115189394" lon="5.252349994421146" id="-51214">
		<tag k="name" v="Alver næringsområde" />
		<tag k="place" v="quarter" />
		<tag k="ssr:stedsnr" v="582321" />
	</node>
	<node lat="60.538202778921345" lon="5.110833333432826" id="-51215">
		<tag k="name" v="Storåsen" />
		<tag k="place" v="quarter" />
		<tag k="ssr:stedsnr" v="586043" />
	</node>
	<node lat="60.66268055409688" lon="5.425591675051259" id="-51248">
		<tag k="alt_name" v="Askeland nordre" />
		<tag k="fixme" v="consider place=hamlet" />
		<tag k="name" v="Nordre Askeland" />
		<tag k="place" v="farm" />
		<tag k="ssr:stedsnr" v="590504" />
	</node>
	<node lat="60.6223852841058" lon="5.474101950657417" id="-51253">
		<tag k="alt_name" v="Eide ytre" />
		<tag k="fixme" v="consider place=hamlet" />
		<tag k="name" v="Ytre Eide" />
		<tag k="place" v="farm" />
		<tag k="ssr:stedsnr" v="590613" />
	</node>
	<node lat="60.722138888236564" lon="5.026480561609088" id="-51256">
		<tag k="name" v="Sanden" />
		<tag k="place" v="farm" />
		<tag k="ssr:stedsnr" v="590707" />
	</node>
	<node lat="60.726972222190824" lon="5.009286110098458" id="-51258">
		<tag k="name" v="Tongegarden" />
		<tag k="place" v="farm" />
		<tag k="ssr:stedsnr" v="590712" />
	</node>
	<node lat="60.70056944060991" lon="5.560569453474874" id="-51263">
		<tag k="name" v="Viki" />
		<tag k="place" v="farm" />
		<tag k="ssr:stedsnr" v="590727" />
	</node>
	<node lat="60.5999249956435" lon="5.178911110158234" id="-51265">
		<tag k="alt_name" v="Haukeland Søre" />
		<tag k="name" v="Søre Haukeland" />
		<tag k="place" v="farm" />
		<tag k="ssr:stedsnr" v="590762" />
	</node>
	<node lat="60.595269440819386" lon="5.201408331612609" id="-51266">
		<tag k="name" v="Botnane" />
		<tag k="place" v="farm" />
		<tag k="ssr:stedsnr" v="590766" />
	</node>
	<node lat="60.644991668926345" lon="5.049794435810166" id="-51285">
		<tag k="alt_name" v="Manger Øvre" />
		<tag k="fixme" v="consider place=hamlet" />
		<tag k="name" v="Øvre Manger" />
		<tag k="place" v="farm" />
		<tag k="ssr:stedsnr" v="591562" />
	</node>
	<node lat="60.63155833491182" lon="5.070916658537218" id="-51286">
		<tag k="alt_name" v="Morken Indre" />
		<tag k="name" v="Indre Morken" />
		<tag k="place" v="farm" />
		<tag k="ssr:stedsnr" v="591570" />
	</node>
	<node lat="60.762941668500766" lon="5.642980561729474" id="-51297">
		<tag k="historic" v="shieling" />
		<tag k="name" v="Høseløena" />
		<tag k="place" v="isolated_dwelling" />
		<tag k="ssr:stedsnr" v="591917" />
	</node>
	<node lat="60.61865833508002" lon="5.180744450856891" id="-51304">
		<tag k="name" v="Austmarka" />
		<tag k="place" v="quarter" />
		<tag k="ssr:stedsnr" v="612065" />
	</node>
	<node lat="60.57533967558245" lon="5.363716688952798" id="-51306">
		<tag k="alt_name" v="Midtgård" />
		<tag k="fixme" v="consider place=hamlet" />
		<tag k="name" v="Midgarden" />
		<tag k="place" v="farm" />
		<tag k="ssr:stedsnr" v="612080" />
	</node>
	<node lat="60.6979774606825" lon="5.4309035578588" id="-51308">
		<tag k="alt_name" v="Skår" />
		<tag k="fixme" v="consider place=hamlet" />
		<tag k="name" v="Skor" />
		<tag k="place" v="farm" />
		<tag k="ssr:stedsnr" v="612168" />
	</node>
	<node lat="60.7739055575424" lon="5.530452786710181" id="-51331">
		<tag k="historic" v="shieling" />
		<tag k="name" v="Steinsetdalssætret" />
		<tag k="place" v="isolated_dwelling" />
		<tag k="ssr:stedsnr" v="614453" />
	</node>
	<node lat="60.78078055590495" lon="5.03961666762212" id="-51333">
		<tag k="name" v="Utgjerdet" />
		<tag k="place" v="farm" />
		<tag k="ssr:stedsnr" v="615212" />
	</node>
	<node lat="60.751039610826595" lon="5.1005957305773775" id="-51337">
		<tag k="fixme" v="consider place=hamlet" />
		<tag k="name" v="Verås" />
		<tag k="place" v="farm" />
		<tag k="ssr:stedsnr" v="615710" />
	</node>
	<node lat="60.55382777888552" lon="5.00677500411179" id="-51339">
		<tag k="name" v="Øpso" />
		<tag k="place" v="farm" />
		<tag k="ssr:stedsnr" v="703655" />
	</node>
	<node lat="60.55430249540209" lon="5.006650105167734" id="-51340">
		<tag k="name" v="Øpso" />
		<tag k="place" v="farm" />
		<tag k="ssr:stedsnr" v="703656" />
	</node>
	<node lat="60.55433333716255" lon="5.029166674410236" id="-51348">
		<tag k="name" v="Fløholmen" />
		<tag k="place" v="locality" />
		<tag k="ssr:stedsnr" v="631589" />
	</node>
	<node lat="60.5624722248797" lon="5.046849994155012" id="-51351">
		<tag k="name" v="Kvernhaugen" />
		<tag k="place" v="quarter" />
		<tag k="ssr:stedsnr" v="646050" />
	</node>
	<node lat="60.58558888776367" lon="5.236816660324584" id="-51362">
		<tag k="name" v="Kvamme" />
		<tag k="place" v="farm" />
		<tag k="ssr:stedsnr" v="651012" />
	</node>
	<node lat="60.5998222179273" lon="5.290702773731" id="-51367">
		<tag k="name" v="Eikeland" />
		<tag k="place" v="farm" />
		<tag k="ssr:stedsnr" v="651041" />
	</node>
	<node lat="60.67511110937617" lon="5.413524991307097" id="-51416">
		<tag k="name" v="Velandstræ" />
		<tag k="place" v="farm" />
		<tag k="ssr:stedsnr" v="651608" />
	</node>
	<node lat="60.646983332283526" lon="5.108469442564216" id="-51419">
		<tag k="name" v="Nordtaule" />
		<tag k="place" v="farm" />
		<tag k="ssr:stedsnr" v="651614" />
	</node>
	<node lat="60.62063333452245" lon="5.142922223982952" id="-51434">
		<tag k="name" v="Nordnes" />
		<tag k="place" v="farm" />
		<tag k="ssr:stedsnr" v="651708" />
	</node>
	<node lat="60.61698660758533" lon="5.160063722581063" id="-51439">
		<tag k="alt_name" v="Solheim Austre" />
		<tag k="name" v="Austre Solheim" />
		<tag k="place" v="farm" />
		<tag k="ssr:stedsnr" v="651739" />
	</node>
	<node lat="60.61697778133465" lon="5.146969436183939" id="-51440">
		<tag k="name" v="Dalen" />
		<tag k="place" v="farm" />
		<tag k="ssr:stedsnr" v="651745" />
	</node>
	<node lat="60.55763611139564" lon="5.053850002209841" id="-51466">
		<tag k="name" v="Rylandshøgda" />
		<tag k="place" v="quarter" />
		<tag k="ssr:stedsnr" v="890068" />
	</node>
	<node lat="60.623477780846166" lon="5.380758339991884" id="-51467">
		<tag k="fixme" v="consider place=hamlet" />
		<tag k="name" v="Myr" />
		<tag k="place" v="farm" />
		<tag k="ssr:stedsnr" v="673005" />
	</node>
	<node lat="60.56163888644522" lon="5.27166666555409" id="-51470">
		<tag k="name" v="Isdal" />
		<tag k="place" v="farm" />
		<tag k="ssr:stedsnr" v="673109" />
	</node>
	<node lat="60.707955554982654" lon="4.985733327848848" id="-51480">
		<tag k="name" v="Noranger" />
		<tag k="place" v="hamlet" />
		<tag k="ssr:stedsnr" v="673823" />
	</node>
	<node lat="60.59798436767382" lon="5.294259779458999" id="-51482">
		<tag k="name" v="Eikeland" />
		<tag k="place" v="hamlet" />
		<tag k="ssr:stedsnr" v="674024" />
	</node>
	<node lat="60.64144444125963" lon="5.041397225750632" id="-51487">
		<tag k="name" v="Manger" />
		<tag k="place" v="village" />
		<tag k="ssr:stedsnr" v="673967" />
	</node>
	<node lat="60.643459534658376" lon="5.469146747176356" id="-51492">
		<tag k="fixme" v="consider place=hamlet" />
		<tag k="name" v="Storset" />
		<tag k="place" v="farm" />
		<tag k="ssr:stedsnr" v="674672" />
	</node>
	<node lat="60.76886172062885" lon="5.152252589265111" id="-51497">
		<tag k="fixme" v="consider place=hamlet" />
		<tag k="name" v="Sundsbø" />
		<tag k="place" v="farm" />
		<tag k="ssr:stedsnr" v="676701" />
	</node>
	<node lat="60.5591527810636" lon="5.136500000200356" id="-51502">
		<tag k="name" v="Klubben" />
		<tag k="place" v="farm" />
		<tag k="ssr:stedsnr" v="894034" />
	</node>
	<node lat="60.70757778132603" lon="5.235249996284356" id="-51507">
		<tag k="name" v="Løtveit" />
		<tag k="place" v="farm" />
		<tag k="ssr:stedsnr" v="894001" />
	</node>
	<node lat="60.62035555344681" lon="5.242863892123986" id="-51516">
		<tag k="name" v="Søre Li" />
		<tag k="place" v="farm" />
		<tag k="ssr:stedsnr" v="894054" />
	</node>
	<node lat="60.551669399718804" lon="5.039182697800402" id="-51524">
		<tag k="fixme" v="consider place=hamlet" />
		<tag k="name" v="Eikeland" />
		<tag k="place" v="farm" />
		<tag k="ssr:stedsnr" v="894197" />
	</node>
	<node lat="60.5707805579848" lon="5.040902779093736" id="-51529">
		<tag k="name" v="Skurtveit" />
		<tag k="place" v="hamlet" />
		<tag k="ssr:stedsnr" v="894132" />
	</node>
	<node lat="60.68859166821322" lon="5.259125002693336" id="-51541">
		<tag k="name" v="Refsdal" />
		<tag k="place" v="farm" />
		<tag k="ssr:stedsnr" v="894239" />
	</node>
	<node lat="60.73286110842168" lon="5.1035027742186605" id="-51571">
		<tag k="name" v="Skårnes" />
		<tag k="place" v="farm" />
		<tag k="ssr:stedsnr" v="894531" />
	</node>
	<node lat="60.74118610730429" lon="5.10112777829938" id="-51573">
		<tag k="name" v="Lyngbø" />
		<tag k="place" v="farm" />
		<tag k="ssr:stedsnr" v="894537" />
	</node>
	<node lat="60.62526666981725" lon="5.481277783995466" id="-51578">
		<tag k="fixme" v="consider place=hamlet" />
		<tag k="name" v="Indre Eide" />
		<tag k="place" v="farm" />
		<tag k="ssr:stedsnr" v="894641" />
	</node>
	<node lat="60.610822226208825" lon="5.154483333360964" id="-51586">
		<tag k="alt_name" v="Sæbø Indre" />
		<tag k="name" v="Indre Sæbø" />
		<tag k="place" v="farm" />
		<tag k="ssr:stedsnr" v="894748" />
	</node>
	<node lat="60.62802777877067" lon="5.369616660274894" id="-51588">
		<tag k="name" v="Træ" />
		<tag k="place" v="farm" />
		<tag k="ssr:stedsnr" v="895436" />
	</node>
	<node lat="60.76438333424441" lon="5.534088887101199" id="-51591">
		<tag k="historic" v="shieling" />
		<tag k="name" v="Paddøysetra" />
		<tag k="place" v="isolated_dwelling" />
		<tag k="ssr:stedsnr" v="894871" />
	</node>
	<node lat="60.5393083300915" lon="5.095849993555954" id="-51600">
		<tag k="name" v="Træna" />
		<tag k="place" v="farm" />
		<tag k="ssr:stedsnr" v="895268" />
	</node>
	<node lat="60.60350555652058" lon="5.220177769734132" id="-51607">
		<tag k="historic" v="shieling" />
		<tag k="name" v="Stølane" />
		<tag k="place" v="isolated_dwelling" />
		<tag k="ssr:stedsnr" v="895345" />
	</node>
	<node lat="60.63890277643027" lon="5.2091499993340795" id="-51610">
		<tag k="name" v="Valle" />
		<tag k="place" v="farm" />
		<tag k="ssr:stedsnr" v="895299" />
	</node>
	<node lat="60.62183912888244" lon="5.109786399717122" id="-51621">
		<tag k="fixme" v="consider place=hamlet" />
		<tag k="name" v="Ulvatn" />
		<tag k="place" v="farm" />
		<tag k="ssr:stedsnr" v="895485" />
	</node>
	<node lat="60.55616944096953" lon="5.060658324947379" id="-51631">
		<tag k="fixme" v="consider place=hamlet" />
		<tag k="name" v="Ryland" />
		<tag k="place" v="farm" />
		<tag k="ssr:stedsnr" v="895442" />
	</node>
	<node lat="60.67468611103329" lon="5.028466673685793" id="-51637">
		<tag k="name" v="Kløvheim" />
		<tag k="place" v="farm" />
		<tag k="ssr:stedsnr" v="895636" />
	</node>
	<node lat="60.678486108584245" lon="5.4829111082417885" id="-51645">
		<tag k="historic" v="shieling" />
		<tag k="name" v="Basttoløa" />
		<tag k="place" v="isolated_dwelling" />
		<tag k="ssr:stedsnr" v="895722" />
	</node>
	<node lat="60.76793610863455" lon="5.498377769848373" id="-51650">
		<tag k="historic" v="shieling" />
		<tag k="name" v="Kalvedalssetra" />
		<tag k="place" v="isolated_dwelling" />
		<tag k="ssr:stedsnr" v="895854" />
	</node>
	<node lat="60.63358333778159" lon="5.315966668358508" id="-51656">
		<tag k="name" v="Toskheim" />
		<tag k="place" v="farm" />
		<tag k="ssr:stedsnr" v="897451" />
	</node>
	<node lat="60.59037222464632" lon="5.285361106360483" id="-51664">
		<tag k="historic" v="shieling" />
		<tag k="name" v="Høgstølen" />
		<tag k="place" v="isolated_dwelling" />
		<tag k="ssr:stedsnr" v="712035" />
	</node>
	<node lat="60.69742777548589" lon="5.248077781932469" id="-51665">
		<tag k="alt_name" v="Skodvin øvre" />
		<tag k="name" v="Øvre Skodvin" />
		<tag k="place" v="farm" />
		<tag k="ssr:stedsnr" v="712037" />
	</node>
	<node lat="60.55280278183862" lon="5.1801166691763925" id="-51667">
		<tag k="name" v="Myrvollane" />
		<tag k="place" v="farm" />
		<tag k="ssr:stedsnr" v="712044" />
	</node>
	<node lat="60.616886113208125" lon="5.343569435535999" id="-51669">
		<tag k="historic" v="shieling" />
		<tag k="name" v="Hageseter" />
		<tag k="place" v="isolated_dwelling" />
		<tag k="ssr:stedsnr" v="712048" />
	</node>
	<node lat="60.55986944727629" lon="5.325677777693007" id="-51683">
		<tag k="name" v="Øyjord" />
		<tag k="place" v="farm" />
		<tag k="ssr:stedsnr" v="712095" />
	</node>
	<node lat="60.6118277731854" lon="5.383219438730537" id="-51690">
		<tag k="alt_name" v="Eikanger nedre" />
		<tag k="name" v="Nedre Eikanger" />
		<tag k="place" v="farm" />
		<tag k="ssr:stedsnr" v="712130" />
	</node>
	<node lat="60.67474999811566" lon="5.24753332498413" id="-51697">
		<tag k="name" v="Nordre Grimstad" />
		<tag k="place" v="farm" />
		<tag k="ssr:stedsnr" v="712184" />
	</node>
	<node lat="60.64875277680633" lon="5.446858338042523" id="-51728">
		<tag k="name" v="Toft" />
		<tag k="place" v="farm" />
		<tag k="ssr:stedsnr" v="712399" />
	</node>
	<node lat="60.674327777061656" lon="5.105125000306269" id="-51731">
		<tag k="name" v="Hovden" />
		<tag k="place" v="farm" />
		<tag k="ssr:stedsnr" v="712531" />
	</node>
	<node lat="60.62959166536757" lon="5.078191667313987" id="-51734">
		<tag k="name" v="Kolstad" />
		<tag k="place" v="farm" />
		<tag k="ssr:stedsnr" v="712577" />
	</node>
	<node lat="60.62327777662947" lon="5.478522226476579" id="-51737">
		<tag k="fixme" v="consider place=hamlet" />
		<tag k="name" v="Ostereidet" />
		<tag k="place" v="village" />
		<tag k="ssr:stedsnr" v="712590" />
	</node>
	<node lat="60.590561113100144" lon="4.996261103652788" id="-51751">
		<tag k="name" v="Hundskjeften" />
		<tag k="place" v="farm" />
		<tag k="ssr:stedsnr" v="713325" />
	</node>
	<node lat="60.51531944877473" lon="5.240713886410943" id="-51755">
		<tag k="amenity" v="school" />
		<tag k="name" v="Nordhordland Folkehøgskole" />
		<tag k="ssr:stedsnr" v="713275" />
	</node>
	<node lat="60.59993418420086" lon="5.284534692733897" id="-51769">
		<tag k="fixme" v="consider place=hamlet" />
		<tag k="name" v="Herland" />
		<tag k="place" v="farm" />
		<tag k="ssr:stedsnr" v="734031" />
	</node>
	<node lat="60.55569901448193" lon="5.164917238087882" id="-51770">
		<tag k="fixme" v="consider place=hamlet" />
		<tag k="name" v="Hestdal" />
		<tag k="place" v="farm" />
		<tag k="ssr:stedsnr" v="734091" />
	</node>
	<node lat="60.58820000400734" lon="5.129261119471509" id="-51771">
		<tag k="name" v="Øyjordi" />
		<tag k="place" v="farm" />
		<tag k="ssr:stedsnr" v="734101" />
	</node>
	<node lat="60.71008834099983" lon="5.22525377287593" id="-51772">
		<tag k="fixme" v="consider place=hamlet" />
		<tag k="name" v="Løtveit" />
		<tag k="place" v="farm" />
		<tag k="ssr:stedsnr" v="734205" />
	</node>
	<node lat="60.70680936822193" lon="5.27299421271209" id="-51773">
		<tag k="fixme" v="consider place=hamlet" />
		<tag k="name" v="Sletten" />
		<tag k="place" v="farm" />
		<tag k="ssr:stedsnr" v="734209" />
	</node>
	<node lat="60.647866662533026" lon="5.33027500944351" id="-51775">
		<tag k="name" v="Trædet" />
		<tag k="place" v="farm" />
		<tag k="ssr:stedsnr" v="734240" />
	</node>
	<node lat="60.71458055171251" lon="5.282594439144295" id="-51780">
		<tag k="name" v="Uglåsen" />
		<tag k="place" v="farm" />
		<tag k="ssr:stedsnr" v="734200" />
	</node>
	<node lat="60.65952614720593" lon="5.072863376821176" id="-51797">
		<tag k="alt_name" v="Kjeseter;Kjesæter" />
		<tag k="fixme" v="consider place=hamlet" />
		<tag k="name" v="Kjeset" />
		<tag k="place" v="farm" />
		<tag k="ssr:stedsnr" v="734982" />
	</node>
	<node lat="60.75774721869524" lon="5.061408326678627" id="-51801">
		<tag k="fixme" v="consider place=suburb, village or hamlet" />
		<tag k="name" v="Risasjøen" />
		<tag k="place" v="quarter" />
		<tag k="ssr:stedsnr" v="737166" />
	</node>
	<node lat="60.537013886539526" lon="5.26452776908509" id="-51803">
		<tag k="name" v="Austegarden" />
		<tag k="place" v="farm" />
		<tag k="ssr:stedsnr" v="902347" />
	</node>
	<node lat="60.7052222177935" lon="4.89387499283696" id="-51804">
		<tag k="name" v="Marøy" />
		<tag k="place" v="farm" />
		<tag k="ssr:stedsnr" v="748772" />
	</node>
	<node lat="60.708930557950936" lon="4.896269442881678" id="-51805">
		<tag k="name" v="Marøy" />
		<tag k="place" v="farm" />
		<tag k="ssr:stedsnr" v="748773" />
	</node>
	<node lat="60.70904999993757" lon="4.892527786048482" id="-51806">
		<tag k="name" v="Marøy" />
		<tag k="place" v="farm" />
		<tag k="ssr:stedsnr" v="748777" />
	</node>
	<node lat="60.705902778037" lon="4.899105549271427" id="-51807">
		<tag k="name" v="Marøy" />
		<tag k="place" v="farm" />
		<tag k="ssr:stedsnr" v="748780" />
	</node>
	<node lat="60.71100191392179" lon="5.188369397859215" id="-51812">
		<tag k="fixme" v="consider place=hamlet" />
		<tag k="name" v="Marås" />
		<tag k="place" v="farm" />
		<tag k="ssr:stedsnr" v="753856" />
	</node>
	<node lat="60.53375120918433" lon="5.189846605903114" id="-51813">
		<tag k="fixme" v="consider place=hamlet" />
		<tag k="name" v="Øvre Dale" />
		<tag k="place" v="farm" />
		<tag k="ssr:stedsnr" v="757617" />
	</node>
	<node lat="60.69255278222421" lon="5.316897224560929" id="-51814">
		<tag k="name" v="Nævdal" />
		<tag k="place" v="farm" />
		<tag k="ssr:stedsnr" v="905695" />
	</node>
	<node lat="60.69194444544533" lon="5.313775007638091" id="-51815">
		<tag k="name" v="Nævdal" />
		<tag k="place" v="farm" />
		<tag k="ssr:stedsnr" v="905696" />
	</node>
	<node lat="60.700894440078606" lon="5.165244441699961" id="-51829">
		<tag k="name" v="Kvalvåg" />
		<tag k="place" v="farm" />
		<tag k="ssr:stedsnr" v="772318" />
	</node>
	<node lat="60.57401389192873" lon="5.220722222542933" id="-51834">
		<tag k="fixme" v="consider place=hamlet" />
		<tag k="name" v="Hilland" />
		<tag k="place" v="farm" />
		<tag k="ssr:stedsnr" v="772422" />
	</node>
	<node lat="60.69165833559658" lon="5.116205553609857" id="-51862">
		<tag k="name" v="Lygra" />
		<tag k="place" v="farm" />
		<tag k="ssr:stedsnr" v="773111" />
	</node>
	<node lat="60.57095000136839" lon="5.234947217708071" id="-51864">
		<tag k="name" v="Alversund" />
		<tag k="place" v="hamlet" />
		<tag k="ssr:stedsnr" v="773117" />
	</node>
	<node lat="60.67732500131222" lon="5.298902776849479" id="-51869">
		<tag k="historic" v="shieling" />
		<tag k="name" v="Tveitasetra" />
		<tag k="place" v="isolated_dwelling" />
		<tag k="ssr:stedsnr" v="773190" />
	</node>
	<node lat="60.69208333506979" lon="5.1118277703164035" id="-51884">
		<tag k="alt_name" v="Lygren ytre" />
		<tag k="name" v="Ytre Lygren" />
		<tag k="place" v="farm" />
		<tag k="ssr:stedsnr" v="773510" />
	</node>
	<node lat="60.61146389090188" lon="5.169499999527824" id="-51903">
		<tag k="alt_name" v="Tjore Indre" />
		<tag k="name" v="Indre Tjore" />
		<tag k="place" v="farm" />
		<tag k="ssr:stedsnr" v="773706" />
	</node>
	<node lat="60.774258329385496" lon="5.5293333374331874" id="-51916">
		<tag k="historic" v="shieling" />
		<tag k="name" v="Steinsedalssetra" />
		<tag k="place" v="isolated_dwelling" />
		<tag k="ssr:stedsnr" v="773821" />
	</node>
	<node lat="60.79573055385344" lon="5.641244450311495" id="-51917">
		<tag k="name" v="Stranda" />
		<tag k="place" v="farm" />
		<tag k="ssr:stedsnr" v="773853" />
	</node>
	<node lat="60.539341666241846" lon="5.107836115353143" id="-51920">
		<tag k="name" v="Storåsen" />
		<tag k="place" v="farm" />
		<tag k="ssr:stedsnr" v="774323" />
	</node>
	<node lat="60.54680833079789" lon="5.166869448490173" id="-51931">
		<tag k="name" v="Røyset" />
		<tag k="place" v="farm" />
		<tag k="ssr:stedsnr" v="781263" />
	</node>
	<node lat="60.695472747189456" lon="5.263806987812621" id="-51932">
		<tag k="name" v="Fjellsbø" />
		<tag k="place" v="hamlet" />
		<tag k="ssr:stedsnr" v="795169" />
	</node>
	<node lat="60.65975657731329" lon="5.11575023348557" id="-51936">
		<tag k="fixme" v="consider place=hamlet" />
		<tag k="name" v="Bruknappen" />
		<tag k="place" v="farm" />
		<tag k="ssr:stedsnr" v="795263" />
	</node>
	<node lat="60.64769526321623" lon="5.106537744956349" id="-51938">
		<tag k="fixme" v="consider place=hamlet" />
		<tag k="name" v="Frotaule" />
		<tag k="place" v="farm" />
		<tag k="ssr:stedsnr" v="795270" />
	</node>
	<node lat="60.65011633750669" lon="5.147524290107523" id="-51939">
		<tag k="fixme" v="consider place=hamlet" />
		<tag k="name" v="Haukås" />
		<tag k="place" v="farm" />
		<tag k="ssr:stedsnr" v="795273" />
	</node>
	<node lat="60.742825000641176" lon="5.5940444425727165" id="-51941">
		<tag k="historic" v="shieling" />
		<tag k="name" v="Vetle-Aurdalssætra" />
		<tag k="place" v="isolated_dwelling" />
		<tag k="ssr:stedsnr" v="795518" />
	</node>
	<node lat="60.541734457674046" lon="5.086558317994956" id="-51950">
		<tag k="fixme" v="consider place=hamlet" />
		<tag k="name" v="Leirvik" />
		<tag k="place" v="farm" />
		<tag k="ssr:stedsnr" v="795904" />
	</node>
	<node lat="60.71481840639832" lon="5.307834241791693" id="-51965">
		<tag k="fixme" v="consider place=hamlet" />
		<tag k="name" v="Hodnakvamme" />
		<tag k="place" v="farm" />
		<tag k="ssr:stedsnr" v="916194" />
	</node>
	<node lat="60.68477294359497" lon="5.391643596807472" id="-51974">
		<tag k="fixme" v="consider place=hamlet" />
		<tag k="name" v="Rødland" />
		<tag k="place" v="farm" />
		<tag k="ssr:stedsnr" v="916151" />
	</node>
	<node lat="60.72848055235445" lon="5.644249997261905" id="-51978">
		<tag k="fixme" v="consider place=hamlet" />
		<tag k="name" v="Romarheim" />
		<tag k="place" v="village" />
		<tag k="ssr:stedsnr" v="916332" />
	</node>
	<node lat="60.71518611033577" lon="5.525949999112515" id="-51980">
		<tag k="fixme" v="consider place=hamlet" />
		<tag k="name" v="Sætre" />
		<tag k="place" v="farm" />
		<tag k="ssr:stedsnr" v="916294" />
	</node>
	<node lat="60.73267387344258" lon="5.105161598309732" id="-51984">
		<tag k="fixme" v="consider place=hamlet" />
		<tag k="name" v="Skorneset" />
		<tag k="place" v="farm" />
		<tag k="ssr:stedsnr" v="916699" />
	</node>
	<node lat="60.67415833718397" lon="5.027344452162696" id="-51986">
		<tag k="name" v="Kløvheim" />
		<tag k="place" v="farm" />
		<tag k="ssr:stedsnr" v="916982" />
	</node>
	<node lat="60.66875434512561" lon="5.024053602611434" id="-51987">
		<tag k="fixme" v="consider place=hamlet" />
		<tag k="name" v="Helland" />
		<tag k="place" v="farm" />
		<tag k="ssr:stedsnr" v="916983" />
	</node>
	<node lat="60.74051923197633" lon="5.253277074284078" id="-51991">
		<tag k="alt_name" v="Vabunes" />
		<tag k="fixme" v="consider place=hamlet" />
		<tag k="name" v="Vadbuneset" />
		<tag k="place" v="farm" />
		<tag k="ssr:stedsnr" v="917653" />
	</node>
	<node lat="60.60527222274772" lon="5.398102776607936" id="-51994">
		<tag k="name" v="Eikangervåg" />
		<tag k="place" v="village" />
		<tag k="ssr:stedsnr" v="917088" />
	</node>
	<node lat="60.70687500220858" lon="5.520872214564056" id="-52030">
		<tag k="historic" v="shieling" />
		<tag k="name" v="Fitjasetra" />
		<tag k="place" v="isolated_dwelling" />
		<tag k="ssr:stedsnr" v="833714" />
	</node>
	<node lat="60.54574166686114" lon="5.1651166697410495" id="-52037">
		<tag k="name" v="Røyset" />
		<tag k="place" v="farm" />
		<tag k="ssr:stedsnr" v="841304" />
	</node>
	<node lat="60.537283332658994" lon="5.269022225911868" id="-52038">
		<tag k="name" v="Austegarden" />
		<tag k="place" v="farm" />
		<tag k="ssr:stedsnr" v="842304" />
	</node>
	<node lat="60.541798630925065" lon="5.048256165897627" id="-52042">
		<tag k="name" v="Beitingen" />
		<tag k="place" v="isolated_dwelling" />
		<tag k="ssr:stedsnr" v="855906" />
	</node>
	<node lat="60.567909908422" lon="5.054164235257313" id="-52043">
		<tag k="fixme" v="consider place=hamlet" />
		<tag k="name" v="Rossland" />
		<tag k="place" v="farm" />
		<tag k="ssr:stedsnr" v="855922" />
	</node>
	<node lat="60.727557694291775" lon="5.19877081421603" id="-52044">
		<tag k="fixme" v="consider place=hamlet" />
		<tag k="name" v="Fjellanger" />
		<tag k="place" v="farm" />
		<tag k="ssr:stedsnr" v="855667" />
	</node>
	<node lat="60.6426333764633" lon="5.110932886595199" id="-52049">
		<tag k="fixme" v="consider place=hamlet" />
		<tag k="name" v="Brattaule" />
		<tag k="place" v="farm" />
		<tag k="ssr:stedsnr" v="856198" />
	</node>
	<node lat="60.722263891289124" lon="5.636363887842463" id="-52051">
		<tag k="name" v="Floten" />
		<tag k="place" v="farm" />
		<tag k="ssr:stedsnr" v="856312" />
	</node>
	<node lat="60.602280559588884" lon="5.334816670876695" id="-52052">
		<tag k="fixme" v="consider place=hamlet" />
		<tag k="name" v="Sætre" />
		<tag k="place" v="farm" />
		<tag k="ssr:stedsnr" v="856030" />
	</node>
	<node lat="60.59398747399941" lon="5.184552783595805" id="-52055">
		<tag k="name" v="Vettås" />
		<tag k="place" v="hamlet" />
		<tag k="ssr:stedsnr" v="856094" />
	</node>
	<node lat="60.66598226873039" lon="5.136557894910448" id="-52058">
		<tag k="alt_name" v="Bergfjord" />
		<tag k="fixme" v="consider place=hamlet" />
		<tag k="name" v="Berfjord" />
		<tag k="place" v="farm" />
		<tag k="ssr:stedsnr" v="856235" />
	</node>
	<node lat="60.676076186871924" lon="5.332877735529963" id="-52059">
		<tag k="fixme" v="consider place=hamlet" />
		<tag k="name" v="Kleivi" />
		<tag k="place" v="farm" />
		<tag k="ssr:stedsnr" v="856243" />
	</node>
	<node lat="60.546345564317484" lon="5.165836971073697" id="-52061">
		<tag k="fixme" v="consider place=hamlet" />
		<tag k="name" v="Røyset" />
		<tag k="place" v="farm" />
		<tag k="ssr:stedsnr" v="856486" />
	</node>
	<node lat="60.543805552489076" lon="5.1220777788488805" id="-52062">
		<tag k="name" v="Brakstad" />
		<tag k="place" v="hamlet" />
		<tag k="ssr:stedsnr" v="856488" />
	</node>
	<node lat="60.67934999939742" lon="5.063377775337048" id="-52064">
		<tag k="name" v="Nesbø" />
		<tag k="place" v="farm" />
		<tag k="ssr:stedsnr" v="856782" />
	</node>
	<node lat="60.68489053538832" lon="5.05420520328593" id="-52065">
		<tag k="fixme" v="consider place=hamlet" />
		<tag k="name" v="Mellingen" />
		<tag k="place" v="farm" />
		<tag k="ssr:stedsnr" v="856784" />
	</node>
	<node lat="60.70409722427453" lon="5.004922221727542" id="-52066">
		<tag k="name" v="Soltveit" />
		<tag k="place" v="hamlet" />
		<tag k="ssr:stedsnr" v="856815" />
	</node>
	<node lat="60.68348055165498" lon="4.935261116358472" id="-52080">
		<tag k="name" v="Brømstø" />
		<tag k="place" v="locality" />
		<tag k="ssr:stedsnr" v="935218" />
	</node>
	<node lat="60.55303055790981" lon="5.217938892884577" id="-52081">
		<tag k="name" v="Heiane" />
		<tag k="place" v="quarter" />
		<tag k="ssr:stedsnr" v="890016" />
	</node>
	<node lat="60.62056389213118" lon="5.339841661030867" id="-52093">
		<tag k="name" v="Øvre Hageseter" />
		<tag k="place" v="farm" />
		<tag k="ssr:stedsnr" v="894068" />
	</node>
	<node lat="60.607188886262385" lon="5.442836117011917" id="-52105">
		<tag k="name" v="Eknes" />
		<tag k="place" v="farm" />
		<tag k="ssr:stedsnr" v="894334" />
	</node>
	<node lat="60.58253611258302" lon="5.363386114528384" id="-52139">
		<tag k="name" v="Hellesvåg" />
		<tag k="place" v="village" />
		<tag k="ssr:stedsnr" v="894767" />
	</node>
	<node lat="60.53978332963071" lon="5.240047215122423" id="-52165">
		<tag k="name" v="Sunde" />
		<tag k="place" v="farm" />
		<tag k="ssr:stedsnr" v="895260" />
	</node>
	<node lat="60.63738055156054" lon="5.431933330073314" id="-52167">
		<tag k="name" v="Bjørgetræ" />
		<tag k="place" v="farm" />
		<tag k="ssr:stedsnr" v="895417" />
	</node>
	<node lat="60.70977500132356" lon="5.0389333412920045" id="-52171">
		<tag k="fixme" v="consider place=hamlet" />
		<tag k="name" v="Vallersnes" />
		<tag k="place" v="farm" />
		<tag k="ssr:stedsnr" v="895615" />
	</node>
	<node lat="60.646077773840126" lon="5.058383336565525" id="-52174">
		<tag k="alt_name" v="Solend Nordre" />
		<tag k="name" v="Nordre Solend" />
		<tag k="place" v="farm" />
		<tag k="ssr:stedsnr" v="895559" />
	</node>
	<node lat="60.645362695799285" lon="5.07353112285664" id="-52175">
		<tag k="fixme" v="consider place=hamlet" />
		<tag k="name" v="Sørli" />
		<tag k="place" v="farm" />
		<tag k="ssr:stedsnr" v="895561" />
	</node>
	<node lat="60.79441944618609" lon="5.067033339120549" id="-52186">
		<tag k="name" v="Mongstad Base" />
		<tag k="place" v="quarter" />
		<tag k="ssr:stedsnr" v="905654" />
	</node>
	<node lat="60.541522226806336" lon="5.280558339249044" id="-52187">
		<tag k="name" v="Klubben" />
		<tag k="place" v="quarter" />
		<tag k="ssr:stedsnr" v="906807" />
	</node>
	<node lat="60.587168547659054" lon="5.150776010983812" id="-52188">
		<tag k="alt_name" v="Refskar" />
		<tag k="fixme" v="consider place=hamlet" />
		<tag k="name" v="Revskard" />
		<tag k="place" v="farm" />
		<tag k="ssr:stedsnr" v="916103" />
	</node>
	<node lat="60.61375027720519" lon="5.455959413408369" id="-52191">
		<tag k="fixme" v="consider place=hamlet" />
		<tag k="name" v="Totland" />
		<tag k="place" v="farm" />
		<tag k="ssr:stedsnr" v="916019" />
	</node>
	<node lat="60.60161666386114" lon="5.216888881033875" id="-52193">
		<tag k="alt_name" v="Fosse, yt" />
		<tag k="name" v="Ytre Fosse" />
		<tag k="place" v="farm" />
		<tag k="ssr:stedsnr" v="916027" />
	</node>
	<node lat="60.577605207707464" lon="5.358843692313051" id="-52194">
		<tag k="alt_name" v="Øvstegård" />
		<tag k="fixme" v="consider place=hamlet" />
		<tag k="name" v="Øvstegarden" />
		<tag k="place" v="farm" />
		<tag k="ssr:stedsnr" v="916076" />
	</node>
	<node lat="60.563591670134905" lon="5.248691671450013" id="-52195">
		<tag k="name" v="Steingard" />
		<tag k="place" v="farm" />
		<tag k="ssr:stedsnr" v="916081" />
	</node>
	<node lat="60.64001063667224" lon="5.097110200848833" id="-52198">
		<tag k="fixme" v="consider place=hamlet" />
		<tag k="name" v="Kolås" />
		<tag k="place" v="farm" />
		<tag k="ssr:stedsnr" v="916203" />
	</node>
	<node lat="60.71482233031774" lon="5.267291471685605" id="-52200">
		<tag k="fixme" v="consider place=hamlet" />
		<tag k="loc_name" v="Skauno" />
		<tag k="name" v="Skauo" />
		<tag k="place" v="farm" />
		<tag k="ssr:stedsnr" v="916171" />
	</node>
	<node lat="60.63253055722979" lon="5.511074996944904" id="-52205">
		<tag k="alt_name" v="Skår" />
		<tag k="fixme" v="consider place=hamlet" />
		<tag k="name" v="Skor" />
		<tag k="old_name" v="Skori" />
		<tag k="place" v="farm" />
		<tag k="ssr:stedsnr" v="916729" />
	</node>
	<node lat="60.68681113118825" lon="4.935878059859952" id="-52214">
		<tag k="alt_name" v="Kvaleim" />
		<tag k="name" v="Kvalheim" />
		<tag k="place" v="hamlet" />
		<tag k="ssr:stedsnr" v="916809" />
	</node>
	<node lat="60.66125119949694" lon="5.062447093676115" id="-52222">
		<tag k="fixme" v="consider place=hamlet" />
		<tag k="name" v="Lervik" />
		<tag k="place" v="farm" />
		<tag k="ssr:stedsnr" v="916972" />
	</node>
	<node lat="60.64447961144625" lon="5.057274128459702" id="-52223">
		<tag k="alt_name" v="Solheim" />
		<tag k="name" v="Solend" />
		<tag k="place" v="hamlet" />
		<tag k="ssr:stedsnr" v="916974" />
	</node>
	<node lat="60.707424328360396" lon="5.199959449075603" id="-52224">
		<tag k="fixme" v="consider place=hamlet" />
		<tag k="name" v="Hauge" />
		<tag k="place" v="farm" />
		<tag k="ssr:stedsnr" v="917122" />
	</node>
	<node lat="60.67438055246864" lon="4.95893332820721" id="-52226">
		<tag k="name" v="Håland" />
		<tag k="place" v="hamlet" />
		<tag k="ssr:stedsnr" v="917781" />
	</node>
	<node lat="60.71015555842304" lon="4.888477769322309" id="-52229">
		<tag k="name" v="Marøy" />
		<tag k="place" v="farm" />
		<tag k="ssr:stedsnr" v="931794" />
	</node>
	<node lat="60.65473055326009" lon="5.182000008255982" id="-52234">
		<tag k="name" v="Øvre Myksvoll" />
		<tag k="place" v="farm" />
		<tag k="ssr:stedsnr" v="935303" />
	</node>
	<node lat="60.52889722441381" lon="5.246294448082113" id="-52239">
		<tag k="name" v="Øvrebøen" />
		<tag k="place" v="quarter" />
		<tag k="ssr:stedsnr" v="950059" />
	</node>
	<node lat="60.59730277695654" lon="5.2937694435699605" id="-52241">
		<tag k="name" v="Eikeland" />
		<tag k="place" v="farm" />
		<tag k="ssr:stedsnr" v="954117" />
	</node>
	<node lat="60.708852778130314" lon="5.556475000664747" id="-52248">
		<tag k="historic" v="shieling" />
		<tag k="name" v="Klenlistølen" />
		<tag k="place" v="isolated_dwelling" />
		<tag k="ssr:stedsnr" v="954742" />
	</node>
	<node lat="60.740413890589586" lon="5.137583338584973" id="-52260">
		<tag k="historic" v="shieling" />
		<tag k="name" v="Skjerjestølane" />
		<tag k="place" v="isolated_dwelling" />
		<tag k="ssr:stedsnr" v="955242" />
	</node>
	<node lat="60.5578166630557" lon="5.052075000693756" id="-52265">
		<tag k="name" v="Ryland" />
		<tag k="place" v="village" />
		<tag k="ssr:stedsnr" v="955111" />
	</node>
	<node lat="60.52925277362359" lon="5.15470278381304" id="-52268">
		<tag k="fixme" v="consider place=suburb, village or hamlet" />
		<tag k="name" v="Holme" />
		<tag k="place" v="quarter" />
		<tag k="ssr:stedsnr" v="955156" />
	</node>
	<node lat="60.62941388829858" lon="5.483538880510451" id="-52275">
		<tag k="amenity" v="school" />
		<tag k="name" v="Ostereidet" />
		<tag k="ssr:stedsnr" v="955508" />
	</node>
	<node lat="60.67999166758523" lon="5.089986103646903" id="-52281">
		<tag k="name" v="Klumpane" />
		<tag k="place" v="farm" />
		<tag k="ssr:stedsnr" v="955548" />
	</node>
	<node lat="60.750122224730475" lon="5.071302770660715" id="-52295">
		<tag k="name" v="Skireidet" />
		<tag k="place" v="farm" />
		<tag k="ssr:stedsnr" v="955495" />
	</node>
	<node lat="60.63284166969875" lon="5.314183332324535" id="-52315">
		<tag k="name" v="Toskheim" />
		<tag k="place" v="farm" />
		<tag k="ssr:stedsnr" v="957294" />
	</node>
	<node lat="60.61203050499395" lon="5.151967530903767" id="-52318">
		<tag k="name" v="Sæbø" />
		<tag k="place" v="hamlet" />
		<tag k="ssr:stedsnr" v="989367" />
	</node>
	<node lat="60.631399814463" lon="5.046358310831415" id="-52319">
		<tag k="fixme" v="consider place=hamlet" />
		<tag k="name" v="Mangersneset" />
		<tag k="place" v="farm" />
		<tag k="ssr:stedsnr" v="989311" />
	</node>
	<node lat="60.654439250924135" lon="5.280709816675479" id="-52320">
		<tag k="name" v="Leivestad" />
		<tag k="place" v="hamlet" />
		<tag k="ssr:stedsnr" v="989482" />
	</node>
	<node lat="60.55618182372049" lon="5.307345337356153" id="-52321">
		<tag k="alt_name" v="Gjervik" />
		<tag k="name" v="Gjerdviki" />
		<tag k="place" v="hamlet" />
		<tag k="ssr:stedsnr" v="989484" />
	</node>
	<node lat="60.567505305293004" lon="5.361668442677047" id="-52322">
		<tag k="name" v="Munndal" />
		<tag k="place" v="hamlet" />
		<tag k="ssr:stedsnr" v="989485" />
	</node>
	<node lat="60.61296868364138" lon="5.3846467619871445" id="-52323">
		<tag k="name" v="Eikanger" />
		<tag k="place" v="hamlet" />
		<tag k="ssr:stedsnr" v="989487" />
	</node>
	<node lat="60.537291095478125" lon="5.105166245760094" id="-52324">
		<tag k="fixme" v="consider place=hamlet" />
		<tag k="name" v="Fløksand" />
		<tag k="place" v="farm" />
		<tag k="ssr:stedsnr" v="989699" />
	</node>
	<node lat="60.69275415138396" lon="5.111520725724609" id="-52327">
		<tag k="fixme" v="consider place=hamlet" />
		<tag k="name" v="Utluro" />
		<tag k="place" v="farm" />
		<tag k="ssr:stedsnr" v="6195" />
	</node>
	<node lat="60.60523264425112" lon="5.423279044512418" id="-52329">
		<tag k="alt_name" v="Eidsnes, in" />
		<tag k="fixme" v="consider place=hamlet" />
		<tag k="name" v="Indre Eidsnes" />
		<tag k="place" v="farm" />
		<tag k="ssr:stedsnr" v="6107" />
	</node>
	<node lat="60.59102340286043" lon="5.207099042062067" id="-52330">
		<tag k="alt_name" v="Remme" />
		<tag k="fixme" v="consider place=hamlet" />
		<tag k="name" v="Rimmo" />
		<tag k="place" v="farm" />
		<tag k="ssr:stedsnr" v="6115" />
	</node>
	<node lat="60.594855475805225" lon="5.282927474687365" id="-52331">
		<tag k="fixme" v="consider place=hamlet" />
		<tag k="name" v="Espeland" />
		<tag k="place" v="farm" />
		<tag k="ssr:stedsnr" v="6118" />
	</node>
	<node lat="60.5921197715414" lon="5.271294521634932" id="-52332">
		<tag k="fixme" v="consider place=hamlet" />
		<tag k="name" v="Sletta" />
		<tag k="place" v="farm" />
		<tag k="ssr:stedsnr" v="6119" />
	</node>
	<node lat="60.58018888746093" lon="5.1645388838527655" id="-52333">
		<tag k="name" v="Einhøyen" />
		<tag k="place" v="farm" />
		<tag k="ssr:stedsnr" v="6124" />
	</node>
	<node lat="60.582353760252246" lon="5.209892206025824" id="-52334">
		<tag k="name" v="Soltveit" />
		<tag k="place" v="hamlet" />
		<tag k="ssr:stedsnr" v="6125" />
	</node>
	<node lat="60.65395277873148" lon="5.359608330261141" id="-52339">
		<tag k="name" v="Olderhaugen" />
		<tag k="place" v="farm" />
		<tag k="ssr:stedsnr" v="6216" />
	</node>
	<node lat="60.6390433982093" lon="5.209073119223619" id="-52340">
		<tag k="fixme" v="consider place=hamlet" />
		<tag k="name" v="Vollo" />
		<tag k="place" v="farm" />
		<tag k="ssr:stedsnr" v="6220" />
	</node>
	<node lat="60.63145016402966" lon="5.1279444103903" id="-52341">
		<tag k="alt_name" v="Indre Taule" />
		<tag k="fixme" v="consider place=hamlet" />
		<tag k="name" v="Taule" />
		<tag k="place" v="farm" />
		<tag k="ssr:stedsnr" v="6227" />
	</node>
	<node lat="60.67600833279321" lon="5.218227784962848" id="-52343">
		<tag k="alt_name" v="Hundven" />
		<tag k="name" v="Hundvin" />
		<tag k="place" v="hamlet" />
		<tag k="ssr:stedsnr" v="6238" />
	</node>
	<node lat="60.665233336518256" lon="5.421250004128557" id="-52344">
		<tag k="name" v="Ås" />
		<tag k="place" v="farm" />
		<tag k="ssr:stedsnr" v="6246" />
	</node>
	<node lat="60.65247852213058" lon="5.182924378299127" id="-52345">
		<tag k="alt_name" v="Nedre Myksvoll" />
		<tag k="name" v="Myksvoll" />
		<tag k="place" v="hamlet" />
		<tag k="ssr:stedsnr" v="6253" />
	</node>
	<node lat="60.55732187150504" lon="5.309654134374679" id="-52349">
		<tag k="alt_name" v="Gjerdviki, in" />
		<tag k="fixme" v="consider place=hamlet" />
		<tag k="name" v="Indre Gjerdviki" />
		<tag k="place" v="farm" />
		<tag k="ssr:stedsnr" v="6467" />
	</node>
	<node lat="60.66400639612739" lon="5.596510573131106" id="-52352">
		<tag k="alt_name" v="Paddøyni" />
		<tag k="fixme" v="consider place=hamlet" />
		<tag k="name" v="Padøy" />
		<tag k="place" v="farm" />
		<tag k="ssr:stedsnr" v="6655" />
	</node>
	<node lat="60.55048055707309" lon="5.040575005557257" id="-52362">
		<tag k="name" v="Eikeland" />
		<tag k="place" v="hamlet" />
		<tag k="ssr:stedsnr" v="6918" />
	</node>
	<node lat="60.56082777378861" lon="5.021194447068681" id="-52363">
		<tag k="name" v="Io" />
		<tag k="place" v="hamlet" />
		<tag k="ssr:stedsnr" v="6922" />
	</node>
	<node lat="60.674883333810094" lon="5.017505560879009" id="-52369">
		<tag k="name" v="Rindane" />
		<tag k="place" v="farm" />
		<tag k="ssr:stedsnr" v="6991" />
	</node>
	<node lat="60.53458888552643" lon="5.259480562615073" id="-52379">
		<tag k="fixme" v="consider place=suburb, village or hamlet" />
		<tag k="name" v="Flatøy" />
		<tag k="place" v="quarter" />
		<tag k="ssr:stedsnr" v="24526" />
	</node>
	<node lat="60.70076388734916" lon="4.928919435798573" id="-52386">
		<tag k="amenity" v="school" />
		<tag k="name" v="Hordabø" />
		<tag k="ssr:stedsnr" v="26151" />
	</node>
	<node lat="60.53447858691054" lon="5.199779299890796" id="-52387">
		<tag k="fixme" v="consider place=hamlet" />
		<tag k="name" v="Øvre Sagstad" />
		<tag k="place" v="farm" />
		<tag k="ssr:stedsnr" v="29636" />
	</node>
	<node lat="60.58507778231737" lon="5.137205562431712" id="-52388">
		<tag k="name" v="Søre Ådland" />
		<tag k="place" v="farm" />
		<tag k="ssr:stedsnr" v="29637" />
	</node>
	<node lat="60.55628055415002" lon="5.215825003195621" id="-52398">
		<tag k="name" v="Skolten" />
		<tag k="place" v="farm" />
		<tag k="ssr:stedsnr" v="44056" />
	</node>
	<node lat="60.60812221836977" lon="5.321655562430122" id="-52403">
		<tag k="name" v="Halsteindal" />
		<tag k="place" v="farm" />
		<tag k="ssr:stedsnr" v="44064" />
	</node>
	<node lat="60.58662500282662" lon="5.231091668049535" id="-52405">
		<tag k="name" v="Kvamsvåg" />
		<tag k="place" v="hamlet" />
		<tag k="ssr:stedsnr" v="44223" />
	</node>
	<node lat="60.66000833061634" lon="5.243369446142508" id="-52407">
		<tag k="historic" v="shieling" />
		<tag k="name" v="Setre" />
		<tag k="place" v="isolated_dwelling" />
		<tag k="ssr:stedsnr" v="44135" />
	</node>
	<node lat="60.58770555707419" lon="5.360572216542823" id="-52422">
		<tag k="name" v="Apalen" />
		<tag k="place" v="farm" />
		<tag k="ssr:stedsnr" v="44281" />
	</node>
	<node lat="60.61554167058232" lon="5.154263882901513" id="-52431">
		<tag k="alt_name" v="Solheim Vestre" />
		<tag k="name" v="Vestre Solheim" />
		<tag k="place" v="farm" />
		<tag k="ssr:stedsnr" v="44738" />
	</node>
	<node lat="60.73507222006822" lon="5.64191388830866" id="-52442">
		<tag k="name" v="Trædi" />
		<tag k="place" v="farm" />
		<tag k="ssr:stedsnr" v="44984" />
	</node>
	<node lat="60.70814166553783" lon="4.987241669331505" id="-52457">
		<tag k="fixme" v="consider place=hamlet" />
		<tag k="name" v="Nordanger" />
		<tag k="place" v="farm" />
		<tag k="ssr:stedsnr" v="45348" />
	</node>
	<node lat="60.66520277369329" lon="5.171744450991596" id="-52460">
		<tag k="name" v="Tofting" />
		<tag k="place" v="farm" />
		<tag k="ssr:stedsnr" v="45358" />
	</node>
	<node lat="60.74111666994276" lon="5.165299996514904" id="-52480">
		<tag k="name" v="Åtun" />
		<tag k="place" v="farm" />
		<tag k="ssr:stedsnr" v="45240" />
	</node>
	<node lat="60.74853157732798" lon="5.158287573181768" id="-52481">
		<tag k="fixme" v="consider place=hamlet" />
		<tag k="name" v="Kolås" />
		<tag k="place" v="farm" />
		<tag k="ssr:stedsnr" v="45241" />
	</node>
	<node lat="60.51363034693221" lon="5.238005036127662" id="-52488">
		<tag k="fixme" v="consider place=hamlet" />
		<tag k="name" v="Frekhaug" />
		<tag k="place" v="farm" />
		<tag k="ssr:stedsnr" v="45265" />
	</node>
	<node lat="60.73947500239371" lon="5.63537499535379" id="-52518">
		<tag k="name" v="Nordli" />
		<tag k="place" v="farm" />
		<tag k="ssr:stedsnr" v="45754" />
	</node>
	<node lat="60.77108333656427" lon="5.5330944380843246" id="-52522">
		<tag k="historic" v="shieling" />
		<tag k="name" v="Torsheimsetra" />
		<tag k="place" v="isolated_dwelling" />
		<tag k="ssr:stedsnr" v="45835" />
	</node>
	<node lat="60.60345162095614" lon="4.9937670657478215" id="-52535">
		<tag k="fixme" v="consider place=hamlet" />
		<tag k="name" v="Husebø" />
		<tag k="place" v="farm" />
		<tag k="ssr:stedsnr" v="46442" />
	</node>
	<node lat="60.5981444413782" lon="5.0040555486778855" id="-52544">
		<tag k="name" v="Brotshaug" />
		<tag k="old_name" v="Bratshaug" />
		<tag k="place" v="farm" />
		<tag k="ssr:stedsnr" v="52264" />
	</node>
	<node lat="60.6879930795903" lon="5.412395235738754" id="-52550">
		<tag k="alt_name" v="Gjelsvik" />
		<tag k="fixme" v="consider place=hamlet" />
		<tag k="name" v="Gjelsvika" />
		<tag k="old_name" v="Gjelsviki" />
		<tag k="place" v="farm" />
		<tag k="ssr:stedsnr" v="67160" />
	</node>
	<node lat="60.686533330016054" lon="5.598719440926664" id="-52554">
		<tag k="name" v="Liabakken" />
		<tag k="place" v="farm" />
		<tag k="ssr:stedsnr" v="66342" />
	</node>
	<node lat="60.73744770937381" lon="5.535043293095454" id="-52555">
		<tag k="alt_name" v="Fjelle" />
		<tag k="fixme" v="consider place=hamlet" />
		<tag k="name" v="Fjellet" />
		<tag k="place" v="farm" />
		<tag k="ssr:stedsnr" v="66419" />
	</node>
	<node lat="60.645909212843954" lon="5.0977366751622695" id="-52560">
		<tag k="fixme" v="consider place=hamlet" />
		<tag k="name" v="Marås" />
		<tag k="place" v="farm" />
		<tag k="ssr:stedsnr" v="67058" />
	</node>
	<node lat="60.63054412351386" lon="5.215556475840746" id="-52561">
		<tag k="fixme" v="consider place=hamlet" />
		<tag k="name" v="Bøkevoll" />
		<tag k="place" v="farm" />
		<tag k="ssr:stedsnr" v="67060" />
	</node>
	<node lat="60.6363778900949" lon="5.443658334719543" id="-52562">
		<tag k="fixme" v="consider place=hamlet" />
		<tag k="name" v="Heltveit" />
		<tag k="place" v="farm" />
		<tag k="ssr:stedsnr" v="67069" />
	</node>
	<node lat="60.6155966908785" lon="5.158999372939901" id="-52563">
		<tag k="name" v="Solheim" />
		<tag k="place" v="hamlet" />
		<tag k="ssr:stedsnr" v="67072" />
	</node>
	<node lat="60.61238200664451" lon="5.168610870802775" id="-52565">
		<tag k="alt_name" v="Tjore" />
		<tag k="name" v="Tjoro" />
		<tag k="place" v="hamlet" />
		<tag k="ssr:stedsnr" v="67019" />
	</node>
	<node lat="60.598261241193725" lon="5.32914847282408" id="-52566">
		<tag k="alt_name" v="Sjurseter" />
		<tag k="fixme" v="consider place=hamlet" />
		<tag k="name" v="Sjauset" />
		<tag k="place" v="farm" />
		<tag k="ssr:stedsnr" v="67040" />
	</node>
	<node lat="60.6645275725972" lon="5.386003915552197" id="-52569">
		<tag k="alt_name" v="Hindnes, in;Indre Hindenes;Hindenes indre" />
		<tag k="fixme" v="consider place=hamlet" />
		<tag k="name" v="Indre Hindnes" />
		<tag k="place" v="farm" />
		<tag k="ssr:stedsnr" v="67265" />
	</node>
	<node lat="60.55791761341062" lon="5.112195866986712" id="-52571">
		<tag k="fixme" v="consider place=hamlet" />
		<tag k="name" v="Bjørndal" />
		<tag k="place" v="farm" />
		<tag k="ssr:stedsnr" v="67087" />
	</node>
	<node lat="60.56575278158215" lon="5.365105559277241" id="-52572">
		<tag k="name" v="Munndalsstøi" />
		<tag k="place" v="farm" />
		<tag k="ssr:stedsnr" v="67096" />
	</node>
	<node lat="60.55515462098733" lon="5.130745285782621" id="-52573">
		<tag k="fixme" v="consider place=hamlet" />
		<tag k="name" v="Sjurdal" />
		<tag k="place" v="farm" />
		<tag k="ssr:stedsnr" v="67098" />
	</node>
	<node lat="60.70048333322832" lon="5.596694447198729" id="-52575">
		<tag k="name" v="Vikasund" />
		<tag k="place" v="farm" />
		<tag k="ssr:stedsnr" v="67288" />
	</node>
	<node lat="60.56002569997947" lon="5.318188250828385" id="-52577">
		<tag k="alt_name" v="Grøttveit" />
		<tag k="fixme" v="consider place=hamlet" />
		<tag k="name" v="Grottveit" />
		<tag k="place" v="farm" />
		<tag k="ssr:stedsnr" v="67456" />
	</node>
	<node lat="60.69028333367305" lon="5.587088882687244" id="-52580">
		<tag k="name" v="Hatlehaug" />
		<tag k="place" v="farm" />
		<tag k="ssr:stedsnr" v="67390" />
	</node>
	<node lat="60.63222160255799" lon="5.070325232107716" id="-52589">
		<tag k="name" v="Morki" />
		<tag k="place" v="hamlet" />
		<tag k="ssr:stedsnr" v="67958" />
	</node>
	<node lat="60.708938888335084" lon="4.887788885595965" id="-52597">
		<tag k="name" v="Marøy" />
		<tag k="place" v="farm" />
		<tag k="ssr:stedsnr" v="81767" />
	</node>
	<node lat="60.7085805539497" lon="4.888919453811188" id="-52598">
		<tag k="name" v="Marøy" />
		<tag k="place" v="farm" />
		<tag k="ssr:stedsnr" v="81769" />
	</node>
	<node lat="60.54337222250176" lon="5.15733889100857" id="-52607">
		<tag k="name" v="Nedre Tveit" />
		<tag k="place" v="farm" />
		<tag k="ssr:stedsnr" v="89652" />
	</node>
	<node lat="60.562180989112576" lon="4.99163689596197" id="-52608">
		<tag k="name" v="Øpso" />
		<tag k="place" v="farm" />
		<tag k="ssr:stedsnr" v="97652" />
	</node>
	<node lat="60.67655602656395" lon="5.407356592830404" id="-52609">
		<tag k="fixme" v="consider place=hamlet" />
		<tag k="name" v="Veland" />
		<tag k="place" v="farm" />
		<tag k="ssr:stedsnr" v="104070" />
	</node>
	<node lat="60.61466389184334" lon="5.37554166137541" id="-52614">
		<tag k="name" v="Eikevoll" />
		<tag k="place" v="farm" />
		<tag k="ssr:stedsnr" v="105346" />
	</node>
	<node lat="60.670163886620365" lon="5.265361114233462" id="-52656">
		<tag k="name" v="Seljedal" />
		<tag k="place" v="farm" />
		<tag k="ssr:stedsnr" v="105233" />
	</node>
	<node lat="60.70076141578894" lon="5.32287137694361" id="-52660">
		<tag k="fixme" v="consider place=hamlet" />
		<tag k="name" v="Myking" />
		<tag k="place" v="farm" />
		<tag k="ssr:stedsnr" v="105263" />
	</node>
	<node lat="60.68584444581265" lon="5.461261103350966" id="-52665">
		<tag k="historic" v="shieling" />
		<tag k="name" v="Auststølen" />
		<tag k="place" v="isolated_dwelling" />
		<tag k="ssr:stedsnr" v="105616" />
	</node>
	<node lat="60.61265833677113" lon="5.14804166818625" id="-52666">
		<tag k="alt_name" v="Sæbø Ytre" />
		<tag k="name" v="Ytre Sæbø" />
		<tag k="place" v="farm" />
		<tag k="ssr:stedsnr" v="105740" />
	</node>
	<node lat="60.60235278106485" lon="5.178194436993028" id="-52668">
		<tag k="name" v="Haukeland" />
		<tag k="place" v="farm" />
		<tag k="ssr:stedsnr" v="105763" />
	</node>
	<node lat="60.69430627855065" lon="4.940091479028596" id="-52670">
		<tag k="fixme" v="consider place=hamlet" />
		<tag k="name" v="Haugland" />
		<tag k="place" v="farm" />
		<tag k="ssr:stedsnr" v="105363" />
	</node>
	<node lat="60.56905277517881" lon="5.356508337465224" id="-52672">
		<tag k="alt_name" v="Mundal øvre" />
		<tag k="name" v="Øvre Mundal" />
		<tag k="place" v="farm" />
		<tag k="ssr:stedsnr" v="105371" />
	</node>
	<node lat="60.674516669630485" lon="4.961105558218929" id="-52673">
		<tag k="fixme" v="consider place=hamlet" />
		<tag k="name" v="Håland" />
		<tag k="place" v="farm" />
		<tag k="ssr:stedsnr" v="105438" />
	</node>
	<node lat="60.76306944130553" lon="5.5722694472795915" id="-52732">
		<tag k="name" v="Bjørn West-hytta" />
		<tag k="place" v="isolated_dwelling" />
		<tag k="ssr:stedsnr" v="106863" />
	</node>
	<node lat="60.550191662424" lon="5.0357083285439765" id="-52735">
		<tag k="name" v="Nausthøyen" />
		<tag k="place" v="farm" />
		<tag k="ssr:stedsnr" v="107364" />
	</node>
	<node lat="60.5238166647513" lon="5.218375006039185" id="-52737">
		<tag k="name" v="Solhaug" />
		<tag k="place" v="farm" />
		<tag k="ssr:stedsnr" v="107377" />
	</node>
	<node lat="60.753341669535786" lon="5.066283331058031" id="-52745">
		<tag k="name" v="Rissundet" />
		<tag k="place" v="quarter" />
		<tag k="ssr:stedsnr" v="117788" />
	</node>
	<node lat="60.61808919981871" lon="5.342656101708689" id="-52747">
		<tag k="fixme" v="consider place=hamlet" />
		<tag k="name" v="Hakset" />
		<tag k="place" v="farm" />
		<tag k="ssr:stedsnr" v="127010" />
	</node>
	<node lat="60.69669518615859" lon="5.20376727411187" id="-52752">
		<tag k="alt_name" v="Træland" />
		<tag k="fixme" v="consider place=hamlet" />
		<tag k="name" v="Trælland" />
		<tag k="place" v="farm" />
		<tag k="ssr:stedsnr" v="127182" />
	</node>
	<node lat="60.699680556568595" lon="5.245899991737622" id="-52753">
		<tag k="alt_name" v="Skodven, øvre" />
		<tag k="name" v="Øvre Skodven" />
		<tag k="place" v="farm" />
		<tag k="ssr:stedsnr" v="127184" />
	</node>
	<node lat="60.67155278171953" lon="5.409169441303931" id="-52754">
		<tag k="alt_name" v="Øvreås" />
		<tag k="fixme" v="consider place=hamlet" />
		<tag k="name" v="Øvrås" />
		<tag k="place" v="farm" />
		<tag k="ssr:stedsnr" v="127265" />
	</node>
	<node lat="60.66751385775315" lon="5.342116678444792" id="-52755">
		<tag k="fixme" v="consider place=hamlet" />
		<tag k="name" v="Hauge" />
		<tag k="place" v="farm" />
		<tag k="ssr:stedsnr" v="127275" />
	</node>
	<node lat="60.699957401786214" lon="5.575832246485074" id="-52756">
		<tag k="alt_name" v="Vike" />
		<tag k="fixme" v="consider place=hamlet" />
		<tag k="name" v="Viko" />
		<tag k="place" v="farm" />
		<tag k="ssr:stedsnr" v="127280" />
	</node>
	<node lat="60.60685833253421" lon="5.1328388861872085" id="-52757">
		<tag k="alt_name" v="Kvalvik" />
		<tag k="name" v="Kvalviki" />
		<tag k="place" v="farm" />
		<tag k="ssr:stedsnr" v="127018" />
	</node>
	<node lat="60.60513638057471" lon="5.353216803552115" id="-52759">
		<tag k="alt_name" v="Fyllingen" />
		<tag k="fixme" v="consider place=hamlet" />
		<tag k="name" v="Fylingen" />
		<tag k="place" v="farm" />
		<tag k="ssr:stedsnr" v="127030" />
	</node>
	<node lat="60.604912074908874" lon="5.291431612733264" id="-52760">
		<tag k="alt_name" v="Vatne" />
		<tag k="fixme" v="consider place=hamlet" />
		<tag k="name" v="Votno" />
		<tag k="place" v="farm" />
		<tag k="ssr:stedsnr" v="127031" />
	</node>
	<node lat="60.68759366654896" lon="5.260731516767098" id="-52761">
		<tag k="fixme" v="consider place=hamlet" />
		<tag k="name" v="Revsdalen" />
		<tag k="place" v="farm" />
		<tag k="ssr:stedsnr" v="127133" />
	</node>
	<node lat="60.64421388859774" lon="5.380936114690452" id="-52762">
		<tag k="fixme" v="consider place=hamlet" />
		<tag k="name" v="Svindal" />
		<tag k="place" v="farm" />
		<tag k="ssr:stedsnr" v="127230" />
	</node>
	<node lat="60.533777781620934" lon="5.259811111173788" id="-52768">
		<tag k="name" v="Øyni" />
		<tag k="place" v="farm" />
		<tag k="ssr:stedsnr" v="127412" />
	</node>
	<node lat="60.53720658548789" lon="5.268135280112618" id="-52769">
		<tag k="name" v="Austegarden" />
		<tag k="place" v="farm" />
		<tag k="ssr:stedsnr" v="127428" />
	</node>
	<node lat="60.5611444406584" lon="5.330369446605292" id="-52771">
		<tag k="name" v="Neset" />
		<tag k="place" v="farm" />
		<tag k="ssr:stedsnr" v="127472" />
	</node>
	<node lat="60.61244840551018" lon="5.467652272898728" id="-52775">
		<tag k="alt_name" v="Askvik" />
		<tag k="fixme" v="consider place=hamlet" />
		<tag k="name" v="Askviki" />
		<tag k="place" v="farm" />
		<tag k="ssr:stedsnr" v="127771" />
	</node>
	<node lat="60.69448055573825" lon="4.933099997749003" id="-52784">
		<tag k="fixme" v="consider place=hamlet" />
		<tag k="name" v="Haugland" />
		<tag k="place" v="village" />
		<tag k="ssr:stedsnr" v="127813" />
	</node>
	<node lat="60.7735449398483" lon="5.6643620640614545" id="-52792">
		<tag k="fixme" v="consider place=hamlet" />
		<tag k="name" v="Eiterdalen" />
		<tag k="place" v="farm" />
		<tag k="ssr:stedsnr" v="129447" />
	</node>
	<node lat="60.753963892377215" lon="5.637708336801832" id="-52794">
		<tag k="name" v="Nymark" />
		<tag k="place" v="farm" />
		<tag k="ssr:stedsnr" v="130041" />
	</node>
	<node lat="60.75607777659443" lon="5.190936107337177" id="-52798">
		<tag k="name" v="Fossane" />
		<tag k="place" v="farm" />
		<tag k="ssr:stedsnr" v="130675" />
	</node>
	<node lat="60.57077036727359" lon="5.238217445727822" id="-52810">
		<tag k="fixme" v="consider place=hamlet" />
		<tag k="name" v="Alver" />
		<tag k="place" v="farm" />
		<tag k="ssr:stedsnr" v="146551" />
	</node>
	<node lat="60.53555101238375" lon="5.25756301845304" id="-52813">
		<tag k="fixme" v="consider place=hamlet" />
		<tag k="name" v="Flatøy" />
		<tag k="place" v="farm" />
		<tag k="ssr:stedsnr" v="150663" />
	</node>
	<node lat="60.538341666462415" lon="5.098680554017001" id="-52814">
		<tag k="name" v="Fløksand" />
		<tag k="place" v="quarter" />
		<tag k="ssr:stedsnr" v="161060" />
	</node>
	<node lat="60.608002774258225" lon="5.018050003827451" id="-52815">
		<tag k="name" v="Kårbøneset" />
		<tag k="place" v="neighbourhood" />
		<tag k="ssr:stedsnr" v="161070" />
	</node>
	<node lat="60.68977221853211" lon="4.927644449255533" id="-52840">
		<tag k="name" v="Vaulen" />
		<tag k="place" v="farm" />
		<tag k="ssr:stedsnr" v="166264" />
	</node>
	<node lat="60.711952782370766" lon="5.262986116782237" id="-52881">
		<tag k="name" v="Skauge" />
		<tag k="place" v="farm" />
		<tag k="ssr:stedsnr" v="166025" />
	</node>
	<node lat="60.61808333265892" lon="5.348686117609232" id="-52886">
		<tag k="fixme" v="consider place=hamlet" />
		<tag k="name" v="Sandvik" />
		<tag k="place" v="farm" />
		<tag k="ssr:stedsnr" v="166043" />
	</node>
	<node lat="60.6070611110647" lon="5.244919443251364" id="-52889">
		<tag k="alt_name" v="Elsås Søre" />
		<tag k="name" v="Søre Elsås" />
		<tag k="place" v="farm" />
		<tag k="ssr:stedsnr" v="166047" />
	</node>
	<node lat="60.546766668858865" lon="5.214838879691544" id="-52898">
		<tag k="fixme" v="consider place=hamlet" />
		<tag k="name" v="Moldekleiv" />
		<tag k="place" v="village" />
		<tag k="ssr:stedsnr" v="166130" />
	</node>
	<node lat="60.66920555484334" lon="5.279988881896482" id="-52901">
		<tag k="name" v="Vik" />
		<tag k="place" v="farm" />
		<tag k="ssr:stedsnr" v="166134" />
	</node>
	<node lat="60.69655555768304" lon="5.306561109259503" id="-52912">
		<tag k="name" v="Nevdal" />
		<tag k="place" v="farm" />
		<tag k="ssr:stedsnr" v="166251" />
	</node>
	<node lat="60.718627779514165" lon="4.921647223930992" id="-52931">
		<tag k="name" v="Aalen" />
		<tag k="place" v="farm" />
		<tag k="ssr:stedsnr" v="166490" />
	</node>
	<node lat="60.64679046655756" lon="5.072441164799216" id="-52936">
		<tag k="fixme" v="consider place=hamlet" />
		<tag k="name" v="Nordli" />
		<tag k="place" v="farm" />
		<tag k="ssr:stedsnr" v="166590" />
	</node>
	<node lat="60.637202776743166" lon="5.027405551329336" id="-52970">
		<tag k="name" v="Urhaug" />
		<tag k="place" v="farm" />
		<tag k="ssr:stedsnr" v="166796" />
	</node>
	<node lat="60.77145833678854" lon="5.5311750010850735" id="-52973">
		<tag k="historic" v="shieling" />
		<tag k="name" v="Liasetra" />
		<tag k="place" v="isolated_dwelling" />
		<tag k="ssr:stedsnr" v="166844" />
	</node>
	<node lat="60.773449999020315" lon="5.111552770857882" id="-52989">
		<tag k="fixme" v="consider place=hamlet" />
		<tag k="name" v="Tvibergneset" />
		<tag k="place" v="farm" />
		<tag k="ssr:stedsnr" v="173527" />
	</node>
	<node lat="60.662243770394674" lon="4.984894648393293" id="-52995">
		<tag k="alt_name" v="Hella" />
		<tag k="fixme" v="consider place=hamlet" />
		<tag k="name" v="Innhella" />
		<tag k="place" v="farm" />
		<tag k="ssr:stedsnr" v="188819" />
	</node>
	<node lat="60.66350618973795" lon="4.978352534015195" id="-52996">
		<tag k="fixme" v="consider place=hamlet" />
		<tag k="name" v="Uthella" />
		<tag k="place" v="farm" />
		<tag k="ssr:stedsnr" v="188820" />
	</node>
	<node lat="60.72160000062235" lon="5.0271694410313765" id="-53002">
		<tag k="name" v="Sanden" />
		<tag k="place" v="farm" />
		<tag k="ssr:stedsnr" v="188838" />
	</node>
	<node lat="60.63376110713854" lon="5.30711111771528" id="-53004">
		<tag k="name" v="Toskheim" />
		<tag k="place" v="farm" />
		<tag k="ssr:stedsnr" v="188046" />
	</node>
	<node lat="60.63347010288051" lon="5.218105297279051" id="-53005">
		<tag k="alt_name" v="Monstad" />
		<tag k="fixme" v="consider place=hamlet" />
		<tag k="name" v="Mongstad" />
		<tag k="place" v="farm" />
		<tag k="ssr:stedsnr" v="188051" />
	</node>
	<node lat="60.62100518186838" lon="5.275866204856326" id="-53006">
		<tag k="fixme" v="consider place=hamlet" />
		<tag k="name" v="Hopland" />
		<tag k="place" v="farm" />
		<tag k="ssr:stedsnr" v="188068" />
	</node>
	<node lat="60.61342767044658" lon="5.281213691414036" id="-53007">
		<tag k="fixme" v="consider place=hamlet" />
		<tag k="name" v="Seim" />
		<tag k="place" v="farm" />
		<tag k="ssr:stedsnr" v="188069" />
	</node>
	<node lat="60.63998477937824" lon="5.177091951769956" id="-53013">
		<tag k="name" v="Titland" />
		<tag k="place" v="hamlet" />
		<tag k="ssr:stedsnr" v="188235" />
	</node>
	<node lat="60.67158744526591" lon="5.275523774342417" id="-53016">
		<tag k="fixme" v="consider place=hamlet" />
		<tag k="name" v="Vik" />
		<tag k="place" v="farm" />
		<tag k="ssr:stedsnr" v="188260" />
	</node>
	<node lat="60.66854166908006" lon="5.413555550886851" id="-53017">
		<tag k="alt_name" v="Nedreås" />
		<tag k="fixme" v="consider place=hamlet" />
		<tag k="name" v="Nedrås" />
		<tag k="place" v="farm" />
		<tag k="ssr:stedsnr" v="188265" />
	</node>
	<node lat="60.52724670656036" lon="5.155189342830983" id="-53019">
		<tag k="fixme" v="consider place=hamlet" />
		<tag k="name" v="Holme" />
		<tag k="place" v="farm" />
		<tag k="ssr:stedsnr" v="188446" />
	</node>
	<node lat="60.51276388427627" lon="5.202727770922171" id="-53020">
		<tag k="alt_name" v="Dalsstøi" />
		<tag k="name" v="Dalstø" />
		<tag k="old_name" v="Dalstøi" />
		<tag k="place" v="farm" />
		<tag k="ssr:stedsnr" v="188541" />
	</node>
	<node lat="60.509227775781774" lon="5.214861114616295" id="-53021">
		<tag k="alt_name" v="Mjåtveitstø" />
		<tag k="name" v="Mjåtveitstøi" />
		<tag k="place" v="farm" />
		<tag k="ssr:stedsnr" v="188544" />
	</node>
	<node lat="60.750637088683746" lon="5.137430845619379" id="-53027">
		<tag k="fixme" v="consider place=hamlet" />
		<tag k="name" v="Tjukkhetla" />
		<tag k="place" v="farm" />
		<tag k="ssr:stedsnr" v="191677" />
	</node>
	<node lat="60.768674997875515" lon="5.102644435518596" id="-53028">
		<tag k="name" v="Lauvås" />
		<tag k="place" v="hamlet" />
		<tag k="ssr:stedsnr" v="191647" />
	</node>
	<node lat="60.6622416697001" lon="4.966005548352478" id="-53029">
		<tag k="name" v="Nordnaustet" />
		<tag k="place" v="locality" />
		<tag k="ssr:stedsnr" v="206239" />
	</node>
	<node lat="60.62252222542935" lon="5.379727771655363" id="-53076">
		<tag k="name" v="Haugen" />
		<tag k="place" v="farm" />
		<tag k="ssr:stedsnr" v="226370" />
	</node>
	<node lat="60.67327777765852" lon="4.952574994474371" id="-53078">
		<tag k="alt_name" v="Vågenes Nedre" />
		<tag k="name" v="Nedre Vågenes" />
		<tag k="place" v="farm" />
		<tag k="ssr:stedsnr" v="226467" />
	</node>
	<node lat="60.668736944445556" lon="5.382639230977247" id="-53081">
		<tag k="alt_name" v="Hindenes ytre;Ytre Hindenes;Hindnes, yt" />
		<tag k="fixme" v="consider place=hamlet" />
		<tag k="name" v="Ytre Hindnes" />
		<tag k="place" v="farm" />
		<tag k="ssr:stedsnr" v="226539" />
	</node>
	<node lat="60.577219444200544" lon="5.236552773673774" id="-53126">
		<tag k="alt_name" v="Tveiten nedre" />
		<tag k="name" v="Nedre Tveiten" />
		<tag k="place" v="farm" />
		<tag k="ssr:stedsnr" v="227122" />
	</node>
	<node lat="60.69048333542018" lon="5.317152776451667" id="-53129">
		<tag k="name" v="Nævdal" />
		<tag k="place" v="farm" />
		<tag k="ssr:stedsnr" v="227187" />
	</node>
	<node lat="60.64401666571276" lon="5.17476110882283" id="-53141">
		<tag k="historic" v="shieling" />
		<tag k="name" v="Smørdalstølen" />
		<tag k="place" v="isolated_dwelling" />
		<tag k="ssr:stedsnr" v="227327" />
	</node>
	<node lat="60.69911944389555" lon="5.43846945159013" id="-53142">
		<tag k="historic" v="shieling" />
		<tag k="name" v="Gamlesetra" />
		<tag k="place" v="isolated_dwelling" />
		<tag k="ssr:stedsnr" v="227403" />
	</node>
	<node lat="60.54356388669285" lon="5.2418277853303135" id="-53146">
		<tag k="name" v="Hillena" />
		<tag k="place" v="farm" />
		<tag k="ssr:stedsnr" v="227265" />
	</node>
	<node lat="60.654594444896105" lon="5.182630560951545" id="-53149">
		<tag k="name" v="Øvre Myksvoll" />
		<tag k="place" v="farm" />
		<tag k="ssr:stedsnr" v="227342" />
	</node>
	<node lat="60.63809999566989" lon="5.113050001462874" id="-53186">
		<tag k="name" v="Namtveit" />
		<tag k="place" v="farm" />
		<tag k="ssr:stedsnr" v="227596" />
	</node>
	<node lat="60.51146666371494" lon="5.2374249928423655" id="-53205">
		<tag k="name" v="Jonsokgrenda" />
		<tag k="place" v="hamlet" />
		<tag k="ssr:stedsnr" v="228276" />
	</node>
	<node lat="60.5418999991244" lon="5.180536120052205" id="-53248">
		<tag k="historic" v="shieling" />
		<tag k="name" v="Husstølen" />
		<tag k="place" v="isolated_dwelling" />
		<tag k="ssr:stedsnr" v="287066" />
	</node>
	<node lat="60.692272224728725" lon="5.33605555012809" id="-53257">
		<tag k="name" v="Jordal" />
		<tag k="place" v="farm" />
		<tag k="ssr:stedsnr" v="287256" />
	</node>
	<node lat="60.657058330423745" lon="5.377494438341877" id="-53276">
		<tag k="name" v="Skogheim" />
		<tag k="place" v="farm" />
		<tag k="ssr:stedsnr" v="287545" />
	</node>
	<node lat="60.70636666490818" lon="5.075224997051357" id="-53279">
		<tag k="name" v="Kalven" />
		<tag k="place" v="farm" />
		<tag k="ssr:stedsnr" v="287568" />
	</node>
	<node lat="60.65981111508529" lon="5.475177768401356" id="-53281">
		<tag k="name" v="Stalltræet" />
		<tag k="place" v="farm" />
		<tag k="ssr:stedsnr" v="287636" />
	</node>
	<node lat="60.6583861120244" lon="5.430024994436857" id="-53297">
		<tag k="alt_name" v="Askeland søre" />
		<tag k="fixme" v="consider place=hamlet" />
		<tag k="name" v="Søre Askeland" />
		<tag k="place" v="farm" />
		<tag k="ssr:stedsnr" v="288144" />
	</node>
	<node lat="60.70003889290326" lon="4.927013886784024" id="-53298">
		<tag k="name" v="Bø" />
		<tag k="place" v="farm" />
		<tag k="ssr:stedsnr" v="288228" />
	</node>
	<node lat="60.533602776189454" lon="5.266286108041775" id="-53306">
		<tag k="name" v="Høgdena" />
		<tag k="place" v="farm" />
		<tag k="ssr:stedsnr" v="288272" />
	</node>
	<node lat="60.63391666284659" lon="5.068419448350282" id="-53309">
		<tag k="alt_name" v="Morken Ytre" />
		<tag k="name" v="Ytre Morken" />
		<tag k="place" v="farm" />
		<tag k="ssr:stedsnr" v="288555" />
	</node>
	<node lat="60.6450611134546" lon="5.1096833261385415" id="-53311">
		<tag k="name" v="Tuftena" />
		<tag k="place" v="farm" />
		<tag k="ssr:stedsnr" v="288567" />
	</node>
	<node lat="60.56240839177443" lon="5.193587919268461" id="-53337">
		<tag k="fixme" v="consider place=hamlet" />
		<tag k="name" v="Espetveit" />
		<tag k="place" v="farm" />
		<tag k="ssr:stedsnr" v="309069" />
	</node>
	<node lat="60.628782311887264" lon="5.145332500291542" id="-53339">
		<tag k="fixme" v="consider place=hamlet" />
		<tag k="name" v="Tolleshaug" />
		<tag k="place" v="farm" />
		<tag k="ssr:stedsnr" v="309032" />
	</node>
	<node lat="60.52188333127648" lon="5.193361116902846" id="-53344">
		<tag k="alt_name" v="Bjørkevoll" />
		<tag k="name" v="Burkevellene" />
		<tag k="place" v="farm" />
		<tag k="ssr:stedsnr" v="309415" />
	</node>
	<node lat="60.63655522293433" lon="5.245653784925336" id="-53345">
		<tag k="fixme" v="consider place=hamlet" />
		<tag k="name" v="Spurkeland" />
		<tag k="place" v="farm" />
		<tag k="ssr:stedsnr" v="309239" />
	</node>
	<node lat="60.65895603930995" lon="5.137232500562199" id="-53347">
		<tag k="alt_name" v="Festå" />
		<tag k="name" v="Festo" />
		<tag k="place" v="hamlet" />
		<tag k="ssr:stedsnr" v="309258" />
	</node>
	<node lat="60.702455554178705" lon="5.566177772222654" id="-53350">
		<tag k="name" v="Stormyr" />
		<tag k="place" v="farm" />
		<tag k="ssr:stedsnr" v="309289" />
	</node>
	<node lat="60.70704999902055" lon="5.52004445210759" id="-53351">
		<tag k="historic" v="shieling" />
		<tag k="name" v="Eikefetsætra" />
		<tag k="place" v="isolated_dwelling" />
		<tag k="ssr:stedsnr" v="309319" />
	</node>
	<node lat="60.71045555699891" lon="5.036599997973684" id="-53352">
		<tag k="name" v="Vallersneset" />
		<tag k="place" v="hamlet" />
		<tag k="ssr:stedsnr" v="309828" />
	</node>
	<node lat="60.64881688337673" lon="5.079322800846221" id="-53358">
		<tag k="fixme" v="consider place=hamlet" />
		<tag k="name" v="Halland" />
		<tag k="place" v="farm" />
		<tag k="ssr:stedsnr" v="309963" />
	</node>
	<node lat="60.75658200182192" lon="5.127762982649368" id="-53369">
		<tag k="fixme" v="consider place=hamlet" />
		<tag k="name" v="Rossnes" />
		<tag k="place" v="farm" />
		<tag k="ssr:stedsnr" v="312707" />
	</node>
	<node lat="60.7349159256019" lon="5.13389238859439" id="-53376">
		<tag k="fixme" v="consider place=hamlet" />
		<tag k="name" v="Saltnes" />
		<tag k="place" v="farm" />
		<tag k="ssr:stedsnr" v="328143" />
	</node>
	<node lat="60.707161113883345" lon="4.9952611092887516" id="-53381">
		<tag k="name" v="Eideshaug" />
		<tag k="place" v="farm" />
		<tag k="ssr:stedsnr" v="328199" />
	</node>
	<node lat="60.68257499593728" lon="5.219275001608821" id="-53382">
		<tag k="name" v="Tveitarås" />
		<tag k="place" v="farm" />
		<tag k="ssr:stedsnr" v="328288" />
	</node>
	<node lat="60.67044444829849" lon="5.1173944355416285" id="-53396">
		<tag k="historic" v="shieling" />
		<tag k="name" v="Stølane" />
		<tag k="place" v="isolated_dwelling" />
		<tag k="ssr:stedsnr" v="347252" />
	</node>
	<node lat="60.65808611036018" lon="5.138786102878764" id="-53400">
		<tag k="alt_name" v="Feste Søre" />
		<tag k="name" v="Søre Feste" />
		<tag k="place" v="farm" />
		<tag k="ssr:stedsnr" v="347380" />
	</node>
	<node lat="60.58895278073085" lon="5.284422217178671" id="-53408">
		<tag k="name" v="Hjelmtveit" />
		<tag k="place" v="farm" />
		<tag k="ssr:stedsnr" v="348029" />
	</node>
	<node lat="60.63936388622587" lon="5.170774992311294" id="-53418">
		<tag k="historic" v="shieling" />
		<tag k="name" v="Grønstølen" />
		<tag k="place" v="isolated_dwelling" />
		<tag k="ssr:stedsnr" v="348331" />
	</node>
	<node lat="60.69820555819458" lon="4.922113895335262" id="-53420">
		<tag k="name" v="Brattholmen" />
		<tag k="place" v="farm" />
		<tag k="ssr:stedsnr" v="348345" />
	</node>
	<node lat="60.74084722435699" lon="5.252019443851051" id="-53433">
		<tag k="name" v="Vabøneset" />
		<tag k="place" v="farm" />
		<tag k="ssr:stedsnr" v="348143" />
	</node>
	<node lat="60.6639694414618" lon="5.347202786338139" id="-53445">
		<tag k="name" v="Vangen" />
		<tag k="place" v="farm" />
		<tag k="ssr:stedsnr" v="348070" />
	</node>
	<node lat="60.565516668808606" lon="5.247461109130561" id="-53448">
		<tag k="name" v="Steingarden" />
		<tag k="place" v="farm" />
		<tag k="ssr:stedsnr" v="348093" />
	</node>
	<node lat="60.56985278117022" lon="5.236858340962288" id="-53449">
		<tag k="alt_name" v="Alver nedre" />
		<tag k="name" v="Nedre Alver" />
		<tag k="place" v="farm" />
		<tag k="ssr:stedsnr" v="348099" />
	</node>
	<node lat="60.54304444158208" lon="5.113869444319613" id="-53453">
		<tag k="name" v="Brakstad" />
		<tag k="place" v="locality" />
		<tag k="ssr:stedsnr" v="348186" />
	</node>
	<node lat="60.53627222538243" lon="5.268572215149454" id="-53455">
		<tag k="name" v="Austegarden" />
		<tag k="place" v="farm" />
		<tag k="ssr:stedsnr" v="348191" />
	</node>
	<node lat="60.71155277857917" lon="4.975177785324445" id="-53493">
		<tag k="name" v="Bakken" />
		<tag k="place" v="farm" />
		<tag k="ssr:stedsnr" v="348451" />
	</node>
	<node lat="60.69661111427886" lon="5.517627768774996" id="-53501">
		<tag k="historic" v="shieling" />
		<tag k="name" v="Stølane" />
		<tag k="place" v="isolated_dwelling" />
		<tag k="ssr:stedsnr" v="348541" />
	</node>
	<node lat="60.763522226161314" lon="5.534669449207461" id="-53520">
		<tag k="name" v="Maurstad" />
		<tag k="place" v="farm" />
		<tag k="ssr:stedsnr" v="348830" />
	</node>
	<node lat="60.54026388645388" lon="5.238194449451288" id="-53534">
		<tag k="name" v="Litlebergen" />
		<tag k="place" v="farm" />
		<tag k="ssr:stedsnr" v="349340" />
	</node>
	<node lat="60.69240833709647" lon="5.04020554730315" id="-53550">
		<tag k="alt_name" v="Ytstebø" />
		<tag k="name" v="Ystebø" />
		<tag k="place" v="hamlet" />
		<tag k="ssr:stedsnr" v="358780" />
	</node>
	<node lat="60.59075833572245" lon="5.348330559230855" id="-53560">
		<tag k="alt_name" v="Haukås" />
		<tag k="fixme" v="consider place=hamlet" />
		<tag k="name" v="Haukåsen" />
		<tag k="place" v="farm" />
		<tag k="ssr:stedsnr" v="370134" />
	</node>
	<node lat="60.653463889393045" lon="5.3296675217234215" id="-53564">
		<tag k="alt_name" v="Nedretveit" />
		<tag k="fixme" v="consider place=hamlet" />
		<tag k="name" v="Nedretveito" />
		<tag k="place" v="farm" />
		<tag k="ssr:stedsnr" v="370240" />
	</node>
	<node lat="60.71774166910476" lon="5.5661833374072" id="-53570">
		<tag k="alt_name" v="Vikesetra" />
		<tag k="historic" v="shieling" />
		<tag k="name" v="Vikasætra" />
		<tag k="place" v="isolated_dwelling" />
		<tag k="ssr:stedsnr" v="370347" />
	</node>
	<node lat="60.73221111256739" lon="5.274313880887148" id="-53573">
		<tag k="fixme" v="consider place=hamlet" />
		<tag k="name" v="Sævrås" />
		<tag k="place" v="village" />
		<tag k="ssr:stedsnr" v="370645" />
	</node>
	<node lat="60.71258924560459" lon="5.125130094013536" id="-53574">
		<tag k="fixme" v="consider place=hamlet" />
		<tag k="name" v="Kvalvågneset" />
		<tag k="place" v="farm" />
		<tag k="ssr:stedsnr" v="370653" />
	</node>
	<node lat="60.68132111311401" lon="5.05909833726772" id="-53577">
		<tag k="fixme" v="consider place=hamlet" />
		<tag k="name" v="Instebø" />
		<tag k="place" v="farm" />
		<tag k="ssr:stedsnr" v="370786" />
	</node>
	<node lat="60.716987603358966" lon="4.92037569489747" id="-53584">
		<tag k="name" v="Sylta" />
		<tag k="place" v="hamlet" />
		<tag k="ssr:stedsnr" v="370855" />
	</node>
	<node lat="60.60454444492592" lon="4.9932055550665515" id="-53585">
		<tag k="name" v="Husebø" />
		<tag k="place" v="hamlet" />
		<tag k="ssr:stedsnr" v="370943" />
	</node>
	<node lat="60.6057055585644" lon="5.085216661484472" id="-53587">
		<tag k="name" v="Lindeviki" />
		<tag k="place" v="isolated_dwelling" />
		<tag k="ssr:stedsnr" v="370957" />
	</node>
	<node lat="60.81767778200447" lon="5.030949991162169" id="-53589">
		<tag k="alt_name" v="Equinor Mongstad" />
		<tag k="building" v="industrial" />
		<tag k="industrial" v="factory" />
		<tag k="name" v="Mongstad" />
		<tag k="old_name" v="Statoil Mongstad" />
		<tag k="ssr:stedsnr" v="372041" />
	</node>
	<node lat="60.77742500236831" lon="5.6332277797854555" id="-53592">
		<tag k="historic" v="shieling" />
		<tag k="name" v="Nysætret" />
		<tag k="place" v="isolated_dwelling" />
		<tag k="ssr:stedsnr" v="372462" />
	</node>
	<node lat="60.7073833339088" lon="4.8915999946994795" id="-53597">
		<tag k="name" v="Marøy" />
		<tag k="place" v="farm" />
		<tag k="ssr:stedsnr" v="384760" />
	</node>
	<node lat="60.690056281387065" lon="4.93467279142948" id="-53598">
		<tag k="fixme" v="consider place=hamlet" />
		<tag k="name" v="Øvre Kvalheim" />
		<tag k="place" v="farm" />
		<tag k="ssr:stedsnr" v="388204" />
	</node>
	<node lat="60.54421666486089" lon="5.150991667520379" id="-53612">
		<tag k="name" v="Øvre Tveit" />
		<tag k="place" v="farm" />
		<tag k="ssr:stedsnr" v="393680" />
	</node>
	<node lat="60.51398333327438" lon="5.194858331276878" id="-53613">
		<tag k="name" v="Dalemarka" />
		<tag k="place" v="quarter" />
		<tag k="ssr:stedsnr" v="404045" />
	</node>
	<node lat="60.63416092094595" lon="5.305666516690868" id="-53615">
		<tag k="fixme" v="consider place=hamlet" />
		<tag k="name" v="Toskheim" />
		<tag k="place" v="farm" />
		<tag k="ssr:stedsnr" v="408063" />
	</node>
	<node lat="60.616136110390876" lon="5.1548416697682296" id="-53642">
		<tag k="name" v="Kråa" />
		<tag k="place" v="farm" />
		<tag k="ssr:stedsnr" v="408759" />
	</node>
	<node lat="60.60968610892708" lon="5.241483328495066" id="-53653">
		<tag k="alt_name" v="Elsås Nordre" />
		<tag k="name" v="Nordre Elsås" />
		<tag k="place" v="farm" />
		<tag k="ssr:stedsnr" v="409065" />
	</node>
	<node lat="60.713699996589426" lon="5.262827769008275" id="-53669">
		<tag k="name" v="Skauge" />
		<tag k="place" v="farm" />
		<tag k="ssr:stedsnr" v="409182" />
	</node>
	<node lat="60.74141666761108" lon="5.0569472242755396" id="-53679">
		<tag k="name" v="Midthagen" />
		<tag k="place" v="farm" />
		<tag k="ssr:stedsnr" v="409481" />
	</node>
	<node lat="60.7157416710023" lon="5.305986108554478" id="-53685">
		<tag k="name" v="Hodnekvam" />
		<tag k="place" v="farm" />
		<tag k="ssr:stedsnr" v="409350" />
	</node>
	<node lat="60.630758330943955" lon="5.0484166751651385" id="-53708">
		<tag k="name" v="Mangersneset" />
		<tag k="place" v="hamlet" />
		<tag k="ssr:stedsnr" v="409583" />
	</node>
	<node lat="60.675416662779384" lon="5.40876110461127" id="-53709">
		<tag k="name" v="Øvre Veland" />
		<tag k="place" v="farm" />
		<tag k="ssr:stedsnr" v="409585" />
	</node>
	<node lat="60.56076944002061" lon="5.175369437537853" id="-53736">
		<tag k="name" v="Hestnes" />
		<tag k="place" v="farm" />
		<tag k="ssr:stedsnr" v="416272" />
	</node>
	<node lat="60.544104362524514" lon="5.144475979515987" id="-53738">
		<tag k="fixme" v="consider place=hamlet" />
		<tag k="name" v="Vollo" />
		<tag k="place" v="farm" />
		<tag k="ssr:stedsnr" v="431456" />
	</node>
	<node lat="60.61107499856918" lon="5.144861103860506" id="-53739">
		<tag k="name" v="Sæbøvågen" />
		<tag k="place" v="isolated_dwelling" />
		<tag k="ssr:stedsnr" v="431019" />
	</node>
	<node lat="60.68635154475762" lon="5.128480450520059" id="-53744">
		<tag k="fixme" v="consider place=hamlet" />
		<tag k="name" v="Innluro" />
		<tag k="place" v="farm" />
		<tag k="ssr:stedsnr" v="431157" />
	</node>
	<node lat="60.58453121371208" lon="5.193052420833701" id="-53745">
		<tag k="alt_name" v="Fjellsende" />
		<tag k="fixme" v="consider place=hamlet" />
		<tag k="name" v="Fjellsenda" />
		<tag k="place" v="farm" />
		<tag k="ssr:stedsnr" v="431128" />
	</node>
	<node lat="60.65632415596888" lon="5.282432783420677" id="-53748">
		<tag k="alt_name" v="Leivestad, nordre;Leivestad" />
		<tag k="fixme" v="consider place=hamlet" />
		<tag k="name" v="Nordre Leivestad" />
		<tag k="place" v="farm" />
		<tag k="ssr:stedsnr" v="431224" />
	</node>
	<node lat="60.66014721891098" lon="5.430169444308738" id="-53749">
		<tag k="name" v="Askeland" />
		<tag k="place" v="hamlet" />
		<tag k="ssr:stedsnr" v="431228" />
	</node>
	<node lat="60.64298610951723" lon="5.282780549507605" id="-53750">
		<tag k="fixme" v="consider place=hamlet" />
		<tag k="name" v="Kjenes" />
		<tag k="place" v="farm" />
		<tag k="ssr:stedsnr" v="431239" />
	</node>
	<node lat="60.54097777442935" lon="5.2345305532823865" id="-53752">
		<tag k="name" v="Litlebergen" />
		<tag k="place" v="hamlet" />
		<tag k="ssr:stedsnr" v="431437" />
	</node>
	<node lat="60.699019692157925" lon="5.5644416716263665" id="-53757">
		<tag k="alt_name" v="Store-Urdal" />
		<tag k="fixme" v="consider place=hamlet" />
		<tag k="name" v="Store-Aurdal" />
		<tag k="place" v="farm" />
		<tag k="ssr:stedsnr" v="431274" />
	</node>
	<node lat="60.67672778196705" lon="5.539719436354925" id="-53758">
		<tag k="historic" v="shieling" />
		<tag k="name" v="Eiknessætra" />
		<tag k="place" v="isolated_dwelling" />
		<tag k="ssr:stedsnr" v="431366" />
	</node>
	<node lat="60.699033335843" lon="4.9281777709750765" id="-53763">
		<tag k="fixme" v="consider place=suburb, village or hamlet" />
		<tag k="name" v="Bøvågen" />
		<tag k="place" v="quarter" />
		<tag k="ssr:stedsnr" v="431820" />
	</node>
	<node lat="60.726778799548846" lon="5.235232724646064" id="-53769">
		<tag k="alt_name" v="Fjellsende" />
		<tag k="fixme" v="consider place=hamlet" />
		<tag k="name" v="Fjellsenda" />
		<tag k="place" v="farm" />
		<tag k="ssr:stedsnr" v="431674" />
	</node>
	<node lat="60.7132098654684" lon="4.923488162027458" id="-53773">
		<tag k="fixme" v="consider place=hamlet" />
		<tag k="name" v="Innsylta" />
		<tag k="place" v="farm" />
		<tag k="ssr:stedsnr" v="431856" />
	</node>
	<node lat="60.72725725171709" lon="4.913893377742803" id="-53777">
		<tag k="name" v="Risnes" />
		<tag k="place" v="hamlet" />
		<tag k="ssr:stedsnr" v="431882" />
	</node>
	<node lat="60.768275002087904" lon="5.498502771972733" id="-53786">
		<tag k="historic" v="shieling" />
		<tag k="name" v="Kalvedalen" />
		<tag k="place" v="isolated_dwelling" />
		<tag k="ssr:stedsnr" v="433441" />
	</node>
	<node lat="60.78109722115704" lon="5.095402771046195" id="-53787">
		<tag k="name" v="Tvibergøyna" />
		<tag k="place" v="farm" />
		<tag k="ssr:stedsnr" v="433674" />
	</node>
	<node lat="60.516144446675085" lon="5.205688880585421" id="-53798">
		<tag k="name" v="Porshaugen" />
		<tag k="place" v="farm" />
		<tag k="ssr:stedsnr" v="510588" />
	</node>
	<node lat="60.69941111559645" lon="4.921561110547944" id="-53805">
		<tag k="name" v="Skarneset" />
		<tag k="place" v="farm" />
		<tag k="ssr:stedsnr" v="530381" />
	</node>
	<node lat="60.694530556089084" lon="5.228647229010657" id="-53816">
		<tag k="amenity" v="school" />
		<tag k="name" v="Skodvin skule" />
		<tag k="ssr:stedsnr" v="529265" />
	</node>
	<node lat="60.67121389282082" lon="5.097297219791372" id="-53889">
		<tag k="name" v="Grøna" />
		<tag k="place" v="farm" />
		<tag k="ssr:stedsnr" v="530569" />
	</node>
	<node lat="60.70237679002324" lon="5.008096161542672" id="-53911">
		<tag k="fixme" v="consider place=hamlet" />
		<tag k="name" v="Soltveit" />
		<tag k="place" v="farm" />
		<tag k="ssr:stedsnr" v="530650" />
	</node>
	<node lat="60.736327775482756" lon="5.549700007636523" id="-53915">
		<tag k="historic" v="shieling" />
		<tag k="name" v="Store Urdalssetra" />
		<tag k="place" v="isolated_dwelling" />
		<tag k="ssr:stedsnr" v="530659" />
	</node>
	<node lat="60.534286108131596" lon="5.268619445721552" id="-53945">
		<tag k="name" v="Austegarden" />
		<tag k="place" v="farm" />
		<tag k="ssr:stedsnr" v="538346" />
	</node>
	<node lat="60.69969444142653" lon="5.196480562439597" id="-53946">
		<tag k="name" v="Lyngbø" />
		<tag k="place" v="farm" />
		<tag k="ssr:stedsnr" v="551186" />
	</node>
	<node lat="60.697559719421385" lon="5.283637402500435" id="-53947">
		<tag k="fixme" v="consider place=hamlet" />
		<tag k="name" v="Vedfjell" />
		<tag k="place" v="farm" />
		<tag k="ssr:stedsnr" v="551187" />
	</node>
	<node lat="60.56690833467922" lon="5.371077782896261" id="-53952">
		<tag k="name" v="Munndal" />
		<tag k="place" v="hamlet" />
		<tag k="ssr:stedsnr" v="552092" />
	</node>
	<node lat="60.62157212267293" lon="5.316595983654239" id="-53960">
		<tag k="fixme" v="consider place=hamlet" />
		<tag k="name" v="Gausereid" />
		<tag k="place" v="farm" />
		<tag k="ssr:stedsnr" v="552009" />
	</node>
	<node lat="60.60061432849725" lon="5.179321722393191" id="-53963">
		<tag k="alt_name" v="Haukeland" />
		<tag k="name" v="Haukland" />
		<tag k="place" v="hamlet" />
		<tag k="ssr:stedsnr" v="552023" />
	</node>
	<node lat="60.65537108064131" lon="5.173461857054077" id="-53974">
		<tag k="alt_name" v="Bergås" />
		<tag k="fixme" v="consider place=hamlet" />
		<tag k="name" v="Berås" />
		<tag k="place" v="farm" />
		<tag k="ssr:stedsnr" v="552261" />
	</node>
	<node lat="60.66155845994045" lon="5.470549394669353" id="-53975">
		<tag k="fixme" v="consider place=hamlet" />
		<tag k="name" v="Stallen" />
		<tag k="place" v="farm" />
		<tag k="ssr:stedsnr" v="552361" />
	</node>
	<node lat="60.54184453372336" lon="5.183410360089022" id="-53976">
		<tag k="fixme" v="consider place=hamlet" />
		<tag k="name" v="Erstad" />
		<tag k="place" v="farm" />
		<tag k="ssr:stedsnr" v="552479" />
	</node>
	<node lat="60.66371388959073" lon="5.541411116251056" id="-53980">
		<tag k="alt_name" v="Molviksetra" />
		<tag k="historic" v="shieling" />
		<tag k="name" v="Molviksætra" />
		<tag k="place" v="isolated_dwelling" />
		<tag k="ssr:stedsnr" v="552682" />
	</node>
	<node lat="60.729026006471834" lon="5.260998730211985" id="-53983">
		<tag k="fixme" v="consider place=hamlet" />
		<tag k="name" v="Natås" />
		<tag k="place" v="farm" />
		<tag k="ssr:stedsnr" v="552695" />
	</node>
	<node lat="60.727849686510496" lon="5.164197515647956" id="-53985">
		<tag k="alt_name" v="Spjeldnes" />
		<tag k="fixme" v="consider place=hamlet" />
		<tag k="name" v="Spjeldneset" />
		<tag k="place" v="farm" />
		<tag k="ssr:stedsnr" v="552700" />
	</node>
	<node lat="60.75453333162099" lon="5.492583331213405" id="-53992">
		<tag k="historic" v="shieling" />
		<tag k="name" v="Norddalen" />
		<tag k="place" v="isolated_dwelling" />
		<tag k="ssr:stedsnr" v="554038" />
	</node>
	<node lat="60.54550833746902" lon="5.227797217219051" id="-54008">
		<tag k="name" v="Fredheim" />
		<tag k="place" v="farm" />
		<tag k="ssr:stedsnr" v="570468" />
	</node>
	<node lat="60.5453277794051" lon="5.1411555557200295" id="-54019">
		<tag k="name" v="Nordre Fløyen" />
		<tag k="place" v="farm" />
		<tag k="ssr:stedsnr" v="590015" />
	</node>
	<node lat="60.695252775465256" lon="5.259302778270705" id="-54022">
		<tag k="name" v="Søre Fjellsbø" />
		<tag k="place" v="farm" />
		<tag k="ssr:stedsnr" v="590026" />
	</node>
	<node lat="60.57070277990677" lon="5.077994452504559" id="-54028">
		<tag k="name" v="Åsebø" />
		<tag k="place" v="hamlet" />
		<tag k="ssr:stedsnr" v="590110" />
	</node>
	<node lat="60.623272220057956" lon="5.335766674965964" id="-54029">
		<tag k="name" v="Noraledet" />
		<tag k="place" v="farm" />
		<tag k="ssr:stedsnr" v="590065" />
	</node>
	<node lat="60.562377774102416" lon="5.050969439550371" id="-54035">
		<tag k="name" v="Vikebø" />
		<tag k="place" v="village" />
		<tag k="ssr:stedsnr" v="590100" />
	</node>
	<node lat="60.65047221968264" lon="5.182097231597939" id="-54082">
		<tag k="name" v="Nedre Myksvoll" />
		<tag k="place" v="farm" />
		<tag k="ssr:stedsnr" v="591319" />
	</node>
	<node lat="60.54338333674015" lon="5.051686117718596" id="-54092">
		<tag k="name" v="Nyheim" />
		<tag k="place" v="farm" />
		<tag k="ssr:stedsnr" v="591339" />
	</node>
	<node lat="60.55951110987969" lon="5.04538889018363" id="-54093">
		<tag k="name" v="Stekkane" />
		<tag k="place" v="farm" />
		<tag k="ssr:stedsnr" v="591344" />
	</node>
	<node lat="60.769036112943056" lon="5.102141673863859" id="-54101">
		<tag k="fixme" v="consider place=hamlet" />
		<tag k="name" v="Lauvås" />
		<tag k="place" v="farm" />
		<tag k="ssr:stedsnr" v="590416" />
	</node>
	<node lat="60.740038892262085" lon="4.912925007103319" id="-54102">
		<tag k="name" v="Svena" />
		<tag k="place" v="farm" />
		<tag k="ssr:stedsnr" v="590417" />
	</node>
	<node lat="60.65952499637101" lon="4.991027775969681" id="-54143">
		<tag k="alt_name" v="Hella Indre" />
		<tag k="name" v="Indre Hella" />
		<tag k="place" v="farm" />
		<tag k="ssr:stedsnr" v="591251" />
	</node>
	<node lat="60.59795277963042" lon="5.00067777774063" id="-54178">
		<tag k="name" v="Brotshaug" />
		<tag k="place" v="farm" />
		<tag k="ssr:stedsnr" v="598281" />
	</node>
	<node lat="60.770422220409046" lon="5.574527770126212" id="-54180">
		<tag k="historic" v="shieling" />
		<tag k="name" v="Stussdalssetra" />
		<tag k="place" v="isolated_dwelling" />
		<tag k="ssr:stedsnr" v="605466" />
	</node>
	<node lat="60.62099999873383" lon="5.143675005885525" id="-54181">
		<tag k="name" v="Nordnes" />
		<tag k="place" v="farm" />
		<tag k="ssr:stedsnr" v="612037" />
	</node>
	<node lat="60.62432082034523" lon="5.1478290751159035" id="-54182">
		<tag k="fixme" v="consider place=hamlet" />
		<tag k="name" v="Olsvoll" />
		<tag k="place" v="farm" />
		<tag k="ssr:stedsnr" v="612039" />
	</node>
	<node lat="60.72240833433657" lon="5.3219277824008655" id="-54187">
		<tag k="name" v="Hodnalii" />
		<tag k="place" v="farm" />
		<tag k="ssr:stedsnr" v="612184" />
	</node>
	<node lat="60.63764082339827" lon="5.3416530285342825" id="-54190">
		<tag k="alt_name" v="Heggernes" />
		<tag k="fixme" v="consider place=hamlet" />
		<tag k="name" v="Hegernes" />
		<tag k="place" v="farm" />
		<tag k="ssr:stedsnr" v="612224" />
	</node>
	<node lat="60.568777900434746" lon="5.240779830999489" id="-54191">
		<tag k="name" v="Alver" />
		<tag k="ssr:stedsnr" v="612088" />
		<tag k="tourism" v="hotel" />
	</node>
	<node lat="60.65132499658988" lon="5.3861416669603726" id="-54193">
		<tag k="fixme" v="consider place=hamlet" />
		<tag k="name" v="Asgard" />
		<tag k="place" v="farm" />
		<tag k="ssr:stedsnr" v="612236" />
	</node>
	<node lat="60.67011385032561" lon="5.266670031584928" id="-54194">
		<tag k="fixme" v="consider place=hamlet" />
		<tag k="name" v="Berge" />
		<tag k="place" v="farm" />
		<tag k="ssr:stedsnr" v="612247" />
	</node>
	<node lat="60.67315564840653" lon="5.330239244925649" id="-54195">
		<tag k="fixme" v="consider place=hamlet" />
		<tag k="name" v="Li" />
		<tag k="place" v="farm" />
		<tag k="ssr:stedsnr" v="612248" />
	</node>
	<node lat="60.73065432529318" lon="5.298741412669648" id="-54206">
		<tag k="fixme" v="consider place=hamlet" />
		<tag k="name" v="Hodneland" />
		<tag k="place" v="farm" />
		<tag k="ssr:stedsnr" v="612650" />
	</node>
	<node lat="60.57039235339519" lon="5.040671954887141" id="-54211">
		<tag k="fixme" v="consider place=hamlet" />
		<tag k="name" v="Skurtveit" />
		<tag k="place" v="farm" />
		<tag k="ssr:stedsnr" v="612933" />
	</node>
	<node lat="60.628346988950916" lon="5.082050475837387" id="-54212">
		<tag k="fixme" v="consider place=hamlet" />
		<tag k="name" v="Kollstad" />
		<tag k="place" v="farm" />
		<tag k="ssr:stedsnr" v="612952" />
	</node>
	<node lat="60.666647616170124" lon="5.384889620015529" id="-54223">
		<tag k="name" v="Hindnes" />
		<tag k="place" v="hamlet" />
		<tag k="ssr:stedsnr" v="613234" />
	</node>
	<node lat="60.52629166523183" lon="5.204119453577393" id="-54225">
		<tag k="name" v="Sakstad" />
		<tag k="place" v="hamlet" />
		<tag k="ssr:stedsnr" v="613398" />
	</node>
	<node lat="60.63832777767069" lon="5.488741671155507" id="-54227">
		<tag k="name" v="Storbotnen" />
		<tag k="place" v="farm" />
		<tag k="ssr:stedsnr" v="613649" />
	</node>
	<node lat="60.7640749979016" lon="5.534344448017536" id="-54228">
		<tag k="historic" v="shieling" />
		<tag k="name" v="Paddesætret" />
		<tag k="place" v="isolated_dwelling" />
		<tag k="ssr:stedsnr" v="615034" />
	</node>
	<node lat="60.753832103907946" lon="5.606019528994351" id="-54229">
		<tag k="fixme" v="consider place=hamlet" />
		<tag k="name" v="Stussdalen" />
		<tag k="place" v="farm" />
		<tag k="ssr:stedsnr" v="615051" />
	</node>
	<node lat="60.70790833266597" lon="4.894399991788333" id="-54233">
		<tag k="name" v="Marøy" />
		<tag k="place" v="farm" />
		<tag k="ssr:stedsnr" v="627784" />
	</node>
	<node lat="60.70680640155172" lon="4.895146965114009" id="-54234">
		<tag k="fixme" v="consider place=hamlet" />
		<tag k="name" v="Marøy" />
		<tag k="place" v="farm" />
		<tag k="ssr:stedsnr" v="627785" />
	</node>
	<node lat="60.58835555655619" lon="5.129486104388944" id="-54253">
		<tag k="name" v="Nordre Ådland" />
		<tag k="place" v="farm" />
		<tag k="ssr:stedsnr" v="635621" />
	</node>
	<node lat="60.54913610768701" lon="5.213741664045381" id="-54254">
		<tag k="name" v="Hammaren" />
		<tag k="place" v="quarter" />
		<tag k="ssr:stedsnr" v="646001" />
	</node>
	<node lat="60.55972401935772" lon="5.022611922724078" id="-54287">
		<tag k="fixme" v="consider place=hamlet" />
		<tag k="name" v="Io" />
		<tag k="place" v="farm" />
		<tag k="ssr:stedsnr" v="651165" />
	</node>
	<node lat="60.64322500019836" lon="5.203627770919945" id="-54297">
		<tag k="fixme" v="consider place=hamlet" />
		<tag k="name" v="Mykletun" />
		<tag k="place" v="farm" />
		<tag k="ssr:stedsnr" v="651323" />
	</node>
	<node lat="60.57201388823912" lon="5.370702774633496" id="-54299">
		<tag k="historic" v="shieling" />
		<tag k="name" v="Eikelistølen" />
		<tag k="place" v="isolated_dwelling" />
		<tag k="ssr:stedsnr" v="651329" />
	</node>
	<node lat="60.753022223692405" lon="5.120052776342852" id="-54312">
		<tag k="name" v="Osterhus" />
		<tag k="place" v="farm" />
		<tag k="ssr:stedsnr" v="651250" />
	</node>
	<node lat="60.63412500427039" lon="5.492294452336496" id="-54330">
		<tag k="fixme" v="consider place=hamlet" />
		<tag k="name" v="Bjørsvik" />
		<tag k="place" v="farm" />
		<tag k="ssr:stedsnr" v="651555" />
	</node>
	<node lat="60.69641388791993" lon="5.100641670893846" id="-54332">
		<tag k="name" v="Lygra" />
		<tag k="place" v="farm" />
		<tag k="ssr:stedsnr" v="651558" />
	</node>
	<node lat="60.67931390111849" lon="5.064246090439602" id="-54348">
		<tag k="fixme" v="consider place=hamlet" />
		<tag k="name" v="Sletten" />
		<tag k="place" v="farm" />
		<tag k="ssr:stedsnr" v="651666" />
	</node>
	<node lat="60.700213884832316" lon="5.5955611168510995" id="-54354">
		<tag k="name" v="Vikasund" />
		<tag k="place" v="farm" />
		<tag k="ssr:stedsnr" v="651528" />
	</node>
	<node lat="60.69987977697848" lon="5.045989509724134" id="-54359">
		<tag k="fixme" v="consider place=hamlet" />
		<tag k="name" v="Skjelvik" />
		<tag k="place" v="farm" />
		<tag k="ssr:stedsnr" v="651633" />
	</node>
	<node lat="60.676405557601896" lon="5.537952781933344" id="-54362">
		<tag k="historic" v="shieling" />
		<tag k="name" v="Eknessetra" />
		<tag k="place" v="isolated_dwelling" />
		<tag k="ssr:stedsnr" v="651757" />
	</node>
	<node lat="60.72777778233431" lon="5.014288893082291" id="-54373">
		<tag k="name" v="Nilsegarden" />
		<tag k="place" v="farm" />
		<tag k="ssr:stedsnr" v="651691" />
	</node>
	<node lat="60.53111944679875" lon="5.244361103241068" id="-54383">
		<tag k="name" v="Utgjerdet" />
		<tag k="place" v="farm" />
		<tag k="ssr:stedsnr" v="652250" />
	</node>
	<node lat="60.552863887393315" lon="5.0402916637512165" id="-54389">
		<tag k="historic" v="shieling" />
		<tag k="name" v="Bustølen" />
		<tag k="place" v="isolated_dwelling" />
		<tag k="ssr:stedsnr" v="652320" />
	</node>
	<node lat="60.55533055742452" lon="5.269369446589792" id="-54403">
		<tag k="alt_name" v="Isdalsstø" />
		<tag k="name" v="Isdalstø" />
		<tag k="place" v="village" />
		<tag k="ssr:stedsnr" v="657089" />
	</node>
	<node lat="60.78336388885048" lon="5.102516667302124" id="-54404">
		<tag k="name" v="Tvibergøyna" />
		<tag k="place" v="farm" />
		<tag k="ssr:stedsnr" v="658576" />
	</node>
	<node lat="60.54616666366696" lon="5.162694451946634" id="-54405">
		<tag k="name" v="Røyset" />
		<tag k="place" v="farm" />
		<tag k="ssr:stedsnr" v="659269" />
	</node>
	<node lat="60.760077780117165" lon="5.17983055022639" id="-54414">
		<tag k="alt_name" v="Fanebustsjøen" />
		<tag k="name" v="Fonnebostsjøen" />
		<tag k="place" v="hamlet" />
		<tag k="ssr:stedsnr" v="712143" />
	</node>
	<node lat="60.51198333734747" lon="5.203736111708976" id="-54419">
		<tag k="name" v="Dalstøi" />
		<tag k="place" v="farm" />
		<tag k="ssr:stedsnr" v="712159" />
	</node>
	<node lat="60.65970833671366" lon="5.133211108614698" id="-54425">
		<tag k="alt_name" v="Feste Nordre" />
		<tag k="name" v="Nordre Feste" />
		<tag k="place" v="farm" />
		<tag k="ssr:stedsnr" v="712342" />
	</node>
	<node lat="60.58788073618751" lon="5.229685955728847" id="-54428">
		<tag k="fixme" v="consider place=hamlet" />
		<tag k="name" v="Furhovden" />
		<tag k="place" v="farm" />
		<tag k="ssr:stedsnr" v="712349" />
	</node>
	<node lat="60.55713333150933" lon="5.298972222428419" id="-54433">
		<tag k="historic" v="shieling" />
		<tag k="name" v="Stølen" />
		<tag k="place" v="isolated_dwelling" />
		<tag k="ssr:stedsnr" v="712098" />
	</node>
</osm>
