<?xml version="1.0" encoding="UTF-8"?>
<osm generator="osmapis" version="0.6">
	<node id="-81919" lat="60.71537222" lon="5.27595834275">
		<tag k="fixme" v="consider natural=peak for the most distinct mountains in the district" />
		<tag k="name" v="Skorvene" />
		<tag k="natural" v="hill" />
		<tag k="place" v="locality" />
		<tag k="ssr:stedsnr" v="469385" />
	</node>
	<node id="-81917" lat="60.6634749978" lon="5.12798056381">
		<tag k="name" v="Skarphaugane" />
		<tag k="natural" v="hill" />
		<tag k="place" v="locality" />
		<tag k="ssr:stedsnr" v="469375" />
	</node>
	<node id="-81916" lat="60.7145166695" lon="5.31870834013">
		<tag k="name" v="Svedalen" />
		<tag k="natural" v="valley" />
		<tag k="place" v="locality" />
		<tag k="ssr:stedsnr" v="469371" />
	</node>
	<node id="-81915" lat="60.7107555532" lon="4.96564167359">
		<tag k="fixme" v="consider natural=peak for the most distinct mountains in the district" />
		<tag k="name" v="Såta" />
		<tag k="natural" v="hill" />
		<tag k="place" v="locality" />
		<tag k="ssr:stedsnr" v="469362" />
	</node>
	<node id="-81914" lat="60.7077916667" lon="4.96126666911">
		<tag k="name" v="Storklopphøyen" />
		<tag k="natural" v="hill" />
		<tag k="place" v="locality" />
		<tag k="ssr:stedsnr" v="469360" />
	</node>
	<node id="-81905" lat="60.6193138857" lon="5.41276388502">
		<tag k="name" v="Nonkletten" />
		<tag k="natural" v="hill" />
		<tag k="place" v="locality" />
		<tag k="ssr:stedsnr" v="469302" />
	</node>
	<node id="-81904" lat="60.6225277762" lon="5.4423972256">
		<tag k="fixme" v="consider natural=peak for the most distinct mountains in the district" />
		<tag k="name" v="Raunliåsen" />
		<tag k="natural" v="hill" />
		<tag k="place" v="locality" />
		<tag k="ssr:stedsnr" v="469297" />
	</node>
	<node id="-81901" lat="60.6266305549" lon="5.45453333665">
		<tag k="fixme" v="consider natural=peak for the most distinct mountains in the district" />
		<tag k="name" v="Nordreåsen" />
		<tag k="natural" v="hill" />
		<tag k="place" v="locality" />
		<tag k="ssr:stedsnr" v="469293" />
	</node>
	<node id="-81900" lat="60.6152805529" lon="5.43242777645">
		<tag k="name" v="Kletten" />
		<tag k="natural" v="hill" />
		<tag k="place" v="locality" />
		<tag k="ssr:stedsnr" v="469290" />
	</node>
	<node id="-81899" lat="60.6248749959" lon="5.45872500798">
		<tag k="fixme" v="consider natural=peak for the most distinct mountains in the district" />
		<tag k="name" v="Søreåsen" />
		<tag k="natural" v="hill" />
		<tag k="place" v="locality" />
		<tag k="ssr:stedsnr" v="469284" />
	</node>
	<node id="-81897" lat="60.6018333319" lon="5.38904165963">
		<tag k="name" v="Merkesdalen" />
		<tag k="natural" v="valley" />
		<tag k="place" v="locality" />
		<tag k="ssr:stedsnr" v="469268" />
	</node>
	<node id="-81895" lat="60.6694750006" lon="5.13225555535">
		<tag k="name" v="Gjerdhaugane" />
		<tag k="natural" v="hill" />
		<tag k="place" v="locality" />
		<tag k="ssr:stedsnr" v="469258" />
	</node>
	<node id="-81890" lat="60.6855055551" lon="5.13729444202">
		<tag k="name" v="Skjelvikhaugane" />
		<tag k="natural" v="hill" />
		<tag k="place" v="locality" />
		<tag k="ssr:stedsnr" v="469244" />
	</node>
	<node id="-81889" lat="60.75430556" lon="5.15612222169">
		<tag k="fixme" v="consider natural=peak for the most distinct mountains in the district" />
		<tag k="name" v="Vardefjellet" />
		<tag k="natural" v="hill" />
		<tag k="place" v="locality" />
		<tag k="ssr:stedsnr" v="469234" />
	</node>
	<node id="-81887" lat="60.6935444422" lon="5.30640832925">
		<tag k="name" v="Torvhaugane" />
		<tag k="natural" v="hill" />
		<tag k="place" v="locality" />
		<tag k="ssr:stedsnr" v="469218" />
	</node>
	<node id="-81885" lat="60.6869444408" lon="5.28366945052">
		<tag k="name" v="Digraheia" />
		<tag k="natural" v="hill" />
		<tag k="place" v="locality" />
		<tag k="ssr:stedsnr" v="469213" />
	</node>
	<node id="-81883" lat="60.686738889" lon="5.26084445236">
		<tag k="name" v="Svartebotnen" />
		<tag k="natural" v="valley" />
		<tag k="place" v="locality" />
		<tag k="ssr:stedsnr" v="469205" />
	</node>
	<node id="-81882" lat="60.689305555" lon="5.24519721674">
		<tag k="name" v="Storskardalen" />
		<tag k="natural" v="valley" />
		<tag k="place" v="locality" />
		<tag k="ssr:stedsnr" v="469204" />
	</node>
	<node id="-81881" lat="60.7489749983" lon="5.19394721828">
		<tag k="name" v="Medhaugen" />
		<tag k="natural" v="hill" />
		<tag k="place" v="locality" />
		<tag k="ssr:stedsnr" v="469203" />
	</node>
	<node id="-81880" lat="60.7716194436" lon="5.11937778503">
		<tag k="name" v="Tybergnes" />
		<tag k="natural" v="hill" />
		<tag k="place" v="locality" />
		<tag k="ssr:stedsnr" v="469194" />
	</node>
	<node id="-81878" lat="60.77800278" lon="5.14281111369">
		<tag k="name" v="Åløypet" />
		<tag k="natural" v="valley" />
		<tag k="place" v="locality" />
		<tag k="ssr:stedsnr" v="469189" />
	</node>
	<node id="-81876" lat="60.6772472241" lon="5.32239999988">
		<tag k="name" v="Haugane" />
		<tag k="natural" v="hill" />
		<tag k="place" v="locality" />
		<tag k="ssr:stedsnr" v="469180" />
	</node>
	<node id="-81874" lat="60.7228833326" lon="5.26024167435">
		<tag k="name" v="Dalebrota" />
		<tag k="natural" v="valley" />
		<tag k="place" v="locality" />
		<tag k="ssr:stedsnr" v="469172" />
	</node>
	<node id="-81865" lat="60.5781805549" lon="5.30942499306">
		<tag k="name" v="Svartedalen" />
		<tag k="natural" v="valley" />
		<tag k="place" v="locality" />
		<tag k="ssr:stedsnr" v="469142" />
	</node>
	<node id="-81863" lat="60.5775722241" lon="5.30460555726">
		<tag k="name" v="Håtua" />
		<tag k="natural" v="hill" />
		<tag k="place" v="locality" />
		<tag k="ssr:stedsnr" v="469135" />
	</node>
	<node id="-81860" lat="60.6879861098" lon="5.29048055681">
		<tag k="name" v="Einebrekkena" />
		<tag k="natural" v="slope" />
		<tag k="place" v="locality" />
		<tag k="ssr:stedsnr" v="469128" />
	</node>
	<node id="-81859" lat="60.5788527744" lon="5.26992499592">
		<tag k="fixme" v="consider natural=peak for the most distinct mountains in the district" />
		<tag k="name" v="Storanipa" />
		<tag k="natural" v="hill" />
		<tag k="ssr:stedsnr" v="469126" />
	</node>
	<node id="-81858" lat="60.5901305553" lon="5.32219445331">
		<tag k="name" v="Kjosena" />
		<tag k="natural" v="ridge" />
		<tag k="place" v="locality" />
		<tag k="ssr:stedsnr" v="469124" />
	</node>
	<node id="-81856" lat="60.5891916654" lon="5.30599167132">
		<tag k="fixme" v="consider natural=peak for the most distinct mountains in the district" />
		<tag k="name" v="Vestefjellet" />
		<tag k="natural" v="hill" />
		<tag k="place" v="locality" />
		<tag k="ssr:stedsnr" v="469111" />
	</node>
	<node id="-81854" lat="60.5772803037" lon="5.06188516472">
		<tag k="fixme" v="consider natural=peak for the most distinct mountains in the district" />
		<tag k="name" v="Strangefjellet" />
		<tag k="natural" v="hill" />
		<tag k="place" v="locality" />
		<tag k="ssr:stedsnr" v="469096" />
	</node>
	<node id="-81853" lat="60.5504222217" lon="5.27671111525">
		<tag k="name" v="Burkhovdane" />
		<tag k="natural" v="hill" />
		<tag k="place" v="locality" />
		<tag k="ssr:stedsnr" v="469092" />
	</node>
	<node id="-81851" lat="60.5723222243" lon="5.3423861018">
		<tag k="name" v="Varihaugane" />
		<tag k="natural" v="hill" />
		<tag k="place" v="locality" />
		<tag k="ssr:stedsnr" v="469083" />
	</node>
	<node id="-81850" lat="60.6653361099" lon="5.34045832801">
		<tag k="name" v="Haugslia" />
		<tag k="natural" v="slope" />
		<tag k="place" v="locality" />
		<tag k="ssr:stedsnr" v="469082" />
	</node>
	<node id="-81848" lat="60.580469448" lon="5.10564721611">
		<tag k="name" v="Søre Båtedalen" />
		<tag k="natural" v="valley" />
		<tag k="place" v="locality" />
		<tag k="ssr:stedsnr" v="469077" />
	</node>
	<node id="-81844" lat="60.8018777796" lon="5.63393611422">
		<tag k="name" v="Hamrane" />
		<tag k="natural" v="hill" />
		<tag k="place" v="locality" />
		<tag k="ssr:stedsnr" v="469062" />
	</node>
	<node id="-81841" lat="60.8378222265" lon="5.67333610572">
		<tag k="name" v="Geitskardalen" />
		<tag k="natural" v="valley" />
		<tag k="place" v="locality" />
		<tag k="ssr:stedsnr" v="469055" />
	</node>
	<node id="-81839" lat="60.7061138932" lon="5.25039167323">
		<tag k="alt_name" v="Litlesnøya" />
		<tag k="name" v="Litlasnøya" />
		<tag k="natural" v="hill" />
		<tag k="place" v="locality" />
		<tag k="ssr:stedsnr" v="469052" />
	</node>
	<node id="-81838" lat="60.556144446" lon="5.14269166418">
		<tag k="fixme" v="consider natural=peak for the most distinct mountains in the district" />
		<tag k="name" v="Kletten" />
		<tag k="natural" v="hill" />
		<tag k="place" v="locality" />
		<tag k="ssr:stedsnr" v="469049" />
	</node>
	<node id="-81836" lat="60.5875583293" lon="5.28014167529">
		<tag k="fixme" v="consider natural=peak for the most distinct mountains in the district" />
		<tag k="name" v="Filbergåsen" />
		<tag k="natural" v="hill" />
		<tag k="place" v="locality" />
		<tag k="ssr:stedsnr" v="469044" />
	</node>
	<node id="-81834" lat="60.7018222191" lon="5.26148055031">
		<tag k="name" v="Eggena" />
		<tag k="natural" v="ridge" />
		<tag k="place" v="locality" />
		<tag k="ssr:stedsnr" v="469040" />
	</node>
	<node id="-81832" lat="60.6938527799" lon="5.28304444141">
		<tag k="name" v="Nordre Svarthamrane" />
		<tag k="natural" v="ridge" />
		<tag k="place" v="locality" />
		<tag k="ssr:stedsnr" v="469035" />
	</node>
	<node id="-81831" lat="60.5918361142" lon="5.34022499436">
		<tag k="name" v="Sodalsskaret" />
		<tag k="natural" v="hill" />
		<tag k="place" v="locality" />
		<tag k="ssr:stedsnr" v="469033" />
	</node>
	<node id="-81830" lat="60.5506722175" lon="5.14581665816">
		<tag k="fixme" v="consider natural=peak for the most distinct mountains in the district" />
		<tag k="name" v="Tveitanipa" />
		<tag k="natural" v="hill" />
		<tag k="place" v="locality" />
		<tag k="ssr:stedsnr" v="469030" />
	</node>
	<node id="-81829" lat="60.5946999998" lon="5.24062499589">
		<tag k="name" v="Årdalsrindane" />
		<tag k="natural" v="ridge" />
		<tag k="place" v="locality" />
		<tag k="ssr:stedsnr" v="469025" />
	</node>
	<node id="-81828" lat="60.5889083368" lon="5.24099166227">
		<tag k="name" v="Legdena" />
		<tag k="natural" v="slope" />
		<tag k="place" v="locality" />
		<tag k="ssr:stedsnr" v="469023" />
	</node>
	<node id="-81826" lat="60.6155611134" lon="5.30909999483">
		<tag k="name" v="Austebaren" />
		<tag k="place" v="locality" />
		<tag k="ssr:stedsnr" v="469015" />
	</node>
	<node id="-81825" lat="60.7984861086" lon="5.59297777731">
		<tag k="fixme" v="consider natural=peak for the most distinct mountains in the district" />
		<tag k="name" v="Blåfjellet" />
		<tag k="natural" v="hill" />
		<tag k="place" v="locality" />
		<tag k="ssr:stedsnr" v="468976" />
	</node>
	<node id="-81823" lat="60.7096527735" lon="5.59964999636">
		<tag k="name" v="Sekkjedalen" />
		<tag k="natural" v="valley" />
		<tag k="place" v="locality" />
		<tag k="ssr:stedsnr" v="469541" />
	</node>
	<node id="-81822" lat="60.7072944409" lon="5.58807499192">
		<tag k="name" v="Verkarlia" />
		<tag k="natural" v="slope" />
		<tag k="place" v="locality" />
		<tag k="ssr:stedsnr" v="469540" />
	</node>
	<node id="-81821" lat="60.6557694418" lon="5.38198888781">
		<tag k="name" v="Nordreliane" />
		<tag k="natural" v="slope" />
		<tag k="place" v="locality" />
		<tag k="ssr:stedsnr" v="469539" />
	</node>
	<node id="-81814" lat="60.5803944469" lon="5.13049444177">
		<tag k="name" v="Gyehøyen" />
		<tag k="natural" v="hill" />
		<tag k="place" v="locality" />
		<tag k="ssr:stedsnr" v="289413" />
	</node>
	<node id="-81813" lat="60.5511916628" lon="5.05091110297">
		<tag k="fixme" v="consider natural=peak for the most distinct mountains in the district" />
		<tag k="name" v="Botnafjellet" />
		<tag k="natural" v="hill" />
		<tag k="place" v="locality" />
		<tag k="ssr:stedsnr" v="289367" />
	</node>
	<node id="-81812" lat="60.559600004" lon="5.06954167333">
		<tag k="fixme" v="consider natural=peak for the most distinct mountains in the district" />
		<tag k="name" v="Skintveitfjellet" />
		<tag k="natural" v="hill" />
		<tag k="place" v="locality" />
		<tag k="ssr:stedsnr" v="289525" />
	</node>
	<node id="-81811" lat="60.556220974" lon="5.08900920686">
		<tag k="name" v="Lynghøyen" />
		<tag k="natural" v="hill" />
		<tag k="place" v="locality" />
		<tag k="ssr:stedsnr" v="289523" />
	</node>
	<node id="-81810" lat="60.7862083361" lon="5.66120833777">
		<tag k="name" v="Midryggen" />
		<tag k="natural" v="ridge" />
		<tag k="place" v="locality" />
		<tag k="ssr:stedsnr" v="288904" />
	</node>
	<node id="-81808" lat="60.7658500025" lon="5.49778611266">
		<tag k="name" v="Middagsskaret" />
		<tag k="natural" v="hill" />
		<tag k="place" v="locality" />
		<tag k="ssr:stedsnr" v="288869" />
	</node>
	<node id="-81806" lat="60.7315638844" lon="5.56474443727">
		<tag k="name" v="Øvsta Andevasskaret" />
		<tag k="natural" v="hill" />
		<tag k="place" v="locality" />
		<tag k="ssr:stedsnr" v="288816" />
	</node>
	<node id="-81805" lat="60.7865527814" lon="5.49932499751">
		<tag k="name" v="Hakupa" />
		<tag k="natural" v="valley" />
		<tag k="place" v="locality" />
		<tag k="ssr:stedsnr" v="288809" />
	</node>
	<node id="-81804" lat="60.7796888876" lon="5.56806944261">
		<tag k="fixme" v="consider natural=peak for the most distinct mountains in the district" />
		<tag k="name" v="Tvillingane" />
		<tag k="natural" v="hill" />
		<tag k="ssr:stedsnr" v="288807" />
	</node>
	<node id="-81803" lat="60.7787555548" lon="5.56598888092">
		<tag k="name" v="Fossbotnen" />
		<tag k="natural" v="valley" />
		<tag k="place" v="locality" />
		<tag k="ssr:stedsnr" v="288767" />
	</node>
	<node id="-81802" lat="60.7701527768" lon="5.5793583382">
		<tag k="name" v="Heimre Seterbotnen" />
		<tag k="natural" v="valley" />
		<tag k="place" v="locality" />
		<tag k="ssr:stedsnr" v="288762" />
	</node>
	<node id="-81798" lat="60.6902277789" lon="5.46838334144">
		<tag k="name" v="Tytebærranen" />
		<tag k="natural" v="ridge" />
		<tag k="place" v="locality" />
		<tag k="ssr:stedsnr" v="288703" />
	</node>
	<node id="-81793" lat="60.6546222237" lon="5.03746389287">
		<tag k="name" v="Nålebrekkena" />
		<tag k="natural" v="slope" />
		<tag k="place" v="locality" />
		<tag k="ssr:stedsnr" v="288506" />
	</node>
	<node id="-81792" lat="60.6240833294" lon="5.09503055393">
		<tag k="name" v="Kalddalen" />
		<tag k="natural" v="valley" />
		<tag k="place" v="locality" />
		<tag k="ssr:stedsnr" v="288468" />
	</node>
	<node id="-81788" lat="60.7114555558" lon="4.93634445102">
		<tag k="name" v="Herhaugane" />
		<tag k="natural" v="hill" />
		<tag k="place" v="locality" />
		<tag k="ssr:stedsnr" v="288356" />
	</node>
	<node id="-81784" lat="60.5952722246" lon="4.97245555921">
		<tag k="name" v="Kokkegjona" />
		<tag k="place" v="locality" />
		<tag k="ssr:stedsnr" v="288313" />
	</node>
	<node id="-81782" lat="60.802377774" lon="5.68273332806">
		<tag k="name" v="Jonasbotnen" />
		<tag k="natural" v="valley" />
		<tag k="place" v="locality" />
		<tag k="ssr:stedsnr" v="288065" />
	</node>
	<node id="-81779" lat="60.6650222186" lon="4.99693333263">
		<tag k="name" v="Hushaugen" />
		<tag k="natural" v="hill" />
		<tag k="place" v="locality" />
		<tag k="ssr:stedsnr" v="288267" />
	</node>
	<node id="-81774" lat="60.6104166643" lon="5.14168055195">
		<tag k="name" v="Hundhaugen" />
		<tag k="natural" v="hill" />
		<tag k="place" v="locality" />
		<tag k="ssr:stedsnr" v="287756" />
	</node>
	<node id="-81772" lat="60.669436114" lon="5.59394445061">
		<tag k="name" v="Kleivane" />
		<tag k="natural" v="slope" />
		<tag k="place" v="locality" />
		<tag k="ssr:stedsnr" v="287805" />
	</node>
	<node id="-81771" lat="60.6108416695" lon="5.17801944928">
		<tag k="name" v="Dalane" />
		<tag k="natural" v="valley" />
		<tag k="place" v="locality" />
		<tag k="ssr:stedsnr" v="287804" />
	</node>
	<node id="-81770" lat="60.6544972202" lon="5.50584443574">
		<tag k="fixme" v="consider natural=peak for the most distinct mountains in the district" />
		<tag k="name" v="Rusta" />
		<tag k="natural" v="hill" />
		<tag k="place" v="locality" />
		<tag k="ssr:stedsnr" v="287663" />
	</node>
	<node id="-81767" lat="60.66511111" lon="5.54515833257">
		<tag k="name" v="Maurtuena" />
		<tag k="natural" v="hill" />
		<tag k="place" v="locality" />
		<tag k="ssr:stedsnr" v="287652" />
	</node>
	<node id="-81766" lat="60.6323444426" lon="5.54148610801">
		<tag k="name" v="Stordalen" />
		<tag k="natural" v="valley" />
		<tag k="place" v="locality" />
		<tag k="ssr:stedsnr" v="287577" />
	</node>
	<node id="-81764" lat="60.6415361138" lon="5.51595555201">
		<tag k="name" v="Matendalen" />
		<tag k="natural" v="valley" />
		<tag k="place" v="locality" />
		<tag k="ssr:stedsnr" v="287557" />
	</node>
	<node id="-81763" lat="60.6667027808" lon="5.42941110533">
		<tag k="name" v="Dalekletten" />
		<tag k="natural" v="hill" />
		<tag k="place" v="locality" />
		<tag k="ssr:stedsnr" v="287525" />
	</node>
	<node id="-81759" lat="60.7585388882" lon="5.0905250067">
		<tag k="name" v="Kårdal" />
		<tag k="natural" v="valley" />
		<tag k="place" v="locality" />
		<tag k="ssr:stedsnr" v="287478" />
	</node>
	<node id="-81755" lat="60.7708416671" lon="5.08549443673">
		<tag k="name" v="Arekletten" />
		<tag k="natural" v="hill" />
		<tag k="place" v="locality" />
		<tag k="ssr:stedsnr" v="287454" />
	</node>
	<node id="-81753" lat="60.6162277766" lon="5.21238055717">
		<tag k="fixme" v="consider natural=peak for the most distinct mountains in the district" />
		<tag k="name" v="Øykåsen" />
		<tag k="natural" v="hill" />
		<tag k="place" v="locality" />
		<tag k="ssr:stedsnr" v="287425" />
	</node>
	<node id="-81752" lat="60.625666669" lon="5.2289972171">
		<tag k="name" v="Rinndalen" />
		<tag k="natural" v="valley" />
		<tag k="place" v="locality" />
		<tag k="ssr:stedsnr" v="287422" />
	</node>
	<node id="-81751" lat="60.6161194436" lon="5.22092499384">
		<tag k="name" v="Halsane" />
		<tag k="natural" v="ridge" />
		<tag k="place" v="locality" />
		<tag k="ssr:stedsnr" v="287419" />
	</node>
	<node id="-81750" lat="60.613066665" lon="5.2216000081">
		<tag k="name" v="Midtfjelldalen" />
		<tag k="natural" v="valley" />
		<tag k="place" v="locality" />
		<tag k="ssr:stedsnr" v="287418" />
	</node>
	<node id="-81749" lat="60.6192722201" lon="5.23184721933">
		<tag k="name" v="Aurtuva" />
		<tag k="natural" v="hill" />
		<tag k="place" v="locality" />
		<tag k="ssr:stedsnr" v="287417" />
	</node>
	<node id="-81747" lat="60.7520250007" lon="5.12352500541">
		<tag k="name" v="Svehaugen" />
		<tag k="natural" v="hill" />
		<tag k="place" v="locality" />
		<tag k="ssr:stedsnr" v="287263" />
	</node>
	<node id="-81746" lat="60.6920639787" lon="5.30873669418">
		<tag k="name" v="Brendehøyen" />
		<tag k="natural" v="hill" />
		<tag k="place" v="locality" />
		<tag k="ssr:stedsnr" v="287260" />
	</node>
	<node id="-81741" lat="60.6151638886" lon="5.4432527863">
		<tag k="fixme" v="consider natural=peak for the most distinct mountains in the district" />
		<tag k="name" v="Storevarden" />
		<tag k="natural" v="hill" />
		<tag k="ssr:stedsnr" v="287322" />
	</node>
	<node id="-81737" lat="60.7148361145" lon="5.27770555042">
		<tag k="fixme" v="consider natural=peak for the most distinct mountains in the district" />
		<tag k="name" v="Uglåsen" />
		<tag k="natural" v="hill" />
		<tag k="place" v="locality" />
		<tag k="ssr:stedsnr" v="287172" />
	</node>
	<node id="-81734" lat="60.5914111139" lon="5.30509167523">
		<tag k="name" v="Sandbrekkena" />
		<tag k="natural" v="slope" />
		<tag k="place" v="locality" />
		<tag k="ssr:stedsnr" v="287125" />
	</node>
	<node id="-81733" lat="60.5961354676" lon="5.3063539865">
		<tag k="name" v="Håbergsdalen" />
		<tag k="natural" v="valley" />
		<tag k="place" v="locality" />
		<tag k="ssr:stedsnr" v="287122" />
	</node>
	<node id="-81732" lat="60.6641472569" lon="5.31638176742">
		<tag k="name" v="Dalshøyen" />
		<tag k="natural" v="hill" />
		<tag k="place" v="locality" />
		<tag k="ssr:stedsnr" v="287118" />
	</node>
	<node id="-81731" lat="60.6695805518" lon="5.31058056406">
		<tag k="fixme" v="consider natural=peak for the most distinct mountains in the district" />
		<tag k="name" v="Vardane" />
		<tag k="natural" v="hill" />
		<tag k="ssr:stedsnr" v="287115" />
	</node>
	<node id="-81730" lat="60.6656555589" lon="5.32382777395">
		<tag k="fixme" v="consider natural=peak for the most distinct mountains in the district" />
		<tag k="name" v="Reikerås" />
		<tag k="natural" v="hill" />
		<tag k="place" v="locality" />
		<tag k="ssr:stedsnr" v="287114" />
	</node>
	<node id="-81729" lat="60.6685249979" lon="5.32726944698">
		<tag k="fixme" v="consider natural=peak for the most distinct mountains in the district" />
		<tag k="name" v="Liåsen" />
		<tag k="natural" v="hill" />
		<tag k="place" v="locality" />
		<tag k="ssr:stedsnr" v="287110" />
	</node>
	<node id="-81727" lat="60.6626527732" lon="5.3309249933">
		<tag k="fixme" v="consider natural=peak for the most distinct mountains in the district" />
		<tag k="name" v="Åsen" />
		<tag k="natural" v="hill" />
		<tag k="place" v="locality" />
		<tag k="ssr:stedsnr" v="287107" />
	</node>
	<node id="-81724" lat="60.6795694407" lon="5.24276944043">
		<tag k="name" v="Kviteberget" />
		<tag k="natural" v="hill" />
		<tag k="place" v="locality" />
		<tag k="ssr:stedsnr" v="287225" />
	</node>
	<node id="-81718" lat="60.5544083325" lon="5.21350278587">
		<tag k="fixme" v="consider natural=peak for the most distinct mountains in the district" />
		<tag k="name" v="Søre Heiane" />
		<tag k="natural" v="hill" />
		<tag k="place" v="locality" />
		<tag k="ssr:stedsnr" v="287061" />
	</node>
	<node id="-81716" lat="60.607594441" lon="5.27299999127">
		<tag k="name" v="Storhaugane" />
		<tag k="natural" v="hill" />
		<tag k="place" v="locality" />
		<tag k="ssr:stedsnr" v="287055" />
	</node>
	<node id="-81714" lat="60.5442361118" lon="5.1300722175">
		<tag k="name" v="Kjeken" />
		<tag k="place" v="locality" />
		<tag k="ssr:stedsnr" v="287024" />
	</node>
	<node id="-81713" lat="60.5482166666" lon="5.13203610333">
		<tag k="name" v="Nipa" />
		<tag k="natural" v="hill" />
		<tag k="place" v="locality" />
		<tag k="ssr:stedsnr" v="287022" />
	</node>
	<node id="-81712" lat="60.6971416641" lon="5.28300277897">
		<tag k="fixme" v="consider natural=peak for the most distinct mountains in the district" />
		<tag k="name" v="Vefjell" />
		<tag k="natural" v="hill" />
		<tag k="place" v="locality" />
		<tag k="ssr:stedsnr" v="287018" />
	</node>
	<node id="-81708" lat="60.6039611146" lon="5.2243333397">
		<tag k="name" v="Husfjellet" />
		<tag k="natural" v="hill" />
		<tag k="place" v="locality" />
		<tag k="ssr:stedsnr" v="268603" />
	</node>
	<node id="-81707" lat="60.5323444475" lon="5.10971110962">
		<tag k="name" v="Niso" />
		<tag k="natural" v="hill" />
		<tag k="place" v="locality" />
		<tag k="ssr:stedsnr" v="267557" />
	</node>
	<node id="-81697" lat="60.6407611099" lon="4.95284165889">
		<tag k="name" v="Klubben" />
		<tag k="natural" v="hill" />
		<tag k="place" v="locality" />
		<tag k="ssr:stedsnr" v="449670" />
	</node>
	<node id="-81692" lat="60.7214388865" lon="4.99922499686">
		<tag k="name" v="Raudaberget" />
		<tag k="natural" v="hill" />
		<tag k="place" v="locality" />
		<tag k="ssr:stedsnr" v="449260" />
	</node>
	<node id="-81688" lat="60.551853252" lon="5.03475458997">
		<tag k="name" v="Stølshøyen" />
		<tag k="natural" v="hill" />
		<tag k="place" v="locality" />
		<tag k="ssr:stedsnr" v="531373" />
	</node>
	<node id="-81687" lat="60.6568222257" lon="4.9427749918">
		<tag k="name" v="Stegen" />
		<tag k="place" v="locality" />
		<tag k="ssr:stedsnr" v="530326" />
	</node>
	<node id="-81686" lat="60.6054888905" lon="4.96602500858">
		<tag k="fixme" v="consider natural=peak for the most distinct mountains in the district" />
		<tag k="name" v="Lafjellet" />
		<tag k="natural" v="hill" />
		<tag k="place" v="locality" />
		<tag k="ssr:stedsnr" v="228452" />
	</node>
	<node id="-81685" lat="60.5449722247" lon="5.08070277379">
		<tag k="name" v="Grinddalen" />
		<tag k="natural" v="valley" />
		<tag k="place" v="locality" />
		<tag k="ssr:stedsnr" v="228562" />
	</node>
	<node id="-81684" lat="60.558361115" lon="5.09381945271">
		<tag k="fixme" v="consider natural=peak for the most distinct mountains in the district" />
		<tag k="name" v="Ospåsen" />
		<tag k="natural" v="hill" />
		<tag k="place" v="locality" />
		<tag k="ssr:stedsnr" v="228556" />
	</node>
	<node id="-81678" lat="60.7494222227" lon="5.65025833412">
		<tag k="name" v="Blombrekka" />
		<tag k="natural" v="slope" />
		<tag k="place" v="locality" />
		<tag k="ssr:stedsnr" v="227955" />
	</node>
	<node id="-81677" lat="60.7697194488" lon="5.63231110867">
		<tag k="name" v="Svartholet" />
		<tag k="natural" v="valley" />
		<tag k="place" v="locality" />
		<tag k="ssr:stedsnr" v="227875" />
	</node>
	<node id="-81676" lat="60.7606888895" lon="5.62504723112">
		<tag k="name" v="Rothola" />
		<tag k="natural" v="valley" />
		<tag k="place" v="locality" />
		<tag k="ssr:stedsnr" v="227867" />
	</node>
	<node id="-81675" lat="60.7569333374" lon="5.60856944065">
		<tag k="name" v="Rusta" />
		<tag k="place" v="locality" />
		<tag k="ssr:stedsnr" v="227814" />
	</node>
	<node id="-81674" lat="60.7550777788" lon="5.59206389731">
		<tag k="name" v="Utløbotnen" />
		<tag k="natural" v="valley" />
		<tag k="place" v="locality" />
		<tag k="ssr:stedsnr" v="227807" />
	</node>
	<node id="-81673" lat="60.7770833365" lon="5.62896111905">
		<tag k="name" v="Rotthaugen" />
		<tag k="natural" v="hill" />
		<tag k="place" v="locality" />
		<tag k="ssr:stedsnr" v="227907" />
	</node>
	<node id="-81671" lat="60.7735444422" lon="5.57853332622">
		<tag k="name" v="Nordre Seterbotnen" />
		<tag k="natural" v="valley" />
		<tag k="place" v="locality" />
		<tag k="ssr:stedsnr" v="227766" />
	</node>
	<node id="-81669" lat="60.6202194446" lon="5.1651277693">
		<tag k="name" v="Storeggena" />
		<tag k="natural" v="hill" />
		<tag k="place" v="locality" />
		<tag k="ssr:stedsnr" v="227720" />
	</node>
	<node id="-81666" lat="60.7361694412" lon="5.50635555019">
		<tag k="name" v="Setupta" />
		<tag k="place" v="locality" />
		<tag k="ssr:stedsnr" v="227625" />
	</node>
	<node id="-81665" lat="60.6842888872" lon="5.56030555397">
		<tag k="name" v="Haukøygota" />
		<tag k="place" v="locality" />
		<tag k="ssr:stedsnr" v="227614" />
	</node>
	<node id="-81664" lat="60.6912916629" lon="5.05163333773">
		<tag k="name" v="Ørnetua" />
		<tag k="natural" v="hill" />
		<tag k="place" v="locality" />
		<tag k="ssr:stedsnr" v="227608" />
	</node>
	<node id="-81660" lat="60.6336305566" lon="5.44075278454">
		<tag k="name" v="Røyldalane" />
		<tag k="natural" v="valley" />
		<tag k="place" v="locality" />
		<tag k="ssr:stedsnr" v="227421" />
	</node>
	<node id="-81659" lat="60.7038277805" lon="5.42685000764">
		<tag k="name" v="Rasmusdalen" />
		<tag k="natural" v="valley" />
		<tag k="place" v="locality" />
		<tag k="ssr:stedsnr" v="227406" />
	</node>
	<node id="-81655" lat="60.6126222203" lon="5.10950833739">
		<tag k="fixme" v="consider natural=peak for the most distinct mountains in the district" />
		<tag k="name" v="Suvfjellet" />
		<tag k="natural" v="hill" />
		<tag k="place" v="locality" />
		<tag k="ssr:stedsnr" v="227518" />
	</node>
	<node id="-81654" lat="60.6299027736" lon="5.48755556196">
		<tag k="name" v="Eikhovden" />
		<tag k="natural" v="hill" />
		<tag k="place" v="locality" />
		<tag k="ssr:stedsnr" v="227513" />
	</node>
	<node id="-81646" lat="60.7179132455" lon="5.30639637097">
		<tag k="name" v="Kvithøyen" />
		<tag k="natural" v="hill" />
		<tag k="place" v="locality" />
		<tag k="ssr:stedsnr" v="227352" />
	</node>
	<node id="-81645" lat="60.6946500013" lon="4.9914194479">
		<tag k="name" v="Grønskaret" />
		<tag k="natural" v="valley" />
		<tag k="place" v="locality" />
		<tag k="ssr:stedsnr" v="227320" />
	</node>
	<node id="-81638" lat="60.6806249957" lon="5.22746111097">
		<tag k="name" v="Skaret" />
		<tag k="natural" v="hill" />
		<tag k="place" v="locality" />
		<tag k="ssr:stedsnr" v="347233" />
	</node>
	<node id="-81635" lat="60.5482666651" lon="5.08518333855">
		<tag k="fixme" v="consider natural=peak for the most distinct mountains in the district" />
		<tag k="name" v="Vasskåsa" />
		<tag k="natural" v="hill" />
		<tag k="place" v="locality" />
		<tag k="ssr:stedsnr" v="289543" />
	</node>
	<node id="-81633" lat="60.5402111127" lon="5.09901111008">
		<tag k="fixme" v="consider natural=peak for the most distinct mountains in the district" />
		<tag k="name" v="Nipo" />
		<tag k="natural" v="hill" />
		<tag k="place" v="locality" />
		<tag k="ssr:stedsnr" v="289532" />
	</node>
	<node id="-81632" lat="60.5655111111" lon="5.13591944009">
		<tag k="name" v="Kolhaugane" />
		<tag k="natural" v="hill" />
		<tag k="place" v="locality" />
		<tag k="ssr:stedsnr" v="289475" />
	</node>
	<node id="-81630" lat="60.5829583316" lon="5.04480277016">
		<tag k="name" v="Midtvarden" />
		<tag k="natural" v="hill" />
		<tag k="place" v="locality" />
		<tag k="ssr:stedsnr" v="289339" />
	</node>
	<node id="-81629" lat="60.5389888922" lon="5.19506389047">
		<tag k="name" v="Haukelendet" />
		<tag k="place" v="locality" />
		<tag k="ssr:stedsnr" v="289337" />
	</node>
	<node id="-81627" lat="60.5346111134" lon="5.12848888204">
		<tag k="name" v="Fossdalen" />
		<tag k="natural" v="valley" />
		<tag k="place" v="locality" />
		<tag k="ssr:stedsnr" v="289382" />
	</node>
	<node id="-81625" lat="60.5219888901" lon="5.23209721396">
		<tag k="name" v="Litleknappen" />
		<tag k="place" v="locality" />
		<tag k="ssr:stedsnr" v="289377" />
	</node>
	<node id="-81624" lat="60.7681305589" lon="5.6241388815">
		<tag k="name" v="Moldbrekka" />
		<tag k="natural" v="slope" />
		<tag k="place" v="locality" />
		<tag k="ssr:stedsnr" v="288891" />
	</node>
	<node id="-81622" lat="60.7677583364" lon="5.60633611145">
		<tag k="name" v="Stusskleiva" />
		<tag k="natural" v="slope" />
		<tag k="place" v="locality" />
		<tag k="ssr:stedsnr" v="288930" />
	</node>
	<node id="-81621" lat="60.7769777737" lon="5.62380832709">
		<tag k="name" v="Laksebrekka" />
		<tag k="natural" v="slope" />
		<tag k="place" v="locality" />
		<tag k="ssr:stedsnr" v="288925" />
	</node>
	<node id="-81619" lat="60.718149998" lon="5.5312305481">
		<tag k="name" v="Klendalen" />
		<tag k="natural" v="valley" />
		<tag k="place" v="locality" />
		<tag k="ssr:stedsnr" v="288839" />
	</node>
	<node id="-81617" lat="60.7764500012" lon="5.5791111146">
		<tag k="name" v="Stussaksla" />
		<tag k="natural" v="ridge" />
		<tag k="place" v="locality" />
		<tag k="ssr:stedsnr" v="288743" />
	</node>
	<node id="-81616" lat="60.6858583307" lon="5.57766388002">
		<tag k="name" v="Leirvikdalen" />
		<tag k="natural" v="valley" />
		<tag k="place" v="locality" />
		<tag k="ssr:stedsnr" v="288730" />
	</node>
	<node id="-81615" lat="60.726161112" lon="5.01677777912">
		<tag k="name" v="Tinghaugen" />
		<tag k="natural" v="hill" />
		<tag k="place" v="locality" />
		<tag k="ssr:stedsnr" v="288651" />
	</node>
	<node id="-81613" lat="60.7227527792" lon="5.56454166444">
		<tag k="name" v="Smaldalen" />
		<tag k="natural" v="valley" />
		<tag k="place" v="locality" />
		<tag k="ssr:stedsnr" v="288646" />
	</node>
	<node id="-81611" lat="60.6761138842" lon="5.01672221468">
		<tag k="name" v="Merkesletten" />
		<tag k="place" v="locality" />
		<tag k="ssr:stedsnr" v="288633" />
	</node>
	<node id="-81606" lat="60.6917151324" lon="5.36486582754">
		<tag k="name" v="Nordre Kulten" />
		<tag k="place" v="locality" />
		<tag k="ssr:stedsnr" v="288539" />
	</node>
	<node id="-81605" lat="60.6920083372" lon="5.39705555094">
		<tag k="name" v="Øksnekletten" />
		<tag k="place" v="locality" />
		<tag k="ssr:stedsnr" v="288537" />
	</node>
	<node id="-81604" lat="60.6912944458" lon="5.405461114">
		<tag k="name" v="Naustdalen" />
		<tag k="natural" v="valley" />
		<tag k="place" v="locality" />
		<tag k="ssr:stedsnr" v="288536" />
	</node>
	<node id="-81603" lat="60.6181944477" lon="5.09450833864">
		<tag k="fixme" v="consider natural=peak for the most distinct mountains in the district" />
		<tag k="name" v="Skarpafjellet" />
		<tag k="natural" v="hill" />
		<tag k="place" v="locality" />
		<tag k="ssr:stedsnr" v="288483" />
	</node>
	<node id="-81602" lat="60.6923000009" lon="4.97576389324">
		<tag k="name" v="Hushøyen" />
		<tag k="natural" v="hill" />
		<tag k="place" v="locality" />
		<tag k="ssr:stedsnr" v="288299" />
	</node>
	<node id="-81600" lat="60.6974472176" lon="4.97842777021">
		<tag k="name" v="Krokabrotet" />
		<tag k="natural" v="slope" />
		<tag k="place" v="locality" />
		<tag k="ssr:stedsnr" v="288293" />
	</node>
	<node id="-81599" lat="60.5714916675" lon="5.04368332901">
		<tag k="name" v="Jonsokkhøyen" />
		<tag k="natural" v="hill" />
		<tag k="place" v="locality" />
		<tag k="ssr:stedsnr" v="288288" />
	</node>
	<node id="-81596" lat="60.5344416659" lon="5.10676111086">
		<tag k="name" v="Fløksandsmarka" />
		<tag k="place" v="locality" />
		<tag k="ssr:stedsnr" v="288281" />
	</node>
	<node id="-81594" lat="60.6400944438" lon="5.3720138832">
		<tag k="name" v="Rådalen" />
		<tag k="natural" v="valley" />
		<tag k="place" v="locality" />
		<tag k="ssr:stedsnr" v="288436" />
	</node>
	<node id="-81591" lat="60.5548750036" lon="5.11167778097">
		<tag k="name" v="Dyrhovden" />
		<tag k="place" v="locality" />
		<tag k="ssr:stedsnr" v="288412" />
	</node>
	<node id="-81588" lat="60.5979333331" lon="5.03800276893">
		<tag k="fixme" v="consider natural=peak for the most distinct mountains in the district" />
		<tag k="name" v="Åsen" />
		<tag k="natural" v="hill" />
		<tag k="place" v="locality" />
		<tag k="ssr:stedsnr" v="288333" />
	</node>
	<node id="-81585" lat="60.541194447" lon="5.26848055368">
		<tag k="name" v="Viphøyen" />
		<tag k="natural" v="hill" />
		<tag k="place" v="locality" />
		<tag k="ssr:stedsnr" v="288249" />
	</node>
	<node id="-81584" lat="60.6392583344" lon="4.96512500459">
		<tag k="name" v="Varden" />
		<tag k="natural" v="hill" />
		<tag k="place" v="locality" />
		<tag k="ssr:stedsnr" v="288248" />
	</node>
	<node id="-81579" lat="60.8027083361" lon="5.6366000083">
		<tag k="name" v="Vetlebotnbrekkena" />
		<tag k="natural" v="slope" />
		<tag k="place" v="locality" />
		<tag k="ssr:stedsnr" v="288050" />
	</node>
	<node id="-81576" lat="60.8174861135" lon="5.65425277576">
		<tag k="name" v="Skredberget" />
		<tag k="natural" v="hill" />
		<tag k="place" v="locality" />
		<tag k="ssr:stedsnr" v="288015" />
	</node>
	<node id="-81575" lat="60.8217805558" lon="5.65187499329">
		<tag k="alt_name" v="Geiteskarbotnen" />
		<tag k="name" v="Geitaskarsbotnen" />
		<tag k="natural" v="valley" />
		<tag k="place" v="locality" />
		<tag k="ssr:stedsnr" v="288014" />
	</node>
	<node id="-81566" lat="60.7042694457" lon="5.54298055438">
		<tag k="name" v="Sjokleva" />
		<tag k="place" v="locality" />
		<tag k="ssr:stedsnr" v="287740" />
	</node>
	<node id="-81564" lat="60.7162083294" lon="5.02120000534">
		<tag k="fixme" v="consider natural=peak for the most distinct mountains in the district" />
		<tag k="name" v="Øykåsen" />
		<tag k="natural" v="hill" />
		<tag k="place" v="locality" />
		<tag k="ssr:stedsnr" v="287730" />
	</node>
	<node id="-81560" lat="60.7040888914" lon="5.48500277792">
		<tag k="name" v="Bykset" />
		<tag k="place" v="locality" />
		<tag k="ssr:stedsnr" v="287597" />
	</node>
	<node id="-81554" lat="60.6834944414" lon="5.42454443726">
		<tag k="name" v="Buberget" />
		<tag k="natural" v="hill" />
		<tag k="place" v="locality" />
		<tag k="ssr:stedsnr" v="287627" />
	</node>
	<node id="-81553" lat="60.6753444435" lon="5.42142500283">
		<tag k="name" v="Djupedalen" />
		<tag k="natural" v="valley" />
		<tag k="place" v="locality" />
		<tag k="ssr:stedsnr" v="287623" />
	</node>
	<node id="-81552" lat="60.6320805582" lon="5.50062222801">
		<tag k="name" v="Skåraheiane" />
		<tag k="natural" v="hill" />
		<tag k="place" v="locality" />
		<tag k="ssr:stedsnr" v="287551" />
	</node>
	<node id="-81550" lat="60.668416348" lon="5.36939782856">
		<tag k="name" v="Spikarhøyen" />
		<tag k="natural" v="hill" />
		<tag k="place" v="locality" />
		<tag k="ssr:stedsnr" v="287541" />
	</node>
	<node id="-81549" lat="60.7325611122" lon="5.09466667113">
		<tag k="name" v="Skårneshaugen" />
		<tag k="natural" v="hill" />
		<tag k="place" v="locality" />
		<tag k="ssr:stedsnr" v="287540" />
	</node>
	<node id="-81538" lat="60.7700111075" lon="5.03244444255">
		<tag k="name" v="Bjørkvikhaugen" />
		<tag k="natural" v="hill" />
		<tag k="place" v="locality" />
		<tag k="ssr:stedsnr" v="287494" />
	</node>
	<node id="-81537" lat="60.7643333328" lon="5.09438055144">
		<tag k="fixme" v="consider natural=peak for the most distinct mountains in the district" />
		<tag k="name" v="Toråsen" />
		<tag k="natural" v="hill" />
		<tag k="place" v="locality" />
		<tag k="ssr:stedsnr" v="287485" />
	</node>
	<node id="-81536" lat="60.6777583331" lon="4.97386388653">
		<tag k="name" v="Haukeberget" />
		<tag k="natural" v="hill" />
		<tag k="place" v="locality" />
		<tag k="ssr:stedsnr" v="287484" />
	</node>
	<node id="-81535" lat="60.6705416666" lon="4.98799722415">
		<tag k="name" v="Brudikshaugane" />
		<tag k="natural" v="hill" />
		<tag k="place" v="locality" />
		<tag k="ssr:stedsnr" v="287483" />
	</node>
	<node id="-81532" lat="60.5947222247" lon="5.3528638865">
		<tag k="name" v="Måseskaret" />
		<tag k="natural" v="hill" />
		<tag k="place" v="locality" />
		<tag k="ssr:stedsnr" v="287293" />
	</node>
	<node id="-81530" lat="60.7057861115" lon="5.33447778203">
		<tag k="name" v="Nordre Fusholten" />
		<tag k="natural" v="hill" />
		<tag k="place" v="locality" />
		<tag k="ssr:stedsnr" v="287273" />
	</node>
	<node id="-81529" lat="60.7073527764" lon="5.33995277281">
		<tag k="name" v="Bergholten" />
		<tag k="natural" v="hill" />
		<tag k="place" v="locality" />
		<tag k="ssr:stedsnr" v="287272" />
	</node>
	<node id="-81528" lat="60.7053527758" lon="5.30102221702">
		<tag k="name" v="Tindlahaugane" />
		<tag k="natural" v="hill" />
		<tag k="place" v="locality" />
		<tag k="ssr:stedsnr" v="287267" />
	</node>
	<node id="-81527" lat="60.7115804605" lon="5.30001917388">
		<tag k="name" v="Mosehøyen" />
		<tag k="natural" v="hill" />
		<tag k="place" v="locality" />
		<tag k="ssr:stedsnr" v="287266" />
	</node>
	<node id="-81525" lat="60.6843684564" lon="5.2933834474">
		<tag k="name" v="Kalleklauvhøyen" />
		<tag k="natural" v="hill" />
		<tag k="place" v="locality" />
		<tag k="ssr:stedsnr" v="287197" />
	</node>
	<node id="-81518" lat="60.6657555596" lon="5.30589722429">
		<tag k="name" v="Hæddena" />
		<tag k="place" v="locality" />
		<tag k="ssr:stedsnr" v="287093" />
	</node>
	<node id="-81517" lat="60.6573333357" lon="5.30738889133">
		<tag k="name" v="Lesshovden" />
		<tag k="natural" v="hill" />
		<tag k="place" v="locality" />
		<tag k="ssr:stedsnr" v="287090" />
	</node>
	<node id="-81514" lat="60.513647223" lon="5.20846111704">
		<tag k="fixme" v="consider natural=peak for the most distinct mountains in the district" />
		<tag k="name" v="Furefjellet" />
		<tag k="natural" v="hill" />
		<tag k="place" v="locality" />
		<tag k="ssr:stedsnr" v="287001" />
	</node>
	<node id="-81513" lat="60.7958055562" lon="5.60381389691">
		<tag k="fixme" v="consider natural=peak for the most distinct mountains in the district" />
		<tag k="name" v="Olsbotsknolten" />
		<tag k="natural" v="hill" />
		<tag k="ssr:stedsnr" v="286985" />
	</node>
	<node id="-81512" lat="60.7940777758" lon="5.61339167381">
		<tag k="name" v="Nipekyrkja" />
		<tag k="place" v="locality" />
		<tag k="ssr:stedsnr" v="286983" />
	</node>
	<node id="-81510" lat="60.672013887" lon="5.3315472277">
		<tag k="name" v="Haugsdalen" />
		<tag k="natural" v="valley" />
		<tag k="place" v="locality" />
		<tag k="ssr:stedsnr" v="287242" />
	</node>
	<node id="-81508" lat="60.7463055541" lon="5.20437776976">
		<tag k="name" v="Dyrekjerret" />
		<tag k="place" v="locality" />
		<tag k="ssr:stedsnr" v="287238" />
	</node>
	<node id="-81505" lat="60.6793111146" lon="5.2381472277">
		<tag k="name" v="Konglevollbotnen" />
		<tag k="natural" v="valley" />
		<tag k="place" v="locality" />
		<tag k="ssr:stedsnr" v="287227" />
	</node>
	<node id="-81504" lat="60.5726101492" lon="5.30441366471">
		<tag k="name" v="Høghøyen" />
		<tag k="natural" v="hill" />
		<tag k="place" v="locality" />
		<tag k="ssr:stedsnr" v="287147" />
	</node>
	<node id="-81502" lat="60.546777776" lon="5.18233889334">
		<tag k="name" v="Melandskaret" />
		<tag k="natural" v="hill" />
		<tag k="place" v="locality" />
		<tag k="ssr:stedsnr" v="287041" />
	</node>
	<node id="-81501" lat="60.6324140436" lon="5.27754648821">
		<tag k="name" v="Furhøyen" />
		<tag k="natural" v="hill" />
		<tag k="place" v="locality" />
		<tag k="ssr:stedsnr" v="287039" />
	</node>
	<node id="-81497" lat="60.7247166623" lon="5.53356665951">
		<tag k="name" v="Røven" />
		<tag k="place" v="locality" />
		<tag k="ssr:stedsnr" v="286111" />
	</node>
	<node id="-81492" lat="60.5372055567" lon="5.20966666526">
		<tag k="name" v="Torvkletten" />
		<tag k="natural" v="hill" />
		<tag k="place" v="locality" />
		<tag k="ssr:stedsnr" v="167419" />
	</node>
	<node id="-81491" lat="60.5223527788" lon="5.19874722887">
		<tag k="name" v="Sandskaret" />
		<tag k="natural" v="hill" />
		<tag k="place" v="locality" />
		<tag k="ssr:stedsnr" v="167412" />
	</node>
	<node id="-81486" lat="60.5848722211" lon="5.05204165827">
		<tag k="fixme" v="consider natural=peak for the most distinct mountains in the district" />
		<tag k="name" v="Varden" />
		<tag k="natural" v="hill" />
		<tag k="place" v="locality" />
		<tag k="ssr:stedsnr" v="167357" />
	</node>
	<node id="-81483" lat="60.5778555549" lon="5.05355278525">
		<tag k="name" v="Lang" />
		<tag k="place" v="locality" />
		<tag k="ssr:stedsnr" v="167320" />
	</node>
	<node id="-81481" lat="60.569411111" lon="5.05029444629">
		<tag k="name" v="Svehaugane" />
		<tag k="natural" v="hill" />
		<tag k="place" v="locality" />
		<tag k="ssr:stedsnr" v="167314" />
	</node>
	<node id="-81480" lat="60.8262083354" lon="5.66992499414">
		<tag k="name" v="Geitaskardalen" />
		<tag k="natural" v="valley" />
		<tag k="place" v="locality" />
		<tag k="ssr:stedsnr" v="166914" />
	</node>
	<node id="-81479" lat="60.7694999976" lon="5.64886944546">
		<tag k="name" v="Skitklova" />
		<tag k="place" v="locality" />
		<tag k="ssr:stedsnr" v="166907" />
	</node>
	<node id="-81478" lat="60.6031444439" lon="5.1699833405">
		<tag k="name" v="Storleitet" />
		<tag k="natural" v="hill" />
		<tag k="place" v="locality" />
		<tag k="ssr:stedsnr" v="166776" />
	</node>
	<node id="-81477" lat="60.7657722212" lon="5.54941944155">
		<tag k="name" v="Tverrvasslia" />
		<tag k="natural" v="slope" />
		<tag k="place" v="locality" />
		<tag k="ssr:stedsnr" v="166775" />
	</node>
	<node id="-81476" lat="60.6023083287" lon="5.15713610453">
		<tag k="name" v="Skutleberget" />
		<tag k="natural" v="cliff" />
		<tag k="ssr:stedsnr" v="166769" />
	</node>
	<node id="-81475" lat="60.601475003" lon="5.16777499367">
		<tag k="name" v="Goddalen" />
		<tag k="natural" v="valley" />
		<tag k="place" v="locality" />
		<tag k="ssr:stedsnr" v="166767" />
	</node>
	<node id="-81474" lat="60.6002805548" lon="5.16386945233">
		<tag k="name" v="Grønhaugen" />
		<tag k="natural" v="hill" />
		<tag k="place" v="locality" />
		<tag k="ssr:stedsnr" v="166765" />
	</node>
	<node id="-81472" lat="60.7772138847" lon="5.50149999524">
		<tag k="name" v="Brekkena" />
		<tag k="natural" v="slope" />
		<tag k="place" v="locality" />
		<tag k="ssr:stedsnr" v="166872" />
	</node>
	<node id="-81471" lat="60.774250003" lon="5.50258056213">
		<tag k="name" v="Skaret" />
		<tag k="natural" v="hill" />
		<tag k="place" v="locality" />
		<tag k="ssr:stedsnr" v="166866" />
	</node>
	<node id="-81469" lat="60.7670611137" lon="5.49563889237">
		<tag k="name" v="Kalvedalen" />
		<tag k="natural" v="valley" />
		<tag k="place" v="locality" />
		<tag k="ssr:stedsnr" v="166862" />
	</node>
	<node id="-81468" lat="60.7617083349" lon="5.57404444687">
		<tag k="name" v="Orfallhaugen" />
		<tag k="natural" v="hill" />
		<tag k="place" v="locality" />
		<tag k="ssr:stedsnr" v="166854" />
	</node>
	<node id="-81467" lat="60.7127805596" lon="5.00093333407">
		<tag k="name" v="Tverråsskaret" />
		<tag k="natural" v="valley" />
		<tag k="place" v="locality" />
		<tag k="ssr:stedsnr" v="166682" />
	</node>
	<node id="-81466" lat="60.725158331" lon="5.02386389705">
		<tag k="name" v="Knuthaugen" />
		<tag k="natural" v="hill" />
		<tag k="place" v="locality" />
		<tag k="ssr:stedsnr" v="166673" />
	</node>
	<node id="-81465" lat="60.6707527791" lon="5.00578333374">
		<tag k="name" v="Grønhøyen" />
		<tag k="natural" v="hill" />
		<tag k="place" v="locality" />
		<tag k="ssr:stedsnr" v="166660" />
	</node>
	<node id="-81464" lat="60.6742833357" lon="5.02272223043">
		<tag k="name" v="Lyshovden" />
		<tag k="natural" v="hill" />
		<tag k="place" v="locality" />
		<tag k="ssr:stedsnr" v="166657" />
	</node>
	<node id="-81463" lat="60.725769446" lon="5.50137776884">
		<tag k="name" v="Vidgjelen" />
		<tag k="natural" v="valley" />
		<tag k="place" v="locality" />
		<tag k="ssr:stedsnr" v="166655" />
	</node>
	<node id="-81462" lat="60.7392611071" lon="5.54903610492">
		<tag k="name" v="Tungevasskaret" />
		<tag k="natural" v="hill" />
		<tag k="place" v="locality" />
		<tag k="ssr:stedsnr" v="166653" />
	</node>
	<node id="-81460" lat="60.6894694473" lon="5.40156667042">
		<tag k="name" v="Gjelsvikabrekkena" />
		<tag k="natural" v="slope" />
		<tag k="place" v="locality" />
		<tag k="ssr:stedsnr" v="166570" />
	</node>
	<node id="-81457" lat="60.6931833355" lon="5.50666943785">
		<tag k="name" v="Tverrdalshaugen" />
		<tag k="natural" v="hill" />
		<tag k="place" v="locality" />
		<tag k="ssr:stedsnr" v="166558" />
	</node>
	<node id="-81456" lat="60.5897972178" lon="5.1289499974">
		<tag k="fixme" v="consider natural=peak for the most distinct mountains in the district" />
		<tag k="name" v="Åsen" />
		<tag k="natural" v="hill" />
		<tag k="place" v="locality" />
		<tag k="ssr:stedsnr" v="166496" />
	</node>
	<node id="-81444" lat="60.6480222206" lon="5.35349167157">
		<tag k="name" v="Oksevasshaugane" />
		<tag k="natural" v="hill" />
		<tag k="place" v="locality" />
		<tag k="ssr:stedsnr" v="166469" />
	</node>
	<node id="-81440" lat="60.7693194422" lon="5.02758055253">
		<tag k="name" v="Høgevarden" />
		<tag k="natural" v="hill" />
		<tag k="place" v="locality" />
		<tag k="ssr:stedsnr" v="166458" />
	</node>
	<node id="-81439" lat="60.5555138866" lon="5.10242500629">
		<tag k="name" v="Jonsbotnen" />
		<tag k="natural" v="valley" />
		<tag k="place" v="locality" />
		<tag k="ssr:stedsnr" v="166457" />
	</node>
	<node id="-81437" lat="60.7171294254" lon="5.31189984992">
		<tag k="name" v="Høghøyen" />
		<tag k="natural" v="hill" />
		<tag k="place" v="locality" />
		<tag k="ssr:stedsnr" v="166364" />
	</node>
	<node id="-81436" lat="60.7069111077" lon="4.94676945343">
		<tag k="name" v="Grøvledalen" />
		<tag k="natural" v="valley" />
		<tag k="place" v="locality" />
		<tag k="ssr:stedsnr" v="166361" />
	</node>
	<node id="-81435" lat="60.7144249968" lon="5.29731667312">
		<tag k="name" v="Hovdane" />
		<tag k="natural" v="hill" />
		<tag k="place" v="locality" />
		<tag k="ssr:stedsnr" v="166360" />
	</node>
	<node id="-81434" lat="60.7167339756" lon="5.30138870723">
		<tag k="name" v="Apalhøyen" />
		<tag k="natural" v="hill" />
		<tag k="place" v="locality" />
		<tag k="ssr:stedsnr" v="166355" />
	</node>
	<node id="-81433" lat="60.6208916708" lon="5.43719445127">
		<tag k="name" v="Smørdalen" />
		<tag k="natural" v="valley" />
		<tag k="place" v="locality" />
		<tag k="ssr:stedsnr" v="166300" />
	</node>
	<node id="-81431" lat="60.6121027775" lon="5.43511666678">
		<tag k="name" v="Haugardsdalen" />
		<tag k="natural" v="valley" />
		<tag k="place" v="locality" />
		<tag k="ssr:stedsnr" v="166291" />
	</node>
	<node id="-81430" lat="60.6024277795" lon="5.37510832762">
		<tag k="fixme" v="consider natural=peak for the most distinct mountains in the district" />
		<tag k="name" v="Storåsen" />
		<tag k="natural" v="hill" />
		<tag k="place" v="locality" />
		<tag k="ssr:stedsnr" v="166276" />
	</node>
	<node id="-81427" lat="60.7487722267" lon="5.1518388922">
		<tag k="name" v="Lauvåshaugen" />
		<tag k="natural" v="hill" />
		<tag k="place" v="locality" />
		<tag k="ssr:stedsnr" v="166262" />
	</node>
	<node id="-81426" lat="60.7468472232" lon="5.15185277641">
		<tag k="name" v="Hesthaugen" />
		<tag k="natural" v="hill" />
		<tag k="place" v="locality" />
		<tag k="ssr:stedsnr" v="166261" />
	</node>
	<node id="-81425" lat="60.7475166668" lon="5.14958333559">
		<tag k="fixme" v="consider natural=peak for the most distinct mountains in the district" />
		<tag k="name" v="Grønfjellet" />
		<tag k="natural" v="hill" />
		<tag k="place" v="locality" />
		<tag k="ssr:stedsnr" v="166260" />
	</node>
	<node id="-81424" lat="60.7429527759" lon="5.11839166946">
		<tag k="name" v="Hovden" />
		<tag k="place" v="locality" />
		<tag k="ssr:stedsnr" v="166259" />
	</node>
	<node id="-81419" lat="60.741261115" lon="5.19510832978">
		<tag k="name" v="Gåsetjørnhaugen" />
		<tag k="natural" v="hill" />
		<tag k="place" v="locality" />
		<tag k="ssr:stedsnr" v="166215" />
	</node>
	<node id="-81417" lat="60.7761388855" lon="5.12090555472">
		<tag k="name" v="Nesstrumhaugane" />
		<tag k="natural" v="hill" />
		<tag k="place" v="locality" />
		<tag k="ssr:stedsnr" v="166207" />
	</node>
	<node id="-81415" lat="60.6264083344" lon="5.34643056223">
		<tag k="name" v="Storbotnen" />
		<tag k="natural" v="valley" />
		<tag k="place" v="locality" />
		<tag k="ssr:stedsnr" v="166068" />
	</node>
	<node id="-81414" lat="60.6081888853" lon="5.29376667589">
		<tag k="name" v="Vatnedalen" />
		<tag k="natural" v="valley" />
		<tag k="place" v="locality" />
		<tag k="ssr:stedsnr" v="166061" />
	</node>
	<node id="-81410" lat="60.6112166707" lon="5.40573333016">
		<tag k="name" v="Merkesdalen" />
		<tag k="natural" v="valley" />
		<tag k="place" v="locality" />
		<tag k="ssr:stedsnr" v="166310" />
	</node>
	<node id="-81407" lat="60.6079333329" lon="5.42302500371">
		<tag k="name" v="Ekrane" />
		<tag k="place" v="locality" />
		<tag k="ssr:stedsnr" v="166307" />
	</node>
	<node id="-81405" lat="60.5826861144" lon="5.28948611774">
		<tag k="fixme" v="consider natural=peak for the most distinct mountains in the district" />
		<tag k="name" v="Grindåsen" />
		<tag k="natural" v="hill" />
		<tag k="place" v="locality" />
		<tag k="ssr:stedsnr" v="166175" />
	</node>
	<node id="-81404" lat="60.6619861096" lon="5.13540834146">
		<tag k="name" v="Austre Utgjerdet" />
		<tag k="place" v="locality" />
		<tag k="ssr:stedsnr" v="166160" />
	</node>
	<node id="-81400" lat="60.5647055548" lon="5.23495278508">
		<tag k="name" v="Svartaberget" />
		<tag k="natural" v="hill" />
		<tag k="place" v="locality" />
		<tag k="ssr:stedsnr" v="166114" />
	</node>
	<node id="-81398" lat="60.5992722178" lon="5.34168333145">
		<tag k="name" v="Stokken" />
		<tag k="natural" v="slope" />
		<tag k="place" v="locality" />
		<tag k="ssr:stedsnr" v="166103" />
	</node>
	<node id="-81396" lat="60.5970333319" lon="5.19614165786">
		<tag k="name" v="Skaret" />
		<tag k="natural" v="valley" />
		<tag k="place" v="locality" />
		<tag k="ssr:stedsnr" v="165809" />
	</node>
	<node id="-81394" lat="60.702866669" lon="5.52277222758">
		<tag k="fixme" v="consider natural=peak for the most distinct mountains in the district" />
		<tag k="name" v="Giljafjellet" />
		<tag k="natural" v="hill" />
		<tag k="place" v="locality" />
		<tag k="ssr:stedsnr" v="165713" />
	</node>
	<node id="-81393" lat="60.6026999979" lon="5.42796944451">
		<tag k="name" v="Svaena" />
		<tag k="natural" v="ridge" />
		<tag k="place" v="locality" />
		<tag k="ssr:stedsnr" v="165252" />
	</node>
	<node id="-81392" lat="60.6615277761" lon="5.15746944065">
		<tag k="fixme" v="consider natural=peak for the most distinct mountains in the district" />
		<tag k="name" v="Skotsundfjellet" />
		<tag k="natural" v="hill" />
		<tag k="place" v="locality" />
		<tag k="ssr:stedsnr" v="165373" />
	</node>
	<node id="-81388" lat="60.649752776" lon="5.30418056274">
		<tag k="name" v="Tjørndalen" />
		<tag k="natural" v="valley" />
		<tag k="place" v="locality" />
		<tag k="ssr:stedsnr" v="165082" />
	</node>
	<node id="-81359" lat="60.754605559" lon="5.07777499544">
		<tag k="name" v="Gamlasvea" />
		<tag k="natural" v="hill" />
		<tag k="place" v="locality" />
		<tag k="ssr:stedsnr" v="267115" />
	</node>
	<node id="-81356" lat="60.7610222201" lon="5.6595611142">
		<tag k="fixme" v="consider natural=peak for the most distinct mountains in the district" />
		<tag k="name" v="Storlifjellet" />
		<tag k="natural" v="hill" />
		<tag k="place" v="locality" />
		<tag k="ssr:stedsnr" v="130045" />
	</node>
	<node id="-81345" lat="60.7328138876" lon="5.66010832697">
		<tag k="fixme" v="consider natural=peak for the most distinct mountains in the district" />
		<tag k="name" v="Storfjellet" />
		<tag k="natural" v="hill" />
		<tag k="place" v="locality" />
		<tag k="ssr:stedsnr" v="127328" />
	</node>
	<node id="-81344" lat="60.7086055543" lon="5.55899445294">
		<tag k="name" v="Aurdalen" />
		<tag k="natural" v="valley" />
		<tag k="place" v="locality" />
		<tag k="ssr:stedsnr" v="127322" />
	</node>
	<node id="-81337" lat="60.6382111119" lon="5.25556944986">
		<tag k="fixme" v="consider natural=peak for the most distinct mountains in the district" />
		<tag k="name" v="Blåfjellet" />
		<tag k="natural" v="hill" />
		<tag k="place" v="locality" />
		<tag k="ssr:stedsnr" v="127233" />
	</node>
	<node id="-81331" lat="60.6446388878" lon="5.1561694363">
		<tag k="name" v="Eldsvarden" />
		<tag k="natural" v="hill" />
		<tag k="place" v="locality" />
		<tag k="ssr:stedsnr" v="127209" />
	</node>
	<node id="-81319" lat="60.8363805556" lon="5.65797499415">
		<tag k="alt_name" v="Godbotnsfjellet" />
		<tag k="fixme" v="consider natural=peak for the most distinct mountains in the district" />
		<tag k="name" v="Godbotsfjellet" />
		<tag k="natural" v="hill" />
		<tag k="place" v="locality" />
		<tag k="ssr:stedsnr" v="251418" />
	</node>
	<node id="-81318" lat="60.8172416704" lon="5.67218888108">
		<tag k="name" v="Instebotnen" />
		<tag k="natural" v="valley" />
		<tag k="place" v="locality" />
		<tag k="ssr:stedsnr" v="251400" />
	</node>
	<node id="-81313" lat="60.7611611088" lon="5.63754445188">
		<tag k="fixme" v="consider natural=peak for the most distinct mountains in the district" />
		<tag k="name" v="Langedalsfjellet" />
		<tag k="natural" v="hill" />
		<tag k="place" v="locality" />
		<tag k="ssr:stedsnr" v="251039" />
	</node>
	<node id="-81303" lat="60.6409055526" lon="5.04862223083">
		<tag k="name" v="Hesthaugen" />
		<tag k="natural" v="hill" />
		<tag k="place" v="locality" />
		<tag k="ssr:stedsnr" v="82222" />
	</node>
	<node id="-81298" lat="60.5982999979" lon="5.05388611709">
		<tag k="fixme" v="consider natural=peak for the most distinct mountains in the district" />
		<tag k="name" v="Hånipa" />
		<tag k="natural" v="hill" />
		<tag k="place" v="locality" />
		<tag k="ssr:stedsnr" v="249931" />
	</node>
	<node id="-81277" lat="60.716349996" lon="5.60752500837">
		<tag k="fixme" v="consider natural=peak for the most distinct mountains in the district" />
		<tag k="name" v="Hellersfjellet" />
		<tag k="natural" v="hill" />
		<tag k="place" v="locality" />
		<tag k="ssr:stedsnr" v="249291" />
	</node>
	<node id="-81275" lat="60.705716663" lon="5.52611111172">
		<tag k="name" v="Merkesdalen" />
		<tag k="natural" v="valley" />
		<tag k="place" v="locality" />
		<tag k="ssr:stedsnr" v="249274" />
	</node>
	<node id="-81274" lat="60.711819448" lon="5.58731667034">
		<tag k="fixme" v="consider natural=peak for the most distinct mountains in the district" />
		<tag k="name" v="Geitfjellet" />
		<tag k="natural" v="hill" />
		<tag k="place" v="locality" />
		<tag k="ssr:stedsnr" v="249267" />
	</node>
	<node id="-81272" lat="60.6538750005" lon="5.19583333289">
		<tag k="name" v="Langerinden" />
		<tag k="natural" v="slope" />
		<tag k="place" v="locality" />
		<tag k="ssr:stedsnr" v="249222" />
	</node>
	<node id="-81266" lat="60.5889111122" lon="5.24666388095">
		<tag k="name" v="Kvamsfjellet" />
		<tag k="natural" v="hill" />
		<tag k="place" v="locality" />
		<tag k="ssr:stedsnr" v="249100" />
	</node>
	<node id="-81253" lat="60.6384805529" lon="5.56701110838">
		<tag k="name" v="Storberget" />
		<tag k="natural" v="hill" />
		<tag k="place" v="locality" />
		<tag k="ssr:stedsnr" v="248713" />
	</node>
	<node id="-81250" lat="60.7188000028" lon="5.1388250041">
		<tag k="fixme" v="consider natural=peak for the most distinct mountains in the district" />
		<tag k="name" v="Rosshovden" />
		<tag k="natural" v="hill" />
		<tag k="place" v="locality" />
		<tag k="ssr:stedsnr" v="248655" />
	</node>
	<node id="-81247" lat="60.7360694479" lon="5.58211388467">
		<tag k="alt_name" v="Eggjane" />
		<tag k="fixme" v="consider natural=peak for the most distinct mountains in the district" />
		<tag k="name" v="Eggene" />
		<tag k="natural" v="hill" />
		<tag k="place" v="locality" />
		<tag k="ssr:stedsnr" v="248423" />
	</node>
	<node id="-81246" lat="60.6827388891" lon="5.55263332584">
		<tag k="name" v="Hokøydalen" />
		<tag k="natural" v="valley" />
		<tag k="place" v="locality" />
		<tag k="ssr:stedsnr" v="248330" />
	</node>
	<node id="-81241" lat="60.5801444463" lon="5.1478250076">
		<tag k="fixme" v="consider natural=peak for the most distinct mountains in the district" />
		<tag k="name" v="Gaustadfjellet" />
		<tag k="natural" v="hill" />
		<tag k="place" v="locality" />
		<tag k="ssr:stedsnr" v="248106" />
	</node>
	<node id="-81239" lat="60.6305638869" lon="5.19898333251">
		<tag k="name" v="Skardstveiten" />
		<tag k="natural" v="hill" />
		<tag k="place" v="locality" />
		<tag k="ssr:stedsnr" v="248042" />
	</node>
	<node id="-81237" lat="60.6438277749" lon="5.4195472192">
		<tag k="name" v="Skorene" />
		<tag k="natural" v="hill" />
		<tag k="place" v="locality" />
		<tag k="ssr:stedsnr" v="248032" />
	</node>
	<node id="-81225" lat="60.7066555587" lon="5.02725555185">
		<tag k="fixme" v="consider natural=peak for the most distinct mountains in the district" />
		<tag k="name" v="Åsane" />
		<tag k="natural" v="hill" />
		<tag k="place" v="locality" />
		<tag k="ssr:stedsnr" v="67811" />
	</node>
	<node id="-81224" lat="60.7053666662" lon="5.01145554903">
		<tag k="fixme" v="consider natural=peak for the most distinct mountains in the district" />
		<tag k="name" v="Lyngåsen" />
		<tag k="natural" v="hill" />
		<tag k="place" v="locality" />
		<tag k="ssr:stedsnr" v="67810" />
	</node>
	<node id="-81210" lat="60.5506027753" lon="5.05388054859">
		<tag k="fixme" v="consider natural=peak for the most distinct mountains in the district" />
		<tag k="name" v="Lifjellet" />
		<tag k="natural" v="hill" />
		<tag k="place" v="locality" />
		<tag k="ssr:stedsnr" v="66902" />
	</node>
	<node id="-81209" lat="60.7226916634" lon="5.55873332575">
		<tag k="fixme" v="consider natural=peak for the most distinct mountains in the district" />
		<tag k="name" v="Vikaheia" />
		<tag k="natural" v="hill" />
		<tag k="place" v="locality" />
		<tag k="ssr:stedsnr" v="66311" />
	</node>
	<node id="-81204" lat="60.5375361071" lon="5.12800277322">
		<tag k="name" v="Hjelpedalen" />
		<tag k="natural" v="valley" />
		<tag k="place" v="locality" />
		<tag k="ssr:stedsnr" v="46402" />
	</node>
	<node id="-81203" lat="60.5721472218" lon="5.14552500358">
		<tag k="fixme" v="consider natural=peak for the most distinct mountains in the district" />
		<tag k="name" v="Stemmerinden" />
		<tag k="natural" v="hill" />
		<tag k="place" v="locality" />
		<tag k="ssr:stedsnr" v="46504" />
	</node>
	<node id="-81202" lat="60.5652583319" lon="5.13154999375">
		<tag k="fixme" v="consider natural=peak for the most distinct mountains in the district" />
		<tag k="name" v="Brunåsen" />
		<tag k="natural" v="hill" />
		<tag k="place" v="locality" />
		<tag k="ssr:stedsnr" v="46503" />
	</node>
	<node id="-81201" lat="60.5821861068" lon="5.15387222231">
		<tag k="fixme" v="consider natural=peak for the most distinct mountains in the district" />
		<tag k="name" v="Erdalsleitet" />
		<tag k="natural" v="hill" />
		<tag k="place" v="locality" />
		<tag k="ssr:stedsnr" v="46502" />
	</node>
	<node id="-81200" lat="60.7133111085" lon="5.61182222299">
		<tag k="fixme" v="consider natural=peak for the most distinct mountains in the district" />
		<tag k="name" v="Nipa" />
		<tag k="natural" v="hill" />
		<tag k="ssr:stedsnr" v="45518" />
	</node>
	<node id="-81199" lat="60.6226555575" lon="5.10701389656">
		<tag k="name" v="Leitena" />
		<tag k="natural" v="hill" />
		<tag k="place" v="locality" />
		<tag k="ssr:stedsnr" v="45514" />
	</node>
	<node id="-81197" lat="60.6229166691" lon="5.10173332719">
		<tag k="name" v="Stolen" />
		<tag k="place" v="locality" />
		<tag k="ssr:stedsnr" v="45507" />
	</node>
	<node id="-81196" lat="60.6298166641" lon="5.47290277586">
		<tag k="name" v="Grava" />
		<tag k="place" v="locality" />
		<tag k="ssr:stedsnr" v="45504" />
	</node>
	<node id="-81195" lat="60.67468889" lon="5.59657777297">
		<tag k="name" v="Langhelleren" />
		<tag k="place" v="locality" />
		<tag k="ssr:stedsnr" v="45749" />
	</node>
	<node id="-81194" lat="60.6789388891" lon="5.50267500095">
		<tag k="name" v="Øvre Godbotnen" />
		<tag k="natural" v="valley" />
		<tag k="place" v="locality" />
		<tag k="ssr:stedsnr" v="45744" />
	</node>
	<node id="-81193" lat="60.67310278" lon="5.51501667209">
		<tag k="name" v="Kjellrusta" />
		<tag k="place" v="locality" />
		<tag k="ssr:stedsnr" v="45738" />
	</node>
	<node id="-81190" lat="60.6128555567" lon="5.13982221833">
		<tag k="name" v="Storstølhaugen" />
		<tag k="natural" v="hill" />
		<tag k="place" v="locality" />
		<tag k="ssr:stedsnr" v="44727" />
	</node>
	<node id="-81188" lat="60.6961972259" lon="5.52824999453">
		<tag k="name" v="Svartebotnen" />
		<tag k="natural" v="valley" />
		<tag k="place" v="locality" />
		<tag k="ssr:stedsnr" v="44716" />
	</node>
	<node id="-81187" lat="60.7147444482" lon="5.02578334132">
		<tag k="name" v="Nøstnesdalen" />
		<tag k="natural" v="valley" />
		<tag k="place" v="locality" />
		<tag k="ssr:stedsnr" v="44705" />
	</node>
	<node id="-81185" lat="60.6145805518" lon="5.34448332726">
		<tag k="name" v="Stegalia" />
		<tag k="natural" v="slope" />
		<tag k="place" v="locality" />
		<tag k="ssr:stedsnr" v="44038" />
	</node>
	<node id="-81184" lat="60.5843888847" lon="5.34005833021">
		<tag k="name" v="Kolbotnane" />
		<tag k="natural" v="valley" />
		<tag k="place" v="locality" />
		<tag k="ssr:stedsnr" v="44028" />
	</node>
	<node id="-81180" lat="60.5929888924" lon="5.24844166651">
		<tag k="name" v="Årdalen" />
		<tag k="natural" v="valley" />
		<tag k="place" v="locality" />
		<tag k="ssr:stedsnr" v="44001" />
	</node>
	<node id="-81176" lat="60.5335999991" lon="5.21141943968">
		<tag k="fixme" v="consider natural=peak for the most distinct mountains in the district" />
		<tag k="name" v="Fløyen" />
		<tag k="natural" v="hill" />
		<tag k="place" v="locality" />
		<tag k="ssr:stedsnr" v="228441" />
	</node>
	<node id="-81175" lat="60.5342388926" lon="5.18391389122">
		<tag k="name" v="Ranen" />
		<tag k="natural" v="hill" />
		<tag k="place" v="locality" />
		<tag k="ssr:stedsnr" v="228427" />
	</node>
	<node id="-81174" lat="60.5268277774" lon="5.17877778458">
		<tag k="fixme" v="consider natural=peak for the most distinct mountains in the district" />
		<tag k="name" v="Nipa" />
		<tag k="natural" v="hill" />
		<tag k="place" v="locality" />
		<tag k="ssr:stedsnr" v="228426" />
	</node>
	<node id="-81170" lat="60.5479722187" lon="5.04370555526">
		<tag k="name" v="Varden" />
		<tag k="natural" v="hill" />
		<tag k="place" v="locality" />
		<tag k="ssr:stedsnr" v="228390" />
	</node>
	<node id="-81168" lat="60.5834361091" lon="5.02537221565">
		<tag k="name" v="Oksla" />
		<tag k="natural" v="slope" />
		<tag k="place" v="locality" />
		<tag k="ssr:stedsnr" v="228383" />
	</node>
	<node id="-81167" lat="60.5822722228" lon="5.039680548">
		<tag k="fixme" v="consider natural=peak for the most distinct mountains in the district" />
		<tag k="name" v="Ravnefjellet" />
		<tag k="natural" v="hill" />
		<tag k="place" v="locality" />
		<tag k="ssr:stedsnr" v="228375" />
	</node>
	<node id="-81166" lat="60.5295999973" lon="5.18939445003">
		<tag k="name" v="Kråkedalen" />
		<tag k="natural" v="valley" />
		<tag k="place" v="locality" />
		<tag k="ssr:stedsnr" v="228372" />
	</node>
	<node id="-81165" lat="60.5310388913" lon="5.24002777412">
		<tag k="fixme" v="consider natural=peak for the most distinct mountains in the district" />
		<tag k="name" v="Kråkåsen" />
		<tag k="natural" v="hill" />
		<tag k="place" v="locality" />
		<tag k="ssr:stedsnr" v="228301" />
	</node>
	<node id="-81164" lat="60.539783335" lon="5.2575861072">
		<tag k="name" v="Skjenhøyen" />
		<tag k="natural" v="hill" />
		<tag k="place" v="locality" />
		<tag k="ssr:stedsnr" v="228299" />
	</node>
	<node id="-81158" lat="60.7365083363" lon="5.66026945128">
		<tag k="fixme" v="consider natural=peak for the most distinct mountains in the district" />
		<tag k="name" v="Storefjellet" />
		<tag k="natural" v="hill" />
		<tag k="place" v="locality" />
		<tag k="ssr:stedsnr" v="227949" />
	</node>
	<node id="-81156" lat="60.7279055547" lon="5.66228889767">
		<tag k="name" v="Åsneshaugen" />
		<tag k="natural" v="hill" />
		<tag k="place" v="locality" />
		<tag k="ssr:stedsnr" v="227984" />
	</node>
	<node id="-81155" lat="60.7908333351" lon="5.66288611249">
		<tag k="name" v="Smådalane" />
		<tag k="natural" v="valley" />
		<tag k="place" v="locality" />
		<tag k="ssr:stedsnr" v="227886" />
	</node>
	<node id="-81153" lat="60.7531944491" lon="5.6051444519">
		<tag k="name" v="Stussdalen" />
		<tag k="natural" v="valley" />
		<tag k="place" v="locality" />
		<tag k="ssr:stedsnr" v="227793" />
	</node>
	<node id="-81152" lat="60.7556805544" lon="5.64273888981">
		<tag k="name" v="Geitlia" />
		<tag k="natural" v="slope" />
		<tag k="place" v="locality" />
		<tag k="ssr:stedsnr" v="227787" />
	</node>
	<node id="-81150" lat="60.7302972209" lon="5.60048611323">
		<tag k="name" v="Eikskogsbrynena" />
		<tag k="place" v="locality" />
		<tag k="ssr:stedsnr" v="227931" />
	</node>
	<node id="-81149" lat="60.7708861125" lon="5.61300277904">
		<tag k="name" v="Taushaugane" />
		<tag k="natural" v="hill" />
		<tag k="place" v="locality" />
		<tag k="ssr:stedsnr" v="227918" />
	</node>
	<node id="-81148" lat="60.7593916635" lon="5.57219444441">
		<tag k="name" v="Kuperinden" />
		<tag k="natural" v="ridge" />
		<tag k="place" v="locality" />
		<tag k="ssr:stedsnr" v="227849" />
	</node>
	<node id="-81147" lat="60.7192999986" lon="5.53882223096">
		<tag k="name" v="Øvste Leitet" />
		<tag k="natural" v="slope" />
		<tag k="place" v="locality" />
		<tag k="ssr:stedsnr" v="227838" />
	</node>
	<node id="-81146" lat="60.7257527757" lon="5.54748054842">
		<tag k="name" v="Bjørnebotnen" />
		<tag k="natural" v="valley" />
		<tag k="place" v="locality" />
		<tag k="ssr:stedsnr" v="227835" />
	</node>
	<node id="-81145" lat="60.7312944406" lon="5.55543054798">
		<tag k="name" v="Haugselbotnen" />
		<tag k="natural" v="valley" />
		<tag k="place" v="locality" />
		<tag k="ssr:stedsnr" v="227829" />
	</node>
	<node id="-81142" lat="60.7236222227" lon="5.56826388658">
		<tag k="name" v="Eikedalen" />
		<tag k="natural" v="valley" />
		<tag k="place" v="locality" />
		<tag k="ssr:stedsnr" v="227669" />
	</node>
	<node id="-81141" lat="60.7250194459" lon="5.57192221841">
		<tag k="name" v="Aldalen" />
		<tag k="natural" v="valley" />
		<tag k="place" v="locality" />
		<tag k="ssr:stedsnr" v="227667" />
	</node>
	<node id="-81140" lat="60.7336111071" lon="5.5083666697">
		<tag k="name" v="Settuptena" />
		<tag k="place" v="locality" />
		<tag k="ssr:stedsnr" v="227660" />
	</node>
	<node id="-81139" lat="60.6712205862" lon="5.04730145645">
		<tag k="name" v="Bjørkhøyen" />
		<tag k="natural" v="hill" />
		<tag k="place" v="locality" />
		<tag k="ssr:stedsnr" v="227658" />
	</node>
	<node id="-81138" lat="60.6407694415" lon="5.07773056237">
		<tag k="fixme" v="consider natural=peak for the most distinct mountains in the district" />
		<tag k="name" v="Risfjellet" />
		<tag k="natural" v="hill" />
		<tag k="place" v="locality" />
		<tag k="ssr:stedsnr" v="227598" />
	</node>
	<node id="-81136" lat="60.6720638869" lon="5.42185833389">
		<tag k="name" v="Sjonkletten" />
		<tag k="natural" v="hill" />
		<tag k="place" v="locality" />
		<tag k="ssr:stedsnr" v="227588" />
	</node>
	<node id="-81135" lat="60.6916222256" lon="5.38982499901">
		<tag k="name" v="Stegane" />
		<tag k="natural" v="slope" />
		<tag k="place" v="locality" />
		<tag k="ssr:stedsnr" v="227580" />
	</node>
	<node id="-81134" lat="60.6823833304" lon="5.40063611292">
		<tag k="name" v="Møydalen" />
		<tag k="natural" v="valley" />
		<tag k="place" v="locality" />
		<tag k="ssr:stedsnr" v="227577" />
	</node>
	<node id="-81131" lat="60.6647694483" lon="5.0739027779">
		<tag k="name" v="Stegen" />
		<tag k="natural" v="hill" />
		<tag k="place" v="locality" />
		<tag k="ssr:stedsnr" v="227569" />
	</node>
	<node id="-81130" lat="60.6620777745" lon="5.08711667467">
		<tag k="name" v="Bjørnhovden" />
		<tag k="natural" v="hill" />
		<tag k="place" v="locality" />
		<tag k="ssr:stedsnr" v="227563" />
	</node>
	<node id="-81126" lat="60.7151111105" lon="4.98904444969">
		<tag k="name" v="Hesthovden" />
		<tag k="natural" v="hill" />
		<tag k="place" v="locality" />
		<tag k="ssr:stedsnr" v="227487" />
	</node>
	<node id="-81124" lat="60.7544750007" lon="5.53705000779">
		<tag k="name" v="Ulvagjelet" />
		<tag k="natural" v="valley" />
		<tag k="place" v="locality" />
		<tag k="ssr:stedsnr" v="227635" />
	</node>
	<node id="-81122" lat="60.6784249973" lon="5.08382223036">
		<tag k="name" v="Nordre Eidshaugane" />
		<tag k="natural" v="hill" />
		<tag k="place" v="locality" />
		<tag k="ssr:stedsnr" v="227546" />
	</node>
	<node id="-81121" lat="60.6939249962" lon="5.11272499524">
		<tag k="name" v="Navhaugen" />
		<tag k="natural" v="hill" />
		<tag k="place" v="locality" />
		<tag k="ssr:stedsnr" v="227540" />
	</node>
	<node id="-81120" lat="60.6372805595" lon="5.36671388768">
		<tag k="name" v="Hatlebotnen" />
		<tag k="natural" v="valley" />
		<tag k="place" v="locality" />
		<tag k="ssr:stedsnr" v="227451" />
	</node>
	<node id="-81119" lat="60.7117472229" lon="4.99482221397">
		<tag k="name" v="Hesthovdskaret" />
		<tag k="natural" v="valley" />
		<tag k="place" v="locality" />
		<tag k="ssr:stedsnr" v="227449" />
	</node>
	<node id="-81118" lat="60.6112888867" lon="5.09638612046">
		<tag k="fixme" v="consider natural=peak for the most distinct mountains in the district" />
		<tag k="name" v="Litlafjellet" />
		<tag k="natural" v="hill" />
		<tag k="place" v="locality" />
		<tag k="ssr:stedsnr" v="227447" />
	</node>
	<node id="-81117" lat="60.6347555576" lon="5.41403610765">
		<tag k="name" v="Slettebakkane" />
		<tag k="natural" v="slope" />
		<tag k="place" v="locality" />
		<tag k="ssr:stedsnr" v="227443" />
	</node>
	<node id="-81116" lat="60.6398444429" lon="5.41611666">
		<tag k="fixme" v="consider natural=peak for the most distinct mountains in the district" />
		<tag k="name" v="Saufjellet" />
		<tag k="natural" v="hill" />
		<tag k="place" v="locality" />
		<tag k="ssr:stedsnr" v="227434" />
	</node>
	<node id="-81113" lat="60.6630222193" lon="5.12228889577">
		<tag k="name" v="Storhaugane" />
		<tag k="natural" v="hill" />
		<tag k="place" v="locality" />
		<tag k="ssr:stedsnr" v="227351" />
	</node>
	<node id="-81105" lat="60.6601888848" lon="4.98615833967">
		<tag k="name" v="Vardhøyen" />
		<tag k="natural" v="hill" />
		<tag k="place" v="locality" />
		<tag k="ssr:stedsnr" v="227290" />
	</node>
	<node id="-81100" lat="60.7080027807" lon="5.3210750004">
		<tag k="name" v="Gamlehaugane" />
		<tag k="natural" v="hill" />
		<tag k="place" v="locality" />
		<tag k="ssr:stedsnr" v="227254" />
	</node>
	<node id="-81099" lat="60.7067072974" lon="5.30867667533">
		<tag k="name" v="Storhøyen" />
		<tag k="natural" v="hill" />
		<tag k="place" v="locality" />
		<tag k="ssr:stedsnr" v="227251" />
	</node>
	<node id="-81098" lat="60.7029361151" lon="5.29599999563">
		<tag k="name" v="Lauvålen" />
		<tag k="natural" v="ridge" />
		<tag k="place" v="locality" />
		<tag k="ssr:stedsnr" v="227245" />
	</node>
	<node id="-81096" lat="60.6717250032" lon="5.32171111744">
		<tag k="name" v="Geitstigen" />
		<tag k="natural" v="slope" />
		<tag k="place" v="locality" />
		<tag k="ssr:stedsnr" v="227229" />
	</node>
	<node id="-81093" lat="60.6736040087" lon="5.27362662625">
		<tag k="name" v="Hushøyen" />
		<tag k="natural" v="hill" />
		<tag k="place" v="locality" />
		<tag k="ssr:stedsnr" v="227222" />
	</node>
	<node id="-81090" lat="60.6736277773" lon="5.25750000006">
		<tag k="name" v="Erdalen" />
		<tag k="natural" v="valley" />
		<tag k="place" v="locality" />
		<tag k="ssr:stedsnr" v="227214" />
	</node>
	<node id="-81089" lat="60.6765666697" lon="5.23506944861">
		<tag k="fixme" v="consider natural=peak for the most distinct mountains in the district" />
		<tag k="name" v="Tvibergåsen" />
		<tag k="natural" v="hill" />
		<tag k="place" v="locality" />
		<tag k="ssr:stedsnr" v="227208" />
	</node>
	<node id="-81088" lat="60.7679583319" lon="5.65626110497">
		<tag k="name" v="Trodalen" />
		<tag k="natural" v="valley" />
		<tag k="place" v="locality" />
		<tag k="ssr:stedsnr" v="227198" />
	</node>
	<node id="-81087" lat="60.6843083336" lon="5.3166805611">
		<tag k="fixme" v="consider natural=peak for the most distinct mountains in the district" />
		<tag k="name" v="Åsen" />
		<tag k="natural" v="hill" />
		<tag k="place" v="locality" />
		<tag k="ssr:stedsnr" v="227190" />
	</node>
	<node id="-81083" lat="60.6795166673" lon="5.30237500689">
		<tag k="name" v="Revurdalen" />
		<tag k="natural" v="valley" />
		<tag k="place" v="locality" />
		<tag k="ssr:stedsnr" v="227174" />
	</node>
	<node id="-81082" lat="60.7242416661" lon="5.26668333818">
		<tag k="fixme" v="consider natural=peak for the most distinct mountains in the district" />
		<tag k="name" v="Grønåsen" />
		<tag k="natural" v="hill" />
		<tag k="place" v="locality" />
		<tag k="ssr:stedsnr" v="227172" />
	</node>
	<node id="-81080" lat="60.5695277786" lon="5.28120556091">
		<tag k="fixme" v="consider natural=peak for the most distinct mountains in the district" />
		<tag k="name" v="Viddalsfjellet" />
		<tag k="natural" v="hill" />
		<tag k="place" v="locality" />
		<tag k="ssr:stedsnr" v="227166" />
	</node>
	<node id="-81079" lat="60.5629333362" lon="5.27466111535">
		<tag k="name" v="Vassberget" />
		<tag k="natural" v="hill" />
		<tag k="place" v="locality" />
		<tag k="ssr:stedsnr" v="227164" />
	</node>
	<node id="-81078" lat="60.7149722252" lon="5.23802221542">
		<tag k="name" v="Andrakvila" />
		<tag k="natural" v="ridge" />
		<tag k="place" v="locality" />
		<tag k="ssr:stedsnr" v="227162" />
	</node>
	<node id="-81077" lat="60.7288942303" lon="5.23945386777">
		<tag k="name" v="Svehøyen" />
		<tag k="natural" v="hill" />
		<tag k="place" v="locality" />
		<tag k="ssr:stedsnr" v="227159" />
	</node>
	<node id="-81076" lat="60.7225721266" lon="5.28710725326">
		<tag k="name" v="Mørehøyen" />
		<tag k="natural" v="hill" />
		<tag k="place" v="locality" />
		<tag k="ssr:stedsnr" v="227157" />
	</node>
	<node id="-81071" lat="60.5833555583" lon="5.32660000337">
		<tag k="name" v="Brunena" />
		<tag k="place" v="locality" />
		<tag k="ssr:stedsnr" v="227132" />
	</node>
	<node id="-81069" lat="60.5670635229" lon="5.23917624118">
		<tag k="name" v="Buhøyen" />
		<tag k="natural" v="hill" />
		<tag k="place" v="locality" />
		<tag k="ssr:stedsnr" v="227119" />
	</node>
	<node id="-81068" lat="60.5815194468" lon="5.25501667445">
		<tag k="name" v="Stonghaugaledet" />
		<tag k="place" v="locality" />
		<tag k="ssr:stedsnr" v="227113" />
	</node>
	<node id="-81066" lat="60.5817000001" lon="5.33995834214">
		<tag k="fixme" v="consider natural=peak for the most distinct mountains in the district" />
		<tag k="name" v="Dalafjellet" />
		<tag k="natural" v="hill" />
		<tag k="place" v="locality" />
		<tag k="ssr:stedsnr" v="227100" />
	</node>
	<node id="-81065" lat="60.6520555555" lon="5.32974444449">
		<tag k="name" v="Strupane" />
		<tag k="place" v="locality" />
		<tag k="ssr:stedsnr" v="227098" />
	</node>
	<node id="-81064" lat="60.54268333" lon="5.27621666015">
		<tag k="name" v="Gulnakken" />
		<tag k="natural" v="ridge" />
		<tag k="place" v="locality" />
		<tag k="ssr:stedsnr" v="227095" />
	</node>
	<node id="-81063" lat="60.5610166686" lon="5.27463611437">
		<tag k="name" v="Rakhola" />
		<tag k="natural" v="valley" />
		<tag k="place" v="locality" />
		<tag k="ssr:stedsnr" v="227092" />
	</node>
	<node id="-81062" lat="60.6627555593" lon="5.34180277849">
		<tag k="name" v="Trollhaugane" />
		<tag k="natural" v="hill" />
		<tag k="place" v="locality" />
		<tag k="ssr:stedsnr" v="227088" />
	</node>
	<node id="-81060" lat="60.819430556" lon="5.68439999157">
		<tag k="name" v="Instebotshaugen" />
		<tag k="natural" v="hill" />
		<tag k="place" v="locality" />
		<tag k="ssr:stedsnr" v="227075" />
	</node>
	<node id="-81058" lat="60.540408336" lon="5.21210000643">
		<tag k="fixme" v="consider natural=peak for the most distinct mountains in the district" />
		<tag k="name" v="Moldekleivfjellet" />
		<tag k="natural" v="hill" />
		<tag k="place" v="locality" />
		<tag k="ssr:stedsnr" v="227072" />
	</node>
	<node id="-81057" lat="60.6114777798" lon="5.31105833472">
		<tag k="name" v="Kleivdalsdalen" />
		<tag k="natural" v="valley" />
		<tag k="place" v="locality" />
		<tag k="ssr:stedsnr" v="227071" />
	</node>
	<node id="-81056" lat="60.808966664" lon="5.69286666309">
		<tag k="name" v="Ådlandshaugen" />
		<tag k="natural" v="hill" />
		<tag k="place" v="locality" />
		<tag k="ssr:stedsnr" v="227066" />
	</node>
	<node id="-81055" lat="60.6346416678" lon="5.32310277029">
		<tag k="fixme" v="consider natural=peak for the most distinct mountains in the district" />
		<tag k="name" v="Monsåsen" />
		<tag k="natural" v="hill" />
		<tag k="place" v="locality" />
		<tag k="ssr:stedsnr" v="227064" />
	</node>
	<node id="-81054" lat="60.8082638861" lon="5.60862500457">
		<tag k="name" v="Bukkanova" />
		<tag k="place" v="locality" />
		<tag k="ssr:stedsnr" v="227063" />
	</node>
	<node id="-81053" lat="60.6183861068" lon="5.28235277858">
		<tag k="fixme" v="consider natural=peak for the most distinct mountains in the district" />
		<tag k="name" v="Husfjellet" />
		<tag k="natural" v="hill" />
		<tag k="place" v="locality" />
		<tag k="ssr:stedsnr" v="227053" />
	</node>
	<node id="-81052" lat="60.7847500026" lon="5.01688611988">
		<tag k="name" v="Mulhammaren" />
		<tag k="place" v="locality" />
		<tag k="ssr:stedsnr" v="227045" />
	</node>
	<node id="-81051" lat="60.8480777796" lon="5.70939443634">
		<tag k="name" v="Vemundsbotnen" />
		<tag k="natural" v="valley" />
		<tag k="place" v="locality" />
		<tag k="ssr:stedsnr" v="227034" />
	</node>
	<node id="-81050" lat="60.6454166708" lon="5.3364055508">
		<tag k="fixme" v="consider natural=peak for the most distinct mountains in the district" />
		<tag k="name" v="Heggeråsen" />
		<tag k="natural" v="hill" />
		<tag k="place" v="locality" />
		<tag k="ssr:stedsnr" v="227021" />
	</node>
	<node id="-81049" lat="60.5895722254" lon="5.23767500306">
		<tag k="name" v="Hovden" />
		<tag k="natural" v="hill" />
		<tag k="place" v="locality" />
		<tag k="ssr:stedsnr" v="227014" />
	</node>
	<node id="-81048" lat="60.6126916677" lon="5.30187222714">
		<tag k="name" v="Fløya" />
		<tag k="natural" v="cliff" />
		<tag k="ssr:stedsnr" v="227012" />
	</node>
	<node id="-81047" lat="60.8067416708" lon="5.64102500763">
		<tag k="name" v="Småfessena" />
		<tag k="place" v="locality" />
		<tag k="ssr:stedsnr" v="227004" />
	</node>
	<node id="-81046" lat="60.5864249957" lon="5.24524444759">
		<tag k="name" v="Bårdstigen" />
		<tag k="natural" v="slope" />
		<tag k="place" v="locality" />
		<tag k="ssr:stedsnr" v="227002" />
	</node>
	<node id="-81045" lat="60.7984805528" lon="5.61007223023">
		<tag k="name" v="Stallane" />
		<tag k="natural" v="hill" />
		<tag k="place" v="locality" />
		<tag k="ssr:stedsnr" v="226982" />
	</node>
	<node id="-81043" lat="60.6337111128" lon="5.14005277292">
		<tag k="name" v="Skjoraberget" />
		<tag k="natural" v="hill" />
		<tag k="place" v="locality" />
		<tag k="ssr:stedsnr" v="226853" />
	</node>
	<node id="-81042" lat="60.6281416706" lon="5.16235277964">
		<tag k="name" v="Støleberget" />
		<tag k="natural" v="slope" />
		<tag k="place" v="locality" />
		<tag k="ssr:stedsnr" v="226841" />
	</node>
	<node id="-81041" lat="60.5883055532" lon="5.18643333825">
		<tag k="name" v="Fagervollen" />
		<tag k="natural" v="hill" />
		<tag k="place" v="locality" />
		<tag k="ssr:stedsnr" v="226821" />
	</node>
	<node id="-81040" lat="60.5875611076" lon="5.18994444978">
		<tag k="fixme" v="consider natural=peak for the most distinct mountains in the district" />
		<tag k="name" v="Hånipa" />
		<tag k="natural" v="hill" />
		<tag k="place" v="locality" />
		<tag k="ssr:stedsnr" v="226819" />
	</node>
	<node id="-81037" lat="60.6126027776" lon="5.18187777371">
		<tag k="name" v="Kollhaugen" />
		<tag k="natural" v="hill" />
		<tag k="place" v="locality" />
		<tag k="ssr:stedsnr" v="226797" />
	</node>
	<node id="-81036" lat="60.605577778" lon="5.15214166302">
		<tag k="name" v="Bjorhammaren" />
		<tag k="place" v="locality" />
		<tag k="ssr:stedsnr" v="226793" />
	</node>
	<node id="-81034" lat="60.7084333327" lon="5.55110834106">
		<tag k="fixme" v="consider natural=peak for the most distinct mountains in the district" />
		<tag k="name" v="Storafjellet" />
		<tag k="natural" v="hill" />
		<tag k="place" v="locality" />
		<tag k="ssr:stedsnr" v="226777" />
	</node>
	<node id="-81033" lat="60.6238388869" lon="5.155194442">
		<tag k="name" v="Utlehaugen" />
		<tag k="natural" v="hill" />
		<tag k="place" v="locality" />
		<tag k="ssr:stedsnr" v="226773" />
	</node>
	<node id="-81031" lat="60.7128500024" lon="5.52571667348">
		<tag k="name" v="Grindaleitet" />
		<tag k="natural" v="slope" />
		<tag k="place" v="locality" />
		<tag k="ssr:stedsnr" v="226748" />
	</node>
	<node id="-81030" lat="60.7140666698" lon="5.53205833065">
		<tag k="name" v="Skolten" />
		<tag k="natural" v="hill" />
		<tag k="place" v="locality" />
		<tag k="ssr:stedsnr" v="226747" />
	</node>
	<node id="-81026" lat="60.7164305538" lon="4.99748611183">
		<tag k="name" v="Blommen" />
		<tag k="place" v="locality" />
		<tag k="ssr:stedsnr" v="226734" />
	</node>
	<node id="-81024" lat="60.713088891" lon="5.01087222051">
		<tag k="name" v="Kråthaugen" />
		<tag k="natural" v="hill" />
		<tag k="place" v="locality" />
		<tag k="ssr:stedsnr" v="226714" />
	</node>
	<node id="-81023" lat="60.6660754047" lon="5.37090363797">
		<tag k="name" v="Vadhøyen" />
		<tag k="natural" v="hill" />
		<tag k="place" v="locality" />
		<tag k="ssr:stedsnr" v="226541" />
	</node>
	<node id="-81019" lat="60.58499167" lon="5.12568611215">
		<tag k="fixme" v="consider natural=peak for the most distinct mountains in the district" />
		<tag k="name" v="Bårafjellet" />
		<tag k="natural" v="hill" />
		<tag k="place" v="locality" />
		<tag k="ssr:stedsnr" v="226528" />
	</node>
	<node id="-81018" lat="60.7828888875" lon="5.02124167186">
		<tag k="name" v="Revbåsen" />
		<tag k="place" v="locality" />
		<tag k="ssr:stedsnr" v="226525" />
	</node>
	<node id="-81016" lat="60.5848805586" lon="5.15843056266">
		<tag k="fixme" v="consider natural=peak for the most distinct mountains in the district" />
		<tag k="name" v="Kalvhusåsen" />
		<tag k="natural" v="hill" />
		<tag k="place" v="locality" />
		<tag k="ssr:stedsnr" v="226519" />
	</node>
	<node id="-81015" lat="60.6677093378" lon="5.35662179846">
		<tag k="name" v="Høghøyen" />
		<tag k="natural" v="hill" />
		<tag k="place" v="locality" />
		<tag k="ssr:stedsnr" v="226514" />
	</node>
	<node id="-81014" lat="60.6510583364" lon="5.38471110221">
		<tag k="name" v="Dalen" />
		<tag k="natural" v="valley" />
		<tag k="place" v="locality" />
		<tag k="ssr:stedsnr" v="226513" />
	</node>
	<node id="-81013" lat="60.7791694464" lon="5.01557777832">
		<tag k="name" v="Etterskaret" />
		<tag k="natural" v="hill" />
		<tag k="place" v="locality" />
		<tag k="ssr:stedsnr" v="226502" />
	</node>
	<node id="-81011" lat="60.7232722252" lon="4.95237221999">
		<tag k="name" v="Storevarden" />
		<tag k="natural" v="hill" />
		<tag k="place" v="locality" />
		<tag k="ssr:stedsnr" v="226496" />
	</node>
	<node id="-81005" lat="60.7324305595" lon="4.925699996">
		<tag k="name" v="Maurvaldhaugen" />
		<tag k="natural" v="hill" />
		<tag k="place" v="locality" />
		<tag k="ssr:stedsnr" v="226449" />
	</node>
	<node id="-81000" lat="60.661758331" lon="5.16718056427">
		<tag k="fixme" v="consider natural=peak for the most distinct mountains in the district" />
		<tag k="name" v="Mauråsen" />
		<tag k="natural" v="hill" />
		<tag k="place" v="locality" />
		<tag k="ssr:stedsnr" v="226412" />
	</node>
	<node id="-80996" lat="60.6164194407" lon="5.40916945309">
		<tag k="name" v="Revhaugane" />
		<tag k="natural" v="hill" />
		<tag k="place" v="locality" />
		<tag k="ssr:stedsnr" v="226354" />
	</node>
	<node id="-80995" lat="60.6111361243" lon="5.41295426011">
		<tag k="name" v="Kolhøyen" />
		<tag k="natural" v="hill" />
		<tag k="place" v="locality" />
		<tag k="ssr:stedsnr" v="226353" />
	</node>
	<node id="-80993" lat="60.7079416656" lon="5.14722499828">
		<tag k="name" v="Furehaugen" />
		<tag k="natural" v="hill" />
		<tag k="place" v="locality" />
		<tag k="ssr:stedsnr" v="226326" />
	</node>
	<node id="-80989" lat="60.6015055549" lon="5.39309165767">
		<tag k="fixme" v="consider natural=peak for the most distinct mountains in the district" />
		<tag k="name" v="Solåsen" />
		<tag k="natural" v="hill" />
		<tag k="place" v="locality" />
		<tag k="ssr:stedsnr" v="226315" />
	</node>
	<node id="-80984" lat="60.6055833373" lon="5.3572138933">
		<tag k="name" v="Heiena" />
		<tag k="natural" v="hill" />
		<tag k="place" v="locality" />
		<tag k="ssr:stedsnr" v="226304" />
	</node>
	<node id="-80981" lat="60.6766527783" lon="5.21132500587">
		<tag k="name" v="Brønndalen" />
		<tag k="natural" v="valley" />
		<tag k="place" v="locality" />
		<tag k="ssr:stedsnr" v="226258" />
	</node>
	<node id="-80980" lat="60.6758416666" lon="5.20418610314">
		<tag k="name" v="Skarveberget" />
		<tag k="natural" v="hill" />
		<tag k="place" v="locality" />
		<tag k="ssr:stedsnr" v="226252" />
	</node>
	<node id="-80976" lat="60.587611111" lon="5.30193332737">
		<tag k="name" v="Vestefjellsliane" />
		<tag k="natural" v="slope" />
		<tag k="place" v="locality" />
		<tag k="ssr:stedsnr" v="226120" />
	</node>
	<node id="-80971" lat="60.6580861099" lon="5.38316388014">
		<tag k="name" v="Maurdalen" />
		<tag k="natural" v="valley" />
		<tag k="place" v="locality" />
		<tag k="ssr:stedsnr" v="226076" />
	</node>
	<node id="-80970" lat="60.6201694404" lon="5.32868610965">
		<tag k="fixme" v="consider natural=peak for the most distinct mountains in the district" />
		<tag k="name" v="Jerfjellet" />
		<tag k="natural" v="hill" />
		<tag k="place" v="locality" />
		<tag k="ssr:stedsnr" v="226073" />
	</node>
	<node id="-80969" lat="60.5613888893" lon="5.20008611356">
		<tag k="fixme" v="consider natural=peak for the most distinct mountains in the district" />
		<tag k="name" v="Stølåsen" />
		<tag k="natural" v="hill" />
		<tag k="place" v="locality" />
		<tag k="ssr:stedsnr" v="226067" />
	</node>
	<node id="-80968" lat="60.6139166704" lon="5.31861666051">
		<tag k="fixme" v="consider natural=peak for the most distinct mountains in the district" />
		<tag k="name" v="Baståsen" />
		<tag k="natural" v="hill" />
		<tag k="place" v="locality" />
		<tag k="ssr:stedsnr" v="226056" />
	</node>
	<node id="-80967" lat="60.6134861104" lon="5.24174445152">
		<tag k="name" v="Hovden" />
		<tag k="natural" v="hill" />
		<tag k="place" v="locality" />
		<tag k="ssr:stedsnr" v="226050" />
	</node>
	<node id="-80965" lat="60.5435916647" lon="5.17405833972">
		<tag k="fixme" v="consider natural=peak for the most distinct mountains in the district" />
		<tag k="name" v="Nipena" />
		<tag k="natural" v="hill" />
		<tag k="place" v="locality" />
		<tag k="ssr:stedsnr" v="226039" />
	</node>
	<node id="-80964" lat="60.545130554" lon="5.17870000332">
		<tag k="name" v="Salbukletten" />
		<tag k="place" v="locality" />
		<tag k="ssr:stedsnr" v="226036" />
	</node>
	<node id="-80962" lat="60.6116777806" lon="5.25558333659">
		<tag k="name" v="Ormekletten" />
		<tag k="natural" v="ridge" />
		<tag k="place" v="locality" />
		<tag k="ssr:stedsnr" v="226031" />
	</node>
	<node id="-80960" lat="60.5931972234" lon="5.2869833393">
		<tag k="fixme" v="consider natural=peak for the most distinct mountains in the district" />
		<tag k="name" v="Svetoppen" />
		<tag k="natural" v="hill" />
		<tag k="ssr:stedsnr" v="226024" />
	</node>
	<node id="-80958" lat="60.5911249989" lon="5.33782222681">
		<tag k="name" v="Rindane" />
		<tag k="natural" v="ridge" />
		<tag k="place" v="locality" />
		<tag k="ssr:stedsnr" v="226017" />
	</node>
	<node id="-80957" lat="60.5914277803" lon="5.2602000007">
		<tag k="name" v="Kråkstidalen" />
		<tag k="natural" v="valley" />
		<tag k="place" v="locality" />
		<tag k="ssr:stedsnr" v="226004" />
	</node>
	<node id="-82121" lat="60.7762666693" lon="5.02181665922">
		<tag k="name" v="Storhaugen" />
		<tag k="natural" v="hill" />
		<tag k="place" v="locality" />
		<tag k="ssr:stedsnr" v="348457" />
	</node>
	<node id="-82118" lat="60.6387416625" lon="5.48810555762">
		<tag k="name" v="Storbotnen" />
		<tag k="natural" v="valley" />
		<tag k="place" v="locality" />
		<tag k="ssr:stedsnr" v="348503" />
	</node>
	<node id="-82116" lat="60.6165000032" lon="5.217266658">
		<tag k="name" v="Selevollsberget" />
		<tag k="natural" v="hill" />
		<tag k="place" v="locality" />
		<tag k="ssr:stedsnr" v="348365" />
	</node>
	<node id="-82115" lat="60.6206444442" lon="5.22855278611">
		<tag k="fixme" v="consider natural=peak for the most distinct mountains in the district" />
		<tag k="name" v="Monstadfjellet" />
		<tag k="natural" v="hill" />
		<tag k="place" v="locality" />
		<tag k="ssr:stedsnr" v="348360" />
	</node>
	<node id="-82110" lat="60.6215472246" lon="5.36018332965">
		<tag k="name" v="Torvvassbrekkena" />
		<tag k="natural" v="slope" />
		<tag k="place" v="locality" />
		<tag k="ssr:stedsnr" v="348317" />
	</node>
	<node id="-82109" lat="60.6309055534" lon="5.19670277415">
		<tag k="fixme" v="consider natural=peak for the most distinct mountains in the district" />
		<tag k="name" v="Skarsveten" />
		<tag k="natural" v="hill" />
		<tag k="ssr:stedsnr" v="348316" />
	</node>
	<node id="-82108" lat="60.6412750027" lon="5.18832222086">
		<tag k="name" v="Skjenstø" />
		<tag k="natural" v="ridge" />
		<tag k="place" v="locality" />
		<tag k="ssr:stedsnr" v="348314" />
	</node>
	<node id="-82107" lat="60.6378486204" lon="5.18549514199">
		<tag k="name" v="Ljøshøyen" />
		<tag k="natural" v="hill" />
		<tag k="place" v="locality" />
		<tag k="ssr:stedsnr" v="348313" />
	</node>
	<node id="-82106" lat="60.6930194474" lon="4.94743332637">
		<tag k="name" v="Gode-kvile" />
		<tag k="place" v="locality" />
		<tag k="ssr:stedsnr" v="348307" />
	</node>
	<node id="-82100" lat="60.6348388897" lon="5.40894723065">
		<tag k="name" v="Budalen" />
		<tag k="natural" v="valley" />
		<tag k="place" v="locality" />
		<tag k="ssr:stedsnr" v="348415" />
	</node>
	<node id="-82096" lat="60.5998138879" lon="5.36964999745">
		<tag k="fixme" v="consider natural=peak for the most distinct mountains in the district" />
		<tag k="name" v="Fyllingaåsen" />
		<tag k="natural" v="hill" />
		<tag k="place" v="locality" />
		<tag k="ssr:stedsnr" v="348268" />
	</node>
	<node id="-82091" lat="60.6731555576" lon="5.30670833997">
		<tag k="name" v="Storbotnen" />
		<tag k="natural" v="valley" />
		<tag k="place" v="locality" />
		<tag k="ssr:stedsnr" v="348223" />
	</node>
	<node id="-82087" lat="60.6261027783" lon="5.3325666598">
		<tag k="name" v="Reinen" />
		<tag k="natural" v="ridge" />
		<tag k="place" v="locality" />
		<tag k="ssr:stedsnr" v="348053" />
	</node>
	<node id="-82086" lat="60.6595527757" lon="5.28055278277">
		<tag k="name" v="Nakken" />
		<tag k="natural" v="ridge" />
		<tag k="place" v="locality" />
		<tag k="ssr:stedsnr" v="348118" />
	</node>
	<node id="-82085" lat="60.729002241" lon="5.29223561651">
		<tag k="name" v="Feskeglehøyen" />
		<tag k="natural" v="hill" />
		<tag k="place" v="locality" />
		<tag k="ssr:stedsnr" v="348114" />
	</node>
	<node id="-82084" lat="60.5710361115" lon="5.30014166911">
		<tag k="name" v="Fjellkinna" />
		<tag k="natural" v="slope" />
		<tag k="place" v="locality" />
		<tag k="ssr:stedsnr" v="348113" />
	</node>
	<node id="-82083" lat="60.5643222263" lon="5.33236388471">
		<tag k="name" v="Njukane" />
		<tag k="natural" v="ridge" />
		<tag k="place" v="locality" />
		<tag k="ssr:stedsnr" v="348112" />
	</node>
	<node id="-82082" lat="60.5603216313" lon="5.15683313239">
		<tag k="name" v="Hestnesberget" />
		<tag k="natural" v="hill" />
		<tag k="place" v="locality" />
		<tag k="ssr:stedsnr" v="348021" />
	</node>
	<node id="-82081" lat="60.7094166706" lon="5.26569444393">
		<tag k="name" v="Stølsdalen" />
		<tag k="natural" v="valley" />
		<tag k="place" v="locality" />
		<tag k="ssr:stedsnr" v="348017" />
	</node>
	<node id="-82077" lat="60.6997805532" lon="5.2393472264">
		<tag k="fixme" v="consider natural=peak for the most distinct mountains in the district" />
		<tag k="name" v="Åsen" />
		<tag k="natural" v="hill" />
		<tag k="place" v="locality" />
		<tag k="ssr:stedsnr" v="348002" />
	</node>
	<node id="-82076" lat="60.6757916624" lon="4.98412499631">
		<tag k="name" v="Sekjedalshøyen" />
		<tag k="natural" v="hill" />
		<tag k="place" v="locality" />
		<tag k="ssr:stedsnr" v="347454" />
	</node>
	<node id="-82075" lat="60.6738777808" lon="5.14086111523">
		<tag k="name" v="Stålhatten" />
		<tag k="natural" v="hill" />
		<tag k="place" v="locality" />
		<tag k="ssr:stedsnr" v="347259" />
	</node>
	<node id="-82072" lat="60.5998694454" lon="5.27288889746">
		<tag k="fixme" v="consider natural=peak for the most distinct mountains in the district" />
		<tag k="name" v="Husfjellet" />
		<tag k="natural" v="hill" />
		<tag k="place" v="locality" />
		<tag k="ssr:stedsnr" v="347006" />
	</node>
	<node id="-82067" lat="60.826291668" lon="5.68893333458">
		<tag k="name" v="Sørdalen" />
		<tag k="natural" v="valley" />
		<tag k="place" v="locality" />
		<tag k="ssr:stedsnr" v="312960" />
	</node>
	<node id="-82064" lat="60.8078444464" lon="5.70721389371">
		<tag k="fixme" v="consider natural=peak for the most distinct mountains in the district" />
		<tag k="name" v="Sørdalsnuten" />
		<tag k="natural" v="hill" />
		<tag k="place" v="locality" />
		<tag k="ssr:stedsnr" v="312485" />
	</node>
	<node id="-82062" lat="60.7873944429" lon="5.58015555268">
		<tag k="name" v="Blåurdalen" />
		<tag k="natural" v="valley" />
		<tag k="place" v="locality" />
		<tag k="ssr:stedsnr" v="312463" />
	</node>
	<node id="-82061" lat="60.7909055541" lon="5.65593055745">
		<tag k="alt_name" v="Hjortavarden;Hjortehaugen;Hjortevarden" />
		<tag k="fixme" v="consider natural=peak for the most distinct mountains in the district" />
		<tag k="name" v="Hjortahaugen" />
		<tag k="natural" v="hill" />
		<tag k="place" v="locality" />
		<tag k="ssr:stedsnr" v="312456" />
	</node>
	<node id="-82050" lat="60.6698694432" lon="5.04870278113">
		<tag k="name" v="Storevarden" />
		<tag k="natural" v="hill" />
		<tag k="place" v="locality" />
		<tag k="ssr:stedsnr" v="470677" />
	</node>
	<node id="-82044" lat="60.6955305546" lon="5.04311944801">
		<tag k="name" v="Fadalen" />
		<tag k="natural" v="valley" />
		<tag k="place" v="locality" />
		<tag k="ssr:stedsnr" v="470614" />
	</node>
	<node id="-82041" lat="60.644152774" lon="5.03258055859">
		<tag k="name" v="Jonsokhaugen" />
		<tag k="natural" v="hill" />
		<tag k="place" v="locality" />
		<tag k="ssr:stedsnr" v="470581" />
	</node>
	<node id="-82040" lat="60.6373166629" lon="5.05285556373">
		<tag k="name" v="Tømberdalen" />
		<tag k="natural" v="valley" />
		<tag k="place" v="locality" />
		<tag k="ssr:stedsnr" v="470577" />
	</node>
	<node id="-82039" lat="60.6658694489" lon="5.07553332956">
		<tag k="fixme" v="consider natural=peak for the most distinct mountains in the district" />
		<tag k="name" v="Dyråsen" />
		<tag k="natural" v="hill" />
		<tag k="place" v="locality" />
		<tag k="ssr:stedsnr" v="470562" />
	</node>
	<node id="-82038" lat="60.6536527765" lon="5.04870278202">
		<tag k="name" v="Sæterskogen" />
		<tag k="natural" v="hill" />
		<tag k="place" v="locality" />
		<tag k="ssr:stedsnr" v="470552" />
	</node>
	<node id="-82035" lat="60.6577611107" lon="5.00647221556">
		<tag k="name" v="Tunga" />
		<tag k="place" v="locality" />
		<tag k="ssr:stedsnr" v="470530" />
	</node>
	<node id="-82027" lat="60.5563222179" lon="5.11550833038">
		<tag k="fixme" v="consider natural=peak for the most distinct mountains in the district" />
		<tag k="name" v="Fjellsenden" />
		<tag k="natural" v="hill" />
		<tag k="place" v="locality" />
		<tag k="ssr:stedsnr" v="470421" />
	</node>
	<node id="-82023" lat="60.5191611104" lon="5.18531944527">
		<tag k="name" v="Kletten" />
		<tag k="place" v="locality" />
		<tag k="ssr:stedsnr" v="470358" />
	</node>
	<node id="-82022" lat="60.5281972207" lon="5.13147499626">
		<tag k="name" v="Grisetona" />
		<tag k="natural" v="hill" />
		<tag k="place" v="locality" />
		<tag k="ssr:stedsnr" v="470345" />
	</node>
	<node id="-82021" lat="60.5870722212" lon="5.19840277295">
		<tag k="name" v="Erdalen" />
		<tag k="natural" v="valley" />
		<tag k="place" v="locality" />
		<tag k="ssr:stedsnr" v="470344" />
	</node>
	<node id="-82019" lat="60.7288333296" lon="4.89113611271">
		<tag k="name" v="Vikhaugen" />
		<tag k="natural" v="hill" />
		<tag k="place" v="locality" />
		<tag k="ssr:stedsnr" v="470340" />
	</node>
	<node id="-82017" lat="60.5528722188" lon="5.02816110748">
		<tag k="name" v="Sjobuhøyen" />
		<tag k="natural" v="hill" />
		<tag k="place" v="locality" />
		<tag k="ssr:stedsnr" v="470330" />
	</node>
	<node id="-82015" lat="60.6033472202" lon="5.04323333007">
		<tag k="name" v="Bløddalen" />
		<tag k="natural" v="valley" />
		<tag k="place" v="locality" />
		<tag k="ssr:stedsnr" v="470321" />
	</node>
	<node id="-82013" lat="60.6495805542" lon="5.18537222595">
		<tag k="name" v="Botnen" />
		<tag k="natural" v="valley" />
		<tag k="place" v="locality" />
		<tag k="ssr:stedsnr" v="470314" />
	</node>
	<node id="-82012" lat="60.5283972255" lon="5.20761944847">
		<tag k="fixme" v="consider natural=peak for the most distinct mountains in the district" />
		<tag k="name" v="Åsen" />
		<tag k="natural" v="hill" />
		<tag k="place" v="locality" />
		<tag k="ssr:stedsnr" v="470312" />
	</node>
	<node id="-82011" lat="60.6561222226" lon="5.19080834036">
		<tag k="name" v="Grønsåta" />
		<tag k="natural" v="hill" />
		<tag k="place" v="locality" />
		<tag k="ssr:stedsnr" v="470311" />
	</node>
	<node id="-82002" lat="60.6517111082" lon="5.34512222604">
		<tag k="name" v="Stølaberget" />
		<tag k="natural" v="hill" />
		<tag k="place" v="locality" />
		<tag k="ssr:stedsnr" v="470063" />
	</node>
	<node id="-81998" lat="60.517922223" lon="5.20210556102">
		<tag k="name" v="Erdalen" />
		<tag k="natural" v="valley" />
		<tag k="place" v="locality" />
		<tag k="ssr:stedsnr" v="470017" />
	</node>
	<node id="-81997" lat="60.516238887" lon="5.21121665796">
		<tag k="name" v="Kloppedalen" />
		<tag k="natural" v="valley" />
		<tag k="place" v="locality" />
		<tag k="ssr:stedsnr" v="470008" />
	</node>
	<node id="-81996" lat="60.7908138882" lon="5.62057500175">
		<tag k="name" v="Timra" />
		<tag k="place" v="locality" />
		<tag k="ssr:stedsnr" v="469984" />
	</node>
	<node id="-81995" lat="60.7416333358" lon="5.64715000797">
		<tag k="name" v="Skavhjellen" />
		<tag k="place" v="locality" />
		<tag k="ssr:stedsnr" v="469967" />
	</node>
	<node id="-81994" lat="60.7395361097" lon="5.64783333534">
		<tag k="name" v="Øvstebotnane" />
		<tag k="natural" v="valley" />
		<tag k="place" v="locality" />
		<tag k="ssr:stedsnr" v="469961" />
	</node>
	<node id="-81993" lat="60.7359333346" lon="5.62284444707">
		<tag k="name" v="Snøybotnen" />
		<tag k="natural" v="valley" />
		<tag k="place" v="locality" />
		<tag k="ssr:stedsnr" v="469953" />
	</node>
	<node id="-81991" lat="60.7656555583" lon="5.6519444524">
		<tag k="name" v="Fossagjelen" />
		<tag k="natural" v="valley" />
		<tag k="place" v="locality" />
		<tag k="ssr:stedsnr" v="469910" />
	</node>
	<node id="-81990" lat="60.7849000001" lon="5.64252500493">
		<tag k="name" v="Nedstedalen" />
		<tag k="natural" v="valley" />
		<tag k="place" v="locality" />
		<tag k="ssr:stedsnr" v="469907" />
	</node>
	<node id="-81989" lat="60.7921555563" lon="5.68497222416">
		<tag k="name" v="Blombrekkena" />
		<tag k="natural" v="slope" />
		<tag k="place" v="locality" />
		<tag k="ssr:stedsnr" v="469883" />
	</node>
	<node id="-81988" lat="60.7717222253" lon="5.49903889252">
		<tag k="name" v="Svartebotnen" />
		<tag k="natural" v="valley" />
		<tag k="place" v="locality" />
		<tag k="ssr:stedsnr" v="469876" />
	</node>
	<node id="-81987" lat="60.7657403361" lon="5.53744878587">
		<tag k="name" v="Grunnevassbotnen" />
		<tag k="natural" v="valley" />
		<tag k="place" v="locality" />
		<tag k="ssr:stedsnr" v="469859" />
	</node>
	<node id="-81985" lat="60.7271583328" lon="5.54260833031">
		<tag k="name" v="Røyfita" />
		<tag k="place" v="locality" />
		<tag k="ssr:stedsnr" v="469841" />
	</node>
	<node id="-81984" lat="60.7354638885" lon="5.56901111785">
		<tag k="fixme" v="consider natural=peak for the most distinct mountains in the district" />
		<tag k="name" v="Gråsidfjellet" />
		<tag k="natural" v="hill" />
		<tag k="place" v="locality" />
		<tag k="ssr:stedsnr" v="469832" />
	</node>
	<node id="-81982" lat="60.7566111134" lon="5.60108888121">
		<tag k="name" v="Gjelet" />
		<tag k="natural" v="valley" />
		<tag k="place" v="locality" />
		<tag k="ssr:stedsnr" v="469821" />
	</node>
	<node id="-81981" lat="60.7477888851" lon="5.63028888101">
		<tag k="name" v="Svartedalen" />
		<tag k="natural" v="valley" />
		<tag k="place" v="locality" />
		<tag k="ssr:stedsnr" v="469819" />
	</node>
	<node id="-81980" lat="60.6342638878" lon="5.11746388468">
		<tag k="fixme" v="consider natural=peak for the most distinct mountains in the district" />
		<tag k="name" v="Lundsåsen" />
		<tag k="natural" v="hill" />
		<tag k="place" v="locality" />
		<tag k="ssr:stedsnr" v="469818" />
	</node>
	<node id="-81979" lat="60.7499083291" lon="5.6252694478">
		<tag k="name" v="Glypsa" />
		<tag k="place" v="locality" />
		<tag k="ssr:stedsnr" v="469816" />
	</node>
	<node id="-81978" lat="60.7519972251" lon="5.58371389231">
		<tag k="name" v="Slåttehjellen" />
		<tag k="place" v="locality" />
		<tag k="ssr:stedsnr" v="469814" />
	</node>
	<node id="-81974" lat="60.5929638887" lon="5.17106389679">
		<tag k="name" v="Krokåna" />
		<tag k="place" v="locality" />
		<tag k="ssr:stedsnr" v="469790" />
	</node>
	<node id="-81973" lat="60.7428583351" lon="5.63557500402">
		<tag k="fixme" v="consider natural=peak for the most distinct mountains in the district" />
		<tag k="name" v="Åsen" />
		<tag k="natural" v="hill" />
		<tag k="place" v="locality" />
		<tag k="ssr:stedsnr" v="469782" />
	</node>
	<node id="-81971" lat="60.6169611086" lon="5.17463610503">
		<tag k="fixme" v="consider natural=peak for the most distinct mountains in the district" />
		<tag k="name" v="Grønskaråsen" />
		<tag k="natural" v="hill" />
		<tag k="place" v="locality" />
		<tag k="ssr:stedsnr" v="469771" />
	</node>
	<node id="-81969" lat="60.7133777762" lon="5.55934443666">
		<tag k="name" v="Blomskarbotnen" />
		<tag k="natural" v="valley" />
		<tag k="place" v="locality" />
		<tag k="ssr:stedsnr" v="469759" />
	</node>
	<node id="-81967" lat="60.6178638873" lon="5.12294722681">
		<tag k="name" v="Klubben" />
		<tag k="natural" v="hill" />
		<tag k="place" v="locality" />
		<tag k="ssr:stedsnr" v="469752" />
	</node>
	<node id="-81966" lat="60.7080067784" lon="5.53079278846">
		<tag k="name" v="Nonhøyen" />
		<tag k="natural" v="hill" />
		<tag k="place" v="locality" />
		<tag k="ssr:stedsnr" v="469751" />
	</node>
	<node id="-81965" lat="60.7135777771" lon="5.56931944454">
		<tag k="name" v="Sanddalsrinden" />
		<tag k="natural" v="ridge" />
		<tag k="place" v="locality" />
		<tag k="ssr:stedsnr" v="469750" />
	</node>
	<node id="-81964" lat="60.6069333342" lon="5.15198610799">
		<tag k="name" v="Orrhaugen" />
		<tag k="natural" v="hill" />
		<tag k="place" v="locality" />
		<tag k="ssr:stedsnr" v="469749" />
	</node>
	<node id="-81960" lat="60.6122166656" lon="5.14378333017">
		<tag k="name" v="Torvdalen" />
		<tag k="natural" v="valley" />
		<tag k="place" v="locality" />
		<tag k="ssr:stedsnr" v="469733" />
	</node>
	<node id="-81958" lat="60.7019777739" lon="5.5180749995">
		<tag k="name" v="Vetlegjela" />
		<tag k="natural" v="valley" />
		<tag k="place" v="locality" />
		<tag k="ssr:stedsnr" v="469717" />
	</node>
	<node id="-81957" lat="60.7026944468" lon="5.52194721835">
		<tag k="name" v="Storgjela" />
		<tag k="natural" v="gorge" />
		<tag k="ssr:stedsnr" v="469716" />
	</node>
	<node id="-81956" lat="60.7208138847" lon="5.00506945142">
		<tag k="name" v="Kjinne" />
		<tag k="place" v="locality" />
		<tag k="ssr:stedsnr" v="469714" />
	</node>
	<node id="-81954" lat="60.7156833372" lon="5.55498611632">
		<tag k="name" v="Urdalen" />
		<tag k="natural" v="valley" />
		<tag k="place" v="locality" />
		<tag k="ssr:stedsnr" v="469701" />
	</node>
	<node id="-81953" lat="60.7148333332" lon="5.01334443653">
		<tag k="fixme" v="consider natural=peak for the most distinct mountains in the district" />
		<tag k="name" v="Domannsåsen" />
		<tag k="natural" v="hill" />
		<tag k="place" v="locality" />
		<tag k="ssr:stedsnr" v="469693" />
	</node>
	<node id="-81952" lat="60.7212694417" lon="5.51721388309">
		<tag k="name" v="Dyrshaugen" />
		<tag k="natural" v="hill" />
		<tag k="place" v="locality" />
		<tag k="ssr:stedsnr" v="469688" />
	</node>
	<node id="-81951" lat="60.7010666626" lon="5.46904722324">
		<tag k="name" v="Flatane" />
		<tag k="place" v="locality" />
		<tag k="ssr:stedsnr" v="469598" />
	</node>
	<node id="-81949" lat="60.7013527814" lon="5.47368332507">
		<tag k="name" v="Rundehaugen" />
		<tag k="natural" v="hill" />
		<tag k="place" v="locality" />
		<tag k="ssr:stedsnr" v="469583" />
	</node>
	<node id="-81947" lat="60.6371722195" lon="5.56122500938">
		<tag k="name" v="Svardalen" />
		<tag k="natural" v="valley" />
		<tag k="place" v="locality" />
		<tag k="ssr:stedsnr" v="469578" />
	</node>
	<node id="-81944" lat="60.7797722206" lon="5.00355832515">
		<tag k="name" v="Seljeberget" />
		<tag k="natural" v="hill" />
		<tag k="place" v="locality" />
		<tag k="ssr:stedsnr" v="469499" />
	</node>
	<node id="-81943" lat="60.6651722231" lon="5.45038611982">
		<tag k="name" v="Austberget" />
		<tag k="natural" v="hill" />
		<tag k="place" v="locality" />
		<tag k="ssr:stedsnr" v="469497" />
	</node>
	<node id="-81942" lat="60.7167611138" lon="4.96802222691">
		<tag k="name" v="Brevhaugen" />
		<tag k="natural" v="hill" />
		<tag k="place" v="locality" />
		<tag k="ssr:stedsnr" v="469496" />
	</node>
	<node id="-81941" lat="60.6319429505" lon="5.37371754983">
		<tag k="name" v="Storhøyen" />
		<tag k="natural" v="hill" />
		<tag k="place" v="locality" />
		<tag k="ssr:stedsnr" v="469492" />
	</node>
	<node id="-81938" lat="60.6410222251" lon="5.4214861075">
		<tag k="name" v="Skordalen" />
		<tag k="natural" v="valley" />
		<tag k="place" v="locality" />
		<tag k="ssr:stedsnr" v="469466" />
	</node>
	<node id="-81937" lat="60.7009916671" lon="5.45141110688">
		<tag k="fixme" v="consider natural=peak for the most distinct mountains in the district" />
		<tag k="name" v="Såto" />
		<tag k="natural" v="hill" />
		<tag k="ssr:stedsnr" v="469433" />
	</node>
	<node id="-81935" lat="60.7045305524" lon="5.43170834194">
		<tag k="name" v="Salen" />
		<tag k="natural" v="ridge" />
		<tag k="place" v="locality" />
		<tag k="ssr:stedsnr" v="469430" />
	</node>
	<node id="-81934" lat="60.5813583332" lon="5.20104722403">
		<tag k="fixme" v="consider natural=peak for the most distinct mountains in the district" />
		<tag k="name" v="Geitfjellet" />
		<tag k="natural" v="hill" />
		<tag k="place" v="locality" />
		<tag k="ssr:stedsnr" v="469426" />
	</node>
	<node id="-81930" lat="60.7393083343" lon="4.88770277054">
		<tag k="name" v="Krossen" />
		<tag k="natural" v="hill" />
		<tag k="place" v="locality" />
		<tag k="ssr:stedsnr" v="469418" />
	</node>
	<node id="-81924" lat="60.6753250006" lon="5.3622722226">
		<tag k="name" v="Furkammen" />
		<tag k="natural" v="ridge" />
		<tag k="place" v="locality" />
		<tag k="ssr:stedsnr" v="469404" />
	</node>
	<node id="-81923" lat="60.6130305541" lon="5.22842499265">
		<tag k="fixme" v="consider natural=peak for the most distinct mountains in the district" />
		<tag k="name" v="Elsåsfjellet" />
		<tag k="natural" v="hill" />
		<tag k="place" v="locality" />
		<tag k="ssr:stedsnr" v="469396" />
	</node>
	<node id="-81921" lat="60.7024444416" lon="4.90337222962">
		<tag k="name" v="Såthaugen" />
		<tag k="natural" v="hill" />
		<tag k="place" v="locality" />
		<tag k="ssr:stedsnr" v="469389" />
	</node>
</osm>
