<?xml version="1.0" encoding="UTF-8"?>
<osm version="0.6" generator="osmapis">
	<node lat="60.7180472211858" lon="5.273611103672593" id="-46484">
		<tag k="name" v="Krokelva" />
		<tag k="ssr:stedsnr" v="6180" />
		<tag k="waterway" v="stream" />
	</node>
	<node lat="60.70416388620211" lon="5.288750005213261" id="-46485">
		<tag k="name" v="Storelva" />
		<tag k="ssr:stedsnr" v="6181" />
		<tag k="waterway" v="stream" />
	</node>
	<node lat="60.73582500044424" lon="5.532825008016841" id="-46493">
		<tag k="name" v="Habakkelva" />
		<tag k="ssr:stedsnr" v="6468" />
		<tag k="waterway" v="stream" />
	</node>
	<node lat="60.81642618446058" lon="5.710225825615165" id="-46502">
		<tag k="alt_name" v="Djupevatnet" />
		<tag k="name" v="Djupavatnet" />
		<tag k="natural" v="water" />
		<tag k="ssr:stedsnr" v="9503" />
	</node>
	<node lat="60.59696110820369" lon="5.33467499972475" id="-46528">
		<tag k="name" v="Åstangen" />
		<tag k="natural" v="cape" />
		<tag k="ssr:stedsnr" v="44021" />
	</node>
	<node lat="60.65196666904734" lon="5.297730552467322" id="-46533">
		<tag k="name" v="Vestre Vaulen" />
		<tag k="natural" v="strait" />
		<tag k="ssr:stedsnr" v="44097" />
	</node>
	<node lat="60.727707607421486" lon="5.247312434039211" id="-46539">
		<tag k="name" v="Natåstjørna" />
		<tag k="natural" v="water" />
		<tag k="ssr:stedsnr" v="44168" />
		<tag k="water" v="pond" />
	</node>
	<node lat="60.60936666819231" lon="5.353530560307946" id="-46545">
		<tag k="name" v="Vasstangen" />
		<tag k="natural" v="cape" />
		<tag k="ssr:stedsnr" v="44316" />
	</node>
	<node lat="60.63391944359389" lon="5.149272215746366" id="-46565">
		<tag k="name" v="Kvernhusbekken" />
		<tag k="ssr:stedsnr" v="44808" />
		<tag k="waterway" v="stream" />
	</node>
	<node lat="60.69986477038151" lon="5.231520521241008" id="-46566">
		<tag k="name" v="Skodvinstjørna" />
		<tag k="natural" v="water" />
		<tag k="ssr:stedsnr" v="45004" />
	</node>
	<node lat="60.64692222652348" lon="5.339461117622414" id="-46568">
		<tag k="name" v="Kvernhuselva" />
		<tag k="ssr:stedsnr" v="45014" />
		<tag k="waterway" v="river" />
	</node>
	<node lat="60.792732500586204" lon="5.635750816171589" id="-46575">
		<tag k="name" v="Holmane" />
		<tag k="place" v="islet" />
		<tag k="ssr:stedsnr" v="44975" />
	</node>
	<node lat="60.66555775462347" lon="5.280511616706645" id="-46577">
		<tag k="name" v="Kjørslevika" />
		<tag k="natural" v="bay" />
		<tag k="ssr:stedsnr" v="45125" />
	</node>
	<node lat="60.75303118334707" lon="5.485714474791354" id="-46615">
		<tag k="name" v="Indre Klefjellvatnet" />
		<tag k="natural" v="water" />
		<tag k="ssr:stedsnr" v="45604" />
		<tag k="water" v="lake" />
	</node>
	<node lat="60.752338891188465" lon="5.51436944189215" id="-46616">
		<tag k="name" v="Fjelleelva" />
		<tag k="ssr:stedsnr" v="45606" />
		<tag k="waterway" v="river" />
	</node>
	<node lat="60.53938333057289" lon="5.065255550194566" id="-46639">
		<tag k="name" v="Rotvika" />
		<tag k="natural" v="bay" />
		<tag k="ssr:stedsnr" v="46477" />
	</node>
	<node lat="60.56225687290214" lon="5.150730153136915" id="-46640">
		<tag k="name" v="Hestdalsvatnet" />
		<tag k="natural" v="water" />
		<tag k="ssr:stedsnr" v="46491" />
	</node>
	<node lat="60.68013949276518" lon="5.48871833503876" id="-46646">
		<tag k="name" v="Nipetjørna" />
		<tag k="natural" v="water" />
		<tag k="ssr:stedsnr" v="288716" />
		<tag k="water" v="pond" />
	</node>
	<node lat="60.719886573751616" lon="5.571406957124107" id="-46665">
		<tag k="name" v="Kvamsvatnet" />
		<tag k="natural" v="water" />
		<tag k="ssr:stedsnr" v="67316" />
	</node>
	<node lat="60.641077775199385" lon="5.545027777277519" id="-46667">
		<tag k="name" v="Molvikelva" />
		<tag k="ssr:stedsnr" v="67653" />
		<tag k="waterway" v="river" />
	</node>
	<node lat="60.646735061747606" lon="5.565227969640122" id="-46669">
		<tag k="name" v="Kvernhustjørna" />
		<tag k="natural" v="water" />
		<tag k="ssr:stedsnr" v="67693" />
	</node>
	<node lat="60.68513333240717" lon="4.948686112986569" id="-46679">
		<tag k="name" v="Kvalheimsvatnet" />
		<tag k="natural" v="water" />
		<tag k="ssr:stedsnr" v="67796" />
		<tag k="water" v="lake" />
	</node>
	<node lat="60.84704061130127" lon="5.68802495351434" id="-46683">
		<tag k="name" v="Nedre Vemundsvatnet" />
		<tag k="natural" v="water" />
		<tag k="ssr:stedsnr" v="69437" />
		<tag k="water" v="lake" />
	</node>
	<node lat="60.78295502806084" lon="5.630385574541297" id="-46684">
		<tag k="name" v="Åstjørna" />
		<tag k="natural" v="water" />
		<tag k="ssr:stedsnr" v="69491" />
	</node>
	<node lat="60.83152310864818" lon="5.698772555695375" id="-46685">
		<tag k="alt_name" v="Sørdalsvatnet, heimsta" />
		<tag k="name" v="Heimsta Sørdalsvatnet" />
		<tag k="natural" v="water" />
		<tag k="ssr:stedsnr" v="69399" />
	</node>
	<node lat="60.80861111383731" lon="5.657875002354505" id="-46686">
		<tag k="name" v="Furneset" />
		<tag k="natural" v="cape" />
		<tag k="ssr:stedsnr" v="69530" />
	</node>
	<node lat="60.81361507024655" lon="5.615910793133959" id="-46687">
		<tag k="name" v="Nipetjørna" />
		<tag k="natural" v="water" />
		<tag k="ssr:stedsnr" v="69531" />
	</node>
	<node lat="60.62377777620533" lon="5.115299997007099" id="-46705">
		<tag k="alt_name" v="Ulvatnet" />
		<tag k="name" v="Ølvatnet" />
		<tag k="natural" v="water" />
		<tag k="ssr:stedsnr" v="248029" />
		<tag k="water" v="lake" />
	</node>
	<node lat="60.724016307323225" lon="5.566089858109986" id="-46710">
		<tag k="name" v="Smaldalstjørna" />
		<tag k="natural" v="water" />
		<tag k="ssr:stedsnr" v="248293" />
	</node>
	<node lat="60.6778859119819" lon="5.035669593872262" id="-46716">
		<tag k="alt_name" v="Søre Haukåstjørna;Haukåstjørna, s" />
		<tag k="name" v="Søra Haukåstjørna" />
		<tag k="natural" v="water" />
		<tag k="ssr:stedsnr" v="102808" />
	</node>
	<node lat="60.5618606554612" lon="5.12978252115378" id="-46725">
		<tag k="alt_name" v="Myrtveitvatnet" />
		<tag k="name" v="Myrtveittjørna" />
		<tag k="natural" v="water" />
		<tag k="ssr:stedsnr" v="249068" />
	</node>
	<node lat="60.59937281271399" lon="5.237869203641136" id="-46730">
		<tag k="name" v="Litlavatnet" />
		<tag k="natural" v="water" />
		<tag k="ssr:stedsnr" v="105013" />
		<tag k="water" v="lake" />
	</node>
	<node lat="60.69783049600938" lon="5.209908294848246" id="-46758">
		<tag k="name" v="Trælandstjørna" />
		<tag k="natural" v="water" />
		<tag k="ssr:stedsnr" v="105314" />
	</node>
	<node lat="60.7529403720402" lon="5.129166686445478" id="-46762">
		<tag k="name" v="Hegreneset" />
		<tag k="natural" v="cape" />
		<tag k="ssr:stedsnr" v="105272" />
	</node>
	<node lat="60.684352777123635" lon="4.951194446016815" id="-46771">
		<tag k="name" v="Brenneset" />
		<tag k="natural" v="cape" />
		<tag k="ssr:stedsnr" v="105425" />
	</node>
	<node lat="60.6878221443941" lon="5.536823382081477" id="-46802">
		<tag k="name" v="Krokavatnet" />
		<tag k="natural" v="water" />
		<tag k="ssr:stedsnr" v="249364" />
	</node>
	<node lat="60.732422217839" lon="5.60428888842433" id="-46803">
		<tag k="name" v="Seterdalselva" />
		<tag k="ssr:stedsnr" v="105937" />
		<tag k="waterway" v="river" />
	</node>
	<node lat="60.800602382165806" lon="5.6350987364977385" id="-46808">
		<tag k="name" v="Tjørna" />
		<tag k="natural" v="water" />
		<tag k="ssr:stedsnr" v="105978" />
	</node>
	<node lat="60.646978820793585" lon="5.312721660821311" id="-46813">
		<tag k="name" v="Larsaholmen" />
		<tag k="place" v="islet" />
		<tag k="ssr:stedsnr" v="106061" />
	</node>
	<node lat="60.73420429792965" lon="4.892688031320647" id="-46825">
		<tag k="name" v="Branntjørna" />
		<tag k="natural" v="water" />
		<tag k="ssr:stedsnr" v="106377" />
	</node>
	<node lat="60.755854702022134" lon="5.503537295385851" id="-46840">
		<tag k="name" v="Fisketjørna" />
		<tag k="natural" v="water" />
		<tag k="ssr:stedsnr" v="106626" />
	</node>
	<node lat="60.53180833360711" lon="5.194933335579114" id="-46843">
		<tag k="name" v="Dalevatnet" />
		<tag k="natural" v="water" />
		<tag k="ssr:stedsnr" v="249417" />
	</node>
	<node lat="60.77676666508373" lon="5.571494452639362" id="-46845">
		<tag k="name" v="Fossbotsbekken" />
		<tag k="ssr:stedsnr" v="106797" />
		<tag k="waterway" v="stream" />
	</node>
	<node lat="60.82769999777002" lon="5.667944449914203" id="-46846">
		<tag k="name" v="Heimste Geitaskarvatnet" />
		<tag k="natural" v="water" />
		<tag k="ssr:stedsnr" v="106924" />
		<tag k="water" v="lake" />
	</node>
	<node lat="60.76591687196412" lon="5.5958076663451095" id="-46847">
		<tag k="name" v="Klumpetjørna" />
		<tag k="natural" v="water" />
		<tag k="ssr:stedsnr" v="106928" />
	</node>
	<node lat="60.64933055655673" lon="5.477602770726704" id="-46861">
		<tag k="name" v="Brutjørna" />
		<tag k="natural" v="water" />
		<tag k="ssr:stedsnr" v="249647" />
	</node>
	<node lat="60.68593102946543" lon="4.978542094530043" id="-46865">
		<tag k="alt_name" v="Mykingvatnet" />
		<tag k="name" v="Mykingsvatnet" />
		<tag k="natural" v="water" />
		<tag k="ssr:stedsnr" v="249781" />
	</node>
	<node lat="60.763112262777746" lon="5.10533304923454" id="-46891">
		<tag k="name" v="Evjo" />
		<tag k="natural" v="water" />
		<tag k="ssr:stedsnr" v="251739" />
	</node>
	<node lat="60.76699444351089" lon="5.649863886792503" id="-46894">
		<tag k="alt_name" v="Eitra" />
		<tag k="name" v="Eitro" />
		<tag k="ssr:stedsnr" v="251843" />
		<tag k="waterway" v="river" />
	</node>
	<node lat="60.6267361137004" lon="5.3084000063425" id="-46895">
		<tag k="name" v="Flatholmen" />
		<tag k="place" v="islet" />
		<tag k="ssr:stedsnr" v="127043" />
	</node>
	<node lat="60.58431944628532" lon="5.3541194401201" id="-46904">
		<tag k="name" v="Piparvatnet" />
		<tag k="natural" v="water" />
		<tag k="ssr:stedsnr" v="127117" />
	</node>
	<node lat="60.7185455776573" lon="5.604663411650182" id="-46908">
		<tag k="alt_name" v="Borddalstjørna" />
		<tag k="name" v="Bordalstjørna" />
		<tag k="natural" v="water" />
		<tag k="ssr:stedsnr" v="127318" />
	</node>
	<node lat="60.74330940783743" lon="5.13953894975344" id="-46917">
		<tag k="name" v="Iletjørna" />
		<tag k="natural" v="water" />
		<tag k="ssr:stedsnr" v="128663" />
	</node>
	<node lat="60.82853055815799" lon="5.648761105574902" id="-46920">
		<tag k="alt_name" v="Øvste Nysetervatnet" />
		<tag k="name" v="Øvstavatnet" />
		<tag k="natural" v="water" />
		<tag k="ssr:stedsnr" v="129384" />
	</node>
	<node lat="60.65507777382775" lon="5.301674994405071" id="-46934">
		<tag k="name" v="Austre Vaulen" />
		<tag k="natural" v="strait" />
		<tag k="ssr:stedsnr" v="165086" />
	</node>
	<node lat="60.649771848133256" lon="5.1159972883463745" id="-46943">
		<tag k="name" v="Askelandstjørna" />
		<tag k="natural" v="water" />
		<tag k="ssr:stedsnr" v="165811" />
	</node>
	<node lat="60.79559395223699" lon="5.63971388454469" id="-46945">
		<tag k="name" v="Strandaneset" />
		<tag k="natural" v="cape" />
		<tag k="ssr:stedsnr" v="165983" />
	</node>
	<node lat="60.81409793066356" lon="5.699174536698624" id="-46947">
		<tag k="name" v="Inste Ljøsavatnet" />
		<tag k="natural" v="water" />
		<tag k="ssr:stedsnr" v="166058" />
		<tag k="water" v="lake" />
	</node>
	<node lat="60.812316665195524" lon="5.665572231414222" id="-46950">
		<tag k="loc_name" v="Instebotselva" />
		<tag k="name" v="Instebøelva" />
		<tag k="ssr:stedsnr" v="166070" />
		<tag k="waterway" v="river" />
	</node>
	<node lat="60.752080557319736" lon="5.188050001650514" id="-46958">
		<tag k="name" v="Fosselva" />
		<tag k="ssr:stedsnr" v="166221" />
		<tag k="waterway" v="river" />
	</node>
	<node lat="60.62784106553163" lon="5.214246140850032" id="-46973">
		<tag k="name" v="Skarsvatnet" />
		<tag k="natural" v="water" />
		<tag k="ssr:stedsnr" v="166320" />
	</node>
	<node lat="60.742750004075035" lon="5.52919445220228" id="-46989">
		<tag k="name" v="Kvernhuselva" />
		<tag k="ssr:stedsnr" v="166636" />
		<tag k="waterway" v="river" />
	</node>
	<node lat="60.756591174264976" lon="5.544658412335196" id="-46990">
		<tag k="name" v="Stintatjørnane" />
		<tag k="natural" v="water" />
		<tag k="ssr:stedsnr" v="166639" />
		<tag k="water" v="lake" />
	</node>
	<node lat="60.61821666949843" lon="5.127166663183281" id="-47003">
		<tag k="name" v="Holmane" />
		<tag k="place" v="islet" />
		<tag k="ssr:stedsnr" v="166717" />
	</node>
	<node lat="60.76772465601838" lon="5.495740465967156" id="-47009">
		<tag k="name" v="Tjørna" />
		<tag k="natural" v="water" />
		<tag k="ssr:stedsnr" v="166864" />
	</node>
	<node lat="60.735924281163655" lon="5.548342923458082" id="-47044">
		<tag k="name" v="Tungevatnet" />
		<tag k="natural" v="water" />
		<tag k="ssr:stedsnr" v="188490" />
	</node>
	<node lat="60.63741595344686" lon="4.9804202041108585" id="-47059">
		<tag k="alt_name" v="Storevatnet" />
		<tag k="name" v="Storavatnet" />
		<tag k="natural" v="water" />
		<tag k="ssr:stedsnr" v="188974" />
	</node>
	<node lat="60.65112173905309" lon="5.049715078503239" id="-47063">
		<tag k="fixme" v="multiple name tags, choose one and add the other to alt_name" />
		<tag k="name" v="Svartavatnet;Svartetjørna" />
		<tag k="natural" v="water" />
		<tag k="ssr:stedsnr" v="188981" />
	</node>
	<node lat="60.56990000275067" lon="5.023658338455343" id="-47071">
		<tag k="name" v="Skurtveiteidet" />
		<tag k="place" v="locality" />
		<tag k="ssr:stedsnr" v="267544" />
	</node>
	<node lat="60.70869999792394" lon="5.517688897312952" id="-47119">
		<tag k="name" v="Fitjaelva" />
		<tag k="ssr:stedsnr" v="226737" />
		<tag k="waterway" v="river" />
	</node>
	<node lat="60.64454722091452" lon="5.311672224828547" id="-47137">
		<tag k="name" v="Storvika" />
		<tag k="natural" v="bay" />
		<tag k="ssr:stedsnr" v="227073" />
	</node>
	<node lat="60.74777777847769" lon="5.603055556720517" id="-47169">
		<tag k="alt_name" v="Stemmetjørna, nedre" />
		<tag k="name" v="Nedre Stemmetjørna" />
		<tag k="natural" v="water" />
		<tag k="ssr:stedsnr" v="227794" />
	</node>
	<node lat="60.561827457800796" lon="5.152903615714567" id="-47187">
		<tag k="name" v="Grønevika" />
		<tag k="natural" v="bay" />
		<tag k="ssr:stedsnr" v="228502" />
	</node>
	<node lat="60.6100083371518" lon="5.386202775104427" id="-47254">
		<tag k="name" v="Nedgardselva" />
		<tag k="ssr:stedsnr" v="287331" />
		<tag k="waterway" v="river" />
	</node>
	<node lat="60.6660000002883" lon="5.12686112020692" id="-47259">
		<tag k="name" v="Olseelva" />
		<tag k="ssr:stedsnr" v="287408" />
		<tag k="waterway" v="river" />
	</node>
	<node lat="60.75069999737175" lon="5.586608341996585" id="-47281">
		<tag k="name" v="Stallbekken" />
		<tag k="place" v="locality" />
		<tag k="ssr:stedsnr" v="287833" />
	</node>
	<node lat="60.80355944128024" lon="5.651035799049224" id="-47289">
		<tag k="name" v="Tuptatjørna" />
		<tag k="natural" v="water" />
		<tag k="ssr:stedsnr" v="288003" />
	</node>
	<node lat="60.64296944132624" lon="5.338211105148932" id="-47292">
		<tag k="name" v="Neset" />
		<tag k="natural" v="cape" />
		<tag k="ssr:stedsnr" v="288031" />
	</node>
	<node lat="60.56345833427362" lon="4.987683333710097" id="-47307">
		<tag k="name" v="Klipholmen" />
		<tag k="place" v="islet" />
		<tag k="ssr:stedsnr" v="288284" />
	</node>
	<node lat="60.63676666746294" lon="5.377875002953644" id="-47313">
		<tag k="name" v="Lonena" />
		<tag k="natural" v="water" />
		<tag k="ssr:stedsnr" v="288406" />
		<tag k="water" v="lake" />
	</node>
	<node lat="60.72848127924232" lon="4.941270208479551" id="-47317">
		<tag k="name" v="Otertjørna" />
		<tag k="natural" v="water" />
		<tag k="ssr:stedsnr" v="288432" />
	</node>
	<node lat="60.76835555519219" lon="5.651094440882784" id="-47323">
		<tag k="name" v="Eiterdalsfossen" />
		<tag k="natural" v="waterfall" />
		<tag k="ssr:stedsnr" v="288914" />
	</node>
	<node lat="60.76669722207496" lon="5.614383326193237" id="-47325">
		<tag k="name" v="Laksebekken" />
		<tag k="ssr:stedsnr" v="288935" />
		<tag k="waterway" v="stream" />
	</node>
	<node lat="60.578280555624524" lon="5.173844444898418" id="-47331">
		<tag k="name" v="Flisa" />
		<tag k="natural" v="cape" />
		<tag k="ssr:stedsnr" v="289425" />
	</node>
	<node lat="60.573753489405235" lon="5.179582601812922" id="-47343">
		<tag k="name" v="Skogsvatnet" />
		<tag k="natural" v="water" />
		<tag k="ssr:stedsnr" v="309135" />
	</node>
	<node lat="60.73766388926863" lon="5.559533341303388" id="-47357">
		<tag k="name" v="Andevatnet" />
		<tag k="natural" v="water" />
		<tag k="ssr:stedsnr" v="309485" />
	</node>
	<node lat="60.73355000158559" lon="5.636597223885596" id="-47359">
		<tag k="name" v="Romarheimselva" />
		<tag k="ssr:stedsnr" v="309488" />
		<tag k="waterway" v="river" />
	</node>
	<node lat="60.71743522442568" lon="4.957913495669841" id="-47365">
		<tag k="alt_name" v="Storevatnet;Storavatnet" />
		<tag k="name" v="Mjøsvatnet" />
		<tag k="natural" v="water" />
		<tag k="ssr:stedsnr" v="309843" />
		<tag k="water" v="lake" />
	</node>
	<node lat="60.69814166875646" lon="4.944588891736002" id="-47368">
		<tag k="alt_name" v="Bøvatnet" />
		<tag k="name" v="Hauglandsvatnet" />
		<tag k="natural" v="water" />
		<tag k="ssr:stedsnr" v="309794" />
		<tag k="water" v="lake" />
	</node>
	<node lat="60.547955552921934" lon="5.05858611026439" id="-47369">
		<tag k="name" v="Eikelandsvatnet" />
		<tag k="natural" v="water" />
		<tag k="ssr:stedsnr" v="309914" />
		<tag k="water" v="lake" />
	</node>
	<node lat="60.64934166445633" lon="5.0711999948849265" id="-47370">
		<tag k="name" v="Storholmen" />
		<tag k="place" v="islet" />
		<tag k="ssr:stedsnr" v="309978" />
	</node>
	<node lat="60.850773128579924" lon="5.672750798139684" id="-47377">
		<tag k="name" v="Godbotsvatnet" />
		<tag k="natural" v="water" />
		<tag k="ssr:stedsnr" v="311476" />
		<tag k="water" v="lake" />
	</node>
	<node lat="60.598552781216554" lon="5.345016674273181" id="-47393">
		<tag k="name" v="Lona" />
		<tag k="natural" v="water" />
		<tag k="ssr:stedsnr" v="469036" />
		<tag k="water" v="lake" />
	</node>
	<node lat="60.59339167019554" lon="5.279391674187773" id="-47395">
		<tag k="name" v="Espelandsvatnet" />
		<tag k="natural" v="water" />
		<tag k="ssr:stedsnr" v="469042" />
		<tag k="water" v="lake" />
	</node>
	<node lat="60.6367583322431" lon="5.286950003950042" id="-47400">
		<tag k="name" v="Branninganeset" />
		<tag k="natural" v="cape" />
		<tag k="ssr:stedsnr" v="469054" />
	</node>
	<node lat="60.73404312414604" lon="5.235850059518262" id="-47407">
		<tag k="name" v="Stortjørna" />
		<tag k="natural" v="water" />
		<tag k="ssr:stedsnr" v="469130" />
	</node>
	<node lat="60.70258889009125" lon="4.970594451433166" id="-47432">
		<tag k="name" v="Neset" />
		<tag k="natural" v="cape" />
		<tag k="ssr:stedsnr" v="469348" />
	</node>
	<node lat="60.773772218608265" lon="5.575688897214881" id="-47471">
		<tag k="name" v="Setertjørna" />
		<tag k="natural" v="water" />
		<tag k="ssr:stedsnr" v="469794" />
	</node>
	<node lat="60.69782222423588" lon="5.544924993573553" id="-47474">
		<tag k="name" v="Gropabekken" />
		<tag k="ssr:stedsnr" v="469735" />
		<tag k="waterway" v="stream" />
	</node>
	<node lat="60.78443143480609" lon="5.5079541902132485" id="-47484">
		<tag k="name" v="Steinsedalselva" />
		<tag k="ssr:stedsnr" v="469830" />
		<tag k="waterway" v="river" />
	</node>
	<node lat="60.76268055141508" lon="5.5319249933020584" id="-47487">
		<tag k="name" v="Grunnevassfossen" />
		<tag k="natural" v="waterfall" />
		<tag k="ssr:stedsnr" v="469854" />
	</node>
	<node lat="60.720333330487854" lon="5.614733338678609" id="-47493">
		<tag k="name" v="Vetleurdalselva" />
		<tag k="ssr:stedsnr" v="469944" />
		<tag k="waterway" v="river" />
	</node>
	<node lat="60.64996400347846" lon="5.336497894993331" id="-47498">
		<tag k="alt_name" v="Fammstadtjørna" />
		<tag k="name" v="Fammestadtjørna" />
		<tag k="natural" v="water" />
		<tag k="ssr:stedsnr" v="470058" />
	</node>
	<node lat="60.6033416627792" lon="5.067700000737373" id="-47507">
		<tag k="name" v="Landsvikosen" />
		<tag k="natural" v="bay" />
		<tag k="ssr:stedsnr" v="470300" />
	</node>
	<node lat="60.563271346544795" lon="5.124057636182534" id="-47518">
		<tag k="name" v="Litlatjørna" />
		<tag k="natural" v="water" />
		<tag k="ssr:stedsnr" v="470435" />
	</node>
	<node lat="60.65773055112688" lon="5.049247217789648" id="-47520">
		<tag k="name" v="Vestre Knappen" />
		<tag k="natural" v="cape" />
		<tag k="ssr:stedsnr" v="470544" />
	</node>
	<node lat="60.55836666502481" lon="5.098583335078933" id="-47523">
		<tag k="name" v="Skjevleneset" />
		<tag k="natural" v="cape" />
		<tag k="ssr:stedsnr" v="470479" />
	</node>
	<node lat="60.635402779367695" lon="5.0353361147293985" id="-47526">
		<tag k="name" v="Hestvika" />
		<tag k="natural" v="bay" />
		<tag k="ssr:stedsnr" v="470582" />
	</node>
	<node lat="60.55611667016914" lon="5.072016672524327" id="-47528">
		<tag k="name" v="Storholmen" />
		<tag k="place" v="islet" />
		<tag k="ssr:stedsnr" v="470489" />
	</node>
	<node lat="60.68115833003383" lon="5.020702771345058" id="-47530">
		<tag k="name" v="Klubbeselva" />
		<tag k="ssr:stedsnr" v="470641" />
		<tag k="waterway" v="river" />
	</node>
	<node lat="60.68537541348684" lon="5.021162863456693" id="-47531">
		<tag k="alt_name" v="Lommetjørna" />
		<tag k="name" v="Lometjørna" />
		<tag k="natural" v="water" />
		<tag k="ssr:stedsnr" v="470651" />
	</node>
	<node lat="60.62725278050146" lon="5.07755555482128" id="-47532">
		<tag k="name" v="Buneset" />
		<tag k="natural" v="cape" />
		<tag k="ssr:stedsnr" v="470603" />
	</node>
	<node lat="60.62067222353076" lon="5.119730559986563" id="-47533">
		<tag k="name" v="Holeholmen" />
		<tag k="place" v="islet" />
		<tag k="ssr:stedsnr" v="470731" />
	</node>
	<node lat="60.61944444002349" lon="5.121799992186229" id="-47534">
		<tag k="name" v="Klubbholmen" />
		<tag k="place" v="islet" />
		<tag k="ssr:stedsnr" v="470750" />
	</node>
	<node lat="60.63194444002876" lon="5.304552774904199" id="-47538">
		<tag k="name" v="Kalvetrævika" />
		<tag k="natural" v="bay" />
		<tag k="ssr:stedsnr" v="347063" />
	</node>
	<node lat="60.64258055928318" lon="5.3265222155791685" id="-47542">
		<tag k="name" v="Heggerneset" />
		<tag k="natural" v="cape" />
		<tag k="ssr:stedsnr" v="348011" />
	</node>
	<node lat="60.642982028912876" lon="5.329966361985196" id="-47543">
		<tag k="name" v="Grønvika" />
		<tag k="natural" v="bay" />
		<tag k="ssr:stedsnr" v="348012" />
	</node>
	<node lat="60.61083611364452" lon="5.357933339894145" id="-47550">
		<tag k="name" v="Ilneset" />
		<tag k="natural" v="cape" />
		<tag k="ssr:stedsnr" v="348306" />
	</node>
	<node lat="60.71083611171522" lon="4.983605547747995" id="-47558">
		<tag k="name" v="Knappen" />
		<tag k="natural" v="cape" />
		<tag k="ssr:stedsnr" v="348324" />
	</node>
	<node lat="60.638644442181615" lon="5.499019446822779" id="-47580">
		<tag k="name" v="Grautevika" />
		<tag k="natural" v="bay" />
		<tag k="ssr:stedsnr" v="348510" />
	</node>
	<node lat="60.77596388490007" lon="5.629147216282769" id="-47603">
		<tag k="name" v="Nysetervatnet" />
		<tag k="natural" v="water" />
		<tag k="ssr:stedsnr" v="348905" />
		<tag k="water" v="lake" />
	</node>
	<node lat="60.59731415421468" lon="5.337832527951511" id="-47614">
		<tag k="name" v="Sjausetvatnet" />
		<tag k="natural" v="water" />
		<tag k="ssr:stedsnr" v="370035" />
		<tag k="water" v="lake" />
	</node>
	<node lat="60.705541663601814" lon="5.589763887276964" id="-47625">
		<tag k="name" v="Kvernhusbekken" />
		<tag k="ssr:stedsnr" v="370322" />
		<tag k="waterway" v="stream" />
	</node>
	<node lat="60.660482610102804" lon="5.144608134874085" id="-47626">
		<tag k="name" v="Festevatnet" />
		<tag k="natural" v="water" />
		<tag k="ssr:stedsnr" v="370265" />
	</node>
	<node lat="60.6663544372757" lon="5.273961127297881" id="-47629">
		<tag k="name" v="Vikavatnet" />
		<tag k="natural" v="water" />
		<tag k="ssr:stedsnr" v="370290" />
	</node>
	<node lat="60.543036111354816" lon="5.136308330810194" id="-47630">
		<tag k="name" v="Brakstadvatnet" />
		<tag k="natural" v="water" />
		<tag k="ssr:stedsnr" v="370469" />
	</node>
	<node lat="60.74738333524791" lon="5.547127785212834" id="-47632">
		<tag k="name" v="Storelva" />
		<tag k="ssr:stedsnr" v="370508" />
		<tag k="waterway" v="stream" />
	</node>
	<node lat="60.51304036394059" lon="5.225472815015022" id="-47654">
		<tag k="name" v="Mjåtveittjørna" />
		<tag k="natural" v="water" />
		<tag k="ssr:stedsnr" v="408007" />
	</node>
	<node lat="60.660950004133916" lon="5.259513891035311" id="-47661">
		<tag k="name" v="Nestangen" />
		<tag k="natural" v="cape" />
		<tag k="ssr:stedsnr" v="408152" />
	</node>
	<node lat="60.59491709051054" lon="5.356035095539757" id="-47662">
		<tag k="name" v="Hjelmåsvatnet" />
		<tag k="natural" v="water" />
		<tag k="ssr:stedsnr" v="408289" />
		<tag k="water" v="lake" />
	</node>
	<node lat="60.658863888357814" lon="5.436752777626673" id="-47672">
		<tag k="name" v="Nipeelva" />
		<tag k="ssr:stedsnr" v="408516" />
		<tag k="waterway" v="river" />
	</node>
	<node lat="60.60021097101481" lon="5.187116880548209" id="-47674">
		<tag k="name" v="Litletjørna" />
		<tag k="natural" v="water" />
		<tag k="ssr:stedsnr" v="408793" />
	</node>
	<node lat="60.80206111296149" lon="5.65226944197556" id="-47676">
		<tag k="name" v="Tuptabekken" />
		<tag k="ssr:stedsnr" v="409002" />
		<tag k="waterway" v="stream" />
	</node>
	<node lat="60.62883888629069" lon="5.333783328202367" id="-47677">
		<tag k="name" v="Kolåstjørna" />
		<tag k="natural" v="water" />
		<tag k="ssr:stedsnr" v="409008" />
	</node>
	<node lat="60.63074722485385" lon="5.301138884212825" id="-47678">
		<tag k="name" v="Mjåtangen" />
		<tag k="natural" v="cape" />
		<tag k="ssr:stedsnr" v="409071" />
	</node>
	<node lat="60.64582382456556" lon="5.312924890916647" id="-47679">
		<tag k="name" v="Fellneset" />
		<tag k="natural" v="cape" />
		<tag k="ssr:stedsnr" v="409077" />
	</node>
	<node lat="60.65674166683791" lon="5.315200003605929" id="-47683">
		<tag k="name" v="Kvernhuselva" />
		<tag k="ssr:stedsnr" v="409098" />
		<tag k="waterway" v="river" />
	</node>
	<node lat="60.68169999845132" lon="5.31439166525967" id="-47690">
		<tag k="name" v="Liastemma" />
		<tag k="ssr:stedsnr" v="409192" />
		<tag k="waterway" v="dam" />
	</node>
	<node lat="60.573772220191714" lon="5.3703166741878015" id="-47696">
		<tag k="name" v="Lekneselva" />
		<tag k="ssr:stedsnr" v="409325" />
		<tag k="waterway" v="river" />
	</node>
	<node lat="60.63966667072526" lon="5.09026944309094" id="-47708">
		<tag k="name" v="Stillevika" />
		<tag k="natural" v="bay" />
		<tag k="ssr:stedsnr" v="409604" />
	</node>
	<node lat="60.64403055278034" lon="5.498022228992448" id="-47720">
		<tag k="name" v="Våganeset" />
		<tag k="natural" v="cape" />
		<tag k="ssr:stedsnr" v="409520" />
	</node>
	<node lat="60.66271667046696" lon="5.050399993921558" id="-47722">
		<tag k="name" v="Austre Knappen" />
		<tag k="natural" v="cape" />
		<tag k="ssr:stedsnr" v="409543" />
	</node>
	<node lat="60.61634444373481" lon="5.121638890236539" id="-47724">
		<tag k="name" v="Kvamsøya" />
		<tag k="place" v="island" />
		<tag k="ssr:stedsnr" v="409717" />
	</node>
	<node lat="60.628837896803994" lon="5.334168309416354" id="-47752">
		<tag k="name" v="Kallsåstjørna" />
		<tag k="natural" v="water" />
		<tag k="ssr:stedsnr" v="491058" />
	</node>
	<node lat="60.68923644004088" lon="5.036877087737344" id="-47780">
		<tag k="alt_name" v="Vestvatnet" />
		<tag k="name" v="Vestevatnet" />
		<tag k="natural" v="water" />
		<tag k="ssr:stedsnr" v="431790" />
	</node>
	<node lat="60.649288891018706" lon="5.012980551776236" id="-47791">
		<tag k="alt_name" v="Trædsvatnet" />
		<tag k="name" v="Træsvatnet" />
		<tag k="natural" v="water" />
		<tag k="ssr:stedsnr" v="431987" />
	</node>
	<node lat="60.749619234537974" lon="5.539657094818703" id="-47792">
		<tag k="name" v="Kupevatnet" />
		<tag k="natural" v="water" />
		<tag k="ssr:stedsnr" v="491471" />
	</node>
	<node lat="60.74096107942727" lon="5.5870431995804095" id="-47796">
		<tag k="alt_name" v="Fjellbotstjørna" />
		<tag k="name" v="Fjellbotnstjørna" />
		<tag k="natural" v="water" />
		<tag k="ssr:stedsnr" v="491462" />
	</node>
	<node lat="60.73243333355661" lon="5.605225001931717" id="-47797">
		<tag k="name" v="Sætredalselva" />
		<tag k="ssr:stedsnr" v="491463" />
		<tag k="waterway" v="stream" />
	</node>
	<node lat="60.765672782861266" lon="5.534611760123256" id="-47801">
		<tag k="name" v="Grunnevatnet" />
		<tag k="natural" v="water" />
		<tag k="ssr:stedsnr" v="433037" />
	</node>
	<node lat="60.73993055471184" lon="5.25779444320973" id="-47805">
		<tag k="name" v="Litlavatnet" />
		<tag k="natural" v="water" />
		<tag k="ssr:stedsnr" v="491640" />
	</node>
	<node lat="60.690470861934266" lon="5.042945300788012" id="-47808">
		<tag k="alt_name" v="Ytstebøvatnet" />
		<tag k="name" v="Austevatnet" />
		<tag k="natural" v="water" />
		<tag k="ssr:stedsnr" v="491772" />
	</node>
	<node lat="60.70522499903006" lon="4.997936117610752" id="-47811">
		<tag k="alt_name" v="Klesvatnet" />
		<tag k="name" v="Klessvatnet" />
		<tag k="natural" v="water" />
		<tag k="ssr:stedsnr" v="491802" />
	</node>
	<node lat="60.631849998242544" lon="5.062024996629781" id="-47823">
		<tag k="name" v="Nesvatnet" />
		<tag k="natural" v="water" />
		<tag k="ssr:stedsnr" v="491949" />
		<tag k="water" v="lake" />
	</node>
	<node lat="60.63385979905671" lon="4.974585765113233" id="-47824">
		<tag k="alt_name" v="Litlevatnet" />
		<tag k="name" v="Litlavatnet" />
		<tag k="natural" v="water" />
		<tag k="ssr:stedsnr" v="491954" />
	</node>
	<node lat="60.671026462334694" lon="5.051628232011823" id="-47831">
		<tag k="alt_name" v="Grønstøtjørna" />
		<tag k="loc_name" v="Grønstøltjørna" />
		<tag k="name" v="Vaslavatnet" />
		<tag k="natural" v="water" />
		<tag k="ssr:stedsnr" v="492760" />
	</node>
	<node lat="60.57707499753839" lon="5.083041674727156" id="-47833">
		<tag k="name" v="Vassholmen" />
		<tag k="place" v="islet" />
		<tag k="ssr:stedsnr" v="492910" />
	</node>
	<node lat="60.76248989546628" lon="5.5699517458226255" id="-47836">
		<tag k="alt_name" v="Sætravatnet, nedre;Nedre Setervatnet" />
		<tag k="name" v="Nedre Sætravatnet" />
		<tag k="natural" v="water" />
		<tag k="ssr:stedsnr" v="493046" />
	</node>
	<node lat="60.75622499556984" lon="5.558480554814645" id="-47838">
		<tag k="name" v="Langevatnet" />
		<tag k="natural" v="water" />
		<tag k="ssr:stedsnr" v="494053" />
	</node>
	<node lat="60.74943820688436" lon="5.0927160028170215" id="-47839">
		<tag k="alt_name" v="Sjursetvatnet;Veråsvatnet" />
		<tag k="name" v="Sirsetvatnet" />
		<tag k="natural" v="water" />
		<tag k="ssr:stedsnr" v="494148" />
		<tag k="water" v="lake" />
	</node>
	<node lat="60.61859155436951" lon="5.135746048768616" id="-47863">
		<tag k="name" v="Litlavatnet" />
		<tag k="natural" v="water" />
		<tag k="ssr:stedsnr" v="673057" />
	</node>
	<node lat="60.70219567145618" lon="5.233368757941011" id="-47864">
		<tag k="alt_name" v="Skodvinsvatnet" />
		<tag k="name" v="Skodvensvatnet" />
		<tag k="natural" v="water" />
		<tag k="ssr:stedsnr" v="673190" />
		<tag k="water" v="lake" />
	</node>
	<node lat="60.74041992695324" lon="5.19915326608176" id="-47866">
		<tag k="name" v="Gåsetjørna" />
		<tag k="natural" v="water" />
		<tag k="ssr:stedsnr" v="673657" />
	</node>
	<node lat="60.65450555800206" lon="5.500455548418147" id="-47869">
		<tag k="name" v="Løypeneset" />
		<tag k="natural" v="cape" />
		<tag k="ssr:stedsnr" v="673666" />
	</node>
	<node lat="60.57748545726037" lon="5.138673561460859" id="-47870">
		<tag k="name" v="Kvernavatnet" />
		<tag k="natural" v="water" />
		<tag k="ssr:stedsnr" v="673124" />
	</node>
	<node lat="60.70226290295088" lon="4.942856633317633" id="-47888">
		<tag k="alt_name" v="Lometjørna" />
		<tag k="name" v="Lommetjørna" />
		<tag k="natural" v="water" />
		<tag k="ssr:stedsnr" v="673792" />
	</node>
	<node lat="60.65194202989827" lon="5.302638364453879" id="-47896">
		<tag k="name" v="Tveitøyna" />
		<tag k="place" v="island" />
		<tag k="ssr:stedsnr" v="674205" />
	</node>
	<node lat="60.587346442877696" lon="5.078947485185549" id="-47902">
		<tag k="name" v="Livatnet" />
		<tag k="natural" v="water" />
		<tag k="ssr:stedsnr" v="674909" />
	</node>
	<node lat="60.79805555771876" lon="5.676952782535027" id="-47904">
		<tag k="name" v="Altertjørna" />
		<tag k="natural" v="water" />
		<tag k="ssr:stedsnr" v="468975" />
	</node>
	<node lat="60.63226666944078" lon="5.321808324279063" id="-47910">
		<tag k="name" v="Søreidbekken" />
		<tag k="ssr:stedsnr" v="469067" />
		<tag k="waterway" v="stream" />
	</node>
	<node lat="60.64374406681099" lon="5.288970830065711" id="-47911">
		<tag k="name" v="Langevika" />
		<tag k="natural" v="bay" />
		<tag k="ssr:stedsnr" v="469076" />
	</node>
	<node lat="60.731963810006725" lon="5.251348612072865" id="-47931">
		<tag k="name" v="Tørrtjørna" />
		<tag k="natural" v="water" />
		<tag k="ssr:stedsnr" v="469163" />
	</node>
	<node lat="60.832060623702574" lon="5.670622374021888" id="-47935">
		<tag k="name" v="Inste Geitskarvatnet" />
		<tag k="natural" v="water" />
		<tag k="ssr:stedsnr" v="469181" />
		<tag k="water" v="lake" />
	</node>
	<node lat="60.65351058186046" lon="5.129875814602589" id="-47946">
		<tag k="name" v="Småtjørna" />
		<tag k="natural" v="water" />
		<tag k="ssr:stedsnr" v="469387" />
	</node>
	<node lat="60.78168975028041" lon="5.577481005104055" id="-47956">
		<tag k="alt_name" v="Bergulvtjørna" />
		<tag k="name" v="Bergulvatjørna" />
		<tag k="natural" v="water" />
		<tag k="ssr:stedsnr" v="675485" />
	</node>
	<node lat="60.59600555857305" lon="5.008183330291416" id="-47997">
		<tag k="name" v="Brotshaugelva" />
		<tag k="ssr:stedsnr" v="470324" />
		<tag k="waterway" v="river" />
	</node>
	<node lat="60.756490748689366" lon="5.080934919613062" id="-48011">
		<tag k="name" v="Rotevatnet" />
		<tag k="natural" v="water" />
		<tag k="ssr:stedsnr" v="676181" />
	</node>
	<node lat="60.809674999533954" lon="5.653699992735962" id="-48018">
		<tag k="name" v="Langeneset" />
		<tag k="natural" v="cape" />
		<tag k="ssr:stedsnr" v="676953" />
	</node>
	<node lat="60.62740555326454" lon="5.409841672165353" id="-48021">
		<tag k="alt_name" v="Esevatnet" />
		<tag k="name" v="Æsevatnet" />
		<tag k="natural" v="water" />
		<tag k="ssr:stedsnr" v="491006" />
		<tag k="water" v="lake" />
	</node>
	<node lat="60.71107159528904" lon="5.127277846090955" id="-48030">
		<tag k="name" v="Botnavatnet" />
		<tag k="natural" v="water" />
		<tag k="ssr:stedsnr" v="491177" />
	</node>
	<node lat="60.70556723493043" lon="5.203872043974498" id="-48033">
		<tag k="name" v="Haugstjørna" />
		<tag k="natural" v="water" />
		<tag k="ssr:stedsnr" v="491190" />
	</node>
	<node lat="60.70721983332628" lon="5.221439015613627" id="-48034">
		<tag k="name" v="Gaulevatnet" />
		<tag k="natural" v="water" />
		<tag k="ssr:stedsnr" v="491191" />
	</node>
	<node lat="60.5533666686343" lon="5.186644442216267" id="-48038">
		<tag k="name" v="Grasdalsvatnet" />
		<tag k="natural" v="water" />
		<tag k="ssr:stedsnr" v="491088" />
	</node>
	<node lat="60.65087670586599" lon="5.365342124019383" id="-48040">
		<tag k="alt_name" v="Trossvatnet" />
		<tag k="name" v="Trossavatnet" />
		<tag k="natural" v="water" />
		<tag k="ssr:stedsnr" v="491214" />
	</node>
	<node lat="60.70212984826848" lon="5.489844609745548" id="-48045">
		<tag k="name" v="Krokavatnet" />
		<tag k="natural" v="water" />
		<tag k="ssr:stedsnr" v="491292" />
	</node>
	<node lat="60.660138885426875" lon="5.049625000450652" id="-48053">
		<tag k="name" v="Storneset" />
		<tag k="natural" v="cape" />
		<tag k="ssr:stedsnr" v="491974" />
	</node>
	<node lat="60.65472871871034" lon="5.02582500013943" id="-48054">
		<tag k="name" v="Byrkjelandsvatnet" />
		<tag k="natural" v="water" />
		<tag k="ssr:stedsnr" v="491977" />
	</node>
	<node lat="60.78758889065765" lon="5.0309777782989045" id="-48063">
		<tag k="alt_name" v="Hopevatnet" />
		<tag k="name" v="Hopsvatnet" />
		<tag k="natural" v="water" />
		<tag k="ssr:stedsnr" v="494213" />
	</node>
	<node lat="60.66603055382852" lon="5.3875611172550855" id="-48085">
		<tag k="name" v="Dalselva" />
		<tag k="ssr:stedsnr" v="529490" />
		<tag k="waterway" v="river" />
	</node>
	<node lat="60.64551789712868" lon="5.329079230538938" id="-48095">
		<tag k="name" v="Breivika" />
		<tag k="natural" v="bay" />
		<tag k="ssr:stedsnr" v="530022" />
	</node>
	<node lat="60.74510279382558" lon="5.120313450906039" id="-48102">
		<tag k="name" v="Gjerdvågstjørna" />
		<tag k="natural" v="water" />
		<tag k="ssr:stedsnr" v="530129" />
	</node>
	<node lat="60.72537645357158" lon="5.277471156284031" id="-48104">
		<tag k="name" v="Tranbærtjørna" />
		<tag k="natural" v="water" />
		<tag k="ssr:stedsnr" v="530171" />
	</node>
	<node lat="60.74904798960706" lon="5.656673004915078" id="-48106">
		<tag k="name" v="Blombrekkstjørna" />
		<tag k="natural" v="water" />
		<tag k="ssr:stedsnr" v="530179" />
	</node>
	<node lat="60.810397217970475" lon="5.653169439034018" id="-48120">
		<tag k="name" v="Fitjaelva" />
		<tag k="ssr:stedsnr" v="530203" />
		<tag k="waterway" v="river" />
	</node>
	<node lat="60.75226321031663" lon="5.132744090027896" id="-48127">
		<tag k="name" v="Lammeneset" />
		<tag k="natural" v="cape" />
		<tag k="ssr:stedsnr" v="530275" />
	</node>
	<node lat="60.766767640723494" lon="5.640663730745149" id="-48170">
		<tag k="name" v="Kutjørna" />
		<tag k="natural" v="water" />
		<tag k="ssr:stedsnr" v="530906" />
	</node>
	<node lat="60.51815557152532" lon="5.205262358994523" id="-48178">
		<tag k="name" v="Tjørnane" />
		<tag k="natural" v="water" />
		<tag k="ssr:stedsnr" v="531412" />
		<tag k="water" v="lake" />
	</node>
	<node lat="60.56486335664075" lon="5.068447946730662" id="-48201">
		<tag k="name" v="Vikebøtjørna" />
		<tag k="natural" v="water" />
		<tag k="ssr:stedsnr" v="551913" />
	</node>
	<node lat="60.72671745836002" lon="5.130554753918064" id="-48202">
		<tag k="name" v="Gåsetjørna" />
		<tag k="natural" v="water" />
		<tag k="ssr:stedsnr" v="551648" />
	</node>
	<node lat="60.615138603073426" lon="5.378940589081677" id="-48203">
		<tag k="name" v="Liavatnet" />
		<tag k="natural" v="water" />
		<tag k="ssr:stedsnr" v="552036" />
	</node>
	<node lat="60.593197107665155" lon="5.350231314188382" id="-48210">
		<tag k="name" v="Haukåsvatnet" />
		<tag k="natural" v="water" />
		<tag k="ssr:stedsnr" v="552117" />
		<tag k="water" v="lake" />
	</node>
	<node lat="60.694644447974454" lon="5.216019443371543" id="-48213">
		<tag k="name" v="Litlehovdatjørna" />
		<tag k="natural" v="water" />
		<tag k="ssr:stedsnr" v="552142" />
	</node>
	<node lat="60.749251652581634" lon="5.6407187294317325" id="-48215">
		<tag k="name" v="Kisdalsvatnet" />
		<tag k="natural" v="water" />
		<tag k="ssr:stedsnr" v="552505" />
	</node>
	<node lat="60.74567129933932" lon="5.526007461495432" id="-48217">
		<tag k="name" v="Kvernhusvatnet" />
		<tag k="natural" v="water" />
		<tag k="ssr:stedsnr" v="552520" />
	</node>
	<node lat="60.695976144369354" lon="4.964435671026673" id="-48219">
		<tag k="name" v="Mjåvatnet" />
		<tag k="natural" v="water" />
		<tag k="ssr:stedsnr" v="552807" />
	</node>
	<node lat="60.576845343199665" lon="5.034921497163163" id="-48223">
		<tag k="name" v="Storatjørna" />
		<tag k="natural" v="water" />
		<tag k="ssr:stedsnr" v="552947" />
	</node>
	<node lat="60.800533333413966" lon="5.661216674239609" id="-48228">
		<tag k="alt_name" v="Tuftavatnet" />
		<tag k="name" v="Tuptavatnet" />
		<tag k="natural" v="water" />
		<tag k="ssr:stedsnr" v="554516" />
	</node>
	<node lat="60.559363890046995" lon="5.198133324712903" id="-48242">
		<tag k="alt_name" v="Espetveitvatnet" />
		<tag k="name" v="Espetveittjørna" />
		<tag k="natural" v="water" />
		<tag k="ssr:stedsnr" v="693602" />
		<tag k="water" v="lake" />
	</node>
	<node lat="60.81530000246549" lon="5.662644439742952" id="-48248">
		<tag k="name" v="Midbotselva" />
		<tag k="ssr:stedsnr" v="590007" />
		<tag k="waterway" v="river" />
	</node>
	<node lat="60.67501389045445" lon="5.274358341655508" id="-48252">
		<tag k="name" v="Kvernhuselva" />
		<tag k="ssr:stedsnr" v="590222" />
		<tag k="waterway" v="river" />
	</node>
	<node lat="60.747691871309115" lon="5.130602654990296" id="-48259">
		<tag k="name" v="Låketjørna" />
		<tag k="natural" v="water" />
		<tag k="ssr:stedsnr" v="590241" />
	</node>
	<node lat="60.693550002950815" lon="5.188186102088128" id="-48270">
		<tag k="name" v="Nøkkvasselva" />
		<tag k="ssr:stedsnr" v="590305" />
		<tag k="waterway" v="river" />
	</node>
	<node lat="60.67261944412142" lon="5.3550444511288" id="-48278">
		<tag k="name" v="Vaulane" />
		<tag k="place" v="locality" />
		<tag k="ssr:stedsnr" v="590391" />
	</node>
	<node lat="60.62962777795142" lon="5.1130527774672645" id="-48320">
		<tag k="name" v="Lundevika" />
		<tag k="natural" v="bay" />
		<tag k="ssr:stedsnr" v="591582" />
	</node>
	<node lat="60.77142221923515" lon="5.573702777813459" id="-48326">
		<tag k="name" v="Seterelva" />
		<tag k="ssr:stedsnr" v="591767" />
		<tag k="waterway" v="river" />
	</node>
	<node lat="60.57747823343535" lon="5.274549595689017" id="-48336">
		<tag k="alt_name" v="Langevatnet" />
		<tag k="name" v="Langavatnet" />
		<tag k="natural" v="water" />
		<tag k="ssr:stedsnr" v="612074" />
		<tag k="water" v="lake" />
	</node>
	<node lat="60.668032430101455" lon="5.482351177087366" id="-48343">
		<tag k="name" v="Odnåstjørna" />
		<tag k="natural" v="water" />
		<tag k="ssr:stedsnr" v="612365" />
	</node>
	<node lat="60.54959864030816" lon="5.091611299247022" id="-48350">
		<tag k="name" v="Rylandsvatnet" />
		<tag k="natural" v="water" />
		<tag k="ssr:stedsnr" v="612918" />
		<tag k="water" v="lake" />
	</node>
	<node lat="60.60804444049936" lon="5.3346194531214675" id="-48354">
		<tag k="name" v="Langavatnet" />
		<tag k="natural" v="water" />
		<tag k="ssr:stedsnr" v="613028" />
	</node>
	<node lat="60.57428679394529" lon="5.071256308142394" id="-48360">
		<tag k="name" v="Åsebøtjørna" />
		<tag k="natural" v="water" />
		<tag k="ssr:stedsnr" v="613915" />
	</node>
	<node lat="60.79560449670668" lon="5.636096671352739" id="-48366">
		<tag k="fixme" v="multiple name tags, choose one and add the other to alt_name" />
		<tag k="name" v="Botnavatnet;Heimevatnet" />
		<tag k="natural" v="water" />
		<tag k="ssr:stedsnr" v="615449" />
	</node>
	<node lat="60.62749166290393" lon="5.073000007782248" id="-48395">
		<tag k="name" v="Eidvika" />
		<tag k="natural" v="bay" />
		<tag k="ssr:stedsnr" v="650798" />
	</node>
	<node lat="60.7359888272623" lon="5.258118480414889" id="-48402">
		<tag k="name" v="Iletjørna" />
		<tag k="natural" v="water" />
		<tag k="ssr:stedsnr" v="651209" />
	</node>
	<node lat="60.68799722592567" lon="5.317316673485277" id="-48422">
		<tag k="name" v="Botnaelva" />
		<tag k="ssr:stedsnr" v="651198" />
		<tag k="waterway" v="river" />
	</node>
	<node lat="60.61487499722146" lon="5.3575250011431175" id="-48424">
		<tag k="name" v="Grønvika" />
		<tag k="natural" v="bay" />
		<tag k="ssr:stedsnr" v="651317" />
	</node>
	<node lat="60.77566666400098" lon="5.033266672962299" id="-48435">
		<tag k="name" v="Austre Lona" />
		<tag k="natural" v="water" />
		<tag k="ssr:stedsnr" v="651439" />
		<tag k="water" v="lake" />
	</node>
	<node lat="60.655177894257264" lon="5.479869635996347" id="-48451">
		<tag k="alt_name" v="Stalltjørna" />
		<tag k="name" v="Stalletjørna" />
		<tag k="natural" v="water" />
		<tag k="ssr:stedsnr" v="651615" />
	</node>
	<node lat="60.6262083366812" lon="5.0780749970749275" id="-48452">
		<tag k="name" v="Bunesvika" />
		<tag k="natural" v="bay" />
		<tag k="ssr:stedsnr" v="651618" />
	</node>
	<node lat="60.69313333639794" lon="5.488366662968826" id="-48460">
		<tag k="name" v="Topraeidet" />
		<tag k="place" v="locality" />
		<tag k="ssr:stedsnr" v="651589" />
	</node>
	<node lat="60.68922296257802" lon="5.374752327578535" id="-48463">
		<tag k="name" v="Søre Tjørna" />
		<tag k="natural" v="water" />
		<tag k="ssr:stedsnr" v="651600" />
	</node>
	<node lat="60.57054720587346" lon="5.173600445668479" id="-48486">
		<tag k="name" v="Vasstetjørna" />
		<tag k="natural" v="water" />
		<tag k="ssr:stedsnr" v="652409" />
	</node>
	<node lat="60.55177222464012" lon="5.093858326969033" id="-48491">
		<tag k="name" v="Brakstadneset" />
		<tag k="natural" v="cape" />
		<tag k="ssr:stedsnr" v="652496" />
	</node>
	<node lat="60.55389722419252" lon="5.0898388832758945" id="-48492">
		<tag k="name" v="Nesklubben" />
		<tag k="natural" v="cape" />
		<tag k="ssr:stedsnr" v="652497" />
	</node>
	<node lat="60.722402779033" lon="5.584325005308373" id="-48505">
		<tag k="alt_name" v="Rauneskogvatnet" />
		<tag k="name" v="Raunskogsvatnet" />
		<tag k="natural" v="water" />
		<tag k="ssr:stedsnr" v="673312" />
		<tag k="water" v="lake" />
	</node>
	<node lat="60.74362473375165" lon="5.533014528448194" id="-48507">
		<tag k="name" v="Grøndalstjørna" />
		<tag k="natural" v="water" />
		<tag k="ssr:stedsnr" v="673466" />
	</node>
	<node lat="60.65828610858902" lon="5.263405552429018" id="-48564">
		<tag k="name" v="Arneset" />
		<tag k="natural" v="cape" />
		<tag k="ssr:stedsnr" v="894149" />
	</node>
	<node lat="60.67564999728412" lon="5.284349998103572" id="-48575">
		<tag k="name" v="Kallekleivelva" />
		<tag k="ssr:stedsnr" v="894246" />
		<tag k="waterway" v="river" />
	</node>
	<node lat="60.6865722247945" lon="5.206077774670419" id="-48576">
		<tag k="name" v="Eidet" />
		<tag k="place" v="locality" />
		<tag k="ssr:stedsnr" v="894251" />
	</node>
	<node lat="60.64412163467561" lon="5.56039738914364" id="-48598">
		<tag k="name" v="Rustitjørna" />
		<tag k="natural" v="water" />
		<tag k="ssr:stedsnr" v="894584" />
	</node>
	<node lat="60.66657221802024" lon="5.495586105128662" id="-48599">
		<tag k="name" v="Stegafossen" />
		<tag k="natural" v="waterfall" />
		<tag k="ssr:stedsnr" v="894622" />
	</node>
	<node lat="60.75112626644033" lon="5.074231682200591" id="-48605">
		<tag k="name" v="Skipeidtjørna" />
		<tag k="natural" v="water" />
		<tag k="ssr:stedsnr" v="894542" />
	</node>
	<node lat="60.557405556988044" lon="5.066347226613209" id="-48613">
		<tag k="name" v="Klubben" />
		<tag k="natural" v="cape" />
		<tag k="ssr:stedsnr" v="894775" />
	</node>
	<node lat="60.615330559708696" lon="5.118944436479111" id="-48616">
		<tag k="name" v="Mjåsundet" />
		<tag k="natural" v="strait" />
		<tag k="ssr:stedsnr" v="894741" />
	</node>
	<node lat="60.788611111699275" lon="5.619202786892363" id="-48627">
		<tag k="name" v="Nordelva" />
		<tag k="ssr:stedsnr" v="894996" />
		<tag k="waterway" v="river" />
	</node>
	<node lat="60.66270911592489" lon="5.077885562283754" id="-48645">
		<tag k="name" v="Kjesettjørna" />
		<tag k="natural" v="water" />
		<tag k="ssr:stedsnr" v="895534" />
	</node>
	<node lat="60.73631110904979" lon="5.536200007845773" id="-48667">
		<tag k="name" v="Håbakkelva" />
		<tag k="ssr:stedsnr" v="895629" />
		<tag k="waterway" v="river" />
	</node>
	<node lat="60.74612777795399" lon="5.5425166651355635" id="-48669">
		<tag k="name" v="Sagafossen" />
		<tag k="natural" v="waterfall" />
		<tag k="ssr:stedsnr" v="895643" />
	</node>
	<node lat="60.74866944682532" lon="5.540936105373592" id="-48670">
		<tag k="name" v="Sagelva" />
		<tag k="ssr:stedsnr" v="895644" />
		<tag k="waterway" v="river" />
	</node>
	<node lat="60.71905555828129" lon="5.5187277691476835" id="-48671">
		<tag k="name" v="Setreelva" />
		<tag k="ssr:stedsnr" v="895661" />
		<tag k="waterway" v="river" />
	</node>
	<node lat="60.69083762558908" lon="5.489247907014058" id="-48675">
		<tag k="name" v="Søre Topravatnet" />
		<tag k="natural" v="water" />
		<tag k="ssr:stedsnr" v="895721" />
		<tag k="water" v="lake" />
	</node>
	<node lat="60.61749722441501" lon="5.128288889368561" id="-48677">
		<tag k="name" v="Bordvika" />
		<tag k="natural" v="bay" />
		<tag k="ssr:stedsnr" v="895732" />
	</node>
	<node lat="60.746086108483" lon="5.546194453006499" id="-48689">
		<tag k="name" v="Storelva" />
		<tag k="ssr:stedsnr" v="711105" />
		<tag k="waterway" v="river" />
	</node>
	<node lat="60.773472226296796" lon="5.02771943730294" id="-48697">
		<tag k="name" v="Vestre" />
		<tag k="natural" v="water" />
		<tag k="ssr:stedsnr" v="712041" />
		<tag k="water" v="lake" />
	</node>
	<node lat="60.62476666442197" lon="5.306338890109023" id="-48708">
		<tag k="name" v="Flatneset" />
		<tag k="natural" v="cape" />
		<tag k="ssr:stedsnr" v="712064" />
	</node>
	<node lat="60.662258332639716" lon="5.252980558591473" id="-48710">
		<tag k="name" v="Neselva" />
		<tag k="ssr:stedsnr" v="712084" />
		<tag k="waterway" v="river" />
	</node>
	<node lat="60.5776027751346" lon="5.0602722253231365" id="-48712">
		<tag k="name" v="Strangefjellstjørna" />
		<tag k="natural" v="water" />
		<tag k="ssr:stedsnr" v="712088" />
	</node>
	<node lat="60.793005553914156" lon="5.63379722915568" id="-48715">
		<tag k="name" v="Kuneset" />
		<tag k="natural" v="cape" />
		<tag k="ssr:stedsnr" v="711987" />
	</node>
	<node lat="60.66805555649708" lon="5.48193055966725" id="-48767">
		<tag k="name" v="Andåstjørna" />
		<tag k="natural" v="water" />
		<tag k="ssr:stedsnr" v="712587" />
	</node>
	<node lat="60.628588859376926" lon="5.111777082523235" id="-48770">
		<tag k="name" v="Lundeneset" />
		<tag k="natural" v="cape" />
		<tag k="ssr:stedsnr" v="712595" />
	</node>
	<node lat="60.72836944623026" lon="5.549025005397046" id="-48772">
		<tag k="name" v="Tjørnskartjørna" />
		<tag k="natural" v="water" />
		<tag k="ssr:stedsnr" v="712830" />
	</node>
	<node lat="60.601019441455165" lon="5.159688894830414" id="-48775">
		<tag k="name" v="Lutrebekken" />
		<tag k="ssr:stedsnr" v="712775" />
		<tag k="waterway" v="river" />
	</node>
	<node lat="60.569138885077635" lon="5.1361250071046705" id="-48789">
		<tag k="name" v="Mjåsundet" />
		<tag k="natural" v="strait" />
		<tag k="ssr:stedsnr" v="713478" />
	</node>
	<node lat="60.558918436810096" lon="5.066011168615635" id="-48792">
		<tag k="name" v="Skintveittjørna" />
		<tag k="natural" v="water" />
		<tag k="ssr:stedsnr" v="713511" />
	</node>
	<node lat="60.55195277930165" lon="5.091830556891266" id="-48793">
		<tag k="name" v="Småsundet" />
		<tag k="natural" v="strait" />
		<tag k="ssr:stedsnr" v="713524" />
	</node>
	<node lat="60.64615833222072" lon="5.284941669408508" id="-48805">
		<tag k="alt_name" v="Storevatnet" />
		<tag k="name" v="Storavatnet" />
		<tag k="natural" v="water" />
		<tag k="ssr:stedsnr" v="734216" />
		<tag k="water" v="lake" />
	</node>
	<node lat="60.60043611543634" lon="5.345591670270978" id="-48807">
		<tag k="name" v="Litlavatnet" />
		<tag k="natural" v="water" />
		<tag k="ssr:stedsnr" v="734111" />
	</node>
	<node lat="60.72457499887403" lon="5.285694438476943" id="-48810">
		<tag k="name" v="Plasselva" />
		<tag k="ssr:stedsnr" v="734193" />
		<tag k="waterway" v="stream" />
	</node>
	<node lat="60.72997778112702" lon="5.506769444961767" id="-48813">
		<tag k="name" v="Båtevatnet" />
		<tag k="natural" v="water" />
		<tag k="ssr:stedsnr" v="734485" />
		<tag k="water" v="lake" />
	</node>
	<node lat="60.701044758235604" lon="5.004846276996288" id="-48816">
		<tag k="name" v="Storrindevatnet" />
		<tag k="natural" v="water" />
		<tag k="ssr:stedsnr" v="734806" />
	</node>
	<node lat="60.69504999873733" lon="5.021850001585902" id="-48820">
		<tag k="name" v="Gjerdsvatnet" />
		<tag k="natural" v="water" />
		<tag k="ssr:stedsnr" v="734780" />
	</node>
	<node lat="60.5886758809616" lon="5.013551580804852" id="-48826">
		<tag k="name" v="Husebøvatnet" />
		<tag k="natural" v="water" />
		<tag k="ssr:stedsnr" v="734928" />
	</node>
	<node lat="60.60363032260072" lon="5.0400130950875575" id="-48827">
		<tag k="name" v="Kårbøtjørna" />
		<tag k="natural" v="water" />
		<tag k="ssr:stedsnr" v="734939" />
	</node>
	<node lat="60.83039871220002" lon="5.668547896633183" id="-48829">
		<tag k="name" v="Geitaskarvatna" />
		<tag k="natural" v="water" />
		<tag k="ssr:stedsnr" v="736380" />
		<tag k="water" v="lake" />
	</node>
	<node lat="60.80424151558885" lon="5.674207031680386" id="-48833">
		<tag k="name" v="Gråvatnet" />
		<tag k="natural" v="water" />
		<tag k="ssr:stedsnr" v="737452" />
	</node>
	<node lat="60.68728610696331" lon="4.943872227363367" id="-48866">
		<tag k="name" v="Kalvatræet" />
		<tag k="natural" v="cape" />
		<tag k="ssr:stedsnr" v="772427" />
	</node>
	<node lat="60.63650306571332" lon="5.3415444889327235" id="-48875">
		<tag k="name" v="Heggernestjørna" />
		<tag k="natural" v="water" />
		<tag k="ssr:stedsnr" v="773004" />
	</node>
	<node lat="60.80491450762922" lon="5.656010035858367" id="-48880">
		<tag k="name" v="Tuptavika" />
		<tag k="natural" v="bay" />
		<tag k="ssr:stedsnr" v="773079" />
	</node>
	<node lat="60.71938789055542" lon="5.271254320835812" id="-48898">
		<tag k="name" v="Tjørnane" />
		<tag k="natural" v="water" />
		<tag k="ssr:stedsnr" v="773180" />
		<tag k="water" v="lake" />
	</node>
	<node lat="60.72415497509679" lon="5.311434968810788" id="-48903">
		<tag k="name" v="Vassholmen" />
		<tag k="place" v="islet" />
		<tag k="ssr:stedsnr" v="773375" />
	</node>
	<node lat="60.63950277666876" lon="5.504980560291066" id="-48916">
		<tag k="name" v="Husdaltjørna" />
		<tag k="natural" v="water" />
		<tag k="ssr:stedsnr" v="773511" />
	</node>
	<node lat="60.744958337171845" lon="5.088494435241618" id="-48927">
		<tag k="name" v="Straumsvatnet" />
		<tag k="natural" v="water" />
		<tag k="ssr:stedsnr" v="773486" />
		<tag k="water" v="lake" />
	</node>
	<node lat="60.77766591941242" lon="5.575183902977522" id="-48938">
		<tag k="name" v="Fitjatjørna" />
		<tag k="natural" v="water" />
		<tag k="ssr:stedsnr" v="773768" />
	</node>
	<node lat="60.716605558872644" lon="5.612399997411188" id="-48943">
		<tag k="name" v="Revadalsbekken" />
		<tag k="ssr:stedsnr" v="773961" />
		<tag k="waterway" v="stream" />
	</node>
	<node lat="60.56434811057879" lon="5.147425215188187" id="-48954">
		<tag k="name" v="Tangen" />
		<tag k="natural" v="cape" />
		<tag k="ssr:stedsnr" v="774503" />
	</node>
	<node lat="60.58016944464492" lon="5.1704722196690085" id="-48959">
		<tag k="name" v="Skjelevika" />
		<tag k="natural" v="bay" />
		<tag k="ssr:stedsnr" v="774452" />
	</node>
	<node lat="60.75486215075763" lon="5.120633329053988" id="-48961">
		<tag k="name" v="Rossnestjørna" />
		<tag k="natural" v="water" />
		<tag k="ssr:stedsnr" v="775306" />
	</node>
	<node lat="60.71725000092374" lon="5.296374992098387" id="-48966">
		<tag k="name" v="Nordravatnet" />
		<tag k="natural" v="water" />
		<tag k="ssr:stedsnr" v="795208" />
	</node>
	<node lat="60.740388831762445" lon="5.609519659404089" id="-48971">
		<tag k="name" v="Krossdalstjørna" />
		<tag k="natural" v="water" />
		<tag k="ssr:stedsnr" v="795503" />
	</node>
	<node lat="60.57523452847826" lon="5.0997757607098935" id="-48982">
		<tag k="name" v="Storavatnet" />
		<tag k="natural" v="water" />
		<tag k="ssr:stedsnr" v="795920" />
		<tag k="water" v="lake" />
	</node>
	<node lat="60.5878117616096" lon="5.091631426625872" id="-48983">
		<tag k="name" v="Midtvatnet" />
		<tag k="natural" v="water" />
		<tag k="ssr:stedsnr" v="795926" />
	</node>
	<node lat="60.63553610948229" lon="5.0443138869928745" id="-48985">
		<tag k="name" v="Prestholmen" />
		<tag k="place" v="islet" />
		<tag k="ssr:stedsnr" v="795969" />
	</node>
	<node lat="60.63881913745876" lon="5.0157250102339495" id="-48988">
		<tag k="name" v="Kjevatnet" />
		<tag k="natural" v="water" />
		<tag k="ssr:stedsnr" v="795979" />
	</node>
	<node lat="60.75395602754512" lon="5.530924652745511" id="-48990">
		<tag k="name" v="Brandavatnet" />
		<tag k="natural" v="water" />
		<tag k="ssr:stedsnr" v="797055" />
	</node>
	<node lat="60.7729833347467" lon="5.514988881988611" id="-48992">
		<tag k="name" v="Flådalsvatnet" />
		<tag k="natural" v="water" />
		<tag k="ssr:stedsnr" v="797456" />
		<tag k="water" v="lake" />
	</node>
	<node lat="60.81074726032122" lon="5.6589059311250125" id="-48993">
		<tag k="fixme" v="multiple name tags, choose one and add the other to alt_name" />
		<tag k="name" v="Instebotnsvatnet;Instevatnet" />
		<tag k="natural" v="water" />
		<tag k="ssr:stedsnr" v="797492" />
	</node>
	<node lat="60.656433742132336" lon="5.294797488426644" id="-49008">
		<tag k="name" v="Midtvatnet" />
		<tag k="natural" v="water" />
		<tag k="ssr:stedsnr" v="916259" />
	</node>
	<node lat="60.84825555914502" lon="5.672605553417776" id="-49027">
		<tag k="name" v="Bjørnahiet" />
		<tag k="place" v="locality" />
		<tag k="ssr:stedsnr" v="809861" />
	</node>
	<node lat="60.56958438365771" lon="5.156856232935498" id="-49070">
		<tag k="name" v="Gaustadvatnet" />
		<tag k="natural" v="water" />
		<tag k="ssr:stedsnr" v="855119" />
	</node>
	<node lat="60.61885526976104" lon="5.4244937243652975" id="-49078">
		<tag k="name" v="Bjørndalsvatnet" />
		<tag k="natural" v="water" />
		<tag k="ssr:stedsnr" v="856001" />
	</node>
	<node lat="60.64396944102397" lon="5.2863138961674" id="-49081">
		<tag k="name" v="Langvikneset" />
		<tag k="natural" v="cape" />
		<tag k="ssr:stedsnr" v="856199" />
	</node>
	<node lat="60.58658741180171" lon="5.103717793861594" id="-49084">
		<tag k="fixme" v="multiple name tags, choose one and add the other to alt_name" />
		<tag k="name" v="Havrevatnet;Mjåvatnet" />
		<tag k="natural" v="water" />
		<tag k="ssr:stedsnr" v="856090" />
	</node>
	<node lat="60.65945270311908" lon="5.128927381733287" id="-49087">
		<tag k="alt_name" v="Trædsvatnet" />
		<tag k="name" v="Træsvatnet" />
		<tag k="natural" v="water" />
		<tag k="ssr:stedsnr" v="856232" />
	</node>
	<node lat="60.664345703634275" lon="5.160837546483668" id="-49088">
		<tag k="name" v="Skotsundvatnet" />
		<tag k="natural" v="water" />
		<tag k="ssr:stedsnr" v="856233" />
	</node>
	<node lat="60.71267088109301" lon="5.603928746299044" id="-49091">
		<tag k="name" v="Revadalstjørna" />
		<tag k="natural" v="water" />
		<tag k="ssr:stedsnr" v="856297" />
	</node>
	<node lat="60.645836511074364" lon="5.522484753667711" id="-49094">
		<tag k="name" v="Stortjørna" />
		<tag k="natural" v="water" />
		<tag k="ssr:stedsnr" v="856679" />
	</node>
	<node lat="60.70856388943157" lon="4.990075004877667" id="-49100">
		<tag k="name" v="Vaulen" />
		<tag k="natural" v="bay" />
		<tag k="ssr:stedsnr" v="856833" />
	</node>
	<node lat="60.852723508366935" lon="5.691711536556207" id="-49102">
		<tag k="name" v="Øvre Vemundsvatnet" />
		<tag k="natural" v="water" />
		<tag k="ssr:stedsnr" v="858423" />
		<tag k="water" v="lake" />
	</node>
	<node lat="60.700072218305976" lon="5.271030554449959" id="-49119">
		<tag k="name" v="Fjellsbøstemma" />
		<tag k="natural" v="water" />
		<tag k="ssr:stedsnr" v="894024" />
		<tag k="water" v="lake" />
	</node>
	<node lat="60.637766664713055" lon="5.49644999700874" id="-49160">
		<tag k="name" v="Fureneset" />
		<tag k="natural" v="cape" />
		<tag k="ssr:stedsnr" v="894571" />
	</node>
	<node lat="60.74079444118262" lon="5.62109721455933" id="-49173">
		<tag k="name" v="Sluppabekken" />
		<tag k="ssr:stedsnr" v="894807" />
		<tag k="waterway" v="stream" />
	</node>
	<node lat="60.75062777913998" lon="5.609088896666605" id="-49174">
		<tag k="name" v="Kvernhusbekken" />
		<tag k="ssr:stedsnr" v="894816" />
		<tag k="waterway" v="stream" />
	</node>
	<node lat="60.70175247934592" lon="4.974185409023637" id="-49183">
		<tag k="name" v="Beindalstjørna" />
		<tag k="natural" v="water" />
		<tag k="ssr:stedsnr" v="895310" />
	</node>
	<node lat="60.556119446216464" lon="5.066430558480785" id="-49200">
		<tag k="name" v="Nordrestøa" />
		<tag k="natural" v="cape" />
		<tag k="ssr:stedsnr" v="895475" />
	</node>
	<node lat="60.55907947391993" lon="5.114701033953586" id="-49214">
		<tag k="name" v="Bjørndalstjørna" />
		<tag k="natural" v="water" />
		<tag k="ssr:stedsnr" v="896534" />
	</node>
	<node lat="60.61008374331163" lon="5.374155939424225" id="-49223">
		<tag k="name" v="Eikeklettvatnet" />
		<tag k="natural" v="water" />
		<tag k="ssr:stedsnr" v="916020" />
	</node>
	<node lat="60.55725723328865" lon="5.102152848511577" id="-49228">
		<tag k="name" v="Bjørndalsvatnet" />
		<tag k="natural" v="water" />
		<tag k="ssr:stedsnr" v="916092" />
	</node>
	<node lat="60.71703690799139" lon="5.578865096860969" id="-49233">
		<tag k="name" v="Svartetjørna" />
		<tag k="natural" v="water" />
		<tag k="ssr:stedsnr" v="916307" />
	</node>
	<node lat="60.757742072631316" lon="5.497654002199778" id="-49259">
		<tag k="name" v="Kringlevatnet" />
		<tag k="natural" v="water" />
		<tag k="ssr:stedsnr" v="919443" />
	</node>
	<node lat="60.70539167113437" lon="5.497902783754124" id="-49278">
		<tag k="name" v="Toprafossen" />
		<tag k="natural" v="waterfall" />
		<tag k="ssr:stedsnr" v="954540" />
	</node>
	<node lat="60.705661109893136" lon="5.277247214868395" id="-49286">
		<tag k="name" v="Kvernhuselva" />
		<tag k="ssr:stedsnr" v="955223" />
		<tag k="waterway" v="river" />
	</node>
	<node lat="60.69774444601422" lon="4.943188882769678" id="-49301">
		<tag k="name" v="Hompen" />
		<tag k="natural" v="cape" />
		<tag k="ssr:stedsnr" v="955306" />
	</node>
	<node lat="60.610163885049886" lon="5.13222221627027" id="-49334">
		<tag k="name" v="Grindneset" />
		<tag k="natural" v="cape" />
		<tag k="ssr:stedsnr" v="955744" />
	</node>
	<node lat="60.691269440407474" lon="5.250111108279314" id="-49368">
		<tag k="name" v="Dalselva" />
		<tag k="ssr:stedsnr" v="6138" />
		<tag k="waterway" v="stream" />
	</node>
	<node lat="60.68860555355023" lon="5.201330556802951" id="-49369">
		<tag k="alt_name" v="Nøkkvatnet" />
		<tag k="name" v="Nykkvatnet" />
		<tag k="natural" v="water" />
		<tag k="ssr:stedsnr" v="6141" />
	</node>
	<node lat="60.668361938470596" lon="5.516112883479825" id="-49378">
		<tag k="name" v="Sætretjørna" />
		<tag k="natural" v="water" />
		<tag k="ssr:stedsnr" v="6369" />
	</node>
	<node lat="60.722455557486136" lon="5.25481944572906" id="-49385">
		<tag k="name" v="Siriåselva" />
		<tag k="ssr:stedsnr" v="6669" />
		<tag k="waterway" v="stream" />
	</node>
	<node lat="60.74514196835383" lon="5.213710052417491" id="-49396">
		<tag k="alt_name" v="Langevatnet" />
		<tag k="name" v="Langavatnet" />
		<tag k="natural" v="water" />
		<tag k="ssr:stedsnr" v="6692" />
		<tag k="water" v="lake" />
	</node>
	<node lat="60.74529531793112" lon="5.188711368295224" id="-49397">
		<tag k="name" v="Holmåsvatnet" />
		<tag k="natural" v="water" />
		<tag k="ssr:stedsnr" v="6693" />
	</node>
	<node lat="60.77223308898174" lon="5.066163096086314" id="-49403">
		<tag k="name" v="Skåptjørna" />
		<tag k="natural" v="water" />
		<tag k="ssr:stedsnr" v="8212" />
	</node>
	<node lat="60.680571677303114" lon="5.030098697915726" id="-49420">
		<tag k="alt_name" v="Haukåstjørna;Haukåstjørna, nordre" />
		<tag k="name" v="Nordre Haukåstjørna" />
		<tag k="natural" v="water" />
		<tag k="ssr:stedsnr" v="41650" />
	</node>
	<node lat="60.70091944453658" lon="4.9747611148516055" id="-49486">
		<tag k="name" v="Beindalslonena" />
		<tag k="natural" v="water" />
		<tag k="ssr:stedsnr" v="45343" />
		<tag k="water" v="lake" />
	</node>
	<node lat="60.64992097872881" lon="5.319569446687196" id="-49495">
		<tag k="name" v="Grovaneset" />
		<tag k="natural" v="cape" />
		<tag k="ssr:stedsnr" v="45080" />
	</node>
	<node lat="60.700345818104644" lon="5.447918938467694" id="-49520">
		<tag k="name" v="Svartatjørna" />
		<tag k="natural" v="water" />
		<tag k="ssr:stedsnr" v="45409" />
	</node>
	<node lat="60.72531666298906" lon="5.509788888776065" id="-49543">
		<tag k="name" v="Orfallet" />
		<tag k="natural" v="bay" />
		<tag k="ssr:stedsnr" v="45659" />
	</node>
	<node lat="60.773776113085404" lon="5.631159377931981" id="-49562">
		<tag k="name" v="Varmetjørna" />
		<tag k="natural" v="water" />
		<tag k="ssr:stedsnr" v="45917" />
	</node>
	<node lat="60.582881231071994" lon="5.035773328174" id="-49569">
		<tag k="name" v="Trippesteintjørna" />
		<tag k="natural" v="water" />
		<tag k="ssr:stedsnr" v="46359" />
	</node>
	<node lat="60.665471066779" lon="5.355265239124638" id="-49599">
		<tag k="name" v="Haugsvatnet" />
		<tag k="natural" v="water" />
		<tag k="ssr:stedsnr" v="67264" />
	</node>
	<node lat="60.74056111127709" lon="5.61827778364487" id="-49609">
		<tag k="alt_name" v="Eidskogvatnet, s;Søre Eikskogvatnet" />
		<tag k="name" v="Søre Eidskogvatnet" />
		<tag k="natural" v="water" />
		<tag k="ssr:stedsnr" v="67471" />
	</node>
	<node lat="60.677091670234155" lon="5.55701388835811" id="-49610">
		<tag k="name" v="Sagelva" />
		<tag k="ssr:stedsnr" v="67362" />
		<tag k="waterway" v="stream" />
	</node>
	<node lat="60.72736241124411" lon="5.2189727932422505" id="-49617">
		<tag k="name" v="Eidsvatnet" />
		<tag k="natural" v="water" />
		<tag k="ssr:stedsnr" v="67665" />
	</node>
	<node lat="60.645110907498456" lon="5.482438168387709" id="-49618">
		<tag k="name" v="Vågatjørna" />
		<tag k="natural" v="water" />
		<tag k="ssr:stedsnr" v="67679" />
	</node>
	<node lat="60.76409319993546" lon="5.576137506265392" id="-49626">
		<tag k="alt_name" v="Sætravatnet, øvre;Øvre Setervatnet" />
		<tag k="name" v="Øvre Sætravatnet" />
		<tag k="natural" v="water" />
		<tag k="ssr:stedsnr" v="69026" />
	</node>
	<node lat="60.7607119825183" lon="5.57530791266614" id="-49627">
		<tag k="name" v="Leitetjørna" />
		<tag k="natural" v="water" />
		<tag k="ssr:stedsnr" v="69029" />
	</node>
	<node lat="60.55693414260186" lon="5.188806065485708" id="-49654">
		<tag k="name" v="Skartjørna" />
		<tag k="natural" v="water" />
		<tag k="ssr:stedsnr" v="105041" />
	</node>
	<node lat="60.651625001521154" lon="5.276058338652941" id="-49664">
		<tag k="name" v="Jektevika" />
		<tag k="natural" v="bay" />
		<tag k="ssr:stedsnr" v="105137" />
	</node>
	<node lat="60.657371484297734" lon="5.562355500005321" id="-49676">
		<tag k="name" v="Furekamtjørna" />
		<tag k="natural" v="water" />
		<tag k="ssr:stedsnr" v="105533" />
	</node>
	<node lat="60.69466944548312" lon="5.296827781867402" id="-49690">
		<tag k="name" v="Smørdalselva" />
		<tag k="ssr:stedsnr" v="105261" />
		<tag k="waterway" v="river" />
	</node>
	<node lat="60.588697392335135" lon="5.118680506292871" id="-49694">
		<tag k="name" v="Sauatjørna" />
		<tag k="natural" v="water" />
		<tag k="ssr:stedsnr" v="105500" />
	</node>
	<node lat="60.707308331494694" lon="4.993125003332174" id="-49700">
		<tag k="name" v="Eidet" />
		<tag k="place" v="locality" />
		<tag k="ssr:stedsnr" v="105360" />
	</node>
	<node lat="60.7074492350503" lon="5.5114221349204575" id="-49718">
		<tag k="name" v="Haugatjørna" />
		<tag k="natural" v="water" />
		<tag k="ssr:stedsnr" v="105712" />
	</node>
	<node lat="60.65274722150167" lon="5.0652972309232505" id="-49748">
		<tag k="name" v="Grisneset" />
		<tag k="natural" v="cape" />
		<tag k="ssr:stedsnr" v="106563" />
	</node>
	<node lat="60.71042825961723" lon="5.034229457259409" id="-49750">
		<tag k="name" v="Polden" />
		<tag k="natural" v="water" />
		<tag k="ssr:stedsnr" v="106636" />
	</node>
	<node lat="60.66885654556282" lon="5.0590617083242" id="-49754">
		<tag k="name" v="Grønestølsvatnet" />
		<tag k="natural" v="water" />
		<tag k="ssr:stedsnr" v="106666" />
	</node>
	<node lat="60.620699998873185" lon="5.4087944512455275" id="-49777">
		<tag k="name" v="Arivatnet" />
		<tag k="natural" v="water" />
		<tag k="ssr:stedsnr" v="127007" />
	</node>
	<node lat="60.56400625758251" lon="5.154375521017337" id="-49781">
		<tag k="name" v="Hestnesvatnet" />
		<tag k="natural" v="water" />
		<tag k="ssr:stedsnr" v="127074" />
	</node>
	<node lat="60.603457922160686" lon="5.368749707773346" id="-49789">
		<tag k="alt_name" v="Sauvatnet" />
		<tag k="name" v="Sauavatnet" />
		<tag k="natural" v="water" />
		<tag k="ssr:stedsnr" v="127025" />
	</node>
	<node lat="60.64038320111998" lon="5.344965310041471" id="-49794">
		<tag k="alt_name" v="Heggernesvatnet" />
		<tag k="name" v="Hegernesvatnet" />
		<tag k="natural" v="water" />
		<tag k="ssr:stedsnr" v="127232" />
	</node>
	<node lat="60.706141670806424" lon="5.575780553158728" id="-49796">
		<tag k="name" v="Stemmetjørna" />
		<tag k="natural" v="water" />
		<tag k="ssr:stedsnr" v="127300" />
	</node>
	<node lat="60.65081388904603" lon="5.06783611351774" id="-49812">
		<tag k="name" v="Nordliholmane" />
		<tag k="place" v="islet" />
		<tag k="ssr:stedsnr" v="127977" />
	</node>
	<node lat="60.58493014400814" lon="5.058678495969824" id="-49818">
		<tag k="name" v="Kvitstigtjørna" />
		<tag k="natural" v="water" />
		<tag k="ssr:stedsnr" v="127932" />
	</node>
	<node lat="60.65838333088998" lon="4.9324916693667245" id="-49847">
		<tag k="alt_name" v="Rotetjørna, store" />
		<tag k="name" v="Store Rotetjørna" />
		<tag k="natural" v="water" />
		<tag k="ssr:stedsnr" v="162989" />
	</node>
	<node lat="60.64225555625396" lon="5.276208333302757" id="-49849">
		<tag k="name" v="Nesøyra" />
		<tag k="natural" v="beach" />
		<tag k="ssr:stedsnr" v="165039" />
	</node>
	<node lat="60.70959654878813" lon="5.135060259717098" id="-49856">
		<tag k="name" v="Klårevatnet" />
		<tag k="natural" v="water" />
		<tag k="ssr:stedsnr" v="165298" />
		<tag k="water" v="lake" />
	</node>
	<node lat="60.70928611077591" lon="5.54178888165614" id="-49862">
		<tag k="name" v="Neset" />
		<tag k="natural" v="cape" />
		<tag k="ssr:stedsnr" v="165738" />
	</node>
	<node lat="60.685430555426585" lon="5.339480564335227" id="-49904">
		<tag k="name" v="Storelva" />
		<tag k="ssr:stedsnr" v="166201" />
		<tag k="waterway" v="river" />
	</node>
	<node lat="60.80243594194012" lon="5.624157078205909" id="-49922">
		<tag k="name" v="Olsbotstjørna" />
		<tag k="natural" v="water" />
		<tag k="ssr:stedsnr" v="166049" />
	</node>
	<node lat="60.66560277943478" lon="5.283963892214784" id="-49930">
		<tag k="name" v="Vaulen" />
		<tag k="natural" v="strait" />
		<tag k="ssr:stedsnr" v="166132" />
	</node>
	<node lat="60.6712499977474" lon="5.278141667988754" id="-49939">
		<tag k="name" v="Vikeelva" />
		<tag k="ssr:stedsnr" v="166232" />
		<tag k="waterway" v="river" />
	</node>
	<node lat="60.74566666952287" lon="5.133261106778132" id="-49944">
		<tag k="name" v="Prestelva" />
		<tag k="ssr:stedsnr" v="166255" />
		<tag k="waterway" v="river" />
	</node>
	<node lat="60.71769722305341" lon="4.941144441595019" id="-49960">
		<tag k="name" v="Mølsmogelva" />
		<tag k="ssr:stedsnr" v="166485" />
		<tag k="waterway" v="river" />
	</node>
	<node lat="60.63972222058821" lon="5.087552783011584" id="-49969">
		<tag k="name" v="Støneset" />
		<tag k="natural" v="cape" />
		<tag k="ssr:stedsnr" v="166597" />
	</node>
	<node lat="60.621030557820895" lon="5.0989805603645175" id="-49983">
		<tag k="name" v="Øksenden" />
		<tag k="natural" v="cape" />
		<tag k="ssr:stedsnr" v="166525" />
	</node>
	<node lat="60.64295277575024" lon="5.501305547994066" id="-49987">
		<tag k="name" v="Mjåneset" />
		<tag k="natural" v="cape" />
		<tag k="ssr:stedsnr" v="166532" />
	</node>
	<node lat="60.7433583329135" lon="5.61716110284579" id="-50000">
		<tag k="name" v="Eidet" />
		<tag k="place" v="locality" />
		<tag k="ssr:stedsnr" v="166791" />
	</node>
	<node lat="60.77283760454867" lon="5.524547390779492" id="-50005">
		<tag k="name" v="Lomtjørna" />
		<tag k="natural" v="water" />
		<tag k="ssr:stedsnr" v="166846" />
	</node>
	<node lat="60.770327779026765" lon="5.529091672058451" id="-50006">
		<tag k="name" v="Flådalselva" />
		<tag k="ssr:stedsnr" v="166848" />
		<tag k="waterway" v="river" />
	</node>
	<node lat="60.57921111471744" lon="5.171994443395524" id="-50012">
		<tag k="name" v="Havnholmen" />
		<tag k="place" v="islet" />
		<tag k="ssr:stedsnr" v="167430" />
	</node>
	<node lat="60.570363524370606" lon="5.1246145567893056" id="-50013">
		<tag k="name" v="Gripavika" />
		<tag k="natural" v="bay" />
		<tag k="ssr:stedsnr" v="167439" />
	</node>
	<node lat="60.57170555946959" lon="5.123824996486602" id="-50014">
		<tag k="name" v="Kjørneset" />
		<tag k="natural" v="cape" />
		<tag k="ssr:stedsnr" v="167441" />
	</node>
	<node lat="60.57306572856416" lon="5.127673278653304" id="-50018">
		<tag k="name" v="Bukkholmen" />
		<tag k="place" v="islet" />
		<tag k="ssr:stedsnr" v="167495" />
	</node>
	<node lat="60.551372225252116" lon="5.083225007837591" id="-50019">
		<tag k="name" v="Rylandsholmen" />
		<tag k="natural" v="cape" />
		<tag k="ssr:stedsnr" v="167544" />
	</node>
	<node lat="60.64901546475496" lon="5.4702470229529325" id="-50021">
		<tag k="name" v="Storsettjørna" />
		<tag k="natural" v="water" />
		<tag k="ssr:stedsnr" v="188694" />
	</node>
	<node lat="60.75733610685882" lon="5.6295500068938855" id="-50056">
		<tag k="name" v="Varmåna" />
		<tag k="ssr:stedsnr" v="190045" />
		<tag k="waterway" v="stream" />
	</node>
	<node lat="60.76613319140885" lon="5.635601712692362" id="-50057">
		<tag k="alt_name" v="Svartavatnet;Svartevatnet" />
		<tag k="name" v="Svartholsvatnet" />
		<tag k="natural" v="water" />
		<tag k="ssr:stedsnr" v="190048" />
	</node>
	<node lat="60.6926444453047" lon="5.054347227494115" id="-50063">
		<tag k="name" v="Svartåna" />
		<tag k="ssr:stedsnr" v="206259" />
		<tag k="waterway" v="stream" />
	</node>
	<node lat="60.64153888977342" lon="5.277802772088982" id="-50075">
		<tag k="name" v="Medåsvika" />
		<tag k="natural" v="bay" />
		<tag k="ssr:stedsnr" v="226032" />
	</node>
	<node lat="60.65353888829208" lon="5.274202774321141" id="-50086">
		<tag k="name" v="Kverhusvika" />
		<tag k="natural" v="bay" />
		<tag k="ssr:stedsnr" v="226140" />
	</node>
	<node lat="60.54148995467605" lon="5.136013303766294" id="-50087">
		<tag k="name" v="Grisavika" />
		<tag k="natural" v="bay" />
		<tag k="ssr:stedsnr" v="226021" />
	</node>
	<node lat="60.59369167049318" lon="5.357230559370852" id="-50097">
		<tag k="name" v="Masholmen" />
		<tag k="place" v="islet" />
		<tag k="ssr:stedsnr" v="226307" />
	</node>
	<node lat="60.69393585303809" lon="5.215669092445038" id="-50102">
		<tag k="name" v="Hetlehovdatjørna" />
		<tag k="natural" v="water" />
		<tag k="ssr:stedsnr" v="226320" />
	</node>
	<node lat="60.611549999915184" lon="5.3523833387465345" id="-50105">
		<tag k="name" v="Furholmen" />
		<tag k="place" v="islet" />
		<tag k="ssr:stedsnr" v="226362" />
	</node>
	<node lat="60.65538611402307" lon="5.1615444358436235" id="-50114">
		<tag k="name" v="Lonena" />
		<tag k="natural" v="water" />
		<tag k="ssr:stedsnr" v="226419" />
		<tag k="water" v="lake" />
	</node>
	<node lat="60.72849989444011" lon="5.275513720595895" id="-50130">
		<tag k="name" v="Stemmetjørna" />
		<tag k="natural" v="water" />
		<tag k="ssr:stedsnr" v="227154" />
	</node>
	<node lat="60.7513567562659" lon="5.132612699747214" id="-50142">
		<tag k="name" v="Skitnedalsvika" />
		<tag k="natural" v="bay" />
		<tag k="ssr:stedsnr" v="227244" />
	</node>
	<node lat="60.712022222209534" lon="4.987400002134555" id="-50191">
		<tag k="name" v="Kvernhusklubben" />
		<tag k="natural" v="cape" />
		<tag k="ssr:stedsnr" v="227452" />
	</node>
	<node lat="60.74968959110364" lon="5.545242211645495" id="-50205">
		<tag k="name" v="Nipetjørna" />
		<tag k="natural" v="water" />
		<tag k="ssr:stedsnr" v="227647" />
	</node>
	<node lat="60.64713920644318" lon="5.0503308329231436" id="-50210">
		<tag k="name" v="Heimtjørna" />
		<tag k="natural" v="water" />
		<tag k="ssr:stedsnr" v="227562" />
	</node>
	<node lat="60.64939722349187" lon="5.2809611173752735" id="-50280">
		<tag k="name" v="Vassneset" />
		<tag k="natural" v="cape" />
		<tag k="ssr:stedsnr" v="287143" />
	</node>
	<node lat="60.57807222640319" lon="5.362644437438943" id="-50285">
		<tag k="name" v="Lona" />
		<tag k="natural" v="water" />
		<tag k="ssr:stedsnr" v="287357" />
		<tag k="water" v="lake" />
	</node>
	<node lat="60.77488850244646" lon="5.111002270115932" id="-50301">
		<tag k="name" v="Nesvatnet" />
		<tag k="natural" v="water" />
		<tag k="ssr:stedsnr" v="287452" />
		<tag k="water" v="lake" />
	</node>
	<node lat="60.666186112810905" lon="5.510205553606752" id="-50311">
		<tag k="name" v="Langetjørna" />
		<tag k="natural" v="water" />
		<tag k="ssr:stedsnr" v="287633" />
	</node>
	<node lat="60.650442325827" lon="5.482753361973084" id="-50315">
		<tag k="name" v="Haldorstjørna" />
		<tag k="natural" v="water" />
		<tag k="ssr:stedsnr" v="287659" />
	</node>
	<node lat="60.79647651767964" lon="5.627553002451354" id="-50319">
		<tag k="name" v="Nipeskartjørna" />
		<tag k="natural" v="water" />
		<tag k="ssr:stedsnr" v="287964" />
	</node>
	<node lat="60.69963055804912" lon="4.955102786575735" id="-50323">
		<tag k="name" v="Mjåvasselva" />
		<tag k="ssr:stedsnr" v="288314" />
		<tag k="waterway" v="river" />
	</node>
	<node lat="60.63905130007551" lon="5.292421883068823" id="-50327">
		<tag k="name" v="Tirebotntjørna" />
		<tag k="natural" v="water" />
		<tag k="ssr:stedsnr" v="288075" />
	</node>
	<node lat="60.678563120471644" lon="5.546518010936417" id="-50338">
		<tag k="alt_name" v="Svartevatnet" />
		<tag k="name" v="Svartatjørna" />
		<tag k="natural" v="water" />
		<tag k="ssr:stedsnr" v="288578" />
	</node>
	<node lat="60.64191666894607" lon="5.085022228548202" id="-50341">
		<tag k="name" v="Lysholmen" />
		<tag k="place" v="islet" />
		<tag k="ssr:stedsnr" v="288566" />
	</node>
	<node lat="60.71806442537817" lon="5.506669459699607" id="-50345">
		<tag k="name" v="Eidevatna" />
		<tag k="natural" v="water" />
		<tag k="ssr:stedsnr" v="288642" />
		<tag k="water" v="lake" />
	</node>
	<node lat="60.73111916206582" lon="5.5351673561658" id="-50347">
		<tag k="name" v="Hundetjørna" />
		<tag k="natural" v="water" />
		<tag k="ssr:stedsnr" v="288650" />
	</node>
	<node lat="60.67376087477369" lon="5.53071689161929" id="-50352">
		<tag k="name" v="Fossatjørna" />
		<tag k="natural" v="water" />
		<tag k="ssr:stedsnr" v="288721" />
	</node>
	<node lat="60.76288055169896" lon="5.574944449461962" id="-50356">
		<tag k="name" v="Orfallet" />
		<tag k="natural" v="bay" />
		<tag k="ssr:stedsnr" v="288857" />
	</node>
	<node lat="60.56394168331127" lon="5.272768552865208" id="-50369">
		<tag k="name" v="Isdalsvatnet" />
		<tag k="natural" v="water" />
		<tag k="ssr:stedsnr" v="309076" />
	</node>
	<node lat="60.71061944230842" lon="5.30961389430377" id="-50374">
		<tag k="name" v="Søravatnet" />
		<tag k="natural" v="water" />
		<tag k="ssr:stedsnr" v="309208" />
	</node>
	<node lat="60.63957500049328" lon="5.282608335823078" id="-50377">
		<tag k="name" v="Litlavatnet" />
		<tag k="natural" v="water" />
		<tag k="ssr:stedsnr" v="309244" />
	</node>
	<node lat="60.67057778138777" lon="5.2204777750060325" id="-50380">
		<tag k="alt_name" v="Toravatnet" />
		<tag k="name" v="Torevatnet" />
		<tag k="natural" v="water" />
		<tag k="ssr:stedsnr" v="309264" />
	</node>
	<node lat="60.740184787223164" lon="5.127300006238109" id="-50392">
		<tag k="name" v="Sysloktjørna" />
		<tag k="natural" v="water" />
		<tag k="ssr:stedsnr" v="310683" />
	</node>
	<node lat="60.81288202643745" lon="5.697269571700974" id="-50396">
		<tag k="name" v="Ljosavotna" />
		<tag k="natural" v="water" />
		<tag k="ssr:stedsnr" v="312483" />
		<tag k="water" v="lake" />
	</node>
	<node lat="60.75297777911133" lon="5.507002776067076" id="-50421">
		<tag k="name" v="Nordalsbekken" />
		<tag k="ssr:stedsnr" v="347084" />
		<tag k="waterway" v="stream" />
	</node>
</osm>
