<?xml version="1.0" encoding="UTF-8"?>
<osm version="0.6" generator="osmapis">
	<node lat="60.56478611045283" lon="5.370883328569939" id="-49487">
		<tag k="man_made" v="quay" />
		<tag k="name" v="Hopdalstø" />
		<tag k="place" v="locality" />
		<tag k="ssr:stedsnr" v="287368" />
	</node>
	<node lat="60.708052782049734" lon="5.170508340132895" id="-49513">
		<tag k="man_made" v="quay" />
		<tag k="name" v="Kjøsstøa" />
		<tag k="place" v="locality" />
		<tag k="ssr:stedsnr" v="44313" />
	</node>
	<node lat="60.6609583372832" lon="5.354400007469771" id="-49529">
		<tag k="man_made" v="quay" />
		<tag k="name" v="Tveitestø" />
		<tag k="place" v="locality" />
		<tag k="ssr:stedsnr" v="44487" />
	</node>
	<node lat="60.76754722215207" lon="5.104880555747198" id="-49611">
		<tag k="bridge" v="yes" />
		<tag k="layer" v="1" />
		<tag k="name" v="Lauvås" />
		<tag k="ssr:stedsnr" v="47085" />
	</node>
	<node lat="60.73865555295298" lon="5.632730561522793" id="-49612">
		<tag k="bridge" v="yes" />
		<tag k="layer" v="1" />
		<tag k="name" v="Romarheim" />
		<tag k="ssr:stedsnr" v="47093" />
	</node>
	<node lat="60.724583336908175" lon="5.214591669439278" id="-49613">
		<tag k="bridge" v="yes" />
		<tag k="layer" v="1" />
		<tag k="name" v="Vågseidet" />
		<tag k="ssr:stedsnr" v="47115" />
	</node>
	<node lat="60.6357249963283" lon="5.494711106443706" id="-49756">
		<tag k="name" v="Kanalen" />
		<tag k="ssr:stedsnr" v="105541" />
		<tag k="waterway" v="canal" />
	</node>
	<node lat="60.58338611056175" lon="5.363872220947752" id="-49823">
		<tag k="bridge" v="yes" />
		<tag k="layer" v="1" />
		<tag k="name" v="Hillesvåg" />
		<tag k="ssr:stedsnr" v="108104" />
	</node>
	<node lat="60.609413890144936" lon="5.455513894582739" id="-49824">
		<tag k="bridge" v="yes" />
		<tag k="layer" v="1" />
		<tag k="name" v="Totlandsmyra" />
		<tag k="ssr:stedsnr" v="108111" />
	</node>
	<node lat="60.697927780763834" lon="5.56610555994444" id="-49825">
		<tag k="bridge" v="yes" />
		<tag k="layer" v="1" />
		<tag k="name" v="Urdal Store" />
		<tag k="ssr:stedsnr" v="108112" />
	</node>
	<node lat="60.607483334711034" lon="5.28384443525666" id="-49826">
		<tag k="bridge" v="yes" />
		<tag k="layer" v="1" />
		<tag k="name" v="Vatne" />
		<tag k="ssr:stedsnr" v="108116" />
	</node>
	<node lat="60.51525833316273" lon="5.232319451256476" id="-49827">
		<tag k="bridge" v="yes" />
		<tag k="layer" v="1" />
		<tag k="name" v="Mjåtveitelva" />
		<tag k="ssr:stedsnr" v="108002" />
	</node>
	<node lat="60.62708888576539" lon="5.473788887431506" id="-49828">
		<tag k="bridge" v="yes" />
		<tag k="layer" v="1" />
		<tag k="name" v="Eialeitet" />
		<tag k="ssr:stedsnr" v="108020" />
	</node>
	<node lat="60.62398611152445" lon="5.46613333112576" id="-49829">
		<tag k="bridge" v="yes" />
		<tag k="layer" v="1" />
		<tag k="name" v="Klokkarundergang" />
		<tag k="ssr:stedsnr" v="108089" />
	</node>
	<node lat="60.70992499956056" lon="5.524850007714584" id="-49876">
		<tag k="bridge" v="yes" />
		<tag k="layer" v="1" />
		<tag k="name" v="Sæterbrua" />
		<tag k="ssr:stedsnr" v="127306" />
	</node>
	<node lat="60.62798055816673" lon="5.18670278009192" id="-49895">
		<tag k="fixme" v="verify maritime location" />
		<tag k="mooring" v="yes" />
		<tag k="name" v="Sæbøstøa" />
		<tag k="place" v="locality" />
		<tag k="ssr:stedsnr" v="145275" />
	</node>
	<node lat="60.66317777508965" lon="5.367472218405965" id="-49905">
		<tag k="fixme" v="verify maritime location" />
		<tag k="mooring" v="yes" />
		<tag k="name" v="Gongstøa" />
		<tag k="place" v="locality" />
		<tag k="ssr:stedsnr" v="165304" />
	</node>
	<node lat="60.62825833151964" lon="5.4753555487397145" id="-49997">
		<tag k="bridge" v="yes" />
		<tag k="layer" v="1" />
		<tag k="name" v="Dalland" />
		<tag k="ssr:stedsnr" v="168018" />
	</node>
	<node lat="60.614372224646004" lon="5.42832778589698" id="-49998">
		<tag k="bridge" v="yes" />
		<tag k="layer" v="1" />
		<tag k="name" v="Bedehusvegen" />
		<tag k="ssr:stedsnr" v="168023" />
	</node>
	<node lat="60.570280552031626" lon="5.376302785656174" id="-49999">
		<tag k="bridge" v="yes" />
		<tag k="layer" v="1" />
		<tag k="name" v="Leknes" />
		<tag k="ssr:stedsnr" v="168110" />
	</node>
	<node lat="60.778927774764995" lon="5.068688894721321" id="-50000">
		<tag k="bridge" v="yes" />
		<tag k="layer" v="1" />
		<tag k="name" v="Hellestveit" />
		<tag k="ssr:stedsnr" v="168118" />
	</node>
	<node lat="60.60593610869415" lon="5.432677769915854" id="-50076">
		<tag k="man_made" v="quay" />
		<tag k="name" v="Gangstø" />
		<tag k="place" v="locality" />
		<tag k="ssr:stedsnr" v="226289" />
	</node>
	<node lat="60.553452776615615" lon="5.271469451924192" id="-50095">
		<tag k="man_made" v="quay" />
		<tag k="name" v="Herlandstøa" />
		<tag k="place" v="locality" />
		<tag k="ssr:stedsnr" v="227102" />
	</node>
	<node lat="60.65259999819073" lon="5.321922216486036" id="-50108">
		<tag k="man_made" v="quay" />
		<tag k="name" v="Støa" />
		<tag k="place" v="locality" />
		<tag k="ssr:stedsnr" v="227082" />
	</node>
	<node lat="60.61486111369649" lon="5.264191666142669" id="-50160">
		<tag k="bridge" v="yes" />
		<tag k="layer" v="1" />
		<tag k="name" v="Stokke" />
		<tag k="ssr:stedsnr" v="229088" />
	</node>
	<node lat="60.58867499945031" lon="5.178499996300936" id="-50257">
		<tag k="man_made" v="quay" />
		<tag k="name" v="Vetås kai" />
		<tag k="place" v="locality" />
		<tag k="ssr:stedsnr" v="287796" />
	</node>
	<node lat="60.73285833332471" lon="5.668994446621375" id="-50263">
		<tag k="fixme" v="verify maritime location" />
		<tag k="mooring" v="yes" />
		<tag k="name" v="Vetle Bjørnstøa" />
		<tag k="place" v="locality" />
		<tag k="ssr:stedsnr" v="287987" />
	</node>
	<node lat="60.67031111270324" lon="5.1674194353865115" id="-50308">
		<tag k="bridge" v="yes" />
		<tag k="layer" v="1" />
		<tag k="name" v="Skåtsund" />
		<tag k="ssr:stedsnr" v="290102" />
	</node>
	<node lat="60.73723055497766" lon="5.161527769804895" id="-50309">
		<tag k="bridge" v="yes" />
		<tag k="layer" v="1" />
		<tag k="name" v="Fonnebostvegen" />
		<tag k="ssr:stedsnr" v="290107" />
	</node>
	<node lat="60.732305557386425" lon="5.276627770012492" id="-50383">
		<tag k="man_made" v="quay" />
		<tag k="name" v="Sævrås kai" />
		<tag k="place" v="locality" />
		<tag k="ssr:stedsnr" v="469148" />
	</node>
	<node lat="60.67090555683113" lon="5.355950006262475" id="-50468">
		<tag k="highway" v="path" />
		<tag k="name" v="Stien" />
		<tag k="ssr:stedsnr" v="470123" />
	</node>
	<node lat="60.57453055304375" lon="5.370816671507298" id="-50504">
		<tag k="bridge" v="yes" />
		<tag k="layer" v="1" />
		<tag k="name" v="Leiknes" />
		<tag k="ssr:stedsnr" v="472091" />
	</node>
	<node lat="60.63176944185578" lon="5.357127783624045" id="-50505">
		<tag k="bridge" v="yes" />
		<tag k="layer" v="1" />
		<tag k="name" v="Høyland" />
		<tag k="ssr:stedsnr" v="472100" />
	</node>
	<node lat="60.61526388985058" lon="5.41939444166997" id="-50577">
		<tag k="bridge" v="yes" />
		<tag k="layer" v="1" />
		<tag k="name" v="Vatshelle" />
		<tag k="ssr:stedsnr" v="350113" />
	</node>
	<node lat="60.55986389030175" lon="5.329819437861924" id="-50653">
		<tag k="man_made" v="quay" />
		<tag k="name" v="Nepstadstøa" />
		<tag k="place" v="locality" />
		<tag k="ssr:stedsnr" v="409099" />
	</node>
	<node lat="60.801786107908" lon="5.617813893118515" id="-50713">
		<tag k="bridge" v="yes" />
		<tag k="layer" v="1" />
		<tag k="name" v="Olsbotn" />
		<tag k="ssr:stedsnr" v="411107" />
	</node>
	<node lat="60.55500832953378" lon="5.308558324803035" id="-50714">
		<tag k="bridge" v="yes" />
		<tag k="layer" v="1" />
		<tag k="name" v="Gjervik" />
		<tag k="ssr:stedsnr" v="411112" />
	</node>
	<node lat="60.61494444467218" lon="5.424366671376183" id="-50715">
		<tag k="bridge" v="yes" />
		<tag k="layer" v="1" />
		<tag k="name" v="Hindenesvegen" />
		<tag k="ssr:stedsnr" v="411114" />
	</node>
	<node lat="60.679941670252475" lon="5.147349990567603" id="-50978">
		<tag k="bridge" v="yes" />
		<tag k="layer" v="1" />
		<tag k="name" v="Brusund" />
		<tag k="ssr:stedsnr" v="472019" />
	</node>
	<node lat="60.54164999736563" lon="5.287452780330048" id="-51069">
		<tag k="man_made" v="quay" />
		<tag k="name" v="Knarvik kai" />
		<tag k="place" v="locality" />
		<tag k="ssr:stedsnr" v="530104" />
	</node>
	<node lat="60.63011666811177" lon="5.476533339423081" id="-51159">
		<tag k="bridge" v="yes" />
		<tag k="layer" v="1" />
		<tag k="name" v="Torvmyra" />
		<tag k="ssr:stedsnr" v="532094" />
	</node>
	<node lat="60.515358333352694" lon="5.232691675494541" id="-51160">
		<tag k="bridge" v="yes" />
		<tag k="layer" v="1" />
		<tag k="name" v="Langeland II" />
		<tag k="ssr:stedsnr" v="533009" />
	</node>
	<node lat="60.7037277816588" lon="5.422380563228639" id="-51161">
		<tag k="bridge" v="yes" />
		<tag k="layer" v="1" />
		<tag k="name" v="Kjekallvågen" />
		<tag k="ssr:stedsnr" v="533086" />
	</node>
	<node lat="60.733883335102135" lon="5.1711722140989025" id="-51162">
		<tag k="bridge" v="yes" />
		<tag k="layer" v="1" />
		<tag k="name" v="Haugatun" />
		<tag k="ssr:stedsnr" v="533088" />
	</node>
	<node lat="60.73196111415632" lon="5.203455551889722" id="-51163">
		<tag k="bridge" v="yes" />
		<tag k="layer" v="1" />
		<tag k="name" v="Fjellanger" />
		<tag k="ssr:stedsnr" v="533091" />
	</node>
	<node lat="60.55342500170494" lon="5.273561112017759" id="-51164">
		<tag k="bridge" v="yes" />
		<tag k="layer" v="1" />
		<tag k="name" v="Isdalsbakken" />
		<tag k="ssr:stedsnr" v="533092" />
	</node>
	<node lat="60.685169445237975" lon="5.121375003333984" id="-51232">
		<tag k="fixme" v="verify maritime location" />
		<tag k="mooring" v="yes" />
		<tag k="name" v="Vasstøa" />
		<tag k="place" v="locality" />
		<tag k="ssr:stedsnr" v="590258" />
	</node>
	<node lat="60.609688893029436" lon="5.442405547657547" id="-51300">
		<tag k="bridge" v="yes" />
		<tag k="layer" v="1" />
		<tag k="name" v="Taterhøla" />
		<tag k="ssr:stedsnr" v="593123" />
	</node>
	<node lat="60.65431110690916" lon="5.367874999842003" id="-51408">
		<tag k="man_made" v="quay" />
		<tag k="name" v="Vetterstø" />
		<tag k="place" v="locality" />
		<tag k="ssr:stedsnr" v="651491" />
	</node>
	<node lat="60.6971333367503" lon="5.010086103080937" id="-51423">
		<tag k="bridge" v="yes" />
		<tag k="layer" v="1" />
		<tag k="name" v="Kyrkjekloppa" />
		<tag k="ssr:stedsnr" v="651643" />
	</node>
	<node lat="60.66389722548" lon="5.1348027696379255" id="-51462">
		<tag k="bridge" v="yes" />
		<tag k="layer" v="1" />
		<tag k="name" v="Bergfjord" />
		<tag k="ssr:stedsnr" v="654006" />
	</node>
	<node lat="60.68825833506129" lon="5.449838886372122" id="-51463">
		<tag k="bridge" v="yes" />
		<tag k="layer" v="1" />
		<tag k="name" v="Dyrdal" />
		<tag k="ssr:stedsnr" v="654007" />
	</node>
	<node lat="60.5710737201297" lon="5.229770737425878" id="-51464">
		<tag k="bridge" v="yes" />
		<tag k="layer" v="1" />
		<tag k="name" v="Alverstraumen" />
		<tag k="ssr:stedsnr" v="654013" />
	</node>
	<node lat="60.64732777714528" lon="5.075502776546669" id="-51654">
		<tag k="bridge" v="yes" />
		<tag k="layer" v="1" />
		<tag k="name" v="Halland" />
		<tag k="ssr:stedsnr" v="897027" />
	</node>
	<node lat="60.7058972261632" lon="5.225255554851313" id="-51655">
		<tag k="bridge" v="yes" />
		<tag k="layer" v="1" />
		<tag k="name" v="Torvena" />
		<tag k="ssr:stedsnr" v="897120" />
	</node>
	<node lat="60.645075000952204" lon="5.289172225681862" id="-51659">
		<tag k="ford" v="yes" />
		<tag k="name" v="Kustøa" />
		<tag k="place" v="locality" />
		<tag k="ssr:stedsnr" v="711081" />
	</node>
	<node lat="60.619938890308845" lon="5.39618611623105" id="-51714">
		<tag k="ford" v="yes" />
		<tag k="name" v="Vetravadet" />
		<tag k="place" v="locality" />
		<tag k="ssr:stedsnr" v="712299" />
	</node>
	<node lat="60.59769444533628" lon="5.374175008286969" id="-51764">
		<tag k="bridge" v="yes" />
		<tag k="layer" v="1" />
		<tag k="name" v="Vikane" />
		<tag k="ssr:stedsnr" v="715116" />
	</node>
	<node lat="60.63259166525906" lon="5.137261106229105" id="-52036">
		<tag k="bridge" v="yes" />
		<tag k="layer" v="1" />
		<tag k="name" v="Dale" />
		<tag k="ssr:stedsnr" v="836012" />
	</node>
	<node lat="60.533658337502715" lon="5.117216665346476" id="-52184">
		<tag k="bridge" v="yes" />
		<tag k="layer" v="1" />
		<tag k="name" v="Fløksandselva" />
		<tag k="ssr:stedsnr" v="897004" />
	</node>
	<node lat="60.61039444366075" lon="5.461350000116323" id="-52185">
		<tag k="bridge" v="yes" />
		<tag k="layer" v="1" />
		<tag k="name" v="Totlandsvegen" />
		<tag k="ssr:stedsnr" v="897117" />
	</node>
	<node lat="60.731044442844095" lon="5.516911110793534" id="-52514">
		<tag k="man_made" v="quay" />
		<tag k="name" v="Fjellenausta" />
		<tag k="place" v="locality" />
		<tag k="ssr:stedsnr" v="45665" />
	</node>
	<node lat="60.64013889019469" lon="4.9910999911889435" id="-52542">
		<tag k="bridge" v="yes" />
		<tag k="layer" v="1" />
		<tag k="name" v="Skrubbholmsundet" />
		<tag k="ssr:stedsnr" v="47016" />
	</node>
	<node lat="60.614719442064626" lon="5.160130553173796" id="-52543">
		<tag k="bridge" v="yes" />
		<tag k="layer" v="1" />
		<tag k="name" v="Solheim" />
		<tag k="ssr:stedsnr" v="47018" />
	</node>
	<node lat="60.57082221955349" lon="5.230383327877357" id="-52644">
		<tag k="fixme" v="verify maritime location" />
		<tag k="mooring" v="yes" />
		<tag k="name" v="Prestestøa" />
		<tag k="place" v="locality" />
		<tag k="ssr:stedsnr" v="105420" />
	</node>
	<node lat="60.72860555862796" lon="5.2648972247527555" id="-52742">
		<tag k="bridge" v="yes" />
		<tag k="layer" v="1" />
		<tag k="name" v="Natåselva" />
		<tag k="ssr:stedsnr" v="108096" />
	</node>
	<node lat="60.70760555710813" lon="4.96654999936772" id="-52875">
		<tag k="bridge" v="yes" />
		<tag k="layer" v="1" />
		<tag k="name" v="Småkloppa" />
		<tag k="ssr:stedsnr" v="166334" />
	</node>
	<node lat="60.55826944112068" lon="5.031188894653416" id="-53207">
		<tag k="bridge" v="yes" />
		<tag k="layer" v="1" />
		<tag k="name" v="Iestraumen" />
		<tag k="ssr:stedsnr" v="228342" />
	</node>
	<node lat="60.608163893012225" lon="5.431177781276501" id="-53335">
		<tag k="bridge" v="yes" />
		<tag k="layer" v="1" />
		<tag k="name" v="Eiknesvåg" />
		<tag k="ssr:stedsnr" v="290018" />
	</node>
	<node lat="60.66310277773263" lon="5.365994445110511" id="-53395">
		<tag k="man_made" v="quay" />
		<tag k="name" v="Gangstø" />
		<tag k="place" v="locality" />
		<tag k="ssr:stedsnr" v="347245" />
	</node>
	<node lat="60.5573750003242" lon="5.323686109767062" id="-53444">
		<tag k="man_made" v="quay" />
		<tag k="name" v="Grøttveitstøa" />
		<tag k="place" v="locality" />
		<tag k="ssr:stedsnr" v="348067" />
	</node>
	<node lat="60.64105555928766" lon="5.004819442716765" id="-53545">
		<tag k="bridge" v="yes" />
		<tag k="layer" v="1" />
		<tag k="name" v="Mangerøy" />
		<tag k="ssr:stedsnr" v="350020" />
	</node>
	<node lat="60.65655833735445" lon="5.3445083303627" id="-53546">
		<tag k="bridge" v="yes" />
		<tag k="layer" v="1" />
		<tag k="name" v="Kløvheim" />
		<tag k="ssr:stedsnr" v="350078" />
	</node>
	<node lat="60.63750833303086" lon="5.488566660235185" id="-53547">
		<tag k="bridge" v="yes" />
		<tag k="layer" v="1" />
		<tag k="name" v="Storbotn" />
		<tag k="ssr:stedsnr" v="350080" />
	</node>
	<node lat="60.59654999771854" lon="5.368394451721097" id="-53548">
		<tag k="bridge" v="yes" />
		<tag k="layer" v="1" />
		<tag k="name" v="Lyngholmsundet" />
		<tag k="ssr:stedsnr" v="350085" />
	</node>
	<node lat="60.726388895886025" lon="5.0073819839828255" id="-53715">
		<tag k="fixme" v="verify maritime location" />
		<tag k="mooring" v="yes" />
		<tag k="name" v="Tongestøa" />
		<tag k="place" v="locality" />
		<tag k="ssr:stedsnr" v="409686" />
	</node>
	<node lat="60.608755559247406" lon="5.396205549841227" id="-53735">
		<tag k="bridge" v="yes" />
		<tag k="layer" v="1" />
		<tag k="name" v="Eikangervåg" />
		<tag k="ssr:stedsnr" v="411014" />
	</node>
	<node lat="60.64093610919576" lon="4.983680554216399" id="-53944">
		<tag k="bridge" v="yes" />
		<tag k="layer" v="1" />
		<tag k="name" v="Toskasundet" />
		<tag k="ssr:stedsnr" v="533025" />
	</node>
	<node lat="60.688611113343896" lon="5.1167694440370255" id="-54007">
		<tag k="man_made" v="quay" />
		<tag k="name" v="Prestebryggja" />
		<tag k="place" v="locality" />
		<tag k="ssr:stedsnr" v="570245" />
	</node>
	<node lat="60.54061666736401" lon="5.113536112006111" id="-54173">
		<tag k="bridge" v="yes" />
		<tag k="layer" v="1" />
		<tag k="name" v="Fløksandselva" />
		<tag k="ssr:stedsnr" v="593007" />
	</node>
	<node lat="60.53039444762989" lon="5.154858329850915" id="-54174">
		<tag k="bridge" v="yes" />
		<tag k="layer" v="1" />
		<tag k="name" v="Holme" />
		<tag k="ssr:stedsnr" v="593010" />
	</node>
	<node lat="60.590302774476" lon="5.362438895041339" id="-54175">
		<tag k="bridge" v="yes" />
		<tag k="layer" v="1" />
		<tag k="name" v="Apalen" />
		<tag k="ssr:stedsnr" v="593025" />
	</node>
	<node lat="60.703127777749906" lon="4.930491674016572" id="-54176">
		<tag k="bridge" v="yes" />
		<tag k="layer" v="1" />
		<tag k="name" v="Bøkvennane" />
		<tag k="ssr:stedsnr" v="593027" />
	</node>
	<node lat="60.61172499689472" lon="5.398500005689321" id="-54177">
		<tag k="bridge" v="yes" />
		<tag k="layer" v="1" />
		<tag k="name" v="Vikje" />
		<tag k="ssr:stedsnr" v="593126" />
	</node>
	<node lat="60.55828333304778" lon="5.3216777840927305" id="-54400">
		<tag k="bridge" v="yes" />
		<tag k="layer" v="1" />
		<tag k="name" v="Grøttveit" />
		<tag k="ssr:stedsnr" v="654090" />
	</node>
	<node lat="60.54998055852812" lon="5.299844446390214" id="-54401">
		<tag k="bridge" v="yes" />
		<tag k="layer" v="1" />
		<tag k="name" v="Såta" />
		<tag k="ssr:stedsnr" v="654101" />
	</node>
</osm>
