<?xml version="1.0" encoding="UTF-8"?>
<<<<<<< HEAD
<osm version="0.6" generator="osmapis">
	<node lat="59.44678888654828" lon="10.399941658738793" id="-20539">
		<tag k="fixme" v="consider natural=peak for the most distinct mountains in the district" />
		<tag k="name" v="Slettefjell" />
		<tag k="natural" v="hill" />
		<tag k="place" v="locality" />
		<tag k="ssr:stedsnr" v="184941" />
	</node>
	<node lat="59.436822225223025" lon="10.398402782417442" id="-20541">
		<tag k="name" v="Solhøiden" />
		<tag k="natural" v="hill" />
		<tag k="place" v="locality" />
		<tag k="ssr:stedsnr" v="267858" />
	</node>
	<node lat="59.35389999986004" lon="10.389999996143915" id="-20547">
		<tag k="fixme" v="consider natural=peak for the most distinct mountains in the district" />
		<tag k="name" v="Tangsrødåsen" />
		<tag k="natural" v="hill" />
=======
<osm generator="osmapis" version="0.6">
	<node id="-406912" lat="59.3840361127" lon="10.5031361083">
		<tag k="name" v="Fjonberget" />
>>>>>>> e1d4bc35ff8a6074a6f2e91616a996b547c36f15
		<tag k="place" v="locality" />
		<tag k="ssr:stedsnr" v="210403" />
	</node>
<<<<<<< HEAD
	<node lat="59.35597777432014" lon="10.459549993137246" id="-20579">
		<tag k="fixme" v="consider natural=peak for the most distinct mountains in the district" />
		<tag k="name" v="Damåsen" />
		<tag k="natural" v="hill" />
		<tag k="place" v="locality" />
		<tag k="ssr:stedsnr" v="401032" />
	</node>
	<node lat="59.3484694437159" lon="10.453749997768416" id="-20593">
		<tag k="name" v="Rønningen" />
		<tag k="natural" v="slope" />
		<tag k="place" v="locality" />
		<tag k="ssr:stedsnr" v="450816" />
	</node>
	<node lat="59.346922219030404" lon="10.46456944173018" id="-20594">
		<tag k="alt_name" v="Bakåsen" />
=======
	<node id="-407037" lat="59.3558833372" lon="10.3965972203">
		<tag k="name" v="Gråmunken" />
		<tag k="natural" v="hill" />
		<tag k="place" v="locality" />
		<tag k="ssr:stedsnr" v="574430" />
	</node>
	<node id="-406906" lat="59.4085861136" lon="10.346816673">
>>>>>>> e1d4bc35ff8a6074a6f2e91616a996b547c36f15
		<tag k="fixme" v="consider natural=peak for the most distinct mountains in the district" />
		<tag k="name" v="Bagåsen" />
		<tag k="natural" v="hill" />
		<tag k="place" v="locality" />
		<tag k="ssr:stedsnr" v="450818" />
	</node>
<<<<<<< HEAD
	<node lat="59.411747222100175" lon="10.454280553360062" id="-20595">
		<tag k="name" v="Kampenhaugen" />
=======
	<node id="-406777" lat="59.3743750024" lon="10.3986333405">
		<tag k="fixme" v="consider natural=peak for the most distinct mountains in the district" />
		<tag k="name" v="Adalsborgen" />
>>>>>>> e1d4bc35ff8a6074a6f2e91616a996b547c36f15
		<tag k="natural" v="hill" />
		<tag k="place" v="locality" />
		<tag k="ssr:stedsnr" v="450822" />
	</node>
<<<<<<< HEAD
	<node lat="59.43165833427985" lon="10.444461102402231" id="-20608">
		<tag k="name" v="Nordlibakken" />
		<tag k="natural" v="slope" />
=======
	<node id="-406775" lat="59.3782777755" lon="10.5330277841">
		<tag k="name" v="Briskesletta" />
>>>>>>> e1d4bc35ff8a6074a6f2e91616a996b547c36f15
		<tag k="place" v="locality" />
		<tag k="ssr:stedsnr" v="512895" />
	</node>
<<<<<<< HEAD
	<node lat="59.44779722094001" lon="10.39615832993533" id="-20610">
		<tag k="name" v="Katterenna" />
=======
	<node id="-406909" lat="59.4069250011" lon="10.4790694517">
		<tag k="name" v="Kjeldsbergs plass" />
		<tag k="place" v="locality" />
		<tag k="ssr:stedsnr" v="86825" />
	</node>
	<node id="-406888" lat="59.4462166694" lon="10.4056972289">
		<tag k="name" v="Veggefjellet" />
>>>>>>> e1d4bc35ff8a6074a6f2e91616a996b547c36f15
		<tag k="natural" v="hill" />
		<tag k="place" v="locality" />
		<tag k="ssr:stedsnr" v="513367" />
	</node>
<<<<<<< HEAD
	<node lat="59.4503222203497" lon="10.443202771240436" id="-20618">
		<tag k="loc_name" v="Veggfjell" />
		<tag k="name" v="Veggefjell" />
		<tag k="natural" v="hill" />
=======
	<node id="-406755" lat="59.362416665" lon="10.3884611067">
		<tag k="name" v="Svartedal" />
		<tag k="natural" v="valley" />
>>>>>>> e1d4bc35ff8a6074a6f2e91616a996b547c36f15
		<tag k="place" v="locality" />
		<tag k="ssr:stedsnr" v="692840" />
	</node>
<<<<<<< HEAD
	<node lat="59.43389166223452" lon="10.432330557009088" id="-20620">
		<tag k="name" v="Bjerkerønningen" />
		<tag k="natural" v="slope" />
=======
	<node id="-406971" lat="59.4031055587" lon="10.4136999914">
		<tag k="name" v="Bondalen" />
		<tag k="natural" v="valley" />
		<tag k="place" v="locality" />
		<tag k="ssr:stedsnr" v="306483" />
	</node>
	<node id="-406750" lat="59.3724944467" lon="10.5333277783">
		<tag k="name" v="Storsletta" />
>>>>>>> e1d4bc35ff8a6074a6f2e91616a996b547c36f15
		<tag k="place" v="locality" />
		<tag k="ssr:stedsnr" v="692848" />
	</node>
<<<<<<< HEAD
	<node lat="59.427811110335135" lon="10.494172214248495" id="-20624">
=======
	<node id="-406749" lat="59.4278111103" lon="10.4941722142">
>>>>>>> e1d4bc35ff8a6074a6f2e91616a996b547c36f15
		<tag k="name" v="Vollen" />
		<tag k="natural" v="slope" />
		<tag k="place" v="locality" />
		<tag k="ssr:stedsnr" v="694159" />
	</node>
<<<<<<< HEAD
	<node lat="59.37249444673011" lon="10.533327778254435" id="-20625">
		<tag k="name" v="Storsletta" />
=======
	<node id="-406748" lat="59.4338916622" lon="10.432330557">
		<tag k="name" v="Bjerkerønningen" />
		<tag k="natural" v="slope" />
>>>>>>> e1d4bc35ff8a6074a6f2e91616a996b547c36f15
		<tag k="place" v="locality" />
		<tag k="ssr:stedsnr" v="694163" />
	</node>
<<<<<<< HEAD
	<node lat="59.43594166823337" lon="10.449811115594546" id="-20629">
		<tag k="name" v="Evje" />
		<tag k="natural" v="slope" />
=======
	<node id="-406746" lat="59.4503222203" lon="10.4432027712">
		<tag k="loc_name" v="Veggfjell" />
		<tag k="name" v="Veggefjell" />
		<tag k="natural" v="hill" />
>>>>>>> e1d4bc35ff8a6074a6f2e91616a996b547c36f15
		<tag k="place" v="locality" />
		<tag k="ssr:stedsnr" v="694855" />
	</node>
<<<<<<< HEAD
	<node lat="59.36241666500906" lon="10.388461106716052" id="-20633">
		<tag k="name" v="Svartedal" />
		<tag k="natural" v="valley" />
=======
	<node id="-407001" lat="59.3559777743" lon="10.4595499931">
		<tag k="fixme" v="consider natural=peak for the most distinct mountains in the district" />
		<tag k="name" v="Damåsen" />
		<tag k="natural" v="hill" />
>>>>>>> e1d4bc35ff8a6074a6f2e91616a996b547c36f15
		<tag k="place" v="locality" />
		<tag k="ssr:stedsnr" v="695394" />
	</node>
<<<<<<< HEAD
	<node lat="59.44621666941505" lon="10.405697228890485" id="-20731">
		<tag k="name" v="Veggefjellet" />
		<tag k="natural" v="hill" />
=======
	<node id="-406995" lat="59.4170111088" lon="10.4795749953">
		<tag k="name" v="Nordre Brårud" />
>>>>>>> e1d4bc35ff8a6074a6f2e91616a996b547c36f15
		<tag k="place" v="locality" />
		<tag k="ssr:stedsnr" v="28346" />
	</node>
<<<<<<< HEAD
	<node lat="59.408586113603064" lon="10.34681667296468" id="-20750">
=======
	<node id="-406994" lat="59.4178277772" lon="10.464080552">
>>>>>>> e1d4bc35ff8a6074a6f2e91616a996b547c36f15
		<tag k="fixme" v="consider natural=peak for the most distinct mountains in the district" />
		<tag k="name" v="Kjærranåsen" />
		<tag k="natural" v="hill" />
		<tag k="place" v="locality" />
		<tag k="ssr:stedsnr" v="63972" />
	</node>
<<<<<<< HEAD
	<node lat="59.4069250010869" lon="10.47906945174965" id="-20752">
		<tag k="name" v="Kjeldsbergs plass" />
=======
	<node id="-406722" lat="59.4477972209" lon="10.3961583299">
		<tag k="name" v="Katterenna" />
		<tag k="natural" v="hill" />
>>>>>>> e1d4bc35ff8a6074a6f2e91616a996b547c36f15
		<tag k="place" v="locality" />
		<tag k="ssr:stedsnr" v="86825" />
	</node>
<<<<<<< HEAD
	<node lat="59.384036112714504" lon="10.503136108328382" id="-20756">
		<tag k="name" v="Fjonberget" />
=======
	<node id="-406721" lat="59.4316583343" lon="10.4444611024">
		<tag k="name" v="Nordlibakken" />
		<tag k="natural" v="slope" />
>>>>>>> e1d4bc35ff8a6074a6f2e91616a996b547c36f15
		<tag k="place" v="locality" />
		<tag k="ssr:stedsnr" v="87165" />
	</node>
<<<<<<< HEAD
	<node lat="59.371108334414615" lon="10.455880562424579" id="-20775">
		<tag k="name" v="Mastebakke" />
		<tag k="natural" v="slope" />
		<tag k="place" v="locality" />
		<tag k="ssr:stedsnr" v="146788" />
	</node>
	<node lat="59.4031055587249" lon="10.413699991424386" id="-20808">
		<tag k="name" v="Bondalen" />
		<tag k="natural" v="valley" />
		<tag k="place" v="locality" />
		<tag k="ssr:stedsnr" v="306483" />
	</node>
	<node lat="59.417827777248526" lon="10.464080552008552" id="-20824">
=======
	<node id="-407099" lat="59.4372611093" lon="10.4326027693">
		<tag k="fixme" v="consider natural=peak for the most distinct mountains in the district" />
		<tag k="name" v="Veierudåsen" />
		<tag k="natural" v="hill" />
		<tag k="place" v="locality" />
		<tag k="ssr:stedsnr" v="874851" />
	</node>
	<node id="-407097" lat="59.4168583378" lon="10.4684249984">
>>>>>>> e1d4bc35ff8a6074a6f2e91616a996b547c36f15
		<tag k="fixme" v="consider natural=peak for the most distinct mountains in the district" />
		<tag k="name" v="Røråsen" />
		<tag k="natural" v="hill" />
		<tag k="place" v="locality" />
		<tag k="ssr:stedsnr" v="389822" />
	</node>
	<node lat="59.41701110881795" lon="10.479574995340483" id="-20825">
		<tag k="name" v="Nordre Brårud" />
		<tag k="place" v="locality" />
		<tag k="ssr:stedsnr" v="389824" />
	</node>
<<<<<<< HEAD
	<node lat="59.43064999748937" lon="10.43746943772139" id="-20828">
=======
	<node id="-406708" lat="59.4306499975" lon="10.4374694377">
>>>>>>> e1d4bc35ff8a6074a6f2e91616a996b547c36f15
		<tag k="fixme" v="consider natural=peak for the most distinct mountains in the district" />
		<tag k="name" v="Utsikten" />
		<tag k="natural" v="hill" />
		<tag k="place" v="locality" />
		<tag k="ssr:stedsnr" v="390854" />
	</node>
<<<<<<< HEAD
	<node lat="59.379922225125135" lon="10.46673056155167" id="-20848">
		<tag k="name" v="Spillemannshaugen" />
=======
	<node id="-407086" lat="59.4415861154" lon="10.4149472191">
		<tag k="name" v="Veggen" />
>>>>>>> e1d4bc35ff8a6074a6f2e91616a996b547c36f15
		<tag k="natural" v="hill" />
		<tag k="place" v="locality" />
		<tag k="ssr:stedsnr" v="510874" />
	</node>
<<<<<<< HEAD
	<node lat="59.35588333720588" lon="10.396597220275991" id="-20866">
		<tag k="name" v="Gråmunken" />
=======
	<node id="-406953" lat="59.4467888865" lon="10.3999416587">
		<tag k="fixme" v="consider natural=peak for the most distinct mountains in the district" />
		<tag k="name" v="Slettefjell" />
>>>>>>> e1d4bc35ff8a6074a6f2e91616a996b547c36f15
		<tag k="natural" v="hill" />
		<tag k="place" v="locality" />
		<tag k="ssr:stedsnr" v="574430" />
	</node>
<<<<<<< HEAD
	<node lat="59.37827777549124" lon="10.533027784080202" id="-20885">
		<tag k="name" v="Briskesletta" />
=======
	<node id="-406938" lat="59.3711083344" lon="10.4558805624">
		<tag k="name" v="Mastebakke" />
		<tag k="natural" v="slope" />
>>>>>>> e1d4bc35ff8a6074a6f2e91616a996b547c36f15
		<tag k="place" v="locality" />
		<tag k="ssr:stedsnr" v="633215" />
	</node>
<<<<<<< HEAD
	<node lat="59.37437500243161" lon="10.398633340496067" id="-20887">
		<tag k="fixme" v="consider natural=peak for the most distinct mountains in the district" />
		<tag k="name" v="Adalsborgen" />
		<tag k="natural" v="hill" />
		<tag k="place" v="locality" />
		<tag k="ssr:stedsnr" v="634411" />
	</node>
	<node lat="59.426824998633336" lon="10.399980556872597" id="-20905">
=======
	<node id="-407065" lat="59.3748222194" lon="10.5253611178">
		<tag k="name" v="Fryden" />
		<tag k="natural" v="hill" />
		<tag k="place" v="locality" />
		<tag k="ssr:stedsnr" v="755188" />
	</node>
	<node id="-406680" lat="59.346922219" lon="10.4645694417">
		<tag k="alt_name" v="Bakåsen" />
>>>>>>> e1d4bc35ff8a6074a6f2e91616a996b547c36f15
		<tag k="fixme" v="consider natural=peak for the most distinct mountains in the district" />
		<tag k="name" v="Skånevetan" />
		<tag k="natural" v="hill" />
		<tag k="place" v="locality" />
<<<<<<< HEAD
		<tag k="ssr:stedsnr" v="730990" />
	</node>
	<node lat="59.3748222194196" lon="10.525361117840964" id="-20906">
		<tag k="name" v="Fryden" />
=======
		<tag k="ssr:stedsnr" v="450818" />
	</node>
	<node id="-406679" lat="59.3484694437" lon="10.4537499978">
		<tag k="name" v="Rønningen" />
		<tag k="natural" v="slope" />
		<tag k="place" v="locality" />
		<tag k="ssr:stedsnr" v="450816" />
	</node>
	<node id="-406681" lat="59.4117472221" lon="10.4542805534">
		<tag k="name" v="Kampenhaugen" />
>>>>>>> e1d4bc35ff8a6074a6f2e91616a996b547c36f15
		<tag k="natural" v="hill" />
		<tag k="place" v="locality" />
		<tag k="ssr:stedsnr" v="450822" />
	</node>
<<<<<<< HEAD
	<node lat="59.44158611540863" lon="10.414947219099306" id="-20927">
		<tag k="name" v="Veggen" />
=======
	<node id="-406675" lat="59.3538999999" lon="10.3899999961">
		<tag k="fixme" v="consider natural=peak for the most distinct mountains in the district" />
		<tag k="name" v="Tangsrødåsen" />
>>>>>>> e1d4bc35ff8a6074a6f2e91616a996b547c36f15
		<tag k="natural" v="hill" />
		<tag k="place" v="locality" />
		<tag k="ssr:stedsnr" v="817840" />
	</node>
<<<<<<< HEAD
	<node lat="59.41685833776371" lon="10.468424998390272" id="-20939">
=======
	<node id="-406801" lat="59.4268249986" lon="10.3999805569">
>>>>>>> e1d4bc35ff8a6074a6f2e91616a996b547c36f15
		<tag k="fixme" v="consider natural=peak for the most distinct mountains in the district" />
		<tag k="name" v="Brårudåsen" />
		<tag k="natural" v="hill" />
		<tag k="place" v="locality" />
		<tag k="ssr:stedsnr" v="874835" />
	</node>
<<<<<<< HEAD
	<node lat="59.437261109253775" lon="10.432602769336178" id="-20941">
		<tag k="fixme" v="consider natural=peak for the most distinct mountains in the district" />
		<tag k="name" v="Veierudåsen" />
		<tag k="natural" v="hill" />
		<tag k="place" v="locality" />
		<tag k="ssr:stedsnr" v="874851" />
	</node>
	<node lat="59.40178202154419" lon="10.381829289475332" id="-20979">
		<tag k="fixme" v="consider natural=peak for the most distinct mountains in the district" />
		<tag k="name" v="Skotåsen" />
		<tag k="natural" v="hill" />
		<tag k="place" v="locality" />
		<tag k="ssr:stedsnr" v="1079112" />
=======
	<node id="-406715" lat="59.3799222251" lon="10.4667305616">
		<tag k="name" v="Spillemannshaugen" />
		<tag k="natural" v="hill" />
		<tag k="place" v="locality" />
		<tag k="ssr:stedsnr" v="510874" />
	</node>
	<node id="-406793" lat="59.4359416682" lon="10.4498111156">
		<tag k="name" v="Evje" />
		<tag k="natural" v="slope" />
		<tag k="place" v="locality" />
		<tag k="ssr:stedsnr" v="694855" />
	</node>
	<node id="-406658" lat="59.4368222252" lon="10.3984027824">
		<tag k="name" v="Solhøiden" />
		<tag k="natural" v="hill" />
		<tag k="place" v="locality" />
		<tag k="ssr:stedsnr" v="267858" />
>>>>>>> e1d4bc35ff8a6074a6f2e91616a996b547c36f15
	</node>
</osm>
