<?xml version="1.0" encoding="UTF-8"?>
<osm version="0.6" generator="osmapis">
	<node lat="59.41938888923416" lon="10.44126667133934" id="-55652">
		<tag k="fixme" v="consider place=hamlet" />
		<tag k="name" v="Knutsrød" />
		<tag k="place" v="farm" />
		<tag k="ssr:stedsnr" v="2975" />
	</node>
	<node lat="59.419416666661476" lon="10.397313880583692" id="-55653">
		<tag k="name" v="Grette" />
		<tag k="place" v="farm" />
		<tag k="ssr:stedsnr" v="2980" />
	</node>
	<node lat="59.431588891982784" lon="10.491630564130922" id="-55654">
		<tag k="landuse" v="military" />
		<tag k="name" v="Karljohansvern" />
		<tag k="ssr:stedsnr" v="2984" />
	</node>
	<node lat="59.369186109139754" lon="10.443155556314403" id="-55655">
		<tag k="amenity" v="school" />
		<tag k="name" v="Bakkenteigen" />
		<tag k="ssr:stedsnr" v="21052" />
	</node>
	<node lat="59.36009166732779" lon="10.426197219437901" id="-55656">
		<tag k="fixme" v="consider place=hamlet" />
		<tag k="name" v="Dal" />
		<tag k="place" v="farm" />
		<tag k="ssr:stedsnr" v="28406" />
	</node>
	<node lat="59.37512222005353" lon="10.388574993844031" id="-55657">
		<tag k="name" v="Råen" />
		<tag k="place" v="farm" />
		<tag k="ssr:stedsnr" v="28409" />
	</node>
	<node lat="59.4425861107591" lon="10.43285833827666" id="-55658">
		<tag k="fixme" v="consider place=suburb, village or hamlet" />
		<tag k="name" v="Falkensten" />
		<tag k="place" v="quarter" />
		<tag k="ssr:stedsnr" v="41827" />
	</node>
	<node lat="59.37996388792984" lon="10.473516663691127" id="-55659">
		<tag k="name" v="Klokkertangen" />
		<tag k="natural" v="cape" />
		<tag k="ssr:stedsnr" v="237435" />
	</node>
	<node lat="59.432269443758514" lon="10.363616671481225" id="-55660">
		<tag k="bridge" v="yes" />
		<tag k="layer" v="1" />
		<tag k="name" v="Nøklegård vest" />
		<tag k="ssr:stedsnr" v="46685" />
	</node>
	<node lat="59.3536722186497" lon="10.437558327985165" id="-55661">
		<tag k="amenity" v="school" />
		<tag k="name" v="Ra skole" />
		<tag k="ssr:stedsnr" v="86811" />
	</node>
	<node lat="59.40372500233868" lon="10.404838895651972" id="-55662">
		<tag k="alt_name" v="Solberg vestre" />
		<tag k="name" v="Solberg" />
		<tag k="place" v="farm" />
		<tag k="ssr:stedsnr" v="245487" />
	</node>
	<node lat="59.40284146101814" lon="10.503522817225074" id="-55663">
		<tag k="alt_name" v="Langgrunnen" />
		<tag k="name" v="Langgrunna" />
		<tag k="natural" v="shoal" />
		<tag k="place" v="locality" />
		<tag k="ssr:stedsnr" v="245494" />
	</node>
	<node lat="59.388863891556795" lon="10.38531388757271" id="-55664">
		<tag k="name" v="Kongelv" />
		<tag k="place" v="farm" />
		<tag k="ssr:stedsnr" v="245511" />
	</node>
	<node lat="59.37324166562834" lon="10.42857499543268" id="-55665">
		<tag k="name" v="Kimestad" />
		<tag k="place" v="farm" />
		<tag k="ssr:stedsnr" v="245534" />
	</node>
	<node lat="59.37033611522462" lon="10.443072225627331" id="-55666">
		<tag k="name" v="Fagerlund" />
		<tag k="place" v="farm" />
		<tag k="ssr:stedsnr" v="245536" />
	</node>
	<node lat="59.36609722064792" lon="10.387149995719136" id="-55668">
		<tag k="fixme" v="consider place=hamlet" />
		<tag k="name" v="Ødegården" />
		<tag k="place" v="farm" />
		<tag k="ssr:stedsnr" v="245546" />
	</node>
	<node lat="59.418461113968945" lon="10.37206388476266" id="-55669">
		<tag k="fixme" v="consider place=hamlet" />
		<tag k="loc_name" v="Skoppumteigen" />
		<tag k="name" v="Teigen" />
		<tag k="place" v="farm" />
		<tag k="ssr:stedsnr" v="245978" />
	</node>
	<node lat="59.43702653086003" lon="10.369485725652702" id="-55670">
		<tag k="fixme" v="consider place=hamlet" />
		<tag k="name" v="Freberg søndre" />
		<tag k="place" v="farm" />
		<tag k="ssr:stedsnr" v="88816" />
	</node>
	<node lat="59.44333888993785" lon="10.490858338422882" id="-55671">
		<tag k="name" v="Vealøs" />
		<tag k="place" v="island" />
		<tag k="ssr:stedsnr" v="245940" />
	</node>
	<node lat="59.44600277823437" lon="10.382455563292092" id="-55672">
		<tag k="name" v="Frebergsvik" />
		<tag k="natural" v="bay" />
		<tag k="ssr:stedsnr" v="245944" />
	</node>
	<node lat="59.37808055249227" lon="10.40355556249921" id="-55673">
		<tag k="name" v="Viulsrød" />
		<tag k="place" v="farm" />
		<tag k="ssr:stedsnr" v="89405" />
	</node>
	<node lat="59.37523333763753" lon="10.411658330628251" id="-55674">
		<tag k="name" v="Pjonkerød nordre" />
		<tag k="place" v="farm" />
		<tag k="ssr:stedsnr" v="89406" />
	</node>
	<node lat="59.43358888700588" lon="10.377627774049557" id="-55675">
		<tag k="name" v="Tveitan" />
		<tag k="place" v="farm" />
		<tag k="ssr:stedsnr" v="95563" />
	</node>
	<node lat="59.44354444824003" lon="10.426352782179883" id="-55677">
		<tag k="name" v="Falkenstenbukta" />
		<tag k="natural" v="bay" />
		<tag k="ssr:stedsnr" v="123955" />
	</node>
	<node lat="59.40183055233079" lon="10.42551111947402" id="-55678">
		<tag k="alt_name" v="Solberg østre" />
		<tag k="name" v="Solberg" />
		<tag k="place" v="farm" />
		<tag k="ssr:stedsnr" v="252620" />
	</node>
	<node lat="59.40073888594342" lon="10.482772224548324" id="-55679">
		<tag k="name" v="Steinsnes" />
		<tag k="natural" v="cape" />
		<tag k="ssr:stedsnr" v="146809" />
	</node>
	<node lat="59.3837138885853" lon="10.409794452638256" id="-55680">
		<tag k="name" v="Tokerød" />
		<tag k="place" v="quarter" />
		<tag k="ssr:stedsnr" v="146811" />
	</node>
	<node lat="59.389258334847476" lon="10.478602776779688" id="-55681">
		<tag k="name" v="Voldestranda" />
		<tag k="natural" v="beach" />
		<tag k="ssr:stedsnr" v="146827" />
	</node>
	<node lat="59.379005556633984" lon="10.460591673963107" id="-55682">
		<tag k="name" v="Hallingstad" />
		<tag k="place" v="quarter" />
		<tag k="ssr:stedsnr" v="180671" />
	</node>
	<node lat="59.40906944298217" lon="10.442452785121288" id="-55683">
		<tag k="fixme" v="consider place=hamlet" />
		<tag k="name" v="Eskebekk" />
		<tag k="place" v="farm" />
		<tag k="ssr:stedsnr" v="184508" />
	</node>
	<node lat="59.44678888654828" lon="10.399941658738793" id="-55684">
		<tag k="fixme" v="consider natural=peak for the most distinct mountains in the district" />
		<tag k="name" v="Slettefjell" />
		<tag k="natural" v="hill" />
		<tag k="place" v="locality" />
		<tag k="ssr:stedsnr" v="184941" />
	</node>
	<node lat="59.43742499974294" lon="10.424575004846108" id="-55685">
		<tag k="name" v="Gamlegård" />
		<tag k="place" v="locality" />
		<tag k="ssr:stedsnr" v="267856" />
	</node>
	<node lat="59.436822225223025" lon="10.398402782417442" id="-55686">
		<tag k="name" v="Solhøiden" />
		<tag k="natural" v="hill" />
		<tag k="place" v="locality" />
		<tag k="ssr:stedsnr" v="267858" />
	</node>
	<node lat="59.38091666895092" lon="10.52669444596019" id="-55687">
		<tag k="alt_name" v="Foldin" />
		<tag k="amenity" v="community_centre" />
		<tag k="name" v="Foldin skolehjem" />
		<tag k="ssr:stedsnr" v="209179" />
	</node>
	<node lat="59.37606944562758" lon="10.520177780888655" id="-55688">
		<tag k="fixme" v="consider boundary=protected_area and relevant protect_class if not nature reserve" />
		<tag k="leisure" v="nature_reserve" />
		<tag k="name" v="Bastøy landskapsvernområde" />
		<tag k="ssr:stedsnr" v="269185" />
	</node>
	<node lat="59.440041670240376" lon="10.350663894408562" id="-55689">
		<tag k="name" v="Tangen" />
		<tag k="place" v="farm" />
		<tag k="ssr:stedsnr" v="209830" />
	</node>
	<node lat="59.40173055422382" lon="10.485358337016667" id="-55690">
		<tag k="landuse" v="harbour" />
		<tag k="name" v="Steinsnes" />
		<tag k="seamark:type" v="harbour" />
		<tag k="ssr:stedsnr" v="210128" />
	</node>
	<node lat="59.435224999870044" lon="10.461002776372503" id="-55691">
		<tag k="fixme" v="consider seamark:type=rock or natural=shoal" />
		<tag k="name" v="Kruttskjær" />
		<tag k="old_name" v="Bueskjæret" />
		<tag k="place" v="islet" />
		<tag k="ssr:stedsnr" v="210133" />
	</node>
	<node lat="59.35389999986004" lon="10.389999996143915" id="-55692">
		<tag k="fixme" v="consider natural=peak for the most distinct mountains in the district" />
		<tag k="name" v="Tangsrødåsen" />
		<tag k="natural" v="hill" />
		<tag k="place" v="locality" />
		<tag k="ssr:stedsnr" v="210403" />
	</node>
	<node lat="59.40566774653281" lon="10.37889490376894" id="-55693">
		<tag k="fixme" v="consider place=hamlet" />
		<tag k="name" v="Skaug" />
		<tag k="place" v="farm" />
		<tag k="ssr:stedsnr" v="270812" />
	</node>
	<node lat="59.378277781076484" lon="10.514055550737211" id="-55694">
		<tag k="name" v="Sandrevodden" />
		<tag k="natural" v="cape" />
		<tag k="ssr:stedsnr" v="271118" />
	</node>
	<node lat="59.4399833328435" lon="10.497469444263121" id="-55695">
		<tag k="fixme" v="consider seamark:type=rock or natural=shoal" />
		<tag k="name" v="Revet" />
		<tag k="place" v="islet" />
		<tag k="ssr:stedsnr" v="271119" />
	</node>
	<node lat="59.42321666819772" lon="10.520083338233835" id="-55696">
		<tag k="name" v="Slåfeil" />
		<tag k="natural" v="shoal" />
		<tag k="place" v="locality" />
		<tag k="ssr:stedsnr" v="271133" />
	</node>
	<node lat="59.37770555788855" lon="10.403422225972966" id="-55697">
		<tag k="name" v="Viulsrød" />
		<tag k="place" v="farm" />
		<tag k="ssr:stedsnr" v="271433" />
	</node>
	<node lat="59.34851944029208" lon="10.455938890923287" id="-55698">
		<tag k="name" v="Øderydningen" />
		<tag k="place" v="quarter" />
		<tag k="ssr:stedsnr" v="237708" />
	</node>
	<node lat="59.446758337168816" lon="10.440647228136047" id="-55699">
		<tag k="name" v="Vadfiskerstua" />
		<tag k="place" v="isolated_dwelling" />
		<tag k="ssr:stedsnr" v="450850" />
	</node>
	<node lat="59.392186109172435" lon="10.478977777732396" id="-55700">
		<tag k="amenity" v="school" />
		<tag k="name" v="RS Noatun" />
		<tag k="ssr:stedsnr" v="451241" />
	</node>
	<node lat="59.418875003773714" lon="10.493463896519337" id="-55701">
		<tag k="name" v="Kanalen" />
		<tag k="ssr:stedsnr" v="451197" />
		<tag k="waterway" v="canal" />
	</node>
	<node lat="59.39921388700952" lon="10.512800000665933" id="-55702">
		<tag k="name" v="Halvorskrakken" />
		<tag k="natural" v="shoal" />
		<tag k="place" v="locality" />
		<tag k="ssr:stedsnr" v="453127" />
	</node>
	<node lat="59.370386108392246" lon="10.526125006889307" id="-55703">
		<tag k="name" v="Buvika" />
		<tag k="natural" v="bay" />
		<tag k="ssr:stedsnr" v="453131" />
	</node>
	<node lat="59.41092777646698" lon="10.523119448381783" id="-55704">
		<tag k="name" v="Utgrunnen" />
		<tag k="natural" v="shoal" />
		<tag k="place" v="locality" />
		<tag k="ssr:stedsnr" v="453137" />
	</node>
	<node lat="59.360311111802204" lon="10.465805549879224" id="-55705">
		<tag k="name" v="Jutestrand" />
		<tag k="natural" v="beach" />
		<tag k="ssr:stedsnr" v="267811" />
	</node>
	<node lat="59.40003055333664" lon="10.40407778257045" id="-55706">
		<tag k="name" v="Olsmyra" />
		<tag k="natural" v="wetland" />
		<tag k="ssr:stedsnr" v="267829" />
	</node>
	<node lat="59.37365555595094" lon="10.41885832476894" id="-55707">
		<tag k="name" v="Adalsbekken" />
		<tag k="ssr:stedsnr" v="267879" />
		<tag k="waterway" v="stream" />
	</node>
	<node lat="59.384955556491775" lon="10.405391663799287" id="-55708">
		<tag k="leisure" v="park" />
		<tag k="name" v="Reirparken" />
		<tag k="ssr:stedsnr" v="274827" />
	</node>
	<node lat="59.438949996970436" lon="10.454727774932508" id="-55709">
		<tag k="fixme" v="consider seamark:type=rock or natural=shoal" />
		<tag k="name" v="Rumpa" />
		<tag k="place" v="islet" />
		<tag k="ssr:stedsnr" v="283674" />
	</node>
	<node lat="59.41179166943352" lon="10.48890832467616" id="-55710">
		<tag k="amenity" v="ferry_terminal" />
		<tag k="name" v="Horten ferjekai" />
		<tag k="ssr:stedsnr" v="303705" />
	</node>
	<node lat="59.38319721996633" lon="10.463905549256694" id="-55711">
		<tag k="fixme" v="consider place=hamlet" />
		<tag k="name" v="Prestegården" />
		<tag k="place" v="farm" />
		<tag k="ssr:stedsnr" v="305605" />
	</node>
	<node lat="59.43953888972745" lon="10.474380561214984" id="-55712">
		<tag k="fixme" v="consider seamark:type=rock or natural=shoal" />
		<tag k="name" v="Stuterenskjæret" />
		<tag k="place" v="islet" />
		<tag k="ssr:stedsnr" v="465684" />
	</node>
	<node lat="59.35577500370442" lon="10.43755278470401" id="-55713">
		<tag k="name" v="Ra" />
		<tag k="place" v="farm" />
		<tag k="ssr:stedsnr" v="328803" />
	</node>
	<node lat="59.39602222314244" lon="10.45620834028091" id="-55714">
		<tag k="fixme" v="consider place=hamlet" />
		<tag k="name" v="Semb søndre" />
		<tag k="place" v="farm" />
		<tag k="ssr:stedsnr" v="328854" />
	</node>
	<node lat="59.45352222596879" lon="10.487380555242291" id="-55716">
		<tag k="name" v="Palten" />
		<tag k="natural" v="shoal" />
		<tag k="place" v="locality" />
		<tag k="ssr:stedsnr" v="331800" />
	</node>
	<node lat="59.3937694442968" lon="10.421930547834979" id="-55717">
		<tag k="bridge" v="yes" />
		<tag k="layer" v="1" />
		<tag k="name" v="Skjeller" />
		<tag k="ssr:stedsnr" v="349672" />
	</node>
	<node lat="59.394355552541164" lon="10.396755547195868" id="-55718">
		<tag k="fixme" v="consider place=hamlet" />
		<tag k="name" v="Snapsrød" />
		<tag k="place" v="farm" />
		<tag k="ssr:stedsnr" v="366535" />
	</node>
	<node lat="59.353575000685254" lon="10.44744721406552" id="-55719">
		<tag k="name" v="Snekkestad" />
		<tag k="place" v="farm" />
		<tag k="ssr:stedsnr" v="366583" />
	</node>
	<node lat="59.35643888674971" lon="10.40677500607484" id="-55720">
		<tag k="alt_name" v="Sti, østre;Sti øvre" />
		<tag k="name" v="Østre Sti" />
		<tag k="place" v="farm" />
		<tag k="ssr:stedsnr" v="366584" />
	</node>
	<node lat="59.4329499989864" lon="10.428263885119545" id="-55721">
		<tag k="building" v="industrial" />
		<tag k="industrial" v="factory" />
		<tag k="name" v="Øvremølla" />
		<tag k="ssr:stedsnr" v="366932" />
	</node>
	<node lat="59.43133611497066" lon="10.49600555757" id="-55723">
		<tag k="name" v="Møringbukta" />
		<tag k="natural" v="bay" />
		<tag k="ssr:stedsnr" v="392108" />
	</node>
	<node lat="59.35597777432014" lon="10.459549993137246" id="-55725">
		<tag k="fixme" v="consider natural=peak for the most distinct mountains in the district" />
		<tag k="name" v="Damåsen" />
		<tag k="natural" v="hill" />
		<tag k="place" v="locality" />
		<tag k="ssr:stedsnr" v="401032" />
	</node>
	<node lat="59.424055559226694" lon="10.372913895650443" id="-55726">
		<tag k="bridge" v="yes" />
		<tag k="layer" v="1" />
		<tag k="name" v="Nykirke kulvert" />
		<tag k="ssr:stedsnr" v="410627" />
	</node>
	<node lat="59.40435555293854" lon="10.407313889817575" id="-55727">
		<tag k="alt_name" v="Nordre Rygland" />
		<tag k="fixme" v="consider place=hamlet" />
		<tag k="name" v="Ryggland" />
		<tag k="place" v="farm" />
		<tag k="ssr:stedsnr" v="487548" />
	</node>
	<node lat="59.44599166849499" lon="10.47589167309733" id="-55728">
		<tag k="name" v="Østøya" />
		<tag k="place" v="island" />
		<tag k="ssr:stedsnr" v="487948" />
	</node>
	<node lat="59.42837677548911" lon="10.453265545676771" id="-55729">
		<tag k="name" v="Dampejordet" />
		<tag k="place" v="quarter" />
		<tag k="ssr:stedsnr" v="487988" />
	</node>
	<node lat="59.42278461249974" lon="10.38353225641385" id="-55730">
		<tag k="amenity" v="place_of_worship" />
		<tag k="denomination" v="lutheran" />
		<tag k="name" v="Nykirke kirke" />
		<tag k="religion" v="christian" />
		<tag k="ssr:stedsnr" v="487989" />
	</node>
	<node lat="59.398419441998975" lon="10.479952776909654" id="-55731">
		<tag k="name" v="Rørestrand" />
		<tag k="natural" v="beach" />
		<tag k="ssr:stedsnr" v="488487" />
	</node>
	<node lat="59.39738055960366" lon="10.435750008087798" id="-55732">
		<tag k="alt_name" v="Øvre Toen" />
		<tag k="fixme" v="consider place=hamlet" />
		<tag k="name" v="Toen" />
		<tag k="place" v="farm" />
		<tag k="ssr:stedsnr" v="488489" />
	</node>
	<node lat="59.4250416700874" lon="10.450236104378336" id="-55733">
		<tag k="name" v="Laskenlia" />
		<tag k="place" v="quarter" />
		<tag k="ssr:stedsnr" v="419697" />
	</node>
	<node lat="59.35960000134706" lon="10.431930550179112" id="-55734">
		<tag k="name" v="Læret" />
		<tag k="place" v="farm" />
		<tag k="ssr:stedsnr" v="427569" />
	</node>
	<node lat="59.36139375787987" lon="10.408951843933911" id="-55735">
		<tag k="name" v="Adal" />
		<tag k="railway" v="station" />
		<tag k="ssr:stedsnr" v="427572" />
		<tag k="train" v="yes" />
	</node>
	<node lat="59.363205555101366" lon="10.51352222058739" id="-55736">
		<tag k="fixme" v="consider seamark:type=rock or natural=shoal" />
		<tag k="name" v="Rødskjær" />
		<tag k="place" v="islet" />
		<tag k="ssr:stedsnr" v="427586" />
	</node>
	<node lat="59.41305555221512" lon="10.42240556083763" id="-55737">
		<tag k="fixme" v="consider place=hamlet" />
		<tag k="name" v="Eikenes" />
		<tag k="place" v="farm" />
		<tag k="ssr:stedsnr" v="427971" />
	</node>
	<node lat="59.41906111083633" lon="10.353302781882041" id="-55738">
		<tag k="alt_name" v="Vold" />
		<tag k="fixme" v="consider place=hamlet" />
		<tag k="name" v="Voll" />
		<tag k="place" v="farm" />
		<tag k="ssr:stedsnr" v="427979" />
	</node>
	<node lat="59.3484694437159" lon="10.453749997768416" id="-55739">
		<tag k="name" v="Rønningen" />
		<tag k="natural" v="slope" />
		<tag k="place" v="locality" />
		<tag k="ssr:stedsnr" v="450816" />
	</node>
	<node lat="59.346922219030404" lon="10.46456944173018" id="-55740">
		<tag k="alt_name" v="Bakåsen" />
		<tag k="fixme" v="consider natural=peak for the most distinct mountains in the district" />
		<tag k="name" v="Bagåsen" />
		<tag k="natural" v="hill" />
		<tag k="place" v="locality" />
		<tag k="ssr:stedsnr" v="450818" />
	</node>
	<node lat="59.411747222100175" lon="10.454280553360062" id="-55741">
		<tag k="name" v="Kampenhaugen" />
		<tag k="natural" v="hill" />
		<tag k="place" v="locality" />
		<tag k="ssr:stedsnr" v="450822" />
	</node>
	<node lat="59.406583331882786" lon="10.485577783286375" id="-55742">
		<tag k="name" v="Linda" />
		<tag k="natural" v="cape" />
		<tag k="ssr:stedsnr" v="465621" />
	</node>
	<node lat="59.41417222612805" lon="10.471338895143253" id="-55743">
		<tag k="amenity" v="hospital" />
		<tag k="name" v="Horten sykehus" />
		<tag k="ssr:stedsnr" v="465625" />
	</node>
	<node lat="59.44116111506835" lon="10.453852776515939" id="-55744">
		<tag k="fixme" v="consider seamark:type=rock or natural=shoal" />
		<tag k="name" v="Rognskjæret" />
		<tag k="place" v="islet" />
		<tag k="ssr:stedsnr" v="465663" />
	</node>
	<node lat="59.431444440192486" lon="10.448816671936038" id="-55745">
		<tag k="name" v="Nordli" />
		<tag k="place" v="quarter" />
		<tag k="ssr:stedsnr" v="480679" />
	</node>
	<node lat="59.429708336929025" lon="10.336658331162285" id="-55747">
		<tag k="alt_name" v="Bruserød" />
		<tag k="fixme" v="consider place=hamlet" />
		<tag k="name" v="Bruserud" />
		<tag k="place" v="farm" />
		<tag k="ssr:stedsnr" v="487176" />
	</node>
	<node lat="59.37386111448275" lon="10.413641666353644" id="-55748">
		<tag k="fixme" v="consider place=hamlet" />
		<tag k="name" v="Pjonkerød" />
		<tag k="place" v="farm" />
		<tag k="ssr:stedsnr" v="487605" />
	</node>
	<node lat="59.35938888924299" lon="10.464738892250407" id="-55749">
		<tag k="name" v="Rosenville" />
		<tag k="place" v="farm" />
		<tag k="ssr:stedsnr" v="487609" />
	</node>
	<node lat="59.366274998848894" lon="10.402641671011768" id="-55750">
		<tag k="name" v="Solheim" />
		<tag k="place" v="farm" />
		<tag k="ssr:stedsnr" v="487611" />
	</node>
	<node lat="59.44050555933464" lon="10.36909444977072" id="-55751">
		<tag k="fixme" v="consider place=hamlet" />
		<tag k="name" v="Freberg nordre" />
		<tag k="place" v="farm" />
		<tag k="ssr:stedsnr" v="487955" />
	</node>
	<node lat="59.41216944107527" lon="10.37834444496003" id="-55752">
		<tag k="fixme" v="consider place=hamlet" />
		<tag k="name" v="Åsrød" />
		<tag k="place" v="farm" />
		<tag k="ssr:stedsnr" v="487966" />
	</node>
	<node lat="59.41022777867859" lon="10.366638884841503" id="-55753">
		<tag k="alt_name" v="Mosekvisl;Moskvil;Moskvil, søndre" />
		<tag k="fixme" v="consider place=hamlet" />
		<tag k="name" v="Søndre Moskvil" />
		<tag k="place" v="farm" />
		<tag k="ssr:stedsnr" v="495677" />
	</node>
	<node lat="59.43165833427985" lon="10.444461102402231" id="-55754">
		<tag k="name" v="Nordlibakken" />
		<tag k="natural" v="slope" />
		<tag k="place" v="locality" />
		<tag k="ssr:stedsnr" v="512895" />
	</node>
	<node lat="59.37035466051189" lon="10.435859177500602" id="-55755">
		<tag k="name" v="Adalstjernet" />
		<tag k="natural" v="water" />
		<tag k="ssr:stedsnr" v="513412" />
	</node>
	<node lat="59.44779722094001" lon="10.39615832993533" id="-55756">
		<tag k="name" v="Katterenna" />
		<tag k="natural" v="hill" />
		<tag k="place" v="locality" />
		<tag k="ssr:stedsnr" v="513367" />
	</node>
	<node lat="59.37364999759371" lon="10.446061109178684" id="-55759">
		<tag k="bridge" v="yes" />
		<tag k="layer" v="1" />
		<tag k="name" v="Ingeniørhøyskolen" />
		<tag k="ssr:stedsnr" v="532609" />
	</node>
	<node lat="59.3806584611193" lon="10.45102902449589" id="-55760">
		<tag k="fixme" v="consider place=hamlet" />
		<tag k="name" v="Gannestad" />
		<tag k="place" v="farm" />
		<tag k="ssr:stedsnr" v="548556" />
	</node>
	<node lat="59.38234775338711" lon="10.459829072114465" id="-55761">
		<tag k="alt_name" v="Borre" />
		<tag k="amenity" v="place_of_worship" />
		<tag k="denomination" v="lutheran" />
		<tag k="name" v="Borre  kirke" />
		<tag k="religion" v="christian" />
		<tag k="ssr:stedsnr" v="548558" />
	</node>
	<node lat="59.40603055157853" lon="10.350749993036695" id="-55762">
		<tag k="name" v="Fossøla" />
		<tag k="place" v="farm" />
		<tag k="ssr:stedsnr" v="548963" />
	</node>
	<node lat="59.41721388945822" lon="10.483436107539111" id="-55763">
		<tag k="name" v="Horten" />
		<tag k="place" v="town" />
		<tag k="ssr:stedsnr" v="692216" />
	</node>
	<node lat="59.39795555387468" lon="10.462108325098747" id="-55764">
		<tag k="amenity" v="school" />
		<tag k="name" v="Granly skole" />
		<tag k="ssr:stedsnr" v="692834" />
	</node>
	<node lat="59.380941666446255" lon="10.406066675094248" id="-55765">
		<tag k="name" v="Langmyra" />
		<tag k="natural" v="wetland" />
		<tag k="ssr:stedsnr" v="692835" />
	</node>
	<node lat="59.4503222203497" lon="10.443202771240436" id="-55766">
		<tag k="loc_name" v="Veggfjell" />
		<tag k="name" v="Veggefjell" />
		<tag k="natural" v="hill" />
		<tag k="place" v="locality" />
		<tag k="ssr:stedsnr" v="692840" />
	</node>
	<node lat="59.39256388852419" lon="10.465233330629186" id="-55767">
		<tag k="name" v="Eik" />
		<tag k="place" v="farm" />
		<tag k="ssr:stedsnr" v="692845" />
	</node>
	<node lat="59.43389166223452" lon="10.432330557009088" id="-55768">
		<tag k="name" v="Bjerkerønningen" />
		<tag k="natural" v="slope" />
		<tag k="place" v="locality" />
		<tag k="ssr:stedsnr" v="692848" />
	</node>
	<node lat="59.38479166613964" lon="10.41793610651354" id="-55769">
		<tag k="name" v="Sande mølle og sagbruk" />
		<tag k="place" v="quarter" />
		<tag k="ssr:stedsnr" v="571818" />
	</node>
	<node lat="59.3665111089725" lon="10.53547499505993" id="-55770">
		<tag k="name" v="Sydspissen" />
		<tag k="natural" v="cape" />
		<tag k="ssr:stedsnr" v="572209" />
	</node>
	<node lat="59.3682499968407" lon="10.53611666008181" id="-55771">
		<tag k="name" v="Utsikten" />
		<tag k="ssr:stedsnr" v="572212" />
		<tag k="tourism" v="viewpoint" />
	</node>
	<node lat="59.427811110335135" lon="10.494172214248495" id="-55772">
		<tag k="name" v="Vollen" />
		<tag k="natural" v="slope" />
		<tag k="place" v="locality" />
		<tag k="ssr:stedsnr" v="694159" />
	</node>
	<node lat="59.37249444673011" lon="10.533327778254435" id="-55773">
		<tag k="name" v="Storsletta" />
		<tag k="place" v="locality" />
		<tag k="ssr:stedsnr" v="694163" />
	</node>
	<node lat="59.44476666961666" lon="10.466277772564814" id="-55774">
		<tag k="name" v="Strømsundet" />
		<tag k="natural" v="strait" />
		<tag k="ssr:stedsnr" v="574118" />
	</node>
	<node lat="59.426169445204756" lon="10.475866662090056" id="-55776">
		<tag k="name" v="Sælavika" />
		<tag k="natural" v="bay" />
		<tag k="ssr:stedsnr" v="695131" />
	</node>
	<node lat="59.43594166823337" lon="10.449811115594546" id="-55777">
		<tag k="name" v="Evje" />
		<tag k="natural" v="slope" />
		<tag k="place" v="locality" />
		<tag k="ssr:stedsnr" v="694855" />
	</node>
	<node lat="59.4234277760211" lon="10.397686102722979" id="-55778">
		<tag k="name" v="Grette" />
		<tag k="place" v="locality" />
		<tag k="ssr:stedsnr" v="694856" />
	</node>
	<node lat="59.445294444207065" lon="10.492100004441243" id="-55779">
		<tag k="name" v="Måkerumpa" />
		<tag k="natural" v="shoal" />
		<tag k="place" v="locality" />
		<tag k="ssr:stedsnr" v="695096" />
	</node>
	<node lat="59.3661027788397" lon="10.40247222759645" id="-55780">
		<tag k="fixme" v="consider place=hamlet" />
		<tag k="name" v="Adal nordre" />
		<tag k="place" v="farm" />
		<tag k="ssr:stedsnr" v="695392" />
	</node>
	<node lat="59.36241666500906" lon="10.388461106716052" id="-55781">
		<tag k="name" v="Svartedal" />
		<tag k="natural" v="valley" />
		<tag k="place" v="locality" />
		<tag k="ssr:stedsnr" v="695394" />
	</node>
	<node lat="59.356411111607805" lon="10.39340277106874" id="-55782">
		<tag k="name" v="Tangsrød" />
		<tag k="place" v="locality" />
		<tag k="ssr:stedsnr" v="695402" />
	</node>
	<node lat="59.4166861144893" lon="10.339849999100585" id="-55783">
		<tag k="name" v="Askim" />
		<tag k="place" v="farm" />
		<tag k="ssr:stedsnr" v="695832" />
	</node>
	<node lat="59.43150555201099" lon="10.361658328361687" id="-55784">
		<tag k="name" v="Bollerud" />
		<tag k="place" v="locality" />
		<tag k="ssr:stedsnr" v="695836" />
	</node>
	<node lat="59.44168889135398" lon="10.433244438083271" id="-55785">
		<tag k="bridge" v="yes" />
		<tag k="layer" v="1" />
		<tag k="name" v="Falkensten øst" />
		<tag k="ssr:stedsnr" v="592655" />
	</node>
	<node lat="59.430638888309936" lon="10.41670833082782" id="-55789">
		<tag k="fixme" v="consider place=hamlet" />
		<tag k="name" v="Tufte" />
		<tag k="place" v="farm" />
		<tag k="ssr:stedsnr" v="608988" />
	</node>
	<node lat="59.42728333752874" lon="10.438130550579638" id="-55790">
		<tag k="name" v="Ramsli" />
		<tag k="place" v="locality" />
		<tag k="ssr:stedsnr" v="608989" />
	</node>
	<node lat="59.41911389196012" lon="10.389677774341473" id="-55791">
		<tag k="name" v="Ramberg" />
		<tag k="place" v="farm" />
		<tag k="ssr:stedsnr" v="631832" />
	</node>
	<node lat="59.3478138871913" lon="10.472961114423699" id="-55792">
		<tag k="name" v="Åsgårdstrand badeplass" />
		<tag k="natural" v="beach" />
		<tag k="ssr:stedsnr" v="631840" />
	</node>
	<node lat="59.36155555756704" lon="10.469563886844353" id="-55793">
		<tag k="name" v="Steinbryggbukta" />
		<tag k="natural" v="bay" />
		<tag k="ssr:stedsnr" v="634103" />
	</node>
	<node lat="59.446644444519976" lon="10.393186112810241" id="-55794">
		<tag k="name" v="Katten" />
		<tag k="natural" v="cape" />
		<tag k="ssr:stedsnr" v="634083" />
	</node>
	<node lat="59.441883328943085" lon="10.39398055098264" id="-55795">
		<tag k="name" v="Veggestua" />
		<tag k="place" v="farm" />
		<tag k="ssr:stedsnr" v="634085" />
	</node>
	<node lat="59.442219440606785" lon="10.45225833961196" id="-55797">
		<tag k="fixme" v="consider seamark:type=rock or natural=shoal" />
		<tag k="name" v="Lillelort" />
		<tag k="place" v="islet" />
		<tag k="ssr:stedsnr" v="647679" />
	</node>
	<node lat="59.44237500361794" lon="10.468208325333078" id="-55798">
		<tag k="name" v="St. Helena" />
		<tag k="place" v="islet" />
		<tag k="ssr:stedsnr" v="647693" />
	</node>
	<node lat="59.43379167083679" lon="10.428308329431673" id="-55799">
		<tag k="bridge" v="yes" />
		<tag k="layer" v="1" />
		<tag k="name" v="Falkensten" />
		<tag k="ssr:stedsnr" v="653620" />
	</node>
	<node lat="59.3522499996442" lon="10.462941672933066" id="-55800">
		<tag k="name" v="Damåsen" />
		<tag k="place" v="quarter" />
		<tag k="ssr:stedsnr" v="662708" />
	</node>
	<node lat="59.36816666257648" lon="10.414947214576344" id="-55801">
		<tag k="alt_name" v="Bergan nordre" />
		<tag k="fixme" v="consider place=hamlet" />
		<tag k="name" v="Bergan" />
		<tag k="place" v="farm" />
		<tag k="ssr:stedsnr" v="669573" />
	</node>
	<node lat="59.42868333217676" lon="10.394011112307782" id="-55802">
		<tag k="alt_name" v="Skåne søndre" />
		<tag k="fixme" v="consider place=hamlet" />
		<tag k="name" v="Skåne" />
		<tag k="place" v="farm" />
		<tag k="ssr:stedsnr" v="669992" />
	</node>
	<node lat="59.43104444270479" lon="10.35464444937237" id="-55803">
		<tag k="alt_name" v="Ås øvre;Ås" />
		<tag k="fixme" v="consider place=hamlet" />
		<tag k="name" v="Øvre Ås" />
		<tag k="place" v="farm" />
		<tag k="ssr:stedsnr" v="669993" />
	</node>
	<node lat="59.42240726601281" lon="10.375214794589454" id="-55804">
		<tag k="fixme" v="consider place=hamlet" />
		<tag k="name" v="Sletterød" />
		<tag k="place" v="farm" />
		<tag k="ssr:stedsnr" v="669996" />
	</node>
	<node lat="59.391861114205994" lon="10.394874998384115" id="-55805">
		<tag k="fixme" v="consider place=hamlet" />
		<tag k="name" v="Løs" />
		<tag k="place" v="farm" />
		<tag k="ssr:stedsnr" v="670487" />
	</node>
	<node lat="59.367541670676616" lon="10.401963891784012" id="-55806">
		<tag k="name" v="Augedal" />
		<tag k="place" v="farm" />
		<tag k="ssr:stedsnr" v="696971" />
	</node>
	<node lat="59.414580551887866" lon="10.489927778158874" id="-55807">
		<tag k="building" v="civic" />
		<tag k="name" v="Horten havnevesen" />
		<tag k="ssr:stedsnr" v="708634" />
	</node>
	<node lat="59.43893610906909" lon="10.457636107470778" id="-55808">
		<tag k="fixme" v="consider seamark:type=rock or natural=shoal" />
		<tag k="name" v="Julaften" />
		<tag k="place" v="islet" />
		<tag k="ssr:stedsnr" v="708684" />
	</node>
	<node lat="59.43865832926053" lon="10.491744445782114" id="-55809">
		<tag k="name" v="Kosterenna" />
		<tag k="natural" v="strait" />
		<tag k="ssr:stedsnr" v="725972" />
	</node>
	<node lat="59.35491944098155" lon="10.411091668528249" id="-55812">
		<tag k="alt_name" v="Sti, nordre;Sti nedre" />
		<tag k="name" v="Nordre Sti" />
		<tag k="place" v="farm" />
		<tag k="ssr:stedsnr" v="730620" />
	</node>
	<node lat="59.41685832895921" lon="10.362316664069077" id="-55813">
		<tag k="fixme" v="consider place=hamlet" />
		<tag k="name" v="Eiketuft" />
		<tag k="place" v="farm" />
		<tag k="ssr:stedsnr" v="730977" />
	</node>
	<node lat="59.40002777851653" lon="10.43079721702942" id="-55814">
		<tag k="name" v="Eikelund" />
		<tag k="place" v="farm" />
		<tag k="ssr:stedsnr" v="731476" />
	</node>
	<node lat="59.349041670713056" lon="10.457580550788238" id="-55815">
		<tag k="name" v="Nygård" />
		<tag k="place" v="quarter" />
		<tag k="ssr:stedsnr" v="753803" />
	</node>
	<node lat="59.418838885119534" lon="10.423258324980498" id="-55816">
		<tag k="fixme" v="consider place=hamlet" />
		<tag k="name" v="Vik søndre" />
		<tag k="place" v="farm" />
		<tag k="ssr:stedsnr" v="753809" />
	</node>
	<node lat="59.37276944359056" lon="10.539841671276639" id="-55817">
		<tag k="fixme" v="consider seamark:type=rock or natural=shoal" />
		<tag k="name" v="Kjempa" />
		<tag k="place" v="islet" />
		<tag k="ssr:stedsnr" v="756097" />
	</node>
	<node lat="59.41174999939577" lon="10.506497214115749" id="-55818">
		<tag k="name" v="Tangegrunnen" />
		<tag k="natural" v="shoal" />
		<tag k="place" v="locality" />
		<tag k="ssr:stedsnr" v="756805" />
	</node>
	<node lat="59.426383332216076" lon="10.467797218145902" id="-55820">
		<tag k="man_made" v="quay" />
		<tag k="name" v="Steinbrygga" />
		<tag k="place" v="locality" />
		<tag k="ssr:stedsnr" v="784725" />
	</node>
	<node lat="59.39898333379169" lon="10.448066674941389" id="-55821">
		<tag k="fixme" v="consider place=hamlet" />
		<tag k="name" v="Semb" />
		<tag k="place" v="farm" />
		<tag k="ssr:stedsnr" v="791505" />
	</node>
	<node lat="59.399957200637175" lon="10.461750446658852" id="-55822">
		<tag k="fixme" v="consider place=hamlet" />
		<tag k="name" v="Tveiten" />
		<tag k="place" v="farm" />
		<tag k="ssr:stedsnr" v="791507" />
	</node>
	<node lat="59.37948333265345" lon="10.444172220430644" id="-55823">
		<tag k="alt_name" v="Glenne østre;Nedre Glenne" />
		<tag k="fixme" v="consider place=hamlet" />
		<tag k="name" v="Glenne" />
		<tag k="place" v="farm" />
		<tag k="ssr:stedsnr" v="791536" />
	</node>
	<node lat="59.432341665653496" lon="10.377402774712564" id="-55824">
		<tag k="alt_name" v="Nøklegård øvre" />
		<tag k="name" v="Nøklegård" />
		<tag k="place" v="farm" />
		<tag k="ssr:stedsnr" v="791937" />
	</node>
	<node lat="59.45141388827925" lon="10.448588893401375" id="-55825">
		<tag k="name" v="Veggbukta" />
		<tag k="natural" v="bay" />
		<tag k="ssr:stedsnr" v="912958" />
	</node>
	<node lat="59.42090277720736" lon="10.34224999363932" id="-55826">
		<tag k="name" v="Bakke" />
		<tag k="place" v="farm" />
		<tag k="ssr:stedsnr" v="913130" />
	</node>
	<node lat="59.406418281588316" lon="10.365207612468893" id="-55827">
		<tag k="name" v="Pauli" />
		<tag k="place" v="farm" />
		<tag k="ssr:stedsnr" v="913974" />
	</node>
	<node lat="59.42278055375109" lon="10.384169436225001" id="-55828">
		<tag k="name" v="Nykirke" />
		<tag k="place" v="village" />
		<tag k="ssr:stedsnr" v="813200" />
	</node>
	<node lat="59.42288056002541" lon="10.450691663800516" id="-55829">
		<tag k="highway" v="path" />
		<tag k="name" v="Kongstien" />
		<tag k="ssr:stedsnr" v="815883" />
	</node>
	<node lat="59.45570555268013" lon="10.491541659735836" id="-55830">
		<tag k="name" v="Nøttekrakken" />
		<tag k="natural" v="shoal" />
		<tag k="place" v="locality" />
		<tag k="ssr:stedsnr" v="817106" />
	</node>
	<node lat="59.35596111323048" lon="10.491555555328828" id="-55831">
		<tag k="name" v="Peisen" />
		<tag k="natural" v="shoal" />
		<tag k="place" v="locality" />
		<tag k="ssr:stedsnr" v="817114" />
	</node>
	<node lat="59.35863611467814" lon="10.517444438453834" id="-55832">
		<tag k="name" v="Skjærgrunnen" />
		<tag k="natural" v="shoal" />
		<tag k="place" v="locality" />
		<tag k="ssr:stedsnr" v="817116" />
	</node>
	<node lat="59.45865000132776" lon="10.448869439938868" id="-55833">
		<tag k="name" v="Gartegrunnen" />
		<tag k="natural" v="shoal" />
		<tag k="place" v="locality" />
		<tag k="ssr:stedsnr" v="817122" />
	</node>
	<node lat="59.383963889518505" lon="10.416555557983973" id="-55837">
		<tag k="bridge" v="yes" />
		<tag k="layer" v="1" />
		<tag k="name" v="Tokerud" />
		<tag k="ssr:stedsnr" v="228683" />
	</node>
	<node lat="59.43480555187875" lon="10.447002784894883" id="-55838">
		<tag k="name" v="Evjeåsen" />
		<tag k="place" v="quarter" />
		<tag k="ssr:stedsnr" v="844682" />
	</node>
	<node lat="59.38676944226887" lon="10.463791661123379" id="-55839">
		<tag k="alt_name" v="Voll;Nordre Vold" />
		<tag k="fixme" v="consider place=hamlet" />
		<tag k="name" v="Vold" />
		<tag k="place" v="farm" />
		<tag k="ssr:stedsnr" v="852526" />
	</node>
	<node lat="59.40633332912035" lon="10.3903611119352" id="-55840">
		<tag k="fixme" v="consider place=hamlet" />
		<tag k="name" v="Føske" />
		<tag k="place" v="farm" />
		<tag k="ssr:stedsnr" v="852963" />
	</node>
	<node lat="59.45323889324033" lon="10.385983337509407" id="-55841">
		<tag k="name" v="Frebergskrakken" />
		<tag k="natural" v="shoal" />
		<tag k="place" v="locality" />
		<tag k="ssr:stedsnr" v="878105" />
	</node>
	<node lat="59.37388611097628" lon="10.414066659918557" id="-55842">
		<tag k="name" v="Pjonkerød søndre" />
		<tag k="place" v="farm" />
		<tag k="ssr:stedsnr" v="882666" />
	</node>
	<node lat="59.40535833294398" lon="10.528630552691762" id="-55843">
		<tag k="name" v="Djupgrunnen" />
		<tag k="natural" v="shoal" />
		<tag k="place" v="locality" />
		<tag k="ssr:stedsnr" v="906756" />
	</node>
	<node lat="59.425497218871584" lon="10.486205552369682" id="-55844">
		<tag k="alt_name" v="Indre havn" />
		<tag k="name" v="Indrehavn" />
		<tag k="natural" v="bay" />
		<tag k="ssr:stedsnr" v="912986" />
	</node>
	<node lat="59.465166870337235" lon="10.552921863879602" id="-55845">
		<tag k="bay" v="fjord" />
		<tag k="name" v="Breiangen" />
		<tag k="natural" v="bay" />
		<tag k="ssr:stedsnr" v="913913" />
	</node>
	<node lat="59.414336113501506" lon="10.419347223783033" id="-55846">
		<tag k="fixme" v="consider place=hamlet" />
		<tag k="name" v="Haukeli" />
		<tag k="place" v="farm" />
		<tag k="ssr:stedsnr" v="913981" />
	</node>
	<node lat="59.41705555863839" lon="10.391161116232656" id="-55847">
		<tag k="fixme" v="consider place=hamlet" />
		<tag k="name" v="Prestegården" />
		<tag k="place" v="farm" />
		<tag k="ssr:stedsnr" v="913984" />
	</node>
	<node lat="59.41320833364561" lon="10.38551666791243" id="-55848">
		<tag k="fixme" v="consider place=hamlet" />
		<tag k="name" v="Austad" />
		<tag k="place" v="farm" />
		<tag k="ssr:stedsnr" v="913986" />
	</node>
	<node lat="59.35259721803294" lon="10.439052770057767" id="-55849">
		<tag k="name" v="Kjær" />
		<tag k="place" v="farm" />
		<tag k="ssr:stedsnr" v="935807" />
	</node>
	<node lat="59.37289166704668" lon="10.455636117383186" id="-55850">
		<tag k="name" v="Granholt" />
		<tag k="place" v="locality" />
		<tag k="ssr:stedsnr" v="935811" />
	</node>
	<node lat="59.42035555477789" lon="10.420649997588976" id="-55851">
		<tag k="name" v="Vik mellom" />
		<tag k="place" v="farm" />
		<tag k="ssr:stedsnr" v="935818" />
	</node>
	<node lat="59.40576944769444" lon="10.478319447468579" id="-55852">
		<tag k="building" v="industrial" />
		<tag k="industrial" v="factory" />
		<tag k="name" v="Horten bryggeri" />
		<tag k="ssr:stedsnr" v="935823" />
	</node>
	<node lat="59.39973333742625" lon="10.41116388408327" id="-55853">
		<tag k="name" v="Rygland østre" />
		<tag k="place" v="farm" />
		<tag k="ssr:stedsnr" v="935826" />
	</node>
	<node lat="59.39943333291534" lon="10.425647229007584" id="-55854">
		<tag k="fixme" v="consider place=hamlet" />
		<tag k="name" v="Solberg østre" />
		<tag k="place" v="farm" />
		<tag k="ssr:stedsnr" v="935842" />
	</node>
	<node lat="59.38194722250799" lon="10.437802779222904" id="-55855">
		<tag k="name" v="Glenne nedre" />
		<tag k="place" v="farm" />
		<tag k="ssr:stedsnr" v="935845" />
	</node>
	<node lat="59.38884722553585" lon="10.463074999143029" id="-55856">
		<tag k="name" v="Vold" />
		<tag k="place" v="farm" />
		<tag k="ssr:stedsnr" v="935848" />
	</node>
	<node lat="59.43983333060092" lon="10.43013055732414" id="-55857">
		<tag k="name" v="Mølledammen" />
		<tag k="natural" v="water" />
		<tag k="ssr:stedsnr" v="935857" />
	</node>
	<node lat="59.43051944100109" lon="10.350355556125297" id="-55858">
		<tag k="alt_name" v="Ås nedre" />
		<tag k="fixme" v="consider place=hamlet" />
		<tag k="name" v="Nedre Ås" />
		<tag k="place" v="farm" />
		<tag k="ssr:stedsnr" v="938834" />
	</node>
	<node lat="59.38331015127062" lon="10.459860232746559" id="-55859">
		<tag k="fixme" v="consider place=hamlet" />
		<tag k="name" v="Vasmarken" />
		<tag k="place" v="farm" />
		<tag k="ssr:stedsnr" v="984505" />
	</node>
	<node lat="59.38276342019867" lon="10.526861865161116" id="-55860">
		<tag k="name" v="Bastø" />
		<tag k="place" v="locality" />
		<tag k="ssr:stedsnr" v="984534" />
	</node>
	<node lat="59.385188340856054" lon="10.472393499870712" id="-55861">
		<tag k="name" v="Søndre Vold" />
		<tag k="place" v="locality" />
		<tag k="ssr:stedsnr" v="984535" />
	</node>
	<node lat="59.37390625863167" lon="10.437369045394114" id="-55862">
		<tag k="name" v="Øvre Glenne" />
		<tag k="place" v="locality" />
		<tag k="ssr:stedsnr" v="984502" />
	</node>
	<node lat="59.35947637762416" lon="10.411353366134676" id="-55863">
		<tag k="name" v="Adal" />
		<tag k="place" v="hamlet" />
		<tag k="ssr:stedsnr" v="984614" />
	</node>
	<node lat="59.356132726716375" lon="10.410507371654601" id="-55864">
		<tag k="fixme" v="consider place=hamlet" />
		<tag k="name" v="Sti" />
		<tag k="place" v="farm" />
		<tag k="ssr:stedsnr" v="984615" />
	</node>
	<node lat="59.39500765593958" lon="10.385839215228131" id="-55865">
		<tag k="name" v="Gusland" />
		<tag k="place" v="hamlet" />
		<tag k="ssr:stedsnr" v="984639" />
	</node>
	<node lat="59.429984253987676" lon="10.394014195531472" id="-55866">
		<tag k="name" v="Skåne" />
		<tag k="place" v="hamlet" />
		<tag k="ssr:stedsnr" v="984711" />
	</node>
	<node lat="59.43549599553995" lon="10.393361882905847" id="-55867">
		<tag k="name" v="Såteskogen" />
		<tag k="place" v="locality" />
		<tag k="ssr:stedsnr" v="984712" />
	</node>
	<node lat="59.435521100850266" lon="10.41433056064507" id="-55868">
		<tag k="name" v="Vegge" />
		<tag k="place" v="hamlet" />
		<tag k="ssr:stedsnr" v="984714" />
	</node>
	<node lat="59.42930502334085" lon="10.490639096991842" id="-55869">
		<tag k="landuse" v="military" />
		<tag k="name" v="Orlogshavna" />
		<tag k="ssr:stedsnr" v="986009" />
	</node>
	<node lat="59.39351944722488" lon="10.461880547170836" id="-55870">
		<tag k="fixme" v="consider place=hamlet" />
		<tag k="name" v="Røre" />
		<tag k="place" v="farm" />
		<tag k="ssr:stedsnr" v="2545" />
	</node>
	<node lat="59.3903916665004" lon="10.51820278370104" id="-55871">
		<tag k="alt_name" v="Kalven" />
		<tag k="name" v="Bastøykalven" />
		<tag k="natural" v="cape" />
		<tag k="ssr:stedsnr" v="2551" />
	</node>
	<node lat="59.37840833605626" lon="10.399100002906675" id="-55872">
		<tag k="name" v="Viulsrød" />
		<tag k="place" v="farm" />
		<tag k="ssr:stedsnr" v="2564" />
	</node>
	<node lat="59.376658331793095" lon="10.425852774779527" id="-55873">
		<tag k="fixme" v="consider place=hamlet" />
		<tag k="name" v="Lørge" />
		<tag k="place" v="farm" />
		<tag k="ssr:stedsnr" v="2567" />
	</node>
	<node lat="59.43952778012634" lon="10.378044450589023" id="-55874">
		<tag k="name" v="Frebergsvik" />
		<tag k="place" v="neighbourhood" />
		<tag k="ssr:stedsnr" v="2936" />
	</node>
	<node lat="59.44943333037345" lon="10.4461972198949" id="-55875">
		<tag k="name" v="Løvøya" />
		<tag k="place" v="island" />
		<tag k="ssr:stedsnr" v="2949" />
	</node>
	<node lat="59.44986389167278" lon="10.406124999763083" id="-55876">
		<tag k="name" v="Varnestangen" />
		<tag k="natural" v="cape" />
		<tag k="ssr:stedsnr" v="2955" />
	</node>
	<node lat="59.45098333673359" lon="10.43396388875816" id="-55877">
		<tag k="name" v="Stormodden" />
		<tag k="natural" v="cape" />
		<tag k="ssr:stedsnr" v="2957" />
	</node>
	<node lat="59.369058330948015" lon="10.425322221020553" id="-55878">
		<tag k="fixme" v="consider place=hamlet" />
		<tag k="name" v="Kimestad" />
		<tag k="place" v="farm" />
		<tag k="ssr:stedsnr" v="9665" />
	</node>
	<node lat="59.393630559557515" lon="10.464302781582807" id="-55879">
		<tag k="name" v="Eik" />
		<tag k="place" v="farm" />
		<tag k="ssr:stedsnr" v="25835" />
	</node>
	<node lat="59.38704999626196" lon="10.431566666335776" id="-55880">
		<tag k="fixme" v="consider place=hamlet" />
		<tag k="name" v="Sande østre" />
		<tag k="place" v="farm" />
		<tag k="ssr:stedsnr" v="25839" />
	</node>
	<node lat="59.44433333097278" lon="10.448725005345052" id="-55881">
		<tag k="fixme" v="consider seamark:type=rock or natural=shoal" />
		<tag k="name" v="Lort" />
		<tag k="place" v="islet" />
		<tag k="ssr:stedsnr" v="25851" />
	</node>
	<node lat="59.426864288716295" lon="10.45940615698473" id="-55882">
		<tag k="name" v="Apenes" />
		<tag k="place" v="quarter" />
		<tag k="ssr:stedsnr" v="27886" />
	</node>
	<node lat="59.37228055854487" lon="10.538799996149928" id="-55883">
		<tag k="name" v="Bastøykongen" />
		<tag k="natural" v="beach" />
		<tag k="ssr:stedsnr" v="27150" />
	</node>
	<node lat="59.36260833257348" lon="10.542305551016614" id="-55885">
		<tag k="name" v="Bastøygrunnen" />
		<tag k="natural" v="shoal" />
		<tag k="place" v="locality" />
		<tag k="ssr:stedsnr" v="28115" />
	</node>
	<node lat="59.44621666941505" lon="10.405697228890485" id="-55886">
		<tag k="name" v="Veggefjellet" />
		<tag k="natural" v="hill" />
		<tag k="place" v="locality" />
		<tag k="ssr:stedsnr" v="28346" />
	</node>
	<node lat="59.36927777469839" lon="10.504727784620192" id="-55887">
		<tag k="name" v="Steinbåen" />
		<tag k="place" v="locality" />
		<tag k="seamark:type" v="rock" />
		<tag k="ssr:stedsnr" v="28824" />
	</node>
	<node lat="59.44512222074208" lon="10.456049997436851" id="-55888">
		<tag k="alt_name" v="Løvøysundet" />
		<tag k="name" v="Løvøysund" />
		<tag k="natural" v="strait" />
		<tag k="ssr:stedsnr" v="28831" />
	</node>
	<node lat="59.390513888954715" lon="10.539641672770605" id="-55889">
		<tag k="alt_name" v="Løkkeberget" />
		<tag k="name" v="Løkeberggrunnen" />
		<tag k="natural" v="shoal" />
		<tag k="place" v="locality" />
		<tag k="ssr:stedsnr" v="28912" />
	</node>
	<node lat="59.41188611427244" lon="10.3548111195255" id="-55890">
		<tag k="alt_name" v="Øvre Kjæran" />
		<tag k="fixme" v="consider place=hamlet" />
		<tag k="name" v="Kjærran øvre" />
		<tag k="place" v="farm" />
		<tag k="ssr:stedsnr" v="32819" />
	</node>
	<node lat="59.412630555905906" lon="10.4885222191329" id="-55892">
		<tag k="alt_name" v="Horten brygge" />
		<tag k="man_made" v="quay" />
		<tag k="name" v="Rustadbrygga" />
		<tag k="place" v="locality" />
		<tag k="ssr:stedsnr" v="40643" />
	</node>
	<node lat="59.41584444567993" lon="10.48543889170529" id="-55893">
		<tag k="building" v="civic" />
		<tag k="name" v="Politistasjon" />
		<tag k="ssr:stedsnr" v="41638" />
	</node>
	<node lat="59.440994447962325" lon="10.441183340772639" id="-55894">
		<tag k="name" v="Røremarka" />
		<tag k="place" v="locality" />
		<tag k="ssr:stedsnr" v="41681" />
	</node>
	<node lat="59.397645419542194" lon="10.368231166531732" id="-55895">
		<tag k="layer" v="-1" />
		<tag k="name" v="Flårtunnelen" />
		<tag k="ssr:stedsnr" v="53560" />
		<tag k="tunnel" v="yes" />
	</node>
	<node lat="59.43848611267395" lon="10.43659999841243" id="-55896">
		<tag k="name" v="Skavli" />
		<tag k="place" v="quarter" />
		<tag k="ssr:stedsnr" v="55637" />
	</node>
	<node lat="59.4268466139512" lon="10.463675003959166" id="-55897">
		<tag k="landuse" v="military" />
		<tag k="name" v="Sølvkronen" />
		<tag k="ssr:stedsnr" v="56742" />
	</node>
	<node lat="59.42617499776896" lon="10.495586103029254" id="-55898">
		<tag k="man_made" v="quay" />
		<tag k="name" v="Jakobsbrygga" />
		<tag k="place" v="locality" />
		<tag k="ssr:stedsnr" v="56745" />
	</node>
	<node lat="59.344269440540494" lon="10.468575007275817" id="-55900">
		<tag k="alt_name" v="Stang" />
		<tag k="fixme" v="consider place=hamlet" />
		<tag k="name" v="Store Stang" />
		<tag k="place" v="farm" />
		<tag k="ssr:stedsnr" v="63599" />
	</node>
	<node lat="59.38829444089213" lon="10.503741659331203" id="-55901">
		<tag k="alt_name" v="Bastøyboen" />
		<tag k="name" v="Bastøybåen" />
		<tag k="natural" v="shoal" />
		<tag k="place" v="locality" />
		<tag k="ssr:stedsnr" v="63550" />
	</node>
	<node lat="59.386416665629014" lon="10.47494999285757" id="-55902">
		<tag k="name" v="Birkely" />
		<tag k="natural" v="beach" />
		<tag k="ssr:stedsnr" v="63552" />
	</node>
	<node lat="59.437644442201105" lon="10.455391670208524" id="-55903">
		<tag k="alt_name" v="Reverompa" />
		<tag k="name" v="Reverumpa" />
		<tag k="natural" v="cape" />
		<tag k="ssr:stedsnr" v="63933" />
	</node>
	<node lat="59.443141666287396" lon="10.360094450276783" id="-55904">
		<tag k="fixme" v="consider place=hamlet" />
		<tag k="name" v="Haug" />
		<tag k="place" v="farm" />
		<tag k="ssr:stedsnr" v="63947" />
	</node>
	<node lat="59.451363887980335" lon="10.438166665514684" id="-55905">
		<tag k="name" v="Kjerkebukta" />
		<tag k="natural" v="bay" />
		<tag k="ssr:stedsnr" v="63958" />
	</node>
	<node lat="59.44695555759615" lon="10.437311103511863" id="-55906">
		<tag k="name" v="Drasund" />
		<tag k="natural" v="strait" />
		<tag k="ssr:stedsnr" v="63959" />
	</node>
	<node lat="59.408586113603064" lon="10.34681667296468" id="-55907">
		<tag k="fixme" v="consider natural=peak for the most distinct mountains in the district" />
		<tag k="name" v="Kjærranåsen" />
		<tag k="natural" v="hill" />
		<tag k="place" v="locality" />
		<tag k="ssr:stedsnr" v="63972" />
	</node>
	<node lat="59.421958337005364" lon="10.513583332410418" id="-55908">
		<tag k="name" v="Hortenskrakken" />
		<tag k="natural" v="shoal" />
		<tag k="place" v="locality" />
		<tag k="ssr:stedsnr" v="63991" />
	</node>
	<node lat="59.4069250010869" lon="10.47906945174965" id="-55909">
		<tag k="name" v="Kjeldsbergs plass" />
		<tag k="place" v="locality" />
		<tag k="ssr:stedsnr" v="86825" />
	</node>
	<node lat="59.45430000269956" lon="10.44351944249752" id="-55910">
		<tag k="name" v="Steingaren" />
		<tag k="natural" v="bay" />
		<tag k="ssr:stedsnr" v="86840" />
	</node>
	<node lat="59.3845861126404" lon="10.443822221765998" id="-55911">
		<tag k="name" v="Vassmarka" />
		<tag k="place" v="locality" />
		<tag k="ssr:stedsnr" v="86845" />
	</node>
	<node lat="59.36841666457288" lon="10.451786109625685" id="-55912">
		<tag k="name" v="Snippen" />
		<tag k="place" v="locality" />
		<tag k="ssr:stedsnr" v="86819" />
	</node>
	<node lat="59.384036112714504" lon="10.503136108328382" id="-55913">
		<tag k="name" v="Fjonberget" />
		<tag k="place" v="locality" />
		<tag k="ssr:stedsnr" v="87165" />
	</node>
	<node lat="59.42189444811441" lon="10.493191664179703" id="-55914">
		<tag k="name" v="Hortensskogen" />
		<tag k="place" v="locality" />
		<tag k="ssr:stedsnr" v="87169" />
	</node>
	<node lat="59.438711115329596" lon="10.439022219782295" id="-55915">
		<tag k="name" v="Møllestua" />
		<tag k="place" v="isolated_dwelling" />
		<tag k="ssr:stedsnr" v="87862" />
	</node>
	<node lat="59.37631944249773" lon="10.378444442508991" id="-55916">
		<tag k="name" v="Steinbjørnrød" />
		<tag k="place" v="farm" />
		<tag k="ssr:stedsnr" v="88697" />
	</node>
	<node lat="59.411444441516466" lon="10.358494436990838" id="-55917">
		<tag k="fixme" v="consider place=hamlet" />
		<tag k="name" v="Kjærran nedre" />
		<tag k="place" v="farm" />
		<tag k="ssr:stedsnr" v="88804" />
	</node>
	<node lat="59.357874996723524" lon="10.413538883341827" id="-55918">
		<tag k="fixme" v="consider place=hamlet" />
		<tag k="name" v="Adal søndre" />
		<tag k="place" v="farm" />
		<tag k="ssr:stedsnr" v="89415" />
	</node>
	<node lat="59.38188888763063" lon="10.456455547146373" id="-55921">
		<tag k="name" v="Borre" />
		<tag k="place" v="village" />
		<tag k="ssr:stedsnr" v="101283" />
	</node>
	<node lat="59.400477779738566" lon="10.43185000328309" id="-55922">
		<tag k="name" v="Ødegården" />
		<tag k="place" v="farm" />
		<tag k="ssr:stedsnr" v="123559" />
	</node>
	<node lat="59.433847219864276" lon="10.41811944528197" id="-55923">
		<tag k="alt_name" v="Vegge;Vegge søndre" />
		<tag k="fixme" v="consider place=hamlet" />
		<tag k="name" v="Søndre Vegge" />
		<tag k="place" v="farm" />
		<tag k="ssr:stedsnr" v="123953" />
	</node>
	<node lat="59.43451109322673" lon="10.403597989821163" id="-55924">
		<tag k="fixme" v="consider place=hamlet" />
		<tag k="name" v="Åsen" />
		<tag k="place" v="farm" />
		<tag k="ssr:stedsnr" v="123954" />
	</node>
	<node lat="59.388124998697194" lon="10.417241660563972" id="-55925">
		<tag k="fixme" v="consider place=hamlet" />
		<tag k="name" v="Skoppum" />
		<tag k="place" v="farm" />
		<tag k="ssr:stedsnr" v="124469" />
	</node>
	<node lat="59.392816664345965" lon="10.38600556064852" id="-55926">
		<tag k="alt_name" v="Gusland søndre" />
		<tag k="fixme" v="consider place=hamlet" />
		<tag k="name" v="Gusland" />
		<tag k="place" v="farm" />
		<tag k="ssr:stedsnr" v="124473" />
	</node>
	<node lat="59.38731944830424" lon="10.39624166835318" id="-55927">
		<tag k="name" v="Løvås" />
		<tag k="place" v="farm" />
		<tag k="ssr:stedsnr" v="124474" />
	</node>
	<node lat="59.392019440637014" lon="10.431391660783065" id="-55928">
		<tag k="alt_name" v="Kjær, nordre" />
		<tag k="fixme" v="consider place=hamlet" />
		<tag k="name" v="Nordre Kjær" />
		<tag k="place" v="farm" />
		<tag k="ssr:stedsnr" v="124479" />
	</node>
	<node lat="59.41961389081727" lon="10.487347219429335" id="-55929">
		<tag k="alt_name" v="Lystlunden" />
		<tag k="leisure" v="pitch" />
		<tag k="name" v="Lystlunden idrettsplass" />
		<tag k="ssr:stedsnr" v="123975" />
	</node>
	<node lat="59.41722777805701" lon="10.401047221695926" id="-55930">
		<tag k="fixme" v="consider place=hamlet" />
		<tag k="name" v="Skreppedal" />
		<tag k="place" v="farm" />
		<tag k="ssr:stedsnr" v="123981" />
	</node>
	<node lat="59.374642972449145" lon="10.397757624886426" id="-55931">
		<tag k="name" v="Adalsborgen" />
		<tag k="place" v="locality" />
		<tag k="ssr:stedsnr" v="142058" />
	</node>
	<node lat="59.34714721951535" lon="10.448025006486708" id="-55932">
		<tag k="leisure" v="pitch" />
		<tag k="name" v="Mellombanen" />
		<tag k="ssr:stedsnr" v="146783" />
	</node>
	<node lat="59.349872358377176" lon="10.4600488360983" id="-55933">
		<tag k="fixme" v="consider place=hamlet" />
		<tag k="name" v="Nygård" />
		<tag k="place" v="farm" />
		<tag k="ssr:stedsnr" v="146786" />
	</node>
	<node lat="59.371108334414615" lon="10.455880562424579" id="-55934">
		<tag k="name" v="Mastebakke" />
		<tag k="natural" v="slope" />
		<tag k="place" v="locality" />
		<tag k="ssr:stedsnr" v="146788" />
	</node>
	<node lat="59.43830833748117" lon="10.389150004770151" id="-55935">
		<tag k="name" v="Frebergsvik" />
		<tag k="natural" v="beach" />
		<tag k="ssr:stedsnr" v="146843" />
	</node>
	<node lat="59.43178333329666" lon="10.5105277762458" id="-55936">
		<tag k="name" v="Møringgrunnen" />
		<tag k="natural" v="shoal" />
		<tag k="place" v="locality" />
		<tag k="ssr:stedsnr" v="149091" />
	</node>
	<node lat="59.404744440838556" lon="10.510919452134772" id="-55937">
		<tag k="name" v="Holmekrakken" />
		<tag k="natural" v="shoal" />
		<tag k="place" v="locality" />
		<tag k="ssr:stedsnr" v="149092" />
	</node>
	<node lat="59.3514361153248" lon="10.486905553422643" id="-55940">
		<tag k="name" v="Kallegrunnen" />
		<tag k="natural" v="shoal" />
		<tag k="place" v="locality" />
		<tag k="ssr:stedsnr" v="149798" />
	</node>
	<node lat="59.44611667071498" lon="10.41212499655169" id="-55941">
		<tag k="alt_name" v="Selskjær" />
		<tag k="fixme" v="consider seamark:type=rock or natural=shoal" />
		<tag k="name" v="Selskjæra" />
		<tag k="place" v="islet" />
		<tag k="ssr:stedsnr" v="149800" />
	</node>
	<node lat="59.41353888722886" lon="10.48768055547688" id="-55943">
		<tag k="man_made" v="quay" />
		<tag k="name" v="Hydrofoilbrygga" />
		<tag k="place" v="locality" />
		<tag k="ssr:stedsnr" v="162662" />
	</node>
	<node lat="59.39255555150561" lon="10.409419451354687" id="-55945">
		<tag k="name" v="Jahrelunden" />
		<tag k="place" v="farm" />
		<tag k="ssr:stedsnr" v="184533" />
	</node>
	<node lat="59.39171110735842" lon="10.465183334021239" id="-55946">
		<tag k="fixme" v="consider place=hamlet" />
		<tag k="name" v="Eik" />
		<tag k="place" v="farm" />
		<tag k="ssr:stedsnr" v="184537" />
	</node>
	<node lat="59.37131110961655" lon="10.531447217336076" id="-55947">
		<tag k="name" v="Bastøy" />
		<tag k="place" v="island" />
		<tag k="ssr:stedsnr" v="184574" />
	</node>
	<node lat="59.352508333662634" lon="10.45367777890588" id="-55948">
		<tag k="alt_name" v="Åsgarden" />
		<tag k="name" v="Åsgården" />
		<tag k="place" v="farm" />
		<tag k="ssr:stedsnr" v="184580" />
	</node>
	<node lat="59.34938333165874" lon="10.469483330268492" id="-55949">
		<tag k="name" v="Åsgårdstrand" />
		<tag k="place" v="town" />
		<tag k="ssr:stedsnr" v="184593" />
	</node>
	<node lat="59.437969446805326" lon="10.442624991635158" id="-55950">
		<tag k="name" v="Skavli" />
		<tag k="place" v="quarter" />
		<tag k="ssr:stedsnr" v="184923" />
	</node>
	<node lat="59.41472222337136" lon="10.367136104917702" id="-55951">
		<tag k="fixme" v="consider place=hamlet" />
		<tag k="name" v="Moskvil" />
		<tag k="place" v="farm" />
		<tag k="ssr:stedsnr" v="184974" />
	</node>
	<node lat="59.38505000443326" lon="10.406444438839108" id="-55952">
		<tag k="name" v="Reir" />
		<tag k="place" v="locality" />
		<tag k="ssr:stedsnr" v="207829" />
	</node>
	<node lat="59.38433055241136" lon="10.404269438239123" id="-55953">
		<tag k="name" v="Reir" />
		<tag k="place" v="farm" />
		<tag k="ssr:stedsnr" v="207830" />
	</node>
	<node lat="59.387125000260426" lon="10.41684444885192" id="-55954">
		<tag k="name" v="Skoppum" />
		<tag k="place" v="farm" />
		<tag k="ssr:stedsnr" v="207832" />
	</node>
	<node lat="59.39494721805816" lon="10.415158339179847" id="-55955">
		<tag k="name" v="Rygland søndre" />
		<tag k="place" v="farm" />
		<tag k="ssr:stedsnr" v="207834" />
	</node>
	<node lat="59.398786108451915" lon="10.37451110363505" id="-55956">
		<tag k="alt_name" v="Brekke øvre" />
		<tag k="name" v="Øvre Brekke" />
		<tag k="place" v="farm" />
		<tag k="ssr:stedsnr" v="209784" />
	</node>
	<node lat="59.446149996397715" lon="10.408980547524902" id="-55957">
		<tag k="name" v="Rødskjærbukta" />
		<tag k="natural" v="bay" />
		<tag k="ssr:stedsnr" v="210349" />
	</node>
	<node lat="59.35417222063655" lon="10.496197229815156" id="-55958">
		<tag k="name" v="Banken" />
		<tag k="natural" v="shoal" />
		<tag k="place" v="locality" />
		<tag k="ssr:stedsnr" v="210809" />
	</node>
	<node lat="59.377979605304496" lon="10.470285438729732" id="-55959">
		<tag k="landuse" v="harbour" />
		<tag k="name" v="Steinbrygga" />
		<tag k="seamark:type" v="harbour" />
		<tag k="ssr:stedsnr" v="210812" />
	</node>
	<node lat="59.367775002985795" lon="10.462397230358972" id="-55960">
		<tag k="name" v="Vestmannrød" />
		<tag k="place" v="farm" />
		<tag k="ssr:stedsnr" v="284047" />
	</node>
	<node lat="59.36318055330395" lon="10.446111113068206" id="-55961">
		<tag k="fixme" v="consider place=hamlet" />
		<tag k="name" v="Fjugstad" />
		<tag k="place" v="farm" />
		<tag k="ssr:stedsnr" v="305614" />
	</node>
	<node lat="59.36503889335557" lon="10.4026249979174" id="-55962">
		<tag k="alt_name" v="Adal vestre" />
		<tag k="fixme" v="consider place=hamlet" />
		<tag k="name" v="Adal" />
		<tag k="place" v="farm" />
		<tag k="ssr:stedsnr" v="305619" />
	</node>
	<node lat="59.35427500095987" lon="10.434405553419724" id="-55963">
		<tag k="name" v="Ra" />
		<tag k="place" v="farm" />
		<tag k="ssr:stedsnr" v="305626" />
	</node>
	<node lat="59.42600555307269" lon="10.363361102812602" id="-55964">
		<tag k="fixme" v="consider place=hamlet" />
		<tag k="name" v="Kopstad" />
		<tag k="place" v="farm" />
		<tag k="ssr:stedsnr" v="305992" />
	</node>
	<node lat="59.41156944297716" lon="10.431616665563224" id="-55965">
		<tag k="name" v="Borrevannet" />
		<tag k="natural" v="water" />
		<tag k="ssr:stedsnr" v="306464" />
		<tag k="water" v="lake" />
	</node>
	<node lat="59.408205551100366" lon="10.422597224290184" id="-55966">
		<tag k="name" v="Bergstad" />
		<tag k="place" v="farm" />
		<tag k="ssr:stedsnr" v="306467" />
	</node>
	<node lat="59.410574996543" lon="10.391611107416646" id="-55967">
		<tag k="name" v="Rønningen" />
		<tag k="place" v="farm" />
		<tag k="ssr:stedsnr" v="306469" />
	</node>
	<node lat="59.4031055587249" lon="10.413699991424386" id="-55968">
		<tag k="name" v="Bondalen" />
		<tag k="natural" v="valley" />
		<tag k="place" v="locality" />
		<tag k="ssr:stedsnr" v="306483" />
	</node>
	<node lat="59.41976388701899" lon="10.486663889755915" id="-55969">
		<tag k="leisure" v="pitch" />
		<tag k="name" v="Horten stadion Gressbanen" />
		<tag k="ssr:stedsnr" v="328833" />
	</node>
	<node lat="59.38904999628574" lon="10.465180562604248" id="-55970">
		<tag k="name" v="Vold" />
		<tag k="place" v="farm" />
		<tag k="ssr:stedsnr" v="328850" />
	</node>
	<node lat="59.37921944253948" lon="10.458369451468862" id="-55971">
		<tag k="name" v="Hallingstad" />
		<tag k="place" v="farm" />
		<tag k="ssr:stedsnr" v="328797" />
	</node>
	<node lat="59.36921944431279" lon="10.384986104054212" id="-55972">
		<tag k="name" v="Ødegården" />
		<tag k="place" v="farm" />
		<tag k="ssr:stedsnr" v="331375" />
	</node>
	<node lat="59.39528333081712" lon="10.51067500194321" id="-55973">
		<tag k="name" v="Kalvekrakken" />
		<tag k="natural" v="shoal" />
		<tag k="place" v="locality" />
		<tag k="ssr:stedsnr" v="331092" />
	</node>
	<node lat="59.4407444427628" lon="10.44910833451247" id="-55977">
		<tag k="fixme" v="consider seamark:type=rock or natural=shoal" />
		<tag k="name" v="Hagaskjæret" />
		<tag k="place" v="islet" />
		<tag k="ssr:stedsnr" v="344676" />
	</node>
	<node lat="59.349149996764226" lon="10.472533326954123" id="-55978">
		<tag k="man_made" v="quay" />
		<tag k="name" v="Hansstenbrygga" />
		<tag k="place" v="locality" />
		<tag k="ssr:stedsnr" v="344985" />
	</node>
	<node lat="59.38602500228013" lon="10.475294448130382" id="-55979">
		<tag k="name" v="Birkely" />
		<tag k="place" v="quarter" />
		<tag k="ssr:stedsnr" v="358696" />
	</node>
	<node lat="59.383955553593786" lon="10.477949991864152" id="-55980">
		<tag k="name" v="Eydestranda" />
		<tag k="natural" v="beach" />
		<tag k="ssr:stedsnr" v="359469" />
	</node>
	<node lat="59.214972223183594" lon="10.636341670814504" id="-55981">
		<tag k="bay" v="fjord" />
		<tag k="name" v="Oslofjorden" />
		<tag k="natural" v="bay" />
		<tag k="ssr:stedsnr" v="365030" />
	</node>
	<node lat="59.38766389063936" lon="10.524066663289751" id="-55982">
		<tag k="name" v="Bastøybukta" />
		<tag k="natural" v="bay" />
		<tag k="ssr:stedsnr" v="366553" />
	</node>
	<node lat="59.3641249972071" lon="10.427183332081896" id="-55983">
		<tag k="alt_name" v="Adal østre" />
		<tag k="fixme" v="consider place=hamlet" />
		<tag k="name" v="Adal" />
		<tag k="place" v="farm" />
		<tag k="ssr:stedsnr" v="366577" />
	</node>
	<node lat="59.40179721957649" lon="10.353891666844369" id="-55984">
		<tag k="alt_name" v="Kjettetorp" />
		<tag k="fixme" v="consider place=hamlet" />
		<tag k="name" v="Kjettorp" />
		<tag k="place" v="farm" />
		<tag k="ssr:stedsnr" v="366525" />
	</node>
	<node lat="59.44112222146043" lon="10.429461103116106" id="-55985">
		<tag k="fixme" v="consider place=hamlet" />
		<tag k="name" v="Falkensten" />
		<tag k="place" v="farm" />
		<tag k="ssr:stedsnr" v="366936" />
	</node>
	<node lat="59.417827777248526" lon="10.464080552008552" id="-55986">
		<tag k="fixme" v="consider natural=peak for the most distinct mountains in the district" />
		<tag k="name" v="Røråsen" />
		<tag k="natural" v="hill" />
		<tag k="place" v="locality" />
		<tag k="ssr:stedsnr" v="389822" />
	</node>
	<node lat="59.41701110881795" lon="10.479574995340483" id="-55987">
		<tag k="name" v="Nordre Brårud" />
		<tag k="place" v="locality" />
		<tag k="ssr:stedsnr" v="389824" />
	</node>
	<node lat="59.383580137606806" lon="10.41369232330578" id="-55988">
		<tag k="amenity" v="school" />
		<tag k="name" v="Lysheim skole" />
		<tag k="ssr:stedsnr" v="389829" />
	</node>
	<node lat="59.45071666808397" lon="10.486341665672132" id="-55989">
		<tag k="name" v="Østøybåen" />
		<tag k="place" v="locality" />
		<tag k="seamark:type" v="rock" />
		<tag k="ssr:stedsnr" v="392121" />
	</node>
	<node lat="59.43064999748937" lon="10.43746943772139" id="-55990">
		<tag k="fixme" v="consider natural=peak for the most distinct mountains in the district" />
		<tag k="name" v="Utsikten" />
		<tag k="natural" v="hill" />
		<tag k="place" v="locality" />
		<tag k="ssr:stedsnr" v="390854" />
	</node>
	<node lat="59.4290666671476" lon="10.460574997649614" id="-55991">
		<tag k="alt_name" v="Solvika" />
		<tag k="name" v="Selviken" />
		<tag k="natural" v="bay" />
		<tag k="ssr:stedsnr" v="390856" />
	</node>
	<node lat="59.427116666394994" lon="10.521527783834554" id="-55992">
		<tag k="name" v="Furugrunnen" />
		<tag k="natural" v="shoal" />
		<tag k="place" v="locality" />
		<tag k="ssr:stedsnr" v="392129" />
	</node>
	<node lat="59.415320020253" lon="10.497146336332925" id="-55993">
		<tag k="alt_name" v="Fyllinga båthavn" />
		<tag k="landuse" v="harbour" />
		<tag k="name" v="Fyllinga" />
		<tag k="seamark:type" v="harbour" />
		<tag k="ssr:stedsnr" v="392829" />
	</node>
	<node lat="59.359361111834005" lon="10.452638883250415" id="-55994">
		<tag k="name" v="Jutestrand" />
		<tag k="place" v="farm" />
		<tag k="ssr:stedsnr" v="392849" />
	</node>
	<node lat="59.41404999941273" lon="10.488388890180193" id="-55996">
		<tag k="man_made" v="quay" />
		<tag k="name" v="Tollbubrygga" />
		<tag k="place" v="locality" />
		<tag k="ssr:stedsnr" v="405659" />
	</node>
	<node lat="59.42844444501428" lon="10.482141673083461" id="-55997">
		<tag k="building" v="industrial" />
		<tag k="industrial" v="factory" />
		<tag k="name" v="Horten verft" />
		<tag k="ssr:stedsnr" v="427926" />
	</node>
	<node lat="59.43365833462997" lon="10.495825002015119" id="-55998">
		<tag k="alt_name" v="Møringa" />
		<tag k="name" v="Møringen" />
		<tag k="natural" v="cape" />
		<tag k="ssr:stedsnr" v="427932" />
	</node>
	<node lat="59.40818055169045" lon="10.459925001907665" id="-55999">
		<tag k="name" v="Holtan" />
		<tag k="place" v="farm" />
		<tag k="ssr:stedsnr" v="427523" />
	</node>
	<node lat="59.39934166332044" lon="10.420549997959881" id="-56000">
		<tag k="alt_name" v="Solberg" />
		<tag k="fixme" v="consider place=hamlet" />
		<tag k="name" v="Mellom Solberg" />
		<tag k="place" v="farm" />
		<tag k="ssr:stedsnr" v="427528" />
	</node>
	<node lat="59.386416666203026" lon="10.42629444724993" id="-56001">
		<tag k="fixme" v="consider place=hamlet" />
		<tag k="name" v="Vestre Sande" />
		<tag k="place" v="farm" />
		<tag k="ssr:stedsnr" v="427536" />
	</node>
	<node lat="59.3894722186709" lon="10.427477786220981" id="-56002">
		<tag k="alt_name" v="Sande nordre" />
		<tag k="fixme" v="consider place=hamlet" />
		<tag k="name" v="Sande bruk" />
		<tag k="place" v="farm" />
		<tag k="ssr:stedsnr" v="427537" />
	</node>
	<node lat="59.36863888601725" lon="10.430874997719647" id="-56003">
		<tag k="fixme" v="consider place=hamlet" />
		<tag k="name" v="Friberg" />
		<tag k="place" v="farm" />
		<tag k="ssr:stedsnr" v="427563" />
	</node>
	<node lat="59.431149996488166" lon="10.42401665854703" id="-56004">
		<tag k="fixme" v="consider place=hamlet" />
		<tag k="name" v="Kotterød" />
		<tag k="place" v="farm" />
		<tag k="ssr:stedsnr" v="427939" />
	</node>
	<node lat="59.351436110747834" lon="10.437686117702041" id="-56005">
		<tag k="fixme" v="consider place=hamlet" />
		<tag k="name" v="Kjær ytre" />
		<tag k="place" v="farm" />
		<tag k="ssr:stedsnr" v="510839" />
	</node>
	<node lat="59.35204999629005" lon="10.443541666194257" id="-56006">
		<tag k="name" v="Øvre Åsgården" />
		<tag k="place" v="farm" />
		<tag k="ssr:stedsnr" v="510841" />
	</node>
	<node lat="59.420358335935816" lon="10.3871694382154" id="-56007">
		<tag k="junction" v="yes" />
		<tag k="name" v="Ekeberg" />
		<tag k="place" v="locality" />
		<tag k="ssr:stedsnr" v="510847" />
	</node>
	<node lat="59.39856944258913" lon="10.391238889837743" id="-56008">
		<tag k="name" v="Støkke" />
		<tag k="place" v="farm" />
		<tag k="ssr:stedsnr" v="510858" />
	</node>
	<node lat="59.396505557298944" lon="10.384980564194366" id="-56009">
		<tag k="fixme" v="consider place=hamlet" />
		<tag k="name" v="Gusland nordre" />
		<tag k="place" v="farm" />
		<tag k="ssr:stedsnr" v="510860" />
	</node>
	<node lat="59.39518333544782" lon="10.478186115700122" id="-56010">
		<tag k="name" v="Eikestrand" />
		<tag k="natural" v="beach" />
		<tag k="ssr:stedsnr" v="510865" />
	</node>
	<node lat="59.379922225125135" lon="10.46673056155167" id="-56011">
		<tag k="name" v="Spillemannshaugen" />
		<tag k="natural" v="hill" />
		<tag k="place" v="locality" />
		<tag k="ssr:stedsnr" v="510874" />
	</node>
	<node lat="59.44120000293642" lon="10.429783339558327" id="-56012">
		<tag k="building" v="industrial" />
		<tag k="industrial" v="factory" />
		<tag k="name" v="Falkensten" />
		<tag k="ssr:stedsnr" v="510882" />
	</node>
	<node lat="59.41358333366136" lon="10.493999998266778" id="-56013">
		<tag k="man_made" v="quay" />
		<tag k="name" v="Dypvannskaia" />
		<tag k="place" v="locality" />
		<tag k="ssr:stedsnr" v="512178" />
	</node>
	<node lat="59.35840092811318" lon="10.465006655074486" id="-56016">
		<tag k="name" v="Skogstua" />
		<tag k="place" v="farm" />
		<tag k="ssr:stedsnr" v="523041" />
	</node>
	<node lat="59.42686944377828" lon="10.4899055610896" id="-56018">
		<tag k="amenity" v="place_of_worship" />
		<tag k="denomination" v="lutheran" />
		<tag k="loc_name" v="Horten kirke" />
		<tag k="name" v="Horten" />
		<tag k="religion" v="christian" />
		<tag k="ssr:stedsnr" v="548518" />
	</node>
	<node lat="59.41872005478279" lon="10.344268305194985" id="-56019">
		<tag k="fixme" v="multiple name tags, choose one and add the other to alt_name; consider place=hamlet" />
		<tag k="name" v="Jalland;Drengløs" />
		<tag k="place" v="farm" />
		<tag k="ssr:stedsnr" v="548975" />
	</node>
	<node lat="59.43723333200741" lon="10.378694447309849" id="-56020">
		<tag k="fixme" v="consider place=hamlet" />
		<tag k="name" v="Tveitan" />
		<tag k="place" v="farm" />
		<tag k="ssr:stedsnr" v="548930" />
	</node>
	<node lat="59.44173055645032" lon="10.397533339070687" id="-56021">
		<tag k="alt_name" v="Vegge;Vegge nordre" />
		<tag k="fixme" v="consider place=hamlet" />
		<tag k="name" v="Nordre Vegge" />
		<tag k="place" v="farm" />
		<tag k="ssr:stedsnr" v="548944" />
	</node>
	<node lat="59.424349997199144" lon="10.357683340167998" id="-56022">
		<tag k="name" v="Soleglad" />
		<tag k="place" v="farm" />
		<tag k="ssr:stedsnr" v="548998" />
	</node>
	<node lat="59.37780278210774" lon="10.4687277791829" id="-56023">
		<tag k="man_made" v="quay" />
		<tag k="name" v="Steinbrygga" />
		<tag k="place" v="locality" />
		<tag k="ssr:stedsnr" v="570791" />
	</node>
	<node lat="59.373747226539194" lon="10.460536113538593" id="-56024">
		<tag k="name" v="Rishagerød" />
		<tag k="place" v="farm" />
		<tag k="ssr:stedsnr" v="570801" />
	</node>
	<node lat="59.45225000028519" lon="10.445049992661659" id="-56025">
		<tag k="loc_name" v="Veggsletta" />
		<tag k="name" v="Veggesletta" />
		<tag k="natural" v="cape" />
		<tag k="ssr:stedsnr" v="570827" />
	</node>
	<node lat="59.382697222025" lon="10.47008610519723" id="-56026">
		<tag k="fixme" v="consider boundary=protected_area and relevant protect_class if not nature reserve" />
		<tag k="leisure" v="nature_reserve" />
		<tag k="name" v="Borre nasjonalpark" />
		<tag k="ssr:stedsnr" v="570828" />
	</node>
	<node lat="59.37518889213368" lon="10.438149994529933" id="-56027">
		<tag k="name" v="Fogdeskogen" />
		<tag k="place" v="locality" />
		<tag k="ssr:stedsnr" v="570794" />
	</node>
	<node lat="59.391113887682934" lon="10.411077771901498" id="-56028">
		<tag k="name" v="Skoppum stasjon" />
		<tag k="railway" v="station" />
		<tag k="ssr:stedsnr" v="571822" />
		<tag k="train" v="yes" />
	</node>
	<node lat="59.435911114621994" lon="10.454700008304405" id="-56029">
		<tag k="name" v="Kjølhaleskogen" />
		<tag k="place" v="locality" />
		<tag k="ssr:stedsnr" v="572878" />
	</node>
	<node lat="59.42311388953991" lon="10.365025005910523" id="-56030">
		<tag k="junction" v="yes" />
		<tag k="name" v="Kopstad" />
		<tag k="place" v="locality" />
		<tag k="ssr:stedsnr" v="573823" />
	</node>
	<node lat="59.35588333720588" lon="10.396597220275991" id="-56031">
		<tag k="name" v="Gråmunken" />
		<tag k="natural" v="hill" />
		<tag k="place" v="locality" />
		<tag k="ssr:stedsnr" v="574430" />
	</node>
	<node lat="59.35699721900861" lon="10.436161108084406" id="-56032">
		<tag k="name" v="Ra" />
		<tag k="place" v="locality" />
		<tag k="ssr:stedsnr" v="574431" />
	</node>
	<node lat="59.386605554748115" lon="10.406322228759969" id="-56033">
		<tag k="amenity" v="place_of_worship" />
		<tag k="denomination" v="lutheran" />
		<tag k="name" v="Skoppum" />
		<tag k="religion" v="christian" />
		<tag k="ssr:stedsnr" v="578606" />
	</node>
	<node lat="59.435969444074026" lon="10.380230557033432" id="-56034">
		<tag k="name" v="Tveitan" />
		<tag k="place" v="farm" />
		<tag k="ssr:stedsnr" v="580565" />
	</node>
	<node lat="59.430886114764625" lon="10.379986112929029" id="-56035">
		<tag k="fixme" v="consider place=hamlet" />
		<tag k="name" v="Nøklegård øvre" />
		<tag k="place" v="farm" />
		<tag k="ssr:stedsnr" v="580572" />
	</node>
	<node lat="59.3606694459404" lon="10.509888896006744" id="-56036">
		<tag k="fixme" v="consider seamark:type=rock or natural=shoal" />
		<tag k="name" v="Østenskjær" />
		<tag k="place" v="islet" />
		<tag k="ssr:stedsnr" v="583037" />
	</node>
	<node lat="59.349577782128605" lon="10.444888892412518" id="-56037">
		<tag k="name" v="Breidablikk" />
		<tag k="place" v="quarter" />
		<tag k="ssr:stedsnr" v="601683" />
	</node>
	<node lat="59.42108611402911" lon="10.383536110624135" id="-56038">
		<tag k="name" v="Klokkeråsen" />
		<tag k="place" v="quarter" />
		<tag k="ssr:stedsnr" v="604692" />
	</node>
	<node lat="59.42494444300133" lon="10.381738887413258" id="-56039">
		<tag k="alt_name" v="Nykirke st." />
		<tag k="name" v="Nykirke" />
		<tag k="railway" v="station" />
		<tag k="ssr:stedsnr" v="608994" />
		<tag k="train" v="yes" />
	</node>
	<node lat="59.36776111189995" lon="10.445477781949766" id="-56040">
		<tag k="alt_name" v="Vestmanrød" />
		<tag k="fixme" v="consider place=hamlet" />
		<tag k="name" v="Vestmannrød" />
		<tag k="place" v="farm" />
		<tag k="ssr:stedsnr" v="608601" />
	</node>
	<node lat="59.38143333400535" lon="10.381838888899042" id="-56041">
		<tag k="alt_name" v="Steinbjørnrød" />
		<tag k="fixme" v="consider place=hamlet" />
		<tag k="name" v="Stenbjørnrød" />
		<tag k="place" v="farm" />
		<tag k="ssr:stedsnr" v="608584" />
	</node>
	<node lat="59.382924995867526" lon="10.384597226173872" id="-56042">
		<tag k="name" v="Solheim" />
		<tag k="place" v="farm" />
		<tag k="ssr:stedsnr" v="608585" />
	</node>
	<node lat="59.411000000395426" lon="10.357049996869966" id="-56043">
		<tag k="name" v="Kjærran" />
		<tag k="place" v="hamlet" />
		<tag k="ssr:stedsnr" v="609980" />
	</node>
	<node lat="59.41576388747433" lon="10.396027773444795" id="-56044">
		<tag k="fixme" v="consider place=hamlet" />
		<tag k="name" v="Knatten" />
		<tag k="place" v="farm" />
		<tag k="ssr:stedsnr" v="609985" />
	</node>
	<node lat="59.359866664655605" lon="10.406808340150635" id="-56045">
		<tag k="name" v="Adal" />
		<tag k="place" v="farm" />
		<tag k="ssr:stedsnr" v="608604" />
	</node>
	<node lat="59.44386944702111" lon="10.461741671277935" id="-56046">
		<tag k="name" v="Mellomøya" />
		<tag k="place" v="island" />
		<tag k="ssr:stedsnr" v="608961" />
	</node>
	<node lat="59.40022500010083" lon="10.407672222723193" id="-56047">
		<tag k="fixme" v="consider place=hamlet" />
		<tag k="name" v="Olsmyra" />
		<tag k="place" v="farm" />
		<tag k="ssr:stedsnr" v="609480" />
	</node>
	<node lat="59.38764444331307" lon="10.463783324744961" id="-56048">
		<tag k="name" v="Vold" />
		<tag k="place" v="farm" />
		<tag k="ssr:stedsnr" v="631859" />
	</node>
	<node lat="59.43109722594965" lon="10.392108340985118" id="-56049">
		<tag k="fixme" v="consider place=hamlet" />
		<tag k="name" v="Skåne nordre" />
		<tag k="place" v="farm" />
		<tag k="ssr:stedsnr" v="631862" />
	</node>
	<node lat="59.37827777549124" lon="10.533027784080202" id="-56050">
		<tag k="name" v="Briskesletta" />
		<tag k="place" v="locality" />
		<tag k="ssr:stedsnr" v="633215" />
	</node>
	<node lat="59.44854444577788" lon="10.431424995026964" id="-56051">
		<tag k="name" v="Paradisbukta" />
		<tag k="natural" v="bay" />
		<tag k="ssr:stedsnr" v="634359" />
	</node>
	<node lat="59.37437500243161" lon="10.398633340496067" id="-56052">
		<tag k="fixme" v="consider natural=peak for the most distinct mountains in the district" />
		<tag k="name" v="Adalsborgen" />
		<tag k="natural" v="hill" />
		<tag k="place" v="locality" />
		<tag k="ssr:stedsnr" v="634411" />
	</node>
	<node lat="59.37021388469089" lon="10.461200003720396" id="-56053">
		<tag k="name" v="Vestmannrødstranda" />
		<tag k="natural" v="beach" />
		<tag k="ssr:stedsnr" v="634839" />
	</node>
	<node lat="59.42484444053817" lon="10.466497222885662" id="-56056">
		<tag k="fixme" v="consider place=suburb, village or hamlet" />
		<tag k="name" v="Keisemarka" />
		<tag k="place" v="quarter" />
		<tag k="ssr:stedsnr" v="647518" />
	</node>
	<node lat="59.44889444244136" lon="10.476216665374016" id="-56057">
		<tag k="name" v="Ersvika" />
		<tag k="natural" v="bay" />
		<tag k="ssr:stedsnr" v="647695" />
	</node>
	<node lat="59.4406694432153" lon="10.456725008433217" id="-56058">
		<tag k="fixme" v="consider seamark:type=rock or natural=shoal" />
		<tag k="name" v="Kuskjæret" />
		<tag k="place" v="islet" />
		<tag k="ssr:stedsnr" v="647699" />
	</node>
	<node lat="59.43443333128888" lon="10.45395277235745" id="-56059">
		<tag k="name" v="Kjølhalskogen" />
		<tag k="place" v="quarter" />
		<tag k="ssr:stedsnr" v="662687" />
	</node>
	<node lat="59.370980558744506" lon="10.456919447207206" id="-56060">
		<tag k="name" v="Mastebakke" />
		<tag k="place" v="quarter" />
		<tag k="ssr:stedsnr" v="662689" />
	</node>
	<node lat="59.422349999554555" lon="10.442699992546363" id="-56061">
		<tag k="name" v="Kongsten" />
		<tag k="place" v="farm" />
		<tag k="ssr:stedsnr" v="664966" />
	</node>
	<node lat="59.445538892999075" lon="10.491233332583342" id="-56064">
		<tag k="name" v="Vealøsflaket" />
		<tag k="natural" v="shoal" />
		<tag k="place" v="locality" />
		<tag k="ssr:stedsnr" v="669952" />
	</node>
	<node lat="59.40790833409287" lon="10.476047221043046" id="-56065">
		<tag k="bridge" v="yes" />
		<tag k="layer" v="1" />
		<tag k="name" v="Granly" />
		<tag k="ssr:stedsnr" v="714567" />
	</node>
	<node lat="59.385080558835334" lon="10.465116659038713" id="-56066">
		<tag k="bridge" v="yes" />
		<tag k="layer" v="1" />
		<tag k="name" v="Borre elementkulvert" />
		<tag k="ssr:stedsnr" v="714571" />
	</node>
	<node lat="59.41256666632571" lon="10.400122215272479" id="-56067">
		<tag k="fixme" v="consider place=hamlet" />
		<tag k="name" v="Guttulfsrød" />
		<tag k="place" v="farm" />
		<tag k="ssr:stedsnr" v="730529" />
	</node>
	<node lat="59.4060250039051" lon="10.484055554852441" id="-56068">
		<tag k="name" v="Sollistrand" />
		<tag k="natural" v="beach" />
		<tag k="ssr:stedsnr" v="730533" />
	</node>
	<node lat="59.37936389119297" lon="10.389311107043692" id="-56069">
		<tag k="fixme" v="consider place=hamlet" />
		<tag k="name" v="Råen" />
		<tag k="place" v="farm" />
		<tag k="ssr:stedsnr" v="730589" />
	</node>
	<node lat="59.38612777900484" lon="10.410774997567824" id="-56070">
		<tag k="name" v="Skoppum" />
		<tag k="place" v="village" />
		<tag k="ssr:stedsnr" v="730591" />
	</node>
	<node lat="59.45097500195518" lon="10.489799994348857" id="-56071">
		<tag k="name" v="Hårfagrebåen" />
		<tag k="natural" v="shoal" />
		<tag k="place" v="locality" />
		<tag k="ssr:stedsnr" v="730961" />
	</node>
	<node lat="59.426824998633336" lon="10.399980556872597" id="-56072">
		<tag k="fixme" v="consider natural=peak for the most distinct mountains in the district" />
		<tag k="name" v="Skånevetan" />
		<tag k="natural" v="hill" />
		<tag k="place" v="locality" />
		<tag k="ssr:stedsnr" v="730990" />
	</node>
	<node lat="59.3748222194196" lon="10.525361117840964" id="-56073">
		<tag k="name" v="Fryden" />
		<tag k="natural" v="hill" />
		<tag k="place" v="locality" />
		<tag k="ssr:stedsnr" v="755188" />
	</node>
	<node lat="59.38088055880383" lon="10.473777779035814" id="-56074">
		<tag k="name" v="Prestegårdstranda" />
		<tag k="natural" v="beach" />
		<tag k="ssr:stedsnr" v="753824" />
	</node>
	<node lat="59.4354638890955" lon="10.429919447428157" id="-56075">
		<tag k="amenity" v="school" />
		<tag k="name" v="Falkensten skole" />
		<tag k="ssr:stedsnr" v="753835" />
	</node>
	<node lat="59.428913892708785" lon="10.379550003940883" id="-56076">
		<tag k="fixme" v="consider place=hamlet" />
		<tag k="name" v="Nøklegård nedre" />
		<tag k="place" v="farm" />
		<tag k="ssr:stedsnr" v="755838" />
	</node>
	<node lat="59.43274444411589" lon="10.456275008106422" id="-56077">
		<tag k="name" v="Tordenskjoldbukta" />
		<tag k="natural" v="bay" />
		<tag k="old_name" v="Bakkebukta" />
		<tag k="ssr:stedsnr" v="755888" />
	</node>
	<node lat="59.36568610772375" lon="10.416938889289018" id="-56078">
		<tag k="name" v="Bergan søndre" />
		<tag k="place" v="farm" />
		<tag k="ssr:stedsnr" v="756374" />
	</node>
	<node lat="59.4399833333131" lon="10.455547222847136" id="-56079">
		<tag k="fixme" v="consider seamark:type=rock or natural=shoal" />
		<tag k="name" v="Svartskjæret" />
		<tag k="place" v="islet" />
		<tag k="ssr:stedsnr" v="769688" />
	</node>
	<node lat="59.42563333474214" lon="10.46816945125654" id="-56080">
		<tag k="man_made" v="quay" />
		<tag k="name" v="Korenbrygga" />
		<tag k="place" v="locality" />
		<tag k="ssr:stedsnr" v="784726" />
	</node>
	<node lat="59.44722777489338" lon="10.430602769695378" id="-56081">
		<tag k="name" v="Holmen" />
		<tag k="natural" v="cape" />
		<tag k="ssr:stedsnr" v="786970" />
	</node>
	<node lat="59.351952774851334" lon="10.394274995666846" id="-56082">
		<tag k="name" v="Tangsrød" />
		<tag k="place" v="isolated_dwelling" />
		<tag k="ssr:stedsnr" v="791560" />
	</node>
	<node lat="59.384252774461096" lon="10.398125002777382" id="-56083">
		<tag k="name" v="Reir" />
		<tag k="place" v="farm" />
		<tag k="ssr:stedsnr" v="791531" />
	</node>
	<node lat="59.37546666646356" lon="10.461208332891946" id="-56084">
		<tag k="name" v="Sjølyst" />
		<tag k="place" v="locality" />
		<tag k="ssr:stedsnr" v="814819" />
	</node>
	<node lat="59.38577778066299" lon="10.403608339363709" id="-56085">
		<tag k="name" v="Reir" />
		<tag k="place" v="farm" />
		<tag k="ssr:stedsnr" v="814840" />
	</node>
	<node lat="59.388977781794075" lon="10.4464444506317" id="-56086">
		<tag k="name" v="Vassbånn" />
		<tag k="place" v="locality" />
		<tag k="ssr:stedsnr" v="814850" />
	</node>
	<node lat="59.40157777731069" lon="10.371541659383434" id="-56087">
		<tag k="fixme" v="consider place=hamlet" />
		<tag k="name" v="Bergan" />
		<tag k="place" v="farm" />
		<tag k="ssr:stedsnr" v="816849" />
	</node>
	<node lat="59.43933332987328" lon="10.369522214122904" id="-56088">
		<tag k="name" v="Freberg" />
		<tag k="place" v="hamlet" />
		<tag k="ssr:stedsnr" v="816855" />
	</node>
	<node lat="59.363669444514834" lon="10.465686107761943" id="-56089">
		<tag k="alt_name" v="Fjugestadbrygga;Fjukstadbrygga" />
		<tag k="man_made" v="quay" />
		<tag k="name" v="Fjugstadbrygga" />
		<tag k="place" v="locality" />
		<tag k="ssr:stedsnr" v="817134" />
	</node>
	<node lat="59.37782222027906" lon="10.407180559553304" id="-56090">
		<tag k="fixme" v="consider place=hamlet" />
		<tag k="name" v="Viulsrød" />
		<tag k="place" v="farm" />
		<tag k="ssr:stedsnr" v="817391" />
	</node>
	<node lat="59.378363893098225" lon="10.40165556321078" id="-56091">
		<tag k="name" v="Viulsrød" />
		<tag k="place" v="farm" />
		<tag k="ssr:stedsnr" v="817393" />
	</node>
	<node lat="59.42736666808294" lon="10.46661666367762" id="-56092">
		<tag k="name" v="Apenes" />
		<tag k="natural" v="cape" />
		<tag k="ssr:stedsnr" v="817139" />
	</node>
	<node lat="59.36843888956422" lon="10.46005000382667" id="-56093">
		<tag k="name" v="Fuglesangen" />
		<tag k="place" v="locality" />
		<tag k="ssr:stedsnr" v="817837" />
	</node>
	<node lat="59.44158611540863" lon="10.414947219099306" id="-56094">
		<tag k="name" v="Veggen" />
		<tag k="natural" v="hill" />
		<tag k="place" v="locality" />
		<tag k="ssr:stedsnr" v="817840" />
	</node>
	<node lat="59.397362984161205" lon="10.47423901581849" id="-56096">
		<tag k="layer" v="-1" />
		<tag k="name" v="Hortenstunnelen" />
		<tag k="ssr:stedsnr" v="833513" />
		<tag k="tunnel" v="yes" />
	</node>
	<node lat="59.38188889061058" lon="10.437963883200975" id="-56099">
		<tag k="name" v="Borre" />
		<tag k="place" v="farm" />
		<tag k="ssr:stedsnr" v="852540" />
	</node>
	<node lat="59.369083331244866" lon="10.404872220458655" id="-56100">
		<tag k="name" v="Skogly" />
		<tag k="place" v="farm" />
		<tag k="ssr:stedsnr" v="852550" />
	</node>
	<node lat="59.42207499583079" lon="10.422149993433237" id="-56101">
		<tag k="alt_name" v="Vik" />
		<tag k="fixme" v="consider place=hamlet" />
		<tag k="name" v="Vik nordre" />
		<tag k="place" v="farm" />
		<tag k="ssr:stedsnr" v="852990" />
	</node>
	<node lat="59.43749045432038" lon="10.346401205768018" id="-56102">
		<tag k="name" v="Tangenbekken" />
		<tag k="ssr:stedsnr" v="852942" />
		<tag k="waterway" v="stream" />
	</node>
	<node lat="59.44460158650864" lon="10.353921616514608" id="-56103">
		<tag k="fixme" v="consider place=hamlet" />
		<tag k="name" v="Tangen" />
		<tag k="place" v="farm" />
		<tag k="ssr:stedsnr" v="852943" />
	</node>
	<node lat="59.42570277692337" lon="10.394030551730326" id="-56104">
		<tag k="name" v="Utheim" />
		<tag k="place" v="farm" />
		<tag k="ssr:stedsnr" v="852994" />
	</node>
	<node lat="59.3576555593928" lon="10.446450001702079" id="-56106">
		<tag k="name" v="Kirkenga" />
		<tag k="place" v="farm" />
		<tag k="ssr:stedsnr" v="874807" />
	</node>
	<node lat="59.359163893478296" lon="10.440388880346008" id="-56107">
		<tag k="name" v="Furuhaug" />
		<tag k="place" v="farm" />
		<tag k="ssr:stedsnr" v="874812" />
	</node>
	<node lat="59.41685833776371" lon="10.468424998390272" id="-56108">
		<tag k="fixme" v="consider natural=peak for the most distinct mountains in the district" />
		<tag k="name" v="Brårudåsen" />
		<tag k="natural" v="hill" />
		<tag k="place" v="locality" />
		<tag k="ssr:stedsnr" v="874835" />
	</node>
	<node lat="59.382536114774815" lon="10.455550005820932" id="-56109">
		<tag k="name" v="Kirkebakken" />
		<tag k="place" v="quarter" />
		<tag k="ssr:stedsnr" v="874845" />
	</node>
	<node lat="59.437261109253775" lon="10.432602769336178" id="-56110">
		<tag k="fixme" v="consider natural=peak for the most distinct mountains in the district" />
		<tag k="name" v="Veierudåsen" />
		<tag k="natural" v="hill" />
		<tag k="place" v="locality" />
		<tag k="ssr:stedsnr" v="874851" />
	</node>
	<node lat="59.373977781983044" lon="10.46704166797341" id="-56111">
		<tag k="fixme" v="consider seamark:type=rock or natural=shoal" />
		<tag k="name" v="Dover" />
		<tag k="place" v="islet" />
		<tag k="ssr:stedsnr" v="877099" />
	</node>
	<node lat="59.44971666376582" lon="10.404388889448839" id="-56112">
		<tag k="name" v="Singelbukta" />
		<tag k="natural" v="bay" />
		<tag k="ssr:stedsnr" v="878449" />
	</node>
	<node lat="59.42379166848742" lon="10.386774996194061" id="-56113">
		<tag k="name" v="Myrvang" />
		<tag k="place" v="farm" />
		<tag k="ssr:stedsnr" v="937890" />
	</node>
	<node lat="59.354755558784234" lon="10.448413880338759" id="-56114">
		<tag k="name" v="Koterød" />
		<tag k="place" v="farm" />
		<tag k="ssr:stedsnr" v="938090" />
	</node>
	<node lat="59.44416666377171" lon="10.484513887364198" id="-56115">
		<tag k="name" v="Vealøsrenna" />
		<tag k="natural" v="strait" />
		<tag k="ssr:stedsnr" v="938097" />
	</node>
	<node lat="59.360977775874645" lon="10.411777784666741" id="-56116">
		<tag k="fixme" v="consider place=hamlet" />
		<tag k="name" v="Adal mellom" />
		<tag k="place" v="farm" />
		<tag k="ssr:stedsnr" v="938377" />
	</node>
	<node lat="59.37674403821155" lon="10.440168811656036" id="-56117">
		<tag k="name" v="Glenne" />
		<tag k="place" v="hamlet" />
		<tag k="ssr:stedsnr" v="938380" />
	</node>
	<node lat="59.36687499824005" lon="10.533886111039322" id="-56119">
		<tag k="name" v="Bastøyodden" />
		<tag k="natural" v="cape" />
		<tag k="ssr:stedsnr" v="948060" />
	</node>
	<node lat="59.415472223357455" lon="10.485086110014619" id="-56120">
		<tag k="amenity" v="townhall" />
		<tag k="name" v="Rådhuset" />
		<tag k="ssr:stedsnr" v="951650" />
	</node>
	<node lat="59.38668177558868" lon="10.462975475303443" id="-56123">
		<tag k="name" v="Vold" />
		<tag k="place" v="hamlet" />
		<tag k="ssr:stedsnr" v="984536" />
	</node>
	<node lat="59.405669358004324" lon="10.466535297649028" id="-56124">
		<tag k="fixme" v="consider place=hamlet" />
		<tag k="name" v="Baggerød" />
		<tag k="place" v="farm" />
		<tag k="ssr:stedsnr" v="984537" />
	</node>
	<node lat="59.42266715367662" lon="10.421275137165976" id="-56125">
		<tag k="name" v="Vik" />
		<tag k="place" v="hamlet" />
		<tag k="ssr:stedsnr" v="984538" />
	</node>
	<node lat="59.40015256188195" lon="10.415331785881504" id="-56126">
		<tag k="fixme" v="consider place=hamlet" />
		<tag k="name" v="Vestre Solberg" />
		<tag k="place" v="farm" />
		<tag k="ssr:stedsnr" v="984539" />
	</node>
	<node lat="59.39849145625152" lon="10.419999429421859" id="-56127">
		<tag k="name" v="Solberg" />
		<tag k="place" v="hamlet" />
		<tag k="ssr:stedsnr" v="984540" />
	</node>
	<node lat="59.39587488690549" lon="10.405608313371323" id="-56128">
		<tag k="name" v="Søndre Rygland" />
		<tag k="place" v="locality" />
		<tag k="ssr:stedsnr" v="984541" />
	</node>
	<node lat="59.388268690829385" lon="10.42796090578957" id="-56129">
		<tag k="name" v="Sande" />
		<tag k="place" v="hamlet" />
		<tag k="ssr:stedsnr" v="984543" />
	</node>
	<node lat="59.38264656424015" lon="10.413329951955447" id="-56130">
		<tag k="name" v="Tokerød" />
		<tag k="place" v="locality" />
		<tag k="ssr:stedsnr" v="984544" />
	</node>
	<node lat="59.4309151938229" lon="10.352258701550852" id="-56131">
		<tag k="name" v="Ås" />
		<tag k="place" v="hamlet" />
		<tag k="ssr:stedsnr" v="984661" />
	</node>
	<node lat="59.429915974676504" lon="10.38012441714573" id="-56132">
		<tag k="name" v="Nøklegård" />
		<tag k="place" v="hamlet" />
		<tag k="ssr:stedsnr" v="984662" />
	</node>
	<node lat="59.43773733709788" lon="10.39048483039241" id="-56133">
		<tag k="fixme" v="consider place=hamlet" />
		<tag k="name" v="Teigen" />
		<tag k="place" v="farm" />
		<tag k="ssr:stedsnr" v="984709" />
	</node>
	<node lat="59.41279358504112" lon="10.488353967262938" id="-56136">
		<tag k="man_made" v="quay" />
		<tag k="name" v="Hortensbrygga" />
		<tag k="place" v="locality" />
		<tag k="ssr:stedsnr" v="986105" />
	</node>
	<node lat="59.380754375823784" lon="10.52518203815461" id="-56138">
		<tag k="amenity" v="place_of_worship" />
		<tag k="denomination" v="lutheran" />
		<tag k="name" v="Bastøy kirke" />
		<tag k="religion" v="christian" />
		<tag k="ssr:stedsnr" v="986143" />
	</node>
	<node lat="59.45076869992584" lon="10.482045674118693" id="-56139">
		<tag k="name" v="Østøyodden" />
		<tag k="natural" v="cape" />
		<tag k="ssr:stedsnr" v="986144" />
	</node>
	<node lat="59.41614779849886" lon="10.496927540079845" id="-56140">
		<tag k="landuse" v="harbour" />
		<tag k="name" v="Kanalhavna" />
		<tag k="seamark:type" v="harbour" />
		<tag k="ssr:stedsnr" v="986087" />
	</node>
	<node lat="58.9440068916853" lon="9.637917728815127" id="-56529">
		<tag k="name" v="Tonerhavn" />
		<tag k="place" v="locality" />
		<tag k="ssr:stedsnr" v="1074516" />
	</node>
	<node lat="58.88086692413532" lon="9.405034013126404" id="-56531">
		<tag k="name" v="Kalstadkilen" />
		<tag k="natural" v="bay" />
		<tag k="ssr:stedsnr" v="1074475" />
	</node>
	<node lat="59.40178202154419" lon="10.381829289475332" id="-56532">
		<tag k="fixme" v="consider natural=peak for the most distinct mountains in the district" />
		<tag k="name" v="Skotåsen" />
		<tag k="natural" v="hill" />
		<tag k="place" v="locality" />
		<tag k="ssr:stedsnr" v="1079112" />
	</node>
	<node lat="59.40213887639727" lon="10.380298157517695" id="-56533">
		<tag k="name" v="Skottås" />
		<tag k="place" v="farm" />
		<tag k="ssr:stedsnr" v="1079115" />
	</node>
	<node lat="59.34820183156738" lon="10.455249714564538" id="-56534">
		<tag k="amenity" v="school" />
		<tag k="name" v="Åsgården skole" />
		<tag k="ssr:stedsnr" v="1080348" />
	</node>
</osm>
