<?xml version="1.0" encoding="UTF-8"?>
<osm version="0.6" generator="osmapis">
	<node lat="59.37365555595094" lon="10.41885832476894" id="-23941">
		<tag k="name" v="Adalsbekken" />
		<tag k="ssr:stedsnr" v="267879" />
		<tag k="waterway" v="stream" />
	</node>
	<node lat="59.37035466051189" lon="10.435859177500602" id="-23988">
		<tag k="name" v="Adalstjernet" />
		<tag k="natural" v="water" />
		<tag k="ssr:stedsnr" v="513412" />
	</node>
	<node lat="59.43983333060092" lon="10.43013055732414" id="-24081">
		<tag k="name" v="MÃ¸lledammen" />
		<tag k="natural" v="water" />
		<tag k="ssr:stedsnr" v="935857" />
	</node>
	<node lat="59.41156944297716" lon="10.431616665563224" id="-24184">
		<tag k="name" v="Borrevannet" />
		<tag k="natural" v="water" />
		<tag k="ssr:stedsnr" v="306464" />
		<tag k="water" v="lake" />
	</node>
	<node lat="59.43749045432038" lon="10.346401205768018" id="-24312">
		<tag k="name" v="Tangenbekken" />
		<tag k="ssr:stedsnr" v="852942" />
		<tag k="waterway" v="stream" />
	</node>
</osm>
