<?xml version="1.0" encoding="UTF-8"?>
<<<<<<< HEAD
<osm version="0.6" generator="osmapis">
	<node lat="59.432269443758514" lon="10.363616671481225" id="-20515">
		<tag k="bridge" v="yes" />
		<tag k="layer" v="1" />
		<tag k="name" v="Nøklegård vest" />
		<tag k="ssr:stedsnr" v="46685" />
	</node>
	<node lat="59.40173055422382" lon="10.485358337016667" id="-20545">
		<tag k="landuse" v="harbour" />
		<tag k="name" v="Steinsnes" />
		<tag k="seamark:type" v="harbour" />
		<tag k="ssr:stedsnr" v="210128" />
	</node>
	<node lat="59.418875003773714" lon="10.493463896519337" id="-20556">
		<tag k="name" v="Kanalen" />
		<tag k="ssr:stedsnr" v="451197" />
		<tag k="waterway" v="canal" />
	</node>
	<node lat="59.41179166943352" lon="10.48890832467616" id="-20565">
		<tag k="amenity" v="ferry_terminal" />
		<tag k="name" v="Horten ferjekai" />
		<tag k="ssr:stedsnr" v="303705" />
	</node>
	<node lat="59.3937694442968" lon="10.421930547834979" id="-20572">
=======
<osm generator="osmapis" version="0.6">
	<node id="-407035" lat="59.4231138895" lon="10.3650250059">
		<tag k="junction" v="yes" />
		<tag k="name" v="Kopstad" />
		<tag k="place" v="locality" />
		<tag k="ssr:stedsnr" v="573823" />
	</node>
	<node id="-407032" lat="59.3911138877" lon="10.4110777719">
		<tag k="name" v="Skoppum st." />
		<tag k="railway" v="station" />
		<tag k="ssr:stedsnr" v="571822" />
		<tag k="train" v="yes" />
	</node>
	<node id="-406899" lat="59.4261749978" lon="10.495586103">
		<tag k="man_made" v="quay" />
		<tag k="name" v="Jakobsbrygga" />
		<tag k="place" v="locality" />
		<tag k="ssr:stedsnr" v="56745" />
	</node>
	<node id="-406770" lat="59.424944443" lon="10.3817388874">
		<tag k="alt_name" v="Nykirke st." />
		<tag k="name" v="Nykirke" />
		<tag k="railway" v="station" />
		<tag k="ssr:stedsnr" v="608994" />
		<tag k="train" v="yes" />
	</node>
	<node id="-406896" lat="59.4322694438" lon="10.3636166715">
>>>>>>> e1d4bc35ff8a6074a6f2e91616a996b547c36f15
		<tag k="bridge" v="yes" />
		<tag k="layer" v="1" />
		<tag k="name" v="Skjeller" />
		<tag k="ssr:stedsnr" v="349672" />
	</node>
<<<<<<< HEAD
	<node lat="59.424055559226694" lon="10.372913895650443" id="-20580">
		<tag k="bridge" v="yes" />
		<tag k="layer" v="1" />
		<tag k="name" v="Nykirke kulvert" />
		<tag k="ssr:stedsnr" v="410627" />
	</node>
	<node lat="59.36139375787987" lon="10.408951843933911" id="-20589">
=======
	<node id="-406892" lat="59.4126305559" lon="10.4885222191">
		<tag k="alt_name" v="Horten brygge" />
		<tag k="man_made" v="quay" />
		<tag k="name" v="Rustadbrygga" />
		<tag k="place" v="locality" />
		<tag k="ssr:stedsnr" v="40643" />
	</node>
	<node id="-407010" lat="59.365083332" lon="10.4024388837">
>>>>>>> e1d4bc35ff8a6074a6f2e91616a996b547c36f15
		<tag k="name" v="Adal" />
		<tag k="railway" v="station" />
		<tag k="ssr:stedsnr" v="427572" />
		<tag k="train" v="yes" />
	</node>
<<<<<<< HEAD
	<node lat="59.37364999759371" lon="10.446061109178684" id="-20611">
		<tag k="bridge" v="yes" />
		<tag k="layer" v="1" />
		<tag k="name" v="Ingeniørhøyskolen" />
		<tag k="ssr:stedsnr" v="532609" />
	</node>
	<node lat="59.44168889135398" lon="10.433244438083271" id="-20637">
=======
	<node id="-407002" lat="59.4240555592" lon="10.3729138957">
		<tag k="bridge" v="yes" />
		<tag k="layer" v="1" />
		<tag k="name" v="Nykirke kulvert" />
		<tag k="ssr:stedsnr" v="410627" />
	</node>
	<node id="-406999" lat="59.4153200203" lon="10.4971463363">
		<tag k="alt_name" v="Fyllinga båthavn" />
		<tag k="landuse" v="harbour" />
		<tag k="name" v="Fyllinga" />
		<tag k="seamark:type" v="harbour" />
		<tag k="ssr:stedsnr" v="392829" />
	</node>
	<node id="-406742" lat="59.3736499976" lon="10.4460611092">
>>>>>>> e1d4bc35ff8a6074a6f2e91616a996b547c36f15
		<tag k="bridge" v="yes" />
		<tag k="layer" v="1" />
		<tag k="name" v="Falkensten øst" />
		<tag k="ssr:stedsnr" v="592655" />
	</node>
<<<<<<< HEAD
	<node lat="59.43379167083679" lon="10.428308329431673" id="-20647">
		<tag k="bridge" v="yes" />
		<tag k="layer" v="1" />
		<tag k="name" v="Falkensten" />
		<tag k="ssr:stedsnr" v="653620" />
	</node>
	<node lat="59.426383332216076" lon="10.467797218145902" id="-20668">
=======
	<node id="-406865" lat="59.4161477985" lon="10.4969275401">
		<tag k="landuse" v="harbour" />
		<tag k="name" v="Kanalhavna" />
		<tag k="seamark:type" v="harbour" />
		<tag k="ssr:stedsnr" v="986087" />
	</node>
	<node id="-406861" lat="59.412793585" lon="10.4883539673">
>>>>>>> e1d4bc35ff8a6074a6f2e91616a996b547c36f15
		<tag k="man_made" v="quay" />
		<tag k="name" v="Steinbrygga" />
		<tag k="place" v="locality" />
		<tag k="ssr:stedsnr" v="784725" />
	</node>
<<<<<<< HEAD
	<node lat="59.42288056002541" lon="10.450691663800516" id="-20677">
		<tag k="highway" v="path" />
		<tag k="name" v="Kongstien" />
		<tag k="ssr:stedsnr" v="815883" />
	</node>
	<node lat="59.383963889518505" lon="10.416555557983973" id="-20682">
=======
	<node id="-407115" lat="58.9440068917" lon="9.63791772882">
		<tag k="name" v="Tonerhavn" />
		<tag k="place" v="locality" />
		<tag k="ssr:stedsnr" v="1074516" />
	</node>
	<node id="-406983" lat="59.3937694443" lon="10.4219305478">
>>>>>>> e1d4bc35ff8a6074a6f2e91616a996b547c36f15
		<tag k="bridge" v="yes" />
		<tag k="layer" v="1" />
		<tag k="name" v="Tokerud" />
		<tag k="ssr:stedsnr" v="228683" />
	</node>
	<node lat="59.412630555905906" lon="10.4885222191329" id="-20736">
		<tag k="alt_name" v="Horten brygge" />
		<tag k="man_made" v="quay" />
		<tag k="name" v="Rustadbrygga" />
		<tag k="place" v="locality" />
		<tag k="ssr:stedsnr" v="40643" />
	</node>
	<node lat="59.42617499776896" lon="10.495586103029254" id="-20741">
		<tag k="man_made" v="quay" />
		<tag k="name" v="Jakobsbrygga" />
		<tag k="place" v="locality" />
		<tag k="ssr:stedsnr" v="56745" />
	</node>
	<node lat="59.41353888722886" lon="10.48768055547688" id="-20783">
		<tag k="man_made" v="quay" />
		<tag k="name" v="Hydrofoilbrygga" />
		<tag k="place" v="locality" />
		<tag k="ssr:stedsnr" v="162662" />
	</node>
<<<<<<< HEAD
	<node lat="59.377979605304496" lon="10.470285438729732" id="-20799">
		<tag k="landuse" v="harbour" />
		<tag k="name" v="Steinbrygga" />
		<tag k="seamark:type" v="harbour" />
		<tag k="ssr:stedsnr" v="210812" />
	</node>
	<node lat="59.349149996764226" lon="10.472533326954123" id="-20816">
=======
	<node id="-406982" lat="59.3491499968" lon="10.472533327">
>>>>>>> e1d4bc35ff8a6074a6f2e91616a996b547c36f15
		<tag k="man_made" v="quay" />
		<tag k="name" v="Hansstenbrygga" />
		<tag k="place" v="locality" />
		<tag k="ssr:stedsnr" v="344985" />
	</node>
<<<<<<< HEAD
	<node lat="59.415320020253" lon="10.497146336332925" id="-20831">
		<tag k="alt_name" v="Fyllinga båthavn" />
		<tag k="landuse" v="harbour" />
		<tag k="name" v="Fyllinga" />
		<tag k="seamark:type" v="harbour" />
		<tag k="ssr:stedsnr" v="392829" />
	</node>
	<node lat="59.41404999941273" lon="10.488388890180193" id="-20833">
=======
	<node id="-406720" lat="59.4135833337" lon="10.4939999983">
>>>>>>> e1d4bc35ff8a6074a6f2e91616a996b547c36f15
		<tag k="man_made" v="quay" />
		<tag k="name" v="Tollbubrygga" />
		<tag k="place" v="locality" />
		<tag k="ssr:stedsnr" v="405659" />
	</node>
<<<<<<< HEAD
	<node lat="59.420358335935816" lon="10.3871694382154" id="-20844">
=======
	<node id="-406719" lat="59.4203583359" lon="10.3871694382">
>>>>>>> e1d4bc35ff8a6074a6f2e91616a996b547c36f15
		<tag k="junction" v="yes" />
		<tag k="name" v="Ekeberg" />
		<tag k="place" v="locality" />
		<tag k="ssr:stedsnr" v="510847" />
	</node>
<<<<<<< HEAD
	<node lat="59.41358333366136" lon="10.493999998266778" id="-20850">
=======
	<node id="-406711" lat="59.4140499994" lon="10.4883888902">
>>>>>>> e1d4bc35ff8a6074a6f2e91616a996b547c36f15
		<tag k="man_made" v="quay" />
		<tag k="name" v="Dypvannskaia" />
		<tag k="place" v="locality" />
		<tag k="ssr:stedsnr" v="512178" />
	</node>
<<<<<<< HEAD
	<node lat="59.37780278210774" lon="10.4687277791829" id="-20858">
=======
	<node id="-407026" lat="59.3778027821" lon="10.4687277792">
		<tag k="man_made" v="quay" />
		<tag k="name" v="Steinbrygga" />
		<tag k="place" v="locality" />
		<tag k="ssr:stedsnr" v="570791" />
	</node>
	<node id="-407081" lat="59.3636694445" lon="10.4656861078">
		<tag k="alt_name" v="Fjugestadbrygga;Fjukstadbrygga" />
>>>>>>> e1d4bc35ff8a6074a6f2e91616a996b547c36f15
		<tag k="man_made" v="quay" />
		<tag k="name" v="Steinbrygga" />
		<tag k="place" v="locality" />
		<tag k="ssr:stedsnr" v="570791" />
	</node>
<<<<<<< HEAD
	<node lat="59.391113887682934" lon="10.411077771901498" id="-20863">
		<tag k="name" v="Skoppum stasjon" />
		<tag k="railway" v="station" />
		<tag k="ssr:stedsnr" v="571822" />
		<tag k="train" v="yes" />
	</node>
	<node lat="59.42311388953991" lon="10.365025005910523" id="-20865">
		<tag k="junction" v="yes" />
		<tag k="name" v="Kopstad" />
		<tag k="place" v="locality" />
		<tag k="ssr:stedsnr" v="573823" />
	</node>
	<node lat="59.42494444300133" lon="10.381738887413258" id="-20874">
		<tag k="alt_name" v="Nykirke st." />
		<tag k="name" v="Nykirke" />
		<tag k="railway" v="station" />
		<tag k="ssr:stedsnr" v="608994" />
		<tag k="train" v="yes" />
	</node>
	<node lat="59.40790833409287" lon="10.476047221043046" id="-20898">
		<tag k="bridge" v="yes" />
		<tag k="layer" v="1" />
		<tag k="name" v="Granly" />
		<tag k="ssr:stedsnr" v="714567" />
	</node>
	<node lat="59.385080558835334" lon="10.465116659038713" id="-20899">
		<tag k="bridge" v="yes" />
		<tag k="layer" v="1" />
		<tag k="name" v="Borre elementkulvert" />
		<tag k="ssr:stedsnr" v="714571" />
	</node>
	<node lat="59.42563333474214" lon="10.46816945125654" id="-20913">
=======
	<node id="-407079" lat="59.42288056" lon="10.4506916638">
		<tag k="highway" v="path" />
		<tag k="name" v="Kongstien" />
		<tag k="ssr:stedsnr" v="815883" />
	</node>
	<node id="-406690" lat="59.4117916694" lon="10.4889083247">
		<tag k="amenity" v="ferry_terminal" />
		<tag k="name" v="Horten ferjekai" />
		<tag k="ssr:stedsnr" v="303705" />
	</node>
	<node id="-406640" lat="59.3839638895" lon="10.416555558">
		<tag k="bridge" v="yes" />
		<tag k="layer" v="1" />
		<tag k="name" v="Tokerud" />
		<tag k="ssr:stedsnr" v="228683" />
	</node>
	<node id="-406684" lat="59.4188750038" lon="10.4934638965">
		<tag k="name" v="Kanalen" />
		<tag k="ssr:stedsnr" v="451197" />
		<tag k="waterway" v="canal" />
	</node>
	<node id="-406811" lat="59.4256333347" lon="10.4681694513">
>>>>>>> e1d4bc35ff8a6074a6f2e91616a996b547c36f15
		<tag k="man_made" v="quay" />
		<tag k="name" v="Korenbrygga" />
		<tag k="place" v="locality" />
		<tag k="ssr:stedsnr" v="784726" />
	</node>
<<<<<<< HEAD
	<node lat="59.363669444514834" lon="10.465686107761943" id="-20922">
		<tag k="alt_name" v="Fjugestadbrygga;Fjukstadbrygga" />
=======
	<node id="-406810" lat="59.4263833322" lon="10.4677972181">
>>>>>>> e1d4bc35ff8a6074a6f2e91616a996b547c36f15
		<tag k="man_made" v="quay" />
		<tag k="name" v="Fjugstadbrygga" />
		<tag k="place" v="locality" />
		<tag k="ssr:stedsnr" v="817134" />
	</node>
<<<<<<< HEAD
	<node lat="59.41279358504112" lon="10.488353967262938" id="-20966">
		<tag k="man_made" v="quay" />
		<tag k="name" v="Hortensbrygga" />
		<tag k="place" v="locality" />
		<tag k="ssr:stedsnr" v="986105" />
	</node>
	<node lat="59.41614779849886" lon="10.496927540079845" id="-20970">
=======
	<node id="-406677" lat="59.3779796053" lon="10.4702854387">
		<tag k="landuse" v="harbour" />
		<tag k="name" v="Steinbrygga" />
		<tag k="seamark:type" v="harbour" />
		<tag k="ssr:stedsnr" v="210812" />
	</node>
	<node id="-407060" lat="59.4337916708" lon="10.4283083294">
		<tag k="bridge" v="yes" />
		<tag k="layer" v="1" />
		<tag k="name" v="Falkensten" />
		<tag k="ssr:stedsnr" v="653620" />
	</node>
	<node id="-406673" lat="59.4017305542" lon="10.485358337">
>>>>>>> e1d4bc35ff8a6074a6f2e91616a996b547c36f15
		<tag k="landuse" v="harbour" />
		<tag k="name" v="Kanalhavna" />
		<tag k="seamark:type" v="harbour" />
<<<<<<< HEAD
		<tag k="ssr:stedsnr" v="986087" />
	</node>
	<node lat="58.9440068916853" lon="9.637917728815127" id="-20976">
		<tag k="name" v="Tonerhavn" />
		<tag k="place" v="locality" />
		<tag k="ssr:stedsnr" v="1074516" />
=======
		<tag k="ssr:stedsnr" v="210128" />
	</node>
	<node id="-406797" lat="59.3850805588" lon="10.465116659">
		<tag k="bridge" v="yes" />
		<tag k="layer" v="1" />
		<tag k="name" v="Borre elementkulvert" />
		<tag k="ssr:stedsnr" v="714571" />
	</node>
	<node id="-406796" lat="59.4079083341" lon="10.476047221">
		<tag k="bridge" v="yes" />
		<tag k="layer" v="1" />
		<tag k="name" v="Granly" />
		<tag k="ssr:stedsnr" v="714567" />
>>>>>>> e1d4bc35ff8a6074a6f2e91616a996b547c36f15
	</node>
	<node id="-406668" lat="59.4135388872" lon="10.4876805555">
		<tag k="man_made" v="quay" />
		<tag k="name" v="Hydrofoilbrygga" />
		<tag k="place" v="locality" />
		<tag k="ssr:stedsnr" v="162662" />
	</node>
	<node id="-407042" lat="59.4416888914" lon="10.4332444381">
		<tag k="bridge" v="yes" />
		<tag k="layer" v="1" />
		<tag k="name" v="Falkensten øst" />
		<tag k="ssr:stedsnr" v="592655" />
	</node>
</osm>
