<?xml version="1.0" encoding="UTF-8"?>
<osm generator="osmapis" version="0.6">
	<node id="-346624" lat="59.3782777811" lon="10.5140555507">
		<tag k="name" v="Sandrevodden" />
		<tag k="natural" v="cape" />
		<tag k="ssr:stedsnr" v="271118" />
	</node>
	<node id="-346623" lat="59.3603111118" lon="10.4658055499">
		<tag k="name" v="Jutestrand" />
		<tag k="natural" v="beach" />
		<tag k="place" v="locality" />
		<tag k="ssr:stedsnr" v="267811" />
	</node>
	<node id="-346614" lat="59.3541722206" lon="10.4961972298">
		<tag k="name" v="Banken" />
		<tag k="natural" v="shoal" />
		<tag k="place" v="locality" />
		<tag k="ssr:stedsnr" v="210809" />
	</node>
	<node id="-346612" lat="59.4352249999" lon="10.4610027764">
		<tag k="alt_name" v="Bueskjæret" />
		<tag k="fixme" v="consider seamark:type=rock or natural=shoal" />
		<tag k="name" v="Kruttskjær" />
		<tag k="place" v="islet" />
		<tag k="ssr:stedsnr" v="210133" />
	</node>
	<node id="-346607" lat="59.438949997" lon="10.4547277749">
		<tag k="fixme" v="consider seamark:type=rock or natural=shoal" />
		<tag k="name" v="Rumpa" />
		<tag k="place" v="islet" />
		<tag k="ssr:stedsnr" v="283674" />
	</node>
	<node id="-346603" lat="59.4007388859" lon="10.4827722245">
		<tag k="name" v="Steinsnes" />
		<tag k="natural" v="cape" />
		<tag k="ssr:stedsnr" v="146809" />
	</node>
	<node id="-346601" lat="59.4232166682" lon="10.5200833382">
		<tag k="name" v="Slåfeil" />
		<tag k="natural" v="shoal" />
		<tag k="place" v="locality" />
		<tag k="ssr:stedsnr" v="271133" />
	</node>
	<node id="-346590" lat="59.4460027782" lon="10.3824555633">
		<tag k="name" v="Frebergsvik" />
		<tag k="natural" v="bay" />
		<tag k="ssr:stedsnr" v="245944" />
	</node>
	<node id="-346589" lat="59.4433388899" lon="10.4908583384">
		<tag k="name" v="Vealøs" />
		<tag k="place" v="island" />
		<tag k="ssr:stedsnr" v="245940" />
	</node>
	<node id="-346584" lat="59.402841461" lon="10.5035228172">
		<tag k="alt_name" v="Langgrunnen" />
		<tag k="name" v="Langgrunna" />
		<tag k="natural" v="shoal" />
		<tag k="place" v="locality" />
		<tag k="ssr:stedsnr" v="245494" />
	</node>
	<node id="-346581" lat="59.4376444422" lon="10.4553916702">
		<tag k="alt_name" v="Reverompa" />
		<tag k="name" v="Reverumpa" />
		<tag k="natural" v="cape" />
		<tag k="ssr:stedsnr" v="63933" />
	</node>
	<node id="-346579" lat="59.3799638879" lon="10.4735166637">
		<tag k="name" v="Klokkertangen" />
		<tag k="natural" v="cape" />
		<tag k="ssr:stedsnr" v="237435" />
	</node>
	<node id="-346577" lat="59.390513889" lon="10.5396416728">
		<tag k="alt_name" v="Løkkeberget" />
		<tag k="name" v="Løkeberggrunnen" />
		<tag k="natural" v="shoal" />
		<tag k="place" v="locality" />
		<tag k="ssr:stedsnr" v="28912" />
	</node>
	<node id="-347052" lat="58.8808669241" lon="9.40503401313">
		<tag k="name" v="Kalstadkilen" />
		<tag k="natural" v="bay" />
		<tag k="ssr:stedsnr" v="1074475" />
	</node>
	<node id="-347020" lat="59.4273666681" lon="10.4666166637">
		<tag k="name" v="Apenes" />
		<tag k="natural" v="cape" />
		<tag k="ssr:stedsnr" v="817139" />
	</node>
	<node id="-347008" lat="59.4117499994" lon="10.5064972141">
		<tag k="name" v="Tangegrunnen" />
		<tag k="natural" v="shoal" />
		<tag k="place" v="locality" />
		<tag k="ssr:stedsnr" v="756805" />
	</node>
	<node id="-347006" lat="59.3727694436" lon="10.5398416713">
		<tag k="fixme" v="consider seamark:type=rock or natural=shoal" />
		<tag k="name" v="Kjempa" />
		<tag k="place" v="islet" />
		<tag k="ssr:stedsnr" v="756097" />
	</node>
	<node id="-347005" lat="59.4327444441" lon="10.4562750081">
		<tag k="alt_name" v="Bakkebukta" />
		<tag k="name" v="Tordenskjoldbukta" />
		<tag k="natural" v="bay" />
		<tag k="ssr:stedsnr" v="755888" />
	</node>
	<node id="-347001" lat="59.3808805588" lon="10.473777779">
		<tag k="name" v="Prestegårdstranda" />
		<tag k="natural" v="beach" />
		<tag k="place" v="locality" />
		<tag k="ssr:stedsnr" v="753824" />
	</node>
	<node id="-346997" lat="59.4406694432" lon="10.4567250084">
		<tag k="fixme" v="consider seamark:type=rock or natural=shoal" />
		<tag k="name" v="Kuskjæret" />
		<tag k="place" v="islet" />
		<tag k="ssr:stedsnr" v="647699" />
	</node>
	<node id="-346996" lat="59.4488944424" lon="10.4762166654">
		<tag k="name" v="Ersvika" />
		<tag k="natural" v="bay" />
		<tag k="ssr:stedsnr" v="647695" />
	</node>
	<node id="-346995" lat="59.4423750036" lon="10.4682083253">
		<tag k="name" v="St. Helena" />
		<tag k="place" v="islet" />
		<tag k="ssr:stedsnr" v="647693" />
	</node>
	<node id="-346994" lat="59.4422194406" lon="10.4522583396">
		<tag k="fixme" v="consider seamark:type=rock or natural=shoal" />
		<tag k="name" v="Lillelort" />
		<tag k="place" v="islet" />
		<tag k="ssr:stedsnr" v="647679" />
	</node>
	<node id="-346993" lat="59.3702138847" lon="10.4612000037">
		<tag k="name" v="Vestmannrødstranda" />
		<tag k="natural" v="beach" />
		<tag k="place" v="locality" />
		<tag k="ssr:stedsnr" v="634839" />
	</node>
	<node id="-346992" lat="59.4485444458" lon="10.431424995">
		<tag k="name" v="Paradisbukta" />
		<tag k="natural" v="bay" />
		<tag k="ssr:stedsnr" v="634359" />
	</node>
	<node id="-346990" lat="59.4466444445" lon="10.3931861128">
		<tag k="name" v="Katten" />
		<tag k="natural" v="cape" />
		<tag k="ssr:stedsnr" v="634083" />
	</node>
	<node id="-346989" lat="59.3478138872" lon="10.4729611144">
		<tag k="name" v="Åsgårdstrand badeplass" />
		<tag k="natural" v="beach" />
		<tag k="place" v="locality" />
		<tag k="ssr:stedsnr" v="631840" />
	</node>
	<node id="-346979" lat="59.3606694459" lon="10.509888896">
		<tag k="fixme" v="consider seamark:type=rock or natural=shoal" />
		<tag k="name" v="Østenskjær" />
		<tag k="place" v="islet" />
		<tag k="ssr:stedsnr" v="583037" />
	</node>
	<node id="-346974" lat="59.4447666696" lon="10.4662777726">
		<tag k="name" v="Strømsundet" />
		<tag k="natural" v="strait" />
		<tag k="ssr:stedsnr" v="574118" />
	</node>
	<node id="-346971" lat="59.366511109" lon="10.5354749951">
		<tag k="name" v="Sydspissen" />
		<tag k="natural" v="cape" />
		<tag k="ssr:stedsnr" v="572209" />
	</node>
	<node id="-346967" lat="59.4522500003" lon="10.4450499927">
		<tag k="loc_name" v="Veggsletta" />
		<tag k="name" v="Veggesletta" />
		<tag k="natural" v="cape" />
		<tag k="ssr:stedsnr" v="570827" />
	</node>
	<node id="-346951" lat="59.4336583346" lon="10.495825002">
		<tag k="alt_name" v="Møringa" />
		<tag k="name" v="Møringen" />
		<tag k="natural" v="cape" />
		<tag k="ssr:stedsnr" v="427932" />
	</node>
	<node id="-346949" lat="59.3632055551" lon="10.5135222206">
		<tag k="fixme" v="consider seamark:type=rock or natural=shoal" />
		<tag k="name" v="Rødskjær" />
		<tag k="place" v="islet" />
		<tag k="ssr:stedsnr" v="427586" />
	</node>
	<node id="-346936" lat="59.4271166664" lon="10.5215277838">
		<tag k="name" v="Furugrunnen" />
		<tag k="natural" v="shoal" />
		<tag k="place" v="locality" />
		<tag k="ssr:stedsnr" v="392129" />
	</node>
	<node id="-346935" lat="59.4507166681" lon="10.4863416657">
		<tag k="name" v="Østøybåen" />
		<tag k="place" v="locality" />
		<tag k="seamark:type" v="rock" />
		<tag k="ssr:stedsnr" v="392121" />
	</node>
	<node id="-346926" lat="59.3876638906" lon="10.5240666633">
		<tag k="name" v="Bastøybukta" />
		<tag k="natural" v="bay" />
		<tag k="ssr:stedsnr" v="366553" />
	</node>
	<node id="-346923" lat="59.2149722232" lon="10.6363416708">
		<tag k="bay" v="fjord" />
		<tag k="name" v="Oslofjorden" />
		<tag k="natural" v="bay" />
		<tag k="ssr:stedsnr" v="365030" />
	</node>
	<node id="-346919" lat="59.4407444428" lon="10.4491083345">
		<tag k="fixme" v="consider seamark:type=rock or natural=shoal" />
		<tag k="name" v="Hagaskjæret" />
		<tag k="place" v="islet" />
		<tag k="ssr:stedsnr" v="344676" />
	</node>
	<node id="-346917" lat="59.3891611104" lon="10.4950722273">
		<tag k="name" v="Bastøyrenna" />
		<tag k="place" v="locality" />
		<tag k="ssr:stedsnr" v="331996" />
	</node>
	<node id="-346916" lat="59.453522226" lon="10.4873805552">
		<tag k="name" v="Palten" />
		<tag k="natural" v="shoal" />
		<tag k="place" v="locality" />
		<tag k="ssr:stedsnr" v="331800" />
	</node>
	<node id="-346913" lat="59.3952833308" lon="10.5106750019">
		<tag k="name" v="Kalvekrakken" />
		<tag k="natural" v="shoal" />
		<tag k="place" v="locality" />
		<tag k="ssr:stedsnr" v="331092" />
	</node>
	<node id="-346900" lat="59.4461499964" lon="10.4089805475">
		<tag k="name" v="Rødskjærbukta" />
		<tag k="natural" v="bay" />
		<tag k="ssr:stedsnr" v="210349" />
	</node>
	<node id="-346887" lat="59.3713111096" lon="10.5314472173">
		<tag k="name" v="Bastøy" />
		<tag k="place" v="island" />
		<tag k="ssr:stedsnr" v="184574" />
	</node>
	<node id="-346882" lat="59.4461166707" lon="10.4121249966">
		<tag k="alt_name" v="Selskjær" />
		<tag k="fixme" v="consider seamark:type=rock or natural=shoal" />
		<tag k="name" v="Selskjæra" />
		<tag k="place" v="islet" />
		<tag k="ssr:stedsnr" v="149800" />
	</node>
	<node id="-346881" lat="59.3514361153" lon="10.4869055534">
		<tag k="name" v="Kallegrunnen" />
		<tag k="natural" v="shoal" />
		<tag k="place" v="locality" />
		<tag k="ssr:stedsnr" v="149798" />
	</node>
	<node id="-346880" lat="59.3983027805" lon="10.5085305589">
		<tag k="name" v="Geiteryggen" />
		<tag k="place" v="locality" />
		<tag k="ssr:stedsnr" v="149796" />
	</node>
	<node id="-346879" lat="59.3697583337" lon="10.5181416663">
		<tag k="name" v="Sandrevet" />
		<tag k="place" v="locality" />
		<tag k="ssr:stedsnr" v="149098" />
	</node>
	<node id="-346878" lat="59.4047444408" lon="10.5109194521">
		<tag k="name" v="Holmekrakken" />
		<tag k="natural" v="shoal" />
		<tag k="place" v="locality" />
		<tag k="ssr:stedsnr" v="149092" />
	</node>
	<node id="-346877" lat="59.4317833333" lon="10.5105277762">
		<tag k="name" v="Møringgrunnen" />
		<tag k="natural" v="shoal" />
		<tag k="place" v="locality" />
		<tag k="ssr:stedsnr" v="149091" />
	</node>
	<node id="-346873" lat="59.3892583348" lon="10.4786027768">
		<tag k="name" v="Voldestranda" />
		<tag k="natural" v="beach" />
		<tag k="place" v="locality" />
		<tag k="ssr:stedsnr" v="146827" />
	</node>
	<node id="-346872" lat="59.4383083375" lon="10.3891500048">
		<tag k="name" v="Frebergsvik" />
		<tag k="natural" v="beach" />
		<tag k="place" v="locality" />
		<tag k="ssr:stedsnr" v="146843" />
	</node>
	<node id="-346864" lat="59.4435444482" lon="10.4263527822">
		<tag k="name" v="Falkenstenbukta" />
		<tag k="natural" v="bay" />
		<tag k="ssr:stedsnr" v="123955" />
	</node>
	<node id="-346848" lat="59.4543000027" lon="10.4435194425">
		<tag k="name" v="Steingaren" />
		<tag k="place" v="locality" />
		<tag k="ssr:stedsnr" v="86840" />
	</node>
	<node id="-346845" lat="59.421958337" lon="10.5135833324">
		<tag k="name" v="Hortenskrakken" />
		<tag k="natural" v="shoal" />
		<tag k="place" v="locality" />
		<tag k="ssr:stedsnr" v="63991" />
	</node>
	<node id="-346843" lat="59.4469555576" lon="10.4373111035">
		<tag k="name" v="Drasund" />
		<tag k="natural" v="strait" />
		<tag k="ssr:stedsnr" v="63959" />
	</node>
	<node id="-346842" lat="59.451363888" lon="10.4381666655">
		<tag k="name" v="Kjerkebukta" />
		<tag k="natural" v="bay" />
		<tag k="ssr:stedsnr" v="63958" />
	</node>
	<node id="-346840" lat="59.3864166656" lon="10.4749499929">
		<tag k="name" v="Birkely" />
		<tag k="natural" v="beach" />
		<tag k="place" v="locality" />
		<tag k="ssr:stedsnr" v="63552" />
	</node>
	<node id="-346839" lat="59.3882944409" lon="10.5037416593">
		<tag k="alt_name" v="Bastøyboen" />
		<tag k="name" v="Bastøybåen" />
		<tag k="natural" v="shoal" />
		<tag k="place" v="locality" />
		<tag k="ssr:stedsnr" v="63550" />
	</node>
	<node id="-346836" lat="59.4272555581" lon="10.4659472171">
		<tag k="name" v="Sølvkronen" />
		<tag k="natural" v="cape" />
		<tag k="ssr:stedsnr" v="56742" />
	</node>
	<node id="-346828" lat="59.4451222207" lon="10.4560499974">
		<tag k="alt_name" v="Løvøysundet" />
		<tag k="name" v="Løvøysund" />
		<tag k="natural" v="strait" />
		<tag k="ssr:stedsnr" v="28831" />
	</node>
	<node id="-346827" lat="59.3692777747" lon="10.5047277846">
		<tag k="name" v="Steinbåen" />
		<tag k="place" v="locality" />
		<tag k="seamark:type" v="rock" />
		<tag k="ssr:stedsnr" v="28824" />
	</node>
	<node id="-346825" lat="59.3693833372" lon="10.4660694494">
		<tag k="name" v="Geita" />
		<tag k="place" v="locality" />
		<tag k="ssr:stedsnr" v="28134" />
	</node>
	<node id="-346824" lat="59.3626083326" lon="10.542305551">
		<tag k="name" v="Bastøygrunnen" />
		<tag k="natural" v="shoal" />
		<tag k="place" v="locality" />
		<tag k="ssr:stedsnr" v="28115" />
	</node>
	<node id="-346822" lat="59.3722805585" lon="10.5387999961">
		<tag k="name" v="Bastøykongen" />
		<tag k="natural" v="beach" />
		<tag k="place" v="locality" />
		<tag k="ssr:stedsnr" v="27150" />
	</node>
	<node id="-346821" lat="59.444333331" lon="10.4487250053">
		<tag k="fixme" v="consider seamark:type=rock or natural=shoal" />
		<tag k="name" v="Lort" />
		<tag k="place" v="islet" />
		<tag k="ssr:stedsnr" v="25851" />
	</node>
	<node id="-346813" lat="59.4509833367" lon="10.4339638888">
		<tag k="name" v="Stormodden" />
		<tag k="natural" v="cape" />
		<tag k="ssr:stedsnr" v="2957" />
	</node>
	<node id="-346812" lat="59.4498638917" lon="10.4061249998">
		<tag k="name" v="Varnestangen" />
		<tag k="natural" v="cape" />
		<tag k="ssr:stedsnr" v="2955" />
	</node>
	<node id="-346811" lat="59.4494333304" lon="10.4461972199">
		<tag k="name" v="Løvøya" />
		<tag k="place" v="island" />
		<tag k="ssr:stedsnr" v="2949" />
	</node>
	<node id="-346806" lat="59.3903916665" lon="10.5182027837">
		<tag k="alt_name" v="Kalven" />
		<tag k="name" v="Bastøykalven" />
		<tag k="natural" v="cape" />
		<tag k="ssr:stedsnr" v="2551" />
	</node>
	<node id="-346802" lat="59.4507686999" lon="10.4820456741">
		<tag k="name" v="Østøyodden" />
		<tag k="natural" v="cape" />
		<tag k="ssr:stedsnr" v="986144" />
	</node>
	<node id="-346780" lat="59.3668749982" lon="10.533886111">
		<tag k="name" v="Bastøyodden" />
		<tag k="natural" v="cape" />
		<tag k="ssr:stedsnr" v="948060" />
	</node>
	<node id="-346774" lat="59.3866194453" lon="10.5119944494">
		<tag k="name" v="Kalverenna" />
		<tag k="place" v="locality" />
		<tag k="ssr:stedsnr" v="905526" />
	</node>
	<node id="-346773" lat="59.373977782" lon="10.467041668">
		<tag k="fixme" v="consider seamark:type=rock or natural=shoal" />
		<tag k="name" v="Dover" />
		<tag k="place" v="islet" />
		<tag k="ssr:stedsnr" v="877099" />
	</node>
	<node id="-346764" lat="59.4441666638" lon="10.4845138874">
		<tag k="name" v="Vealøsrenna" />
		<tag k="natural" v="strait" />
		<tag k="ssr:stedsnr" v="938097" />
	</node>
	<node id="-346757" lat="59.4586500013" lon="10.4488694399">
		<tag k="name" v="Gartegrunnen" />
		<tag k="natural" v="shoal" />
		<tag k="place" v="locality" />
		<tag k="ssr:stedsnr" v="817122" />
	</node>
	<node id="-346756" lat="59.3586361147" lon="10.5174444385">
		<tag k="name" v="Skjærgrunnen" />
		<tag k="natural" v="shoal" />
		<tag k="place" v="locality" />
		<tag k="ssr:stedsnr" v="817116" />
	</node>
	<node id="-346755" lat="59.3559611132" lon="10.4915555553">
		<tag k="name" v="Peisen" />
		<tag k="natural" v="shoal" />
		<tag k="place" v="locality" />
		<tag k="ssr:stedsnr" v="817114" />
	</node>
	<node id="-346754" lat="59.4557055527" lon="10.4915416597">
		<tag k="name" v="Nøttekrakken" />
		<tag k="natural" v="shoal" />
		<tag k="place" v="locality" />
		<tag k="ssr:stedsnr" v="817106" />
	</node>
	<node id="-346750" lat="59.4472277749" lon="10.4306027697">
		<tag k="name" v="Holmen" />
		<tag k="natural" v="cape" />
		<tag k="ssr:stedsnr" v="786970" />
	</node>
	<node id="-346747" lat="59.4399833333" lon="10.4555472228">
		<tag k="fixme" v="consider seamark:type=rock or natural=shoal" />
		<tag k="name" v="Svartskjæret" />
		<tag k="place" v="islet" />
		<tag k="ssr:stedsnr" v="769688" />
	</node>
	<node id="-346741" lat="59.4254972189" lon="10.4862055524">
		<tag k="alt_name" v="Indre havn" />
		<tag k="name" v="Indrehavn" />
		<tag k="natural" v="bay" />
		<tag k="ssr:stedsnr" v="912986" />
	</node>
	<node id="-346740" lat="59.4514138883" lon="10.4485888934">
		<tag k="name" v="Veggbukta" />
		<tag k="natural" v="bay" />
		<tag k="ssr:stedsnr" v="912958" />
	</node>
	<node id="-346737" lat="59.450975002" lon="10.4897999943">
		<tag k="name" v="Hårfagrebåen" />
		<tag k="natural" v="shoal" />
		<tag k="place" v="locality" />
		<tag k="ssr:stedsnr" v="730961" />
	</node>
	<node id="-346736" lat="59.4386583293" lon="10.4917444458">
		<tag k="name" v="Kosterenna" />
		<tag k="natural" v="strait" />
		<tag k="ssr:stedsnr" v="725972" />
	</node>
	<node id="-346728" lat="59.4497166638" lon="10.4043888894">
		<tag k="name" v="Singelbukta" />
		<tag k="natural" v="bay" />
		<tag k="ssr:stedsnr" v="878449" />
	</node>
	<node id="-346727" lat="59.4532388932" lon="10.3859833375">
		<tag k="name" v="Frebergskrakken" />
		<tag k="natural" v="shoal" />
		<tag k="place" v="locality" />
		<tag k="ssr:stedsnr" v="878105" />
	</node>
	<node id="-346723" lat="59.4053583329" lon="10.5286305527">
		<tag k="name" v="Djupgrunnen" />
		<tag k="natural" v="shoal" />
		<tag k="place" v="locality" />
		<tag k="ssr:stedsnr" v="906756" />
	</node>
	<node id="-346720" lat="59.4060250039" lon="10.4840555549">
		<tag k="name" v="Sollistrand" />
		<tag k="natural" v="beach" />
		<tag k="place" v="locality" />
		<tag k="ssr:stedsnr" v="730533" />
	</node>
	<node id="-346714" lat="59.3615555576" lon="10.4695638868">
		<tag k="name" v="Steinbryggbukta" />
		<tag k="natural" v="bay" />
		<tag k="ssr:stedsnr" v="634103" />
	</node>
	<node id="-346705" lat="59.443869447" lon="10.4617416713">
		<tag k="name" v="Mellomøya" />
		<tag k="place" v="island" />
		<tag k="ssr:stedsnr" v="608961" />
	</node>
	<node id="-346701" lat="59.4389361091" lon="10.4576361075">
		<tag k="fixme" v="consider seamark:type=rock or natural=shoal" />
		<tag k="name" v="Julaften" />
		<tag k="place" v="islet" />
		<tag k="ssr:stedsnr" v="708684" />
	</node>
	<node id="-346691" lat="59.4261694452" lon="10.4758666621">
		<tag k="name" v="Sælavika" />
		<tag k="natural" v="bay" />
		<tag k="ssr:stedsnr" v="695131" />
	</node>
	<node id="-346690" lat="59.3900111143" lon="10.4770444451">
		<tag k="name" v="Vollestranda" />
		<tag k="natural" v="beach" />
		<tag k="place" v="locality" />
		<tag k="ssr:stedsnr" v="695126" />
	</node>
	<node id="-346689" lat="59.4452944442" lon="10.4921000044">
		<tag k="name" v="Måkerumpa" />
		<tag k="natural" v="shoal" />
		<tag k="place" v="locality" />
		<tag k="ssr:stedsnr" v="695096" />
	</node>
	<node id="-346672" lat="59.445538893" lon="10.4912333326">
		<tag k="name" v="Vealøsflaket" />
		<tag k="natural" v="shoal" />
		<tag k="place" v="locality" />
		<tag k="ssr:stedsnr" v="669952" />
	</node>
	<node id="-346667" lat="59.4065833319" lon="10.4855777833">
		<tag k="name" v="Linda" />
		<tag k="natural" v="cape" />
		<tag k="ssr:stedsnr" v="465621" />
	</node>
	<node id="-346664" lat="59.4109277765" lon="10.5231194484">
		<tag k="name" v="Utgrunnen" />
		<tag k="natural" v="shoal" />
		<tag k="place" v="locality" />
		<tag k="ssr:stedsnr" v="453137" />
	</node>
	<node id="-346663" lat="59.3703861084" lon="10.5261250069">
		<tag k="name" v="Buvika" />
		<tag k="natural" v="bay" />
		<tag k="ssr:stedsnr" v="453131" />
	</node>
	<node id="-346662" lat="59.399213887" lon="10.5128000007">
		<tag k="name" v="Halvorskrakken" />
		<tag k="natural" v="shoal" />
		<tag k="place" v="locality" />
		<tag k="ssr:stedsnr" v="453127" />
	</node>
	<node id="-346652" lat="59.3951833354" lon="10.4781861157">
		<tag k="name" v="Eikestrand" />
		<tag k="natural" v="beach" />
		<tag k="place" v="locality" />
		<tag k="ssr:stedsnr" v="510865" />
	</node>
	<node id="-346648" lat="59.431336115" lon="10.4960055576">
		<tag k="name" v="Møringbukta" />
		<tag k="natural" v="bay" />
		<tag k="ssr:stedsnr" v="392108" />
	</node>
	<node id="-346647" lat="59.4290666671" lon="10.4605749976">
		<tag k="alt_name" v="Solvika" />
		<tag k="name" v="Selviken" />
		<tag k="natural" v="bay" />
		<tag k="ssr:stedsnr" v="390856" />
	</node>
	<node id="-346645" lat="59.3839555536" lon="10.4779499919">
		<tag k="name" v="Eydestranda" />
		<tag k="natural" v="beach" />
		<tag k="place" v="locality" />
		<tag k="ssr:stedsnr" v="359469" />
	</node>
	<node id="-346643" lat="59.398419442" lon="10.4799527769">
		<tag k="name" v="Rørestrand" />
		<tag k="natural" v="beach" />
		<tag k="place" v="locality" />
		<tag k="ssr:stedsnr" v="488487" />
	</node>
	<node id="-346637" lat="59.4459916685" lon="10.4758916731">
		<tag k="name" v="Østøya" />
		<tag k="place" v="island" />
		<tag k="ssr:stedsnr" v="487948" />
	</node>
	<node id="-346627" lat="59.4395388897" lon="10.4743805612">
		<tag k="fixme" v="consider seamark:type=rock or natural=shoal" />
		<tag k="name" v="Stuterenskjæret" />
		<tag k="place" v="islet" />
		<tag k="ssr:stedsnr" v="465684" />
	</node>
	<node id="-346626" lat="59.4411611151" lon="10.4538527765">
		<tag k="fixme" v="consider seamark:type=rock or natural=shoal" />
		<tag k="name" v="Rognskjæret" />
		<tag k="place" v="islet" />
		<tag k="ssr:stedsnr" v="465663" />
	</node>
	<node id="-346625" lat="59.4399833328" lon="10.4974694443">
		<tag k="fixme" v="consider seamark:type=rock or natural=shoal" />
		<tag k="name" v="Revet" />
		<tag k="place" v="islet" />
		<tag k="ssr:stedsnr" v="271119" />
	</node>
</osm>
