<?xml version="1.0" encoding="UTF-8"?>
<<<<<<< HEAD
<osm version="0.6" generator="osmapis">
	<node lat="59.41938888923416" lon="10.44126667133934" id="-20507">
		<tag k="fixme" v="consider place=hamlet" />
		<tag k="name" v="Knutsrød" />
		<tag k="place" v="farm" />
		<tag k="ssr:stedsnr" v="2975" />
	</node>
	<node lat="59.419416666661476" lon="10.397313880583692" id="-20508">
		<tag k="name" v="Grette" />
		<tag k="place" v="farm" />
		<tag k="ssr:stedsnr" v="2980" />
	</node>
	<node lat="59.431588891982784" lon="10.491630564130922" id="-20509">
		<tag k="landuse" v="military" />
		<tag k="name" v="Karljohansvern" />
		<tag k="ssr:stedsnr" v="2984" />
	</node>
	<node lat="59.369186109139754" lon="10.443155556314403" id="-20510">
		<tag k="amenity" v="school" />
		<tag k="name" v="Bakkenteigen" />
		<tag k="ssr:stedsnr" v="21052" />
	</node>
	<node lat="59.36009166732779" lon="10.426197219437901" id="-20511">
		<tag k="fixme" v="consider place=hamlet" />
		<tag k="name" v="Dal" />
		<tag k="place" v="farm" />
		<tag k="ssr:stedsnr" v="28406" />
	</node>
	<node lat="59.37512222005353" lon="10.388574993844031" id="-20512">
		<tag k="name" v="Råen" />
		<tag k="place" v="farm" />
		<tag k="ssr:stedsnr" v="28409" />
	</node>
	<node lat="59.4425861107591" lon="10.43285833827666" id="-20513">
		<tag k="fixme" v="consider place=suburb, village or hamlet" />
		<tag k="name" v="Falkensten" />
		<tag k="place" v="quarter" />
		<tag k="ssr:stedsnr" v="41827" />
	</node>
	<node lat="59.3536722186497" lon="10.437558327985165" id="-20516">
		<tag k="amenity" v="school" />
		<tag k="name" v="Ra skole" />
		<tag k="ssr:stedsnr" v="86811" />
	</node>
	<node lat="59.40372500233868" lon="10.404838895651972" id="-20517">
		<tag k="alt_name" v="Solberg vestre" />
		<tag k="name" v="Solberg" />
		<tag k="place" v="farm" />
		<tag k="ssr:stedsnr" v="245487" />
	</node>
	<node lat="59.388863891556795" lon="10.38531388757271" id="-20519">
		<tag k="name" v="Kongelv" />
=======
<osm generator="osmapis" version="0.6">
	<node id="-407040" lat="59.4308861148" lon="10.3799861129">
		<tag k="fixme" v="consider place=hamlet" />
		<tag k="name" v="Nøklegård øvre" />
		<tag k="place" v="farm" />
		<tag k="ssr:stedsnr" v="580572" />
	</node>
	<node id="-407039" lat="59.4359694441" lon="10.380230557">
		<tag k="name" v="Tveitan" />
		<tag k="place" v="farm" />
		<tag k="ssr:stedsnr" v="580565" />
	</node>
	<node id="-407031" lat="59.3847916661" lon="10.4179361065">
		<tag k="name" v="Sande mølle og sagbruk" />
		<tag k="place" v="quarter" />
		<tag k="ssr:stedsnr" v="571818" />
	</node>
	<node id="-407028" lat="59.3737472265" lon="10.4605361135">
		<tag k="name" v="Rishagerød" />
>>>>>>> e1d4bc35ff8a6074a6f2e91616a996b547c36f15
		<tag k="place" v="farm" />
		<tag k="ssr:stedsnr" v="245511" />
	</node>
<<<<<<< HEAD
	<node lat="59.37324166562834" lon="10.42857499543268" id="-20520">
		<tag k="name" v="Kimestad" />
=======
	<node id="-407025" lat="59.4187200548" lon="10.3442683052">
		<tag k="fixme" v="multiple name tags, choose one and add the other to alt_name; consider place=hamlet" />
		<tag k="name" v="Drengløs;Jalland" />
>>>>>>> e1d4bc35ff8a6074a6f2e91616a996b547c36f15
		<tag k="place" v="farm" />
		<tag k="ssr:stedsnr" v="245534" />
	</node>
<<<<<<< HEAD
	<node lat="59.37033611522462" lon="10.443072225627331" id="-20521">
		<tag k="name" v="Fagerlund" />
=======
	<node id="-407024" lat="59.4060305516" lon="10.350749993">
		<tag k="name" v="Fossøla" />
>>>>>>> e1d4bc35ff8a6074a6f2e91616a996b547c36f15
		<tag k="place" v="farm" />
		<tag k="ssr:stedsnr" v="245536" />
	</node>
<<<<<<< HEAD
	<node lat="59.36609722064792" lon="10.387149995719136" id="-20523">
=======
	<node id="-407023" lat="59.4417305565" lon="10.3975333391">
		<tag k="alt_name" v="Vegge;Vegge nordre" />
>>>>>>> e1d4bc35ff8a6074a6f2e91616a996b547c36f15
		<tag k="fixme" v="consider place=hamlet" />
		<tag k="name" v="Ødegården" />
		<tag k="place" v="farm" />
		<tag k="ssr:stedsnr" v="245546" />
	</node>
<<<<<<< HEAD
	<node lat="59.418461113968945" lon="10.37206388476266" id="-20524">
=======
	<node id="-407022" lat="59.437233332" lon="10.3786944473">
>>>>>>> e1d4bc35ff8a6074a6f2e91616a996b547c36f15
		<tag k="fixme" v="consider place=hamlet" />
		<tag k="loc_name" v="Skoppumteigen" />
		<tag k="name" v="Teigen" />
		<tag k="place" v="farm" />
<<<<<<< HEAD
		<tag k="ssr:stedsnr" v="245978" />
	</node>
	<node lat="59.43702653086003" lon="10.369485725652702" id="-20525">
=======
		<tag k="ssr:stedsnr" v="548930" />
	</node>
	<node id="-407020" lat="59.3843027785" lon="10.4528027849">
		<tag k="name" v="Gannestad" />
		<tag k="place" v="isolated_dwelling" />
		<tag k="ssr:stedsnr" v="548556" />
	</node>
	<node id="-407017" lat="59.3560972255" lon="10.4666777692">
		<tag k="name" v="Skogstua" />
		<tag k="place" v="isolated_dwelling" />
		<tag k="ssr:stedsnr" v="523041" />
	</node>
	<node id="-407016" lat="59.4190611108" lon="10.3533027819">
		<tag k="alt_name" v="Vold" />
>>>>>>> e1d4bc35ff8a6074a6f2e91616a996b547c36f15
		<tag k="fixme" v="consider place=hamlet" />
		<tag k="name" v="Freberg søndre" />
		<tag k="place" v="farm" />
		<tag k="ssr:stedsnr" v="88816" />
	</node>
<<<<<<< HEAD
	<node lat="59.37808055249227" lon="10.40355556249921" id="-20528">
		<tag k="name" v="Viulsrød" />
=======
	<node id="-407015" lat="59.4130555522" lon="10.4224055608">
		<tag k="fixme" v="consider place=hamlet" />
		<tag k="name" v="Eikenes" />
>>>>>>> e1d4bc35ff8a6074a6f2e91616a996b547c36f15
		<tag k="place" v="farm" />
		<tag k="ssr:stedsnr" v="89405" />
	</node>
<<<<<<< HEAD
	<node lat="59.37523333763753" lon="10.411658330628251" id="-20529">
		<tag k="name" v="Pjonkerød nordre" />
		<tag k="place" v="farm" />
		<tag k="ssr:stedsnr" v="89406" />
	</node>
	<node lat="59.43358888700588" lon="10.377627774049557" id="-20530">
		<tag k="name" v="Tveitan" />
=======
	<node id="-407014" lat="59.4311499965" lon="10.4240166585">
		<tag k="fixme" v="consider place=hamlet" />
		<tag k="name" v="Kotterød" />
		<tag k="place" v="farm" />
		<tag k="ssr:stedsnr" v="427939" />
	</node>
	<node id="-407012" lat="59.428444445" lon="10.4821416731">
		<tag k="building" v="industrial" />
		<tag k="industrial" v="factory" />
		<tag k="name" v="Horten verft" />
		<tag k="ssr:stedsnr" v="427926" />
	</node>
	<node id="-407009" lat="59.3596000013" lon="10.4319305502">
		<tag k="name" v="Læret" />
>>>>>>> e1d4bc35ff8a6074a6f2e91616a996b547c36f15
		<tag k="place" v="farm" />
		<tag k="ssr:stedsnr" v="95563" />
	</node>
<<<<<<< HEAD
	<node lat="59.40183055233079" lon="10.42551111947402" id="-20533">
		<tag k="alt_name" v="Solberg østre" />
		<tag k="name" v="Solberg" />
=======
	<node id="-407008" lat="59.368638886" lon="10.4308749977">
		<tag k="fixme" v="consider place=hamlet" />
		<tag k="name" v="Friberg" />
>>>>>>> e1d4bc35ff8a6074a6f2e91616a996b547c36f15
		<tag k="place" v="farm" />
		<tag k="ssr:stedsnr" v="252620" />
	</node>
<<<<<<< HEAD
	<node lat="59.3837138885853" lon="10.409794452638256" id="-20535">
		<tag k="name" v="Tokerød" />
		<tag k="place" v="quarter" />
		<tag k="ssr:stedsnr" v="146811" />
	</node>
	<node lat="59.379005556633984" lon="10.460591673963107" id="-20537">
		<tag k="name" v="Hallingstad" />
		<tag k="place" v="quarter" />
		<tag k="ssr:stedsnr" v="180671" />
	</node>
	<node lat="59.40906944298217" lon="10.442452785121288" id="-20538">
=======
	<node id="-407007" lat="59.3894722187" lon="10.4274777862">
		<tag k="alt_name" v="Sande nordre" />
>>>>>>> e1d4bc35ff8a6074a6f2e91616a996b547c36f15
		<tag k="fixme" v="consider place=hamlet" />
		<tag k="name" v="Eskebekk" />
		<tag k="place" v="farm" />
		<tag k="ssr:stedsnr" v="184508" />
	</node>
<<<<<<< HEAD
	<node lat="59.440041670240376" lon="10.350663894408562" id="-20544">
		<tag k="name" v="Tangen" />
=======
	<node id="-407006" lat="59.3864166662" lon="10.4262944472">
		<tag k="fixme" v="consider place=hamlet" />
		<tag k="name" v="Vestre Sande" />
>>>>>>> e1d4bc35ff8a6074a6f2e91616a996b547c36f15
		<tag k="place" v="farm" />
		<tag k="ssr:stedsnr" v="209830" />
	</node>
<<<<<<< HEAD
	<node lat="59.40566774653281" lon="10.37889490376894" id="-20548">
=======
	<node id="-407005" lat="59.3993416633" lon="10.420549998">
		<tag k="alt_name" v="Solberg" />
>>>>>>> e1d4bc35ff8a6074a6f2e91616a996b547c36f15
		<tag k="fixme" v="consider place=hamlet" />
		<tag k="name" v="Skaug" />
		<tag k="place" v="farm" />
		<tag k="ssr:stedsnr" v="270812" />
	</node>
<<<<<<< HEAD
	<node lat="59.37770555788855" lon="10.403422225972966" id="-20552">
		<tag k="name" v="Viulsrød" />
=======
	<node id="-407004" lat="59.4081805517" lon="10.4599250019">
		<tag k="name" v="Holtan" />
>>>>>>> e1d4bc35ff8a6074a6f2e91616a996b547c36f15
		<tag k="place" v="farm" />
		<tag k="ssr:stedsnr" v="271433" />
	</node>
<<<<<<< HEAD
	<node lat="59.34851944029208" lon="10.455938890923287" id="-20553">
		<tag k="name" v="Øderydningen" />
=======
	<node id="-407003" lat="59.4250416701" lon="10.4502361044">
		<tag k="name" v="Laskenlia" />
>>>>>>> e1d4bc35ff8a6074a6f2e91616a996b547c36f15
		<tag k="place" v="quarter" />
		<tag k="ssr:stedsnr" v="237708" />
	</node>
<<<<<<< HEAD
	<node lat="59.446758337168816" lon="10.440647228136047" id="-20554">
		<tag k="name" v="Vadfiskerstua" />
		<tag k="place" v="isolated_dwelling" />
		<tag k="ssr:stedsnr" v="450850" />
	</node>
	<node lat="59.392186109172435" lon="10.478977777732396" id="-20555">
=======
	<node id="-407000" lat="59.3593611118" lon="10.4526388833">
		<tag k="name" v="Jutestrand" />
		<tag k="place" v="farm" />
		<tag k="ssr:stedsnr" v="392849" />
	</node>
	<node id="-406996" lat="59.3835801376" lon="10.4136923233">
>>>>>>> e1d4bc35ff8a6074a6f2e91616a996b547c36f15
		<tag k="amenity" v="school" />
		<tag k="name" v="RS Noatun" />
		<tag k="ssr:stedsnr" v="451241" />
	</node>
	<node lat="59.384955556491775" lon="10.405391663799287" id="-20563">
		<tag k="leisure" v="park" />
		<tag k="name" v="Reirparken" />
		<tag k="ssr:stedsnr" v="274827" />
	</node>
<<<<<<< HEAD
	<node lat="59.38319721996633" lon="10.463905549256694" id="-20566">
=======
	<node id="-406993" lat="59.4411222215" lon="10.4294611031">
>>>>>>> e1d4bc35ff8a6074a6f2e91616a996b547c36f15
		<tag k="fixme" v="consider place=hamlet" />
		<tag k="name" v="Prestegården" />
		<tag k="place" v="farm" />
<<<<<<< HEAD
		<tag k="ssr:stedsnr" v="305605" />
	</node>
	<node lat="59.35577500370442" lon="10.43755278470401" id="-20568">
		<tag k="name" v="Ra" />
=======
		<tag k="ssr:stedsnr" v="366936" />
	</node>
	<node id="-406992" lat="59.432949999" lon="10.4282638851">
		<tag k="building" v="industrial" />
		<tag k="industrial" v="factory" />
		<tag k="name" v="Øvremølla" />
		<tag k="ssr:stedsnr" v="366932" />
	</node>
	<node id="-406991" lat="59.3564388867" lon="10.4067750061">
		<tag k="alt_name" v="Sti, østre;Sti øvre" />
		<tag k="name" v="Østre Sti" />
>>>>>>> e1d4bc35ff8a6074a6f2e91616a996b547c36f15
		<tag k="place" v="farm" />
		<tag k="ssr:stedsnr" v="328803" />
	</node>
<<<<<<< HEAD
	<node lat="59.39602222314244" lon="10.45620834028091" id="-20569">
		<tag k="fixme" v="consider place=hamlet" />
		<tag k="name" v="Semb søndre" />
=======
	<node id="-406990" lat="59.3535750007" lon="10.4474472141">
		<tag k="name" v="Snekkestad" />
>>>>>>> e1d4bc35ff8a6074a6f2e91616a996b547c36f15
		<tag k="place" v="farm" />
		<tag k="ssr:stedsnr" v="328854" />
	</node>
<<<<<<< HEAD
	<node lat="59.43783611247685" lon="10.370922221347996" id="-20570">
		<tag k="name" v="Rønningen" />
=======
	<node id="-406989" lat="59.3641249972" lon="10.4271833321">
		<tag k="alt_name" v="Adal østre" />
		<tag k="fixme" v="consider place=hamlet" />
		<tag k="name" v="Adal" />
>>>>>>> e1d4bc35ff8a6074a6f2e91616a996b547c36f15
		<tag k="place" v="farm" />
		<tag k="ssr:stedsnr" v="331101" />
	</node>
<<<<<<< HEAD
	<node lat="59.394355552541164" lon="10.396755547195868" id="-20573">
=======
	<node id="-406987" lat="59.3943555525" lon="10.3967555472">
>>>>>>> e1d4bc35ff8a6074a6f2e91616a996b547c36f15
		<tag k="fixme" v="consider place=hamlet" />
		<tag k="name" v="Snapsrød" />
		<tag k="place" v="farm" />
		<tag k="ssr:stedsnr" v="366535" />
	</node>
<<<<<<< HEAD
	<node lat="59.353575000685254" lon="10.44744721406552" id="-20574">
		<tag k="name" v="Snekkestad" />
		<tag k="place" v="farm" />
		<tag k="ssr:stedsnr" v="366583" />
	</node>
	<node lat="59.35643888674971" lon="10.40677500607484" id="-20575">
		<tag k="alt_name" v="Sti, østre;Sti øvre" />
		<tag k="name" v="Østre Sti" />
		<tag k="place" v="farm" />
		<tag k="ssr:stedsnr" v="366584" />
	</node>
	<node lat="59.4329499989864" lon="10.428263885119545" id="-20576">
		<tag k="building" v="industrial" />
		<tag k="industrial" v="factory" />
		<tag k="name" v="Øvremølla" />
		<tag k="ssr:stedsnr" v="366932" />
	</node>
	<node lat="59.40435555293854" lon="10.407313889817575" id="-20581">
		<tag k="alt_name" v="Nordre Rygland" />
=======
	<node id="-406986" lat="59.4017972196" lon="10.3538916668">
		<tag k="alt_name" v="Kjettetorp" />
>>>>>>> e1d4bc35ff8a6074a6f2e91616a996b547c36f15
		<tag k="fixme" v="consider place=hamlet" />
		<tag k="name" v="Ryggland" />
		<tag k="place" v="farm" />
		<tag k="ssr:stedsnr" v="487548" />
	</node>
<<<<<<< HEAD
	<node lat="59.42837677548911" lon="10.453265545676771" id="-20583">
		<tag k="name" v="Dampejordet" />
=======
	<node id="-406984" lat="59.3860250023" lon="10.4752944481">
		<tag k="name" v="Birkely" />
>>>>>>> e1d4bc35ff8a6074a6f2e91616a996b547c36f15
		<tag k="place" v="quarter" />
		<tag k="ssr:stedsnr" v="487988" />
	</node>
<<<<<<< HEAD
	<node lat="59.39738055960366" lon="10.435750008087798" id="-20586">
		<tag k="alt_name" v="Øvre Toen" />
		<tag k="fixme" v="consider place=hamlet" />
		<tag k="name" v="Toen" />
=======
	<node id="-406977" lat="59.3692194443" lon="10.3849861041">
		<tag k="name" v="Ødegården" />
>>>>>>> e1d4bc35ff8a6074a6f2e91616a996b547c36f15
		<tag k="place" v="farm" />
		<tag k="ssr:stedsnr" v="488489" />
	</node>
<<<<<<< HEAD
	<node lat="59.4250416700874" lon="10.450236104378336" id="-20587">
		<tag k="name" v="Laskenlia" />
		<tag k="place" v="quarter" />
		<tag k="ssr:stedsnr" v="419697" />
	</node>
	<node lat="59.35960000134706" lon="10.431930550179112" id="-20588">
		<tag k="name" v="Læret" />
=======
	<node id="-406976" lat="59.4378361125" lon="10.3709222213">
		<tag k="name" v="Rønningen" />
		<tag k="place" v="farm" />
		<tag k="ssr:stedsnr" v="331101" />
	</node>
	<node id="-406974" lat="59.3792194425" lon="10.4583694515">
		<tag k="name" v="Hallingstad" />
>>>>>>> e1d4bc35ff8a6074a6f2e91616a996b547c36f15
		<tag k="place" v="farm" />
		<tag k="ssr:stedsnr" v="427569" />
	</node>
<<<<<<< HEAD
	<node lat="59.41305555221512" lon="10.42240556083763" id="-20591">
=======
	<node id="-406973" lat="59.3960222231" lon="10.4562083403">
>>>>>>> e1d4bc35ff8a6074a6f2e91616a996b547c36f15
		<tag k="fixme" v="consider place=hamlet" />
		<tag k="name" v="Eikenes" />
		<tag k="place" v="farm" />
		<tag k="ssr:stedsnr" v="427971" />
	</node>
<<<<<<< HEAD
	<node lat="59.41906111083633" lon="10.353302781882041" id="-20592">
		<tag k="alt_name" v="Vold" />
		<tag k="fixme" v="consider place=hamlet" />
		<tag k="name" v="Voll" />
=======
	<node id="-406972" lat="59.3890499963" lon="10.4651805626">
		<tag k="name" v="Vold" />
>>>>>>> e1d4bc35ff8a6074a6f2e91616a996b547c36f15
		<tag k="place" v="farm" />
		<tag k="ssr:stedsnr" v="427979" />
	</node>
<<<<<<< HEAD
	<node lat="59.41417222612805" lon="10.471338895143253" id="-20597">
		<tag k="amenity" v="hospital" />
		<tag k="name" v="Horten sykehus" />
		<tag k="ssr:stedsnr" v="465625" />
	</node>
	<node lat="59.431444440192486" lon="10.448816671936038" id="-20599">
		<tag k="name" v="Nordli" />
		<tag k="place" v="quarter" />
		<tag k="ssr:stedsnr" v="480679" />
	</node>
	<node lat="59.429708336929025" lon="10.336658331162285" id="-20601">
		<tag k="alt_name" v="Bruserød" />
=======
	<node id="-406970" lat="59.4105749965" lon="10.3916111074">
		<tag k="name" v="Rønningen" />
		<tag k="place" v="farm" />
		<tag k="ssr:stedsnr" v="306469" />
	</node>
	<node id="-406969" lat="59.4082055511" lon="10.4225972243">
		<tag k="name" v="Bergstad" />
		<tag k="place" v="farm" />
		<tag k="ssr:stedsnr" v="306467" />
	</node>
	<node id="-406967" lat="59.4260055531" lon="10.3633611028">
>>>>>>> e1d4bc35ff8a6074a6f2e91616a996b547c36f15
		<tag k="fixme" v="consider place=hamlet" />
		<tag k="name" v="Bruserud" />
		<tag k="place" v="farm" />
		<tag k="ssr:stedsnr" v="487176" />
	</node>
<<<<<<< HEAD
	<node lat="59.37386111448275" lon="10.413641666353644" id="-20602">
		<tag k="fixme" v="consider place=hamlet" />
		<tag k="name" v="Pjonkerød" />
=======
	<node id="-406966" lat="59.354275001" lon="10.4344055534">
		<tag k="name" v="Ra" />
>>>>>>> e1d4bc35ff8a6074a6f2e91616a996b547c36f15
		<tag k="place" v="farm" />
		<tag k="ssr:stedsnr" v="487605" />
	</node>
<<<<<<< HEAD
	<node lat="59.35938888924299" lon="10.464738892250407" id="-20603">
		<tag k="name" v="Rosenville" />
=======
	<node id="-406965" lat="59.3650388934" lon="10.4026249979">
		<tag k="alt_name" v="Adal vestre" />
		<tag k="fixme" v="consider place=hamlet" />
		<tag k="name" v="Adal" />
>>>>>>> e1d4bc35ff8a6074a6f2e91616a996b547c36f15
		<tag k="place" v="farm" />
		<tag k="ssr:stedsnr" v="487609" />
	</node>
<<<<<<< HEAD
	<node lat="59.366274998848894" lon="10.402641671011768" id="-20604">
		<tag k="name" v="Solheim" />
=======
	<node id="-406964" lat="59.3631805533" lon="10.4461111131">
		<tag k="fixme" v="consider place=hamlet" />
		<tag k="name" v="Fjugstad" />
>>>>>>> e1d4bc35ff8a6074a6f2e91616a996b547c36f15
		<tag k="place" v="farm" />
		<tag k="ssr:stedsnr" v="487611" />
	</node>
<<<<<<< HEAD
	<node lat="59.44050555933464" lon="10.36909444977072" id="-20605">
=======
	<node id="-406963" lat="59.38319722" lon="10.4639055493">
>>>>>>> e1d4bc35ff8a6074a6f2e91616a996b547c36f15
		<tag k="fixme" v="consider place=hamlet" />
		<tag k="name" v="Freberg nordre" />
		<tag k="place" v="farm" />
		<tag k="ssr:stedsnr" v="487955" />
	</node>
<<<<<<< HEAD
	<node lat="59.41216944107527" lon="10.37834444496003" id="-20606">
		<tag k="fixme" v="consider place=hamlet" />
		<tag k="name" v="Åsrød" />
		<tag k="place" v="farm" />
		<tag k="ssr:stedsnr" v="487966" />
	</node>
	<node lat="59.41022777867859" lon="10.366638884841503" id="-20607">
		<tag k="alt_name" v="Mosekvisl;Moskvil;Moskvil, søndre" />
		<tag k="fixme" v="consider place=hamlet" />
		<tag k="name" v="Søndre Moskvil" />
=======
	<node id="-406961" lat="59.3987861085" lon="10.3745111036">
		<tag k="name" v="Brekke øvre" />
		<tag k="place" v="farm" />
		<tag k="ssr:stedsnr" v="209784" />
	</node>
	<node id="-406960" lat="59.378702776" lon="10.5274944485">
		<tag k="name" v="Foldin" />
		<tag k="place" v="isolated_dwelling" />
		<tag k="ssr:stedsnr" v="209190" />
	</node>
	<node id="-406958" lat="59.3949472181" lon="10.4151583392">
		<tag k="name" v="Rygland søndre" />
>>>>>>> e1d4bc35ff8a6074a6f2e91616a996b547c36f15
		<tag k="place" v="farm" />
		<tag k="ssr:stedsnr" v="495677" />
	</node>
<<<<<<< HEAD
	<node lat="59.3806584611193" lon="10.45102902449589" id="-20612">
		<tag k="fixme" v="consider place=hamlet" />
		<tag k="name" v="Gannestad" />
=======
	<node id="-406957" lat="59.3871250003" lon="10.4168444489">
		<tag k="name" v="Skoppum" />
>>>>>>> e1d4bc35ff8a6074a6f2e91616a996b547c36f15
		<tag k="place" v="farm" />
		<tag k="ssr:stedsnr" v="548556" />
	</node>
<<<<<<< HEAD
	<node lat="59.40603055157853" lon="10.350749993036695" id="-20614">
		<tag k="name" v="Fossøla" />
=======
	<node id="-406956" lat="59.3843305524" lon="10.4042694382">
		<tag k="name" v="Reir" />
>>>>>>> e1d4bc35ff8a6074a6f2e91616a996b547c36f15
		<tag k="place" v="farm" />
		<tag k="ssr:stedsnr" v="548963" />
	</node>
<<<<<<< HEAD
	<node lat="59.41721388945822" lon="10.483436107539111" id="-20615">
		<tag k="name" v="Horten" />
		<tag k="place" v="town" />
		<tag k="ssr:stedsnr" v="692216" />
	</node>
	<node lat="59.39795555387468" lon="10.462108325098747" id="-20616">
		<tag k="amenity" v="school" />
		<tag k="name" v="Granly skole" />
		<tag k="ssr:stedsnr" v="692834" />
	</node>
	<node lat="59.39256388852419" lon="10.465233330629186" id="-20619">
		<tag k="name" v="Eik" />
=======
	<node id="-406955" lat="59.3850500044" lon="10.4064444388">
		<tag k="name" v="Reir" />
		<tag k="place" v="locality" />
		<tag k="ssr:stedsnr" v="207829" />
	</node>
	<node id="-406954" lat="59.4147222234" lon="10.3671361049">
		<tag k="fixme" v="consider place=hamlet" />
		<tag k="name" v="Moskvil" />
>>>>>>> e1d4bc35ff8a6074a6f2e91616a996b547c36f15
		<tag k="place" v="farm" />
		<tag k="ssr:stedsnr" v="692845" />
	</node>
<<<<<<< HEAD
	<node lat="59.38479166613964" lon="10.41793610651354" id="-20621">
		<tag k="name" v="Sande mølle og sagbruk" />
		<tag k="place" v="quarter" />
		<tag k="ssr:stedsnr" v="571818" />
	</node>
	<node lat="59.3661027788397" lon="10.40247222759645" id="-20632">
=======
	<node id="-406952" lat="59.4379694468" lon="10.4426249916">
		<tag k="name" v="Skavli" />
		<tag k="place" v="quarter" />
		<tag k="ssr:stedsnr" v="184923" />
	</node>
	<node id="-406951" lat="59.3493833317" lon="10.4694833303">
		<tag k="name" v="Åsgårdstrand" />
		<tag k="place" v="town" />
		<tag k="ssr:stedsnr" v="184593" />
	</node>
	<node id="-406950" lat="59.3525083337" lon="10.4536777789">
		<tag k="alt_name" v="Åsgarden" />
		<tag k="name" v="Åsgården" />
		<tag k="place" v="farm" />
		<tag k="ssr:stedsnr" v="184580" />
	</node>
	<node id="-406948" lat="59.3917111074" lon="10.465183334">
>>>>>>> e1d4bc35ff8a6074a6f2e91616a996b547c36f15
		<tag k="fixme" v="consider place=hamlet" />
		<tag k="name" v="Adal nordre" />
		<tag k="place" v="farm" />
		<tag k="ssr:stedsnr" v="695392" />
	</node>
<<<<<<< HEAD
	<node lat="59.356411111607805" lon="10.39340277106874" id="-20634">
		<tag k="name" v="Tangsrød" />
		<tag k="place" v="locality" />
		<tag k="ssr:stedsnr" v="695402" />
	</node>
	<node lat="59.4166861144893" lon="10.339849999100585" id="-20635">
		<tag k="name" v="Askim" />
=======
	<node id="-406947" lat="59.3925555515" lon="10.4094194514">
		<tag k="name" v="Jahrelunden" />
		<tag k="place" v="farm" />
		<tag k="ssr:stedsnr" v="184533" />
	</node>
	<node id="-406946" lat="59.409069443" lon="10.4424527851">
		<tag k="fixme" v="consider place=hamlet" />
		<tag k="name" v="Eskebekk" />
>>>>>>> e1d4bc35ff8a6074a6f2e91616a996b547c36f15
		<tag k="place" v="farm" />
		<tag k="ssr:stedsnr" v="695832" />
	</node>
	<node lat="59.43150555201099" lon="10.361658328361687" id="-20636">
		<tag k="name" v="Bollerud" />
		<tag k="place" v="locality" />
		<tag k="ssr:stedsnr" v="695836" />
	</node>
<<<<<<< HEAD
	<node lat="59.430638888309936" lon="10.41670833082782" id="-20638">
=======
	<node id="-406937" lat="59.3509472199" lon="10.4582805486">
>>>>>>> e1d4bc35ff8a6074a6f2e91616a996b547c36f15
		<tag k="fixme" v="consider place=hamlet" />
		<tag k="name" v="Tufte" />
		<tag k="place" v="farm" />
		<tag k="ssr:stedsnr" v="608988" />
	</node>
<<<<<<< HEAD
	<node lat="59.42728333752874" lon="10.438130550579638" id="-20639">
		<tag k="name" v="Ramsli" />
		<tag k="place" v="locality" />
		<tag k="ssr:stedsnr" v="608989" />
	</node>
	<node lat="59.41911389196012" lon="10.389677774341473" id="-20640">
		<tag k="name" v="Ramberg" />
=======
	<node id="-406936" lat="59.3471472195" lon="10.4480250065">
		<tag k="leisure" v="pitch" />
		<tag k="name" v="Mellombanen" />
		<tag k="ssr:stedsnr" v="146783" />
	</node>
	<node id="-406932" lat="59.3920194406" lon="10.4313916608">
		<tag k="alt_name" v="Kjær, nordre" />
		<tag k="fixme" v="consider place=hamlet" />
		<tag k="name" v="Nordre Kjær" />
>>>>>>> e1d4bc35ff8a6074a6f2e91616a996b547c36f15
		<tag k="place" v="farm" />
		<tag k="ssr:stedsnr" v="631832" />
	</node>
<<<<<<< HEAD
	<node lat="59.441883328943085" lon="10.39398055098264" id="-20644">
		<tag k="name" v="Veggestua" />
=======
	<node id="-406931" lat="59.3873194483" lon="10.3962416684">
		<tag k="name" v="Løvås" />
>>>>>>> e1d4bc35ff8a6074a6f2e91616a996b547c36f15
		<tag k="place" v="farm" />
		<tag k="ssr:stedsnr" v="634085" />
	</node>
<<<<<<< HEAD
	<node lat="59.3522499996442" lon="10.462941672933066" id="-20648">
		<tag k="name" v="Damåsen" />
		<tag k="place" v="quarter" />
		<tag k="ssr:stedsnr" v="662708" />
	</node>
	<node lat="59.36816666257648" lon="10.414947214576344" id="-20649">
		<tag k="alt_name" v="Bergan nordre" />
=======
	<node id="-406930" lat="59.3928166643" lon="10.3860055606">
		<tag k="alt_name" v="Gusland søndre" />
>>>>>>> e1d4bc35ff8a6074a6f2e91616a996b547c36f15
		<tag k="fixme" v="consider place=hamlet" />
		<tag k="name" v="Bergan" />
		<tag k="place" v="farm" />
		<tag k="ssr:stedsnr" v="669573" />
	</node>
<<<<<<< HEAD
	<node lat="59.42868333217676" lon="10.394011112307782" id="-20650">
		<tag k="alt_name" v="Skåne søndre" />
=======
	<node id="-406929" lat="59.3881249987" lon="10.4172416606">
>>>>>>> e1d4bc35ff8a6074a6f2e91616a996b547c36f15
		<tag k="fixme" v="consider place=hamlet" />
		<tag k="name" v="Skåne" />
		<tag k="place" v="farm" />
		<tag k="ssr:stedsnr" v="669992" />
	</node>
<<<<<<< HEAD
	<node lat="59.43104444270479" lon="10.35464444937237" id="-20651">
		<tag k="alt_name" v="Ås øvre;Ås" />
=======
	<node id="-406928" lat="59.4172277781" lon="10.4010472217">
>>>>>>> e1d4bc35ff8a6074a6f2e91616a996b547c36f15
		<tag k="fixme" v="consider place=hamlet" />
		<tag k="name" v="Øvre Ås" />
		<tag k="place" v="farm" />
<<<<<<< HEAD
		<tag k="ssr:stedsnr" v="669993" />
	</node>
	<node lat="59.42240726601281" lon="10.375214794589454" id="-20652">
=======
		<tag k="ssr:stedsnr" v="123981" />
	</node>
	<node id="-406927" lat="59.4196138908" lon="10.4873472194">
		<tag k="alt_name" v="Lystlunden" />
		<tag k="leisure" v="pitch" />
		<tag k="name" v="Lystlunden idrettsplass" />
		<tag k="ssr:stedsnr" v="123975" />
	</node>
	<node id="-406925" lat="59.4342333329" lon="10.402402775">
>>>>>>> e1d4bc35ff8a6074a6f2e91616a996b547c36f15
		<tag k="fixme" v="consider place=hamlet" />
		<tag k="name" v="Sletterød" />
		<tag k="place" v="farm" />
		<tag k="ssr:stedsnr" v="669996" />
	</node>
<<<<<<< HEAD
	<node lat="59.391861114205994" lon="10.394874998384115" id="-20653">
=======
	<node id="-406924" lat="59.4338472199" lon="10.4181194453">
		<tag k="alt_name" v="Vegge;Vegge søndre" />
>>>>>>> e1d4bc35ff8a6074a6f2e91616a996b547c36f15
		<tag k="fixme" v="consider place=hamlet" />
		<tag k="name" v="Løs" />
		<tag k="place" v="farm" />
		<tag k="ssr:stedsnr" v="670487" />
	</node>
<<<<<<< HEAD
	<node lat="59.367541670676616" lon="10.401963891784012" id="-20654">
		<tag k="name" v="Augedal" />
=======
	<node id="-406923" lat="59.4004777797" lon="10.4318500033">
		<tag k="name" v="Ødegården" />
>>>>>>> e1d4bc35ff8a6074a6f2e91616a996b547c36f15
		<tag k="place" v="farm" />
		<tag k="ssr:stedsnr" v="696971" />
	</node>
<<<<<<< HEAD
	<node lat="59.414580551887866" lon="10.489927778158874" id="-20655">
		<tag k="building" v="civic" />
		<tag k="name" v="Horten havnevesen" />
		<tag k="ssr:stedsnr" v="708634" />
	</node>
	<node lat="59.35491944098155" lon="10.411091668528249" id="-20660">
		<tag k="alt_name" v="Sti, nordre;Sti nedre" />
		<tag k="name" v="Nordre Sti" />
=======
	<node id="-406921" lat="59.3818888876" lon="10.4564555471">
		<tag k="name" v="Borre" />
		<tag k="place" v="village" />
		<tag k="ssr:stedsnr" v="101283" />
	</node>
	<node id="-406920" lat="59.433588887" lon="10.377627774">
		<tag k="name" v="Tveitan" />
>>>>>>> e1d4bc35ff8a6074a6f2e91616a996b547c36f15
		<tag k="place" v="farm" />
		<tag k="ssr:stedsnr" v="730620" />
	</node>
<<<<<<< HEAD
	<node lat="59.41685832895921" lon="10.362316664069077" id="-20661">
=======
	<node id="-406919" lat="59.3578749967" lon="10.4135388833">
>>>>>>> e1d4bc35ff8a6074a6f2e91616a996b547c36f15
		<tag k="fixme" v="consider place=hamlet" />
		<tag k="name" v="Eiketuft" />
		<tag k="place" v="farm" />
		<tag k="ssr:stedsnr" v="730977" />
	</node>
<<<<<<< HEAD
	<node lat="59.40002777851653" lon="10.43079721702942" id="-20662">
		<tag k="name" v="Eikelund" />
=======
	<node id="-406918" lat="59.3752333376" lon="10.4116583306">
		<tag k="name" v="Pjonkerød nordre" />
>>>>>>> e1d4bc35ff8a6074a6f2e91616a996b547c36f15
		<tag k="place" v="farm" />
		<tag k="ssr:stedsnr" v="731476" />
	</node>
<<<<<<< HEAD
	<node lat="59.349041670713056" lon="10.457580550788238" id="-20663">
		<tag k="name" v="Nygård" />
		<tag k="place" v="quarter" />
		<tag k="ssr:stedsnr" v="753803" />
	</node>
	<node lat="59.418838885119534" lon="10.423258324980498" id="-20664">
=======
	<node id="-406917" lat="59.3780805525" lon="10.4035555625">
		<tag k="name" v="Viulsrød" />
		<tag k="place" v="farm" />
		<tag k="ssr:stedsnr" v="89405" />
	</node>
	<node id="-406916" lat="59.4370265309" lon="10.3694857257">
>>>>>>> e1d4bc35ff8a6074a6f2e91616a996b547c36f15
		<tag k="fixme" v="consider place=hamlet" />
		<tag k="name" v="Vik søndre" />
		<tag k="place" v="farm" />
		<tag k="ssr:stedsnr" v="753809" />
	</node>
<<<<<<< HEAD
	<node lat="59.39898333379169" lon="10.448066674941389" id="-20669">
=======
	<node id="-406915" lat="59.4114444415" lon="10.358494437">
>>>>>>> e1d4bc35ff8a6074a6f2e91616a996b547c36f15
		<tag k="fixme" v="consider place=hamlet" />
		<tag k="name" v="Semb" />
		<tag k="place" v="farm" />
		<tag k="ssr:stedsnr" v="791505" />
	</node>
<<<<<<< HEAD
	<node lat="59.399957200637175" lon="10.461750446658852" id="-20670">
		<tag k="fixme" v="consider place=hamlet" />
		<tag k="name" v="Tveiten" />
		<tag k="place" v="farm" />
		<tag k="ssr:stedsnr" v="791507" />
	</node>
	<node lat="59.37948333265345" lon="10.444172220430644" id="-20671">
		<tag k="alt_name" v="Glenne østre;Nedre Glenne" />
=======
	<node id="-406914" lat="59.3763194425" lon="10.3784444425">
		<tag k="name" v="Steinbjørnrød" />
		<tag k="place" v="farm" />
		<tag k="ssr:stedsnr" v="88697" />
	</node>
	<node id="-406913" lat="59.4387111153" lon="10.4390222198">
		<tag k="name" v="Møllestua" />
		<tag k="place" v="isolated_dwelling" />
		<tag k="ssr:stedsnr" v="87862" />
	</node>
	<node id="-406903" lat="59.3442694405" lon="10.4685750073">
		<tag k="alt_name" v="Stang" />
>>>>>>> e1d4bc35ff8a6074a6f2e91616a996b547c36f15
		<tag k="fixme" v="consider place=hamlet" />
		<tag k="name" v="Glenne" />
		<tag k="place" v="farm" />
<<<<<<< HEAD
		<tag k="ssr:stedsnr" v="791536" />
	</node>
	<node lat="59.432341665653496" lon="10.377402774712564" id="-20672">
		<tag k="alt_name" v="Nøklegård øvre" />
		<tag k="name" v="Nøklegård" />
		<tag k="place" v="farm" />
		<tag k="ssr:stedsnr" v="791937" />
	</node>
	<node lat="59.42090277720736" lon="10.34224999363932" id="-20674">
		<tag k="name" v="Bakke" />
		<tag k="place" v="farm" />
		<tag k="ssr:stedsnr" v="913130" />
	</node>
	<node lat="59.406418281588316" lon="10.365207612468893" id="-20675">
		<tag k="name" v="Pauli" />
=======
		<tag k="ssr:stedsnr" v="63599" />
	</node>
	<node id="-406897" lat="59.4384861127" lon="10.4365999984">
		<tag k="name" v="Skavli" />
		<tag k="place" v="quarter" />
		<tag k="ssr:stedsnr" v="55637" />
	</node>
	<node id="-406894" lat="59.4425861108" lon="10.4328583383">
		<tag k="fixme" v="consider place=suburb, village or hamlet" />
		<tag k="name" v="Falkensten" />
		<tag k="place" v="quarter" />
		<tag k="ssr:stedsnr" v="41827" />
	</node>
	<node id="-406893" lat="59.4158444457" lon="10.4854388917">
		<tag k="building" v="civic" />
		<tag k="name" v="Politistasjon" />
		<tag k="ssr:stedsnr" v="41638" />
	</node>
	<node id="-406891" lat="59.4118861143" lon="10.3548111195">
		<tag k="alt_name" v="Øvre Kjæran" />
		<tag k="fixme" v="consider place=hamlet" />
		<tag k="name" v="Kjærran øvre" />
>>>>>>> e1d4bc35ff8a6074a6f2e91616a996b547c36f15
		<tag k="place" v="farm" />
		<tag k="ssr:stedsnr" v="913974" />
	</node>
<<<<<<< HEAD
	<node lat="59.42278055375109" lon="10.384169436225001" id="-20676">
		<tag k="name" v="Nykirke" />
		<tag k="place" v="village" />
		<tag k="ssr:stedsnr" v="813200" />
	</node>
	<node lat="59.43480555187875" lon="10.447002784894883" id="-20683">
		<tag k="name" v="Evjeåsen" />
=======
	<node id="-406885" lat="59.4255487261" lon="10.4517305699">
		<tag k="name" v="Apenes" />
>>>>>>> e1d4bc35ff8a6074a6f2e91616a996b547c36f15
		<tag k="place" v="quarter" />
		<tag k="ssr:stedsnr" v="844682" />
	</node>
<<<<<<< HEAD
	<node lat="59.38676944226887" lon="10.463791661123379" id="-20684">
		<tag k="alt_name" v="Voll;Nordre Vold" />
=======
	<node id="-406882" lat="59.3870499963" lon="10.4315666663">
>>>>>>> e1d4bc35ff8a6074a6f2e91616a996b547c36f15
		<tag k="fixme" v="consider place=hamlet" />
		<tag k="name" v="Vold" />
		<tag k="place" v="farm" />
		<tag k="ssr:stedsnr" v="852526" />
	</node>
<<<<<<< HEAD
	<node lat="59.40633332912035" lon="10.3903611119352" id="-20685">
		<tag k="fixme" v="consider place=hamlet" />
		<tag k="name" v="Føske" />
=======
	<node id="-406881" lat="59.3936305596" lon="10.4643027816">
		<tag k="name" v="Eik" />
>>>>>>> e1d4bc35ff8a6074a6f2e91616a996b547c36f15
		<tag k="place" v="farm" />
		<tag k="ssr:stedsnr" v="852963" />
	</node>
<<<<<<< HEAD
	<node lat="59.37388611097628" lon="10.414066659918557" id="-20687">
		<tag k="name" v="Pjonkerød søndre" />
		<tag k="place" v="farm" />
		<tag k="ssr:stedsnr" v="882666" />
	</node>
	<node lat="59.414336113501506" lon="10.419347223783033" id="-20691">
=======
	<node id="-406880" lat="59.3691861091" lon="10.4431555563">
		<tag k="amenity" v="school" />
		<tag k="name" v="Bakkenteigen" />
		<tag k="ssr:stedsnr" v="21052" />
	</node>
	<node id="-406879" lat="59.3690583309" lon="10.425322221">
>>>>>>> e1d4bc35ff8a6074a6f2e91616a996b547c36f15
		<tag k="fixme" v="consider place=hamlet" />
		<tag k="name" v="Haukeli" />
		<tag k="place" v="farm" />
<<<<<<< HEAD
		<tag k="ssr:stedsnr" v="913981" />
	</node>
	<node lat="59.41705555863839" lon="10.391161116232656" id="-20692">
		<tag k="fixme" v="consider place=hamlet" />
		<tag k="name" v="Prestegården" />
=======
		<tag k="ssr:stedsnr" v="9665" />
	</node>
	<node id="-406878" lat="59.431588892" lon="10.4916305641">
		<tag k="landuse" v="military" />
		<tag k="name" v="Karljohansvern" />
		<tag k="ssr:stedsnr" v="2984" />
	</node>
	<node id="-406877" lat="59.4194166667" lon="10.3973138806">
		<tag k="name" v="Grette" />
>>>>>>> e1d4bc35ff8a6074a6f2e91616a996b547c36f15
		<tag k="place" v="farm" />
		<tag k="ssr:stedsnr" v="913984" />
	</node>
<<<<<<< HEAD
	<node lat="59.41320833364561" lon="10.38551666791243" id="-20693">
=======
	<node id="-406876" lat="59.4193888892" lon="10.4412666713">
>>>>>>> e1d4bc35ff8a6074a6f2e91616a996b547c36f15
		<tag k="fixme" v="consider place=hamlet" />
		<tag k="name" v="Austad" />
		<tag k="place" v="farm" />
		<tag k="ssr:stedsnr" v="913986" />
	</node>
<<<<<<< HEAD
	<node lat="59.35259721803294" lon="10.439052770057767" id="-20694">
		<tag k="name" v="Kjær" />
		<tag k="place" v="farm" />
		<tag k="ssr:stedsnr" v="935807" />
	</node>
	<node lat="59.42035555477789" lon="10.420649997588976" id="-20696">
		<tag k="name" v="Vik mellom" />
		<tag k="place" v="farm" />
		<tag k="ssr:stedsnr" v="935818" />
	</node>
	<node lat="59.40576944769444" lon="10.478319447468579" id="-20697">
		<tag k="building" v="industrial" />
		<tag k="industrial" v="factory" />
		<tag k="name" v="Horten bryggeri" />
		<tag k="ssr:stedsnr" v="935823" />
	</node>
	<node lat="59.39973333742625" lon="10.41116388408327" id="-20698">
		<tag k="name" v="Rygland østre" />
		<tag k="place" v="farm" />
		<tag k="ssr:stedsnr" v="935826" />
	</node>
	<node lat="59.39943333291534" lon="10.425647229007584" id="-20699">
=======
	<node id="-406872" lat="59.4395277801" lon="10.3780444506">
		<tag k="name" v="Frebergsvik" />
		<tag k="place" v="neighbourhood" />
		<tag k="ssr:stedsnr" v="2936" />
	</node>
	<node id="-406871" lat="59.4321611145" lon="10.4477694364">
		<tag k="name" v="Orerønningen" />
		<tag k="place" v="isolated_dwelling" />
		<tag k="ssr:stedsnr" v="2932" />
	</node>
	<node id="-406870" lat="59.3766583318" lon="10.4258527748">
>>>>>>> e1d4bc35ff8a6074a6f2e91616a996b547c36f15
		<tag k="fixme" v="consider place=hamlet" />
		<tag k="name" v="Solberg østre" />
		<tag k="place" v="farm" />
		<tag k="ssr:stedsnr" v="935842" />
	</node>
<<<<<<< HEAD
	<node lat="59.38194722250799" lon="10.437802779222904" id="-20700">
		<tag k="name" v="Glenne nedre" />
=======
	<node id="-406869" lat="59.3784083361" lon="10.3991000029">
		<tag k="name" v="Viulsrød" />
>>>>>>> e1d4bc35ff8a6074a6f2e91616a996b547c36f15
		<tag k="place" v="farm" />
		<tag k="ssr:stedsnr" v="935845" />
	</node>
	<node lat="59.38884722553585" lon="10.463074999143029" id="-20701">
		<tag k="name" v="Vold" />
		<tag k="place" v="farm" />
		<tag k="ssr:stedsnr" v="935848" />
	</node>
<<<<<<< HEAD
	<node lat="59.43051944100109" lon="10.350355556125297" id="-20703">
		<tag k="alt_name" v="Ås nedre" />
=======
	<node id="-406867" lat="59.3935194472" lon="10.4618805472">
>>>>>>> e1d4bc35ff8a6074a6f2e91616a996b547c36f15
		<tag k="fixme" v="consider place=hamlet" />
		<tag k="name" v="Nedre Ås" />
		<tag k="place" v="farm" />
		<tag k="ssr:stedsnr" v="938834" />
	</node>
<<<<<<< HEAD
	<node lat="59.38331015127062" lon="10.459860232746559" id="-20704">
		<tag k="fixme" v="consider place=hamlet" />
		<tag k="name" v="Vasmarken" />
		<tag k="place" v="farm" />
		<tag k="ssr:stedsnr" v="984505" />
	</node>
	<node lat="59.38276342019867" lon="10.526861865161116" id="-20705">
		<tag k="name" v="Bastø" />
=======
	<node id="-406858" lat="59.4355211009" lon="10.4143305606">
		<tag k="name" v="Vegge" />
		<tag k="place" v="hamlet" />
		<tag k="ssr:stedsnr" v="984714" />
	</node>
	<node id="-406857" lat="59.4354959955" lon="10.3933618829">
		<tag k="name" v="Såteskogen" />
>>>>>>> e1d4bc35ff8a6074a6f2e91616a996b547c36f15
		<tag k="place" v="locality" />
		<tag k="ssr:stedsnr" v="984534" />
	</node>
<<<<<<< HEAD
	<node lat="59.385188340856054" lon="10.472393499870712" id="-20706">
		<tag k="name" v="Søndre Vold" />
		<tag k="place" v="locality" />
		<tag k="ssr:stedsnr" v="984535" />
	</node>
	<node lat="59.37390625863167" lon="10.437369045394114" id="-20707">
		<tag k="name" v="Øvre Glenne" />
		<tag k="place" v="locality" />
		<tag k="ssr:stedsnr" v="984502" />
	</node>
	<node lat="59.35947637762416" lon="10.411353366134676" id="-20708">
		<tag k="name" v="Adal" />
=======
	<node id="-406856" lat="59.429984254" lon="10.3940141955">
		<tag k="name" v="Skåne" />
		<tag k="place" v="hamlet" />
		<tag k="ssr:stedsnr" v="984711" />
	</node>
	<node id="-406855" lat="59.3950076559" lon="10.3858392152">
		<tag k="name" v="Gusland" />
>>>>>>> e1d4bc35ff8a6074a6f2e91616a996b547c36f15
		<tag k="place" v="hamlet" />
		<tag k="ssr:stedsnr" v="984614" />
	</node>
<<<<<<< HEAD
	<node lat="59.356132726716375" lon="10.410507371654601" id="-20709">
=======
	<node id="-406854" lat="59.3561327267" lon="10.4105073717">
>>>>>>> e1d4bc35ff8a6074a6f2e91616a996b547c36f15
		<tag k="fixme" v="consider place=hamlet" />
		<tag k="name" v="Sti" />
		<tag k="place" v="farm" />
		<tag k="ssr:stedsnr" v="984615" />
	</node>
<<<<<<< HEAD
	<node lat="59.39500765593958" lon="10.385839215228131" id="-20710">
		<tag k="name" v="Gusland" />
		<tag k="place" v="hamlet" />
		<tag k="ssr:stedsnr" v="984639" />
	</node>
	<node lat="59.429984253987676" lon="10.394014195531472" id="-20711">
		<tag k="name" v="Skåne" />
=======
	<node id="-406853" lat="59.3594763776" lon="10.4113533661">
		<tag k="name" v="Adal" />
		<tag k="place" v="hamlet" />
		<tag k="ssr:stedsnr" v="984614" />
	</node>
	<node id="-406852" lat="59.3826465642" lon="10.413329952">
		<tag k="name" v="Tokerød" />
		<tag k="place" v="locality" />
		<tag k="ssr:stedsnr" v="984544" />
	</node>
	<node id="-406851" lat="59.3882686908" lon="10.4279609058">
		<tag k="name" v="Sande" />
>>>>>>> e1d4bc35ff8a6074a6f2e91616a996b547c36f15
		<tag k="place" v="hamlet" />
		<tag k="ssr:stedsnr" v="984711" />
	</node>
<<<<<<< HEAD
	<node lat="59.43549599553995" lon="10.393361882905847" id="-20712">
		<tag k="name" v="Såteskogen" />
=======
	<node id="-406850" lat="59.3958748869" lon="10.4056083134">
		<tag k="name" v="Søndre Rygland" />
>>>>>>> e1d4bc35ff8a6074a6f2e91616a996b547c36f15
		<tag k="place" v="locality" />
		<tag k="ssr:stedsnr" v="984712" />
	</node>
<<<<<<< HEAD
	<node lat="59.435521100850266" lon="10.41433056064507" id="-20713">
		<tag k="name" v="Vegge" />
=======
	<node id="-406849" lat="59.3984914563" lon="10.4199994294">
		<tag k="name" v="Solberg" />
>>>>>>> e1d4bc35ff8a6074a6f2e91616a996b547c36f15
		<tag k="place" v="hamlet" />
		<tag k="ssr:stedsnr" v="984714" />
	</node>
	<node lat="59.42930502334085" lon="10.490639096991842" id="-20714">
		<tag k="landuse" v="military" />
		<tag k="name" v="Orlogshavna" />
		<tag k="ssr:stedsnr" v="986009" />
	</node>
<<<<<<< HEAD
	<node lat="59.39351944722488" lon="10.461880547170836" id="-20715">
=======
	<node id="-406848" lat="59.4001525619" lon="10.4153317859">
>>>>>>> e1d4bc35ff8a6074a6f2e91616a996b547c36f15
		<tag k="fixme" v="consider place=hamlet" />
		<tag k="name" v="Røre" />
		<tag k="place" v="farm" />
		<tag k="ssr:stedsnr" v="2545" />
	</node>
<<<<<<< HEAD
	<node lat="59.37840833605626" lon="10.399100002906675" id="-20717">
		<tag k="name" v="Viulsrød" />
		<tag k="place" v="farm" />
		<tag k="ssr:stedsnr" v="2564" />
	</node>
	<node lat="59.376658331793095" lon="10.425852774779527" id="-20718">
=======
	<node id="-406847" lat="59.4226671537" lon="10.4212751372">
		<tag k="name" v="Vik" />
		<tag k="place" v="hamlet" />
		<tag k="ssr:stedsnr" v="984538" />
	</node>
	<node id="-406846" lat="59.405669358" lon="10.4665352976">
>>>>>>> e1d4bc35ff8a6074a6f2e91616a996b547c36f15
		<tag k="fixme" v="consider place=hamlet" />
		<tag k="name" v="Lørge" />
		<tag k="place" v="farm" />
<<<<<<< HEAD
		<tag k="ssr:stedsnr" v="2567" />
	</node>
	<node lat="59.43952778012634" lon="10.378044450589023" id="-20719">
		<tag k="name" v="Frebergsvik" />
		<tag k="place" v="neighbourhood" />
		<tag k="ssr:stedsnr" v="2936" />
	</node>
	<node lat="59.369058330948015" lon="10.425322221020553" id="-20723">
		<tag k="fixme" v="consider place=hamlet" />
		<tag k="name" v="Kimestad" />
=======
		<tag k="ssr:stedsnr" v="984537" />
	</node>
	<node id="-406845" lat="59.3866817756" lon="10.4629754753">
		<tag k="name" v="Vold" />
		<tag k="place" v="hamlet" />
		<tag k="ssr:stedsnr" v="984536" />
	</node>
	<node id="-406844" lat="59.3851883409" lon="10.4723934999">
		<tag k="name" v="Søndre Vold" />
		<tag k="place" v="locality" />
		<tag k="ssr:stedsnr" v="984535" />
	</node>
	<node id="-406841" lat="59.3997333374" lon="10.4111638841">
		<tag k="name" v="Rygland østre" />
>>>>>>> e1d4bc35ff8a6074a6f2e91616a996b547c36f15
		<tag k="place" v="farm" />
		<tag k="ssr:stedsnr" v="9665" />
	</node>
<<<<<<< HEAD
	<node lat="59.393630559557515" lon="10.464302781582807" id="-20724">
		<tag k="name" v="Eik" />
		<tag k="place" v="farm" />
		<tag k="ssr:stedsnr" v="25835" />
	</node>
	<node lat="59.38704999626196" lon="10.431566666335776" id="-20725">
		<tag k="fixme" v="consider place=hamlet" />
		<tag k="name" v="Sande østre" />
=======
	<node id="-406840" lat="59.4057694477" lon="10.4783194475">
		<tag k="building" v="industrial" />
		<tag k="industrial" v="factory" />
		<tag k="name" v="Horten bryggeri" />
		<tag k="ssr:stedsnr" v="935823" />
	</node>
	<node id="-406839" lat="59.4203555548" lon="10.4206499976">
		<tag k="name" v="Vik mellom" />
>>>>>>> e1d4bc35ff8a6074a6f2e91616a996b547c36f15
		<tag k="place" v="farm" />
		<tag k="ssr:stedsnr" v="25839" />
	</node>
<<<<<<< HEAD
	<node lat="59.426864288716295" lon="10.45940615698473" id="-20727">
		<tag k="name" v="Apenes" />
		<tag k="place" v="quarter" />
		<tag k="ssr:stedsnr" v="27886" />
	</node>
	<node lat="59.41188611427244" lon="10.3548111195255" id="-20735">
		<tag k="alt_name" v="Øvre Kjæran" />
		<tag k="fixme" v="consider place=hamlet" />
		<tag k="name" v="Kjærran øvre" />
=======
	<node id="-406837" lat="59.352597218" lon="10.4390527701">
		<tag k="name" v="Kjær" />
>>>>>>> e1d4bc35ff8a6074a6f2e91616a996b547c36f15
		<tag k="place" v="farm" />
		<tag k="ssr:stedsnr" v="32819" />
	</node>
<<<<<<< HEAD
	<node lat="59.41584444567993" lon="10.48543889170529" id="-20737">
		<tag k="building" v="civic" />
		<tag k="name" v="Politistasjon" />
		<tag k="ssr:stedsnr" v="41638" />
	</node>
	<node lat="59.43848611267395" lon="10.43659999841243" id="-20739">
		<tag k="name" v="Skavli" />
		<tag k="place" v="quarter" />
		<tag k="ssr:stedsnr" v="55637" />
	</node>
	<node lat="59.4268466139512" lon="10.463675003959166" id="-20740">
		<tag k="landuse" v="military" />
		<tag k="name" v="Sølvkronen" />
		<tag k="ssr:stedsnr" v="56742" />
	</node>
	<node lat="59.344269440540494" lon="10.468575007275817" id="-20743">
		<tag k="alt_name" v="Stang" />
		<tag k="fixme" v="consider place=hamlet" />
		<tag k="name" v="Store Stang" />
=======
	<node id="-406834" lat="59.3591638935" lon="10.4403888803">
		<tag k="name" v="Furuhaug" />
>>>>>>> e1d4bc35ff8a6074a6f2e91616a996b547c36f15
		<tag k="place" v="farm" />
		<tag k="ssr:stedsnr" v="63599" />
	</node>
<<<<<<< HEAD
	<node lat="59.443141666287396" lon="10.360094450276783" id="-20747">
		<tag k="fixme" v="consider place=hamlet" />
		<tag k="name" v="Haug" />
=======
	<node id="-406833" lat="59.3576555594" lon="10.4464500017">
		<tag k="name" v="Kirkenga" />
>>>>>>> e1d4bc35ff8a6074a6f2e91616a996b547c36f15
		<tag k="place" v="farm" />
		<tag k="ssr:stedsnr" v="63947" />
	</node>
<<<<<<< HEAD
	<node lat="59.438711115329596" lon="10.439022219782295" id="-20758">
		<tag k="name" v="Møllestua" />
=======
	<node id="-406832" lat="59.353052778" lon="10.4634333312">
		<tag k="name" v="Nygård" />
>>>>>>> e1d4bc35ff8a6074a6f2e91616a996b547c36f15
		<tag k="place" v="isolated_dwelling" />
		<tag k="ssr:stedsnr" v="87862" />
	</node>
<<<<<<< HEAD
	<node lat="59.37631944249773" lon="10.378444442508991" id="-20759">
		<tag k="name" v="Steinbjørnrød" />
=======
	<node id="-406831" lat="59.4063333291" lon="10.3903611119">
		<tag k="fixme" v="consider place=hamlet" />
		<tag k="name" v="Føske" />
>>>>>>> e1d4bc35ff8a6074a6f2e91616a996b547c36f15
		<tag k="place" v="farm" />
		<tag k="ssr:stedsnr" v="88697" />
	</node>
<<<<<<< HEAD
	<node lat="59.411444441516466" lon="10.358494436990838" id="-20760">
=======
	<node id="-406830" lat="59.3867694423" lon="10.4637916611">
		<tag k="alt_name" v="Voll;Nordre Vold" />
>>>>>>> e1d4bc35ff8a6074a6f2e91616a996b547c36f15
		<tag k="fixme" v="consider place=hamlet" />
		<tag k="name" v="Kjærran nedre" />
		<tag k="place" v="farm" />
		<tag k="ssr:stedsnr" v="88804" />
	</node>
<<<<<<< HEAD
	<node lat="59.357874996723524" lon="10.413538883341827" id="-20761">
=======
	<node id="-406829" lat="59.430519441" lon="10.3503555561">
		<tag k="alt_name" v="Ås nedre" />
>>>>>>> e1d4bc35ff8a6074a6f2e91616a996b547c36f15
		<tag k="fixme" v="consider place=hamlet" />
		<tag k="name" v="Adal søndre" />
		<tag k="place" v="farm" />
		<tag k="ssr:stedsnr" v="89415" />
	</node>
<<<<<<< HEAD
	<node lat="59.38188888763063" lon="10.456455547146373" id="-20762">
		<tag k="name" v="Borre" />
		<tag k="place" v="village" />
		<tag k="ssr:stedsnr" v="101283" />
	</node>
	<node lat="59.400477779738566" lon="10.43185000328309" id="-20763">
		<tag k="name" v="Ødegården" />
		<tag k="place" v="farm" />
		<tag k="ssr:stedsnr" v="123559" />
	</node>
	<node lat="59.433847219864276" lon="10.41811944528197" id="-20764">
		<tag k="alt_name" v="Vegge;Vegge søndre" />
=======
	<node id="-406828" lat="59.3767440382" lon="10.4401688117">
		<tag k="name" v="Glenne" />
		<tag k="place" v="hamlet" />
		<tag k="ssr:stedsnr" v="938380" />
	</node>
	<node id="-406827" lat="59.3609777759" lon="10.4117777847">
>>>>>>> e1d4bc35ff8a6074a6f2e91616a996b547c36f15
		<tag k="fixme" v="consider place=hamlet" />
		<tag k="name" v="Søndre Vegge" />
		<tag k="place" v="farm" />
		<tag k="ssr:stedsnr" v="123953" />
	</node>
<<<<<<< HEAD
	<node lat="59.43451109322673" lon="10.403597989821163" id="-20765">
		<tag k="fixme" v="consider place=hamlet" />
		<tag k="name" v="Åsen" />
=======
	<node id="-406825" lat="59.3547555588" lon="10.4484138803">
		<tag k="name" v="Koterød" />
>>>>>>> e1d4bc35ff8a6074a6f2e91616a996b547c36f15
		<tag k="place" v="farm" />
		<tag k="ssr:stedsnr" v="123954" />
	</node>
<<<<<<< HEAD
	<node lat="59.388124998697194" lon="10.417241660563972" id="-20766">
		<tag k="fixme" v="consider place=hamlet" />
		<tag k="name" v="Skoppum" />
=======
	<node id="-406824" lat="59.4237916685" lon="10.3867749962">
		<tag k="name" v="Myrvang" />
>>>>>>> e1d4bc35ff8a6074a6f2e91616a996b547c36f15
		<tag k="place" v="farm" />
		<tag k="ssr:stedsnr" v="124469" />
	</node>
<<<<<<< HEAD
	<node lat="59.392816664345965" lon="10.38600556064852" id="-20767">
		<tag k="alt_name" v="Gusland søndre" />
		<tag k="fixme" v="consider place=hamlet" />
		<tag k="name" v="Gusland" />
=======
	<node id="-406822" lat="59.3888472255" lon="10.4630749991">
		<tag k="name" v="Vold" />
>>>>>>> e1d4bc35ff8a6074a6f2e91616a996b547c36f15
		<tag k="place" v="farm" />
		<tag k="ssr:stedsnr" v="124473" />
	</node>
<<<<<<< HEAD
	<node lat="59.38731944830424" lon="10.39624166835318" id="-20768">
		<tag k="name" v="Løvås" />
=======
	<node id="-406821" lat="59.3819472225" lon="10.4378027792">
		<tag k="name" v="Glenne nedre" />
>>>>>>> e1d4bc35ff8a6074a6f2e91616a996b547c36f15
		<tag k="place" v="farm" />
		<tag k="ssr:stedsnr" v="124474" />
	</node>
<<<<<<< HEAD
	<node lat="59.392019440637014" lon="10.431391660783065" id="-20769">
		<tag k="alt_name" v="Kjær, nordre" />
=======
	<node id="-406820" lat="59.3994333329" lon="10.425647229">
>>>>>>> e1d4bc35ff8a6074a6f2e91616a996b547c36f15
		<tag k="fixme" v="consider place=hamlet" />
		<tag k="name" v="Nordre Kjær" />
		<tag k="place" v="farm" />
<<<<<<< HEAD
		<tag k="ssr:stedsnr" v="124479" />
	</node>
	<node lat="59.41961389081727" lon="10.487347219429335" id="-20770">
		<tag k="alt_name" v="Lystlunden" />
		<tag k="leisure" v="pitch" />
		<tag k="name" v="Lystlunden idrettsplass" />
		<tag k="ssr:stedsnr" v="123975" />
	</node>
	<node lat="59.41722777805701" lon="10.401047221695926" id="-20771">
=======
		<tag k="ssr:stedsnr" v="935842" />
	</node>
	<node id="-406815" lat="59.4393333299" lon="10.3695222141">
		<tag k="name" v="Freberg" />
		<tag k="place" v="hamlet" />
		<tag k="ssr:stedsnr" v="816855" />
	</node>
	<node id="-406813" lat="59.3519527749" lon="10.3942749957">
		<tag k="name" v="Tangsrød" />
		<tag k="place" v="isolated_dwelling" />
		<tag k="ssr:stedsnr" v="791560" />
	</node>
	<node id="-406808" lat="59.4132083336" lon="10.3855166679">
>>>>>>> e1d4bc35ff8a6074a6f2e91616a996b547c36f15
		<tag k="fixme" v="consider place=hamlet" />
		<tag k="name" v="Skreppedal" />
		<tag k="place" v="farm" />
		<tag k="ssr:stedsnr" v="123981" />
	</node>
<<<<<<< HEAD
	<node lat="59.34714721951535" lon="10.448025006486708" id="-20773">
		<tag k="leisure" v="pitch" />
		<tag k="name" v="Mellombanen" />
		<tag k="ssr:stedsnr" v="146783" />
	</node>
	<node lat="59.349872358377176" lon="10.4600488360983" id="-20774">
		<tag k="fixme" v="consider place=hamlet" />
		<tag k="name" v="Nygård" />
=======
	<node id="-406807" lat="59.4170555586" lon="10.3911611162">
		<tag k="fixme" v="consider place=hamlet" />
		<tag k="name" v="Prestegården" />
		<tag k="place" v="farm" />
		<tag k="ssr:stedsnr" v="913984" />
	</node>
	<node id="-406806" lat="59.4143361135" lon="10.4193472238">
		<tag k="fixme" v="consider place=hamlet" />
		<tag k="name" v="Haukeli" />
		<tag k="place" v="farm" />
		<tag k="ssr:stedsnr" v="913981" />
	</node>
	<node id="-406805" lat="59.4064182816" lon="10.3652076125">
		<tag k="name" v="Pauli" />
>>>>>>> e1d4bc35ff8a6074a6f2e91616a996b547c36f15
		<tag k="place" v="farm" />
		<tag k="ssr:stedsnr" v="146786" />
	</node>
<<<<<<< HEAD
	<node lat="59.39255555150561" lon="10.409419451354687" id="-20785">
		<tag k="name" v="Jahrelunden" />
=======
	<node id="-406804" lat="59.4209027772" lon="10.3422499936">
		<tag k="name" v="Bakke" />
>>>>>>> e1d4bc35ff8a6074a6f2e91616a996b547c36f15
		<tag k="place" v="farm" />
		<tag k="ssr:stedsnr" v="184533" />
	</node>
<<<<<<< HEAD
	<node lat="59.39171110735842" lon="10.465183334021239" id="-20786">
=======
	<node id="-406800" lat="59.416858329" lon="10.3623166641">
>>>>>>> e1d4bc35ff8a6074a6f2e91616a996b547c36f15
		<tag k="fixme" v="consider place=hamlet" />
		<tag k="name" v="Eik" />
		<tag k="place" v="farm" />
		<tag k="ssr:stedsnr" v="184537" />
	</node>
<<<<<<< HEAD
	<node lat="59.352508333662634" lon="10.45367777890588" id="-20788">
		<tag k="alt_name" v="Åsgarden" />
		<tag k="name" v="Åsgården" />
=======
	<node id="-406795" lat="59.3675416707" lon="10.4019638918">
		<tag k="name" v="Augedal" />
>>>>>>> e1d4bc35ff8a6074a6f2e91616a996b547c36f15
		<tag k="place" v="farm" />
		<tag k="ssr:stedsnr" v="184580" />
	</node>
<<<<<<< HEAD
	<node lat="59.34938333165874" lon="10.469483330268492" id="-20789">
		<tag k="name" v="Åsgårdstrand" />
		<tag k="place" v="town" />
		<tag k="ssr:stedsnr" v="184593" />
	</node>
	<node lat="59.437969446805326" lon="10.442624991635158" id="-20790">
		<tag k="name" v="Skavli" />
=======
	<node id="-406792" lat="59.3491666699" lon="10.4566777778">
		<tag k="amenity" v="school" />
		<tag k="name" v="Nygård skole" />
		<tag k="ssr:stedsnr" v="692814" />
	</node>
	<node id="-406791" lat="59.373886111" lon="10.4140666599">
		<tag k="name" v="Pjonkerød søndre" />
		<tag k="place" v="farm" />
		<tag k="ssr:stedsnr" v="882666" />
	</node>
	<node id="-406788" lat="59.3709805587" lon="10.4569194472">
		<tag k="name" v="Mastebakke" />
>>>>>>> e1d4bc35ff8a6074a6f2e91616a996b547c36f15
		<tag k="place" v="quarter" />
		<tag k="ssr:stedsnr" v="184923" />
	</node>
<<<<<<< HEAD
	<node lat="59.41472222337136" lon="10.367136104917702" id="-20791">
		<tag k="fixme" v="consider place=hamlet" />
		<tag k="name" v="Moskvil" />
		<tag k="place" v="farm" />
		<tag k="ssr:stedsnr" v="184974" />
	</node>
	<node lat="59.38505000443326" lon="10.406444438839108" id="-20792">
		<tag k="name" v="Reir" />
		<tag k="place" v="locality" />
		<tag k="ssr:stedsnr" v="207829" />
	</node>
	<node lat="59.38433055241136" lon="10.404269438239123" id="-20793">
		<tag k="name" v="Reir" />
		<tag k="place" v="farm" />
		<tag k="ssr:stedsnr" v="207830" />
	</node>
	<node lat="59.387125000260426" lon="10.41684444885192" id="-20794">
		<tag k="name" v="Skoppum" />
=======
	<node id="-406787" lat="59.4344333313" lon="10.4539527724">
		<tag k="name" v="Kjølhalskogen" />
		<tag k="place" v="quarter" />
		<tag k="ssr:stedsnr" v="662687" />
	</node>
	<node id="-406786" lat="59.3522499996" lon="10.4629416729">
		<tag k="name" v="Damåsen" />
		<tag k="place" v="quarter" />
		<tag k="ssr:stedsnr" v="662708" />
	</node>
	<node id="-406784" lat="59.4248444405" lon="10.4664972229">
		<tag k="fixme" v="consider place=suburb, village or hamlet" />
		<tag k="name" v="Keisemarka" />
		<tag k="place" v="quarter" />
		<tag k="ssr:stedsnr" v="647518" />
	</node>
	<node id="-406783" lat="59.4000277785" lon="10.430797217">
		<tag k="name" v="Eikelund" />
>>>>>>> e1d4bc35ff8a6074a6f2e91616a996b547c36f15
		<tag k="place" v="farm" />
		<tag k="ssr:stedsnr" v="207832" />
	</node>
<<<<<<< HEAD
	<node lat="59.39494721805816" lon="10.415158339179847" id="-20795">
		<tag k="name" v="Rygland søndre" />
=======
	<node id="-406781" lat="59.4125666663" lon="10.4001222153">
		<tag k="fixme" v="consider place=hamlet" />
		<tag k="name" v="Guttulfsrød" />
>>>>>>> e1d4bc35ff8a6074a6f2e91616a996b547c36f15
		<tag k="place" v="farm" />
		<tag k="ssr:stedsnr" v="207834" />
	</node>
<<<<<<< HEAD
	<node lat="59.398786108451915" lon="10.37451110363505" id="-20796">
		<tag k="alt_name" v="Brekke øvre" />
		<tag k="name" v="Øvre Brekke" />
=======
	<node id="-406780" lat="59.354919441" lon="10.4110916685">
		<tag k="alt_name" v="Sti, nordre;Sti nedre" />
		<tag k="name" v="Nordre Sti" />
>>>>>>> e1d4bc35ff8a6074a6f2e91616a996b547c36f15
		<tag k="place" v="farm" />
		<tag k="ssr:stedsnr" v="209784" />
	</node>
<<<<<<< HEAD
	<node lat="59.367775002985795" lon="10.462397230358972" id="-20800">
		<tag k="name" v="Vestmannrød" />
		<tag k="place" v="farm" />
		<tag k="ssr:stedsnr" v="284047" />
	</node>
	<node lat="59.36318055330395" lon="10.446111113068206" id="-20801">
=======
	<node id="-406779" lat="59.386127779" lon="10.4107749976">
		<tag k="name" v="Skoppum" />
		<tag k="place" v="village" />
		<tag k="ssr:stedsnr" v="730591" />
	</node>
	<node id="-406778" lat="59.3793638912" lon="10.389311107">
>>>>>>> e1d4bc35ff8a6074a6f2e91616a996b547c36f15
		<tag k="fixme" v="consider place=hamlet" />
		<tag k="name" v="Fjugstad" />
		<tag k="place" v="farm" />
<<<<<<< HEAD
		<tag k="ssr:stedsnr" v="305614" />
	</node>
	<node lat="59.36503889335557" lon="10.4026249979174" id="-20802">
		<tag k="alt_name" v="Adal vestre" />
=======
		<tag k="ssr:stedsnr" v="730589" />
	</node>
	<node id="-406772" lat="59.3547472197" lon="10.4588277699">
		<tag k="name" v="Koterød" />
		<tag k="place" v="isolated_dwelling" />
		<tag k="ssr:stedsnr" v="723772" />
	</node>
	<node id="-406771" lat="59.4110000004" lon="10.3570499969">
		<tag k="name" v="Kjærran" />
		<tag k="place" v="hamlet" />
		<tag k="ssr:stedsnr" v="609980" />
	</node>
	<node id="-406769" lat="59.4272833375" lon="10.4381305506">
		<tag k="name" v="Ramsli" />
		<tag k="place" v="locality" />
		<tag k="ssr:stedsnr" v="608989" />
	</node>
	<node id="-406768" lat="59.4306388883" lon="10.4167083308">
>>>>>>> e1d4bc35ff8a6074a6f2e91616a996b547c36f15
		<tag k="fixme" v="consider place=hamlet" />
		<tag k="name" v="Adal" />
		<tag k="place" v="farm" />
		<tag k="ssr:stedsnr" v="305619" />
	</node>
<<<<<<< HEAD
	<node lat="59.35427500095987" lon="10.434405553419724" id="-20803">
		<tag k="name" v="Ra" />
=======
	<node id="-406766" lat="59.3829249959" lon="10.3845972262">
		<tag k="name" v="Solheim" />
>>>>>>> e1d4bc35ff8a6074a6f2e91616a996b547c36f15
		<tag k="place" v="farm" />
		<tag k="ssr:stedsnr" v="305626" />
	</node>
<<<<<<< HEAD
	<node lat="59.42600555307269" lon="10.363361102812602" id="-20804">
=======
	<node id="-406765" lat="59.381433334" lon="10.3818388889">
		<tag k="alt_name" v="Steinbjørnrød" />
>>>>>>> e1d4bc35ff8a6074a6f2e91616a996b547c36f15
		<tag k="fixme" v="consider place=hamlet" />
		<tag k="name" v="Kopstad" />
		<tag k="place" v="farm" />
		<tag k="ssr:stedsnr" v="305992" />
	</node>
<<<<<<< HEAD
	<node lat="59.408205551100366" lon="10.422597224290184" id="-20806">
		<tag k="name" v="Bergstad" />
=======
	<node id="-406764" lat="59.3598666647" lon="10.4068083402">
		<tag k="name" v="Adal" />
>>>>>>> e1d4bc35ff8a6074a6f2e91616a996b547c36f15
		<tag k="place" v="farm" />
		<tag k="ssr:stedsnr" v="306467" />
	</node>
<<<<<<< HEAD
	<node lat="59.410574996543" lon="10.391611107416646" id="-20807">
		<tag k="name" v="Rønningen" />
		<tag k="place" v="farm" />
		<tag k="ssr:stedsnr" v="306469" />
	</node>
	<node lat="59.41976388701899" lon="10.486663889755915" id="-20809">
		<tag k="leisure" v="pitch" />
		<tag k="name" v="Horten stadion Gressbanen" />
		<tag k="ssr:stedsnr" v="328833" />
	</node>
	<node lat="59.38904999628574" lon="10.465180562604248" id="-20810">
		<tag k="name" v="Vold" />
=======
	<node id="-406762" lat="59.4145805519" lon="10.4899277782">
		<tag k="building" v="civic" />
		<tag k="name" v="Horten havnevesen" />
		<tag k="ssr:stedsnr" v="708634" />
	</node>
	<node id="-406759" lat="59.4243499972" lon="10.3576833402">
		<tag k="name" v="Soleglad" />
>>>>>>> e1d4bc35ff8a6074a6f2e91616a996b547c36f15
		<tag k="place" v="farm" />
		<tag k="ssr:stedsnr" v="328850" />
	</node>
<<<<<<< HEAD
	<node lat="59.37921944253948" lon="10.458369451468862" id="-20811">
		<tag k="name" v="Hallingstad" />
		<tag k="place" v="farm" />
		<tag k="ssr:stedsnr" v="328797" />
	</node>
	<node lat="59.36921944431279" lon="10.384986104054212" id="-20812">
		<tag k="name" v="Ødegården" />
=======
	<node id="-406758" lat="59.431505552" lon="10.3616583284">
		<tag k="name" v="Bollerud" />
		<tag k="place" v="locality" />
		<tag k="ssr:stedsnr" v="695836" />
	</node>
	<node id="-406757" lat="59.4166861145" lon="10.3398499991">
		<tag k="name" v="Askim" />
>>>>>>> e1d4bc35ff8a6074a6f2e91616a996b547c36f15
		<tag k="place" v="farm" />
		<tag k="ssr:stedsnr" v="331375" />
	</node>
<<<<<<< HEAD
	<node lat="59.38602500228013" lon="10.475294448130382" id="-20817">
		<tag k="name" v="Birkely" />
		<tag k="place" v="quarter" />
		<tag k="ssr:stedsnr" v="358696" />
	</node>
	<node lat="59.3641249972071" lon="10.427183332081896" id="-20821">
		<tag k="alt_name" v="Adal østre" />
=======
	<node id="-406756" lat="59.3564111116" lon="10.3934027711">
		<tag k="name" v="Tangsrød" />
		<tag k="place" v="locality" />
		<tag k="ssr:stedsnr" v="695402" />
	</node>
	<node id="-406754" lat="59.3661027788" lon="10.4024722276">
>>>>>>> e1d4bc35ff8a6074a6f2e91616a996b547c36f15
		<tag k="fixme" v="consider place=hamlet" />
		<tag k="name" v="Adal" />
		<tag k="place" v="farm" />
		<tag k="ssr:stedsnr" v="366577" />
	</node>
<<<<<<< HEAD
	<node lat="59.40179721957649" lon="10.353891666844369" id="-20822">
		<tag k="alt_name" v="Kjettetorp" />
		<tag k="fixme" v="consider place=hamlet" />
		<tag k="name" v="Kjettorp" />
=======
	<node id="-406747" lat="59.3925638885" lon="10.4652333306">
		<tag k="name" v="Eik" />
>>>>>>> e1d4bc35ff8a6074a6f2e91616a996b547c36f15
		<tag k="place" v="farm" />
		<tag k="ssr:stedsnr" v="366525" />
	</node>
	<node lat="59.44112222146043" lon="10.429461103116106" id="-20823">
		<tag k="fixme" v="consider place=hamlet" />
		<tag k="name" v="Falkensten" />
		<tag k="place" v="farm" />
		<tag k="ssr:stedsnr" v="366936" />
	</node>
<<<<<<< HEAD
	<node lat="59.383580137606806" lon="10.41369232330578" id="-20826">
=======
	<node id="-406744" lat="59.3979555539" lon="10.4621083251">
>>>>>>> e1d4bc35ff8a6074a6f2e91616a996b547c36f15
		<tag k="amenity" v="school" />
		<tag k="name" v="Lysheim skole" />
		<tag k="ssr:stedsnr" v="389829" />
	</node>
<<<<<<< HEAD
	<node lat="59.359361111834005" lon="10.452638883250415" id="-20832">
		<tag k="name" v="Jutestrand" />
		<tag k="place" v="farm" />
		<tag k="ssr:stedsnr" v="392849" />
	</node>
	<node lat="59.42844444501428" lon="10.482141673083461" id="-20834">
		<tag k="building" v="industrial" />
		<tag k="industrial" v="factory" />
		<tag k="name" v="Horten verft" />
		<tag k="ssr:stedsnr" v="427926" />
	</node>
	<node lat="59.40818055169045" lon="10.459925001907665" id="-20836">
		<tag k="name" v="Holtan" />
=======
	<node id="-406743" lat="59.4172138895" lon="10.4834361075">
		<tag k="name" v="Horten" />
		<tag k="place" v="town" />
		<tag k="ssr:stedsnr" v="692216" />
	</node>
	<node id="-406741" lat="59.4102277787" lon="10.3666388848">
		<tag k="alt_name" v="Mosekvisl;Moskvil;Moskvil, søndre" />
		<tag k="fixme" v="consider place=hamlet" />
		<tag k="name" v="Søndre Moskvil" />
>>>>>>> e1d4bc35ff8a6074a6f2e91616a996b547c36f15
		<tag k="place" v="farm" />
		<tag k="ssr:stedsnr" v="427523" />
	</node>
<<<<<<< HEAD
	<node lat="59.39934166332044" lon="10.420549997959881" id="-20837">
		<tag k="alt_name" v="Solberg" />
=======
	<node id="-406738" lat="59.3918611142" lon="10.3948749984">
>>>>>>> e1d4bc35ff8a6074a6f2e91616a996b547c36f15
		<tag k="fixme" v="consider place=hamlet" />
		<tag k="name" v="Mellom Solberg" />
		<tag k="place" v="farm" />
		<tag k="ssr:stedsnr" v="427528" />
	</node>
<<<<<<< HEAD
	<node lat="59.386416666203026" lon="10.42629444724993" id="-20838">
=======
	<node id="-406737" lat="59.422407266" lon="10.3752147946">
>>>>>>> e1d4bc35ff8a6074a6f2e91616a996b547c36f15
		<tag k="fixme" v="consider place=hamlet" />
		<tag k="name" v="Vestre Sande" />
		<tag k="place" v="farm" />
		<tag k="ssr:stedsnr" v="427536" />
	</node>
<<<<<<< HEAD
	<node lat="59.3894722186709" lon="10.427477786220981" id="-20839">
		<tag k="alt_name" v="Sande nordre" />
=======
	<node id="-406736" lat="59.4310444427" lon="10.3546444494">
		<tag k="alt_name" v="Ås øvre;Ås" />
>>>>>>> e1d4bc35ff8a6074a6f2e91616a996b547c36f15
		<tag k="fixme" v="consider place=hamlet" />
		<tag k="name" v="Sande bruk" />
		<tag k="place" v="farm" />
		<tag k="ssr:stedsnr" v="427537" />
	</node>
<<<<<<< HEAD
	<node lat="59.36863888601725" lon="10.430874997719647" id="-20840">
=======
	<node id="-406735" lat="59.4286833322" lon="10.3940111123">
		<tag k="alt_name" v="Skåne søndre" />
>>>>>>> e1d4bc35ff8a6074a6f2e91616a996b547c36f15
		<tag k="fixme" v="consider place=hamlet" />
		<tag k="name" v="Friberg" />
		<tag k="place" v="farm" />
		<tag k="ssr:stedsnr" v="427563" />
	</node>
<<<<<<< HEAD
	<node lat="59.431149996488166" lon="10.42401665854703" id="-20841">
=======
	<node id="-406733" lat="59.3681666626" lon="10.4149472146">
		<tag k="alt_name" v="Bergan nordre" />
>>>>>>> e1d4bc35ff8a6074a6f2e91616a996b547c36f15
		<tag k="fixme" v="consider place=hamlet" />
		<tag k="name" v="Kotterød" />
		<tag k="place" v="farm" />
<<<<<<< HEAD
		<tag k="ssr:stedsnr" v="427939" />
	</node>
	<node lat="59.351436110747834" lon="10.437686117702041" id="-20842">
		<tag k="fixme" v="consider place=hamlet" />
		<tag k="name" v="Kjær ytre" />
=======
		<tag k="ssr:stedsnr" v="669573" />
	</node>
	<node id="-406730" lat="59.4141722261" lon="10.4713388951">
		<tag k="amenity" v="hospital" />
		<tag k="name" v="Horten sykehus" />
		<tag k="ssr:stedsnr" v="465625" />
	</node>
	<node id="-406727" lat="59.4223499996" lon="10.4426999925">
		<tag k="name" v="Kongsten" />
>>>>>>> e1d4bc35ff8a6074a6f2e91616a996b547c36f15
		<tag k="place" v="farm" />
		<tag k="ssr:stedsnr" v="510839" />
	</node>
<<<<<<< HEAD
	<node lat="59.35204999629005" lon="10.443541666194257" id="-20843">
=======
	<node id="-406718" lat="59.3520499963" lon="10.4435416662">
>>>>>>> e1d4bc35ff8a6074a6f2e91616a996b547c36f15
		<tag k="name" v="Øvre Åsgården" />
		<tag k="place" v="farm" />
		<tag k="ssr:stedsnr" v="510841" />
	</node>
<<<<<<< HEAD
	<node lat="59.39856944258913" lon="10.391238889837743" id="-20845">
		<tag k="name" v="Støkke" />
		<tag k="place" v="farm" />
		<tag k="ssr:stedsnr" v="510858" />
	</node>
	<node lat="59.396505557298944" lon="10.384980564194366" id="-20846">
=======
	<node id="-406717" lat="59.3514361107" lon="10.4376861177">
>>>>>>> e1d4bc35ff8a6074a6f2e91616a996b547c36f15
		<tag k="fixme" v="consider place=hamlet" />
		<tag k="name" v="Gusland nordre" />
		<tag k="place" v="farm" />
		<tag k="ssr:stedsnr" v="510860" />
	</node>
<<<<<<< HEAD
	<node lat="59.44120000293642" lon="10.429783339558327" id="-20849">
=======
	<node id="-406716" lat="59.4412000029" lon="10.4297833396">
>>>>>>> e1d4bc35ff8a6074a6f2e91616a996b547c36f15
		<tag k="building" v="industrial" />
		<tag k="industrial" v="factory" />
		<tag k="name" v="Falkensten" />
		<tag k="ssr:stedsnr" v="510882" />
	</node>
<<<<<<< HEAD
	<node lat="59.35840092811318" lon="10.465006655074486" id="-20851">
		<tag k="name" v="Skogstua" />
=======
	<node id="-406713" lat="59.3965055573" lon="10.3849805642">
		<tag k="fixme" v="consider place=hamlet" />
		<tag k="name" v="Gusland nordre" />
>>>>>>> e1d4bc35ff8a6074a6f2e91616a996b547c36f15
		<tag k="place" v="farm" />
		<tag k="ssr:stedsnr" v="523041" />
	</node>
<<<<<<< HEAD
	<node lat="59.41872005478279" lon="10.344268305194985" id="-20854">
		<tag k="fixme" v="multiple name tags, choose one and add the other to alt_name; consider place=hamlet" />
		<tag k="name" v="Jalland;Drengløs" />
=======
	<node id="-406712" lat="59.3985694426" lon="10.3912388898">
		<tag k="name" v="Støkke" />
>>>>>>> e1d4bc35ff8a6074a6f2e91616a996b547c36f15
		<tag k="place" v="farm" />
		<tag k="ssr:stedsnr" v="548975" />
	</node>
<<<<<<< HEAD
	<node lat="59.43723333200741" lon="10.378694447309849" id="-20855">
=======
	<node id="-406706" lat="59.3973805596" lon="10.4357500081">
		<tag k="alt_name" v="Øvre Toen" />
>>>>>>> e1d4bc35ff8a6074a6f2e91616a996b547c36f15
		<tag k="fixme" v="consider place=hamlet" />
		<tag k="name" v="Tveitan" />
		<tag k="place" v="farm" />
<<<<<<< HEAD
		<tag k="ssr:stedsnr" v="548930" />
	</node>
	<node lat="59.44173055645032" lon="10.397533339070687" id="-20856">
		<tag k="alt_name" v="Vegge;Vegge nordre" />
=======
		<tag k="ssr:stedsnr" v="488489" />
	</node>
	<node id="-406703" lat="59.4275249994" lon="10.4455999989">
		<tag k="name" v="Dampejordet" />
		<tag k="place" v="isolated_dwelling" />
		<tag k="ssr:stedsnr" v="487988" />
	</node>
	<node id="-406702" lat="59.4184194444" lon="10.4518166712">
		<tag k="name" v="Holtan" />
		<tag k="place" v="isolated_dwelling" />
		<tag k="ssr:stedsnr" v="487973" />
	</node>
	<node id="-406701" lat="59.4121694411" lon="10.378344445">
>>>>>>> e1d4bc35ff8a6074a6f2e91616a996b547c36f15
		<tag k="fixme" v="consider place=hamlet" />
		<tag k="name" v="Nordre Vegge" />
		<tag k="place" v="farm" />
		<tag k="ssr:stedsnr" v="548944" />
	</node>
<<<<<<< HEAD
	<node lat="59.424349997199144" lon="10.357683340167998" id="-20857">
		<tag k="name" v="Soleglad" />
=======
	<node id="-406700" lat="59.4405055593" lon="10.3690944498">
		<tag k="fixme" v="consider place=hamlet" />
		<tag k="name" v="Freberg nordre" />
>>>>>>> e1d4bc35ff8a6074a6f2e91616a996b547c36f15
		<tag k="place" v="farm" />
		<tag k="ssr:stedsnr" v="548998" />
	</node>
<<<<<<< HEAD
	<node lat="59.373747226539194" lon="10.460536113538593" id="-20859">
		<tag k="name" v="Rishagerød" />
=======
	<node id="-406698" lat="59.3662749988" lon="10.402641671">
		<tag k="name" v="Solheim" />
>>>>>>> e1d4bc35ff8a6074a6f2e91616a996b547c36f15
		<tag k="place" v="farm" />
		<tag k="ssr:stedsnr" v="570801" />
	</node>
<<<<<<< HEAD
	<node lat="59.435969444074026" lon="10.380230557033432" id="-20869">
		<tag k="name" v="Tveitan" />
=======
	<node id="-406697" lat="59.3593888892" lon="10.4647388923">
		<tag k="name" v="Rosenville" />
>>>>>>> e1d4bc35ff8a6074a6f2e91616a996b547c36f15
		<tag k="place" v="farm" />
		<tag k="ssr:stedsnr" v="580565" />
	</node>
<<<<<<< HEAD
	<node lat="59.430886114764625" lon="10.379986112929029" id="-20870">
=======
	<node id="-406696" lat="59.3738611145" lon="10.4136416664">
>>>>>>> e1d4bc35ff8a6074a6f2e91616a996b547c36f15
		<tag k="fixme" v="consider place=hamlet" />
		<tag k="name" v="Nøklegård øvre" />
		<tag k="place" v="farm" />
		<tag k="ssr:stedsnr" v="580572" />
	</node>
<<<<<<< HEAD
	<node lat="59.349577782128605" lon="10.444888892412518" id="-20872">
		<tag k="name" v="Breidablikk" />
		<tag k="place" v="quarter" />
		<tag k="ssr:stedsnr" v="601683" />
	</node>
	<node lat="59.42108611402911" lon="10.383536110624135" id="-20873">
		<tag k="name" v="Klokkeråsen" />
		<tag k="place" v="quarter" />
		<tag k="ssr:stedsnr" v="604692" />
	</node>
	<node lat="59.36776111189995" lon="10.445477781949766" id="-20875">
		<tag k="alt_name" v="Vestmanrød" />
=======
	<node id="-406695" lat="59.4043555529" lon="10.4073138898">
		<tag k="alt_name" v="Nordre Rygland" />
>>>>>>> e1d4bc35ff8a6074a6f2e91616a996b547c36f15
		<tag k="fixme" v="consider place=hamlet" />
		<tag k="name" v="Vestmannrød" />
		<tag k="place" v="farm" />
		<tag k="ssr:stedsnr" v="608601" />
	</node>
<<<<<<< HEAD
	<node lat="59.38143333400535" lon="10.381838888899042" id="-20876">
		<tag k="alt_name" v="Steinbjørnrød" />
=======
	<node id="-406694" lat="59.4297083369" lon="10.3366583312">
		<tag k="alt_name" v="Bruserød" />
>>>>>>> e1d4bc35ff8a6074a6f2e91616a996b547c36f15
		<tag k="fixme" v="consider place=hamlet" />
		<tag k="name" v="Stenbjørnrød" />
		<tag k="place" v="farm" />
		<tag k="ssr:stedsnr" v="608584" />
	</node>
<<<<<<< HEAD
	<node lat="59.382924995867526" lon="10.384597226173872" id="-20877">
		<tag k="name" v="Solheim" />
		<tag k="place" v="farm" />
		<tag k="ssr:stedsnr" v="608585" />
	</node>
	<node lat="59.411000000395426" lon="10.357049996869966" id="-20878">
		<tag k="name" v="Kjærran" />
		<tag k="place" v="hamlet" />
		<tag k="ssr:stedsnr" v="609980" />
	</node>
	<node lat="59.41576388747433" lon="10.396027773444795" id="-20879">
		<tag k="fixme" v="consider place=hamlet" />
		<tag k="name" v="Knatten" />
=======
	<node id="-406693" lat="59.4314444402" lon="10.4488166719">
		<tag k="name" v="Nordli" />
		<tag k="place" v="quarter" />
		<tag k="ssr:stedsnr" v="480679" />
	</node>
	<node id="-406692" lat="59.419763887" lon="10.4866638898">
		<tag k="leisure" v="pitch" />
		<tag k="name" v="Horten stadion Gressbanen" />
		<tag k="ssr:stedsnr" v="328833" />
	</node>
	<node id="-406691" lat="59.3557750037" lon="10.4375527847">
		<tag k="name" v="Ra" />
>>>>>>> e1d4bc35ff8a6074a6f2e91616a996b547c36f15
		<tag k="place" v="farm" />
		<tag k="ssr:stedsnr" v="609985" />
	</node>
<<<<<<< HEAD
	<node lat="59.359866664655605" lon="10.406808340150635" id="-20880">
		<tag k="name" v="Adal" />
		<tag k="place" v="farm" />
		<tag k="ssr:stedsnr" v="608604" />
	</node>
	<node lat="59.40022500010083" lon="10.407672222723193" id="-20882">
		<tag k="fixme" v="consider place=hamlet" />
		<tag k="name" v="Olsmyra" />
		<tag k="place" v="farm" />
		<tag k="ssr:stedsnr" v="609480" />
	</node>
	<node lat="59.38764444331307" lon="10.463783324744961" id="-20883">
		<tag k="name" v="Vold" />
=======
	<node id="-406683" lat="59.3921861092" lon="10.4789777777">
		<tag k="amenity" v="school" />
		<tag k="name" v="RS Noatun" />
		<tag k="ssr:stedsnr" v="451241" />
	</node>
	<node id="-406682" lat="59.4467583372" lon="10.4406472281">
		<tag k="name" v="Vadfiskerstua" />
		<tag k="place" v="isolated_dwelling" />
		<tag k="ssr:stedsnr" v="450850" />
	</node>
	<node id="-406678" lat="59.3888638916" lon="10.3853138876">
		<tag k="name" v="Kongelv" />
>>>>>>> e1d4bc35ff8a6074a6f2e91616a996b547c36f15
		<tag k="place" v="farm" />
		<tag k="ssr:stedsnr" v="631859" />
	</node>
<<<<<<< HEAD
	<node lat="59.43109722594965" lon="10.392108340985118" id="-20884">
		<tag k="fixme" v="consider place=hamlet" />
		<tag k="name" v="Skåne nordre" />
=======
	<node id="-406672" lat="59.4400416702" lon="10.3506638944">
		<tag k="name" v="Tangen" />
>>>>>>> e1d4bc35ff8a6074a6f2e91616a996b547c36f15
		<tag k="place" v="farm" />
		<tag k="ssr:stedsnr" v="631862" />
	</node>
<<<<<<< HEAD
	<node lat="59.42484444053817" lon="10.466497222885662" id="-20889">
		<tag k="fixme" v="consider place=suburb, village or hamlet" />
		<tag k="name" v="Keisemarka" />
		<tag k="place" v="quarter" />
		<tag k="ssr:stedsnr" v="647518" />
	</node>
	<node lat="59.43443333128888" lon="10.45395277235745" id="-20892">
		<tag k="name" v="Kjølhalskogen" />
		<tag k="place" v="quarter" />
		<tag k="ssr:stedsnr" v="662687" />
	</node>
	<node lat="59.370980558744506" lon="10.456919447207206" id="-20893">
		<tag k="name" v="Mastebakke" />
=======
	<node id="-406671" lat="59.3790055566" lon="10.460591674">
		<tag k="name" v="Hallingstad" />
		<tag k="place" v="quarter" />
		<tag k="ssr:stedsnr" v="180671" />
	</node>
	<node id="-406670" lat="59.367775003" lon="10.4623972304">
		<tag k="name" v="Vestmannrød" />
		<tag k="place" v="isolated_dwelling" />
		<tag k="ssr:stedsnr" v="284047" />
	</node>
	<node id="-406667" lat="59.3849555565" lon="10.4053916638">
		<tag k="leisure" v="park" />
		<tag k="name" v="Reirparken" />
		<tag k="ssr:stedsnr" v="274827" />
	</node>
	<node id="-406666" lat="59.3837138886" lon="10.4097944526">
		<tag k="name" v="Tokerød" />
>>>>>>> e1d4bc35ff8a6074a6f2e91616a996b547c36f15
		<tag k="place" v="quarter" />
		<tag k="ssr:stedsnr" v="662689" />
	</node>
<<<<<<< HEAD
	<node lat="59.422349999554555" lon="10.442699992546363" id="-20894">
		<tag k="name" v="Kongsten" />
=======
	<node id="-406664" lat="59.3777055579" lon="10.403422226">
		<tag k="name" v="Viulsrød" />
>>>>>>> e1d4bc35ff8a6074a6f2e91616a996b547c36f15
		<tag k="place" v="farm" />
		<tag k="ssr:stedsnr" v="664966" />
	</node>
<<<<<<< HEAD
	<node lat="59.41256666632571" lon="10.400122215272479" id="-20900">
=======
	<node id="-406662" lat="59.4054777771" lon="10.3791138802">
>>>>>>> e1d4bc35ff8a6074a6f2e91616a996b547c36f15
		<tag k="fixme" v="consider place=hamlet" />
		<tag k="name" v="Guttulfsrød" />
		<tag k="place" v="farm" />
		<tag k="ssr:stedsnr" v="730529" />
	</node>
<<<<<<< HEAD
	<node lat="59.37936389119297" lon="10.389311107043692" id="-20902">
		<tag k="fixme" v="consider place=hamlet" />
		<tag k="name" v="Råen" />
=======
	<node id="-406656" lat="59.4018305523" lon="10.4255111195">
		<tag k="alt_name" v="Solberg østre" />
		<tag k="name" v="Solberg" />
>>>>>>> e1d4bc35ff8a6074a6f2e91616a996b547c36f15
		<tag k="place" v="farm" />
		<tag k="ssr:stedsnr" v="730589" />
	</node>
<<<<<<< HEAD
	<node lat="59.38612777900484" lon="10.410774997567824" id="-20903">
		<tag k="name" v="Skoppum" />
		<tag k="place" v="village" />
		<tag k="ssr:stedsnr" v="730591" />
	</node>
	<node lat="59.4354638890955" lon="10.429919447428157" id="-20908">
=======
	<node id="-406654" lat="59.3536722186" lon="10.437558328">
>>>>>>> e1d4bc35ff8a6074a6f2e91616a996b547c36f15
		<tag k="amenity" v="school" />
		<tag k="name" v="Falkensten skole" />
		<tag k="ssr:stedsnr" v="753835" />
	</node>
<<<<<<< HEAD
	<node lat="59.428913892708785" lon="10.379550003940883" id="-20909">
=======
	<node id="-406653" lat="59.418461114" lon="10.3720638848">
>>>>>>> e1d4bc35ff8a6074a6f2e91616a996b547c36f15
		<tag k="fixme" v="consider place=hamlet" />
		<tag k="name" v="Nøklegård nedre" />
		<tag k="place" v="farm" />
		<tag k="ssr:stedsnr" v="755838" />
	</node>
<<<<<<< HEAD
	<node lat="59.36568610772375" lon="10.416938889289018" id="-20911">
		<tag k="name" v="Bergan søndre" />
=======
	<node id="-406650" lat="59.3660972206" lon="10.3871499957">
		<tag k="fixme" v="consider place=hamlet" />
		<tag k="name" v="Ødegården" />
>>>>>>> e1d4bc35ff8a6074a6f2e91616a996b547c36f15
		<tag k="place" v="farm" />
		<tag k="ssr:stedsnr" v="756374" />
	</node>
<<<<<<< HEAD
	<node lat="59.351952774851334" lon="10.394274995666846" id="-20915">
		<tag k="name" v="Tangsrød" />
		<tag k="place" v="isolated_dwelling" />
		<tag k="ssr:stedsnr" v="791560" />
	</node>
	<node lat="59.384252774461096" lon="10.398125002777382" id="-20916">
		<tag k="name" v="Reir" />
=======
	<node id="-406648" lat="59.3703361152" lon="10.4430722256">
		<tag k="name" v="Fagerlund" />
		<tag k="place" v="farm" />
		<tag k="ssr:stedsnr" v="245536" />
	</node>
	<node id="-406647" lat="59.3732416656" lon="10.4285749954">
		<tag k="name" v="Kimestad" />
>>>>>>> e1d4bc35ff8a6074a6f2e91616a996b547c36f15
		<tag k="place" v="farm" />
		<tag k="ssr:stedsnr" v="791531" />
	</node>
<<<<<<< HEAD
	<node lat="59.38577778066299" lon="10.403608339363709" id="-20918">
		<tag k="name" v="Reir" />
=======
	<node id="-406645" lat="59.4037250023" lon="10.4048388957">
		<tag k="alt_name" v="Solberg vestre" />
		<tag k="name" v="Solberg" />
>>>>>>> e1d4bc35ff8a6074a6f2e91616a996b547c36f15
		<tag k="place" v="farm" />
		<tag k="ssr:stedsnr" v="814840" />
	</node>
<<<<<<< HEAD
	<node lat="59.40157777731069" lon="10.371541659383434" id="-20920">
=======
	<node id="-406644" lat="59.4431416663" lon="10.3600944503">
>>>>>>> e1d4bc35ff8a6074a6f2e91616a996b547c36f15
		<tag k="fixme" v="consider place=hamlet" />
		<tag k="name" v="Bergan" />
		<tag k="place" v="farm" />
<<<<<<< HEAD
		<tag k="ssr:stedsnr" v="816849" />
	</node>
	<node lat="59.43933332987328" lon="10.369522214122904" id="-20921">
		<tag k="name" v="Freberg" />
		<tag k="place" v="hamlet" />
		<tag k="ssr:stedsnr" v="816855" />
	</node>
	<node lat="59.37782222027906" lon="10.407180559553304" id="-20923">
=======
		<tag k="ssr:stedsnr" v="63947" />
	</node>
	<node id="-406642" lat="59.3485194403" lon="10.4559388909">
		<tag k="name" v="Øderydningen" />
		<tag k="place" v="quarter" />
		<tag k="ssr:stedsnr" v="237708" />
	</node>
	<node id="-406638" lat="59.3751222201" lon="10.3885749938">
		<tag k="name" v="Råen" />
		<tag k="place" v="farm" />
		<tag k="ssr:stedsnr" v="28409" />
	</node>
	<node id="-406637" lat="59.3600916673" lon="10.4261972194">
>>>>>>> e1d4bc35ff8a6074a6f2e91616a996b547c36f15
		<tag k="fixme" v="consider place=hamlet" />
		<tag k="name" v="Viulsrød" />
		<tag k="place" v="farm" />
<<<<<<< HEAD
		<tag k="ssr:stedsnr" v="817391" />
	</node>
	<node lat="59.378363893098225" lon="10.40165556321078" id="-20924">
		<tag k="name" v="Viulsrød" />
		<tag k="place" v="farm" />
		<tag k="ssr:stedsnr" v="817393" />
	</node>
	<node lat="59.36843888956422" lon="10.46005000382667" id="-20926">
		<tag k="name" v="Fuglesangen" />
=======
		<tag k="ssr:stedsnr" v="28406" />
	</node>
	<node id="-407108" lat="59.4293050233" lon="10.490639097">
		<tag k="landuse" v="military" />
		<tag k="name" v="Orlogshavna" />
		<tag k="ssr:stedsnr" v="986009" />
	</node>
	<node id="-407107" lat="59.4377373371" lon="10.3904848304">
		<tag k="fixme" v="consider place=hamlet" />
		<tag k="name" v="Teigen" />
		<tag k="place" v="farm" />
		<tag k="ssr:stedsnr" v="984709" />
	</node>
	<node id="-407106" lat="59.4299159747" lon="10.3801244171">
		<tag k="name" v="Nøklegård" />
		<tag k="place" v="hamlet" />
		<tag k="ssr:stedsnr" v="984662" />
	</node>
	<node id="-407105" lat="59.4309151938" lon="10.3522587016">
		<tag k="name" v="Ås" />
		<tag k="place" v="hamlet" />
		<tag k="ssr:stedsnr" v="984661" />
	</node>
	<node id="-407104" lat="59.3827634202" lon="10.5268618652">
		<tag k="name" v="Bastø" />
>>>>>>> e1d4bc35ff8a6074a6f2e91616a996b547c36f15
		<tag k="place" v="locality" />
		<tag k="ssr:stedsnr" v="817837" />
	</node>
<<<<<<< HEAD
	<node lat="59.38188889061058" lon="10.437963883200975" id="-20930">
		<tag k="name" v="Borre" />
		<tag k="place" v="farm" />
		<tag k="ssr:stedsnr" v="852540" />
	</node>
	<node lat="59.369083331244866" lon="10.404872220458655" id="-20931">
		<tag k="name" v="Skogly" />
=======
	<node id="-407103" lat="59.3833101513" lon="10.4598602327">
		<tag k="fixme" v="consider place=hamlet" />
		<tag k="name" v="Vasmarken" />
		<tag k="place" v="farm" />
		<tag k="ssr:stedsnr" v="984505" />
	</node>
	<node id="-407102" lat="59.3739062586" lon="10.4373690454">
		<tag k="name" v="Øvre Glenne" />
		<tag k="place" v="locality" />
		<tag k="ssr:stedsnr" v="984502" />
	</node>
	<node id="-407100" lat="59.4154722234" lon="10.48508611">
		<tag k="amenity" v="townhall" />
		<tag k="name" v="Rådhuset" />
		<tag k="ssr:stedsnr" v="951650" />
	</node>
	<node id="-407098" lat="59.3825361148" lon="10.4555500058">
		<tag k="name" v="Kirkebakken" />
		<tag k="place" v="quarter" />
		<tag k="ssr:stedsnr" v="874845" />
	</node>
	<node id="-407095" lat="59.4257027769" lon="10.3940305517">
		<tag k="name" v="Utheim" />
>>>>>>> e1d4bc35ff8a6074a6f2e91616a996b547c36f15
		<tag k="place" v="farm" />
		<tag k="ssr:stedsnr" v="852550" />
	</node>
<<<<<<< HEAD
	<node lat="59.42207499583079" lon="10.422149993433237" id="-20932">
=======
	<node id="-407094" lat="59.4220749958" lon="10.4221499934">
>>>>>>> e1d4bc35ff8a6074a6f2e91616a996b547c36f15
		<tag k="alt_name" v="Vik" />
		<tag k="fixme" v="consider place=hamlet" />
		<tag k="name" v="Vik nordre" />
		<tag k="place" v="farm" />
		<tag k="ssr:stedsnr" v="852990" />
	</node>
<<<<<<< HEAD
	<node lat="59.44460158650864" lon="10.353921616514608" id="-20934">
=======
	<node id="-407093" lat="59.4446015865" lon="10.3539216165">
>>>>>>> e1d4bc35ff8a6074a6f2e91616a996b547c36f15
		<tag k="fixme" v="consider place=hamlet" />
		<tag k="name" v="Tangen" />
		<tag k="place" v="farm" />
		<tag k="ssr:stedsnr" v="852943" />
	</node>
<<<<<<< HEAD
	<node lat="59.42570277692337" lon="10.394030551730326" id="-20935">
		<tag k="name" v="Utheim" />
=======
	<node id="-407091" lat="59.3690833312" lon="10.4048722205">
		<tag k="name" v="Skogly" />
>>>>>>> e1d4bc35ff8a6074a6f2e91616a996b547c36f15
		<tag k="place" v="farm" />
		<tag k="ssr:stedsnr" v="852994" />
	</node>
<<<<<<< HEAD
	<node lat="59.3576555593928" lon="10.446450001702079" id="-20937">
		<tag k="name" v="Kirkenga" />
=======
	<node id="-407090" lat="59.3818888906" lon="10.4379638832">
		<tag k="name" v="Borre" />
>>>>>>> e1d4bc35ff8a6074a6f2e91616a996b547c36f15
		<tag k="place" v="farm" />
		<tag k="ssr:stedsnr" v="874807" />
	</node>
<<<<<<< HEAD
	<node lat="59.359163893478296" lon="10.440388880346008" id="-20938">
		<tag k="name" v="Furuhaug" />
		<tag k="place" v="farm" />
		<tag k="ssr:stedsnr" v="874812" />
	</node>
	<node lat="59.382536114774815" lon="10.455550005820932" id="-20940">
		<tag k="name" v="Kirkebakken" />
		<tag k="place" v="quarter" />
		<tag k="ssr:stedsnr" v="874845" />
	</node>
	<node lat="59.42379166848742" lon="10.386774996194061" id="-20944">
		<tag k="name" v="Myrvang" />
=======
	<node id="-407089" lat="59.4348055519" lon="10.4470027849">
		<tag k="name" v="Evjeåsen" />
		<tag k="place" v="quarter" />
		<tag k="ssr:stedsnr" v="844682" />
	</node>
	<node id="-407085" lat="59.3684388896" lon="10.4600500038">
		<tag k="name" v="Fuglesangen" />
		<tag k="place" v="locality" />
		<tag k="ssr:stedsnr" v="817837" />
	</node>
	<node id="-407084" lat="59.3783638931" lon="10.4016555632">
		<tag k="name" v="Viulsrød" />
>>>>>>> e1d4bc35ff8a6074a6f2e91616a996b547c36f15
		<tag k="place" v="farm" />
		<tag k="ssr:stedsnr" v="937890" />
	</node>
<<<<<<< HEAD
	<node lat="59.354755558784234" lon="10.448413880338759" id="-20945">
		<tag k="name" v="Koterød" />
=======
	<node id="-407083" lat="59.3778222203" lon="10.4071805596">
		<tag k="fixme" v="consider place=hamlet" />
		<tag k="name" v="Viulsrød" />
>>>>>>> e1d4bc35ff8a6074a6f2e91616a996b547c36f15
		<tag k="place" v="farm" />
		<tag k="ssr:stedsnr" v="938090" />
	</node>
<<<<<<< HEAD
	<node lat="59.360977775874645" lon="10.411777784666741" id="-20947">
=======
	<node id="-407080" lat="59.4015777773" lon="10.3715416594">
>>>>>>> e1d4bc35ff8a6074a6f2e91616a996b547c36f15
		<tag k="fixme" v="consider place=hamlet" />
		<tag k="name" v="Adal mellom" />
		<tag k="place" v="farm" />
		<tag k="ssr:stedsnr" v="938377" />
	</node>
<<<<<<< HEAD
	<node lat="59.37674403821155" lon="10.440168811656036" id="-20948">
		<tag k="name" v="Glenne" />
		<tag k="place" v="hamlet" />
		<tag k="ssr:stedsnr" v="938380" />
	</node>
	<node lat="59.415472223357455" lon="10.485086110014619" id="-20950">
		<tag k="amenity" v="townhall" />
		<tag k="name" v="Rådhuset" />
		<tag k="ssr:stedsnr" v="951650" />
	</node>
	<node lat="59.38668177558868" lon="10.462975475303443" id="-20953">
		<tag k="name" v="Vold" />
		<tag k="place" v="hamlet" />
		<tag k="ssr:stedsnr" v="984536" />
	</node>
	<node lat="59.405669358004324" lon="10.466535297649028" id="-20954">
=======
	<node id="-407078" lat="59.4227805538" lon="10.3841694362">
		<tag k="name" v="Nykirke" />
		<tag k="place" v="village" />
		<tag k="ssr:stedsnr" v="813200" />
	</node>
	<node id="-407076" lat="59.3857777807" lon="10.4036083394">
		<tag k="name" v="Reir" />
		<tag k="place" v="farm" />
		<tag k="ssr:stedsnr" v="814840" />
	</node>
	<node id="-407075" lat="59.4323416657" lon="10.3774027747">
		<tag k="alt_name" v="Nøklegård øvre" />
		<tag k="name" v="Nøklegård" />
		<tag k="place" v="farm" />
		<tag k="ssr:stedsnr" v="791937" />
	</node>
	<node id="-407074" lat="59.3794833327" lon="10.4441722204">
		<tag k="alt_name" v="Glenne østre;Nedre Glenne" />
>>>>>>> e1d4bc35ff8a6074a6f2e91616a996b547c36f15
		<tag k="fixme" v="consider place=hamlet" />
		<tag k="name" v="Baggerød" />
		<tag k="place" v="farm" />
		<tag k="ssr:stedsnr" v="984537" />
	</node>
<<<<<<< HEAD
	<node lat="59.42266715367662" lon="10.421275137165976" id="-20955">
		<tag k="name" v="Vik" />
		<tag k="place" v="hamlet" />
		<tag k="ssr:stedsnr" v="984538" />
	</node>
	<node lat="59.40015256188195" lon="10.415331785881504" id="-20956">
=======
	<node id="-407073" lat="59.3842527745" lon="10.3981250028">
		<tag k="name" v="Reir" />
		<tag k="place" v="farm" />
		<tag k="ssr:stedsnr" v="791531" />
	</node>
	<node id="-407072" lat="59.3999572006" lon="10.4617504467">
>>>>>>> e1d4bc35ff8a6074a6f2e91616a996b547c36f15
		<tag k="fixme" v="consider place=hamlet" />
		<tag k="name" v="Vestre Solberg" />
		<tag k="place" v="farm" />
		<tag k="ssr:stedsnr" v="984539" />
	</node>
<<<<<<< HEAD
	<node lat="59.39849145625152" lon="10.419999429421859" id="-20957">
		<tag k="name" v="Solberg" />
		<tag k="place" v="hamlet" />
		<tag k="ssr:stedsnr" v="984540" />
	</node>
	<node lat="59.39587488690549" lon="10.405608313371323" id="-20958">
		<tag k="name" v="Søndre Rygland" />
		<tag k="place" v="locality" />
		<tag k="ssr:stedsnr" v="984541" />
	</node>
	<node lat="59.388268690829385" lon="10.42796090578957" id="-20959">
		<tag k="name" v="Sande" />
		<tag k="place" v="hamlet" />
		<tag k="ssr:stedsnr" v="984543" />
	</node>
	<node lat="59.38264656424015" lon="10.413329951955447" id="-20960">
		<tag k="name" v="Tokerød" />
		<tag k="place" v="locality" />
		<tag k="ssr:stedsnr" v="984544" />
	</node>
	<node lat="59.4309151938229" lon="10.352258701550852" id="-20961">
		<tag k="name" v="Ås" />
		<tag k="place" v="hamlet" />
		<tag k="ssr:stedsnr" v="984661" />
	</node>
	<node lat="59.429915974676504" lon="10.38012441714573" id="-20962">
		<tag k="name" v="Nøklegård" />
		<tag k="place" v="hamlet" />
		<tag k="ssr:stedsnr" v="984662" />
	</node>
	<node lat="59.43773733709788" lon="10.39048483039241" id="-20963">
		<tag k="fixme" v="consider place=hamlet" />
		<tag k="name" v="Teigen" />
=======
	<node id="-407071" lat="59.3989833338" lon="10.4480666749">
		<tag k="fixme" v="consider place=hamlet" />
		<tag k="name" v="Semb" />
		<tag k="place" v="farm" />
		<tag k="ssr:stedsnr" v="791505" />
	</node>
	<node id="-407069" lat="59.3656861077" lon="10.4169388893">
		<tag k="name" v="Bergan søndre" />
		<tag k="place" v="farm" />
		<tag k="ssr:stedsnr" v="756374" />
	</node>
	<node id="-407066" lat="59.4289138927" lon="10.3795500039">
		<tag k="fixme" v="consider place=hamlet" />
		<tag k="name" v="Nøklegård nedre" />
		<tag k="place" v="farm" />
		<tag k="ssr:stedsnr" v="755838" />
	</node>
	<node id="-407064" lat="59.4354638891" lon="10.4299194474">
		<tag k="amenity" v="school" />
		<tag k="name" v="Falkensten skole" />
		<tag k="ssr:stedsnr" v="753835" />
	</node>
	<node id="-407062" lat="59.4188388851" lon="10.423258325">
		<tag k="fixme" v="consider place=hamlet" />
		<tag k="name" v="Vik søndre" />
		<tag k="place" v="farm" />
		<tag k="ssr:stedsnr" v="753809" />
	</node>
	<node id="-407061" lat="59.3490416707" lon="10.4575805508">
		<tag k="name" v="Nygård" />
		<tag k="place" v="quarter" />
		<tag k="ssr:stedsnr" v="753803" />
	</node>
	<node id="-407053" lat="59.4418833289" lon="10.393980551">
		<tag k="name" v="Veggestua" />
>>>>>>> e1d4bc35ff8a6074a6f2e91616a996b547c36f15
		<tag k="place" v="farm" />
		<tag k="ssr:stedsnr" v="984709" />
	</node>
<<<<<<< HEAD
	<node lat="59.40213887639727" lon="10.380298157517695" id="-20980">
		<tag k="name" v="Skottås" />
=======
	<node id="-407050" lat="59.419113892" lon="10.3896777743">
		<tag k="name" v="Ramberg" />
>>>>>>> e1d4bc35ff8a6074a6f2e91616a996b547c36f15
		<tag k="place" v="farm" />
		<tag k="ssr:stedsnr" v="1079115" />
	</node>
	<node lat="59.34820183156738" lon="10.455249714564538" id="-20981">
		<tag k="amenity" v="school" />
		<tag k="name" v="Åsgården skole" />
		<tag k="ssr:stedsnr" v="1080348" />
	</node>
	<node id="-407049" lat="59.4310972259" lon="10.392108341">
		<tag k="fixme" v="consider place=hamlet" />
		<tag k="name" v="Skåne nordre" />
		<tag k="place" v="farm" />
		<tag k="ssr:stedsnr" v="631862" />
	</node>
	<node id="-407048" lat="59.3876444433" lon="10.4637833247">
		<tag k="name" v="Vold" />
		<tag k="place" v="farm" />
		<tag k="ssr:stedsnr" v="631859" />
	</node>
	<node id="-407047" lat="59.4157638875" lon="10.3960277734">
		<tag k="fixme" v="consider place=hamlet" />
		<tag k="name" v="Knatten" />
		<tag k="place" v="farm" />
		<tag k="ssr:stedsnr" v="609985" />
	</node>
	<node id="-407046" lat="59.4002250001" lon="10.4076722227">
		<tag k="fixme" v="consider place=hamlet" />
		<tag k="name" v="Olsmyra" />
		<tag k="place" v="farm" />
		<tag k="ssr:stedsnr" v="609480" />
	</node>
	<node id="-407045" lat="59.3677611119" lon="10.4454777819">
		<tag k="alt_name" v="Vestmanrød" />
		<tag k="fixme" v="consider place=hamlet" />
		<tag k="name" v="Vestmannrød" />
		<tag k="place" v="farm" />
		<tag k="ssr:stedsnr" v="608601" />
	</node>
	<node id="-407044" lat="59.421086114" lon="10.3835361106">
		<tag k="name" v="Klokkeråsen" />
		<tag k="place" v="quarter" />
		<tag k="ssr:stedsnr" v="604692" />
	</node>
	<node id="-407043" lat="59.3495777821" lon="10.4448888924">
		<tag k="name" v="Breidablikk" />
		<tag k="place" v="quarter" />
		<tag k="ssr:stedsnr" v="601683" />
	</node>
</osm>
