<?xml version="1.0" encoding="UTF-8"?>
<<<<<<< HEAD
<osm version="0.6" generator="osmapis">
	<node lat="59.37606944562758" lon="10.520177780888655" id="-20543">
=======
<osm generator="osmapis" version="0.6">
	<node id="-407030" lat="59.382697222" lon="10.4700861052">
>>>>>>> e1d4bc35ff8a6074a6f2e91616a996b547c36f15
		<tag k="fixme" v="consider boundary=protected_area and relevant protect_class if not nature reserve" />
		<tag k="leisure" v="nature_reserve" />
		<tag k="name" v="Bastøy landskapsvernområde" />
		<tag k="ssr:stedsnr" v="269185" />
	</node>
<<<<<<< HEAD
	<node lat="59.382697222025" lon="10.47008610519723" id="-20861">
=======
	<node id="-406661" lat="59.3760694456" lon="10.5201777809">
>>>>>>> e1d4bc35ff8a6074a6f2e91616a996b547c36f15
		<tag k="fixme" v="consider boundary=protected_area and relevant protect_class if not nature reserve" />
		<tag k="leisure" v="nature_reserve" />
		<tag k="name" v="Borre nasjonalpark" />
		<tag k="ssr:stedsnr" v="570828" />
	</node>
</osm>
