<?xml version="1.0" encoding="UTF-8"?>
<<<<<<< HEAD
<osm version="0.6" generator="osmapis">
	<node lat="59.38091666895092" lon="10.52669444596019" id="-20542">
		<tag k="alt_name" v="Foldin" />
		<tag k="amenity" v="community_centre" />
		<tag k="name" v="Foldin skolehjem" />
		<tag k="ssr:stedsnr" v="209179" />
	</node>
	<node lat="59.42278461249974" lon="10.38353225641385" id="-20584">
		<tag k="amenity" v="place_of_worship" />
		<tag k="denomination" v="lutheran" />
		<tag k="name" v="Nykirke kirke" />
		<tag k="religion" v="christian" />
		<tag k="ssr:stedsnr" v="487989" />
	</node>
	<node lat="59.38234775338711" lon="10.459829072114465" id="-20613">
		<tag k="alt_name" v="Borre" />
		<tag k="amenity" v="place_of_worship" />
		<tag k="denomination" v="lutheran" />
		<tag k="name" v="Borre  kirke" />
		<tag k="religion" v="christian" />
		<tag k="ssr:stedsnr" v="548558" />
	</node>
	<node lat="59.3682499968407" lon="10.53611666008181" id="-20623">
=======
<osm generator="osmapis" version="0.6">
	<node id="-407034" lat="59.3682499968" lon="10.5361166601">
>>>>>>> e1d4bc35ff8a6074a6f2e91616a996b547c36f15
		<tag k="name" v="Utsikten" />
		<tag k="ssr:stedsnr" v="572212" />
		<tag k="tourism" v="viewpoint" />
	</node>
<<<<<<< HEAD
	<node lat="59.374642972449145" lon="10.397757624886426" id="-20772">
=======
	<node id="-406863" lat="59.3807543758" lon="10.5251820382">
		<tag k="amenity" v="place_of_worship" />
		<tag k="denomination" v="lutheran" />
		<tag k="name" v="Bastøy kirke" />
		<tag k="religion" v="christian" />
		<tag k="ssr:stedsnr" v="986143" />
	</node>
	<node id="-406933" lat="59.3746361125" lon="10.3977666705">
>>>>>>> e1d4bc35ff8a6074a6f2e91616a996b547c36f15
		<tag k="name" v="Adalsborgen" />
		<tag k="place" v="locality" />
		<tag k="ssr:stedsnr" v="142058" />
	</node>
<<<<<<< HEAD
	<node lat="59.42686944377828" lon="10.4899055610896" id="-20853">
=======
	<node id="-406704" lat="59.4227861152" lon="10.3837777774">
>>>>>>> e1d4bc35ff8a6074a6f2e91616a996b547c36f15
		<tag k="amenity" v="place_of_worship" />
		<tag k="denomination" v="lutheran" />
		<tag k="loc_name" v="Horten kirke" />
		<tag k="name" v="Horten" />
		<tag k="religion" v="christian" />
<<<<<<< HEAD
		<tag k="ssr:stedsnr" v="548518" />
	</node>
	<node lat="59.386605554748115" lon="10.406322228759969" id="-20868">
=======
		<tag k="ssr:stedsnr" v="487989" />
	</node>
	<node id="-406959" lat="59.380916669" lon="10.526694446">
		<tag k="amenity" v="community_centre" />
		<tag k="name" v="Foldin skolehjem" />
		<tag k="ssr:stedsnr" v="209179" />
	</node>
	<node id="-407021" lat="59.382455554" lon="10.4599611068">
		<tag k="alt_name" v="Borre kirke" />
>>>>>>> e1d4bc35ff8a6074a6f2e91616a996b547c36f15
		<tag k="amenity" v="place_of_worship" />
		<tag k="denomination" v="lutheran" />
		<tag k="name" v="Skoppum" />
		<tag k="religion" v="christian" />
		<tag k="ssr:stedsnr" v="578606" />
	</node>
	<node lat="59.39203333345038" lon="10.478355560008143" id="-20895">
		<tag k="alt_name" v="Sjøguttskole" />
		<tag k="amenity" v="community_centre" />
		<tag k="name" v="Sjøguttskolen" />
		<tag k="ssr:stedsnr" v="669545" />
	</node>
<<<<<<< HEAD
	<node lat="59.380754375823784" lon="10.52518203815461" id="-20968">
=======
	<node id="-407019" lat="59.4268694438" lon="10.4899055611">
>>>>>>> e1d4bc35ff8a6074a6f2e91616a996b547c36f15
		<tag k="amenity" v="place_of_worship" />
		<tag k="denomination" v="lutheran" />
		<tag k="loc_name" v="Horten kirke" />
		<tag k="name" v="Horten" />
		<tag k="religion" v="christian" />
		<tag k="ssr:stedsnr" v="548518" />
	</node>
<<<<<<< HEAD
=======
	<node id="-406761" lat="59.3866055547" lon="10.4063222288">
		<tag k="amenity" v="place_of_worship" />
		<tag k="denomination" v="lutheran" />
		<tag k="name" v="Skoppum" />
		<tag k="religion" v="christian" />
		<tag k="ssr:stedsnr" v="578606" />
	</node>
	<node id="-406731" lat="59.3920333335" lon="10.47835556">
		<tag k="alt_name" v="Sjøguttskole" />
		<tag k="amenity" v="community_centre" />
		<tag k="name" v="Sjøguttskolen" />
		<tag k="ssr:stedsnr" v="669545" />
	</node>
>>>>>>> e1d4bc35ff8a6074a6f2e91616a996b547c36f15
</osm>
