<?xml version="1.0" encoding="UTF-8"?>
<<<<<<< HEAD
<osm version="0.6" generator="osmapis">
	<node lat="59.43742499974294" lon="10.424575004846108" id="-20540">
		<tag k="name" v="Gamlegård" />
		<tag k="place" v="locality" />
		<tag k="ssr:stedsnr" v="267856" />
	</node>
	<node lat="59.40003055333664" lon="10.40407778257045" id="-20561">
		<tag k="name" v="Olsmyra" />
		<tag k="natural" v="wetland" />
		<tag k="ssr:stedsnr" v="267829" />
	</node>
	<node lat="59.380941666446255" lon="10.406066675094248" id="-20617">
		<tag k="name" v="Langmyra" />
		<tag k="natural" v="wetland" />
		<tag k="ssr:stedsnr" v="692835" />
	</node>
	<node lat="59.4234277760211" lon="10.397686102722979" id="-20630">
		<tag k="name" v="Grette" />
		<tag k="place" v="locality" />
		<tag k="ssr:stedsnr" v="694856" />
	</node>
	<node lat="59.37289166704668" lon="10.455636117383186" id="-20695">
		<tag k="name" v="Granholt" />
		<tag k="place" v="locality" />
		<tag k="ssr:stedsnr" v="935811" />
	</node>
	<node lat="59.440994447962325" lon="10.441183340772639" id="-20738">
		<tag k="name" v="Røremarka" />
=======
<osm generator="osmapis" version="0.6">
	<node id="-406655" lat="59.4218944481" lon="10.4931916642">
		<tag k="name" v="Hortensskogen" />
		<tag k="place" v="locality" />
		<tag k="ssr:stedsnr" v="87169" />
	</node>
	<node id="-407038" lat="59.356997219" lon="10.4361611081">
		<tag k="name" v="Ra" />
>>>>>>> e1d4bc35ff8a6074a6f2e91616a996b547c36f15
		<tag k="place" v="locality" />
		<tag k="ssr:stedsnr" v="41681" />
	</node>
<<<<<<< HEAD
	<node lat="59.3845861126404" lon="10.443822221765998" id="-20754">
		<tag k="name" v="Vassmarka" />
		<tag k="place" v="locality" />
		<tag k="ssr:stedsnr" v="86845" />
	</node>
	<node lat="59.36841666457288" lon="10.451786109625685" id="-20755">
=======
	<node id="-406908" lat="59.3684166646" lon="10.4517861096">
>>>>>>> e1d4bc35ff8a6074a6f2e91616a996b547c36f15
		<tag k="name" v="Snippen" />
		<tag k="place" v="locality" />
		<tag k="ssr:stedsnr" v="86819" />
	</node>
<<<<<<< HEAD
	<node lat="59.42189444811441" lon="10.493191664179703" id="-20757">
		<tag k="name" v="Hortensskogen" />
=======
	<node id="-406745" lat="59.3809416664" lon="10.4060666751">
		<tag k="name" v="Langmyra" />
		<tag k="natural" v="wetland" />
		<tag k="ssr:stedsnr" v="692835" />
	</node>
	<node id="-406838" lat="59.372891667" lon="10.4556361174">
		<tag k="name" v="Granholt" />
>>>>>>> e1d4bc35ff8a6074a6f2e91616a996b547c36f15
		<tag k="place" v="locality" />
		<tag k="ssr:stedsnr" v="87169" />
	</node>
<<<<<<< HEAD
	<node lat="59.37518889213368" lon="10.438149994529933" id="-20862">
=======
	<node id="-406911" lat="59.3845861126" lon="10.4438222218">
		<tag k="name" v="Vassmarka" />
		<tag k="place" v="locality" />
		<tag k="ssr:stedsnr" v="86845" />
	</node>
	<node id="-407027" lat="59.3751888921" lon="10.4381499945">
>>>>>>> e1d4bc35ff8a6074a6f2e91616a996b547c36f15
		<tag k="name" v="Fogdeskogen" />
		<tag k="place" v="locality" />
		<tag k="ssr:stedsnr" v="570794" />
	</node>
<<<<<<< HEAD
	<node lat="59.435911114621994" lon="10.454700008304405" id="-20864">
		<tag k="name" v="Kjølhaleskogen" />
=======
	<node id="-406895" lat="59.440994448" lon="10.4411833408">
		<tag k="name" v="Røremarka" />
>>>>>>> e1d4bc35ff8a6074a6f2e91616a996b547c36f15
		<tag k="place" v="locality" />
		<tag k="ssr:stedsnr" v="572878" />
	</node>
<<<<<<< HEAD
	<node lat="59.35699721900861" lon="10.436161108084406" id="-20867">
		<tag k="name" v="Ra" />
		<tag k="place" v="locality" />
		<tag k="ssr:stedsnr" v="574431" />
	</node>
	<node lat="59.37546666646356" lon="10.461208332891946" id="-20917">
		<tag k="name" v="Sjølyst" />
=======
	<node id="-406794" lat="59.423427776" lon="10.3976861027">
		<tag k="name" v="Grette" />
>>>>>>> e1d4bc35ff8a6074a6f2e91616a996b547c36f15
		<tag k="place" v="locality" />
		<tag k="ssr:stedsnr" v="814819" />
	</node>
	<node lat="59.388977781794075" lon="10.4464444506317" id="-20919">
		<tag k="name" v="Vassbånn" />
		<tag k="place" v="locality" />
		<tag k="ssr:stedsnr" v="814850" />
	</node>
	<node id="-406760" lat="59.4359111146" lon="10.4547000083">
		<tag k="name" v="Kjølhaleskogen" />
		<tag k="place" v="locality" />
		<tag k="ssr:stedsnr" v="572878" />
	</node>
	<node id="-406814" lat="59.3754666665" lon="10.4612083329">
		<tag k="name" v="Sjølyst" />
		<tag k="place" v="locality" />
		<tag k="ssr:stedsnr" v="814819" />
	</node>
	<node id="-407077" lat="59.3889777818" lon="10.4464444506">
		<tag k="name" v="Vassbånn" />
		<tag k="place" v="locality" />
		<tag k="ssr:stedsnr" v="814850" />
	</node>
	<node id="-406659" lat="59.4000305533" lon="10.4040777826">
		<tag k="name" v="Olsmyra" />
		<tag k="natural" v="wetland" />
		<tag k="ssr:stedsnr" v="267829" />
	</node>
	<node id="-406657" lat="59.4374249997" lon="10.4245750048">
		<tag k="name" v="Gamlegård" />
		<tag k="place" v="locality" />
		<tag k="ssr:stedsnr" v="267856" />
	</node>
</osm>
