<?xml version="1.0" encoding="UTF-8"?>
<osm generator="osmapis" version="0.6">
	<node id="-754976" lat="69.4852805584" lon="17.4039194324">
		<tag k="fixme" v="verify maritime location" />
		<tag k="mooring" v="yes" />
		<tag k="name" v="Håmannsstøa" />
		<tag k="place" v="locality" />
		<tag k="ssr:stedsnr" v="540136" />
	</node>
	<node id="-755230" lat="69.4117500036" lon="17.518608332">
		<tag k="layer" v="-1" />
		<tag k="name" v="Skaland" />
		<tag k="ssr:stedsnr" v="772742" />
		<tag k="tunnel" v="yes" />
	</node>
	<node id="-754197" lat="69.4670416707" lon="17.5721083276">
		<tag k="layer" v="-1" />
		<tag k="name" v="Bratthesten" />
		<tag k="ssr:stedsnr" v="287127" />
		<tag k="tunnel" v="yes" />
	</node>
	<node id="-754300" lat="69.483797219" lon="17.4835722316">
		<tag k="layer" v="-1" />
		<tag k="name" v="Geitskartunnelen" />
		<tag k="ssr:stedsnr" v="347468" />
		<tag k="tunnel" v="yes" />
	</node>
	<node id="-754904" lat="69.4620638873" lon="16.9351277712">
		<tag k="name" v="Bardstindleia" />
		<tag k="place" v="locality" />
		<tag k="ssr:stedsnr" v="471865" />
	</node>
	<node id="-755317" lat="69.4613444469" lon="17.6063138794">
		<tag k="layer" v="-1" />
		<tag k="name" v="Svartholla" />
		<tag k="ssr:stedsnr" v="833700" />
		<tag k="tunnel" v="yes" />
	</node>
	<node id="-754900" lat="69.4900194463" lon="17.5517305585">
		<tag k="layer" v="-1" />
		<tag k="name" v="Otervika rasoverbygg" />
		<tag k="ssr:stedsnr" v="469368" />
		<tag k="tunnel" v="yes" />
	</node>
	<node id="-754576" lat="69.4582638932" lon="17.6011111126">
		<tag k="layer" v="-1" />
		<tag k="name" v="Svartholla rasoverbygg" />
		<tag k="ssr:stedsnr" v="105688" />
		<tag k="tunnel" v="yes" />
	</node>
	<node id="-754670" lat="69.4109027742" lon="17.1918527704">
		<tag k="layer" v="-1" />
		<tag k="name" v="Hamn" />
		<tag k="ssr:stedsnr" v="165464" />
		<tag k="tunnel" v="yes" />
	</node>
	<node id="-755037" lat="69.4138166667" lon="17.2861194402">
		<tag k="fixme" v="verify maritime location" />
		<tag k="mooring" v="yes" />
		<tag k="name" v="Storstøa" />
		<tag k="place" v="locality" />
		<tag k="ssr:stedsnr" v="598908" />
	</node>
	<node id="-754376" lat="69.4488472216" lon="17.2753888946">
		<tag k="fixme" v="verify maritime location" />
		<tag k="mooring" v="yes" />
		<tag k="name" v="Jektestøa" />
		<tag k="place" v="locality" />
		<tag k="ssr:stedsnr" v="477305" />
	</node>
	<node id="-755381" lat="69.5081277772" lon="17.4253027744">
		<tag k="ford" v="yes" />
		<tag k="name" v="Kuvaet" />
		<tag k="place" v="locality" />
		<tag k="ssr:stedsnr" v="844203" />
	</node>
	<node id="-755553" lat="69.4692722194" lon="17.6823249976">
		<tag k="fixme" v="verify maritime location" />
		<tag k="mooring" v="yes" />
		<tag k="name" v="Innerstøa" />
		<tag k="place" v="locality" />
		<tag k="ssr:stedsnr" v="965274" />
	</node>
	<node id="-755009" lat="69.5306999965" lon="17.1175194329">
		<tag k="name" v="Steinsleia" />
		<tag k="place" v="locality" />
		<tag k="ssr:stedsnr" v="591758" />
	</node>
</osm>
