<?xml version="1.0" encoding="UTF-8"?>
<osm generator="osmapis" version="0.6">
	<node id="-753663" lat="69.4186166648" lon="17.2006194317">
		<tag k="fixme" v="consider seamark:type=rock or natural=shoal" />
		<tag k="name" v="Kobbskjæret" />
		<tag k="place" v="islet" />
		<tag k="ssr:stedsnr" v="592897" />
	</node>
	<node id="-753661" lat="69.4923944449" lon="17.6071972188">
		<tag k="name" v="Røssklakkneset" />
		<tag k="natural" v="cape" />
		<tag k="ssr:stedsnr" v="590982" />
	</node>
	<node id="-753660" lat="69.5403055526" lon="17.3546972214">
		<tag k="name" v="Bremnesbåen" />
		<tag k="natural" v="shoal" />
		<tag k="place" v="locality" />
		<tag k="ssr:stedsnr" v="590958" />
	</node>
	<node id="-753659" lat="69.5505611146" lon="17.1970277649">
		<tag k="name" v="Mikkelgrunnen" />
		<tag k="natural" v="shoal" />
		<tag k="place" v="locality" />
		<tag k="ssr:stedsnr" v="564998" />
	</node>
	<node id="-753658" lat="69.5042805537" lon="17.1293833266">
		<tag k="name" v="Fjellhoggskolten" />
		<tag k="natural" v="shoal" />
		<tag k="place" v="locality" />
		<tag k="ssr:stedsnr" v="564944" />
	</node>
	<node id="-753657" lat="69.5993916681" lon="17.4829694435">
		<tag k="name" v="Kasodden" />
		<tag k="natural" v="cape" />
		<tag k="ssr:stedsnr" v="564749" />
	</node>
	<node id="-753652" lat="69.3838694412" lon="17.410330555">
		<tag k="name" v="Bukta" />
		<tag k="natural" v="bay" />
		<tag k="ssr:stedsnr" v="564355" />
	</node>
	<node id="-753651" lat="69.3695" lon="17.403961116">
		<tag k="name" v="Furuneset" />
		<tag k="natural" v="cape" />
		<tag k="ssr:stedsnr" v="564308" />
	</node>
	<node id="-753646" lat="69.4028527762" lon="17.282686099">
		<tag k="name" v="Grashopkjosen" />
		<tag k="natural" v="bay" />
		<tag k="ssr:stedsnr" v="564263" />
	</node>
	<node id="-753645" lat="69.4011166623" lon="17.2490222272">
		<tag k="name" v="Flatøya" />
		<tag k="place" v="islet" />
		<tag k="ssr:stedsnr" v="564262" />
	</node>
	<node id="-753642" lat="69.4217666653" lon="17.2497749896">
		<tag k="fixme" v="consider seamark:type=rock or natural=shoal" />
		<tag k="name" v="Korsholmen" />
		<tag k="place" v="islet" />
		<tag k="ssr:stedsnr" v="564243" />
	</node>
	<node id="-753641" lat="69.4283805559" lon="17.1637777714">
		<tag k="name" v="Rognholman" />
		<tag k="place" v="islet" />
		<tag k="ssr:stedsnr" v="564234" />
	</node>
	<node id="-753640" lat="69.4339611072" lon="17.2179861136">
		<tag k="name" v="Kråkøya" />
		<tag k="place" v="island" />
		<tag k="ssr:stedsnr" v="564232" />
	</node>
	<node id="-753639" lat="69.4890777815" lon="16.9472027741">
		<tag k="name" v="Tokkebåen" />
		<tag k="natural" v="shoal" />
		<tag k="place" v="locality" />
		<tag k="ssr:stedsnr" v="564184" />
	</node>
	<node id="-753637" lat="69.4135277764" lon="17.2288249855">
		<tag k="name" v="Laukvika" />
		<tag k="natural" v="bay" />
		<tag k="ssr:stedsnr" v="564037" />
	</node>
	<node id="-753630" lat="69.5295666643" lon="17.397086097">
		<tag k="fixme" v="consider seamark:type=rock or natural=shoal" />
		<tag k="name" v="Laksesteinen" />
		<tag k="place" v="islet" />
		<tag k="ssr:stedsnr" v="540145" />
	</node>
	<node id="-753618" lat="69.4167972202" lon="17.2336916523">
		<tag k="fixme" v="consider seamark:type=rock or natural=shoal" />
		<tag k="name" v="Kjompen" />
		<tag k="place" v="islet" />
		<tag k="ssr:stedsnr" v="538935" />
	</node>
	<node id="-753609" lat="69.4662138867" lon="17.2230194509">
		<tag k="name" v="Skjåholmen" />
		<tag k="place" v="islet" />
		<tag k="ssr:stedsnr" v="538484" />
	</node>
	<node id="-753607" lat="69.403505557" lon="17.2916083357">
		<tag k="name" v="Klubben" />
		<tag k="natural" v="cape" />
		<tag k="ssr:stedsnr" v="538403" />
	</node>
	<node id="-753606" lat="69.3926305541" lon="17.35311943">
		<tag k="name" v="Grytholla" />
		<tag k="natural" v="bay" />
		<tag k="ssr:stedsnr" v="538395" />
	</node>
	<node id="-753605" lat="69.39551667" lon="17.3329722309">
		<tag k="name" v="Ytre Breivika" />
		<tag k="natural" v="bay" />
		<tag k="ssr:stedsnr" v="538393" />
	</node>
	<node id="-753604" lat="69.3931305531" lon="17.3434083391">
		<tag k="name" v="Indre Breivika" />
		<tag k="natural" v="bay" />
		<tag k="ssr:stedsnr" v="538391" />
	</node>
	<node id="-753602" lat="69.4460861117" lon="17.2874055432">
		<tag k="name" v="Klokkarneset" />
		<tag k="natural" v="cape" />
		<tag k="ssr:stedsnr" v="538299" />
	</node>
	<node id="-753591" lat="69.4125416704" lon="17.2798055448">
		<tag k="name" v="Øyholmen" />
		<tag k="place" v="islet" />
		<tag k="ssr:stedsnr" v="532865" />
	</node>
	<node id="-753590" lat="69.4156444407" lon="17.2331388765">
		<tag k="name" v="Laukvikneset" />
		<tag k="natural" v="cape" />
		<tag k="ssr:stedsnr" v="532851" />
	</node>
	<node id="-753589" lat="69.4146361074" lon="17.1645916686">
		<tag k="name" v="Sandvikholmen" />
		<tag k="place" v="islet" />
		<tag k="ssr:stedsnr" v="532847" />
	</node>
	<node id="-753588" lat="69.5063749983" lon="17.283922214">
		<tag k="name" v="Fuglebåen" />
		<tag k="natural" v="shoal" />
		<tag k="place" v="locality" />
		<tag k="ssr:stedsnr" v="531958" />
	</node>
	<node id="-753587" lat="69.6525555564" lon="17.521747212">
		<tag k="name" v="Hæra" />
		<tag k="natural" v="shoal" />
		<tag k="place" v="locality" />
		<tag k="ssr:stedsnr" v="531945" />
	</node>
	<node id="-753586" lat="69.4908750022" lon="17.2087027818">
		<tag k="alt_name" v="Grythola" />
		<tag k="name" v="Grythollet" />
		<tag k="natural" v="bay" />
		<tag k="ssr:stedsnr" v="531822" />
	</node>
	<node id="-753585" lat="69.484833333" lon="17.6008527712">
		<tag k="name" v="Ytre Skjærbåen" />
		<tag k="natural" v="shoal" />
		<tag k="place" v="locality" />
		<tag k="ssr:stedsnr" v="530977" />
	</node>
	<node id="-753584" lat="69.4824722246" lon="17.0990750023">
		<tag k="name" v="Stavbåan" />
		<tag k="natural" v="shoal" />
		<tag k="place" v="locality" />
		<tag k="ssr:stedsnr" v="530748" />
	</node>
	<node id="-753582" lat="69.5318583326" lon="17.3099805502">
		<tag k="name" v="Bøneset" />
		<tag k="natural" v="cape" />
		<tag k="ssr:stedsnr" v="504896" />
	</node>
	<node id="-753573" lat="69.5458444409" lon="17.1649249946">
		<tag k="name" v="Bardgrunnen" />
		<tag k="natural" v="shoal" />
		<tag k="place" v="locality" />
		<tag k="ssr:stedsnr" v="503997" />
	</node>
	<node id="-753572" lat="69.5055333304" lon="17.0825138941">
		<tag k="name" v="Hella" />
		<tag k="natural" v="shoal" />
		<tag k="place" v="locality" />
		<tag k="ssr:stedsnr" v="503930" />
	</node>
	<node id="-753570" lat="69.521938892" lon="17.2661250053">
		<tag k="name" v="Teistbåen" />
		<tag k="natural" v="shoal" />
		<tag k="place" v="locality" />
		<tag k="ssr:stedsnr" v="503909" />
	</node>
	<node id="-753567" lat="69.4013166629" lon="17.2427361017">
		<tag k="name" v="Bjørkøya" />
		<tag k="place" v="islet" />
		<tag k="ssr:stedsnr" v="503326" />
	</node>
	<node id="-753563" lat="69.4238250027" lon="17.3001694499">
		<tag k="name" v="Flatnesvika" />
		<tag k="natural" v="bay" />
		<tag k="ssr:stedsnr" v="503232" />
	</node>
	<node id="-753562" lat="69.4152055571" lon="17.1893638988">
		<tag k="name" v="Hamnevika" />
		<tag k="natural" v="bay" />
		<tag k="ssr:stedsnr" v="503225" />
	</node>
	<node id="-753560" lat="69.6333333313" lon="16.6500000078">
		<tag k="name" v="Kjerringsøyla" />
		<tag k="natural" v="shoal" />
		<tag k="place" v="locality" />
		<tag k="ssr:stedsnr" v="484019" />
	</node>
	<node id="-753558" lat="69.4094638905" lon="17.3149472244">
		<tag k="alt_name" v="Skjånesskjæret" />
		<tag k="fixme" v="consider seamark:type=rock or natural=shoal" />
		<tag k="name" v="Skjånesholmen" />
		<tag k="place" v="islet" />
		<tag k="ssr:stedsnr" v="471876" />
	</node>
	<node id="-753556" lat="69.4162194439" lon="17.2581333272">
		<tag k="name" v="Homannsflua" />
		<tag k="place" v="locality" />
		<tag k="seamark:type" v="rock" />
		<tag k="ssr:stedsnr" v="471855" />
	</node>
	<node id="-753555" lat="69.4983472181" lon="17.1611416697">
		<tag k="name" v="Prestan" />
		<tag k="natural" v="shoal" />
		<tag k="place" v="locality" />
		<tag k="ssr:stedsnr" v="470797" />
	</node>
	<node id="-753552" lat="69.5426250011" lon="17.1549805478">
		<tag k="alt_name" v="Frøgrunnen, s" />
		<tag k="name" v="Søre Frøgrunnen" />
		<tag k="natural" v="shoal" />
		<tag k="place" v="locality" />
		<tag k="ssr:stedsnr" v="443999" />
	</node>
	<node id="-753550" lat="69.5249666664" lon="17.054024988">
		<tag k="name" v="Bakkegrunnen" />
		<tag k="natural" v="shoal" />
		<tag k="place" v="locality" />
		<tag k="ssr:stedsnr" v="443948" />
	</node>
	<node id="-753549" lat="69.5231000038" lon="17.1653277901">
		<tag k="name" v="Håjabåen" />
		<tag k="natural" v="shoal" />
		<tag k="place" v="locality" />
		<tag k="ssr:stedsnr" v="443945" />
	</node>
	<node id="-753548" lat="69.546108332" lon="17.4632499974">
		<tag k="name" v="Bregdebåen" />
		<tag k="natural" v="shoal" />
		<tag k="place" v="locality" />
		<tag k="ssr:stedsnr" v="443848" />
	</node>
	<node id="-753544" lat="69.5824861158" lon="17.4840610982">
		<tag k="alt_name" v="Gilbergsvika" />
		<tag k="name" v="Gilbergvika" />
		<tag k="natural" v="bay" />
		<tag k="ssr:stedsnr" v="443745" />
	</node>
	<node id="-753540" lat="69.4674194486" lon="17.6578499939">
		<tag k="name" v="Pumpeneset" />
		<tag k="natural" v="cape" />
		<tag k="ssr:stedsnr" v="443491" />
	</node>
	<node id="-753539" lat="69.4876861107" lon="17.5541305519">
		<tag k="alt_name" v="Bringneset, in" />
		<tag k="name" v="Indre Bringneset" />
		<tag k="natural" v="cape" />
		<tag k="ssr:stedsnr" v="443483" />
	</node>
	<node id="-753536" lat="69.3925222242" lon="17.3400611166">
		<tag k="alt_name" v="Breidvikneset" />
		<tag k="name" v="Breivikneset" />
		<tag k="natural" v="cape" />
		<tag k="ssr:stedsnr" v="443366" />
	</node>
	<node id="-753535" lat="69.4414694411" lon="17.061077787">
		<tag k="name" v="Kviga" />
		<tag k="natural" v="shoal" />
		<tag k="place" v="locality" />
		<tag k="ssr:stedsnr" v="443316" />
	</node>
	<node id="-753533" lat="69.4590944457" lon="17.2427000081">
		<tag k="name" v="Katteberget" />
		<tag k="natural" v="cape" />
		<tag k="ssr:stedsnr" v="443301" />
	</node>
	<node id="-753531" lat="69.4273888881" lon="17.1937972102">
		<tag k="name" v="Risøyan" />
		<tag k="place" v="islet" />
		<tag k="ssr:stedsnr" v="443257" />
	</node>
	<node id="-753529" lat="69.4031638855" lon="17.1277833216">
		<tag k="name" v="Storsteinneset" />
		<tag k="natural" v="cape" />
		<tag k="ssr:stedsnr" v="443043" />
	</node>
	<node id="-753527" lat="69.5211444479" lon="17.0839805461">
		<tag k="name" v="Pålfallan" />
		<tag k="natural" v="shoal" />
		<tag k="place" v="locality" />
		<tag k="ssr:stedsnr" v="424053" />
	</node>
	<node id="-753525" lat="69.4723388902" lon="17.6656805537">
		<tag k="name" v="Hamnneset" />
		<tag k="natural" v="cape" />
		<tag k="ssr:stedsnr" v="419251" />
	</node>
	<node id="-753521" lat="69.5399000018" lon="17.5010055422">
		<tag k="fixme" v="consider seamark:type=rock or natural=shoal" />
		<tag k="name" v="Holman" />
		<tag k="place" v="islet" />
		<tag k="ssr:stedsnr" v="419160" />
	</node>
	<node id="-753518" lat="69.425725001" lon="17.4221055491">
		<tag k="name" v="Finnkonneset" />
		<tag k="natural" v="cape" />
		<tag k="ssr:stedsnr" v="419124" />
	</node>
	<node id="-753517" lat="69.4975027766" lon="17.3791416588">
		<tag k="name" v="Bukkeforkeila" />
		<tag k="natural" v="bay" />
		<tag k="ssr:stedsnr" v="419117" />
	</node>
	<node id="-753512" lat="69.4957777761" lon="17.4870527778">
		<tag k="name" v="Banmyrneset" />
		<tag k="natural" v="cape" />
		<tag k="ssr:stedsnr" v="418066" />
	</node>
	<node id="-753505" lat="69.419052778" lon="17.3307305531">
		<tag k="name" v="Kråkslettneset" />
		<tag k="natural" v="cape" />
		<tag k="ssr:stedsnr" v="417562" />
	</node>
	<node id="-753497" lat="69.398147224" lon="17.3168111066">
		<tag k="name" v="Påljordholman" />
		<tag k="place" v="islet" />
		<tag k="ssr:stedsnr" v="416330" />
	</node>
	<node id="-753494" lat="69.4449222196" lon="17.1893444479">
		<tag k="name" v="Høyholmen" />
		<tag k="place" v="islet" />
		<tag k="ssr:stedsnr" v="416132" />
	</node>
	<node id="-753492" lat="69.430055554" lon="17.1582416706">
		<tag k="name" v="Nordre Værholmen" />
		<tag k="place" v="islet" />
		<tag k="ssr:stedsnr" v="416093" />
	</node>
	<node id="-753489" lat="69.4169472196" lon="17.1708916529">
		<tag k="name" v="Skjåholmen" />
		<tag k="place" v="islet" />
		<tag k="ssr:stedsnr" v="416087" />
	</node>
	<node id="-753486" lat="69.4137388908" lon="17.1649916691">
		<tag k="name" v="Sandvika" />
		<tag k="natural" v="bay" />
		<tag k="ssr:stedsnr" v="416067" />
	</node>
	<node id="-753483" lat="69.6155555572" lon="17.3708333382">
		<tag k="name" v="Arnebåen" />
		<tag k="natural" v="shoal" />
		<tag k="place" v="locality" />
		<tag k="ssr:stedsnr" v="261992" />
	</node>
	<node id="-753482" lat="69.5025916655" lon="17.23146388">
		<tag k="alt_name" v="Makjelneset" />
		<tag k="name" v="Matkjelneset" />
		<tag k="natural" v="cape" />
		<tag k="ssr:stedsnr" v="261928" />
	</node>
	<node id="-753481" lat="69.5180222195" lon="17.2217027736">
		<tag k="name" v="Hellandsgrunnen" />
		<tag k="natural" v="shoal" />
		<tag k="place" v="locality" />
		<tag k="ssr:stedsnr" v="261918" />
	</node>
	<node id="-753479" lat="69.507825003" lon="17.4900222343">
		<tag k="name" v="Dyngeneset" />
		<tag k="natural" v="cape" />
		<tag k="ssr:stedsnr" v="261795" />
	</node>
	<node id="-753473" lat="69.3930722215" lon="17.2500583239">
		<tag k="name" v="Borkneset" />
		<tag k="natural" v="cape" />
		<tag k="ssr:stedsnr" v="261361" />
	</node>
	<node id="-753467" lat="69.4167027788" lon="17.2132583436">
		<tag k="name" v="Bøneset" />
		<tag k="natural" v="cape" />
		<tag k="ssr:stedsnr" v="261246" />
	</node>
	<node id="-753466" lat="69.4739611124" lon="17.3139999863">
		<tag k="bay" v="fjord" />
		<tag k="name" v="Steinfjorden" />
		<tag k="natural" v="bay" />
		<tag k="ssr:stedsnr" v="261190" />
	</node>
	<node id="-753465" lat="69.4775194407" lon="17.2177777713">
		<tag k="name" v="Bardnesvika" />
		<tag k="natural" v="bay" />
		<tag k="ssr:stedsnr" v="261184" />
	</node>
	<node id="-753461" lat="69.4703444463" lon="17.3030527895">
		<tag k="name" v="Gluggen" />
		<tag k="natural" v="bay" />
		<tag k="ssr:stedsnr" v="259042" />
	</node>
	<node id="-753456" lat="69.58402222" lon="17.4836805531">
		<tag k="name" v="Brygga" />
		<tag k="place" v="islet" />
		<tag k="ssr:stedsnr" v="237191" />
	</node>
	<node id="-753455" lat="69.4263361078" lon="17.496233335">
		<tag k="fixme" v="consider seamark:type=rock or natural=shoal" />
		<tag k="name" v="Kobbesteinen" />
		<tag k="place" v="islet" />
		<tag k="ssr:stedsnr" v="237098" />
	</node>
	<node id="-753453" lat="69.5320444462" lon="17.3817333308">
		<tag k="fixme" v="consider seamark:type=rock or natural=shoal" />
		<tag k="name" v="Skarvesteinen" />
		<tag k="place" v="islet" />
		<tag k="ssr:stedsnr" v="237138" />
	</node>
	<node id="-753450" lat="69.459561114" lon="17.5938166572">
		<tag k="name" v="Vardneset" />
		<tag k="natural" v="cape" />
		<tag k="ssr:stedsnr" v="236284" />
	</node>
	<node id="-753448" lat="69.3901388876" lon="17.3918749973">
		<tag k="name" v="Bukta" />
		<tag k="natural" v="bay" />
		<tag k="ssr:stedsnr" v="235946" />
	</node>
	<node id="-753447" lat="69.3806527761" lon="17.4070888871">
		<tag k="name" v="Forranesbukta" />
		<tag k="natural" v="bay" />
		<tag k="ssr:stedsnr" v="235945" />
	</node>
	<node id="-753442" lat="69.4464083349" lon="17.2760833267">
		<tag k="fixme" v="consider seamark:type=rock or natural=shoal" />
		<tag k="name" v="Kjerkegårdsskjæret" />
		<tag k="place" v="islet" />
		<tag k="ssr:stedsnr" v="235308" />
	</node>
	<node id="-753441" lat="69.4367694425" lon="17.2397249893">
		<tag k="name" v="Færøysteinen" />
		<tag k="place" v="locality" />
		<tag k="seamark:type" v="rock" />
		<tag k="ssr:stedsnr" v="235267" />
	</node>
	<node id="-753437" lat="69.4351972216" lon="17.393358338">
		<tag k="name" v="Dungeneset" />
		<tag k="natural" v="cape" />
		<tag k="ssr:stedsnr" v="235550" />
	</node>
	<node id="-753427" lat="69.482691664" lon="17.3710138962">
		<tag k="name" v="Klipelvbukta" />
		<tag k="natural" v="bay" />
		<tag k="ssr:stedsnr" v="234365" />
	</node>
	<node id="-753426" lat="69.4012305604" lon="17.3052388779">
		<tag k="name" v="Trongstraumstranda" />
		<tag k="natural" v="beach" />
		<tag k="place" v="locality" />
		<tag k="ssr:stedsnr" v="234362" />
	</node>
	<node id="-753425" lat="69.3930305524" lon="17.3339638928">
		<tag k="fixme" v="consider seamark:type=rock or natural=shoal" />
		<tag k="name" v="Breivikskjæret" />
		<tag k="place" v="islet" />
		<tag k="ssr:stedsnr" v="234348" />
	</node>
	<node id="-753420" lat="69.4415055555" lon="17.1446111184">
		<tag k="name" v="Valen" />
		<tag k="natural" v="bay" />
		<tag k="ssr:stedsnr" v="234134" />
	</node>
	<node id="-753419" lat="69.4438111097" lon="17.1676472212">
		<tag k="name" v="Lille Thomasøya" />
		<tag k="place" v="islet" />
		<tag k="ssr:stedsnr" v="234124" />
	</node>
	<node id="-753417" lat="69.4124250047" lon="17.1846638788">
		<tag k="name" v="Kjosneset" />
		<tag k="place" v="islet" />
		<tag k="ssr:stedsnr" v="234096" />
	</node>
	<node id="-753414" lat="69.5363777774" lon="17.3482416718">
		<tag k="name" v="Bremneskeila" />
		<tag k="natural" v="bay" />
		<tag k="ssr:stedsnr" v="234077" />
	</node>
	<node id="-753412" lat="69.461930555" lon="17.2404916615">
		<tag k="name" v="Katteberglorten" />
		<tag k="natural" v="cape" />
		<tag k="ssr:stedsnr" v="234045" />
	</node>
	<node id="-753409" lat="69.4013361144" lon="17.2991805647">
		<tag k="name" v="Trongstraumen" />
		<tag k="natural" v="strait" />
		<tag k="ssr:stedsnr" v="234413" />
	</node>
	<node id="-753407" lat="69.4357555583" lon="17.1584722335">
		<tag k="fixme" v="consider seamark:type=rock or natural=shoal" />
		<tag k="name" v="Leiskjæret" />
		<tag k="place" v="islet" />
		<tag k="ssr:stedsnr" v="228869" />
	</node>
	<node id="-753406" lat="69.4711249961" lon="17.1862916566">
		<tag k="name" v="Skankan" />
		<tag k="natural" v="shoal" />
		<tag k="place" v="locality" />
		<tag k="ssr:stedsnr" v="227747" />
	</node>
	<node id="-753405" lat="69.5412638889" lon="17.2995250102">
		<tag k="name" v="Oksebåen" />
		<tag k="natural" v="shoal" />
		<tag k="place" v="locality" />
		<tag k="ssr:stedsnr" v="226969" />
	</node>
	<node id="-753399" lat="69.5346638918" lon="17.3847277643">
		<tag k="alt_name" v="Skøytneset" />
		<tag k="name" v="Skøyteneset" />
		<tag k="natural" v="cape" />
		<tag k="ssr:stedsnr" v="200990" />
	</node>
	<node id="-753398" lat="69.530708335" lon="17.3770833249">
		<tag k="alt_name" v="Skøytnesvika" />
		<tag k="name" v="Skøytenesvika" />
		<tag k="natural" v="bay" />
		<tag k="ssr:stedsnr" v="200933" />
	</node>
	<node id="-753397" lat="69.511713891" lon="17.0774583414">
		<tag k="name" v="Moskolten" />
		<tag k="natural" v="shoal" />
		<tag k="place" v="locality" />
		<tag k="ssr:stedsnr" v="200932" />
	</node>
	<node id="-753388" lat="69.3823638904" lon="17.3768611207">
		<tag k="fixme" v="consider seamark:type=rock or natural=shoal" />
		<tag k="name" v="Hompen" />
		<tag k="place" v="islet" />
		<tag k="ssr:stedsnr" v="200360" />
	</node>
	<node id="-753386" lat="69.4169666699" lon="17.2849805612">
		<tag k="bay" v="fjord" />
		<tag k="name" v="Lavollsfjorden" />
		<tag k="natural" v="bay" />
		<tag k="ssr:stedsnr" v="200269" />
	</node>
	<node id="-753385" lat="69.4101527738" lon="17.1427027785">
		<tag k="alt_name" v="Skinnstakkskjeret" />
		<tag k="fixme" v="consider seamark:type=rock or natural=shoal" />
		<tag k="name" v="Skinnstakkskjæret" />
		<tag k="place" v="islet" />
		<tag k="ssr:stedsnr" v="200260" />
	</node>
	<node id="-753383" lat="69.4762444414" lon="17.3302194373">
		<tag k="name" v="Karveneset" />
		<tag k="natural" v="cape" />
		<tag k="ssr:stedsnr" v="200177" />
	</node>
	<node id="-753381" lat="69.54278333" lon="17.1579638743">
		<tag k="name" v="Frøgrunnan" />
		<tag k="natural" v="shoal" />
		<tag k="place" v="locality" />
		<tag k="ssr:stedsnr" v="181048" />
	</node>
	<node id="-753378" lat="69.469908335" lon="17.6794888772">
		<tag k="name" v="Purkespelen" />
		<tag k="natural" v="cape" />
		<tag k="ssr:stedsnr" v="176236" />
	</node>
	<node id="-753363" lat="69.4880472249" lon="17.4876055479">
		<tag k="name" v="Kjelen" />
		<tag k="natural" v="bay" />
		<tag k="ssr:stedsnr" v="175043" />
	</node>
	<node id="-753362" lat="69.4953611138" lon="17.5003666755">
		<tag k="name" v="Hopen" />
		<tag k="natural" v="bay" />
		<tag k="ssr:stedsnr" v="175042" />
	</node>
	<node id="-753359" lat="69.3900250023" lon="17.384005555">
		<tag k="name" v="Brattbakkneset" />
		<tag k="natural" v="cape" />
		<tag k="ssr:stedsnr" v="174951" />
	</node>
	<node id="-753353" lat="69.4439222191" lon="17.2974666683">
		<tag k="name" v="Pila" />
		<tag k="natural" v="cape" />
		<tag k="ssr:stedsnr" v="174824" />
	</node>
	<node id="-753348" lat="69.4842138931" lon="17.2105083282">
		<tag k="name" v="Svartholla" />
		<tag k="natural" v="bay" />
		<tag k="ssr:stedsnr" v="174693" />
	</node>
	<node id="-753347" lat="69.4801555587" lon="17.2115333248">
		<tag k="name" v="Bardneskeila" />
		<tag k="natural" v="bay" />
		<tag k="ssr:stedsnr" v="174692" />
	</node>
	<node id="-753346" lat="69.39594722" lon="17.3142999955">
		<tag k="name" v="Trovika" />
		<tag k="natural" v="bay" />
		<tag k="ssr:stedsnr" v="174406" />
	</node>
	<node id="-753344" lat="69.3956583363" lon="17.3156666551">
		<tag k="name" v="Trovikneset" />
		<tag k="natural" v="cape" />
		<tag k="ssr:stedsnr" v="174401" />
	</node>
	<node id="-753338" lat="69.4508249974" lon="17.1000138753">
		<tag k="name" v="Skumholla" />
		<tag k="natural" v="bay" />
		<tag k="ssr:stedsnr" v="174188" />
	</node>
	<node id="-753337" lat="69.4474666704" lon="17.0670694463">
		<tag k="name" v="Fallan" />
		<tag k="place" v="locality" />
		<tag k="seamark:type" v="rock" />
		<tag k="ssr:stedsnr" v="174184" />
	</node>
	<node id="-753335" lat="69.4266916633" lon="17.1979360967">
		<tag k="fixme" v="consider seamark:type=rock or natural=shoal" />
		<tag k="name" v="Gåseskjæret" />
		<tag k="place" v="islet" />
		<tag k="ssr:stedsnr" v="174093" />
	</node>
	<node id="-753334" lat="69.4737666674" lon="17.3292499865">
		<tag k="name" v="Karveneset" />
		<tag k="natural" v="cape" />
		<tag k="ssr:stedsnr" v="174077" />
	</node>
	<node id="-753330" lat="69.4074055524" lon="17.3214000077">
		<tag k="name" v="Skjåneset" />
		<tag k="natural" v="cape" />
		<tag k="ssr:stedsnr" v="168868" />
	</node>
	<node id="-753329" lat="69.430191667" lon="17.1210694468">
		<tag k="name" v="Rosmolen" />
		<tag k="natural" v="shoal" />
		<tag k="place" v="locality" />
		<tag k="ssr:stedsnr" v="168821" />
	</node>
	<node id="-753327" lat="69.4993055597" lon="17.2619194466">
		<tag k="name" v="Indre Lutbåen" />
		<tag k="natural" v="shoal" />
		<tag k="place" v="locality" />
		<tag k="ssr:stedsnr" v="167964" />
	</node>
	<node id="-753326" lat="69.4430583335" lon="17.2944027797">
		<tag k="name" v="Piltsteinan" />
		<tag k="place" v="locality" />
		<tag k="seamark:type" v="rock" />
		<tag k="ssr:stedsnr" v="167903" />
	</node>
	<node id="-753325" lat="69.4270444427" lon="17.2853194463">
		<tag k="name" v="Flatnesgrunnen" />
		<tag k="natural" v="cape" />
		<tag k="ssr:stedsnr" v="167900" />
	</node>
	<node id="-753324" lat="69.4162333322" lon="17.3002027802">
		<tag k="alt_name" v="Tårvikholmen" />
		<tag k="name" v="Torvikholmen" />
		<tag k="place" v="islet" />
		<tag k="ssr:stedsnr" v="167891" />
	</node>
	<node id="-753322" lat="69.413558337" lon="17.1401333256">
		<tag k="name" v="Hellandsneset" />
		<tag k="natural" v="cape" />
		<tag k="ssr:stedsnr" v="155239" />
	</node>
	<node id="-753320" lat="69.489052774" lon="17.335905543">
		<tag k="name" v="Tungeneset" />
		<tag k="natural" v="cape" />
		<tag k="ssr:stedsnr" v="147381" />
	</node>
	<node id="-753313" lat="69.5459916672" lon="17.1554472295">
		<tag k="alt_name" v="Frøgrunnen, nordre" />
		<tag k="name" v="Nordre Frøgrunnen" />
		<tag k="natural" v="shoal" />
		<tag k="place" v="locality" />
		<tag k="ssr:stedsnr" v="139998" />
	</node>
	<node id="-753312" lat="69.538777782" lon="17.3425027762">
		<tag k="name" v="Bremneset" />
		<tag k="natural" v="cape" />
		<tag k="ssr:stedsnr" v="139997" />
	</node>
	<node id="-753311" lat="69.5092083317" lon="17.0435249951">
		<tag k="name" v="Hellaskoltan" />
		<tag k="natural" v="shoal" />
		<tag k="place" v="locality" />
		<tag k="ssr:stedsnr" v="139940" />
	</node>
	<node id="-753310" lat="69.5238805525" lon="17.4200277708">
		<tag k="name" v="Knutevika" />
		<tag k="natural" v="bay" />
		<tag k="ssr:stedsnr" v="139933" />
	</node>
	<node id="-753309" lat="69.5267527816" lon="17.1074083313">
		<tag k="name" v="Tverrfallet" />
		<tag k="natural" v="shoal" />
		<tag k="place" v="locality" />
		<tag k="ssr:stedsnr" v="139932" />
	</node>
	<node id="-753307" lat="69.519105552" lon="17.0648110977">
		<tag k="name" v="Bakkebåen" />
		<tag k="natural" v="shoal" />
		<tag k="place" v="locality" />
		<tag k="ssr:stedsnr" v="139927" />
	</node>
	<node id="-753303" lat="69.4039861096" lon="17.2931194499">
		<tag k="name" v="Straumen" />
		<tag k="natural" v="strait" />
		<tag k="ssr:stedsnr" v="139357" />
	</node>
	<node id="-753302" lat="69.4081083328" lon="17.3264055443">
		<tag k="name" v="Kjosen" />
		<tag k="natural" v="bay" />
		<tag k="ssr:stedsnr" v="139278" />
	</node>
	<node id="-753300" lat="69.4185333357" lon="17.1426555608">
		<tag k="alt_name" v="Bardan" />
		<tag k="name" v="Baran" />
		<tag k="place" v="islet" />
		<tag k="ssr:stedsnr" v="139257" />
	</node>
	<node id="-753299" lat="69.4396583303" lon="17.224341662">
		<tag k="alt_name" v="Færøya, store" />
		<tag k="name" v="Store Færøya" />
		<tag k="place" v="island" />
		<tag k="ssr:stedsnr" v="139312" />
	</node>
	<node id="-753298" lat="69.4945083334" lon="17.1231805605">
		<tag k="name" v="Presteskolten" />
		<tag k="natural" v="shoal" />
		<tag k="place" v="locality" />
		<tag k="ssr:stedsnr" v="139212" />
	</node>
	<node id="-753295" lat="69.4836499988" lon="17.2126166701">
		<tag k="alt_name" v="Bardneset, yt" />
		<tag k="name" v="Ytre Bardneset" />
		<tag k="natural" v="cape" />
		<tag k="ssr:stedsnr" v="139199" />
	</node>
	<node id="-753293" lat="69.4889749974" lon="17.3547694513">
		<tag k="bay" v="fjord" />
		<tag k="name" v="Ersfjorden" />
		<tag k="natural" v="bay" />
		<tag k="ssr:stedsnr" v="139196" />
	</node>
	<node id="-753292" lat="69.4758999991" lon="17.2198749922">
		<tag k="name" v="Kvalvika" />
		<tag k="natural" v="bay" />
		<tag k="ssr:stedsnr" v="139186" />
	</node>
	<node id="-753281" lat="69.4728611089" lon="17.5569055539">
		<tag k="name" v="Indre Kvalvikneset" />
		<tag k="natural" v="cape" />
		<tag k="ssr:stedsnr" v="115231" />
	</node>
	<node id="-753280" lat="69.4918499976" lon="17.5484749989">
		<tag k="name" v="Otervika" />
		<tag k="natural" v="bay" />
		<tag k="ssr:stedsnr" v="115228" />
	</node>
	<node id="-753274" lat="69.5330333325" lon="17.3888277782">
		<tag k="name" v="Brursenga" />
		<tag k="place" v="islet" />
		<tag k="ssr:stedsnr" v="115163" />
	</node>
	<node id="-753270" lat="69.4280611073" lon="17.4390472283">
		<tag k="name" v="Finnkonlandet" />
		<tag k="natural" v="beach" />
		<tag k="place" v="locality" />
		<tag k="ssr:stedsnr" v="115128" />
	</node>
	<node id="-753264" lat="69.4675444459" lon="17.2385666549">
		<tag k="name" v="Bøvika" />
		<tag k="natural" v="bay" />
		<tag k="ssr:stedsnr" v="114434" />
	</node>
	<node id="-753261" lat="69.4531444441" lon="17.2583138841">
		<tag k="name" v="Kumulen" />
		<tag k="natural" v="beach" />
		<tag k="place" v="locality" />
		<tag k="ssr:stedsnr" v="114289" />
	</node>
	<node id="-753250" lat="69.4754500017" lon="17.2212472205">
		<tag k="name" v="Kvalvikneset" />
		<tag k="natural" v="cape" />
		<tag k="ssr:stedsnr" v="113439" />
	</node>
	<node id="-753249" lat="69.4024444484" lon="17.3112694481">
		<tag k="name" v="Kroken" />
		<tag k="natural" v="beach" />
		<tag k="place" v="locality" />
		<tag k="ssr:stedsnr" v="113396" />
	</node>
	<node id="-753247" lat="69.3784444424" lon="17.3582833322">
		<tag k="name" v="Rørneset" />
		<tag k="natural" v="cape" />
		<tag k="ssr:stedsnr" v="113313" />
	</node>
	<node id="-753246" lat="69.445477782" lon="17.1840972174">
		<tag k="name" v="Løvholmen" />
		<tag k="place" v="islet" />
		<tag k="ssr:stedsnr" v="113130" />
	</node>
	<node id="-753245" lat="69.4271750007" lon="17.1922083241">
		<tag k="name" v="Ytre Risøya" />
		<tag k="place" v="island" />
		<tag k="ssr:stedsnr" v="113111" />
	</node>
	<node id="-753241" lat="69.4563222216" lon="17.2471138893">
		<tag k="name" v="Rognan" />
		<tag k="natural" v="cape" />
		<tag k="ssr:stedsnr" v="113026" />
	</node>
	<node id="-753239" lat="69.5006361098" lon="17.2005416767">
		<tag k="name" v="Matneset" />
		<tag k="natural" v="cape" />
		<tag k="ssr:stedsnr" v="113012" />
	</node>
	<node id="-753238" lat="69.5028999991" lon="17.2059916609">
		<tag k="name" v="Brødrene" />
		<tag k="place" v="locality" />
		<tag k="seamark:type" v="rock" />
		<tag k="ssr:stedsnr" v="113009" />
	</node>
	<node id="-753237" lat="69.4642638883" lon="17.2253638954">
		<tag k="name" v="Handkleneset" />
		<tag k="natural" v="cape" />
		<tag k="ssr:stedsnr" v="113006" />
	</node>
	<node id="-753236" lat="69.4953250038" lon="17.2677694487">
		<tag k="name" v="Storvikfallet" />
		<tag k="natural" v="shoal" />
		<tag k="place" v="locality" />
		<tag k="ssr:stedsnr" v="107960" />
	</node>
	<node id="-753234" lat="69.4385805573" lon="17.1348333308">
		<tag k="fixme" v="consider seamark:type=rock or natural=shoal" />
		<tag k="name" v="Hjellskjæret" />
		<tag k="place" v="islet" />
		<tag k="ssr:stedsnr" v="107857" />
	</node>
	<node id="-753233" lat="69.4326916704" lon="17.2492222312">
		<tag k="name" v="Færøystein" />
		<tag k="place" v="locality" />
		<tag k="seamark:type" v="rock" />
		<tag k="ssr:stedsnr" v="107846" />
	</node>
	<node id="-753232" lat="69.430291665" lon="17.1349861021">
		<tag k="name" v="Rosmolskjæret" />
		<tag k="natural" v="shoal" />
		<tag k="place" v="locality" />
		<tag k="ssr:stedsnr" v="107834" />
	</node>
	<node id="-753231" lat="69.4244805523" lon="17.2403277676">
		<tag k="name" v="Kvannholman" />
		<tag k="place" v="islet" />
		<tag k="ssr:stedsnr" v="107618" />
	</node>
	<node id="-753230" lat="69.4787527742" lon="17.3140222091">
		<tag k="alt_name" v="Høgbåen" />
		<tag k="name" v="Høybøen" />
		<tag k="natural" v="shoal" />
		<tag k="place" v="locality" />
		<tag k="ssr:stedsnr" v="106946" />
	</node>
	<node id="-753227" lat="69.6114416675" lon="17.2446055619">
		<tag k="name" v="Bentsbåen" />
		<tag k="natural" v="shoal" />
		<tag k="place" v="locality" />
		<tag k="ssr:stedsnr" v="79994" />
	</node>
	<node id="-753226" lat="69.5228166705" lon="17.1202000026">
		<tag k="alt_name" v="Meløya" />
		<tag k="name" v="Meløy" />
		<tag k="natural" v="shoal" />
		<tag k="place" v="locality" />
		<tag k="ssr:stedsnr" v="79931" />
	</node>
	<node id="-753222" lat="69.4436444455" lon="17.1225194334">
		<tag k="name" v="Bergsøyan" />
		<tag k="place" v="island" />
		<tag k="ssr:stedsnr" v="79296" />
	</node>
	<node id="-753216" lat="69.6500000021" lon="16.94999999">
		<tag k="name" v="Sildsøyla" />
		<tag k="natural" v="shoal" />
		<tag k="place" v="locality" />
		<tag k="ssr:stedsnr" v="59656" />
	</node>
	<node id="-753209" lat="69.5405638899" lon="17.4991749906">
		<tag k="name" v="Holmekeila" />
		<tag k="natural" v="bay" />
		<tag k="ssr:stedsnr" v="55194" />
	</node>
	<node id="-753202" lat="69.4631138856" lon="17.5794416637">
		<tag k="name" v="Hestebukta" />
		<tag k="natural" v="bay" />
		<tag k="ssr:stedsnr" v="54294" />
	</node>
	<node id="-753200" lat="69.3797444467" lon="17.4049555545">
		<tag k="name" v="Forraneset" />
		<tag k="natural" v="cape" />
		<tag k="ssr:stedsnr" v="53947" />
	</node>
	<node id="-753193" lat="69.4943777749" lon="17.4840555627">
		<tag k="name" v="Hamneneset" />
		<tag k="natural" v="cape" />
		<tag k="ssr:stedsnr" v="54070" />
	</node>
	<node id="-753187" lat="69.4541694457" lon="17.169338882">
		<tag k="name" v="Bergsråsa" />
		<tag k="place" v="locality" />
		<tag k="ssr:stedsnr" v="52990" />
	</node>
	<node id="-753183" lat="69.3742111142" lon="17.3848138866">
		<tag k="name" v="Sandholmen" />
		<tag k="place" v="islet" />
		<tag k="ssr:stedsnr" v="52902" />
	</node>
	<node id="-753182" lat="69.369675001" lon="17.3907583244">
		<tag k="name" v="Skavholmen" />
		<tag k="place" v="islet" />
		<tag k="ssr:stedsnr" v="52900" />
	</node>
	<node id="-753175" lat="69.4551777774" lon="17.250183341">
		<tag k="name" v="Koppervika" />
		<tag k="natural" v="bay" />
		<tag k="ssr:stedsnr" v="52435" />
	</node>
	<node id="-753173" lat="69.4655555592" lon="17.2250777902">
		<tag k="name" v="Pollen" />
		<tag k="natural" v="cape" />
		<tag k="ssr:stedsnr" v="52394" />
	</node>
	<node id="-753171" lat="69.4443888919" lon="17.1748222327">
		<tag k="name" v="Store Thomasøya" />
		<tag k="place" v="islet" />
		<tag k="ssr:stedsnr" v="52123" />
	</node>
	<node id="-753170" lat="69.4426944419" lon="17.1581694394">
		<tag k="name" v="Småkvaløyan" />
		<tag k="place" v="islet" />
		<tag k="ssr:stedsnr" v="52117" />
	</node>
	<node id="-753169" lat="69.4514111096" lon="17.1417388755">
		<tag k="name" v="Lille Teistholmen" />
		<tag k="place" v="islet" />
		<tag k="ssr:stedsnr" v="52114" />
	</node>
	<node id="-753168" lat="69.44370833" lon="17.158794448">
		<tag k="name" v="Buholmen" />
		<tag k="place" v="islet" />
		<tag k="ssr:stedsnr" v="52110" />
	</node>
	<node id="-753165" lat="69.4226833321" lon="17.1553722127">
		<tag k="name" v="Søndre Flatholmen" />
		<tag k="place" v="islet" />
		<tag k="ssr:stedsnr" v="52060" />
	</node>
	<node id="-753164" lat="69.461930555" lon="17.2404916615">
		<tag k="name" v="Knarrvikhalsen" />
		<tag k="natural" v="cape" />
		<tag k="ssr:stedsnr" v="52042" />
	</node>
	<node id="-753162" lat="69.4637500007" lon="17.2264777784">
		<tag k="fixme" v="consider seamark:type=rock or natural=shoal" />
		<tag k="name" v="Handkleskjæret" />
		<tag k="place" v="islet" />
		<tag k="ssr:stedsnr" v="52004" />
	</node>
	<node id="-753159" lat="69.557938893" lon="17.6416694364">
		<tag k="fixme" v="consider seamark:type=rock or natural=shoal" />
		<tag k="name" v="Øyfjordgrunnen" />
		<tag k="place" v="islet" />
		<tag k="ssr:stedsnr" v="47890" />
	</node>
	<node id="-753158" lat="69.4179611119" lon="17.2965416731">
		<tag k="name" v="Kverna" />
		<tag k="natural" v="shoal" />
		<tag k="place" v="locality" />
		<tag k="ssr:stedsnr" v="46894" />
	</node>
	<node id="-753157" lat="69.4126500023" lon="17.2048416604">
		<tag k="fixme" v="multiple name tags, choose one and add the other to alt_name" />
		<tag k="name" v="Austbreidvika;Breivika" />
		<tag k="natural" v="bay" />
		<tag k="ssr:stedsnr" v="46866" />
	</node>
	<node id="-753156" lat="69.4334416675" lon="17.1826388916">
		<tag k="fixme" v="consider seamark:type=rock or natural=shoal" />
		<tag k="name" v="Tindskjæret" />
		<tag k="place" v="islet" />
		<tag k="ssr:stedsnr" v="46844" />
	</node>
	<node id="-753155" lat="69.4729166708" lon="17.2287166583">
		<tag k="name" v="Sandvika" />
		<tag k="natural" v="bay" />
		<tag k="ssr:stedsnr" v="46809" />
	</node>
	<node id="-753154" lat="69.4581916713" lon="17.1360972151">
		<tag k="name" v="Galten" />
		<tag k="natural" v="shoal" />
		<tag k="place" v="locality" />
		<tag k="ssr:stedsnr" v="46425" />
	</node>
	<node id="-753148" lat="69.4391694397" lon="17.4361416748">
		<tag k="alt_name" v="Bergsbotnen" />
		<tag k="name" v="Bergsbotn" />
		<tag k="natural" v="bay" />
		<tag k="ssr:stedsnr" v="19438" />
	</node>
	<node id="-753144" lat="69.3701777821" lon="17.3869388916">
		<tag k="name" v="Storholmen" />
		<tag k="place" v="islet" />
		<tag k="ssr:stedsnr" v="19301" />
	</node>
	<node id="-753142" lat="69.3725222253" lon="17.3694944472">
		<tag k="name" v="Spekelvbukta" />
		<tag k="natural" v="bay" />
		<tag k="ssr:stedsnr" v="19292" />
	</node>
	<node id="-753139" lat="69.4682777764" lon="17.0507944443">
		<tag k="alt_name" v="Trollskjeran;Trollskjæret" />
		<tag k="fixme" v="consider seamark:type=rock or natural=shoal" />
		<tag k="name" v="Trollskjæran" />
		<tag k="place" v="islet" />
		<tag k="ssr:stedsnr" v="19263" />
	</node>
	<node id="-753138" lat="69.4650222252" lon="17.3089250116">
		<tag k="name" v="Ersvika" />
		<tag k="natural" v="bay" />
		<tag k="ssr:stedsnr" v="19260" />
	</node>
	<node id="-753137" lat="69.5383361139" lon="17.0534861202">
		<tag k="name" v="Skreigrunnsdjupet" />
		<tag k="place" v="locality" />
		<tag k="ssr:stedsnr" v="19000" />
	</node>
	<node id="-753136" lat="69.5391027759" lon="17.3053305626">
		<tag k="name" v="Stålhausen" />
		<tag k="natural" v="cape" />
		<tag k="ssr:stedsnr" v="18997" />
	</node>
	<node id="-753135" lat="69.6018305551" lon="17.3970527755">
		<tag k="name" v="Bastianskolten" />
		<tag k="natural" v="shoal" />
		<tag k="place" v="locality" />
		<tag k="ssr:stedsnr" v="18992" />
	</node>
	<node id="-753134" lat="69.5105000034" lon="17.3482000034">
		<tag k="name" v="Hundslaupneset" />
		<tag k="natural" v="cape" />
		<tag k="ssr:stedsnr" v="18949" />
	</node>
	<node id="-753133" lat="69.5043250021" lon="17.2200833286">
		<tag k="alt_name" v="Spora" />
		<tag k="name" v="Sporra" />
		<tag k="natural" v="cape" />
		<tag k="ssr:stedsnr" v="18938" />
	</node>
	<node id="-753131" lat="69.5163333327" lon="17.4777305646">
		<tag k="name" v="Mykjeneset" />
		<tag k="natural" v="cape" />
		<tag k="ssr:stedsnr" v="18804" />
	</node>
	<node id="-753130" lat="69.5744472254" lon="17.4671583436">
		<tag k="alt_name" v="Gilbergsneset" />
		<tag k="name" v="Gilbergneset" />
		<tag k="natural" v="cape" />
		<tag k="old_name" v="Gilberneset" />
		<tag k="ssr:stedsnr" v="18708" />
	</node>
	<node id="-753128" lat="69.4745305517" lon="17.5549472311">
		<tag k="name" v="Kvalvika" />
		<tag k="natural" v="bay" />
		<tag k="ssr:stedsnr" v="18455" />
	</node>
	<node id="-753126" lat="69.4201972242" lon="17.4127388949">
		<tag k="alt_name" v="Jøvika, in" />
		<tag k="name" v="Indre Jøvika" />
		<tag k="natural" v="bay" />
		<tag k="ssr:stedsnr" v="18235" />
	</node>
	<node id="-753124" lat="69.4377999965" lon="17.1234277705">
		<tag k="fixme" v="consider seamark:type=rock or natural=shoal" />
		<tag k="name" v="Kjerringa" />
		<tag k="place" v="islet" />
		<tag k="ssr:stedsnr" v="18229" />
	</node>
	<node id="-753122" lat="69.4843083349" lon="17.1846833224">
		<tag k="alt_name" v="Langskjeran;Langskjæran" />
		<tag k="fixme" v="consider seamark:type=rock or natural=shoal" />
		<tag k="name" v="Langskjæret" />
		<tag k="place" v="islet" />
		<tag k="ssr:stedsnr" v="18177" />
	</node>
	<node id="-753120" lat="69.4894611128" lon="17.6148749931">
		<tag k="name" v="Kjellarvika" />
		<tag k="natural" v="bay" />
		<tag k="ssr:stedsnr" v="18441" />
	</node>
	<node id="-753086" lat="69.5652194464" lon="17.4071610986">
		<tag k="name" v="Steinen" />
		<tag k="natural" v="shoal" />
		<tag k="place" v="locality" />
		<tag k="ssr:stedsnr" v="896995" />
	</node>
	<node id="-753085" lat="69.4123583378" lon="17.1818860999">
		<tag k="alt_name" v="Mølnekjosen" />
		<tag k="name" v="Mølnkjosen" />
		<tag k="natural" v="bay" />
		<tag k="ssr:stedsnr" v="896888" />
	</node>
	<node id="-753084" lat="69.4906777822" lon="17.1754666571">
		<tag k="name" v="Nordvestre Leikampen" />
		<tag k="natural" v="shoal" />
		<tag k="place" v="locality" />
		<tag k="ssr:stedsnr" v="895789" />
	</node>
	<node id="-753083" lat="69.5410722244" lon="17.307402769">
		<tag k="name" v="Kjeila" />
		<tag k="natural" v="bay" />
		<tag k="ssr:stedsnr" v="894963" />
	</node>
	<node id="-753081" lat="69.5041833344" lon="17.4915444399">
		<tag k="name" v="Stranda" />
		<tag k="natural" v="beach" />
		<tag k="place" v="locality" />
		<tag k="ssr:stedsnr" v="479239" />
	</node>
	<node id="-753072" lat="69.4387750014" lon="17.4083861095">
		<tag k="name" v="Toften" />
		<tag k="natural" v="cape" />
		<tag k="ssr:stedsnr" v="478522" />
	</node>
	<node id="-753066" lat="69.3787916702" lon="17.3777722345">
		<tag k="fixme" v="consider seamark:type=rock or natural=shoal" />
		<tag k="name" v="Skarveskjæret" />
		<tag k="place" v="islet" />
		<tag k="ssr:stedsnr" v="477940" />
	</node>
	<node id="-753065" lat="69.4359388859" lon="17.3657833187">
		<tag k="name" v="Geitsteinen" />
		<tag k="natural" v="shoal" />
		<tag k="place" v="locality" />
		<tag k="ssr:stedsnr" v="477911" />
	</node>
	<node id="-753057" lat="69.4813388902" lon="17.2931972305">
		<tag k="name" v="Steinkrøssa" />
		<tag k="natural" v="beach" />
		<tag k="place" v="locality" />
		<tag k="ssr:stedsnr" v="477787" />
	</node>
	<node id="-753051" lat="69.4736833337" lon="17.2263805422">
		<tag k="name" v="Laukvikneset" />
		<tag k="natural" v="cape" />
		<tag k="ssr:stedsnr" v="477482" />
	</node>
	<node id="-753049" lat="69.4032611073" lon="17.336772215">
		<tag k="name" v="Lavollskjosen" />
		<tag k="natural" v="bay" />
		<tag k="ssr:stedsnr" v="477377" />
	</node>
	<node id="-753047" lat="69.4368805518" lon="17.1564638903">
		<tag k="name" v="Kvaløykåsa" />
		<tag k="place" v="locality" />
		<tag k="ssr:stedsnr" v="477140" />
	</node>
	<node id="-753045" lat="69.4292166669" lon="17.162436117">
		<tag k="name" v="Søndre Værholmen" />
		<tag k="place" v="islet" />
		<tag k="ssr:stedsnr" v="477100" />
	</node>
	<node id="-753044" lat="69.4146861097" lon="17.1782999853">
		<tag k="name" v="Fleinskallen" />
		<tag k="natural" v="cape" />
		<tag k="ssr:stedsnr" v="477097" />
	</node>
	<node id="-753043" lat="69.4121388913" lon="17.1996638882">
		<tag k="name" v="Breivikneset" />
		<tag k="natural" v="cape" />
		<tag k="ssr:stedsnr" v="477098" />
	</node>
	<node id="-753041" lat="69.4249305531" lon="17.1940888818">
		<tag k="name" v="Langholmen" />
		<tag k="place" v="islet" />
		<tag k="ssr:stedsnr" v="477081" />
	</node>
	<node id="-753037" lat="69.4623444422" lon="17.2385333183">
		<tag k="name" v="Knarrvikneset" />
		<tag k="natural" v="cape" />
		<tag k="ssr:stedsnr" v="476039" />
	</node>
	<node id="-753034" lat="69.5916027791" lon="17.6987888872">
		<tag k="fixme" v="consider seamark:type=rock or natural=shoal" />
		<tag k="name" v="Spansklikuskjæret" />
		<tag k="place" v="islet" />
		<tag k="ssr:stedsnr" v="411915" />
	</node>
	<node id="-753032" lat="69.426191668" lon="17.3111999932">
		<tag k="name" v="Nordre Flatneset" />
		<tag k="natural" v="cape" />
		<tag k="ssr:stedsnr" v="410874" />
	</node>
	<node id="-753030" lat="69.4883027745" lon="17.1788055563">
		<tag k="name" v="Sydøstre Leikampen" />
		<tag k="natural" v="shoal" />
		<tag k="place" v="locality" />
		<tag k="ssr:stedsnr" v="409793" />
	</node>
	<node id="-753028" lat="69.5363833312" lon="17.1217999859">
		<tag k="name" v="Purkefallet" />
		<tag k="natural" v="shoal" />
		<tag k="place" v="locality" />
		<tag k="ssr:stedsnr" v="382995" />
	</node>
	<node id="-753025" lat="69.5398888896" lon="17.4964111136">
		<tag k="name" v="Holmen" />
		<tag k="place" v="islet" />
		<tag k="ssr:stedsnr" v="382854" />
	</node>
	<node id="-753019" lat="69.4814666687" lon="17.6045944431">
		<tag k="alt_name" v="Skjeret" />
		<tag k="fixme" v="consider seamark:type=rock or natural=shoal" />
		<tag k="name" v="Skjæret" />
		<tag k="place" v="islet" />
		<tag k="ssr:stedsnr" v="382469" />
	</node>
	<node id="-753014" lat="69.4482916646" lon="16.9868416578">
		<tag k="name" v="Stabben" />
		<tag k="natural" v="shoal" />
		<tag k="place" v="locality" />
		<tag k="ssr:stedsnr" v="382310" />
	</node>
	<node id="-753013" lat="69.4629833313" lon="17.2379805481">
		<tag k="name" v="Knarrvika" />
		<tag k="natural" v="bay" />
		<tag k="ssr:stedsnr" v="382292" />
	</node>
	<node id="-753007" lat="69.5972222245" lon="16.5805555506">
		<tag k="name" v="Langtindsøyla" />
		<tag k="natural" v="shoal" />
		<tag k="place" v="locality" />
		<tag k="ssr:stedsnr" v="363031" />
	</node>
	<node id="-753003" lat="69.5004722255" lon="17.4990444442">
		<tag k="name" v="Skrallet" />
		<tag k="natural" v="shoal" />
		<tag k="place" v="locality" />
		<tag k="ssr:stedsnr" v="358223" />
	</node>
	<node id="-753000" lat="69.516505552" lon="17.4445722289">
		<tag k="name" v="Bjorvika" />
		<tag k="natural" v="bay" />
		<tag k="ssr:stedsnr" v="358200" />
	</node>
	<node id="-752999" lat="69.4768833327" lon="17.6446805466">
		<tag k="name" v="Renneshollet" />
		<tag k="natural" v="bay" />
		<tag k="ssr:stedsnr" v="358198" />
	</node>
	<node id="-752990" lat="69.363369442" lon="17.3892194426">
		<tag k="name" v="Slåtteholmen" />
		<tag k="natural" v="cape" />
		<tag k="ssr:stedsnr" v="356853" />
	</node>
	<node id="-752987" lat="69.4407833324" lon="17.341277767">
		<tag k="name" v="Skjellelvbukta" />
		<tag k="natural" v="bay" />
		<tag k="ssr:stedsnr" v="356775" />
	</node>
	<node id="-752983" lat="69.4106444485" lon="17.3200138816">
		<tag k="name" v="Indre Båtneset" />
		<tag k="natural" v="cape" />
		<tag k="ssr:stedsnr" v="356368" />
	</node>
	<node id="-752980" lat="69.4408499979" lon="17.2194361136">
		<tag k="name" v="Sandvika" />
		<tag k="natural" v="bay" />
		<tag k="ssr:stedsnr" v="356264" />
	</node>
	<node id="-752978" lat="69.4244777753" lon="17.2026972295">
		<tag k="name" v="Klaraholmen" />
		<tag k="place" v="islet" />
		<tag k="ssr:stedsnr" v="356065" />
	</node>
	<node id="-752975" lat="69.3712527814" lon="17.3809555665">
		<tag k="name" v="Ytterholmen" />
		<tag k="place" v="islet" />
		<tag k="ssr:stedsnr" v="355886" />
	</node>
	<node id="-752968" lat="69.4485999975" lon="17.1423722155">
		<tag k="name" v="Værholmen" />
		<tag k="place" v="islet" />
		<tag k="ssr:stedsnr" v="355145" />
	</node>
	<node id="-752967" lat="69.4850694449" lon="17.1864583363">
		<tag k="fixme" v="consider seamark:type=rock or natural=shoal" />
		<tag k="name" v="Manndauskjæret" />
		<tag k="place" v="islet" />
		<tag k="ssr:stedsnr" v="355095" />
	</node>
	<node id="-752966" lat="69.4668333336" lon="17.3408305614">
		<tag k="name" v="Ytterneset" />
		<tag k="natural" v="cape" />
		<tag k="ssr:stedsnr" v="355078" />
	</node>
	<node id="-752965" lat="69.4181250039" lon="17.1634416785">
		<tag k="loc_name" v="Langbarden" />
		<tag k="name" v="Langbaren" />
		<tag k="place" v="islet" />
		<tag k="ssr:stedsnr" v="355068" />
	</node>
	<node id="-752962" lat="69.4187277785" lon="17.1312638798">
		<tag k="fixme" v="consider seamark:type=rock or natural=shoal" />
		<tag k="name" v="Skarvskjæran" />
		<tag k="place" v="islet" />
		<tag k="ssr:stedsnr" v="349861" />
	</node>
	<node id="-752961" lat="69.4814916691" lon="17.2119611083">
		<tag k="name" v="Seljevika" />
		<tag k="natural" v="bay" />
		<tag k="ssr:stedsnr" v="349819" />
	</node>
	<node id="-752957" lat="69.4750527817" lon="17.2946611098">
		<tag k="name" v="Heslevika" />
		<tag k="natural" v="bay" />
		<tag k="ssr:stedsnr" v="329065" />
	</node>
	<node id="-752953" lat="69.5602500044" lon="17.4196861003">
		<tag k="alt_name" v="Fallan, in" />
		<tag k="name" v="Indre Fallan" />
		<tag k="natural" v="shoal" />
		<tag k="place" v="locality" />
		<tag k="ssr:stedsnr" v="322836" />
	</node>
	<node id="-752949" lat="69.4595638928" lon="17.5985972099">
		<tag k="alt_name" v="Svartholla" />
		<tag k="name" v="Svarthola" />
		<tag k="natural" v="bay" />
		<tag k="ssr:stedsnr" v="322477" />
	</node>
	<node id="-752948" lat="69.4410666638" lon="17.421316657">
		<tag k="name" v="Lutnes" />
		<tag k="natural" v="cape" />
		<tag k="ssr:stedsnr" v="322460" />
	</node>
	<node id="-752941" lat="69.4658083333" lon="17.0097638782">
		<tag k="name" v="Fiskenesbåan" />
		<tag k="natural" v="shoal" />
		<tag k="place" v="locality" />
		<tag k="ssr:stedsnr" v="322270" />
	</node>
	<node id="-752938" lat="69.4710861118" lon="17.2057527759">
		<tag k="name" v="Bøholmen" />
		<tag k="place" v="islet" />
		<tag k="ssr:stedsnr" v="322262" />
	</node>
	<node id="-752936" lat="69.4943583302" lon="17.2551888742">
		<tag k="name" v="Storvika" />
		<tag k="natural" v="bay" />
		<tag k="ssr:stedsnr" v="322179" />
	</node>
	<node id="-752934" lat="69.6369861131" lon="17.3015250089">
		<tag k="name" v="Askebåen" />
		<tag k="natural" v="shoal" />
		<tag k="place" v="locality" />
		<tag k="ssr:stedsnr" v="321983" />
	</node>
	<node id="-752933" lat="69.5628166637" lon="17.4069638776">
		<tag k="alt_name" v="Fallan, yt" />
		<tag k="name" v="Ytre Fallan" />
		<tag k="natural" v="shoal" />
		<tag k="place" v="locality" />
		<tag k="ssr:stedsnr" v="321980" />
	</node>
	<node id="-752932" lat="69.5664999961" lon="17.2169999911">
		<tag k="name" v="Kylgrunnen" />
		<tag k="natural" v="shoal" />
		<tag k="place" v="locality" />
		<tag k="ssr:stedsnr" v="321979" />
	</node>
	<node id="-752929" lat="69.4368472265" lon="17.2358249964">
		<tag k="alt_name" v="Færøya, l;Litle Færøya" />
		<tag k="name" v="Lille Færøya" />
		<tag k="place" v="island" />
		<tag k="ssr:stedsnr" v="321293" />
	</node>
	<node id="-752924" lat="69.6833333327" lon="16.7083333367">
		<tag k="name" v="Leiketindsøyla" />
		<tag k="natural" v="shoal" />
		<tag k="place" v="locality" />
		<tag k="ssr:stedsnr" v="302024" />
	</node>
	<node id="-752921" lat="69.4828277749" lon="17.6293360971">
		<tag k="name" v="Barneset" />
		<tag k="natural" v="cape" />
		<tag k="ssr:stedsnr" v="297301" />
	</node>
	<node id="-752918" lat="69.4668555565" lon="17.6710583292">
		<tag k="name" v="Finnvika" />
		<tag k="natural" v="bay" />
		<tag k="ssr:stedsnr" v="297274" />
	</node>
	<node id="-752916" lat="69.4748083359" lon="17.6507861095">
		<tag k="name" v="Renneset" />
		<tag k="natural" v="cape" />
		<tag k="ssr:stedsnr" v="297269" />
	</node>
	<node id="-752915" lat="69.4674472225" lon="17.6803055614">
		<tag k="name" v="Storsanden" />
		<tag k="natural" v="beach" />
		<tag k="place" v="locality" />
		<tag k="ssr:stedsnr" v="297253" />
	</node>
	<node id="-752911" lat="69.5505083337" lon="17.4940277711">
		<tag k="name" v="Rødkeila" />
		<tag k="natural" v="bay" />
		<tag k="ssr:stedsnr" v="297216" />
	</node>
	<node id="-752909" lat="69.5264944447" lon="17.4302638924">
		<tag k="name" v="Danielholla" />
		<tag k="natural" v="bay" />
		<tag k="ssr:stedsnr" v="297172" />
	</node>
	<node id="-752902" lat="69.4970666651" lon="17.4953222106">
		<tag k="name" v="Hopsrenna" />
		<tag k="natural" v="strait" />
		<tag k="ssr:stedsnr" v="297097" />
	</node>
	<node id="-752900" lat="69.4911555536" lon="17.4801277849">
		<tag k="name" v="Hanslarsaneset" />
		<tag k="natural" v="cape" />
		<tag k="ssr:stedsnr" v="297091" />
	</node>
	<node id="-752894" lat="69.4243611129" lon="17.2405166699">
		<tag k="name" v="Store Kvannholmen" />
		<tag k="place" v="islet" />
		<tag k="ssr:stedsnr" v="295930" />
	</node>
	<node id="-752892" lat="69.4411249969" lon="17.3340416657">
		<tag k="name" v="Gommen" />
		<tag k="natural" v="beach" />
		<tag k="place" v="locality" />
		<tag k="ssr:stedsnr" v="295880" />
	</node>
	<node id="-752886" lat="69.4356722229" lon="17.3968638894">
		<tag k="name" v="Rumpelineset" />
		<tag k="natural" v="cape" />
		<tag k="ssr:stedsnr" v="295595" />
	</node>
	<node id="-752884" lat="69.4015277808" lon="17.3121694529">
		<tag k="name" v="Krokhalsen" />
		<tag k="place" v="locality" />
		<tag k="ssr:stedsnr" v="295379" />
	</node>
	<node id="-752883" lat="69.4060833312" lon="17.2974638866">
		<tag k="name" v="Kleiva" />
		<tag k="natural" v="beach" />
		<tag k="place" v="locality" />
		<tag k="ssr:stedsnr" v="295373" />
	</node>
	<node id="-752878" lat="69.4297416695" lon="17.1807472252">
		<tag k="fixme" v="consider seamark:type=rock or natural=shoal" />
		<tag k="name" v="Risøykåsa" />
		<tag k="place" v="islet" />
		<tag k="ssr:stedsnr" v="295162" />
	</node>
	<node id="-752877" lat="69.4361805524" lon="17.1791000021">
		<tag k="fixme" v="consider seamark:type=rock or natural=shoal" />
		<tag k="name" v="Tinnskjæret" />
		<tag k="place" v="islet" />
		<tag k="ssr:stedsnr" v="295161" />
	</node>
	<node id="-752876" lat="69.4407111122" lon="17.1819666582">
		<tag k="name" v="Bergsøyan" />
		<tag k="place" v="islet" />
		<tag k="ssr:stedsnr" v="295140" />
	</node>
	<node id="-752873" lat="69.4156027753" lon="17.2073055408">
		<tag k="name" v="Sennevika" />
		<tag k="natural" v="bay" />
		<tag k="ssr:stedsnr" v="295090" />
	</node>
	<node id="-752872" lat="69.479011115" lon="17.184458337">
		<tag k="fixme" v="consider seamark:type=rock or natural=shoal" />
		<tag k="name" v="Litje Botnlausskjæret" />
		<tag k="place" v="islet" />
		<tag k="ssr:stedsnr" v="295087" />
	</node>
	<node id="-752871" lat="69.4261638857" lon="17.2023388864">
		<tag k="name" v="Midtre Risøya" />
		<tag k="place" v="island" />
		<tag k="ssr:stedsnr" v="295073" />
	</node>
	<node id="-752868" lat="69.4708388861" lon="17.2083527646">
		<tag k="name" v="Litje Bøholmen" />
		<tag k="place" v="islet" />
		<tag k="ssr:stedsnr" v="295020" />
	</node>
	<node id="-752866" lat="69.5933777787" lon="17.3591694329">
		<tag k="name" v="Øygrunnen" />
		<tag k="natural" v="shoal" />
		<tag k="place" v="locality" />
		<tag k="ssr:stedsnr" v="289999" />
	</node>
	<node id="-752865" lat="69.5663861099" lon="17.5862833195">
		<tag k="fixme" v="consider seamark:type=rock or natural=shoal" />
		<tag k="name" v="Torva" />
		<tag k="place" v="islet" />
		<tag k="ssr:stedsnr" v="289945" />
	</node>
	<node id="-752864" lat="69.4272166703" lon="17.4935638773">
		<tag k="fixme" v="multiple name tags, choose one and add the other to alt_name; consider seamark:type=rock or natural=shoal" />
		<tag k="name" v="Botnskjæret;Skjæret" />
		<tag k="place" v="islet" />
		<tag k="ssr:stedsnr" v="289922" />
	</node>
	<node id="-752863" lat="69.4076472202" lon="17.2717722203">
		<tag k="alt_name" v="Junkavika" />
		<tag k="name" v="Jonkavika" />
		<tag k="natural" v="bay" />
		<tag k="ssr:stedsnr" v="289919" />
	</node>
	<node id="-752862" lat="69.4382972183" lon="17.1194666762">
		<tag k="fixme" v="consider seamark:type=rock or natural=shoal" />
		<tag k="name" v="Leiskjæret" />
		<tag k="place" v="islet" />
		<tag k="ssr:stedsnr" v="289891" />
	</node>
	<node id="-752861" lat="69.4968638917" lon="17.1966972308">
		<tag k="fixme" v="multiple name tags, choose one and add the other to alt_name" />
		<tag k="name" v="Roren;Røra" />
		<tag k="natural" v="cape" />
		<tag k="ssr:stedsnr" v="288783" />
	</node>
	<node id="-752859" lat="69.5234388882" lon="17.0982222133">
		<tag k="name" v="Indre Pålfallet" />
		<tag k="natural" v="shoal" />
		<tag k="place" v="locality" />
		<tag k="ssr:stedsnr" v="288744" />
	</node>
	<node id="-752858" lat="69.4663611118" lon="17.2118777715">
		<tag k="name" v="Hunden" />
		<tag k="natural" v="shoal" />
		<tag k="place" v="locality" />
		<tag k="ssr:stedsnr" v="288731" />
	</node>
	<node id="-754209" lat="69.6444444417" lon="17.2250000051">
		<tag k="name" v="Havgrunnen" />
		<tag k="natural" v="shoal" />
		<tag k="place" v="locality" />
		<tag k="ssr:stedsnr" v="969678" />
	</node>
	<node id="-754199" lat="69.5599277741" lon="17.4791972135">
		<tag k="fixme" v="consider seamark:type=rock or natural=shoal" />
		<tag k="name" v="Mikkjelsteinen" />
		<tag k="place" v="islet" />
		<tag k="ssr:stedsnr" v="965190" />
	</node>
	<node id="-754197" lat="69.4273944415" lon="17.4278277757">
		<tag k="fixme" v="consider seamark:type=rock or natural=shoal" />
		<tag k="name" v="Hysesteinen" />
		<tag k="place" v="islet" />
		<tag k="ssr:stedsnr" v="965113" />
	</node>
	<node id="-754195" lat="69.4800694467" lon="17.6362722316">
		<tag k="fixme" v="consider seamark:type=rock or natural=shoal" />
		<tag k="name" v="Skarvesteinen" />
		<tag k="place" v="islet" />
		<tag k="ssr:stedsnr" v="964311" />
	</node>
	<node id="-754184" lat="69.4149194472" lon="17.3375750062">
		<tag k="name" v="Gluggen" />
		<tag k="natural" v="bay" />
		<tag k="ssr:stedsnr" v="963572" />
	</node>
	<node id="-754182" lat="69.3712527814" lon="17.3809555665">
		<tag k="name" v="Trettestranda" />
		<tag k="natural" v="beach" />
		<tag k="place" v="locality" />
		<tag k="ssr:stedsnr" v="962902" />
	</node>
	<node id="-754175" lat="69.4065388853" lon="17.3199833244">
		<tag k="name" v="Skjånesvika" />
		<tag k="natural" v="bay" />
		<tag k="ssr:stedsnr" v="962413" />
	</node>
	<node id="-754174" lat="69.4063472259" lon="17.3244611148">
		<tag k="name" v="Skjåneshalsen" />
		<tag k="place" v="locality" />
		<tag k="ssr:stedsnr" v="962352" />
	</node>
	<node id="-754173" lat="69.4095166706" lon="17.3194833236">
		<tag k="name" v="Reinskanken" />
		<tag k="natural" v="shoal" />
		<tag k="place" v="locality" />
		<tag k="ssr:stedsnr" v="962342" />
	</node>
	<node id="-754169" lat="69.4431611103" lon="17.1082749909">
		<tag k="name" v="Avløsninga" />
		<tag k="natural" v="cape" />
		<tag k="ssr:stedsnr" v="962166" />
	</node>
	<node id="-754168" lat="69.4542166664" lon="17.169083328">
		<tag k="name" v="Bergsråsa" />
		<tag k="place" v="locality" />
		<tag k="ssr:stedsnr" v="962140" />
	</node>
	<node id="-754167" lat="69.4142222189" lon="17.207158318">
		<tag k="name" v="Oldfunnvika" />
		<tag k="natural" v="bay" />
		<tag k="ssr:stedsnr" v="962086" />
	</node>
	<node id="-754165" lat="69.4965222233" lon="17.197791678">
		<tag k="name" v="Rorkeila" />
		<tag k="natural" v="bay" />
		<tag k="ssr:stedsnr" v="962078" />
	</node>
	<node id="-754163" lat="69.4108249985" lon="17.2698916588">
		<tag k="name" v="Storvikneset" />
		<tag k="natural" v="cape" />
		<tag k="ssr:stedsnr" v="957872" />
	</node>
	<node id="-754162" lat="69.4108749982" lon="17.1913499935">
		<tag k="name" v="Styrberget" />
		<tag k="natural" v="cape" />
		<tag k="ssr:stedsnr" v="957858" />
	</node>
	<node id="-754161" lat="69.4173944458" lon="17.1336805517">
		<tag k="name" v="Skarvbardflua" />
		<tag k="natural" v="shoal" />
		<tag k="place" v="locality" />
		<tag k="ssr:stedsnr" v="957847" />
	</node>
	<node id="-754160" lat="69.4946416653" lon="17.5407500045">
		<tag k="name" v="Røssevika" />
		<tag k="natural" v="bay" />
		<tag k="ssr:stedsnr" v="955981" />
	</node>
	<node id="-754159" lat="69.5170138922" lon="17.1139889012">
		<tag k="name" v="Dyrleiskolten" />
		<tag k="natural" v="shoal" />
		<tag k="place" v="locality" />
		<tag k="ssr:stedsnr" v="955783" />
	</node>
	<node id="-754158" lat="69.518694441" lon="17.1197916579">
		<tag k="name" v="Flobjørnfallet" />
		<tag k="natural" v="shoal" />
		<tag k="place" v="locality" />
		<tag k="ssr:stedsnr" v="955770" />
	</node>
	<node id="-754157" lat="69.462011111" lon="17.0618111011">
		<tag k="name" v="Oksehornskoltan" />
		<tag k="natural" v="shoal" />
		<tag k="place" v="locality" />
		<tag k="ssr:stedsnr" v="955760" />
	</node>
	<node id="-754145" lat="69.4517916655" lon="17.1331277725">
		<tag k="fixme" v="multiple name tags, choose one and add the other to alt_name" />
		<tag k="name" v="Store Teistholmen;Teistholmen" />
		<tag k="place" v="islet" />
		<tag k="ssr:stedsnr" v="929268" />
	</node>
	<node id="-754144" lat="69.4478111148" lon="17.2780888811">
		<tag k="name" v="Kjerkegårdsneset" />
		<tag k="natural" v="cape" />
		<tag k="ssr:stedsnr" v="929263" />
	</node>
	<node id="-754140" lat="69.4345805542" lon="17.3898749864">
		<tag k="name" v="Storneset" />
		<tag k="natural" v="cape" />
		<tag k="ssr:stedsnr" v="929038" />
	</node>
	<node id="-754136" lat="69.4986861119" lon="17.5217055639">
		<tag k="alt_name" v="Bringneset, yt" />
		<tag k="fixme" v="multiple name tags, choose one and add the other to alt_name" />
		<tag k="name" v="Bringneset;Ytre Bringneset" />
		<tag k="natural" v="cape" />
		<tag k="ssr:stedsnr" v="928369" />
	</node>
	<node id="-754135" lat="69.4367027806" lon="17.2703500042">
		<tag k="bay" v="fjord" />
		<tag k="name" v="Bergsfjorden" />
		<tag k="natural" v="bay" />
		<tag k="ssr:stedsnr" v="928268" />
	</node>
	<node id="-754134" lat="69.4133944466" lon="17.2872083443">
		<tag k="name" v="Hovsøya" />
		<tag k="place" v="island" />
		<tag k="ssr:stedsnr" v="928242" />
	</node>
	<node id="-754131" lat="69.4375055567" lon="17.1752916711">
		<tag k="alt_name" v="Svartskjeret;Svarteskjæret" />
		<tag k="fixme" v="consider seamark:type=rock or natural=shoal" />
		<tag k="name" v="Svartskjæret" />
		<tag k="place" v="islet" />
		<tag k="ssr:stedsnr" v="928223" />
	</node>
	<node id="-754126" lat="69.4610416647" lon="17.6038611052">
		<tag k="name" v="Svarthollneset" />
		<tag k="natural" v="cape" />
		<tag k="ssr:stedsnr" v="904287" />
	</node>
	<node id="-754122" lat="69.5082722212" lon="17.4912833217">
		<tag k="fixme" v="consider seamark:type=rock or natural=shoal" />
		<tag k="name" v="Piggelsteinen" />
		<tag k="place" v="islet" />
		<tag k="ssr:stedsnr" v="904251" />
	</node>
	<node id="-754119" lat="69.4939055544" lon="17.604158335">
		<tag k="name" v="Seiholla" />
		<tag k="natural" v="bay" />
		<tag k="ssr:stedsnr" v="904220" />
	</node>
	<node id="-754118" lat="69.5939611144" lon="17.4861583351">
		<tag k="name" v="Tindtavlekeila" />
		<tag k="natural" v="bay" />
		<tag k="ssr:stedsnr" v="904210" />
	</node>
	<node id="-754111" lat="69.486558331" lon="17.4018861135">
		<tag k="name" v="Sjøstranda" />
		<tag k="natural" v="beach" />
		<tag k="place" v="locality" />
		<tag k="ssr:stedsnr" v="904131" />
	</node>
	<node id="-754107" lat="69.4863555553" lon="17.4905972086">
		<tag k="name" v="Løkteneset" />
		<tag k="natural" v="cape" />
		<tag k="ssr:stedsnr" v="904091" />
	</node>
	<node id="-754102" lat="69.4688527807" lon="17.2307722279">
		<tag k="name" v="Bøstranda" />
		<tag k="natural" v="beach" />
		<tag k="place" v="locality" />
		<tag k="ssr:stedsnr" v="903412" />
	</node>
	<node id="-754098" lat="69.4254694472" lon="17.2274083203">
		<tag k="fixme" v="consider seamark:type=rock or natural=shoal" />
		<tag k="name" v="Kvannholmsnagan" />
		<tag k="place" v="islet" />
		<tag k="ssr:stedsnr" v="902946" />
	</node>
	<node id="-754094" lat="69.4836361117" lon="17.3072083212">
		<tag k="fixme" v="consider seamark:type=rock or natural=shoal" />
		<tag k="name" v="Ytre Skarvsteinen" />
		<tag k="place" v="islet" />
		<tag k="ssr:stedsnr" v="902761" />
	</node>
	<node id="-754082" lat="69.4775944417" lon="17.3290222081">
		<tag k="name" v="Teigen" />
		<tag k="natural" v="cape" />
		<tag k="ssr:stedsnr" v="902267" />
	</node>
	<node id="-754081" lat="69.5019111083" lon="17.3645916761">
		<tag k="fixme" v="consider seamark:type=rock or natural=shoal" />
		<tag k="name" v="Slagsteinen" />
		<tag k="place" v="islet" />
		<tag k="ssr:stedsnr" v="902261" />
	</node>
	<node id="-754079" lat="69.4443555567" lon="17.1193138883">
		<tag k="name" v="Jottinholla" />
		<tag k="natural" v="bay" />
		<tag k="ssr:stedsnr" v="902167" />
	</node>
	<node id="-754078" lat="69.4259944407" lon="17.150716653">
		<tag k="fixme" v="consider seamark:type=rock or natural=shoal" />
		<tag k="name" v="Hans Østensaskjæret" />
		<tag k="place" v="islet" />
		<tag k="ssr:stedsnr" v="902129" />
	</node>
	<node id="-754075" lat="69.5351972218" lon="17.3541361149">
		<tag k="name" v="Salamonkeila" />
		<tag k="natural" v="bay" />
		<tag k="ssr:stedsnr" v="902082" />
	</node>
	<node id="-754073" lat="69.4562194491" lon="17.1226055487">
		<tag k="name" v="Tvillingan" />
		<tag k="place" v="islet" />
		<tag k="ssr:stedsnr" v="902052" />
	</node>
	<node id="-754070" lat="69.6171888859" lon="17.294713888">
		<tag k="alt_name" v="Vesterbåen, midtre" />
		<tag k="name" v="Midtre Vesterbåen" />
		<tag k="natural" v="shoal" />
		<tag k="place" v="locality" />
		<tag k="ssr:stedsnr" v="868986" />
	</node>
	<node id="-754069" lat="69.4736277818" lon="16.7795583226">
		<tag k="name" v="Fallbakken" />
		<tag k="place" v="locality" />
		<tag k="ssr:stedsnr" v="868936" />
	</node>
	<node id="-754068" lat="69.5090333373" lon="17.1224555521">
		<tag k="alt_name" v="Moagrunnan" />
		<tag k="name" v="Moagrunnen" />
		<tag k="natural" v="shoal" />
		<tag k="place" v="locality" />
		<tag k="ssr:stedsnr" v="868935" />
	</node>
	<node id="-754054" lat="69.4404416655" lon="17.1351944375">
		<tag k="name" v="Kjøpmannsøya" />
		<tag k="place" v="island" />
		<tag k="ssr:stedsnr" v="868298" />
	</node>
	<node id="-754053" lat="69.4546944407" lon="17.124911096">
		<tag k="name" v="Grimsholmen" />
		<tag k="place" v="islet" />
		<tag k="ssr:stedsnr" v="868285" />
	</node>
	<node id="-754052" lat="69.454774997" lon="17.1362194413">
		<tag k="fixme" v="consider seamark:type=rock or natural=shoal" />
		<tag k="name" v="Hjelmen" />
		<tag k="place" v="islet" />
		<tag k="ssr:stedsnr" v="868286" />
	</node>
	<node id="-754047" lat="69.4246555573" lon="17.071333344">
		<tag k="name" v="Småseiskolten" />
		<tag k="natural" v="shoal" />
		<tag k="place" v="locality" />
		<tag k="ssr:stedsnr" v="868226" />
	</node>
	<node id="-754046" lat="69.4855972235" lon="17.0046055551">
		<tag k="name" v="Prestbåan" />
		<tag k="natural" v="shoal" />
		<tag k="place" v="locality" />
		<tag k="ssr:stedsnr" v="868179" />
	</node>
	<node id="-754044" lat="69.4745111145" lon="17.2248861113">
		<tag k="name" v="Laukvika" />
		<tag k="natural" v="bay" />
		<tag k="ssr:stedsnr" v="868170" />
	</node>
	<node id="-754041" lat="69.4724555517" lon="17.6624138854">
		<tag k="fixme" v="consider seamark:type=rock or natural=shoal" />
		<tag k="name" v="Geitbenkskjæret" />
		<tag k="place" v="islet" />
		<tag k="ssr:stedsnr" v="844234" />
	</node>
	<node id="-754039" lat="69.4993305521" lon="17.4927472086">
		<tag k="name" v="Valen" />
		<tag k="natural" v="bay" />
		<tag k="ssr:stedsnr" v="844218" />
	</node>
	<node id="-754034" lat="69.4866277756" lon="17.5573555589">
		<tag k="fixme" v="consider seamark:type=rock or natural=shoal" />
		<tag k="name" v="Bottelskjæret" />
		<tag k="place" v="islet" />
		<tag k="ssr:stedsnr" v="844198" />
	</node>
	<node id="-754033" lat="69.5795916689" lon="17.477311121">
		<tag k="name" v="Neseboran" />
		<tag k="natural" v="cape" />
		<tag k="ssr:stedsnr" v="844184" />
	</node>
	<node id="-754030" lat="69.5222777749" lon="17.4405333407">
		<tag k="name" v="Landkomkeila" />
		<tag k="natural" v="bay" />
		<tag k="ssr:stedsnr" v="844147" />
	</node>
	<node id="-754028" lat="69.5337250004" lon="17.3835527753">
		<tag k="fixme" v="consider seamark:type=rock or natural=shoal" />
		<tag k="name" v="Kaprerasteinen" />
		<tag k="place" v="islet" />
		<tag k="ssr:stedsnr" v="844141" />
	</node>
	<node id="-754021" lat="69.4611888905" lon="17.5861666535">
		<tag k="name" v="Hestevalen" />
		<tag k="natural" v="bay" />
		<tag k="ssr:stedsnr" v="843284" />
	</node>
	<node id="-754010" lat="69.4345222263" lon="17.3819694522">
		<tag k="name" v="Nessan" />
		<tag k="natural" v="cape" />
		<tag k="ssr:stedsnr" v="842591" />
	</node>
	<node id="-754001" lat="69.4139111147" lon="17.2881611209">
		<tag k="name" v="Nordneset" />
		<tag k="natural" v="cape" />
		<tag k="ssr:stedsnr" v="841917" />
	</node>
	<node id="-754000" lat="69.4104944447" lon="17.2766610998">
		<tag k="fixme" v="consider seamark:type=rock or natural=shoal" />
		<tag k="name" v="Holmeskjæret" />
		<tag k="place" v="islet" />
		<tag k="ssr:stedsnr" v="841475" />
	</node>
	<node id="-753996" lat="69.4110083369" lon="17.3176277826">
		<tag k="name" v="Ytre Båtneset" />
		<tag k="natural" v="cape" />
		<tag k="ssr:stedsnr" v="841371" />
	</node>
	<node id="-753992" lat="69.4371388846" lon="17.1960722199">
		<tag k="name" v="Takholman" />
		<tag k="place" v="islet" />
		<tag k="ssr:stedsnr" v="841163" />
	</node>
	<node id="-753991" lat="69.4475111129" lon="17.157516674">
		<tag k="name" v="Stongholmen" />
		<tag k="place" v="islet" />
		<tag k="ssr:stedsnr" v="841133" />
	</node>
	<node id="-753990" lat="69.4142138928" lon="17.1470388771">
		<tag k="name" v="Laupa" />
		<tag k="natural" v="beach" />
		<tag k="place" v="locality" />
		<tag k="ssr:stedsnr" v="841091" />
	</node>
	<node id="-753989" lat="69.4580888892" lon="17.346491676">
		<tag k="name" v="Bukta" />
		<tag k="natural" v="bay" />
		<tag k="ssr:stedsnr" v="841071" />
	</node>
	<node id="-753981" lat="69.5035722262" lon="17.2266527737">
		<tag k="name" v="Makjeila" />
		<tag k="natural" v="bay" />
		<tag k="ssr:stedsnr" v="835964" />
	</node>
	<node id="-753978" lat="69.4183861125" lon="17.2666499901">
		<tag k="name" v="Ommundsflua" />
		<tag k="place" v="locality" />
		<tag k="seamark:type" v="rock" />
		<tag k="ssr:stedsnr" v="835894" />
	</node>
	<node id="-753977" lat="69.498238889" lon="16.9528277765">
		<tag k="name" v="Grovlafallet" />
		<tag k="natural" v="shoal" />
		<tag k="place" v="locality" />
		<tag k="ssr:stedsnr" v="835880" />
	</node>
	<node id="-753976" lat="69.4408805514" lon="17.1472694463">
		<tag k="name" v="Spekkholmen" />
		<tag k="place" v="islet" />
		<tag k="ssr:stedsnr" v="835851" />
	</node>
	<node id="-753975" lat="69.4176749995" lon="17.151125009">
		<tag k="name" v="Skarvbarden" />
		<tag k="place" v="islet" />
		<tag k="ssr:stedsnr" v="835822" />
	</node>
	<node id="-753974" lat="69.4492999968" lon="17.2086388888">
		<tag k="name" v="Storbåen" />
		<tag k="natural" v="shoal" />
		<tag k="place" v="locality" />
		<tag k="ssr:stedsnr" v="835428" />
	</node>
	<node id="-753973" lat="69.4828694451" lon="17.1755694333">
		<tag k="name" v="Ryggene" />
		<tag k="natural" v="shoal" />
		<tag k="place" v="locality" />
		<tag k="ssr:stedsnr" v="834808" />
	</node>
	<node id="-753972" lat="69.5208305563" lon="17.0838749952">
		<tag k="name" v="Ytre Pålfallet" />
		<tag k="natural" v="shoal" />
		<tag k="place" v="locality" />
		<tag k="ssr:stedsnr" v="834772" />
	</node>
	<node id="-753969" lat="69.5518361124" lon="17.3776888784">
		<tag k="name" v="Andgrunnen" />
		<tag k="natural" v="shoal" />
		<tag k="place" v="locality" />
		<tag k="ssr:stedsnr" v="807999" />
	</node>
	<node id="-753968" lat="69.5461805516" lon="17.5002527745">
		<tag k="name" v="Sevvika" />
		<tag k="natural" v="bay" />
		<tag k="ssr:stedsnr" v="807857" />
	</node>
	<node id="-753967" lat="69.6242583377" lon="17.4305083371">
		<tag k="name" v="Nekjebåen" />
		<tag k="natural" v="shoal" />
		<tag k="place" v="locality" />
		<tag k="ssr:stedsnr" v="807792" />
	</node>
	<node id="-753962" lat="69.5097166669" lon="17.5337944501">
		<tag k="bay" v="fjord" />
		<tag k="name" v="Mefjorden" />
		<tag k="natural" v="bay" />
		<tag k="ssr:stedsnr" v="807472" />
	</node>
	<node id="-753958" lat="69.3837277747" lon="17.3599500045">
		<tag k="name" v="Straumsbotn" />
		<tag k="natural" v="bay" />
		<tag k="ssr:stedsnr" v="807349" />
	</node>
	<node id="-753955" lat="69.4718999999" lon="17.136069432">
		<tag k="alt_name" v="Nattmålskjeret" />
		<tag k="fixme" v="consider seamark:type=rock or natural=shoal" />
		<tag k="name" v="Nattmålskjæret" />
		<tag k="place" v="islet" />
		<tag k="ssr:stedsnr" v="807271" />
	</node>
	<node id="-753952" lat="69.4080555551" lon="17.2852750021">
		<tag k="name" v="Straumsnes" />
		<tag k="natural" v="cape" />
		<tag k="ssr:stedsnr" v="807259" />
	</node>
	<node id="-753950" lat="69.4293916706" lon="17.2421638773">
		<tag k="alt_name" v="Tennskjeret" />
		<tag k="fixme" v="consider seamark:type=rock or natural=shoal" />
		<tag k="name" v="Tennskjæret" />
		<tag k="place" v="islet" />
		<tag k="ssr:stedsnr" v="807235" />
	</node>
	<node id="-753949" lat="69.4904583336" lon="17.075302769">
		<tag k="name" v="Glimma" />
		<tag k="natural" v="shoal" />
		<tag k="place" v="locality" />
		<tag k="ssr:stedsnr" v="807192" />
	</node>
	<node id="-753944" lat="69.4728583331" lon="17.6614555525">
		<tag k="name" v="Geitbenkneset" />
		<tag k="natural" v="cape" />
		<tag k="ssr:stedsnr" v="783218" />
	</node>
	<node id="-753942" lat="69.4785527803" lon="17.55355834">
		<tag k="name" v="Ytre Kvalvikneset" />
		<tag k="natural" v="cape" />
		<tag k="ssr:stedsnr" v="783189" />
	</node>
	<node id="-753941" lat="69.4884916633" lon="17.5561861105">
		<tag k="name" v="Halmirholla" />
		<tag k="natural" v="bay" />
		<tag k="ssr:stedsnr" v="783182" />
	</node>
	<node id="-753935" lat="69.5232666673" lon="17.4392666556">
		<tag k="fixme" v="consider seamark:type=rock or natural=shoal" />
		<tag k="name" v="Landkomhella" />
		<tag k="place" v="islet" />
		<tag k="ssr:stedsnr" v="783124" />
	</node>
	<node id="-753926" lat="69.4890916627" lon="17.4868694482">
		<tag k="name" v="Steinneset" />
		<tag k="natural" v="cape" />
		<tag k="ssr:stedsnr" v="782055" />
	</node>
	<node id="-753925" lat="69.4240999969" lon="17.2972694496">
		<tag k="name" v="Lykteneset" />
		<tag k="natural" v="cape" />
		<tag k="ssr:stedsnr" v="781943" />
	</node>
	<node id="-753923" lat="69.3619777778" lon="17.3951305535">
		<tag k="name" v="Sørbotn" />
		<tag k="natural" v="bay" />
		<tag k="ssr:stedsnr" v="781864" />
	</node>
	<node id="-753920" lat="69.4781166699" lon="17.3288555501">
		<tag k="name" v="Keila" />
		<tag k="natural" v="bay" />
		<tag k="ssr:stedsnr" v="781760" />
	</node>
	<node id="-753916" lat="69.4506083369" lon="17.2693972268">
		<tag k="name" v="Rogna" />
		<tag k="natural" v="beach" />
		<tag k="place" v="locality" />
		<tag k="ssr:stedsnr" v="781284" />
	</node>
	<node id="-753915" lat="69.438502781" lon="17.2234805667">
		<tag k="name" v="Færøysanden" />
		<tag k="natural" v="beach" />
		<tag k="place" v="locality" />
		<tag k="ssr:stedsnr" v="781259" />
	</node>
	<node id="-753908" lat="69.4410083294" lon="17.4509861165">
		<tag k="name" v="Gråtbukta" />
		<tag k="natural" v="bay" />
		<tag k="ssr:stedsnr" v="780454" />
	</node>
	<node id="-753906" lat="69.4599694477" lon="17.2470722235">
		<tag k="name" v="Valen" />
		<tag k="natural" v="bay" />
		<tag k="ssr:stedsnr" v="780422" />
	</node>
	<node id="-753903" lat="69.5157611107" lon="17.3407361095">
		<tag k="name" v="Hundslaupvika" />
		<tag k="natural" v="bay" />
		<tag k="ssr:stedsnr" v="780201" />
	</node>
	<node id="-753901" lat="69.4772166668" lon="17.19148333">
		<tag k="fixme" v="consider seamark:type=rock or natural=shoal" />
		<tag k="name" v="Store Botnlausskjæret" />
		<tag k="place" v="islet" />
		<tag k="ssr:stedsnr" v="780097" />
	</node>
	<node id="-753892" lat="69.370761114" lon="17.3835944522">
		<tag k="name" v="Flatholman" />
		<tag k="place" v="islet" />
		<tag k="ssr:stedsnr" v="774882" />
	</node>
	<node id="-753891" lat="69.4342277822" lon="17.1656194441">
		<tag k="fixme" v="consider seamark:type=rock or natural=shoal" />
		<tag k="name" v="Eskjæret" />
		<tag k="place" v="islet" />
		<tag k="ssr:stedsnr" v="774849" />
	</node>
	<node id="-753890" lat="69.4293027794" lon="17.1056722197">
		<tag k="name" v="Sandfallan" />
		<tag k="natural" v="shoal" />
		<tag k="place" v="locality" />
		<tag k="ssr:stedsnr" v="774836" />
	</node>
	<node id="-753889" lat="69.4229333373" lon="17.1056888807">
		<tag k="name" v="Andenesskallan" />
		<tag k="natural" v="shoal" />
		<tag k="place" v="locality" />
		<tag k="ssr:stedsnr" v="774830" />
	</node>
	<node id="-753886" lat="69.4734805521" lon="17.656713873">
		<tag k="name" v="Migan" />
		<tag k="natural" v="bay" />
		<tag k="ssr:stedsnr" v="772981" />
	</node>
	<node id="-753885" lat="69.4775027792" lon="17.6108361127">
		<tag k="name" v="Indre Skjærbåen" />
		<tag k="natural" v="shoal" />
		<tag k="place" v="locality" />
		<tag k="ssr:stedsnr" v="772975" />
	</node>
	<node id="-753880" lat="69.5459750039" lon="17.2100916715">
		<tag k="name" v="Grunnbåen" />
		<tag k="natural" v="shoal" />
		<tag k="place" v="locality" />
		<tag k="ssr:stedsnr" v="746999" />
	</node>
	<node id="-753879" lat="69.5322388909" lon="17.0915305534">
		<tag k="name" v="Hesteskolten" />
		<tag k="natural" v="shoal" />
		<tag k="place" v="locality" />
		<tag k="ssr:stedsnr" v="746994" />
	</node>
	<node id="-753878" lat="69.5755333321" lon="16.8251249856">
		<tag k="name" v="Kveitesøyla" />
		<tag k="natural" v="shoal" />
		<tag k="place" v="locality" />
		<tag k="ssr:stedsnr" v="746991" />
	</node>
	<node id="-753876" lat="69.5157333304" lon="17.4486305532">
		<tag k="name" v="Helleberga" />
		<tag k="natural" v="cape" />
		<tag k="ssr:stedsnr" v="746795" />
	</node>
	<node id="-753869" lat="69.4448444478" lon="17.2074305629">
		<tag k="name" v="Saltholmen" />
		<tag k="place" v="islet" />
		<tag k="ssr:stedsnr" v="746295" />
	</node>
	<node id="-753866" lat="69.4692861071" lon="17.2005722251">
		<tag k="alt_name" v="Seiskjeran" />
		<tag k="fixme" v="consider seamark:type=rock or natural=shoal" />
		<tag k="name" v="Seiskjæret" />
		<tag k="place" v="islet" />
		<tag k="ssr:stedsnr" v="746281" />
	</node>
	<node id="-753865" lat="69.4154055584" lon="17.3506805665">
		<tag k="alt_name" v="Jøvika, yt" />
		<tag k="name" v="Ytre Jøvika" />
		<tag k="natural" v="bay" />
		<tag k="ssr:stedsnr" v="746264" />
	</node>
	<node id="-753864" lat="69.4107888842" lon="17.1456444518">
		<tag k="name" v="Skinnstakkvika" />
		<tag k="natural" v="bay" />
		<tag k="ssr:stedsnr" v="746260" />
	</node>
	<node id="-753863" lat="69.419699999" lon="17.2310361194">
		<tag k="name" v="Finnsæterholman" />
		<tag k="place" v="islet" />
		<tag k="ssr:stedsnr" v="746255" />
	</node>
	<node id="-753862" lat="69.4905083375" lon="16.9082444407">
		<tag k="name" v="Senjehestskolten" />
		<tag k="natural" v="shoal" />
		<tag k="place" v="locality" />
		<tag k="ssr:stedsnr" v="746190" />
	</node>
	<node id="-753861" lat="69.4517833344" lon="17.101886115">
		<tag k="name" v="Sisarholman" />
		<tag k="place" v="islet" />
		<tag k="ssr:stedsnr" v="747284" />
	</node>
	<node id="-753860" lat="69.4592138865" lon="17.1239916584">
		<tag k="name" v="Netøya" />
		<tag k="place" v="island" />
		<tag k="ssr:stedsnr" v="747276" />
	</node>
	<node id="-753857" lat="69.4694527749" lon="17.6815027679">
		<tag k="name" v="Pålen" />
		<tag k="natural" v="bay" />
		<tag k="ssr:stedsnr" v="722262" />
	</node>
	<node id="-753854" lat="69.4966777765" lon="17.5999277655">
		<tag k="name" v="Bukkholla" />
		<tag k="natural" v="bay" />
		<tag k="ssr:stedsnr" v="722223" />
	</node>
	<node id="-753849" lat="69.4237194467" lon="17.4902277822">
		<tag k="name" v="Kjeksebukta" />
		<tag k="natural" v="bay" />
		<tag k="ssr:stedsnr" v="722129" />
	</node>
	<node id="-753844" lat="69.4695472196" lon="17.6665999863">
		<tag k="name" v="Mefjordbotn" />
		<tag k="natural" v="bay" />
		<tag k="ssr:stedsnr" v="721255" />
	</node>
	<node id="-753833" lat="69.4781277786" lon="17.2939027696">
		<tag k="name" v="Sandvika" />
		<tag k="natural" v="bay" />
		<tag k="ssr:stedsnr" v="720780" />
	</node>
	<node id="-753830" lat="69.4041277746" lon="17.3048861038">
		<tag k="name" v="Langstranda" />
		<tag k="natural" v="beach" />
		<tag k="place" v="locality" />
		<tag k="ssr:stedsnr" v="720374" />
	</node>
	<node id="-753829" lat="69.4838583364" lon="17.3679472223">
		<tag k="fixme" v="consider seamark:type=rock or natural=shoal" />
		<tag k="name" v="Skarvesteinen" />
		<tag k="place" v="islet" />
		<tag k="ssr:stedsnr" v="720367" />
	</node>
	<node id="-753828" lat="69.4443555567" lon="17.1193138883">
		<tag k="name" v="Sisarkeila" />
		<tag k="natural" v="bay" />
		<tag k="ssr:stedsnr" v="720181" />
	</node>
	<node id="-753824" lat="69.4606749991" lon="17.1304916562">
		<tag k="name" v="Løssøyholmen" />
		<tag k="place" v="islet" />
		<tag k="ssr:stedsnr" v="720008" />
	</node>
	<node id="-753823" lat="69.4303527757" lon="17.1518194464">
		<tag k="name" v="Ytre Rognholmen" />
		<tag k="place" v="islet" />
		<tag k="ssr:stedsnr" v="720129" />
	</node>
	<node id="-753821" lat="69.4154250018" lon="17.1757888968">
		<tag k="name" v="Bekkeneset" />
		<tag k="natural" v="cape" />
		<tag k="ssr:stedsnr" v="720103" />
	</node>
	<node id="-753818" lat="69.4098194469" lon="17.2700527842">
		<tag k="name" v="Storvika" />
		<tag k="natural" v="bay" />
		<tag k="ssr:stedsnr" v="714877" />
	</node>
	<node id="-753817" lat="69.4390861115" lon="17.0978749904">
		<tag k="name" v="Steingrunnen" />
		<tag k="natural" v="shoal" />
		<tag k="place" v="locality" />
		<tag k="ssr:stedsnr" v="714839" />
	</node>
	<node id="-753816" lat="69.5005111072" lon="17.251805548">
		<tag k="name" v="Ytre Lutbåen" />
		<tag k="natural" v="shoal" />
		<tag k="place" v="locality" />
		<tag k="ssr:stedsnr" v="713949" />
	</node>
	<node id="-753812" lat="69.5392916676" lon="17.324219452">
		<tag k="name" v="Oksvika" />
		<tag k="natural" v="bay" />
		<tag k="ssr:stedsnr" v="686998" />
	</node>
	<node id="-753811" lat="69.6245361087" lon="17.2841055448">
		<tag k="alt_name" v="Vesterbåen, yt" />
		<tag k="name" v="Ytre Vesterbåen" />
		<tag k="natural" v="shoal" />
		<tag k="place" v="locality" />
		<tag k="ssr:stedsnr" v="686989" />
	</node>
	<node id="-753810" lat="69.5789250009" lon="17.0847833393">
		<tag k="name" v="Skreigrunnen" />
		<tag k="natural" v="shoal" />
		<tag k="place" v="locality" />
		<tag k="ssr:stedsnr" v="686988" />
	</node>
	<node id="-753801" lat="69.4219722241" lon="17.3029888926">
		<tag k="fixme" v="multiple name tags, choose one and add the other to alt_name" />
		<tag k="name" v="Flatneset;Søre Flatneset" />
		<tag k="natural" v="cape" />
		<tag k="ssr:stedsnr" v="685263" />
	</node>
	<node id="-753799" lat="69.4273416713" lon="17.3917972143">
		<tag k="bay" v="fjord" />
		<tag k="name" v="Nordfjorden" />
		<tag k="natural" v="bay" />
		<tag k="ssr:stedsnr" v="685245" />
	</node>
	<node id="-753796" lat="69.5156777741" lon="17.461811118">
		<tag k="name" v="Skjerparholla" />
		<tag k="natural" v="bay" />
		<tag k="ssr:stedsnr" v="661219" />
	</node>
	<node id="-753794" lat="69.5159583372" lon="17.4486638955">
		<tag k="name" v="Korsnes" />
		<tag k="natural" v="cape" />
		<tag k="ssr:stedsnr" v="661213" />
	</node>
	<node id="-753787" lat="69.4312833324" lon="17.4890166622">
		<tag k="name" v="Nordbotn" />
		<tag k="natural" v="bay" />
		<tag k="ssr:stedsnr" v="661106" />
	</node>
	<node id="-753772" lat="69.4308861131" lon="17.2075055572">
		<tag k="name" v="Takholman" />
		<tag k="place" v="islet" />
		<tag k="ssr:stedsnr" v="659992" />
	</node>
	<node id="-753769" lat="69.3700000024" lon="17.3989277667">
		<tag k="name" v="Trettestrandneset" />
		<tag k="natural" v="cape" />
		<tag k="ssr:stedsnr" v="659923" />
	</node>
	<node id="-753761" lat="69.4405305553" lon="17.4211583403">
		<tag k="name" v="Lutneset" />
		<tag k="natural" v="cape" />
		<tag k="ssr:stedsnr" v="659740" />
	</node>
	<node id="-753750" lat="69.4235749958" lon="17.2110111161">
		<tag k="name" v="Indre Risøya" />
		<tag k="place" v="island" />
		<tag k="ssr:stedsnr" v="659115" />
	</node>
	<node id="-753748" lat="69.4218249992" lon="17.2491611141">
		<tag k="name" v="Korsholmen" />
		<tag k="place" v="islet" />
		<tag k="ssr:stedsnr" v="658472" />
	</node>
	<node id="-753747" lat="69.4168416658" lon="17.170699999">
		<tag k="alt_name" v="Sjåholmen" />
		<tag k="name" v="Skjåholmen" />
		<tag k="place" v="islet" />
		<tag k="ssr:stedsnr" v="653867" />
	</node>
	<node id="-753746" lat="69.4221305507" lon="17.1207611187">
		<tag k="fixme" v="consider seamark:type=rock or natural=shoal" />
		<tag k="name" v="Småskjæran" />
		<tag k="place" v="islet" />
		<tag k="ssr:stedsnr" v="653845" />
	</node>
	<node id="-753745" lat="69.4836361117" lon="17.3072083212">
		<tag k="name" v="Revet" />
		<tag k="natural" v="shoal" />
		<tag k="place" v="locality" />
		<tag k="ssr:stedsnr" v="652952" />
	</node>
	<node id="-753744" lat="69.5031861078" lon="17.325061121">
		<tag k="name" v="Hundbåen" />
		<tag k="natural" v="shoal" />
		<tag k="place" v="locality" />
		<tag k="ssr:stedsnr" v="652948" />
	</node>
	<node id="-753742" lat="69.5010972204" lon="17.0114583358">
		<tag k="name" v="Vettersbåen" />
		<tag k="natural" v="shoal" />
		<tag k="place" v="locality" />
		<tag k="ssr:stedsnr" v="625953" />
	</node>
	<node id="-753740" lat="69.5134055577" lon="17.5781111204">
		<tag k="name" v="Innerflåget" />
		<tag k="natural" v="cape" />
		<tag k="ssr:stedsnr" v="625829" />
	</node>
	<node id="-753736" lat="69.4615972251" lon="17.6111138996">
		<tag k="name" v="Vindhammarneset" />
		<tag k="natural" v="cape" />
		<tag k="ssr:stedsnr" v="625470" />
	</node>
	<node id="-753733" lat="69.4527472178" lon="17.2643055577">
		<tag k="name" v="Stamnesvika" />
		<tag k="natural" v="bay" />
		<tag k="ssr:stedsnr" v="625299" />
	</node>
	<node id="-753731" lat="69.403880558" lon="17.3114083257">
		<tag k="fixme" v="multiple name tags, choose one and add the other to alt_name" />
		<tag k="name" v="Morrvika;Mårvika" />
		<tag k="natural" v="bay" />
		<tag k="ssr:stedsnr" v="625283" />
	</node>
	<node id="-753729" lat="69.4880694409" lon="17.0894972241">
		<tag k="alt_name" v="Kvikskjeret" />
		<tag k="fixme" v="consider seamark:type=rock or natural=shoal" />
		<tag k="name" v="Kvikskjæret" />
		<tag k="place" v="islet" />
		<tag k="ssr:stedsnr" v="625198" />
	</node>
	<node id="-753728" lat="69.4967472193" lon="17.2489916586">
		<tag k="name" v="Storneset" />
		<tag k="natural" v="cape" />
		<tag k="ssr:stedsnr" v="625195" />
	</node>
	<node id="-753727" lat="69.4791305517" lon="17.2132194349">
		<tag k="alt_name" v="Bardneset, in" />
		<tag k="fixme" v="multiple name tags, choose one and add the other to alt_name" />
		<tag k="name" v="Bardneset;Indre Bardneset" />
		<tag k="natural" v="cape" />
		<tag k="ssr:stedsnr" v="625190" />
	</node>
	<node id="-753726" lat="69.540497219" lon="17.3123694511">
		<tag k="alt_name" v="Okseneset" />
		<tag k="name" v="Oksneset" />
		<tag k="natural" v="cape" />
		<tag k="ssr:stedsnr" v="624994" />
	</node>
	<node id="-753725" lat="69.5332444427" lon="17.1214527646">
		<tag k="name" v="Fugleryggen" />
		<tag k="natural" v="shoal" />
		<tag k="place" v="locality" />
		<tag k="ssr:stedsnr" v="624993" />
	</node>
	<node id="-753724" lat="69.6043555588" lon="17.2953888761">
		<tag k="alt_name" v="Vesterbåen, in" />
		<tag k="name" v="Indre Vesterbåen" />
		<tag k="natural" v="shoal" />
		<tag k="place" v="locality" />
		<tag k="ssr:stedsnr" v="624987" />
	</node>
	<node id="-753723" lat="69.580519444" lon="16.8619777841">
		<tag k="name" v="Sveinsgrunnen" />
		<tag k="natural" v="shoal" />
		<tag k="place" v="locality" />
		<tag k="ssr:stedsnr" v="624986" />
	</node>
	<node id="-753721" lat="69.4929888909" lon="17.4904055424">
		<tag k="name" v="Hopsvatnet" />
		<tag k="natural" v="bay" />
		<tag k="ssr:stedsnr" v="624483" />
	</node>
	<node id="-753719" lat="69.4468777747" lon="17.1153888877">
		<tag k="name" v="Ertnøya" />
		<tag k="place" v="island" />
		<tag k="ssr:stedsnr" v="624323" />
	</node>
	<node id="-753718" lat="69.4413527774" lon="17.162972223">
		<tag k="name" v="Kvaløya" />
		<tag k="place" v="islet" />
		<tag k="ssr:stedsnr" v="624321" />
	</node>
	<node id="-753717" lat="69.4386666703" lon="17.0047055549">
		<tag k="name" v="Månesfallet" />
		<tag k="natural" v="shoal" />
		<tag k="place" v="locality" />
		<tag k="ssr:stedsnr" v="624260" />
	</node>
	<node id="-753714" lat="69.4989833329" lon="17.5031305613">
		<tag k="name" v="Nålkytbukta" />
		<tag k="natural" v="bay" />
		<tag k="ssr:stedsnr" v="600251" />
	</node>
	<node id="-753713" lat="69.4998333332" lon="17.5245638922">
		<tag k="fixme" v="consider seamark:type=rock or natural=shoal" />
		<tag k="name" v="Bringsteinen" />
		<tag k="place" v="islet" />
		<tag k="ssr:stedsnr" v="600249" />
	</node>
	<node id="-753709" lat="69.5167361105" lon="17.448816654">
		<tag k="fixme" v="consider seamark:type=rock or natural=shoal" />
		<tag k="name" v="Korsnesspira" />
		<tag k="place" v="islet" />
		<tag k="ssr:stedsnr" v="600228" />
	</node>
	<node id="-753701" lat="69.480163885" lon="17.3803027687">
		<tag k="fixme" v="consider seamark:type=rock or natural=shoal" />
		<tag k="name" v="Rognsteinen" />
		<tag k="place" v="islet" />
		<tag k="ssr:stedsnr" v="600127" />
	</node>
	<node id="-753694" lat="69.446619443" lon="17.2819305532">
		<tag k="name" v="Kjæsvika" />
		<tag k="natural" v="bay" />
		<tag k="ssr:stedsnr" v="599267" />
	</node>
	<node id="-753693" lat="69.4443138882" lon="17.2181638765">
		<tag k="name" v="Svartskjæran" />
		<tag k="place" v="islet" />
		<tag k="ssr:stedsnr" v="599264" />
	</node>
	<node id="-753691" lat="69.4246777779" lon="17.2345305415">
		<tag k="name" v="Lille Kvannholmen" />
		<tag k="place" v="islet" />
		<tag k="ssr:stedsnr" v="598911" />
	</node>
	<node id="-753689" lat="69.3729638855" lon="17.3820138942">
		<tag k="name" v="Småskjæran" />
		<tag k="place" v="islet" />
		<tag k="ssr:stedsnr" v="598899" />
	</node>
	<node id="-753676" lat="69.5103083334" lon="17.3490138948">
		<tag k="name" v="Hundslaupskilen" />
		<tag k="natural" v="bay" />
		<tag k="ssr:stedsnr" v="598213" />
	</node>
	<node id="-753675" lat="69.4395555539" lon="17.122244448">
		<tag k="name" v="Ertnøysundet" />
		<tag k="natural" v="strait" />
		<tag k="ssr:stedsnr" v="598176" />
	</node>
	<node id="-753674" lat="69.441011114" lon="17.1229777794">
		<tag k="name" v="Flatholman" />
		<tag k="place" v="islet" />
		<tag k="ssr:stedsnr" v="598174" />
	</node>
	<node id="-753673" lat="69.4419305597" lon="17.1714499987">
		<tag k="name" v="Lille Kvaløya" />
		<tag k="place" v="islet" />
		<tag k="ssr:stedsnr" v="598160" />
	</node>
	<node id="-753672" lat="69.4246472257" lon="17.1544277722">
		<tag k="name" v="Nordre Flatholmen" />
		<tag k="place" v="islet" />
		<tag k="ssr:stedsnr" v="598115" />
	</node>
	<node id="-753668" lat="69.425102776" lon="17.1984999924">
		<tag k="name" v="Rørholmen" />
		<tag k="place" v="islet" />
		<tag k="ssr:stedsnr" v="598074" />
	</node>
	<node id="-753667" lat="69.4262388877" lon="17.1841416536">
		<tag k="fixme" v="consider seamark:type=rock or natural=shoal" />
		<tag k="name" v="Tjuvjoskjæret" />
		<tag k="place" v="islet" />
		<tag k="ssr:stedsnr" v="598072" />
	</node>
	<node id="-753665" lat="69.4102666661" lon="17.2789499866">
		<tag k="name" v="Straumsholmen" />
		<tag k="place" v="islet" />
		<tag k="ssr:stedsnr" v="598482" />
	</node>
</osm>
