<?xml version="1.0" encoding="UTF-8"?>
<osm generator="osmapis" version="0.6">
	<node id="-754816" lat="69.4133416706" lon="17.1466388988">
		<tag k="building" v="industrial" />
		<tag k="industrial" v="factory" />
		<tag k="name" v="Verket" />
		<tag k="ssr:stedsnr" v="261259" />
	</node>
	<node id="-754558" lat="69.4813666705" lon="17.5546944393">
		<tag k="name" v="Bottelgården" />
		<tag k="place" v="farm" />
		<tag k="ssr:stedsnr" v="55207" />
	</node>
	<node id="-755325" lat="69.4549000021" lon="17.2553777782">
		<tag k="name" v="Nyberg" />
		<tag k="place" v="farm" />
		<tag k="ssr:stedsnr" v="835899" />
	</node>
	<node id="-754299" lat="69.4066166649" lon="17.2921666516">
		<tag k="name" v="Straumsnes" />
		<tag k="place" v="hamlet" />
		<tag k="ssr:stedsnr" v="332255" />
	</node>
	<node id="-755194" lat="69.4384305535" lon="17.4721861098">
		<tag k="name" v="Nysted" />
		<tag k="place" v="farm" />
		<tag k="ssr:stedsnr" v="722125" />
	</node>
	<node id="-755193" lat="69.4370805576" lon="17.4737388828">
		<tag k="name" v="Myrvoll" />
		<tag k="place" v="farm" />
		<tag k="ssr:stedsnr" v="722122" />
	</node>
	<node id="-754807" lat="69.4116555558" lon="17.2017944392">
		<tag k="name" v="Havn" />
		<tag k="place" v="farm" />
		<tag k="ssr:stedsnr" v="242530" />
	</node>
	<node id="-754806" lat="69.3447222244" lon="17.4375555477">
		<tag k="fixme" v="consider tourism=alpine_hut or tourism=chalet" />
		<tag k="name" v="Senjabu" />
		<tag k="ssr:stedsnr" v="240864" />
		<tag k="tourism" v="wilderness_hut" />
	</node>
	<node id="-755292" lat="69.5209972174" lon="17.4395027865">
		<tag k="loc_name" v="Medfjorden" />
		<tag k="name" v="Mefjord" />
		<tag k="place" v="farm" />
		<tag k="ssr:stedsnr" v="788609" />
	</node>
	<node id="-755316" lat="69.4376333318" lon="17.4030305427">
		<tag k="name" v="Gammelgården" />
		<tag k="place" v="farm" />
		<tag k="ssr:stedsnr" v="809388" />
	</node>
	<node id="-754927" lat="69.4697888866" lon="17.6879111099">
		<tag k="fixme" v="consider place=hamlet" />
		<tag k="name" v="Mefjordbotn" />
		<tag k="place" v="village" />
		<tag k="ssr:stedsnr" v="504499" />
	</node>
	<node id="-755182" lat="69.4476583341" lon="17.2972583411">
		<tag k="amenity" v="nursing_home" />
		<tag k="name" v="Bergsheimen" />
		<tag k="ssr:stedsnr" v="720820" />
	</node>
	<node id="-755436" lat="69.4105305571" lon="17.2640472153">
		<tag k="name" v="Nessan" />
		<tag k="place" v="hamlet" />
		<tag k="ssr:stedsnr" v="902519" />
	</node>
	<node id="-755307" lat="69.4944333307" lon="17.5037194394">
		<tag k="name" v="Grashopen" />
		<tag k="place" v="isolated_dwelling" />
		<tag k="ssr:stedsnr" v="807473" />
	</node>
	<node id="-754793" lat="69.3887527756" lon="17.3995750066">
		<tag k="name" v="Sætra" />
		<tag k="place" v="farm" />
		<tag k="ssr:stedsnr" v="235930" />
	</node>
	<node id="-754280" lat="69.4609694482" lon="17.3534249911">
		<tag k="fixme" v="consider place=hamlet" />
		<tag k="name" v="Steinfjord" />
		<tag k="place" v="village" />
		<tag k="ssr:stedsnr" v="322265" />
	</node>
	<node id="-754492" lat="69.3696027763" lon="17.4011027805">
		<tag k="name" v="Nyheim" />
		<tag k="place" v="farm" />
		<tag k="ssr:stedsnr" v="19303" />
	</node>
	<node id="-755300" lat="69.4794611132" lon="17.3849027869">
		<tag k="name" v="Rognan" />
		<tag k="place" v="locality" />
		<tag k="ssr:stedsnr" v="807270" />
	</node>
	<node id="-754402" lat="69.4451888894" lon="17.3221083341">
		<tag k="name" v="Bjørnebo" />
		<tag k="place" v="farm" />
		<tag k="ssr:stedsnr" v="477838" />
	</node>
	<node id="-755297" lat="69.4415722247" lon="17.4234277682">
		<tag k="name" v="Lutnes" />
		<tag k="place" v="farm" />
		<tag k="ssr:stedsnr" v="807240" />
	</node>
	<node id="-755294" lat="69.4841277765" lon="17.4059611116">
		<tag k="fixme" v="consider place=hamlet" />
		<tag k="loc_name" v="Ersfjorden" />
		<tag k="name" v="Ersfjord" />
		<tag k="place" v="village" />
		<tag k="ssr:stedsnr" v="807186" />
	</node>
	<node id="-754908" lat="69.5183111107" lon="17.4378638851">
		<tag k="loc_name" v="Medfjorden" />
		<tag k="name" v="Mefjord" />
		<tag k="place" v="farm" />
		<tag k="ssr:stedsnr" v="485573" />
	</node>
	<node id="-754266" lat="69.4149861105" lon="17.2136361121">
		<tag k="fixme" v="consider place=hamlet" />
		<tag k="name" v="Hamn" />
		<tag k="place" v="farm" />
		<tag k="ssr:stedsnr" v="321252" />
	</node>
	<node id="-754575" lat="69.4665361086" lon="17.2310027781">
		<tag k="name" v="Bøvær" />
		<tag k="place" v="hamlet" />
		<tag k="ssr:stedsnr" v="81393" />
	</node>
	<node id="-754648" lat="69.4172472211" lon="17.1640500002">
		<tag k="name" v="Hamn" />
		<tag k="place" v="hamlet" />
		<tag k="ssr:stedsnr" v="139258" />
	</node>
	<node id="-755159" lat="69.3889999983" lon="17.3990388831">
		<tag k="name" v="Straumsbotn" />
		<tag k="place" v="hamlet" />
		<tag k="ssr:stedsnr" v="688381" />
	</node>
	<node id="-755411" lat="69.5157861101" lon="17.4408805438">
		<tag k="fixme" v="consider place=suburb, village or hamlet" />
		<tag k="name" v="Mefjordvær" />
		<tag k="place" v="quarter" />
		<tag k="ssr:stedsnr" v="868800" />
	</node>
	<node id="-755150" lat="69.4834194414" lon="17.2848027811">
		<tag k="name" v="Strandby" />
		<tag k="place" v="farm" />
		<tag k="ssr:stedsnr" v="686194" />
	</node>
	<node id="-755149" lat="69.4968583333" lon="17.4897888827">
		<tag k="alt_name" v="Senjehopen" />
		<tag k="name" v="Senjahopen" />
		<tag k="place" v="village" />
		<tag k="ssr:stedsnr" v="685451" />
	</node>
	<node id="-754380" lat="69.3526138921" lon="17.4324555633">
		<tag k="fixme" v="consider place=hamlet" />
		<tag k="loc_name" v="Sollia" />
		<tag k="name" v="Solli" />
		<tag k="place" v="farm" />
		<tag k="ssr:stedsnr" v="476831" />
	</node>
	<node id="-754913" lat="69.4445472217" lon="17.2983027757">
		<tag k="fixme" v="consider place=hamlet" />
		<tag k="name" v="Skaland" />
		<tag k="place" v="village" />
		<tag k="ssr:stedsnr" v="503288" />
	</node>
	<node id="-755396" lat="69.4717194447" lon="17.3016499921">
		<tag k="alt_name" v="Hella" />
		<tag k="name" v="Hellan" />
		<tag k="place" v="isolated_dwelling" />
		<tag k="ssr:stedsnr" v="868264" />
	</node>
	<node id="-754622" lat="69.5198194408" lon="17.4340944298">
		<tag k="fixme" v="consider place=hamlet" />
		<tag k="loc_name" v="Medfjorden" />
		<tag k="name" v="Mefjord" />
		<tag k="place" v="farm" />
		<tag k="ssr:stedsnr" v="115174" />
	</node>
	<node id="-754817" lat="69.4132138869" lon="17.2548027691">
		<tag k="name" v="Finnsæter" />
		<tag k="place" v="farm" />
		<tag k="ssr:stedsnr" v="261267" />
	</node>
	<node id="-755132" lat="69.4376805579" lon="17.4962749926">
		<tag k="name" v="Javikgammen" />
		<tag k="place" v="locality" />
		<tag k="ssr:stedsnr" v="661105" />
	</node>
	<node id="-754875" lat="69.406633334" lon="17.1587416559">
		<tag k="name" v="Havn" />
		<tag k="place" v="farm" />
		<tag k="ssr:stedsnr" v="425536" />
	</node>
	<node id="-754382" lat="69.4641444404" lon="17.3441944405">
		<tag k="name" v="Gammelgården" />
		<tag k="place" v="farm" />
		<tag k="ssr:stedsnr" v="477091" />
	</node>
	<node id="-754996" lat="69.4478527738" lon="17.2953666652">
		<tag k="name" v="Berg" />
		<tag k="place" v="farm" />
		<tag k="ssr:stedsnr" v="564282" />
	</node>
	<node id="-754994" lat="69.4669722202" lon="17.2337305556">
		<tag k="name" v="Bø" />
		<tag k="place" v="farm" />
		<tag k="ssr:stedsnr" v="564266" />
	</node>
	<node id="-754991" lat="69.4071833293" lon="17.3376944456">
		<tag k="alt_name" v="Lavollen" />
		<tag k="name" v="Lavoll" />
		<tag k="place" v="farm" />
		<tag k="ssr:stedsnr" v="564257" />
	</node>
	<node id="-754731" lat="69.4374166673" lon="17.3633694445">
		<tag k="name" v="Moan" />
		<tag k="place" v="isolated_dwelling" />
		<tag k="ssr:stedsnr" v="200244" />
	</node>
	<node id="-754474" lat="69.4409388914" lon="17.3398777652">
		<tag k="name" v="Skjelelv" />
		<tag k="place" v="isolated_dwelling" />
		<tag k="ssr:stedsnr" v="18278" />
	</node>
	<node id="-754729" lat="69.5079777814" lon="17.4316416769">
		<tag k="loc_name" v="Medfjorden" />
		<tag k="name" v="Mefjord" />
		<tag k="place" v="farm" />
		<tag k="ssr:stedsnr" v="182622" />
	</node>
	<node id="-754472" lat="69.4369833345" lon="17.3975444546">
		<tag k="name" v="Bjørklunden" />
		<tag k="place" v="isolated_dwelling" />
		<tag k="ssr:stedsnr" v="18231" />
	</node>
	<node id="-755495" lat="69.4413000026" lon="17.4558305434">
		<tag k="fixme" v="consider place=hamlet" />
		<tag k="name" v="Indregård" />
		<tag k="place" v="village" />
		<tag k="ssr:stedsnr" v="929441" />
	</node>
	<node id="-755485" lat="69.5046555582" lon="17.3628027745">
		<tag k="name" v="Teigen" />
		<tag k="place" v="locality" />
		<tag k="ssr:stedsnr" v="928952" />
	</node>
	<node id="-755079" lat="69.4586916688" lon="17.2503166707">
		<tag k="name" v="Myrlund" />
		<tag k="place" v="farm" />
		<tag k="ssr:stedsnr" v="625291" />
	</node>
	<node id="-755479" lat="69.4146666655" lon="17.3099555451">
		<tag k="name" v="Smedvika" />
		<tag k="place" v="farm" />
		<tag k="ssr:stedsnr" v="928238" />
	</node>
	<node id="-754582" lat="69.4393999983" lon="17.4149833431">
		<tag k="name" v="Nordfjord" />
		<tag k="place" v="isolated_dwelling" />
		<tag k="ssr:stedsnr" v="107902" />
	</node>
	<node id="-754837" lat="69.4156393506" lon="17.1698946808">
		<tag k="name" v="Indre Hamn" />
		<tag k="place" v="hamlet" />
		<tag k="ssr:stedsnr" v="416086" />
	</node>
	<node id="-755475" lat="69.5194781312" lon="17.4391581887">
		<tag k="loc_name" v="Medfjorden" />
		<tag k="name" v="Mefjord" />
		<tag k="place" v="farm" />
		<tag k="ssr:stedsnr" v="910620" />
	</node>
	<node id="-754705" lat="69.3673250004" lon="17.4035666644">
		<tag k="name" v="Nystad" />
		<tag k="place" v="farm" />
		<tag k="ssr:stedsnr" v="174867" />
	</node>
	<node id="-755544" lat="69.485977778" lon="17.4051083308">
		<tag k="name" v="Sjøtoften" />
		<tag k="place" v="farm" />
		<tag k="ssr:stedsnr" v="965123" />
	</node>
	<node id="-754500" lat="69.4385388855" lon="17.4064694442">
		<tag k="name" v="Vollan" />
		<tag k="place" v="farm" />
		<tag k="ssr:stedsnr" v="45724" />
	</node>
	<node id="-755082" lat="69.374719445" lon="17.4101250019">
		<tag k="alt_name" v="Lauvdal" />
		<tag k="name" v="Løvdal" />
		<tag k="place" v="isolated_dwelling" />
		<tag k="ssr:stedsnr" v="625371" />
	</node>
	<node id="-754668" lat="69.4074749969" lon="17.2878110991">
		<tag k="name" v="Straumsnes" />
		<tag k="place" v="farm" />
		<tag k="ssr:stedsnr" v="149242" />
	</node>
	<node id="-754926" lat="69.439444444" lon="17.4694444547">
		<tag k="fixme" v="consider place=hamlet" />
		<tag k="name" v="Bergsbotn" />
		<tag k="place" v="village" />
		<tag k="ssr:stedsnr" v="504461" />
	</node>
	<node id="-755205" lat="69.4602083374" lon="17.2498583431">
		<tag k="alt_name" v="Lillebø" />
		<tag k="name" v="Litlebø" />
		<tag k="place" v="farm" />
		<tag k="ssr:stedsnr" v="747274" />
	</node>
	<node id="-754923" lat="69.3865805517" lon="17.4089611012">
		<tag k="alt_name" v="Håverjord;Håversjorda" />
		<tag k="name" v="Håverjorda" />
		<tag k="place" v="farm" />
		<tag k="ssr:stedsnr" v="504338" />
	</node>
</osm>
