<?xml version="1.0" encoding="UTF-8"?>
<osm generator="osmapis" version="0.6">
	<node id="-754686" lat="69.4496888866" lon="17.1133749889">
		<tag k="name" v="Finnkjerka" />
		<tag k="natural" v="stone" />
		<tag k="ssr:stedsnr" v="174200" />
	</node>
	<node id="-755191" lat="69.4708388914" lon="17.5504499901">
		<tag k="name" v="Kvalvikjorda" />
		<tag k="place" v="locality" />
		<tag k="ssr:stedsnr" v="721265" />
	</node>
	<node id="-755187" lat="69.4862138891" lon="17.4768944539">
		<tag k="name" v="Roaldsmyra" />
		<tag k="natural" v="wetland" />
		<tag k="ssr:stedsnr" v="721067" />
	</node>
	<node id="-755186" lat="69.4741527765" lon="17.4288694431">
		<tag k="name" v="Skarmyran" />
		<tag k="natural" v="wetland" />
		<tag k="ssr:stedsnr" v="721000" />
	</node>
	<node id="-755183" lat="69.4133333334" lon="17.2410499898">
		<tag k="name" v="Svamyra" />
		<tag k="natural" v="wetland" />
		<tag k="ssr:stedsnr" v="720934" />
	</node>
	<node id="-755165" lat="69.4594472251" lon="17.2572749972">
		<tag k="name" v="Falkebergmyra" />
		<tag k="natural" v="wetland" />
		<tag k="ssr:stedsnr" v="719026" />
	</node>
	<node id="-754633" lat="69.5011833335" lon="17.4720222195">
		<tag k="name" v="Dalmyran" />
		<tag k="natural" v="wetland" />
		<tag k="ssr:stedsnr" v="115248" />
	</node>
	<node id="-755134" lat="69.4785305563" lon="17.4250694557">
		<tag k="name" v="Huldersteinan" />
		<tag k="natural" v="stone" />
		<tag k="ssr:stedsnr" v="661112" />
	</node>
	<node id="-755127" lat="69.4684083309" lon="17.5688249851">
		<tag k="name" v="Hestura" />
		<tag k="natural" v="scree" />
		<tag k="ssr:stedsnr" v="660295" />
	</node>
	<node id="-755017" lat="69.4549833357" lon="17.34435833">
		<tag k="landuse" v="meadow" />
		<tag k="name" v="Jorda" />
		<tag k="ssr:stedsnr" v="598083" />
	</node>
	<node id="-754610" lat="69.465327779" lon="17.2491777823">
		<tag k="name" v="Sæmyra" />
		<tag k="natural" v="wetland" />
		<tag k="ssr:stedsnr" v="114372" />
	</node>
	<node id="-754248" lat="69.493494448" lon="17.3920888932">
		<tag k="name" v="Gluggen" />
		<tag k="natural" v="stone" />
		<tag k="ssr:stedsnr" v="297147" />
	</node>
	<node id="-755113" lat="69.4428916714" lon="17.3509888802">
		<tag k="name" v="Vedsteinsura" />
		<tag k="natural" v="scree" />
		<tag k="ssr:stedsnr" v="659889" />
	</node>
	<node id="-754600" lat="69.4438527779" lon="17.3564694395">
		<tag k="name" v="Høgdemyra" />
		<tag k="natural" v="wetland" />
		<tag k="ssr:stedsnr" v="113789" />
	</node>
	<node id="-754599" lat="69.4423944459" lon="17.3281249905">
		<tag k="name" v="Rappura" />
		<tag k="natural" v="scree" />
		<tag k="ssr:stedsnr" v="113769" />
	</node>
	<node id="-755109" lat="69.4877055559" lon="17.349936097">
		<tag k="name" v="Kvitsteinan" />
		<tag k="natural" v="stone" />
		<tag k="ssr:stedsnr" v="659745" />
	</node>
	<node id="-755108" lat="69.4435500033" lon="17.4353638789">
		<tag k="name" v="Heggekjerran" />
		<tag k="place" v="locality" />
		<tag k="ssr:stedsnr" v="659739" />
	</node>
	<node id="-754591" lat="69.5250694465" lon="17.3261583317">
		<tag k="name" v="Stavura" />
		<tag k="natural" v="scree" />
		<tag k="ssr:stedsnr" v="113101" />
	</node>
	<node id="-755100" lat="69.4041111092" lon="17.3003027735">
		<tag k="name" v="Ytre Storsteinen" />
		<tag k="natural" v="stone" />
		<tag k="ssr:stedsnr" v="659389" />
	</node>
	<node id="-755095" lat="69.4671222206" lon="17.3474000043">
		<tag k="name" v="Blåura" />
		<tag k="natural" v="scree" />
		<tag k="ssr:stedsnr" v="659092" />
	</node>
	<node id="-754840" lat="69.499952777" lon="17.2327277667">
		<tag k="name" v="Trelsjorda" />
		<tag k="place" v="locality" />
		<tag k="ssr:stedsnr" v="416128" />
	</node>
	<node id="-755365" lat="69.4945249954" lon="17.4748361171">
		<tag k="name" v="Teppsteinen" />
		<tag k="natural" v="stone" />
		<tag k="ssr:stedsnr" v="843064" />
	</node>
	<node id="-755062" lat="69.4741472225" lon="17.6545750051">
		<tag k="name" v="Kveithella" />
		<tag k="natural" v="stone" />
		<tag k="ssr:stedsnr" v="600281" />
	</node>
	<node id="-754543" lat="69.4861777792" lon="17.4858110975">
		<tag k="name" v="Botnsteinen" />
		<tag k="natural" v="stone" />
		<tag k="ssr:stedsnr" v="54090" />
	</node>
	<node id="-755047" lat="69.4387472193" lon="17.4687361085">
		<tag k="name" v="Kjerran" />
		<tag k="place" v="locality" />
		<tag k="ssr:stedsnr" v="600118" />
	</node>
	<node id="-755046" lat="69.4946583379" lon="17.5064499926">
		<tag k="name" v="Slettåkeren" />
		<tag k="place" v="locality" />
		<tag k="ssr:stedsnr" v="600072" />
	</node>
	<node id="-754532" lat="69.4021472262" lon="17.3831138819">
		<tag k="name" v="Stakemyra" />
		<tag k="natural" v="wetland" />
		<tag k="ssr:stedsnr" v="52981" />
	</node>
	<node id="-755551" lat="69.4993138862" lon="17.5089444416">
		<tag k="name" v="Nålkytøyra" />
		<tag k="place" v="locality" />
		<tag k="ssr:stedsnr" v="965251" />
	</node>
	<node id="-754524" lat="69.4882277822" lon="17.2544194329">
		<tag k="name" v="Storelvmyra" />
		<tag k="natural" v="wetland" />
		<tag k="ssr:stedsnr" v="52550" />
	</node>
	<node id="-754519" lat="69.4058388922" lon="17.3016333452">
		<tag k="name" v="Mårvikøyra" />
		<tag k="place" v="locality" />
		<tag k="ssr:stedsnr" v="52335" />
	</node>
	<node id="-755535" lat="69.473866662" lon="17.3862805608">
		<tag k="name" v="Forklesteinen" />
		<tag k="natural" v="stone" />
		<tag k="ssr:stedsnr" v="963897" />
	</node>
	<node id="-755534" lat="69.4694833365" lon="17.4034972186">
		<tag k="name" v="Kvitsteinan" />
		<tag k="natural" v="stone" />
		<tag k="ssr:stedsnr" v="963895" />
	</node>
	<node id="-755018" lat="69.4928583324" lon="17.2075833378">
		<tag k="name" v="Rødura" />
		<tag k="natural" v="scree" />
		<tag k="ssr:stedsnr" v="598087" />
	</node>
	<node id="-755529" lat="69.4178694423" lon="17.3198027877">
		<tag k="name" v="Stormyra" />
		<tag k="natural" v="wetland" />
		<tag k="ssr:stedsnr" v="962914" />
	</node>
	<node id="-755527" lat="69.3577402161" lon="17.4346871688">
		<tag k="name" v="Storjorda" />
		<tag k="place" v="locality" />
		<tag k="ssr:stedsnr" v="962849" />
	</node>
	<node id="-755524" lat="69.4433499979" lon="17.3187805599">
		<tag k="name" v="Kjerran" />
		<tag k="place" v="locality" />
		<tag k="ssr:stedsnr" v="962763" />
	</node>
	<node id="-755518" lat="69.400827779" lon="17.3417888906">
		<tag k="name" v="Kjosmyran" />
		<tag k="natural" v="wetland" />
		<tag k="ssr:stedsnr" v="962335" />
	</node>
	<node id="-755516" lat="69.501066665" lon="17.3682555483">
		<tag k="name" v="Høysteinen" />
		<tag k="natural" v="stone" />
		<tag k="ssr:stedsnr" v="962242" />
	</node>
	<node id="-754479" lat="69.5217972191" lon="17.3333361155">
		<tag k="alt_name" v="Kviturda" />
		<tag k="name" v="Kvitura" />
		<tag k="natural" v="scree" />
		<tag k="ssr:stedsnr" v="18923" />
	</node>
	<node id="-754396" lat="69.4886138847" lon="17.267158327">
		<tag k="name" v="Vedsteinen" />
		<tag k="natural" v="stone" />
		<tag k="ssr:stedsnr" v="477698" />
	</node>
	<node id="-754982" lat="69.5023666645" lon="17.4731861007">
		<tag k="name" v="Dalsteinen" />
		<tag k="natural" v="stone" />
		<tag k="ssr:stedsnr" v="540237" />
	</node>
	<node id="-754974" lat="69.4777472184" lon="17.4324444367">
		<tag k="name" v="Jursteinan" />
		<tag k="natural" v="stone" />
		<tag k="ssr:stedsnr" v="540132" />
	</node>
	<node id="-754963" lat="69.3560083336" lon="17.4335555569">
		<tag k="name" v="Storjorda Øvre" />
		<tag k="place" v="locality" />
		<tag k="ssr:stedsnr" v="538857" />
	</node>
	<node id="-754962" lat="69.4483416639" lon="17.3196222131">
		<tag k="name" v="Blåura" />
		<tag k="natural" v="scree" />
		<tag k="ssr:stedsnr" v="538806" />
	</node>
	<node id="-754961" lat="69.4443861069" lon="17.3586750033">
		<tag k="name" v="Stormyra" />
		<tag k="natural" v="wetland" />
		<tag k="ssr:stedsnr" v="538802" />
	</node>
	<node id="-755471" lat="69.4673583304" lon="17.6644583204">
		<tag k="name" v="Finnkjerka" />
		<tag k="natural" v="stone" />
		<tag k="ssr:stedsnr" v="904266" />
	</node>
	<node id="-754958" lat="69.489355558" lon="17.2513472137">
		<tag k="name" v="Trollvassmarka" />
		<tag k="place" v="locality" />
		<tag k="ssr:stedsnr" v="538607" />
	</node>
	<node id="-754679" lat="69.4608444453" lon="17.2532638884">
		<tag k="name" v="Skogen" />
		<tag k="place" v="locality" />
		<tag k="ssr:stedsnr" v="173033" />
	</node>
	<node id="-754955" lat="69.4024416634" lon="17.3051833396">
		<tag k="name" v="Indre Storsteinen" />
		<tag k="natural" v="stone" />
		<tag k="ssr:stedsnr" v="538414" />
	</node>
	<node id="-755455" lat="69.4819861086" lon="17.4205749899">
		<tag k="name" v="Storura" />
		<tag k="natural" v="scree" />
		<tag k="ssr:stedsnr" v="904118" />
	</node>
	<node id="-755451" lat="69.4883805556" lon="17.4725444493">
		<tag k="name" v="Skjettenmyra" />
		<tag k="natural" v="wetland" />
		<tag k="ssr:stedsnr" v="904075" />
	</node>
	<node id="-755446" lat="69.3149869688" lon="17.5242979628">
		<tag k="name" v="Rødmyra" />
		<tag k="natural" v="wetland" />
		<tag k="ssr:stedsnr" v="903237" />
	</node>
	<node id="-755443" lat="69.4211888885" lon="17.3083750043">
		<tag k="name" v="Jobonmyra" />
		<tag k="natural" v="wetland" />
		<tag k="ssr:stedsnr" v="902942" />
	</node>
	<node id="-755439" lat="69.4431333303" lon="17.4453527791">
		<tag k="name" v="Storura" />
		<tag k="natural" v="scree" />
		<tag k="ssr:stedsnr" v="902752" />
	</node>
	<node id="-754414" lat="69.484480556" lon="17.4196722308">
		<tag k="name" v="Femtallsura" />
		<tag k="natural" v="scree" />
		<tag k="ssr:stedsnr" v="479121" />
	</node>
	<node id="-754413" lat="69.4399555541" lon="17.4818500046">
		<tag k="name" v="Tempelsteinen" />
		<tag k="natural" v="stone" />
		<tag k="ssr:stedsnr" v="479106" />
	</node>
	<node id="-755433" lat="69.4722194476" lon="17.2322305546">
		<tag k="name" v="Steinkrøssa" />
		<tag k="natural" v="scree" />
		<tag k="ssr:stedsnr" v="902492" />
	</node>
	<node id="-755429" lat="69.481908331" lon="17.332230548">
		<tag k="name" v="Huldersteinan" />
		<tag k="natural" v="stone" />
		<tag k="ssr:stedsnr" v="902268" />
	</node>
	<node id="-754399" lat="69.4375944467" lon="17.3601333291">
		<tag k="name" v="Bunkemyra" />
		<tag k="natural" v="wetland" />
		<tag k="ssr:stedsnr" v="477799" />
	</node>
	<node id="-755420" lat="69.4725222251" lon="17.332547229">
		<tag k="name" v="Kroksteinen" />
		<tag k="natural" v="stone" />
		<tag k="ssr:stedsnr" v="902074" />
	</node>
	<node id="-754371" lat="69.3641972218" lon="17.404647232">
		<tag k="name" v="Håvsjord" />
		<tag k="place" v="locality" />
		<tag k="ssr:stedsnr" v="410866" />
	</node>
	<node id="-754873" lat="69.5164833319" lon="17.5662944383">
		<tag k="name" v="Kvitsteinøyra" />
		<tag k="place" v="locality" />
		<tag k="ssr:stedsnr" v="419355" />
	</node>
	<node id="-755383" lat="69.5112611102" lon="17.4437249878">
		<tag k="name" v="Huldersteinen" />
		<tag k="natural" v="stone" />
		<tag k="ssr:stedsnr" v="844212" />
	</node>
	<node id="-755382" lat="69.516430556" lon="17.4241972215">
		<tag k="name" v="Mannhavsteinen" />
		<tag k="natural" v="scree" />
		<tag k="ssr:stedsnr" v="844211" />
	</node>
	<node id="-754869" lat="69.5628250002" lon="17.4794388767">
		<tag k="name" v="Drakura" />
		<tag k="natural" v="scree" />
		<tag k="ssr:stedsnr" v="419185" />
	</node>
	<node id="-754867" lat="69.5166750008" lon="17.4313638797">
		<tag k="name" v="Banmyra" />
		<tag k="natural" v="wetland" />
		<tag k="ssr:stedsnr" v="419156" />
	</node>
	<node id="-755377" lat="69.5234444445" lon="17.4085333314">
		<tag k="name" v="Munken" />
		<tag k="natural" v="stone" />
		<tag k="ssr:stedsnr" v="844149" />
	</node>
	<node id="-754863" lat="69.4212722201" lon="17.5034166653">
		<tag k="name" v="Moltebærhagen" />
		<tag k="natural" v="wetland" />
		<tag k="ssr:stedsnr" v="419113" />
	</node>
	<node id="-754858" lat="69.4402277814" lon="17.354683331">
		<tag k="name" v="Kjerka" />
		<tag k="natural" v="stone" />
		<tag k="ssr:stedsnr" v="417896" />
	</node>
	<node id="-755366" lat="69.486624999" lon="17.5083999984">
		<tag k="name" v="Bringskogen" />
		<tag k="place" v="locality" />
		<tag k="ssr:stedsnr" v="843070" />
	</node>
	<node id="-754341" lat="69.5061138896" lon="17.4295860971">
		<tag k="name" v="Dalmyra" />
		<tag k="natural" v="wetland" />
		<tag k="ssr:stedsnr" v="358209" />
	</node>
	<node id="-755364" lat="69.4931527793" lon="17.4695805463">
		<tag k="name" v="Vedskulsteinan" />
		<tag k="natural" v="stone" />
		<tag k="ssr:stedsnr" v="843061" />
	</node>
	<node id="-754332" lat="69.4403388906" lon="17.4600444509">
		<tag k="name" v="Hestemyra" />
		<tag k="natural" v="wetland" />
		<tag k="ssr:stedsnr" v="358025" />
	</node>
	<node id="-754799" lat="69.4428055551" lon="17.4633944443">
		<tag k="name" v="Piksteinen" />
		<tag k="natural" v="stone" />
		<tag k="ssr:stedsnr" v="237109" />
	</node>
	<node id="-755352" lat="69.4514194439" lon="17.2802583329">
		<tag k="name" v="Trettemyra" />
		<tag k="natural" v="wetland" />
		<tag k="ssr:stedsnr" v="842268" />
	</node>
	<node id="-755350" lat="69.3174333359" lon="17.5132583291">
		<tag k="name" v="Stormyra" />
		<tag k="natural" v="wetland" />
		<tag k="ssr:stedsnr" v="842217" />
	</node>
	<node id="-754835" lat="69.4606055547" lon="17.3633694306">
		<tag k="name" v="Dalsteinen" />
		<tag k="natural" v="stone" />
		<tag k="ssr:stedsnr" v="416084" />
	</node>
	<node id="-755345" lat="69.4088027782" lon="17.2642527722">
		<tag k="name" v="Huldresteinen" />
		<tag k="natural" v="stone" />
		<tag k="ssr:stedsnr" v="841474" />
	</node>
	<node id="-754317" lat="69.3940833364" lon="17.3917861003">
		<tag k="name" v="Stormyra" />
		<tag k="natural" v="wetland" />
		<tag k="ssr:stedsnr" v="355963" />
	</node>
	<node id="-755339" lat="69.406888889" lon="17.1367638956">
		<tag k="name" v="Hellandsura" />
		<tag k="natural" v="scree" />
		<tag k="ssr:stedsnr" v="841239" />
	</node>
	<node id="-754311" lat="69.4475194442" lon="17.4588360975">
		<tag k="name" v="Vassmyra" />
		<tag k="natural" v="wetland" />
		<tag k="ssr:stedsnr" v="355681" />
	</node>
	<node id="-755331" lat="69.4435666694" lon="17.3466666542">
		<tag k="name" v="Finnhaugura" />
		<tag k="natural" v="scree" />
		<tag k="ssr:stedsnr" v="842877" />
	</node>
	<node id="-755330" lat="69.4427250034" lon="17.355755551">
		<tag k="name" v="Høgdasteinen" />
		<tag k="natural" v="stone" />
		<tag k="ssr:stedsnr" v="842871" />
	</node>
	<node id="-754295" lat="69.4762027798" lon="17.429372213">
		<tag k="name" v="Kjerkesteinen" />
		<tag k="natural" v="stone" />
		<tag k="ssr:stedsnr" v="324240" />
	</node>
	<node id="-755311" lat="69.3146888917" lon="17.5171083218">
		<tag k="alt_name" v="Svodan, øvre" />
		<tag k="name" v="Øvre Svodan" />
		<tag k="natural" v="wetland" />
		<tag k="ssr:stedsnr" v="807576" />
	</node>
	<node id="-754781" lat="69.4481055534" lon="17.3514583225">
		<tag k="name" v="Torvemyra" />
		<tag k="natural" v="wetland" />
		<tag k="ssr:stedsnr" v="234803" />
	</node>
	<node id="-755283" lat="69.5117611093" lon="17.4344138959">
		<tag k="name" v="Vikmyra" />
		<tag k="natural" v="wetland" />
		<tag k="ssr:stedsnr" v="783131" />
	</node>
	<node id="-754768" lat="69.5079555525" lon="17.3604777635">
		<tag k="name" v="Ytterteigen" />
		<tag k="place" v="locality" />
		<tag k="ssr:stedsnr" v="234233" />
	</node>
	<node id="-755277" lat="69.429358333" lon="17.4901750009">
		<tag k="name" v="Kobbøyra" />
		<tag k="place" v="locality" />
		<tag k="ssr:stedsnr" v="783098" />
	</node>
	<node id="-755275" lat="69.4922472264" lon="17.4728277722">
		<tag k="name" v="Stormyra" />
		<tag k="natural" v="wetland" />
		<tag k="ssr:stedsnr" v="782062" />
	</node>
	<node id="-754760" lat="69.4593666632" lon="17.32326388">
		<tag k="name" v="Brusura" />
		<tag k="natural" v="scree" />
		<tag k="ssr:stedsnr" v="234061" />
	</node>
	<node id="-754239" lat="69.4441083376" lon="17.465580559">
		<tag k="name" v="Siristeinan" />
		<tag k="natural" v="stone" />
		<tag k="ssr:stedsnr" v="297025" />
	</node>
	<node id="-755256" lat="69.4866361144" lon="17.2491527657">
		<tag k="name" v="Stormyra" />
		<tag k="natural" v="wetland" />
		<tag k="ssr:stedsnr" v="780596" />
	</node>
	<node id="-755255" lat="69.4790749994" lon="17.2147611009">
		<tag k="name" v="Bardnesmyra" />
		<tag k="natural" v="wetland" />
		<tag k="ssr:stedsnr" v="780594" />
	</node>
	<node id="-754230" lat="69.4879583326" lon="17.2713388853">
		<tag k="name" v="Melkarsteinen" />
		<tag k="natural" v="stone" />
		<tag k="ssr:stedsnr" v="295678" />
	</node>
	<node id="-755253" lat="69.409413891" lon="17.2872611008">
		<tag k="name" v="Øra" />
		<tag k="place" v="locality" />
		<tag k="ssr:stedsnr" v="780434" />
	</node>
	<node id="-754222" lat="69.3996805517" lon="17.3161555431">
		<tag k="landuse" v="meadow" />
		<tag k="name" v="Påljorda" />
		<tag k="ssr:stedsnr" v="295368" />
	</node>
	<node id="-754215" lat="69.530147225" lon="17.3688555614">
		<tag k="name" v="Høysteinen" />
		<tag k="natural" v="stone" />
		<tag k="ssr:stedsnr" v="295112" />
	</node>
	<node id="-754214" lat="69.4568277793" lon="17.3519527729">
		<tag k="name" v="Buktura" />
		<tag k="natural" v="scree" />
		<tag k="ssr:stedsnr" v="295092" />
	</node>
	<node id="-754724" lat="69.509119443" lon="17.4382361109">
		<tag k="name" v="Klemmingssteinen" />
		<tag k="natural" v="stone" />
		<tag k="ssr:stedsnr" v="176225" />
	</node>
	<node id="-754720" lat="69.5089749995" lon="17.4316222171">
		<tag k="name" v="Skiftingsmyran" />
		<tag k="natural" v="wetland" />
		<tag k="ssr:stedsnr" v="176167" />
	</node>
	<node id="-754718" lat="69.519908334" lon="17.4129472301">
		<tag k="name" v="Galimyra" />
		<tag k="natural" v="wetland" />
		<tag k="ssr:stedsnr" v="176152" />
	</node>
	<node id="-754716" lat="69.4890944423" lon="17.399897212">
		<tag k="name" v="Trollsteinan" />
		<tag k="natural" v="stone" />
		<tag k="ssr:stedsnr" v="176139" />
	</node>
	<node id="-754715" lat="69.4413111149" lon="17.4671916621">
		<tag k="name" v="Akselsteinen" />
		<tag k="natural" v="stone" />
		<tag k="ssr:stedsnr" v="176128" />
	</node>
	<node id="-754712" lat="69.440294445" lon="17.4684583366">
		<tag k="name" v="Torvemyra" />
		<tag k="natural" v="wetland" />
		<tag k="ssr:stedsnr" v="176017" />
	</node>
	<node id="-754711" lat="69.4383083363" lon="17.4744805555">
		<tag k="name" v="Frauskemyra" />
		<tag k="natural" v="wetland" />
		<tag k="ssr:stedsnr" v="176015" />
	</node>
	<node id="-754707" lat="69.4970944404" lon="17.4779999958">
		<tag k="name" v="Banmyra" />
		<tag k="natural" v="wetland" />
		<tag k="ssr:stedsnr" v="175057" />
	</node>
	<node id="-754703" lat="69.3547305545" lon="17.4468360979">
		<tag k="name" v="Åneheimen" />
		<tag k="place" v="locality" />
		<tag k="ssr:stedsnr" v="174853" />
	</node>
	<node id="-754698" lat="69.4429777763" lon="17.3206111059">
		<tag k="name" v="Innerura" />
		<tag k="natural" v="scree" />
		<tag k="ssr:stedsnr" v="174805" />
	</node>
	<node id="-754697" lat="69.4426361093" lon="17.3175444542">
		<tag k="name" v="Svartskogen" />
		<tag k="place" v="locality" />
		<tag k="ssr:stedsnr" v="174806" />
	</node>
	<node id="-754692" lat="69.4849722184" lon="17.359563896">
		<tag k="name" v="Ytre Storursteinen" />
		<tag k="natural" v="stone" />
		<tag k="ssr:stedsnr" v="174407" />
	</node>
	<node id="-755202" lat="69.5019083334" lon="17.479769454">
		<tag k="name" v="Mosemyra" />
		<tag k="natural" v="wetland" />
		<tag k="ssr:stedsnr" v="722248" />
	</node>
	<node id="-755201" lat="69.5159333346" lon="17.4372805651">
		<tag k="name" v="Kjerrgården" />
		<tag k="place" v="locality" />
		<tag k="ssr:stedsnr" v="722239" />
	</node>
</osm>
