<?xml version="1.0" encoding="UTF-8"?>
<osm generator="osmapis" version="0.6">
	<node id="-754688" lat="69.3175805562" lon="17.4550583207">
		<tag k="name" v="Skeihollelva" />
		<tag k="ssr:stedsnr" v="174273" />
		<tag k="waterway" v="river" />
	</node>
	<node id="-754687" lat="69.4055944416" lon="17.1901722225">
		<tag k="name" v="Otervatnet" />
		<tag k="natural" v="water" />
		<tag k="ssr:stedsnr" v="174272" />
		<tag k="water" v="lake" />
	</node>
	<node id="-755197" lat="69.4609833328" lon="17.4400638986">
		<tag k="name" v="Storneset" />
		<tag k="natural" v="cape" />
		<tag k="ssr:stedsnr" v="722154" />
	</node>
	<node id="-754678" lat="69.4726999991" lon="17.7229860972">
		<tag k="name" v="Straumen" />
		<tag k="natural" v="water" />
		<tag k="ssr:stedsnr" v="169339" />
	</node>
	<node id="-754675" lat="69.5060083327" lon="17.3678805531">
		<tag k="name" v="Teigelva" />
		<tag k="ssr:stedsnr" v="167985" />
		<tag k="waterway" v="river" />
	</node>
	<node id="-755185" lat="69.334466664" lon="17.4193083407">
		<tag k="name" v="Leirelva" />
		<tag k="ssr:stedsnr" v="720994" />
		<tag k="waterway" v="river" />
	</node>
	<node id="-754344" lat="69.4610138924" lon="17.639949987">
		<tag k="name" v="Breitindelva" />
		<tag k="ssr:stedsnr" v="358232" />
		<tag k="waterway" v="stream" />
	</node>
	<node id="-755181" lat="69.3435222246" lon="17.4299416629">
		<tag k="name" v="Naustbukta" />
		<tag k="natural" v="bay" />
		<tag k="ssr:stedsnr" v="720789" />
	</node>
	<node id="-754770" lat="69.3693416633" lon="17.3515000082">
		<tag k="name" v="Spekelvvatnet" />
		<tag k="natural" v="water" />
		<tag k="ssr:stedsnr" v="234315" />
		<tag k="water" v="lake" />
	</node>
	<node id="-754666" lat="69.4312833318" lon="17.6230027623">
		<tag k="alt_name:no" v="Svarthollvatnet" />
		<tag k="name" v="Svartholvatnet - Suohpajávri" />
		<tag k="name:no" v="Svartholvatnet" />
		<tag k="name:se" v="Suohpajávri" />
		<tag k="natural" v="water" />
		<tag k="old_name:se" v="Suoppajavri" />
		<tag k="ssr:stedsnr" v="141470" />
		<tag k="water" v="lake" />
	</node>
	<node id="-754661" lat="69.4220888863" lon="17.5062222096">
		<tag k="name" v="Botnelva" />
		<tag k="ssr:stedsnr" v="140487" />
		<tag k="waterway" v="stream" />
	</node>
	<node id="-754652" lat="69.5099000006" lon="17.4277000037">
		<tag k="alt_name" v="Litlevatnet" />
		<tag k="name" v="Litjevatnet" />
		<tag k="natural" v="water" />
		<tag k="ssr:stedsnr" v="139812" />
	</node>
	<node id="-755161" lat="69.3232999984" lon="17.4592916543">
		<tag k="fixme" v="multiple name tags, choose one and add the other to alt_name" />
		<tag k="name" v="Indre Svanvatnet;Svanvatnan, l;Litje Svanvatnan - Njukčajávri" />
		<tag k="name:no" v="Indre Svanvatnet;Svanvatnan, l;Litje Svanvatnan" />
		<tag k="name:se" v="Njukčajávri" />
		<tag k="natural" v="water" />
		<tag k="ssr:stedsnr" v="696900" />
		<tag k="water" v="lake" />
	</node>
	<node id="-755160" lat="69.3343555584" lon="17.4338972178">
		<tag k="fixme" v="multiple name tags, choose one and add the other to alt_name" />
		<tag k="name" v="Svanvatnan;Njukčajávrrit" />
		<tag k="name:se" v="Svanvatnan;Njukčajávrrit" />
		<tag k="natural" v="water" />
		<tag k="old_name:se" v="Njukoajavrit" />
		<tag k="ssr:stedsnr" v="688547" />
		<tag k="water" v="lake" />
	</node>
	<node id="-754643" lat="69.4714277794" lon="17.5328666757">
		<tag k="name" v="Kvalvikelva" />
		<tag k="ssr:stedsnr" v="139038" />
		<tag k="waterway" v="stream" />
	</node>
	<node id="-754851" lat="69.3246305535" lon="17.4805361059">
		<tag k="name" v="Langneselva" />
		<tag k="ssr:stedsnr" v="417250" />
		<tag k="waterway" v="river" />
	</node>
	<node id="-754637" lat="69.4609805581" lon="17.6118250015">
		<tag k="name" v="Vindhammarelva" />
		<tag k="ssr:stedsnr" v="115292" />
		<tag k="waterway" v="stream" />
	</node>
	<node id="-755144" lat="69.4674583335" lon="17.6861083391">
		<tag k="name" v="Damelva" />
		<tag k="ssr:stedsnr" v="661237" />
		<tag k="waterway" v="stream" />
	</node>
	<node id="-755139" lat="69.5167916676" lon="17.4365750098">
		<tag k="name" v="Kalelva" />
		<tag k="ssr:stedsnr" v="661208" />
		<tag k="waterway" v="stream" />
	</node>
	<node id="-755137" lat="69.5138916635" lon="17.4142888933">
		<tag k="name" v="Steinvatnet" />
		<tag k="natural" v="water" />
		<tag k="ssr:stedsnr" v="661142" />
	</node>
	<node id="-754623" lat="69.5242111122" lon="17.4362610991">
		<tag k="name" v="Sælebota" />
		<tag k="natural" v="spring" />
		<tag k="ssr:stedsnr" v="115175" />
	</node>
	<node id="-755131" lat="69.440313892" lon="17.4914749906">
		<tag k="name" v="Kulpen" />
		<tag k="place" v="locality" />
		<tag k="ssr:stedsnr" v="661025" />
	</node>
	<node id="-755125" lat="69.4743055526" lon="17.6591555551">
		<tag k="name" v="Migarelva" />
		<tag k="ssr:stedsnr" v="660283" />
		<tag k="waterway" v="stream" />
	</node>
	<node id="-755123" lat="69.4489861127" lon="17.3043750086">
		<tag k="name" v="Monselva" />
		<tag k="ssr:stedsnr" v="660253" />
		<tag k="waterway" v="stream" />
	</node>
	<node id="-755122" lat="69.3216333375" lon="17.4547333273">
		<tag k="name" v="Klubben" />
		<tag k="natural" v="cape" />
		<tag k="ssr:stedsnr" v="660246" />
	</node>
	<node id="-755120" lat="69.4903694448" lon="17.4759027658">
		<tag k="name" v="Litjevatnet" />
		<tag k="natural" v="water" />
		<tag k="ssr:stedsnr" v="660078" />
	</node>
	<node id="-755084" lat="69.473102781" lon="17.74254722">
		<tag k="alt_name" v="Mefjordbotnvatnet" />
		<tag k="name" v="Mefjordvatnan" />
		<tag k="natural" v="water" />
		<tag k="ssr:stedsnr" v="625483" />
		<tag k="water" v="lake" />
	</node>
	<node id="-754571" lat="69.3905027798" lon="17.4255972126">
		<tag k="name" v="Krokelva - Ruohkejohka" />
		<tag k="name:no" v="Krokelva" />
		<tag k="name:se" v="Ruohkejohka" />
		<tag k="old_name:se" v="Ruokkejåkka" />
		<tag k="ssr:stedsnr" v="79484" />
		<tag k="waterway" v="river" />
	</node>
	<node id="-754570" lat="69.3826888885" lon="17.2602388799">
		<tag k="name" v="Sørelva" />
		<tag k="ssr:stedsnr" v="79353" />
		<tag k="waterway" v="river" />
	</node>
	<node id="-755081" lat="69.3403861148" lon="17.3474083303">
		<tag k="fixme" v="multiple name tags, choose one and add the other to alt_name" />
		<tag k="name" v="Tromdalselva;Trondalselva" />
		<tag k="ssr:stedsnr" v="625334" />
		<tag k="waterway" v="river" />
	</node>
	<node id="-754568" lat="69.449319446" lon="17.3766444376">
		<tag k="name" v="Fuglevatnet" />
		<tag k="natural" v="water" />
		<tag k="ssr:stedsnr" v="79290" />
		<tag k="water" v="lake" />
	</node>
	<node id="-755077" lat="69.4869305525" lon="17.2404916766">
		<tag k="name" v="Trollvatnet" />
		<tag k="natural" v="water" />
		<tag k="ssr:stedsnr" v="625200" />
		<tag k="water" v="lake" />
	</node>
	<node id="-755069" lat="69.4020944407" lon="17.5834416633">
		<tag k="name" v="Nedre Hestvatnet" />
		<tag k="natural" v="water" />
		<tag k="old_name" v="Hestvatnet, nedre" />
		<tag k="ssr:stedsnr" v="624504" />
		<tag k="water" v="lake" />
	</node>
	<node id="-754553" lat="69.4552833317" lon="17.4397055424">
		<tag k="name" v="Sløkeskottet" />
		<tag k="natural" v="bay" />
		<tag k="ssr:stedsnr" v="55145" />
	</node>
	<node id="-755054" lat="69.515302774" lon="17.4164888894">
		<tag k="name" v="Store Skålbrekkvatnet" />
		<tag k="natural" v="water" />
		<tag k="ssr:stedsnr" v="600161" />
	</node>
	<node id="-755053" lat="69.5097777788" lon="17.4177972168">
		<tag k="name" v="Nonstindvatnet" />
		<tag k="natural" v="water" />
		<tag k="ssr:stedsnr" v="600160" />
	</node>
	<node id="-754539" lat="69.4952222261" lon="17.471136104">
		<tag k="name" v="Mildridelva" />
		<tag k="ssr:stedsnr" v="54068" />
		<tag k="waterway" v="stream" />
	</node>
	<node id="-754918" lat="69.5056333312" lon="17.3839555509">
		<tag k="name" v="Teigvatnet" />
		<tag k="natural" v="water" />
		<tag k="ssr:stedsnr" v="503923" />
	</node>
	<node id="-754528" lat="69.3530416678" lon="17.3854694475">
		<tag k="name" v="Lappedalselva" />
		<tag k="ssr:stedsnr" v="52849" />
		<tag k="waterway" v="river" />
	</node>
	<node id="-755548" lat="69.5141166661" lon="17.4367388794">
		<tag k="name" v="Bjorelva" />
		<tag k="ssr:stedsnr" v="965221" />
		<tag k="waterway" v="stream" />
	</node>
	<node id="-755035" lat="69.4526611105" lon="17.4110722253">
		<tag k="name" v="Lutskarelva" />
		<tag k="ssr:stedsnr" v="598881" />
		<tag k="waterway" v="river" />
	</node>
	<node id="-755031" lat="69.4431472269" lon="17.4578777701">
		<tag k="name" v="Storelva" />
		<tag k="ssr:stedsnr" v="598691" />
		<tag k="waterway" v="river" />
	</node>
	<node id="-755026" lat="69.4438194426" lon="17.4186361117">
		<tag k="name" v="Lutelva" />
		<tag k="ssr:stedsnr" v="598560" />
		<tag k="waterway" v="river" />
	</node>
	<node id="-754507" lat="69.4710833303" lon="17.7483805526">
		<tag k="name" v="Vasshalsen" />
		<tag k="natural" v="strait" />
		<tag k="ssr:stedsnr" v="48320" />
	</node>
	<node id="-755011" lat="69.4719055534" lon="17.7190388906">
		<tag k="name" v="Sørkråvatnet" />
		<tag k="natural" v="water" />
		<tag k="ssr:stedsnr" v="594344" />
	</node>
	<node id="-754498" lat="69.4574416693" lon="17.5183694447">
		<tag k="name" v="Lomvatnet" />
		<tag k="natural" v="water" />
		<tag k="ssr:stedsnr" v="21262" />
	</node>
	<node id="-754912" lat="69.4049500044" lon="17.1536416615">
		<tag k="name" v="Grytvatnet" />
		<tag k="natural" v="water" />
		<tag k="ssr:stedsnr" v="503239" />
	</node>
	<node id="-754494" lat="69.3588499992" lon="17.2721055542">
		<tag k="name" v="Bardstindvatnan" />
		<tag k="natural" v="water" />
		<tag k="ssr:stedsnr" v="19317" />
	</node>
	<node id="-755003" lat="69.4145583359" lon="17.5192305478">
		<tag k="name" v="Botnvatnet" />
		<tag k="natural" v="water" />
		<tag k="ssr:stedsnr" v="564538" />
	</node>
	<node id="-754488" lat="69.3646583322" lon="17.3402666655">
		<tag k="name" v="Spekelvvatnan" />
		<tag k="natural" v="water" />
		<tag k="ssr:stedsnr" v="19291" />
		<tag k="water" v="lake" />
	</node>
	<node id="-755501" lat="69.3256638867" lon="17.3150833408">
		<tag k="name" v="Leirskarvatnan" />
		<tag k="natural" v="water" />
		<tag k="ssr:stedsnr" v="931388" />
		<tag k="water" v="lake" />
	</node>
	<node id="-755494" lat="69.3775805568" lon="17.2108944324">
		<tag k="fixme" v="multiple name tags, choose one and add the other to alt_name" />
		<tag k="name" v="Ytste-Tolevatnet;Stor-Tolevatnet" />
		<tag k="natural" v="water" />
		<tag k="ssr:stedsnr" v="929347" />
		<tag k="water" v="lake" />
	</node>
	<node id="-755493" lat="69.3936027746" lon="17.3733555638">
		<tag k="alt_name" v="Leisbergvatnet" />
		<tag k="name" v="Lesbervatnet" />
		<tag k="natural" v="water" />
		<tag k="ssr:stedsnr" v="929325" />
		<tag k="water" v="lake" />
	</node>
	<node id="-755492" lat="69.3632833329" lon="17.3825638965">
		<tag k="name" v="Kvannbergelva" />
		<tag k="ssr:stedsnr" v="929275" />
		<tag k="waterway" v="stream" />
	</node>
	<node id="-754978" lat="69.5750416668" lon="17.4979638855">
		<tag k="name" v="Gilbergsvatnet" />
		<tag k="natural" v="water" />
		<tag k="ssr:stedsnr" v="540194" />
	</node>
	<node id="-755489" lat="69.4508527801" lon="17.416566655">
		<tag k="name" v="Lutvatnet" />
		<tag k="natural" v="water" />
		<tag k="ssr:stedsnr" v="929264" />
		<tag k="water" v="lake" />
	</node>
	<node id="-754821" lat="69.3921027739" lon="17.3063333371">
		<tag k="name" v="Grashopvatnet" />
		<tag k="natural" v="water" />
		<tag k="ssr:stedsnr" v="261366" />
	</node>
	<node id="-755483" lat="69.3761638892" lon="17.4835444551">
		<tag k="alt_name" v="Tverrelvvatnan, nedre" />
		<tag k="name" v="Nedre Tverrelvvatnet" />
		<tag k="natural" v="water" />
		<tag k="ssr:stedsnr" v="928515" />
	</node>
	<node id="-754970" lat="69.4845222229" lon="17.5020861046">
		<tag k="name" v="Kvalvikskarelva" />
		<tag k="ssr:stedsnr" v="539076" />
		<tag k="waterway" v="stream" />
	</node>
	<node id="-754968" lat="69.4875416706" lon="17.4901722305">
		<tag k="name" v="Kjosen" />
		<tag k="natural" v="bay" />
		<tag k="ssr:stedsnr" v="539058" />
	</node>
	<node id="-755467" lat="69.5111611081" lon="17.4577638973">
		<tag k="name" v="Litjedalselva" />
		<tag k="ssr:stedsnr" v="904248" />
		<tag k="waterway" v="stream" />
	</node>
	<node id="-755462" lat="69.5368749971" lon="17.5271138981">
		<tag k="name" v="Sevdalselva" />
		<tag k="ssr:stedsnr" v="904161" />
		<tag k="waterway" v="stream" />
	</node>
	<node id="-755461" lat="69.5180388875" lon="17.4085166546">
		<tag k="name" v="Rydalselva" />
		<tag k="ssr:stedsnr" v="904159" />
		<tag k="waterway" v="stream" />
	</node>
	<node id="-754947" lat="69.4113916701" lon="17.1803194364">
		<tag k="name" v="Mølnelva" />
		<tag k="ssr:stedsnr" v="538225" />
		<tag k="waterway" v="river" />
	</node>
	<node id="-754943" lat="69.4550916677" lon="17.3367805567">
		<tag k="name" v="Kjoselva" />
		<tag k="ssr:stedsnr" v="538078" />
		<tag k="waterway" v="river" />
	</node>
	<node id="-754940" lat="69.473697219" lon="17.7087111161">
		<tag k="name" v="Tjønnan" />
		<tag k="natural" v="water" />
		<tag k="ssr:stedsnr" v="533349" />
		<tag k="water" v="lake" />
	</node>
	<node id="-754422" lat="69.4666472237" lon="17.6817833307">
		<tag k="name" v="Sandelva" />
		<tag k="ssr:stedsnr" v="479253" />
		<tag k="waterway" v="stream" />
	</node>
	<node id="-755445" lat="69.323516669" lon="17.4809388796">
		<tag k="name" v="Sennekjosen" />
		<tag k="natural" v="strait" />
		<tag k="ssr:stedsnr" v="903230" />
	</node>
	<node id="-754420" lat="69.5117361156" lon="17.4331861006">
		<tag k="name" v="Stille" />
		<tag k="natural" v="water" />
		<tag k="ssr:stedsnr" v="479226" />
		<tag k="water" v="lake" />
	</node>
	<node id="-754419" lat="69.4418722237" lon="17.6135861123">
		<tag k="name" v="Kartneset" />
		<tag k="natural" v="cape" />
		<tag k="ssr:stedsnr" v="479211" />
	</node>
	<node id="-754930" lat="69.3481750041" lon="17.4360833282">
		<tag k="name" v="Hundborelva - Beatnatborjohka" />
		<tag k="name:no" v="Hundborelva" />
		<tag k="name:se" v="Beatnatborjohka" />
		<tag k="ssr:stedsnr" v="516868" />
		<tag k="waterway" v="river" />
	</node>
	<node id="-755438" lat="69.4395916634" lon="17.402488879">
		<tag k="name" v="Vollelva" />
		<tag k="ssr:stedsnr" v="902610" />
		<tag k="waterway" v="stream" />
	</node>
	<node id="-754925" lat="69.4365750002" lon="17.5300777655">
		<tag k="name" v="Store Hestvatnet" />
		<tag k="natural" v="water" />
		<tag k="old_name" v="Hestvatnet, store" />
		<tag k="ssr:stedsnr" v="504456" />
		<tag k="water" v="lake" />
	</node>
	<node id="-754924" lat="69.4501972204" lon="17.6335083223">
		<tag k="alt_name" v="Breidtindvatnet" />
		<tag k="name" v="Breitindvatnet" />
		<tag k="natural" v="water" />
		<tag k="ssr:stedsnr" v="504441" />
	</node>
	<node id="-754336" lat="69.4642500008" lon="17.4430277817">
		<tag k="name" v="Fiskarneset" />
		<tag k="natural" v="cape" />
		<tag k="ssr:stedsnr" v="358142" />
	</node>
	<node id="-754922" lat="69.3876972216" lon="17.2287361131">
		<tag k="name" v="Tolelva" />
		<tag k="ssr:stedsnr" v="504334" />
		<tag k="waterway" v="river" />
	</node>
	<node id="-754408" lat="69.3184111106" lon="17.4554861123">
		<tag k="name" v="Skeiholla" />
		<tag k="place" v="locality" />
		<tag k="ssr:stedsnr" v="478232" />
	</node>
	<node id="-754407" lat="69.4805861129" lon="17.4899277749">
		<tag k="name" v="Kjosfossen" />
		<tag k="natural" v="waterfall" />
		<tag k="ssr:stedsnr" v="478060" />
	</node>
	<node id="-755430" lat="69.4792277754" lon="17.3661583357">
		<tag k="name" v="Klipelva" />
		<tag k="ssr:stedsnr" v="902395" />
		<tag k="waterway" v="stream" />
	</node>
	<node id="-754916" lat="69.4837416646" lon="17.5017249935">
		<tag k="name" v="Kvalvikelva" />
		<tag k="ssr:stedsnr" v="503443" />
		<tag k="waterway" v="stream" />
	</node>
	<node id="-754400" lat="69.4430194434" lon="17.3292583363">
		<tag k="name" v="Tortenbakkelva" />
		<tag k="ssr:stedsnr" v="477817" />
		<tag k="waterway" v="river" />
	</node>
	<node id="-754911" lat="69.4081305591" lon="17.2043944528">
		<tag k="alt_name" v="Bjørnevatnet, nedre" />
		<tag k="name" v="Nedre Bjørnevatnet" />
		<tag k="natural" v="water" />
		<tag k="ssr:stedsnr" v="503236" />
		<tag k="water" v="lake" />
	</node>
	<node id="-754404" lat="69.3657694468" lon="17.377902768">
		<tag k="name" v="Brattbakkelva" />
		<tag k="ssr:stedsnr" v="477895" />
		<tag k="waterway" v="stream" />
	</node>
	<node id="-755407" lat="69.4721083366" lon="17.5488111065">
		<tag k="alt_name" v="Kvalvikvatnet, nedre" />
		<tag k="fixme" v="multiple name tags, choose one and add the other to alt_name" />
		<tag k="name" v="Kvalvikvatnet;Nedre Kvalvikvatnet" />
		<tag k="natural" v="water" />
		<tag k="ssr:stedsnr" v="868492" />
	</node>
	<node id="-755404" lat="69.4343777756" lon="17.4853166517">
		<tag k="alt_name" v="Forselva" />
		<tag k="name" v="Fosselva" />
		<tag k="ssr:stedsnr" v="868459" />
		<tag k="waterway" v="stream" />
	</node>
	<node id="-754890" lat="69.3173583311" lon="17.5469416653">
		<tag k="alt_name" v="Hellelva" />
		<tag k="name" v="Helleelva" />
		<tag k="ssr:stedsnr" v="443566" />
		<tag k="waterway" v="river" />
	</node>
	<node id="-754888" lat="69.4626055513" lon="17.6756055603">
		<tag k="alt_name" v="Kolbeinelva" />
		<tag k="name" v="Kolbeinselva" />
		<tag k="ssr:stedsnr" v="443492" />
		<tag k="waterway" v="stream" />
	</node>
	<node id="-754375" lat="69.4694166626" lon="17.7245611059">
		<tag k="name" v="Sørkråelva" />
		<tag k="ssr:stedsnr" v="412320" />
		<tag k="waterway" v="stream" />
	</node>
	<node id="-754465" lat="69.4558611114" lon="17.4880166602">
		<tag k="name" v="Roaldsvatnet" />
		<tag k="natural" v="water" />
		<tag k="ssr:stedsnr" v="18409" />
		<tag k="water" v="lake" />
	</node>
	<node id="-754884" lat="69.377150002" lon="17.2929388796">
		<tag k="name" v="Kvanntovatnan" />
		<tag k="natural" v="water" />
		<tag k="ssr:stedsnr" v="443383" />
	</node>
	<node id="-755394" lat="69.4037666687" lon="17.1731916578">
		<tag k="name" v="Storvatnet" />
		<tag k="natural" v="water" />
		<tag k="ssr:stedsnr" v="868240" />
		<tag k="water" v="lake" />
	</node>
	<node id="-754881" lat="69.4430625325" lon="17.353073965">
		<tag k="alt_name" v="Skjelelva" />
		<tag k="name" v="Skjellelva" />
		<tag k="ssr:stedsnr" v="443304" />
		<tag k="waterway" v="stream" />
	</node>
	<node id="-755391" lat="69.497075004" lon="17.391441667">
		<tag k="alt_name" v="Grylskardelva" />
		<tag k="name" v="Grylskarelva" />
		<tag k="ssr:stedsnr" v="868176" />
		<tag k="waterway" v="stream" />
	</node>
	<node id="-754877" lat="69.4749638857" lon="17.435566668">
		<tag k="alt_name" v="Geitskardelva" />
		<tag k="fixme" v="multiple name tags, choose one and add the other to alt_name" />
		<tag k="name" v="Storelva;Geitskarelva" />
		<tag k="ssr:stedsnr" v="443189" />
		<tag k="waterway" v="river" />
	</node>
	<node id="-754557" lat="69.4524444459" lon="17.604072229">
		<tag k="name" v="Holman" />
		<tag k="place" v="islet" />
		<tag k="ssr:stedsnr" v="55201" />
	</node>
	<node id="-755402" lat="69.3910027736" lon="17.2454944498">
		<tag k="name" v="Tolbukta" />
		<tag k="natural" v="bay" />
		<tag k="ssr:stedsnr" v="868341" />
	</node>
	<node id="-754362" lat="69.3831916698" lon="17.4665472217">
		<tag k="alt_name" v="Tverrelvvatnan, øvre" />
		<tag k="name" v="Øvre Tverrelvvatnan" />
		<tag k="natural" v="water" />
		<tag k="ssr:stedsnr" v="382544" />
	</node>
	<node id="-755384" lat="69.5104333334" lon="17.4595249889">
		<tag k="name" v="Litjedalsvatnet" />
		<tag k="natural" v="water" />
		<tag k="ssr:stedsnr" v="844215" />
	</node>
	<node id="-754871" lat="69.4980888909" lon="17.4747861022">
		<tag k="name" v="Gardselva" />
		<tag k="ssr:stedsnr" v="419240" />
		<tag k="waterway" v="stream" />
	</node>
	<node id="-754357" lat="69.3803833335" lon="17.2695027873">
		<tag k="name" v="Spåmannelva" />
		<tag k="ssr:stedsnr" v="382355" />
		<tag k="waterway" v="river" />
	</node>
	<node id="-754632" lat="69.5014166662" lon="17.4857944394">
		<tag k="name" v="Sirielva" />
		<tag k="ssr:stedsnr" v="115249" />
		<tag k="waterway" v="stream" />
	</node>
	<node id="-754861" lat="69.4728944461" lon="17.6787444312">
		<tag k="name" v="Litjevatnet" />
		<tag k="natural" v="water" />
		<tag k="ssr:stedsnr" v="418255" />
	</node>
	<node id="-754345" lat="69.4678583374" lon="17.6845638938">
		<tag k="name" v="Dammen" />
		<tag k="natural" v="water" />
		<tag k="ssr:stedsnr" v="358241" />
		<tag k="water" v="pond" />
	</node>
	<node id="-755368" lat="69.4417805529" lon="17.4943277695">
		<tag k="name" v="Fossen" />
		<tag k="natural" v="waterfall" />
		<tag k="ssr:stedsnr" v="844018" />
	</node>
	<node id="-754342" lat="69.5002972257" lon="17.4764999978">
		<tag k="name" v="Kvannhollelva" />
		<tag k="ssr:stedsnr" v="358219" />
		<tag k="waterway" v="stream" />
	</node>
	<node id="-755363" lat="69.3894027745" lon="17.4096138962">
		<tag k="name" v="Holmen" />
		<tag k="place" v="islet" />
		<tag k="ssr:stedsnr" v="842936" />
	</node>
	<node id="-754848" lat="69.4446305576" lon="17.4592444388">
		<tag k="name" v="Badeholla" />
		<tag k="place" v="locality" />
		<tag k="ssr:stedsnr" v="416666" />
	</node>
	<node id="-754846" lat="69.4879083285" lon="17.2445722305">
		<tag k="name" v="Trollvasselva" />
		<tag k="ssr:stedsnr" v="416536" />
		<tag k="waterway" v="stream" />
	</node>
	<node id="-754326" lat="69.4469333324" lon="17.4201666561">
		<tag k="name" v="Hulderdammen" />
		<tag k="natural" v="water" />
		<tag k="ssr:stedsnr" v="356577" />
		<tag k="water" v="lake" />
	</node>
	<node id="-755349" lat="69.3334833336" lon="17.4682916739">
		<tag k="name" v="Britatjønna" />
		<tag k="natural" v="water" />
		<tag k="ssr:stedsnr" v="841986" />
		<tag k="water" v="lake" />
	</node>
	<node id="-754832" lat="69.4556472232" lon="17.3340611022">
		<tag k="name" v="Kjosen" />
		<tag k="natural" v="bay" />
		<tag k="ssr:stedsnr" v="416062" />
	</node>
	<node id="-755343" lat="69.474058334" lon="17.2538472228">
		<tag k="name" v="Kobbevatnet" />
		<tag k="natural" v="water" />
		<tag k="ssr:stedsnr" v="841442" />
		<tag k="water" v="lake" />
	</node>
	<node id="-755341" lat="69.383175004" lon="17.2673944527">
		<tag k="name" v="Vassbotn" />
		<tag k="natural" v="bay" />
		<tag k="ssr:stedsnr" v="841347" />
	</node>
	<node id="-755340" lat="69.3885666626" lon="17.3303861092">
		<tag k="name" v="Ytre Rennarholla" />
		<tag k="natural" v="bay" />
		<tag k="ssr:stedsnr" v="841337" />
	</node>
	<node id="-754823" lat="69.3949972182" lon="17.4900527794">
		<tag k="name" v="Krokelvvatnet" />
		<tag k="natural" v="water" />
		<tag k="ssr:stedsnr" v="261525" />
	</node>
	<node id="-754822" lat="69.3281138928" lon="17.3890472145">
		<tag k="name" v="Daudmannsvatnet" />
		<tag k="natural" v="water" />
		<tag k="ssr:stedsnr" v="261418" />
		<tag k="water" v="lake" />
	</node>
	<node id="-755333" lat="69.4703277806" lon="17.298097231">
		<tag k="name" v="Gluggelva" />
		<tag k="ssr:stedsnr" v="841064" />
		<tag k="waterway" v="river" />
	</node>
	<node id="-755329" lat="69.3631777786" lon="17.422680543">
		<tag k="name" v="Botnelva" />
		<tag k="ssr:stedsnr" v="842850" />
		<tag k="waterway" v="river" />
	</node>
	<node id="-754303" lat="69.4735055573" lon="17.7372166573">
		<tag k="name" v="Tennholmen" />
		<tag k="place" v="islet" />
		<tag k="ssr:stedsnr" v="351341" />
	</node>
	<node id="-754292" lat="69.5108250006" lon="17.4224166627">
		<tag k="alt_name" v="Storevatnet" />
		<tag k="name" v="Storvatnet" />
		<tag k="natural" v="water" />
		<tag k="ssr:stedsnr" v="322821" />
	</node>
	<node id="-754625" lat="69.5108722192" lon="17.4067972234">
		<tag k="name" v="Gravdalselva" />
		<tag k="ssr:stedsnr" v="115180" />
		<tag k="waterway" v="stream" />
	</node>
	<node id="-754290" lat="69.4745138876" lon="17.6856083369">
		<tag k="name" v="Mefjordbotneidet" />
		<tag k="natural" v="strait" />
		<tag k="ssr:stedsnr" v="322491" />
	</node>
	<node id="-755312" lat="69.3155138902" lon="17.425430556">
		<tag k="name" v="Skeivatnan" />
		<tag k="natural" v="water" />
		<tag k="ssr:stedsnr" v="807581" />
		<tag k="water" v="lake" />
	</node>
	<node id="-754287" lat="69.4519138868" lon="17.5285388978">
		<tag k="alt_name" v="Hestvatnet, l" />
		<tag k="name" v="Lille Hestvatnet" />
		<tag k="natural" v="water" />
		<tag k="old_name" v="Litle Hestvatnet" />
		<tag k="ssr:stedsnr" v="322442" />
		<tag k="water" v="lake" />
	</node>
	<node id="-754796" lat="69.4830249977" lon="17.4902194492">
		<tag k="name" v="Kjoselva" />
		<tag k="ssr:stedsnr" v="236068" />
		<tag k="waterway" v="stream" />
	</node>
	<node id="-754282" lat="69.3716222211" lon="17.3575888931">
		<tag k="name" v="Spekelva" />
		<tag k="ssr:stedsnr" v="322285" />
		<tag k="waterway" v="river" />
	</node>
	<node id="-755305" lat="69.455033334" lon="17.4463944343">
		<tag k="name" v="Ersfjordvatnet" />
		<tag k="natural" v="water" />
		<tag k="ssr:stedsnr" v="807439" />
		<tag k="water" v="lake" />
	</node>
	<node id="-755303" lat="69.4022666676" lon="17.2402666733">
		<tag k="name" v="Finnsætervatnet" />
		<tag k="natural" v="water" />
		<tag k="ssr:stedsnr" v="807335" />
		<tag k="water" v="lake" />
	</node>
	<node id="-755302" lat="69.3981666696" lon="17.1976027754">
		<tag k="name" v="Grunnbøtindvatnet" />
		<tag k="natural" v="water" />
		<tag k="ssr:stedsnr" v="807333" />
	</node>
	<node id="-754275" lat="69.4808111097" lon="17.2526083315">
		<tag k="name" v="Strandbyvatnet" />
		<tag k="natural" v="water" />
		<tag k="ssr:stedsnr" v="322174" />
		<tag k="water" v="lake" />
	</node>
	<node id="-754363" lat="69.321497225" lon="17.497447226">
		<tag k="name" v="Steinvatnet" />
		<tag k="natural" v="water" />
		<tag k="ssr:stedsnr" v="382565" />
	</node>
	<node id="-754783" lat="69.3234361135" lon="17.4704583394">
		<tag k="name" v="Elveosen" />
		<tag k="natural" v="bay" />
		<tag k="ssr:stedsnr" v="234880" />
	</node>
	<node id="-754267" lat="69.4039277766" lon="17.205591675">
		<tag k="alt_name" v="Bjørnevatnet, øvre" />
		<tag k="name" v="Øvre Bjørnevatnet" />
		<tag k="natural" v="water" />
		<tag k="ssr:stedsnr" v="321263" />
		<tag k="water" v="lake" />
	</node>
	<node id="-754771" lat="69.387038891" lon="17.3313972094">
		<tag k="name" v="Indre Rennarholla" />
		<tag k="natural" v="bay" />
		<tag k="ssr:stedsnr" v="234323" />
	</node>
	<node id="-755282" lat="69.5084083374" lon="17.4263583369">
		<tag k="name" v="Nonstindelva" />
		<tag k="ssr:stedsnr" v="783130" />
		<tag k="waterway" v="stream" />
	</node>
	<node id="-754769" lat="69.4111750038" lon="17.196872228">
		<tag k="name" v="Breivika" />
		<tag k="natural" v="bay" />
		<tag k="ssr:stedsnr" v="234241" />
	</node>
	<node id="-754360" lat="69.3400055603" lon="17.5638027674">
		<tag k="name" v="Hellevatnet - Riehppejávri" />
		<tag k="name:no" v="Hellevatnet" />
		<tag k="name:se" v="Riehppejávri" />
		<tag k="natural" v="water" />
		<tag k="old_name:se" v="Rieppejavri" />
		<tag k="ssr:stedsnr" v="382531" />
	</node>
	<node id="-754369" lat="69.3365111112" lon="17.4306277775">
		<tag k="fixme" v="multiple name tags, choose one and add the other to alt_name" />
		<tag k="name" v="Svanvatnan, store;Ytre Svanvatnet;Store Svanvatnan - Njukčajávri" />
		<tag k="name:no" v="Svanvatnan, store;Ytre Svanvatnet;Store Svanvatnan" />
		<tag k="name:se" v="Njukčajávri" />
		<tag k="natural" v="water" />
		<tag k="ssr:stedsnr" v="393890" />
		<tag k="water" v="lake" />
	</node>
	<node id="-755274" lat="69.4893888915" lon="17.4766277757">
		<tag k="name" v="Storvatnet" />
		<tag k="natural" v="water" />
		<tag k="ssr:stedsnr" v="782059" />
	</node>
	<node id="-754758" lat="69.35647222" lon="17.2314833291">
		<tag k="name" v="Bingen" />
		<tag k="natural" v="water" />
		<tag k="ssr:stedsnr" v="234030" />
	</node>
	<node id="-754785" lat="69.3295986113" lon="17.4620019758">
		<tag k="name" v="Andersvatnet" />
		<tag k="natural" v="water" />
		<tag k="ssr:stedsnr" v="234990" />
		<tag k="water" v="lake" />
	</node>
	<node id="-754244" lat="69.4900083346" lon="17.47319723">
		<tag k="name" v="Buktelva" />
		<tag k="ssr:stedsnr" v="297104" />
		<tag k="waterway" v="stream" />
	</node>
	<node id="-754755" lat="69.4790027809" lon="17.7402694464">
		<tag k="name" v="Keipelva" />
		<tag k="ssr:stedsnr" v="230374" />
		<tag k="waterway" v="stream" />
	</node>
	<node id="-755259" lat="69.4109861154" lon="17.1873944405">
		<tag k="name" v="Styrbergvika" />
		<tag k="natural" v="bay" />
		<tag k="ssr:stedsnr" v="781226" />
	</node>
	<node id="-754738" lat="69.3833972238" lon="17.5134333411">
		<tag k="name" v="Djupvatnet - Rávdojávri" />
		<tag k="name:no" v="Djupvatnet" />
		<tag k="name:se" v="Rávdojávri" />
		<tag k="natural" v="water" />
		<tag k="old_name:se" v="Ravdujavri" />
		<tag k="ssr:stedsnr" v="200534" />
		<tag k="water" v="lake" />
	</node>
	<node id="-754791" lat="69.3863361103" lon="17.457755564">
		<tag k="name" v="Tverrelva" />
		<tag k="ssr:stedsnr" v="235915" />
		<tag k="waterway" v="river" />
	</node>
	<node id="-755243" lat="69.4563416695" lon="17.2718722308">
		<tag k="name" v="Storelva" />
		<tag k="ssr:stedsnr" v="780039" />
		<tag k="waterway" v="stream" />
	</node>
	<node id="-754726" lat="69.4585666698" lon="17.6262444426">
		<tag k="name" v="Skjæreggelva" />
		<tag k="ssr:stedsnr" v="176238" />
		<tag k="waterway" v="stream" />
	</node>
	<node id="-755234" lat="69.4669861142" lon="17.7295638863">
		<tag k="name" v="Øvre Sørkråvatnet" />
		<tag k="natural" v="water" />
		<tag k="ssr:stedsnr" v="776326" />
	</node>
	<node id="-754721" lat="69.442136111" lon="17.6013833411">
		<tag k="name" v="Storneset" />
		<tag k="natural" v="cape" />
		<tag k="ssr:stedsnr" v="176211" />
	</node>
	<node id="-754719" lat="69.5172083314" lon="17.4158111133">
		<tag k="name" v="Litje Skålbrekkvatnet" />
		<tag k="natural" v="water" />
		<tag k="ssr:stedsnr" v="176165" />
	</node>
	<node id="-755227" lat="69.3649249971" lon="17.4058972282">
		<tag k="alt_name" v="Elvevollen" />
		<tag k="name" v="Elvevoll" />
		<tag k="natural" v="bay" />
		<tag k="ssr:stedsnr" v="747315" />
	</node>
	<node id="-755220" lat="69.4682666694" lon="17.5125638971">
		<tag k="name" v="Burstindvatnet" />
		<tag k="natural" v="water" />
		<tag k="ssr:stedsnr" v="746504" />
	</node>
	<node id="-755219" lat="69.4772027787" lon="17.4676944486">
		<tag k="alt_name" v="Geitskardvatnet" />
		<tag k="name" v="Geitskarvatnet" />
		<tag k="natural" v="water" />
		<tag k="ssr:stedsnr" v="746499" />
	</node>
	<node id="-755216" lat="69.3923749954" lon="17.166316673">
		<tag k="name" v="Hellandsvatnet" />
		<tag k="natural" v="water" />
		<tag k="ssr:stedsnr" v="746347" />
	</node>
	<node id="-755233" lat="69.473755552" lon="17.7356694327">
		<tag k="name" v="Holmen" />
		<tag k="place" v="islet" />
		<tag k="ssr:stedsnr" v="776325" />
	</node>
</osm>
