<?xml version="1.0" encoding="UTF-8"?>
<osm generator="osmapis" version="0.6">
	<node id="-753655" lat="69.4067111121" lon="17.4909638876">
		<tag k="alt_name" v="Litlemoa" />
		<tag k="fixme" v="consider natural=peak for the most distinct mountains in the district" />
		<tag k="name" v="Litjemoa" />
		<tag k="natural" v="hill" />
		<tag k="place" v="locality" />
		<tag k="ssr:stedsnr" v="564536" />
	</node>
	<node id="-753654" lat="69.4851555522" lon="17.6359611127">
		<tag k="alt_name" v="Baren" />
		<tag k="fixme" v="consider natural=peak for the most distinct mountains in the district" />
		<tag k="name" v="Barden" />
		<tag k="natural" v="hill" />
		<tag k="place" v="locality" />
		<tag k="ssr:stedsnr" v="564486" />
	</node>
	<node id="-753653" lat="69.4486611143" lon="17.4788138926">
		<tag k="fixme" v="consider natural=peak for the most distinct mountains in the district" />
		<tag k="name" v="Indregårdspurka" />
		<tag k="natural" v="hill" />
		<tag k="place" v="locality" />
		<tag k="ssr:stedsnr" v="564454" />
	</node>
	<node id="-753650" lat="69.4536388851" lon="17.3605110977">
		<tag k="fixme" v="consider natural=peak for the most distinct mountains in the district" />
		<tag k="name" v="Purka" />
		<tag k="natural" v="hill" />
		<tag k="place" v="locality" />
		<tag k="ssr:stedsnr" v="564285" />
	</node>
	<node id="-753648" lat="69.4582972224" lon="17.3132777856">
		<tag k="alt_name" v="Brusen, store" />
		<tag k="fixme" v="consider natural=peak for the most distinct mountains in the district" />
		<tag k="name" v="Storbrusen" />
		<tag k="natural" v="hill" />
		<tag k="old_name" v="Brusen" />
		<tag k="place" v="locality" />
		<tag k="ssr:stedsnr" v="564274" />
	</node>
	<node id="-753638" lat="69.4748777775" lon="17.2433888833">
		<tag k="alt_name" v="Strandbyskardet" />
		<tag k="name" v="Strandbyskaret" />
		<tag k="natural" v="valley" />
		<tag k="place" v="locality" />
		<tag k="ssr:stedsnr" v="564177" />
	</node>
	<node id="-753636" lat="69.4685749982" lon="17.6820749859">
		<tag k="name" v="Sandberget" />
		<tag k="natural" v="hill" />
		<tag k="place" v="locality" />
		<tag k="ssr:stedsnr" v="540250" />
	</node>
	<node id="-753634" lat="69.5055916694" lon="17.4767805619">
		<tag k="name" v="Storråna" />
		<tag k="natural" v="slope" />
		<tag k="place" v="locality" />
		<tag k="ssr:stedsnr" v="540234" />
	</node>
	<node id="-753633" lat="69.5106388913" lon="17.4767972265">
		<tag k="name" v="Tindbudalen" />
		<tag k="natural" v="valley" />
		<tag k="place" v="locality" />
		<tag k="ssr:stedsnr" v="540226" />
	</node>
	<node id="-753632" lat="69.5524749973" lon="17.4975833424">
		<tag k="name" v="Skultran" />
		<tag k="place" v="locality" />
		<tag k="ssr:stedsnr" v="540196" />
	</node>
	<node id="-753628" lat="69.478477775" lon="17.3873444445">
		<tag k="name" v="Torvskjåbakken" />
		<tag k="natural" v="slope" />
		<tag k="place" v="locality" />
		<tag k="ssr:stedsnr" v="540131" />
	</node>
	<node id="-753626" lat="69.4416555564" lon="17.4744416598">
		<tag k="name" v="Jolia" />
		<tag k="natural" v="slope" />
		<tag k="place" v="locality" />
		<tag k="ssr:stedsnr" v="540122" />
	</node>
	<node id="-753625" lat="69.427325004" lon="17.4617027718">
		<tag k="name" v="Moseranda" />
		<tag k="natural" v="slope" />
		<tag k="place" v="locality" />
		<tag k="ssr:stedsnr" v="540116" />
	</node>
	<node id="-753624" lat="69.4610138899" lon="17.5804666756">
		<tag k="name" v="Hestesletta" />
		<tag k="place" v="locality" />
		<tag k="ssr:stedsnr" v="539238" />
	</node>
	<node id="-753622" lat="69.4961638916" lon="17.4755388818">
		<tag k="name" v="Vedheggen" />
		<tag k="natural" v="slope" />
		<tag k="place" v="locality" />
		<tag k="ssr:stedsnr" v="539061" />
	</node>
	<node id="-753620" lat="69.3991305566" lon="17.5056194457">
		<tag k="name" v="Moholla" />
		<tag k="natural" v="valley" />
		<tag k="place" v="locality" />
		<tag k="ssr:stedsnr" v="538946" />
	</node>
	<node id="-753619" lat="69.3903722263" lon="17.3891749979">
		<tag k="name" v="Brattbakken" />
		<tag k="natural" v="slope" />
		<tag k="place" v="locality" />
		<tag k="ssr:stedsnr" v="538940" />
	</node>
	<node id="-753617" lat="69.4421861125" lon="17.352913885">
		<tag k="name" v="Brattbakken" />
		<tag k="natural" v="slope" />
		<tag k="place" v="locality" />
		<tag k="ssr:stedsnr" v="538892" />
	</node>
	<node id="-753613" lat="69.4435861097" lon="17.3101638902">
		<tag k="name" v="Trollhammaren" />
		<tag k="natural" v="hill" />
		<tag k="place" v="locality" />
		<tag k="ssr:stedsnr" v="538796" />
	</node>
	<node id="-753612" lat="69.4838249977" lon="17.2287360978">
		<tag k="name" v="Storhakket" />
		<tag k="natural" v="valley" />
		<tag k="place" v="locality" />
		<tag k="ssr:stedsnr" v="538660" />
	</node>
	<node id="-753610" lat="69.4450583344" lon="17.4291277709">
		<tag k="name" v="Bukkhellaren" />
		<tag k="natural" v="slope" />
		<tag k="place" v="locality" />
		<tag k="ssr:stedsnr" v="538597" />
	</node>
	<node id="-753603" lat="69.393727781" lon="17.3579027894">
		<tag k="name" v="Nedre Lesbervatnhaugen" />
		<tag k="natural" v="hill" />
		<tag k="place" v="locality" />
		<tag k="ssr:stedsnr" v="538383" />
	</node>
	<node id="-753601" lat="69.5168805517" lon="17.4072999951">
		<tag k="name" v="Kvannto" />
		<tag k="natural" v="slope" />
		<tag k="place" v="locality" />
		<tag k="ssr:stedsnr" v="538244" />
	</node>
	<node id="-753599" lat="69.499383336" lon="17.2220000115">
		<tag k="name" v="Matkjelaksla" />
		<tag k="place" v="locality" />
		<tag k="ssr:stedsnr" v="538143" />
	</node>
	<node id="-753598" lat="69.5268972243" lon="17.3331083351">
		<tag k="name" v="Stavskaret" />
		<tag k="natural" v="valley" />
		<tag k="place" v="locality" />
		<tag k="ssr:stedsnr" v="538117" />
	</node>
	<node id="-753597" lat="69.4598138922" lon="17.3648083449">
		<tag k="name" v="Dortebakkan" />
		<tag k="natural" v="slope" />
		<tag k="place" v="locality" />
		<tag k="ssr:stedsnr" v="538101" />
	</node>
	<node id="-753595" lat="69.4095027755" lon="17.2552249969">
		<tag k="name" v="Bjellhaugen" />
		<tag k="natural" v="hill" />
		<tag k="place" v="locality" />
		<tag k="ssr:stedsnr" v="537464" />
	</node>
	<node id="-753594" lat="69.4558944459" lon="17.2591777681">
		<tag k="name" v="Kvigenakken" />
		<tag k="natural" v="hill" />
		<tag k="place" v="locality" />
		<tag k="ssr:stedsnr" v="537048" />
	</node>
	<node id="-753592" lat="69.4785555574" lon="17.6865694524">
		<tag k="fixme" v="consider natural=peak for the most distinct mountains in the district" />
		<tag k="name" v="Davkollen" />
		<tag k="natural" v="hill" />
		<tag k="place" v="locality" />
		<tag k="ssr:stedsnr" v="533229" />
	</node>
	<node id="-753581" lat="69.506244446" lon="17.4664638783">
		<tag k="fixme" v="consider natural=peak for the most distinct mountains in the district" />
		<tag k="name" v="Kyle" />
		<tag k="natural" v="hill" />
		<tag k="place" v="locality" />
		<tag k="ssr:stedsnr" v="504879" />
	</node>
	<node id="-753574" lat="69.3460638893" lon="17.3789805487">
		<tag k="name" v="Lappedalen" />
		<tag k="natural" v="valley" />
		<tag k="place" v="locality" />
		<tag k="ssr:stedsnr" v="504305" />
	</node>
	<node id="-753568" lat="69.3955611123" lon="17.3034750018">
		<tag k="fixme" v="consider natural=peak for the most distinct mountains in the district" />
		<tag k="name" v="Grashopaksla" />
		<tag k="natural" v="hill" />
		<tag k="place" v="locality" />
		<tag k="ssr:stedsnr" v="503329" />
	</node>
	<node id="-753559" lat="69.352855557" lon="17.4450611203">
		<tag k="name" v="Heggelia" />
		<tag k="natural" v="slope" />
		<tag k="place" v="locality" />
		<tag k="ssr:stedsnr" v="472597" />
	</node>
	<node id="-753551" lat="69.5160833328" lon="17.3549500073">
		<tag k="name" v="Hundslaupdalen" />
		<tag k="natural" v="valley" />
		<tag k="place" v="locality" />
		<tag k="ssr:stedsnr" v="443954" />
	</node>
	<node id="-753547" lat="69.5479666654" lon="17.5084416692">
		<tag k="alt_name" v="Sevdalen, yt" />
		<tag k="name" v="Yttersevdalen" />
		<tag k="natural" v="valley" />
		<tag k="place" v="locality" />
		<tag k="ssr:stedsnr" v="443847" />
	</node>
	<node id="-753546" lat="69.5394611135" lon="17.550961118">
		<tag k="alt_name" v="Kongan, yt;Ytre Kongan;Yste Kongen" />
		<tag k="fixme" v="consider natural=peak for the most distinct mountains in the district" />
		<tag k="name" v="Ytste Kongen" />
		<tag k="natural" v="hill" />
		<tag k="place" v="locality" />
		<tag k="ssr:stedsnr" v="443834" />
	</node>
	<node id="-753545" lat="69.5794777744" lon="17.5038194342">
		<tag k="fixme" v="consider natural=peak for the most distinct mountains in the district" />
		<tag k="name" v="Kista" />
		<tag k="natural" v="hill" />
		<tag k="place" v="locality" />
		<tag k="ssr:stedsnr" v="443750" />
	</node>
	<node id="-753542" lat="69.4611722234" lon="17.4980916725">
		<tag k="fixme" v="consider natural=peak for the most distinct mountains in the district" />
		<tag k="name" v="Snaufjellet" />
		<tag k="natural" v="hill" />
		<tag k="place" v="locality" />
		<tag k="ssr:stedsnr" v="443502" />
	</node>
	<node id="-753538" lat="69.4450666685" lon="17.5099444557">
		<tag k="fixme" v="consider natural=peak for the most distinct mountains in the district" />
		<tag k="name" v="Tverrfjellet" />
		<tag k="natural" v="hill" />
		<tag k="place" v="locality" />
		<tag k="ssr:stedsnr" v="443453" />
	</node>
	<node id="-753532" lat="69.4082833378" lon="17.3978583242">
		<tag k="fixme" v="consider natural=peak for the most distinct mountains in the district" />
		<tag k="name" v="Flobjørn" />
		<tag k="natural" v="hill" />
		<tag k="place" v="locality" />
		<tag k="ssr:stedsnr" v="443265" />
	</node>
	<node id="-753523" lat="69.505366665" lon="17.4299666749">
		<tag k="name" v="Botnlaushollan" />
		<tag k="natural" v="valley" />
		<tag k="place" v="locality" />
		<tag k="ssr:stedsnr" v="419231" />
	</node>
	<node id="-753519" lat="69.4682972232" lon="17.4663027801">
		<tag k="fixme" v="consider natural=peak for the most distinct mountains in the district" />
		<tag k="name" v="Dyret" />
		<tag k="natural" v="hill" />
		<tag k="place" v="locality" />
		<tag k="ssr:stedsnr" v="419154" />
	</node>
	<node id="-753515" lat="69.4270805522" lon="17.5023694356">
		<tag k="name" v="Hestebakken" />
		<tag k="natural" v="slope" />
		<tag k="place" v="locality" />
		<tag k="ssr:stedsnr" v="419115" />
	</node>
	<node id="-753513" lat="69.4848583331" lon="17.4863083395">
		<tag k="name" v="Roaldsletta" />
		<tag k="place" v="locality" />
		<tag k="ssr:stedsnr" v="418080" />
	</node>
	<node id="-753510" lat="69.4441555602" lon="17.3301999958">
		<tag k="name" v="Tortenbakkhaugen" />
		<tag k="natural" v="hill" />
		<tag k="place" v="locality" />
		<tag k="ssr:stedsnr" v="417816" />
	</node>
	<node id="-753509" lat="69.4445444437" lon="17.3025305563">
		<tag k="name" v="Kleiva" />
		<tag k="natural" v="slope" />
		<tag k="place" v="locality" />
		<tag k="ssr:stedsnr" v="417815" />
	</node>
	<node id="-753508" lat="69.4456638876" lon="17.3460749881">
		<tag k="name" v="Legda" />
		<tag k="natural" v="slope" />
		<tag k="place" v="locality" />
		<tag k="ssr:stedsnr" v="417806" />
	</node>
	<node id="-753507" lat="69.451727776" lon="17.4324583382">
		<tag k="fixme" v="consider natural=peak for the most distinct mountains in the district" />
		<tag k="name" v="Lutnespurka" />
		<tag k="natural" v="hill" />
		<tag k="place" v="locality" />
		<tag k="ssr:stedsnr" v="417624" />
	</node>
	<node id="-753506" lat="69.4435583317" lon="17.4240638961">
		<tag k="name" v="Steinbakken" />
		<tag k="natural" v="slope" />
		<tag k="place" v="locality" />
		<tag k="ssr:stedsnr" v="417615" />
	</node>
	<node id="-753503" lat="69.4443472235" lon="17.1261749923">
		<tag k="name" v="Ertnøykollen" />
		<tag k="natural" v="hill" />
		<tag k="place" v="locality" />
		<tag k="ssr:stedsnr" v="417174" />
	</node>
	<node id="-753502" lat="69.3985472215" lon="17.4269416571">
		<tag k="name" v="Jøvikskaret" />
		<tag k="natural" v="valley" />
		<tag k="place" v="locality" />
		<tag k="ssr:stedsnr" v="416950" />
	</node>
	<node id="-753500" lat="69.4914944445" lon="17.2267888861">
		<tag k="fixme" v="consider natural=peak for the most distinct mountains in the district" />
		<tag k="name" v="Skorven" />
		<tag k="natural" v="hill" />
		<tag k="ssr:stedsnr" v="416544" />
	</node>
	<node id="-753498" lat="69.4648999977" lon="17.242608333">
		<tag k="name" v="Durmålshaugen" />
		<tag k="natural" v="hill" />
		<tag k="place" v="locality" />
		<tag k="ssr:stedsnr" v="416428" />
	</node>
	<node id="-753496" lat="69.4790472188" lon="17.3329111149">
		<tag k="name" v="Keilhaugen" />
		<tag k="natural" v="hill" />
		<tag k="place" v="locality" />
		<tag k="ssr:stedsnr" v="416242" />
	</node>
	<node id="-753495" lat="69.512241663" lon="17.3635416763">
		<tag k="fixme" v="consider natural=peak for the most distinct mountains in the district" />
		<tag k="name" v="Hunden" />
		<tag k="natural" v="hill" />
		<tag k="place" v="locality" />
		<tag k="ssr:stedsnr" v="416185" />
	</node>
	<node id="-753491" lat="69.4646805586" lon="17.3523527737">
		<tag k="name" v="Krøkebærlia" />
		<tag k="natural" v="slope" />
		<tag k="place" v="locality" />
		<tag k="ssr:stedsnr" v="416091" />
	</node>
	<node id="-753487" lat="69.4615944466" lon="17.2952999919">
		<tag k="name" v="Ersvikskaret" />
		<tag k="natural" v="valley" />
		<tag k="place" v="locality" />
		<tag k="ssr:stedsnr" v="416069" />
	</node>
	<node id="-753484" lat="69.463833331" lon="17.2437416763">
		<tag k="name" v="Ramslilegda" />
		<tag k="natural" v="slope" />
		<tag k="place" v="locality" />
		<tag k="ssr:stedsnr" v="416008" />
	</node>
	<node id="-753480" lat="69.5580305581" lon="17.5093722221">
		<tag k="fixme" v="consider natural=peak for the most distinct mountains in the district" />
		<tag k="name" v="Finnan" />
		<tag k="natural" v="hill" />
		<tag k="place" v="locality" />
		<tag k="ssr:stedsnr" v="261822" />
	</node>
	<node id="-753478" lat="69.5701694403" lon="17.4860916619">
		<tag k="alt_name" v="Gilberg" />
		<tag k="name" v="Gilberget" />
		<tag k="natural" v="hill" />
		<tag k="place" v="locality" />
		<tag k="ssr:stedsnr" v="261734" />
	</node>
	<node id="-753477" lat="69.3936416697" lon="17.5081861145">
		<tag k="fixme" v="consider natural=peak for the most distinct mountains in the district" />
		<tag k="name" v="Krokelvtinden" />
		<tag k="natural" v="hill" />
		<tag k="place" v="locality" />
		<tag k="ssr:stedsnr" v="261527" />
	</node>
	<node id="-753472" lat="69.3361749996" lon="17.3683388972">
		<tag k="fixme" v="consider natural=peak for the most distinct mountains in the district" />
		<tag k="name" v="Leirdalsheia" />
		<tag k="natural" v="hill" />
		<tag k="place" v="locality" />
		<tag k="ssr:stedsnr" v="261355" />
	</node>
	<node id="-753471" lat="69.4426277746" lon="17.3254555416">
		<tag k="alt_name" v="Melkarhola" />
		<tag k="name" v="Melkarholla" />
		<tag k="natural" v="valley" />
		<tag k="place" v="locality" />
		<tag k="ssr:stedsnr" v="261314" />
	</node>
	<node id="-753464" lat="69.4855361106" lon="17.3405611054">
		<tag k="name" v="Tungebrøstet" />
		<tag k="natural" v="ridge" />
		<tag k="place" v="locality" />
		<tag k="ssr:stedsnr" v="261179" />
	</node>
	<node id="-753463" lat="69.4487666688" lon="17.3883694477">
		<tag k="alt_name" v="Luttind" />
		<tag k="fixme" v="consider natural=peak for the most distinct mountains in the district" />
		<tag k="name" v="Luttinden" />
		<tag k="natural" v="hill" />
		<tag k="place" v="locality" />
		<tag k="ssr:stedsnr" v="261052" />
	</node>
	<node id="-753462" lat="69.3944638894" lon="17.5398361039">
		<tag k="fixme" v="consider natural=peak for the most distinct mountains in the district" />
		<tag k="name" v="Tverrfjellet" />
		<tag k="natural" v="hill" />
		<tag k="place" v="locality" />
		<tag k="ssr:stedsnr" v="261049" />
	</node>
	<node id="-753458" lat="69.5156694442" lon="17.4291972145">
		<tag k="name" v="Langbakken" />
		<tag k="natural" v="slope" />
		<tag k="place" v="locality" />
		<tag k="ssr:stedsnr" v="237210" />
	</node>
	<node id="-753457" lat="69.4875250042" lon="17.6205583329">
		<tag k="name" v="Storlia" />
		<tag k="natural" v="slope" />
		<tag k="place" v="locality" />
		<tag k="ssr:stedsnr" v="237203" />
	</node>
	<node id="-753454" lat="69.4432472231" lon="17.4608416567">
		<tag k="name" v="Blombakken" />
		<tag k="natural" v="slope" />
		<tag k="place" v="locality" />
		<tag k="ssr:stedsnr" v="237023" />
	</node>
	<node id="-753451" lat="69.4664472192" lon="17.5413055418">
		<tag k="name" v="Kvalvikheian" />
		<tag k="natural" v="hill" />
		<tag k="place" v="locality" />
		<tag k="ssr:stedsnr" v="236286" />
	</node>
	<node id="-753445" lat="69.3887527756" lon="17.3995750066">
		<tag k="name" v="Vedfirarhaugen" />
		<tag k="natural" v="hill" />
		<tag k="place" v="locality" />
		<tag k="ssr:stedsnr" v="235917" />
	</node>
	<node id="-753443" lat="69.476022221" lon="17.2354611002">
		<tag k="name" v="Vedhammaren" />
		<tag k="natural" v="ridge" />
		<tag k="place" v="locality" />
		<tag k="ssr:stedsnr" v="235446" />
	</node>
	<node id="-753440" lat="69.4464361102" lon="17.1060944494">
		<tag k="name" v="Eggebakken" />
		<tag k="natural" v="slope" />
		<tag k="place" v="locality" />
		<tag k="ssr:stedsnr" v="235189" />
	</node>
	<node id="-753439" lat="69.3323250001" lon="17.4642000075">
		<tag k="name" v="Andershaugen" />
		<tag k="natural" v="hill" />
		<tag k="place" v="locality" />
		<tag k="ssr:stedsnr" v="234991" />
	</node>
	<node id="-753435" lat="69.3522527811" lon="17.3827333297">
		<tag k="name" v="Lappedalen" />
		<tag k="natural" v="valley" />
		<tag k="place" v="locality" />
		<tag k="ssr:stedsnr" v="234859" />
	</node>
	<node id="-753433" lat="69.4433222244" lon="17.340158343">
		<tag k="name" v="Grønnlia" />
		<tag k="natural" v="slope" />
		<tag k="place" v="locality" />
		<tag k="ssr:stedsnr" v="234780" />
	</node>
	<node id="-753432" lat="69.4875805563" lon="17.210749988">
		<tag k="name" v="Karsteinhammarlia" />
		<tag k="natural" v="slope" />
		<tag k="place" v="locality" />
		<tag k="ssr:stedsnr" v="234568" />
	</node>
	<node id="-753431" lat="69.4658833308" lon="17.2657110959">
		<tag k="name" v="Storrånna" />
		<tag k="natural" v="valley" />
		<tag k="place" v="locality" />
		<tag k="ssr:stedsnr" v="234482" />
	</node>
	<node id="-753430" lat="69.4726611074" lon="17.2780138955">
		<tag k="name" v="Stordalen" />
		<tag k="natural" v="valley" />
		<tag k="place" v="locality" />
		<tag k="ssr:stedsnr" v="234469" />
	</node>
	<node id="-753429" lat="69.4512888937" lon="17.4028972132">
		<tag k="name" v="Svarteberget" />
		<tag k="natural" v="hill" />
		<tag k="place" v="locality" />
		<tag k="ssr:stedsnr" v="234617" />
	</node>
	<node id="-753428" lat="69.3957333289" lon="17.2792472313">
		<tag k="fixme" v="consider natural=peak for the most distinct mountains in the district" />
		<tag k="name" v="Kvannto" />
		<tag k="natural" v="hill" />
		<tag k="place" v="locality" />
		<tag k="ssr:stedsnr" v="234393" />
	</node>
	<node id="-753418" lat="69.5277916691" lon="17.3306694363">
		<tag k="name" v="Stavskaret" />
		<tag k="natural" v="valley" />
		<tag k="place" v="locality" />
		<tag k="ssr:stedsnr" v="234108" />
	</node>
	<node id="-753416" lat="69.4624000016" lon="17.362900011">
		<tag k="name" v="Lutlia" />
		<tag k="natural" v="slope" />
		<tag k="place" v="locality" />
		<tag k="ssr:stedsnr" v="234094" />
	</node>
	<node id="-753415" lat="69.4567777802" lon="17.360274996">
		<tag k="name" v="Rundbakken" />
		<tag k="natural" v="slope" />
		<tag k="place" v="locality" />
		<tag k="ssr:stedsnr" v="234095" />
	</node>
	<node id="-753410" lat="69.4712777798" lon="17.2360999944">
		<tag k="name" v="Rabbeflågan" />
		<tag k="natural" v="cliff" />
		<tag k="ssr:stedsnr" v="234450" />
	</node>
	<node id="-753404" lat="69.4500138846" lon="17.3334638974">
		<tag k="alt_name" v="Nonstind" />
		<tag k="name" v="Nonshaugen" />
		<tag k="natural" v="hill" />
		<tag k="place" v="locality" />
		<tag k="ssr:stedsnr" v="201277" />
	</node>
	<node id="-753403" lat="69.4726027809" lon="17.4098333383">
		<tag k="fixme" v="consider natural=peak for the most distinct mountains in the district" />
		<tag k="name" v="Hatten" />
		<tag k="natural" v="hill" />
		<tag k="place" v="locality" />
		<tag k="ssr:stedsnr" v="201271" />
	</node>
	<node id="-753402" lat="69.4654583374" lon="17.3748583212">
		<tag k="alt_name" v="Luttind" />
		<tag k="fixme" v="consider natural=peak for the most distinct mountains in the district" />
		<tag k="name" v="Luttinden" />
		<tag k="natural" v="hill" />
		<tag k="place" v="locality" />
		<tag k="ssr:stedsnr" v="201268" />
	</node>
	<node id="-753401" lat="69.4580555577" lon="17.2983277808">
		<tag k="name" v="Sommardalen" />
		<tag k="natural" v="valley" />
		<tag k="place" v="locality" />
		<tag k="ssr:stedsnr" v="201266" />
	</node>
	<node id="-753400" lat="69.4716305543" lon="17.2817749943">
		<tag k="alt_name" v="Kleftret" />
		<tag k="name" v="Kletre" />
		<tag k="natural" v="valley" />
		<tag k="place" v="locality" />
		<tag k="ssr:stedsnr" v="201259" />
	</node>
	<node id="-753396" lat="69.5192638889" lon="17.3958083198">
		<tag k="name" v="Rydalen" />
		<tag k="natural" v="valley" />
		<tag k="place" v="locality" />
		<tag k="ssr:stedsnr" v="200929" />
	</node>
	<node id="-753395" lat="69.5200361131" lon="17.3416194412">
		<tag k="fixme" v="consider natural=peak for the most distinct mountains in the district" />
		<tag k="name" v="Ramnen" />
		<tag k="natural" v="hill" />
		<tag k="place" v="locality" />
		<tag k="ssr:stedsnr" v="200930" />
	</node>
	<node id="-753394" lat="69.5318583369" lon="17.5563583339">
		<tag k="alt_name" v="Kongan, midtre;Midtre Kongan" />
		<tag k="fixme" v="multiple name tags, choose one and add the other to alt_name; consider natural=peak for the most distinct mountains in the district" />
		<tag k="name" v="Nonsdagstinden;Midtre Kongen" />
		<tag k="natural" v="hill" />
		<tag k="place" v="locality" />
		<tag k="ssr:stedsnr" v="200843" />
	</node>
	<node id="-753393" lat="69.4847777753" lon="17.4284916615">
		<tag k="fixme" v="consider natural=peak for the most distinct mountains in the district" />
		<tag k="name" v="Tebbeltuva" />
		<tag k="natural" v="hill" />
		<tag k="place" v="locality" />
		<tag k="ssr:stedsnr" v="200480" />
	</node>
	<node id="-753392" lat="69.4526333373" lon="17.5654083344">
		<tag k="alt_name" v="Hesten, store" />
		<tag k="fixme" v="consider natural=peak for the most distinct mountains in the district" />
		<tag k="name" v="Store Hesten" />
		<tag k="natural" v="hill" />
		<tag k="place" v="locality" />
		<tag k="ssr:stedsnr" v="200455" />
	</node>
	<node id="-753390" lat="69.3952555557" lon="17.4328305509">
		<tag k="name" v="Krokelvdalen" />
		<tag k="natural" v="valley" />
		<tag k="place" v="locality" />
		<tag k="ssr:stedsnr" v="200529" />
	</node>
	<node id="-753389" lat="69.4969916676" lon="17.4557916719">
		<tag k="fixme" v="consider natural=peak for the most distinct mountains in the district" />
		<tag k="name" v="Tennifjellet" />
		<tag k="natural" v="hill" />
		<tag k="place" v="locality" />
		<tag k="ssr:stedsnr" v="200394" />
	</node>
	<node id="-753387" lat="69.480983331" lon="17.3593611183">
		<tag k="alt_name" v="Klepptind" />
		<tag k="fixme" v="consider natural=peak for the most distinct mountains in the district" />
		<tag k="name" v="Kliptinden" />
		<tag k="natural" v="hill" />
		<tag k="place" v="locality" />
		<tag k="ssr:stedsnr" v="200289" />
	</node>
	<node id="-753380" lat="69.4694250038" lon="17.292530544">
		<tag k="name" v="Stordalen" />
		<tag k="natural" v="valley" />
		<tag k="place" v="locality" />
		<tag k="ssr:stedsnr" v="176963" />
	</node>
	<node id="-753376" lat="69.5155750024" lon="17.4236499956">
		<tag k="name" v="Gluggen" />
		<tag k="natural" v="slope" />
		<tag k="place" v="locality" />
		<tag k="ssr:stedsnr" v="176223" />
	</node>
	<node id="-753375" lat="69.4863055542" lon="17.6243861085">
		<tag k="name" v="Gregushamran" />
		<tag k="natural" v="hill" />
		<tag k="place" v="locality" />
		<tag k="ssr:stedsnr" v="176217" />
	</node>
	<node id="-753370" lat="69.4835499969" lon="17.4124277744">
		<tag k="name" v="Melkarbakken" />
		<tag k="natural" v="slope" />
		<tag k="place" v="locality" />
		<tag k="ssr:stedsnr" v="176145" />
	</node>
	<node id="-753367" lat="69.4409027751" lon="17.4648055502">
		<tag k="name" v="Steinbakken" />
		<tag k="natural" v="slope" />
		<tag k="place" v="locality" />
		<tag k="ssr:stedsnr" v="176125" />
	</node>
	<node id="-753366" lat="69.4946833365" lon="17.3939638931">
		<tag k="name" v="Smålian" />
		<tag k="natural" v="slope" />
		<tag k="place" v="locality" />
		<tag k="ssr:stedsnr" v="176118" />
	</node>
	<node id="-753361" lat="69.4839972188" lon="17.5059583373">
		<tag k="name" v="Kvalvikbakken" />
		<tag k="natural" v="slope" />
		<tag k="place" v="locality" />
		<tag k="ssr:stedsnr" v="175079" />
	</node>
	<node id="-753357" lat="69.3583472249" lon="17.4051055449">
		<tag k="name" v="Geitskaret" />
		<tag k="natural" v="valley" />
		<tag k="place" v="locality" />
		<tag k="ssr:stedsnr" v="174864" />
	</node>
	<node id="-753355" lat="69.3472194473" lon="17.4432888814">
		<tag k="name" v="Gangskarberget" />
		<tag k="natural" v="hill" />
		<tag k="place" v="locality" />
		<tag k="ssr:stedsnr" v="174848" />
	</node>
	<node id="-753354" lat="69.4492861112" lon="17.2923138928">
		<tag k="name" v="Ramnfløy" />
		<tag k="natural" v="valley" />
		<tag k="place" v="locality" />
		<tag k="ssr:stedsnr" v="174845" />
	</node>
	<node id="-753352" lat="69.4478194469" lon="17.3198166659">
		<tag k="name" v="Blåurholla" />
		<tag k="natural" v="valley" />
		<tag k="place" v="locality" />
		<tag k="ssr:stedsnr" v="174821" />
	</node>
	<node id="-753349" lat="69.4369222181" lon="17.3889611111">
		<tag k="name" v="Storlia" />
		<tag k="natural" v="slope" />
		<tag k="place" v="locality" />
		<tag k="ssr:stedsnr" v="174622" />
	</node>
	<node id="-753343" lat="69.3969472188" lon="17.3647444382">
		<tag k="name" v="Øvre Lesbervatnhaugen" />
		<tag k="natural" v="hill" />
		<tag k="place" v="locality" />
		<tag k="ssr:stedsnr" v="174397" />
	</node>
	<node id="-753342" lat="69.4527944406" lon="17.27048334">
		<tag k="name" v="Mellahaugen" />
		<tag k="natural" v="hill" />
		<tag k="place" v="locality" />
		<tag k="ssr:stedsnr" v="174334" />
	</node>
	<node id="-753336" lat="69.5326444404" lon="17.3433222161">
		<tag k="name" v="Bremnesdalen" />
		<tag k="natural" v="valley" />
		<tag k="place" v="locality" />
		<tag k="ssr:stedsnr" v="174096" />
	</node>
	<node id="-753333" lat="69.3561527744" lon="17.3829000091">
		<tag k="name" v="Spekkelvaksla" />
		<tag k="place" v="locality" />
		<tag k="ssr:stedsnr" v="173818" />
	</node>
	<node id="-753318" lat="69.513894448" lon="17.5845277828">
		<tag k="fixme" v="consider natural=peak for the most distinct mountains in the district" />
		<tag k="name" v="Hesten" />
		<tag k="natural" v="hill" />
		<tag k="place" v="locality" />
		<tag k="ssr:stedsnr" v="140881" />
	</node>
	<node id="-753317" lat="69.4571527748" lon="17.40511388">
		<tag k="name" v="Lutdalen" />
		<tag k="natural" v="valley" />
		<tag k="place" v="locality" />
		<tag k="ssr:stedsnr" v="140310" />
	</node>
	<node id="-753315" lat="69.4183111138" lon="17.4618055479">
		<tag k="name" v="Modalen" />
		<tag k="natural" v="valley" />
		<tag k="place" v="locality" />
		<tag k="ssr:stedsnr" v="140490" />
	</node>
	<node id="-753308" lat="69.5235222227" lon="17.3961555449">
		<tag k="alt_name" v="Galea" />
		<tag k="fixme" v="consider natural=peak for the most distinct mountains in the district" />
		<tag k="name" v="Galitippen" />
		<tag k="natural" v="hill" />
		<tag k="place" v="locality" />
		<tag k="ssr:stedsnr" v="139930" />
	</node>
	<node id="-753306" lat="69.5535388869" lon="17.5279277688">
		<tag k="fixme" v="consider natural=peak for the most distinct mountains in the district" />
		<tag k="name" v="Skultran" />
		<tag k="natural" v="hill" />
		<tag k="place" v="locality" />
		<tag k="ssr:stedsnr" v="139826" />
	</node>
	<node id="-753304" lat="69.5894888851" lon="17.4938666564">
		<tag k="fixme" v="consider natural=peak for the most distinct mountains in the district" />
		<tag k="name" v="Tindtavla" />
		<tag k="natural" v="hill" />
		<tag k="old_name" v="Finntavla" />
		<tag k="place" v="locality" />
		<tag k="ssr:stedsnr" v="139714" />
	</node>
	<node id="-753294" lat="69.4986277803" lon="17.4086166766">
		<tag k="alt_name" v="Gruvla, store" />
		<tag k="fixme" v="multiple name tags, choose one and add the other to alt_name; consider natural=peak for the most distinct mountains in the district" />
		<tag k="name" v="Grovla;Store Gruvla" />
		<tag k="natural" v="hill" />
		<tag k="place" v="locality" />
		<tag k="ssr:stedsnr" v="139197" />
	</node>
	<node id="-753291" lat="69.5373833349" lon="17.5400944349">
		<tag k="name" v="Sevdalsryggen" />
		<tag k="natural" v="ridge" />
		<tag k="place" v="locality" />
		<tag k="ssr:stedsnr" v="115369" />
	</node>
	<node id="-753289" lat="69.4723111152" lon="17.6773777748">
		<tag k="name" v="Heia" />
		<tag k="natural" v="hill" />
		<tag k="place" v="locality" />
		<tag k="ssr:stedsnr" v="115263" />
	</node>
	<node id="-753288" lat="69.4718972269" lon="17.6966555436">
		<tag k="name" v="Skaret" />
		<tag k="natural" v="valley" />
		<tag k="place" v="locality" />
		<tag k="ssr:stedsnr" v="115261" />
	</node>
	<node id="-753287" lat="69.4998055512" lon="17.4704305529">
		<tag k="name" v="Innerdalen" />
		<tag k="natural" v="valley" />
		<tag k="place" v="locality" />
		<tag k="ssr:stedsnr" v="115255" />
	</node>
	<node id="-753284" lat="69.5092722264" lon="17.4704333319">
		<tag k="fixme" v="consider natural=peak for the most distinct mountains in the district" />
		<tag k="name" v="Ramfløy" />
		<tag k="natural" v="hill" />
		<tag k="place" v="locality" />
		<tag k="ssr:stedsnr" v="115247" />
	</node>
	<node id="-753283" lat="69.500800002" lon="17.4350083304">
		<tag k="name" v="Humpen" />
		<tag k="natural" v="hill" />
		<tag k="place" v="locality" />
		<tag k="ssr:stedsnr" v="115242" />
	</node>
	<node id="-753282" lat="69.5174472183" lon="17.4177444492">
		<tag k="name" v="Litje Skålbrekka" />
		<tag k="natural" v="valley" />
		<tag k="place" v="locality" />
		<tag k="ssr:stedsnr" v="115237" />
	</node>
	<node id="-753279" lat="69.5829833345" lon="17.4891749991">
		<tag k="name" v="Molla" />
		<tag k="natural" v="slope" />
		<tag k="place" v="locality" />
		<tag k="ssr:stedsnr" v="115217" />
	</node>
	<node id="-753277" lat="69.5220416681" lon="17.4070999969">
		<tag k="name" v="Hamran" />
		<tag k="natural" v="hill" />
		<tag k="place" v="locality" />
		<tag k="ssr:stedsnr" v="115178" />
	</node>
	<node id="-753273" lat="69.4776249967" lon="17.4041805429">
		<tag k="name" v="Hattebergan" />
		<tag k="natural" v="hill" />
		<tag k="place" v="locality" />
		<tag k="ssr:stedsnr" v="115150" />
	</node>
	<node id="-753272" lat="69.4904888922" lon="17.4000222162">
		<tag k="name" v="Melkarsletta" />
		<tag k="place" v="locality" />
		<tag k="ssr:stedsnr" v="115142" />
	</node>
	<node id="-753271" lat="69.4782055528" lon="17.4224083286">
		<tag k="name" v="Moan" />
		<tag k="place" v="locality" />
		<tag k="ssr:stedsnr" v="115135" />
	</node>
	<node id="-753269" lat="69.4186638857" lon="17.5037111205">
		<tag k="name" v="Storhaugen" />
		<tag k="natural" v="hill" />
		<tag k="place" v="locality" />
		<tag k="ssr:stedsnr" v="115116" />
	</node>
	<node id="-753268" lat="69.4258722213" lon="17.503894441">
		<tag k="name" v="Loftan" />
		<tag k="place" v="locality" />
		<tag k="ssr:stedsnr" v="115113" />
	</node>
	<node id="-753267" lat="69.4797138885" lon="17.4809833215">
		<tag k="name" v="Roaldsryggen" />
		<tag k="natural" v="ridge" />
		<tag k="place" v="locality" />
		<tag k="ssr:stedsnr" v="115105" />
	</node>
	<node id="-753266" lat="69.4523583316" lon="17.4561944535">
		<tag k="name" v="Brattbakkan" />
		<tag k="natural" v="slope" />
		<tag k="place" v="locality" />
		<tag k="ssr:stedsnr" v="115026" />
	</node>
	<node id="-753265" lat="69.4730138883" lon="17.3828416655">
		<tag k="name" v="Forklelia" />
		<tag k="natural" v="slope" />
		<tag k="place" v="locality" />
		<tag k="ssr:stedsnr" v="114873" />
	</node>
	<node id="-753262" lat="69.4544333328" lon="17.2544055614">
		<tag k="name" v="Revhaugan" />
		<tag k="natural" v="hill" />
		<tag k="place" v="locality" />
		<tag k="ssr:stedsnr" v="114297" />
	</node>
	<node id="-753260" lat="69.4381527773" lon="17.3659861042">
		<tag k="name" v="Monslihammaren" />
		<tag k="natural" v="hill" />
		<tag k="place" v="locality" />
		<tag k="ssr:stedsnr" v="113859" />
	</node>
	<node id="-753259" lat="69.3671083325" lon="17.4328194365">
		<tag k="name" v="Andreasdalen" />
		<tag k="natural" v="valley" />
		<tag k="place" v="locality" />
		<tag k="ssr:stedsnr" v="113853" />
	</node>
	<node id="-753258" lat="69.3549277758" lon="17.4233666569">
		<tag k="fixme" v="consider natural=peak for the most distinct mountains in the district" />
		<tag k="name" v="Litjefjellet" />
		<tag k="natural" v="hill" />
		<tag k="place" v="locality" />
		<tag k="ssr:stedsnr" v="113838" />
	</node>
	<node id="-753257" lat="69.3551750001" lon="17.3921749957">
		<tag k="name" v="Middagsskaret" />
		<tag k="natural" v="valley" />
		<tag k="place" v="locality" />
		<tag k="ssr:stedsnr" v="113832" />
	</node>
	<node id="-753256" lat="69.3655944417" lon="17.4997305437">
		<tag k="name" v="Svarthammaren" />
		<tag k="place" v="locality" />
		<tag k="ssr:stedsnr" v="113804" />
	</node>
	<node id="-753255" lat="69.3655861149" lon="17.4635610983">
		<tag k="name" v="Blomlia" />
		<tag k="natural" v="slope" />
		<tag k="place" v="locality" />
		<tag k="ssr:stedsnr" v="113802" />
	</node>
	<node id="-753254" lat="69.4158194441" lon="17.2112055486">
		<tag k="name" v="Fjøshaugen" />
		<tag k="natural" v="hill" />
		<tag k="place" v="locality" />
		<tag k="ssr:stedsnr" v="113907" />
	</node>
	<node id="-753251" lat="69.3995166669" lon="17.2871055617">
		<tag k="name" v="Grashopdalen" />
		<tag k="natural" v="valley" />
		<tag k="place" v="locality" />
		<tag k="ssr:stedsnr" v="113464" />
	</node>
	<node id="-753248" lat="69.4010250004" lon="17.3161555414">
		<tag k="name" v="Krokhaugen" />
		<tag k="natural" v="hill" />
		<tag k="place" v="locality" />
		<tag k="ssr:stedsnr" v="113358" />
	</node>
	<node id="-753243" lat="69.4752583355" lon="17.3483916586">
		<tag k="fixme" v="consider natural=peak for the most distinct mountains in the district" />
		<tag k="name" v="Innerskåla" />
		<tag k="natural" v="hill" />
		<tag k="place" v="locality" />
		<tag k="ssr:stedsnr" v="113057" />
	</node>
	<node id="-753242" lat="69.4582305563" lon="17.256744447">
		<tag k="name" v="Falkeberget" />
		<tag k="natural" v="hill" />
		<tag k="place" v="locality" />
		<tag k="ssr:stedsnr" v="113034" />
	</node>
	<node id="-753240" lat="69.4045555579" lon="17.3313499932">
		<tag k="name" v="Vedberget" />
		<tag k="natural" v="hill" />
		<tag k="place" v="locality" />
		<tag k="ssr:stedsnr" v="113023" />
	</node>
	<node id="-753225" lat="69.3596444468" lon="17.486986117">
		<tag k="name" v="Sør-Heggedalen" />
		<tag k="natural" v="valley" />
		<tag k="place" v="locality" />
		<tag k="ssr:stedsnr" v="79538" />
	</node>
	<node id="-753220" lat="69.448711115" lon="17.3476444523">
		<tag k="alt_name" v="Steinfjordskardet" />
		<tag k="name" v="Steinfjordskaret" />
		<tag k="natural" v="valley" />
		<tag k="place" v="locality" />
		<tag k="ssr:stedsnr" v="79285" />
	</node>
	<node id="-753219" lat="69.4702361114" lon="17.273041676">
		<tag k="fixme" v="consider natural=peak for the most distinct mountains in the district" />
		<tag k="name" v="Husfjellet" />
		<tag k="natural" v="hill" />
		<tag k="place" v="locality" />
		<tag k="ssr:stedsnr" v="79260" />
	</node>
	<node id="-753218" lat="69.4724416639" lon="17.3596472082">
		<tag k="alt_name" v="Manan" />
		<tag k="name" v="Mannan" />
		<tag k="natural" v="valley" />
		<tag k="place" v="locality" />
		<tag k="ssr:stedsnr" v="79194" />
	</node>
	<node id="-753217" lat="69.4770777777" lon="17.2641555464">
		<tag k="fixme" v="consider natural=peak for the most distinct mountains in the district" />
		<tag k="name" v="Vetran" />
		<tag k="natural" v="hill" />
		<tag k="place" v="locality" />
		<tag k="ssr:stedsnr" v="79191" />
	</node>
	<node id="-753215" lat="69.5298666638" lon="17.5528305512">
		<tag k="name" v="Svarthammaren" />
		<tag k="natural" v="hill" />
		<tag k="place" v="locality" />
		<tag k="ssr:stedsnr" v="55344" />
	</node>
	<node id="-753214" lat="69.512930554" lon="17.4392444406">
		<tag k="name" v="Malenahaugen" />
		<tag k="natural" v="hill" />
		<tag k="place" v="locality" />
		<tag k="ssr:stedsnr" v="55221" />
	</node>
	<node id="-753213" lat="69.5120805542" lon="17.4438194405">
		<tag k="name" v="Tindfoten" />
		<tag k="natural" v="slope" />
		<tag k="place" v="locality" />
		<tag k="ssr:stedsnr" v="55219" />
	</node>
	<node id="-753212" lat="69.5126611116" lon="17.4186749882">
		<tag k="name" v="Gravdalen" />
		<tag k="natural" v="valley" />
		<tag k="place" v="locality" />
		<tag k="ssr:stedsnr" v="55217" />
	</node>
	<node id="-753208" lat="69.5660361128" lon="17.4783416778">
		<tag k="name" v="Draklia" />
		<tag k="natural" v="slope" />
		<tag k="place" v="locality" />
		<tag k="ssr:stedsnr" v="55184" />
	</node>
	<node id="-753207" lat="69.5230333314" lon="17.4344055491">
		<tag k="name" v="Knutskjæringa" />
		<tag k="natural" v="valley" />
		<tag k="place" v="locality" />
		<tag k="ssr:stedsnr" v="55150" />
	</node>
	<node id="-753205" lat="69.4864444413" lon="17.413813884">
		<tag k="name" v="Bjørnebakken" />
		<tag k="natural" v="slope" />
		<tag k="place" v="locality" />
		<tag k="ssr:stedsnr" v="55129" />
	</node>
	<node id="-753204" lat="69.4973888936" lon="17.3948916545">
		<tag k="name" v="Grylskaret" />
		<tag k="natural" v="valley" />
		<tag k="place" v="locality" />
		<tag k="ssr:stedsnr" v="55122" />
	</node>
	<node id="-753203" lat="69.4929916654" lon="17.4012138968">
		<tag k="name" v="Kjellslia" />
		<tag k="natural" v="slope" />
		<tag k="place" v="locality" />
		<tag k="ssr:stedsnr" v="55106" />
	</node>
	<node id="-753201" lat="69.4591000026" lon="17.5950666532">
		<tag k="name" v="Skarvhammaren" />
		<tag k="natural" v="hill" />
		<tag k="place" v="locality" />
		<tag k="ssr:stedsnr" v="54289" />
	</node>
	<node id="-753199" lat="69.3885000039" lon="17.4146833216">
		<tag k="name" v="Storhaugen" />
		<tag k="natural" v="hill" />
		<tag k="place" v="locality" />
		<tag k="ssr:stedsnr" v="53937" />
	</node>
	<node id="-753198" lat="69.4433972238" lon="17.3208499981">
		<tag k="name" v="Bjørnlihaugen" />
		<tag k="natural" v="hill" />
		<tag k="place" v="locality" />
		<tag k="ssr:stedsnr" v="53796" />
	</node>
	<node id="-753197" lat="69.4383944469" lon="17.3693333207">
		<tag k="name" v="Monslia" />
		<tag k="natural" v="slope" />
		<tag k="place" v="locality" />
		<tag k="ssr:stedsnr" v="53774" />
	</node>
	<node id="-753195" lat="69.4823499971" lon="17.4612972162">
		<tag k="fixme" v="consider natural=peak for the most distinct mountains in the district" />
		<tag k="name" v="Skia" />
		<tag k="natural" v="hill" />
		<tag k="place" v="locality" />
		<tag k="ssr:stedsnr" v="54086" />
	</node>
	<node id="-753194" lat="69.4900277787" lon="17.4638972115">
		<tag k="name" v="Skoglia" />
		<tag k="natural" v="slope" />
		<tag k="place" v="locality" />
		<tag k="ssr:stedsnr" v="54072" />
	</node>
	<node id="-753191" lat="69.4855888911" lon="17.2157805529">
		<tag k="name" v="Slettebergan" />
		<tag k="natural" v="hill" />
		<tag k="place" v="locality" />
		<tag k="ssr:stedsnr" v="53685" />
	</node>
	<node id="-753190" lat="69.4668555549" lon="17.238555543">
		<tag k="name" v="Jordhaugen" />
		<tag k="natural" v="hill" />
		<tag k="place" v="locality" />
		<tag k="ssr:stedsnr" v="53448" />
	</node>
	<node id="-753189" lat="69.4763138908" lon="17.2240444492">
		<tag k="name" v="Kvalvikhompan" />
		<tag k="natural" v="hill" />
		<tag k="place" v="locality" />
		<tag k="ssr:stedsnr" v="53409" />
	</node>
	<node id="-753188" lat="69.4821666629" lon="17.3497138759">
		<tag k="name" v="Stordalen" />
		<tag k="natural" v="valley" />
		<tag k="place" v="locality" />
		<tag k="ssr:stedsnr" v="53377" />
	</node>
	<node id="-753186" lat="69.4718388891" lon="17.443430549">
		<tag k="fixme" v="consider natural=peak for the most distinct mountains in the district" />
		<tag k="name" v="Ramnfløy" />
		<tag k="natural" v="hill" />
		<tag k="place" v="locality" />
		<tag k="ssr:stedsnr" v="52986" />
	</node>
	<node id="-753184" lat="69.395411113" lon="17.4028638851">
		<tag k="name" v="Storlia" />
		<tag k="natural" v="slope" />
		<tag k="place" v="locality" />
		<tag k="ssr:stedsnr" v="52960" />
	</node>
	<node id="-753180" lat="69.4525111112" lon="17.2967111218">
		<tag k="name" v="Heia" />
		<tag k="natural" v="hill" />
		<tag k="place" v="locality" />
		<tag k="ssr:stedsnr" v="52770" />
	</node>
	<node id="-753179" lat="69.4517805545" lon="17.3101472102">
		<tag k="name" v="Sommardalen" />
		<tag k="natural" v="valley" />
		<tag k="place" v="locality" />
		<tag k="ssr:stedsnr" v="52768" />
	</node>
	<node id="-753178" lat="69.4442361102" lon="17.3114777639">
		<tag k="fixme" v="consider natural=peak for the most distinct mountains in the district" />
		<tag k="name" v="Åsan" />
		<tag k="natural" v="hill" />
		<tag k="place" v="locality" />
		<tag k="ssr:stedsnr" v="52763" />
	</node>
	<node id="-753176" lat="69.4358333309" lon="17.3934249915">
		<tag k="name" v="Dungan" />
		<tag k="natural" v="hill" />
		<tag k="place" v="locality" />
		<tag k="ssr:stedsnr" v="52461" />
	</node>
	<node id="-753174" lat="69.4729694427" lon="17.2593194488">
		<tag k="name" v="Kobbevassdalen" />
		<tag k="natural" v="valley" />
		<tag k="place" v="locality" />
		<tag k="ssr:stedsnr" v="52436" />
	</node>
	<node id="-753167" lat="69.4733388851" lon="17.3351444325">
		<tag k="name" v="Kroken" />
		<tag k="place" v="locality" />
		<tag k="ssr:stedsnr" v="52064" />
	</node>
	<node id="-753166" lat="69.4581166678" lon="17.3246416605">
		<tag k="name" v="Brusslåtta" />
		<tag k="natural" v="slope" />
		<tag k="place" v="locality" />
		<tag k="ssr:stedsnr" v="52062" />
	</node>
	<node id="-753163" lat="69.4630027824" lon="17.2510555486">
		<tag k="name" v="Skallgropa" />
		<tag k="natural" v="valley" />
		<tag k="place" v="locality" />
		<tag k="ssr:stedsnr" v="52035" />
	</node>
	<node id="-753161" lat="69.4765527767" lon="17.7249833335">
		<tag k="name" v="Lanesaksla" />
		<tag k="place" v="locality" />
		<tag k="ssr:stedsnr" v="48358" />
	</node>
	<node id="-753152" lat="69.531336108" lon="17.6220222253">
		<tag k="name" v="Vindhammaren" />
		<tag k="natural" v="hill" />
		<tag k="place" v="locality" />
		<tag k="ssr:stedsnr" v="44976" />
	</node>
	<node id="-753150" lat="69.3121499989" lon="17.5009694455">
		<tag k="alt_name:no" v="Svandalen" />
		<tag k="name" v="Svanelvdalen - Njukčavuopmi" />
		<tag k="name:no" v="Svanelvdalen" />
		<tag k="name:se" v="Njukčavuopmi" />
		<tag k="natural" v="valley" />
		<tag k="old_name:se" v="Njukčavuobmi" />
		<tag k="place" v="locality" />
		<tag k="ssr:stedsnr" v="20622" />
	</node>
	<node id="-753149" lat="69.4063027771" lon="17.5484166585">
		<tag k="fixme" v="consider natural=peak for the most distinct mountains in the district" />
		<tag k="name" v="Botntinden" />
		<tag k="natural" v="hill" />
		<tag k="place" v="locality" />
		<tag k="ssr:stedsnr" v="19507" />
	</node>
	<node id="-753146" lat="69.3628361099" lon="17.2456972196">
		<tag k="name" v="Bardstinddalen" />
		<tag k="natural" v="valley" />
		<tag k="place" v="locality" />
		<tag k="ssr:stedsnr" v="19305" />
	</node>
	<node id="-753143" lat="69.3720666706" lon="17.3102027903">
		<tag k="alt_name" v="Bardstindkne, nordre" />
		<tag k="fixme" v="consider natural=peak for the most distinct mountains in the district" />
		<tag k="name" v="Nordre Bardstindkne" />
		<tag k="natural" v="hill" />
		<tag k="place" v="locality" />
		<tag k="ssr:stedsnr" v="19296" />
	</node>
	<node id="-753140" lat="69.4550999989" lon="17.3747361083">
		<tag k="fixme" v="consider natural=peak for the most distinct mountains in the district" />
		<tag k="name" v="Fuglan" />
		<tag k="natural" v="hill" />
		<tag k="place" v="locality" />
		<tag k="ssr:stedsnr" v="19268" />
	</node>
	<node id="-753129" lat="69.3313472188" lon="17.5210777663">
		<tag k="fixme" v="consider natural=peak for the most distinct mountains in the district" />
		<tag k="name" v="Langnesen - Guhkesnjunni" />
		<tag k="name:no" v="Langnesen" />
		<tag k="name:se" v="Guhkesnjunni" />
		<tag k="natural" v="hill" />
		<tag k="old_name:se" v="Gukkesnjunni" />
		<tag k="place" v="locality" />
		<tag k="ssr:stedsnr" v="18505" />
	</node>
	<node id="-753123" lat="69.4964416664" lon="17.2181166632">
		<tag k="fixme" v="consider natural=peak for the most distinct mountains in the district" />
		<tag k="name" v="Trælen" />
		<tag k="natural" v="hill" />
		<tag k="place" v="locality" />
		<tag k="ssr:stedsnr" v="18190" />
	</node>
	<node id="-753121" lat="69.4610583377" lon="17.5477749994">
		<tag k="fixme" v="consider natural=peak for the most distinct mountains in the district" />
		<tag k="name" v="Litlehesten" />
		<tag k="natural" v="hill" />
		<tag k="place" v="locality" />
		<tag k="ssr:stedsnr" v="18444" />
	</node>
	<node id="-753119" lat="69.4847555558" lon="17.5299277846">
		<tag k="alt_name" v="Bringa" />
		<tag k="fixme" v="consider natural=peak for the most distinct mountains in the district" />
		<tag k="name" v="Bringtinden" />
		<tag k="natural" v="hill" />
		<tag k="old_name" v="Bringstindan" />
		<tag k="place" v="locality" />
		<tag k="ssr:stedsnr" v="18434" />
	</node>
	<node id="-753078" lat="69.5715000001" lon="17.4807555656">
		<tag k="name" v="Gilbergsheia" />
		<tag k="natural" v="hill" />
		<tag k="place" v="locality" />
		<tag k="ssr:stedsnr" v="479201" />
	</node>
	<node id="-753077" lat="69.52553889" lon="17.3990472224">
		<tag k="fixme" v="consider natural=peak for the most distinct mountains in the district" />
		<tag k="name" v="Galimannen" />
		<tag k="natural" v="hill" />
		<tag k="place" v="locality" />
		<tag k="ssr:stedsnr" v="479155" />
	</node>
	<node id="-753076" lat="69.5383500043" lon="17.5115749984">
		<tag k="name" v="Smålian" />
		<tag k="natural" v="slope" />
		<tag k="place" v="locality" />
		<tag k="ssr:stedsnr" v="479150" />
	</node>
	<node id="-753075" lat="69.5243500009" lon="17.4015055571">
		<tag k="name" v="Galian" />
		<tag k="natural" v="slope" />
		<tag k="place" v="locality" />
		<tag k="ssr:stedsnr" v="479141" />
	</node>
	<node id="-753071" lat="69.476236111" lon="17.6535833305">
		<tag k="name" v="Ytste Klevknausen" />
		<tag k="natural" v="hill" />
		<tag k="place" v="locality" />
		<tag k="ssr:stedsnr" v="478298" />
	</node>
	<node id="-753070" lat="69.4794388889" lon="17.6933694465">
		<tag k="name" v="Gunnardalen" />
		<tag k="natural" v="valley" />
		<tag k="place" v="locality" />
		<tag k="ssr:stedsnr" v="478296" />
	</node>
	<node id="-753069" lat="69.4525555572" lon="17.2684361193">
		<tag k="name" v="Lyngbakken" />
		<tag k="natural" v="slope" />
		<tag k="place" v="locality" />
		<tag k="ssr:stedsnr" v="478263" />
	</node>
	<node id="-753063" lat="69.4439361095" lon="17.3285138897">
		<tag k="name" v="Tortenbakken" />
		<tag k="natural" v="slope" />
		<tag k="place" v="locality" />
		<tag k="ssr:stedsnr" v="477840" />
	</node>
	<node id="-753061" lat="69.4441805563" lon="17.3372666631">
		<tag k="name" v="Lefsneskollen" />
		<tag k="natural" v="hill" />
		<tag k="place" v="locality" />
		<tag k="ssr:stedsnr" v="477830" />
	</node>
	<node id="-753058" lat="69.3399499969" lon="17.3994361158">
		<tag k="fixme" v="consider natural=peak for the most distinct mountains in the district" />
		<tag k="name" v="Leirfjellet" />
		<tag k="natural" v="hill" />
		<tag k="place" v="locality" />
		<tag k="ssr:stedsnr" v="477792" />
	</node>
	<node id="-753055" lat="69.4537500037" lon="17.4035416728">
		<tag k="name" v="Lutdalen" />
		<tag k="natural" v="valley" />
		<tag k="place" v="locality" />
		<tag k="ssr:stedsnr" v="477655" />
	</node>
	<node id="-753054" lat="69.449705553" lon="17.4071472248">
		<tag k="name" v="Storhammaren" />
		<tag k="place" v="locality" />
		<tag k="ssr:stedsnr" v="477649" />
	</node>
	<node id="-753053" lat="69.4485083325" lon="17.3943333276">
		<tag k="name" v="Nakken" />
		<tag k="place" v="locality" />
		<tag k="ssr:stedsnr" v="477628" />
	</node>
	<node id="-753052" lat="69.445405558" lon="17.4497249897">
		<tag k="name" v="Smålikollen" />
		<tag k="natural" v="hill" />
		<tag k="place" v="locality" />
		<tag k="ssr:stedsnr" v="477602" />
	</node>
	<node id="-753050" lat="69.4053027804" lon="17.3269111005">
		<tag k="name" v="Skjåneshaugen" />
		<tag k="natural" v="hill" />
		<tag k="place" v="locality" />
		<tag k="ssr:stedsnr" v="477387" />
	</node>
	<node id="-753048" lat="69.5046833315" lon="17.3702305429">
		<tag k="name" v="Brannlian" />
		<tag k="natural" v="slope" />
		<tag k="place" v="locality" />
		<tag k="ssr:stedsnr" v="477247" />
	</node>
	<node id="-753046" lat="69.501180555" lon="17.2197527711">
		<tag k="name" v="Bakdalen" />
		<tag k="natural" v="valley" />
		<tag k="place" v="locality" />
		<tag k="ssr:stedsnr" v="477132" />
	</node>
	<node id="-753040" lat="69.3526138921" lon="17.4324555633">
		<tag k="name" v="Solli" />
		<tag k="natural" v="slope" />
		<tag k="place" v="locality" />
		<tag k="ssr:stedsnr" v="476831" />
	</node>
	<node id="-753039" lat="69.465044448" lon="17.2296916762">
		<tag k="name" v="Trollhaugen" />
		<tag k="natural" v="hill" />
		<tag k="place" v="locality" />
		<tag k="ssr:stedsnr" v="476477" />
	</node>
	<node id="-753038" lat="69.4585694407" lon="17.2730111148">
		<tag k="name" v="Grønnlia" />
		<tag k="natural" v="slope" />
		<tag k="place" v="locality" />
		<tag k="ssr:stedsnr" v="476045" />
	</node>
	<node id="-753033" lat="69.3471805567" lon="17.452330562">
		<tag k="name" v="Heggelia" />
		<tag k="natural" v="slope" />
		<tag k="place" v="locality" />
		<tag k="ssr:stedsnr" v="411590" />
	</node>
	<node id="-753027" lat="69.5275194418" lon="17.3320222186">
		<tag k="fixme" v="consider natural=peak for the most distinct mountains in the district" />
		<tag k="name" v="Staven" />
		<tag k="natural" v="hill" />
		<tag k="place" v="locality" />
		<tag k="ssr:stedsnr" v="382947" />
	</node>
	<node id="-753026" lat="69.5425722255" lon="17.5124527833">
		<tag k="fixme" v="consider natural=peak for the most distinct mountains in the district" />
		<tag k="name" v="Frua" />
		<tag k="natural" v="hill" />
		<tag k="place" v="locality" />
		<tag k="ssr:stedsnr" v="382856" />
	</node>
	<node id="-753024" lat="69.521991663" lon="17.5701555563">
		<tag k="fixme" v="multiple name tags, choose one and add the other to alt_name; consider natural=peak for the most distinct mountains in the district" />
		<tag k="name" v="Flåget;Litjeflåget" />
		<tag k="natural" v="hill" />
		<tag k="place" v="locality" />
		<tag k="ssr:stedsnr" v="382828" />
	</node>
	<node id="-753021" lat="69.3431777791" lon="17.4972694515">
		<tag k="name" v="Beatnatborri" />
		<tag k="name:se" v="Beatnatborri" />
		<tag k="natural" v="ridge" />
		<tag k="old_name:se" v="Bædnatbårri" />
		<tag k="place" v="locality" />
		<tag k="ssr:stedsnr" v="382533" />
	</node>
	<node id="-753018" lat="69.4437027803" lon="17.5607722112">
		<tag k="fixme" v="consider natural=peak for the most distinct mountains in the district" />
		<tag k="name" v="Storfjellet" />
		<tag k="natural" v="hill" />
		<tag k="place" v="locality" />
		<tag k="ssr:stedsnr" v="382435" />
	</node>
	<node id="-753016" lat="69.3519111104" lon="17.3353861054">
		<tag k="fixme" v="consider natural=peak for the most distinct mountains in the district" />
		<tag k="name" v="Snøfjellet - Muohtavárri" />
		<tag k="name:no" v="Snøfjellet" />
		<tag k="name:se" v="Muohtavárri" />
		<tag k="natural" v="hill" />
		<tag k="old_name:se" v="Muottavarri" />
		<tag k="place" v="locality" />
		<tag k="ssr:stedsnr" v="382325" />
	</node>
	<node id="-753012" lat="69.4759805514" lon="17.3979555563">
		<tag k="alt_name" v="Torvsåbakkan" />
		<tag k="name" v="Torvskjåbakken" />
		<tag k="natural" v="slope" />
		<tag k="place" v="locality" />
		<tag k="ssr:stedsnr" v="382276" />
	</node>
	<node id="-753011" lat="69.4780583362" lon="17.3673333214">
		<tag k="alt_name" v="Kleppdalen" />
		<tag k="name" v="Klipdalen" />
		<tag k="natural" v="valley" />
		<tag k="place" v="locality" />
		<tag k="ssr:stedsnr" v="382275" />
	</node>
	<node id="-753010" lat="69.4712333293" lon="17.2501972268">
		<tag k="name" v="Kobben" />
		<tag k="natural" v="hill" />
		<tag k="place" v="locality" />
		<tag k="ssr:stedsnr" v="382270" />
	</node>
	<node id="-753009" lat="69.4915777735" lon="17.2268888864">
		<tag k="name" v="Skinnarmen" />
		<tag k="natural" v="ridge" />
		<tag k="place" v="locality" />
		<tag k="ssr:stedsnr" v="382207" />
	</node>
	<node id="-753008" lat="69.4804777745" lon="17.2350722153">
		<tag k="name" v="Steinsethøgda" />
		<tag k="natural" v="hill" />
		<tag k="place" v="locality" />
		<tag k="ssr:stedsnr" v="382192" />
	</node>
	<node id="-752998" lat="69.4797000016" lon="17.6398611193">
		<tag k="name" v="Steinlia" />
		<tag k="natural" v="slope" />
		<tag k="place" v="locality" />
		<tag k="ssr:stedsnr" v="358197" />
	</node>
	<node id="-752997" lat="69.5229055532" lon="17.4374027752">
		<tag k="name" v="Bruddet" />
		<tag k="natural" v="hill" />
		<tag k="place" v="locality" />
		<tag k="ssr:stedsnr" v="358144" />
	</node>
	<node id="-752995" lat="69.4846305557" lon="17.4283000093">
		<tag k="fixme" v="consider natural=peak for the most distinct mountains in the district" />
		<tag k="name" v="Snykollen" />
		<tag k="natural" v="hill" />
		<tag k="place" v="locality" />
		<tag k="ssr:stedsnr" v="358124" />
	</node>
	<node id="-752994" lat="69.4459194456" lon="17.4658972113">
		<tag k="name" v="Kvanntohaugen" />
		<tag k="natural" v="hill" />
		<tag k="place" v="locality" />
		<tag k="ssr:stedsnr" v="358031" />
	</node>
	<node id="-752993" lat="69.442402781" lon="17.4744472209">
		<tag k="name" v="Skredraplia" />
		<tag k="natural" v="slope" />
		<tag k="place" v="locality" />
		<tag k="ssr:stedsnr" v="358026" />
	</node>
	<node id="-752991" lat="69.4408000023" lon="17.4831444529">
		<tag k="name" v="Skakkan" />
		<tag k="natural" v="slope" />
		<tag k="place" v="locality" />
		<tag k="ssr:stedsnr" v="358021" />
	</node>
	<node id="-752989" lat="69.4527111111" lon="17.3027638823">
		<tag k="name" v="Sommardalshaugen" />
		<tag k="natural" v="hill" />
		<tag k="place" v="locality" />
		<tag k="ssr:stedsnr" v="356818" />
	</node>
	<node id="-752988" lat="69.4455138851" lon="17.3243360999">
		<tag k="name" v="Kvanntoholla" />
		<tag k="natural" v="valley" />
		<tag k="place" v="locality" />
		<tag k="ssr:stedsnr" v="356795" />
	</node>
	<node id="-752985" lat="69.468333331" lon="17.2350305483">
		<tag k="name" v="Verslet" />
		<tag k="place" v="locality" />
		<tag k="ssr:stedsnr" v="356402" />
	</node>
	<node id="-752984" lat="69.4025666629" lon="17.3238749892">
		<tag k="name" v="Mårvikhaugen" />
		<tag k="natural" v="hill" />
		<tag k="place" v="locality" />
		<tag k="ssr:stedsnr" v="356393" />
	</node>
	<node id="-752982" lat="69.3986722254" lon="17.3324527876">
		<tag k="name" v="Ytre Breivikhaugen" />
		<tag k="natural" v="hill" />
		<tag k="place" v="locality" />
		<tag k="ssr:stedsnr" v="356351" />
	</node>
	<node id="-752981" lat="69.4514388911" lon="17.2709166594">
		<tag k="name" v="Skipshaugen" />
		<tag k="natural" v="hill" />
		<tag k="place" v="locality" />
		<tag k="ssr:stedsnr" v="356295" />
	</node>
	<node id="-752979" lat="69.4095111099" lon="17.200719447">
		<tag k="name" v="Breivikhaugen" />
		<tag k="natural" v="hill" />
		<tag k="place" v="locality" />
		<tag k="ssr:stedsnr" v="356246" />
	</node>
	<node id="-752976" lat="69.3920555592" lon="17.3799055511">
		<tag k="name" v="Brattbakkhaugen" />
		<tag k="natural" v="hill" />
		<tag k="place" v="locality" />
		<tag k="ssr:stedsnr" v="355959" />
	</node>
	<node id="-752974" lat="69.3779638883" lon="17.4474111014">
		<tag k="fixme" v="consider natural=peak for the most distinct mountains in the district" />
		<tag k="name" v="Petterfjellet" />
		<tag k="natural" v="hill" />
		<tag k="place" v="locality" />
		<tag k="ssr:stedsnr" v="355879" />
	</node>
	<node id="-752973" lat="69.3544722246" lon="17.3934555455">
		<tag k="name" v="Storhaugen" />
		<tag k="natural" v="hill" />
		<tag k="place" v="locality" />
		<tag k="ssr:stedsnr" v="355838" />
	</node>
	<node id="-752972" lat="69.4417888884" lon="17.4167500099">
		<tag k="name" v="Storbakken" />
		<tag k="natural" v="slope" />
		<tag k="place" v="locality" />
		<tag k="ssr:stedsnr" v="355702" />
	</node>
	<node id="-752970" lat="69.4752388844" lon="17.2679444525">
		<tag k="fixme" v="consider natural=peak for the most distinct mountains in the district" />
		<tag k="name" v="Vetran" />
		<tag k="natural" v="hill" />
		<tag k="place" v="locality" />
		<tag k="ssr:stedsnr" v="355435" />
	</node>
	<node id="-752969" lat="69.4660999965" lon="17.2345861005">
		<tag k="name" v="Holla" />
		<tag k="natural" v="valley" />
		<tag k="place" v="locality" />
		<tag k="ssr:stedsnr" v="355403" />
	</node>
	<node id="-752964" lat="69.4637222258" lon="17.2316861098">
		<tag k="name" v="Kjempetua" />
		<tag k="natural" v="hill" />
		<tag k="place" v="locality" />
		<tag k="ssr:stedsnr" v="355011" />
	</node>
	<node id="-752956" lat="69.3306305553" lon="17.3372888994">
		<tag k="fixme" v="consider natural=peak for the most distinct mountains in the district" />
		<tag k="name" v="Tromtind - Romsoaivi" />
		<tag k="name:no" v="Tromtind" />
		<tag k="name:se" v="Romsoaivi" />
		<tag k="natural" v="hill" />
		<tag k="old_name:se" v="Råmsoaivi" />
		<tag k="place" v="locality" />
		<tag k="ssr:stedsnr" v="324358" />
	</node>
	<node id="-752954" lat="69.5282833293" lon="17.5763805575">
		<tag k="alt_name" v="Kongan, in;Indre Kongan" />
		<tag k="fixme" v="consider natural=peak for the most distinct mountains in the district" />
		<tag k="name" v="Inste Kongen" />
		<tag k="natural" v="hill" />
		<tag k="place" v="locality" />
		<tag k="ssr:stedsnr" v="322849" />
	</node>
	<node id="-752951" lat="69.5122444421" lon="17.4531750027">
		<tag k="alt_name" v="Litledalen" />
		<tag k="name" v="Litjedalen" />
		<tag k="natural" v="valley" />
		<tag k="place" v="locality" />
		<tag k="ssr:stedsnr" v="322817" />
	</node>
	<node id="-752946" lat="69.3080333348" lon="17.4068527695">
		<tag k="name" v="Skeihola" />
		<tag k="natural" v="valley" />
		<tag k="place" v="locality" />
		<tag k="ssr:stedsnr" v="322427" />
	</node>
	<node id="-752945" lat="69.3751305537" lon="17.245983335">
		<tag k="name" v="Ruhahávdi" />
		<tag k="name:se" v="Ruhahávdi" />
		<tag k="natural" v="valley" />
		<tag k="old_name:se" v="Ruhahavdi" />
		<tag k="place" v="locality" />
		<tag k="ssr:stedsnr" v="322357" />
	</node>
	<node id="-752944" lat="69.3891972237" lon="17.1883527682">
		<tag k="fixme" v="consider natural=peak for the most distinct mountains in the district" />
		<tag k="name" v="Grunnbøtinden" />
		<tag k="natural" v="hill" />
		<tag k="place" v="locality" />
		<tag k="ssr:stedsnr" v="322336" />
	</node>
	<node id="-752943" lat="69.3406972261" lon="17.3732805552">
		<tag k="fixme" v="multiple name tags, choose one and add the other to alt_name" />
		<tag k="name" v="Tromdalen;Trondalen" />
		<tag k="natural" v="valley" />
		<tag k="place" v="locality" />
		<tag k="ssr:stedsnr" v="322307" />
	</node>
	<node id="-752939" lat="69.45753056" lon="17.2923861033">
		<tag k="name" v="Sommardalhaugen" />
		<tag k="natural" v="hill" />
		<tag k="place" v="locality" />
		<tag k="ssr:stedsnr" v="322264" />
	</node>
	<node id="-752937" lat="69.4823611117" lon="17.273052772">
		<tag k="alt_name" v="Strandbytind" />
		<tag k="fixme" v="consider natural=peak for the most distinct mountains in the district" />
		<tag k="name" v="Strandbytinden" />
		<tag k="natural" v="hill" />
		<tag k="place" v="locality" />
		<tag k="ssr:stedsnr" v="322184" />
	</node>
	<node id="-752931" lat="69.5125444462" lon="17.3540027812">
		<tag k="fixme" v="consider natural=peak for the most distinct mountains in the district" />
		<tag k="name" v="Hundslaupen" />
		<tag k="natural" v="hill" />
		<tag k="place" v="locality" />
		<tag k="ssr:stedsnr" v="321932" />
	</node>
	<node id="-752928" lat="69.4099249995" lon="17.214555543">
		<tag k="name" v="Durmålshøgda" />
		<tag k="natural" v="hill" />
		<tag k="place" v="locality" />
		<tag k="ssr:stedsnr" v="321264" />
	</node>
	<node id="-752925" lat="69.4045305528" lon="17.1484333303">
		<tag k="fixme" v="consider natural=peak for the most distinct mountains in the district" />
		<tag k="name" v="Sukkertoppen" />
		<tag k="natural" v="hill" />
		<tag k="place" v="locality" />
		<tag k="ssr:stedsnr" v="321248" />
	</node>
	<node id="-752923" lat="69.5306416706" lon="17.5501666694">
		<tag k="fixme" v="consider natural=peak for the most distinct mountains in the district" />
		<tag k="name" v="Kongenesen" />
		<tag k="natural" v="hill" />
		<tag k="place" v="locality" />
		<tag k="ssr:stedsnr" v="297361" />
	</node>
	<node id="-752922" lat="69.4592166632" lon="17.6486444296">
		<tag k="name" v="Breitindaksla" />
		<tag k="place" v="locality" />
		<tag k="ssr:stedsnr" v="297358" />
	</node>
	<node id="-752920" lat="69.4763444429" lon="17.6638027867">
		<tag k="name" v="Inste Klevknausen" />
		<tag k="natural" v="hill" />
		<tag k="place" v="locality" />
		<tag k="ssr:stedsnr" v="297299" />
	</node>
	<node id="-752919" lat="69.4603861137" lon="17.5877277794">
		<tag k="name" v="Kvitvarden" />
		<tag k="natural" v="hill" />
		<tag k="place" v="locality" />
		<tag k="ssr:stedsnr" v="297283" />
	</node>
	<node id="-752917" lat="69.4662888871" lon="17.6480749918">
		<tag k="name" v="Atvindhågen" />
		<tag k="natural" v="hill" />
		<tag k="place" v="locality" />
		<tag k="ssr:stedsnr" v="297270" />
	</node>
	<node id="-752914" lat="69.4736833338" lon="17.6730972099">
		<tag k="name" v="Geitmarka" />
		<tag k="place" v="locality" />
		<tag k="ssr:stedsnr" v="297249" />
	</node>
	<node id="-752913" lat="69.4732777757" lon="17.6664555647">
		<tag k="name" v="Vikstønakken" />
		<tag k="natural" v="ridge" />
		<tag k="place" v="locality" />
		<tag k="ssr:stedsnr" v="297250" />
	</node>
	<node id="-752912" lat="69.5069388917" lon="17.4347805665">
		<tag k="name" v="Dalbakkan" />
		<tag k="natural" v="slope" />
		<tag k="place" v="locality" />
		<tag k="ssr:stedsnr" v="297238" />
	</node>
	<node id="-752910" lat="69.5222999988" lon="17.4109305441">
		<tag k="name" v="Russehula" />
		<tag k="natural" v="valley" />
		<tag k="place" v="locality" />
		<tag k="ssr:stedsnr" v="297174" />
	</node>
	<node id="-752907" lat="69.4903666645" lon="17.4071361096">
		<tag k="name" v="Baklia" />
		<tag k="natural" v="slope" />
		<tag k="place" v="locality" />
		<tag k="ssr:stedsnr" v="297130" />
	</node>
	<node id="-752906" lat="69.4231361076" lon="17.4862638832">
		<tag k="name" v="Molian" />
		<tag k="natural" v="slope" />
		<tag k="place" v="locality" />
		<tag k="ssr:stedsnr" v="297124" />
	</node>
	<node id="-752905" lat="69.42455278" lon="17.4773000117">
		<tag k="name" v="Brattbakkan" />
		<tag k="natural" v="slope" />
		<tag k="place" v="locality" />
		<tag k="ssr:stedsnr" v="297125" />
	</node>
	<node id="-752903" lat="69.4874222261" lon="17.4771555672">
		<tag k="name" v="Hellvasshågen" />
		<tag k="natural" v="hill" />
		<tag k="place" v="locality" />
		<tag k="ssr:stedsnr" v="297100" />
	</node>
	<node id="-752901" lat="69.4917583344" lon="17.5225972147">
		<tag k="name" v="Bringa" />
		<tag k="natural" v="hill" />
		<tag k="place" v="locality" />
		<tag k="ssr:stedsnr" v="297094" />
	</node>
	<node id="-752898" lat="69.4426444464" lon="17.4069250036">
		<tag k="name" v="Storråna" />
		<tag k="natural" v="slope" />
		<tag k="place" v="locality" />
		<tag k="ssr:stedsnr" v="296479" />
	</node>
	<node id="-752897" lat="69.4743138853" lon="17.2289694401">
		<tag k="name" v="Laukvikhompen" />
		<tag k="natural" v="hill" />
		<tag k="place" v="locality" />
		<tag k="ssr:stedsnr" v="296376" />
	</node>
	<node id="-752896" lat="69.4514111076" lon="17.2673694403">
		<tag k="name" v="Helleberget" />
		<tag k="natural" v="hill" />
		<tag k="place" v="locality" />
		<tag k="ssr:stedsnr" v="296248" />
	</node>
	<node id="-752895" lat="69.4522333362" lon="17.2772361149">
		<tag k="name" v="Første Munkeskuta" />
		<tag k="natural" v="valley" />
		<tag k="place" v="locality" />
		<tag k="ssr:stedsnr" v="296225" />
	</node>
	<node id="-752893" lat="69.4392916677" lon="17.362108329">
		<tag k="name" v="Mikkelhammaren" />
		<tag k="natural" v="hill" />
		<tag k="place" v="locality" />
		<tag k="ssr:stedsnr" v="295885" />
	</node>
	<node id="-752891" lat="69.4412805563" lon="17.3255249862">
		<tag k="name" v="Kjerringhella" />
		<tag k="natural" v="hill" />
		<tag k="place" v="locality" />
		<tag k="ssr:stedsnr" v="295792" />
	</node>
	<node id="-752889" lat="69.4801583334" lon="17.2155444377">
		<tag k="name" v="Bardneskollen" />
		<tag k="natural" v="hill" />
		<tag k="place" v="locality" />
		<tag k="ssr:stedsnr" v="295658" />
	</node>
	<node id="-752888" lat="69.4469027743" lon="17.387611119">
		<tag k="name" v="Ytterdalen" />
		<tag k="natural" v="valley" />
		<tag k="place" v="locality" />
		<tag k="ssr:stedsnr" v="295643" />
	</node>
	<node id="-752887" lat="69.4945861123" lon="17.2180138883">
		<tag k="name" v="Grylhollheia" />
		<tag k="natural" v="hill" />
		<tag k="place" v="locality" />
		<tag k="ssr:stedsnr" v="295597" />
	</node>
	<node id="-752885" lat="69.4669750026" lon="17.2632527709">
		<tag k="name" v="Rånna" />
		<tag k="natural" v="valley" />
		<tag k="place" v="locality" />
		<tag k="ssr:stedsnr" v="295508" />
	</node>
	<node id="-752881" lat="69.3970777748" lon="17.369199993">
		<tag k="name" v="Strupen" />
		<tag k="natural" v="valley" />
		<tag k="place" v="locality" />
		<tag k="ssr:stedsnr" v="295343" />
	</node>
	<node id="-752880" lat="69.3882666681" lon="17.2275888828">
		<tag k="name" v="Toldalen" />
		<tag k="natural" v="valley" />
		<tag k="place" v="locality" />
		<tag k="ssr:stedsnr" v="295332" />
	</node>
	<node id="-752879" lat="69.4455611109" lon="17.116977768">
		<tag k="name" v="Ravnerevna" />
		<tag k="natural" v="gorge" />
		<tag k="ssr:stedsnr" v="295176" />
	</node>
	<node id="-752870" lat="69.4599833317" lon="17.3200333225">
		<tag k="name" v="Rasmuslia" />
		<tag k="natural" v="slope" />
		<tag k="place" v="locality" />
		<tag k="ssr:stedsnr" v="295069" />
	</node>
	<node id="-752869" lat="69.4554944484" lon="17.2491416673">
		<tag k="name" v="Kjerkeberget" />
		<tag k="natural" v="hill" />
		<tag k="place" v="locality" />
		<tag k="ssr:stedsnr" v="295055" />
	</node>
	<node id="-752867" lat="69.3561972194" lon="17.448619444">
		<tag k="name" v="Heggedalen" />
		<tag k="natural" v="valley" />
		<tag k="place" v="locality" />
		<tag k="ssr:stedsnr" v="290540" />
	</node>
	<node id="-752860" lat="69.4884833291" lon="17.2077472172">
		<tag k="name" v="Tjeldberget" />
		<tag k="natural" v="hill" />
		<tag k="place" v="locality" />
		<tag k="ssr:stedsnr" v="288779" />
	</node>
	<node id="-754208" lat="69.5138527818" lon="17.5800500021">
		<tag k="name" v="Flågrevna" />
		<tag k="natural" v="valley" />
		<tag k="place" v="locality" />
		<tag k="ssr:stedsnr" v="965373" />
	</node>
	<node id="-754206" lat="69.4654611126" lon="17.6787972177">
		<tag k="name" v="Storrabben" />
		<tag k="natural" v="hill" />
		<tag k="place" v="locality" />
		<tag k="ssr:stedsnr" v="965271" />
	</node>
	<node id="-754204" lat="69.5068055515" lon="17.4165527714">
		<tag k="name" v="Grylskarbakken" />
		<tag k="natural" v="slope" />
		<tag k="place" v="locality" />
		<tag k="ssr:stedsnr" v="965229" />
	</node>
	<node id="-754203" lat="69.5026027799" lon="17.4177694531">
		<tag k="fixme" v="consider natural=peak for the most distinct mountains in the district" />
		<tag k="name" v="Nonstinden" />
		<tag k="natural" v="hill" />
		<tag k="place" v="locality" />
		<tag k="ssr:stedsnr" v="965226" />
	</node>
	<node id="-754201" lat="69.513758331" lon="17.4323888952">
		<tag k="name" v="Vasshollbakkan" />
		<tag k="natural" v="slope" />
		<tag k="place" v="locality" />
		<tag k="ssr:stedsnr" v="965222" />
	</node>
	<node id="-754200" lat="69.4889777765" lon="17.6176666571">
		<tag k="name" v="Skarvhammaren" />
		<tag k="natural" v="hill" />
		<tag k="place" v="locality" />
		<tag k="ssr:stedsnr" v="965208" />
	</node>
	<node id="-754196" lat="69.4429944447" lon="17.4682444406">
		<tag k="name" v="Stumpen" />
		<tag k="natural" v="hill" />
		<tag k="place" v="locality" />
		<tag k="ssr:stedsnr" v="965029" />
	</node>
	<node id="-754194" lat="69.4566666708" lon="17.6009750083">
		<tag k="name" v="Svarthollskaret" />
		<tag k="natural" v="valley" />
		<tag k="place" v="locality" />
		<tag k="ssr:stedsnr" v="964299" />
	</node>
	<node id="-754193" lat="69.4837333368" lon="17.4600194502">
		<tag k="name" v="Sløkhamran" />
		<tag k="natural" v="hill" />
		<tag k="place" v="locality" />
		<tag k="ssr:stedsnr" v="964113" />
	</node>
	<node id="-754192" lat="69.4845222195" lon="17.4914583257">
		<tag k="name" v="Falkebergsletta" />
		<tag k="place" v="locality" />
		<tag k="ssr:stedsnr" v="964108" />
	</node>
	<node id="-754191" lat="69.4940444418" lon="17.4688444532">
		<tag k="name" v="Vollan" />
		<tag k="place" v="locality" />
		<tag k="ssr:stedsnr" v="964095" />
	</node>
	<node id="-754190" lat="69.4867166655" lon="17.46795278">
		<tag k="name" v="Nedreheian" />
		<tag k="natural" v="hill" />
		<tag k="place" v="locality" />
		<tag k="ssr:stedsnr" v="964083" />
	</node>
	<node id="-754187" lat="69.4367027738" lon="17.3779138938">
		<tag k="name" v="Kroksvelgen" />
		<tag k="natural" v="valley" />
		<tag k="place" v="locality" />
		<tag k="ssr:stedsnr" v="963642" />
	</node>
	<node id="-754186" lat="69.420161109" lon="17.3254805449">
		<tag k="name" v="Kråksletta" />
		<tag k="place" v="locality" />
		<tag k="ssr:stedsnr" v="963589" />
	</node>
	<node id="-754185" lat="69.4173000009" lon="17.3662888911">
		<tag k="name" v="Flobjørnberget" />
		<tag k="natural" v="hill" />
		<tag k="place" v="locality" />
		<tag k="ssr:stedsnr" v="963577" />
	</node>
	<node id="-754180" lat="69.4471361137" lon="17.3684805457">
		<tag k="name" v="Vassbakken" />
		<tag k="natural" v="slope" />
		<tag k="place" v="locality" />
		<tag k="ssr:stedsnr" v="962770" />
	</node>
	<node id="-754179" lat="69.4461111079" lon="17.3431750009">
		<tag k="name" v="Grønnebakkan" />
		<tag k="natural" v="slope" />
		<tag k="place" v="locality" />
		<tag k="ssr:stedsnr" v="962769" />
	</node>
	<node id="-754177" lat="69.408108336" lon="17.282247209">
		<tag k="name" v="Bryggeberget" />
		<tag k="natural" v="hill" />
		<tag k="place" v="locality" />
		<tag k="ssr:stedsnr" v="962482" />
	</node>
	<node id="-754176" lat="69.465358336" lon="17.2341638827">
		<tag k="name" v="Småhaugan" />
		<tag k="natural" v="hill" />
		<tag k="place" v="locality" />
		<tag k="ssr:stedsnr" v="962467" />
	</node>
	<node id="-754171" lat="69.3958277748" lon="17.3444083349">
		<tag k="name" v="Indre Breivikhaugen" />
		<tag k="natural" v="hill" />
		<tag k="place" v="locality" />
		<tag k="ssr:stedsnr" v="962325" />
	</node>
	<node id="-754166" lat="69.4549555554" lon="17.3338944377">
		<tag k="name" v="Kjerka" />
		<tag k="place" v="locality" />
		<tag k="ssr:stedsnr" v="962081" />
	</node>
	<node id="-754164" lat="69.4721388919" lon="17.3382611196">
		<tag k="name" v="Stilian" />
		<tag k="natural" v="slope" />
		<tag k="place" v="locality" />
		<tag k="ssr:stedsnr" v="962074" />
	</node>
	<node id="-754154" lat="69.504172226" lon="17.4364972255">
		<tag k="name" v="Stordalen" />
		<tag k="natural" v="valley" />
		<tag k="place" v="locality" />
		<tag k="ssr:stedsnr" v="929657" />
	</node>
	<node id="-754153" lat="69.3354694405" lon="17.4912749901">
		<tag k="name" v="Hunbora" />
		<tag k="natural" v="slope" />
		<tag k="place" v="locality" />
		<tag k="ssr:stedsnr" v="929521" />
	</node>
	<node id="-754152" lat="69.3488777803" lon="17.4780249957">
		<tag k="alt_name:no" v="Hundborfjellet" />
		<tag k="name" v="Hunborhaugen - Beatnatbordievát" />
		<tag k="name:no" v="Hunborhaugen" />
		<tag k="name:se" v="Beatnatbordievát" />
		<tag k="natural" v="hill" />
		<tag k="old_name:se" v="Bædnatbårdievat" />
		<tag k="place" v="locality" />
		<tag k="ssr:stedsnr" v="929516" />
	</node>
	<node id="-754151" lat="69.474955552" lon="17.519872217">
		<tag k="alt_name" v="Burstind" />
		<tag k="fixme" v="consider natural=peak for the most distinct mountains in the district" />
		<tag k="name" v="Burstinden" />
		<tag k="natural" v="hill" />
		<tag k="place" v="locality" />
		<tag k="ssr:stedsnr" v="929473" />
	</node>
	<node id="-754150" lat="69.475730551" lon="17.4427861136">
		<tag k="alt_name" v="Geitskarddalen" />
		<tag k="name" v="Geitskardalen" />
		<tag k="natural" v="valley" />
		<tag k="place" v="locality" />
		<tag k="ssr:stedsnr" v="929449" />
	</node>
	<node id="-754142" lat="69.4089777764" lon="17.3610611096">
		<tag k="alt_name" v="Flobjørn, nedre" />
		<tag k="fixme" v="multiple name tags, choose one and add the other to alt_name; consider natural=peak for the most distinct mountains in the district" />
		<tag k="name" v="Lille Flobjørn;Nedre Flobjørn" />
		<tag k="natural" v="hill" />
		<tag k="place" v="locality" />
		<tag k="ssr:stedsnr" v="929247" />
	</node>
	<node id="-754138" lat="69.531308332" lon="17.3218277786">
		<tag k="fixme" v="consider natural=peak for the most distinct mountains in the district" />
		<tag k="name" v="Okshornan" />
		<tag k="natural" v="hill" />
		<tag k="ssr:stedsnr" v="928945" />
	</node>
	<node id="-754128" lat="69.5270722187" lon="17.5554888949">
		<tag k="name" v="Bukselia" />
		<tag k="natural" v="slope" />
		<tag k="place" v="locality" />
		<tag k="ssr:stedsnr" v="904347" />
	</node>
	<node id="-754127" lat="69.4809000013" lon="17.6356027676">
		<tag k="name" v="Skjellsvaet" />
		<tag k="natural" v="hill" />
		<tag k="place" v="locality" />
		<tag k="ssr:stedsnr" v="904296" />
	</node>
	<node id="-754124" lat="69.4649361145" lon="17.6814611184">
		<tag k="name" v="Steinrabben" />
		<tag k="natural" v="hill" />
		<tag k="place" v="locality" />
		<tag k="ssr:stedsnr" v="904264" />
	</node>
	<node id="-754123" lat="69.5027861116" lon="17.4779861164">
		<tag k="name" v="Storbakken" />
		<tag k="natural" v="slope" />
		<tag k="place" v="locality" />
		<tag k="ssr:stedsnr" v="904256" />
	</node>
	<node id="-754120" lat="69.4771777746" lon="17.6572499974">
		<tag k="name" v="Kleven" />
		<tag k="natural" v="slope" />
		<tag k="place" v="locality" />
		<tag k="ssr:stedsnr" v="904232" />
	</node>
	<node id="-754117" lat="69.5783499976" lon="17.4761805485">
		<tag k="name" v="Heia" />
		<tag k="natural" v="hill" />
		<tag k="place" v="locality" />
		<tag k="ssr:stedsnr" v="904194" />
	</node>
	<node id="-754114" lat="69.5264805528" lon="17.3988638899">
		<tag k="fixme" v="consider natural=peak for the most distinct mountains in the district" />
		<tag k="name" v="Håmannen" />
		<tag k="natural" v="hill" />
		<tag k="place" v="locality" />
		<tag k="ssr:stedsnr" v="904154" />
	</node>
	<node id="-754113" lat="69.5221361086" lon="17.4318361131">
		<tag k="name" v="Halsen" />
		<tag k="natural" v="valley" />
		<tag k="place" v="locality" />
		<tag k="ssr:stedsnr" v="904149" />
	</node>
	<node id="-754112" lat="69.4710444436" lon="17.502619454">
		<tag k="name" v="Middagsskaret" />
		<tag k="natural" v="valley" />
		<tag k="place" v="locality" />
		<tag k="ssr:stedsnr" v="904146" />
	</node>
	<node id="-754110" lat="69.4956805561" lon="17.3895694432">
		<tag k="name" v="Grylskarbakken" />
		<tag k="natural" v="slope" />
		<tag k="place" v="locality" />
		<tag k="ssr:stedsnr" v="904126" />
	</node>
	<node id="-754108" lat="69.4790777785" lon="17.4926055588">
		<tag k="name" v="Middagsskaret" />
		<tag k="natural" v="valley" />
		<tag k="place" v="locality" />
		<tag k="ssr:stedsnr" v="904095" />
	</node>
	<node id="-754106" lat="69.4665861138" lon="17.5243749915">
		<tag k="name" v="Kvalvikskaret" />
		<tag k="natural" v="valley" />
		<tag k="place" v="locality" />
		<tag k="ssr:stedsnr" v="904078" />
	</node>
	<node id="-754104" lat="69.435041666" lon="17.4816583274">
		<tag k="name" v="Raset" />
		<tag k="natural" v="slope" />
		<tag k="place" v="locality" />
		<tag k="ssr:stedsnr" v="904014" />
	</node>
	<node id="-754103" lat="69.4463083339" lon="17.3183055451">
		<tag k="name" v="Litje Sankthanshaugen" />
		<tag k="natural" v="hill" />
		<tag k="place" v="locality" />
		<tag k="ssr:stedsnr" v="903788" />
	</node>
	<node id="-754101" lat="69.4536111075" lon="17.2701138832">
		<tag k="name" v="Storhammaren" />
		<tag k="place" v="locality" />
		<tag k="ssr:stedsnr" v="903259" />
	</node>
	<node id="-754096" lat="69.4433388899" lon="17.3605388834">
		<tag k="name" v="Bjørnebåsen" />
		<tag k="natural" v="ridge" />
		<tag k="place" v="locality" />
		<tag k="ssr:stedsnr" v="902906" />
	</node>
	<node id="-754095" lat="69.3481888884" lon="17.4431361">
		<tag k="name" v="Gangskaret" />
		<tag k="natural" v="hill" />
		<tag k="place" v="locality" />
		<tag k="ssr:stedsnr" v="902860" />
	</node>
	<node id="-754091" lat="69.445427781" lon="17.4397500107">
		<tag k="name" v="Gjertlistrupen" />
		<tag k="natural" v="gorge" />
		<tag k="ssr:stedsnr" v="902607" />
	</node>
	<node id="-754089" lat="69.4646583315" lon="17.2347916757">
		<tag k="name" v="Mossholtet" />
		<tag k="natural" v="hill" />
		<tag k="place" v="locality" />
		<tag k="ssr:stedsnr" v="902513" />
	</node>
	<node id="-754088" lat="69.473558333" lon="17.2355750026">
		<tag k="name" v="Steinkrøssrabban" />
		<tag k="natural" v="hill" />
		<tag k="place" v="locality" />
		<tag k="ssr:stedsnr" v="902495" />
	</node>
	<node id="-754086" lat="69.4088388921" lon="17.3356166766">
		<tag k="name" v="Kusletta" />
		<tag k="place" v="locality" />
		<tag k="ssr:stedsnr" v="902397" />
	</node>
	<node id="-754085" lat="69.4061333366" lon="17.3518583352">
		<tag k="fixme" v="consider natural=peak for the most distinct mountains in the district" />
		<tag k="name" v="Dugmannskollen" />
		<tag k="natural" v="hill" />
		<tag k="place" v="locality" />
		<tag k="ssr:stedsnr" v="902396" />
	</node>
	<node id="-754080" lat="69.5025305547" lon="17.3711027879">
		<tag k="name" v="Teigbakken" />
		<tag k="natural" v="slope" />
		<tag k="place" v="locality" />
		<tag k="ssr:stedsnr" v="902258" />
	</node>
	<node id="-754077" lat="69.4588027795" lon="17.357230563">
		<tag k="name" v="Storhaugan" />
		<tag k="natural" v="hill" />
		<tag k="place" v="locality" />
		<tag k="ssr:stedsnr" v="902096" />
	</node>
	<node id="-754076" lat="69.4661138884" lon="17.3561638938">
		<tag k="name" v="Breiråna" />
		<tag k="place" v="locality" />
		<tag k="ssr:stedsnr" v="902081" />
	</node>
	<node id="-754072" lat="69.4553611106" lon="17.6485055517">
		<tag k="fixme" v="consider natural=peak for the most distinct mountains in the district" />
		<tag k="name" v="Breidtinden - Reaiddaidčohkka" />
		<tag k="name:no" v="Breidtinden" />
		<tag k="name:se" v="Reaiddaidčohkka" />
		<tag k="natural" v="hill" />
		<tag k="old_name:se" v="Rædaidčåkka" />
		<tag k="place" v="locality" />
		<tag k="ssr:stedsnr" v="870460" />
	</node>
	<node id="-754071" lat="69.536958337" lon="17.3144111171">
		<tag k="fixme" v="consider natural=peak for the most distinct mountains in the district" />
		<tag k="name" v="Oksen" />
		<tag k="natural" v="hill" />
		<tag k="place" v="locality" />
		<tag k="ssr:stedsnr" v="868994" />
	</node>
	<node id="-754067" lat="69.5164999996" lon="17.383049999">
		<tag k="loc_name" v="Kleftret" />
		<tag k="name" v="Kliftre" />
		<tag k="natural" v="hill" />
		<tag k="place" v="locality" />
		<tag k="ssr:stedsnr" v="868932" />
	</node>
	<node id="-754066" lat="69.5070499993" lon="17.3722694462">
		<tag k="name" v="Teigdalen" />
		<tag k="natural" v="valley" />
		<tag k="place" v="locality" />
		<tag k="ssr:stedsnr" v="868929" />
	</node>
	<node id="-754064" lat="69.4178138887" lon="17.4353666553">
		<tag k="fixme" v="consider natural=peak for the most distinct mountains in the district" />
		<tag k="name" v="Finnkona" />
		<tag k="natural" v="hill" />
		<tag k="place" v="locality" />
		<tag k="ssr:stedsnr" v="868510" />
	</node>
	<node id="-754063" lat="69.3865111086" lon="17.5016666651">
		<tag k="alt_name:no" v="Raudaksla" />
		<tag k="fixme" v="consider natural=peak for the most distinct mountains in the district" />
		<tag k="name" v="Rødaksla - Rávdočohkka" />
		<tag k="name:no" v="Rødaksla" />
		<tag k="name:se" v="Rávdočohkka" />
		<tag k="natural" v="hill" />
		<tag k="old_name:se" v="Ravdučåkka" />
		<tag k="place" v="locality" />
		<tag k="ssr:stedsnr" v="868507" />
	</node>
	<node id="-754062" lat="69.4043833364" lon="17.5239416539">
		<tag k="fixme" v="consider natural=peak for the most distinct mountains in the district" />
		<tag k="name" v="Stormoa" />
		<tag k="natural" v="hill" />
		<tag k="place" v="locality" />
		<tag k="ssr:stedsnr" v="868501" />
	</node>
	<node id="-754060" lat="69.4642527787" lon="17.5607166681">
		<tag k="name" v="Bratthesten" />
		<tag k="natural" v="hill" />
		<tag k="place" v="locality" />
		<tag k="ssr:stedsnr" v="868479" />
	</node>
	<node id="-754059" lat="69.4833916652" lon="17.6938861107">
		<tag k="fixme" v="consider natural=peak for the most distinct mountains in the district" />
		<tag k="name" v="Daven" />
		<tag k="natural" v="hill" />
		<tag k="place" v="locality" />
		<tag k="ssr:stedsnr" v="868472" />
	</node>
	<node id="-754057" lat="69.3279166689" lon="17.3380749934">
		<tag k="name" v="Láirevággi" />
		<tag k="name:se" v="Láirevággi" />
		<tag k="natural" v="valley" />
		<tag k="old_name:se" v="Lairevaggi" />
		<tag k="place" v="locality" />
		<tag k="ssr:stedsnr" v="868412" />
	</node>
	<node id="-754055" lat="69.3564500008" lon="17.308225003">
		<tag k="alt_name" v="Bardstindkne, s" />
		<tag k="fixme" v="consider natural=peak for the most distinct mountains in the district" />
		<tag k="name" v="Søre Bardstindkne" />
		<tag k="natural" v="hill" />
		<tag k="place" v="locality" />
		<tag k="ssr:stedsnr" v="868309" />
	</node>
	<node id="-754051" lat="69.4613638934" lon="17.3799999966">
		<tag k="alt_name" v="Lutskardet" />
		<tag k="name" v="Lutskaret" />
		<tag k="natural" v="valley" />
		<tag k="place" v="locality" />
		<tag k="ssr:stedsnr" v="868275" />
	</node>
	<node id="-754042" lat="69.5249305515" lon="17.5593472171">
		<tag k="name" v="Skoglinakken" />
		<tag k="natural" v="ridge" />
		<tag k="place" v="locality" />
		<tag k="ssr:stedsnr" v="844343" />
	</node>
	<node id="-754040" lat="69.5042555518" lon="17.474180543">
		<tag k="name" v="Ytterdalen" />
		<tag k="natural" v="valley" />
		<tag k="place" v="locality" />
		<tag k="ssr:stedsnr" v="844223" />
	</node>
	<node id="-754032" lat="69.5397194435" lon="17.5055250093">
		<tag k="name" v="Storskreda" />
		<tag k="natural" v="slope" />
		<tag k="place" v="locality" />
		<tag k="ssr:stedsnr" v="844153" />
	</node>
	<node id="-754029" lat="69.531958332" lon="17.3875722312">
		<tag k="name" v="Bekkarhalsen" />
		<tag k="natural" v="valley" />
		<tag k="place" v="locality" />
		<tag k="ssr:stedsnr" v="844140" />
	</node>
	<node id="-754027" lat="69.4889583329" lon="17.4107277785">
		<tag k="name" v="Monslihammaren" />
		<tag k="natural" v="hill" />
		<tag k="place" v="locality" />
		<tag k="ssr:stedsnr" v="844132" />
	</node>
	<node id="-754026" lat="69.4804749954" lon="17.407361116">
		<tag k="name" v="Dalen" />
		<tag k="natural" v="valley" />
		<tag k="place" v="locality" />
		<tag k="ssr:stedsnr" v="844133" />
	</node>
	<node id="-754025" lat="69.4920249986" lon="17.4048110986">
		<tag k="name" v="Marragovhammaren" />
		<tag k="natural" v="hill" />
		<tag k="place" v="locality" />
		<tag k="ssr:stedsnr" v="844128" />
	</node>
	<node id="-754024" lat="69.4181055525" lon="17.4006805497">
		<tag k="name" v="Flobjørnhaugen" />
		<tag k="natural" v="hill" />
		<tag k="place" v="locality" />
		<tag k="ssr:stedsnr" v="844118" />
	</node>
	<node id="-754023" lat="69.4301222211" lon="17.5032027762">
		<tag k="name" v="Hestelian" />
		<tag k="natural" v="slope" />
		<tag k="place" v="locality" />
		<tag k="ssr:stedsnr" v="844104" />
	</node>
	<node id="-754016" lat="69.387080559" lon="17.4218722274">
		<tag k="name" v="Skaret" />
		<tag k="natural" v="valley" />
		<tag k="place" v="locality" />
		<tag k="ssr:stedsnr" v="842931" />
	</node>
	<node id="-754015" lat="69.4829722218" lon="17.2846666595">
		<tag k="name" v="Slettevollen" />
		<tag k="place" v="locality" />
		<tag k="ssr:stedsnr" v="842723" />
	</node>
	<node id="-754014" lat="69.4869777775" lon="17.2124027844">
		<tag k="name" v="Gobbellia" />
		<tag k="natural" v="slope" />
		<tag k="place" v="locality" />
		<tag k="ssr:stedsnr" v="842672" />
	</node>
	<node id="-754013" lat="69.47969722" lon="17.2171472139">
		<tag k="name" v="Kollen" />
		<tag k="natural" v="hill" />
		<tag k="place" v="locality" />
		<tag k="ssr:stedsnr" v="842666" />
	</node>
	<node id="-754012" lat="69.4466055581" lon="17.3981916752">
		<tag k="name" v="Storsletta" />
		<tag k="natural" v="valley" />
		<tag k="place" v="locality" />
		<tag k="ssr:stedsnr" v="842637" />
	</node>
	<node id="-754011" lat="69.4441722261" lon="17.4459416789">
		<tag k="name" v="Råna" />
		<tag k="natural" v="slope" />
		<tag k="place" v="locality" />
		<tag k="ssr:stedsnr" v="842597" />
	</node>
	<node id="-754009" lat="69.4371972192" lon="17.393047211">
		<tag k="name" v="Rumpelia" />
		<tag k="natural" v="slope" />
		<tag k="place" v="locality" />
		<tag k="ssr:stedsnr" v="842587" />
	</node>
	<node id="-754008" lat="69.4842361137" lon="17.3566583312">
		<tag k="name" v="Storråna" />
		<tag k="natural" v="valley" />
		<tag k="place" v="locality" />
		<tag k="ssr:stedsnr" v="842349" />
	</node>
	<node id="-754007" lat="69.4798305536" lon="17.3414611204">
		<tag k="name" v="Latrævgropa" />
		<tag k="natural" v="valley" />
		<tag k="place" v="locality" />
		<tag k="ssr:stedsnr" v="842339" />
	</node>
	<node id="-754005" lat="69.4507166693" lon="17.2816472167">
		<tag k="name" v="Tredje Munkeskuta" />
		<tag k="natural" v="valley" />
		<tag k="place" v="locality" />
		<tag k="ssr:stedsnr" v="842241" />
	</node>
	<node id="-754002" lat="69.4133138858" lon="17.2871805461">
		<tag k="name" v="Hammarhaugen" />
		<tag k="natural" v="hill" />
		<tag k="place" v="locality" />
		<tag k="ssr:stedsnr" v="841918" />
	</node>
	<node id="-753998" lat="69.4660194458" lon="17.2773833418">
		<tag k="fixme" v="consider natural=peak for the most distinct mountains in the district" />
		<tag k="name" v="Rismåltua" />
		<tag k="natural" v="hill" />
		<tag k="ssr:stedsnr" v="841466" />
	</node>
	<node id="-753988" lat="69.4714999993" lon="17.3698166589">
		<tag k="fixme" v="consider natural=peak for the most distinct mountains in the district" />
		<tag k="name" v="Middagstinden" />
		<tag k="natural" v="hill" />
		<tag k="ssr:stedsnr" v="841065" />
	</node>
	<node id="-753986" lat="69.4041027814" lon="17.2203250063">
		<tag k="name" v="Bjørnen" />
		<tag k="natural" v="ridge" />
		<tag k="place" v="locality" />
		<tag k="ssr:stedsnr" v="841020" />
	</node>
	<node id="-753982" lat="69.4710083298" lon="17.719894433">
		<tag k="name" v="Sørkråa" />
		<tag k="natural" v="valley" />
		<tag k="place" v="locality" />
		<tag k="ssr:stedsnr" v="837347" />
	</node>
	<node id="-753980" lat="69.4395583355" lon="17.3700555625">
		<tag k="name" v="Nordfjordaksla" />
		<tag k="natural" v="hill" />
		<tag k="place" v="locality" />
		<tag k="ssr:stedsnr" v="835901" />
	</node>
	<node id="-753964" lat="69.4185888845" lon="17.5780361192">
		<tag k="fixme" v="consider natural=peak for the most distinct mountains in the district" />
		<tag k="name" v="Innhesten" />
		<tag k="natural" v="hill" />
		<tag k="place" v="locality" />
		<tag k="ssr:stedsnr" v="807505" />
	</node>
	<node id="-753963" lat="69.4635777749" lon="17.6424138751">
		<tag k="alt_name" v="Bjørnhollet" />
		<tag k="name" v="Bjørnhola" />
		<tag k="natural" v="valley" />
		<tag k="place" v="locality" />
		<tag k="ssr:stedsnr" v="807483" />
	</node>
	<node id="-753960" lat="69.4824972257" lon="17.5284499882">
		<tag k="name" v="Kvalvikskardet" />
		<tag k="natural" v="valley" />
		<tag k="place" v="locality" />
		<tag k="ssr:stedsnr" v="807464" />
	</node>
	<node id="-753953" lat="69.4644388908" lon="17.2959444419">
		<tag k="alt_name" v="Brusen, l" />
		<tag k="fixme" v="consider natural=peak for the most distinct mountains in the district" />
		<tag k="name" v="Litjebrusen" />
		<tag k="natural" v="hill" />
		<tag k="place" v="locality" />
		<tag k="ssr:stedsnr" v="807265" />
	</node>
	<node id="-753947" lat="69.4821583371" lon="17.3393388911">
		<tag k="fixme" v="consider natural=peak for the most distinct mountains in the district" />
		<tag k="name" v="Latræva" />
		<tag k="natural" v="hill" />
		<tag k="place" v="locality" />
		<tag k="ssr:stedsnr" v="807184" />
	</node>
	<node id="-753945" lat="69.472722225" lon="17.690924992">
		<tag k="name" v="Ressmålhågen" />
		<tag k="natural" v="hill" />
		<tag k="place" v="locality" />
		<tag k="ssr:stedsnr" v="783223" />
	</node>
	<node id="-753943" lat="69.516083337" lon="17.4777722301">
		<tag k="name" v="Jettegryta" />
		<tag k="natural" v="valley" />
		<tag k="place" v="locality" />
		<tag k="ssr:stedsnr" v="783202" />
	</node>
	<node id="-753940" lat="69.4861750038" lon="17.5403250039">
		<tag k="fixme" v="consider natural=peak for the most distinct mountains in the district" />
		<tag k="name" v="Innerbringa" />
		<tag k="natural" v="hill" />
		<tag k="place" v="locality" />
		<tag k="ssr:stedsnr" v="783183" />
	</node>
	<node id="-753939" lat="69.5884138852" lon="17.4917027843">
		<tag k="name" v="Skjæringan" />
		<tag k="natural" v="valley" />
		<tag k="place" v="locality" />
		<tag k="ssr:stedsnr" v="783177" />
	</node>
	<node id="-753938" lat="69.5652138851" lon="17.484775008">
		<tag k="name" v="Drakurberget" />
		<tag k="natural" v="hill" />
		<tag k="place" v="locality" />
		<tag k="ssr:stedsnr" v="783163" />
	</node>
	<node id="-753934" lat="69.4628777789" lon="17.4664555453">
		<tag k="name" v="Dyrskaret" />
		<tag k="natural" v="valley" />
		<tag k="place" v="locality" />
		<tag k="ssr:stedsnr" v="783122" />
	</node>
	<node id="-753933" lat="69.480677778" lon="17.3739194338">
		<tag k="name" v="Rognbakken" />
		<tag k="natural" v="slope" />
		<tag k="place" v="locality" />
		<tag k="ssr:stedsnr" v="783114" />
	</node>
	<node id="-753932" lat="69.4783722232" lon="17.3981916648">
		<tag k="name" v="Hattholla" />
		<tag k="natural" v="valley" />
		<tag k="place" v="locality" />
		<tag k="ssr:stedsnr" v="783100" />
	</node>
	<node id="-753930" lat="69.4876055522" lon="17.4074222177">
		<tag k="name" v="Monslia" />
		<tag k="natural" v="slope" />
		<tag k="place" v="locality" />
		<tag k="ssr:stedsnr" v="783089" />
	</node>
	<node id="-753927" lat="69.4809416663" lon="17.4564361116">
		<tag k="name" v="Skikulen" />
		<tag k="natural" v="hill" />
		<tag k="place" v="locality" />
		<tag k="ssr:stedsnr" v="782057" />
	</node>
	<node id="-753924" lat="69.4363972241" lon="17.3650305663">
		<tag k="name" v="Geitsteinsletta" />
		<tag k="place" v="locality" />
		<tag k="ssr:stedsnr" v="781880" />
	</node>
	<node id="-753922" lat="69.4449611072" lon="17.3157527768">
		<tag k="name" v="Steinbakkhaugen" />
		<tag k="natural" v="hill" />
		<tag k="place" v="locality" />
		<tag k="ssr:stedsnr" v="781809" />
	</node>
	<node id="-753921" lat="69.448727778" lon="17.3534638924">
		<tag k="name" v="Purkebakkan" />
		<tag k="natural" v="slope" />
		<tag k="place" v="locality" />
		<tag k="ssr:stedsnr" v="781792" />
	</node>
	<node id="-753919" lat="69.4361999954" lon="17.3813194521">
		<tag k="name" v="Neslia" />
		<tag k="natural" v="slope" />
		<tag k="place" v="locality" />
		<tag k="ssr:stedsnr" v="781593" />
	</node>
	<node id="-753918" lat="69.444533337" lon="17.4422527715">
		<tag k="name" v="Nilshansalia" />
		<tag k="natural" v="slope" />
		<tag k="place" v="locality" />
		<tag k="ssr:stedsnr" v="781587" />
	</node>
	<node id="-753917" lat="69.4768361127" lon="17.3448722284">
		<tag k="fixme" v="consider natural=peak for the most distinct mountains in the district" />
		<tag k="name" v="Bakketua" />
		<tag k="natural" v="hill" />
		<tag k="ssr:stedsnr" v="781371" />
	</node>
	<node id="-753914" lat="69.412008332" lon="17.1471388897">
		<tag k="name" v="Gruvebakken" />
		<tag k="natural" v="slope" />
		<tag k="place" v="locality" />
		<tag k="ssr:stedsnr" v="781228" />
	</node>
	<node id="-753912" lat="69.4051277783" lon="17.3785722138">
		<tag k="name" v="Aksla" />
		<tag k="place" v="locality" />
		<tag k="ssr:stedsnr" v="780954" />
	</node>
	<node id="-753911" lat="69.4367805528" lon="17.3794722177">
		<tag k="name" v="Kvanntohaugen" />
		<tag k="natural" v="hill" />
		<tag k="place" v="locality" />
		<tag k="ssr:stedsnr" v="780646" />
	</node>
	<node id="-753905" lat="69.4721972251" lon="17.2387194532">
		<tag k="name" v="Rabbeskogen" />
		<tag k="natural" v="slope" />
		<tag k="place" v="locality" />
		<tag k="ssr:stedsnr" v="780409" />
	</node>
	<node id="-753904" lat="69.5056138927" lon="17.3642388944">
		<tag k="name" v="Teigsletta" />
		<tag k="place" v="locality" />
		<tag k="ssr:stedsnr" v="780241" />
	</node>
	<node id="-753902" lat="69.5001694486" lon="17.2135222271">
		<tag k="name" v="Sporraksla" />
		<tag k="place" v="locality" />
		<tag k="ssr:stedsnr" v="780138" />
	</node>
	<node id="-753900" lat="69.4663055584" lon="17.3479444346">
		<tag k="name" v="Skredbakken" />
		<tag k="natural" v="slope" />
		<tag k="place" v="locality" />
		<tag k="ssr:stedsnr" v="780087" />
	</node>
	<node id="-753899" lat="69.533391664" lon="17.3173111005">
		<tag k="fixme" v="consider natural=peak for the most distinct mountains in the district" />
		<tag k="name" v="Skjæringen" />
		<tag k="natural" v="hill" />
		<tag k="ssr:stedsnr" v="780066" />
	</node>
	<node id="-753898" lat="69.4644722176" lon="17.2711250069">
		<tag k="name" v="Heian" />
		<tag k="natural" v="hill" />
		<tag k="place" v="locality" />
		<tag k="ssr:stedsnr" v="780041" />
	</node>
	<node id="-753896" lat="69.4627555517" lon="17.2487027795">
		<tag k="name" v="Skallen" />
		<tag k="natural" v="hill" />
		<tag k="place" v="locality" />
		<tag k="ssr:stedsnr" v="780027" />
	</node>
	<node id="-753895" lat="69.4637666657" lon="17.2367694456">
		<tag k="name" v="Stilian" />
		<tag k="natural" v="slope" />
		<tag k="place" v="locality" />
		<tag k="ssr:stedsnr" v="780018" />
	</node>
	<node id="-753894" lat="69.4993555526" lon="17.2026916629">
		<tag k="name" v="Ressepila" />
		<tag k="place" v="locality" />
		<tag k="ssr:stedsnr" v="780011" />
	</node>
	<node id="-753893" lat="69.3614138932" lon="17.4491083344">
		<tag k="name" v="Heggedalsryggen" />
		<tag k="natural" v="ridge" />
		<tag k="place" v="locality" />
		<tag k="ssr:stedsnr" v="775582" />
	</node>
	<node id="-753883" lat="69.4291055535" lon="17.51960832">
		<tag k="fixme" v="consider natural=peak for the most distinct mountains in the district" />
		<tag k="name" v="Hesten" />
		<tag k="natural" v="hill" />
		<tag k="place" v="locality" />
		<tag k="ssr:stedsnr" v="747444" />
	</node>
	<node id="-753882" lat="69.3580750047" lon="17.3609694415">
		<tag k="fixme" v="consider natural=peak for the most distinct mountains in the district" />
		<tag k="name" v="Spekelvaksla" />
		<tag k="natural" v="hill" />
		<tag k="place" v="locality" />
		<tag k="ssr:stedsnr" v="747318" />
	</node>
	<node id="-753877" lat="69.5374777756" lon="17.5233666623">
		<tag k="alt_name" v="Sevdalen, in" />
		<tag k="name" v="Innersevdalen" />
		<tag k="natural" v="valley" />
		<tag k="place" v="locality" />
		<tag k="ssr:stedsnr" v="746822" />
	</node>
	<node id="-753875" lat="69.523572226" lon="17.4330583273">
		<tag k="name" v="Knuten" />
		<tag k="natural" v="hill" />
		<tag k="place" v="locality" />
		<tag k="ssr:stedsnr" v="746770" />
	</node>
	<node id="-753872" lat="69.4721027811" lon="17.4408944319">
		<tag k="alt_name" v="Ersfjordskardet" />
		<tag k="name" v="Ersfjordskaret" />
		<tag k="natural" v="valley" />
		<tag k="place" v="locality" />
		<tag k="ssr:stedsnr" v="746497" />
	</node>
	<node id="-753871" lat="69.4583388925" lon="17.4662805553">
		<tag k="fixme" v="consider natural=peak for the most distinct mountains in the district" />
		<tag k="name" v="Ramfløy" />
		<tag k="natural" v="hill" />
		<tag k="place" v="locality" />
		<tag k="ssr:stedsnr" v="746446" />
	</node>
	<node id="-753868" lat="69.4655055554" lon="17.3967666555">
		<tag k="name" v="Middagskardet" />
		<tag k="natural" v="valley" />
		<tag k="place" v="locality" />
		<tag k="ssr:stedsnr" v="746288" />
	</node>
	<node id="-753867" lat="69.4714194427" lon="17.3943555463">
		<tag k="name" v="Heian" />
		<tag k="natural" v="hill" />
		<tag k="place" v="locality" />
		<tag k="ssr:stedsnr" v="746285" />
	</node>
	<node id="-753858" lat="69.5097416647" lon="17.5901888891">
		<tag k="name" v="Seggelskaret" />
		<tag k="natural" v="valley" />
		<tag k="place" v="locality" />
		<tag k="ssr:stedsnr" v="722359" />
	</node>
	<node id="-753853" lat="69.514302775" lon="17.3993499933">
		<tag k="name" v="Storskålbrekktippen" />
		<tag k="natural" v="hill" />
		<tag k="place" v="locality" />
		<tag k="ssr:stedsnr" v="722171" />
	</node>
	<node id="-753852" lat="69.4581861131" lon="17.3784611046">
		<tag k="fixme" v="consider natural=peak for the most distinct mountains in the district" />
		<tag k="name" v="Merraføa" />
		<tag k="natural" v="hill" />
		<tag k="place" v="locality" />
		<tag k="ssr:stedsnr" v="722155" />
	</node>
	<node id="-753850" lat="69.4797305562" lon="17.3991916542">
		<tag k="name" v="Titterbakken" />
		<tag k="natural" v="slope" />
		<tag k="place" v="locality" />
		<tag k="ssr:stedsnr" v="722143" />
	</node>
	<node id="-753846" lat="69.4754333306" lon="17.2303416594">
		<tag k="name" v="Hamran" />
		<tag k="natural" v="ridge" />
		<tag k="place" v="locality" />
		<tag k="ssr:stedsnr" v="721407" />
	</node>
	<node id="-753843" lat="69.4797416629" lon="17.4993333374">
		<tag k="fixme" v="consider natural=peak for the most distinct mountains in the district" />
		<tag k="name" v="Hemmingskolten" />
		<tag k="natural" v="hill" />
		<tag k="place" v="locality" />
		<tag k="ssr:stedsnr" v="721072" />
	</node>
	<node id="-753842" lat="69.4854055599" lon="17.4622527792">
		<tag k="name" v="Øvreheian" />
		<tag k="natural" v="hill" />
		<tag k="place" v="locality" />
		<tag k="ssr:stedsnr" v="721070" />
	</node>
	<node id="-753838" lat="69.420411111" lon="17.3147555512">
		<tag k="name" v="Høgda" />
		<tag k="natural" v="hill" />
		<tag k="place" v="locality" />
		<tag k="ssr:stedsnr" v="720977" />
	</node>
	<node id="-753834" lat="69.4399138872" lon="17.3615360963">
		<tag k="name" v="Skreda" />
		<tag k="place" v="locality" />
		<tag k="ssr:stedsnr" v="720783" />
	</node>
	<node id="-753832" lat="69.4422805601" lon="17.4462749937">
		<tag k="name" v="Norabakken" />
		<tag k="natural" v="slope" />
		<tag k="place" v="locality" />
		<tag k="ssr:stedsnr" v="720746" />
	</node>
	<node id="-753831" lat="69.4447694411" lon="17.4498861043">
		<tag k="name" v="Smålian" />
		<tag k="natural" v="slope" />
		<tag k="place" v="locality" />
		<tag k="ssr:stedsnr" v="720592" />
	</node>
	<node id="-753827" lat="69.4709277783" lon="17.3386694556">
		<tag k="name" v="Stian" />
		<tag k="place" v="locality" />
		<tag k="ssr:stedsnr" v="720090" />
	</node>
	<node id="-753826" lat="69.4587055599" lon="17.3222277751">
		<tag k="name" v="Felia" />
		<tag k="natural" v="slope" />
		<tag k="place" v="locality" />
		<tag k="ssr:stedsnr" v="720077" />
	</node>
	<node id="-753825" lat="69.4052277749" lon="17.2236277778">
		<tag k="name" v="Bjørndalen" />
		<tag k="natural" v="valley" />
		<tag k="place" v="locality" />
		<tag k="ssr:stedsnr" v="720023" />
	</node>
	<node id="-753822" lat="69.4635305553" lon="17.3565666626">
		<tag k="name" v="Smålian" />
		<tag k="natural" v="slope" />
		<tag k="place" v="locality" />
		<tag k="ssr:stedsnr" v="720112" />
	</node>
	<node id="-753820" lat="69.4578833369" lon="17.2636555519">
		<tag k="name" v="Kvesmeberget" />
		<tag k="natural" v="hill" />
		<tag k="place" v="locality" />
		<tag k="ssr:stedsnr" v="719029" />
	</node>
	<node id="-753809" lat="69.3060055577" lon="17.4776416559">
		<tag k="fixme" v="consider natural=peak for the most distinct mountains in the district" />
		<tag k="name" v="Svannova - Njuollabornjunni" />
		<tag k="name:no" v="Svannova" />
		<tag k="name:se" v="Njuollabornjunni" />
		<tag k="natural" v="hill" />
		<tag k="old_name:se" v="Njuollabårnjunni" />
		<tag k="place" v="locality" />
		<tag k="ssr:stedsnr" v="686578" />
	</node>
	<node id="-753808" lat="69.4196138886" lon="17.4769388965">
		<tag k="fixme" v="consider natural=peak for the most distinct mountains in the district" />
		<tag k="name" v="Motind" />
		<tag k="natural" v="hill" />
		<tag k="place" v="locality" />
		<tag k="ssr:stedsnr" v="686527" />
	</node>
	<node id="-753807" lat="69.4725666671" lon="17.4833611083">
		<tag k="fixme" v="consider natural=peak for the most distinct mountains in the district" />
		<tag k="name" v="Roalden" />
		<tag k="natural" v="hill" />
		<tag k="place" v="locality" />
		<tag k="ssr:stedsnr" v="686505" />
	</node>
	<node id="-753806" lat="69.4326277781" lon="17.5730750036">
		<tag k="fixme" v="consider natural=peak for the most distinct mountains in the district" />
		<tag k="name" v="Hestpiken" />
		<tag k="natural" v="hill" />
		<tag k="place" v="locality" />
		<tag k="ssr:stedsnr" v="686477" />
	</node>
	<node id="-753805" lat="69.3632444444" lon="17.299300008">
		<tag k="fixme" v="consider natural=peak for the most distinct mountains in the district" />
		<tag k="name" v="Bardstinden" />
		<tag k="natural" v="hill" />
		<tag k="place" v="locality" />
		<tag k="ssr:stedsnr" v="686298" />
	</node>
	<node id="-753802" lat="69.4940833345" lon="17.4472083364">
		<tag k="name" v="Litltindskardet" />
		<tag k="natural" v="valley" />
		<tag k="place" v="locality" />
		<tag k="ssr:stedsnr" v="685450" />
	</node>
	<node id="-753797" lat="69.5012444434" lon="17.480750003">
		<tag k="name" v="Klokkarbakken" />
		<tag k="natural" v="slope" />
		<tag k="place" v="locality" />
		<tag k="ssr:stedsnr" v="661223" />
	</node>
	<node id="-753795" lat="69.4997472256" lon="17.4349027754">
		<tag k="name" v="Smådalan" />
		<tag k="natural" v="valley" />
		<tag k="place" v="locality" />
		<tag k="ssr:stedsnr" v="661216" />
	</node>
	<node id="-753792" lat="69.4929305533" lon="17.6091027841">
		<tag k="fixme" v="consider natural=peak for the most distinct mountains in the district" />
		<tag k="name" v="Røssklakkfjellet" />
		<tag k="natural" v="hill" />
		<tag k="place" v="locality" />
		<tag k="ssr:stedsnr" v="661197" />
	</node>
	<node id="-753790" lat="69.5132888855" lon="17.403338897">
		<tag k="name" v="Alteret" />
		<tag k="natural" v="slope" />
		<tag k="place" v="locality" />
		<tag k="ssr:stedsnr" v="661140" />
	</node>
	<node id="-753789" lat="69.4659777792" lon="17.4090222118">
		<tag k="fixme" v="consider natural=peak for the most distinct mountains in the district" />
		<tag k="name" v="Snaufjellet" />
		<tag k="natural" v="hill" />
		<tag k="place" v="locality" />
		<tag k="ssr:stedsnr" v="661129" />
	</node>
	<node id="-753784" lat="69.441486112" lon="17.4780222247">
		<tag k="name" v="Mikkallia" />
		<tag k="natural" v="slope" />
		<tag k="place" v="locality" />
		<tag k="ssr:stedsnr" v="661022" />
	</node>
	<node id="-753783" lat="69.4822500008" lon="17.6320138828">
		<tag k="name" v="Elvelia" />
		<tag k="natural" v="slope" />
		<tag k="place" v="locality" />
		<tag k="ssr:stedsnr" v="660313" />
	</node>
	<node id="-753782" lat="69.469555553" lon="17.5663888747">
		<tag k="name" v="Revberget" />
		<tag k="natural" v="hill" />
		<tag k="place" v="locality" />
		<tag k="ssr:stedsnr" v="660296" />
	</node>
	<node id="-753780" lat="69.4517000018" lon="17.2670166639">
		<tag k="name" v="Flatberget" />
		<tag k="natural" v="hill" />
		<tag k="place" v="locality" />
		<tag k="ssr:stedsnr" v="660292" />
	</node>
	<node id="-753778" lat="69.4510361136" lon="17.2786666747">
		<tag k="name" v="Andre Munkeskuta" />
		<tag k="natural" v="valley" />
		<tag k="place" v="locality" />
		<tag k="ssr:stedsnr" v="660268" />
	</node>
	<node id="-753775" lat="69.4788611127" lon="17.4695277691">
		<tag k="name" v="Geitskaret" />
		<tag k="natural" v="valley" />
		<tag k="place" v="locality" />
		<tag k="ssr:stedsnr" v="660092" />
	</node>
	<node id="-753773" lat="69.4891333348" lon="17.5027416758">
		<tag k="name" v="Geitryggen" />
		<tag k="natural" v="ridge" />
		<tag k="place" v="locality" />
		<tag k="ssr:stedsnr" v="660069" />
	</node>
	<node id="-753771" lat="69.414636111" lon="17.3294444527">
		<tag k="name" v="Høgda" />
		<tag k="natural" v="hill" />
		<tag k="place" v="locality" />
		<tag k="ssr:stedsnr" v="659980" />
	</node>
	<node id="-753770" lat="69.3968611158" lon="17.4041194402">
		<tag k="name" v="Storkollen" />
		<tag k="natural" v="hill" />
		<tag k="place" v="locality" />
		<tag k="ssr:stedsnr" v="659978" />
	</node>
	<node id="-753768" lat="69.4418388869" lon="17.3584166697">
		<tag k="name" v="Blåbærhammaren" />
		<tag k="natural" v="hill" />
		<tag k="place" v="locality" />
		<tag k="ssr:stedsnr" v="659894" />
	</node>
	<node id="-753766" lat="69.3479055515" lon="17.430050002">
		<tag k="name" v="Stalloberget" />
		<tag k="natural" v="hill" />
		<tag k="place" v="locality" />
		<tag k="ssr:stedsnr" v="659837" />
	</node>
	<node id="-753765" lat="69.4450277794" lon="17.3065694429">
		<tag k="name" v="Bjørnskaret" />
		<tag k="natural" v="valley" />
		<tag k="place" v="locality" />
		<tag k="ssr:stedsnr" v="659811" />
	</node>
	<node id="-753764" lat="69.4442166689" lon="17.3444888992">
		<tag k="name" v="Finnhaugen" />
		<tag k="natural" v="hill" />
		<tag k="place" v="locality" />
		<tag k="ssr:stedsnr" v="659797" />
	</node>
	<node id="-753760" lat="69.444400004" lon="17.4072999882">
		<tag k="name" v="Kvithammaren" />
		<tag k="place" v="locality" />
		<tag k="ssr:stedsnr" v="659636" />
	</node>
	<node id="-753759" lat="69.4872611069" lon="17.2455333382">
		<tag k="name" v="Trollvassbakken" />
		<tag k="natural" v="slope" />
		<tag k="place" v="locality" />
		<tag k="ssr:stedsnr" v="659587" />
	</node>
	<node id="-753758" lat="69.4931805534" lon="17.2401861038">
		<tag k="name" v="Storaksla" />
		<tag k="place" v="locality" />
		<tag k="ssr:stedsnr" v="659582" />
	</node>
	<node id="-753757" lat="69.4145361098" lon="17.3262555496">
		<tag k="name" v="Steinkollen" />
		<tag k="natural" v="hill" />
		<tag k="place" v="locality" />
		<tag k="ssr:stedsnr" v="659529" />
	</node>
	<node id="-753756" lat="69.4689999991" lon="17.237619442">
		<tag k="name" v="Versellian" />
		<tag k="natural" v="slope" />
		<tag k="place" v="locality" />
		<tag k="ssr:stedsnr" v="659463" />
	</node>
	<node id="-753755" lat="69.4662138867" lon="17.2230194509">
		<tag k="name" v="Rabben" />
		<tag k="natural" v="hill" />
		<tag k="place" v="locality" />
		<tag k="ssr:stedsnr" v="659453" />
	</node>
	<node id="-753753" lat="69.4031500013" lon="17.3674777851">
		<tag k="name" v="Stavskaret" />
		<tag k="natural" v="valley" />
		<tag k="place" v="locality" />
		<tag k="ssr:stedsnr" v="659372" />
	</node>
	<node id="-753752" lat="69.39290278" lon="17.2864222133">
		<tag k="fixme" v="consider natural=peak for the most distinct mountains in the district" />
		<tag k="name" v="Kvanntotinden" />
		<tag k="natural" v="hill" />
		<tag k="place" v="locality" />
		<tag k="ssr:stedsnr" v="659348" />
	</node>
	<node id="-753751" lat="69.4058361133" lon="17.1320916546">
		<tag k="name" v="Høybergan" />
		<tag k="natural" v="hill" />
		<tag k="place" v="locality" />
		<tag k="ssr:stedsnr" v="659243" />
	</node>
	<node id="-753741" lat="69.5007305566" lon="17.3966861021">
		<tag k="alt_name" v="Gruvla, l" />
		<tag k="fixme" v="consider natural=peak for the most distinct mountains in the district" />
		<tag k="name" v="Litjegrovla" />
		<tag k="natural" v="hill" />
		<tag k="place" v="locality" />
		<tag k="ssr:stedsnr" v="625952" />
	</node>
	<node id="-753739" lat="69.504447222" lon="17.4536722205">
		<tag k="alt_name" v="Mykjetind" />
		<tag k="fixme" v="consider natural=peak for the most distinct mountains in the district" />
		<tag k="name" v="Mykjetinden" />
		<tag k="natural" v="hill" />
		<tag k="place" v="locality" />
		<tag k="ssr:stedsnr" v="625682" />
	</node>
	<node id="-753738" lat="69.4088305598" lon="17.4535499973">
		<tag k="fixme" v="consider natural=peak for the most distinct mountains in the district" />
		<tag k="name" v="Skolpan" />
		<tag k="natural" v="hill" />
		<tag k="place" v="locality" />
		<tag k="ssr:stedsnr" v="625515" />
	</node>
	<node id="-753720" lat="69.3266361122" lon="17.3674111005">
		<tag k="fixme" v="consider natural=peak for the most distinct mountains in the district" />
		<tag k="name" v="Sæstuva" />
		<tag k="natural" v="hill" />
		<tag k="place" v="locality" />
		<tag k="ssr:stedsnr" v="624428" />
	</node>
	<node id="-753716" lat="69.5222250028" lon="17.5628333334">
		<tag k="name" v="Skoglia" />
		<tag k="natural" v="slope" />
		<tag k="place" v="locality" />
		<tag k="ssr:stedsnr" v="600343" />
	</node>
	<node id="-753712" lat="69.5156361118" lon="17.4597416626">
		<tag k="name" v="Hellbergan" />
		<tag k="natural" v="hill" />
		<tag k="place" v="locality" />
		<tag k="ssr:stedsnr" v="600239" />
	</node>
	<node id="-753711" lat="69.5067555569" lon="17.4219444325">
		<tag k="name" v="Bjørnhollan" />
		<tag k="natural" v="valley" />
		<tag k="place" v="locality" />
		<tag k="ssr:stedsnr" v="600236" />
	</node>
	<node id="-753710" lat="69.5067510528" lon="17.3937580505">
		<tag k="alt_name" v="Fjølhaugen" />
		<tag k="name" v="Fjølhøgget" />
		<tag k="natural" v="hill" />
		<tag k="place" v="locality" />
		<tag k="ssr:stedsnr" v="600230" />
	</node>
	<node id="-753708" lat="69.4979500012" lon="17.3812166704">
		<tag k="name" v="Bukkeforen" />
		<tag k="natural" v="slope" />
		<tag k="place" v="locality" />
		<tag k="ssr:stedsnr" v="600229" />
	</node>
	<node id="-753705" lat="69.4663916683" lon="17.4874666567">
		<tag k="name" v="Roaldslegda" />
		<tag k="natural" v="slope" />
		<tag k="place" v="locality" />
		<tag k="ssr:stedsnr" v="600150" />
	</node>
	<node id="-753704" lat="69.481458337" lon="17.4233527813">
		<tag k="name" v="Hjelmen" />
		<tag k="natural" v="slope" />
		<tag k="place" v="locality" />
		<tag k="ssr:stedsnr" v="600132" />
	</node>
	<node id="-753703" lat="69.4800083325" lon="17.4284305445">
		<tag k="name" v="Breilia" />
		<tag k="natural" v="slope" />
		<tag k="place" v="locality" />
		<tag k="ssr:stedsnr" v="600131" />
	</node>
	<node id="-753702" lat="69.4808333326" lon="17.4331333283">
		<tag k="name" v="Snykollaksla" />
		<tag k="place" v="locality" />
		<tag k="ssr:stedsnr" v="600126" />
	</node>
	<node id="-753698" lat="69.4846777821" lon="17.4822416542">
		<tag k="name" v="Roaldshågen" />
		<tag k="natural" v="hill" />
		<tag k="place" v="locality" />
		<tag k="ssr:stedsnr" v="600069" />
	</node>
	<node id="-753697" lat="69.4934777788" lon="17.5215222208">
		<tag k="fixme" v="consider natural=peak for the most distinct mountains in the district" />
		<tag k="name" v="Bringtåa" />
		<tag k="natural" v="hill" />
		<tag k="place" v="locality" />
		<tag k="ssr:stedsnr" v="600065" />
	</node>
	<node id="-753696" lat="69.4407638919" lon="17.487977767">
		<tag k="name" v="Gånglia" />
		<tag k="natural" v="slope" />
		<tag k="place" v="locality" />
		<tag k="ssr:stedsnr" v="600019" />
	</node>
	<node id="-753695" lat="69.4675444459" lon="17.2385666549">
		<tag k="name" v="Rundhaugen" />
		<tag k="natural" v="hill" />
		<tag k="place" v="locality" />
		<tag k="ssr:stedsnr" v="599374" />
	</node>
	<node id="-753692" lat="69.4537611152" lon="17.2586833393">
		<tag k="name" v="Storhaugen" />
		<tag k="natural" v="hill" />
		<tag k="place" v="locality" />
		<tag k="ssr:stedsnr" v="599261" />
	</node>
	<node id="-753687" lat="69.4424444411" lon="17.3605722101">
		<tag k="name" v="Vedhoggflaten" />
		<tag k="natural" v="ridge" />
		<tag k="place" v="locality" />
		<tag k="ssr:stedsnr" v="598869" />
	</node>
	<node id="-753686" lat="69.3623333335" lon="17.4208805656">
		<tag k="fixme" v="consider natural=peak for the most distinct mountains in the district" />
		<tag k="name" v="Aspåsen" />
		<tag k="natural" v="hill" />
		<tag k="place" v="locality" />
		<tag k="ssr:stedsnr" v="598853" />
	</node>
	<node id="-753685" lat="69.4456527767" lon="17.3504638958">
		<tag k="name" v="Sommerrabben" />
		<tag k="natural" v="hill" />
		<tag k="place" v="locality" />
		<tag k="ssr:stedsnr" v="598761" />
	</node>
	<node id="-753683" lat="69.4820000038" lon="17.2220138935">
		<tag k="name" v="Bardneslian" />
		<tag k="natural" v="slope" />
		<tag k="place" v="locality" />
		<tag k="ssr:stedsnr" v="598670" />
	</node>
	<node id="-753682" lat="69.4837027736" lon="17.254547229">
		<tag k="name" v="Vassbakken" />
		<tag k="natural" v="slope" />
		<tag k="place" v="locality" />
		<tag k="ssr:stedsnr" v="598641" />
	</node>
	<node id="-753681" lat="69.4367805528" lon="17.3794722177">
		<tag k="name" v="Steinlia" />
		<tag k="natural" v="slope" />
		<tag k="place" v="locality" />
		<tag k="ssr:stedsnr" v="598582" />
	</node>
	<node id="-753680" lat="69.4387361118" lon="17.393874992">
		<tag k="name" v="Rundkollen" />
		<tag k="natural" v="hill" />
		<tag k="place" v="locality" />
		<tag k="ssr:stedsnr" v="598580" />
	</node>
	<node id="-753678" lat="69.4152805523" lon="17.3080055493">
		<tag k="name" v="Smibakken" />
		<tag k="natural" v="slope" />
		<tag k="place" v="locality" />
		<tag k="ssr:stedsnr" v="598512" />
	</node>
	<node id="-753677" lat="69.4143722233" lon="17.3174638843">
		<tag k="name" v="Bjørnholla" />
		<tag k="natural" v="valley" />
		<tag k="place" v="locality" />
		<tag k="ssr:stedsnr" v="598510" />
	</node>
	<node id="-753669" lat="69.4695472212" lon="17.2983388922">
		<tag k="name" v="Sommarsletta" />
		<tag k="place" v="locality" />
		<tag k="ssr:stedsnr" v="598079" />
	</node>
	<node id="-753666" lat="69.4739749982" lon="17.3523222175">
		<tag k="fixme" v="consider natural=peak for the most distinct mountains in the district" />
		<tag k="name" v="Ytterskåla" />
		<tag k="natural" v="hill" />
		<tag k="place" v="locality" />
		<tag k="ssr:stedsnr" v="598058" />
	</node>
</osm>
