<?xml version="1.0" encoding="UTF-8"?>
<osm version="0.6" generator="osmapis">
	<node lat="64.62758888764844" lon="12.300419441896036" id="-89303">
		<tag k="name" v="Høylandet kommune" />
		<tag k="ssr:date" v="2018-01-09" />
		<tag k="ssr:gruppe" v="administrativeIndelinger" />
		<tag k="ssr:hovedgruppe" v="offentligAdministrasjon" />
		<tag k="ssr:stedsnr" v="451318" />
		<tag k="ssr:type" v="kommune" />
	</node>
	<node lat="64.61129455791676" lon="12.271917585905546" id="-89775">
		<tag k="name" v="Vaddamoen" />
		<tag k="ssr:date" v="2019-05-31" />
		<tag k="ssr:gruppe" v="veg" />
		<tag k="ssr:hovedgruppe" v="infrastruktur" />
		<tag k="ssr:stedsnr" v="974504" />
		<tag k="ssr:type" v="adressenavn" />
	</node>
	<node lat="64.62614696904228" lon="12.282086033288751" id="-89779">
		<tag k="name" v="Kviståsvegen" />
		<tag k="ssr:date" v="2019-05-31" />
		<tag k="ssr:gruppe" v="veg" />
		<tag k="ssr:hovedgruppe" v="infrastruktur" />
		<tag k="ssr:stedsnr" v="974508" />
		<tag k="ssr:type" v="adressenavn" />
	</node>
	<node lat="64.62413902869184" lon="12.289512351789542" id="-89780">
		<tag k="name" v="Litlengvegen" />
		<tag k="ssr:date" v="2019-05-31" />
		<tag k="ssr:gruppe" v="veg" />
		<tag k="ssr:hovedgruppe" v="infrastruktur" />
		<tag k="ssr:stedsnr" v="974509" />
		<tag k="ssr:type" v="adressenavn" />
	</node>
	<node lat="64.62541128723463" lon="12.310038321164507" id="-89782">
		<tag k="name" v="Lonbakkvegen" />
		<tag k="ssr:date" v="2019-05-31" />
		<tag k="ssr:gruppe" v="veg" />
		<tag k="ssr:hovedgruppe" v="infrastruktur" />
		<tag k="ssr:stedsnr" v="974511" />
		<tag k="ssr:type" v="adressenavn" />
	</node>
	<node lat="64.61552482401855" lon="12.335769439819849" id="-89785">
		<tag k="name" v="Brembu" />
		<tag k="ssr:date" v="2019-05-31" />
		<tag k="ssr:gruppe" v="veg" />
		<tag k="ssr:hovedgruppe" v="infrastruktur" />
		<tag k="ssr:stedsnr" v="974514" />
		<tag k="ssr:type" v="adressenavn" />
	</node>
	<node lat="64.62919602698346" lon="12.30412628502032" id="-89786">
		<tag k="name" v="Børstad" />
		<tag k="ssr:date" v="2019-05-31" />
		<tag k="ssr:gruppe" v="veg" />
		<tag k="ssr:hovedgruppe" v="infrastruktur" />
		<tag k="ssr:stedsnr" v="974515" />
		<tag k="ssr:type" v="adressenavn" />
	</node>
	<node lat="64.63256170472268" lon="12.312304483834367" id="-89787">
		<tag k="name" v="Okstad" />
		<tag k="ssr:date" v="2019-05-31" />
		<tag k="ssr:gruppe" v="veg" />
		<tag k="ssr:hovedgruppe" v="infrastruktur" />
		<tag k="ssr:stedsnr" v="974516" />
		<tag k="ssr:type" v="adressenavn" />
	</node>
	<node lat="64.64219747630985" lon="12.3069911495548" id="-89788">
		<tag k="name" v="Almås" />
		<tag k="ssr:date" v="2019-05-31" />
		<tag k="ssr:gruppe" v="veg" />
		<tag k="ssr:hovedgruppe" v="infrastruktur" />
		<tag k="ssr:stedsnr" v="974517" />
		<tag k="ssr:type" v="adressenavn" />
	</node>
	<node lat="64.64219747630985" lon="12.3069911495548" id="-89790">
		<tag k="name" v="Skrøyvdalsvegen" />
		<tag k="ssr:date" v="2019-05-31" />
		<tag k="ssr:gruppe" v="veg" />
		<tag k="ssr:hovedgruppe" v="infrastruktur" />
		<tag k="ssr:stedsnr" v="974519" />
		<tag k="ssr:type" v="adressenavn" />
	</node>
	<node lat="64.64953992547119" lon="12.329874748299876" id="-89791">
		<tag k="name" v="Flakken" />
		<tag k="ssr:date" v="2019-05-31" />
		<tag k="ssr:gruppe" v="veg" />
		<tag k="ssr:hovedgruppe" v="infrastruktur" />
		<tag k="ssr:stedsnr" v="974520" />
		<tag k="ssr:type" v="adressenavn" />
	</node>
	<node lat="64.66422646624848" lon="12.32911573425218" id="-89792">
		<tag k="name" v="Mjøsundet" />
		<tag k="ssr:date" v="2019-05-31" />
		<tag k="ssr:gruppe" v="veg" />
		<tag k="ssr:hovedgruppe" v="infrastruktur" />
		<tag k="ssr:stedsnr" v="974521" />
		<tag k="ssr:type" v="adressenavn" />
	</node>
	<node lat="64.63554299116093" lon="12.132346768353976" id="-89793">
		<tag k="name" v="Storgrønningen" />
		<tag k="ssr:date" v="2019-05-31" />
		<tag k="ssr:gruppe" v="veg" />
		<tag k="ssr:hovedgruppe" v="infrastruktur" />
		<tag k="ssr:stedsnr" v="974522" />
		<tag k="ssr:type" v="adressenavn" />
	</node>
	<node lat="64.62200841050922" lon="12.153769663789983" id="-89795">
		<tag k="name" v="Langvatnet" />
		<tag k="ssr:date" v="2019-05-31" />
		<tag k="ssr:gruppe" v="veg" />
		<tag k="ssr:hovedgruppe" v="infrastruktur" />
		<tag k="ssr:stedsnr" v="974524" />
		<tag k="ssr:type" v="adressenavn" />
	</node>
	<node lat="64.71758384101753" lon="12.401767111705961" id="-89796">
		<tag k="name" v="Grønlifjellet" />
		<tag k="ssr:date" v="2019-05-31" />
		<tag k="ssr:gruppe" v="veg" />
		<tag k="ssr:hovedgruppe" v="infrastruktur" />
		<tag k="ssr:stedsnr" v="974525" />
		<tag k="ssr:type" v="adressenavn" />
	</node>
	<node lat="64.75526278201923" lon="12.3439711345774" id="-89801">
		<tag k="name" v="Sundodden" />
		<tag k="ssr:date" v="2018-07-02" />
		<tag k="ssr:gruppe" v="veg" />
		<tag k="ssr:hovedgruppe" v="infrastruktur" />
		<tag k="ssr:stedsnr" v="985528" />
		<tag k="ssr:type" v="adressetilleggsnavn" />
	</node>
	<node lat="64.56304086231809" lon="12.196894551755324" id="-89802">
		<tag k="name" v="Heggli" />
		<tag k="ssr:date" v="2018-07-02" />
		<tag k="ssr:gruppe" v="veg" />
		<tag k="ssr:hovedgruppe" v="infrastruktur" />
		<tag k="ssr:stedsnr" v="985529" />
		<tag k="ssr:type" v="adressetilleggsnavn" />
	</node>
	<node lat="64.64104461204724" lon="12.327733016640106" id="-89803">
		<tag k="name" v="Skarland" />
		<tag k="ssr:date" v="2018-07-02" />
		<tag k="ssr:gruppe" v="veg" />
		<tag k="ssr:hovedgruppe" v="infrastruktur" />
		<tag k="ssr:stedsnr" v="985530" />
		<tag k="ssr:type" v="adressetilleggsnavn" />
	</node>
	<node lat="64.63855055996306" lon="12.328966879770388" id="-89804">
		<tag k="name" v="Skarland" />
		<tag k="ssr:date" v="2018-07-02" />
		<tag k="ssr:gruppe" v="veg" />
		<tag k="ssr:hovedgruppe" v="infrastruktur" />
		<tag k="ssr:stedsnr" v="985531" />
		<tag k="ssr:type" v="adressetilleggsnavn" />
	</node>
	<node lat="64.62352854754234" lon="12.287110705765683" id="-89805">
		<tag k="name" v="Storenget" />
		<tag k="ssr:date" v="2018-07-02" />
		<tag k="ssr:gruppe" v="veg" />
		<tag k="ssr:hovedgruppe" v="infrastruktur" />
		<tag k="ssr:stedsnr" v="985532" />
		<tag k="ssr:type" v="adressetilleggsnavn" />
	</node>
	<node lat="64.62384676924609" lon="12.288466532392004" id="-89814">
		<tag k="name" v="Solhaug" />
		<tag k="ssr:date" v="2021-06-08" />
		<tag k="ssr:gruppe" v="veg" />
		<tag k="ssr:hovedgruppe" v="infrastruktur" />
		<tag k="ssr:stedsnr" v="985543" />
		<tag k="ssr:type" v="adressetilleggsnavn" />
	</node>
	<node lat="64.56647627616705" lon="12.317891317070785" id="-90676">
		<tag k="name" v="Hjartåsen" />
		<tag k="ssr:date" v="2019-05-31" />
		<tag k="ssr:gruppe" v="veg" />
		<tag k="ssr:hovedgruppe" v="infrastruktur" />
		<tag k="ssr:stedsnr" v="974526" />
		<tag k="ssr:type" v="adressenavn" />
	</node>
	<node lat="64.7515187596533" lon="12.247870342088271" id="-90677">
		<tag k="name" v="Fiskløysvatnet" />
		<tag k="ssr:date" v="2019-05-31" />
		<tag k="ssr:gruppe" v="veg" />
		<tag k="ssr:hovedgruppe" v="infrastruktur" />
		<tag k="ssr:stedsnr" v="974527" />
		<tag k="ssr:type" v="adressenavn" />
	</node>
	<node lat="64.79935460557073" lon="12.272129252244108" id="-90678">
		<tag k="name" v="Store Fiskåvatnet" />
		<tag k="ssr:date" v="2019-05-31" />
		<tag k="ssr:gruppe" v="veg" />
		<tag k="ssr:hovedgruppe" v="infrastruktur" />
		<tag k="ssr:stedsnr" v="974528" />
		<tag k="ssr:type" v="adressenavn" />
	</node>
	<node lat="64.81273220030482" lon="12.322998397126248" id="-90679">
		<tag k="name" v="Svangan" />
		<tag k="ssr:date" v="2019-05-31" />
		<tag k="ssr:gruppe" v="veg" />
		<tag k="ssr:hovedgruppe" v="infrastruktur" />
		<tag k="ssr:stedsnr" v="974529" />
		<tag k="ssr:type" v="adressenavn" />
	</node>
	<node lat="64.57932789760609" lon="12.318881926894383" id="-90681">
		<tag k="name" v="Hammersetran" />
		<tag k="ssr:date" v="2019-05-31" />
		<tag k="ssr:gruppe" v="veg" />
		<tag k="ssr:hovedgruppe" v="infrastruktur" />
		<tag k="ssr:stedsnr" v="974531" />
		<tag k="ssr:type" v="adressenavn" />
	</node>
	<node lat="64.57738137387095" lon="12.294305195263018" id="-90683">
		<tag k="name" v="Strupengåsen" />
		<tag k="ssr:date" v="2019-05-31" />
		<tag k="ssr:gruppe" v="veg" />
		<tag k="ssr:hovedgruppe" v="infrastruktur" />
		<tag k="ssr:stedsnr" v="974533" />
		<tag k="ssr:type" v="adressenavn" />
	</node>
	<node lat="64.63020752851787" lon="12.478225574971429" id="-90686">
		<tag k="name" v="Skarlandsvatnet" />
		<tag k="ssr:date" v="2019-05-31" />
		<tag k="ssr:gruppe" v="veg" />
		<tag k="ssr:hovedgruppe" v="infrastruktur" />
		<tag k="ssr:stedsnr" v="974536" />
		<tag k="ssr:type" v="adressenavn" />
	</node>
	<node lat="64.64076534154681" lon="12.387056737064697" id="-90688">
		<tag k="name" v="Råsetran" />
		<tag k="ssr:date" v="2019-05-31" />
		<tag k="ssr:gruppe" v="veg" />
		<tag k="ssr:hovedgruppe" v="infrastruktur" />
		<tag k="ssr:stedsnr" v="974538" />
		<tag k="ssr:type" v="adressenavn" />
	</node>
	<node lat="64.65940838399912" lon="12.375042739634877" id="-90689">
		<tag k="name" v="Råumsetran" />
		<tag k="ssr:date" v="2019-05-31" />
		<tag k="ssr:gruppe" v="veg" />
		<tag k="ssr:hovedgruppe" v="infrastruktur" />
		<tag k="ssr:stedsnr" v="974539" />
		<tag k="ssr:type" v="adressenavn" />
	</node>
	<node lat="64.69063482334111" lon="12.519556131706427" id="-90690">
		<tag k="name" v="Besvatnet" />
		<tag k="ssr:date" v="2019-05-31" />
		<tag k="ssr:gruppe" v="veg" />
		<tag k="ssr:hovedgruppe" v="infrastruktur" />
		<tag k="ssr:stedsnr" v="974540" />
		<tag k="ssr:type" v="adressenavn" />
	</node>
	<node lat="64.6666319502587" lon="12.151747209603492" id="-90691">
		<tag k="name" v="Tverråa" />
		<tag k="ssr:date" v="2019-05-31" />
		<tag k="ssr:gruppe" v="veg" />
		<tag k="ssr:hovedgruppe" v="infrastruktur" />
		<tag k="ssr:stedsnr" v="974541" />
		<tag k="ssr:type" v="adressenavn" />
	</node>
	<node lat="64.76582979866487" lon="12.392050622386463" id="-90693">
		<tag k="name" v="Hundsåvatnet" />
		<tag k="ssr:date" v="2019-05-31" />
		<tag k="ssr:gruppe" v="veg" />
		<tag k="ssr:hovedgruppe" v="infrastruktur" />
		<tag k="ssr:stedsnr" v="974543" />
		<tag k="ssr:type" v="adressenavn" />
	</node>
	<node lat="64.82363451510922" lon="12.403941762224962" id="-90694">
		<tag k="name" v="Neppen" />
		<tag k="ssr:date" v="2020-01-29" />
		<tag k="ssr:gruppe" v="veg" />
		<tag k="ssr:hovedgruppe" v="infrastruktur" />
		<tag k="ssr:stedsnr" v="974544" />
		<tag k="ssr:type" v="adressenavn" />
	</node>
	<node lat="64.86082128754086" lon="12.367734240190233" id="-90695">
		<tag k="name" v="Bjørtjønndalen" />
		<tag k="ssr:date" v="2019-05-31" />
		<tag k="ssr:gruppe" v="veg" />
		<tag k="ssr:hovedgruppe" v="infrastruktur" />
		<tag k="ssr:stedsnr" v="974545" />
		<tag k="ssr:type" v="adressenavn" />
	</node>
	<node lat="64.88560457169326" lon="12.459637333561638" id="-90696">
		<tag k="name" v="Første Aunvatnet" />
		<tag k="ssr:date" v="2019-05-31" />
		<tag k="ssr:gruppe" v="veg" />
		<tag k="ssr:hovedgruppe" v="infrastruktur" />
		<tag k="ssr:stedsnr" v="974546" />
		<tag k="ssr:type" v="adressenavn" />
	</node>
	<node lat="64.89664286214563" lon="12.528947262639862" id="-90697">
		<tag k="name" v="Andre Aunvatnet" />
		<tag k="ssr:date" v="2019-05-31" />
		<tag k="ssr:gruppe" v="veg" />
		<tag k="ssr:hovedgruppe" v="infrastruktur" />
		<tag k="ssr:stedsnr" v="974547" />
		<tag k="ssr:type" v="adressenavn" />
	</node>
	<node lat="64.90719962399838" lon="12.51209189078563" id="-90698">
		<tag k="name" v="Kverntjønna" />
		<tag k="ssr:date" v="2019-05-31" />
		<tag k="ssr:gruppe" v="veg" />
		<tag k="ssr:hovedgruppe" v="infrastruktur" />
		<tag k="ssr:stedsnr" v="974548" />
		<tag k="ssr:type" v="adressenavn" />
	</node>
	<node lat="64.54888512124833" lon="12.164394335103562" id="-90702">
		<tag k="name" v="Eida" />
		<tag k="ssr:date" v="2019-05-31" />
		<tag k="ssr:gruppe" v="veg" />
		<tag k="ssr:hovedgruppe" v="infrastruktur" />
		<tag k="ssr:stedsnr" v="974498" />
		<tag k="ssr:type" v="adressenavn" />
	</node>
	<node lat="64.57473740432967" lon="12.243480896109986" id="-90704">
		<tag k="name" v="Mørkved" />
		<tag k="ssr:date" v="2019-05-31" />
		<tag k="ssr:gruppe" v="veg" />
		<tag k="ssr:hovedgruppe" v="infrastruktur" />
		<tag k="ssr:stedsnr" v="974501" />
		<tag k="ssr:type" v="adressenavn" />
	</node>
	<node lat="64.58174819420677" lon="12.202554542436483" id="-90705">
		<tag k="name" v="Grungstadvegen" />
		<tag k="ssr:date" v="2019-05-31" />
		<tag k="ssr:gruppe" v="veg" />
		<tag k="ssr:hovedgruppe" v="infrastruktur" />
		<tag k="ssr:stedsnr" v="974502" />
		<tag k="ssr:type" v="adressenavn" />
	</node>
	<node lat="64.64978110108629" lon="12.311045084966189" id="-90708">
		<tag k="name" v="Almåsberget" />
		<tag k="ssr:date" v="2018-07-02" />
		<tag k="ssr:gruppe" v="veg" />
		<tag k="ssr:hovedgruppe" v="infrastruktur" />
		<tag k="ssr:stedsnr" v="985523" />
		<tag k="ssr:type" v="adressetilleggsnavn" />
	</node>
	<node lat="64.65381389479175" lon="12.329138453546259" id="-90709">
		<tag k="name" v="Stemnet" />
		<tag k="ssr:date" v="2018-07-02" />
		<tag k="ssr:gruppe" v="veg" />
		<tag k="ssr:hovedgruppe" v="infrastruktur" />
		<tag k="ssr:stedsnr" v="985524" />
		<tag k="ssr:type" v="adressetilleggsnavn" />
	</node>
	<node lat="64.64616523261269" lon="12.326102696819929" id="-90710">
		<tag k="name" v="Brennbakken" />
		<tag k="ssr:date" v="2018-07-02" />
		<tag k="ssr:gruppe" v="veg" />
		<tag k="ssr:hovedgruppe" v="infrastruktur" />
		<tag k="ssr:stedsnr" v="985525" />
		<tag k="ssr:type" v="adressetilleggsnavn" />
	</node>
	<node lat="64.63951711342749" lon="12.316886551426062" id="-90711">
		<tag k="name" v="Hjorten" />
		<tag k="ssr:date" v="2021-12-01" />
		<tag k="ssr:gruppe" v="veg" />
		<tag k="ssr:hovedgruppe" v="infrastruktur" />
		<tag k="ssr:stedsnr" v="985526" />
		<tag k="ssr:type" v="adressetilleggsnavn" />
	</node>
	<node lat="64.54937849925078" lon="12.17766329447016" id="-90712">
		<tag k="name" v="Sagmoen" />
		<tag k="ssr:date" v="2018-07-02" />
		<tag k="ssr:gruppe" v="veg" />
		<tag k="ssr:hovedgruppe" v="infrastruktur" />
		<tag k="ssr:stedsnr" v="985527" />
		<tag k="ssr:type" v="adressetilleggsnavn" />
	</node>
	<node lat="64.64047944590858" lon="12.329902825008269" id="-90713">
		<tag k="name" v="Øvre Skarland" />
		<tag k="ssr:date" v="2021-06-08" />
		<tag k="ssr:gruppe" v="veg" />
		<tag k="ssr:hovedgruppe" v="infrastruktur" />
		<tag k="ssr:stedsnr" v="985545" />
		<tag k="ssr:type" v="adressetilleggsnavn" />
	</node>
</osm>
