<?xml version="1.0" encoding="UTF-8"?>
<osm version="0.6" generator="osmapis">
	<node lat="62.89073055861915" lon="8.33990555615368" id="-8857">
		<tag k="name" v="Røttingnes" />
		<tag k="ssr:date" v="2016-05-10" />
		<tag k="ssr:gruppe" v="navigasjon" />
		<tag k="ssr:hovedgruppe" v="infrastruktur" />
		<tag k="ssr:stedsnr" v="231447" />
		<tag k="ssr:type" v="lanterne" />
	</node>
	<node lat="62.911938892100245" lon="8.206744446572651" id="-9496">
		<tag k="alt_name" v="Tingvoll" />
		<tag k="name" v="Tingvoll kommune" />
		<tag k="ssr:date" v="2016-05-11" />
		<tag k="ssr:gruppe" v="administrativeIndelinger" />
		<tag k="ssr:hovedgruppe" v="offentligAdministrasjon" />
		<tag k="ssr:stedsnr" v="753804" />
		<tag k="ssr:type" v="kommune" />
	</node>
	<node lat="62.852067704036415" lon="8.293136986061853" id="-9717">
		<tag k="name" v="Meisingsetvegen" />
		<tag k="ssr:date" v="2019-05-31" />
		<tag k="ssr:gruppe" v="veg" />
		<tag k="ssr:hovedgruppe" v="infrastruktur" />
		<tag k="ssr:stedsnr" v="976282" />
		<tag k="ssr:type" v="adressenavn" />
	</node>
	<node lat="62.80723556727439" lon="8.330055475961073" id="-9720">
		<tag k="name" v="Havdalsvegen" />
		<tag k="ssr:date" v="2019-05-31" />
		<tag k="ssr:gruppe" v="veg" />
		<tag k="ssr:hovedgruppe" v="infrastruktur" />
		<tag k="ssr:stedsnr" v="976285" />
		<tag k="ssr:type" v="adressenavn" />
	</node>
	<node lat="62.816033300412" lon="8.28049558717683" id="-9721">
		<tag k="name" v="Fjøseid" />
		<tag k="ssr:date" v="2019-05-31" />
		<tag k="ssr:gruppe" v="veg" />
		<tag k="ssr:hovedgruppe" v="infrastruktur" />
		<tag k="ssr:stedsnr" v="976286" />
		<tag k="ssr:type" v="adressenavn" />
	</node>
	<node lat="62.85347742494936" lon="8.268448429814901" id="-9723">
		<tag k="name" v="Venåsvegen" />
		<tag k="ssr:date" v="2019-05-31" />
		<tag k="ssr:gruppe" v="veg" />
		<tag k="ssr:hovedgruppe" v="infrastruktur" />
		<tag k="ssr:stedsnr" v="976288" />
		<tag k="ssr:type" v="adressenavn" />
	</node>
	<node lat="62.862858086627384" lon="8.298225781706828" id="-9724">
		<tag k="name" v="Meisingsetvågen" />
		<tag k="ssr:date" v="2019-05-31" />
		<tag k="ssr:gruppe" v="veg" />
		<tag k="ssr:hovedgruppe" v="infrastruktur" />
		<tag k="ssr:stedsnr" v="976289" />
		<tag k="ssr:type" v="adressenavn" />
	</node>
	<node lat="62.9263317949" lon="8.277330212353256" id="-9727">
		<tag k="name" v="Holmeidstranda" />
		<tag k="ssr:date" v="2019-05-31" />
		<tag k="ssr:gruppe" v="veg" />
		<tag k="ssr:hovedgruppe" v="infrastruktur" />
		<tag k="ssr:stedsnr" v="976292" />
		<tag k="ssr:type" v="adressenavn" />
	</node>
	<node lat="62.91738141758486" lon="8.232484688317614" id="-9728">
		<tag k="name" v="Tørrlendvegen" />
		<tag k="ssr:date" v="2019-05-31" />
		<tag k="ssr:gruppe" v="veg" />
		<tag k="ssr:hovedgruppe" v="infrastruktur" />
		<tag k="ssr:stedsnr" v="976293" />
		<tag k="ssr:type" v="adressenavn" />
	</node>
	<node lat="63.02215576590034" lon="7.949421991508714" id="-9730">
		<tag k="name" v="Langmyra" />
		<tag k="ssr:date" v="2019-05-31" />
		<tag k="ssr:gruppe" v="veg" />
		<tag k="ssr:hovedgruppe" v="infrastruktur" />
		<tag k="ssr:stedsnr" v="976328" />
		<tag k="ssr:type" v="adressenavn" />
	</node>
	<node lat="62.99350291775243" lon="7.902370844106406" id="-9731">
		<tag k="name" v="Aspøyvegen" />
		<tag k="ssr:date" v="2019-05-31" />
		<tag k="ssr:gruppe" v="veg" />
		<tag k="ssr:hovedgruppe" v="infrastruktur" />
		<tag k="ssr:stedsnr" v="976329" />
		<tag k="ssr:type" v="adressenavn" />
	</node>
	<node lat="63.022057977162234" lon="7.889165854584607" id="-9733">
		<tag k="name" v="Porkvikvegen" />
		<tag k="ssr:date" v="2019-05-31" />
		<tag k="ssr:gruppe" v="veg" />
		<tag k="ssr:hovedgruppe" v="infrastruktur" />
		<tag k="ssr:stedsnr" v="976331" />
		<tag k="ssr:type" v="adressenavn" />
	</node>
	<node lat="63.01536156887725" lon="7.900745076193166" id="-9734">
		<tag k="name" v="Aspa" />
		<tag k="ssr:date" v="2019-05-31" />
		<tag k="ssr:gruppe" v="veg" />
		<tag k="ssr:hovedgruppe" v="infrastruktur" />
		<tag k="ssr:stedsnr" v="976332" />
		<tag k="ssr:type" v="adressenavn" />
	</node>
	<node lat="63.034457243507234" lon="7.91275257218708" id="-9739">
		<tag k="name" v="Sallaupen" />
		<tag k="ssr:date" v="2019-05-31" />
		<tag k="ssr:gruppe" v="veg" />
		<tag k="ssr:hovedgruppe" v="infrastruktur" />
		<tag k="ssr:stedsnr" v="976338" />
		<tag k="ssr:type" v="adressenavn" />
	</node>
	<node lat="62.99862914293107" lon="8.031318092173596" id="-9740">
		<tag k="name" v="Eikremsvegen" />
		<tag k="ssr:date" v="2019-05-31" />
		<tag k="ssr:gruppe" v="veg" />
		<tag k="ssr:hovedgruppe" v="infrastruktur" />
		<tag k="ssr:stedsnr" v="976339" />
		<tag k="ssr:type" v="adressenavn" />
	</node>
	<node lat="63.00195571292545" lon="8.017426327911783" id="-9741">
		<tag k="name" v="Øvre Eikrem" />
		<tag k="ssr:date" v="2019-05-31" />
		<tag k="ssr:gruppe" v="veg" />
		<tag k="ssr:hovedgruppe" v="infrastruktur" />
		<tag k="ssr:stedsnr" v="976340" />
		<tag k="ssr:type" v="adressenavn" />
	</node>
	<node lat="63.00194608949265" lon="8.015996869887658" id="-9742">
		<tag k="name" v="Strupnesvegen" />
		<tag k="ssr:date" v="2019-05-31" />
		<tag k="ssr:gruppe" v="veg" />
		<tag k="ssr:hovedgruppe" v="infrastruktur" />
		<tag k="ssr:stedsnr" v="976341" />
		<tag k="ssr:type" v="adressenavn" />
	</node>
	<node lat="63.00858528683731" lon="7.992591250569215" id="-9744">
		<tag k="name" v="Øygardsvegen" />
		<tag k="ssr:date" v="2019-05-31" />
		<tag k="ssr:gruppe" v="veg" />
		<tag k="ssr:hovedgruppe" v="infrastruktur" />
		<tag k="ssr:stedsnr" v="976343" />
		<tag k="ssr:type" v="adressenavn" />
	</node>
	<node lat="63.011996539337005" lon="8.001291080535575" id="-9745">
		<tag k="name" v="Straumsnesvegen" />
		<tag k="ssr:date" v="2019-05-31" />
		<tag k="ssr:gruppe" v="veg" />
		<tag k="ssr:hovedgruppe" v="infrastruktur" />
		<tag k="ssr:stedsnr" v="976344" />
		<tag k="ssr:type" v="adressenavn" />
	</node>
	<node lat="63.01541790318392" lon="8.002720218089502" id="-9749">
		<tag k="name" v="Langsetvågen" />
		<tag k="ssr:date" v="2019-05-31" />
		<tag k="ssr:gruppe" v="veg" />
		<tag k="ssr:hovedgruppe" v="infrastruktur" />
		<tag k="ssr:stedsnr" v="976348" />
		<tag k="ssr:type" v="adressenavn" />
	</node>
	<node lat="62.99778310746391" lon="8.028123359016593" id="-9762">
		<tag k="name" v="Tveekrem" />
		<tag k="ssr:date" v="2018-10-16" />
		<tag k="ssr:gruppe" v="veg" />
		<tag k="ssr:hovedgruppe" v="infrastruktur" />
		<tag k="ssr:stedsnr" v="987581" />
		<tag k="ssr:type" v="adressetilleggsnavn" />
	</node>
	<node lat="62.95709444564331" lon="8.333361111260835" id="-9841">
		<tag k="name" v="Aksnes" />
		<tag k="ssr:date" v="2016-05-10" />
		<tag k="ssr:gruppe" v="navigasjon" />
		<tag k="ssr:hovedgruppe" v="infrastruktur" />
		<tag k="ssr:stedsnr" v="48093" />
		<tag k="ssr:type" v="fyrlykt" />
	</node>
	<node lat="62.73392710705581" lon="7.14918030614603" id="-9939">
		<tag k="alt_name" v="Møre og Romsdal" />
		<tag k="name" v="Møre og Romsdal fylke" />
		<tag k="ssr:date" v="2021-09-21" />
		<tag k="ssr:gruppe" v="administrativeIndelinger" />
		<tag k="ssr:hovedgruppe" v="offentligAdministrasjon" />
		<tag k="ssr:stedsnr" v="145583" />
		<tag k="ssr:type" v="fylke" />
	</node>
	<node lat="62.91684741664819" lon="8.184023291346984" id="-10812">
		<tag k="name" v="Tingvollvegen" />
		<tag k="ssr:date" v="2019-05-31" />
		<tag k="ssr:gruppe" v="veg" />
		<tag k="ssr:hovedgruppe" v="infrastruktur" />
		<tag k="ssr:stedsnr" v="976296" />
		<tag k="ssr:type" v="adressenavn" />
	</node>
	<node lat="62.94579814728666" lon="8.170982567065103" id="-10813">
		<tag k="name" v="Torjulvågvegen" />
		<tag k="ssr:date" v="2019-05-31" />
		<tag k="ssr:gruppe" v="veg" />
		<tag k="ssr:hovedgruppe" v="infrastruktur" />
		<tag k="ssr:stedsnr" v="976297" />
		<tag k="ssr:type" v="adressenavn" />
	</node>
	<node lat="63.01046755080822" lon="7.972822077986382" id="-10819">
		<tag k="name" v="Arnvika" />
		<tag k="ssr:date" v="2019-05-31" />
		<tag k="ssr:gruppe" v="veg" />
		<tag k="ssr:hovedgruppe" v="infrastruktur" />
		<tag k="ssr:stedsnr" v="976324" />
		<tag k="ssr:type" v="adressenavn" />
	</node>
	<node lat="63.01441134203703" lon="7.98387276359211" id="-10821">
		<tag k="name" v="Fetavegen" />
		<tag k="ssr:date" v="2019-05-31" />
		<tag k="ssr:gruppe" v="veg" />
		<tag k="ssr:hovedgruppe" v="infrastruktur" />
		<tag k="ssr:stedsnr" v="976326" />
		<tag k="ssr:type" v="adressenavn" />
	</node>
	<node lat="63.01783874742507" lon="7.978248732861248" id="-10822">
		<tag k="name" v="Almlivegen" />
		<tag k="ssr:date" v="2019-05-31" />
		<tag k="ssr:gruppe" v="veg" />
		<tag k="ssr:hovedgruppe" v="infrastruktur" />
		<tag k="ssr:stedsnr" v="976327" />
		<tag k="ssr:type" v="adressenavn" />
	</node>
	<node lat="62.903659312192886" lon="8.193838431013194" id="-10823">
		<tag k="name" v="Rimstadbukta" />
		<tag k="ssr:date" v="2019-05-31" />
		<tag k="ssr:gruppe" v="veg" />
		<tag k="ssr:hovedgruppe" v="infrastruktur" />
		<tag k="ssr:stedsnr" v="976380" />
		<tag k="ssr:type" v="adressenavn" />
	</node>
	<node lat="63.03960743031103" lon="8.046075646823565" id="-10826">
		<tag k="name" v="Kvisvikvegen" />
		<tag k="ssr:date" v="2019-05-31" />
		<tag k="ssr:gruppe" v="veg" />
		<tag k="ssr:hovedgruppe" v="infrastruktur" />
		<tag k="ssr:stedsnr" v="976351" />
		<tag k="ssr:type" v="adressenavn" />
	</node>
	<node lat="63.033124838383664" lon="8.0153261621024" id="-10827">
		<tag k="name" v="Nålsundvegen" />
		<tag k="ssr:date" v="2019-05-31" />
		<tag k="ssr:gruppe" v="veg" />
		<tag k="ssr:hovedgruppe" v="infrastruktur" />
		<tag k="ssr:stedsnr" v="976357" />
		<tag k="ssr:type" v="adressenavn" />
	</node>
	<node lat="63.05152088574776" lon="8.023658270789449" id="-10829">
		<tag k="name" v="Grimstadvegen" />
		<tag k="ssr:date" v="2019-05-31" />
		<tag k="ssr:gruppe" v="veg" />
		<tag k="ssr:hovedgruppe" v="infrastruktur" />
		<tag k="ssr:stedsnr" v="976359" />
		<tag k="ssr:type" v="adressenavn" />
	</node>
	<node lat="63.054722516064" lon="7.981736245305401" id="-10832">
		<tag k="name" v="Vikavegen" />
		<tag k="ssr:date" v="2019-05-31" />
		<tag k="ssr:gruppe" v="veg" />
		<tag k="ssr:hovedgruppe" v="infrastruktur" />
		<tag k="ssr:stedsnr" v="976362" />
		<tag k="ssr:type" v="adressenavn" />
	</node>
	<node lat="63.067040675252606" lon="7.986885113533885" id="-10834">
		<tag k="name" v="Stabbursvikvegen" />
		<tag k="ssr:date" v="2019-05-31" />
		<tag k="ssr:gruppe" v="veg" />
		<tag k="ssr:hovedgruppe" v="infrastruktur" />
		<tag k="ssr:stedsnr" v="976364" />
		<tag k="ssr:type" v="adressenavn" />
	</node>
	<node lat="63.08104308535509" lon="7.971187000936612" id="-10835">
		<tag k="name" v="Jutvikvegen" />
		<tag k="ssr:date" v="2019-05-31" />
		<tag k="ssr:gruppe" v="veg" />
		<tag k="ssr:hovedgruppe" v="infrastruktur" />
		<tag k="ssr:stedsnr" v="976365" />
		<tag k="ssr:type" v="adressenavn" />
	</node>
	<node lat="63.08198464962925" lon="7.975272648159922" id="-10836">
		<tag k="name" v="Øvre Jutvika" />
		<tag k="ssr:date" v="2019-05-31" />
		<tag k="ssr:gruppe" v="veg" />
		<tag k="ssr:hovedgruppe" v="infrastruktur" />
		<tag k="ssr:stedsnr" v="976366" />
		<tag k="ssr:type" v="adressenavn" />
	</node>
	<node lat="63.087172367843955" lon="7.985968905122378" id="-10839">
		<tag k="name" v="Rausandvegen" />
		<tag k="ssr:date" v="2019-05-31" />
		<tag k="ssr:gruppe" v="veg" />
		<tag k="ssr:hovedgruppe" v="infrastruktur" />
		<tag k="ssr:stedsnr" v="976369" />
		<tag k="ssr:type" v="adressenavn" />
	</node>
	<node lat="63.101450932664" lon="8.050642106950399" id="-10843">
		<tag k="name" v="Saltkjelen" />
		<tag k="ssr:date" v="2019-05-31" />
		<tag k="ssr:gruppe" v="veg" />
		<tag k="ssr:hovedgruppe" v="infrastruktur" />
		<tag k="ssr:stedsnr" v="976373" />
		<tag k="ssr:type" v="adressenavn" />
	</node>
	<node lat="63.02901616620279" lon="8.107967968321717" id="-10844">
		<tag k="name" v="Vatnvegen" />
		<tag k="ssr:date" v="2019-05-31" />
		<tag k="ssr:gruppe" v="veg" />
		<tag k="ssr:hovedgruppe" v="infrastruktur" />
		<tag k="ssr:stedsnr" v="976374" />
		<tag k="ssr:type" v="adressenavn" />
	</node>
	<node lat="63.02589385333477" lon="8.14895457380576" id="-10845">
		<tag k="name" v="Fløystadvegen" />
		<tag k="ssr:date" v="2019-05-31" />
		<tag k="ssr:gruppe" v="veg" />
		<tag k="ssr:hovedgruppe" v="infrastruktur" />
		<tag k="ssr:stedsnr" v="976375" />
		<tag k="ssr:type" v="adressenavn" />
	</node>
	<node lat="63.03965802264446" lon="8.056904236551064" id="-10847">
		<tag k="name" v="Straumsvågen" />
		<tag k="ssr:date" v="2019-05-31" />
		<tag k="ssr:gruppe" v="veg" />
		<tag k="ssr:hovedgruppe" v="infrastruktur" />
		<tag k="ssr:stedsnr" v="976377" />
		<tag k="ssr:type" v="adressenavn" />
	</node>
	<node lat="63.09441531959815" lon="7.9724235467548805" id="-10848">
		<tag k="name" v="Årsundøya" />
		<tag k="ssr:date" v="2019-05-31" />
		<tag k="ssr:gruppe" v="veg" />
		<tag k="ssr:hovedgruppe" v="infrastruktur" />
		<tag k="ssr:stedsnr" v="976378" />
		<tag k="ssr:type" v="adressenavn" />
	</node>
	<node lat="62.8553558789899" lon="8.235067192188444" id="-10860">
		<tag k="name" v="Holtan" />
		<tag k="ssr:date" v="2018-04-10" />
		<tag k="ssr:gruppe" v="veg" />
		<tag k="ssr:hovedgruppe" v="infrastruktur" />
		<tag k="ssr:stedsnr" v="983542" />
		<tag k="ssr:type" v="adressetilleggsnavn" />
	</node>
</osm>
