<?xml version="1.0" encoding="UTF-8"?>
<osm version="0.6" generator="osmapis">
	<node id="301279858" lat="65.5962618" lon="13.990966" version="7" timestamp="2022-06-18T20:37:54Z" changeset="122560248" uid="3497659" user="NKA">
		<tag k="name" v="Aarborte - Hattfjelldal" />
		<tag k="name:no" v="Hattfjelldal" />
		<tag k="name:se" v="Árbordi" />
		<tag k="name:sma" v="Aarborte" />
		<tag k="old_name:sma" v="Aarporte" />
		<tag k="place" v="village" />
		<tag k="population" v="498" />
		<tag k="population:date" v="2021-01-01" />
		<tag k="ref:ssb_tettsted" v="7601" />
		<tag k="source:population" v="SSB - befolkning i tettstedet" />
		<tag k="ssr:stedsnr" v="753542" />
	</node>
	<node id="1818065125" lat="65.4526346" lon="14.4649726" version="3" timestamp="2022-06-18T20:37:54Z" changeset="122560248" uid="3497659" user="NKA">
		<tag k="alt_name" v="Skarmodal" />
		<tag k="name" v="Skardmodalen" />
		<tag k="place" v="farm" />
		<tag k="ssr:stedsnr" v="501670" />
	</node>
	<node id="1829795084" lat="65.5088893" lon="14.2172381" version="2" timestamp="2022-06-18T20:37:54Z" changeset="122560248" uid="3497659" user="NKA">
		<tag k="name" v="Tjåelmie - Tjolmen" />
		<tag k="name:no" v="Tjolmen" />
		<tag k="name:sma" v="Tjåelmie" />
		<tag k="place" v="hamlet" />
		<tag k="ssr:stedsnr" v="258183" />
	</node>
	<node id="2500917552" lat="65.725989" lon="14.0757965" version="5" timestamp="2022-06-18T20:37:54Z" changeset="122560248" uid="3497659" user="NKA">
		<tag k="alt_name" v="Krutnes" />
		<tag k="name" v="Krutneset" />
		<tag k="place" v="farm" />
		<tag k="ssr:stedsnr" v="379283" />
	</node>
	<node id="4222841522" lat="65.4864604" lon="14.3170424" version="2" timestamp="2022-06-18T20:37:54Z" changeset="122560248" uid="3497659" user="NKA">
		<tag k="name" v="Grannes" />
		<tag k="place" v="hamlet" />
		<tag k="ssr:stedsnr" v="683731" />
	</node>
	<node id="4222841523" lat="65.3266911" lon="14.4178728" version="2" timestamp="2022-06-18T20:37:54Z" changeset="122560248" uid="3497659" user="NKA">
		<tag k="name" v="Harvasstua" />
		<tag k="place" v="hamlet" />
		<tag k="ssr:stedsnr" v="198709" />
	</node>
	<node id="4222841524" lat="65.5763555" lon="14.3216084" version="2" timestamp="2022-06-18T20:37:54Z" changeset="122560248" uid="3497659" user="NKA">
		<tag k="name" v="Tverrelvnes" />
		<tag k="place" v="farm" />
		<tag k="ssr:stedsnr" v="76843" />
	</node>
	<node id="9829080608" lat="65.5930074" lon="13.9864479" version="1" timestamp="2022-06-18T20:37:54Z" changeset="122560248" uid="3497659" user="NKA">
		<tag k="name" v="Utgård" />
		<tag k="place" v="farm" />
		<tag k="ssr:stedsnr" v="155986" />
	</node>
	<node id="9829080609" lat="65.8564875" lon="14.2047806" version="1" timestamp="2022-06-18T20:37:54Z" changeset="122560248" uid="3497659" user="NKA">
		<tag k="alt_name" v="Meisvik" />
		<tag k="name" v="Meisvika" />
		<tag k="place" v="farm" />
		<tag k="ssr:stedsnr" v="258177" />
	</node>
	<node id="9829080610" lat="65.849575" lon="14.1921444" version="1" timestamp="2022-06-18T20:37:54Z" changeset="122560248" uid="3497659" user="NKA">
		<tag k="name" v="Hjartfjellneset" />
		<tag k="place" v="farm" />
		<tag k="ssr:stedsnr" v="76182" />
	</node>
	<node id="9829080611" lat="65.858775" lon="14.2200112" version="1" timestamp="2022-06-18T20:37:54Z" changeset="122560248" uid="3497659" user="NKA">
		<tag k="name" v="Bakketun" />
		<tag k="place" v="farm" />
		<tag k="ssr:stedsnr" v="76040" />
	</node>
	<node id="9829080612" lat="65.3662105" lon="14.1525366" version="1" timestamp="2022-06-18T20:37:54Z" changeset="122560248" uid="3497659" user="NKA">
		<tag k="name" v="Solvang" />
		<tag k="place" v="farm" />
		<tag k="ssr:stedsnr" v="500804" />
	</node>
	<node id="9829080613" lat="65.6101972" lon="14.0220667" version="1" timestamp="2022-06-18T20:37:54Z" changeset="122560248" uid="3497659" user="NKA">
		<tag k="name" v="Åsheim" />
		<tag k="place" v="farm" />
		<tag k="ssr:stedsnr" v="137082" />
	</node>
	<node id="9829080614" lat="65.736525" lon="14.06675" version="1" timestamp="2022-06-18T20:37:54Z" changeset="122560248" uid="3497659" user="NKA">
		<tag k="name" v="Brustad" />
		<tag k="place" v="farm" />
		<tag k="ssr:stedsnr" v="865313" />
	</node>
	<node id="9829080615" lat="65.369305" lon="14.1986111" version="1" timestamp="2022-06-18T20:37:54Z" changeset="122560248" uid="3497659" user="NKA">
		<tag k="name" v="Eggen" />
		<tag k="place" v="farm" />
		<tag k="ssr:stedsnr" v="561773" />
	</node>
	<node id="9829080616" lat="65.5259205" lon="14.0525078" version="1" timestamp="2022-06-18T20:37:54Z" changeset="122560248" uid="3497659" user="NKA">
		<tag k="name" v="Brenna" />
		<tag k="place" v="farm" />
		<tag k="ssr:stedsnr" v="76173" />
	</node>
	<node id="9829082217" lat="65.4406639" lon="14.0112529" version="1" timestamp="2022-06-18T20:37:54Z" changeset="122560248" uid="3497659" user="NKA">
		<tag k="name" v="Martavala" />
		<tag k="name:sma" v="Martavala" />
		<tag k="place" v="isolated_dwelling" />
		<tag k="ssr:stedsnr" v="499780" />
	</node>
	<node id="9829082218" lat="65.8402306" lon="14.1957417" version="1" timestamp="2022-06-18T20:37:54Z" changeset="122560248" uid="3497659" user="NKA">
		<tag k="alt_name" v="Sørli" />
		<tag k="name" v="Sørlia" />
		<tag k="place" v="farm" />
		<tag k="ssr:stedsnr" v="319152" />
	</node>
	<node id="9829082219" lat="65.3643556" lon="14.1636999" version="1" timestamp="2022-06-18T20:37:54Z" changeset="122560248" uid="3497659" user="NKA">
		<tag k="name" v="Sørstad" />
		<tag k="place" v="farm" />
		<tag k="ssr:stedsnr" v="561755" />
	</node>
	<node id="9829082220" lat="65.5457945" lon="14.0226639" version="1" timestamp="2022-06-18T20:37:54Z" changeset="122560248" uid="3497659" user="NKA">
		<tag k="name" v="Aune" />
		<tag k="place" v="farm" />
		<tag k="ssr:stedsnr" v="155502" />
	</node>
	<node id="9829082221" lat="65.8479694" lon="14.1962583" version="1" timestamp="2022-06-18T20:37:54Z" changeset="122560248" uid="3497659" user="NKA">
		<tag k="alt_name" v="Bjørklia" />
		<tag k="name" v="Bjørkli" />
		<tag k="place" v="farm" />
		<tag k="ssr:stedsnr" v="622168" />
	</node>
	<node id="9829082222" lat="65.574231" lon="14.340025" version="1" timestamp="2022-06-18T20:37:54Z" changeset="122560248" uid="3497659" user="NKA">
		<tag k="name" v="Garsmarka" />
		<tag k="place" v="farm" />
		<tag k="ssr:stedsnr" v="136820" />
	</node>
	<node id="9829082223" lat="65.3773278" lon="14.0201973" version="1" timestamp="2022-06-18T20:37:54Z" changeset="122560248" uid="3497659" user="NKA">
		<tag k="alt_name" v="Sørmoen" />
		<tag k="name" v="Sørmo" />
		<tag k="place" v="farm" />
		<tag k="ssr:stedsnr" v="379743" />
	</node>
	<node id="9829082224" lat="65.6600972" lon="14.1293278" version="1" timestamp="2022-06-18T20:37:54Z" changeset="122560248" uid="3497659" user="NKA">
		<tag k="name" v="Nergård" />
		<tag k="place" v="farm" />
		<tag k="ssr:stedsnr" v="379385" />
	</node>
	<node id="9829082225" lat="65.5940434" lon="13.9780123" version="1" timestamp="2022-06-18T20:37:54Z" changeset="122560248" uid="3497659" user="NKA">
		<tag k="name" v="Kjerkstad" />
		<tag k="place" v="farm" />
		<tag k="ssr:stedsnr" v="640842" />
	</node>
	<node id="9829082226" lat="65.4950383" lon="14.192738" version="1" timestamp="2022-06-18T20:37:54Z" changeset="122560248" uid="3497659" user="NKA">
		<tag k="alt_name" v="Bringlia" />
		<tag k="name" v="Bringli" />
		<tag k="place" v="farm" />
		<tag k="ssr:stedsnr" v="318865" />
	</node>
	<node id="9829082227" lat="65.4026222" lon="13.9981528" version="1" timestamp="2022-06-18T20:37:54Z" changeset="122560248" uid="3497659" user="NKA">
		<tag k="name" v="Bekkstad" />
		<tag k="place" v="farm" />
		<tag k="ssr:stedsnr" v="804788" />
	</node>
	<node id="9829082228" lat="65.5631138" lon="14.1481774" version="1" timestamp="2022-06-18T20:37:54Z" changeset="122560248" uid="3497659" user="NKA">
		<tag k="alt_name" v="Åsen, øvre" />
		<tag k="name" v="Øveråsen" />
		<tag k="place" v="farm" />
		<tag k="ssr:stedsnr" v="318177" />
	</node>
	<node id="9829082229" lat="65.6617445" lon="14.1341888" version="1" timestamp="2022-06-18T20:37:54Z" changeset="122560248" uid="3497659" user="NKA">
		<tag k="name" v="Moen" />
		<tag k="place" v="farm" />
		<tag k="ssr:stedsnr" v="276522" />
	</node>
	<node id="9829082230" lat="65.5909123" lon="14.00596" version="1" timestamp="2022-06-18T20:37:54Z" changeset="122560248" uid="3497659" user="NKA">
		<tag k="name" v="Haugen" />
		<tag k="place" v="neighbourhood" />
		<tag k="ssr:stedsnr" v="337997" />
	</node>
	<node id="9829082231" lat="65.3637795" lon="14.1228428" version="1" timestamp="2022-06-18T20:37:54Z" changeset="122560248" uid="3497659" user="NKA">
		<tag k="alt_name" v="Valli" />
		<tag k="name" v="Vallia" />
		<tag k="place" v="farm" />
		<tag k="ssr:stedsnr" v="743775" />
	</node>
	<node id="9829082232" lat="65.4020513" lon="13.9796974" version="1" timestamp="2022-06-18T20:37:54Z" changeset="122560248" uid="3497659" user="NKA">
		<tag k="name" v="Nyvoll" />
		<tag k="place" v="farm" />
		<tag k="ssr:stedsnr" v="440764" />
	</node>
	<node id="9829082233" lat="65.5046583" lon="14.3212056" version="1" timestamp="2022-06-18T20:37:54Z" changeset="122560248" uid="3497659" user="NKA">
		<tag k="historic" v="shieling" />
		<tag k="name" v="Ørnessetra" />
		<tag k="place" v="isolated_dwelling" />
		<tag k="ssr:stedsnr" v="216841" />
	</node>
	<node id="9829082234" lat="65.4046389" lon="13.9926695" version="1" timestamp="2022-06-18T20:37:54Z" changeset="122560248" uid="3497659" user="NKA">
		<tag k="name" v="Sande" />
		<tag k="place" v="farm" />
		<tag k="ssr:stedsnr" v="336500" />
	</node>
	<node id="9829082235" lat="65.6093333" lon="14.0321056" version="1" timestamp="2022-06-18T20:37:54Z" changeset="122560248" uid="3497659" user="NKA">
		<tag k="name" v="Granhaug" />
		<tag k="place" v="farm" />
		<tag k="ssr:stedsnr" v="683105" />
	</node>
	<node id="9829082236" lat="65.4669856" lon="14.009566" version="1" timestamp="2022-06-18T20:37:54Z" changeset="122560248" uid="3497659" user="NKA">
		<tag k="alt_name" v="Kvalpskardmo" />
		<tag k="name" v="Kvalpskardmoen" />
		<tag k="place" v="farm" />
		<tag k="ssr:stedsnr" v="561835" />
	</node>
	<node id="9829082237" lat="65.5921939" lon="14.0087536" version="1" timestamp="2022-06-18T20:37:54Z" changeset="122560248" uid="3497659" user="NKA">
		<tag k="name" v="Slettåsen" />
		<tag k="place" v="neighbourhood" />
		<tag k="ssr:stedsnr" v="440059" />
	</node>
	<node id="9829082238" lat="65.6754773" lon="14.0551207" version="1" timestamp="2022-06-18T20:37:54Z" changeset="122560248" uid="3497659" user="NKA">
		<tag k="name" v="Holmen" />
		<tag k="place" v="farm" />
		<tag k="ssr:stedsnr" v="440476" />
	</node>
	<node id="9829082239" lat="65.60195" lon="14.048739" version="1" timestamp="2022-06-18T20:37:54Z" changeset="122560248" uid="3497659" user="NKA">
		<tag k="name" v="Motun" />
		<tag k="place" v="farm" />
		<tag k="ssr:stedsnr" v="95580" />
	</node>
	<node id="9829082240" lat="65.6591412" lon="13.9623764" version="1" timestamp="2022-06-18T20:37:54Z" changeset="122560248" uid="3497659" user="NKA">
		<tag k="alt_name" v="Ruderås" />
		<tag k="name" v="Ruderåsen" />
		<tag k="place" v="farm" />
		<tag k="ssr:stedsnr" v="561396" />
	</node>
	<node id="9829082241" lat="65.400575" lon="14.0047501" version="1" timestamp="2022-06-18T20:37:54Z" changeset="122560248" uid="3497659" user="NKA">
		<tag k="name" v="Elvarheim" />
		<tag k="place" v="farm" />
		<tag k="ssr:stedsnr" v="76768" />
	</node>
	<node id="9829082242" lat="65.6186306" lon="14.0425278" version="1" timestamp="2022-06-18T20:37:54Z" changeset="122560248" uid="3497659" user="NKA">
		<tag k="name" v="Arnerud" />
		<tag k="place" v="farm" />
		<tag k="ssr:stedsnr" v="865145" />
	</node>
	<node id="9829082243" lat="65.6192389" lon="14.0187943" version="1" timestamp="2022-06-18T20:37:54Z" changeset="122560248" uid="3497659" user="NKA">
		<tag k="name" v="Øståsen" />
		<tag k="place" v="farm" />
		<tag k="ssr:stedsnr" v="76136" />
	</node>
	<node id="9829082244" lat="65.4890084" lon="14.0190611" version="1" timestamp="2022-06-18T20:37:54Z" changeset="122560248" uid="3497659" user="NKA">
		<tag k="name" v="Fredheim" />
		<tag k="place" v="farm" />
		<tag k="ssr:stedsnr" v="560861" />
	</node>
	<node id="9829082245" lat="65.612175" lon="14.037275" version="1" timestamp="2022-06-18T20:37:54Z" changeset="122560248" uid="3497659" user="NKA">
		<tag k="name" v="Vonheim" />
		<tag k="place" v="farm" />
		<tag k="ssr:stedsnr" v="319113" />
	</node>
	<node id="9829082246" lat="65.5807389" lon="14.2765388" version="1" timestamp="2022-06-18T20:37:54Z" changeset="122560248" uid="3497659" user="NKA">
		<tag k="alt_name" v="Bratland" />
		<tag k="name" v="Brattland" />
		<tag k="place" v="farm" />
		<tag k="ssr:stedsnr" v="744845" />
	</node>
	<node id="9829082247" lat="65.4982472" lon="14.2212945" version="1" timestamp="2022-06-18T20:37:54Z" changeset="122560248" uid="3497659" user="NKA">
		<tag k="name" v="Mikkeljordhytta" />
		<tag k="place" v="isolated_dwelling" />
		<tag k="ssr:stedsnr" v="823789" />
	</node>
	<node id="9829082248" lat="65.6686083" lon="14.1434028" version="1" timestamp="2022-06-18T20:37:54Z" changeset="122560248" uid="3497659" user="NKA">
		<tag k="name" v="Nordheim" />
		<tag k="place" v="farm" />
		<tag k="ssr:stedsnr" v="258384" />
	</node>
	<node id="9829082249" lat="65.675475" lon="13.8145029" version="1" timestamp="2022-06-18T20:37:54Z" changeset="122560248" uid="3497659" user="NKA">
		<tag k="name" v="Nermoen" />
		<tag k="place" v="farm" />
		<tag k="ssr:stedsnr" v="258464" />
	</node>
	<node id="9829082250" lat="65.6640207" lon="14.1368819" version="1" timestamp="2022-06-18T20:37:54Z" changeset="122560248" uid="3497659" user="NKA">
		<tag k="name" v="Gråbpoe - Grubben" />
		<tag k="name:no" v="Grubben" />
		<tag k="name:sma" v="Gråbpoe" />
		<tag k="place" v="hamlet" />
		<tag k="ssr:stedsnr" v="76410" />
	</node>
	<node id="9829082251" lat="65.4061083" lon="13.9758416" version="1" timestamp="2022-06-18T20:37:54Z" changeset="122560248" uid="3497659" user="NKA">
		<tag k="name" v="Bjørnstad" />
		<tag k="place" v="farm" />
		<tag k="ssr:stedsnr" v="440785" />
	</node>
	<node id="9829082252" lat="65.585154" lon="13.8130621" version="1" timestamp="2022-06-18T20:37:54Z" changeset="122560248" uid="3497659" user="NKA">
		<tag k="alt_name" v="Gryteselv" />
		<tag k="name" v="Gryteselva" />
		<tag k="place" v="hamlet" />
		<tag k="ssr:stedsnr" v="258015" />
	</node>
	<node id="9829082253" lat="65.810076" lon="14.1634158" version="1" timestamp="2022-06-18T20:37:54Z" changeset="122560248" uid="3497659" user="NKA">
		<tag k="name" v="Tolkmoen" />
		<tag k="place" v="neighbourhood" />
		<tag k="ssr:stedsnr" v="283081" />
	</node>
	<node id="9829082254" lat="65.6082925" lon="14.0944473" version="1" timestamp="2022-06-18T20:37:54Z" changeset="122560248" uid="3497659" user="NKA">
		<tag k="alt_name" v="Sirijord" />
		<tag k="name" v="Sirijorda" />
		<tag k="place" v="farm" />
		<tag k="ssr:stedsnr" v="258033" />
	</node>
	<node id="9829082255" lat="65.3675242" lon="14.110723" version="1" timestamp="2022-06-18T20:37:54Z" changeset="122560248" uid="3497659" user="NKA">
		<tag k="name" v="Skundberg" />
		<tag k="place" v="farm" />
		<tag k="ssr:stedsnr" v="136780" />
	</node>
	<node id="9829082256" lat="65.595346" lon="13.901039" version="1" timestamp="2022-06-18T20:37:54Z" changeset="122560248" uid="3497659" user="NKA">
		<tag k="name" v="Melkarlia" />
		<tag k="place" v="farm" />
		<tag k="ssr:stedsnr" v="197009" />
	</node>
	<node id="9829082257" lat="65.6017388" lon="14.0402666" version="1" timestamp="2022-06-18T20:37:54Z" changeset="122560248" uid="3497659" user="NKA">
		<tag k="name" v="Myra" />
		<tag k="place" v="farm" />
		<tag k="ssr:stedsnr" v="804035" />
	</node>
	<node id="9829082258" lat="65.5256898" lon="14.2154959" version="1" timestamp="2022-06-18T20:37:54Z" changeset="122560248" uid="3497659" user="NKA">
		<tag k="name" v="Skogstue" />
		<tag k="place" v="isolated_dwelling" />
		<tag k="ssr:stedsnr" v="33872" />
	</node>
	<node id="9829082259" lat="65.4645473" lon="14.3507999" version="1" timestamp="2022-06-18T20:37:54Z" changeset="122560248" uid="3497659" user="NKA">
		<tag k="alt_name" v="Asplia" />
		<tag k="name" v="Aspli" />
		<tag k="place" v="farm" />
		<tag k="ssr:stedsnr" v="136756" />
	</node>
	<node id="9829082260" lat="65.6070306" lon="13.9493777" version="1" timestamp="2022-06-18T20:37:54Z" changeset="122560248" uid="3497659" user="NKA">
		<tag k="name" v="Sagstua" />
		<tag k="place" v="farm" />
		<tag k="ssr:stedsnr" v="276616" />
	</node>
	<node id="9829082261" lat="65.6010514" lon="13.9028979" version="1" timestamp="2022-06-18T20:37:54Z" changeset="122560248" uid="3497659" user="NKA">
		<tag k="name" v="Austmoen" />
		<tag k="place" v="farm" />
		<tag k="ssr:stedsnr" v="743029" />
	</node>
	<node id="9829082262" lat="65.7067887" lon="14.0132785" version="1" timestamp="2022-06-18T20:37:54Z" changeset="122560248" uid="3497659" user="NKA">
		<tag k="name" v="Sandneset" />
		<tag k="place" v="farm" />
		<tag k="ssr:stedsnr" v="743450" />
	</node>
	<node id="9829082263" lat="65.7959416" lon="14.4854561" version="1" timestamp="2022-06-18T20:37:54Z" changeset="122560248" uid="3497659" user="NKA">
		<tag k="name" v="Skjelmoen" />
		<tag k="place" v="farm" />
		<tag k="ssr:stedsnr" v="76484" />
	</node>
	<node id="9829082264" lat="65.6876445" lon="14.1658668" version="1" timestamp="2022-06-18T20:37:54Z" changeset="122560248" uid="3497659" user="NKA">
		<tag k="name" v="Nystuen" />
		<tag k="place" v="farm" />
		<tag k="ssr:stedsnr" v="33141" />
	</node>
	<node id="9829082265" lat="65.7907167" lon="14.4192444" version="1" timestamp="2022-06-18T20:37:54Z" changeset="122560248" uid="3497659" user="NKA">
		<tag k="name" v="Sørbukta" />
		<tag k="place" v="isolated_dwelling" />
		<tag k="ssr:stedsnr" v="665777" />
	</node>
	<node id="9829082266" lat="65.5861556" lon="14.0132778" version="1" timestamp="2022-06-18T20:37:54Z" changeset="122560248" uid="3497659" user="NKA">
		<tag k="name" v="Solum" />
		<tag k="place" v="farm" />
		<tag k="ssr:stedsnr" v="76082" />
	</node>
	<node id="9829082267" lat="65.3972615" lon="14.0096512" version="1" timestamp="2022-06-18T20:37:54Z" changeset="122560248" uid="3497659" user="NKA">
		<tag k="alt_name" v="Svenskvoll" />
		<tag k="name" v="Svenskvollen" />
		<tag k="place" v="hamlet" />
		<tag k="ssr:stedsnr" v="804785" />
	</node>
	<node id="9829082268" lat="65.8034722" lon="14.5222056" version="1" timestamp="2022-06-18T20:37:54Z" changeset="122560248" uid="3497659" user="NKA">
		<tag k="name" v="Ol-Monsaheimen" />
		<tag k="place" v="locality" />
		<tag k="ssr:stedsnr" v="891929" />
	</node>
	<node id="9829082269" lat="65.396744" lon="13.9846014" version="1" timestamp="2022-06-18T20:37:54Z" changeset="122560248" uid="3497659" user="NKA">
		<tag k="name" v="Vollan" />
		<tag k="place" v="farm" />
		<tag k="ssr:stedsnr" v="744761" />
	</node>
	<node id="9829082270" lat="65.5911578" lon="13.864538" version="1" timestamp="2022-06-18T20:37:54Z" changeset="122560248" uid="3497659" user="NKA">
		<tag k="name" v="Nabbli" />
		<tag k="place" v="farm" />
		<tag k="ssr:stedsnr" v="804033" />
	</node>
	<node id="9829082271" lat="65.6143" lon="14.0365527" version="1" timestamp="2022-06-18T20:37:54Z" changeset="122560248" uid="3497659" user="NKA">
		<tag k="alt_name" v="Sørmyra" />
		<tag k="name" v="Sørmyr" />
		<tag k="place" v="farm" />
		<tag k="ssr:stedsnr" v="16091" />
	</node>
	<node id="9829082272" lat="65.3783167" lon="14.0517362" version="1" timestamp="2022-06-18T20:37:54Z" changeset="122560248" uid="3497659" user="NKA">
		<tag k="name" v="Bråten" />
		<tag k="place" v="farm" />
		<tag k="ssr:stedsnr" v="15795" />
	</node>
	<node id="9829082273" lat="65.6472611" lon="14.0715056" version="1" timestamp="2022-06-18T20:37:54Z" changeset="122560248" uid="3497659" user="NKA">
		<tag k="alt_name" v="Steinlia" />
		<tag k="name" v="Steinli" />
		<tag k="place" v="farm" />
		<tag k="ssr:stedsnr" v="15455" />
	</node>
	<node id="9829082274" lat="65.6524028" lon="14.0529862" version="1" timestamp="2022-06-18T20:37:54Z" changeset="122560248" uid="3497659" user="NKA">
		<tag k="alt_name" v="Bjørkvika" />
		<tag k="name" v="Bjørkvik" />
		<tag k="place" v="farm" />
		<tag k="ssr:stedsnr" v="15454" />
	</node>
	<node id="9829082275" lat="65.6790834" lon="14.1719971" version="1" timestamp="2022-06-18T20:37:54Z" changeset="122560248" uid="3497659" user="NKA">
		<tag k="alt_name" v="Kjempeosen" />
		<tag k="name" v="Kjempos" />
		<tag k="place" v="farm" />
		<tag k="ssr:stedsnr" v="15518" />
	</node>
	<node id="9829082276" lat="65.7508227" lon="14.0785328" version="1" timestamp="2022-06-18T20:37:54Z" changeset="122560248" uid="3497659" user="NKA">
		<tag k="name" v="Nordneset" />
		<tag k="place" v="farm" />
		<tag k="ssr:stedsnr" v="379092" />
	</node>
	<node id="9829082277" lat="65.6304723" lon="14.0242583" version="1" timestamp="2022-06-18T20:37:54Z" changeset="122560248" uid="3497659" user="NKA">
		<tag k="alt_name" v="Sætren" />
		<tag k="name" v="Setren" />
		<tag k="place" v="farm" />
		<tag k="ssr:stedsnr" v="15104" />
	</node>
	<node id="9829082278" lat="65.5938472" lon="13.8970695" version="1" timestamp="2022-06-18T20:37:54Z" changeset="122560248" uid="3497659" user="NKA">
		<tag k="name" v="Sørstad" />
		<tag k="place" v="farm" />
		<tag k="ssr:stedsnr" v="760573" />
	</node>
	<node id="9829082279" lat="65.6052445" lon="14.0763305" version="1" timestamp="2022-06-18T20:37:54Z" changeset="122560248" uid="3497659" user="NKA">
		<tag k="name" v="Myrgåvan" />
		<tag k="place" v="farm" />
		<tag k="ssr:stedsnr" v="216643" />
	</node>
	<node id="9829082280" lat="65.5625348" lon="14.1453642" version="1" timestamp="2022-06-18T20:37:54Z" changeset="122560248" uid="3497659" user="NKA">
		<tag k="name" v="Åsen" />
		<tag k="place" v="farm" />
		<tag k="ssr:stedsnr" v="990715" />
	</node>
	<node id="9829082281" lat="65.5292163" lon="14.2356167" version="1" timestamp="2022-06-18T20:37:54Z" changeset="122560248" uid="3497659" user="NKA">
		<tag k="name" v="Nyhus" />
		<tag k="place" v="farm" />
		<tag k="ssr:stedsnr" v="969627" />
	</node>
	<node id="9829082282" lat="65.5783139" lon="14.0129751" version="1" timestamp="2022-06-18T20:37:54Z" changeset="122560248" uid="3497659" user="NKA">
		<tag k="name" v="Bjørnstad" />
		<tag k="place" v="isolated_dwelling" />
		<tag k="ssr:stedsnr" v="15048" />
	</node>
	<node id="9829082283" lat="65.6686" lon="13.8844279" version="1" timestamp="2022-06-18T20:37:54Z" changeset="122560248" uid="3497659" user="NKA">
		<tag k="name" v="Skjåvika" />
		<tag k="place" v="farm" />
		<tag k="ssr:stedsnr" v="440487" />
	</node>
	<node id="9829082284" lat="65.6737453" lon="13.8036098" version="1" timestamp="2022-06-18T20:37:54Z" changeset="122560248" uid="3497659" user="NKA">
		<tag k="alt_name" v="Tvilsneset" />
		<tag k="name" v="Storlien" />
		<tag k="place" v="farm" />
		<tag k="ssr:stedsnr" v="701069" />
	</node>
	<node id="9829082285" lat="65.6658166" lon="14.1387499" version="1" timestamp="2022-06-18T20:37:54Z" changeset="122560248" uid="3497659" user="NKA">
		<tag k="name" v="Strand" />
		<tag k="place" v="farm" />
		<tag k="ssr:stedsnr" v="76396" />
	</node>
	<node id="9829082286" lat="65.4174" lon="13.9621027" version="1" timestamp="2022-06-18T20:37:54Z" changeset="122560248" uid="3497659" user="NKA">
		<tag k="alt_name" v="Ivarstua, gl" />
		<tag k="name" v="Ivarstua" />
		<tag k="place" v="isolated_dwelling" />
		<tag k="ssr:stedsnr" v="926795" />
	</node>
	<node id="9829082287" lat="65.5883111" lon="13.8184945" version="1" timestamp="2022-06-18T20:37:54Z" changeset="122560248" uid="3497659" user="NKA">
		<tag k="alt_name" v="Grytlia" />
		<tag k="name" v="Grytli" />
		<tag k="place" v="farm" />
		<tag k="ssr:stedsnr" v="561008" />
	</node>
	<node id="9829082288" lat="65.4487472" lon="14.0460861" version="1" timestamp="2022-06-18T20:37:54Z" changeset="122560248" uid="3497659" user="NKA">
		<tag k="name" v="Smibakken" />
		<tag k="place" v="farm" />
		<tag k="ssr:stedsnr" v="823773" />
	</node>
	<node id="9829082289" lat="65.6037" lon="14.1026222" version="1" timestamp="2022-06-18T20:37:54Z" changeset="122560248" uid="3497659" user="NKA">
		<tag k="name" v="Brennbakken" />
		<tag k="place" v="farm" />
		<tag k="ssr:stedsnr" v="76037" />
	</node>
	<node id="9829082290" lat="65.5112278" lon="14.0146277" version="1" timestamp="2022-06-18T20:37:54Z" changeset="122560248" uid="3497659" user="NKA">
		<tag k="name" v="Bjormoen" />
		<tag k="place" v="farm" />
		<tag k="ssr:stedsnr" v="926134" />
	</node>
	<node id="9829082291" lat="65.5801596" lon="13.9842214" version="1" timestamp="2022-06-18T20:37:54Z" changeset="122560248" uid="3497659" user="NKA">
		<tag k="alt_name" v="Lanes" />
		<tag k="name" v="Laneset" />
		<tag k="place" v="farm" />
		<tag k="ssr:stedsnr" v="440058" />
	</node>
	<node id="9829082292" lat="65.5471277" lon="14.1330751" version="1" timestamp="2022-06-18T20:37:54Z" changeset="122560248" uid="3497659" user="NKA">
		<tag k="name" v="Nyrud" />
		<tag k="place" v="farm" />
		<tag k="ssr:stedsnr" v="76237" />
	</node>
	<node id="9829082293" lat="65.6382084" lon="14.0715389" version="1" timestamp="2022-06-18T20:37:54Z" changeset="122560248" uid="3497659" user="NKA">
		<tag k="name" v="Myrmo" />
		<tag k="place" v="farm" />
		<tag k="ssr:stedsnr" v="76441" />
	</node>
	<node id="9829082294" lat="65.5383414" lon="14.2505632" version="1" timestamp="2022-06-18T20:37:54Z" changeset="122560248" uid="3497659" user="NKA">
		<tag k="name" v="Sætermoen" />
		<tag k="place" v="farm" />
		<tag k="ssr:stedsnr" v="865831" />
	</node>
	<node id="9829082295" lat="65.8098143" lon="14.4207736" version="1" timestamp="2022-06-18T20:37:54Z" changeset="122560248" uid="3497659" user="NKA">
		<tag k="name" v="Valen" />
		<tag k="place" v="hamlet" />
		<tag k="ssr:stedsnr" v="682004" />
	</node>
	<node id="9829082296" lat="65.3679" lon="14.2144168" version="1" timestamp="2022-06-18T20:37:54Z" changeset="122560248" uid="3497659" user="NKA">
		<tag k="name" v="Bergum" />
		<tag k="place" v="farm" />
		<tag k="ssr:stedsnr" v="865759" />
	</node>
	<node id="9829082297" lat="65.7033238" lon="13.9752239" version="1" timestamp="2022-06-18T20:37:54Z" changeset="122560248" uid="3497659" user="NKA">
		<tag k="alt_name" v="Breidvika" />
		<tag k="name" v="Breivika" />
		<tag k="place" v="locality" />
		<tag k="ssr:stedsnr" v="379429" />
	</node>
	<node id="9829082298" lat="65.5501138" lon="14.1352222" version="1" timestamp="2022-06-18T20:37:54Z" changeset="122560248" uid="3497659" user="NKA">
		<tag k="name" v="Grøneng" />
		<tag k="place" v="farm" />
		<tag k="ssr:stedsnr" v="804269" />
	</node>
	<node id="9829082299" lat="65.6601175" lon="13.8930218" version="1" timestamp="2022-06-18T20:37:54Z" changeset="122560248" uid="3497659" user="NKA">
		<tag k="alt_name" v="Skjåvik" />
		<tag k="name" v="Skjåvika" />
		<tag k="place" v="farm" />
		<tag k="ssr:stedsnr" v="440408" />
	</node>
	<node id="9829082300" lat="65.6182111" lon="13.9288417" version="1" timestamp="2022-06-18T20:37:54Z" changeset="122560248" uid="3497659" user="NKA">
		<tag k="name" v="Lyngen" />
		<tag k="place" v="farm" />
		<tag k="ssr:stedsnr" v="258079" />
	</node>
	<node id="9829082301" lat="65.6460547" lon="14.068699" version="1" timestamp="2022-06-18T20:37:54Z" changeset="122560248" uid="3497659" user="NKA">
		<tag k="name" v="Sørås" />
		<tag k="place" v="farm" />
		<tag k="ssr:stedsnr" v="925473" />
	</node>
	<node id="9829082302" lat="65.6246769" lon="14.0386889" version="1" timestamp="2022-06-18T20:37:54Z" changeset="122560248" uid="3497659" user="NKA">
		<tag k="name" v="Skogstad" />
		<tag k="place" v="farm" />
		<tag k="ssr:stedsnr" v="198057" />
	</node>
	<node id="9829082303" lat="65.366325" lon="14.1994" version="1" timestamp="2022-06-18T20:37:54Z" changeset="122560248" uid="3497659" user="NKA">
		<tag k="name" v="Fossheim" />
		<tag k="place" v="farm" />
		<tag k="ssr:stedsnr" v="318759" />
	</node>
	<node id="9829082304" lat="65.5854" lon="13.8109056" version="1" timestamp="2022-06-18T20:37:54Z" changeset="122560248" uid="3497659" user="NKA">
		<tag k="name" v="Oppigarden" />
		<tag k="place" v="farm" />
		<tag k="ssr:stedsnr" v="153783" />
	</node>
	<node id="9829082305" lat="65.5794861" lon="14.1695666" version="1" timestamp="2022-06-18T20:37:54Z" changeset="122560248" uid="3497659" user="NKA">
		<tag k="name" v="Bergtun" />
		<tag k="place" v="farm" />
		<tag k="ssr:stedsnr" v="137020" />
	</node>
	<node id="9829082306" lat="65.6680278" lon="14.0956411" version="1" timestamp="2022-06-18T20:37:54Z" changeset="122560248" uid="3497659" user="NKA">
		<tag k="name" v="Saulia" />
		<tag k="place" v="farm" />
		<tag k="ssr:stedsnr" v="258488" />
	</node>
	<node id="9829082307" lat="65.4908072" lon="14.0320967" version="1" timestamp="2022-06-18T20:37:54Z" changeset="122560248" uid="3497659" user="NKA">
		<tag k="alt_name" v="Kampli" />
		<tag k="name" v="Kamplia" />
		<tag k="place" v="farm" />
		<tag k="ssr:stedsnr" v="136860" />
	</node>
	<node id="9829082308" lat="65.5936705" lon="13.9838912" version="1" timestamp="2022-06-18T20:37:54Z" changeset="122560248" uid="3497659" user="NKA">
		<tag k="name" v="Tofta" />
		<tag k="place" v="farm" />
		<tag k="ssr:stedsnr" v="500014" />
	</node>
	<node id="9829082309" lat="65.5928111" lon="14.0412305" version="1" timestamp="2022-06-18T20:37:54Z" changeset="122560248" uid="3497659" user="NKA">
		<tag k="name" v="Nyheim" />
		<tag k="place" v="farm" />
		<tag k="ssr:stedsnr" v="258001" />
	</node>
	<node id="9829082310" lat="65.579206" lon="14.0125545" version="1" timestamp="2022-06-18T20:37:54Z" changeset="122560248" uid="3497659" user="NKA">
		<tag k="name" v="Storsvingen" />
		<tag k="place" v="hamlet" />
		<tag k="ssr:stedsnr" v="398566" />
	</node>
	<node id="9829082311" lat="65.6027361" lon="14.0907084" version="1" timestamp="2022-06-18T20:37:54Z" changeset="122560248" uid="3497659" user="NKA">
		<tag k="name" v="Elvnes" />
		<tag k="place" v="farm" />
		<tag k="ssr:stedsnr" v="136041" />
	</node>
	<node id="9829082312" lat="65.5688889" lon="14.3238611" version="1" timestamp="2022-06-18T20:37:54Z" changeset="122560248" uid="3497659" user="NKA">
		<tag k="name" v="Stormohagen" />
		<tag k="place" v="farm" />
		<tag k="ssr:stedsnr" v="561809" />
	</node>
	<node id="9829082313" lat="65.59925" lon="13.9971719" version="1" timestamp="2022-06-18T20:37:54Z" changeset="122560248" uid="3497659" user="NKA">
		<tag k="name" v="Svean" />
		<tag k="place" v="neighbourhood" />
		<tag k="ssr:stedsnr" v="95973" />
	</node>
	<node id="9829082314" lat="65.5221334" lon="14.0892862" version="1" timestamp="2022-06-18T20:37:54Z" changeset="122560248" uid="3497659" user="NKA">
		<tag k="name" v="Furumyr" />
		<tag k="place" v="farm" />
		<tag k="ssr:stedsnr" v="580089" />
	</node>
	<node id="9829082315" lat="65.5745946" lon="14.1830041" version="1" timestamp="2022-06-18T20:37:54Z" changeset="122560248" uid="3497659" user="NKA">
		<tag k="name" v="Grønli" />
		<tag k="place" v="farm" />
		<tag k="ssr:stedsnr" v="379208" />
	</node>
	<node id="9829082316" lat="65.4974722" lon="14.0166473" version="1" timestamp="2022-06-18T20:37:54Z" changeset="122560248" uid="3497659" user="NKA">
		<tag k="name" v="Svingstad" />
		<tag k="place" v="farm" />
		<tag k="ssr:stedsnr" v="519637" />
	</node>
	<node id="9829082317" lat="65.5749389" lon="14.1957918" version="1" timestamp="2022-06-18T20:37:54Z" changeset="122560248" uid="3497659" user="NKA">
		<tag k="name" v="Myggheim" />
		<tag k="place" v="isolated_dwelling" />
		<tag k="ssr:stedsnr" v="883822" />
	</node>
	<node id="9829082318" lat="65.8345834" lon="14.2074333" version="1" timestamp="2022-06-18T20:37:54Z" changeset="122560248" uid="3497659" user="NKA">
		<tag k="name" v="Norddalsbukta" />
		<tag k="place" v="neighbourhood" />
		<tag k="ssr:stedsnr" v="890102" />
	</node>
	<node id="9829082319" lat="65.605975" lon="14.037914" version="1" timestamp="2022-06-18T20:37:54Z" changeset="122560248" uid="3497659" user="NKA">
		<tag k="name" v="Frydenlund" />
		<tag k="place" v="farm" />
		<tag k="ssr:stedsnr" v="743034" />
	</node>
	<node id="9829082320" lat="65.6048361" lon="13.8702499" version="1" timestamp="2022-06-18T20:37:54Z" changeset="122560248" uid="3497659" user="NKA">
		<tag k="alt_name" v="Sæter" />
		<tag k="historic" v="shieling" />
		<tag k="name" v="Mjølkarlisætra" />
		<tag k="place" v="isolated_dwelling" />
		<tag k="ssr:stedsnr" v="865132" />
	</node>
	<node id="9829082321" lat="65.5766611" lon="13.8330694" version="1" timestamp="2022-06-18T20:37:54Z" changeset="122560248" uid="3497659" user="NKA">
		<tag k="name" v="Forseng" />
		<tag k="place" v="farm" />
		<tag k="ssr:stedsnr" v="561052" />
	</node>
	<node id="9829082322" lat="65.525075" lon="14.0437112" version="1" timestamp="2022-06-18T20:37:54Z" changeset="122560248" uid="3497659" user="NKA">
		<tag k="name" v="Hagen" />
		<tag k="place" v="farm" />
		<tag k="ssr:stedsnr" v="440195" />
	</node>
	<node id="9829082323" lat="65.6578476" lon="14.1224726" version="1" timestamp="2022-06-18T20:37:54Z" changeset="122560248" uid="3497659" user="NKA">
		<tag k="name" v="Sørflata" />
		<tag k="place" v="farm" />
		<tag k="ssr:stedsnr" v="865432" />
	</node>
	<node id="9829082324" lat="65.6228529" lon="13.9386212" version="1" timestamp="2022-06-18T20:37:54Z" changeset="122560248" uid="3497659" user="NKA">
		<tag k="name" v="Nyheim" />
		<tag k="place" v="farm" />
		<tag k="ssr:stedsnr" v="865100" />
	</node>
	<node id="9829082325" lat="65.5323423" lon="14.239604" version="1" timestamp="2022-06-18T20:37:54Z" changeset="122560248" uid="3497659" user="NKA">
		<tag k="name" v="Åkre" />
		<tag k="place" v="farm" />
		<tag k="ssr:stedsnr" v="379814" />
	</node>
	<node id="9829082326" lat="65.5975027" lon="13.9622666" version="1" timestamp="2022-06-18T20:37:54Z" changeset="122560248" uid="3497659" user="NKA">
		<tag k="name" v="Finnmomyran" />
		<tag k="place" v="isolated_dwelling" />
		<tag k="ssr:stedsnr" v="865016" />
	</node>
	<node id="9829082327" lat="65.367767" lon="14.1959649" version="1" timestamp="2022-06-18T20:37:54Z" changeset="122560248" uid="3497659" user="NKA">
		<tag k="name" v="Ivarslia" />
		<tag k="place" v="farm" />
		<tag k="ssr:stedsnr" v="682806" />
	</node>
	<node id="9829082328" lat="65.4934033" lon="14.3138602" version="1" timestamp="2022-06-18T20:37:54Z" changeset="122560248" uid="3497659" user="NKA">
		<tag k="alt_name" v="Ørneset" />
		<tag k="name" v="Ørnes" />
		<tag k="place" v="hamlet" />
		<tag k="ssr:stedsnr" v="379721" />
	</node>
	<node id="9829082329" lat="65.5365889" lon="14.228461" version="1" timestamp="2022-06-18T20:37:54Z" changeset="122560248" uid="3497659" user="NKA">
		<tag k="name" v="Åseng" />
		<tag k="place" v="farm" />
		<tag k="ssr:stedsnr" v="318848" />
	</node>
	<node id="9829082330" lat="65.7146333" lon="13.938625" version="1" timestamp="2022-06-18T20:37:54Z" changeset="122560248" uid="3497659" user="NKA">
		<tag k="name" v="Moen" />
		<tag k="place" v="farm" />
		<tag k="ssr:stedsnr" v="459393" />
	</node>
	<node id="9829082331" lat="65.3609816" lon="14.1452355" version="1" timestamp="2022-06-18T20:37:54Z" changeset="122560248" uid="3497659" user="NKA">
		<tag k="alt_name" v="Atterli" />
		<tag k="name" v="Atterlia" />
		<tag k="place" v="farm" />
		<tag k="ssr:stedsnr" v="561757" />
	</node>
	<node id="9829082332" lat="65.3667167" lon="14.1868377" version="1" timestamp="2022-06-18T20:37:54Z" changeset="122560248" uid="3497659" user="NKA">
		<tag k="name" v="Rogne" />
		<tag k="place" v="farm" />
		<tag k="ssr:stedsnr" v="682805" />
	</node>
	<node id="9829082333" lat="65.6876917" lon="14.1678473" version="1" timestamp="2022-06-18T20:37:54Z" changeset="122560248" uid="3497659" user="NKA">
		<tag k="name" v="Bekkmo" />
		<tag k="place" v="farm" />
		<tag k="ssr:stedsnr" v="458139" />
	</node>
	<node id="9829082334" lat="65.4129028" lon="13.9699917" version="1" timestamp="2022-06-18T20:37:54Z" changeset="122560248" uid="3497659" user="NKA">
		<tag k="name" v="Sørum" />
		<tag k="place" v="farm" />
		<tag k="ssr:stedsnr" v="319798" />
	</node>
	<node id="9829082335" lat="65.5893871" lon="13.9919049" version="1" timestamp="2022-06-18T20:37:54Z" changeset="122560248" uid="3497659" user="NKA">
		<tag k="name" v="Hattfjeldal" />
		<tag k="place" v="farm" />
		<tag k="ssr:stedsnr" v="990649" />
	</node>
	<node id="9829082336" lat="65.5884555" lon="13.9074027" version="1" timestamp="2022-06-18T20:37:54Z" changeset="122560248" uid="3497659" user="NKA">
		<tag k="name" v="Mjølkarlien" />
		<tag k="place" v="locality" />
		<tag k="ssr:stedsnr" v="545515" />
	</node>
	<node id="9829082337" lat="65.8136472" lon="14.3841445" version="1" timestamp="2022-06-18T20:37:54Z" changeset="122560248" uid="3497659" user="NKA">
		<tag k="alt_name" v="Sivertgård" />
		<tag k="name" v="Sivertsgården" />
		<tag k="place" v="farm" />
		<tag k="ssr:stedsnr" v="440004" />
	</node>
	<node id="9829082338" lat="65.715424" lon="13.6966556" version="1" timestamp="2022-06-18T20:37:54Z" changeset="122560248" uid="3497659" user="NKA">
		<tag k="name" v="Jamtsætra" />
		<tag k="place" v="locality" />
		<tag k="ssr:stedsnr" v="258752" />
	</node>
	<node id="9829082339" lat="65.4510275" lon="14.0615973" version="1" timestamp="2022-06-18T20:37:54Z" changeset="122560248" uid="3497659" user="NKA">
		<tag k="alt_name" v="Sagmoen" />
		<tag k="name" v="Sagmo" />
		<tag k="place" v="farm" />
		<tag k="ssr:stedsnr" v="135822" />
	</node>
	<node id="9829082340" lat="65.5611083" lon="13.7602582" version="1" timestamp="2022-06-18T20:37:54Z" changeset="122560248" uid="3497659" user="NKA">
		<tag k="name" v="Storvatnet" />
		<tag k="place" v="neighbourhood" />
		<tag k="ssr:stedsnr" v="343102" />
	</node>
	<node id="9829082341" lat="65.3653223" lon="14.2493582" version="1" timestamp="2022-06-18T20:37:54Z" changeset="122560248" uid="3497659" user="NKA">
		<tag k="name" v="Børge" />
		<tag k="place" v="farm" />
		<tag k="ssr:stedsnr" v="944154" />
	</node>
	<node id="9829082342" lat="65.6681158" lon="13.8065546" version="1" timestamp="2022-06-18T20:37:54Z" changeset="122560248" uid="3497659" user="NKA">
		<tag k="name" v="Bjørnebakken" />
		<tag k="place" v="farm" />
		<tag k="ssr:stedsnr" v="136496" />
	</node>
	<node id="9829082343" lat="65.5241583" lon="14.0365389" version="1" timestamp="2022-06-18T20:37:54Z" changeset="122560248" uid="3497659" user="NKA">
		<tag k="alt_name" v="Nyset" />
		<tag k="name" v="Nyseth" />
		<tag k="place" v="farm" />
		<tag k="ssr:stedsnr" v="926154" />
	</node>
	<node id="9829082344" lat="65.7676457" lon="13.9253705" version="1" timestamp="2022-06-18T20:37:54Z" changeset="122560248" uid="3497659" user="NKA">
		<tag k="name" v="Kjerringneset" />
		<tag k="place" v="farm" />
		<tag k="ssr:stedsnr" v="926083" />
	</node>
	<node id="9829082345" lat="65.7976868" lon="14.2019335" version="1" timestamp="2022-06-18T20:37:54Z" changeset="122560248" uid="3497659" user="NKA">
		<tag k="alt_name" v="Sørdal" />
		<tag k="name" v="Sørdalen" />
		<tag k="place" v="farm" />
		<tag k="ssr:stedsnr" v="379106" />
	</node>
	<node id="9829082346" lat="65.591117" lon="14.1121233" version="1" timestamp="2022-06-18T20:37:54Z" changeset="122560248" uid="3497659" user="NKA">
		<tag k="name" v="Dalen" />
		<tag k="place" v="farm" />
		<tag k="ssr:stedsnr" v="319042" />
	</node>
	<node id="9829082347" lat="65.5962478" lon="14.0041369" version="1" timestamp="2022-06-18T20:37:54Z" changeset="122560248" uid="3497659" user="NKA">
		<tag k="name" v="Sollia" />
		<tag k="place" v="neighbourhood" />
		<tag k="ssr:stedsnr" v="762967" />
	</node>
	<node id="9829082348" lat="65.5334957" lon="13.8322584" version="1" timestamp="2022-06-18T20:37:54Z" changeset="122560248" uid="3497659" user="NKA">
		<tag k="name" v="Fjellstad" />
		<tag k="place" v="farm" />
		<tag k="ssr:stedsnr" v="197261" />
	</node>
	<node id="9829082349" lat="65.7052667" lon="13.9259527" version="1" timestamp="2022-06-18T20:37:54Z" changeset="122560248" uid="3497659" user="NKA">
		<tag k="alt_name" v="Engåsen" />
		<tag k="name" v="Engås" />
		<tag k="place" v="farm" />
		<tag k="ssr:stedsnr" v="440450" />
	</node>
	<node id="9829082350" lat="65.6421278" lon="14.0556861" version="1" timestamp="2022-06-18T20:37:54Z" changeset="122560248" uid="3497659" user="NKA">
		<tag k="name" v="Bjørnhaug" />
		<tag k="place" v="farm" />
		<tag k="ssr:stedsnr" v="318431" />
	</node>
	<node id="9829082351" lat="65.5242278" lon="14.0402583" version="1" timestamp="2022-06-18T20:37:54Z" changeset="122560248" uid="3497659" user="NKA">
		<tag k="name" v="Bjørgan" />
		<tag k="place" v="farm" />
		<tag k="ssr:stedsnr" v="337557" />
	</node>
	<node id="9829082352" lat="65.6874812" lon="13.8520398" version="1" timestamp="2022-06-18T20:37:54Z" changeset="122560248" uid="3497659" user="NKA">
		<tag k="alt_name" v="Vesterbukta" />
		<tag k="name" v="Vesterbukt" />
		<tag k="place" v="hamlet" />
		<tag k="ssr:stedsnr" v="744432" />
	</node>
	<node id="9829082353" lat="65.4711526" lon="14.0142939" version="1" timestamp="2022-06-18T20:37:54Z" changeset="122560248" uid="3497659" user="NKA">
		<tag k="alt_name" v="Mikkeljorda" />
		<tag k="name" v="Mikkeljord" />
		<tag k="place" v="hamlet" />
		<tag k="ssr:stedsnr" v="258824" />
	</node>
	<node id="9829082354" lat="65.6142823" lon="13.9054652" version="1" timestamp="2022-06-18T20:37:54Z" changeset="122560248" uid="3497659" user="NKA">
		<tag k="alt_name" v="Sæterli" />
		<tag k="name" v="Sæterlia" />
		<tag k="place" v="farm" />
		<tag k="ssr:stedsnr" v="744085" />
	</node>
	<node id="9829082355" lat="65.4676861" lon="14.016061" version="1" timestamp="2022-06-18T20:37:54Z" changeset="122560248" uid="3497659" user="NKA">
		<tag k="name" v="Solheim" />
		<tag k="place" v="farm" />
		<tag k="ssr:stedsnr" v="743839" />
	</node>
	<node id="9829082356" lat="65.8253195" lon="14.1925083" version="1" timestamp="2022-06-18T20:37:54Z" changeset="122560248" uid="3497659" user="NKA">
		<tag k="name" v="Midttun" />
		<tag k="place" v="farm" />
		<tag k="ssr:stedsnr" v="216135" />
	</node>
	<node id="9829082357" lat="65.7427611" lon="14.0712777" version="1" timestamp="2022-06-18T20:37:54Z" changeset="122560248" uid="3497659" user="NKA">
		<tag k="name" v="Vendlia" />
		<tag k="place" v="farm" />
		<tag k="ssr:stedsnr" v="743309" />
	</node>
	<node id="9829082358" lat="65.5013592" lon="14.2102414" version="1" timestamp="2022-06-18T20:37:54Z" changeset="122560248" uid="3497659" user="NKA">
		<tag k="alt_name" v="Sundmoen" />
		<tag k="name" v="Sundmo" />
		<tag k="place" v="farm" />
		<tag k="ssr:stedsnr" v="379181" />
	</node>
	<node id="9829082359" lat="65.3695662" lon="14.1157098" version="1" timestamp="2022-06-18T20:37:54Z" changeset="122560248" uid="3497659" user="NKA">
		<tag k="alt_name" v="Åslid" />
		<tag k="name" v="Åslia" />
		<tag k="place" v="farm" />
		<tag k="ssr:stedsnr" v="743784" />
	</node>
	<node id="9829082360" lat="65.3364195" lon="14.2944195" version="1" timestamp="2022-06-18T20:37:54Z" changeset="122560248" uid="3497659" user="NKA">
		<tag k="alt_name" v="Uhoberg" />
		<tag k="name" v="Oksvollen" />
		<tag k="place" v="farm" />
		<tag k="ssr:stedsnr" v="744694" />
	</node>
	<node id="9829082361" lat="65.3704278" lon="14.2329473" version="1" timestamp="2022-06-18T20:37:54Z" changeset="122560248" uid="3497659" user="NKA">
		<tag k="name" v="Nordgård" />
		<tag k="place" v="farm" />
		<tag k="ssr:stedsnr" v="744692" />
	</node>
	<node id="9829082362" lat="65.3268" lon="14.4197445" version="1" timestamp="2022-06-18T20:37:54Z" changeset="122560248" uid="3497659" user="NKA">
		<tag k="name" v="Statens Fjellstue" />
		<tag k="place" v="isolated_dwelling" />
		<tag k="ssr:stedsnr" v="258717" />
	</node>
	<node id="9829082363" lat="65.4304556" lon="14.1818584" version="1" timestamp="2022-06-18T20:37:54Z" changeset="122560248" uid="3497659" user="NKA">
		<tag k="alt_name" v="Ørjevatn" />
		<tag k="name" v="Ørjevatnet" />
		<tag k="place" v="farm" />
		<tag k="ssr:stedsnr" v="683777" />
	</node>
	<node id="9829082364" lat="65.8728667" lon="14.3068888" version="1" timestamp="2022-06-18T20:37:54Z" changeset="122560248" uid="3497659" user="NKA">
		<tag k="alt_name" v="Linviken" />
		<tag k="name" v="Linvika" />
		<tag k="place" v="locality" />
		<tag k="ssr:stedsnr" v="319056" />
	</node>
	<node id="9829082365" lat="65.4810361" lon="14.2889694" version="1" timestamp="2022-06-18T20:37:54Z" changeset="122560248" uid="3497659" user="NKA">
		<tag k="name" v="Tjønna" />
		<tag k="place" v="farm" />
		<tag k="ssr:stedsnr" v="926745" />
	</node>
	<node id="9829082366" lat="65.7477889" lon="13.9207222" version="1" timestamp="2022-06-18T20:37:54Z" changeset="122560248" uid="3497659" user="NKA">
		<tag k="name" v="Stikkelvika" />
		<tag k="place" v="farm" />
		<tag k="ssr:stedsnr" v="155383" />
	</node>
	<node id="9829082367" lat="65.4248483" lon="13.9659822" version="1" timestamp="2022-06-18T20:37:54Z" changeset="122560248" uid="3497659" user="NKA">
		<tag k="alt_name" v="Grubblandshaug" />
		<tag k="name" v="Grubblandshaugen" />
		<tag k="place" v="farm" />
		<tag k="ssr:stedsnr" v="136810" />
	</node>
	<node id="9829082368" lat="65.6723333" lon="14.2254027" version="1" timestamp="2022-06-18T20:37:54Z" changeset="122560248" uid="3497659" user="NKA">
		<tag k="name" v="Elvestad" />
		<tag k="place" v="farm" />
		<tag k="ssr:stedsnr" v="925890" />
	</node>
	<node id="9829082369" lat="65.4425361" lon="14.1439223" version="1" timestamp="2022-06-18T20:37:54Z" changeset="122560248" uid="3497659" user="NKA">
		<tag k="alt_name" v="Fagerbakken, austre" />
		<tag k="name" v="Austre Fagerbakk" />
		<tag k="place" v="farm" />
		<tag k="ssr:stedsnr" v="924800" />
	</node>
	<node id="9829082370" lat="65.6140694" lon="14.0687806" version="1" timestamp="2022-06-18T20:37:54Z" changeset="122560248" uid="3497659" user="NKA">
		<tag k="alt_name" v="Haugom" />
		<tag k="name" v="Haugum" />
		<tag k="place" v="farm" />
		<tag k="ssr:stedsnr" v="137077" />
	</node>
	<node id="9829082371" lat="65.5590498" lon="14.2908256" version="1" timestamp="2022-06-18T20:37:54Z" changeset="122560248" uid="3497659" user="NKA">
		<tag k="name" v="Garsmarka" />
		<tag k="place" v="farm" />
		<tag k="ssr:stedsnr" v="965138" />
	</node>
	<node id="9829082372" lat="65.5604611" lon="14.1442416" version="1" timestamp="2022-06-18T20:37:54Z" changeset="122560248" uid="3497659" user="NKA">
		<tag k="alt_name" v="Åsen, nedre" />
		<tag k="name" v="Neråsen" />
		<tag k="old_name" v="Åsen" />
		<tag k="place" v="farm" />
		<tag k="ssr:stedsnr" v="136233" />
	</node>
	<node id="9829082373" lat="65.5264496" lon="14.2128839" version="1" timestamp="2022-06-18T20:37:54Z" changeset="122560248" uid="3497659" user="NKA">
		<tag k="name" v="Sandøreng" />
		<tag k="place" v="farm" />
		<tag k="ssr:stedsnr" v="804152" />
	</node>
	<node id="9829082374" lat="65.6374611" lon="14.0437445" version="1" timestamp="2022-06-18T20:37:54Z" changeset="122560248" uid="3497659" user="NKA">
		<tag k="name" v="Øyås" />
		<tag k="place" v="isolated_dwelling" />
		<tag k="ssr:stedsnr" v="622408" />
	</node>
	<node id="9829082375" lat="65.6757722" lon="14.23655" version="1" timestamp="2022-06-18T20:37:54Z" changeset="122560248" uid="3497659" user="NKA">
		<tag k="alt_name" v="Rognmoen" />
		<tag k="name" v="Rognmo" />
		<tag k="place" v="farm" />
		<tag k="ssr:stedsnr" v="379178" />
	</node>
	<node id="9829082376" lat="65.4916416" lon="14.0263306" version="1" timestamp="2022-06-18T20:37:54Z" changeset="122560248" uid="3497659" user="NKA">
		<tag k="alt_name" v="Liabakken" />
		<tag k="name" v="Liabakk" />
		<tag k="place" v="farm" />
		<tag k="ssr:stedsnr" v="621872" />
	</node>
	<node id="9829082377" lat="65.5857032" lon="13.8204068" version="1" timestamp="2022-06-18T20:37:54Z" changeset="122560248" uid="3497659" user="NKA">
		<tag k="name" v="Oppstad" />
		<tag k="place" v="farm" />
		<tag k="ssr:stedsnr" v="926006" />
	</node>
	<node id="9829082378" lat="65.4564306" lon="14.4178001" version="1" timestamp="2022-06-18T20:37:54Z" changeset="122560248" uid="3497659" user="NKA">
		<tag k="name" v="Heggli" />
		<tag k="place" v="farm" />
		<tag k="ssr:stedsnr" v="926690" />
	</node>
	<node id="9829082379" lat="65.6430305" lon="14.0605333" version="1" timestamp="2022-06-18T20:37:54Z" changeset="122560248" uid="3497659" user="NKA">
		<tag k="name" v="Skoglund" />
		<tag k="place" v="farm" />
		<tag k="ssr:stedsnr" v="701085" />
	</node>
	<node id="9829082380" lat="65.6506727" lon="14.0664134" version="1" timestamp="2022-06-18T20:37:54Z" changeset="122560248" uid="3497659" user="NKA">
		<tag k="alt_name" v="Bjørkås" />
		<tag k="name" v="Bjørkåsen" />
		<tag k="place" v="farm" />
		<tag k="ssr:stedsnr" v="925453" />
	</node>
	<node id="9829082381" lat="65.6177" lon="13.9251778" version="1" timestamp="2022-06-18T20:37:54Z" changeset="122560248" uid="3497659" user="NKA">
		<tag k="alt_name" v="Lyngmoen" />
		<tag k="name" v="Lyngmo" />
		<tag k="place" v="farm" />
		<tag k="ssr:stedsnr" v="137086" />
	</node>
	<node id="9829082382" lat="65.7118" lon="13.93825" version="1" timestamp="2022-06-18T20:37:54Z" changeset="122560248" uid="3497659" user="NKA">
		<tag k="name" v="Myrnes" />
		<tag k="place" v="farm" />
		<tag k="ssr:stedsnr" v="501289" />
	</node>
	<node id="9829082383" lat="65.5005805" lon="14.2058361" version="1" timestamp="2022-06-18T20:37:54Z" changeset="122560248" uid="3497659" user="NKA">
		<tag k="alt_name" v="Sundseth" />
		<tag k="name" v="Sundset" />
		<tag k="place" v="farm" />
		<tag k="ssr:stedsnr" v="16154" />
	</node>
	<node id="9829082384" lat="65.7806516" lon="14.4489501" version="1" timestamp="2022-06-18T20:37:54Z" changeset="122560248" uid="3497659" user="NKA">
		<tag k="name" v="Nyheim" />
		<tag k="place" v="isolated_dwelling" />
		<tag k="ssr:stedsnr" v="683454" />
	</node>
	<node id="9829082385" lat="65.6175278" lon="14.0386388" version="1" timestamp="2022-06-18T20:37:54Z" changeset="122560248" uid="3497659" user="NKA">
		<tag k="name" v="Åshaug" />
		<tag k="place" v="farm" />
		<tag k="ssr:stedsnr" v="744082" />
	</node>
	<node id="9829082386" lat="65.5301074" lon="14.0016411" version="1" timestamp="2022-06-18T20:37:54Z" changeset="122560248" uid="3497659" user="NKA">
		<tag k="alt_name" v="Vefsnmoen" />
		<tag k="name" v="Vefsnmo" />
		<tag k="place" v="farm" />
		<tag k="ssr:stedsnr" v="136266" />
	</node>
	<node id="9829082387" lat="65.6243818" lon="13.9344637" version="1" timestamp="2022-06-18T20:37:54Z" changeset="122560248" uid="3497659" user="NKA">
		<tag k="alt_name" v="Groli" />
		<tag k="name" v="Grolia" />
		<tag k="place" v="farm" />
		<tag k="ssr:stedsnr" v="743091" />
	</node>
	<node id="9829082388" lat="65.6103862" lon="13.8999501" version="1" timestamp="2022-06-18T20:37:54Z" changeset="122560248" uid="3497659" user="NKA">
		<tag k="alt_name" v="Sørli" />
		<tag k="name" v="Sørlia" />
		<tag k="place" v="farm" />
		<tag k="ssr:stedsnr" v="744086" />
	</node>
	<node id="9829082389" lat="65.6482666" lon="14.0257666" version="1" timestamp="2022-06-18T20:37:54Z" changeset="122560248" uid="3497659" user="NKA">
		<tag k="name" v="Granåsen" />
		<tag k="place" v="locality" />
		<tag k="ssr:stedsnr" v="15452" />
	</node>
	<node id="9829082390" lat="65.3671333" lon="14.2726777" version="1" timestamp="2022-06-18T20:37:54Z" changeset="122560248" uid="3497659" user="NKA">
		<tag k="name" v="Burstomta" />
		<tag k="place" v="locality" />
		<tag k="ssr:stedsnr" v="579159" />
	</node>
	<node id="9829082391" lat="65.650725" lon="14.100475" version="1" timestamp="2022-06-18T20:37:54Z" changeset="122560248" uid="3497659" user="NKA">
		<tag k="name" v="Nordstad" />
		<tag k="place" v="farm" />
		<tag k="ssr:stedsnr" v="15456" />
	</node>
	<node id="9829082392" lat="65.6635758" lon="13.9528725" version="1" timestamp="2022-06-18T20:37:54Z" changeset="122560248" uid="3497659" user="NKA">
		<tag k="alt_name" v="Tjønnli" />
		<tag k="name" v="Tjørnlia" />
		<tag k="place" v="locality" />
		<tag k="ssr:stedsnr" v="76511" />
	</node>
	<node id="9829082393" lat="65.50445" lon="13.999825" version="1" timestamp="2022-06-18T20:37:54Z" changeset="122560248" uid="3497659" user="NKA">
		<tag k="name" v="Persby" />
		<tag k="place" v="isolated_dwelling" />
		<tag k="ssr:stedsnr" v="76160" />
	</node>
	<node id="9829082394" lat="65.5254944" lon="14.2236612" version="1" timestamp="2022-06-18T20:37:54Z" changeset="122560248" uid="3497659" user="NKA">
		<tag k="name" v="Daleng" />
		<tag k="place" v="farm" />
		<tag k="ssr:stedsnr" v="561834" />
	</node>
	<node id="9829082395" lat="65.6037667" lon="14.0995361" version="1" timestamp="2022-06-18T20:37:54Z" changeset="122560248" uid="3497659" user="NKA">
		<tag k="name" v="Bjørnstad" />
		<tag k="place" v="farm" />
		<tag k="ssr:stedsnr" v="580641" />
	</node>
	<node id="9829082396" lat="65.610925" lon="14.0775417" version="1" timestamp="2022-06-18T20:37:54Z" changeset="122560248" uid="3497659" user="NKA">
		<tag k="name" v="Vestli" />
		<tag k="place" v="farm" />
		<tag k="ssr:stedsnr" v="682127" />
	</node>
	<node id="9829082397" lat="65.7893679" lon="14.2981655" version="1" timestamp="2022-06-18T20:37:54Z" changeset="122560248" uid="3497659" user="NKA">
		<tag k="alt_name" v="Varnvatn gård" />
		<tag k="name" v="Varnvatnet" />
		<tag k="place" v="farm" />
		<tag k="ssr:stedsnr" v="541609" />
	</node>
	<node id="9829082398" lat="65.6000583" lon="14.0431473" version="1" timestamp="2022-06-18T20:37:54Z" changeset="122560248" uid="3497659" user="NKA">
		<tag k="name" v="Mo" />
		<tag k="place" v="farm" />
		<tag k="ssr:stedsnr" v="561023" />
	</node>
	<node id="9829082399" lat="65.5574806" lon="14.0080389" version="1" timestamp="2022-06-18T20:37:54Z" changeset="122560248" uid="3497659" user="NKA">
		<tag k="name" v="Storvollstua" />
		<tag k="place" v="isolated_dwelling" />
		<tag k="ssr:stedsnr" v="337507" />
	</node>
	<node id="9829082400" lat="65.5727174" lon="14.2012572" version="1" timestamp="2022-06-18T20:37:54Z" changeset="122560248" uid="3497659" user="NKA">
		<tag k="alt_name:no" v="Elsvatn" />
		<tag k="name" v="Aalesjaevrie - Elsvatnet" />
		<tag k="name:no" v="Elsvatnet" />
		<tag k="name:sma" v="Aalesjaevrie" />
		<tag k="place" v="farm" />
		<tag k="ssr:stedsnr" v="804246" />
	</node>
	<node id="9829082401" lat="65.5260389" lon="14.2285805" version="1" timestamp="2022-06-18T20:37:54Z" changeset="122560248" uid="3497659" user="NKA">
		<tag k="name" v="Granlund" />
		<tag k="place" v="farm" />
		<tag k="ssr:stedsnr" v="155852" />
	</node>
	<node id="9829082402" lat="65.4217889" lon="14.1900806" version="1" timestamp="2022-06-18T20:37:54Z" changeset="122560248" uid="3497659" user="NKA">
		<tag k="name" v="Bjørklund" />
		<tag k="place" v="farm" />
		<tag k="ssr:stedsnr" v="379780" />
	</node>
	<node id="9829082403" lat="65.5960194" lon="13.9795389" version="1" timestamp="2022-06-18T20:37:54Z" changeset="122560248" uid="3497659" user="NKA">
		<tag k="name" v="Slettbakken" />
		<tag k="place" v="farm" />
		<tag k="ssr:stedsnr" v="925011" />
	</node>
	<node id="9829082404" lat="65.591496" lon="14.0598474" version="1" timestamp="2022-06-18T20:37:54Z" changeset="122560248" uid="3497659" user="NKA">
		<tag k="name" v="Valmåsen" />
		<tag k="place" v="farm" />
		<tag k="ssr:stedsnr" v="15063" />
	</node>
	<node id="9829082405" lat="65.6555111" lon="14.119225" version="1" timestamp="2022-06-18T20:37:54Z" changeset="122560248" uid="3497659" user="NKA">
		<tag k="alt_name" v="Volleng" />
		<tag k="name" v="Voldeng" />
		<tag k="place" v="farm" />
		<tag k="ssr:stedsnr" v="379395" />
	</node>
	<node id="9829082406" lat="65.5900167" lon="14.0560025" version="1" timestamp="2022-06-18T20:37:54Z" changeset="122560248" uid="3497659" user="NKA">
		<tag k="name" v="Brennmoen" />
		<tag k="place" v="farm" />
		<tag k="ssr:stedsnr" v="379061" />
	</node>
	<node id="9829082407" lat="65.6064516" lon="14.0993889" version="1" timestamp="2022-06-18T20:37:54Z" changeset="122560248" uid="3497659" user="NKA">
		<tag k="name" v="Steinslett" />
		<tag k="place" v="farm" />
		<tag k="ssr:stedsnr" v="440038" />
	</node>
	<node id="9829082408" lat="65.5941472" lon="13.8874501" version="1" timestamp="2022-06-18T20:37:54Z" changeset="122560248" uid="3497659" user="NKA">
		<tag k="name" v="Dalbu" />
		<tag k="place" v="isolated_dwelling" />
		<tag k="ssr:stedsnr" v="440032" />
	</node>
	<node id="9829082409" lat="65.7116278" lon="13.9389445" version="1" timestamp="2022-06-18T20:37:54Z" changeset="122560248" uid="3497659" user="NKA">
		<tag k="name" v="Fagerslett" />
		<tag k="place" v="farm" />
		<tag k="ssr:stedsnr" v="823407" />
	</node>
	<node id="9829082410" lat="65.6623167" lon="14.138275" version="1" timestamp="2022-06-18T20:37:54Z" changeset="122560248" uid="3497659" user="NKA">
		<tag k="alt_name" v="Flatmoen" />
		<tag k="name" v="Flatmo" />
		<tag k="place" v="farm" />
		<tag k="ssr:stedsnr" v="318388" />
	</node>
	<node id="9829082411" lat="65.4166392" lon="13.9650796" version="1" timestamp="2022-06-18T20:37:54Z" changeset="122560248" uid="3497659" user="NKA">
		<tag k="name" v="Haugen" />
		<tag k="place" v="farm" />
		<tag k="ssr:stedsnr" v="865797" />
	</node>
	<node id="9829082412" lat="65.6127138" lon="14.073475" version="1" timestamp="2022-06-18T20:37:54Z" changeset="122560248" uid="3497659" user="NKA">
		<tag k="name" v="Vesterli" />
		<tag k="place" v="farm" />
		<tag k="ssr:stedsnr" v="379117" />
	</node>
	<node id="9829082413" lat="65.5884521" lon="14.0063924" version="1" timestamp="2022-06-18T20:37:54Z" changeset="122560248" uid="3497659" user="NKA">
		<tag k="name" v="Sørvollen" />
		<tag k="place" v="hamlet" />
		<tag k="ssr:stedsnr" v="319039" />
	</node>
	<node id="9829082414" lat="65.6265" lon="14.0601472" version="1" timestamp="2022-06-18T20:37:54Z" changeset="122560248" uid="3497659" user="NKA">
		<tag k="name" v="Myrvang" />
		<tag k="place" v="farm" />
		<tag k="ssr:stedsnr" v="319066" />
	</node>
	<node id="9829082415" lat="65.6125111" lon="13.9373333" version="1" timestamp="2022-06-18T20:37:54Z" changeset="122560248" uid="3497659" user="NKA">
		<tag k="alt_name" v="Rundmoen" />
		<tag k="name" v="Rundmo" />
		<tag k="place" v="farm" />
		<tag k="ssr:stedsnr" v="258132" />
	</node>
	<node id="9829082416" lat="65.5863363" lon="14.0708523" version="1" timestamp="2022-06-18T20:37:54Z" changeset="122560248" uid="3497659" user="NKA">
		<tag k="name" v="Moen" />
		<tag k="place" v="farm" />
		<tag k="ssr:stedsnr" v="258056" />
	</node>
	<node id="9829082417" lat="65.6933247" lon="14.1650544" version="1" timestamp="2022-06-18T20:37:54Z" changeset="122560248" uid="3497659" user="NKA">
		<tag k="name" v="Ytterlia" />
		<tag k="place" v="farm" />
		<tag k="ssr:stedsnr" v="198444" />
	</node>
	<node id="9829082418" lat="65.8258174" lon="14.1879055" version="1" timestamp="2022-06-18T20:37:54Z" changeset="122560248" uid="3497659" user="NKA">
		<tag k="alt_name" v="Varntresk, yt;Varntræsk" />
		<tag k="name" v="Ytre Varntresk" />
		<tag k="place" v="farm" />
		<tag k="ssr:stedsnr" v="76162" />
	</node>
	<node id="9829082419" lat="65.6955139" lon="13.8975944" version="1" timestamp="2022-06-18T20:37:54Z" changeset="122560248" uid="3497659" user="NKA">
		<tag k="alt_name" v="Stormoen" />
		<tag k="name" v="Stormo" />
		<tag k="place" v="farm" />
		<tag k="ssr:stedsnr" v="198430" />
	</node>
	<node id="9829082420" lat="65.5574519" lon="14.2068347" version="1" timestamp="2022-06-18T20:37:54Z" changeset="122560248" uid="3497659" user="NKA">
		<tag k="name" v="Hals" />
		<tag k="place" v="farm" />
		<tag k="ssr:stedsnr" v="76266" />
	</node>
	<node id="9829082421" lat="65.4222305" lon="14.1723972" version="1" timestamp="2022-06-18T20:37:54Z" changeset="122560248" uid="3497659" user="NKA">
		<tag k="alt_name" v="Volden" />
		<tag k="name" v="Vollan" />
		<tag k="place" v="farm" />
		<tag k="ssr:stedsnr" v="76795" />
	</node>
	<node id="9829082422" lat="65.5737639" lon="14.1985251" version="1" timestamp="2022-06-18T20:37:54Z" changeset="122560248" uid="3497659" user="NKA">
		<tag k="name" v="Hattli" />
		<tag k="place" v="farm" />
		<tag k="ssr:stedsnr" v="198189" />
	</node>
	<node id="9829082423" lat="65.6168333" lon="14.0651167" version="1" timestamp="2022-06-18T20:37:54Z" changeset="122560248" uid="3497659" user="NKA">
		<tag k="name" v="Steinbakken" />
		<tag k="place" v="farm" />
		<tag k="ssr:stedsnr" v="683103" />
	</node>
	<node id="9829082424" lat="65.6050138" lon="13.9947472" version="1" timestamp="2022-06-18T20:37:54Z" changeset="122560248" uid="3497659" user="NKA">
		<tag k="name" v="Hove" />
		<tag k="place" v="farm" />
		<tag k="ssr:stedsnr" v="197111" />
	</node>
	<node id="9829082425" lat="65.6754555" lon="14.2491389" version="1" timestamp="2022-06-18T20:37:54Z" changeset="122560248" uid="3497659" user="NKA">
		<tag k="alt_name" v="Krutådalen" />
		<tag k="name" v="Krutådal" />
		<tag k="place" v="farm" />
		<tag k="ssr:stedsnr" v="500192" />
	</node>
	<node id="9829082426" lat="65.6317598" lon="14.1182419" version="1" timestamp="2022-06-18T20:37:54Z" changeset="122560248" uid="3497659" user="NKA">
		<tag k="name" v="Uglvatnet" />
		<tag k="place" v="farm" />
		<tag k="ssr:stedsnr" v="561086" />
	</node>
	<node id="9829082427" lat="65.7058584" lon="13.7599917" version="1" timestamp="2022-06-18T20:37:54Z" changeset="122560248" uid="3497659" user="NKA">
		<tag k="name" v="Forsmoen" />
		<tag k="place" v="locality" />
		<tag k="ssr:stedsnr" v="197335" />
	</node>
	<node id="9829082428" lat="65.3890083" lon="13.9978778" version="1" timestamp="2022-06-18T20:37:54Z" changeset="122560248" uid="3497659" user="NKA">
		<tag k="name" v="Myrvang" />
		<tag k="place" v="farm" />
		<tag k="ssr:stedsnr" v="440773" />
	</node>
	<node id="9829082429" lat="65.5876472" lon="14.0093361" version="1" timestamp="2022-06-18T20:37:54Z" changeset="122560248" uid="3497659" user="NKA">
		<tag k="name" v="Livden" />
		<tag k="place" v="farm" />
		<tag k="ssr:stedsnr" v="197081" />
	</node>
	<node id="9829082430" lat="65.5404597" lon="14.1455741" version="1" timestamp="2022-06-18T20:37:54Z" changeset="122560248" uid="3497659" user="NKA">
		<tag k="alt_name" v="Unkervatn" />
		<tag k="name" v="Unkervatnet" />
		<tag k="place" v="farm" />
		<tag k="ssr:stedsnr" v="865256" />
	</node>
	<node id="9829082431" lat="65.5398833" lon="14.1396083" version="1" timestamp="2022-06-18T20:37:54Z" changeset="122560248" uid="3497659" user="NKA">
		<tag k="alt_name" v="Vestmoen" />
		<tag k="name" v="Vestmo" />
		<tag k="place" v="farm" />
		<tag k="ssr:stedsnr" v="865253" />
	</node>
	<node id="9829082432" lat="65.6099062" lon="14.0808792" version="1" timestamp="2022-06-18T20:37:54Z" changeset="122560248" uid="3497659" user="NKA">
		<tag k="name" v="Austrem" />
		<tag k="place" v="farm" />
		<tag k="ssr:stedsnr" v="197034" />
	</node>
	<node id="9829082433" lat="65.4363666" lon="14.0157055" version="1" timestamp="2022-06-18T20:37:54Z" changeset="122560248" uid="3497659" user="NKA">
		<tag k="name" v="Landvollen" />
		<tag k="place" v="locality" />
		<tag k="ssr:stedsnr" v="804825" />
	</node>
	<node id="9829082434" lat="65.4558917" lon="14.4258777" version="1" timestamp="2022-06-18T20:37:54Z" changeset="122560248" uid="3497659" user="NKA">
		<tag k="name" v="Engen" />
		<tag k="place" v="farm" />
		<tag k="ssr:stedsnr" v="258707" />
	</node>
	<node id="9829082435" lat="65.3657516" lon="14.053698" version="1" timestamp="2022-06-18T20:37:54Z" changeset="122560248" uid="3497659" user="NKA">
		<tag k="name" v="Øvre Trallerud" />
		<tag k="place" v="farm" />
		<tag k="ssr:stedsnr" v="701418" />
	</node>
	<node id="9829082436" lat="65.7863051" lon="14.4123423" version="1" timestamp="2022-06-18T20:37:54Z" changeset="122560248" uid="3497659" user="NKA">
		<tag k="historic" v="shieling" />
		<tag k="name" v="Sørbuktsetra" />
		<tag k="place" v="isolated_dwelling" />
		<tag k="ssr:stedsnr" v="423775" />
	</node>
	<node id="9829082437" lat="65.4532625" lon="14.015074" version="1" timestamp="2022-06-18T20:37:54Z" changeset="122560248" uid="3497659" user="NKA">
		<tag k="name" v="Granly" />
		<tag k="place" v="isolated_dwelling" />
		<tag k="ssr:stedsnr" v="603385" />
	</node>
	<node id="9829082438" lat="65.3858833" lon="14.0030501" version="1" timestamp="2022-06-18T20:37:54Z" changeset="122560248" uid="3497659" user="NKA">
		<tag k="alt_name" v="Nordmoen" />
		<tag k="name" v="Nordmo" />
		<tag k="place" v="farm" />
		<tag k="ssr:stedsnr" v="76784" />
	</node>
	<node id="9829082439" lat="65.3767" lon="14.0441582" version="1" timestamp="2022-06-18T20:37:54Z" changeset="122560248" uid="3497659" user="NKA">
		<tag k="name" v="Fagerli" />
		<tag k="place" v="farm" />
		<tag k="ssr:stedsnr" v="500824" />
	</node>
	<node id="9829082440" lat="65.8105944" lon="14.4133278" version="1" timestamp="2022-06-18T20:37:54Z" changeset="122560248" uid="3497659" user="NKA">
		<tag k="name" v="Fagereng" />
		<tag k="place" v="farm" />
		<tag k="ssr:stedsnr" v="277066" />
	</node>
	<node id="9829082441" lat="65.360391" lon="14.0874071" version="1" timestamp="2022-06-18T20:37:54Z" changeset="122560248" uid="3497659" user="NKA">
		<tag k="name" v="Heslia" />
		<tag k="place" v="isolated_dwelling" />
		<tag k="ssr:stedsnr" v="844390" />
	</node>
	<node id="9829082442" lat="65.6682521" lon="13.8015821" version="1" timestamp="2022-06-18T20:37:54Z" changeset="122560248" uid="3497659" user="NKA">
		<tag k="alt_name" v="Tvildal" />
		<tag k="name" v="Tvilldalen" />
		<tag k="place" v="farm" />
		<tag k="ssr:stedsnr" v="925528" />
	</node>
	<node id="9829082443" lat="65.4469222" lon="14.114575" version="1" timestamp="2022-06-18T20:37:54Z" changeset="122560248" uid="3497659" user="NKA">
		<tag k="name" v="Storhaugen" />
		<tag k="place" v="farm" />
		<tag k="ssr:stedsnr" v="560830" />
	</node>
	<node id="9829082444" lat="65.4626098" lon="14.3958124" version="1" timestamp="2022-06-18T20:37:54Z" changeset="122560248" uid="3497659" user="NKA">
		<tag k="alt_name" v="Brattli" />
		<tag k="name" v="Brattlia" />
		<tag k="place" v="farm" />
		<tag k="ssr:stedsnr" v="622732" />
	</node>
	<node id="9829082445" lat="65.5808656" lon="13.8302895" version="1" timestamp="2022-06-18T20:37:54Z" changeset="122560248" uid="3497659" user="NKA">
		<tag k="name" v="Høgda" />
		<tag k="place" v="farm" />
		<tag k="ssr:stedsnr" v="926049" />
	</node>
	<node id="9829082446" lat="65.6076389" lon="14.0201222" version="1" timestamp="2022-06-18T20:37:54Z" changeset="122560248" uid="3497659" user="NKA">
		<tag k="alt_name" v="Granli" />
		<tag k="name" v="Granlid" />
		<tag k="place" v="farm" />
		<tag k="ssr:stedsnr" v="804037" />
	</node>
	<node id="9829082447" lat="65.5710399" lon="13.7572297" version="1" timestamp="2022-06-18T20:37:54Z" changeset="122560248" uid="3497659" user="NKA">
		<tag k="name" v="Storvassli" />
		<tag k="place" v="farm" />
		<tag k="ssr:stedsnr" v="561210" />
	</node>
	<node id="9829082448" lat="65.4934304" lon="14.0238769" version="1" timestamp="2022-06-18T20:37:54Z" changeset="122560248" uid="3497659" user="NKA">
		<tag k="name" v="Pantdalsli" />
		<tag k="place" v="farm" />
		<tag k="ssr:stedsnr" v="545526" />
	</node>
	<node id="9829082449" lat="65.6035695" lon="14.0364278" version="1" timestamp="2022-06-18T20:37:54Z" changeset="122560248" uid="3497659" user="NKA">
		<tag k="alt_name" v="Hovstad" />
		<tag k="name" v="Hoffstad" />
		<tag k="place" v="farm" />
		<tag k="ssr:stedsnr" v="743035" />
	</node>
	<node id="9829082450" lat="65.4989498" lon="14.1664869" version="1" timestamp="2022-06-18T20:37:54Z" changeset="122560248" uid="3497659" user="NKA">
		<tag k="alt_name" v="Olderli" />
		<tag k="name" v="Olderlia" />
		<tag k="place" v="farm" />
		<tag k="ssr:stedsnr" v="925885" />
	</node>
	<node id="9829082451" lat="65.5931371" lon="14.0090889" version="1" timestamp="2022-06-18T20:37:54Z" changeset="122560248" uid="3497659" user="NKA">
		<tag k="name" v="Sletten" />
		<tag k="place" v="neighbourhood" />
		<tag k="ssr:stedsnr" v="762970" />
	</node>
	<node id="9829082452" lat="65.444775" lon="13.9936194" version="1" timestamp="2022-06-18T20:37:54Z" changeset="122560248" uid="3497659" user="NKA">
		<tag k="name" v="Olstad" />
		<tag k="place" v="farm" />
		<tag k="ssr:stedsnr" v="621833" />
	</node>
	<node id="9829082453" lat="65.5269503" lon="14.0154012" version="1" timestamp="2022-06-18T20:37:54Z" changeset="122560248" uid="3497659" user="NKA">
		<tag k="name" v="Sørvollen" />
		<tag k="place" v="locality" />
		<tag k="ssr:stedsnr" v="743162" />
	</node>
	<node id="9829082454" lat="65.6783366" lon="14.0434116" version="1" timestamp="2022-06-18T20:37:54Z" changeset="122560248" uid="3497659" user="NKA">
		<tag k="name" v="Nystad" />
		<tag k="place" v="farm" />
		<tag k="ssr:stedsnr" v="682538" />
	</node>
	<node id="9829082455" lat="65.687721" lon="14.1706443" version="1" timestamp="2022-06-18T20:37:54Z" changeset="122560248" uid="3497659" user="NKA">
		<tag k="alt_name:no" v="Krutåga" />
		<tag k="name" v="Kruvhtege - Krutå" />
		<tag k="name:no" v="Krutå" />
		<tag k="name:sma" v="Kruvhtege" />
		<tag k="place" v="hamlet" />
		<tag k="ssr:stedsnr" v="865496" />
	</node>
	<node id="9829082456" lat="65.6523222" lon="14.109436" version="1" timestamp="2022-06-18T20:37:54Z" changeset="122560248" uid="3497659" user="NKA">
		<tag k="name" v="Haugtun" />
		<tag k="place" v="farm" />
		<tag k="ssr:stedsnr" v="621434" />
	</node>
	<node id="9829082457" lat="65.3693833" lon="14.0568944" version="1" timestamp="2022-06-18T20:37:54Z" changeset="122560248" uid="3497659" user="NKA">
		<tag k="name" v="Fagertun" />
		<tag k="place" v="farm" />
		<tag k="ssr:stedsnr" v="925835" />
	</node>
	<node id="9829082458" lat="65.5030638" lon="14.154816" version="1" timestamp="2022-06-18T20:37:54Z" changeset="122560248" uid="3497659" user="NKA">
		<tag k="alt_name" v="Bjørknes" />
		<tag k="name" v="Bjørkneset" />
		<tag k="place" v="farm" />
		<tag k="ssr:stedsnr" v="744135" />
	</node>
	<node id="9829082459" lat="65.6782946" lon="14.0500989" version="1" timestamp="2022-06-18T20:37:54Z" changeset="122560248" uid="3497659" user="NKA">
		<tag k="name" v="Fagerheim" />
		<tag k="place" v="farm" />
		<tag k="ssr:stedsnr" v="621532" />
	</node>
	<node id="9829082460" lat="65.5831639" lon="13.8422529" version="1" timestamp="2022-06-18T20:37:54Z" changeset="122560248" uid="3497659" user="NKA">
		<tag k="name" v="Nyenget" />
		<tag k="place" v="farm" />
		<tag k="ssr:stedsnr" v="561009" />
	</node>
	<node id="9829082461" lat="65.4520722" lon="14.0282556" version="1" timestamp="2022-06-18T20:37:54Z" changeset="122560248" uid="3497659" user="NKA">
		<tag k="name" v="Fossum" />
		<tag k="place" v="farm" />
		<tag k="ssr:stedsnr" v="682880" />
	</node>
	<node id="9829082462" lat="65.638125" lon="13.8939749" version="1" timestamp="2022-06-18T20:37:54Z" changeset="122560248" uid="3497659" user="NKA">
		<tag k="name" v="Osberg" />
		<tag k="place" v="isolated_dwelling" />
		<tag k="ssr:stedsnr" v="440434" />
	</node>
	<node id="9829082463" lat="65.5983973" lon="14.1232806" version="1" timestamp="2022-06-18T20:37:54Z" changeset="122560248" uid="3497659" user="NKA">
		<tag k="name" v="Babylon" />
		<tag k="place" v="locality" />
		<tag k="ssr:stedsnr" v="258006" />
	</node>
	<node id="9829082464" lat="65.6810972" lon="14.1709972" version="1" timestamp="2022-06-18T20:37:54Z" changeset="122560248" uid="3497659" user="NKA">
		<tag k="name" v="Åneshytta" />
		<tag k="place" v="isolated_dwelling" />
		<tag k="ssr:stedsnr" v="640008" />
	</node>
	<node id="9829082465" lat="65.6950679" lon="14.4766054" version="1" timestamp="2022-06-18T20:37:54Z" changeset="122560248" uid="3497659" user="NKA">
		<tag k="name" v="Fjellstue" />
		<tag k="place" v="isolated_dwelling" />
		<tag k="ssr:stedsnr" v="466866" />
	</node>
	<node id="9829082466" lat="65.5267306" lon="14.0710334" version="1" timestamp="2022-06-18T20:37:54Z" changeset="122560248" uid="3497659" user="NKA">
		<tag k="alt_name" v="Elstad" />
		<tag k="name" v="Eldstad" />
		<tag k="place" v="farm" />
		<tag k="ssr:stedsnr" v="440197" />
	</node>
	<node id="9829082467" lat="65.3665167" lon="14.2496445" version="1" timestamp="2022-06-18T20:37:54Z" changeset="122560248" uid="3497659" user="NKA">
		<tag k="name" v="Gammelgården" />
		<tag k="place" v="farm" />
		<tag k="ssr:stedsnr" v="276168" />
	</node>
	<node id="9829082468" lat="65.5290611" lon="14.1272971" version="1" timestamp="2022-06-18T20:37:54Z" changeset="122560248" uid="3497659" user="NKA">
		<tag k="name" v="Sørlund" />
		<tag k="place" v="isolated_dwelling" />
		<tag k="ssr:stedsnr" v="683144" />
	</node>
	<node id="9829082469" lat="65.3647814" lon="14.2507839" version="1" timestamp="2022-06-18T20:37:54Z" changeset="122560248" uid="3497659" user="NKA">
		<tag k="name" v="Måelhkie - Kroken" />
		<tag k="name:no" v="Kroken" />
		<tag k="name:sma" v="Måelhkie" />
		<tag k="place" v="hamlet" />
		<tag k="ssr:stedsnr" v="319717" />
	</node>
	<node id="9829082470" lat="65.4471667" lon="14.0409556" version="1" timestamp="2022-06-18T20:37:54Z" changeset="122560248" uid="3497659" user="NKA">
		<tag k="name" v="Sønsterud" />
		<tag k="place" v="farm" />
		<tag k="ssr:stedsnr" v="317751" />
	</node>
	<node id="9829082471" lat="65.5460945" lon="14.1978501" version="1" timestamp="2022-06-18T20:37:54Z" changeset="122560248" uid="3497659" user="NKA">
		<tag k="name" v="Skogstue" />
		<tag k="place" v="isolated_dwelling" />
		<tag k="ssr:stedsnr" v="177659" />
	</node>
	<node id="9829082472" lat="65.3672155" lon="14.1644609" version="1" timestamp="2022-06-18T20:37:54Z" changeset="122560248" uid="3497659" user="NKA">
		<tag k="name" v="Flukstad" />
		<tag k="place" v="farm" />
		<tag k="ssr:stedsnr" v="258762" />
	</node>
	<node id="9829082473" lat="65.4218647" lon="13.9733346" version="1" timestamp="2022-06-18T20:37:54Z" changeset="122560248" uid="3497659" user="NKA">
		<tag k="name" v="Ivarrud" />
		<tag k="place" v="hamlet" />
		<tag k="ssr:stedsnr" v="15823" />
	</node>
	<node id="9829082474" lat="65.3948167" lon="13.986525" version="1" timestamp="2022-06-18T20:37:54Z" changeset="122560248" uid="3497659" user="NKA">
		<tag k="name" v="Einvoll" />
		<tag k="place" v="farm" />
		<tag k="ssr:stedsnr" v="76769" />
	</node>
	<node id="9829082475" lat="65.4344583" lon="14.1325166" version="1" timestamp="2022-06-18T20:37:54Z" changeset="122560248" uid="3497659" user="NKA">
		<tag k="name" v="Vangen" />
		<tag k="place" v="farm" />
		<tag k="ssr:stedsnr" v="76810" />
	</node>
	<node id="9829082476" lat="65.6964513" lon="13.8106548" version="1" timestamp="2022-06-18T20:37:54Z" changeset="122560248" uid="3497659" user="NKA">
		<tag k="name" v="Rostad" />
		<tag k="place" v="isolated_dwelling" />
		<tag k="ssr:stedsnr" v="683424" />
	</node>
	<node id="9829082477" lat="65.6900032" lon="14.1587831" version="1" timestamp="2022-06-18T20:37:54Z" changeset="122560248" uid="3497659" user="NKA">
		<tag k="alt_name" v="Seljerema" />
		<tag k="name" v="Seljerem" />
		<tag k="place" v="farm" />
		<tag k="ssr:stedsnr" v="621526" />
	</node>
	<node id="9829082478" lat="65.3646778" lon="14.0518028" version="1" timestamp="2022-06-18T20:37:54Z" changeset="122560248" uid="3497659" user="NKA">
		<tag k="name" v="Finnbakken" />
		<tag k="place" v="farm" />
		<tag k="ssr:stedsnr" v="15802" />
	</node>
	<node id="9829082479" lat="65.4493508" lon="14.0404018" version="1" timestamp="2022-06-18T20:37:54Z" changeset="122560248" uid="3497659" user="NKA">
		<tag k="alt_name" v="Ørjedal" />
		<tag k="name" v="Ørjedalen" />
		<tag k="place" v="farm" />
		<tag k="ssr:stedsnr" v="14815" />
	</node>
	<node id="9829082480" lat="65.3305848" lon="14.3200062" version="1" timestamp="2022-06-18T20:37:54Z" changeset="122560248" uid="3497659" user="NKA">
		<tag k="alt_name" v="Eldsmo" />
		<tag k="name" v="Eldsmoen" />
		<tag k="place" v="farm" />
		<tag k="ssr:stedsnr" v="561727" />
	</node>
	<node id="9829082481" lat="65.5755861" lon="14.0037305" version="1" timestamp="2022-06-18T20:37:54Z" changeset="122560248" uid="3497659" user="NKA">
		<tag k="name" v="Osbakken" />
		<tag k="place" v="farm" />
		<tag k="ssr:stedsnr" v="622046" />
	</node>
	<node id="9829082482" lat="65.5807945" lon="14.1506916" version="1" timestamp="2022-06-18T20:37:54Z" changeset="122560248" uid="3497659" user="NKA">
		<tag k="alt_name" v="Lauvlia" />
		<tag k="name" v="Lauvli" />
		<tag k="place" v="isolated_dwelling" />
		<tag k="ssr:stedsnr" v="622032" />
	</node>
	<node id="9829082483" lat="65.4063639" lon="13.9876083" version="1" timestamp="2022-06-18T20:37:54Z" changeset="122560248" uid="3497659" user="NKA">
		<tag k="name" v="Sandmo" />
		<tag k="place" v="farm" />
		<tag k="ssr:stedsnr" v="761564" />
	</node>
	<node id="9829082484" lat="65.3891572" lon="14.0176148" version="1" timestamp="2022-06-18T20:37:54Z" changeset="122560248" uid="3497659" user="NKA">
		<tag k="name" v="Solhaug" />
		<tag k="place" v="farm" />
		<tag k="ssr:stedsnr" v="804794" />
	</node>
	<node id="9829082485" lat="65.3689305" lon="14.0894056" version="1" timestamp="2022-06-18T20:37:54Z" changeset="122560248" uid="3497659" user="NKA">
		<tag k="alt_name" v="Klokklia" />
		<tag k="name" v="Klokkli" />
		<tag k="place" v="farm" />
		<tag k="ssr:stedsnr" v="621800" />
	</node>
	<node id="9829082486" lat="65.6766871" lon="14.0366212" version="1" timestamp="2022-06-18T20:37:54Z" changeset="122560248" uid="3497659" user="NKA">
		<tag k="name" v="Myrvoll" />
		<tag k="place" v="locality" />
		<tag k="ssr:stedsnr" v="500561" />
	</node>
	<node id="9829082487" lat="65.4317714" lon="14.0049919" version="1" timestamp="2022-06-18T20:37:54Z" changeset="122560248" uid="3497659" user="NKA">
		<tag k="alt_name" v="Slettfjelli" />
		<tag k="name" v="Slettfjellia" />
		<tag k="place" v="farm" />
		<tag k="ssr:stedsnr" v="743821" />
	</node>
	<node id="9829082488" lat="65.5735042" lon="14.1904135" version="1" timestamp="2022-06-18T20:37:54Z" changeset="122560248" uid="3497659" user="NKA">
		<tag k="name" v="Nyruta" />
		<tag k="place" v="farm" />
		<tag k="ssr:stedsnr" v="823730" />
	</node>
	<node id="9829082489" lat="65.470525" lon="14.0178973" version="1" timestamp="2022-06-18T20:37:54Z" changeset="122560248" uid="3497659" user="NKA">
		<tag k="name" v="Mikkeljorden" />
		<tag k="place" v="farm" />
		<tag k="ssr:stedsnr" v="545528" />
	</node>
	<node id="9829082490" lat="65.4860167" lon="14.0304416" version="1" timestamp="2022-06-18T20:37:54Z" changeset="122560248" uid="3497659" user="NKA">
		<tag k="name" v="Skoglund" />
		<tag k="place" v="farm" />
		<tag k="ssr:stedsnr" v="197860" />
	</node>
	<node id="9829082491" lat="65.3768028" lon="14.0364805" version="1" timestamp="2022-06-18T20:37:54Z" changeset="122560248" uid="3497659" user="NKA">
		<tag k="name" v="Brantvollen" />
		<tag k="place" v="farm" />
		<tag k="ssr:stedsnr" v="682827" />
	</node>
	<node id="9829082492" lat="65.6059222" lon="14.070839" version="1" timestamp="2022-06-18T20:37:54Z" changeset="122560248" uid="3497659" user="NKA">
		<tag k="name" v="Skogmo" />
		<tag k="place" v="farm" />
		<tag k="ssr:stedsnr" v="621030" />
	</node>
	<node id="9829082493" lat="65.6156177" lon="13.9028739" version="1" timestamp="2022-06-18T20:37:54Z" changeset="122560248" uid="3497659" user="NKA">
		<tag k="name" v="Skogstue" />
		<tag k="place" v="isolated_dwelling" />
		<tag k="ssr:stedsnr" v="301290" />
	</node>
	<node id="9829082494" lat="65.3868722" lon="14.0213056" version="1" timestamp="2022-06-18T20:37:54Z" changeset="122560248" uid="3497659" user="NKA">
		<tag k="name" v="Haugerud" />
		<tag k="place" v="farm" />
		<tag k="ssr:stedsnr" v="197808" />
	</node>
	<node id="9829082495" lat="65.4940195" lon="14.0255299" version="1" timestamp="2022-06-18T20:37:54Z" changeset="122560248" uid="3497659" user="NKA">
		<tag k="alt_name" v="Pantdalsli" />
		<tag k="name" v="Pantdalslia" />
		<tag k="place" v="farm" />
		<tag k="ssr:stedsnr" v="865848" />
	</node>
	<node id="9829082496" lat="65.3921111" lon="14.0158" version="1" timestamp="2022-06-18T20:37:54Z" changeset="122560248" uid="3497659" user="NKA">
		<tag k="name" v="Bjerke" />
		<tag k="place" v="farm" />
		<tag k="ssr:stedsnr" v="561784" />
	</node>
	<node id="9829082497" lat="65.828087" lon="14.1946595" version="1" timestamp="2022-06-18T20:37:54Z" changeset="122560248" uid="3497659" user="NKA">
		<tag k="alt_name" v="Varntræsken;Varntresken nordre" />
		<tag k="name" v="Varntresken" />
		<tag k="place" v="farm" />
		<tag k="ssr:stedsnr" v="976802" />
	</node>
	<node id="9829082498" lat="65.3694834" lon="14.1426388" version="1" timestamp="2022-06-18T20:37:54Z" changeset="122560248" uid="3497659" user="NKA">
		<tag k="alt_name" v="Austli" />
		<tag k="name" v="Austlia" />
		<tag k="place" v="farm" />
		<tag k="ssr:stedsnr" v="865777" />
	</node>
	<node id="9829082499" lat="65.3131689" lon="14.358251" version="1" timestamp="2022-06-18T20:37:54Z" changeset="122560248" uid="3497659" user="NKA">
		<tag k="alt_name" v="Sjånes" />
		<tag k="name" v="Storvollen" />
		<tag k="place" v="farm" />
		<tag k="ssr:stedsnr" v="682722" />
	</node>
	<node id="9829082500" lat="65.3794219" lon="14.0086786" version="1" timestamp="2022-06-18T20:37:54Z" changeset="122560248" uid="3497659" user="NKA">
		<tag k="alt_name" v="Sørgården" />
		<tag k="name" v="Sørgård" />
		<tag k="place" v="farm" />
		<tag k="ssr:stedsnr" v="865775" />
	</node>
	<node id="9829082501" lat="65.3999027" lon="14.0151749" version="1" timestamp="2022-06-18T20:37:54Z" changeset="122560248" uid="3497659" user="NKA">
		<tag k="name" v="Svenskvollsætra" />
		<tag k="place" v="isolated_dwelling" />
		<tag k="ssr:stedsnr" v="379752" />
	</node>
	<node id="9829082502" lat="65.3811478" lon="14.030555" version="1" timestamp="2022-06-18T20:37:54Z" changeset="122560248" uid="3497659" user="NKA">
		<tag k="name" v="Trallerud" />
		<tag k="place" v="farm" />
		<tag k="ssr:stedsnr" v="440754" />
	</node>
	<node id="9829082503" lat="65.582175" lon="13.9248611" version="1" timestamp="2022-06-18T20:37:54Z" changeset="122560248" uid="3497659" user="NKA">
		<tag k="name" v="Skogstue" />
		<tag k="place" v="isolated_dwelling" />
		<tag k="ssr:stedsnr" v="762844" />
	</node>
	<node id="9829082504" lat="65.8004306" lon="14.1830056" version="1" timestamp="2022-06-18T20:37:54Z" changeset="122560248" uid="3497659" user="NKA">
		<tag k="name" v="Bergenden" />
		<tag k="place" v="isolated_dwelling" />
		<tag k="ssr:stedsnr" v="925130" />
	</node>
	<node id="9829082505" lat="65.8125917" lon="14.2741473" version="1" timestamp="2022-06-18T20:37:54Z" changeset="122560248" uid="3497659" user="NKA">
		<tag k="alt_name" v="Grubbli" />
		<tag k="name" v="Grubblia" />
		<tag k="place" v="farm" />
		<tag k="ssr:stedsnr" v="925043" />
	</node>
	<node id="9829082506" lat="65.6052445" lon="14.1094861" version="1" timestamp="2022-06-18T20:37:54Z" changeset="122560248" uid="3497659" user="NKA">
		<tag k="name" v="Seilstad" />
		<tag k="place" v="farm" />
		<tag k="ssr:stedsnr" v="702531" />
	</node>
	<node id="9829082507" lat="65.4194" lon="13.9872888" version="1" timestamp="2022-06-18T20:37:54Z" changeset="122560248" uid="3497659" user="NKA">
		<tag k="name" v="Lona" />
		<tag k="place" v="farm" />
		<tag k="ssr:stedsnr" v="622791" />
	</node>
	<node id="9829082508" lat="65.4281306" lon="13.9376257" version="1" timestamp="2022-06-18T20:37:54Z" changeset="122560248" uid="3497659" user="NKA">
		<tag k="name" v="Fjellheim" />
		<tag k="place" v="locality" />
		<tag k="ssr:stedsnr" v="318845" />
	</node>
	<node id="9829082509" lat="65.8085695" lon="14.4353111" version="1" timestamp="2022-06-18T20:37:54Z" changeset="122560248" uid="3497659" user="NKA">
		<tag k="name" v="Famvatnet" />
		<tag k="place" v="neighbourhood" />
		<tag k="ssr:stedsnr" v="830091" />
	</node>
	<node id="9829082510" lat="65.4119194" lon="13.9836029" version="1" timestamp="2022-06-18T20:37:54Z" changeset="122560248" uid="3497659" user="NKA">
		<tag k="name" v="Haga" />
		<tag k="place" v="farm" />
		<tag k="ssr:stedsnr" v="216413" />
	</node>
	<node id="9829082511" lat="65.4494473" lon="14.10195" version="1" timestamp="2022-06-18T20:37:54Z" changeset="122560248" uid="3497659" user="NKA">
		<tag k="name" v="Engan" />
		<tag k="place" v="farm" />
		<tag k="ssr:stedsnr" v="682881" />
	</node>
	<node id="9829082512" lat="65.3638871" lon="14.0563183" version="1" timestamp="2022-06-18T20:37:54Z" changeset="122560248" uid="3497659" user="NKA">
		<tag k="name" v="Furuheim" />
		<tag k="place" v="farm" />
		<tag k="ssr:stedsnr" v="723406" />
	</node>
	<node id="9829082513" lat="65.4473959" lon="13.988607" version="1" timestamp="2022-06-18T20:37:54Z" changeset="122560248" uid="3497659" user="NKA">
		<tag k="name" v="Skogstue" />
		<tag k="place" v="isolated_dwelling" />
		<tag k="ssr:stedsnr" v="640674" />
	</node>
	<node id="9829082514" lat="65.6986676" lon="13.9484215" version="1" timestamp="2022-06-18T20:37:54Z" changeset="122560248" uid="3497659" user="NKA">
		<tag k="alt_name" v="Vestbakken" />
		<tag k="name" v="Vestbakk" />
		<tag k="place" v="farm" />
		<tag k="ssr:stedsnr" v="804464" />
	</node>
	<node id="9829082515" lat="65.39115" lon="13.9899352" version="1" timestamp="2022-06-18T20:37:54Z" changeset="122560248" uid="3497659" user="NKA">
		<tag k="alt_name" v="Værdalshaug" />
		<tag k="name" v="Værdalshaugen" />
		<tag k="place" v="farm" />
		<tag k="ssr:stedsnr" v="561787" />
	</node>
	<node id="9829082516" lat="65.37415" lon="14.0507611" version="1" timestamp="2022-06-18T20:37:54Z" changeset="122560248" uid="3497659" user="NKA">
		<tag k="alt_name" v="Trallerud, øvre" />
		<tag k="name" v="Øvre Trallerud" />
		<tag k="place" v="farm" />
		<tag k="ssr:stedsnr" v="561777" />
	</node>
	<node id="9829082517" lat="65.4476862" lon="14.4971916" version="1" timestamp="2022-06-18T20:37:54Z" changeset="122560248" uid="3497659" user="NKA">
		<tag k="alt_name" v="Grensvold" />
		<tag k="name" v="Grensvollen" />
		<tag k="place" v="farm" />
		<tag k="ssr:stedsnr" v="197726" />
	</node>
	<node id="9829082518" lat="65.6740681" lon="14.2651715" version="1" timestamp="2022-06-18T20:37:54Z" changeset="122560248" uid="3497659" user="NKA">
		<tag k="name" v="Austerkroken" />
		<tag k="place" v="farm" />
		<tag k="ssr:stedsnr" v="561849" />
	</node>
	<node id="9829082519" lat="65.2835278" lon="14.110775" version="1" timestamp="2022-06-18T20:37:54Z" changeset="122560248" uid="3497659" user="NKA">
		<tag k="name" v="Tiplinghaugen" />
		<tag k="place" v="isolated_dwelling" />
		<tag k="ssr:stedsnr" v="926726" />
	</node>
	<node id="9829082520" lat="65.7188477" lon="13.9455651" version="1" timestamp="2022-06-18T20:37:54Z" changeset="122560248" uid="3497659" user="NKA">
		<tag k="alt_name" v="Åkervik" />
		<tag k="name" v="Åkervika" />
		<tag k="place" v="hamlet" />
		<tag k="ssr:stedsnr" v="743328" />
	</node>
	<node id="9829082521" lat="65.3794528" lon="14.0327472" version="1" timestamp="2022-06-18T20:37:54Z" changeset="122560248" uid="3497659" user="NKA">
		<tag k="name" v="Ruud" />
		<tag k="place" v="farm" />
		<tag k="ssr:stedsnr" v="458631" />
	</node>
	<node id="9829082522" lat="65.4522878" lon="14.4612655" version="1" timestamp="2022-06-18T20:37:54Z" changeset="122560248" uid="3497659" user="NKA">
		<tag k="name" v="Nybrott" />
		<tag k="place" v="farm" />
		<tag k="ssr:stedsnr" v="622696" />
	</node>
	<node id="9829082523" lat="65.6632048" lon="14.1406345" version="1" timestamp="2022-06-18T20:37:54Z" changeset="122560248" uid="3497659" user="NKA">
		<tag k="name" v="Grubben" />
		<tag k="place" v="neighbourhood" />
		<tag k="ssr:stedsnr" v="526098" />
	</node>
	<node id="9829082524" lat="65.6953833" lon="14.4773222" version="1" timestamp="2022-06-18T20:37:54Z" changeset="122560248" uid="3497659" user="NKA">
		<tag k="name" v="Krutvatn" />
		<tag k="place" v="isolated_dwelling" />
		<tag k="ssr:stedsnr" v="804203" />
	</node>
	<node id="9829082525" lat="65.7180695" lon="13.9426918" version="1" timestamp="2022-06-18T20:37:54Z" changeset="122560248" uid="3497659" user="NKA">
		<tag k="name" v="Remmen" />
		<tag k="place" v="farm" />
		<tag k="ssr:stedsnr" v="701495" />
	</node>
	<node id="9829082526" lat="65.7591293" lon="14.5675843" version="1" timestamp="2022-06-18T20:37:54Z" changeset="122560248" uid="3497659" user="NKA">
		<tag k="alt_name" v="Linnerud" />
		<tag k="name" v="Linerud" />
		<tag k="place" v="farm" />
		<tag k="ssr:stedsnr" v="865482" />
	</node>
	<node id="9829082527" lat="65.4703743" lon="14.3118194" version="1" timestamp="2022-06-18T20:37:54Z" changeset="122560248" uid="3497659" user="NKA">
		<tag k="name" v="Heggnes" />
		<tag k="place" v="isolated_dwelling" />
		<tag k="ssr:stedsnr" v="501720" />
	</node>
	<node id="9829082528" lat="65.5982921" lon="13.9855912" version="1" timestamp="2022-06-18T20:37:54Z" changeset="122560248" uid="3497659" user="NKA">
		<tag k="name" v="Toppen" />
		<tag k="place" v="neighbourhood" />
		<tag k="ssr:stedsnr" v="944993" />
	</node>
	<node id="9829082529" lat="65.8136278" lon="14.1902555" version="1" timestamp="2022-06-18T20:37:54Z" changeset="122560248" uid="3497659" user="NKA">
		<tag k="alt_name" v="Tolkvatnet" />
		<tag k="name" v="Tolkvatn" />
		<tag k="place" v="farm" />
		<tag k="ssr:stedsnr" v="804143" />
	</node>
	<node id="9829082530" lat="65.8243367" lon="14.2019215" version="1" timestamp="2022-06-18T20:37:54Z" changeset="122560248" uid="3497659" user="NKA">
		<tag k="alt_name" v="Indremo" />
		<tag k="name" v="Indremoen" />
		<tag k="place" v="farm" />
		<tag k="ssr:stedsnr" v="257128" />
	</node>
	<node id="9829082531" lat="65.6476333" lon="13.9492334" version="1" timestamp="2022-06-18T20:37:54Z" changeset="122560248" uid="3497659" user="NKA">
		<tag k="alt_name" v="Oslid" />
		<tag k="name" v="Oslia" />
		<tag k="place" v="farm" />
		<tag k="ssr:stedsnr" v="925439" />
	</node>
	<node id="9829082532" lat="65.8244139" lon="14.196389" version="1" timestamp="2022-06-18T20:37:54Z" changeset="122560248" uid="3497659" user="NKA">
		<tag k="alt_name" v="Varntresk, in;Varntresk" />
		<tag k="name" v="Indre Varntresk" />
		<tag k="place" v="farm" />
		<tag k="ssr:stedsnr" v="15145" />
	</node>
	<node id="9829082533" lat="65.4557445" lon="14.4218056" version="1" timestamp="2022-06-18T20:37:54Z" changeset="122560248" uid="3497659" user="NKA">
		<tag k="name" v="Ågerud" />
		<tag k="place" v="farm" />
		<tag k="ssr:stedsnr" v="398434" />
	</node>
	<node id="9829082534" lat="65.8075753" lon="14.1688462" version="1" timestamp="2022-06-18T20:37:54Z" changeset="122560248" uid="3497659" user="NKA">
		<tag k="name" v="Villmoen" />
		<tag k="place" v="isolated_dwelling" />
		<tag k="ssr:stedsnr" v="561126" />
	</node>
	<node id="9829082535" lat="65.4006139" lon="13.9811749" version="1" timestamp="2022-06-18T20:37:54Z" changeset="122560248" uid="3497659" user="NKA">
		<tag k="name" v="Kjerstad" />
		<tag k="place" v="farm" />
		<tag k="ssr:stedsnr" v="258784" />
	</node>
	<node id="9829082536" lat="65.5643723" lon="14.3174805" version="1" timestamp="2022-06-18T20:37:54Z" changeset="122560248" uid="3497659" user="NKA">
		<tag k="alt_name" v="Storvollen" />
		<tag k="name" v="Storvoll" />
		<tag k="place" v="farm" />
		<tag k="ssr:stedsnr" v="379796" />
	</node>
	<node id="9829082537" lat="65.5737958" lon="14.1932686" version="1" timestamp="2022-06-18T20:37:54Z" changeset="122560248" uid="3497659" user="NKA">
		<tag k="name" v="Nygård" />
		<tag k="place" v="farm" />
		<tag k="ssr:stedsnr" v="16190" />
	</node>
	<node id="9829082538" lat="65.82615" lon="14.1903139" version="1" timestamp="2022-06-18T20:37:54Z" changeset="122560248" uid="3497659" user="NKA">
		<tag k="name" v="Nyrud" />
		<tag k="place" v="farm" />
		<tag k="ssr:stedsnr" v="883183" />
	</node>
	<node id="9829082539" lat="65.6925695" lon="13.8726194" version="1" timestamp="2022-06-18T20:37:54Z" changeset="122560248" uid="3497659" user="NKA">
		<tag k="name" v="Skogly" />
		<tag k="place" v="farm" />
		<tag k="ssr:stedsnr" v="804470" />
	</node>
	<node id="9829082540" lat="65.3679507" lon="14.2450121" version="1" timestamp="2022-06-18T20:37:54Z" changeset="122560248" uid="3497659" user="NKA">
		<tag k="name" v="Kroken" />
		<tag k="place" v="farm" />
		<tag k="ssr:stedsnr" v="337247" />
	</node>
	<node id="9829082541" lat="65.5365194" lon="14.4294331" version="1" timestamp="2022-06-18T20:37:54Z" changeset="122560248" uid="3497659" user="NKA">
		<tag k="name" v="Garsmarka" />
		<tag k="place" v="farm" />
		<tag k="ssr:stedsnr" v="118984" />
	</node>
	<node id="9829082542" lat="65.3618389" lon="14.0875083" version="1" timestamp="2022-06-18T20:37:54Z" changeset="122560248" uid="3497659" user="NKA">
		<tag k="alt_name" v="Bakli" />
		<tag k="name" v="Baklia" />
		<tag k="place" v="farm" />
		<tag k="ssr:stedsnr" v="318760" />
	</node>
	<node id="9829082543" lat="65.4498167" lon="14.4706212" version="1" timestamp="2022-06-18T20:37:54Z" changeset="122560248" uid="3497659" user="NKA">
		<tag k="name" v="Storbekkhytta" />
		<tag k="place" v="isolated_dwelling" />
		<tag k="ssr:stedsnr" v="891866" />
	</node>
	<node id="9829082544" lat="65.5389584" lon="14.1577029" version="1" timestamp="2022-06-18T20:37:54Z" changeset="122560248" uid="3497659" user="NKA">
		<tag k="name" v="Breidablikk" />
		<tag k="place" v="farm" />
		<tag k="ssr:stedsnr" v="318205" />
	</node>
	<node id="9829082545" lat="65.7006111" lon="13.9071833" version="1" timestamp="2022-06-18T20:37:54Z" changeset="122560248" uid="3497659" user="NKA">
		<tag k="alt_name" v="Flatmoen" />
		<tag k="name" v="Flatmo" />
		<tag k="place" v="farm" />
		<tag k="ssr:stedsnr" v="440338" />
	</node>
	<node id="9829082546" lat="65.5271276" lon="13.7563608" version="1" timestamp="2022-06-18T20:37:54Z" changeset="122560248" uid="3497659" user="NKA">
		<tag k="name" v="Berglia" />
		<tag k="place" v="farm" />
		<tag k="ssr:stedsnr" v="683129" />
	</node>
	<node id="9829082547" lat="65.799175" lon="14.2328444" version="1" timestamp="2022-06-18T20:37:54Z" changeset="122560248" uid="3497659" user="NKA">
		<tag k="name" v="Sæterstad" />
		<tag k="place" v="farm" />
		<tag k="ssr:stedsnr" v="440478" />
	</node>
	<node id="9829082548" lat="65.8029389" lon="14.5660778" version="1" timestamp="2022-06-18T20:37:54Z" changeset="122560248" uid="3497659" user="NKA">
		<tag k="name" v="Lars-Monsaheimen" />
		<tag k="place" v="locality" />
		<tag k="ssr:stedsnr" v="891938" />
	</node>
	<node id="9829082549" lat="65.7197611" lon="13.6925056" version="1" timestamp="2022-06-18T20:37:54Z" changeset="122560248" uid="3497659" user="NKA">
		<tag k="name" v="Jamtvollan" />
		<tag k="place" v="isolated_dwelling" />
		<tag k="ssr:stedsnr" v="743746" />
	</node>
	<node id="9829082550" lat="65.5130177" lon="14.1481565" version="1" timestamp="2022-06-18T20:37:54Z" changeset="122560248" uid="3497659" user="NKA">
		<tag k="name" v="Luspie - Luspen" />
		<tag k="name:no" v="Luspen" />
		<tag k="name:sma" v="Luspie" />
		<tag k="place" v="isolated_dwelling" />
		<tag k="ssr:stedsnr" v="258153" />
	</node>
	<node id="9829082551" lat="65.5831972" lon="13.8505916" version="1" timestamp="2022-06-18T20:37:54Z" changeset="122560248" uid="3497659" user="NKA">
		<tag k="name" v="Bjerkeset" />
		<tag k="place" v="farm" />
		<tag k="ssr:stedsnr" v="561011" />
	</node>
	<node id="9829082552" lat="65.8137722" lon="14.3594888" version="1" timestamp="2022-06-18T20:37:54Z" changeset="122560248" uid="3497659" user="NKA">
		<tag k="name" v="Bjørkvik" />
		<tag k="place" v="farm" />
		<tag k="ssr:stedsnr" v="136003" />
	</node>
	<node id="9829082553" lat="65.5393607" lon="14.0156985" version="1" timestamp="2022-06-18T20:37:54Z" changeset="122560248" uid="3497659" user="NKA">
		<tag k="name" v="Nerli" />
		<tag k="place" v="farm" />
		<tag k="ssr:stedsnr" v="500272" />
	</node>
	<node id="9829082554" lat="65.7344583" lon="14.0645083" version="1" timestamp="2022-06-18T20:37:54Z" changeset="122560248" uid="3497659" user="NKA">
		<tag k="name" v="Murnes" />
		<tag k="place" v="farm" />
		<tag k="ssr:stedsnr" v="318271" />
	</node>
	<node id="9829082555" lat="65.7273166" lon="13.962764" version="1" timestamp="2022-06-18T20:37:54Z" changeset="122560248" uid="3497659" user="NKA">
		<tag k="name" v="Grannes" />
		<tag k="place" v="farm" />
		<tag k="ssr:stedsnr" v="318293" />
	</node>
	<node id="9829082556" lat="65.5937778" lon="14.0581167" version="1" timestamp="2022-06-18T20:37:54Z" changeset="122560248" uid="3497659" user="NKA">
		<tag k="name" v="Rustad" />
		<tag k="place" v="farm" />
		<tag k="ssr:stedsnr" v="440001" />
	</node>
	<node id="9829082557" lat="65.6226407" lon="13.9116111" version="1" timestamp="2022-06-18T20:37:54Z" changeset="122560248" uid="3497659" user="NKA">
		<tag k="name" v="Granmo" />
		<tag k="place" v="farm" />
		<tag k="ssr:stedsnr" v="440105" />
	</node>
	<node id="9829082558" lat="65.5521" lon="14.1329223" version="1" timestamp="2022-06-18T20:37:54Z" changeset="122560248" uid="3497659" user="NKA">
		<tag k="name" v="Arnstad" />
		<tag k="place" v="farm" />
		<tag k="ssr:stedsnr" v="136272" />
	</node>
	<node id="9829082559" lat="65.5167615" lon="14.1127423" version="1" timestamp="2022-06-18T20:37:54Z" changeset="122560248" uid="3497659" user="NKA">
		<tag k="alt_name" v="Vatshaug" />
		<tag k="name" v="Vasshaugen" />
		<tag k="place" v="farm" />
		<tag k="ssr:stedsnr" v="136159" />
	</node>
	<node id="9829082560" lat="65.3626259" lon="14.0848988" version="1" timestamp="2022-06-18T20:37:54Z" changeset="122560248" uid="3497659" user="NKA">
		<tag k="name" v="Rapbekkvollen" />
		<tag k="place" v="isolated_dwelling" />
		<tag k="ssr:stedsnr" v="906446" />
	</node>
	<node id="9829082561" lat="65.3998417" lon="14.0051917" version="1" timestamp="2022-06-18T20:37:54Z" changeset="122560248" uid="3497659" user="NKA">
		<tag k="name" v="Furuly" />
		<tag k="place" v="farm" />
		<tag k="ssr:stedsnr" v="761557" />
	</node>
	<node id="9829082562" lat="65.4345" lon="13.9882445" version="1" timestamp="2022-06-18T20:37:54Z" changeset="122560248" uid="3497659" user="NKA">
		<tag k="name" v="Nervollen" />
		<tag k="place" v="farm" />
		<tag k="ssr:stedsnr" v="743822" />
	</node>
	<node id="9829082563" lat="65.3711672" lon="14.0241901" version="1" timestamp="2022-06-18T20:37:54Z" changeset="122560248" uid="3497659" user="NKA">
		<tag k="name" v="Øyum" />
		<tag k="place" v="farm" />
		<tag k="ssr:stedsnr" v="743786" />
	</node>
	<node id="9829082564" lat="65.7121609" lon="13.9371548" version="1" timestamp="2022-06-18T20:37:54Z" changeset="122560248" uid="3497659" user="NKA">
		<tag k="name" v="Lamoen" />
		<tag k="place" v="hamlet" />
		<tag k="ssr:stedsnr" v="197350" />
	</node>
	<node id="9829082565" lat="65.7185222" lon="13.9510861" version="1" timestamp="2022-06-18T20:37:54Z" changeset="122560248" uid="3497659" user="NKA">
		<tag k="name" v="Bakken" />
		<tag k="place" v="farm" />
		<tag k="ssr:stedsnr" v="216394" />
	</node>
	<node id="9829082566" lat="65.6303691" lon="14.0297513" version="1" timestamp="2022-06-18T20:37:54Z" changeset="122560248" uid="3497659" user="NKA">
		<tag k="alt_name" v="Breidset" />
		<tag k="name" v="Breiset" />
		<tag k="place" v="farm" />
		<tag k="ssr:stedsnr" v="319099" />
	</node>
	<node id="9829082567" lat="65.8058175" lon="14.3164862" version="1" timestamp="2022-06-18T20:37:54Z" changeset="122560248" uid="3497659" user="NKA">
		<tag k="name" v="Famlia" />
		<tag k="place" v="farm" />
		<tag k="ssr:stedsnr" v="743013" />
	</node>
	<node id="9829082568" lat="65.4436389" lon="14.1365694" version="1" timestamp="2022-06-18T20:37:54Z" changeset="122560248" uid="3497659" user="NKA">
		<tag k="name" v="Fagerbakken" />
		<tag k="place" v="farm" />
		<tag k="ssr:stedsnr" v="742802" />
	</node>
	<node id="9829082569" lat="65.7660628" lon="13.9229255" version="1" timestamp="2022-06-18T20:37:54Z" changeset="122560248" uid="3497659" user="NKA">
		<tag k="name" v="Rystad" />
		<tag k="place" v="farm" />
		<tag k="ssr:stedsnr" v="865116" />
	</node>
	<node id="9829082570" lat="65.5949029" lon="14.0373576" version="1" timestamp="2022-06-18T20:37:54Z" changeset="122560248" uid="3497659" user="NKA">
		<tag k="name" v="Villmoen" />
		<tag k="place" v="farm" />
		<tag k="ssr:stedsnr" v="319036" />
	</node>
	<node id="9829082571" lat="65.5746056" lon="14.3489472" version="1" timestamp="2022-06-18T20:37:54Z" changeset="122560248" uid="3497659" user="NKA">
		<tag k="name" v="Plassbakken" />
		<tag k="place" v="isolated_dwelling" />
		<tag k="ssr:stedsnr" v="664702" />
	</node>
	<node id="9829082572" lat="65.4177723" lon="14.2008695" version="1" timestamp="2022-06-18T20:37:54Z" changeset="122560248" uid="3497659" user="NKA">
		<tag k="alt_name" v="Reinskarenget" />
		<tag k="name" v="Reinskardenget" />
		<tag k="place" v="farm" />
		<tag k="ssr:stedsnr" v="198800" />
	</node>
</osm>
