<?xml version="1.0" encoding="UTF-8"?>
<osm version="0.6" generator="osmapis">
	<node lat="62.36048333639808" lon="9.411397221475472" id="-30976">
		<tag k="name" v="Storbrean" />
		<tag k="natural" v="glacier" />
		<tag k="ssr:stedsnr" v="10602" />
	</node>
	<node lat="62.61033333645501" lon="9.546291667672232" id="-31011">
		<tag k="name" v="Holbrekka" />
		<tag k="place" v="locality" />
		<tag k="ssr:stedsnr" v="28807" />
	</node>
	<node lat="62.57826111140993" lon="9.443233324859692" id="-31022">
		<tag k="name" v="Øver Svartøyløkkja" />
		<tag k="place" v="locality" />
		<tag k="ssr:stedsnr" v="43312" />
	</node>
	<node lat="62.7218833338826" lon="9.543441670136708" id="-31024">
		<tag k="name" v="Kalsenget" />
		<tag k="place" v="locality" />
		<tag k="ssr:stedsnr" v="43672" />
	</node>
	<node lat="62.62665555594301" lon="9.471138896817402" id="-31059">
		<tag k="landuse" v="meadow" />
		<tag k="name" v="Håggåløkkja" />
		<tag k="ssr:stedsnr" v="88768" />
	</node>
	<node lat="62.50741111255919" lon="9.237766675205693" id="-31073">
		<tag k="historic" v="shieling" />
		<tag k="name" v="Osphaugsætra" />
		<tag k="place" v="locality" />
		<tag k="ssr:stedsnr" v="104279" />
	</node>
	<node lat="62.575327779623464" lon="9.537863896912409" id="-31075">
		<tag k="historic" v="shieling" />
		<tag k="name" v="Pellesætra" />
		<tag k="place" v="locality" />
		<tag k="ssr:stedsnr" v="104293" />
	</node>
	<node lat="62.68104444742964" lon="9.470744451223752" id="-31076">
		<tag k="name" v="Brymyra" />
		<tag k="natural" v="wetland" />
		<tag k="ssr:stedsnr" v="104414" />
	</node>
	<node lat="62.635124996366315" lon="9.504413894715166" id="-31077">
		<tag k="landuse" v="meadow" />
		<tag k="name" v="Rasmusslættet" />
		<tag k="ssr:stedsnr" v="104426" />
	</node>
	<node lat="62.690402775129016" lon="9.373427784891645" id="-31081">
		<tag k="name" v="Rognholtet" />
		<tag k="natural" v="wetland" />
		<tag k="ssr:stedsnr" v="104396" />
	</node>
	<node lat="62.56311666938729" lon="9.592766670384957" id="-31137">
		<tag k="name" v="Langmyra" />
		<tag k="natural" v="wetland" />
		<tag k="ssr:stedsnr" v="254550" />
	</node>
	<node lat="62.666683335932355" lon="9.259799993970903" id="-31160">
		<tag k="landuse" v="meadow" />
		<tag k="name" v="Blautbekkenget" />
		<tag k="ssr:stedsnr" v="149154" />
	</node>
	<node lat="62.66576389198857" lon="9.881580547550742" id="-31164">
		<tag k="name" v="Osphaugen" />
		<tag k="place" v="locality" />
		<tag k="ssr:stedsnr" v="149663" />
	</node>
	<node lat="62.60840833348582" lon="9.456491666859003" id="-31165">
		<tag k="name" v="Lauvkjellan" />
		<tag k="place" v="locality" />
		<tag k="ssr:stedsnr" v="149806" />
	</node>
	<node lat="62.6111027754358" lon="9.308422217201024" id="-31167">
		<tag k="name" v="Stølmyra" />
		<tag k="natural" v="wetland" />
		<tag k="ssr:stedsnr" v="149820" />
	</node>
	<node lat="62.655980559895966" lon="9.936652777343832" id="-31169">
		<tag k="alt_name" v="Storlia" />
		<tag k="name" v="Storlimorka" />
		<tag k="place" v="locality" />
		<tag k="ssr:stedsnr" v="149859" />
	</node>
	<node lat="62.76376110745993" lon="9.586416664568086" id="-31176">
		<tag k="landuse" v="meadow" />
		<tag k="name" v="Pålenget" />
		<tag k="ssr:stedsnr" v="163420" />
	</node>
	<node lat="62.70876944202764" lon="9.797197216522642" id="-31179">
		<tag k="landuse" v="meadow" />
		<tag k="name" v="Grytdalsenga" />
		<tag k="ssr:stedsnr" v="164515" />
	</node>
	<node lat="62.57905277631421" lon="9.208263886696201" id="-31194">
		<tag k="name" v="Follorda" />
		<tag k="natural" v="scree" />
		<tag k="ssr:stedsnr" v="269015" />
	</node>
	<node lat="62.517377773553065" lon="9.621308326157392" id="-31208">
		<tag k="name" v="Risløkkjkalvhåggån" />
		<tag k="place" v="locality" />
		<tag k="ssr:stedsnr" v="210889" />
	</node>
	<node lat="62.67675555440383" lon="9.17549445052425" id="-31210">
		<tag k="name" v="Ångardsenga" />
		<tag k="place" v="locality" />
		<tag k="ssr:stedsnr" v="211178" />
	</node>
	<node lat="62.53821667019606" lon="9.330530550453037" id="-31219">
		<tag k="name" v="Trøa" />
		<tag k="place" v="locality" />
		<tag k="ssr:stedsnr" v="225286" />
	</node>
	<node lat="62.53914999877334" lon="9.323891676023088" id="-31221">
		<tag k="landuse" v="meadow" />
		<tag k="name" v="Blokkhusenget" />
		<tag k="ssr:stedsnr" v="225293" />
	</node>
	<node lat="62.54198888554935" lon="9.355413891917479" id="-31223">
		<tag k="landuse" v="meadow" />
		<tag k="name" v="Osphaugenget" />
		<tag k="ssr:stedsnr" v="225407" />
	</node>
	<node lat="62.55091389251549" lon="9.37801667184767" id="-31225">
		<tag k="name" v="Hemmer myra" />
		<tag k="natural" v="wetland" />
		<tag k="ssr:stedsnr" v="225388" />
	</node>
	<node lat="62.547522226048486" lon="9.3682722151007" id="-31226">
		<tag k="name" v="Nerholkalgan" />
		<tag k="place" v="locality" />
		<tag k="ssr:stedsnr" v="225389" />
	</node>
	<node lat="62.66091389233407" lon="9.89904722101179" id="-31238">
		<tag k="name" v="Asphaugmyra" />
		<tag k="natural" v="wetland" />
		<tag k="ssr:stedsnr" v="271720" />
	</node>
	<node lat="62.65168889310206" lon="9.860152769467149" id="-31239">
		<tag k="name" v="Nylandet" />
		<tag k="place" v="locality" />
		<tag k="ssr:stedsnr" v="271794" />
	</node>
	<node lat="62.65389722664318" lon="9.859549990607613" id="-31240">
		<tag k="name" v="Kåsa" />
		<tag k="place" v="locality" />
		<tag k="ssr:stedsnr" v="271796" />
	</node>
	<node lat="62.472761110850406" lon="9.57441110585518" id="-31246">
		<tag k="landuse" v="meadow" />
		<tag k="name" v="Vollaenget" />
		<tag k="ssr:stedsnr" v="271756" />
	</node>
	<node lat="62.62802777429949" lon="9.29807222014547" id="-31250">
		<tag k="name" v="Gjerdemyran" />
		<tag k="natural" v="wetland" />
		<tag k="ssr:stedsnr" v="271845" />
	</node>
	<node lat="62.615913891045125" lon="9.556719442879968" id="-31255">
		<tag k="name" v="Nappen" />
		<tag k="place" v="locality" />
		<tag k="ssr:stedsnr" v="271870" />
	</node>
	<node lat="62.64447222424718" lon="9.295708323730965" id="-31263">
		<tag k="name" v="Buslættmyran" />
		<tag k="natural" v="wetland" />
		<tag k="ssr:stedsnr" v="452820" />
	</node>
	<node lat="62.66437777389008" lon="9.866705557767004" id="-31271">
		<tag k="name" v="Nyløkkja" />
		<tag k="place" v="locality" />
		<tag k="ssr:stedsnr" v="453757" />
	</node>
	<node lat="62.57825555270334" lon="9.756613881246546" id="-31274">
		<tag k="historic" v="shieling" />
		<tag k="name" v="Gammelvangan" />
		<tag k="place" v="locality" />
		<tag k="ssr:stedsnr" v="453786" />
	</node>
	<node lat="62.59715277534057" lon="9.330630562951926" id="-31276">
		<tag k="name" v="Kalvhåggån" />
		<tag k="place" v="locality" />
		<tag k="ssr:stedsnr" v="453878" />
	</node>
	<node lat="62.547072225409714" lon="9.61374166240893" id="-31277">
		<tag k="name" v="Trengsmoen" />
		<tag k="place" v="locality" />
		<tag k="ssr:stedsnr" v="453849" />
	</node>
	<node lat="62.58227500184222" lon="9.710158336600735" id="-31294">
		<tag k="historic" v="shieling" />
		<tag k="name" v="Olderkåsa" />
		<tag k="place" v="locality" />
		<tag k="ssr:stedsnr" v="254514" />
	</node>
	<node lat="62.596549996091525" lon="9.474324997390264" id="-31300">
		<tag k="alt_name" v="Stormyra" />
		<tag k="name" v="Morkamyra" />
		<tag k="natural" v="wetland" />
		<tag k="ssr:stedsnr" v="254472" />
	</node>
	<node lat="62.4910972245146" lon="9.643797225108566" id="-31398">
		<tag k="name" v="Gammelløkkja" />
		<tag k="place" v="locality" />
		<tag k="ssr:stedsnr" v="468006" />
	</node>
	<node lat="62.64750555621183" lon="9.548633333434491" id="-31399">
		<tag k="landuse" v="meadow" />
		<tag k="name" v="Buenget" />
		<tag k="ssr:stedsnr" v="468274" />
	</node>
	<node lat="62.633627773890794" lon="9.546661117080545" id="-31407">
		<tag k="name" v="Storløkkjon" />
		<tag k="place" v="locality" />
		<tag k="ssr:stedsnr" v="468277" />
	</node>
	<node lat="62.57339444241163" lon="9.39336388729848" id="-31413">
		<tag k="name" v="Nystoggo" />
		<tag k="place" v="locality" />
		<tag k="ssr:stedsnr" v="468297" />
	</node>
	<node lat="62.67752777403512" lon="9.88183333604654" id="-31415">
		<tag k="name" v="Tellefsløkkja" />
		<tag k="place" v="locality" />
		<tag k="ssr:stedsnr" v="468355" />
	</node>
	<node lat="62.6506194463765" lon="9.501008325365456" id="-31417">
		<tag k="landuse" v="meadow" />
		<tag k="name" v="Svartløkkja" />
		<tag k="ssr:stedsnr" v="468378" />
	</node>
	<node lat="62.584502777648524" lon="9.45872499683591" id="-31422">
		<tag k="name" v="Rasmusløkkja" />
		<tag k="place" v="locality" />
		<tag k="ssr:stedsnr" v="468302" />
	</node>
	<node lat="62.48107500428981" lon="9.564066668527538" id="-31432">
		<tag k="name" v="Borkhusplassen" />
		<tag k="place" v="locality" />
		<tag k="ssr:stedsnr" v="331705" />
	</node>
	<node lat="62.62573333043897" lon="9.47796389024656" id="-31439">
		<tag k="name" v="Gorroløkkja" />
		<tag k="place" v="locality" />
		<tag k="ssr:stedsnr" v="331802" />
	</node>
	<node lat="62.65920000034293" lon="9.271597230559768" id="-31442">
		<tag k="name" v="Bruvollen" />
		<tag k="place" v="locality" />
		<tag k="ssr:stedsnr" v="332150" />
	</node>
	<node lat="62.625797220190485" lon="9.91673056155547" id="-31447">
		<tag k="historic" v="shieling" />
		<tag k="name" v="Melessætervollan" />
		<tag k="place" v="locality" />
		<tag k="ssr:stedsnr" v="346507" />
	</node>
	<node lat="62.64591110676656" lon="9.90744166666927" id="-31449">
		<tag k="name" v="Kvernøya" />
		<tag k="place" v="locality" />
		<tag k="ssr:stedsnr" v="346519" />
	</node>
	<node lat="62.714063892481875" lon="9.811788895406984" id="-31450">
		<tag k="name" v="Stormyra" />
		<tag k="natural" v="wetland" />
		<tag k="ssr:stedsnr" v="346473" />
	</node>
	<node lat="62.56165555383503" lon="9.593327785143183" id="-31451">
		<tag k="name" v="Stormyra" />
		<tag k="natural" v="wetland" />
		<tag k="ssr:stedsnr" v="347009" />
	</node>
	<node lat="62.6571555571805" lon="9.281327776876639" id="-31497">
		<tag k="name" v="Gravunnsenget" />
		<tag k="place" v="locality" />
		<tag k="ssr:stedsnr" v="392202" />
	</node>
	<node lat="62.67198333623662" lon="9.885280554801325" id="-31505">
		<tag k="name" v="Storløkkjon" />
		<tag k="place" v="locality" />
		<tag k="ssr:stedsnr" v="392713" />
	</node>
	<node lat="62.714286107865696" lon="9.553799996690291" id="-31521">
		<tag k="landuse" v="meadow" />
		<tag k="name" v="Hindsetenga" />
		<tag k="ssr:stedsnr" v="406043" />
	</node>
	<node lat="62.731777775584945" lon="9.554147227474466" id="-31523">
		<tag k="name" v="Øyan" />
		<tag k="place" v="locality" />
		<tag k="ssr:stedsnr" v="406049" />
	</node>
	<node lat="62.641488885258674" lon="9.835041673172046" id="-31527">
		<tag k="landuse" v="meadow" />
		<tag k="name" v="Stortjønnenget" />
		<tag k="ssr:stedsnr" v="407514" />
	</node>
	<node lat="62.70027777450899" lon="9.751783340535114" id="-31528">
		<tag k="name" v="Grønkjerret" />
		<tag k="place" v="locality" />
		<tag k="ssr:stedsnr" v="407493" />
	</node>
	<node lat="62.764627777165806" lon="9.563577772082663" id="-31529">
		<tag k="landuse" v="meadow" />
		<tag k="name" v="Kåsenget" />
		<tag k="ssr:stedsnr" v="407496" />
	</node>
	<node lat="62.50741666466543" lon="9.212897218919311" id="-31530">
		<tag k="landuse" v="meadow" />
		<tag k="name" v="Kvitbekkenget" />
		<tag k="ssr:stedsnr" v="408294" />
	</node>
	<node lat="62.54222222262665" lon="9.33745556251705" id="-31531">
		<tag k="landuse" v="meadow" />
		<tag k="name" v="Larsenget" />
		<tag k="ssr:stedsnr" v="408411" />
	</node>
	<node lat="62.54387222369371" lon="9.36305555242578" id="-31539">
		<tag k="landuse" v="meadow" />
		<tag k="name" v="Kalgan" />
		<tag k="ssr:stedsnr" v="408396" />
	</node>
	<node lat="62.34328888521693" lon="9.283063881500297" id="-31548">
		<tag k="name" v="Larsurda" />
		<tag k="natural" v="scree" />
		<tag k="ssr:stedsnr" v="435561" />
	</node>
	<node lat="62.62991944221095" lon="9.711913881569462" id="-31585">
		<tag k="name" v="Gråmyrin" />
		<tag k="natural" v="wetland" />
		<tag k="ssr:stedsnr" v="453774" />
	</node>
	<node lat="62.51829444892963" lon="9.62119165757805" id="-31588">
		<tag k="name" v="Risgjelan" />
		<tag k="place" v="locality" />
		<tag k="ssr:stedsnr" v="453866" />
	</node>
	<node lat="62.64113055865654" lon="9.831638882972822" id="-31603">
		<tag k="landuse" v="meadow" />
		<tag k="name" v="Storkrattenget" />
		<tag k="ssr:stedsnr" v="468429" />
	</node>
	<node lat="62.707819446046095" lon="9.332733338439652" id="-31605">
		<tag k="landuse" v="meadow" />
		<tag k="name" v="Høgenget" />
		<tag k="ssr:stedsnr" v="468363" />
	</node>
	<node lat="62.6921750004655" lon="9.536058328507776" id="-31611">
		<tag k="name" v="Smørkleva" />
		<tag k="place" v="locality" />
		<tag k="ssr:stedsnr" v="468679" />
	</node>
	<node lat="62.53954166247143" lon="9.619541657605977" id="-31696">
		<tag k="name" v="Losvolløya" />
		<tag k="place" v="locality" />
		<tag k="ssr:stedsnr" v="513676" />
	</node>
	<node lat="62.67041388569816" lon="9.881411106755742" id="-31698">
		<tag k="name" v="Sigridhaug-kalvhåggån" />
		<tag k="place" v="locality" />
		<tag k="ssr:stedsnr" v="513687" />
	</node>
	<node lat="62.57290555424868" lon="9.329766670466952" id="-31707">
		<tag k="name" v="Røsa" />
		<tag k="place" v="locality" />
		<tag k="ssr:stedsnr" v="513913" />
	</node>
	<node lat="62.67987778196856" lon="9.160897229504934" id="-31709">
		<tag k="name" v="Kjerringenget" />
		<tag k="place" v="locality" />
		<tag k="ssr:stedsnr" v="514211" />
	</node>
	<node lat="62.58172221841009" lon="9.586116671010187" id="-31713">
		<tag k="name" v="Hovdmyran" />
		<tag k="natural" v="wetland" />
		<tag k="ssr:stedsnr" v="529008" />
	</node>
	<node lat="62.58296388649539" lon="9.494769434780757" id="-31719">
		<tag k="historic" v="shieling" />
		<tag k="name" v="Høgsætra" />
		<tag k="place" v="locality" />
		<tag k="ssr:stedsnr" v="529303" />
	</node>
	<node lat="62.607358335498276" lon="9.846005549695219" id="-31726">
		<tag k="historic" v="shieling" />
		<tag k="name" v="Øver Skårråvangen" />
		<tag k="place" v="locality" />
		<tag k="ssr:stedsnr" v="529476" />
	</node>
	<node lat="62.57545555979459" lon="9.640174992196997" id="-31760">
		<tag k="name" v="Bruvollen" />
		<tag k="place" v="locality" />
		<tag k="ssr:stedsnr" v="695637" />
	</node>
	<node lat="62.63860277833187" lon="9.298763896592138" id="-31767">
		<tag k="name" v="Moenget" />
		<tag k="place" v="locality" />
		<tag k="ssr:stedsnr" v="573800" />
	</node>
	<node lat="62.56668333488906" lon="9.760144444234507" id="-31772">
		<tag k="historic" v="shieling" />
		<tag k="name" v="Gammelvangen" />
		<tag k="place" v="locality" />
		<tag k="ssr:stedsnr" v="574806" />
	</node>
	<node lat="62.653616668395685" lon="9.855255548636764" id="-31786">
		<tag k="name" v="Ner-Holda" />
		<tag k="place" v="locality" />
		<tag k="ssr:stedsnr" v="695739" />
	</node>
	<node lat="62.75325833677636" lon="9.580511114028173" id="-31796">
		<tag k="landuse" v="meadow" />
		<tag k="name" v="Klettet" />
		<tag k="ssr:stedsnr" v="588056" />
	</node>
	<node lat="62.63546111091604" lon="9.564147219882756" id="-31808">
		<tag k="name" v="Øvergjerdet" />
		<tag k="place" v="locality" />
		<tag k="ssr:stedsnr" v="589072" />
	</node>
	<node lat="62.64669166482735" lon="9.831013887334928" id="-31857">
		<tag k="name" v="Nordskogen" />
		<tag k="place" v="locality" />
		<tag k="ssr:stedsnr" v="634431" />
	</node>
	<node lat="62.64946389012638" lon="9.290108328396764" id="-31862">
		<tag k="name" v="Buslættet" />
		<tag k="natural" v="wetland" />
		<tag k="ssr:stedsnr" v="634831" />
	</node>
	<node lat="62.59258333685944" lon="9.344250007103943" id="-31865">
		<tag k="name" v="Nyløkkja" />
		<tag k="place" v="locality" />
		<tag k="ssr:stedsnr" v="634888" />
	</node>
	<node lat="62.66921110853274" lon="9.247072217322353" id="-31868">
		<tag k="name" v="Vetlslættet" />
		<tag k="place" v="locality" />
		<tag k="ssr:stedsnr" v="635176" />
	</node>
	<node lat="62.60062777793679" lon="9.476911113916795" id="-31880">
		<tag k="name" v="Krokmyra" />
		<tag k="natural" v="wetland" />
		<tag k="ssr:stedsnr" v="650312" />
	</node>
	<node lat="62.56664444251785" lon="9.393391658211126" id="-31881">
		<tag k="name" v="Luenget" />
		<tag k="place" v="locality" />
		<tag k="ssr:stedsnr" v="650315" />
	</node>
	<node lat="62.64256667081214" lon="9.842502773090036" id="-31885">
		<tag k="name" v="Holmen" />
		<tag k="natural" v="wetland" />
		<tag k="ssr:stedsnr" v="650443" />
	</node>
	<node lat="62.645911110866436" lon="9.829430563934725" id="-31886">
		<tag k="name" v="Mysostplassteigen" />
		<tag k="place" v="locality" />
		<tag k="ssr:stedsnr" v="650445" />
	</node>
	<node lat="62.66113610722237" lon="9.239933324001942" id="-31918">
		<tag k="name" v="Løkkja" />
		<tag k="place" v="locality" />
		<tag k="ssr:stedsnr" v="679667" />
	</node>
	<node lat="62.69872322258356" lon="9.39931413213021" id="-31921">
		<tag k="alt_name" v="Rauøra" />
		<tag k="name" v="Raudøra" />
		<tag k="place" v="locality" />
		<tag k="ssr:stedsnr" v="679586" />
	</node>
	<node lat="62.754938889033745" lon="9.571302779583155" id="-31931">
		<tag k="name" v="Klettøyan" />
		<tag k="place" v="locality" />
		<tag k="ssr:stedsnr" v="892035" />
	</node>
	<node lat="62.70291111044624" lon="9.567758335122932" id="-31934">
		<tag k="landuse" v="meadow" />
		<tag k="name" v="Klettgjerdenget" />
		<tag k="ssr:stedsnr" v="893036" />
	</node>
	<node lat="62.55128888791217" lon="9.372305550215872" id="-31939">
		<tag k="name" v="Vetlstølen" />
		<tag k="place" v="locality" />
		<tag k="ssr:stedsnr" v="893354" />
	</node>
	<node lat="62.55335277372192" lon="9.373011111136067" id="-31940">
		<tag k="name" v="Ratkalvhåggån" />
		<tag k="place" v="locality" />
		<tag k="ssr:stedsnr" v="893357" />
	</node>
	<node lat="62.54418332896652" lon="9.35427222926835" id="-31942">
		<tag k="landuse" v="meadow" />
		<tag k="name" v="Hestenget" />
		<tag k="ssr:stedsnr" v="893366" />
	</node>
	<node lat="62.52987777336594" lon="9.374213885712443" id="-31944">
		<tag k="name" v="Storstenen" />
		<tag k="natural" v="stone" />
		<tag k="ssr:stedsnr" v="893379" />
	</node>
	<node lat="62.68838889065875" lon="9.933377777115908" id="-31947">
		<tag k="name" v="Gisna" />
		<tag k="place" v="locality" />
		<tag k="ssr:stedsnr" v="893387" />
	</node>
	<node lat="62.7128194463541" lon="9.774663885993522" id="-31952">
		<tag k="landuse" v="meadow" />
		<tag k="name" v="Midtskogenget" />
		<tag k="ssr:stedsnr" v="893438" />
	</node>
	<node lat="62.63685277543621" lon="9.287697219791267" id="-31962">
		<tag k="name" v="Vetlvangen" />
		<tag k="place" v="locality" />
		<tag k="ssr:stedsnr" v="695818" />
	</node>
	<node lat="62.59360000213709" lon="9.303577771320167" id="-31963">
		<tag k="name" v="Horvan" />
		<tag k="place" v="locality" />
		<tag k="ssr:stedsnr" v="695824" />
	</node>
	<node lat="62.62491944289156" lon="9.489061106663655" id="-31967">
		<tag k="historic" v="shieling" />
		<tag k="name" v="Festavollan" />
		<tag k="place" v="locality" />
		<tag k="ssr:stedsnr" v="695771" />
	</node>
	<node lat="62.62183055615891" lon="9.482302771025195" id="-31968">
		<tag k="name" v="Nyrønningen" />
		<tag k="place" v="locality" />
		<tag k="ssr:stedsnr" v="695776" />
	</node>
	<node lat="62.662074997307045" lon="9.220780556204373" id="-31973">
		<tag k="name" v="Moen" />
		<tag k="place" v="locality" />
		<tag k="ssr:stedsnr" v="696172" />
	</node>
	<node lat="62.6607722177547" lon="9.276775009036694" id="-31975">
		<tag k="name" v="Badstutrøa" />
		<tag k="place" v="locality" />
		<tag k="ssr:stedsnr" v="696180" />
	</node>
	<node lat="62.72493611394692" lon="9.554744448347495" id="-31979">
		<tag k="landuse" v="meadow" />
		<tag k="name" v="Torsenget" />
		<tag k="ssr:stedsnr" v="709036" />
	</node>
	<node lat="62.38248889088505" lon="9.638761108681718" id="-31983">
		<tag k="historic" v="shieling" />
		<tag k="name" v="Geitsætra" />
		<tag k="place" v="locality" />
		<tag k="ssr:stedsnr" v="711028" />
	</node>
	<node lat="62.68669166594221" lon="9.88923611286797" id="-31991">
		<tag k="name" v="Sætersenget" />
		<tag k="place" v="locality" />
		<tag k="ssr:stedsnr" v="711411" />
	</node>
	<node lat="62.58121666243419" lon="9.523138884887619" id="-31992">
		<tag k="historic" v="shieling" />
		<tag k="name" v="Svasætra" />
		<tag k="place" v="locality" />
		<tag k="ssr:stedsnr" v="711304" />
	</node>
	<node lat="62.666419447429256" lon="9.532294454213941" id="-31995">
		<tag k="name" v="Storstaupet" />
		<tag k="place" v="locality" />
		<tag k="ssr:stedsnr" v="711332" />
	</node>
	<node lat="62.55340277813792" lon="9.377291671876742" id="-31998">
		<tag k="historic" v="shieling" />
		<tag k="name" v="Midthaugsætra" />
		<tag k="place" v="locality" />
		<tag k="ssr:stedsnr" v="711395" />
	</node>
	<node lat="62.71337778182134" lon="9.90213889573354" id="-32004">
		<tag k="name" v="Stormyra" />
		<tag k="natural" v="wetland" />
		<tag k="ssr:stedsnr" v="711488" />
	</node>
	<node lat="62.72839722303327" lon="9.548922215134484" id="-32007">
		<tag k="historic" v="shieling" />
		<tag k="name" v="Storluvollen" />
		<tag k="place" v="locality" />
		<tag k="ssr:stedsnr" v="711685" />
	</node>
	<node lat="62.61669166562733" lon="9.7276055618945" id="-32052">
		<tag k="name" v="Bekkmellom" />
		<tag k="place" v="locality" />
		<tag k="ssr:stedsnr" v="756747" />
	</node>
	<node lat="62.600305552344686" lon="9.327772227823855" id="-32055">
		<tag k="name" v="Åkerteigen" />
		<tag k="place" v="locality" />
		<tag k="ssr:stedsnr" v="756903" />
	</node>
	<node lat="62.65759722378006" lon="9.266808334917455" id="-32058">
		<tag k="name" v="Solhaugen" />
		<tag k="place" v="locality" />
		<tag k="ssr:stedsnr" v="756817" />
	</node>
	<node lat="62.598983334103096" lon="9.326599992251491" id="-32063">
		<tag k="name" v="Bruteigen" />
		<tag k="place" v="locality" />
		<tag k="ssr:stedsnr" v="756900" />
	</node>
	<node lat="62.7065305522878" lon="9.406233340058977" id="-32079">
		<tag k="name" v="Dalsløkkjon" />
		<tag k="place" v="locality" />
		<tag k="ssr:stedsnr" v="771426" />
	</node>
	<node lat="62.6017805599585" lon="9.436961108187912" id="-32087">
		<tag k="name" v="Furunesmorka" />
		<tag k="place" v="locality" />
		<tag k="ssr:stedsnr" v="771459" />
	</node>
	<node lat="62.73953888751653" lon="9.5431583301464" id="-32095">
		<tag k="name" v="Holtet" />
		<tag k="place" v="locality" />
		<tag k="ssr:stedsnr" v="772325" />
	</node>
	<node lat="62.732666666427576" lon="9.54739722090101" id="-32096">
		<tag k="landuse" v="meadow" />
		<tag k="name" v="Grøtenget" />
		<tag k="ssr:stedsnr" v="772328" />
	</node>
	<node lat="62.54866111334384" lon="9.365116666956096" id="-32097">
		<tag k="name" v="Gravundsenga" />
		<tag k="place" v="locality" />
		<tag k="ssr:stedsnr" v="772367" />
	</node>
	<node lat="62.52083055943278" lon="9.295772225546296" id="-32118">
		<tag k="name" v="Langmyra" />
		<tag k="natural" v="wetland" />
		<tag k="ssr:stedsnr" v="801611" />
	</node>
	<node lat="62.582141668230435" lon="9.710261105972362" id="-32130">
		<tag k="historic" v="shieling" />
		<tag k="name" v="Gammelsætra" />
		<tag k="place" v="locality" />
		<tag k="ssr:stedsnr" v="817524" />
	</node>
	<node lat="62.57218611072795" lon="9.637511107910763" id="-32132">
		<tag k="name" v="Øya" />
		<tag k="place" v="locality" />
		<tag k="ssr:stedsnr" v="817621" />
	</node>
	<node lat="62.73952500277363" lon="9.562350002764099" id="-32180">
		<tag k="name" v="Stormyra" />
		<tag k="natural" v="wetland" />
		<tag k="ssr:stedsnr" v="922861" />
	</node>
	<node lat="62.63160555300097" lon="9.799627778224547" id="-32183">
		<tag k="name" v="Kjelmyra" />
		<tag k="natural" v="wetland" />
		<tag k="ssr:stedsnr" v="832503" />
	</node>
	<node lat="62.642061107740275" lon="9.832463881109287" id="-32184">
		<tag k="landuse" v="meadow" />
		<tag k="name" v="Litlenget" />
		<tag k="ssr:stedsnr" v="832504" />
	</node>
	<node lat="62.656436106872846" lon="9.52282500358489" id="-32193">
		<tag k="name" v="Stangmyrhalsen" />
		<tag k="natural" v="wetland" />
		<tag k="ssr:stedsnr" v="833315" />
	</node>
	<node lat="62.69154444044454" lon="9.026816673903499" id="-32236">
		<tag k="name" v="Skomakersteinen" />
		<tag k="natural" v="stone" />
		<tag k="ssr:stedsnr" v="877119" />
	</node>
	<node lat="62.56924722310141" lon="9.63874999642553" id="-32240">
		<tag k="name" v="Skjea" />
		<tag k="place" v="locality" />
		<tag k="ssr:stedsnr" v="877650" />
	</node>
	<node lat="62.60869999780051" lon="9.70463332537029" id="-32243">
		<tag k="landuse" v="meadow" />
		<tag k="name" v="Grøset" />
		<tag k="ssr:stedsnr" v="877769" />
	</node>
	<node lat="62.55049722151609" lon="9.619363886114911" id="-32251">
		<tag k="name" v="Ørstadmoen" />
		<tag k="place" v="locality" />
		<tag k="ssr:stedsnr" v="878860" />
	</node>
	<node lat="62.578061108572314" lon="9.586044449643406" id="-32259">
		<tag k="name" v="Brennomsmyran" />
		<tag k="natural" v="wetland" />
		<tag k="ssr:stedsnr" v="893013" />
	</node>
	<node lat="62.584374999567835" lon="9.499230562950503" id="-32268">
		<tag k="name" v="Lialøkkja" />
		<tag k="place" v="locality" />
		<tag k="ssr:stedsnr" v="893321" />
	</node>
	<node lat="62.6282250027351" lon="9.564811107610218" id="-32270">
		<tag k="name" v="Råket" />
		<tag k="place" v="locality" />
		<tag k="ssr:stedsnr" v="893068" />
	</node>
	<node lat="62.577122219771155" lon="9.481477787198079" id="-32280">
		<tag k="name" v="Bjørnastenen" />
		<tag k="natural" v="stone" />
		<tag k="ssr:stedsnr" v="921579" />
	</node>
	<node lat="62.512674998045505" lon="9.258502778113638" id="-32285">
		<tag k="alt_name" v="Kvammyra" />
		<tag k="name" v="Kvannmyra" />
		<tag k="natural" v="wetland" />
		<tag k="ssr:stedsnr" v="921373" />
	</node>
	<node lat="62.68270555390401" lon="9.124305557607284" id="-32307">
		<tag k="name" v="Båstamyran" />
		<tag k="natural" v="wetland" />
		<tag k="ssr:stedsnr" v="938113" />
	</node>
	<node lat="62.61395833091981" lon="9.291408325365131" id="-32320">
		<tag k="name" v="Gravunnsenga" />
		<tag k="place" v="locality" />
		<tag k="ssr:stedsnr" v="938810" />
	</node>
	<node lat="62.6024000020037" lon="9.506469451528003" id="-32339">
		<tag k="name" v="Ålbusøyan" />
		<tag k="place" v="locality" />
		<tag k="ssr:stedsnr" v="954301" />
	</node>
	<node lat="62.68244167068693" lon="9.119866667289006" id="-32432">
		<tag k="name" v="Moen" />
		<tag k="natural" v="wetland" />
		<tag k="ssr:stedsnr" v="28148" />
	</node>
	<node lat="62.574947221341006" lon="9.649277779039771" id="-32438">
		<tag k="name" v="Sigridkåsa" />
		<tag k="place" v="locality" />
		<tag k="ssr:stedsnr" v="28555" />
	</node>
	<node lat="62.632330556362945" lon="9.298766663824154" id="-32449">
		<tag k="name" v="Elvetrøa" />
		<tag k="place" v="locality" />
		<tag k="ssr:stedsnr" v="28853" />
	</node>
	<node lat="62.5099055545137" lon="9.628494453862423" id="-32460">
		<tag k="name" v="Vetlløkkja" />
		<tag k="place" v="locality" />
		<tag k="ssr:stedsnr" v="28884" />
	</node>
	<node lat="62.5196944473679" lon="9.620266664326097" id="-32462">
		<tag k="name" v="Stortrenga" />
		<tag k="place" v="locality" />
		<tag k="ssr:stedsnr" v="28890" />
	</node>
	<node lat="62.60866666975681" lon="9.44602222679818" id="-32464">
		<tag k="name" v="Dalen" />
		<tag k="place" v="locality" />
		<tag k="ssr:stedsnr" v="28895" />
	</node>
	<node lat="62.742733335418045" lon="9.57533333774301" id="-32468">
		<tag k="name" v="Klokkarkåsen" />
		<tag k="place" v="locality" />
		<tag k="ssr:stedsnr" v="42041" />
	</node>
	<node lat="62.53582778198451" lon="9.319580547921221" id="-32469">
		<tag k="landuse" v="meadow" />
		<tag k="name" v="Grønbekkenget" />
		<tag k="ssr:stedsnr" v="43251" />
	</node>
	<node lat="62.70384166453811" lon="9.566388882664196" id="-32472">
		<tag k="landuse" v="meadow" />
		<tag k="name" v="Trøaenget" />
		<tag k="ssr:stedsnr" v="43044" />
	</node>
	<node lat="62.58093889206856" lon="9.44533611231256" id="-32474">
		<tag k="name" v="Larsplassen" />
		<tag k="place" v="locality" />
		<tag k="ssr:stedsnr" v="43330" />
	</node>
	<node lat="62.59111111455118" lon="9.185416670100345" id="-32476">
		<tag k="historic" v="shieling" />
		<tag k="name" v="Gammelsætra" />
		<tag k="place" v="locality" />
		<tag k="ssr:stedsnr" v="43332" />
	</node>
	<node lat="62.543269444025896" lon="9.356963885430968" id="-32480">
		<tag k="name" v="Kåsa" />
		<tag k="place" v="locality" />
		<tag k="ssr:stedsnr" v="43362" />
	</node>
	<node lat="62.70093611014287" lon="9.245416674370603" id="-32482">
		<tag k="name" v="Vetlægra" />
		<tag k="natural" v="wetland" />
		<tag k="ssr:stedsnr" v="43377" />
	</node>
	<node lat="62.62540555177172" lon="9.878491670722768" id="-32484">
		<tag k="historic" v="shieling" />
		<tag k="name" v="Småvollan" />
		<tag k="place" v="locality" />
		<tag k="ssr:stedsnr" v="43490" />
	</node>
	<node lat="62.587113884505435" lon="9.789497220160865" id="-32491">
		<tag k="name" v="Flaggsteinen" />
		<tag k="natural" v="stone" />
		<tag k="ssr:stedsnr" v="43441" />
	</node>
	<node lat="62.69693055186059" lon="9.112861115125403" id="-32564">
		<tag k="landuse" v="meadow" />
		<tag k="name" v="Svartstakksenget" />
		<tag k="ssr:stedsnr" v="89159" />
	</node>
	<node lat="62.597830552778376" lon="9.779677773853752" id="-32567">
		<tag k="historic" v="shieling" />
		<tag k="name" v="Såttån" />
		<tag k="place" v="locality" />
		<tag k="ssr:stedsnr" v="89730" />
	</node>
	<node lat="62.605113890916066" lon="9.702875000990126" id="-32571">
		<tag k="name" v="Slettvollen" />
		<tag k="place" v="locality" />
		<tag k="ssr:stedsnr" v="89580" />
	</node>
	<node lat="62.516566669126924" lon="9.617016660337828" id="-32578">
		<tag k="name" v="Trengsinnleggin" />
		<tag k="place" v="locality" />
		<tag k="ssr:stedsnr" v="89864" />
	</node>
	<node lat="62.70089999713239" lon="9.567641661403284" id="-32586">
		<tag k="landuse" v="meadow" />
		<tag k="name" v="Vangsenget" />
		<tag k="ssr:stedsnr" v="104037" />
	</node>
	<node lat="62.61883611488777" lon="9.816202768999249" id="-32590">
		<tag k="historic" v="shieling" />
		<tag k="name" v="Tinnisætra" />
		<tag k="place" v="locality" />
		<tag k="ssr:stedsnr" v="104458" />
	</node>
</osm>
