<?xml version="1.0" encoding="UTF-8"?>
<osm version="0.6" generator="osmapis">
	<node lat="62.43204999917172" lon="9.699430553169147" id="-38602">
		<tag k="name" v="Syndre Steinbubekken" />
		<tag k="ssr:stedsnr" v="10634" />
		<tag k="waterway" v="stream" />
	</node>
	<node lat="62.604261111205105" lon="9.412641659208514" id="-38611">
		<tag k="name" v="Skrubekken" />
		<tag k="ssr:stedsnr" v="11506" />
		<tag k="waterway" v="stream" />
	</node>
	<node lat="62.32112222620248" lon="9.736172224669323" id="-38614">
		<tag k="name" v="Hemtjønna" />
		<tag k="natural" v="water" />
		<tag k="ssr:stedsnr" v="11676" />
		<tag k="water" v="lake" />
	</node>
	<node lat="62.549416665457976" lon="9.395025005411739" id="-38616">
		<tag k="alt_name" v="Lerbekken" />
		<tag k="name" v="Leirbekken" />
		<tag k="ssr:stedsnr" v="11586" />
		<tag k="waterway" v="stream" />
	</node>
	<node lat="62.548999999581326" lon="9.400444448500899" id="-38617">
		<tag k="name" v="Hembekken" />
		<tag k="ssr:stedsnr" v="11587" />
		<tag k="waterway" v="stream" />
	</node>
	<node lat="62.72638332893683" lon="9.244688891860736" id="-38621">
		<tag k="name" v="Glupbekktjønna" />
		<tag k="natural" v="water" />
		<tag k="ssr:stedsnr" v="12841" />
	</node>
	<node lat="62.648116666577536" lon="9.610227775214387" id="-38624">
		<tag k="alt_name" v="Sprenbekken" />
		<tag k="name" v="Sprænbekken" />
		<tag k="ssr:stedsnr" v="12703" />
		<tag k="waterway" v="stream" />
	</node>
	<node lat="62.6748805521909" lon="9.200775003848817" id="-38627">
		<tag k="name" v="Ytre Gjelbekken" />
		<tag k="ssr:stedsnr" v="12918" />
		<tag k="waterway" v="stream" />
	</node>
	<node lat="62.622225000103896" lon="9.484772231363639" id="-38636">
		<tag k="name" v="Vardammen" />
		<tag k="ssr:stedsnr" v="28815" />
		<tag k="waterway" v="dam" />
	</node>
	<node lat="62.3697638910498" lon="9.627530557785715" id="-38640">
		<tag k="name" v="Merkesbekken" />
		<tag k="ssr:stedsnr" v="43026" />
		<tag k="waterway" v="stream" />
	</node>
	<node lat="62.34015555756437" lon="9.495344440108616" id="-38655">
		<tag k="name" v="Gluptjønnin" />
		<tag k="natural" v="water" />
		<tag k="ssr:stedsnr" v="71574" />
	</node>
	<node lat="62.37464722185149" lon="9.502577777565806" id="-38658">
		<tag k="name" v="Raudåa" />
		<tag k="ssr:stedsnr" v="71624" />
		<tag k="waterway" v="river" />
	</node>
	<node lat="62.68775833700918" lon="9.398397229305445" id="-38659">
		<tag k="loc_name" v="Lang-odden" />
		<tag k="name" v="Langodden" />
		<tag k="natural" v="cape" />
		<tag k="ssr:stedsnr" v="72619" />
	</node>
	<node lat="62.69748610966155" lon="9.390574999481176" id="-38665">
		<tag k="name" v="Øyan" />
		<tag k="natural" v="cape" />
		<tag k="ssr:stedsnr" v="72606" />
	</node>
	<node lat="62.5685916648746" lon="9.346872217077564" id="-38668">
		<tag k="name" v="Gurihaugbekken" />
		<tag k="ssr:stedsnr" v="72523" />
		<tag k="waterway" v="stream" />
	</node>
	<node lat="62.44480555458481" lon="9.352974999084433" id="-38669">
		<tag k="name" v="Gravåa" />
		<tag k="ssr:stedsnr" v="72705" />
		<tag k="waterway" v="stream" />
	</node>
	<node lat="62.46173889080054" lon="9.942972231167404" id="-38672">
		<tag k="name" v="Nørdre Hånåbekken" />
		<tag k="ssr:stedsnr" v="72709" />
		<tag k="waterway" v="stream" />
	</node>
	<node lat="62.7211250042351" lon="9.028583341094034" id="-38679">
		<tag k="name" v="Lontjønna" />
		<tag k="natural" v="water" />
		<tag k="ssr:stedsnr" v="72872" />
	</node>
	<node lat="62.651724999492664" lon="9.13367777481705" id="-38680">
		<tag k="name" v="Sandåa" />
		<tag k="ssr:stedsnr" v="73368" />
		<tag k="waterway" v="river" />
	</node>
	<node lat="62.574280559595714" lon="9.357316673488162" id="-38687">
		<tag k="name" v="Strandhølen" />
		<tag k="place" v="locality" />
		<tag k="ssr:stedsnr" v="88876" />
	</node>
	<node lat="62.57851666694516" lon="9.334555559707416" id="-38688">
		<tag k="name" v="Utemshølen" />
		<tag k="place" v="locality" />
		<tag k="ssr:stedsnr" v="88890" />
	</node>
	<node lat="62.59739166528334" lon="9.732583326918371" id="-38690">
		<tag k="name" v="Langtjønna" />
		<tag k="natural" v="water" />
		<tag k="ssr:stedsnr" v="89723" />
	</node>
	<node lat="62.57453611513736" lon="9.175311119174923" id="-38702">
		<tag k="name" v="Storløfthølen" />
		<tag k="place" v="locality" />
		<tag k="ssr:stedsnr" v="104328" />
	</node>
	<node lat="62.43426389281161" lon="9.39023611715374" id="-38710">
		<tag k="alt_name" v="Tverråa, ytste;Ytste Tverråa" />
		<tag k="name" v="Ytter Tverråa" />
		<tag k="ssr:stedsnr" v="131605" />
		<tag k="waterway" v="river" />
	</node>
	<node lat="62.43904444786868" lon="9.66435556452793" id="-38711">
		<tag k="name" v="Sprenbekktjønna" />
		<tag k="natural" v="water" />
		<tag k="ssr:stedsnr" v="131611" />
	</node>
	<node lat="62.49825278166742" lon="9.880586101846504" id="-38721">
		<tag k="name" v="Masingtjønna" />
		<tag k="natural" v="water" />
		<tag k="old_name" v="Masintjørni;Masintjønna" />
		<tag k="ssr:stedsnr" v="132506" />
	</node>
	<node lat="62.38938888783286" lon="9.213855562000457" id="-38723">
		<tag k="name" v="Langvatnet" />
		<tag k="natural" v="water" />
		<tag k="ssr:stedsnr" v="132465" />
		<tag k="water" v="lake" />
	</node>
	<node lat="62.468433334245184" lon="9.660083340157861" id="-38725">
		<tag k="name" v="Vinstra" />
		<tag k="ssr:stedsnr" v="132669" />
		<tag k="waterway" v="river" />
	</node>
	<node lat="62.50549166638328" lon="9.215249997403449" id="-38730">
		<tag k="name" v="Storvatnet" />
		<tag k="natural" v="water" />
		<tag k="ssr:stedsnr" v="133316" />
		<tag k="water" v="lake" />
	</node>
	<node lat="62.582158512291784" lon="9.13720299409342" id="-38734">
		<tag k="name" v="Vadbekken" />
		<tag k="ssr:stedsnr" v="133766" />
		<tag k="waterway" v="stream" />
	</node>
	<node lat="62.4150750007707" lon="9.640705553279947" id="-38737">
		<tag k="name" v="Slåbergsbekken" />
		<tag k="ssr:stedsnr" v="253590" />
		<tag k="waterway" v="stream" />
	</node>
	<node lat="62.38934722153487" lon="9.298052768327592" id="-38739">
		<tag k="name" v="Vegskardbekken" />
		<tag k="ssr:stedsnr" v="253596" />
		<tag k="waterway" v="stream" />
	</node>
	<node lat="62.521586109228636" lon="9.684330546130276" id="-38746">
		<tag k="name" v="Kløftåa" />
		<tag k="ssr:stedsnr" v="254322" />
		<tag k="waterway" v="stream" />
	</node>
	<node lat="62.471450002673286" lon="9.8310416608716" id="-38755">
		<tag k="name" v="Unna" />
		<tag k="ssr:stedsnr" v="254495" />
		<tag k="waterway" v="river" />
	</node>
	<node lat="62.56665277621775" lon="9.53707777893844" id="-38758">
		<tag k="name" v="Storbekken" />
		<tag k="ssr:stedsnr" v="254539" />
		<tag k="waterway" v="stream" />
	</node>
	<node lat="62.557719446444565" lon="9.399633333548103" id="-38760">
		<tag k="name" v="Håmmårbekken" />
		<tag k="ssr:stedsnr" v="254549" />
		<tag k="waterway" v="stream" />
	</node>
	<node lat="62.701180553510454" lon="9.520508329926667" id="-38763">
		<tag k="name" v="Hoksengbekken" />
		<tag k="ssr:stedsnr" v="254625" />
		<tag k="waterway" v="stream" />
	</node>
	<node lat="62.53320555530249" lon="9.375705548430599" id="-38766">
		<tag k="name" v="Taskbekken" />
		<tag k="ssr:stedsnr" v="254588" />
		<tag k="waterway" v="stream" />
	</node>
	<node lat="62.37914722037271" lon="9.795755552963524" id="-38772">
		<tag k="name" v="Storsandvika" />
		<tag k="natural" v="bay" />
		<tag k="ssr:stedsnr" v="254659" />
	</node>
	<node lat="62.58821111156597" lon="9.131194450646593" id="-38775">
		<tag k="name" v="Vardhøbekken" />
		<tag k="ssr:stedsnr" v="254742" />
		<tag k="waterway" v="stream" />
	</node>
	<node lat="62.7175833346126" lon="9.190680558706669" id="-38778">
		<tag k="name" v="Hyttbekken" />
		<tag k="ssr:stedsnr" v="254869" />
		<tag k="waterway" v="stream" />
	</node>
	<node lat="62.74633333395342" lon="9.285111114520936" id="-38779">
		<tag k="name" v="Kamtjønnin" />
		<tag k="natural" v="water" />
		<tag k="ssr:stedsnr" v="254849" />
	</node>
	<node lat="62.7425333306722" lon="9.469236114592016" id="-38781">
		<tag k="name" v="Grøntjønna" />
		<tag k="natural" v="water" />
		<tag k="ssr:stedsnr" v="254864" />
	</node>
	<node lat="62.685633336596794" lon="9.11818889239615" id="-38783">
		<tag k="name" v="Hesjingbekken" />
		<tag k="ssr:stedsnr" v="149125" />
		<tag k="waterway" v="stream" />
	</node>
	<node lat="62.61148889184393" lon="9.75373610362589" id="-38796">
		<tag k="name" v="Hallsettjønna" />
		<tag k="natural" v="water" />
		<tag k="ssr:stedsnr" v="149707" />
	</node>
	<node lat="62.512705553985874" lon="9.304302782092709" id="-38809">
		<tag k="name" v="Fiskbekkfalla" />
		<tag k="ssr:stedsnr" v="165259" />
		<tag k="waterway" v="rapids" />
	</node>
	<node lat="62.44551388748702" lon="9.542758337853297" id="-38810">
		<tag k="name" v="Kløftbekken" />
		<tag k="ssr:stedsnr" v="165269" />
		<tag k="waterway" v="stream" />
	</node>
	<node lat="62.453452781736544" lon="9.543872213387097" id="-38811">
		<tag k="name" v="Furunesbekken" />
		<tag k="ssr:stedsnr" v="165275" />
		<tag k="waterway" v="stream" />
	</node>
	<node lat="62.674566666215185" lon="9.473180553485786" id="-38813">
		<tag k="name" v="Nystubukta" />
		<tag k="natural" v="bay" />
		<tag k="ssr:stedsnr" v="165425" />
	</node>
	<node lat="62.546091670874745" lon="9.354977784903049" id="-38814">
		<tag k="name" v="Brandhaugbekken" />
		<tag k="ssr:stedsnr" v="165374" />
		<tag k="waterway" v="stream" />
	</node>
	<node lat="62.668072222199996" lon="9.892130546075773" id="-38825">
		<tag k="name" v="Kvernbekken" />
		<tag k="ssr:stedsnr" v="210695" />
		<tag k="waterway" v="stream" />
	</node>
	<node lat="62.60295277681545" lon="9.33303610480668" id="-38833">
		<tag k="name" v="Kvernbekken" />
		<tag k="ssr:stedsnr" v="210891" />
		<tag k="waterway" v="stream" />
	</node>
	<node lat="62.53719722622518" lon="9.355472230158306" id="-38842">
		<tag k="name" v="Fremmer Svartbekken" />
		<tag k="ssr:stedsnr" v="225284" />
		<tag k="waterway" v="stream" />
	</node>
	<node lat="62.50184997886673" lon="9.256568336608003" id="-38846">
		<tag k="alt_name" v="Hammeråa" />
		<tag k="name" v="Håmmåråa" />
		<tag k="ssr:stedsnr" v="225295" />
		<tag k="waterway" v="stream" />
	</node>
	<node lat="62.37722500366419" lon="9.909719441267372" id="-38857">
		<tag k="name" v="Unndalsvatnet" />
		<tag k="natural" v="water" />
		<tag k="ssr:stedsnr" v="271566" />
		<tag k="water" v="lake" />
	</node>
	<node lat="62.57495832997428" lon="9.353663882503826" id="-38889">
		<tag k="name" v="Gravunnsøya" />
		<tag k="place" v="island" />
		<tag k="ssr:stedsnr" v="452888" />
	</node>
	<node lat="62.622827774799106" lon="9.71879721436554" id="-38896">
		<tag k="name" v="Sandbekken" />
		<tag k="ssr:stedsnr" v="453760" />
		<tag k="waterway" v="stream" />
	</node>
	<node lat="62.555916665621204" lon="9.633827778644996" id="-38903">
		<tag k="name" v="Larshølen" />
		<tag k="place" v="locality" />
		<tag k="ssr:stedsnr" v="453859" />
	</node>
	<node lat="62.377449997597225" lon="9.705755562889195" id="-38905">
		<tag k="name" v="Vårstigtjønnin" />
		<tag k="natural" v="water" />
		<tag k="ssr:stedsnr" v="253612" />
	</node>
	<node lat="62.46472221894729" lon="9.337336117438243" id="-38906">
		<tag k="name" v="Håmmårbekktjønna" />
		<tag k="natural" v="water" />
		<tag k="ssr:stedsnr" v="253626" />
	</node>
	<node lat="62.41955278166146" lon="9.57073888425737" id="-38909">
		<tag k="name" v="Grubbekken" />
		<tag k="ssr:stedsnr" v="253643" />
		<tag k="waterway" v="stream" />
	</node>
	<node lat="62.71323611101112" lon="9.619883324905567" id="-38926">
		<tag k="name" v="Renstjønna" />
		<tag k="natural" v="water" />
		<tag k="ssr:stedsnr" v="254607" />
	</node>
	<node lat="62.64625555746434" lon="9.32581388047284" id="-38931">
		<tag k="name" v="Springtverråa" />
		<tag k="ssr:stedsnr" v="254668" />
		<tag k="waterway" v="stream" />
	</node>
	<node lat="62.332388889145605" lon="9.7658666708433" id="-38935">
		<tag k="name" v="Breidslågåbekken" />
		<tag k="ssr:stedsnr" v="254686" />
		<tag k="waterway" v="stream" />
	</node>
	<node lat="62.60329999858354" lon="9.288825003016626" id="-38940">
		<tag k="name" v="Svabekken" />
		<tag k="ssr:stedsnr" v="254711" />
		<tag k="waterway" v="stream" />
	</node>
	<node lat="62.68491110678571" lon="9.059999991454868" id="-38942">
		<tag k="name" v="Kjortbekktjønna" />
		<tag k="natural" v="water" />
		<tag k="ssr:stedsnr" v="254905" />
	</node>
	<node lat="62.692052773942336" lon="9.070325002254073" id="-38943">
		<tag k="name" v="Kjela" />
		<tag k="ssr:stedsnr" v="254911" />
		<tag k="waterway" v="river" />
	</node>
	<node lat="62.75737222112431" lon="9.538963883216171" id="-38945">
		<tag k="name" v="Buslettjønna" />
		<tag k="natural" v="water" />
		<tag k="ssr:stedsnr" v="255820" />
		<tag k="water" v="lake" />
	</node>
	<node lat="62.668447222822394" lon="9.23875556266026" id="-38953">
		<tag k="name" v="Trøabekken" />
		<tag k="ssr:stedsnr" v="271223" />
		<tag k="waterway" v="stream" />
	</node>
	<node lat="62.66840000227092" lon="9.207530557542228" id="-38954">
		<tag k="name" v="Nausthaugbekken" />
		<tag k="ssr:stedsnr" v="271191" />
		<tag k="waterway" v="stream" />
	</node>
	<node lat="62.633352778880166" lon="9.7800305510571" id="-38963">
		<tag k="alt_name" v="Aunsæterbekken" />
		<tag k="name" v="Liabekken" />
		<tag k="ssr:stedsnr" v="271809" />
		<tag k="waterway" v="stream" />
	</node>
	<node lat="62.54498333391474" lon="9.789580563968086" id="-38990">
		<tag k="alt_name" v="Vesl-Ålma" />
		<tag k="name" v="Veslolma" />
		<tag k="ssr:stedsnr" v="314465" />
		<tag k="waterway" v="stream" />
	</node>
	<node lat="62.358688888643066" lon="9.65291389796878" id="-38991">
		<tag k="name" v="Vårstigåa" />
		<tag k="ssr:stedsnr" v="314608" />
		<tag k="waterway" v="river" />
	</node>
	<node lat="62.45890278056106" lon="9.475050000765112" id="-38993">
		<tag k="name" v="Gravåa" />
		<tag k="ssr:stedsnr" v="314619" />
		<tag k="waterway" v="stream" />
	</node>
	<node lat="62.73996944873855" lon="9.577413886868577" id="-38999">
		<tag k="name" v="Håkkårsbekken" />
		<tag k="ssr:stedsnr" v="467054" />
		<tag k="waterway" v="stream" />
	</node>
	<node lat="62.49534721851457" lon="9.890986111789307" id="-39003">
		<tag k="name" v="Langtjønna" />
		<tag k="natural" v="water" />
		<tag k="ssr:stedsnr" v="315511" />
	</node>
	<node lat="62.70825000433601" lon="9.434361115583691" id="-39011">
		<tag k="name" v="Håmmårbekken" />
		<tag k="ssr:stedsnr" v="315620" />
		<tag k="waterway" v="stream" />
	</node>
	<node lat="62.674383331818895" lon="9.606400003900754" id="-39012">
		<tag k="name" v="Kutjønna" />
		<tag k="natural" v="water" />
		<tag k="ssr:stedsnr" v="315650" />
	</node>
	<node lat="62.73517500285096" lon="9.317775003252939" id="-39016">
		<tag k="name" v="Tverrbekken" />
		<tag k="ssr:stedsnr" v="315868" />
		<tag k="waterway" v="stream" />
	</node>
	<node lat="62.43741944109297" lon="9.611436115290642" id="-39020">
		<tag k="name" v="Kvanndalsbekken" />
		<tag k="ssr:stedsnr" v="468041" />
		<tag k="waterway" v="stream" />
	</node>
	<node lat="62.63872778010512" lon="9.537336113702535" id="-39024">
		<tag k="alt_name" v="Rauhovdbekken" />
		<tag k="name" v="Raudhovdbekken" />
		<tag k="ssr:stedsnr" v="468276" />
		<tag k="waterway" v="stream" />
	</node>
	<node lat="62.56051666787224" lon="9.40422222551761" id="-39025">
		<tag k="name" v="Morkabekken" />
		<tag k="ssr:stedsnr" v="468332" />
		<tag k="waterway" v="stream" />
	</node>
	<node lat="62.54521110987632" lon="9.36952778524276" id="-39027">
		<tag k="name" v="Stillua" />
		<tag k="natural" v="water" />
		<tag k="ssr:stedsnr" v="468336" />
		<tag k="water" v="lake" />
	</node>
	<node lat="62.450952781466476" lon="9.528825000350126" id="-39030">
		<tag k="name" v="Kvernbekken" />
		<tag k="ssr:stedsnr" v="468260" />
		<tag k="waterway" v="stream" />
	</node>
	<node lat="62.68575555748709" lon="9.888094442130619" id="-39038">
		<tag k="name" v="Sætersengbekken" />
		<tag k="ssr:stedsnr" v="468352" />
		<tag k="waterway" v="stream" />
	</node>
	<node lat="62.681588887354046" lon="9.405774991836964" id="-39042">
		<tag k="name" v="Gårdsbukta" />
		<tag k="natural" v="bay" />
		<tag k="ssr:stedsnr" v="468380" />
	</node>
	<node lat="62.639536107388075" lon="9.488144448725551" id="-39043">
		<tag k="name" v="Hornfossen" />
		<tag k="natural" v="waterfall" />
		<tag k="ssr:stedsnr" v="468394" />
	</node>
	<node lat="62.644147217795066" lon="9.480458331759273" id="-39044">
		<tag k="name" v="Sæterbekken" />
		<tag k="ssr:stedsnr" v="468396" />
		<tag k="waterway" v="stream" />
	</node>
	<node lat="62.569863887338414" lon="9.331091657209312" id="-39064">
		<tag k="name" v="Utemsbekken" />
		<tag k="ssr:stedsnr" v="331908" />
		<tag k="waterway" v="stream" />
	</node>
	<node lat="62.586261111201644" lon="9.900794437645027" id="-39072">
		<tag k="name" v="Tinnitjønna" />
		<tag k="natural" v="water" />
		<tag k="ssr:stedsnr" v="346518" />
	</node>
	<node lat="62.60413889173758" lon="9.554475007966321" id="-39076">
		<tag k="name" v="Midtøya" />
		<tag k="place" v="island" />
		<tag k="ssr:stedsnr" v="347055" />
	</node>
	<node lat="62.28866666571606" lon="9.58553610434121" id="-39080">
		<tag k="name" v="Kaldvella" />
		<tag k="ssr:stedsnr" v="347105" />
		<tag k="waterway" v="river" />
	</node>
	<node lat="62.72589722334487" lon="9.767866668146148" id="-39082">
		<tag k="name" v="Storbekken" />
		<tag k="ssr:stedsnr" v="347112" />
		<tag k="waterway" v="stream" />
	</node>
	<node lat="62.71206111246272" lon="9.403455561660854" id="-39085">
		<tag k="name" v="Storbekken" />
		<tag k="ssr:stedsnr" v="347405" />
		<tag k="waterway" v="stream" />
	</node>
	<node lat="62.38551666972981" lon="9.222950000588357" id="-39092">
		<tag k="name" v="Langvassbekken" />
		<tag k="ssr:stedsnr" v="374553" />
		<tag k="waterway" v="stream" />
	</node>
	<node lat="62.33462500178099" lon="9.417063887425268" id="-39100">
		<tag k="name" v="Stroplsjøen" />
		<tag k="natural" v="water" />
		<tag k="ssr:stedsnr" v="375509" />
	</node>
	<node lat="62.56958889125129" lon="9.335250004431813" id="-39102">
		<tag k="name" v="Gjelbekken" />
		<tag k="ssr:stedsnr" v="375528" />
		<tag k="waterway" v="stream" />
	</node>
	<node lat="62.624591662322466" lon="9.950672230907339" id="-39104">
		<tag k="name" v="Syndre Grøntjønna" />
		<tag k="natural" v="water" />
		<tag k="ssr:stedsnr" v="375441" />
	</node>
	<node lat="62.286327774058385" lon="9.52413611501744" id="-39112">
		<tag k="name" v="Kollbekken" />
		<tag k="ssr:stedsnr" v="375703" />
		<tag k="waterway" v="stream" />
	</node>
	<node lat="62.60977778089114" lon="9.580838885811668" id="-39115">
		<tag k="name" v="Vekveselva" />
		<tag k="ssr:stedsnr" v="375721" />
		<tag k="waterway" v="stream" />
	</node>
	<node lat="62.609999998938314" lon="9.569722227531628" id="-39116">
		<tag k="alt_name" v="Vognillbekken" />
		<tag k="name" v="Vognillsbekken" />
		<tag k="ssr:stedsnr" v="375722" />
		<tag k="waterway" v="stream" />
	</node>
	<node lat="62.60952778212207" lon="9.545091669578184" id="-39135">
		<tag k="name" v="Folfallet" />
		<tag k="natural" v="waterfall" />
		<tag k="ssr:stedsnr" v="392811" />
	</node>
	<node lat="62.733902777027396" lon="9.561799991480251" id="-39146">
		<tag k="name" v="Holbekken" />
		<tag k="ssr:stedsnr" v="406046" />
		<tag k="waterway" v="stream" />
	</node>
	<node lat="62.677244448897305" lon="9.4119638847636" id="-39157">
		<tag k="name" v="Tørvessæterodden" />
		<tag k="natural" v="cape" />
		<tag k="ssr:stedsnr" v="408451" />
	</node>
	<node lat="62.45360845647349" lon="9.467699434691133" id="-39171">
		<tag k="alt_name" v="Fremste Tverråa" />
		<tag k="name" v="Fremmer Tverråa" />
		<tag k="ssr:stedsnr" v="435621" />
		<tag k="waterway" v="river" />
	</node>
	<node lat="62.33512222143958" lon="9.63446665932359" id="-39179">
		<tag k="name" v="Skåkbekken" />
		<tag k="ssr:stedsnr" v="436519" />
		<tag k="waterway" v="stream" />
	</node>
	<node lat="62.690383334796564" lon="9.31159443728352" id="-39186">
		<tag k="name" v="Korgtjønnbekken" />
		<tag k="ssr:stedsnr" v="436625" />
		<tag k="waterway" v="stream" />
	</node>
	<node lat="62.37267499729483" lon="9.78420000525648" id="-39188">
		<tag k="name" v="Elgsjøen" />
		<tag k="natural" v="water" />
		<tag k="ssr:stedsnr" v="436675" />
		<tag k="water" v="lake" />
	</node>
	<node lat="62.68598192964063" lon="9.126134177329492" id="-39193">
		<tag k="name" v="Sandbekken" />
		<tag k="ssr:stedsnr" v="436915" />
		<tag k="waterway" v="stream" />
	</node>
	<node lat="62.68871389203987" lon="9.141227776405804" id="-39194">
		<tag k="name" v="Håmmårbekken" />
		<tag k="ssr:stedsnr" v="436919" />
		<tag k="waterway" v="stream" />
	</node>
	<node lat="62.666458333627716" lon="9.183813889974767" id="-39198">
		<tag k="name" v="Sandøya" />
		<tag k="natural" v="cape" />
		<tag k="ssr:stedsnr" v="437962" />
	</node>
	<node lat="62.63591666971194" lon="9.751730552231665" id="-39203">
		<tag k="alt_name" v="Husdalsbekken;Liabekken" />
		<tag k="name" v="Husbekken" />
		<tag k="ssr:stedsnr" v="453413" />
		<tag k="waterway" v="stream" />
	</node>
	<node lat="62.58914166631319" lon="9.677305550721256" id="-39204">
		<tag k="name" v="Kolsjøen" />
		<tag k="natural" v="water" />
		<tag k="ssr:stedsnr" v="453606" />
	</node>
	<node lat="62.37594722039421" lon="9.631797231008782" id="-39218">
		<tag k="name" v="Stølåa" />
		<tag k="ssr:stedsnr" v="468029" />
		<tag k="waterway" v="river" />
	</node>
	<node lat="62.582761109053436" lon="9.291625008408559" id="-39224">
		<tag k="name" v="Detlihølen" />
		<tag k="place" v="locality" />
		<tag k="ssr:stedsnr" v="468323" />
	</node>
	<node lat="62.697722218281356" lon="9.288594438710465" id="-39231">
		<tag k="name" v="Kvitbekken" />
		<tag k="ssr:stedsnr" v="468370" />
		<tag k="waterway" v="stream" />
	</node>
	<node lat="62.7109805570648" lon="9.19913055142628" id="-39232">
		<tag k="name" v="Vassenden" />
		<tag k="natural" v="bay" />
		<tag k="ssr:stedsnr" v="468371" />
	</node>
	<node lat="62.70464166851274" lon="9.214194450807774" id="-39233">
		<tag k="name" v="Storbukta" />
		<tag k="natural" v="bay" />
		<tag k="ssr:stedsnr" v="468372" />
	</node>
	<node lat="62.69670555170217" lon="9.382963897508334" id="-39234">
		<tag k="name" v="Gravbekkodden" />
		<tag k="natural" v="cape" />
		<tag k="ssr:stedsnr" v="468373" />
	</node>
	<node lat="62.513677774667045" lon="9.689838890012695" id="-39236">
		<tag k="name" v="Medlielva" />
		<tag k="ssr:stedsnr" v="678371" />
		<tag k="waterway" v="stream" />
	</node>
	<node lat="62.51020874211189" lon="9.877519844444818" id="-39238">
		<tag k="name" v="Orkelsjøen" />
		<tag k="natural" v="water" />
		<tag k="ssr:stedsnr" v="678461" />
		<tag k="water" v="lake" />
	</node>
	<node lat="62.32666295610982" lon="9.581643081692325" id="-39240">
		<tag k="alt_name" v="Nystugubekken;Nystubekken" />
		<tag k="name" v="Nystuggubekken" />
		<tag k="ssr:stedsnr" v="678540" />
		<tag k="waterway" v="stream" />
	</node>
	<node lat="62.38749166337427" lon="9.39494722760876" id="-39244">
		<tag k="name" v="Avundtjønna" />
		<tag k="natural" v="water" />
		<tag k="ssr:stedsnr" v="678570" />
	</node>
	<node lat="62.71613306142831" lon="9.848958952193126" id="-39249">
		<tag k="name" v="Gisna" />
		<tag k="ssr:stedsnr" v="679285" />
		<tag k="waterway" v="river" />
	</node>
	<node lat="62.718502779268015" lon="9.518249991437429" id="-39252">
		<tag k="name" v="Nonshøtjønna" />
		<tag k="natural" v="water" />
		<tag k="ssr:stedsnr" v="679590" />
	</node>
	<node lat="62.38103610719251" lon="9.81883056116746" id="-39271">
		<tag k="name" v="Storsandbekken" />
		<tag k="ssr:stedsnr" v="679680" />
		<tag k="waterway" v="stream" />
	</node>
	<node lat="62.784961114778454" lon="9.347827779372427" id="-39275">
		<tag k="name" v="Svarttjønnin" />
		<tag k="natural" v="water" />
		<tag k="ssr:stedsnr" v="679829" />
		<tag k="water" v="lake" />
	</node>
	<node lat="62.716600003864585" lon="9.247436103050168" id="-39277">
		<tag k="name" v="Glupbekken" />
		<tag k="ssr:stedsnr" v="679839" />
		<tag k="waterway" v="stream" />
	</node>
	<node lat="62.71623333019059" lon="9.401024997704823" id="-39278">
		<tag k="name" v="Gjørdøla" />
		<tag k="ssr:stedsnr" v="679840" />
		<tag k="waterway" v="river" />
	</node>
	<node lat="62.51316667007832" lon="9.21211667308818" id="-39280">
		<tag k="name" v="Kvitbekken" />
		<tag k="ssr:stedsnr" v="679801" />
		<tag k="waterway" v="stream" />
	</node>
	<node lat="62.785380554518504" lon="9.43391388362887" id="-39281">
		<tag k="name" v="Minnilla" />
		<tag k="ssr:stedsnr" v="679859" />
		<tag k="waterway" v="river" />
	</node>
	<node lat="62.56423333205577" lon="9.89839166213566" id="-39283">
		<tag k="name" v="Tverråa" />
		<tag k="ssr:stedsnr" v="496448" />
		<tag k="waterway" v="stream" />
	</node>
	<node lat="62.36784444668176" lon="9.351166658998855" id="-39285">
		<tag k="fixme" v="multiple name tags, choose one and add the other to alt_name" />
		<tag k="name" v="Haretjønna;Kanintjønna" />
		<tag k="natural" v="water" />
		<tag k="ssr:stedsnr" v="496604" />
	</node>
	<node lat="62.44365555765707" lon="9.594841660970104" id="-39287">
		<tag k="name" v="Ristjønnbekken" />
		<tag k="ssr:stedsnr" v="496623" />
		<tag k="waterway" v="stream" />
	</node>
	<node lat="62.34422777928559" lon="9.819622217814555" id="-39292">
		<tag k="name" v="Elgsjøelva" />
		<tag k="ssr:stedsnr" v="496719" />
		<tag k="waterway" v="river" />
	</node>
	<node lat="62.479874995603716" lon="10.04316110628967" id="-39296">
		<tag k="name" v="Vesle Orkla" />
		<tag k="ssr:stedsnr" v="497507" />
		<tag k="waterway" v="river" />
	</node>
	<node lat="62.6681388870258" lon="9.241038892509872" id="-39298">
		<tag k="name" v="Kvernbekken" />
		<tag k="ssr:stedsnr" v="497643" />
		<tag k="waterway" v="stream" />
	</node>
	<node lat="62.64981388688978" lon="9.268497225928675" id="-39299">
		<tag k="name" v="Holbekken" />
		<tag k="ssr:stedsnr" v="497649" />
		<tag k="waterway" v="stream" />
	</node>
	<node lat="62.28805277415104" lon="9.778141658503417" id="-39300">
		<tag k="name" v="Horrtjønnbekken" />
		<tag k="ssr:stedsnr" v="497652" />
		<tag k="waterway" v="stream" />
	</node>
	<node lat="62.43663332982786" lon="9.99169443961809" id="-39305">
		<tag k="name" v="Syndre Hånåbekken" />
		<tag k="ssr:stedsnr" v="497718" />
		<tag k="waterway" v="stream" />
	</node>
	<node lat="62.41381666499932" lon="9.769519453142951" id="-39306">
		<tag k="name" v="Veslvontjønnin" />
		<tag k="natural" v="water" />
		<tag k="ssr:stedsnr" v="497742" />
	</node>
	<node lat="62.415875003464095" lon="9.993827779804262" id="-39307">
		<tag k="name" v="Såtålsjøen" />
		<tag k="natural" v="water" />
		<tag k="ssr:stedsnr" v="497747" />
	</node>
	<node lat="62.7604416648731" lon="9.609497221270978" id="-39313">
		<tag k="name" v="Eldåa" />
		<tag k="ssr:stedsnr" v="498890" />
		<tag k="waterway" v="river" />
	</node>
	<node lat="62.57588610864493" lon="9.195977781481183" id="-39314">
		<tag k="name" v="Gråurseterbekken" />
		<tag k="ssr:stedsnr" v="511006" />
		<tag k="waterway" v="stream" />
	</node>
	<node lat="62.65419999561849" lon="9.269050001952596" id="-39325">
		<tag k="name" v="Snøbekken" />
		<tag k="ssr:stedsnr" v="513814" />
		<tag k="waterway" v="stream" />
	</node>
	<node lat="62.674375003654156" lon="9.191983324996896" id="-39332">
		<tag k="name" v="Mellombekken" />
		<tag k="ssr:stedsnr" v="514204" />
		<tag k="waterway" v="stream" />
	</node>
	<node lat="62.69664166677146" lon="9.10474721318815" id="-39334">
		<tag k="name" v="Gjelbekken" />
		<tag k="ssr:stedsnr" v="514163" />
		<tag k="waterway" v="stream" />
	</node>
	<node lat="62.58490974957861" lon="9.145513582830244" id="-39335">
		<tag k="name" v="Svabekken" />
		<tag k="ssr:stedsnr" v="515773" />
		<tag k="waterway" v="stream" />
	</node>
	<node lat="62.52520277991294" lon="9.31455278169877" id="-39339">
		<tag k="name" v="Fremmer Ståkkåbekken" />
		<tag k="ssr:stedsnr" v="529243" />
		<tag k="waterway" v="stream" />
	</node>
	<node lat="62.512599997715526" lon="9.276900005653369" id="-39340">
		<tag k="name" v="Lontjønna" />
		<tag k="natural" v="water" />
		<tag k="ssr:stedsnr" v="529250" />
	</node>
	<node lat="62.59357222394342" lon="9.512783328953066" id="-39342">
		<tag k="name" v="Bjønnåa" />
		<tag k="ssr:stedsnr" v="529124" />
		<tag k="waterway" v="stream" />
	</node>
	<node lat="62.69380833772842" lon="9.420030547055811" id="-39356">
		<tag k="name" v="Håmmårbekkodden" />
		<tag k="natural" v="cape" />
		<tag k="ssr:stedsnr" v="529396" />
	</node>
	<node lat="62.59587222615831" lon="9.6652666740202" id="-39365">
		<tag k="name" v="Ålma" />
		<tag k="ssr:stedsnr" v="557505" />
		<tag k="waterway" v="river" />
	</node>
	<node lat="62.709733331389074" lon="9.336699992049219" id="-39368">
		<tag k="name" v="Brandeggbekken" />
		<tag k="ssr:stedsnr" v="557598" />
		<tag k="waterway" v="stream" />
	</node>
	<node lat="62.40900555171454" lon="9.79081388486102" id="-39370">
		<tag k="name" v="Veslvonbekken" />
		<tag k="ssr:stedsnr" v="557708" />
		<tag k="waterway" v="stream" />
	</node>
	<node lat="62.39669167072923" lon="9.918016675311398" id="-39372">
		<tag k="name" v="Ivabekken" />
		<tag k="ssr:stedsnr" v="557717" />
		<tag k="waterway" v="stream" />
	</node>
	<node lat="62.684625002318434" lon="9.27305000374755" id="-39374">
		<tag k="name" v="Mjølkskåla" />
		<tag k="natural" v="water" />
		<tag k="ssr:stedsnr" v="557605" />
	</node>
	<node lat="62.67295277953164" lon="9.553938880864308" id="-39376">
		<tag k="name" v="Stølsbekken" />
		<tag k="ssr:stedsnr" v="557621" />
		<tag k="waterway" v="stream" />
	</node>
	<node lat="62.65538055270675" lon="9.24386389529747" id="-39377">
		<tag k="name" v="Svartbekken" />
		<tag k="ssr:stedsnr" v="557648" />
		<tag k="waterway" v="stream" />
	</node>
	<node lat="62.63672500074828" lon="9.342713897613935" id="-39380">
		<tag k="name" v="Sætertverråa" />
		<tag k="ssr:stedsnr" v="557662" />
		<tag k="waterway" v="stream" />
	</node>
	<node lat="62.64000277415273" lon="9.8711166605048" id="-39385">
		<tag k="name" v="Elgsmotjønna" />
		<tag k="natural" v="water" />
		<tag k="ssr:stedsnr" v="695658" />
	</node>
	<node lat="62.615827781939174" lon="9.771975007852655" id="-39399">
		<tag k="name" v="Tritjønnin" />
		<tag k="natural" v="water" />
		<tag k="ssr:stedsnr" v="574750" />
	</node>
	<node lat="62.67777777334026" lon="9.121197212581105" id="-39403">
		<tag k="name" v="Ytter Gravbekken" />
		<tag k="ssr:stedsnr" v="695143" />
		<tag k="waterway" v="stream" />
	</node>
	<node lat="62.606358337008835" lon="9.576874992749104" id="-39413">
		<tag k="name" v="Nåhølan" />
		<tag k="place" v="locality" />
		<tag k="ssr:stedsnr" v="695845" />
	</node>
	<node lat="62.74821944329655" lon="9.57677222623073" id="-39419">
		<tag k="name" v="Storbekken" />
		<tag k="ssr:stedsnr" v="588052" />
		<tag k="waterway" v="stream" />
	</node>
	<node lat="62.68876666606971" lon="9.551683326637402" id="-39434">
		<tag k="name" v="Holmen" />
		<tag k="place" v="islet" />
		<tag k="ssr:stedsnr" v="589075" />
	</node>
	<node lat="62.60037222144024" lon="9.510777769168257" id="-39435">
		<tag k="name" v="Midtøya" />
		<tag k="place" v="island" />
		<tag k="ssr:stedsnr" v="589303" />
	</node>
	<node lat="62.60087222244626" lon="9.85717777955902" id="-39443">
		<tag k="name" v="Stor-Tinnia" />
		<tag k="ssr:stedsnr" v="589470" />
		<tag k="waterway" v="stream" />
	</node>
	<node lat="62.35069999849375" lon="9.223116669943282" id="-39452">
		<tag k="name" v="Larsbekken" />
		<tag k="ssr:stedsnr" v="617594" />
		<tag k="waterway" v="stream" />
	</node>
	<node lat="62.662588887785404" lon="9.280874993899433" id="-39462">
		<tag k="name" v="Dalsbekken" />
		<tag k="ssr:stedsnr" v="618639" />
		<tag k="waterway" v="stream" />
	</node>
	<node lat="62.32548055945329" lon="9.360166671648718" id="-39463">
		<tag k="name" v="Fisktjønna" />
		<tag k="natural" v="water" />
		<tag k="ssr:stedsnr" v="618531" />
	</node>
	<node lat="62.73374166851023" lon="9.125422213386466" id="-39474">
		<tag k="name" v="Botnvatnet" />
		<tag k="natural" v="water" />
		<tag k="ssr:stedsnr" v="618887" />
	</node>
	<node lat="62.50020903060951" lon="9.586559828575016" id="-39495">
		<tag k="name" v="Mågålaupet" />
		<tag k="old_name" v="Måggålaupet;Magalaupet" />
		<tag k="ssr:stedsnr" v="707263" />
		<tag k="waterway" v="rapids" />
	</node>
	<node lat="62.62283610855145" lon="9.78504722949905" id="-39508">
		<tag k="name" v="Stortjønna" />
		<tag k="natural" v="water" />
		<tag k="ssr:stedsnr" v="650439" />
	</node>
	<node lat="62.68254444240693" lon="9.448894440112792" id="-39513">
		<tag k="name" v="Oppestuodden" />
		<tag k="natural" v="cape" />
		<tag k="ssr:stedsnr" v="650395" />
	</node>
	<node lat="62.457938892385116" lon="9.637366662400401" id="-39523">
		<tag k="name" v="Vesle Ristjønna" />
		<tag k="natural" v="water" />
		<tag k="ssr:stedsnr" v="678604" />
	</node>
	<node lat="62.434222220999" lon="9.264508336735801" id="-39524">
		<tag k="name" v="Flatbekktjønna" />
		<tag k="natural" v="water" />
		<tag k="ssr:stedsnr" v="678607" />
	</node>
	<node lat="62.339136108419126" lon="9.399158328442368" id="-39527">
		<tag k="name" v="Stroplsjøtjønna" />
		<tag k="natural" v="water" />
		<tag k="ssr:stedsnr" v="678530" />
	</node>
	<node lat="62.467799995793946" lon="9.635224990552345" id="-39528">
		<tag k="name" v="Stallhøbekken" />
		<tag k="ssr:stedsnr" v="678592" />
		<tag k="waterway" v="stream" />
	</node>
	<node lat="62.692191667197605" lon="9.026913889411558" id="-39529">
		<tag k="name" v="Skomakertjønna" />
		<tag k="natural" v="water" />
		<tag k="ssr:stedsnr" v="678908" />
	</node>
	<node lat="62.695580557357985" lon="9.178816659768822" id="-39530">
		<tag k="name" v="Gråhaugtjønna" />
		<tag k="natural" v="water" />
		<tag k="ssr:stedsnr" v="678911" />
	</node>
	<node lat="62.56082500347062" lon="9.38471111687783" id="-39531">
		<tag k="name" v="Kvernbekken" />
		<tag k="ssr:stedsnr" v="679309" />
		<tag k="waterway" v="stream" />
	</node>
	<node lat="62.48103055128578" lon="9.24785832712501" id="-39534">
		<tag k="name" v="Svartåa" />
		<tag k="ssr:stedsnr" v="679626" />
		<tag k="waterway" v="river" />
	</node>
	<node lat="62.6811888848846" lon="9.325030564321096" id="-39536">
		<tag k="name" v="Fjølbutjønna" />
		<tag k="natural" v="water" />
		<tag k="ssr:stedsnr" v="679637" />
	</node>
	<node lat="62.651008331892825" lon="9.351955557066107" id="-39540">
		<tag k="name" v="Springtverråtjønna" />
		<tag k="natural" v="water" />
		<tag k="ssr:stedsnr" v="679648" />
	</node>
	<node lat="62.65438889000353" lon="9.229999990344096" id="-39541">
		<tag k="name" v="Bjørnabekken" />
		<tag k="ssr:stedsnr" v="679666" />
		<tag k="waterway" v="stream" />
	</node>
	<node lat="62.29449722590208" lon="9.621849994168251" id="-39543">
		<tag k="alt_name" v="Blæsterbekken" />
		<tag k="name" v="Blesebekken" />
		<tag k="ssr:stedsnr" v="679517" />
		<tag k="waterway" v="stream" />
	</node>
	<node lat="62.597024998893346" lon="9.277080562852912" id="-39551">
		<tag k="name" v="Svabekktjønna" />
		<tag k="natural" v="water" />
		<tag k="ssr:stedsnr" v="679718" />
	</node>
	<node lat="62.604091665369616" lon="9.128886117524909" id="-39554">
		<tag k="name" v="Kråkvatnet" />
		<tag k="natural" v="water" />
		<tag k="ssr:stedsnr" v="679968" />
		<tag k="water" v="lake" />
	</node>
	<node lat="62.73268889184103" lon="9.568388894397534" id="-39556">
		<tag k="name" v="Dørremsbekken" />
		<tag k="ssr:stedsnr" v="892039" />
		<tag k="waterway" v="stream" />
	</node>
	<node lat="62.71162777748533" lon="9.19168611289149" id="-39570">
		<tag k="name" v="Elva" />
		<tag k="ssr:stedsnr" v="893386" />
		<tag k="waterway" v="river" />
	</node>
	<node lat="62.68944166696808" lon="9.846805558108848" id="-39573">
		<tag k="name" v="Dånnålitjønna" />
		<tag k="natural" v="water" />
		<tag k="ssr:stedsnr" v="893394" />
	</node>
	<node lat="62.581744447956524" lon="9.874147231276512" id="-39579">
		<tag k="name" v="Skardbekken" />
		<tag k="ssr:stedsnr" v="893494" />
		<tag k="waterway" v="stream" />
	</node>
	<node lat="62.646291663849695" lon="9.307094443542695" id="-39585">
		<tag k="name" v="Skansbekken" />
		<tag k="ssr:stedsnr" v="695813" />
		<tag k="waterway" v="stream" />
	</node>
	<node lat="62.66614722567905" lon="9.203077778412661" id="-39596">
		<tag k="name" v="Snøssodden" />
		<tag k="natural" v="cape" />
		<tag k="ssr:stedsnr" v="696170" />
	</node>
	<node lat="62.661241668568195" lon="9.279188897601575" id="-39598">
		<tag k="name" v="Kvernbekken" />
		<tag k="ssr:stedsnr" v="696179" />
		<tag k="waterway" v="stream" />
	</node>
	<node lat="62.711855556537756" lon="9.559738888252685" id="-39602">
		<tag k="name" v="Haugbekken" />
		<tag k="ssr:stedsnr" v="709031" />
		<tag k="waterway" v="stream" />
	</node>
	<node lat="62.35891388885846" lon="9.629508333232367" id="-39606">
		<tag k="name" v="Grimsdalsbekken" />
		<tag k="ssr:stedsnr" v="711022" />
		<tag k="waterway" v="stream" />
	</node>
	<node lat="62.57866111141899" lon="9.527238897929234" id="-39612">
		<tag k="name" v="Løkkjbekken" />
		<tag k="ssr:stedsnr" v="711298" />
		<tag k="waterway" v="stream" />
	</node>
	<node lat="62.61479166532033" lon="9.895988881017246" id="-39630">
		<tag k="name" v="Gråhøtjønnin" />
		<tag k="natural" v="water" />
		<tag k="ssr:stedsnr" v="711494" />
	</node>
	<node lat="62.41532777969714" lon="9.388694442360212" id="-39637">
		<tag k="name" v="Tjønngluptjønnin" />
		<tag k="natural" v="water" />
		<tag k="ssr:stedsnr" v="738626" />
	</node>
	<node lat="62.39973333309098" lon="9.565008329396937" id="-39638">
		<tag k="name" v="Hesthåggåtjønna" />
		<tag k="natural" v="water" />
		<tag k="ssr:stedsnr" v="738560" />
	</node>
	<node lat="62.66776666817921" lon="9.723761116629449" id="-39640">
		<tag k="name" v="Stavsjøen" />
		<tag k="natural" v="water" />
		<tag k="ssr:stedsnr" v="739256" />
	</node>
	<node lat="62.69635833051684" lon="9.705072227074245" id="-39647">
		<tag k="name" v="Grytbekken" />
		<tag k="ssr:stedsnr" v="739653" />
		<tag k="waterway" v="stream" />
	</node>
	<node lat="62.54862777810658" lon="9.65102499695278" id="-39651">
		<tag k="name" v="Gisingerbekken" />
		<tag k="ssr:stedsnr" v="739601" />
		<tag k="waterway" v="stream" />
	</node>
	<node lat="62.34811944794083" lon="9.79464444158687" id="-39652">
		<tag k="name" v="Hemtjønnbekken" />
		<tag k="ssr:stedsnr" v="739715" />
		<tag k="waterway" v="stream" />
	</node>
	<node lat="62.655850000695075" lon="9.209152779195948" id="-39654">
		<tag k="name" v="Skrubekken" />
		<tag k="ssr:stedsnr" v="739942" />
		<tag k="waterway" v="stream" />
	</node>
	<node lat="62.592499997813874" lon="9.804925006918111" id="-39658">
		<tag k="name" v="Langfallsbekken" />
		<tag k="ssr:stedsnr" v="740442" />
		<tag k="waterway" v="stream" />
	</node>
	<node lat="62.683030553293264" lon="9.086674992676572" id="-39667">
		<tag k="name" v="Sløbekken" />
		<tag k="ssr:stedsnr" v="740916" />
		<tag k="waterway" v="stream" />
	</node>
	<node lat="62.574227782238694" lon="9.173563881248509" id="-39669">
		<tag k="name" v="Storløyfthølen" />
		<tag k="place" v="locality" />
		<tag k="ssr:stedsnr" v="754005" />
	</node>
	<node lat="62.585091669189666" lon="9.141097224734114" id="-39670">
		<tag k="name" v="Vardhøbekken" />
		<tag k="ssr:stedsnr" v="754008" />
		<tag k="waterway" v="stream" />
	</node>
	<node lat="62.532280555876866" lon="9.590661115290924" id="-39675">
		<tag k="name" v="Trondfossen" />
		<tag k="natural" v="waterfall" />
		<tag k="ssr:stedsnr" v="756708" />
	</node>
	<node lat="62.578497220298395" lon="9.397966668628943" id="-39700">
		<tag k="name" v="Bjønnhølen" />
		<tag k="place" v="locality" />
		<tag k="ssr:stedsnr" v="771366" />
	</node>
	<node lat="62.70823333165703" lon="9.206402771757555" id="-39704">
		<tag k="name" v="Midtiodden" />
		<tag k="natural" v="cape" />
		<tag k="ssr:stedsnr" v="771429" />
	</node>
	<node lat="62.69455555575552" lon="9.377719435025316" id="-39707">
		<tag k="name" v="Holmen" />
		<tag k="place" v="islet" />
		<tag k="ssr:stedsnr" v="771439" />
	</node>
	<node lat="62.741586110006914" lon="9.54118056178328" id="-39718">
		<tag k="name" v="Grovabekken" />
		<tag k="ssr:stedsnr" v="772323" />
		<tag k="waterway" v="stream" />
	</node>
	<node lat="62.43757777806234" lon="9.706977781555398" id="-39730">
		<tag k="name" v="Nørdre Steinbubekken" />
		<tag k="ssr:stedsnr" v="799632" />
		<tag k="waterway" v="stream" />
	</node>
	<node lat="62.50855833770701" lon="9.341966663918104" id="-39731">
		<tag k="name" v="Stakabekktjønna" />
		<tag k="natural" v="water" />
		<tag k="ssr:stedsnr" v="800338" />
	</node>
	<node lat="62.50297222175918" lon="9.233163891955137" id="-39733">
		<tag k="name" v="Tjønna" />
		<tag k="natural" v="water" />
		<tag k="ssr:stedsnr" v="800344" />
	</node>
	<node lat="62.55109999782907" lon="9.380833329995754" id="-39740">
		<tag k="name" v="Kubekken" />
		<tag k="ssr:stedsnr" v="800589" />
		<tag k="waterway" v="stream" />
	</node>
	<node lat="62.51853611450235" lon="9.262675005246976" id="-39743">
		<tag k="name" v="Bjørnabekken" />
		<tag k="ssr:stedsnr" v="801613" />
		<tag k="waterway" v="stream" />
	</node>
	<node lat="62.62871111311914" lon="9.450527786971357" id="-39744">
		<tag k="name" v="Breesbekken" />
		<tag k="ssr:stedsnr" v="801703" />
		<tag k="waterway" v="stream" />
	</node>
	<node lat="62.445461112556586" lon="9.8148611169557" id="-39745">
		<tag k="name" v="Lertjønnbekken" />
		<tag k="ssr:stedsnr" v="801710" />
		<tag k="waterway" v="stream" />
	</node>
	<node lat="62.733788886627" lon="9.34607499959908" id="-39750">
		<tag k="name" v="Gravbekken" />
		<tag k="ssr:stedsnr" v="801822" />
		<tag k="waterway" v="stream" />
	</node>
	<node lat="62.53823055237991" lon="9.812283323834164" id="-39768">
		<tag k="name" v="Olmtjønnin" />
		<tag k="natural" v="water" />
		<tag k="ssr:stedsnr" v="921447" />
	</node>
	<node lat="62.50548889227821" lon="9.326086114862767" id="-39770">
		<tag k="name" v="Snøfjellstjønna" />
		<tag k="natural" v="water" />
		<tag k="ssr:stedsnr" v="921454" />
	</node>
	<node lat="62.49314166812029" lon="9.694377773671135" id="-39771">
		<tag k="name" v="Lertjønnskardbekken" />
		<tag k="ssr:stedsnr" v="921464" />
		<tag k="waterway" v="stream" />
	</node>
	<node lat="62.52139999603571" lon="9.83938888257706" id="-39772">
		<tag k="name" v="Kvannbolbekken" />
		<tag k="ssr:stedsnr" v="921467" />
		<tag k="waterway" v="stream" />
	</node>
	<node lat="62.34159166727366" lon="9.527358324781055" id="-39783">
		<tag k="name" v="Kaldvellsjøen" />
		<tag k="natural" v="water" />
		<tag k="ssr:stedsnr" v="921570" />
		<tag k="water" v="lake" />
	</node>
	<node lat="62.689738890779175" lon="9.47242221983343" id="-39784">
		<tag k="name" v="Grøtbekken" />
		<tag k="ssr:stedsnr" v="921663" />
		<tag k="waterway" v="stream" />
	</node>
	<node lat="62.35260000050029" lon="9.741005563532077" id="-39786">
		<tag k="name" v="Haugtjønnin" />
		<tag k="natural" v="water" />
		<tag k="ssr:stedsnr" v="921723" />
		<tag k="water" v="lake" />
	</node>
	<node lat="62.7068249971692" lon="9.846986109643815" id="-39789">
		<tag k="name" v="Storbekken" />
		<tag k="ssr:stedsnr" v="922259" />
		<tag k="waterway" v="stream" />
	</node>
	<node lat="62.26458888550855" lon="9.632911115528014" id="-39791">
		<tag k="name" v="Dragtjønna" />
		<tag k="natural" v="water" />
		<tag k="ssr:stedsnr" v="922463" />
	</node>
	<node lat="62.541191665678525" lon="9.31450000832119" id="-39795">
		<tag k="name" v="Grønbekken" />
		<tag k="ssr:stedsnr" v="922563" />
		<tag k="waterway" v="stream" />
	</node>
	<node lat="62.66914167006459" lon="9.59027778522885" id="-39796">
		<tag k="name" v="Vekveselva" />
		<tag k="ssr:stedsnr" v="922634" />
		<tag k="waterway" v="river" />
	</node>
	<node lat="62.618549997810725" lon="9.263536107822317" id="-39801">
		<tag k="name" v="Stubbtverråa" />
		<tag k="ssr:stedsnr" v="922702" />
		<tag k="waterway" v="stream" />
	</node>
	<node lat="62.67442500405108" lon="9.207233323819942" id="-39805">
		<tag k="name" v="Hemre Gjelbekken" />
		<tag k="ssr:stedsnr" v="922907" />
		<tag k="waterway" v="stream" />
	</node>
	<node lat="62.69893611393162" lon="9.439761118108292" id="-39814">
		<tag k="name" v="Prestsæterbekken" />
		<tag k="ssr:stedsnr" v="833405" />
		<tag k="waterway" v="stream" />
	</node>
	<node lat="62.397255554508206" lon="9.268288883230225" id="-39827">
		<tag k="name" v="Såttjønna" />
		<tag k="natural" v="water" />
		<tag k="ssr:stedsnr" v="860616" />
	</node>
	<node lat="62.39685000112869" lon="9.6951027716454" id="-39828">
		<tag k="name" v="Veslfinnsjøen" />
		<tag k="natural" v="water" />
		<tag k="ssr:stedsnr" v="860617" />
	</node>
	<node lat="62.415108332686366" lon="9.24649445185542" id="-39832">
		<tag k="name" v="Urdvassbekken" />
		<tag k="ssr:stedsnr" v="860671" />
		<tag k="waterway" v="stream" />
	</node>
	<node lat="62.583200000062284" lon="9.53255000283301" id="-39841">
		<tag k="name" v="Gravåa" />
		<tag k="ssr:stedsnr" v="861510" />
		<tag k="waterway" v="river" />
	</node>
	<node lat="62.531499997335324" lon="9.360255563949275" id="-39844">
		<tag k="name" v="Svartbekken" />
		<tag k="ssr:stedsnr" v="861586" />
		<tag k="waterway" v="stream" />
	</node>
	<node lat="62.52929999897359" lon="9.646577768588504" id="-39845">
		<tag k="name" v="Losbekken" />
		<tag k="ssr:stedsnr" v="861593" />
		<tag k="waterway" v="stream" />
	</node>
	<node lat="62.800847220943304" lon="9.492949997991749" id="-39858">
		<tag k="name" v="Storbekken" />
		<tag k="ssr:stedsnr" v="862875" />
		<tag k="waterway" v="river" />
	</node>
	<node lat="62.6763805530795" lon="9.178472217226894" id="-39870">
		<tag k="name" v="Furuholbekken" />
		<tag k="ssr:stedsnr" v="878201" />
		<tag k="waterway" v="stream" />
	</node>
	<node lat="62.626575000710716" lon="9.198836112406637" id="-39877">
		<tag k="name" v="Daudmanntjønna" />
		<tag k="natural" v="water" />
		<tag k="ssr:stedsnr" v="935133" />
	</node>
	<node lat="62.482719448278566" lon="9.64047500160406" id="-39882">
		<tag k="name" v="Jamterbekken" />
		<tag k="ssr:stedsnr" v="893006" />
		<tag k="waterway" v="stream" />
	</node>
	<node lat="62.634030556901834" lon="9.813266667253336" id="-39895">
		<tag k="name" v="Merrabekken" />
		<tag k="ssr:stedsnr" v="893463" />
		<tag k="waterway" v="stream" />
	</node>
	<node lat="62.68279722045815" lon="9.547216671318653" id="-39897">
		<tag k="alt_name" v="Osen" />
		<tag k="name" v="Skarvassosen" />
		<tag k="natural" v="bay" />
		<tag k="ssr:stedsnr" v="893672" />
	</node>
	<node lat="62.45886944394545" lon="9.35934721549748" id="-39901">
		<tag k="name" v="Håmmårbekken" />
		<tag k="ssr:stedsnr" v="920604" />
		<tag k="waterway" v="stream" />
	</node>
	<node lat="62.467497222475686" lon="9.467805549462176" id="-39902">
		<tag k="alt_name" v="Åmotelva" />
		<tag k="name" v="Åmotselva" />
		<tag k="old_name" v="Amotselva" />
		<tag k="ssr:stedsnr" v="920599" />
		<tag k="waterway" v="river" />
	</node>
	<node lat="62.577199998510125" lon="9.519524991425401" id="-39906">
		<tag k="name" v="Hemerbjørnåa" />
		<tag k="old_name" v="Bjørnåa, vesle;Vesle Bjørnåa" />
		<tag k="ssr:stedsnr" v="921586" />
		<tag k="waterway" v="stream" />
	</node>
	<node lat="62.393630554074" lon="9.316047222412502" id="-39908">
		<tag k="name" v="Lyftingfonnbekken" />
		<tag k="ssr:stedsnr" v="921601" />
		<tag k="waterway" v="stream" />
	</node>
	<node lat="62.679105558585" lon="9.502263880743893" id="-39916">
		<tag k="name" v="Storbekken" />
		<tag k="ssr:stedsnr" v="921682" />
		<tag k="waterway" v="stream" />
	</node>
	<node lat="62.620474998717796" lon="9.654213884305547" id="-39917">
		<tag k="alt_name" v="Sprenbekken" />
		<tag k="name" v="Sprænbekken" />
		<tag k="ssr:stedsnr" v="922324" />
		<tag k="waterway" v="stream" />
	</node>
	<node lat="62.662924997306156" lon="9.606336104527143" id="-39918">
		<tag k="name" v="Storbekken" />
		<tag k="ssr:stedsnr" v="922325" />
		<tag k="waterway" v="stream" />
	</node>
	<node lat="62.47343055314606" lon="9.806811117760981" id="-39919">
		<tag k="name" v="Grønlibekken" />
		<tag k="ssr:stedsnr" v="922479" />
		<tag k="waterway" v="stream" />
	</node>
	<node lat="62.4772388856934" lon="9.889922219123319" id="-39920">
		<tag k="name" v="Butjønnbekken" />
		<tag k="ssr:stedsnr" v="922485" />
		<tag k="waterway" v="stream" />
	</node>
	<node lat="62.710883329889086" lon="9.388066658160492" id="-39921">
		<tag k="name" v="Røstbekken" />
		<tag k="ssr:stedsnr" v="922610" />
		<tag k="waterway" v="stream" />
	</node>
	<node lat="62.706958336188585" lon="9.50413055615751" id="-39922">
		<tag k="name" v="Gråhåmmårtjønna" />
		<tag k="natural" v="water" />
		<tag k="ssr:stedsnr" v="922612" />
	</node>
	<node lat="62.52184166746657" lon="9.320938890830002" id="-39923">
		<tag k="alt_name" v="Ståkkåbekken" />
		<tag k="name" v="Stakabekken" />
		<tag k="ssr:stedsnr" v="922588" />
		<tag k="waterway" v="stream" />
	</node>
	<node lat="62.51748889251147" lon="9.352886113153023" id="-39924">
		<tag k="name" v="Kutjønna" />
		<tag k="natural" v="water" />
		<tag k="ssr:stedsnr" v="922590" />
	</node>
	<node lat="62.622061109750184" lon="9.774994439581187" id="-39937">
		<tag k="name" v="Mynttjønna" />
		<tag k="natural" v="water" />
		<tag k="ssr:stedsnr" v="938708" />
	</node>
	<node lat="62.317291669576406" lon="9.621111119550621" id="-39956">
		<tag k="name" v="Sprenbekken" />
		<tag k="ssr:stedsnr" v="954115" />
		<tag k="waterway" v="stream" />
	</node>
	<node lat="62.71214722299169" lon="9.249499997212952" id="-39959">
		<tag k="name" v="Glupbekkodden" />
		<tag k="natural" v="cape" />
		<tag k="ssr:stedsnr" v="954391" />
	</node>
	<node lat="62.640635893419315" lon="9.781075496352958" id="-39995">
		<tag k="name" v="Medskogbekken" />
		<tag k="ssr:stedsnr" v="987575" />
		<tag k="waterway" v="stream" />
	</node>
	<node lat="62.64277579938007" lon="9.783365993150618" id="-39996">
		<tag k="name" v="Haugabekken" />
		<tag k="ssr:stedsnr" v="987576" />
		<tag k="waterway" v="stream" />
	</node>
	<node lat="62.40884722231811" lon="9.602486109206552" id="-40003">
		<tag k="name" v="Pineggbekken" />
		<tag k="ssr:stedsnr" v="10569" />
		<tag k="waterway" v="stream" />
	</node>
	<node lat="62.44398611073501" lon="9.69465278125704" id="-40007">
		<tag k="name" v="Håmmårbekken" />
		<tag k="ssr:stedsnr" v="10627" />
		<tag k="waterway" v="stream" />
	</node>
	<node lat="62.71332500455095" lon="9.763216660444058" id="-40008">
		<tag k="name" v="Hestbekken" />
		<tag k="ssr:stedsnr" v="11311" />
		<tag k="waterway" v="stream" />
	</node>
	<node lat="62.505980558263296" lon="9.26141667461852" id="-40010">
		<tag k="name" v="Fiskbekken" />
		<tag k="ssr:stedsnr" v="11340" />
		<tag k="waterway" v="stream" />
	</node>
	<node lat="62.73176666455307" lon="9.783511117206665" id="-40011">
		<tag k="name" v="Svabekken" />
		<tag k="ssr:stedsnr" v="11365" />
		<tag k="waterway" v="stream" />
	</node>
	<node lat="62.49703055950975" lon="9.464619436778646" id="-40013">
		<tag k="name" v="Trondtjønna" />
		<tag k="natural" v="water" />
		<tag k="ssr:stedsnr" v="11424" />
	</node>
	<node lat="62.29410277690588" lon="9.786319442638167" id="-40023">
		<tag k="name" v="Gruvbekken" />
		<tag k="old_name" v="Gruvebekken" />
		<tag k="ssr:stedsnr" v="11685" />
		<tag k="waterway" v="stream" />
	</node>
	<node lat="62.61186111556492" lon="9.431608339603699" id="-40025">
		<tag k="name" v="Svorunda" />
		<tag k="ssr:stedsnr" v="11721" />
		<tag k="waterway" v="stream" />
	</node>
	<node lat="62.70046110832866" lon="9.628391657330575" id="-40028">
		<tag k="name" v="Svarttjønna" />
		<tag k="natural" v="water" />
		<tag k="ssr:stedsnr" v="11650" />
	</node>
	<node lat="62.49597500022848" lon="9.681472229810174" id="-40029">
		<tag k="name" v="Fossåa" />
		<tag k="ssr:stedsnr" v="11653" />
		<tag k="waterway" v="river" />
	</node>
	<node lat="62.66664999734974" lon="9.264002774577897" id="-40032">
		<tag k="name" v="Blautbekken" />
		<tag k="ssr:stedsnr" v="11662" />
		<tag k="waterway" v="stream" />
	</node>
	<node lat="62.31006389113834" lon="9.831347228387777" id="-40033">
		<tag k="name" v="Flåmbekken" />
		<tag k="ssr:stedsnr" v="11668" />
		<tag k="waterway" v="stream" />
	</node>
	<node lat="62.32257500415209" lon="9.82216111050101" id="-40034">
		<tag k="alt_name" v="Legerbekken" />
		<tag k="name" v="Lægerbekken" />
		<tag k="ssr:stedsnr" v="11671" />
		<tag k="waterway" v="stream" />
	</node>
	<node lat="62.71393055230591" lon="9.168700004830457" id="-40038">
		<tag k="name" v="Holbekken" />
		<tag k="ssr:stedsnr" v="11873" />
		<tag k="waterway" v="stream" />
	</node>
	<node lat="62.58293333485893" lon="9.196966669918659" id="-40040">
		<tag k="name" v="Svorunda" />
		<tag k="ssr:stedsnr" v="11979" />
		<tag k="waterway" v="river" />
	</node>
	<node lat="62.591269444588484" lon="9.84881666484331" id="-40042">
		<tag k="alt_name" v="Vesl-Tinnia" />
		<tag k="name" v="Vesltinnia" />
		<tag k="ssr:stedsnr" v="12453" />
		<tag k="waterway" v="stream" />
	</node>
	<node lat="62.70996388666731" lon="9.48652777482002" id="-40045">
		<tag k="name" v="Svatjønna" />
		<tag k="natural" v="water" />
		<tag k="ssr:stedsnr" v="12639" />
	</node>
	<node lat="62.53441388956016" lon="9.568194440224817" id="-40048">
		<tag k="name" v="Tronda" />
		<tag k="ssr:stedsnr" v="12608" />
		<tag k="waterway" v="river" />
	</node>
	<node lat="62.42250833640315" lon="10.068075006830066" id="-40054">
		<tag k="name" v="Kongsbekken" />
		<tag k="ssr:stedsnr" v="12739" />
		<tag k="waterway" v="stream" />
	</node>
	<node lat="62.680391666684805" lon="9.142422227934716" id="-40058">
		<tag k="name" v="Kalvhåggåbekken" />
		<tag k="ssr:stedsnr" v="28195" />
		<tag k="waterway" v="stream" />
	</node>
	<node lat="62.58651111510463" lon="9.666666671585691" id="-40068">
		<tag k="name" v="Kolsjøbekken" />
		<tag k="ssr:stedsnr" v="28597" />
		<tag k="waterway" v="stream" />
	</node>
	<node lat="62.60659721915007" lon="9.476250002955206" id="-40070">
		<tag k="name" v="Festafallet" />
		<tag k="natural" v="waterfall" />
		<tag k="ssr:stedsnr" v="28828" />
	</node>
	<node lat="62.62175277680966" lon="9.767408331097627" id="-40075">
		<tag k="name" v="Retta" />
		<tag k="ssr:stedsnr" v="28733" />
		<tag k="waterway" v="stream" />
	</node>
	<node lat="62.62006944786799" lon="9.77163054851236" id="-40076">
		<tag k="name" v="Stortjønna" />
		<tag k="natural" v="water" />
		<tag k="ssr:stedsnr" v="28734" />
	</node>
	<node lat="62.6216694484443" lon="9.483544437998477" id="-40081">
		<tag k="name" v="Svinfallet" />
		<tag k="natural" v="waterfall" />
		<tag k="ssr:stedsnr" v="28816" />
	</node>
	<node lat="62.51349444327237" lon="9.265391659213435" id="-40094">
		<tag k="name" v="Fremmer Bjørnabekken" />
		<tag k="ssr:stedsnr" v="43265" />
		<tag k="waterway" v="stream" />
	</node>
	<node lat="62.57021388766824" lon="9.430972225770246" id="-40099">
		<tag k="name" v="Sprikbekken" />
		<tag k="ssr:stedsnr" v="43331" />
		<tag k="waterway" v="stream" />
	</node>
	<node lat="62.46656388664295" lon="9.43221110355041" id="-40103">
		<tag k="name" v="Nestusæterbekken" />
		<tag k="ssr:stedsnr" v="43345" />
		<tag k="waterway" v="stream" />
	</node>
	<node lat="62.707238884793775" lon="9.211691668029612" id="-40110">
		<tag k="name" v="Storodden" />
		<tag k="natural" v="cape" />
		<tag k="ssr:stedsnr" v="43401" />
	</node>
	<node lat="62.411388884571544" lon="9.49547777563753" id="-40123">
		<tag k="name" v="Storbukktjønna" />
		<tag k="natural" v="water" />
		<tag k="ssr:stedsnr" v="71605" />
	</node>
	<node lat="62.39950278169884" lon="9.681799990528313" id="-40124">
		<tag k="name" v="Finnsjøen" />
		<tag k="natural" v="water" />
		<tag k="ssr:stedsnr" v="71612" />
		<tag k="water" v="lake" />
	</node>
	<node lat="62.404122225835" lon="9.641833323790108" id="-40125">
		<tag k="name" v="Hesthåggåbekken" />
		<tag k="ssr:stedsnr" v="71613" />
		<tag k="waterway" v="stream" />
	</node>
	<node lat="62.37811389231147" lon="9.523883332381404" id="-40126">
		<tag k="name" v="Tythøbekken" />
		<tag k="ssr:stedsnr" v="71626" />
		<tag k="waterway" v="stream" />
	</node>
	<node lat="62.377300001744224" lon="9.661519447997359" id="-40127">
		<tag k="name" v="Merrabekktjønna" />
		<tag k="natural" v="water" />
		<tag k="ssr:stedsnr" v="71628" />
	</node>
	<node lat="62.47948888816341" lon="9.523025007016724" id="-40136">
		<tag k="alt_name" v="Gråordbekken" />
		<tag k="name" v="Gråurdbekken" />
		<tag k="ssr:stedsnr" v="72395" />
		<tag k="waterway" v="stream" />
	</node>
	<node lat="62.50923055918846" lon="10.033583330872302" id="-40138">
		<tag k="name" v="Kviknetjønna" />
		<tag k="natural" v="water" />
		<tag k="ssr:stedsnr" v="72414" />
	</node>
	<node lat="62.2799888887208" lon="9.543333333000048" id="-40142">
		<tag k="name" v="Storbekken" />
		<tag k="ssr:stedsnr" v="72477" />
		<tag k="waterway" v="stream" />
	</node>
	<node lat="62.62645000003433" lon="9.487047222343062" id="-40167">
		<tag k="name" v="Festa" />
		<tag k="ssr:stedsnr" v="72696" />
		<tag k="waterway" v="river" />
	</node>
	<node lat="62.911969446328946" lon="9.712988892096178" id="-40169">
		<tag k="name" v="Grana" />
		<tag k="ssr:stedsnr" v="73183" />
		<tag k="waterway" v="river" />
	</node>
	<node lat="62.67225832890242" lon="9.22617776877955" id="-40170">
		<tag k="name" v="Sandbekken" />
		<tag k="ssr:stedsnr" v="73344" />
		<tag k="waterway" v="stream" />
	</node>
	<node lat="62.72903610992306" lon="9.280077783315878" id="-40171">
		<tag k="name" v="Rensbekktjønna" />
		<tag k="natural" v="water" />
		<tag k="ssr:stedsnr" v="73844" />
	</node>
	<node lat="62.79800555708155" lon="9.53201944875533" id="-40172">
		<tag k="name" v="Skrika" />
		<tag k="ssr:stedsnr" v="73854" />
		<tag k="waterway" v="river" />
	</node>
	<node lat="62.748966663995176" lon="9.216786103599667" id="-40174">
		<tag k="name" v="Fagerlitjønna" />
		<tag k="natural" v="water" />
		<tag k="ssr:stedsnr" v="73897" />
	</node>
	<node lat="62.57974622264381" lon="9.223848281215217" id="-40176">
		<tag k="name" v="Imanghølen" />
		<tag k="place" v="locality" />
		<tag k="ssr:stedsnr" v="87031" />
	</node>
	<node lat="62.57722777481216" lon="9.252219442407725" id="-40177">
		<tag k="name" v="Pinhølen" />
		<tag k="place" v="locality" />
		<tag k="ssr:stedsnr" v="87033" />
	</node>
	<node lat="62.65672221920032" lon="9.236722229155934" id="-40186">
		<tag k="name" v="Oksfonnbekken" />
		<tag k="ssr:stedsnr" v="89205" />
		<tag k="waterway" v="stream" />
	</node>
	<node lat="62.60658611560225" lon="9.561108324530244" id="-40198">
		<tag k="name" v="Bruhølen" />
		<tag k="place" v="locality" />
		<tag k="ssr:stedsnr" v="89841" />
	</node>
	<node lat="62.43053611442417" lon="9.59669444762271" id="-40209">
		<tag k="name" v="Gruvbekken" />
		<tag k="ssr:stedsnr" v="104033" />
		<tag k="waterway" v="stream" />
	</node>
	<node lat="62.710483331085186" lon="9.715816663192806" id="-40212">
		<tag k="name" v="Hatt-tjønna" />
		<tag k="natural" v="water" />
		<tag k="ssr:stedsnr" v="104442" />
	</node>
	<node lat="62.6425749961388" lon="9.840886102735817" id="-40215">
		<tag k="name" v="Retta" />
		<tag k="ssr:stedsnr" v="104464" />
		<tag k="waterway" v="stream" />
	</node>
	<node lat="62.631566669675095" lon="9.92548889608411" id="-40220">
		<tag k="name" v="Søbergssæterfossen" />
		<tag k="natural" v="waterfall" />
		<tag k="ssr:stedsnr" v="104494" />
	</node>
</osm>
