<?xml version="1.0" encoding="UTF-8"?>
<osm generator="osmapis" version="0.6">
	<node id="-92208" lat="62.4650083301" lon="9.56540834269">
		<tag k="amenity" v="community_centre" />
		<tag k="name" v="Stenhuset" />
		<tag k="ssr:stedsnr" v="585135" />
	</node>
	<node id="-91740" lat="62.6163916627" lon="9.56331943531">
		<tag k="amenity" v="community_centre" />
		<tag k="name" v="Berghallen kretshus" />
		<tag k="old_name" v="Berghallen forsamlingshus" />
		<tag k="ssr:stedsnr" v="466190" />
	</node>
	<node id="-91739" lat="62.6159972197" lon="9.57213888083">
		<tag k="name" v="Vognillsbua" />
		<tag k="ssr:stedsnr" v="466185" />
		<tag k="tourism" v="museum" />
	</node>
	<node id="-92207" lat="62.6157555555" lon="9.58501388739">
		<tag k="amenity" v="place_of_worship" />
		<tag k="fixme" v="specify religion=*, denomination=*, building=* etc" />
		<tag k="name" v="Tyve bedehus" />
		<tag k="ssr:stedsnr" v="585130" />
	</node>
	<node id="-92214" lat="62.5948888899" lon="9.55967778323">
		<tag k="amenity" v="community_centre" />
		<tag k="name" v="Skulstoggo" />
		<tag k="ssr:stedsnr" v="711061" />
	</node>
	<node id="-92210" lat="62.6619472243" lon="9.49565833772">
		<tag k="alt_name" v="Sjømannskirka" />
		<tag k="amenity" v="place_of_worship" />
		<tag k="fixme" v="specify religion=*, denomination=*, building=* etc" />
		<tag k="name" v="Bakksætra" />
		<tag k="ssr:stedsnr" v="585202" />
	</node>
	<node id="-92112" lat="62.597866667" lon="9.68772778208">
		<tag k="amenity" v="community_centre" />
		<tag k="name" v="Oppdalshallen forsamlingshus" />
		<tag k="ssr:stedsnr" v="527173" />
	</node>
	<node id="-92303" lat="62.6562179865" lon="9.87767636135">
		<tag k="amenity" v="community_centre" />
		<tag k="name" v="Skogtun ungdomshus" />
		<tag k="ssr:stedsnr" v="877762" />
	</node>
	<node id="-92370" lat="62.5961305562" lon="9.62494166518">
		<tag k="amenity" v="community_centre" />
		<tag k="name" v="Villmarksleiren" />
		<tag k="ssr:stedsnr" v="889238" />
	</node>
	<node id="-91548" lat="62.6088555599" lon="9.59684167394">
		<tag k="amenity" v="community_centre" />
		<tag k="name" v="Grøtgamma" />
		<tag k="ssr:stedsnr" v="161258" />
	</node>
	<node id="-91972" lat="62.6091277817" lon="9.49570277337">
		<tag k="name" v="Olavs-kjelda" />
		<tag k="ssr:stedsnr" v="513794" />
		<tag k="tourism" v="attraction" />
	</node>
	<node id="-91467" lat="62.6042444475" lon="9.72722500949">
		<tag k="amenity" v="community_centre" />
		<tag k="name" v="Gamma på Tågvollen" />
		<tag k="ssr:stedsnr" v="100212" />
	</node>
</osm>
