<?xml version="1.0" encoding="UTF-8"?>
<osm version="0.6" generator="osmapis">
	<node lat="62.36843888645173" lon="9.54130556265147" id="-32073">
		<tag k="name" v="Stølådalsoksli" />
		<tag k="old_name" v="Stølådalsaksli" />
		<tag k="place" v="isolated_dwelling" />
		<tag k="ssr:stedsnr" v="10594" />
	</node>
	<node lat="62.70753513066812" lon="9.889295231088578" id="-32074">
		<tag k="fixme" v="consider place=hamlet" />
		<tag k="name" v="Aunsætra" />
		<tag k="place" v="farm" />
		<tag k="ssr:stedsnr" v="11281" />
	</node>
	<node lat="62.60542500345953" lon="9.31467223137328" id="-32079">
		<tag k="name" v="Løkkjhaugen" />
		<tag k="place" v="farm" />
		<tag k="ssr:stedsnr" v="11502" />
	</node>
	<node lat="62.59697897483264" lon="9.660285525938324" id="-32081">
		<tag k="fixme" v="consider place=hamlet" />
		<tag k="name" v="Røtvegen" />
		<tag k="place" v="farm" />
		<tag k="ssr:stedsnr" v="11511" />
	</node>
	<node lat="62.55797500134093" lon="9.58031389549296" id="-32084">
		<tag k="fixme" v="multiple name tags, choose one and add the other to alt_name" />
		<tag k="historic" v="shieling" />
		<tag k="name" v="Trengssætra;Ørstadtrengssætra" />
		<tag k="place" v="isolated_dwelling" />
		<tag k="ssr:stedsnr" v="11582" />
	</node>
	<node lat="62.603886113236015" lon="9.771938889158772" id="-32088">
		<tag k="name" v="Myrheim" />
		<tag k="place" v="farm" />
		<tag k="ssr:stedsnr" v="12428" />
	</node>
	<node lat="62.645725003625046" lon="9.48305000027103" id="-32092">
		<tag k="historic" v="shieling" />
		<tag k="name" v="Ålbussætra" />
		<tag k="place" v="isolated_dwelling" />
		<tag k="ssr:stedsnr" v="12701" />
	</node>
	<node lat="62.61974167115512" lon="9.472911118517743" id="-32094">
		<tag k="name" v="Sætran" />
		<tag k="place" v="farm" />
		<tag k="ssr:stedsnr" v="12710" />
	</node>
	<node lat="62.58171388615499" lon="9.184911108606508" id="-32097">
		<tag k="name" v="Klevgardan" />
		<tag k="place" v="hamlet" />
		<tag k="ssr:stedsnr" v="21203" />
	</node>
	<node lat="62.60343611466762" lon="9.732405546003372" id="-32098">
		<tag k="name" v="Tågvollan" />
		<tag k="place" v="farm" />
		<tag k="ssr:stedsnr" v="28417" />
	</node>
	<node lat="62.47677499559177" lon="9.55302222302187" id="-32100">
		<tag k="name" v="Stølhaugen" />
		<tag k="place" v="farm" />
		<tag k="ssr:stedsnr" v="28718" />
	</node>
	<node lat="62.532105556700635" lon="9.615952768236028" id="-32102">
		<tag k="name" v="Rønningen" />
		<tag k="place" v="farm" />
		<tag k="ssr:stedsnr" v="28674" />
	</node>
	<node lat="62.60402221994584" lon="9.648561111412272" id="-32106">
		<tag k="name" v="Fjellvang" />
		<tag k="place" v="quarter" />
		<tag k="ssr:stedsnr" v="40863" />
	</node>
	<node lat="62.60904166919472" lon="9.655741670657207" id="-32107">
		<tag k="name" v="Stenan hytteområde" />
		<tag k="place" v="neighbourhood" />
		<tag k="ssr:stedsnr" v="40867" />
	</node>
	<node lat="62.48670555887151" lon="9.649758326807104" id="-32108">
		<tag k="historic" v="shieling" />
		<tag k="name" v="Kalvhåggåsætra" />
		<tag k="place" v="isolated_dwelling" />
		<tag k="ssr:stedsnr" v="43003" />
	</node>
	<node lat="62.65997499972834" lon="9.54119443723688" id="-32114">
		<tag k="historic" v="shieling" />
		<tag k="name" v="Vognillssætra" />
		<tag k="place" v="isolated_dwelling" />
		<tag k="ssr:stedsnr" v="43302" />
	</node>
	<node lat="62.687543231542534" lon="9.103371917804635" id="-32119">
		<tag k="name" v="Ustigarden Sør hytteområde" />
		<tag k="place" v="neighbourhood" />
		<tag k="ssr:stedsnr" v="59801" />
	</node>
	<node lat="62.587349997768364" lon="9.350263892800548" id="-32135">
		<tag k="name" v="Rønningen" />
		<tag k="place" v="farm" />
		<tag k="ssr:stedsnr" v="72515" />
	</node>
	<node lat="62.587517900934394" lon="9.55135247747921" id="-32136">
		<tag k="fixme" v="consider place=hamlet" />
		<tag k="name" v="Ørstadsætra" />
		<tag k="place" v="farm" />
		<tag k="ssr:stedsnr" v="72518" />
	</node>
	<node lat="62.548605554537744" lon="9.373333328548316" id="-32142">
		<tag k="historic" v="shieling" />
		<tag k="name" v="Ratsætra" />
		<tag k="place" v="isolated_dwelling" />
		<tag k="ssr:stedsnr" v="72569" />
	</node>
	<node lat="62.6066856358421" lon="9.657425953016793" id="-32143">
		<tag k="name" v="Skjørstad" />
		<tag k="place" v="hamlet" />
		<tag k="ssr:stedsnr" v="72717" />
	</node>
	<node lat="62.60813840833802" lon="9.646061870639151" id="-32144">
		<tag k="fixme" v="consider place=hamlet" />
		<tag k="name" v="Prestgarden" />
		<tag k="place" v="farm" />
		<tag k="ssr:stedsnr" v="72718" />
	</node>
	<node lat="62.614562436978225" lon="9.560320667333874" id="-32145">
		<tag k="name" v="Kvalsjord" />
		<tag k="place" v="hamlet" />
		<tag k="ssr:stedsnr" v="72724" />
	</node>
	<node lat="62.67081110944492" lon="9.19736943975645" id="-32151">
		<tag k="alt_name" v="Vassli" />
		<tag k="name" v="Ångarden" />
		<tag k="place" v="farm" />
		<tag k="ssr:stedsnr" v="73911" />
	</node>
	<node lat="62.62297499717626" lon="9.469941667881457" id="-32153">
		<tag k="historic" v="shieling" />
		<tag k="name" v="Vangen" />
		<tag k="place" v="isolated_dwelling" />
		<tag k="ssr:stedsnr" v="88771" />
	</node>
	<node lat="62.60843055946426" lon="9.737111111271638" id="-32158">
		<tag k="name" v="Tynnølløkkja" />
		<tag k="place" v="farm" />
		<tag k="ssr:stedsnr" v="89718" />
	</node>
	<node lat="62.605022218443494" lon="9.774183334262231" id="-32160">
		<tag k="fixme" v="consider place=hamlet" />
		<tag k="name" v="Heggkåsa" />
		<tag k="place" v="farm" />
		<tag k="ssr:stedsnr" v="89727" />
	</node>
	<node lat="62.52701111201881" lon="9.631158327140973" id="-32161">
		<tag k="name" v="Bergem" />
		<tag k="place" v="farm" />
		<tag k="ssr:stedsnr" v="89667" />
	</node>
	<node lat="62.693447220870006" lon="9.102730560709645" id="-32162">
		<tag k="name" v="Storlia" />
		<tag k="place" v="farm" />
		<tag k="ssr:stedsnr" v="99176" />
	</node>
	<node lat="62.67439722290593" lon="9.91961945410151" id="-32172">
		<tag k="name" v="Vetlenget" />
		<tag k="place" v="farm" />
		<tag k="ssr:stedsnr" v="104384" />
	</node>
	<node lat="62.70798611201005" lon="9.543949998360121" id="-32176">
		<tag k="historic" v="shieling" />
		<tag k="name" v="Bergslættet" />
		<tag k="place" v="isolated_dwelling" />
		<tag k="ssr:stedsnr" v="104679" />
	</node>
	<node lat="62.30297777485486" lon="9.605775004378202" id="-32178">
		<tag k="fixme" v="consider place=hamlet" />
		<tag k="name" v="Kongsvoll" />
		<tag k="place" v="farm" />
		<tag k="ssr:stedsnr" v="108128" />
	</node>
	<node lat="62.478760290813945" lon="9.650801345476655" id="-32182">
		<tag k="historic" v="shieling" />
		<tag k="name" v="Ekkersætra" />
		<tag k="place" v="isolated_dwelling" />
		<tag k="ssr:stedsnr" v="131376" />
	</node>
	<node lat="62.46683333192321" lon="9.45524999444799" id="-32185">
		<tag k="alt_name" v="Stølen" />
		<tag k="historic" v="shieling" />
		<tag k="name" v="Støleggsætra" />
		<tag k="place" v="isolated_dwelling" />
		<tag k="ssr:stedsnr" v="131589" />
	</node>
	<node lat="62.65779853010912" lon="9.809988627132526" id="-32186">
		<tag k="alt_name" v="Stavå" />
		<tag k="fixme" v="consider place=hamlet" />
		<tag k="name" v="Stavåa" />
		<tag k="place" v="farm" />
		<tag k="ssr:stedsnr" v="132263" />
	</node>
	<node lat="62.611282751233624" lon="9.776046406962841" id="-32188">
		<tag k="alt_name" v="Abrahamsplassen" />
		<tag k="fixme" v="consider place=hamlet" />
		<tag k="name" v="Morka" />
		<tag k="place" v="farm" />
		<tag k="ssr:stedsnr" v="132433" />
	</node>
	<node lat="62.49727499787935" lon="9.63983056079849" id="-32189">
		<tag k="historic" v="shieling" />
		<tag k="name" v="Trengssætra" />
		<tag k="place" v="isolated_dwelling" />
		<tag k="ssr:stedsnr" v="132405" />
	</node>
	<node lat="62.610280551250824" lon="9.555936108335988" id="-32191">
		<tag k="name" v="Brya" />
		<tag k="place" v="farm" />
		<tag k="ssr:stedsnr" v="132735" />
	</node>
	<node lat="62.54954697984498" lon="9.63857195707777" id="-32193">
		<tag k="fixme" v="consider place=hamlet" />
		<tag k="name" v="Gisingran" />
		<tag k="place" v="farm" />
		<tag k="ssr:stedsnr" v="132608" />
	</node>
	<node lat="62.68431388743313" lon="9.465436112845772" id="-32197">
		<tag k="historic" v="shieling" />
		<tag k="name" v="Grøtsætra" />
		<tag k="place" v="isolated_dwelling" />
		<tag k="ssr:stedsnr" v="132676" />
	</node>
	<node lat="62.64116501003708" lon="9.554533098869188" id="-32201">
		<tag k="fixme" v="consider place=hamlet" />
		<tag k="name" v="Klettgjerdet" />
		<tag k="place" v="farm" />
		<tag k="ssr:stedsnr" v="133665" />
	</node>
	<node lat="62.47684166945275" lon="9.556838881196466" id="-32205">
		<tag k="name" v="Stølegga" />
		<tag k="place" v="farm" />
		<tag k="ssr:stedsnr" v="253461" />
	</node>
	<node lat="62.6102491735494" lon="9.52215159298108" id="-32210">
		<tag k="fixme" v="multiple name tags, choose one and add the other to alt_name" />
		<tag k="name" v="Klett;Klettgarden" />
		<tag k="place" v="farm" />
		<tag k="ssr:stedsnr" v="254318" />
	</node>
	<node lat="62.49602221880784" lon="9.587513890276284" id="-32211">
		<tag k="alt_name" v="Søsto" />
		<tag k="name" v="Søstu" />
		<tag k="place" v="farm" />
		<tag k="ssr:stedsnr" v="254397" />
	</node>
	<node lat="62.51933333395009" lon="9.876041664580217" id="-32212">
		<tag k="historic" v="shieling" />
		<tag k="name" v="Sjøsætra" />
		<tag k="place" v="isolated_dwelling" />
		<tag k="ssr:stedsnr" v="254399" />
	</node>
	<node lat="62.65892777541261" lon="9.859983323520169" id="-32213">
		<tag k="name" v="Kvam" />
		<tag k="place" v="farm" />
		<tag k="ssr:stedsnr" v="254253" />
	</node>
	<node lat="62.70848888893553" lon="9.779711104613128" id="-32214">
		<tag k="historic" v="shieling" />
		<tag k="name" v="Romolsætra" />
		<tag k="place" v="isolated_dwelling" />
		<tag k="ssr:stedsnr" v="254258" />
	</node>
	<node lat="62.5989464642907" lon="9.570506241310522" id="-32217">
		<tag k="fixme" v="consider place=hamlet" />
		<tag k="name" v="Bjørga" />
		<tag k="place" v="farm" />
		<tag k="ssr:stedsnr" v="254475" />
	</node>
	<node lat="62.60133611349696" lon="9.711772229168112" id="-32218">
		<tag k="name" v="Bjørkmoen" />
		<tag k="place" v="farm" />
		<tag k="ssr:stedsnr" v="254481" />
	</node>
	<node lat="62.57202778079606" lon="9.412394435091818" id="-32219">
		<tag k="name" v="Slættbakken" />
		<tag k="place" v="farm" />
		<tag k="ssr:stedsnr" v="254530" />
	</node>
	<node lat="62.57082222519361" lon="9.583388883495896" id="-32220">
		<tag k="alt_name" v="Rønningen" />
		<tag k="historic" v="shieling" />
		<tag k="name" v="Søsturønningen" />
		<tag k="place" v="isolated_dwelling" />
		<tag k="ssr:stedsnr" v="254532" />
	</node>
	<node lat="62.59087500118104" lon="9.300291672960986" id="-32221">
		<tag k="historic" v="shieling" />
		<tag k="name" v="Dettlisætra" />
		<tag k="place" v="isolated_dwelling" />
		<tag k="ssr:stedsnr" v="254484" />
	</node>
	<node lat="62.588858332224824" lon="9.430708337973856" id="-32222">
		<tag k="name" v="Bergem" />
		<tag k="place" v="farm" />
		<tag k="ssr:stedsnr" v="254491" />
	</node>
	<node lat="62.58919590846301" lon="9.538856679949545" id="-32223">
		<tag k="fixme" v="consider place=hamlet" />
		<tag k="name" v="Holssætra" />
		<tag k="place" v="farm" />
		<tag k="ssr:stedsnr" v="254492" />
	</node>
	<node lat="62.56686388751305" lon="9.400983323668282" id="-32226">
		<tag k="name" v="Sandaløkkja" />
		<tag k="place" v="farm" />
		<tag k="ssr:stedsnr" v="254536" />
	</node>
	<node lat="62.56724127095721" lon="9.364581511898216" id="-32228">
		<tag k="fixme" v="consider place=hamlet" />
		<tag k="name" v="Veggen" />
		<tag k="place" v="farm" />
		<tag k="ssr:stedsnr" v="254545" />
	</node>
	<node lat="62.5685722191111" lon="9.556141659027706" id="-32231">
		<tag k="historic" v="shieling" />
		<tag k="name" v="Holssætra" />
		<tag k="place" v="isolated_dwelling" />
		<tag k="ssr:stedsnr" v="254551" />
	</node>
	<node lat="62.545175000812385" lon="9.656177786560482" id="-32233">
		<tag k="historic" v="shieling" />
		<tag k="name" v="Haugasætra" />
		<tag k="place" v="isolated_dwelling" />
		<tag k="ssr:stedsnr" v="254576" />
	</node>
	<node lat="62.527223888233216" lon="9.593020488627431" id="-32234">
		<tag k="name" v="Skorem" />
		<tag k="place" v="hamlet" />
		<tag k="ssr:stedsnr" v="254584" />
	</node>
	<node lat="62.704399998905" lon="9.537524991720758" id="-32236">
		<tag k="historic" v="shieling" />
		<tag k="name" v="Nonshøsætra" />
		<tag k="place" v="isolated_dwelling" />
		<tag k="ssr:stedsnr" v="254601" />
	</node>
	<node lat="62.62393889113992" lon="9.562463885650518" id="-32237">
		<tag k="name" v="Myran" />
		<tag k="place" v="farm" />
		<tag k="ssr:stedsnr" v="254692" />
	</node>
	<node lat="62.666202778064616" lon="9.516336119241153" id="-32240">
		<tag k="historic" v="shieling" />
		<tag k="name" v="Engelsjordsætra" />
		<tag k="place" v="isolated_dwelling" />
		<tag k="ssr:stedsnr" v="254654" />
	</node>
	<node lat="62.63548055975771" lon="9.311522223238855" id="-32242">
		<tag k="fixme" v="multiple name tags, choose one and add the other to alt_name" />
		<tag k="historic" v="shieling" />
		<tag k="name" v="Åmellomsætra;Åmellom" />
		<tag k="place" v="isolated_dwelling" />
		<tag k="ssr:stedsnr" v="254662" />
	</node>
	<node lat="62.63690555502067" lon="9.482525006966794" id="-32243">
		<tag k="fixme" v="consider place=hamlet" />
		<tag k="name" v="Hornet" />
		<tag k="place" v="farm" />
		<tag k="ssr:stedsnr" v="254663" />
	</node>
	<node lat="62.583716663108504" lon="9.208905546966456" id="-32245">
		<tag k="fixme" v="consider place=hamlet" />
		<tag k="name" v="Kletthamran" />
		<tag k="place" v="farm" />
		<tag k="ssr:stedsnr" v="254750" />
	</node>
	<node lat="62.58301843952188" lon="9.191504007837857" id="-32246">
		<tag k="fixme" v="consider place=hamlet" />
		<tag k="name" v="Sætra" />
		<tag k="place" v="farm" />
		<tag k="ssr:stedsnr" v="254753" />
	</node>
	<node lat="62.58307777788288" lon="9.670216673546214" id="-32254">
		<tag k="name" v="Kåsa" />
		<tag k="place" v="farm" />
		<tag k="ssr:stedsnr" v="149525" />
	</node>
	<node lat="62.5562527736003" lon="9.643261116548985" id="-32263">
		<tag k="name" v="Bortesto" />
		<tag k="place" v="farm" />
		<tag k="ssr:stedsnr" v="149870" />
	</node>
	<node lat="62.609033330827856" lon="9.61855554969237" id="-32267">
		<tag k="name" v="Håkkårsløkkja" />
		<tag k="place" v="farm" />
		<tag k="ssr:stedsnr" v="149764" />
	</node>
	<node lat="62.61073661521499" lon="9.606838760363912" id="-32268">
		<tag k="alt_name" v="Skarsemsløkkja" />
		<tag k="name" v="Skarsesløkkja" />
		<tag k="place" v="farm" />
		<tag k="ssr:stedsnr" v="149766" />
	</node>
	<node lat="62.59546605756647" lon="9.68734634014641" id="-32271">
		<tag k="amenity" v="sports_centre" />
		<tag k="name" v="Oppdal svømmehall" />
		<tag k="ssr:stedsnr" v="163162" />
	</node>
	<node lat="62.70913610839353" lon="9.778477769471694" id="-32274">
		<tag k="name" v="Bauckhytta" />
		<tag k="place" v="isolated_dwelling" />
		<tag k="ssr:stedsnr" v="164521" />
	</node>
	<node lat="62.70610555536912" lon="9.885225002083262" id="-32285">
		<tag k="name" v="Aunsætra hytteområde" />
		<tag k="place" v="neighbourhood" />
		<tag k="ssr:stedsnr" v="180222" />
	</node>
	<node lat="62.62529444135323" lon="9.303111104312839" id="-32286">
		<tag k="name" v="Gjerdøya" />
		<tag k="place" v="farm" />
		<tag k="ssr:stedsnr" v="268144" />
	</node>
	<node lat="62.69237499944823" lon="9.0178916730091" id="-32288">
		<tag k="fixme" v="consider tourism=alpine_hut or tourism=chalet" />
		<tag k="name" v="Tovasshytta" />
		<tag k="ssr:stedsnr" v="210138" />
		<tag k="tourism" v="wilderness_hut" />
	</node>
	<node lat="62.578724999653765" lon="9.628049995119353" id="-32290">
		<tag k="name" v="Bø" />
		<tag k="place" v="farm" />
		<tag k="ssr:stedsnr" v="210630" />
	</node>
	<node lat="62.53166110705044" lon="9.63249722492541" id="-32291">
		<tag k="name" v="Søsto" />
		<tag k="place" v="farm" />
		<tag k="ssr:stedsnr" v="210675" />
	</node>
	<node lat="62.529541663732665" lon="9.615713892043118" id="-32292">
		<tag k="name" v="Øver Trøa" />
		<tag k="old_name" v="Trøa Over;Over Trøa" />
		<tag k="place" v="farm" />
		<tag k="ssr:stedsnr" v="210677" />
	</node>
	<node lat="62.53070833117736" lon="9.61494999786139" id="-32293">
		<tag k="name" v="Rønningen" />
		<tag k="place" v="farm" />
		<tag k="ssr:stedsnr" v="210680" />
	</node>
	<node lat="62.661461112194836" lon="9.877397226598339" id="-32295">
		<tag k="alt_name" v="Fagerhaug nedre" />
		<tag k="name" v="Nedre Fagerhaug" />
		<tag k="place" v="farm" />
		<tag k="ssr:stedsnr" v="210698" />
	</node>
	<node lat="62.53671389093541" lon="9.595744453728821" id="-32296">
		<tag k="name" v="Kalvhåggån" />
		<tag k="place" v="farm" />
		<tag k="ssr:stedsnr" v="210706" />
	</node>
	<node lat="62.61331110818655" lon="9.732888892234723" id="-32297">
		<tag k="name" v="Ågård" />
		<tag k="place" v="farm" />
		<tag k="ssr:stedsnr" v="210727" />
	</node>
	<node lat="62.558558336289" lon="9.646655547538382" id="-32298">
		<tag k="name" v="Hevle" />
		<tag k="place" v="hamlet" />
		<tag k="ssr:stedsnr" v="210877" />
	</node>
	<node lat="62.58927499891081" lon="9.344880547706852" id="-32299">
		<tag k="name" v="Ner Lønset" />
		<tag k="place" v="farm" />
		<tag k="ssr:stedsnr" v="210885" />
	</node>
	<node lat="62.613666663333845" lon="9.539649991961792" id="-32304">
		<tag k="fixme" v="multiple name tags, choose one and add the other to alt_name" />
		<tag k="name" v="Utigard;Dørremsgården;Dørrem" />
		<tag k="place" v="farm" />
		<tag k="ssr:stedsnr" v="270757" />
	</node>
	<node lat="62.61617222664303" lon="9.54556389485032" id="-32306">
		<tag k="name" v="Gulsenget" />
		<tag k="place" v="farm" />
		<tag k="ssr:stedsnr" v="270813" />
	</node>
	<node lat="62.662123667799804" lon="9.81224224874802" id="-32307">
		<tag k="name" v="Stavåløkkja hytteområde" />
		<tag k="place" v="neighbourhood" />
		<tag k="ssr:stedsnr" v="222186" />
	</node>
	<node lat="62.6928853324039" lon="9.095050805873978" id="-32309">
		<tag k="name" v="Storligrenda" />
		<tag k="place" v="hamlet" />
		<tag k="ssr:stedsnr" v="271159" />
	</node>
	<node lat="62.57306666911784" lon="9.582016669723798" id="-32325">
		<tag k="name" v="Megardsrønningen" />
		<tag k="place" v="locality" />
		<tag k="ssr:stedsnr" v="226010" />
	</node>
	<node lat="62.7822527803352" lon="9.543711105011559" id="-32327">
		<tag k="fixme" v="consider place=hamlet" />
		<tag k="name" v="Minnilldalen" />
		<tag k="place" v="farm" />
		<tag k="ssr:stedsnr" v="226348" />
	</node>
	<node lat="62.582972219523015" lon="9.629891664418993" id="-32329">
		<tag k="fixme" v="consider place=hamlet" />
		<tag k="name" v="Barstad" />
		<tag k="place" v="farm" />
		<tag k="ssr:stedsnr" v="271677" />
	</node>
	<node lat="62.52804444071019" lon="9.611924997708885" id="-32330">
		<tag k="name" v="Kåsa" />
		<tag k="place" v="farm" />
		<tag k="ssr:stedsnr" v="271715" />
	</node>
	<node lat="62.65960000141759" lon="9.862466662605339" id="-32334">
		<tag k="name" v="Fagerhaugløkkja" />
		<tag k="place" v="farm" />
		<tag k="ssr:stedsnr" v="271797" />
	</node>
	<node lat="62.61036389325813" lon="9.723469446986583" id="-32340">
		<tag k="name" v="Innesto" />
		<tag k="place" v="farm" />
		<tag k="ssr:stedsnr" v="271765" />
	</node>
	<node lat="62.63720832896472" lon="9.293869437489791" id="-32345">
		<tag k="historic" v="shieling" />
		<tag k="name" v="Nerigardssætra" />
		<tag k="place" v="isolated_dwelling" />
		<tag k="ssr:stedsnr" v="271859" />
	</node>
	<node lat="62.62098055175066" lon="9.558216660728256" id="-32347">
		<tag k="name" v="Myran" />
		<tag k="place" v="farm" />
		<tag k="ssr:stedsnr" v="271869" />
	</node>
	<node lat="62.49997777903905" lon="9.65819999973027" id="-32349">
		<tag k="historic" v="shieling" />
		<tag k="name" v="Moen" />
		<tag k="place" v="isolated_dwelling" />
		<tag k="ssr:stedsnr" v="230491" />
	</node>
	<node lat="62.690327778960295" lon="9.120458329446194" id="-32353">
		<tag k="name" v="Ustigarden hytteområde" />
		<tag k="place" v="neighbourhood" />
		<tag k="ssr:stedsnr" v="241807" />
	</node>
	<node lat="62.6238416664349" lon="9.475724994038819" id="-32354">
		<tag k="name" v="Vardammen hytteområde" />
		<tag k="place" v="neighbourhood" />
		<tag k="ssr:stedsnr" v="241812" />
	</node>
	<node lat="62.58440555577305" lon="9.339313880979907" id="-32355">
		<tag k="amenity" v="school" />
		<tag k="name" v="Lønset skole" />
		<tag k="ssr:stedsnr" v="241841" />
	</node>
	<node lat="62.61484444841381" lon="9.53446943991083" id="-32357">
		<tag k="name" v="Vetlenget" />
		<tag k="place" v="farm" />
		<tag k="ssr:stedsnr" v="452778" />
	</node>
	<node lat="62.58188888926467" lon="9.666813888083581" id="-32359">
		<tag k="name" v="Mjøakåsen" />
		<tag k="place" v="farm" />
		<tag k="ssr:stedsnr" v="453537" />
	</node>
	<node lat="62.57555278081275" lon="9.66097776989051" id="-32360">
		<tag k="name" v="Mjøa-grenda" />
		<tag k="place" v="hamlet" />
		<tag k="ssr:stedsnr" v="453541" />
	</node>
	<node lat="62.58904182103937" lon="9.620003916774873" id="-32361">
		<tag k="name" v="Oppåvika" />
		<tag k="place" v="farm" />
		<tag k="ssr:stedsnr" v="453556" />
	</node>
	<node lat="62.564588887636134" lon="9.65240833506726" id="-32362">
		<tag k="name" v="Vetlenget" />
		<tag k="place" v="farm" />
		<tag k="ssr:stedsnr" v="453560" />
	</node>
	<node lat="62.62221388768689" lon="9.749344444488946" id="-32363">
		<tag k="name" v="Rønningsløkkja" />
		<tag k="place" v="farm" />
		<tag k="ssr:stedsnr" v="453730" />
	</node>
	<node lat="62.54155833467502" lon="9.631450008548844" id="-32366">
		<tag k="name" v="Knausen" />
		<tag k="place" v="farm" />
		<tag k="ssr:stedsnr" v="453661" />
	</node>
	<node lat="62.61141666660275" lon="9.50681389723774" id="-32368">
		<tag k="name" v="Tørvesgjelan" />
		<tag k="place" v="farm" />
		<tag k="ssr:stedsnr" v="453796" />
	</node>
	<node lat="62.61495277955883" lon="9.58669723096285" id="-32371">
		<tag k="name" v="Vanghaugen" />
		<tag k="place" v="farm" />
		<tag k="ssr:stedsnr" v="453851" />
	</node>
	<node lat="62.598494447077044" lon="9.93329721950018" id="-32379">
		<tag k="fixme" v="multiple name tags, choose one and add the other to alt_name" />
		<tag k="historic" v="shieling" />
		<tag k="name" v="Aunsætra;Plassætra" />
		<tag k="place" v="isolated_dwelling" />
		<tag k="ssr:stedsnr" v="254403" />
	</node>
	<node lat="62.60943102672975" lon="9.73251976504316" id="-32380">
		<tag k="fixme" v="consider place=hamlet" />
		<tag k="name" v="Tynnølløkkja" />
		<tag k="place" v="farm" />
		<tag k="ssr:stedsnr" v="254416" />
	</node>
	<node lat="62.49322002249305" lon="9.578552923899624" id="-32382">
		<tag k="name" v="Vamran" />
		<tag k="place" v="hamlet" />
		<tag k="ssr:stedsnr" v="254391" />
	</node>
	<node lat="62.58030833182146" lon="9.373127769320428" id="-32383">
		<tag k="name" v="Ratgjerdet" />
		<tag k="place" v="farm" />
		<tag k="ssr:stedsnr" v="254503" />
	</node>
	<node lat="62.34118924219046" lon="9.356222499921484" id="-32384">
		<tag k="fixme" v="consider tourism=alpine_hut or tourism=chalet" />
		<tag k="name" v="Reinheim DNT" />
		<tag k="ssr:stedsnr" v="254506" />
		<tag k="tourism" v="wilderness_hut" />
	</node>
	<node lat="62.5833707074996" lon="9.343891947868384" id="-32385">
		<tag k="fixme" v="consider place=hamlet" />
		<tag k="name" v="Lønset" />
		<tag k="place" v="village" />
		<tag k="ssr:stedsnr" v="254508" />
	</node>
	<node lat="62.573210579231436" lon="9.27814098296365" id="-32389">
		<tag k="fixme" v="consider place=hamlet" />
		<tag k="name" v="Bekken" />
		<tag k="place" v="farm" />
		<tag k="ssr:stedsnr" v="254519" />
	</node>
	<node lat="62.345377781052974" lon="9.619580555453817" id="-32390">
		<tag k="name" v="Nystugubekk" />
		<tag k="place" v="isolated_dwelling" />
		<tag k="ssr:stedsnr" v="254521" />
	</node>
	<node lat="62.572591679951806" lon="9.349786390736579" id="-32391">
		<tag k="alt_name" v="Jamtsetra" />
		<tag k="fixme" v="consider place=hamlet" />
		<tag k="name" v="Jamtsætra" />
		<tag k="place" v="farm" />
		<tag k="ssr:stedsnr" v="254525" />
	</node>
	<node lat="62.71541666954257" lon="9.56261943961158" id="-32394">
		<tag k="historic" v="shieling" />
		<tag k="name" v="Stensessætra" />
		<tag k="place" v="isolated_dwelling" />
		<tag k="ssr:stedsnr" v="254606" />
	</node>
	<node lat="62.69849444676935" lon="9.420058334532811" id="-32399">
		<tag k="fixme" v="consider tourism=alpine_hut or tourism=chalet" />
		<tag k="name" v="Gjevilvasshytta" />
		<tag k="ssr:stedsnr" v="254623" />
		<tag k="tourism" v="wilderness_hut" />
	</node>
	<node lat="62.622722222601006" lon="9.308430552786573" id="-32403">
		<tag k="alt_name" v="Slættet" />
		<tag k="name" v="Storslættet" />
		<tag k="place" v="farm" />
		<tag k="ssr:stedsnr" v="254676" />
	</node>
	<node lat="62.473066667566016" lon="9.989605558559369" id="-32405">
		<tag k="historic" v="shieling" />
		<tag k="name" v="Skjørstadsætra" />
		<tag k="place" v="isolated_dwelling" />
		<tag k="ssr:stedsnr" v="254705" />
	</node>
	<node lat="62.61934487396845" lon="9.55038651241841" id="-32406">
		<tag k="fixme" v="consider place=hamlet" />
		<tag k="name" v="Sessåkran" />
		<tag k="place" v="farm" />
		<tag k="ssr:stedsnr" v="254707" />
	</node>
	<node lat="62.40883888489644" lon="9.884461102486945" id="-32410">
		<tag k="historic" v="shieling" />
		<tag k="name" v="Karilægret" />
		<tag k="place" v="isolated_dwelling" />
		<tag k="ssr:stedsnr" v="254720" />
	</node>
	<node lat="62.655316665999166" lon="9.286911113077101" id="-32416">
		<tag k="historic" v="shieling" />
		<tag k="name" v="Lønsetsætra" />
		<tag k="place" v="isolated_dwelling" />
		<tag k="ssr:stedsnr" v="270188" />
	</node>
	<node lat="62.584100003396216" lon="9.339811105113078" id="-32418">
		<tag k="name" v="Ner Brustoggo" />
		<tag k="place" v="farm" />
		<tag k="ssr:stedsnr" v="270873" />
	</node>
	<node lat="62.59272499940806" lon="9.651236104740931" id="-32424">
		<tag k="name" v="Røtvegen" />
		<tag k="place" v="farm" />
		<tag k="ssr:stedsnr" v="271605" />
	</node>
	<node lat="62.60472222541721" lon="9.642077784707272" id="-32425">
		<tag k="name" v="Doktorgården" />
		<tag k="place" v="farm" />
		<tag k="ssr:stedsnr" v="271610" />
	</node>
	<node lat="62.530124996027844" lon="9.637072223781518" id="-32429">
		<tag k="fixme" v="consider place=hamlet" />
		<tag k="name" v="Heggvollen" />
		<tag k="place" v="farm" />
		<tag k="ssr:stedsnr" v="271710" />
	</node>
	<node lat="62.52951944432826" lon="9.603180555775952" id="-32430">
		<tag k="name" v="Enokplassen" />
		<tag k="place" v="farm" />
		<tag k="ssr:stedsnr" v="271713" />
	</node>
	<node lat="62.660813888521425" lon="9.882377784223369" id="-32431">
		<tag k="name" v="Blæsterhaugen" />
		<tag k="place" v="isolated_dwelling" />
		<tag k="ssr:stedsnr" v="271726" />
	</node>
	<node lat="62.51551944135235" lon="9.607430557287774" id="-32433">
		<tag k="name" v="Risløkkja" />
		<tag k="place" v="farm" />
		<tag k="ssr:stedsnr" v="271892" />
	</node>
	<node lat="62.51079166580517" lon="9.660183324327685" id="-32434">
		<tag k="historic" v="shieling" />
		<tag k="name" v="Nerlosætra" />
		<tag k="place" v="isolated_dwelling" />
		<tag k="ssr:stedsnr" v="271901" />
	</node>
	<node lat="62.62233055727865" lon="9.744761111525689" id="-32436">
		<tag k="name" v="Rønningslia hytteområde" />
		<tag k="place" v="neighbourhood" />
		<tag k="ssr:stedsnr" v="283176" />
	</node>
	<node lat="62.61634444640513" lon="9.739369450346395" id="-32437">
		<tag k="name" v="Stølen hytteområde" />
		<tag k="place" v="neighbourhood" />
		<tag k="ssr:stedsnr" v="283184" />
	</node>
	<node lat="62.619436111727076" lon="9.73184443680712" id="-32438">
		<tag k="name" v="Støltrøa hytteområde" />
		<tag k="place" v="neighbourhood" />
		<tag k="ssr:stedsnr" v="283191" />
	</node>
	<node lat="62.60143888770104" lon="9.685844448770354" id="-32439">
		<tag k="alt_name" v="Hovdin skisenter" />
		<tag k="landuse" v="winter_sports" />
		<tag k="name" v="Oppdal skisenter - Hovden" />
		<tag k="piste:type" v="downhill" />
		<tag k="ssr:stedsnr" v="285182" />
	</node>
	<node lat="62.59466944736311" lon="9.684091665697032" id="-32440">
		<tag k="amenity" v="nursing_home" />
		<tag k="name" v="Oppdal distriktsmedisinske senter" />
		<tag k="ssr:stedsnr" v="285187" />
	</node>
	<node lat="62.65446666738657" lon="9.499883334052024" id="-32446">
		<tag k="historic" v="shieling" />
		<tag k="name" v="Sølvessætra" />
		<tag k="place" v="isolated_dwelling" />
		<tag k="ssr:stedsnr" v="286428" />
	</node>
	<node lat="62.68985555672174" lon="9.469163893291192" id="-32447">
		<tag k="historic" v="shieling" />
		<tag k="name" v="Nestusætra" />
		<tag k="place" v="isolated_dwelling" />
		<tag k="ssr:stedsnr" v="286434" />
	</node>
	<node lat="62.68772500184878" lon="9.459363881236586" id="-32448">
		<tag k="historic" v="shieling" />
		<tag k="name" v="Gunnhildsætra" />
		<tag k="place" v="isolated_dwelling" />
		<tag k="ssr:stedsnr" v="286436" />
	</node>
	<node lat="62.609738890102435" lon="9.614744437172497" id="-32450">
		<tag k="amenity" v="kindergarten" />
		<tag k="name" v="Torshaug" />
		<tag k="ssr:stedsnr" v="464148" />
	</node>
	<node lat="62.6878388885276" lon="9.123944439776645" id="-32453">
		<tag k="name" v="Sandbekken hytteområde" />
		<tag k="place" v="neighbourhood" />
		<tag k="ssr:stedsnr" v="464837" />
	</node>
	<node lat="62.61843333386271" lon="9.735016674382676" id="-32454">
		<tag k="name" v="Støllia hytteområde" />
		<tag k="place" v="neighbourhood" />
		<tag k="ssr:stedsnr" v="465203" />
	</node>
	<node lat="62.61477777341633" lon="9.726761107724068" id="-32455">
		<tag k="alt_name" v="Stølen skisenter" />
		<tag k="landuse" v="winter_sports" />
		<tag k="name" v="Oppdal skisenter - Stølen" />
		<tag k="piste:type" v="downhill" />
		<tag k="ssr:stedsnr" v="466177" />
	</node>
	<node lat="62.48906111173933" lon="9.649316666362997" id="-32458">
		<tag k="historic" v="shieling" />
		<tag k="name" v="Brustølan" />
		<tag k="place" v="isolated_dwelling" />
		<tag k="ssr:stedsnr" v="314462" />
	</node>
	<node lat="62.46456666546636" lon="9.456158339504798" id="-32461">
		<tag k="name" v="Slette" />
		<tag k="place" v="isolated_dwelling" />
		<tag k="ssr:stedsnr" v="314615" />
	</node>
	<node lat="62.58658611418827" lon="9.39719723010713" id="-32463">
		<tag k="name" v="Holsløkkja" />
		<tag k="place" v="farm" />
		<tag k="ssr:stedsnr" v="314558" />
	</node>
	<node lat="62.580816262884674" lon="9.628894888852308" id="-32464">
		<tag k="name" v="Bø" />
		<tag k="place" v="hamlet" />
		<tag k="ssr:stedsnr" v="314572" />
	</node>
	<node lat="62.577811116494225" lon="9.289686157026816" id="-32465">
		<tag k="fixme" v="consider place=hamlet" />
		<tag k="name" v="Tilset" />
		<tag k="place" v="farm" />
		<tag k="ssr:stedsnr" v="314574" />
	</node>
	<node lat="62.652999998385525" lon="9.865058337908629" id="-32470">
		<tag k="name" v="Løkkjbekken" />
		<tag k="place" v="farm" />
		<tag k="ssr:stedsnr" v="315264" />
	</node>
	<node lat="62.593909821654265" lon="9.500923812989907" id="-32471">
		<tag k="alt_name" v="Brennhaugen" />
		<tag k="fixme" v="consider place=hamlet" />
		<tag k="name" v="Moan" />
		<tag k="place" v="farm" />
		<tag k="ssr:stedsnr" v="315505" />
	</node>
	<node lat="62.564116586508725" lon="9.652185323468649" id="-32473">
		<tag k="name" v="Hevle" />
		<tag k="place" v="farm" />
		<tag k="ssr:stedsnr" v="315552" />
	</node>
	<node lat="62.54528889125472" lon="9.368025002265153" id="-32475">
		<tag k="historic" v="shieling" />
		<tag k="name" v="Nerholsætra" />
		<tag k="place" v="isolated_dwelling" />
		<tag k="ssr:stedsnr" v="315568" />
	</node>
	<node lat="62.62950832982932" lon="9.56970278403213" id="-32476">
		<tag k="name" v="Haugland" />
		<tag k="place" v="farm" />
		<tag k="ssr:stedsnr" v="315717" />
	</node>
	<node lat="62.626320229753134" lon="9.547940354611567" id="-32477">
		<tag k="fixme" v="consider place=hamlet" />
		<tag k="name" v="Hindset" />
		<tag k="place" v="farm" />
		<tag k="ssr:stedsnr" v="315718" />
	</node>
	<node lat="62.57447500135013" lon="9.212322219474139" id="-32478">
		<tag k="name" v="Toreseten" />
		<tag k="place" v="locality" />
		<tag k="ssr:stedsnr" v="315761" />
	</node>
	<node lat="62.672513893070665" lon="9.414630552614769" id="-32482">
		<tag k="historic" v="shieling" />
		<tag k="name" v="Ålbussætra" />
		<tag k="place" v="isolated_dwelling" />
		<tag k="ssr:stedsnr" v="315651" />
	</node>
	<node lat="62.65989697403154" lon="9.279759217715755" id="-32483">
		<tag k="name" v="Dalen" />
		<tag k="place" v="farm" />
		<tag k="ssr:stedsnr" v="315660" />
	</node>
	<node lat="62.76021666268089" lon="9.607808342522278" id="-32488">
		<tag k="historic" v="shieling" />
		<tag k="name" v="Rokkonessætra" />
		<tag k="place" v="isolated_dwelling" />
		<tag k="ssr:stedsnr" v="467480" />
	</node>
	<node lat="62.49246944153989" lon="9.649358327655436" id="-32490">
		<tag k="historic" v="shieling" />
		<tag k="name" v="Rønningssætra" />
		<tag k="place" v="isolated_dwelling" />
		<tag k="ssr:stedsnr" v="468042" />
	</node>
	<node lat="62.65063888644035" lon="9.548399993223619" id="-32502">
		<tag k="historic" v="shieling" />
		<tag k="name" v="Dørressætra" />
		<tag k="place" v="isolated_dwelling" />
		<tag k="ssr:stedsnr" v="468281" />
	</node>
	<node lat="62.58013888922085" lon="9.454005550916296" id="-32505">
		<tag k="historic" v="shieling" />
		<tag k="name" v="Bøahaugsætra" />
		<tag k="place" v="isolated_dwelling" />
		<tag k="ssr:stedsnr" v="468293" />
	</node>
	<node lat="62.69025000218463" lon="9.450630547713823" id="-32509">
		<tag k="historic" v="shieling" />
		<tag k="name" v="Oppestusætra" />
		<tag k="place" v="isolated_dwelling" />
		<tag k="ssr:stedsnr" v="468376" />
	</node>
	<node lat="62.58381666838475" lon="9.417016670147357" id="-32514">
		<tag k="name" v="Myrøya" />
		<tag k="place" v="isolated_dwelling" />
		<tag k="ssr:stedsnr" v="468300" />
	</node>
	<node lat="62.61224404995635" lon="9.72651079371416" id="-32526">
		<tag k="name" v="Gorsetgrenda" />
		<tag k="place" v="hamlet" />
		<tag k="ssr:stedsnr" v="331751" />
	</node>
	<node lat="62.615211109190916" lon="9.741388897350706" id="-32528">
		<tag k="name" v="Hallset" />
		<tag k="place" v="farm" />
		<tag k="ssr:stedsnr" v="331716" />
	</node>
	<node lat="62.64960555585275" lon="9.857344438500158" id="-32530">
		<tag k="name" v="Fagerheim" />
		<tag k="place" v="farm" />
		<tag k="ssr:stedsnr" v="331657" />
	</node>
	<node lat="62.57848333398246" lon="9.366774990972777" id="-32534">
		<tag k="name" v="Skogstoggo" />
		<tag k="place" v="farm" />
		<tag k="ssr:stedsnr" v="331899" />
	</node>
	<node lat="62.74123055605961" lon="9.578122213883873" id="-32536">
		<tag k="name" v="Viongen" />
		<tag k="place" v="isolated_dwelling" />
		<tag k="ssr:stedsnr" v="470994" />
	</node>
	<node lat="62.6245027779607" lon="9.738052780300762" id="-32537">
		<tag k="name" v="Oppdalstoppen hytteområde" />
		<tag k="place" v="neighbourhood" />
		<tag k="ssr:stedsnr" v="343204" />
	</node>
	<node lat="62.66141110721608" lon="9.53411667168913" id="-32538">
		<tag k="leisure" v="pitch" />
		<tag k="name" v="Grøtsetra skianlegg" />
		<tag k="ssr:stedsnr" v="345173" />
	</node>
	<node lat="62.61220555734843" lon="9.74826943746587" id="-32539">
		<tag k="name" v="Hallsetløkka camping" />
		<tag k="ssr:stedsnr" v="345774" />
		<tag k="tourism" v="camp_site" />
	</node>
	<node lat="62.52800277628507" lon="9.61047499880052" id="-32555">
		<tag k="fixme" v="multiple name tags, choose one and add the other to alt_name" />
		<tag k="name" v="Risan;Sørsto" />
		<tag k="place" v="farm" />
		<tag k="ssr:stedsnr" v="351621" />
	</node>
	<node lat="62.610575092654095" lon="9.71862946222662" id="-32556">
		<tag k="name" v="Buen" />
		<tag k="place" v="farm" />
		<tag k="ssr:stedsnr" v="363301" />
	</node>
	<node lat="62.462949999416665" lon="9.432327774259925" id="-32557">
		<tag k="historic" v="shieling" />
		<tag k="name" v="Gottemsætra" />
		<tag k="place" v="isolated_dwelling" />
		<tag k="ssr:stedsnr" v="374414" />
	</node>
	<node lat="62.464905555479156" lon="9.434313882765926" id="-32558">
		<tag k="historic" v="shieling" />
		<tag k="name" v="Vammervollsætra" />
		<tag k="place" v="isolated_dwelling" />
		<tag k="ssr:stedsnr" v="374415" />
	</node>
	<node lat="62.70550743536999" lon="9.901087207983121" id="-32562">
		<tag k="name" v="Vetlsætra" />
		<tag k="place" v="farm" />
		<tag k="ssr:stedsnr" v="375240" />
	</node>
	<node lat="62.506377781973455" lon="9.232400007193991" id="-32563">
		<tag k="historic" v="shieling" />
		<tag k="loc_name" v="Væggasætra" />
		<tag k="name" v="Veggasætra" />
		<tag k="place" v="isolated_dwelling" />
		<tag k="ssr:stedsnr" v="375311" />
	</node>
	<node lat="62.5194310203921" lon="9.874944900145971" id="-32566">
		<tag k="alt_name" v="Orkelsjøhytta" />
		<tag k="fixme" v="consider tourism=alpine_hut or tourism=chalet" />
		<tag k="name" v="Orkelsjøhytta TT" />
		<tag k="ssr:stedsnr" v="375387" />
		<tag k="tourism" v="wilderness_hut" />
	</node>
	<node lat="62.58578107513583" lon="9.672386580892626" id="-32567">
		<tag k="fixme" v="consider place=hamlet" />
		<tag k="name" v="Kolbotn" />
		<tag k="place" v="farm" />
		<tag k="ssr:stedsnr" v="375503" />
	</node>
	<node lat="62.585809372332186" lon="9.65669825342624" id="-32568">
		<tag k="name" v="Tjønnkåsan" />
		<tag k="old_name" v="Tjørnplassen;Tjønnplassen" />
		<tag k="place" v="farm" />
		<tag k="ssr:stedsnr" v="375504" />
	</node>
	<node lat="62.57744999672401" lon="9.366847230180621" id="-32570">
		<tag k="name" v="Skoglund" />
		<tag k="place" v="farm" />
		<tag k="ssr:stedsnr" v="375512" />
	</node>
	<node lat="62.481152781877775" lon="9.928663889440669" id="-32574">
		<tag k="historic" v="shieling" />
		<tag k="name" v="Rundhølsætra" />
		<tag k="place" v="isolated_dwelling" />
		<tag k="ssr:stedsnr" v="375483" />
	</node>
	<node lat="62.70349166916876" lon="9.412302775695524" id="-32576">
		<tag k="historic" v="shieling" />
		<tag k="name" v="Rolvsjordsætra" />
		<tag k="place" v="isolated_dwelling" />
		<tag k="ssr:stedsnr" v="375605" />
	</node>
	<node lat="62.696650001599686" lon="9.420413892762623" id="-32577">
		<tag k="alt_name" v="Golvåkersetrin" />
		<tag k="historic" v="shieling" />
		<tag k="name" v="Golvåkersætra" />
		<tag k="place" v="isolated_dwelling" />
		<tag k="ssr:stedsnr" v="375612" />
	</node>
	<node lat="62.67501388806867" lon="9.40844999631821" id="-32579">
		<tag k="historic" v="shieling" />
		<tag k="name" v="Klettsætra" />
		<tag k="place" v="isolated_dwelling" />
		<tag k="ssr:stedsnr" v="375636" />
	</node>
	<node lat="62.65424722385985" lon="9.510005563477574" id="-32580">
		<tag k="historic" v="shieling" />
		<tag k="name" v="Dørressætra" />
		<tag k="place" v="isolated_dwelling" />
		<tag k="ssr:stedsnr" v="375638" />
	</node>
	<node lat="62.611000988184124" lon="9.722464240645557" id="-32582">
		<tag k="name" v="Gorset" />
		<tag k="place" v="hamlet" />
		<tag k="ssr:stedsnr" v="375714" />
	</node>
	<node lat="62.60619999573238" lon="9.654152787241147" id="-32583">
		<tag k="name" v="Stenan" />
		<tag k="place" v="farm" />
		<tag k="ssr:stedsnr" v="375716" />
	</node>
	<node lat="62.61905981200927" lon="9.453741900997603" id="-32588">
		<tag k="name" v="Munkvoll og Breen hytteområde" />
		<tag k="place" v="neighbourhood" />
		<tag k="ssr:stedsnr" v="481839" />
	</node>
	<node lat="62.61053746322888" lon="9.497324797078" id="-32589">
		<tag k="fixme" v="consider place=hamlet" />
		<tag k="name" v="Ålbu" />
		<tag k="place" v="farm" />
		<tag k="ssr:stedsnr" v="389140" />
	</node>
	<node lat="62.602061115093846" lon="9.662911102845454" id="-32594">
		<tag k="name" v="Sætersgrenda" />
		<tag k="place" v="hamlet" />
		<tag k="ssr:stedsnr" v="392586" />
	</node>
	<node lat="62.59767778097492" lon="9.597100006496387" id="-32595">
		<tag k="name" v="Bjørkåsen" />
		<tag k="place" v="farm" />
		<tag k="ssr:stedsnr" v="392598" />
	</node>
	<node lat="62.53481666920799" lon="9.620372212840559" id="-32596">
		<tag k="name" v="Brustoggo" />
		<tag k="place" v="farm" />
		<tag k="ssr:stedsnr" v="392705" />
	</node>
	<node lat="62.528311107363315" lon="9.618099991351027" id="-32597">
		<tag k="name" v="Risgrenda" />
		<tag k="place" v="hamlet" />
		<tag k="ssr:stedsnr" v="392712" />
	</node>
	<node lat="62.62153055864016" lon="9.756824994890565" id="-32599">
		<tag k="name" v="Kåshaugen" />
		<tag k="place" v="farm" />
		<tag k="ssr:stedsnr" v="392744" />
	</node>
	<node lat="62.65541944292612" lon="9.875674991904182" id="-32600">
		<tag k="name" v="Fagermyr" />
		<tag k="place" v="farm" />
		<tag k="ssr:stedsnr" v="392781" />
	</node>
	<node lat="62.6598194465521" lon="9.867141657499882" id="-32601">
		<tag k="name" v="Kalvhåggån" />
		<tag k="place" v="farm" />
		<tag k="ssr:stedsnr" v="392785" />
	</node>
	<node lat="62.61155000052213" lon="9.597913897034617" id="-32602">
		<tag k="name" v="Grøtrista" />
		<tag k="place" v="isolated_dwelling" />
		<tag k="ssr:stedsnr" v="392793" />
	</node>
	<node lat="62.631792629041804" lon="9.77038206464627" id="-32603">
		<tag k="name" v="Lia-gardan" />
		<tag k="place" v="hamlet" />
		<tag k="ssr:stedsnr" v="392798" />
	</node>
	<node lat="62.51143055548224" lon="9.65918611660986" id="-32606">
		<tag k="historic" v="shieling" />
		<tag k="name" v="Nordigardssætra" />
		<tag k="place" v="isolated_dwelling" />
		<tag k="ssr:stedsnr" v="392882" />
	</node>
	<node lat="62.615894443840865" lon="9.472147214562444" id="-32607">
		<tag k="name" v="Breesgarden hytteområde" />
		<tag k="place" v="neighbourhood" />
		<tag k="ssr:stedsnr" v="483864" />
	</node>
	<node lat="62.59328333222521" lon="9.688830555144106" id="-32608">
		<tag k="name" v="Skifer hotell" />
		<tag k="ssr:stedsnr" v="484087" />
		<tag k="tourism" v="hotel" />
	</node>
	<node lat="62.62736110683171" lon="9.556058335458447" id="-32609">
		<tag k="fixme" v="multiple name tags, choose one and add the other to alt_name" />
		<tag k="name" v="Vestre Rolfsjord;Rolfsjord" />
		<tag k="place" v="farm" />
		<tag k="ssr:stedsnr" v="484199" />
	</node>
	<node lat="62.65935000207151" lon="9.280377772596285" id="-32610">
		<tag k="aerialway" v="drag_lift" />
		<tag k="fixme" v="consider the other aerialway types" />
		<tag k="name" v="Dalen skitrekk" />
		<tag k="ssr:stedsnr" v="403216" />
	</node>
	<node lat="62.505472222819165" lon="9.868397214219085" id="-32612">
		<tag k="name" v="Orkelsjøen hytteområde" />
		<tag k="place" v="neighbourhood" />
		<tag k="ssr:stedsnr" v="403881" />
	</node>
	<node lat="62.59507500167506" lon="9.68748888909081" id="-32617">
		<tag k="amenity" v="townhall" />
		<tag k="name" v="Oppdal rådhus" />
		<tag k="ssr:stedsnr" v="406195" />
	</node>
	<node lat="62.61717499562028" lon="9.48078056385908" id="-32618">
		<tag k="name" v="Festa camping" />
		<tag k="ssr:stedsnr" v="406793" />
		<tag k="tourism" v="camp_site" />
	</node>
	<node lat="62.604919441112536" lon="9.8289694460985" id="-32619">
		<tag k="historic" v="shieling" />
		<tag k="name" v="Øver Kviknvangen" />
		<tag k="place" v="isolated_dwelling" />
		<tag k="ssr:stedsnr" v="407505" />
	</node>
	<node lat="62.58799166283441" lon="9.549872228138929" id="-32627">
		<tag k="name" v="Tandsætra" />
		<tag k="place" v="farm" />
		<tag k="ssr:stedsnr" v="408305" />
	</node>
	<node lat="62.58918055690595" lon="9.530211115520546" id="-32628">
		<tag k="name" v="Gravåbakken" />
		<tag k="place" v="farm" />
		<tag k="ssr:stedsnr" v="408306" />
	</node>
	<node lat="62.594547222063134" lon="9.5159166685659" id="-32629">
		<tag k="name" v="Nysetertrøin" />
		<tag k="place" v="farm" />
		<tag k="ssr:stedsnr" v="408307" />
	</node>
	<node lat="62.59966944591747" lon="9.501805547550061" id="-32630">
		<tag k="name" v="Ner Moan" />
		<tag k="place" v="farm" />
		<tag k="ssr:stedsnr" v="408348" />
	</node>
	<node lat="62.64109722661673" lon="9.503499996891076" id="-32634">
		<tag k="name" v="Klettstølen hytteområde" />
		<tag k="place" v="neighbourhood" />
		<tag k="ssr:stedsnr" v="423850" />
	</node>
	<node lat="62.65255555470012" lon="9.501530551146352" id="-32635">
		<tag k="name" v="Kanikksætra hytteområde" />
		<tag k="place" v="neighbourhood" />
		<tag k="ssr:stedsnr" v="423853" />
	</node>
	<node lat="62.59967777425962" lon="9.773702772737964" id="-32643">
		<tag k="alt_name" v="Gorsetsetra" />
		<tag k="fixme" v="consider place=hamlet" />
		<tag k="loc_name" v="Gammelstogsætra" />
		<tag k="name" v="Gorsetsætra" />
		<tag k="place" v="farm" />
		<tag k="ssr:stedsnr" v="436414" />
	</node>
	<node lat="62.59447499788857" lon="9.643361112274095" id="-32644">
		<tag k="name" v="Prestmoen" />
		<tag k="place" v="isolated_dwelling" />
		<tag k="ssr:stedsnr" v="436504" />
	</node>
	<node lat="62.58716802887759" lon="9.66574961717045" id="-32645">
		<tag k="alt_name" v="Solli" />
		<tag k="fixme" v="consider place=hamlet" />
		<tag k="name" v="Sollia" />
		<tag k="place" v="farm" />
		<tag k="ssr:stedsnr" v="436505" />
	</node>
	<node lat="62.58076110120013" lon="9.389790752724755" id="-32646">
		<tag k="name" v="Nerhol" />
		<tag k="place" v="hamlet" />
		<tag k="ssr:stedsnr" v="436511" />
	</node>
	<node lat="62.58288889047616" lon="9.67057499194624" id="-32647">
		<tag k="name" v="Myrvoll" />
		<tag k="place" v="farm" />
		<tag k="ssr:stedsnr" v="436517" />
	</node>
	<node lat="62.56212500282748" lon="9.655927779314453" id="-32649">
		<tag k="name" v="Lialund" />
		<tag k="place" v="farm" />
		<tag k="ssr:stedsnr" v="436548" />
	</node>
	<node lat="62.557713890143226" lon="9.651594446038093" id="-32650">
		<tag k="fixme" v="multiple name tags, choose one and add the other to alt_name" />
		<tag k="name" v="Hevlesløkkja;Løkkja" />
		<tag k="place" v="farm" />
		<tag k="ssr:stedsnr" v="436561" />
	</node>
	<node lat="62.68706666965054" lon="9.468319448407376" id="-32653">
		<tag k="alt_name" v="Vognillssætra" />
		<tag k="historic" v="shieling" />
		<tag k="name" v="Storstuggusætra" />
		<tag k="place" v="isolated_dwelling" />
		<tag k="ssr:stedsnr" v="436616" />
	</node>
	<node lat="62.66100555415536" lon="9.495622227302144" id="-32656">
		<tag k="historic" v="shieling" />
		<tag k="name" v="Bakksætra" />
		<tag k="place" v="isolated_dwelling" />
		<tag k="ssr:stedsnr" v="436659" />
	</node>
	<node lat="62.44356389275777" lon="10.046625002374475" id="-32659">
		<tag k="historic" v="shieling" />
		<tag k="name" v="Ålbusætra" />
		<tag k="place" v="isolated_dwelling" />
		<tag k="ssr:stedsnr" v="436712" />
	</node>
	<node lat="62.60740555842413" lon="9.438652773506966" id="-32660">
		<tag k="alt_name" v="Skinset" />
		<tag k="name" v="Skinnset" />
		<tag k="place" v="farm" />
		<tag k="ssr:stedsnr" v="436715" />
	</node>
	<node lat="62.62662370441873" lon="9.580038754350408" id="-32666">
		<tag k="name" v="Stensem" />
		<tag k="place" v="hamlet" />
		<tag k="ssr:stedsnr" v="437714" />
	</node>
	<node lat="62.67548333419726" lon="9.167047213018835" id="-32670">
		<tag k="name" v="Solgløtt" />
		<tag k="place" v="isolated_dwelling" />
		<tag k="ssr:stedsnr" v="453212" />
	</node>
	<node lat="62.53281666409644" lon="9.636108329332805" id="-32674">
		<tag k="name" v="Flotten" />
		<tag k="place" v="farm" />
		<tag k="ssr:stedsnr" v="453669" />
	</node>
	<node lat="62.52330833341485" lon="9.633016673885617" id="-32675">
		<tag k="name" v="Bekkaløkkja" />
		<tag k="place" v="farm" />
		<tag k="ssr:stedsnr" v="453673" />
	</node>
	<node lat="62.609341663475185" lon="9.313994446438599" id="-32676">
		<tag k="name" v="Marcon" />
		<tag k="place" v="farm" />
		<tag k="ssr:stedsnr" v="453822" />
	</node>
	<node lat="62.57918333610471" lon="9.76706111587087" id="-32679">
		<tag k="historic" v="shieling" />
		<tag k="name" v="Ekkersætra" />
		<tag k="place" v="isolated_dwelling" />
		<tag k="ssr:stedsnr" v="453781" />
	</node>
	<node lat="62.65596944076789" lon="9.884313896141384" id="-32682">
		<tag k="amenity" v="kindergarten" />
		<tag k="name" v="Fagerhaug barnehage" />
		<tag k="ssr:stedsnr" v="464153" />
	</node>
	<node lat="62.611547222642706" lon="9.738413893888325" id="-32683">
		<tag k="amenity" v="kindergarten" />
		<tag k="name" v="Stølen private barnehage" />
		<tag k="ssr:stedsnr" v="464155" />
	</node>
	<node lat="62.63041111484523" lon="9.8135944350385" id="-32684">
		<tag k="leisure" v="pitch" />
		<tag k="name" v="Moa motorsportsenter" />
		<tag k="ssr:stedsnr" v="467802" />
	</node>
	<node lat="62.595261111551444" lon="9.57261666332234" id="-32688">
		<tag k="name" v="Bjørgli" />
		<tag k="place" v="farm" />
		<tag k="ssr:stedsnr" v="468062" />
	</node>
	<node lat="62.578891248558485" lon="9.69208925577322" id="-32708">
		<tag k="fixme" v="consider place=hamlet" />
		<tag k="name" v="Ålmsætra" />
		<tag k="place" v="farm" />
		<tag k="ssr:stedsnr" v="678537" />
	</node>
	<node lat="62.57154620085827" lon="9.340679260188606" id="-32710">
		<tag k="fixme" v="consider place=hamlet" />
		<tag k="name" v="Utem" />
		<tag k="place" v="farm" />
		<tag k="ssr:stedsnr" v="678541" />
	</node>
	<node lat="62.575329551313004" lon="9.370393628779231" id="-32711">
		<tag k="fixme" v="consider place=hamlet" />
		<tag k="name" v="Rate" />
		<tag k="place" v="farm" />
		<tag k="ssr:stedsnr" v="678548" />
	</node>
	<node lat="62.64966944397907" lon="9.497969449933997" id="-32716">
		<tag k="name" v="Raudhovden hytteområde" />
		<tag k="place" v="neighbourhood" />
		<tag k="ssr:stedsnr" v="483862" />
	</node>
	<node lat="62.69640939798856" lon="9.906027122103364" id="-32717">
		<tag k="alt_name" v="Holden" />
		<tag k="fixme" v="consider place=hamlet" />
		<tag k="name" v="Holda" />
		<tag k="place" v="farm" />
		<tag k="ssr:stedsnr" v="679261" />
	</node>
	<node lat="62.711463891583406" lon="9.291544440077345" id="-32722">
		<tag k="historic" v="shieling" />
		<tag k="name" v="Rensbekksætra" />
		<tag k="place" v="isolated_dwelling" />
		<tag k="ssr:stedsnr" v="679601" />
	</node>
	<node lat="62.594486112896185" lon="9.604772214745038" id="-32724">
		<tag k="name" v="Vikahaugen" />
		<tag k="place" v="farm" />
		<tag k="ssr:stedsnr" v="679483" />
	</node>
	<node lat="62.56872500247422" lon="9.35755555434139" id="-32727">
		<tag k="name" v="Molund" />
		<tag k="place" v="farm" />
		<tag k="ssr:stedsnr" v="679524" />
	</node>
	<node lat="62.56188484698218" lon="9.621790905296377" id="-32728">
		<tag k="name" v="Hol" />
		<tag k="place" v="hamlet" />
		<tag k="ssr:stedsnr" v="679532" />
	</node>
	<node lat="62.55863125258432" lon="9.647956546024709" id="-32729">
		<tag k="fixme" v="consider place=hamlet" />
		<tag k="name" v="Hevle" />
		<tag k="place" v="farm" />
		<tag k="ssr:stedsnr" v="679536" />
	</node>
	<node lat="62.5420833361388" lon="9.364505552355482" id="-32731">
		<tag k="historic" v="shieling" />
		<tag k="name" v="Øyasætra" />
		<tag k="place" v="isolated_dwelling" />
		<tag k="ssr:stedsnr" v="679550" />
	</node>
	<node lat="62.275861107828106" lon="9.5828555611974" id="-32733">
		<tag k="name" v="Grønbakken" />
		<tag k="place" v="farm" />
		<tag k="ssr:stedsnr" v="679461" />
	</node>
	<node lat="62.60103611544326" lon="9.582288895743792" id="-32734">
		<tag k="name" v="Rønningen" />
		<tag k="place" v="farm" />
		<tag k="ssr:stedsnr" v="679462" />
	</node>
	<node lat="62.66405555316547" lon="9.54716389328704" id="-32736">
		<tag k="historic" v="shieling" />
		<tag k="name" v="Vognillssætra" />
		<tag k="place" v="isolated_dwelling" />
		<tag k="ssr:stedsnr" v="679662" />
	</node>
	<node lat="62.58957777898865" lon="9.192199991815833" id="-32737">
		<tag k="historic" v="shieling" />
		<tag k="name" v="Nyhussætra" />
		<tag k="place" v="isolated_dwelling" />
		<tag k="ssr:stedsnr" v="679739" />
	</node>
	<node lat="62.58297500260809" lon="9.14604443963949" id="-32738">
		<tag k="historic" v="shieling" />
		<tag k="name" v="Liabøsætra" />
		<tag k="place" v="isolated_dwelling" />
		<tag k="ssr:stedsnr" v="679745" />
	</node>
	<node lat="62.386211108820255" lon="9.889772215339644" id="-32741">
		<tag k="historic" v="shieling" />
		<tag k="name" v="Trehusvollen" />
		<tag k="place" v="isolated_dwelling" />
		<tag k="ssr:stedsnr" v="679681" />
	</node>
	<node lat="62.63037777424758" lon="9.597116669091394" id="-32742">
		<tag k="historic" v="shieling" />
		<tag k="name" v="Negardssætra" />
		<tag k="place" v="isolated_dwelling" />
		<tag k="ssr:stedsnr" v="679689" />
	</node>
	<node lat="62.63922016944529" lon="9.78738548154993" id="-32753">
		<tag k="fixme" v="consider place=hamlet" />
		<tag k="name" v="Medskogen" />
		<tag k="place" v="farm" />
		<tag k="ssr:stedsnr" v="496499" />
	</node>
	<node lat="62.359727774055465" lon="9.674516669109552" id="-32755">
		<tag k="historic" v="shieling" />
		<tag k="name" v="Vårstigsætra" />
		<tag k="place" v="isolated_dwelling" />
		<tag k="ssr:stedsnr" v="496609" />
	</node>
	<node lat="62.64292499591769" lon="9.795891662853093" id="-32757">
		<tag k="name" v="Hårstad" />
		<tag k="place" v="farm" />
		<tag k="ssr:stedsnr" v="496505" />
	</node>
	<node lat="62.58521518502656" lon="9.3420532027745" id="-32758">
		<tag k="name" v="Lønsetmoen" />
		<tag k="place" v="farm" />
		<tag k="ssr:stedsnr" v="496550" />
	</node>
	<node lat="62.56663742048389" lon="9.616936934821371" id="-32760">
		<tag k="name" v="Snøve" />
		<tag k="place" v="hamlet" />
		<tag k="ssr:stedsnr" v="496600" />
	</node>
	<node lat="62.61095077017721" lon="9.468378561904712" id="-32762">
		<tag k="fixme" v="multiple name tags, choose one and add the other to alt_name; consider place=hamlet" />
		<tag k="name" v="Breesstølen;Stølen" />
		<tag k="place" v="farm" />
		<tag k="ssr:stedsnr" v="496720" />
	</node>
	<node lat="62.690849999924005" lon="9.463722223023447" id="-32763">
		<tag k="historic" v="shieling" />
		<tag k="name" v="Kvalsjordsætra" />
		<tag k="place" v="isolated_dwelling" />
		<tag k="ssr:stedsnr" v="496648" />
	</node>
	<node lat="62.522550002822534" lon="9.594569437717391" id="-32770">
		<tag k="name" v="Skoresplassen" />
		<tag k="place" v="farm" />
		<tag k="ssr:stedsnr" v="497593" />
	</node>
	<node lat="62.631761114627444" lon="9.473641674050336" id="-32772">
		<tag k="historic" v="shieling" />
		<tag k="name" v="Myrasætra" />
		<tag k="place" v="isolated_dwelling" />
		<tag k="ssr:stedsnr" v="497710" />
	</node>
	<node lat="62.44837499649052" lon="9.829572217264346" id="-32773">
		<tag k="historic" v="shieling" />
		<tag k="name" v="Grønøysætra" />
		<tag k="place" v="isolated_dwelling" />
		<tag k="ssr:stedsnr" v="497712" />
	</node>
	<node lat="62.57766111414226" lon="9.16126111415256" id="-32777">
		<tag k="name" v="Liabøslættet" />
		<tag k="place" v="farm" />
		<tag k="ssr:stedsnr" v="497753" />
	</node>
	<node lat="62.618613891017134" lon="9.29846666749152" id="-32778">
		<tag k="fixme" v="multiple name tags, choose one and add the other to alt_name" />
		<tag k="name" v="Slipersætra;Sandvoll" />
		<tag k="place" v="farm" />
		<tag k="ssr:stedsnr" v="497693" />
	</node>
	<node lat="62.73277778040959" lon="9.562436115576293" id="-32779">
		<tag k="name" v="Bekkenget" />
		<tag k="place" v="farm" />
		<tag k="ssr:stedsnr" v="497848" />
	</node>
	<node lat="62.73831944111083" lon="9.554249995209426" id="-32780">
		<tag k="fixme" v="multiple name tags, choose one and add the other to alt_name" />
		<tag k="historic" v="shieling" />
		<tag k="name" v="Vognillssætra;Utestuenget" />
		<tag k="place" v="isolated_dwelling" />
		<tag k="ssr:stedsnr" v="497851" />
	</node>
	<node lat="62.69336388633723" lon="9.100077773114624" id="-32784">
		<tag k="name" v="Gjelhaugen" />
		<tag k="place" v="farm" />
		<tag k="ssr:stedsnr" v="513132" />
	</node>
	<node lat="62.5898777813939" lon="9.62330555984354" id="-32787">
		<tag k="fixme" v="consider place=hamlet" />
		<tag k="name" v="Nervika" />
		<tag k="place" v="farm" />
		<tag k="ssr:stedsnr" v="513569" />
	</node>
	<node lat="62.53493888446909" lon="9.629450006709535" id="-32788">
		<tag k="name" v="Losgrenda" />
		<tag k="place" v="hamlet" />
		<tag k="ssr:stedsnr" v="513672" />
	</node>
	<node lat="62.535952777133005" lon="9.63314444119734" id="-32790">
		<tag k="name" v="Utesto" />
		<tag k="place" v="farm" />
		<tag k="ssr:stedsnr" v="513678" />
	</node>
	<node lat="62.609175002977906" lon="9.460880560460842" id="-32792">
		<tag k="name" v="Munkvoll" />
		<tag k="place" v="farm" />
		<tag k="ssr:stedsnr" v="513805" />
	</node>
	<node lat="62.503747220036665" lon="9.587400005092555" id="-32795">
		<tag k="name" v="Svaan" />
		<tag k="place" v="farm" />
		<tag k="ssr:stedsnr" v="513706" />
	</node>
	<node lat="62.51321388850114" lon="9.591058333251729" id="-32796">
		<tag k="name" v="Garden" />
		<tag k="place" v="farm" />
		<tag k="ssr:stedsnr" v="513707" />
	</node>
	<node lat="62.584147218935556" lon="9.342149997349459" id="-32798">
		<tag k="name" v="Øver Brustoggo" />
		<tag k="place" v="farm" />
		<tag k="ssr:stedsnr" v="513905" />
	</node>
	<node lat="62.53957222046775" lon="9.334411118815323" id="-32807">
		<tag k="historic" v="shieling" />
		<tag k="name" v="Skoglundsætra" />
		<tag k="place" v="isolated_dwelling" />
		<tag k="ssr:stedsnr" v="529239" />
	</node>
	<node lat="62.64190000381864" lon="9.494797222373016" id="-32815">
		<tag k="name" v="Ljøslia" />
		<tag k="place" v="farm" />
		<tag k="ssr:stedsnr" v="529427" />
	</node>
	<node lat="62.645080552904034" lon="9.47557778608893" id="-32816">
		<tag k="historic" v="shieling" />
		<tag k="name" v="Søbørvangen" />
		<tag k="place" v="isolated_dwelling" />
		<tag k="ssr:stedsnr" v="529429" />
	</node>
	<node lat="62.588594444557906" lon="9.207597212622165" id="-32823">
		<tag k="historic" v="shieling" />
		<tag k="name" v="Kletthåmmårsætra" />
		<tag k="place" v="isolated_dwelling" />
		<tag k="ssr:stedsnr" v="529325" />
	</node>
	<node lat="62.600744446430966" lon="9.676769451676012" id="-32826">
		<tag k="name" v="Aune" />
		<tag k="place" v="farm" />
		<tag k="ssr:stedsnr" v="545977" />
	</node>
	<node lat="62.46209166280216" lon="9.665502780625127" id="-32829">
		<tag k="historic" v="shieling" />
		<tag k="name" v="Nordistusætra" />
		<tag k="place" v="isolated_dwelling" />
		<tag k="ssr:stedsnr" v="556625" />
	</node>
	<node lat="62.49793611404044" lon="9.576488884827423" id="-32832">
		<tag k="name" v="Høgvamran" />
		<tag k="place" v="farm" />
		<tag k="ssr:stedsnr" v="557406" />
	</node>
	<node lat="62.511624997675874" lon="9.605880556312378" id="-32833">
		<tag k="name" v="Rislibakken" />
		<tag k="place" v="farm" />
		<tag k="ssr:stedsnr" v="557325" />
	</node>
	<node lat="62.5442972266729" lon="9.632233331522919" id="-32836">
		<tag k="name" v="Losvollen" />
		<tag k="place" v="farm" />
		<tag k="ssr:stedsnr" v="557566" />
	</node>
	<node lat="62.458447220349264" lon="9.992844435333662" id="-32838">
		<tag k="historic" v="shieling" />
		<tag k="name" v="Trøasætra" />
		<tag k="place" v="isolated_dwelling" />
		<tag k="ssr:stedsnr" v="557703" />
	</node>
	<node lat="62.390122223552495" lon="9.905358342799657" id="-32840">
		<tag k="historic" v="shieling" />
		<tag k="name" v="Ivavollen" />
		<tag k="place" v="isolated_dwelling" />
		<tag k="ssr:stedsnr" v="557714" />
	</node>
	<node lat="62.640247218487005" lon="9.29768888693358" id="-32848">
		<tag k="historic" v="shieling" />
		<tag k="name" v="Løkkjsætra" />
		<tag k="place" v="isolated_dwelling" />
		<tag k="ssr:stedsnr" v="557661" />
	</node>
	<node lat="62.6167361079826" lon="9.60573055880956" id="-32850">
		<tag k="name" v="Solvollen" />
		<tag k="place" v="farm" />
		<tag k="ssr:stedsnr" v="557697" />
	</node>
	<node lat="62.68190000416809" lon="9.139738882450036" id="-32852">
		<tag k="name" v="Kåsa" />
		<tag k="place" v="farm" />
		<tag k="ssr:stedsnr" v="557901" />
	</node>
	<node lat="62.6155301841271" lon="9.73393704347464" id="-32855">
		<tag k="name" v="Stølen" />
		<tag k="place" v="hamlet" />
		<tag k="ssr:stedsnr" v="695727" />
	</node>
	<node lat="62.68026944450842" lon="9.15066389757388" id="-32857">
		<tag k="fixme" v="consider tourism=alpine_hut or tourism=chalet" />
		<tag k="name" v="Bårdsgarden" />
		<tag k="ssr:stedsnr" v="570212" />
		<tag k="tourism" v="wilderness_hut" />
	</node>
	<node lat="62.572661111824274" lon="9.619388893785379" id="-32861">
		<tag k="name" v="Skogrann" />
		<tag k="place" v="farm" />
		<tag k="ssr:stedsnr" v="574650" />
	</node>
	<node lat="62.56496389325775" lon="9.640966660810394" id="-32862">
		<tag k="name" v="Styrsvollen" />
		<tag k="place" v="farm" />
		<tag k="ssr:stedsnr" v="574659" />
	</node>
	<node lat="62.57783611110626" lon="9.654455548157943" id="-32863">
		<tag k="name" v="Gammelbua" />
		<tag k="place" v="farm" />
		<tag k="ssr:stedsnr" v="574663" />
	</node>
	<node lat="62.622508335509984" lon="9.549611104503613" id="-32866">
		<tag k="fixme" v="consider place=hamlet" />
		<tag k="name" v="Hindset" />
		<tag k="place" v="farm" />
		<tag k="ssr:stedsnr" v="574856" />
	</node>
	<node lat="62.532647220409295" lon="9.596649992025792" id="-32867">
		<tag k="name" v="Nesto" />
		<tag k="place" v="farm" />
		<tag k="ssr:stedsnr" v="574709" />
	</node>
	<node lat="62.60753996087795" lon="9.622605010036745" id="-32870">
		<tag k="name" v="Golvåkran" />
		<tag k="place" v="hamlet" />
		<tag k="ssr:stedsnr" v="574799" />
	</node>
	<node lat="62.60313055679317" lon="9.68836667328263" id="-32873">
		<tag k="name" v="Bjørkgrenda" />
		<tag k="place" v="hamlet" />
		<tag k="ssr:stedsnr" v="695577" />
	</node>
	<node lat="62.587212081487344" lon="9.62688328922588" id="-32874">
		<tag k="name" v="Vika" />
		<tag k="place" v="hamlet" />
		<tag k="ssr:stedsnr" v="695557" />
	</node>
	<node lat="62.60323610816641" lon="9.673661114249349" id="-32875">
		<tag k="name" v="Utpåauna" />
		<tag k="place" v="farm" />
		<tag k="ssr:stedsnr" v="695599" />
	</node>
	<node lat="62.610511113407995" lon="9.458708338645843" id="-32877">
		<tag k="name" v="Munkvollhaug" />
		<tag k="place" v="farm" />
		<tag k="ssr:stedsnr" v="695799" />
	</node>
	<node lat="62.60455277814392" lon="9.729650007641531" id="-32878">
		<tag k="name" v="Tågvollen" />
		<tag k="place" v="farm" />
		<tag k="ssr:stedsnr" v="695733" />
	</node>
	<node lat="62.61588610918501" lon="9.542183333580425" id="-32880">
		<tag k="name" v="Oppesto" />
		<tag k="place" v="farm" />
		<tag k="ssr:stedsnr" v="695828" />
	</node>
	<node lat="62.62011944673492" lon="9.548875003307577" id="-32881">
		<tag k="name" v="Bruløkkja" />
		<tag k="place" v="farm" />
		<tag k="ssr:stedsnr" v="695829" />
	</node>
	<node lat="62.55779456225697" lon="9.614413633009734" id="-32883">
		<tag k="name" v="Ørstad" />
		<tag k="place" v="hamlet" />
		<tag k="ssr:stedsnr" v="695857" />
	</node>
	<node lat="62.56166111514752" lon="9.639683328905257" id="-32884">
		<tag k="name" v="Myrenget" />
		<tag k="place" v="farm" />
		<tag k="ssr:stedsnr" v="695858" />
	</node>
	<node lat="62.59134721900209" lon="9.66958610794436" id="-32885">
		<tag k="amenity" v="kindergarten" />
		<tag k="name" v="Pikhaugen barnehage" />
		<tag k="ssr:stedsnr" v="585138" />
	</node>
	<node lat="62.692138891150876" lon="9.111613890494102" id="-32887">
		<tag k="name" v="Bortesto hytteområde" />
		<tag k="place" v="neighbourhood" />
		<tag k="ssr:stedsnr" v="585789" />
	</node>
	<node lat="62.59238889214502" lon="9.68454444900414" id="-32890">
		<tag k="building" v="commercial" />
		<tag k="name" v="Sagtunet butikksenter" />
		<tag k="ssr:stedsnr" v="588156" />
	</node>
	<node lat="62.595257961881586" lon="9.691984241492479" id="-32892">
		<tag k="building" v="commercial" />
		<tag k="name" v="Torgsenteret" />
		<tag k="ssr:stedsnr" v="588163" />
	</node>
	<node lat="62.61218333689981" lon="9.470725001441915" id="-32894">
		<tag k="name" v="Breesgarden camping" />
		<tag k="ssr:stedsnr" v="588812" />
		<tag k="tourism" v="camp_site" />
	</node>
	<node lat="62.573130552441114" lon="9.584488884957366" id="-32896">
		<tag k="name" v="Nysturønningen" />
		<tag k="place" v="locality" />
		<tag k="ssr:stedsnr" v="589013" />
	</node>
	<node lat="62.57043610852357" lon="9.560580564141148" id="-32898">
		<tag k="historic" v="shieling" />
		<tag k="name" v="Ørstadsætra" />
		<tag k="place" v="isolated_dwelling" />
		<tag k="ssr:stedsnr" v="589019" />
	</node>
	<node lat="62.59871666492321" lon="9.567852778848845" id="-32900">
		<tag k="name" v="Bjørga" />
		<tag k="place" v="farm" />
		<tag k="ssr:stedsnr" v="589070" />
	</node>
	<node lat="62.62816944057842" lon="9.54702777243097" id="-32907">
		<tag k="name" v="Hindsetvollen" />
		<tag k="place" v="farm" />
		<tag k="ssr:stedsnr" v="589318" />
	</node>
	<node lat="62.58135277655695" lon="9.259983336529025" id="-32909">
		<tag k="name" v="Sliperkalvhåggån" />
		<tag k="place" v="farm" />
		<tag k="ssr:stedsnr" v="589356" />
	</node>
	<node lat="62.6144111090086" lon="9.52539999087136" id="-32914">
		<tag k="name" v="Klettvollen" />
		<tag k="place" v="farm" />
		<tag k="ssr:stedsnr" v="594367" />
	</node>
	<node lat="62.58944166404652" lon="9.677369446953747" id="-32915">
		<tag k="fixme" v="consider natural=beach + surface=sand" />
		<tag k="leisure" v="swimming_area" />
		<tag k="name" v="Kolsjøen badeplass" />
		<tag k="place" v="locality" />
		<tag k="ssr:stedsnr" v="601769" />
	</node>
	<node lat="62.67520277611182" lon="9.916969436047218" id="-32916">
		<tag k="name" v="Kåsløkkja" />
		<tag k="place" v="farm" />
		<tag k="ssr:stedsnr" v="617293" />
	</node>
	<node lat="62.46006666829722" lon="9.576030557153238" id="-32917">
		<tag k="alt_name" v="Essvollen" />
		<tag k="name" v="Eidsvoll" />
		<tag k="place" v="isolated_dwelling" />
		<tag k="ssr:stedsnr" v="617603" />
	</node>
	<node lat="62.45024166826796" lon="9.403480550632288" id="-32919">
		<tag k="historic" v="shieling" />
		<tag k="name" v="Hellaugsætra" />
		<tag k="place" v="isolated_dwelling" />
		<tag k="ssr:stedsnr" v="617613" />
	</node>
	<node lat="62.46942499573472" lon="9.495502774983173" id="-32923">
		<tag k="name" v="Skrudu" />
		<tag k="place" v="isolated_dwelling" />
		<tag k="ssr:stedsnr" v="617597" />
	</node>
	<node lat="62.421088562197404" lon="9.70341046812362" id="-32925">
		<tag k="historic" v="shieling" />
		<tag k="name" v="Ryphusan" />
		<tag k="place" v="isolated_dwelling" />
		<tag k="ssr:stedsnr" v="617630" />
	</node>
	<node lat="62.662305551922366" lon="9.890802777791379" id="-32926">
		<tag k="alt_name" v="Asphaug" />
		<tag k="name" v="Asphaugen" />
		<tag k="place" v="farm" />
		<tag k="ssr:stedsnr" v="618232" />
	</node>
	<node lat="62.53249166993304" lon="9.65432777683271" id="-32928">
		<tag k="historic" v="shieling" />
		<tag k="name" v="Flottsætra" />
		<tag k="place" v="isolated_dwelling" />
		<tag k="ssr:stedsnr" v="618608" />
	</node>
	<node lat="62.70170277732488" lon="9.414961111005436" id="-32929">
		<tag k="historic" v="shieling" />
		<tag k="name" v="Skarsessætra" />
		<tag k="place" v="isolated_dwelling" />
		<tag k="ssr:stedsnr" v="618615" />
	</node>
	<node lat="62.69452778162669" lon="9.439597213219754" id="-32930">
		<tag k="historic" v="shieling" />
		<tag k="name" v="Håkkårsvollsætra" />
		<tag k="place" v="isolated_dwelling" />
		<tag k="ssr:stedsnr" v="618624" />
	</node>
	<node lat="62.53333330263768" lon="9.632266778112248" id="-32936">
		<tag k="fixme" v="consider place=hamlet" />
		<tag k="name" v="Driva" />
		<tag k="place" v="village" />
		<tag k="ssr:stedsnr" v="618588" />
	</node>
	<node lat="62.52636936881045" lon="9.61336028085894" id="-32937">
		<tag k="name" v="Risan" />
		<tag k="place" v="hamlet" />
		<tag k="ssr:stedsnr" v="618598" />
	</node>
	<node lat="62.61076666308667" lon="9.316041672047806" id="-32938">
		<tag k="fixme" v="consider place=hamlet" />
		<tag k="name" v="Stølan" />
		<tag k="place" v="farm" />
		<tag k="ssr:stedsnr" v="618702" />
	</node>
	<node lat="62.47140833633409" lon="9.997966659224495" id="-32939">
		<tag k="historic" v="shieling" />
		<tag k="name" v="Bjørndalsætra" />
		<tag k="place" v="isolated_dwelling" />
		<tag k="ssr:stedsnr" v="618706" />
	</node>
	<node lat="62.610713890881705" lon="9.299888884334177" id="-32940">
		<tag k="alt_name" v="Tørsete;Tørrset" />
		<tag k="name" v="Tørset" />
		<tag k="place" v="farm" />
		<tag k="ssr:stedsnr" v="618709" />
	</node>
	<node lat="62.41852222046022" lon="9.791491658607944" id="-32941">
		<tag k="historic" v="shieling" />
		<tag k="name" v="Veslvonlægret" />
		<tag k="place" v="isolated_dwelling" />
		<tag k="ssr:stedsnr" v="618722" />
	</node>
	<node lat="62.72893889035219" lon="9.550436113851765" id="-32942">
		<tag k="name" v="Skarvollen" />
		<tag k="place" v="farm" />
		<tag k="ssr:stedsnr" v="618828" />
	</node>
	<node lat="62.69446389085216" lon="9.044049998571014" id="-32944">
		<tag k="historic" v="shieling" />
		<tag k="name" v="Romfosætra" />
		<tag k="place" v="isolated_dwelling" />
		<tag k="ssr:stedsnr" v="618911" />
	</node>
	<node lat="62.69385640691738" lon="9.100017989945348" id="-32945">
		<tag k="fixme" v="consider place=hamlet" />
		<tag k="name" v="Storlia" />
		<tag k="place" v="farm" />
		<tag k="ssr:stedsnr" v="618912" />
	</node>
	<node lat="62.61700833123827" lon="9.472541669519291" id="-32953">
		<tag k="name" v="Bruenget" />
		<tag k="place" v="farm" />
		<tag k="ssr:stedsnr" v="634812" />
	</node>
	<node lat="62.51149166820632" lon="9.600452769337808" id="-32957">
		<tag k="name" v="Rislihaugen" />
		<tag k="place" v="farm" />
		<tag k="ssr:stedsnr" v="634881" />
	</node>
	<node lat="62.51326944186353" lon="9.60392222060152" id="-32959">
		<tag k="name" v="Liahaugen" />
		<tag k="place" v="farm" />
		<tag k="ssr:stedsnr" v="634889" />
	</node>
	<node lat="62.59759722383607" lon="9.691383330457953" id="-32962">
		<tag k="amenity" v="kindergarten" />
		<tag k="name" v="Bjerkehagen friluftsbarnehage" />
		<tag k="ssr:stedsnr" v="707258" />
	</node>
	<node lat="62.60543055290366" lon="9.704072214453406" id="-32963">
		<tag k="aerialway" v="drag_lift" />
		<tag k="fixme" v="consider the other aerialway types" />
		<tag k="name" v="Slettvollheisen" />
		<tag k="ssr:stedsnr" v="707262" />
	</node>
	<node lat="62.59488888839647" lon="9.686997217008358" id="-32965">
		<tag k="amenity" v="townhall" />
		<tag k="name" v="Statens hus" />
		<tag k="ssr:stedsnr" v="646238" />
	</node>
	<node lat="62.57964722584993" lon="9.451019436413043" id="-32972">
		<tag k="historic" v="shieling" />
		<tag k="name" v="Bøakalvhåggåsætra" />
		<tag k="place" v="isolated_dwelling" />
		<tag k="ssr:stedsnr" v="650307" />
	</node>
	<node lat="62.58749167115873" lon="9.403713893142518" id="-32976">
		<tag k="name" v="Bøakalvhåggån" />
		<tag k="place" v="farm" />
		<tag k="ssr:stedsnr" v="650407" />
	</node>
	<node lat="62.68498055519397" lon="9.482563880058029" id="-32981">
		<tag k="historic" v="shieling" />
		<tag k="name" v="Haugsætra" />
		<tag k="place" v="isolated_dwelling" />
		<tag k="ssr:stedsnr" v="650392" />
	</node>
	<node lat="62.63538333243992" lon="9.306338884151492" id="-32983">
		<tag k="name" v="Åmellom hytteområde" />
		<tag k="place" v="neighbourhood" />
		<tag k="ssr:stedsnr" v="707828" />
	</node>
	<node lat="62.68252777670121" lon="9.555922223695278" id="-32984">
		<tag k="name" v="Skaret hytteområde" />
		<tag k="place" v="neighbourhood" />
		<tag k="ssr:stedsnr" v="707839" />
	</node>
	<node lat="62.529136112346286" lon="9.599461118941054" id="-32986">
		<tag k="leisure" v="pitch" />
		<tag k="name" v="Drivdalen skianlegg" />
		<tag k="ssr:stedsnr" v="709167" />
	</node>
	<node lat="62.61144924275251" lon="9.650484982194435" id="-32987">
		<tag k="alt_name" v="Vangslia skisenter" />
		<tag k="landuse" v="winter_sports" />
		<tag k="name" v="Oppdal skisenter - Vangslia" />
		<tag k="piste:type" v="downhill" />
		<tag k="ssr:stedsnr" v="709171" />
	</node>
	<node lat="62.59483610778884" lon="9.681308336983554" id="-32988">
		<tag k="leisure" v="pitch" />
		<tag k="name" v="Sentralidrettsanlegget" />
		<tag k="ssr:stedsnr" v="709200" />
	</node>
	<node lat="62.612836114886" lon="9.53141111003821" id="-32989">
		<tag k="name" v="Dørrem" />
		<tag k="place" v="farm" />
		<tag k="ssr:stedsnr" v="667533" />
	</node>
	<node lat="62.61089166643933" lon="9.647716663980713" id="-32990">
		<tag k="name" v="Prestløkkja hytteområde" />
		<tag k="place" v="neighbourhood" />
		<tag k="ssr:stedsnr" v="890870" />
	</node>
	<node lat="62.605555556447676" lon="9.65441944300624" id="-32991">
		<tag k="name" v="Stenan" />
		<tag k="place" v="quarter" />
		<tag k="ssr:stedsnr" v="890871" />
	</node>
	<node lat="62.50543198656732" lon="9.578884823329185" id="-32995">
		<tag k="fixme" v="consider place=hamlet" />
		<tag k="name" v="Skreda" />
		<tag k="place" v="farm" />
		<tag k="ssr:stedsnr" v="678383" />
	</node>
	<node lat="62.60908332939534" lon="9.840891666670002" id="-33001">
		<tag k="historic" v="shieling" />
		<tag k="name" v="Skårråvangen" />
		<tag k="place" v="isolated_dwelling" />
		<tag k="ssr:stedsnr" v="679410" />
	</node>
	<node lat="62.689966668636494" lon="9.451563898185622" id="-33002">
		<tag k="historic" v="shieling" />
		<tag k="name" v="Dørressætra" />
		<tag k="place" v="isolated_dwelling" />
		<tag k="ssr:stedsnr" v="679612" />
	</node>
	<node lat="62.67533055244746" lon="9.412463887684615" id="-33006">
		<tag k="historic" v="shieling" />
		<tag k="name" v="Tørvessætra" />
		<tag k="place" v="isolated_dwelling" />
		<tag k="ssr:stedsnr" v="679641" />
	</node>
	<node lat="62.65217777794002" lon="9.481483336724414" id="-33007">
		<tag k="name" v="Svinsnøssa" />
		<tag k="place" v="isolated_dwelling" />
		<tag k="ssr:stedsnr" v="679646" />
	</node>
	<node lat="62.53194999936187" lon="9.310711112867828" id="-33013">
		<tag k="historic" v="shieling" />
		<tag k="name" v="Jamtsætersætra" />
		<tag k="place" v="isolated_dwelling" />
		<tag k="ssr:stedsnr" v="679569" />
	</node>
	<node lat="62.69984166962447" lon="9.41758889199068" id="-33015">
		<tag k="historic" v="shieling" />
		<tag k="name" v="Kvalsjordsætra" />
		<tag k="place" v="isolated_dwelling" />
		<tag k="ssr:stedsnr" v="679587" />
	</node>
	<node lat="62.62173611491578" lon="9.569727775137368" id="-33017">
		<tag k="name" v="Bårdsløkkja" />
		<tag k="place" v="farm" />
		<tag k="ssr:stedsnr" v="679711" />
	</node>
	<node lat="62.62086389139728" lon="9.588738891566935" id="-33018">
		<tag k="alt_name" v="Skogli" />
		<tag k="name" v="Skogly" />
		<tag k="place" v="farm" />
		<tag k="ssr:stedsnr" v="679713" />
	</node>
	<node lat="62.61463333618754" lon="9.523669435034439" id="-33019">
		<tag k="name" v="Klett" />
		<tag k="place" v="hamlet" />
		<tag k="ssr:stedsnr" v="679716" />
	</node>
	<node lat="62.613799519480196" lon="9.592036811900057" id="-33021">
		<tag k="name" v="Størvålan" />
		<tag k="place" v="hamlet" />
		<tag k="ssr:stedsnr" v="679724" />
	</node>
	<node lat="62.66754444166654" lon="9.158233332032557" id="-33022">
		<tag k="historic" v="shieling" />
		<tag k="name" v="Bårdsgardssætra" />
		<tag k="place" v="isolated_dwelling" />
		<tag k="ssr:stedsnr" v="679962" />
	</node>
	<node lat="62.70528888553746" lon="9.560844440871511" id="-33026">
		<tag k="historic" v="shieling" />
		<tag k="name" v="Grøtenget" />
		<tag k="place" v="isolated_dwelling" />
		<tag k="ssr:stedsnr" v="893035" />
	</node>
	<node lat="62.461844443499835" lon="9.546641657268514" id="-33028">
		<tag k="historic" v="shieling" />
		<tag k="name" v="Sæterfjellet" />
		<tag k="place" v="isolated_dwelling" />
		<tag k="ssr:stedsnr" v="893287" />
	</node>
	<node lat="62.58149444857411" lon="9.26965833519622" id="-33031">
		<tag k="name" v="Ner Sliper" />
		<tag k="place" v="farm" />
		<tag k="ssr:stedsnr" v="893345" />
	</node>
	<node lat="62.690152773870196" lon="9.929800002977665" id="-33041">
		<tag k="name" v="Purkløkkja" />
		<tag k="place" v="farm" />
		<tag k="ssr:stedsnr" v="893388" />
	</node>
	<node lat="62.561324997178566" lon="9.620047220430088" id="-33050">
		<tag k="fixme" v="consider place=hamlet" />
		<tag k="loc_name" v="Båggåstranda" />
		<tag k="name" v="Båggåstronda" />
		<tag k="old_name" v="Baggåstranda" />
		<tag k="place" v="village" />
		<tag k="ssr:stedsnr" v="692086" />
	</node>
	<node lat="62.60969881502067" lon="9.499057175464126" id="-33051">
		<tag k="name" v="Ålbu" />
		<tag k="place" v="hamlet" />
		<tag k="ssr:stedsnr" v="895433" />
	</node>
	<node lat="62.64815833725138" lon="9.857855560511734" id="-33053">
		<tag k="name" v="Solhaug" />
		<tag k="place" v="isolated_dwelling" />
		<tag k="ssr:stedsnr" v="695665" />
	</node>
	<node lat="62.61087222602469" lon="9.724330557190301" id="-33057">
		<tag k="name" v="Gammelstoggo" />
		<tag k="place" v="farm" />
		<tag k="ssr:stedsnr" v="695710" />
	</node>
	<node lat="62.61728610731889" lon="9.746486108552482" id="-33058">
		<tag k="fixme" v="consider place=hamlet" />
		<tag k="name" v="Hallset" />
		<tag k="place" v="farm" />
		<tag k="ssr:stedsnr" v="695714" />
	</node>
	<node lat="62.60558888857462" lon="9.765222213222618" id="-33059">
		<tag k="name" v="Kjellengsletta" />
		<tag k="place" v="farm" />
		<tag k="ssr:stedsnr" v="695719" />
	</node>
	<node lat="62.6118249999715" lon="9.485966669999295" id="-33062">
		<tag k="name" v="Håggåenget" />
		<tag k="place" v="farm" />
		<tag k="ssr:stedsnr" v="695779" />
	</node>
	<node lat="62.51779444176978" lon="9.615019453992254" id="-33064">
		<tag k="name" v="Kalvhåggån" />
		<tag k="place" v="farm" />
		<tag k="ssr:stedsnr" v="695865" />
	</node>
	<node lat="62.6664388917079" lon="9.863641675176343" id="-33069">
		<tag k="name" v="Nyhaugen hytteområde" />
		<tag k="place" v="neighbourhood" />
		<tag k="ssr:stedsnr" v="707226" />
	</node>
	<node lat="62.4838055600545" lon="9.576572214587552" id="-33070">
		<tag k="name" v="Engan" />
		<tag k="place" v="quarter" />
		<tag k="ssr:stedsnr" v="707870" />
	</node>
	<node lat="62.50716944889745" lon="9.232483327341672" id="-33079">
		<tag k="name" v="Flatan" />
		<tag k="place" v="isolated_dwelling" />
		<tag k="ssr:stedsnr" v="711286" />
	</node>
	<node lat="62.57267222648171" lon="9.528008326546356" id="-33086">
		<tag k="historic" v="shieling" />
		<tag k="name" v="Kalvhåggåsætra" />
		<tag k="place" v="isolated_dwelling" />
		<tag k="ssr:stedsnr" v="711305" />
	</node>
	<node lat="62.585325002626426" lon="9.31016388207991" id="-33090">
		<tag k="name" v="Olsheim" />
		<tag k="place" v="farm" />
		<tag k="ssr:stedsnr" v="711379" />
	</node>
	<node lat="62.69761944835739" lon="9.927688893992793" id="-33096">
		<tag k="name" v="Semingshaug" />
		<tag k="place" v="farm" />
		<tag k="ssr:stedsnr" v="711487" />
	</node>
	<node lat="62.61527726633139" lon="9.572816202725374" id="-33101">
		<tag k="name" v="Vognill" />
		<tag k="place" v="hamlet" />
		<tag k="ssr:stedsnr" v="713485" />
	</node>
	<node lat="62.62581666869586" lon="9.496516671629589" id="-33102">
		<tag k="name" v="Kleberberget hytteområde" />
		<tag k="place" v="neighbourhood" />
		<tag k="ssr:stedsnr" v="725809" />
	</node>
	<node lat="62.38396203102797" lon="9.640792376508921" id="-33108">
		<tag k="fixme" v="consider place=hamlet" />
		<tag k="name" v="Nestasvollan" />
		<tag k="place" v="farm" />
		<tag k="ssr:stedsnr" v="738566" />
	</node>
	<node lat="62.662134187566025" lon="9.872353449230832" id="-33110">
		<tag k="fixme" v="consider place=hamlet" />
		<tag k="name" v="Fagerhaugen" />
		<tag k="place" v="farm" />
		<tag k="ssr:stedsnr" v="739259" />
	</node>
	<node lat="62.654714468942394" lon="9.803149726135914" id="-33111">
		<tag k="fixme" v="consider place=hamlet" />
		<tag k="name" v="Saga" />
		<tag k="place" v="farm" />
		<tag k="ssr:stedsnr" v="739263" />
	</node>
	<node lat="62.54612222275276" lon="9.91704165998526" id="-33112">
		<tag k="fixme" v="multiple name tags, choose one and add the other to alt_name" />
		<tag k="historic" v="shieling" />
		<tag k="name" v="Pikhaugsætrin;Aunsætra" />
		<tag k="place" v="isolated_dwelling" />
		<tag k="ssr:stedsnr" v="739403" />
	</node>
	<node lat="62.521652779767706" lon="9.607491667703659" id="-33113">
		<tag k="name" v="Nersto" />
		<tag k="place" v="farm" />
		<tag k="ssr:stedsnr" v="739621" />
	</node>
	<node lat="62.694841669378214" lon="9.431161103057365" id="-33114">
		<tag k="historic" v="shieling" />
		<tag k="name" v="Prestsætra" />
		<tag k="place" v="isolated_dwelling" />
		<tag k="ssr:stedsnr" v="739646" />
	</node>
	<node lat="62.54590555489863" lon="9.607302781819799" id="-33118">
		<tag k="name" v="Sæsskalvhåggån" />
		<tag k="place" v="farm" />
		<tag k="ssr:stedsnr" v="739592" />
	</node>
	<node lat="62.54002445821971" lon="9.34113585633853" id="-33119">
		<tag k="alt_name" v="Dindalshytta TT" />
		<tag k="fixme" v="consider tourism=alpine_hut or tourism=chalet" />
		<tag k="name" v="Dindalshytta" />
		<tag k="ssr:stedsnr" v="739596" />
		<tag k="tourism" v="wilderness_hut" />
	</node>
	<node lat="62.6108084985669" lon="9.44077718701001" id="-33122">
		<tag k="fixme" v="consider place=hamlet" />
		<tag k="name" v="Egga" />
		<tag k="place" v="farm" />
		<tag k="ssr:stedsnr" v="739720" />
	</node>
	<node lat="62.70040702278422" lon="9.918787165355848" id="-33124">
		<tag k="alt_name" v="Pell-lia;Gisnlia" />
		<tag k="fixme" v="consider place=hamlet" />
		<tag k="name" v="Pellia" />
		<tag k="place" v="farm" />
		<tag k="ssr:stedsnr" v="740292" />
	</node>
	<node lat="62.699848444851135" lon="9.902130014521452" id="-33125">
		<tag k="fixme" v="consider place=hamlet" />
		<tag k="name" v="Pøta" />
		<tag k="place" v="farm" />
		<tag k="ssr:stedsnr" v="740293" />
	</node>
	<node lat="62.603579012148536" lon="9.767761463327826" id="-33126">
		<tag k="fixme" v="consider place=hamlet" />
		<tag k="name" v="Vikåsa" />
		<tag k="place" v="farm" />
		<tag k="ssr:stedsnr" v="740415" />
	</node>
	<node lat="62.660730555281546" lon="9.547802781150276" id="-33128">
		<tag k="historic" v="shieling" />
		<tag k="name" v="Vognillssætra" />
		<tag k="place" v="isolated_dwelling" />
		<tag k="ssr:stedsnr" v="740343" />
	</node>
	<node lat="62.63379444754774" lon="9.54999722920199" id="-33129">
		<tag k="name" v="Storløkkja" />
		<tag k="place" v="farm" />
		<tag k="ssr:stedsnr" v="740687" />
	</node>
	<node lat="62.53907423352862" lon="9.640083294052303" id="-33134">
		<tag k="fixme" v="consider place=hamlet" />
		<tag k="name" v="Håggån" />
		<tag k="place" v="farm" />
		<tag k="ssr:stedsnr" v="740591" />
	</node>
	<node lat="62.53479804264724" lon="9.59653884803139" id="-33135">
		<tag k="name" v="Fossem" />
		<tag k="place" v="hamlet" />
		<tag k="ssr:stedsnr" v="740592" />
	</node>
	<node lat="62.5983638913964" lon="9.656305557451839" id="-33141">
		<tag k="name" v="Stenersplassen" />
		<tag k="place" v="farm" />
		<tag k="ssr:stedsnr" v="756549" />
	</node>
	<node lat="62.60513333601242" lon="9.730947227881591" id="-33143">
		<tag k="name" v="Tågvollan" />
		<tag k="place" v="hamlet" />
		<tag k="ssr:stedsnr" v="756407" />
	</node>
	<node lat="62.617027778816606" lon="9.73225000522156" id="-33146">
		<tag k="name" v="Støltrøa" />
		<tag k="place" v="farm" />
		<tag k="ssr:stedsnr" v="756748" />
	</node>
	<node lat="62.59708889236113" lon="9.336430563631893" id="-33149">
		<tag k="name" v="Øyamo" />
		<tag k="place" v="isolated_dwelling" />
		<tag k="ssr:stedsnr" v="756904" />
	</node>
	<node lat="62.528613890402454" lon="9.592019440529128" id="-33150">
		<tag k="name" v="Nesto" />
		<tag k="place" v="farm" />
		<tag k="ssr:stedsnr" v="756702" />
	</node>
	<node lat="62.61678055151889" lon="9.575908323909344" id="-33152">
		<tag k="name" v="Vangen" />
		<tag k="place" v="farm" />
		<tag k="ssr:stedsnr" v="756848" />
	</node>
	<node lat="62.617569447038335" lon="9.572419438862196" id="-33153">
		<tag k="name" v="Trøhaugen" />
		<tag k="place" v="farm" />
		<tag k="ssr:stedsnr" v="756850" />
	</node>
	<node lat="62.61363888665204" lon="9.577666669070076" id="-33154">
		<tag k="name" v="Ust-Vognillsgrenda" />
		<tag k="place" v="hamlet" />
		<tag k="ssr:stedsnr" v="756859" />
	</node>
	<node lat="62.61295833441579" lon="9.59356667429654" id="-33155">
		<tag k="fixme" v="consider place=hamlet" />
		<tag k="name" v="Vorhaugen" />
		<tag k="place" v="farm" />
		<tag k="ssr:stedsnr" v="756861" />
	</node>
	<node lat="62.59447931736997" lon="9.683782279541788" id="-33157">
		<tag k="amenity" v="nursing_home" />
		<tag k="name" v="Oppdal legesenter" />
		<tag k="ssr:stedsnr" v="767117" />
	</node>
	<node lat="62.49700833460404" lon="9.585483325091571" id="-33159">
		<tag k="name" v="Mågålaupet camping" />
		<tag k="ssr:stedsnr" v="767120" />
		<tag k="tourism" v="camp_site" />
	</node>
	<node lat="62.605183336445" lon="9.70363889816358" id="-33160">
		<tag k="amenity" v="cafe" />
		<tag k="name" v="Låven afterski" />
		<tag k="ssr:stedsnr" v="767208" />
	</node>
	<node lat="62.607683333648545" lon="9.73389444929979" id="-33161">
		<tag k="name" v="Ekra hytteområde" />
		<tag k="place" v="neighbourhood" />
		<tag k="ssr:stedsnr" v="768203" />
	</node>
	<node lat="62.70613055897126" lon="9.56596388332469" id="-33162">
		<tag k="name" v="Remma hytteområde" />
		<tag k="place" v="neighbourhood" />
		<tag k="ssr:stedsnr" v="768207" />
	</node>
	<node lat="62.681661112602015" lon="9.885647218518919" id="-33163">
		<tag k="name" v="Letom hytteområde" />
		<tag k="place" v="neighbourhood" />
		<tag k="ssr:stedsnr" v="768209" />
	</node>
	<node lat="62.675475002726465" lon="9.544094451287274" id="-33165">
		<tag k="name" v="Kvamman hytteområde" />
		<tag k="place" v="neighbourhood" />
		<tag k="ssr:stedsnr" v="768862" />
	</node>
	<node lat="62.594447150189545" lon="9.683935945526217" id="-33166">
		<tag k="amenity" v="nursing_home" />
		<tag k="name" v="Auna legesenter" />
		<tag k="ssr:stedsnr" v="770159" />
	</node>
	<node lat="62.76099444020666" lon="9.606355560146508" id="-33167">
		<tag k="historic" v="shieling" />
		<tag k="name" v="Skaugsætra" />
		<tag k="place" v="isolated_dwelling" />
		<tag k="ssr:stedsnr" v="770453" />
	</node>
	<node lat="62.67950555525371" lon="9.923547228511243" id="-33171">
		<tag k="name" v="Letom" />
		<tag k="place" v="farm" />
		<tag k="ssr:stedsnr" v="771419" />
	</node>
	<node lat="62.597866664794346" lon="9.43466389494172" id="-33179">
		<tag k="name" v="Usti-Skruen" />
		<tag k="place" v="farm" />
		<tag k="ssr:stedsnr" v="771458" />
	</node>
	<node lat="62.48992499945982" lon="9.6504888882044" id="-33182">
		<tag k="historic" v="shieling" />
		<tag k="name" v="Snøvessætra" />
		<tag k="place" v="isolated_dwelling" />
		<tag k="ssr:stedsnr" v="772004" />
	</node>
	<node lat="62.63935277993576" lon="9.560808329458423" id="-33186">
		<tag k="historic" v="shieling" />
		<tag k="name" v="Haugasætra" />
		<tag k="place" v="isolated_dwelling" />
		<tag k="ssr:stedsnr" v="772068" />
	</node>
	<node lat="62.71364901467388" lon="9.194892218933001" id="-33192">
		<tag k="historic" v="shieling" />
		<tag k="name" v="Nedre Vassendsætra" />
		<tag k="place" v="isolated_dwelling" />
		<tag k="ssr:stedsnr" v="909592" />
	</node>
	<node lat="62.35926111090022" lon="9.19753056099446" id="-33193">
		<tag k="alt_name" v="Åmotdalshytta KNT" />
		<tag k="fixme" v="consider tourism=alpine_hut or tourism=chalet" />
		<tag k="name" v="Åmotdalshytta" />
		<tag k="old_name" v="Åmotsdalshytta" />
		<tag k="ssr:stedsnr" v="783459" />
		<tag k="tourism" v="wilderness_hut" />
	</node>
	<node lat="62.692272225987004" lon="9.899758336877904" id="-33195">
		<tag k="name" v="Holda hytteområde" />
		<tag k="place" v="neighbourhood" />
		<tag k="ssr:stedsnr" v="786212" />
	</node>
	<node lat="62.71412222518504" lon="9.192638881170371" id="-33196">
		<tag k="historic" v="shieling" />
		<tag k="name" v="Øvre Vassendsætra" />
		<tag k="place" v="isolated_dwelling" />
		<tag k="ssr:stedsnr" v="787615" />
	</node>
	<node lat="62.516302775299785" lon="9.613811101550455" id="-33201">
		<tag k="name" v="Kalvhåggån" />
		<tag k="place" v="farm" />
		<tag k="ssr:stedsnr" v="800339" />
	</node>
	<node lat="62.5914681181999" lon="9.520344709418417" id="-33203">
		<tag k="alt_name" v="Nysetra" />
		<tag k="fixme" v="consider place=hamlet" />
		<tag k="name" v="Nysætra" />
		<tag k="place" v="farm" />
		<tag k="ssr:stedsnr" v="800505" />
	</node>
	<node lat="62.58678059181035" lon="9.303635676608833" id="-33204">
		<tag k="fixme" v="consider place=hamlet" />
		<tag k="name" v="Dettlia" />
		<tag k="place" v="farm" />
		<tag k="ssr:stedsnr" v="800515" />
	</node>
	<node lat="62.34703055150802" lon="9.779816665079341" id="-33205">
		<tag k="historic" v="shieling" />
		<tag k="name" v="Bekkelægret" />
		<tag k="place" v="isolated_dwelling" />
		<tag k="ssr:stedsnr" v="800692" />
	</node>
	<node lat="62.55980555437023" lon="9.239113891062036" id="-33206">
		<tag k="name" v="Trollhaugen" />
		<tag k="place" v="isolated_dwelling" />
		<tag k="ssr:stedsnr" v="800577" />
	</node>
	<node lat="62.55768888760247" lon="9.673100000539248" id="-33208">
		<tag k="alt_name" v="Hevlessetrin" />
		<tag k="historic" v="shieling" />
		<tag k="name" v="Hevlessætra" />
		<tag k="place" v="isolated_dwelling" />
		<tag k="ssr:stedsnr" v="800585" />
	</node>
	<node lat="62.542358334390414" lon="9.618097217093611" id="-33210">
		<tag k="name" v="Sætrumsmoen" />
		<tag k="old_name" v="Sætsmoen;Sessmoen" />
		<tag k="place" v="farm" />
		<tag k="ssr:stedsnr" v="800594" />
	</node>
	<node lat="62.64615000186658" lon="9.29700277013585" id="-33218">
		<tag k="name" v="Skansen" />
		<tag k="place" v="farm" />
		<tag k="ssr:stedsnr" v="801679" />
	</node>
	<node lat="62.43352777340134" lon="9.296849990321089" id="-33221">
		<tag k="name" v="Pilbua" />
		<tag k="place" v="locality" />
		<tag k="ssr:stedsnr" v="817169" />
	</node>
	<node lat="62.52927329657015" lon="9.61360860350215" id="-33226">
		<tag k="name" v="Driva hytter" />
		<tag k="old_name" v="Skulgarden" />
		<tag k="ssr:stedsnr" v="817659" />
		<tag k="tourism" v="guest_house" />
	</node>
	<node lat="62.615394444112866" lon="9.539769444023367" id="-33228">
		<tag k="name" v="Haugen" />
		<tag k="place" v="farm" />
		<tag k="ssr:stedsnr" v="817778" />
	</node>
	<node lat="62.61214999859563" lon="9.535044447167797" id="-33230">
		<tag k="fixme" v="consider place=hamlet" />
		<tag k="name" v="Dørremsgården" />
		<tag k="place" v="farm" />
		<tag k="ssr:stedsnr" v="817787" />
	</node>
	<node lat="62.6794527791844" lon="9.843591664002801" id="-33231">
		<tag k="historic" v="shieling" />
		<tag k="name" v="Sæterssætra" />
		<tag k="place" v="isolated_dwelling" />
		<tag k="ssr:stedsnr" v="921258" />
	</node>
	<node lat="62.6790861128999" lon="9.924236116399697" id="-33232">
		<tag k="name" v="Veslløkkja" />
		<tag k="place" v="farm" />
		<tag k="ssr:stedsnr" v="921260" />
	</node>
	<node lat="62.659358334987395" lon="9.921902770960735" id="-33233">
		<tag k="historic" v="shieling" />
		<tag k="name" v="Finnmoen" />
		<tag k="place" v="isolated_dwelling" />
		<tag k="ssr:stedsnr" v="921279" />
	</node>
	<node lat="62.507827543542575" lon="9.623601935351326" id="-33235">
		<tag k="alt_name" v="Sørstogsætra" />
		<tag k="historic" v="shieling" />
		<tag k="name" v="Sørstosætra" />
		<tag k="place" v="isolated_dwelling" />
		<tag k="ssr:stedsnr" v="921363" />
	</node>
	<node lat="62.59735866164197" lon="9.586702194740894" id="-33242">
		<tag k="name" v="Lia" />
		<tag k="place" v="hamlet" />
		<tag k="ssr:stedsnr" v="921542" />
	</node>
	<node lat="62.63915853618779" lon="9.807663492549011" id="-33243">
		<tag k="alt_name" v="Myra" />
		<tag k="fixme" v="consider place=hamlet" />
		<tag k="name" v="Myrset" />
		<tag k="place" v="farm" />
		<tag k="ssr:stedsnr" v="921497" />
	</node>
	<node lat="62.59612165878574" lon="9.562089330172936" id="-33244">
		<tag k="name" v="Bøasætra" />
		<tag k="place" v="hamlet" />
		<tag k="ssr:stedsnr" v="921524" />
	</node>
	<node lat="62.606252776824796" lon="9.619366675836401" id="-33245">
		<tag k="name" v="Ner Golvåker" />
		<tag k="place" v="farm" />
		<tag k="ssr:stedsnr" v="921527" />
	</node>
	<node lat="62.56924140401436" lon="9.618913413378946" id="-33246">
		<tag k="alt_name" v="Berkåk" />
		<tag k="fixme" v="consider place=hamlet" />
		<tag k="name" v="Berkåker" />
		<tag k="place" v="farm" />
		<tag k="ssr:stedsnr" v="921609" />
	</node>
	<node lat="62.58396111358013" lon="9.4551861026632" id="-33248">
		<tag k="name" v="Nilsplassen" />
		<tag k="place" v="isolated_dwelling" />
		<tag k="ssr:stedsnr" v="921562" />
	</node>
	<node lat="62.58030000445809" lon="9.68871666109726" id="-33250">
		<tag k="name" v="Langsætra" />
		<tag k="place" v="locality" />
		<tag k="ssr:stedsnr" v="921565" />
	</node>
	<node lat="62.577028000869234" lon="9.241225458204058" id="-33251">
		<tag k="fixme" v="consider place=hamlet" />
		<tag k="name" v="Holberget" />
		<tag k="place" v="farm" />
		<tag k="ssr:stedsnr" v="921569" />
	</node>
	<node lat="62.61357532319196" lon="9.51730496638351" id="-33254">
		<tag k="fixme" v="consider place=hamlet" />
		<tag k="name" v="Toftåkran" />
		<tag k="place" v="farm" />
		<tag k="ssr:stedsnr" v="921757" />
	</node>
	<node lat="62.70854999842117" lon="9.800938893486704" id="-33257">
		<tag k="historic" v="shieling" />
		<tag k="name" v="Vekvessætra" />
		<tag k="place" v="isolated_dwelling" />
		<tag k="ssr:stedsnr" v="922257" />
	</node>
	<node lat="62.623883771823685" lon="9.774635730672989" id="-33259">
		<tag k="fixme" v="consider place=hamlet" />
		<tag k="name" v="Tjønnplassen" />
		<tag k="place" v="farm" />
		<tag k="ssr:stedsnr" v="922450" />
	</node>
	<node lat="62.54307499927791" lon="9.363330553199724" id="-33262">
		<tag k="historic" v="shieling" />
		<tag k="name" v="Strandsætra" />
		<tag k="place" v="isolated_dwelling" />
		<tag k="ssr:stedsnr" v="922560" />
	</node>
	<node lat="62.53853888920275" lon="9.342447221505296" id="-33263">
		<tag k="historic" v="shieling" />
		<tag k="name" v="Bøasætra" />
		<tag k="place" v="isolated_dwelling" />
		<tag k="ssr:stedsnr" v="922562" />
	</node>
	<node lat="62.72780277827282" lon="9.54454723169536" id="-33272">
		<tag k="historic" v="shieling" />
		<tag k="name" v="Håkkårssætra" />
		<tag k="place" v="isolated_dwelling" />
		<tag k="ssr:stedsnr" v="922844" />
	</node>
	<node lat="62.59337222034327" lon="9.58831389199055" id="-33279">
		<tag k="historic" v="shieling" />
		<tag k="name" v="Liasætra" />
		<tag k="place" v="isolated_dwelling" />
		<tag k="ssr:stedsnr" v="833010" />
	</node>
	<node lat="62.665580553944395" lon="9.181447221082726" id="-33285">
		<tag k="historic" v="shieling" />
		<tag k="name" v="Sandøysætra" />
		<tag k="place" v="isolated_dwelling" />
		<tag k="ssr:stedsnr" v="922962" />
	</node>
	<node lat="62.60591666746347" lon="9.73211667057429" id="-33289">
		<tag k="name" v="Tågvollan" />
		<tag k="place" v="quarter" />
		<tag k="ssr:stedsnr" v="848224" />
	</node>
	<node lat="62.66777777842811" lon="9.492222226709556" id="-33290">
		<tag k="name" v="Løkkjsætra hytteområde" />
		<tag k="place" v="neighbourhood" />
		<tag k="ssr:stedsnr" v="848817" />
	</node>
	<node lat="62.63723610975426" lon="9.777061110756017" id="-33291">
		<tag k="name" v="Bjørklia hytteområde" />
		<tag k="place" v="neighbourhood" />
		<tag k="ssr:stedsnr" v="848818" />
	</node>
	<node lat="62.47473055359331" lon="9.650227778123746" id="-33293">
		<tag k="historic" v="shieling" />
		<tag k="name" v="Holsætra" />
		<tag k="place" v="isolated_dwelling" />
		<tag k="ssr:stedsnr" v="860466" />
	</node>
	<node lat="62.47751819649509" lon="9.574828954809117" id="-33294">
		<tag k="fixme" v="consider place=hamlet" />
		<tag k="name" v="Vollen" />
		<tag k="place" v="farm" />
		<tag k="ssr:stedsnr" v="860469" />
	</node>
	<node lat="62.48777269007205" lon="9.57473314144172" id="-33295">
		<tag k="alt_name" v="Vammervollen" />
		<tag k="fixme" v="consider place=hamlet" />
		<tag k="name" v="Vammervollan" />
		<tag k="place" v="farm" />
		<tag k="ssr:stedsnr" v="860477" />
	</node>
	<node lat="62.374513743894845" lon="9.635045310294062" id="-33298">
		<tag k="name" v="Stølan" />
		<tag k="place" v="locality" />
		<tag k="ssr:stedsnr" v="860626" />
	</node>
	<node lat="62.43380833414001" lon="9.60876110781944" id="-33299">
		<tag k="name" v="Tøftan" />
		<tag k="place" v="farm" />
		<tag k="ssr:stedsnr" v="860666" />
	</node>
	<node lat="62.42741588754319" lon="9.618275049495814" id="-33300">
		<tag k="fixme" v="consider place=hamlet" />
		<tag k="name" v="Drivstoggo" />
		<tag k="place" v="farm" />
		<tag k="ssr:stedsnr" v="860670" />
	</node>
	<node lat="62.607561110603726" lon="9.778508340751012" id="-33304">
		<tag k="fixme" v="multiple name tags, choose one and add the other to alt_name" />
		<tag k="name" v="Solbakken;Utsikten" />
		<tag k="place" v="farm" />
		<tag k="ssr:stedsnr" v="861412" />
	</node>
	<node lat="62.573522220188345" lon="9.76243611403078" id="-33305">
		<tag k="historic" v="shieling" />
		<tag k="name" v="Stølssætra" />
		<tag k="place" v="isolated_dwelling" />
		<tag k="ssr:stedsnr" v="861423" />
	</node>
	<node lat="62.58438055971639" lon="9.762849992056868" id="-33307">
		<tag k="historic" v="shieling" />
		<tag k="name" v="Josætra" />
		<tag k="place" v="isolated_dwelling" />
		<tag k="ssr:stedsnr" v="861429" />
	</node>
	<node lat="62.582219444365215" lon="9.379152769318454" id="-33309">
		<tag k="name" v="Hol" />
		<tag k="place" v="farm" />
		<tag k="ssr:stedsnr" v="861506" />
	</node>
	<node lat="62.59430833126572" lon="9.691205550047323" id="-33311">
		<tag k="name" v="Oppdal" />
		<tag k="place" v="village" />
		<tag k="ssr:stedsnr" v="861513" />
	</node>
	<node lat="62.52771944198777" lon="9.63520278486705" id="-33312">
		<tag k="name" v="Losløkkja" />
		<tag k="place" v="farm" />
		<tag k="ssr:stedsnr" v="861580" />
	</node>
	<node lat="62.614358333445324" lon="9.685361101715381" id="-33316">
		<tag k="alt_name" v="Trollauge" />
		<tag k="fixme" v="consider tourism=alpine_hut or tourism=chalet" />
		<tag k="name" v="Trolløyet" />
		<tag k="ssr:stedsnr" v="861707" />
		<tag k="tourism" v="wilderness_hut" />
	</node>
	<node lat="62.61889166973024" lon="9.51766388810576" id="-33317">
		<tag k="alt_name" v="Nyhaug" />
		<tag k="name" v="Nyhaugen" />
		<tag k="place" v="farm" />
		<tag k="ssr:stedsnr" v="861713" />
	</node>
	<node lat="62.606744583438" lon="9.71488288016461" id="-33318">
		<tag k="fixme" v="consider place=hamlet" />
		<tag k="name" v="Vollen" />
		<tag k="place" v="farm" />
		<tag k="ssr:stedsnr" v="861717" />
	</node>
	<node lat="62.588161108260095" lon="9.221858336738853" id="-33320">
		<tag k="historic" v="shieling" />
		<tag k="name" v="Stekersætra" />
		<tag k="place" v="isolated_dwelling" />
		<tag k="ssr:stedsnr" v="861502" />
	</node>
	<node lat="62.68685832941478" lon="9.3869138819957" id="-33321">
		<tag k="historic" v="shieling" />
		<tag k="name" v="Langoddsætra" />
		<tag k="place" v="isolated_dwelling" />
		<tag k="ssr:stedsnr" v="861615" />
	</node>
	<node lat="62.676394441906965" lon="9.494491662622805" id="-33322">
		<tag k="historic" v="shieling" />
		<tag k="name" v="Hoksengsætra" />
		<tag k="place" v="isolated_dwelling" />
		<tag k="ssr:stedsnr" v="861619" />
	</node>
	<node lat="62.627019445875696" lon="9.556638882878893" id="-33323">
		<tag k="fixme" v="consider place=hamlet" />
		<tag k="name" v="Rolvsjord" />
		<tag k="place" v="farm" />
		<tag k="ssr:stedsnr" v="861695" />
	</node>
	<node lat="62.44735833014313" lon="10.011855560446664" id="-33324">
		<tag k="historic" v="shieling" />
		<tag k="name" v="Hånåbekksætra" />
		<tag k="place" v="isolated_dwelling" />
		<tag k="ssr:stedsnr" v="861698" />
	</node>
	<node lat="62.67560000277618" lon="9.169500008648058" id="-33328">
		<tag k="name" v="Stekerhaugen" />
		<tag k="place" v="farm" />
		<tag k="ssr:stedsnr" v="870910" />
	</node>
	<node lat="62.58551944321528" lon="9.667802779118807" id="-33332">
		<tag k="name" v="Brennhaugen" />
		<tag k="place" v="quarter" />
		<tag k="ssr:stedsnr" v="877608" />
	</node>
	<node lat="62.61391388699841" lon="9.491733329378283" id="-33337">
		<tag k="name" v="Trøa" />
		<tag k="place" v="farm" />
		<tag k="ssr:stedsnr" v="877806" />
	</node>
	<node lat="62.53369166481027" lon="9.59473611279943" id="-33340">
		<tag k="name" v="Stoggo" />
		<tag k="place" v="farm" />
		<tag k="ssr:stedsnr" v="878706" />
	</node>
	<node lat="62.507633330854986" lon="9.587691668844672" id="-33341">
		<tag k="name" v="Isbrekka" />
		<tag k="place" v="farm" />
		<tag k="ssr:stedsnr" v="878710" />
	</node>
	<node lat="62.61679722444871" lon="9.56698889728462" id="-33342">
		<tag k="alt_name" v="Midtbygda skole;Midtbygda barnehage" />
		<tag k="amenity" v="school" />
		<tag k="name" v="Midtbygda oppvekstsenter" />
		<tag k="ssr:stedsnr" v="878850" />
	</node>
	<node lat="62.61639166569199" lon="9.565141664555922" id="-33343">
		<tag k="name" v="Haugan" />
		<tag k="place" v="farm" />
		<tag k="ssr:stedsnr" v="878851" />
	</node>
	<node lat="62.63174444256998" lon="9.562438893552285" id="-33348">
		<tag k="amenity" v="school" />
		<tag k="name" v="Haugen Leirskole" />
		<tag k="ssr:stedsnr" v="889246" />
	</node>
	<node lat="62.70398055872224" lon="9.567544436020738" id="-33349">
		<tag k="name" v="Klettgjerdenget hytteområde" />
		<tag k="place" v="neighbourhood" />
		<tag k="ssr:stedsnr" v="890864" />
	</node>
	<node lat="62.599561111518724" lon="9.68975278594679" id="-33350">
		<tag k="amenity" v="nursing_home" />
		<tag k="name" v="Oppdal bo- og aktivitetssenter" />
		<tag k="ssr:stedsnr" v="892175" />
	</node>
	<node lat="62.6288972259433" lon="9.548875008332066" id="-33359">
		<tag k="name" v="Storhaugen" />
		<tag k="place" v="farm" />
		<tag k="ssr:stedsnr" v="893306" />
	</node>
	<node lat="62.58742222088602" lon="9.487855551921086" id="-33362">
		<tag k="name" v="Toreplassen" />
		<tag k="place" v="farm" />
		<tag k="ssr:stedsnr" v="893326" />
	</node>
	<node lat="62.691255554884485" lon="9.115772230101397" id="-33367">
		<tag k="name" v="Utesto og Gjelhaugen hytteområde" />
		<tag k="place" v="neighbourhood" />
		<tag k="ssr:stedsnr" v="908856" />
	</node>
	<node lat="62.637838892006954" lon="9.503680557710288" id="-33368">
		<tag k="name" v="Øvre Rasmusslættet hytteområde" />
		<tag k="place" v="neighbourhood" />
		<tag k="ssr:stedsnr" v="908863" />
	</node>
	<node lat="62.59036476839374" lon="9.40645103330791" id="-33372">
		<tag k="name" v="Bø" />
		<tag k="place" v="hamlet" />
		<tag k="ssr:stedsnr" v="921537" />
	</node>
	<node lat="62.56814722551499" lon="9.416952773805207" id="-33376">
		<tag k="name" v="Uvsløkkja" />
		<tag k="place" v="farm" />
		<tag k="ssr:stedsnr" v="921592" />
	</node>
	<node lat="62.503363891427504" lon="9.669725008292955" id="-33379">
		<tag k="historic" v="shieling" />
		<tag k="name" v="Medlisætrin" />
		<tag k="place" v="isolated_dwelling" />
		<tag k="ssr:stedsnr" v="921378" />
	</node>
	<node lat="62.49687170547495" lon="9.588180102895627" id="-33380">
		<tag k="name" v="Engan" />
		<tag k="place" v="hamlet" />
		<tag k="ssr:stedsnr" v="921381" />
	</node>
	<node lat="62.6106749978405" lon="9.300349997298083" id="-33395">
		<tag k="name" v="Gravaunsætra" />
		<tag k="place" v="farm" />
		<tag k="ssr:stedsnr" v="922712" />
	</node>
	<node lat="62.641952776685756" lon="9.502675003357908" id="-33399">
		<tag k="name" v="Stølen" />
		<tag k="place" v="farm" />
		<tag k="ssr:stedsnr" v="922686" />
	</node>
	<node lat="62.58166666866657" lon="9.665855547962906" id="-33401">
		<tag k="building" v="commercial" />
		<tag k="name" v="Bøndernes salgslag" />
		<tag k="ssr:stedsnr" v="938522" />
	</node>
	<node lat="62.57646388963784" lon="9.660374991333814" id="-33402">
		<tag k="name" v="Garden" />
		<tag k="place" v="farm" />
		<tag k="ssr:stedsnr" v="938523" />
	</node>
	<node lat="62.60377222431522" lon="9.649719443730831" id="-33405">
		<tag k="name" v="Elverhøy" />
		<tag k="place" v="isolated_dwelling" />
		<tag k="ssr:stedsnr" v="938541" />
	</node>
	<node lat="62.612127779367505" lon="9.728555552960922" id="-33407">
		<tag k="name" v="Trøa" />
		<tag k="place" v="farm" />
		<tag k="ssr:stedsnr" v="938713" />
	</node>
	<node lat="62.607555557454496" lon="9.738666658533054" id="-33408">
		<tag k="name" v="Gardåenget" />
		<tag k="place" v="farm" />
		<tag k="ssr:stedsnr" v="938716" />
	</node>
	<node lat="62.571983333388204" lon="9.628036103652104" id="-33409">
		<tag k="fixme" v="consider place=hamlet" />
		<tag k="name" v="Snøve" />
		<tag k="place" v="farm" />
		<tag k="ssr:stedsnr" v="938616" />
	</node>
	<node lat="62.53468055790503" lon="9.627483338012441" id="-33411">
		<tag k="name" v="Losgjerdet" />
		<tag k="place" v="farm" />
		<tag k="ssr:stedsnr" v="938643" />
	</node>
	<node lat="62.595597221418494" lon="9.708786101968375" id="-33415">
		<tag k="leisure" v="pitch" />
		<tag k="name" v="Oppdal golfbane" />
		<tag k="ssr:stedsnr" v="950251" />
	</node>
	<node lat="62.67876389167865" lon="9.556808335392223" id="-33416">
		<tag k="name" v="Grønlia hytteområde" />
		<tag k="place" v="neighbourhood" />
		<tag k="ssr:stedsnr" v="950826" />
	</node>
	<node lat="62.67591944171019" lon="9.549922213336949" id="-33417">
		<tag k="name" v="Skaret camping" />
		<tag k="ssr:stedsnr" v="950829" />
		<tag k="tourism" v="camp_site" />
	</node>
	<node lat="62.734499997905104" lon="9.566916660665795" id="-33418">
		<tag k="historic" v="shieling" />
		<tag k="name" v="Håkkårssætra" />
		<tag k="place" v="isolated_dwelling" />
		<tag k="ssr:stedsnr" v="952054" />
	</node>
	<node lat="62.48855555130231" lon="9.649758327032636" id="-33424">
		<tag k="historic" v="shieling" />
		<tag k="name" v="Gammelstuggusætra" />
		<tag k="place" v="isolated_dwelling" />
		<tag k="ssr:stedsnr" v="954002" />
	</node>
	<node lat="62.56916111539132" lon="9.55189722562804" id="-33426">
		<tag k="historic" v="shieling" />
		<tag k="name" v="Snøveshaugsætra" />
		<tag k="place" v="isolated_dwelling" />
		<tag k="ssr:stedsnr" v="954012" />
	</node>
	<node lat="62.573944448635736" lon="9.573919435767927" id="-33427">
		<tag k="name" v="Bortesturønningen" />
		<tag k="place" v="locality" />
		<tag k="ssr:stedsnr" v="954014" />
	</node>
	<node lat="62.324130557245645" lon="9.832374997639686" id="-33434">
		<tag k="name" v="Hjerkinnslegret" />
		<tag k="place" v="locality" />
		<tag k="ssr:stedsnr" v="968690" />
	</node>
	<node lat="62.645440237129044" lon="9.787280850283658" id="-33435">
		<tag k="name" v="Magnhildhaugen hytteområde" />
		<tag k="place" v="neighbourhood" />
		<tag k="ssr:stedsnr" v="969806" />
	</node>
	<node lat="62.666005553010244" lon="9.500975000577556" id="-33436">
		<tag k="name" v="Sessåkersætra hytteområde" />
		<tag k="place" v="neighbourhood" />
		<tag k="ssr:stedsnr" v="969833" />
	</node>
	<node lat="62.67738890079914" lon="9.16526382999516" id="-33456">
		<tag k="name" v="Vassli" />
		<tag k="place" v="hamlet" />
		<tag k="ssr:stedsnr" v="972579" />
	</node>
	<node lat="62.60930829457134" lon="9.771523584978137" id="-33457">
		<tag k="fixme" v="consider place=hamlet" />
		<tag k="name" v="Kåsa" />
		<tag k="place" v="farm" />
		<tag k="ssr:stedsnr" v="972383" />
	</node>
	<node lat="62.60160730364513" lon="9.673549284172552" id="-33458">
		<tag k="name" v="Auna" />
		<tag k="place" v="hamlet" />
		<tag k="ssr:stedsnr" v="972607" />
	</node>
	<node lat="62.35517289932505" lon="9.635960130316214" id="-33467">
		<tag k="historic" v="shieling" />
		<tag k="name" v="Drivstusætra" />
		<tag k="place" v="isolated_dwelling" />
		<tag k="ssr:stedsnr" v="989268" />
	</node>
	<node lat="62.594994438997716" lon="9.691193781365847" id="-33468">
		<tag k="building" v="commercial" />
		<tag k="name" v="Domus Oppdal" />
		<tag k="ssr:stedsnr" v="990946" />
	</node>
	<node lat="62.47372777837623" lon="9.547219451647857" id="-33469">
		<tag k="alt_name" v="Bortreet" />
		<tag k="historic" v="shieling" />
		<tag k="name" v="Bortræet" />
		<tag k="place" v="isolated_dwelling" />
		<tag k="ssr:stedsnr" v="10402" />
	</node>
	<node lat="62.47154941366809" lon="9.648157698899457" id="-33471">
		<tag k="historic" v="shieling" />
		<tag k="name" v="Trøasætrin" />
		<tag k="old_name" v="Ekrsætra" />
		<tag k="place" v="isolated_dwelling" />
		<tag k="ssr:stedsnr" v="10409" />
	</node>
	<node lat="62.457191667480615" lon="9.405749992236407" id="-33475">
		<tag k="historic" v="shieling" />
		<tag k="name" v="Stølen" />
		<tag k="place" v="isolated_dwelling" />
		<tag k="ssr:stedsnr" v="10623" />
	</node>
	<node lat="62.70586389313518" lon="9.788024995014915" id="-33478">
		<tag k="alt_name" v="Brattsetsætra" />
		<tag k="historic" v="shieling" />
		<tag k="name" v="Brattseteggsætra" />
		<tag k="place" v="isolated_dwelling" />
		<tag k="ssr:stedsnr" v="11274" />
	</node>
	<node lat="62.56170277546722" lon="9.965858337003208" id="-33481">
		<tag k="historic" v="shieling" />
		<tag k="name" v="Bjørksætra" />
		<tag k="place" v="isolated_dwelling" />
		<tag k="ssr:stedsnr" v="11417" />
	</node>
	<node lat="62.57979754596959" lon="9.356636243943822" id="-33484">
		<tag k="fixme" v="consider place=hamlet" />
		<tag k="name" v="Gravaune" />
		<tag k="place" v="farm" />
		<tag k="ssr:stedsnr" v="11535" />
	</node>
	<node lat="62.58514444673895" lon="9.468797214904768" id="-33485">
		<tag k="name" v="Morka" />
		<tag k="place" v="farm" />
		<tag k="ssr:stedsnr" v="11541" />
	</node>
	<node lat="62.69963332903994" lon="9.298397223674879" id="-33488">
		<tag k="historic" v="shieling" />
		<tag k="name" v="Lægra" />
		<tag k="place" v="isolated_dwelling" />
		<tag k="ssr:stedsnr" v="11628" />
	</node>
	<node lat="62.628630558812645" lon="9.775388893644124" id="-33490">
		<tag k="alt_name" v="Koret" />
		<tag k="name" v="Kåret" />
		<tag k="place" v="farm" />
		<tag k="ssr:stedsnr" v="11496" />
	</node>
	<node lat="62.51889722076269" lon="9.609572218106928" id="-33491">
		<tag k="fixme" v="multiple name tags, choose one and add the other to alt_name" />
		<tag k="name" v="Sørsto;Risan" />
		<tag k="place" v="farm" />
		<tag k="ssr:stedsnr" v="11619" />
	</node>
	<node lat="62.66038589544707" lon="9.278084116354524" id="-33493">
		<tag k="fixme" v="consider place=hamlet" />
		<tag k="name" v="Stenbueng" />
		<tag k="place" v="farm" />
		<tag k="ssr:stedsnr" v="11687" />
	</node>
	<node lat="62.61074166647055" lon="9.471713886245995" id="-33495">
		<tag k="name" v="Breesgarden" />
		<tag k="place" v="farm" />
		<tag k="ssr:stedsnr" v="11724" />
	</node>
	<node lat="62.69718611379914" lon="9.419386109152533" id="-33496">
		<tag k="historic" v="shieling" />
		<tag k="name" v="Rolvsjordsætra" />
		<tag k="place" v="isolated_dwelling" />
		<tag k="ssr:stedsnr" v="11643" />
	</node>
	<node lat="62.675230551252845" lon="9.49574166403485" id="-33499">
		<tag k="historic" v="shieling" />
		<tag k="name" v="Skarsessætra" />
		<tag k="place" v="isolated_dwelling" />
		<tag k="ssr:stedsnr" v="11658" />
	</node>
	<node lat="62.61333198498753" lon="9.533432658032678" id="-33504">
		<tag k="name" v="Dørrem" />
		<tag k="place" v="hamlet" />
		<tag k="ssr:stedsnr" v="11744" />
	</node>
	<node lat="62.61052222158129" lon="9.48067222577652" id="-33505">
		<tag k="name" v="Kalvhåggån" />
		<tag k="place" v="farm" />
		<tag k="ssr:stedsnr" v="11746" />
	</node>
	<node lat="62.61481111316467" lon="9.484983335224443" id="-33506">
		<tag k="name" v="Håggågjerdet" />
		<tag k="place" v="farm" />
		<tag k="ssr:stedsnr" v="11747" />
	</node>
	<node lat="62.684462457631696" lon="9.926345688505561" id="-33508">
		<tag k="fixme" v="consider place=hamlet" />
		<tag k="name" v="Nermyran" />
		<tag k="place" v="farm" />
		<tag k="ssr:stedsnr" v="12314" />
	</node>
	<node lat="62.59432500101575" lon="9.795119442935762" id="-33510">
		<tag k="historic" v="shieling" />
		<tag k="name" v="Skræmsætrin" />
		<tag k="place" v="isolated_dwelling" />
		<tag k="ssr:stedsnr" v="12451" />
	</node>
	<node lat="62.570744446978814" lon="9.988005550836114" id="-33512">
		<tag k="fixme" v="multiple name tags, choose one and add the other to alt_name" />
		<tag k="historic" v="shieling" />
		<tag k="name" v="Vollasætra;Hallsetsætra" />
		<tag k="place" v="isolated_dwelling" />
		<tag k="ssr:stedsnr" v="12395" />
	</node>
	<node lat="62.540286115458095" lon="9.347883340599191" id="-33515">
		<tag k="historic" v="shieling" />
		<tag k="name" v="Isholsætra" />
		<tag k="place" v="isolated_dwelling" />
		<tag k="ssr:stedsnr" v="12595" />
	</node>
	<node lat="62.540930559131645" lon="9.345833333379598" id="-33516">
		<tag k="historic" v="shieling" />
		<tag k="name" v="Holssætra" />
		<tag k="place" v="isolated_dwelling" />
		<tag k="ssr:stedsnr" v="12597" />
	</node>
	<node lat="62.537050000609845" lon="9.570733338867313" id="-33518">
		<tag k="historic" v="shieling" />
		<tag k="name" v="Veslengsætra" />
		<tag k="place" v="isolated_dwelling" />
		<tag k="ssr:stedsnr" v="12610" />
	</node>
	<node lat="62.648011106997686" lon="9.493388886610726" id="-33521">
		<tag k="alt_name" v="Vassosbakken" />
		<tag k="historic" v="shieling" />
		<tag k="name" v="Vassosbakkan" />
		<tag k="place" v="isolated_dwelling" />
		<tag k="ssr:stedsnr" v="12699" />
	</node>
	<node lat="62.5846638868819" lon="9.21340277754314" id="-33524">
		<tag k="name" v="Kletthamran" />
		<tag k="place" v="farm" />
		<tag k="ssr:stedsnr" v="21600" />
	</node>
	<node lat="62.595302777041056" lon="9.598822215756023" id="-33529">
		<tag k="name" v="Bjørkåsen" />
		<tag k="place" v="farm" />
		<tag k="ssr:stedsnr" v="28547" />
	</node>
	<node lat="62.57669444456261" lon="9.652405564638013" id="-33530">
		<tag k="name" v="Mjøabua" />
		<tag k="place" v="farm" />
		<tag k="ssr:stedsnr" v="28553" />
	</node>
	<node lat="62.59397777738805" lon="9.654144442197508" id="-33532">
		<tag k="name" v="Røtvegen" />
		<tag k="place" v="farm" />
		<tag k="ssr:stedsnr" v="28563" />
	</node>
	<node lat="62.60791667017445" lon="9.650655562656345" id="-33533">
		<tag k="name" v="Presthaugen" />
		<tag k="place" v="farm" />
		<tag k="ssr:stedsnr" v="28776" />
	</node>
	<node lat="62.6098722194149" lon="9.61299165755663" id="-33535">
		<tag k="fixme" v="consider place=hamlet" />
		<tag k="name" v="Skarsem" />
		<tag k="place" v="farm" />
		<tag k="ssr:stedsnr" v="28788" />
	</node>
	<node lat="62.610847212952415" lon="9.60096916305661" id="-33536">
		<tag k="name" v="Grøtan" />
		<tag k="place" v="hamlet" />
		<tag k="ssr:stedsnr" v="28790" />
	</node>
	<node lat="62.60858888819052" lon="9.486508334724942" id="-33538">
		<tag k="name" v="Haugan" />
		<tag k="place" v="farm" />
		<tag k="ssr:stedsnr" v="28827" />
	</node>
	<node lat="62.62523505608393" lon="9.29930354786137" id="-33540">
		<tag k="name" v="Ner-Gjerdet" />
		<tag k="place" v="farm" />
		<tag k="ssr:stedsnr" v="28839" />
	</node>
	<node lat="62.63182954313735" lon="9.773246531849436" id="-33546">
		<tag k="fixme" v="consider place=hamlet" />
		<tag k="name" v="Nerlia" />
		<tag k="place" v="farm" />
		<tag k="ssr:stedsnr" v="28739" />
	</node>
	<node lat="62.628541669518356" lon="9.782205563860975" id="-33547">
		<tag k="name" v="Myran" />
		<tag k="place" v="farm" />
		<tag k="ssr:stedsnr" v="28741" />
	</node>
	<node lat="62.60025555784873" lon="9.721611116842558" id="-33548">
		<tag k="name" v="Tågvollen" />
		<tag k="place" v="farm" />
		<tag k="ssr:stedsnr" v="28748" />
	</node>
	<node lat="62.55550278162841" lon="9.60907499579029" id="-33551">
		<tag k="name" v="Trenga" />
		<tag k="place" v="farm" />
		<tag k="ssr:stedsnr" v="28879" />
	</node>
	<node lat="62.54308610831986" lon="9.633244451502186" id="-33552">
		<tag k="name" v="Losvollhaugen" />
		<tag k="place" v="farm" />
		<tag k="ssr:stedsnr" v="28881" />
	</node>
	<node lat="62.666791665862014" lon="9.20730555578656" id="-33558">
		<tag k="name" v="Nausthaugen hytteområde" />
		<tag k="place" v="neighbourhood" />
		<tag k="ssr:stedsnr" v="39786" />
	</node>
	<node lat="62.58289722117611" lon="9.249894437165286" id="-33559">
		<tag k="name" v="Slipran hytteområde" />
		<tag k="place" v="neighbourhood" />
		<tag k="ssr:stedsnr" v="39855" />
	</node>
	<node lat="62.663066666072076" lon="9.827627781923233" id="-33560">
		<tag k="name" v="Vetlstavåa hytteområde" />
		<tag k="place" v="neighbourhood" />
		<tag k="ssr:stedsnr" v="40231" />
	</node>
	<node lat="62.705836113839844" lon="9.561169446783955" id="-33564">
		<tag k="historic" v="shieling" />
		<tag k="name" v="Sessåkerenget" />
		<tag k="place" v="isolated_dwelling" />
		<tag k="ssr:stedsnr" v="43043" />
	</node>
	<node lat="62.58105000193901" lon="9.399811106907132" id="-33566">
		<tag k="building" v="industrial" />
		<tag k="name" v="Nerholsaga" />
		<tag k="ssr:stedsnr" v="43329" />
	</node>
	<node lat="62.582627779353" lon="9.212072224800497" id="-33571">
		<tag k="name" v="Nord-Kletthammer" />
		<tag k="old_name" v="Nor Kletthammer" />
		<tag k="place" v="farm" />
		<tag k="ssr:stedsnr" v="43341" />
	</node>
	<node lat="62.68107500043274" lon="9.464905553269498" id="-33580">
		<tag k="historic" v="shieling" />
		<tag k="name" v="Larssætra" />
		<tag k="place" v="isolated_dwelling" />
		<tag k="ssr:stedsnr" v="43415" />
	</node>
	<node lat="62.68632221879776" lon="9.459986111856994" id="-33581">
		<tag k="historic" v="shieling" />
		<tag k="name" v="Gårdssætra" />
		<tag k="place" v="isolated_dwelling" />
		<tag k="ssr:stedsnr" v="43417" />
	</node>
	<node lat="62.596063889111775" lon="9.685388880715568" id="-33587">
		<tag k="amenity" v="school" />
		<tag k="name" v="Oppdal ungdomsskole" />
		<tag k="ssr:stedsnr" v="59835" />
	</node>
	<node lat="62.64398611563368" lon="9.788141658413693" id="-33588">
		<tag k="name" v="Medskoghaugen hytteområde" />
		<tag k="place" v="neighbourhood" />
		<tag k="ssr:stedsnr" v="59799" />
	</node>
	<node lat="62.6598804572263" lon="9.278935281607422" id="-33590">
		<tag k="name" v="Stenbueng" />
		<tag k="place" v="farm" />
		<tag k="ssr:stedsnr" v="60543" />
	</node>
	<node lat="62.357782070278866" lon="9.641141507072199" id="-33600">
		<tag k="historic" v="shieling" />
		<tag k="name" v="Søgardssætra" />
		<tag k="place" v="isolated_dwelling" />
		<tag k="ssr:stedsnr" v="71642" />
	</node>
	<node lat="62.46797500064172" lon="9.48655834179127" id="-33601">
		<tag k="name" v="Kjellan" />
		<tag k="place" v="locality" />
		<tag k="ssr:stedsnr" v="71646" />
	</node>
	<node lat="62.62748023645999" lon="9.85051672917127" id="-33608">
		<tag k="fixme" v="consider place=hamlet" />
		<tag k="name" v="Rånnåsætra" />
		<tag k="place" v="farm" />
		<tag k="ssr:stedsnr" v="72468" />
	</node>
	<node lat="62.59739999945303" lon="9.506263897742246" id="-33609">
		<tag k="name" v="Bjørnåbakken" />
		<tag k="place" v="farm" />
		<tag k="ssr:stedsnr" v="72474" />
	</node>
	<node lat="62.272674996098225" lon="9.634174997731877" id="-33612">
		<tag k="historic" v="shieling" />
		<tag k="name" v="Gåvålisætra" />
		<tag k="place" v="isolated_dwelling" />
		<tag k="ssr:stedsnr" v="72485" />
	</node>
	<node lat="62.59553206757708" lon="9.341631844428207" id="-33613">
		<tag k="fixme" v="consider place=hamlet" />
		<tag k="name" v="Løkkja" />
		<tag k="place" v="farm" />
		<tag k="ssr:stedsnr" v="72486" />
	</node>
	<node lat="62.495158333451194" lon="9.865069442661335" id="-33615">
		<tag k="historic" v="shieling" />
		<tag k="name" v="Mjøasætra" />
		<tag k="place" v="isolated_dwelling" />
		<tag k="ssr:stedsnr" v="72494" />
	</node>
	<node lat="62.5899611137293" lon="9.617861116508436" id="-33616">
		<tag k="fixme" v="consider place=hamlet" />
		<tag k="name" v="Nordvika" />
		<tag k="place" v="farm" />
		<tag k="ssr:stedsnr" v="72499" />
	</node>
	<node lat="62.5912499966751" lon="9.65807500126961" id="-33617">
		<tag k="fixme" v="consider place=hamlet" />
		<tag k="name" v="Vasslægja" />
		<tag k="place" v="farm" />
		<tag k="ssr:stedsnr" v="72500" />
	</node>
	<node lat="62.57330636655923" lon="9.396032089727095" id="-33619">
		<tag k="name" v="Ishol" />
		<tag k="place" v="hamlet" />
		<tag k="ssr:stedsnr" v="72529" />
	</node>
	<node lat="62.57427500425588" lon="9.420749997878314" id="-33620">
		<tag k="alt_name" v="Øver Myra" />
		<tag k="name" v="Myra" />
		<tag k="place" v="farm" />
		<tag k="ssr:stedsnr" v="72538" />
	</node>
	<node lat="62.57069166492144" lon="9.53952778469016" id="-33621">
		<tag k="alt_name" v="Snøvessætra" />
		<tag k="historic" v="shieling" />
		<tag k="name" v="Nystusætra" />
		<tag k="place" v="isolated_dwelling" />
		<tag k="ssr:stedsnr" v="72539" />
	</node>
	<node lat="62.555516667606184" lon="9.642383330688599" id="-33624">
		<tag k="alt_name" v="Vollen" />
		<tag k="name" v="Hevlesvollen" />
		<tag k="place" v="farm" />
		<tag k="ssr:stedsnr" v="72552" />
	</node>
	<node lat="62.68866111246834" lon="9.900661117883073" id="-33626">
		<tag k="name" v="Stubban" />
		<tag k="place" v="farm" />
		<tag k="ssr:stedsnr" v="72301" />
	</node>
	<node lat="62.535908436518376" lon="9.631919921076658" id="-33627">
		<tag k="name" v="Lo" />
		<tag k="place" v="hamlet" />
		<tag k="ssr:stedsnr" v="72583" />
	</node>
	<node lat="62.534516664484265" lon="9.546916670605597" id="-33628">
		<tag k="historic" v="shieling" />
		<tag k="name" v="Skoressætra" />
		<tag k="place" v="isolated_dwelling" />
		<tag k="ssr:stedsnr" v="72586" />
	</node>
	<node lat="62.53177796261208" lon="9.634866770952991" id="-33630">
		<tag k="fixme" v="consider place=hamlet" />
		<tag k="name" v="Lo" />
		<tag k="place" v="farm" />
		<tag k="ssr:stedsnr" v="72591" />
	</node>
	<node lat="62.63964470281328" lon="9.555373926776655" id="-33631">
		<tag k="name" v="Løkkstad" />
		<tag k="place" v="farm" />
		<tag k="ssr:stedsnr" v="72664" />
	</node>
	<node lat="62.6353902619214" lon="9.554453280911215" id="-33632">
		<tag k="fixme" v="consider place=hamlet" />
		<tag k="name" v="Dørresløkkja" />
		<tag k="place" v="farm" />
		<tag k="ssr:stedsnr" v="72665" />
	</node>
	<node lat="62.356736112364146" lon="9.882191674995791" id="-33633">
		<tag k="historic" v="shieling" />
		<tag k="name" v="Tanglægret" />
		<tag k="place" v="isolated_dwelling" />
		<tag k="ssr:stedsnr" v="72669" />
	</node>
	<node lat="62.65666940816378" lon="9.944724034159117" id="-33644">
		<tag k="historic" v="shieling" />
		<tag k="name" v="Storlisætra" />
		<tag k="old_name" v="Storlia" />
		<tag k="place" v="isolated_dwelling" />
		<tag k="ssr:stedsnr" v="229435" />
	</node>
	<node lat="62.61658089354837" lon="9.528723620691526" id="-33647">
		<tag k="name" v="Bakk" />
		<tag k="place" v="hamlet" />
		<tag k="ssr:stedsnr" v="88735" />
	</node>
	<node lat="62.61939167030721" lon="9.479875009157208" id="-33649">
		<tag k="name" v="Bruløkkja" />
		<tag k="place" v="farm" />
		<tag k="ssr:stedsnr" v="88764" />
	</node>
	<node lat="62.67537500449183" lon="9.162594446722489" id="-33654">
		<tag k="name" v="Liahaug" />
		<tag k="place" v="farm" />
		<tag k="ssr:stedsnr" v="89195" />
	</node>
	<node lat="62.60338611398958" lon="9.656038891760927" id="-33659">
		<tag k="alt_name" v="Skjørstad" />
		<tag k="name" v="Ner Skjørstad" />
		<tag k="place" v="farm" />
		<tag k="ssr:stedsnr" v="89562" />
	</node>
	<node lat="62.601741662683416" lon="9.697147226365503" id="-33663">
		<tag k="name" v="Slepphaugen" />
		<tag k="place" v="quarter" />
		<tag k="ssr:stedsnr" v="89575" />
	</node>
	<node lat="62.61764444861215" lon="9.559794454208234" id="-33666">
		<tag k="name" v="Grova" />
		<tag k="place" v="farm" />
		<tag k="ssr:stedsnr" v="89836" />
	</node>
	<node lat="62.62151111065717" lon="9.579063879714628" id="-33668">
		<tag k="name" v="Bredstigan" />
		<tag k="place" v="farm" />
		<tag k="ssr:stedsnr" v="89850" />
	</node>
	<node lat="62.55966666775891" lon="9.609669435724964" id="-33669">
		<tag k="name" v="Rønningan" />
		<tag k="place" v="farm" />
		<tag k="ssr:stedsnr" v="89851" />
	</node>
	<node lat="62.50615833290571" lon="9.634372226249535" id="-33670">
		<tag k="name" v="Storløkkja" />
		<tag k="place" v="farm" />
		<tag k="ssr:stedsnr" v="89856" />
	</node>
	<node lat="62.69837499967505" lon="9.536619436072053" id="-33672">
		<tag k="name" v="Hoksengbekken hytteområde" />
		<tag k="place" v="neighbourhood" />
		<tag k="ssr:stedsnr" v="101870" />
	</node>
	<node lat="62.731649999712324" lon="9.552247231115365" id="-33674">
		<tag k="historic" v="shieling" />
		<tag k="name" v="Trengsenget" />
		<tag k="place" v="isolated_dwelling" />
		<tag k="ssr:stedsnr" v="103034" />
	</node>
	<node lat="62.6166000027508" lon="9.478063887678683" id="-33676">
		<tag k="amenity" v="cafe" />
		<tag k="name" v="Trollheimsporten" />
		<tag k="ssr:stedsnr" v="103168" />
	</node>
	<node lat="62.59521944541956" lon="9.55797222172449" id="-33680">
		<tag k="name" v="Bøasæterkalvhåggån" />
		<tag k="place" v="farm" />
		<tag k="ssr:stedsnr" v="104056" />
	</node>
	<node lat="62.64491388947534" lon="9.83398611811505" id="-33685">
		<tag k="name" v="Krokan" />
		<tag k="place" v="farm" />
		<tag k="ssr:stedsnr" v="104466" />
	</node>
	<node lat="62.60171111086696" lon="9.513099995608243" id="-33686">
		<tag k="name" v="Tørvesøya" />
		<tag k="place" v="farm" />
		<tag k="ssr:stedsnr" v="104301" />
	</node>
</osm>
