<?xml version="1.0" encoding="UTF-8"?>
<osm version="0.6" generator="osmapis">
	<node lat="62.46504167064076" lon="9.503591662295579" id="-32070">
		<tag k="name" v="Halsalia" />
		<tag k="natural" v="slope" />
		<tag k="place" v="locality" />
		<tag k="ssr:stedsnr" v="10609" />
	</node>
	<node lat="62.3786750010084" lon="9.272583324747124" id="-32072">
		<tag k="fixme" v="consider natural=peak for the most distinct mountains in the district" />
		<tag k="name" v="Veslsætertangen" />
		<tag k="natural" v="hill" />
		<tag k="place" v="locality" />
		<tag k="ssr:stedsnr" v="10589" />
	</node>
	<node lat="62.489383336039594" lon="9.611813882105665" id="-32075">
		<tag k="fixme" v="consider natural=peak for the most distinct mountains in the district" />
		<tag k="name" v="Fluern" />
		<tag k="natural" v="hill" />
		<tag k="place" v="locality" />
		<tag k="ssr:stedsnr" v="11426" />
	</node>
	<node lat="62.52487777608527" lon="9.902161107435157" id="-32076">
		<tag k="alt_name" v="Folkhøa" />
		<tag k="fixme" v="consider natural=peak for the most distinct mountains in the district" />
		<tag k="name" v="Falkhøa" />
		<tag k="natural" v="hill" />
		<tag k="place" v="locality" />
		<tag k="ssr:stedsnr" v="11428" />
	</node>
	<node lat="62.49706666638032" lon="9.533091658135602" id="-32077">
		<tag k="name" v="Blakhaugen" />
		<tag k="natural" v="hill" />
		<tag k="place" v="locality" />
		<tag k="ssr:stedsnr" v="11431" />
	</node>
	<node lat="62.518536108571816" lon="9.683930556288963" id="-32078">
		<tag k="name" v="Kløftet" />
		<tag k="natural" v="valley" />
		<tag k="place" v="locality" />
		<tag k="ssr:stedsnr" v="11330" />
	</node>
	<node lat="62.491452775898296" lon="9.987222221399822" id="-32082">
		<tag k="name" v="Jutulhaugen" />
		<tag k="natural" v="hill" />
		<tag k="place" v="locality" />
		<tag k="ssr:stedsnr" v="11527" />
	</node>
	<node lat="62.54463055593881" lon="9.309966663693562" id="-32087">
		<tag k="name" v="Grønbakkan" />
		<tag k="natural" v="slope" />
		<tag k="place" v="locality" />
		<tag k="ssr:stedsnr" v="11592" />
	</node>
	<node lat="62.735327779405395" lon="9.579416667254655" id="-32089">
		<tag k="name" v="Skugglia" />
		<tag k="natural" v="slope" />
		<tag k="place" v="locality" />
		<tag k="ssr:stedsnr" v="12830" />
	</node>
	<node lat="62.77000278093053" lon="9.545677775575964" id="-32091">
		<tag k="name" v="Okshaugen" />
		<tag k="natural" v="hill" />
		<tag k="place" v="locality" />
		<tag k="ssr:stedsnr" v="12844" />
	</node>
	<node lat="62.75875833255003" lon="9.269099991287105" id="-32095">
		<tag k="fixme" v="consider natural=peak for the most distinct mountains in the district" />
		<tag k="name" v="Riaren" />
		<tag k="natural" v="hill" />
		<tag k="place" v="locality" />
		<tag k="ssr:stedsnr" v="12776" />
	</node>
	<node lat="62.62563055266176" lon="9.891091660563383" id="-32099">
		<tag k="name" v="Akselhaugan" />
		<tag k="natural" v="ridge" />
		<tag k="place" v="locality" />
		<tag k="ssr:stedsnr" v="28421" />
	</node>
	<node lat="62.46245000321077" lon="9.57580000406867" id="-32101">
		<tag k="name" v="Klemhaugen" />
		<tag k="natural" v="hill" />
		<tag k="place" v="locality" />
		<tag k="ssr:stedsnr" v="28722" />
	</node>
	<node lat="62.570625004532026" lon="9.762905551917662" id="-32103">
		<tag k="name" v="Synder Storhaugen" />
		<tag k="natural" v="hill" />
		<tag k="place" v="locality" />
		<tag k="ssr:stedsnr" v="28803" />
	</node>
	<node lat="62.30723889081127" lon="9.610855547562068" id="-32110">
		<tag k="name" v="Spellmannslætta" />
		<tag k="place" v="locality" />
		<tag k="ssr:stedsnr" v="43102" />
	</node>
	<node lat="62.568877781685025" lon="9.543352773125331" id="-32111">
		<tag k="fixme" v="consider natural=peak for the most distinct mountains in the district" />
		<tag k="name" v="Baggen" />
		<tag k="natural" v="hill" />
		<tag k="place" v="locality" />
		<tag k="ssr:stedsnr" v="43275" />
	</node>
	<node lat="62.5808277820527" lon="9.533702782828085" id="-32112">
		<tag k="name" v="Øverdalen" />
		<tag k="natural" v="valley" />
		<tag k="place" v="locality" />
		<tag k="ssr:stedsnr" v="43279" />
	</node>
	<node lat="62.658899999598916" lon="9.522050006133002" id="-32113">
		<tag k="name" v="Kuhaugen" />
		<tag k="natural" v="hill" />
		<tag k="place" v="locality" />
		<tag k="ssr:stedsnr" v="43301" />
	</node>
	<node lat="62.5855666692921" lon="9.46566944197847" id="-32116">
		<tag k="name" v="Gjerdslætta" />
		<tag k="place" v="locality" />
		<tag k="ssr:stedsnr" v="43316" />
	</node>
	<node lat="62.70264444422539" lon="9.528077769058395" id="-32118">
		<tag k="name" v="Fjøshaugen" />
		<tag k="natural" v="hill" />
		<tag k="place" v="locality" />
		<tag k="ssr:stedsnr" v="43682" />
	</node>
	<node lat="62.39828055246298" lon="9.278025002892011" id="-32125">
		<tag k="fixme" v="consider natural=peak for the most distinct mountains in the district" />
		<tag k="name" v="Såta" />
		<tag k="natural" v="hill" />
		<tag k="place" v="locality" />
		<tag k="ssr:stedsnr" v="71619" />
	</node>
	<node lat="62.395986110383866" lon="9.5909888882321" id="-32126">
		<tag k="name" v="Hesthåggåhøa" />
		<tag k="natural" v="hill" />
		<tag k="place" v="locality" />
		<tag k="ssr:stedsnr" v="71621" />
	</node>
	<node lat="62.700524997002326" lon="9.589358331762954" id="-32129">
		<tag k="fixme" v="consider natural=peak for the most distinct mountains in the district" />
		<tag k="name" v="Storgruvpiken" />
		<tag k="natural" v="hill" />
		<tag k="place" v="locality" />
		<tag k="ssr:stedsnr" v="72628" />
	</node>
	<node lat="62.67129999938419" lon="9.565780556503082" id="-32130">
		<tag k="name" v="Gammelsæterberget" />
		<tag k="natural" v="hill" />
		<tag k="place" v="locality" />
		<tag k="ssr:stedsnr" v="72634" />
	</node>
	<node lat="62.309997222122874" lon="9.795125005912675" id="-32131">
		<tag k="fixme" v="consider natural=peak for the most distinct mountains in the district" />
		<tag k="name" v="Gråkollen" />
		<tag k="natural" v="hill" />
		<tag k="place" v="locality" />
		<tag k="ssr:stedsnr" v="72637" />
	</node>
	<node lat="62.31603055712252" lon="9.811908341191772" id="-32132">
		<tag k="fixme" v="consider natural=peak for the most distinct mountains in the district" />
		<tag k="name" v="Brennknabben" />
		<tag k="natural" v="hill" />
		<tag k="place" v="locality" />
		<tag k="ssr:stedsnr" v="72640" />
	</node>
	<node lat="62.66861944128118" lon="9.715947229206357" id="-32133">
		<tag k="name" v="Stavsjølia" />
		<tag k="natural" v="slope" />
		<tag k="place" v="locality" />
		<tag k="ssr:stedsnr" v="72647" />
	</node>
	<node lat="62.43213610982398" lon="9.922244446410286" id="-32139">
		<tag k="fixme" v="multiple name tags, choose one and add the other to alt_name; consider natural=peak for the most distinct mountains in the district" />
		<tag k="loc_name" v="Storvolkampen" />
		<tag k="name" v="Storvollkampen;Nørdre Digerkammen" />
		<tag k="natural" v="hill" />
		<tag k="place" v="locality" />
		<tag k="ssr:stedsnr" v="72706" />
	</node>
	<node lat="62.43173889012021" lon="9.968872223249106" id="-32140">
		<tag k="name" v="Syndre Hånåbekkvelvet" />
		<tag k="natural" v="valley" />
		<tag k="place" v="locality" />
		<tag k="ssr:stedsnr" v="72707" />
	</node>
	<node lat="62.40809999779984" lon="9.727352784337286" id="-32146">
		<tag k="fixme" v="consider natural=peak for the most distinct mountains in the district" />
		<tag k="name" v="Ryin" />
		<tag k="natural" v="hill" />
		<tag k="place" v="locality" />
		<tag k="ssr:stedsnr" v="72726" />
	</node>
	<node lat="62.71151666465818" lon="9.055083330411215" id="-32147">
		<tag k="name" v="Kolla" />
		<tag k="natural" v="hill" />
		<tag k="place" v="locality" />
		<tag k="ssr:stedsnr" v="72863" />
	</node>
	<node lat="62.62072500435104" lon="9.67394722641979" id="-32150">
		<tag k="name" v="Ådalen" />
		<tag k="natural" v="valley" />
		<tag k="place" v="locality" />
		<tag k="ssr:stedsnr" v="73713" />
	</node>
	<node lat="62.59335833748627" lon="9.338394438655019" id="-32154">
		<tag k="name" v="Løkkjmoen" />
		<tag k="place" v="locality" />
		<tag k="ssr:stedsnr" v="88869" />
	</node>
	<node lat="62.58261666811468" lon="9.59304444048259" id="-32164">
		<tag k="fixme" v="consider natural=peak for the most distinct mountains in the district" />
		<tag k="name" v="Hovden" />
		<tag k="natural" v="hill" />
		<tag k="place" v="locality" />
		<tag k="ssr:stedsnr" v="104009" />
	</node>
	<node lat="62.52480000113939" lon="9.301511101961523" id="-32165">
		<tag k="name" v="Revhihaugen" />
		<tag k="natural" v="hill" />
		<tag k="place" v="locality" />
		<tag k="ssr:stedsnr" v="104277" />
	</node>
	<node lat="62.50773611288171" lon="9.226702773604478" id="-32167">
		<tag k="name" v="Slættbakken" />
		<tag k="natural" v="slope" />
		<tag k="place" v="locality" />
		<tag k="ssr:stedsnr" v="104280" />
	</node>
	<node lat="62.69095833178847" lon="9.330727779767097" id="-32173">
		<tag k="name" v="Fjølbulia" />
		<tag k="natural" v="slope" />
		<tag k="place" v="locality" />
		<tag k="ssr:stedsnr" v="104393" />
	</node>
	<node lat="62.61086110947518" lon="9.920966675577302" id="-32175">
		<tag k="name" v="Rondhaugen" />
		<tag k="natural" v="hill" />
		<tag k="place" v="locality" />
		<tag k="ssr:stedsnr" v="104473" />
	</node>
	<node lat="62.67605555971145" lon="9.513897214623164" id="-32177">
		<tag k="fixme" v="consider natural=peak for the most distinct mountains in the district" />
		<tag k="name" v="Gråhåmmåren" />
		<tag k="natural" v="hill" />
		<tag k="place" v="locality" />
		<tag k="ssr:stedsnr" v="104689" />
	</node>
	<node lat="62.36334444822184" lon="9.355441668249222" id="-32183">
		<tag k="fixme" v="consider natural=peak for the most distinct mountains in the district" />
		<tag k="name" v="Harekollen" />
		<tag k="natural" v="hill" />
		<tag k="old_name" v="Kaninkollen" />
		<tag k="place" v="locality" />
		<tag k="ssr:stedsnr" v="131578" />
	</node>
	<node lat="62.463863890812874" lon="9.516599991790931" id="-32184">
		<tag k="name" v="Storberget" />
		<tag k="natural" v="hill" />
		<tag k="place" v="locality" />
		<tag k="ssr:stedsnr" v="131584" />
	</node>
	<node lat="62.50229166391171" lon="9.749141675422939" id="-32187">
		<tag k="name" v="Grønliskardet" />
		<tag k="natural" v="valley" />
		<tag k="place" v="locality" />
		<tag k="ssr:stedsnr" v="132415" />
	</node>
	<node lat="62.664325004449694" lon="9.340436114522438" id="-32195">
		<tag k="fixme" v="consider natural=peak for the most distinct mountains in the district" />
		<tag k="name" v="Nonsfjellet" />
		<tag k="natural" v="hill" />
		<tag k="place" v="locality" />
		<tag k="ssr:stedsnr" v="132671" />
	</node>
	<node lat="62.31070000347782" lon="9.770372215221945" id="-32196">
		<tag k="fixme" v="consider natural=peak for the most distinct mountains in the district" />
		<tag k="name" v="Hemtjønnshøa" />
		<tag k="natural" v="hill" />
		<tag k="place" v="locality" />
		<tag k="ssr:stedsnr" v="132672" />
	</node>
	<node lat="62.65501806301056" lon="9.308985536129045" id="-32198">
		<tag k="name" v="Buslættkamben" />
		<tag k="place" v="locality" />
		<tag k="ssr:stedsnr" v="132683" />
	</node>
	<node lat="62.69949999577627" lon="9.748749991591392" id="-32200">
		<tag k="name" v="Grytdalen" />
		<tag k="natural" v="valley" />
		<tag k="place" v="locality" />
		<tag k="ssr:stedsnr" v="133261" />
	</node>
	<node lat="62.589511113620645" lon="9.159100006633405" id="-32202">
		<tag k="fixme" v="consider natural=peak for the most distinct mountains in the district" />
		<tag k="name" v="Flatfjellet" />
		<tag k="natural" v="hill" />
		<tag k="place" v="locality" />
		<tag k="ssr:stedsnr" v="133759" />
	</node>
	<node lat="62.47200555341184" lon="9.607541668624116" id="-32204">
		<tag k="name" v="Risberget" />
		<tag k="natural" v="hill" />
		<tag k="place" v="locality" />
		<tag k="ssr:stedsnr" v="253458" />
	</node>
	<node lat="62.40273333052354" lon="9.373608339977867" id="-32207">
		<tag k="name" v="Tjønnglupen" />
		<tag k="natural" v="valley" />
		<tag k="place" v="locality" />
		<tag k="ssr:stedsnr" v="253592" />
	</node>
	<node lat="62.386008334665945" lon="9.614561112784086" id="-32209">
		<tag k="fixme" v="consider natural=peak for the most distinct mountains in the district" />
		<tag k="name" v="Stølåkollen" />
		<tag k="natural" v="hill" />
		<tag k="place" v="locality" />
		<tag k="ssr:stedsnr" v="253600" />
	</node>
	<node lat="62.48060833696811" lon="9.183547225124272" id="-32216">
		<tag k="fixme" v="consider natural=peak for the most distinct mountains in the district" />
		<tag k="name" v="Blåfjellet" />
		<tag k="natural" v="hill" />
		<tag k="place" v="locality" />
		<tag k="ssr:stedsnr" v="254428" />
	</node>
	<node lat="62.470183337726695" lon="9.882711116877378" id="-32225">
		<tag k="name" v="Butjønnkvelvet" />
		<tag k="natural" v="valley" />
		<tag k="place" v="locality" />
		<tag k="ssr:stedsnr" v="254496" />
	</node>
	<node lat="62.67938888616046" lon="9.523341673223001" id="-32238">
		<tag k="name" v="Kvamman" />
		<tag k="natural" v="valley" />
		<tag k="place" v="locality" />
		<tag k="ssr:stedsnr" v="254638" />
	</node>
	<node lat="62.658816665021995" lon="9.377530551153026" id="-32239">
		<tag k="name" v="Storbekkdalen" />
		<tag k="natural" v="valley" />
		<tag k="place" v="locality" />
		<tag k="ssr:stedsnr" v="254643" />
	</node>
	<node lat="62.72824722571994" lon="9.229408327996772" id="-32249">
		<tag k="fixme" v="consider natural=peak for the most distinct mountains in the district" />
		<tag k="name" v="Indre Gjevillvasskamben" />
		<tag k="natural" v="hill" />
		<tag k="place" v="locality" />
		<tag k="ssr:stedsnr" v="254860" />
	</node>
	<node lat="62.574847222761335" lon="9.213983329460993" id="-32251">
		<tag k="name" v="Tortlia" />
		<tag k="natural" v="slope" />
		<tag k="place" v="locality" />
		<tag k="ssr:stedsnr" v="147957" />
	</node>
	<node lat="62.56973055118962" lon="9.935883329419335" id="-32255">
		<tag k="fixme" v="consider natural=peak for the most distinct mountains in the district" />
		<tag k="name" v="Næringhøgda" />
		<tag k="natural" v="hill" />
		<tag k="place" v="locality" />
		<tag k="ssr:stedsnr" v="149404" />
	</node>
	<node lat="62.649858329929515" lon="9.746230562190295" id="-32256">
		<tag k="name" v="Kinna" />
		<tag k="natural" v="slope" />
		<tag k="place" v="locality" />
		<tag k="ssr:stedsnr" v="149408" />
	</node>
	<node lat="62.65671388759592" lon="9.268830555561825" id="-32259">
		<tag k="name" v="Sjurshaugen" />
		<tag k="natural" v="hill" />
		<tag k="place" v="locality" />
		<tag k="ssr:stedsnr" v="149813" />
	</node>
	<node lat="62.61415833261177" lon="9.566472214428867" id="-32261">
		<tag k="name" v="Bryhaugen" />
		<tag k="natural" v="hill" />
		<tag k="place" v="locality" />
		<tag k="ssr:stedsnr" v="149854" />
	</node>
	<node lat="62.45956389023869" lon="9.551794437231864" id="-32264">
		<tag k="fixme" v="consider natural=peak for the most distinct mountains in the district" />
		<tag k="name" v="Sæterfjellet" />
		<tag k="natural" v="hill" />
		<tag k="place" v="locality" />
		<tag k="ssr:stedsnr" v="149703" />
	</node>
	<node lat="62.61040277469666" lon="9.702194445396259" id="-32266">
		<tag k="name" v="Håmmårholet" />
		<tag k="natural" v="valley" />
		<tag k="place" v="locality" />
		<tag k="ssr:stedsnr" v="149755" />
	</node>
	<node lat="62.714522221907835" lon="9.761844436446852" id="-32273">
		<tag k="name" v="Hestbekkdalen" />
		<tag k="natural" v="valley" />
		<tag k="place" v="locality" />
		<tag k="ssr:stedsnr" v="164520" />
	</node>
	<node lat="62.65846944681222" lon="9.561424994630263" id="-32275">
		<tag k="name" v="Slættlia" />
		<tag k="natural" v="slope" />
		<tag k="place" v="locality" />
		<tag k="ssr:stedsnr" v="165060" />
	</node>
	<node lat="62.28345000069469" lon="9.600352773426746" id="-32276">
		<tag k="name" v="Kvernhushaugen" />
		<tag k="natural" v="hill" />
		<tag k="place" v="locality" />
		<tag k="ssr:stedsnr" v="165101" />
	</node>
	<node lat="62.6599777756749" lon="9.830683328992995" id="-32277">
		<tag k="name" v="Dånnålikleva" />
		<tag k="natural" v="slope" />
		<tag k="place" v="locality" />
		<tag k="ssr:stedsnr" v="165104" />
	</node>
	<node lat="62.66449722493475" lon="9.498394452255873" id="-32281">
		<tag k="name" v="Furuhaugen" />
		<tag k="natural" v="hill" />
		<tag k="place" v="locality" />
		<tag k="ssr:stedsnr" v="165416" />
	</node>
	<node lat="62.55429166644252" lon="9.352897220027387" id="-32284">
		<tag k="fixme" v="consider natural=peak for the most distinct mountains in the district" />
		<tag k="name" v="Storhaugpiken" />
		<tag k="natural" v="hill" />
		<tag k="place" v="locality" />
		<tag k="ssr:stedsnr" v="165376" />
	</node>
	<node lat="62.68799444873606" lon="9.120080545856757" id="-32289">
		<tag k="name" v="Bukkbakken" />
		<tag k="natural" v="slope" />
		<tag k="place" v="locality" />
		<tag k="ssr:stedsnr" v="210145" />
	</node>
	<node lat="62.62578055378702" lon="9.460233337087832" id="-32300">
		<tag k="name" v="Kleberberget" />
		<tag k="natural" v="hill" />
		<tag k="place" v="locality" />
		<tag k="ssr:stedsnr" v="210888" />
	</node>
	<node lat="62.60949444122494" lon="9.536891671794127" id="-32305">
		<tag k="name" v="Djupdalan" />
		<tag k="natural" v="valley" />
		<tag k="place" v="locality" />
		<tag k="ssr:stedsnr" v="270758" />
	</node>
	<node lat="62.53854444405656" lon="9.332922214356964" id="-32313">
		<tag k="name" v="Øya" />
		<tag k="place" v="locality" />
		<tag k="ssr:stedsnr" v="225288" />
	</node>
	<node lat="62.57041389094617" lon="9.826936103123732" id="-32317">
		<tag k="alt_name" v="Langfallsbekk-kvelvet" />
		<tag k="name" v="Langfallsbekkvelvet" />
		<tag k="natural" v="valley" />
		<tag k="place" v="locality" />
		<tag k="ssr:stedsnr" v="271456" />
	</node>
	<node lat="62.67262778040746" lon="9.549391670892277" id="-32320">
		<tag k="name" v="Stølsslettin" />
		<tag k="place" v="locality" />
		<tag k="ssr:stedsnr" v="225703" />
	</node>
	<node lat="62.61660555930013" lon="9.798191660660976" id="-32321">
		<tag k="name" v="Styggtrollskodalen" />
		<tag k="natural" v="valley" />
		<tag k="place" v="locality" />
		<tag k="ssr:stedsnr" v="225497" />
	</node>
	<node lat="62.59492221853872" lon="9.614677783717918" id="-32322">
		<tag k="name" v="Husasletta" />
		<tag k="place" v="locality" />
		<tag k="ssr:stedsnr" v="271595" />
	</node>
	<node lat="62.48095000110465" lon="9.638477785940598" id="-32323">
		<tag k="name" v="Kvannlia" />
		<tag k="natural" v="slope" />
		<tag k="place" v="locality" />
		<tag k="ssr:stedsnr" v="226007" />
	</node>
	<node lat="62.58304166853882" lon="9.588341670839512" id="-32324">
		<tag k="name" v="Hemmer Skardet" />
		<tag k="natural" v="valley" />
		<tag k="place" v="locality" />
		<tag k="ssr:stedsnr" v="226008" />
	</node>
	<node lat="62.525152774461354" lon="9.57948611637621" id="-32328">
		<tag k="name" v="Skoremslia" />
		<tag k="natural" v="slope" />
		<tag k="place" v="locality" />
		<tag k="ssr:stedsnr" v="271730" />
	</node>
	<node lat="62.61466111501659" lon="9.650436114637472" id="-32335">
		<tag k="name" v="Vangslia" />
		<tag k="natural" v="slope" />
		<tag k="place" v="locality" />
		<tag k="ssr:stedsnr" v="271800" />
	</node>
	<node lat="62.53463611138173" lon="9.573258327553084" id="-32336">
		<tag k="fixme" v="consider natural=peak for the most distinct mountains in the district" />
		<tag k="name" v="Svartholet" />
		<tag k="natural" v="hill" />
		<tag k="place" v="locality" />
		<tag k="ssr:stedsnr" v="271736" />
	</node>
	<node lat="62.51046666907045" lon="9.5860472176374" id="-32337">
		<tag k="name" v="Stoan" />
		<tag k="natural" v="slope" />
		<tag k="place" v="locality" />
		<tag k="ssr:stedsnr" v="271739" />
	</node>
	<node lat="62.48134166892047" lon="9.551474996246059" id="-32338">
		<tag k="name" v="Støllia" />
		<tag k="natural" v="slope" />
		<tag k="place" v="locality" />
		<tag k="ssr:stedsnr" v="271747" />
	</node>
	<node lat="62.545163884507126" lon="9.61086944863793" id="-32342">
		<tag k="name" v="Moasletta" />
		<tag k="place" v="locality" />
		<tag k="ssr:stedsnr" v="271880" />
	</node>
	<node lat="62.641244446254255" lon="9.3064499904145" id="-32344">
		<tag k="name" v="Buslættet" />
		<tag k="natural" v="slope" />
		<tag k="place" v="locality" />
		<tag k="ssr:stedsnr" v="271849" />
	</node>
	<node lat="62.70117500073996" lon="9.850952772212002" id="-32346">
		<tag k="name" v="Baklia" />
		<tag k="natural" v="slope" />
		<tag k="place" v="locality" />
		<tag k="ssr:stedsnr" v="271860" />
	</node>
	<node lat="62.59413055661776" lon="9.275536102080698" id="-32350">
		<tag k="fixme" v="consider natural=peak for the most distinct mountains in the district" />
		<tag k="name" v="Sliperhovden" />
		<tag k="natural" v="hill" />
		<tag k="place" v="locality" />
		<tag k="ssr:stedsnr" v="450120" />
	</node>
	<node lat="62.17868888652299" lon="9.357997225039352" id="-32351">
		<tag k="name" v="Dovrefjell" />
		<tag k="natural" v="mountain_range" />
		<tag k="ssr:stedsnr" v="450696" />
	</node>
	<node lat="62.580747218264726" lon="9.144608332595533" id="-32352">
		<tag k="name" v="Hyllberget" />
		<tag k="place" v="locality" />
		<tag k="ssr:stedsnr" v="451041" />
	</node>
	<node lat="62.37387777345665" lon="9.684963879365574" id="-32373">
		<tag k="name" v="Veslfinnshøa" />
		<tag k="natural" v="hill" />
		<tag k="place" v="locality" />
		<tag k="ssr:stedsnr" v="253610" />
	</node>
	<node lat="62.43825445009082" lon="9.410351767949281" id="-32376">
		<tag k="alt_name" v="Fremste Åmotshytten" />
		<tag k="fixme" v="consider natural=peak for the most distinct mountains in the district" />
		<tag k="name" v="Fremmer Åmotshytten" />
		<tag k="natural" v="hill" />
		<tag k="place" v="locality" />
		<tag k="ssr:stedsnr" v="253640" />
	</node>
	<node lat="62.42574166335463" lon="9.553683326587668" id="-32377">
		<tag k="fixme" v="consider natural=peak for the most distinct mountains in the district" />
		<tag k="name" v="Skardkollen" />
		<tag k="natural" v="hill" />
		<tag k="place" v="locality" />
		<tag k="ssr:stedsnr" v="253641" />
	</node>
	<node lat="62.48473888514373" lon="9.254091673541728" id="-32381">
		<tag k="name" v="Svartdalen" />
		<tag k="natural" v="valley" />
		<tag k="place" v="locality" />
		<tag k="ssr:stedsnr" v="254387" />
	</node>
	<node lat="62.582850001602324" lon="9.591933334632943" id="-32386">
		<tag k="name" v="Svarthaugen" />
		<tag k="natural" v="hill" />
		<tag k="place" v="locality" />
		<tag k="ssr:stedsnr" v="254509" />
	</node>
	<node lat="62.328739930158804" lon="9.621149337397513" id="-32388">
		<tag k="name" v="Gammalholet" />
		<tag k="old_name" v="Fammalholet" />
		<tag k="place" v="locality" />
		<tag k="ssr:stedsnr" v="254515" />
	</node>
	<node lat="62.60078611014844" lon="9.381955559805148" id="-32392">
		<tag k="fixme" v="consider natural=peak for the most distinct mountains in the district" />
		<tag k="name" v="Oksfluren" />
		<tag k="natural" v="hill" />
		<tag k="place" v="locality" />
		<tag k="ssr:stedsnr" v="254470" />
	</node>
	<node lat="62.717561114822786" lon="9.705505564048702" id="-32396">
		<tag k="fixme" v="consider natural=peak for the most distinct mountains in the district" />
		<tag k="name" v="Grythatten" />
		<tag k="natural" v="hill" />
		<tag k="place" v="locality" />
		<tag k="ssr:stedsnr" v="254611" />
	</node>
	<node lat="62.710413889351656" lon="9.49924444962974" id="-32397">
		<tag k="fixme" v="consider natural=peak for the most distinct mountains in the district" />
		<tag k="name" v="Gråhåmmåren" />
		<tag k="natural" v="hill" />
		<tag k="place" v="locality" />
		<tag k="ssr:stedsnr" v="254616" />
	</node>
	<node lat="62.70018611005634" lon="9.456600005538238" id="-32398">
		<tag k="name" v="Vardhøa" />
		<tag k="natural" v="hill" />
		<tag k="place" v="locality" />
		<tag k="ssr:stedsnr" v="254621" />
	</node>
	<node lat="62.65020277415953" lon="9.408461116379238" id="-32401">
		<tag k="name" v="Gruva" />
		<tag k="place" v="locality" />
		<tag k="ssr:stedsnr" v="254669" />
	</node>
	<node lat="62.64257778110806" lon="9.447252778955121" id="-32402">
		<tag k="fixme" v="consider natural=peak for the most distinct mountains in the district" />
		<tag k="name" v="Veslhornet" />
		<tag k="natural" v="hill" />
		<tag k="place" v="locality" />
		<tag k="ssr:stedsnr" v="254671" />
	</node>
	<node lat="62.45482777855724" lon="9.737325000523477" id="-32407">
		<tag k="fixme" v="consider natural=peak for the most distinct mountains in the district" />
		<tag k="name" v="Lertjønnkollen" />
		<tag k="natural" v="hill" />
		<tag k="place" v="locality" />
		<tag k="ssr:stedsnr" v="254708" />
	</node>
	<node lat="62.454080557740205" lon="9.839338897257003" id="-32408">
		<tag k="name" v="Trongberget" />
		<tag k="natural" v="hill" />
		<tag k="place" v="locality" />
		<tag k="ssr:stedsnr" v="254709" />
	</node>
	<node lat="62.70190278172389" lon="9.115924997899198" id="-32413">
		<tag k="fixme" v="consider natural=peak for the most distinct mountains in the district" />
		<tag k="name" v="Kvannflatbruna" />
		<tag k="natural" v="hill" />
		<tag k="place" v="locality" />
		<tag k="ssr:stedsnr" v="254916" />
	</node>
	<node lat="62.78144721834426" lon="9.445652779700769" id="-32415">
		<tag k="name" v="Minnilldalsglupen" />
		<tag k="natural" v="valley" />
		<tag k="place" v="locality" />
		<tag k="ssr:stedsnr" v="255861" />
	</node>
	<node lat="62.65848889128196" lon="9.299980556006087" id="-32417">
		<tag k="name" v="Skjeftbakkan" />
		<tag k="natural" v="slope" />
		<tag k="place" v="locality" />
		<tag k="ssr:stedsnr" v="270190" />
	</node>
	<node lat="62.614186110820064" lon="9.472983327528542" id="-32419">
		<tag k="name" v="Gjetdalen" />
		<tag k="natural" v="valley" />
		<tag k="place" v="locality" />
		<tag k="ssr:stedsnr" v="270780" />
	</node>
	<node lat="62.682791670689" lon="9.161713888692763" id="-32420">
		<tag k="name" v="Moldbakkberget" />
		<tag k="natural" v="hill" />
		<tag k="place" v="locality" />
		<tag k="ssr:stedsnr" v="271212" />
	</node>
	<node lat="62.68410555416966" lon="9.135897216364032" id="-32421">
		<tag k="fixme" v="consider natural=peak for the most distinct mountains in the district" />
		<tag k="name" v="Brattegga" />
		<tag k="natural" v="hill" />
		<tag k="place" v="locality" />
		<tag k="ssr:stedsnr" v="271220" />
	</node>
	<node lat="62.56523611320279" lon="9.684411109072403" id="-32426">
		<tag k="name" v="Brennan" />
		<tag k="natural" v="slope" />
		<tag k="place" v="locality" />
		<tag k="ssr:stedsnr" v="271587" />
	</node>
	<node lat="62.64498889231459" lon="9.844994439438866" id="-32427">
		<tag k="name" v="Kojhaugen" />
		<tag k="natural" v="hill" />
		<tag k="place" v="locality" />
		<tag k="ssr:stedsnr" v="271703" />
	</node>
	<node lat="62.6405333292299" lon="9.872441663992253" id="-32428">
		<tag k="name" v="Elgsmoen" />
		<tag k="place" v="locality" />
		<tag k="ssr:stedsnr" v="271705" />
	</node>
	<node lat="62.55012499716558" lon="9.595158336301505" id="-32442">
		<tag k="fixme" v="consider natural=peak for the most distinct mountains in the district" />
		<tag k="name" v="Skarhåmmåren" />
		<tag k="natural" v="hill" />
		<tag k="place" v="locality" />
		<tag k="ssr:stedsnr" v="286009" />
	</node>
	<node lat="62.402505558061556" lon="9.638316663634711" id="-32444">
		<tag k="name" v="Hesthåggån" />
		<tag k="natural" v="slope" />
		<tag k="place" v="locality" />
		<tag k="ssr:stedsnr" v="286038" />
	</node>
	<node lat="62.31312777928608" lon="9.614602785136412" id="-32445">
		<tag k="name" v="Hokleiva" />
		<tag k="natural" v="hill" />
		<tag k="place" v="locality" />
		<tag k="ssr:stedsnr" v="286127" />
	</node>
	<node lat="62.61573055447004" lon="9.893833340411136" id="-32449">
		<tag k="name" v="Vikahøa" />
		<tag k="natural" v="hill" />
		<tag k="place" v="locality" />
		<tag k="ssr:stedsnr" v="286512" />
	</node>
	<node lat="62.344491668603176" lon="9.626861112042645" id="-32466">
		<tag k="alt_name" v="Tingsvada" />
		<tag k="name" v="Tingsvaet" />
		<tag k="natural" v="valley" />
		<tag k="place" v="locality" />
		<tag k="ssr:stedsnr" v="314575" />
	</node>
	<node lat="62.70396666843035" lon="9.0394333325699" id="-32469">
		<tag k="name" v="Høgegga" />
		<tag k="natural" v="hill" />
		<tag k="place" v="locality" />
		<tag k="ssr:stedsnr" v="314907" />
	</node>
	<node lat="62.558900001326826" lon="9.472113892541396" id="-32474">
		<tag k="name" v="Hårådalen" />
		<tag k="natural" v="valley" />
		<tag k="place" v="locality" />
		<tag k="ssr:stedsnr" v="315557" />
	</node>
	<node lat="62.71482499989784" lon="9.536780548661033" id="-32479">
		<tag k="fixme" v="consider natural=peak for the most distinct mountains in the district" />
		<tag k="name" v="Nonshøa" />
		<tag k="natural" v="hill" />
		<tag k="place" v="locality" />
		<tag k="ssr:stedsnr" v="315613" />
	</node>
	<node lat="62.539647221977695" lon="9.337211115921537" id="-32484">
		<tag k="name" v="Isholtrøa" />
		<tag k="place" v="locality" />
		<tag k="ssr:stedsnr" v="468241" />
	</node>
	<node lat="62.66703055632135" lon="9.208769441766803" id="-32486">
		<tag k="name" v="Nausthaugen" />
		<tag k="natural" v="hill" />
		<tag k="place" v="locality" />
		<tag k="ssr:stedsnr" v="315956" />
	</node>
	<node lat="62.62849999829728" lon="9.172624995242245" id="-32487">
		<tag k="fixme" v="consider natural=peak for the most distinct mountains in the district" />
		<tag k="name" v="Sandåfjellet" />
		<tag k="natural" v="hill" />
		<tag k="place" v="locality" />
		<tag k="ssr:stedsnr" v="315999" />
	</node>
	<node lat="62.55351111119578" lon="9.384038889609329" id="-32495">
		<tag k="fixme" v="consider natural=peak for the most distinct mountains in the district" />
		<tag k="name" v="Høgegga" />
		<tag k="natural" v="hill" />
		<tag k="place" v="locality" />
		<tag k="ssr:stedsnr" v="468333" />
	</node>
	<node lat="62.55513611471835" lon="9.370777787506913" id="-32497">
		<tag k="name" v="Skorvløkka" />
		<tag k="natural" v="slope" />
		<tag k="place" v="locality" />
		<tag k="ssr:stedsnr" v="468340" />
	</node>
	<node lat="62.504411107648814" lon="9.233608331624612" id="-32498">
		<tag k="name" v="Oshaugen" />
		<tag k="natural" v="hill" />
		<tag k="place" v="locality" />
		<tag k="ssr:stedsnr" v="468255" />
	</node>
	<node lat="62.67011389318806" lon="9.53093611309677" id="-32501">
		<tag k="name" v="Kvamberget" />
		<tag k="natural" v="hill" />
		<tag k="place" v="locality" />
		<tag k="ssr:stedsnr" v="468280" />
	</node>
	<node lat="62.53836666507513" lon="9.361141664539707" id="-32503">
		<tag k="name" v="Tjurrukjellstigen" />
		<tag k="natural" v="slope" />
		<tag k="place" v="locality" />
		<tag k="ssr:stedsnr" v="468343" />
	</node>
	<node lat="62.74077778167769" lon="9.543338882201837" id="-32504">
		<tag k="fixme" v="consider natural=peak for the most distinct mountains in the district" />
		<tag k="name" v="Holthåmmåren" />
		<tag k="natural" v="hill" />
		<tag k="place" v="locality" />
		<tag k="ssr:stedsnr" v="468287" />
	</node>
	<node lat="62.62042222293176" lon="9.912472225399055" id="-32516">
		<tag k="name" v="Rognkløfta" />
		<tag k="natural" v="valley" />
		<tag k="place" v="locality" />
		<tag k="ssr:stedsnr" v="468437" />
	</node>
	<node lat="62.61378611092034" lon="9.904649992508435" id="-32517">
		<tag k="name" v="Stenskardet" />
		<tag k="natural" v="valley" />
		<tag k="place" v="locality" />
		<tag k="ssr:stedsnr" v="468438" />
	</node>
	<node lat="62.628644441776935" lon="9.91824166501986" id="-32518">
		<tag k="name" v="Simaodden" />
		<tag k="place" v="locality" />
		<tag k="ssr:stedsnr" v="468439" />
	</node>
	<node lat="62.703858334334406" lon="9.769955553959418" id="-32519">
		<tag k="name" v="Storsandhaugen" />
		<tag k="natural" v="hill" />
		<tag k="place" v="locality" />
		<tag k="ssr:stedsnr" v="468408" />
	</node>
	<node lat="62.62329444429542" lon="9.931819447952453" id="-32520">
		<tag k="name" v="Holtet" />
		<tag k="natural" v="slope" />
		<tag k="place" v="locality" />
		<tag k="ssr:stedsnr" v="468447" />
	</node>
	<node lat="62.6027055575517" lon="9.944380556758887" id="-32521">
		<tag k="name" v="Sandmelin" />
		<tag k="place" v="locality" />
		<tag k="ssr:stedsnr" v="468448" />
	</node>
	<node lat="62.55864444025194" lon="9.752680564106928" id="-32522">
		<tag k="name" v="Ålmdalen" />
		<tag k="natural" v="valley" />
		<tag k="place" v="locality" />
		<tag k="ssr:stedsnr" v="328813" />
	</node>
	<node lat="62.572877780314236" lon="9.152908331919496" id="-32523">
		<tag k="name" v="Kleivan" />
		<tag k="natural" v="slope" />
		<tag k="place" v="locality" />
		<tag k="ssr:stedsnr" v="329072" />
	</node>
	<node lat="62.493997224355965" lon="9.58178611311924" id="-32524">
		<tag k="name" v="Sandberget" />
		<tag k="natural" v="hill" />
		<tag k="place" v="locality" />
		<tag k="ssr:stedsnr" v="331702" />
	</node>
	<node lat="62.459769441272066" lon="9.586927782482721" id="-32527">
		<tag k="name" v="Helvet" />
		<tag k="natural" v="slope" />
		<tag k="place" v="locality" />
		<tag k="ssr:stedsnr" v="331708" />
	</node>
	<node lat="62.579694448678175" lon="9.597494449930885" id="-32529">
		<tag k="name" v="Svarthaugen" />
		<tag k="natural" v="hill" />
		<tag k="place" v="locality" />
		<tag k="ssr:stedsnr" v="331616" />
	</node>
	<node lat="62.52815833138348" lon="9.643397221491435" id="-32531">
		<tag k="fixme" v="consider natural=peak for the most distinct mountains in the district" />
		<tag k="name" v="Vetltyrishåmmåren" />
		<tag k="natural" v="hill" />
		<tag k="place" v="locality" />
		<tag k="ssr:stedsnr" v="331662" />
	</node>
	<node lat="62.63283333122767" lon="9.557313886351656" id="-32546">
		<tag k="name" v="Løkkjhaugan" />
		<tag k="natural" v="hill" />
		<tag k="place" v="locality" />
		<tag k="ssr:stedsnr" v="347059" />
	</node>
	<node lat="62.631530553704636" lon="9.577252779393884" id="-32547">
		<tag k="name" v="Råkbakken" />
		<tag k="natural" v="slope" />
		<tag k="place" v="locality" />
		<tag k="ssr:stedsnr" v="347062" />
	</node>
	<node lat="62.509727775810546" lon="9.276233325807508" id="-32548">
		<tag k="name" v="Fiskbekkranden" />
		<tag k="place" v="locality" />
		<tag k="ssr:stedsnr" v="347261" />
	</node>
	<node lat="62.30075277604262" lon="9.603358328338272" id="-32552">
		<tag k="name" v="Fagerhaugen" />
		<tag k="natural" v="hill" />
		<tag k="place" v="locality" />
		<tag k="ssr:stedsnr" v="347119" />
	</node>
	<node lat="62.58037222011637" lon="9.49373332635414" id="-32553">
		<tag k="name" v="Vikasæterlia" />
		<tag k="natural" v="slope" />
		<tag k="place" v="locality" />
		<tag k="ssr:stedsnr" v="347321" />
	</node>
	<node lat="62.474999997611945" lon="9.7165666634773" id="-32559">
		<tag k="name" v="Fosshøa" />
		<tag k="natural" v="hill" />
		<tag k="place" v="locality" />
		<tag k="ssr:stedsnr" v="374416" />
	</node>
	<node lat="62.414211115510476" lon="9.363322221202882" id="-32560">
		<tag k="fixme" v="consider natural=peak for the most distinct mountains in the district" />
		<tag k="name" v="Tjønnglupegga" />
		<tag k="natural" v="hill" />
		<tag k="place" v="locality" />
		<tag k="ssr:stedsnr" v="374547" />
	</node>
	<node lat="62.732475826395245" lon="9.736352001617579" id="-32564">
		<tag k="fixme" v="consider natural=peak for the most distinct mountains in the district" />
		<tag k="name" v="Trollhøtta" />
		<tag k="natural" v="hill" />
		<tag k="place" v="locality" />
		<tag k="ssr:stedsnr" v="375333" />
	</node>
	<node lat="62.508883335255284" lon="9.746663892937466" id="-32565">
		<tag k="fixme" v="consider natural=peak for the most distinct mountains in the district" />
		<tag k="name" v="Kringsollen" />
		<tag k="natural" v="hill" />
		<tag k="place" v="locality" />
		<tag k="ssr:stedsnr" v="375386" />
	</node>
	<node lat="62.634738889121785" lon="9.939194446894847" id="-32572">
		<tag k="alt_name" v="Svarthatten" />
		<tag k="fixme" v="consider natural=peak for the most distinct mountains in the district" />
		<tag k="name" v="Svarthattan" />
		<tag k="natural" v="hill" />
		<tag k="place" v="locality" />
		<tag k="ssr:stedsnr" v="375436" />
	</node>
	<node lat="62.476100002767026" lon="9.74226111256522" id="-32575">
		<tag k="name" v="Lertjønnskardet" />
		<tag k="natural" v="valley" />
		<tag k="place" v="locality" />
		<tag k="ssr:stedsnr" v="375486" />
	</node>
	<node lat="62.666375000391106" lon="9.358986118116459" id="-32578">
		<tag k="fixme" v="consider natural=peak for the most distinct mountains in the district" />
		<tag k="name" v="Storbekkhøa" />
		<tag k="natural" v="hill" />
		<tag k="place" v="locality" />
		<tag k="ssr:stedsnr" v="375627" />
	</node>
	<node lat="62.64811388506757" lon="9.399088885294944" id="-32586">
		<tag k="fixme" v="consider natural=peak for the most distinct mountains in the district" />
		<tag k="name" v="Storhornet" />
		<tag k="natural" v="hill" />
		<tag k="place" v="locality" />
		<tag k="ssr:stedsnr" v="375682" />
	</node>
	<node lat="62.32626110976256" lon="9.761258341289997" id="-32587">
		<tag k="name" v="Breidslågån" />
		<tag k="natural" v="valley" />
		<tag k="old_name" v="Breidslågå" />
		<tag k="place" v="locality" />
		<tag k="ssr:stedsnr" v="375687" />
	</node>
	<node lat="62.662213891879404" lon="9.189566660133243" id="-32591">
		<tag k="name" v="Ångardslia" />
		<tag k="natural" v="slope" />
		<tag k="place" v="locality" />
		<tag k="ssr:stedsnr" v="392207" />
	</node>
	<node lat="62.6640277796871" lon="9.269827779113799" id="-32592">
		<tag k="name" v="Landlaupa" />
		<tag k="natural" v="slope" />
		<tag k="place" v="locality" />
		<tag k="ssr:stedsnr" v="392192" />
	</node>
	<node lat="62.6564194463368" lon="9.27424444231593" id="-32593">
		<tag k="name" v="Dalsøyan" />
		<tag k="place" v="locality" />
		<tag k="ssr:stedsnr" v="392201" />
	</node>
	<node lat="62.62844167107165" lon="9.282747218197906" id="-32605">
		<tag k="alt_name" v="Gjerdlia" />
		<tag k="name" v="Gjerdelia" />
		<tag k="natural" v="slope" />
		<tag k="place" v="locality" />
		<tag k="ssr:stedsnr" v="392841" />
	</node>
	<node lat="62.7267166676421" lon="9.551608337266206" id="-32613">
		<tag k="name" v="Skarbakkan" />
		<tag k="natural" v="slope" />
		<tag k="place" v="locality" />
		<tag k="ssr:stedsnr" v="406041" />
	</node>
	<node lat="62.56168333548733" lon="9.340536119357987" id="-32625">
		<tag k="name" v="Jamtsæterlia" />
		<tag k="natural" v="slope" />
		<tag k="place" v="locality" />
		<tag k="ssr:stedsnr" v="408413" />
	</node>
	<node lat="62.556472220377586" lon="9.406911103944006" id="-32631">
		<tag k="name" v="Landlaupet" />
		<tag k="natural" v="slope" />
		<tag k="place" v="locality" />
		<tag k="ssr:stedsnr" v="408392" />
	</node>
	<node lat="62.378788885977876" lon="9.568591675131067" id="-32637">
		<tag k="name" v="Stølådalen" />
		<tag k="natural" v="valley" />
		<tag k="place" v="locality" />
		<tag k="ssr:stedsnr" v="435602" />
	</node>
	<node lat="62.359852776911765" lon="9.32423054625485" id="-32638">
		<tag k="fixme" v="consider natural=peak for the most distinct mountains in the district" />
		<tag k="loc_name" v="Skarkollen" />
		<tag k="name" v="Skardkollen" />
		<tag k="natural" v="hill" />
		<tag k="place" v="locality" />
		<tag k="ssr:stedsnr" v="435609" />
	</node>
	<node lat="62.455474999696364" lon="9.498374993255984" id="-32639">
		<tag k="name" v="Gravhøa" />
		<tag k="natural" v="hill" />
		<tag k="place" v="locality" />
		<tag k="ssr:stedsnr" v="435619" />
	</node>
	<node lat="62.495911115378775" lon="9.290466668846339" id="-32642">
		<tag k="name" v="Håmmårdalen" />
		<tag k="natural" v="valley" />
		<tag k="place" v="locality" />
		<tag k="ssr:stedsnr" v="436409" />
	</node>
	<node lat="62.37008888542254" lon="9.10194999832929" id="-32651">
		<tag k="name" v="Grytholet" />
		<tag k="natural" v="valley" />
		<tag k="place" v="locality" />
		<tag k="ssr:stedsnr" v="436456" />
	</node>
	<node lat="62.69431389335592" lon="9.506488890982833" id="-32652">
		<tag k="fixme" v="consider natural=peak for the most distinct mountains in the district" />
		<tag k="name" v="Bårdsfjellet" />
		<tag k="natural" v="hill" />
		<tag k="place" v="locality" />
		<tag k="ssr:stedsnr" v="436614" />
	</node>
	<node lat="62.678316662641535" lon="9.709416665552451" id="-32654">
		<tag k="name" v="Fagersjølia" />
		<tag k="natural" v="slope" />
		<tag k="place" v="locality" />
		<tag k="ssr:stedsnr" v="436617" />
	</node>
	<node lat="62.3303999966706" lon="9.781397225221868" id="-32658">
		<tag k="name" v="Steindalen" />
		<tag k="natural" v="valley" />
		<tag k="place" v="locality" />
		<tag k="ssr:stedsnr" v="436703" />
	</node>
	<node lat="62.59448888957169" lon="9.14611667605031" id="-32661">
		<tag k="name" v="Kviturdlia" />
		<tag k="natural" v="slope" />
		<tag k="place" v="locality" />
		<tag k="ssr:stedsnr" v="436758" />
	</node>
	<node lat="62.72246666300929" lon="9.26568055389567" id="-32664">
		<tag k="fixme" v="consider natural=peak for the most distinct mountains in the district" />
		<tag k="name" v="Midtre Gjevillvasskamben" />
		<tag k="natural" v="hill" />
		<tag k="place" v="locality" />
		<tag k="ssr:stedsnr" v="436863" />
	</node>
	<node lat="62.749533335155846" lon="9.464022222147564" id="-32665">
		<tag k="name" v="Høghøa" />
		<tag k="natural" v="hill" />
		<tag k="place" v="locality" />
		<tag k="ssr:stedsnr" v="436864" />
	</node>
	<node lat="62.58737222580389" lon="9.342719437740257" id="-32668">
		<tag k="name" v="Kåsgrendbakken" />
		<tag k="natural" v="slope" />
		<tag k="place" v="locality" />
		<tag k="ssr:stedsnr" v="452870" />
	</node>
	<node lat="62.699511113916394" lon="9.087175009037507" id="-32669">
		<tag k="name" v="Bøaløkkjberget" />
		<tag k="natural" v="hill" />
		<tag k="place" v="locality" />
		<tag k="ssr:stedsnr" v="453210" />
	</node>
	<node lat="62.664813888224124" lon="9.170769437983695" id="-32671">
		<tag k="fixme" v="consider natural=peak for the most distinct mountains in the district" />
		<tag k="name" v="Orhamran" />
		<tag k="natural" v="hill" />
		<tag k="place" v="locality" />
		<tag k="ssr:stedsnr" v="453217" />
	</node>
	<node lat="62.51172777527295" lon="9.625072222528647" id="-32680">
		<tag k="name" v="Rishaugen" />
		<tag k="natural" v="hill" />
		<tag k="place" v="locality" />
		<tag k="ssr:stedsnr" v="453865" />
	</node>
	<node lat="62.34208888605858" lon="9.607913880324496" id="-32686">
		<tag k="name" v="Nystuggudalen" />
		<tag k="natural" v="valley" />
		<tag k="place" v="locality" />
		<tag k="ssr:stedsnr" v="468017" />
	</node>
	<node lat="62.63532500451102" lon="9.5576527781407" id="-32689">
		<tag k="name" v="Løkkjberget" />
		<tag k="natural" v="hill" />
		<tag k="place" v="locality" />
		<tag k="ssr:stedsnr" v="468069" />
	</node>
	<node lat="62.72136944718628" lon="9.738766662896682" id="-32690">
		<tag k="name" v="Hestdalen" />
		<tag k="natural" v="valley" />
		<tag k="place" v="locality" />
		<tag k="ssr:stedsnr" v="468113" />
	</node>
	<node lat="62.33341944666369" lon="9.621369453113184" id="-32691">
		<tag k="name" v="Skåkbakken" />
		<tag k="natural" v="slope" />
		<tag k="place" v="locality" />
		<tag k="ssr:stedsnr" v="468115" />
	</node>
	<node lat="62.300216669484634" lon="9.594555556689016" id="-32692">
		<tag k="name" v="Geitmannmorka" />
		<tag k="natural" v="slope" />
		<tag k="place" v="locality" />
		<tag k="ssr:stedsnr" v="468121" />
	</node>
	<node lat="62.57936389076575" lon="9.514816672761464" id="-32694">
		<tag k="name" v="Nysæterlia" />
		<tag k="natural" v="slope" />
		<tag k="place" v="locality" />
		<tag k="ssr:stedsnr" v="468266" />
	</node>
	<node lat="62.6462361125821" lon="9.793625004690888" id="-32695">
		<tag k="name" v="Magnildhaug" />
		<tag k="natural" v="hill" />
		<tag k="place" v="locality" />
		<tag k="ssr:stedsnr" v="468427" />
	</node>
	<node lat="62.63961110900477" lon="9.948227778212738" id="-32697">
		<tag k="fixme" v="consider natural=peak for the most distinct mountains in the district" />
		<tag k="name" v="Hattan" />
		<tag k="natural" v="hill" />
		<tag k="place" v="locality" />
		<tag k="ssr:stedsnr" v="468463" />
	</node>
	<node lat="62.72764444442179" lon="9.420491671522534" id="-32699">
		<tag k="name" v="Berga" />
		<tag k="natural" v="hill" />
		<tag k="place" v="locality" />
		<tag k="ssr:stedsnr" v="468368" />
	</node>
	<node lat="62.47874722579689" lon="9.5848472229518" id="-32706">
		<tag k="name" v="Englia" />
		<tag k="natural" v="slope" />
		<tag k="place" v="locality" />
		<tag k="ssr:stedsnr" v="678446" />
	</node>
	<node lat="62.37687777449876" lon="9.427380558062508" id="-32712">
		<tag k="fixme" v="consider natural=peak for the most distinct mountains in the district" />
		<tag k="name" v="Tjønngluptangen" />
		<tag k="natural" v="hill" />
		<tag k="place" v="locality" />
		<tag k="ssr:stedsnr" v="678565" />
	</node>
	<node lat="62.38539721865784" lon="9.465847230873331" id="-32714">
		<tag k="fixme" v="consider natural=peak for the most distinct mountains in the district" />
		<tag k="name" v="Tythøa" />
		<tag k="natural" v="hill" />
		<tag k="place" v="locality" />
		<tag k="ssr:stedsnr" v="678571" />
	</node>
	<node lat="62.715783335754324" lon="9.087747218843024" id="-32715">
		<tag k="name" v="Storbekkdalen" />
		<tag k="natural" v="valley" />
		<tag k="place" v="locality" />
		<tag k="ssr:stedsnr" v="678860" />
	</node>
	<node lat="62.57592777919981" lon="9.732991667695536" id="-32720">
		<tag k="alt_name" v="Våttåhaugan" />
		<tag k="name" v="Våtåhaugan" />
		<tag k="natural" v="hill" />
		<tag k="place" v="locality" />
		<tag k="ssr:stedsnr" v="679416" />
	</node>
	<node lat="62.497327782001946" lon="9.857399991358976" id="-32723">
		<tag k="name" v="Glupen" />
		<tag k="natural" v="valley" />
		<tag k="place" v="locality" />
		<tag k="ssr:stedsnr" v="679479" />
	</node>
	<node lat="62.491469447029516" lon="9.963958327337162" id="-32725">
		<tag k="fixme" v="consider natural=peak for the most distinct mountains in the district" />
		<tag k="name" v="Fosshøa" />
		<tag k="natural" v="hill" />
		<tag k="place" v="locality" />
		<tag k="ssr:stedsnr" v="679484" />
	</node>
	<node lat="62.56172221921968" lon="9.542127777981712" id="-32726">
		<tag k="name" v="Skardalslia" />
		<tag k="natural" v="slope" />
		<tag k="place" v="locality" />
		<tag k="ssr:stedsnr" v="679522" />
	</node>
	<node lat="62.54892499992326" lon="9.57407500089922" id="-32730">
		<tag k="fixme" v="consider natural=peak for the most distinct mountains in the district" />
		<tag k="name" v="Nonshaugen" />
		<tag k="natural" v="hill" />
		<tag k="place" v="locality" />
		<tag k="ssr:stedsnr" v="679543" />
	</node>
	<node lat="62.616361114443606" lon="9.90294999645746" id="-32732">
		<tag k="fixme" v="consider natural=peak for the most distinct mountains in the district" />
		<tag k="name" v="Nørdre Gråhøa" />
		<tag k="natural" v="hill" />
		<tag k="place" v="locality" />
		<tag k="ssr:stedsnr" v="679442" />
	</node>
	<node lat="62.53325277539431" lon="9.693772213290652" id="-32735">
		<tag k="fixme" v="consider natural=peak for the most distinct mountains in the district" />
		<tag k="name" v="Bekkfonnhøa" />
		<tag k="natural" v="hill" />
		<tag k="place" v="locality" />
		<tag k="ssr:stedsnr" v="679559" />
	</node>
	<node lat="62.63681388911564" lon="9.70424999157524" id="-32739">
		<tag k="fixme" v="consider natural=peak for the most distinct mountains in the district" />
		<tag k="name" v="Auran" />
		<tag k="natural" v="hill" />
		<tag k="place" v="locality" />
		<tag k="ssr:stedsnr" v="679674" />
	</node>
	<node lat="62.63083055617938" lon="9.701105554644785" id="-32743">
		<tag k="fixme" v="consider natural=peak for the most distinct mountains in the district" />
		<tag k="name" v="Aurhøa" />
		<tag k="natural" v="hill" />
		<tag k="place" v="locality" />
		<tag k="ssr:stedsnr" v="679698" />
	</node>
	<node lat="62.73801666467304" lon="9.511580556144557" id="-32745">
		<tag k="name" v="Vardhøa" />
		<tag k="natural" v="hill" />
		<tag k="place" v="locality" />
		<tag k="ssr:stedsnr" v="679834" />
	</node>
	<node lat="62.81602810786319" lon="9.421590508475182" id="-32748">
		<tag k="fixme" v="multiple name tags, choose one and add the other to alt_name; consider natural=peak for the most distinct mountains in the district" />
		<tag k="name" v="Svarthøtta;Salåthøa" />
		<tag k="natural" v="hill" />
		<tag k="place" v="locality" />
		<tag k="ssr:stedsnr" v="679798" />
	</node>
	<node lat="62.77566944878189" lon="9.562452769925494" id="-32751">
		<tag k="name" v="Ørnkjellhaugan" />
		<tag k="natural" v="hill" />
		<tag k="old_name" v="Ørnkjellhaugen" />
		<tag k="place" v="locality" />
		<tag k="ssr:stedsnr" v="680884" />
	</node>
	<node lat="62.32614722292893" lon="9.528308331332218" id="-32759">
		<tag k="fixme" v="consider natural=peak for the most distinct mountains in the district" />
		<tag k="name" v="Vesl-Nystugguhøa" />
		<tag k="natural" v="hill" />
		<tag k="place" v="locality" />
		<tag k="ssr:stedsnr" v="496566" />
	</node>
	<node lat="62.47032777942533" lon="9.825447224055287" id="-32764">
		<tag k="name" v="Grønlia" />
		<tag k="natural" v="slope" />
		<tag k="place" v="locality" />
		<tag k="ssr:stedsnr" v="497504" />
	</node>
	<node lat="62.48760277374821" lon="9.760124996088583" id="-32766">
		<tag k="fixme" v="consider natural=peak for the most distinct mountains in the district" />
		<tag k="name" v="Brattfonnhøa" />
		<tag k="natural" v="hill" />
		<tag k="place" v="locality" />
		<tag k="ssr:stedsnr" v="497496" />
	</node>
	<node lat="62.62981666729123" lon="9.524480563020605" id="-32771">
		<tag k="fixme" v="consider natural=peak for the most distinct mountains in the district" />
		<tag k="name" v="Dørreshovden" />
		<tag k="natural" v="hill" />
		<tag k="place" v="locality" />
		<tag k="ssr:stedsnr" v="497706" />
	</node>
	<node lat="62.72760555366258" lon="9.108400005768537" id="-32781">
		<tag k="fixme" v="consider natural=peak for the most distinct mountains in the district" />
		<tag k="name" v="Halsbekkhøa" />
		<tag k="natural" v="hill" />
		<tag k="place" v="locality" />
		<tag k="ssr:stedsnr" v="497893" />
	</node>
	<node lat="62.597169443437146" lon="9.614666674238459" id="-32786">
		<tag k="name" v="Vikamoen" />
		<tag k="place" v="locality" />
		<tag k="ssr:stedsnr" v="513567" />
	</node>
	<node lat="62.61152777410212" lon="9.317200005385617" id="-32793">
		<tag k="name" v="Støllia" />
		<tag k="natural" v="slope" />
		<tag k="place" v="locality" />
		<tag k="ssr:stedsnr" v="513811" />
	</node>
	<node lat="62.48352222322683" lon="9.57331388699261" id="-32797">
		<tag k="name" v="Vammermoen" />
		<tag k="place" v="locality" />
		<tag k="ssr:stedsnr" v="513716" />
	</node>
	<node lat="62.57365278083213" lon="9.358405555655644" id="-32799">
		<tag k="name" v="Båtlandflata" />
		<tag k="place" v="locality" />
		<tag k="ssr:stedsnr" v="513908" />
	</node>
	<node lat="62.65755832988808" lon="9.820994449156728" id="-32810">
		<tag k="name" v="Åkerhaugen" />
		<tag k="natural" v="hill" />
		<tag k="place" v="locality" />
		<tag k="ssr:stedsnr" v="529104" />
	</node>
	<node lat="62.5789555596467" lon="9.47255555092758" id="-32813">
		<tag k="name" v="Morkalia" />
		<tag k="natural" v="slope" />
		<tag k="place" v="locality" />
		<tag k="ssr:stedsnr" v="529305" />
	</node>
	<node lat="62.63210277825676" lon="9.495627779039083" id="-32814">
		<tag k="name" v="Kvamman" />
		<tag k="natural" v="slope" />
		<tag k="place" v="locality" />
		<tag k="ssr:stedsnr" v="529426" />
	</node>
	<node lat="62.637783329237045" lon="9.831544445377173" id="-32817">
		<tag k="name" v="Liaslættet" />
		<tag k="place" v="locality" />
		<tag k="ssr:stedsnr" v="529471" />
	</node>
	<node lat="62.62628889092731" lon="9.903255553382786" id="-32818">
		<tag k="name" v="Ørnkjelldalen" />
		<tag k="natural" v="valley" />
		<tag k="place" v="locality" />
		<tag k="ssr:stedsnr" v="529472" />
	</node>
	<node lat="62.63141944539079" lon="9.93010554901881" id="-32820">
		<tag k="name" v="Svengin" />
		<tag k="natural" v="slope" />
		<tag k="place" v="locality" />
		<tag k="ssr:stedsnr" v="529485" />
	</node>
	<node lat="62.63725833180349" lon="9.908836104552709" id="-32821">
		<tag k="name" v="Synder Lia" />
		<tag k="natural" v="slope" />
		<tag k="place" v="locality" />
		<tag k="ssr:stedsnr" v="529486" />
	</node>
	<node lat="62.6917472180834" lon="9.300044448265147" id="-32824">
		<tag k="name" v="Lægerlia" />
		<tag k="natural" v="slope" />
		<tag k="place" v="locality" />
		<tag k="ssr:stedsnr" v="529395" />
	</node>
	<node lat="62.35169166944915" lon="9.541099997919385" id="-32828">
		<tag k="name" v="Kaldvelldalen" />
		<tag k="natural" v="valley" />
		<tag k="place" v="locality" />
		<tag k="ssr:stedsnr" v="556620" />
	</node>
	<node lat="62.34792222440114" lon="9.488205547676817" id="-32830">
		<tag k="name" v="Kaldvellglupen" />
		<tag k="natural" v="valley" />
		<tag k="place" v="locality" />
		<tag k="ssr:stedsnr" v="556574" />
	</node>
	<node lat="62.34234722477424" lon="9.406938880936139" id="-32831">
		<tag k="name" v="Styggedalen" />
		<tag k="natural" v="valley" />
		<tag k="place" v="locality" />
		<tag k="ssr:stedsnr" v="556575" />
	</node>
	<node lat="62.55028611194933" lon="9.313252776693275" id="-32835">
		<tag k="fixme" v="consider natural=peak for the most distinct mountains in the district" />
		<tag k="name" v="Kringluthøa" />
		<tag k="natural" v="hill" />
		<tag k="place" v="locality" />
		<tag k="ssr:stedsnr" v="557556" />
	</node>
	<node lat="62.61006666977484" lon="9.56761389189549" id="-32842">
		<tag k="name" v="Lokkålia" />
		<tag k="natural" v="slope" />
		<tag k="place" v="locality" />
		<tag k="ssr:stedsnr" v="557721" />
	</node>
	<node lat="62.30019444645518" lon="9.765941669455728" id="-32844">
		<tag k="name" v="Storkvelva" />
		<tag k="natural" v="valley" />
		<tag k="place" v="locality" />
		<tag k="ssr:stedsnr" v="557617" />
	</node>
	<node lat="62.64042499884114" lon="9.605099992995855" id="-32847">
		<tag k="name" v="Kornfonna" />
		<tag k="natural" v="hill" />
		<tag k="place" v="locality" />
		<tag k="ssr:stedsnr" v="557656" />
	</node>
	<node lat="62.68146944651624" lon="9.103386101570011" id="-32851">
		<tag k="name" v="Storlidalen" />
		<tag k="natural" v="valley" />
		<tag k="place" v="locality" />
		<tag k="ssr:stedsnr" v="557904" />
	</node>
	<node lat="62.47785555839941" lon="9.753088891979898" id="-32856">
		<tag k="name" v="Søraustfjella" />
		<tag k="natural" v="mountain_range" />
		<tag k="ssr:stedsnr" v="692325" />
	</node>
	<node lat="62.72166944732606" lon="9.262219442493858" id="-32858">
		<tag k="fixme" v="consider natural=peak for the most distinct mountains in the district" />
		<tag k="name" v="Gjevillvasskamban" />
		<tag k="natural" v="hill" />
		<tag k="place" v="locality" />
		<tag k="ssr:stedsnr" v="693759" />
	</node>
	<node lat="62.668297218633384" lon="9.278716669796722" id="-32859">
		<tag k="fixme" v="consider natural=peak for the most distinct mountains in the district" />
		<tag k="name" v="Snøskredhamran" />
		<tag k="natural" v="hill" />
		<tag k="place" v="locality" />
		<tag k="ssr:stedsnr" v="573160" />
	</node>
	<node lat="62.654338888547095" lon="9.888666668986595" id="-32864">
		<tag k="name" v="Vålån" />
		<tag k="natural" v="slope" />
		<tag k="place" v="locality" />
		<tag k="ssr:stedsnr" v="574698" />
	</node>
	<node lat="62.639202777949116" lon="9.642149998712592" id="-32869">
		<tag k="fixme" v="consider natural=peak for the most distinct mountains in the district" />
		<tag k="name" v="Finnsnipa" />
		<tag k="natural" v="hill" />
		<tag k="place" v="locality" />
		<tag k="ssr:stedsnr" v="574795" />
	</node>
	<node lat="62.68817222434137" lon="9.057188892718232" id="-32871">
		<tag k="name" v="Kjortbekklia" />
		<tag k="natural" v="slope" />
		<tag k="place" v="locality" />
		<tag k="ssr:stedsnr" v="695135" />
	</node>
	<node lat="62.514413885668525" lon="9.5735555486214" id="-32876">
		<tag k="name" v="Gottemslia" />
		<tag k="natural" v="slope" />
		<tag k="place" v="locality" />
		<tag k="ssr:stedsnr" v="695698" />
	</node>
	<node lat="62.70003333762628" lon="9.097658328523034" id="-32886">
		<tag k="name" v="Storlilia" />
		<tag k="natural" v="slope" />
		<tag k="place" v="locality" />
		<tag k="ssr:stedsnr" v="696150" />
	</node>
	<node lat="62.6350555592819" lon="9.675038890125288" id="-32893">
		<tag k="fixme" v="consider natural=peak for the most distinct mountains in the district" />
		<tag k="name" v="Skærpiken" />
		<tag k="natural" v="hill" />
		<tag k="place" v="locality" />
		<tag k="ssr:stedsnr" v="696694" />
	</node>
	<node lat="62.483627776164596" lon="9.649477771433958" id="-32895">
		<tag k="name" v="Storhaugen" />
		<tag k="natural" v="hill" />
		<tag k="place" v="locality" />
		<tag k="ssr:stedsnr" v="589007" />
	</node>
	<node lat="62.58138333382075" lon="9.576669447001567" id="-32897">
		<tag k="name" v="Ytter Skardet" />
		<tag k="natural" v="valley" />
		<tag k="place" v="locality" />
		<tag k="ssr:stedsnr" v="589014" />
	</node>
	<node lat="62.633805552308516" lon="9.576166657747088" id="-32902">
		<tag k="name" v="Stenseslia" />
		<tag k="natural" v="slope" />
		<tag k="place" v="locality" />
		<tag k="ssr:stedsnr" v="589073" />
	</node>
	<node lat="62.63202222538969" lon="9.508650006006878" id="-32905">
		<tag k="name" v="Brattbakken" />
		<tag k="natural" v="slope" />
		<tag k="place" v="locality" />
		<tag k="ssr:stedsnr" v="589314" />
	</node>
	<node lat="62.62806111023578" lon="9.513866658233763" id="-32906">
		<tag k="name" v="Langberga" />
		<tag k="natural" v="hill" />
		<tag k="place" v="locality" />
		<tag k="ssr:stedsnr" v="589317" />
	</node>
	<node lat="62.663944445181585" lon="9.521708326369993" id="-32908">
		<tag k="name" v="Resset" />
		<tag k="place" v="locality" />
		<tag k="ssr:stedsnr" v="589325" />
	</node>
	<node lat="62.560133330930896" lon="9.361250007810842" id="-32910">
		<tag k="name" v="Strandlia" />
		<tag k="natural" v="slope" />
		<tag k="place" v="locality" />
		<tag k="ssr:stedsnr" v="589368" />
	</node>
	<node lat="62.67943889070534" lon="9.76773889235841" id="-32911">
		<tag k="name" v="Kvelva" />
		<tag k="natural" v="slope" />
		<tag k="place" v="locality" />
		<tag k="ssr:stedsnr" v="589456" />
	</node>
	<node lat="62.577299995876025" lon="9.83314444201816" id="-32913">
		<tag k="name" v="Staurhøa" />
		<tag k="natural" v="hill" />
		<tag k="place" v="locality" />
		<tag k="ssr:stedsnr" v="589474" />
	</node>
	<node lat="62.45986111463484" lon="9.44233056358283" id="-32918">
		<tag k="name" v="Åmotsdalen" />
		<tag k="natural" v="valley" />
		<tag k="place" v="locality" />
		<tag k="ssr:stedsnr" v="617605" />
	</node>
	<node lat="62.50695000261884" lon="9.30163889765371" id="-32920">
		<tag k="fixme" v="consider natural=peak for the most distinct mountains in the district" />
		<tag k="name" v="Fiskbekkfluren" />
		<tag k="natural" v="hill" />
		<tag k="place" v="locality" />
		<tag k="ssr:stedsnr" v="617381" />
	</node>
	<node lat="62.34744444846662" lon="9.239608335776463" id="-32922">
		<tag k="name" v="Larstelet" />
		<tag k="natural" v="valley" />
		<tag k="old_name" v="Larstælet" />
		<tag k="place" v="locality" />
		<tag k="ssr:stedsnr" v="617595" />
	</node>
	<node lat="62.464408332249896" lon="9.634802786702219" id="-32924">
		<tag k="fixme" v="consider natural=peak for the most distinct mountains in the district" />
		<tag k="name" v="Stallhøa" />
		<tag k="natural" v="hill" />
		<tag k="place" v="locality" />
		<tag k="ssr:stedsnr" v="617601" />
	</node>
	<node lat="62.520088884969745" lon="9.351980563023938" id="-32927">
		<tag k="fixme" v="consider natural=peak for the most distinct mountains in the district" />
		<tag k="name" v="Pershøa" />
		<tag k="natural" v="hill" />
		<tag k="place" v="locality" />
		<tag k="ssr:stedsnr" v="618606" />
	</node>
	<node lat="62.3123583333661" lon="9.673749992488002" id="-32933">
		<tag k="fixme" v="consider natural=peak for the most distinct mountains in the district" />
		<tag k="name" v="Midtre Knutshøa" />
		<tag k="natural" v="hill" />
		<tag k="place" v="locality" />
		<tag k="ssr:stedsnr" v="618543" />
	</node>
	<node lat="62.323508331681204" lon="9.499625002973179" id="-32934">
		<tag k="name" v="Stroplsjødalen" />
		<tag k="natural" v="valley" />
		<tag k="place" v="locality" />
		<tag k="ssr:stedsnr" v="618545" />
	</node>
	<node lat="62.53740000118686" lon="9.302252770040836" id="-32935">
		<tag k="fixme" v="consider natural=peak for the most distinct mountains in the district" />
		<tag k="name" v="Storhaugfjellet" />
		<tag k="natural" v="hill" />
		<tag k="place" v="locality" />
		<tag k="ssr:stedsnr" v="618581" />
	</node>
	<node lat="62.604711107388795" lon="9.21158055141085" id="-32946">
		<tag k="fixme" v="consider natural=peak for the most distinct mountains in the district" />
		<tag k="name" v="Nyhusflatfjellet" />
		<tag k="natural" v="hill" />
		<tag k="place" v="locality" />
		<tag k="ssr:stedsnr" v="618973" />
	</node>
	<node lat="62.60920277837969" lon="9.167274992245586" id="-32947">
		<tag k="fixme" v="consider natural=peak for the most distinct mountains in the district" />
		<tag k="name" v="Roksdalskammen" />
		<tag k="natural" v="hill" />
		<tag k="place" v="locality" />
		<tag k="ssr:stedsnr" v="618977" />
	</node>
	<node lat="62.617088893249516" lon="9.164508331952604" id="-32948">
		<tag k="name" v="Roksdalskleva" />
		<tag k="natural" v="valley" />
		<tag k="place" v="locality" />
		<tag k="ssr:stedsnr" v="618987" />
	</node>
	<node lat="62.60765555434892" lon="9.749066670474255" id="-32949">
		<tag k="name" v="Revmoen" />
		<tag k="place" v="locality" />
		<tag k="ssr:stedsnr" v="634427" />
	</node>
	<node lat="62.50790555204409" lon="9.56957500836627" id="-32951">
		<tag k="name" v="Skreali" />
		<tag k="natural" v="slope" />
		<tag k="place" v="locality" />
		<tag k="ssr:stedsnr" v="634731" />
	</node>
	<node lat="62.63425555438943" lon="9.66257777856538" id="-32952">
		<tag k="name" v="Skærbekkdalen" />
		<tag k="natural" v="valley" />
		<tag k="place" v="locality" />
		<tag k="ssr:stedsnr" v="634734" />
	</node>
	<node lat="62.60945277925521" lon="9.293080565209156" id="-32954">
		<tag k="name" v="Setlia" />
		<tag k="natural" v="slope" />
		<tag k="place" v="locality" />
		<tag k="ssr:stedsnr" v="634827" />
	</node>
	<node lat="62.64530555739972" lon="9.305638889430092" id="-32956">
		<tag k="name" v="Løkkjhola" />
		<tag k="natural" v="slope" />
		<tag k="place" v="locality" />
		<tag k="ssr:stedsnr" v="634833" />
	</node>
	<node lat="62.57176388938666" lon="9.370697225217446" id="-32960">
		<tag k="name" v="Annhaugen" />
		<tag k="natural" v="hill" />
		<tag k="place" v="locality" />
		<tag k="ssr:stedsnr" v="634908" />
	</node>
	<node lat="62.34354166265545" lon="9.620166666986018" id="-32969">
		<tag k="name" v="Trollkjerka" />
		<tag k="natural" v="hill" />
		<tag k="place" v="locality" />
		<tag k="ssr:stedsnr" v="650107" />
	</node>
	<node lat="62.32163888447883" lon="9.62048888578713" id="-32970">
		<tag k="name" v="Holet" />
		<tag k="natural" v="valley" />
		<tag k="place" v="locality" />
		<tag k="ssr:stedsnr" v="650110" />
	</node>
	<node lat="62.733752781167134" lon="9.54001945155984" id="-32971">
		<tag k="name" v="Trengsvangen" />
		<tag k="place" v="locality" />
		<tag k="ssr:stedsnr" v="650304" />
	</node>
	<node lat="62.56686388589797" lon="9.27462222059015" id="-32975">
		<tag k="name" v="Bekkalia" />
		<tag k="natural" v="slope" />
		<tag k="place" v="locality" />
		<tag k="ssr:stedsnr" v="650340" />
	</node>
	<node lat="62.64829722158626" lon="9.500422224329835" id="-32980">
		<tag k="name" v="Naustdalen" />
		<tag k="natural" v="valley" />
		<tag k="place" v="locality" />
		<tag k="ssr:stedsnr" v="650387" />
	</node>
	<node lat="62.434655557279406" lon="9.69586388626174" id="-32994">
		<tag k="name" v="Tronget" />
		<tag k="natural" v="valley" />
		<tag k="place" v="locality" />
		<tag k="ssr:stedsnr" v="678611" />
	</node>
	<node lat="62.32063333145606" lon="9.747005547791519" id="-33004">
		<tag k="name" v="Breidslågåtangen" />
		<tag k="natural" v="hill" />
		<tag k="place" v="locality" />
		<tag k="ssr:stedsnr" v="679635" />
	</node>
	<node lat="62.28908888798868" lon="9.730533328960403" id="-33008">
		<tag k="name" v="Rolegheita" />
		<tag k="natural" v="valley" />
		<tag k="old_name" v="Roligheita" />
		<tag k="place" v="locality" />
		<tag k="ssr:stedsnr" v="679647" />
	</node>
	<node lat="62.60843055791966" lon="9.24240556517653" id="-33016">
		<tag k="fixme" v="consider natural=peak for the most distinct mountains in the district" />
		<tag k="name" v="Sæthøa" />
		<tag k="natural" v="hill" />
		<tag k="place" v="locality" />
		<tag k="ssr:stedsnr" v="679710" />
	</node>
	<node lat="62.599052780160065" lon="9.53751389068027" id="-33029">
		<tag k="name" v="Holsmoen" />
		<tag k="place" v="locality" />
		<tag k="ssr:stedsnr" v="893292" />
	</node>
	<node lat="62.57736667009509" lon="9.194069451604424" id="-33030">
		<tag k="name" v="Storbrottin" />
		<tag k="natural" v="slope" />
		<tag k="place" v="locality" />
		<tag k="ssr:stedsnr" v="893340" />
	</node>
	<node lat="62.544536111100136" lon="9.359722216371836" id="-33034">
		<tag k="name" v="Ratkåsin" />
		<tag k="natural" v="slope" />
		<tag k="place" v="locality" />
		<tag k="ssr:stedsnr" v="893361" />
	</node>
	<node lat="62.54683611073577" lon="9.341102774545682" id="-33036">
		<tag k="fixme" v="consider natural=peak for the most distinct mountains in the district" />
		<tag k="name" v="Holsfluren" />
		<tag k="natural" v="hill" />
		<tag k="place" v="locality" />
		<tag k="ssr:stedsnr" v="893375" />
	</node>
	<node lat="62.70080555157873" lon="9.22175000876463" id="-33038">
		<tag k="name" v="Storbuktlia" />
		<tag k="natural" v="slope" />
		<tag k="place" v="locality" />
		<tag k="ssr:stedsnr" v="893382" />
	</node>
	<node lat="62.682063890342334" lon="9.799250007208176" id="-33043">
		<tag k="fixme" v="consider natural=peak for the most distinct mountains in the district" />
		<tag k="name" v="Kringlåthøa" />
		<tag k="natural" v="hill" />
		<tag k="place" v="locality" />
		<tag k="ssr:stedsnr" v="893432" />
	</node>
	<node lat="62.69455277836722" lon="9.81887500334261" id="-33044">
		<tag k="name" v="Lunningshaugen" />
		<tag k="natural" v="hill" />
		<tag k="place" v="locality" />
		<tag k="ssr:stedsnr" v="893434" />
	</node>
	<node lat="62.5969027734499" lon="9.854277772720414" id="-33047">
		<tag k="name" v="Grubbflatin" />
		<tag k="place" v="locality" />
		<tag k="ssr:stedsnr" v="893481" />
	</node>
	<node lat="62.58579166646694" lon="9.642830549614292" id="-33052">
		<tag k="name" v="Steggelbakken" />
		<tag k="natural" v="slope" />
		<tag k="place" v="locality" />
		<tag k="ssr:stedsnr" v="695533" />
	</node>
	<node lat="62.47869722441029" lon="9.654238886938424" id="-33073">
		<tag k="name" v="Brit-Olalia" />
		<tag k="natural" v="slope" />
		<tag k="place" v="locality" />
		<tag k="ssr:stedsnr" v="711006" />
	</node>
	<node lat="62.495027778145115" lon="9.64153611102047" id="-33074">
		<tag k="name" v="Limstenberga" />
		<tag k="natural" v="hill" />
		<tag k="place" v="locality" />
		<tag k="ssr:stedsnr" v="711013" />
	</node>
	<node lat="62.324622224806895" lon="9.621786104654067" id="-33077">
		<tag k="name" v="Gammelholbakkan" />
		<tag k="natural" v="slope" />
		<tag k="place" v="locality" />
		<tag k="ssr:stedsnr" v="711128" />
	</node>
	<node lat="62.52411110690711" lon="9.309197229935856" id="-33078">
		<tag k="name" v="Stenhaugen" />
		<tag k="natural" v="hill" />
		<tag k="place" v="locality" />
		<tag k="ssr:stedsnr" v="711275" />
	</node>
	<node lat="62.451852777614974" lon="9.5444249952866" id="-33080">
		<tag k="name" v="Golan" />
		<tag k="place" v="locality" />
		<tag k="ssr:stedsnr" v="711287" />
	</node>
	<node lat="62.54551389299543" lon="9.331038884558133" id="-33082">
		<tag k="fixme" v="consider natural=peak for the most distinct mountains in the district" />
		<tag k="name" v="Isholfluren" />
		<tag k="natural" v="hill" />
		<tag k="place" v="locality" />
		<tag k="ssr:stedsnr" v="711408" />
	</node>
	<node lat="62.535613890046854" lon="9.359749994345702" id="-33083">
		<tag k="name" v="Vakkerflaten" />
		<tag k="place" v="locality" />
		<tag k="ssr:stedsnr" v="711409" />
	</node>
	<node lat="62.57212221804295" lon="9.313588886473898" id="-33089">
		<tag k="name" v="Utemslia" />
		<tag k="natural" v="slope" />
		<tag k="place" v="locality" />
		<tag k="ssr:stedsnr" v="711376" />
	</node>
	<node lat="62.59731388482517" lon="9.932175006716736" id="-33092">
		<tag k="name" v="Aunvangan" />
		<tag k="natural" v="hill" />
		<tag k="place" v="locality" />
		<tag k="ssr:stedsnr" v="711474" />
	</node>
	<node lat="62.607377777729276" lon="9.886394437520797" id="-33094">
		<tag k="name" v="Gråkjerret" />
		<tag k="natural" v="hill" />
		<tag k="place" v="locality" />
		<tag k="ssr:stedsnr" v="711484" />
	</node>
	<node lat="62.65455833120516" lon="9.91125833848747" id="-33095">
		<tag k="name" v="Finnmoen" />
		<tag k="place" v="locality" />
		<tag k="ssr:stedsnr" v="711486" />
	</node>
	<node lat="62.6226527812664" lon="9.850633337272322" id="-33098">
		<tag k="name" v="Brenthaugan" />
		<tag k="natural" v="hill" />
		<tag k="place" v="locality" />
		<tag k="ssr:stedsnr" v="711492" />
	</node>
	<node lat="62.31478610705506" lon="9.832922216920194" id="-33103">
		<tag k="name" v="Legerflya" />
		<tag k="place" v="locality" />
		<tag k="ssr:stedsnr" v="726677" />
	</node>
	<node lat="62.45242221917119" lon="9.641002776415823" id="-33104">
		<tag k="fixme" v="consider natural=peak for the most distinct mountains in the district" />
		<tag k="name" v="Langfonnskarven" />
		<tag k="natural" v="hill" />
		<tag k="place" v="locality" />
		<tag k="ssr:stedsnr" v="738609" />
	</node>
	<node lat="62.41531110925095" lon="9.325377783485111" id="-33105">
		<tag k="alt_name" v="Åmotshytten, ytste;Ytste Åmotshytten" />
		<tag k="fixme" v="consider natural=peak for the most distinct mountains in the district" />
		<tag k="name" v="Ytter Åmotshytten" />
		<tag k="natural" v="hill" />
		<tag k="place" v="locality" />
		<tag k="ssr:stedsnr" v="738625" />
	</node>
	<node lat="62.69950278104039" lon="9.473199996645604" id="-33115">
		<tag k="name" v="Svadalen" />
		<tag k="natural" v="valley" />
		<tag k="place" v="locality" />
		<tag k="ssr:stedsnr" v="739651" />
	</node>
	<node lat="62.70172777489136" lon="9.652666661233548" id="-33117">
		<tag k="fixme" v="consider natural=peak for the most distinct mountains in the district" />
		<tag k="name" v="Brattskarven" />
		<tag k="natural" v="hill" />
		<tag k="place" v="locality" />
		<tag k="ssr:stedsnr" v="739654" />
	</node>
	<node lat="62.64556389115679" lon="9.352336118119927" id="-33130">
		<tag k="fixme" v="consider natural=peak for the most distinct mountains in the district" />
		<tag k="name" v="Åmellomfjellet" />
		<tag k="natural" v="hill" />
		<tag k="place" v="locality" />
		<tag k="ssr:stedsnr" v="740694" />
	</node>
	<node lat="62.62100277577462" lon="9.409266674118289" id="-33131">
		<tag k="name" v="Omnråa" />
		<tag k="natural" v="valley" />
		<tag k="place" v="locality" />
		<tag k="ssr:stedsnr" v="740700" />
	</node>
	<node lat="62.754180554566936" lon="9.332316665557814" id="-33132">
		<tag k="fixme" v="consider natural=peak for the most distinct mountains in the district" />
		<tag k="name" v="Blåhøa" />
		<tag k="natural" v="hill" />
		<tag k="place" v="locality" />
		<tag k="ssr:stedsnr" v="740841" />
	</node>
	<node lat="62.534200000794065" lon="9.666877784078745" id="-33133">
		<tag k="name" v="Falksnydda" />
		<tag k="natural" v="hill" />
		<tag k="place" v="locality" />
		<tag k="ssr:stedsnr" v="740589" />
	</node>
	<node lat="62.67752499630251" lon="9.313019449470938" id="-33137">
		<tag k="fixme" v="consider natural=peak for the most distinct mountains in the district" />
		<tag k="name" v="Korgtjønntangen" />
		<tag k="natural" v="hill" />
		<tag k="place" v="locality" />
		<tag k="ssr:stedsnr" v="753057" />
	</node>
	<node lat="62.66578333290929" lon="9.278994447648465" id="-33140">
		<tag k="name" v="Dalslia" />
		<tag k="natural" v="slope" />
		<tag k="place" v="locality" />
		<tag k="ssr:stedsnr" v="756162" />
	</node>
	<node lat="62.625363890347984" lon="9.505330546992809" id="-33147">
		<tag k="name" v="Kleberberget" />
		<tag k="natural" v="hill" />
		<tag k="place" v="locality" />
		<tag k="ssr:stedsnr" v="756801" />
	</node>
	<node lat="62.581405551330334" lon="9.413344435842884" id="-33168">
		<tag k="fixme" v="consider natural=peak for the most distinct mountains in the district" />
		<tag k="name" v="Høghåmmåren" />
		<tag k="natural" v="hill" />
		<tag k="place" v="locality" />
		<tag k="ssr:stedsnr" v="771359" />
	</node>
	<node lat="62.57707777906171" lon="9.391661108337479" id="-33170">
		<tag k="name" v="Flatmoen" />
		<tag k="place" v="locality" />
		<tag k="ssr:stedsnr" v="771367" />
	</node>
	<node lat="62.7055305578612" lon="9.351941666287216" id="-33174">
		<tag k="name" v="Håmmårlia" />
		<tag k="natural" v="slope" />
		<tag k="place" v="locality" />
		<tag k="ssr:stedsnr" v="771436" />
	</node>
	<node lat="62.712683335913944" lon="9.292630561324447" id="-33175">
		<tag k="name" v="Rensbekklia" />
		<tag k="natural" v="slope" />
		<tag k="place" v="locality" />
		<tag k="ssr:stedsnr" v="771437" />
	</node>
	<node lat="62.57933888580489" lon="9.843458326850053" id="-33177">
		<tag k="fixme" v="consider natural=peak for the most distinct mountains in the district" />
		<tag k="name" v="Tinnihamran" />
		<tag k="natural" v="hill" />
		<tag k="place" v="locality" />
		<tag k="ssr:stedsnr" v="771512" />
	</node>
	<node lat="62.590641668572964" lon="9.795977783942634" id="-33178">
		<tag k="name" v="Skremsæterlia" />
		<tag k="natural" v="slope" />
		<tag k="place" v="locality" />
		<tag k="ssr:stedsnr" v="771514" />
	</node>
	<node lat="62.29846111255776" lon="9.599744442682868" id="-33181">
		<tag k="name" v="Kjempslettin" />
		<tag k="place" v="locality" />
		<tag k="ssr:stedsnr" v="772108" />
	</node>
	<node lat="62.54472500062364" lon="9.59207777260504" id="-33183">
		<tag k="name" v="Setromslia" />
		<tag k="natural" v="slope" />
		<tag k="place" v="locality" />
		<tag k="ssr:stedsnr" v="772015" />
	</node>
	<node lat="62.34842222055948" lon="9.628786113343725" id="-33184">
		<tag k="name" v="Hakkmittberget" />
		<tag k="natural" v="hill" />
		<tag k="place" v="locality" />
		<tag k="ssr:stedsnr" v="772021" />
	</node>
	<node lat="62.62935833032516" lon="9.577211109992026" id="-33185">
		<tag k="name" v="Stensesgjelan" />
		<tag k="natural" v="slope" />
		<tag k="place" v="locality" />
		<tag k="ssr:stedsnr" v="772061" />
	</node>
	<node lat="62.470313890667555" lon="9.353758326678314" id="-33198">
		<tag k="fixme" v="consider natural=peak for the most distinct mountains in the district" />
		<tag k="name" v="Tverrfjellet" />
		<tag k="natural" v="hill" />
		<tag k="place" v="locality" />
		<tag k="ssr:stedsnr" v="799409" />
	</node>
	<node lat="62.56062499710594" lon="9.671880546065875" id="-33207">
		<tag k="name" v="Hevleslia" />
		<tag k="natural" v="slope" />
		<tag k="place" v="locality" />
		<tag k="ssr:stedsnr" v="800584" />
	</node>
	<node lat="62.39539722659679" lon="9.830194453900774" id="-33215">
		<tag k="fixme" v="consider natural=peak for the most distinct mountains in the district" />
		<tag k="loc_name" v="Store Elgsjøtangen" />
		<tag k="name" v="Elgsjøtangen" />
		<tag k="natural" v="hill" />
		<tag k="old_name" v="Elgsjøtangen, Store" />
		<tag k="place" v="locality" />
		<tag k="ssr:stedsnr" v="801722" />
	</node>
	<node lat="62.68567777481065" lon="8.961577776150822" id="-33216">
		<tag k="name" v="Medskaret" />
		<tag k="natural" v="valley" />
		<tag k="place" v="locality" />
		<tag k="ssr:stedsnr" v="801908" />
	</node>
	<node lat="62.721116666336464" lon="9.467327784585104" id="-33217">
		<tag k="fixme" v="consider natural=peak for the most distinct mountains in the district" />
		<tag k="name" v="Svahøa" />
		<tag k="natural" v="hill" />
		<tag k="place" v="locality" />
		<tag k="ssr:stedsnr" v="801620" />
	</node>
	<node lat="62.64491111018371" lon="9.286736119054975" id="-33220">
		<tag k="name" v="Ødegardsholtet" />
		<tag k="natural" v="valley" />
		<tag k="place" v="locality" />
		<tag k="ssr:stedsnr" v="814089" />
	</node>
	<node lat="62.57225833399472" lon="9.706938881804566" id="-33224">
		<tag k="name" v="Storskorda" />
		<tag k="natural" v="valley" />
		<tag k="place" v="locality" />
		<tag k="ssr:stedsnr" v="817529" />
	</node>
	<node lat="62.53145833154582" lon="9.588777771838306" id="-33227">
		<tag k="name" v="Furuhaugen" />
		<tag k="natural" v="hill" />
		<tag k="place" v="locality" />
		<tag k="ssr:stedsnr" v="817675" />
	</node>
	<node lat="62.606380558642485" lon="9.536927782740383" id="-33229">
		<tag k="name" v="Dørremsmoan" />
		<tag k="place" v="locality" />
		<tag k="ssr:stedsnr" v="817785" />
	</node>
	<node lat="62.72202500366719" lon="9.727205551366882" id="-33234">
		<tag k="name" v="Smotta" />
		<tag k="natural" v="valley" />
		<tag k="place" v="locality" />
		<tag k="ssr:stedsnr" v="921341" />
	</node>
	<node lat="62.531991666056264" lon="9.78051110388296" id="-33236">
		<tag k="alt_name" v="Ålmflya" />
		<tag k="loc_name" v="Ålmflåin" />
		<tag k="name" v="Olmflya" />
		<tag k="natural" v="plateau" />
		<tag k="ssr:stedsnr" v="921446" />
	</node>
	<node lat="62.48399722652279" lon="9.432069434946541" id="-33238">
		<tag k="name" v="Gammalsæterhøa" />
		<tag k="natural" v="hill" />
		<tag k="place" v="locality" />
		<tag k="ssr:stedsnr" v="921452" />
	</node>
	<node lat="62.36091666266335" lon="9.337727786534492" id="-33247">
		<tag k="name" v="Vegskardet" />
		<tag k="natural" v="valley" />
		<tag k="place" v="locality" />
		<tag k="ssr:stedsnr" v="921617" />
	</node>
	<node lat="62.352450004089185" lon="9.295450008553825" id="-33249">
		<tag k="name" v="Leirpullskardet" />
		<tag k="natural" v="valley" />
		<tag k="place" v="locality" />
		<tag k="ssr:stedsnr" v="921563" />
	</node>
	<node lat="62.68156388458464" lon="9.772086118093569" id="-33256">
		<tag k="alt_name" v="Kneppskaret" />
		<tag k="name" v="Kneppskardet" />
		<tag k="natural" v="valley" />
		<tag k="place" v="locality" />
		<tag k="ssr:stedsnr" v="922282" />
	</node>
	<node lat="62.560374997839226" lon="9.303827772239446" id="-33261">
		<tag k="fixme" v="consider natural=peak for the most distinct mountains in the district" />
		<tag k="name" v="Tilsethaugen" />
		<tag k="natural" v="hill" />
		<tag k="place" v="locality" />
		<tag k="ssr:stedsnr" v="922539" />
	</node>
	<node lat="62.6807277790828" lon="9.588875000090344" id="-33266">
		<tag k="name" v="Grøliin" />
		<tag k="natural" v="slope" />
		<tag k="place" v="locality" />
		<tag k="ssr:stedsnr" v="922650" />
	</node>
	<node lat="62.65541111084113" lon="9.61652221709234" id="-33267">
		<tag k="fixme" v="consider natural=peak for the most distinct mountains in the district" />
		<tag k="name" v="Tverrfjellet" />
		<tag k="natural" v="hill" />
		<tag k="place" v="locality" />
		<tag k="ssr:stedsnr" v="922662" />
	</node>
	<node lat="62.58060650518974" lon="9.146119646298072" id="-33268">
		<tag k="name" v="Gjøristolen" />
		<tag k="natural" v="hill" />
		<tag k="place" v="locality" />
		<tag k="ssr:stedsnr" v="922742" />
	</node>
	<node lat="62.3301999990848" lon="9.792833335701847" id="-33269">
		<tag k="name" v="Steindalkollen" />
		<tag k="natural" v="hill" />
		<tag k="place" v="locality" />
		<tag k="ssr:stedsnr" v="922698" />
	</node>
	<node lat="62.72368889178473" lon="9.596900004893328" id="-33271">
		<tag k="fixme" v="consider natural=peak for the most distinct mountains in the district" />
		<tag k="name" v="Skuggliberga" />
		<tag k="natural" v="hill" />
		<tag k="place" v="locality" />
		<tag k="ssr:stedsnr" v="922836" />
	</node>
	<node lat="62.68271111140272" lon="9.17748888214693" id="-33275">
		<tag k="fixme" v="consider natural=peak for the most distinct mountains in the district" />
		<tag k="name" v="Bårdsgardskamben" />
		<tag k="natural" v="hill" />
		<tag k="place" v="locality" />
		<tag k="ssr:stedsnr" v="922916" />
	</node>
	<node lat="62.590044447395364" lon="9.784102770673991" id="-33278">
		<tag k="name" v="Gråbrennan" />
		<tag k="natural" v="hill" />
		<tag k="place" v="locality" />
		<tag k="ssr:stedsnr" v="832493" />
	</node>
	<node lat="62.35888333677558" lon="9.625894442153074" id="-33280">
		<tag k="name" v="Grimsdalen" />
		<tag k="natural" v="valley" />
		<tag k="place" v="locality" />
		<tag k="ssr:stedsnr" v="833012" />
	</node>
	<node lat="62.47860555360353" lon="9.510111116981848" id="-33281">
		<tag k="name" v="Åmotsdalslia" />
		<tag k="natural" v="slope" />
		<tag k="place" v="locality" />
		<tag k="ssr:stedsnr" v="833283" />
	</node>
	<node lat="62.46651110890376" lon="9.544244437283602" id="-33282">
		<tag k="name" v="Sæterlia" />
		<tag k="natural" v="slope" />
		<tag k="place" v="locality" />
		<tag k="ssr:stedsnr" v="833285" />
	</node>
	<node lat="62.6623194451547" lon="9.026661103506731" id="-33284">
		<tag k="fixme" v="consider natural=peak for the most distinct mountains in the district" />
		<tag k="name" v="Nonshøa" />
		<tag k="natural" v="hill" />
		<tag k="place" v="locality" />
		<tag k="ssr:stedsnr" v="922961" />
	</node>
	<node lat="62.57599721803992" lon="9.460597212815564" id="-33287">
		<tag k="name" v="Sæterlia" />
		<tag k="natural" v="slope" />
		<tag k="place" v="locality" />
		<tag k="ssr:stedsnr" v="833331" />
	</node>
	<node lat="62.5570694463256" lon="9.375372225301986" id="-33288">
		<tag k="name" v="Øverhauglia" />
		<tag k="natural" v="slope" />
		<tag k="place" v="locality" />
		<tag k="ssr:stedsnr" v="833379" />
	</node>
	<node lat="62.350930558840226" lon="9.375980554835161" id="-33292">
		<tag k="name" v="Gampdalen" />
		<tag k="natural" v="valley" />
		<tag k="old_name" v="Øykjekolldalen" />
		<tag k="place" v="locality" />
		<tag k="ssr:stedsnr" v="860572" />
	</node>
	<node lat="62.52142222352418" lon="9.649869436431317" id="-33302">
		<tag k="name" v="Dugurdsmålhaugen" />
		<tag k="natural" v="hill" />
		<tag k="place" v="locality" />
		<tag k="ssr:stedsnr" v="861317" />
	</node>
	<node lat="62.50808611449249" lon="9.717425007112304" id="-33303">
		<tag k="fixme" v="consider natural=peak for the most distinct mountains in the district" />
		<tag k="name" v="Skorvhøa" />
		<tag k="natural" v="hill" />
		<tag k="place" v="locality" />
		<tag k="ssr:stedsnr" v="861321" />
	</node>
	<node lat="62.571030559092776" lon="9.874788886528428" id="-33306">
		<tag k="name" v="Skardet" />
		<tag k="natural" v="hill" />
		<tag k="place" v="locality" />
		<tag k="ssr:stedsnr" v="861425" />
	</node>
	<node lat="62.37781666523375" lon="9.085366673341694" id="-33308">
		<tag k="fixme" v="consider natural=peak for the most distinct mountains in the district" />
		<tag k="name" v="Litlskrymten" />
		<tag k="natural" v="hill" />
		<tag k="place" v="locality" />
		<tag k="ssr:stedsnr" v="861455" />
	</node>
	<node lat="62.61670555561856" lon="9.685272227694911" id="-33315">
		<tag k="fixme" v="consider natural=peak for the most distinct mountains in the district" />
		<tag k="name" v="Skjørstadhovden" />
		<tag k="natural" v="hill" />
		<tag k="place" v="locality" />
		<tag k="ssr:stedsnr" v="861706" />
	</node>
	<node lat="62.3863305540787" lon="9.748277773909692" id="-33319">
		<tag k="fixme" v="consider natural=peak for the most distinct mountains in the district" />
		<tag k="name" v="Vesle Elgsjøtangen" />
		<tag k="natural" v="hill" />
		<tag k="place" v="locality" />
		<tag k="ssr:stedsnr" v="861719" />
	</node>
	<node lat="62.605797219052604" lon="9.362505565056574" id="-33325">
		<tag k="fixme" v="consider natural=peak for the most distinct mountains in the district" />
		<tag k="name" v="Vinndalskamben" />
		<tag k="natural" v="hill" />
		<tag k="place" v="locality" />
		<tag k="ssr:stedsnr" v="861702" />
	</node>
	<node lat="62.78151944232381" lon="9.187063890166264" id="-33326">
		<tag k="fixme" v="consider natural=peak for the most distinct mountains in the district" />
		<tag k="name" v="Storlifjellet" />
		<tag k="natural" v="hill" />
		<tag k="place" v="locality" />
		<tag k="ssr:stedsnr" v="862101" />
	</node>
	<node lat="62.66087777823808" lon="9.288425001823384" id="-33330">
		<tag k="name" v="Dalslia" />
		<tag k="natural" v="slope" />
		<tag k="place" v="locality" />
		<tag k="ssr:stedsnr" v="877169" />
	</node>
	<node lat="62.47305000372383" lon="9.839994445321194" id="-33331">
		<tag k="name" v="Unndalen" />
		<tag k="natural" v="valley" />
		<tag k="place" v="locality" />
		<tag k="ssr:stedsnr" v="877523" />
	</node>
	<node lat="62.6312388905145" lon="9.69273611714266" id="-33335">
		<tag k="name" v="Ormhaugen" />
		<tag k="natural" v="hill" />
		<tag k="place" v="locality" />
		<tag k="ssr:stedsnr" v="877764" />
	</node>
	<node lat="62.6080777763821" lon="9.303088886948817" id="-33338">
		<tag k="name" v="Vinndalshaugan" />
		<tag k="natural" v="hill" />
		<tag k="place" v="locality" />
		<tag k="ssr:stedsnr" v="877821" />
	</node>
	<node lat="62.552116662563236" lon="9.605069443069743" id="-33345">
		<tag k="name" v="Forbregdsletta" />
		<tag k="place" v="locality" />
		<tag k="ssr:stedsnr" v="878864" />
	</node>
	<node lat="62.366391662427205" lon="9.364911111721156" id="-33347">
		<tag k="name" v="Snøhettaområdet" />
		<tag k="natural" v="mountain_range" />
		<tag k="ssr:stedsnr" v="935356" />
	</node>
	<node lat="62.57621944579472" lon="9.555202771695402" id="-33353">
		<tag k="name" v="Stølbakken" />
		<tag k="natural" v="slope" />
		<tag k="place" v="locality" />
		<tag k="ssr:stedsnr" v="893017" />
	</node>
	<node lat="62.35787221973184" lon="9.635338896671819" id="-33354">
		<tag k="fixme" v="consider natural=peak for the most distinct mountains in the district" />
		<tag k="name" v="Ola Hansenhåmmåren" />
		<tag k="natural" v="hill" />
		<tag k="place" v="locality" />
		<tag k="ssr:stedsnr" v="893019" />
	</node>
	<node lat="62.36537500059982" lon="9.633680546365877" id="-33355">
		<tag k="name" v="Øvønøya" />
		<tag k="place" v="locality" />
		<tag k="ssr:stedsnr" v="893022" />
	</node>
	<node lat="62.39272221932535" lon="9.632558336117627" id="-33356">
		<tag k="name" v="Klemmadalen" />
		<tag k="natural" v="valley" />
		<tag k="place" v="locality" />
		<tag k="ssr:stedsnr" v="893028" />
	</node>
	<node lat="62.33636111516784" lon="9.6117749978414" id="-33357">
		<tag k="fixme" v="consider natural=peak for the most distinct mountains in the district" />
		<tag k="name" v="Høgsnydda" />
		<tag k="natural" v="hill" />
		<tag k="place" v="locality" />
		<tag k="ssr:stedsnr" v="893117" />
	</node>
	<node lat="62.67018611082778" lon="9.518441659612376" id="-33360">
		<tag k="fixme" v="consider natural=peak for the most distinct mountains in the district" />
		<tag k="name" v="Måssåranden" />
		<tag k="natural" v="hill" />
		<tag k="place" v="locality" />
		<tag k="ssr:stedsnr" v="893309" />
	</node>
	<node lat="62.6173888899317" lon="9.95669721770939" id="-33365">
		<tag k="fixme" v="consider natural=peak for the most distinct mountains in the district" />
		<tag k="name" v="Storflya" />
		<tag k="natural" v="hill" />
		<tag k="place" v="locality" />
		<tag k="ssr:stedsnr" v="893478" />
	</node>
	<node lat="62.31779999731744" lon="9.671705547126635" id="-33374">
		<tag k="name" v="Sprenbekkskardet" />
		<tag k="natural" v="valley" />
		<tag k="place" v="locality" />
		<tag k="ssr:stedsnr" v="921582" />
	</node>
	<node lat="62.45832778104301" lon="9.184649998390238" id="-33381">
		<tag k="fixme" v="consider natural=peak for the most distinct mountains in the district" />
		<tag k="name" v="Steinkollen" />
		<tag k="natural" v="hill" />
		<tag k="place" v="locality" />
		<tag k="ssr:stedsnr" v="921479" />
	</node>
	<node lat="62.46373889049763" lon="9.20842778254235" id="-33382">
		<tag k="name" v="Svartdalsbotnen" />
		<tag k="natural" v="valley" />
		<tag k="place" v="locality" />
		<tag k="ssr:stedsnr" v="921484" />
	</node>
	<node lat="62.39342777667591" lon="9.631791665305418" id="-33383">
		<tag k="name" v="Klemma" />
		<tag k="natural" v="valley" />
		<tag k="place" v="locality" />
		<tag k="ssr:stedsnr" v="921606" />
	</node>
	<node lat="62.390722223635336" lon="9.663377778480328" id="-33384">
		<tag k="name" v="Finnshøa" />
		<tag k="natural" v="hill" />
		<tag k="place" v="locality" />
		<tag k="ssr:stedsnr" v="921608" />
	</node>
	<node lat="62.61473333553157" lon="9.372124993834081" id="-33394">
		<tag k="fixme" v="consider natural=peak for the most distinct mountains in the district" />
		<tag k="name" v="Elghøa" />
		<tag k="natural" v="hill" />
		<tag k="place" v="locality" />
		<tag k="ssr:stedsnr" v="922711" />
	</node>
	<node lat="62.61107777746993" lon="9.347566662720212" id="-33396">
		<tag k="fixme" v="consider natural=peak for the most distinct mountains in the district" />
		<tag k="name" v="Stølkamben" />
		<tag k="natural" v="hill" />
		<tag k="place" v="locality" />
		<tag k="ssr:stedsnr" v="922714" />
	</node>
	<node lat="62.41278611375797" lon="9.726038892887278" id="-33397">
		<tag k="name" v="Ytre Veslvonskardet" />
		<tag k="natural" v="valley" />
		<tag k="place" v="locality" />
		<tag k="ssr:stedsnr" v="922725" />
	</node>
	<node lat="62.65924999666119" lon="9.679952775100935" id="-33398">
		<tag k="fixme" v="consider natural=peak for the most distinct mountains in the district" />
		<tag k="name" v="Blåøret" />
		<tag k="natural" v="hill" />
		<tag k="place" v="locality" />
		<tag k="ssr:stedsnr" v="922674" />
	</node>
	<node lat="62.57650833036351" lon="9.719413890908479" id="-33403">
		<tag k="name" v="Måssåberga" />
		<tag k="natural" v="hill" />
		<tag k="place" v="locality" />
		<tag k="ssr:stedsnr" v="938531" />
	</node>
	<node lat="62.52154444576721" lon="9.648916658150698" id="-33410">
		<tag k="name" v="Tyrishåmmåren" />
		<tag k="natural" v="hill" />
		<tag k="place" v="locality" />
		<tag k="ssr:stedsnr" v="938638" />
	</node>
	<node lat="62.616488889959456" lon="9.312094447449212" id="-33412">
		<tag k="name" v="Tverråløkkjon" />
		<tag k="natural" v="slope" />
		<tag k="place" v="locality" />
		<tag k="ssr:stedsnr" v="938806" />
	</node>
	<node lat="62.608563887332345" lon="9.561708325498637" id="-33414">
		<tag k="name" v="Vognillsmoan" />
		<tag k="place" v="locality" />
		<tag k="ssr:stedsnr" v="938839" />
	</node>
	<node lat="62.677405552793864" lon="9.87151666045198" id="-33420">
		<tag k="fixme" v="consider natural=peak for the most distinct mountains in the district" />
		<tag k="name" v="Geithamran" />
		<tag k="natural" v="hill" />
		<tag k="place" v="locality" />
		<tag k="ssr:stedsnr" v="953426" />
	</node>
	<node lat="62.603366664907135" lon="9.807361111150518" id="-33421">
		<tag k="name" v="Måssåhaugen" />
		<tag k="natural" v="hill" />
		<tag k="place" v="locality" />
		<tag k="ssr:stedsnr" v="953505" />
	</node>
	<node lat="62.60077222196767" lon="9.811811101492228" id="-33423">
		<tag k="name" v="Storbjørkhaugen" />
		<tag k="natural" v="hill" />
		<tag k="place" v="locality" />
		<tag k="ssr:stedsnr" v="953502" />
	</node>
	<node lat="62.533686114325306" lon="9.326319439897475" id="-33429">
		<tag k="name" v="Skrepphaugen" />
		<tag k="natural" v="hill" />
		<tag k="place" v="locality" />
		<tag k="ssr:stedsnr" v="954241" />
	</node>
	<node lat="62.54008889292257" lon="9.332805554271115" id="-33430">
		<tag k="name" v="Finnskjeggslætta" />
		<tag k="place" v="locality" />
		<tag k="ssr:stedsnr" v="954245" />
	</node>
	<node lat="62.59781944330061" lon="9.523880563020553" id="-33431">
		<tag k="name" v="Nysætergjerdet" />
		<tag k="natural" v="slope" />
		<tag k="place" v="locality" />
		<tag k="ssr:stedsnr" v="954298" />
	</node>
	<node lat="62.59738611053652" lon="9.402424994348069" id="-33433">
		<tag k="fixme" v="consider natural=peak for the most distinct mountains in the district" />
		<tag k="name" v="Bøakamben" />
		<tag k="natural" v="hill" />
		<tag k="place" v="locality" />
		<tag k="ssr:stedsnr" v="954439" />
	</node>
	<node lat="62.647325837338094" lon="9.581100926311926" id="-33459">
		<tag k="fixme" v="consider natural=peak for the most distinct mountains in the district" />
		<tag k="name" v="Storhåmmåren" />
		<tag k="natural" v="hill" />
		<tag k="place" v="locality" />
		<tag k="ssr:stedsnr" v="972994" />
	</node>
	<node lat="62.6342606952115" lon="9.760901948768819" id="-33462">
		<tag k="name" v="Husbekkdalen" />
		<tag k="natural" v="valley" />
		<tag k="place" v="locality" />
		<tag k="ssr:stedsnr" v="987573" />
	</node>
	<node lat="62.63808604468813" lon="9.766444927835353" id="-33463">
		<tag k="name" v="Liabekkdalen" />
		<tag k="natural" v="valley" />
		<tag k="place" v="locality" />
		<tag k="ssr:stedsnr" v="987574" />
	</node>
	<node lat="62.43747607123232" lon="9.597145581602067" id="-33466">
		<tag k="name" v="Drivstuvollan" />
		<tag k="place" v="locality" />
		<tag k="ssr:stedsnr" v="989266" />
	</node>
	<node lat="62.47681388928276" lon="9.667225001475064" id="-33470">
		<tag k="name" v="Bruhøa" />
		<tag k="natural" v="hill" />
		<tag k="place" v="locality" />
		<tag k="ssr:stedsnr" v="10407" />
	</node>
	<node lat="62.35721388980827" lon="9.356044451105777" id="-33473">
		<tag k="fixme" v="consider natural=peak for the most distinct mountains in the district" />
		<tag k="name" v="Gampkollen" />
		<tag k="natural" v="hill" />
		<tag k="old_name" v="Øykjekollen" />
		<tag k="place" v="locality" />
		<tag k="ssr:stedsnr" v="10527" />
	</node>
	<node lat="62.45784999658153" lon="9.601847212810412" id="-33474">
		<tag k="name" v="Kolfatberga" />
		<tag k="natural" v="hill" />
		<tag k="place" v="locality" />
		<tag k="ssr:stedsnr" v="10620" />
	</node>
	<node lat="62.34127222261825" lon="9.424322213593772" id="-33483">
		<tag k="name" v="Gropo" />
		<tag k="natural" v="valley" />
		<tag k="place" v="locality" />
		<tag k="ssr:stedsnr" v="11532" />
	</node>
	<node lat="62.31774999788648" lon="9.360588889258082" id="-33486">
		<tag k="fixme" v="consider natural=peak for the most distinct mountains in the district" />
		<tag k="name" v="Brunkollen" />
		<tag k="natural" v="hill" />
		<tag k="place" v="locality" />
		<tag k="ssr:stedsnr" v="11551" />
	</node>
	<node lat="62.39080000445544" lon="9.193055550041372" id="-33489">
		<tag k="fixme" v="consider natural=peak for the most distinct mountains in the district" />
		<tag k="name" v="Gråhøin" />
		<tag k="natural" v="hill" />
		<tag k="place" v="locality" />
		<tag k="ssr:stedsnr" v="11494" />
	</node>
	<node lat="62.66416666723193" lon="9.433755557222304" id="-33500">
		<tag k="name" v="Sandhaugan" />
		<tag k="place" v="locality" />
		<tag k="ssr:stedsnr" v="11661" />
	</node>
	<node lat="62.51520833140985" lon="9.551088880722531" id="-33513">
		<tag k="fixme" v="consider natural=peak for the most distinct mountains in the district" />
		<tag k="name" v="Veslhaugen" />
		<tag k="natural" v="hill" />
		<tag k="place" v="locality" />
		<tag k="ssr:stedsnr" v="12616" />
	</node>
	<node lat="62.650333328905056" lon="9.579977786252426" id="-33519">
		<tag k="name" v="Løkkjskaret" />
		<tag k="natural" v="valley" />
		<tag k="place" v="locality" />
		<tag k="ssr:stedsnr" v="12682" />
	</node>
	<node lat="62.642983334226614" lon="9.609691674450607" id="-33520">
		<tag k="name" v="Vålåstadhåmmåren" />
		<tag k="natural" v="hill" />
		<tag k="place" v="locality" />
		<tag k="ssr:stedsnr" v="12694" />
	</node>
	<node lat="62.411647218694924" lon="9.938466665864" id="-33522">
		<tag k="name" v="Ivakvelvet" />
		<tag k="natural" v="valley" />
		<tag k="place" v="locality" />
		<tag k="ssr:stedsnr" v="12729" />
	</node>
	<node lat="62.69918889109957" lon="9.094319448835144" id="-33526">
		<tag k="name" v="Sauberget" />
		<tag k="natural" v="hill" />
		<tag k="place" v="locality" />
		<tag k="ssr:stedsnr" v="28193" />
	</node>
	<node lat="62.63223889011282" lon="9.313130546813808" id="-33541">
		<tag k="name" v="Sæterlia" />
		<tag k="natural" v="slope" />
		<tag k="place" v="locality" />
		<tag k="ssr:stedsnr" v="28847" />
	</node>
	<node lat="62.44590555623323" lon="9.587952776795678" id="-33543">
		<tag k="name" v="Rundhaugen" />
		<tag k="natural" v="hill" />
		<tag k="place" v="locality" />
		<tag k="ssr:stedsnr" v="28725" />
	</node>
	<node lat="62.51595833057215" lon="9.632211116302328" id="-33556">
		<tag k="name" v="Berteplassen" />
		<tag k="natural" v="slope" />
		<tag k="place" v="locality" />
		<tag k="ssr:stedsnr" v="28893" />
	</node>
	<node lat="62.577386107697876" lon="9.311988881239452" id="-33570">
		<tag k="name" v="Tørrhaugan" />
		<tag k="natural" v="hill" />
		<tag k="place" v="locality" />
		<tag k="ssr:stedsnr" v="43339" />
	</node>
	<node lat="62.55848333739045" lon="9.367202782299348" id="-33574">
		<tag k="name" v="Furuhaugen" />
		<tag k="natural" v="hill" />
		<tag k="place" v="locality" />
		<tag k="ssr:stedsnr" v="43368" />
	</node>
	<node lat="62.723083334594904" lon="9.412661118015539" id="-33576">
		<tag k="name" v="Tyrikvamlia" />
		<tag k="natural" v="slope" />
		<tag k="place" v="locality" />
		<tag k="ssr:stedsnr" v="43390" />
	</node>
	<node lat="62.71039722604558" lon="9.428847222258462" id="-33578">
		<tag k="name" v="Slettlia" />
		<tag k="natural" v="slope" />
		<tag k="place" v="locality" />
		<tag k="ssr:stedsnr" v="43396" />
	</node>
	<node lat="62.58715833734007" lon="9.433961114938022" id="-33582">
		<tag k="name" v="Svartøybakken" />
		<tag k="natural" v="slope" />
		<tag k="place" v="locality" />
		<tag k="ssr:stedsnr" v="43418" />
	</node>
	<node lat="62.69668055949501" lon="9.766288887712937" id="-33583">
		<tag k="name" v="Rondhaugen" />
		<tag k="natural" v="hill" />
		<tag k="place" v="locality" />
		<tag k="ssr:stedsnr" v="43434" />
	</node>
	<node lat="62.68353888577906" lon="9.764719447310359" id="-33585">
		<tag k="fixme" v="consider natural=peak for the most distinct mountains in the district" />
		<tag k="name" v="Kneppskardhøa" />
		<tag k="natural" v="hill" />
		<tag k="place" v="locality" />
		<tag k="ssr:stedsnr" v="43452" />
	</node>
	<node lat="62.62918611268366" lon="9.943274993973647" id="-33586">
		<tag k="name" v="Hattan" />
		<tag k="place" v="locality" />
		<tag k="ssr:stedsnr" v="43459" />
	</node>
	<node lat="62.368661107834505" lon="9.396105563658276" id="-33597">
		<tag k="fixme" v="consider natural=peak for the most distinct mountains in the district" />
		<tag k="name" v="Namnlauskollen" />
		<tag k="natural" v="hill" />
		<tag k="place" v="locality" />
		<tag k="ssr:stedsnr" v="71629" />
	</node>
	<node lat="62.346799997992655" lon="9.509586116105416" id="-33598">
		<tag k="fixme" v="consider natural=peak for the most distinct mountains in the district" />
		<tag k="name" v="Kaldvellegga" />
		<tag k="natural" v="hill" />
		<tag k="place" v="locality" />
		<tag k="ssr:stedsnr" v="71638" />
	</node>
	<node lat="62.34808055441907" lon="9.557288887309598" id="-33599">
		<tag k="fixme" v="consider natural=peak for the most distinct mountains in the district" />
		<tag k="name" v="Nystugguhøa" />
		<tag k="natural" v="hill" />
		<tag k="place" v="locality" />
		<tag k="ssr:stedsnr" v="71641" />
	</node>
	<node lat="62.45408333550018" lon="9.288252779371685" id="-33602">
		<tag k="fixme" v="consider natural=peak for the most distinct mountains in the district" />
		<tag k="name" v="Bukkollen" />
		<tag k="natural" v="hill" />
		<tag k="place" v="locality" />
		<tag k="ssr:stedsnr" v="71648" />
	</node>
	<node lat="62.5371694484538" lon="10.002288885244562" id="-33603">
		<tag k="alt_name" v="Orkelhøa, vesle" />
		<tag k="fixme" v="consider natural=peak for the most distinct mountains in the district" />
		<tag k="loc_name" v="Vesl Orkelhøa" />
		<tag k="name" v="Veslorkelhøa" />
		<tag k="natural" v="hill" />
		<tag k="place" v="locality" />
		<tag k="ssr:stedsnr" v="72387" />
	</node>
	<node lat="62.538750002738695" lon="9.843124998300613" id="-33604">
		<tag k="fixme" v="consider natural=peak for the most distinct mountains in the district" />
		<tag k="name" v="Rundhøa" />
		<tag k="natural" v="hill" />
		<tag k="place" v="locality" />
		<tag k="ssr:stedsnr" v="72388" />
	</node>
	<node lat="62.49614722596475" lon="9.543302773107934" id="-33606">
		<tag k="name" v="Vammeraksla" />
		<tag k="natural" v="valley" />
		<tag k="place" v="locality" />
		<tag k="ssr:stedsnr" v="72401" />
	</node>
	<node lat="62.29180000227591" lon="9.486524991314415" id="-33610">
		<tag k="fixme" v="consider natural=peak for the most distinct mountains in the district" />
		<tag k="name" v="Kolla" />
		<tag k="natural" v="hill" />
		<tag k="place" v="locality" />
		<tag k="ssr:stedsnr" v="72475" />
	</node>
	<node lat="62.58840000034202" lon="9.368675008840873" id="-33614">
		<tag k="fixme" v="consider natural=peak for the most distinct mountains in the district" />
		<tag k="name" v="Håggåberget" />
		<tag k="natural" v="hill" />
		<tag k="place" v="locality" />
		<tag k="ssr:stedsnr" v="72492" />
	</node>
	<node lat="62.580166670874696" lon="9.284702776527814" id="-33618">
		<tag k="name" v="Ørnberget" />
		<tag k="natural" v="hill" />
		<tag k="place" v="locality" />
		<tag k="ssr:stedsnr" v="72508" />
	</node>
	<node lat="62.306455558608484" lon="9.457291673525944" id="-33622">
		<tag k="fixme" v="consider natural=peak for the most distinct mountains in the district" />
		<tag k="name" v="Veslkolla" />
		<tag k="natural" v="hill" />
		<tag k="place" v="locality" />
		<tag k="ssr:stedsnr" v="72542" />
	</node>
	<node lat="62.56865277708047" lon="9.711430553991546" id="-33623">
		<tag k="fixme" v="consider natural=peak for the most distinct mountains in the district" />
		<tag k="name" v="Allmannberget" />
		<tag k="natural" v="hill" />
		<tag k="place" v="locality" />
		<tag k="ssr:stedsnr" v="72548" />
	</node>
	<node lat="62.55192499833596" lon="9.590852780671007" id="-33625">
		<tag k="alt_name" v="Rauhåmmårn" />
		<tag k="fixme" v="consider natural=peak for the most distinct mountains in the district" />
		<tag k="name" v="Raudkammen" />
		<tag k="natural" v="hill" />
		<tag k="place" v="locality" />
		<tag k="ssr:stedsnr" v="72562" />
	</node>
	<node lat="62.536066662881076" lon="9.389774991176381" id="-33629">
		<tag k="name" v="Geithamran" />
		<tag k="natural" v="hill" />
		<tag k="place" v="locality" />
		<tag k="ssr:stedsnr" v="72588" />
	</node>
	<node lat="62.3368805523133" lon="9.742858336562747" id="-33634">
		<tag k="fixme" v="consider natural=peak for the most distinct mountains in the district" />
		<tag k="name" v="Veslkolla" />
		<tag k="natural" v="hill" />
		<tag k="old_name" v="Veslkollen" />
		<tag k="place" v="locality" />
		<tag k="ssr:stedsnr" v="72683" />
	</node>
	<node lat="62.62728254735743" lon="9.329146072961048" id="-33635">
		<tag k="fixme" v="consider natural=peak for the most distinct mountains in the district" />
		<tag k="name" v="Storslættkamben" />
		<tag k="natural" v="hill" />
		<tag k="old_name" v="Storslættkluren" />
		<tag k="place" v="locality" />
		<tag k="ssr:stedsnr" v="72692" />
	</node>
	<node lat="62.74961388740094" lon="9.370533337340417" id="-33637">
		<tag k="fixme" v="consider natural=peak for the most distinct mountains in the district" />
		<tag k="name" v="Falkfangarhøa" />
		<tag k="natural" v="hill" />
		<tag k="place" v="locality" />
		<tag k="ssr:stedsnr" v="72854" />
	</node>
	<node lat="62.730175000407094" lon="9.080530565003851" id="-33642">
		<tag k="fixme" v="consider natural=peak for the most distinct mountains in the district" />
		<tag k="name" v="Storbekkhøa" />
		<tag k="natural" v="hill" />
		<tag k="place" v="locality" />
		<tag k="ssr:stedsnr" v="73892" />
	</node>
	<node lat="62.60662647661252" lon="9.488221904320786" id="-33648">
		<tag k="name" v="Ålbusmoan" />
		<tag k="place" v="locality" />
		<tag k="ssr:stedsnr" v="88761" />
	</node>
	<node lat="62.64806110961448" lon="9.298702783012425" id="-33650">
		<tag k="name" v="Roalddalen" />
		<tag k="natural" v="valley" />
		<tag k="place" v="locality" />
		<tag k="ssr:stedsnr" v="88792" />
	</node>
	<node lat="62.567555554053605" lon="9.37450556453392" id="-33651">
		<tag k="name" v="Midthaugen" />
		<tag k="natural" v="hill" />
		<tag k="place" v="locality" />
		<tag k="ssr:stedsnr" v="88862" />
	</node>
	<node lat="62.60267499622787" lon="9.319397230026441" id="-33652">
		<tag k="name" v="Nerigardslættet" />
		<tag k="place" v="locality" />
		<tag k="ssr:stedsnr" v="88865" />
	</node>
	<node lat="62.69961666582779" lon="9.07659165877116" id="-33653">
		<tag k="name" v="Plasslia" />
		<tag k="natural" v="slope" />
		<tag k="place" v="locality" />
		<tag k="ssr:stedsnr" v="89191" />
	</node>
	<node lat="62.68524166318257" lon="9.076861120745882" id="-33656">
		<tag k="name" v="Gråhaugan" />
		<tag k="natural" v="hill" />
		<tag k="place" v="locality" />
		<tag k="ssr:stedsnr" v="89158" />
	</node>
	<node lat="62.69763888864431" lon="9.098949995814445" id="-33658">
		<tag k="name" v="Bekkmellom" />
		<tag k="natural" v="slope" />
		<tag k="place" v="locality" />
		<tag k="ssr:stedsnr" v="89163" />
	</node>
	<node lat="62.63445555290123" lon="9.717044448087726" id="-33662">
		<tag k="name" v="Gardåkløfte" />
		<tag k="natural" v="valley" />
		<tag k="place" v="locality" />
		<tag k="ssr:stedsnr" v="89755" />
	</node>
	<node lat="62.58659166851391" lon="9.314805555967858" id="-33665">
		<tag k="name" v="Helvetesdalen" />
		<tag k="natural" v="valley" />
		<tag k="place" v="locality" />
		<tag k="ssr:stedsnr" v="89829" />
	</node>
	<node lat="62.75582500073413" lon="9.580913882826826" id="-33675">
		<tag k="name" v="Eldåtangen" />
		<tag k="place" v="locality" />
		<tag k="ssr:stedsnr" v="103047" />
	</node>
	<node lat="62.599063885143096" lon="9.842772231401998" id="-33682">
		<tag k="name" v="Brattbakken" />
		<tag k="natural" v="slope" />
		<tag k="place" v="locality" />
		<tag k="ssr:stedsnr" v="104455" />
	</node>
	<node lat="62.60952221982411" lon="9.411941660347546" id="-33687">
		<tag k="name" v="Furuneslia" />
		<tag k="natural" v="slope" />
		<tag k="place" v="locality" />
		<tag k="ssr:stedsnr" v="104421" />
	</node>
	<node lat="62.63861944649688" lon="9.940549996271395" id="-33688">
		<tag k="fixme" v="consider natural=peak for the most distinct mountains in the district" />
		<tag k="name" v="Nørder Hatten" />
		<tag k="natural" v="hill" />
		<tag k="place" v="locality" />
		<tag k="ssr:stedsnr" v="104491" />
	</node>
</osm>
