<?xml version="1.0" encoding="UTF-8"?>
<osm version="0.6" generator="osmapis">
	<node lat="62.34611388715097" lon="9.633602769401666" id="-32394">
		<tag k="highway" v="path" />
		<tag k="name" v="Vårstigen" />
		<tag k="ssr:stedsnr" v="71572" />
	</node>
	<node lat="62.42426388506643" lon="9.624877781495648" id="-32452">
		<tag k="alt_name" v="Drivstua stasjon" />
		<tag k="name" v="Drivstua" />
		<tag k="railway" v="station" />
		<tag k="ssr:stedsnr" v="131623" />
		<tag k="train" v="yes" />
	</node>
	<node lat="62.59315000278895" lon="9.69404444929152" id="-32541">
		<tag k="alt_name" v="Oppdal" />
		<tag k="name" v="Oppdal stasjon" />
		<tag k="railway" v="station" />
		<tag k="ssr:stedsnr" v="163158" />
		<tag k="train" v="yes" />
	</node>
	<node lat="62.69541944208501" lon="9.072430552543253" id="-32581">
		<tag k="bridge" v="yes" />
		<tag k="layer" v="1" />
		<tag k="name" v="Eggabrua" />
		<tag k="ssr:stedsnr" v="271164" />
	</node>
	<node lat="62.650455557713194" lon="9.854238894208073" id="-32712">
		<tag k="aeroway" v="aerodrome" />
		<tag k="name" v="Fagerhaug flyplass" />
		<tag k="ssr:stedsnr" v="285793" />
	</node>
	<node lat="62.396533334656546" lon="9.637261114441193" id="-32714">
		<tag k="highway" v="path" />
		<tag k="name" v="Gammelvegen" />
		<tag k="ssr:stedsnr" v="286033" />
	</node>
	<node lat="62.721416668947576" lon="9.552291674032588" id="-32738">
		<tag k="highway" v="path" />
		<tag k="name" v="Gammelvegen" />
		<tag k="ssr:stedsnr" v="467043" />
	</node>
	<node lat="62.2799833289018" lon="9.59874166736768" id="-32821">
		<tag k="bridge" v="yes" />
		<tag k="layer" v="1" />
		<tag k="name" v="Jøroskloppa" />
		<tag k="ssr:stedsnr" v="347107" />
	</node>
	<node lat="62.51566666944958" lon="9.596497215071048" id="-32948">
		<tag k="landuse" v="industrial" />
		<tag k="name" v="Rise kraftverk" />
		<tag k="power" v="plant" />
		<tag k="ssr:stedsnr" v="453712" />
	</node>
	<node lat="62.57571389059041" lon="9.71657221692178" id="-33056">
		<tag k="highway" v="path" />
		<tag k="name" v="Orda" />
		<tag k="ssr:stedsnr" v="513564" />
	</node>
	<node lat="62.62239444730845" lon="9.872202771040826" id="-33093">
		<tag k="highway" v="path" />
		<tag k="name" v="Måssåvegen" />
		<tag k="ssr:stedsnr" v="529495" />
	</node>
	<node lat="62.574336112154114" lon="9.566433328195073" id="-33170">
		<tag k="highway" v="path" />
		<tag k="name" v="Ressvegen" />
		<tag k="ssr:stedsnr" v="589021" />
	</node>
	<node lat="62.536344444755166" lon="9.340458334607257" id="-33239">
		<tag k="highway" v="path" />
		<tag k="name" v="Øver stien" />
		<tag k="ssr:stedsnr" v="650237" />
	</node>
	<node lat="62.64502777558226" lon="9.919333332630446" id="-33320">
		<tag k="fixme" v="consider highway=path" />
		<tag k="highway" v="track" />
		<tag k="name" v="Søbergssætervegen" />
		<tag k="ssr:stedsnr" v="893504" />
	</node>
	<node lat="62.606371222246246" lon="9.496133475157615" id="-33334">
		<tag k="alt_name" v="Oppdal e.verk;E.verket;E-verket" />
		<tag k="landuse" v="industrial" />
		<tag k="name" v="Oppdal e-verk" />
		<tag k="power" v="plant" />
		<tag k="ssr:stedsnr" v="695785" />
	</node>
	<node lat="62.58694444078851" lon="9.525341662529334" id="-33358">
		<tag k="junction" v="yes" />
		<tag k="name" v="Nyseterkrysset" />
		<tag k="place" v="locality" />
		<tag k="ssr:stedsnr" v="711308" />
	</node>
	<node lat="62.6207277807232" lon="9.938191666019888" id="-33364">
		<tag k="highway" v="path" />
		<tag k="name" v="Vinterveglea" />
		<tag k="ssr:stedsnr" v="711478" />
	</node>
	<node lat="62.57783333258016" lon="9.881194445251587" id="-33435">
		<tag k="highway" v="path" />
		<tag k="name" v="Næringdalsvegen" />
		<tag k="ssr:stedsnr" v="768809" />
	</node>
	<node lat="62.663041663337296" lon="9.279711118274376" id="-33493">
		<tag k="highway" v="path" />
		<tag k="name" v="Bekkskårgangen" />
		<tag k="ssr:stedsnr" v="817187" />
	</node>
	<node lat="62.59392500221112" lon="9.862858328498039" id="-33693">
		<tag k="fixme" v="consider highway=path" />
		<tag k="highway" v="track" />
		<tag k="name" v="Veslorkelsjøvegen" />
		<tag k="ssr:stedsnr" v="953541" />
	</node>
	<node lat="62.307051252044175" lon="9.605824116592032" id="-33758">
		<tag k="alt_name" v="Kongsvoll jernbanestasjon;Kongsvoll" />
		<tag k="name" v="Kongsvoll stasjon" />
		<tag k="railway" v="station" />
		<tag k="ssr:stedsnr" v="11558" />
		<tag k="train" v="yes" />
	</node>
	<node lat="62.57505833380059" lon="9.726183340809198" id="-33820">
		<tag k="highway" v="path" />
		<tag k="name" v="Oravegen" />
		<tag k="ssr:stedsnr" v="28797" />
	</node>
	<node lat="62.50618055715636" lon="9.622255556879947" id="-33825">
		<tag k="highway" v="path" />
		<tag k="name" v="Fjellvegen" />
		<tag k="ssr:stedsnr" v="28886" />
	</node>
	<node lat="62.6049416631159" lon="9.832652785410716" id="-34592">
		<tag k="highway" v="path" />
		<tag k="name" v="Skårråvangvegen" />
		<tag k="ssr:stedsnr" v="529455" />
	</node>
	<node lat="62.6531883148309" lon="9.882740247243179" id="-34700">
		<tag k="alt_name" v="Fagerhaug stasjon" />
		<tag k="name" v="Fagerhaug" />
		<tag k="railway" v="station" />
		<tag k="ssr:stedsnr" v="618239" />
		<tag k="train" v="yes" />
	</node>
	<node lat="62.611883329834555" lon="9.881852769772578" id="-34773">
		<tag k="highway" v="path" />
		<tag k="name" v="Langvelldalsstigen" />
		<tag k="ssr:stedsnr" v="650473" />
	</node>
	<node lat="62.51783333607342" lon="9.286330562835587" id="-34785">
		<tag k="ford" v="yes" />
		<tag k="name" v="Ståkkåbekkvadet" />
		<tag k="place" v="locality" />
		<tag k="ssr:stedsnr" v="711273" />
	</node>
	<node lat="62.573052779297875" lon="9.390441675980691" id="-34790">
		<tag k="highway" v="path" />
		<tag k="name" v="Sandbekkbakkan" />
		<tag k="ssr:stedsnr" v="711373" />
	</node>
	<node lat="62.592188888765385" lon="9.934524990797563" id="-34794">
		<tag k="highway" v="path" />
		<tag k="name" v="Næringdalsvegen" />
		<tag k="ssr:stedsnr" v="711473" />
	</node>
	<node lat="62.651413887954426" lon="9.85196389232395" id="-34951">
		<tag k="aeroway" v="airstrip" />
		<tag k="name" v="Oppdal flyplass, Fagerhaug" />
		<tag k="old_name" v="Oppdal flyplass" />
		<tag k="ssr:stedsnr" v="816594" />
	</node>
	<node lat="62.52088055777075" lon="9.300208342909563" id="-34996">
		<tag k="highway" v="path" />
		<tag k="name" v="Stortæla" />
		<tag k="ssr:stedsnr" v="833267" />
	</node>
	<node lat="62.623136107433034" lon="9.92994444174645" id="-35127">
		<tag k="highway" v="path" />
		<tag k="name" v="Langvelldalsvegen" />
		<tag k="ssr:stedsnr" v="953536" />
	</node>
</osm>
