<?xml version="1.0" encoding="UTF-8"?>
<osm generator="osmapis" version="0.6">
	<node id="-38583" lat="60.2567371931" lon="10.6624563042">
		<tag k="name" v="Grua torg" />
		<tag k="ssr:date" v="2019-12-27" />
		<tag k="ssr:gruppe" v="veg" />
		<tag k="ssr:hovedgruppe" v="infrastruktur" />
		<tag k="ssr:stedsnr" v="1073775" />
		<tag k="ssr:type" v="adressenavn" />
	</node>
	<node id="-38582" lat="60.2653777311" lon="10.5417977772">
		<tag k="name" v="HoltÃ¥sveien" />
		<tag k="ssr:date" v="2019-12-27" />
		<tag k="ssr:gruppe" v="veg" />
		<tag k="ssr:hovedgruppe" v="infrastruktur" />
		<tag k="ssr:stedsnr" v="1018292" />
		<tag k="ssr:type" v="adressenavn" />
	</node>
	<node id="-37996" lat="60.2657034909" lon="10.6636161481">
		<tag k="name" v="Grualia" />
		<tag k="ssr:date" v="2019-12-27" />
		<tag k="ssr:gruppe" v="veg" />
		<tag k="ssr:hovedgruppe" v="infrastruktur" />
		<tag k="ssr:stedsnr" v="1016739" />
		<tag k="ssr:type" v="adressenavn" />
	</node>
	<node id="-38019" lat="60.2937277792" lon="10.6100027826">
		<tag k="name" v="Lunner kommune" />
		<tag k="ssr:date" v="2019-12-27" />
		<tag k="ssr:gruppe" v="administrativeIndelinger" />
		<tag k="ssr:hovedgruppe" v="offentligAdministrasjon" />
		<tag k="ssr:stedsnr" v="24951" />
		<tag k="ssr:type" v="kommune" />
	</node>
	<node id="-38585" lat="59.9116896876" lon="10.7581882267">
		<tag k="name" v="Viken fylke" />
		<tag k="ssr:date" v="2020-01-13" />
		<tag k="ssr:gruppe" v="administrativeIndelinger" />
		<tag k="ssr:hovedgruppe" v="offentligAdministrasjon" />
		<tag k="ssr:stedsnr" v="1074403" />
		<tag k="ssr:type" v="fylke" />
	</node>
</osm>
