<?xml version="1.0" encoding="UTF-8"?>
<osm generator="osmapis" version="0.6">
	<node id="-346080" lat="58.3570094244" lon="8.03751822727">
		<tag k="name" v="Vorelandsvegen" />
		<tag k="ssr:date" v="2019-05-30" />
		<tag k="ssr:gruppe" v="veg" />
		<tag k="ssr:hovedgruppe" v="infrastruktur" />
		<tag k="ssr:stedsnr" v="1009089" />
		<tag k="ssr:type" v="adressenavn" />
	</node>
	<node id="-347076" lat="58.2687166628" lon="7.97242500773">
		<tag k="loc_name" v="Vennesla" />
		<tag k="name" v="Vennesla kommune" />
		<tag k="ssr:date" v="2017-11-10" />
		<tag k="ssr:gruppe" v="administrativeIndelinger" />
		<tag k="ssr:hovedgruppe" v="offentligAdministrasjon" />
		<tag k="ssr:stedsnr" v="267090" />
		<tag k="ssr:type" v="kommune" />
	</node>
	<node id="-345301" lat="58.3201722214" lon="7.93898333777">
		<tag k="name" v="Hobbybanen" />
		<tag k="ssr:date" v="2016-05-10" />
		<tag k="ssr:gruppe" v="bane" />
		<tag k="ssr:hovedgruppe" v="infrastruktur" />
		<tag k="ssr:stedsnr" v="277669" />
		<tag k="ssr:type" v="banestrekning" />
	</node>
	<node id="-346086" lat="58.2946908645" lon="7.83706537873">
		<tag k="name" v="Øvrebø Industriområde" />
		<tag k="ssr:date" v="2019-05-30" />
		<tag k="ssr:gruppe" v="veg" />
		<tag k="ssr:hovedgruppe" v="infrastruktur" />
		<tag k="ssr:stedsnr" v="1009504" />
		<tag k="ssr:type" v="adressenavn" />
	</node>
	<node id="-346085" lat="58.2878002934" lon="7.87827788822">
		<tag k="name" v="Lolandskollen" />
		<tag k="ssr:date" v="2019-05-30" />
		<tag k="ssr:gruppe" v="veg" />
		<tag k="ssr:hovedgruppe" v="infrastruktur" />
		<tag k="ssr:stedsnr" v="1009020" />
		<tag k="ssr:type" v="adressenavn" />
	</node>
	<node id="-346084" lat="58.4374193365" lon="7.74124215234">
		<tag k="name" v="Stemvannsvegen" />
		<tag k="ssr:date" v="2019-05-30" />
		<tag k="ssr:gruppe" v="veg" />
		<tag k="ssr:hovedgruppe" v="infrastruktur" />
		<tag k="ssr:stedsnr" v="1009182" />
		<tag k="ssr:type" v="adressenavn" />
	</node>
	<node id="-346083" lat="58.3871425397" lon="7.74158366302">
		<tag k="name" v="Kjørkebrotet" />
		<tag k="ssr:date" v="2019-05-30" />
		<tag k="ssr:gruppe" v="veg" />
		<tag k="ssr:hovedgruppe" v="infrastruktur" />
		<tag k="ssr:stedsnr" v="1008735" />
		<tag k="ssr:type" v="adressenavn" />
	</node>
	<node id="-346082" lat="58.4283935237" lon="7.75427080208">
		<tag k="name" v="Lauvåsvegen" />
		<tag k="ssr:date" v="2019-05-30" />
		<tag k="ssr:gruppe" v="veg" />
		<tag k="ssr:hovedgruppe" v="infrastruktur" />
		<tag k="ssr:stedsnr" v="1008720" />
		<tag k="ssr:type" v="adressenavn" />
	</node>
	<node id="-346081" lat="58.2637946039" lon="7.94940229544">
		<tag k="name" v="Hvitveisstien" />
		<tag k="ssr:date" v="2019-05-30" />
		<tag k="ssr:gruppe" v="veg" />
		<tag k="ssr:hovedgruppe" v="infrastruktur" />
		<tag k="ssr:stedsnr" v="1008567" />
		<tag k="ssr:type" v="adressenavn" />
	</node>
</osm>
