<?xml version="1.0" encoding="UTF-8"?>
<osm generator="osmapis" version="0.6">
	<node id="-223573" lat="58.8293472252" lon="9.33979166167">
		<tag k="name" v="Lågåsmyr" />
		<tag k="natural" v="wetland" />
		<tag k="ssr:stedsnr" v="91576" />
	</node>
	<node id="-223219" lat="58.8691916646" lon="9.18715832989">
		<tag k="name" v="Tørrbergsmyra" />
		<tag k="natural" v="wetland" />
		<tag k="ssr:stedsnr" v="881981" />
	</node>
	<node id="-223213" lat="58.8673111143" lon="9.19626666694">
		<tag k="name" v="Mannsmyr Lønne" />
		<tag k="natural" v="wetland" />
		<tag k="ssr:stedsnr" v="395580" />
	</node>
	<node id="-223212" lat="58.8763722233" lon="9.22713333735">
		<tag k="name" v="Nedre Staksnesmyr" />
		<tag k="natural" v="wetland" />
		<tag k="ssr:stedsnr" v="395475" />
	</node>
	<node id="-225255" lat="58.919591668" lon="9.36171944875">
		<tag k="name" v="Dammyra" />
		<tag k="natural" v="wetland" />
		<tag k="ssr:stedsnr" v="759444" />
	</node>
	<node id="-225248" lat="58.9336444459" lon="9.33720832598">
		<tag k="name" v="Dammkjerr" />
		<tag k="natural" v="wetland" />
		<tag k="ssr:stedsnr" v="759269" />
	</node>
	<node id="-225247" lat="58.9874222202" lon="9.31969443653">
		<tag k="name" v="Øygardsmyrane" />
		<tag k="natural" v="wetland" />
		<tag k="ssr:stedsnr" v="759263" />
	</node>
	<node id="-225246" lat="58.9478250031" lon="9.35499167137">
		<tag k="name" v="Knutemyra" />
		<tag k="natural" v="wetland" />
		<tag k="ssr:stedsnr" v="759204" />
	</node>
	<node id="-225235" lat="58.9302722201" lon="9.22865277216">
		<tag k="name" v="Antonsmyra" />
		<tag k="natural" v="wetland" />
		<tag k="ssr:stedsnr" v="759058" />
	</node>
	<node id="-225240" lat="58.8824055581" lon="9.26766667363">
		<tag k="name" v="Langkjerr" />
		<tag k="natural" v="wetland" />
		<tag k="ssr:stedsnr" v="759096" />
	</node>
	<node id="-225239" lat="58.9433166687" lon="9.23975833902">
		<tag k="name" v="Store Jonslått" />
		<tag k="natural" v="wetland" />
		<tag k="ssr:stedsnr" v="759094" />
	</node>
	<node id="-223188" lat="58.7830416668" lon="9.35965833486">
		<tag k="name" v="Bjordammen" />
		<tag k="place" v="locality" />
		<tag k="ssr:stedsnr" v="394850" />
	</node>
	<node id="-223187" lat="58.7833444417" lon="9.35408055858">
		<tag k="name" v="Langkjerr" />
		<tag k="place" v="locality" />
		<tag k="ssr:stedsnr" v="394849" />
	</node>
	<node id="-225232" lat="58.8192138847" lon="9.35621944855">
		<tag k="name" v="Hetlesmyr" />
		<tag k="natural" v="wetland" />
		<tag k="ssr:stedsnr" v="758989" />
	</node>
	<node id="-225231" lat="58.8139333334" lon="9.30231111112">
		<tag k="name" v="Passermyrane" />
		<tag k="natural" v="wetland" />
		<tag k="ssr:stedsnr" v="758987" />
	</node>
	<node id="-225230" lat="58.7963500032" lon="9.31894167138">
		<tag k="name" v="Langlibråten" />
		<tag k="place" v="locality" />
		<tag k="ssr:stedsnr" v="758976" />
	</node>
	<node id="-223180" lat="58.9216388909" lon="9.3166527791">
		<tag k="name" v="Stillgårdskjerr" />
		<tag k="natural" v="wetland" />
		<tag k="ssr:stedsnr" v="394787" />
	</node>
	<node id="-225227" lat="58.9664361138" lon="9.25840834083">
		<tag k="name" v="Fossjordet" />
		<tag k="place" v="locality" />
		<tag k="ssr:stedsnr" v="758948" />
	</node>
	<node id="-223176" lat="58.8003611107" lon="9.36441388527">
		<tag k="name" v="Gurramyra" />
		<tag k="natural" v="wetland" />
		<tag k="ssr:stedsnr" v="394761" />
	</node>
	<node id="-225221" lat="58.7994222225" lon="9.34816111155">
		<tag k="name" v="Husmyrane" />
		<tag k="natural" v="wetland" />
		<tag k="ssr:stedsnr" v="758800" />
	</node>
	<node id="-225220" lat="58.8572638887" lon="9.28401111273">
		<tag k="name" v="Lifjellmyra" />
		<tag k="natural" v="wetland" />
		<tag k="ssr:stedsnr" v="758783" />
	</node>
	<node id="-225218" lat="58.8515222204" lon="9.20750834013">
		<tag k="name" v="Brunkjerr" />
		<tag k="natural" v="wetland" />
		<tag k="ssr:stedsnr" v="758724" />
	</node>
	<node id="-225217" lat="58.8952416644" lon="9.18593888588">
		<tag k="name" v="Nordre Fosteråskjerr" />
		<tag k="natural" v="wetland" />
		<tag k="ssr:stedsnr" v="758711" />
	</node>
	<node id="-225216" lat="58.8433416654" lon="9.23255277037">
		<tag k="name" v="Kristofferskjerr" />
		<tag k="natural" v="wetland" />
		<tag k="ssr:stedsnr" v="758703" />
	</node>
	<node id="-223162" lat="58.8588111073" lon="9.24204167342">
		<tag k="name" v="Fossvannsgarden" />
		<tag k="place" v="locality" />
		<tag k="ssr:stedsnr" v="394632" />
	</node>
	<node id="-223158" lat="58.8270472263" lon="9.34965000455">
		<tag k="name" v="Lyngåsheia" />
		<tag k="place" v="locality" />
		<tag k="ssr:stedsnr" v="394595" />
	</node>
	<node id="-225204" lat="58.8800472201" lon="9.26304722346">
		<tag k="name" v="Nepebråten" />
		<tag k="place" v="locality" />
		<tag k="ssr:stedsnr" v="758512" />
	</node>
	<node id="-225203" lat="58.8811000038" lon="9.26683611968">
		<tag k="name" v="Bedrumshullet" />
		<tag k="place" v="locality" />
		<tag k="ssr:stedsnr" v="758510" />
	</node>
	<node id="-225201" lat="58.9202166651" lon="9.22472500759">
		<tag k="name" v="Skjerkkjerra" />
		<tag k="natural" v="wetland" />
		<tag k="ssr:stedsnr" v="758477" />
	</node>
	<node id="-225195" lat="58.9090500007" lon="9.26907499842">
		<tag k="name" v="Skjærgrasmyra" />
		<tag k="natural" v="wetland" />
		<tag k="ssr:stedsnr" v="758409" />
	</node>
	<node id="-223146" lat="58.8038361148" lon="9.22477499296">
		<tag k="name" v="Stølekjerr" />
		<tag k="natural" v="wetland" />
		<tag k="ssr:stedsnr" v="394330" />
	</node>
	<node id="-225193" lat="58.912094447" lon="9.21748332488">
		<tag k="name" v="Høystakkmyra" />
		<tag k="natural" v="wetland" />
		<tag k="ssr:stedsnr" v="758359" />
	</node>
	<node id="-223143" lat="58.9334499977" lon="9.34163332728">
		<tag k="name" v="Tisjømyrane" />
		<tag k="natural" v="wetland" />
		<tag k="ssr:stedsnr" v="394290" />
	</node>
	<node id="-223141" lat="58.7970305565" lon="9.24116666607">
		<tag k="name" v="Slettheifjellmyra" />
		<tag k="natural" v="wetland" />
		<tag k="ssr:stedsnr" v="394277" />
	</node>
	<node id="-223140" lat="58.8802694416" lon="9.32893055751">
		<tag k="name" v="Lukjerr" />
		<tag k="natural" v="wetland" />
		<tag k="ssr:stedsnr" v="394263" />
	</node>
	<node id="-225186" lat="58.8836416655" lon="9.16396110711">
		<tag k="name" v="Steane" />
		<tag k="natural" v="wetland" />
		<tag k="ssr:stedsnr" v="758284" />
	</node>
	<node id="-223137" lat="58.9076722215" lon="9.20826666394">
		<tag k="name" v="Hoppansdalkjerret" />
		<tag k="natural" v="wetland" />
		<tag k="ssr:stedsnr" v="394252" />
	</node>
	<node id="-225183" lat="58.7857555517" lon="9.30134721743">
		<tag k="name" v="Skrubbskarkjerret" />
		<tag k="natural" v="wetland" />
		<tag k="ssr:stedsnr" v="758265" />
	</node>
	<node id="-225182" lat="58.7917333317" lon="9.29003888204">
		<tag k="name" v="Runde Kolbjørnsmyr" />
		<tag k="natural" v="wetland" />
		<tag k="ssr:stedsnr" v="758259" />
	</node>
	<node id="-225180" lat="58.7879722188" lon="9.28860834019">
		<tag k="name" v="Gograsmyr" />
		<tag k="natural" v="wetland" />
		<tag k="ssr:stedsnr" v="758255" />
	</node>
	<node id="-223123" lat="58.9350777795" lon="9.23257221846">
		<tag k="name" v="Hovstølmyra" />
		<tag k="natural" v="wetland" />
		<tag k="ssr:stedsnr" v="394060" />
	</node>
	<node id="-223115" lat="58.8248055555" lon="9.39192222929">
		<tag k="name" v="Grokjerr" />
		<tag k="natural" v="wetland" />
		<tag k="ssr:stedsnr" v="393931" />
	</node>
	<node id="-225160" lat="58.907322223" lon="9.43525555392">
		<tag k="name" v="Moltemyra" />
		<tag k="natural" v="wetland" />
		<tag k="ssr:stedsnr" v="757500" />
	</node>
	<node id="-225150" lat="58.9222499988" lon="9.47605833544">
		<tag k="name" v="Paddekjenn" />
		<tag k="natural" v="wetland" />
		<tag k="ssr:stedsnr" v="757254" />
	</node>
	<node id="-223101" lat="58.9107833348" lon="9.42458055809">
		<tag k="name" v="Severinsmyr" />
		<tag k="natural" v="wetland" />
		<tag k="ssr:stedsnr" v="393493" />
	</node>
	<node id="-225148" lat="58.9101527778" lon="9.49647221867">
		<tag k="name" v="Langøymyra" />
		<tag k="natural" v="wetland" />
		<tag k="ssr:stedsnr" v="757251" />
	</node>
	<node id="-223097" lat="58.9166777801" lon="9.39880277441">
		<tag k="name" v="Bånnmyra" />
		<tag k="natural" v="wetland" />
		<tag k="ssr:stedsnr" v="393417" />
	</node>
	<node id="-223080" lat="58.8954722193" lon="9.46484166702">
		<tag k="landuse" v="quarry" />
		<tag k="name" v="Seteren kvartsbrudd" />
		<tag k="ssr:stedsnr" v="393179" />
	</node>
	<node id="-223036" lat="58.8945888882" lon="9.1956916682">
		<tag k="name" v="Langkjerr" />
		<tag k="natural" v="wetland" />
		<tag k="ssr:stedsnr" v="365206" />
	</node>
	<node id="-223035" lat="58.8247833333" lon="9.19799721469">
		<tag k="name" v="Røykjerr" />
		<tag k="natural" v="wetland" />
		<tag k="ssr:stedsnr" v="365041" />
	</node>
	<node id="-225073" lat="58.8980916684" lon="9.23626388281">
		<tag k="name" v="Lensmannshogsten" />
		<tag k="place" v="locality" />
		<tag k="ssr:stedsnr" v="699005" />
	</node>
	<node id="-225072" lat="58.9501083355" lon="9.24065554798">
		<tag k="name" v="Hyttjennmyra" />
		<tag k="natural" v="wetland" />
		<tag k="ssr:stedsnr" v="698992" />
	</node>
	<node id="-225071" lat="58.8695194451" lon="9.17601943956">
		<tag k="name" v="Skiftingsholet" />
		<tag k="place" v="locality" />
		<tag k="ssr:stedsnr" v="698989" />
	</node>
	<node id="-225065" lat="58.8073166681" lon="9.32351111517">
		<tag k="name" v="Eidsdalsmyr" />
		<tag k="natural" v="wetland" />
		<tag k="ssr:stedsnr" v="698940" />
	</node>
	<node id="-225061" lat="58.9536722191" lon="9.29862777714">
		<tag k="name" v="Kollbånn" />
		<tag k="place" v="locality" />
		<tag k="ssr:stedsnr" v="698909" />
	</node>
	<node id="-225054" lat="58.895505555" lon="9.17968333409">
		<tag k="name" v="Holebotn" />
		<tag k="natural" v="wetland" />
		<tag k="ssr:stedsnr" v="698679" />
	</node>
	<node id="-225053" lat="58.8995722262" lon="9.188416662">
		<tag k="name" v="Bjørkekjerr" />
		<tag k="natural" v="wetland" />
		<tag k="ssr:stedsnr" v="698676" />
	</node>
	<node id="-225047" lat="58.8586305525" lon="9.2341527811">
		<tag k="name" v="Bråtane" />
		<tag k="place" v="locality" />
		<tag k="ssr:stedsnr" v="698624" />
	</node>
	<node id="-222997" lat="58.810061107" lon="9.28339999698">
		<tag k="name" v="Hesplemyr" />
		<tag k="natural" v="wetland" />
		<tag k="ssr:stedsnr" v="334954" />
	</node>
	<node id="-225044" lat="58.9168666629" lon="9.33226944988">
		<tag k="name" v="Bråten" />
		<tag k="place" v="locality" />
		<tag k="ssr:stedsnr" v="698591" />
	</node>
	<node id="-225040" lat="58.8713638872" lon="9.19270276911">
		<tag k="name" v="Rullefjellmyra" />
		<tag k="natural" v="wetland" />
		<tag k="ssr:stedsnr" v="698491" />
	</node>
	<node id="-225037" lat="58.9902805558" lon="9.30420278241">
		<tag k="name" v="Eikelundskjerret" />
		<tag k="natural" v="wetland" />
		<tag k="ssr:stedsnr" v="698451" />
	</node>
	<node id="-225036" lat="58.9962583374" lon="9.30420555078">
		<tag k="name" v="Nordmyrane" />
		<tag k="natural" v="wetland" />
		<tag k="ssr:stedsnr" v="698444" />
	</node>
	<node id="-225034" lat="58.8153500041" lon="9.1930166711">
		<tag k="name" v="Bekkslåtta" />
		<tag k="natural" v="wetland" />
		<tag k="ssr:stedsnr" v="698432" />
	</node>
	<node id="-223191" lat="58.8201361135" lon="9.38160833957">
		<tag k="name" v="Strandmyr" />
		<tag k="place" v="locality" />
		<tag k="ssr:stedsnr" v="394907" />
	</node>
	<node id="-225030" lat="58.9851472245" lon="9.31890278604">
		<tag k="name" v="Kartmyr" />
		<tag k="natural" v="wetland" />
		<tag k="ssr:stedsnr" v="698301" />
	</node>
	<node id="-225029" lat="58.9242305527" lon="9.24121389494">
		<tag k="name" v="Jambakkmyra" />
		<tag k="natural" v="wetland" />
		<tag k="ssr:stedsnr" v="698285" />
	</node>
	<node id="-222980" lat="58.9072222259" lon="9.33615278508">
		<tag k="name" v="Solumbakken" />
		<tag k="place" v="locality" />
		<tag k="ssr:stedsnr" v="334616" />
	</node>
	<node id="-225020" lat="58.7846555595" lon="9.29051111671">
		<tag k="name" v="Langmyr" />
		<tag k="natural" v="wetland" />
		<tag k="ssr:stedsnr" v="698195" />
	</node>
	<node id="-225016" lat="58.886752782" lon="9.21701389389">
		<tag k="name" v="Grautkjerr" />
		<tag k="natural" v="wetland" />
		<tag k="ssr:stedsnr" v="698140" />
	</node>
	<node id="-225013" lat="58.9311111114" lon="9.24202499909">
		<tag k="name" v="Hovstøltjennmyra" />
		<tag k="natural" v="wetland" />
		<tag k="ssr:stedsnr" v="698049" />
	</node>
	<node id="-225010" lat="58.9506333369" lon="9.34043889013">
		<tag k="name" v="Spikkedalsmyra" />
		<tag k="natural" v="wetland" />
		<tag k="ssr:stedsnr" v="698036" />
	</node>
	<node id="-222961" lat="58.927658332" lon="9.33838333269">
		<tag k="name" v="Tisjødalen" />
		<tag k="place" v="locality" />
		<tag k="ssr:stedsnr" v="334243" />
	</node>
	<node id="-222959" lat="58.9688111093" lon="9.35293611699">
		<tag k="name" v="Dobbedalskjerret" />
		<tag k="natural" v="wetland" />
		<tag k="ssr:stedsnr" v="334220" />
	</node>
	<node id="-222953" lat="58.9400083367" lon="9.23649722576">
		<tag k="name" v="Gunnarsmyra" />
		<tag k="natural" v="wetland" />
		<tag k="ssr:stedsnr" v="334086" />
	</node>
	<node id="-222950" lat="58.8959055544" lon="9.23135277607">
		<tag k="name" v="Diplemyr" />
		<tag k="natural" v="wetland" />
		<tag k="ssr:stedsnr" v="334041" />
	</node>
	<node id="-224996" lat="58.8316750043" lon="9.38360000743">
		<tag k="name" v="Stormyr" />
		<tag k="natural" v="wetland" />
		<tag k="ssr:stedsnr" v="697893" />
	</node>
	<node id="-224995" lat="58.7990361095" lon="9.3579750007">
		<tag k="name" v="Skottmyr" />
		<tag k="natural" v="wetland" />
		<tag k="ssr:stedsnr" v="697807" />
	</node>
	<node id="-223184" lat="58.9162972243" lon="9.3225694527">
		<tag k="name" v="Hasseleidet" />
		<tag k="place" v="locality" />
		<tag k="ssr:stedsnr" v="394814" />
	</node>
	<node id="-222940" lat="58.924486109" lon="9.45527222881">
		<tag k="name" v="Dammyra" />
		<tag k="natural" v="wetland" />
		<tag k="ssr:stedsnr" v="333811" />
	</node>
	<node id="-224985" lat="58.8257694437" lon="9.3644888853">
		<tag k="name" v="Blautmyr" />
		<tag k="natural" v="wetland" />
		<tag k="ssr:stedsnr" v="697587" />
	</node>
	<node id="-224982" lat="58.842691665" lon="9.35292500694">
		<tag k="name" v="Styggkjerr" />
		<tag k="place" v="locality" />
		<tag k="ssr:stedsnr" v="697518" />
	</node>
	<node id="-222932" lat="58.8538638912" lon="9.20636667503">
		<tag k="name" v="Kvellanmyra" />
		<tag k="natural" v="wetland" />
		<tag k="ssr:stedsnr" v="333696" />
	</node>
	<node id="-224971" lat="58.9188000029" lon="9.46127777173">
		<tag k="name" v="Lamyra" />
		<tag k="place" v="locality" />
		<tag k="ssr:stedsnr" v="697290" />
	</node>
	<node id="-224970" lat="58.891163892" lon="9.33075278135">
		<tag k="name" v="Sveimyr" />
		<tag k="place" v="locality" />
		<tag k="ssr:stedsnr" v="697276" />
	</node>
	<node id="-224969" lat="58.7895055578" lon="9.34509999488">
		<tag k="name" v="Vinterkjær" />
		<tag k="natural" v="wetland" />
		<tag k="ssr:stedsnr" v="697271" />
	</node>
	<node id="-222920" lat="58.9049527781" lon="9.39214444101">
		<tag k="name" v="Hellemyra" />
		<tag k="natural" v="wetland" />
		<tag k="ssr:stedsnr" v="333422" />
	</node>
	<node id="-223179" lat="58.8107416628" lon="9.32907221359">
		<tag k="name" v="Lille Moltemyr" />
		<tag k="natural" v="wetland" />
		<tag k="ssr:stedsnr" v="394782" />
	</node>
	<node id="-222910" lat="58.8935305561" lon="9.35696111775">
		<tag k="name" v="Kvernhusmyra" />
		<tag k="place" v="locality" />
		<tag k="ssr:stedsnr" v="333291" />
	</node>
	<node id="-224956" lat="58.8994694482" lon="9.29166389651">
		<tag k="name" v="Gråløngsmyra" />
		<tag k="natural" v="wetland" />
		<tag k="ssr:stedsnr" v="697024" />
	</node>
	<node id="-222900" lat="58.8934194413" lon="9.31547776999">
		<tag k="name" v="Storedalshagen" />
		<tag k="place" v="locality" />
		<tag k="ssr:stedsnr" v="333076" />
	</node>
	<node id="-222892" lat="58.9020388882" lon="9.64122778497">
		<tag k="name" v="Krikken" />
		<tag k="place" v="locality" />
		<tag k="ssr:stedsnr" v="332907" />
	</node>
	<node id="-224939" lat="58.9149277792" lon="9.2520416583">
		<tag k="name" v="Bukkekjerr" />
		<tag k="natural" v="wetland" />
		<tag k="ssr:stedsnr" v="698357" />
	</node>
	<node id="-224938" lat="58.9061222209" lon="9.25473611797">
		<tag k="name" v="Hovtangmyra" />
		<tag k="natural" v="wetland" />
		<tag k="ssr:stedsnr" v="698327" />
	</node>
	<node id="-223172" lat="58.8993555539" lon="9.19448333529">
		<tag k="name" v="Rytterkjerra" />
		<tag k="natural" v="wetland" />
		<tag k="ssr:stedsnr" v="394706" />
	</node>
	<node id="-224914" lat="58.8383083315" lon="9.38398055258">
		<tag k="name" v="Diplemyr" />
		<tag k="natural" v="wetland" />
		<tag k="ssr:stedsnr" v="692564" />
	</node>
	<node id="-222783" lat="58.8248833296" lon="9.34732221675">
		<tag k="name" v="Kartmyr" />
		<tag k="natural" v="wetland" />
		<tag k="ssr:stedsnr" v="273583" />
	</node>
	<node id="-222832" lat="58.8972055558" lon="9.19943055653">
		<tag k="alt_name" v="Stormyr" />
		<tag k="name" v="Storemyr" />
		<tag k="natural" v="wetland" />
		<tag k="ssr:stedsnr" v="304236" />
	</node>
	<node id="-222823" lat="58.9535861084" lon="9.28649444116">
		<tag k="name" v="Paraplykjerr" />
		<tag k="natural" v="wetland" />
		<tag k="ssr:stedsnr" v="274894" />
	</node>
	<node id="-222818" lat="58.9844472189" lon="9.30396111209">
		<tag k="name" v="Ormslåtta" />
		<tag k="natural" v="wetland" />
		<tag k="ssr:stedsnr" v="274287" />
	</node>
	<node id="-224861" lat="58.8621194435" lon="9.19325000739">
		<tag k="alt_name" v="Mannsmyr Lindheim" />
		<tag k="name" v="Mannsmyrane" />
		<tag k="natural" v="wetland" />
		<tag k="ssr:stedsnr" v="668165" />
	</node>
	<node id="-222810" lat="58.8136083307" lon="9.29340833583">
		<tag k="name" v="Stormyr" />
		<tag k="natural" v="wetland" />
		<tag k="ssr:stedsnr" v="273996" />
	</node>
	<node id="-222809" lat="58.9532055553" lon="9.26752778204">
		<tag k="name" v="Klaskjerr" />
		<tag k="natural" v="wetland" />
		<tag k="ssr:stedsnr" v="273989" />
	</node>
	<node id="-222807" lat="58.8334027786" lon="9.32909722569">
		<tag k="name" v="Sandsteane" />
		<tag k="place" v="locality" />
		<tag k="ssr:stedsnr" v="273954" />
	</node>
	<node id="-224852" lat="58.9681194431" lon="9.27371388922">
		<tag k="name" v="Kåsene" />
		<tag k="place" v="locality" />
		<tag k="ssr:stedsnr" v="637910" />
	</node>
	<node id="-224849" lat="58.8190416711" lon="9.19571666668">
		<tag k="name" v="Lonmyr" />
		<tag k="natural" v="wetland" />
		<tag k="ssr:stedsnr" v="637737" />
	</node>
	<node id="-224840" lat="58.9954472186" lon="9.30850000059">
		<tag k="name" v="Tjærehjellmyra" />
		<tag k="natural" v="wetland" />
		<tag k="ssr:stedsnr" v="637507" />
	</node>
	<node id="-222790" lat="58.8227500003" lon="9.3220916609">
		<tag k="name" v="Hegna" />
		<tag k="natural" v="wetland" />
		<tag k="ssr:stedsnr" v="273765" />
	</node>
	<node id="-224837" lat="58.8751111135" lon="9.21945556362">
		<tag k="name" v="Mellomste Staksnesmyr" />
		<tag k="natural" v="wetland" />
		<tag k="ssr:stedsnr" v="637489" />
	</node>
	<node id="-224832" lat="58.9197166672" lon="9.20869166218">
		<tag k="name" v="Krokmyrane" />
		<tag k="natural" v="wetland" />
		<tag k="ssr:stedsnr" v="637329" />
	</node>
	<node id="-224831" lat="58.9169305535" lon="9.20923333624">
		<tag k="name" v="Våtmyr" />
		<tag k="natural" v="wetland" />
		<tag k="ssr:stedsnr" v="637327" />
	</node>
	<node id="-224830" lat="58.9183666658" lon="9.21513332924">
		<tag k="name" v="Barlindkjerret" />
		<tag k="natural" v="wetland" />
		<tag k="ssr:stedsnr" v="637326" />
	</node>
	<node id="-224827" lat="58.8018166665" lon="9.23726945222">
		<tag k="name" v="Pålemyr" />
		<tag k="natural" v="wetland" />
		<tag k="ssr:stedsnr" v="637301" />
	</node>
	<node id="-224825" lat="58.9448638847" lon="9.29637777653">
		<tag k="name" v="Svarttjennslåtta" />
		<tag k="natural" v="wetland" />
		<tag k="ssr:stedsnr" v="637287" />
	</node>
	<node id="-222776" lat="58.8023916696" lon="9.20664444004">
		<tag k="name" v="Hølsmyra" />
		<tag k="natural" v="wetland" />
		<tag k="ssr:stedsnr" v="273464" />
	</node>
	<node id="-224819" lat="58.9002138868" lon="9.21350278189">
		<tag k="name" v="Kreskjerrsmyr" />
		<tag k="natural" v="wetland" />
		<tag k="ssr:stedsnr" v="637204" />
	</node>
	<node id="-222770" lat="58.9099888899" lon="9.2235250073">
		<tag k="name" v="Slettfjellmyra" />
		<tag k="natural" v="wetland" />
		<tag k="ssr:stedsnr" v="273401" />
	</node>
	<node id="-222769" lat="58.9048027764" lon="9.27042499704">
		<tag k="name" v="Rundtjenn" />
		<tag k="natural" v="wetland" />
		<tag k="ssr:stedsnr" v="273366" />
	</node>
	<node id="-224814" lat="58.9383000031" lon="9.25052500776">
		<tag k="name" v="Lille Jonslått" />
		<tag k="natural" v="wetland" />
		<tag k="ssr:stedsnr" v="637096" />
	</node>
	<node id="-224813" lat="58.9627166627" lon="9.33451666578">
		<tag k="name" v="Rørholtmyrane" />
		<tag k="natural" v="wetland" />
		<tag k="ssr:stedsnr" v="637066" />
	</node>
	<node id="-224811" lat="58.8899833321" lon="9.2198305628">
		<tag k="name" v="Lille Dammyra" />
		<tag k="natural" v="wetland" />
		<tag k="ssr:stedsnr" v="637045" />
	</node>
	<node id="-222760" lat="58.9291555559" lon="9.35422499787">
		<tag k="landuse" v="quarry" />
		<tag k="name" v="Landsverkgruvene" />
		<tag k="ssr:stedsnr" v="273259" />
	</node>
	<node id="-224807" lat="58.8206999972" lon="9.40156666122">
		<tag k="name" v="Bumyr" />
		<tag k="natural" v="wetland" />
		<tag k="ssr:stedsnr" v="636923" />
	</node>
	<node id="-222756" lat="58.7795694471" lon="9.30028610388">
		<tag k="name" v="Langmyr" />
		<tag k="natural" v="wetland" />
		<tag k="ssr:stedsnr" v="273210" />
	</node>
	<node id="-224799" lat="58.8240444412" lon="9.32588333616">
		<tag k="name" v="Kortmyr" />
		<tag k="natural" v="wetland" />
		<tag k="ssr:stedsnr" v="636761" />
	</node>
	<node id="-222750" lat="58.9397694449" lon="9.27076388909">
		<tag k="name" v="Bjønnmyra" />
		<tag k="natural" v="wetland" />
		<tag k="ssr:stedsnr" v="273088" />
	</node>
	<node id="-224796" lat="58.8288194478" lon="9.35288611506">
		<tag k="name" v="Langmyr" />
		<tag k="natural" v="wetland" />
		<tag k="ssr:stedsnr" v="636586" />
	</node>
	<node id="-222745" lat="58.9631638886" lon="9.34452221648">
		<tag k="name" v="Postkjerr" />
		<tag k="natural" v="wetland" />
		<tag k="ssr:stedsnr" v="273045" />
	</node>
	<node id="-222744" lat="58.9641416702" lon="9.37239722928">
		<tag k="name" v="Myrane" />
		<tag k="natural" v="wetland" />
		<tag k="ssr:stedsnr" v="273041" />
	</node>
	<node id="-222741" lat="58.9583861107" lon="9.37586389026">
		<tag k="name" v="Langmyr" />
		<tag k="natural" v="wetland" />
		<tag k="ssr:stedsnr" v="273032" />
	</node>
	<node id="-224788" lat="58.8205777765" lon="9.30198610387">
		<tag k="name" v="Eidsmyra" />
		<tag k="natural" v="wetland" />
		<tag k="ssr:stedsnr" v="636313" />
	</node>
	<node id="-222739" lat="58.956455555" lon="9.34711665864">
		<tag k="name" v="Langmyr" />
		<tag k="natural" v="wetland" />
		<tag k="ssr:stedsnr" v="273021" />
	</node>
	<node id="-222736" lat="58.8253777794" lon="9.41533055632">
		<tag k="name" v="Langemyr" />
		<tag k="natural" v="wetland" />
		<tag k="ssr:stedsnr" v="272924" />
	</node>
	<node id="-222729" lat="58.9297138898" lon="9.45169999408">
		<tag k="name" v="Røymyra" />
		<tag k="natural" v="wetland" />
		<tag k="ssr:stedsnr" v="272794" />
	</node>
	<node id="-222723" lat="58.8583277751" lon="9.1914833342">
		<tag k="name" v="Urfjellmyra" />
		<tag k="natural" v="wetland" />
		<tag k="ssr:stedsnr" v="272674" />
	</node>
	<node id="-224768" lat="58.7997027806" lon="9.29709443724">
		<tag k="name" v="Skiftingsmyr" />
		<tag k="natural" v="wetland" />
		<tag k="ssr:stedsnr" v="636094" />
	</node>
	<node id="-224767" lat="58.8961083298" lon="9.29710834098">
		<tag k="name" v="Lyngmyr" />
		<tag k="place" v="locality" />
		<tag k="ssr:stedsnr" v="636042" />
	</node>
	<node id="-222715" lat="58.920005553" lon="9.48145555432">
		<tag k="name" v="Østremyra" />
		<tag k="place" v="locality" />
		<tag k="ssr:stedsnr" v="272357" />
	</node>
	<node id="-222804" lat="58.8216805581" lon="9.37321944513">
		<tag k="name" v="Grismyr" />
		<tag k="natural" v="wetland" />
		<tag k="ssr:stedsnr" v="273894" />
	</node>
	<node id="-224754" lat="58.9064444429" lon="9.52788610516">
		<tag k="name" v="Ørnemyra" />
		<tag k="natural" v="wetland" />
		<tag k="ssr:stedsnr" v="635266" />
	</node>
	<node id="-224748" lat="58.8917055539" lon="9.4121972177">
		<tag k="name" v="Torvmyra" />
		<tag k="natural" v="wetland" />
		<tag k="ssr:stedsnr" v="635129" />
	</node>
	<node id="-222982" lat="58.8551305517" lon="9.22828054778">
		<tag k="name" v="Kjøpmannskjerret" />
		<tag k="natural" v="wetland" />
		<tag k="ssr:stedsnr" v="334648" />
	</node>
	<node id="-222690" lat="58.8765166642" lon="9.60433055185">
		<tag k="name" v="Nordjordet" />
		<tag k="place" v="locality" />
		<tag k="ssr:stedsnr" v="271172" />
	</node>
	<node id="-224704" lat="58.903552781" lon="9.21068333944">
		<tag k="name" v="Langmyr" />
		<tag k="natural" v="wetland" />
		<tag k="ssr:stedsnr" v="607781" />
	</node>
	<node id="-224681" lat="58.8556833319" lon="9.19958332541">
		<tag k="name" v="Fjellmyrane" />
		<tag k="natural" v="wetland" />
		<tag k="ssr:stedsnr" v="607128" />
	</node>
	<node id="-224675" lat="58.8759583356" lon="9.21162222141">
		<tag k="name" v="Staksnesmyra" />
		<tag k="natural" v="wetland" />
		<tag k="ssr:stedsnr" v="577957" />
	</node>
	<node id="-224672" lat="58.9947388898" lon="9.3173194415">
		<tag k="name" v="Ljåmyr" />
		<tag k="natural" v="wetland" />
		<tag k="ssr:stedsnr" v="577466" />
	</node>
	<node id="-224670" lat="58.9790444405" lon="9.30493054816">
		<tag k="name" v="Skillermyra" />
		<tag k="natural" v="wetland" />
		<tag k="ssr:stedsnr" v="577369" />
	</node>
	<node id="-224668" lat="58.9762722248" lon="9.35154443579">
		<tag k="name" v="Nedre Småmyr" />
		<tag k="natural" v="wetland" />
		<tag k="ssr:stedsnr" v="577202" />
	</node>
	<node id="-224663" lat="58.8819666631" lon="9.26498611132">
		<tag k="name" v="Styggkjerr" />
		<tag k="natural" v="wetland" />
		<tag k="ssr:stedsnr" v="577097" />
	</node>
	<node id="-224661" lat="58.9534972178" lon="9.33945833453">
		<tag k="name" v="Røykjerr" />
		<tag k="natural" v="wetland" />
		<tag k="ssr:stedsnr" v="577046" />
	</node>
	<node id="-224654" lat="58.7815083298" lon="9.35942499631">
		<tag k="name" v="Hestehagen" />
		<tag k="place" v="locality" />
		<tag k="ssr:stedsnr" v="576870" />
	</node>
	<node id="-224653" lat="58.7772416689" lon="9.35961665819">
		<tag k="name" v="Bjørndalsmyra" />
		<tag k="place" v="locality" />
		<tag k="ssr:stedsnr" v="576867" />
	</node>
	<node id="-224652" lat="58.7818333298" lon="9.36379166708">
		<tag k="name" v="Slåttane" />
		<tag k="place" v="locality" />
		<tag k="ssr:stedsnr" v="576859" />
	</node>
	<node id="-224648" lat="58.8132916642" lon="9.36072778128">
		<tag k="name" v="Storemyr" />
		<tag k="natural" v="wetland" />
		<tag k="ssr:stedsnr" v="576793" />
	</node>
	<node id="-224639" lat="58.8572916648" lon="9.21485277842">
		<tag k="name" v="Kortmyr" />
		<tag k="natural" v="wetland" />
		<tag k="ssr:stedsnr" v="576652" />
	</node>
	<node id="-224633" lat="58.8419444415" lon="9.350877778">
		<tag k="name" v="Bjørndalen" />
		<tag k="place" v="locality" />
		<tag k="ssr:stedsnr" v="576546" />
	</node>
	<node id="-224618" lat="58.8174388858" lon="9.2963472209">
		<tag k="name" v="Fjellmyr" />
		<tag k="natural" v="wetland" />
		<tag k="ssr:stedsnr" v="576292" />
	</node>
	<node id="-224614" lat="58.9317694472" lon="9.35905833938">
		<tag k="name" v="Breimyr" />
		<tag k="natural" v="wetland" />
		<tag k="ssr:stedsnr" v="576238" />
	</node>
	<node id="-224610" lat="58.9426527821" lon="9.33815278323">
		<tag k="name" v="Nepbråten" />
		<tag k="place" v="locality" />
		<tag k="ssr:stedsnr" v="576194" />
	</node>
	<node id="-224608" lat="58.7970944473" lon="9.30806388651">
		<tag k="name" v="Svadalsmyr" />
		<tag k="natural" v="wetland" />
		<tag k="ssr:stedsnr" v="576089" />
	</node>
	<node id="-224606" lat="58.8886138859" lon="9.21775276987">
		<tag k="name" v="Dammyra" />
		<tag k="natural" v="wetland" />
		<tag k="ssr:stedsnr" v="576049" />
	</node>
	<node id="-224587" lat="58.9087916703" lon="9.43788611785">
		<tag k="name" v="Kjerret" />
		<tag k="place" v="locality" />
		<tag k="ssr:stedsnr" v="575487" />
	</node>
	<node id="-224586" lat="58.9138444402" lon="9.42691110783">
		<tag k="name" v="Kjærlighetsmyra" />
		<tag k="natural" v="wetland" />
		<tag k="ssr:stedsnr" v="575483" />
	</node>
	<node id="-224575" lat="58.8903583367" lon="9.50493055621">
		<tag k="name" v="Putten" />
		<tag k="natural" v="wetland" />
		<tag k="ssr:stedsnr" v="575244" />
	</node>
	<node id="-224573" lat="58.8984861079" lon="9.49603054942">
		<tag k="name" v="Storkjerr" />
		<tag k="place" v="locality" />
		<tag k="ssr:stedsnr" v="575219" />
	</node>
	<node id="-224569" lat="58.8432111072" lon="9.39198610521">
		<tag k="name" v="Ormmyra" />
		<tag k="natural" v="wetland" />
		<tag k="ssr:stedsnr" v="575184" />
	</node>
	<node id="-224568" lat="58.8463333354" lon="9.39703332902">
		<tag k="name" v="Kleivmyra" />
		<tag k="natural" v="wetland" />
		<tag k="ssr:stedsnr" v="575181" />
	</node>
	<node id="-224565" lat="58.8955583342" lon="9.48783332742">
		<tag k="name" v="Hyttemyr" />
		<tag k="natural" v="wetland" />
		<tag k="ssr:stedsnr" v="575165" />
	</node>
	<node id="-222766" lat="58.8189472256" lon="9.30010832756">
		<tag k="name" v="Blautmyr" />
		<tag k="natural" v="wetland" />
		<tag k="ssr:stedsnr" v="273304" />
	</node>
	<node id="-224513" lat="58.9503777735" lon="9.35384166096">
		<tag k="name" v="Hestemyr" />
		<tag k="natural" v="wetland" />
		<tag k="ssr:stedsnr" v="547346" />
	</node>
	<node id="-224495" lat="58.8142472261" lon="9.29955277863">
		<tag k="name" v="Postmyr" />
		<tag k="natural" v="wetland" />
		<tag k="ssr:stedsnr" v="516989" />
	</node>
	<node id="-224493" lat="58.8081805538" lon="9.27494166574">
		<tag k="name" v="Bjørfjellmyr" />
		<tag k="natural" v="wetland" />
		<tag k="ssr:stedsnr" v="516955" />
	</node>
	<node id="-224492" lat="58.8128083289" lon="9.28308888982">
		<tag k="name" v="Ødegårdsmyr" />
		<tag k="natural" v="wetland" />
		<tag k="ssr:stedsnr" v="516953" />
	</node>
	<node id="-224484" lat="58.9070249958" lon="9.32379165847">
		<tag k="name" v="Storemyr" />
		<tag k="natural" v="wetland" />
		<tag k="ssr:stedsnr" v="516803" />
	</node>
	<node id="-224480" lat="58.8217555547" lon="9.21499444292">
		<tag k="name" v="Styggkjerr" />
		<tag k="natural" v="wetland" />
		<tag k="ssr:stedsnr" v="516719" />
	</node>
	<node id="-224479" lat="58.8930250031" lon="9.174075004">
		<tag k="name" v="Slåttskjerr" />
		<tag k="natural" v="wetland" />
		<tag k="ssr:stedsnr" v="516686" />
	</node>
	<node id="-224478" lat="58.8487111136" lon="9.23245556203">
		<tag k="name" v="Monkmyrane" />
		<tag k="natural" v="wetland" />
		<tag k="ssr:stedsnr" v="516672" />
	</node>
	<node id="-224475" lat="58.8032388923" lon="9.43069999341">
		<tag k="name" v="Blekmyra" />
		<tag k="natural" v="wetland" />
		<tag k="ssr:stedsnr" v="516634" />
	</node>
	<node id="-224474" lat="58.857202782" lon="9.21023888376">
		<tag k="name" v="Halvorsmyr" />
		<tag k="natural" v="wetland" />
		<tag k="ssr:stedsnr" v="516629" />
	</node>
	<node id="-224466" lat="58.8700555547" lon="9.19686944071">
		<tag k="name" v="Hyttmyr" />
		<tag k="natural" v="wetland" />
		<tag k="ssr:stedsnr" v="516500" />
	</node>
	<node id="-223779" lat="58.8034333302" lon="9.30402777048">
		<tag k="name" v="Røysvikkjerret" />
		<tag k="natural" v="wetland" />
		<tag k="ssr:stedsnr" v="151966" />
	</node>
	<node id="-224464" lat="58.801991671" lon="9.21163610559">
		<tag k="name" v="Lyngmyr" />
		<tag k="natural" v="wetland" />
		<tag k="ssr:stedsnr" v="516469" />
	</node>
	<node id="-224458" lat="58.8055611099" lon="9.25598055733">
		<tag k="name" v="Harekjerr" />
		<tag k="natural" v="wetland" />
		<tag k="ssr:stedsnr" v="516351" />
	</node>
	<node id="-224455" lat="58.8011666635" lon="9.24983332649">
		<tag k="name" v="Bjønnebåkmyra" />
		<tag k="natural" v="wetland" />
		<tag k="ssr:stedsnr" v="516284" />
	</node>
	<node id="-224453" lat="58.7963277804" lon="9.24962499731">
		<tag k="name" v="Barlandsmyra" />
		<tag k="natural" v="wetland" />
		<tag k="ssr:stedsnr" v="516275" />
	</node>
	<node id="-224451" lat="58.969722225" lon="9.3414694431">
		<tag k="name" v="Majorkjerret" />
		<tag k="natural" v="wetland" />
		<tag k="ssr:stedsnr" v="516237" />
	</node>
	<node id="-224450" lat="58.9701111121" lon="9.34721944154">
		<tag k="name" v="Eikelikjerra" />
		<tag k="natural" v="wetland" />
		<tag k="ssr:stedsnr" v="516235" />
	</node>
	<node id="-224446" lat="58.9364777751" lon="9.33890277558">
		<tag k="landuse" v="quarry" />
		<tag k="name" v="Tisjødalsgruva" />
		<tag k="ssr:stedsnr" v="516218" />
	</node>
	<node id="-224444" lat="58.890577782" lon="9.21242222061">
		<tag k="name" v="Skillerkjerr" />
		<tag k="natural" v="wetland" />
		<tag k="ssr:stedsnr" v="516188" />
	</node>
	<node id="-224442" lat="58.9649944487" lon="9.28684443696">
		<tag k="name" v="Øygårdsmyra" />
		<tag k="natural" v="wetland" />
		<tag k="ssr:stedsnr" v="516115" />
	</node>
	<node id="-224440" lat="58.9281916676" lon="9.23955833057">
		<tag k="name" v="Stakkmyra" />
		<tag k="natural" v="wetland" />
		<tag k="ssr:stedsnr" v="516070" />
	</node>
	<node id="-224435" lat="58.9258583372" lon="9.23653056144">
		<tag k="name" v="Breimyr" />
		<tag k="natural" v="wetland" />
		<tag k="ssr:stedsnr" v="516039" />
	</node>
	<node id="-224430" lat="58.8851416663" lon="9.27956388316">
		<tag k="name" v="Hestebråten" />
		<tag k="place" v="locality" />
		<tag k="ssr:stedsnr" v="515958" />
	</node>
	<node id="-224428" lat="58.824566669" lon="9.39828610408">
		<tag k="name" v="Kartmyr" />
		<tag k="natural" v="wetland" />
		<tag k="ssr:stedsnr" v="515948" />
	</node>
	<node id="-225819" lat="58.912975003" lon="9.33016667325">
		<tag k="name" v="Bråtemyra" />
		<tag k="natural" v="wetland" />
		<tag k="ssr:stedsnr" v="941603" />
	</node>
	<node id="-224416" lat="58.8593861143" lon="9.20325555864">
		<tag k="name" v="Bergsmyr" />
		<tag k="natural" v="wetland" />
		<tag k="ssr:stedsnr" v="515716" />
	</node>
	<node id="-224413" lat="58.8271388901" lon="9.35320277674">
		<tag k="name" v="Lyngåsmyra" />
		<tag k="natural" v="wetland" />
		<tag k="ssr:stedsnr" v="515616" />
	</node>
	<node id="-224412" lat="58.8288527737" lon="9.34854167472">
		<tag k="name" v="Ronsmyr" />
		<tag k="natural" v="wetland" />
		<tag k="ssr:stedsnr" v="515573" />
	</node>
	<node id="-224410" lat="58.8547638869" lon="9.37495833083">
		<tag k="name" v="Vestjordet" />
		<tag k="place" v="locality" />
		<tag k="ssr:stedsnr" v="515539" />
	</node>
	<node id="-224401" lat="58.8838222178" lon="9.33523610998">
		<tag k="name" v="Storemyr" />
		<tag k="natural" v="wetland" />
		<tag k="ssr:stedsnr" v="515280" />
	</node>
	<node id="-224390" lat="58.7915222199" lon="9.32227221806">
		<tag k="name" v="Kolmyrkjerra" />
		<tag k="natural" v="wetland" />
		<tag k="ssr:stedsnr" v="515042" />
	</node>
	<node id="-224387" lat="58.8991388896" lon="9.64529165873">
		<tag k="name" v="Midtbøen" />
		<tag k="place" v="locality" />
		<tag k="ssr:stedsnr" v="514995" />
	</node>
	<node id="-223411" lat="58.9526527807" lon="9.35173889163">
		<tag k="name" v="Klingermyr" />
		<tag k="natural" v="wetland" />
		<tag k="ssr:stedsnr" v="31038" />
	</node>
	<node id="-224302" lat="58.8753999962" lon="9.20051388932">
		<tag k="name" v="Storfjellmyra" />
		<tag k="natural" v="wetland" />
		<tag k="ssr:stedsnr" v="456959" />
	</node>
	<node id="-224298" lat="58.8690388921" lon="9.19431389119">
		<tag k="name" v="Orremyra" />
		<tag k="natural" v="wetland" />
		<tag k="ssr:stedsnr" v="456511" />
	</node>
	<node id="-224294" lat="58.9840888869" lon="9.29228055293">
		<tag k="name" v="Kåsa" />
		<tag k="natural" v="wetland" />
		<tag k="ssr:stedsnr" v="456317" />
	</node>
	<node id="-224289" lat="58.9782472266" lon="9.35669445286">
		<tag k="name" v="Oksmyr" />
		<tag k="natural" v="wetland" />
		<tag k="ssr:stedsnr" v="456208" />
	</node>
	<node id="-224288" lat="58.9007777816" lon="9.24434722359">
		<tag k="name" v="Eskilsmyr" />
		<tag k="natural" v="wetland" />
		<tag k="ssr:stedsnr" v="456139" />
	</node>
	<node id="-224285" lat="58.9559027755" lon="9.38118055142">
		<tag k="name" v="Torkjerr" />
		<tag k="natural" v="wetland" />
		<tag k="ssr:stedsnr" v="456030" />
	</node>
	<node id="-224279" lat="58.8221527746" lon="9.32780555463">
		<tag k="name" v="Blautmyr" />
		<tag k="natural" v="wetland" />
		<tag k="ssr:stedsnr" v="455952" />
	</node>
	<node id="-224278" lat="58.9622166648" lon="9.24213611686">
		<tag k="name" v="Slåttemyra" />
		<tag k="natural" v="wetland" />
		<tag k="ssr:stedsnr" v="455945" />
	</node>
	<node id="-224277" lat="58.9617027793" lon="9.2559583406">
		<tag k="name" v="Nordre Barlindfjellmyr" />
		<tag k="natural" v="wetland" />
		<tag k="ssr:stedsnr" v="455943" />
	</node>
	<node id="-224269" lat="58.8337333307" lon="9.19223056296">
		<tag k="name" v="Steinbergsmyra" />
		<tag k="natural" v="wetland" />
		<tag k="ssr:stedsnr" v="455735" />
	</node>
	<node id="-224266" lat="58.7974444488" lon="9.39722222948">
		<tag k="name" v="Kristinesmyr" />
		<tag k="natural" v="wetland" />
		<tag k="ssr:stedsnr" v="455681" />
	</node>
	<node id="-224265" lat="58.8110527751" lon="9.402116675">
		<tag k="landuse" v="quarry" />
		<tag k="name" v="Langholmen feltspatmølle" />
		<tag k="ssr:stedsnr" v="455639" />
	</node>
	<node id="-224264" lat="58.8546694438" lon="9.26263056349">
		<tag k="name" v="Slåtta" />
		<tag k="place" v="locality" />
		<tag k="ssr:stedsnr" v="455634" />
	</node>
	<node id="-224259" lat="58.8565361144" lon="9.23048056">
		<tag k="name" v="Dammyra" />
		<tag k="natural" v="wetland" />
		<tag k="ssr:stedsnr" v="455618" />
	</node>
	<node id="-224255" lat="58.9027111116" lon="9.3464249983">
		<tag k="name" v="Årømyra" />
		<tag k="natural" v="wetland" />
		<tag k="ssr:stedsnr" v="455575" />
	</node>
	<node id="-224254" lat="58.9036194412" lon="9.36775833316">
		<tag k="name" v="Brattlimyr" />
		<tag k="natural" v="wetland" />
		<tag k="ssr:stedsnr" v="455563" />
	</node>
	<node id="-224253" lat="58.8337861112" lon="9.3659611027">
		<tag k="name" v="Kringlemyr" />
		<tag k="natural" v="wetland" />
		<tag k="ssr:stedsnr" v="455560" />
	</node>
	<node id="-224238" lat="58.9086027788" lon="9.22135555709">
		<tag k="name" v="Den arme myra" />
		<tag k="natural" v="wetland" />
		<tag k="ssr:stedsnr" v="455357" />
	</node>
	<node id="-224237" lat="58.8105444489" lon="9.25971944735">
		<tag k="name" v="Bjønnkjerr" />
		<tag k="natural" v="wetland" />
		<tag k="ssr:stedsnr" v="455354" />
	</node>
	<node id="-224235" lat="58.9086611115" lon="9.24426388966">
		<tag k="name" v="Hestehållkjerret" />
		<tag k="natural" v="wetland" />
		<tag k="ssr:stedsnr" v="455343" />
	</node>
	<node id="-224234" lat="58.9107861095" lon="9.25382778011">
		<tag k="name" v="Nedre Reselvermyra" />
		<tag k="natural" v="wetland" />
		<tag k="ssr:stedsnr" v="455326" />
	</node>
	<node id="-225447" lat="58.899363892" lon="9.2407722279">
		<tag k="name" v="Øvre Eskilsmyr" />
		<tag k="natural" v="wetland" />
		<tag k="ssr:stedsnr" v="820003" />
	</node>
	<node id="-224229" lat="58.799119448" lon="9.24585554879">
		<tag k="name" v="Barlinddalsmyra" />
		<tag k="natural" v="wetland" />
		<tag k="ssr:stedsnr" v="455242" />
	</node>
	<node id="-224228" lat="58.9045166681" lon="9.19186388256">
		<tag k="name" v="Langmyrkilen" />
		<tag k="natural" v="wetland" />
		<tag k="ssr:stedsnr" v="455238" />
	</node>
	<node id="-224224" lat="58.7968499956" lon="9.27868333776">
		<tag k="name" v="Karismyr" />
		<tag k="natural" v="wetland" />
		<tag k="ssr:stedsnr" v="455093" />
	</node>
	<node id="-224211" lat="58.9019305587" lon="9.64315555572">
		<tag k="name" v="Norheim" />
		<tag k="place" v="locality" />
		<tag k="ssr:stedsnr" v="454928" />
	</node>
	<node id="-224202" lat="58.9092222199" lon="9.40178055498">
		<tag k="name" v="Bjordammyra" />
		<tag k="natural" v="wetland" />
		<tag k="ssr:stedsnr" v="454489" />
	</node>
	<node id="-224188" lat="58.8904777803" lon="9.51679999604">
		<tag k="name" v="Kjerra" />
		<tag k="place" v="locality" />
		<tag k="ssr:stedsnr" v="454248" />
	</node>
	<node id="-224183" lat="58.8904722223" lon="9.46057499623">
		<tag k="landuse" v="quarry" />
		<tag k="name" v="Blandkjenn kvartsbrudd" />
		<tag k="ssr:stedsnr" v="454169" />
	</node>
	<node id="-224182" lat="58.8690833368" lon="9.51071110551">
		<tag k="name" v="Kirkesundmyra" />
		<tag k="natural" v="wetland" />
		<tag k="ssr:stedsnr" v="454149" />
	</node>
	<node id="-224106" lat="58.8410694459" lon="9.56452499924">
		<tag k="name" v="Gråstein" />
		<tag k="natural" v="stone" />
		<tag k="ssr:stedsnr" v="267227" />
	</node>
	<node id="-224071" lat="58.8978805589" lon="9.1820833313">
		<tag k="alt_name" v="Valmyr" />
		<tag k="name" v="Valmyra" />
		<tag k="natural" v="wetland" />
		<tag k="ssr:stedsnr" v="243221" />
	</node>
	<node id="-224062" lat="58.8725583292" lon="9.18402778427">
		<tag k="name" v="Svens" />
		<tag k="place" v="locality" />
		<tag k="ssr:stedsnr" v="213984" />
	</node>
	<node id="-225417" lat="58.8386361123" lon="9.38104722191">
		<tag k="name" v="Diplemyråsen" />
		<tag k="place" v="locality" />
		<tag k="ssr:stedsnr" v="819632" />
	</node>
	<node id="-224049" lat="58.9387222236" lon="9.28204445121">
		<tag k="name" v="Klingemyrane" />
		<tag k="natural" v="wetland" />
		<tag k="ssr:stedsnr" v="213503" />
	</node>
	<node id="-224046" lat="58.9178888922" lon="9.34825278601">
		<tag k="name" v="Moltemyr" />
		<tag k="natural" v="wetland" />
		<tag k="ssr:stedsnr" v="213470" />
	</node>
	<node id="-224040" lat="58.9069138924" lon="9.22287777998">
		<tag k="name" v="Stuttlidalsheftet" />
		<tag k="place" v="locality" />
		<tag k="ssr:stedsnr" v="213393" />
	</node>
	<node id="-224038" lat="58.9239166655" lon="9.36823056376">
		<tag k="name" v="Bråtane" />
		<tag k="place" v="locality" />
		<tag k="ssr:stedsnr" v="213390" />
	</node>
	<node id="-224036" lat="58.9086027765" lon="9.23676667036">
		<tag k="name" v="Djupmyr" />
		<tag k="natural" v="wetland" />
		<tag k="ssr:stedsnr" v="213376" />
	</node>
	<node id="-224035" lat="58.9129055537" lon="9.25674444526">
		<tag k="name" v="Øvre Reselvermyra" />
		<tag k="natural" v="wetland" />
		<tag k="ssr:stedsnr" v="213361" />
	</node>
	<node id="-224028" lat="58.9346055548" lon="9.30996944052">
		<tag k="name" v="Hegna" />
		<tag k="place" v="locality" />
		<tag k="ssr:stedsnr" v="213266" />
	</node>
	<node id="-224027" lat="58.9420222238" lon="9.38164999659">
		<tag k="name" v="Kuhagen" />
		<tag k="place" v="locality" />
		<tag k="ssr:stedsnr" v="213254" />
	</node>
	<node id="-224026" lat="58.8831500004" lon="9.19873611776">
		<tag k="name" v="Skrubbkjerr" />
		<tag k="natural" v="wetland" />
		<tag k="ssr:stedsnr" v="213240" />
	</node>
	<node id="-224023" lat="58.9403833307" lon="9.344986107">
		<tag k="name" v="Kloppkjerra" />
		<tag k="natural" v="wetland" />
		<tag k="ssr:stedsnr" v="213223" />
	</node>
	<node id="-224013" lat="58.8892083302" lon="9.23849166527">
		<tag k="name" v="Spåmannsmyra" />
		<tag k="natural" v="wetland" />
		<tag k="ssr:stedsnr" v="213071" />
	</node>
	<node id="-224008" lat="58.8022611074" lon="9.32468889327">
		<tag k="name" v="Assels venemyr" />
		<tag k="natural" v="wetland" />
		<tag k="ssr:stedsnr" v="212978" />
	</node>
	<node id="-224006" lat="58.8204861069" lon="9.4160861176">
		<tag k="name" v="Vosvemyra" />
		<tag k="natural" v="wetland" />
		<tag k="ssr:stedsnr" v="212937" />
	</node>
	<node id="-224005" lat="58.8344861129" lon="9.34431388204">
		<tag k="name" v="Kjennmyra" />
		<tag k="natural" v="wetland" />
		<tag k="ssr:stedsnr" v="212921" />
	</node>
	<node id="-224004" lat="58.7879722227" lon="9.34734167515">
		<tag k="name" v="Lyngmyr" />
		<tag k="place" v="locality" />
		<tag k="ssr:stedsnr" v="212845" />
	</node>
	<node id="-224002" lat="58.7943583323" lon="9.33364444534">
		<tag k="name" v="Solbergmyra" />
		<tag k="natural" v="wetland" />
		<tag k="ssr:stedsnr" v="212836" />
	</node>
	<node id="-223997" lat="58.8576416668" lon="9.2903444491">
		<tag k="name" v="Smørvikmyra" />
		<tag k="natural" v="wetland" />
		<tag k="ssr:stedsnr" v="212788" />
	</node>
	<node id="-223996" lat="58.8082916645" lon="9.3323972214">
		<tag k="name" v="Moltemyr" />
		<tag k="natural" v="wetland" />
		<tag k="ssr:stedsnr" v="212787" />
	</node>
	<node id="-223993" lat="58.8051527767" lon="9.34906111449">
		<tag k="name" v="Godmyra" />
		<tag k="natural" v="wetland" />
		<tag k="ssr:stedsnr" v="212760" />
	</node>
	<node id="-223984" lat="58.8259694489" lon="9.28228611739">
		<tag k="name" v="Lona" />
		<tag k="natural" v="wetland" />
		<tag k="ssr:stedsnr" v="212626" />
	</node>
	<node id="-223983" lat="58.8401833347" lon="9.36172499347">
		<tag k="name" v="Jonsmyrane" />
		<tag k="natural" v="wetland" />
		<tag k="ssr:stedsnr" v="212612" />
	</node>
	<node id="-223981" lat="58.8357749974" lon="9.2529583394">
		<tag k="name" v="Asktjennmyrane" />
		<tag k="natural" v="wetland" />
		<tag k="ssr:stedsnr" v="212561" />
	</node>
	<node id="-223972" lat="58.9254944487" lon="9.2151472296">
		<tag k="name" v="Høymyrkjerret" />
		<tag k="natural" v="wetland" />
		<tag k="ssr:stedsnr" v="212334" />
	</node>
	<node id="-225403" lat="58.9207611097" lon="9.21408056204">
		<tag k="name" v="Damkjerr" />
		<tag k="natural" v="wetland" />
		<tag k="ssr:stedsnr" v="819326" />
	</node>
	<node id="-223965" lat="58.7983972255" lon="9.23709999239">
		<tag k="name" v="Diplemyr" />
		<tag k="natural" v="wetland" />
		<tag k="ssr:stedsnr" v="212275" />
	</node>
	<node id="-223964" lat="58.8842194449" lon="9.3534055473">
		<tag k="name" v="Langjordet" />
		<tag k="place" v="locality" />
		<tag k="ssr:stedsnr" v="212273" />
	</node>
	<node id="-223961" lat="58.7962638857" lon="9.25647500831">
		<tag k="name" v="Henriksmyr" />
		<tag k="natural" v="wetland" />
		<tag k="ssr:stedsnr" v="212267" />
	</node>
	<node id="-223957" lat="58.7897499957" lon="9.302766666">
		<tag k="name" v="Hestevelta" />
		<tag k="natural" v="wetland" />
		<tag k="ssr:stedsnr" v="212220" />
	</node>
	<node id="-223955" lat="58.7935055593" lon="9.28338888226">
		<tag k="name" v="Lange Kolbjørnsmyr" />
		<tag k="natural" v="wetland" />
		<tag k="ssr:stedsnr" v="212211" />
	</node>
	<node id="-223954" lat="58.840583331" lon="9.39889166004">
		<tag k="name" v="Blautmyr" />
		<tag k="natural" v="wetland" />
		<tag k="ssr:stedsnr" v="212198" />
	</node>
	<node id="-223915" lat="58.8734555555" lon="9.39461389591">
		<tag k="name" v="Holmmyra" />
		<tag k="natural" v="wetland" />
		<tag k="ssr:stedsnr" v="211245" />
	</node>
	<node id="-223911" lat="58.882522219" lon="9.46112776924">
		<tag k="landuse" v="quarry" />
		<tag k="name" v="Bratten kvartsbrudd" />
		<tag k="ssr:stedsnr" v="211168" />
	</node>
	<node id="-225407" lat="58.9295583374" lon="9.21557499812">
		<tag k="name" v="Diplane" />
		<tag k="natural" v="wetland" />
		<tag k="ssr:stedsnr" v="819370" />
	</node>
	<node id="-222992" lat="58.9499805576" lon="9.29236110546">
		<tag k="name" v="Skottkjerr" />
		<tag k="natural" v="wetland" />
		<tag k="ssr:stedsnr" v="334900" />
	</node>
	<node id="-223838" lat="58.9553111146" lon="9.25852778182">
		<tag k="name" v="Søndre Barlindfjellmyr" />
		<tag k="natural" v="wetland" />
		<tag k="ssr:stedsnr" v="153000" />
	</node>
	<node id="-223832" lat="58.912691663" lon="9.28159443698">
		<tag k="name" v="Østre Øygardsmyr" />
		<tag k="natural" v="wetland" />
		<tag k="ssr:stedsnr" v="152800" />
	</node>
	<node id="-223828" lat="58.9008777819" lon="9.18908888044">
		<tag k="name" v="Hønnesmyra" />
		<tag k="natural" v="wetland" />
		<tag k="ssr:stedsnr" v="152756" />
	</node>
	<node id="-223825" lat="58.9101666634" lon="9.37488610455">
		<tag k="name" v="Strandsmyrane" />
		<tag k="natural" v="wetland" />
		<tag k="ssr:stedsnr" v="152593" />
	</node>
	<node id="-223819" lat="58.9143722236" lon="9.36099999784">
		<tag k="name" v="Myra" />
		<tag k="place" v="locality" />
		<tag k="ssr:stedsnr" v="152484" />
	</node>
	<node id="-222988" lat="58.8915611148" lon="9.17303611481">
		<tag k="name" v="Kasperkjerr" />
		<tag k="natural" v="wetland" />
		<tag k="ssr:stedsnr" v="334715" />
	</node>
	<node id="-223811" lat="58.9123499977" lon="9.24685555235">
		<tag k="name" v="Skjærtjennmyra" />
		<tag k="natural" v="wetland" />
		<tag k="ssr:stedsnr" v="152363" />
	</node>
	<node id="-223807" lat="58.9313333324" lon="9.34390277196">
		<tag k="name" v="Kjærlighetsmyra" />
		<tag k="natural" v="wetland" />
		<tag k="old_name" v="Kjerlighetsmyra" />
		<tag k="ssr:stedsnr" v="152286" />
	</node>
	<node id="-223806" lat="58.9271972249" lon="9.33486111823">
		<tag k="name" v="Hesthagen" />
		<tag k="place" v="locality" />
		<tag k="ssr:stedsnr" v="152282" />
	</node>
	<node id="-223801" lat="58.9060472213" lon="9.19698333972">
		<tag k="name" v="Gongsmyr" />
		<tag k="natural" v="wetland" />
		<tag k="ssr:stedsnr" v="152266" />
	</node>
	<node id="-223797" lat="58.9388499968" lon="9.35086666161">
		<tag k="name" v="Mastereidmyra" />
		<tag k="natural" v="wetland" />
		<tag k="ssr:stedsnr" v="152224" />
	</node>
	<node id="-223794" lat="58.8977777776" lon="9.22099166067">
		<tag k="name" v="Lyngkjerr" />
		<tag k="natural" v="wetland" />
		<tag k="ssr:stedsnr" v="152136" />
	</node>
	<node id="-223790" lat="58.9283333304" lon="9.24796666242">
		<tag k="name" v="Fjellmyra" />
		<tag k="natural" v="wetland" />
		<tag k="ssr:stedsnr" v="152073" />
	</node>
	<node id="-225836" lat="58.9699611092" lon="9.25913888658">
		<tag k="name" v="Rakslåtta" />
		<tag k="place" v="locality" />
		<tag k="ssr:stedsnr" v="941925" />
	</node>
	<node id="-223787" lat="58.9329638908" lon="9.22635555329">
		<tag k="name" v="Mørktjennsmyra" />
		<tag k="natural" v="wetland" />
		<tag k="ssr:stedsnr" v="152056" />
	</node>
	<node id="-225830" lat="58.8881138917" lon="9.20043054942">
		<tag k="name" v="Ekornkjerr" />
		<tag k="natural" v="wetland" />
		<tag k="ssr:stedsnr" v="941732" />
	</node>
	<node id="-225829" lat="58.8912444417" lon="9.19656666669">
		<tag k="name" v="Slettefjellkjerr" />
		<tag k="natural" v="wetland" />
		<tag k="ssr:stedsnr" v="941730" />
	</node>
	<node id="-225827" lat="58.8914916672" lon="9.20291945294">
		<tag k="name" v="Ljåmyr" />
		<tag k="natural" v="wetland" />
		<tag k="ssr:stedsnr" v="941687" />
	</node>
	<node id="-225825" lat="58.8429194455" lon="9.21348889178">
		<tag k="name" v="Hestehagen" />
		<tag k="place" v="locality" />
		<tag k="ssr:stedsnr" v="941671" />
	</node>
	<node id="-223776" lat="58.872619445" lon="9.27403889446">
		<tag k="name" v="Kringlemyr" />
		<tag k="natural" v="wetland" />
		<tag k="ssr:stedsnr" v="151931" />
	</node>
	<node id="-223773" lat="58.8329583376" lon="9.34569166613">
		<tag k="name" v="Sølvkjerra" />
		<tag k="natural" v="wetland" />
		<tag k="ssr:stedsnr" v="151909" />
	</node>
	<node id="-223772" lat="58.8749777795" lon="9.28750277896">
		<tag k="name" v="Storemyr" />
		<tag k="natural" v="wetland" />
		<tag k="ssr:stedsnr" v="151906" />
	</node>
	<node id="-223771" lat="58.8290666696" lon="9.37734443962">
		<tag k="name" v="Nilsdalsmyra" />
		<tag k="natural" v="wetland" />
		<tag k="ssr:stedsnr" v="151886" />
	</node>
	<node id="-223769" lat="58.8288416694" lon="9.41534722136">
		<tag k="name" v="Damslåtta" />
		<tag k="natural" v="wetland" />
		<tag k="ssr:stedsnr" v="151880" />
	</node>
	<node id="-223766" lat="58.79755556" lon="9.33480277077">
		<tag k="name" v="Venmyr" />
		<tag k="natural" v="wetland" />
		<tag k="ssr:stedsnr" v="151822" />
	</node>
	<node id="-223765" lat="58.7960666684" lon="9.34559443974">
		<tag k="name" v="Slåtta" />
		<tag k="place" v="locality" />
		<tag k="ssr:stedsnr" v="151818" />
	</node>
	<node id="-223764" lat="58.8449166677" lon="9.28660278265">
		<tag k="name" v="Kollrennkjerret" />
		<tag k="natural" v="wetland" />
		<tag k="ssr:stedsnr" v="151812" />
	</node>
	<node id="-223763" lat="58.7993472206" lon="9.36537221672">
		<tag k="name" v="Kjerra" />
		<tag k="place" v="locality" />
		<tag k="ssr:stedsnr" v="151772" />
	</node>
	<node id="-225808" lat="58.8789527803" lon="9.23867221934">
		<tag k="name" v="Oksemyr" />
		<tag k="natural" v="wetland" />
		<tag k="ssr:stedsnr" v="941458" />
	</node>
	<node id="-223759" lat="58.846177778" lon="9.20331110999">
		<tag k="name" v="Jenskjerr" />
		<tag k="natural" v="wetland" />
		<tag k="ssr:stedsnr" v="151715" />
	</node>
	<node id="-223757" lat="58.8474027813" lon="9.19708610917">
		<tag k="name" v="Brumyr" />
		<tag k="natural" v="wetland" />
		<tag k="ssr:stedsnr" v="151711" />
	</node>
	<node id="-225802" lat="58.8117249988" lon="9.25632500374">
		<tag k="name" v="Lynildskjerret" />
		<tag k="natural" v="wetland" />
		<tag k="ssr:stedsnr" v="941363" />
	</node>
	<node id="-225794" lat="58.7877583316" lon="9.29503611629">
		<tag k="name" v="Småmyrane" />
		<tag k="natural" v="wetland" />
		<tag k="ssr:stedsnr" v="941198" />
	</node>
	<node id="-225793" lat="58.9448222214" lon="9.34083610505">
		<tag k="name" v="Langkjerr" />
		<tag k="natural" v="wetland" />
		<tag k="ssr:stedsnr" v="941186" />
	</node>
	<node id="-223744" lat="58.838138892" lon="9.33684722831">
		<tag k="name" v="Tveita" />
		<tag k="place" v="locality" />
		<tag k="ssr:stedsnr" v="151513" />
	</node>
	<node id="-223742" lat="58.8131916697" lon="9.20786666065">
		<tag k="name" v="Skiftingsmyra" />
		<tag k="natural" v="wetland" />
		<tag k="ssr:stedsnr" v="151490" />
	</node>
	<node id="-223738" lat="58.8005361132" lon="9.24457500318">
		<tag k="name" v="Barlinddalen" />
		<tag k="natural" v="wetland" />
		<tag k="ssr:stedsnr" v="151299" />
	</node>
	<node id="-225785" lat="58.9363638852" lon="9.23361111616">
		<tag k="name" v="Bjordammyra" />
		<tag k="natural" v="wetland" />
		<tag k="ssr:stedsnr" v="941089" />
	</node>
	<node id="-225780" lat="58.9499833309" lon="9.36161944793">
		<tag k="name" v="Kvennhuskjerret" />
		<tag k="natural" v="wetland" />
		<tag k="ssr:stedsnr" v="941037" />
	</node>
	<node id="-223731" lat="58.7852777753" lon="9.29525000282">
		<tag k="name" v="Kritmyr" />
		<tag k="natural" v="wetland" />
		<tag k="ssr:stedsnr" v="151230" />
	</node>
	<node id="-225772" lat="58.8344194438" lon="9.34973333261">
		<tag k="name" v="Garnmyr" />
		<tag k="natural" v="wetland" />
		<tag k="ssr:stedsnr" v="940921" />
	</node>
	<node id="-225768" lat="58.8241888911" lon="9.37765556097">
		<tag k="name" v="Kvernhusheia" />
		<tag k="place" v="locality" />
		<tag k="ssr:stedsnr" v="940882" />
	</node>
	<node id="-222972" lat="58.9786777785" lon="9.32737222155">
		<tag k="name" v="Diplanmyra" />
		<tag k="natural" v="wetland" />
		<tag k="ssr:stedsnr" v="334348" />
	</node>
	<node id="-225766" lat="58.8342083289" lon="9.45802221712">
		<tag k="name" v="Steane" />
		<tag k="place" v="locality" />
		<tag k="ssr:stedsnr" v="940851" />
	</node>
	<node id="-225358" lat="58.9035750025" lon="9.47063054747">
		<tag k="name" v="Eidslåtta" />
		<tag k="place" v="locality" />
		<tag k="ssr:stedsnr" v="818304" />
	</node>
	<node id="-223691" lat="58.8800333296" lon="9.54989443756">
		<tag k="name" v="Kringlemyr" />
		<tag k="natural" v="wetland" />
		<tag k="ssr:stedsnr" v="150164" />
	</node>
	<node id="-222965" lat="58.9141555532" lon="9.21208333106">
		<tag k="name" v="Dammyra" />
		<tag k="natural" v="wetland" />
		<tag k="ssr:stedsnr" v="334292" />
	</node>
	<node id="-225723" lat="58.8615250012" lon="9.59010277485">
		<tag k="name" v="Myra" />
		<tag k="place" v="locality" />
		<tag k="ssr:stedsnr" v="939043" />
	</node>
	<node id="-223627" lat="58.8911138898" lon="9.17975554835">
		<tag k="name" v="Jordmyr" />
		<tag k="natural" v="wetland" />
		<tag k="ssr:stedsnr" v="121254" />
	</node>
	<node id="-225663" lat="58.9991666672" lon="9.30186388969">
		<tag k="name" v="Hefte" />
		<tag k="place" v="locality" />
		<tag k="ssr:stedsnr" v="881479" />
	</node>
	<node id="-225662" lat="58.8646472202" lon="9.2419083401">
		<tag k="name" v="Orremyra" />
		<tag k="natural" v="wetland" />
		<tag k="ssr:stedsnr" v="881428" />
	</node>
	<node id="-225660" lat="58.9754972266" lon="9.34490000546">
		<tag k="name" v="Øvre Småmyr" />
		<tag k="natural" v="wetland" />
		<tag k="ssr:stedsnr" v="881187" />
	</node>
	<node id="-223608" lat="58.9456055564" lon="9.2440361159">
		<tag k="name" v="Hyttmyr" />
		<tag k="natural" v="wetland" />
		<tag k="ssr:stedsnr" v="91987" />
	</node>
	<node id="-225655" lat="58.8982083335" lon="9.23208610419">
		<tag k="name" v="Nilsbukjerr" />
		<tag k="natural" v="wetland" />
		<tag k="ssr:stedsnr" v="881002" />
	</node>
	<node id="-225654" lat="58.8161027758" lon="9.29485833084">
		<tag k="name" v="Kittilsmyr" />
		<tag k="natural" v="wetland" />
		<tag k="ssr:stedsnr" v="880990" />
	</node>
	<node id="-223605" lat="58.805686111" lon="9.29271666824">
		<tag k="name" v="Sandkleivmyr" />
		<tag k="natural" v="wetland" />
		<tag k="ssr:stedsnr" v="91976" />
	</node>
	<node id="-225652" lat="58.9483944457" lon="9.26319999592">
		<tag k="name" v="Geitkjerr" />
		<tag k="natural" v="wetland" />
		<tag k="ssr:stedsnr" v="880975" />
	</node>
	<node id="-225648" lat="58.8120083327" lon="9.2885888887">
		<tag k="name" v="Moltemyr" />
		<tag k="natural" v="wetland" />
		<tag k="ssr:stedsnr" v="880945" />
	</node>
	<node id="-225647" lat="58.960525" lon="9.27371111619">
		<tag k="name" v="Ingerskjerr" />
		<tag k="natural" v="wetland" />
		<tag k="ssr:stedsnr" v="880942" />
	</node>
	<node id="-225646" lat="58.9643694416" lon="9.26794999658">
		<tag k="name" v="Bjordammyra" />
		<tag k="natural" v="wetland" />
		<tag k="ssr:stedsnr" v="880940" />
	</node>
	<node id="-225645" lat="58.9688777744" lon="9.26526667465">
		<tag k="name" v="Sveumbråten" />
		<tag k="place" v="locality" />
		<tag k="ssr:stedsnr" v="880935" />
	</node>
	<node id="-223596" lat="58.8335388901" lon="9.37601666497">
		<tag k="name" v="Plossheia" />
		<tag k="place" v="locality" />
		<tag k="ssr:stedsnr" v="91900" />
	</node>
	<node id="-225642" lat="58.8373166685" lon="9.35506388118">
		<tag k="name" v="Kjørselmyr" />
		<tag k="natural" v="wetland" />
		<tag k="ssr:stedsnr" v="880920" />
	</node>
	<node id="-225638" lat="58.8470666649" lon="9.30016944519">
		<tag k="landuse" v="quarry" />
		<tag k="name" v="Pukkverk" />
		<tag k="ssr:stedsnr" v="880804" />
	</node>
	<node id="-225637" lat="58.9181944476" lon="9.32105833466">
		<tag k="name" v="Ulvemyra" />
		<tag k="place" v="locality" />
		<tag k="ssr:stedsnr" v="880793" />
	</node>
	<node id="-223587" lat="58.9230166646" lon="9.30325277202">
		<tag k="name" v="Småmyrane" />
		<tag k="natural" v="wetland" />
		<tag k="ssr:stedsnr" v="91779" />
	</node>
	<node id="-225632" lat="58.8076166632" lon="9.42459999229">
		<tag k="name" v="Breivoll" />
		<tag k="place" v="locality" />
		<tag k="ssr:stedsnr" v="880716" />
	</node>
	<node id="-223579" lat="58.8323888891" lon="9.2885111192">
		<tag k="name" v="Blautkjerr" />
		<tag k="natural" v="wetland" />
		<tag k="ssr:stedsnr" v="91674" />
	</node>
	<node id="-225621" lat="58.9200027735" lon="9.33169722455">
		<tag k="name" v="Hestehagen" />
		<tag k="place" v="locality" />
		<tag k="ssr:stedsnr" v="880631" />
	</node>
	<node id="-223566" lat="58.9209027814" lon="9.22960277883">
		<tag k="name" v="Nordre Stormyr" />
		<tag k="natural" v="wetland" />
		<tag k="ssr:stedsnr" v="91469" />
	</node>
	<node id="-223563" lat="58.9126499997" lon="9.20055554764">
		<tag k="name" v="Slemdalsmyra" />
		<tag k="natural" v="wetland" />
		<tag k="ssr:stedsnr" v="91337" />
	</node>
	<node id="-225610" lat="58.8312194418" lon="9.22204166082">
		<tag k="name" v="Øyfjellmyrane" />
		<tag k="natural" v="wetland" />
		<tag k="ssr:stedsnr" v="880521" />
	</node>
	<node id="-223558" lat="58.8690277815" lon="9.27053334138">
		<tag k="name" v="Fantebråten" />
		<tag k="place" v="locality" />
		<tag k="ssr:stedsnr" v="91305" />
	</node>
	<node id="-225602" lat="58.8715111141" lon="9.2180000041">
		<tag k="name" v="Diplemyrane" />
		<tag k="natural" v="wetland" />
		<tag k="ssr:stedsnr" v="880457" />
	</node>
	<node id="-225600" lat="58.915158331" lon="9.34846944928">
		<tag k="name" v="Bostkjerr" />
		<tag k="place" v="locality" />
		<tag k="ssr:stedsnr" v="880445" />
	</node>
	<node id="-225595" lat="58.8008694478" lon="9.2593583359">
		<tag k="name" v="Uriasposten" />
		<tag k="natural" v="wetland" />
		<tag k="ssr:stedsnr" v="880359" />
	</node>
	<node id="-223546" lat="58.8888833333" lon="9.20929444646">
		<tag k="name" v="Kjærlighetskjerr" />
		<tag k="natural" v="wetland" />
		<tag k="ssr:stedsnr" v="91191" />
	</node>
	<node id="-223543" lat="58.8881361085" lon="9.26836666167">
		<tag k="name" v="Husmyr" />
		<tag k="natural" v="wetland" />
		<tag k="ssr:stedsnr" v="91062" />
	</node>
	<node id="-225589" lat="58.8667666679" lon="9.26504999283">
		<tag k="name" v="Sververkjerret" />
		<tag k="natural" v="wetland" />
		<tag k="ssr:stedsnr" v="880274" />
	</node>
	<node id="-223540" lat="58.9256944435" lon="9.23013889335">
		<tag k="name" v="Postmyr" />
		<tag k="natural" v="wetland" />
		<tag k="ssr:stedsnr" v="91043" />
	</node>
	<node id="-225583" lat="58.8634055528" lon="9.23288333098">
		<tag k="name" v="Harekjerr" />
		<tag k="natural" v="wetland" />
		<tag k="ssr:stedsnr" v="880243" />
	</node>
	<node id="-225580" lat="58.8925333363" lon="9.33491943824">
		<tag k="name" v="Trøa" />
		<tag k="place" v="locality" />
		<tag k="ssr:stedsnr" v="880223" />
	</node>
	<node id="-225577" lat="58.7888444448" lon="9.29895555645">
		<tag k="name" v="Husmyr" />
		<tag k="natural" v="wetland" />
		<tag k="ssr:stedsnr" v="880201" />
	</node>
	<node id="-223527" lat="58.8044888926" lon="9.32845277146">
		<tag k="name" v="Venemyr" />
		<tag k="natural" v="wetland" />
		<tag k="ssr:stedsnr" v="90739" />
	</node>
	<node id="-225571" lat="58.9383583296" lon="9.26174722607">
		<tag k="name" v="Slomyra" />
		<tag k="natural" v="wetland" />
		<tag k="ssr:stedsnr" v="880071" />
	</node>
	<node id="-225570" lat="58.8934472205" lon="9.22725278563">
		<tag k="name" v="Kjerkemobreimyr" />
		<tag k="natural" v="wetland" />
		<tag k="ssr:stedsnr" v="880052" />
	</node>
	<node id="-225563" lat="58.820838892" lon="9.3503611156">
		<tag k="name" v="Blåmyrane" />
		<tag k="natural" v="wetland" />
		<tag k="ssr:stedsnr" v="879988" />
	</node>
	<node id="-225562" lat="58.8170638867" lon="9.35560555204">
		<tag k="name" v="Kartmyr" />
		<tag k="natural" v="wetland" />
		<tag k="ssr:stedsnr" v="879983" />
	</node>
	<node id="-223507" lat="58.8976888889" lon="9.49687222898">
		<tag k="name" v="Storrønningen" />
		<tag k="place" v="locality" />
		<tag k="ssr:stedsnr" v="90190" />
	</node>
	<node id="-223504" lat="58.8806527788" lon="9.54570000152">
		<tag k="name" v="Breimyr" />
		<tag k="natural" v="wetland" />
		<tag k="ssr:stedsnr" v="90135" />
	</node>
	<node id="-225546" lat="58.8925861117" lon="9.51700554854">
		<tag k="name" v="Langkjerr" />
		<tag k="place" v="locality" />
		<tag k="ssr:stedsnr" v="879250" />
	</node>
	<node id="-225539" lat="58.8411694404" lon="9.3903333249">
		<tag k="name" v="Pålebumyra" />
		<tag k="natural" v="wetland" />
		<tag k="ssr:stedsnr" v="879179" />
	</node>
	<node id="-225537" lat="58.8402916709" lon="9.41861388448">
		<tag k="name" v="Byttingsmyra" />
		<tag k="natural" v="wetland" />
		<tag k="ssr:stedsnr" v="879170" />
	</node>
	<node id="-223429" lat="58.8733027818" lon="9.17371388951">
		<tag k="name" v="Jonsmyr" />
		<tag k="natural" v="wetland" />
		<tag k="ssr:stedsnr" v="31977" />
	</node>
	<node id="-223425" lat="58.8607083346" lon="9.21531389479">
		<tag k="name" v="Villmyr" />
		<tag k="natural" v="wetland" />
		<tag k="ssr:stedsnr" v="31622" />
	</node>
	<node id="-223424" lat="58.8671361085" lon="9.22931667298">
		<tag k="name" v="Trommekjerr" />
		<tag k="natural" v="wetland" />
		<tag k="ssr:stedsnr" v="31441" />
	</node>
	<node id="-223422" lat="58.865599998" lon="9.26205555629">
		<tag k="name" v="Rekvika" />
		<tag k="place" v="locality" />
		<tag k="ssr:stedsnr" v="31427" />
	</node>
	<node id="-223421" lat="58.868144442" lon="9.26155000681">
		<tag k="name" v="Brente furuene" />
		<tag k="place" v="locality" />
		<tag k="ssr:stedsnr" v="31426" />
	</node>
	<node id="-222922" lat="58.9135499987" lon="9.39602221427">
		<tag k="name" v="Bånnjordet" />
		<tag k="place" v="locality" />
		<tag k="ssr:stedsnr" v="333437" />
	</node>
	<node id="-223417" lat="58.8987277805" lon="9.22115277204">
		<tag k="name" v="Spykjerr" />
		<tag k="natural" v="wetland" />
		<tag k="ssr:stedsnr" v="31123" />
	</node>
	<node id="-225464" lat="58.8699777765" lon="9.26258333869">
		<tag k="name" v="Grasåa" />
		<tag k="natural" v="wetland" />
		<tag k="ssr:stedsnr" v="820440" />
	</node>
	<node id="-225463" lat="58.9875166639" lon="9.32909167308">
		<tag k="name" v="Stormyr" />
		<tag k="natural" v="wetland" />
		<tag k="ssr:stedsnr" v="820318" />
	</node>
	<node id="-225459" lat="58.9357722215" lon="9.2879944378">
		<tag k="name" v="Dokkemyra" />
		<tag k="natural" v="wetland" />
		<tag k="ssr:stedsnr" v="820252" />
	</node>
	<node id="-225458" lat="58.9320333323" lon="9.28869443611">
		<tag k="name" v="Stormyr" />
		<tag k="natural" v="wetland" />
		<tag k="ssr:stedsnr" v="820251" />
	</node>
	<node id="-223408" lat="58.8215916632" lon="9.36729722789">
		<tag k="name" v="Treskomyra" />
		<tag k="natural" v="wetland" />
		<tag k="ssr:stedsnr" v="31000" />
	</node>
	<node id="-223404" lat="58.9462388867" lon="9.26340555902">
		<tag k="name" v="Kjerlingkjerr" />
		<tag k="natural" v="wetland" />
		<tag k="ssr:stedsnr" v="30986" />
	</node>
	<node id="-223399" lat="58.8271999982" lon="9.37353334157">
		<tag k="name" v="Lona" />
		<tag k="natural" v="wetland" />
		<tag k="ssr:stedsnr" v="30877" />
	</node>
	<node id="-225444" lat="58.9514611151" lon="9.25050554758">
		<tag k="name" v="Øktdagskjerr" />
		<tag k="natural" v="wetland" />
		<tag k="ssr:stedsnr" v="819992" />
	</node>
	<node id="-223395" lat="58.9076750016" lon="9.28257499889">
		<tag k="name" v="Kjellstadmyra" />
		<tag k="natural" v="wetland" />
		<tag k="ssr:stedsnr" v="30799" />
	</node>
	<node id="-225442" lat="58.9529527789" lon="9.26086388351">
		<tag k="name" v="Steinbustølmyra" />
		<tag k="natural" v="wetland" />
		<tag k="ssr:stedsnr" v="819988" />
	</node>
	<node id="-223390" lat="58.8877999971" lon="9.18155278438">
		<tag k="name" v="Stenekilen" />
		<tag k="natural" v="wetland" />
		<tag k="ssr:stedsnr" v="30754" />
	</node>
	<node id="-223387" lat="58.8762444432" lon="9.27832777963">
		<tag k="name" v="Røymyr" />
		<tag k="natural" v="wetland" />
		<tag k="ssr:stedsnr" v="30903" />
	</node>
	<node id="-225433" lat="58.8274138908" lon="9.37739999941">
		<tag k="name" v="Hestehagane" />
		<tag k="place" v="locality" />
		<tag k="ssr:stedsnr" v="819892" />
	</node>
	<node id="-225432" lat="58.8158166656" lon="9.34701944125">
		<tag k="name" v="Tranebærmyr" />
		<tag k="natural" v="wetland" />
		<tag k="ssr:stedsnr" v="819853" />
	</node>
	<node id="-223383" lat="58.8463416628" lon="9.22985277858">
		<tag k="name" v="Stribukkjerr" />
		<tag k="natural" v="wetland" />
		<tag k="ssr:stedsnr" v="30684" />
	</node>
	<node id="-223376" lat="58.8795750009" lon="9.25845554743">
		<tag k="name" v="Kartmyr" />
		<tag k="natural" v="wetland" />
		<tag k="ssr:stedsnr" v="30472" />
	</node>
	<node id="-225422" lat="58.8346111153" lon="9.28780556222">
		<tag k="name" v="Skottkjerr" />
		<tag k="natural" v="wetland" />
		<tag k="ssr:stedsnr" v="819713" />
	</node>
	<node id="-223370" lat="58.8811583356" lon="9.25001667357">
		<tag k="name" v="Bjønnkjerr" />
		<tag k="natural" v="wetland" />
		<tag k="ssr:stedsnr" v="30468" />
	</node>
	<node id="-223369" lat="58.9305638882" lon="9.34968056043">
		<tag k="name" v="Langkjerr" />
		<tag k="natural" v="wetland" />
		<tag k="ssr:stedsnr" v="30296" />
	</node>
	<node id="-223366" lat="58.8626666704" lon="9.26180833857">
		<tag k="name" v="Stormyr" />
		<tag k="natural" v="wetland" />
		<tag k="ssr:stedsnr" v="30271" />
	</node>
	<node id="-223363" lat="58.8857555515" lon="9.18282499825">
		<tag k="name" v="Stormyrkilen" />
		<tag k="natural" v="wetland" />
		<tag k="ssr:stedsnr" v="30233" />
	</node>
	<node id="-225408" lat="58.8028111121" lon="9.20418055584">
		<tag k="name" v="Dypkjerr" />
		<tag k="natural" v="wetland" />
		<tag k="ssr:stedsnr" v="819497" />
	</node>
	<node id="-223359" lat="58.9423694449" lon="9.35221388637">
		<tag k="name" v="Havfjellmyra" />
		<tag k="natural" v="wetland" />
		<tag k="ssr:stedsnr" v="30196" />
	</node>
	<node id="-223594" lat="58.8328555585" lon="9.37385000236">
		<tag k="name" v="Sørensmyr" />
		<tag k="natural" v="wetland" />
		<tag k="ssr:stedsnr" v="91897" />
	</node>
	<node id="-223354" lat="58.7968027822" lon="9.28956388694">
		<tag k="name" v="Stormyr" />
		<tag k="natural" v="wetland" />
		<tag k="ssr:stedsnr" v="30098" />
	</node>
	<node id="-223352" lat="58.801955559" lon="9.27267221898">
		<tag k="name" v="Buslåttmyr" />
		<tag k="natural" v="wetland" />
		<tag k="ssr:stedsnr" v="30095" />
	</node>
	<node id="-225396" lat="58.8621805587" lon="9.26604443756">
		<tag k="name" v="Stormyrkjerret" />
		<tag k="natural" v="wetland" />
		<tag k="ssr:stedsnr" v="819281" />
	</node>
	<node id="-223347" lat="58.7963277775" lon="9.2994972263">
		<tag k="name" v="Diplemyr" />
		<tag k="natural" v="wetland" />
		<tag k="ssr:stedsnr" v="30101" />
	</node>
	<node id="-225394" lat="58.7917222218" lon="9.30198888644">
		<tag k="name" v="Sivaldskjerra" />
		<tag k="natural" v="wetland" />
		<tag k="ssr:stedsnr" v="819227" />
	</node>
	<node id="-225393" lat="58.9445916646" lon="9.33304445168">
		<tag k="name" v="Kåsa" />
		<tag k="place" v="locality" />
		<tag k="ssr:stedsnr" v="819210" />
	</node>
	<node id="-223339" lat="58.8356472236" lon="9.39738056357">
		<tag k="name" v="Masskjerr" />
		<tag k="natural" v="wetland" />
		<tag k="ssr:stedsnr" v="29889" />
	</node>
	<node id="-225382" lat="58.9007444442" lon="9.30300833469">
		<tag k="name" v="Skaumyra" />
		<tag k="natural" v="wetland" />
		<tag k="ssr:stedsnr" v="819040" />
	</node>
	<node id="-223589" lat="58.8416527786" lon="9.28490554987">
		<tag k="name" v="Limyra" />
		<tag k="natural" v="wetland" />
		<tag k="ssr:stedsnr" v="91806" />
	</node>
	<node id="-223319" lat="58.8888250011" lon="9.39466111594">
		<tag k="name" v="Limyr" />
		<tag k="natural" v="wetland" />
		<tag k="ssr:stedsnr" v="29265" />
	</node>
	<node id="-223310" lat="58.8601333377" lon="9.50330000677">
		<tag k="name" v="Bekkemyra" />
		<tag k="natural" v="wetland" />
		<tag k="ssr:stedsnr" v="29162" />
	</node>
	<node id="-223309" lat="58.864461114" lon="9.50863889052">
		<tag k="name" v="Bjønnemyra" />
		<tag k="natural" v="wetland" />
		<tag k="ssr:stedsnr" v="29157" />
	</node>
	<node id="-225351" lat="58.8430000039" lon="9.39619166379">
		<tag k="name" v="Ausa" />
		<tag k="natural" v="wetland" />
		<tag k="ssr:stedsnr" v="818182" />
	</node>
	<node id="-223293" lat="58.8674555558" lon="9.59909445057">
		<tag k="name" v="Langputt" />
		<tag k="place" v="locality" />
		<tag k="ssr:stedsnr" v="28055" />
	</node>
	<node id="-225336" lat="58.970477776" lon="9.2845000012">
		<tag k="name" v="Blankkjerra" />
		<tag k="natural" v="wetland" />
		<tag k="ssr:stedsnr" v="820181" />
	</node>
	<node id="-223259" lat="58.8882777818" lon="9.18579721678">
		<tag k="alt_name" v="Vestre Stormyr" />
		<tag k="name" v="Stormyr" />
		<tag k="natural" v="wetland" />
		<tag k="ssr:stedsnr" v="1206" />
	</node>
	<node id="-225289" lat="58.8988777792" lon="9.22597777968">
		<tag k="alt_name" v="Breidmyra" />
		<tag k="name" v="Breimyr" />
		<tag k="natural" v="wetland" />
		<tag k="ssr:stedsnr" v="789627" />
	</node>
</osm>
