<?xml version="1.0" encoding="UTF-8"?>
<osm generator="osmapis" version="0.6">
	<node id="-262687" lat="60.6961708661" lon="8.8181006017">
		<tag k="name" v="Øystølvegen" />
		<tag k="ssr:date" v="2019-12-27" />
		<tag k="ssr:gruppe" v="veg" />
		<tag k="ssr:hovedgruppe" v="infrastruktur" />
		<tag k="ssr:stedsnr" v="1035283" />
		<tag k="ssr:type" v="adressenavn" />
	</node>
	<node id="-262686" lat="60.7153128398" lon="8.80543952311">
		<tag k="name" v="Høysjøstølvegen" />
		<tag k="ssr:date" v="2019-12-27" />
		<tag k="ssr:gruppe" v="veg" />
		<tag k="ssr:hovedgruppe" v="infrastruktur" />
		<tag k="ssr:stedsnr" v="1035281" />
		<tag k="ssr:type" v="adressenavn" />
	</node>
	<node id="-262685" lat="60.7853906434" lon="8.96777981854">
		<tag k="name" v="Veslehovda" />
		<tag k="ssr:date" v="2019-12-27" />
		<tag k="ssr:gruppe" v="veg" />
		<tag k="ssr:hovedgruppe" v="infrastruktur" />
		<tag k="ssr:stedsnr" v="1034912" />
		<tag k="ssr:type" v="adressenavn" />
	</node>
	<node id="-262684" lat="60.7816315503" lon="8.92847530649">
		<tag k="name" v="Blåbærstigen" />
		<tag k="ssr:date" v="2019-12-27" />
		<tag k="ssr:gruppe" v="veg" />
		<tag k="ssr:hovedgruppe" v="infrastruktur" />
		<tag k="ssr:stedsnr" v="985327" />
		<tag k="ssr:type" v="adressenavn" />
	</node>
	<node id="-262700" lat="60.821629288" lon="8.98266188733">
		<tag k="name" v="Bjørkelie" />
		<tag k="ssr:date" v="2020-02-24" />
		<tag k="ssr:gruppe" v="veg" />
		<tag k="ssr:hovedgruppe" v="infrastruktur" />
		<tag k="ssr:stedsnr" v="1075548" />
		<tag k="ssr:type" v="adressenavn" />
	</node>
	<node id="-262699" lat="60.8017607796" lon="8.94833025648">
		<tag k="name" v="Vesleknappen" />
		<tag k="ssr:date" v="2020-02-13" />
		<tag k="ssr:gruppe" v="veg" />
		<tag k="ssr:hovedgruppe" v="infrastruktur" />
		<tag k="ssr:stedsnr" v="1075102" />
		<tag k="ssr:type" v="adressenavn" />
	</node>
	<node id="-262698" lat="59.9116896876" lon="10.7581882267">
		<tag k="name" v="Viken fylke" />
		<tag k="ssr:date" v="2020-01-13" />
		<tag k="ssr:gruppe" v="administrativeIndelinger" />
		<tag k="ssr:hovedgruppe" v="offentligAdministrasjon" />
		<tag k="ssr:stedsnr" v="1074403" />
		<tag k="ssr:type" v="fylke" />
	</node>
	<node id="-261992" lat="60.8022518812" lon="8.99579395997">
		<tag k="name" v="Stakegutu" />
		<tag k="ssr:date" v="2019-12-27" />
		<tag k="ssr:gruppe" v="veg" />
		<tag k="ssr:hovedgruppe" v="infrastruktur" />
		<tag k="ssr:stedsnr" v="1034720" />
		<tag k="ssr:type" v="adressenavn" />
	</node>
	<node id="-262652" lat="60.6995277735" lon="8.95024166939">
		<tag k="name" v="Gol kommune" />
		<tag k="ssr:date" v="2019-12-27" />
		<tag k="ssr:gruppe" v="administrativeIndelinger" />
		<tag k="ssr:hovedgruppe" v="offentligAdministrasjon" />
		<tag k="ssr:stedsnr" v="873478" />
		<tag k="ssr:type" v="kommune" />
	</node>
</osm>
