<?xml version="1.0" encoding="UTF-8"?>
<osm generator="osmapis" version="0.6">
	<node id="-264699" lat="59.4822194455" lon="7.84340833343">
		<tag k="bridge" v="yes" />
		<tag k="layer" v="1" />
		<tag k="name" v="Ljostad" />
		<tag k="ssr:stedsnr" v="532387" />
	</node>
	<node id="-263673" lat="59.4456666707" lon="8.01207777455">
		<tag k="bridge" v="yes" />
		<tag k="layer" v="1" />
		<tag k="name" v="Eidsborgbekk" />
		<tag k="ssr:stedsnr" v="107430" />
	</node>
	<node id="-263668" lat="59.4861638887" lon="7.73326111833">
		<tag k="highway" v="path" />
		<tag k="name" v="Kristianrota" />
		<tag k="ssr:stedsnr" v="106921" />
	</node>
	<node id="-265715" lat="59.5252749989" lon="7.82371111577">
		<tag k="fixme" v="verify maritime location" />
		<tag k="mooring" v="yes" />
		<tag k="name" v="Rikarsto" />
		<tag k="place" v="locality" />
		<tag k="ssr:stedsnr" v="835682" />
	</node>
	<node id="-265701" lat="59.5056472201" lon="7.86764166844">
		<tag k="fixme" v="verify maritime location" />
		<tag k="mooring" v="yes" />
		<tag k="name" v="Versto" />
		<tag k="place" v="locality" />
		<tag k="ssr:stedsnr" v="834844" />
	</node>
	<node id="-263120" lat="59.5420750016" lon="8.20550277041">
		<tag k="junction" v="yes" />
		<tag k="name" v="Torget" />
		<tag k="place" v="locality" />
		<tag k="ssr:stedsnr" v="413562" />
	</node>
	<node id="-264137" lat="59.5260055586" lon="8.14823889654">
		<tag k="bridge" v="yes" />
		<tag k="layer" v="1" />
		<tag k="name" v="Grotdalen" />
		<tag k="ssr:stedsnr" v="228456" />
	</node>
	<node id="-264136" lat="59.3906861128" lon="8.04050277641">
		<tag k="bridge" v="yes" />
		<tag k="layer" v="1" />
		<tag k="name" v="Platebru" />
		<tag k="ssr:stedsnr" v="228446" />
	</node>
	<node id="-264135" lat="59.4788527768" lon="7.85677500482">
		<tag k="bridge" v="yes" />
		<tag k="layer" v="1" />
		<tag k="name" v="Øvre Ause" />
		<tag k="ssr:stedsnr" v="228443" />
	</node>
	<node id="-264599" lat="59.4082194446" lon="8.18854722008">
		<tag k="man_made" v="quay" />
		<tag k="name" v="Bandaksli brygge" />
		<tag k="place" v="locality" />
		<tag k="ssr:stedsnr" v="510702" />
	</node>
	<node id="-264085" lat="59.4632944411" lon="7.93821667332">
		<tag k="landuse" v="industrial" />
		<tag k="name" v="Lio kraftstasjon" />
		<tag k="power" v="plant" />
		<tag k="ssr:stedsnr" v="209938" />
	</node>
	<node id="-264083" lat="59.4449333339" lon="8.02414444166">
		<tag k="man_made" v="quay" />
		<tag k="name" v="Dalen brygge" />
		<tag k="place" v="locality" />
		<tag k="ssr:stedsnr" v="209927" />
	</node>
	<node id="-265097" lat="59.5452416676" lon="8.01501111416">
		<tag k="bridge" v="yes" />
		<tag k="layer" v="1" />
		<tag k="name" v="Gøytil" />
		<tag k="ssr:stedsnr" v="653403" />
	</node>
	<node id="-263048" lat="59.4502027744" lon="7.94928334175">
		<tag k="alt_name" v="Vistad" />
		<tag k="bridge" v="yes" />
		<tag k="layer" v="1" />
		<tag k="name" v="Vistad bru" />
		<tag k="ssr:stedsnr" v="391973" />
	</node>
	<node id="-264582" lat="59.4605611107" lon="8.12242500755">
		<tag k="fixme" v="consider highway=path" />
		<tag k="highway" v="track" />
		<tag k="name" v="Nærstøylvegen" />
		<tag k="ssr:stedsnr" v="509967" />
	</node>
	<node id="-266117" lat="59.5889722201" lon="7.80682777985">
		<tag k="bridge" v="yes" />
		<tag k="layer" v="1" />
		<tag k="name" v="Flatastøyl" />
		<tag k="ssr:stedsnr" v="957403" />
	</node>
	<node id="-266116" lat="59.5416777749" lon="8.19316944113">
		<tag k="bridge" v="yes" />
		<tag k="layer" v="1" />
		<tag k="name" v="Mørke" />
		<tag k="ssr:stedsnr" v="957398" />
	</node>
	<node id="-265091" lat="59.3677611144" lon="7.87543611698">
		<tag k="bridge" v="yes" />
		<tag k="layer" v="1" />
		<tag k="name" v="Sæbyggjebru" />
		<tag k="ssr:stedsnr" v="652972" />
	</node>
	<node id="-264576" lat="59.4322666675" lon="8.14986944148">
		<tag k="man_made" v="cairn" />
		<tag k="name" v="Varden" />
		<tag k="place" v="locality" />
		<tag k="ssr:stedsnr" v="509325" />
	</node>
	<node id="-263547" lat="59.4224583312" lon="8.17826388881">
		<tag k="fixme" v="verify maritime location" />
		<tag k="mooring" v="yes" />
		<tag k="name" v="Flosto" />
		<tag k="place" v="locality" />
		<tag k="ssr:stedsnr" v="85637" />
	</node>
	<node id="-264057" lat="59.3733166672" lon="8.04523055654">
		<tag k="junction" v="yes" />
		<tag k="name" v="Rota" />
		<tag k="place" v="locality" />
		<tag k="ssr:stedsnr" v="209081" />
	</node>
	<node id="-264047" lat="59.4351555517" lon="8.17520832918">
		<tag k="alt_name" v="Homme" />
		<tag k="bridge" v="yes" />
		<tag k="layer" v="1" />
		<tag k="name" v="Homme bru" />
		<tag k="ssr:stedsnr" v="208305" />
	</node>
	<node id="-264037" lat="59.4753027803" lon="8.16690833039">
		<tag k="bridge" v="yes" />
		<tag k="layer" v="1" />
		<tag k="name" v="Veiåbru" />
		<tag k="ssr:stedsnr" v="207475" />
	</node>
	<node id="-266084" lat="59.3432861067" lon="7.69095555678">
		<tag k="highway" v="path" />
		<tag k="name" v="Steilaupet" />
		<tag k="ssr:stedsnr" v="956299" />
	</node>
	<node id="-264677" lat="59.5190777775" lon="7.87036667244">
		<tag k="ford" v="yes" />
		<tag k="name" v="Rafossvaet" />
		<tag k="place" v="locality" />
		<tag k="ssr:stedsnr" v="531695" />
	</node>
	<node id="-263002" lat="59.3635861093" lon="8.05228334053">
		<tag k="landuse" v="industrial" />
		<tag k="name" v="Skafså 1" />
		<tag k="power" v="plant" />
		<tag k="ssr:stedsnr" v="388942" />
	</node>
	<node id="-265044" lat="59.4487472253" lon="7.73254167411">
		<tag k="highway" v="path" />
		<tag k="name" v="Homstjønnstigen" />
		<tag k="ssr:stedsnr" v="651674" />
	</node>
	<node id="-266058" lat="59.4627611088" lon="7.94009166759">
		<tag k="alt_name" v="Rukke" />
		<tag k="bridge" v="yes" />
		<tag k="layer" v="1" />
		<tag k="name" v="Rukke bru" />
		<tag k="ssr:stedsnr" v="938960" />
	</node>
	<node id="-265867" lat="59.4200916688" lon="8.20968610268">
		<tag k="fixme" v="verify maritime location" />
		<tag k="mooring" v="yes" />
		<tag k="name" v="Båtstø" />
		<tag k="place" v="locality" />
		<tag k="ssr:stedsnr" v="874729" />
	</node>
	<node id="-266043" lat="59.4639138918" lon="7.78918889002">
		<tag k="ford" v="yes" />
		<tag k="name" v="Øyarvadet" />
		<tag k="place" v="locality" />
		<tag k="ssr:stedsnr" v="938158" />
	</node>
	<node id="-265530" lat="59.4957527813" lon="8.17977777075">
		<tag k="alt_name" v="Grytå bru" />
		<tag k="bridge" v="yes" />
		<tag k="layer" v="1" />
		<tag k="name" v="Grytå" />
		<tag k="ssr:stedsnr" v="775375" />
	</node>
	<node id="-265529" lat="59.4439944464" lon="7.97584445167">
		<tag k="bridge" v="yes" />
		<tag k="layer" v="1" />
		<tag k="name" v="Tverrå" />
		<tag k="ssr:stedsnr" v="775357" />
	</node>
	<node id="-265014" lat="59.469461109" lon="7.94728888224">
		<tag k="junction" v="yes" />
		<tag k="name" v="Liosvingen" />
		<tag k="place" v="locality" />
		<tag k="ssr:stedsnr" v="634082" />
	</node>
	<node id="-266036" lat="59.3721777809" lon="8.0260083371">
		<tag k="landuse" v="industrial" />
		<tag k="name" v="Krossgot" />
		<tag k="power" v="plant" />
		<tag k="ssr:stedsnr" v="938067" />
	</node>
	<node id="-265520" lat="59.3803194481" lon="7.82728611692">
		<tag k="ford" v="yes" />
		<tag k="name" v="Majorvadet" />
		<tag k="place" v="locality" />
		<tag k="ssr:stedsnr" v="774818" />
	</node>
	<node id="-265096" lat="59.5643166698" lon="8.18422776955">
		<tag k="bridge" v="yes" />
		<tag k="layer" v="1" />
		<tag k="name" v="Lisleå" />
		<tag k="ssr:stedsnr" v="653401" />
	</node>
	<node id="-265510" lat="59.4759833314" lon="7.89190278112">
		<tag k="highway" v="path" />
		<tag k="name" v="Bubrokka" />
		<tag k="ssr:stedsnr" v="774513" />
	</node>
	<node id="-264475" lat="59.4303027787" lon="8.00275278385">
		<tag k="bridge" v="yes" />
		<tag k="layer" v="1" />
		<tag k="name" v="Holtebekk" />
		<tag k="ssr:stedsnr" v="471417" />
	</node>
	<node id="-264474" lat="59.3840583324" lon="8.00738333671">
		<tag k="bridge" v="yes" />
		<tag k="layer" v="1" />
		<tag k="name" v="Moen" />
		<tag k="ssr:stedsnr" v="471412" />
	</node>
	<node id="-264473" lat="59.4849055533" lon="7.95304443744">
		<tag k="bridge" v="yes" />
		<tag k="layer" v="1" />
		<tag k="name" v="Skredtveit" />
		<tag k="ssr:stedsnr" v="471410" />
	</node>
	<node id="-264472" lat="59.4264361151" lon="8.00438611226">
		<tag k="bridge" v="yes" />
		<tag k="layer" v="1" />
		<tag k="name" v="Kleivebekk" />
		<tag k="ssr:stedsnr" v="471411" />
	</node>
	<node id="-264471" lat="59.4902444437" lon="8.28756944508">
		<tag k="bridge" v="yes" />
		<tag k="layer" v="1" />
		<tag k="name" v="Rui" />
		<tag k="ssr:stedsnr" v="471409" />
	</node>
	<node id="-264470" lat="59.3765166702" lon="8.0382805598">
		<tag k="bridge" v="yes" />
		<tag k="layer" v="1" />
		<tag k="name" v="Åmdalsverk" />
		<tag k="ssr:stedsnr" v="471398" />
	</node>
	<node id="-264980" lat="59.3621805513" lon="8.0707583392">
		<tag k="highway" v="path" />
		<tag k="name" v="Krusmunskotet" />
		<tag k="ssr:stedsnr" v="630947" />
	</node>
	<node id="-266003" lat="59.3924805588" lon="8.13930833567">
		<tag k="highway" v="path" />
		<tag k="name" v="Stemmekleivane" />
		<tag k="ssr:stedsnr" v="935061" />
	</node>
	<node id="-266115" lat="59.375769446" lon="7.83748332901">
		<tag k="bridge" v="yes" />
		<tag k="layer" v="1" />
		<tag k="name" v="Sæbygjeåi" />
		<tag k="ssr:stedsnr" v="957391" />
	</node>
	<node id="-265998" lat="59.4839638909" lon="8.18240000581">
		<tag k="highway" v="path" />
		<tag k="name" v="Prestekleivi" />
		<tag k="ssr:stedsnr" v="934487" />
	</node>
	<node id="-263436" lat="59.466716669" lon="8.13456388201">
		<tag k="highway" v="path" />
		<tag k="name" v="Brekkebakken" />
		<tag k="ssr:stedsnr" v="49044" />
	</node>
	<node id="-262786" lat="59.4194805593" lon="8.12463054816">
		<tag k="man_made" v="quay" />
		<tag k="name" v="Lauvvikbrygga" />
		<tag k="place" v="locality" />
		<tag k="ssr:stedsnr" v="329313" />
	</node>
	<node id="-263432" lat="59.3655027816" lon="7.85865832917">
		<tag k="highway" v="path" />
		<tag k="name" v="Folaspranget" />
		<tag k="ssr:stedsnr" v="46974" />
	</node>
	<node id="-265991" lat="59.3932805517" lon="8.09222222756">
		<tag k="highway" v="path" />
		<tag k="name" v="Berglandsvegen" />
		<tag k="ssr:stedsnr" v="934162" />
	</node>
	<node id="-263422" lat="59.4456444403" lon="7.9972499933">
		<tag k="bridge" v="yes" />
		<tag k="layer" v="1" />
		<tag k="name" v="Dalen" />
		<tag k="ssr:stedsnr" v="46461" />
	</node>
	<node id="-263421" lat="59.4753138901" lon="8.16689721947">
		<tag k="bridge" v="yes" />
		<tag k="layer" v="1" />
		<tag k="name" v="Veiå" />
		<tag k="ssr:stedsnr" v="46434" />
	</node>
	<node id="-265467" lat="59.4442444477" lon="8.04021389172">
		<tag k="landuse" v="industrial" />
		<tag k="name" v="Tokke 1" />
		<tag k="power" v="plant" />
		<tag k="ssr:stedsnr" v="755937" />
	</node>
	<node id="-262901" lat="59.4977083342" lon="8.16144721451">
		<tag k="bridge" v="yes" />
		<tag k="layer" v="1" />
		<tag k="name" v="Dauvevadet" />
		<tag k="ssr:stedsnr" v="414001" />
	</node>
	<node id="-265458" lat="59.4810472242" lon="7.80450277755">
		<tag k="highway" v="path" />
		<tag k="name" v="Futevegen" />
		<tag k="ssr:stedsnr" v="755170" />
	</node>
	<node id="-263918" lat="59.3771444472" lon="8.15589444181">
		<tag k="bridge" v="yes" />
		<tag k="layer" v="1" />
		<tag k="name" v="Eikeland" />
		<tag k="ssr:stedsnr" v="168408" />
	</node>
	<node id="-263917" lat="59.5186916642" lon="8.16187777536">
		<tag k="bridge" v="yes" />
		<tag k="layer" v="1" />
		<tag k="name" v="Slethaug" />
		<tag k="ssr:stedsnr" v="168405" />
	</node>
	<node id="-263916" lat="59.3704805533" lon="8.0907833309">
		<tag k="bridge" v="yes" />
		<tag k="layer" v="1" />
		<tag k="name" v="Skytjebekk" />
		<tag k="ssr:stedsnr" v="168401" />
	</node>
	<node id="-262879" lat="59.5421777769" lon="8.05714445279">
		<tag k="bridge" v="yes" />
		<tag k="layer" v="1" />
		<tag k="name" v="Grytestøyl" />
		<tag k="ssr:stedsnr" v="350362" />
	</node>
	<node id="-265437" lat="59.4573527793" lon="8.13331110926">
		<tag k="alt_name" v="Aalandsli" />
		<tag k="bridge" v="yes" />
		<tag k="layer" v="1" />
		<tag k="name" v="Flateland bru" />
		<tag k="ssr:stedsnr" v="753420" />
	</node>
	<node id="-264393" lat="59.4456305561" lon="8.15328332529">
		<tag k="alt_name" v="Flatdal" />
		<tag k="bridge" v="yes" />
		<tag k="layer" v="1" />
		<tag k="name" v="Ålandsli bru" />
		<tag k="ssr:stedsnr" v="451538" />
	</node>
	<node id="-263869" lat="59.4929194458" lon="8.30991110449">
		<tag k="layer" v="-1" />
		<tag k="name" v="Mostøyl" />
		<tag k="ssr:stedsnr" v="165340" />
		<tag k="tunnel" v="yes" />
	</node>
	<node id="-264883" lat="59.5574472258" lon="7.81106389421">
		<tag k="bridge" v="yes" />
		<tag k="layer" v="1" />
		<tag k="name" v="Børte" />
		<tag k="ssr:stedsnr" v="592456" />
	</node>
	<node id="-264882" lat="59.4292249983" lon="8.00281667542">
		<tag k="bridge" v="yes" />
		<tag k="layer" v="1" />
		<tag k="name" v="Holte" />
		<tag k="ssr:stedsnr" v="592446" />
	</node>
	<node id="-264881" lat="59.49183889" lon="8.30642222312">
		<tag k="bridge" v="yes" />
		<tag k="layer" v="1" />
		<tag k="name" v="Mostøyl" />
		<tag k="ssr:stedsnr" v="592441" />
	</node>
	<node id="-263340" lat="59.4242527773" lon="8.18824167488">
		<tag k="man_made" v="quay" />
		<tag k="name" v="Lårdal brygge" />
		<tag k="place" v="locality" />
		<tag k="ssr:stedsnr" v="26493" />
	</node>
	<node id="-263832" lat="59.470508331" lon="7.94687499504">
		<tag k="alt_name" v="Skålejuv" />
		<tag k="bridge" v="yes" />
		<tag k="layer" v="1" />
		<tag k="name" v="Skålejuv bru" />
		<tag k="ssr:stedsnr" v="148088" />
	</node>
	<node id="-265877" lat="59.3799694415" lon="8.07335555356">
		<tag k="highway" v="path" />
		<tag k="name" v="Tokleivi" />
		<tag k="ssr:stedsnr" v="875237" />
	</node>
	<node id="-264851" lat="59.4761833312" lon="7.89426111049">
		<tag k="ford" v="yes" />
		<tag k="name" v="Kyrkjevaet" />
		<tag k="place" v="locality" />
		<tag k="ssr:stedsnr" v="591258" />
	</node>
	<node id="-262795" lat="59.3737611136" lon="7.99160277177">
		<tag k="ford" v="yes" />
		<tag k="name" v="Åslandsva" />
		<tag k="place" v="locality" />
		<tag k="ssr:stedsnr" v="331069" />
	</node>
	<node id="-265865" lat="59.4476888898" lon="8.23430833692">
		<tag k="fixme" v="verify maritime location" />
		<tag k="mooring" v="yes" />
		<tag k="name" v="Inghusdalstøi" />
		<tag k="place" v="locality" />
		<tag k="ssr:stedsnr" v="874623" />
	</node>
	<node id="-263813" lat="59.4452166686" lon="8.10775554825">
		<tag k="fixme" v="consider highway=path" />
		<tag k="highway" v="track" />
		<tag k="name" v="Grasdalvegen" />
		<tag k="ssr:stedsnr" v="146480" />
	</node>
	<node id="-264834" lat="59.3830666689" lon="8.00274999291">
		<tag k="bridge" v="yes" />
		<tag k="layer" v="1" />
		<tag k="name" v="Midtbru" />
		<tag k="ssr:stedsnr" v="573994" />
	</node>
	<node id="-262778" lat="59.4149222236" lon="8.24699444924">
		<tag k="fixme" v="consider highway=path" />
		<tag k="highway" v="track" />
		<tag k="name" v="Flekstveitvegen" />
		<tag k="ssr:stedsnr" v="328707" />
	</node>
	<node id="-263800" lat="59.3551416624" lon="8.08638333628">
		<tag k="highway" v="path" />
		<tag k="name" v="Langkvernhusvegen" />
		<tag k="ssr:stedsnr" v="145884" />
	</node>
	<node id="-263796" lat="59.3776500039" lon="8.17438889732">
		<tag k="highway" v="path" />
		<tag k="name" v="Plankeslepa" />
		<tag k="ssr:stedsnr" v="145803" />
	</node>
	<node id="-264799" lat="59.4372166636" lon="8.04674166095">
		<tag k="fixme" v="verify maritime location" />
		<tag k="mooring" v="yes" />
		<tag k="name" v="Tveitsto" />
		<tag k="place" v="locality" />
		<tag k="ssr:stedsnr" v="571621" />
	</node>
	<node id="-264274" lat="59.4550416696" lon="8.23429167476">
		<tag k="fixme" v="verify maritime location" />
		<tag k="mooring" v="yes" />
		<tag k="name" v="Kabrettstøi" />
		<tag k="place" v="locality" />
		<tag k="ssr:stedsnr" v="267655" />
	</node>
	<node id="-263244" lat="59.4655000012" lon="8.19999166743">
		<tag k="highway" v="path" />
		<tag k="name" v="Jotomstigen" />
		<tag k="ssr:stedsnr" v="267556" />
	</node>
	<node id="-265282" lat="59.4723333344" lon="7.87138888114">
		<tag k="name" v="Øyanberge" />
		<tag k="place" v="locality" />
		<tag k="ssr:stedsnr" v="712360" />
	</node>
	<node id="-262833" lat="59.4756611125" lon="7.91439999727">
		<tag k="highway" v="path" />
		<tag k="name" v="Gamleveg" />
		<tag k="ssr:stedsnr" v="348264" />
	</node>
	<node id="-265250" lat="59.4812583321" lon="7.95811111061">
		<tag k="alt_name" v="Omdal" />
		<tag k="bridge" v="yes" />
		<tag k="layer" v="1" />
		<tag k="name" v="Omdalsbru" />
		<tag k="ssr:stedsnr" v="695088" />
	</node>
	<node id="-263184" lat="59.593552776" lon="7.80703611275">
		<tag k="bridge" v="yes" />
		<tag k="layer" v="1" />
		<tag k="name" v="Austbø" />
		<tag k="ssr:stedsnr" v="896442" />
	</node>
	<node id="-263183" lat="59.4990444473" lon="8.19791388219">
		<tag k="bridge" v="yes" />
		<tag k="layer" v="1" />
		<tag k="name" v="Ofte" />
		<tag k="ssr:stedsnr" v="896436" />
	</node>
	<node id="-263182" lat="59.4239500044" lon="8.18456665947">
		<tag k="bridge" v="yes" />
		<tag k="layer" v="1" />
		<tag k="name" v="Triset" />
		<tag k="ssr:stedsnr" v="896433" />
	</node>
	<node id="-265740" lat="59.492919444" lon="8.30992777501">
		<tag k="bridge" v="yes" />
		<tag k="layer" v="1" />
		<tag k="name" v="Mostøylbakken" />
		<tag k="ssr:stedsnr" v="836364" />
	</node>
	<node id="-265739" lat="59.461380552" lon="8.02238333298">
		<tag k="bridge" v="yes" />
		<tag k="layer" v="1" />
		<tag k="name" v="Vrengen" />
		<tag k="ssr:stedsnr" v="836355" />
	</node>
	<node id="-262662" lat="59.5243888925" lon="8.01652500556">
		<tag k="bridge" v="yes" />
		<tag k="layer" v="1" />
		<tag k="name" v="Mjaugedal" />
		<tag k="ssr:stedsnr" v="289418" />
	</node>
	<node id="-262661" lat="59.4323527762" lon="7.99763888736">
		<tag k="bridge" v="yes" />
		<tag k="layer" v="1" />
		<tag k="name" v="Midtbjøra" />
		<tag k="ssr:stedsnr" v="289412" />
	</node>
	<node id="-262660" lat="59.3990083371" lon="8.00704721529">
		<tag k="bridge" v="yes" />
		<tag k="layer" v="1" />
		<tag k="name" v="Nykhyl" />
		<tag k="ssr:stedsnr" v="289406" />
	</node>
</osm>
