<?xml version="1.0" encoding="UTF-8"?>
<osm generator="osmapis" version="0.6">
	<node id="-264832" lat="59.4085944441" lon="8.01276667399">
		<tag k="amenity" v="community_centre" />
		<tag k="name" v="Soknehuset" />
		<tag k="ssr:stedsnr" v="573973" />
	</node>
	<node id="-265083" lat="59.4889499986" lon="7.78199444681">
		<tag k="name" v="Kusondi" />
		<tag k="place" v="locality" />
		<tag k="ssr:stedsnr" v="652847" />
	</node>
	<node id="-262773" lat="59.4410222215" lon="8.22096110331">
		<tag k="name" v="Ånesvasen" />
		<tag k="place" v="locality" />
		<tag k="ssr:stedsnr" v="328638" />
	</node>
	<node id="-264179" lat="59.5022611069" lon="7.99556666919">
		<tag k="name" v="Bjønnestigane" />
		<tag k="place" v="locality" />
		<tag k="ssr:stedsnr" v="231726" />
	</node>
	<node id="-264688" lat="59.4887250006" lon="7.86716111389">
		<tag k="name" v="Grimarshaug" />
		<tag k="place" v="locality" />
		<tag k="ssr:stedsnr" v="531880" />
	</node>
	<node id="-262766" lat="59.4482944413" lon="8.18393888633">
		<tag k="name" v="Sjåberg" />
		<tag k="ssr:stedsnr" v="328553" />
		<tag k="tourism" v="viewpoint" />
	</node>
	<node id="-264683" lat="59.4571611127" lon="7.88311110512">
		<tag k="name" v="Fjågestøyl eldhuset" />
		<tag k="place" v="locality" />
		<tag k="ssr:stedsnr" v="531787" />
	</node>
	<node id="-264038" lat="59.4331805543" lon="8.08020833511">
		<tag k="name" v="Vegenden" />
		<tag k="place" v="locality" />
		<tag k="ssr:stedsnr" v="207666" />
	</node>
	<node id="-264292" lat="59.41783889" lon="8.14401944265">
		<tag k="name" v="Olavkåsteigen" />
		<tag k="place" v="locality" />
		<tag k="ssr:stedsnr" v="268320" />
	</node>
	<node id="-262758" lat="59.3732583365" lon="8.19573611461">
		<tag k="cemetery" v="grave" />
		<tag k="name" v="Kyrkjegarden" />
		<tag k="place" v="locality" />
		<tag k="ssr:stedsnr" v="327908" />
	</node>
	<node id="-263778" lat="59.4242611142" lon="8.18251665814">
		<tag k="amenity" v="place_of_worship" />
		<tag k="denomination" v="lutheran" />
		<tag k="name" v="Lårdal kyrkje" />
		<tag k="religion" v="christian" />
		<tag k="ssr:stedsnr" v="268467" />
	</node>
	<node id="-263009" lat="59.4077444413" lon="8.13687222807">
		<tag k="name" v="Hestekjosin" />
		<tag k="place" v="locality" />
		<tag k="ssr:stedsnr" v="389326" />
	</node>
	<node id="-264016" lat="59.3880305513" lon="8.04903054961">
		<tag k="name" v="Kolbotn" />
		<tag k="place" v="locality" />
		<tag k="ssr:stedsnr" v="206219" />
	</node>
	<node id="-265309" lat="59.4887500019" lon="7.78545832569">
		<tag k="name" v="Kloppedike" />
		<tag k="place" v="locality" />
		<tag k="ssr:stedsnr" v="713873" />
	</node>
	<node id="-265499" lat="59.4892055555" lon="7.78129999361">
		<tag k="name" v="Hjalkehomen" />
		<tag k="place" v="locality" />
		<tag k="ssr:stedsnr" v="773827" />
	</node>
	<node id="-266075" lat="59.5014638929" lon="7.76504722645">
		<tag k="name" v="Dåsfitøye" />
		<tag k="place" v="locality" />
		<tag k="ssr:stedsnr" v="955792" />
	</node>
	<node id="-264154" lat="59.4866277784" lon="7.85044445118">
		<tag k="name" v="Møl" />
		<tag k="ssr:stedsnr" v="228898" />
		<tag k="tourism" v="viewpoint" />
	</node>
	<node id="-264918" lat="59.4909222226" lon="8.23288056313">
		<tag k="amenity" v="place_of_worship" />
		<tag k="denomination" v="lutheran" />
		<tag k="name" v="Høydalsmo" />
		<tag k="religion" v="christian" />
		<tag k="ssr:stedsnr" v="608894" />
	</node>
	<node id="-262867" lat="59.5070694404" lon="7.85543332648">
		<tag k="name" v="Tjøregjeden" />
		<tag k="place" v="locality" />
		<tag k="ssr:stedsnr" v="349898" />
	</node>
	<node id="-265810" lat="59.4080277784" lon="8.0163000065">
		<tag k="alt_name" v="Skafså kyrkje" />
		<tag k="amenity" v="place_of_worship" />
		<tag k="denomination" v="lutheran" />
		<tag k="name" v="Skafså" />
		<tag k="religion" v="christian" />
		<tag k="ssr:stedsnr" v="852778" />
	</node>
	<node id="-265680" lat="59.4457361117" lon="7.99480832629">
		<tag k="amenity" v="community_centre" />
		<tag k="name" v="Elvarheim" />
		<tag k="ssr:stedsnr" v="816934" />
	</node>
	<node id="-265039" lat="59.4041555524" lon="8.01013056387">
		<tag k="name" v="Tinghaugen" />
		<tag k="place" v="locality" />
		<tag k="ssr:stedsnr" v="634996" />
	</node>
	<node id="-263245" lat="59.3964972207" lon="8.165858329">
		<tag k="amenity" v="community_centre" />
		<tag k="name" v="Torshaug" />
		<tag k="ssr:stedsnr" v="2318" />
	</node>
	<node id="-262731" lat="59.4222305527" lon="8.17032222722">
		<tag k="name" v="Fiskarberget" />
		<tag k="place" v="locality" />
		<tag k="ssr:stedsnr" v="306462" />
	</node>
	<node id="-263195" lat="59.4886861086" lon="8.12802778518">
		<tag k="name" v="Høvleriet" />
		<tag k="place" v="locality" />
		<tag k="ssr:stedsnr" v="899193" />
	</node>
	<node id="-263368" lat="59.4453555536" lon="8.00153610636">
		<tag k="amenity" v="community_centre" />
		<tag k="name" v="Soknehuset" />
		<tag k="ssr:stedsnr" v="27934" />
	</node>
	<node id="-264389" lat="59.4289500014" lon="8.17380277699">
		<tag k="amenity" v="community_centre" />
		<tag k="name" v="Folkets hus" />
		<tag k="ssr:stedsnr" v="450454" />
	</node>
	<node id="-265284" lat="59.4657611067" lon="7.82692776929">
		<tag k="name" v="Orrenettane" />
		<tag k="place" v="locality" />
		<tag k="ssr:stedsnr" v="712393" />
	</node>
	<node id="-264387" lat="59.4340500002" lon="8.17484444946">
		<tag k="amenity" v="place_of_worship" />
		<tag k="fixme" v="specify religion=*, denomination=*, building=* etc" />
		<tag k="name" v="Fredtun" />
		<tag k="ssr:stedsnr" v="450239" />
	</node>
	<node id="-264123" lat="59.4934055542" lon="7.78261943892">
		<tag k="name" v="Dyrjeneset" />
		<tag k="place" v="locality" />
		<tag k="ssr:stedsnr" v="227773" />
	</node>
	<node id="-263411" lat="59.501452781" lon="7.75696110218">
		<tag k="name" v="Steilaupet" />
		<tag k="place" v="locality" />
		<tag k="ssr:stedsnr" v="45902" />
	</node>
	<node id="-263069" lat="59.4906111112" lon="7.77050833508">
		<tag k="name" v="Bjønnefelsberje" />
		<tag k="place" v="locality" />
		<tag k="ssr:stedsnr" v="409763" />
	</node>
	<node id="-266028" lat="59.4194833305" lon="8.12211110876">
		<tag k="name" v="Hagen" />
		<tag k="place" v="locality" />
		<tag k="ssr:stedsnr" v="936287" />
	</node>
	<node id="-265130" lat="59.4645666624" lon="8.02051667298">
		<tag k="alt_name" v="Eidsborg Stavkyrkje" />
		<tag k="amenity" v="place_of_worship" />
		<tag k="denomination" v="lutheran" />
		<tag k="name" v="Eidsborg" />
		<tag k="religion" v="christian" />
		<tag k="ssr:stedsnr" v="669863" />
	</node>
	<node id="-263079" lat="59.4957499971" lon="7.73290000413">
		<tag k="name" v="Straumen" />
		<tag k="place" v="locality" />
		<tag k="ssr:stedsnr" v="409900" />
	</node>
	<node id="-263857" lat="59.4653194449" lon="8.01996666979">
		<tag k="name" v="Vest-Telemark Museum" />
		<tag k="old_name" v="Lårdal bygdetun" />
		<tag k="ssr:stedsnr" v="148965" />
		<tag k="tourism" v="attraction" />
	</node>
	<node id="-265761" lat="59.4928333357" lon="7.99736944691">
		<tag k="name" v="Sagabakken" />
		<tag k="place" v="locality" />
		<tag k="ssr:stedsnr" v="838964" />
	</node>
	<node id="-262688" lat="59.4781166698" lon="8.0801861118">
		<tag k="name" v="Kolabotn" />
		<tag k="place" v="locality" />
		<tag k="ssr:stedsnr" v="292440" />
	</node>
	<node id="-264048" lat="59.4196333362" lon="8.11989166028">
		<tag k="name" v="Nordbø" />
		<tag k="place" v="locality" />
		<tag k="ssr:stedsnr" v="208317" />
	</node>
	<node id="-265501" lat="59.5416305549" lon="7.81527222012">
		<tag k="name" v="Kråkehaug" />
		<tag k="place" v="locality" />
		<tag k="ssr:stedsnr" v="773916" />
	</node>
	<node id="-265500" lat="59.4951888926" lon="7.77616110313">
		<tag k="name" v="Møreveita" />
		<tag k="place" v="locality" />
		<tag k="ssr:stedsnr" v="773831" />
	</node>
	<node id="-264603" lat="59.4225555523" lon="8.18249167025">
		<tag k="historic" v="heritage" />
		<tag k="name" v="Gågehaug" />
		<tag k="place" v="locality" />
		<tag k="ssr:stedsnr" v="510746" />
	</node>
	<node id="-264730" lat="59.4788388896" lon="7.84630000534">
		<tag k="amenity" v="place_of_worship" />
		<tag k="denomination" v="lutheran" />
		<tag k="name" v="Mo" />
		<tag k="religion" v="christian" />
		<tag k="ssr:stedsnr" v="548648" />
	</node>
	<node id="-264726" lat="59.3644833312" lon="7.69208333557">
		<tag k="alt_name" v="Fonnestøyl" />
		<tag k="name" v="Finnstøyl" />
		<tag k="old_name" v="Finnstøl" />
		<tag k="place" v="locality" />
		<tag k="ssr:stedsnr" v="548579" />
	</node>
	<node id="-262673" lat="59.4677944416" lon="8.1344861041">
		<tag k="name" v="Brureberget" />
		<tag k="place" v="locality" />
		<tag k="ssr:stedsnr" v="292043" />
	</node>
	<node id="-263053" lat="59.4848611124" lon="7.86405000194">
		<tag k="name" v="Stampeflote" />
		<tag k="place" v="locality" />
		<tag k="ssr:stedsnr" v="408425" />
	</node>
</osm>
