<?xml version="1.0" encoding="UTF-8"?>
<osm generator="osmapis" version="0.6">
	<node id="-309246" lat="58.4134916651" lon="8.06211666816">
		<tag k="name" v="Gjegningsnesane" />
		<tag k="ssr:date" v="2019-05-31" />
		<tag k="ssr:gruppe" v="veg" />
		<tag k="ssr:hovedgruppe" v="infrastruktur" />
		<tag k="ssr:stedsnr" v="950096" />
		<tag k="ssr:type" v="adressenavn" />
	</node>
	<node id="-307416" lat="58.4009250236" lon="7.85434802912">
		<tag k="name" v="Gåseflåveien" />
		<tag k="ssr:date" v="2019-05-31" />
		<tag k="ssr:gruppe" v="veg" />
		<tag k="ssr:hovedgruppe" v="infrastruktur" />
		<tag k="ssr:stedsnr" v="1054639" />
		<tag k="ssr:type" v="adressenavn" />
	</node>
	<node id="-307415" lat="58.3830158274" lon="8.09972759835">
		<tag k="name" v="Oggeveien" />
		<tag k="ssr:date" v="2019-05-31" />
		<tag k="ssr:gruppe" v="veg" />
		<tag k="ssr:hovedgruppe" v="infrastruktur" />
		<tag k="ssr:stedsnr" v="1054636" />
		<tag k="ssr:type" v="adressenavn" />
	</node>
	<node id="-308358" lat="58.457258331" lon="7.91827222857">
		<tag k="name" v="Iveland kommune" />
		<tag k="ssr:date" v="2016-05-10" />
		<tag k="ssr:gruppe" v="administrativeIndelinger" />
		<tag k="ssr:hovedgruppe" v="offentligAdministrasjon" />
		<tag k="ssr:stedsnr" v="570107" />
		<tag k="ssr:type" v="kommune" />
	</node>
	<node id="-308451" lat="58.4255388897" lon="8.07230833792">
		<tag k="name" v="Åsen" />
		<tag k="ssr:date" v="2019-05-31" />
		<tag k="ssr:gruppe" v="veg" />
		<tag k="ssr:hovedgruppe" v="infrastruktur" />
		<tag k="ssr:stedsnr" v="585170" />
		<tag k="ssr:type" v="adressenavn" />
	</node>
	<node id="-307394" lat="58.4419027779" lon="7.91861111454">
		<tag k="name" v="Jernliveien" />
		<tag k="ssr:date" v="2019-05-31" />
		<tag k="ssr:gruppe" v="veg" />
		<tag k="ssr:hovedgruppe" v="infrastruktur" />
		<tag k="ssr:stedsnr" v="343373" />
		<tag k="ssr:type" v="adressenavn" />
	</node>
</osm>
