<?xml version="1.0" encoding="UTF-8"?>
<osm generator="osmapis" version="0.6">
	<node id="-841152" lat="63.9480111154" lon="10.7143361154">
		<tag k="loc_name:sma" v="Buvrietjonne" />
		<tag k="natural" v="water" />
		<tag k="ssr:date" v="2018-01-09" />
		<tag k="ssr:gruppe" v="stilleståendeVann" />
		<tag k="ssr:hovedgruppe" v="ferskvann" />
		<tag k="ssr:stedsnr" v="695310" />
		<tag k="ssr:type" v="tjern" />
	</node>
	<node id="-843198" lat="64.0431111126" lon="10.0061138902">
		<tag k="amenity" v="school" />
		<tag k="old_name" v="Stokkøy skole" />
		<tag k="ssr:date" v="2018-01-09" />
		<tag k="ssr:gruppe" v="institusjoner" />
		<tag k="ssr:hovedgruppe" v="bebyggelse" />
		<tag k="ssr:stedsnr" v="759944" />
		<tag k="ssr:type" v="skole" />
	</node>
	<node id="-841859" lat="64.0248638849" lon="9.91898888327">
		<tag k="amenity" v="school" />
		<tag k="old_name" v="Linesøy skole" />
		<tag k="ssr:date" v="2018-01-09" />
		<tag k="ssr:gruppe" v="institusjoner" />
		<tag k="ssr:hovedgruppe" v="bebyggelse" />
		<tag k="ssr:stedsnr" v="698788" />
		<tag k="ssr:type" v="skole" />
	</node>
	<node id="-842960" lat="63.9195972204" lon="9.97072778489">
		<tag k="amenity" v="ferry_terminal" />
		<tag k="old_name" v="Barøy ferjeleie" />
		<tag k="ssr:date" v="2018-01-09" />
		<tag k="ssr:gruppe" v="sjøfart" />
		<tag k="ssr:hovedgruppe" v="infrastruktur" />
		<tag k="ssr:stedsnr" v="334020" />
		<tag k="ssr:type" v="ferjekai" />
	</node>
	<node id="-843209" lat="64.0565666699" lon="10.580883325">
		<tag k="fixme" v="consider natural=peak for the most distinct mountains in the district" />
		<tag k="loc_name" v="Haukvassheia" />
		<tag k="natural" v="hill" />
		<tag k="place" v="locality" />
		<tag k="ssr:date" v="2018-01-09" />
		<tag k="ssr:gruppe" v="høyder" />
		<tag k="ssr:hovedgruppe" v="terreng" />
		<tag k="ssr:stedsnr" v="361779" />
		<tag k="ssr:type" v="fjell" />
	</node>
	<node id="-840808" lat="63.9666694449" lon="10.2225500056">
		<tag k="fixme" v="consider place=hamlet" />
		<tag k="old_name" v="Å" />
		<tag k="place" v="farm" />
		<tag k="ssr:date" v="2018-01-09" />
		<tag k="ssr:gruppe" v="gardsbebyggelse" />
		<tag k="ssr:hovedgruppe" v="bebyggelse" />
		<tag k="ssr:stedsnr" v="970341" />
		<tag k="ssr:type" v="gard" />
	</node>
	<node id="-843782" lat="63.9856972211" lon="10.4212333271">
		<tag k="amenity" v="school" />
		<tag k="old_name" v="By skole" />
		<tag k="ssr:date" v="2018-01-09" />
		<tag k="ssr:gruppe" v="institusjoner" />
		<tag k="ssr:hovedgruppe" v="bebyggelse" />
		<tag k="ssr:stedsnr" v="941754" />
		<tag k="ssr:type" v="skole" />
	</node>
	<node id="-843171" lat="64.05119167" lon="10.0485861119">
		<tag k="amenity" v="ferry_terminal" />
		<tag k="old_name" v="Stokkøy ferjeleie" />
		<tag k="ssr:date" v="2018-01-09" />
		<tag k="ssr:gruppe" v="sjøfart" />
		<tag k="ssr:hovedgruppe" v="infrastruktur" />
		<tag k="ssr:stedsnr" v="516934" />
		<tag k="ssr:type" v="ferjekai" />
	</node>
</osm>
