<?xml version="1.0" encoding="UTF-8"?>
<osm generator="osmapis" version="0.6">
	<node id="-848637" lat="64.024205553" lon="9.89869443547">
		<tag k="name" v="Sjøvegen" />
		<tag k="ssr:date" v="2018-01-09" />
		<tag k="ssr:gruppe" v="veg" />
		<tag k="ssr:hovedgruppe" v="infrastruktur" />
		<tag k="ssr:stedsnr" v="759128" />
		<tag k="ssr:type" v="vegstrekning" />
	</node>
	<node id="-846714" lat="64.0510888897" lon="10.0519611017">
		<tag k="name" v="Stokkneset" />
		<tag k="ssr:date" v="2018-01-09" />
		<tag k="ssr:gruppe" v="navigasjon" />
		<tag k="ssr:hovedgruppe" v="infrastruktur" />
		<tag k="ssr:stedsnr" v="151312" />
		<tag k="ssr:type" v="fyrlykt" />
	</node>
	<node id="-847092" lat="63.9284638895" lon="10.0612472308">
		<tag k="name" v="Sjøvegen" />
		<tag k="ssr:date" v="2018-01-09" />
		<tag k="ssr:gruppe" v="veg" />
		<tag k="ssr:hovedgruppe" v="infrastruktur" />
		<tag k="ssr:stedsnr" v="881303" />
		<tag k="ssr:type" v="vegstrekning" />
	</node>
	<node id="-846450" lat="64.0416055547" lon="10.0224249968">
		<tag k="name" v="Krokholmen" />
		<tag k="ssr:date" v="2018-01-09" />
		<tag k="ssr:gruppe" v="navigasjon" />
		<tag k="ssr:hovedgruppe" v="infrastruktur" />
		<tag k="ssr:stedsnr" v="273310" />
		<tag k="ssr:type" v="fyrlykt" />
	</node>
	<node id="-848241" lat="64.0036055545" lon="9.96874722766">
		<tag k="name" v="Støyten varde" />
		<tag k="ssr:date" v="2018-01-09" />
		<tag k="ssr:gruppe" v="navigasjon" />
		<tag k="ssr:hovedgruppe" v="infrastruktur" />
		<tag k="ssr:stedsnr" v="212280" />
		<tag k="ssr:type" v="lanterne" />
	</node>
	<node id="-848751" lat="64.0394972215" lon="10.0233722154">
		<tag k="loc_name" v="Brennholmen" />
		<tag k="name" v="Stegleholmen" />
		<tag k="old_name" v="Krokholmen" />
		<tag k="ssr:date" v="2018-01-09" />
		<tag k="ssr:gruppe" v="navigasjon" />
		<tag k="ssr:hovedgruppe" v="infrastruktur" />
		<tag k="ssr:stedsnr" v="317082" />
		<tag k="ssr:type" v="fyrlykt" />
	</node>
	<node id="-846311" lat="64.0218499981" lon="9.96908610584">
		<tag k="name" v="Maltsekken" />
		<tag k="ssr:date" v="2018-01-09" />
		<tag k="ssr:gruppe" v="navigasjon" />
		<tag k="ssr:hovedgruppe" v="infrastruktur" />
		<tag k="ssr:stedsnr" v="91853" />
		<tag k="ssr:type" v="lanterne" />
	</node>
	<node id="-846433" lat="63.8987194437" lon="9.9628472232">
		<tag k="name" v="Åfjord" />
		<tag k="old_name" v="Åfjord lykt" />
		<tag k="ssr:date" v="2018-01-09" />
		<tag k="ssr:gruppe" v="navigasjon" />
		<tag k="ssr:hovedgruppe" v="infrastruktur" />
		<tag k="ssr:stedsnr" v="256571" />
		<tag k="ssr:type" v="fyrlykt" />
	</node>
	<node id="-845792" lat="63.9268916703" lon="9.88428055968">
		<tag k="name" v="Leikubåen" />
		<tag k="old_name" v="Leikuboen lykt" />
		<tag k="ssr:date" v="2018-01-09" />
		<tag k="ssr:gruppe" v="navigasjon" />
		<tag k="ssr:hovedgruppe" v="infrastruktur" />
		<tag k="ssr:stedsnr" v="273177" />
		<tag k="ssr:type" v="lanterne" />
	</node>
	<node id="-845646" lat="63.9766777746" lon="9.83291944584">
		<tag k="name" v="Synstskjæret" />
		<tag k="ssr:date" v="2018-01-09" />
		<tag k="ssr:gruppe" v="navigasjon" />
		<tag k="ssr:hovedgruppe" v="infrastruktur" />
		<tag k="ssr:stedsnr" v="73725" />
		<tag k="ssr:type" v="fyrlykt" />
	</node>
	<node id="-847313" lat="64.0993916648" lon="10.0318916679">
		<tag k="name" v="Pålodden" />
		<tag k="ssr:date" v="2018-01-09" />
		<tag k="ssr:gruppe" v="navigasjon" />
		<tag k="ssr:hovedgruppe" v="infrastruktur" />
		<tag k="ssr:stedsnr" v="880504" />
		<tag k="ssr:type" v="fyrlykt" />
	</node>
	<node id="-847566" lat="63.9501666663" lon="10.1583694426">
		<tag k="name" v="Strandaunskjæret" />
		<tag k="ssr:date" v="2018-01-09" />
		<tag k="ssr:gruppe" v="navigasjon" />
		<tag k="ssr:hovedgruppe" v="infrastruktur" />
		<tag k="ssr:stedsnr" v="46945" />
		<tag k="ssr:type" v="fyrlykt" />
	</node>
	<node id="-845581" lat="64.0508888054" lon="9.84842818164">
		<tag k="name" v="Storskjæret" />
		<tag k="old_name" v="Storskjær;Stovskjer" />
		<tag k="ssr:date" v="2019-01-29" />
		<tag k="ssr:gruppe" v="navigasjon" />
		<tag k="ssr:hovedgruppe" v="infrastruktur" />
		<tag k="ssr:stedsnr" v="924130" />
		<tag k="ssr:type" v="fyrlykt" />
	</node>
	<node id="-847041" lat="64.1081972215" lon="9.91731111413">
		<tag k="name" v="Hosnaøyan" />
		<tag k="ssr:date" v="2018-01-09" />
		<tag k="ssr:gruppe" v="navigasjon" />
		<tag k="ssr:hovedgruppe" v="infrastruktur" />
		<tag k="ssr:stedsnr" v="812471" />
		<tag k="ssr:type" v="fyrlykt" />
	</node>
	<node id="-848189" lat="63.9619583297" lon="10.2258750026">
		<tag k="name" v="Åfjord kommune" />
		<tag k="ssr:date" v="2018-01-09" />
		<tag k="ssr:gruppe" v="administrativeIndelinger" />
		<tag k="ssr:hovedgruppe" v="offentligAdministrasjon" />
		<tag k="ssr:stedsnr" v="268143" />
		<tag k="ssr:type" v="kommune" />
	</node>
	<node id="-847907" lat="63.9242055512" lon="9.88466388299">
		<tag k="name" v="Smørholmskjærene" />
		<tag k="ssr:date" v="2018-01-09" />
		<tag k="ssr:gruppe" v="navigasjon" />
		<tag k="ssr:hovedgruppe" v="infrastruktur" />
		<tag k="ssr:stedsnr" v="721501" />
		<tag k="ssr:type" v="fyrlykt" />
	</node>
	<node id="-847777" lat="63.9547861087" lon="9.99606667099">
		<tag k="name" v="Tårnes" />
		<tag k="old_name" v="Tornes lykt" />
		<tag k="ssr:date" v="2018-01-09" />
		<tag k="ssr:gruppe" v="navigasjon" />
		<tag k="ssr:hovedgruppe" v="infrastruktur" />
		<tag k="ssr:stedsnr" v="456109" />
		<tag k="ssr:type" v="fyrlykt" />
	</node>
	<node id="-848924" lat="64.0470000017" lon="9.92300278757">
		<tag k="alt_name" v="Lina lykt" />
		<tag k="name" v="Lina" />
		<tag k="ssr:date" v="2018-01-09" />
		<tag k="ssr:gruppe" v="navigasjon" />
		<tag k="ssr:hovedgruppe" v="infrastruktur" />
		<tag k="ssr:stedsnr" v="453810" />
		<tag k="ssr:type" v="fyrlykt" />
	</node>
	<node id="-849051" lat="63.9930333367" lon="9.8637833249">
		<tag k="name" v="Slåttøya" />
		<tag k="old_name" v="Slåttøy" />
		<tag k="ssr:date" v="2018-01-09" />
		<tag k="ssr:gruppe" v="navigasjon" />
		<tag k="ssr:hovedgruppe" v="infrastruktur" />
		<tag k="ssr:stedsnr" v="940127" />
		<tag k="ssr:type" v="fyrlykt" />
	</node>
	<node id="-847384" lat="63.5169210211" lon="10.4860505232">
		<tag k="name" v="Trøndelag fylke - Trööndelagen fylhke" />
		<tag k="name:no" v="Trøndelag fylke" />
		<tag k="name:sma" v="Trööndelagen fylhke" />
		<tag k="ssr:date" v="2018-06-27" />
		<tag k="ssr:gruppe" v="administrativeIndelinger" />
		<tag k="ssr:hovedgruppe" v="offentligAdministrasjon" />
		<tag k="ssr:stedsnr" v="980645" />
		<tag k="ssr:type" v="fylke" />
	</node>
	<node id="-845973" lat="63.9357416642" lon="9.96566943883">
		<tag k="name" v="Bingsholmsråsa" />
		<tag k="old_name" v="Bingsholmråsa;Bingsholmsråsa lykt" />
		<tag k="ssr:date" v="2018-01-09" />
		<tag k="ssr:gruppe" v="navigasjon" />
		<tag k="ssr:hovedgruppe" v="infrastruktur" />
		<tag k="ssr:stedsnr" v="940300" />
		<tag k="ssr:type" v="fyrlykt" />
	</node>
	<node id="-849299" lat="63.8945043759" lon="9.99215068404">
		<tag k="name" v="Kjørem" />
		<tag k="ssr:date" v="2019-05-30" />
		<tag k="ssr:gruppe" v="veg" />
		<tag k="ssr:hovedgruppe" v="infrastruktur" />
		<tag k="ssr:stedsnr" v="1021308" />
		<tag k="ssr:type" v="adressenavn" />
	</node>
	<node id="-849298" lat="63.9445270036" lon="10.0384335827">
		<tag k="name" v="Grimstadøya" />
		<tag k="ssr:date" v="2019-05-30" />
		<tag k="ssr:gruppe" v="veg" />
		<tag k="ssr:hovedgruppe" v="infrastruktur" />
		<tag k="ssr:stedsnr" v="1021307" />
		<tag k="ssr:type" v="adressenavn" />
	</node>
	<node id="-849297" lat="63.8645716271" lon="10.2711776128">
		<tag k="name" v="Juvassveien" />
		<tag k="ssr:date" v="2019-05-30" />
		<tag k="ssr:gruppe" v="veg" />
		<tag k="ssr:hovedgruppe" v="infrastruktur" />
		<tag k="ssr:stedsnr" v="1021303" />
		<tag k="ssr:type" v="adressenavn" />
	</node>
	<node id="-848397" lat="64.0045416702" lon="9.94912500996">
		<tag k="name" v="Bruskjærbåan" />
		<tag k="ssr:date" v="2018-01-09" />
		<tag k="ssr:gruppe" v="navigasjon" />
		<tag k="ssr:hovedgruppe" v="infrastruktur" />
		<tag k="ssr:stedsnr" v="742071" />
		<tag k="ssr:type" v="fyrlykt" />
	</node>
	<node id="-847751" lat="64.0578888917" lon="10.0423138971">
		<tag k="name" v="Skjærvikpynten" />
		<tag k="old_name" v="Skjærviklykta" />
		<tag k="ssr:date" v="2018-01-09" />
		<tag k="ssr:gruppe" v="navigasjon" />
		<tag k="ssr:hovedgruppe" v="infrastruktur" />
		<tag k="ssr:stedsnr" v="516793" />
		<tag k="ssr:type" v="fyrlykt" />
	</node>
</osm>
