<?xml version="1.0" encoding="UTF-8"?>
<osm version="0.6" generator="osmapis">
	<node id="5901763383" lat="62.558752" lon="6.0674127" version="2" timestamp="2022-01-26T07:34:57Z" changeset="116611763" uid="3497659" user="NKA">
		<tag k="junction" v="yes" />
		<tag k="name" v="Gøylaskiftet" />
		<tag k="ssr:stedsnr" v="156945" />
	</node>
	<node id="5901766245" lat="62.552962" lon="6.0756267" version="2" timestamp="2022-01-26T07:34:57Z" changeset="116611763" uid="3497659" user="NKA">
		<tag k="junction" v="yes" />
		<tag k="name" v="Vikeskiftet" />
		<tag k="ssr:stedsnr" v="885931" />
	</node>
	<node id="9950521960" lat="62.5514775" lon="6.0554363" version="1" timestamp="2022-08-13T06:41:35Z" changeset="124841600" uid="3497659" user="NKA">
		<tag k="name" v="Røssvika" />
		<tag k="place" v="farm" />
		<tag k="ssr:stedsnr" v="703892" />
	</node>
	<node id="9950521961" lat="62.5358911" lon="6.1300173" version="1" timestamp="2022-08-13T06:41:35Z" changeset="124841600" uid="3497659" user="NKA">
		<tag k="name" v="Gjøsund" />
		<tag k="place" v="hamlet" />
		<tag k="ssr:stedsnr" v="921789" />
	</node>
	<node id="9950521962" lat="62.5285528" lon="6.1196113" version="1" timestamp="2022-08-13T06:41:35Z" changeset="124841600" uid="3497659" user="NKA">
		<tag k="name" v="Sætra industriområde" />
		<tag k="place" v="neighbourhood" />
		<tag k="ssr:stedsnr" v="59772" />
	</node>
	<node id="9950521963" lat="62.47615" lon="6.0368919" version="1" timestamp="2022-08-13T06:41:35Z" changeset="124841600" uid="3497659" user="NKA">
		<tag k="name" v="Teppemyra" />
		<tag k="place" v="neighbourhood" />
		<tag k="ssr:stedsnr" v="848760" />
	</node>
	<node id="9950521964" lat="62.5867973" lon="6.1144975" version="1" timestamp="2022-08-13T06:41:35Z" changeset="124841600" uid="3497659" user="NKA">
		<tag k="name" v="Budafjellet bustadområde" />
		<tag k="place" v="neighbourhood" />
		<tag k="ssr:stedsnr" v="726802" />
	</node>
	<node id="9950521965" lat="62.5657805" lon="6.083978" version="1" timestamp="2022-08-13T06:41:35Z" changeset="124841600" uid="3497659" user="NKA">
		<tag k="name" v="Kølvet" />
		<tag k="place" v="farm" />
		<tag k="ssr:stedsnr" v="217957" />
	</node>
	<node id="9950521966" lat="62.497005" lon="6.127838" version="1" timestamp="2022-08-13T06:41:35Z" changeset="124841600" uid="3497659" user="NKA">
		<tag k="name" v="Valderhaug" />
		<tag k="place" v="village" />
		<tag k="ssr:stedsnr" v="314971" />
	</node>
	<node id="9950521967" lat="62.5255" lon="6.1246279" version="1" timestamp="2022-08-13T06:41:35Z" changeset="124841600" uid="3497659" user="NKA">
		<tag k="name" v="Blomvika" />
		<tag k="place" v="farm" />
		<tag k="ssr:stedsnr" v="254735" />
	</node>
	<node id="9950521968" lat="62.5612252" lon="6.0570793" version="1" timestamp="2022-08-13T06:41:35Z" changeset="124841600" uid="3497659" user="NKA">
		<tag k="name" v="Blindheim" />
		<tag k="place" v="hamlet" />
		<tag k="ssr:stedsnr" v="375772" />
	</node>
	<node id="9950521969" lat="62.4962444" lon="6.1266725" version="1" timestamp="2022-08-13T06:41:35Z" changeset="124841600" uid="3497659" user="NKA">
		<tag k="name" v="Valderhaugstranda bustadområde" />
		<tag k="place" v="neighbourhood" />
		<tag k="ssr:stedsnr" v="301788" />
	</node>
	<node id="9950521970" lat="62.5422899" lon="6.1270426" version="1" timestamp="2022-08-13T06:41:35Z" changeset="124841600" uid="3497659" user="NKA">
		<tag k="name" v="Røysevik" />
		<tag k="place" v="farm" />
		<tag k="ssr:stedsnr" v="173439" />
	</node>
	<node id="9950521971" lat="62.5207518" lon="6.1373902" version="1" timestamp="2022-08-13T06:41:35Z" changeset="124841600" uid="3497659" user="NKA">
		<tag k="name" v="Søre Oksneset" />
		<tag k="place" v="farm" />
		<tag k="ssr:stedsnr" v="823578" />
	</node>
	<node id="9950521972" lat="62.5709974" lon="6.1156073" version="1" timestamp="2022-08-13T06:41:35Z" changeset="124841600" uid="3497659" user="NKA">
		<tag k="name" v="Vollane" />
		<tag k="place" v="farm" />
		<tag k="ssr:stedsnr" v="946988" />
	</node>
	<node id="9950521973" lat="62.5576083" lon="6.1292558" version="1" timestamp="2022-08-13T06:41:35Z" changeset="124841600" uid="3497659" user="NKA">
		<tag k="name" v="Røysa" />
		<tag k="place" v="farm" />
		<tag k="ssr:stedsnr" v="861781" />
	</node>
	<node id="9950521974" lat="62.582287" lon="6.1247968" version="1" timestamp="2022-08-13T06:41:35Z" changeset="124841600" uid="3497659" user="NKA">
		<tag k="name" v="Roald" />
		<tag k="place" v="village" />
		<tag k="ssr:stedsnr" v="739808" />
	</node>
	<node id="9950521975" lat="62.4800334" lon="6.0381975" version="1" timestamp="2022-08-13T06:41:35Z" changeset="124841600" uid="3497659" user="NKA">
		<tag k="name" v="Sandnesbakkane" />
		<tag k="place" v="neighbourhood" />
		<tag k="ssr:stedsnr" v="180752" />
	</node>
	<node id="9950521976" lat="62.5272222" lon="6.1104836" version="1" timestamp="2022-08-13T06:41:35Z" changeset="124841600" uid="3497659" user="NKA">
		<tag k="name" v="Røysa" />
		<tag k="place" v="farm" />
		<tag k="ssr:stedsnr" v="193752" />
	</node>
	<node id="9950521977" lat="62.4974167" lon="6.1307752" version="1" timestamp="2022-08-13T06:41:35Z" changeset="124841600" uid="3497659" user="NKA">
		<tag k="alt_name" v="Løeggård" />
		<tag k="name" v="Løkegarden" />
		<tag k="place" v="farm" />
		<tag k="ssr:stedsnr" v="35254" />
	</node>
	<node id="9950521978" lat="62.5814464" lon="6.1049302" version="1" timestamp="2022-08-13T06:41:35Z" changeset="124841600" uid="3497659" user="NKA">
		<tag k="name" v="Aglasgjerdet" />
		<tag k="place" v="farm" />
		<tag k="ssr:stedsnr" v="581920" />
	</node>
	<node id="9950521979" lat="62.4662322" lon="5.9899214" version="1" timestamp="2022-08-13T06:41:35Z" changeset="124841600" uid="3497659" user="NKA">
		<tag k="name" v="Juvsnausta" />
		<tag k="place" v="locality" />
		<tag k="ssr:stedsnr" v="35171" />
	</node>
	<node id="9950521980" lat="62.5500815" lon="6.0778962" version="1" timestamp="2022-08-13T06:41:35Z" changeset="124841600" uid="3497659" user="NKA">
		<tag k="name" v="Blindheimsvik" />
		<tag k="place" v="farm" />
		<tag k="ssr:stedsnr" v="132777" />
	</node>
	<node id="9950521981" lat="62.5671268" lon="6.1079491" version="1" timestamp="2022-08-13T06:41:35Z" changeset="124841600" uid="3497659" user="NKA">
		<tag k="name" v="Rørvika" />
		<tag k="place" v="hamlet" />
		<tag k="ssr:stedsnr" v="800780" />
	</node>
	<node id="9950521982" lat="62.5465201" lon="6.0488751" version="1" timestamp="2022-08-13T06:41:35Z" changeset="124841600" uid="3497659" user="NKA">
		<tag k="name" v="Leiterema" />
		<tag k="place" v="farm" />
		<tag k="ssr:stedsnr" v="399863" />
	</node>
	<node id="9950521983" lat="62.5483362" lon="6.0506762" version="1" timestamp="2022-08-13T06:41:35Z" changeset="124841600" uid="3497659" user="NKA">
		<tag k="name" v="Steinland" />
		<tag k="place" v="farm" />
		<tag k="ssr:stedsnr" v="642851" />
	</node>
	<node id="9950521984" lat="62.5139781" lon="6.1319295" version="1" timestamp="2022-08-13T06:41:35Z" changeset="124841600" uid="3497659" user="NKA">
		<tag k="alt_name" v="Nordstrand" />
		<tag k="name" v="Nordstranda" />
		<tag k="place" v="suburb" />
		<tag k="ssr:stedsnr" v="753878" />
	</node>
	<node id="9950521985" lat="62.5250958" lon="6.1129132" version="1" timestamp="2022-08-13T06:41:35Z" changeset="124841600" uid="3497659" user="NKA">
		<tag k="name" v="Stølen" />
		<tag k="place" v="farm" />
		<tag k="ssr:stedsnr" v="338860" />
	</node>
	<node id="9950521986" lat="62.5835984" lon="6.0855912" version="1" timestamp="2022-08-13T06:41:35Z" changeset="124841600" uid="3497659" user="NKA">
		<tag k="name" v="Molnes" />
		<tag k="place" v="hamlet" />
		<tag k="ssr:stedsnr" v="11803" />
	</node>
	<node id="9950521987" lat="62.5567288" lon="6.0389302" version="1" timestamp="2022-08-13T06:41:35Z" changeset="124841600" uid="3497659" user="NKA">
		<tag k="name" v="Røssvika" />
		<tag k="place" v="hamlet" />
		<tag k="ssr:stedsnr" v="193780" />
	</node>
	<node id="9950521988" lat="62.5060022" lon="6.0590768" version="1" timestamp="2022-08-13T06:41:35Z" changeset="124841600" uid="3497659" user="NKA">
		<tag k="name" v="Giskegjerdet" />
		<tag k="place" v="hamlet" />
		<tag k="ssr:stedsnr" v="618734" />
	</node>
	<node id="9950521989" lat="62.5080222" lon="6.124217" version="1" timestamp="2022-08-13T06:41:35Z" changeset="124841600" uid="3497659" user="NKA">
		<tag k="name" v="Skaret" />
		<tag k="place" v="neighbourhood" />
		<tag k="ssr:stedsnr" v="665809" />
	</node>
	<node id="9950521990" lat="62.5697406" lon="6.1192982" version="1" timestamp="2022-08-13T06:41:35Z" changeset="124841600" uid="3497659" user="NKA">
		<tag k="name" v="Roaldssanden" />
		<tag k="place" v="farm" />
		<tag k="ssr:stedsnr" v="254784" />
	</node>
	<node id="9950521991" lat="62.5855016" lon="6.0822154" version="1" timestamp="2022-08-13T06:41:35Z" changeset="124841600" uid="3497659" user="NKA">
		<tag k="name" v="Grøtet" />
		<tag k="place" v="farm" />
		<tag k="ssr:stedsnr" v="399862" />
	</node>
	<node id="9950521992" lat="62.5025977" lon="6.1088866" version="1" timestamp="2022-08-13T06:41:35Z" changeset="124841600" uid="3497659" user="NKA">
		<tag k="name" v="Skjong" />
		<tag k="place" v="suburb" />
		<tag k="ssr:stedsnr" v="268131" />
	</node>
	<node id="9950521993" lat="62.501123" lon="6.0474593" version="1" timestamp="2022-08-13T06:41:35Z" changeset="124841600" uid="3497659" user="NKA">
		<tag k="name" v="Myra" />
		<tag k="place" v="farm" />
		<tag k="ssr:stedsnr" v="537468" />
	</node>
	<node id="9950521994" lat="62.5334595" lon="6.126962" version="1" timestamp="2022-08-13T06:41:35Z" changeset="124841600" uid="3497659" user="NKA">
		<tag k="alt_name" v="Gjøsund" />
		<tag k="name" v="Kristiangarden" />
		<tag k="place" v="farm" />
		<tag k="ssr:stedsnr" v="726620" />
	</node>
	<node id="9950521995" lat="62.4766487" lon="6.0389753" version="1" timestamp="2022-08-13T06:41:35Z" changeset="124841600" uid="3497659" user="NKA">
		<tag k="name" v="Valkvæ" />
		<tag k="place" v="village" />
		<tag k="ssr:stedsnr" v="119810" />
	</node>
	<node id="9950521996" lat="62.5089047" lon="6.0385163" version="1" timestamp="2022-08-13T06:41:35Z" changeset="124841600" uid="3497659" user="NKA">
		<tag k="name" v="Giskeøydgarden" />
		<tag k="place" v="hamlet" />
		<tag k="ssr:stedsnr" v="460900" />
	</node>
	<node id="9950521997" lat="62.5038213" lon="6.0500928" version="1" timestamp="2022-08-13T06:41:35Z" changeset="124841600" uid="3497659" user="NKA">
		<tag k="name" v="Giske" />
		<tag k="place" v="village" />
		<tag k="ssr:stedsnr" v="935116" />
	</node>
	<node id="9950521998" lat="62.5137381" lon="6.0633156" version="1" timestamp="2022-08-13T06:41:35Z" changeset="124841600" uid="3497659" user="NKA">
		<tag k="name" v="Staurneset" />
		<tag k="place" v="farm" />
		<tag k="ssr:stedsnr" v="475700" />
	</node>
	<node id="9950521999" lat="62.4722361" lon="6.0397059" version="1" timestamp="2022-08-13T06:41:35Z" changeset="124841600" uid="3497659" user="NKA">
		<tag k="name" v="Strandklauva" />
		<tag k="place" v="farm" />
		<tag k="ssr:stedsnr" v="921998" />
	</node>
	<node id="9950522000" lat="62.4982222" lon="6.1255529" version="1" timestamp="2022-08-13T06:41:35Z" changeset="124841600" uid="3497659" user="NKA">
		<tag k="name" v="Myrane" />
		<tag k="place" v="farm" />
		<tag k="ssr:stedsnr" v="156972" />
	</node>
	<node id="9950522001" lat="62.4673814" lon="5.9913407" version="1" timestamp="2022-08-13T06:41:35Z" changeset="124841600" uid="3497659" user="NKA">
		<tag k="name" v="Godøylandet" />
		<tag k="place" v="hamlet" />
		<tag k="ssr:stedsnr" v="962568" />
	</node>
	<node id="9950522002" lat="62.5685122" lon="6.055971" version="1" timestamp="2022-08-13T06:41:35Z" changeset="124841600" uid="3497659" user="NKA">
		<tag k="name" v="Blindheimsnausta" />
		<tag k="place" v="locality" />
		<tag k="ssr:stedsnr" v="35977" />
	</node>
	<node id="9950522003" lat="62.5308527" lon="6.1280031" version="1" timestamp="2022-08-13T06:41:35Z" changeset="124841600" uid="3497659" user="NKA">
		<tag k="name" v="Gjøsundneset industriområde" />
		<tag k="place" v="neighbourhood" />
		<tag k="ssr:stedsnr" v="239381" />
	</node>
	<node id="9950522004" lat="62.5377833" lon="6.0281197" version="1" timestamp="2022-08-13T06:41:35Z" changeset="124841600" uid="3497659" user="NKA">
		<tag k="name" v="Synes" />
		<tag k="place" v="hamlet" />
		<tag k="ssr:stedsnr" v="679741" />
	</node>
	<node id="9950522005" lat="62.4796278" lon="6.0318698" version="1" timestamp="2022-08-13T06:41:35Z" changeset="124841600" uid="3497659" user="NKA">
		<tag k="loc_name" v="Leitebakk" />
		<tag k="name" v="Leitebakken" />
		<tag k="place" v="neighbourhood" />
		<tag k="ssr:stedsnr" v="483805" />
	</node>
	<node id="9950522006" lat="62.5056165" lon="6.1020128" version="1" timestamp="2022-08-13T06:41:35Z" changeset="124841600" uid="3497659" user="NKA">
		<tag k="name" v="Ytterland" />
		<tag k="place" v="neighbourhood" />
		<tag k="ssr:stedsnr" v="557743" />
	</node>
	<node id="9950522007" lat="62.5844555" lon="6.1247363" version="1" timestamp="2022-08-13T06:41:35Z" changeset="124841600" uid="3497659" user="NKA">
		<tag k="name" v="Roaldsneset" />
		<tag k="place" v="neighbourhood" />
		<tag k="ssr:stedsnr" v="557781" />
	</node>
	<node id="9950522008" lat="62.5596368" lon="6.1281313" version="1" timestamp="2022-08-13T06:41:35Z" changeset="124841600" uid="3497659" user="NKA">
		<tag k="name" v="Rogna" />
		<tag k="place" v="farm" />
		<tag k="ssr:stedsnr" v="35983" />
	</node>
	<node id="9950522009" lat="62.5205889" lon="6.1344902" version="1" timestamp="2022-08-13T06:41:35Z" changeset="124841600" uid="3497659" user="NKA">
		<tag k="name" v="Oksnes" />
		<tag k="place" v="farm" />
		<tag k="ssr:stedsnr" v="703890" />
	</node>
	<node id="9950522010" lat="62.5694861" lon="6.0884753" version="1" timestamp="2022-08-13T06:41:35Z" changeset="124841600" uid="3497659" user="NKA">
		<tag k="name" v="Rørviknausta" />
		<tag k="place" v="locality" />
		<tag k="ssr:stedsnr" v="642948" />
	</node>
	<node id="9950522011" lat="62.5162366" lon="6.1325365" version="1" timestamp="2022-08-13T06:41:35Z" changeset="124841600" uid="3497659" user="NKA">
		<tag k="name" v="Skinvik" />
		<tag k="place" v="farm" />
		<tag k="ssr:stedsnr" v="278893" />
	</node>
	<node id="9950522012" lat="62.4974638" lon="6.1246537" version="1" timestamp="2022-08-13T06:41:35Z" changeset="124841600" uid="3497659" user="NKA">
		<tag k="name" v="Valderhaugstranda" />
		<tag k="place" v="farm" />
		<tag k="ssr:stedsnr" v="762568" />
	</node>
	<node id="9950522013" lat="62.4859313" lon="5.9753344" version="1" timestamp="2022-08-13T06:41:35Z" changeset="124841600" uid="3497659" user="NKA">
		<tag k="name" v="Alnes" />
		<tag k="place" v="village" />
		<tag k="ssr:stedsnr" v="739980" />
	</node>
	<node id="9950522014" lat="62.4686687" lon="6.0162619" version="1" timestamp="2022-08-13T06:41:35Z" changeset="124841600" uid="3497659" user="NKA">
		<tag k="alt_name" v="Godøygarden" />
		<tag k="name" v="Godøy" />
		<tag k="place" v="village" />
		<tag k="ssr:stedsnr" v="738955" />
	</node>
	<node id="9950522015" lat="62.4798222" lon="6.039867" version="1" timestamp="2022-08-13T06:41:35Z" changeset="124841600" uid="3497659" user="NKA">
		<tag k="alt_name" v="Støbakken" />
		<tag k="name" v="Støbakk" />
		<tag k="place" v="farm" />
		<tag k="ssr:stedsnr" v="921994" />
	</node>
	<node id="9950522016" lat="62.5239884" lon="6.1201167" version="1" timestamp="2022-08-13T06:41:35Z" changeset="124841600" uid="3497659" user="NKA">
		<tag k="alt_name" v="Gjøsundsætra" />
		<tag k="name" v="Sætra" />
		<tag k="place" v="hamlet" />
		<tag k="ssr:stedsnr" v="647809" />
	</node>
	<node id="9950534617" lat="62.4683822" lon="5.9905776" version="1" timestamp="2022-08-13T06:41:35Z" changeset="124841600" uid="3497659" user="NKA">
		<tag k="name" v="Juv" />
		<tag k="place" v="neighbourhood" />
		<tag k="ssr:stedsnr" v="618000" />
	</node>
	<node id="9950534618" lat="62.5223628" lon="6.1327001" version="1" timestamp="2022-08-13T06:41:35Z" changeset="124841600" uid="3497659" user="NKA">
		<tag k="name" v="Blomvik" />
		<tag k="place" v="farm" />
		<tag k="ssr:stedsnr" v="702173" />
	</node>
	<node id="9950534619" lat="62.4758694" lon="6.0317003" version="1" timestamp="2022-08-13T06:41:35Z" changeset="124841600" uid="3497659" user="NKA">
		<tag k="name" v="Leitebøen" />
		<tag k="place" v="neighbourhood" />
		<tag k="ssr:stedsnr" v="908805" />
	</node>
	<node id="9950534620" lat="62.4662152" lon="5.9939637" version="1" timestamp="2022-08-13T06:41:35Z" changeset="124841600" uid="3497659" user="NKA">
		<tag k="name" v="Fløtane" />
		<tag k="place" v="farm" />
		<tag k="ssr:stedsnr" v="360596" />
	</node>
	<node id="9950534621" lat="62.5212055" lon="6.1362418" version="1" timestamp="2022-08-13T06:41:35Z" changeset="124841600" uid="3497659" user="NKA">
		<tag k="name" v="Oksneset" />
		<tag k="place" v="neighbourhood" />
		<tag k="ssr:stedsnr" v="241766" />
	</node>
	<node id="9950534622" lat="62.5235583" lon="6.1366586" version="1" timestamp="2022-08-13T06:41:35Z" changeset="124841600" uid="3497659" user="NKA">
		<tag k="name" v="Nordre Oksneset" />
		<tag k="place" v="farm" />
		<tag k="ssr:stedsnr" v="155593" />
	</node>
</osm>
