<?xml version="1.0" encoding="UTF-8"?>
<osm generator="osmapis" version="0.6">
	<node id="-863354" lat="63.3612249998" lon="9.8980916684">
		<tag k="highway" v="path" />
		<tag k="name" v="Kleiva" />
		<tag k="ssr:stedsnr" v="579501" />
	</node>
	<node id="-863349" lat="63.3041222194" lon="9.65968611269">
		<tag k="bridge" v="yes" />
		<tag k="layer" v="1" />
		<tag k="name" v="Skråbrua" />
		<tag k="ssr:stedsnr" v="641982" />
	</node>
	<node id="-861546" lat="63.3756527763" lon="9.86345554658">
		<tag k="highway" v="path" />
		<tag k="name" v="Sagbakkan" />
		<tag k="ssr:stedsnr" v="276706" />
	</node>
	<node id="-861159" lat="63.3260111125" lon="9.83306110518">
		<tag k="man_made" v="quay" />
		<tag k="name" v="Rovskaia" />
		<tag k="place" v="locality" />
		<tag k="ssr:stedsnr" v="944468" />
	</node>
	<node id="-863585" lat="63.3653444487" lon="9.85895000269">
		<tag k="ford" v="yes" />
		<tag k="name" v="Løssevadet" />
		<tag k="place" v="locality" />
		<tag k="ssr:stedsnr" v="762593" />
	</node>
	<node id="-861535" lat="63.3173611094" lon="9.87624444209">
		<tag k="junction" v="yes" />
		<tag k="name" v="Thamshamnkrysset" />
		<tag k="place" v="locality" />
		<tag k="ssr:stedsnr" v="511500" />
	</node>
	<node id="-861911" lat="63.2864277771" lon="9.62996666505">
		<tag k="bridge" v="yes" />
		<tag k="layer" v="1" />
		<tag k="name" v="Stokkhaugbrua" />
		<tag k="ssr:stedsnr" v="343758" />
	</node>
	<node id="-861269" lat="63.1737750027" lon="9.57634444887">
		<tag k="highway" v="path" />
		<tag k="name" v="Malmvegen" />
		<tag k="ssr:stedsnr" v="398630" />
	</node>
	<node id="-861652" lat="63.3513861093" lon="9.89638889633">
		<tag k="highway" v="path" />
		<tag k="name" v="Råket" />
		<tag k="ssr:stedsnr" v="94489" />
	</node>
	<node id="-862157" lat="63.3143527741" lon="9.78798054695">
		<tag k="highway" v="path" />
		<tag k="name" v="Stigen" />
		<tag k="ssr:stedsnr" v="216202" />
	</node>
	<node id="-861375" lat="63.2849761967" lon="9.64054444441">
		<tag k="bridge" v="yes" />
		<tag k="layer" v="1" />
		<tag k="name" v="Gangåsbrua" />
		<tag k="ssr:stedsnr" v="101726" />
	</node>
	<node id="-861757" lat="63.3118527785" lon="9.86337222011">
		<tag k="name" v="Orkanger" />
		<tag k="railway" v="station" />
		<tag k="ssr:stedsnr" v="498348" />
		<tag k="train" v="yes" />
	</node>
	<node id="-862518" lat="63.3265083368" lon="9.89971944674">
		<tag k="barrier" v="toll_booth" />
		<tag k="name" v="Thamshamn" />
		<tag k="ssr:stedsnr" v="898546" />
	</node>
	<node id="-863281" lat="63.3162333326" lon="9.78781667414">
		<tag k="fixme" v="consider highway=path" />
		<tag k="highway" v="track" />
		<tag k="name" v="Korsvegen" />
		<tag k="ssr:stedsnr" v="640217" />
	</node>
	<node id="-861356" lat="63.3158361111" lon="9.86129443584">
		<tag k="man_made" v="breakwater" />
		<tag k="name" v="Langbrua" />
		<tag k="place" v="locality" />
		<tag k="ssr:stedsnr" v="33511" />
	</node>
	<node id="-862117" lat="63.3187138861" lon="9.77871667608">
		<tag k="highway" v="path" />
		<tag k="name" v="Høgkleiva" />
		<tag k="ssr:stedsnr" v="216157" />
	</node>
	<node id="-861465" lat="63.1999888847" lon="9.56968611108">
		<tag k="highway" v="path" />
		<tag k="name" v="Kleivan" />
		<tag k="ssr:stedsnr" v="762805" />
	</node>
	<node id="-863025" lat="63.2884444468" lon="9.7160583282">
		<tag k="highway" v="path" />
		<tag k="name" v="Kvernbakken" />
		<tag k="ssr:stedsnr" v="398224" />
	</node>
	<node id="-863118" lat="63.3189872384" lon="9.87467266481">
		<tag k="alt_name" v="Tamshamn" />
		<tag k="landuse" v="harbour" />
		<tag k="name" v="Thamshamn" />
		<tag k="seamark:type" v="harbour" />
		<tag k="ssr:stedsnr" v="256284" />
	</node>
	<node id="-862221" lat="63.189230558" lon="9.59201111234">
		<tag k="highway" v="path" />
		<tag k="name" v="Kjerkvegen" />
		<tag k="ssr:stedsnr" v="398824" />
	</node>
	<node id="-861704" lat="63.1466194444" lon="9.75502500971">
		<tag k="name" v="Granledet" />
		<tag k="place" v="locality" />
		<tag k="ssr:stedsnr" v="521685" />
	</node>
	<node id="-861445" lat="63.3159222242" lon="9.86464722036">
		<tag k="man_made" v="quay" />
		<tag k="name" v="Nakken" />
		<tag k="place" v="locality" />
		<tag k="ssr:stedsnr" v="155425" />
	</node>
	<node id="-862338" lat="63.318393596" lon="9.87583710981">
		<tag k="man_made" v="quay" />
		<tag k="name" v="Thamshamnkaia" />
		<tag k="place" v="locality" />
		<tag k="ssr:stedsnr" v="406859" />
	</node>
</osm>
