<?xml version="1.0" encoding="UTF-8"?>
<osm generator="osmapis" version="0.6">
	<node id="-862204" lat="63.2692361083" lon="9.6775638959">
		<tag k="name" v="Grasmyrbukta" />
		<tag k="natural" v="bay" />
		<tag k="ssr:stedsnr" v="884752" />
	</node>
	<node id="-862197" lat="63.304405554" lon="9.75566945357">
		<tag k="name" v="Kalvhåggåbekken" />
		<tag k="ssr:stedsnr" v="519222" />
		<tag k="waterway" v="stream" />
	</node>
	<node id="-862193" lat="63.3427527762" lon="9.86376667524">
		<tag k="name" v="Langbekken" />
		<tag k="ssr:stedsnr" v="458497" />
		<tag k="waterway" v="stream" />
	</node>
	<node id="-862177" lat="63.1882444414" lon="9.55935555459">
		<tag k="name" v="Storholmen" />
		<tag k="place" v="islet" />
		<tag k="ssr:stedsnr" v="398807" />
	</node>
	<node id="-862173" lat="63.2736194481" lon="9.89339443878">
		<tag k="name" v="Ståkkåtjønna" />
		<tag k="natural" v="water" />
		<tag k="ssr:stedsnr" v="701353" />
	</node>
	<node id="-862171" lat="63.2284555581" lon="9.51884444475">
		<tag k="name" v="Sæterbekken" />
		<tag k="ssr:stedsnr" v="255588" />
		<tag k="waterway" v="stream" />
	</node>
	<node id="-862168" lat="63.4024444443" lon="9.95421110692">
		<tag k="name" v="Ytterbekken" />
		<tag k="ssr:stedsnr" v="34662" />
		<tag k="waterway" v="stream" />
	</node>
	<node id="-862152" lat="63.2218472242" lon="9.5296666585">
		<tag k="name" v="Tortlibekken" />
		<tag k="old_name" v="Trollbekken" />
		<tag k="ssr:stedsnr" v="723574" />
		<tag k="waterway" v="stream" />
	</node>
	<node id="-862150" lat="63.2433555577" lon="9.42139999152">
		<tag k="name" v="Oddtjønna" />
		<tag k="natural" v="water" />
		<tag k="ssr:stedsnr" v="526580" />
	</node>
	<node id="-862120" lat="63.367530555" lon="9.64685556472">
		<tag k="name" v="Klokkarbekken" />
		<tag k="ssr:stedsnr" v="681132" />
		<tag k="waterway" v="stream" />
	</node>
	<node id="-862113" lat="63.189388885" lon="9.6211194414">
		<tag k="name" v="Kalvhåggåtjønna" />
		<tag k="natural" v="water" />
		<tag k="ssr:stedsnr" v="133577" />
	</node>
	<node id="-862110" lat="63.2206777734" lon="9.36521110536">
		<tag k="name" v="Vettajøodden" />
		<tag k="natural" v="cape" />
		<tag k="ssr:stedsnr" v="289056" />
	</node>
	<node id="-862107" lat="63.1850250043" lon="9.66864999138">
		<tag k="name" v="Kvilsteinbekken" />
		<tag k="ssr:stedsnr" v="155615" />
		<tag k="waterway" v="stream" />
	</node>
	<node id="-862106" lat="63.3712416654" lon="9.72788888834">
		<tag k="alt_name" v="Kringla" />
		<tag k="name" v="Blanka" />
		<tag k="natural" v="water" />
		<tag k="ssr:stedsnr" v="74407" />
	</node>
	<node id="-862102" lat="63.2702611089" lon="9.57245000262">
		<tag k="name" v="Storbekken" />
		<tag k="ssr:stedsnr" v="823735" />
		<tag k="waterway" v="stream" />
	</node>
	<node id="-862098" lat="63.4063472246" lon="9.88768056196">
		<tag k="name" v="Auster Vasslivatnet" />
		<tag k="natural" v="water" />
		<tag k="ssr:stedsnr" v="640668" />
		<tag k="water" v="lake" />
	</node>
	<node id="-862097" lat="63.2845972201" lon="9.83572777733">
		<tag k="name" v="Follobekken" />
		<tag k="ssr:stedsnr" v="94558" />
		<tag k="waterway" v="stream" />
	</node>
	<node id="-862095" lat="63.3651777747" lon="9.81220833867">
		<tag k="alt_name" v="Reinvasstjønnbekken" />
		<tag k="name" v="Reinvassbekken" />
		<tag k="ssr:stedsnr" v="863468" />
		<tag k="waterway" v="stream" />
	</node>
	<node id="-862083" lat="63.2652361133" lon="9.53808056151">
		<tag k="name" v="Fjellhusdalsbekken" />
		<tag k="ssr:stedsnr" v="277708" />
		<tag k="waterway" v="stream" />
	</node>
	<node id="-862080" lat="63.3105249963" lon="9.68280554665">
		<tag k="name" v="Trolldalsbekken" />
		<tag k="ssr:stedsnr" v="762995" />
		<tag k="waterway" v="stream" />
	</node>
	<node id="-862076" lat="63.258724999" lon="9.46002778689">
		<tag k="name" v="Skinka" />
		<tag k="ssr:stedsnr" v="13021" />
		<tag k="waterway" v="stream" />
	</node>
	<node id="-862074" lat="63.2362805533" lon="9.68398333688">
		<tag k="name" v="Mjovassbekken" />
		<tag k="ssr:stedsnr" v="823729" />
		<tag k="waterway" v="stream" />
	</node>
	<node id="-862073" lat="63.1957694425" lon="9.51304443555">
		<tag k="name" v="Fantguttjønna" />
		<tag k="natural" v="water" />
		<tag k="ssr:stedsnr" v="277718" />
	</node>
	<node id="-862071" lat="63.3578861144" lon="9.86915555307">
		<tag k="name" v="Hølbekken" />
		<tag k="ssr:stedsnr" v="458452" />
		<tag k="waterway" v="stream" />
	</node>
	<node id="-861238" lat="63.1557916705" lon="9.82930554949">
		<tag k="name" v="Haugabekken" />
		<tag k="ssr:stedsnr" v="278431" />
		<tag k="waterway" v="stream" />
	</node>
	<node id="-862062" lat="63.1739027809" lon="9.5830499958">
		<tag k="name" v="Stokkvassbekken" />
		<tag k="ssr:stedsnr" v="680587" />
		<tag k="waterway" v="stream" />
	</node>
	<node id="-862060" lat="63.1633777796" lon="9.87261667315">
		<tag k="name" v="Bergbekken" />
		<tag k="ssr:stedsnr" v="399673" />
		<tag k="waterway" v="stream" />
	</node>
	<node id="-862058" lat="63.2778916677" lon="9.89341388558">
		<tag k="name" v="Lomtjønna" />
		<tag k="natural" v="water" />
		<tag k="ssr:stedsnr" v="862385" />
	</node>
	<node id="-862054" lat="63.3618527735" lon="9.78131110591">
		<tag k="name" v="Øvre Merratjønna" />
		<tag k="natural" v="water" />
		<tag k="ssr:stedsnr" v="195425" />
	</node>
	<node id="-862044" lat="63.2693027735" lon="9.83183611993">
		<tag k="name" v="Kvamsbekken" />
		<tag k="ssr:stedsnr" v="701341" />
		<tag k="waterway" v="stream" />
	</node>
	<node id="-862037" lat="63.2100999962" lon="9.6139111192">
		<tag k="name" v="Dalbekken" />
		<tag k="ssr:stedsnr" v="338833" />
		<tag k="waterway" v="stream" />
	</node>
	<node id="-862034" lat="63.2676861076" lon="9.67303610835">
		<tag k="name" v="Gjønnesneset" />
		<tag k="natural" v="cape" />
		<tag k="ssr:stedsnr" v="13016" />
	</node>
	<node id="-862032" lat="63.2613111084" lon="9.64179444892">
		<tag k="name" v="Kløbb-bukta" />
		<tag k="natural" v="bay" />
		<tag k="ssr:stedsnr" v="823744" />
	</node>
	<node id="-862027" lat="63.3268444489" lon="9.77866388292">
		<tag k="name" v="Skorvtjønna" />
		<tag k="natural" v="water" />
		<tag k="ssr:stedsnr" v="741336" />
	</node>
	<node id="-862016" lat="63.1641361121" lon="9.63605000333">
		<tag k="name" v="Våtbekken" />
		<tag k="ssr:stedsnr" v="34576" />
		<tag k="waterway" v="stream" />
	</node>
	<node id="-862009" lat="63.2289805578" lon="9.61356389811">
		<tag k="name" v="Myralykkjbekken" />
		<tag k="ssr:stedsnr" v="520878" />
		<tag k="waterway" v="stream" />
	</node>
	<node id="-861492" lat="63.1945249965" lon="9.86743054996">
		<tag k="name" v="Daltjønna" />
		<tag k="natural" v="water" />
		<tag k="ssr:stedsnr" v="740168" />
	</node>
	<node id="-862006" lat="63.2203805519" lon="9.60571389325">
		<tag k="name" v="Bjørtjønna" />
		<tag k="natural" v="water" />
		<tag k="ssr:stedsnr" v="520876" />
	</node>
	<node id="-861150" lat="63.2182027784" lon="9.41667778143">
		<tag k="name" v="Svartholet" />
		<tag k="natural" v="bay" />
		<tag k="ssr:stedsnr" v="830737" />
	</node>
	<node id="-862001" lat="63.401111114" lon="9.88023611655">
		<tag k="name" v="Midter Vasslivatnet" />
		<tag k="natural" v="water" />
		<tag k="ssr:stedsnr" v="33717" />
	</node>
	<node id="-861991" lat="63.2147638874" lon="9.39791389659">
		<tag k="name" v="Holmplassen" />
		<tag k="natural" v="cape" />
		<tag k="ssr:stedsnr" v="768761" />
	</node>
	<node id="-861985" lat="63.3314111135" lon="9.67670000973">
		<tag k="name" v="Ellingsgardstjønna" />
		<tag k="natural" v="water" />
		<tag k="ssr:stedsnr" v="338877" />
	</node>
	<node id="-861980" lat="63.384813888" lon="9.90806111567">
		<tag k="name" v="Lomstjønna" />
		<tag k="natural" v="water" />
		<tag k="ssr:stedsnr" v="74421" />
	</node>
	<node id="-861978" lat="63.1845083292" lon="9.61353611869">
		<tag k="name" v="Kutjønna" />
		<tag k="natural" v="water" />
		<tag k="ssr:stedsnr" v="34623" />
	</node>
	<node id="-861976" lat="63.3114861111" lon="9.84660000734">
		<tag k="name" v="Gammelosen" />
		<tag k="natural" v="water" />
		<tag k="ssr:stedsnr" v="40413" />
	</node>
	<node id="-861964" lat="63.1862138896" lon="9.63300276813">
		<tag k="name" v="Topptjønna" />
		<tag k="natural" v="water" />
		<tag k="ssr:stedsnr" v="34620" />
	</node>
	<node id="-861962" lat="63.194702775" lon="9.7307277851">
		<tag k="name" v="Håggådammen" />
		<tag k="natural" v="water" />
		<tag k="ssr:stedsnr" v="520946" />
	</node>
	<node id="-861956" lat="63.1502166628" lon="9.84885832874">
		<tag k="name" v="Langkjøsbekken" />
		<tag k="ssr:stedsnr" v="581717" />
		<tag k="waterway" v="stream" />
	</node>
	<node id="-861952" lat="63.3048999963" lon="9.78668334297">
		<tag k="name" v="Grindabekken" />
		<tag k="ssr:stedsnr" v="519208" />
		<tag k="waterway" v="stream" />
	</node>
	<node id="-861948" lat="63.3485333313" lon="9.8710888907">
		<tag k="name" v="Lykkjbekken" />
		<tag k="ssr:stedsnr" v="458460" />
		<tag k="waterway" v="stream" />
	</node>
	<node id="-861940" lat="63.3234611082" lon="9.7747555645">
		<tag k="name" v="Skorvtjønnbekken" />
		<tag k="ssr:stedsnr" v="519183" />
		<tag k="waterway" v="stream" />
	</node>
	<node id="-861939" lat="63.2169499984" lon="9.70427777277">
		<tag k="name" v="Skjettvatnet" />
		<tag k="natural" v="water" />
		<tag k="ssr:stedsnr" v="680617" />
	</node>
	<node id="-861938" lat="63.1930972191" lon="9.49454166181">
		<tag k="name" v="Byabekken" />
		<tag k="ssr:stedsnr" v="277724" />
		<tag k="waterway" v="stream" />
	</node>
	<node id="-861937" lat="63.2023916648" lon="9.55313054733">
		<tag k="name" v="Vikalykkjbekken" />
		<tag k="ssr:stedsnr" v="823775" />
		<tag k="waterway" v="stream" />
	</node>
	<node id="-861925" lat="63.2216138898" lon="9.41156945312">
		<tag k="name" v="Langneset" />
		<tag k="natural" v="cape" />
		<tag k="ssr:stedsnr" v="255581" />
	</node>
	<node id="-861920" lat="63.3844111144" lon="9.78854444148">
		<tag k="name" v="Rokolltjønna" />
		<tag k="natural" v="water" />
		<tag k="ssr:stedsnr" v="459332" />
	</node>
	<node id="-861917" lat="63.223233331" lon="9.39958054932">
		<tag k="name" v="Bukkodden" />
		<tag k="natural" v="cape" />
		<tag k="ssr:stedsnr" v="343748" />
	</node>
	<node id="-861913" lat="63.2295833362" lon="9.8556833365">
		<tag k="name" v="Langtjønna" />
		<tag k="natural" v="water" />
		<tag k="ssr:stedsnr" v="315221" />
	</node>
	<node id="-861910" lat="63.242666668" lon="9.6725888791">
		<tag k="name" v="Fuglåsbekken" />
		<tag k="ssr:stedsnr" v="884725" />
		<tag k="waterway" v="stream" />
	</node>
	<node id="-861908" lat="63.3753166642" lon="9.8238555509">
		<tag k="name" v="Fjelltjønnin" />
		<tag k="natural" v="water" />
		<tag k="ssr:stedsnr" v="438413" />
	</node>
	<node id="-861906" lat="63.2596694457" lon="9.44476389425">
		<tag k="alt_name" v="Hundsåvatnet, øvre" />
		<tag k="name" v="Øvre Hundsåvatnet" />
		<tag k="natural" v="water" />
		<tag k="ssr:stedsnr" v="255012" />
	</node>
	<node id="-861901" lat="63.2409694457" lon="9.5759250039">
		<tag k="name" v="Selmotjønna" />
		<tag k="natural" v="water" />
		<tag k="ssr:stedsnr" v="580792" />
	</node>
	<node id="-861884" lat="63.2052305583" lon="9.55662500843">
		<tag k="name" v="Hulluengbekken" />
		<tag k="ssr:stedsnr" v="580811" />
		<tag k="waterway" v="stream" />
	</node>
	<node id="-861883" lat="63.2029111137" lon="9.39609999385">
		<tag k="name" v="Sagtjønna" />
		<tag k="natural" v="water" />
		<tag k="ssr:stedsnr" v="558641" />
	</node>
	<node id="-861876" lat="63.3143250043" lon="9.69469999144">
		<tag k="name" v="Annølstjønna" />
		<tag k="natural" v="water" />
		<tag k="ssr:stedsnr" v="923225" />
	</node>
	<node id="-861874" lat="63.2211972182" lon="9.52090277926">
		<tag k="name" v="Ytter Svartbekken" />
		<tag k="ssr:stedsnr" v="884675" />
		<tag k="waterway" v="stream" />
	</node>
	<node id="-861860" lat="63.3320027773" lon="9.60776945168">
		<tag k="name" v="Åmottangen" />
		<tag k="natural" v="cape" />
		<tag k="ssr:stedsnr" v="762986" />
	</node>
	<node id="-861125" lat="63.275541667" lon="9.77181111125">
		<tag k="name" v="Aunfossen" />
		<tag k="natural" v="waterfall" />
		<tag k="ssr:stedsnr" v="94267" />
	</node>
	<node id="-861851" lat="63.347086115" lon="9.87933333993">
		<tag k="name" v="Styggdalsbekken" />
		<tag k="ssr:stedsnr" v="94492" />
		<tag k="waterway" v="stream" />
	</node>
	<node id="-861847" lat="63.2735694474" lon="9.59343610137">
		<tag k="name" v="Kalvhåggåbekken" />
		<tag k="ssr:stedsnr" v="338773" />
		<tag k="waterway" v="stream" />
	</node>
	<node id="-861841" lat="63.3796722214" lon="9.8252805509">
		<tag k="name" v="Nedre Fjelltjønna" />
		<tag k="natural" v="water" />
		<tag k="ssr:stedsnr" v="33672" />
	</node>
	<node id="-861840" lat="63.1835861074" lon="9.84197499083">
		<tag k="name" v="Småtjønnin" />
		<tag k="natural" v="water" />
		<tag k="ssr:stedsnr" v="458389" />
	</node>
	<node id="-863881" lat="63.1474000001" lon="9.83435556041">
		<tag k="name" v="Bukkbekken" />
		<tag k="ssr:stedsnr" v="817759" />
		<tag k="waterway" v="stream" />
	</node>
	<node id="-863872" lat="63.2707500024" lon="9.75487221392">
		<tag k="name" v="Formobekken" />
		<tag k="ssr:stedsnr" v="701009" />
		<tag k="waterway" v="stream" />
	</node>
	<node id="-861810" lat="63.249952775" lon="9.71218332813">
		<tag k="name" v="Gunnarbekken" />
		<tag k="ssr:stedsnr" v="519103" />
		<tag k="waterway" v="stream" />
	</node>
	<node id="-861804" lat="63.2547555534" lon="9.70979999807">
		<tag k="name" v="Høydalstjønna" />
		<tag k="natural" v="water" />
		<tag k="ssr:stedsnr" v="680018" />
	</node>
	<node id="-861458" lat="63.2084750035" lon="9.56458611977">
		<tag k="name" v="Dalbekken" />
		<tag k="ssr:stedsnr" v="216779" />
		<tag k="waterway" v="stream" />
	</node>
	<node id="-861802" lat="63.1855916681" lon="9.64354722149">
		<tag k="name" v="Holbekken" />
		<tag k="ssr:stedsnr" v="277640" />
		<tag k="waterway" v="stream" />
	</node>
	<node id="-861796" lat="63.1905666657" lon="9.71999721906">
		<tag k="name" v="Røsbekken" />
		<tag k="ssr:stedsnr" v="762916" />
		<tag k="waterway" v="stream" />
	</node>
	<node id="-861794" lat="63.2657444477" lon="9.64065277217">
		<tag k="name" v="Rasmusholmen" />
		<tag k="place" v="islet" />
		<tag k="ssr:stedsnr" v="680017" />
	</node>
	<node id="-863837" lat="63.2455583292" lon="9.6584388869">
		<tag k="name" v="Brandåstjønna" />
		<tag k="natural" v="water" />
		<tag k="ssr:stedsnr" v="702729" />
	</node>
	<node id="-863836" lat="63.1598333367" lon="9.86793611817">
		<tag k="name" v="Gjetlorttjønna" />
		<tag k="natural" v="water" />
		<tag k="ssr:stedsnr" v="521425" />
	</node>
	<node id="-861787" lat="63.2569805549" lon="9.65748056197">
		<tag k="name" v="Sagbekken" />
		<tag k="ssr:stedsnr" v="338768" />
		<tag k="waterway" v="stream" />
	</node>
	<node id="-861785" lat="63.2545388879" lon="9.64383889251">
		<tag k="name" v="Bakksætertjønna" />
		<tag k="natural" v="water" />
		<tag k="ssr:stedsnr" v="338769" />
	</node>
	<node id="-863829" lat="63.2096499987" lon="9.82375000439">
		<tag k="name" v="Gorrtjønna" />
		<tag k="natural" v="water" />
		<tag k="ssr:stedsnr" v="95935" />
	</node>
	<node id="-861780" lat="63.3380166629" lon="9.74125000377">
		<tag k="name" v="Fjellkjøsvatnet" />
		<tag k="natural" v="water" />
		<tag k="ssr:stedsnr" v="13498" />
		<tag k="water" v="lake" />
	</node>
	<node id="-863823" lat="63.2270472205" lon="9.87809445023">
		<tag k="name" v="Blomliåstjønna" />
		<tag k="natural" v="water" />
		<tag k="ssr:stedsnr" v="34275" />
	</node>
	<node id="-863820" lat="63.2834999979" lon="9.82005555998">
		<tag k="name" v="Trettøya" />
		<tag k="natural" v="cape" />
		<tag k="ssr:stedsnr" v="255365" />
	</node>
	<node id="-863818" lat="63.3743944409" lon="9.93223333278">
		<tag k="name" v="Kilbekken" />
		<tag k="ssr:stedsnr" v="640373" />
		<tag k="waterway" v="stream" />
	</node>
	<node id="-861767" lat="63.2403611139" lon="9.85410554792">
		<tag k="name" v="Langtjønndalbekken" />
		<tag k="ssr:stedsnr" v="458358" />
		<tag k="waterway" v="stream" />
	</node>
	<node id="-861762" lat="63.2742861149" lon="9.80612777788">
		<tag k="name" v="Orkla" />
		<tag k="ssr:stedsnr" v="557512" />
		<tag k="waterway" v="river" />
	</node>
	<node id="-863808" lat="63.2289666632" lon="9.84131945124">
		<tag k="name" v="Krestoffertjønna" />
		<tag k="natural" v="water" />
		<tag k="ssr:stedsnr" v="34269" />
	</node>
	<node id="-863806" lat="63.2601694407" lon="9.3468055478">
		<tag k="name" v="Leirvatnet" />
		<tag k="natural" v="water" />
		<tag k="ssr:stedsnr" v="73675" />
	</node>
	<node id="-863800" lat="63.2407749989" lon="9.69797221445">
		<tag k="name" v="Røstjønna" />
		<tag k="natural" v="water" />
		<tag k="ssr:stedsnr" v="702746" />
	</node>
	<node id="-861742" lat="63.254583336" lon="9.670797231">
		<tag k="name" v="Åltjønna" />
		<tag k="natural" v="water" />
		<tag k="ssr:stedsnr" v="134027" />
	</node>
	<node id="-861789" lat="63.2321444477" lon="9.76000554857">
		<tag k="name" v="Kjelbekken" />
		<tag k="ssr:stedsnr" v="762079" />
		<tag k="waterway" v="stream" />
	</node>
	<node id="-863778" lat="63.4051166686" lon="9.72176666118">
		<tag k="name" v="Hyllbergtjønnin" />
		<tag k="natural" v="water" />
		<tag k="ssr:stedsnr" v="944400" />
	</node>
	<node id="-863774" lat="63.3220694441" lon="9.58978055902">
		<tag k="name" v="Bjørnholtjønna" />
		<tag k="natural" v="water" />
		<tag k="ssr:stedsnr" v="498208" />
	</node>
	<node id="-861724" lat="63.1978333342" lon="9.52211944498">
		<tag k="name" v="Kjerringtjønna" />
		<tag k="natural" v="water" />
		<tag k="ssr:stedsnr" v="580717" />
	</node>
	<node id="-861722" lat="63.2305861111" lon="9.68794167342">
		<tag k="name" v="Litltjønna" />
		<tag k="natural" v="water" />
		<tag k="ssr:stedsnr" v="216863" />
	</node>
	<node id="-863765" lat="63.1735194422" lon="9.89402221543">
		<tag k="name" v="Lykkjbekken" />
		<tag k="ssr:stedsnr" v="944402" />
		<tag k="waterway" v="stream" />
	</node>
	<node id="-863545" lat="63.3739166631" lon="9.78555556515">
		<tag k="name" v="Nedre Merratjønna" />
		<tag k="natural" v="water" />
		<tag k="ssr:stedsnr" v="681403" />
	</node>
	<node id="-861712" lat="63.3718444486" lon="9.85105276954">
		<tag k="name" v="Snåkkådalsbekken" />
		<tag k="ssr:stedsnr" v="33695" />
		<tag k="waterway" v="stream" />
	</node>
	<node id="-861708" lat="63.2605555542" lon="9.53808056082">
		<tag k="name" v="Krokbekken" />
		<tag k="ssr:stedsnr" v="884673" />
		<tag k="waterway" v="stream" />
	</node>
	<node id="-861702" lat="63.2461805582" lon="9.69881388546">
		<tag k="name" v="Storhaugdalsbekken" />
		<tag k="ssr:stedsnr" v="337096" />
		<tag k="waterway" v="stream" />
	</node>
	<node id="-861700" lat="63.1827027771" lon="9.55796944694">
		<tag k="name" v="Klubben" />
		<tag k="place" v="islet" />
		<tag k="ssr:stedsnr" v="338812" />
	</node>
	<node id="-863746" lat="63.1826555577" lon="9.48562222766">
		<tag k="name" v="Dalbekken" />
		<tag k="ssr:stedsnr" v="702695" />
		<tag k="waterway" v="stream" />
	</node>
	<node id="-863743" lat="63.2059472237" lon="9.65953889065">
		<tag k="name" v="Svartbekken" />
		<tag k="ssr:stedsnr" v="762642" />
		<tag k="waterway" v="stream" />
	</node>
	<node id="-861692" lat="63.1828472246" lon="9.506980549">
		<tag k="name" v="Risdalstjønna" />
		<tag k="natural" v="water" />
		<tag k="ssr:stedsnr" v="398719" />
	</node>
	<node id="-863738" lat="63.2010583293" lon="9.60305277791">
		<tag k="name" v="Holbekken" />
		<tag k="ssr:stedsnr" v="459836" />
		<tag k="waterway" v="stream" />
	</node>
	<node id="-863731" lat="63.1997555521" lon="9.5633416569">
		<tag k="name" v="Nebben" />
		<tag k="natural" v="cape" />
		<tag k="ssr:stedsnr" v="459812" />
	</node>
	<node id="-863730" lat="63.3649000001" lon="9.92157777132">
		<tag k="name" v="Langbekken" />
		<tag k="ssr:stedsnr" v="519656" />
		<tag k="waterway" v="stream" />
	</node>
	<node id="-863728" lat="63.2205916648" lon="9.56300277892">
		<tag k="name" v="Kvernbekken" />
		<tag k="ssr:stedsnr" v="459811" />
		<tag k="waterway" v="stream" />
	</node>
	<node id="-863727" lat="63.3100222184" lon="9.70694999696">
		<tag k="fixme" v="multiple name tags, choose one and add the other to alt_name" />
		<tag k="name" v="Fjellskardtjønna;Litltjønna" />
		<tag k="natural" v="water" />
		<tag k="ssr:stedsnr" v="195207" />
	</node>
	<node id="-861675" lat="63.228122225" lon="9.74042223173">
		<tag k="name" v="Lefstobekken" />
		<tag k="ssr:stedsnr" v="702112" />
		<tag k="waterway" v="stream" />
	</node>
	<node id="-861660" lat="63.2744638886" lon="9.63600277373">
		<tag k="name" v="Gangåsvatnet" />
		<tag k="natural" v="water" />
		<tag k="ssr:stedsnr" v="741291" />
		<tag k="water" v="lake" />
	</node>
	<node id="-863707" lat="63.3475750004" lon="9.78338611121">
		<tag k="name" v="Fjellkjøselva" />
		<tag k="ssr:stedsnr" v="94172" />
		<tag k="waterway" v="river" />
	</node>
	<node id="-861775" lat="63.3911250001" lon="9.70634166273">
		<tag k="name" v="Lombekken" />
		<tag k="ssr:stedsnr" v="194841" />
		<tag k="waterway" v="stream" />
	</node>
	<node id="-861656" lat="63.2259111108" lon="9.40479166511">
		<tag k="name" v="Ellinsgardbukta" />
		<tag k="natural" v="bay" />
		<tag k="ssr:stedsnr" v="404509" />
	</node>
	<node id="-861655" lat="63.3086972141" lon="9.82500292185">
		<tag k="name" v="Furumokjela" />
		<tag k="place" v="locality" />
		<tag k="ssr:stedsnr" v="971808" />
	</node>
	<node id="-863702" lat="63.1923351324" lon="9.85345398433">
		<tag k="fixme" v="multiple name tags, choose one and add the other to alt_name" />
		<tag k="name" v="Øvre Damtjønna;Øvre Damlitjønna" />
		<tag k="natural" v="water" />
		<tag k="ssr:stedsnr" v="498205" />
	</node>
	<node id="-863701" lat="63.3880472185" lon="9.81082500606">
		<tag k="name" v="Skomakertjønna" />
		<tag k="natural" v="water" />
		<tag k="ssr:stedsnr" v="944407" />
	</node>
	<node id="-861648" lat="63.433347224" lon="9.91862777515">
		<tag k="name" v="Kvernhusfossen" />
		<tag k="natural" v="waterfall" />
		<tag k="ssr:stedsnr" v="944692" />
	</node>
	<node id="-861647" lat="63.1944777822" lon="9.54197222555">
		<tag k="name" v="Sæterbekken" />
		<tag k="ssr:stedsnr" v="398704" />
		<tag k="waterway" v="stream" />
	</node>
	<node id="-863693" lat="63.2308444411" lon="9.73773332999">
		<tag k="name" v="Silardalsbekken" />
		<tag k="ssr:stedsnr" v="156097" />
		<tag k="waterway" v="stream" />
	</node>
	<node id="-861643" lat="63.3843750005" lon="9.76905555026">
		<tag k="name" v="Nordslættbekken" />
		<tag k="old_name" v="Kattuglebekken" />
		<tag k="ssr:stedsnr" v="863438" />
		<tag k="waterway" v="stream" />
	</node>
	<node id="-863687" lat="63.2666749981" lon="9.60638054566">
		<tag k="name" v="Lomtjønna" />
		<tag k="natural" v="water" />
		<tag k="ssr:stedsnr" v="619014" />
	</node>
	<node id="-863684" lat="63.3521666671" lon="9.78022221606">
		<tag k="name" v="Fjell-libekken" />
		<tag k="ssr:stedsnr" v="94169" />
		<tag k="waterway" v="stream" />
	</node>
	<node id="-863683" lat="63.2494722195" lon="9.57016665721">
		<tag k="name" v="Grøtdalsbekken" />
		<tag k="ssr:stedsnr" v="459800" />
		<tag k="waterway" v="stream" />
	</node>
	<node id="-863682" lat="63.2509416677" lon="9.84924999703">
		<tag k="name" v="Stamphusfossen" />
		<tag k="natural" v="waterfall" />
		<tag k="ssr:stedsnr" v="33351" />
	</node>
	<node id="-863677" lat="63.2482999975" lon="9.85141111302">
		<tag k="name" v="Kvernbekken" />
		<tag k="ssr:stedsnr" v="33350" />
		<tag k="waterway" v="stream" />
	</node>
	<node id="-863669" lat="63.3376027742" lon="9.64622499045">
		<tag k="name" v="Songlitjønna" />
		<tag k="natural" v="water" />
		<tag k="ssr:stedsnr" v="498196" />
	</node>
	<node id="-863668" lat="63.4037444479" lon="9.94029443818">
		<tag k="name" v="Innerbekken" />
		<tag k="ssr:stedsnr" v="519647" />
		<tag k="waterway" v="stream" />
	</node>
	<node id="-861619" lat="63.1687611143" lon="9.8593166583">
		<tag k="name" v="Vaulen" />
		<tag k="ssr:stedsnr" v="94426" />
		<tag k="waterway" v="stream" />
	</node>
	<node id="-861616" lat="63.2573027786" lon="9.77323334181">
		<tag k="name" v="Kalvhåggåbekken" />
		<tag k="ssr:stedsnr" v="762065" />
		<tag k="waterway" v="stream" />
	</node>
	<node id="-861615" lat="63.2959111142" lon="9.69625000272">
		<tag k="name" v="Høglitjønna" />
		<tag k="natural" v="water" />
		<tag k="ssr:stedsnr" v="741270" />
	</node>
	<node id="-861085" lat="63.2211194441" lon="9.53894166549">
		<tag k="name" v="Svartbekken" />
		<tag k="ssr:stedsnr" v="216678" />
		<tag k="waterway" v="stream" />
	</node>
	<node id="-861612" lat="63.2624083366" lon="9.56510000796">
		<tag k="name" v="Hulludalsbekken" />
		<tag k="ssr:stedsnr" v="520789" />
		<tag k="waterway" v="stream" />
	</node>
	<node id="-863657" lat="63.1865972198" lon="9.60387500479">
		<tag k="name" v="Kattjønna" />
		<tag k="natural" v="water" />
		<tag k="ssr:stedsnr" v="762617" />
	</node>
	<node id="-863656" lat="63.3446333325" lon="9.7711027794">
		<tag k="name" v="Kjerringhølen" />
		<tag k="place" v="locality" />
		<tag k="ssr:stedsnr" v="94162" />
	</node>
	<node id="-863653" lat="63.1830444426" lon="9.50056111985">
		<tag k="name" v="Fantguttjønna" />
		<tag k="natural" v="water" />
		<tag k="ssr:stedsnr" v="702693" />
	</node>
	<node id="-861604" lat="63.2393583303" lon="9.73963610683">
		<tag k="name" v="Hauka" />
		<tag k="ssr:stedsnr" v="519071" />
		<tag k="waterway" v="stream" />
	</node>
	<node id="-863649" lat="63.3302694488" lon="9.63813333362">
		<tag k="alt_name" v="Sandåa" />
		<tag k="name" v="Sagelva" />
		<tag k="ssr:stedsnr" v="498182" />
		<tag k="waterway" v="stream" />
	</node>
	<node id="-863643" lat="63.2564722242" lon="9.59296110702">
		<tag k="name" v="Damtjønna" />
		<tag k="natural" v="water" />
		<tag k="ssr:stedsnr" v="923026" />
	</node>
	<node id="-863641" lat="63.281922222" lon="9.73514165877">
		<tag k="name" v="Aunbekken" />
		<tag k="ssr:stedsnr" v="34219" />
		<tag k="waterway" v="stream" />
	</node>
	<node id="-861592" lat="63.1999194407" lon="9.86654721406">
		<tag k="name" v="Svarttjønna" />
		<tag k="natural" v="water" />
		<tag k="ssr:stedsnr" v="94421" />
	</node>
	<node id="-861584" lat="63.2172888914" lon="9.66163611814">
		<tag k="name" v="Daltjønna" />
		<tag k="natural" v="water" />
		<tag k="ssr:stedsnr" v="762867" />
	</node>
	<node id="-861579" lat="63.2322888864" lon="9.48708611343">
		<tag k="name" v="Ytter Svorksjøen" />
		<tag k="natural" v="water" />
		<tag k="ssr:stedsnr" v="707816" />
		<tag k="water" v="lake" />
	</node>
	<node id="-861578" lat="63.357405553" lon="9.61491110745">
		<tag k="name" v="Jamtgardstjønna" />
		<tag k="natural" v="water" />
		<tag k="ssr:stedsnr" v="923158" />
	</node>
	<node id="-863625" lat="63.2338499961" lon="9.37624445397">
		<tag k="name" v="Krokbekken" />
		<tag k="ssr:stedsnr" v="178805" />
		<tag k="waterway" v="stream" />
	</node>
	<node id="-863624" lat="63.2236166699" lon="9.66442499402">
		<tag k="name" v="Gryttjønna" />
		<tag k="natural" v="water" />
		<tag k="ssr:stedsnr" v="95864" />
	</node>
	<node id="-863620" lat="63.3545805561" lon="9.84591111687">
		<tag k="name" v="Isdalsosbekken" />
		<tag k="ssr:stedsnr" v="276468" />
		<tag k="waterway" v="stream" />
	</node>
	<node id="-861760" lat="63.1893472217" lon="9.47539999258">
		<tag k="name" v="Kalvhåggåbekken" />
		<tag k="ssr:stedsnr" v="580731" />
		<tag k="waterway" v="stream" />
	</node>
	<node id="-863609" lat="63.1832583333" lon="9.88924444262">
		<tag k="name" v="Snøtonvatnet" />
		<tag k="natural" v="water" />
		<tag k="ssr:stedsnr" v="498192" />
	</node>
	<node id="-861555" lat="63.1975916705" lon="9.50550277394">
		<tag k="name" v="Simensbekken" />
		<tag k="ssr:stedsnr" v="338707" />
		<tag k="waterway" v="stream" />
	</node>
	<node id="-861553" lat="63.3669166707" lon="9.83623333181">
		<tag k="name" v="Bakkbekken" />
		<tag k="ssr:stedsnr" v="883692" />
		<tag k="waterway" v="stream" />
	</node>
	<node id="-863600" lat="63.2158666697" lon="9.64927777798">
		<tag k="name" v="Fagersanden" />
		<tag k="natural" v="beach" />
		<tag k="ssr:stedsnr" v="95857" />
	</node>
	<node id="-861549" lat="63.4205388857" lon="9.94578332531">
		<tag k="name" v="Kjørelva" />
		<tag k="ssr:stedsnr" v="823614" />
		<tag k="waterway" v="stream" />
	</node>
	<node id="-861544" lat="63.3381277804" lon="9.73544443947">
		<tag k="name" v="Reitodden" />
		<tag k="natural" v="cape" />
		<tag k="ssr:stedsnr" v="701213" />
	</node>
	<node id="-861543" lat="63.2873250017" lon="9.63514722665">
		<tag k="name" v="Sæterbekken" />
		<tag k="ssr:stedsnr" v="702955" />
		<tag k="waterway" v="stream" />
	</node>
	<node id="-863590" lat="63.1839861084" lon="9.45290278411">
		<tag k="name" v="Hulubekken" />
		<tag k="ssr:stedsnr" v="216574" />
		<tag k="waterway" v="stream" />
	</node>
	<node id="-861536" lat="63.1688611069" lon="9.82841388949">
		<tag k="alt_name" v="Røsvatnet" />
		<tag k="name" v="Ryvatnet" />
		<tag k="natural" v="water" />
		<tag k="ssr:stedsnr" v="923164" />
	</node>
	<node id="-863582" lat="63.2511777744" lon="9.80095555252">
		<tag k="name" v="Mobekken" />
		<tag k="ssr:stedsnr" v="94143" />
		<tag k="waterway" v="stream" />
	</node>
	<node id="-861532" lat="63.2349416652" lon="9.6713500042">
		<tag k="name" v="Gjøvassbekken" />
		<tag k="ssr:stedsnr" v="338742" />
		<tag k="waterway" v="stream" />
	</node>
	<node id="-861530" lat="63.161755557" lon="9.86434721906">
		<tag k="name" v="Rørtjønna" />
		<tag k="natural" v="water" />
		<tag k="ssr:stedsnr" v="923165" />
	</node>
	<node id="-863577" lat="63.3044750025" lon="9.73846666391">
		<tag k="name" v="Kleivabekken" />
		<tag k="ssr:stedsnr" v="34207" />
		<tag k="waterway" v="stream" />
	</node>
	<node id="-863575" lat="63.2143111075" lon="9.68444444714">
		<tag k="alt_name" v="Gåstjønna" />
		<tag k="name" v="Gåsvatnet" />
		<tag k="natural" v="water" />
		<tag k="ssr:stedsnr" v="73635" />
	</node>
	<node id="-863572" lat="63.2711305576" lon="9.5798666685">
		<tag k="name" v="Trobekken" />
		<tag k="ssr:stedsnr" v="459778" />
		<tag k="waterway" v="stream" />
	</node>
	<node id="-863571" lat="63.276499996" lon="9.78065000898">
		<tag k="alt_name" v="Ustørja" />
		<tag k="name" v="Ustdørja" />
		<tag k="ssr:stedsnr" v="377357" />
		<tag k="waterway" v="stream" />
	</node>
	<node id="-863570" lat="63.318177779" lon="9.55490832949">
		<tag k="name" v="Svarttjønnbukta" />
		<tag k="natural" v="bay" />
		<tag k="ssr:stedsnr" v="74163" />
	</node>
	<node id="-863568" lat="63.2356555554" lon="9.71846666385">
		<tag k="name" v="Kvålsætertjønnin" />
		<tag k="natural" v="water" />
		<tag k="ssr:stedsnr" v="12245" />
	</node>
	<node id="-861515" lat="63.2415250005" lon="9.61936943582">
		<tag k="name" v="Sæterbekken" />
		<tag k="ssr:stedsnr" v="338737" />
		<tag k="waterway" v="stream" />
	</node>
	<node id="-863562" lat="63.1947138914" lon="9.67539721903">
		<tag k="name" v="Lykkjbekken" />
		<tag k="ssr:stedsnr" v="702637" />
		<tag k="waterway" v="stream" />
	</node>
	<node id="-863561" lat="63.3791777747" lon="9.92298889045">
		<tag k="name" v="Rypdalsbekken" />
		<tag k="ssr:stedsnr" v="276453" />
		<tag k="waterway" v="stream" />
	</node>
	<node id="-861512" lat="63.2200916679" lon="9.64530833492">
		<tag k="name" v="Vasslivatnet" />
		<tag k="natural" v="water" />
		<tag k="ssr:stedsnr" v="558589" />
		<tag k="water" v="lake" />
	</node>
	<node id="-863559" lat="63.2210527787" lon="9.41908334257">
		<tag k="name" v="Småholman" />
		<tag k="place" v="islet" />
		<tag k="ssr:stedsnr" v="740555" />
	</node>
	<node id="-861506" lat="63.2363999975" lon="9.75041667425">
		<tag k="name" v="Aunbekken" />
		<tag k="ssr:stedsnr" v="762076" />
		<tag k="waterway" v="stream" />
	</node>
	<node id="-863553" lat="63.2350083363" lon="9.87069722401">
		<tag k="name" v="Storslettmyrbekken" />
		<tag k="ssr:stedsnr" v="944341" />
		<tag k="waterway" v="stream" />
	</node>
	<node id="-861503" lat="63.2493166684" lon="9.60242500961">
		<tag k="name" v="Kvernbekken" />
		<tag k="ssr:stedsnr" v="217732" />
		<tag k="waterway" v="stream" />
	</node>
	<node id="-861502" lat="63.2468694474" lon="9.66852223032">
		<tag k="name" v="Vinterbakktjønna" />
		<tag k="natural" v="water" />
		<tag k="ssr:stedsnr" v="520776" />
	</node>
	<node id="-863547" lat="63.3515722184" lon="9.84230555873">
		<tag k="name" v="Svartbekken" />
		<tag k="ssr:stedsnr" v="823355" />
		<tag k="waterway" v="stream" />
	</node>
	<node id="-863455" lat="63.3617972244" lon="9.62633611408">
		<tag k="name" v="Midttjønna" />
		<tag k="natural" v="water" />
		<tag k="ssr:stedsnr" v="438128" />
	</node>
	<node id="-863540" lat="63.2598805568" lon="9.71143889096">
		<tag k="alt_name" v="Paultjønna" />
		<tag k="name" v="Paulstjønna" />
		<tag k="natural" v="water" />
		<tag k="ssr:stedsnr" v="923009" />
	</node>
	<node id="-861490" lat="63.2524694428" lon="9.86837222392">
		<tag k="name" v="Kardusbekken" />
		<tag k="ssr:stedsnr" v="94376" />
		<tag k="waterway" v="stream" />
	</node>
	<node id="-863532" lat="63.2288555585" lon="9.60173055443">
		<tag k="name" v="Kattjønna" />
		<tag k="natural" v="water" />
		<tag k="ssr:stedsnr" v="95847" />
	</node>
	<node id="-861481" lat="63.3766027774" lon="9.71148610395">
		<tag k="name" v="Svarttjønna" />
		<tag k="natural" v="water" />
		<tag k="ssr:stedsnr" v="195828" />
	</node>
	<node id="-861478" lat="63.3645388923" lon="9.85359444047">
		<tag k="name" v="Husdalselva" />
		<tag k="ssr:stedsnr" v="802521" />
		<tag k="waterway" v="river" />
	</node>
	<node id="-863524" lat="63.3014694404" lon="9.76081944856">
		<tag k="name" v="Grandalsbekken" />
		<tag k="ssr:stedsnr" v="155209" />
		<tag k="waterway" v="stream" />
	</node>
	<node id="-863523" lat="63.3535805564" lon="9.67498334305">
		<tag k="name" v="Bjørndalselva" />
		<tag k="ssr:stedsnr" v="195170" />
		<tag k="waterway" v="stream" />
	</node>
	<node id="-861474" lat="63.3441138846" lon="9.79301667453">
		<tag k="name" v="Melandsbekken" />
		<tag k="ssr:stedsnr" v="701139" />
		<tag k="waterway" v="stream" />
	</node>
	<node id="-861471" lat="63.1984861151" lon="9.80578611541">
		<tag k="name" v="Sola" />
		<tag k="ssr:stedsnr" v="437216" />
		<tag k="waterway" v="stream" />
	</node>
	<node id="-863518" lat="63.3164416686" lon="9.79689444718">
		<tag k="name" v="Tungbekken" />
		<tag k="ssr:stedsnr" v="34190" />
		<tag k="waterway" v="stream" />
	</node>
	<node id="-861469" lat="63.2761972181" lon="9.5561555469">
		<tag k="name" v="Kvernbekken" />
		<tag k="ssr:stedsnr" v="73238" />
		<tag k="waterway" v="stream" />
	</node>
	<node id="-861467" lat="63.1935999975" lon="9.55160000689">
		<tag k="name" v="Litlbekken" />
		<tag k="ssr:stedsnr" v="762811" />
		<tag k="waterway" v="stream" />
	</node>
	<node id="-863514" lat="63.2301388923" lon="9.63037499281">
		<tag k="name" v="Myralykkjtjønna" />
		<tag k="natural" v="water" />
		<tag k="ssr:stedsnr" v="95844" />
	</node>
	<node id="-861460" lat="63.2022750018" lon="9.56157500086">
		<tag k="name" v="Vikabukta" />
		<tag k="natural" v="bay" />
		<tag k="ssr:stedsnr" v="923634" />
	</node>
	<node id="-863506" lat="63.1856944431" lon="9.86871944308">
		<tag k="name" v="Høydalsbekken" />
		<tag k="ssr:stedsnr" v="883431" />
		<tag k="waterway" v="stream" />
	</node>
	<node id="-861457" lat="63.1644916633" lon="9.83453611276">
		<tag k="name" v="Liavassbekken" />
		<tag k="ssr:stedsnr" v="763697" />
		<tag k="waterway" v="stream" />
	</node>
	<node id="-863500" lat="63.1618083348" lon="9.84389723201">
		<tag k="name" v="Svarttjønna" />
		<tag k="natural" v="water" />
		<tag k="ssr:stedsnr" v="498156" />
	</node>
	<node id="-861448" lat="63.2444499991" lon="9.46156666476">
		<tag k="alt_name" v="Ner Hundsåvatnet" />
		<tag k="name" v="Hundsåvatnet" />
		<tag k="natural" v="water" />
		<tag k="ssr:stedsnr" v="619684" />
		<tag k="water" v="lake" />
	</node>
	<node id="-863494" lat="63.3021333333" lon="9.78191111836">
		<tag k="name" v="Ålvassbekken" />
		<tag k="ssr:stedsnr" v="155207" />
		<tag k="waterway" v="stream" />
	</node>
	<node id="-861443" lat="63.3360861103" lon="9.61138611482">
		<tag k="name" v="Åmotbekken" />
		<tag k="ssr:stedsnr" v="459987" />
		<tag k="waterway" v="stream" />
	</node>
	<node id="-863087" lat="63.2651277767" lon="9.80405000256">
		<tag k="name" v="Skåggåberghølen" />
		<tag k="natural" v="water" />
		<tag k="ssr:stedsnr" v="155083" />
	</node>
	<node id="-861434" lat="63.3382305556" lon="9.61967221525">
		<tag k="name" v="Åmottjønna" />
		<tag k="natural" v="water" />
		<tag k="ssr:stedsnr" v="316185" />
	</node>
	<node id="-863475" lat="63.244191666" lon="9.85424999789">
		<tag k="name" v="Stamphusfossen" />
		<tag k="natural" v="waterfall" />
		<tag k="ssr:stedsnr" v="883383" />
	</node>
	<node id="-863474" lat="63.2865527797" lon="9.90628333637">
		<tag k="name" v="Pikhaugtjønna" />
		<tag k="natural" v="water" />
		<tag k="ssr:stedsnr" v="802360" />
	</node>
	<node id="-863473" lat="63.1865138858" lon="9.89457776964">
		<tag k="name" v="Krokbekken" />
		<tag k="ssr:stedsnr" v="823305" />
		<tag k="waterway" v="stream" />
	</node>
	<node id="-861420" lat="63.3337527803" lon="9.84267499511">
		<tag k="name" v="Furbekken" />
		<tag k="ssr:stedsnr" v="155418" />
		<tag k="waterway" v="stream" />
	</node>
	<node id="-863465" lat="63.3090416712" lon="9.63968888724">
		<tag k="name" v="Djupdalsbekken" />
		<tag k="ssr:stedsnr" v="641994" />
		<tag k="waterway" v="stream" />
	</node>
	<node id="-861415" lat="63.2411722222" lon="9.84326667348">
		<tag k="alt_name" v="Sjøthaugtjønna" />
		<tag k="name" v="Sjååthaugtjønna" />
		<tag k="natural" v="water" />
		<tag k="ssr:stedsnr" v="862277" />
	</node>
	<node id="-861411" lat="63.3581027766" lon="9.85986110624">
		<tag k="name" v="Husdalsvatnet" />
		<tag k="natural" v="water" />
		<tag k="ssr:stedsnr" v="377482" />
	</node>
	<node id="-863457" lat="63.1852611087" lon="9.87369999914">
		<tag k="name" v="Snøtonbekken" />
		<tag k="ssr:stedsnr" v="276404" />
		<tag k="waterway" v="stream" />
	</node>
	<node id="-861407" lat="63.1889722239" lon="9.60537223063">
		<tag k="name" v="Svartbotntjønna" />
		<tag k="natural" v="water" />
		<tag k="ssr:stedsnr" v="923620" />
	</node>
	<node id="-863445" lat="63.3620749957" lon="9.71470278366">
		<tag k="fixme" v="multiple name tags, choose one and add the other to alt_name" />
		<tag k="name" v="Furtjønna;Furutjønna" />
		<tag k="natural" v="water" />
		<tag k="ssr:stedsnr" v="498154" />
	</node>
	<node id="-863444" lat="63.36031389" lon="9.70404444491">
		<tag k="name" v="Bjørndalstjønna" />
		<tag k="natural" v="water" />
		<tag k="ssr:stedsnr" v="438129" />
	</node>
	<node id="-861385" lat="63.1826916644" lon="9.7108333362">
		<tag k="name" v="Røsvassbekken" />
		<tag k="ssr:stedsnr" v="923622" />
		<tag k="waterway" v="stream" />
	</node>
	<node id="-861384" lat="63.354169445" lon="9.73047500605">
		<tag k="name" v="Brølitjønna" />
		<tag k="natural" v="water" />
		<tag k="ssr:stedsnr" v="802506" />
	</node>
	<node id="-863423" lat="63.1946555577" lon="9.67030277567">
		<tag k="name" v="Vorma" />
		<tag k="ssr:stedsnr" v="437609" />
		<tag k="waterway" v="river" />
	</node>
	<node id="-861369" lat="63.3052555517" lon="9.53383056078">
		<tag k="fixme" v="multiple name tags, choose one and add the other to alt_name" />
		<tag k="name" v="Bånkroktjønna;Jomfrutjønna" />
		<tag k="natural" v="water" />
		<tag k="ssr:stedsnr" v="498273" />
	</node>
	<node id="-861362" lat="63.2171444447" lon="9.87602499481">
		<tag k="name" v="Lomtjønna" />
		<tag k="natural" v="water" />
		<tag k="ssr:stedsnr" v="73215" />
	</node>
	<node id="-861360" lat="63.2914611101" lon="9.84844166361">
		<tag k="name" v="Evjensbekken" />
		<tag k="ssr:stedsnr" v="94325" />
		<tag k="waterway" v="stream" />
	</node>
	<node id="-863404" lat="63.3519999976" lon="9.72713334126">
		<tag k="name" v="Brølibekken" />
		<tag k="ssr:stedsnr" v="34153" />
		<tag k="waterway" v="stream" />
	</node>
	<node id="-861353" lat="63.2123777819" lon="9.65035556314">
		<tag k="name" v="Gjøribekken" />
		<tag k="ssr:stedsnr" v="702862" />
		<tag k="waterway" v="stream" />
	</node>
	<node id="-863400" lat="63.3267861075" lon="9.60524445188">
		<tag k="name" v="Liabukta" />
		<tag k="natural" v="bay" />
		<tag k="ssr:stedsnr" v="641973" />
	</node>
	<node id="-861350" lat="63.2103083352" lon="9.65439722661">
		<tag k="name" v="Fjølåstjønna" />
		<tag k="natural" v="water" />
		<tag k="ssr:stedsnr" v="702864" />
	</node>
	<node id="-861349" lat="63.3857444479" lon="9.83523888868">
		<tag k="name" v="Langtjønna" />
		<tag k="natural" v="water" />
		<tag k="ssr:stedsnr" v="13415" />
	</node>
	<node id="-863396" lat="63.3200416672" lon="9.71881111059">
		<tag k="name" v="Dyndalstjønna" />
		<tag k="natural" v="water" />
		<tag k="ssr:stedsnr" v="13281" />
	</node>
	<node id="-863395" lat="63.2974194413" lon="9.77148610466">
		<tag k="name" v="Kattjønna" />
		<tag k="natural" v="water" />
		<tag k="ssr:stedsnr" v="640227" />
	</node>
	<node id="-861342" lat="63.3482083311" lon="9.87988610769">
		<tag k="name" v="Meslættbekken" />
		<tag k="ssr:stedsnr" v="155391" />
		<tag k="waterway" v="stream" />
	</node>
	<node id="-863386" lat="63.3425833354" lon="9.75457500954">
		<tag k="name" v="Sandvika" />
		<tag k="natural" v="bay" />
		<tag k="ssr:stedsnr" v="34147" />
	</node>
	<node id="-863385" lat="63.193244445" lon="9.5553999993">
		<tag k="name" v="Sæterodden" />
		<tag k="natural" v="cape" />
		<tag k="ssr:stedsnr" v="95796" />
	</node>
	<node id="-863380" lat="63.3264833334" lon="9.58614722976">
		<tag k="name" v="Solemsbukta" />
		<tag k="natural" v="bay" />
		<tag k="ssr:stedsnr" v="641965" />
	</node>
	<node id="-863379" lat="63.33061944" lon="9.81461110949">
		<tag k="name" v="Dållån" />
		<tag k="ssr:stedsnr" v="155174" />
		<tag k="waterway" v="stream" />
	</node>
	<node id="-861330" lat="63.3476805539" lon="9.715805551">
		<tag k="name" v="Fjellkjosvatnet" />
		<tag k="natural" v="water" />
		<tag k="ssr:stedsnr" v="741181" />
	</node>
	<node id="-861328" lat="63.154947223" lon="9.83617777588">
		<tag k="name" v="Bakktjønna" />
		<tag k="natural" v="water" />
		<tag k="ssr:stedsnr" v="399416" />
	</node>
	<node id="-863373" lat="63.1981027746" lon="9.55149721998">
		<tag k="name" v="Såmmårfjøsbekken" />
		<tag k="ssr:stedsnr" v="95798" />
		<tag k="waterway" v="stream" />
	</node>
	<node id="-861324" lat="63.4021972266" lon="9.87203333566">
		<tag k="name" v="Vester Vasslivatnet" />
		<tag k="natural" v="water" />
		<tag k="ssr:stedsnr" v="397684" />
	</node>
	<node id="-861319" lat="63.2960361142" lon="9.75956110596">
		<tag k="name" v="Bjørktjønna" />
		<tag k="natural" v="water" />
		<tag k="ssr:stedsnr" v="863310" />
	</node>
	<node id="-863364" lat="63.3638166701" lon="9.66766389647">
		<tag k="name" v="Klokkarbekken" />
		<tag k="ssr:stedsnr" v="156908" />
		<tag k="waterway" v="stream" />
	</node>
	<node id="-861315" lat="63.1740055595" lon="9.69760554862">
		<tag k="name" v="Koltjønna" />
		<tag k="natural" v="water" />
		<tag k="ssr:stedsnr" v="338588" />
	</node>
	<node id="-863359" lat="63.2453722216" lon="9.38013611165">
		<tag k="name" v="Myrakjølbekken" />
		<tag k="ssr:stedsnr" v="101516" />
		<tag k="waterway" v="stream" />
	</node>
	<node id="-863356" lat="63.1599194407" lon="9.79429165988">
		<tag k="name" v="Lomtjønnbekken" />
		<tag k="ssr:stedsnr" v="763433" />
		<tag k="waterway" v="stream" />
	</node>
	<node id="-863353" lat="63.2440083313" lon="9.74503332667">
		<tag k="name" v="Ratbekken" />
		<tag k="ssr:stedsnr" v="94072" />
		<tag k="waterway" v="stream" />
	</node>
	<node id="-863351" lat="63.1589111091" lon="9.80482221282">
		<tag k="name" v="Storlomtjønna" />
		<tag k="natural" v="water" />
		<tag k="ssr:stedsnr" v="703451" />
	</node>
	<node id="-863344" lat="63.2176611092" lon="9.38191944987">
		<tag k="name" v="Bergholmen" />
		<tag k="place" v="islet" />
		<tag k="ssr:stedsnr" v="890768" />
	</node>
	<node id="-861294" lat="63.3906027742" lon="9.89922222027">
		<tag k="name" v="Rundtjønna" />
		<tag k="natural" v="water" />
		<tag k="ssr:stedsnr" v="397687" />
	</node>
	<node id="-863340" lat="63.3513583343" lon="9.6332111195">
		<tag k="name" v="Stokksæterbekken" />
		<tag k="ssr:stedsnr" v="156898" />
		<tag k="waterway" v="stream" />
	</node>
	<node id="-861288" lat="63.3259555558" lon="9.58271110752">
		<tag k="alt_name" v="Solemsodden" />
		<tag k="name" v="Solemstangen" />
		<tag k="natural" v="cape" />
		<tag k="ssr:stedsnr" v="437187" />
	</node>
	<node id="-863335" lat="63.2979833289" lon="9.74496944587">
		<tag k="name" v="Haugemssæterbekken" />
		<tag k="ssr:stedsnr" v="640233" />
		<tag k="waterway" v="stream" />
	</node>
	<node id="-863334" lat="63.2389861143" lon="9.86539722738">
		<tag k="alt_name" v="Strømtjønna" />
		<tag k="name" v="Straumtjønna" />
		<tag k="natural" v="water" />
		<tag k="ssr:stedsnr" v="376266" />
	</node>
	<node id="-863329" lat="63.2143694443" lon="9.69600000498">
		<tag k="name" v="Sæterbekken" />
		<tag k="ssr:stedsnr" v="95786" />
		<tag k="waterway" v="stream" />
	</node>
	<node id="-861280" lat="63.2106694483" lon="9.38606388977">
		<tag k="name" v="Søråa" />
		<tag k="ssr:stedsnr" v="222494" />
		<tag k="waterway" v="river" />
	</node>
	<node id="-863327" lat="63.3766416699" lon="9.77841943525">
		<tag k="name" v="Merratjønnbekken" />
		<tag k="ssr:stedsnr" v="155161" />
		<tag k="waterway" v="stream" />
	</node>
	<node id="-863319" lat="63.2460305564" lon="9.87963055107">
		<tag k="name" v="Kattjønna" />
		<tag k="natural" v="water" />
		<tag k="ssr:stedsnr" v="276363" />
	</node>
	<node id="-863316" lat="63.388086113" lon="9.90268887946">
		<tag k="name" v="Anderskåsbekken" />
		<tag k="ssr:stedsnr" v="701693" />
		<tag k="waterway" v="stream" />
	</node>
	<node id="-861027" lat="63.3894126928" lon="9.83032002349">
		<tag k="name" v="Raudåa" />
		<tag k="ssr:stedsnr" v="337663" />
		<tag k="waterway" v="stream" />
	</node>
	<node id="-863310" lat="63.383786109" lon="9.89829444838">
		<tag k="name" v="Anderskåsdammen" />
		<tag k="natural" v="water" />
		<tag k="ssr:stedsnr" v="701691" />
	</node>
	<node id="-861253" lat="63.3750888893" lon="9.82544999517">
		<tag k="name" v="Pinesteet" />
		<tag k="natural" v="cape" />
		<tag k="ssr:stedsnr" v="823577" />
	</node>
	<node id="-861247" lat="63.2558444444" lon="9.87817222001">
		<tag k="name" v="Lomtjønna" />
		<tag k="natural" v="water" />
		<tag k="ssr:stedsnr" v="741755" />
	</node>
	<node id="-863294" lat="63.1738083302" lon="9.86966943796">
		<tag k="name" v="Mjovassbekken" />
		<tag k="ssr:stedsnr" v="398302" />
		<tag k="waterway" v="stream" />
	</node>
	<node id="-861245" lat="63.1498916641" lon="9.87065000034">
		<tag k="name" v="Småvikan" />
		<tag k="natural" v="bay" />
		<tag k="ssr:stedsnr" v="763729" />
	</node>
	<node id="-863287" lat="63.3294444406" lon="9.82748054997">
		<tag k="name" v="Rovsbekken" />
		<tag k="ssr:stedsnr" v="579492" />
		<tag k="waterway" v="stream" />
	</node>
	<node id="-863286" lat="63.215102779" lon="9.75755276817">
		<tag k="name" v="Krokbekken" />
		<tag k="ssr:stedsnr" v="34120" />
		<tag k="waterway" v="stream" />
	</node>
	<node id="-861237" lat="63.2319611074" lon="9.40366110591">
		<tag k="name" v="Dalbekken" />
		<tag k="ssr:stedsnr" v="162745" />
		<tag k="waterway" v="stream" />
	</node>
	<node id="-863283" lat="63.1957327832" lon="9.85035105231">
		<tag k="fixme" v="multiple name tags, choose one and add the other to alt_name" />
		<tag k="name" v="Nedre Damtjønna;Nedre Damlitjønna" />
		<tag k="natural" v="water" />
		<tag k="ssr:stedsnr" v="12195" />
	</node>
	<node id="-863279" lat="63.3472861131" lon="9.78814722139">
		<tag k="name" v="Gorvassbekken" />
		<tag k="ssr:stedsnr" v="155149" />
		<tag k="waterway" v="stream" />
	</node>
	<node id="-863272" lat="63.2693361088" lon="9.6673833249">
		<tag k="name" v="Naustnebben" />
		<tag k="place" v="islet" />
		<tag k="ssr:stedsnr" v="95759" />
	</node>
	<node id="-863271" lat="63.3455694458" lon="9.79292778695">
		<tag k="name" v="Melandsholmen" />
		<tag k="place" v="islet" />
		<tag k="ssr:stedsnr" v="155139" />
	</node>
	<node id="-863269" lat="63.2901750001" lon="9.68713887918">
		<tag k="name" v="Kalvhåggåbekken" />
		<tag k="ssr:stedsnr" v="34961" />
		<tag k="waterway" v="stream" />
	</node>
	<node id="-863268" lat="63.2302638856" lon="9.43197499791">
		<tag k="name" v="Dalabekken" />
		<tag k="ssr:stedsnr" v="890752" />
		<tag k="waterway" v="stream" />
	</node>
	<node id="-861219" lat="63.3938305552" lon="9.94656944751">
		<tag k="name" v="Mastubekken" />
		<tag k="ssr:stedsnr" v="823589" />
		<tag k="waterway" v="stream" />
	</node>
	<node id="-863266" lat="63.283588892" lon="9.85651944591">
		<tag k="name" v="Espabekken" />
		<tag k="ssr:stedsnr" v="883347" />
		<tag k="waterway" v="stream" />
	</node>
	<node id="-863264" lat="63.2632861113" lon="9.64872499498">
		<tag k="alt_name" v="Kløbben" />
		<tag k="name" v="Klubben" />
		<tag k="natural" v="cape" />
		<tag k="ssr:stedsnr" v="437018" />
	</node>
	<node id="-861215" lat="63.3668027774" lon="9.79773611285">
		<tag k="name" v="Brutjønna" />
		<tag k="natural" v="water" />
		<tag k="ssr:stedsnr" v="459153" />
	</node>
	<node id="-861018" lat="63.3539138892" lon="9.81639444656">
		<tag k="name" v="Bukktjønna" />
		<tag k="natural" v="water" />
		<tag k="ssr:stedsnr" v="458141" />
	</node>
	<node id="-863237" lat="63.2161194464" lon="9.38814445297">
		<tag k="name" v="Stugguholmen" />
		<tag k="place" v="islet" />
		<tag k="ssr:stedsnr" v="497591" />
	</node>
	<node id="-863234" lat="63.3580972198" lon="9.85573888782">
		<tag k="name" v="Isdalsosen" />
		<tag k="natural" v="bay" />
		<tag k="ssr:stedsnr" v="579457" />
	</node>
	<node id="-863233" lat="63.2214055573" lon="9.67616110625">
		<tag k="name" v="Lomtjønna" />
		<tag k="natural" v="water" />
		<tag k="ssr:stedsnr" v="156867" />
	</node>
	<node id="-861184" lat="63.2204277775" lon="9.43769722975">
		<tag k="name" v="Baklibekken" />
		<tag k="ssr:stedsnr" v="343505" />
		<tag k="waterway" v="stream" />
	</node>
	<node id="-863224" lat="63.238625003" lon="9.89112499719">
		<tag k="name" v="Kjeløybekken" />
		<tag k="ssr:stedsnr" v="680281" />
		<tag k="waterway" v="stream" />
	</node>
	<node id="-861172" lat="63.405841664" lon="9.88894167369">
		<tag k="name" v="Vasslivatna" />
		<tag k="natural" v="water" />
		<tag k="ssr:stedsnr" v="802468" />
	</node>
	<node id="-861171" lat="63.2210527808" lon="9.41180554724">
		<tag k="name" v="Langnesodden" />
		<tag k="natural" v="cape" />
		<tag k="ssr:stedsnr" v="830736" />
	</node>
	<node id="-863211" lat="63.1722277746" lon="9.60226111221">
		<tag k="name" v="Bakklykkjtjønna" />
		<tag k="natural" v="water" />
		<tag k="ssr:stedsnr" v="740491" />
	</node>
	<node id="-863208" lat="63.2675388927" lon="9.39074721465">
		<tag k="name" v="Midtvatnet" />
		<tag k="natural" v="water" />
		<tag k="ssr:stedsnr" v="316001" />
	</node>
	<node id="-863740" lat="63.4017944474" lon="9.9328388825">
		<tag k="name" v="Merkesbekken" />
		<tag k="ssr:stedsnr" v="377391" />
		<tag k="waterway" v="stream" />
	</node>
	<node id="-863198" lat="63.3243888909" lon="9.80980556148">
		<tag k="name" v="Reitlibekken" />
		<tag k="ssr:stedsnr" v="640190" />
		<tag k="waterway" v="stream" />
	</node>
	<node id="-861148" lat="63.3821055569" lon="9.74616667473">
		<tag k="alt_name" v="Kringslothaugbekken" />
		<tag k="name" v="Kattuglbekken" />
		<tag k="ssr:stedsnr" v="680420" />
		<tag k="waterway" v="stream" />
	</node>
	<node id="-861690" lat="63.3453750016" lon="9.79836111839">
		<tag k="name" v="Gorvatnet" />
		<tag k="natural" v="water" />
		<tag k="ssr:stedsnr" v="13522" />
	</node>
	<node id="-863191" lat="63.1961472187" lon="9.87962223038">
		<tag k="name" v="Austlitjønna" />
		<tag k="natural" v="water" />
		<tag k="ssr:stedsnr" v="12176" />
	</node>
	<node id="-861140" lat="63.2123555532" lon="9.38986389766">
		<tag k="name" v="Holmsundet" />
		<tag k="natural" v="strait" />
		<tag k="ssr:stedsnr" v="647765" />
	</node>
	<node id="-863179" lat="63.2515083343" lon="9.86747778458">
		<tag k="name" v="Kardustjønna" />
		<tag k="natural" v="water" />
		<tag k="ssr:stedsnr" v="823252" />
	</node>
	<node id="-863174" lat="63.2610777774" lon="9.82750000653">
		<tag k="name" v="Jamtåsbekken" />
		<tag k="ssr:stedsnr" v="276328" />
		<tag k="waterway" v="stream" />
	</node>
	<node id="-863173" lat="63.350047219" lon="9.87649445331">
		<tag k="name" v="Styggdalsbekken" />
		<tag k="ssr:stedsnr" v="579446" />
		<tag k="waterway" v="stream" />
	</node>
	<node id="-861123" lat="63.2108749958" lon="9.77778888467">
		<tag k="name" v="Øran" />
		<tag k="place" v="islet" />
		<tag k="ssr:stedsnr" v="497190" />
	</node>
	<node id="-861115" lat="63.2184249987" lon="9.42899444804">
		<tag k="name" v="Kvernbekken" />
		<tag k="ssr:stedsnr" v="830748" />
		<tag k="waterway" v="stream" />
	</node>
	<node id="-863160" lat="63.3183777769" lon="9.88522778574">
		<tag k="name" v="Kamsbekken" />
		<tag k="ssr:stedsnr" v="216442" />
		<tag k="waterway" v="stream" />
	</node>
	<node id="-861105" lat="63.1879638861" lon="9.55545277036">
		<tag k="name" v="Litlholmen" />
		<tag k="place" v="islet" />
		<tag k="ssr:stedsnr" v="702800" />
	</node>
	<node id="-863152" lat="63.2366516346" lon="9.51029161892">
		<tag k="name" v="Fremmer Svorksjøen" />
		<tag k="natural" v="water" />
		<tag k="ssr:stedsnr" v="419578" />
		<tag k="water" v="lake" />
	</node>
	<node id="-861099" lat="63.1849861126" lon="9.62432500033">
		<tag k="name" v="Lysingmotjønna" />
		<tag k="natural" v="water" />
		<tag k="ssr:stedsnr" v="316642" />
	</node>
	<node id="-861095" lat="63.294027778" lon="9.56577222761">
		<tag k="alt_name" v="Bakktjønna" />
		<tag k="name" v="Baktjønna" />
		<tag k="natural" v="water" />
		<tag k="ssr:stedsnr" v="438215" />
	</node>
	<node id="-863140" lat="63.2615138904" lon="9.79307778389">
		<tag k="name" v="Solhuskjela" />
		<tag k="natural" v="water" />
		<tag k="ssr:stedsnr" v="34069" />
		<tag k="water" v="lake" />
	</node>
	<node id="-861090" lat="63.2919861101" lon="9.91637499643">
		<tag k="name" v="Seljbekken" />
		<tag k="ssr:stedsnr" v="823448" />
		<tag k="waterway" v="stream" />
	</node>
	<node id="-863135" lat="63.3185000008" lon="9.77613889725">
		<tag k="name" v="Skorva" />
		<tag k="ssr:stedsnr" v="802294" />
		<tag k="waterway" v="stream" />
	</node>
	<node id="-863133" lat="63.3593555548" lon="9.80087221906">
		<tag k="name" v="Oksholet" />
		<tag k="natural" v="water" />
		<tag k="ssr:stedsnr" v="640144" />
	</node>
	<node id="-861082" lat="63.3183805575" lon="9.56447777034">
		<tag k="name" v="Svarttjønna" />
		<tag k="natural" v="water" />
		<tag k="ssr:stedsnr" v="95971" />
	</node>
	<node id="-863127" lat="63.1712583297" lon="9.84798332573">
		<tag k="name" v="Liavatnet" />
		<tag k="natural" v="water" />
		<tag k="ssr:stedsnr" v="254121" />
	</node>
	<node id="-863126" lat="63.2072583295" lon="9.67174999873">
		<tag k="name" v="Røsvatnet" />
		<tag k="natural" v="water" />
		<tag k="ssr:stedsnr" v="194574" />
	</node>
	<node id="-863123" lat="63.2760472214" lon="9.59551945195">
		<tag k="name" v="Skotthaugbekken" />
		<tag k="ssr:stedsnr" v="945963" />
		<tag k="waterway" v="stream" />
	</node>
	<node id="-861072" lat="63.341819447" lon="9.86739722788">
		<tag k="name" v="Tverrbekken" />
		<tag k="ssr:stedsnr" v="883526" />
		<tag k="waterway" v="stream" />
	</node>
	<node id="-861066" lat="63.3722555541" lon="9.83150832996">
		<tag k="name" v="Fjellbotn" />
		<tag k="natural" v="water" />
		<tag k="ssr:stedsnr" v="579678" />
	</node>
	<node id="-861058" lat="63.1550861091" lon="9.82518333867">
		<tag k="fixme" v="multiple name tags, choose one and add the other to alt_name" />
		<tag k="name" v="Sprangtjønna;Sprangtjønnin" />
		<tag k="natural" v="water" />
		<tag k="ssr:stedsnr" v="316131" />
	</node>
	<node id="-861056" lat="63.3980388921" lon="9.90619722325">
		<tag k="name" v="Innerbekktjønna" />
		<tag k="natural" v="water" />
		<tag k="ssr:stedsnr" v="802452" />
	</node>
	<node id="-861054" lat="63.181619443" lon="9.86819443564">
		<tag k="name" v="Mjovassbekken" />
		<tag k="ssr:stedsnr" v="155329" />
		<tag k="waterway" v="stream" />
	</node>
	<node id="-863101" lat="63.2669777768" lon="9.88452777243">
		<tag k="alt_name" v="Håmanntjønna" />
		<tag k="name" v="Håmånntjønna" />
		<tag k="natural" v="water" />
		<tag k="ssr:stedsnr" v="680787" />
	</node>
	<node id="-861052" lat="63.2407527739" lon="9.58695555403">
		<tag k="name" v="Selmobekken" />
		<tag k="ssr:stedsnr" v="702779" />
		<tag k="waterway" v="stream" />
	</node>
	<node id="-863097" lat="63.324502778" lon="9.56644444975">
		<tag k="name" v="Båtvika" />
		<tag k="natural" v="bay" />
		<tag k="ssr:stedsnr" v="945979" />
	</node>
	<node id="-863090" lat="63.2176166673" lon="9.46908056346">
		<tag k="name" v="Ytter Hyllbekken" />
		<tag k="ssr:stedsnr" v="603735" />
		<tag k="waterway" v="stream" />
	</node>
	<node id="-863089" lat="63.2308777734" lon="9.75824999898">
		<tag k="name" v="Byakjela" />
		<tag k="natural" v="water" />
		<tag k="ssr:stedsnr" v="679214" />
	</node>
	<node id="-863088" lat="63.1974305599" lon="9.42609722622">
		<tag k="name" v="Stuggudalstjønnin" />
		<tag k="natural" v="water" />
		<tag k="ssr:stedsnr" v="194565" />
	</node>
	<node id="-861039" lat="63.2482944429" lon="9.70316666909">
		<tag k="alt_name" v="Sika" />
		<tag k="name" v="Siken" />
		<tag k="place" v="locality" />
		<tag k="ssr:stedsnr" v="619616" />
	</node>
	<node id="-861033" lat="63.3365027745" lon="9.82330556376">
		<tag k="fixme" v="multiple name tags, choose one and add the other to alt_name" />
		<tag k="name" v="Rovsdammen;Rovstjønna" />
		<tag k="natural" v="water" />
		<tag k="ssr:stedsnr" v="256430" />
	</node>
	<node id="-861032" lat="63.3602555535" lon="9.85055832777">
		<tag k="name" v="Vuddulen" />
		<tag k="ssr:stedsnr" v="640398" />
		<tag k="waterway" v="stream" />
	</node>
	<node id="-861031" lat="63.3905833319" lon="9.88282778552">
		<tag k="name" v="Rabboltjønnin" />
		<tag k="natural" v="water" />
		<tag k="ssr:stedsnr" v="680417" />
	</node>
	<node id="-861029" lat="63.3784749984" lon="9.88971388721">
		<tag k="name" v="Aundalsbekken" />
		<tag k="ssr:stedsnr" v="377412" />
		<tag k="waterway" v="stream" />
	</node>
	<node id="-863075" lat="63.2766309469" lon="9.70164382272">
		<tag k="name" v="Tjønnlitjønna" />
		<tag k="natural" v="water" />
		<tag k="ssr:stedsnr" v="945975" />
	</node>
	<node id="-863074" lat="63.3696611071" lon="9.67296667296">
		<tag k="name" v="Sundagsslættbekken" />
		<tag k="ssr:stedsnr" v="34890" />
		<tag k="waterway" v="stream" />
	</node>
	<node id="-863072" lat="63.3597583333" lon="9.83171388337">
		<tag k="name" v="Mosfossen" />
		<tag k="natural" v="waterfall" />
		<tag k="ssr:stedsnr" v="579422" />
	</node>
	<node id="-863070" lat="63.3126444489" lon="9.80160277781">
		<tag k="name" v="Skjenaldbekken" />
		<tag k="ssr:stedsnr" v="398234" />
		<tag k="waterway" v="stream" />
	</node>
	<node id="-863066" lat="63.3066055576" lon="9.7652083394">
		<tag k="name" v="Bakbubekken" />
		<tag k="ssr:stedsnr" v="944217" />
		<tag k="waterway" v="stream" />
	</node>
	<node id="-861012" lat="63.320916671" lon="9.75531944585">
		<tag k="name" v="Våmyrbekken" />
		<tag k="ssr:stedsnr" v="94232" />
		<tag k="waterway" v="stream" />
	</node>
	<node id="-861011" lat="63.3835194403" lon="9.82776943961">
		<tag k="name" v="Fjelltjønnbekken" />
		<tag k="ssr:stedsnr" v="337661" />
		<tag k="waterway" v="stream" />
	</node>
	<node id="-863057" lat="63.1900888909" lon="9.60889166436">
		<tag k="name" v="Lysbotntjønna" />
		<tag k="natural" v="water" />
		<tag k="ssr:stedsnr" v="194561" />
	</node>
	<node id="-863055" lat="63.2834222241" lon="9.68574166594">
		<tag k="name" v="Vollavika" />
		<tag k="natural" v="bay" />
		<tag k="ssr:stedsnr" v="802278" />
	</node>
	<node id="-861006" lat="63.3022055587" lon="9.74968610273">
		<tag k="name" v="Skjenaldelva" />
		<tag k="ssr:stedsnr" v="13368" />
		<tag k="waterway" v="river" />
	</node>
	<node id="-861005" lat="63.2335465696" lon="9.49771996849">
		<tag k="name" v="Svorksjøan" />
		<tag k="natural" v="water" />
		<tag k="ssr:stedsnr" v="619611" />
		<tag k="water" v="lake" />
	</node>
	<node id="-863052" lat="63.224311109" lon="9.60837777025">
		<tag k="name" v="Bjørbekken" />
		<tag k="ssr:stedsnr" v="497558" />
		<tag k="waterway" v="stream" />
	</node>
	<node id="-863051" lat="63.3901027803" lon="9.93434167278">
		<tag k="name" v="Sagbekken" />
		<tag k="ssr:stedsnr" v="559359" />
		<tag k="waterway" v="stream" />
	</node>
	<node id="-863049" lat="63.2311388874" lon="9.38663610769">
		<tag k="name" v="Krokbekken" />
		<tag k="ssr:stedsnr" v="586753" />
		<tag k="waterway" v="stream" />
	</node>
	<node id="-863043" lat="63.3104888851" lon="9.76458610222">
		<tag k="name" v="Litlbekken" />
		<tag k="ssr:stedsnr" v="883248" />
		<tag k="waterway" v="stream" />
	</node>
	<node id="-863037" lat="63.1880805593" lon="9.48474444494">
		<tag k="name" v="Lomunda" />
		<tag k="ssr:stedsnr" v="95691" />
		<tag k="waterway" v="stream" />
	</node>
	<node id="-860988" lat="63.2724000029" lon="9.56420278382">
		<tag k="name" v="Meldalsbekken" />
		<tag k="ssr:stedsnr" v="762765" />
		<tag k="waterway" v="stream" />
	</node>
	<node id="-863022" lat="63.3568444415" lon="9.63796945066">
		<tag k="name" v="Jamtgardsbekken" />
		<tag k="ssr:stedsnr" v="34881" />
		<tag k="waterway" v="stream" />
	</node>
	<node id="-863020" lat="63.2700944472" lon="9.69388054868">
		<tag k="name" v="Munktjønna" />
		<tag k="natural" v="water" />
		<tag k="ssr:stedsnr" v="156796" />
	</node>
	<node id="-863708" lat="63.3666500011" lon="9.78685832497">
		<tag k="name" v="Midtre Merratjønna" />
		<tag k="natural" v="water" />
		<tag k="ssr:stedsnr" v="217477" />
	</node>
	<node id="-863012" lat="63.2201472234" lon="9.41463611603">
		<tag k="name" v="Svartholodden" />
		<tag k="natural" v="cape" />
		<tag k="ssr:stedsnr" v="283707" />
	</node>
	<node id="-863008" lat="63.2450694449" lon="9.35522499731">
		<tag k="name" v="Furuodden" />
		<tag k="natural" v="cape" />
		<tag k="ssr:stedsnr" v="830502" />
	</node>
	<node id="-861316" lat="63.2391750014" lon="9.40119167171">
		<tag k="name" v="Kjerringbekken" />
		<tag k="ssr:stedsnr" v="922557" />
		<tag k="waterway" v="stream" />
	</node>
	<node id="-862976" lat="63.2930888904" lon="9.72711111243">
		<tag k="name" v="Skjenaldfossen" />
		<tag k="natural" v="waterfall" />
		<tag k="ssr:stedsnr" v="823192" />
	</node>
	<node id="-862971" lat="63.2330138885" lon="9.72806665909">
		<tag k="name" v="Lefstobekken" />
		<tag k="ssr:stedsnr" v="640099" />
		<tag k="waterway" v="stream" />
	</node>
	<node id="-862969" lat="63.2239222267" lon="9.55228610812">
		<tag k="name" v="Eggatjønna" />
		<tag k="natural" v="water" />
		<tag k="ssr:stedsnr" v="862562" />
	</node>
	<node id="-862966" lat="63.3016222195" lon="9.55099723212">
		<tag k="alt_name" v="Våda, indre;Inner Våddåa" />
		<tag k="name" v="Indre Våda" />
		<tag k="ssr:stedsnr" v="680236" />
		<tag k="waterway" v="stream" />
	</node>
	<node id="-862962" lat="63.1699944401" lon="9.6422888892">
		<tag k="name" v="Ela" />
		<tag k="ssr:stedsnr" v="73529" />
		<tag k="waterway" v="stream" />
	</node>
	<node id="-862958" lat="63.2667861125" lon="9.55251667665">
		<tag k="name" v="Grindbekken" />
		<tag k="ssr:stedsnr" v="156777" />
		<tag k="waterway" v="stream" />
	</node>
	<node id="-862957" lat="63.3072222264" lon="9.79870278193">
		<tag k="name" v="Sagøybekken" />
		<tag k="ssr:stedsnr" v="398189" />
		<tag k="waterway" v="stream" />
	</node>
	<node id="-862955" lat="63.3548777745" lon="9.60500000983">
		<tag k="name" v="Yttertjønna" />
		<tag k="natural" v="water" />
		<tag k="ssr:stedsnr" v="945912" />
	</node>
	<node id="-863015" lat="63.3770027744" lon="9.86912778511">
		<tag k="name" v="Sagfossen" />
		<tag k="natural" v="waterfall" />
		<tag k="ssr:stedsnr" v="316479" />
	</node>
	<node id="-861308" lat="63.3836805598" lon="9.81339166903">
		<tag k="name" v="Tuvtjønna" />
		<tag k="natural" v="water" />
		<tag k="ssr:stedsnr" v="802485" />
	</node>
	<node id="-862943" lat="63.1552527803" lon="9.86971110637">
		<tag k="name" v="Kjesgårdstjønna" />
		<tag k="natural" v="water" />
		<tag k="ssr:stedsnr" v="460466" />
	</node>
	<node id="-862937" lat="63.2279333333" lon="9.69534999319">
		<tag k="name" v="Mjovatnet" />
		<tag k="natural" v="water" />
		<tag k="ssr:stedsnr" v="862557" />
	</node>
	<node id="-862934" lat="63.1874250011" lon="9.87466111494">
		<tag k="name" v="Kattjørna" />
		<tag k="natural" v="water" />
		<tag k="ssr:stedsnr" v="579378" />
	</node>
	<node id="-862931" lat="63.3650888929" lon="9.79589444972">
		<tag k="name" v="Litltjønna" />
		<tag k="natural" v="water" />
		<tag k="ssr:stedsnr" v="944150" />
	</node>
	<node id="-862930" lat="63.2878416652" lon="9.4892638981">
		<tag k="name" v="Bergholtjønna" />
		<tag k="natural" v="water" />
		<tag k="ssr:stedsnr" v="256246" />
	</node>
	<node id="-861645" lat="63.4277194431" lon="9.96892500823">
		<tag k="name" v="Steindalsbekken" />
		<tag k="ssr:stedsnr" v="883790" />
		<tag k="waterway" v="stream" />
	</node>
	<node id="-862921" lat="63.1627722179" lon="9.84090000627">
		<tag k="name" v="Rørtjønnbekken" />
		<tag k="ssr:stedsnr" v="35727" />
		<tag k="waterway" v="stream" />
	</node>
	<node id="-862920" lat="63.2031361117" lon="9.86635277606">
		<tag k="name" v="Gjøta" />
		<tag k="ssr:stedsnr" v="255196" />
		<tag k="waterway" v="stream" />
	</node>
	<node id="-862918" lat="63.2279777737" lon="9.65665832478">
		<tag k="name" v="Vasslibekken" />
		<tag k="ssr:stedsnr" v="34845" />
		<tag k="waterway" v="stream" />
	</node>
	<node id="-862912" lat="63.4206305571" lon="9.91512778752">
		<tag k="name" v="Vingelskardsbekken" />
		<tag k="ssr:stedsnr" v="458709" />
		<tag k="waterway" v="stream" />
	</node>
	<node id="-862902" lat="63.1539826022" lon="9.83881021372">
		<tag k="name" v="Langkjøstjønnin" />
		<tag k="natural" v="water" />
		<tag k="ssr:stedsnr" v="12130" />
	</node>
	<node id="-862898" lat="63.2343944488" lon="9.65949999233">
		<tag k="name" v="Gjøsjøen" />
		<tag k="natural" v="water" />
		<tag k="ssr:stedsnr" v="194539" />
	</node>
	<node id="-862896" lat="63.3303500037" lon="9.82428610336">
		<tag k="name" v="Reitlibekken" />
		<tag k="ssr:stedsnr" v="519429" />
		<tag k="waterway" v="stream" />
	</node>
	<node id="-862885" lat="63.3377527759" lon="9.82547778166">
		<tag k="name" v="Rokollmyrbekken" />
		<tag k="ssr:stedsnr" v="216377" />
		<tag k="waterway" v="stream" />
	</node>
	<node id="-862876" lat="63.2404972249" lon="9.71425555566">
		<tag k="name" v="Kvålssæterbekken" />
		<tag k="ssr:stedsnr" v="640102" />
		<tag k="waterway" v="stream" />
	</node>
	<node id="-862850" lat="63.3501388932" lon="9.79088889183">
		<tag k="name" v="Kjekkeløya" />
		<tag k="place" v="island" />
		<tag k="ssr:stedsnr" v="823128" />
	</node>
	<node id="-862849" lat="63.251124996" lon="9.73150832712">
		<tag k="name" v="Kernbekken" />
		<tag k="ssr:stedsnr" v="640064" />
		<tag k="waterway" v="stream" />
	</node>
	<node id="-862845" lat="63.2987805519" lon="9.6682750063">
		<tag k="name" v="Songa" />
		<tag k="ssr:stedsnr" v="134239" />
		<tag k="waterway" v="river" />
	</node>
	<node id="-862842" lat="63.3257277786" lon="9.59881944316">
		<tag k="name" v="Tjønnliholtjønna" />
		<tag k="natural" v="water" />
		<tag k="ssr:stedsnr" v="13171" />
	</node>
	<node id="-862824" lat="63.2246499972" lon="9.70442500048">
		<tag k="name" v="Byavatnet" />
		<tag k="natural" v="water" />
		<tag k="ssr:stedsnr" v="862555" />
	</node>
	<node id="-862817" lat="63.3115027739" lon="9.60269723131">
		<tag k="name" v="Klokkarbekken" />
		<tag k="ssr:stedsnr" v="823990" />
		<tag k="waterway" v="stream" />
	</node>
	<node id="-862813" lat="63.3123361111" lon="9.64115277543">
		<tag k="name" v="Sørja" />
		<tag k="ssr:stedsnr" v="823989" />
		<tag k="waterway" v="stream" />
	</node>
	<node id="-862805" lat="63.2233999968" lon="9.49758611223">
		<tag k="name" v="Fremmer Hyllbekken" />
		<tag k="ssr:stedsnr" v="965588" />
		<tag k="waterway" v="stream" />
	</node>
	<node id="-862803" lat="63.3723444436" lon="9.76649167157">
		<tag k="name" v="Lomtjønna" />
		<tag k="natural" v="water" />
		<tag k="ssr:stedsnr" v="823140" />
	</node>
	<node id="-862802" lat="63.2496694461" lon="9.82982222658">
		<tag k="name" v="Sveeggbekken" />
		<tag k="ssr:stedsnr" v="579335" />
		<tag k="waterway" v="stream" />
	</node>
	<node id="-862794" lat="63.2214638891" lon="9.68455277352">
		<tag k="name" v="Hiråstjønna" />
		<tag k="natural" v="water" />
		<tag k="ssr:stedsnr" v="194519" />
	</node>
	<node id="-862789" lat="63.2090638876" lon="9.89922499316">
		<tag k="alt_name" v="Gjøtavatnet" />
		<tag k="name" v="Gjøtvatnet" />
		<tag k="natural" v="water" />
		<tag k="ssr:stedsnr" v="680220" />
	</node>
	<node id="-861279" lat="63.2259222247" lon="9.41318888376">
		<tag k="name" v="Langnesbukta" />
		<tag k="natural" v="bay" />
		<tag k="ssr:stedsnr" v="465723" />
	</node>
	<node id="-862772" lat="63.3477222264" lon="9.71466111917">
		<tag k="name" v="Bjørndalsbukta" />
		<tag k="natural" v="bay" />
		<tag k="ssr:stedsnr" v="883169" />
	</node>
	<node id="-862759" lat="63.1882888902" lon="9.49232778545">
		<tag k="name" v="Styggdalsbekken" />
		<tag k="ssr:stedsnr" v="156705" />
		<tag k="waterway" v="stream" />
	</node>
	<node id="-862750" lat="63.2441166706" lon="9.86557223102">
		<tag k="name" v="Gorrtjønna" />
		<tag k="natural" v="water" />
		<tag k="ssr:stedsnr" v="923359" />
	</node>
	<node id="-862742" lat="63.3025277756" lon="9.6003888864">
		<tag k="name" v="Gjønnesbekken" />
		<tag k="ssr:stedsnr" v="398991" />
		<tag k="waterway" v="stream" />
	</node>
	<node id="-862734" lat="63.1916444446" lon="9.61454721531">
		<tag k="name" v="Kalvhåggåtjønna" />
		<tag k="natural" v="water" />
		<tag k="ssr:stedsnr" v="34802" />
	</node>
	<node id="-862717" lat="63.2746083364" lon="9.60048889739">
		<tag k="name" v="Doro" />
		<tag k="ssr:stedsnr" v="558247" />
		<tag k="waterway" v="stream" />
	</node>
	<node id="-862715" lat="63.3686555586" lon="9.80796945263">
		<tag k="name" v="Reinvasstjønna" />
		<tag k="natural" v="water" />
		<tag k="ssr:stedsnr" v="398137" />
	</node>
	<node id="-861608" lat="63.2463666637" lon="9.67721111729">
		<tag k="name" v="Sagbekken" />
		<tag k="ssr:stedsnr" v="520786" />
		<tag k="waterway" v="stream" />
	</node>
	<node id="-862691" lat="63.384438886" lon="9.80559444046">
		<tag k="name" v="Tuvtjønna" />
		<tag k="natural" v="water" />
		<tag k="ssr:stedsnr" v="216331" />
	</node>
	<node id="-862684" lat="63.2322472178" lon="9.68874722682">
		<tag k="name" v="Litltjønnbekken" />
		<tag k="ssr:stedsnr" v="641740" />
		<tag k="waterway" v="stream" />
	</node>
	<node id="-862681" lat="63.3348083304" lon="9.60643054839">
		<tag k="name" v="Åmotbukta" />
		<tag k="natural" v="bay" />
		<tag k="ssr:stedsnr" v="398978" />
	</node>
	<node id="-862678" lat="63.2582527821" lon="9.68261665831">
		<tag k="alt_name" v="Ikorntjønna" />
		<tag k="name" v="Ekorntjønna" />
		<tag k="natural" v="water" />
		<tag k="ssr:stedsnr" v="498020" />
	</node>
	<node id="-862673" lat="63.1762999967" lon="9.8709527733">
		<tag k="name" v="Mjovatnet" />
		<tag k="natural" v="water" />
		<tag k="ssr:stedsnr" v="801145" />
	</node>
	<node id="-862669" lat="63.2237611068" lon="9.46219721251">
		<tag k="name" v="Sagbekken" />
		<tag k="ssr:stedsnr" v="404709" />
		<tag k="waterway" v="stream" />
	</node>
	<node id="-862663" lat="63.2513249998" lon="9.77275833284">
		<tag k="name" v="Leirbekken" />
		<tag k="ssr:stedsnr" v="823071" />
		<tag k="waterway" v="stream" />
	</node>
	<node id="-862658" lat="63.409680554" lon="9.87761112066">
		<tag k="name" v="Grandalsbekken" />
		<tag k="ssr:stedsnr" v="94738" />
		<tag k="waterway" v="stream" />
	</node>
	<node id="-862645" lat="63.1488500024" lon="9.87300832693">
		<tag k="alt_name" v="Langkjøsvatnet" />
		<tag k="name" v="Langkjøsa" />
		<tag k="natural" v="water" />
		<tag k="ssr:stedsnr" v="557099" />
	</node>
	<node id="-862630" lat="63.3214611156" lon="9.55356389775">
		<tag k="name" v="Båtvikodden" />
		<tag k="natural" v="cape" />
		<tag k="ssr:stedsnr" v="398961" />
	</node>
	<node id="-862622" lat="63.3262777739" lon="9.71250555922">
		<tag k="name" v="Bjørkøybekken" />
		<tag k="ssr:stedsnr" v="883143" />
		<tag k="waterway" v="stream" />
	</node>
	<node id="-862615" lat="63.2888694466" lon="9.65291388256">
		<tag k="name" v="Mjøldalsbekken" />
		<tag k="ssr:stedsnr" v="823929" />
		<tag k="waterway" v="stream" />
	</node>
	<node id="-862602" lat="63.16370278" lon="9.77615000967">
		<tag k="name" v="Sprangbekken" />
		<tag k="ssr:stedsnr" v="581840" />
		<tag k="waterway" v="stream" />
	</node>
	<node id="-862596" lat="63.2256500015" lon="9.67747222399">
		<tag k="name" v="Småtjønnin" />
		<tag k="natural" v="water" />
		<tag k="ssr:stedsnr" v="277879" />
	</node>
	<node id="-862595" lat="63.3858138869" lon="9.92083332892">
		<tag k="name" v="Sæterholmen" />
		<tag k="natural" v="water" />
		<tag k="ssr:stedsnr" v="94710" />
	</node>
	<node id="-862573" lat="63.3333222185" lon="9.82721111851">
		<tag k="name" v="Gammeldammen" />
		<tag k="natural" v="water" />
		<tag k="ssr:stedsnr" v="701478" />
		<tag k="water" v="lake" />
	</node>
	<node id="-862951" lat="63.3190388912" lon="9.79825000912">
		<tag k="name" v="Rønningsbekken" />
		<tag k="ssr:stedsnr" v="823159" />
		<tag k="waterway" v="stream" />
	</node>
	<node id="-862563" lat="63.1476916688" lon="9.86765833347">
		<tag k="name" v="Djuposen" />
		<tag k="natural" v="bay" />
		<tag k="ssr:stedsnr" v="885715" />
	</node>
	<node id="-862541" lat="63.249152777" lon="9.74002221469">
		<tag k="name" v="Skålholtbekken" />
		<tag k="ssr:stedsnr" v="944061" />
		<tag k="waterway" v="stream" />
	</node>
	<node id="-861239" lat="63.2466472221" lon="9.4594194357">
		<tag k="name" v="Fleskskinkøya" />
		<tag k="natural" v="cape" />
		<tag k="ssr:stedsnr" v="119583" />
	</node>
	<node id="-861049" lat="63.3526805569" lon="9.8224194505">
		<tag k="alt_name" v="Bakktjønna" />
		<tag k="name" v="Bukktjønna" />
		<tag k="natural" v="water" />
		<tag k="ssr:stedsnr" v="458140" />
	</node>
	<node id="-862531" lat="63.1703722257" lon="9.65014721934">
		<tag k="name" v="Tømra" />
		<tag k="ssr:stedsnr" v="156635" />
		<tag k="waterway" v="stream" />
	</node>
	<node id="-862529" lat="63.2417333344" lon="9.88017778112">
		<tag k="name" v="Byavassbekken" />
		<tag k="ssr:stedsnr" v="519330" />
		<tag k="waterway" v="stream" />
	</node>
	<node id="-862526" lat="63.2656305518" lon="9.54924166878">
		<tag k="name" v="Kvibekken" />
		<tag k="ssr:stedsnr" v="641682" />
		<tag k="waterway" v="stream" />
	</node>
	<node id="-861577" lat="63.1964527763" lon="9.88541110305">
		<tag k="name" v="Brattlitjønna" />
		<tag k="natural" v="water" />
		<tag k="ssr:stedsnr" v="94422" />
	</node>
	<node id="-861576" lat="63.1772527801" lon="9.78176388315">
		<tag k="name" v="Litlmobekken" />
		<tag k="ssr:stedsnr" v="581559" />
		<tag k="waterway" v="stream" />
	</node>
	<node id="-862503" lat="63.317083334" lon="9.58843888647">
		<tag k="name" v="Trondholet" />
		<tag k="place" v="locality" />
		<tag k="ssr:stedsnr" v="256176" />
	</node>
	<node id="-862498" lat="63.409094448" lon="9.94564721617">
		<tag k="name" v="Halsbekken" />
		<tag k="ssr:stedsnr" v="94688" />
		<tag k="waterway" v="stream" />
	</node>
	<node id="-862495" lat="63.2444305542" lon="9.86089166676">
		<tag k="name" v="Gorrtjønnbekken" />
		<tag k="ssr:stedsnr" v="216275" />
		<tag k="waterway" v="stream" />
	</node>
	<node id="-862482" lat="63.2212222196" lon="9.37706945018">
		<tag k="name" v="Søvatnet" />
		<tag k="natural" v="water" />
		<tag k="ssr:stedsnr" v="12584" />
		<tag k="water" v="lake" />
	</node>
	<node id="-862476" lat="63.3843999981" lon="9.73628334043">
		<tag k="name" v="Kringla" />
		<tag k="natural" v="water" />
		<tag k="ssr:stedsnr" v="498491" />
	</node>
	<node id="-862475" lat="63.2456805514" lon="9.71750277732">
		<tag k="name" v="Styggbekken" />
		<tag k="ssr:stedsnr" v="398065" />
		<tag k="waterway" v="stream" />
	</node>
	<node id="-862469" lat="63.3801416649" lon="9.86950278371">
		<tag k="name" v="Håggåøya" />
		<tag k="place" v="islet" />
		<tag k="ssr:stedsnr" v="94680" />
	</node>
	<node id="-862464" lat="63.3862305578" lon="9.94722500889">
		<tag k="name" v="Reinbekken" />
		<tag k="ssr:stedsnr" v="94671" />
		<tag k="waterway" v="stream" />
	</node>
	<node id="-861567" lat="63.3316055583" lon="9.76974444724">
		<tag k="name" v="Lomtjønna" />
		<tag k="natural" v="water" />
		<tag k="ssr:stedsnr" v="498327" />
	</node>
	<node id="-862456" lat="63.1766472238" lon="9.70147222531">
		<tag k="name" v="Røsvatnet" />
		<tag k="natural" v="water" />
		<tag k="ssr:stedsnr" v="194459" />
	</node>
	<node id="-862451" lat="63.1909388916" lon="9.46137500306">
		<tag k="name" v="Stuggudalsbekken" />
		<tag k="ssr:stedsnr" v="641692" />
		<tag k="waterway" v="stream" />
	</node>
	<node id="-862450" lat="63.2238166677" lon="9.65478332578">
		<tag k="name" v="Dambukt" />
		<tag k="natural" v="bay" />
		<tag k="ssr:stedsnr" v="884844" />
	</node>
	<node id="-862449" lat="63.3252416678" lon="9.6584444534">
		<tag k="name" v="Songsjøen" />
		<tag k="natural" v="water" />
		<tag k="ssr:stedsnr" v="802189" />
		<tag k="water" v="lake" />
	</node>
	<node id="-862447" lat="63.2624361135" lon="9.77768610321">
		<tag k="name" v="Gilbekken" />
		<tag k="ssr:stedsnr" v="944045" />
		<tag k="waterway" v="stream" />
	</node>
	<node id="-862442" lat="63.2733277814" lon="9.66101110443">
		<tag k="name" v="Raudneset" />
		<tag k="natural" v="cape" />
		<tag k="ssr:stedsnr" v="945768" />
	</node>
	<node id="-862439" lat="63.3165805543" lon="9.69223055573">
		<tag k="name" v="Rundtjønna" />
		<tag k="natural" v="water" />
		<tag k="ssr:stedsnr" v="217990" />
	</node>
	<node id="-861220" lat="63.1862333375" lon="9.55775000536">
		<tag k="name" v="Litlholmen" />
		<tag k="place" v="islet" />
		<tag k="ssr:stedsnr" v="216803" />
	</node>
	<node id="-862413" lat="63.2988888923" lon="9.78413054676">
		<tag k="name" v="Ålvatnet" />
		<tag k="natural" v="water" />
		<tag k="ssr:stedsnr" v="741388" />
	</node>
	<node id="-862403" lat="63.2611749968" lon="9.89503332439">
		<tag k="name" v="Hauka" />
		<tag k="ssr:stedsnr" v="762270" />
		<tag k="waterway" v="stream" />
	</node>
	<node id="-861216" lat="63.2324916638" lon="9.58892777504">
		<tag k="name" v="Svorka" />
		<tag k="ssr:stedsnr" v="255461" />
		<tag k="waterway" v="stream" />
	</node>
	<node id="-862395" lat="63.1518777743" lon="9.84347221575">
		<tag k="name" v="Steingruvtjønna" />
		<tag k="natural" v="water" />
		<tag k="ssr:stedsnr" v="278697" />
	</node>
	<node id="-862382" lat="63.2617861129" lon="9.68097776904">
		<tag k="name" v="Kvitstranda" />
		<tag k="natural" v="beach" />
		<tag k="ssr:stedsnr" v="277811" />
	</node>
	<node id="-862378" lat="63.2882166684" lon="9.60978888633">
		<tag k="name" v="Halsteina" />
		<tag k="ssr:stedsnr" v="338953" />
		<tag k="waterway" v="stream" />
	</node>
	<node id="-862377" lat="63.3664361072" lon="9.63473610254">
		<tag k="name" v="Klokkartjønna" />
		<tag k="natural" v="water" />
		<tag k="ssr:stedsnr" v="377130" />
	</node>
	<node id="-862374" lat="63.3955749971" lon="9.86324443457">
		<tag k="name" v="Langengelva" />
		<tag k="ssr:stedsnr" v="498457" />
		<tag k="waterway" v="river" />
	</node>
	<node id="-862372" lat="63.2436722251" lon="9.71912499033">
		<tag k="name" v="Sæterlibekken" />
		<tag k="ssr:stedsnr" v="883072" />
		<tag k="waterway" v="stream" />
	</node>
	<node id="-861552" lat="63.1606833294" lon="9.80137223057">
		<tag k="name" v="Litllomtjønna" />
		<tag k="natural" v="water" />
		<tag k="ssr:stedsnr" v="885429" />
	</node>
	<node id="-862366" lat="63.2343777795" lon="9.49453055753">
		<tag k="name" v="Bjørkøybekken" />
		<tag k="ssr:stedsnr" v="358581" />
		<tag k="waterway" v="stream" />
	</node>
	<node id="-862358" lat="63.3772138897" lon="9.93268889766">
		<tag k="name" v="Haugnesbekken" />
		<tag k="ssr:stedsnr" v="701440" />
		<tag k="waterway" v="stream" />
	</node>
	<node id="-862357" lat="63.2201111088" lon="9.3988027719">
		<tag k="name" v="Langholmen" />
		<tag k="place" v="islet" />
		<tag k="ssr:stedsnr" v="708752" />
	</node>
	<node id="-862353" lat="63.2520333339" lon="9.67808610542">
		<tag k="name" v="Høydalsbekken" />
		<tag k="ssr:stedsnr" v="945740" />
		<tag k="waterway" v="stream" />
	</node>
	<node id="-862349" lat="63.3098999972" lon="9.77401666037">
		<tag k="name" v="Dikesbekken" />
		<tag k="ssr:stedsnr" v="337209" />
		<tag k="waterway" v="stream" />
	</node>
	<node id="-862345" lat="63.3301944488" lon="9.67263889098">
		<tag k="alt_name" v="Bergslættjønna" />
		<tag k="name" v="Bergslettjønna" />
		<tag k="natural" v="water" />
		<tag k="ssr:stedsnr" v="558168" />
	</node>
	<node id="-862335" lat="63.3295444429" lon="9.60037499516">
		<tag k="name" v="Revodden" />
		<tag k="natural" v="cape" />
		<tag k="ssr:stedsnr" v="558169" />
	</node>
	<node id="-862334" lat="63.2403472256" lon="9.87312221387">
		<tag k="name" v="Munklitjønna" />
		<tag k="natural" v="water" />
		<tag k="ssr:stedsnr" v="923284" />
	</node>
	<node id="-862312" lat="63.4181277767" lon="9.90231944576">
		<tag k="alt_name" v="Bersveinelva;Bersveinselva" />
		<tag k="name" v="Bjørnbetelva" />
		<tag k="ssr:stedsnr" v="802144" />
		<tag k="waterway" v="stream" />
	</node>
	<node id="-862309" lat="63.1999333297" lon="9.55002777399">
		<tag k="name" v="Storbekken" />
		<tag k="ssr:stedsnr" v="945694" />
		<tag k="waterway" v="stream" />
	</node>
	<node id="-862300" lat="63.2469944461" lon="9.35735832776">
		<tag k="alt_name" v="Leirvatnet;Øver Leirvatnet" />
		<tag k="name" v="Øvre Leirvatnet" />
		<tag k="natural" v="water" />
		<tag k="ssr:stedsnr" v="58203" />
	</node>
	<node id="-862296" lat="63.2271500009" lon="9.36389445405">
		<tag k="name" v="Kuøra" />
		<tag k="natural" v="cape" />
		<tag k="ssr:stedsnr" v="680636" />
	</node>
	<node id="-862295" lat="63.1822083303" lon="9.86165555604">
		<tag k="name" v="Solsjøen" />
		<tag k="natural" v="water" />
		<tag k="ssr:stedsnr" v="558174" />
	</node>
	<node id="-862291" lat="63.1863388884" lon="9.56603333195">
		<tag k="name" v="Hostovatnet" />
		<tag k="natural" v="water" />
		<tag k="ssr:stedsnr" v="255620" />
		<tag k="water" v="lake" />
	</node>
	<node id="-862289" lat="63.2381555597" lon="9.46808055863">
		<tag k="name" v="Hundsåa" />
		<tag k="ssr:stedsnr" v="376596" />
		<tag k="waterway" v="river" />
	</node>
	<node id="-862281" lat="63.2212583367" lon="9.62081944052">
		<tag k="name" v="Maligardsbekken" />
		<tag k="ssr:stedsnr" v="398848" />
		<tag k="waterway" v="stream" />
	</node>
	<node id="-862279" lat="63.3922305601" lon="9.73042499387">
		<tag k="name" v="Kringlåtbekken" />
		<tag k="ssr:stedsnr" v="691718" />
		<tag k="waterway" v="stream" />
	</node>
	<node id="-862273" lat="63.214433336" lon="9.43951388552">
		<tag k="name" v="Rørtjønna" />
		<tag k="natural" v="water" />
		<tag k="ssr:stedsnr" v="801608" />
	</node>
	<node id="-862261" lat="63.2903111113" lon="9.5904472212">
		<tag k="name" v="Hyllbekken" />
		<tag k="ssr:stedsnr" v="559211" />
		<tag k="waterway" v="stream" />
	</node>
	<node id="-862260" lat="63.2209583318" lon="9.76974722715">
		<tag k="name" v="Tonga" />
		<tag k="ssr:stedsnr" v="217927" />
		<tag k="waterway" v="drain" />
	</node>
	<node id="-861534" lat="63.2533166625" lon="9.69723611822">
		<tag k="alt_name" v="Gorrtjønna" />
		<tag k="name" v="Gørtjønna" />
		<tag k="natural" v="water" />
		<tag k="ssr:stedsnr" v="802031" />
	</node>
	<node id="-862257" lat="63.3253916693" lon="9.72963611834">
		<tag k="name" v="Skjenaldsæterbekken" />
		<tag k="ssr:stedsnr" v="337189" />
		<tag k="waterway" v="stream" />
	</node>
	<node id="-862246" lat="63.3285666688" lon="9.71923334295">
		<tag k="name" v="Ellingsgardsbukta" />
		<tag k="natural" v="bay" />
		<tag k="ssr:stedsnr" v="337188" />
	</node>
	<node id="-862245" lat="63.2855166679" lon="9.5971638848">
		<tag k="name" v="Grønhaugbekken" />
		<tag k="ssr:stedsnr" v="520971" />
		<tag k="waterway" v="stream" />
	</node>
	<node id="-862244" lat="63.3014805553" lon="9.72470832693">
		<tag k="name" v="Storbekken" />
		<tag k="ssr:stedsnr" v="316338" />
		<tag k="waterway" v="stream" />
	</node>
	<node id="-862240" lat="63.4350166669" lon="9.93369443603">
		<tag k="name" v="Aunbekken" />
		<tag k="ssr:stedsnr" v="640711" />
		<tag k="waterway" v="stream" />
	</node>
	<node id="-862238" lat="63.379772221" lon="9.68393888537">
		<tag k="name" v="Grytdalselva" />
		<tag k="ssr:stedsnr" v="741878" />
		<tag k="waterway" v="river" />
	</node>
	<node id="-862232" lat="63.1602833312" lon="9.85621667219">
		<tag k="name" v="Litl-Movatnet" />
		<tag k="natural" v="water" />
		<tag k="ssr:stedsnr" v="824692" />
	</node>
	<node id="-862226" lat="63.2648472196" lon="9.75536110991">
		<tag k="name" v="Slettaunbekken" />
		<tag k="ssr:stedsnr" v="276009" />
		<tag k="waterway" v="stream" />
	</node>
	<node id="-862218" lat="63.2414444451" lon="9.64878610894">
		<tag k="name" v="Svorkåstjønna" />
		<tag k="natural" v="water" />
		<tag k="ssr:stedsnr" v="277753" />
	</node>
	<node id="-862215" lat="63.3753166642" lon="9.8238555509">
		<tag k="fixme" v="multiple name tags, choose one and add the other to alt_name" />
		<tag k="name" v="Fjelltjønna;Øvre Fjelltjønna" />
		<tag k="natural" v="water" />
		<tag k="ssr:stedsnr" v="95436" />
	</node>
</osm>
