<?xml version="1.0" encoding="UTF-8"?>
<osm generator="osmapis" version="0.6">
	<node id="-861821" lat="63.4164305576" lon="9.96718333433">
		<tag k="name" v="Kjørabukta" />
		<tag k="natural" v="bay" />
		<tag k="ssr:stedsnr" v="276774" />
	</node>
	<node id="-863863" lat="63.4039805514" lon="9.96299721301">
		<tag k="name" v="Skjertåa" />
		<tag k="natural" v="cape" />
		<tag k="ssr:stedsnr" v="519695" />
	</node>
	<node id="-861429" lat="63.3080416683" lon="9.84464444626">
		<tag k="name" v="Bryggdalen" />
		<tag k="natural" v="beach" />
		<tag k="place" v="locality" />
		<tag k="ssr:stedsnr" v="33537" />
	</node>
	<node id="-861300" lat="63.3803638916" lon="9.9452305501">
		<tag k="name" v="Leirskallen" />
		<tag k="natural" v="cape" />
		<tag k="ssr:stedsnr" v="802484" />
	</node>
	<node id="-861422" lat="63.3095222187" lon="9.84672778419">
		<tag k="name" v="Pynten" />
		<tag k="natural" v="beach" />
		<tag k="place" v="locality" />
		<tag k="ssr:stedsnr" v="155427" />
	</node>
	<node id="-861164" lat="63.327280554" lon="9.83691388047">
		<tag k="name" v="Neset" />
		<tag k="natural" v="cape" />
		<tag k="ssr:stedsnr" v="944467" />
	</node>
	<node id="-863081" lat="63.3511833291" lon="9.90882499619">
		<tag k="fixme" v="multiple name tags, choose one and add the other to alt_name" />
		<tag k="name" v="Åstantåa;Åstnebben" />
		<tag k="natural" v="cape" />
		<tag k="ssr:stedsnr" v="337434" />
	</node>
	<node id="-862308" lat="63.3130749982" lon="9.82682777061">
		<tag k="name" v="Gjølmesøran" />
		<tag k="natural" v="beach" />
		<tag k="place" v="locality" />
		<tag k="ssr:stedsnr" v="605018" />
	</node>
	<node id="-861282" lat="63.3369999997" lon="9.86259166856">
		<tag k="alt_name" v="Munkspranget" />
		<tag k="name" v="Munksprangberget" />
		<tag k="natural" v="cape" />
		<tag k="ssr:stedsnr" v="640450" />
	</node>
	<node id="-862046" lat="63.4313055598" lon="9.97386110215">
		<tag k="name" v="Rovika" />
		<tag k="natural" v="bay" />
		<tag k="ssr:stedsnr" v="944748" />
	</node>
	<node id="-863844" lat="63.4126638853" lon="9.96466944064">
		<tag k="name" v="Gammelnaustbukta" />
		<tag k="natural" v="bay" />
		<tag k="ssr:stedsnr" v="762679" />
	</node>
	<node id="-861782" lat="63.4066833338" lon="9.9622750037">
		<tag k="name" v="Halsbukta" />
		<tag k="natural" v="bay" />
		<tag k="ssr:stedsnr" v="883745" />
	</node>
	<node id="-863186" lat="63.3121666698" lon="9.84951944376">
		<tag k="name" v="Fallet" />
		<tag k="natural" v="beach" />
		<tag k="place" v="locality" />
		<tag k="ssr:stedsnr" v="337453" />
	</node>
	<node id="-861897" lat="63.4427638919" lon="9.97673611411">
		<tag k="name" v="Geitaneset" />
		<tag k="natural" v="cape" />
		<tag k="ssr:stedsnr" v="256075" />
	</node>
	<node id="-863688" lat="63.4477777787" lon="9.95228332574">
		<tag k="alt_name" v="Månskinsvika" />
		<tag k="name" v="Måneskinsvika" />
		<tag k="natural" v="bay" />
		<tag k="old_name" v="Måneskinnsvika" />
		<tag k="ssr:stedsnr" v="316075" />
	</node>
	<node id="-861127" lat="63.3143527774" lon="9.86165834291">
		<tag k="name" v="Nærvikfjøra" />
		<tag k="natural" v="shoal" />
		<tag k="place" v="locality" />
		<tag k="ssr:stedsnr" v="944488" />
	</node>
	<node id="-861122" lat="63.3151611138" lon="9.85285555075">
		<tag k="name" v="Nebbmelen" />
		<tag k="natural" v="beach" />
		<tag k="place" v="locality" />
		<tag k="ssr:stedsnr" v="944489" />
	</node>
	<node id="-862779" lat="63.4236527812" lon="9.96943889875">
		<tag k="fixme" v="multiple name tags, choose one and add the other to alt_name" />
		<tag k="name" v="Langvika;Vikabukta" />
		<tag k="natural" v="bay" />
		<tag k="ssr:stedsnr" v="94770" />
	</node>
	<node id="-862392" lat="63.4206361097" lon="9.97027778673">
		<tag k="name" v="Vikaneset" />
		<tag k="natural" v="cape" />
		<tag k="ssr:stedsnr" v="155717" />
	</node>
	<node id="-862409" lat="63.3172694457" lon="9.82092776905">
		<tag k="name" v="Sandbanken" />
		<tag k="natural" v="beach" />
		<tag k="place" v="locality" />
		<tag k="ssr:stedsnr" v="579202" />
	</node>
	<node id="-860999" lat="63.4385666648" lon="9.97671666469">
		<tag k="name" v="Storvika" />
		<tag k="natural" v="bay" />
		<tag k="ssr:stedsnr" v="337707" />
	</node>
	<node id="-861096" lat="63.3647055539" lon="9.9283000083">
		<tag k="name" v="Ofsneset" />
		<tag k="natural" v="cape" />
		<tag k="ssr:stedsnr" v="650137" />
	</node>
	<node id="-862992" lat="63.4466583379" lon="9.96564443827">
		<tag k="bay" v="fjord" />
		<tag k="name" v="Korsfjorden" />
		<tag k="natural" v="bay" />
		<tag k="ssr:stedsnr" v="458744" />
	</node>
	<node id="-861326" lat="63.4338861114" lon="10.0408499992">
		<tag k="bay" v="fjord" />
		<tag k="name" v="Korsfjorden" />
		<tag k="natural" v="bay" />
		<tag k="ssr:stedsnr" v="923087" />
	</node>
</osm>
