<?xml version="1.0" encoding="UTF-8"?>
<osm generator="osmapis" version="0.6">
	<node id="-861664" lat="63.2059916664" lon="9.57934443606">
		<tag k="name" v="Hostokammen" />
		<tag k="place" v="locality" />
		<tag k="ssr:stedsnr" v="905878" />
	</node>
	<node id="-863769" lat="63.3100027809" lon="9.85152499598">
		<tag k="amenity" v="place_of_worship" />
		<tag k="denomination" v="lutheran" />
		<tag k="name" v="Orkanger kirke" />
		<tag k="religion" v="christian" />
		<tag k="ssr:stedsnr" v="599450" />
	</node>
	<node id="-863122" lat="63.2644703285" lon="9.81412447679">
		<tag k="alt_name" v="Orkdal" />
		<tag k="amenity" v="place_of_worship" />
		<tag k="denomination" v="lutheran" />
		<tag k="name" v="Orkdal kirke" />
		<tag k="religion" v="christian" />
		<tag k="ssr:stedsnr" v="13752" />
	</node>
	<node id="-863757" lat="63.3085888886" lon="9.84789167188">
		<tag k="amenity" v="place_of_worship" />
		<tag k="denomination" v="lutheran" />
		<tag k="name" v="Den gode hyrdes kapell" />
		<tag k="religion" v="christian" />
		<tag k="ssr:stedsnr" v="599452" />
	</node>
	<node id="-861263" lat="63.2441000014" lon="9.57714165935">
		<tag k="name" v="Eideåsen" />
		<tag k="place" v="locality" />
		<tag k="ssr:stedsnr" v="541894" />
	</node>
	<node id="-863053" lat="63.1877166625" lon="9.76558611513">
		<tag k="alt_name" v="Orkland" />
		<tag k="amenity" v="place_of_worship" />
		<tag k="denomination" v="lutheran" />
		<tag k="name" v="Orkland kirke" />
		<tag k="religion" v="christian" />
		<tag k="ssr:stedsnr" v="376205" />
	</node>
	<node id="-863723" lat="63.1782333304" lon="9.70935278064">
		<tag k="name" v="Røsbekksaga" />
		<tag k="place" v="locality" />
		<tag k="ssr:stedsnr" v="217483" />
	</node>
	<node id="-863242" lat="63.3650768352" lon="9.92550045392">
		<tag k="amenity" v="place_of_worship" />
		<tag k="denomination" v="lutheran" />
		<tag k="name" v="Geitastrand kirke" />
		<tag k="religion" v="christian" />
		<tag k="ssr:stedsnr" v="316514" />
	</node>
	<node id="-862760" lat="63.2299444418" lon="9.76136943801">
		<tag k="amenity" v="community_centre" />
		<tag k="name" v="Grendstuggu" />
		<tag k="ssr:stedsnr" v="884902" />
	</node>
	<node id="-861251" lat="63.2691861126" lon="9.77075278208">
		<tag k="name" v="Askardet høgdebasseng" />
		<tag k="place" v="locality" />
		<tag k="ssr:stedsnr" v="663391" />
	</node>
	<node id="-862593" lat="63.4281194414" lon="9.95204999587">
		<tag k="alt_name" v="Kjørmo" />
		<tag k="amenity" v="community_centre" />
		<tag k="name" v="Kjørmoen grendahus" />
		<tag k="ssr:stedsnr" v="13126" />
	</node>
</osm>
