<?xml version="1.0" encoding="UTF-8"?>
<osm generator="osmapis" version="0.6">
	<node id="-863232" lat="63.171079652" lon="9.76246241147">
		<tag k="fixme" v="consider place=hamlet" />
		<tag k="name" v="Talleråsen" />
		<tag k="place" v="farm" />
		<tag k="ssr:stedsnr" v="315140" />
	</node>
	<node id="-864251" lat="63.3662222196" lon="9.91328889457">
		<tag k="name" v="Slettvegen" />
		<tag k="place" v="farm" />
		<tag k="ssr:stedsnr" v="519394" />
	</node>
	<node id="-864250" lat="63.2919472178" lon="9.90473888888">
		<tag k="historic" v="shieling" />
		<tag k="name" v="Oksbåsen" />
		<tag k="old_name" v="Oksebåsen" />
		<tag k="place" v="locality" />
		<tag k="ssr:stedsnr" v="559315" />
	</node>
	<node id="-864247" lat="63.2360249985" lon="9.75824167043">
		<tag k="name" v="Skoleby" />
		<tag k="place" v="farm" />
		<tag k="ssr:stedsnr" v="558257" />
	</node>
	<node id="-864245" lat="63.3529749987" lon="9.84099443782">
		<tag k="historic" v="shieling" />
		<tag k="name" v="Åstsætra" />
		<tag k="place" v="locality" />
		<tag k="ssr:stedsnr" v="762362" />
	</node>
	<node id="-864244" lat="63.1687771514" lon="9.72110023972">
		<tag k="name" v="Berbu" />
		<tag k="place" v="hamlet" />
		<tag k="ssr:stedsnr" v="679124" />
	</node>
	<node id="-864241" lat="63.2619347688" lon="9.84276050107">
		<tag k="fixme" v="consider place=hamlet" />
		<tag k="name" v="Tuflåt" />
		<tag k="place" v="farm" />
		<tag k="ssr:stedsnr" v="484464" />
	</node>
	<node id="-864239" lat="63.2842527812" lon="9.8309638843">
		<tag k="alt_name" v="Gjøløya" />
		<tag k="name" v="Øya" />
		<tag k="place" v="farm" />
		<tag k="ssr:stedsnr" v="619401" />
	</node>
	<node id="-863229" lat="63.2875333359" lon="9.80530000827">
		<tag k="name" v="Ustegga" />
		<tag k="place" v="isolated_dwelling" />
		<tag k="ssr:stedsnr" v="337028" />
	</node>
	<node id="-862546" lat="63.2793888846" lon="9.7624750084">
		<tag k="name" v="Ustjåren" />
		<tag k="place" v="hamlet" />
		<tag k="ssr:stedsnr" v="630697" />
	</node>
	<node id="-864233" lat="63.2968472178" lon="9.85041111247">
		<tag k="alt_name" v="Melen" />
		<tag k="name" v="Mela" />
		<tag k="place" v="farm" />
		<tag k="ssr:stedsnr" v="579298" />
	</node>
	<node id="-864231" lat="63.2506388909" lon="9.79732221715">
		<tag k="name" v="Moan" />
		<tag k="place" v="farm" />
		<tag k="ssr:stedsnr" v="944117" />
	</node>
	<node id="-864228" lat="63.2667146035" lon="9.86636330031">
		<tag k="fixme" v="consider place=hamlet" />
		<tag k="name" v="Spjøtlia" />
		<tag k="place" v="farm" />
		<tag k="ssr:stedsnr" v="377718" />
	</node>
	<node id="-864222" lat="63.2222722256" lon="9.76913332988">
		<tag k="name" v="Byagjerdet" />
		<tag k="place" v="farm" />
		<tag k="ssr:stedsnr" v="277931" />
	</node>
	<node id="-864221" lat="63.2633166658" lon="9.76642778194">
		<tag k="name" v="Trøa" />
		<tag k="place" v="farm" />
		<tag k="ssr:stedsnr" v="134751" />
	</node>
	<node id="-862884" lat="63.4341678817" lon="9.96845526992">
		<tag k="alt_name" v="Geitagårdan" />
		<tag k="name" v="Geita" />
		<tag k="place" v="hamlet" />
		<tag k="ssr:stedsnr" v="619114" />
	</node>
	<node id="-864211" lat="63.1995666642" lon="9.71775834253">
		<tag k="fixme" v="consider place=hamlet" />
		<tag k="name" v="Kjellgarden" />
		<tag k="place" v="farm" />
		<tag k="ssr:stedsnr" v="884915" />
	</node>
	<node id="-862691" lat="63.1765305536" lon="9.73224722433">
		<tag k="name" v="Gilan" />
		<tag k="place" v="farm" />
		<tag k="ssr:stedsnr" v="521470" />
	</node>
	<node id="-864207" lat="63.2003083292" lon="9.72134999007">
		<tag k="fixme" v="consider place=hamlet" />
		<tag k="name" v="Aunet" />
		<tag k="place" v="farm" />
		<tag k="ssr:stedsnr" v="884914" />
	</node>
	<node id="-864205" lat="63.3051750041" lon="9.65627221374">
		<tag k="name" v="Furulund" />
		<tag k="place" v="farm" />
		<tag k="ssr:stedsnr" v="802232" />
	</node>
	<node id="-864203" lat="63.2526305569" lon="9.80395833057">
		<tag k="name" v="Grøtteng" />
		<tag k="place" v="farm" />
		<tag k="ssr:stedsnr" v="823119" />
	</node>
	<node id="-864201" lat="63.2534583341" lon="9.81046665803">
		<tag k="name" v="Austvoll" />
		<tag k="place" v="farm" />
		<tag k="ssr:stedsnr" v="823118" />
	</node>
	<node id="-864197" lat="63.2741725839" lon="9.58787523556">
		<tag k="fixme" v="consider place=hamlet" />
		<tag k="name" v="Øygarden" />
		<tag k="place" v="farm" />
		<tag k="ssr:stedsnr" v="558248" />
	</node>
	<node id="-864196" lat="63.2640876144" lon="9.82460519667">
		<tag k="fixme" v="consider place=hamlet" />
		<tag k="name" v="Kvammen" />
		<tag k="place" v="farm" />
		<tag k="ssr:stedsnr" v="802774" />
	</node>
	<node id="-864195" lat="63.3026888865" lon="9.59295556484">
		<tag k="name" v="Gjønnessætra" />
		<tag k="place" v="farm" />
		<tag k="ssr:stedsnr" v="377199" />
	</node>
	<node id="-864194" lat="63.3516305512" lon="9.78517499756">
		<tag k="historic" v="shieling" />
		<tag k="name" v="Isdalsbua" />
		<tag k="place" v="locality" />
		<tag k="ssr:stedsnr" v="398134" />
	</node>
	<node id="-864193" lat="63.3520722236" lon="9.63204166335">
		<tag k="name" v="Stokksætra" />
		<tag k="place" v="locality" />
		<tag k="ssr:stedsnr" v="255157" />
	</node>
	<node id="-864192" lat="63.1824185067" lon="9.74751434555">
		<tag k="name" v="Aspølan" />
		<tag k="place" v="hamlet" />
		<tag k="ssr:stedsnr" v="134216" />
	</node>
	<node id="-864191" lat="63.1751166674" lon="9.78338889384">
		<tag k="alt_name" v="Litlmo;Gumdalen" />
		<tag k="name" v="Litlmoen" />
		<tag k="place" v="farm" />
		<tag k="ssr:stedsnr" v="679136" />
	</node>
	<node id="-864187" lat="63.4351194481" lon="9.94611389617">
		<tag k="name" v="Aunlykkja" />
		<tag k="place" v="farm" />
		<tag k="ssr:stedsnr" v="94741" />
	</node>
	<node id="-864180" lat="63.1731249991" lon="9.89044166974">
		<tag k="name" v="Lialykkja" />
		<tag k="place" v="isolated_dwelling" />
		<tag k="ssr:stedsnr" v="133141" />
	</node>
	<node id="-864178" lat="63.3661361143" lon="9.90750832399">
		<tag k="alt_name" v="Korsholten" />
		<tag k="name" v="Korsholt" />
		<tag k="place" v="farm" />
		<tag k="ssr:stedsnr" v="924421" />
	</node>
	<node id="-864175" lat="63.2719596128" lon="9.76103931904">
		<tag k="alt_name" v="Forve" />
		<tag k="fixme" v="consider place=hamlet" />
		<tag k="name" v="Forvemoen" />
		<tag k="place" v="farm" />
		<tag k="ssr:stedsnr" v="316413" />
	</node>
	<node id="-864172" lat="63.2638277755" lon="9.81267221925">
		<tag k="fixme" v="consider place=hamlet" />
		<tag k="name" v="Grøtte" />
		<tag k="place" v="farm" />
		<tag k="ssr:stedsnr" v="823084" />
	</node>
	<node id="-864168" lat="63.1667944433" lon="9.76330277416">
		<tag k="name" v="Berga" />
		<tag k="place" v="farm" />
		<tag k="ssr:stedsnr" v="255144" />
	</node>
	<node id="-864164" lat="63.2422305524" lon="9.75076667144">
		<tag k="fixme" v="consider place=hamlet" />
		<tag k="name" v="Kvåle" />
		<tag k="place" v="farm" />
		<tag k="ssr:stedsnr" v="823073" />
	</node>
	<node id="-864163" lat="63.1760313704" lon="9.73652104005">
		<tag k="name" v="Tronvoll" />
		<tag k="place" v="hamlet" />
		<tag k="ssr:stedsnr" v="133136" />
	</node>
	<node id="-864160" lat="63.1802083374" lon="9.74414999225">
		<tag k="name" v="Aune" />
		<tag k="place" v="farm" />
		<tag k="ssr:stedsnr" v="581032" />
	</node>
	<node id="-864158" lat="63.1651805554" lon="9.80819444579">
		<tag k="fixme" v="consider place=hamlet" />
		<tag k="name" v="Bøverlia" />
		<tag k="place" v="farm" />
		<tag k="ssr:stedsnr" v="255146" />
	</node>
	<node id="-864154" lat="63.2606555542" lon="9.61625555594">
		<tag k="name" v="Svorkdalslia" />
		<tag k="place" v="isolated_dwelling" />
		<tag k="ssr:stedsnr" v="195014" />
	</node>
	<node id="-864151" lat="63.260061112" lon="9.80795834278">
		<tag k="name" v="Åsheim" />
		<tag k="place" v="farm" />
		<tag k="ssr:stedsnr" v="377714" />
	</node>
	<node id="-864147" lat="63.1766500045" lon="9.77218610617">
		<tag k="fixme" v="consider place=hamlet" />
		<tag k="name" v="Gumdalen" />
		<tag k="place" v="farm" />
		<tag k="ssr:stedsnr" v="133140" />
	</node>
	<node id="-864138" lat="63.3083444474" lon="9.55891111094">
		<tag k="name" v="Nova" />
		<tag k="place" v="isolated_dwelling" />
		<tag k="ssr:stedsnr" v="256198" />
	</node>
	<node id="-864134" lat="63.1623333348" lon="9.76699999621">
		<tag k="fixme" v="consider place=hamlet" />
		<tag k="name" v="Spranget" />
		<tag k="place" v="farm" />
		<tag k="ssr:stedsnr" v="376131" />
	</node>
	<node id="-862529" lat="63.2985166654" lon="9.73935833899">
		<tag k="alt_name" v="Annølsøya" />
		<tag k="name" v="Øyan" />
		<tag k="place" v="farm" />
		<tag k="ssr:stedsnr" v="13369" />
	</node>
	<node id="-864130" lat="63.1729808793" lon="9.73286345503">
		<tag k="fixme" v="consider place=hamlet" />
		<tag k="name" v="Årlian" />
		<tag k="place" v="farm" />
		<tag k="ssr:stedsnr" v="133135" />
	</node>
	<node id="-864129" lat="63.2181833376" lon="9.70604444515">
		<tag k="historic" v="shieling" />
		<tag k="name" v="Rabbsætra" />
		<tag k="place" v="locality" />
		<tag k="ssr:stedsnr" v="398097" />
	</node>
	<node id="-864116" lat="63.3275527747" lon="9.71007776799">
		<tag k="historic" v="shieling" />
		<tag k="name" v="Bjørkøya" />
		<tag k="place" v="locality" />
		<tag k="ssr:stedsnr" v="276159" />
	</node>
	<node id="-862526" lat="63.2480333306" lon="9.67202221395">
		<tag k="loc_name" v="Slættet" />
		<tag k="name" v="Slettet" />
		<tag k="place" v="farm" />
		<tag k="ssr:stedsnr" v="619614" />
	</node>
	<node id="-864111" lat="63.1896902609" lon="9.8722674772">
		<tag k="name" v="Grø" />
		<tag k="place" v="hamlet" />
		<tag k="ssr:stedsnr" v="216306" />
	</node>
	<node id="-864110" lat="63.2795027763" lon="9.6960944456">
		<tag k="name" v="Sørli" />
		<tag k="place" v="farm" />
		<tag k="ssr:stedsnr" v="681231" />
	</node>
	<node id="-864101" lat="63.2297706722" lon="9.42506214579">
		<tag k="fixme" v="consider place=hamlet" />
		<tag k="name" v="Søvasslia" />
		<tag k="place" v="farm" />
		<tag k="ssr:stedsnr" v="889821" />
	</node>
	<node id="-864098" lat="63.2719166697" lon="9.7695277746">
		<tag k="name" v="Solhuslykkja" />
		<tag k="place" v="farm" />
		<tag k="ssr:stedsnr" v="741420" />
	</node>
	<node id="-864097" lat="63.1701861143" lon="9.76230277917">
		<tag k="name" v="Smedhaugen" />
		<tag k="place" v="farm" />
		<tag k="ssr:stedsnr" v="801128" />
	</node>
	<node id="-864096" lat="63.2061435354" lon="9.8213163344">
		<tag k="fixme" v="consider place=hamlet" />
		<tag k="name" v="Solem" />
		<tag k="place" v="farm" />
		<tag k="ssr:stedsnr" v="558218" />
	</node>
	<node id="-864092" lat="63.2026833319" lon="9.71367221524">
		<tag k="historic" v="shieling" />
		<tag k="name" v="Kjellgardslykkja" />
		<tag k="place" v="locality" />
		<tag k="ssr:stedsnr" v="823889" />
	</node>
	<node id="-864090" lat="63.2698194474" lon="9.56695278082">
		<tag k="name" v="Dørdalen" />
		<tag k="place" v="hamlet" />
		<tag k="ssr:stedsnr" v="498004" />
	</node>
	<node id="-864089" lat="63.2431004297" lon="9.76702767483">
		<tag k="alt_name" v="Ner Kvåle" />
		<tag k="name" v="Kvåle" />
		<tag k="place" v="farm" />
		<tag k="ssr:stedsnr" v="619354" />
	</node>
	<node id="-864087" lat="63.1591388871" lon="9.76052499793">
		<tag k="name" v="Sprangflotten" />
		<tag k="place" v="farm" />
		<tag k="ssr:stedsnr" v="255134" />
	</node>
	<node id="-864086" lat="63.3614055527" lon="9.91387778289">
		<tag k="name" v="Kåret" />
		<tag k="place" v="isolated_dwelling" />
		<tag k="ssr:stedsnr" v="701486" />
	</node>
	<node id="-864084" lat="63.2475749995" lon="9.37608332504">
		<tag k="historic" v="shieling" />
		<tag k="name" v="Hestavollsætra" />
		<tag k="place" v="locality" />
		<tag k="ssr:stedsnr" v="40523" />
	</node>
	<node id="-864083" lat="63.2889619412" lon="9.62272298098">
		<tag k="fixme" v="consider place=hamlet" />
		<tag k="name" v="Jamtgarden" />
		<tag k="place" v="farm" />
		<tag k="ssr:stedsnr" v="398947" />
	</node>
	<node id="-864080" lat="63.1677888848" lon="9.75265278582">
		<tag k="name" v="Engan" />
		<tag k="place" v="farm" />
		<tag k="ssr:stedsnr" v="702332" />
	</node>
	<node id="-864076" lat="63.2739479151" lon="9.75784291174">
		<tag k="fixme" v="consider place=hamlet" />
		<tag k="name" v="Nyhusan" />
		<tag k="place" v="farm" />
		<tag k="ssr:stedsnr" v="33011" />
	</node>
	<node id="-864074" lat="63.3066527739" lon="9.85020276923">
		<tag k="name" v="Orkanger" />
		<tag k="place" v="town" />
		<tag k="ssr:stedsnr" v="619351" />
	</node>
	<node id="-864067" lat="63.2611083314" lon="9.77712221637">
		<tag k="name" v="Såmmårvål" />
		<tag k="place" v="hamlet" />
		<tag k="ssr:stedsnr" v="944052" />
	</node>
	<node id="-864066" lat="63.2603999986" lon="9.77256666674">
		<tag k="name" v="Aunan" />
		<tag k="place" v="farm" />
		<tag k="ssr:stedsnr" v="823047" />
	</node>
	<node id="-864063" lat="63.2954805548" lon="9.85068332661">
		<tag k="alt_name" v="Damman øvre" />
		<tag k="name" v="Øvre Damman" />
		<tag k="place" v="farm" />
		<tag k="ssr:stedsnr" v="337276" />
	</node>
	<node id="-864058" lat="63.2378555535" lon="9.71812499809">
		<tag k="historic" v="shieling" />
		<tag k="name" v="Kvålssætra" />
		<tag k="place" v="locality" />
		<tag k="ssr:stedsnr" v="398078" />
	</node>
	<node id="-864054" lat="63.2870742727" lon="9.6263182582">
		<tag k="fixme" v="consider place=hamlet" />
		<tag k="name" v="Gangåsvassbygda" />
		<tag k="place" v="village" />
		<tag k="ssr:stedsnr" v="240544" />
	</node>
	<node id="-864053" lat="63.2627111131" lon="9.74579722246">
		<tag k="leisure" v="pitch" />
		<tag k="name" v="Knyken skisenter" />
		<tag k="ssr:stedsnr" v="240545" />
	</node>
	<node id="-864049" lat="63.2905277787" lon="9.84525277454">
		<tag k="name" v="Evjensvollen" />
		<tag k="place" v="farm" />
		<tag k="ssr:stedsnr" v="337272" />
	</node>
	<node id="-864047" lat="63.217008335" lon="9.6689305538">
		<tag k="historic" v="shieling" />
		<tag k="name" v="Dalan" />
		<tag k="place" v="locality" />
		<tag k="ssr:stedsnr" v="277874" />
	</node>
	<node id="-864046" lat="63.4301500001" lon="9.96397777133">
		<tag k="name" v="Åsheim" />
		<tag k="place" v="farm" />
		<tag k="ssr:stedsnr" v="13117" />
	</node>
	<node id="-864043" lat="63.3599166677" lon="9.91885000109">
		<tag k="name" v="Rønningen" />
		<tag k="place" v="farm" />
		<tag k="ssr:stedsnr" v="498499" />
	</node>
	<node id="-864038" lat="63.2092704995" lon="9.766816996">
		<tag k="fixme" v="consider place=hamlet" />
		<tag k="name" v="Ljøkjel" />
		<tag k="place" v="farm" />
		<tag k="ssr:stedsnr" v="558216" />
	</node>
	<node id="-864034" lat="63.2038166701" lon="9.83371387926">
		<tag k="fixme" v="consider place=hamlet" />
		<tag k="name" v="Melby" />
		<tag k="place" v="farm" />
		<tag k="ssr:stedsnr" v="216279" />
	</node>
	<node id="-864033" lat="63.2445249979" lon="9.7918944393">
		<tag k="name" v="Eklisdal" />
		<tag k="place" v="farm" />
		<tag k="ssr:stedsnr" v="619359" />
	</node>
	<node id="-862853" lat="63.3013666662" lon="9.64300000312">
		<tag k="name" v="Myrvoll" />
		<tag k="place" v="farm" />
		<tag k="ssr:stedsnr" v="498274" />
	</node>
	<node id="-864028" lat="63.2533916681" lon="9.77391666895">
		<tag k="name" v="Søstuggumoen" />
		<tag k="place" v="farm" />
		<tag k="ssr:stedsnr" v="944064" />
	</node>
	<node id="-864026" lat="63.1754694436" lon="9.61752778457">
		<tag k="historic" v="shieling" />
		<tag k="name" v="Setra" />
		<tag k="place" v="locality" />
		<tag k="ssr:stedsnr" v="156632" />
	</node>
	<node id="-864023" lat="63.2719211976" lon="9.82638399939">
		<tag k="alt_name" v="Aunemoen;Aunemo" />
		<tag k="fixme" v="consider place=hamlet" />
		<tag k="name" v="Aunmoen" />
		<tag k="place" v="farm" />
		<tag k="ssr:stedsnr" v="741424" />
	</node>
	<node id="-863193" lat="63.2854555593" lon="9.61126110827">
		<tag k="name" v="Asbjørnslættet" />
		<tag k="place" v="farm" />
		<tag k="ssr:stedsnr" v="762950" />
	</node>
	<node id="-864017" lat="63.1866388889" lon="9.7638083335">
		<tag k="alt_name" v="Aspølhaugen" />
		<tag k="name" v="Grova" />
		<tag k="place" v="farm" />
		<tag k="ssr:stedsnr" v="134183" />
	</node>
	<node id="-864015" lat="63.2848416644" lon="9.85540555901">
		<tag k="name" v="Evjenslykkja" />
		<tag k="place" v="farm" />
		<tag k="ssr:stedsnr" v="337264" />
	</node>
	<node id="-864011" lat="63.2885305526" lon="9.79799167645">
		<tag k="name" v="Ustaunet" />
		<tag k="place" v="locality" />
		<tag k="ssr:stedsnr" v="944027" />
	</node>
	<node id="-864005" lat="63.1542444413" lon="9.86058333904">
		<tag k="name" v="Øsen" />
		<tag k="place" v="isolated_dwelling" />
		<tag k="ssr:stedsnr" v="278715" />
	</node>
	<node id="-864004" lat="63.2558937398" lon="9.77463381106">
		<tag k="fixme" v="consider place=hamlet" />
		<tag k="name" v="Ødyn" />
		<tag k="place" v="farm" />
		<tag k="ssr:stedsnr" v="134709" />
	</node>
	<node id="-863990" lat="63.2688527745" lon="9.6972194355">
		<tag k="name" v="Yttergjerdet" />
		<tag k="place" v="farm" />
		<tag k="ssr:stedsnr" v="945766" />
	</node>
	<node id="-862666" lat="63.3119767344" lon="9.65013933427">
		<tag k="name" v="Ustslættet" />
		<tag k="old_name" v="Ustaslættet" />
		<tag k="place" v="farm" />
		<tag k="ssr:stedsnr" v="95987" />
	</node>
	<node id="-863987" lat="63.2703222184" lon="9.56829999478">
		<tag k="name" v="Kvernhusbakken" />
		<tag k="place" v="farm" />
		<tag k="ssr:stedsnr" v="945752" />
	</node>
	<node id="-863986" lat="63.2664937625" lon="9.81579004104">
		<tag k="fixme" v="consider place=suburb, village or hamlet" />
		<tag k="name" v="Fannrem" />
		<tag k="place" v="quarter" />
		<tag k="ssr:stedsnr" v="256707" />
	</node>
	<node id="-863975" lat="63.2581146305" lon="9.84543557102">
		<tag k="name" v="Sundlia" />
		<tag k="old_name" v="Sundli" />
		<tag k="place" v="farm" />
		<tag k="ssr:stedsnr" v="377678" />
	</node>
	<node id="-863972" lat="63.2931166689" lon="9.84749722548">
		<tag k="fixme" v="consider place=suburb, village or hamlet" />
		<tag k="name" v="Bårdshaug" />
		<tag k="place" v="quarter" />
		<tag k="ssr:stedsnr" v="316385" />
	</node>
	<node id="-863966" lat="63.2649023893" lon="9.81126390647">
		<tag k="fixme" v="consider place=hamlet" />
		<tag k="name" v="Skulen" />
		<tag k="place" v="farm" />
		<tag k="ssr:stedsnr" v="823040" />
	</node>
	<node id="-862841" lat="63.2313557511" lon="9.75050383249">
		<tag k="fixme" v="consider place=hamlet" />
		<tag k="name" v="Lefstad" />
		<tag k="place" v="farm" />
		<tag k="ssr:stedsnr" v="497232" />
	</node>
	<node id="-863953" lat="63.2675500007" lon="9.67378888052">
		<tag k="name" v="Nebben" />
		<tag k="place" v="farm" />
		<tag k="ssr:stedsnr" v="945778" />
	</node>
	<node id="-863952" lat="63.1962583367" lon="9.58789721517">
		<tag k="name" v="Nordigard" />
		<tag k="place" v="farm" />
		<tag k="ssr:stedsnr" v="277836" />
	</node>
	<node id="-863951" lat="63.2579861066" lon="9.85358333997">
		<tag k="name" v="Sundlibrennan" />
		<tag k="place" v="farm" />
		<tag k="ssr:stedsnr" v="519295" />
	</node>
	<node id="-863936" lat="63.2580444439" lon="9.84759999972">
		<tag k="name" v="Sundli" />
		<tag k="place" v="farm" />
		<tag k="ssr:stedsnr" v="216252" />
	</node>
	<node id="-863933" lat="63.3475777733" lon="9.89020556527">
		<tag k="name" v="Vollatrøan" />
		<tag k="place" v="farm" />
		<tag k="ssr:stedsnr" v="701468" />
	</node>
	<node id="-863931" lat="63.201952779" lon="9.68339444555">
		<tag k="name" v="Klolykkja" />
		<tag k="place" v="farm" />
		<tag k="ssr:stedsnr" v="376622" />
	</node>
	<node id="-863930" lat="63.2592819068" lon="9.80643980414">
		<tag k="fixme" v="consider place=hamlet" />
		<tag k="name" v="Engan" />
		<tag k="place" v="farm" />
		<tag k="ssr:stedsnr" v="276101" />
	</node>
	<node id="-863929" lat="63.2005027814" lon="9.59577500081">
		<tag k="name" v="Selmoen" />
		<tag k="place" v="farm" />
		<tag k="ssr:stedsnr" v="376620" />
	</node>
	<node id="-863928" lat="63.2026703544" lon="9.61951662784">
		<tag k="name" v="Lian" />
		<tag k="place" v="hamlet" />
		<tag k="ssr:stedsnr" v="680672" />
	</node>
	<node id="-863923" lat="63.2648202747" lon="9.77683652254">
		<tag k="name" v="Såmmårvål" />
		<tag k="place" v="hamlet" />
		<tag k="ssr:stedsnr" v="256702" />
	</node>
	<node id="-863922" lat="63.257047219" lon="9.77859445254">
		<tag k="name" v="Bakkgjerdet" />
		<tag k="place" v="farm" />
		<tag k="ssr:stedsnr" v="398052" />
	</node>
	<node id="-863918" lat="63.3480833353" lon="9.69028612067">
		<tag k="historic" v="shieling" />
		<tag k="name" v="Grøndalssætra" />
		<tag k="place" v="locality" />
		<tag k="ssr:stedsnr" v="398891" />
	</node>
	<node id="-863917" lat="63.1615583373" lon="9.71612500958">
		<tag k="fixme" v="consider place=hamlet" />
		<tag k="name" v="Rønningen" />
		<tag k="place" v="farm" />
		<tag k="ssr:stedsnr" v="278693" />
	</node>
	<node id="-863914" lat="63.1575499979" lon="9.83355833028">
		<tag k="name" v="Bøverdalshaugen" />
		<tag k="place" v="isolated_dwelling" />
		<tag k="ssr:stedsnr" v="96381" />
	</node>
	<node id="-863906" lat="63.1969194423" lon="9.59297499832">
		<tag k="name" v="Kalvhåggån" />
		<tag k="place" v="farm" />
		<tag k="ssr:stedsnr" v="884803" />
	</node>
	<node id="-863904" lat="63.1984416658" lon="9.57513055094">
		<tag k="name" v="Utigard" />
		<tag k="place" v="farm" />
		<tag k="ssr:stedsnr" v="884806" />
	</node>
	<node id="-863903" lat="63.260541663" lon="9.84353888818">
		<tag k="name" v="Kvamsbakken" />
		<tag k="place" v="farm" />
		<tag k="ssr:stedsnr" v="216249" />
	</node>
	<node id="-863898" lat="63.2949674898" lon="9.82339779886">
		<tag k="alt_name" v="Gabrielsrommet" />
		<tag k="name" v="Gjølmesli" />
		<tag k="place" v="farm" />
		<tag k="ssr:stedsnr" v="741386" />
	</node>
	<node id="-863894" lat="63.4097202633" lon="9.96060059874">
		<tag k="fixme" v="consider place=hamlet" />
		<tag k="name" v="Halsen" />
		<tag k="place" v="farm" />
		<tag k="ssr:stedsnr" v="498471" />
	</node>
	<node id="-863889" lat="63.2931361131" lon="9.71302777614">
		<tag k="name" v="Mostuggu" />
		<tag k="place" v="farm" />
		<tag k="ssr:stedsnr" v="337239" />
	</node>
	<node id="-863888" lat="63.1578552012" lon="9.65161132133">
		<tag k="alt_name" v="Vallstad" />
		<tag k="name" v="Valstad" />
		<tag k="place" v="hamlet" />
		<tag k="ssr:stedsnr" v="12562" />
	</node>
	<node id="-863887" lat="63.2027750028" lon="9.62817221606">
		<tag k="name" v="Ligjerdet" />
		<tag k="place" v="farm" />
		<tag k="ssr:stedsnr" v="641641" />
	</node>
	<node id="-863884" lat="63.1645972186" lon="9.70948889642">
		<tag k="name" v="Øverrønningen" />
		<tag k="place" v="farm" />
		<tag k="ssr:stedsnr" v="885650" />
	</node>
	<node id="-863170" lat="63.1992416665" lon="9.59896666253">
		<tag k="name" v="Hostohåggån" />
		<tag k="place" v="farm" />
		<tag k="ssr:stedsnr" v="520859" />
	</node>
	<node id="-863878" lat="63.2061677776" lon="9.78713192826">
		<tag k="fixme" v="consider place=hamlet" />
		<tag k="name" v="Øyan" />
		<tag k="place" v="farm" />
		<tag k="ssr:stedsnr" v="580927" />
	</node>
	<node id="-863874" lat="63.2728194418" lon="9.57699999935">
		<tag k="name" v="Nordigarden" />
		<tag k="place" v="farm" />
		<tag k="ssr:stedsnr" v="945745" />
	</node>
	<node id="-863871" lat="63.2710555582" lon="9.57036944608">
		<tag k="name" v="Nordstuggu" />
		<tag k="place" v="farm" />
		<tag k="ssr:stedsnr" v="945747" />
	</node>
	<node id="-863869" lat="63.2631694406" lon="9.71451389054">
		<tag k="historic" v="shieling" />
		<tag k="name" v="Paulsætra" />
		<tag k="place" v="locality" />
		<tag k="ssr:stedsnr" v="823016" />
	</node>
	<node id="-863867" lat="63.283680552" lon="9.87106110853">
		<tag k="name" v="Aunet" />
		<tag k="place" v="locality" />
		<tag k="ssr:stedsnr" v="216237" />
	</node>
	<node id="-863854" lat="63.2775777801" lon="9.74577221765">
		<tag k="name" v="Tverrdal" />
		<tag k="place" v="farm" />
		<tag k="ssr:stedsnr" v="337225" />
	</node>
	<node id="-863853" lat="63.2094642846" lon="9.76815824684">
		<tag k="name" v="Ljøkjel" />
		<tag k="place" v="farm" />
		<tag k="ssr:stedsnr" v="768830" />
	</node>
	<node id="-863849" lat="63.2795222211" lon="9.77556388235">
		<tag k="name" v="Nerhaugen" />
		<tag k="place" v="farm" />
		<tag k="ssr:stedsnr" v="337224" />
	</node>
	<node id="-863841" lat="63.1877111112" lon="9.86938888207">
		<tag k="fixme" v="consider place=hamlet" />
		<tag k="name" v="Grø" />
		<tag k="place" v="farm" />
		<tag k="ssr:stedsnr" v="701406" />
	</node>
	<node id="-863840" lat="63.3384694401" lon="9.86439721337">
		<tag k="name" v="Håmmåren" />
		<tag k="place" v="farm" />
		<tag k="ssr:stedsnr" v="458527" />
	</node>
	<node id="-863838" lat="63.2893666684" lon="9.69940277581">
		<tag k="name" v="Kvakland" />
		<tag k="place" v="farm" />
		<tag k="ssr:stedsnr" v="519253" />
	</node>
	<node id="-863831" lat="63.3366750001" lon="9.80095277805">
		<tag k="name" v="Reitsætra" />
		<tag k="place" v="locality" />
		<tag k="ssr:stedsnr" v="579172" />
	</node>
	<node id="-863828" lat="63.294447219" lon="9.84448610267">
		<tag k="fixme" v="consider place=suburb, village or hamlet" />
		<tag k="name" v="Grova" />
		<tag k="place" v="quarter" />
		<tag k="ssr:stedsnr" v="762244" />
	</node>
	<node id="-862819" lat="63.4044352138" lon="9.96135635891">
		<tag k="name" v="Skjæret" />
		<tag k="old_name" v="Skjeret" />
		<tag k="place" v="farm" />
		<tag k="ssr:stedsnr" v="680445" />
	</node>
	<node id="-863822" lat="63.2831472212" lon="9.85449167119">
		<tag k="name" v="Klemmetsmolykkja" />
		<tag k="place" v="farm" />
		<tag k="ssr:stedsnr" v="762239" />
	</node>
	<node id="-863820" lat="63.2714416636" lon="9.68555833885">
		<tag k="name" v="Gjønnes" />
		<tag k="place" v="hamlet" />
		<tag k="ssr:stedsnr" v="360801" />
	</node>
	<node id="-863814" lat="63.1841555533" lon="9.76119999872">
		<tag k="name" v="Aspølmoen" />
		<tag k="place" v="farm" />
		<tag k="ssr:stedsnr" v="558171" />
	</node>
	<node id="-863801" lat="63.2828638929" lon="9.84875554693">
		<tag k="name" v="Hansegga" />
		<tag k="place" v="farm" />
		<tag k="ssr:stedsnr" v="762236" />
	</node>
	<node id="-863800" lat="63.2863216454" lon="9.60791407851">
		<tag k="alt_name" v="Asbjørnslettet" />
		<tag k="fixme" v="consider place=hamlet" />
		<tag k="name" v="Asbjørnslættet" />
		<tag k="place" v="farm" />
		<tag k="ssr:stedsnr" v="923279" />
	</node>
	<node id="-863796" lat="63.3597079251" lon="9.82410003985">
		<tag k="fixme" v="consider place=hamlet" />
		<tag k="name" v="Kvernamoen" />
		<tag k="place" v="farm" />
		<tag k="ssr:stedsnr" v="74456" />
	</node>
	<node id="-863795" lat="63.2995749958" lon="9.67707500347">
		<tag k="historic" v="shieling" />
		<tag k="name" v="Snaussætra" />
		<tag k="old_name" v="Snaus-sætra" />
		<tag k="place" v="locality" />
		<tag k="ssr:stedsnr" v="217948" />
	</node>
	<node id="-863792" lat="63.1882888885" lon="9.47837222799">
		<tag k="name" v="Lomundalslykkja" />
		<tag k="place" v="farm" />
		<tag k="ssr:stedsnr" v="945696" />
	</node>
	<node id="-863790" lat="63.2168444438" lon="9.79909722885">
		<tag k="fixme" v="consider place=hamlet" />
		<tag k="name" v="Boksbuan" />
		<tag k="place" v="farm" />
		<tag k="ssr:stedsnr" v="922204" />
	</node>
	<node id="-863786" lat="63.3055822782" lon="9.84655283627">
		<tag k="fixme" v="consider place=hamlet" />
		<tag k="name" v="Rømme" />
		<tag k="place" v="farm" />
		<tag k="ssr:stedsnr" v="458538" />
	</node>
	<node id="-862812" lat="63.3447277774" lon="9.88261388079">
		<tag k="fixme" v="consider place=hamlet" />
		<tag k="name" v="Almlia" />
		<tag k="place" v="farm" />
		<tag k="ssr:stedsnr" v="155388" />
	</node>
	<node id="-862811" lat="63.1976829023" lon="9.73721664246">
		<tag k="alt_name" v="Vollan" />
		<tag k="name" v="Vormdal" />
		<tag k="place" v="farm" />
		<tag k="ssr:stedsnr" v="73203" />
	</node>
	<node id="-863774" lat="63.2549888905" lon="9.83889444705">
		<tag k="name" v="Smibakken" />
		<tag k="place" v="farm" />
		<tag k="ssr:stedsnr" v="762255" />
	</node>
	<node id="-863767" lat="63.3509838084" lon="9.7854094543">
		<tag k="alt_name" v="Fjell-lia" />
		<tag k="fixme" v="consider place=hamlet" />
		<tag k="name" v="Fjellia" />
		<tag k="place" v="farm" />
		<tag k="ssr:stedsnr" v="195468" />
	</node>
	<node id="-863766" lat="63.3664959994" lon="9.92452514411">
		<tag k="name" v="Åstan" />
		<tag k="place" v="hamlet" />
		<tag k="ssr:stedsnr" v="74439" />
	</node>
	<node id="-863758" lat="63.2468923339" lon="9.72496066995">
		<tag k="fixme" v="consider place=hamlet" />
		<tag k="name" v="Kjelstad" />
		<tag k="place" v="farm" />
		<tag k="ssr:stedsnr" v="316330" />
	</node>
	<node id="-863757" lat="63.2254204075" lon="9.74879783087">
		<tag k="alt_name" v="Byamo" />
		<tag k="name" v="Byamoen" />
		<tag k="place" v="farm" />
		<tag k="ssr:stedsnr" v="618202" />
	</node>
	<node id="-863736" lat="63.2098249977" lon="9.81645833945">
		<tag k="name" v="Solemslykkja" />
		<tag k="place" v="farm" />
		<tag k="ssr:stedsnr" v="922186" />
	</node>
	<node id="-863733" lat="63.2883083342" lon="9.61480555172">
		<tag k="name" v="Nerlia" />
		<tag k="place" v="farm" />
		<tag k="ssr:stedsnr" v="520974" />
	</node>
	<node id="-863729" lat="63.4361805043" lon="9.92177539229">
		<tag k="fixme" v="consider place=hamlet" />
		<tag k="name" v="Bjørnbettet" />
		<tag k="place" v="farm" />
		<tag k="ssr:stedsnr" v="680113" />
	</node>
	<node id="-863728" lat="63.2444572767" lon="9.64662313642">
		<tag k="fixme" v="consider place=hamlet" />
		<tag k="name" v="Svorkåsen" />
		<tag k="place" v="farm" />
		<tag k="ssr:stedsnr" v="277754" />
	</node>
	<node id="-863726" lat="63.3066861125" lon="9.78024166538">
		<tag k="name" v="Fagerøya" />
		<tag k="place" v="farm" />
		<tag k="ssr:stedsnr" v="519213" />
	</node>
	<node id="-863724" lat="63.2819661104" lon="9.74714830521">
		<tag k="name" v="Solemslykkja" />
		<tag k="place" v="farm" />
		<tag k="ssr:stedsnr" v="498422" />
	</node>
	<node id="-863718" lat="63.4346250043" lon="9.95134167243">
		<tag k="name" v="Sandberg" />
		<tag k="place" v="farm" />
		<tag k="ssr:stedsnr" v="134120" />
	</node>
	<node id="-863715" lat="63.1634944454" lon="9.7429111039">
		<tag k="name" v="Leirdalen" />
		<tag k="place" v="farm" />
		<tag k="ssr:stedsnr" v="399704" />
	</node>
	<node id="-863711" lat="63.169547226" lon="9.72053333068">
		<tag k="name" v="Midtstuggu" />
		<tag k="place" v="farm" />
		<tag k="ssr:stedsnr" v="642477" />
	</node>
	<node id="-863709" lat="63.1713527767" lon="9.74380556214">
		<tag k="amenity" v="school" />
		<tag k="name" v="Årlivoll skole" />
		<tag k="ssr:stedsnr" v="969823" />
	</node>
	<node id="-863707" lat="63.241069447" lon="9.60752221442">
		<tag k="name" v="Støylen" />
		<tag k="place" v="farm" />
		<tag k="ssr:stedsnr" v="277750" />
	</node>
	<node id="-863705" lat="63.2005999977" lon="9.81968334015">
		<tag k="name" v="Monsetgrenda" />
		<tag k="place" v="hamlet" />
		<tag k="ssr:stedsnr" v="520953" />
	</node>
	<node id="-863702" lat="63.2677086809" lon="9.81197581212">
		<tag k="fixme" v="consider place=hamlet" />
		<tag k="name" v="Megarden" />
		<tag k="old_name" v="Meland" />
		<tag k="place" v="farm" />
		<tag k="ssr:stedsnr" v="559731" />
	</node>
	<node id="-862457" lat="63.2545719205" lon="9.77672685067">
		<tag k="name" v="Søstuggu" />
		<tag k="place" v="farm" />
		<tag k="ssr:stedsnr" v="1072072" />
	</node>
	<node id="-863699" lat="63.2795728465" lon="9.80905738704">
		<tag k="fixme" v="consider place=hamlet" />
		<tag k="name" v="Vollen" />
		<tag k="place" v="farm" />
		<tag k="ssr:stedsnr" v="498427" />
	</node>
	<node id="-863698" lat="63.1906111104" lon="9.80020000418">
		<tag k="name" v="Sandbrauta" />
		<tag k="place" v="farm" />
		<tag k="ssr:stedsnr" v="217902" />
	</node>
	<node id="-863270" lat="63.2957478952" lon="9.6026617256">
		<tag k="alt_name" v="Vendingen" />
		<tag k="fixme" v="consider place=hamlet" />
		<tag k="name" v="Attvendingen" />
		<tag k="place" v="farm" />
		<tag k="ssr:stedsnr" v="316246" />
	</node>
	<node id="-863695" lat="63.3195186661" lon="9.80519405445">
		<tag k="fixme" v="consider place=hamlet" />
		<tag k="name" v="Meland" />
		<tag k="place" v="farm" />
		<tag k="ssr:stedsnr" v="619293" />
	</node>
	<node id="-863693" lat="63.2563166624" lon="9.75722776789">
		<tag k="name" v="Eggaunet" />
		<tag k="place" v="farm" />
		<tag k="ssr:stedsnr" v="883009" />
	</node>
	<node id="-863690" lat="63.4366166654" lon="9.9734972174">
		<tag k="name" v="Jostu" />
		<tag k="place" v="farm" />
		<tag k="ssr:stedsnr" v="134118" />
	</node>
	<node id="-863689" lat="63.2350430121" lon="9.60547544669">
		<tag k="fixme" v="consider place=hamlet" />
		<tag k="name" v="Bjørklia" />
		<tag k="place" v="farm" />
		<tag k="ssr:stedsnr" v="255596" />
	</node>
	<node id="-863688" lat="63.1997583309" lon="9.74017499184">
		<tag k="name" v="Negard" />
		<tag k="place" v="farm" />
		<tag k="ssr:stedsnr" v="580883" />
	</node>
	<node id="-863682" lat="63.2786250031" lon="9.83558611048">
		<tag k="alt_name" v="Sorenskrivargard" />
		<tag k="name" v="Sorenskrivergården" />
		<tag k="place" v="farm" />
		<tag k="ssr:stedsnr" v="73378" />
	</node>
	<node id="-863678" lat="63.2167076888" lon="9.79936785257">
		<tag k="alt_name" v="Boksbu" />
		<tag k="name" v="Boksbuan" />
		<tag k="place" v="farm" />
		<tag k="ssr:stedsnr" v="520935" />
	</node>
	<node id="-863675" lat="63.1589434862" lon="9.67734971357">
		<tag k="name" v="Oppøya" />
		<tag k="place" v="hamlet" />
		<tag k="ssr:stedsnr" v="376564" />
	</node>
	<node id="-863673" lat="63.2815940977" lon="9.77728812398">
		<tag k="fixme" v="consider place=hamlet" />
		<tag k="name" v="Ustmo" />
		<tag k="place" v="farm" />
		<tag k="ssr:stedsnr" v="73374" />
	</node>
	<node id="-863665" lat="63.3118444418" lon="9.8042583278">
		<tag k="name" v="Dalsenget" />
		<tag k="place" v="farm" />
		<tag k="ssr:stedsnr" v="216214" />
	</node>
	<node id="-863664" lat="63.2237777742" lon="9.47865278221">
		<tag k="historic" v="shieling" />
		<tag k="name" v="Eggamosætra" />
		<tag k="place" v="locality" />
		<tag k="ssr:stedsnr" v="723580" />
	</node>
	<node id="-865042" lat="63.2279055559" lon="9.47326943646">
		<tag k="historic" v="shieling" />
		<tag k="name" v="Eggasætra" />
		<tag k="place" v="locality" />
		<tag k="ssr:stedsnr" v="905601" />
	</node>
	<node id="-863662" lat="63.2825277758" lon="9.87289166391">
		<tag k="name" v="Aunet" />
		<tag k="place" v="isolated_dwelling" />
		<tag k="ssr:stedsnr" v="762250" />
	</node>
	<node id="-863660" lat="63.2525750018" lon="9.72892500044">
		<tag k="name" v="Fosslykkja" />
		<tag k="place" v="farm" />
		<tag k="ssr:stedsnr" v="256662" />
	</node>
	<node id="-862791" lat="63.1867166653" lon="9.58068610478">
		<tag k="name" v="Knutstuggu" />
		<tag k="place" v="isolated_dwelling" />
		<tag k="ssr:stedsnr" v="520655" />
	</node>
	<node id="-863654" lat="63.2017083291" lon="9.76502222895">
		<tag k="name" v="Mosgjerdet" />
		<tag k="place" v="farm" />
		<tag k="ssr:stedsnr" v="580906" />
	</node>
	<node id="-863652" lat="63.3053935337" lon="9.84711474199">
		<tag k="name" v="Rømme" />
		<tag k="place" v="hamlet" />
		<tag k="ssr:stedsnr" v="545726" />
	</node>
	<node id="-863648" lat="63.1852100165" lon="9.54345484352">
		<tag k="fixme" v="consider place=hamlet" />
		<tag k="name" v="Gimsan" />
		<tag k="place" v="farm" />
		<tag k="ssr:stedsnr" v="255612" />
	</node>
	<node id="-863644" lat="63.2087861093" lon="9.78525833976">
		<tag k="name" v="Haugaråa" />
		<tag k="place" v="farm" />
		<tag k="ssr:stedsnr" v="217935" />
	</node>
	<node id="-863641" lat="63.1832386567" lon="9.80813750195">
		<tag k="fixme" v="consider place=hamlet" />
		<tag k="name" v="Solås" />
		<tag k="place" v="farm" />
		<tag k="ssr:stedsnr" v="558167" />
	</node>
	<node id="-863640" lat="63.1591083306" lon="9.72260000698">
		<tag k="name" v="Klingøya" />
		<tag k="place" v="farm" />
		<tag k="ssr:stedsnr" v="824677" />
	</node>
	<node id="-863639" lat="63.3080249987" lon="9.76961111773">
		<tag k="name" v="Flåskog" />
		<tag k="place" v="farm" />
		<tag k="ssr:stedsnr" v="741358" />
	</node>
	<node id="-863637" lat="63.1964737573" lon="9.69866770852">
		<tag k="fixme" v="consider place=hamlet" />
		<tag k="name" v="Ry" />
		<tag k="place" v="farm" />
		<tag k="ssr:stedsnr" v="255605" />
	</node>
	<node id="-863631" lat="63.1664694405" lon="9.75819443511">
		<tag k="name" v="Halla" />
		<tag k="place" v="farm" />
		<tag k="ssr:stedsnr" v="399721" />
	</node>
	<node id="-863628" lat="63.1608555518" lon="9.71084999979">
		<tag k="name" v="Rønningen" />
		<tag k="place" v="farm" />
		<tag k="ssr:stedsnr" v="824674" />
	</node>
	<node id="-865033" lat="63.2924694444" lon="9.81331111814">
		<tag k="name" v="Ustsætra" />
		<tag k="place" v="farm" />
		<tag k="ssr:stedsnr" v="134373" />
	</node>
	<node id="-863626" lat="63.2895361097" lon="9.70554999839">
		<tag k="name" v="Kvaklandsmo" />
		<tag k="place" v="farm" />
		<tag k="ssr:stedsnr" v="762221" />
	</node>
	<node id="-863625" lat="63.197511112" lon="9.74376944083">
		<tag k="name" v="Litlmoen" />
		<tag k="place" v="farm" />
		<tag k="ssr:stedsnr" v="338873" />
	</node>
	<node id="-863623" lat="63.3114995535" lon="9.79587373506">
		<tag k="name" v="Dyndal" />
		<tag k="place" v="farm" />
		<tag k="ssr:stedsnr" v="741346" />
	</node>
	<node id="-863618" lat="63.1558638931" lon="9.6523916569">
		<tag k="name" v="Vallstadmelan" />
		<tag k="place" v="farm" />
		<tag k="ssr:stedsnr" v="34600" />
	</node>
	<node id="-863616" lat="63.1539194432" lon="9.85878611595">
		<tag k="name" v="Aunlykkja" />
		<tag k="place" v="isolated_dwelling" />
		<tag k="ssr:stedsnr" v="399685" />
	</node>
	<node id="-863614" lat="63.2200083331" lon="9.65975278371">
		<tag k="alt_name" v="Vormdalssætra" />
		<tag k="name" v="Dalan" />
		<tag k="place" v="isolated_dwelling" />
		<tag k="ssr:stedsnr" v="680611" />
	</node>
	<node id="-863603" lat="63.3627194486" lon="9.66059166591">
		<tag k="name" v="Hjortdalshytta" />
		<tag k="place" v="isolated_dwelling" />
		<tag k="ssr:stedsnr" v="520903" />
	</node>
	<node id="-863587" lat="63.2828638888" lon="9.83638889319">
		<tag k="fixme" v="consider place=hamlet" />
		<tag k="name" v="Øya" />
		<tag k="place" v="farm" />
		<tag k="ssr:stedsnr" v="94556" />
	</node>
	<node id="-863579" lat="63.1607194417" lon="9.67436388246">
		<tag k="name" v="Kvikne" />
		<tag k="place" v="farm" />
		<tag k="ssr:stedsnr" v="34591" />
	</node>
	<node id="-863572" lat="63.2017555567" lon="9.612738887">
		<tag k="name" v="Lian" />
		<tag k="place" v="farm" />
		<tag k="ssr:stedsnr" v="580837" />
	</node>
	<node id="-863565" lat="63.204547222" lon="9.8107083407">
		<tag k="name" v="Stubban" />
		<tag k="place" v="farm" />
		<tag k="ssr:stedsnr" v="727172" />
	</node>
	<node id="-863559" lat="63.2655361119" lon="9.80976110341">
		<tag k="building" v="industrial" />
		<tag k="industrial" v="factory" />
		<tag k="name" v="Orkdal meieri" />
		<tag k="ssr:stedsnr" v="397044" />
	</node>
	<node id="-863556" lat="63.1914482556" lon="9.74682594205">
		<tag k="fixme" v="consider place=hamlet" />
		<tag k="name" v="Holtan" />
		<tag k="place" v="farm" />
		<tag k="ssr:stedsnr" v="923231" />
	</node>
	<node id="-863555" lat="63.2470611108" lon="9.73053889668">
		<tag k="name" v="Kjelstad" />
		<tag k="place" v="farm" />
		<tag k="ssr:stedsnr" v="579072" />
	</node>
	<node id="-863551" lat="63.2416194404" lon="9.78105555037">
		<tag k="name" v="Persgarden" />
		<tag k="place" v="farm" />
		<tag k="ssr:stedsnr" v="337121" />
	</node>
	<node id="-863550" lat="63.2220654399" lon="9.63044589721">
		<tag k="alt_name" v="Vasslibakkan" />
		<tag k="fixme" v="consider place=hamlet" />
		<tag k="name" v="Vasslia" />
		<tag k="place" v="farm" />
		<tag k="ssr:stedsnr" v="255561" />
	</node>
	<node id="-862773" lat="63.1971444427" lon="9.82508611313">
		<tag k="name" v="Østly" />
		<tag k="place" v="isolated_dwelling" />
		<tag k="ssr:stedsnr" v="740185" />
	</node>
	<node id="-863543" lat="63.2186305436" lon="9.59073615086">
		<tag k="alt_name" v="Meås" />
		<tag k="fixme" v="consider place=hamlet" />
		<tag k="name" v="Medåsen" />
		<tag k="place" v="farm" />
		<tag k="ssr:stedsnr" v="255563" />
	</node>
	<node id="-863541" lat="63.2681833297" lon="9.5676222303">
		<tag k="name" v="Lia" />
		<tag k="place" v="farm" />
		<tag k="ssr:stedsnr" v="398761" />
	</node>
	<node id="-863536" lat="63.3240944471" lon="9.82246111284">
		<tag k="name" v="Barhaugen" />
		<tag k="place" v="farm" />
		<tag k="ssr:stedsnr" v="216139" />
	</node>
	<node id="-863530" lat="63.2686361135" lon="9.67196110498">
		<tag k="name" v="Gjønnesneset" />
		<tag k="place" v="farm" />
		<tag k="ssr:stedsnr" v="398772" />
	</node>
	<node id="-863523" lat="63.26679444" lon="9.68164443479">
		<tag k="name" v="Rabben" />
		<tag k="place" v="isolated_dwelling" />
		<tag k="ssr:stedsnr" v="823749" />
	</node>
	<node id="-863520" lat="63.1576028755" lon="9.69239324512">
		<tag k="fixme" v="consider place=hamlet" />
		<tag k="name" v="Svinsøya" />
		<tag k="place" v="farm" />
		<tag k="ssr:stedsnr" v="255558" />
	</node>
	<node id="-863514" lat="63.1654666662" lon="9.72333332693">
		<tag k="name" v="Berbusmelen" />
		<tag k="place" v="farm" />
		<tag k="ssr:stedsnr" v="581681" />
	</node>
	<node id="-863513" lat="63.254532168" lon="9.77770018358">
		<tag k="name" v="Bakk" />
		<tag k="place" v="hamlet" />
		<tag k="ssr:stedsnr" v="579057" />
	</node>
	<node id="-863510" lat="63.2431610607" lon="9.70325349097">
		<tag k="alt_name" v="Lillery" />
		<tag k="fixme" v="consider place=hamlet" />
		<tag k="name" v="Litlry" />
		<tag k="place" v="farm" />
		<tag k="ssr:stedsnr" v="133555" />
	</node>
	<node id="-863508" lat="63.2612861097" lon="9.84620000571">
		<tag k="name" v="Solberg" />
		<tag k="place" v="farm" />
		<tag k="ssr:stedsnr" v="619773" />
	</node>
	<node id="-863505" lat="63.1529416624" lon="9.72209722578">
		<tag k="name" v="Skogly" />
		<tag k="place" v="farm" />
		<tag k="ssr:stedsnr" v="339656" />
	</node>
	<node id="-863499" lat="63.3129666643" lon="9.81455277494">
		<tag k="fixme" v="consider place=suburb, village or hamlet" />
		<tag k="name" v="Svean" />
		<tag k="place" v="quarter" />
		<tag k="ssr:stedsnr" v="701300" />
	</node>
	<node id="-863494" lat="63.162383337" lon="9.62446944229">
		<tag k="name" v="Litlsætra" />
		<tag k="place" v="isolated_dwelling" />
		<tag k="ssr:stedsnr" v="680573" />
	</node>
	<node id="-863493" lat="63.2143583304" lon="9.77165555889">
		<tag k="name" v="Ljøkjel" />
		<tag k="place" v="farm" />
		<tag k="ssr:stedsnr" v="520933" />
	</node>
	<node id="-863492" lat="63.3782666688" lon="9.77713332482">
		<tag k="name" v="Nordslættet" />
		<tag k="place" v="locality" />
		<tag k="ssr:stedsnr" v="337157" />
	</node>
	<node id="-863486" lat="63.3312583349" lon="9.75269167363">
		<tag k="historic" v="shieling" />
		<tag k="name" v="Tungsætra" />
		<tag k="place" v="locality" />
		<tag k="ssr:stedsnr" v="519197" />
	</node>
	<node id="-863484" lat="63.2119611088" lon="9.37886387999">
		<tag k="name" v="Holmgarden" />
		<tag k="place" v="farm" />
		<tag k="ssr:stedsnr" v="222732" />
	</node>
	<node id="-863481" lat="63.2989861094" lon="9.65754999487">
		<tag k="name" v="Songmoen" />
		<tag k="place" v="farm" />
		<tag k="ssr:stedsnr" v="85647" />
	</node>
	<node id="-863473" lat="63.1785055584" lon="9.74071111128">
		<tag k="name" v="Tronvollbakkan" />
		<tag k="place" v="farm" />
		<tag k="ssr:stedsnr" v="763021" />
	</node>
	<node id="-863469" lat="63.3222972239" lon="9.82081944463">
		<tag k="name" v="Nordgjerdbakken" />
		<tag k="place" v="farm" />
		<tag k="ssr:stedsnr" v="337163" />
	</node>
	<node id="-863468" lat="63.1653499958" lon="9.7427694537">
		<tag k="name" v="Mobakken" />
		<tag k="place" v="farm" />
		<tag k="ssr:stedsnr" v="399701" />
	</node>
	<node id="-863463" lat="63.2545416653" lon="9.83720832458">
		<tag k="name" v="Gjesvål-lykkja" />
		<tag k="place" v="farm" />
		<tag k="ssr:stedsnr" v="701348" />
	</node>
	<node id="-863460" lat="63.2026666686" lon="9.78582222704">
		<tag k="fixme" v="consider place=hamlet" />
		<tag k="name" v="Øyan" />
		<tag k="place" v="farm" />
		<tag k="ssr:stedsnr" v="923244" />
	</node>
	<node id="-863453" lat="63.2736805543" lon="9.82394721862">
		<tag k="name" v="Orkdal" />
		<tag k="place" v="village" />
		<tag k="ssr:stedsnr" v="498418" />
	</node>
	<node id="-863057" lat="63.1756583356" lon="9.73743888194">
		<tag k="name" v="Nertronvoll" />
		<tag k="place" v="farm" />
		<tag k="ssr:stedsnr" v="460066" />
	</node>
	<node id="-863435" lat="63.2470907916" lon="9.79453907031">
		<tag k="fixme" v="consider place=hamlet" />
		<tag k="name" v="Blåsmo" />
		<tag k="place" v="farm" />
		<tag k="ssr:stedsnr" v="740303" />
	</node>
	<node id="-863432" lat="63.3102531543" lon="9.81371423199">
		<tag k="fixme" v="consider place=hamlet" />
		<tag k="name" v="Gjølme" />
		<tag k="place" v="farm" />
		<tag k="ssr:stedsnr" v="741347" />
	</node>
	<node id="-863424" lat="63.1640249958" lon="9.71242778301">
		<tag k="name" v="Gammelgarden" />
		<tag k="place" v="locality" />
		<tag k="ssr:stedsnr" v="824665" />
	</node>
	<node id="-863422" lat="63.2175611097" lon="9.57392223076">
		<tag k="alt_name" v="Eggamo" />
		<tag k="name" v="Eggamoen" />
		<tag k="place" v="farm" />
		<tag k="ssr:stedsnr" v="680615" />
	</node>
	<node id="-863419" lat="63.1992832381" lon="9.57825609983">
		<tag k="alt_name" v="Bortstuggu" />
		<tag k="name" v="Hoston" />
		<tag k="place" v="farm" />
		<tag k="ssr:stedsnr" v="801599" />
	</node>
	<node id="-862840" lat="63.1828111091" lon="9.61287222719">
		<tag k="name" v="Ingbriktsbakken" />
		<tag k="place" v="isolated_dwelling" />
		<tag k="ssr:stedsnr" v="580606" />
	</node>
	<node id="-863415" lat="63.3244388853" lon="9.69346666288">
		<tag k="fixme" v="multiple name tags, choose one and add the other to alt_name" />
		<tag k="name" v="Ellingsgardshytta;Hjortdalshytta" />
		<tag k="place" v="isolated_dwelling" />
		<tag k="ssr:stedsnr" v="153023" />
	</node>
	<node id="-863414" lat="63.3098166633" lon="9.76299166449">
		<tag k="name" v="Furuhaugen" />
		<tag k="place" v="farm" />
		<tag k="ssr:stedsnr" v="762199" />
	</node>
	<node id="-863407" lat="63.3002694452" lon="9.8476194384">
		<tag k="alt_name" v="Grindplassen" />
		<tag k="name" v="Rosenvik" />
		<tag k="place" v="farm" />
		<tag k="ssr:stedsnr" v="94520" />
	</node>
	<node id="-863404" lat="63.2769444421" lon="9.64536665678">
		<tag k="fixme" v="consider place=hamlet" />
		<tag k="name" v="Gangåsen" />
		<tag k="place" v="farm" />
		<tag k="ssr:stedsnr" v="255005" />
	</node>
	<node id="-863402" lat="63.1696999998" lon="9.74253054878">
		<tag k="name" v="Volløyan" />
		<tag k="place" v="quarter" />
		<tag k="ssr:stedsnr" v="96226" />
	</node>
	<node id="-863400" lat="63.2789111152" lon="9.83473333885">
		<tag k="name" v="Kleivøya" />
		<tag k="place" v="farm" />
		<tag k="ssr:stedsnr" v="701308" />
	</node>
	<node id="-862748" lat="63.2625671468" lon="9.84268193742">
		<tag k="name" v="Tuflåt" />
		<tag k="place" v="farm" />
		<tag k="ssr:stedsnr" v="180481" />
	</node>
	<node id="-863394" lat="63.1966250032" lon="9.54898610672">
		<tag k="historic" v="shieling" />
		<tag k="name" v="Seterstuggu" />
		<tag k="place" v="locality" />
		<tag k="ssr:stedsnr" v="823702" />
	</node>
	<node id="-863393" lat="63.1638967437" lon="9.68323146105">
		<tag k="fixme" v="consider place=hamlet" />
		<tag k="name" v="Bergem" />
		<tag k="place" v="farm" />
		<tag k="ssr:stedsnr" v="680571" />
	</node>
	<node id="-863391" lat="63.2150424172" lon="9.79156517771">
		<tag k="name" v="Framigard Solbu" />
		<tag k="place" v="farm" />
		<tag k="ssr:stedsnr" v="981087" />
	</node>
	<node id="-863328" lat="63.3548317447" lon="9.69826885506">
		<tag k="fixme" v="consider place=hamlet" />
		<tag k="name" v="Bjørndalen" />
		<tag k="place" v="farm" />
		<tag k="ssr:stedsnr" v="559141" />
	</node>
	<node id="-863387" lat="63.2529015435" lon="9.74122508049">
		<tag k="alt_name" v="Fossum" />
		<tag k="name" v="Fossan" />
		<tag k="place" v="hamlet" />
		<tag k="ssr:stedsnr" v="559692" />
	</node>
	<node id="-863381" lat="63.2935694478" lon="9.87321388236">
		<tag k="alt_name" v="Raudåsen" />
		<tag k="name" v="Rødåsen" />
		<tag k="place" v="farm" />
		<tag k="ssr:stedsnr" v="924285" />
	</node>
	<node id="-863371" lat="63.3596805808" lon="9.91240803982">
		<tag k="fixme" v="consider place=hamlet" />
		<tag k="name" v="Isdalen" />
		<tag k="place" v="farm" />
		<tag k="ssr:stedsnr" v="863457" />
	</node>
	<node id="-862743" lat="63.2341111095" lon="9.4385611128">
		<tag k="name" v="Svelihaugen" />
		<tag k="place" v="farm" />
		<tag k="ssr:stedsnr" v="116621" />
	</node>
	<node id="-863368" lat="63.2943361121" lon="9.72856111609">
		<tag k="building" v="industrial" />
		<tag k="industrial" v="factory" />
		<tag k="name" v="Skjenaldfossen" />
		<tag k="ssr:stedsnr" v="498378" />
	</node>
	<node id="-863365" lat="63.2625741116" lon="9.80872535048">
		<tag k="fixme" v="consider place=hamlet" />
		<tag k="name" v="Kroa" />
		<tag k="place" v="farm" />
		<tag k="ssr:stedsnr" v="337090" />
	</node>
	<node id="-863362" lat="63.2685416641" lon="9.77615277771">
		<tag k="name" v="Myran" />
		<tag k="place" v="farm" />
		<tag k="ssr:stedsnr" v="923752" />
	</node>
	<node id="-863359" lat="63.2421194468" lon="9.58940278526">
		<tag k="fixme" v="consider place=hamlet" />
		<tag k="name" v="Selmoen" />
		<tag k="place" v="farm" />
		<tag k="ssr:stedsnr" v="580791" />
	</node>
	<node id="-863357" lat="63.2776111069" lon="9.76728610484">
		<tag k="fixme" v="consider place=hamlet" />
		<tag k="name" v="Neraunet" />
		<tag k="place" v="farm" />
		<tag k="ssr:stedsnr" v="862366" />
	</node>
	<node id="-863356" lat="63.189580555" lon="9.4829250084">
		<tag k="name" v="Lykkja" />
		<tag k="place" v="isolated_dwelling" />
		<tag k="ssr:stedsnr" v="398701" />
	</node>
	<node id="-863355" lat="63.2730611093" lon="9.58316388323">
		<tag k="name" v="Haugen" />
		<tag k="place" v="farm" />
		<tag k="ssr:stedsnr" v="338774" />
	</node>
	<node id="-863350" lat="63.2725583307" lon="9.74692499206">
		<tag k="alt_name" v="Nyhushaugen" />
		<tag k="name" v="Osphaugen" />
		<tag k="place" v="farm" />
		<tag k="ssr:stedsnr" v="862365" />
	</node>
	<node id="-863348" lat="63.2558402902" lon="9.65227577088">
		<tag k="alt_name" v="Baksætra" />
		<tag k="fixme" v="consider place=hamlet" />
		<tag k="name" v="Bakksætra" />
		<tag k="place" v="farm" />
		<tag k="ssr:stedsnr" v="377024" />
	</node>
	<node id="-863345" lat="63.2520138871" lon="9.7983444491">
		<tag k="fixme" v="consider place=hamlet" />
		<tag k="name" v="Engbrumoen" />
		<tag k="place" v="farm" />
		<tag k="ssr:stedsnr" v="762124" />
	</node>
	<node id="-863339" lat="63.285355555" lon="9.63217223039">
		<tag k="name" v="Tronshaugen" />
		<tag k="place" v="farm" />
		<tag k="ssr:stedsnr" v="580766" />
	</node>
	<node id="-863338" lat="63.2822620893" lon="9.60613818626">
		<tag k="fixme" v="consider place=hamlet" />
		<tag k="name" v="Grava" />
		<tag k="place" v="farm" />
		<tag k="ssr:stedsnr" v="741300" />
	</node>
	<node id="-863337" lat="63.1923583337" lon="9.88650276949">
		<tag k="alt_name" v="Brattli" />
		<tag k="fixme" v="consider place=hamlet" />
		<tag k="name" v="Brattlia" />
		<tag k="place" v="farm" />
		<tag k="ssr:stedsnr" v="923209" />
	</node>
	<node id="-863336" lat="63.2498972206" lon="9.73344165714">
		<tag k="name" v="Kalvhåggån" />
		<tag k="place" v="farm" />
		<tag k="ssr:stedsnr" v="337069" />
	</node>
	<node id="-863333" lat="63.243275" lon="9.8105972231">
		<tag k="fixme" v="consider place=hamlet" />
		<tag k="name" v="Englykkja" />
		<tag k="place" v="farm" />
		<tag k="ssr:stedsnr" v="73308" />
	</node>
	<node id="-863331" lat="63.2052888861" lon="9.80152221228">
		<tag k="name" v="Stubban" />
		<tag k="place" v="farm" />
		<tag k="ssr:stedsnr" v="619221" />
	</node>
	<node id="-865377" lat="63.2664769302" lon="9.80862860928">
		<tag k="name" v="Skåggåberget" />
		<tag k="place" v="farm" />
		<tag k="ssr:stedsnr" v="981721" />
	</node>
	<node id="-865376" lat="63.3477337752" lon="9.72797443993">
		<tag k="name" v="Brølia" />
		<tag k="place" v="farm" />
		<tag k="ssr:stedsnr" v="981719" />
	</node>
	<node id="-865375" lat="63.2418131733" lon="9.69187278949">
		<tag k="name" v="Fuglåsen" />
		<tag k="place" v="farm" />
		<tag k="ssr:stedsnr" v="981718" />
	</node>
	<node id="-865374" lat="63.241489086" lon="9.6897250869">
		<tag k="name" v="Fuglåsen" />
		<tag k="place" v="farm" />
		<tag k="ssr:stedsnr" v="981717" />
	</node>
	<node id="-865373" lat="63.2576343676" lon="9.80491224801">
		<tag k="name" v="Skåggån" />
		<tag k="place" v="farm" />
		<tag k="ssr:stedsnr" v="981715" />
	</node>
	<node id="-865372" lat="63.2576427491" lon="9.80249888587">
		<tag k="name" v="Skåggån" />
		<tag k="place" v="farm" />
		<tag k="ssr:stedsnr" v="981713" />
	</node>
	<node id="-863323" lat="63.260856447" lon="9.76327975444">
		<tag k="fixme" v="consider place=hamlet" />
		<tag k="name" v="Svelia" />
		<tag k="place" v="farm" />
		<tag k="ssr:stedsnr" v="316771" />
	</node>
	<node id="-863322" lat="63.4190000023" lon="9.96054444187">
		<tag k="fixme" v="consider place=hamlet" />
		<tag k="name" v="Øverkjøra" />
		<tag k="place" v="village" />
		<tag k="ssr:stedsnr" v="276775" />
	</node>
	<node id="-865365" lat="63.2745166691" lon="9.7531333289">
		<tag k="alt_name" v="Nyhus" />
		<tag k="name" v="Nyhusan" />
		<tag k="place" v="farm" />
		<tag k="ssr:stedsnr" v="680396" />
	</node>
	<node id="-865363" lat="63.230674997" lon="9.62268056425">
		<tag k="name" v="Myralykkja" />
		<tag k="place" v="farm" />
		<tag k="ssr:stedsnr" v="619598" />
	</node>
	<node id="-865362" lat="63.363525002" lon="9.88923333529">
		<tag k="alt_name" v="Lykkjflata" />
		<tag k="name" v="Lykkjeflata" />
		<tag k="place" v="farm" />
		<tag k="ssr:stedsnr" v="256417" />
	</node>
	<node id="-865361" lat="63.2411527766" lon="9.77931389607">
		<tag k="name" v="Mo" />
		<tag k="place" v="farm" />
		<tag k="ssr:stedsnr" v="458125" />
	</node>
	<node id="-865359" lat="63.4319361109" lon="9.97047500356">
		<tag k="alt_name" v="Sandgrova" />
		<tag k="name" v="Sandgrava" />
		<tag k="place" v="farm" />
		<tag k="ssr:stedsnr" v="741129" />
	</node>
	<node id="-865357" lat="63.3120222194" lon="9.86095555352">
		<tag k="name" v="Thamshamn gard" />
		<tag k="place" v="farm" />
		<tag k="ssr:stedsnr" v="823416" />
	</node>
	<node id="-865356" lat="63.2693503258" lon="9.73475222037">
		<tag k="name" v="Fagerholtet" />
		<tag k="place" v="farm" />
		<tag k="ssr:stedsnr" v="680394" />
	</node>
	<node id="-865353" lat="63.3630055528" lon="9.91644999309">
		<tag k="name" v="Isdalslykkja" />
		<tag k="old_name" v="Isdallykkja" />
		<tag k="place" v="farm" />
		<tag k="ssr:stedsnr" v="681442" />
	</node>
	<node id="-865352" lat="63.2600944478" lon="9.75315555805">
		<tag k="name" v="Rislia" />
		<tag k="place" v="farm" />
		<tag k="ssr:stedsnr" v="438733" />
	</node>
	<node id="-865347" lat="63.3616277774" lon="9.92063888602">
		<tag k="name" v="Solbakken" />
		<tag k="place" v="farm" />
		<tag k="ssr:stedsnr" v="681440" />
	</node>
	<node id="-863298" lat="63.3657000024" lon="9.92767777698">
		<tag k="fixme" v="consider place=hamlet" />
		<tag k="name" v="Nordåstan" />
		<tag k="place" v="farm" />
		<tag k="ssr:stedsnr" v="94466" />
	</node>
	<node id="-863297" lat="63.1859857534" lon="9.62044934922">
		<tag k="fixme" v="consider place=hamlet" />
		<tag k="name" v="Lysingmoen" />
		<tag k="place" v="farm" />
		<tag k="ssr:stedsnr" v="884599" />
	</node>
	<node id="-865344" lat="63.3643361144" lon="9.84405278172">
		<tag k="name" v="Bakken" />
		<tag k="place" v="farm" />
		<tag k="ssr:stedsnr" v="256419" />
	</node>
	<node id="-865343" lat="63.2877722262" lon="9.69954444382">
		<tag k="name" v="Snausen" />
		<tag k="place" v="farm" />
		<tag k="ssr:stedsnr" v="281670" />
	</node>
	<node id="-865340" lat="63.1866605715" lon="9.88781843493">
		<tag k="alt_name" v="Snøtonsætra" />
		<tag k="fixme" v="consider place=hamlet" />
		<tag k="name" v="Snøton" />
		<tag k="place" v="farm" />
		<tag k="ssr:stedsnr" v="862190" />
	</node>
	<node id="-865339" lat="63.3030277805" lon="9.64481111193">
		<tag k="name" v="Fjellheim" />
		<tag k="place" v="farm" />
		<tag k="ssr:stedsnr" v="438203" />
	</node>
	<node id="-863290" lat="63.264347223" lon="9.77446389319">
		<tag k="name" v="Gildalslykkja" />
		<tag k="place" v="farm" />
		<tag k="ssr:stedsnr" v="579013" />
	</node>
	<node id="-863284" lat="63.2230138883" lon="9.76973055471">
		<tag k="name" v="Bakken" />
		<tag k="place" v="farm" />
		<tag k="ssr:stedsnr" v="762913" />
	</node>
	<node id="-863276" lat="63.2498118149" lon="9.76731702537">
		<tag k="fixme" v="consider place=hamlet" />
		<tag k="name" v="Bakk" />
		<tag k="place" v="farm" />
		<tag k="ssr:stedsnr" v="923715" />
	</node>
	<node id="-865323" lat="63.2654194451" lon="9.82632221337">
		<tag k="alt_name" v="Ljåmo" />
		<tag k="fixme" v="consider place=hamlet" />
		<tag k="name" v="Ljåmoen" />
		<tag k="place" v="farm" />
		<tag k="ssr:stedsnr" v="195749" />
	</node>
	<node id="-865321" lat="63.3470277742" lon="9.8865027875">
		<tag k="name" v="Lykkjflata" />
		<tag k="place" v="farm" />
		<tag k="ssr:stedsnr" v="883520" />
	</node>
	<node id="-863271" lat="63.2763666676" lon="9.8356444373">
		<tag k="fixme" v="consider place=hamlet" />
		<tag k="name" v="Kleivan" />
		<tag k="place" v="farm" />
		<tag k="ssr:stedsnr" v="74354" />
	</node>
	<node id="-865318" lat="63.4331930721" lon="9.97163111886">
		<tag k="name" v="Geita" />
		<tag k="place" v="hamlet" />
		<tag k="ssr:stedsnr" v="972117" />
	</node>
	<node id="-865314" lat="63.4173407176" lon="9.96126694356">
		<tag k="fixme" v="consider place=hamlet" />
		<tag k="name" v="Kjøra" />
		<tag k="place" v="farm" />
		<tag k="ssr:stedsnr" v="972116" />
	</node>
	<node id="-863265" lat="63.2709888902" lon="9.67930833812">
		<tag k="name" v="Rønningen" />
		<tag k="place" v="farm" />
		<tag k="ssr:stedsnr" v="520811" />
	</node>
	<node id="-865312" lat="63.271977778" lon="9.57681943643">
		<tag k="name" v="Dorodalen" />
		<tag k="place" v="hamlet" />
		<tag k="ssr:stedsnr" v="702753" />
	</node>
	<node id="-863263" lat="63.2580199426" lon="9.77929000509">
		<tag k="fixme" v="consider place=hamlet" />
		<tag k="name" v="Torshus" />
		<tag k="place" v="farm" />
		<tag k="ssr:stedsnr" v="923717" />
	</node>
	<node id="-865307" lat="63.1779942987" lon="9.57865149238">
		<tag k="fixme" v="consider place=hamlet" />
		<tag k="name" v="Øyasætra" />
		<tag k="place" v="farm" />
		<tag k="ssr:stedsnr" v="923568" />
	</node>
	<node id="-863258" lat="63.2278504949" lon="9.79377921694">
		<tag k="alt_name" v="Reinskleiv" />
		<tag k="fixme" v="consider place=hamlet" />
		<tag k="name" v="Reinskleiva" />
		<tag k="place" v="farm" />
		<tag k="ssr:stedsnr" v="740231" />
	</node>
	<node id="-865304" lat="63.2581361096" lon="9.75000000931">
		<tag k="name" v="Egglykkja" />
		<tag k="place" v="farm" />
		<tag k="ssr:stedsnr" v="620667" />
	</node>
	<node id="-865302" lat="63.2834300038" lon="9.86112239968">
		<tag k="fixme" v="consider place=hamlet" />
		<tag k="name" v="Espa" />
		<tag k="place" v="farm" />
		<tag k="ssr:stedsnr" v="134417" />
	</node>
	<node id="-865299" lat="63.2675805581" lon="9.77385832425">
		<tag k="alt_name" v="Solumsmoen" />
		<tag k="name" v="Solhusmoen" />
		<tag k="place" v="farm" />
		<tag k="ssr:stedsnr" v="195740" />
	</node>
	<node id="-865298" lat="63.2825722226" lon="9.84294166381">
		<tag k="alt_name" v="Gymnas" />
		<tag k="amenity" v="school" />
		<tag k="name" v="Orkdal videregående skole" />
		<tag k="old_name" v="Orkdal gymnas" />
		<tag k="ssr:stedsnr" v="134416" />
	</node>
	<node id="-863248" lat="63.3995972227" lon="9.69886389698">
		<tag k="alt_name" v="Aunesetra" />
		<tag k="historic" v="shieling" />
		<tag k="name" v="Aunsætra" />
		<tag k="place" v="locality" />
		<tag k="ssr:stedsnr" v="194836" />
	</node>
	<node id="-863246" lat="63.3180833368" lon="9.80651389185">
		<tag k="amenity" v="school" />
		<tag k="name" v="Gjølme skole" />
		<tag k="ssr:stedsnr" v="727844" />
	</node>
	<node id="-865293" lat="63.1904136684" lon="9.87396584919">
		<tag k="fixme" v="consider place=hamlet" />
		<tag k="name" v="Grø" />
		<tag k="place" v="farm" />
		<tag k="ssr:stedsnr" v="33385" />
	</node>
	<node id="-865291" lat="63.2632095053" lon="9.8193044146">
		<tag k="fixme" v="consider place=hamlet" />
		<tag k="name" v="Gjesvål" />
		<tag k="place" v="farm" />
		<tag k="ssr:stedsnr" v="498728" />
	</node>
	<node id="-865288" lat="63.2621972253" lon="9.82457500807">
		<tag k="name" v="Brekka" />
		<tag k="place" v="quarter" />
		<tag k="ssr:stedsnr" v="458098" />
	</node>
	<node id="-863237" lat="63.2548302621" lon="9.60586563974">
		<tag k="fixme" v="consider place=hamlet" />
		<tag k="name" v="Svorkdalen" />
		<tag k="place" v="farm" />
		<tag k="ssr:stedsnr" v="680024" />
	</node>
	<node id="-865284" lat="63.3153027736" lon="9.84174166681">
		<tag k="loc_name" v="Grønøra" />
		<tag k="name" v="Grønøra havn og industriområde" />
		<tag k="place" v="quarter" />
		<tag k="ssr:stedsnr" v="483999" />
	</node>
	<node id="-865281" lat="63.3546702539" lon="9.80265303657">
		<tag k="fixme" v="consider place=hamlet" />
		<tag k="name" v="Steinlia" />
		<tag k="place" v="farm" />
		<tag k="ssr:stedsnr" v="923541" />
	</node>
	<node id="-865280" lat="63.2327972236" lon="9.60491666889">
		<tag k="fixme" v="consider place=hamlet" />
		<tag k="name" v="Bjørklihaugen" />
		<tag k="place" v="farm" />
		<tag k="ssr:stedsnr" v="702709" />
	</node>
	<node id="-863231" lat="63.2592861093" lon="9.77302500221">
		<tag k="name" v="Karlegga" />
		<tag k="place" v="farm" />
		<tag k="ssr:stedsnr" v="762063" />
	</node>
	<node id="-865277" lat="63.2638611069" lon="9.84371666755">
		<tag k="name" v="Skrubbhaugen" />
		<tag k="place" v="farm" />
		<tag k="ssr:stedsnr" v="34259" />
	</node>
	<node id="-863227" lat="63.2553416638" lon="9.77695555035">
		<tag k="name" v="Ødyn" />
		<tag k="place" v="farm" />
		<tag k="ssr:stedsnr" v="762064" />
	</node>
	<node id="-863223" lat="63.253930558" lon="9.83271666159">
		<tag k="name" v="Gjesvål-lykkja" />
		<tag k="place" v="farm" />
		<tag k="ssr:stedsnr" v="458336" />
	</node>
	<node id="-865270" lat="63.1699194465" lon="9.72605833135">
		<tag k="name" v="Landbolet" />
		<tag k="place" v="farm" />
		<tag k="ssr:stedsnr" v="824249" />
	</node>
	<node id="-863219" lat="63.1857833295" lon="9.4705861128">
		<tag k="name" v="Risan" />
		<tag k="place" v="farm" />
		<tag k="ssr:stedsnr" v="277603" />
	</node>
	<node id="-863218" lat="63.1596999963" lon="9.68602500453">
		<tag k="fixme" v="consider place=hamlet" />
		<tag k="name" v="Oppøya" />
		<tag k="place" v="farm" />
		<tag k="ssr:stedsnr" v="884578" />
	</node>
	<node id="-863217" lat="63.294333331" lon="9.81934999565">
		<tag k="alt_name" v="Gjølmesli" />
		<tag k="name" v="Rommet" />
		<tag k="place" v="farm" />
		<tag k="ssr:stedsnr" v="498383" />
	</node>
	<node id="-863216" lat="63.2843722204" lon="9.8542083404">
		<tag k="name" v="Evjenslykkja" />
		<tag k="place" v="farm" />
		<tag k="ssr:stedsnr" v="701310" />
	</node>
	<node id="-863214" lat="63.2605416665" lon="9.7788750048">
		<tag k="name" v="Framigard" />
		<tag k="place" v="farm" />
		<tag k="ssr:stedsnr" v="579053" />
	</node>
	<node id="-862717" lat="63.2825166705" lon="9.83109165759">
		<tag k="name" v="Gjølgjerdet" />
		<tag k="place" v="farm" />
		<tag k="ssr:stedsnr" v="155444" />
	</node>
	<node id="-863209" lat="63.2639777742" lon="9.77178611247">
		<tag k="name" v="Gildalen" />
		<tag k="place" v="farm" />
		<tag k="ssr:stedsnr" v="923749" />
	</node>
	<node id="-865256" lat="63.2434834419" lon="9.59771913963">
		<tag k="alt_name" v="Eide" />
		<tag k="fixme" v="consider place=hamlet" />
		<tag k="name" v="Eidet" />
		<tag k="place" v="farm" />
		<tag k="ssr:stedsnr" v="73667" />
	</node>
	<node id="-863207" lat="63.3788166636" lon="9.70898889244">
		<tag k="name" v="Svarttjønnhytta" />
		<tag k="place" v="isolated_dwelling" />
		<tag k="ssr:stedsnr" v="458417" />
	</node>
	<node id="-863205" lat="63.3429972196" lon="9.767077785">
		<tag k="historic" v="shieling" />
		<tag k="name" v="Fjellkjøsslættet" />
		<tag k="place" v="locality" />
		<tag k="ssr:stedsnr" v="519144" />
	</node>
	<node id="-865249" lat="63.3028999989" lon="9.84786388939">
		<tag k="fixme" v="consider place=hamlet" />
		<tag k="name" v="Rømme" />
		<tag k="place" v="farm" />
		<tag k="ssr:stedsnr" v="276511" />
	</node>
	<node id="-863199" lat="63.2295055539" lon="9.36944167209">
		<tag k="fixme" v="consider place=hamlet" />
		<tag k="name" v="Knubben" />
		<tag k="place" v="farm" />
		<tag k="ssr:stedsnr" v="133544" />
	</node>
	<node id="-865246" lat="63.1707083345" lon="9.72120832502">
		<tag k="name" v="Oppstuggu" />
		<tag k="place" v="farm" />
		<tag k="ssr:stedsnr" v="703531" />
	</node>
	<node id="-863197" lat="63.3235351425" lon="9.69159906571">
		<tag k="name" v="Ellingsgardan" />
		<tag k="place" v="locality" />
		<tag k="ssr:stedsnr" v="762980" />
	</node>
	<node id="-865244" lat="63.2977055574" lon="9.74015832499">
		<tag k="name" v="Fossen" />
		<tag k="place" v="isolated_dwelling" />
		<tag k="ssr:stedsnr" v="94191" />
	</node>
	<node id="-863194" lat="63.3067527791" lon="9.85202777214">
		<tag k="amenity" v="school" />
		<tag k="name" v="Orkanger barneskole" />
		<tag k="ssr:stedsnr" v="362859" />
	</node>
	<node id="-865241" lat="63.1697194404" lon="9.73740277679">
		<tag k="fixme" v="consider place=hamlet" />
		<tag k="name" v="Årlivoll" />
		<tag k="place" v="farm" />
		<tag k="ssr:stedsnr" v="824243" />
	</node>
	<node id="-863191" lat="63.202536109" lon="9.62358611983">
		<tag k="name" v="Nigarden" />
		<tag k="place" v="farm" />
		<tag k="ssr:stedsnr" v="884634" />
	</node>
	<node id="-863189" lat="63.1751361079" lon="9.73322777093">
		<tag k="name" v="Gilstuggu" />
		<tag k="place" v="farm" />
		<tag k="ssr:stedsnr" v="885497" />
	</node>
	<node id="-865234" lat="63.2790888847" lon="9.65466111134">
		<tag k="alt_name" v="Melåsen" />
		<tag k="name" v="Melås" />
		<tag k="place" v="isolated_dwelling" />
		<tag k="ssr:stedsnr" v="863239" />
	</node>
	<node id="-863185" lat="63.2618222214" lon="9.44852222858">
		<tag k="historic" v="shieling" />
		<tag k="name" v="Kvålesætra" />
		<tag k="place" v="locality" />
		<tag k="ssr:stedsnr" v="255003" />
	</node>
	<node id="-865232" lat="63.1655600245" lon="9.76638703284">
		<tag k="name" v="Sjølberg" />
		<tag k="place" v="hamlet" />
		<tag k="ssr:stedsnr" v="73132" />
	</node>
	<node id="-865229" lat="63.1838958735" lon="9.8535314591">
		<tag k="alt_name" v="Espås" />
		<tag k="fixme" v="consider place=hamlet" />
		<tag k="name" v="Espåsen" />
		<tag k="place" v="farm" />
		<tag k="ssr:stedsnr" v="862186" />
	</node>
	<node id="-863180" lat="63.2520611082" lon="9.88978611436">
		<tag k="name" v="Kjostolvheim" />
		<tag k="place" v="isolated_dwelling" />
		<tag k="ssr:stedsnr" v="923727" />
	</node>
	<node id="-863179" lat="63.2715222226" lon="9.685197213">
		<tag k="name" v="Oppigarden" />
		<tag k="place" v="farm" />
		<tag k="ssr:stedsnr" v="338788" />
	</node>
	<node id="-863178" lat="63.3478075074" lon="9.72850730944">
		<tag k="fixme" v="consider place=hamlet" />
		<tag k="name" v="Brølia" />
		<tag k="place" v="farm" />
		<tag k="ssr:stedsnr" v="13520" />
	</node>
	<node id="-863177" lat="63.1687527757" lon="9.72226944804">
		<tag k="name" v="Negard" />
		<tag k="place" v="farm" />
		<tag k="ssr:stedsnr" v="885500" />
	</node>
	<node id="-863176" lat="63.3692666635" lon="9.86979721752">
		<tag k="alt_name" v="Geitastranda" />
		<tag k="fixme" v="consider place=hamlet" />
		<tag k="name" v="Geitastrand" />
		<tag k="place" v="village" />
		<tag k="ssr:stedsnr" v="847955" />
	</node>
	<node id="-863173" lat="63.2025166691" lon="9.88118611573">
		<tag k="name" v="Monsetsætra" />
		<tag k="place" v="isolated_dwelling" />
		<tag k="ssr:stedsnr" v="619215" />
	</node>
	<node id="-863172" lat="63.171755554" lon="9.76617777555">
		<tag k="name" v="Sandbakken" />
		<tag k="place" v="farm" />
		<tag k="ssr:stedsnr" v="278545" />
	</node>
	<node id="-863171" lat="63.2422555591" lon="9.78276111404">
		<tag k="name" v="Nordgarden" />
		<tag k="place" v="farm" />
		<tag k="ssr:stedsnr" v="762112" />
	</node>
	<node id="-865218" lat="63.1799932617" lon="9.7876257003">
		<tag k="alt_name" v="Nedgard" />
		<tag k="name" v="Hongslo" />
		<tag k="place" v="hamlet" />
		<tag k="ssr:stedsnr" v="862187" />
	</node>
	<node id="-865217" lat="63.31498333" lon="9.7952638846">
		<tag k="name" v="Skjenaldhaugen" />
		<tag k="place" v="farm" />
		<tag k="ssr:stedsnr" v="863251" />
	</node>
	<node id="-863167" lat="63.1530055525" lon="9.83980554856">
		<tag k="historic" v="shieling" />
		<tag k="name" v="Vaulen" />
		<tag k="place" v="locality" />
		<tag k="ssr:stedsnr" v="946413" />
	</node>
	<node id="-863165" lat="63.2406388863" lon="9.78253611196">
		<tag k="name" v="Damman" />
		<tag k="place" v="farm" />
		<tag k="ssr:stedsnr" v="762113" />
	</node>
	<node id="-865211" lat="63.2342916702" lon="9.75008055029">
		<tag k="fixme" v="consider place=hamlet" />
		<tag k="name" v="Lefstadaunet" />
		<tag k="place" v="farm" />
		<tag k="ssr:stedsnr" v="458091" />
	</node>
	<node id="-863162" lat="63.2432391478" lon="9.87223903654">
		<tag k="alt_name" v="Munkli" />
		<tag k="fixme" v="consider place=hamlet" />
		<tag k="name" v="Munklia" />
		<tag k="place" v="farm" />
		<tag k="ssr:stedsnr" v="498377" />
	</node>
	<node id="-865208" lat="63.3306157516" lon="9.64715544343">
		<tag k="alt_name" v="Songli forsøksgård" />
		<tag k="fixme" v="consider place=hamlet" />
		<tag k="name" v="Songli" />
		<tag k="place" v="farm" />
		<tag k="ssr:stedsnr" v="862183" />
	</node>
	<node id="-865202" lat="63.248805555" lon="9.82206110824">
		<tag k="name" v="Leirvegen" />
		<tag k="place" v="farm" />
		<tag k="ssr:stedsnr" v="156107" />
	</node>
	<node id="-865200" lat="63.3046030395" lon="9.76035495835">
		<tag k="fixme" v="consider place=hamlet" />
		<tag k="name" v="Annøl" />
		<tag k="place" v="farm" />
		<tag k="ssr:stedsnr" v="13334" />
	</node>
	<node id="-863151" lat="63.2829361135" lon="9.78503055416">
		<tag k="fixme" v="consider place=hamlet" />
		<tag k="name" v="Haldogarden" />
		<tag k="place" v="farm" />
		<tag k="ssr:stedsnr" v="579016" />
	</node>
	<node id="-865197" lat="63.2921111144" lon="9.84273333459">
		<tag k="name" v="Lindebakken" />
		<tag k="place" v="farm" />
		<tag k="ssr:stedsnr" v="34239" />
	</node>
	<node id="-863141" lat="63.2822985327" lon="9.782170359">
		<tag k="fixme" v="consider place=hamlet" />
		<tag k="name" v="Ustan" />
		<tag k="place" v="farm" />
		<tag k="ssr:stedsnr" v="195395" />
	</node>
	<node id="-863139" lat="63.2448166696" lon="9.81675000867">
		<tag k="alt_name" v="Flotten" />
		<tag k="name" v="Lykkflåtten" />
		<tag k="place" v="farm" />
		<tag k="ssr:stedsnr" v="862328" />
	</node>
	<node id="-863136" lat="63.2458388902" lon="9.5988555524">
		<tag k="name" v="Eide" />
		<tag k="place" v="farm" />
		<tag k="ssr:stedsnr" v="217734" />
	</node>
	<node id="-862704" lat="63.4195111149" lon="9.95884722734">
		<tag k="name" v="Nikolaikjøra" />
		<tag k="place" v="farm" />
		<tag k="ssr:stedsnr" v="216703" />
	</node>
	<node id="-865182" lat="63.4224055559" lon="9.96804999928">
		<tag k="name" v="Langvika" />
		<tag k="place" v="farm" />
		<tag k="ssr:stedsnr" v="73117" />
	</node>
	<node id="-863133" lat="63.2956138845" lon="9.91516666539">
		<tag k="name" v="Evjenslættet" />
		<tag k="old_name" v="Evjenslette" />
		<tag k="place" v="isolated_dwelling" />
		<tag k="ssr:stedsnr" v="438324" />
	</node>
	<node id="-863132" lat="63.224847221" lon="9.57761110541">
		<tag k="fixme" v="consider place=hamlet" />
		<tag k="name" v="Nordegga" />
		<tag k="place" v="farm" />
		<tag k="ssr:stedsnr" v="520779" />
	</node>
	<node id="-862703" lat="63.2536916637" lon="9.77160833755">
		<tag k="fixme" v="multiple name tags, choose one and add the other to alt_name" />
		<tag k="name" v="Ødynmoen;Ødyn" />
		<tag k="place" v="farm" />
		<tag k="ssr:stedsnr" v="701063" />
	</node>
	<node id="-865175" lat="63.2890444436" lon="9.84893055993">
		<tag k="name" v="Bakken" />
		<tag k="place" v="farm" />
		<tag k="ssr:stedsnr" v="155258" />
	</node>
	<node id="-863125" lat="63.2780111074" lon="9.6764250078">
		<tag k="fixme" v="multiple name tags, choose one and add the other to alt_name" />
		<tag k="name" v="Gjønneshaugen;Haugan" />
		<tag k="place" v="farm" />
		<tag k="ssr:stedsnr" v="134010" />
	</node>
	<node id="-863124" lat="63.2897075994" lon="9.83817940369">
		<tag k="alt_name" v="Daløya" />
		<tag k="fixme" v="consider place=hamlet" />
		<tag k="name" v="Evjen" />
		<tag k="place" v="farm" />
		<tag k="ssr:stedsnr" v="317292" />
	</node>
	<node id="-862702" lat="63.258377782" lon="9.7758638855">
		<tag k="alt_name" v="Såmmårvål" />
		<tag k="name" v="Synneslia" />
		<tag k="place" v="farm" />
		<tag k="ssr:stedsnr" v="701065" />
	</node>
	<node id="-863122" lat="63.2619222208" lon="9.78253610452">
		<tag k="name" v="Nordigard" />
		<tag k="place" v="farm" />
		<tag k="ssr:stedsnr" v="519066" />
	</node>
	<node id="-865164" lat="63.2482249994" lon="9.47368055673">
		<tag k="alt_name" v="Foss-sætra" />
		<tag k="historic" v="shieling" />
		<tag k="name" v="Fossætra" />
		<tag k="place" v="locality" />
		<tag k="ssr:stedsnr" v="55593" />
	</node>
	<node id="-863042" lat="63.254552774" lon="9.74580555127">
		<tag k="name" v="Fossan" />
		<tag k="place" v="hamlet" />
		<tag k="ssr:stedsnr" v="216007" />
	</node>
	<node id="-863114" lat="63.2712144988" lon="9.6860447387">
		<tag k="fixme" v="consider place=hamlet" />
		<tag k="name" v="Gjønnes" />
		<tag k="place" v="farm" />
		<tag k="ssr:stedsnr" v="680006" />
	</node>
	<node id="-865160" lat="63.2871622211" lon="9.6937245086">
		<tag k="fixme" v="consider place=hamlet" />
		<tag k="name" v="Snausen" />
		<tag k="place" v="farm" />
		<tag k="ssr:stedsnr" v="863224" />
	</node>
	<node id="-863111" lat="63.2066916635" lon="9.63613055008">
		<tag k="name" v="Limoen" />
		<tag k="place" v="farm" />
		<tag k="ssr:stedsnr" v="823638" />
	</node>
	<node id="-865157" lat="63.2495253154" lon="9.88025887895">
		<tag k="fixme" v="consider place=hamlet" />
		<tag k="name" v="Geitbuan" />
		<tag k="place" v="farm" />
		<tag k="ssr:stedsnr" v="680354" />
	</node>
	<node id="-865155" lat="63.2654499963" lon="9.83143889447">
		<tag k="name" v="Ljåmogjerdet" />
		<tag k="place" v="farm" />
		<tag k="ssr:stedsnr" v="74714" />
	</node>
	<node id="-863106" lat="63.2722750036" lon="9.80111943742">
		<tag k="name" v="Jelkøya" />
		<tag k="place" v="isolated_dwelling" />
		<tag k="ssr:stedsnr" v="519070" />
	</node>
	<node id="-865152" lat="63.2383888919" lon="9.5098055573">
		<tag k="name" v="Kåsen" />
		<tag k="place" v="locality" />
		<tag k="ssr:stedsnr" v="55590" />
	</node>
	<node id="-863098" lat="63.2296000015" lon="9.42315000162">
		<tag k="alt_name" v="Søvassli nedre" />
		<tag k="name" v="Nedre Søvassli" />
		<tag k="place" v="farm" />
		<tag k="ssr:stedsnr" v="465729" />
	</node>
	<node id="-865145" lat="63.2901643613" lon="9.61147741073">
		<tag k="alt_name" v="Vinterdalen" />
		<tag k="fixme" v="consider place=hamlet" />
		<tag k="name" v="Vinterdal" />
		<tag k="place" v="farm" />
		<tag k="ssr:stedsnr" v="863231" />
	</node>
	<node id="-863096" lat="63.2109516913" lon="9.76814560702">
		<tag k="name" v="Ljøkjel" />
		<tag k="place" v="hamlet" />
		<tag k="ssr:stedsnr" v="707818" />
	</node>
	<node id="-863095" lat="63.2702851293" lon="9.70775396043">
		<tag k="fixme" v="consider place=hamlet" />
		<tag k="name" v="Stordal" />
		<tag k="place" v="farm" />
		<tag k="ssr:stedsnr" v="802010" />
	</node>
	<node id="-863093" lat="63.1613833311" lon="9.69808333459">
		<tag k="alt_name" v="Aunet" />
		<tag k="name" v="Rønningen" />
		<tag k="place" v="farm" />
		<tag k="ssr:stedsnr" v="801495" />
	</node>
	<node id="-865137" lat="63.256464823" lon="9.75380042241">
		<tag k="name" v="Eggan" />
		<tag k="place" v="hamlet" />
		<tag k="ssr:stedsnr" v="438693" />
	</node>
	<node id="-865134" lat="63.2982111121" lon="9.83456111712">
		<tag k="name" v="Beitøra" />
		<tag k="place" v="quarter" />
		<tag k="ssr:stedsnr" v="58547" />
	</node>
	<node id="-865130" lat="63.4332083295" lon="9.96794999323">
		<tag k="name" v="Berget" />
		<tag k="place" v="farm" />
		<tag k="ssr:stedsnr" v="73108" />
	</node>
	<node id="-863073" lat="63.1627055558" lon="9.74926112025">
		<tag k="name" v="Simoshaugen" />
		<tag k="place" v="farm" />
		<tag k="ssr:stedsnr" v="315125" />
	</node>
	<node id="-863070" lat="63.160337623" lon="9.73640451232">
		<tag k="alt_name" v="Klingen" />
		<tag k="fixme" v="consider place=hamlet" />
		<tag k="name" v="Klinga" />
		<tag k="place" v="farm" />
		<tag k="ssr:stedsnr" v="923150" />
	</node>
	<node id="-863066" lat="63.3213333306" lon="9.72864444446">
		<tag k="alt_name" v="Dyndalssætra" />
		<tag k="name" v="Dyndalsætra" />
		<tag k="place" v="isolated_dwelling" />
		<tag k="ssr:stedsnr" v="73267" />
	</node>
	<node id="-865109" lat="63.3115944409" lon="9.80752777604">
		<tag k="name" v="Sve" />
		<tag k="place" v="farm" />
		<tag k="ssr:stedsnr" v="155240" />
	</node>
	<node id="-863058" lat="63.2992972229" lon="9.65805278258">
		<tag k="name" v="Sætermo" />
		<tag k="place" v="farm" />
		<tag k="ssr:stedsnr" v="316225" />
	</node>
	<node id="-865105" lat="63.2777083333" lon="9.7633944416">
		<tag k="fixme" v="consider place=hamlet" />
		<tag k="name" v="Svelstad" />
		<tag k="place" v="farm" />
		<tag k="ssr:stedsnr" v="34211" />
	</node>
	<node id="-865101" lat="63.3787361101" lon="9.7089583423">
		<tag k="name" v="Svarttjønnhytta" />
		<tag k="place" v="isolated_dwelling" />
		<tag k="ssr:stedsnr" v="760049" />
	</node>
	<node id="-865099" lat="63.2576966463" lon="9.80456961746">
		<tag k="fixme" v="consider place=hamlet" />
		<tag k="name" v="Skåggån" />
		<tag k="place" v="farm" />
		<tag k="ssr:stedsnr" v="438697" />
	</node>
	<node id="-863049" lat="63.2598420138" lon="9.8576807192">
		<tag k="alt_name" v="Lauvåsen" />
		<tag k="fixme" v="consider place=hamlet" />
		<tag k="name" v="Lauvås" />
		<tag k="place" v="farm" />
		<tag k="ssr:stedsnr" v="316734" />
	</node>
	<node id="-863048" lat="63.2712472184" lon="9.73713888536">
		<tag k="fixme" v="consider place=hamlet" />
		<tag k="name" v="Fagerholtet" />
		<tag k="place" v="farm" />
		<tag k="ssr:stedsnr" v="216005" />
	</node>
	<node id="-865093" lat="63.1553805583" lon="9.76135832642">
		<tag k="fixme" v="consider place=hamlet" />
		<tag k="name" v="Haugen" />
		<tag k="place" v="farm" />
		<tag k="ssr:stedsnr" v="862147" />
	</node>
	<node id="-865090" lat="63.2227416687" lon="9.63619722594">
		<tag k="name" v="Teigen" />
		<tag k="place" v="farm" />
		<tag k="ssr:stedsnr" v="95856" />
	</node>
	<node id="-863040" lat="63.2751406876" lon="9.79778679508">
		<tag k="name" v="Metlia" />
		<tag k="place" v="farm" />
		<tag k="ssr:stedsnr" v="667601" />
	</node>
	<node id="-865082" lat="63.3142666623" lon="9.79630276956">
		<tag k="name" v="Dyndalshaugen" />
		<tag k="place" v="farm" />
		<tag k="ssr:stedsnr" v="13312" />
	</node>
	<node id="-863030" lat="63.2619166628" lon="9.76319722592">
		<tag k="name" v="Svelitrøa" />
		<tag k="place" v="farm" />
		<tag k="ssr:stedsnr" v="762056" />
	</node>
	<node id="-863029" lat="63.2582666691" lon="9.76313055719">
		<tag k="name" v="Ødynhaugen" />
		<tag k="place" v="farm" />
		<tag k="ssr:stedsnr" v="762058" />
	</node>
	<node id="-863026" lat="63.1667888883" lon="9.6147972297">
		<tag k="name" v="Ragnhildmyran" />
		<tag k="place" v="locality" />
		<tag k="ssr:stedsnr" v="255508" />
	</node>
	<node id="-863017" lat="63.2890114869" lon="9.70244655989">
		<tag k="fixme" v="consider place=hamlet" />
		<tag k="name" v="Kvakland" />
		<tag k="place" v="farm" />
		<tag k="ssr:stedsnr" v="316241" />
	</node>
	<node id="-865058" lat="63.3094472257" lon="9.86713055179">
		<tag k="name" v="Perbakkan" />
		<tag k="place" v="isolated_dwelling" />
		<tag k="ssr:stedsnr" v="397523" />
	</node>
	<node id="-865053" lat="63.3958166647" lon="9.94271943842">
		<tag k="historic" v="shieling" />
		<tag k="name" v="Klomsteinsætra" />
		<tag k="place" v="locality" />
		<tag k="ssr:stedsnr" v="762588" />
	</node>
	<node id="-865050" lat="63.1593777773" lon="9.75451665766">
		<tag k="name" v="Grønvollen" />
		<tag k="place" v="farm" />
		<tag k="ssr:stedsnr" v="862144" />
	</node>
	<node id="-865049" lat="63.250743922" lon="9.82716391747">
		<tag k="fixme" v="consider place=hamlet" />
		<tag k="name" v="Sveegga" />
		<tag k="place" v="farm" />
		<tag k="ssr:stedsnr" v="255310" />
	</node>
	<node id="-862633" lat="63.3624861077" lon="9.88359444098">
		<tag k="name" v="Isdalslykkja" />
		<tag k="place" v="farm" />
		<tag k="ssr:stedsnr" v="579685" />
	</node>
	<node id="-862997" lat="63.19504444" lon="9.82325834115">
		<tag k="name" v="Hesthaugen" />
		<tag k="place" v="farm" />
		<tag k="ssr:stedsnr" v="740170" />
	</node>
	<node id="-862996" lat="63.2268658017" lon="9.7449449807">
		<tag k="fixme" v="consider place=hamlet" />
		<tag k="name" v="Raudkleiva" />
		<tag k="place" v="farm" />
		<tag k="ssr:stedsnr" v="73240" />
	</node>
	<node id="-862995" lat="63.2065777747" lon="9.56095277276">
		<tag k="name" v="Vika" />
		<tag k="place" v="farm" />
		<tag k="ssr:stedsnr" v="216794" />
	</node>
	<node id="-862994" lat="63.1772805593" lon="9.73974722327">
		<tag k="name" v="Sandekra" />
		<tag k="place" v="farm" />
		<tag k="ssr:stedsnr" v="460027" />
	</node>
	<node id="-865039" lat="63.2800545085" lon="9.77277590744">
		<tag k="fixme" v="consider place=hamlet" />
		<tag k="name" v="Haugen" />
		<tag k="place" v="farm" />
		<tag k="ssr:stedsnr" v="972054" />
	</node>
	<node id="-862990" lat="63.1763333316" lon="9.78655832978">
		<tag k="name" v="Håkkåslykkja" />
		<tag k="place" v="farm" />
		<tag k="ssr:stedsnr" v="339525" />
	</node>
	<node id="-862986" lat="63.3101666689" lon="9.78557500838">
		<tag k="alt_name" v="Fergbua" />
		<tag k="name" v="Ferjebu" />
		<tag k="old_name" v="Fergebu" />
		<tag k="place" v="farm" />
		<tag k="ssr:stedsnr" v="195323" />
	</node>
	<node id="-862985" lat="63.2905750007" lon="9.82114167531">
		<tag k="name" v="Lia" />
		<tag k="place" v="farm" />
		<tag k="ssr:stedsnr" v="519021" />
	</node>
	<node id="-865032" lat="63.2595298565" lon="9.84327738397">
		<tag k="fixme" v="consider place=hamlet" />
		<tag k="name" v="Sundli" />
		<tag k="place" v="farm" />
		<tag k="ssr:stedsnr" v="640291" />
	</node>
	<node id="-865031" lat="63.208241678" lon="9.56192247356">
		<tag k="fixme" v="consider place=hamlet" />
		<tag k="name" v="Vika" />
		<tag k="place" v="farm" />
		<tag k="ssr:stedsnr" v="437620" />
	</node>
	<node id="-862981" lat="63.3198055512" lon="9.81312778103">
		<tag k="fixme" v="consider place=hamlet" />
		<tag k="name" v="Reitan" />
		<tag k="place" v="farm" />
		<tag k="ssr:stedsnr" v="195316" />
	</node>
	<node id="-862980" lat="63.2837583301" lon="9.77514166954">
		<tag k="name" v="Gammelgarden" />
		<tag k="place" v="locality" />
		<tag k="ssr:stedsnr" v="458259" />
	</node>
	<node id="-862974" lat="63.2726158075" lon="9.58047802869">
		<tag k="fixme" v="consider place=hamlet" />
		<tag k="name" v="Dørdalen" />
		<tag k="place" v="farm" />
		<tag k="ssr:stedsnr" v="73237" />
	</node>
	<node id="-862973" lat="63.1939500042" lon="9.81090555675">
		<tag k="name" v="Aspjeld" />
		<tag k="place" v="farm" />
		<tag k="ssr:stedsnr" v="316195" />
	</node>
	<node id="-865019" lat="63.1819305536" lon="9.7453083252">
		<tag k="name" v="Oppigard" />
		<tag k="place" v="farm" />
		<tag k="ssr:stedsnr" v="35035" />
	</node>
	<node id="-865018" lat="63.2871055516" lon="9.69285000602">
		<tag k="fixme" v="multiple name tags, choose one and add the other to alt_name" />
		<tag k="name" v="Snausen;Snausgjerdet" />
		<tag k="place" v="farm" />
		<tag k="ssr:stedsnr" v="156959" />
	</node>
	<node id="-865014" lat="63.2529489516" lon="9.77049527209">
		<tag k="name" v="Bakkmoen" />
		<tag k="old_name" v="Ødynløkken" />
		<tag k="place" v="farm" />
		<tag k="ssr:stedsnr" v="195700" />
	</node>
	<node id="-865013" lat="63.2441132334" lon="9.74289262308">
		<tag k="fixme" v="consider place=hamlet" />
		<tag k="name" v="Buan" />
		<tag k="place" v="farm" />
		<tag k="ssr:stedsnr" v="255307" />
	</node>
	<node id="-862964" lat="63.2929750002" lon="9.71634165739">
		<tag k="name" v="Fossmyran" />
		<tag k="place" v="farm" />
		<tag k="ssr:stedsnr" v="620215" />
	</node>
	<node id="-862963" lat="63.2024999957" lon="9.55716943641">
		<tag k="historic" v="shieling" />
		<tag k="name" v="Vikalykkja" />
		<tag k="place" v="locality" />
		<tag k="ssr:stedsnr" v="762806" />
	</node>
	<node id="-862961" lat="63.1615796479" lon="9.66983859143">
		<tag k="alt_name" v="Kvikne" />
		<tag k="name" v="Kviknan" />
		<tag k="place" v="hamlet" />
		<tag k="ssr:stedsnr" v="558538" />
	</node>
	<node id="-865006" lat="63.183963888" lon="9.81869443561">
		<tag k="alt_name" v="Gården" />
		<tag k="name" v="Garden" />
		<tag k="place" v="farm" />
		<tag k="ssr:stedsnr" v="195174" />
	</node>
	<node id="-865005" lat="63.2963250004" lon="9.84980555884">
		<tag k="alt_name" v="Damman nedre" />
		<tag k="name" v="Nedre Damman" />
		<tag k="place" v="farm" />
		<tag k="ssr:stedsnr" v="640284" />
	</node>
	<node id="-865003" lat="63.2075222187" lon="9.63422499643">
		<tag k="name" v="Lihåggån" />
		<tag k="place" v="farm" />
		<tag k="ssr:stedsnr" v="702653" />
	</node>
	<node id="-862952" lat="63.2014990817" lon="9.64651079575">
		<tag k="fixme" v="consider place=hamlet" />
		<tag k="name" v="Berge" />
		<tag k="place" v="farm" />
		<tag k="ssr:stedsnr" v="923638" />
	</node>
	<node id="-862673" lat="63.3069833374" lon="9.64745278424">
		<tag k="name" v="Vonheim" />
		<tag k="place" v="farm" />
		<tag k="ssr:stedsnr" v="498252" />
	</node>
	<node id="-864994" lat="63.2363527808" lon="9.45620832855">
		<tag k="name" v="Fuglåsslættet" />
		<tag k="place" v="farm" />
		<tag k="ssr:stedsnr" v="604577" />
	</node>
	<node id="-862940" lat="63.1666861104" lon="9.71422221448">
		<tag k="name" v="Litlrønningen" />
		<tag k="place" v="farm" />
		<tag k="ssr:stedsnr" v="217648" />
	</node>
	<node id="-862939" lat="63.2017666622" lon="9.67997500318">
		<tag k="name" v="Klolykkj-gjerdet" />
		<tag k="place" v="farm" />
		<tag k="ssr:stedsnr" v="580625" />
	</node>
	<node id="-862935" lat="63.2263888894" lon="9.38774721527">
		<tag k="alt_name" v="Søvatn" />
		<tag k="fixme" v="consider place=hamlet" />
		<tag k="name" v="Ellingsgarden" />
		<tag k="place" v="farm" />
		<tag k="ssr:stedsnr" v="101744" />
	</node>
	<node id="-864982" lat="63.3503749981" lon="9.71199445259">
		<tag k="name" v="Nysætra" />
		<tag k="place" v="isolated_dwelling" />
		<tag k="ssr:stedsnr" v="74146" />
	</node>
	<node id="-864981" lat="63.2442972233" lon="9.65853610783">
		<tag k="historic" v="shieling" />
		<tag k="name" v="Røslykkja" />
		<tag k="place" v="locality" />
		<tag k="ssr:stedsnr" v="459748" />
	</node>
	<node id="-864979" lat="63.2837537678" lon="9.78832025382">
		<tag k="name" v="Ustan" />
		<tag k="place" v="hamlet" />
		<tag k="ssr:stedsnr" v="458020" />
	</node>
	<node id="-864977" lat="63.2519416685" lon="9.83495278124">
		<tag k="alt_name" v="Digerås øvre" />
		<tag k="name" v="Øvre Digerås" />
		<tag k="place" v="farm" />
		<tag k="ssr:stedsnr" v="944309" />
	</node>
	<node id="-864975" lat="63.2858722261" lon="9.79058056246">
		<tag k="name" v="Nygarden" />
		<tag k="place" v="farm" />
		<tag k="ssr:stedsnr" v="458019" />
	</node>
	<node id="-864974" lat="63.2611861069" lon="9.81007222694">
		<tag k="amenity" v="school" />
		<tag k="name" v="Grøtte skule" />
		<tag k="ssr:stedsnr" v="94104" />
	</node>
	<node id="-864969" lat="63.2875813511" lon="9.86936026574">
		<tag k="fixme" v="consider place=hamlet" />
		<tag k="name" v="Rødåsen" />
		<tag k="place" v="farm" />
		<tag k="ssr:stedsnr" v="802359" />
	</node>
	<node id="-864968" lat="63.3191055521" lon="9.8190166733">
		<tag k="fixme" v="consider place=suburb, village or hamlet" />
		<tag k="name" v="Småøran" />
		<tag k="place" v="quarter" />
		<tag k="ssr:stedsnr" v="155196" />
	</node>
	<node id="-862494" lat="63.231086108" lon="9.43045555612">
		<tag k="alt_name" v="Søvassli" />
		<tag k="amenity" v="school" />
		<tag k="name" v="Søvassli ungdomssenter og leirskole" />
		<tag k="ssr:stedsnr" v="343516" />
	</node>
	<node id="-864966" lat="63.2926555543" lon="9.71908889854">
		<tag k="alt_name" v="Fossengard;Foss" />
		<tag k="fixme" v="consider place=hamlet" />
		<tag k="name" v="Fossen" />
		<tag k="place" v="farm" />
		<tag k="ssr:stedsnr" v="134361" />
	</node>
	<node id="-862915" lat="63.3441893093" lon="9.76112988942">
		<tag k="fixme" v="consider place=hamlet" />
		<tag k="name" v="Fjellkjøsa" />
		<tag k="place" v="farm" />
		<tag k="ssr:stedsnr" v="377481" />
	</node>
	<node id="-862914" lat="63.2876499957" lon="9.62983333982">
		<tag k="name" v="Sæterlykkja" />
		<tag k="place" v="farm" />
		<tag k="ssr:stedsnr" v="170028" />
	</node>
	<node id="-864960" lat="63.1895683664" lon="9.45735972101">
		<tag k="fixme" v="consider place=hamlet" />
		<tag k="name" v="Stuggudalen" />
		<tag k="place" v="farm" />
		<tag k="ssr:stedsnr" v="73618" />
	</node>
	<node id="-862911" lat="63.2018777783" lon="9.67511388859">
		<tag k="name" v="Markalykkja" />
		<tag k="place" v="farm" />
		<tag k="ssr:stedsnr" v="580634" />
	</node>
	<node id="-862910" lat="63.1609166635" lon="9.73980277052">
		<tag k="name" v="Bastuvollen" />
		<tag k="place" v="farm" />
		<tag k="ssr:stedsnr" v="763710" />
	</node>
	<node id="-862908" lat="63.3429314394" lon="9.8622414688">
		<tag k="alt_name" v="Håkålåsen" />
		<tag k="fixme" v="consider place=hamlet" />
		<tag k="name" v="Hukelåsen" />
		<tag k="place" v="farm" />
		<tag k="ssr:stedsnr" v="377471" />
	</node>
	<node id="-862907" lat="63.3469850988" lon="9.87108027782">
		<tag k="fixme" v="consider place=hamlet" />
		<tag k="name" v="Sætra" />
		<tag k="place" v="farm" />
		<tag k="ssr:stedsnr" v="377470" />
	</node>
	<node id="-864954" lat="63.1643583303" lon="9.82171111345">
		<tag k="fixme" v="consider place=hamlet" />
		<tag k="name" v="Bøverdalen" />
		<tag k="place" v="farm" />
		<tag k="ssr:stedsnr" v="498151" />
	</node>
	<node id="-864952" lat="63.3379972257" lon="9.86282499525">
		<tag k="name" v="Lykkja" />
		<tag k="place" v="farm" />
		<tag k="ssr:stedsnr" v="579523" />
	</node>
	<node id="-862903" lat="63.2218444438" lon="9.61722221564">
		<tag k="name" v="Maligarden" />
		<tag k="place" v="locality" />
		<tag k="ssr:stedsnr" v="702856" />
	</node>
	<node id="-864950" lat="63.3161027822" lon="9.80996665901">
		<tag k="fixme" v="consider place=hamlet" />
		<tag k="name" v="Råbygda" />
		<tag k="place" v="village" />
		<tag k="ssr:stedsnr" v="680337" />
	</node>
	<node id="-864949" lat="63.4210388893" lon="9.95810277367">
		<tag k="amenity" v="school" />
		<tag k="name" v="Kjøra skole" />
		<tag k="ssr:stedsnr" v="701761" />
	</node>
	<node id="-862900" lat="63.3336642893" lon="9.8487993315">
		<tag k="fixme" v="consider place=hamlet" />
		<tag k="name" v="Furen" />
		<tag k="place" v="farm" />
		<tag k="ssr:stedsnr" v="74280" />
	</node>
	<node id="-862898" lat="63.2236111118" lon="9.74831112012">
		<tag k="name" v="Handbergmoen" />
		<tag k="place" v="farm" />
		<tag k="ssr:stedsnr" v="73223" />
	</node>
	<node id="-864945" lat="63.1838045539" lon="9.47991175992">
		<tag k="name" v="Risan" />
		<tag k="place" v="hamlet" />
		<tag k="ssr:stedsnr" v="73612" />
	</node>
	<node id="-862896" lat="63.1656055553" lon="9.70365833013">
		<tag k="name" v="Rønningsbakk" />
		<tag k="place" v="farm" />
		<tag k="ssr:stedsnr" v="763669" />
	</node>
	<node id="-862664" lat="63.2177888906" lon="9.91282499632">
		<tag k="alt_name" v="Alvåssetra" />
		<tag k="name" v="Alvåsen" />
		<tag k="place" v="farm" />
		<tag k="ssr:stedsnr" v="497202" />
	</node>
	<node id="-864941" lat="63.2983083338" lon="9.82993611208">
		<tag k="name" v="Ferjemannsstugu" />
		<tag k="old_name" v="Fergemannsstugu" />
		<tag k="place" v="isolated_dwelling" />
		<tag k="ssr:stedsnr" v="377329" />
	</node>
	<node id="-864940" lat="63.1912555589" lon="9.86682500722">
		<tag k="name" v="Grø" />
		<tag k="place" v="farm" />
		<tag k="ssr:stedsnr" v="276399" />
	</node>
	<node id="-862889" lat="63.1514111116" lon="9.84048889679">
		<tag k="historic" v="shieling" />
		<tag k="name" v="Seterslættet" />
		<tag k="place" v="locality" />
		<tag k="ssr:stedsnr" v="581474" />
	</node>
	<node id="-864932" lat="63.2979083345" lon="9.91440000676">
		<tag k="historic" v="shieling" />
		<tag k="name" v="Stigerslættet" />
		<tag k="old_name" v="Stigerslette" />
		<tag k="place" v="locality" />
		<tag k="ssr:stedsnr" v="377334" />
	</node>
	<node id="-862882" lat="63.3613055595" lon="9.92088610579">
		<tag k="name" v="Rønningen" />
		<tag k="place" v="farm" />
		<tag k="ssr:stedsnr" v="155404" />
	</node>
	<node id="-864929" lat="63.3356249982" lon="9.78774721717">
		<tag k="historic" v="shieling" />
		<tag k="name" v="Nygårdssætra" />
		<tag k="place" v="locality" />
		<tag k="ssr:stedsnr" v="155184" />
	</node>
	<node id="-864927" lat="63.2504749989" lon="9.8195444351">
		<tag k="name" v="Eggalykkja" />
		<tag k="place" v="farm" />
		<tag k="ssr:stedsnr" v="641096" />
	</node>
	<node id="-864925" lat="63.1972722252" lon="9.57442778477">
		<tag k="name" v="Utigard" />
		<tag k="place" v="farm" />
		<tag k="ssr:stedsnr" v="95810" />
	</node>
	<node id="-862876" lat="63.2153911753" lon="9.79208976552">
		<tag k="name" v="Solbu" />
		<tag k="place" v="hamlet" />
		<tag k="ssr:stedsnr" v="73216" />
	</node>
	<node id="-864920" lat="63.1550194455" lon="9.70209999693">
		<tag k="name" v="Dalen" />
		<tag k="place" v="farm" />
		<tag k="ssr:stedsnr" v="740546" />
	</node>
	<node id="-862868" lat="63.3390138858" lon="9.75156388327">
		<tag k="name" v="Sandvika" />
		<tag k="place" v="isolated_dwelling" />
		<tag k="ssr:stedsnr" v="377464" />
	</node>
	<node id="-864915" lat="63.1957404645" lon="9.5514250834">
		<tag k="fixme" v="consider place=hamlet" />
		<tag k="name" v="Kusætra" />
		<tag k="place" v="farm" />
		<tag k="ssr:stedsnr" v="437607" />
	</node>
	<node id="-864914" lat="63.2344484188" lon="9.64369218379">
		<tag k="name" v="Myrhaug" />
		<tag k="place" v="farm" />
		<tag k="ssr:stedsnr" v="73610" />
	</node>
	<node id="-864913" lat="63.3069833321" lon="9.77431389564">
		<tag k="name" v="Kjellarenget" />
		<tag k="place" v="farm" />
		<tag k="ssr:stedsnr" v="134353" />
	</node>
	<node id="-864905" lat="63.2752277773" lon="9.8264444345">
		<tag k="fixme" v="consider place=suburb, village or hamlet" />
		<tag k="name" v="Gilhaugen" />
		<tag k="place" v="quarter" />
		<tag k="ssr:stedsnr" v="944289" />
	</node>
	<node id="-864903" lat="63.2613611109" lon="9.82882499493">
		<tag k="name" v="Kvamsøya" />
		<tag k="place" v="farm" />
		<tag k="ssr:stedsnr" v="883359" />
	</node>
	<node id="-864901" lat="63.3260096894" lon="9.8296743348">
		<tag k="fixme" v="consider place=hamlet" />
		<tag k="name" v="Roven" />
		<tag k="place" v="farm" />
		<tag k="ssr:stedsnr" v="255288" />
	</node>
	<node id="-864896" lat="63.2375555512" lon="9.60447499501">
		<tag k="name" v="Bjørklimoen" />
		<tag k="place" v="farm" />
		<tag k="ssr:stedsnr" v="437597" />
	</node>
	<node id="-862847" lat="63.157875002" lon="9.71541944524">
		<tag k="fixme" v="consider place=hamlet" />
		<tag k="name" v="Brekka" />
		<tag k="place" v="farm" />
		<tag k="ssr:stedsnr" v="703682" />
	</node>
	<node id="-862845" lat="63.2894111122" lon="9.61874722295">
		<tag k="name" v="Øverlia" />
		<tag k="place" v="farm" />
		<tag k="ssr:stedsnr" v="459965" />
	</node>
	<node id="-862843" lat="63.1862194454" lon="9.79840832678">
		<tag k="name" v="Løftmoen" />
		<tag k="place" v="isolated_dwelling" />
		<tag k="ssr:stedsnr" v="316174" />
	</node>
	<node id="-864889" lat="63.2543083373" lon="9.84947500407">
		<tag k="name" v="Sundli" />
		<tag k="place" v="farm" />
		<tag k="ssr:stedsnr" v="883365" />
	</node>
	<node id="-864888" lat="63.2475277819" lon="9.76906110523">
		<tag k="name" v="Kvålsvoll" />
		<tag k="place" v="farm" />
		<tag k="ssr:stedsnr" v="94084" />
	</node>
	<node id="-864886" lat="63.1590194484" lon="9.73296110867">
		<tag k="name" v="Klingstuggu" />
		<tag k="place" v="farm" />
		<tag k="ssr:stedsnr" v="96671" />
	</node>
	<node id="-862837" lat="63.3310194453" lon="9.78366944382">
		<tag k="alt_name" v="Melandssætra" />
		<tag k="historic" v="shieling" />
		<tag k="name" v="Melandssætren" />
		<tag k="old_name" v="Melandsætra" />
		<tag k="place" v="locality" />
		<tag k="ssr:stedsnr" v="377467" />
	</node>
	<node id="-862836" lat="63.1696831644" lon="9.74250771741">
		<tag k="fixme" v="consider place=suburb, village or hamlet" />
		<tag k="name" v="Svorkmo" />
		<tag k="place" v="quarter" />
		<tag k="ssr:stedsnr" v="740131" />
	</node>
	<node id="-862833" lat="63.4186999978" lon="9.96081666565">
		<tag k="name" v="Ryggen" />
		<tag k="place" v="farm" />
		<tag k="ssr:stedsnr" v="337722" />
	</node>
	<node id="-864880" lat="63.2435416703" lon="9.81376667327">
		<tag k="alt_name" v="Megardslia" />
		<tag k="name" v="Medgardslykkja" />
		<tag k="place" v="farm" />
		<tag k="ssr:stedsnr" v="133272" />
	</node>
	<node id="-864879" lat="63.1996944447" lon="9.76985834184">
		<tag k="name" v="Vormstad" />
		<tag k="place" v="village" />
		<tag k="ssr:stedsnr" v="12210" />
	</node>
	<node id="-862829" lat="63.2815193256" lon="9.70132825971">
		<tag k="name" v="Tjønnli" />
		<tag k="place" v="farm" />
		<tag k="ssr:stedsnr" v="910650" />
	</node>
	<node id="-864876" lat="63.2708846699" lon="9.78711758677">
		<tag k="alt_name" v="Kråkdal" />
		<tag k="fixme" v="consider place=hamlet" />
		<tag k="name" v="Kråkdalen" />
		<tag k="place" v="farm" />
		<tag k="ssr:stedsnr" v="256330" />
	</node>
	<node id="-864875" lat="63.3595999983" lon="9.90822499127">
		<tag k="name" v="Lia" />
		<tag k="place" v="farm" />
		<tag k="ssr:stedsnr" v="559433" />
	</node>
	<node id="-864870" lat="63.1729083329" lon="9.85634167318">
		<tag k="historic" v="shieling" />
		<tag k="name" v="Brandhaugen" />
		<tag k="place" v="locality" />
		<tag k="ssr:stedsnr" v="823301" />
	</node>
	<node id="-864868" lat="63.2968527807" lon="9.73278887992">
		<tag k="name" v="Fossgjerdet" />
		<tag k="place" v="isolated_dwelling" />
		<tag k="ssr:stedsnr" v="680324" />
	</node>
	<node id="-864867" lat="63.3607555545" lon="9.91818611919">
		<tag k="name" v="Bergom" />
		<tag k="place" v="farm" />
		<tag k="ssr:stedsnr" v="579498" />
	</node>
	<node id="-862816" lat="63.2457805589" lon="9.66798332529">
		<tag k="alt_name" v="Vinterbakkan" />
		<tag k="name" v="Vinterbakken" />
		<tag k="place" v="farm" />
		<tag k="ssr:stedsnr" v="922558" />
	</node>
	<node id="-864863" lat="63.2012527787" lon="9.72695555826">
		<tag k="name" v="Dalen" />
		<tag k="place" v="farm" />
		<tag k="ssr:stedsnr" v="12209" />
	</node>
	<node id="-864860" lat="63.3461499987" lon="9.88808055463">
		<tag k="name" v="Håggån" />
		<tag k="place" v="farm" />
		<tag k="ssr:stedsnr" v="397450" />
	</node>
	<node id="-864859" lat="63.2812555574" lon="9.77240277988">
		<tag k="name" v="Øverhaugen" />
		<tag k="place" v="farm" />
		<tag k="ssr:stedsnr" v="640243" />
	</node>
	<node id="-864858" lat="63.2100861093" lon="9.56231667567">
		<tag k="name" v="Vikahaugen" />
		<tag k="place" v="farm" />
		<tag k="ssr:stedsnr" v="95789" />
	</node>
	<node id="-862808" lat="63.1874888878" lon="9.76551667311">
		<tag k="name" v="Mobakk" />
		<tag k="place" v="farm" />
		<tag k="ssr:stedsnr" v="437186" />
	</node>
	<node id="-862807" lat="63.2859333327" lon="9.83820555398">
		<tag k="alt_name" v="Follo nedre" />
		<tag k="name" v="Nedre Follo" />
		<tag k="place" v="farm" />
		<tag k="ssr:stedsnr" v="883580" />
	</node>
	<node id="-862805" lat="63.3267333315" lon="9.83158888336">
		<tag k="name" v="Rovsbruket" />
		<tag k="place" v="farm" />
		<tag k="ssr:stedsnr" v="33491" />
	</node>
	<node id="-862803" lat="63.1680611098" lon="9.6116499993">
		<tag k="historic" v="shieling" />
		<tag k="name" v="Litlsætra" />
		<tag k="place" v="locality" />
		<tag k="ssr:stedsnr" v="338598" />
	</node>
	<node id="-862800" lat="63.2432368978" lon="9.64461406246">
		<tag k="name" v="Svorkåsen" />
		<tag k="place" v="farm" />
		<tag k="ssr:stedsnr" v="740651" />
	</node>
	<node id="-862799" lat="63.3558555537" lon="9.91386110527">
		<tag k="name" v="Lykkjhaugen" />
		<tag k="place" v="isolated_dwelling" />
		<tag k="ssr:stedsnr" v="640431" />
	</node>
	<node id="-864846" lat="63.2645444489" lon="9.79436388151">
		<tag k="fixme" v="consider place=hamlet" />
		<tag k="name" v="Forve" />
		<tag k="place" v="farm" />
		<tag k="ssr:stedsnr" v="94063" />
	</node>
	<node id="-864841" lat="63.34926667" lon="9.89133056445">
		<tag k="name" v="Trøan" />
		<tag k="place" v="farm" />
		<tag k="ssr:stedsnr" v="741579" />
	</node>
	<node id="-864839" lat="63.2776888934" lon="9.72054165817">
		<tag k="name" v="Aunhaugen" />
		<tag k="place" v="farm" />
		<tag k="ssr:stedsnr" v="558362" />
	</node>
	<node id="-862789" lat="63.2425916637" lon="9.63479721741">
		<tag k="historic" v="shieling" />
		<tag k="name" v="Kokksætra" />
		<tag k="place" v="locality" />
		<tag k="ssr:stedsnr" v="762750" />
	</node>
	<node id="-862788" lat="63.3609138922" lon="9.92159445004">
		<tag k="building" v="industrial" />
		<tag k="name" v="Rønningssaga" />
		<tag k="ssr:stedsnr" v="33489" />
	</node>
	<node id="-864835" lat="63.1838111143" lon="9.75042221344">
		<tag k="name" v="Aspølan" />
		<tag k="place" v="farm" />
		<tag k="ssr:stedsnr" v="922431" />
	</node>
	<node id="-864831" lat="63.3967249967" lon="9.68986666608">
		<tag k="alt_name" v="Åsetra" />
		<tag k="historic" v="shieling" />
		<tag k="name" v="Åsætra" />
		<tag k="place" v="locality" />
		<tag k="ssr:stedsnr" v="801821" />
	</node>
	<node id="-863327" lat="63.436391666" lon="9.97329166779">
		<tag k="name" v="Legårdan" />
		<tag k="place" v="farm" />
		<tag k="ssr:stedsnr" v="823689" />
	</node>
	<node id="-862776" lat="63.3386722262" lon="9.82208888959">
		<tag k="name" v="Rovssætra" />
		<tag k="old_name" v="Rovesætra" />
		<tag k="place" v="isolated_dwelling" />
		<tag k="ssr:stedsnr" v="498321" />
	</node>
	<node id="-864823" lat="63.3100999964" lon="9.76727499518">
		<tag k="name" v="Furuhaugen" />
		<tag k="place" v="farm" />
		<tag k="ssr:stedsnr" v="802352" />
	</node>
	<node id="-864821" lat="63.3476749977" lon="9.88167222319">
		<tag k="name" v="Kleiva" />
		<tag k="place" v="isolated_dwelling" />
		<tag k="ssr:stedsnr" v="579483" />
	</node>
	<node id="-862772" lat="63.1767055546" lon="9.73702499052">
		<tag k="name" v="Oppstuggu" />
		<tag k="place" v="farm" />
		<tag k="ssr:stedsnr" v="824490" />
	</node>
	<node id="-864818" lat="63.2518527777" lon="9.80280832602">
		<tag k="name" v="Prestmoen" />
		<tag k="place" v="farm" />
		<tag k="ssr:stedsnr" v="863696" />
	</node>
	<node id="-862768" lat="63.2002227006" lon="9.81991989375">
		<tag k="name" v="Monset" />
		<tag k="place" v="hamlet" />
		<tag k="ssr:stedsnr" v="316210" />
	</node>
	<node id="-864815" lat="63.2366710834" lon="9.75809753296">
		<tag k="alt_name" v="Kvåle" />
		<tag k="name" v="Kvålskroken" />
		<tag k="place" v="farm" />
		<tag k="ssr:stedsnr" v="376258" />
	</node>
	<node id="-862766" lat="63.2114277334" lon="9.79086487981">
		<tag k="fixme" v="consider place=hamlet" />
		<tag k="name" v="Haugen" />
		<tag k="place" v="farm" />
		<tag k="ssr:stedsnr" v="437230" />
	</node>
	<node id="-864813" lat="63.3070472246" lon="9.89178333484">
		<tag k="leisure" v="pitch" />
		<tag k="name" v="Ulvåsen" />
		<tag k="ssr:stedsnr" v="337488" />
	</node>
	<node id="-864812" lat="63.2526741752" lon="9.8331657284">
		<tag k="fixme" v="consider place=hamlet" />
		<tag k="name" v="Digerås" />
		<tag k="place" v="farm" />
		<tag k="ssr:stedsnr" v="863694" />
	</node>
	<node id="-862762" lat="63.1967555575" lon="9.59771667164">
		<tag k="name" v="Nordigard" />
		<tag k="place" v="farm" />
		<tag k="ssr:stedsnr" v="216813" />
	</node>
	<node id="-864809" lat="63.2819968442" lon="9.69996042153">
		<tag k="fixme" v="consider place=hamlet" />
		<tag k="name" v="Tjønnli" />
		<tag k="place" v="farm" />
		<tag k="ssr:stedsnr" v="13265" />
	</node>
	<node id="-862760" lat="63.3199388867" lon="9.80859167512">
		<tag k="name" v="Gammelgarden" />
		<tag k="place" v="locality" />
		<tag k="ssr:stedsnr" v="701171" />
	</node>
	<node id="-864803" lat="63.415511113" lon="9.96503056108">
		<tag k="name" v="Rønningen" />
		<tag k="place" v="farm" />
		<tag k="ssr:stedsnr" v="195135" />
	</node>
	<node id="-864802" lat="63.1719305528" lon="9.82751944458">
		<tag k="fixme" v="consider place=hamlet" />
		<tag k="name" v="Ry" />
		<tag k="place" v="farm" />
		<tag k="ssr:stedsnr" v="813518" />
	</node>
	<node id="-864800" lat="63.28693333" lon="9.83383332991">
		<tag k="name" v="Olderøya" />
		<tag k="place" v="farm" />
		<tag k="ssr:stedsnr" v="337485" />
	</node>
	<node id="-864796" lat="63.2682638875" lon="9.61900832943">
		<tag k="alt_name" v="Kjøl-lykkja" />
		<tag k="name" v="Kjølhytta" />
		<tag k="place" v="isolated_dwelling" />
		<tag k="ssr:stedsnr" v="316011" />
	</node>
	<node id="-864795" lat="63.2307250044" lon="9.75018333564">
		<tag k="name" v="Lefstad" />
		<tag k="place" v="farm" />
		<tag k="ssr:stedsnr" v="34124" />
	</node>
	<node id="-864794" lat="63.2985000013" lon="9.83750277863">
		<tag k="name" v="Laksøra" />
		<tag k="place" v="quarter" />
		<tag k="ssr:stedsnr" v="362505" />
	</node>
	<node id="-865028" lat="63.1948638866" lon="9.5876888812">
		<tag k="fixme" v="consider place=hamlet" />
		<tag k="name" v="Hoston" />
		<tag k="place" v="village" />
		<tag k="ssr:stedsnr" v="936811" />
	</node>
	<node id="-864790" lat="63.2557944464" lon="9.45601665917">
		<tag k="historic" v="shieling" />
		<tag k="name" v="Ødynsætra" />
		<tag k="place" v="locality" />
		<tag k="ssr:stedsnr" v="437030" />
	</node>
	<node id="-864789" lat="63.3038861134" lon="9.74099167065">
		<tag k="name" v="Føniks" />
		<tag k="place" v="isolated_dwelling" />
		<tag k="ssr:stedsnr" v="802327" />
	</node>
	<node id="-863082" lat="63.2612972194" lon="9.76203334217">
		<tag k="name" v="Sveli" />
		<tag k="place" v="farm" />
		<tag k="ssr:stedsnr" v="519051" />
	</node>
	<node id="-862737" lat="63.2248390157" lon="9.76743980324">
		<tag k="name" v="By" />
		<tag k="place" v="hamlet" />
		<tag k="ssr:stedsnr" v="255466" />
	</node>
	<node id="-862736" lat="63.2737250015" lon="9.82390832664">
		<tag k="fixme" v="consider place=suburb, village or hamlet" />
		<tag k="name" v="Fannremsmoen" />
		<tag k="place" v="quarter" />
		<tag k="ssr:stedsnr" v="762027" />
	</node>
	<node id="-864782" lat="63.3464621616" lon="9.86369395903">
		<tag k="fixme" v="consider place=hamlet" />
		<tag k="name" v="Åsen" />
		<tag k="place" v="farm" />
		<tag k="ssr:stedsnr" v="316537" />
	</node>
	<node id="-862733" lat="63.1997944444" lon="9.55336110959">
		<tag k="historic" v="shieling" />
		<tag k="name" v="Sætra" />
		<tag k="place" v="locality" />
		<tag k="ssr:stedsnr" v="216799" />
	</node>
	<node id="-862731" lat="63.2860638857" lon="9.81179721606">
		<tag k="name" v="Fristan" />
		<tag k="place" v="farm" />
		<tag k="ssr:stedsnr" v="762028" />
	</node>
	<node id="-864774" lat="63.2891626166" lon="9.63202131596">
		<tag k="fixme" v="consider place=hamlet" />
		<tag k="name" v="Stokkan" />
		<tag k="place" v="farm" />
		<tag k="ssr:stedsnr" v="13254" />
	</node>
	<node id="-862724" lat="63.2236888892" lon="9.63470833477">
		<tag k="name" v="Vassliplassen" />
		<tag k="place" v="farm" />
		<tag k="ssr:stedsnr" v="762853" />
	</node>
	<node id="-864768" lat="63.1987261545" lon="9.74029503633">
		<tag k="name" v="Vormdal" />
		<tag k="place" v="hamlet" />
		<tag k="ssr:stedsnr" v="972004" />
	</node>
	<node id="-864765" lat="63.2772111124" lon="9.71162778347">
		<tag k="alt_name" v="Dørdal;Sølbergsbakkan" />
		<tag k="name" v="Sølbergsbakken" />
		<tag k="place" v="farm" />
		<tag k="ssr:stedsnr" v="316006" />
	</node>
	<node id="-864763" lat="63.1964023493" lon="9.5847584196">
		<tag k="name" v="Hoston" />
		<tag k="place" v="hamlet" />
		<tag k="ssr:stedsnr" v="972002" />
	</node>
	<node id="-864761" lat="63.2713416706" lon="9.82987221465">
		<tag k="name" v="Aunemogjerdet" />
		<tag k="place" v="farm" />
		<tag k="ssr:stedsnr" v="883350" />
	</node>
	<node id="-862710" lat="63.2804746425" lon="9.84217758411">
		<tag k="alt_name" v="Follo øv." />
		<tag k="name" v="Follo" />
		<tag k="place" v="farm" />
		<tag k="ssr:stedsnr" v="376385" />
	</node>
	<node id="-862709" lat="63.2019805552" lon="9.8270916749">
		<tag k="alt_name" v="Skjerstad" />
		<tag k="name" v="Skjærstad" />
		<tag k="place" v="farm" />
		<tag k="ssr:stedsnr" v="73186" />
	</node>
	<node id="-862707" lat="63.3964638856" lon="9.95530555189">
		<tag k="fixme" v="consider place=hamlet" />
		<tag k="loc_name" v="Klomsteinen" />
		<tag k="name" v="Klomstein" />
		<tag k="place" v="farm" />
		<tag k="ssr:stedsnr" v="680428" />
	</node>
	<node id="-864754" lat="63.2904222211" lon="9.63021944841">
		<tag k="name" v="Stokkgjerdet" />
		<tag k="place" v="farm" />
		<tag k="ssr:stedsnr" v="34955" />
	</node>
	<node id="-862705" lat="63.2664472189" lon="9.80516943834">
		<tag k="name" v="Skåggåberget" />
		<tag k="place" v="quarter" />
		<tag k="ssr:stedsnr" v="459046" />
	</node>
	<node id="-864752" lat="63.2181750023" lon="9.70698888507">
		<tag k="name" v="Fagerlia" />
		<tag k="place" v="isolated_dwelling" />
		<tag k="ssr:stedsnr" v="437577" />
	</node>
	<node id="-864751" lat="63.3876277791" lon="9.86244166504">
		<tag k="name" v="Skogstu" />
		<tag k="place" v="isolated_dwelling" />
		<tag k="ssr:stedsnr" v="701701" />
	</node>
	<node id="-864750" lat="63.2799638851" lon="9.69333332978">
		<tag k="name" v="Tjønnligjerdet" />
		<tag k="place" v="farm" />
		<tag k="ssr:stedsnr" v="641952" />
	</node>
	<node id="-862700" lat="63.2612715384" lon="9.84373376919">
		<tag k="alt_name" v="Tuflott" />
		<tag k="name" v="Tuflåt" />
		<tag k="place" v="farm" />
		<tag k="ssr:stedsnr" v="498766" />
	</node>
	<node id="-864746" lat="63.2869555592" lon="9.60908611974">
		<tag k="name" v="Asbjørnslættet" />
		<tag k="place" v="farm" />
		<tag k="ssr:stedsnr" v="34949" />
	</node>
	<node id="-864744" lat="63.2851416627" lon="9.68029443748">
		<tag k="historic" v="shieling" />
		<tag k="name" v="Håggåvollen" />
		<tag k="place" v="locality" />
		<tag k="ssr:stedsnr" v="641949" />
	</node>
	<node id="-864743" lat="63.2600972255" lon="9.84484166391">
		<tag k="name" v="Sundlilykkja" />
		<tag k="place" v="farm" />
		<tag k="ssr:stedsnr" v="276335" />
	</node>
	<node id="-862692" lat="63.2774916681" lon="9.73517778478">
		<tag k="fixme" v="consider place=hamlet" />
		<tag k="name" v="Solem" />
		<tag k="place" v="farm" />
		<tag k="ssr:stedsnr" v="94284" />
	</node>
	<node id="-864739" lat="63.1942416656" lon="9.8145944362">
		<tag k="fixme" v="consider place=hamlet" />
		<tag k="name" v="Aspjeld" />
		<tag k="place" v="farm" />
		<tag k="ssr:stedsnr" v="641916" />
	</node>
	<node id="-864738" lat="63.2863166698" lon="9.81046667262">
		<tag k="name" v="Volladalen" />
		<tag k="place" v="farm" />
		<tag k="ssr:stedsnr" v="94028" />
	</node>
	<node id="-864733" lat="63.279000004" lon="9.74721389817">
		<tag k="name" v="Solem" />
		<tag k="place" v="farm" />
		<tag k="ssr:stedsnr" v="944236" />
	</node>
	<node id="-864725" lat="63.2026361152" lon="9.63153610865">
		<tag k="name" v="Teigen" />
		<tag k="place" v="farm" />
		<tag k="ssr:stedsnr" v="459659" />
	</node>
	<node id="-864724" lat="63.2097750023" lon="9.40372778411">
		<tag k="historic" v="shieling" />
		<tag k="name" v="Medåssætra" />
		<tag k="place" v="locality" />
		<tag k="ssr:stedsnr" v="497592" />
	</node>
	<node id="-864723" lat="63.2791222202" lon="9.76073333634">
		<tag k="fixme" v="consider place=hamlet" />
		<tag k="name" v="Haugem" />
		<tag k="place" v="farm" />
		<tag k="ssr:stedsnr" v="944238" />
	</node>
	<node id="-864721" lat="63.2270109661" lon="9.78407058361">
		<tag k="fixme" v="consider place=hamlet" />
		<tag k="name" v="Kleiva" />
		<tag k="place" v="farm" />
		<tag k="ssr:stedsnr" v="376242" />
	</node>
	<node id="-862670" lat="63.4132055576" lon="9.95789167203">
		<tag k="name" v="Lykkja" />
		<tag k="place" v="farm" />
		<tag k="ssr:stedsnr" v="216697" />
	</node>
	<node id="-864717" lat="63.2277458475" lon="9.76595610872">
		<tag k="fixme" v="consider place=hamlet" />
		<tag k="name" v="By" />
		<tag k="place" v="farm" />
		<tag k="ssr:stedsnr" v="376241" />
	</node>
	<node id="-864714" lat="63.2664498528" lon="9.55858714476">
		<tag k="fixme" v="consider place=hamlet" />
		<tag k="name" v="Blomlia" />
		<tag k="place" v="farm" />
		<tag k="ssr:stedsnr" v="316003" />
	</node>
	<node id="-864712" lat="63.205294442" lon="9.6228888849">
		<tag k="name" v="Oppigard" />
		<tag k="place" v="isolated_dwelling" />
		<tag k="ssr:stedsnr" v="459662" />
	</node>
	<node id="-862690" lat="63.3481500007" lon="9.89391667019">
		<tag k="alt_name" v="Vollen" />
		<tag k="fixme" v="consider place=hamlet" />
		<tag k="name" v="Slettvollen" />
		<tag k="place" v="farm" />
		<tag k="ssr:stedsnr" v="681471" />
	</node>
	<node id="-862661" lat="63.4194027783" lon="9.96085833943">
		<tag k="name" v="Kleivan" />
		<tag k="place" v="farm" />
		<tag k="ssr:stedsnr" v="216699" />
	</node>
	<node id="-864708" lat="63.2254332537" lon="9.88826614998">
		<tag k="name" v="Skåggåsætra" />
		<tag k="place" v="locality" />
		<tag k="ssr:stedsnr" v="376239" />
	</node>
	<node id="-862658" lat="63.2127787966" lon="9.57349005289">
		<tag k="fixme" v="consider place=hamlet" />
		<tag k="name" v="Lykkja" />
		<tag k="place" v="farm" />
		<tag k="ssr:stedsnr" v="315589" />
	</node>
	<node id="-864705" lat="63.2237111097" lon="9.64001943941">
		<tag k="name" v="Ingebriktstuggu" />
		<tag k="place" v="farm" />
		<tag k="ssr:stedsnr" v="156860" />
	</node>
	<node id="-862655" lat="63.2318861081" lon="9.69445000341">
		<tag k="alt_name" v="Lefstosætra" />
		<tag k="name" v="Lefstadsætra" />
		<tag k="place" v="isolated_dwelling" />
		<tag k="ssr:stedsnr" v="922536" />
	</node>
	<node id="-862649" lat="63.2625611111" lon="9.78155556098">
		<tag k="name" v="Oppigarden" />
		<tag k="place" v="farm" />
		<tag k="ssr:stedsnr" v="701055" />
	</node>
	<node id="-862646" lat="63.2690837811" lon="9.79714875056">
		<tag k="alt_name" v="Polset" />
		<tag k="fixme" v="consider place=hamlet" />
		<tag k="name" v="Pålset" />
		<tag k="place" v="farm" />
		<tag k="ssr:stedsnr" v="498758" />
	</node>
	<node id="-862645" lat="63.1757361133" lon="9.91287500657">
		<tag k="fixme" v="consider tourism=alpine_hut or tourism=chalet" />
		<tag k="name" v="Elgshøgdbua" />
		<tag k="ssr:stedsnr" v="970271" />
		<tag k="tourism" v="wilderness_hut" />
	</node>
	<node id="-864691" lat="63.436141663" lon="9.93660556061">
		<tag k="fixme" v="consider place=hamlet" />
		<tag k="name" v="Hammerfjell" />
		<tag k="place" v="farm" />
		<tag k="ssr:stedsnr" v="195109" />
	</node>
	<node id="-864690" lat="63.2436528411" lon="9.75937861934">
		<tag k="name" v="Kvåle" />
		<tag k="place" v="hamlet" />
		<tag k="ssr:stedsnr" v="134305" />
	</node>
	<node id="-864686" lat="63.1675888859" lon="9.74597222315">
		<tag k="name" v="Plassen" />
		<tag k="place" v="quarter" />
		<tag k="ssr:stedsnr" v="703410" />
	</node>
	<node id="-862636" lat="63.2928361111" lon="9.50817499072">
		<tag k="name" v="Steinbrothytta" />
		<tag k="place" v="isolated_dwelling" />
		<tag k="ssr:stedsnr" v="438221" />
	</node>
	<node id="-862634" lat="63.2821611097" lon="9.83205833995">
		<tag k="name" v="Nerøya" />
		<tag k="place" v="farm" />
		<tag k="ssr:stedsnr" v="883576" />
	</node>
	<node id="-864681" lat="63.2839194433" lon="9.78628056298">
		<tag k="name" v="Nystuggu" />
		<tag k="place" v="farm" />
		<tag k="ssr:stedsnr" v="94018" />
	</node>
	<node id="-862631" lat="63.2356199185" lon="9.66541213751">
		<tag k="fixme" v="consider place=hamlet" />
		<tag k="name" v="Gjøåsen" />
		<tag k="place" v="farm" />
		<tag k="ssr:stedsnr" v="922547" />
	</node>
	<node id="-862629" lat="63.1999412256" lon="9.71113086378">
		<tag k="fixme" v="consider place=hamlet" />
		<tag k="name" v="Tokstad" />
		<tag k="old_name" v="Torstad" />
		<tag k="place" v="farm" />
		<tag k="ssr:stedsnr" v="316647" />
	</node>
	<node id="-864669" lat="63.4360777738" lon="9.9728722267">
		<tag k="name" v="Arnstu" />
		<tag k="place" v="farm" />
		<tag k="ssr:stedsnr" v="498108" />
	</node>
	<node id="-864666" lat="63.1678953039" lon="9.74706814956">
		<tag k="fixme" v="consider place=hamlet" />
		<tag k="name" v="Svorkmo" />
		<tag k="place" v="farm" />
		<tag k="ssr:stedsnr" v="971995" />
	</node>
	<node id="-862617" lat="63.3642388915" lon="9.90048610993">
		<tag k="name" v="Håggågjerdet" />
		<tag k="place" v="farm" />
		<tag k="ssr:stedsnr" v="579690" />
	</node>
	<node id="-862614" lat="63.2119500012" lon="9.78703055669">
		<tag k="alt_name" v="Ljøkelsøy;Ljøkelsøya" />
		<tag k="name" v="Ljøkjelsøy" />
		<tag k="place" v="farm" />
		<tag k="ssr:stedsnr" v="497193" />
	</node>
	<node id="-863299" lat="63.1850972209" lon="9.65082222856">
		<tag k="historic" v="shieling" />
		<tag k="name" v="Berbuslykkja" />
		<tag k="place" v="locality" />
		<tag k="ssr:stedsnr" v="884596" />
	</node>
	<node id="-864655" lat="63.2418236995" lon="9.78254325779">
		<tag k="fixme" v="consider place=hamlet" />
		<tag k="name" v="Ekli" />
		<tag k="place" v="farm" />
		<tag k="ssr:stedsnr" v="134298" />
	</node>
	<node id="-864654" lat="63.2563750009" lon="9.77640555192">
		<tag k="name" v="Ødyn" />
		<tag k="place" v="farm" />
		<tag k="ssr:stedsnr" v="950840" />
	</node>
	<node id="-862604" lat="63.2545749961" lon="9.77969443625">
		<tag k="name" v="Framigard" />
		<tag k="place" v="farm" />
		<tag k="ssr:stedsnr" v="701066" />
	</node>
	<node id="-864649" lat="63.23057729" lon="9.79654132051">
		<tag k="fixme" v="consider place=hamlet" />
		<tag k="name" v="Høston" />
		<tag k="place" v="farm" />
		<tag k="ssr:stedsnr" v="255240" />
	</node>
	<node id="-864643" lat="63.3132972219" lon="9.79291389296">
		<tag k="name" v="Dyndalsegga" />
		<tag k="place" v="farm" />
		<tag k="ssr:stedsnr" v="944208" />
	</node>
	<node id="-862586" lat="63.300538891" lon="9.89914722343">
		<tag k="historic" v="shieling" />
		<tag k="name" v="Hovsslættet" />
		<tag k="place" v="locality" />
		<tag k="ssr:stedsnr" v="276557" />
	</node>
	<node id="-862583" lat="63.2041885693" lon="9.76727342443">
		<tag k="fixme" v="consider place=hamlet" />
		<tag k="name" v="Ljøkjel" />
		<tag k="place" v="farm" />
		<tag k="ssr:stedsnr" v="194196" />
	</node>
	<node id="-864630" lat="63.2191333371" lon="9.84202500836">
		<tag k="name" v="Markalykkja" />
		<tag k="place" v="locality" />
		<tag k="ssr:stedsnr" v="376224" />
	</node>
	<node id="-864627" lat="63.1613972258" lon="9.7710055563">
		<tag k="name" v="Spranghaugen" />
		<tag k="place" v="isolated_dwelling" />
		<tag k="ssr:stedsnr" v="35785" />
	</node>
	<node id="-862577" lat="63.2302944402" lon="9.4278361195">
		<tag k="alt_name" v="Søvassli øvre" />
		<tag k="fixme" v="multiple name tags, choose one and add the other to alt_name" />
		<tag k="name" v="Søvasslia;Øvre Søvassli" />
		<tag k="place" v="farm" />
		<tag k="ssr:stedsnr" v="619608" />
	</node>
	<node id="-862576" lat="63.2843833334" lon="9.81724444477">
		<tag k="name" v="Trettøya" />
		<tag k="place" v="farm" />
		<tag k="ssr:stedsnr" v="701029" />
	</node>
	<node id="-862571" lat="63.3333999993" lon="9.74181111692">
		<tag k="alt_name" v="Tungnaustvollen" />
		<tag k="name" v="Naustvollen" />
		<tag k="place" v="isolated_dwelling" />
		<tag k="ssr:stedsnr" v="256431" />
	</node>
	<node id="-864618" lat="63.3080129809" lon="9.85372330916">
		<tag k="fixme" v="consider place=hamlet" />
		<tag k="name" v="Hov" />
		<tag k="place" v="farm" />
		<tag k="ssr:stedsnr" v="377273" />
	</node>
	<node id="-862568" lat="63.1838229293" lon="9.87176339802">
		<tag k="fixme" v="consider place=hamlet" />
		<tag k="name" v="Korslia" />
		<tag k="place" v="farm" />
		<tag k="ssr:stedsnr" v="73163" />
	</node>
	<node id="-863292" lat="63.251241668" lon="9.60127778157">
		<tag k="name" v="Svorkdalshaugen" />
		<tag k="place" v="farm" />
		<tag k="ssr:stedsnr" v="377022" />
	</node>
	<node id="-864614" lat="63.3079555538" lon="9.78691110439">
		<tag k="name" v="Storøya" />
		<tag k="place" v="farm" />
		<tag k="ssr:stedsnr" v="377272" />
	</node>
	<node id="-864612" lat="63.2273333345" lon="9.7657777687">
		<tag k="name" v="Byagrenda" />
		<tag k="place" v="hamlet" />
		<tag k="ssr:stedsnr" v="641903" />
	</node>
	<node id="-864611" lat="63.3534555532" lon="9.90810555294">
		<tag k="fixme" v="consider place=hamlet" />
		<tag k="name" v="Inneråstan" />
		<tag k="place" v="farm" />
		<tag k="ssr:stedsnr" v="337429" />
	</node>
	<node id="-864609" lat="63.2652166644" lon="9.76233611794">
		<tag k="name" v="Gilmoen" />
		<tag k="place" v="farm" />
		<tag k="ssr:stedsnr" v="13750" />
	</node>
	<node id="-862553" lat="63.3416248688" lon="9.81611239584">
		<tag k="alt_name" v="Halvordsætra;Hallvardsætra" />
		<tag k="fixme" v="consider place=hamlet" />
		<tag k="name" v="Hallvardssætra" />
		<tag k="old_name" v="Halvardsætra" />
		<tag k="place" v="farm" />
		<tag k="ssr:stedsnr" v="681466" />
	</node>
	<node id="-862548" lat="63.2998444403" lon="9.84855277213">
		<tag k="name" v="Hälleforsgata" />
		<tag k="place" v="square" />
		<tag k="ssr:stedsnr" v="708420" />
	</node>
	<node id="-862547" lat="63.2415888921" lon="9.62966666502">
		<tag k="alt_name" v="Sæterbakken" />
		<tag k="name" v="Bakken" />
		<tag k="place" v="farm" />
		<tag k="ssr:stedsnr" v="619617" />
	</node>
	<node id="-864594" lat="63.3792138886" lon="9.94376666975">
		<tag k="name" v="Nerskallen" />
		<tag k="place" v="isolated_dwelling" />
		<tag k="ssr:stedsnr" v="579415" />
	</node>
	<node id="-862767" lat="63.278228561" lon="9.72043388789">
		<tag k="alt_name" v="Sølberg" />
		<tag k="fixme" v="consider place=hamlet" />
		<tag k="name" v="Sølberget" />
		<tag k="old_name" v="Sølvberget" />
		<tag k="place" v="farm" />
		<tag k="ssr:stedsnr" v="863358" />
	</node>
	<node id="-862540" lat="63.3145999999" lon="9.53358611914">
		<tag k="name" v="Langlidalshytta" />
		<tag k="place" v="isolated_dwelling" />
		<tag k="ssr:stedsnr" v="93375" />
	</node>
	<node id="-862946" lat="63.1835805518" lon="9.75165000396">
		<tag k="name" v="Nerstuggu" />
		<tag k="place" v="farm" />
		<tag k="ssr:stedsnr" v="641354" />
	</node>
	<node id="-864584" lat="63.2799055536" lon="9.69559999511">
		<tag k="alt_name" v="Kjønnlia" />
		<tag k="loc_name" v="Tjønnlia" />
		<tag k="name" v="Lia" />
		<tag k="place" v="isolated_dwelling" />
		<tag k="ssr:stedsnr" v="945973" />
	</node>
	<node id="-862530" lat="63.2990333323" lon="9.84791665704">
		<tag k="fixme" v="consider place=hamlet" />
		<tag k="name" v="Litjgården" />
		<tag k="place" v="farm" />
		<tag k="ssr:stedsnr" v="883543" />
	</node>
	<node id="-864577" lat="63.1996595223" lon="9.75714497797">
		<tag k="fixme" v="consider place=hamlet" />
		<tag k="name" v="Lia" />
		<tag k="place" v="farm" />
		<tag k="ssr:stedsnr" v="376216" />
	</node>
	<node id="-864575" lat="63.3051027797" lon="9.86848332525">
		<tag k="name" v="Joplassen" />
		<tag k="place" v="locality" />
		<tag k="ssr:stedsnr" v="216423" />
	</node>
	<node id="-864574" lat="63.1925027822" lon="9.80191666696">
		<tag k="name" v="Soløyan" />
		<tag k="place" v="isolated_dwelling" />
		<tag k="ssr:stedsnr" v="34896" />
	</node>
	<node id="-862525" lat="63.4168750024" lon="9.96031111251">
		<tag k="fixme" v="consider place=hamlet" />
		<tag k="name" v="Kjøra" />
		<tag k="place" v="village" />
		<tag k="ssr:stedsnr" v="741149" />
	</node>
	<node id="-864567" lat="63.314875003" lon="9.81787499741">
		<tag k="name" v="Asphaugen" />
		<tag k="place" v="farm" />
		<tag k="ssr:stedsnr" v="398235" />
	</node>
	<node id="-864561" lat="63.1723361106" lon="9.73052222416">
		<tag k="fixme" v="multiple name tags, choose one and add the other to alt_name" />
		<tag k="name" v="Årlian;Rabben" />
		<tag k="place" v="farm" />
		<tag k="ssr:stedsnr" v="12154" />
	</node>
	<node id="-864559" lat="63.2206138897" lon="9.7560277807">
		<tag k="alt_name" v="Bergåslykkja" />
		<tag k="name" v="Fjellmoen" />
		<tag k="place" v="farm" />
		<tag k="ssr:stedsnr" v="801213" />
	</node>
	<node id="-862508" lat="63.2771818154" lon="9.75261678476">
		<tag k="alt_name" v="Tverrdal" />
		<tag k="fixme" v="consider place=hamlet" />
		<tag k="name" v="Tverrdalan" />
		<tag k="place" v="farm" />
		<tag k="ssr:stedsnr" v="376363" />
	</node>
	<node id="-862505" lat="63.2817512901" lon="9.6664928615">
		<tag k="fixme" v="consider place=hamlet" />
		<tag k="name" v="Harangen" />
		<tag k="place" v="farm" />
		<tag k="ssr:stedsnr" v="438237" />
	</node>
	<node id="-862499" lat="63.2883166692" lon="9.84004166312">
		<tag k="name" v="Evjensgjerdet" />
		<tag k="place" v="farm" />
		<tag k="ssr:stedsnr" v="944515" />
	</node>
	<node id="-864758" lat="63.2180305554" lon="9.87012499915">
		<tag k="name" v="Hermlykkja" />
		<tag k="place" v="isolated_dwelling" />
		<tag k="ssr:stedsnr" v="398281" />
	</node>
	<node id="-862497" lat="63.2962750025" lon="9.65553054977">
		<tag k="name" v="Moholt" />
		<tag k="place" v="farm" />
		<tag k="ssr:stedsnr" v="498256" />
	</node>
	<node id="-864544" lat="63.2885722179" lon="9.64963334058">
		<tag k="name" v="Vegset" />
		<tag k="place" v="farm" />
		<tag k="ssr:stedsnr" v="802281" />
	</node>
	<node id="-862495" lat="63.2186732377" lon="9.75050338863">
		<tag k="fixme" v="consider place=hamlet" />
		<tag k="name" v="Brattset" />
		<tag k="place" v="farm" />
		<tag k="ssr:stedsnr" v="497208" />
	</node>
	<node id="-864542" lat="63.1611944433" lon="9.66283610141">
		<tag k="name" v="Melkflotten" />
		<tag k="place" v="farm" />
		<tag k="ssr:stedsnr" v="459604" />
	</node>
	<node id="-862491" lat="63.2049222205" lon="9.80870834274">
		<tag k="fixme" v="consider place=hamlet" />
		<tag k="name" v="Stubban" />
		<tag k="place" v="farm" />
		<tag k="ssr:stedsnr" v="459938" />
	</node>
	<node id="-862489" lat="63.2837388855" lon="9.81119166828">
		<tag k="name" v="Vollmoen" />
		<tag k="place" v="farm" />
		<tag k="ssr:stedsnr" v="13401" />
	</node>
	<node id="-862488" lat="63.2780027767" lon="9.73088056219">
		<tag k="name" v="Solemsli" />
		<tag k="place" v="farm" />
		<tag k="ssr:stedsnr" v="94286" />
	</node>
	<node id="-862486" lat="63.1719763302" lon="9.84741282295">
		<tag k="name" v="Rektorlia" />
		<tag k="place" v="farm" />
		<tag k="ssr:stedsnr" v="437176" />
	</node>
	<node id="-864531" lat="63.245633332" lon="9.60142221489">
		<tag k="fixme" v="consider place=hamlet" />
		<tag k="name" v="Svorkbygda" />
		<tag k="place" v="village" />
		<tag k="ssr:stedsnr" v="544511" />
	</node>
	<node id="-864529" lat="63.2472335263" lon="9.73636228117">
		<tag k="fixme" v="consider place=hamlet" />
		<tag k="name" v="Skålholt" />
		<tag k="place" v="farm" />
		<tag k="ssr:stedsnr" v="558304" />
	</node>
	<node id="-862820" lat="63.3407916692" lon="9.87340278629">
		<tag k="name" v="Nebba" />
		<tag k="place" v="farm" />
		<tag k="ssr:stedsnr" v="155389" />
	</node>
	<node id="-864517" lat="63.2912499995" lon="9.65485833307">
		<tag k="alt_name" v="Melås-sætra" />
		<tag k="name" v="Melåssætra" />
		<tag k="place" v="farm" />
		<tag k="ssr:stedsnr" v="134276" />
	</node>
	<node id="-864508" lat="63.2520527774" lon="9.736033332">
		<tag k="fixme" v="consider place=hamlet" />
		<tag k="name" v="Fossbakken" />
		<tag k="place" v="farm" />
		<tag k="ssr:stedsnr" v="155063" />
	</node>
	<node id="-864507" lat="63.2300277757" lon="9.64481388457">
		<tag k="name" v="Vasslihaugen" />
		<tag k="place" v="farm" />
		<tag k="ssr:stedsnr" v="497548" />
	</node>
	<node id="-864505" lat="63.244349996" lon="9.78229722648">
		<tag k="name" v="Ekli" />
		<tag k="place" v="farm" />
		<tag k="ssr:stedsnr" v="544496" />
	</node>
	<node id="-864503" lat="63.241397405" lon="9.69165353542">
		<tag k="fixme" v="consider place=hamlet" />
		<tag k="name" v="Fuglåsen" />
		<tag k="place" v="farm" />
		<tag k="ssr:stedsnr" v="497553" />
	</node>
	<node id="-864502" lat="63.2936777751" lon="9.85058054916">
		<tag k="alt_name" v="Evjensmoen" />
		<tag k="name" v="Evjen" />
		<tag k="place" v="farm" />
		<tag k="ssr:stedsnr" v="681303" />
	</node>
	<node id="-864499" lat="63.3744983024" lon="9.93828458822">
		<tag k="name" v="Haugnes" />
		<tag k="place" v="hamlet" />
		<tag k="ssr:stedsnr" v="316467" />
	</node>
	<node id="-864498" lat="63.1837611114" lon="9.594988888">
		<tag k="name" v="Lykkja" />
		<tag k="place" v="farm" />
		<tag k="ssr:stedsnr" v="862586" />
	</node>
	<node id="-864495" lat="63.2607027822" lon="9.77925277097">
		<tag k="name" v="Såmmårvål" />
		<tag k="place" v="farm" />
		<tag k="ssr:stedsnr" v="464655" />
	</node>
	<node id="-864494" lat="63.2110944418" lon="9.78497221533">
		<tag k="name" v="Elnvang" />
		<tag k="place" v="farm" />
		<tag k="ssr:stedsnr" v="255208" />
	</node>
	<node id="-864493" lat="63.2348504628" lon="9.77776122227">
		<tag k="alt_name" v="Steinhaugen" />
		<tag k="fixme" v="consider place=hamlet" />
		<tag k="name" v="Steinshaugen" />
		<tag k="place" v="farm" />
		<tag k="ssr:stedsnr" v="802285" />
	</node>
	<node id="-864492" lat="63.2164071266" lon="9.7691708135">
		<tag k="fixme" v="consider place=hamlet" />
		<tag k="name" v="Kårmo" />
		<tag k="place" v="farm" />
		<tag k="ssr:stedsnr" v="133198" />
	</node>
	<node id="-864489" lat="63.3142665535" lon="9.80511120273">
		<tag k="fixme" v="consider place=hamlet" />
		<tag k="name" v="Skjenald" />
		<tag k="place" v="farm" />
		<tag k="ssr:stedsnr" v="256253" />
	</node>
	<node id="-864488" lat="63.1998888911" lon="9.74543610241">
		<tag k="name" v="Nordgarden" />
		<tag k="place" v="farm" />
		<tag k="ssr:stedsnr" v="641864" />
	</node>
	<node id="-864485" lat="63.2665365426" lon="9.80849789315">
		<tag k="fixme" v="consider place=hamlet" />
		<tag k="name" v="Skåggåberget" />
		<tag k="place" v="farm" />
		<tag k="ssr:stedsnr" v="971961" />
	</node>
	<node id="-864483" lat="63.2700798098" lon="9.80005165515">
		<tag k="fixme" v="consider place=hamlet" />
		<tag k="name" v="Ferjstad" />
		<tag k="place" v="farm" />
		<tag k="ssr:stedsnr" v="155054" />
	</node>
	<node id="-864481" lat="63.2016027798" lon="9.73195277669">
		<tag k="name" v="Framigard" />
		<tag k="place" v="farm" />
		<tag k="ssr:stedsnr" v="255211" />
	</node>
	<node id="-864480" lat="63.2040388909" lon="9.81940277762">
		<tag k="name" v="Solem" />
		<tag k="place" v="farm" />
		<tag k="ssr:stedsnr" v="945948" />
	</node>
	<node id="-864477" lat="63.1593777818" lon="9.75640556318">
		<tag k="name" v="Gjetberget" />
		<tag k="place" v="farm" />
		<tag k="ssr:stedsnr" v="35742" />
	</node>
	<node id="-862927" lat="63.1986694418" lon="9.73230556391">
		<tag k="name" v="Bakken" />
		<tag k="place" v="farm" />
		<tag k="ssr:stedsnr" v="702894" />
	</node>
	<node id="-864466" lat="63.2834528507" lon="9.6081326538">
		<tag k="fixme" v="consider place=hamlet" />
		<tag k="name" v="Sæterbakk" />
		<tag k="place" v="farm" />
		<tag k="ssr:stedsnr" v="256249" />
	</node>
	<node id="-864465" lat="63.2012527796" lon="9.72347500156">
		<tag k="alt_name" v="Nygarden" />
		<tag k="name" v="Aunan" />
		<tag k="place" v="farm" />
		<tag k="ssr:stedsnr" v="133193" />
	</node>
	<node id="-864461" lat="63.2656916644" lon="9.77660277931">
		<tag k="name" v="Slettaunet" />
		<tag k="place" v="farm" />
		<tag k="ssr:stedsnr" v="34012" />
	</node>
	<node id="-864458" lat="63.3059194435" lon="9.85166388196">
		<tag k="amenity" v="school" />
		<tag k="name" v="Orkanger ungdomsskole" />
		<tag k="ssr:stedsnr" v="909825" />
	</node>
	<node id="-862582" lat="63.1543027754" lon="9.77328056358">
		<tag k="alt_name" v="Setra" />
		<tag k="fixme" v="consider place=hamlet" />
		<tag k="name" v="Sætra" />
		<tag k="place" v="farm" />
		<tag k="ssr:stedsnr" v="437147" />
	</node>
	<node id="-864450" lat="63.2055703782" lon="9.83292450275">
		<tag k="fixme" v="consider place=hamlet" />
		<tag k="name" v="Melby" />
		<tag k="place" v="farm" />
		<tag k="ssr:stedsnr" v="255207" />
	</node>
	<node id="-864439" lat="63.3271666626" lon="9.725424993">
		<tag k="historic" v="shieling" />
		<tag k="name" v="Skjenaldnaustvollen" />
		<tag k="place" v="locality" />
		<tag k="ssr:stedsnr" v="883212" />
	</node>
	<node id="-864437" lat="63.2082555518" lon="9.80151944169">
		<tag k="alt_name" v="Stubbflotten" />
		<tag k="name" v="Flåtten" />
		<tag k="place" v="farm" />
		<tag k="ssr:stedsnr" v="133187" />
	</node>
	<node id="-864426" lat="63.2379203288" lon="9.58992412993">
		<tag k="fixme" v="consider place=hamlet" />
		<tag k="name" v="Hoset" />
		<tag k="place" v="farm" />
		<tag k="ssr:stedsnr" v="194543" />
	</node>
	<node id="-864425" lat="63.2953638851" lon="9.65453333316">
		<tag k="name" v="Movoll" />
		<tag k="place" v="farm" />
		<tag k="ssr:stedsnr" v="802262" />
	</node>
	<node id="-864423" lat="63.3105805549" lon="9.81425277781">
		<tag k="name" v="Gjølme" />
		<tag k="place" v="farm" />
		<tag k="ssr:stedsnr" v="239889" />
	</node>
	<node id="-864417" lat="63.2687027761" lon="9.82120555792">
		<tag k="name" v="Dikesbakken" />
		<tag k="place" v="farm" />
		<tag k="ssr:stedsnr" v="155036" />
	</node>
	<node id="-863005" lat="63.2479500038" lon="9.79258332962">
		<tag k="name" v="Innlegget" />
		<tag k="place" v="farm" />
		<tag k="ssr:stedsnr" v="862327" />
	</node>
	<node id="-864412" lat="63.2796746029" lon="9.76582741313">
		<tag k="alt_name" v="Kirkaunet" />
		<tag k="fixme" v="consider place=hamlet" />
		<tag k="name" v="Kjerkaunet" />
		<tag k="old_name" v="Kjerkeaunet" />
		<tag k="place" v="farm" />
		<tag k="ssr:stedsnr" v="923405" />
	</node>
	<node id="-864411" lat="63.3172166657" lon="9.81619721885">
		<tag k="name" v="Meland" />
		<tag k="place" v="farm" />
		<tag k="ssr:stedsnr" v="823170" />
	</node>
	<node id="-864408" lat="63.2681771114" lon="9.8163545225">
		<tag k="fixme" v="consider place=hamlet" />
		<tag k="name" v="Fannrem" />
		<tag k="place" v="farm" />
		<tag k="ssr:stedsnr" v="971935" />
	</node>
	<node id="-864405" lat="63.1967777763" lon="9.73171388925">
		<tag k="name" v="Håggån" />
		<tag k="place" v="farm" />
		<tag k="ssr:stedsnr" v="255198" />
	</node>
	<node id="-864403" lat="63.2287292755" lon="9.57876830125">
		<tag k="fixme" v="consider place=hamlet" />
		<tag k="name" v="Kroken" />
		<tag k="place" v="farm" />
		<tag k="ssr:stedsnr" v="862571" />
	</node>
	<node id="-864398" lat="63.283086325" lon="9.84139381708">
		<tag k="fixme" v="consider place=hamlet" />
		<tag k="name" v="Follo" />
		<tag k="place" v="farm" />
		<tag k="ssr:stedsnr" v="971931" />
	</node>
	<node id="-864397" lat="63.2153277807" lon="9.79831666079">
		<tag k="name" v="Solbusmo" />
		<tag k="place" v="farm" />
		<tag k="ssr:stedsnr" v="945928" />
	</node>
	<node id="-864930" lat="63.253161113" lon="9.84474722715">
		<tag k="fixme" v="consider place=hamlet" />
		<tag k="name" v="Jamtåsen" />
		<tag k="place" v="farm" />
		<tag k="ssr:stedsnr" v="944322" />
	</node>
	<node id="-864392" lat="63.2207077584" lon="9.57611833262">
		<tag k="alt_name" v="Søregga" />
		<tag k="fixme" v="consider place=hamlet" />
		<tag k="name" v="Egga" />
		<tag k="place" v="farm" />
		<tag k="ssr:stedsnr" v="497540" />
	</node>
	<node id="-864388" lat="63.3194166675" lon="9.70692777603">
		<tag k="historic" v="shieling" />
		<tag k="name" v="Øyasætra" />
		<tag k="place" v="locality" />
		<tag k="ssr:stedsnr" v="823163" />
	</node>
	<node id="-862912" lat="63.3610303063" lon="9.87127666208">
		<tag k="fixme" v="consider place=hamlet" />
		<tag k="name" v="Husdalen" />
		<tag k="place" v="farm" />
		<tag k="ssr:stedsnr" v="134500" />
	</node>
	<node id="-864381" lat="63.1923671816" lon="9.79638799995">
		<tag k="fixme" v="consider place=hamlet" />
		<tag k="name" v="Løfta" />
		<tag k="place" v="farm" />
		<tag k="ssr:stedsnr" v="133181" />
	</node>
	<node id="-864379" lat="63.3119583346" lon="9.79517499837">
		<tag k="fixme" v="consider place=hamlet" />
		<tag k="name" v="Dyndalan" />
		<tag k="place" v="farm" />
		<tag k="ssr:stedsnr" v="883228" />
	</node>
	<node id="-864377" lat="63.2332972216" lon="9.6422888962">
		<tag k="fixme" v="consider place=hamlet" />
		<tag k="name" v="Myra" />
		<tag k="place" v="farm" />
		<tag k="ssr:stedsnr" v="156757" />
	</node>
	<node id="-864375" lat="63.2802115911" lon="9.74067751748">
		<tag k="name" v="Solem" />
		<tag k="place" v="hamlet" />
		<tag k="ssr:stedsnr" v="923402" />
	</node>
	<node id="-864372" lat="63.1959388879" lon="9.7481305474">
		<tag k="name" v="Brattlia" />
		<tag k="place" v="farm" />
		<tag k="ssr:stedsnr" v="133180" />
	</node>
	<node id="-864370" lat="63.1685805581" lon="9.75584167475">
		<tag k="name" v="Grova" />
		<tag k="place" v="farm" />
		<tag k="ssr:stedsnr" v="460432" />
	</node>
	<node id="-864369" lat="63.2039000002" lon="9.63526667049">
		<tag k="name" v="Nordli" />
		<tag k="place" v="farm" />
		<tag k="ssr:stedsnr" v="95634" />
	</node>
	<node id="-862815" lat="63.2024000022" lon="9.66187777673">
		<tag k="alt_name" v="Ektahaugen" />
		<tag k="name" v="Tokstad" />
		<tag k="place" v="farm" />
		<tag k="ssr:stedsnr" v="619640" />
	</node>
	<node id="-864365" lat="63.3479749975" lon="9.88717221321">
		<tag k="name" v="Bakken" />
		<tag k="place" v="farm" />
		<tag k="ssr:stedsnr" v="924451" />
	</node>
	<node id="-864363" lat="63.2046517801" lon="9.84096783189">
		<tag k="alt_name" v="Kløfsås;Klefsås" />
		<tag k="fixme" v="consider place=hamlet" />
		<tag k="name" v="Kløvsås" />
		<tag k="place" v="farm" />
		<tag k="ssr:stedsnr" v="801181" />
	</node>
	<node id="-864362" lat="63.27132222" lon="9.81741388214">
		<tag k="name" v="Fannremsøyan" />
		<tag k="place" v="farm" />
		<tag k="ssr:stedsnr" v="155026" />
	</node>
	<node id="-864358" lat="63.2898444484" lon="9.62641110297">
		<tag k="fixme" v="consider place=hamlet" />
		<tag k="name" v="Halsteinli" />
		<tag k="old_name" v="Halsteili" />
		<tag k="place" v="farm" />
		<tag k="ssr:stedsnr" v="256238" />
	</node>
	<node id="-864357" lat="63.3180542223" lon="9.7953466723">
		<tag k="fixme" v="consider place=hamlet" />
		<tag k="name" v="Tunga" />
		<tag k="place" v="farm" />
		<tag k="ssr:stedsnr" v="558268" />
	</node>
	<node id="-864355" lat="63.2872055528" lon="9.84102223198">
		<tag k="amenity" v="school" />
		<tag k="name" v="Evjen skole" />
		<tag k="ssr:stedsnr" v="605868" />
	</node>
	<node id="-864354" lat="63.2762944452" lon="9.8249388815">
		<tag k="name" v="Stasjonsparken" />
		<tag k="place" v="square" />
		<tag k="ssr:stedsnr" v="101396" />
	</node>
	<node id="-864349" lat="63.1899083318" lon="9.79841110372">
		<tag k="alt_name" v="Øyamoen" />
		<tag k="name" v="Moen" />
		<tag k="place" v="farm" />
		<tag k="ssr:stedsnr" v="255184" />
	</node>
	<node id="-864344" lat="63.1663805568" lon="9.73340555616">
		<tag k="name" v="Haugagårdsøya" />
		<tag k="place" v="farm" />
		<tag k="ssr:stedsnr" v="35708" />
	</node>
	<node id="-862564" lat="63.1909666666" lon="9.75849721691">
		<tag k="fixme" v="consider place=hamlet" />
		<tag k="name" v="Moe" />
		<tag k="place" v="farm" />
		<tag k="ssr:stedsnr" v="498238" />
	</node>
	<node id="-864333" lat="63.2533583346" lon="9.81083611079">
		<tag k="alt_name" v="Rønningen" />
		<tag k="name" v="Prestrønningen" />
		<tag k="place" v="farm" />
		<tag k="ssr:stedsnr" v="680743" />
	</node>
	<node id="-864332" lat="63.2890542696" lon="9.61711755919">
		<tag k="fixme" v="consider place=hamlet" />
		<tag k="name" v="Blåsberg" />
		<tag k="place" v="farm" />
		<tag k="ssr:stedsnr" v="377212" />
	</node>
	<node id="-864327" lat="63.3237416648" lon="9.82183888074">
		<tag k="name" v="Håggån" />
		<tag k="place" v="farm" />
		<tag k="ssr:stedsnr" v="823144" />
	</node>
	<node id="-863291" lat="63.2608176267" lon="9.78882362842">
		<tag k="fixme" v="consider place=hamlet" />
		<tag k="name" v="Solhus" />
		<tag k="place" v="farm" />
		<tag k="ssr:stedsnr" v="316774" />
	</node>
	<node id="-864324" lat="63.297077775" lon="9.850800004">
		<tag k="name" v="Franslykkja" />
		<tag k="place" v="farm" />
		<tag k="ssr:stedsnr" v="559319" />
	</node>
	<node id="-864323" lat="63.2939472598" lon="9.65375648163">
		<tag k="fixme" v="consider place=hamlet" />
		<tag k="name" v="Gjønnes" />
		<tag k="place" v="farm" />
		<tag k="ssr:stedsnr" v="802259" />
	</node>
	<node id="-864321" lat="63.2002861103" lon="9.73593333589">
		<tag k="name" v="Vormdal" />
		<tag k="place" v="hamlet" />
		<tag k="ssr:stedsnr" v="945898" />
	</node>
	<node id="-864320" lat="63.2588166631" lon="9.75294167093">
		<tag k="name" v="Egglykkja" />
		<tag k="place" v="farm" />
		<tag k="ssr:stedsnr" v="155012" />
	</node>
	<node id="-864317" lat="63.2440705356" lon="9.63977990363">
		<tag k="alt_name" v="Koksætra" />
		<tag k="fixme" v="consider place=hamlet" />
		<tag k="name" v="Kokksætra" />
		<tag k="place" v="farm" />
		<tag k="ssr:stedsnr" v="376681" />
	</node>
	<node id="-864316" lat="63.2566166674" lon="9.80447500394">
		<tag k="name" v="Engan" />
		<tag k="place" v="farm" />
		<tag k="ssr:stedsnr" v="680741" />
	</node>
	<node id="-864306" lat="63.1908055591" lon="9.8727249952">
		<tag k="fixme" v="consider place=hamlet" />
		<tag k="name" v="Solsjøbygda" />
		<tag k="place" v="village" />
		<tag k="ssr:stedsnr" v="133165" />
	</node>
	<node id="-864305" lat="63.3504121108" lon="9.9022892942">
		<tag k="alt_name" v="Inneråstan" />
		<tag k="name" v="Åstan" />
		<tag k="place" v="farm" />
		<tag k="ssr:stedsnr" v="498548" />
	</node>
	<node id="-864304" lat="63.259047223" lon="9.3571083365">
		<tag k="historic" v="shieling" />
		<tag k="name" v="Leirvassætra" />
		<tag k="place" v="locality" />
		<tag k="ssr:stedsnr" v="862013" />
	</node>
	<node id="-863240" lat="63.4152138929" lon="9.96451389592">
		<tag k="name" v="Plassen" />
		<tag k="place" v="farm" />
		<tag k="ssr:stedsnr" v="823663" />
	</node>
	<node id="-862881" lat="63.1871608536" lon="9.46806196192">
		<tag k="alt_name" v="Lomunddal" />
		<tag k="fixme" v="consider place=hamlet" />
		<tag k="name" v="Lomunddalen" />
		<tag k="place" v="farm" />
		<tag k="ssr:stedsnr" v="923618" />
	</node>
	<node id="-864298" lat="63.2870222192" lon="9.63091944374">
		<tag k="name" v="Stokkhaugen" />
		<tag k="place" v="farm" />
		<tag k="ssr:stedsnr" v="884945" />
	</node>
	<node id="-864296" lat="63.2497888929" lon="9.83768333175">
		<tag k="name" v="Digeråsgjerdet" />
		<tag k="place" v="farm" />
		<tag k="ssr:stedsnr" v="579336" />
	</node>
	<node id="-862897" lat="63.1795166687" lon="9.58254999918">
		<tag k="name" v="Gilhaugen" />
		<tag k="place" v="farm" />
		<tag k="ssr:stedsnr" v="580612" />
	</node>
	<node id="-864289" lat="63.3613972248" lon="9.87724722324">
		<tag k="name" v="Gjerdet" />
		<tag k="place" v="farm" />
		<tag k="ssr:stedsnr" v="519407" />
	</node>
	<node id="-864286" lat="63.1712666707" lon="9.7268388863">
		<tag k="name" v="Tufta" />
		<tag k="place" v="farm" />
		<tag k="ssr:stedsnr" v="679134" />
	</node>
	<node id="-864283" lat="63.1991555557" lon="9.79322778511">
		<tag k="name" v="Saglykkja" />
		<tag k="place" v="farm" />
		<tag k="ssr:stedsnr" v="277938" />
	</node>
	<node id="-864282" lat="63.2755979621" lon="9.79640060437">
		<tag k="fixme" v="consider place=hamlet" />
		<tag k="name" v="Metlia" />
		<tag k="place" v="farm" />
		<tag k="ssr:stedsnr" v="619394" />
	</node>
	<node id="-864279" lat="63.4167777735" lon="9.96653333771">
		<tag k="fixme" v="consider place=hamlet" />
		<tag k="name" v="Nerkjøra" />
		<tag k="place" v="village" />
		<tag k="ssr:stedsnr" v="94764" />
	</node>
	<node id="-864275" lat="63.1889602388" lon="9.8687791981">
		<tag k="name" v="Grø" />
		<tag k="place" v="farm" />
		<tag k="ssr:stedsnr" v="133162" />
	</node>
	<node id="-864273" lat="63.2184722208" lon="9.63230833536">
		<tag k="name" v="Vassligjerdet" />
		<tag k="place" v="farm" />
		<tag k="ssr:stedsnr" v="945854" />
	</node>
	<node id="-862893" lat="63.2891638932" lon="9.63826110341">
		<tag k="alt_name" v="Gagnåssætra" />
		<tag k="name" v="Gangåssæter" />
		<tag k="old_name" v="Gagnassætra" />
		<tag k="place" v="farm" />
		<tag k="ssr:stedsnr" v="498282" />
	</node>
	<node id="-864265" lat="63.2385999995" lon="9.77915000113">
		<tag k="name" v="Gjerdet" />
		<tag k="place" v="farm" />
		<tag k="ssr:stedsnr" v="944110" />
	</node>
	<node id="-863233" lat="63.2552944486" lon="9.82974721645">
		<tag k="name" v="Gammel-lykkja" />
		<tag k="place" v="locality" />
		<tag k="ssr:stedsnr" v="458339" />
	</node>
</osm>
