<?xml version="1.0" encoding="UTF-8"?>
<osm generator="osmapis" version="0.6">
	<node id="-864256" lat="63.3581555521" lon="9.89256111809">
		<tag k="name" v="Knøkmyra" />
		<tag k="natural" v="wetland" />
		<tag k="ssr:stedsnr" v="762366" />
	</node>
	<node id="-864254" lat="63.2139750021" lon="9.59923056015">
		<tag k="name" v="Stormyra" />
		<tag k="natural" v="wetland" />
		<tag k="ssr:stedsnr" v="34808" />
	</node>
	<node id="-862549" lat="63.2378250007" lon="9.58465277905">
		<tag k="name" v="Hosetlykkja" />
		<tag k="place" v="locality" />
		<tag k="ssr:stedsnr" v="702781" />
	</node>
	<node id="-864246" lat="63.3418666661" lon="9.84121111279">
		<tag k="name" v="Håkålåsmyran" />
		<tag k="natural" v="wetland" />
		<tag k="ssr:stedsnr" v="216340" />
	</node>
	<node id="-864243" lat="63.3664638889" lon="9.74488610797">
		<tag k="name" v="Låglendet" />
		<tag k="place" v="locality" />
		<tag k="ssr:stedsnr" v="398146" />
	</node>
	<node id="-864235" lat="63.2230694418" lon="9.85236943988">
		<tag k="historic" v="shieling" />
		<tag k="name" v="Eklisætra" />
		<tag k="place" v="locality" />
		<tag k="ssr:stedsnr" v="337323" />
	</node>
	<node id="-864227" lat="63.3312111155" lon="9.71054999968">
		<tag k="name" v="Dyndalsslættet" />
		<tag k="place" v="locality" />
		<tag k="ssr:stedsnr" v="398125" />
	</node>
	<node id="-864223" lat="63.3612194463" lon="9.90312778132">
		<tag k="name" v="Kloppmyra" />
		<tag k="natural" v="wetland" />
		<tag k="ssr:stedsnr" v="762380" />
	</node>
	<node id="-864218" lat="63.2101499981" lon="9.62448333753">
		<tag k="name" v="Rabburda" />
		<tag k="natural" v="scree" />
		<tag k="ssr:stedsnr" v="945857" />
	</node>
	<node id="-864210" lat="63.2680027752" lon="9.68672499565">
		<tag k="name" v="Stormyra" />
		<tag k="natural" v="wetland" />
		<tag k="ssr:stedsnr" v="641774" />
	</node>
	<node id="-864208" lat="63.2235722194" lon="9.78845833132">
		<tag k="name" v="Reinskleivaunet" />
		<tag k="place" v="locality" />
		<tag k="ssr:stedsnr" v="277928" />
	</node>
	<node id="-864206" lat="63.4403750032" lon="9.93374444442">
		<tag k="name" v="Stormyra" />
		<tag k="natural" v="wetland" />
		<tag k="ssr:stedsnr" v="94746" />
	</node>
	<node id="-864188" lat="63.1687416684" lon="9.67288888863">
		<tag k="name" v="Bergemslykkja" />
		<tag k="place" v="locality" />
		<tag k="ssr:stedsnr" v="95587" />
	</node>
	<node id="-864183" lat="63.3880499983" lon="9.76352221225">
		<tag k="name" v="Kattuggelgarden" />
		<tag k="place" v="locality" />
		<tag k="ssr:stedsnr" v="216320" />
	</node>
	<node id="-864181" lat="63.255586107" lon="9.82291388874">
		<tag k="name" v="Klemmetslykkja" />
		<tag k="place" v="locality" />
		<tag k="ssr:stedsnr" v="823079" />
	</node>
	<node id="-862878" lat="63.1962944424" lon="9.68338055212">
		<tag k="name" v="Brekka" />
		<tag k="place" v="locality" />
		<tag k="ssr:stedsnr" v="580620" />
	</node>
	<node id="-864166" lat="63.1641611102" lon="9.7886777699">
		<tag k="landuse" v="meadow" />
		<tag k="name" v="Såmmårfjøshåggån" />
		<tag k="ssr:stedsnr" v="945812" />
	</node>
	<node id="-864159" lat="63.3514833292" lon="9.79957777294">
		<tag k="name" v="Sæterslættet" />
		<tag k="place" v="locality" />
		<tag k="ssr:stedsnr" v="398123" />
	</node>
	<node id="-864152" lat="63.1623333332" lon="9.77131111227">
		<tag k="name" v="Moen" />
		<tag k="place" v="locality" />
		<tag k="ssr:stedsnr" v="641730" />
	</node>
	<node id="-864150" lat="63.2402666625" lon="9.62166110192">
		<tag k="name" v="Kakumyra" />
		<tag k="natural" v="wetland" />
		<tag k="ssr:stedsnr" v="641729" />
	</node>
	<node id="-864148" lat="63.3476333368" lon="9.82910000467">
		<tag k="historic" v="shieling" />
		<tag k="name" v="Håkålåssætra" />
		<tag k="place" v="locality" />
		<tag k="ssr:stedsnr" v="762341" />
	</node>
	<node id="-864146" lat="63.2085277756" lon="9.55759445304">
		<tag k="name" v="Gilfætta" />
		<tag k="place" v="locality" />
		<tag k="ssr:stedsnr" v="34778" />
	</node>
	<node id="-864142" lat="63.3977111156" lon="9.95641389743">
		<tag k="name" v="Saltbugrinda" />
		<tag k="place" v="locality" />
		<tag k="ssr:stedsnr" v="94727" />
	</node>
	<node id="-863213" lat="63.1760972239" lon="9.63377499768">
		<tag k="name" v="Elkrokmyran" />
		<tag k="natural" v="wetland" />
		<tag k="ssr:stedsnr" v="945594" />
	</node>
	<node id="-864140" lat="63.1948472197" lon="9.8448361173">
		<tag k="name" v="Damtjønnmyra" />
		<tag k="natural" v="wetland" />
		<tag k="ssr:stedsnr" v="519345" />
	</node>
	<node id="-864136" lat="63.2468111125" lon="9.53392500042">
		<tag k="name" v="Kjølen" />
		<tag k="natural" v="wetland" />
		<tag k="ssr:stedsnr" v="680709" />
	</node>
	<node id="-864133" lat="63.1833833363" lon="9.4529805494">
		<tag k="name" v="Tobakksmyra" />
		<tag k="natural" v="wetland" />
		<tag k="ssr:stedsnr" v="95562" />
	</node>
	<node id="-864131" lat="63.2481111115" lon="9.58331943502">
		<tag k="name" v="Kåsmyra" />
		<tag k="natural" v="wetland" />
		<tag k="ssr:stedsnr" v="34770" />
	</node>
	<node id="-865259" lat="63.198166664" lon="9.61014444585">
		<tag k="name" v="Fagerhaugen" />
		<tag k="place" v="locality" />
		<tag k="ssr:stedsnr" v="459835" />
	</node>
	<node id="-864127" lat="63.3257388927" lon="9.79557777396">
		<tag k="name" v="Tjurruhjellen" />
		<tag k="place" v="locality" />
		<tag k="ssr:stedsnr" v="397216" />
	</node>
	<node id="-863210" lat="63.3627611123" lon="9.85776666209">
		<tag k="name" v="Kloppmyra" />
		<tag k="natural" v="wetland" />
		<tag k="ssr:stedsnr" v="640645" />
	</node>
	<node id="-864122" lat="63.2219055533" lon="9.82453055511">
		<tag k="name" v="Solbusmyra" />
		<tag k="natural" v="wetland" />
		<tag k="ssr:stedsnr" v="884898" />
	</node>
	<node id="-864112" lat="63.2433527807" lon="9.70841388316">
		<tag k="name" v="Røsmyra" />
		<tag k="natural" v="wetland" />
		<tag k="ssr:stedsnr" v="823092" />
	</node>
	<node id="-864109" lat="63.2887722207" lon="9.80806110427">
		<tag k="historic" v="shieling" />
		<tag k="name" v="Sætervollen" />
		<tag k="place" v="locality" />
		<tag k="ssr:stedsnr" v="640024" />
	</node>
	<node id="-864108" lat="63.3031638878" lon="9.87045833003">
		<tag k="name" v="Såttån" />
		<tag k="place" v="locality" />
		<tag k="ssr:stedsnr" v="701516" />
	</node>
	<node id="-864106" lat="63.3316527768" lon="9.57778888504">
		<tag k="name" v="Midtgarden" />
		<tag k="place" v="locality" />
		<tag k="ssr:stedsnr" v="398969" />
	</node>
	<node id="-862523" lat="63.2912166689" lon="9.68207499172">
		<tag k="name" v="Verssletton" />
		<tag k="natural" v="wetland" />
		<tag k="ssr:stedsnr" v="95945" />
	</node>
	<node id="-864078" lat="63.2644972261" lon="9.78021111638">
		<tag k="name" v="Kjerkegga" />
		<tag k="place" v="locality" />
		<tag k="ssr:stedsnr" v="944048" />
	</node>
	<node id="-864077" lat="63.3395111129" lon="9.82573054783">
		<tag k="name" v="Rokollmyran" />
		<tag k="natural" v="wetland" />
		<tag k="ssr:stedsnr" v="701483" />
	</node>
	<node id="-864073" lat="63.3923638848" lon="9.90273889368">
		<tag k="name" v="Litlslættholman" />
		<tag k="natural" v="wetland" />
		<tag k="ssr:stedsnr" v="94703" />
	</node>
	<node id="-864070" lat="63.2340250031" lon="9.47171667342">
		<tag k="landuse" v="meadow" />
		<tag k="name" v="Bakkslættet" />
		<tag k="ssr:stedsnr" v="358644" />
	</node>
	<node id="-864069" lat="63.2831249958" lon="9.67299165978">
		<tag k="name" v="Håggån" />
		<tag k="place" v="locality" />
		<tag k="ssr:stedsnr" v="398953" />
	</node>
	<node id="-864068" lat="63.1918" lon="9.67220277103">
		<tag k="name" v="Ytterlykkja" />
		<tag k="place" v="locality" />
		<tag k="ssr:stedsnr" v="156650" />
	</node>
	<node id="-862859" lat="63.1703277749" lon="9.73531944667">
		<tag k="name" v="Vollplassen" />
		<tag k="place" v="locality" />
		<tag k="ssr:stedsnr" v="35229" />
	</node>
	<node id="-864064" lat="63.2019805516" lon="9.84982222973">
		<tag k="name" v="Vaulmyra" />
		<tag k="natural" v="wetland" />
		<tag k="ssr:stedsnr" v="216295" />
	</node>
	<node id="-864062" lat="63.2406750033" lon="9.53524721771">
		<tag k="name" v="Høgkjølen" />
		<tag k="natural" v="wetland" />
		<tag k="ssr:stedsnr" v="930175" />
	</node>
	<node id="-864045" lat="63.2115916671" lon="9.89489721356">
		<tag k="name" v="Solemslykkjon" />
		<tag k="place" v="locality" />
		<tag k="ssr:stedsnr" v="216276" />
	</node>
	<node id="-864042" lat="63.178061114" lon="9.88393888958">
		<tag k="name" v="Espåslykkja" />
		<tag k="place" v="locality" />
		<tag k="ssr:stedsnr" v="762329" />
	</node>
	<node id="-864041" lat="63.3305944486" lon="9.84457499715">
		<tag k="name" v="Furen" />
		<tag k="place" v="locality" />
		<tag k="ssr:stedsnr" v="701496" />
	</node>
	<node id="-864036" lat="63.2294749983" lon="9.35658611233">
		<tag k="name" v="Melimyra" />
		<tag k="natural" v="wetland" />
		<tag k="ssr:stedsnr" v="890565" />
	</node>
	<node id="-864035" lat="63.299474996" lon="9.84101667147">
		<tag k="name" v="Bårdshaugøra" />
		<tag k="place" v="locality" />
		<tag k="ssr:stedsnr" v="701491" />
	</node>
	<node id="-864032" lat="63.3089888852" lon="9.80084165764">
		<tag k="name" v="Kvernhusholet" />
		<tag k="place" v="locality" />
		<tag k="ssr:stedsnr" v="579252" />
	</node>
	<node id="-864021" lat="63.2367722226" lon="9.70459445276">
		<tag k="name" v="Åsmyra" />
		<tag k="natural" v="wetland" />
		<tag k="ssr:stedsnr" v="276112" />
	</node>
	<node id="-864018" lat="63.2396833343" lon="9.7446472312">
		<tag k="landuse" v="meadow" />
		<tag k="name" v="Sjøramoen" />
		<tag k="ssr:stedsnr" v="398060" />
	</node>
	<node id="-864012" lat="63.2056194464" lon="9.88180555327">
		<tag k="name" v="Spjøtmyra" />
		<tag k="natural" v="wetland" />
		<tag k="ssr:stedsnr" v="762301" />
	</node>
	<node id="-864010" lat="63.2327638895" lon="9.7227000098">
		<tag k="name" v="Vidmyran" />
		<tag k="natural" v="wetland" />
		<tag k="ssr:stedsnr" v="276110" />
	</node>
	<node id="-864009" lat="63.2435694411" lon="9.48608610561">
		<tag k="landuse" v="meadow" />
		<tag k="name" v="Eklislættet" />
		<tag k="ssr:stedsnr" v="783626" />
	</node>
	<node id="-863994" lat="63.2087277775" lon="9.8876666696">
		<tag k="historic" v="shieling" />
		<tag k="name" v="Stubbsætra" />
		<tag k="place" v="locality" />
		<tag k="ssr:stedsnr" v="762298" />
	</node>
	<node id="-863988" lat="63.2152416684" lon="9.59106945139">
		<tag k="name" v="Postmyra" />
		<tag k="natural" v="wetland" />
		<tag k="ssr:stedsnr" v="277849" />
	</node>
	<node id="-863985" lat="63.2120722265" lon="9.74105833465">
		<tag k="name" v="Ljøkjelmyra" />
		<tag k="natural" v="wetland" />
		<tag k="ssr:stedsnr" v="217102" />
	</node>
	<node id="-863984" lat="63.2181611112" lon="9.59851388126">
		<tag k="name" v="Nordgjerdet" />
		<tag k="place" v="locality" />
		<tag k="ssr:stedsnr" v="884821" />
	</node>
	<node id="-863983" lat="63.2513722244" lon="9.78171665897">
		<tag k="name" v="Bakkøyan" />
		<tag k="place" v="locality" />
		<tag k="ssr:stedsnr" v="883075" />
	</node>
	<node id="-863979" lat="63.240952775" lon="9.60128610744">
		<tag k="name" v="Bakkøyan" />
		<tag k="place" v="locality" />
		<tag k="ssr:stedsnr" v="34724" />
	</node>
	<node id="-863978" lat="63.2211805556" lon="9.504686118">
		<tag k="name" v="Eggakjølen" />
		<tag k="natural" v="wetland" />
		<tag k="ssr:stedsnr" v="12581" />
	</node>
	<node id="-863977" lat="63.3247638855" lon="9.68322778559">
		<tag k="historic" v="shieling" />
		<tag k="name" v="Kjelbrengsætra" />
		<tag k="place" v="locality" />
		<tag k="ssr:stedsnr" v="823861" />
	</node>
	<node id="-863976" lat="63.2587972215" lon="9.65957221259">
		<tag k="historic" v="shieling" />
		<tag k="name" v="Ødynsætervollen" />
		<tag k="place" v="locality" />
		<tag k="ssr:stedsnr" v="945755" />
	</node>
	<node id="-863968" lat="63.1570583317" lon="9.65650555319">
		<tag k="name" v="Kjerrguttu" />
		<tag k="place" v="locality" />
		<tag k="ssr:stedsnr" v="156618" />
	</node>
	<node id="-863965" lat="63.2240694484" lon="9.7366388972">
		<tag k="historic" v="shieling" />
		<tag k="name" v="Øverbysætra" />
		<tag k="place" v="locality" />
		<tag k="ssr:stedsnr" v="580091" />
	</node>
	<node id="-863964" lat="63.297647222" lon="9.59613888502">
		<tag k="name" v="Teigamyra" />
		<tag k="natural" v="wetland" />
		<tag k="ssr:stedsnr" v="217996" />
	</node>
	<node id="-863958" lat="63.348149996" lon="9.81668332605">
		<tag k="alt_name" v="Gorvassmyran" />
		<tag k="name" v="Gorvassmyra" />
		<tag k="natural" v="wetland" />
		<tag k="ssr:stedsnr" v="195506" />
	</node>
	<node id="-863957" lat="63.3059694401" lon="9.8163000094">
		<tag k="name" v="Kjerkteigen" />
		<tag k="place" v="locality" />
		<tag k="ssr:stedsnr" v="337248" />
	</node>
	<node id="-863956" lat="63.335766665" lon="9.83744166124">
		<tag k="name" v="Rokollgarden" />
		<tag k="place" v="locality" />
		<tag k="ssr:stedsnr" v="701475" />
	</node>
	<node id="-863939" lat="63.2394222261" lon="9.78809999693">
		<tag k="name" v="Nyryddet" />
		<tag k="place" v="locality" />
		<tag k="ssr:stedsnr" v="580098" />
	</node>
	<node id="-863938" lat="63.3548055531" lon="9.6779250035">
		<tag k="name" v="Bjørndalsmyran" />
		<tag k="natural" v="wetland" />
		<tag k="ssr:stedsnr" v="823870" />
	</node>
	<node id="-863932" lat="63.4181388905" lon="9.96315555904">
		<tag k="name" v="Kleivan" />
		<tag k="place" v="locality" />
		<tag k="ssr:stedsnr" v="34706" />
	</node>
	<node id="-863926" lat="63.1950638863" lon="9.72545833308">
		<tag k="name" v="Nesøya" />
		<tag k="place" v="locality" />
		<tag k="ssr:stedsnr" v="398911" />
	</node>
	<node id="-863925" lat="63.2500333298" lon="9.4912722207">
		<tag k="name" v="Storkjølen" />
		<tag k="natural" v="wetland" />
		<tag k="ssr:stedsnr" v="783628" />
	</node>
	<node id="-863924" lat="63.2729055579" lon="9.81869999235">
		<tag k="name" v="Skreddarhåggån" />
		<tag k="place" v="locality" />
		<tag k="ssr:stedsnr" v="944036" />
	</node>
	<node id="-863920" lat="63.1851027756" lon="9.71387777804">
		<tag k="landuse" v="meadow" />
		<tag k="name" v="Åslykkja" />
		<tag k="ssr:stedsnr" v="35582" />
	</node>
	<node id="-863919" lat="63.4322999962" lon="9.97267222078">
		<tag k="historic" v="shieling" />
		<tag k="name" v="Rovollen" />
		<tag k="place" v="locality" />
		<tag k="ssr:stedsnr" v="155721" />
	</node>
	<node id="-863913" lat="63.2924694441" lon="9.73753888229">
		<tag k="name" v="Skaftstohauglykkja" />
		<tag k="place" v="locality" />
		<tag k="ssr:stedsnr" v="337233" />
	</node>
	<node id="-863909" lat="63.1890944404" lon="9.74648611048">
		<tag k="name" v="Dålåan" />
		<tag k="place" v="locality" />
		<tag k="ssr:stedsnr" v="823843" />
	</node>
	<node id="-863905" lat="63.3171638874" lon="9.79281667147">
		<tag k="name" v="Munkteigen" />
		<tag k="place" v="locality" />
		<tag k="ssr:stedsnr" v="579203" />
	</node>
	<node id="-863902" lat="63.3644500014" lon="9.8503694429">
		<tag k="name" v="Bakkmyran" />
		<tag k="natural" v="wetland" />
		<tag k="ssr:stedsnr" v="94660" />
	</node>
	<node id="-863900" lat="63.2345111075" lon="9.6954888847">
		<tag k="name" v="Aunsætermyra" />
		<tag k="natural" v="wetland" />
		<tag k="ssr:stedsnr" v="945735" />
	</node>
	<node id="-863895" lat="63.3001999988" lon="9.59031667264">
		<tag k="name" v="Gauken" />
		<tag k="natural" v="wetland" />
		<tag k="ssr:stedsnr" v="217976" />
	</node>
	<node id="-863885" lat="63.2722527747" lon="9.76588888301">
		<tag k="name" v="Forvemoen" />
		<tag k="place" v="locality" />
		<tag k="ssr:stedsnr" v="944012" />
	</node>
	<node id="-863883" lat="63.3500416648" lon="9.83007221902">
		<tag k="historic" v="shieling" />
		<tag k="name" v="Almlisætra" />
		<tag k="place" v="locality" />
		<tag k="ssr:stedsnr" v="701447" />
	</node>
	<node id="-863882" lat="63.208366667" lon="9.84106111602">
		<tag k="name" v="Litllykkjmyra" />
		<tag k="natural" v="wetland" />
		<tag k="ssr:stedsnr" v="762286" />
	</node>
	<node id="-863881" lat="63.2843083302" lon="9.67496388431">
		<tag k="name" v="Snaushåggån" />
		<tag k="place" v="locality" />
		<tag k="ssr:stedsnr" v="338955" />
	</node>
	<node id="-863877" lat="63.1925916654" lon="9.6435055575">
		<tag k="name" v="Vidmyran" />
		<tag k="natural" v="wetland" />
		<tag k="ssr:stedsnr" v="680663" />
	</node>
	<node id="-863873" lat="63.236258333" lon="9.4437083338">
		<tag k="landuse" v="meadow" />
		<tag k="name" v="Livollslættet" />
		<tag k="ssr:stedsnr" v="120526" />
	</node>
	<node id="-863866" lat="63.2427027815" lon="9.51043889444">
		<tag k="landuse" v="meadow" />
		<tag k="name" v="Kloslættet" />
		<tag k="ssr:stedsnr" v="358578" />
	</node>
	<node id="-863863" lat="63.2035194468" lon="9.74173055391">
		<tag k="name" v="Nordgardslykkja" />
		<tag k="place" v="locality" />
		<tag k="ssr:stedsnr" v="823853" />
	</node>
	<node id="-863861" lat="63.2830888924" lon="9.66194999859">
		<tag k="name" v="Husflotten" />
		<tag k="place" v="locality" />
		<tag k="ssr:stedsnr" v="580931" />
	</node>
	<node id="-863860" lat="63.2173833326" lon="9.90689443787">
		<tag k="historic" v="shieling" />
		<tag k="name" v="Haugasetervollen" />
		<tag k="place" v="locality" />
		<tag k="ssr:stedsnr" v="762285" />
	</node>
	<node id="-863848" lat="63.2384222236" lon="9.52009721947">
		<tag k="landuse" v="meadow" />
		<tag k="name" v="Fremmer Krokslættet" />
		<tag k="ssr:stedsnr" v="723571" />
	</node>
	<node id="-863845" lat="63.2143583314" lon="9.7768305593">
		<tag k="name" v="Hårråøya" />
		<tag k="place" v="locality" />
		<tag k="ssr:stedsnr" v="580912" />
	</node>
	<node id="-863842" lat="63.2144972204" lon="9.7343749973">
		<tag k="historic" v="shieling" />
		<tag k="name" v="Ljøkjelsætra" />
		<tag k="place" v="locality" />
		<tag k="ssr:stedsnr" v="520084" />
	</node>
	<node id="-863839" lat="63.3019000032" lon="9.75368888122">
		<tag k="name" v="Kvernøya" />
		<tag k="place" v="locality" />
		<tag k="ssr:stedsnr" v="337210" />
	</node>
	<node id="-863837" lat="63.2148222248" lon="9.67844167344">
		<tag k="historic" v="shieling" />
		<tag k="name" v="Negardsætra" />
		<tag k="place" v="locality" />
		<tag k="ssr:stedsnr" v="398867" />
	</node>
	<node id="-863834" lat="63.2216555541" lon="9.6726083401">
		<tag k="historic" v="shieling" />
		<tag k="name" v="Brattsetsætra" />
		<tag k="place" v="locality" />
		<tag k="ssr:stedsnr" v="398861" />
	</node>
	<node id="-863827" lat="63.2709138912" lon="9.82354443626">
		<tag k="name" v="Litlhåggån" />
		<tag k="place" v="locality" />
		<tag k="ssr:stedsnr" v="883032" />
	</node>
	<node id="-863826" lat="63.28147222" lon="9.71560000262">
		<tag k="name" v="Stormyra" />
		<tag k="natural" v="wetland" />
		<tag k="ssr:stedsnr" v="519254" />
	</node>
	<node id="-863823" lat="63.3001194469" lon="9.74087778343">
		<tag k="name" v="Annølsøya" />
		<tag k="place" v="locality" />
		<tag k="ssr:stedsnr" v="337205" />
	</node>
	<node id="-863817" lat="63.4272666633" lon="9.95671666334">
		<tag k="name" v="Litlmyra" />
		<tag k="natural" v="wetland" />
		<tag k="ssr:stedsnr" v="640740" />
	</node>
	<node id="-863816" lat="63.3087361139" lon="9.74308611929">
		<tag k="name" v="Dammyra" />
		<tag k="natural" v="wetland" />
		<tag k="ssr:stedsnr" v="337216" />
	</node>
	<node id="-863812" lat="63.2632166675" lon="9.69848610859">
		<tag k="historic" v="shieling" />
		<tag k="name" v="Forvesætra" />
		<tag k="place" v="locality" />
		<tag k="ssr:stedsnr" v="883022" />
	</node>
	<node id="-863805" lat="63.1725361115" lon="9.57931667082">
		<tag k="name" v="Kumyra" />
		<tag k="natural" v="wetland" />
		<tag k="ssr:stedsnr" v="641614" />
	</node>
	<node id="-863804" lat="63.2741111155" lon="9.80127222354">
		<tag k="name" v="Melan" />
		<tag k="place" v="locality" />
		<tag k="ssr:stedsnr" v="883024" />
	</node>
	<node id="-863799" lat="63.2948611105" lon="9.6640861208">
		<tag k="name" v="Kvitbergøyan" />
		<tag k="place" v="locality" />
		<tag k="ssr:stedsnr" v="217947" />
	</node>
	<node id="-863797" lat="63.2999111081" lon="9.86778056326">
		<tag k="name" v="Kristofferslættet" />
		<tag k="place" v="locality" />
		<tag k="ssr:stedsnr" v="458540" />
	</node>
	<node id="-862813" lat="63.2485611113" lon="9.50124444688">
		<tag k="landuse" v="meadow" />
		<tag k="name" v="Baksæterslættet" />
		<tag k="ssr:stedsnr" v="662584" />
	</node>
	<node id="-863783" lat="63.3809333333" lon="9.775391668">
		<tag k="landuse" v="meadow" />
		<tag k="name" v="Ingerslåtten" />
		<tag k="ssr:stedsnr" v="579155" />
	</node>
	<node id="-863781" lat="63.1951666699" lon="9.64918332652">
		<tag k="name" v="Litlholmen" />
		<tag k="place" v="locality" />
		<tag k="ssr:stedsnr" v="641636" />
	</node>
	<node id="-863776" lat="63.3226527789" lon="9.68917500655">
		<tag k="name" v="Gunnarslættet" />
		<tag k="place" v="locality" />
		<tag k="ssr:stedsnr" v="520984" />
	</node>
	<node id="-863773" lat="63.201238893" lon="9.56678889722">
		<tag k="name" v="Nylykkja" />
		<tag k="place" v="locality" />
		<tag k="ssr:stedsnr" v="884787" />
	</node>
	<node id="-863772" lat="63.2825111142" lon="9.669486112">
		<tag k="name" v="Nylykkja" />
		<tag k="place" v="locality" />
		<tag k="ssr:stedsnr" v="217940" />
	</node>
	<node id="-863770" lat="63.2483333348" lon="9.65736944667">
		<tag k="name" v="Brandåsmyra" />
		<tag k="natural" v="wetland" />
		<tag k="ssr:stedsnr" v="277766" />
	</node>
	<node id="-863769" lat="63.2186111138" lon="9.60573333397">
		<tag k="name" v="Bjørnmyran" />
		<tag k="natural" v="wetland" />
		<tag k="ssr:stedsnr" v="398839" />
	</node>
	<node id="-863765" lat="63.2016999962" lon="9.58360554697">
		<tag k="name" v="Hostolykkja" />
		<tag k="place" v="locality" />
		<tag k="ssr:stedsnr" v="823794" />
	</node>
	<node id="-863762" lat="63.3392361105" lon="9.85135277994">
		<tag k="name" v="Lialykkja" />
		<tag k="place" v="locality" />
		<tag k="ssr:stedsnr" v="458504" />
	</node>
	<node id="-863752" lat="63.2530555561" lon="9.87628056438">
		<tag k="name" v="Langmyra" />
		<tag k="natural" v="wetland" />
		<tag k="ssr:stedsnr" v="701373" />
	</node>
	<node id="-863750" lat="63.3206750009" lon="9.64632500556">
		<tag k="landuse" v="meadow" />
		<tag k="name" v="Tjønnlislættet" />
		<tag k="ssr:stedsnr" v="580894" />
	</node>
	<node id="-863749" lat="63.2941611135" lon="9.64378611355">
		<tag k="name" v="Skårgangmyran" />
		<tag k="natural" v="wetland" />
		<tag k="ssr:stedsnr" v="520970" />
	</node>
	<node id="-863746" lat="63.2263166645" lon="9.59072500476">
		<tag k="name" v="Stormyra" />
		<tag k="natural" v="wetland" />
		<tag k="ssr:stedsnr" v="277775" />
	</node>
	<node id="-863742" lat="63.1623833357" lon="9.65344444502">
		<tag k="name" v="Moen" />
		<tag k="place" v="locality" />
		<tag k="ssr:stedsnr" v="641586" />
	</node>
	<node id="-863741" lat="63.2343777739" lon="9.65138611893">
		<tag k="name" v="Gråtarmyran" />
		<tag k="natural" v="wetland" />
		<tag k="ssr:stedsnr" v="277774" />
	</node>
	<node id="-863727" lat="63.2206194426" lon="9.57928055104">
		<tag k="name" v="Eggagjerdet" />
		<tag k="place" v="locality" />
		<tag k="ssr:stedsnr" v="823804" />
	</node>
	<node id="-863723" lat="63.2193055518" lon="9.81434445007">
		<tag k="name" v="Rambergmyra" />
		<tag k="natural" v="wetland" />
		<tag k="ssr:stedsnr" v="217908" />
	</node>
	<node id="-863722" lat="63.1872944428" lon="9.83465556382">
		<tag k="name" v="Aspjeldlykkjon" />
		<tag k="place" v="locality" />
		<tag k="ssr:stedsnr" v="701396" />
	</node>
	<node id="-863719" lat="63.2656333306" lon="9.7497444471">
		<tag k="historic" v="shieling" />
		<tag k="name" v="Lars-sætra" />
		<tag k="place" v="locality" />
		<tag k="ssr:stedsnr" v="276008" />
	</node>
	<node id="-863708" lat="63.3467944438" lon="9.86941388112">
		<tag k="name" v="Tøftet" />
		<tag k="place" v="locality" />
		<tag k="ssr:stedsnr" v="458489" />
	</node>
	<node id="-863697" lat="63.2048888924" lon="9.60018612056">
		<tag k="name" v="Holmyra" />
		<tag k="natural" v="wetland" />
		<tag k="ssr:stedsnr" v="398826" />
	</node>
	<node id="-862797" lat="63.2521416653" lon="9.65317221514">
		<tag k="name" v="Bakksætermyran" />
		<tag k="natural" v="wetland" />
		<tag k="ssr:stedsnr" v="762754" />
	</node>
	<node id="-863687" lat="63.1532972211" lon="9.88348611598">
		<tag k="landuse" v="meadow" />
		<tag k="name" v="Kjesalihåggån" />
		<tag k="ssr:stedsnr" v="339723" />
	</node>
	<node id="-863686" lat="63.2769527806" lon="9.64217500872">
		<tag k="name" v="Hårrågrova" />
		<tag k="place" v="locality" />
		<tag k="ssr:stedsnr" v="520959" />
	</node>
	<node id="-863684" lat="63.2630722223" lon="9.76277499389">
		<tag k="name" v="Stortrøa" />
		<tag k="place" v="locality" />
		<tag k="ssr:stedsnr" v="883011" />
	</node>
	<node id="-863681" lat="63.2068999958" lon="9.60695556123">
		<tag k="name" v="Tjønnmyra" />
		<tag k="natural" v="wetland" />
		<tag k="ssr:stedsnr" v="823799" />
	</node>
	<node id="-863680" lat="63.2285472243" lon="9.81330555216">
		<tag k="name" v="Langmyra" />
		<tag k="natural" v="wetland" />
		<tag k="ssr:stedsnr" v="217905" />
	</node>
	<node id="-865183" lat="63.353733336" lon="9.90293611568">
		<tag k="name" v="Myrarommet" />
		<tag k="place" v="locality" />
		<tag k="ssr:stedsnr" v="823372" />
	</node>
	<node id="-863671" lat="63.4324249967" lon="9.91647777843">
		<tag k="landuse" v="meadow" />
		<tag k="name" v="Høybuenget" />
		<tag k="ssr:stedsnr" v="640695" />
	</node>
	<node id="-863668" lat="63.1781694444" lon="9.64541110964">
		<tag k="name" v="Jakopsmyran" />
		<tag k="natural" v="wetland" />
		<tag k="ssr:stedsnr" v="255616" />
	</node>
	<node id="-863666" lat="63.2781722248" lon="9.68488333601">
		<tag k="name" v="Negardshåggan" />
		<tag k="place" v="locality" />
		<tag k="ssr:stedsnr" v="520982" />
	</node>
	<node id="-863658" lat="63.4162666689" lon="9.88751944267">
		<tag k="name" v="Rognlimyran" />
		<tag k="natural" v="wetland" />
		<tag k="ssr:stedsnr" v="155674" />
	</node>
	<node id="-863643" lat="63.1808111148" lon="9.9007166767">
		<tag k="name" v="Korslikjølen" />
		<tag k="natural" v="wetland" />
		<tag k="ssr:stedsnr" v="701412" />
	</node>
	<node id="-863268" lat="63.4058638913" lon="9.9385305551">
		<tag k="name" v="Skardmyra" />
		<tag k="natural" v="wetland" />
		<tag k="ssr:stedsnr" v="944668" />
	</node>
	<node id="-863633" lat="63.2956083346" lon="9.76718611823">
		<tag k="name" v="Sætermyra" />
		<tag k="natural" v="wetland" />
		<tag k="ssr:stedsnr" v="216195" />
	</node>
	<node id="-863627" lat="63.3129944421" lon="9.74583889005">
		<tag k="name" v="Lurbekkmyra" />
		<tag k="natural" v="wetland" />
		<tag k="ssr:stedsnr" v="519224" />
	</node>
	<node id="-863624" lat="63.1621416647" lon="9.73789722146">
		<tag k="name" v="Moen" />
		<tag k="place" v="locality" />
		<tag k="ssr:stedsnr" v="521734" />
	</node>
	<node id="-863622" lat="63.38274167" lon="9.86713055279">
		<tag k="name" v="Lunningsmyra" />
		<tag k="natural" v="wetland" />
		<tag k="ssr:stedsnr" v="155621" />
	</node>
	<node id="-863608" lat="63.1952861122" lon="9.59886944223">
		<tag k="name" v="Håggåplassen" />
		<tag k="place" v="locality" />
		<tag k="ssr:stedsnr" v="580828" />
	</node>
	<node id="-863604" lat="63.3317694484" lon="9.81759999642">
		<tag k="historic" v="shieling" />
		<tag k="name" v="Gammelsrovssætra" />
		<tag k="place" v="locality" />
		<tag k="ssr:stedsnr" v="216148" />
	</node>
	<node id="-863601" lat="63.1823000014" lon="9.66756667179">
		<tag k="name" v="Kvilsteinmyra" />
		<tag k="natural" v="wetland" />
		<tag k="ssr:stedsnr" v="155613" />
	</node>
	<node id="-863600" lat="63.1919444415" lon="9.4713722239">
		<tag k="name" v="Høghaugmyran" />
		<tag k="natural" v="wetland" />
		<tag k="ssr:stedsnr" v="884691" />
	</node>
	<node id="-863591" lat="63.2617527812" lon="9.66778333534">
		<tag k="name" v="Tørheimlandet" />
		<tag k="place" v="locality" />
		<tag k="ssr:stedsnr" v="398774" />
	</node>
	<node id="-863590" lat="63.1573277788" lon="9.8557277743">
		<tag k="name" v="Øsmyran" />
		<tag k="natural" v="wetland" />
		<tag k="ssr:stedsnr" v="339679" />
	</node>
	<node id="-863586" lat="63.2855611114" lon="9.62300554592">
		<tag k="name" v="Jamtmyra" />
		<tag k="natural" v="wetland" />
		<tag k="ssr:stedsnr" v="823738" />
	</node>
	<node id="-862778" lat="63.1874777743" lon="9.72855555938">
		<tag k="name" v="Høgmyra" />
		<tag k="natural" v="wetland" />
		<tag k="ssr:stedsnr" v="399522" />
	</node>
	<node id="-863578" lat="63.3826472266" lon="9.90301111521">
		<tag k="name" v="Aundalsmyran" />
		<tag k="natural" v="wetland" />
		<tag k="ssr:stedsnr" v="155608" />
	</node>
	<node id="-863575" lat="63.1704277775" lon="9.77682221465">
		<tag k="name" v="Stormyra" />
		<tag k="natural" v="wetland" />
		<tag k="ssr:stedsnr" v="885545" />
	</node>
	<node id="-863567" lat="63.3426277796" lon="9.8134527699">
		<tag k="name" v="Åstjurruhjellen" />
		<tag k="place" v="locality" />
		<tag k="ssr:stedsnr" v="337140" />
	</node>
	<node id="-863566" lat="63.1703555563" lon="9.78522222974">
		<tag k="name" v="Topplimyra" />
		<tag k="natural" v="wetland" />
		<tag k="ssr:stedsnr" v="278596" />
	</node>
	<node id="-863564" lat="63.240191669" lon="9.69388888331">
		<tag k="name" v="Fuglåsmyran" />
		<tag k="natural" v="wetland" />
		<tag k="ssr:stedsnr" v="823732" />
	</node>
	<node id="-863552" lat="63.203000004" lon="9.58652222704">
		<tag k="name" v="Åsmyra" />
		<tag k="natural" v="wetland" />
		<tag k="ssr:stedsnr" v="580815" />
	</node>
	<node id="-863539" lat="63.4288694447" lon="9.96300832462">
		<tag k="name" v="Lykkjen" />
		<tag k="place" v="locality" />
		<tag k="ssr:stedsnr" v="944752" />
	</node>
	<node id="-863538" lat="63.175672225" lon="9.79674722023">
		<tag k="name" v="Hestlykkja" />
		<tag k="place" v="locality" />
		<tag k="ssr:stedsnr" v="885567" />
	</node>
	<node id="-863535" lat="63.2837333327" lon="9.86398056354">
		<tag k="name" v="Tufthåggån" />
		<tag k="place" v="locality" />
		<tag k="ssr:stedsnr" v="701334" />
	</node>
	<node id="-863528" lat="63.2843388882" lon="9.88715832872">
		<tag k="name" v="Aunmyra" />
		<tag k="natural" v="wetland" />
		<tag k="ssr:stedsnr" v="701335" />
	</node>
	<node id="-863518" lat="63.3197166663" lon="9.81626388446">
		<tag k="name" v="Reitan" />
		<tag k="place" v="locality" />
		<tag k="ssr:stedsnr" v="216131" />
	</node>
	<node id="-863515" lat="63.1936388875" lon="9.60836388438">
		<tag k="name" v="Spellmyra" />
		<tag k="natural" v="wetland" />
		<tag k="ssr:stedsnr" v="580826" />
	</node>
	<node id="-863507" lat="63.3479805563" lon="9.70255832744">
		<tag k="historic" v="shieling" />
		<tag k="name" v="Nysætra" />
		<tag k="place" v="locality" />
		<tag k="ssr:stedsnr" v="762145" />
	</node>
	<node id="-863503" lat="63.2330194401" lon="9.68149443714">
		<tag k="name" v="Blekmyra" />
		<tag k="natural" v="wetland" />
		<tag k="ssr:stedsnr" v="398751" />
	</node>
	<node id="-863500" lat="63.2262638889" lon="9.62822221377">
		<tag k="name" v="Hestmyra" />
		<tag k="natural" v="wetland" />
		<tag k="ssr:stedsnr" v="520881" />
	</node>
	<node id="-863495" lat="63.4102722243" lon="9.95174722669">
		<tag k="name" v="Kjerringjorda" />
		<tag k="place" v="locality" />
		<tag k="ssr:stedsnr" v="944710" />
	</node>
	<node id="-863487" lat="63.2088863256" lon="9.79580810193">
		<tag k="name" v="Haukmarn" />
		<tag k="place" v="locality" />
		<tag k="ssr:stedsnr" v="520934" />
	</node>
	<node id="-863482" lat="63.3088083309" lon="9.79238056186">
		<tag k="name" v="Sagplassen" />
		<tag k="place" v="locality" />
		<tag k="ssr:stedsnr" v="216173" />
	</node>
	<node id="-863103" lat="63.1772777757" lon="9.91001944953">
		<tag k="name" v="Stubbslættet" />
		<tag k="natural" v="wetland" />
		<tag k="ssr:stedsnr" v="94428" />
	</node>
	<node id="-863479" lat="63.3056527745" lon="9.78284165746">
		<tag k="name" v="Grindarommet" />
		<tag k="place" v="locality" />
		<tag k="ssr:stedsnr" v="762190" />
	</node>
	<node id="-863466" lat="63.3163972254" lon="9.80518610548">
		<tag k="name" v="Trettungan" />
		<tag k="place" v="locality" />
		<tag k="ssr:stedsnr" v="216167" />
	</node>
	<node id="-864626" lat="63.2227222226" lon="9.83345833033">
		<tag k="alt_name" v="Heggråkmyra" />
		<tag k="name" v="Heggråkmyran" />
		<tag k="natural" v="wetland" />
		<tag k="old_name" v="Heggråmyran" />
		<tag k="ssr:stedsnr" v="376222" />
	</node>
	<node id="-863457" lat="63.2069027753" lon="9.64302222275">
		<tag k="landuse" v="meadow" />
		<tag k="name" v="Langenget" />
		<tag k="ssr:stedsnr" v="945637" />
	</node>
	<node id="-863454" lat="63.3393833324" lon="9.61380277043">
		<tag k="name" v="Øyslættet" />
		<tag k="place" v="locality" />
		<tag k="ssr:stedsnr" v="338885" />
	</node>
	<node id="-863450" lat="63.2162333367" lon="9.58561110827">
		<tag k="name" v="Meåsmyra" />
		<tag k="natural" v="wetland" />
		<tag k="ssr:stedsnr" v="580843" />
	</node>
	<node id="-863442" lat="63.3952694485" lon="9.67891943873">
		<tag k="name" v="Bakslættet" />
		<tag k="place" v="locality" />
		<tag k="ssr:stedsnr" v="338864" />
	</node>
	<node id="-863436" lat="63.1690000036" lon="9.79604444797">
		<tag k="name" v="Aunmyra" />
		<tag k="natural" v="wetland" />
		<tag k="ssr:stedsnr" v="278604" />
	</node>
	<node id="-863433" lat="63.2241194433" lon="9.39354444906">
		<tag k="name" v="Vinterekra" />
		<tag k="place" v="locality" />
		<tag k="ssr:stedsnr" v="222723" />
	</node>
	<node id="-863421" lat="63.246297226" lon="9.39683334326">
		<tag k="name" v="Myrakjølen" />
		<tag k="natural" v="wetland" />
		<tag k="ssr:stedsnr" v="586512" />
	</node>
	<node id="-863418" lat="63.2376944458" lon="9.38485277063">
		<tag k="name" v="Myrakjølen" />
		<tag k="natural" v="wetland" />
		<tag k="ssr:stedsnr" v="283461" />
	</node>
	<node id="-862750" lat="63.2625083349" lon="9.75633333928">
		<tag k="name" v="Svelimyra" />
		<tag k="natural" v="wetland" />
		<tag k="ssr:stedsnr" v="762004" />
	</node>
	<node id="-863091" lat="63.3341333305" lon="9.78515000785">
		<tag k="historic" v="shieling" />
		<tag k="name" v="Gammelsætervollen" />
		<tag k="place" v="locality" />
		<tag k="ssr:stedsnr" v="701200" />
	</node>
	<node id="-863405" lat="63.2019805568" lon="9.61934723036">
		<tag k="name" v="Ligardan" />
		<tag k="place" v="locality" />
		<tag k="ssr:stedsnr" v="277668" />
	</node>
	<node id="-863399" lat="63.2445916636" lon="9.509416662">
		<tag k="name" v="Bjørkøykjølen" />
		<tag k="natural" v="wetland" />
		<tag k="ssr:stedsnr" v="480573" />
	</node>
	<node id="-863382" lat="63.1600722207" lon="9.70917222265">
		<tag k="name" v="Grovahåggån" />
		<tag k="place" v="locality" />
		<tag k="ssr:stedsnr" v="399644" />
	</node>
	<node id="-863377" lat="63.3487111134" lon="9.78298610646">
		<tag k="name" v="Steinslættet" />
		<tag k="place" v="locality" />
		<tag k="ssr:stedsnr" v="762136" />
	</node>
	<node id="-863375" lat="63.1610638878" lon="9.70234999222">
		<tag k="name" v="Aunet" />
		<tag k="place" v="locality" />
		<tag k="ssr:stedsnr" v="339660" />
	</node>
	<node id="-863370" lat="63.2504472246" lon="9.66842776813">
		<tag k="name" v="Åltjønnmyran" />
		<tag k="natural" v="wetland" />
		<tag k="ssr:stedsnr" v="823722" />
	</node>
	<node id="-863369" lat="63.4241916699" lon="9.94362776799">
		<tag k="name" v="Stormyra" />
		<tag k="natural" v="wetland" />
		<tag k="ssr:stedsnr" v="33708" />
	</node>
	<node id="-865132" lat="63.1732166656" lon="9.8733749932">
		<tag k="name" v="Mjovasslykkja" />
		<tag k="place" v="locality" />
		<tag k="ssr:stedsnr" v="944387" />
	</node>
	<node id="-863081" lat="63.3231527744" lon="9.79298054959">
		<tag k="name" v="Minnet" />
		<tag k="place" v="locality" />
		<tag k="ssr:stedsnr" v="701197" />
	</node>
	<node id="-863346" lat="63.183688892" lon="9.43943889324">
		<tag k="name" v="Flydda" />
		<tag k="natural" v="wetland" />
		<tag k="ssr:stedsnr" v="945560" />
	</node>
	<node id="-863342" lat="63.4343749993" lon="9.96940277304">
		<tag k="name" v="Rabben" />
		<tag k="place" v="locality" />
		<tag k="ssr:stedsnr" v="823687" />
	</node>
	<node id="-863334" lat="63.2395111114" lon="9.43728888521">
		<tag k="name" v="Svelikjølen" />
		<tag k="natural" v="wetland" />
		<tag k="ssr:stedsnr" v="909559" />
	</node>
	<node id="-863326" lat="63.4256444448" lon="9.95360277912">
		<tag k="name" v="Storryggen" />
		<tag k="place" v="locality" />
		<tag k="ssr:stedsnr" v="883788" />
	</node>
	<node id="-863324" lat="63.1939388877" lon="9.71478333444">
		<tag k="name" v="Skarvlykkja" />
		<tag k="place" v="locality" />
		<tag k="ssr:stedsnr" v="762921" />
	</node>
	<node id="-865368" lat="63.4122666696" lon="9.88757778162">
		<tag k="name" v="Arnkoja" />
		<tag k="place" v="locality" />
		<tag k="ssr:stedsnr" v="337643" />
	</node>
	<node id="-863319" lat="63.432974999" lon="9.92454444463">
		<tag k="name" v="Dalamyran" />
		<tag k="natural" v="wetland" />
		<tag k="ssr:stedsnr" v="823653" />
	</node>
	<node id="-863318" lat="63.1763305588" lon="9.60589721362">
		<tag k="name" v="Litlkviknlykkja" />
		<tag k="place" v="locality" />
		<tag k="ssr:stedsnr" v="884603" />
	</node>
	<node id="-863317" lat="63.2361027811" lon="9.6213527772">
		<tag k="name" v="Stormyra" />
		<tag k="natural" v="wetland" />
		<tag k="ssr:stedsnr" v="580746" />
	</node>
	<node id="-863316" lat="63.3023361078" lon="9.53364723151">
		<tag k="name" v="Gravakjølen" />
		<tag k="natural" v="wetland" />
		<tag k="ssr:stedsnr" v="398693" />
	</node>
	<node id="-863314" lat="63.254574997" lon="9.50865833352">
		<tag k="name" v="Nerkjølen" />
		<tag k="natural" v="wetland" />
		<tag k="ssr:stedsnr" v="680019" />
	</node>
	<node id="-863313" lat="63.1646361084" lon="9.64967500056">
		<tag k="name" v="Hestdalsflotten" />
		<tag k="place" v="locality" />
		<tag k="ssr:stedsnr" v="277629" />
	</node>
	<node id="-863312" lat="63.1755555554" lon="9.57464721259">
		<tag k="name" v="Strandmyra" />
		<tag k="natural" v="wetland" />
		<tag k="ssr:stedsnr" v="884607" />
	</node>
	<node id="-863311" lat="63.3714138924" lon="9.86261944367">
		<tag k="alt_name" v="Stormyra" />
		<tag k="name" v="Stormyran" />
		<tag k="natural" v="wetland" />
		<tag k="ssr:stedsnr" v="863414" />
	</node>
	<node id="-865354" lat="63.2809472216" lon="9.6578222181">
		<tag k="name" v="Korsråket" />
		<tag k="place" v="locality" />
		<tag k="ssr:stedsnr" v="95936" />
	</node>
	<node id="-863303" lat="63.2316305514" lon="9.47086110501">
		<tag k="name" v="Storkjølen" />
		<tag k="natural" v="wetland" />
		<tag k="ssr:stedsnr" v="163561" />
	</node>
	<node id="-865345" lat="63.325769441" lon="9.73458611837">
		<tag k="historic" v="shieling" />
		<tag k="name" v="Skjenaldsætra" />
		<tag k="place" v="locality" />
		<tag k="ssr:stedsnr" v="94223" />
	</node>
	<node id="-863072" lat="63.1991361098" lon="9.90407222009">
		<tag k="name" v="Damlikvelvet" />
		<tag k="natural" v="wetland" />
		<tag k="ssr:stedsnr" v="94415" />
	</node>
	<node id="-863293" lat="63.2489999974" lon="9.55161111773">
		<tag k="name" v="Dalsenget" />
		<tag k="natural" v="wetland" />
		<tag k="ssr:stedsnr" v="520832" />
	</node>
	<node id="-865338" lat="63.2129499984" lon="9.74754444394">
		<tag k="name" v="Heimrøsten" />
		<tag k="place" v="locality" />
		<tag k="ssr:stedsnr" v="95081" />
	</node>
	<node id="-865335" lat="63.187663885" lon="9.7782888927">
		<tag k="name" v="Hongslomelan" />
		<tag k="place" v="locality" />
		<tag k="ssr:stedsnr" v="763554" />
	</node>
	<node id="-863286" lat="63.3137611077" lon="9.66988055071">
		<tag k="name" v="Pålsøya" />
		<tag k="place" v="locality" />
		<tag k="ssr:stedsnr" v="702990" />
	</node>
	<node id="-865328" lat="63.4272027763" lon="9.91578333691">
		<tag k="name" v="Lisbetmyra" />
		<tag k="natural" v="wetland" />
		<tag k="ssr:stedsnr" v="762669" />
	</node>
	<node id="-863279" lat="63.4196249963" lon="9.90008333817">
		<tag k="name" v="Fuglleikmyra" />
		<tag k="natural" v="wetland" />
		<tag k="ssr:stedsnr" v="823669" />
	</node>
	<node id="-865325" lat="63.2295944485" lon="9.74746666508">
		<tag k="name" v="Lefstolykkja" />
		<tag k="place" v="locality" />
		<tag k="ssr:stedsnr" v="95084" />
	</node>
	<node id="-865322" lat="63.1734027816" lon="9.79703610641">
		<tag k="name" v="Hestlykkjmyra" />
		<tag k="natural" v="wetland" />
		<tag k="ssr:stedsnr" v="338492" />
	</node>
	<node id="-863273" lat="63.222230552" lon="9.74497500245">
		<tag k="name" v="Kjemballykkja" />
		<tag k="place" v="locality" />
		<tag k="ssr:stedsnr" v="762105" />
	</node>
	<node id="-865316" lat="63.2583972238" lon="9.55689722206">
		<tag k="name" v="Eidesslættet" />
		<tag k="place" v="locality" />
		<tag k="ssr:stedsnr" v="702750" />
	</node>
	<node id="-863264" lat="63.2184666703" lon="9.71701111374">
		<tag k="historic" v="shieling" />
		<tag k="name" v="Kårmosætra" />
		<tag k="place" v="locality" />
		<tag k="ssr:stedsnr" v="762100" />
	</node>
	<node id="-865310" lat="63.2086305596" lon="9.70703056249">
		<tag k="name" v="Litlmarka" />
		<tag k="place" v="locality" />
		<tag k="ssr:stedsnr" v="95929" />
	</node>
	<node id="-862725" lat="63.2421833355" lon="9.47139166318">
		<tag k="landuse" v="meadow" />
		<tag k="name" v="Steinkåsslættet" />
		<tag k="ssr:stedsnr" v="662661" />
	</node>
	<node id="-863255" lat="63.2609861136" lon="9.89155832795">
		<tag k="name" v="Seterlykkja" />
		<tag k="place" v="locality" />
		<tag k="ssr:stedsnr" v="458355" />
	</node>
	<node id="-863253" lat="63.4370500029" lon="9.95672777558">
		<tag k="name" v="Smiskardsmyra" />
		<tag k="natural" v="wetland" />
		<tag k="ssr:stedsnr" v="276756" />
	</node>
	<node id="-863251" lat="63.1892555576" lon="9.6399444447">
		<tag k="name" v="Groven" />
		<tag k="place" v="locality" />
		<tag k="ssr:stedsnr" v="884623" />
	</node>
	<node id="-863249" lat="63.2132666663" lon="9.73162223017">
		<tag k="historic" v="shieling" />
		<tag k="name" v="Melsætra" />
		<tag k="place" v="locality" />
		<tag k="ssr:stedsnr" v="762097" />
	</node>
	<node id="-865296" lat="63.2166166631" lon="9.71752223084">
		<tag k="name" v="Dammyra" />
		<tag k="natural" v="wetland" />
		<tag k="ssr:stedsnr" v="95071" />
	</node>
	<node id="-863247" lat="63.2122805577" lon="9.72594999079">
		<tag k="name" v="Fløssberglykkja" />
		<tag k="place" v="locality" />
		<tag k="ssr:stedsnr" v="762098" />
	</node>
	<node id="-865294" lat="63.1864833308" lon="9.73657500597">
		<tag k="name" v="Holtmyran" />
		<tag k="natural" v="wetland" />
		<tag k="ssr:stedsnr" v="277380" />
	</node>
	<node id="-863245" lat="63.4094194433" lon="9.87992778699">
		<tag k="name" v="Grandalsmyran" />
		<tag k="natural" v="wetland" />
		<tag k="ssr:stedsnr" v="883754" />
	</node>
	<node id="-863244" lat="63.2094083354" lon="9.79250833332">
		<tag k="name" v="Rønningen" />
		<tag k="place" v="locality" />
		<tag k="ssr:stedsnr" v="762929" />
	</node>
	<node id="-865289" lat="63.1967222226" lon="9.88127777436">
		<tag k="name" v="Floen" />
		<tag k="natural" v="wetland" />
		<tag k="ssr:stedsnr" v="33382" />
	</node>
	<node id="-863238" lat="63.2114000003" lon="9.7135638833">
		<tag k="name" v="Høgmyra" />
		<tag k="natural" v="wetland" />
		<tag k="ssr:stedsnr" v="702096" />
	</node>
	<node id="-865285" lat="63.4135500029" lon="9.8967527705">
		<tag k="name" v="Vardmyra" />
		<tag k="natural" v="wetland" />
		<tag k="ssr:stedsnr" v="519669" />
	</node>
	<node id="-863236" lat="63.2493444434" lon="9.84640000229">
		<tag k="name" v="Strypet" />
		<tag k="natural" v="wetland" />
		<tag k="ssr:stedsnr" v="458361" />
	</node>
	<node id="-863235" lat="63.2727388879" lon="9.78841111776">
		<tag k="name" v="Kråkdalshåggån" />
		<tag k="place" v="locality" />
		<tag k="ssr:stedsnr" v="216054" />
	</node>
	<node id="-865278" lat="63.4061333293" lon="9.94809445156">
		<tag k="name" v="Tjurrmyra" />
		<tag k="natural" v="wetland" />
		<tag k="ssr:stedsnr" v="762654" />
	</node>
	<node id="-865274" lat="63.2396305526" lon="9.61541110541">
		<tag k="name" v="Trongmyra" />
		<tag k="natural" v="wetland" />
		<tag k="ssr:stedsnr" v="702704" />
	</node>
	<node id="-865272" lat="63.1472277778" lon="9.73883887925">
		<tag k="name" v="Høgmyra" />
		<tag k="natural" v="wetland" />
		<tag k="ssr:stedsnr" v="460712" />
	</node>
	<node id="-863221" lat="63.4233666703" lon="9.88670554902">
		<tag k="name" v="Bjørnenget" />
		<tag k="place" v="locality" />
		<tag k="ssr:stedsnr" v="276746" />
	</node>
	<node id="-862504" lat="63.1613666709" lon="9.63535000521">
		<tag k="name" v="Kringlotmyra" />
		<tag k="natural" v="wetland" />
		<tag k="ssr:stedsnr" v="580571" />
	</node>
	<node id="-865267" lat="63.1757194475" lon="9.89861111022">
		<tag k="name" v="Skarvlykkjbrottet" />
		<tag k="place" v="locality" />
		<tag k="ssr:stedsnr" v="944401" />
	</node>
	<node id="-865261" lat="63.197363887" lon="9.6500750036">
		<tag k="name" v="Langholmen" />
		<tag k="place" v="locality" />
		<tag k="ssr:stedsnr" v="762650" />
	</node>
	<node id="-863211" lat="63.2632499961" lon="9.69575555453">
		<tag k="historic" v="shieling" />
		<tag k="name" v="Torvsætra" />
		<tag k="place" v="locality" />
		<tag k="ssr:stedsnr" v="580796" />
	</node>
	<node id="-865258" lat="63.273591671" lon="9.85121944284">
		<tag k="name" v="Rasmusrommet" />
		<tag k="place" v="locality" />
		<tag k="ssr:stedsnr" v="34255" />
	</node>
	<node id="-865257" lat="63.1765111136" lon="9.59292221854">
		<tag k="name" v="Gilmyra" />
		<tag k="natural" v="wetland" />
		<tag k="ssr:stedsnr" v="216618" />
	</node>
	<node id="-863203" lat="63.4317111137" lon="9.94252777498">
		<tag k="name" v="Granhølet" />
		<tag k="place" v="locality" />
		<tag k="ssr:stedsnr" v="944718" />
	</node>
	<node id="-863201" lat="63.2326083306" lon="9.55503333742">
		<tag k="name" v="Kroksmelan" />
		<tag k="place" v="locality" />
		<tag k="ssr:stedsnr" v="580798" />
	</node>
	<node id="-865248" lat="63.1831583337" lon="9.54062500259">
		<tag k="name" v="Tufta" />
		<tag k="place" v="locality" />
		<tag k="ssr:stedsnr" v="702701" />
	</node>
	<node id="-865247" lat="63.1779666655" lon="9.87423333557">
		<tag k="name" v="Kveldshamna" />
		<tag k="place" v="locality" />
		<tag k="ssr:stedsnr" v="944391" />
	</node>
	<node id="-863198" lat="63.4286138878" lon="9.94286667187">
		<tag k="name" v="Bekkakrokan" />
		<tag k="place" v="locality" />
		<tag k="ssr:stedsnr" v="823681" />
	</node>
	<node id="-863196" lat="63.2329027746" lon="9.73485278034">
		<tag k="name" v="Stammyra" />
		<tag k="natural" v="wetland" />
		<tag k="ssr:stedsnr" v="337080" />
	</node>
	<node id="-865242" lat="63.1806250001" lon="9.79934722965">
		<tag k="name" v="Stormyra" />
		<tag k="natural" v="wetland" />
		<tag k="ssr:stedsnr" v="520540" />
	</node>
	<node id="-865239" lat="63.2021361109" lon="9.61242222399">
		<tag k="name" v="Gammelgarden" />
		<tag k="place" v="locality" />
		<tag k="ssr:stedsnr" v="459838" />
	</node>
	<node id="-865236" lat="63.2465611144" lon="9.49095555468">
		<tag k="alt_name" v="Foss-slættet" />
		<tag k="landuse" v="meadow" />
		<tag k="name" v="Fosslættet" />
		<tag k="ssr:stedsnr" v="176595" />
	</node>
	<node id="-865231" lat="63.3224222237" lon="9.81804999786">
		<tag k="name" v="Kåret" />
		<tag k="place" v="locality" />
		<tag k="ssr:stedsnr" v="94189" />
	</node>
	<node id="-865230" lat="63.208088888" lon="9.69098056006">
		<tag k="name" v="Langmyra" />
		<tag k="natural" v="wetland" />
		<tag k="ssr:stedsnr" v="216624" />
	</node>
	<node id="-865214" lat="63.2497638901" lon="9.63578611793">
		<tag k="historic" v="shieling" />
		<tag k="name" v="Vakkervollen" />
		<tag k="place" v="locality" />
		<tag k="ssr:stedsnr" v="702719" />
	</node>
	<node id="-863159" lat="63.1646999986" lon="9.79545000073">
		<tag k="name" v="Myrlykkjhåggån" />
		<tag k="place" v="locality" />
		<tag k="ssr:stedsnr" v="217804" />
	</node>
	<node id="-863157" lat="63.3313916655" lon="9.84011388662">
		<tag k="name" v="Hyllskogan" />
		<tag k="place" v="locality" />
		<tag k="ssr:stedsnr" v="94498" />
	</node>
	<node id="-865203" lat="63.200813893" lon="9.85818055569">
		<tag k="name" v="Flaugeggmyra" />
		<tag k="natural" v="wetland" />
		<tag k="ssr:stedsnr" v="640340" />
	</node>
	<node id="-865201" lat="63.1999416631" lon="9.57820832802">
		<tag k="name" v="Kalvhåggån" />
		<tag k="place" v="locality" />
		<tag k="ssr:stedsnr" v="459824" />
	</node>
	<node id="-865195" lat="63.2061500012" lon="9.61647500921">
		<tag k="name" v="Gilmyra" />
		<tag k="natural" v="wetland" />
		<tag k="ssr:stedsnr" v="762657" />
	</node>
	<node id="-865193" lat="63.2323722253" lon="9.58617500313">
		<tag k="name" v="Kroksøyan" />
		<tag k="place" v="locality" />
		<tag k="ssr:stedsnr" v="702712" />
	</node>
	<node id="-863142" lat="63.1593111109" lon="9.69766111274">
		<tag k="name" v="Nerøyan" />
		<tag k="place" v="locality" />
		<tag k="ssr:stedsnr" v="945571" />
	</node>
	<node id="-863135" lat="63.2736388851" lon="9.77150000411">
		<tag k="name" v="Polsetdålåan" />
		<tag k="place" v="locality" />
		<tag k="ssr:stedsnr" v="337010" />
	</node>
	<node id="-863130" lat="63.4377694463" lon="9.91584999774">
		<tag k="name" v="Kleiva" />
		<tag k="place" v="locality" />
		<tag k="ssr:stedsnr" v="883739" />
	</node>
	<node id="-865176" lat="63.2540638885" lon="9.54535000985">
		<tag k="name" v="Selmodalsenget" />
		<tag k="place" v="locality" />
		<tag k="ssr:stedsnr" v="702676" />
	</node>
	<node id="-863120" lat="63.1903111076" lon="9.4893527701">
		<tag k="name" v="Slettmyra" />
		<tag k="natural" v="wetland" />
		<tag k="ssr:stedsnr" v="580709" />
	</node>
	<node id="-865167" lat="63.3592083351" lon="9.84958054778">
		<tag k="name" v="Vassmyran" />
		<tag k="natural" v="wetland" />
		<tag k="ssr:stedsnr" v="823361" />
	</node>
	<node id="-865161" lat="63.3681388855" lon="9.87113056051">
		<tag k="name" v="Såttån" />
		<tag k="place" v="locality" />
		<tag k="ssr:stedsnr" v="216594" />
	</node>
	<node id="-865159" lat="63.3785194479" lon="9.88069722476">
		<tag k="historic" v="shieling" />
		<tag k="name" v="Aundalsvollen" />
		<tag k="place" v="locality" />
		<tag k="ssr:stedsnr" v="519653" />
	</node>
	<node id="-863109" lat="63.22755" lon="9.37918610998">
		<tag k="landuse" v="meadow" />
		<tag k="name" v="Ellingsgardslykkjon" />
		<tag k="ssr:stedsnr" v="465747" />
	</node>
	<node id="-865156" lat="63.2010666675" lon="9.76224722463">
		<tag k="name" v="Stigen" />
		<tag k="place" v="locality" />
		<tag k="ssr:stedsnr" v="95881" />
	</node>
	<node id="-863107" lat="63.2371638899" lon="9.73940000833">
		<tag k="name" v="Hauklimyra" />
		<tag k="natural" v="wetland" />
		<tag k="ssr:stedsnr" v="519073" />
	</node>
	<node id="-863105" lat="63.2463055558" lon="9.67367500852">
		<tag k="name" v="Slættsmyran" />
		<tag k="natural" v="wetland" />
		<tag k="ssr:stedsnr" v="520787" />
	</node>
	<node id="-865151" lat="63.3587416684" lon="9.81184999514">
		<tag k="name" v="Yttergjerdet" />
		<tag k="place" v="locality" />
		<tag k="ssr:stedsnr" v="94153" />
	</node>
	<node id="-865147" lat="63.1836277791" lon="9.90659445431">
		<tag k="name" v="Endrekjølen" />
		<tag k="natural" v="wetland" />
		<tag k="ssr:stedsnr" v="944383" />
	</node>
	<node id="-863097" lat="63.4047638905" lon="9.90743333641">
		<tag k="name" v="Dalmyran" />
		<tag k="natural" v="wetland" />
		<tag k="ssr:stedsnr" v="883695" />
	</node>
	<node id="-865144" lat="63.3606722252" lon="9.88121665811">
		<tag k="name" v="Lykkjmyran" />
		<tag k="natural" v="wetland" />
		<tag k="ssr:stedsnr" v="276461" />
	</node>
	<node id="-865139" lat="63.2302472236" lon="9.42262221591">
		<tag k="name" v="Stugguåkeren" />
		<tag k="place" v="locality" />
		<tag k="ssr:stedsnr" v="162564" />
	</node>
	<node id="-863090" lat="63.2024583329" lon="9.86366666235">
		<tag k="name" v="Klefsåslykkjon" />
		<tag k="place" v="locality" />
		<tag k="ssr:stedsnr" v="94420" />
	</node>
	<node id="-863089" lat="63.1928083378" lon="9.68784999987">
		<tag k="name" v="Sagmyra" />
		<tag k="natural" v="wetland" />
		<tag k="ssr:stedsnr" v="398636" />
	</node>
	<node id="-865135" lat="63.3400277811" lon="9.85760834293">
		<tag k="name" v="Smålykkja" />
		<tag k="place" v="locality" />
		<tag k="ssr:stedsnr" v="823383" />
	</node>
	<node id="-863084" lat="63.3196194438" lon="9.79626944054">
		<tag k="name" v="Rønningen" />
		<tag k="place" v="locality" />
		<tag k="ssr:stedsnr" v="701194" />
	</node>
	<node id="-865131" lat="63.4241138878" lon="9.91418333716">
		<tag k="name" v="Såttån" />
		<tag k="place" v="locality" />
		<tag k="ssr:stedsnr" v="762636" />
	</node>
	<node id="-865129" lat="63.1906777744" lon="9.46562500315">
		<tag k="name" v="Skoddlykkja" />
		<tag k="place" v="locality" />
		<tag k="ssr:stedsnr" v="702691" />
	</node>
	<node id="-865127" lat="63.3590611117" lon="9.87264166612">
		<tag k="name" v="Husdalsmyran" />
		<tag k="natural" v="wetland" />
		<tag k="ssr:stedsnr" v="276458" />
	</node>
	<node id="-865126" lat="63.3149944442" lon="9.64518055678">
		<tag k="name" v="Ustkjølen" />
		<tag k="natural" v="wetland" />
		<tag k="ssr:stedsnr" v="156996" />
	</node>
	<node id="-863076" lat="63.2457027765" lon="9.53894443503">
		<tag k="name" v="Hosetkjølen" />
		<tag k="natural" v="wetland" />
		<tag k="ssr:stedsnr" v="298857" />
	</node>
	<node id="-865123" lat="63.3599444414" lon="9.86067500005">
		<tag k="name" v="Småhåggån" />
		<tag k="place" v="locality" />
		<tag k="ssr:stedsnr" v="276470" />
	</node>
	<node id="-865120" lat="63.1595250039" lon="9.88253054972">
		<tag k="name" v="Langmyran" />
		<tag k="natural" v="wetland" />
		<tag k="ssr:stedsnr" v="96726" />
	</node>
	<node id="-863069" lat="63.2013583373" lon="9.8949722272">
		<tag k="name" v="Røskattkåsa" />
		<tag k="place" v="locality" />
		<tag k="ssr:stedsnr" v="94414" />
	</node>
	<node id="-865116" lat="63.2323694449" lon="9.44145834108">
		<tag k="name" v="Storkjølen" />
		<tag k="natural" v="wetland" />
		<tag k="ssr:stedsnr" v="55580" />
	</node>
	<node id="-863065" lat="63.1825444473" lon="9.47291667331">
		<tag k="name" v="Risflotten" />
		<tag k="place" v="locality" />
		<tag k="ssr:stedsnr" v="338711" />
	</node>
	<node id="-865110" lat="63.1922500003" lon="9.69391110131">
		<tag k="name" v="Saglykkja" />
		<tag k="place" v="locality" />
		<tag k="ssr:stedsnr" v="762627" />
	</node>
	<node id="-863061" lat="63.1853472183" lon="9.83537222779">
		<tag k="name" v="Stormyra" />
		<tag k="natural" v="wetland" />
		<tag k="ssr:stedsnr" v="94418" />
	</node>
	<node id="-865108" lat="63.3507055536" lon="9.81558055942">
		<tag k="historic" v="shieling" />
		<tag k="name" v="Vollasætra" />
		<tag k="place" v="locality" />
		<tag k="ssr:stedsnr" v="94151" />
	</node>
	<node id="-863052" lat="63.3350555588" lon="9.72664721551">
		<tag k="name" v="Storøyslættet" />
		<tag k="place" v="locality" />
		<tag k="ssr:stedsnr" v="701212" />
	</node>
	<node id="-865095" lat="63.3117277821" lon="9.88926388686">
		<tag k="name" v="Torvmyra" />
		<tag k="natural" v="wetland" />
		<tag k="ssr:stedsnr" v="579562" />
	</node>
	<node id="-863046" lat="63.3712666678" lon="9.8761777763">
		<tag k="historic" v="shieling" />
		<tag k="name" v="Gråbergsætervollen" />
		<tag k="place" v="locality" />
		<tag k="ssr:stedsnr" v="883710" />
	</node>
	<node id="-862689" lat="63.2618000009" lon="9.88259444179">
		<tag k="name" v="Lauvåsmyran" />
		<tag k="natural" v="wetland" />
		<tag k="ssr:stedsnr" v="498769" />
	</node>
	<node id="-865091" lat="63.295586113" lon="9.75337778741">
		<tag k="historic" v="shieling" />
		<tag k="name" v="Aunsætra" />
		<tag k="place" v="locality" />
		<tag k="ssr:stedsnr" v="155230" />
	</node>
	<node id="-865089" lat="63.3120083378" lon="9.65603889724">
		<tag k="name" v="Ustmyran" />
		<tag k="natural" v="wetland" />
		<tag k="ssr:stedsnr" v="156979" />
	</node>
	<node id="-863034" lat="63.2007805596" lon="9.63676389535">
		<tag k="name" v="Livollan" />
		<tag k="place" v="locality" />
		<tag k="ssr:stedsnr" v="823629" />
	</node>
	<node id="-865079" lat="63.2329166683" lon="9.46726111902">
		<tag k="landuse" v="meadow" />
		<tag k="name" v="Bakklykkjslættet" />
		<tag k="ssr:stedsnr" v="241542" />
	</node>
	<node id="-865078" lat="63.193825001" lon="9.90398054708">
		<tag k="name" v="Grøskjølen" />
		<tag k="natural" v="wetland" />
		<tag k="ssr:stedsnr" v="883425" />
	</node>
	<node id="-865077" lat="63.2468611142" lon="9.45123888137">
		<tag k="landuse" v="meadow" />
		<tag k="name" v="Egglykkjslættet" />
		<tag k="ssr:stedsnr" v="241543" />
	</node>
	<node id="-863028" lat="63.2698305533" lon="9.82223888047">
		<tag k="name" v="Håggån" />
		<tag k="place" v="locality" />
		<tag k="ssr:stedsnr" v="216037" />
	</node>
	<node id="-862686" lat="63.4357805541" lon="9.92732500013">
		<tag k="name" v="Trøa" />
		<tag k="place" v="locality" />
		<tag k="ssr:stedsnr" v="337693" />
	</node>
	<node id="-863023" lat="63.2060944468" lon="9.69115000205">
		<tag k="name" v="Innlegget" />
		<tag k="place" v="locality" />
		<tag k="ssr:stedsnr" v="823625" />
	</node>
	<node id="-863021" lat="63.4133749961" lon="9.96047222883">
		<tag k="name" v="Kleivan" />
		<tag k="place" v="locality" />
		<tag k="ssr:stedsnr" v="398669" />
	</node>
	<node id="-863019" lat="63.2586694408" lon="9.62006665773">
		<tag k="name" v="Svorkdalsmyran" />
		<tag k="natural" v="wetland" />
		<tag k="ssr:stedsnr" v="520802" />
	</node>
	<node id="-863018" lat="63.280855553" lon="9.65208333377">
		<tag k="name" v="Småmyran" />
		<tag k="natural" v="wetland" />
		<tag k="ssr:stedsnr" v="702957" />
	</node>
	<node id="-865065" lat="63.2998083313" lon="9.585719447">
		<tag k="name" v="Gaukskogan" />
		<tag k="place" v="locality" />
		<tag k="ssr:stedsnr" v="156971" />
	</node>
	<node id="-865064" lat="63.3094805564" lon="9.56970278136">
		<tag k="name" v="Hardmomyran" />
		<tag k="natural" v="wetland" />
		<tag k="ssr:stedsnr" v="156968" />
	</node>
	<node id="-863014" lat="63.3215444458" lon="9.68021944695">
		<tag k="name" v="Håkonslættet" />
		<tag k="place" v="locality" />
		<tag k="ssr:stedsnr" v="762885" />
	</node>
	<node id="-863009" lat="63.1787722214" lon="9.66623611207">
		<tag k="name" v="Kvilsteinen" />
		<tag k="natural" v="stone" />
		<tag k="ssr:stedsnr" v="884588" />
	</node>
	<node id="-863008" lat="63.3055722229" lon="9.7794916595">
		<tag k="name" v="Jenshåggån" />
		<tag k="place" v="locality" />
		<tag k="ssr:stedsnr" v="459195" />
	</node>
	<node id="-865055" lat="63.432272226" lon="9.96541944283">
		<tag k="name" v="Gardkroken" />
		<tag k="place" v="locality" />
		<tag k="ssr:stedsnr" v="701765" />
	</node>
	<node id="-863006" lat="63.2507750021" lon="9.61435833966">
		<tag k="name" v="Svorkmyran" />
		<tag k="natural" v="wetland" />
		<tag k="ssr:stedsnr" v="338721" />
	</node>
	<node id="-865052" lat="63.3047611088" lon="9.77259167407">
		<tag k="name" v="Stakkstonga" />
		<tag k="place" v="locality" />
		<tag k="ssr:stedsnr" v="34199" />
	</node>
	<node id="-863002" lat="63.1658416666" lon="9.78366110753">
		<tag k="name" v="Piksteinen" />
		<tag k="natural" v="stone" />
		<tag k="ssr:stedsnr" v="763810" />
	</node>
	<node id="-863001" lat="63.2037722223" lon="9.77717222312">
		<tag k="name" v="Øyan" />
		<tag k="place" v="locality" />
		<tag k="ssr:stedsnr" v="702918" />
	</node>
	<node id="-862681" lat="63.3229500022" lon="9.89183332385">
		<tag k="name" v="Nervikmarka" />
		<tag k="place" v="locality" />
		<tag k="ssr:stedsnr" v="944475" />
	</node>
	<node id="-865044" lat="63.276452782" lon="9.68990833931">
		<tag k="name" v="Tjønnmyran" />
		<tag k="natural" v="wetland" />
		<tag k="ssr:stedsnr" v="156964" />
	</node>
	<node id="-865041" lat="63.2493638922" lon="9.38500833646">
		<tag k="landuse" v="meadow" />
		<tag k="name" v="Kjelstadslættet" />
		<tag k="ssr:stedsnr" v="465494" />
	</node>
	<node id="-862992" lat="63.1579638866" lon="9.68721943846">
		<tag k="name" v="Olderøyan" />
		<tag k="place" v="locality" />
		<tag k="ssr:stedsnr" v="823583" />
	</node>
	<node id="-865036" lat="63.1775472244" lon="9.8404527826">
		<tag k="name" v="Kerringråa" />
		<tag k="place" v="locality" />
		<tag k="ssr:stedsnr" v="883437" />
	</node>
	<node id="-865027" lat="63.3041972212" lon="9.78293888588">
		<tag k="name" v="Haugarommet" />
		<tag k="place" v="locality" />
		<tag k="ssr:stedsnr" v="34193" />
	</node>
	<node id="-862978" lat="63.3060805525" lon="9.8701055626">
		<tag k="name" v="Spennsteinen" />
		<tag k="natural" v="stone" />
		<tag k="ssr:stedsnr" v="155436" />
	</node>
	<node id="-865024" lat="63.3571583345" lon="9.88548611713">
		<tag k="name" v="Stormyra" />
		<tag k="natural" v="wetland" />
		<tag k="ssr:stedsnr" v="823349" />
	</node>
	<node id="-862969" lat="63.3404305546" lon="9.80842221996">
		<tag k="name" v="Slåttåmyran" />
		<tag k="natural" v="wetland" />
		<tag k="ssr:stedsnr" v="701136" />
	</node>
	<node id="-865015" lat="63.3831888907" lon="9.92832777692">
		<tag k="name" v="Setermyra" />
		<tag k="natural" v="wetland" />
		<tag k="ssr:stedsnr" v="823346" />
	</node>
	<node id="-862965" lat="63.1540222232" lon="9.8713416683">
		<tag k="name" v="Kjesgården" />
		<tag k="place" v="locality" />
		<tag k="ssr:stedsnr" v="703694" />
	</node>
	<node id="-863041" lat="63.1710500006" lon="9.68796944978">
		<tag k="name" v="Kambmyra" />
		<tag k="natural" v="wetland" />
		<tag k="ssr:stedsnr" v="801507" />
	</node>
	<node id="-865010" lat="63.3275861137" lon="9.7401249936">
		<tag k="name" v="Kringlotmyra" />
		<tag k="natural" v="wetland" />
		<tag k="ssr:stedsnr" v="34185" />
	</node>
	<node id="-865008" lat="63.2051944411" lon="9.87778889414">
		<tag k="name" v="Vinterledet" />
		<tag k="natural" v="wetland" />
		<tag k="ssr:stedsnr" v="944355" />
	</node>
	<node id="-865007" lat="63.3757138897" lon="9.69720556455">
		<tag k="name" v="Hullua" />
		<tag k="place" v="locality" />
		<tag k="ssr:stedsnr" v="276436" />
	</node>
	<node id="-862953" lat="63.1618722219" lon="9.63075833613">
		<tag k="name" v="Småmyran" />
		<tag k="natural" v="wetland" />
		<tag k="ssr:stedsnr" v="398592" />
	</node>
	<node id="-864999" lat="63.1652472221" lon="9.86249721467">
		<tag k="landuse" v="meadow" />
		<tag k="name" v="Rørtjønnhåggån" />
		<tag k="ssr:stedsnr" v="217414" />
	</node>
	<node id="-862948" lat="63.1998000038" lon="9.69460555014">
		<tag k="name" v="Bakkhåggån" />
		<tag k="place" v="locality" />
		<tag k="ssr:stedsnr" v="580622" />
	</node>
	<node id="-865062" lat="63.3827861127" lon="9.92333332444">
		<tag k="historic" v="shieling" />
		<tag k="name" v="Haugnessætra" />
		<tag k="place" v="locality" />
		<tag k="ssr:stedsnr" v="276454" />
	</node>
	<node id="-862942" lat="63.2328694422" lon="9.79008332817">
		<tag k="name" v="Hostomyra" />
		<tag k="natural" v="wetland" />
		<tag k="ssr:stedsnr" v="459117" />
	</node>
	<node id="-864987" lat="63.2130972219" lon="9.83390276849">
		<tag k="name" v="Brattlilykkja" />
		<tag k="place" v="locality" />
		<tag k="ssr:stedsnr" v="883395" />
	</node>
	<node id="-864985" lat="63.2674555542" lon="9.75440277317">
		<tag k="name" v="Stormyra" />
		<tag k="natural" v="wetland" />
		<tag k="ssr:stedsnr" v="863729" />
	</node>
	<node id="-864984" lat="63.1599611115" lon="9.61863889734">
		<tag k="name" v="Meåslykkjmyra" />
		<tag k="natural" v="wetland" />
		<tag k="ssr:stedsnr" v="762569" />
	</node>
	<node id="-864976" lat="63.1717361127" lon="9.8689805512">
		<tag k="name" v="Vintermyran" />
		<tag k="natural" v="wetland" />
		<tag k="ssr:stedsnr" v="823307" />
	</node>
	<node id="-862921" lat="63.3134972189" lon="9.88302499275">
		<tag k="name" v="Åsdalsmyra" />
		<tag k="natural" v="wetland" />
		<tag k="ssr:stedsnr" v="640493" />
	</node>
	<node id="-864962" lat="63.3071499995" lon="9.8589972209">
		<tag k="name" v="Hovslunden" />
		<tag k="place" v="locality" />
		<tag k="ssr:stedsnr" v="579548" />
	</node>
	<node id="-864958" lat="63.3226722191" lon="9.81005833424">
		<tag k="name" v="Gråskardgrova" />
		<tag k="place" v="locality" />
		<tag k="ssr:stedsnr" v="34172" />
	</node>
	<node id="-863349" lat="63.2847055567" lon="9.73521944182">
		<tag k="name" v="Håmmårmyra" />
		<tag k="natural" v="wetland" />
		<tag k="ssr:stedsnr" v="701287" />
	</node>
	<node id="-862906" lat="63.3683499966" lon="9.66221389479">
		<tag k="landuse" v="meadow" />
		<tag k="name" v="Finnbuenget" />
		<tag k="ssr:stedsnr" v="578017" />
	</node>
	<node id="-864951" lat="63.3231416711" lon="9.81894999354">
		<tag k="name" v="Kleiva" />
		<tag k="place" v="locality" />
		<tag k="ssr:stedsnr" v="34167" />
	</node>
	<node id="-862902" lat="63.2355666661" lon="9.54218055825">
		<tag k="name" v="Krokakjølen" />
		<tag k="natural" v="wetland" />
		<tag k="ssr:stedsnr" v="419857" />
	</node>
	<node id="-862891" lat="63.2871638928" lon="9.88466667489">
		<tag k="name" v="Stallmyra" />
		<tag k="natural" v="wetland" />
		<tag k="ssr:stedsnr" v="94338" />
	</node>
	<node id="-862890" lat="63.2732777744" lon="9.69531944613">
		<tag k="name" v="Hafella" />
		<tag k="place" v="locality" />
		<tag k="ssr:stedsnr" v="762782" />
	</node>
	<node id="-862888" lat="63.2395249973" lon="9.59084166236">
		<tag k="name" v="Husmannsenget" />
		<tag k="place" v="locality" />
		<tag k="ssr:stedsnr" v="762783" />
	</node>
	<node id="-864926" lat="63.3242361087" lon="9.71696943929">
		<tag k="historic" v="shieling" />
		<tag k="name" v="Gammelsætervollen" />
		<tag k="place" v="locality" />
		<tag k="ssr:stedsnr" v="155185" />
	</node>
	<node id="-864924" lat="63.2036361099" lon="9.70029165673">
		<tag k="name" v="Storlykkja" />
		<tag k="place" v="locality" />
		<tag k="ssr:stedsnr" v="156928" />
	</node>
	<node id="-864922" lat="63.2387916689" lon="9.75467778616">
		<tag k="name" v="Rønningen" />
		<tag k="place" v="locality" />
		<tag k="ssr:stedsnr" v="94088" />
	</node>
	<node id="-862872" lat="63.1847138856" lon="9.57749444727">
		<tag k="name" v="Blekmyra" />
		<tag k="natural" v="wetland" />
		<tag k="ssr:stedsnr" v="338606" />
	</node>
	<node id="-864919" lat="63.1763666702" lon="9.84126389224">
		<tag k="name" v="Hermen" />
		<tag k="place" v="locality" />
		<tag k="ssr:stedsnr" v="276408" />
	</node>
	<node id="-864917" lat="63.2643972239" lon="9.76216389771">
		<tag k="name" v="Veleklykkja" />
		<tag k="place" v="locality" />
		<tag k="ssr:stedsnr" v="458010" />
	</node>
	<node id="-864916" lat="63.1658250011" lon="9.59758611837">
		<tag k="name" v="Storlykkja" />
		<tag k="place" v="locality" />
		<tag k="ssr:stedsnr" v="762575" />
	</node>
	<node id="-862867" lat="63.2327833295" lon="9.87237499602">
		<tag k="name" v="Storslettmyra" />
		<tag k="natural" v="wetland" />
		<tag k="ssr:stedsnr" v="497224" />
	</node>
	<node id="-864912" lat="63.187836112" lon="9.64622221476">
		<tag k="name" v="Tronvoll-lykkja" />
		<tag k="place" v="locality" />
		<tag k="ssr:stedsnr" v="702623" />
	</node>
	<node id="-862863" lat="63.1949583351" lon="9.50329444149">
		<tag k="name" v="Vikakjølen" />
		<tag k="natural" v="wetland" />
		<tag k="ssr:stedsnr" v="923631" />
	</node>
	<node id="-864909" lat="63.3023333297" lon="9.82618888264">
		<tag k="name" v="Torva" />
		<tag k="place" v="locality" />
		<tag k="ssr:stedsnr" v="397485" />
	</node>
	<node id="-864907" lat="63.3810638885" lon="9.69489445147">
		<tag k="name" v="Hjørnet" />
		<tag k="place" v="locality" />
		<tag k="ssr:stedsnr" v="823324" />
	</node>
	<node id="-862854" lat="63.1625611142" lon="9.71823333871">
		<tag k="name" v="Rønningen" />
		<tag k="place" v="locality" />
		<tag k="ssr:stedsnr" v="763682" />
	</node>
	<node id="-864890" lat="63.1920416705" lon="9.84506944222">
		<tag k="name" v="Kroktjønnmyra" />
		<tag k="natural" v="wetland" />
		<tag k="ssr:stedsnr" v="276386" />
	</node>
	<node id="-862839" lat="63.2860638909" lon="9.84381945179">
		<tag k="name" v="Skogan" />
		<tag k="place" v="locality" />
		<tag k="ssr:stedsnr" v="94318" />
	</node>
	<node id="-864881" lat="63.2472583302" lon="9.4964833378">
		<tag k="landuse" v="meadow" />
		<tag k="name" v="Skålholtslættet" />
		<tag k="ssr:stedsnr" v="541646" />
	</node>
	<node id="-862831" lat="63.4020805573" lon="9.89187222479">
		<tag k="landuse" v="quarry" />
		<tag k="name" v="Gullgruva" />
		<tag k="ssr:stedsnr" v="397682" />
	</node>
	<node id="-864873" lat="63.4321083327" lon="9.91480555085">
		<tag k="name" v="Trøflata" />
		<tag k="place" v="locality" />
		<tag k="ssr:stedsnr" v="701712" />
	</node>
	<node id="-864861" lat="63.3068388917" lon="9.58853334015">
		<tag k="name" v="Sæterskogan" />
		<tag k="place" v="locality" />
		<tag k="ssr:stedsnr" v="641989" />
	</node>
	<node id="-862806" lat="63.3486416634" lon="9.85088889119">
		<tag k="historic" v="shieling" />
		<tag k="name" v="Gammelsætervollen" />
		<tag k="place" v="locality" />
		<tag k="ssr:stedsnr" v="155379" />
	</node>
	<node id="-864853" lat="63.1603333314" lon="9.65891665885">
		<tag k="name" v="Eldalen" />
		<tag k="place" v="locality" />
		<tag k="ssr:stedsnr" v="702603" />
	</node>
	<node id="-862804" lat="63.2391083357" lon="9.51401945213">
		<tag k="landuse" v="meadow" />
		<tag k="name" v="Ytter Krokslættet" />
		<tag k="ssr:stedsnr" v="662583" />
	</node>
	<node id="-862801" lat="63.1858083366" lon="9.57916388684">
		<tag k="name" v="Grønmyra" />
		<tag k="natural" v="wetland" />
		<tag k="ssr:stedsnr" v="520654" />
	</node>
	<node id="-862798" lat="63.4107027812" lon="9.96361111352">
		<tag k="name" v="Raskurda" />
		<tag k="natural" v="scree" />
		<tag k="ssr:stedsnr" v="579735" />
	</node>
	<node id="-864845" lat="63.1592750035" lon="9.81371111141">
		<tag k="name" v="Tritjønnmyran" />
		<tag k="natural" v="wetland" />
		<tag k="ssr:stedsnr" v="703452" />
	</node>
	<node id="-864844" lat="63.3582666687" lon="9.68286665692">
		<tag k="name" v="Røysa" />
		<tag k="natural" v="scree" />
		<tag k="ssr:stedsnr" v="156897" />
	</node>
	<node id="-864843" lat="63.3059749969" lon="9.65903055303">
		<tag k="landuse" v="meadow" />
		<tag k="name" v="Øveraunslættet" />
		<tag k="ssr:stedsnr" v="34984" />
	</node>
	<node id="-862792" lat="63.3141027758" lon="9.84286388347">
		<tag k="name" v="Orkdalsøra" />
		<tag k="place" v="locality" />
		<tag k="ssr:stedsnr" v="287164" />
	</node>
	<node id="-864829" lat="63.2068166687" lon="9.56782499195">
		<tag k="name" v="Vollan" />
		<tag k="place" v="locality" />
		<tag k="ssr:stedsnr" v="95787" />
	</node>
	<node id="-864828" lat="63.3430583351" lon="9.87182499721">
		<tag k="landuse" v="quarry" />
		<tag k="name" v="Sandbruddet" />
		<tag k="ssr:stedsnr" v="397453" />
	</node>
	<node id="-864826" lat="63.2474333364" lon="9.55664443957">
		<tag k="name" v="Selmokjølen" />
		<tag k="natural" v="wetland" />
		<tag k="ssr:stedsnr" v="95785" />
	</node>
	<node id="-862777" lat="63.3208416703" lon="9.70444165813">
		<tag k="historic" v="shieling" />
		<tag k="name" v="Annølsætra" />
		<tag k="place" v="locality" />
		<tag k="ssr:stedsnr" v="701205" />
	</node>
	<node id="-862774" lat="63.2061888924" lon="9.8679999903">
		<tag k="name" v="Granmyra" />
		<tag k="natural" v="wetland" />
		<tag k="ssr:stedsnr" v="94405" />
	</node>
	<node id="-864820" lat="63.2628222223" lon="9.76908889605">
		<tag k="name" v="Moen" />
		<tag k="place" v="locality" />
		<tag k="ssr:stedsnr" v="94057" />
	</node>
	<node id="-864816" lat="63.2495833317" lon="9.51406666025">
		<tag k="landuse" v="meadow" />
		<tag k="name" v="Sæterslættet" />
		<tag k="ssr:stedsnr" v="298545" />
	</node>
	<node id="-862764" lat="63.2503000037" lon="9.36287777171">
		<tag k="landuse" v="meadow" />
		<tag k="name" v="Brattslættet" />
		<tag k="ssr:stedsnr" v="708517" />
	</node>
	<node id="-864811" lat="63.1888777777" lon="9.90827777113">
		<tag k="name" v="Gammelkjølen" />
		<tag k="natural" v="wetland" />
		<tag k="ssr:stedsnr" v="398298" />
	</node>
	<node id="-862761" lat="63.2254250005" lon="9.4378111036">
		<tag k="name" v="Ferjestadmyra" />
		<tag k="natural" v="wetland" />
		<tag k="ssr:stedsnr" v="465706" />
	</node>
	<node id="-862757" lat="63.1772972199" lon="9.82471111212">
		<tag k="name" v="Røsmyran" />
		<tag k="natural" v="wetland" />
		<tag k="ssr:stedsnr" v="460902" />
	</node>
	<node id="-862756" lat="63.3856777749" lon="9.93874721776">
		<tag k="historic" v="shieling" />
		<tag k="name" v="Gammelsætra" />
		<tag k="place" v="locality" />
		<tag k="ssr:stedsnr" v="276689" />
	</node>
	<node id="-864798" lat="63.2385277819" lon="9.47242777201">
		<tag k="landuse" v="meadow" />
		<tag k="name" v="Røsslættet" />
		<tag k="old_name" v="Ros-slættet" />
		<tag k="ssr:stedsnr" v="419622" />
	</node>
	<node id="-862744" lat="63.2597000017" lon="9.72290000876">
		<tag k="historic" v="shieling" />
		<tag k="name" v="Kollsætra" />
		<tag k="place" v="locality" />
		<tag k="ssr:stedsnr" v="762001" />
	</node>
	<node id="-864791" lat="63.3491444417" lon="9.90093611578">
		<tag k="name" v="Gruvhola" />
		<tag k="place" v="locality" />
		<tag k="ssr:stedsnr" v="397442" />
	</node>
	<node id="-862742" lat="63.2649611136" lon="9.72700833916">
		<tag k="historic" v="shieling" />
		<tag k="name" v="Berntsætra" />
		<tag k="place" v="locality" />
		<tag k="ssr:stedsnr" v="762002" />
	</node>
	<node id="-862734" lat="63.2299499973" lon="9.80769721291">
		<tag k="name" v="Granmoen" />
		<tag k="place" v="locality" />
		<tag k="ssr:stedsnr" v="702926" />
	</node>
	<node id="-864780" lat="63.3095416692" lon="9.87710000215">
		<tag k="historic" v="shieling" />
		<tag k="name" v="Øver Hulluvollen" />
		<tag k="place" v="locality" />
		<tag k="ssr:stedsnr" v="337493" />
	</node>
	<node id="-862730" lat="63.1589166695" lon="9.65647222051">
		<tag k="name" v="Gråtarvollen" />
		<tag k="place" v="locality" />
		<tag k="ssr:stedsnr" v="398603" />
	</node>
	<node id="-864776" lat="63.2988305577" lon="9.56390000715">
		<tag k="name" v="Dalskjølen" />
		<tag k="natural" v="wetland" />
		<tag k="ssr:stedsnr" v="641961" />
	</node>
	<node id="-864775" lat="63.2872416673" lon="9.85905555003">
		<tag k="name" v="Jørgenmarka" />
		<tag k="place" v="locality" />
		<tag k="ssr:stedsnr" v="883344" />
	</node>
	<node id="-864773" lat="63.2167611135" lon="9.86853055867">
		<tag k="name" v="Hermlykkjmyra" />
		<tag k="natural" v="wetland" />
		<tag k="ssr:stedsnr" v="823272" />
	</node>
	<node id="-862714" lat="63.2911277771" lon="9.79401111542">
		<tag k="name" v="Dammyran" />
		<tag k="natural" v="wetland" />
		<tag k="ssr:stedsnr" v="762020" />
	</node>
	<node id="-862711" lat="63.2943222246" lon="9.74162777803">
		<tag k="historic" v="shieling" />
		<tag k="name" v="Haugemssætra" />
		<tag k="place" v="locality" />
		<tag k="ssr:stedsnr" v="94280" />
	</node>
	<node id="-864757" lat="63.21959722" lon="9.72564167042">
		<tag k="name" v="Vargmyra" />
		<tag k="natural" v="wetland" />
		<tag k="ssr:stedsnr" v="34105" />
	</node>
	<node id="-864755" lat="63.2343722197" lon="9.49602221512">
		<tag k="name" v="Vaulan" />
		<tag k="natural" v="wetland" />
		<tag k="ssr:stedsnr" v="770567" />
	</node>
	<node id="-862698" lat="63.3013083309" lon="9.63623055927">
		<tag k="landuse" v="meadow" />
		<tag k="name" v="Gangåsslættet" />
		<tag k="ssr:stedsnr" v="95995" />
	</node>
	<node id="-864745" lat="63.2249583351" lon="9.41068610982">
		<tag k="name" v="Langnesmyra" />
		<tag k="natural" v="wetland" />
		<tag k="ssr:stedsnr" v="890749" />
	</node>
	<node id="-862695" lat="63.3655277747" lon="9.68994166887">
		<tag k="name" v="Rasmusbolet" />
		<tag k="place" v="locality" />
		<tag k="ssr:stedsnr" v="459914" />
	</node>
	<node id="-864742" lat="63.1992249976" lon="9.61679445132">
		<tag k="name" v="Limyra" />
		<tag k="natural" v="wetland" />
		<tag k="ssr:stedsnr" v="459656" />
	</node>
	<node id="-864737" lat="63.196302774" lon="9.64224166067">
		<tag k="name" v="Storholmen" />
		<tag k="place" v="locality" />
		<tag k="ssr:stedsnr" v="459654" />
	</node>
	<node id="-864734" lat="63.3187805545" lon="9.67667221511">
		<tag k="name" v="Sagøya" />
		<tag k="place" v="locality" />
		<tag k="ssr:stedsnr" v="945986" />
	</node>
	<node id="-862685" lat="63.2624722217" lon="9.76646111149">
		<tag k="name" v="Trøvollen" />
		<tag k="place" v="locality" />
		<tag k="ssr:stedsnr" v="701060" />
	</node>
	<node id="-862682" lat="63.3490777763" lon="9.89327499363">
		<tag k="landuse" v="quarry" />
		<tag k="name" v="Duvagruva" />
		<tag k="ssr:stedsnr" v="33464" />
	</node>
	<node id="-864729" lat="63.2187916662" lon="9.71146388554">
		<tag k="name" v="Tanesslættet" />
		<tag k="place" v="locality" />
		<tag k="ssr:stedsnr" v="945083" />
	</node>
	<node id="-864720" lat="63.23786667" lon="9.77101388344">
		<tag k="name" v="Eklisøya" />
		<tag k="place" v="locality" />
		<tag k="ssr:stedsnr" v="155122" />
	</node>
	<node id="-864719" lat="63.1938638927" lon="9.72226667561">
		<tag k="name" v="Nese" />
		<tag k="place" v="locality" />
		<tag k="ssr:stedsnr" v="641909" />
	</node>
	<node id="-864718" lat="63.2431888855" lon="9.44940832653">
		<tag k="historic" v="shieling" />
		<tag k="name" v="Eggansætra" />
		<tag k="place" v="locality" />
		<tag k="ssr:stedsnr" v="544555" />
	</node>
	<node id="-864716" lat="63.3098638922" lon="9.72725554718">
		<tag k="name" v="Tristakkenget" />
		<tag k="place" v="locality" />
		<tag k="ssr:stedsnr" v="944227" />
	</node>
	<node id="-864713" lat="63.3034611132" lon="9.55449166696">
		<tag k="name" v="Våddåmelan" />
		<tag k="place" v="locality" />
		<tag k="ssr:stedsnr" v="945984" />
	</node>
	<node id="-864707" lat="63.3506916642" lon="9.89039723063">
		<tag k="name" v="Veltningsmyra" />
		<tag k="natural" v="wetland" />
		<tag k="ssr:stedsnr" v="579465" />
	</node>
	<node id="-862657" lat="63.2295638908" lon="9.46358333724">
		<tag k="landuse" v="meadow" />
		<tag k="name" v="Framigardsslættet" />
		<tag k="ssr:stedsnr" v="343509" />
	</node>
	<node id="-863099" lat="63.3143833353" lon="9.75290833117">
		<tag k="name" v="Svartbergslættet" />
		<tag k="place" v="locality" />
		<tag k="ssr:stedsnr" v="459204" />
	</node>
	<node id="-864700" lat="63.2400527782" lon="9.4502361058">
		<tag k="landuse" v="meadow" />
		<tag k="name" v="Hundsåvasslættet" />
		<tag k="ssr:stedsnr" v="544559" />
	</node>
	<node id="-862622" lat="63.4250583371" lon="9.95013332963">
		<tag k="name" v="Furuneset" />
		<tag k="place" v="locality" />
		<tag k="ssr:stedsnr" v="519739" />
	</node>
	<node id="-864688" lat="63.1848777788" lon="9.79420832693">
		<tag k="landuse" v="meadow" />
		<tag k="name" v="Moahåggån" />
		<tag k="ssr:stedsnr" v="702548" />
	</node>
	<node id="-862639" lat="63.2496722227" lon="9.64983889739">
		<tag k="name" v="Råmyra" />
		<tag k="natural" v="wetland" />
		<tag k="ssr:stedsnr" v="762746" />
	</node>
	<node id="-862638" lat="63.3607749976" lon="9.84489167386">
		<tag k="name" v="Aunet" />
		<tag k="place" v="locality" />
		<tag k="ssr:stedsnr" v="33456" />
	</node>
	<node id="-864685" lat="63.4217027739" lon="9.9062805637">
		<tag k="name" v="Brumyra" />
		<tag k="natural" v="wetland" />
		<tag k="ssr:stedsnr" v="701682" />
	</node>
	<node id="-862635" lat="63.3110416675" lon="9.66484165693">
		<tag k="name" v="Storslettmyran" />
		<tag k="natural" v="wetland" />
		<tag k="ssr:stedsnr" v="95986" />
	</node>
	<node id="-864678" lat="63.239169441" lon="9.80010554965">
		<tag k="name" v="Gården" />
		<tag k="place" v="locality" />
		<tag k="ssr:stedsnr" v="155119" />
	</node>
	<node id="-864676" lat="63.2796999971" lon="9.64095834246">
		<tag k="name" v="Grønvollen" />
		<tag k="place" v="locality" />
		<tag k="ssr:stedsnr" v="34928" />
	</node>
	<node id="-862627" lat="63.233405557" lon="9.59529165865">
		<tag k="name" v="Trettøya" />
		<tag k="place" v="locality" />
		<tag k="ssr:stedsnr" v="762741" />
	</node>
	<node id="-864670" lat="63.273286107" lon="9.90048055984">
		<tag k="historic" v="shieling" />
		<tag k="name" v="Fannremssetra" />
		<tag k="place" v="locality" />
		<tag k="ssr:stedsnr" v="823243" />
	</node>
	<node id="-864664" lat="63.237252778" lon="9.62846111596">
		<tag k="name" v="Myramarka" />
		<tag k="place" v="locality" />
		<tag k="ssr:stedsnr" v="95728" />
	</node>
	<node id="-862610" lat="63.4189583315" lon="9.94511665784">
		<tag k="name" v="Valmyra" />
		<tag k="natural" v="wetland" />
		<tag k="ssr:stedsnr" v="579694" />
	</node>
	<node id="-864657" lat="63.2294666652" lon="9.36371111847">
		<tag k="name" v="Knubbhåggån" />
		<tag k="place" v="locality" />
		<tag k="ssr:stedsnr" v="283730" />
	</node>
	<node id="-862607" lat="63.2957972194" lon="9.59507776893">
		<tag k="name" v="Stormyra" />
		<tag k="natural" v="wetland" />
		<tag k="ssr:stedsnr" v="95977" />
	</node>
	<node id="-862606" lat="63.4297305542" lon="9.96503887901">
		<tag k="name" v="Postmyra" />
		<tag k="natural" v="wetland" />
		<tag k="ssr:stedsnr" v="519741" />
	</node>
	<node id="-864648" lat="63.1613666685" lon="9.61221945031">
		<tag k="name" v="Gammellykkja" />
		<tag k="place" v="locality" />
		<tag k="ssr:stedsnr" v="498603" />
	</node>
	<node id="-864646" lat="63.1948027775" lon="9.58483055746">
		<tag k="name" v="Ramnkloa" />
		<tag k="place" v="locality" />
		<tag k="ssr:stedsnr" v="156837" />
	</node>
	<node id="-864645" lat="63.1667305599" lon="9.8823222175">
		<tag k="name" v="Øyabergmyran" />
		<tag k="natural" v="wetland" />
		<tag k="ssr:stedsnr" v="642711" />
	</node>
	<node id="-864644" lat="63.3423833345" lon="9.82970832706">
		<tag k="name" v="Furmyran" />
		<tag k="natural" v="wetland" />
		<tag k="ssr:stedsnr" v="579428" />
	</node>
	<node id="-862595" lat="63.1855944431" lon="9.87657777397">
		<tag k="name" v="Snøtongjerdet" />
		<tag k="place" v="locality" />
		<tag k="ssr:stedsnr" v="155333" />
	</node>
	<node id="-864639" lat="63.1608916628" lon="9.74262222333">
		<tag k="name" v="Bergem" />
		<tag k="place" v="locality" />
		<tag k="ssr:stedsnr" v="642709" />
	</node>
	<node id="-862590" lat="63.3612722211" lon="9.86786110197">
		<tag k="name" v="Tøftet" />
		<tag k="place" v="locality" />
		<tag k="ssr:stedsnr" v="33435" />
	</node>
	<node id="-862587" lat="63.1760638876" lon="9.89195833281">
		<tag k="name" v="Stormyra" />
		<tag k="natural" v="wetland" />
		<tag k="ssr:stedsnr" v="34311" />
	</node>
	<node id="-864629" lat="63.3835250003" lon="9.94529445019">
		<tag k="name" v="Haugneshåggån" />
		<tag k="place" v="locality" />
		<tag k="ssr:stedsnr" v="579434" />
	</node>
	<node id="-862580" lat="63.2484749957" lon="9.37141665938">
		<tag k="landuse" v="meadow" />
		<tag k="name" v="Knubbslættet" />
		<tag k="ssr:stedsnr" v="222464" />
	</node>
	<node id="-862578" lat="63.1705472222" lon="9.89813055127">
		<tag k="name" v="Bergslættet" />
		<tag k="natural" v="wetland" />
		<tag k="ssr:stedsnr" v="34308" />
	</node>
	<node id="-862573" lat="63.224219448" lon="9.39909721306">
		<tag k="name" v="Bukkoddmyra" />
		<tag k="natural" v="wetland" />
		<tag k="ssr:stedsnr" v="647725" />
	</node>
	<node id="-862567" lat="63.2838555564" lon="9.67290832421">
		<tag k="name" v="Harangshåggån" />
		<tag k="place" v="locality" />
		<tag k="ssr:stedsnr" v="95964" />
	</node>
	<node id="-864606" lat="63.3397527759" lon="9.85863611939">
		<tag k="name" v="Sirilykkja" />
		<tag k="place" v="locality" />
		<tag k="ssr:stedsnr" v="337427" />
	</node>
	<node id="-864603" lat="63.2122499967" lon="9.55652500523">
		<tag k="name" v="Danielsmyra" />
		<tag k="natural" v="wetland" />
		<tag k="ssr:stedsnr" v="156817" />
	</node>
	<node id="-864602" lat="63.1932472234" lon="9.54975833344">
		<tag k="name" v="Flata" />
		<tag k="place" v="locality" />
		<tag k="ssr:stedsnr" v="95708" />
	</node>
	<node id="-864600" lat="63.4022527787" lon="9.93624445347">
		<tag k="name" v="Høylassmyra" />
		<tag k="natural" v="wetland" />
		<tag k="ssr:stedsnr" v="701652" />
	</node>
	<node id="-864597" lat="63.2257194487" lon="9.80807777563">
		<tag k="name" v="Snellmyra" />
		<tag k="natural" v="wetland" />
		<tag k="ssr:stedsnr" v="34898" />
	</node>
	<node id="-864596" lat="63.1544277819" lon="9.6506833262">
		<tag k="name" v="Vallstadøya" />
		<tag k="place" v="locality" />
		<tag k="ssr:stedsnr" v="459617" />
	</node>
	<node id="-862545" lat="63.3031833295" lon="9.67626111994">
		<tag k="historic" v="shieling" />
		<tag k="name" v="Kvaklandssætra" />
		<tag k="place" v="locality" />
		<tag k="ssr:stedsnr" v="95952" />
	</node>
	<node id="-862541" lat="63.4371972255" lon="9.92782500648">
		<tag k="name" v="Håggån" />
		<tag k="place" v="locality" />
		<tag k="ssr:stedsnr" v="519710" />
	</node>
	<node id="-862539" lat="63.2931916629" lon="9.64897222175">
		<tag k="name" v="Skårgangan" />
		<tag k="place" v="locality" />
		<tag k="ssr:stedsnr" v="95956" />
	</node>
	<node id="-864583" lat="63.3716472262" lon="9.93309166551">
		<tag k="name" v="Hestvollen" />
		<tag k="place" v="locality" />
		<tag k="ssr:stedsnr" v="579418" />
	</node>
	<node id="-864582" lat="63.2231777788" lon="9.81331389027">
		<tag k="historic" v="shieling" />
		<tag k="name" v="Reinskleivsætra" />
		<tag k="place" v="locality" />
		<tag k="ssr:stedsnr" v="641894" />
	</node>
	<node id="-864580" lat="63.3723500024" lon="9.83906388523">
		<tag k="name" v="Gammelsætermyran" />
		<tag k="natural" v="wetland" />
		<tag k="ssr:stedsnr" v="701648" />
	</node>
	<node id="-864578" lat="63.1984722241" lon="9.54704166969">
		<tag k="name" v="Litlskårgangen" />
		<tag k="place" v="locality" />
		<tag k="ssr:stedsnr" v="95695" />
	</node>
	<node id="-862528" lat="63.3149361129" lon="9.87295832348">
		<tag k="name" v="Nærvikslykkja" />
		<tag k="place" v="locality" />
		<tag k="ssr:stedsnr" v="823450" />
	</node>
	<node id="-862527" lat="63.2977638859" lon="9.85185833899">
		<tag k="name" v="Hestlykkja" />
		<tag k="place" v="locality" />
		<tag k="ssr:stedsnr" v="883542" />
	</node>
	<node id="-864571" lat="63.2383277793" lon="9.72627222913">
		<tag k="name" v="Stormyra" />
		<tag k="natural" v="wetland" />
		<tag k="ssr:stedsnr" v="155087" />
	</node>
	<node id="-862520" lat="63.2074722212" lon="9.86878889857">
		<tag k="name" v="Fadervårskogen" />
		<tag k="place" v="locality" />
		<tag k="ssr:stedsnr" v="155312" />
	</node>
	<node id="-862518" lat="63.3062694474" lon="9.6840888802">
		<tag k="name" v="Sætermyran" />
		<tag k="natural" v="wetland" />
		<tag k="ssr:stedsnr" v="95950" />
	</node>
	<node id="-864562" lat="63.1794888907" lon="9.67071944235">
		<tag k="historic" v="shieling" />
		<tag k="name" v="Tuftsætra" />
		<tag k="place" v="locality" />
		<tag k="ssr:stedsnr" v="459623" />
	</node>
	<node id="-862513" lat="63.197636115" lon="9.74964722561">
		<tag k="name" v="Bjørga" />
		<tag k="place" v="locality" />
		<tag k="ssr:stedsnr" v="459883" />
	</node>
	<node id="-864556" lat="63.2346111131" lon="9.75850277224">
		<tag k="name" v="Byalykkja" />
		<tag k="place" v="locality" />
		<tag k="ssr:stedsnr" v="155076" />
	</node>
	<node id="-862507" lat="63.1664194423" lon="9.67012500533">
		<tag k="name" v="Torvmyra" />
		<tag k="natural" v="wetland" />
		<tag k="ssr:stedsnr" v="520629" />
	</node>
	<node id="-862506" lat="63.3886916675" lon="9.87439445313">
		<tag k="name" v="Rabbolmyra" />
		<tag k="natural" v="wetland" />
		<tag k="ssr:stedsnr" v="579715" />
	</node>
	<node id="-864552" lat="63.3061916672" lon="9.77094721954">
		<tag k="name" v="Svartøya" />
		<tag k="place" v="locality" />
		<tag k="ssr:stedsnr" v="883246" />
	</node>
	<node id="-862502" lat="63.2032444474" lon="9.8149972311">
		<tag k="name" v="Ospmoen" />
		<tag k="place" v="locality" />
		<tag k="ssr:stedsnr" v="459934" />
	</node>
	<node id="-862501" lat="63.3253805585" lon="9.89609722798">
		<tag k="name" v="Sandplassen" />
		<tag k="place" v="locality" />
		<tag k="ssr:stedsnr" v="640447" />
	</node>
	<node id="-862498" lat="63.2582749987" lon="9.79063055372">
		<tag k="name" v="Solhusøyan" />
		<tag k="place" v="locality" />
		<tag k="ssr:stedsnr" v="459062" />
	</node>
	<node id="-864545" lat="63.2462250001" lon="9.50723611996">
		<tag k="name" v="Søvasskjølen" />
		<tag k="natural" v="wetland" />
		<tag k="ssr:stedsnr" v="586755" />
	</node>
	<node id="-864539" lat="63.1959500019" lon="9.54414167247">
		<tag k="name" v="Øvergjerdet" />
		<tag k="place" v="locality" />
		<tag k="ssr:stedsnr" v="95692" />
	</node>
	<node id="-862490" lat="63.2894000016" lon="9.73150834081">
		<tag k="name" v="Stormyra" />
		<tag k="natural" v="wetland" />
		<tag k="ssr:stedsnr" v="94288" />
	</node>
	<node id="-864537" lat="63.3088750033" lon="9.73569721472">
		<tag k="name" v="Tjurruhjellen" />
		<tag k="place" v="locality" />
		<tag k="ssr:stedsnr" v="398213" />
	</node>
	<node id="-862937" lat="63.2480611084" lon="9.565474993">
		<tag k="name" v="Osplienget" />
		<tag k="natural" v="wetland" />
		<tag k="ssr:stedsnr" v="216773" />
	</node>
	<node id="-864530" lat="63.3111083339" lon="9.85411667664">
		<tag k="name" v="Rianmyra" />
		<tag k="place" v="locality" />
		<tag k="ssr:stedsnr" v="216408" />
	</node>
	<node id="-864516" lat="63.2915611141" lon="9.75225000097">
		<tag k="historic" v="shieling" />
		<tag k="name" v="Svelstadsætra" />
		<tag k="place" v="locality" />
		<tag k="ssr:stedsnr" v="398219" />
	</node>
	<node id="-864515" lat="63.2739055527" lon="9.67217778624">
		<tag k="name" v="Håggåmyra" />
		<tag k="natural" v="wetland" />
		<tag k="ssr:stedsnr" v="156799" />
	</node>
	<node id="-864514" lat="63.3141138869" lon="9.66534166085">
		<tag k="name" v="Kvernhusslættet" />
		<tag k="place" v="locality" />
		<tag k="ssr:stedsnr" v="884990" />
	</node>
	<node id="-864509" lat="63.2536277761" lon="9.60915276879">
		<tag k="name" v="Båtstøkroken" />
		<tag k="place" v="locality" />
		<tag k="ssr:stedsnr" v="156790" />
	</node>
	<node id="-863274" lat="63.3012388902" lon="9.73453889668">
		<tag k="name" v="Blomslættet" />
		<tag k="place" v="locality" />
		<tag k="ssr:stedsnr" v="701260" />
	</node>
	<node id="-862591" lat="63.3287777759" lon="9.82647222893">
		<tag k="name" v="Høldansen" />
		<tag k="place" v="locality" />
		<tag k="ssr:stedsnr" v="883538" />
	</node>
	<node id="-864497" lat="63.3356027771" lon="9.85617777042">
		<tag k="name" v="Vika" />
		<tag k="place" v="locality" />
		<tag k="ssr:stedsnr" v="519451" />
	</node>
	<node id="-862928" lat="63.3166694438" lon="9.65303611557">
		<tag k="name" v="Bergslættet" />
		<tag k="place" v="locality" />
		<tag k="ssr:stedsnr" v="459990" />
	</node>
	<node id="-864475" lat="63.3096583324" lon="9.75801388113">
		<tag k="name" v="Råmolykkja" />
		<tag k="place" v="locality" />
		<tag k="ssr:stedsnr" v="398207" />
	</node>
	<node id="-864471" lat="63.1877833296" lon="9.7924861092">
		<tag k="name" v="Øyamoen" />
		<tag k="place" v="locality" />
		<tag k="ssr:stedsnr" v="96543" />
	</node>
	<node id="-864463" lat="63.2503833339" lon="9.68427778236">
		<tag k="name" v="Grindamyran" />
		<tag k="natural" v="wetland" />
		<tag k="ssr:stedsnr" v="156772" />
	</node>
	<node id="-864451" lat="63.1680750002" lon="9.78067222866">
		<tag k="name" v="Langmyra" />
		<tag k="natural" v="wetland" />
		<tag k="ssr:stedsnr" v="96545" />
	</node>
	<node id="-864448" lat="63.2181861092" lon="9.69998333306">
		<tag k="historic" v="shieling" />
		<tag k="name" v="Nordgardsætra" />
		<tag k="place" v="locality" />
		<tag k="ssr:stedsnr" v="884099" />
	</node>
	<node id="-864446" lat="63.2357722192" lon="9.45040834139">
		<tag k="landuse" v="meadow" />
		<tag k="name" v="Kvålsslættet" />
		<tag k="ssr:stedsnr" v="484527" />
	</node>
	<node id="-864443" lat="63.3241416699" lon="9.67223055099">
		<tag k="name" v="Songliurda" />
		<tag k="natural" v="scree" />
		<tag k="ssr:stedsnr" v="945901" />
	</node>
	<node id="-864430" lat="63.3002694415" lon="9.65022778159">
		<tag k="name" v="Orrleikmyra" />
		<tag k="natural" v="wetland" />
		<tag k="ssr:stedsnr" v="823999" />
	</node>
	<node id="-864427" lat="63.3242083305" lon="9.75051666892">
		<tag k="name" v="Våmyra" />
		<tag k="natural" v="wetland" />
		<tag k="ssr:stedsnr" v="558289" />
	</node>
	<node id="-864424" lat="63.2129611097" lon="9.68757222332">
		<tag k="name" v="Gåstjønnmyra" />
		<tag k="natural" v="wetland" />
		<tag k="ssr:stedsnr" v="34849" />
	</node>
	<node id="-864421" lat="63.2121888881" lon="9.69254166231">
		<tag k="name" v="Skjennstøet" />
		<tag k="place" v="locality" />
		<tag k="ssr:stedsnr" v="34850" />
	</node>
	<node id="-864414" lat="63.3182138869" lon="9.56976387969">
		<tag k="name" v="Svarttjønnslættet" />
		<tag k="place" v="locality" />
		<tag k="ssr:stedsnr" v="884977" />
	</node>
	<node id="-864407" lat="63.4262555545" lon="9.91267222599">
		<tag k="name" v="Aunsætermyra" />
		<tag k="natural" v="wetland" />
		<tag k="ssr:stedsnr" v="458708" />
	</node>
	<node id="-864404" lat="63.3102944485" lon="9.7972833286">
		<tag k="name" v="Hovreina" />
		<tag k="place" v="locality" />
		<tag k="ssr:stedsnr" v="823174" />
	</node>
	<node id="-864393" lat="63.221969444" lon="9.63317499009">
		<tag k="name" v="Vassliteigen" />
		<tag k="place" v="locality" />
		<tag k="ssr:stedsnr" v="641836" />
	</node>
	<node id="-864382" lat="63.2162666643" lon="9.62369444796">
		<tag k="name" v="Slettvoll-lykkja" />
		<tag k="place" v="locality" />
		<tag k="ssr:stedsnr" v="641833" />
	</node>
	<node id="-864373" lat="63.1891583297" lon="9.76957777287">
		<tag k="name" v="Sarahåggån" />
		<tag k="place" v="locality" />
		<tag k="ssr:stedsnr" v="945920" />
	</node>
	<node id="-864352" lat="63.19969167" lon="9.57045556296">
		<tag k="name" v="Litlringen" />
		<tag k="place" v="locality" />
		<tag k="ssr:stedsnr" v="641791" />
	</node>
	<node id="-864341" lat="63.3220361152" lon="9.80292222706">
		<tag k="historic" v="shieling" />
		<tag k="name" v="Mjølkvollen" />
		<tag k="place" v="locality" />
		<tag k="ssr:stedsnr" v="398170" />
	</node>
	<node id="-864337" lat="63.3375833313" lon="9.8047527754">
		<tag k="name" v="Kårlykkja" />
		<tag k="place" v="locality" />
		<tag k="ssr:stedsnr" v="883188" />
	</node>
	<node id="-864336" lat="63.3442305597" lon="9.72029722031">
		<tag k="name" v="Furslættet" />
		<tag k="place" v="locality" />
		<tag k="ssr:stedsnr" v="823131" />
	</node>
	<node id="-864335" lat="63.4106611076" lon="9.94217777888">
		<tag k="name" v="Kringlotmyra" />
		<tag k="natural" v="wetland" />
		<tag k="ssr:stedsnr" v="458704" />
	</node>
	<node id="-864331" lat="63.323336114" lon="9.81698610248">
		<tag k="name" v="Gjelen" />
		<tag k="place" v="locality" />
		<tag k="ssr:stedsnr" v="398156" />
	</node>
	<node id="-864330" lat="63.2702888908" lon="9.74777221893">
		<tag k="name" v="Polmyra" />
		<tag k="natural" v="wetland" />
		<tag k="ssr:stedsnr" v="155009" />
	</node>
	<node id="-864328" lat="63.3938111136" lon="9.93471666576">
		<tag k="name" v="Sætermyran" />
		<tag k="natural" v="wetland" />
		<tag k="ssr:stedsnr" v="458679" />
	</node>
	<node id="-864318" lat="63.3450305584" lon="9.71375834162">
		<tag k="name" v="Rovsslættet" />
		<tag k="place" v="locality" />
		<tag k="ssr:stedsnr" v="944143" />
	</node>
	<node id="-864314" lat="63.2463527762" lon="9.60482500587">
		<tag k="name" v="Eidesøyan" />
		<tag k="place" v="locality" />
		<tag k="ssr:stedsnr" v="156732" />
	</node>
	<node id="-864313" lat="63.3624416659" lon="9.87794165852">
		<tag k="name" v="Brandserommet" />
		<tag k="place" v="locality" />
		<tag k="ssr:stedsnr" v="458683" />
	</node>
	<node id="-862558" lat="63.3430027782" lon="9.87583333593">
		<tag k="name" v="Myraplassen" />
		<tag k="place" v="locality" />
		<tag k="ssr:stedsnr" v="944458" />
	</node>
	<node id="-864995" lat="63.2130111076" lon="9.84314167007">
		<tag k="name" v="Nordalykkja" />
		<tag k="place" v="locality" />
		<tag k="ssr:stedsnr" v="883393" />
	</node>
	<node id="-864299" lat="63.2259472244" lon="9.73988054864">
		<tag k="historic" v="shieling" />
		<tag k="name" v="Nerbysætra" />
		<tag k="place" v="locality" />
		<tag k="ssr:stedsnr" v="277095" />
	</node>
	<node id="-864293" lat="63.1926388884" lon="9.53768611723">
		<tag k="name" v="Utigjerdet" />
		<tag k="place" v="locality" />
		<tag k="ssr:stedsnr" v="156724" />
	</node>
	<node id="-864288" lat="63.2917138883" lon="9.60859443725">
		<tag k="name" v="Dalsmyra" />
		<tag k="natural" v="wetland" />
		<tag k="ssr:stedsnr" v="884946" />
	</node>
	<node id="-864285" lat="63.3413138896" lon="9.72519722106">
		<tag k="name" v="Reitslættet" />
		<tag k="place" v="locality" />
		<tag k="ssr:stedsnr" v="883163" />
	</node>
	<node id="-862554" lat="63.1672888914" lon="9.8100138793">
		<tag k="name" v="Beverlimyran" />
		<tag k="natural" v="wetland" />
		<tag k="ssr:stedsnr" v="96819" />
	</node>
	<node id="-864274" lat="63.3828777767" lon="9.94528333224">
		<tag k="name" v="Hanshåggån" />
		<tag k="place" v="locality" />
		<tag k="ssr:stedsnr" v="216347" />
	</node>
	<node id="-864271" lat="63.2378888901" lon="9.76381111665">
		<tag k="name" v="Kvålsøya" />
		<tag k="place" v="locality" />
		<tag k="ssr:stedsnr" v="823110" />
	</node>
	<node id="-864268" lat="63.1958000035" lon="9.85695833226">
		<tag k="name" v="Grøsmyra" />
		<tag k="natural" v="wetland" />
		<tag k="ssr:stedsnr" v="337334" />
	</node>
	<node id="-864267" lat="63.258463889" lon="9.65250277194">
		<tag k="historic" v="shieling" />
		<tag k="name" v="Bakkvollan" />
		<tag k="place" v="locality" />
		<tag k="ssr:stedsnr" v="641766" />
	</node>
	<node id="-864263" lat="63.1756611097" lon="9.84051388199">
		<tag k="name" v="Stormyra" />
		<tag k="natural" v="wetland" />
		<tag k="ssr:stedsnr" v="337346" />
	</node>
	<node id="-864262" lat="63.3443277809" lon="9.83317500896">
		<tag k="name" v="Tørresmyra" />
		<tag k="natural" v="wetland" />
		<tag k="ssr:stedsnr" v="519391" />
	</node>
	<node id="-864261" lat="63.2649888894" lon="9.8703583298">
		<tag k="name" v="Spjøtliaunet" />
		<tag k="place" v="locality" />
		<tag k="ssr:stedsnr" v="579318" />
	</node>
	<node id="-864260" lat="63.2171916696" lon="9.59489444801">
		<tag k="name" v="Kalvtrøa" />
		<tag k="place" v="locality" />
		<tag k="ssr:stedsnr" v="945842" />
	</node>
</osm>
