<?xml version="1.0" encoding="UTF-8"?>
<osm version="0.6" generator="osmapis">
	<node lat="60.67845277866615" lon="11.833133341334607" id="-39889">
		<tag k="name" v="Våler kommune" />
		<tag k="ssr:date" v="2019-12-27" />
		<tag k="ssr:gruppe" v="administrativeIndelinger" />
		<tag k="ssr:hovedgruppe" v="offentligAdministrasjon" />
		<tag k="ssr:stedsnr" v="86059" />
		<tag k="ssr:type" v="kommune" />
	</node>
	<node lat="60.7288601690365" lon="11.812094865426905" id="-40612">
		<tag k="name" v="Lundsvingen" />
		<tag k="ssr:date" v="2019-12-27" />
		<tag k="ssr:gruppe" v="veg" />
		<tag k="ssr:hovedgruppe" v="infrastruktur" />
		<tag k="ssr:stedsnr" v="1004138" />
		<tag k="ssr:type" v="adressenavn" />
	</node>
	<node lat="60.7275427465057" lon="11.811586331998607" id="-40613">
		<tag k="name" v="Lundbakken" />
		<tag k="ssr:date" v="2019-12-27" />
		<tag k="ssr:gruppe" v="veg" />
		<tag k="ssr:hovedgruppe" v="infrastruktur" />
		<tag k="ssr:stedsnr" v="1004141" />
		<tag k="ssr:type" v="adressenavn" />
	</node>
	<node lat="60.74000695806906" lon="11.635623261599264" id="-40614">
		<tag k="name" v="Bjølsetsætervegen" />
		<tag k="ssr:date" v="2019-12-27" />
		<tag k="ssr:gruppe" v="veg" />
		<tag k="ssr:hovedgruppe" v="infrastruktur" />
		<tag k="ssr:stedsnr" v="1004144" />
		<tag k="ssr:type" v="adressenavn" />
	</node>
	<node lat="60.619675120116455" lon="11.804758081678125" id="-40615">
		<tag k="name" v="Vestsjøvegen" />
		<tag k="ssr:date" v="2019-12-27" />
		<tag k="ssr:gruppe" v="veg" />
		<tag k="ssr:hovedgruppe" v="infrastruktur" />
		<tag k="ssr:stedsnr" v="1004146" />
		<tag k="ssr:type" v="adressenavn" />
	</node>
	<node lat="60.74805986066933" lon="11.854132131848031" id="-40616">
		<tag k="name" v="Alf Lundebys veg" />
		<tag k="ssr:date" v="2019-12-27" />
		<tag k="ssr:gruppe" v="veg" />
		<tag k="ssr:hovedgruppe" v="infrastruktur" />
		<tag k="ssr:stedsnr" v="1004108" />
		<tag k="ssr:type" v="adressenavn" />
	</node>
	<node lat="60.98115103331993" lon="12.22601461523079" id="-40617">
		<tag k="name" v="Enbergsvegen" />
		<tag k="ssr:date" v="2019-12-27" />
		<tag k="ssr:gruppe" v="veg" />
		<tag k="ssr:hovedgruppe" v="infrastruktur" />
		<tag k="ssr:stedsnr" v="1004110" />
		<tag k="ssr:type" v="adressenavn" />
	</node>
	<node lat="60.72242129040014" lon="11.795023365374304" id="-40618">
		<tag k="name" v="Karl Rønnings veg" />
		<tag k="ssr:date" v="2019-12-27" />
		<tag k="ssr:gruppe" v="veg" />
		<tag k="ssr:hovedgruppe" v="infrastruktur" />
		<tag k="ssr:stedsnr" v="1004118" />
		<tag k="ssr:type" v="adressenavn" />
	</node>
	<node lat="60.72532076977747" lon="11.798037051846864" id="-40619">
		<tag k="name" v="Mjølkegutua" />
		<tag k="ssr:date" v="2019-12-27" />
		<tag k="ssr:gruppe" v="veg" />
		<tag k="ssr:hovedgruppe" v="infrastruktur" />
		<tag k="ssr:stedsnr" v="1004121" />
		<tag k="ssr:type" v="adressenavn" />
	</node>
	<node lat="60.72504873985024" lon="11.799667576104953" id="-40620">
		<tag k="name" v="Lundebyhagan" />
		<tag k="ssr:date" v="2019-12-27" />
		<tag k="ssr:gruppe" v="veg" />
		<tag k="ssr:hovedgruppe" v="infrastruktur" />
		<tag k="ssr:stedsnr" v="1004125" />
		<tag k="ssr:type" v="adressenavn" />
	</node>
	<node lat="60.57862810815894" lon="11.814907391409031" id="-40621">
		<tag k="name" v="Åsnesmangen" />
		<tag k="ssr:date" v="2019-12-27" />
		<tag k="ssr:gruppe" v="veg" />
		<tag k="ssr:hovedgruppe" v="infrastruktur" />
		<tag k="ssr:stedsnr" v="1004128" />
		<tag k="ssr:type" v="adressenavn" />
	</node>
	<node lat="60.7111503279126" lon="11.678458576912247" id="-40622">
		<tag k="name" v="Starrkilvegen" />
		<tag k="ssr:date" v="2019-12-27" />
		<tag k="ssr:gruppe" v="veg" />
		<tag k="ssr:hovedgruppe" v="infrastruktur" />
		<tag k="ssr:stedsnr" v="1004131" />
		<tag k="ssr:type" v="adressenavn" />
	</node>
	<node lat="60.73061629416592" lon="11.81611517579816" id="-40623">
		<tag k="name" v="Lundlia" />
		<tag k="ssr:date" v="2019-12-27" />
		<tag k="ssr:gruppe" v="veg" />
		<tag k="ssr:hovedgruppe" v="infrastruktur" />
		<tag k="ssr:stedsnr" v="1004134" />
		<tag k="ssr:type" v="adressenavn" />
	</node>
	<node lat="60.637531636186786" lon="11.709302246540679" id="-40624">
		<tag k="name" v="Toterudsætra" />
		<tag k="ssr:date" v="2019-12-27" />
		<tag k="ssr:gruppe" v="veg" />
		<tag k="ssr:hovedgruppe" v="infrastruktur" />
		<tag k="ssr:stedsnr" v="1004187" />
		<tag k="ssr:type" v="adressenavn" />
	</node>
	<node lat="60.65246667618618" lon="11.693887797244598" id="-40625">
		<tag k="name" v="Rudsætra" />
		<tag k="ssr:date" v="2019-12-27" />
		<tag k="ssr:gruppe" v="veg" />
		<tag k="ssr:hovedgruppe" v="infrastruktur" />
		<tag k="ssr:stedsnr" v="1004190" />
		<tag k="ssr:type" v="adressenavn" />
	</node>
	<node lat="60.62206541568292" lon="11.722264618260418" id="-40626">
		<tag k="name" v="Tårnebysætervegen" />
		<tag k="ssr:date" v="2019-12-27" />
		<tag k="ssr:gruppe" v="veg" />
		<tag k="ssr:hovedgruppe" v="infrastruktur" />
		<tag k="ssr:stedsnr" v="1004192" />
		<tag k="ssr:type" v="adressenavn" />
	</node>
	<node lat="60.587248944904104" lon="11.7969248921565" id="-40627">
		<tag k="name" v="Langåsen" />
		<tag k="ssr:date" v="2019-12-27" />
		<tag k="ssr:gruppe" v="veg" />
		<tag k="ssr:hovedgruppe" v="infrastruktur" />
		<tag k="ssr:stedsnr" v="1004194" />
		<tag k="ssr:type" v="adressenavn" />
	</node>
	<node lat="60.57884105545109" lon="11.786872508845258" id="-40628">
		<tag k="name" v="Søndre Vålmangen" />
		<tag k="ssr:date" v="2019-12-27" />
		<tag k="ssr:gruppe" v="veg" />
		<tag k="ssr:hovedgruppe" v="infrastruktur" />
		<tag k="ssr:stedsnr" v="1004196" />
		<tag k="ssr:type" v="adressenavn" />
	</node>
	<node lat="60.62110496442703" lon="11.777815234611097" id="-40629">
		<tag k="name" v="Vålmangvegen" />
		<tag k="ssr:date" v="2019-12-27" />
		<tag k="ssr:gruppe" v="veg" />
		<tag k="ssr:hovedgruppe" v="infrastruktur" />
		<tag k="ssr:stedsnr" v="1004198" />
		<tag k="ssr:type" v="adressenavn" />
	</node>
	<node lat="60.58976442096684" lon="11.76817264609007" id="-40630">
		<tag k="name" v="Buråsvegen" />
		<tag k="ssr:date" v="2019-12-27" />
		<tag k="ssr:gruppe" v="veg" />
		<tag k="ssr:hovedgruppe" v="infrastruktur" />
		<tag k="ssr:stedsnr" v="1004201" />
		<tag k="ssr:type" v="adressenavn" />
	</node>
	<node lat="60.75937297279257" lon="11.825410986316175" id="-40631">
		<tag k="name" v="Sørsåsvegen" />
		<tag k="ssr:date" v="2019-12-27" />
		<tag k="ssr:gruppe" v="veg" />
		<tag k="ssr:hovedgruppe" v="infrastruktur" />
		<tag k="ssr:stedsnr" v="1004204" />
		<tag k="ssr:type" v="adressenavn" />
	</node>
	<node lat="60.77224026114365" lon="11.877165746934697" id="-40632">
		<tag k="name" v="Budalsvegene" />
		<tag k="ssr:date" v="2019-12-27" />
		<tag k="ssr:gruppe" v="veg" />
		<tag k="ssr:hovedgruppe" v="infrastruktur" />
		<tag k="ssr:stedsnr" v="1004206" />
		<tag k="ssr:type" v="adressenavn" />
	</node>
	<node lat="60.624226667802375" lon="11.682727312266234" id="-40633">
		<tag k="name" v="Svennebysætervegen" />
		<tag k="ssr:date" v="2019-12-27" />
		<tag k="ssr:gruppe" v="veg" />
		<tag k="ssr:hovedgruppe" v="infrastruktur" />
		<tag k="ssr:stedsnr" v="1004210" />
		<tag k="ssr:type" v="adressenavn" />
	</node>
	<node lat="60.62419401608301" lon="11.771547801164655" id="-40634">
		<tag k="name" v="Nysætervegen" />
		<tag k="ssr:date" v="2019-12-27" />
		<tag k="ssr:gruppe" v="veg" />
		<tag k="ssr:hovedgruppe" v="infrastruktur" />
		<tag k="ssr:stedsnr" v="1004151" />
		<tag k="ssr:type" v="adressenavn" />
	</node>
	<node lat="60.59915644255308" lon="11.721096172562623" id="-40635">
		<tag k="name" v="Fjellsætervegen" />
		<tag k="ssr:date" v="2019-12-27" />
		<tag k="ssr:gruppe" v="veg" />
		<tag k="ssr:hovedgruppe" v="infrastruktur" />
		<tag k="ssr:stedsnr" v="1004155" />
		<tag k="ssr:type" v="adressenavn" />
	</node>
	<node lat="60.70624798123601" lon="11.748298162887478" id="-40636">
		<tag k="name" v="Drykkjeåvegen" />
		<tag k="ssr:date" v="2019-12-27" />
		<tag k="ssr:gruppe" v="veg" />
		<tag k="ssr:hovedgruppe" v="infrastruktur" />
		<tag k="ssr:stedsnr" v="1004157" />
		<tag k="ssr:type" v="adressenavn" />
	</node>
	<node lat="60.73580905851757" lon="11.648796980376948" id="-40637">
		<tag k="name" v="Sjøvegen" />
		<tag k="ssr:date" v="2019-12-27" />
		<tag k="ssr:gruppe" v="veg" />
		<tag k="ssr:hovedgruppe" v="infrastruktur" />
		<tag k="ssr:stedsnr" v="1004160" />
		<tag k="ssr:type" v="adressenavn" />
	</node>
	<node lat="60.72387736628946" lon="11.642784105812972" id="-40638">
		<tag k="name" v="Grautoddvegen" />
		<tag k="ssr:date" v="2019-12-27" />
		<tag k="ssr:gruppe" v="veg" />
		<tag k="ssr:hovedgruppe" v="infrastruktur" />
		<tag k="ssr:stedsnr" v="1004165" />
		<tag k="ssr:type" v="adressenavn" />
	</node>
	<node lat="60.72931006964932" lon="11.743190214209184" id="-40639">
		<tag k="name" v="Nordsætervegen" />
		<tag k="ssr:date" v="2019-12-27" />
		<tag k="ssr:gruppe" v="veg" />
		<tag k="ssr:hovedgruppe" v="infrastruktur" />
		<tag k="ssr:stedsnr" v="1004169" />
		<tag k="ssr:type" v="adressenavn" />
	</node>
	<node lat="60.620708768491916" lon="11.706500529910405" id="-40640">
		<tag k="name" v="Nordre Eidsmangen" />
		<tag k="ssr:date" v="2019-12-27" />
		<tag k="ssr:gruppe" v="veg" />
		<tag k="ssr:hovedgruppe" v="infrastruktur" />
		<tag k="ssr:stedsnr" v="1004173" />
		<tag k="ssr:type" v="adressenavn" />
	</node>
	<node lat="60.61842892781689" lon="11.702088484497954" id="-40641">
		<tag k="name" v="Eidsmangvegen" />
		<tag k="ssr:date" v="2019-12-27" />
		<tag k="ssr:gruppe" v="veg" />
		<tag k="ssr:hovedgruppe" v="infrastruktur" />
		<tag k="ssr:stedsnr" v="1004176" />
		<tag k="ssr:type" v="adressenavn" />
	</node>
	<node lat="60.690071081227856" lon="11.754432434060774" id="-40642">
		<tag k="name" v="Gjerdrumsætervegen" />
		<tag k="ssr:date" v="2019-12-27" />
		<tag k="ssr:gruppe" v="veg" />
		<tag k="ssr:hovedgruppe" v="infrastruktur" />
		<tag k="ssr:stedsnr" v="1004178" />
		<tag k="ssr:type" v="adressenavn" />
	</node>
	<node lat="60.675280426488136" lon="11.682816452801752" id="-40643">
		<tag k="name" v="Velt-Bronkvegen" />
		<tag k="ssr:date" v="2019-12-27" />
		<tag k="ssr:gruppe" v="veg" />
		<tag k="ssr:hovedgruppe" v="infrastruktur" />
		<tag k="ssr:stedsnr" v="1004180" />
		<tag k="ssr:type" v="adressenavn" />
	</node>
	<node lat="60.628795484770386" lon="11.733038310434967" id="-40644">
		<tag k="name" v="Sætersjøvegen" />
		<tag k="ssr:date" v="2019-12-27" />
		<tag k="ssr:gruppe" v="veg" />
		<tag k="ssr:hovedgruppe" v="infrastruktur" />
		<tag k="ssr:stedsnr" v="1004185" />
		<tag k="ssr:type" v="adressenavn" />
	</node>
	<node lat="60.61909338023638" lon="11.781768098695045" id="-40645">
		<tag k="name" v="Solør-Odalsvegen" />
		<tag k="ssr:date" v="2019-12-27" />
		<tag k="ssr:gruppe" v="veg" />
		<tag k="ssr:hovedgruppe" v="infrastruktur" />
		<tag k="ssr:stedsnr" v="1004213" />
		<tag k="ssr:type" v="adressenavn" />
	</node>
	<node lat="60.88339399605204" lon="12.228988501091152" id="-40646">
		<tag k="name" v="Gravbergsgården" />
		<tag k="ssr:date" v="2019-12-27" />
		<tag k="ssr:gruppe" v="veg" />
		<tag k="ssr:hovedgruppe" v="infrastruktur" />
		<tag k="ssr:stedsnr" v="1004215" />
		<tag k="ssr:type" v="adressenavn" />
	</node>
	<node lat="60.88095675821119" lon="12.240560403810575" id="-40647">
		<tag k="name" v="Bergetvegen" />
		<tag k="ssr:date" v="2019-12-27" />
		<tag k="ssr:gruppe" v="veg" />
		<tag k="ssr:hovedgruppe" v="infrastruktur" />
		<tag k="ssr:stedsnr" v="1004218" />
		<tag k="ssr:type" v="adressenavn" />
	</node>
	<node lat="60.86808539297734" lon="12.26402471737189" id="-40648">
		<tag k="name" v="Halbergsvegen" />
		<tag k="ssr:date" v="2019-12-27" />
		<tag k="ssr:gruppe" v="veg" />
		<tag k="ssr:hovedgruppe" v="infrastruktur" />
		<tag k="ssr:stedsnr" v="1004222" />
		<tag k="ssr:type" v="adressenavn" />
	</node>
	<node lat="60.84991616077254" lon="12.30250874308243" id="-40649">
		<tag k="name" v="Haltorpvegen" />
		<tag k="ssr:date" v="2019-12-27" />
		<tag k="ssr:gruppe" v="veg" />
		<tag k="ssr:hovedgruppe" v="infrastruktur" />
		<tag k="ssr:stedsnr" v="1004224" />
		<tag k="ssr:type" v="adressenavn" />
	</node>
	<node lat="60.83953964325581" lon="12.117128881356468" id="-40650">
		<tag k="name" v="Vestre Bølsjøsætra" />
		<tag k="ssr:date" v="2019-12-27" />
		<tag k="ssr:gruppe" v="veg" />
		<tag k="ssr:hovedgruppe" v="infrastruktur" />
		<tag k="ssr:stedsnr" v="1004226" />
		<tag k="ssr:type" v="adressenavn" />
	</node>
	<node lat="60.83941338860099" lon="12.117881209855325" id="-40651">
		<tag k="name" v="Østre Bølsjøsætra" />
		<tag k="ssr:date" v="2019-12-27" />
		<tag k="ssr:gruppe" v="veg" />
		<tag k="ssr:hovedgruppe" v="infrastruktur" />
		<tag k="ssr:stedsnr" v="1004229" />
		<tag k="ssr:type" v="adressenavn" />
	</node>
	<node lat="60.87811590033303" lon="12.212290044332075" id="-40652">
		<tag k="name" v="Texas" />
		<tag k="ssr:date" v="2019-12-27" />
		<tag k="ssr:gruppe" v="veg" />
		<tag k="ssr:hovedgruppe" v="infrastruktur" />
		<tag k="ssr:stedsnr" v="1004231" />
		<tag k="ssr:type" v="adressenavn" />
	</node>
	<node lat="60.88334979152678" lon="12.224932662338016" id="-40653">
		<tag k="name" v="Madsbergsvegen" />
		<tag k="ssr:date" v="2019-12-27" />
		<tag k="ssr:gruppe" v="veg" />
		<tag k="ssr:hovedgruppe" v="infrastruktur" />
		<tag k="ssr:stedsnr" v="1004235" />
		<tag k="ssr:type" v="adressenavn" />
	</node>
	<node lat="60.69917843965438" lon="11.931016505768827" id="-40654">
		<tag k="name" v="Nordermovegen" />
		<tag k="ssr:date" v="2019-12-27" />
		<tag k="ssr:gruppe" v="veg" />
		<tag k="ssr:hovedgruppe" v="infrastruktur" />
		<tag k="ssr:stedsnr" v="1005188" />
		<tag k="ssr:type" v="adressenavn" />
	</node>
	<node lat="60.67363434840109" lon="11.83926942616629" id="-40655">
		<tag k="name" v="Sagerudsvingen" />
		<tag k="ssr:date" v="2019-12-27" />
		<tag k="ssr:gruppe" v="veg" />
		<tag k="ssr:hovedgruppe" v="infrastruktur" />
		<tag k="ssr:stedsnr" v="1005338" />
		<tag k="ssr:type" v="adressenavn" />
	</node>
	<node lat="60.670152155111055" lon="11.832567470207742" id="-40656">
		<tag k="name" v="Børsemakervegen" />
		<tag k="ssr:date" v="2019-12-27" />
		<tag k="ssr:gruppe" v="veg" />
		<tag k="ssr:hovedgruppe" v="infrastruktur" />
		<tag k="ssr:stedsnr" v="1005341" />
		<tag k="ssr:type" v="adressenavn" />
	</node>
	<node lat="60.670431931124284" lon="11.831138905949706" id="-40657">
		<tag k="name" v="Glåmvegen" />
		<tag k="ssr:date" v="2019-12-27" />
		<tag k="ssr:gruppe" v="veg" />
		<tag k="ssr:hovedgruppe" v="infrastruktur" />
		<tag k="ssr:stedsnr" v="1005343" />
		<tag k="ssr:type" v="adressenavn" />
	</node>
	<node lat="60.66763500757051" lon="11.83392471788101" id="-40658">
		<tag k="name" v="Stabburbakken" />
		<tag k="ssr:date" v="2019-12-27" />
		<tag k="ssr:gruppe" v="veg" />
		<tag k="ssr:hovedgruppe" v="infrastruktur" />
		<tag k="ssr:stedsnr" v="1005349" />
		<tag k="ssr:type" v="adressenavn" />
	</node>
	<node lat="60.73267916663372" lon="11.752758049023345" id="-40659">
		<tag k="name" v="Engevegen" />
		<tag k="ssr:date" v="2019-12-27" />
		<tag k="ssr:gruppe" v="veg" />
		<tag k="ssr:hovedgruppe" v="infrastruktur" />
		<tag k="ssr:stedsnr" v="1004790" />
		<tag k="ssr:type" v="adressenavn" />
	</node>
	<node lat="60.63453822665069" lon="11.931103635740726" id="-40660">
		<tag k="name" v="Sjølivegen" />
		<tag k="ssr:date" v="2019-12-27" />
		<tag k="ssr:gruppe" v="veg" />
		<tag k="ssr:hovedgruppe" v="infrastruktur" />
		<tag k="ssr:stedsnr" v="1004793" />
		<tag k="ssr:type" v="adressenavn" />
	</node>
	<node lat="60.63005575678328" lon="11.924132347647154" id="-40661">
		<tag k="name" v="Solørvegen" />
		<tag k="ssr:date" v="2019-12-27" />
		<tag k="ssr:gruppe" v="veg" />
		<tag k="ssr:hovedgruppe" v="infrastruktur" />
		<tag k="ssr:stedsnr" v="1004797" />
		<tag k="ssr:type" v="adressenavn" />
	</node>
	<node lat="60.64862789329939" lon="11.86592363194706" id="-40662">
		<tag k="name" v="Haslemoen" />
		<tag k="ssr:date" v="2019-12-27" />
		<tag k="ssr:gruppe" v="veg" />
		<tag k="ssr:hovedgruppe" v="infrastruktur" />
		<tag k="ssr:stedsnr" v="1004801" />
		<tag k="ssr:type" v="adressenavn" />
	</node>
	<node lat="60.712334585086666" lon="11.769781095327563" id="-40663">
		<tag k="name" v="Torpvegen" />
		<tag k="ssr:date" v="2019-12-27" />
		<tag k="ssr:gruppe" v="veg" />
		<tag k="ssr:hovedgruppe" v="infrastruktur" />
		<tag k="ssr:stedsnr" v="1004804" />
		<tag k="ssr:type" v="adressenavn" />
	</node>
	<node lat="60.70723049045806" lon="11.750174722997121" id="-40664">
		<tag k="name" v="Lauvåsvegen" />
		<tag k="ssr:date" v="2019-12-27" />
		<tag k="ssr:gruppe" v="veg" />
		<tag k="ssr:hovedgruppe" v="infrastruktur" />
		<tag k="ssr:stedsnr" v="1004809" />
		<tag k="ssr:type" v="adressenavn" />
	</node>
	<node lat="60.713125091756986" lon="11.768657269506505" id="-40665">
		<tag k="name" v="Nyvegen" />
		<tag k="ssr:date" v="2019-12-27" />
		<tag k="ssr:gruppe" v="veg" />
		<tag k="ssr:hovedgruppe" v="infrastruktur" />
		<tag k="ssr:stedsnr" v="1004812" />
		<tag k="ssr:type" v="adressenavn" />
	</node>
	<node lat="60.71811588369621" lon="11.761406595328257" id="-40666">
		<tag k="name" v="Bronkavegen" />
		<tag k="ssr:date" v="2019-12-27" />
		<tag k="ssr:gruppe" v="veg" />
		<tag k="ssr:hovedgruppe" v="infrastruktur" />
		<tag k="ssr:stedsnr" v="1004815" />
		<tag k="ssr:type" v="adressenavn" />
	</node>
	<node lat="60.68435464048265" lon="11.78669219878646" id="-40667">
		<tag k="name" v="Monsrudbakken" />
		<tag k="ssr:date" v="2019-12-27" />
		<tag k="ssr:gruppe" v="veg" />
		<tag k="ssr:hovedgruppe" v="infrastruktur" />
		<tag k="ssr:stedsnr" v="1004818" />
		<tag k="ssr:type" v="adressenavn" />
	</node>
	<node lat="60.67856376439279" lon="11.77304006638305" id="-40668">
		<tag k="name" v="Kvernbakkvegen" />
		<tag k="ssr:date" v="2019-12-27" />
		<tag k="ssr:gruppe" v="veg" />
		<tag k="ssr:hovedgruppe" v="infrastruktur" />
		<tag k="ssr:stedsnr" v="1004821" />
		<tag k="ssr:type" v="adressenavn" />
	</node>
	<node lat="60.685710945149275" lon="11.771523575613315" id="-40669">
		<tag k="name" v="Risåsvegen" />
		<tag k="ssr:date" v="2019-12-27" />
		<tag k="ssr:gruppe" v="veg" />
		<tag k="ssr:hovedgruppe" v="infrastruktur" />
		<tag k="ssr:stedsnr" v="1004825" />
		<tag k="ssr:type" v="adressenavn" />
	</node>
	<node lat="60.65026614402775" lon="11.868887328073475" id="-40670">
		<tag k="name" v="Leirvegen" />
		<tag k="ssr:date" v="2019-12-27" />
		<tag k="ssr:gruppe" v="veg" />
		<tag k="ssr:hovedgruppe" v="infrastruktur" />
		<tag k="ssr:stedsnr" v="1004774" />
		<tag k="ssr:type" v="adressenavn" />
	</node>
	<node lat="60.65169849301819" lon="11.860388480539745" id="-40671">
		<tag k="name" v="Tverrvegen" />
		<tag k="ssr:date" v="2019-12-27" />
		<tag k="ssr:gruppe" v="veg" />
		<tag k="ssr:hovedgruppe" v="infrastruktur" />
		<tag k="ssr:stedsnr" v="1004779" />
		<tag k="ssr:type" v="adressenavn" />
	</node>
	<node lat="60.65068228610521" lon="11.87339461964775" id="-40672">
		<tag k="name" v="Kanonvegen" />
		<tag k="ssr:date" v="2019-12-27" />
		<tag k="ssr:gruppe" v="veg" />
		<tag k="ssr:hovedgruppe" v="infrastruktur" />
		<tag k="ssr:stedsnr" v="1004783" />
		<tag k="ssr:type" v="adressenavn" />
	</node>
	<node lat="60.65128249340898" lon="11.823014936205702" id="-40673">
		<tag k="name" v="Rudsvegen" />
		<tag k="ssr:date" v="2019-12-27" />
		<tag k="ssr:gruppe" v="veg" />
		<tag k="ssr:hovedgruppe" v="infrastruktur" />
		<tag k="ssr:stedsnr" v="1004836" />
		<tag k="ssr:type" v="adressenavn" />
	</node>
	<node lat="60.67316432414213" lon="11.800290404334419" id="-40674">
		<tag k="name" v="Vestre sundvegen" />
		<tag k="ssr:date" v="2019-12-27" />
		<tag k="ssr:gruppe" v="veg" />
		<tag k="ssr:hovedgruppe" v="infrastruktur" />
		<tag k="ssr:stedsnr" v="1004840" />
		<tag k="ssr:type" v="adressenavn" />
	</node>
	<node lat="60.680796094672004" lon="11.793235717778991" id="-40675">
		<tag k="name" v="Gjerdrumsvegen" />
		<tag k="ssr:date" v="2019-12-27" />
		<tag k="ssr:gruppe" v="veg" />
		<tag k="ssr:hovedgruppe" v="infrastruktur" />
		<tag k="ssr:stedsnr" v="1004843" />
		<tag k="ssr:type" v="adressenavn" />
	</node>
	<node lat="60.61087571230906" lon="11.91142976920501" id="-40676">
		<tag k="name" v="Vestsidevegen" />
		<tag k="ssr:date" v="2019-12-27" />
		<tag k="ssr:gruppe" v="veg" />
		<tag k="ssr:hovedgruppe" v="infrastruktur" />
		<tag k="ssr:stedsnr" v="1004847" />
		<tag k="ssr:type" v="adressenavn" />
	</node>
	<node lat="60.63048733459132" lon="11.869879043007085" id="-40677">
		<tag k="name" v="Halvorsetvegen" />
		<tag k="ssr:date" v="2019-12-27" />
		<tag k="ssr:gruppe" v="veg" />
		<tag k="ssr:hovedgruppe" v="infrastruktur" />
		<tag k="ssr:stedsnr" v="1004851" />
		<tag k="ssr:type" v="adressenavn" />
	</node>
	<node lat="60.64214384002576" lon="11.819375454053691" id="-40678">
		<tag k="name" v="Gunnarsrudsvegen" />
		<tag k="ssr:date" v="2019-12-27" />
		<tag k="ssr:gruppe" v="veg" />
		<tag k="ssr:hovedgruppe" v="infrastruktur" />
		<tag k="ssr:stedsnr" v="1004854" />
		<tag k="ssr:type" v="adressenavn" />
	</node>
	<node lat="60.64445747066064" lon="11.800649927400052" id="-40679">
		<tag k="name" v="Lauvlivegen" />
		<tag k="ssr:date" v="2019-12-27" />
		<tag k="ssr:gruppe" v="veg" />
		<tag k="ssr:hovedgruppe" v="infrastruktur" />
		<tag k="ssr:stedsnr" v="1004858" />
		<tag k="ssr:type" v="adressenavn" />
	</node>
	<node lat="60.721647956424384" lon="11.792694294674737" id="-40680">
		<tag k="name" v="Glombakken" />
		<tag k="ssr:date" v="2019-12-27" />
		<tag k="ssr:gruppe" v="veg" />
		<tag k="ssr:hovedgruppe" v="infrastruktur" />
		<tag k="ssr:stedsnr" v="1004860" />
		<tag k="ssr:type" v="adressenavn" />
	</node>
	<node lat="60.7290374843576" lon="11.790841170167232" id="-40681">
		<tag k="name" v="Skipperstøvegen" />
		<tag k="ssr:date" v="2019-12-27" />
		<tag k="ssr:gruppe" v="veg" />
		<tag k="ssr:hovedgruppe" v="infrastruktur" />
		<tag k="ssr:stedsnr" v="1004863" />
		<tag k="ssr:type" v="adressenavn" />
	</node>
	<node lat="60.741600167234665" lon="11.769369212449023" id="-40682">
		<tag k="name" v="Stenstøvegen" />
		<tag k="ssr:date" v="2019-12-27" />
		<tag k="ssr:gruppe" v="veg" />
		<tag k="ssr:hovedgruppe" v="infrastruktur" />
		<tag k="ssr:stedsnr" v="1004868" />
		<tag k="ssr:type" v="adressenavn" />
	</node>
	<node lat="60.596181114676284" lon="11.881836045539766" id="-40683">
		<tag k="name" v="Bergesidevegen" />
		<tag k="ssr:date" v="2019-12-27" />
		<tag k="ssr:gruppe" v="veg" />
		<tag k="ssr:hovedgruppe" v="infrastruktur" />
		<tag k="ssr:stedsnr" v="1004870" />
		<tag k="ssr:type" v="adressenavn" />
	</node>
	<node lat="60.711081764758475" lon="11.806905650861587" id="-40684">
		<tag k="name" v="Nordhagamoen" />
		<tag k="ssr:date" v="2019-12-27" />
		<tag k="ssr:gruppe" v="veg" />
		<tag k="ssr:hovedgruppe" v="infrastruktur" />
		<tag k="ssr:stedsnr" v="1004872" />
		<tag k="ssr:type" v="adressenavn" />
	</node>
	<node lat="60.70343887334589" lon="11.809215368035744" id="-40685">
		<tag k="name" v="Damvegen" />
		<tag k="ssr:date" v="2019-12-27" />
		<tag k="ssr:gruppe" v="veg" />
		<tag k="ssr:hovedgruppe" v="infrastruktur" />
		<tag k="ssr:stedsnr" v="1004875" />
		<tag k="ssr:type" v="adressenavn" />
	</node>
	<node lat="60.71150019782862" lon="11.770952386302216" id="-40686">
		<tag k="name" v="Braskereidsvegen" />
		<tag k="ssr:date" v="2019-12-27" />
		<tag k="ssr:gruppe" v="veg" />
		<tag k="ssr:hovedgruppe" v="infrastruktur" />
		<tag k="ssr:stedsnr" v="1004877" />
		<tag k="ssr:type" v="adressenavn" />
	</node>
	<node lat="60.72385028605897" lon="11.799583105544324" id="-40687">
		<tag k="name" v="Elsnesvegen" />
		<tag k="ssr:date" v="2019-12-27" />
		<tag k="ssr:gruppe" v="veg" />
		<tag k="ssr:hovedgruppe" v="infrastruktur" />
		<tag k="ssr:stedsnr" v="1004880" />
		<tag k="ssr:type" v="adressenavn" />
	</node>
	<node lat="60.675455945123026" lon="11.834489359770522" id="-40688">
		<tag k="name" v="Vålbekkdalen" />
		<tag k="ssr:date" v="2019-12-27" />
		<tag k="ssr:gruppe" v="veg" />
		<tag k="ssr:hovedgruppe" v="infrastruktur" />
		<tag k="ssr:stedsnr" v="1004884" />
		<tag k="ssr:type" v="adressenavn" />
	</node>
	<node lat="60.668839796600636" lon="11.835665126697561" id="-40689">
		<tag k="name" v="Tuvrønningsvegen" />
		<tag k="ssr:date" v="2019-12-27" />
		<tag k="ssr:gruppe" v="veg" />
		<tag k="ssr:hovedgruppe" v="infrastruktur" />
		<tag k="ssr:stedsnr" v="1004936" />
		<tag k="ssr:type" v="adressenavn" />
	</node>
	<node lat="60.66884522068477" lon="11.836004863001481" id="-40690">
		<tag k="name" v="Vålertunet" />
		<tag k="ssr:date" v="2019-12-27" />
		<tag k="ssr:gruppe" v="veg" />
		<tag k="ssr:hovedgruppe" v="infrastruktur" />
		<tag k="ssr:stedsnr" v="1004938" />
		<tag k="ssr:type" v="adressenavn" />
	</node>
	<node lat="60.67036163936645" lon="11.835044951274284" id="-40691">
		<tag k="name" v="Vålersenteret" />
		<tag k="ssr:date" v="2019-12-27" />
		<tag k="ssr:gruppe" v="veg" />
		<tag k="ssr:hovedgruppe" v="infrastruktur" />
		<tag k="ssr:stedsnr" v="1004941" />
		<tag k="ssr:type" v="adressenavn" />
	</node>
	<node lat="60.7024119719326" lon="11.792526106017869" id="-40692">
		<tag k="name" v="Knappvegen" />
		<tag k="ssr:date" v="2019-12-27" />
		<tag k="ssr:gruppe" v="veg" />
		<tag k="ssr:hovedgruppe" v="infrastruktur" />
		<tag k="ssr:stedsnr" v="1004829" />
		<tag k="ssr:type" v="adressenavn" />
	</node>
	<node lat="60.64123111620177" lon="11.80169187873699" id="-40693">
		<tag k="name" v="Melsnesvegen" />
		<tag k="ssr:date" v="2019-12-27" />
		<tag k="ssr:gruppe" v="veg" />
		<tag k="ssr:hovedgruppe" v="infrastruktur" />
		<tag k="ssr:stedsnr" v="1004832" />
		<tag k="ssr:type" v="adressenavn" />
	</node>
	<node lat="60.67846932951377" lon="11.844261189356128" id="-40694">
		<tag k="name" v="Blåbærsvingen" />
		<tag k="ssr:date" v="2019-12-27" />
		<tag k="ssr:gruppe" v="veg" />
		<tag k="ssr:hovedgruppe" v="infrastruktur" />
		<tag k="ssr:stedsnr" v="1004887" />
		<tag k="ssr:type" v="adressenavn" />
	</node>
	<node lat="60.67976319646319" lon="11.83394132438311" id="-40695">
		<tag k="name" v="Lønnerudstubben" />
		<tag k="ssr:date" v="2019-12-27" />
		<tag k="ssr:gruppe" v="veg" />
		<tag k="ssr:hovedgruppe" v="infrastruktur" />
		<tag k="ssr:stedsnr" v="1004890" />
		<tag k="ssr:type" v="adressenavn" />
	</node>
	<node lat="60.68071976208188" lon="11.834418866658996" id="-40696">
		<tag k="name" v="Krokenjordet" />
		<tag k="ssr:date" v="2019-12-27" />
		<tag k="ssr:gruppe" v="veg" />
		<tag k="ssr:hovedgruppe" v="infrastruktur" />
		<tag k="ssr:stedsnr" v="1004893" />
		<tag k="ssr:type" v="adressenavn" />
	</node>
	<node lat="60.67807668067868" lon="11.831935096238404" id="-40697">
		<tag k="name" v="Vålbekken" />
		<tag k="ssr:date" v="2019-12-27" />
		<tag k="ssr:gruppe" v="veg" />
		<tag k="ssr:hovedgruppe" v="infrastruktur" />
		<tag k="ssr:stedsnr" v="1004895" />
		<tag k="ssr:type" v="adressenavn" />
	</node>
	<node lat="60.676362519489345" lon="11.836158742238121" id="-40698">
		<tag k="name" v="Stasjonsvegen" />
		<tag k="ssr:date" v="2019-12-27" />
		<tag k="ssr:gruppe" v="veg" />
		<tag k="ssr:hovedgruppe" v="infrastruktur" />
		<tag k="ssr:stedsnr" v="1004897" />
		<tag k="ssr:type" v="adressenavn" />
	</node>
	<node lat="60.65590411694282" lon="11.842042613750047" id="-40699">
		<tag k="name" v="Vålgutua" />
		<tag k="ssr:date" v="2019-12-27" />
		<tag k="ssr:gruppe" v="veg" />
		<tag k="ssr:hovedgruppe" v="infrastruktur" />
		<tag k="ssr:stedsnr" v="1004899" />
		<tag k="ssr:type" v="adressenavn" />
	</node>
	<node lat="60.67566247637255" lon="11.836418009268694" id="-40700">
		<tag k="name" v="Dr. Sjursens veg" />
		<tag k="ssr:date" v="2019-12-27" />
		<tag k="ssr:gruppe" v="veg" />
		<tag k="ssr:hovedgruppe" v="infrastruktur" />
		<tag k="ssr:stedsnr" v="1004901" />
		<tag k="ssr:type" v="adressenavn" />
	</node>
	<node lat="60.67436510116572" lon="11.830654827368845" id="-40701">
		<tag k="name" v="Skolebakken" />
		<tag k="ssr:date" v="2019-12-27" />
		<tag k="ssr:gruppe" v="veg" />
		<tag k="ssr:hovedgruppe" v="infrastruktur" />
		<tag k="ssr:stedsnr" v="1004904" />
		<tag k="ssr:type" v="adressenavn" />
	</node>
	<node lat="60.67556404406818" lon="11.83157726689311" id="-40702">
		<tag k="name" v="Elverhøysvingen" />
		<tag k="ssr:date" v="2019-12-27" />
		<tag k="ssr:gruppe" v="veg" />
		<tag k="ssr:hovedgruppe" v="infrastruktur" />
		<tag k="ssr:stedsnr" v="1004906" />
		<tag k="ssr:type" v="adressenavn" />
	</node>
	<node lat="60.67638287008483" lon="11.830866564814912" id="-40703">
		<tag k="name" v="Sundvegen" />
		<tag k="ssr:date" v="2019-12-27" />
		<tag k="ssr:gruppe" v="veg" />
		<tag k="ssr:hovedgruppe" v="infrastruktur" />
		<tag k="ssr:stedsnr" v="1004908" />
		<tag k="ssr:type" v="adressenavn" />
	</node>
	<node lat="60.65157842908369" lon="11.859250707210126" id="-40704">
		<tag k="name" v="Løytnantvegen" />
		<tag k="ssr:date" v="2019-12-27" />
		<tag k="ssr:gruppe" v="veg" />
		<tag k="ssr:hovedgruppe" v="infrastruktur" />
		<tag k="ssr:stedsnr" v="1004911" />
		<tag k="ssr:type" v="adressenavn" />
	</node>
	<node lat="60.653823959822915" lon="11.85481816458221" id="-40705">
		<tag k="name" v="Kapteinvegen" />
		<tag k="ssr:date" v="2019-12-27" />
		<tag k="ssr:gruppe" v="veg" />
		<tag k="ssr:hovedgruppe" v="infrastruktur" />
		<tag k="ssr:stedsnr" v="1004913" />
		<tag k="ssr:type" v="adressenavn" />
	</node>
	<node lat="60.67251758827609" lon="11.83415467372618" id="-40706">
		<tag k="name" v="Kirkestuvegen" />
		<tag k="ssr:date" v="2019-12-27" />
		<tag k="ssr:gruppe" v="veg" />
		<tag k="ssr:hovedgruppe" v="infrastruktur" />
		<tag k="ssr:stedsnr" v="1004916" />
		<tag k="ssr:type" v="adressenavn" />
	</node>
	<node lat="60.6743860966104" lon="11.831791884883545" id="-40707">
		<tag k="name" v="Kirkemoen" />
		<tag k="ssr:date" v="2019-12-27" />
		<tag k="ssr:gruppe" v="veg" />
		<tag k="ssr:hovedgruppe" v="infrastruktur" />
		<tag k="ssr:stedsnr" v="1004919" />
		<tag k="ssr:type" v="adressenavn" />
	</node>
	<node lat="60.673072144820225" lon="11.830653491244984" id="-40708">
		<tag k="name" v="Skolevegen" />
		<tag k="ssr:date" v="2019-12-27" />
		<tag k="ssr:gruppe" v="veg" />
		<tag k="ssr:hovedgruppe" v="infrastruktur" />
		<tag k="ssr:stedsnr" v="1004921" />
		<tag k="ssr:type" v="adressenavn" />
	</node>
	<node lat="60.66930665911684" lon="11.84321579069986" id="-40709">
		<tag k="name" v="Rivenesvegen" />
		<tag k="ssr:date" v="2019-12-27" />
		<tag k="ssr:gruppe" v="veg" />
		<tag k="ssr:hovedgruppe" v="infrastruktur" />
		<tag k="ssr:stedsnr" v="1004923" />
		<tag k="ssr:type" v="adressenavn" />
	</node>
	<node lat="60.67339697023442" lon="11.833788734342447" id="-40710">
		<tag k="name" v="Rekka" />
		<tag k="ssr:date" v="2019-12-27" />
		<tag k="ssr:gruppe" v="veg" />
		<tag k="ssr:hovedgruppe" v="infrastruktur" />
		<tag k="ssr:stedsnr" v="1004927" />
		<tag k="ssr:type" v="adressenavn" />
	</node>
	<node lat="60.651101930030364" lon="11.858167836202268" id="-40711">
		<tag k="name" v="Storskjæret" />
		<tag k="ssr:date" v="2019-12-27" />
		<tag k="ssr:gruppe" v="veg" />
		<tag k="ssr:hovedgruppe" v="infrastruktur" />
		<tag k="ssr:stedsnr" v="1004929" />
		<tag k="ssr:type" v="adressenavn" />
	</node>
	<node lat="60.65285038393158" lon="11.857895457626146" id="-40712">
		<tag k="name" v="Fenrikvegen" />
		<tag k="ssr:date" v="2019-12-27" />
		<tag k="ssr:gruppe" v="veg" />
		<tag k="ssr:hovedgruppe" v="infrastruktur" />
		<tag k="ssr:stedsnr" v="1004932" />
		<tag k="ssr:type" v="adressenavn" />
	</node>
	<node lat="60.82766897368035" lon="12.043652520222318" id="-40713">
		<tag k="name" v="Holsjøvika" />
		<tag k="ssr:date" v="2019-12-27" />
		<tag k="ssr:gruppe" v="veg" />
		<tag k="ssr:hovedgruppe" v="infrastruktur" />
		<tag k="ssr:stedsnr" v="1004987" />
		<tag k="ssr:type" v="adressenavn" />
	</node>
	<node lat="60.818652233852546" lon="12.060926629388662" id="-40714">
		<tag k="name" v="Knaussjøvegen" />
		<tag k="ssr:date" v="2019-12-27" />
		<tag k="ssr:gruppe" v="veg" />
		<tag k="ssr:hovedgruppe" v="infrastruktur" />
		<tag k="ssr:stedsnr" v="1004990" />
		<tag k="ssr:type" v="adressenavn" />
	</node>
	<node lat="60.78768580061109" lon="12.048255445586246" id="-40715">
		<tag k="name" v="Søndre Fløgen" />
		<tag k="ssr:date" v="2019-12-27" />
		<tag k="ssr:gruppe" v="veg" />
		<tag k="ssr:hovedgruppe" v="infrastruktur" />
		<tag k="ssr:stedsnr" v="1004993" />
		<tag k="ssr:type" v="adressenavn" />
	</node>
	<node lat="60.806350576542435" lon="12.009444767494932" id="-40716">
		<tag k="name" v="Nordre Fløgen" />
		<tag k="ssr:date" v="2019-12-27" />
		<tag k="ssr:gruppe" v="veg" />
		<tag k="ssr:hovedgruppe" v="infrastruktur" />
		<tag k="ssr:stedsnr" v="1004995" />
		<tag k="ssr:type" v="adressenavn" />
	</node>
	<node lat="60.82582134941372" lon="12.025261593568116" id="-40717">
		<tag k="name" v="Kynndalsmoen" />
		<tag k="ssr:date" v="2019-12-27" />
		<tag k="ssr:gruppe" v="veg" />
		<tag k="ssr:hovedgruppe" v="infrastruktur" />
		<tag k="ssr:stedsnr" v="1004998" />
		<tag k="ssr:type" v="adressenavn" />
	</node>
	<node lat="60.82728138047567" lon="12.026971673324216" id="-40718">
		<tag k="name" v="Silkesjøvegen" />
		<tag k="ssr:date" v="2019-12-27" />
		<tag k="ssr:gruppe" v="veg" />
		<tag k="ssr:hovedgruppe" v="infrastruktur" />
		<tag k="ssr:stedsnr" v="1005000" />
		<tag k="ssr:type" v="adressenavn" />
	</node>
	<node lat="60.72095468154191" lon="11.909140805164812" id="-40719">
		<tag k="name" v="Holtsjøvegen" />
		<tag k="ssr:date" v="2019-12-27" />
		<tag k="ssr:gruppe" v="veg" />
		<tag k="ssr:hovedgruppe" v="infrastruktur" />
		<tag k="ssr:stedsnr" v="1005003" />
		<tag k="ssr:type" v="adressenavn" />
	</node>
	<node lat="60.77094259056008" lon="11.926822884264057" id="-40720">
		<tag k="name" v="Tannlia" />
		<tag k="ssr:date" v="2019-12-27" />
		<tag k="ssr:gruppe" v="veg" />
		<tag k="ssr:hovedgruppe" v="infrastruktur" />
		<tag k="ssr:stedsnr" v="1005007" />
		<tag k="ssr:type" v="adressenavn" />
	</node>
	<node lat="60.78479384945747" lon="11.961098558265181" id="-40721">
		<tag k="name" v="Eidsbergsvegen" />
		<tag k="ssr:date" v="2019-12-27" />
		<tag k="ssr:gruppe" v="veg" />
		<tag k="ssr:hovedgruppe" v="infrastruktur" />
		<tag k="ssr:stedsnr" v="1005011" />
		<tag k="ssr:type" v="adressenavn" />
	</node>
	<node lat="60.776233172679234" lon="12.024581044178976" id="-40722">
		<tag k="name" v="Skarderudsætra" />
		<tag k="ssr:date" v="2019-12-27" />
		<tag k="ssr:gruppe" v="veg" />
		<tag k="ssr:hovedgruppe" v="infrastruktur" />
		<tag k="ssr:stedsnr" v="1005015" />
		<tag k="ssr:type" v="adressenavn" />
	</node>
	<node lat="60.752132096299974" lon="11.818518930718001" id="-40723">
		<tag k="name" v="Badarlandet" />
		<tag k="ssr:date" v="2019-12-27" />
		<tag k="ssr:gruppe" v="veg" />
		<tag k="ssr:hovedgruppe" v="infrastruktur" />
		<tag k="ssr:stedsnr" v="1005020" />
		<tag k="ssr:type" v="adressenavn" />
	</node>
	<node lat="60.75937297279257" lon="11.825410986316175" id="-40724">
		<tag k="name" v="Svenskebuvegen" />
		<tag k="ssr:date" v="2019-12-27" />
		<tag k="ssr:gruppe" v="veg" />
		<tag k="ssr:hovedgruppe" v="infrastruktur" />
		<tag k="ssr:stedsnr" v="1005027" />
		<tag k="ssr:type" v="adressenavn" />
	</node>
	<node lat="60.747560511622595" lon="11.868989626312114" id="-40725">
		<tag k="name" v="Kantorivegen" />
		<tag k="ssr:date" v="2019-12-27" />
		<tag k="ssr:gruppe" v="veg" />
		<tag k="ssr:hovedgruppe" v="infrastruktur" />
		<tag k="ssr:stedsnr" v="1005031" />
		<tag k="ssr:type" v="adressenavn" />
	</node>
	<node lat="60.748713071816695" lon="11.882394358252428" id="-40726">
		<tag k="name" v="Knausvegen" />
		<tag k="ssr:date" v="2019-12-27" />
		<tag k="ssr:gruppe" v="veg" />
		<tag k="ssr:hovedgruppe" v="infrastruktur" />
		<tag k="ssr:stedsnr" v="1005034" />
		<tag k="ssr:type" v="adressenavn" />
	</node>
	<node lat="60.70015834740343" lon="11.884427351432208" id="-40727">
		<tag k="name" v="Hammervegen" />
		<tag k="ssr:date" v="2019-12-27" />
		<tag k="ssr:gruppe" v="veg" />
		<tag k="ssr:hovedgruppe" v="infrastruktur" />
		<tag k="ssr:stedsnr" v="1005136" />
		<tag k="ssr:type" v="adressenavn" />
	</node>
	<node lat="60.67115810205871" lon="11.834717597684426" id="-40728">
		<tag k="name" v="Glesmyrvegen" />
		<tag k="ssr:date" v="2019-12-27" />
		<tag k="ssr:gruppe" v="veg" />
		<tag k="ssr:hovedgruppe" v="infrastruktur" />
		<tag k="ssr:stedsnr" v="1004943" />
		<tag k="ssr:type" v="adressenavn" />
	</node>
	<node lat="60.66523819320102" lon="11.834876962993889" id="-40729">
		<tag k="name" v="Kornmagasinvegen" />
		<tag k="ssr:date" v="2019-12-27" />
		<tag k="ssr:gruppe" v="veg" />
		<tag k="ssr:hovedgruppe" v="infrastruktur" />
		<tag k="ssr:stedsnr" v="1004945" />
		<tag k="ssr:type" v="adressenavn" />
	</node>
	<node lat="60.665375216240975" lon="11.837115091204605" id="-40730">
		<tag k="name" v="Tuvjordet" />
		<tag k="ssr:date" v="2019-12-27" />
		<tag k="ssr:gruppe" v="veg" />
		<tag k="ssr:hovedgruppe" v="infrastruktur" />
		<tag k="ssr:stedsnr" v="1004948" />
		<tag k="ssr:type" v="adressenavn" />
	</node>
	<node lat="60.66678626282007" lon="11.836520574996676" id="-40731">
		<tag k="name" v="Vålerstuen" />
		<tag k="ssr:date" v="2019-12-27" />
		<tag k="ssr:gruppe" v="veg" />
		<tag k="ssr:hovedgruppe" v="infrastruktur" />
		<tag k="ssr:stedsnr" v="1004950" />
		<tag k="ssr:type" v="adressenavn" />
	</node>
	<node lat="60.66479639498609" lon="11.830732776590041" id="-40732">
		<tag k="name" v="Vålevegen" />
		<tag k="ssr:date" v="2019-12-27" />
		<tag k="ssr:gruppe" v="veg" />
		<tag k="ssr:hovedgruppe" v="infrastruktur" />
		<tag k="ssr:stedsnr" v="1004952" />
		<tag k="ssr:type" v="adressenavn" />
	</node>
	<node lat="60.83845489560251" lon="12.068425671768761" id="-40733">
		<tag k="name" v="Sørskogbygdvegen" />
		<tag k="ssr:date" v="2019-12-27" />
		<tag k="ssr:gruppe" v="veg" />
		<tag k="ssr:hovedgruppe" v="infrastruktur" />
		<tag k="ssr:stedsnr" v="1004956" />
		<tag k="ssr:type" v="adressenavn" />
	</node>
	<node lat="60.90206778174568" lon="11.989296346752138" id="-40734">
		<tag k="name" v="Åsvegen" />
		<tag k="ssr:date" v="2019-12-27" />
		<tag k="ssr:gruppe" v="veg" />
		<tag k="ssr:hovedgruppe" v="infrastruktur" />
		<tag k="ssr:stedsnr" v="1004958" />
		<tag k="ssr:type" v="adressenavn" />
	</node>
	<node lat="60.85877162706108" lon="12.053998669228175" id="-40735">
		<tag k="name" v="Risbergsvegen" />
		<tag k="ssr:date" v="2019-12-27" />
		<tag k="ssr:gruppe" v="veg" />
		<tag k="ssr:hovedgruppe" v="infrastruktur" />
		<tag k="ssr:stedsnr" v="1004963" />
		<tag k="ssr:type" v="adressenavn" />
	</node>
	<node lat="60.84018309194303" lon="12.109445131375862" id="-40736">
		<tag k="name" v="Nordre Bølsjøvegen" />
		<tag k="ssr:date" v="2019-12-27" />
		<tag k="ssr:gruppe" v="veg" />
		<tag k="ssr:hovedgruppe" v="infrastruktur" />
		<tag k="ssr:stedsnr" v="1004968" />
		<tag k="ssr:type" v="adressenavn" />
	</node>
	<node lat="60.83086039127333" lon="12.034429774283343" id="-40737">
		<tag k="name" v="Silkosvegen" />
		<tag k="ssr:date" v="2019-12-27" />
		<tag k="ssr:gruppe" v="veg" />
		<tag k="ssr:hovedgruppe" v="infrastruktur" />
		<tag k="ssr:stedsnr" v="1004971" />
		<tag k="ssr:type" v="adressenavn" />
	</node>
	<node lat="60.834121479079414" lon="12.040775892109151" id="-40738">
		<tag k="name" v="Rostillevegen" />
		<tag k="ssr:date" v="2019-12-27" />
		<tag k="ssr:gruppe" v="veg" />
		<tag k="ssr:hovedgruppe" v="infrastruktur" />
		<tag k="ssr:stedsnr" v="1004973" />
		<tag k="ssr:type" v="adressenavn" />
	</node>
	<node lat="60.837305827472974" lon="12.06716731537796" id="-40739">
		<tag k="name" v="Rundbergsvegen" />
		<tag k="ssr:date" v="2019-12-27" />
		<tag k="ssr:gruppe" v="veg" />
		<tag k="ssr:hovedgruppe" v="infrastruktur" />
		<tag k="ssr:stedsnr" v="1004976" />
		<tag k="ssr:type" v="adressenavn" />
	</node>
	<node lat="60.82250135872116" lon="12.078548978410739" id="-40740">
		<tag k="name" v="Søndre Bølsjøvegen" />
		<tag k="ssr:date" v="2019-12-27" />
		<tag k="ssr:gruppe" v="veg" />
		<tag k="ssr:hovedgruppe" v="infrastruktur" />
		<tag k="ssr:stedsnr" v="1004978" />
		<tag k="ssr:type" v="adressenavn" />
	</node>
	<node lat="60.828148922077176" lon="12.028055433756547" id="-40741">
		<tag k="name" v="Kynnbrua" />
		<tag k="ssr:date" v="2019-12-27" />
		<tag k="ssr:gruppe" v="veg" />
		<tag k="ssr:hovedgruppe" v="infrastruktur" />
		<tag k="ssr:stedsnr" v="1004981" />
		<tag k="ssr:type" v="adressenavn" />
	</node>
	<node lat="60.83086039127333" lon="12.034429774283343" id="-40742">
		<tag k="name" v="Kynndalsvegen" />
		<tag k="ssr:date" v="2019-12-27" />
		<tag k="ssr:gruppe" v="veg" />
		<tag k="ssr:hovedgruppe" v="infrastruktur" />
		<tag k="ssr:stedsnr" v="1004985" />
		<tag k="ssr:type" v="adressenavn" />
	</node>
	<node lat="60.73017998736624" lon="11.819056018501078" id="-40743">
		<tag k="name" v="Polvegen" />
		<tag k="ssr:date" v="2019-12-27" />
		<tag k="ssr:gruppe" v="veg" />
		<tag k="ssr:hovedgruppe" v="infrastruktur" />
		<tag k="ssr:stedsnr" v="1005036" />
		<tag k="ssr:type" v="adressenavn" />
	</node>
	<node lat="60.72530148758371" lon="11.804101030584238" id="-40744">
		<tag k="name" v="Lundvegen" />
		<tag k="ssr:date" v="2019-12-27" />
		<tag k="ssr:gruppe" v="veg" />
		<tag k="ssr:hovedgruppe" v="infrastruktur" />
		<tag k="ssr:stedsnr" v="1005039" />
		<tag k="ssr:type" v="adressenavn" />
	</node>
	<node lat="60.729112800177866" lon="11.806633253467771" id="-40745">
		<tag k="name" v="Elsetvegen" />
		<tag k="ssr:date" v="2019-12-27" />
		<tag k="ssr:gruppe" v="veg" />
		<tag k="ssr:hovedgruppe" v="infrastruktur" />
		<tag k="ssr:stedsnr" v="1005043" />
		<tag k="ssr:type" v="adressenavn" />
	</node>
	<node lat="60.731493706201164" lon="11.805035103012843" id="-40746">
		<tag k="name" v="Øverbyvegen" />
		<tag k="ssr:date" v="2019-12-27" />
		<tag k="ssr:gruppe" v="veg" />
		<tag k="ssr:hovedgruppe" v="infrastruktur" />
		<tag k="ssr:stedsnr" v="1005047" />
		<tag k="ssr:type" v="adressenavn" />
	</node>
	<node lat="60.733323817229085" lon="11.835852380084775" id="-40747">
		<tag k="name" v="Haugbråtåjordet" />
		<tag k="ssr:date" v="2019-12-27" />
		<tag k="ssr:gruppe" v="veg" />
		<tag k="ssr:hovedgruppe" v="infrastruktur" />
		<tag k="ssr:stedsnr" v="1005052" />
		<tag k="ssr:type" v="adressenavn" />
	</node>
	<node lat="60.73468470388445" lon="11.814631089984356" id="-40748">
		<tag k="name" v="Lundmovegen" />
		<tag k="ssr:date" v="2019-12-27" />
		<tag k="ssr:gruppe" v="veg" />
		<tag k="ssr:hovedgruppe" v="infrastruktur" />
		<tag k="ssr:stedsnr" v="1005055" />
		<tag k="ssr:type" v="adressenavn" />
	</node>
	<node lat="60.734317140616" lon="11.815010709577985" id="-40749">
		<tag k="name" v="Tøråsvegen" />
		<tag k="ssr:date" v="2019-12-27" />
		<tag k="ssr:gruppe" v="veg" />
		<tag k="ssr:hovedgruppe" v="infrastruktur" />
		<tag k="ssr:stedsnr" v="1005057" />
		<tag k="ssr:type" v="adressenavn" />
	</node>
	<node lat="60.73679367772593" lon="11.821676669078629" id="-40750">
		<tag k="name" v="Bureiservegen" />
		<tag k="ssr:date" v="2019-12-27" />
		<tag k="ssr:gruppe" v="veg" />
		<tag k="ssr:hovedgruppe" v="infrastruktur" />
		<tag k="ssr:stedsnr" v="1005062" />
		<tag k="ssr:type" v="adressenavn" />
	</node>
	<node lat="60.74092275378292" lon="11.859148152202625" id="-40751">
		<tag k="name" v="Øvre Tøråsmoen" />
		<tag k="ssr:date" v="2019-12-27" />
		<tag k="ssr:gruppe" v="veg" />
		<tag k="ssr:hovedgruppe" v="infrastruktur" />
		<tag k="ssr:stedsnr" v="1005065" />
		<tag k="ssr:type" v="adressenavn" />
	</node>
	<node lat="60.74763062705506" lon="11.870302750094604" id="-40752">
		<tag k="name" v="Nedre Tøråsmoen" />
		<tag k="ssr:date" v="2019-12-27" />
		<tag k="ssr:gruppe" v="veg" />
		<tag k="ssr:hovedgruppe" v="infrastruktur" />
		<tag k="ssr:stedsnr" v="1005070" />
		<tag k="ssr:type" v="adressenavn" />
	</node>
	<node lat="60.73627481092731" lon="11.858503320669952" id="-40753">
		<tag k="name" v="Rikenbergsgutua" />
		<tag k="ssr:date" v="2019-12-27" />
		<tag k="ssr:gruppe" v="veg" />
		<tag k="ssr:hovedgruppe" v="infrastruktur" />
		<tag k="ssr:stedsnr" v="1005074" />
		<tag k="ssr:type" v="adressenavn" />
	</node>
	<node lat="60.73087688628568" lon="11.821031663118983" id="-40754">
		<tag k="name" v="Audenbyjordet" />
		<tag k="ssr:date" v="2019-12-27" />
		<tag k="ssr:gruppe" v="veg" />
		<tag k="ssr:hovedgruppe" v="infrastruktur" />
		<tag k="ssr:stedsnr" v="1005077" />
		<tag k="ssr:type" v="adressenavn" />
	</node>
	<node lat="60.73022289784846" lon="11.819175450381493" id="-40755">
		<tag k="name" v="Haramyrvegen" />
		<tag k="ssr:date" v="2019-12-27" />
		<tag k="ssr:gruppe" v="veg" />
		<tag k="ssr:hovedgruppe" v="infrastruktur" />
		<tag k="ssr:stedsnr" v="1005080" />
		<tag k="ssr:type" v="adressenavn" />
	</node>
	<node lat="60.72102156320491" lon="11.812408939091679" id="-40756">
		<tag k="name" v="Myrengvegen" />
		<tag k="ssr:date" v="2019-12-27" />
		<tag k="ssr:gruppe" v="veg" />
		<tag k="ssr:hovedgruppe" v="infrastruktur" />
		<tag k="ssr:stedsnr" v="1005086" />
		<tag k="ssr:type" v="adressenavn" />
	</node>
	<node lat="60.73569981744015" lon="11.846948595931746" id="-40757">
		<tag k="name" v="Åsjordvegen" />
		<tag k="ssr:date" v="2019-12-27" />
		<tag k="ssr:gruppe" v="veg" />
		<tag k="ssr:hovedgruppe" v="infrastruktur" />
		<tag k="ssr:stedsnr" v="1005089" />
		<tag k="ssr:type" v="adressenavn" />
	</node>
	<node lat="60.72468798199502" lon="11.801997248065634" id="-40758">
		<tag k="name" v="Gravbergsvegen" />
		<tag k="ssr:date" v="2019-12-27" />
		<tag k="ssr:gruppe" v="veg" />
		<tag k="ssr:hovedgruppe" v="infrastruktur" />
		<tag k="ssr:stedsnr" v="1005092" />
		<tag k="ssr:type" v="adressenavn" />
	</node>
	<node lat="60.70736618404855" lon="11.872621993694112" id="-40759">
		<tag k="name" v="Strætevegen" />
		<tag k="ssr:date" v="2019-12-27" />
		<tag k="ssr:gruppe" v="veg" />
		<tag k="ssr:hovedgruppe" v="infrastruktur" />
		<tag k="ssr:stedsnr" v="1005097" />
		<tag k="ssr:type" v="adressenavn" />
	</node>
	<node lat="60.70417640265792" lon="11.855623436499645" id="-40760">
		<tag k="name" v="Gistivegen" />
		<tag k="ssr:date" v="2019-12-27" />
		<tag k="ssr:gruppe" v="veg" />
		<tag k="ssr:hovedgruppe" v="infrastruktur" />
		<tag k="ssr:stedsnr" v="1005101" />
		<tag k="ssr:type" v="adressenavn" />
	</node>
	<node lat="60.705385443662834" lon="11.831593778221011" id="-40761">
		<tag k="name" v="Rokkerudsvegen" />
		<tag k="ssr:date" v="2019-12-27" />
		<tag k="ssr:gruppe" v="veg" />
		<tag k="ssr:hovedgruppe" v="infrastruktur" />
		<tag k="ssr:stedsnr" v="1005106" />
		<tag k="ssr:type" v="adressenavn" />
	</node>
	<node lat="60.71580189529204" lon="11.82907092970672" id="-40762">
		<tag k="name" v="Audenbyvegen" />
		<tag k="ssr:date" v="2019-12-27" />
		<tag k="ssr:gruppe" v="veg" />
		<tag k="ssr:hovedgruppe" v="infrastruktur" />
		<tag k="ssr:stedsnr" v="1005111" />
		<tag k="ssr:type" v="adressenavn" />
	</node>
	<node lat="60.73199177716234" lon="11.891102761501335" id="-40763">
		<tag k="name" v="Tøråskvernvegen" />
		<tag k="ssr:date" v="2019-12-27" />
		<tag k="ssr:gruppe" v="veg" />
		<tag k="ssr:hovedgruppe" v="infrastruktur" />
		<tag k="ssr:stedsnr" v="1005116" />
		<tag k="ssr:type" v="adressenavn" />
	</node>
	<node lat="60.72433434362844" lon="11.89574517666209" id="-40764">
		<tag k="name" v="Skåråvegen" />
		<tag k="ssr:date" v="2019-12-27" />
		<tag k="ssr:gruppe" v="veg" />
		<tag k="ssr:hovedgruppe" v="infrastruktur" />
		<tag k="ssr:stedsnr" v="1005121" />
		<tag k="ssr:type" v="adressenavn" />
	</node>
	<node lat="60.70307830649185" lon="11.873579499069065" id="-40765">
		<tag k="name" v="Østre Strætåsvegen" />
		<tag k="ssr:date" v="2019-12-27" />
		<tag k="ssr:gruppe" v="veg" />
		<tag k="ssr:hovedgruppe" v="infrastruktur" />
		<tag k="ssr:stedsnr" v="1005126" />
		<tag k="ssr:type" v="adressenavn" />
	</node>
	<node lat="60.723619802542544" lon="11.83342500126501" id="-40766">
		<tag k="name" v="Vestre Strætåsvegen" />
		<tag k="ssr:date" v="2019-12-27" />
		<tag k="ssr:gruppe" v="veg" />
		<tag k="ssr:hovedgruppe" v="infrastruktur" />
		<tag k="ssr:stedsnr" v="1005132" />
		<tag k="ssr:type" v="adressenavn" />
	</node>
	<node lat="60.72103096951013" lon="11.882030349397452" id="-40767">
		<tag k="name" v="Bjergårdsvegen" />
		<tag k="ssr:date" v="2019-12-27" />
		<tag k="ssr:gruppe" v="veg" />
		<tag k="ssr:hovedgruppe" v="infrastruktur" />
		<tag k="ssr:stedsnr" v="1005139" />
		<tag k="ssr:type" v="adressenavn" />
	</node>
	<node lat="60.71932682792263" lon="11.873603028798584" id="-40768">
		<tag k="name" v="Bruvegen" />
		<tag k="ssr:date" v="2019-12-27" />
		<tag k="ssr:gruppe" v="veg" />
		<tag k="ssr:hovedgruppe" v="infrastruktur" />
		<tag k="ssr:stedsnr" v="1005141" />
		<tag k="ssr:type" v="adressenavn" />
	</node>
	<node lat="60.72214167342259" lon="11.889964351561387" id="-40769">
		<tag k="name" v="Kåppårbakkvegen" />
		<tag k="ssr:date" v="2019-12-27" />
		<tag k="ssr:gruppe" v="veg" />
		<tag k="ssr:hovedgruppe" v="infrastruktur" />
		<tag k="ssr:stedsnr" v="1005146" />
		<tag k="ssr:type" v="adressenavn" />
	</node>
	<node lat="60.71227623832491" lon="11.92893774959709" id="-40770">
		<tag k="name" v="Eriksmofeltet" />
		<tag k="ssr:date" v="2019-12-27" />
		<tag k="ssr:gruppe" v="veg" />
		<tag k="ssr:hovedgruppe" v="infrastruktur" />
		<tag k="ssr:stedsnr" v="1005149" />
		<tag k="ssr:type" v="adressenavn" />
	</node>
	<node lat="60.71309750267468" lon="11.922769313758867" id="-40771">
		<tag k="name" v="Steinhaugvegen" />
		<tag k="ssr:date" v="2019-12-27" />
		<tag k="ssr:gruppe" v="veg" />
		<tag k="ssr:hovedgruppe" v="infrastruktur" />
		<tag k="ssr:stedsnr" v="1005151" />
		<tag k="ssr:type" v="adressenavn" />
	</node>
	<node lat="60.697012142692" lon="11.90941375793638" id="-40772">
		<tag k="name" v="Vestre Gjesåsveg" />
		<tag k="ssr:date" v="2019-12-27" />
		<tag k="ssr:gruppe" v="veg" />
		<tag k="ssr:hovedgruppe" v="infrastruktur" />
		<tag k="ssr:stedsnr" v="1005156" />
		<tag k="ssr:type" v="adressenavn" />
	</node>
	<node lat="60.698360057012515" lon="11.90082880681312" id="-40773">
		<tag k="name" v="Ranumsvegen" />
		<tag k="ssr:date" v="2019-12-27" />
		<tag k="ssr:gruppe" v="veg" />
		<tag k="ssr:hovedgruppe" v="infrastruktur" />
		<tag k="ssr:stedsnr" v="1005159" />
		<tag k="ssr:type" v="adressenavn" />
	</node>
	<node lat="60.706903245644796" lon="11.934956554065563" id="-40774">
		<tag k="name" v="Skyrudsvegen" />
		<tag k="ssr:date" v="2019-12-27" />
		<tag k="ssr:gruppe" v="veg" />
		<tag k="ssr:hovedgruppe" v="infrastruktur" />
		<tag k="ssr:stedsnr" v="1005162" />
		<tag k="ssr:type" v="adressenavn" />
	</node>
	<node lat="60.698931819928994" lon="11.946246310410606" id="-40775">
		<tag k="name" v="Øvre Ranumsvegen" />
		<tag k="ssr:date" v="2019-12-27" />
		<tag k="ssr:gruppe" v="veg" />
		<tag k="ssr:hovedgruppe" v="infrastruktur" />
		<tag k="ssr:stedsnr" v="1005166" />
		<tag k="ssr:type" v="adressenavn" />
	</node>
	<node lat="60.70881704923081" lon="11.909619752057516" id="-40776">
		<tag k="name" v="Eriksmovegen" />
		<tag k="ssr:date" v="2019-12-27" />
		<tag k="ssr:gruppe" v="veg" />
		<tag k="ssr:hovedgruppe" v="infrastruktur" />
		<tag k="ssr:stedsnr" v="1005170" />
		<tag k="ssr:type" v="adressenavn" />
	</node>
	<node lat="60.72559416529368" lon="11.940620443568013" id="-40777">
		<tag k="name" v="Holtekjølvegen" />
		<tag k="ssr:date" v="2019-12-27" />
		<tag k="ssr:gruppe" v="veg" />
		<tag k="ssr:hovedgruppe" v="infrastruktur" />
		<tag k="ssr:stedsnr" v="1005175" />
		<tag k="ssr:type" v="adressenavn" />
	</node>
	<node lat="60.68731351770232" lon="11.880858895422948" id="-40778">
		<tag k="name" v="Våtmoen" />
		<tag k="ssr:date" v="2019-12-27" />
		<tag k="ssr:gruppe" v="veg" />
		<tag k="ssr:hovedgruppe" v="infrastruktur" />
		<tag k="ssr:stedsnr" v="1005180" />
		<tag k="ssr:type" v="adressenavn" />
	</node>
	<node lat="60.69295808770983" lon="11.887616876949238" id="-40779">
		<tag k="name" v="Konterudsvegen" />
		<tag k="ssr:date" v="2019-12-27" />
		<tag k="ssr:gruppe" v="veg" />
		<tag k="ssr:hovedgruppe" v="infrastruktur" />
		<tag k="ssr:stedsnr" v="1005183" />
		<tag k="ssr:type" v="adressenavn" />
	</node>
	<node lat="60.69756446565495" lon="11.952129501967942" id="-40780">
		<tag k="name" v="Svenskevegen" />
		<tag k="ssr:date" v="2019-12-27" />
		<tag k="ssr:gruppe" v="veg" />
		<tag k="ssr:hovedgruppe" v="infrastruktur" />
		<tag k="ssr:stedsnr" v="1005185" />
		<tag k="ssr:type" v="adressenavn" />
	</node>
	<node lat="60.659676803509214" lon="11.839518044454406" id="-40781">
		<tag k="name" v="Kavlerudsvegen" />
		<tag k="ssr:date" v="2019-12-27" />
		<tag k="ssr:gruppe" v="veg" />
		<tag k="ssr:hovedgruppe" v="infrastruktur" />
		<tag k="ssr:stedsnr" v="1005264" />
		<tag k="ssr:type" v="adressenavn" />
	</node>
	<node lat="60.66386768240712" lon="11.839482318364421" id="-40782">
		<tag k="name" v="Teppgutua" />
		<tag k="ssr:date" v="2019-12-27" />
		<tag k="ssr:gruppe" v="veg" />
		<tag k="ssr:hovedgruppe" v="infrastruktur" />
		<tag k="ssr:stedsnr" v="1005267" />
		<tag k="ssr:type" v="adressenavn" />
	</node>
	<node lat="60.66385480701704" lon="11.840188542496545" id="-40783">
		<tag k="name" v="Daneborg" />
		<tag k="ssr:date" v="2019-12-27" />
		<tag k="ssr:gruppe" v="veg" />
		<tag k="ssr:hovedgruppe" v="infrastruktur" />
		<tag k="ssr:stedsnr" v="1005269" />
		<tag k="ssr:type" v="adressenavn" />
	</node>
	<node lat="60.664635766969376" lon="11.83472338153717" id="-40784">
		<tag k="name" v="Nedre Vålevegen" />
		<tag k="ssr:date" v="2019-12-27" />
		<tag k="ssr:gruppe" v="veg" />
		<tag k="ssr:hovedgruppe" v="infrastruktur" />
		<tag k="ssr:stedsnr" v="1005272" />
		<tag k="ssr:type" v="adressenavn" />
	</node>
	<node lat="60.656438975366044" lon="11.84163324037116" id="-40785">
		<tag k="name" v="Lilleskjæret" />
		<tag k="ssr:date" v="2019-12-27" />
		<tag k="ssr:gruppe" v="veg" />
		<tag k="ssr:hovedgruppe" v="infrastruktur" />
		<tag k="ssr:stedsnr" v="1005274" />
		<tag k="ssr:type" v="adressenavn" />
	</node>
	<node lat="60.655091535701054" lon="11.845647892880281" id="-40786">
		<tag k="name" v="Grønlandsvegen" />
		<tag k="ssr:date" v="2019-12-27" />
		<tag k="ssr:gruppe" v="veg" />
		<tag k="ssr:hovedgruppe" v="infrastruktur" />
		<tag k="ssr:stedsnr" v="1005277" />
		<tag k="ssr:type" v="adressenavn" />
	</node>
	<node lat="60.65056190962224" lon="11.857938591317847" id="-40787">
		<tag k="name" v="Nedre Storskjæret" />
		<tag k="ssr:date" v="2019-12-27" />
		<tag k="ssr:gruppe" v="veg" />
		<tag k="ssr:hovedgruppe" v="infrastruktur" />
		<tag k="ssr:stedsnr" v="1005280" />
		<tag k="ssr:type" v="adressenavn" />
	</node>
	<node lat="60.65055140382873" lon="11.824152970710106" id="-40788">
		<tag k="name" v="Eidsvegen" />
		<tag k="ssr:date" v="2019-12-27" />
		<tag k="ssr:gruppe" v="veg" />
		<tag k="ssr:hovedgruppe" v="infrastruktur" />
		<tag k="ssr:stedsnr" v="1005283" />
		<tag k="ssr:type" v="adressenavn" />
	</node>
	<node lat="60.67444468848875" lon="11.846080585679784" id="-40789">
		<tag k="name" v="Furuvegen" />
		<tag k="ssr:date" v="2019-12-27" />
		<tag k="ssr:gruppe" v="veg" />
		<tag k="ssr:hovedgruppe" v="infrastruktur" />
		<tag k="ssr:stedsnr" v="1005285" />
		<tag k="ssr:type" v="adressenavn" />
	</node>
	<node lat="60.67729042507608" lon="11.844519599847533" id="-40790">
		<tag k="name" v="Granvegen" />
		<tag k="ssr:date" v="2019-12-27" />
		<tag k="ssr:gruppe" v="veg" />
		<tag k="ssr:hovedgruppe" v="infrastruktur" />
		<tag k="ssr:stedsnr" v="1005290" />
		<tag k="ssr:type" v="adressenavn" />
	</node>
	<node lat="60.626963748110576" lon="11.920796541055239" id="-40791">
		<tag k="name" v="Øysetvegen" />
		<tag k="ssr:date" v="2019-12-27" />
		<tag k="ssr:gruppe" v="veg" />
		<tag k="ssr:hovedgruppe" v="infrastruktur" />
		<tag k="ssr:stedsnr" v="1005294" />
		<tag k="ssr:type" v="adressenavn" />
	</node>
	<node lat="60.64234656631803" lon="11.88559698626433" id="-40792">
		<tag k="name" v="Svennebyvegen" />
		<tag k="ssr:date" v="2019-12-27" />
		<tag k="ssr:gruppe" v="veg" />
		<tag k="ssr:hovedgruppe" v="infrastruktur" />
		<tag k="ssr:stedsnr" v="1005297" />
		<tag k="ssr:type" v="adressenavn" />
	</node>
	<node lat="60.676345492282024" lon="11.840036446706032" id="-40793">
		<tag k="name" v="Rampevegen" />
		<tag k="ssr:date" v="2019-12-27" />
		<tag k="ssr:gruppe" v="veg" />
		<tag k="ssr:hovedgruppe" v="infrastruktur" />
		<tag k="ssr:stedsnr" v="1005301" />
		<tag k="ssr:type" v="adressenavn" />
	</node>
	<node lat="60.67723788177421" lon="11.840346384898659" id="-40794">
		<tag k="name" v="Skogstien" />
		<tag k="ssr:date" v="2019-12-27" />
		<tag k="ssr:gruppe" v="veg" />
		<tag k="ssr:hovedgruppe" v="infrastruktur" />
		<tag k="ssr:stedsnr" v="1005304" />
		<tag k="ssr:type" v="adressenavn" />
	</node>
	<node lat="60.67795304610642" lon="11.839224347572891" id="-40795">
		<tag k="name" v="Knatten" />
		<tag k="ssr:date" v="2019-12-27" />
		<tag k="ssr:gruppe" v="veg" />
		<tag k="ssr:hovedgruppe" v="infrastruktur" />
		<tag k="ssr:stedsnr" v="1005308" />
		<tag k="ssr:type" v="adressenavn" />
	</node>
	<node lat="60.67269869923341" lon="11.846689298728442" id="-40796">
		<tag k="name" v="Øvergårdsvegen" />
		<tag k="ssr:date" v="2019-12-27" />
		<tag k="ssr:gruppe" v="veg" />
		<tag k="ssr:hovedgruppe" v="infrastruktur" />
		<tag k="ssr:stedsnr" v="1005312" />
		<tag k="ssr:type" v="adressenavn" />
	</node>
	<node lat="60.67424809313183" lon="11.838890476916225" id="-40797">
		<tag k="name" v="Sagerudsgutua" />
		<tag k="ssr:date" v="2019-12-27" />
		<tag k="ssr:gruppe" v="veg" />
		<tag k="ssr:hovedgruppe" v="infrastruktur" />
		<tag k="ssr:stedsnr" v="1005315" />
		<tag k="ssr:type" v="adressenavn" />
	</node>
	<node lat="60.67476724891176" lon="11.840742633318962" id="-40798">
		<tag k="name" v="Høgbergvegen" />
		<tag k="ssr:date" v="2019-12-27" />
		<tag k="ssr:gruppe" v="veg" />
		<tag k="ssr:hovedgruppe" v="infrastruktur" />
		<tag k="ssr:stedsnr" v="1005318" />
		<tag k="ssr:type" v="adressenavn" />
	</node>
	<node lat="60.67568624782655" lon="11.840086467422093" id="-40799">
		<tag k="name" v="Gartnervegen" />
		<tag k="ssr:date" v="2019-12-27" />
		<tag k="ssr:gruppe" v="veg" />
		<tag k="ssr:hovedgruppe" v="infrastruktur" />
		<tag k="ssr:stedsnr" v="1005321" />
		<tag k="ssr:type" v="adressenavn" />
	</node>
	<node lat="60.67558658054029" lon="11.838989891504221" id="-40800">
		<tag k="name" v="Solevegen" />
		<tag k="ssr:date" v="2019-12-27" />
		<tag k="ssr:gruppe" v="veg" />
		<tag k="ssr:hovedgruppe" v="infrastruktur" />
		<tag k="ssr:stedsnr" v="1005324" />
		<tag k="ssr:type" v="adressenavn" />
	</node>
	<node lat="60.66641152677957" lon="11.833354587690708" id="-40801">
		<tag k="name" v="Hoelsvegen" />
		<tag k="ssr:date" v="2019-12-27" />
		<tag k="ssr:gruppe" v="veg" />
		<tag k="ssr:hovedgruppe" v="infrastruktur" />
		<tag k="ssr:stedsnr" v="1005326" />
		<tag k="ssr:type" v="adressenavn" />
	</node>
	<node lat="60.67233598142789" lon="11.842235727542077" id="-40802">
		<tag k="name" v="Måsågrendvegen" />
		<tag k="ssr:date" v="2019-12-27" />
		<tag k="ssr:gruppe" v="veg" />
		<tag k="ssr:hovedgruppe" v="infrastruktur" />
		<tag k="ssr:stedsnr" v="1005330" />
		<tag k="ssr:type" v="adressenavn" />
	</node>
	<node lat="60.67304475305642" lon="11.8418512042178" id="-40803">
		<tag k="name" v="Murudbakken" />
		<tag k="ssr:date" v="2019-12-27" />
		<tag k="ssr:gruppe" v="veg" />
		<tag k="ssr:hovedgruppe" v="infrastruktur" />
		<tag k="ssr:stedsnr" v="1005334" />
		<tag k="ssr:type" v="adressenavn" />
	</node>
	<node lat="60.66734350307707" lon="11.830409869021063" id="-40804">
		<tag k="name" v="Hesteskoen" />
		<tag k="ssr:date" v="2019-12-27" />
		<tag k="ssr:gruppe" v="veg" />
		<tag k="ssr:hovedgruppe" v="infrastruktur" />
		<tag k="ssr:stedsnr" v="1005353" />
		<tag k="ssr:type" v="adressenavn" />
	</node>
	<node lat="60.67019235392959" lon="11.835105534236842" id="-40805">
		<tag k="name" v="Hovdevegen" />
		<tag k="ssr:date" v="2019-12-27" />
		<tag k="ssr:gruppe" v="veg" />
		<tag k="ssr:hovedgruppe" v="infrastruktur" />
		<tag k="ssr:stedsnr" v="1005359" />
		<tag k="ssr:type" v="adressenavn" />
	</node>
	<node lat="60.670088258872454" lon="11.83374402951202" id="-40806">
		<tag k="name" v="Hemmevegen" />
		<tag k="ssr:date" v="2019-12-27" />
		<tag k="ssr:gruppe" v="veg" />
		<tag k="ssr:hovedgruppe" v="infrastruktur" />
		<tag k="ssr:stedsnr" v="1005361" />
		<tag k="ssr:type" v="adressenavn" />
	</node>
	<node lat="60.59738366215192" lon="11.887300310350934" id="-40807">
		<tag k="name" v="Siggerudsvegen" />
		<tag k="ssr:date" v="2019-12-27" />
		<tag k="ssr:gruppe" v="veg" />
		<tag k="ssr:hovedgruppe" v="infrastruktur" />
		<tag k="ssr:stedsnr" v="1006485" />
		<tag k="ssr:type" v="adressenavn" />
	</node>
	<node lat="60.761348899643274" lon="11.910156311983984" id="-40809">
		<tag k="name" v="Finnvegen" />
		<tag k="ssr:date" v="2019-12-27" />
		<tag k="ssr:gruppe" v="veg" />
		<tag k="ssr:hovedgruppe" v="infrastruktur" />
		<tag k="ssr:stedsnr" v="1073519" />
		<tag k="ssr:type" v="vegstrekning" />
	</node>
	<node lat="60.795248707246294" lon="11.082591224285064" id="-40810">
		<tag k="name" v="Innlandet fylke" />
		<tag k="ssr:date" v="2022-01-03" />
		<tag k="ssr:gruppe" v="administrativeIndelinger" />
		<tag k="ssr:hovedgruppe" v="offentligAdministrasjon" />
		<tag k="ssr:stedsnr" v="1074406" />
		<tag k="ssr:type" v="fylke" />
	</node>
</osm>
