<?xml version="1.0" encoding="UTF-8"?>
<osm generator="osmapis" version="0.6">
	<node id="-442874" lat="59.7842527749" lon="5.35246110961">
		<tag k="name" v="Vasseidet" />
		<tag k="natural" v="strait" />
		<tag k="ssr:stedsnr" v="462099" />
	</node>
	<node id="-442707" lat="59.8298640611" lon="5.59080672357">
		<tag k="alt_name" v="Tveitevatnet" />
		<tag k="name" v="Tveitvatnet" />
		<tag k="natural" v="water" />
		<tag k="ssr:stedsnr" v="125343" />
		<tag k="water" v="lake" />
	</node>
	<node id="-443376" lat="59.7909250044" lon="5.49953888779">
		<tag k="name" v="Sevhølen" />
		<tag k="ssr:stedsnr" v="948873" />
		<tag k="waterway" v="river" />
	</node>
	<node id="-443373" lat="59.8428027783" lon="5.51262499289">
		<tag k="name" v="Gravaelva" />
		<tag k="ssr:stedsnr" v="948222" />
		<tag k="waterway" v="river" />
	</node>
	<node id="-442858" lat="59.8279861115" lon="5.41085833525">
		<tag k="name" v="Barlindedalsvatnet" />
		<tag k="natural" v="water" />
		<tag k="ssr:stedsnr" v="429986" />
	</node>
	<node id="-442854" lat="59.8075750726" lon="5.40260923995">
		<tag k="name" v="Dalskardvatnet" />
		<tag k="natural" v="water" />
		<tag k="ssr:stedsnr" v="429527" />
	</node>
	<node id="-442852" lat="59.8127708504" lon="5.37201803753">
		<tag k="alt_name" v="Petarteigsvatnet, øvre" />
		<tag k="name" v="Øvre Petarteigsvatnet" />
		<tag k="natural" v="water" />
		<tag k="ssr:stedsnr" v="429513" />
	</node>
	<node id="-443363" lat="59.8139922899" lon="5.42396168765">
		<tag k="name" v="Stuvasetertjørna" />
		<tag k="natural" v="water" />
		<tag k="ssr:stedsnr" v="948171" />
	</node>
	<node id="-443362" lat="59.8191527398" lon="5.37964409001">
		<tag k="name" v="Søre Ellingsdalsvatnet" />
		<tag k="natural" v="water" />
		<tag k="ssr:stedsnr" v="948170" />
		<tag k="water" v="lake" />
	</node>
	<node id="-442847" lat="59.8390993026" lon="5.37702618836">
		<tag k="alt_name" v="Flono" />
		<tag k="name" v="Flona" />
		<tag k="natural" v="water" />
		<tag k="ssr:stedsnr" v="428997" />
	</node>
	<node id="-442846" lat="59.8615394858" lon="5.42927655962">
		<tag k="name" v="Aravatnet" />
		<tag k="natural" v="water" />
		<tag k="ssr:stedsnr" v="428905" />
	</node>
	<node id="-442834" lat="59.7641462646" lon="5.45070698102">
		<tag k="name" v="Meatjørna" />
		<tag k="natural" v="water" />
		<tag k="ssr:stedsnr" v="247561" />
	</node>
	<node id="-442833" lat="59.8134717111" lon="5.36407063637">
		<tag k="alt_name" v="Petarteigsvatnet, nedre" />
		<tag k="name" v="Nedre Petarteigsvatnet" />
		<tag k="natural" v="water" />
		<tag k="ssr:stedsnr" v="247515" />
	</node>
	<node id="-442827" lat="59.7739143573" lon="5.47727474557">
		<tag k="name" v="Tveitavatnet" />
		<tag k="natural" v="water" />
		<tag k="ssr:stedsnr" v="246395" />
	</node>
	<node id="-443338" lat="59.8627375841" lon="5.59108046162">
		<tag k="name" v="Ålatjørna" />
		<tag k="natural" v="water" />
		<tag k="ssr:stedsnr" v="947803" />
	</node>
	<node id="-442814" lat="59.8121027757" lon="5.43151945345">
		<tag k="name" v="Fossane" />
		<tag k="natural" v="waterfall" />
		<tag k="ssr:stedsnr" v="220130" />
	</node>
	<node id="-443324" lat="59.8186027795" lon="5.3660500061">
		<tag k="name" v="Langavatnet" />
		<tag k="natural" v="water" />
		<tag k="ssr:stedsnr" v="914949" />
	</node>
	<node id="-443323" lat="59.8806079847" lon="5.46504010345">
		<tag k="name" v="Stemmetjørna" />
		<tag k="natural" v="water" />
		<tag k="ssr:stedsnr" v="914941" />
	</node>
	<node id="-442808" lat="59.8698111107" lon="5.52803889106">
		<tag k="name" v="Nordelva" />
		<tag k="ssr:stedsnr" v="220085" />
		<tag k="waterway" v="river" />
	</node>
	<node id="-443319" lat="59.779756737" lon="5.45453447439">
		<tag k="name" v="Mortjørna" />
		<tag k="natural" v="water" />
		<tag k="ssr:stedsnr" v="914614" />
	</node>
	<node id="-443316" lat="59.7655055602" lon="5.42391667392">
		<tag k="alt_name" v="Kroktjørn" />
		<tag k="name" v="Krokatjørna" />
		<tag k="natural" v="water" />
		<tag k="ssr:stedsnr" v="914599" />
	</node>
	<node id="-443315" lat="59.7698226174" lon="5.40334181981">
		<tag k="name" v="Nestjørna" />
		<tag k="natural" v="water" />
		<tag k="ssr:stedsnr" v="914581" />
	</node>
	<node id="-442790" lat="59.8351059545" lon="5.36839685245">
		<tag k="name" v="Stemmetjørna" />
		<tag k="natural" v="water" />
		<tag k="ssr:stedsnr" v="186980" />
	</node>
	<node id="-442609" lat="59.8654805595" lon="5.47177221714">
		<tag k="name" v="Martetjørnane" />
		<tag k="natural" v="water" />
		<tag k="ssr:stedsnr" v="38044" />
	</node>
	<node id="-442788" lat="59.8257116715" lon="5.37030531682">
		<tag k="name" v="Ellingsdalsvatnet" />
		<tag k="natural" v="water" />
		<tag k="ssr:stedsnr" v="186933" />
	</node>
	<node id="-442786" lat="59.781499996" lon="5.41141666617">
		<tag k="name" v="Knurrøya" />
		<tag k="place" v="islet" />
		<tag k="ssr:stedsnr" v="186650" />
	</node>
	<node id="-442785" lat="59.7994916634" lon="5.49225000528">
		<tag k="name" v="Sagneset" />
		<tag k="natural" v="cape" />
		<tag k="ssr:stedsnr" v="186633" />
	</node>
	<node id="-443296" lat="59.909966668" lon="5.47021110946">
		<tag k="name" v="Tverrelva" />
		<tag k="ssr:stedsnr" v="854677" />
		<tag k="waterway" v="stream" />
	</node>
	<node id="-442782" lat="59.7979986771" lon="5.38794499005">
		<tag k="name" v="Rutletjørna" />
		<tag k="natural" v="water" />
		<tag k="ssr:stedsnr" v="186556" />
	</node>
	<node id="-442775" lat="59.8376403971" lon="5.59097991234">
		<tag k="name" v="Tveittjørna" />
		<tag k="natural" v="water" />
		<tag k="ssr:stedsnr" v="186343" />
	</node>
	<node id="-443285" lat="59.8134444407" lon="5.48189723137">
		<tag k="loc_name" v="Rongabekken" />
		<tag k="name" v="Rognabekken" />
		<tag k="ssr:stedsnr" v="853298" />
		<tag k="waterway" v="stream" />
	</node>
	<node id="-442772" lat="59.8688970847" lon="5.58716376323">
		<tag k="alt_name" v="Berrføtvatnet;Berføttevatnet" />
		<tag k="name" v="Berrføttevatnet" />
		<tag k="natural" v="water" />
		<tag k="ssr:stedsnr" v="186314" />
	</node>
	<node id="-442771" lat="59.8810611083" lon="5.43127500312">
		<tag k="name" v="Kongsskogvatnet" />
		<tag k="natural" v="water" />
		<tag k="ssr:stedsnr" v="185922" />
	</node>
	<node id="-442763" lat="59.8708215296" lon="5.59215875655">
		<tag k="name" v="Holatjørna" />
		<tag k="natural" v="water" />
		<tag k="ssr:stedsnr" v="159850" />
	</node>
	<node id="-442756" lat="59.8621536117" lon="5.60154012615">
		<tag k="name" v="Haukanestjørna" />
		<tag k="natural" v="water" />
		<tag k="ssr:stedsnr" v="159237" />
	</node>
	<node id="-442518" lat="59.7989274789" lon="5.41240347406">
		<tag k="name" v="Fureåsdammen" />
		<tag k="natural" v="water" />
		<tag k="ssr:stedsnr" v="887126" />
	</node>
	<node id="-442746" lat="59.8065405283" lon="5.35794196414">
		<tag k="name" v="Stokketjørna" />
		<tag k="natural" v="water" />
		<tag k="ssr:stedsnr" v="159105" />
	</node>
	<node id="-442723" lat="59.9069472258" lon="5.47894166013">
		<tag k="name" v="Mehammarelva" />
		<tag k="ssr:stedsnr" v="125713" />
		<tag k="waterway" v="stream" />
	</node>
	<node id="-442717" lat="59.7796154561" lon="5.4256300418">
		<tag k="name" v="Storavatnet" />
		<tag k="natural" v="water" />
		<tag k="ssr:stedsnr" v="125606" />
		<tag k="water" v="lake" />
	</node>
	<node id="-442714" lat="59.8964083314" lon="5.48957499394">
		<tag k="alt_name" v="Bortveitelvi" />
		<tag k="name" v="Bortveitelva" />
		<tag k="ssr:stedsnr" v="124657" />
		<tag k="waterway" v="river" />
	</node>
	<node id="-443225" lat="59.801394446" lon="5.44205000774">
		<tag k="name" v="Ulvatjørna" />
		<tag k="natural" v="water" />
		<tag k="ssr:stedsnr" v="793540" />
	</node>
	<node id="-443223" lat="59.8611094428" lon="5.57993187942">
		<tag k="alt_name" v="Stemmevatnet;Storavatnet" />
		<tag k="name" v="Huglavatnet" />
		<tag k="natural" v="water" />
		<tag k="ssr:stedsnr" v="793322" />
	</node>
	<node id="-443220" lat="59.8525624078" lon="5.44296079838">
		<tag k="name" v="Tysevatnet" />
		<tag k="natural" v="water" />
		<tag k="ssr:stedsnr" v="792991" />
		<tag k="water" v="lake" />
	</node>
	<node id="-443219" lat="59.8705673042" lon="5.42193912272">
		<tag k="alt_name" v="Sørlivatnet, inste;Øvre Sørlivatnet" />
		<tag k="name" v="Inste Sørlivatnet" />
		<tag k="natural" v="water" />
		<tag k="ssr:stedsnr" v="792900" />
		<tag k="water" v="lake" />
	</node>
	<node id="-442851" lat="59.8167555528" lon="5.40243055611">
		<tag k="name" v="Holmedalsvatnet" />
		<tag k="natural" v="water" />
		<tag k="ssr:stedsnr" v="429510" />
	</node>
	<node id="-443212" lat="59.8771111137" lon="5.51149444639">
		<tag k="alt_name" v="Klokaholsbekken" />
		<tag k="name" v="Klokaholbekken" />
		<tag k="ssr:stedsnr" v="792263" />
		<tag k="waterway" v="stream" />
	</node>
	<node id="-443211" lat="59.8705565361" lon="5.46803015447">
		<tag k="name" v="Martetjørna" />
		<tag k="natural" v="water" />
		<tag k="ssr:stedsnr" v="792255" />
	</node>
	<node id="-443185" lat="59.7972000039" lon="5.46005000712">
		<tag k="name" v="Gauksløken" />
		<tag k="ssr:stedsnr" v="765855" />
		<tag k="waterway" v="stream" />
	</node>
	<node id="-443173" lat="59.7855819859" lon="5.47828004382">
		<tag k="name" v="Lønningsstemma" />
		<tag k="natural" v="water" />
		<tag k="ssr:stedsnr" v="765753" />
	</node>
	<node id="-442655" lat="59.8880777757" lon="5.51244167526">
		<tag k="name" v="Nonstad" />
		<tag k="ssr:stedsnr" v="98208" />
		<tag k="waterway" v="stream" />
	</node>
	<node id="-443166" lat="59.8419774509" lon="5.4246488787">
		<tag k="name" v="Budalsvatnet" />
		<tag k="natural" v="water" />
		<tag k="ssr:stedsnr" v="732997" />
	</node>
	<node id="-443164" lat="59.858095458" lon="5.41145501369">
		<tag k="name" v="Gavlavatna" />
		<tag k="natural" v="water" />
		<tag k="ssr:stedsnr" v="732886" />
		<tag k="water" v="lake" />
	</node>
	<node id="-443161" lat="59.7695388869" lon="5.46468888724">
		<tag k="name" v="Skiphaugsvatnet" />
		<tag k="natural" v="water" />
		<tag k="ssr:stedsnr" v="732602" />
	</node>
	<node id="-443159" lat="59.7888018681" lon="5.41040485943">
		<tag k="alt_name" v="Hustrudalsvatnet" />
		<tag k="name" v="Hustredalsvatnet" />
		<tag k="natural" v="water" />
		<tag k="ssr:stedsnr" v="732559" />
	</node>
	<node id="-443154" lat="59.810477779" lon="5.47255555828">
		<tag k="name" v="Vatnaelva" />
		<tag k="ssr:stedsnr" v="732369" />
		<tag k="waterway" v="river" />
	</node>
	<node id="-442640" lat="59.8101181954" lon="5.49195258497">
		<tag k="name" v="Iglatjørna" />
		<tag k="natural" v="water" />
		<tag k="ssr:stedsnr" v="65348" />
	</node>
	<node id="-442630" lat="59.8827686997" lon="5.49186554062">
		<tag k="name" v="Svartavatnet" />
		<tag k="natural" v="water" />
		<tag k="ssr:stedsnr" v="64273" />
	</node>
	<node id="-442626" lat="59.8451877342" lon="5.58581684723">
		<tag k="alt_name" v="Lomtjørna" />
		<tag k="name" v="Lomatjørna" />
		<tag k="natural" v="water" />
		<tag k="ssr:stedsnr" v="65261" />
	</node>
	<node id="-443136" lat="59.8497083296" lon="5.52250277175">
		<tag k="name" v="Tverrelva" />
		<tag k="ssr:stedsnr" v="705225" />
		<tag k="waterway" v="river" />
	</node>
	<node id="-443124" lat="59.8284611101" lon="5.58802777386">
		<tag k="name" v="Vassvika" />
		<tag k="natural" v="bay" />
		<tag k="ssr:stedsnr" v="705107" />
	</node>
	<node id="-443121" lat="59.7740450568" lon="5.40034695026">
		<tag k="name" v="Vasspollen" />
		<tag k="natural" v="water" />
		<tag k="ssr:stedsnr" v="705077" />
		<tag k="water" v="lake" />
	</node>
	<node id="-442576" lat="59.8395635755" lon="5.44610844216">
		<tag k="name" v="Ravatnet" />
		<tag k="natural" v="water" />
		<tag k="ssr:stedsnr" v="4997" />
	</node>
	<node id="-442575" lat="59.8348877173" lon="5.39651812839">
		<tag k="name" v="Mørkavatnet" />
		<tag k="natural" v="water" />
		<tag k="ssr:stedsnr" v="4984" />
	</node>
	<node id="-442567" lat="59.8629240036" lon="5.49447215408">
		<tag k="name" v="Hetlesætertjørna" />
		<tag k="natural" v="water" />
		<tag k="ssr:stedsnr" v="4252" />
	</node>
	<node id="-443074" lat="59.7951929502" lon="5.41980664837">
		<tag k="name" v="Lappetjørna" />
		<tag k="natural" v="water" />
		<tag k="ssr:stedsnr" v="644097" />
	</node>
	<node id="-443056" lat="59.8266722224" lon="5.51085277197">
		<tag k="name" v="Orrastegen" />
		<tag k="ssr:stedsnr" v="643809" />
		<tag k="waterway" v="stream" />
	</node>
	<node id="-443294" lat="59.8069525405" lon="5.45401008312">
		<tag k="name" v="Iglatjørna" />
		<tag k="natural" v="water" />
		<tag k="ssr:stedsnr" v="854520" />
	</node>
	<node id="-443033" lat="59.8421055513" lon="5.57865000308">
		<tag k="name" v="Morkavatnet" />
		<tag k="natural" v="water" />
		<tag k="ssr:stedsnr" v="610374" />
	</node>
	<node id="-443030" lat="59.7904082724" lon="5.53450405215">
		<tag k="name" v="Straumen" />
		<tag k="natural" v="water" />
		<tag k="ssr:stedsnr" v="610426" />
	</node>
	<node id="-443016" lat="59.7923796415" lon="5.45564335028">
		<tag k="name" v="Nonstjørna" />
		<tag k="natural" v="water" />
		<tag k="ssr:stedsnr" v="583876" />
	</node>
	<node id="-442492" lat="59.8587472256" lon="5.50506667351">
		<tag k="name" v="Hetlesæterelva" />
		<tag k="ssr:stedsnr" v="402062" />
		<tag k="waterway" v="river" />
	</node>
	<node id="-443003" lat="59.8387499986" lon="5.43269999941">
		<tag k="name" v="Hovtrongsvatnet" />
		<tag k="natural" v="water" />
		<tag k="ssr:stedsnr" v="583154" />
		<tag k="water" v="lake" />
	</node>
	<node id="-442996" lat="59.8177305518" lon="5.46981944574">
		<tag k="name" v="Tverrelva" />
		<tag k="ssr:stedsnr" v="583100" />
		<tag k="waterway" v="river" />
	</node>
	<node id="-443326" lat="59.8289083351" lon="5.39626111785">
		<tag k="name" v="Mørkatjørna" />
		<tag k="natural" v="water" />
		<tag k="ssr:stedsnr" v="914981" />
	</node>
	<node id="-442994" lat="59.8599833337" lon="5.52160832891">
		<tag k="name" v="Agdesteinelva" />
		<tag k="ssr:stedsnr" v="583078" />
		<tag k="waterway" v="river" />
	</node>
	<node id="-442984" lat="59.7727572036" lon="5.44218222434">
		<tag k="name" v="Røyrtjørna" />
		<tag k="natural" v="water" />
		<tag k="ssr:stedsnr" v="550561" />
	</node>
	<node id="-442982" lat="59.7904861138" lon="5.50138333526">
		<tag k="name" v="Frugardselva" />
		<tag k="ssr:stedsnr" v="550385" />
		<tag k="waterway" v="stream" />
	</node>
	<node id="-442981" lat="59.7772100616" lon="5.46803496262">
		<tag k="name" v="Landåsvatnet" />
		<tag k="natural" v="water" />
		<tag k="ssr:stedsnr" v="550366" />
	</node>
	<node id="-442463" lat="59.7983583331" lon="5.34258888359">
		<tag k="name" v="Prestekonevatnet" />
		<tag k="natural" v="water" />
		<tag k="ssr:stedsnr" v="368538" />
	</node>
	<node id="-442461" lat="59.8318750039" lon="5.4760944433">
		<tag k="name" v="Vadelva" />
		<tag k="ssr:stedsnr" v="368356" />
		<tag k="waterway" v="river" />
	</node>
	<node id="-442956" lat="59.7721283809" lon="5.43047013649">
		<tag k="name" v="Valvatnaflæet" />
		<tag k="natural" v="water" />
		<tag k="ssr:stedsnr" v="523819" />
		<tag k="water" v="lake" />
	</node>
	<node id="-442425" lat="59.8686222264" lon="5.5272722139">
		<tag k="name" v="Kammarebekken" />
		<tag k="ssr:stedsnr" v="341043" />
		<tag k="waterway" v="stream" />
	</node>
	<node id="-442936" lat="59.8633250019" lon="5.48546388361">
		<tag k="name" v="Fossen" />
		<tag k="natural" v="waterfall" />
		<tag k="ssr:stedsnr" v="523068" />
	</node>
	<node id="-442423" lat="59.7825361125" lon="5.42254721866">
		<tag k="name" v="Rossneset" />
		<tag k="natural" v="cape" />
		<tag k="ssr:stedsnr" v="341037" />
	</node>
	<node id="-442915" lat="59.7838901519" lon="5.46070015481">
		<tag k="name" v="Hestatjørna" />
		<tag k="natural" v="water" />
		<tag k="ssr:stedsnr" v="489629" />
	</node>
	<node id="-442402" lat="59.832493207" lon="5.35912677656">
		<tag k="alt_name" v="Røytetjørn;Røytetjørna" />
		<tag k="name" v="Kvernatjørna" />
		<tag k="natural" v="water" />
		<tag k="ssr:stedsnr" v="307985" />
	</node>
	<node id="-442910" lat="59.7854265085" lon="5.35149857149">
		<tag k="name" v="Stokktjørna" />
		<tag k="natural" v="water" />
		<tag k="ssr:stedsnr" v="489548" />
	</node>
	<node id="-442907" lat="59.7945482922" lon="5.4845306182">
		<tag k="alt_name" v="Årlandsvatnet" />
		<tag k="name" v="Ådlandsvatnet" />
		<tag k="natural" v="water" />
		<tag k="ssr:stedsnr" v="489402" />
		<tag k="water" v="lake" />
	</node>
	<node id="-442387" lat="59.8587305727" lon="5.57893751957">
		<tag k="name" v="Lomatjørna" />
		<tag k="natural" v="water" />
		<tag k="ssr:stedsnr" v="281851" />
	</node>
</osm>
