<?xml version="1.0" encoding="UTF-8"?>
<osm generator="osmapis" version="0.6">
	<node id="-442361" lat="59.7797694467" lon="5.50052776963">
		<tag k="name" v="Leirvik" />
		<tag k="place" v="village" />
		<tag k="ssr:stedsnr" v="550363" />
	</node>
	<node id="-442358" lat="59.8331583319" lon="5.57218056437">
		<tag k="alt_name" v="Sør-Huglo" />
		<tag k="name" v="Sørhuglo" />
		<tag k="place" v="hamlet" />
		<tag k="ssr:stedsnr" v="550321" />
	</node>
	<node id="-442355" lat="59.7920231423" lon="5.43115277472">
		<tag k="fixme" v="consider place=hamlet" />
		<tag k="name" v="Dale" />
		<tag k="place" v="farm" />
		<tag k="ssr:stedsnr" v="549485" />
	</node>
	<node id="-442354" lat="59.7566999958" lon="5.47070000692">
		<tag k="alt_name" v="Kåravik" />
		<tag k="fixme" v="consider place=suburb, village or hamlet" />
		<tag k="name" v="Kåravika" />
		<tag k="place" v="quarter" />
		<tag k="ssr:stedsnr" v="549419" />
	</node>
	<node id="-441836" lat="59.7652444443" lon="5.4964361198">
		<tag k="building" v="industrial" />
		<tag k="industrial" v="factory" />
		<tag k="name" v="Stord verft" />
		<tag k="ssr:stedsnr" v="367366" />
	</node>
	<node id="-441835" lat="59.77254406" lon="5.4723387791">
		<tag k="alt_name" v="Tveita, s" />
		<tag k="fixme" v="consider place=hamlet" />
		<tag k="name" v="Søre Tveita" />
		<tag k="place" v="farm" />
		<tag k="ssr:stedsnr" v="367353" />
	</node>
	<node id="-442343" lat="59.7790527758" lon="5.48969722681">
		<tag k="name" v="Kringsjå" />
		<tag k="place" v="farm" />
		<tag k="ssr:stedsnr" v="523860" />
	</node>
	<node id="-442340" lat="59.7896611086" lon="5.5148944535">
		<tag k="name" v="Døso" />
		<tag k="place" v="farm" />
		<tag k="ssr:stedsnr" v="523845" />
	</node>
	<node id="-441821" lat="59.8140277808" lon="5.50694444023">
		<tag k="name" v="Lundstræet" />
		<tag k="place" v="farm" />
		<tag k="ssr:stedsnr" v="341190" />
	</node>
	<node id="-442330" lat="59.824680558" lon="5.52397223067">
		<tag k="name" v="Gjerde" />
		<tag k="place" v="farm" />
		<tag k="ssr:stedsnr" v="523185" />
	</node>
	<node id="-442447" lat="59.7756583371" lon="5.40576389001">
		<tag k="name" v="Lamannen" />
		<tag k="place" v="farm" />
		<tag k="ssr:stedsnr" v="644030" />
	</node>
	<node id="-441814" lat="59.7401277754" lon="5.41303333899">
		<tag k="historic" v="shieling" />
		<tag k="name" v="Høgestølen" />
		<tag k="place" v="locality" />
		<tag k="ssr:stedsnr" v="341127" />
	</node>
	<node id="-441811" lat="59.7890222263" lon="5.42012500449">
		<tag k="amenity" v="school" />
		<tag k="name" v="Litlabø skule" />
		<tag k="ssr:stedsnr" v="341094" />
	</node>
	<node id="-441809" lat="59.8284444443" lon="5.57403055167">
		<tag k="fixme" v="consider place=hamlet" />
		<tag k="name" v="Sørhuglo" />
		<tag k="place" v="farm" />
		<tag k="ssr:stedsnr" v="341072" />
	</node>
	<node id="-442102" lat="59.7541342414" lon="5.45962060129">
		<tag k="alt_name" v="Honaland;Horneland" />
		<tag k="fixme" v="consider place=hamlet" />
		<tag k="name" v="Hornaland" />
		<tag k="place" v="farm" />
		<tag k="ssr:stedsnr" v="125594" />
	</node>
	<node id="-442305" lat="59.8571818408" lon="5.60971850017">
		<tag k="fixme" v="consider place=hamlet" />
		<tag k="name" v="Haukanes" />
		<tag k="place" v="farm" />
		<tag k="ssr:stedsnr" v="510877" />
	</node>
	<node id="-442303" lat="59.7610750005" lon="5.47260832808">
		<tag k="name" v="Hildal" />
		<tag k="place" v="farm" />
		<tag k="ssr:stedsnr" v="510665" />
	</node>
	<node id="-441789" lat="59.7808242878" lon="5.49965619032">
		<tag k="name" v="Stord" />
		<tag k="place" v="town" />
		<tag k="ssr:stedsnr" v="328700" />
	</node>
	<node id="-441788" lat="59.7675228036" lon="5.39718017889">
		<tag k="alt_name" v="Sætrevik" />
		<tag k="fixme" v="consider place=hamlet" />
		<tag k="name" v="Sætravik" />
		<tag k="place" v="farm" />
		<tag k="ssr:stedsnr" v="328171" />
	</node>
	<node id="-442297" lat="59.784216668" lon="5.36948611245">
		<tag k="name" v="Bjørnvik" />
		<tag k="place" v="farm" />
		<tag k="ssr:stedsnr" v="506759" />
	</node>
	<node id="-442295" lat="59.7783499972" lon="5.41394999761">
		<tag k="name" v="Sandvik" />
		<tag k="place" v="farm" />
		<tag k="ssr:stedsnr" v="489626" />
	</node>
	<node id="-442294" lat="59.7677963176" lon="5.40646388268">
		<tag k="fixme" v="consider place=hamlet" />
		<tag k="name" v="Nes" />
		<tag k="place" v="farm" />
		<tag k="ssr:stedsnr" v="489605" />
	</node>
	<node id="-442293" lat="59.8080200893" lon="5.36541601255">
		<tag k="fixme" v="consider place=hamlet" />
		<tag k="name" v="Petarteigen" />
		<tag k="place" v="farm" />
		<tag k="ssr:stedsnr" v="489585" />
	</node>
	<node id="-441780" lat="59.7580976106" lon="5.44537024305">
		<tag k="alt_name" v="Hattland" />
		<tag k="fixme" v="consider place=hamlet" />
		<tag k="name" v="Hatland" />
		<tag k="place" v="farm" />
		<tag k="ssr:stedsnr" v="307601" />
	</node>
	<node id="-442290" lat="59.7867000007" lon="5.42881389135">
		<tag k="name" v="Botsvik" />
		<tag k="place" v="farm" />
		<tag k="ssr:stedsnr" v="489544" />
	</node>
	<node id="-441843" lat="59.8012229165" lon="5.47910211164">
		<tag k="fixme" v="consider place=hamlet" />
		<tag k="name" v="Vatna" />
		<tag k="place" v="farm" />
		<tag k="ssr:stedsnr" v="368371" />
	</node>
	<node id="-441776" lat="59.7845805586" lon="5.45636389493">
		<tag k="name" v="Heimdal" />
		<tag k="place" v="farm" />
		<tag k="ssr:stedsnr" v="307535" />
	</node>
	<node id="-441772" lat="59.8350129553" lon="5.51765974372">
		<tag k="fixme" v="consider place=hamlet" />
		<tag k="name" v="Førland" />
		<tag k="place" v="farm" />
		<tag k="ssr:stedsnr" v="307349" />
	</node>
	<node id="-441771" lat="59.8468666642" lon="5.48415276972">
		<tag k="name" v="Lundastølen" />
		<tag k="place" v="isolated_dwelling" />
		<tag k="ssr:stedsnr" v="307323" />
	</node>
	<node id="-441750" lat="59.7516194479" lon="5.42245554715">
		<tag k="historic" v="shieling" />
		<tag k="name" v="Høgestølen" />
		<tag k="place" v="locality" />
		<tag k="ssr:stedsnr" v="281136" />
	</node>
	<node id="-442260" lat="59.7733111091" lon="5.47403889455">
		<tag k="historic" v="shieling" />
		<tag k="name" v="Tveitastølen" />
		<tag k="place" v="locality" />
		<tag k="ssr:stedsnr" v="462758" />
	</node>
	<node id="-441740" lat="59.7578194457" lon="5.45605277943">
		<tag k="alt_name" v="Hornelandsstølen" />
		<tag k="historic" v="shieling" />
		<tag k="name" v="Hornalandsstølen" />
		<tag k="place" v="locality" />
		<tag k="ssr:stedsnr" v="280795" />
	</node>
	<node id="-441735" lat="59.7853722214" lon="5.35352499731">
		<tag k="name" v="Stokken" />
		<tag k="place" v="farm" />
		<tag k="ssr:stedsnr" v="280086" />
	</node>
	<node id="-442688" lat="59.8461708529" lon="5.56959313496">
		<tag k="fixme" v="consider place=hamlet" />
		<tag k="name" v="Rossbø" />
		<tag k="place" v="farm" />
		<tag k="ssr:stedsnr" v="914289" />
	</node>
	<node id="-442238" lat="59.7503805512" lon="5.43178888825">
		<tag k="alt_name" v="Tømmervik" />
		<tag k="name" v="Timbervik" />
		<tag k="place" v="farm" />
		<tag k="ssr:stedsnr" v="429581" />
	</node>
	<node id="-442231" lat="59.803816111" lon="5.52876606061">
		<tag k="fixme" v="consider place=hamlet" />
		<tag k="name" v="Haga" />
		<tag k="place" v="farm" />
		<tag k="ssr:stedsnr" v="429317" />
	</node>
	<node id="-442229" lat="59.7996861141" lon="5.38807500566">
		<tag k="name" v="Rutle" />
		<tag k="place" v="farm" />
		<tag k="ssr:stedsnr" v="429483" />
	</node>
	<node id="-442224" lat="59.7849055559" lon="5.36797499202">
		<tag k="name" v="Knutemyr" />
		<tag k="place" v="farm" />
		<tag k="ssr:stedsnr" v="428480" />
	</node>
	<node id="-442212" lat="59.7935841637" lon="5.52702471294">
		<tag k="fixme" v="consider place=hamlet" />
		<tag k="name" v="Hysstad" />
		<tag k="place" v="farm" />
		<tag k="ssr:stedsnr" v="247381" />
	</node>
	<node id="-442209" lat="59.7686829609" lon="5.4821675262">
		<tag k="fixme" v="consider place=hamlet" />
		<tag k="name" v="Høyland" />
		<tag k="place" v="farm" />
		<tag k="ssr:stedsnr" v="246396" />
	</node>
	<node id="-442204" lat="59.8617416638" lon="5.56032500493">
		<tag k="fixme" v="consider place=hamlet" />
		<tag k="name" v="Nordhuglo" />
		<tag k="place" v="farm" />
		<tag k="ssr:stedsnr" v="220849" />
	</node>
	<node id="-442715" lat="59.7833964035" lon="5.4557629961">
		<tag k="fixme" v="consider place=hamlet" />
		<tag k="name" v="Nedre Litlabø" />
		<tag k="place" v="farm" />
		<tag k="ssr:stedsnr" v="947741" />
	</node>
	<node id="-442200" lat="59.8185972187" lon="5.49264443734">
		<tag k="name" v="Haugland" />
		<tag k="place" v="farm" />
		<tag k="ssr:stedsnr" v="220221" />
	</node>
	<node id="-442701" lat="59.7892083357" lon="5.4218250025">
		<tag k="fixme" v="consider place=hamlet" />
		<tag k="name" v="Litlabø" />
		<tag k="place" v="village" />
		<tag k="ssr:stedsnr" v="914617" />
	</node>
	<node id="-442698" lat="59.7550433428" lon="5.45270713351">
		<tag k="alt_name" v="Barkeland" />
		<tag k="fixme" v="consider place=hamlet" />
		<tag k="name" v="Byrkjeland" />
		<tag k="place" v="farm" />
		<tag k="ssr:stedsnr" v="914601" />
	</node>
	<node id="-442690" lat="59.8233258471" lon="5.49806296163">
		<tag k="fixme" v="consider place=hamlet" />
		<tag k="name" v="Presthaug" />
		<tag k="place" v="farm" />
		<tag k="ssr:stedsnr" v="914322" />
	</node>
	<node id="-442177" lat="59.7676611121" lon="5.47125555487">
		<tag k="amenity" v="school" />
		<tag k="name" v="Langeland skule" />
		<tag k="ssr:stedsnr" v="219786" />
	</node>
	<node id="-442176" lat="59.8778388858" lon="5.50007222708">
		<tag k="name" v="Stord fjellsameige" />
		<tag k="place" v="locality" />
		<tag k="ssr:stedsnr" v="219229" />
	</node>
	<node id="-442684" lat="59.7503337625" lon="5.44469339642">
		<tag k="fixme" v="consider place=hamlet" />
		<tag k="name" v="Grindevik" />
		<tag k="place" v="farm" />
		<tag k="ssr:stedsnr" v="874653" />
	</node>
	<node id="-442682" lat="59.7586111106" lon="5.47495278262">
		<tag k="name" v="Haugen" />
		<tag k="place" v="farm" />
		<tag k="ssr:stedsnr" v="874648" />
	</node>
	<node id="-442168" lat="59.9135998675" lon="5.48786844119">
		<tag k="alt_name" v="Midhamar;Midhammar" />
		<tag k="fixme" v="consider place=hamlet" />
		<tag k="name" v="Mehammar" />
		<tag k="place" v="farm" />
		<tag k="ssr:stedsnr" v="186768" />
	</node>
	<node id="-442674" lat="59.7966326522" lon="5.50288399873">
		<tag k="alt_name" v="Årland" />
		<tag k="fixme" v="consider place=hamlet" />
		<tag k="name" v="Ådland" />
		<tag k="place" v="farm" />
		<tag k="ssr:stedsnr" v="854320" />
	</node>
	<node id="-442672" lat="59.8636722226" lon="5.56508611093">
		<tag k="alt_name" v="Nord-Huglo" />
		<tag k="name" v="Nordhuglo" />
		<tag k="place" v="hamlet" />
		<tag k="ssr:stedsnr" v="854276" />
	</node>
	<node id="-442668" lat="59.8251771332" lon="5.47469731434">
		<tag k="name" v="Hauglandskverna" />
		<tag k="place" v="locality" />
		<tag k="ssr:stedsnr" v="853321" />
	</node>
	<node id="-442162" lat="59.8048277784" lon="5.48773055893">
		<tag k="name" v="Åsen" />
		<tag k="place" v="farm" />
		<tag k="ssr:stedsnr" v="186374" />
	</node>
	<node id="-442149" lat="59.781386113" lon="5.38996388894">
		<tag k="name" v="Sagvåg" />
		<tag k="place" v="village" />
		<tag k="ssr:stedsnr" v="185471" />
	</node>
	<node id="-442146" lat="59.8423666083" lon="5.59074792105">
		<tag k="fixme" v="consider place=hamlet" />
		<tag k="name" v="Litla Brandvik" />
		<tag k="place" v="farm" />
		<tag k="ssr:stedsnr" v="163203" />
	</node>
	<node id="-442639" lat="59.8246777779" lon="5.57472777457">
		<tag k="name" v="Kalfaret" />
		<tag k="place" v="farm" />
		<tag k="ssr:stedsnr" v="827082" />
	</node>
	<node id="-442667" lat="59.8286759439" lon="5.50356327626">
		<tag k="fixme" v="consider place=hamlet" />
		<tag k="name" v="Solhaug" />
		<tag k="place" v="farm" />
		<tag k="ssr:stedsnr" v="853316" />
	</node>
	<node id="-442637" lat="59.8670944422" lon="5.52004721619">
		<tag k="name" v="Grutle" />
		<tag k="place" v="farm" />
		<tag k="ssr:stedsnr" v="827065" />
	</node>
	<node id="-442636" lat="59.7832999966" lon="5.39747777931">
		<tag k="amenity" v="school" />
		<tag k="name" v="Nysæter ungdomsskule" />
		<tag k="ssr:stedsnr" v="827056" />
	</node>
	<node id="-442119" lat="59.7870194417" lon="5.41818611347">
		<tag k="name" v="Kattanes" />
		<tag k="place" v="farm" />
		<tag k="ssr:stedsnr" v="159031" />
	</node>
	<node id="-442115" lat="59.7726361112" lon="5.48159999757">
		<tag k="historic" v="shieling" />
		<tag k="name" v="Høylandstølen" />
		<tag k="place" v="locality" />
		<tag k="ssr:stedsnr" v="158861" />
	</node>
	<node id="-442114" lat="59.7803388884" lon="5.36938889054">
		<tag k="alt_name" v="Vikanes Nedre" />
		<tag k="name" v="Nedre Vikanes" />
		<tag k="place" v="farm" />
		<tag k="ssr:stedsnr" v="158790" />
	</node>
	<node id="-442155" lat="59.8155444417" lon="5.47542777954">
		<tag k="name" v="Vad" />
		<tag k="place" v="farm" />
		<tag k="ssr:stedsnr" v="186324" />
	</node>
	<node id="-442623" lat="59.7798777736" lon="5.49333055489">
		<tag k="name" v="Bandadalen" />
		<tag k="place" v="farm" />
		<tag k="ssr:stedsnr" v="826815" />
	</node>
	<node id="-442106" lat="59.7675333321" lon="5.43325555565">
		<tag k="name" v="Gjerde" />
		<tag k="place" v="farm" />
		<tag k="ssr:stedsnr" v="146634" />
	</node>
	<node id="-442103" lat="59.7517291172" lon="5.41056961358">
		<tag k="fixme" v="consider place=hamlet" />
		<tag k="name" v="Digernes" />
		<tag k="place" v="farm" />
		<tag k="ssr:stedsnr" v="125601" />
	</node>
	<node id="-442614" lat="59.8661874712" lon="5.52446820594">
		<tag k="fixme" v="consider place=hamlet" />
		<tag k="name" v="Agdestein" />
		<tag k="place" v="farm" />
		<tag k="ssr:stedsnr" v="814201" />
	</node>
	<node id="-442099" lat="59.7670527773" lon="5.40350556353">
		<tag k="alt_name" v="Øvrebø" />
		<tag k="name" v="Øvrabø" />
		<tag k="place" v="farm" />
		<tag k="ssr:stedsnr" v="125633" />
	</node>
	<node id="-442608" lat="59.8075277795" lon="5.46479999373">
		<tag k="alt_name" v="Økland, øvre" />
		<tag k="fixme" v="consider place=hamlet" />
		<tag k="name" v="Øvre Økland" />
		<tag k="place" v="farm" />
		<tag k="ssr:stedsnr" v="793581" />
	</node>
	<node id="-442092" lat="59.787733335" lon="5.46338610708">
		<tag k="name" v="Kanaløning" />
		<tag k="place" v="farm" />
		<tag k="ssr:stedsnr" v="124455" />
	</node>
	<node id="-442492" lat="59.7969499966" lon="5.43559999777">
		<tag k="name" v="Myra" />
		<tag k="place" v="farm" />
		<tag k="ssr:stedsnr" v="671510" />
	</node>
	<node id="-442427" lat="59.8401555591" lon="5.5929305605">
		<tag k="name" v="Litla Brandvik" />
		<tag k="place" v="farm" />
		<tag k="ssr:stedsnr" v="640718" />
	</node>
	<node id="-442596" lat="59.830313503" lon="5.50855185798">
		<tag k="alt_name" v="Eskeland, nedre" />
		<tag k="fixme" v="consider place=hamlet" />
		<tag k="name" v="Nedre Eskeland" />
		<tag k="place" v="farm" />
		<tag k="ssr:stedsnr" v="792305" />
	</node>
	<node id="-442595" lat="59.8210249983" lon="5.51989999445">
		<tag k="alt_name" v="Kyvik, øvre;Kivik" />
		<tag k="name" v="Øvre Kyvik" />
		<tag k="place" v="farm" />
		<tag k="ssr:stedsnr" v="792291" />
	</node>
	<node id="-442594" lat="59.8133481826" lon="5.50824113201">
		<tag k="fixme" v="consider place=hamlet" />
		<tag k="name" v="Lunde" />
		<tag k="place" v="farm" />
		<tag k="ssr:stedsnr" v="792289" />
	</node>
	<node id="-442591" lat="59.7897348216" lon="5.4696491033">
		<tag k="fixme" v="consider place=hamlet" />
		<tag k="name" v="Stuva" />
		<tag k="place" v="farm" />
		<tag k="ssr:stedsnr" v="793411" />
	</node>
	<node id="-442072" lat="59.8393277777" lon="5.47706388424">
		<tag k="historic" v="shieling" />
		<tag k="name" v="Lundsæter" />
		<tag k="place" v="locality" />
		<tag k="ssr:stedsnr" v="99155" />
	</node>
	<node id="-442068" lat="59.7702053675" lon="5.49545137084">
		<tag k="alt_name" v="Bjelland nordre" />
		<tag k="fixme" v="consider place=hamlet" />
		<tag k="name" v="Nordre Bjelland" />
		<tag k="place" v="farm" />
		<tag k="ssr:stedsnr" v="98853" />
	</node>
	<node id="-442577" lat="59.8108777737" lon="5.52250000479">
		<tag k="fixme" v="consider place=hamlet" />
		<tag k="name" v="Nedre Økland" />
		<tag k="place" v="farm" />
		<tag k="ssr:stedsnr" v="766163" />
	</node>
	<node id="-442658" lat="59.8471916678" lon="5.60330277071">
		<tag k="name" v="Brandviketræet" />
		<tag k="place" v="farm" />
		<tag k="ssr:stedsnr" v="827266" />
	</node>
	<node id="-442057" lat="59.8916222256" lon="5.514149994">
		<tag k="historic" v="shieling" />
		<tag k="name" v="Olderstølen" />
		<tag k="place" v="locality" />
		<tag k="ssr:stedsnr" v="98209" />
	</node>
	<node id="-442049" lat="59.7880054806" lon="5.41806030695">
		<tag k="fixme" v="consider place=hamlet" />
		<tag k="name" v="Øvre Litlabø" />
		<tag k="place" v="farm" />
		<tag k="ssr:stedsnr" v="98115" />
	</node>
	<node id="-442559" lat="59.7783111146" lon="5.36780833229">
		<tag k="alt_name" v="Vikanes Øvre" />
		<tag k="name" v="Øvre Vikanes" />
		<tag k="place" v="farm" />
		<tag k="ssr:stedsnr" v="765777" />
	</node>
	<node id="-442035" lat="59.8894694437" lon="5.48692777427">
		<tag k="historic" v="shieling" />
		<tag k="name" v="Bortveitsetra" />
		<tag k="place" v="locality" />
		<tag k="ssr:stedsnr" v="98206" />
	</node>
	<node id="-442033" lat="59.8466833293" lon="5.59854722668">
		<tag k="name" v="Stora Brandvik" />
		<tag k="place" v="farm" />
		<tag k="ssr:stedsnr" v="94747" />
	</node>
	<node id="-442543" lat="59.7750691941" lon="5.40987953535">
		<tag k="fixme" v="consider place=hamlet" />
		<tag k="name" v="Almås" />
		<tag k="place" v="farm" />
		<tag k="ssr:stedsnr" v="732606" />
	</node>
	<node id="-442539" lat="59.7888777803" lon="5.49156666063">
		<tag k="name" v="Kattatveit" />
		<tag k="place" v="farm" />
		<tag k="ssr:stedsnr" v="732415" />
	</node>
	<node id="-442026" lat="59.8644361147" lon="5.52499444142">
		<tag k="name" v="Sagi" />
		<tag k="place" v="locality" />
		<tag k="ssr:stedsnr" v="86162" />
	</node>
	<node id="-442536" lat="59.8099338103" lon="5.50672430945">
		<tag k="alt_name" v="Tveita, nordre;Tveita" />
		<tag k="fixme" v="consider place=hamlet" />
		<tag k="name" v="Nordre Tveita" />
		<tag k="place" v="farm" />
		<tag k="ssr:stedsnr" v="732371" />
	</node>
	<node id="-442023" lat="59.7691474703" lon="5.4236516801">
		<tag k="fixme" v="consider place=hamlet" />
		<tag k="name" v="Valvatna" />
		<tag k="place" v="farm" />
		<tag k="ssr:stedsnr" v="65557" />
	</node>
	<node id="-441777" lat="59.7886212573" lon="5.36826629423">
		<tag k="fixme" v="consider place=hamlet" />
		<tag k="name" v="Dyvik" />
		<tag k="place" v="farm" />
		<tag k="ssr:stedsnr" v="307539" />
	</node>
	<node id="-442533" lat="59.8437982196" lon="5.52689041064">
		<tag k="fixme" v="consider place=hamlet" />
		<tag k="name" v="Grov" />
		<tag k="place" v="farm" />
		<tag k="ssr:stedsnr" v="732290" />
	</node>
	<node id="-442017" lat="59.7613750017" lon="5.47845556055">
		<tag k="fixme" v="consider place=suburb, village or hamlet" />
		<tag k="name" v="Eldøy" />
		<tag k="place" v="quarter" />
		<tag k="ssr:stedsnr" v="64424" />
	</node>
	<node id="-442016" lat="59.7690799643" lon="5.47509979012">
		<tag k="alt_name" v="Langland" />
		<tag k="fixme" v="consider place=hamlet" />
		<tag k="name" v="Langeland" />
		<tag k="place" v="farm" />
		<tag k="ssr:stedsnr" v="64413" />
	</node>
	<node id="-442736" lat="59.7884214948" lon="5.3583838619">
		<tag k="fixme" v="consider place=hamlet" />
		<tag k="name" v="Mjelkevik" />
		<tag k="place" v="farm" />
		<tag k="ssr:stedsnr" v="948123" />
	</node>
	<node id="-442013" lat="59.8170297424" lon="5.5190530605">
		<tag k="name" v="Rommetveit" />
		<tag k="place" v="hamlet" />
		<tag k="ssr:stedsnr" v="64311" />
	</node>
	<node id="-442515" lat="59.8375333343" lon="5.57479167474">
		<tag k="name" v="Tjøregrova" />
		<tag k="place" v="farm" />
		<tag k="ssr:stedsnr" v="705215" />
	</node>
	<node id="-442513" lat="59.8253723325" lon="5.5043231445">
		<tag k="name" v="Geitåsen" />
		<tag k="place" v="farm" />
		<tag k="ssr:stedsnr" v="705205" />
	</node>
	<node id="-441998" lat="59.8107166626" lon="5.51146945079">
		<tag k="fixme" v="consider place=hamlet" />
		<tag k="name" v="Lundemannsverk" />
		<tag k="place" v="farm" />
		<tag k="ssr:stedsnr" v="38194" />
	</node>
	<node id="-442015" lat="59.8244540934" lon="5.52632765274">
		<tag k="alt_name" v="Kyvik, nedre" />
		<tag k="name" v="Nedre Kyvik" />
		<tag k="place" v="farm" />
		<tag k="ssr:stedsnr" v="64331" />
	</node>
	<node id="-441980" lat="59.8006694487" lon="5.52423055901">
		<tag k="fixme" v="consider place=hamlet" />
		<tag k="name" v="Sævarhagen" />
		<tag k="place" v="farm" />
		<tag k="ssr:stedsnr" v="37849" />
	</node>
	<node id="-442474" lat="59.8592514262" lon="5.50941332995">
		<tag k="fixme" v="consider place=hamlet" />
		<tag k="name" v="Hetlesæter" />
		<tag k="place" v="farm" />
		<tag k="ssr:stedsnr" v="671259" />
	</node>
	<node id="-442490" lat="59.78887816" lon="5.48391958938">
		<tag k="fixme" v="consider place=hamlet" />
		<tag k="name" v="Løning" />
		<tag k="place" v="farm" />
		<tag k="ssr:stedsnr" v="671389" />
	</node>
	<node id="-442487" lat="59.8102027785" lon="5.52566666177">
		<tag k="name" v="Okland" />
		<tag k="place" v="farm" />
		<tag k="ssr:stedsnr" v="671362" />
	</node>
	<node id="-442485" lat="59.8382333299" lon="5.48024444255">
		<tag k="name" v="Eikekleiv" />
		<tag k="place" v="isolated_dwelling" />
		<tag k="ssr:stedsnr" v="671340" />
	</node>
	<node id="-442484" lat="59.8324166458" lon="5.51255120774">
		<tag k="alt_name" v="Eskeland, øvre;Eskeland" />
		<tag k="fixme" v="consider place=hamlet" />
		<tag k="name" v="Øvre Eskeland" />
		<tag k="place" v="farm" />
		<tag k="ssr:stedsnr" v="671338" />
	</node>
	<node id="-442482" lat="59.831890454" lon="5.58981618369">
		<tag k="fixme" v="consider place=hamlet" />
		<tag k="name" v="Tveit" />
		<tag k="place" v="farm" />
		<tag k="ssr:stedsnr" v="671318" />
	</node>
	<node id="-442479" lat="59.8541977038" lon="5.52749717517">
		<tag k="alt_name" v="Bordavik" />
		<tag k="fixme" v="consider place=hamlet" />
		<tag k="name" v="Boravik" />
		<tag k="place" v="farm" />
		<tag k="ssr:stedsnr" v="671297" />
	</node>
	<node id="-442478" lat="59.8482068527" lon="5.59531520889">
		<tag k="fixme" v="consider place=hamlet" />
		<tag k="name" v="Stora Brandvik" />
		<tag k="place" v="farm" />
		<tag k="ssr:stedsnr" v="671283" />
	</node>
	<node id="-442477" lat="59.738836112" lon="5.42046944584">
		<tag k="name" v="Haugatun" />
		<tag k="place" v="farm" />
		<tag k="ssr:stedsnr" v="670589" />
	</node>
	<node id="-441962" lat="59.8444388868" lon="5.57051944017">
		<tag k="alt_name" v="Ryssbøvik" />
		<tag k="name" v="Røssbøvik" />
		<tag k="place" v="farm" />
		<tag k="ssr:stedsnr" v="25156" />
	</node>
	<node id="-442470" lat="59.8653583297" lon="5.57203610683">
		<tag k="historic" v="shieling" />
		<tag k="name" v="Litlestølen" />
		<tag k="place" v="locality" />
		<tag k="ssr:stedsnr" v="644831" />
	</node>
	<node id="-441952" lat="59.7944333693" lon="5.43598853682">
		<tag k="fixme" v="consider place=hamlet" />
		<tag k="name" v="Isdal" />
		<tag k="place" v="farm" />
		<tag k="ssr:stedsnr" v="4502" />
	</node>
	<node id="-442625" lat="59.798683332" lon="5.52353055711">
		<tag k="name" v="Svinshammaren" />
		<tag k="place" v="farm" />
		<tag k="ssr:stedsnr" v="826821" />
	</node>
	<node id="-441939" lat="59.892701579" lon="5.51383453201">
		<tag k="fixme" v="consider place=hamlet" />
		<tag k="name" v="Bortveit" />
		<tag k="place" v="farm" />
		<tag k="ssr:stedsnr" v="3255" />
	</node>
	<node id="-442449" lat="59.780951269" lon="5.3790883885">
		<tag k="amenity" v="school" />
		<tag k="name" v="Sagvåg skule" />
		<tag k="ssr:stedsnr" v="644044" />
	</node>
	<node id="-441936" lat="59.8104008559" lon="5.36058386561">
		<tag k="fixme" v="consider place=hamlet" />
		<tag k="name" v="Morken" />
		<tag k="place" v="farm" />
		<tag k="ssr:stedsnr" v="990083" />
	</node>
	<node id="-441935" lat="59.7415062645" lon="5.41550824769">
		<tag k="fixme" v="consider place=hamlet" />
		<tag k="name" v="Føyno" />
		<tag k="place" v="farm" />
		<tag k="ssr:stedsnr" v="990057" />
	</node>
	<node id="-441934" lat="59.749196687" lon="5.45355102961">
		<tag k="fixme" v="consider place=hamlet" />
		<tag k="name" v="Hornalandsvågen" />
		<tag k="place" v="farm" />
		<tag k="ssr:stedsnr" v="990056" />
	</node>
	<node id="-441933" lat="59.8085928494" lon="5.51619633442">
		<tag k="fixme" v="consider place=hamlet" />
		<tag k="name" v="Stord prestegard" />
		<tag k="place" v="farm" />
		<tag k="ssr:stedsnr" v="990055" />
	</node>
	<node id="-441932" lat="59.8233176201" lon="5.52548523253">
		<tag k="fixme" v="consider place=hamlet" />
		<tag k="name" v="Kyvik" />
		<tag k="place" v="farm" />
		<tag k="ssr:stedsnr" v="990045" />
	</node>
	<node id="-442440" lat="59.7899250022" lon="5.52468610664">
		<tag k="alt_name" v="Hystadtræet" />
		<tag k="name" v="Hysstadtræet" />
		<tag k="place" v="farm" />
		<tag k="ssr:stedsnr" v="643828" />
	</node>
	<node id="-442721" lat="59.7971361069" lon="5.53615000492">
		<tag k="name" v="Kolerakyrkjegarden" />
		<tag k="place" v="farm" />
		<tag k="ssr:stedsnr" v="947831" />
	</node>
	<node id="-442435" lat="59.7633111102" lon="5.47794999805">
		<tag k="fixme" v="consider place=hamlet" />
		<tag k="name" v="Eldøy" />
		<tag k="place" v="farm" />
		<tag k="ssr:stedsnr" v="643789" />
	</node>
	<node id="-442433" lat="59.7660916683" lon="5.46927221675">
		<tag k="name" v="Langeland" />
		<tag k="place" v="farm" />
		<tag k="ssr:stedsnr" v="643780" />
	</node>
	<node id="-441915" lat="59.7560694422" lon="5.45610277099">
		<tag k="name" v="Horneland" />
		<tag k="place" v="farm" />
		<tag k="ssr:stedsnr" v="887791" />
	</node>
	<node id="-442426" lat="59.8110638907" lon="5.5109305573">
		<tag k="name" v="Tyso" />
		<tag k="place" v="farm" />
		<tag k="ssr:stedsnr" v="632223" />
	</node>
	<node id="-442292" lat="59.788038747" lon="5.35223494252">
		<tag k="fixme" v="consider place=hamlet" />
		<tag k="name" v="Stokken" />
		<tag k="place" v="farm" />
		<tag k="ssr:stedsnr" v="489549" />
	</node>
	<node id="-442416" lat="59.7736083341" lon="5.50311388098">
		<tag k="name" v="Bjelland" />
		<tag k="place" v="farm" />
		<tag k="ssr:stedsnr" v="610455" />
	</node>
	<node id="-441901" lat="59.7894972183" lon="5.41637777483">
		<tag k="name" v="Dyråsen" />
		<tag k="place" v="farm" />
		<tag k="ssr:stedsnr" v="887136" />
	</node>
	<node id="-442412" lat="59.8168783358" lon="5.49027076593">
		<tag k="fixme" v="consider place=hamlet" />
		<tag k="name" v="Haugland" />
		<tag k="place" v="farm" />
		<tag k="ssr:stedsnr" v="610348" />
	</node>
	<node id="-441895" lat="59.8113277783" lon="5.35627777662">
		<tag k="historic" v="shieling" />
		<tag k="name" v="Stølen" />
		<tag k="place" v="locality" />
		<tag k="ssr:stedsnr" v="887091" />
	</node>
	<node id="-442289" lat="59.7527944466" lon="5.46893889515">
		<tag k="name" v="Sæbø" />
		<tag k="place" v="farm" />
		<tag k="ssr:stedsnr" v="489458" />
	</node>
	<node id="-441891" lat="59.7708979122" lon="5.40647443724">
		<tag k="amenity" v="school" />
		<tag k="name" v="Tjødnalia skule" />
		<tag k="ssr:stedsnr" v="887045" />
	</node>
	<node id="-442402" lat="59.8497916658" lon="5.57654165805">
		<tag k="name" v="Myrvoll" />
		<tag k="place" v="farm" />
		<tag k="ssr:stedsnr" v="584211" />
	</node>
	<node id="-441970" lat="59.7888635543" lon="5.50900872054">
		<tag k="alt_name" v="Orninggård" />
		<tag k="fixme" v="consider place=hamlet" />
		<tag k="name" v="Orninggard" />
		<tag k="place" v="farm" />
		<tag k="ssr:stedsnr" v="26208" />
	</node>
	<node id="-442301" lat="59.77933874" lon="5.36611407397">
		<tag k="fixme" v="consider place=hamlet" />
		<tag k="name" v="Vikenes" />
		<tag k="place" v="farm" />
		<tag k="ssr:stedsnr" v="510168" />
	</node>
	<node id="-442373" lat="59.7826111106" lon="5.40472221541">
		<tag k="fixme" v="consider place=hamlet" />
		<tag k="name" v="Nysæter" />
		<tag k="place" v="farm" />
		<tag k="ssr:stedsnr" v="583069" />
	</node>
	<node id="-442389" lat="59.7874916685" lon="5.45942222502">
		<tag k="name" v="Kannelønning" />
		<tag k="place" v="farm" />
		<tag k="ssr:stedsnr" v="583753" />
	</node>
	<node id="-442385" lat="59.8194999982" lon="5.48548055963">
		<tag k="historic" v="shieling" />
		<tag k="name" v="Kvernastølen" />
		<tag k="place" v="locality" />
		<tag k="ssr:stedsnr" v="583169" />
	</node>
	<node id="-441869" lat="59.7743638904" lon="5.39795554982">
		<tag k="name" v="Vassneset" />
		<tag k="place" v="farm" />
		<tag k="ssr:stedsnr" v="402044" />
	</node>
	<node id="-441867" lat="59.7842944406" lon="5.40976388819">
		<tag k="name" v="Åkervik åsen" />
		<tag k="place" v="farm" />
		<tag k="ssr:stedsnr" v="402027" />
	</node>
	<node id="-441862" lat="59.7921972244" lon="5.43082222665">
		<tag k="name" v="Nedre Dale" />
		<tag k="place" v="farm" />
		<tag k="ssr:stedsnr" v="401826" />
	</node>
	<node id="-441861" lat="59.7924055546" lon="5.42729167217">
		<tag k="name" v="Øvre Dale" />
		<tag k="place" v="farm" />
		<tag k="ssr:stedsnr" v="401824" />
	</node>
	<node id="-441860" lat="59.7693583292" lon="5.48772499244">
		<tag k="alt_name" v="Bjelland Søre" />
		<tag k="fixme" v="consider place=hamlet" />
		<tag k="name" v="Søre Bjelland" />
		<tag k="place" v="farm" />
		<tag k="ssr:stedsnr" v="401821" />
	</node>
	<node id="-441858" lat="59.7890666688" lon="5.50744167308">
		<tag k="name" v="Frugarden" />
		<tag k="place" v="farm" />
		<tag k="ssr:stedsnr" v="401801" />
	</node>
</osm>
