<?xml version="1.0" encoding="UTF-8"?>
<osm generator="osmapis" version="0.6">
	<node id="-35734" lat="59.9743111155" lon="10.9913749972">
		<tag k="bridge" v="yes" />
		<tag k="layer" v="1" />
		<tag k="name" v="Hellerud" />
		<tag k="ssr:date" v="2016-05-11" />
		<tag k="ssr:gruppe" v="samferdselsanlegg" />
		<tag k="ssr:hovedgruppe" v="infrastruktur" />
		<tag k="ssr:stedsnr" v="956017" />
		<tag k="ssr:type" v="bru" />
	</node>
	<node id="-35733" lat="59.9981916679" lon="11.041719445">
		<tag k="bridge" v="yes" />
		<tag k="layer" v="1" />
		<tag k="name" v="Skedsmovollen" />
		<tag k="ssr:date" v="2016-05-11" />
		<tag k="ssr:gruppe" v="samferdselsanlegg" />
		<tag k="ssr:hovedgruppe" v="infrastruktur" />
		<tag k="ssr:stedsnr" v="956014" />
		<tag k="ssr:type" v="bru" />
	</node>
	<node id="-35732" lat="59.9571333321" lon="11.0148111141">
		<tag k="name" v="Gisledalen" />
		<tag k="natural" v="valley" />
		<tag k="place" v="locality" />
		<tag k="ssr:date" v="2016-05-11" />
		<tag k="ssr:gruppe" v="senkninger" />
		<tag k="ssr:hovedgruppe" v="terreng" />
		<tag k="ssr:stedsnr" v="934425" />
		<tag k="ssr:type" v="dal" />
	</node>
	<node id="-35731" lat="59.9690194403" lon="11.0142250033">
		<tag k="name" v="Nøkleberget" />
		<tag k="natural" v="hill" />
		<tag k="place" v="locality" />
		<tag k="ssr:date" v="2016-05-11" />
		<tag k="ssr:gruppe" v="høyder" />
		<tag k="ssr:hovedgruppe" v="terreng" />
		<tag k="ssr:stedsnr" v="934418" />
		<tag k="ssr:type" v="berg" />
	</node>
	<node id="-35730" lat="59.9531027785" lon="10.9716277781">
		<tag k="fixme" v="consider natural=peak for the most distinct mountains in the district" />
		<tag k="name" v="Skjettenåsen" />
		<tag k="natural" v="hill" />
		<tag k="place" v="locality" />
		<tag k="ssr:date" v="2016-05-11" />
		<tag k="ssr:gruppe" v="høyder" />
		<tag k="ssr:hovedgruppe" v="terreng" />
		<tag k="ssr:stedsnr" v="934411" />
		<tag k="ssr:type" v="ås" />
	</node>
	<node id="-35729" lat="59.9526527744" lon="10.9915166726">
		<tag k="fixme" v="consider natural=peak for the most distinct mountains in the district" />
		<tag k="name" v="Bråteåsen" />
		<tag k="natural" v="hill" />
		<tag k="place" v="locality" />
		<tag k="ssr:date" v="2016-05-11" />
		<tag k="ssr:gruppe" v="høyder" />
		<tag k="ssr:hovedgruppe" v="terreng" />
		<tag k="ssr:stedsnr" v="934412" />
		<tag k="ssr:type" v="ås" />
	</node>
	<node id="-35728" lat="60.0063499977" lon="11.051686113">
		<tag k="name" v="Skolemesterrabben" />
		<tag k="natural" v="ridge" />
		<tag k="place" v="locality" />
		<tag k="ssr:date" v="2016-05-11" />
		<tag k="ssr:gruppe" v="høyder" />
		<tag k="ssr:hovedgruppe" v="terreng" />
		<tag k="ssr:stedsnr" v="934408" />
		<tag k="ssr:type" v="rygg" />
	</node>
	<node id="-35727" lat="59.9754333323" lon="11.1151416581">
		<tag k="fixme" v="consider natural=peak for the most distinct mountains in the district" />
		<tag k="name" v="Korpåsen" />
		<tag k="natural" v="hill" />
		<tag k="place" v="locality" />
		<tag k="ssr:date" v="2016-05-11" />
		<tag k="ssr:gruppe" v="høyder" />
		<tag k="ssr:hovedgruppe" v="terreng" />
		<tag k="ssr:stedsnr" v="934407" />
		<tag k="ssr:type" v="ås" />
	</node>
	<node id="-35726" lat="59.9501027775" lon="11.015405554">
		<tag k="amenity" v="school" />
		<tag k="name" v="Stalsberg ungdomsskole" />
		<tag k="ssr:date" v="2016-05-11" />
		<tag k="ssr:gruppe" v="institusjoner" />
		<tag k="ssr:hovedgruppe" v="bebyggelse" />
		<tag k="ssr:stedsnr" v="934329" />
		<tag k="ssr:type" v="skole" />
	</node>
	<node id="-35725" lat="59.9586083342" lon="11.0482472298">
		<tag k="amenity" v="place_of_worship" />
		<tag k="denomination" v="lutheran" />
		<tag k="name" v="Lillestrøm kirke" />
		<tag k="religion" v="christian" />
		<tag k="ssr:date" v="2016-05-11" />
		<tag k="ssr:gruppe" v="kulturinstitusjoner" />
		<tag k="ssr:hovedgruppe" v="kultur" />
		<tag k="ssr:stedsnr" v="934330" />
		<tag k="ssr:type" v="kirke" />
	</node>
	<node id="-35724" lat="59.9729166624" lon="10.9577388956">
		<tag k="name" v="Knivstikkeren" />
		<tag k="place" v="isolated_dwelling" />
		<tag k="ssr:date" v="2016-05-11" />
		<tag k="ssr:gruppe" v="bolighus" />
		<tag k="ssr:hovedgruppe" v="bebyggelse" />
		<tag k="ssr:stedsnr" v="934316" />
		<tag k="ssr:type" v="eneboligMindreBoligbygg" />
	</node>
	<node id="-35723" lat="59.9971027738" lon="11.0634277831">
		<tag k="name" v="Dammensletta" />
		<tag k="place" v="isolated_dwelling" />
		<tag k="ssr:date" v="2016-05-11" />
		<tag k="ssr:gruppe" v="bolighus" />
		<tag k="ssr:hovedgruppe" v="bebyggelse" />
		<tag k="ssr:stedsnr" v="934300" />
		<tag k="ssr:type" v="eneboligMindreBoligbygg" />
	</node>
	<node id="-35722" lat="60.0090277787" lon="11.0355472255">
		<tag k="amenity" v="school" />
		<tag k="name" v="Korshagen skole" />
		<tag k="ssr:date" v="2016-05-11" />
		<tag k="ssr:gruppe" v="institusjoner" />
		<tag k="ssr:hovedgruppe" v="bebyggelse" />
		<tag k="ssr:stedsnr" v="934299" />
		<tag k="ssr:type" v="skole" />
	</node>
	<node id="-35721" lat="59.9636166683" lon="10.9995749969">
		<tag k="amenity" v="school" />
		<tag k="name" v="Stav ungdomsskole" />
		<tag k="ssr:date" v="2016-05-11" />
		<tag k="ssr:gruppe" v="institusjoner" />
		<tag k="ssr:hovedgruppe" v="bebyggelse" />
		<tag k="ssr:stedsnr" v="934298" />
		<tag k="ssr:type" v="skole" />
	</node>
	<node id="-35720" lat="59.9826055594" lon="11.0780694403">
		<tag k="name" v="Tomtnesa" />
		<tag k="place" v="farm" />
		<tag k="ssr:date" v="2016-05-11" />
		<tag k="ssr:gruppe" v="gardsbebyggelse" />
		<tag k="ssr:hovedgruppe" v="bebyggelse" />
		<tag k="ssr:stedsnr" v="934280" />
		<tag k="ssr:type" v="bruk" />
	</node>
	<node id="-35719" lat="59.9795333341" lon="11.076491668">
		<tag k="name" v="Bergsbråten" />
		<tag k="place" v="farm" />
		<tag k="ssr:date" v="2016-05-11" />
		<tag k="ssr:gruppe" v="gardsbebyggelse" />
		<tag k="ssr:hovedgruppe" v="bebyggelse" />
		<tag k="ssr:stedsnr" v="934279" />
		<tag k="ssr:type" v="bruk" />
	</node>
	<node id="-35718" lat="59.9778805549" lon="11.029225001">
		<tag k="name" v="Østre Nitberg" />
		<tag k="place" v="farm" />
		<tag k="ssr:date" v="2016-05-11" />
		<tag k="ssr:gruppe" v="gardsbebyggelse" />
		<tag k="ssr:hovedgruppe" v="bebyggelse" />
		<tag k="ssr:stedsnr" v="934273" />
		<tag k="ssr:type" v="bruk" />
	</node>
	<node id="-35717" lat="59.9736194483" lon="11.0888666631">
		<tag k="name" v="Lysledningen" />
		<tag k="place" v="locality" />
		<tag k="ssr:date" v="2016-05-11" />
		<tag k="ssr:gruppe" v="detaljerIFerskvann" />
		<tag k="ssr:hovedgruppe" v="ferskvann" />
		<tag k="ssr:stedsnr" v="934238" />
		<tag k="ssr:type" v="annenVanndetalj" />
	</node>
	<node id="-35716" lat="59.9515638896" lon="11.0823944441">
		<tag k="name" v="Isakbekken" />
		<tag k="ssr:date" v="2016-05-11" />
		<tag k="ssr:gruppe" v="rennendeVann" />
		<tag k="ssr:hovedgruppe" v="ferskvann" />
		<tag k="ssr:stedsnr" v="934231" />
		<tag k="ssr:type" v="bekk" />
		<tag k="waterway" v="stream" />
	</node>
	<node id="-35715" lat="59.9506583345" lon="11.0938361066">
		<tag k="name" v="Borgenholtet" />
		<tag k="place" v="locality" />
		<tag k="ssr:date" v="2016-05-11" />
		<tag k="ssr:gruppe" v="dyrkamark" />
		<tag k="ssr:hovedgruppe" v="markslag" />
		<tag k="ssr:stedsnr" v="934222" />
		<tag k="ssr:type" v="utmark" />
	</node>
	<node id="-35713" lat="60.0219972203" lon="11.0094361097">
		<tag k="name" v="Damefallet" />
		<tag k="place" v="locality" />
		<tag k="ssr:date" v="2016-05-11" />
		<tag k="ssr:gruppe" v="terrengdetaljer" />
		<tag k="ssr:hovedgruppe" v="terreng" />
		<tag k="ssr:stedsnr" v="934016" />
		<tag k="ssr:type" v="annenTerrengdetalj" />
	</node>
	<node id="-35712" lat="60.015099999" lon="10.9902305536">
		<tag k="name" v="Ringnesstua" />
		<tag k="place" v="locality" />
		<tag k="ssr:date" v="2016-05-11" />
		<tag k="ssr:gruppe" v="bolighus" />
		<tag k="ssr:hovedgruppe" v="bebyggelse" />
		<tag k="ssr:stedsnr" v="934015" />
		<tag k="ssr:type" v="gammelBosettingsplass" />
	</node>
	<node id="-35711" lat="59.989754662" lon="11.023587129">
		<tag k="name" v="Brånås" />
		<tag k="place" v="hamlet" />
		<tag k="ssr:date" v="2018-11-15" />
		<tag k="ssr:gruppe" v="gardsbebyggelse" />
		<tag k="ssr:hovedgruppe" v="bebyggelse" />
		<tag k="ssr:stedsnr" v="915553" />
		<tag k="ssr:type" v="navnegard" />
	</node>
	<node id="-35710" lat="59.9665250002" lon="10.9876944527">
		<tag k="name" v="Terudenga" />
		<tag k="place" v="farm" />
		<tag k="ssr:date" v="2016-05-11" />
		<tag k="ssr:gruppe" v="gardsbebyggelse" />
		<tag k="ssr:hovedgruppe" v="bebyggelse" />
		<tag k="ssr:stedsnr" v="915530" />
		<tag k="ssr:type" v="bruk" />
	</node>
	<node id="-35709" lat="59.9864166641" lon="11.177097218">
		<tag k="name" v="Ruserud" />
		<tag k="place" v="isolated_dwelling" />
		<tag k="ssr:date" v="2016-05-11" />
		<tag k="ssr:gruppe" v="bolighus" />
		<tag k="ssr:hovedgruppe" v="bebyggelse" />
		<tag k="ssr:stedsnr" v="915467" />
		<tag k="ssr:type" v="fritidsbolig" />
	</node>
	<node id="-35708" lat="60.0177638882" lon="10.9731277839">
		<tag k="name" v="Myrhaug" />
		<tag k="place" v="isolated_dwelling" />
		<tag k="ssr:date" v="2016-05-11" />
		<tag k="ssr:gruppe" v="bolighus" />
		<tag k="ssr:hovedgruppe" v="bebyggelse" />
		<tag k="ssr:stedsnr" v="915365" />
		<tag k="ssr:type" v="eneboligMindreBoligbygg" />
	</node>
	<node id="-35707" lat="60.0041249999" lon="10.9997388901">
		<tag k="name" v="Værhaug" />
		<tag k="place" v="farm" />
		<tag k="ssr:date" v="2016-05-11" />
		<tag k="ssr:gruppe" v="gardsbebyggelse" />
		<tag k="ssr:hovedgruppe" v="bebyggelse" />
		<tag k="ssr:stedsnr" v="915315" />
		<tag k="ssr:type" v="bruk" />
	</node>
	<node id="-35706" lat="59.9538233478" lon="11.0451793282">
		<tag k="alt_name" v="Lillestrøm" />
		<tag k="name" v="Lillestrøm stasjon" />
		<tag k="railway" v="station" />
		<tag k="ssr:date" v="2018-10-22" />
		<tag k="ssr:gruppe" v="bane" />
		<tag k="ssr:hovedgruppe" v="infrastruktur" />
		<tag k="ssr:stedsnr" v="914540" />
		<tag k="ssr:type" v="stasjon" />
		<tag k="train" v="yes" />
	</node>
	<node id="-35704" lat="59.9795805546" lon="10.9947194511">
		<tag k="junction" v="yes" />
		<tag k="name" v="Hvam" />
		<tag k="place" v="locality" />
		<tag k="ssr:date" v="2016-05-11" />
		<tag k="ssr:gruppe" v="veg" />
		<tag k="ssr:hovedgruppe" v="infrastruktur" />
		<tag k="ssr:stedsnr" v="874011" />
		<tag k="ssr:type" v="vegkryss" />
	</node>
	<node id="-35703" lat="59.9740638919" lon="10.9847472313">
		<tag k="name" v="Buhaugen" />
		<tag k="natural" v="hill" />
		<tag k="place" v="locality" />
		<tag k="ssr:date" v="2016-05-11" />
		<tag k="ssr:gruppe" v="høyder" />
		<tag k="ssr:hovedgruppe" v="terreng" />
		<tag k="ssr:stedsnr" v="873460" />
		<tag k="ssr:type" v="haug" />
	</node>
	<node id="-35702" lat="59.9509916698" lon="11.0216166665">
		<tag k="name" v="Søndre Stalsberg" />
		<tag k="place" v="farm" />
		<tag k="ssr:date" v="2016-05-11" />
		<tag k="ssr:gruppe" v="gardsbebyggelse" />
		<tag k="ssr:hovedgruppe" v="bebyggelse" />
		<tag k="ssr:stedsnr" v="873384" />
		<tag k="ssr:type" v="bruk" />
	</node>
	<node id="-35701" lat="59.9582222229" lon="11.042077782">
		<tag k="leisure" v="park" />
		<tag k="name" v="Vollaparken" />
		<tag k="ssr:date" v="2016-05-11" />
		<tag k="ssr:gruppe" v="fritidsanlegg" />
		<tag k="ssr:hovedgruppe" v="bebyggelse" />
		<tag k="ssr:stedsnr" v="873381" />
		<tag k="ssr:type" v="park" />
	</node>
	<node id="-35700" lat="59.9591416708" lon="11.0565361079">
		<tag k="amenity" v="nursing_home" />
		<tag k="name" v="Lillestrøm bo- og behandlingssenter" />
		<tag k="old_name" v="Lillestrøm aldershjem" />
		<tag k="ssr:date" v="2018-11-13" />
		<tag k="ssr:gruppe" v="institusjoner" />
		<tag k="ssr:hovedgruppe" v="bebyggelse" />
		<tag k="ssr:stedsnr" v="873374" />
		<tag k="ssr:type" v="helseinstitusjon" />
	</node>
	<node id="-35699" lat="59.9936138879" lon="11.0995000011">
		<tag k="name" v="Enga" />
		<tag k="place" v="farm" />
		<tag k="ssr:date" v="2016-05-11" />
		<tag k="ssr:gruppe" v="gardsbebyggelse" />
		<tag k="ssr:hovedgruppe" v="bebyggelse" />
		<tag k="ssr:stedsnr" v="873352" />
		<tag k="ssr:type" v="bruk" />
	</node>
	<node id="-35698" lat="59.9671499975" lon="10.9555972237">
		<tag k="name" v="Hellerudkoia" />
		<tag k="place" v="isolated_dwelling" />
		<tag k="ssr:date" v="2016-05-11" />
		<tag k="ssr:gruppe" v="bolighus" />
		<tag k="ssr:hovedgruppe" v="bebyggelse" />
		<tag k="ssr:stedsnr" v="873341" />
		<tag k="ssr:type" v="fritidsbolig" />
	</node>
	<node id="-35697" lat="59.993508337" lon="11.1087027747">
		<tag k="amenity" v="school" />
		<tag k="name" v="Asak skole" />
		<tag k="ssr:date" v="2016-05-11" />
		<tag k="ssr:gruppe" v="institusjoner" />
		<tag k="ssr:hovedgruppe" v="bebyggelse" />
		<tag k="ssr:stedsnr" v="873339" />
		<tag k="ssr:type" v="skole" />
	</node>
	<node id="-35696" lat="59.9817361097" lon="11.0297194474">
		<tag k="name" v="Haugenstua" />
		<tag k="place" v="farm" />
		<tag k="ssr:date" v="2016-05-11" />
		<tag k="ssr:gruppe" v="gardsbebyggelse" />
		<tag k="ssr:hovedgruppe" v="bebyggelse" />
		<tag k="ssr:stedsnr" v="873308" />
		<tag k="ssr:type" v="bruk" />
	</node>
	<node id="-35695" lat="59.9797583365" lon="11.032586109">
		<tag k="name" v="Dompa" />
		<tag k="place" v="farm" />
		<tag k="ssr:date" v="2016-05-11" />
		<tag k="ssr:gruppe" v="gardsbebyggelse" />
		<tag k="ssr:hovedgruppe" v="bebyggelse" />
		<tag k="ssr:stedsnr" v="873301" />
		<tag k="ssr:type" v="bruk" />
	</node>
	<node id="-35694" lat="59.9828027787" lon="10.9881055619">
		<tag k="name" v="Nitsund" />
		<tag k="place" v="farm" />
		<tag k="ssr:date" v="2016-05-11" />
		<tag k="ssr:gruppe" v="gardsbebyggelse" />
		<tag k="ssr:hovedgruppe" v="bebyggelse" />
		<tag k="ssr:stedsnr" v="873299" />
		<tag k="ssr:type" v="bruk" />
	</node>
	<node id="-35693" lat="60.0163499967" lon="10.9733722252">
		<tag k="name" v="Myrenga" />
		<tag k="place" v="farm" />
		<tag k="ssr:date" v="2016-05-11" />
		<tag k="ssr:gruppe" v="gardsbebyggelse" />
		<tag k="ssr:hovedgruppe" v="bebyggelse" />
		<tag k="ssr:stedsnr" v="873276" />
		<tag k="ssr:type" v="bruk" />
	</node>
	<node id="-35692" lat="59.9897833362" lon="11.0871027758">
		<tag k="name" v="Sunnesand" />
		<tag k="place" v="island" />
		<tag k="ssr:date" v="2016-05-11" />
		<tag k="ssr:gruppe" v="ferskvannskontur" />
		<tag k="ssr:hovedgruppe" v="ferskvann" />
		<tag k="ssr:stedsnr" v="873272" />
		<tag k="ssr:type" v="øy" />
	</node>
	<node id="-35691" lat="59.9764805571" lon="11.0857861099">
		<tag k="name" v="Asakneset" />
		<tag k="natural" v="cape" />
		<tag k="ssr:date" v="2016-05-11" />
		<tag k="ssr:gruppe" v="ferskvannskontur" />
		<tag k="ssr:hovedgruppe" v="ferskvann" />
		<tag k="ssr:stedsnr" v="873271" />
		<tag k="ssr:type" v="halvøy" />
	</node>
	<node id="-35690" lat="59.9724861071" lon="11.1288305513">
		<tag k="name" v="Svinemyra" />
		<tag k="natural" v="wetland" />
		<tag k="ssr:date" v="2016-05-11" />
		<tag k="ssr:gruppe" v="våtmark" />
		<tag k="ssr:hovedgruppe" v="markslag" />
		<tag k="ssr:stedsnr" v="873258" />
		<tag k="ssr:type" v="myr" />
	</node>
	<node id="-35689" lat="60.0395361122" lon="10.9773722194">
		<tag k="alt_name" v="Klopptjern" />
		<tag k="name" v="Kropptjern" />
		<tag k="natural" v="water" />
		<tag k="ssr:date" v="2016-05-11" />
		<tag k="ssr:gruppe" v="stilleståendeVann" />
		<tag k="ssr:hovedgruppe" v="ferskvann" />
		<tag k="ssr:stedsnr" v="855416" />
		<tag k="ssr:type" v="tjern" />
	</node>
	<node id="-35688" lat="60.0062138918" lon="11.0909749958">
		<tag k="name" v="Enger" />
		<tag k="place" v="farm" />
		<tag k="ssr:date" v="2016-05-11" />
		<tag k="ssr:gruppe" v="gardsbebyggelse" />
		<tag k="ssr:hovedgruppe" v="bebyggelse" />
		<tag k="ssr:stedsnr" v="855334" />
		<tag k="ssr:type" v="bruk" />
	</node>
	<node id="-35687" lat="59.990699997" lon="10.9939777852">
		<tag k="name" v="Høgtveita" />
		<tag k="place" v="farm" />
		<tag k="ssr:date" v="2016-05-11" />
		<tag k="ssr:gruppe" v="gardsbebyggelse" />
		<tag k="ssr:hovedgruppe" v="bebyggelse" />
		<tag k="ssr:stedsnr" v="854596" />
		<tag k="ssr:type" v="bruk" />
	</node>
	<node id="-35686" lat="59.9953500024" lon="11.0457222197">
		<tag k="name" v="Nordvollen" />
		<tag k="place" v="farm" />
		<tag k="ssr:date" v="2016-05-11" />
		<tag k="ssr:gruppe" v="gardsbebyggelse" />
		<tag k="ssr:hovedgruppe" v="bebyggelse" />
		<tag k="ssr:stedsnr" v="854553" />
		<tag k="ssr:type" v="bruk" />
	</node>
	<node id="-35685" lat="59.9563519612" lon="11.0156320276">
		<tag k="alt_name" v="Sagdalen" />
		<tag k="name" v="Sagdalen holdeplass" />
		<tag k="railway" v="station" />
		<tag k="ssr:date" v="2018-10-22" />
		<tag k="ssr:gruppe" v="bane" />
		<tag k="ssr:hovedgruppe" v="infrastruktur" />
		<tag k="ssr:stedsnr" v="854505" />
		<tag k="ssr:type" v="stasjon" />
		<tag k="train" v="yes" />
	</node>
	<node id="-35684" lat="59.9589722549" lon="10.9826579703">
		<tag k="name" v="Gullhaug" />
		<tag k="place" v="farm" />
		<tag k="ssr:date" v="2017-09-14" />
		<tag k="ssr:gruppe" v="gardsbebyggelse" />
		<tag k="ssr:hovedgruppe" v="bebyggelse" />
		<tag k="ssr:stedsnr" v="854504" />
		<tag k="ssr:type" v="bruk" />
	</node>
	<node id="-35683" lat="59.9495270347" lon="11.0015623223">
		<tag k="alt_name" v="Strømmen" />
		<tag k="name" v="Strømmen stasjon" />
		<tag k="railway" v="station" />
		<tag k="ssr:date" v="2018-10-22" />
		<tag k="ssr:gruppe" v="bane" />
		<tag k="ssr:hovedgruppe" v="infrastruktur" />
		<tag k="ssr:stedsnr" v="854028" />
		<tag k="ssr:type" v="stasjon" />
		<tag k="train" v="yes" />
	</node>
	<node id="-35682" lat="59.9499833337" lon="10.9525722163">
		<tag k="bridge" v="yes" />
		<tag k="layer" v="1" />
		<tag k="name" v="Gryta" />
		<tag k="ssr:date" v="2016-05-11" />
		<tag k="ssr:gruppe" v="samferdselsanlegg" />
		<tag k="ssr:hovedgruppe" v="infrastruktur" />
		<tag k="ssr:stedsnr" v="835011" />
		<tag k="ssr:type" v="bru" />
	</node>
	<node id="-35681" lat="60.0350499978" lon="10.9717583292">
		<tag k="highway" v="path" />
		<tag k="name" v="Vangveien" />
		<tag k="ssr:date" v="2016-05-11" />
		<tag k="ssr:gruppe" v="veg" />
		<tag k="ssr:hovedgruppe" v="infrastruktur" />
		<tag k="ssr:stedsnr" v="813006" />
		<tag k="ssr:type" v="sti" />
	</node>
	<node id="-35680" lat="60.0250166677" lon="10.9797694384">
		<tag k="alt_name" v="Lauvbråtelia" />
		<tag k="name" v="Lauvbråtalia" />
		<tag k="natural" v="slope" />
		<tag k="place" v="locality" />
		<tag k="ssr:date" v="2016-05-11" />
		<tag k="ssr:gruppe" v="skråninger" />
		<tag k="ssr:hovedgruppe" v="terreng" />
		<tag k="ssr:stedsnr" v="812497" />
		<tag k="ssr:type" v="li" />
	</node>
	<node id="-35679" lat="59.9601638865" lon="11.0402833357">
		<tag k="name" v="Volla" />
		<tag k="place" v="suburb" />
		<tag k="ssr:date" v="2016-05-11" />
		<tag k="ssr:gruppe" v="bebyggelsesområder" />
		<tag k="ssr:hovedgruppe" v="bebyggelse" />
		<tag k="ssr:stedsnr" v="812398" />
		<tag k="ssr:type" v="bydel" />
	</node>
	<node id="-35677" lat="59.9570000016" lon="11.0768166753">
		<tag k="name" v="Markerud" />
		<tag k="place" v="farm" />
		<tag k="ssr:date" v="2016-05-11" />
		<tag k="ssr:gruppe" v="gardsbebyggelse" />
		<tag k="ssr:hovedgruppe" v="bebyggelse" />
		<tag k="ssr:stedsnr" v="812326" />
		<tag k="ssr:type" v="bruk" />
	</node>
	<node id="-35676" lat="59.9748388856" lon="10.9694388899">
		<tag k="name" v="Lahaug" />
		<tag k="place" v="farm" />
		<tag k="ssr:date" v="2016-05-11" />
		<tag k="ssr:gruppe" v="gardsbebyggelse" />
		<tag k="ssr:hovedgruppe" v="bebyggelse" />
		<tag k="ssr:stedsnr" v="812313" />
		<tag k="ssr:type" v="bruk" />
	</node>
	<node id="-35675" lat="60.006680558" lon="11.0191805543">
		<tag k="name" v="Jansbråten" />
		<tag k="place" v="isolated_dwelling" />
		<tag k="ssr:date" v="2016-05-11" />
		<tag k="ssr:gruppe" v="bolighus" />
		<tag k="ssr:hovedgruppe" v="bebyggelse" />
		<tag k="ssr:stedsnr" v="812309" />
		<tag k="ssr:type" v="eneboligMindreBoligbygg" />
	</node>
	<node id="-35674" lat="59.9938749959" lon="11.0096861191">
		<tag k="name" v="Skrimstadsletta" />
		<tag k="place" v="locality" />
		<tag k="ssr:date" v="2016-05-11" />
		<tag k="ssr:gruppe" v="dyrkamark" />
		<tag k="ssr:hovedgruppe" v="markslag" />
		<tag k="ssr:stedsnr" v="812275" />
		<tag k="ssr:type" v="jorde" />
	</node>
	<node id="-35673" lat="60.02410833" lon="10.9815305488">
		<tag k="name" v="Lindtjernmyra" />
		<tag k="natural" v="wetland" />
		<tag k="ssr:date" v="2016-05-11" />
		<tag k="ssr:gruppe" v="våtmark" />
		<tag k="ssr:hovedgruppe" v="markslag" />
		<tag k="ssr:stedsnr" v="812261" />
		<tag k="ssr:type" v="myr" />
	</node>
	<node id="-35672" lat="59.9778777821" lon="11.0724583401">
		<tag k="name" v="Nygård" />
		<tag k="place" v="farm" />
		<tag k="ssr:date" v="2016-05-11" />
		<tag k="ssr:gruppe" v="gardsbebyggelse" />
		<tag k="ssr:hovedgruppe" v="bebyggelse" />
		<tag k="ssr:stedsnr" v="794522" />
		<tag k="ssr:type" v="bruk" />
	</node>
	<node id="-35671" lat="60.0184193285" lon="11.0640877166">
		<tag k="alt_name" v="Berger, nordre;Berger" />
		<tag k="name" v="Nordre Berger" />
		<tag k="place" v="farm" />
		<tag k="ssr:date" v="2018-04-19" />
		<tag k="ssr:gruppe" v="gardsbebyggelse" />
		<tag k="ssr:hovedgruppe" v="bebyggelse" />
		<tag k="ssr:stedsnr" v="794366" />
		<tag k="ssr:type" v="bruk" />
	</node>
	<node id="-35670" lat="60.0217833307" lon="11.0328777769">
		<tag k="alt_name" v="Myrer, nordre" />
		<tag k="name" v="Nordre Myrer" />
		<tag k="place" v="farm" />
		<tag k="ssr:date" v="2016-05-11" />
		<tag k="ssr:gruppe" v="gardsbebyggelse" />
		<tag k="ssr:hovedgruppe" v="bebyggelse" />
		<tag k="ssr:stedsnr" v="794361" />
		<tag k="ssr:type" v="bruk" />
	</node>
	<node id="-35669" lat="60.0111749997" lon="10.9888777756">
		<tag k="name" v="Solberg" />
		<tag k="place" v="farm" />
		<tag k="ssr:date" v="2016-05-11" />
		<tag k="ssr:gruppe" v="gardsbebyggelse" />
		<tag k="ssr:hovedgruppe" v="bebyggelse" />
		<tag k="ssr:stedsnr" v="794349" />
		<tag k="ssr:type" v="bruk" />
	</node>
	<node id="-35668" lat="60.0010194479" lon="11.075383327">
		<tag k="alt_name" v="Bøler, nedre" />
		<tag k="name" v="Nedre Bøler" />
		<tag k="place" v="farm" />
		<tag k="ssr:date" v="2016-05-11" />
		<tag k="ssr:gruppe" v="gardsbebyggelse" />
		<tag k="ssr:hovedgruppe" v="bebyggelse" />
		<tag k="ssr:stedsnr" v="794302" />
		<tag k="ssr:type" v="bruk" />
	</node>
	<node id="-35667" lat="59.9802444402" lon="11.0085222237">
		<tag k="name" v="Kjellerholen" />
		<tag k="place" v="farm" />
		<tag k="ssr:date" v="2016-05-11" />
		<tag k="ssr:gruppe" v="gardsbebyggelse" />
		<tag k="ssr:hovedgruppe" v="bebyggelse" />
		<tag k="ssr:stedsnr" v="793608" />
		<tag k="ssr:type" v="bruk" />
	</node>
	<node id="-35666" lat="59.9992444434" lon="11.0080749953">
		<tag k="alt_name" v="Skolsegg" />
		<tag k="name" v="Nedre Skolsegg" />
		<tag k="place" v="farm" />
		<tag k="ssr:date" v="2016-05-11" />
		<tag k="ssr:gruppe" v="gardsbebyggelse" />
		<tag k="ssr:hovedgruppe" v="bebyggelse" />
		<tag k="ssr:stedsnr" v="793603" />
		<tag k="ssr:type" v="bruk" />
	</node>
	<node id="-35665" lat="59.9747055527" lon="11.0169583274">
		<tag k="name" v="Valstad" />
		<tag k="place" v="farm" />
		<tag k="ssr:date" v="2016-05-11" />
		<tag k="ssr:gruppe" v="gardsbebyggelse" />
		<tag k="ssr:hovedgruppe" v="bebyggelse" />
		<tag k="ssr:stedsnr" v="793568" />
		<tag k="ssr:type" v="bruk" />
	</node>
	<node id="-35664" lat="59.9749083331" lon="11.0000888927">
		<tag k="name" v="Hvam" />
		<tag k="place" v="farm" />
		<tag k="ssr:date" v="2016-05-11" />
		<tag k="ssr:gruppe" v="gardsbebyggelse" />
		<tag k="ssr:hovedgruppe" v="bebyggelse" />
		<tag k="ssr:stedsnr" v="793560" />
		<tag k="ssr:type" v="bruk" />
	</node>
	<node id="-35663" lat="59.9529055515" lon="10.9849555557">
		<tag k="name" v="Steinbekk" />
		<tag k="place" v="farm" />
		<tag k="ssr:date" v="2016-05-11" />
		<tag k="ssr:gruppe" v="gardsbebyggelse" />
		<tag k="ssr:hovedgruppe" v="bebyggelse" />
		<tag k="ssr:stedsnr" v="793538" />
		<tag k="ssr:type" v="bruk" />
	</node>
	<node id="-35662" lat="59.9512833367" lon="11.0202805508">
		<tag k="name" v="Stalsberg" />
		<tag k="place" v="farm" />
		<tag k="ssr:date" v="2016-05-11" />
		<tag k="ssr:gruppe" v="gardsbebyggelse" />
		<tag k="ssr:hovedgruppe" v="bebyggelse" />
		<tag k="ssr:stedsnr" v="793033" />
		<tag k="ssr:type" v="bruk" />
	</node>
	<node id="-35661" lat="59.9755416661" lon="11.1429777774">
		<tag k="alt_name" v="Kongsrudtjern" />
		<tag k="name" v="Kongsrudtjernet" />
		<tag k="natural" v="water" />
		<tag k="ssr:date" v="2016-05-11" />
		<tag k="ssr:gruppe" v="stilleståendeVann" />
		<tag k="ssr:hovedgruppe" v="ferskvann" />
		<tag k="ssr:stedsnr" v="793505" />
		<tag k="ssr:type" v="tjern" />
	</node>
	<node id="-35660" lat="59.984008337" lon="11.1209749991">
		<tag k="name" v="Asakmoen" />
		<tag k="place" v="farm" />
		<tag k="ssr:date" v="2016-05-11" />
		<tag k="ssr:gruppe" v="gardsbebyggelse" />
		<tag k="ssr:hovedgruppe" v="bebyggelse" />
		<tag k="ssr:stedsnr" v="793500" />
		<tag k="ssr:type" v="bruk" />
	</node>
	<node id="-35659" lat="59.975349999" lon="11.1245999982">
		<tag k="name" v="Torgunrud" />
		<tag k="place" v="farm" />
		<tag k="ssr:date" v="2016-05-11" />
		<tag k="ssr:gruppe" v="gardsbebyggelse" />
		<tag k="ssr:hovedgruppe" v="bebyggelse" />
		<tag k="ssr:stedsnr" v="793481" />
		<tag k="ssr:type" v="bruk" />
	</node>
	<node id="-35658" lat="59.9730750044" lon="11.1491305547">
		<tag k="alt_name" v="Kongsrud, s" />
		<tag k="name" v="Søndre Kongsrud" />
		<tag k="place" v="farm" />
		<tag k="ssr:date" v="2016-05-11" />
		<tag k="ssr:gruppe" v="gardsbebyggelse" />
		<tag k="ssr:hovedgruppe" v="bebyggelse" />
		<tag k="ssr:stedsnr" v="793480" />
		<tag k="ssr:type" v="bruk" />
	</node>
	<node id="-35657" lat="59.9666833302" lon="10.939144443">
		<tag k="leisure" v="pitch" />
		<tag k="name" v="Liabakkene" />
		<tag k="ssr:date" v="2016-05-11" />
		<tag k="ssr:gruppe" v="fritidsanlegg" />
		<tag k="ssr:hovedgruppe" v="bebyggelse" />
		<tag k="ssr:stedsnr" v="752021" />
		<tag k="ssr:type" v="idrettsanlegg" />
	</node>
	<node id="-35656" lat="59.9490694451" lon="10.9944083316">
		<tag k="name" v="Sankthansfjellet" />
		<tag k="natural" v="hill" />
		<tag k="place" v="locality" />
		<tag k="ssr:date" v="2016-05-11" />
		<tag k="ssr:gruppe" v="høyder" />
		<tag k="ssr:hovedgruppe" v="terreng" />
		<tag k="ssr:stedsnr" v="751501" />
		<tag k="ssr:type" v="høyde" />
	</node>
	<node id="-35655" lat="60.0169638894" lon="11.0059583315">
		<tag k="name" v="Hulderkollen" />
		<tag k="natural" v="hill" />
		<tag k="place" v="locality" />
		<tag k="ssr:date" v="2016-05-11" />
		<tag k="ssr:gruppe" v="høyder" />
		<tag k="ssr:hovedgruppe" v="terreng" />
		<tag k="ssr:stedsnr" v="751500" />
		<tag k="ssr:type" v="høyde" />
	</node>
	<node id="-35654" lat="60.010769441" lon="10.9788222219">
		<tag k="name" v="Florstubakken" />
		<tag k="natural" v="slope" />
		<tag k="place" v="locality" />
		<tag k="ssr:date" v="2016-05-11" />
		<tag k="ssr:gruppe" v="skråninger" />
		<tag k="ssr:hovedgruppe" v="terreng" />
		<tag k="ssr:stedsnr" v="751494" />
		<tag k="ssr:type" v="bakke" />
	</node>
	<node id="-35653" lat="59.9556916707" lon="11.0246638883">
		<tag k="name" v="Jenseberget" />
		<tag k="natural" v="hill" />
		<tag k="place" v="locality" />
		<tag k="ssr:date" v="2016-05-11" />
		<tag k="ssr:gruppe" v="høyder" />
		<tag k="ssr:hovedgruppe" v="terreng" />
		<tag k="ssr:stedsnr" v="751410" />
		<tag k="ssr:type" v="berg" />
	</node>
	<node id="-35652" lat="59.9820305549" lon="11.0761583274">
		<tag k="name" v="Rishagen" />
		<tag k="place" v="farm" />
		<tag k="ssr:date" v="2016-05-11" />
		<tag k="ssr:gruppe" v="gardsbebyggelse" />
		<tag k="ssr:hovedgruppe" v="bebyggelse" />
		<tag k="ssr:stedsnr" v="751348" />
		<tag k="ssr:type" v="bruk" />
	</node>
	<node id="-35651" lat="59.9808333317" lon="11.1035027756">
		<tag k="name" v="Østre Asak" />
		<tag k="place" v="farm" />
		<tag k="ssr:date" v="2016-05-11" />
		<tag k="ssr:gruppe" v="gardsbebyggelse" />
		<tag k="ssr:hovedgruppe" v="bebyggelse" />
		<tag k="ssr:stedsnr" v="751340" />
		<tag k="ssr:type" v="bruk" />
	</node>
	<node id="-35650" lat="59.9797833368" lon="11.0234027717">
		<tag k="name" v="Vestre Nitberg" />
		<tag k="place" v="farm" />
		<tag k="ssr:date" v="2016-05-11" />
		<tag k="ssr:gruppe" v="gardsbebyggelse" />
		<tag k="ssr:hovedgruppe" v="bebyggelse" />
		<tag k="ssr:stedsnr" v="751335" />
		<tag k="ssr:type" v="bruk" />
	</node>
	<node id="-35649" lat="59.9483972198" lon="11.0867361115">
		<tag k="name" v="Lille Sandhølet" />
		<tag k="place" v="island" />
		<tag k="ssr:date" v="2016-05-11" />
		<tag k="ssr:gruppe" v="ferskvannskontur" />
		<tag k="ssr:hovedgruppe" v="ferskvann" />
		<tag k="ssr:stedsnr" v="751293" />
		<tag k="ssr:type" v="øy" />
	</node>
	<node id="-35648" lat="59.9633972266" lon="10.9378277768">
		<tag k="name" v="Gropa" />
		<tag k="place" v="locality" />
		<tag k="ssr:date" v="2016-05-11" />
		<tag k="ssr:gruppe" v="terrengdetaljer" />
		<tag k="ssr:hovedgruppe" v="terreng" />
		<tag k="ssr:stedsnr" v="751023" />
		<tag k="ssr:type" v="annenTerrengdetalj" />
	</node>
	<node id="-35647" lat="60.0146416648" lon="10.9882638811">
		<tag k="name" v="Stenerstua" />
		<tag k="place" v="locality" />
		<tag k="ssr:date" v="2016-05-11" />
		<tag k="ssr:gruppe" v="bolighus" />
		<tag k="ssr:hovedgruppe" v="bebyggelse" />
		<tag k="ssr:stedsnr" v="751017" />
		<tag k="ssr:type" v="gammelBosettingsplass" />
	</node>
	<node id="-35646" lat="60.0140500009" lon="10.9743055627">
		<tag k="name" v="Nygård" />
		<tag k="place" v="farm" />
		<tag k="ssr:date" v="2016-05-11" />
		<tag k="ssr:gruppe" v="gardsbebyggelse" />
		<tag k="ssr:hovedgruppe" v="bebyggelse" />
		<tag k="ssr:stedsnr" v="734405" />
		<tag k="ssr:type" v="bruk" />
	</node>
	<node id="-35645" lat="60.007905554" lon="11.0424138898">
		<tag k="name" v="Marlund" />
		<tag k="place" v="isolated_dwelling" />
		<tag k="ssr:date" v="2016-05-11" />
		<tag k="ssr:gruppe" v="bolighus" />
		<tag k="ssr:hovedgruppe" v="bebyggelse" />
		<tag k="ssr:stedsnr" v="734385" />
		<tag k="ssr:type" v="eneboligMindreBoligbygg" />
	</node>
	<node id="-35644" lat="59.9862027795" lon="11.0575611074">
		<tag k="alt_name" v="Løkenflaen" />
		<tag k="name" v="Flaen" />
		<tag k="place" v="farm" />
		<tag k="ssr:date" v="2016-05-11" />
		<tag k="ssr:gruppe" v="gardsbebyggelse" />
		<tag k="ssr:hovedgruppe" v="bebyggelse" />
		<tag k="ssr:stedsnr" v="733551" />
		<tag k="ssr:type" v="bruk" />
	</node>
	<node id="-35643" lat="59.9963160696" lon="11.0260911997">
		<tag k="name" v="Fjellset" />
		<tag k="place" v="farm" />
		<tag k="ssr:date" v="2018-10-02" />
		<tag k="ssr:gruppe" v="gardsbebyggelse" />
		<tag k="ssr:hovedgruppe" v="bebyggelse" />
		<tag k="ssr:stedsnr" v="733548" />
		<tag k="ssr:type" v="bruk" />
	</node>
	<node id="-35642" lat="59.9928222247" lon="11.0704833248">
		<tag k="fixme" v="consider place=hamlet" />
		<tag k="name" v="Lille Kjus" />
		<tag k="place" v="farm" />
		<tag k="ssr:date" v="2018-03-12" />
		<tag k="ssr:gruppe" v="gardsbebyggelse" />
		<tag k="ssr:hovedgruppe" v="bebyggelse" />
		<tag k="ssr:stedsnr" v="733540" />
		<tag k="ssr:type" v="gard" />
	</node>
	<node id="-35641" lat="59.9906861133" lon="11.0091638877">
		<tag k="name" v="Jogstad" />
		<tag k="place" v="farm" />
		<tag k="ssr:date" v="2016-05-11" />
		<tag k="ssr:gruppe" v="gardsbebyggelse" />
		<tag k="ssr:hovedgruppe" v="bebyggelse" />
		<tag k="ssr:stedsnr" v="733541" />
		<tag k="ssr:type" v="bruk" />
	</node>
	<node id="-35640" lat="59.9878888898" lon="11.0846555606">
		<tag k="alt_name" v="Leirelva" />
		<tag k="name" v="Leira" />
		<tag k="ssr:date" v="2016-05-11" />
		<tag k="ssr:gruppe" v="rennendeVann" />
		<tag k="ssr:hovedgruppe" v="ferskvann" />
		<tag k="ssr:stedsnr" v="733534" />
		<tag k="ssr:type" v="elv" />
		<tag k="waterway" v="river" />
	</node>
	<node id="-35639" lat="59.9669055531" lon="10.9898611198">
		<tag k="name" v="Melby" />
		<tag k="place" v="farm" />
		<tag k="ssr:date" v="2016-05-11" />
		<tag k="ssr:gruppe" v="gardsbebyggelse" />
		<tag k="ssr:hovedgruppe" v="bebyggelse" />
		<tag k="ssr:stedsnr" v="733469" />
		<tag k="ssr:type" v="bruk" />
	</node>
	<node id="-35638" lat="60.0414583356" lon="10.9713444475">
		<tag k="name" v="Pettersmyra" />
		<tag k="natural" v="wetland" />
		<tag k="ssr:date" v="2016-05-11" />
		<tag k="ssr:gruppe" v="våtmark" />
		<tag k="ssr:hovedgruppe" v="markslag" />
		<tag k="ssr:stedsnr" v="733407" />
		<tag k="ssr:type" v="myr" />
	</node>
	<node id="-35637" lat="60.0004555527" lon="11.0102083299">
		<tag k="alt_name" v="Skolsegg" />
		<tag k="name" v="Øvre Skolsegg" />
		<tag k="place" v="farm" />
		<tag k="ssr:date" v="2016-05-11" />
		<tag k="ssr:gruppe" v="gardsbebyggelse" />
		<tag k="ssr:hovedgruppe" v="bebyggelse" />
		<tag k="ssr:stedsnr" v="733369" />
		<tag k="ssr:type" v="bruk" />
	</node>
	<node id="-35636" lat="60.0165861129" lon="11.0446666709">
		<tag k="name" v="Lurud" />
		<tag k="place" v="farm" />
		<tag k="ssr:date" v="2016-05-11" />
		<tag k="ssr:gruppe" v="gardsbebyggelse" />
		<tag k="ssr:hovedgruppe" v="bebyggelse" />
		<tag k="ssr:stedsnr" v="733363" />
		<tag k="ssr:type" v="bruk" />
	</node>
	<node id="-35635" lat="60.015280556" lon="11.0533111111">
		<tag k="name" v="Sandbakken" />
		<tag k="place" v="farm" />
		<tag k="ssr:date" v="2016-05-11" />
		<tag k="ssr:gruppe" v="gardsbebyggelse" />
		<tag k="ssr:hovedgruppe" v="bebyggelse" />
		<tag k="ssr:stedsnr" v="733364" />
		<tag k="ssr:type" v="bruk" />
	</node>
	<node id="-35634" lat="60.003113887" lon="11.0672277822">
		<tag k="alt_name" v="Bøler, øvre" />
		<tag k="name" v="Øvre Bøler" />
		<tag k="place" v="farm" />
		<tag k="ssr:date" v="2016-05-11" />
		<tag k="ssr:gruppe" v="gardsbebyggelse" />
		<tag k="ssr:hovedgruppe" v="bebyggelse" />
		<tag k="ssr:stedsnr" v="733313" />
		<tag k="ssr:type" v="bruk" />
	</node>
	<node id="-35633" lat="59.9506305597" lon="11.0100944487">
		<tag k="name" v="Strømmen" />
		<tag k="place" v="village" />
		<tag k="ssr:date" v="2016-05-11" />
		<tag k="ssr:gruppe" v="bebyggelsesområder" />
		<tag k="ssr:hovedgruppe" v="bebyggelse" />
		<tag k="ssr:stedsnr" v="732564" />
		<tag k="ssr:type" v="tettsted" />
	</node>
	<node id="-35632" lat="59.9861083323" lon="11.0163027769">
		<tag k="bridge" v="yes" />
		<tag k="layer" v="1" />
		<tag k="name" v="Tuterud" />
		<tag k="ssr:date" v="2016-05-11" />
		<tag k="ssr:gruppe" v="samferdselsanlegg" />
		<tag k="ssr:hovedgruppe" v="infrastruktur" />
		<tag k="ssr:stedsnr" v="713007" />
		<tag k="ssr:type" v="bru" />
	</node>
	<node id="-35631" lat="60.0381527768" lon="10.9781361087">
		<tag k="name" v="Klopptjerntoppen" />
		<tag k="natural" v="hill" />
		<tag k="place" v="locality" />
		<tag k="ssr:date" v="2016-05-11" />
		<tag k="ssr:gruppe" v="høyder" />
		<tag k="ssr:hovedgruppe" v="terreng" />
		<tag k="ssr:stedsnr" v="691464" />
		<tag k="ssr:type" v="høyde" />
	</node>
	<node id="-35630" lat="59.9701833361" lon="10.9571777766">
		<tag k="fixme" v="consider natural=peak for the most distinct mountains in the district" />
		<tag k="name" v="Nedre Lauvåsen" />
		<tag k="natural" v="hill" />
		<tag k="place" v="locality" />
		<tag k="ssr:date" v="2016-05-11" />
		<tag k="ssr:gruppe" v="høyder" />
		<tag k="ssr:hovedgruppe" v="terreng" />
		<tag k="ssr:stedsnr" v="691455" />
		<tag k="ssr:type" v="ås" />
	</node>
	<node id="-35629" lat="59.9548888882" lon="11.0268361163">
		<tag k="landuse" v="meadow" />
		<tag k="name" v="Hestehavn" />
		<tag k="ssr:date" v="2016-05-11" />
		<tag k="ssr:gruppe" v="dyrkamark" />
		<tag k="ssr:hovedgruppe" v="markslag" />
		<tag k="ssr:stedsnr" v="691394" />
		<tag k="ssr:type" v="eng" />
	</node>
	<node id="-35628" lat="59.9963888894" lon="11.0403694412">
		<tag k="amenity" v="school" />
		<tag k="name" v="Sten- Tærud skole" />
		<tag k="ssr:date" v="2016-05-11" />
		<tag k="ssr:gruppe" v="institusjoner" />
		<tag k="ssr:hovedgruppe" v="bebyggelse" />
		<tag k="ssr:stedsnr" v="691368" />
		<tag k="ssr:type" v="skole" />
	</node>
	<node id="-35627" lat="59.9821805518" lon="11.0074555629">
		<tag k="name" v="Stubberud" />
		<tag k="place" v="farm" />
		<tag k="ssr:date" v="2016-05-11" />
		<tag k="ssr:gruppe" v="gardsbebyggelse" />
		<tag k="ssr:hovedgruppe" v="bebyggelse" />
		<tag k="ssr:stedsnr" v="691335" />
		<tag k="ssr:type" v="bruk" />
	</node>
	<node id="-35626" lat="59.9834861137" lon="11.0142222204">
		<tag k="name" v="Tuterud" />
		<tag k="place" v="hamlet" />
		<tag k="ssr:date" v="2016-05-11" />
		<tag k="ssr:gruppe" v="bebyggelsesområder" />
		<tag k="ssr:hovedgruppe" v="bebyggelse" />
		<tag k="ssr:stedsnr" v="691318" />
		<tag k="ssr:type" v="grend" />
	</node>
	<node id="-35625" lat="59.9769555519" lon="11.0579472186">
		<tag k="name" v="Dalheim" />
		<tag k="place" v="hamlet" />
		<tag k="ssr:date" v="2016-05-11" />
		<tag k="ssr:gruppe" v="bebyggelsesområder" />
		<tag k="ssr:hovedgruppe" v="bebyggelse" />
		<tag k="ssr:stedsnr" v="691317" />
		<tag k="ssr:type" v="grend" />
	</node>
	<node id="-35624" lat="60.005422221" lon="11.0189583401">
		<tag k="name" v="Tærudstuen" />
		<tag k="place" v="farm" />
		<tag k="ssr:date" v="2016-05-11" />
		<tag k="ssr:gruppe" v="gardsbebyggelse" />
		<tag k="ssr:hovedgruppe" v="bebyggelse" />
		<tag k="ssr:stedsnr" v="691309" />
		<tag k="ssr:type" v="bruk" />
	</node>
	<node id="-35623" lat="59.97742778" lon="11.0775111076">
		<tag k="name" v="Bergsbråtasvingen" />
		<tag k="place" v="locality" />
		<tag k="ssr:date" v="2016-05-11" />
		<tag k="ssr:gruppe" v="detaljerIFerskvann" />
		<tag k="ssr:hovedgruppe" v="ferskvann" />
		<tag k="ssr:stedsnr" v="691298" />
		<tag k="ssr:type" v="annenVanndetalj" />
	</node>
	<node id="-35622" lat="59.9403027776" lon="11.0704583321">
		<tag k="name" v="Krim" />
		<tag k="natural" v="cape" />
		<tag k="ssr:date" v="2016-05-11" />
		<tag k="ssr:gruppe" v="ferskvannskontur" />
		<tag k="ssr:hovedgruppe" v="ferskvann" />
		<tag k="ssr:stedsnr" v="691295" />
		<tag k="ssr:type" v="halvøy" />
	</node>
	<node id="-35621" lat="59.946147219" lon="11.0618805621">
		<tag k="name" v="Heiavika" />
		<tag k="natural" v="bay" />
		<tag k="ssr:date" v="2016-05-11" />
		<tag k="ssr:gruppe" v="ferskvannskontur" />
		<tag k="ssr:hovedgruppe" v="ferskvann" />
		<tag k="ssr:stedsnr" v="691288" />
		<tag k="ssr:type" v="vik" />
	</node>
	<node id="-35620" lat="60.0153333333" lon="10.9821416652">
		<tag k="name" v="Kålhagemyra" />
		<tag k="natural" v="wetland" />
		<tag k="ssr:date" v="2016-05-11" />
		<tag k="ssr:gruppe" v="våtmark" />
		<tag k="ssr:hovedgruppe" v="markslag" />
		<tag k="ssr:stedsnr" v="691273" />
		<tag k="ssr:type" v="myr" />
	</node>
	<node id="-35619" lat="59.9459444444" lon="11.0715527784">
		<tag k="name" v="Gullaugdammen" />
		<tag k="ssr:date" v="2016-05-11" />
		<tag k="ssr:gruppe" v="stilleståendeVann" />
		<tag k="ssr:hovedgruppe" v="ferskvann" />
		<tag k="ssr:stedsnr" v="691026" />
		<tag k="ssr:type" v="dam" />
		<tag k="waterway" v="dam" />
	</node>
	<node id="-35618" lat="59.9995583292" lon="11.0536277861">
		<tag k="name" v="Farseggen" />
		<tag k="place" v="farm" />
		<tag k="ssr:date" v="2016-05-10" />
		<tag k="ssr:gruppe" v="gardsbebyggelse" />
		<tag k="ssr:hovedgruppe" v="bebyggelse" />
		<tag k="ssr:stedsnr" v="673411" />
		<tag k="ssr:type" v="bruk" />
	</node>
	<node id="-35617" lat="60.0134527791" lon="10.9935944439">
		<tag k="alt_name" v="Ringnes, nordre" />
		<tag k="name" v="Øvre Ringnes" />
		<tag k="place" v="farm" />
		<tag k="ssr:date" v="2016-05-10" />
		<tag k="ssr:gruppe" v="gardsbebyggelse" />
		<tag k="ssr:hovedgruppe" v="bebyggelse" />
		<tag k="ssr:stedsnr" v="673384" />
		<tag k="ssr:type" v="bruk" />
	</node>
	<node id="-35616" lat="60.0118232313" lon="11.0565540019">
		<tag k="name" v="Søndre Berger" />
		<tag k="place" v="farm" />
		<tag k="ssr:date" v="2018-04-19" />
		<tag k="ssr:gruppe" v="gardsbebyggelse" />
		<tag k="ssr:hovedgruppe" v="bebyggelse" />
		<tag k="ssr:stedsnr" v="673370" />
		<tag k="ssr:type" v="bruk" />
	</node>
	<node id="-35615" lat="59.9893027754" lon="11.0031638889">
		<tag k="alt_name" v="Møien" />
		<tag k="loc_name" v="Møi" />
		<tag k="name" v="Møyen" />
		<tag k="place" v="farm" />
		<tag k="ssr:date" v="2016-05-10" />
		<tag k="ssr:gruppe" v="gardsbebyggelse" />
		<tag k="ssr:hovedgruppe" v="bebyggelse" />
		<tag k="ssr:stedsnr" v="672585" />
		<tag k="ssr:type" v="bruk" />
	</node>
	<node id="-35614" lat="59.9859027771" lon="10.9921722204">
		<tag k="name" v="Sundtveita" />
		<tag k="place" v="farm" />
		<tag k="ssr:date" v="2016-05-10" />
		<tag k="ssr:gruppe" v="gardsbebyggelse" />
		<tag k="ssr:hovedgruppe" v="bebyggelse" />
		<tag k="ssr:stedsnr" v="672546" />
		<tag k="ssr:type" v="bruk" />
	</node>
	<node id="-35613" lat="59.997577779" lon="11.0142611041">
		<tag k="name" v="Haug" />
		<tag k="place" v="farm" />
		<tag k="ssr:date" v="2016-05-10" />
		<tag k="ssr:gruppe" v="gardsbebyggelse" />
		<tag k="ssr:hovedgruppe" v="bebyggelse" />
		<tag k="ssr:stedsnr" v="672538" />
		<tag k="ssr:type" v="bruk" />
	</node>
	<node id="-35612" lat="59.9895722206" lon="11.049150003">
		<tag k="name" v="Løken" />
		<tag k="place" v="farm" />
		<tag k="ssr:date" v="2016-05-10" />
		<tag k="ssr:gruppe" v="gardsbebyggelse" />
		<tag k="ssr:hovedgruppe" v="bebyggelse" />
		<tag k="ssr:stedsnr" v="672533" />
		<tag k="ssr:type" v="bruk" />
	</node>
	<node id="-35611" lat="59.9611249978" lon="10.9812916728">
		<tag k="name" v="Tømte" />
		<tag k="place" v="farm" />
		<tag k="ssr:date" v="2017-09-14" />
		<tag k="ssr:gruppe" v="gardsbebyggelse" />
		<tag k="ssr:hovedgruppe" v="bebyggelse" />
		<tag k="ssr:stedsnr" v="672516" />
		<tag k="ssr:type" v="bruk" />
	</node>
	<node id="-35610" lat="59.9686638903" lon="10.9804250026">
		<tag k="alt_name" v="Tærud" />
		<tag k="name" v="Terud" />
		<tag k="place" v="farm" />
		<tag k="ssr:date" v="2016-05-10" />
		<tag k="ssr:gruppe" v="gardsbebyggelse" />
		<tag k="ssr:hovedgruppe" v="bebyggelse" />
		<tag k="ssr:stedsnr" v="672513" />
		<tag k="ssr:type" v="bruk" />
	</node>
	<node id="-35609" lat="59.9801750034" lon="11.1121999984">
		<tag k="name" v="Flaen" />
		<tag k="place" v="farm" />
		<tag k="ssr:date" v="2016-05-10" />
		<tag k="ssr:gruppe" v="gardsbebyggelse" />
		<tag k="ssr:hovedgruppe" v="bebyggelse" />
		<tag k="ssr:stedsnr" v="672435" />
		<tag k="ssr:type" v="bruk" />
	</node>
	<node id="-35608" lat="59.9755305542" lon="11.1331388829">
		<tag k="name" v="Svarttjern" />
		<tag k="natural" v="water" />
		<tag k="ssr:date" v="2016-05-10" />
		<tag k="ssr:gruppe" v="stilleståendeVann" />
		<tag k="ssr:hovedgruppe" v="ferskvann" />
		<tag k="ssr:stedsnr" v="672422" />
		<tag k="ssr:type" v="tjern" />
	</node>
	<node id="-35607" lat="59.980622995" lon="11.0453519322">
		<tag k="fixme" v="consider place=hamlet" />
		<tag k="name" v="Ris" />
		<tag k="place" v="farm" />
		<tag k="ssr:date" v="2018-10-09" />
		<tag k="ssr:gruppe" v="gardsbebyggelse" />
		<tag k="ssr:hovedgruppe" v="bebyggelse" />
		<tag k="ssr:stedsnr" v="652790" />
		<tag k="ssr:type" v="gard" />
	</node>
	<node id="-35606" lat="59.9970527782" lon="11.0436500036">
		<tag k="bridge" v="yes" />
		<tag k="layer" v="1" />
		<tag k="name" v="Tærud" />
		<tag k="ssr:date" v="2016-05-10" />
		<tag k="ssr:gruppe" v="samferdselsanlegg" />
		<tag k="ssr:hovedgruppe" v="infrastruktur" />
		<tag k="ssr:stedsnr" v="652005" />
		<tag k="ssr:type" v="bru" />
	</node>
	<node id="-35605" lat="59.9755694455" lon="11.1305000004">
		<tag k="name" v="Haukåsen" />
		<tag k="natural" v="hill" />
		<tag k="place" v="locality" />
		<tag k="ssr:date" v="2016-05-10" />
		<tag k="ssr:gruppe" v="høyder" />
		<tag k="ssr:hovedgruppe" v="terreng" />
		<tag k="ssr:stedsnr" v="630426" />
		<tag k="ssr:type" v="høyde" />
	</node>
	<node id="-35604" lat="59.9902333326" lon="11.1113361054">
		<tag k="name" v="Stordalen" />
		<tag k="natural" v="valley" />
		<tag k="place" v="locality" />
		<tag k="ssr:date" v="2016-05-10" />
		<tag k="ssr:gruppe" v="senkninger" />
		<tag k="ssr:hovedgruppe" v="terreng" />
		<tag k="ssr:stedsnr" v="630417" />
		<tag k="ssr:type" v="dal" />
	</node>
	<node id="-35603" lat="59.9742192133" lon="10.9336217034">
		<tag k="name" v="Tokerudtjern" />
		<tag k="natural" v="water" />
		<tag k="ssr:date" v="2019-03-12" />
		<tag k="ssr:gruppe" v="stilleståendeVann" />
		<tag k="ssr:hovedgruppe" v="ferskvann" />
		<tag k="ssr:stedsnr" v="630414" />
		<tag k="ssr:type" v="tjern" />
	</node>
	<node id="-35601" lat="59.9511249987" lon="11.0127833252">
		<tag k="amenity" v="school" />
		<tag k="name" v="Sagdalen skole" />
		<tag k="ssr:date" v="2016-05-10" />
		<tag k="ssr:gruppe" v="institusjoner" />
		<tag k="ssr:hovedgruppe" v="bebyggelse" />
		<tag k="ssr:stedsnr" v="630349" />
		<tag k="ssr:type" v="skole" />
	</node>
	<node id="-35600" lat="59.9542944466" lon="11.037108331">
		<tag k="name" v="Dampsagtomta" />
		<tag k="place" v="quarter" />
		<tag k="ssr:date" v="2016-05-10" />
		<tag k="ssr:gruppe" v="bebyggelsesområder" />
		<tag k="ssr:hovedgruppe" v="bebyggelse" />
		<tag k="ssr:stedsnr" v="630341" />
		<tag k="ssr:type" v="industriområde" />
	</node>
	<node id="-35599" lat="60.0087888883" lon="11.033750003">
		<tag k="amenity" v="school" />
		<tag k="name" v="Åsenhagen skole" />
		<tag k="ssr:date" v="2016-05-10" />
		<tag k="ssr:gruppe" v="institusjoner" />
		<tag k="ssr:hovedgruppe" v="bebyggelse" />
		<tag k="ssr:stedsnr" v="630305" />
		<tag k="ssr:type" v="skole" />
	</node>
	<node id="-35598" lat="59.987463886" lon="11.0617416656">
		<tag k="name" v="Slogum" />
		<tag k="place" v="farm" />
		<tag k="ssr:date" v="2016-05-10" />
		<tag k="ssr:gruppe" v="gardsbebyggelse" />
		<tag k="ssr:hovedgruppe" v="bebyggelse" />
		<tag k="ssr:stedsnr" v="630302" />
		<tag k="ssr:type" v="bruk" />
	</node>
	<node id="-35597" lat="59.9707833303" lon="11.008047231">
		<tag k="name" v="Solvang" />
		<tag k="place" v="farm" />
		<tag k="ssr:date" v="2016-05-10" />
		<tag k="ssr:gruppe" v="gardsbebyggelse" />
		<tag k="ssr:hovedgruppe" v="bebyggelse" />
		<tag k="ssr:stedsnr" v="630298" />
		<tag k="ssr:type" v="bruk" />
	</node>
	<node id="-35596" lat="59.9634388906" lon="11.0182527759">
		<tag k="name" v="Stavstranden" />
		<tag k="place" v="farm" />
		<tag k="ssr:date" v="2016-05-10" />
		<tag k="ssr:gruppe" v="gardsbebyggelse" />
		<tag k="ssr:hovedgruppe" v="bebyggelse" />
		<tag k="ssr:stedsnr" v="630290" />
		<tag k="ssr:type" v="bruk" />
	</node>
	<node id="-35595" lat="59.9760694455" lon="10.9796499916">
		<tag k="name" v="Haugsholen" />
		<tag k="place" v="farm" />
		<tag k="ssr:date" v="2016-05-10" />
		<tag k="ssr:gruppe" v="gardsbebyggelse" />
		<tag k="ssr:hovedgruppe" v="bebyggelse" />
		<tag k="ssr:stedsnr" v="630285" />
		<tag k="ssr:type" v="bruk" />
	</node>
	<node id="-35594" lat="59.972641664" lon="10.9727388916">
		<tag k="name" v="Foss" />
		<tag k="place" v="farm" />
		<tag k="ssr:date" v="2016-05-10" />
		<tag k="ssr:gruppe" v="gardsbebyggelse" />
		<tag k="ssr:hovedgruppe" v="bebyggelse" />
		<tag k="ssr:stedsnr" v="630284" />
		<tag k="ssr:type" v="bruk" />
	</node>
	<node id="-35593" lat="59.9476055588" lon="11.0008333329">
		<tag k="name" v="Næbben" />
		<tag k="place" v="farm" />
		<tag k="ssr:date" v="2016-05-10" />
		<tag k="ssr:gruppe" v="gardsbebyggelse" />
		<tag k="ssr:hovedgruppe" v="bebyggelse" />
		<tag k="ssr:stedsnr" v="630278" />
		<tag k="ssr:type" v="bruk" />
	</node>
	<node id="-35592" lat="60.0142611124" lon="11.0257472307">
		<tag k="name" v="Kroken" />
		<tag k="place" v="hamlet" />
		<tag k="ssr:date" v="2016-05-10" />
		<tag k="ssr:gruppe" v="bebyggelsesområder" />
		<tag k="ssr:hovedgruppe" v="bebyggelse" />
		<tag k="ssr:stedsnr" v="630276" />
		<tag k="ssr:type" v="grend" />
	</node>
	<node id="-35591" lat="59.9750999972" lon="11.1010361147">
		<tag k="name" v="Asaklandet" />
		<tag k="place" v="locality" />
		<tag k="ssr:date" v="2016-05-10" />
		<tag k="ssr:gruppe" v="dyrkamark" />
		<tag k="ssr:hovedgruppe" v="markslag" />
		<tag k="ssr:stedsnr" v="630246" />
		<tag k="ssr:type" v="jorde" />
	</node>
	<node id="-35590" lat="59.9713861078" lon="11.1404583318">
		<tag k="name" v="Finnbråten" />
		<tag k="place" v="locality" />
		<tag k="ssr:date" v="2016-05-10" />
		<tag k="ssr:gruppe" v="bolighus" />
		<tag k="ssr:hovedgruppe" v="bebyggelse" />
		<tag k="ssr:stedsnr" v="630026" />
		<tag k="ssr:type" v="gammelBosettingsplass" />
	</node>
	<node id="-35589" lat="60.0307916647" lon="10.9741027851">
		<tag k="name" v="Kropptjernbekken" />
		<tag k="ssr:date" v="2016-05-10" />
		<tag k="ssr:gruppe" v="rennendeVann" />
		<tag k="ssr:hovedgruppe" v="ferskvann" />
		<tag k="ssr:stedsnr" v="612428" />
		<tag k="ssr:type" v="bekk" />
		<tag k="waterway" v="stream" />
	</node>
	<node id="-35588" lat="59.9970611113" lon="11.0817166641">
		<tag k="alt_name" v="Ullreng;Ullreng søndre" />
		<tag k="name" v="Søndre Ullreng" />
		<tag k="place" v="farm" />
		<tag k="ssr:date" v="2016-05-10" />
		<tag k="ssr:gruppe" v="gardsbebyggelse" />
		<tag k="ssr:hovedgruppe" v="bebyggelse" />
		<tag k="ssr:stedsnr" v="611574" />
		<tag k="ssr:type" v="bruk" />
	</node>
	<node id="-35587" lat="59.9771583312" lon="10.9777333277">
		<tag k="name" v="Hellerud" />
		<tag k="place" v="farm" />
		<tag k="ssr:date" v="2016-05-10" />
		<tag k="ssr:gruppe" v="gardsbebyggelse" />
		<tag k="ssr:hovedgruppe" v="bebyggelse" />
		<tag k="ssr:stedsnr" v="611531" />
		<tag k="ssr:type" v="bruk" />
	</node>
	<node id="-35586" lat="59.9688472184" lon="11.0590027764">
		<tag k="alt_name" v="Sørum, vestre" />
		<tag k="name" v="Vestre Sørum" />
		<tag k="place" v="farm" />
		<tag k="ssr:date" v="2016-05-10" />
		<tag k="ssr:gruppe" v="gardsbebyggelse" />
		<tag k="ssr:hovedgruppe" v="bebyggelse" />
		<tag k="ssr:stedsnr" v="611507" />
		<tag k="ssr:type" v="bruk" />
	</node>
	<node id="-35585" lat="59.9854750006" lon="11.1305166638">
		<tag k="name" v="Sjursrud" />
		<tag k="place" v="farm" />
		<tag k="ssr:date" v="2016-05-10" />
		<tag k="ssr:gruppe" v="gardsbebyggelse" />
		<tag k="ssr:hovedgruppe" v="bebyggelse" />
		<tag k="ssr:stedsnr" v="611468" />
		<tag k="ssr:type" v="bruk" />
	</node>
	<node id="-35584" lat="60.0095055578" lon="11.0307749991">
		<tag k="bridge" v="yes" />
		<tag k="layer" v="1" />
		<tag k="name" v="Åsenhagen" />
		<tag k="ssr:date" v="2016-05-10" />
		<tag k="ssr:gruppe" v="samferdselsanlegg" />
		<tag k="ssr:hovedgruppe" v="infrastruktur" />
		<tag k="ssr:stedsnr" v="591001" />
		<tag k="ssr:type" v="bru" />
	</node>
	<node id="-35583" lat="60.0130666624" lon="10.9770250036">
		<tag k="junction" v="yes" />
		<tag k="name" v="Solberg" />
		<tag k="place" v="locality" />
		<tag k="ssr:date" v="2016-05-10" />
		<tag k="ssr:gruppe" v="veg" />
		<tag k="ssr:hovedgruppe" v="infrastruktur" />
		<tag k="ssr:stedsnr" v="570012" />
		<tag k="ssr:type" v="vegkryss" />
	</node>
	<node id="-35582" lat="59.9613916652" lon="11.0749194458">
		<tag k="name" v="Oksefjellet" />
		<tag k="natural" v="hill" />
		<tag k="place" v="locality" />
		<tag k="ssr:date" v="2016-05-10" />
		<tag k="ssr:gruppe" v="høyder" />
		<tag k="ssr:hovedgruppe" v="terreng" />
		<tag k="ssr:stedsnr" v="569481" />
		<tag k="ssr:type" v="høyde" />
	</node>
	<node id="-35581" lat="59.9969833348" lon="11.0166944413">
		<tag k="name" v="Hattemakerlia" />
		<tag k="natural" v="slope" />
		<tag k="place" v="locality" />
		<tag k="ssr:date" v="2016-05-10" />
		<tag k="ssr:gruppe" v="skråninger" />
		<tag k="ssr:hovedgruppe" v="terreng" />
		<tag k="ssr:stedsnr" v="569469" />
		<tag k="ssr:type" v="li" />
	</node>
	<node id="-35580" lat="60.0209666711" lon="10.9855944456">
		<tag k="name" v="Proppslia" />
		<tag k="natural" v="slope" />
		<tag k="place" v="locality" />
		<tag k="ssr:date" v="2016-05-10" />
		<tag k="ssr:gruppe" v="skråninger" />
		<tag k="ssr:hovedgruppe" v="terreng" />
		<tag k="ssr:stedsnr" v="569470" />
		<tag k="ssr:type" v="li" />
	</node>
	<node id="-35579" lat="59.9628055587" lon="10.9412694401">
		<tag k="name" v="Kongedalen" />
		<tag k="natural" v="valley" />
		<tag k="place" v="locality" />
		<tag k="ssr:date" v="2016-05-10" />
		<tag k="ssr:gruppe" v="senkninger" />
		<tag k="ssr:hovedgruppe" v="terreng" />
		<tag k="ssr:stedsnr" v="569467" />
		<tag k="ssr:type" v="dal" />
	</node>
	<node id="-35578" lat="59.9932361073" lon="11.0446666629">
		<tag k="name" v="Prestegård" />
		<tag k="place" v="isolated_dwelling" />
		<tag k="ssr:date" v="2016-05-10" />
		<tag k="ssr:gruppe" v="bolighus" />
		<tag k="ssr:hovedgruppe" v="bebyggelse" />
		<tag k="ssr:stedsnr" v="569348" />
		<tag k="ssr:type" v="eneboligMindreBoligbygg" />
	</node>
	<node id="-35577" lat="59.988947226" lon="11.1030722273">
		<tag k="name" v="Nedre Asak" />
		<tag k="place" v="farm" />
		<tag k="ssr:date" v="2016-05-10" />
		<tag k="ssr:gruppe" v="gardsbebyggelse" />
		<tag k="ssr:hovedgruppe" v="bebyggelse" />
		<tag k="ssr:stedsnr" v="569341" />
		<tag k="ssr:type" v="bruk" />
	</node>
	<node id="-35576" lat="60.0393694486" lon="10.993805561">
		<tag k="name" v="Ramstadhytta" />
		<tag k="place" v="isolated_dwelling" />
		<tag k="ssr:date" v="2016-05-10" />
		<tag k="ssr:gruppe" v="bolighus" />
		<tag k="ssr:hovedgruppe" v="bebyggelse" />
		<tag k="ssr:stedsnr" v="569331" />
		<tag k="ssr:type" v="fritidsbolig" />
	</node>
	<node id="-35575" lat="59.9410722188" lon="11.0673055622">
		<tag k="name" v="Åmotvarpet" />
		<tag k="place" v="locality" />
		<tag k="ssr:date" v="2016-05-10" />
		<tag k="ssr:gruppe" v="detaljerIFerskvann" />
		<tag k="ssr:hovedgruppe" v="ferskvann" />
		<tag k="ssr:stedsnr" v="569277" />
		<tag k="ssr:type" v="annenVanndetalj" />
	</node>
	<node id="-35574" lat="59.9423055572" lon="11.0817638876">
		<tag k="name" v="Andevika" />
		<tag k="natural" v="bay" />
		<tag k="ssr:date" v="2016-05-10" />
		<tag k="ssr:gruppe" v="ferskvannskontur" />
		<tag k="ssr:hovedgruppe" v="ferskvann" />
		<tag k="ssr:stedsnr" v="569259" />
		<tag k="ssr:type" v="vik" />
	</node>
	<node id="-35573" lat="60.0173416675" lon="10.980972221">
		<tag k="name" v="Blåbærmyra" />
		<tag k="natural" v="wetland" />
		<tag k="ssr:date" v="2016-05-10" />
		<tag k="ssr:gruppe" v="våtmark" />
		<tag k="ssr:hovedgruppe" v="markslag" />
		<tag k="ssr:stedsnr" v="569245" />
		<tag k="ssr:type" v="myr" />
	</node>
	<node id="-35572" lat="59.9678222245" lon="10.9740583339">
		<tag k="name" v="Tærudtajet" />
		<tag k="place" v="locality" />
		<tag k="ssr:date" v="2016-05-10" />
		<tag k="ssr:gruppe" v="bolighus" />
		<tag k="ssr:hovedgruppe" v="bebyggelse" />
		<tag k="ssr:stedsnr" v="569023" />
		<tag k="ssr:type" v="gammelBosettingsplass" />
	</node>
	<node id="-35571" lat="59.9559722194" lon="11.049180551">
		<tag k="name" v="Lillestrøm" />
		<tag k="place" v="town" />
		<tag k="ssr:date" v="2016-05-10" />
		<tag k="ssr:gruppe" v="bebyggelsesområder" />
		<tag k="ssr:hovedgruppe" v="bebyggelse" />
		<tag k="ssr:stedsnr" v="551499" />
		<tag k="ssr:type" v="by" />
	</node>
	<node id="-35570" lat="60.0256805515" lon="11.0180555517">
		<tag k="name" v="Ulvedalsbekken" />
		<tag k="ssr:date" v="2016-05-10" />
		<tag k="ssr:gruppe" v="rennendeVann" />
		<tag k="ssr:hovedgruppe" v="ferskvann" />
		<tag k="ssr:stedsnr" v="551387" />
		<tag k="ssr:type" v="bekk" />
		<tag k="waterway" v="stream" />
	</node>
	<node id="-35569" lat="60.0121499958" lon="11.0342361031">
		<tag k="name" v="Åsenhagen" />
		<tag k="place" v="quarter" />
		<tag k="ssr:date" v="2016-05-10" />
		<tag k="ssr:gruppe" v="bebyggelsesområder" />
		<tag k="ssr:hovedgruppe" v="bebyggelse" />
		<tag k="ssr:stedsnr" v="551378" />
		<tag k="ssr:type" v="boligfelt" />
	</node>
	<node id="-35568" lat="60.0196138847" lon="11.022388891">
		<tag k="name" v="Søndre Holm" />
		<tag k="place" v="farm" />
		<tag k="ssr:date" v="2016-05-10" />
		<tag k="ssr:gruppe" v="gardsbebyggelse" />
		<tag k="ssr:hovedgruppe" v="bebyggelse" />
		<tag k="ssr:stedsnr" v="551374" />
		<tag k="ssr:type" v="bruk" />
	</node>
	<node id="-35567" lat="60.0225999989" lon="10.997197222">
		<tag k="fixme" v="consider natural=peak for the most distinct mountains in the district" />
		<tag k="name" v="Geitåsen" />
		<tag k="natural" v="hill" />
		<tag k="place" v="locality" />
		<tag k="ssr:date" v="2016-05-10" />
		<tag k="ssr:gruppe" v="høyder" />
		<tag k="ssr:hovedgruppe" v="terreng" />
		<tag k="ssr:stedsnr" v="551372" />
		<tag k="ssr:type" v="ås" />
	</node>
	<node id="-35566" lat="60.0064888861" lon="11.009641664">
		<tag k="name" v="Øvre Tærud" />
		<tag k="place" v="farm" />
		<tag k="ssr:date" v="2016-05-10" />
		<tag k="ssr:gruppe" v="gardsbebyggelse" />
		<tag k="ssr:hovedgruppe" v="bebyggelse" />
		<tag k="ssr:stedsnr" v="551357" />
		<tag k="ssr:type" v="bruk" />
	</node>
	<node id="-35565" lat="60.0132305527" lon="11.0087972147">
		<tag k="name" v="Tærudkampen" />
		<tag k="natural" v="hill" />
		<tag k="place" v="locality" />
		<tag k="ssr:date" v="2016-05-10" />
		<tag k="ssr:gruppe" v="høyder" />
		<tag k="ssr:hovedgruppe" v="terreng" />
		<tag k="ssr:stedsnr" v="551358" />
		<tag k="ssr:type" v="haug" />
	</node>
	<node id="-35564" lat="59.9924888849" lon="11.117499998">
		<tag k="fixme" v="consider natural=peak for the most distinct mountains in the district" />
		<tag k="name" v="Hauglifjellet" />
		<tag k="natural" v="hill" />
		<tag k="place" v="locality" />
		<tag k="ssr:date" v="2016-05-10" />
		<tag k="ssr:gruppe" v="høyder" />
		<tag k="ssr:hovedgruppe" v="terreng" />
		<tag k="ssr:stedsnr" v="550456" />
		<tag k="ssr:type" v="ås" />
	</node>
	<node id="-35563" lat="59.9582999977" lon="11.01652778">
		<tag k="bridge" v="yes" />
		<tag k="layer" v="1" />
		<tag k="name" v="Sagelven" />
		<tag k="ssr:date" v="2016-05-10" />
		<tag k="ssr:gruppe" v="samferdselsanlegg" />
		<tag k="ssr:hovedgruppe" v="infrastruktur" />
		<tag k="ssr:stedsnr" v="531009" />
		<tag k="ssr:type" v="bru" />
	</node>
	<node id="-35562" lat="59.9566611093" lon="11.0480861136">
		<tag k="junction" v="yes" />
		<tag k="name" v="Fjeldberghjørnet" />
		<tag k="place" v="locality" />
		<tag k="ssr:date" v="2016-05-10" />
		<tag k="ssr:gruppe" v="veg" />
		<tag k="ssr:hovedgruppe" v="infrastruktur" />
		<tag k="ssr:stedsnr" v="509395" />
		<tag k="ssr:type" v="vegkryss" />
	</node>
	<node id="-35561" lat="59.9470611149" lon="11.0558777754">
		<tag k="name" v="Øya" />
		<tag k="natural" v="cape" />
		<tag k="ssr:date" v="2016-05-10" />
		<tag k="ssr:gruppe" v="ferskvannskontur" />
		<tag k="ssr:hovedgruppe" v="ferskvann" />
		<tag k="ssr:stedsnr" v="509345" />
		<tag k="ssr:type" v="halvøy" />
	</node>
	<node id="-35560" lat="59.9518598985" lon="11.0500127725">
		<tag k="amenity" v="nursing_home" />
		<tag k="name" v="Lillestrøm sykehus" />
		<tag k="ssr:date" v="2018-11-06" />
		<tag k="ssr:gruppe" v="institusjoner" />
		<tag k="ssr:hovedgruppe" v="bebyggelse" />
		<tag k="ssr:stedsnr" v="509344" />
		<tag k="ssr:type" v="helseinstitusjon" />
	</node>
	<node id="-35559" lat="59.95613889" lon="11.0256638805">
		<tag k="name" v="Hesteryggen" />
		<tag k="place" v="farm" />
		<tag k="ssr:date" v="2016-05-10" />
		<tag k="ssr:gruppe" v="gardsbebyggelse" />
		<tag k="ssr:hovedgruppe" v="bebyggelse" />
		<tag k="ssr:stedsnr" v="509341" />
		<tag k="ssr:type" v="bruk" />
	</node>
	<node id="-35558" lat="60.000247271" lon="11.0407362513">
		<tag k="amenity" v="community_centre" />
		<tag k="name" v="Skedsmo samfunnshus" />
		<tag k="ssr:date" v="2018-11-02" />
		<tag k="ssr:gruppe" v="kulturinstitusjoner" />
		<tag k="ssr:hovedgruppe" v="kultur" />
		<tag k="ssr:stedsnr" v="509316" />
		<tag k="ssr:type" v="forsamlingshusKulturhus" />
	</node>
	<node id="-35557" lat="59.9656222266" lon="11.0411694373">
		<tag k="amenity" v="school" />
		<tag k="name" v="Skedsmo videregående skole" />
		<tag k="ssr:date" v="2016-05-10" />
		<tag k="ssr:gruppe" v="institusjoner" />
		<tag k="ssr:hovedgruppe" v="bebyggelse" />
		<tag k="ssr:stedsnr" v="509300" />
		<tag k="ssr:type" v="skole" />
	</node>
	<node id="-35556" lat="59.9526583345" lon="10.9992166726">
		<tag k="name" v="Bråte" />
		<tag k="place" v="farm" />
		<tag k="ssr:date" v="2016-05-10" />
		<tag k="ssr:gruppe" v="gardsbebyggelse" />
		<tag k="ssr:hovedgruppe" v="bebyggelse" />
		<tag k="ssr:stedsnr" v="509277" />
		<tag k="ssr:type" v="bruk" />
	</node>
	<node id="-35555" lat="60.0242388857" lon="11.0369500074">
		<tag k="name" v="Fossum" />
		<tag k="place" v="farm" />
		<tag k="ssr:date" v="2016-05-10" />
		<tag k="ssr:gruppe" v="gardsbebyggelse" />
		<tag k="ssr:hovedgruppe" v="bebyggelse" />
		<tag k="ssr:stedsnr" v="509261" />
		<tag k="ssr:type" v="bruk" />
	</node>
	<node id="-35554" lat="59.9640111069" lon="11.0295027696">
		<tag k="name" v="Bondetangen" />
		<tag k="natural" v="cape" />
		<tag k="ssr:date" v="2016-05-10" />
		<tag k="ssr:gruppe" v="ferskvannskontur" />
		<tag k="ssr:hovedgruppe" v="ferskvann" />
		<tag k="ssr:stedsnr" v="509245" />
		<tag k="ssr:type" v="nes" />
	</node>
	<node id="-35553" lat="59.9674500015" lon="11.0988388963">
		<tag k="name" v="Okseneset" />
		<tag k="natural" v="cape" />
		<tag k="ssr:date" v="2016-05-10" />
		<tag k="ssr:gruppe" v="ferskvannskontur" />
		<tag k="ssr:hovedgruppe" v="ferskvann" />
		<tag k="ssr:stedsnr" v="509246" />
		<tag k="ssr:type" v="halvøy" />
	</node>
	<node id="-35552" lat="59.9466472191" lon="11.0809972226">
		<tag k="name" v="Lille England" />
		<tag k="place" v="locality" />
		<tag k="ssr:date" v="2016-05-10" />
		<tag k="ssr:gruppe" v="dyrkamark" />
		<tag k="ssr:hovedgruppe" v="markslag" />
		<tag k="ssr:stedsnr" v="509234" />
		<tag k="ssr:type" v="jorde" />
	</node>
	<node id="-35551" lat="59.9691277763" lon="10.9698944466">
		<tag k="alt_name" v="Lukenga" />
		<tag k="name" v="Lukeenga" />
		<tag k="place" v="locality" />
		<tag k="ssr:date" v="2016-05-10" />
		<tag k="ssr:gruppe" v="bolighus" />
		<tag k="ssr:hovedgruppe" v="bebyggelse" />
		<tag k="ssr:stedsnr" v="509015" />
		<tag k="ssr:type" v="gammelBosettingsplass" />
	</node>
	<node id="-35550" lat="59.962399998" lon="11.06339444">
		<tag k="leisure" v="pitch" />
		<tag k="name" v="Åråsen stadion" />
		<tag k="ssr:date" v="2016-05-10" />
		<tag k="ssr:gruppe" v="fritidsanlegg" />
		<tag k="ssr:hovedgruppe" v="bebyggelse" />
		<tag k="ssr:stedsnr" v="509012" />
		<tag k="ssr:type" v="idrettsanlegg" />
	</node>
	<node id="-35549" lat="60.0093694438" lon="11.0502694426">
		<tag k="name" v="Høgslund" />
		<tag k="place" v="farm" />
		<tag k="ssr:date" v="2016-05-10" />
		<tag k="ssr:gruppe" v="gardsbebyggelse" />
		<tag k="ssr:hovedgruppe" v="bebyggelse" />
		<tag k="ssr:stedsnr" v="491373" />
		<tag k="ssr:type" v="bruk" />
	</node>
	<node id="-35548" lat="59.9823666683" lon="11.0308583324">
		<tag k="alt_name" v="Solheim" />
		<tag k="name" v="Holtløkka" />
		<tag k="place" v="farm" />
		<tag k="ssr:date" v="2016-05-10" />
		<tag k="ssr:gruppe" v="gardsbebyggelse" />
		<tag k="ssr:hovedgruppe" v="bebyggelse" />
		<tag k="ssr:stedsnr" v="490565" />
		<tag k="ssr:type" v="bruk" />
	</node>
	<node id="-35547" lat="59.9930055543" lon="11.044074991">
		<tag k="name" v="Skedsmovollen" />
		<tag k="place" v="farm" />
		<tag k="ssr:date" v="2016-05-10" />
		<tag k="ssr:gruppe" v="gardsbebyggelse" />
		<tag k="ssr:hovedgruppe" v="bebyggelse" />
		<tag k="ssr:stedsnr" v="490554" />
		<tag k="ssr:type" v="bruk" />
	</node>
	<node id="-35546" lat="59.9977046593" lon="11.0871178762">
		<tag k="alt_name" v="Leirsund" />
		<tag k="name" v="Leirsund stasjon" />
		<tag k="railway" v="station" />
		<tag k="ssr:date" v="2018-11-12" />
		<tag k="ssr:gruppe" v="bane" />
		<tag k="ssr:hovedgruppe" v="infrastruktur" />
		<tag k="ssr:stedsnr" v="490551" />
		<tag k="ssr:type" v="stasjon" />
		<tag k="train" v="yes" />
	</node>
	<node id="-35545" lat="59.9731138883" lon="11.0640333265">
		<tag k="alt_name" v="Skogvoll" />
		<tag k="name" v="Skåvål" />
		<tag k="old_name" v="Skaavaal" />
		<tag k="place" v="farm" />
		<tag k="ssr:date" v="2016-05-10" />
		<tag k="ssr:gruppe" v="gardsbebyggelse" />
		<tag k="ssr:hovedgruppe" v="bebyggelse" />
		<tag k="ssr:stedsnr" v="490519" />
		<tag k="ssr:type" v="bruk" />
	</node>
	<node id="-35544" lat="60.0163611122" lon="11.0266111193">
		<tag k="alt_name" v="Myrer, søndre" />
		<tag k="name" v="Søndre Myrer" />
		<tag k="place" v="farm" />
		<tag k="ssr:date" v="2016-05-10" />
		<tag k="ssr:gruppe" v="gardsbebyggelse" />
		<tag k="ssr:hovedgruppe" v="bebyggelse" />
		<tag k="ssr:stedsnr" v="490374" />
		<tag k="ssr:type" v="bruk" />
	</node>
	<node id="-35543" lat="60.000813886" lon="11.035983334">
		<tag k="alt_name" v="Huseby" />
		<tag k="name" v="Store Huseby" />
		<tag k="place" v="farm" />
		<tag k="ssr:date" v="2016-05-10" />
		<tag k="ssr:gruppe" v="gardsbebyggelse" />
		<tag k="ssr:hovedgruppe" v="bebyggelse" />
		<tag k="ssr:stedsnr" v="490319" />
		<tag k="ssr:type" v="bruk" />
	</node>
	<node id="-35542" lat="60.0056500037" lon="10.9916333374">
		<tag k="name" v="Fossum" />
		<tag k="place" v="farm" />
		<tag k="ssr:date" v="2016-05-10" />
		<tag k="ssr:gruppe" v="gardsbebyggelse" />
		<tag k="ssr:hovedgruppe" v="bebyggelse" />
		<tag k="ssr:stedsnr" v="490318" />
		<tag k="ssr:type" v="bruk" />
	</node>
	<node id="-35541" lat="59.9807222254" lon="11.1238999938">
		<tag k="name" v="Ballerud" />
		<tag k="place" v="farm" />
		<tag k="ssr:date" v="2016-05-10" />
		<tag k="ssr:gruppe" v="gardsbebyggelse" />
		<tag k="ssr:hovedgruppe" v="bebyggelse" />
		<tag k="ssr:stedsnr" v="490446" />
		<tag k="ssr:type" v="bruk" />
	</node>
	<node id="-35540" lat="59.9469972193" lon="11.0716305514">
		<tag k="bridge" v="yes" />
		<tag k="layer" v="1" />
		<tag k="name" v="Isakveien" />
		<tag k="ssr:date" v="2016-05-10" />
		<tag k="ssr:gruppe" v="samferdselsanlegg" />
		<tag k="ssr:hovedgruppe" v="infrastruktur" />
		<tag k="ssr:stedsnr" v="470019" />
		<tag k="ssr:type" v="bru" />
	</node>
	<node id="-35539" lat="59.9492833331" lon="11.0755722225">
		<tag k="bridge" v="yes" />
		<tag k="layer" v="1" />
		<tag k="name" v="Sørumsneset" />
		<tag k="ssr:date" v="2016-05-10" />
		<tag k="ssr:gruppe" v="samferdselsanlegg" />
		<tag k="ssr:hovedgruppe" v="infrastruktur" />
		<tag k="ssr:stedsnr" v="470010" />
		<tag k="ssr:type" v="bru" />
	</node>
	<node id="-35538" lat="59.9621194474" lon="11.0611055577">
		<tag k="bridge" v="yes" />
		<tag k="layer" v="1" />
		<tag k="name" v="Åråsen" />
		<tag k="ssr:date" v="2016-05-10" />
		<tag k="ssr:gruppe" v="samferdselsanlegg" />
		<tag k="ssr:hovedgruppe" v="infrastruktur" />
		<tag k="ssr:stedsnr" v="470001" />
		<tag k="ssr:type" v="bru" />
	</node>
	<node id="-35537" lat="59.9490666654" lon="11.0637749993">
		<tag k="amenity" v="parking" />
		<tag k="name" v="Øyeren plass" />
		<tag k="ssr:date" v="2016-05-10" />
		<tag k="ssr:gruppe" v="veg" />
		<tag k="ssr:hovedgruppe" v="infrastruktur" />
		<tag k="ssr:stedsnr" v="449006" />
		<tag k="ssr:type" v="parkeringsplass" />
	</node>
	<node id="-35536" lat="59.9619416709" lon="11.0615166621">
		<tag k="junction" v="yes" />
		<tag k="name" v="Åråsen" />
		<tag k="place" v="locality" />
		<tag k="ssr:date" v="2016-05-10" />
		<tag k="ssr:gruppe" v="veg" />
		<tag k="ssr:hovedgruppe" v="infrastruktur" />
		<tag k="ssr:stedsnr" v="449007" />
		<tag k="ssr:type" v="vegkryss" />
	</node>
	<node id="-35535" lat="59.9548388848" lon="10.9568972154">
		<tag k="name" v="Brattli" />
		<tag k="natural" v="slope" />
		<tag k="place" v="locality" />
		<tag k="ssr:date" v="2016-05-10" />
		<tag k="ssr:gruppe" v="skråninger" />
		<tag k="ssr:hovedgruppe" v="terreng" />
		<tag k="ssr:stedsnr" v="448507" />
		<tag k="ssr:type" v="li" />
	</node>
	<node id="-35534" lat="59.9546278088" lon="11.0424405828">
		<tag k="amenity" v="parking" />
		<tag k="name" v="Pedersløkka" />
		<tag k="ssr:date" v="2018-11-02" />
		<tag k="ssr:gruppe" v="veg" />
		<tag k="ssr:hovedgruppe" v="infrastruktur" />
		<tag k="ssr:stedsnr" v="448466" />
		<tag k="ssr:type" v="parkeringsplass" />
	</node>
	<node id="-35533" lat="59.9544499966" lon="11.0151444484">
		<tag k="amenity" v="school" />
		<tag k="fixme" v="multiple name tags, choose one and add the other to alt_name" />
		<tag k="name" v="Romerike yrkesskole;Strømmen videregående skole" />
		<tag k="ssr:date" v="2016-05-10" />
		<tag k="ssr:gruppe" v="institusjoner" />
		<tag k="ssr:hovedgruppe" v="bebyggelse" />
		<tag k="ssr:stedsnr" v="448416" />
		<tag k="ssr:type" v="skole" />
	</node>
	<node id="-35532" lat="59.9717638849" lon="11.073694442">
		<tag k="name" v="Gulenga" />
		<tag k="place" v="isolated_dwelling" />
		<tag k="ssr:date" v="2016-05-10" />
		<tag k="ssr:gruppe" v="bolighus" />
		<tag k="ssr:hovedgruppe" v="bebyggelse" />
		<tag k="ssr:stedsnr" v="448377" />
		<tag k="ssr:type" v="eneboligMindreBoligbygg" />
	</node>
	<node id="-35531" lat="59.9908833327" lon="11.0529583386">
		<tag k="name" v="Slogumsgrinda" />
		<tag k="place" v="farm" />
		<tag k="ssr:date" v="2016-05-10" />
		<tag k="ssr:gruppe" v="gardsbebyggelse" />
		<tag k="ssr:hovedgruppe" v="bebyggelse" />
		<tag k="ssr:stedsnr" v="448361" />
		<tag k="ssr:type" v="bruk" />
	</node>
	<node id="-35530" lat="59.9905555516" lon="11.0239138835">
		<tag k="fixme" v="consider place=hamlet" />
		<tag k="name" v="Nordre Brånås" />
		<tag k="place" v="farm" />
		<tag k="ssr:date" v="2018-11-15" />
		<tag k="ssr:gruppe" v="gardsbebyggelse" />
		<tag k="ssr:hovedgruppe" v="bebyggelse" />
		<tag k="ssr:stedsnr" v="448356" />
		<tag k="ssr:type" v="gard" />
	</node>
	<node id="-35529" lat="59.9744833322" lon="11.0572027732">
		<tag k="fixme" v="consider place=hamlet" />
		<tag k="name" v="Østre Brauter" />
		<tag k="place" v="farm" />
		<tag k="ssr:date" v="2018-03-15" />
		<tag k="ssr:gruppe" v="gardsbebyggelse" />
		<tag k="ssr:hovedgruppe" v="bebyggelse" />
		<tag k="ssr:stedsnr" v="448335" />
		<tag k="ssr:type" v="gard" />
	</node>
	<node id="-35528" lat="59.9537416661" lon="11.0622805489">
		<tag k="leisure" v="park" />
		<tag k="name" v="Sørumsparken" />
		<tag k="ssr:date" v="2016-05-10" />
		<tag k="ssr:gruppe" v="fritidsanlegg" />
		<tag k="ssr:hovedgruppe" v="bebyggelse" />
		<tag k="ssr:stedsnr" v="448314" />
		<tag k="ssr:type" v="park" />
	</node>
	<node id="-35527" lat="59.9737472247" lon="11.0477305533">
		<tag k="name" v="Kjeller" />
		<tag k="place" v="village" />
		<tag k="ssr:date" v="2016-05-10" />
		<tag k="ssr:gruppe" v="bebyggelsesområder" />
		<tag k="ssr:hovedgruppe" v="bebyggelse" />
		<tag k="ssr:stedsnr" v="448313" />
		<tag k="ssr:type" v="tettsted" />
	</node>
	<node id="-35526" lat="60.0198611096" lon="11.0218388851">
		<tag k="name" v="Søndre Holm" />
		<tag k="place" v="farm" />
		<tag k="ssr:date" v="2016-05-10" />
		<tag k="ssr:gruppe" v="gardsbebyggelse" />
		<tag k="ssr:hovedgruppe" v="bebyggelse" />
		<tag k="ssr:stedsnr" v="448309" />
		<tag k="ssr:type" v="bruk" />
	</node>
	<node id="-35525" lat="60.0065138882" lon="11.0372388869">
		<tag k="name" v="Sandbakken" />
		<tag k="place" v="farm" />
		<tag k="ssr:date" v="2016-05-10" />
		<tag k="ssr:gruppe" v="gardsbebyggelse" />
		<tag k="ssr:hovedgruppe" v="bebyggelse" />
		<tag k="ssr:stedsnr" v="448306" />
		<tag k="ssr:type" v="bruk" />
	</node>
	<node id="-35524" lat="60.0233888886" lon="10.9841222267">
		<tag k="name" v="Skyttermyra" />
		<tag k="natural" v="wetland" />
		<tag k="ssr:date" v="2016-05-10" />
		<tag k="ssr:gruppe" v="våtmark" />
		<tag k="ssr:hovedgruppe" v="markslag" />
		<tag k="ssr:stedsnr" v="448266" />
		<tag k="ssr:type" v="myr" />
	</node>
	<node id="-35523" lat="59.9766527745" lon="11.1202944501">
		<tag k="name" v="Fluerud" />
		<tag k="place" v="locality" />
		<tag k="ssr:date" v="2016-05-10" />
		<tag k="ssr:gruppe" v="bolighus" />
		<tag k="ssr:hovedgruppe" v="bebyggelse" />
		<tag k="ssr:stedsnr" v="448029" />
		<tag k="ssr:type" v="gammelBosettingsplass" />
	</node>
	<node id="-35522" lat="59.9674277775" lon="10.9471249965">
		<tag k="fixme" v="consider natural=peak for the most distinct mountains in the district" />
		<tag k="name" v="Gjelleråsen" />
		<tag k="natural" v="hill" />
		<tag k="place" v="locality" />
		<tag k="ssr:date" v="2016-05-10" />
		<tag k="ssr:gruppe" v="høyder" />
		<tag k="ssr:hovedgruppe" v="terreng" />
		<tag k="ssr:stedsnr" v="430556" />
		<tag k="ssr:type" v="ås" />
	</node>
	<node id="-35521" lat="59.9727027771" lon="11.0056444461">
		<tag k="alt_name" v="Skjettenbyen" />
		<tag k="name" v="Skjetten" />
		<tag k="place" v="village" />
		<tag k="ssr:date" v="2016-05-10" />
		<tag k="ssr:gruppe" v="bebyggelsesområder" />
		<tag k="ssr:hovedgruppe" v="bebyggelse" />
		<tag k="ssr:stedsnr" v="430539" />
		<tag k="ssr:type" v="tettsted" />
	</node>
	<node id="-35520" lat="59.979225004" lon="11.0276277827">
		<tag k="name" v="Nitberg" />
		<tag k="place" v="farm" />
		<tag k="ssr:date" v="2016-05-10" />
		<tag k="ssr:gruppe" v="gardsbebyggelse" />
		<tag k="ssr:hovedgruppe" v="bebyggelse" />
		<tag k="ssr:stedsnr" v="430537" />
		<tag k="ssr:type" v="bruk" />
	</node>
	<node id="-35519" lat="59.9751883768" lon="11.0574403683">
		<tag k="name" v="Brauter" />
		<tag k="place" v="hamlet" />
		<tag k="ssr:date" v="2018-03-13" />
		<tag k="ssr:gruppe" v="gardsbebyggelse" />
		<tag k="ssr:hovedgruppe" v="bebyggelse" />
		<tag k="ssr:stedsnr" v="430536" />
		<tag k="ssr:type" v="navnegard" />
	</node>
	<node id="-35518" lat="59.9727972253" lon="10.9682083391">
		<tag k="name" v="Lahaug" />
		<tag k="place" v="farm" />
		<tag k="ssr:date" v="2016-05-10" />
		<tag k="ssr:gruppe" v="gardsbebyggelse" />
		<tag k="ssr:hovedgruppe" v="bebyggelse" />
		<tag k="ssr:stedsnr" v="430526" />
		<tag k="ssr:type" v="bruk" />
	</node>
	<node id="-35517" lat="60.0001666709" lon="11.0827527761">
		<tag k="alt_name" v="Ullereng" />
		<tag k="name" v="Nordre Ullreng" />
		<tag k="place" v="farm" />
		<tag k="ssr:date" v="2016-05-10" />
		<tag k="ssr:gruppe" v="gardsbebyggelse" />
		<tag k="ssr:hovedgruppe" v="bebyggelse" />
		<tag k="ssr:stedsnr" v="430329" />
		<tag k="ssr:type" v="bruk" />
	</node>
	<node id="-35516" lat="59.9801305586" lon="10.9978972285">
		<tag k="name" v="Hvam" />
		<tag k="place" v="farm" />
		<tag k="ssr:date" v="2016-05-10" />
		<tag k="ssr:gruppe" v="gardsbebyggelse" />
		<tag k="ssr:hovedgruppe" v="bebyggelse" />
		<tag k="ssr:stedsnr" v="429573" />
		<tag k="ssr:type" v="bruk" />
	</node>
	<node id="-35515" lat="59.984058331" lon="10.9828777788">
		<tag k="alt_name" v="Kråkerud" />
		<tag k="name" v="Kragerud" />
		<tag k="place" v="farm" />
		<tag k="ssr:date" v="2016-05-10" />
		<tag k="ssr:gruppe" v="gardsbebyggelse" />
		<tag k="ssr:hovedgruppe" v="bebyggelse" />
		<tag k="ssr:stedsnr" v="429572" />
		<tag k="ssr:type" v="bruk" />
	</node>
	<node id="-35514" lat="59.9809404304" lon="11.0459073134">
		<tag k="alt_name" v="Ris, nedre" />
		<tag k="name" v="Nedre Ris" />
		<tag k="place" v="farm" />
		<tag k="ssr:date" v="2018-10-09" />
		<tag k="ssr:gruppe" v="gardsbebyggelse" />
		<tag k="ssr:hovedgruppe" v="bebyggelse" />
		<tag k="ssr:stedsnr" v="429567" />
		<tag k="ssr:type" v="bruk" />
	</node>
	<node id="-35513" lat="59.9873416685" lon="11.1464111082">
		<tag k="name" v="Stampetjernet" />
		<tag k="natural" v="water" />
		<tag k="ssr:date" v="2016-05-10" />
		<tag k="ssr:gruppe" v="stilleståendeVann" />
		<tag k="ssr:hovedgruppe" v="ferskvann" />
		<tag k="ssr:stedsnr" v="429455" />
		<tag k="ssr:type" v="tjern" />
	</node>
	<node id="-35512" lat="59.9984194462" lon="11.041338884">
		<tag k="junction" v="yes" />
		<tag k="name" v="Skedsmovollen" />
		<tag k="place" v="locality" />
		<tag k="ssr:date" v="2016-05-10" />
		<tag k="ssr:gruppe" v="veg" />
		<tag k="ssr:hovedgruppe" v="infrastruktur" />
		<tag k="ssr:stedsnr" v="267007" />
		<tag k="ssr:type" v="vegkryss" />
	</node>
	<node id="-35511" lat="59.9712944429" lon="11.1332638948">
		<tag k="name" v="Lindriktjern" />
		<tag k="natural" v="water" />
		<tag k="ssr:date" v="2016-05-10" />
		<tag k="ssr:gruppe" v="stilleståendeVann" />
		<tag k="ssr:hovedgruppe" v="ferskvann" />
		<tag k="ssr:stedsnr" v="266446" />
		<tag k="ssr:type" v="tjern" />
	</node>
	<node id="-35510" lat="59.9977666661" lon="11.026538885">
		<tag k="name" v="Bjørklund" />
		<tag k="place" v="isolated_dwelling" />
		<tag k="ssr:date" v="2016-05-10" />
		<tag k="ssr:gruppe" v="bolighus" />
		<tag k="ssr:hovedgruppe" v="bebyggelse" />
		<tag k="ssr:stedsnr" v="266350" />
		<tag k="ssr:type" v="eneboligMindreBoligbygg" />
	</node>
	<node id="-35509" lat="59.9943027792" lon="11.0750722227">
		<tag k="fixme" v="consider place=hamlet" />
		<tag k="name" v="Nordre Kjus" />
		<tag k="place" v="farm" />
		<tag k="ssr:date" v="2018-03-12" />
		<tag k="ssr:gruppe" v="gardsbebyggelse" />
		<tag k="ssr:hovedgruppe" v="bebyggelse" />
		<tag k="ssr:stedsnr" v="266343" />
		<tag k="ssr:type" v="gard" />
	</node>
	<node id="-35508" lat="60.0022277759" lon="11.0308416669">
		<tag k="amenity" v="nursing_home" />
		<tag k="name" v="Skedsmotun bo- og behandlingssenter" />
		<tag k="old_name" v="Skedsmotun sykehjem" />
		<tag k="ssr:date" v="2018-11-13" />
		<tag k="ssr:gruppe" v="institusjoner" />
		<tag k="ssr:hovedgruppe" v="bebyggelse" />
		<tag k="ssr:stedsnr" v="266335" />
		<tag k="ssr:type" v="helseinstitusjon" />
	</node>
	<node id="-35507" lat="60.013899997" lon="11.0175388885">
		<tag k="amenity" v="sports_centre" />
		<tag k="name" v="Tærudhallen" />
		<tag k="ssr:date" v="2016-05-10" />
		<tag k="ssr:gruppe" v="fritidsanlegg" />
		<tag k="ssr:hovedgruppe" v="bebyggelse" />
		<tag k="ssr:stedsnr" v="266333" />
		<tag k="ssr:type" v="idrettshall" />
	</node>
	<node id="-35506" lat="59.9675071324" lon="11.0527762748">
		<tag k="junction" v="yes" />
		<tag k="name" v="Måsasvingen" />
		<tag k="place" v="locality" />
		<tag k="ssr:date" v="2018-03-13" />
		<tag k="ssr:gruppe" v="veg" />
		<tag k="ssr:hovedgruppe" v="infrastruktur" />
		<tag k="ssr:stedsnr" v="266304" />
		<tag k="ssr:type" v="vegkryss" />
	</node>
	<node id="-35505" lat="59.9694750022" lon="11.0158055516">
		<tag k="name" v="Nittebergstangen" />
		<tag k="natural" v="cape" />
		<tag k="ssr:date" v="2016-05-10" />
		<tag k="ssr:gruppe" v="ferskvannskontur" />
		<tag k="ssr:hovedgruppe" v="ferskvann" />
		<tag k="ssr:stedsnr" v="266279" />
		<tag k="ssr:type" v="nes" />
	</node>
	<node id="-35504" lat="59.9646916682" lon="11.0220666744">
		<tag k="name" v="Stavsvika" />
		<tag k="natural" v="bay" />
		<tag k="ssr:date" v="2016-05-10" />
		<tag k="ssr:gruppe" v="ferskvannskontur" />
		<tag k="ssr:hovedgruppe" v="ferskvann" />
		<tag k="ssr:stedsnr" v="266268" />
		<tag k="ssr:type" v="vik" />
	</node>
	<node id="-35503" lat="59.9418194465" lon="11.0690666706">
		<tag k="name" v="Gullaugvika" />
		<tag k="natural" v="bay" />
		<tag k="ssr:date" v="2016-05-10" />
		<tag k="ssr:gruppe" v="ferskvannskontur" />
		<tag k="ssr:hovedgruppe" v="ferskvann" />
		<tag k="ssr:stedsnr" v="266267" />
		<tag k="ssr:type" v="vik" />
	</node>
	<node id="-35502" lat="59.9732972183" lon="11.0201833274">
		<tag k="name" v="Valstadslora" />
		<tag k="place" v="locality" />
		<tag k="ssr:date" v="2016-05-10" />
		<tag k="ssr:gruppe" v="dyrkamark" />
		<tag k="ssr:hovedgruppe" v="markslag" />
		<tag k="ssr:stedsnr" v="266265" />
		<tag k="ssr:type" v="jorde" />
	</node>
	<node id="-35501" lat="59.9777999959" lon="11.1662694431">
		<tag k="name" v="Kongsrudmåsan" />
		<tag k="natural" v="wetland" />
		<tag k="ssr:date" v="2016-05-10" />
		<tag k="ssr:gruppe" v="våtmark" />
		<tag k="ssr:hovedgruppe" v="markslag" />
		<tag k="ssr:stedsnr" v="266259" />
		<tag k="ssr:type" v="myr" />
	</node>
	<node id="-35500" lat="60.0387527819" lon="10.9713527838">
		<tag k="name" v="Løkenmåsan" />
		<tag k="natural" v="wetland" />
		<tag k="ssr:date" v="2016-05-10" />
		<tag k="ssr:gruppe" v="våtmark" />
		<tag k="ssr:hovedgruppe" v="markslag" />
		<tag k="ssr:stedsnr" v="266251" />
		<tag k="ssr:type" v="myr" />
	</node>
	<node id="-35499" lat="59.9771222212" lon="11.0915861121">
		<tag k="name" v="Sulustadsvingen" />
		<tag k="place" v="locality" />
		<tag k="ssr:date" v="2016-05-10" />
		<tag k="ssr:gruppe" v="detaljerIFerskvann" />
		<tag k="ssr:hovedgruppe" v="ferskvann" />
		<tag k="ssr:stedsnr" v="266247" />
		<tag k="ssr:type" v="annenVanndetalj" />
	</node>
	<node id="-35498" lat="60.0205861116" lon="11.0294944388">
		<tag k="alt_name" v="Myrer" />
		<tag k="name" v="Søndre Myrer" />
		<tag k="place" v="farm" />
		<tag k="ssr:date" v="2016-05-10" />
		<tag k="ssr:gruppe" v="gardsbebyggelse" />
		<tag k="ssr:hovedgruppe" v="bebyggelse" />
		<tag k="ssr:stedsnr" v="266036" />
		<tag k="ssr:type" v="bruk" />
	</node>
	<node id="-35497" lat="59.94956944" lon="11.069658341">
		<tag k="name" v="Kran" />
		<tag k="place" v="locality" />
		<tag k="ssr:date" v="2016-05-10" />
		<tag k="ssr:gruppe" v="kulturminner" />
		<tag k="ssr:hovedgruppe" v="kultur" />
		<tag k="ssr:stedsnr" v="266029" />
		<tag k="ssr:type" v="annenKulturdetalj" />
	</node>
	<node id="-35496" lat="59.9729138892" lon="11.140358335">
		<tag k="name" v="Gullerud" />
		<tag k="place" v="locality" />
		<tag k="ssr:date" v="2016-05-10" />
		<tag k="ssr:gruppe" v="bolighus" />
		<tag k="ssr:hovedgruppe" v="bebyggelse" />
		<tag k="ssr:stedsnr" v="266025" />
		<tag k="ssr:type" v="gammelBosettingsplass" />
	</node>
	<node id="-35495" lat="60.0311388904" lon="10.9903666662">
		<tag k="name" v="Dammen" />
		<tag k="ssr:date" v="2016-05-10" />
		<tag k="ssr:gruppe" v="stilleståendeVann" />
		<tag k="ssr:hovedgruppe" v="ferskvann" />
		<tag k="ssr:stedsnr" v="266021" />
		<tag k="ssr:type" v="dam" />
		<tag k="waterway" v="dam" />
	</node>
	<node id="-35494" lat="60.0302205763" lon="11.040512837">
		<tag k="alt_name" v="Leikvolldalen" />
		<tag k="name" v="Dalen" />
		<tag k="place" v="farm" />
		<tag k="ssr:date" v="2018-11-14" />
		<tag k="ssr:gruppe" v="gardsbebyggelse" />
		<tag k="ssr:hovedgruppe" v="bebyggelse" />
		<tag k="ssr:stedsnr" v="248395" />
		<tag k="ssr:type" v="bruk" />
	</node>
	<node id="-35493" lat="60.023830559" lon="11.0268111094">
		<tag k="name" v="Nordli" />
		<tag k="place" v="farm" />
		<tag k="ssr:date" v="2016-05-10" />
		<tag k="ssr:gruppe" v="gardsbebyggelse" />
		<tag k="ssr:hovedgruppe" v="bebyggelse" />
		<tag k="ssr:stedsnr" v="248389" />
		<tag k="ssr:type" v="bruk" />
	</node>
	<node id="-35492" lat="60.0147888865" lon="11.0242833335">
		<tag k="name" v="Salerud" />
		<tag k="place" v="farm" />
		<tag k="ssr:date" v="2016-05-10" />
		<tag k="ssr:gruppe" v="gardsbebyggelse" />
		<tag k="ssr:hovedgruppe" v="bebyggelse" />
		<tag k="ssr:stedsnr" v="248370" />
		<tag k="ssr:type" v="bruk" />
	</node>
	<node id="-35491" lat="59.9940472181" lon="11.0128999966">
		<tag k="name" v="Skrimstad" />
		<tag k="place" v="farm" />
		<tag k="ssr:date" v="2016-05-10" />
		<tag k="ssr:gruppe" v="gardsbebyggelse" />
		<tag k="ssr:hovedgruppe" v="bebyggelse" />
		<tag k="ssr:stedsnr" v="247546" />
		<tag k="ssr:type" v="bruk" />
	</node>
	<node id="-35490" lat="59.987325002" lon="11.0639472213">
		<tag k="name" v="Slogum" />
		<tag k="place" v="farm" />
		<tag k="ssr:date" v="2016-05-10" />
		<tag k="ssr:gruppe" v="gardsbebyggelse" />
		<tag k="ssr:hovedgruppe" v="bebyggelse" />
		<tag k="ssr:stedsnr" v="247542" />
		<tag k="ssr:type" v="bruk" />
	</node>
	<node id="-35489" lat="59.9722749972" lon="11.0836305547">
		<tag k="alt_name" v="Brauterstilla" />
		<tag k="name" v="Ringstilla" />
		<tag k="natural" v="water" />
		<tag k="ssr:date" v="2016-05-10" />
		<tag k="ssr:gruppe" v="rennendeVann" />
		<tag k="ssr:hovedgruppe" v="ferskvann" />
		<tag k="ssr:stedsnr" v="247528" />
		<tag k="ssr:type" v="lon" />
		<tag k="water" v="lake" />
	</node>
	<node id="-35488" lat="59.9660250018" lon="11.0091749991">
		<tag k="name" v="Nordby" />
		<tag k="place" v="farm" />
		<tag k="ssr:date" v="2016-05-10" />
		<tag k="ssr:gruppe" v="gardsbebyggelse" />
		<tag k="ssr:hovedgruppe" v="bebyggelse" />
		<tag k="ssr:stedsnr" v="247484" />
		<tag k="ssr:type" v="bruk" />
	</node>
	<node id="-35487" lat="59.9433861146" lon="11.081150004">
		<tag k="name" v="Sørumsneset" />
		<tag k="natural" v="cape" />
		<tag k="ssr:date" v="2016-05-10" />
		<tag k="ssr:gruppe" v="ferskvannskontur" />
		<tag k="ssr:hovedgruppe" v="ferskvann" />
		<tag k="ssr:stedsnr" v="247039" />
		<tag k="ssr:type" v="nes" />
	</node>
	<node id="-35486" lat="59.9974722268" lon="11.0993638865">
		<tag k="bridge" v="yes" />
		<tag k="layer" v="1" />
		<tag k="name" v="Heishagen" />
		<tag k="ssr:date" v="2016-05-10" />
		<tag k="ssr:gruppe" v="samferdselsanlegg" />
		<tag k="ssr:hovedgruppe" v="infrastruktur" />
		<tag k="ssr:stedsnr" v="227016" />
		<tag k="ssr:type" v="bru" />
	</node>
	<node id="-35485" lat="59.9934663184" lon="11.0716526523">
		<tag k="name" v="Kjus" />
		<tag k="place" v="hamlet" />
		<tag k="ssr:date" v="2018-03-12" />
		<tag k="ssr:gruppe" v="gardsbebyggelse" />
		<tag k="ssr:hovedgruppe" v="bebyggelse" />
		<tag k="ssr:stedsnr" v="206014" />
		<tag k="ssr:type" v="navnegard" />
	</node>
	<node id="-35484" lat="59.9649027761" lon="10.9458361196">
		<tag k="highway" v="path" />
		<tag k="name" v="Kongeveien" />
		<tag k="ssr:date" v="2016-05-10" />
		<tag k="ssr:gruppe" v="veg" />
		<tag k="ssr:hovedgruppe" v="infrastruktur" />
		<tag k="ssr:stedsnr" v="206011" />
		<tag k="ssr:type" v="sti" />
	</node>
	<node id="-35483" lat="59.9870111127" lon="11.1690277744">
		<tag k="name" v="Ballerudtjerna" />
		<tag k="natural" v="water" />
		<tag k="ssr:date" v="2016-05-10" />
		<tag k="ssr:gruppe" v="stilleståendeVann" />
		<tag k="ssr:hovedgruppe" v="ferskvann" />
		<tag k="ssr:stedsnr" v="205526" />
		<tag k="ssr:type" v="tjern" />
	</node>
	<node id="-35482" lat="59.9578175111" lon="11.0207746157">
		<tag k="name" v="Skjervagapet" />
		<tag k="natural" v="bay" />
		<tag k="ssr:date" v="2019-02-18" />
		<tag k="ssr:gruppe" v="ferskvannskontur" />
		<tag k="ssr:hovedgruppe" v="ferskvann" />
		<tag k="ssr:stedsnr" v="205423" />
		<tag k="ssr:type" v="vik" />
	</node>
	<node id="-35481" lat="59.9938194405" lon="11.0507833401">
		<tag k="name" v="Kjushagan" />
		<tag k="place" v="isolated_dwelling" />
		<tag k="ssr:date" v="2018-03-12" />
		<tag k="ssr:gruppe" v="bolighus" />
		<tag k="ssr:hovedgruppe" v="bebyggelse" />
		<tag k="ssr:stedsnr" v="205399" />
		<tag k="ssr:type" v="eneboligMindreBoligbygg" />
	</node>
	<node id="-35480" lat="59.9953194437" lon="11.1085388976">
		<tag k="name" v="Asakhagen" />
		<tag k="place" v="farm" />
		<tag k="ssr:date" v="2016-05-10" />
		<tag k="ssr:gruppe" v="gardsbebyggelse" />
		<tag k="ssr:hovedgruppe" v="bebyggelse" />
		<tag k="ssr:stedsnr" v="205391" />
		<tag k="ssr:type" v="bruk" />
	</node>
	<node id="-35479" lat="59.9945166683" lon="11.0403722256">
		<tag k="amenity" v="school" />
		<tag k="name" v="Skedsmovollen ungdomsskole" />
		<tag k="ssr:date" v="2016-05-10" />
		<tag k="ssr:gruppe" v="institusjoner" />
		<tag k="ssr:hovedgruppe" v="bebyggelse" />
		<tag k="ssr:stedsnr" v="205383" />
		<tag k="ssr:type" v="skole" />
	</node>
	<node id="-35477" lat="59.9837777815" lon="11.0333194534">
		<tag k="name" v="Holtbakken" />
		<tag k="place" v="farm" />
		<tag k="ssr:date" v="2016-05-10" />
		<tag k="ssr:gruppe" v="gardsbebyggelse" />
		<tag k="ssr:hovedgruppe" v="bebyggelse" />
		<tag k="ssr:stedsnr" v="205364" />
		<tag k="ssr:type" v="bruk" />
	</node>
	<node id="-35476" lat="59.9785527761" lon="11.0175222211">
		<tag k="name" v="Stranden" />
		<tag k="place" v="farm" />
		<tag k="ssr:date" v="2016-05-10" />
		<tag k="ssr:gruppe" v="gardsbebyggelse" />
		<tag k="ssr:hovedgruppe" v="bebyggelse" />
		<tag k="ssr:stedsnr" v="205356" />
		<tag k="ssr:type" v="bruk" />
	</node>
	<node id="-35475" lat="60.013997221" lon="11.0422944522">
		<tag k="name" v="Prestmåsen" />
		<tag k="place" v="quarter" />
		<tag k="ssr:date" v="2016-05-10" />
		<tag k="ssr:gruppe" v="bebyggelsesområder" />
		<tag k="ssr:hovedgruppe" v="bebyggelse" />
		<tag k="ssr:stedsnr" v="205347" />
		<tag k="ssr:type" v="industriområde" />
	</node>
	<node id="-35474" lat="59.9482861068" lon="11.0716222201">
		<tag k="name" v="Låkehavna" />
		<tag k="place" v="quarter" />
		<tag k="ssr:date" v="2016-05-10" />
		<tag k="ssr:gruppe" v="bebyggelsesområder" />
		<tag k="ssr:hovedgruppe" v="bebyggelse" />
		<tag k="ssr:stedsnr" v="205345" />
		<tag k="ssr:type" v="industriområde" />
	</node>
	<node id="-35473" lat="59.9808861154" lon="11.0890222291">
		<tag k="name" v="Fiskerisvingen" />
		<tag k="place" v="locality" />
		<tag k="ssr:date" v="2016-05-10" />
		<tag k="ssr:gruppe" v="detaljerIFerskvann" />
		<tag k="ssr:hovedgruppe" v="ferskvann" />
		<tag k="ssr:stedsnr" v="205313" />
		<tag k="ssr:type" v="annenVanndetalj" />
	</node>
	<node id="-35472" lat="59.9799111144" lon="11.1501888958">
		<tag k="name" v="Bukkedalsbekken" />
		<tag k="ssr:date" v="2016-05-10" />
		<tag k="ssr:gruppe" v="rennendeVann" />
		<tag k="ssr:hovedgruppe" v="ferskvann" />
		<tag k="ssr:stedsnr" v="205301" />
		<tag k="ssr:type" v="bekk" />
		<tag k="waterway" v="stream" />
	</node>
	<node id="-35471" lat="59.9441777764" lon="11.0866666626">
		<tag k="name" v="Mastevika" />
		<tag k="natural" v="bay" />
		<tag k="ssr:date" v="2016-05-10" />
		<tag k="ssr:gruppe" v="ferskvannskontur" />
		<tag k="ssr:hovedgruppe" v="ferskvann" />
		<tag k="ssr:stedsnr" v="205294" />
		<tag k="ssr:type" v="vik" />
	</node>
	<node id="-35470" lat="59.9604027814" lon="10.9538194436">
		<tag k="name" v="Ulvenhogget" />
		<tag k="place" v="locality" />
		<tag k="ssr:date" v="2016-05-10" />
		<tag k="ssr:gruppe" v="dyrkamark" />
		<tag k="ssr:hovedgruppe" v="markslag" />
		<tag k="ssr:stedsnr" v="205283" />
		<tag k="ssr:type" v="utmark" />
	</node>
	<node id="-35469" lat="59.939341664" lon="11.0034222135">
		<tag k="leisure" v="pitch" />
		<tag k="name" v="Strømmen stadion" />
		<tag k="ssr:date" v="2016-05-10" />
		<tag k="ssr:gruppe" v="fritidsanlegg" />
		<tag k="ssr:hovedgruppe" v="bebyggelse" />
		<tag k="ssr:stedsnr" v="205016" />
		<tag k="ssr:type" v="idrettsanlegg" />
	</node>
	<node id="-35468" lat="60.008455553" lon="11.0218916706">
		<tag k="name" v="Korsfjellet" />
		<tag k="place" v="quarter" />
		<tag k="ssr:date" v="2016-05-10" />
		<tag k="ssr:gruppe" v="bebyggelsesområder" />
		<tag k="ssr:hovedgruppe" v="bebyggelse" />
		<tag k="ssr:stedsnr" v="203071" />
		<tag k="ssr:type" v="boligfelt" />
	</node>
	<node id="-35467" lat="59.9839611136" lon="11.0802055645">
		<tag k="alt_name" v="Tomtstilla" />
		<tag k="name" v="Tomtestilla" />
		<tag k="natural" v="water" />
		<tag k="ssr:date" v="2016-05-10" />
		<tag k="ssr:gruppe" v="rennendeVann" />
		<tag k="ssr:hovedgruppe" v="ferskvann" />
		<tag k="ssr:stedsnr" v="187543" />
		<tag k="ssr:type" v="lon" />
		<tag k="water" v="lake" />
	</node>
	<node id="-35466" lat="60.005474997" lon="11.0327750056">
		<tag k="name" v="Skedsmokorset" />
		<tag k="place" v="village" />
		<tag k="ssr:date" v="2016-05-10" />
		<tag k="ssr:gruppe" v="bebyggelsesområder" />
		<tag k="ssr:hovedgruppe" v="bebyggelse" />
		<tag k="ssr:stedsnr" v="187319" />
		<tag k="ssr:type" v="tettsted" />
	</node>
	<node id="-35465" lat="60.0215111126" lon="11.021822221">
		<tag k="name" v="Nordre Holm" />
		<tag k="place" v="farm" />
		<tag k="ssr:date" v="2016-05-10" />
		<tag k="ssr:gruppe" v="gardsbebyggelse" />
		<tag k="ssr:hovedgruppe" v="bebyggelse" />
		<tag k="ssr:stedsnr" v="187356" />
		<tag k="ssr:type" v="bruk" />
	</node>
	<node id="-35464" lat="60.0221638903" lon="10.9714750019">
		<tag k="name" v="Enden" />
		<tag k="place" v="isolated_dwelling" />
		<tag k="ssr:date" v="2016-05-10" />
		<tag k="ssr:gruppe" v="bolighus" />
		<tag k="ssr:hovedgruppe" v="bebyggelse" />
		<tag k="ssr:stedsnr" v="187357" />
		<tag k="ssr:type" v="eneboligMindreBoligbygg" />
	</node>
	<node id="-35463" lat="59.9933222197" lon="11.0818250075">
		<tag k="name" v="Kjusløkka" />
		<tag k="place" v="farm" />
		<tag k="ssr:date" v="2018-03-12" />
		<tag k="ssr:gruppe" v="gardsbebyggelse" />
		<tag k="ssr:hovedgruppe" v="bebyggelse" />
		<tag k="ssr:stedsnr" v="186613" />
		<tag k="ssr:type" v="bruk" />
	</node>
	<node id="-35462" lat="59.9558333322" lon="11.073813881">
		<tag k="name" v="Vigernes" />
		<tag k="old_name" v="Vignes" />
		<tag k="place" v="farm" />
		<tag k="ssr:date" v="2016-05-10" />
		<tag k="ssr:gruppe" v="gardsbebyggelse" />
		<tag k="ssr:hovedgruppe" v="bebyggelse" />
		<tag k="ssr:stedsnr" v="186570" />
		<tag k="ssr:type" v="bruk" />
	</node>
	<node id="-35461" lat="59.9914333306" lon="11.1054388845">
		<tag k="name" v="Nordre Asak" />
		<tag k="place" v="farm" />
		<tag k="ssr:date" v="2016-05-10" />
		<tag k="ssr:gruppe" v="gardsbebyggelse" />
		<tag k="ssr:hovedgruppe" v="bebyggelse" />
		<tag k="ssr:stedsnr" v="186529" />
		<tag k="ssr:type" v="bruk" />
	</node>
	<node id="-35460" lat="59.9970916659" lon="11.0883000028">
		<tag k="bridge" v="yes" />
		<tag k="layer" v="1" />
		<tag k="name" v="Leirsund" />
		<tag k="ssr:date" v="2016-05-10" />
		<tag k="ssr:gruppe" v="samferdselsanlegg" />
		<tag k="ssr:hovedgruppe" v="infrastruktur" />
		<tag k="ssr:stedsnr" v="167009" />
		<tag k="ssr:type" v="bru" />
	</node>
	<node id="-35459" lat="60.0045138887" lon="11.0328694362">
		<tag k="junction" v="yes" />
		<tag k="name" v="Skedsmokorset" />
		<tag k="place" v="locality" />
		<tag k="ssr:date" v="2016-05-10" />
		<tag k="ssr:gruppe" v="veg" />
		<tag k="ssr:hovedgruppe" v="infrastruktur" />
		<tag k="ssr:stedsnr" v="145014" />
		<tag k="ssr:type" v="vegkryss" />
	</node>
	<node id="-35458" lat="60.0414305571" lon="10.9729777838">
		<tag k="name" v="Lyberget" />
		<tag k="natural" v="hill" />
		<tag k="place" v="locality" />
		<tag k="ssr:date" v="2016-05-10" />
		<tag k="ssr:gruppe" v="høyder" />
		<tag k="ssr:hovedgruppe" v="terreng" />
		<tag k="ssr:stedsnr" v="144513" />
		<tag k="ssr:type" v="berg" />
	</node>
	<node id="-35457" lat="59.9797583336" lon="11.0362027759">
		<tag k="name" v="Kjellerhaugen" />
		<tag k="natural" v="hill" />
		<tag k="place" v="locality" />
		<tag k="ssr:date" v="2016-05-10" />
		<tag k="ssr:gruppe" v="høyder" />
		<tag k="ssr:hovedgruppe" v="terreng" />
		<tag k="ssr:stedsnr" v="144507" />
		<tag k="ssr:type" v="høyde" />
	</node>
	<node id="-35456" lat="59.9653972225" lon="10.9515305517">
		<tag k="fixme" v="consider natural=peak for the most distinct mountains in the district" />
		<tag k="name" v="Øvre Lauvåsen" />
		<tag k="natural" v="hill" />
		<tag k="place" v="locality" />
		<tag k="ssr:date" v="2016-05-10" />
		<tag k="ssr:gruppe" v="høyder" />
		<tag k="ssr:hovedgruppe" v="terreng" />
		<tag k="ssr:stedsnr" v="144504" />
		<tag k="ssr:type" v="ås" />
	</node>
	<node id="-35455" lat="59.9531305568" lon="11.0112055598">
		<tag k="name" v="Sagelva" />
		<tag k="ssr:date" v="2016-05-10" />
		<tag k="ssr:gruppe" v="rennendeVann" />
		<tag k="ssr:hovedgruppe" v="ferskvann" />
		<tag k="ssr:stedsnr" v="144413" />
		<tag k="ssr:type" v="elv" />
		<tag k="waterway" v="river" />
	</node>
	<node id="-35454" lat="59.9526750015" lon="11.0151361068">
		<tag k="amenity" v="place_of_worship" />
		<tag k="denomination" v="lutheran" />
		<tag k="name" v="Strømmen kirke" />
		<tag k="religion" v="christian" />
		<tag k="ssr:date" v="2016-05-10" />
		<tag k="ssr:gruppe" v="kulturinstitusjoner" />
		<tag k="ssr:hovedgruppe" v="kultur" />
		<tag k="ssr:stedsnr" v="144409" />
		<tag k="ssr:type" v="kirke" />
	</node>
	<node id="-35453" lat="59.9876777815" lon="11.1449666617">
		<tag k="name" v="Nilserud" />
		<tag k="place" v="farm" />
		<tag k="ssr:date" v="2016-05-10" />
		<tag k="ssr:gruppe" v="gardsbebyggelse" />
		<tag k="ssr:hovedgruppe" v="bebyggelse" />
		<tag k="ssr:stedsnr" v="144392" />
		<tag k="ssr:type" v="bruk" />
	</node>
	<node id="-35452" lat="59.9645472236" lon="11.0445500082">
		<tag k="amenity" v="school" />
		<tag k="name" v="Kjellervolla ungdomsskole" />
		<tag k="ssr:date" v="2016-05-10" />
		<tag k="ssr:gruppe" v="institusjoner" />
		<tag k="ssr:hovedgruppe" v="bebyggelse" />
		<tag k="ssr:stedsnr" v="144369" />
		<tag k="ssr:type" v="skole" />
	</node>
	<node id="-35451" lat="59.9761638919" lon="11.0178249969">
		<tag k="name" v="Valstad" />
		<tag k="place" v="farm" />
		<tag k="ssr:date" v="2016-05-10" />
		<tag k="ssr:gruppe" v="gardsbebyggelse" />
		<tag k="ssr:hovedgruppe" v="bebyggelse" />
		<tag k="ssr:stedsnr" v="144360" />
		<tag k="ssr:type" v="bruk" />
	</node>
	<node id="-35449" lat="59.9750888933" lon="11.0558972154">
		<tag k="fixme" v="consider place=hamlet" />
		<tag k="name" v="Vestre Brauter" />
		<tag k="place" v="farm" />
		<tag k="ssr:date" v="2018-03-15" />
		<tag k="ssr:gruppe" v="gardsbebyggelse" />
		<tag k="ssr:hovedgruppe" v="bebyggelse" />
		<tag k="ssr:stedsnr" v="144333" />
		<tag k="ssr:type" v="gard" />
	</node>
	<node id="-35448" lat="59.9691222235" lon="11.0889888888">
		<tag k="name" v="Brauterbekken" />
		<tag k="ssr:date" v="2016-05-10" />
		<tag k="ssr:gruppe" v="rennendeVann" />
		<tag k="ssr:hovedgruppe" v="ferskvann" />
		<tag k="ssr:stedsnr" v="144293" />
		<tag k="ssr:type" v="bekk" />
		<tag k="waterway" v="stream" />
	</node>
	<node id="-35447" lat="59.9672694404" lon="11.0325916687">
		<tag k="name" v="Sogna" />
		<tag k="ssr:date" v="2016-05-10" />
		<tag k="ssr:gruppe" v="rennendeVann" />
		<tag k="ssr:hovedgruppe" v="ferskvann" />
		<tag k="ssr:stedsnr" v="144289" />
		<tag k="ssr:type" v="elv" />
		<tag k="waterway" v="river" />
	</node>
	<node id="-35446" lat="59.9444055557" lon="11.077566658">
		<tag k="name" v="England" />
		<tag k="place" v="locality" />
		<tag k="ssr:date" v="2016-05-10" />
		<tag k="ssr:gruppe" v="dyrkamark" />
		<tag k="ssr:hovedgruppe" v="markslag" />
		<tag k="ssr:stedsnr" v="144281" />
		<tag k="ssr:type" v="jorde" />
	</node>
	<node id="-35445" lat="60.020988893" lon="11.008752778">
		<tag k="name" v="Migmyra" />
		<tag k="natural" v="wetland" />
		<tag k="ssr:date" v="2016-05-10" />
		<tag k="ssr:gruppe" v="våtmark" />
		<tag k="ssr:hovedgruppe" v="markslag" />
		<tag k="ssr:stedsnr" v="144271" />
		<tag k="ssr:type" v="myr" />
	</node>
	<node id="-35444" lat="60.0207499996" lon="11.0506666721">
		<tag k="name" v="Tremannsmyra" />
		<tag k="natural" v="wetland" />
		<tag k="ssr:date" v="2016-05-10" />
		<tag k="ssr:gruppe" v="våtmark" />
		<tag k="ssr:hovedgruppe" v="markslag" />
		<tag k="ssr:stedsnr" v="144272" />
		<tag k="ssr:type" v="myr" />
	</node>
	<node id="-35443" lat="59.9584472187" lon="11.0793500006">
		<tag k="name" v="Nesavika" />
		<tag k="place" v="locality" />
		<tag k="ssr:date" v="2016-05-10" />
		<tag k="ssr:gruppe" v="bolighus" />
		<tag k="ssr:hovedgruppe" v="bebyggelse" />
		<tag k="ssr:stedsnr" v="144030" />
		<tag k="ssr:type" v="gammelBosettingsplass" />
	</node>
	<node id="-35442" lat="60.006799998" lon="11.0114722172">
		<tag k="alt_name" v="Østre Tærud" />
		<tag k="name" v="Nedre Tærud" />
		<tag k="place" v="farm" />
		<tag k="ssr:date" v="2016-05-10" />
		<tag k="ssr:gruppe" v="gardsbebyggelse" />
		<tag k="ssr:hovedgruppe" v="bebyggelse" />
		<tag k="ssr:stedsnr" v="127389" />
		<tag k="ssr:type" v="bruk" />
	</node>
	<node id="-35441" lat="60.0103611096" lon="11.0178583299">
		<tag k="name" v="Tæruddalen" />
		<tag k="natural" v="valley" />
		<tag k="place" v="locality" />
		<tag k="ssr:date" v="2016-05-10" />
		<tag k="ssr:gruppe" v="senkninger" />
		<tag k="ssr:hovedgruppe" v="terreng" />
		<tag k="ssr:stedsnr" v="127377" />
		<tag k="ssr:type" v="dal" />
	</node>
	<node id="-35440" lat="60.0254888891" lon="11.0301055606">
		<tag k="name" v="Skarud" />
		<tag k="place" v="isolated_dwelling" />
		<tag k="ssr:date" v="2016-05-10" />
		<tag k="ssr:gruppe" v="bolighus" />
		<tag k="ssr:hovedgruppe" v="bebyggelse" />
		<tag k="ssr:stedsnr" v="127440" />
		<tag k="ssr:type" v="eneboligMindreBoligbygg" />
	</node>
	<node id="-35439" lat="59.9641500034" lon="11.0094888814">
		<tag k="name" v="Stav" />
		<tag k="place" v="farm" />
		<tag k="ssr:date" v="2016-05-10" />
		<tag k="ssr:gruppe" v="gardsbebyggelse" />
		<tag k="ssr:hovedgruppe" v="bebyggelse" />
		<tag k="ssr:stedsnr" v="126510" />
		<tag k="ssr:type" v="bruk" />
	</node>
	<node id="-35438" lat="59.9790000001" lon="11.0526888811">
		<tag k="name" v="Berg" />
		<tag k="place" v="farm" />
		<tag k="ssr:date" v="2016-05-10" />
		<tag k="ssr:gruppe" v="gardsbebyggelse" />
		<tag k="ssr:hovedgruppe" v="bebyggelse" />
		<tag k="ssr:stedsnr" v="126581" />
		<tag k="ssr:type" v="bruk" />
	</node>
	<node id="-35437" lat="59.9862472198" lon="11.0676027724">
		<tag k="name" v="Tomt" />
		<tag k="place" v="farm" />
		<tag k="ssr:date" v="2016-05-10" />
		<tag k="ssr:gruppe" v="gardsbebyggelse" />
		<tag k="ssr:hovedgruppe" v="bebyggelse" />
		<tag k="ssr:stedsnr" v="126572" />
		<tag k="ssr:type" v="bruk" />
	</node>
	<node id="-35436" lat="59.9644527821" lon="10.9659222303">
		<tag k="name" v="Lukedammen" />
		<tag k="natural" v="water" />
		<tag k="ssr:date" v="2016-05-10" />
		<tag k="ssr:gruppe" v="stilleståendeVann" />
		<tag k="ssr:hovedgruppe" v="ferskvann" />
		<tag k="ssr:stedsnr" v="126554" />
		<tag k="ssr:type" v="tjern" />
	</node>
	<node id="-35435" lat="59.9927611139" lon="11.0367388957">
		<tag k="name" v="Vestvollen" />
		<tag k="place" v="farm" />
		<tag k="ssr:date" v="2016-05-10" />
		<tag k="ssr:gruppe" v="gardsbebyggelse" />
		<tag k="ssr:hovedgruppe" v="bebyggelse" />
		<tag k="ssr:stedsnr" v="125583" />
		<tag k="ssr:type" v="bruk" />
	</node>
	<node id="-35434" lat="59.9786749966" lon="11.1267805587">
		<tag k="fixme" v="consider natural=peak for the most distinct mountains in the district" />
		<tag k="name" v="Skansen" />
		<tag k="natural" v="hill" />
		<tag k="place" v="locality" />
		<tag k="ssr:date" v="2016-05-10" />
		<tag k="ssr:gruppe" v="høyder" />
		<tag k="ssr:hovedgruppe" v="terreng" />
		<tag k="ssr:stedsnr" v="125492" />
		<tag k="ssr:type" v="ås" />
	</node>
	<node id="-35433" lat="59.9602333367" lon="10.9772166754">
		<tag k="name" v="Breidablikk" />
		<tag k="place" v="isolated_dwelling" />
		<tag k="ssr:date" v="2016-05-10" />
		<tag k="ssr:gruppe" v="bolighus" />
		<tag k="ssr:hovedgruppe" v="bebyggelse" />
		<tag k="ssr:stedsnr" v="125528" />
		<tag k="ssr:type" v="fritidsbolig" />
	</node>
	<node id="-35432" lat="59.9590000026" lon="10.9572166719">
		<tag k="alt_name" v="Høgda" />
		<tag k="fixme" v="consider natural=peak for the most distinct mountains in the district" />
		<tag k="name" v="Terudåsen" />
		<tag k="natural" v="hill" />
		<tag k="place" v="locality" />
		<tag k="ssr:date" v="2016-05-10" />
		<tag k="ssr:gruppe" v="høyder" />
		<tag k="ssr:hovedgruppe" v="terreng" />
		<tag k="ssr:stedsnr" v="125520" />
		<tag k="ssr:type" v="ås" />
	</node>
	<node id="-35431" lat="59.9942333335" lon="11.0341166644">
		<tag k="bridge" v="yes" />
		<tag k="layer" v="1" />
		<tag k="name" v="Vestvollvegen" />
		<tag k="ssr:date" v="2016-05-10" />
		<tag k="ssr:gruppe" v="samferdselsanlegg" />
		<tag k="ssr:hovedgruppe" v="infrastruktur" />
		<tag k="ssr:stedsnr" v="106005" />
		<tag k="ssr:type" v="bru" />
	</node>
	<node id="-35430" lat="59.9916444421" lon="11.0775277826">
		<tag k="junction" v="yes" />
		<tag k="name" v="Kjus" />
		<tag k="place" v="locality" />
		<tag k="ssr:date" v="2016-05-10" />
		<tag k="ssr:gruppe" v="veg" />
		<tag k="ssr:hovedgruppe" v="infrastruktur" />
		<tag k="ssr:stedsnr" v="105365" />
		<tag k="ssr:type" v="vegkryss" />
	</node>
	<node id="-35429" lat="60.0199999972" lon="11.0526361115">
		<tag k="alt_name" v="Vardåsen" />
		<tag k="name" v="Vardeåsen" />
		<tag k="place" v="quarter" />
		<tag k="ssr:date" v="2016-05-10" />
		<tag k="ssr:gruppe" v="bebyggelsesområder" />
		<tag k="ssr:hovedgruppe" v="bebyggelse" />
		<tag k="ssr:stedsnr" v="87285" />
		<tag k="ssr:type" v="boligfelt" />
	</node>
	<node id="-35428" lat="60.0008750005" lon="11.0177805535">
		<tag k="name" v="Glassmesterbakken" />
		<tag k="natural" v="slope" />
		<tag k="place" v="locality" />
		<tag k="ssr:date" v="2016-05-10" />
		<tag k="ssr:gruppe" v="skråninger" />
		<tag k="ssr:hovedgruppe" v="terreng" />
		<tag k="ssr:stedsnr" v="84493" />
		<tag k="ssr:type" v="bakke" />
	</node>
	<node id="-35426" lat="60.0195777774" lon="10.9726055601">
		<tag k="name" v="Mosebekk" />
		<tag k="place" v="isolated_dwelling" />
		<tag k="ssr:date" v="2016-05-10" />
		<tag k="ssr:gruppe" v="bolighus" />
		<tag k="ssr:hovedgruppe" v="bebyggelse" />
		<tag k="ssr:stedsnr" v="84361" />
		<tag k="ssr:type" v="eneboligMindreBoligbygg" />
	</node>
	<node id="-35425" lat="59.9948222192" lon="11.0260500088">
		<tag k="name" v="Solhaug" />
		<tag k="place" v="farm" />
		<tag k="ssr:date" v="2016-05-10" />
		<tag k="ssr:gruppe" v="gardsbebyggelse" />
		<tag k="ssr:hovedgruppe" v="bebyggelse" />
		<tag k="ssr:stedsnr" v="84329" />
		<tag k="ssr:type" v="bruk" />
	</node>
	<node id="-35424" lat="59.99681944" lon="11.0874611178">
		<tag k="name" v="Leirsund" />
		<tag k="place" v="village" />
		<tag k="ssr:date" v="2016-05-10" />
		<tag k="ssr:gruppe" v="bebyggelsesområder" />
		<tag k="ssr:hovedgruppe" v="bebyggelse" />
		<tag k="ssr:stedsnr" v="84308" />
		<tag k="ssr:type" v="tettsted" />
	</node>
	<node id="-35423" lat="60.0217388871" lon="11.02268888">
		<tag k="name" v="Holm" />
		<tag k="place" v="farm" />
		<tag k="ssr:date" v="2016-05-10" />
		<tag k="ssr:gruppe" v="gardsbebyggelse" />
		<tag k="ssr:hovedgruppe" v="bebyggelse" />
		<tag k="ssr:stedsnr" v="84306" />
		<tag k="ssr:type" v="bruk" />
	</node>
	<node id="-35422" lat="59.9783750027" lon="11.1332194374">
		<tag k="name" v="Breimåsan" />
		<tag k="natural" v="wetland" />
		<tag k="ssr:date" v="2016-05-10" />
		<tag k="ssr:gruppe" v="våtmark" />
		<tag k="ssr:hovedgruppe" v="markslag" />
		<tag k="ssr:stedsnr" v="84268" />
		<tag k="ssr:type" v="myr" />
	</node>
	<node id="-35421" lat="59.9981472232" lon="11.0964500009">
		<tag k="name" v="Kattismyra" />
		<tag k="natural" v="wetland" />
		<tag k="ssr:date" v="2016-05-10" />
		<tag k="ssr:gruppe" v="våtmark" />
		<tag k="ssr:hovedgruppe" v="markslag" />
		<tag k="ssr:stedsnr" v="84267" />
		<tag k="ssr:type" v="myr" />
	</node>
	<node id="-35420" lat="59.9734472263" lon="11.0999333282">
		<tag k="name" v="Myrbodammen" />
		<tag k="natural" v="wetland" />
		<tag k="ssr:date" v="2016-05-10" />
		<tag k="ssr:gruppe" v="våtmark" />
		<tag k="ssr:hovedgruppe" v="markslag" />
		<tag k="ssr:stedsnr" v="84266" />
		<tag k="ssr:type" v="myr" />
	</node>
	<node id="-35419" lat="59.9706555599" lon="10.9682000025">
		<tag k="name" v="Karterud" />
		<tag k="place" v="locality" />
		<tag k="ssr:date" v="2016-05-10" />
		<tag k="ssr:gruppe" v="bolighus" />
		<tag k="ssr:hovedgruppe" v="bebyggelse" />
		<tag k="ssr:stedsnr" v="84026" />
		<tag k="ssr:type" v="gammelBosettingsplass" />
	</node>
	<node id="-35418" lat="59.9850000025" lon="11.0363249933">
		<tag k="name" v="Holt" />
		<tag k="place" v="farm" />
		<tag k="ssr:date" v="2016-05-10" />
		<tag k="ssr:gruppe" v="gardsbebyggelse" />
		<tag k="ssr:hovedgruppe" v="bebyggelse" />
		<tag k="ssr:stedsnr" v="65570" />
		<tag k="ssr:type" v="bruk" />
	</node>
	<node id="-35417" lat="59.9937499998" lon="11.0450472193">
		<tag k="alt_name" v="Skedsmo" />
		<tag k="amenity" v="place_of_worship" />
		<tag k="denomination" v="lutheran" />
		<tag k="name" v="Skedsmo kirke" />
		<tag k="religion" v="christian" />
		<tag k="ssr:date" v="2016-05-10" />
		<tag k="ssr:gruppe" v="kulturinstitusjoner" />
		<tag k="ssr:hovedgruppe" v="kultur" />
		<tag k="ssr:stedsnr" v="65554" />
		<tag k="ssr:type" v="kirke" />
	</node>
	<node id="-35416" lat="59.9751305517" lon="11.0382999947">
		<tag k="name" v="Kjeller" />
		<tag k="place" v="farm" />
		<tag k="ssr:date" v="2016-05-10" />
		<tag k="ssr:gruppe" v="gardsbebyggelse" />
		<tag k="ssr:hovedgruppe" v="bebyggelse" />
		<tag k="ssr:stedsnr" v="65526" />
		<tag k="ssr:type" v="bruk" />
	</node>
	<node id="-35415" lat="59.9787499982" lon="10.9695305496">
		<tag k="name" v="Fletstein" />
		<tag k="place" v="farm" />
		<tag k="ssr:date" v="2016-05-10" />
		<tag k="ssr:gruppe" v="gardsbebyggelse" />
		<tag k="ssr:hovedgruppe" v="bebyggelse" />
		<tag k="ssr:stedsnr" v="65523" />
		<tag k="ssr:type" v="bruk" />
	</node>
	<node id="-35414" lat="59.988774999" lon="11.1325055513">
		<tag k="name" v="Tretjernet" />
		<tag k="natural" v="water" />
		<tag k="ssr:date" v="2016-05-10" />
		<tag k="ssr:gruppe" v="stilleståendeVann" />
		<tag k="ssr:hovedgruppe" v="ferskvann" />
		<tag k="ssr:stedsnr" v="65470" />
		<tag k="ssr:type" v="tjern" />
	</node>
	<node id="-35413" lat="60.0073916697" lon="11.0505083392">
		<tag k="bridge" v="yes" />
		<tag k="layer" v="1" />
		<tag k="name" v="Høgslund" />
		<tag k="ssr:date" v="2016-05-10" />
		<tag k="ssr:gruppe" v="samferdselsanlegg" />
		<tag k="ssr:hovedgruppe" v="infrastruktur" />
		<tag k="ssr:stedsnr" v="45023" />
		<tag k="ssr:type" v="bru" />
	</node>
	<node id="-35412" lat="59.9573722247" lon="11.0305333312">
		<tag k="bridge" v="yes" />
		<tag k="layer" v="1" />
		<tag k="name" v="Strand" />
		<tag k="ssr:date" v="2016-05-10" />
		<tag k="ssr:gruppe" v="samferdselsanlegg" />
		<tag k="ssr:hovedgruppe" v="infrastruktur" />
		<tag k="ssr:stedsnr" v="45009" />
		<tag k="ssr:type" v="bru" />
	</node>
	<node id="-35411" lat="59.9986055511" lon="11.0998833404">
		<tag k="name" v="Hauglibakken" />
		<tag k="place" v="isolated_dwelling" />
		<tag k="ssr:date" v="2016-05-10" />
		<tag k="ssr:gruppe" v="bolighus" />
		<tag k="ssr:hovedgruppe" v="bebyggelse" />
		<tag k="ssr:stedsnr" v="23400" />
		<tag k="ssr:type" v="eneboligMindreBoligbygg" />
	</node>
	<node id="-35410" lat="59.9749527766" lon="11.0262416618">
		<tag k="name" v="Gardsvik" />
		<tag k="place" v="farm" />
		<tag k="ssr:date" v="2016-05-10" />
		<tag k="ssr:gruppe" v="gardsbebyggelse" />
		<tag k="ssr:hovedgruppe" v="bebyggelse" />
		<tag k="ssr:stedsnr" v="23370" />
		<tag k="ssr:type" v="bruk" />
	</node>
	<node id="-35409" lat="60.0186833317" lon="11.0285111141">
		<tag k="name" v="Søndre Sydmyrer" />
		<tag k="place" v="farm" />
		<tag k="ssr:date" v="2016-05-10" />
		<tag k="ssr:gruppe" v="gardsbebyggelse" />
		<tag k="ssr:hovedgruppe" v="bebyggelse" />
		<tag k="ssr:stedsnr" v="23331" />
		<tag k="ssr:type" v="bruk" />
	</node>
	<node id="-35408" lat="59.9525916665" lon="11.0944972163">
		<tag k="name" v="Nordlibekken" />
		<tag k="ssr:date" v="2016-05-10" />
		<tag k="ssr:gruppe" v="rennendeVann" />
		<tag k="ssr:hovedgruppe" v="ferskvann" />
		<tag k="ssr:stedsnr" v="23316" />
		<tag k="ssr:type" v="bekk" />
		<tag k="waterway" v="stream" />
	</node>
	<node id="-35407" lat="59.9515305555" lon="11.0759527738">
		<tag k="name" v="Tangen" />
		<tag k="place" v="locality" />
		<tag k="ssr:date" v="2016-05-10" />
		<tag k="ssr:gruppe" v="dyrkamark" />
		<tag k="ssr:hovedgruppe" v="markslag" />
		<tag k="ssr:stedsnr" v="23305" />
		<tag k="ssr:type" v="utmark" />
	</node>
	<node id="-35406" lat="59.9675944478" lon="11.0261638833">
		<tag k="name" v="Nebbursvollen friluftsbad" />
		<tag k="place" v="locality" />
		<tag k="ssr:date" v="2016-05-10" />
		<tag k="ssr:gruppe" v="kulturminner" />
		<tag k="ssr:hovedgruppe" v="kultur" />
		<tag k="ssr:stedsnr" v="23032" />
		<tag k="ssr:type" v="annenKulturdetalj" />
	</node>
	<node id="-35405" lat="60.0089888932" lon="10.9796611141">
		<tag k="alt_name" v="Lille Huseby" />
		<tag k="name" v="Huseby" />
		<tag k="place" v="farm" />
		<tag k="ssr:date" v="2016-05-10" />
		<tag k="ssr:gruppe" v="gardsbebyggelse" />
		<tag k="ssr:hovedgruppe" v="bebyggelse" />
		<tag k="ssr:stedsnr" v="6396" />
		<tag k="ssr:type" v="bruk" />
	</node>
	<node id="-35404" lat="60.0107194409" lon="10.9940805561">
		<tag k="alt_name" v="Ringnes, s" />
		<tag k="name" v="Nedre Ringnes" />
		<tag k="place" v="farm" />
		<tag k="ssr:date" v="2016-05-10" />
		<tag k="ssr:gruppe" v="gardsbebyggelse" />
		<tag k="ssr:hovedgruppe" v="bebyggelse" />
		<tag k="ssr:stedsnr" v="6395" />
		<tag k="ssr:type" v="bruk" />
	</node>
	<node id="-35403" lat="60.0155750014" lon="11.0049888924">
		<tag k="alt_name" v="Tærudtjerna" />
		<tag k="name" v="Ringnestjerna" />
		<tag k="natural" v="water" />
		<tag k="ssr:date" v="2016-05-10" />
		<tag k="ssr:gruppe" v="stilleståendeVann" />
		<tag k="ssr:hovedgruppe" v="ferskvann" />
		<tag k="ssr:stedsnr" v="6394" />
		<tag k="ssr:type" v="tjern" />
	</node>
	<node id="-35402" lat="59.9848249997" lon="11.0606833353">
		<tag k="name" v="Løkenflaen" />
		<tag k="place" v="farm" />
		<tag k="ssr:date" v="2016-05-10" />
		<tag k="ssr:gruppe" v="gardsbebyggelse" />
		<tag k="ssr:hovedgruppe" v="bebyggelse" />
		<tag k="ssr:stedsnr" v="5574" />
		<tag k="ssr:type" v="bruk" />
	</node>
	<node id="-35401" lat="59.9711499988" lon="10.9796333326">
		<tag k="name" v="Luke" />
		<tag k="place" v="farm" />
		<tag k="ssr:date" v="2016-05-10" />
		<tag k="ssr:gruppe" v="gardsbebyggelse" />
		<tag k="ssr:hovedgruppe" v="bebyggelse" />
		<tag k="ssr:stedsnr" v="5510" />
		<tag k="ssr:type" v="bruk" />
	</node>
	<node id="-35400" lat="59.9659277768" lon="11.0818750056">
		<tag k="name" v="Stilla" />
		<tag k="natural" v="water" />
		<tag k="ssr:date" v="2016-05-10" />
		<tag k="ssr:gruppe" v="rennendeVann" />
		<tag k="ssr:hovedgruppe" v="ferskvann" />
		<tag k="ssr:stedsnr" v="5488" />
		<tag k="ssr:type" v="lon" />
		<tag k="water" v="lake" />
	</node>
	<node id="-35398" lat="60.0272027784" lon="11.0372000058">
		<tag k="name" v="Leikvoll" />
		<tag k="old_name" v="Leikvold" />
		<tag k="place" v="farm" />
		<tag k="ssr:date" v="2016-05-10" />
		<tag k="ssr:gruppe" v="gardsbebyggelse" />
		<tag k="ssr:hovedgruppe" v="bebyggelse" />
		<tag k="ssr:stedsnr" v="5393" />
		<tag k="ssr:type" v="bruk" />
	</node>
	<node id="-35397" lat="60.0177694401" lon="11.0192444509">
		<tag k="alt_name" v="Karterud;Karterud nordre" />
		<tag k="name" v="Nordre Karterud" />
		<tag k="place" v="farm" />
		<tag k="ssr:date" v="2016-05-10" />
		<tag k="ssr:gruppe" v="gardsbebyggelse" />
		<tag k="ssr:hovedgruppe" v="bebyggelse" />
		<tag k="ssr:stedsnr" v="5372" />
		<tag k="ssr:type" v="bruk" />
	</node>
	<node id="-35396" lat="59.9967500014" lon="11.0349472265">
		<tag k="name" v="Lund" />
		<tag k="place" v="farm" />
		<tag k="ssr:date" v="2016-05-10" />
		<tag k="ssr:gruppe" v="gardsbebyggelse" />
		<tag k="ssr:hovedgruppe" v="bebyggelse" />
		<tag k="ssr:stedsnr" v="4575" />
		<tag k="ssr:type" v="bruk" />
	</node>
	<node id="-35395" lat="59.9599805526" lon="11.0158750012">
		<tag k="name" v="Ryen" />
		<tag k="place" v="isolated_dwelling" />
		<tag k="ssr:date" v="2016-05-10" />
		<tag k="ssr:gruppe" v="bolighus" />
		<tag k="ssr:hovedgruppe" v="bebyggelse" />
		<tag k="ssr:stedsnr" v="4520" />
		<tag k="ssr:type" v="eneboligMindreBoligbygg" />
	</node>
	<node id="-35391" lat="59.9757756897" lon="11.0450550852">
		<tag k="amenity" v="school" />
		<tag k="name" v="Kjeller kunnskapssenter" />
		<tag k="ssr:date" v="2019-02-25" />
		<tag k="ssr:gruppe" v="institusjoner" />
		<tag k="ssr:hovedgruppe" v="bebyggelse" />
		<tag k="ssr:stedsnr" v="990197" />
		<tag k="ssr:type" v="skole" />
	</node>
	<node id="-35388" lat="59.9980228354" lon="11.0229102089">
		<tag k="amenity" v="school" />
		<tag k="name" v="Brånås skole" />
		<tag k="ssr:date" v="2019-02-25" />
		<tag k="ssr:gruppe" v="institusjoner" />
		<tag k="ssr:hovedgruppe" v="bebyggelse" />
		<tag k="ssr:stedsnr" v="990194" />
		<tag k="ssr:type" v="skole" />
	</node>
	<node id="-35386" lat="60.0129495592" lon="11.0176567669">
		<tag k="amenity" v="school" />
		<tag k="name" v="Tæruddalen skole" />
		<tag k="ssr:date" v="2019-02-25" />
		<tag k="ssr:gruppe" v="institusjoner" />
		<tag k="ssr:hovedgruppe" v="bebyggelse" />
		<tag k="ssr:stedsnr" v="990182" />
		<tag k="ssr:type" v="skole" />
	</node>
	<node id="-35385" lat="59.9597721682" lon="10.9972128933">
		<tag k="amenity" v="school" />
		<tag k="name" v="Skjetten skole" />
		<tag k="ssr:date" v="2019-02-25" />
		<tag k="ssr:gruppe" v="institusjoner" />
		<tag k="ssr:hovedgruppe" v="bebyggelse" />
		<tag k="ssr:stedsnr" v="990181" />
		<tag k="ssr:type" v="skole" />
	</node>
	<node id="-35381" lat="59.9742565796" lon="11.0400021815">
		<tag k="amenity" v="school" />
		<tag k="name" v="Kjeller skole" />
		<tag k="ssr:date" v="2019-02-25" />
		<tag k="ssr:gruppe" v="institusjoner" />
		<tag k="ssr:hovedgruppe" v="bebyggelse" />
		<tag k="ssr:stedsnr" v="990151" />
		<tag k="ssr:type" v="skole" />
	</node>
	<node id="-35380" lat="59.9603164917" lon="11.0738744487">
		<tag k="leisure" v="park" />
		<tag k="name" v="Sørum fritidsgård" />
		<tag k="ssr:date" v="2019-02-25" />
		<tag k="ssr:gruppe" v="fritidsanlegg" />
		<tag k="ssr:hovedgruppe" v="bebyggelse" />
		<tag k="ssr:stedsnr" v="990149" />
		<tag k="ssr:type" v="park" />
	</node>
	<node id="-35379" lat="59.9546717584" lon="11.062299455">
		<tag k="name" v="Vigernes" />
		<tag k="place" v="suburb" />
		<tag k="ssr:date" v="2019-02-25" />
		<tag k="ssr:gruppe" v="bebyggelsesområder" />
		<tag k="ssr:hovedgruppe" v="bebyggelse" />
		<tag k="ssr:stedsnr" v="990148" />
		<tag k="ssr:type" v="bydel" />
	</node>
	<node id="-35378" lat="59.9922573731" lon="11.1066693361">
		<tag k="fixme" v="consider place=suburb, village or hamlet" />
		<tag k="name" v="Asak" />
		<tag k="place" v="quarter" />
		<tag k="ssr:date" v="2019-02-25" />
		<tag k="ssr:gruppe" v="bebyggelsesområder" />
		<tag k="ssr:hovedgruppe" v="bebyggelse" />
		<tag k="ssr:stedsnr" v="990147" />
		<tag k="ssr:type" v="tettbebyggelse" />
	</node>
	<node id="-35374" lat="59.9513335342" lon="11.019412027">
		<tag k="amenity" v="nursing_home" />
		<tag k="name" v="Stalsberg bo- og behandlingssenter" />
		<tag k="ssr:date" v="2019-02-25" />
		<tag k="ssr:gruppe" v="institusjoner" />
		<tag k="ssr:hovedgruppe" v="bebyggelse" />
		<tag k="ssr:stedsnr" v="990136" />
		<tag k="ssr:type" v="helseinstitusjon" />
	</node>
	<node id="-35370" lat="59.9962213229" lon="11.0199720395">
		<tag k="fixme" v="consider place=suburb, village or hamlet" />
		<tag k="name" v="Brånås" />
		<tag k="place" v="quarter" />
		<tag k="ssr:date" v="2019-02-25" />
		<tag k="ssr:gruppe" v="bebyggelsesområder" />
		<tag k="ssr:hovedgruppe" v="bebyggelse" />
		<tag k="ssr:stedsnr" v="990130" />
		<tag k="ssr:type" v="tettbebyggelse" />
	</node>
	<node id="-35359" lat="59.9546500955" lon="11.0390954782">
		<tag k="amenity" v="townhall" />
		<tag k="name" v="Skedsmo rådhus" />
		<tag k="ssr:date" v="2018-11-20" />
		<tag k="ssr:gruppe" v="institusjoner" />
		<tag k="ssr:hovedgruppe" v="bebyggelse" />
		<tag k="ssr:stedsnr" v="988445" />
		<tag k="ssr:type" v="rådhus" />
	</node>
	<node id="-35357" lat="60.0147095702" lon="11.0606185723">
		<tag k="name" v="Berger" />
		<tag k="place" v="quarter" />
		<tag k="ssr:date" v="2018-04-19" />
		<tag k="ssr:gruppe" v="bebyggelsesområder" />
		<tag k="ssr:hovedgruppe" v="bebyggelse" />
		<tag k="ssr:stedsnr" v="983730" />
		<tag k="ssr:type" v="industriområde" />
	</node>
	<node id="-35355" lat="59.9891246172" lon="11.1078029261">
		<tag k="name" v="Asak" />
		<tag k="place" v="quarter" />
		<tag k="ssr:date" v="2018-02-01" />
		<tag k="ssr:gruppe" v="bebyggelsesområder" />
		<tag k="ssr:hovedgruppe" v="bebyggelse" />
		<tag k="ssr:stedsnr" v="981907" />
		<tag k="ssr:type" v="boligfelt" />
	</node>
	<node id="-35354" lat="60.0095094606" lon="11.0169633627">
		<tag k="name" v="Tæruddalen" />
		<tag k="place" v="quarter" />
		<tag k="ssr:date" v="2018-02-01" />
		<tag k="ssr:gruppe" v="bebyggelsesområder" />
		<tag k="ssr:hovedgruppe" v="bebyggelse" />
		<tag k="ssr:stedsnr" v="981906" />
		<tag k="ssr:type" v="boligfelt" />
	</node>
	<node id="-35353" lat="59.9735111124" lon="11.0554305592">
		<tag k="bridge" v="yes" />
		<tag k="layer" v="1" />
		<tag k="name" v="Brauter" />
		<tag k="ssr:date" v="2016-05-11" />
		<tag k="ssr:gruppe" v="samferdselsanlegg" />
		<tag k="ssr:hovedgruppe" v="infrastruktur" />
		<tag k="ssr:stedsnr" v="896015" />
		<tag k="ssr:type" v="bru" />
	</node>
	<node id="-35352" lat="59.9761805578" lon="11.0242972146">
		<tag k="bridge" v="yes" />
		<tag k="layer" v="1" />
		<tag k="name" v="Kjellerstranda" />
		<tag k="ssr:date" v="2016-05-11" />
		<tag k="ssr:gruppe" v="samferdselsanlegg" />
		<tag k="ssr:hovedgruppe" v="infrastruktur" />
		<tag k="ssr:stedsnr" v="895014" />
		<tag k="ssr:type" v="bru" />
	</node>
	<node id="-35351" lat="59.9796222261" lon="10.993925007">
		<tag k="bridge" v="yes" />
		<tag k="layer" v="1" />
		<tag k="name" v="Hvam" />
		<tag k="ssr:date" v="2016-05-11" />
		<tag k="ssr:gruppe" v="samferdselsanlegg" />
		<tag k="ssr:hovedgruppe" v="infrastruktur" />
		<tag k="ssr:stedsnr" v="895016" />
		<tag k="ssr:type" v="bru" />
	</node>
	<node id="-35350" lat="59.9477055564" lon="11.0615472151">
		<tag k="bridge" v="yes" />
		<tag k="layer" v="1" />
		<tag k="name" v="Trelastbrua" />
		<tag k="ssr:date" v="2016-05-11" />
		<tag k="ssr:gruppe" v="samferdselsanlegg" />
		<tag k="ssr:hovedgruppe" v="infrastruktur" />
		<tag k="ssr:stedsnr" v="895006" />
		<tag k="ssr:type" v="bru" />
	</node>
	<node id="-35349" lat="59.953116666" lon="11.0157888832">
		<tag k="bridge" v="yes" />
		<tag k="layer" v="1" />
		<tag k="name" v="Stalsberg" />
		<tag k="ssr:date" v="2016-05-10" />
		<tag k="ssr:gruppe" v="samferdselsanlegg" />
		<tag k="ssr:hovedgruppe" v="infrastruktur" />
		<tag k="ssr:stedsnr" v="409014" />
		<tag k="ssr:type" v="bru" />
	</node>
	<node id="-35348" lat="59.9738277751" lon="11.0041499927">
		<tag k="bridge" v="yes" />
		<tag k="layer" v="1" />
		<tag k="name" v="Valstadsvingen" />
		<tag k="ssr:date" v="2016-05-10" />
		<tag k="ssr:gruppe" v="samferdselsanlegg" />
		<tag k="ssr:hovedgruppe" v="infrastruktur" />
		<tag k="ssr:stedsnr" v="409003" />
		<tag k="ssr:type" v="bru" />
	</node>
	<node id="-35347" lat="59.9778611112" lon="11.1322361145">
		<tag k="name" v="Breimåsatjern" />
		<tag k="natural" v="water" />
		<tag k="ssr:date" v="2016-05-10" />
		<tag k="ssr:gruppe" v="stilleståendeVann" />
		<tag k="ssr:hovedgruppe" v="ferskvann" />
		<tag k="ssr:stedsnr" v="387487" />
		<tag k="ssr:type" v="tjern" />
	</node>
	<node id="-35346" lat="59.9604222239" lon="11.0461388969">
		<tag k="amenity" v="school" />
		<tag k="name" v="Lillestrøm videregående skole" />
		<tag k="ssr:date" v="2016-05-10" />
		<tag k="ssr:gruppe" v="institusjoner" />
		<tag k="ssr:hovedgruppe" v="bebyggelse" />
		<tag k="ssr:stedsnr" v="387396" />
		<tag k="ssr:type" v="skole" />
	</node>
	<node id="-35345" lat="59.9550722202" lon="11.0181083386">
		<tag k="name" v="Nordre Stalsberg" />
		<tag k="place" v="farm" />
		<tag k="ssr:date" v="2016-05-10" />
		<tag k="ssr:gruppe" v="gardsbebyggelse" />
		<tag k="ssr:hovedgruppe" v="bebyggelse" />
		<tag k="ssr:stedsnr" v="387393" />
		<tag k="ssr:type" v="bruk" />
	</node>
	<node id="-35344" lat="59.955174996" lon="11.0717055511">
		<tag k="amenity" v="school" />
		<tag k="name" v="Vigernes skole" />
		<tag k="ssr:date" v="2016-05-10" />
		<tag k="ssr:gruppe" v="institusjoner" />
		<tag k="ssr:hovedgruppe" v="bebyggelse" />
		<tag k="ssr:stedsnr" v="387358" />
		<tag k="ssr:type" v="skole" />
	</node>
	<node id="-35343" lat="59.9969999956" lon="11.0569861102">
		<tag k="name" v="Østvollen" />
		<tag k="place" v="farm" />
		<tag k="ssr:date" v="2016-05-10" />
		<tag k="ssr:gruppe" v="gardsbebyggelse" />
		<tag k="ssr:hovedgruppe" v="bebyggelse" />
		<tag k="ssr:stedsnr" v="387354" />
		<tag k="ssr:type" v="bruk" />
	</node>
	<node id="-35342" lat="59.9734083321" lon="11.0111777828">
		<tag k="name" v="Valstad" />
		<tag k="place" v="farm" />
		<tag k="ssr:date" v="2016-05-10" />
		<tag k="ssr:gruppe" v="gardsbebyggelse" />
		<tag k="ssr:hovedgruppe" v="bebyggelse" />
		<tag k="ssr:stedsnr" v="387352" />
		<tag k="ssr:type" v="bruk" />
	</node>
	<node id="-35341" lat="59.992338891" lon="11.0696888883">
		<tag k="fixme" v="consider place=hamlet" />
		<tag k="name" v="Søndre Kjus" />
		<tag k="place" v="farm" />
		<tag k="ssr:date" v="2018-03-12" />
		<tag k="ssr:gruppe" v="gardsbebyggelse" />
		<tag k="ssr:hovedgruppe" v="bebyggelse" />
		<tag k="ssr:stedsnr" v="387332" />
		<tag k="ssr:type" v="gard" />
	</node>
	<node id="-35340" lat="59.9771499967" lon="11.0847611059">
		<tag k="name" v="Furuholen" />
		<tag k="place" v="locality" />
		<tag k="ssr:date" v="2016-05-10" />
		<tag k="ssr:gruppe" v="dyrkamark" />
		<tag k="ssr:hovedgruppe" v="markslag" />
		<tag k="ssr:stedsnr" v="387279" />
		<tag k="ssr:type" v="utmark" />
	</node>
	<node id="-35339" lat="59.9724833309" lon="11.144341668">
		<tag k="name" v="Kongsrudmyra" />
		<tag k="natural" v="wetland" />
		<tag k="ssr:date" v="2016-05-10" />
		<tag k="ssr:gruppe" v="våtmark" />
		<tag k="ssr:hovedgruppe" v="markslag" />
		<tag k="ssr:stedsnr" v="387273" />
		<tag k="ssr:type" v="myr" />
	</node>
	<node id="-35338" lat="60.0209000025" lon="10.9758527704">
		<tag k="name" v="Hauermåsan" />
		<tag k="natural" v="wetland" />
		<tag k="ssr:date" v="2016-05-10" />
		<tag k="ssr:gruppe" v="våtmark" />
		<tag k="ssr:hovedgruppe" v="markslag" />
		<tag k="ssr:stedsnr" v="387267" />
		<tag k="ssr:type" v="myr" />
	</node>
	<node id="-35337" lat="59.9657583336" lon="10.9788583416">
		<tag k="name" v="Tærudenga" />
		<tag k="place" v="locality" />
		<tag k="ssr:date" v="2016-05-10" />
		<tag k="ssr:gruppe" v="bolighus" />
		<tag k="ssr:hovedgruppe" v="bebyggelse" />
		<tag k="ssr:stedsnr" v="387029" />
		<tag k="ssr:type" v="gammelBosettingsplass" />
	</node>
	<node id="-35336" lat="59.9713555541" lon="11.032758342">
		<tag k="aeroway" v="aerodrome" />
		<tag k="alt_name" v="Kjeller" />
		<tag k="name" v="Kjeller flyplass" />
		<tag k="ssr:date" v="2016-05-10" />
		<tag k="ssr:gruppe" v="luftfart" />
		<tag k="ssr:hovedgruppe" v="infrastruktur" />
		<tag k="ssr:stedsnr" v="369477" />
		<tag k="ssr:type" v="flyplass" />
	</node>
	<node id="-35335" lat="59.9612444409" lon="11.0103083296">
		<tag k="name" v="Skjetten" />
		<tag k="place" v="farm" />
		<tag k="ssr:date" v="2016-05-10" />
		<tag k="ssr:gruppe" v="gardsbebyggelse" />
		<tag k="ssr:hovedgruppe" v="bebyggelse" />
		<tag k="ssr:stedsnr" v="369444" />
		<tag k="ssr:type" v="bruk" />
	</node>
	<node id="-35334" lat="59.9829555572" lon="11.0492499942">
		<tag k="name" v="Øvre Ris" />
		<tag k="place" v="farm" />
		<tag k="ssr:date" v="2016-05-10" />
		<tag k="ssr:gruppe" v="gardsbebyggelse" />
		<tag k="ssr:hovedgruppe" v="bebyggelse" />
		<tag k="ssr:stedsnr" v="368619" />
		<tag k="ssr:type" v="bruk" />
	</node>
	<node id="-35333" lat="59.9960499957" lon="11.083833326">
		<tag k="name" v="Leirsund" />
		<tag k="place" v="farm" />
		<tag k="ssr:date" v="2016-05-10" />
		<tag k="ssr:gruppe" v="gardsbebyggelse" />
		<tag k="ssr:hovedgruppe" v="bebyggelse" />
		<tag k="ssr:stedsnr" v="368597" />
		<tag k="ssr:type" v="bruk" />
	</node>
	<node id="-35332" lat="59.9871944452" lon="11.1251611146">
		<tag k="name" v="Asakbråten" />
		<tag k="place" v="farm" />
		<tag k="ssr:date" v="2016-05-10" />
		<tag k="ssr:gruppe" v="gardsbebyggelse" />
		<tag k="ssr:hovedgruppe" v="bebyggelse" />
		<tag k="ssr:stedsnr" v="368510" />
		<tag k="ssr:type" v="bruk" />
	</node>
	<node id="-35331" lat="59.983261113" lon="11.142800009">
		<tag k="alt_name" v="Brandrud" />
		<tag k="name" v="Branderud" />
		<tag k="place" v="farm" />
		<tag k="ssr:date" v="2016-05-10" />
		<tag k="ssr:gruppe" v="gardsbebyggelse" />
		<tag k="ssr:hovedgruppe" v="bebyggelse" />
		<tag k="ssr:stedsnr" v="368507" />
		<tag k="ssr:type" v="bruk" />
	</node>
	<node id="-35330" lat="59.9763861124" lon="11.1477861093">
		<tag k="alt_name" v="Kongsrud, nordre" />
		<tag k="name" v="Nordre Kongsrud" />
		<tag k="place" v="farm" />
		<tag k="ssr:date" v="2016-05-10" />
		<tag k="ssr:gruppe" v="gardsbebyggelse" />
		<tag k="ssr:hovedgruppe" v="bebyggelse" />
		<tag k="ssr:stedsnr" v="368475" />
		<tag k="ssr:type" v="bruk" />
	</node>
	<node id="-35329" lat="59.9890305556" lon="11.0282611056">
		<tag k="bridge" v="yes" />
		<tag k="layer" v="1" />
		<tag k="name" v="Brånås" />
		<tag k="ssr:date" v="2016-05-10" />
		<tag k="ssr:gruppe" v="samferdselsanlegg" />
		<tag k="ssr:hovedgruppe" v="infrastruktur" />
		<tag k="ssr:stedsnr" v="349015" />
		<tag k="ssr:type" v="bru" />
	</node>
	<node id="-35328" lat="59.9781944422" lon="11.0010749984">
		<tag k="bridge" v="yes" />
		<tag k="layer" v="1" />
		<tag k="name" v="Norheim" />
		<tag k="ssr:date" v="2016-05-10" />
		<tag k="ssr:gruppe" v="samferdselsanlegg" />
		<tag k="ssr:hovedgruppe" v="infrastruktur" />
		<tag k="ssr:stedsnr" v="349009" />
		<tag k="ssr:type" v="bru" />
	</node>
	<node id="-35327" lat="59.965386115" lon="10.9722805624">
		<tag k="name" v="Engerberget" />
		<tag k="natural" v="hill" />
		<tag k="place" v="locality" />
		<tag k="ssr:date" v="2016-05-10" />
		<tag k="ssr:gruppe" v="høyder" />
		<tag k="ssr:hovedgruppe" v="terreng" />
		<tag k="ssr:stedsnr" v="327448" />
		<tag k="ssr:type" v="berg" />
	</node>
	<node id="-35326" lat="59.9884955798" lon="11.1084788017">
		<tag k="name" v="Veslefjellet" />
		<tag k="place" v="quarter" />
		<tag k="ssr:date" v="2018-11-13" />
		<tag k="ssr:gruppe" v="bebyggelsesområder" />
		<tag k="ssr:hovedgruppe" v="bebyggelse" />
		<tag k="ssr:stedsnr" v="327443" />
		<tag k="ssr:type" v="boligfelt" />
	</node>
	<node id="-35325" lat="59.963011113" lon="11.060747218">
		<tag k="name" v="Sørumsfjellet" />
		<tag k="natural" v="hill" />
		<tag k="place" v="locality" />
		<tag k="ssr:date" v="2016-05-10" />
		<tag k="ssr:gruppe" v="høyder" />
		<tag k="ssr:hovedgruppe" v="terreng" />
		<tag k="ssr:stedsnr" v="327441" />
		<tag k="ssr:type" v="høyde" />
	</node>
	<node id="-35324" lat="59.9561833311" lon="11.0592750049">
		<tag k="leisure" v="park" />
		<tag k="name" v="St. Sunnivas plass" />
		<tag k="ssr:date" v="2016-05-10" />
		<tag k="ssr:gruppe" v="fritidsanlegg" />
		<tag k="ssr:hovedgruppe" v="bebyggelse" />
		<tag k="ssr:stedsnr" v="327356" />
		<tag k="ssr:type" v="park" />
	</node>
	<node id="-35323" lat="59.9583555523" lon="11.0400388849">
		<tag k="amenity" v="school" />
		<tag k="name" v="Volla skole" />
		<tag k="ssr:date" v="2016-05-10" />
		<tag k="ssr:gruppe" v="institusjoner" />
		<tag k="ssr:hovedgruppe" v="bebyggelse" />
		<tag k="ssr:stedsnr" v="327344" />
		<tag k="ssr:type" v="skole" />
	</node>
	<node id="-35322" lat="59.9894722227" lon="11.1039138805">
		<tag k="name" v="Øvre Asak" />
		<tag k="place" v="farm" />
		<tag k="ssr:date" v="2016-05-10" />
		<tag k="ssr:gruppe" v="gardsbebyggelse" />
		<tag k="ssr:hovedgruppe" v="bebyggelse" />
		<tag k="ssr:stedsnr" v="327323" />
		<tag k="ssr:type" v="bruk" />
	</node>
	<node id="-35321" lat="59.9991222213" lon="11.0167055527">
		<tag k="name" v="Smedbakken" />
		<tag k="place" v="farm" />
		<tag k="ssr:date" v="2016-05-10" />
		<tag k="ssr:gruppe" v="gardsbebyggelse" />
		<tag k="ssr:hovedgruppe" v="bebyggelse" />
		<tag k="ssr:stedsnr" v="327303" />
		<tag k="ssr:type" v="bruk" />
	</node>
	<node id="-35320" lat="59.9889222218" lon="11.0235361138">
		<tag k="fixme" v="consider place=hamlet" />
		<tag k="name" v="Søndre Brånås" />
		<tag k="place" v="farm" />
		<tag k="ssr:date" v="2018-11-15" />
		<tag k="ssr:gruppe" v="gardsbebyggelse" />
		<tag k="ssr:hovedgruppe" v="bebyggelse" />
		<tag k="ssr:stedsnr" v="327299" />
		<tag k="ssr:type" v="gard" />
	</node>
	<node id="-35319" lat="59.9997166661" lon="11.0480055496">
		<tag k="name" v="Vestre Farseggen" />
		<tag k="place" v="farm" />
		<tag k="ssr:date" v="2016-05-10" />
		<tag k="ssr:gruppe" v="gardsbebyggelse" />
		<tag k="ssr:hovedgruppe" v="bebyggelse" />
		<tag k="ssr:stedsnr" v="327296" />
		<tag k="ssr:type" v="bruk" />
	</node>
	<node id="-35318" lat="59.9846972193" lon="11.0361611197">
		<tag k="name" v="Vestre Holt" />
		<tag k="place" v="farm" />
		<tag k="ssr:date" v="2016-05-10" />
		<tag k="ssr:gruppe" v="gardsbebyggelse" />
		<tag k="ssr:hovedgruppe" v="bebyggelse" />
		<tag k="ssr:stedsnr" v="327294" />
		<tag k="ssr:type" v="bruk" />
	</node>
	<node id="-35317" lat="59.9861888884" lon="11.13101667">
		<tag k="name" v="Nybråten" />
		<tag k="place" v="hamlet" />
		<tag k="ssr:date" v="2016-05-10" />
		<tag k="ssr:gruppe" v="bebyggelsesområder" />
		<tag k="ssr:hovedgruppe" v="bebyggelse" />
		<tag k="ssr:stedsnr" v="327270" />
		<tag k="ssr:type" v="grend" />
	</node>
	<node id="-35316" lat="59.9666611137" lon="11.0194916625">
		<tag k="name" v="Kulpvika" />
		<tag k="natural" v="bay" />
		<tag k="ssr:date" v="2016-05-10" />
		<tag k="ssr:gruppe" v="ferskvannskontur" />
		<tag k="ssr:hovedgruppe" v="ferskvann" />
		<tag k="ssr:stedsnr" v="327245" />
		<tag k="ssr:type" v="vik" />
	</node>
	<node id="-35315" lat="59.9528694408" lon="11.0952972213">
		<tag k="name" v="Nordlihagen" />
		<tag k="place" v="locality" />
		<tag k="ssr:date" v="2016-05-10" />
		<tag k="ssr:gruppe" v="dyrkamark" />
		<tag k="ssr:hovedgruppe" v="markslag" />
		<tag k="ssr:stedsnr" v="327240" />
		<tag k="ssr:type" v="utmark" />
	</node>
	<node id="-35314" lat="59.9785277737" lon="11.0878944406">
		<tag k="name" v="Trollmyra" />
		<tag k="natural" v="wetland" />
		<tag k="ssr:date" v="2016-05-10" />
		<tag k="ssr:gruppe" v="våtmark" />
		<tag k="ssr:hovedgruppe" v="markslag" />
		<tag k="ssr:stedsnr" v="327233" />
		<tag k="ssr:type" v="myr" />
	</node>
	<node id="-35313" lat="59.9605944441" lon="11.0688944405">
		<tag k="alt_name" v="Lillestrøm stadion" />
		<tag k="leisure" v="pitch" />
		<tag k="name" v="Lillestrøm idrettspark" />
		<tag k="ssr:date" v="2018-10-22" />
		<tag k="ssr:gruppe" v="fritidsanlegg" />
		<tag k="ssr:hovedgruppe" v="bebyggelse" />
		<tag k="ssr:stedsnr" v="327018" />
		<tag k="ssr:type" v="idrettsanlegg" />
	</node>
	<node id="-35312" lat="60.0002222229" lon="11.0976638836">
		<tag k="name" v="Haugli" />
		<tag k="place" v="farm" />
		<tag k="ssr:date" v="2016-05-10" />
		<tag k="ssr:gruppe" v="gardsbebyggelse" />
		<tag k="ssr:hovedgruppe" v="bebyggelse" />
		<tag k="ssr:stedsnr" v="309960" />
		<tag k="ssr:type" v="bruk" />
	</node>
	<node id="-35311" lat="60.0268500032" lon="10.9890166628">
		<tag k="name" v="Ringdalsbekken" />
		<tag k="ssr:date" v="2016-05-10" />
		<tag k="ssr:gruppe" v="rennendeVann" />
		<tag k="ssr:hovedgruppe" v="ferskvann" />
		<tag k="ssr:stedsnr" v="309447" />
		<tag k="ssr:type" v="bekk" />
		<tag k="waterway" v="stream" />
	</node>
	<node id="-35310" lat="59.9693500042" lon="11.0756222246">
		<tag k="alt_name" v="Skogvollenga" />
		<tag k="name" v="Skåvålenga" />
		<tag k="place" v="farm" />
		<tag k="ssr:date" v="2016-05-10" />
		<tag k="ssr:gruppe" v="gardsbebyggelse" />
		<tag k="ssr:hovedgruppe" v="bebyggelse" />
		<tag k="ssr:stedsnr" v="308527" />
		<tag k="ssr:type" v="bruk" />
	</node>
	<node id="-35309" lat="59.9888611153" lon="11.1670805495">
		<tag k="alt_name" v="Bjønnholen" />
		<tag k="fixme" v="consider natural=peak for the most distinct mountains in the district" />
		<tag k="name" v="Bjørnholen" />
		<tag k="natural" v="hill" />
		<tag k="place" v="locality" />
		<tag k="ssr:date" v="2016-05-10" />
		<tag k="ssr:gruppe" v="høyder" />
		<tag k="ssr:hovedgruppe" v="terreng" />
		<tag k="ssr:stedsnr" v="308444" />
		<tag k="ssr:type" v="ås" />
	</node>
	<node id="-35308" lat="59.9858583353" lon="11.100463894">
		<tag k="alt_name" v="Asak, m;Mellem Asak" />
		<tag k="name" v="Mellom-Asak" />
		<tag k="place" v="farm" />
		<tag k="ssr:date" v="2016-05-10" />
		<tag k="ssr:gruppe" v="gardsbebyggelse" />
		<tag k="ssr:hovedgruppe" v="bebyggelse" />
		<tag k="ssr:stedsnr" v="308430" />
		<tag k="ssr:type" v="bruk" />
	</node>
	<node id="-35307" lat="59.9818749995" lon="11.1496777814">
		<tag k="name" v="Kopperud" />
		<tag k="place" v="farm" />
		<tag k="ssr:date" v="2016-05-10" />
		<tag k="ssr:gruppe" v="gardsbebyggelse" />
		<tag k="ssr:hovedgruppe" v="bebyggelse" />
		<tag k="ssr:stedsnr" v="308428" />
		<tag k="ssr:type" v="bruk" />
	</node>
	<node id="-35306" lat="59.9843722195" lon="11.1723249965">
		<tag k="name" v="Kohinor" />
		<tag k="place" v="isolated_dwelling" />
		<tag k="ssr:date" v="2016-05-10" />
		<tag k="ssr:gruppe" v="bolighus" />
		<tag k="ssr:hovedgruppe" v="bebyggelse" />
		<tag k="ssr:stedsnr" v="308416" />
		<tag k="ssr:type" v="fritidsbolig" />
	</node>
	<node id="-35305" lat="59.9812388873" lon="11.1015972164">
		<tag k="alt_name" v="Asak, s;Asak" />
		<tag k="name" v="Vestre Asak" />
		<tag k="place" v="farm" />
		<tag k="ssr:date" v="2016-05-10" />
		<tag k="ssr:gruppe" v="gardsbebyggelse" />
		<tag k="ssr:hovedgruppe" v="bebyggelse" />
		<tag k="ssr:stedsnr" v="308410" />
		<tag k="ssr:type" v="bruk" />
	</node>
	<node id="-35304" lat="60.0211416681" lon="11.0594555635">
		<tag k="name" v="Skillebekk" />
		<tag k="place" v="isolated_dwelling" />
		<tag k="ssr:date" v="2016-05-10" />
		<tag k="ssr:gruppe" v="bolighus" />
		<tag k="ssr:hovedgruppe" v="bebyggelse" />
		<tag k="ssr:stedsnr" v="308358" />
		<tag k="ssr:type" v="eneboligMindreBoligbygg" />
	</node>
	<node id="-35303" lat="59.9445333322" lon="11.0801416749">
		<tag k="fixme" v="consider boundary=protected_area and relevant protect_class if not nature reserve" />
		<tag k="leisure" v="nature_reserve" />
		<tag k="name" v="Sørumsneset naturreservat" />
		<tag k="ssr:date" v="2016-05-10" />
		<tag k="ssr:gruppe" v="verne-OgBruksområder" />
		<tag k="ssr:hovedgruppe" v="offentligAdministrasjon" />
		<tag k="ssr:stedsnr" v="302853" />
		<tag k="ssr:type" v="verneområde" />
	</node>
	<node id="-35302" lat="59.9619444456" lon="10.9746361078">
		<tag k="bridge" v="yes" />
		<tag k="layer" v="1" />
		<tag k="name" v="Torget" />
		<tag k="ssr:date" v="2016-05-10" />
		<tag k="ssr:gruppe" v="samferdselsanlegg" />
		<tag k="ssr:hovedgruppe" v="infrastruktur" />
		<tag k="ssr:stedsnr" v="288013" />
		<tag k="ssr:type" v="bru" />
	</node>
	<node id="-35301" lat="59.980266668" lon="11.0113194391">
		<tag k="bridge" v="yes" />
		<tag k="layer" v="1" />
		<tag k="name" v="Tandbergbygget" />
		<tag k="ssr:date" v="2016-05-10" />
		<tag k="ssr:gruppe" v="samferdselsanlegg" />
		<tag k="ssr:hovedgruppe" v="infrastruktur" />
		<tag k="ssr:stedsnr" v="288008" />
		<tag k="ssr:type" v="bru" />
	</node>
	<node id="-35300" lat="59.9930638876" lon="11.0936611127">
		<tag k="name" v="Nes" />
		<tag k="place" v="farm" />
		<tag k="ssr:date" v="2016-05-10" />
		<tag k="ssr:gruppe" v="gardsbebyggelse" />
		<tag k="ssr:hovedgruppe" v="bebyggelse" />
		<tag k="ssr:stedsnr" v="285530" />
		<tag k="ssr:type" v="bruk" />
	</node>
	<node id="-35299" lat="60.0128166625" lon="10.9774999956">
		<tag k="name" v="Solberg" />
		<tag k="place" v="farm" />
		<tag k="ssr:date" v="2016-05-10" />
		<tag k="ssr:gruppe" v="gardsbebyggelse" />
		<tag k="ssr:hovedgruppe" v="bebyggelse" />
		<tag k="ssr:stedsnr" v="269383" />
		<tag k="ssr:type" v="bruk" />
	</node>
</osm>
