<?xml version="1.0" encoding="UTF-8"?>
<osm generator="osmapis" version="0.6">
	<node id="-35711" lat="60.0211138912" lon="11.0625611087">
		<tag k="name" v="Sorknesvegen" />
		<tag k="ssr:date" v="2017-09-12" />
		<tag k="ssr:gruppe" v="veg" />
		<tag k="ssr:hovedgruppe" v="infrastruktur" />
		<tag k="ssr:stedsnr" v="934219" />
		<tag k="ssr:type" v="vegstrekning" />
	</node>
	<node id="-35390" lat="59.9774059477" lon="11.0258807576">
		<tag k="name" v="Eikelundveien" />
		<tag k="ssr:date" v="2019-05-30" />
		<tag k="ssr:gruppe" v="veg" />
		<tag k="ssr:hovedgruppe" v="infrastruktur" />
		<tag k="ssr:stedsnr" v="993803" />
		<tag k="ssr:type" v="adressenavn" />
	</node>
	<node id="-35389" lat="59.9780317846" lon="11.0266196647">
		<tag k="name" v="Nitteberglia" />
		<tag k="ssr:date" v="2019-05-30" />
		<tag k="ssr:gruppe" v="veg" />
		<tag k="ssr:hovedgruppe" v="infrastruktur" />
		<tag k="ssr:stedsnr" v="993802" />
		<tag k="ssr:type" v="adressenavn" />
	</node>
	<node id="-35391" lat="59.9495736923" lon="11.0076981274">
		<tag k="name" v="Sidesporet" />
		<tag k="ssr:date" v="2019-05-30" />
		<tag k="ssr:gruppe" v="veg" />
		<tag k="ssr:hovedgruppe" v="infrastruktur" />
		<tag k="ssr:stedsnr" v="993832" />
		<tag k="ssr:type" v="adressenavn" />
	</node>
	<node id="-35702" lat="59.9544750001" lon="11.0395194507">
		<tag k="name" v="Skedsmo kommune" />
		<tag k="ssr:date" v="2016-05-11" />
		<tag k="ssr:gruppe" v="administrativeIndelinger" />
		<tag k="ssr:hovedgruppe" v="offentligAdministrasjon" />
		<tag k="ssr:stedsnr" v="874973" />
		<tag k="ssr:type" v="kommune" />
	</node>
	<node id="-35732" lat="60.5908609473" lon="9.63819281559">
		<tag k="fixme" v="multiple name tags, choose one and add the other to alt_name" />
		<tag k="name" v="Austlandet;Ã˜stlandet" />
		<tag k="ssr:date" v="2018-01-09" />
		<tag k="ssr:gruppe" v="administrativeIndelinger" />
		<tag k="ssr:hovedgruppe" v="offentligAdministrasjon" />
		<tag k="ssr:stedsnr" v="974775" />
		<tag k="ssr:type" v="annenAdministrativInndeling" />
	</node>
	<node id="-35350" lat="60.0095771444" lon="10.9811174209">
		<tag k="name" v="Florstuveien" />
		<tag k="ssr:date" v="2019-11-27" />
		<tag k="ssr:gruppe" v="veg" />
		<tag k="ssr:hovedgruppe" v="infrastruktur" />
		<tag k="ssr:stedsnr" v="1073572" />
		<tag k="ssr:type" v="adressenavn" />
	</node>
</osm>
