<?xml version="1.0" encoding="UTF-8"?>
<osm version="0.6" generator="osmapis">
	<node id="2110650882" lat="66.2149506" lon="13.3764872" version="3" timestamp="2022-07-17T05:03:31Z" changeset="123708051" uid="3497659" user="NKA">
		<tag k="name" v="Bardal" />
		<tag k="old_name" v="Bardalssjøen" />
		<tag k="place" v="village" />
		<tag k="ssr:stedsnr" v="379080" />
	</node>
	<node id="2110715819" lat="66.1833682" lon="13.2314267" version="2" timestamp="2022-07-17T05:03:31Z" changeset="123708051" uid="3497659" user="NKA">
		<tag k="alt_name" v="Austvikja" />
		<tag k="name" v="Austvika" />
		<tag k="place" v="hamlet" />
		<tag k="ssr:stedsnr" v="15477" />
	</node>
	<node id="6205774426" lat="66.0639866" lon="12.9433171" version="5" timestamp="2022-07-17T05:03:31Z" changeset="123708051" uid="3497659" user="NKA">
		<tag k="alt_name" v="Leirfjord" />
		<tag k="name" v="Leland" />
		<tag k="place" v="village" />
		<tag k="population" v="718" />
		<tag k="population:date" v="2021-01-01" />
		<tag k="ref:ssb_tettsted" v="7891" />
		<tag k="source:population" v="SSB - befolkning i tettstedet" />
		<tag k="ssr:stedsnr" v="76069" />
	</node>
	<node id="6205774477" lat="66.0153306" lon="12.9050838" version="2" timestamp="2022-07-17T05:03:31Z" changeset="123708051" uid="3497659" user="NKA">
		<tag k="name" v="Sundøyra" />
		<tag k="place" v="hamlet" />
		<tag k="ssr:stedsnr" v="197139" />
	</node>
	<node id="9892574312" lat="66.0177222" lon="12.9274834" version="1" timestamp="2022-07-17T05:03:31Z" changeset="123708051" uid="3497659" user="NKA">
		<tag k="name" v="Solberg" />
		<tag k="place" v="farm" />
		<tag k="ssr:stedsnr" v="682138" />
	</node>
	<node id="9892574313" lat="66.0702339" lon="12.8521699" version="1" timestamp="2022-07-17T05:03:31Z" changeset="123708051" uid="3497659" user="NKA">
		<tag k="name" v="Bøen" />
		<tag k="place" v="hamlet" />
		<tag k="ssr:stedsnr" v="683181" />
	</node>
	<node id="9892574314" lat="66.0665334" lon="12.8075834" version="1" timestamp="2022-07-17T05:03:31Z" changeset="123708051" uid="3497659" user="NKA">
		<tag k="name" v="Bakken" />
		<tag k="place" v="farm" />
		<tag k="ssr:stedsnr" v="319190" />
	</node>
	<node id="9892574315" lat="66.0414596" lon="12.9622804" version="1" timestamp="2022-07-17T05:03:31Z" changeset="123708051" uid="3497659" user="NKA">
		<tag k="name" v="Toppen" />
		<tag k="place" v="farm" />
		<tag k="ssr:stedsnr" v="775509" />
	</node>
	<node id="9892574316" lat="66.0459056" lon="12.9881254" version="1" timestamp="2022-07-17T05:03:31Z" changeset="123708051" uid="3497659" user="NKA">
		<tag k="name" v="Moen" />
		<tag k="place" v="farm" />
		<tag k="ssr:stedsnr" v="108701" />
	</node>
	<node id="9892659717" lat="66.0783625" lon="12.9252116" version="1" timestamp="2022-07-17T05:03:31Z" changeset="123708051" uid="3497659" user="NKA">
		<tag k="alt_name" v="Simsø" />
		<tag k="name" v="Nordgården" />
		<tag k="place" v="farm" />
		<tag k="ssr:stedsnr" v="849274" />
	</node>
	<node id="9892659718" lat="66.0782526" lon="12.9196097" version="1" timestamp="2022-07-17T05:03:31Z" changeset="123708051" uid="3497659" user="NKA">
		<tag k="name" v="Simsø" />
		<tag k="place" v="hamlet" />
		<tag k="ssr:stedsnr" v="545135" />
	</node>
	<node id="9892659719" lat="66.0105227" lon="12.9554673" version="1" timestamp="2022-07-17T05:03:31Z" changeset="123708051" uid="3497659" user="NKA">
		<tag k="name" v="Seljeremma" />
		<tag k="place" v="isolated_dwelling" />
		<tag k="ssr:stedsnr" v="530067" />
	</node>
	<node id="9892659720" lat="66.1472585" lon="12.9890691" version="1" timestamp="2022-07-17T05:03:31Z" changeset="123708051" uid="3497659" user="NKA">
		<tag k="name" v="Bjørkheim" />
		<tag k="place" v="isolated_dwelling" />
		<tag k="ssr:stedsnr" v="107934" />
	</node>
	<node id="9892659721" lat="66.07255" lon="12.874014" version="1" timestamp="2022-07-17T05:03:31Z" changeset="123708051" uid="3497659" user="NKA">
		<tag k="name" v="Løkåsen" />
		<tag k="place" v="hamlet" />
		<tag k="ssr:stedsnr" v="136227" />
	</node>
	<node id="9892659722" lat="66.0084824" lon="12.9537841" version="1" timestamp="2022-07-17T05:03:31Z" changeset="123708051" uid="3497659" user="NKA">
		<tag k="name" v="Langneset" />
		<tag k="place" v="farm" />
		<tag k="ssr:stedsnr" v="227077" />
	</node>
	<node id="9892659723" lat="66.0685333" lon="12.9559999" version="1" timestamp="2022-07-17T05:03:31Z" changeset="123708051" uid="3497659" user="NKA">
		<tag k="name" v="Klubbvang" />
		<tag k="place" v="farm" />
		<tag k="ssr:stedsnr" v="16180" />
	</node>
	<node id="9892659724" lat="66.0693819" lon="12.9661698" version="1" timestamp="2022-07-17T05:03:31Z" changeset="123708051" uid="3497659" user="NKA">
		<tag k="name" v="Breilandsenget" />
		<tag k="place" v="farm" />
		<tag k="ssr:stedsnr" v="137169" />
	</node>
	<node id="9892659725" lat="66.1209195" lon="12.8341306" version="1" timestamp="2022-07-17T05:03:31Z" changeset="123708051" uid="3497659" user="NKA">
		<tag k="name" v="Fagervika" />
		<tag k="place" v="hamlet" />
		<tag k="ssr:stedsnr" v="319151" />
	</node>
	<node id="9892659726" lat="66.2119284" lon="13.3674704" version="1" timestamp="2022-07-17T05:03:31Z" changeset="123708051" uid="3497659" user="NKA">
		<tag k="name" v="Gjærbakken" />
		<tag k="place" v="farm" />
		<tag k="ssr:stedsnr" v="775842" />
	</node>
	<node id="9892659727" lat="66.07342" lon="12.8790068" version="1" timestamp="2022-07-17T05:03:31Z" changeset="123708051" uid="3497659" user="NKA">
		<tag k="name" v="Haugen" />
		<tag k="place" v="farm" />
		<tag k="ssr:stedsnr" v="411771" />
	</node>
	<node id="9892659728" lat="66.2183861" lon="13.3727416" version="1" timestamp="2022-07-17T05:03:31Z" changeset="123708051" uid="3497659" user="NKA">
		<tag k="alt_name" v="Yttergården" />
		<tag k="name" v="Bardal Ytre" />
		<tag k="place" v="farm" />
		<tag k="ssr:stedsnr" v="440118" />
	</node>
	<node id="9892659729" lat="66.0598805" lon="12.7453055" version="1" timestamp="2022-07-17T05:03:31Z" changeset="123708051" uid="3497659" user="NKA">
		<tag k="name" v="Lilleås" />
		<tag k="place" v="farm" />
		<tag k="ssr:stedsnr" v="956097" />
	</node>
	<node id="9892659730" lat="66.0550464" lon="12.8252854" version="1" timestamp="2022-07-17T05:03:31Z" changeset="123708051" uid="3497659" user="NKA">
		<tag k="name" v="Ytre Hjartland" />
		<tag k="place" v="farm" />
		<tag k="ssr:stedsnr" v="936474" />
	</node>
	<node id="9892659731" lat="66.2006588" lon="13.3521316" version="1" timestamp="2022-07-17T05:03:31Z" changeset="123708051" uid="3497659" user="NKA">
		<tag k="alt_name" v="Lindset" />
		<tag k="name" v="Lindseth" />
		<tag k="place" v="farm" />
		<tag k="ssr:stedsnr" v="865093" />
	</node>
	<node id="9892659732" lat="66.1133256" lon="12.8167852" version="1" timestamp="2022-07-17T05:03:31Z" changeset="123708051" uid="3497659" user="NKA">
		<tag k="name" v="Juvik" />
		<tag k="place" v="farm" />
		<tag k="ssr:stedsnr" v="532413" />
	</node>
	<node id="9892659733" lat="66.2061492" lon="13.3579877" version="1" timestamp="2022-07-17T05:03:31Z" changeset="123708051" uid="3497659" user="NKA">
		<tag k="name" v="Enga" />
		<tag k="place" v="farm" />
		<tag k="ssr:stedsnr" v="865095" />
	</node>
	<node id="9892659734" lat="66.0539903" lon="12.8441372" version="1" timestamp="2022-07-17T05:03:31Z" changeset="123708051" uid="3497659" user="NKA">
		<tag k="name" v="Vollan" />
		<tag k="place" v="farm" />
		<tag k="ssr:stedsnr" v="290710" />
	</node>
	<node id="9892659735" lat="66.1622833" lon="13.1259972" version="1" timestamp="2022-07-17T05:03:31Z" changeset="123708051" uid="3497659" user="NKA">
		<tag k="name" v="Fagereng" />
		<tag k="place" v="farm" />
		<tag k="ssr:stedsnr" v="714924" />
	</node>
	<node id="9892659736" lat="66.0602694" lon="13.0016833" version="1" timestamp="2022-07-17T05:03:31Z" changeset="123708051" uid="3497659" user="NKA">
		<tag k="name" v="Forslandnøst" />
		<tag k="place" v="farm" />
		<tag k="ssr:stedsnr" v="814463" />
	</node>
	<node id="9892659737" lat="66.1552684" lon="13.0969037" version="1" timestamp="2022-07-17T05:03:31Z" changeset="123708051" uid="3497659" user="NKA">
		<tag k="name" v="Solbakken" />
		<tag k="place" v="farm" />
		<tag k="ssr:stedsnr" v="714911" />
	</node>
	<node id="9892659738" lat="66.1552889" lon="13.0713138" version="1" timestamp="2022-07-17T05:03:31Z" changeset="123708051" uid="3497659" user="NKA">
		<tag k="alt_name" v="Storvikja" />
		<tag k="name" v="Storvik" />
		<tag k="place" v="farm" />
		<tag k="ssr:stedsnr" v="653905" />
	</node>
	<node id="9892659739" lat="66.2160456" lon="13.375797" version="1" timestamp="2022-07-17T05:03:31Z" changeset="123708051" uid="3497659" user="NKA">
		<tag k="name" v="Nyheim" />
		<tag k="place" v="farm" />
		<tag k="ssr:stedsnr" v="653865" />
	</node>
	<node id="9892659740" lat="66.0542128" lon="12.8418768" version="1" timestamp="2022-07-17T05:03:31Z" changeset="123708051" uid="3497659" user="NKA">
		<tag k="name" v="Asplund" />
		<tag k="place" v="farm" />
		<tag k="ssr:stedsnr" v="350741" />
	</node>
	<node id="9892659741" lat="66.1558982" lon="13.1019316" version="1" timestamp="2022-07-17T05:03:31Z" changeset="123708051" uid="3497659" user="NKA">
		<tag k="name" v="Ytteråsen" />
		<tag k="place" v="hamlet" />
		<tag k="ssr:stedsnr" v="411909" />
	</node>
	<node id="9892659742" lat="66.0447937" lon="12.9946161" version="1" timestamp="2022-07-17T05:03:31Z" changeset="123708051" uid="3497659" user="NKA">
		<tag k="name" v="Remman" />
		<tag k="place" v="farm" />
		<tag k="ssr:stedsnr" v="775690" />
	</node>
	<node id="9892659743" lat="66.0677639" lon="12.675639" version="1" timestamp="2022-07-17T05:03:31Z" changeset="123708051" uid="3497659" user="NKA">
		<tag k="alt_name" v="Angersnesstranda" />
		<tag k="name" v="Angarsnesstranda" />
		<tag k="place" v="farm" />
		<tag k="ssr:stedsnr" v="683978" />
	</node>
	<node id="9892659744" lat="66.1919417" lon="13.3708084" version="1" timestamp="2022-07-17T05:03:31Z" changeset="123708051" uid="3497659" user="NKA">
		<tag k="name" v="Bakken" />
		<tag k="place" v="locality" />
		<tag k="ssr:stedsnr" v="228902" />
	</node>
	<node id="9892659745" lat="66.018753" lon="12.8878971" version="1" timestamp="2022-07-17T05:03:31Z" changeset="123708051" uid="3497659" user="NKA">
		<tag k="name" v="Platen" />
		<tag k="place" v="farm" />
		<tag k="ssr:stedsnr" v="593438" />
	</node>
	<node id="9892659746" lat="66.1543322" lon="13.0591194" version="1" timestamp="2022-07-17T05:03:31Z" changeset="123708051" uid="3497659" user="NKA">
		<tag k="name" v="Nymoen" />
		<tag k="place" v="farm" />
		<tag k="ssr:stedsnr" v="107925" />
	</node>
	<node id="9892659747" lat="66.074532" lon="12.8836854" version="1" timestamp="2022-07-17T05:03:31Z" changeset="123708051" uid="3497659" user="NKA">
		<tag k="name" v="Øvergård" />
		<tag k="place" v="farm" />
		<tag k="ssr:stedsnr" v="229778" />
	</node>
	<node id="9892659748" lat="66.0685639" lon="12.8119473" version="1" timestamp="2022-07-17T05:03:31Z" changeset="123708051" uid="3497659" user="NKA">
		<tag k="name" v="Bakkahaugen" />
		<tag k="place" v="farm" />
		<tag k="ssr:stedsnr" v="229766" />
	</node>
	<node id="9892659749" lat="66.1640972" lon="13.1213807" version="1" timestamp="2022-07-17T05:03:31Z" changeset="123708051" uid="3497659" user="NKA">
		<tag k="name" v="Haglund" />
		<tag k="place" v="farm" />
		<tag k="ssr:stedsnr" v="107913" />
	</node>
	<node id="9892659750" lat="66.0326361" lon="12.9488972" version="1" timestamp="2022-07-17T05:03:31Z" changeset="123708051" uid="3497659" user="NKA">
		<tag k="name" v="Løkkvollen" />
		<tag k="place" v="farm" />
		<tag k="ssr:stedsnr" v="229476" />
	</node>
	<node id="9892659751" lat="66.0644705" lon="12.8191818" version="1" timestamp="2022-07-17T05:03:31Z" changeset="123708051" uid="3497659" user="NKA">
		<tag k="name" v="Volden" />
		<tag k="place" v="farm" />
		<tag k="ssr:stedsnr" v="168802" />
	</node>
	<node id="9892659752" lat="66.2063139" lon="13.3679348" version="1" timestamp="2022-07-17T05:03:31Z" changeset="123708051" uid="3497659" user="NKA">
		<tag k="name" v="Skogmo" />
		<tag k="place" v="farm" />
		<tag k="ssr:stedsnr" v="107876" />
	</node>
	<node id="9892659753" lat="66.052856" lon="12.7756643" version="1" timestamp="2022-07-17T05:03:31Z" changeset="123708051" uid="3497659" user="NKA">
		<tag k="name" v="Valla" />
		<tag k="place" v="hamlet" />
		<tag k="ssr:stedsnr" v="683032" />
	</node>
	<node id="9892659754" lat="66.0671752" lon="12.9010745" version="1" timestamp="2022-07-17T05:03:31Z" changeset="123708051" uid="3497659" user="NKA">
		<tag k="name" v="Ørnhaugen" />
		<tag k="place" v="farm" />
		<tag k="ssr:stedsnr" v="168852" />
	</node>
	<node id="9892659755" lat="66.0377683" lon="12.9568329" version="1" timestamp="2022-07-17T05:03:31Z" changeset="123708051" uid="3497659" user="NKA">
		<tag k="alt_name" v="Veding" />
		<tag k="name" v="Kviting" />
		<tag k="place" v="hamlet" />
		<tag k="ssr:stedsnr" v="440028" />
	</node>
	<node id="9892659756" lat="66.0818052" lon="12.7056033" version="1" timestamp="2022-07-17T05:03:31Z" changeset="123708051" uid="3497659" user="NKA">
		<tag k="name" v="Forneset" />
		<tag k="place" v="hamlet" />
		<tag k="ssr:stedsnr" v="743957" />
	</node>
	<node id="9892659757" lat="66.0600038" lon="12.7624213" version="1" timestamp="2022-07-17T05:03:31Z" changeset="123708051" uid="3497659" user="NKA">
		<tag k="name" v="Myrvang" />
		<tag k="place" v="farm" />
		<tag k="ssr:stedsnr" v="744032" />
	</node>
	<node id="9892659758" lat="66.0683583" lon="12.7939668" version="1" timestamp="2022-07-17T05:03:31Z" changeset="123708051" uid="3497659" user="NKA">
		<tag k="name" v="Nyheim" />
		<tag k="place" v="farm" />
		<tag k="ssr:stedsnr" v="197215" />
	</node>
	<node id="9892659759" lat="66.0533334" lon="12.7696833" version="1" timestamp="2022-07-17T05:03:31Z" changeset="123708051" uid="3497659" user="NKA">
		<tag k="alt_name" v="Sirijorda" />
		<tag k="name" v="Sirijord" />
		<tag k="place" v="farm" />
		<tag k="ssr:stedsnr" v="865075" />
	</node>
	<node id="9892659760" lat="66.0473241" lon="12.9949179" version="1" timestamp="2022-07-17T05:03:31Z" changeset="123708051" uid="3497659" user="NKA">
		<tag k="name" v="Skjålarem" />
		<tag k="place" v="farm" />
		<tag k="ssr:stedsnr" v="168686" />
	</node>
	<node id="9892659761" lat="66.0902742" lon="12.7305133" version="1" timestamp="2022-07-17T05:03:31Z" changeset="123708051" uid="3497659" user="NKA">
		<tag k="name" v="Indre-Sjøvei" />
		<tag k="place" v="farm" />
		<tag k="ssr:stedsnr" v="653309" />
	</node>
	<node id="9892659762" lat="66.0536785" lon="13.0038046" version="1" timestamp="2022-07-17T05:03:31Z" changeset="123708051" uid="3497659" user="NKA">
		<tag k="name" v="Forsland" />
		<tag k="place" v="hamlet" />
		<tag k="ssr:stedsnr" v="136051" />
	</node>
	<node id="9892659763" lat="66.0684954" lon="12.8368313" version="1" timestamp="2022-07-17T05:03:31Z" changeset="123708051" uid="3497659" user="NKA">
		<tag k="alt_name" v="Meisfjorden" />
		<tag k="name" v="Meisfjord" />
		<tag k="place" v="farm" />
		<tag k="ssr:stedsnr" v="15200" />
	</node>
	<node id="9892659764" lat="65.9842334" lon="12.8009278" version="1" timestamp="2022-07-17T05:03:31Z" changeset="123708051" uid="3497659" user="NKA">
		<tag k="name" v="Leirvika" />
		<tag k="place" v="farm" />
		<tag k="ssr:stedsnr" v="76089" />
	</node>
	<node id="9892659765" lat="66.0431414" lon="12.6979414" version="1" timestamp="2022-07-17T05:03:31Z" changeset="123708051" uid="3497659" user="NKA">
		<tag k="name" v="Valdal" />
		<tag k="place" v="farm" />
		<tag k="ssr:stedsnr" v="76873" />
	</node>
	<node id="9892659766" lat="66.0675472" lon="12.9629861" version="1" timestamp="2022-07-17T05:03:31Z" changeset="123708051" uid="3497659" user="NKA">
		<tag k="alt_name" v="Sletten" />
		<tag k="name" v="Slettan" />
		<tag k="place" v="farm" />
		<tag k="ssr:stedsnr" v="654838" />
	</node>
	<node id="9892659767" lat="66.0689333" lon="12.8589584" version="1" timestamp="2022-07-17T05:03:31Z" changeset="123708051" uid="3497659" user="NKA">
		<tag k="name" v="Minde" />
		<tag k="place" v="farm" />
		<tag k="ssr:stedsnr" v="715812" />
	</node>
	<node id="9892659768" lat="66.0870278" lon="12.7341889" version="1" timestamp="2022-07-17T05:03:31Z" changeset="123708051" uid="3497659" user="NKA">
		<tag k="name" v="Innerhaugen" />
		<tag k="place" v="locality" />
		<tag k="ssr:stedsnr" v="471326" />
	</node>
	<node id="9892659769" lat="66.0560333" lon="12.7317138" version="1" timestamp="2022-07-17T05:03:31Z" changeset="123708051" uid="3497659" user="NKA">
		<tag k="alt_name" v="Krokvikja;Krokviken" />
		<tag k="name" v="Krokvika" />
		<tag k="place" v="farm" />
		<tag k="ssr:stedsnr" v="319051" />
	</node>
	<node id="9892659770" lat="66.0559722" lon="12.7657806" version="1" timestamp="2022-07-17T05:03:31Z" changeset="123708051" uid="3497659" user="NKA">
		<tag k="name" v="Holmvika" />
		<tag k="place" v="farm" />
		<tag k="ssr:stedsnr" v="622059" />
	</node>
	<node id="9892659771" lat="66.0636858" lon="12.7497889" version="1" timestamp="2022-07-17T05:03:31Z" changeset="123708051" uid="3497659" user="NKA">
		<tag k="name" v="Hagen" />
		<tag k="place" v="farm" />
		<tag k="ssr:stedsnr" v="107123" />
	</node>
	<node id="9892659772" lat="66.1064305" lon="12.7837556" version="1" timestamp="2022-07-17T05:03:31Z" changeset="123708051" uid="3497659" user="NKA">
		<tag k="name" v="Skovika" />
		<tag k="place" v="farm" />
		<tag k="ssr:stedsnr" v="108449" />
	</node>
	<node id="9892659773" lat="66.0212644" lon="12.9744394" version="1" timestamp="2022-07-17T05:03:31Z" changeset="123708051" uid="3497659" user="NKA">
		<tag k="name" v="Staremma" />
		<tag k="place" v="farm" />
		<tag k="ssr:stedsnr" v="653475" />
	</node>
	<node id="9892659774" lat="66.0546298" lon="12.8352239" version="1" timestamp="2022-07-17T05:03:31Z" changeset="123708051" uid="3497659" user="NKA">
		<tag k="name" v="Lillevik" />
		<tag k="place" v="farm" />
		<tag k="ssr:stedsnr" v="653769" />
	</node>
	<node id="9892659775" lat="66.0622296" lon="12.9309085" version="1" timestamp="2022-07-17T05:03:31Z" changeset="123708051" uid="3497659" user="NKA">
		<tag k="name" v="Fagerheim" />
		<tag k="place" v="neighbourhood" />
		<tag k="ssr:stedsnr" v="290854" />
	</node>
	<node id="9892659776" lat="66.0830204" lon="13.0877345" version="1" timestamp="2022-07-17T05:03:31Z" changeset="123708051" uid="3497659" user="NKA">
		<tag k="alt_name" v="Sommerseth" />
		<tag k="name" v="Sommarset" />
		<tag k="place" v="farm" />
		<tag k="ssr:stedsnr" v="926220" />
	</node>
	<node id="9892659777" lat="66.2210278" lon="13.3010056" version="1" timestamp="2022-07-17T05:03:31Z" changeset="123708051" uid="3497659" user="NKA">
		<tag k="name" v="Peperøya" />
		<tag k="place" v="farm" />
		<tag k="ssr:stedsnr" v="242121" />
	</node>
	<node id="9892659778" lat="66.1101566" lon="13.0999406" version="1" timestamp="2022-07-17T05:03:31Z" changeset="123708051" uid="3497659" user="NKA">
		<tag k="name" v="Tovåsen" />
		<tag k="place" v="hamlet" />
		<tag k="ssr:stedsnr" v="743264" />
	</node>
	<node id="9892659779" lat="66.0246494" lon="12.9523641" version="1" timestamp="2022-07-17T05:03:31Z" changeset="123708051" uid="3497659" user="NKA">
		<tag k="name" v="Staulen" />
		<tag k="place" v="farm" />
		<tag k="ssr:stedsnr" v="258022" />
	</node>
	<node id="9892659780" lat="66.0513596" lon="12.7370459" version="1" timestamp="2022-07-17T05:03:31Z" changeset="123708051" uid="3497659" user="NKA">
		<tag k="name" v="Fundtland" />
		<tag k="place" v="farm" />
		<tag k="ssr:stedsnr" v="290582" />
	</node>
	<node id="9892659781" lat="66.1572611" lon="13.0933556" version="1" timestamp="2022-07-17T05:03:31Z" changeset="123708051" uid="3497659" user="NKA">
		<tag k="name" v="Langåker" />
		<tag k="place" v="farm" />
		<tag k="ssr:stedsnr" v="136200" />
	</node>
	<node id="9892659782" lat="66.0958528" lon="13.1207888" version="1" timestamp="2022-07-17T05:03:31Z" changeset="123708051" uid="3497659" user="NKA">
		<tag k="alt_name" v="Bjørnhola" />
		<tag k="name" v="Bjønnhola" />
		<tag k="place" v="farm" />
		<tag k="ssr:stedsnr" v="318222" />
	</node>
	<node id="9892659783" lat="66.020513" lon="12.9108767" version="1" timestamp="2022-07-17T05:03:31Z" changeset="123708051" uid="3497659" user="NKA">
		<tag k="name" v="Oppsåtan" />
		<tag k="place" v="farm" />
		<tag k="ssr:stedsnr" v="290397" />
	</node>
	<node id="9892659784" lat="66.119025" lon="12.8279693" version="1" timestamp="2022-07-17T05:03:31Z" changeset="123708051" uid="3497659" user="NKA">
		<tag k="name" v="Solheim" />
		<tag k="place" v="farm" />
		<tag k="ssr:stedsnr" v="865183" />
	</node>
	<node id="9892659785" lat="66.0690356" lon="12.8689006" version="1" timestamp="2022-07-17T05:03:31Z" changeset="123708051" uid="3497659" user="NKA">
		<tag k="alt_name" v="Nybrot" />
		<tag k="name" v="Nybrott" />
		<tag k="place" v="farm" />
		<tag k="ssr:stedsnr" v="350755" />
	</node>
	<node id="9892659786" lat="66.2202445" lon="13.299125" version="1" timestamp="2022-07-17T05:03:31Z" changeset="123708051" uid="3497659" user="NKA">
		<tag k="name" v="Peperjorda" />
		<tag k="place" v="farm" />
		<tag k="ssr:stedsnr" v="328017" />
	</node>
	<node id="9892659787" lat="66.1538324" lon="13.1012161" version="1" timestamp="2022-07-17T05:03:31Z" changeset="123708051" uid="3497659" user="NKA">
		<tag k="name" v="Indre Låvong" />
		<tag k="place" v="hamlet" />
		<tag k="ssr:stedsnr" v="258184" />
	</node>
	<node id="9892659788" lat="66.0976139" lon="13.0683834" version="1" timestamp="2022-07-17T05:03:31Z" changeset="123708051" uid="3497659" user="NKA">
		<tag k="alt_name" v="Bjørkmoen" />
		<tag k="name" v="Bjørkmoan" />
		<tag k="place" v="farm" />
		<tag k="ssr:stedsnr" v="804285" />
	</node>
	<node id="9892659789" lat="66.1495802" lon="13.064131" version="1" timestamp="2022-07-17T05:03:31Z" changeset="123708051" uid="3497659" user="NKA">
		<tag k="name" v="Stegan" />
		<tag k="place" v="farm" />
		<tag k="ssr:stedsnr" v="228929" />
	</node>
	<node id="9892659790" lat="66.0691056" lon="13.0391889" version="1" timestamp="2022-07-17T05:03:31Z" changeset="123708051" uid="3497659" user="NKA">
		<tag k="name" v="Vasslia" />
		<tag k="place" v="farm" />
		<tag k="ssr:stedsnr" v="561202" />
	</node>
	<node id="9892659791" lat="66.0775504" lon="13.0250288" version="1" timestamp="2022-07-17T05:03:31Z" changeset="123708051" uid="3497659" user="NKA">
		<tag k="alt_name" v="Skjåenget" />
		<tag k="name" v="Sjåenget" />
		<tag k="place" v="farm" />
		<tag k="ssr:stedsnr" v="804243" />
	</node>
	<node id="9892659792" lat="66.0540119" lon="12.7541049" version="1" timestamp="2022-07-17T05:03:31Z" changeset="123708051" uid="3497659" user="NKA">
		<tag k="name" v="Solvang" />
		<tag k="place" v="farm" />
		<tag k="ssr:stedsnr" v="926034" />
	</node>
	<node id="9892659793" lat="66.1141127" lon="13.0782003" version="1" timestamp="2022-07-17T05:03:31Z" changeset="123708051" uid="3497659" user="NKA">
		<tag k="alt_name" v="Skar" />
		<tag k="name" v="Skardet" />
		<tag k="place" v="farm" />
		<tag k="ssr:stedsnr" v="804170" />
	</node>
	<node id="9892659794" lat="66.0244472" lon="12.9483251" version="1" timestamp="2022-07-17T05:03:31Z" changeset="123708051" uid="3497659" user="NKA">
		<tag k="name" v="Øverstua" />
		<tag k="place" v="farm" />
		<tag k="ssr:stedsnr" v="287522" />
	</node>
	<node id="9892659795" lat="66.1578331" lon="13.1138719" version="1" timestamp="2022-07-17T05:03:31Z" changeset="123708051" uid="3497659" user="NKA">
		<tag k="name" v="Nordberg" />
		<tag k="place" v="farm" />
		<tag k="ssr:stedsnr" v="593896" />
	</node>
	<node id="9892659796" lat="66.06315" lon="12.7648278" version="1" timestamp="2022-07-17T05:03:31Z" changeset="123708051" uid="3497659" user="NKA">
		<tag k="name" v="Stihaugen" />
		<tag k="place" v="farm" />
		<tag k="ssr:stedsnr" v="349187" />
	</node>
	<node id="9892659797" lat="66.0875417" lon="12.7280861" version="1" timestamp="2022-07-17T05:03:31Z" changeset="123708051" uid="3497659" user="NKA">
		<tag k="alt_name" v="Moen" />
		<tag k="name" v="Sørlia" />
		<tag k="place" v="farm" />
		<tag k="ssr:stedsnr" v="743245" />
	</node>
	<node id="9892659798" lat="66.0676964" lon="12.9698344" version="1" timestamp="2022-07-17T05:03:31Z" changeset="123708051" uid="3497659" user="NKA">
		<tag k="name" v="Engheim" />
		<tag k="place" v="farm" />
		<tag k="ssr:stedsnr" v="379198" />
	</node>
	<node id="9892659799" lat="66.0630777" lon="12.7603556" version="1" timestamp="2022-07-17T05:03:31Z" changeset="123708051" uid="3497659" user="NKA">
		<tag k="name" v="Øyjorden" />
		<tag k="place" v="hamlet" />
		<tag k="ssr:stedsnr" v="531153" />
	</node>
	<node id="9892659800" lat="66.0521597" lon="13.1106506" version="1" timestamp="2022-07-17T05:03:31Z" changeset="123708051" uid="3497659" user="NKA">
		<tag k="name" v="Forslandsdalen" />
		<tag k="place" v="locality" />
		<tag k="ssr:stedsnr" v="1072474" />
	</node>
	<node id="9892659801" lat="65.9839195" lon="12.801089" version="1" timestamp="2022-07-17T05:03:31Z" changeset="123708051" uid="3497659" user="NKA">
		<tag k="name" v="Åsen" />
		<tag k="place" v="farm" />
		<tag k="ssr:stedsnr" v="213822" />
	</node>
	<node id="9892659802" lat="66.1195051" lon="12.8376037" version="1" timestamp="2022-07-17T05:03:31Z" changeset="123708051" uid="3497659" user="NKA">
		<tag k="name" v="Haugen" />
		<tag k="place" v="farm" />
		<tag k="ssr:stedsnr" v="957950" />
	</node>
	<node id="9892659803" lat="66.073225" lon="13.0474362" version="1" timestamp="2022-07-17T05:03:31Z" changeset="123708051" uid="3497659" user="NKA">
		<tag k="name" v="Sjømoen" />
		<tag k="place" v="farm" />
		<tag k="ssr:stedsnr" v="571440" />
	</node>
	<node id="9892659804" lat="66.1048659" lon="12.7700593" version="1" timestamp="2022-07-17T05:03:31Z" changeset="123708051" uid="3497659" user="NKA">
		<tag k="name" v="Nyrud" />
		<tag k="place" v="farm" />
		<tag k="ssr:stedsnr" v="957435" />
	</node>
	<node id="9892659805" lat="66.1666472" lon="13.1365112" version="1" timestamp="2022-07-17T05:03:31Z" changeset="123708051" uid="3497659" user="NKA">
		<tag k="name" v="Nybrott" />
		<tag k="place" v="farm" />
		<tag k="ssr:stedsnr" v="622784" />
	</node>
	<node id="9892659806" lat="66.206275" lon="13.3981694" version="1" timestamp="2022-07-17T05:03:31Z" changeset="123708051" uid="3497659" user="NKA">
		<tag k="alt_name" v="Blyset, øvre;Blyseth Øvre" />
		<tag k="name" v="Øvre Blyset" />
		<tag k="place" v="farm" />
		<tag k="ssr:stedsnr" v="683064" />
	</node>
	<node id="9892659807" lat="66.0629666" lon="12.7126139" version="1" timestamp="2022-07-17T05:03:31Z" changeset="123708051" uid="3497659" user="NKA">
		<tag k="alt_name" v="Reines" />
		<tag k="name" v="Inner-Reines" />
		<tag k="place" v="farm" />
		<tag k="ssr:stedsnr" v="743242" />
	</node>
	<node id="9892659808" lat="66.206725" lon="13.3924556" version="1" timestamp="2022-07-17T05:03:31Z" changeset="123708051" uid="3497659" user="NKA">
		<tag k="name" v="Breimo Øvre" />
		<tag k="place" v="farm" />
		<tag k="ssr:stedsnr" v="168864" />
	</node>
	<node id="9892659809" lat="66.0545417" lon="12.8135832" version="1" timestamp="2022-07-17T05:03:31Z" changeset="123708051" uid="3497659" user="NKA">
		<tag k="name" v="Trøa" />
		<tag k="place" v="farm" />
		<tag k="ssr:stedsnr" v="714725" />
	</node>
	<node id="9892659810" lat="66.0624639" lon="12.6998444" version="1" timestamp="2022-07-17T05:03:31Z" changeset="123708051" uid="3497659" user="NKA">
		<tag k="name" v="Skjåremmen" />
		<tag k="place" v="farm" />
		<tag k="ssr:stedsnr" v="512600" />
	</node>
	<node id="9892659811" lat="66.2182971" lon="13.3905972" version="1" timestamp="2022-07-17T05:03:31Z" changeset="123708051" uid="3497659" user="NKA">
		<tag k="name" v="Bardal Indre" />
		<tag k="place" v="hamlet" />
		<tag k="ssr:stedsnr" v="836861" />
	</node>
	<node id="9892659812" lat="66.2115121" lon="13.3980493" version="1" timestamp="2022-07-17T05:03:31Z" changeset="123708051" uid="3497659" user="NKA">
		<tag k="alt_name" v="Nyseth" />
		<tag k="name" v="Nyset" />
		<tag k="place" v="farm" />
		<tag k="ssr:stedsnr" v="532861" />
	</node>
	<node id="9892659813" lat="66.1045085" lon="12.7770654" version="1" timestamp="2022-07-17T05:03:31Z" changeset="123708051" uid="3497659" user="NKA">
		<tag k="name" v="Litle Fagervika" />
		<tag k="place" v="hamlet" />
		<tag k="ssr:stedsnr" v="682159" />
	</node>
	<node id="9892659814" lat="66.0552477" lon="12.8996454" version="1" timestamp="2022-07-17T05:03:31Z" changeset="123708051" uid="3497659" user="NKA">
		<tag k="name" v="Engebakken" />
		<tag k="place" v="farm" />
		<tag k="ssr:stedsnr" v="319031" />
	</node>
	<node id="9892659815" lat="66.2197514" lon="13.4029204" version="1" timestamp="2022-07-17T05:03:31Z" changeset="123708051" uid="3497659" user="NKA">
		<tag k="name" v="Bojebakk" />
		<tag k="place" v="farm" />
		<tag k="ssr:stedsnr" v="926082" />
	</node>
	<node id="9892659816" lat="66.0525478" lon="12.7101511" version="1" timestamp="2022-07-17T05:03:31Z" changeset="123708051" uid="3497659" user="NKA">
		<tag k="name" v="Nygård" />
		<tag k="place" v="farm" />
		<tag k="ssr:stedsnr" v="501986" />
	</node>
	<node id="9892659817" lat="66.1956231" lon="13.3658467" version="1" timestamp="2022-07-17T05:03:31Z" changeset="123708051" uid="3497659" user="NKA">
		<tag k="name" v="Mastermoen" />
		<tag k="place" v="farm" />
		<tag k="ssr:stedsnr" v="319065" />
	</node>
	<node id="9892659818" lat="66.0518486" lon="12.7407298" version="1" timestamp="2022-07-17T05:03:31Z" changeset="123708051" uid="3497659" user="NKA">
		<tag k="alt_name" v="Aasen" />
		<tag k="name" v="Skjøråsvika" />
		<tag k="place" v="farm" />
		<tag k="ssr:stedsnr" v="501032" />
	</node>
	<node id="9892659819" lat="66.199822" lon="13.3454894" version="1" timestamp="2022-07-17T05:03:31Z" changeset="123708051" uid="3497659" user="NKA">
		<tag k="name" v="Engen" />
		<tag k="place" v="farm" />
		<tag k="ssr:stedsnr" v="896892" />
	</node>
	<node id="9892659820" lat="66.2124923" lon="13.3902815" version="1" timestamp="2022-07-17T05:03:31Z" changeset="123708051" uid="3497659" user="NKA">
		<tag k="name" v="Solstrand" />
		<tag k="place" v="farm" />
		<tag k="ssr:stedsnr" v="350839" />
	</node>
	<node id="9892659821" lat="66.2134161" lon="13.3675063" version="1" timestamp="2022-07-17T05:03:31Z" changeset="123708051" uid="3497659" user="NKA">
		<tag k="name" v="Moen" />
		<tag k="place" v="farm" />
		<tag k="ssr:stedsnr" v="76111" />
	</node>
	<node id="9892659822" lat="65.9920784" lon="12.8585152" version="1" timestamp="2022-07-17T05:03:31Z" changeset="123708051" uid="3497659" user="NKA">
		<tag k="name" v="Sundøya" />
		<tag k="place" v="hamlet" />
		<tag k="ssr:stedsnr" v="323518" />
	</node>
	<node id="9892659823" lat="65.9937944" lon="12.877311" version="1" timestamp="2022-07-17T05:03:31Z" changeset="123708051" uid="3497659" user="NKA">
		<tag k="alt_name" v="Søndre Jystad" />
		<tag k="name" v="Sørenget" />
		<tag k="place" v="farm" />
		<tag k="ssr:stedsnr" v="450456" />
	</node>
	<node id="9892659824" lat="66.1279833" lon="12.8344694" version="1" timestamp="2022-07-17T05:03:31Z" changeset="123708051" uid="3497659" user="NKA">
		<tag k="name" v="Holtan" />
		<tag k="place" v="locality" />
		<tag k="ssr:stedsnr" v="350911" />
	</node>
	<node id="9892659825" lat="66.0201148" lon="12.9488392" version="1" timestamp="2022-07-17T05:03:31Z" changeset="123708051" uid="3497659" user="NKA">
		<tag k="name" v="Jamthaugen" />
		<tag k="place" v="farm" />
		<tag k="ssr:stedsnr" v="590502" />
	</node>
	<node id="9892659826" lat="66.0629944" lon="12.9379056" version="1" timestamp="2022-07-17T05:03:31Z" changeset="123708051" uid="3497659" user="NKA">
		<tag k="name" v="Bjørsvika" />
		<tag k="place" v="farm" />
		<tag k="ssr:stedsnr" v="571432" />
	</node>
	<node id="9892659827" lat="66.0749333" lon="12.9037139" version="1" timestamp="2022-07-17T05:03:31Z" changeset="123708051" uid="3497659" user="NKA">
		<tag k="name" v="Nyheim" />
		<tag k="place" v="farm" />
		<tag k="ssr:stedsnr" v="290834" />
	</node>
	<node id="9892659828" lat="66.0415653" lon="12.6919557" version="1" timestamp="2022-07-17T05:03:31Z" changeset="123708051" uid="3497659" user="NKA">
		<tag k="name" v="Ytre Leines" />
		<tag k="place" v="farm" />
		<tag k="ssr:stedsnr" v="571436" />
	</node>
	<node id="9892659829" lat="66.0415125" lon="12.9698035" version="1" timestamp="2022-07-17T05:03:31Z" changeset="123708051" uid="3497659" user="NKA">
		<tag k="name" v="Elverum" />
		<tag k="place" v="farm" />
		<tag k="ssr:stedsnr" v="683017" />
	</node>
	<node id="9892659830" lat="66.1092496" lon="12.8070526" version="1" timestamp="2022-07-17T05:03:31Z" changeset="123708051" uid="3497659" user="NKA">
		<tag k="alt_name" v="Remma" />
		<tag k="name" v="Remmen" />
		<tag k="place" v="farm" />
		<tag k="ssr:stedsnr" v="561248" />
	</node>
	<node id="9892659831" lat="66.0548497" lon="12.7666441" version="1" timestamp="2022-07-17T05:03:31Z" changeset="123708051" uid="3497659" user="NKA">
		<tag k="name" v="Holmviksjøen" />
		<tag k="place" v="farm" />
		<tag k="ssr:stedsnr" v="836594" />
	</node>
	<node id="9892659832" lat="66.0188301" lon="12.9488425" version="1" timestamp="2022-07-17T05:03:31Z" changeset="123708051" uid="3497659" user="NKA">
		<tag k="name" v="Strand" />
		<tag k="place" v="farm" />
		<tag k="ssr:stedsnr" v="166493" />
	</node>
	<node id="9892659833" lat="66.0780582" lon="12.8985915" version="1" timestamp="2022-07-17T05:03:31Z" changeset="123708051" uid="3497659" user="NKA">
		<tag k="name" v="Nyrud" />
		<tag k="place" v="farm" />
		<tag k="ssr:stedsnr" v="136243" />
	</node>
	<node id="9892659834" lat="66.0391723" lon="12.9529084" version="1" timestamp="2022-07-17T05:03:31Z" changeset="123708051" uid="3497659" user="NKA">
		<tag k="name" v="Valberg" />
		<tag k="place" v="farm" />
		<tag k="ssr:stedsnr" v="136030" />
	</node>
	<node id="9892659835" lat="66.0669869" lon="12.9089494" version="1" timestamp="2022-07-17T05:03:31Z" changeset="123708051" uid="3497659" user="NKA">
		<tag k="name" v="Moen" />
		<tag k="place" v="farm" />
		<tag k="ssr:stedsnr" v="76215" />
	</node>
	<node id="9892659836" lat="66.0630646" lon="12.8086617" version="1" timestamp="2022-07-17T05:03:31Z" changeset="123708051" uid="3497659" user="NKA">
		<tag k="alt_name" v="Båtstø" />
		<tag k="name" v="Båtstøa" />
		<tag k="place" v="farm" />
		<tag k="ssr:stedsnr" v="137039" />
	</node>
	<node id="9892659837" lat="66.0754187" lon="12.93454" version="1" timestamp="2022-07-17T05:03:31Z" changeset="123708051" uid="3497659" user="NKA">
		<tag k="name" v="Simsøeng" />
		<tag k="place" v="farm" />
		<tag k="ssr:stedsnr" v="60141" />
	</node>
	<node id="9892659838" lat="66.0209993" lon="12.9408653" version="1" timestamp="2022-07-17T05:03:31Z" changeset="123708051" uid="3497659" user="NKA">
		<tag k="name" v="Sjøberg" />
		<tag k="place" v="farm" />
		<tag k="ssr:stedsnr" v="834474" />
	</node>
	<node id="9892659839" lat="65.979375" lon="12.7860889" version="1" timestamp="2022-07-17T05:03:31Z" changeset="123708051" uid="3497659" user="NKA">
		<tag k="name" v="Nordgården" />
		<tag k="place" v="farm" />
		<tag k="ssr:stedsnr" v="105081" />
	</node>
	<node id="9892659840" lat="66.0898694" lon="12.9002" version="1" timestamp="2022-07-17T05:03:31Z" changeset="123708051" uid="3497659" user="NKA">
		<tag k="name" v="Simsø" />
		<tag k="place" v="farm" />
		<tag k="ssr:stedsnr" v="60214" />
	</node>
	<node id="9892659841" lat="66.0098639" lon="12.9149916" version="1" timestamp="2022-07-17T05:03:31Z" changeset="123708051" uid="3497659" user="NKA">
		<tag k="name" v="Remmen" />
		<tag k="place" v="locality" />
		<tag k="ssr:stedsnr" v="954005" />
	</node>
	<node id="9892659842" lat="66.0936" lon="12.8815945" version="1" timestamp="2022-07-17T05:03:31Z" changeset="123708051" uid="3497659" user="NKA">
		<tag k="name" v="Simsø" />
		<tag k="place" v="farm" />
		<tag k="ssr:stedsnr" v="60224" />
	</node>
	<node id="9892659843" lat="66.0712937" lon="12.9218794" version="1" timestamp="2022-07-17T05:03:31Z" changeset="123708051" uid="3497659" user="NKA">
		<tag k="alt_name" v="Langåsen" />
		<tag k="name" v="Langås" />
		<tag k="place" v="farm" />
		<tag k="ssr:stedsnr" v="16178" />
	</node>
	<node id="9892659844" lat="66.0465451" lon="12.9909653" version="1" timestamp="2022-07-17T05:03:31Z" changeset="123708051" uid="3497659" user="NKA">
		<tag k="name" v="Nyland" />
		<tag k="place" v="hamlet" />
		<tag k="ssr:stedsnr" v="865039" />
	</node>
	<node id="9892659845" lat="66.1570205" lon="13.1111258" version="1" timestamp="2022-07-17T05:03:31Z" changeset="123708051" uid="3497659" user="NKA">
		<tag k="name" v="Inneråsen" />
		<tag k="place" v="hamlet" />
		<tag k="ssr:stedsnr" v="653924" />
	</node>
	<node id="9892659846" lat="66.069168" lon="12.8856371" version="1" timestamp="2022-07-17T05:03:31Z" changeset="123708051" uid="3497659" user="NKA">
		<tag k="name" v="Åsen" />
		<tag k="place" v="hamlet" />
		<tag k="ssr:stedsnr" v="1072448" />
	</node>
	<node id="9892659847" lat="66.0641786" lon="12.9545746" version="1" timestamp="2022-07-17T05:03:31Z" changeset="123708051" uid="3497659" user="NKA">
		<tag k="name" v="Leland" />
		<tag k="place" v="farm" />
		<tag k="ssr:stedsnr" v="1072458" />
	</node>
	<node id="9892659848" lat="66.0398512" lon="12.6782375" version="1" timestamp="2022-07-17T05:03:31Z" changeset="123708051" uid="3497659" user="NKA">
		<tag k="name" v="Åsheim" />
		<tag k="place" v="farm" />
		<tag k="ssr:stedsnr" v="15892" />
	</node>
	<node id="9892659849" lat="66.0547576" lon="12.8386978" version="1" timestamp="2022-07-17T05:03:31Z" changeset="123708051" uid="3497659" user="NKA">
		<tag k="name" v="Hjartland" />
		<tag k="place" v="hamlet" />
		<tag k="ssr:stedsnr" v="1072456" />
	</node>
	<node id="9892659850" lat="66.0144343" lon="12.9164773" version="1" timestamp="2022-07-17T05:03:31Z" changeset="123708051" uid="3497659" user="NKA">
		<tag k="name" v="Sundan" />
		<tag k="place" v="hamlet" />
		<tag k="ssr:stedsnr" v="197137" />
	</node>
	<node id="9892659851" lat="66.1938484" lon="13.3312668" version="1" timestamp="2022-07-17T05:03:31Z" changeset="123708051" uid="3497659" user="NKA">
		<tag k="name" v="Åsheim" />
		<tag k="place" v="farm" />
		<tag k="ssr:stedsnr" v="653870" />
	</node>
	<node id="9892659852" lat="66.0220462" lon="12.9488385" version="1" timestamp="2022-07-17T05:03:31Z" changeset="123708051" uid="3497659" user="NKA">
		<tag k="alt_name" v="Dagsvika" />
		<tag k="name" v="Dagsvik" />
		<tag k="place" v="hamlet" />
		<tag k="ssr:stedsnr" v="743135" />
	</node>
	<node id="9892659853" lat="65.9774445" lon="12.7865777" version="1" timestamp="2022-07-17T05:03:31Z" changeset="123708051" uid="3497659" user="NKA">
		<tag k="name" v="Heimstuberget" />
		<tag k="place" v="farm" />
		<tag k="ssr:stedsnr" v="198066" />
	</node>
	<node id="9892659854" lat="66.0613305" lon="12.6823555" version="1" timestamp="2022-07-17T05:03:31Z" changeset="123708051" uid="3497659" user="NKA">
		<tag k="name" v="Løkvika" />
		<tag k="place" v="hamlet" />
		<tag k="ssr:stedsnr" v="197989" />
	</node>
	<node id="9892659855" lat="66.065225" lon="12.9591694" version="1" timestamp="2022-07-17T05:03:31Z" changeset="123708051" uid="3497659" user="NKA">
		<tag k="name" v="Skreddarvika" />
		<tag k="place" v="neighbourhood" />
		<tag k="ssr:stedsnr" v="715828" />
	</node>
	<node id="9892659856" lat="66.1497266" lon="13.0012374" version="1" timestamp="2022-07-17T05:03:31Z" changeset="123708051" uid="3497659" user="NKA">
		<tag k="name" v="Yttergården" />
		<tag k="place" v="farm" />
		<tag k="ssr:stedsnr" v="471911" />
	</node>
	<node id="9892659857" lat="66.0775138" lon="12.9391805" version="1" timestamp="2022-07-17T05:03:31Z" changeset="123708051" uid="3497659" user="NKA">
		<tag k="name" v="Simåsen" />
		<tag k="place" v="farm" />
		<tag k="ssr:stedsnr" v="653185" />
	</node>
	<node id="9892659858" lat="66.1603528" lon="13.1001832" version="1" timestamp="2022-07-17T05:03:31Z" changeset="123708051" uid="3497659" user="NKA">
		<tag k="name" v="Fredheim" />
		<tag k="place" v="farm" />
		<tag k="ssr:stedsnr" v="410918" />
	</node>
	<node id="9892659859" lat="66.0844" lon="12.9152027" version="1" timestamp="2022-07-17T05:03:31Z" changeset="123708051" uid="3497659" user="NKA">
		<tag k="name" v="Simsø" />
		<tag k="place" v="farm" />
		<tag k="ssr:stedsnr" v="545246" />
	</node>
	<node id="9892659860" lat="66.0799893" lon="12.9300525" version="1" timestamp="2022-07-17T05:03:31Z" changeset="123708051" uid="3497659" user="NKA">
		<tag k="name" v="Solhaug" />
		<tag k="place" v="farm" />
		<tag k="ssr:stedsnr" v="440249" />
	</node>
	<node id="9892659861" lat="66.0461834" lon="12.7145761" version="1" timestamp="2022-07-17T05:03:31Z" changeset="123708051" uid="3497659" user="NKA">
		<tag k="name" v="Volden" />
		<tag k="place" v="farm" />
		<tag k="ssr:stedsnr" v="290592" />
	</node>
	<node id="9892659862" lat="66.0220566" lon="12.9520635" version="1" timestamp="2022-07-17T05:03:31Z" changeset="123708051" uid="3497659" user="NKA">
		<tag k="name" v="Nermyra" />
		<tag k="place" v="farm" />
		<tag k="ssr:stedsnr" v="409476" />
	</node>
	<node id="9892659863" lat="66.0664468" lon="12.8823216" version="1" timestamp="2022-07-17T05:03:31Z" changeset="123708051" uid="3497659" user="NKA">
		<tag k="name" v="Nystad" />
		<tag k="place" v="farm" />
		<tag k="ssr:stedsnr" v="622205" />
	</node>
	<node id="9892659864" lat="66.0564222" lon="12.9079166" version="1" timestamp="2022-07-17T05:03:31Z" changeset="123708051" uid="3497659" user="NKA">
		<tag k="alt_name" v="Tømmervik" />
		<tag k="name" v="Tømmervika" />
		<tag k="place" v="farm" />
		<tag k="ssr:stedsnr" v="897844" />
	</node>
	<node id="9892659865" lat="66.1551719" lon="13.0950178" version="1" timestamp="2022-07-17T05:03:31Z" changeset="123708051" uid="3497659" user="NKA">
		<tag k="name" v="Solvollen" />
		<tag k="place" v="farm" />
		<tag k="ssr:stedsnr" v="775900" />
	</node>
	<node id="9892659866" lat="66.0532306" lon="12.9034333" version="1" timestamp="2022-07-17T05:03:31Z" changeset="123708051" uid="3497659" user="NKA">
		<tag k="alt_name" v="Tømmervika" />
		<tag k="name" v="Tømmervik" />
		<tag k="place" v="farm" />
		<tag k="ssr:stedsnr" v="379035" />
	</node>
	<node id="9892659867" lat="66.0540206" lon="12.8505471" version="1" timestamp="2022-07-17T05:03:31Z" changeset="123708051" uid="3497659" user="NKA">
		<tag k="alt_name" v="Hjartland;Hjartland, in;Nytun" />
		<tag k="name" v="Indre Hjartland" />
		<tag k="place" v="farm" />
		<tag k="ssr:stedsnr" v="804072" />
	</node>
	<node id="9892659868" lat="66.0549337" lon="12.9071057" version="1" timestamp="2022-07-17T05:03:31Z" changeset="123708051" uid="3497659" user="NKA">
		<tag k="name" v="Ytre Tømmervik" />
		<tag k="place" v="farm" />
		<tag k="ssr:stedsnr" v="957873" />
	</node>
	<node id="9892659869" lat="66.1875806" lon="13.2414834" version="1" timestamp="2022-07-17T05:03:31Z" changeset="123708051" uid="3497659" user="NKA">
		<tag k="name" v="Vika" />
		<tag k="place" v="farm" />
		<tag k="ssr:stedsnr" v="935819" />
	</node>
	<node id="9892659870" lat="66.1630209" lon="13.1301255" version="1" timestamp="2022-07-17T05:03:31Z" changeset="123708051" uid="3497659" user="NKA">
		<tag k="name" v="Modalsenget" />
		<tag k="place" v="farm" />
		<tag k="ssr:stedsnr" v="926195" />
	</node>
	<node id="9892659871" lat="66.2131623" lon="13.415796" version="1" timestamp="2022-07-17T05:03:31Z" changeset="123708051" uid="3497659" user="NKA">
		<tag k="name" v="Englund" />
		<tag k="place" v="farm" />
		<tag k="ssr:stedsnr" v="804105" />
	</node>
	<node id="9892659872" lat="65.9888843" lon="12.8523896" version="1" timestamp="2022-07-17T05:03:31Z" changeset="123708051" uid="3497659" user="NKA">
		<tag k="name" v="Åkvik" />
		<tag k="place" v="hamlet" />
		<tag k="ssr:stedsnr" v="440100" />
	</node>
	<node id="9892659873" lat="66.0718528" lon="12.9312194" version="1" timestamp="2022-07-17T05:03:31Z" changeset="123708051" uid="3497659" user="NKA">
		<tag k="name" v="Slettbakken" />
		<tag k="place" v="farm" />
		<tag k="ssr:stedsnr" v="804234" />
	</node>
	<node id="9892659874" lat="66.09965" lon="13.0683056" version="1" timestamp="2022-07-17T05:03:31Z" changeset="123708051" uid="3497659" user="NKA">
		<tag k="name" v="Storteigen" />
		<tag k="place" v="farm" />
		<tag k="ssr:stedsnr" v="925288" />
	</node>
	<node id="9892659875" lat="66.1609556" lon="13.1135917" version="1" timestamp="2022-07-17T05:03:31Z" changeset="123708051" uid="3497659" user="NKA">
		<tag k="name" v="Korsveien" />
		<tag k="place" v="farm" />
		<tag k="ssr:stedsnr" v="897890" />
	</node>
	<node id="9892659876" lat="66.0739778" lon="12.9331445" version="1" timestamp="2022-07-17T05:03:31Z" changeset="123708051" uid="3497659" user="NKA">
		<tag k="name" v="Simsø" />
		<tag k="place" v="farm" />
		<tag k="ssr:stedsnr" v="727264" />
	</node>
	<node id="9892659877" lat="65.9784259" lon="12.9035" version="1" timestamp="2022-07-17T05:03:31Z" changeset="123708051" uid="3497659" user="NKA">
		<tag k="name" v="Remneset" />
		<tag k="place" v="farm" />
		<tag k="ssr:stedsnr" v="622084" />
	</node>
	<node id="9892659878" lat="66.0827277" lon="13.0475805" version="1" timestamp="2022-07-17T05:03:31Z" changeset="123708051" uid="3497659" user="NKA">
		<tag k="name" v="Nes" />
		<tag k="place" v="farm" />
		<tag k="ssr:stedsnr" v="389461" />
	</node>
	<node id="9892659879" lat="66.153656" lon="13.0833548" version="1" timestamp="2022-07-17T05:03:31Z" changeset="123708051" uid="3497659" user="NKA">
		<tag k="name" v="Nyrud" />
		<tag k="place" v="farm" />
		<tag k="ssr:stedsnr" v="804197" />
	</node>
	<node id="9892659880" lat="66.0692584" lon="12.8246555" version="1" timestamp="2022-07-17T05:03:31Z" changeset="123708051" uid="3497659" user="NKA">
		<tag k="name" v="Nergård" />
		<tag k="place" v="farm" />
		<tag k="ssr:stedsnr" v="926200" />
	</node>
	<node id="9892659881" lat="66.0650084" lon="12.9545472" version="1" timestamp="2022-07-17T05:03:31Z" changeset="123708051" uid="3497659" user="NKA">
		<tag k="name" v="Kaukarhaugen" />
		<tag k="place" v="neighbourhood" />
		<tag k="ssr:stedsnr" v="472820" />
	</node>
	<node id="9892659882" lat="66.0119571" lon="12.9086532" version="1" timestamp="2022-07-17T05:03:31Z" changeset="123708051" uid="3497659" user="NKA">
		<tag k="name" v="Engberget" />
		<tag k="place" v="farm" />
		<tag k="ssr:stedsnr" v="197131" />
	</node>
	<node id="9892659883" lat="66.0591639" lon="12.7855389" version="1" timestamp="2022-07-17T05:03:31Z" changeset="123708051" uid="3497659" user="NKA">
		<tag k="name" v="Båtstøenget" />
		<tag k="place" v="farm" />
		<tag k="ssr:stedsnr" v="804077" />
	</node>
	<node id="9892659884" lat="66.1884625" lon="13.3127005" version="1" timestamp="2022-07-17T05:03:31Z" changeset="123708051" uid="3497659" user="NKA">
		<tag k="name" v="Åsen" />
		<tag k="place" v="farm" />
		<tag k="ssr:stedsnr" v="744373" />
	</node>
	<node id="9892659885" lat="66.1066889" lon="13.0690157" version="1" timestamp="2022-07-17T05:03:31Z" changeset="123708051" uid="3497659" user="NKA">
		<tag k="alt_name" v="Melkaremma" />
		<tag k="name" v="Melkarremmen" />
		<tag k="place" v="farm" />
		<tag k="ssr:stedsnr" v="561246" />
	</node>
	<node id="9892659886" lat="66.0663481" lon="12.878238" version="1" timestamp="2022-07-17T05:03:31Z" changeset="123708051" uid="3497659" user="NKA">
		<tag k="name" v="Baklund" />
		<tag k="place" v="farm" />
		<tag k="ssr:stedsnr" v="836862" />
	</node>
	<node id="9892659887" lat="66.0825223" lon="13.0466515" version="1" timestamp="2022-07-17T05:03:31Z" changeset="123708051" uid="3497659" user="NKA">
		<tag k="name" v="Grønåsvollen" />
		<tag k="place" v="farm" />
		<tag k="ssr:stedsnr" v="743238" />
	</node>
	<node id="9892659888" lat="66.013974" lon="12.925492" version="1" timestamp="2022-07-17T05:03:31Z" changeset="123708051" uid="3497659" user="NKA">
		<tag k="name" v="Nersund" />
		<tag k="place" v="farm" />
		<tag k="ssr:stedsnr" v="214560" />
	</node>
	<node id="9892659889" lat="66.0300458" lon="12.8767419" version="1" timestamp="2022-07-17T05:03:31Z" changeset="123708051" uid="3497659" user="NKA">
		<tag k="alt_name" v="Selvågan" />
		<tag k="name" v="Selvågen" />
		<tag k="place" v="hamlet" />
		<tag k="ssr:stedsnr" v="561029" />
	</node>
	<node id="9892659890" lat="66.009769" lon="12.8862305" version="1" timestamp="2022-07-17T05:03:31Z" changeset="123708051" uid="3497659" user="NKA">
		<tag k="name" v="Bjørnvollen" />
		<tag k="place" v="farm" />
		<tag k="ssr:stedsnr" v="136132" />
	</node>
	<node id="9892659891" lat="66.0484522" lon="12.7217287" version="1" timestamp="2022-07-17T05:03:31Z" changeset="123708051" uid="3497659" user="NKA">
		<tag k="name" v="Stranda" />
		<tag k="place" v="hamlet" />
		<tag k="ssr:stedsnr" v="804058" />
	</node>
	<node id="9892659892" lat="66.0946604" lon="13.1155116" version="1" timestamp="2022-07-17T05:03:31Z" changeset="123708051" uid="3497659" user="NKA">
		<tag k="name" v="Kalvlandet" />
		<tag k="place" v="farm" />
		<tag k="ssr:stedsnr" v="592247" />
	</node>
	<node id="9892659893" lat="66.0626051" lon="12.7031101" version="1" timestamp="2022-07-17T05:03:31Z" changeset="123708051" uid="3497659" user="NKA">
		<tag k="name" v="Reines" />
		<tag k="place" v="hamlet" />
		<tag k="ssr:stedsnr" v="1072442" />
	</node>
	<node id="9892659894" lat="66.0443231" lon="12.7024018" version="1" timestamp="2022-07-17T05:03:31Z" changeset="123708051" uid="3497659" user="NKA">
		<tag k="name" v="Leines" />
		<tag k="place" v="hamlet" />
		<tag k="ssr:stedsnr" v="389949" />
	</node>
	<node id="9892659895" lat="66.050225" lon="12.6993638" version="1" timestamp="2022-07-17T05:03:31Z" changeset="123708051" uid="3497659" user="NKA">
		<tag k="alt_name" v="Vollen" />
		<tag k="name" v="Volden" />
		<tag k="place" v="farm" />
		<tag k="ssr:stedsnr" v="440989" />
	</node>
	<node id="9892659896" lat="66.1846581" lon="13.309527" version="1" timestamp="2022-07-17T05:03:31Z" changeset="123708051" uid="3497659" user="NKA">
		<tag k="name" v="Vassdal" />
		<tag k="place" v="hamlet" />
		<tag k="ssr:stedsnr" v="379414" />
	</node>
	<node id="9892659897" lat="66.0445154" lon="12.7054857" version="1" timestamp="2022-07-17T05:03:31Z" changeset="123708051" uid="3497659" user="NKA">
		<tag k="name" v="Lundvang" />
		<tag k="place" v="farm" />
		<tag k="ssr:stedsnr" v="15884" />
	</node>
	<node id="9892659898" lat="66.0667778" lon="12.8729445" version="1" timestamp="2022-07-17T05:03:31Z" changeset="123708051" uid="3497659" user="NKA">
		<tag k="name" v="Myrlund" />
		<tag k="place" v="farm" />
		<tag k="ssr:stedsnr" v="319195" />
	</node>
	<node id="9892659899" lat="66.1867194" lon="13.3199055" version="1" timestamp="2022-07-17T05:03:31Z" changeset="123708051" uid="3497659" user="NKA">
		<tag k="name" v="Rytun" />
		<tag k="place" v="farm" />
		<tag k="ssr:stedsnr" v="440442" />
	</node>
	<node id="9892659900" lat="66.0530337" lon="12.7501033" version="1" timestamp="2022-07-17T05:03:31Z" changeset="123708051" uid="3497659" user="NKA">
		<tag k="name" v="Skjøråsvik" />
		<tag k="place" v="farm" />
		<tag k="ssr:stedsnr" v="532619" />
	</node>
	<node id="9892659901" lat="66.190563" lon="13.3267865" version="1" timestamp="2022-07-17T05:03:31Z" changeset="123708051" uid="3497659" user="NKA">
		<tag k="name" v="Haugjord" />
		<tag k="place" v="hamlet" />
		<tag k="ssr:stedsnr" v="440430" />
	</node>
	<node id="9892659902" lat="66.1732889" lon="13.1713027" version="1" timestamp="2022-07-17T05:03:31Z" changeset="123708051" uid="3497659" user="NKA">
		<tag k="name" v="Neppelberg" />
		<tag k="place" v="hamlet" />
		<tag k="ssr:stedsnr" v="440225" />
	</node>
	<node id="9892659903" lat="66.1724657" lon="13.1670661" version="1" timestamp="2022-07-17T05:03:31Z" changeset="123708051" uid="3497659" user="NKA">
		<tag k="name" v="Breirem" />
		<tag k="place" v="farm" />
		<tag k="ssr:stedsnr" v="440222" />
	</node>
	<node id="9892659904" lat="66.0749942" lon="13.027" version="1" timestamp="2022-07-17T05:03:31Z" changeset="123708051" uid="3497659" user="NKA">
		<tag k="alt_name" v="Nes" />
		<tag k="name" v="Nordnes" />
		<tag k="place" v="farm" />
		<tag k="ssr:stedsnr" v="440245" />
	</node>
	<node id="9892659905" lat="66.013012" lon="12.9536005" version="1" timestamp="2022-07-17T05:03:31Z" changeset="123708051" uid="3497659" user="NKA">
		<tag k="alt_name" v="Ladingen;Laingen" />
		<tag k="name" v="Lading" />
		<tag k="place" v="hamlet" />
		<tag k="ssr:stedsnr" v="743142" />
	</node>
	<node id="9892659906" lat="66.0705575" lon="12.8097586" version="1" timestamp="2022-07-17T05:03:31Z" changeset="123708051" uid="3497659" user="NKA">
		<tag k="name" v="Aspåsen" />
		<tag k="place" v="farm" />
		<tag k="ssr:stedsnr" v="865221" />
	</node>
	<node id="9892659907" lat="66.0712052" lon="12.8598946" version="1" timestamp="2022-07-17T05:03:31Z" changeset="123708051" uid="3497659" user="NKA">
		<tag k="name" v="Rishaugen" />
		<tag k="place" v="farm" />
		<tag k="ssr:stedsnr" v="865224" />
	</node>
	<node id="9892659908" lat="66.155067" lon="13.0821176" version="1" timestamp="2022-07-17T05:03:31Z" changeset="123708051" uid="3497659" user="NKA">
		<tag k="name" v="Nordtun" />
		<tag k="place" v="farm" />
		<tag k="ssr:stedsnr" v="440206" />
	</node>
	<node id="9892659909" lat="66.0723644" lon="12.8278184" version="1" timestamp="2022-07-17T05:03:31Z" changeset="123708051" uid="3497659" user="NKA">
		<tag k="name" v="Åsheim" />
		<tag k="place" v="farm" />
		<tag k="ssr:stedsnr" v="865220" />
	</node>
	<node id="9892659910" lat="66.1755063" lon="13.1701329" version="1" timestamp="2022-07-17T05:03:31Z" changeset="123708051" uid="3497659" user="NKA">
		<tag k="alt_name" v="Skjervoll" />
		<tag k="name" v="Skjærvold" />
		<tag k="place" v="farm" />
		<tag k="ssr:stedsnr" v="379757" />
	</node>
	<node id="9892659911" lat="66.0783864" lon="13.0423972" version="1" timestamp="2022-07-17T05:03:31Z" changeset="123708051" uid="3497659" user="NKA">
		<tag k="name" v="Beretmoen" />
		<tag k="place" v="farm" />
		<tag k="ssr:stedsnr" v="319210" />
	</node>
	<node id="9892659912" lat="66.154675" lon="13.0680167" version="1" timestamp="2022-07-17T05:03:31Z" changeset="123708051" uid="3497659" user="NKA">
		<tag k="name" v="Sjøbakken" />
		<tag k="place" v="farm" />
		<tag k="ssr:stedsnr" v="319162" />
	</node>
	<node id="9892659913" lat="66.084208" lon="12.7174136" version="1" timestamp="2022-07-17T05:03:31Z" changeset="123708051" uid="3497659" user="NKA">
		<tag k="alt_name" v="Sandvegen" />
		<tag k="name" v="Sandveien" />
		<tag k="place" v="farm" />
		<tag k="ssr:stedsnr" v="926227" />
	</node>
	<node id="9892659914" lat="66.1696194" lon="13.1522361" version="1" timestamp="2022-07-17T05:03:31Z" changeset="123708051" uid="3497659" user="NKA">
		<tag k="name" v="Skogly" />
		<tag k="place" v="farm" />
		<tag k="ssr:stedsnr" v="258187" />
	</node>
	<node id="9892659915" lat="66.0687805" lon="12.8874028" version="1" timestamp="2022-07-17T05:03:31Z" changeset="123708051" uid="3497659" user="NKA">
		<tag k="name" v="Mellemåsen" />
		<tag k="place" v="farm" />
		<tag k="ssr:stedsnr" v="775849" />
	</node>
	<node id="9892659916" lat="66.1561143" lon="13.0997469" version="1" timestamp="2022-07-17T05:03:31Z" changeset="123708051" uid="3497659" user="NKA">
		<tag k="name" v="Åsheim" />
		<tag k="place" v="farm" />
		<tag k="ssr:stedsnr" v="168913" />
	</node>
	<node id="9892659917" lat="66.0786854" lon="12.9051754" version="1" timestamp="2022-07-17T05:03:31Z" changeset="123708051" uid="3497659" user="NKA">
		<tag k="alt_name" v="Laremmen" />
		<tag k="name" v="Ytterenget" />
		<tag k="place" v="farm" />
		<tag k="ssr:stedsnr" v="753376" />
	</node>
	<node id="9892659918" lat="66.0690598" lon="12.8092103" version="1" timestamp="2022-07-17T05:03:31Z" changeset="123708051" uid="3497659" user="NKA">
		<tag k="name" v="Tverråbakken" />
		<tag k="place" v="farm" />
		<tag k="ssr:stedsnr" v="108779" />
	</node>
	<node id="9892659919" lat="66.0781826" lon="12.9032262" version="1" timestamp="2022-07-17T05:03:31Z" changeset="123708051" uid="3497659" user="NKA">
		<tag k="name" v="Heimly" />
		<tag k="place" v="farm" />
		<tag k="ssr:stedsnr" v="168301" />
	</node>
	<node id="9892659920" lat="66.0851861" lon="13.1022916" version="1" timestamp="2022-07-17T05:03:31Z" changeset="123708051" uid="3497659" user="NKA">
		<tag k="name" v="Vårtun" />
		<tag k="place" v="locality" />
		<tag k="ssr:stedsnr" v="136259" />
	</node>
	<node id="9892659921" lat="66.21775" lon="13.3979722" version="1" timestamp="2022-07-17T05:03:31Z" changeset="123708051" uid="3497659" user="NKA">
		<tag k="alt_name" v="Ekra" />
		<tag k="name" v="Ekren" />
		<tag k="place" v="farm" />
		<tag k="ssr:stedsnr" v="804111" />
	</node>
	<node id="9892659922" lat="66.1612722" lon="13.10315" version="1" timestamp="2022-07-17T05:03:31Z" changeset="123708051" uid="3497659" user="NKA">
		<tag k="name" v="Nyheim" />
		<tag k="place" v="farm" />
		<tag k="ssr:stedsnr" v="136216" />
	</node>
	<node id="9892659923" lat="66.206896" lon="13.3999402" version="1" timestamp="2022-07-17T05:03:31Z" changeset="123708051" uid="3497659" user="NKA">
		<tag k="name" v="Blyset" />
		<tag k="place" v="hamlet" />
		<tag k="ssr:stedsnr" v="1075599" />
	</node>
	<node id="9892659924" lat="66.1192139" lon="12.8321722" version="1" timestamp="2022-07-17T05:03:31Z" changeset="123708051" uid="3497659" user="NKA">
		<tag k="name" v="Åslund" />
		<tag k="place" v="farm" />
		<tag k="ssr:stedsnr" v="107476" />
	</node>
	<node id="9892659925" lat="66.0675316" lon="12.8216223" version="1" timestamp="2022-07-17T05:03:31Z" changeset="123708051" uid="3497659" user="NKA">
		<tag k="name" v="Meisfjordskar" />
		<tag k="place" v="farm" />
		<tag k="ssr:stedsnr" v="108792" />
	</node>
	<node id="9892659926" lat="66.0863833" lon="13.0993778" version="1" timestamp="2022-07-17T05:03:31Z" changeset="123708051" uid="3497659" user="NKA">
		<tag k="name" v="Nordli" />
		<tag k="place" v="farm" />
		<tag k="ssr:stedsnr" v="76243" />
	</node>
	<node id="9892659927" lat="66.1116882" lon="12.8092655" version="1" timestamp="2022-07-17T05:03:31Z" changeset="123708051" uid="3497659" user="NKA">
		<tag k="name" v="Vikja" />
		<tag k="place" v="farm" />
		<tag k="ssr:stedsnr" v="775416" />
	</node>
	<node id="9892659928" lat="66.2093952" lon="13.3978362" version="1" timestamp="2022-07-17T05:03:31Z" changeset="123708051" uid="3497659" user="NKA">
		<tag k="alt_name" v="Blyset, nedre;Blyseth Nedre" />
		<tag k="name" v="Nedre Blyset" />
		<tag k="place" v="farm" />
		<tag k="ssr:stedsnr" v="683063" />
	</node>
	<node id="9892659929" lat="66.071386" lon="12.8969111" version="1" timestamp="2022-07-17T05:03:31Z" changeset="123708051" uid="3497659" user="NKA">
		<tag k="name" v="Åslund" />
		<tag k="place" v="farm" />
		<tag k="ssr:stedsnr" v="76218" />
	</node>
	<node id="9892659930" lat="66.2094007" lon="13.3706422" version="1" timestamp="2022-07-17T05:03:31Z" changeset="123708051" uid="3497659" user="NKA">
		<tag k="alt_name" v="Bergsnev" />
		<tag k="name" v="Bergsnov" />
		<tag k="place" v="farm" />
		<tag k="ssr:stedsnr" v="258094" />
	</node>
	<node id="9892659931" lat="66.1552304" lon="13.0576035" version="1" timestamp="2022-07-17T05:03:31Z" changeset="123708051" uid="3497659" user="NKA">
		<tag k="alt_name" v="Gongstø" />
		<tag k="name" v="Gangstøen" />
		<tag k="place" v="farm" />
		<tag k="ssr:stedsnr" v="76187" />
	</node>
	<node id="9892659932" lat="66.0634833" lon="12.6979195" version="1" timestamp="2022-07-17T05:03:31Z" changeset="123708051" uid="3497659" user="NKA">
		<tag k="alt_name" v="Reines" />
		<tag k="name" v="Ytter-Reines" />
		<tag k="place" v="farm" />
		<tag k="ssr:stedsnr" v="197987" />
	</node>
	<node id="9892659933" lat="66.2079468" lon="13.3761607" version="1" timestamp="2022-07-17T05:03:31Z" changeset="123708051" uid="3497659" user="NKA">
		<tag k="name" v="Sommerro" />
		<tag k="place" v="farm" />
		<tag k="ssr:stedsnr" v="896896" />
	</node>
	<node id="9892659934" lat="66.0938583" lon="13.1138777" version="1" timestamp="2022-07-17T05:03:31Z" changeset="123708051" uid="3497659" user="NKA">
		<tag k="name" v="Vatnet" />
		<tag k="place" v="hamlet" />
		<tag k="ssr:stedsnr" v="622250" />
	</node>
	<node id="9892659935" lat="66.1997874" lon="13.3605733" version="1" timestamp="2022-07-17T05:03:31Z" changeset="123708051" uid="3497659" user="NKA">
		<tag k="alt_name" v="Laglia" />
		<tag k="name" v="Lagli" />
		<tag k="place" v="farm" />
		<tag k="ssr:stedsnr" v="622073" />
	</node>
	<node id="9892659936" lat="66.0603632" lon="12.7544673" version="1" timestamp="2022-07-17T05:03:31Z" changeset="123708051" uid="3497659" user="NKA">
		<tag k="name" v="Ulvangen" />
		<tag k="place" v="farm" />
		<tag k="ssr:stedsnr" v="1072443" />
	</node>
	<node id="9892659937" lat="66.0529305" lon="12.7510278" version="1" timestamp="2022-07-17T05:03:31Z" changeset="123708051" uid="3497659" user="NKA">
		<tag k="name" v="Indre Leines" />
		<tag k="place" v="farm" />
		<tag k="ssr:stedsnr" v="207413" />
	</node>
	<node id="9892659938" lat="66.0471472" lon="12.7179541" version="1" timestamp="2022-07-17T05:03:31Z" changeset="123708051" uid="3497659" user="NKA">
		<tag k="name" v="Indre Leines" />
		<tag k="place" v="farm" />
		<tag k="ssr:stedsnr" v="1072451" />
	</node>
	<node id="9892659939" lat="66.0654628" lon="12.6850753" version="1" timestamp="2022-07-17T05:03:31Z" changeset="123708051" uid="3497659" user="NKA">
		<tag k="name" v="Angarsnes" />
		<tag k="place" v="farm" />
		<tag k="ssr:stedsnr" v="1072441" />
	</node>
	<node id="9892659940" lat="66.0732453" lon="13.0030712" version="1" timestamp="2022-07-17T05:03:31Z" changeset="123708051" uid="3497659" user="NKA">
		<tag k="name" v="Breiland" />
		<tag k="place" v="hamlet" />
		<tag k="ssr:stedsnr" v="622211" />
	</node>
	<node id="9892659941" lat="66.2098977" lon="13.3728428" version="1" timestamp="2022-07-17T05:03:31Z" changeset="123708051" uid="3497659" user="NKA">
		<tag k="name" v="Solheim" />
		<tag k="place" v="farm" />
		<tag k="ssr:stedsnr" v="289911" />
	</node>
	<node id="9892659942" lat="66.0768364" lon="13.05275" version="1" timestamp="2022-07-17T05:03:31Z" changeset="123708051" uid="3497659" user="NKA">
		<tag k="alt_name" v="Leira" />
		<tag k="name" v="Leiren" />
		<tag k="place" v="hamlet" />
		<tag k="ssr:stedsnr" v="622228" />
	</node>
	<node id="9892659943" lat="66.1138084" lon="12.8121361" version="1" timestamp="2022-07-17T05:03:31Z" changeset="123708051" uid="3497659" user="NKA">
		<tag k="alt_name" v="Sjåvik" />
		<tag k="name" v="Vika" />
		<tag k="place" v="hamlet" />
		<tag k="ssr:stedsnr" v="197144" />
	</node>
	<node id="9892659944" lat="66.1840861" lon="13.2979971" version="1" timestamp="2022-07-17T05:03:31Z" changeset="123708051" uid="3497659" user="NKA">
		<tag k="alt_name" v="Engåsen" />
		<tag k="name" v="Engås" />
		<tag k="place" v="farm" />
		<tag k="ssr:stedsnr" v="621468" />
	</node>
	<node id="9892659945" lat="66.0793238" lon="12.9089109" version="1" timestamp="2022-07-17T05:03:31Z" changeset="123708051" uid="3497659" user="NKA">
		<tag k="name" v="Solsletta" />
		<tag k="place" v="farm" />
		<tag k="ssr:stedsnr" v="957299" />
	</node>
	<node id="9892659946" lat="66.1659168" lon="13.1217024" version="1" timestamp="2022-07-17T05:03:31Z" changeset="123708051" uid="3497659" user="NKA">
		<tag k="name" v="Rørvika" />
		<tag k="place" v="farm" />
		<tag k="ssr:stedsnr" v="622200" />
	</node>
	<node id="9892659947" lat="66.0760264" lon="13.0205238" version="1" timestamp="2022-07-17T05:03:31Z" changeset="123708051" uid="3497659" user="NKA">
		<tag k="name" v="Stranda" />
		<tag k="place" v="farm" />
		<tag k="ssr:stedsnr" v="290794" />
	</node>
	<node id="9892659950" lat="66.0686098" lon="13.0684626" version="1" timestamp="2022-07-17T05:03:31Z" changeset="123708051" uid="3497659" user="NKA">
		<tag k="name" v="Drogsåsen" />
		<tag k="place" v="farm" />
		<tag k="ssr:stedsnr" v="198045" />
	</node>
	<node id="9892659951" lat="66.1213786" lon="12.8398208" version="1" timestamp="2022-07-17T05:03:31Z" changeset="123708051" uid="3497659" user="NKA">
		<tag k="name" v="Oppegården" />
		<tag k="place" v="farm" />
		<tag k="ssr:stedsnr" v="198143" />
	</node>
	<node id="9892659952" lat="66.0679711" lon="12.8369195" version="1" timestamp="2022-07-17T05:03:31Z" changeset="123708051" uid="3497659" user="NKA">
		<tag k="alt_name" v="Meisfjord" />
		<tag k="name" v="Meisfjorden" />
		<tag k="place" v="farm" />
		<tag k="ssr:stedsnr" v="1072444" />
	</node>
	<node id="9892659953" lat="66.0304783" lon="12.9485423" version="1" timestamp="2022-07-17T05:03:31Z" changeset="123708051" uid="3497659" user="NKA">
		<tag k="alt_name" v="Tjærstad" />
		<tag k="name" v="Kjærstad" />
		<tag k="place" v="farm" />
		<tag k="ssr:stedsnr" v="198017" />
	</node>
	<node id="9892659954" lat="66.0390088" lon="12.9189327" version="1" timestamp="2022-07-17T05:03:31Z" changeset="123708051" uid="3497659" user="NKA">
		<tag k="alt_name" v="Fornes" />
		<tag k="name" v="Forneset" />
		<tag k="place" v="locality" />
		<tag k="ssr:stedsnr" v="1072482" />
	</node>
	<node id="9892659955" lat="66.0679333" lon="12.8430937" version="1" timestamp="2022-07-17T05:03:31Z" changeset="123708051" uid="3497659" user="NKA">
		<tag k="alt_name" v="Einmo" />
		<tag k="name" v="Einmoen" />
		<tag k="place" v="farm" />
		<tag k="ssr:stedsnr" v="1072449" />
	</node>
	<node id="9892659956" lat="66.0824182" lon="13.0094647" version="1" timestamp="2022-07-17T05:03:31Z" changeset="123708051" uid="3497659" user="NKA">
		<tag k="name" v="Steffåsen" />
		<tag k="place" v="locality" />
		<tag k="ssr:stedsnr" v="197243" />
	</node>
	<node id="9892659957" lat="66.1420996" lon="13.1785283" version="1" timestamp="2022-07-17T05:03:31Z" changeset="123708051" uid="3497659" user="NKA">
		<tag k="name" v="Randalen" />
		<tag k="place" v="locality" />
		<tag k="ssr:stedsnr" v="1072483" />
	</node>
	<node id="9892659958" lat="66.0702861" lon="12.9036167" version="1" timestamp="2022-07-17T05:03:31Z" changeset="123708051" uid="3497659" user="NKA">
		<tag k="name" v="Bjørstad" />
		<tag k="place" v="farm" />
		<tag k="ssr:stedsnr" v="501190" />
	</node>
	<node id="9892659959" lat="66.0164281" lon="12.8905687" version="1" timestamp="2022-07-17T05:03:31Z" changeset="123708051" uid="3497659" user="NKA">
		<tag k="alt_name" v="Hellesvik" />
		<tag k="name" v="Hellesvika" />
		<tag k="place" v="hamlet" />
		<tag k="ssr:stedsnr" v="500004" />
	</node>
	<node id="9892659960" lat="66.1719699" lon="13.1628364" version="1" timestamp="2022-07-17T05:03:31Z" changeset="123708051" uid="3497659" user="NKA">
		<tag k="name" v="Solheim" />
		<tag k="place" v="farm" />
		<tag k="ssr:stedsnr" v="228920" />
	</node>
	<node id="9892659961" lat="66.0651223" lon="12.8954888" version="1" timestamp="2022-07-17T05:03:31Z" changeset="123708051" uid="3497659" user="NKA">
		<tag k="name" v="Åsvang" />
		<tag k="place" v="farm" />
		<tag k="ssr:stedsnr" v="440074" />
	</node>
	<node id="9892659962" lat="66.0788417" lon="13.0671057" version="1" timestamp="2022-07-17T05:03:31Z" changeset="123708051" uid="3497659" user="NKA">
		<tag k="name" v="Tennbakken" />
		<tag k="place" v="farm" />
		<tag k="ssr:stedsnr" v="865247" />
	</node>
	<node id="9892659963" lat="66.0690971" lon="12.9009515" version="1" timestamp="2022-07-17T05:03:31Z" changeset="123708051" uid="3497659" user="NKA">
		<tag k="name" v="Holten" />
		<tag k="place" v="farm" />
		<tag k="ssr:stedsnr" v="76217" />
	</node>
	<node id="9892659964" lat="66.0151333" lon="12.9557389" version="1" timestamp="2022-07-17T05:03:31Z" changeset="123708051" uid="3497659" user="NKA">
		<tag k="name" v="Dalen" />
		<tag k="place" v="farm" />
		<tag k="ssr:stedsnr" v="44479" />
	</node>
	<node id="9892659965" lat="66.0393808" lon="12.9570308" version="1" timestamp="2022-07-17T05:03:31Z" changeset="123708051" uid="3497659" user="NKA">
		<tag k="name" v="Øver-Valberg" />
		<tag k="place" v="farm" />
		<tag k="ssr:stedsnr" v="957539" />
	</node>
	<node id="9892659966" lat="66.0150027" lon="12.8874622" version="1" timestamp="2022-07-17T05:03:31Z" changeset="123708051" uid="3497659" user="NKA">
		<tag k="name" v="Mellomgården" />
		<tag k="place" v="farm" />
		<tag k="ssr:stedsnr" v="836446" />
	</node>
	<node id="9892659967" lat="66.0215194" lon="12.8912973" version="1" timestamp="2022-07-17T05:03:31Z" changeset="123708051" uid="3497659" user="NKA">
		<tag k="alt_name" v="Nordsjøen" />
		<tag k="name" v="Nordsjyen" />
		<tag k="place" v="farm" />
		<tag k="ssr:stedsnr" v="561012" />
	</node>
	<node id="9892659968" lat="66.0734639" lon="12.8851278" version="1" timestamp="2022-07-17T05:03:31Z" changeset="123708051" uid="3497659" user="NKA">
		<tag k="name" v="Solbakken" />
		<tag k="place" v="farm" />
		<tag k="ssr:stedsnr" v="865238" />
	</node>
	<node id="9892659969" lat="66.2135993" lon="13.4089356" version="1" timestamp="2022-07-17T05:03:31Z" changeset="123708051" uid="3497659" user="NKA">
		<tag k="name" v="Sætre" />
		<tag k="place" v="farm" />
		<tag k="ssr:stedsnr" v="197089" />
	</node>
	<node id="9892659970" lat="66.069175" lon="12.8795388" version="1" timestamp="2022-07-17T05:03:31Z" changeset="123708051" uid="3497659" user="NKA">
		<tag k="name" v="Skogan" />
		<tag k="place" v="farm" />
		<tag k="ssr:stedsnr" v="632451" />
	</node>
	<node id="9892659971" lat="66.1414695" lon="13.079811" version="1" timestamp="2022-07-17T05:03:31Z" changeset="123708051" uid="3497659" user="NKA">
		<tag k="name" v="Vågen" />
		<tag k="place" v="farm" />
		<tag k="ssr:stedsnr" v="561167" />
	</node>
	<node id="9892659972" lat="66.0778669" lon="13.0367166" version="1" timestamp="2022-07-17T05:03:31Z" changeset="123708051" uid="3497659" user="NKA">
		<tag k="name" v="Stormoen" />
		<tag k="place" v="farm" />
		<tag k="ssr:stedsnr" v="561218" />
	</node>
	<node id="9892659973" lat="66.0648556" lon="12.7767638" version="1" timestamp="2022-07-17T05:03:31Z" changeset="123708051" uid="3497659" user="NKA">
		<tag k="name" v="Halsen" />
		<tag k="place" v="farm" />
		<tag k="ssr:stedsnr" v="136222" />
	</node>
	<node id="9892659974" lat="66.2292444" lon="13.4550778" version="1" timestamp="2022-07-17T05:03:31Z" changeset="123708051" uid="3497659" user="NKA">
		<tag k="name" v="Landenget" />
		<tag k="place" v="farm" />
		<tag k="ssr:stedsnr" v="874031" />
	</node>
	<node id="9892659975" lat="65.9991083" lon="12.9002361" version="1" timestamp="2022-07-17T05:03:31Z" changeset="123708051" uid="3497659" user="NKA">
		<tag k="name" v="Jystad" />
		<tag k="place" v="farm" />
		<tag k="ssr:stedsnr" v="76120" />
	</node>
	<node id="9892659976" lat="66.0568917" lon="12.7285001" version="1" timestamp="2022-07-17T05:03:31Z" changeset="123708051" uid="3497659" user="NKA">
		<tag k="alt_name" v="Ørvikja;Ørvika" />
		<tag k="name" v="Ørvik" />
		<tag k="place" v="farm" />
		<tag k="ssr:stedsnr" v="561064" />
	</node>
	<node id="9892659977" lat="66.0676595" lon="12.8450265" version="1" timestamp="2022-07-17T05:03:31Z" changeset="123708051" uid="3497659" user="NKA">
		<tag k="alt_name" v="Einmoen" />
		<tag k="name" v="Einmo" />
		<tag k="place" v="farm" />
		<tag k="ssr:stedsnr" v="258205" />
	</node>
	<node id="9892659978" lat="66.0691028" lon="12.7987084" version="1" timestamp="2022-07-17T05:03:31Z" changeset="123708051" uid="3497659" user="NKA">
		<tag k="name" v="Blåbæråsmyra" />
		<tag k="place" v="farm" />
		<tag k="ssr:stedsnr" v="836790" />
	</node>
	<node id="9892659979" lat="66.0138834" lon="12.8852584" version="1" timestamp="2022-07-17T05:03:31Z" changeset="123708051" uid="3497659" user="NKA">
		<tag k="name" v="Øvergården" />
		<tag k="place" v="farm" />
		<tag k="ssr:stedsnr" v="197004" />
	</node>
	<node id="9892659980" lat="66.1623139" lon="13.1182612" version="1" timestamp="2022-07-17T05:03:31Z" changeset="123708051" uid="3497659" user="NKA">
		<tag k="name" v="Myrvang" />
		<tag k="place" v="farm" />
		<tag k="ssr:stedsnr" v="258197" />
	</node>
	<node id="9892659981" lat="65.9781622" lon="12.7835747" version="1" timestamp="2022-07-17T05:03:31Z" changeset="123708051" uid="3497659" user="NKA">
		<tag k="name" v="Kvalnes" />
		<tag k="place" v="hamlet" />
		<tag k="ssr:stedsnr" v="622082" />
	</node>
	<node id="9892659982" lat="66.0154694" lon="12.9231222" version="1" timestamp="2022-07-17T05:03:31Z" changeset="123708051" uid="3497659" user="NKA">
		<tag k="name" v="Sund" />
		<tag k="place" v="farm" />
		<tag k="ssr:stedsnr" v="471507" />
	</node>
	<node id="9892659983" lat="66.0111533" lon="12.955062" version="1" timestamp="2022-07-17T05:03:31Z" changeset="123708051" uid="3497659" user="NKA">
		<tag k="name" v="Nyheim" />
		<tag k="place" v="farm" />
		<tag k="ssr:stedsnr" v="773067" />
	</node>
	<node id="9892659984" lat="66.0198833" lon="12.8899195" version="1" timestamp="2022-07-17T05:03:31Z" changeset="123708051" uid="3497659" user="NKA">
		<tag k="name" v="Naustvollen" />
		<tag k="place" v="farm" />
		<tag k="ssr:stedsnr" v="136147" />
	</node>
	<node id="9892659985" lat="66.2083251" lon="13.383532" version="1" timestamp="2022-07-17T05:03:31Z" changeset="123708051" uid="3497659" user="NKA">
		<tag k="alt_name" v="Breidmo" />
		<tag k="name" v="Breidmo Nedre" />
		<tag k="place" v="farm" />
		<tag k="ssr:stedsnr" v="136088" />
	</node>
	<node id="9892659986" lat="66.1499815" lon="13.0055008" version="1" timestamp="2022-07-17T05:03:31Z" changeset="123708051" uid="3497659" user="NKA">
		<tag k="name" v="Velsvåg" />
		<tag k="place" v="hamlet" />
		<tag k="ssr:stedsnr" v="76188" />
	</node>
	<node id="9892659987" lat="66.0236867" lon="12.9718313" version="1" timestamp="2022-07-17T05:03:31Z" changeset="123708051" uid="3497659" user="NKA">
		<tag k="alt_name" v="Otting" />
		<tag k="name" v="Ottingen" />
		<tag k="place" v="hamlet" />
		<tag k="ssr:stedsnr" v="683004" />
	</node>
	<node id="9892659988" lat="65.9990445" lon="12.9008612" version="1" timestamp="2022-07-17T05:03:31Z" changeset="123708051" uid="3497659" user="NKA">
		<tag k="alt_name" v="Nordre Jystad" />
		<tag k="name" v="Justad" />
		<tag k="place" v="farm" />
		<tag k="ssr:stedsnr" v="86453" />
	</node>
	<node id="9892659989" lat="66.1534525" lon="13.0948087" version="1" timestamp="2022-07-17T05:03:31Z" changeset="123708051" uid="3497659" user="NKA">
		<tag k="name" v="Tryggstad" />
		<tag k="place" v="farm" />
		<tag k="ssr:stedsnr" v="47904" />
	</node>
	<node id="9892659990" lat="66.1088167" lon="13.0812556" version="1" timestamp="2022-07-17T05:03:31Z" changeset="123708051" uid="3497659" user="NKA">
		<tag k="name" v="Tovåshaugen" />
		<tag k="place" v="farm" />
		<tag k="ssr:stedsnr" v="379234" />
	</node>
	<node id="9892659991" lat="66.1526666" lon="13.0683693" version="1" timestamp="2022-07-17T05:03:31Z" changeset="123708051" uid="3497659" user="NKA">
		<tag k="alt_name" v="Ytter Levang" />
		<tag k="name" v="Ytre Låvong" />
		<tag k="place" v="hamlet" />
		<tag k="ssr:stedsnr" v="76200" />
	</node>
	<node id="9892659992" lat="66.1051444" lon="13.0872694" version="1" timestamp="2022-07-17T05:03:31Z" changeset="123708051" uid="3497659" user="NKA">
		<tag k="alt_name" v="Tovås" />
		<tag k="name" v="Tovåsen" />
		<tag k="place" v="farm" />
		<tag k="ssr:stedsnr" v="775354" />
	</node>
	<node id="9892659993" lat="66.0770639" lon="13.0644416" version="1" timestamp="2022-07-17T05:03:31Z" changeset="123708051" uid="3497659" user="NKA">
		<tag k="name" v="Elvebakken" />
		<tag k="place" v="farm" />
		<tag k="ssr:stedsnr" v="926218" />
	</node>
	<node id="9892659994" lat="66.1580347" lon="13.0990315" version="1" timestamp="2022-07-17T05:03:31Z" changeset="123708051" uid="3497659" user="NKA">
		<tag k="name" v="Teigen" />
		<tag k="place" v="farm" />
		<tag k="ssr:stedsnr" v="896924" />
	</node>
	<node id="9892659995" lat="66.0854527" lon="12.723786" version="1" timestamp="2022-07-17T05:03:31Z" changeset="123708051" uid="3497659" user="NKA">
		<tag k="name" v="Vollen" />
		<tag k="place" v="farm" />
		<tag k="ssr:stedsnr" v="411314" />
	</node>
	<node id="9892659996" lat="66.0608388" lon="12.7535193" version="1" timestamp="2022-07-17T05:03:31Z" changeset="123708051" uid="3497659" user="NKA">
		<tag k="alt_name" v="Ulvangen" />
		<tag k="name" v="Ulvang" />
		<tag k="place" v="hamlet" />
		<tag k="ssr:stedsnr" v="501061" />
	</node>
	<node id="9892659997" lat="66.0395778" lon="12.9576389" version="1" timestamp="2022-07-17T05:03:31Z" changeset="123708051" uid="3497659" user="NKA">
		<tag k="name" v="Remme" />
		<tag k="place" v="farm" />
		<tag k="ssr:stedsnr" v="329431" />
	</node>
	<node id="9892659998" lat="66.0755538" lon="13.0554282" version="1" timestamp="2022-07-17T05:03:31Z" changeset="123708051" uid="3497659" user="NKA">
		<tag k="name" v="Tyttbærmoen" />
		<tag k="place" v="farm" />
		<tag k="ssr:stedsnr" v="501070" />
	</node>
	<node id="9892659999" lat="66.0642801" lon="12.7542021" version="1" timestamp="2022-07-17T05:03:31Z" changeset="123708051" uid="3497659" user="NKA">
		<tag k="name" v="Lia" />
		<tag k="place" v="farm" />
		<tag k="ssr:stedsnr" v="561223" />
	</node>
	<node id="9892660000" lat="66.0551354" lon="13.0120233" version="1" timestamp="2022-07-17T05:03:31Z" changeset="123708051" uid="3497659" user="NKA">
		<tag k="name" v="Høgda" />
		<tag k="place" v="farm" />
		<tag k="ssr:stedsnr" v="472648" />
	</node>
	<node id="9892660001" lat="66.05945" lon="12.7396834" version="1" timestamp="2022-07-17T05:03:31Z" changeset="123708051" uid="3497659" user="NKA">
		<tag k="name" v="Haugan" />
		<tag k="place" v="farm" />
		<tag k="ssr:stedsnr" v="137042" />
	</node>
	<node id="9892660002" lat="66.0613065" lon="12.8022939" version="1" timestamp="2022-07-17T05:03:31Z" changeset="123708051" uid="3497659" user="NKA">
		<tag k="name" v="Baklund" />
		<tag k="place" v="farm" />
		<tag k="ssr:stedsnr" v="47767" />
	</node>
	<node id="9892660003" lat="66.103475" lon="13.0783389" version="1" timestamp="2022-07-17T05:03:31Z" changeset="123708051" uid="3497659" user="NKA">
		<tag k="alt_name" v="Engåsjardan" />
		<tag k="name" v="Engåsen" />
		<tag k="place" v="farm" />
		<tag k="ssr:stedsnr" v="318241" />
	</node>
	<node id="9892660004" lat="65.9787711" lon="12.7838398" version="1" timestamp="2022-07-17T05:03:31Z" changeset="123708051" uid="3497659" user="NKA">
		<tag k="name" v="Sørgården" />
		<tag k="place" v="farm" />
		<tag k="ssr:stedsnr" v="894089" />
	</node>
	<node id="9892660005" lat="65.9776928" lon="12.7800018" version="1" timestamp="2022-07-17T05:03:31Z" changeset="123708051" uid="3497659" user="NKA">
		<tag k="name" v="Lien" />
		<tag k="place" v="farm" />
		<tag k="ssr:stedsnr" v="409105" />
	</node>
	<node id="9892660006" lat="66.0431116" lon="12.6947393" version="1" timestamp="2022-07-17T05:03:31Z" changeset="123708051" uid="3497659" user="NKA">
		<tag k="name" v="Skarpvoll" />
		<tag k="place" v="farm" />
		<tag k="ssr:stedsnr" v="532666" />
	</node>
	<node id="9892660007" lat="66.1702868" lon="13.1601361" version="1" timestamp="2022-07-17T05:03:31Z" changeset="123708051" uid="3497659" user="NKA">
		<tag k="name" v="Gullemoen" />
		<tag k="place" v="farm" />
		<tag k="ssr:stedsnr" v="46916" />
	</node>
	<node id="9892660008" lat="66.0647352" lon="13.0502752" version="1" timestamp="2022-07-17T05:03:31Z" changeset="123708051" uid="3497659" user="NKA">
		<tag k="alt_name" v="Langfors" />
		<tag k="name" v="Langforsen" />
		<tag k="place" v="farm" />
		<tag k="ssr:stedsnr" v="440065" />
	</node>
	<node id="9892660009" lat="66.0447014" lon="12.7010718" version="1" timestamp="2022-07-17T05:03:31Z" changeset="123708051" uid="3497659" user="NKA">
		<tag k="name" v="Skutvik" />
		<tag k="place" v="farm" />
		<tag k="ssr:stedsnr" v="897631" />
	</node>
	<node id="9892660010" lat="66.088275" lon="12.7258495" version="1" timestamp="2022-07-17T05:03:31Z" changeset="123708051" uid="3497659" user="NKA">
		<tag k="name" v="Ytre-Sjøvei" />
		<tag k="place" v="farm" />
		<tag k="ssr:stedsnr" v="532306" />
	</node>
	<node id="9892660011" lat="66.0749361" lon="13.0161696" version="1" timestamp="2022-07-17T05:03:31Z" changeset="123708051" uid="3497659" user="NKA">
		<tag k="name" v="Stien" />
		<tag k="place" v="farm" />
		<tag k="ssr:stedsnr" v="532824" />
	</node>
	<node id="9892660012" lat="65.9802022" lon="12.7915915" version="1" timestamp="2022-07-17T05:03:31Z" changeset="123708051" uid="3497659" user="NKA">
		<tag k="name" v="Nyphaugen" />
		<tag k="place" v="farm" />
		<tag k="ssr:stedsnr" v="773084" />
	</node>
	<node id="9892660013" lat="66.07795" lon="12.9426445" version="1" timestamp="2022-07-17T05:03:31Z" changeset="123708051" uid="3497659" user="NKA">
		<tag k="name" v="Meåsen" />
		<tag k="place" v="locality" />
		<tag k="ssr:stedsnr" v="956221" />
	</node>
	<node id="9892660014" lat="66.0753878" lon="13.0226377" version="1" timestamp="2022-07-17T05:03:31Z" changeset="123708051" uid="3497659" user="NKA">
		<tag k="name" v="Nord-Osen" />
		<tag k="place" v="farm" />
		<tag k="ssr:stedsnr" v="290796" />
	</node>
	<node id="9892660015" lat="66.0505361" lon="12.7790888" version="1" timestamp="2022-07-17T05:03:31Z" changeset="123708051" uid="3497659" user="NKA">
		<tag k="name" v="Åvik" />
		<tag k="place" v="farm" />
		<tag k="ssr:stedsnr" v="47626" />
	</node>
	<node id="9892660016" lat="66.0705763" lon="12.8881955" version="1" timestamp="2022-07-17T05:03:31Z" changeset="123708051" uid="3497659" user="NKA">
		<tag k="name" v="Åsbakken" />
		<tag k="place" v="farm" />
		<tag k="ssr:stedsnr" v="957864" />
	</node>
	<node id="9892660017" lat="66.0360834" lon="12.9779084" version="1" timestamp="2022-07-17T05:03:31Z" changeset="123708051" uid="3497659" user="NKA">
		<tag k="name" v="Vassmyra" />
		<tag k="place" v="farm" />
		<tag k="ssr:stedsnr" v="804025" />
	</node>
	<node id="9892660018" lat="66.0736972" lon="13.0220112" version="1" timestamp="2022-07-17T05:03:31Z" changeset="123708051" uid="3497659" user="NKA">
		<tag k="name" v="Sør-Osen" />
		<tag k="place" v="farm" />
		<tag k="ssr:stedsnr" v="290795" />
	</node>
	<node id="9892660019" lat="66.0801814" lon="12.911497" version="1" timestamp="2022-07-17T05:03:31Z" changeset="123708051" uid="3497659" user="NKA">
		<tag k="alt_name" v="Simsø" />
		<tag k="name" v="Skjellstaden" />
		<tag k="place" v="farm" />
		<tag k="ssr:stedsnr" v="727250" />
	</node>
	<node id="9892660020" lat="66.0536941" lon="12.7713492" version="1" timestamp="2022-07-17T05:03:31Z" changeset="123708051" uid="3497659" user="NKA">
		<tag k="name" v="Sirijorda" />
		<tag k="old_name" v="Sirijorden" />
		<tag k="place" v="farm" />
		<tag k="ssr:stedsnr" v="1072453" />
	</node>
	<node id="6130516909" lat="66.0345377" lon="12.7219837" version="1" timestamp="2018-12-11T11:40:19Z" changeset="65372935" uid="7543313" user="ENTUR Fredrik Edler" />
	<node id="272276601" lat="66.0393761" lon="12.7194572" version="5" timestamp="2017-09-05T12:01:21Z" changeset="51747834" uid="5732597" user="ENTUR Johan Wiklund" />
	<node id="272276602" lat="66.0378261" lon="12.7202699" version="6" timestamp="2018-12-11T11:41:01Z" changeset="65372935" uid="7543313" user="ENTUR Fredrik Edler" />
	<node id="2167396200" lat="66.0386419" lon="12.7198309" version="2" timestamp="2017-09-05T12:02:18Z" changeset="51747834" uid="5732597" user="ENTUR Johan Wiklund" />
	<node id="5081412271" lat="66.0415225" lon="12.7183297" version="1" timestamp="2017-09-05T11:57:07Z" changeset="51747705" uid="5732597" user="ENTUR Johan Wiklund" />
	<node id="5959891703" lat="66.1900134" lon="13.4335402" version="1" timestamp="2018-10-05T20:57:12Z" changeset="63243237" uid="3296383" user="Reitstoen_import" />
	<node id="5959892954" lat="66.1898398" lon="13.4316967" version="1" timestamp="2018-10-05T20:57:29Z" changeset="63243237" uid="3296383" user="Reitstoen_import" />
	<node id="5959894553" lat="66.1900925" lon="13.4334965" version="1" timestamp="2018-10-05T20:57:52Z" changeset="63243237" uid="3296383" user="Reitstoen_import" />
	<node id="5959894670" lat="66.1902306" lon="13.4332579" version="1" timestamp="2018-10-05T20:57:54Z" changeset="63243237" uid="3296383" user="Reitstoen_import" />
	<node id="5959894713" lat="66.1901845" lon="13.4306917" version="1" timestamp="2018-10-05T20:57:54Z" changeset="63243237" uid="3296383" user="Reitstoen_import" />
	<node id="5959894714" lat="66.190127" lon="13.43095" version="1" timestamp="2018-10-05T20:57:54Z" changeset="63243237" uid="3296383" user="Reitstoen_import" />
	<node id="5959894715" lat="66.1902264" lon="13.4305948" version="1" timestamp="2018-10-05T20:57:54Z" changeset="63243237" uid="3296383" user="Reitstoen_import" />
	<node id="5959894837" lat="66.1898187" lon="13.4317638" version="1" timestamp="2018-10-05T20:57:56Z" changeset="63243237" uid="3296383" user="Reitstoen_import" />
	<node id="5959894838" lat="66.1897639" lon="13.4319745" version="1" timestamp="2018-10-05T20:57:56Z" changeset="63243237" uid="3296383" user="Reitstoen_import" />
	<node id="5959894839" lat="66.1894077" lon="13.432605" version="1" timestamp="2018-10-05T20:57:56Z" changeset="63243237" uid="3296383" user="Reitstoen_import" />
	<node id="5959894840" lat="66.1893701" lon="13.432808" version="1" timestamp="2018-10-05T20:57:56Z" changeset="63243237" uid="3296383" user="Reitstoen_import" />
	<node id="5959894841" lat="66.1896854" lon="13.4322088" version="1" timestamp="2018-10-05T20:57:56Z" changeset="63243237" uid="3296383" user="Reitstoen_import" />
	<node id="5959894843" lat="66.1893711" lon="13.4338955" version="1" timestamp="2018-10-05T20:57:56Z" changeset="63243237" uid="3296383" user="Reitstoen_import" />
	<node id="5959894844" lat="66.1894144" lon="13.434002" version="1" timestamp="2018-10-05T20:57:56Z" changeset="63243237" uid="3296383" user="Reitstoen_import" />
	<node id="5959894845" lat="66.1893591" lon="13.4329519" version="1" timestamp="2018-10-05T20:57:56Z" changeset="63243237" uid="3296383" user="Reitstoen_import" />
	<node id="5959894846" lat="66.1893608" lon="13.4338273" version="1" timestamp="2018-10-05T20:57:56Z" changeset="63243237" uid="3296383" user="Reitstoen_import" />
	<node id="5959894906" lat="66.1904022" lon="13.4320282" version="1" timestamp="2018-10-05T20:57:58Z" changeset="63243237" uid="3296383" user="Reitstoen_import" />
	<node id="5959895228" lat="66.1913876" lon="13.4297727" version="1" timestamp="2018-10-05T20:58:01Z" changeset="63243237" uid="3296383" user="Reitstoen_import" />
	<node id="5959895781" lat="66.1902293" lon="13.4333064" version="1" timestamp="2018-10-05T20:58:10Z" changeset="63243237" uid="3296383" user="Reitstoen_import" />
	<node id="5959896015" lat="66.1894944" lon="13.4340919" version="1" timestamp="2018-10-05T20:58:14Z" changeset="63243237" uid="3296383" user="Reitstoen_import" />
	<node id="5959896016" lat="66.1894641" lon="13.434086" version="1" timestamp="2018-10-05T20:58:14Z" changeset="63243237" uid="3296383" user="Reitstoen_import" />
	<node id="5959896017" lat="66.189725" lon="13.4339688" version="1" timestamp="2018-10-05T20:58:14Z" changeset="63243237" uid="3296383" user="Reitstoen_import" />
	<node id="5959896018" lat="66.1896418" lon="13.4339971" version="1" timestamp="2018-10-05T20:58:14Z" changeset="63243237" uid="3296383" user="Reitstoen_import" />
	<node id="5959896019" lat="66.1915957" lon="13.429519" version="1" timestamp="2018-10-05T20:58:14Z" changeset="63243237" uid="3296383" user="Reitstoen_import" />
	<node id="5959896020" lat="66.1899472" lon="13.43366" version="1" timestamp="2018-10-05T20:58:14Z" changeset="63243237" uid="3296383" user="Reitstoen_import" />
	<node id="5959896021" lat="66.1895482" lon="13.4340195" version="1" timestamp="2018-10-05T20:58:14Z" changeset="63243237" uid="3296383" user="Reitstoen_import" />
	<node id="5959896022" lat="66.1895228" lon="13.4340691" version="1" timestamp="2018-10-05T20:58:14Z" changeset="63243237" uid="3296383" user="Reitstoen_import" />
	<node id="5959896023" lat="66.1896392" lon="13.4338558" version="1" timestamp="2018-10-05T20:58:14Z" changeset="63243237" uid="3296383" user="Reitstoen_import" />
	<node id="5959896024" lat="66.1896095" lon="13.4338605" version="1" timestamp="2018-10-05T20:58:14Z" changeset="63243237" uid="3296383" user="Reitstoen_import" />
	<node id="5959896082" lat="66.1906451" lon="13.4297557" version="1" timestamp="2018-10-05T20:58:15Z" changeset="63243237" uid="3296383" user="Reitstoen_import" />
	<node id="5959897137" lat="66.1903926" lon="13.4328244" version="1" timestamp="2018-10-05T20:58:31Z" changeset="63243237" uid="3296383" user="Reitstoen_import" />
	<node id="5959897138" lat="66.1902977" lon="13.4330315" version="1" timestamp="2018-10-05T20:58:31Z" changeset="63243237" uid="3296383" user="Reitstoen_import" />
	<node id="5959897139" lat="66.1902743" lon="13.4330931" version="1" timestamp="2018-10-05T20:58:31Z" changeset="63243237" uid="3296383" user="Reitstoen_import" />
	<node id="5959898310" lat="66.1904987" lon="13.4301909" version="1" timestamp="2018-10-05T20:58:47Z" changeset="63243237" uid="3296383" user="Reitstoen_import" />
	<node id="5959898311" lat="66.1903659" lon="13.4304273" version="1" timestamp="2018-10-05T20:58:47Z" changeset="63243237" uid="3296383" user="Reitstoen_import" />
	<node id="5959898312" lat="66.1900154" lon="13.4313765" version="1" timestamp="2018-10-05T20:58:47Z" changeset="63243237" uid="3296383" user="Reitstoen_import" />
	<node id="5959898313" lat="66.1901092" lon="13.4310918" version="1" timestamp="2018-10-05T20:58:47Z" changeset="63243237" uid="3296383" user="Reitstoen_import" />
	<node id="5959898314" lat="66.1900776" lon="13.4312177" version="1" timestamp="2018-10-05T20:58:47Z" changeset="63243237" uid="3296383" user="Reitstoen_import" />
	<node id="5959898315" lat="66.1903025" lon="13.4304881" version="1" timestamp="2018-10-05T20:58:47Z" changeset="63243237" uid="3296383" user="Reitstoen_import" />
	<node id="5959898337" lat="66.1904614" lon="13.4317321" version="1" timestamp="2018-10-05T20:58:48Z" changeset="63243237" uid="3296383" user="Reitstoen_import" />
	<node id="5959898338" lat="66.190523" lon="13.4315767" version="1" timestamp="2018-10-05T20:58:48Z" changeset="63243237" uid="3296383" user="Reitstoen_import" />
	<node id="5959898339" lat="66.1904102" lon="13.4319485" version="1" timestamp="2018-10-05T20:58:48Z" changeset="63243237" uid="3296383" user="Reitstoen_import" />
	<node id="5959898340" lat="66.1907753" lon="13.431182" version="1" timestamp="2018-10-05T20:58:48Z" changeset="63243237" uid="3296383" user="Reitstoen_import" />
	<node id="5959898341" lat="66.1908086" lon="13.4311571" version="1" timestamp="2018-10-05T20:58:48Z" changeset="63243237" uid="3296383" user="Reitstoen_import" />
	<node id="5959898342" lat="66.190594" lon="13.4314453" version="1" timestamp="2018-10-05T20:58:48Z" changeset="63243237" uid="3296383" user="Reitstoen_import" />
	<node id="5959898343" lat="66.1907012" lon="13.4313178" version="1" timestamp="2018-10-05T20:58:48Z" changeset="63243237" uid="3296383" user="Reitstoen_import" />
	<node id="5959898344" lat="66.1904044" lon="13.4327582" version="1" timestamp="2018-10-05T20:58:48Z" changeset="63243237" uid="3296383" user="Reitstoen_import" />
	<node id="5959898345" lat="66.190406" lon="13.4326788" version="1" timestamp="2018-10-05T20:58:48Z" changeset="63243237" uid="3296383" user="Reitstoen_import" />
	<node id="5959898360" lat="66.1915708" lon="13.4295772" version="1" timestamp="2018-10-05T20:58:48Z" changeset="63243237" uid="3296383" user="Reitstoen_import" />
	<node id="5959898361" lat="66.1915427" lon="13.4295945" version="1" timestamp="2018-10-05T20:58:48Z" changeset="63243237" uid="3296383" user="Reitstoen_import" />
	<node id="5959898362" lat="66.1915015" lon="13.4296925" version="1" timestamp="2018-10-05T20:58:48Z" changeset="63243237" uid="3296383" user="Reitstoen_import" />
	<node id="5959898363" lat="66.1914758" lon="13.4297223" version="1" timestamp="2018-10-05T20:58:48Z" changeset="63243237" uid="3296383" user="Reitstoen_import" />
	<node id="5959898364" lat="66.1914445" lon="13.4297234" version="1" timestamp="2018-10-05T20:58:48Z" changeset="63243237" uid="3296383" user="Reitstoen_import" />
	<node id="5959898365" lat="66.1913453" lon="13.429873" version="1" timestamp="2018-10-05T20:58:48Z" changeset="63243237" uid="3296383" user="Reitstoen_import" />
	<node id="5959899413" lat="66.1895722" lon="13.4324056" version="1" timestamp="2018-10-05T20:59:03Z" changeset="63243237" uid="3296383" user="Reitstoen_import" />
	<node id="5959899657" lat="66.1910556" lon="13.4293467" version="1" timestamp="2018-10-05T20:59:08Z" changeset="63243237" uid="3296383" user="Reitstoen_import" />
	<node id="5959899658" lat="66.1908752" lon="13.4294008" version="1" timestamp="2018-10-05T20:59:08Z" changeset="63243237" uid="3296383" user="Reitstoen_import" />
	<node id="5959899659" lat="66.1910281" lon="13.4293764" version="1" timestamp="2018-10-05T20:59:08Z" changeset="63243237" uid="3296383" user="Reitstoen_import" />
	<node id="5959899660" lat="66.1906858" lon="13.4296526" version="1" timestamp="2018-10-05T20:59:08Z" changeset="63243237" uid="3296383" user="Reitstoen_import" />
	<node id="5959899661" lat="66.1908471" lon="13.4294323" version="1" timestamp="2018-10-05T20:59:08Z" changeset="63243237" uid="3296383" user="Reitstoen_import" />
	<node id="5959899701" lat="66.1912134" lon="13.4305284" version="1" timestamp="2018-10-05T20:59:09Z" changeset="63243237" uid="3296383" user="Reitstoen_import" />
	<node id="5959899702" lat="66.1912075" lon="13.430599" version="1" timestamp="2018-10-05T20:59:09Z" changeset="63243237" uid="3296383" user="Reitstoen_import" />
	<node id="5959899703" lat="66.1912094" lon="13.4303133" version="1" timestamp="2018-10-05T20:59:09Z" changeset="63243237" uid="3296383" user="Reitstoen_import" />
	<node id="5959899704" lat="66.1910947" lon="13.4309535" version="1" timestamp="2018-10-05T20:59:09Z" changeset="63243237" uid="3296383" user="Reitstoen_import" />
	<node id="5959899705" lat="66.1909878" lon="13.431126" version="1" timestamp="2018-10-05T20:59:09Z" changeset="63243237" uid="3296383" user="Reitstoen_import" />
	<node id="5959899706" lat="66.1911803" lon="13.4307337" version="1" timestamp="2018-10-05T20:59:09Z" changeset="63243237" uid="3296383" user="Reitstoen_import" />
	<node id="5959899707" lat="66.1911426" lon="13.4308521" version="1" timestamp="2018-10-05T20:59:09Z" changeset="63243237" uid="3296383" user="Reitstoen_import" />
	<node id="5959899708" lat="66.1909611" lon="13.4311503" version="1" timestamp="2018-10-05T20:59:09Z" changeset="63243237" uid="3296383" user="Reitstoen_import" />
	<node id="5959901448" lat="66.1915933" lon="13.4295363" version="1" timestamp="2018-10-05T20:59:38Z" changeset="63243237" uid="3296383" user="Reitstoen_import" />
	<node id="5959901722" lat="66.1901885" lon="13.4334112" version="1" timestamp="2018-10-05T20:59:44Z" changeset="63243237" uid="3296383" user="Reitstoen_import" />
	<node id="5959901793" lat="66.190565" lon="13.430038" version="1" timestamp="2018-10-05T20:59:46Z" changeset="63243237" uid="3296383" user="Reitstoen_import" />
	<node id="5959901977" lat="66.1912422" lon="13.4301849" version="1" timestamp="2018-10-05T20:59:50Z" changeset="63243237" uid="3296383" user="Reitstoen_import" />
	<node id="5959902086" lat="66.1908697" lon="13.4311397" version="1" timestamp="2018-10-05T20:59:50Z" changeset="63243237" uid="3296383" user="Reitstoen_import" />
	<node id="5959902830" lat="66.1910754" lon="13.4293031" version="1" timestamp="2018-10-05T21:00:07Z" changeset="63243237" uid="3296383" user="Reitstoen_import" />
	<way id="521526917" version="6" timestamp="2022-01-24T06:56:00Z" changeset="116526664" uid="3497659" user="NKA">
		<tag k="bridge" v="yes" />
		<tag k="bridge:structure" v="cable-stayed" />
		<tag k="highway" v="primary" />
		<tag k="layer" v="1" />
		<tag k="maxspeed" v="80" />
		<tag k="name" v="Helgelandsbrua" />
		<tag k="oneway" v="no" />
		<tag k="ref" v="17" />
		<tag k="ssr:stedsnr" v="815789" />
		<tag k="surface" v="asphalt" />
		<nd ref="6130516909" />
		<nd ref="272276602" />
		<nd ref="2167396200" />
		<nd ref="272276601" />
		<nd ref="5081412271" />
	</way>
	<way id="631123776" version="1" timestamp="2018-10-05T21:00:56Z" changeset="63243308" uid="3296383" user="Reitstoen_import">
		<tag k="source" v="Kartverket N50" />
		<tag k="source:date" v="2009-07-04" />
		<nd ref="5959891703" />
		<nd ref="5959896020" />
		<nd ref="5959896017" />
		<nd ref="5959896018" />
		<nd ref="5959896023" />
		<nd ref="5959896024" />
		<nd ref="5959896021" />
		<nd ref="5959896022" />
		<nd ref="5959896015" />
		<nd ref="5959896016" />
		<nd ref="5959894844" />
		<nd ref="5959894843" />
		<nd ref="5959894846" />
		<nd ref="5959894845" />
		<nd ref="5959894840" />
		<nd ref="5959894839" />
		<nd ref="5959899413" />
		<nd ref="5959894841" />
		<nd ref="5959894838" />
		<nd ref="5959894837" />
		<nd ref="5959892954" />
		<nd ref="5959898312" />
		<nd ref="5959898314" />
		<nd ref="5959898313" />
		<nd ref="5959894714" />
		<nd ref="5959894713" />
		<nd ref="5959894715" />
		<nd ref="5959898315" />
		<nd ref="5959898311" />
		<nd ref="5959898310" />
		<nd ref="5959901793" />
		<nd ref="5959896082" />
		<nd ref="5959899660" />
		<nd ref="5959899661" />
		<nd ref="5959899658" />
		<nd ref="5959899659" />
		<nd ref="5959899657" />
		<nd ref="5959902830" />
	</way>
	<way id="631123777" version="1" timestamp="2018-10-05T21:00:56Z" changeset="63243308" uid="3296383" user="Reitstoen_import">
		<tag k="source" v="Kartverket N50" />
		<tag k="source:date" v="2009-07-04" />
		<nd ref="5959894670" />
		<nd ref="5959895781" />
		<nd ref="5959901722" />
		<nd ref="5959894553" />
		<nd ref="5959891703" />
	</way>
	<way id="631123778" version="1" timestamp="2018-10-05T21:00:57Z" changeset="63243308" uid="3296383" user="Reitstoen_import">
		<tag k="source" v="Kartverket N50" />
		<tag k="source:date" v="2009-07-04" />
		<nd ref="5959896019" />
		<nd ref="5959901448" />
		<nd ref="5959898360" />
		<nd ref="5959898361" />
		<nd ref="5959898362" />
		<nd ref="5959898363" />
		<nd ref="5959898364" />
		<nd ref="5959895228" />
		<nd ref="5959898365" />
		<nd ref="5959901977" />
		<nd ref="5959899703" />
		<nd ref="5959899701" />
		<nd ref="5959899702" />
		<nd ref="5959899706" />
		<nd ref="5959899707" />
		<nd ref="5959899704" />
		<nd ref="5959899705" />
		<nd ref="5959899708" />
		<nd ref="5959902086" />
		<nd ref="5959898341" />
		<nd ref="5959898340" />
		<nd ref="5959898343" />
		<nd ref="5959898342" />
		<nd ref="5959898338" />
		<nd ref="5959898337" />
		<nd ref="5959898339" />
		<nd ref="5959894906" />
		<nd ref="5959898345" />
		<nd ref="5959898344" />
		<nd ref="5959897137" />
		<nd ref="5959897138" />
		<nd ref="5959897139" />
		<nd ref="5959894670" />
	</way>
	<way id="631123779" version="1" timestamp="2018-10-05T21:00:57Z" changeset="63243308" uid="3296383" user="Reitstoen_import">
		<nd ref="5959902830" />
		<nd ref="5959896019" />
	</way>
	<relation id="8779645" version="2" timestamp="2018-10-07T16:01:13Z" changeset="63283056" uid="3296383" user="Reitstoen_import">
		<tag k="alt_name" v="Svartvatnet" />
		<tag k="ele" v="107" />
		<tag k="name" v="Lille Tenvatn" />
		<tag k="natural" v="water" />
		<tag k="ssr:stedsnr" v="137409" />
		<tag k="type" v="multipolygon" />
		<tag k="water" v="lake" />
		<member type="way" ref="631123778" role="outer" />
		<member type="way" ref="631123777" role="outer" />
		<member type="way" ref="631123776" role="outer" />
		<member type="way" ref="631123779" role="outer" />
	</relation>
</osm>
