<?xml version="1.0" encoding="UTF-8"?>
<osm version="0.6" generator="osmapis">
	<node lat="58.35661111263646" lon="8.157424996137568" id="-24506">
		<tag k="name" v="Natveitdalen" />
		<tag k="place" v="isolated_dwelling" />
		<tag k="ssr:stedsnr" v="361" />
	</node>
	<node lat="58.42114166318232" lon="8.287897221101643" id="-24508">
		<tag k="name" v="Rønningen" />
		<tag k="place" v="farm" />
		<tag k="ssr:stedsnr" v="404" />
	</node>
	<node lat="58.40118889294291" lon="8.11096389390357" id="-24514">
		<tag k="name" v="Røli" />
		<tag k="place" v="farm" />
		<tag k="ssr:stedsnr" v="448" />
	</node>
	<node lat="58.2772530860457" lon="8.11835780183116" id="-24516">
		<tag k="fixme" v="consider place=hamlet" />
		<tag k="name" v="Følsvann" />
		<tag k="place" v="farm" />
		<tag k="ssr:stedsnr" v="747" />
	</node>
	<node lat="58.444661110021784" lon="8.105675003909996" id="-24589">
		<tag k="name" v="Lund" />
		<tag k="place" v="farm" />
		<tag k="ssr:stedsnr" v="43524" />
	</node>
	<node lat="58.360622224645475" lon="8.075511105741741" id="-24628">
		<tag k="amenity" v="school" />
		<tag k="name" v="Fjelltun skole" />
		<tag k="ssr:stedsnr" v="44675" />
	</node>
	<node lat="58.30322499580201" lon="8.192544452403077" id="-24686">
		<tag k="name" v="Varpelia" />
		<tag k="place" v="farm" />
		<tag k="ssr:stedsnr" v="61277" />
	</node>
	<node lat="58.39605833577881" lon="8.108286113473373" id="-24688">
		<tag k="name" v="Buli" />
		<tag k="place" v="farm" />
		<tag k="ssr:stedsnr" v="61425" />
	</node>
	<node lat="58.49317260166469" lon="8.345169967407342" id="-24689">
		<tag k="name" v="Stien" />
		<tag k="place" v="farm" />
		<tag k="ssr:stedsnr" v="61429" />
	</node>
	<node lat="58.433149996597216" lon="8.114216670029714" id="-24692">
		<tag k="fixme" v="consider place=hamlet" />
		<tag k="name" v="Sørli" />
		<tag k="place" v="farm" />
		<tag k="ssr:stedsnr" v="61371" />
	</node>
	<node lat="58.5017472256872" lon="8.260691666395237" id="-24694">
		<tag k="name" v="Lande" />
		<tag k="place" v="farm" />
		<tag k="ssr:stedsnr" v="62011" />
	</node>
	<node lat="58.51584444023051" lon="8.025574995026581" id="-24696">
		<tag k="name" v="Fidjeland" />
		<tag k="place" v="farm" />
		<tag k="ssr:stedsnr" v="62422" />
	</node>
	<node lat="58.364980558329776" lon="8.087450006196244" id="-24703">
		<tag k="fixme" v="consider place=hamlet" />
		<tag k="name" v="Sirekilen" />
		<tag k="place" v="farm" />
		<tag k="ssr:stedsnr" v="243082" />
	</node>
	<node lat="58.32029444246642" lon="8.069177784879988" id="-24704">
		<tag k="fixme" v="consider place=hamlet" />
		<tag k="name" v="Steinsland" />
		<tag k="place" v="farm" />
		<tag k="ssr:stedsnr" v="243099" />
	</node>
	<node lat="58.51971666383055" lon="8.133333330665454" id="-24705">
		<tag k="fixme" v="consider place=hamlet" />
		<tag k="name" v="Ås" />
		<tag k="place" v="farm" />
		<tag k="ssr:stedsnr" v="243201" />
	</node>
	<node lat="58.33283116708771" lon="8.340489303523768" id="-24706">
		<tag k="name" v="Mannfallmyra" />
		<tag k="place" v="farm" />
		<tag k="ssr:stedsnr" v="243248" />
	</node>
	<node lat="58.3249249976753" lon="8.206680550770622" id="-24707">
		<tag k="name" v="Havane" />
		<tag k="place" v="farm" />
		<tag k="ssr:stedsnr" v="243254" />
	</node>
	<node lat="58.30959166697256" lon="8.231666660892856" id="-24708">
		<tag k="alt_name" v="Øydna" />
		<tag k="name" v="Øyda" />
		<tag k="place" v="farm" />
		<tag k="ssr:stedsnr" v="243269" />
	</node>
	<node lat="58.30238611040926" lon="8.229488892777965" id="-24709">
		<tag k="fixme" v="consider place=hamlet" />
		<tag k="name" v="Tveide" />
		<tag k="place" v="farm" />
		<tag k="ssr:stedsnr" v="243280" />
	</node>
	<node lat="58.43971389056445" lon="8.309752778544635" id="-24715">
		<tag k="alt_name" v="Sundtjørn" />
		<tag k="fixme" v="consider place=hamlet" />
		<tag k="name" v="Sundtjønn" />
		<tag k="place" v="farm" />
		<tag k="ssr:stedsnr" v="243388" />
	</node>
	<node lat="58.361505558836555" lon="8.24961388441296" id="-24716">
		<tag k="fixme" v="consider place=hamlet" />
		<tag k="name" v="Hagestad" />
		<tag k="place" v="farm" />
		<tag k="ssr:stedsnr" v="243343" />
	</node>
	<node lat="58.47571944222612" lon="8.189277781841266" id="-24721">
		<tag k="name" v="Lia" />
		<tag k="place" v="isolated_dwelling" />
		<tag k="ssr:stedsnr" v="243460" />
	</node>
	<node lat="58.321294448526324" lon="8.1434472198649" id="-24766">
		<tag k="name" v="Stafjell" />
		<tag k="place" v="locality" />
		<tag k="ssr:stedsnr" v="303254" />
	</node>
	<node lat="58.2894888920305" lon="8.176247227991636" id="-24840">
		<tag k="fixme" v="consider place=hamlet" />
		<tag k="name" v="Rugsland" />
		<tag k="place" v="farm" />
		<tag k="ssr:stedsnr" v="121317" />
	</node>
	<node lat="58.38195833173014" lon="8.168291666586894" id="-24841">
		<tag k="fixme" v="consider place=hamlet" />
		<tag k="name" v="Refstad" />
		<tag k="place" v="farm" />
		<tag k="ssr:stedsnr" v="121328" />
	</node>
	<node lat="58.34325833155211" lon="8.232183334777684" id="-24842">
		<tag k="alt_name" v="Ytterhus" />
		<tag k="name" v="Ydrehus" />
		<tag k="place" v="farm" />
		<tag k="ssr:stedsnr" v="121367" />
	</node>
	<node lat="58.34809166325406" lon="8.238588893397507" id="-24843">
		<tag k="fixme" v="consider place=hamlet" />
		<tag k="name" v="Årdalen" />
		<tag k="place" v="farm" />
		<tag k="ssr:stedsnr" v="121368" />
	</node>
	<node lat="58.3069833294083" lon="8.256949998565185" id="-24846">
		<tag k="name" v="Mofia" />
		<tag k="place" v="farm" />
		<tag k="ssr:stedsnr" v="121287" />
	</node>
	<node lat="58.459016663283485" lon="8.265841662540263" id="-24847">
		<tag k="fixme" v="consider place=hamlet" />
		<tag k="name" v="Væting" />
		<tag k="old_name" v="Væling" />
		<tag k="place" v="farm" />
		<tag k="ssr:stedsnr" v="121463" />
	</node>
	<node lat="58.5098333310941" lon="8.333075004399618" id="-24849">
		<tag k="name" v="Bua" />
		<tag k="place" v="farm" />
		<tag k="ssr:stedsnr" v="122010" />
	</node>
	<node lat="58.44595000135494" lon="8.083969449546345" id="-24918">
		<tag k="name" v="Fredheim" />
		<tag k="ssr:stedsnr" v="165515" />
		<tag k="tourism" v="guest_house" />
	</node>
	<node lat="58.37176944756411" lon="8.05477499454012" id="-24953">
		<tag k="name" v="Grunnetjønn" />
		<tag k="place" v="farm" />
		<tag k="ssr:stedsnr" v="182067" />
	</node>
	<node lat="58.358810216709536" lon="8.056290706268191" id="-24954">
		<tag k="fixme" v="consider place=hamlet" />
		<tag k="name" v="Dale" />
		<tag k="place" v="farm" />
		<tag k="ssr:stedsnr" v="182070" />
	</node>
	<node lat="58.4497361079327" lon="8.086319445386335" id="-24955">
		<tag k="fixme" v="consider place=hamlet" />
		<tag k="name" v="Haugland" />
		<tag k="place" v="farm" />
		<tag k="ssr:stedsnr" v="182209" />
	</node>
	<node lat="58.28583333052507" lon="8.18641111148499" id="-24956">
		<tag k="fixme" v="consider place=hamlet" />
		<tag k="name" v="Have" />
		<tag k="place" v="farm" />
		<tag k="ssr:stedsnr" v="182303" />
	</node>
	<node lat="58.48909166629441" lon="8.353675006119929" id="-24961">
		<tag k="fixme" v="consider place=hamlet" />
		<tag k="name" v="Engebu" />
		<tag k="place" v="farm" />
		<tag k="ssr:stedsnr" v="182428" />
	</node>
	<node lat="58.32628889002039" lon="8.212847214747997" id="-24975">
		<tag k="name" v="Svåberg" />
		<tag k="place" v="farm" />
		<tag k="ssr:stedsnr" v="210394" />
	</node>
	<node lat="58.34220555746531" lon="8.225855556191286" id="-24976">
		<tag k="name" v="Stykket" />
		<tag k="place" v="farm" />
		<tag k="ssr:stedsnr" v="210396" />
	</node>
	<node lat="58.34370833642311" lon="8.290011104607157" id="-24978">
		<tag k="name" v="Larsbakk" />
		<tag k="place" v="locality" />
		<tag k="ssr:stedsnr" v="210683" />
	</node>
	<node lat="58.523616669082394" lon="8.031516665925048" id="-25086">
		<tag k="name" v="Monen" />
		<tag k="place" v="farm" />
		<tag k="ssr:stedsnr" v="232648" />
	</node>
	<node lat="58.49169166809371" lon="8.019424995574335" id="-25096">
		<tag k="fixme" v="consider place=hamlet" />
		<tag k="name" v="Eveli" />
		<tag k="place" v="farm" />
		<tag k="ssr:stedsnr" v="242180" />
	</node>
	<node lat="58.448588884866254" lon="8.22634721427629" id="-25105">
		<tag k="fixme" v="consider place=hamlet" />
		<tag k="name" v="Heimdal" />
		<tag k="place" v="farm" />
		<tag k="ssr:stedsnr" v="243496" />
	</node>
	<node lat="58.45381944138" lon="8.24855554800973" id="-25106">
		<tag k="name" v="Hasllia" />
		<tag k="place" v="farm" />
		<tag k="ssr:stedsnr" v="243499" />
	</node>
	<node lat="58.578633336614686" lon="8.147247227655413" id="-25110">
		<tag k="name" v="Vegusdal" />
		<tag k="place" v="hamlet" />
		<tag k="ssr:stedsnr" v="244188" />
	</node>
	<node lat="58.258355558798506" lon="8.209952782328209" id="-25176">
		<tag k="name" v="Møretrå" />
		<tag k="place" v="farm" />
		<tag k="ssr:stedsnr" v="275902" />
	</node>
	<node lat="58.46300277558027" lon="8.21262499890057" id="-25243">
		<tag k="fixme" v="consider place=hamlet" />
		<tag k="name" v="Lunden" />
		<tag k="place" v="farm" />
		<tag k="ssr:stedsnr" v="303477" />
	</node>
	<node lat="58.457977778494744" lon="8.354980555346929" id="-25244">
		<tag k="fixme" v="consider place=hamlet" />
		<tag k="name" v="Lauvåsen" />
		<tag k="place" v="farm" />
		<tag k="ssr:stedsnr" v="303483" />
	</node>
	<node lat="58.26290555127387" lon="8.21255277890395" id="-25245">
		<tag k="fixme" v="consider place=hamlet" />
		<tag k="name" v="Ytre Røynås" />
		<tag k="place" v="farm" />
		<tag k="ssr:stedsnr" v="303711" />
	</node>
	<node lat="58.29030555253051" lon="8.148013889709201" id="-25248">
		<tag k="name" v="Steane" />
		<tag k="place" v="farm" />
		<tag k="ssr:stedsnr" v="304298" />
	</node>
	<node lat="58.598616664613026" lon="8.189408326363273" id="-25253">
		<tag k="fixme" v="consider place=hamlet" />
		<tag k="name" v="Vågsdalen" />
		<tag k="place" v="farm" />
		<tag k="ssr:stedsnr" v="304305" />
	</node>
	<node lat="58.37988888977267" lon="8.19435555017668" id="-25260">
		<tag k="amenity" v="school" />
		<tag k="name" v="Mosfjell skole" />
		<tag k="ssr:stedsnr" v="468359" />
	</node>
	<node lat="58.444499998711095" lon="8.109033334678882" id="-25264">
		<tag k="name" v="Rydland" />
		<tag k="place" v="farm" />
		<tag k="ssr:stedsnr" v="468501" />
	</node>
	<node lat="58.35490555500673" lon="8.184502773332207" id="-25301">
		<tag k="name" v="Eikhola" />
		<tag k="place" v="locality" />
		<tag k="ssr:stedsnr" v="469699" />
	</node>
	<node lat="58.34508333604225" lon="8.065674993272376" id="-25361">
		<tag k="name" v="Eldhuset" />
		<tag k="place" v="isolated_dwelling" />
		<tag k="ssr:stedsnr" v="347772" />
	</node>
	<node lat="58.52591111114176" lon="8.122958335657497" id="-25396">
		<tag k="name" v="Litveit" />
		<tag k="place" v="farm" />
		<tag k="ssr:stedsnr" v="353175" />
	</node>
	<node lat="58.528855551887176" lon="7.943391666468599" id="-25405">
		<tag k="name" v="Øygarden" />
		<tag k="place" v="locality" />
		<tag k="ssr:stedsnr" v="353658" />
	</node>
	<node lat="58.472252777238864" lon="8.068386114780754" id="-25428">
		<tag k="alt_name" v="Tveit" />
		<tag k="fixme" v="consider place=hamlet" />
		<tag k="name" v="Tveit vestre" />
		<tag k="place" v="farm" />
		<tag k="ssr:stedsnr" v="364260" />
	</node>
	<node lat="58.53449166455025" lon="8.233827770071828" id="-25429">
		<tag k="fixme" v="consider place=hamlet" />
		<tag k="name" v="Furholt" />
		<tag k="place" v="farm" />
		<tag k="ssr:stedsnr" v="364219" />
	</node>
	<node lat="58.43088889046585" lon="8.303811111083467" id="-25431">
		<tag k="alt_name" v="Hagen" />
		<tag k="name" v="Haven" />
		<tag k="place" v="farm" />
		<tag k="ssr:stedsnr" v="364407" />
	</node>
	<node lat="58.37937777735011" lon="8.22107500063031" id="-25489">
		<tag k="fixme" v="consider place=hamlet" />
		<tag k="name" v="Østre Mosfjell" />
		<tag k="place" v="farm" />
		<tag k="ssr:stedsnr" v="396797" />
	</node>
	<node lat="58.46343333044961" lon="8.369497225471646" id="-25497">
		<tag k="name" v="Stie (nedre)" />
		<tag k="place" v="farm" />
		<tag k="ssr:stedsnr" v="396834" />
	</node>
	<node lat="58.469880558497806" lon="8.246077784070586" id="-25510">
		<tag k="fixme" v="consider place=hamlet" />
		<tag k="name" v="Ramselia" />
		<tag k="place" v="farm" />
		<tag k="ssr:stedsnr" v="485395" />
	</node>
	<node lat="58.50344166310567" lon="8.115083327338784" id="-25514">
		<tag k="alt_name" v="Håvardstad" />
		<tag k="fixme" v="consider place=hamlet" />
		<tag k="name" v="Håverstad" />
		<tag k="place" v="farm" />
		<tag k="ssr:stedsnr" v="486041" />
	</node>
	<node lat="58.561480558065945" lon="8.203577776226266" id="-25515">
		<tag k="alt_name" v="Breidsåsen" />
		<tag k="fixme" v="consider place=hamlet" />
		<tag k="name" v="Breisåsen" />
		<tag k="place" v="farm" />
		<tag k="ssr:stedsnr" v="486131" />
	</node>
	<node lat="58.53881388585974" lon="8.267397230645063" id="-25519">
		<tag k="alt_name" v="Neset" />
		<tag k="name" v="Plassen" />
		<tag k="place" v="farm" />
		<tag k="ssr:stedsnr" v="486181" />
	</node>
	<node lat="58.536195721410515" lon="7.943291448323568" id="-25554">
		<tag k="fixme" v="consider place=hamlet" />
		<tag k="name" v="Katterås" />
		<tag k="place" v="farm" />
		<tag k="ssr:stedsnr" v="486681" />
	</node>
	<node lat="58.53562222501273" lon="8.06959444110392" id="-25581">
		<tag k="name" v="Der vest" />
		<tag k="place" v="farm" />
		<tag k="ssr:stedsnr" v="414247" />
	</node>
	<node lat="58.396895611956346" lon="8.160767880741362" id="-25600">
		<tag k="name" v="Bjørkelia" />
		<tag k="place" v="locality" />
		<tag k="ssr:stedsnr" v="425418" />
	</node>
	<node lat="58.46937499880252" lon="8.273819437525608" id="-25601">
		<tag k="fixme" v="consider place=hamlet" />
		<tag k="name" v="Løland" />
		<tag k="place" v="farm" />
		<tag k="ssr:stedsnr" v="425445" />
	</node>
	<node lat="58.48032500008942" lon="8.327491671841312" id="-25602">
		<tag k="fixme" v="consider place=hamlet" />
		<tag k="name" v="Suggelia" />
		<tag k="place" v="farm" />
		<tag k="ssr:stedsnr" v="425455" />
	</node>
	<node lat="58.4738694436499" lon="8.297783326697434" id="-25603">
		<tag k="fixme" v="consider place=hamlet" />
		<tag k="name" v="Nesbu" />
		<tag k="place" v="farm" />
		<tag k="ssr:stedsnr" v="425464" />
	</node>
	<node lat="58.37163611325806" lon="8.10565555084047" id="-25604">
		<tag k="fixme" v="consider place=hamlet" />
		<tag k="name" v="Vassbotn" />
		<tag k="place" v="farm" />
		<tag k="ssr:stedsnr" v="425345" />
	</node>
	<node lat="58.278527778753116" lon="8.17078611025484" id="-25606">
		<tag k="fixme" v="consider place=hamlet" />
		<tag k="name" v="Raen" />
		<tag k="place" v="farm" />
		<tag k="ssr:stedsnr" v="425753" />
	</node>
	<node lat="58.593343674087606" lon="8.134437075093299" id="-25612">
		<tag k="fixme" v="consider place=hamlet" />
		<tag k="name" v="Skåre" />
		<tag k="place" v="farm" />
		<tag k="ssr:stedsnr" v="426309" />
	</node>
	<node lat="58.444791667305566" lon="8.110947215644938" id="-25615">
		<tag k="name" v="Oggevatn" />
		<tag k="place" v="hamlet" />
		<tag k="ssr:stedsnr" v="446997" />
	</node>
	<node lat="58.43343055462348" lon="8.114580559008344" id="-25670">
		<tag k="name" v="Bergli" />
		<tag k="place" v="farm" />
		<tag k="ssr:stedsnr" v="468485" />
	</node>
	<node lat="58.47743610954968" lon="8.271002777937893" id="-25684">
		<tag k="name" v="Ytre Øygard" />
		<tag k="place" v="locality" />
		<tag k="ssr:stedsnr" v="468972" />
	</node>
	<node lat="58.31171388763316" lon="8.11707499863982" id="-25688">
		<tag k="name" v="Lille Svaland" />
		<tag k="place" v="farm" />
		<tag k="ssr:stedsnr" v="469261" />
	</node>
	<node lat="58.52624444429856" lon="8.008097227463537" id="-25738">
		<tag k="name" v="Myrane" />
		<tag k="place" v="farm" />
		<tag k="ssr:stedsnr" v="474704" />
	</node>
	<node lat="58.35488610731923" lon="8.076091665586594" id="-25748">
		<tag k="fixme" v="consider place=hamlet" />
		<tag k="name" v="Klepp" />
		<tag k="place" v="farm" />
		<tag k="ssr:stedsnr" v="485061" />
	</node>
	<node lat="58.342911112026925" lon="8.274469439536004" id="-25751">
		<tag k="alt_name" v="Håbesland" />
		<tag k="fixme" v="consider place=hamlet" />
		<tag k="name" v="Håbbesland" />
		<tag k="place" v="village" />
		<tag k="ssr:stedsnr" v="485304" />
	</node>
	<node lat="58.341069443413176" lon="8.272119449696296" id="-25752">
		<tag k="building" v="industrial" />
		<tag k="industrial" v="factory" />
		<tag k="name" v="Bakken" />
		<tag k="ssr:stedsnr" v="485306" />
	</node>
	<node lat="58.436044444471406" lon="8.327344444732203" id="-25753">
		<tag k="fixme" v="consider place=hamlet" />
		<tag k="name" v="Senningtveit" />
		<tag k="place" v="farm" />
		<tag k="ssr:stedsnr" v="485310" />
	</node>
	<node lat="58.52671666728929" lon="8.123424991718732" id="-25763">
		<tag k="name" v="Tveit" />
		<tag k="place" v="farm" />
		<tag k="ssr:stedsnr" v="486210" />
	</node>
	<node lat="58.27317500310466" lon="8.174444438951346" id="-25807">
		<tag k="name" v="Åbål" />
		<tag k="place" v="farm" />
		<tag k="ssr:stedsnr" v="527808" />
	</node>
	<node lat="58.27450000063452" lon="8.173630556630155" id="-25808">
		<tag k="name" v="Åbål" />
		<tag k="place" v="farm" />
		<tag k="ssr:stedsnr" v="527810" />
	</node>
	<node lat="58.53849444103834" lon="8.072608338872286" id="-25846">
		<tag k="name" v="Der nord" />
		<tag k="place" v="farm" />
		<tag k="ssr:stedsnr" v="535211" />
	</node>
	<node lat="58.536580554561525" lon="8.072402773116739" id="-25847">
		<tag k="name" v="Vest på haugen" />
		<tag k="place" v="farm" />
		<tag k="ssr:stedsnr" v="535213" />
	</node>
	<node lat="58.31156111179829" lon="8.092372222750905" id="-25869">
		<tag k="alt_name" v="Ås" />
		<tag k="name" v="Nedre Ås" />
		<tag k="place" v="farm" />
		<tag k="ssr:stedsnr" v="546112" />
	</node>
	<node lat="58.49288611100511" lon="8.037163884503615" id="-25870">
		<tag k="fixme" v="consider place=hamlet" />
		<tag k="name" v="Vetrhus" />
		<tag k="place" v="farm" />
		<tag k="ssr:stedsnr" v="546195" />
	</node>
	<node lat="58.531111112666636" lon="7.954638884511892" id="-25876">
		<tag k="alt_name" v="Nygard" />
		<tag k="name" v="Nygård" />
		<tag k="place" v="farm" />
		<tag k="ssr:stedsnr" v="546627" />
	</node>
	<node lat="58.40445000033212" lon="8.113369450840892" id="-25879">
		<tag k="fixme" v="consider place=hamlet" />
		<tag k="name" v="Joreid" />
		<tag k="place" v="farm" />
		<tag k="ssr:stedsnr" v="546379" />
	</node>
	<node lat="58.396799998209985" lon="8.275363889362927" id="-25881">
		<tag k="name" v="Furholt" />
		<tag k="place" v="isolated_dwelling" />
		<tag k="ssr:stedsnr" v="546395" />
	</node>
	<node lat="58.33858611271909" lon="8.327013888687121" id="-25890">
		<tag k="name" v="Froholtskjerr" />
		<tag k="place" v="farm" />
		<tag k="ssr:stedsnr" v="573657" />
	</node>
	<node lat="58.34325000387449" lon="8.273355547066714" id="-25930">
		<tag k="name" v="Østerhus" />
		<tag k="place" v="farm" />
		<tag k="ssr:stedsnr" v="695400" />
	</node>
	<node lat="58.312811109943894" lon="8.233416667802908" id="-25933">
		<tag k="name" v="Herregård" />
		<tag k="place" v="isolated_dwelling" />
		<tag k="ssr:stedsnr" v="695741" />
	</node>
	<node lat="58.29893055248448" lon="8.278580559596856" id="-25935">
		<tag k="name" v="Modalen" />
		<tag k="place" v="locality" />
		<tag k="ssr:stedsnr" v="695744" />
	</node>
	<node lat="58.28943610862557" lon="8.255222221293932" id="-25937">
		<tag k="name" v="Øygarden" />
		<tag k="place" v="isolated_dwelling" />
		<tag k="ssr:stedsnr" v="696285" />
	</node>
	<node lat="58.491108332441755" lon="8.241722222268207" id="-25983">
		<tag k="name" v="Gamle Håstøl" />
		<tag k="place" v="locality" />
		<tag k="ssr:stedsnr" v="590757" />
	</node>
	<node lat="58.58805555389137" lon="8.118294437851231" id="-25996">
		<tag k="name" v="Skårssaga" />
		<tag k="place" v="locality" />
		<tag k="ssr:stedsnr" v="595416" />
	</node>
	<node lat="58.53756388533719" lon="8.07472776983455" id="-26012">
		<tag k="name" v="Haugen" />
		<tag k="place" v="farm" />
		<tag k="ssr:stedsnr" v="596217" />
	</node>
	<node lat="58.40183275552926" lon="8.18887335813465" id="-26027">
		<tag k="fixme" v="consider place=hamlet" />
		<tag k="name" v="Øvre Tjønntveit" />
		<tag k="place" v="farm" />
		<tag k="ssr:stedsnr" v="606408" />
	</node>
	<node lat="58.397760132405054" lon="8.202467839372138" id="-26029">
		<tag k="fixme" v="consider place=hamlet" />
		<tag k="name" v="Øyvann" />
		<tag k="place" v="farm" />
		<tag k="ssr:stedsnr" v="606413" />
	</node>
	<node lat="58.25508889297641" lon="8.170894444291534" id="-26032">
		<tag k="fixme" v="consider place=hamlet" />
		<tag k="name" v="Espegra" />
		<tag k="place" v="farm" />
		<tag k="ssr:stedsnr" v="606701" />
	</node>
	<node lat="58.53228333488742" lon="8.263588888505325" id="-26040">
		<tag k="name" v="Råbudalen" />
		<tag k="place" v="farm" />
		<tag k="ssr:stedsnr" v="607204" />
	</node>
	<node lat="58.53960277490761" lon="8.21174444817941" id="-26041">
		<tag k="name" v="Furholt" />
		<tag k="place" v="locality" />
		<tag k="ssr:stedsnr" v="607250" />
	</node>
	<node lat="58.54268456081727" lon="8.327314358187321" id="-26042">
		<tag k="historic" v="shieling" />
		<tag k="name" v="Retterstøl" />
		<tag k="place" v="isolated_dwelling" />
		<tag k="ssr:stedsnr" v="607199" />
	</node>
	<node lat="58.373838618914164" lon="8.142661567787592" id="-26044">
		<tag k="name" v="Bjorbekk" />
		<tag k="place" v="locality" />
		<tag k="ssr:stedsnr" v="607353" />
	</node>
	<node lat="58.47813888620893" lon="8.361863885434722" id="-26046">
		<tag k="name" v="Solheim" />
		<tag k="place" v="isolated_dwelling" />
		<tag k="ssr:stedsnr" v="607465" />
	</node>
	<node lat="58.378644447959715" lon="8.31545555940286" id="-26047">
		<tag k="name" v="Rønningen" />
		<tag k="place" v="locality" />
		<tag k="ssr:stedsnr" v="700019" />
	</node>
	<node lat="58.37852499791694" lon="8.311308341200137" id="-26048">
		<tag k="name" v="Skallen" />
		<tag k="place" v="isolated_dwelling" />
		<tag k="ssr:stedsnr" v="700021" />
	</node>
	<node lat="58.38043888856981" lon="8.322908326858624" id="-26050">
		<tag k="name" v="Ronnen" />
		<tag k="place" v="isolated_dwelling" />
		<tag k="ssr:stedsnr" v="700025" />
	</node>
	<node lat="58.28121944881434" lon="8.124499998228325" id="-26091">
		<tag k="name" v="Høyvoll" />
		<tag k="place" v="locality" />
		<tag k="ssr:stedsnr" v="700942" />
	</node>
	<node lat="58.27373611043632" lon="8.173613889466841" id="-26129">
		<tag k="name" v="Åbål" />
		<tag k="place" v="farm" />
		<tag k="ssr:stedsnr" v="648805" />
	</node>
	<node lat="58.28602499564236" lon="8.08753888483226" id="-26186">
		<tag k="name" v="Krona" />
		<tag k="place" v="farm" />
		<tag k="ssr:stedsnr" v="667006" />
	</node>
	<node lat="58.490211111929234" lon="8.238499995787217" id="-26190">
		<tag k="fixme" v="consider place=hamlet" />
		<tag k="name" v="Håstøl" />
		<tag k="place" v="farm" />
		<tag k="ssr:stedsnr" v="667418" />
	</node>
	<node lat="58.58772221840843" lon="8.44139445187434" id="-26198">
		<tag k="name" v="Skogtveit" />
		<tag k="place" v="farm" />
		<tag k="ssr:stedsnr" v="668198" />
	</node>
	<node lat="58.362899997820364" lon="8.172499999740072" id="-26203">
		<tag k="fixme" v="consider place=hamlet" />
		<tag k="name" v="Natveit" />
		<tag k="place" v="farm" />
		<tag k="ssr:stedsnr" v="668383" />
	</node>
	<node lat="58.53410278152551" lon="7.979283340919759" id="-26205">
		<tag k="name" v="Vatne" />
		<tag k="place" v="farm" />
		<tag k="ssr:stedsnr" v="668698" />
	</node>
	<node lat="58.52920000438295" lon="7.95226110456346" id="-26206">
		<tag k="alt_name" v="Svåland" />
		<tag k="name" v="Svaland" />
		<tag k="place" v="farm" />
		<tag k="ssr:stedsnr" v="668699" />
	</node>
	<node lat="58.36038333681832" lon="8.073550002146328" id="-26236">
		<tag k="name" v="Åsen" />
		<tag k="place" v="farm" />
		<tag k="ssr:stedsnr" v="894694" />
	</node>
	<node lat="58.33868610791154" lon="8.21908610538372" id="-26259">
		<tag k="name" v="Lunden" />
		<tag k="place" v="farm" />
		<tag k="ssr:stedsnr" v="696373" />
	</node>
	<node lat="58.27116944630506" lon="8.175224995048024" id="-26294">
		<tag k="name" v="Åbål" />
		<tag k="place" v="farm" />
		<tag k="ssr:stedsnr" v="709804" />
	</node>
	<node lat="58.44326944768183" lon="8.105191670310614" id="-26323">
		<tag k="name" v="Holmgard" />
		<tag k="place" v="farm" />
		<tag k="ssr:stedsnr" v="711529" />
	</node>
</osm>
