<?xml version="1.0" encoding="UTF-8"?>
<osm version="0.6" generator="osmapis">
	<node lat="58.293158336682" lon="8.284511113609343" id="-24731">
		<tag k="name" v="Svennssprang" />
		<tag k="old_name" v="Svennsssprang" />
		<tag k="place" v="locality" />
		<tag k="ssr:stedsnr" v="88613" />
	</node>
	<node lat="58.33038888742888" lon="8.360055560964424" id="-24844">
		<tag k="name" v="Stien" />
		<tag k="place" v="locality" />
		<tag k="ssr:stedsnr" v="121268" />
	</node>
	<node lat="58.31623332941393" lon="8.174783328003453" id="-25135">
		<tag k="name" v="Saga" />
		<tag k="place" v="locality" />
		<tag k="ssr:stedsnr" v="457969" />
	</node>
	<node lat="58.54149166605123" lon="8.073097222492505" id="-25566">
		<tag k="name" v="SkovedalslÃ¸a" />
		<tag k="place" v="locality" />
		<tag k="ssr:stedsnr" v="413345" />
	</node>
	<node lat="58.52310852962719" lon="8.35013607776758" id="-25607">
		<tag k="amenity" v="place_of_worship" />
		<tag k="denomination" v="lutheran" />
		<tag k="name" v="Herefoss kyrkje" />
		<tag k="religion" v="christian" />
		<tag k="ssr:stedsnr" v="426044" />
	</node>
	<node lat="58.44706666458128" lon="8.35448610389375" id="-25786">
		<tag k="name" v="Kolbonnen" />
		<tag k="place" v="locality" />
		<tag k="ssr:stedsnr" v="518085" />
	</node>
	<node lat="58.36099167101424" lon="8.075744450161155" id="-26023">
		<tag k="amenity" v="community_centre" />
		<tag k="name" v="Klepp" />
		<tag k="ssr:stedsnr" v="606081" />
	</node>
	<node lat="58.281172221504725" lon="8.22390555172007" id="-26099">
		<tag k="name" v="Fesedoria" />
		<tag k="place" v="locality" />
		<tag k="ssr:stedsnr" v="634316" />
	</node>
</osm>
