<?xml version="1.0" encoding="UTF-8"?>
<osm version="0.6" generator="osmapis">
	<node lat="58.545513892360326" lon="8.390830562268164" id="-27120">
		<tag k="alt_name" v="Dei store myrene" />
		<tag k="name" v="Storemyrane" />
		<tag k="natural" v="wetland" />
		<tag k="ssr:stedsnr" v="1201" />
	</node>
	<node lat="58.55553888456574" lon="8.078930557993868" id="-27129">
		<tag k="name" v="Høybekksteane" />
		<tag k="natural" v="wetland" />
		<tag k="ssr:stedsnr" v="231356" />
	</node>
	<node lat="58.53127499581433" lon="8.024986105772246" id="-27131">
		<tag k="name" v="Kinnekjerrane" />
		<tag k="natural" v="wetland" />
		<tag k="ssr:stedsnr" v="231741" />
	</node>
	<node lat="58.61315833476167" lon="8.170288884917952" id="-27135">
		<tag k="name" v="Snømyr" />
		<tag k="natural" v="wetland" />
		<tag k="ssr:stedsnr" v="231747" />
	</node>
	<node lat="58.50056666579155" lon="8.126408335188865" id="-27138">
		<tag k="name" v="Trollemyr" />
		<tag k="natural" v="wetland" />
		<tag k="ssr:stedsnr" v="231914" />
	</node>
	<node lat="58.519716671062696" lon="8.204897214822743" id="-27144">
		<tag k="name" v="Asgjerdsmyr" />
		<tag k="natural" v="wetland" />
		<tag k="ssr:stedsnr" v="232116" />
	</node>
	<node lat="58.521913885754955" lon="8.059286108504914" id="-27147">
		<tag k="name" v="Trosmyrane" />
		<tag k="natural" v="wetland" />
		<tag k="ssr:stedsnr" v="232213" />
	</node>
	<node lat="58.53377221775304" lon="8.087894440255427" id="-27148">
		<tag k="name" v="Djupemyr" />
		<tag k="natural" v="wetland" />
		<tag k="ssr:stedsnr" v="232224" />
	</node>
	<node lat="58.54920000279241" lon="7.970199994981383" id="-27149">
		<tag k="name" v="Katteråskjerra" />
		<tag k="natural" v="wetland" />
		<tag k="ssr:stedsnr" v="232576" />
	</node>
	<node lat="58.54503889287323" lon="7.947941658498682" id="-27150">
		<tag k="name" v="Karten" />
		<tag k="natural" v="wetland" />
		<tag k="ssr:stedsnr" v="232577" />
	</node>
	<node lat="58.482144441084635" lon="8.082011103274032" id="-27152">
		<tag k="name" v="Lille Stemvassmyra" />
		<tag k="natural" v="wetland" />
		<tag k="ssr:stedsnr" v="232914" />
	</node>
	<node lat="58.330294447860915" lon="8.36920555597148" id="-27155">
		<tag k="name" v="Loftskjerr" />
		<tag k="natural" v="wetland" />
		<tag k="ssr:stedsnr" v="27503" />
	</node>
	<node lat="58.37206110765" lon="8.299194447726322" id="-27164">
		<tag k="name" v="Engemyr" />
		<tag k="natural" v="wetland" />
		<tag k="ssr:stedsnr" v="32002" />
	</node>
	<node lat="58.412955557661576" lon="8.283594452252133" id="-27165">
		<tag k="name" v="Myra" />
		<tag k="natural" v="wetland" />
		<tag k="ssr:stedsnr" v="32013" />
	</node>
	<node lat="58.44013333297898" lon="8.322602776126935" id="-27170">
		<tag k="name" v="Blautemyr" />
		<tag k="natural" v="wetland" />
		<tag k="ssr:stedsnr" v="32070" />
	</node>
	<node lat="58.55828055874579" lon="8.401527774149843" id="-27172">
		<tag k="name" v="Ljosvassmyra" />
		<tag k="natural" v="wetland" />
		<tag k="ssr:stedsnr" v="32305" />
	</node>
	<node lat="58.52344167013175" lon="8.387922214498717" id="-27173">
		<tag k="name" v="Storstekilen" />
		<tag k="natural" v="wetland" />
		<tag k="ssr:stedsnr" v="32306" />
	</node>
	<node lat="58.47981111317014" lon="8.393577776346007" id="-27176">
		<tag k="name" v="Langemyr" />
		<tag k="natural" v="wetland" />
		<tag k="ssr:stedsnr" v="32300" />
	</node>
	<node lat="58.31319444423009" lon="8.208022226737762" id="-27177">
		<tag k="name" v="Lyngmyr" />
		<tag k="natural" v="wetland" />
		<tag k="ssr:stedsnr" v="32486" />
	</node>
	<node lat="58.35234722424079" lon="8.256619450244111" id="-27181">
		<tag k="name" v="Bjørnemyr" />
		<tag k="natural" v="wetland" />
		<tag k="ssr:stedsnr" v="32809" />
	</node>
	<node lat="58.38532777555637" lon="8.219199993785814" id="-27182">
		<tag k="name" v="Steggtjønnmyra" />
		<tag k="natural" v="wetland" />
		<tag k="ssr:stedsnr" v="32812" />
	</node>
	<node lat="58.390299997232205" lon="8.26531944574843" id="-27185">
		<tag k="name" v="Svintoksurane" />
		<tag k="natural" v="scree" />
		<tag k="ssr:stedsnr" v="32775" />
	</node>
	<node lat="58.309830559585556" lon="8.210413891744658" id="-27189">
		<tag k="name" v="Tjønnehaven" />
		<tag k="natural" v="wetland" />
		<tag k="ssr:stedsnr" v="32975" />
	</node>
	<node lat="58.51880277504964" lon="8.247800003271681" id="-27199">
		<tag k="name" v="Beinmyr" />
		<tag k="natural" v="wetland" />
		<tag k="ssr:stedsnr" v="44079" />
	</node>
	<node lat="58.39712778112345" lon="8.120266661406873" id="-27210">
		<tag k="name" v="Evelimyrane" />
		<tag k="natural" v="wetland" />
		<tag k="ssr:stedsnr" v="44430" />
	</node>
	<node lat="58.39919444454207" lon="8.157705553794516" id="-27212">
		<tag k="name" v="Storemyr" />
		<tag k="natural" v="wetland" />
		<tag k="ssr:stedsnr" v="44434" />
	</node>
	<node lat="58.421483333486655" lon="8.268536113719213" id="-27213">
		<tag k="name" v="Blautemyrane" />
		<tag k="natural" v="wetland" />
		<tag k="ssr:stedsnr" v="44450" />
	</node>
	<node lat="58.456152774500346" lon="8.081483327130783" id="-27226">
		<tag k="name" v="Moltemyr" />
		<tag k="natural" v="wetland" />
		<tag k="ssr:stedsnr" v="44635" />
	</node>
	<node lat="58.348855557662425" lon="8.088116658713448" id="-27228">
		<tag k="name" v="Varjemyr" />
		<tag k="natural" v="wetland" />
		<tag k="ssr:stedsnr" v="44642" />
	</node>
	<node lat="58.46545277697099" lon="8.229233336851815" id="-27235">
		<tag k="name" v="Torborgsmyr" />
		<tag k="natural" v="wetland" />
		<tag k="ssr:stedsnr" v="44823" />
	</node>
	<node lat="58.47575833094003" lon="8.27111111095295" id="-27236">
		<tag k="name" v="Øygardsmyra" />
		<tag k="natural" v="wetland" />
		<tag k="ssr:stedsnr" v="44826" />
	</node>
	<node lat="58.49343888515498" lon="8.174972221029627" id="-27245">
		<tag k="name" v="Bjørkeslåttane" />
		<tag k="natural" v="wetland" />
		<tag k="ssr:stedsnr" v="44797" />
	</node>
	<node lat="58.49918889281086" lon="8.269041663034418" id="-27246">
		<tag k="name" v="Lille Hattemyr" />
		<tag k="natural" v="wetland" />
		<tag k="ssr:stedsnr" v="44904" />
	</node>
	<node lat="58.621472223532585" lon="8.15550278607055" id="-27261">
		<tag k="name" v="Sundslimyra" />
		<tag k="natural" v="wetland" />
		<tag k="ssr:stedsnr" v="49688" />
	</node>
	<node lat="58.512180552769586" lon="8.062549992010865" id="-27263">
		<tag k="name" v="Kringlemyr" />
		<tag k="natural" v="wetland" />
		<tag k="ssr:stedsnr" v="49970" />
	</node>
	<node lat="58.51441667109858" lon="8.077388884579394" id="-27266">
		<tag k="name" v="Åndalsmyra" />
		<tag k="natural" v="wetland" />
		<tag k="ssr:stedsnr" v="49985" />
	</node>
	<node lat="58.528699999577135" lon="7.980400006904374" id="-27275">
		<tag k="name" v="Palmyr" />
		<tag k="natural" v="wetland" />
		<tag k="ssr:stedsnr" v="50906" />
	</node>
	<node lat="58.48144167053946" lon="8.06670833261416" id="-27276">
		<tag k="name" v="Lauvstakkmyra" />
		<tag k="natural" v="wetland" />
		<tag k="ssr:stedsnr" v="50921" />
	</node>
	<node lat="58.50711944409616" lon="8.136922229311036" id="-27283">
		<tag k="name" v="Utmarksmyra" />
		<tag k="natural" v="wetland" />
		<tag k="ssr:stedsnr" v="61034" />
	</node>
	<node lat="58.529975001528776" lon="8.379455554376205" id="-27284">
		<tag k="alt_name" v="Orremyr" />
		<tag k="name" v="Orremyra" />
		<tag k="natural" v="wetland" />
		<tag k="ssr:stedsnr" v="61206" />
	</node>
	<node lat="58.484224995597366" lon="8.28912499825214" id="-27300">
		<tag k="alt_name" v="Orremyrane" />
		<tag k="name" v="Orremyr" />
		<tag k="natural" v="wetland" />
		<tag k="ssr:stedsnr" v="243442" />
	</node>
	<node lat="58.58582222398219" lon="8.163422216796462" id="-27304">
		<tag k="name" v="Rukanmyra" />
		<tag k="natural" v="wetland" />
		<tag k="ssr:stedsnr" v="243162" />
	</node>
	<node lat="58.27984166342102" lon="8.25845833487154" id="-27336">
		<tag k="name" v="Langemyrer" />
		<tag k="natural" v="wetland" />
		<tag k="ssr:stedsnr" v="89338" />
	</node>
	<node lat="58.34258055936754" lon="8.294777773299181" id="-27338">
		<tag k="name" v="Spåmyr" />
		<tag k="natural" v="wetland" />
		<tag k="ssr:stedsnr" v="89670" />
	</node>
	<node lat="58.47406666847715" lon="8.351305554139858" id="-27342">
		<tag k="name" v="Steene" />
		<tag k="place" v="locality" />
		<tag k="ssr:stedsnr" v="93105" />
	</node>
	<node lat="58.520550004226" lon="8.331611113315622" id="-27344">
		<tag k="name" v="Brynsmyr" />
		<tag k="place" v="locality" />
		<tag k="ssr:stedsnr" v="93212" />
	</node>
	<node lat="58.55142778130172" lon="8.389019443341121" id="-27350">
		<tag k="name" v="Slåtta" />
		<tag k="natural" v="wetland" />
		<tag k="ssr:stedsnr" v="93270" />
	</node>
	<node lat="58.48482777508626" lon="8.364186111355188" id="-27353">
		<tag k="name" v="Mellommyr" />
		<tag k="natural" v="wetland" />
		<tag k="ssr:stedsnr" v="93187" />
	</node>
	<node lat="58.381772223476105" lon="8.296905549596833" id="-27357">
		<tag k="name" v="Bumyr" />
		<tag k="natural" v="wetland" />
		<tag k="ssr:stedsnr" v="93708" />
	</node>
	<node lat="58.384263893284434" lon="8.297119443004831" id="-27359">
		<tag k="name" v="Lyngmyr" />
		<tag k="natural" v="wetland" />
		<tag k="ssr:stedsnr" v="93713" />
	</node>
	<node lat="58.37313888544772" lon="8.273166661099038" id="-27364">
		<tag k="name" v="Breiemyr" />
		<tag k="natural" v="wetland" />
		<tag k="ssr:stedsnr" v="93782" />
	</node>
	<node lat="58.449605551636246" lon="8.14802499343651" id="-27371">
		<tag k="name" v="Bjønnekjerr" />
		<tag k="natural" v="wetland" />
		<tag k="ssr:stedsnr" v="104512" />
	</node>
	<node lat="58.47093333467691" lon="8.225611111146376" id="-27376">
		<tag k="name" v="Simonsmyrane" />
		<tag k="natural" v="wetland" />
		<tag k="ssr:stedsnr" v="104830" />
	</node>
	<node lat="58.503655557456746" lon="8.218324993659033" id="-27377">
		<tag k="name" v="Nordheimyra" />
		<tag k="natural" v="wetland" />
		<tag k="ssr:stedsnr" v="104934" />
	</node>
	<node lat="58.54573611197726" lon="8.314977778784378" id="-27378">
		<tag k="name" v="Kvennhuskjerra" />
		<tag k="natural" v="wetland" />
		<tag k="ssr:stedsnr" v="105002" />
	</node>
	<node lat="58.521161109796026" lon="8.239055554416746" id="-27380">
		<tag k="name" v="Kilemyr" />
		<tag k="natural" v="wetland" />
		<tag k="ssr:stedsnr" v="105078" />
	</node>
	<node lat="58.5222083335523" lon="8.221202780273142" id="-27381">
		<tag k="name" v="Kleivekjerr" />
		<tag k="natural" v="wetland" />
		<tag k="ssr:stedsnr" v="105102" />
	</node>
	<node lat="58.313083331837944" lon="8.124024997559244" id="-27386">
		<tag k="name" v="Slåttedalsmyra" />
		<tag k="natural" v="wetland" />
		<tag k="ssr:stedsnr" v="105305" />
	</node>
	<node lat="58.41075833124012" lon="8.179100004611255" id="-27400">
		<tag k="name" v="Beinmyr" />
		<tag k="natural" v="wetland" />
		<tag k="ssr:stedsnr" v="105477" />
	</node>
	<node lat="58.4113388871832" lon="8.259161118262895" id="-27404">
		<tag k="name" v="Store Reinshonn" />
		<tag k="natural" v="wetland" />
		<tag k="ssr:stedsnr" v="105515" />
	</node>
	<node lat="58.29225277532374" lon="8.07169721787146" id="-27406">
		<tag k="name" v="Trongslihaven" />
		<tag k="natural" v="wetland" />
		<tag k="ssr:stedsnr" v="105577" />
	</node>
	<node lat="58.52905555828951" lon="8.267088896188232" id="-27409">
		<tag k="name" v="Paddekjerr" />
		<tag k="natural" v="wetland" />
		<tag k="ssr:stedsnr" v="105897" />
	</node>
	<node lat="58.48526111443837" lon="8.212377780378914" id="-27412">
		<tag k="name" v="Heimdalsmyr" />
		<tag k="natural" v="wetland" />
		<tag k="ssr:stedsnr" v="105779" />
	</node>
	<node lat="58.478338891466315" lon="8.21796667135625" id="-27414">
		<tag k="name" v="Bjørkeslått" />
		<tag k="natural" v="wetland" />
		<tag k="ssr:stedsnr" v="105783" />
	</node>
	<node lat="58.54833333751901" lon="8.10736667485623" id="-27419">
		<tag k="name" v="Brubergmyra" />
		<tag k="natural" v="wetland" />
		<tag k="ssr:stedsnr" v="110312" />
	</node>
	<node lat="58.58973610916536" lon="8.18768055275352" id="-27422">
		<tag k="name" v="Geitedalsmyr" />
		<tag k="natural" v="wetland" />
		<tag k="ssr:stedsnr" v="110712" />
	</node>
	<node lat="58.51331388812194" lon="7.950947225147956" id="-27426">
		<tag k="name" v="Sprymyr" />
		<tag k="natural" v="wetland" />
		<tag k="ssr:stedsnr" v="111109" />
	</node>
	<node lat="58.514502775116505" lon="7.947158336570027" id="-27427">
		<tag k="name" v="Formyrane" />
		<tag k="natural" v="wetland" />
		<tag k="ssr:stedsnr" v="111113" />
	</node>
	<node lat="58.49173333139238" lon="8.02995555036884" id="-27431">
		<tag k="name" v="Oreholtane" />
		<tag k="place" v="locality" />
		<tag k="ssr:stedsnr" v="111025" />
	</node>
	<node lat="58.493341667086526" lon="8.021433332656523" id="-27432">
		<tag k="name" v="Svartmyr" />
		<tag k="natural" v="wetland" />
		<tag k="ssr:stedsnr" v="111026" />
	</node>
	<node lat="58.52506666573427" lon="8.067358328653084" id="-27434">
		<tag k="name" v="Hausmyr" />
		<tag k="natural" v="wetland" />
		<tag k="ssr:stedsnr" v="111202" />
	</node>
	<node lat="58.49051388835234" lon="8.141316668134104" id="-27437">
		<tag k="name" v="Smørhola" />
		<tag k="natural" v="wetland" />
		<tag k="ssr:stedsnr" v="111815" />
	</node>
	<node lat="58.48075277901051" lon="8.08992499904025" id="-27439">
		<tag k="name" v="Djupemyr" />
		<tag k="natural" v="wetland" />
		<tag k="ssr:stedsnr" v="111908" />
	</node>
	<node lat="58.5180249963332" lon="7.997924996598427" id="-27440">
		<tag k="name" v="Teremyr" />
		<tag k="natural" v="wetland" />
		<tag k="ssr:stedsnr" v="111972" />
	</node>
	<node lat="58.332900004338" lon="8.176411117525875" id="-27462">
		<tag k="name" v="Knarekjerr" />
		<tag k="natural" v="wetland" />
		<tag k="ssr:stedsnr" v="149367" />
	</node>
	<node lat="58.31964722237048" lon="8.273133335278" id="-27464">
		<tag k="name" v="Forkleivmyra" />
		<tag k="natural" v="wetland" />
		<tag k="ssr:stedsnr" v="149768" />
	</node>
	<node lat="58.30876944744233" lon="8.195786117280884" id="-27466">
		<tag k="name" v="Kirkemyr" />
		<tag k="natural" v="wetland" />
		<tag k="ssr:stedsnr" v="153517" />
	</node>
	<node lat="58.38512222337288" lon="8.30674722306153" id="-27468">
		<tag k="name" v="Dagsbeidmyr" />
		<tag k="natural" v="wetland" />
		<tag k="ssr:stedsnr" v="154004" />
	</node>
	<node lat="58.396133334556104" lon="8.310411114088577" id="-27479">
		<tag k="name" v="Røysemyr" />
		<tag k="natural" v="wetland" />
		<tag k="ssr:stedsnr" v="154063" />
	</node>
	<node lat="58.43881111027306" lon="8.283772227938405" id="-27481">
		<tag k="name" v="Aslaksmyr" />
		<tag k="natural" v="wetland" />
		<tag k="ssr:stedsnr" v="154099" />
	</node>
	<node lat="58.54983888905115" lon="8.407736112651374" id="-27485">
		<tag k="name" v="Kringlemyra" />
		<tag k="natural" v="wetland" />
		<tag k="ssr:stedsnr" v="154401" />
	</node>
	<node lat="58.38414722445306" lon="8.293100000157091" id="-27486">
		<tag k="name" v="Kabrattmyr" />
		<tag k="natural" v="wetland" />
		<tag k="ssr:stedsnr" v="154808" />
	</node>
	<node lat="58.48348055363294" lon="8.361094449067064" id="-27489">
		<tag k="name" v="Klovemyr" />
		<tag k="natural" v="wetland" />
		<tag k="ssr:stedsnr" v="154866" />
	</node>
	<node lat="58.36510000119197" lon="8.2842499985896" id="-27492">
		<tag k="name" v="Myransmyra" />
		<tag k="natural" v="wetland" />
		<tag k="ssr:stedsnr" v="154906" />
	</node>
	<node lat="58.35831110856654" lon="8.280119441433133" id="-27493">
		<tag k="name" v="Diplemyr" />
		<tag k="natural" v="wetland" />
		<tag k="ssr:stedsnr" v="154907" />
	</node>
	<node lat="58.256924997836144" lon="8.196836118947246" id="-27495">
		<tag k="name" v="Terebu" />
		<tag k="natural" v="wetland" />
		<tag k="ssr:stedsnr" v="154922" />
	</node>
	<node lat="58.28224166481441" lon="8.209988892640029" id="-27497">
		<tag k="name" v="Lone" />
		<tag k="natural" v="wetland" />
		<tag k="ssr:stedsnr" v="154972" />
	</node>
	<node lat="58.444488886671756" lon="8.203677778060852" id="-27499">
		<tag k="name" v="Luemyrane" />
		<tag k="natural" v="wetland" />
		<tag k="ssr:stedsnr" v="164265" />
	</node>
	<node lat="58.42285833609137" lon="8.17730000466673" id="-27505">
		<tag k="name" v="Ragnhildskjerr" />
		<tag k="natural" v="wetland" />
		<tag k="ssr:stedsnr" v="165316" />
	</node>
	<node lat="58.4490305598751" lon="8.271472229670009" id="-27507">
		<tag k="name" v="Moltemyr" />
		<tag k="natural" v="wetland" />
		<tag k="ssr:stedsnr" v="165271" />
	</node>
	<node lat="58.38154166710192" lon="8.200158327467348" id="-27509">
		<tag k="name" v="Rundemyr" />
		<tag k="natural" v="wetland" />
		<tag k="ssr:stedsnr" v="165402" />
	</node>
	<node lat="58.38414722567096" lon="8.189477777501242" id="-27510">
		<tag k="name" v="Grasmyrane" />
		<tag k="natural" v="wetland" />
		<tag k="ssr:stedsnr" v="165405" />
	</node>
	<node lat="58.38948888481769" lon="8.147594445468114" id="-27512">
		<tag k="name" v="Moltemyra" />
		<tag k="natural" v="wetland" />
		<tag k="ssr:stedsnr" v="165414" />
	</node>
	<node lat="58.42436666547316" lon="8.235872214074716" id="-27515">
		<tag k="name" v="Skaufjellkjerrane" />
		<tag k="natural" v="wetland" />
		<tag k="ssr:stedsnr" v="165471" />
	</node>
	<node lat="58.379272223302166" lon="8.16224444816883" id="-27516">
		<tag k="name" v="Kveldreismyra" />
		<tag k="natural" v="wetland" />
		<tag k="ssr:stedsnr" v="165361" />
	</node>
	<node lat="58.435344441077724" lon="8.136361118635232" id="-27519">
		<tag k="name" v="Lykkerei" />
		<tag k="natural" v="wetland" />
		<tag k="ssr:stedsnr" v="165512" />
	</node>
	<node lat="58.48520832978521" lon="8.166347214067397" id="-27525">
		<tag k="name" v="Viermyr" />
		<tag k="natural" v="wetland" />
		<tag k="ssr:stedsnr" v="165806" />
	</node>
	<node lat="58.47701944423083" lon="8.175894441410536" id="-27527">
		<tag k="name" v="Sekane" />
		<tag k="natural" v="wetland" />
		<tag k="ssr:stedsnr" v="165821" />
	</node>
	<node lat="58.33084444710758" lon="8.09611943912267" id="-27530">
		<tag k="name" v="Masdalmyra" />
		<tag k="natural" v="wetland" />
		<tag k="ssr:stedsnr" v="165769" />
	</node>
	<node lat="58.4995611090391" lon="8.27375833526486" id="-27533">
		<tag k="name" v="Hattemyr" />
		<tag k="natural" v="wetland" />
		<tag k="ssr:stedsnr" v="165919" />
	</node>
	<node lat="58.475724998864294" lon="8.265591669124978" id="-27534">
		<tag k="name" v="Djupekjerr" />
		<tag k="natural" v="wetland" />
		<tag k="ssr:stedsnr" v="165985" />
	</node>
	<node lat="58.5631277790122" lon="8.094569447858493" id="-27537">
		<tag k="name" v="Storemyr" />
		<tag k="natural" v="wetland" />
		<tag k="ssr:stedsnr" v="170067" />
	</node>
	<node lat="58.51296944021076" lon="8.125063887297905" id="-27545">
		<tag k="name" v="Snømyr" />
		<tag k="natural" v="wetland" />
		<tag k="ssr:stedsnr" v="170905" />
	</node>
	<node lat="58.51848055954845" lon="8.150883333704147" id="-27546">
		<tag k="name" v="Blautemyr" />
		<tag k="natural" v="wetland" />
		<tag k="ssr:stedsnr" v="171105" />
	</node>
	<node lat="58.51344722188621" lon="8.148102777604333" id="-27551">
		<tag k="name" v="Hansetjønnmyra" />
		<tag k="natural" v="wetland" />
		<tag k="ssr:stedsnr" v="171904" />
	</node>
	<node lat="58.25930555110466" lon="8.204102775104856" id="-27571">
		<tag k="name" v="Vardåssteinen" />
		<tag k="natural" v="stone" />
		<tag k="ssr:stedsnr" v="204307" />
	</node>
	<node lat="58.337463892256544" lon="8.257811110400223" id="-27572">
		<tag k="name" v="Granekjerr" />
		<tag k="natural" v="wetland" />
		<tag k="ssr:stedsnr" v="210404" />
	</node>
	<node lat="58.28318611047429" lon="8.27039444374236" id="-27574">
		<tag k="name" v="Skåremyrer" />
		<tag k="natural" v="wetland" />
		<tag k="ssr:stedsnr" v="210319" />
	</node>
	<node lat="58.34541944660171" lon="8.247058338005854" id="-27576">
		<tag k="name" v="Mørkeli" />
		<tag k="place" v="locality" />
		<tag k="ssr:stedsnr" v="210391" />
	</node>
	<node lat="58.34369722136588" lon="8.285297230666918" id="-27582">
		<tag k="name" v="Øvelandsmyra" />
		<tag k="place" v="locality" />
		<tag k="ssr:stedsnr" v="210691" />
	</node>
	<node lat="58.32300555114998" lon="8.204194446794096" id="-27585">
		<tag k="name" v="Uglandskogmyr" />
		<tag k="natural" v="wetland" />
		<tag k="ssr:stedsnr" v="214509" />
	</node>
	<node lat="58.37726389113359" lon="8.299277782446453" id="-27587">
		<tag k="name" v="Hestehaven" />
		<tag k="place" v="locality" />
		<tag k="ssr:stedsnr" v="215007" />
	</node>
	<node lat="58.4575277746586" lon="8.28761389736218" id="-27592">
		<tag k="name" v="Byttingsmyr" />
		<tag k="natural" v="wetland" />
		<tag k="ssr:stedsnr" v="215133" />
	</node>
	<node lat="58.43301111444694" lon="8.335349994642781" id="-27599">
		<tag k="name" v="Skoddmyr" />
		<tag k="natural" v="wetland" />
		<tag k="ssr:stedsnr" v="215077" />
	</node>
	<node lat="58.48128888826104" lon="8.315524992649596" id="-27602">
		<tag k="name" v="Tretteslåttmyrane" />
		<tag k="natural" v="wetland" />
		<tag k="ssr:stedsnr" v="215226" />
	</node>
	<node lat="58.50208055189146" lon="8.36199722720005" id="-27604">
		<tag k="name" v="Porsmyr" />
		<tag k="natural" v="wetland" />
		<tag k="ssr:stedsnr" v="215285" />
	</node>
	<node lat="58.58614722593418" lon="8.4139055507335" id="-27605">
		<tag k="name" v="Granmyrene" />
		<tag k="natural" v="wetland" />
		<tag k="ssr:stedsnr" v="215402" />
	</node>
	<node lat="58.58094167013431" lon="8.410324994211907" id="-27606">
		<tag k="name" v="Lille Varmyr" />
		<tag k="natural" v="wetland" />
		<tag k="ssr:stedsnr" v="215426" />
	</node>
	<node lat="58.36989166303172" lon="8.295994452616835" id="-27607">
		<tag k="name" v="Storemyr" />
		<tag k="natural" v="wetland" />
		<tag k="ssr:stedsnr" v="215808" />
	</node>
	<node lat="58.552174996115305" lon="8.34223610858611" id="-27610">
		<tag k="name" v="Skrekjerra" />
		<tag k="natural" v="wetland" />
		<tag k="ssr:stedsnr" v="215881" />
	</node>
	<node lat="58.25663055250207" lon="8.213688894943733" id="-27616">
		<tag k="name" v="Trandlekjerra" />
		<tag k="natural" v="wetland" />
		<tag k="ssr:stedsnr" v="215926" />
	</node>
	<node lat="58.328391665553546" lon="8.276955559916267" id="-27620">
		<tag k="name" v="Buåsmyra" />
		<tag k="natural" v="wetland" />
		<tag k="ssr:stedsnr" v="270468" />
	</node>
	<node lat="58.4330305518102" lon="8.344702781318068" id="-27626">
		<tag k="name" v="Stokkmyr" />
		<tag k="natural" v="wetland" />
		<tag k="ssr:stedsnr" v="275063" />
	</node>
	<node lat="58.28944722526904" lon="8.237924995687404" id="-27627">
		<tag k="name" v="Langemyrer" />
		<tag k="natural" v="wetland" />
		<tag k="ssr:stedsnr" v="271331" />
	</node>
	<node lat="58.284244446101546" lon="8.244105557650537" id="-27630">
		<tag k="name" v="Lille Skrubbmyr" />
		<tag k="natural" v="wetland" />
		<tag k="ssr:stedsnr" v="271349" />
	</node>
	<node lat="58.32799444482294" lon="8.273802772763082" id="-27634">
		<tag k="name" v="Buhusmyra" />
		<tag k="natural" v="wetland" />
		<tag k="ssr:stedsnr" v="271396" />
	</node>
	<node lat="58.33198055587035" lon="8.299330558958461" id="-27636">
		<tag k="name" v="Nedre Heftemyr" />
		<tag k="natural" v="wetland" />
		<tag k="ssr:stedsnr" v="271454" />
	</node>
	<node lat="58.47291111083555" lon="8.107747215486617" id="-27637">
		<tag k="name" v="Kvasshåmmarmyr" />
		<tag k="natural" v="wetland" />
		<tag k="ssr:stedsnr" v="225736" />
	</node>
	<node lat="58.53219444276536" lon="8.308311109598769" id="-27640">
		<tag k="name" v="Surtekjerrane" />
		<tag k="natural" v="wetland" />
		<tag k="ssr:stedsnr" v="226015" />
	</node>
	<node lat="58.30249166283346" lon="8.12096389067691" id="-27643">
		<tag k="name" v="Kartmyr" />
		<tag k="natural" v="wetland" />
		<tag k="ssr:stedsnr" v="226294" />
	</node>
	<node lat="58.39314444438568" lon="8.163763893139697" id="-27652">
		<tag k="name" v="Grønnemyr" />
		<tag k="natural" v="wetland" />
		<tag k="ssr:stedsnr" v="226486" />
	</node>
	<node lat="58.496100003694096" lon="8.207849993782052" id="-27657">
		<tag k="name" v="Våskåmyra" />
		<tag k="natural" v="wetland" />
		<tag k="ssr:stedsnr" v="226843" />
	</node>
	<node lat="58.316016670623" lon="8.063927769256464" id="-27662">
		<tag k="name" v="Nyløemyrene" />
		<tag k="natural" v="wetland" />
		<tag k="ssr:stedsnr" v="226774" />
	</node>
	<node lat="58.3410138884703" lon="8.075736108082598" id="-27663">
		<tag k="name" v="Åletjønnholtane" />
		<tag k="place" v="locality" />
		<tag k="ssr:stedsnr" v="226790" />
	</node>
	<node lat="58.4803638933278" lon="8.252308331903135" id="-27664">
		<tag k="name" v="Svoemyr" />
		<tag k="natural" v="wetland" />
		<tag k="ssr:stedsnr" v="226985" />
	</node>
	<node lat="58.5616749996078" lon="8.087966666614623" id="-27669">
		<tag k="name" v="Smalmyr" />
		<tag k="natural" v="wetland" />
		<tag k="ssr:stedsnr" v="231086" />
	</node>
	<node lat="58.549474999023474" lon="8.189574995344481" id="-27673">
		<tag k="name" v="Bjønnskjeggmyra" />
		<tag k="natural" v="wetland" />
		<tag k="ssr:stedsnr" v="231531" />
	</node>
	<node lat="58.52425833736184" lon="8.179608335261683" id="-27680">
		<tag k="name" v="Langemyr" />
		<tag k="natural" v="wetland" />
		<tag k="ssr:stedsnr" v="232112" />
	</node>
	<node lat="58.55265833399681" lon="7.946730556573062" id="-27682">
		<tag k="name" v="Gråndalsmyra" />
		<tag k="natural" v="wetland" />
		<tag k="ssr:stedsnr" v="232605" />
	</node>
	<node lat="58.55716944358866" lon="7.9617749972647545" id="-27683">
		<tag k="name" v="Tjørndyppmyra" />
		<tag k="natural" v="wetland" />
		<tag k="ssr:stedsnr" v="232606" />
	</node>
	<node lat="58.53446388764528" lon="7.940366672263243" id="-27686">
		<tag k="name" v="Steane" />
		<tag k="natural" v="wetland" />
		<tag k="ssr:stedsnr" v="232611" />
	</node>
	<node lat="58.52249166650203" lon="7.968388890382644" id="-27692">
		<tag k="name" v="Steinsmyr" />
		<tag k="natural" v="wetland" />
		<tag k="ssr:stedsnr" v="232889" />
	</node>
	<node lat="58.519388890855936" lon="7.979994452264976" id="-27693">
		<tag k="name" v="Stavetjønnmyra" />
		<tag k="natural" v="wetland" />
		<tag k="ssr:stedsnr" v="232894" />
	</node>
	<node lat="58.30664167097235" lon="8.252283337119415" id="-27714">
		<tag k="name" v="Mofimyra" />
		<tag k="natural" v="wetland" />
		<tag k="ssr:stedsnr" v="452752" />
	</node>
	<node lat="58.27202500126717" lon="8.231355551114452" id="-27716">
		<tag k="name" v="Robertsmyr" />
		<tag k="natural" v="wetland" />
		<tag k="ssr:stedsnr" v="453344" />
	</node>
	<node lat="58.507775000970504" lon="8.370958326539295" id="-27718">
		<tag k="name" v="Raudemyr" />
		<tag k="natural" v="wetland" />
		<tag k="ssr:stedsnr" v="457212" />
	</node>
	<node lat="58.52378055771545" lon="8.3723888882165" id="-27723">
		<tag k="name" v="Skåremyr" />
		<tag k="natural" v="wetland" />
		<tag k="ssr:stedsnr" v="457231" />
	</node>
	<node lat="58.50182777967635" lon="8.30221665896354" id="-27724">
		<tag k="name" v="Lyngmyr" />
		<tag k="natural" v="wetland" />
		<tag k="ssr:stedsnr" v="457238" />
	</node>
	<node lat="58.5794305560404" lon="8.356627783498249" id="-27726">
		<tag k="name" v="Kloppmyra" />
		<tag k="natural" v="wetland" />
		<tag k="ssr:stedsnr" v="457257" />
	</node>
	<node lat="58.583675003376804" lon="8.39924999909411" id="-27727">
		<tag k="name" v="Øvre Hesemyr" />
		<tag k="natural" v="wetland" />
		<tag k="ssr:stedsnr" v="457332" />
	</node>
	<node lat="58.5864777818494" lon="8.429511109585984" id="-27728">
		<tag k="name" v="Rossmyr" />
		<tag k="natural" v="wetland" />
		<tag k="ssr:stedsnr" v="457357" />
	</node>
	<node lat="58.37850555763893" lon="8.289411107177658" id="-27735">
		<tag k="name" v="Vestervassmyr" />
		<tag k="natural" v="wetland" />
		<tag k="ssr:stedsnr" v="457748" />
	</node>
	<node lat="58.33656944281044" lon="8.324747223671684" id="-27743">
		<tag k="name" v="Torkelshave" />
		<tag k="natural" v="wetland" />
		<tag k="ssr:stedsnr" v="270679" />
	</node>
	<node lat="58.50871388855905" lon="7.947966659337952" id="-27746">
		<tag k="name" v="Mannfallsteinen" />
		<tag k="natural" v="stone" />
		<tag k="ssr:stedsnr" v="273593" />
	</node>
	<node lat="58.3848416631165" lon="8.317294442106535" id="-27747">
		<tag k="name" v="Dyblemyr" />
		<tag k="natural" v="wetland" />
		<tag k="ssr:stedsnr" v="275008" />
	</node>
	<node lat="58.45273888812584" lon="8.303722229127635" id="-27749">
		<tag k="name" v="Luemyr" />
		<tag k="natural" v="wetland" />
		<tag k="ssr:stedsnr" v="275103" />
	</node>
	<node lat="58.450594443982645" lon="8.382605563225294" id="-27754">
		<tag k="name" v="Igelandsmyra" />
		<tag k="natural" v="wetland" />
		<tag k="ssr:stedsnr" v="275070" />
	</node>
	<node lat="58.44385555934771" lon="8.290447229529224" id="-27755">
		<tag k="name" v="Strandslåtta" />
		<tag k="natural" v="wetland" />
		<tag k="ssr:stedsnr" v="275077" />
	</node>
	<node lat="58.51988888550842" lon="8.384186103026616" id="-27763">
		<tag k="name" v="Bjørkesteane" />
		<tag k="natural" v="wetland" />
		<tag k="ssr:stedsnr" v="275227" />
	</node>
	<node lat="58.536927781347096" lon="8.379911109193396" id="-27764">
		<tag k="name" v="Prestens Storemyr" />
		<tag k="natural" v="wetland" />
		<tag k="ssr:stedsnr" v="275275" />
	</node>
	<node lat="58.54300277529203" lon="8.354533333185662" id="-27765">
		<tag k="name" v="Strandane" />
		<tag k="natural" v="wetland" />
		<tag k="ssr:stedsnr" v="275286" />
	</node>
	<node lat="58.48175555341567" lon="8.367352770680279" id="-27768">
		<tag k="name" v="Skarkemyr" />
		<tag k="natural" v="wetland" />
		<tag k="ssr:stedsnr" v="275179" />
	</node>
	<node lat="58.576305556899975" lon="8.394225000740335" id="-27770">
		<tag k="name" v="Lilleste" />
		<tag k="natural" v="wetland" />
		<tag k="ssr:stedsnr" v="275304" />
	</node>
	<node lat="58.579402778091705" lon="8.380905548941403" id="-27771">
		<tag k="alt_name" v="Myrkrokroken" />
		<tag k="name" v="Myrkroken" />
		<tag k="natural" v="wetland" />
		<tag k="ssr:stedsnr" v="275313" />
	</node>
	<node lat="58.532541669888396" lon="8.385649994894615" id="-27772">
		<tag k="name" v="Holemyr" />
		<tag k="natural" v="wetland" />
		<tag k="ssr:stedsnr" v="275320" />
	</node>
	<node lat="58.45156388704732" lon="8.105277776267991" id="-27783">
		<tag k="name" v="Trollmyr" />
		<tag k="natural" v="wetland" />
		<tag k="ssr:stedsnr" v="286543" />
	</node>
	<node lat="58.30289722660085" lon="8.130016664565876" id="-27795">
		<tag k="name" v="Snømyr" />
		<tag k="natural" v="wetland" />
		<tag k="ssr:stedsnr" v="287285" />
	</node>
	<node lat="58.37757777657053" lon="8.169602783441986" id="-27798">
		<tag k="name" v="Småmyrane" />
		<tag k="natural" v="wetland" />
		<tag k="ssr:stedsnr" v="287476" />
	</node>
	<node lat="58.440969446614254" lon="8.203797221671428" id="-27805">
		<tag k="name" v="Kjellingmyrane" />
		<tag k="natural" v="wetland" />
		<tag k="ssr:stedsnr" v="287378" />
	</node>
	<node lat="58.42995833076513" lon="8.24885556266002" id="-27807">
		<tag k="name" v="Tjørnekilane" />
		<tag k="natural" v="wetland" />
		<tag k="ssr:stedsnr" v="287502" />
	</node>
	<node lat="58.47873333142645" lon="8.164880558646283" id="-27811">
		<tag k="name" v="Gjertrudsmyr" />
		<tag k="natural" v="wetland" />
		<tag k="ssr:stedsnr" v="287810" />
	</node>
	<node lat="58.48799444788768" lon="8.183972226088628" id="-27812">
		<tag k="name" v="Tåråldsmyr" />
		<tag k="natural" v="wetland" />
		<tag k="ssr:stedsnr" v="287814" />
	</node>
	<node lat="58.45860277925373" lon="8.24524721488262" id="-27814">
		<tag k="name" v="Stemtjønnmyrene" />
		<tag k="natural" v="wetland" />
		<tag k="ssr:stedsnr" v="287831" />
	</node>
	<node lat="58.315250004065824" lon="8.058969438846486" id="-27818">
		<tag k="name" v="Revemyrene" />
		<tag k="natural" v="wetland" />
		<tag k="ssr:stedsnr" v="287752" />
	</node>
	<node lat="58.35360277478822" lon="8.054666664486653" id="-27819">
		<tag k="name" v="Snømyr" />
		<tag k="natural" v="wetland" />
		<tag k="ssr:stedsnr" v="287781" />
	</node>
	<node lat="58.515705551546844" lon="8.267922220185763" id="-27820">
		<tag k="name" v="Matstadmyr" />
		<tag k="natural" v="wetland" />
		<tag k="ssr:stedsnr" v="287906" />
	</node>
	<node lat="58.48338889339055" lon="8.22900000265447" id="-27827">
		<tag k="name" v="Bjørkeste" />
		<tag k="natural" v="wetland" />
		<tag k="ssr:stedsnr" v="287984" />
	</node>
	<node lat="58.52332222416252" lon="8.073569438649457" id="-27835">
		<tag k="name" v="Småslåttane" />
		<tag k="natural" v="wetland" />
		<tag k="ssr:stedsnr" v="293190" />
	</node>
	<node lat="58.3106166686785" lon="8.148480560411228" id="-27841">
		<tag k="name" v="Snaremyr" />
		<tag k="natural" v="wetland" />
		<tag k="ssr:stedsnr" v="303279" />
	</node>
	<node lat="58.5323361105945" lon="8.205913890319817" id="-27853">
		<tag k="name" v="Stemmyrane" />
		<tag k="natural" v="wetland" />
		<tag k="ssr:stedsnr" v="304177" />
	</node>
	<node lat="58.52333611244786" lon="8.311488888333983" id="-27859">
		<tag k="name" v="Stettekjerr" />
		<tag k="natural" v="wetland" />
		<tag k="ssr:stedsnr" v="468037" />
	</node>
	<node lat="58.44845555600882" lon="8.26157499432685" id="-27860">
		<tag k="name" v="Dyblemyr" />
		<tag k="natural" v="wetland" />
		<tag k="ssr:stedsnr" v="468253" />
	</node>
	<node lat="58.48820555650487" lon="8.239899994838074" id="-27861">
		<tag k="name" v="Håstøl Øygard" />
		<tag k="natural" v="wetland" />
		<tag k="ssr:stedsnr" v="468989" />
	</node>
	<node lat="58.330113891499195" lon="8.082966659745653" id="-27872">
		<tag k="historic" v="shieling" />
		<tag k="name" v="Sauestøl" />
		<tag k="place" v="locality" />
		<tag k="ssr:stedsnr" v="468740" />
	</node>
	<node lat="58.379488885576194" lon="8.168822221670816" id="-27885">
		<tag k="name" v="Natveittjønn" />
		<tag k="natural" v="wetland" />
		<tag k="ssr:stedsnr" v="469400" />
	</node>
	<node lat="58.409155552651676" lon="8.193699992474597" id="-27890">
		<tag k="name" v="Elgeholta" />
		<tag k="place" v="locality" />
		<tag k="ssr:stedsnr" v="469527" />
	</node>
	<node lat="58.417952780553456" lon="8.144577780371684" id="-27892">
		<tag k="name" v="Ytre Øygardsmyr" />
		<tag k="natural" v="wetland" />
		<tag k="ssr:stedsnr" v="469530" />
	</node>
	<node lat="58.42823611489811" lon="8.260091674342585" id="-27894">
		<tag k="name" v="Dyblemyr" />
		<tag k="natural" v="wetland" />
		<tag k="ssr:stedsnr" v="469498" />
	</node>
	<node lat="58.357547221562555" lon="8.070208335980535" id="-27902">
		<tag k="name" v="Jomfrumyra" />
		<tag k="natural" v="wetland" />
		<tag k="ssr:stedsnr" v="469683" />
	</node>
	<node lat="58.4979972228133" lon="8.197308325374816" id="-27906">
		<tag k="name" v="Djupekjerr" />
		<tag k="natural" v="wetland" />
		<tag k="ssr:stedsnr" v="469928" />
	</node>
	<node lat="58.50416111517211" lon="8.17689722561038" id="-27908">
		<tag k="name" v="Ås Øygard" />
		<tag k="natural" v="wetland" />
		<tag k="ssr:stedsnr" v="469935" />
	</node>
	<node lat="58.41338611239129" lon="8.312086115010215" id="-27919">
		<tag k="name" v="Stueslåtta" />
		<tag k="natural" v="wetland" />
		<tag k="ssr:stedsnr" v="336030" />
	</node>
	<node lat="58.4304111152968" lon="8.310091671350742" id="-27920">
		<tag k="name" v="Floksemyr" />
		<tag k="natural" v="wetland" />
		<tag k="ssr:stedsnr" v="336033" />
	</node>
	<node lat="58.3934444454992" lon="8.303613886572304" id="-27922">
		<tag k="name" v="Storeslåtta" />
		<tag k="natural" v="wetland" />
		<tag k="ssr:stedsnr" v="336050" />
	</node>
	<node lat="58.393261112865495" lon="8.295869449909842" id="-27923">
		<tag k="name" v="Haremyr" />
		<tag k="natural" v="wetland" />
		<tag k="ssr:stedsnr" v="336054" />
	</node>
	<node lat="58.377663887167" lon="8.275972219954562" id="-27933">
		<tag k="name" v="Storekleivmyr" />
		<tag k="natural" v="wetland" />
		<tag k="ssr:stedsnr" v="336755" />
	</node>
	<node lat="58.25820000398439" lon="8.218991672891539" id="-27936">
		<tag k="name" v="Svartensmyr" />
		<tag k="natural" v="wetland" />
		<tag k="ssr:stedsnr" v="336909" />
	</node>
	<node lat="58.279600003350886" lon="8.20242500043483" id="-27937">
		<tag k="name" v="Lonemyra" />
		<tag k="natural" v="wetland" />
		<tag k="ssr:stedsnr" v="336911" />
	</node>
	<node lat="58.46389444199188" lon="8.11511666289731" id="-27940">
		<tag k="name" v="Dyblemyr" />
		<tag k="natural" v="wetland" />
		<tag k="ssr:stedsnr" v="346863" />
	</node>
	<node lat="58.467925003879174" lon="8.176891671158307" id="-27941">
		<tag k="name" v="Langemyr" />
		<tag k="natural" v="wetland" />
		<tag k="ssr:stedsnr" v="346868" />
	</node>
	<node lat="58.54140277850959" lon="8.292544442296764" id="-27945">
		<tag k="name" v="Linneskotsteinen" />
		<tag k="natural" v="stone" />
		<tag k="ssr:stedsnr" v="347013" />
	</node>
	<node lat="58.535563889334625" lon="8.27731388359479" id="-27946">
		<tag k="name" v="Djupemyr" />
		<tag k="natural" v="wetland" />
		<tag k="ssr:stedsnr" v="347015" />
	</node>
	<node lat="58.522766668263884" lon="8.244541661844377" id="-27947">
		<tag k="name" v="Arnekjerr" />
		<tag k="natural" v="wetland" />
		<tag k="ssr:stedsnr" v="347066" />
	</node>
	<node lat="58.42070000381458" lon="8.248550003542395" id="-27955">
		<tag k="name" v="Bjelkebergmyra" />
		<tag k="natural" v="wetland" />
		<tag k="ssr:stedsnr" v="347461" />
	</node>
	<node lat="58.52103888617344" lon="8.268575008370465" id="-27965">
		<tag k="name" v="Plassen" />
		<tag k="natural" v="wetland" />
		<tag k="ssr:stedsnr" v="347909" />
	</node>
	<node lat="58.50833055507655" lon="8.074200000065538" id="-27966">
		<tag k="name" v="Tveitvamyra" />
		<tag k="natural" v="wetland" />
		<tag k="ssr:stedsnr" v="473885" />
	</node>
	<node lat="58.51002777661218" lon="8.126544444495954" id="-27969">
		<tag k="name" v="Dyblemyr" />
		<tag k="natural" v="wetland" />
		<tag k="ssr:stedsnr" v="473898" />
	</node>
	<node lat="58.56327777535638" lon="8.122850000231937" id="-27975">
		<tag k="name" v="Kringlemyr" />
		<tag k="natural" v="wetland" />
		<tag k="ssr:stedsnr" v="474086" />
	</node>
	<node lat="58.562022224058246" lon="8.128236104987689" id="-27976">
		<tag k="name" v="Tjøregrovmyra" />
		<tag k="natural" v="wetland" />
		<tag k="ssr:stedsnr" v="474091" />
	</node>
	<node lat="58.57540555122922" lon="8.155052777895252" id="-27977">
		<tag k="name" v="Orremyr" />
		<tag k="natural" v="wetland" />
		<tag k="ssr:stedsnr" v="474097" />
	</node>
	<node lat="58.52023055122153" lon="8.16604165861436" id="-27978">
		<tag k="name" v="Furelunden" />
		<tag k="place" v="locality" />
		<tag k="ssr:stedsnr" v="474098" />
	</node>
	<node lat="58.571375002711044" lon="8.159719436798106" id="-27979">
		<tag k="name" v="Jabromyra" />
		<tag k="natural" v="wetland" />
		<tag k="ssr:stedsnr" v="474101" />
	</node>
	<node lat="58.52823055179606" lon="8.07982499170524" id="-27980">
		<tag k="name" v="Rynningen" />
		<tag k="natural" v="wetland" />
		<tag k="ssr:stedsnr" v="474200" />
	</node>
	<node lat="58.53057222538373" lon="8.056766668508425" id="-27981">
		<tag k="name" v="Mannfallsteinen" />
		<tag k="natural" v="stone" />
		<tag k="ssr:stedsnr" v="474205" />
	</node>
	<node lat="58.54609444260671" lon="8.063730549530696" id="-27989">
		<tag k="name" v="Palemyr" />
		<tag k="natural" v="wetland" />
		<tag k="ssr:stedsnr" v="474321" />
	</node>
	<node lat="58.50698888553295" lon="8.057366675203676" id="-27994">
		<tag k="name" v="Taraldslått" />
		<tag k="natural" v="wetland" />
		<tag k="ssr:stedsnr" v="352857" />
	</node>
	<node lat="58.50113333481443" lon="8.050183327259377" id="-27995">
		<tag k="name" v="Sledemyr" />
		<tag k="natural" v="wetland" />
		<tag k="ssr:stedsnr" v="353073" />
	</node>
	<node lat="58.53547500000702" lon="8.211991666859921" id="-27996">
		<tag k="name" v="Ospålmyra" />
		<tag k="natural" v="wetland" />
		<tag k="ssr:stedsnr" v="353155" />
	</node>
	<node lat="58.499652777027535" lon="8.136980556940024" id="-28000">
		<tag k="name" v="Grankjerret" />
		<tag k="natural" v="wetland" />
		<tag k="ssr:stedsnr" v="353908" />
	</node>
	<node lat="58.53980277335662" lon="8.187741660327369" id="-28006">
		<tag k="name" v="Bumyrholtet" />
		<tag k="place" v="locality" />
		<tag k="ssr:stedsnr" v="474490" />
	</node>
	<node lat="58.531355555798356" lon="7.937144437470701" id="-28010">
		<tag k="name" v="Kjerrane" />
		<tag k="natural" v="wetland" />
		<tag k="ssr:stedsnr" v="474683" />
	</node>
	<node lat="58.52832500128479" lon="8.045527783565262" id="-28018">
		<tag k="name" v="Hagemyr" />
		<tag k="natural" v="wetland" />
		<tag k="ssr:stedsnr" v="474752" />
	</node>
	<node lat="58.52944722444761" lon="7.956308339350686" id="-28024">
		<tag k="name" v="Jordesmyr" />
		<tag k="natural" v="wetland" />
		<tag k="ssr:stedsnr" v="475932" />
	</node>
	<node lat="58.51012777624336" lon="8.198325003457342" id="-28028">
		<tag k="alt_name" v="Buslåtta" />
		<tag k="name" v="Buslått" />
		<tag k="natural" v="wetland" />
		<tag k="ssr:stedsnr" v="364034" />
	</node>
	<node lat="58.29010555394682" lon="8.223619441932215" id="-28049">
		<tag k="name" v="Skottkjerrane" />
		<tag k="natural" v="wetland" />
		<tag k="ssr:stedsnr" v="392304" />
	</node>
	<node lat="58.29185833362489" lon="8.229236102637197" id="-28050">
		<tag k="name" v="Dybleåsmyra" />
		<tag k="natural" v="wetland" />
		<tag k="ssr:stedsnr" v="392305" />
	</node>
	<node lat="58.281322224808676" lon="8.242797215322224" id="-28051">
		<tag k="name" v="Havane" />
		<tag k="place" v="locality" />
		<tag k="ssr:stedsnr" v="392312" />
	</node>
	<node lat="58.29106111083846" lon="8.2489083309042" id="-28053">
		<tag k="name" v="Forborgsmyr" />
		<tag k="natural" v="wetland" />
		<tag k="ssr:stedsnr" v="392297" />
	</node>
	<node lat="58.471874998308174" lon="8.313691660591527" id="-28056">
		<tag k="name" v="Storemyr" />
		<tag k="natural" v="wetland" />
		<tag k="ssr:stedsnr" v="396108" />
	</node>
	<node lat="58.48895833123858" lon="8.286611115519328" id="-28058">
		<tag k="name" v="Kringlemyrkjerrane" />
		<tag k="natural" v="wetland" />
		<tag k="ssr:stedsnr" v="396129" />
	</node>
	<node lat="58.4587972248167" lon="8.370463886107228" id="-28060">
		<tag k="name" v="Olasskau" />
		<tag k="place" v="locality" />
		<tag k="ssr:stedsnr" v="396136" />
	</node>
	<node lat="58.46921667084424" lon="8.281255547204495" id="-28069">
		<tag k="name" v="Kyrkjekjerr" />
		<tag k="natural" v="wetland" />
		<tag k="ssr:stedsnr" v="396079" />
	</node>
	<node lat="58.47102221916421" lon="8.35066389314211" id="-28074">
		<tag k="name" v="Storemyr" />
		<tag k="natural" v="wetland" />
		<tag k="ssr:stedsnr" v="396100" />
	</node>
	<node lat="58.50059999821504" lon="8.310502776690647" id="-28075">
		<tag k="name" v="Snømyr" />
		<tag k="natural" v="wetland" />
		<tag k="ssr:stedsnr" v="396228" />
	</node>
	<node lat="58.51597500327437" lon="8.314388889991987" id="-28076">
		<tag k="name" v="Lille Langemyr" />
		<tag k="natural" v="wetland" />
		<tag k="ssr:stedsnr" v="396237" />
	</node>
	<node lat="58.48358611537326" lon="8.381447228215631" id="-28077">
		<tag k="name" v="Storslåtta" />
		<tag k="natural" v="wetland" />
		<tag k="ssr:stedsnr" v="396183" />
	</node>
	<node lat="58.580063888636865" lon="8.415205557809088" id="-28082">
		<tag k="name" v="Varmyr" />
		<tag k="natural" v="wetland" />
		<tag k="ssr:stedsnr" v="396337" />
	</node>
	<node lat="58.36283889145217" lon="8.298713888680108" id="-28087">
		<tag k="name" v="Kartmyrheia" />
		<tag k="natural" v="wetland" />
		<tag k="ssr:stedsnr" v="396782" />
	</node>
	<node lat="58.37663333049967" lon="8.227511116755325" id="-28090">
		<tag k="name" v="Røyselandsmyrane" />
		<tag k="natural" v="wetland" />
		<tag k="ssr:stedsnr" v="396796" />
	</node>
	<node lat="58.25583055304199" lon="8.165413893620634" id="-28092">
		<tag k="name" v="Myrkrogen" />
		<tag k="place" v="locality" />
		<tag k="ssr:stedsnr" v="396909" />
	</node>
	<node lat="58.55251944607376" lon="8.22366944254025" id="-28104">
		<tag k="name" v="Bjønnemyr" />
		<tag k="natural" v="wetland" />
		<tag k="ssr:stedsnr" v="400079" />
	</node>
	<node lat="58.53914166557156" lon="8.19112777205401" id="-28113">
		<tag k="alt_name" v="Bumyrane" />
		<tag k="name" v="Bumyr" />
		<tag k="natural" v="wetland" />
		<tag k="ssr:stedsnr" v="486250" />
	</node>
	<node lat="58.50826110850057" lon="8.210908330322876" id="-28127">
		<tag k="name" v="Kartemyr" />
		<tag k="natural" v="wetland" />
		<tag k="ssr:stedsnr" v="407941" />
	</node>
	<node lat="58.546219445107084" lon="8.231255558852617" id="-28128">
		<tag k="name" v="Teremyr" />
		<tag k="natural" v="wetland" />
		<tag k="ssr:stedsnr" v="408110" />
	</node>
	<node lat="58.52383888579583" lon="8.082266674680456" id="-28131">
		<tag k="name" v="Storemyr" />
		<tag k="natural" v="wetland" />
		<tag k="ssr:stedsnr" v="486456" />
	</node>
	<node lat="58.388630559735766" lon="8.118297218330394" id="-28140">
		<tag k="name" v="Venemyr" />
		<tag k="natural" v="wetland" />
		<tag k="ssr:stedsnr" v="408446" />
	</node>
	<node lat="58.389863890551176" lon="8.115858334428692" id="-28141">
		<tag k="name" v="Jonsmyr" />
		<tag k="natural" v="wetland" />
		<tag k="ssr:stedsnr" v="408448" />
	</node>
	<node lat="58.41056944224842" lon="8.221269436934719" id="-28144">
		<tag k="name" v="Kartmyr" />
		<tag k="natural" v="wetland" />
		<tag k="ssr:stedsnr" v="408503" />
	</node>
	<node lat="58.300055558534666" lon="8.10670833756218" id="-28148">
		<tag k="name" v="Hæmyr" />
		<tag k="natural" v="wetland" />
		<tag k="ssr:stedsnr" v="408567" />
	</node>
	<node lat="58.426580552214446" lon="8.265061110141682" id="-28149">
		<tag k="name" v="Slompane" />
		<tag k="natural" v="wetland" />
		<tag k="ssr:stedsnr" v="408491" />
	</node>
	<node lat="58.48934722640125" lon="8.187583330133869" id="-28152">
		<tag k="name" v="Linmyr" />
		<tag k="natural" v="wetland" />
		<tag k="ssr:stedsnr" v="408825" />
	</node>
	<node lat="58.48904999883416" lon="8.225869437264993" id="-28158">
		<tag k="name" v="Røyrmyr" />
		<tag k="natural" v="wetland" />
		<tag k="ssr:stedsnr" v="408791" />
	</node>
	<node lat="58.509650003848584" lon="8.270052774970662" id="-28160">
		<tag k="name" v="Moltemyr" />
		<tag k="natural" v="wetland" />
		<tag k="ssr:stedsnr" v="408923" />
	</node>
	<node lat="58.54617222248232" lon="8.029158326601154" id="-28166">
		<tag k="name" v="Storemyr" />
		<tag k="natural" v="wetland" />
		<tag k="ssr:stedsnr" v="413303" />
	</node>
	<node lat="58.542563884468294" lon="8.019836106642185" id="-28167">
		<tag k="name" v="Fåremyr" />
		<tag k="natural" v="wetland" />
		<tag k="ssr:stedsnr" v="413306" />
	</node>
	<node lat="58.54228055853773" lon="8.213277781275734" id="-28172">
		<tag k="name" v="Finnbuslåtta" />
		<tag k="natural" v="wetland" />
		<tag k="ssr:stedsnr" v="413503" />
	</node>
	<node lat="58.51197222458059" lon="8.115155552065387" id="-28177">
		<tag k="name" v="Songereikjerret" />
		<tag k="natural" v="wetland" />
		<tag k="ssr:stedsnr" v="413894" />
	</node>
	<node lat="58.519352775405864" lon="8.183791671493143" id="-28179">
		<tag k="name" v="Ospelømyr" />
		<tag k="natural" v="wetland" />
		<tag k="ssr:stedsnr" v="414106" />
	</node>
	<node lat="58.53067221845777" lon="7.974061109846407" id="-28188">
		<tag k="name" v="Nordstrondmyra" />
		<tag k="natural" v="wetland" />
		<tag k="ssr:stedsnr" v="414902" />
	</node>
	<node lat="58.53056944450642" lon="8.388788886884843" id="-28194">
		<tag k="alt_name" v="Krokmyr" />
		<tag k="name" v="Krokmyra" />
		<tag k="natural" v="wetland" />
		<tag k="ssr:stedsnr" v="425202" />
	</node>
	<node lat="58.506211111034936" lon="8.158430563206045" id="-28211">
		<tag k="fixme" v="multiple name tags, choose one and add the other to alt_name" />
		<tag k="name" v="Storemyr;Fibumonsmyra" />
		<tag k="natural" v="wetland" />
		<tag k="ssr:stedsnr" v="426157" />
	</node>
	<node lat="58.32818333538504" lon="8.285950008046756" id="-28218">
		<tag k="name" v="Risvannmyrene" />
		<tag k="natural" v="wetland" />
		<tag k="ssr:stedsnr" v="452470" />
	</node>
	<node lat="58.34462221957775" lon="8.276313885939642" id="-28222">
		<tag k="name" v="Fjellbukjerr" />
		<tag k="place" v="locality" />
		<tag k="ssr:stedsnr" v="453671" />
	</node>
	<node lat="58.482127773472364" lon="8.305705556842438" id="-28233">
		<tag k="name" v="Snauemyr" />
		<tag k="natural" v="wetland" />
		<tag k="ssr:stedsnr" v="457161" />
	</node>
	<node lat="58.42317500166595" lon="8.313686111776775" id="-28242">
		<tag k="name" v="Blautmyr" />
		<tag k="natural" v="wetland" />
		<tag k="ssr:stedsnr" v="457028" />
	</node>
	<node lat="58.42238611091331" lon="8.335486119125363" id="-28243">
		<tag k="name" v="Gundersmyrane" />
		<tag k="natural" v="wetland" />
		<tag k="ssr:stedsnr" v="457036" />
	</node>
	<node lat="58.544194446103226" lon="8.376188894525534" id="-28253">
		<tag k="name" v="Bjønnekjerret" />
		<tag k="natural" v="wetland" />
		<tag k="ssr:stedsnr" v="457258" />
	</node>
	<node lat="58.5658722179502" lon="8.36290277723043" id="-28254">
		<tag k="name" v="Bjønneskrella" />
		<tag k="place" v="locality" />
		<tag k="ssr:stedsnr" v="457274" />
	</node>
	<node lat="58.40709166469191" lon="8.273044449877673" id="-28265">
		<tag k="name" v="Tjærestrøm-øygard" />
		<tag k="natural" v="wetland" />
		<tag k="ssr:stedsnr" v="457783" />
	</node>
	<node lat="58.25758055231583" lon="8.193011116718809" id="-28266">
		<tag k="name" v="Lyngmyr" />
		<tag k="natural" v="wetland" />
		<tag k="ssr:stedsnr" v="457908" />
	</node>
	<node lat="58.26007499976275" lon="8.176519450595684" id="-28267">
		<tag k="name" v="Skrubbekjerr" />
		<tag k="natural" v="wetland" />
		<tag k="ssr:stedsnr" v="457912" />
	</node>
	<node lat="58.28029444591877" lon="8.123827778861068" id="-28268">
		<tag k="name" v="Stemmyr" />
		<tag k="natural" v="wetland" />
		<tag k="ssr:stedsnr" v="457960" />
	</node>
	<node lat="58.43505833529564" lon="8.127922215370623" id="-28271">
		<tag k="name" v="Trollmyr" />
		<tag k="natural" v="wetland" />
		<tag k="ssr:stedsnr" v="468483" />
	</node>
	<node lat="58.372677774909285" lon="8.060383335318768" id="-28276">
		<tag k="name" v="Moltemyr" />
		<tag k="natural" v="wetland" />
		<tag k="ssr:stedsnr" v="468523" />
	</node>
	<node lat="58.46140277949189" lon="8.222280557192294" id="-28280">
		<tag k="name" v="Hagemyr" />
		<tag k="natural" v="wetland" />
		<tag k="ssr:stedsnr" v="468820" />
	</node>
	<node lat="58.54040555776671" lon="8.235816670197044" id="-28288">
		<tag k="name" v="Nedre Treldalsmyr" />
		<tag k="natural" v="wetland" />
		<tag k="ssr:stedsnr" v="469104" />
	</node>
	<node lat="58.42903055437294" lon="8.191913889392143" id="-28295">
		<tag k="name" v="Andersslåttene" />
		<tag k="natural" v="wetland" />
		<tag k="ssr:stedsnr" v="469308" />
	</node>
	<node lat="58.42325277807081" lon="8.206561107216803" id="-28296">
		<tag k="name" v="Tretteslåtta" />
		<tag k="natural" v="wetland" />
		<tag k="ssr:stedsnr" v="469310" />
	</node>
	<node lat="58.43530277682472" lon="8.17790833863813" id="-28299">
		<tag k="name" v="Revurslåttene" />
		<tag k="natural" v="wetland" />
		<tag k="ssr:stedsnr" v="469367" />
	</node>
	<node lat="58.35952777552443" lon="8.214455561662016" id="-28303">
		<tag k="name" v="Porsmyr" />
		<tag k="natural" v="wetland" />
		<tag k="ssr:stedsnr" v="469461" />
	</node>
	<node lat="58.40937777638631" lon="8.139777771211053" id="-28304">
		<tag k="name" v="Bjønnskjeggmyra" />
		<tag k="natural" v="wetland" />
		<tag k="ssr:stedsnr" v="469464" />
	</node>
	<node lat="58.403375003450115" lon="8.127488885694886" id="-28305">
		<tag k="name" v="Øytjønnmyra" />
		<tag k="natural" v="wetland" />
		<tag k="ssr:stedsnr" v="469465" />
	</node>
	<node lat="58.37311944891947" lon="8.170827773012135" id="-28306">
		<tag k="name" v="Lauvstakkmyra" />
		<tag k="natural" v="wetland" />
		<tag k="ssr:stedsnr" v="469476" />
	</node>
	<node lat="58.394791670609735" lon="8.123738895689279" id="-28307">
		<tag k="name" v="Hjuringmyrane" />
		<tag k="natural" v="wetland" />
		<tag k="ssr:stedsnr" v="469477" />
	</node>
	<node lat="58.404827776715926" lon="8.160183338238543" id="-28308">
		<tag k="name" v="Hellerslåtta" />
		<tag k="natural" v="wetland" />
		<tag k="ssr:stedsnr" v="469483" />
	</node>
	<node lat="58.41350833663431" lon="8.246747223125853" id="-28309">
		<tag k="name" v="Vådremyr" />
		<tag k="natural" v="wetland" />
		<tag k="ssr:stedsnr" v="469487" />
	</node>
	<node lat="58.41686666708514" lon="8.248325001539557" id="-28310">
		<tag k="name" v="Allemannsslåtta" />
		<tag k="natural" v="wetland" />
		<tag k="ssr:stedsnr" v="469490" />
	</node>
	<node lat="58.301011107372524" lon="8.076991666845604" id="-28321">
		<tag k="name" v="Liråsmyra" />
		<tag k="natural" v="wetland" />
		<tag k="ssr:stedsnr" v="469710" />
	</node>
	<node lat="58.45633333263785" lon="8.247672226253217" id="-28324">
		<tag k="name" v="Påldalsmyra" />
		<tag k="natural" v="wetland" />
		<tag k="ssr:stedsnr" v="469811" />
	</node>
	<node lat="58.501127781003674" lon="8.227288886185917" id="-28327">
		<tag k="name" v="Molddalsmyrane" />
		<tag k="natural" v="wetland" />
		<tag k="ssr:stedsnr" v="469906" />
	</node>
	<node lat="58.50835833341818" lon="8.253041666505338" id="-28328">
		<tag k="name" v="Hestmyr" />
		<tag k="natural" v="wetland" />
		<tag k="ssr:stedsnr" v="469909" />
	</node>
	<node lat="58.52311110852035" lon="8.123477777245471" id="-28336">
		<tag k="name" v="Homsletta" />
		<tag k="place" v="locality" />
		<tag k="ssr:stedsnr" v="474124" />
	</node>
	<node lat="58.4799194405297" lon="8.098674996346817" id="-28343">
		<tag k="name" v="Hommemyra" />
		<tag k="natural" v="wetland" />
		<tag k="ssr:stedsnr" v="475812" />
	</node>
	<node lat="58.48706111236427" lon="8.158502785274203" id="-28344">
		<tag k="name" v="Dyblemyr" />
		<tag k="natural" v="wetland" />
		<tag k="ssr:stedsnr" v="475826" />
	</node>
	<node lat="58.41080832934788" lon="8.243858332959533" id="-28359">
		<tag k="name" v="Oksemyr" />
		<tag k="natural" v="wetland" />
		<tag k="ssr:stedsnr" v="485370" />
	</node>
	<node lat="58.568977780186906" lon="8.172694438460642" id="-28367">
		<tag k="name" v="Storemyr" />
		<tag k="natural" v="wetland" />
		<tag k="ssr:stedsnr" v="486111" />
	</node>
	<node lat="58.52527777649151" lon="8.270086117840972" id="-28371">
		<tag k="name" v="Råbumyrane" />
		<tag k="natural" v="wetland" />
		<tag k="ssr:stedsnr" v="491884" />
	</node>
	<node lat="58.26241111234917" lon="8.242016661460822" id="-28372">
		<tag k="name" v="Heieslåtta" />
		<tag k="natural" v="wetland" />
		<tag k="ssr:stedsnr" v="513294" />
	</node>
	<node lat="58.33776666332111" lon="8.25508054829279" id="-28374">
		<tag k="name" v="Langemyr" />
		<tag k="natural" v="wetland" />
		<tag k="ssr:stedsnr" v="513410" />
	</node>
	<node lat="58.33587500275807" lon="8.259074993054924" id="-28378">
		<tag k="name" v="Lyngmyr" />
		<tag k="natural" v="wetland" />
		<tag k="ssr:stedsnr" v="513366" />
	</node>
	<node lat="58.38420555273283" lon="8.306394437690352" id="-28380">
		<tag k="name" v="Bunnlausmyra" />
		<tag k="natural" v="wetland" />
		<tag k="ssr:stedsnr" v="518011" />
	</node>
	<node lat="58.39209444170249" lon="8.313286108381263" id="-28385">
		<tag k="name" v="Digesmyr" />
		<tag k="natural" v="wetland" />
		<tag k="ssr:stedsnr" v="518067" />
	</node>
	<node lat="58.49225000396753" lon="8.377583325374351" id="-28389">
		<tag k="name" v="Slipebekkmyra" />
		<tag k="natural" v="wetland" />
		<tag k="ssr:stedsnr" v="518222" />
	</node>
	<node lat="58.540977780325406" lon="8.35106110412798" id="-28391">
		<tag k="name" v="Fiekrekken" />
		<tag k="natural" v="wetland" />
		<tag k="ssr:stedsnr" v="518312" />
	</node>
	<node lat="58.591966666071436" lon="8.359705559840467" id="-28394">
		<tag k="name" v="Astrismyr" />
		<tag k="natural" v="wetland" />
		<tag k="ssr:stedsnr" v="518337" />
	</node>
	<node lat="58.519150000267096" lon="8.34896110722718" id="-28397">
		<tag k="name" v="Gåsehagen" />
		<tag k="place" v="locality" />
		<tag k="ssr:stedsnr" v="518259" />
	</node>
	<node lat="58.353594442507145" lon="8.305163892253221" id="-28398">
		<tag k="name" v="Fiane" />
		<tag k="natural" v="wetland" />
		<tag k="ssr:stedsnr" v="518743" />
	</node>
	<node lat="58.367788885181845" lon="8.294413893177865" id="-28400">
		<tag k="name" v="Forremyra" />
		<tag k="natural" v="wetland" />
		<tag k="ssr:stedsnr" v="518761" />
	</node>
	<node lat="58.46759166892041" lon="8.248622222578543" id="-28412">
		<tag k="name" v="Løekjerra" />
		<tag k="natural" v="wetland" />
		<tag k="ssr:stedsnr" v="528831" />
	</node>
	<node lat="58.35111388863046" lon="8.123330560083039" id="-28419">
		<tag k="name" v="Fænmyr" />
		<tag k="natural" v="wetland" />
		<tag k="ssr:stedsnr" v="529308" />
	</node>
	<node lat="58.3673499993373" lon="8.153536106545655" id="-28420">
		<tag k="name" v="Båskjerr" />
		<tag k="natural" v="wetland" />
		<tag k="ssr:stedsnr" v="529405" />
	</node>
	<node lat="58.4976722188621" lon="8.221441670299287" id="-28430">
		<tag k="name" v="Båsvassmyrane" />
		<tag k="natural" v="wetland" />
		<tag k="ssr:stedsnr" v="529918" />
	</node>
	<node lat="58.49208333111333" lon="8.218002780100221" id="-28433">
		<tag k="name" v="Store Kringlemyr" />
		<tag k="natural" v="wetland" />
		<tag k="ssr:stedsnr" v="529822" />
	</node>
	<node lat="58.53103333530586" lon="8.213472225107047" id="-28437">
		<tag k="name" v="Orreleiksmyra" />
		<tag k="natural" v="wetland" />
		<tag k="ssr:stedsnr" v="535105" />
	</node>
	<node lat="58.5207305523874" lon="8.159636117280497" id="-28439">
		<tag k="name" v="Tukarten" />
		<tag k="natural" v="wetland" />
		<tag k="ssr:stedsnr" v="535117" />
	</node>
	<node lat="58.53477777406489" lon="8.201658327975638" id="-28440">
		<tag k="name" v="Sandhaugane" />
		<tag k="place" v="locality" />
		<tag k="ssr:stedsnr" v="535124" />
	</node>
	<node lat="58.481172224507674" lon="8.045900005223283" id="-28442">
		<tag k="name" v="Kvennemyrane" />
		<tag k="natural" v="wetland" />
		<tag k="ssr:stedsnr" v="535015" />
	</node>
	<node lat="58.54775833243018" lon="8.051502778179342" id="-28456">
		<tag k="name" v="Storemyr" />
		<tag k="natural" v="wetland" />
		<tag k="ssr:stedsnr" v="535287" />
	</node>
	<node lat="58.55876389042073" lon="8.206444441420278" id="-28457">
		<tag k="name" v="Lillemyr" />
		<tag k="natural" v="wetland" />
		<tag k="ssr:stedsnr" v="535480" />
	</node>
	<node lat="58.55133611257176" lon="8.18338611359686" id="-28469">
		<tag k="alt_name" v="Jabrumyra" />
		<tag k="name" v="Jabrumyrane" />
		<tag k="natural" v="wetland" />
		<tag k="ssr:stedsnr" v="546222" />
	</node>
	<node lat="58.48993889191519" lon="8.150322214940031" id="-28475">
		<tag k="name" v="Storemyr" />
		<tag k="natural" v="wetland" />
		<tag k="ssr:stedsnr" v="546417" />
	</node>
	<node lat="58.585630558182544" lon="8.130194445092762" id="-28485">
		<tag k="alt_name" v="Storemyra" />
		<tag k="name" v="Storemyr" />
		<tag k="natural" v="wetland" />
		<tag k="ssr:stedsnr" v="547176" />
	</node>
	<node lat="58.39838055915851" lon="8.16997222994744" id="-28488">
		<tag k="name" v="Langemyr" />
		<tag k="natural" v="wetland" />
		<tag k="ssr:stedsnr" v="551453" />
	</node>
	<node lat="58.326850000741665" lon="8.188491663702116" id="-28494">
		<tag k="name" v="Monemyra" />
		<tag k="place" v="locality" />
		<tag k="ssr:stedsnr" v="574411" />
	</node>
	<node lat="58.29927500438691" lon="8.249469442314455" id="-28495">
		<tag k="name" v="Rundetjønnhaven" />
		<tag k="natural" v="wetland" />
		<tag k="ssr:stedsnr" v="574305" />
	</node>
	<node lat="58.251999999571986" lon="8.234016672175706" id="-28499">
		<tag k="name" v="Byttingskjerr" />
		<tag k="natural" v="wetland" />
		<tag k="ssr:stedsnr" v="574345" />
	</node>
	<node lat="58.336022220581256" lon="8.239616659590158" id="-28500">
		<tag k="name" v="Kartemyr" />
		<tag k="natural" v="wetland" />
		<tag k="ssr:stedsnr" v="574352" />
	</node>
	<node lat="58.33318888562929" lon="8.234819444887679" id="-28501">
		<tag k="name" v="Smedenskjerr" />
		<tag k="natural" v="wetland" />
		<tag k="ssr:stedsnr" v="574355" />
	</node>
	<node lat="58.337822223346166" lon="8.29129167152833" id="-28502">
		<tag k="name" v="Forremyr" />
		<tag k="natural" v="wetland" />
		<tag k="ssr:stedsnr" v="574695" />
	</node>
	<node lat="58.3707444415837" lon="8.318363892674322" id="-28504">
		<tag k="name" v="Loneslåtta" />
		<tag k="natural" v="wetland" />
		<tag k="ssr:stedsnr" v="578009" />
	</node>
	<node lat="58.491213890250755" lon="8.29758332760589" id="-28510">
		<tag k="name" v="Grunnevassmyra" />
		<tag k="natural" v="wetland" />
		<tag k="ssr:stedsnr" v="578156" />
	</node>
	<node lat="58.569577773762" lon="8.408288886631292" id="-28512">
		<tag k="name" v="Bjønnekjerret" />
		<tag k="natural" v="wetland" />
		<tag k="ssr:stedsnr" v="578303" />
	</node>
	<node lat="58.49392222333205" lon="8.302769438087607" id="-28522">
		<tag k="name" v="Øvre Midtslåtta" />
		<tag k="natural" v="wetland" />
		<tag k="ssr:stedsnr" v="578816" />
	</node>
	<node lat="58.583141667559964" lon="8.424499994169564" id="-28524">
		<tag k="name" v="Grasskjerra" />
		<tag k="natural" v="wetland" />
		<tag k="ssr:stedsnr" v="578829" />
	</node>
	<node lat="58.29187777851808" lon="8.170391674938866" id="-28526">
		<tag k="name" v="Kringlemyr" />
		<tag k="natural" v="wetland" />
		<tag k="ssr:stedsnr" v="578999" />
	</node>
	<node lat="58.316866668738925" lon="8.243588896019508" id="-28529">
		<tag k="name" v="Grosmyr" />
		<tag k="natural" v="wetland" />
		<tag k="ssr:stedsnr" v="695365" />
	</node>
	<node lat="58.34253888531861" lon="8.248680551026188" id="-28531">
		<tag k="name" v="Øygardsmyra" />
		<tag k="natural" v="wetland" />
		<tag k="ssr:stedsnr" v="695393" />
	</node>
	<node lat="58.324630558561275" lon="8.280261116351896" id="-28534">
		<tag k="name" v="Småmyrene" />
		<tag k="natural" v="wetland" />
		<tag k="ssr:stedsnr" v="695474" />
	</node>
	<node lat="58.446758337178714" lon="8.188902785116229" id="-28544">
		<tag k="name" v="Gunnarslåttene" />
		<tag k="natural" v="wetland" />
		<tag k="ssr:stedsnr" v="589223" />
	</node>
	<node lat="58.41464444596805" lon="8.129800005473236" id="-28546">
		<tag k="name" v="Blåmyr" />
		<tag k="natural" v="wetland" />
		<tag k="ssr:stedsnr" v="589460" />
	</node>
	<node lat="58.43681110748092" lon="8.22739444095792" id="-28554">
		<tag k="name" v="Daletjønnmyrane" />
		<tag k="natural" v="wetland" />
		<tag k="ssr:stedsnr" v="590260" />
	</node>
	<node lat="58.45312778045076" lon="8.239361110372272" id="-28555">
		<tag k="name" v="Kjerrsmyr" />
		<tag k="natural" v="wetland" />
		<tag k="ssr:stedsnr" v="590276" />
	</node>
	<node lat="58.344508335414005" lon="8.147369440431147" id="-28556">
		<tag k="name" v="Birkenesslåtta" />
		<tag k="natural" v="wetland" />
		<tag k="ssr:stedsnr" v="590308" />
	</node>
	<node lat="58.452744440404054" lon="8.212402776291134" id="-28562">
		<tag k="name" v="Heggvollslåtta" />
		<tag k="natural" v="wetland" />
		<tag k="ssr:stedsnr" v="590382" />
	</node>
	<node lat="58.42021111514309" lon="8.143569444137432" id="-28567">
		<tag k="name" v="Indre Øygardsmyr" />
		<tag k="natural" v="wetland" />
		<tag k="ssr:stedsnr" v="590509" />
	</node>
	<node lat="58.42152499764581" lon="8.232049996514013" id="-28568">
		<tag k="name" v="Skaumyra" />
		<tag k="natural" v="wetland" />
		<tag k="ssr:stedsnr" v="590513" />
	</node>
	<node lat="58.41608333471157" lon="8.134752783878948" id="-28569">
		<tag k="name" v="Dybleslåtten" />
		<tag k="natural" v="wetland" />
		<tag k="ssr:stedsnr" v="590514" />
	</node>
	<node lat="58.41801389286498" lon="8.222774994882263" id="-28570">
		<tag k="name" v="Ruggemyr" />
		<tag k="natural" v="wetland" />
		<tag k="ssr:stedsnr" v="590515" />
	</node>
	<node lat="58.43597222141662" lon="8.123516661181592" id="-28576">
		<tag k="name" v="Langemyr" />
		<tag k="natural" v="wetland" />
		<tag k="ssr:stedsnr" v="590529" />
	</node>
	<node lat="58.42678055629199" lon="8.258641659043908" id="-28579">
		<tag k="name" v="Langemyr" />
		<tag k="natural" v="wetland" />
		<tag k="ssr:stedsnr" v="590476" />
	</node>
	<node lat="58.48126111491316" lon="8.20896943765476" id="-28587">
		<tag k="name" v="Porskjerret" />
		<tag k="natural" v="wetland" />
		<tag k="ssr:stedsnr" v="590771" />
	</node>
	<node lat="58.50464721892555" lon="8.172230552499567" id="-28590">
		<tag k="name" v="Røyrmyr" />
		<tag k="natural" v="wetland" />
		<tag k="ssr:stedsnr" v="590925" />
	</node>
	<node lat="58.562400003813735" lon="8.10656666017468" id="-28594">
		<tag k="name" v="Rundemyr" />
		<tag k="natural" v="wetland" />
		<tag k="ssr:stedsnr" v="595063" />
	</node>
	<node lat="58.554733331604155" lon="8.137600003758008" id="-28596">
		<tag k="name" v="Bjønnehimyra" />
		<tag k="natural" v="wetland" />
		<tag k="ssr:stedsnr" v="595318" />
	</node>
	<node lat="58.59476388945952" lon="8.193394443279505" id="-28607">
		<tag k="name" v="Snømyr" />
		<tag k="natural" v="wetland" />
		<tag k="ssr:stedsnr" v="595669" />
	</node>
	<node lat="58.51376944283951" lon="7.983216665265432" id="-28609">
		<tag k="name" v="Pottemyr" />
		<tag k="natural" v="wetland" />
		<tag k="ssr:stedsnr" v="596105" />
	</node>
	<node lat="58.5653249978053" lon="8.18223333903819" id="-28621">
		<tag k="name" v="Varpemyr" />
		<tag k="natural" v="wetland" />
		<tag k="ssr:stedsnr" v="596649" />
	</node>
	<node lat="58.4148861093265" lon="8.31077499815233" id="-28655">
		<tag k="name" v="Bjerkeslåtta" />
		<tag k="natural" v="wetland" />
		<tag k="ssr:stedsnr" v="700044" />
	</node>
	<node lat="58.42787777873387" lon="8.339572221707572" id="-28656">
		<tag k="name" v="Tollkarsmyrane" />
		<tag k="natural" v="wetland" />
		<tag k="ssr:stedsnr" v="700060" />
	</node>
	<node lat="58.460486111598314" lon="8.350283336023843" id="-28663">
		<tag k="name" v="Lauvåskjerrene" />
		<tag k="natural" v="wetland" />
		<tag k="ssr:stedsnr" v="700160" />
	</node>
	<node lat="58.58195277353172" lon="8.397202777144058" id="-28666">
		<tag k="name" v="Nedre Hesemyr" />
		<tag k="natural" v="wetland" />
		<tag k="ssr:stedsnr" v="700335" />
	</node>
	<node lat="58.52264999810197" lon="8.383236115841164" id="-28669">
		<tag k="name" v="Øygardsmyr" />
		<tag k="natural" v="wetland" />
		<tag k="ssr:stedsnr" v="700278" />
	</node>
	<node lat="58.55280833190259" lon="8.06330833817905" id="-28670">
		<tag k="name" v="Lille Bjørkestø" />
		<tag k="natural" v="wetland" />
		<tag k="ssr:stedsnr" v="717336" />
	</node>
	<node lat="58.52273332934582" lon="8.362591665954081" id="-28671">
		<tag k="name" v="Lille Skåremyr" />
		<tag k="natural" v="wetland" />
		<tag k="ssr:stedsnr" v="700281" />
	</node>
	<node lat="58.47138055943832" lon="8.393774999582362" id="-28691">
		<tag k="name" v="Gullmyra" />
		<tag k="natural" v="wetland" />
		<tag k="ssr:stedsnr" v="700853" />
	</node>
	<node lat="58.292072223800545" lon="8.132058335582101" id="-28694">
		<tag k="name" v="Løemyr" />
		<tag k="natural" v="wetland" />
		<tag k="ssr:stedsnr" v="700946" />
	</node>
	<node lat="58.25350555631482" lon="8.177027782750743" id="-28696">
		<tag k="name" v="Djupemyr" />
		<tag k="natural" v="wetland" />
		<tag k="ssr:stedsnr" v="700955" />
	</node>
	<node lat="58.33423611184913" lon="8.33286111652552" id="-28704">
		<tag k="name" v="Bjørkeslåtta" />
		<tag k="natural" v="wetland" />
		<tag k="ssr:stedsnr" v="634490" />
	</node>
	<node lat="58.390066667130164" lon="8.31453888988044" id="-28715">
		<tag k="name" v="Skrelletjennmyrane" />
		<tag k="natural" v="wetland" />
		<tag k="ssr:stedsnr" v="639081" />
	</node>
	<node lat="58.57207222646087" lon="8.363688896085064" id="-28720">
		<tag k="name" v="Orremyra" />
		<tag k="natural" v="wetland" />
		<tag k="ssr:stedsnr" v="639309" />
	</node>
	<node lat="58.54940000402427" lon="8.35869444934616" id="-28723">
		<tag k="name" v="Halsfetsteinen" />
		<tag k="natural" v="stone" />
		<tag k="ssr:stedsnr" v="639325" />
	</node>
	<node lat="58.35449444314549" lon="8.242733331969468" id="-28728">
		<tag k="name" v="Hestmyr" />
		<tag k="natural" v="wetland" />
		<tag k="ssr:stedsnr" v="639819" />
	</node>
	<node lat="58.31601944467848" lon="8.123405549380593" id="-28735">
		<tag k="name" v="Storåsmyra" />
		<tag k="natural" v="wetland" />
		<tag k="ssr:stedsnr" v="650218" />
	</node>
	<node lat="58.319422221260325" lon="8.157080562806472" id="-28736">
		<tag k="name" v="Bumyr" />
		<tag k="natural" v="wetland" />
		<tag k="ssr:stedsnr" v="650227" />
	</node>
	<node lat="58.311019443087964" lon="8.146608335212573" id="-28737">
		<tag k="name" v="Lofthusmyrene" />
		<tag k="natural" v="wetland" />
		<tag k="ssr:stedsnr" v="650233" />
	</node>
	<node lat="58.44783888918653" lon="8.211161102782" id="-28739">
		<tag k="name" v="Knuteslåtta" />
		<tag k="natural" v="wetland" />
		<tag k="ssr:stedsnr" v="650201" />
	</node>
	<node lat="58.3748250033792" lon="8.099141662096777" id="-28747">
		<tag k="name" v="Kartmyr" />
		<tag k="natural" v="wetland" />
		<tag k="ssr:stedsnr" v="650545" />
	</node>
	<node lat="58.31624166474301" lon="8.102366673962335" id="-28748">
		<tag k="name" v="Djupemyr" />
		<tag k="natural" v="wetland" />
		<tag k="ssr:stedsnr" v="650704" />
	</node>
	<node lat="58.31761666862285" lon="8.102558337377186" id="-28749">
		<tag k="name" v="Løemyr" />
		<tag k="natural" v="wetland" />
		<tag k="ssr:stedsnr" v="650709" />
	</node>
	<node lat="58.31155833378992" lon="8.103922229180014" id="-28752">
		<tag k="name" v="Moltemyra" />
		<tag k="natural" v="wetland" />
		<tag k="ssr:stedsnr" v="650696" />
	</node>
	<node lat="58.355149995872665" lon="8.096841672276376" id="-28760">
		<tag k="name" v="Djupemyr" />
		<tag k="natural" v="wetland" />
		<tag k="ssr:stedsnr" v="651645" />
	</node>
	<node lat="58.50944999822689" lon="8.095755559412018" id="-28763">
		<tag k="name" v="Tykkedalsmyra" />
		<tag k="natural" v="wetland" />
		<tag k="ssr:stedsnr" v="655988" />
	</node>
	<node lat="58.499286112285134" lon="8.037922216336884" id="-28765">
		<tag k="name" v="Øvre Fossmyr" />
		<tag k="natural" v="wetland" />
		<tag k="ssr:stedsnr" v="656033" />
	</node>
	<node lat="58.54515000409071" lon="8.15911666367559" id="-28769">
		<tag k="name" v="Øygardsmyr" />
		<tag k="natural" v="wetland" />
		<tag k="ssr:stedsnr" v="656381" />
	</node>
	<node lat="58.5183000024787" lon="8.008269442321645" id="-28775">
		<tag k="name" v="Midtkjerr" />
		<tag k="natural" v="wetland" />
		<tag k="ssr:stedsnr" v="656713" />
	</node>
	<node lat="58.52838333593789" lon="7.947102785944026" id="-28777">
		<tag k="name" v="Bussebekkmyra" />
		<tag k="natural" v="wetland" />
		<tag k="ssr:stedsnr" v="656901" />
	</node>
	<node lat="58.48908055927321" lon="8.087591668667288" id="-28785">
		<tag k="name" v="Store Stemvassmyra" />
		<tag k="natural" v="wetland" />
		<tag k="ssr:stedsnr" v="657906" />
	</node>
	<node lat="58.48733333245995" lon="8.06314166313362" id="-28786">
		<tag k="name" v="Stolpemyrslåtten" />
		<tag k="natural" v="wetland" />
		<tag k="ssr:stedsnr" v="657926" />
	</node>
	<node lat="58.41756388811817" lon="8.278449992685074" id="-28791">
		<tag k="alt_name" v="Ura" />
		<tag k="name" v="Urda" />
		<tag k="natural" v="scree" />
		<tag k="ssr:stedsnr" v="667404" />
	</node>
	<node lat="58.49757500055298" lon="8.260866668110689" id="-28809">
		<tag k="name" v="Småslåttane" />
		<tag k="natural" v="wetland" />
		<tag k="ssr:stedsnr" v="673915" />
	</node>
	<node lat="58.55035555186542" lon="8.324158333529892" id="-28820">
		<tag k="name" v="Lille Raundalsheimyr" />
		<tag k="natural" v="wetland" />
		<tag k="ssr:stedsnr" v="894145" />
	</node>
	<node lat="58.364124997654194" lon="8.188327780983757" id="-28827">
		<tag k="name" v="Gonhildsmyr" />
		<tag k="natural" v="wetland" />
		<tag k="ssr:stedsnr" v="894484" />
	</node>
	<node lat="58.39465000305664" lon="8.128663887537787" id="-28828">
		<tag k="name" v="Storemyr" />
		<tag k="natural" v="wetland" />
		<tag k="ssr:stedsnr" v="894486" />
	</node>
	<node lat="58.41302777397265" lon="8.128769450929346" id="-28831">
		<tag k="name" v="Fjellslåttene" />
		<tag k="natural" v="wetland" />
		<tag k="ssr:stedsnr" v="894631" />
	</node>
	<node lat="58.41945277868788" lon="8.231700004146528" id="-28835">
		<tag k="name" v="Løytane" />
		<tag k="natural" v="wetland" />
		<tag k="ssr:stedsnr" v="894549" />
	</node>
	<node lat="58.28706666251982" lon="8.103469441651105" id="-28837">
		<tag k="name" v="Røyrmyr" />
		<tag k="natural" v="wetland" />
		<tag k="ssr:stedsnr" v="894595" />
	</node>
	<node lat="58.3205500031265" lon="8.06018332635357" id="-28841">
		<tag k="name" v="Torjussteane" />
		<tag k="natural" v="wetland" />
		<tag k="ssr:stedsnr" v="894740" />
	</node>
	<node lat="58.3321444420096" lon="8.10298888616136" id="-28842">
		<tag k="name" v="Hønsehølmyra" />
		<tag k="natural" v="wetland" />
		<tag k="ssr:stedsnr" v="894753" />
	</node>
	<node lat="58.45881388884189" lon="8.233666674520142" id="-28847">
		<tag k="name" v="Kolhusmyra" />
		<tag k="natural" v="wetland" />
		<tag k="ssr:stedsnr" v="894841" />
	</node>
	<node lat="58.48983610755347" lon="8.184374992651307" id="-28848">
		<tag k="name" v="Telemarksmyr" />
		<tag k="natural" v="wetland" />
		<tag k="ssr:stedsnr" v="894803" />
	</node>
	<node lat="58.48712499911567" lon="8.180052773136431" id="-28849">
		<tag k="name" v="Skarkemyr" />
		<tag k="natural" v="wetland" />
		<tag k="ssr:stedsnr" v="894805" />
	</node>
	<node lat="58.50921666901781" lon="8.171944448669516" id="-28850">
		<tag k="name" v="Langemyr" />
		<tag k="natural" v="wetland" />
		<tag k="ssr:stedsnr" v="894932" />
	</node>
	<node lat="58.288655558847005" lon="8.260913892544009" id="-28858">
		<tag k="name" v="Bjørkekjerrane" />
		<tag k="place" v="locality" />
		<tag k="ssr:stedsnr" v="696275" />
	</node>
	<node lat="58.29644999711358" lon="8.270422228905373" id="-28859">
		<tag k="name" v="Vare-myrer" />
		<tag k="natural" v="wetland" />
		<tag k="ssr:stedsnr" v="696280" />
	</node>
	<node lat="58.43004166500204" lon="8.335919437025984" id="-28862">
		<tag k="name" v="Langekjerr" />
		<tag k="natural" v="wetland" />
		<tag k="ssr:stedsnr" v="700063" />
	</node>
	<node lat="58.39395832970674" lon="8.293916659672425" id="-28863">
		<tag k="name" v="Langemyr" />
		<tag k="natural" v="wetland" />
		<tag k="ssr:stedsnr" v="700066" />
	</node>
	<node lat="58.489216665289234" lon="8.295880554969866" id="-28872">
		<tag k="name" v="Stolemyr" />
		<tag k="natural" v="wetland" />
		<tag k="ssr:stedsnr" v="700174" />
	</node>
	<node lat="58.47222222290581" lon="8.382222216549179" id="-28874">
		<tag k="name" v="Lonemyra" />
		<tag k="natural" v="wetland" />
		<tag k="ssr:stedsnr" v="700180" />
	</node>
	<node lat="58.473569446201076" lon="8.377216671640126" id="-28875">
		<tag k="name" v="Storemyr" />
		<tag k="natural" v="wetland" />
		<tag k="ssr:stedsnr" v="700182" />
	</node>
	<node lat="58.472341666028925" lon="8.367505559414251" id="-28876">
		<tag k="name" v="Lillemyr" />
		<tag k="natural" v="wetland" />
		<tag k="ssr:stedsnr" v="700184" />
	</node>
	<node lat="58.5516972187176" lon="8.354602780061814" id="-28878">
		<tag k="name" v="Holeslåttene" />
		<tag k="natural" v="wetland" />
		<tag k="ssr:stedsnr" v="700320" />
	</node>
	<node lat="58.53118333608581" lon="8.37209722359393" id="-28879">
		<tag k="name" v="Prestemyra" />
		<tag k="natural" v="wetland" />
		<tag k="ssr:stedsnr" v="700323" />
	</node>
	<node lat="58.54995277440364" lon="8.356377781830505" id="-28880">
		<tag k="name" v="Halsfet" />
		<tag k="natural" v="wetland" />
		<tag k="ssr:stedsnr" v="700327" />
	</node>
	<node lat="58.54013611292228" lon="8.396297221801593" id="-28881">
		<tag k="name" v="Lille Ljosvasslåtta" />
		<tag k="natural" v="wetland" />
		<tag k="ssr:stedsnr" v="700330" />
	</node>
	<node lat="58.58639999766394" lon="8.425486107658427" id="-28884">
		<tag k="name" v="Kloppkjerra" />
		<tag k="natural" v="wetland" />
		<tag k="ssr:stedsnr" v="700363" />
	</node>
	<node lat="58.38163055696122" lon="8.22842500444245" id="-28886">
		<tag k="name" v="Stien" />
		<tag k="place" v="locality" />
		<tag k="ssr:stedsnr" v="700814" />
	</node>
	<node lat="58.36943889128266" lon="8.238858330557331" id="-28888">
		<tag k="name" v="Moltemyr" />
		<tag k="natural" v="wetland" />
		<tag k="ssr:stedsnr" v="700821" />
	</node>
	<node lat="58.36027500326942" lon="8.262683340461363" id="-28889">
		<tag k="name" v="Englandsmyra" />
		<tag k="natural" v="wetland" />
		<tag k="ssr:stedsnr" v="700867" />
	</node>
	<node lat="58.27758888478956" lon="8.198027777989953" id="-28890">
		<tag k="name" v="Vintermyrane" />
		<tag k="natural" v="wetland" />
		<tag k="ssr:stedsnr" v="700923" />
	</node>
	<node lat="58.541233332031425" lon="8.304497227083326" id="-28903">
		<tag k="name" v="Bjormyr" />
		<tag k="natural" v="wetland" />
		<tag k="ssr:stedsnr" v="711015" />
	</node>
	<node lat="58.53907778217035" lon="8.304586105310557" id="-28904">
		<tag k="name" v="Lauvstakkmyra" />
		<tag k="natural" v="wetland" />
		<tag k="ssr:stedsnr" v="711026" />
	</node>
	<node lat="58.31083610695183" lon="8.114436108473878" id="-28911">
		<tag k="name" v="Hampbakmyr" />
		<tag k="natural" v="wetland" />
		<tag k="ssr:stedsnr" v="711284" />
	</node>
	<node lat="58.44047499646585" lon="8.251638894074269" id="-28914">
		<tag k="name" v="Tukthusmyrane" />
		<tag k="natural" v="wetland" />
		<tag k="ssr:stedsnr" v="711294" />
	</node>
	<node lat="58.42414721970072" lon="8.216722214141102" id="-28915">
		<tag k="name" v="Nedre Skibmannsmyr" />
		<tag k="natural" v="wetland" />
		<tag k="ssr:stedsnr" v="711300" />
	</node>
	<node lat="58.33493610689905" lon="8.160716673373068" id="-28921">
		<tag k="name" v="Ramsedalsmyra" />
		<tag k="natural" v="wetland" />
		<tag k="ssr:stedsnr" v="711313" />
	</node>
	<node lat="58.34256111514432" lon="8.163230556345216" id="-28922">
		<tag k="name" v="Storemyr" />
		<tag k="natural" v="wetland" />
		<tag k="ssr:stedsnr" v="711327" />
	</node>
	<node lat="58.444374999887714" lon="8.079050001253016" id="-28923">
		<tag k="name" v="Varpemyr" />
		<tag k="natural" v="wetland" />
		<tag k="ssr:stedsnr" v="711507" />
	</node>
	<node lat="58.41994166870224" lon="8.107311110811523" id="-28931">
		<tag k="name" v="Øygarden" />
		<tag k="natural" v="wetland" />
		<tag k="ssr:stedsnr" v="711611" />
	</node>
	<node lat="58.573444443600636" lon="8.147366674491392" id="-28947">
		<tag k="name" v="Lundane" />
		<tag k="place" v="locality" />
		<tag k="ssr:stedsnr" v="717106" />
	</node>
	<node lat="58.53188333767607" lon="8.193433327712448" id="-28948">
		<tag k="name" v="Storemyr" />
		<tag k="natural" v="wetland" />
		<tag k="ssr:stedsnr" v="717109" />
	</node>
	<node lat="58.5706472247064" lon="8.155238895010747" id="-28950">
		<tag k="name" v="Høgemyr" />
		<tag k="natural" v="wetland" />
		<tag k="ssr:stedsnr" v="899124" />
	</node>
	<node lat="58.577086107723424" lon="8.14068889439552" id="-28956">
		<tag k="name" v="Sirismyr" />
		<tag k="natural" v="wetland" />
		<tag k="ssr:stedsnr" v="899087" />
	</node>
	<node lat="58.54343888606178" lon="8.003427779023308" id="-28959">
		<tag k="name" v="Karislåtta" />
		<tag k="natural" v="wetland" />
		<tag k="ssr:stedsnr" v="717307" />
	</node>
	<node lat="58.546655553132254" lon="8.15739166597316" id="-28961">
		<tag k="name" v="Øygardsholta" />
		<tag k="place" v="locality" />
		<tag k="ssr:stedsnr" v="717378" />
	</node>
	<node lat="58.61026388588454" lon="8.121322229557043" id="-28963">
		<tag k="name" v="Gymyrane" />
		<tag k="natural" v="wetland" />
		<tag k="ssr:stedsnr" v="717721" />
	</node>
	<node lat="58.49831944820466" lon="8.153558325925149" id="-28968">
		<tag k="name" v="Kallsmyr" />
		<tag k="natural" v="wetland" />
		<tag k="ssr:stedsnr" v="717912" />
	</node>
</osm>
