<?xml version="1.0" encoding="UTF-8"?>
<osm version="0.6" generator="osmapis">
	<node lat="58.29755833417419" lon="8.22351667171399" id="-22149">
		<tag k="name" v="Stemtjønn" />
		<tag k="natural" v="water" />
		<tag k="ssr:stedsnr" v="305" />
	</node>
	<node lat="58.338649999463186" lon="8.18929721806621" id="-22152">
		<tag k="name" v="Flakke loner" />
		<tag k="ssr:stedsnr" v="265" />
		<tag k="waterway" v="stream" />
	</node>
	<node lat="58.42083889092844" lon="8.221272214742985" id="-22154">
		<tag k="alt_name" v="Vonnetjønn" />
		<tag k="name" v="Vånnetjønn" />
		<tag k="natural" v="water" />
		<tag k="ssr:stedsnr" v="408" />
	</node>
	<node lat="58.422111113194916" lon="8.19987499297067" id="-22155">
		<tag k="name" v="Rennetjønnane" />
		<tag k="natural" v="water" />
		<tag k="ssr:stedsnr" v="409" />
		<tag k="water" v="lake" />
	</node>
	<node lat="58.74002499866462" lon="8.11499167310426" id="-22156">
		<tag k="alt_name" v="Skjeggedalsåni" />
		<tag k="fixme" v="multiple name tags, choose one and add the other to alt_name" />
		<tag k="name" v="Stigåna;Skjeggedalsåna" />
		<tag k="ssr:stedsnr" v="411" />
		<tag k="waterway" v="river" />
	</node>
	<node lat="58.41791666814653" lon="8.223627785975951" id="-22158">
		<tag k="name" v="Kuna" />
		<tag k="place" v="locality" />
		<tag k="ssr:stedsnr" v="423" />
	</node>
	<node lat="58.536166663362366" lon="8.001827783436912" id="-22160">
		<tag k="fixme" v="multiple name tags, choose one and add the other to alt_name" />
		<tag k="name" v="Sørgrotjørna;Torvtjønn" />
		<tag k="natural" v="water" />
		<tag k="ssr:stedsnr" v="646" />
	</node>
	<node lat="58.51718333728404" lon="8.179908335976236" id="-22162">
		<tag k="alt_name" v="Sandtjørn" />
		<tag k="name" v="Sandtjønn" />
		<tag k="natural" v="water" />
		<tag k="ssr:stedsnr" v="1053" />
	</node>
	<node lat="58.53270833445163" lon="8.105136117227554" id="-22164">
		<tag k="name" v="Engeslandsåna" />
		<tag k="ssr:stedsnr" v="1213" />
		<tag k="waterway" v="river" />
	</node>
	<node lat="58.57541389071514" lon="8.159780551629781" id="-22165">
		<tag k="alt_name" v="Skittjørn" />
		<tag k="name" v="Skittjønn" />
		<tag k="natural" v="water" />
		<tag k="ssr:stedsnr" v="1139" />
	</node>
	<node lat="58.57925000023283" lon="8.442786115358047" id="-22166">
		<tag k="alt_name" v="Moltetjenn" />
		<tag k="name" v="Moltetjørn" />
		<tag k="natural" v="water" />
		<tag k="ssr:stedsnr" v="1148" />
	</node>
	<node lat="58.57283055880969" lon="8.211855549625096" id="-22167">
		<tag k="alt_name" v="Svarttjørn" />
		<tag k="name" v="Svartetjønn" />
		<tag k="natural" v="water" />
		<tag k="ssr:stedsnr" v="1153" />
	</node>
	<node lat="58.5577916685548" lon="8.011311119533424" id="-22170">
		<tag k="name" v="Asbjørnstjønn" />
		<tag k="natural" v="water" />
		<tag k="ssr:stedsnr" v="231295" />
	</node>
	<node lat="58.5395999967707" lon="8.169319444718992" id="-22173">
		<tag k="name" v="Lonane" />
		<tag k="natural" v="water" />
		<tag k="ssr:stedsnr" v="231527" />
		<tag k="water" v="lake" />
	</node>
	<node lat="58.607247225989326" lon="8.184980554440607" id="-22175">
		<tag k="name" v="Påskevika" />
		<tag k="natural" v="bay" />
		<tag k="ssr:stedsnr" v="231743" />
	</node>
	<node lat="58.611149997475884" lon="8.167838892739159" id="-22179">
		<tag k="name" v="Gomyrtjønn" />
		<tag k="natural" v="water" />
		<tag k="ssr:stedsnr" v="231748" />
	</node>
	<node lat="58.50450555297697" lon="8.088850002227257" id="-22185">
		<tag k="name" v="Juvatn" />
		<tag k="natural" v="water" />
		<tag k="ssr:stedsnr" v="231990" />
		<tag k="water" v="lake" />
	</node>
	<node lat="58.52118889281544" lon="8.113263887651978" id="-22189">
		<tag k="name" v="Skardetjønn" />
		<tag k="natural" v="water" />
		<tag k="ssr:stedsnr" v="232127" />
	</node>
	<node lat="58.30938055220771" lon="8.295830554217675" id="-22197">
		<tag k="name" v="Junkertjønn" />
		<tag k="natural" v="water" />
		<tag k="ssr:stedsnr" v="27502" />
	</node>
	<node lat="58.326549995562395" lon="8.276791669641735" id="-22199">
		<tag k="name" v="Tjønna" />
		<tag k="natural" v="water" />
		<tag k="ssr:stedsnr" v="27481" />
	</node>
	<node lat="58.41998333696481" lon="8.293583329329477" id="-22210">
		<tag k="name" v="Senumstadfjorden" />
		<tag k="natural" v="water" />
		<tag k="ssr:stedsnr" v="32018" />
		<tag k="water" v="lake" />
	</node>
	<node lat="58.589983334199786" lon="8.364058333017136" id="-22217">
		<tag k="name" v="Store Stitjønn" />
		<tag k="natural" v="water" />
		<tag k="ssr:stedsnr" v="32293" />
	</node>
	<node lat="58.29566666423167" lon="8.170477780701793" id="-22221">
		<tag k="name" v="Fådabben" />
		<tag k="natural" v="water" />
		<tag k="ssr:stedsnr" v="32500" />
		<tag k="water" v="pond" />
	</node>
	<node lat="58.3584861117203" lon="8.293458329016273" id="-22222">
		<tag k="name" v="Knaben" />
		<tag k="natural" v="water" />
		<tag k="ssr:stedsnr" v="32801" />
		<tag k="water" v="lake" />
	</node>
	<node lat="58.38986389222504" lon="8.270244442566142" id="-22227">
		<tag k="name" v="Buhølen" />
		<tag k="place" v="locality" />
		<tag k="ssr:stedsnr" v="32774" />
	</node>
	<node lat="58.39801389107996" lon="8.241966658300592" id="-22229">
		<tag k="name" v="Ostevabekken" />
		<tag k="ssr:stedsnr" v="32784" />
		<tag k="waterway" v="stream" />
	</node>
	<node lat="58.53828610961676" lon="8.288294450492542" id="-22239">
		<tag k="name" v="Robufjelltjønn" />
		<tag k="natural" v="water" />
		<tag k="ssr:stedsnr" v="44010" />
	</node>
	<node lat="58.53675555700866" lon="8.324250001123398" id="-22240">
		<tag k="name" v="Trytekilen" />
		<tag k="natural" v="bay" />
		<tag k="ssr:stedsnr" v="44016" />
	</node>
	<node lat="58.528247221737914" lon="8.329055547787416" id="-22241">
		<tag k="name" v="Neskilen" />
		<tag k="natural" v="bay" />
		<tag k="ssr:stedsnr" v="44017" />
	</node>
	<node lat="58.36111389158008" lon="8.198269451021362" id="-22249">
		<tag k="name" v="Sokkebandtjønn" />
		<tag k="natural" v="water" />
		<tag k="ssr:stedsnr" v="44410" />
	</node>
	<node lat="58.418877773525026" lon="8.15932222654088" id="-22257">
		<tag k="name" v="Halvøya" />
		<tag k="natural" v="cape" />
		<tag k="ssr:stedsnr" v="44457" />
	</node>
	<node lat="58.415963893265584" lon="8.138105553362971" id="-22263">
		<tag k="name" v="Dybletjønn" />
		<tag k="natural" v="water" />
		<tag k="ssr:stedsnr" v="44495" />
	</node>
	<node lat="58.44069722611209" lon="8.111530549246618" id="-22264">
		<tag k="name" v="Sandvika" />
		<tag k="natural" v="bay" />
		<tag k="ssr:stedsnr" v="44522" />
	</node>
	<node lat="58.392116669766814" lon="8.102350004020497" id="-22265">
		<tag k="name" v="Langøya" />
		<tag k="place" v="islet" />
		<tag k="ssr:stedsnr" v="44622" />
	</node>
	<node lat="58.37855833111662" lon="8.098016674213225" id="-22266">
		<tag k="name" v="Sirekiløya" />
		<tag k="place" v="islet" />
		<tag k="ssr:stedsnr" v="44623" />
	</node>
	<node lat="58.35061666667393" lon="8.078177775263375" id="-22272">
		<tag k="name" v="Fjelltjønn" />
		<tag k="natural" v="water" />
		<tag k="ssr:stedsnr" v="44647" />
	</node>
	<node lat="58.4644583355282" lon="8.239947213758313" id="-22276">
		<tag k="name" v="Svoetjønn" />
		<tag k="natural" v="water" />
		<tag k="ssr:stedsnr" v="44810" />
	</node>
	<node lat="58.51022777754072" lon="8.056769441040565" id="-22308">
		<tag k="name" v="Ydstevann" />
		<tag k="natural" v="water" />
		<tag k="ssr:stedsnr" v="49974" />
		<tag k="water" v="lake" />
	</node>
	<node lat="58.491461108718525" lon="7.998663888187014" id="-22313">
		<tag k="name" v="Kvelpetjønn" />
		<tag k="natural" v="water" />
		<tag k="ssr:stedsnr" v="50070" />
	</node>
	<node lat="58.49416110806077" lon="8.094922214047372" id="-22316">
		<tag k="name" v="Svåbekk" />
		<tag k="ssr:stedsnr" v="50902" />
		<tag k="waterway" v="stream" />
	</node>
	<node lat="58.493991671139575" lon="8.116322224490697" id="-22320">
		<tag k="name" v="Årikstadlona" />
		<tag k="natural" v="water" />
		<tag k="ssr:stedsnr" v="50805" />
		<tag k="water" v="lake" />
	</node>
	<node lat="58.510361113627276" lon="8.185541670579514" id="-22325">
		<tag k="alt_name" v="Tritjørnane" />
		<tag k="name" v="Tritjønnane" />
		<tag k="natural" v="water" />
		<tag k="ssr:stedsnr" v="61023" />
	</node>
	<node lat="58.535658333266106" lon="8.245244436021018" id="-22329">
		<tag k="alt_name" v="Trappetjørn" />
		<tag k="name" v="Trappetjønn" />
		<tag k="natural" v="water" />
		<tag k="ssr:stedsnr" v="61189" />
	</node>
	<node lat="58.537633330430744" lon="8.397494449193493" id="-22330">
		<tag k="alt_name" v="Ljosvatnet, l" />
		<tag k="name" v="Lille Ljosvann" />
		<tag k="natural" v="water" />
		<tag k="ssr:stedsnr" v="61199" />
	</node>
	<node lat="58.51456666899688" lon="8.057811111609661" id="-22332">
		<tag k="name" v="Trosekilen" />
		<tag k="natural" v="bay" />
		<tag k="ssr:stedsnr" v="61403" />
	</node>
	<node lat="58.554144446229124" lon="7.935424999822992" id="-22335">
		<tag k="name" v="Katteråslonane" />
		<tag k="natural" v="water" />
		<tag k="ssr:stedsnr" v="61614" />
	</node>
	<node lat="58.500186112440126" lon="8.22137777263373" id="-22338">
		<tag k="alt_name" v="Båsvatnet" />
		<tag k="name" v="Båsvatn" />
		<tag k="natural" v="water" />
		<tag k="ssr:stedsnr" v="62010" />
	</node>
	<node lat="58.520436114953384" lon="8.275491667367604" id="-22344">
		<tag k="alt_name" v="Stutetjørn" />
		<tag k="name" v="Stutetjønn" />
		<tag k="natural" v="water" />
		<tag k="ssr:stedsnr" v="243026" />
	</node>
	<node lat="58.59719166505389" lon="8.148544438476266" id="-22355">
		<tag k="alt_name" v="Svartetjørn" />
		<tag k="name" v="Svartetjønn" />
		<tag k="natural" v="water" />
		<tag k="ssr:stedsnr" v="243308" />
	</node>
	<node lat="58.390925000832986" lon="8.240799999940702" id="-22356">
		<tag k="name" v="Spjotevannet" />
		<tag k="natural" v="water" />
		<tag k="ssr:stedsnr" v="243310" />
	</node>
	<node lat="58.38741110863495" lon="8.312261104545906" id="-22357">
		<tag k="name" v="Skrelletjønn" />
		<tag k="natural" v="water" />
		<tag k="ssr:stedsnr" v="243319" />
	</node>
	<node lat="58.385575000870205" lon="8.325277773735827" id="-22358">
		<tag k="name" v="Steinsvannet" />
		<tag k="natural" v="water" />
		<tag k="ssr:stedsnr" v="243320" />
		<tag k="water" v="lake" />
	</node>
	<node lat="58.36444166586652" lon="8.23456110413632" id="-22362">
		<tag k="name" v="Sagetjønn" />
		<tag k="natural" v="water" />
		<tag k="ssr:stedsnr" v="243344" />
	</node>
	<node lat="58.430894441835115" lon="8.184097223723706" id="-22363">
		<tag k="name" v="Trolldalsvannet" />
		<tag k="natural" v="water" />
		<tag k="ssr:stedsnr" v="243380" />
		<tag k="water" v="lake" />
	</node>
	<node lat="58.44155832981827" lon="8.233913891106486" id="-22364">
		<tag k="name" v="Ånneslandsvannet" />
		<tag k="natural" v="water" />
		<tag k="ssr:stedsnr" v="243393" />
		<tag k="water" v="lake" />
	</node>
	<node lat="58.45257778022776" lon="8.237616670558342" id="-22368">
		<tag k="fixme" v="multiple name tags, choose one and add the other to alt_name" />
		<tag k="name" v="Store Heimdalsvatnet;Heimdalsvannet" />
		<tag k="natural" v="water" />
		<tag k="ssr:stedsnr" v="243863" />
		<tag k="water" v="lake" />
	</node>
	<node lat="58.55130555966445" lon="8.30612221483101" id="-22369">
		<tag k="alt_name" v="Stemtjørn" />
		<tag k="name" v="Stemtjønn" />
		<tag k="natural" v="water" />
		<tag k="ssr:stedsnr" v="244164" />
	</node>
	<node lat="58.53790277642876" lon="8.36921667462847" id="-22371">
		<tag k="alt_name" v="Bjortjenn" />
		<tag k="name" v="Bjortjørn" />
		<tag k="natural" v="water" />
		<tag k="ssr:stedsnr" v="244201" />
	</node>
	<node lat="58.62311666980654" lon="8.106049998432422" id="-22373">
		<tag k="name" v="Storøya" />
		<tag k="place" v="islet" />
		<tag k="ssr:stedsnr" v="244370" />
	</node>
	<node lat="58.307125002452366" lon="8.292049994508675" id="-22374">
		<tag k="name" v="Pyntebekk" />
		<tag k="ssr:stedsnr" v="88416" />
		<tag k="waterway" v="stream" />
	</node>
	<node lat="58.34004722168333" lon="8.336983337614356" id="-22375">
		<tag k="name" v="Mellomlona" />
		<tag k="natural" v="water" />
		<tag k="ssr:stedsnr" v="88419" />
		<tag k="water" v="lake" />
	</node>
	<node lat="58.33065832907989" lon="8.342952779042236" id="-22378">
		<tag k="name" v="Kartmyrtjønn" />
		<tag k="natural" v="water" />
		<tag k="ssr:stedsnr" v="88391" />
	</node>
	<node lat="58.34175833225157" lon="8.22939444443178" id="-22380">
		<tag k="name" v="Teinefoss" />
		<tag k="natural" v="waterfall" />
		<tag k="ssr:stedsnr" v="89409" />
	</node>
	<node lat="58.415447223485685" lon="8.31902500246289" id="-22384">
		<tag k="name" v="Teretjenn" />
		<tag k="natural" v="water" />
		<tag k="ssr:stedsnr" v="93024" />
	</node>
	<node lat="58.501916665894534" lon="8.277758327582442" id="-22388">
		<tag k="name" v="Lammetjenn" />
		<tag k="natural" v="water" />
		<tag k="ssr:stedsnr" v="93218" />
	</node>
	<node lat="58.51634444453553" lon="8.29632221393451" id="-22389">
		<tag k="name" v="Moldkleivtjenn" />
		<tag k="natural" v="water" />
		<tag k="ssr:stedsnr" v="93222" />
	</node>
	<node lat="58.47946388931621" lon="8.376344449925138" id="-22394">
		<tag k="name" v="Sønnreistjenn" />
		<tag k="natural" v="water" />
		<tag k="ssr:stedsnr" v="93175" />
	</node>
	<node lat="58.48066944460407" lon="8.339911118622657" id="-22395">
		<tag k="name" v="Rekevika" />
		<tag k="natural" v="bay" />
		<tag k="ssr:stedsnr" v="93178" />
	</node>
	<node lat="58.58358611320877" lon="8.432852774764521" id="-22398">
		<tag k="name" v="Røyestjenn" />
		<tag k="natural" v="water" />
		<tag k="ssr:stedsnr" v="93318" />
	</node>
	<node lat="58.38680555375455" lon="8.294297230259415" id="-22399">
		<tag k="name" v="Langetjenn" />
		<tag k="natural" v="water" />
		<tag k="ssr:stedsnr" v="93705" />
	</node>
	<node lat="58.433225003904454" lon="8.123297224018918" id="-22415">
		<tag k="name" v="Øyktjønn" />
		<tag k="natural" v="water" />
		<tag k="ssr:stedsnr" v="104516" />
	</node>
	<node lat="58.45454166716238" lon="8.167688884208587" id="-22418">
		<tag k="name" v="Rønningtjønn" />
		<tag k="natural" v="water" />
		<tag k="ssr:stedsnr" v="104823" />
	</node>
	<node lat="58.54614722310609" lon="8.29684166607431" id="-22422">
		<tag k="name" v="Harevollsbukta" />
		<tag k="natural" v="bay" />
		<tag k="ssr:stedsnr" v="105011" />
	</node>
	<node lat="58.43498333697627" lon="8.238941665758755" id="-22435">
		<tag k="name" v="Dyblane" />
		<tag k="natural" v="water" />
		<tag k="ssr:stedsnr" v="105285" />
		<tag k="water" v="pond" />
	</node>
	<node lat="58.36801110953209" lon="8.128672227058733" id="-22438">
		<tag k="name" v="Tretjønnane" />
		<tag k="natural" v="water" />
		<tag k="ssr:stedsnr" v="105416" />
	</node>
	<node lat="58.34726388588616" lon="8.200683335252405" id="-22439">
		<tag k="name" v="Lille Homslitjønn" />
		<tag k="natural" v="water" />
		<tag k="ssr:stedsnr" v="105427" />
	</node>
	<node lat="58.382354716740444" lon="8.158030110218625" id="-22445">
		<tag k="name" v="Kjerringtjønn" />
		<tag k="natural" v="water" />
		<tag k="ssr:stedsnr" v="105377" />
	</node>
	<node lat="58.406494440105384" lon="8.180305562530153" id="-22446">
		<tag k="name" v="Store Søndagstjønn" />
		<tag k="natural" v="water" />
		<tag k="ssr:stedsnr" v="105508" />
	</node>
	<node lat="58.48448611335786" lon="8.209794440475836" id="-22456">
		<tag k="name" v="Orretjønn" />
		<tag k="natural" v="water" />
		<tag k="ssr:stedsnr" v="105781" />
	</node>
	<node lat="58.48254444489909" lon="8.259927785990545" id="-22460">
		<tag k="name" v="Hellertjønn" />
		<tag k="natural" v="water" />
		<tag k="ssr:stedsnr" v="105987" />
	</node>
	<node lat="58.55091666950386" lon="7.991083338008748" id="-22479">
		<tag k="name" v="Lillebekk" />
		<tag k="ssr:stedsnr" v="111620" />
		<tag k="waterway" v="stream" />
	</node>
	<node lat="58.321797220112884" lon="8.25861944276743" id="-22490">
		<tag k="name" v="Espe" />
		<tag k="natural" v="water" />
		<tag k="ssr:stedsnr" v="121273" />
	</node>
	<node lat="58.53304999714247" lon="8.34544721596678" id="-22496">
		<tag k="name" v="Herefossen" />
		<tag k="natural" v="waterfall" />
		<tag k="ssr:stedsnr" v="122206" />
	</node>
	<node lat="58.52764722053655" lon="8.183638884986568" id="-22497">
		<tag k="alt_name" v="Karistjørn" />
		<tag k="name" v="Karistjønn" />
		<tag k="natural" v="water" />
		<tag k="ssr:stedsnr" v="122213" />
	</node>
	<node lat="58.520486111935334" lon="8.096366674969458" id="-22498">
		<tag k="alt_name" v="Pålstjørn" />
		<tag k="name" v="Pålstjønn" />
		<tag k="natural" v="water" />
		<tag k="ssr:stedsnr" v="122216" />
	</node>
	<node lat="58.50891944375535" lon="8.058366670434271" id="-22499">
		<tag k="name" v="Bellandselva" />
		<tag k="ssr:stedsnr" v="122404" />
		<tag k="waterway" v="river" />
	</node>
	<node lat="58.51657499627929" lon="7.9519361063580005" id="-22500">
		<tag k="alt_name" v="Karttjørn" />
		<tag k="name" v="Kartetjønn" />
		<tag k="natural" v="water" />
		<tag k="ssr:stedsnr" v="122415" />
	</node>
	<node lat="58.31140833162652" lon="8.182533335346395" id="-22510">
		<tag k="name" v="Øyna" />
		<tag k="natural" v="cape" />
		<tag k="ssr:stedsnr" v="153521" />
	</node>
	<node lat="58.45647222534238" lon="8.317324995936376" id="-22513">
		<tag k="name" v="Langemyrtjønn" />
		<tag k="natural" v="water" />
		<tag k="ssr:stedsnr" v="154157" />
	</node>
	<node lat="58.507841665427684" lon="8.35021110878936" id="-22514">
		<tag k="name" v="Askeåna" />
		<tag k="ssr:stedsnr" v="154303" />
		<tag k="waterway" v="stream" />
	</node>
	<node lat="58.39667500235015" lon="8.304616665291874" id="-22518">
		<tag k="alt_name" v="Museenstjenn" />
		<tag k="name" v="Musenstjenn" />
		<tag k="natural" v="water" />
		<tag k="ssr:stedsnr" v="154055" />
	</node>
	<node lat="58.390575001994264" lon="8.32017777359179" id="-22520">
		<tag k="name" v="Fleketjenn" />
		<tag k="natural" v="water" />
		<tag k="ssr:stedsnr" v="154059" />
	</node>
	<node lat="58.39297777628106" lon="8.311166668496085" id="-22521">
		<tag k="name" v="Pålstjenn" />
		<tag k="natural" v="water" />
		<tag k="ssr:stedsnr" v="154061" />
	</node>
	<node lat="58.48671111008609" lon="8.291280549727494" id="-22525">
		<tag k="name" v="Grunnetjønn" />
		<tag k="natural" v="water" />
		<tag k="ssr:stedsnr" v="154252" />
	</node>
	<node lat="58.37446389026717" lon="8.326069439491146" id="-22534">
		<tag k="name" v="Slohølen" />
		<tag k="place" v="locality" />
		<tag k="ssr:stedsnr" v="154905" />
	</node>
	<node lat="58.276008336652076" lon="8.210786112241072" id="-22537">
		<tag k="name" v="Dyblene" />
		<tag k="natural" v="water" />
		<tag k="ssr:stedsnr" v="154916" />
		<tag k="water" v="pond" />
	</node>
	<node lat="58.26568333637716" lon="8.213383328908355" id="-22539">
		<tag k="name" v="Myretjønn" />
		<tag k="natural" v="water" />
		<tag k="ssr:stedsnr" v="154958" />
	</node>
	<node lat="58.46385833528287" lon="8.177224997206205" id="-22543">
		<tag k="name" v="Lonane" />
		<tag k="natural" v="water" />
		<tag k="ssr:stedsnr" v="164865" />
		<tag k="water" v="lake" />
	</node>
	<node lat="58.46994444573944" lon="8.086519450400349" id="-22544">
		<tag k="name" v="Lauvlitjønn" />
		<tag k="natural" v="water" />
		<tag k="ssr:stedsnr" v="164758" />
	</node>
	<node lat="58.319319440175335" lon="8.158819442465308" id="-22546">
		<tag k="name" v="Butjønn" />
		<tag k="natural" v="water" />
		<tag k="ssr:stedsnr" v="165230" />
	</node>
	<node lat="58.411177779982246" lon="8.111572215441242" id="-22564">
		<tag k="name" v="Øykholmen" />
		<tag k="place" v="islet" />
		<tag k="ssr:stedsnr" v="165593" />
	</node>
	<node lat="58.471380556032535" lon="8.154902769760545" id="-22565">
		<tag k="name" v="Smørsund" />
		<tag k="natural" v="strait" />
		<tag k="ssr:stedsnr" v="165658" />
	</node>
	<node lat="58.47111944827633" lon="8.15463055928213" id="-22566">
		<tag k="name" v="Grøtholmen" />
		<tag k="place" v="islet" />
		<tag k="ssr:stedsnr" v="165659" />
	</node>
	<node lat="58.353847222027454" lon="8.174397217558289" id="-22572">
		<tag k="name" v="Vrangefosslona" />
		<tag k="natural" v="water" />
		<tag k="ssr:stedsnr" v="165708" />
		<tag k="water" v="lake" />
	</node>
	<node lat="58.61884166785131" lon="8.181713883966564" id="-22587">
		<tag k="name" v="Sprangodden" />
		<tag k="natural" v="cape" />
		<tag k="ssr:stedsnr" v="170755" />
	</node>
	<node lat="58.53786388920433" lon="8.156949998274644" id="-22590">
		<tag k="name" v="Prestesundet" />
		<tag k="natural" v="cape" />
		<tag k="ssr:stedsnr" v="171124" />
	</node>
	<node lat="58.5256138900198" lon="8.093372222868688" id="-22591">
		<tag k="name" v="Verepytten" />
		<tag k="natural" v="water" />
		<tag k="ssr:stedsnr" v="171202" />
		<tag k="water" v="pond" />
	</node>
	<node lat="58.293808333710025" lon="8.226588887131781" id="-22602">
		<tag k="name" v="Svartetjønn" />
		<tag k="natural" v="water" />
		<tag k="ssr:stedsnr" v="182304" />
	</node>
	<node lat="58.418985326608414" lon="8.308924452644673" id="-22603">
		<tag k="name" v="Knutetjønn" />
		<tag k="natural" v="water" />
		<tag k="ssr:stedsnr" v="182412" />
	</node>
	<node lat="58.51083333180777" lon="8.08743888460788" id="-22604">
		<tag k="alt_name" v="Bellandstjørna" />
		<tag k="name" v="Bellandstjønn" />
		<tag k="natural" v="water" />
		<tag k="ssr:stedsnr" v="182413" />
	</node>
	<node lat="58.488958337441254" lon="8.249799992583691" id="-22609">
		<tag k="name" v="Lomstjønn" />
		<tag k="natural" v="water" />
		<tag k="ssr:stedsnr" v="182446" />
	</node>
	<node lat="58.48532222531023" lon="8.17450833788357" id="-22610">
		<tag k="alt_name" v="Tollstjønn" />
		<tag k="name" v="Tollestjønn" />
		<tag k="natural" v="water" />
		<tag k="ssr:stedsnr" v="182449" />
	</node>
	<node lat="58.28449166999766" lon="8.227988883115206" id="-22616">
		<tag k="name" v="Flatetjønn" />
		<tag k="natural" v="water" />
		<tag k="ssr:stedsnr" v="210313" />
	</node>
	<node lat="58.47236388828588" lon="8.287024996248544" id="-22627">
		<tag k="name" v="Duvreistjønn" />
		<tag k="natural" v="water" />
		<tag k="ssr:stedsnr" v="214099" />
	</node>
	<node lat="58.35208889042506" lon="8.331313891970666" id="-22631">
		<tag k="name" v="Byttingsholmen" />
		<tag k="place" v="islet" />
		<tag k="ssr:stedsnr" v="215010" />
	</node>
	<node lat="58.4736194439962" lon="8.303583331566957" id="-22634">
		<tag k="name" v="Øya" />
		<tag k="natural" v="cape" />
		<tag k="ssr:stedsnr" v="215124" />
	</node>
	<node lat="58.52213333752887" lon="8.376616674999969" id="-22639">
		<tag k="name" v="Surtemyrkilen" />
		<tag k="natural" v="bay" />
		<tag k="ssr:stedsnr" v="215312" />
	</node>
	<node lat="58.55206388810104" lon="8.364841666996805" id="-22640">
		<tag k="name" v="Onnestangen" />
		<tag k="natural" v="cape" />
		<tag k="ssr:stedsnr" v="215336" />
	</node>
	<node lat="58.48442778159241" lon="8.303052773443737" id="-22646">
		<tag k="name" v="Suggetjønn" />
		<tag k="natural" v="water" />
		<tag k="ssr:stedsnr" v="215231" />
	</node>
	<node lat="58.38259444345247" lon="8.310602785721658" id="-22651">
		<tag k="name" v="Staffensholmen" />
		<tag k="place" v="islet" />
		<tag k="ssr:stedsnr" v="215874" />
	</node>
	<node lat="58.50400277823374" lon="8.3776638836153" id="-22652">
		<tag k="name" v="Tjovekilen" />
		<tag k="natural" v="bay" />
		<tag k="ssr:stedsnr" v="215876" />
	</node>
	<node lat="58.305002774125924" lon="8.259816672528116" id="-22666">
		<tag k="name" v="Bokkehølen" />
		<tag k="place" v="locality" />
		<tag k="ssr:stedsnr" v="270736" />
	</node>
	<node lat="58.3260861146101" lon="8.261705552839665" id="-22678">
		<tag k="name" v="Bærholmen" />
		<tag k="natural" v="cape" />
		<tag k="ssr:stedsnr" v="271397" />
	</node>
	<node lat="58.30454738669296" lon="8.125106688011394" id="-22687">
		<tag k="name" v="Knutstjønn" />
		<tag k="natural" v="water" />
		<tag k="ssr:stedsnr" v="226296" />
	</node>
	<node lat="58.44495833459902" lon="8.239241662374942" id="-22688">
		<tag k="name" v="Langholmen" />
		<tag k="natural" v="cape" />
		<tag k="ssr:stedsnr" v="226301" />
	</node>
	<node lat="58.3718444476423" lon="8.219263882510903" id="-22689">
		<tag k="name" v="Lindtjønn" />
		<tag k="natural" v="water" />
		<tag k="ssr:stedsnr" v="226441" />
	</node>
	<node lat="58.38461388629928" lon="8.142447222802591" id="-22691">
		<tag k="name" v="Hæsåna" />
		<tag k="ssr:stedsnr" v="226403" />
		<tag k="waterway" v="river" />
	</node>
	<node lat="58.419233334840335" lon="8.163408324995372" id="-22694">
		<tag k="name" v="Djupesund" />
		<tag k="natural" v="strait" />
		<tag k="ssr:stedsnr" v="226507" />
	</node>
	<node lat="58.47386666810704" lon="8.150480562122633" id="-22696">
		<tag k="name" v="Dagfinnsholmen" />
		<tag k="place" v="islet" />
		<tag k="ssr:stedsnr" v="226682" />
	</node>
	<node lat="58.46786666863704" lon="8.148499997105302" id="-22697">
		<tag k="name" v="Katteholmen" />
		<tag k="place" v="islet" />
		<tag k="ssr:stedsnr" v="226685" />
	</node>
	<node lat="58.36653610961634" lon="8.067172228839077" id="-22703">
		<tag k="name" v="Ormetjønn" />
		<tag k="natural" v="water" />
		<tag k="ssr:stedsnr" v="226710" />
	</node>
	<node lat="58.568019447091515" lon="8.15608055147721" id="-22714">
		<tag k="name" v="Høgemyrtjønn" />
		<tag k="natural" v="water" />
		<tag k="ssr:stedsnr" v="231142" />
	</node>
	<node lat="58.5475305520317" lon="8.105502772290068" id="-22715">
		<tag k="name" v="Brubergkilen" />
		<tag k="natural" v="bay" />
		<tag k="ssr:stedsnr" v="231344" />
	</node>
	<node lat="58.50833610911776" lon="8.061797221464314" id="-22720">
		<tag k="name" v="Sagelona" />
		<tag k="natural" v="water" />
		<tag k="ssr:stedsnr" v="231889" />
		<tag k="water" v="lake" />
	</node>
	<node lat="58.54389999577685" lon="7.940349992026338" id="-22728">
		<tag k="name" v="Skorefjellstjønn" />
		<tag k="natural" v="water" />
		<tag k="ssr:stedsnr" v="232609" />
	</node>
	<node lat="58.262644442053194" lon="8.24554722831607" id="-22743">
		<tag k="name" v="Heieslåttjønnene" />
		<tag k="natural" v="water" />
		<tag k="ssr:stedsnr" v="453288" />
		<tag k="water" v="lake" />
	</node>
	<node lat="58.26050833015575" lon="8.22665277338959" id="-22744">
		<tag k="name" v="Stemtjønn" />
		<tag k="natural" v="water" />
		<tag k="ssr:stedsnr" v="453293" />
	</node>
	<node lat="58.39254166251453" lon="8.143641666770788" id="-22747">
		<tag k="name" v="Mørkelivannet" />
		<tag k="natural" v="water" />
		<tag k="ssr:stedsnr" v="243436" />
		<tag k="water" v="lake" />
	</node>
	<node lat="58.404488884679154" lon="8.31988611139296" id="-22748">
		<tag k="alt_name" v="Store Paddetjønn" />
		<tag k="name" v="Paddetjønn" />
		<tag k="natural" v="water" />
		<tag k="ssr:stedsnr" v="243439" />
	</node>
	<node lat="58.54774999633067" lon="8.01253610364727" id="-22752">
		<tag k="name" v="Tjørnane" />
		<tag k="natural" v="water" />
		<tag k="ssr:stedsnr" v="243688" />
	</node>
	<node lat="58.54829999684762" lon="8.350386117658669" id="-22754">
		<tag k="alt_name" v="Kyrtjønn" />
		<tag k="name" v="Kyrtjørn" />
		<tag k="natural" v="water" />
		<tag k="ssr:stedsnr" v="244241" />
	</node>
	<node lat="58.33447777808694" lon="8.366880555094346" id="-22756">
		<tag k="name" v="Bomholmen" />
		<tag k="place" v="islet" />
		<tag k="ssr:stedsnr" v="452496" />
	</node>
	<node lat="58.48273889007861" lon="8.37621111845663" id="-22763">
		<tag k="name" v="Tvitjenn" />
		<tag k="natural" v="water" />
		<tag k="ssr:stedsnr" v="457194" />
	</node>
	<node lat="58.52223610708062" lon="8.369669449893367" id="-22765">
		<tag k="name" v="Søndrestjenn" />
		<tag k="natural" v="water" />
		<tag k="ssr:stedsnr" v="457230" />
	</node>
	<node lat="58.39742500192056" lon="8.249377769832124" id="-22774">
		<tag k="name" v="Svartetjønn" />
		<tag k="natural" v="water" />
		<tag k="ssr:stedsnr" v="457784" />
	</node>
	<node lat="58.298449998397615" lon="8.18355832896537" id="-22783">
		<tag k="name" v="Tønnenes" />
		<tag k="natural" v="cape" />
		<tag k="ssr:stedsnr" v="457976" />
	</node>
	<node lat="58.31914722225051" lon="8.246069437662552" id="-22788">
		<tag k="name" v="Øygardstjønn" />
		<tag k="natural" v="water" />
		<tag k="ssr:stedsnr" v="271403" />
	</node>
	<node lat="58.466502779494476" lon="8.287230558903468" id="-22793">
		<tag k="name" v="Kjerringholmen" />
		<tag k="place" v="islet" />
		<tag k="ssr:stedsnr" v="275105" />
	</node>
	<node lat="58.4575750012506" lon="8.28485555451107" id="-22795">
		<tag k="name" v="Byttingstjønn" />
		<tag k="natural" v="water" />
		<tag k="ssr:stedsnr" v="275111" />
	</node>
	<node lat="58.510319446436526" lon="8.279111115504975" id="-22801">
		<tag k="name" v="Torva" />
		<tag k="natural" v="bay" />
		<tag k="ssr:stedsnr" v="275207" />
	</node>
	<node lat="58.52899721854565" lon="8.331338885850773" id="-22803">
		<tag k="name" v="Øyren" />
		<tag k="natural" v="bay" />
		<tag k="ssr:stedsnr" v="275213" />
	</node>
	<node lat="58.5445416676789" lon="8.357838892102416" id="-22809">
		<tag k="name" v="Viertangen" />
		<tag k="natural" v="cape" />
		<tag k="ssr:stedsnr" v="275292" />
	</node>
	<node lat="58.32318055388538" lon="8.177977775646411" id="-22817">
		<tag k="name" v="Bersekollen" />
		<tag k="place" v="locality" />
		<tag k="ssr:stedsnr" v="275472" />
	</node>
	<node lat="58.368166670206506" lon="8.236286117397682" id="-22822">
		<tag k="name" v="Hansesbekk" />
		<tag k="ssr:stedsnr" v="275806" />
		<tag k="waterway" v="stream" />
	</node>
	<node lat="58.30546944133574" lon="8.205655556581876" id="-22824">
		<tag k="name" v="Birkenestjønn" />
		<tag k="natural" v="water" />
		<tag k="ssr:stedsnr" v="275985" />
	</node>
	<node lat="58.44347164762858" lon="8.097472133088566" id="-22827">
		<tag k="name" v="Bjønndalstjønnane" />
		<tag k="natural" v="water" />
		<tag k="ssr:stedsnr" v="286548" />
		<tag k="water" v="lake" />
	</node>
	<node lat="58.53877778198377" lon="8.313963890733774" id="-22828">
		<tag k="name" v="Åletjønn" />
		<tag k="natural" v="bay" />
		<tag k="ssr:stedsnr" v="287005" />
	</node>
	<node lat="58.42183888631038" lon="8.217452780436366" id="-22834">
		<tag k="name" v="Svartetjønn" />
		<tag k="natural" v="water" />
		<tag k="ssr:stedsnr" v="287307" />
	</node>
	<node lat="58.3523750004074" lon="8.134133341752436" id="-22837">
		<tag k="name" v="Østerkilen" />
		<tag k="natural" v="bay" />
		<tag k="ssr:stedsnr" v="287338" />
	</node>
	<node lat="58.38817499906665" lon="8.132952773879293" id="-22839">
		<tag k="name" v="Styggetjønn" />
		<tag k="natural" v="water" />
		<tag k="ssr:stedsnr" v="287404" />
	</node>
	<node lat="58.376686111704025" lon="8.147424992849382" id="-22849">
		<tag k="name" v="Grassundet" />
		<tag k="natural" v="strait" />
		<tag k="ssr:stedsnr" v="287381" />
	</node>
	<node lat="58.483761112946446" lon="8.224505548157996" id="-22869">
		<tag k="name" v="Snautjønn" />
		<tag k="natural" v="water" />
		<tag k="ssr:stedsnr" v="287983" />
	</node>
	<node lat="58.61570555788269" lon="8.149502773043393" id="-22873">
		<tag k="name" v="Lange Skrelletjønn" />
		<tag k="natural" v="water" />
		<tag k="ssr:stedsnr" v="292634" />
	</node>
	<node lat="58.52104721875057" lon="8.033911117916935" id="-22880">
		<tag k="name" v="Oddrane" />
		<tag k="natural" v="cape" />
		<tag k="ssr:stedsnr" v="293696" />
	</node>
	<node lat="58.29453055167386" lon="8.215974992007807" id="-22886">
		<tag k="fixme" v="multiple name tags, choose one and add the other to alt_name" />
		<tag k="name" v="De tre vestre tjønnene;Tveitetjønnane" />
		<tag k="natural" v="water" />
		<tag k="ssr:stedsnr" v="303286" />
		<tag k="water" v="lake" />
	</node>
	<node lat="58.40583333755142" lon="8.129208335819328" id="-22887">
		<tag k="name" v="Øytjønn" />
		<tag k="natural" v="water" />
		<tag k="ssr:stedsnr" v="303403" />
	</node>
	<node lat="58.554288891921836" lon="8.322330562018603" id="-22891">
		<tag k="alt_name" v="Øvretjørn" />
		<tag k="name" v="Øvretjønn" />
		<tag k="natural" v="water" />
		<tag k="ssr:stedsnr" v="304225" />
	</node>
	<node lat="58.56591388510338" lon="8.167936104746321" id="-22894">
		<tag k="alt_name" v="Hangetjørn" />
		<tag k="name" v="Hangetjønn" />
		<tag k="natural" v="water" />
		<tag k="ssr:stedsnr" v="304123" />
	</node>
	<node lat="58.57290000093824" lon="8.427944448960442" id="-22895">
		<tag k="alt_name" v="Makrelltjenn" />
		<tag k="name" v="Makrelltjørna" />
		<tag k="natural" v="water" />
		<tag k="ssr:stedsnr" v="304132" />
	</node>
	<node lat="58.52507777424486" lon="8.164386113395457" id="-22897">
		<tag k="fixme" v="multiple name tags, choose one and add the other to alt_name" />
		<tag k="name" v="Vardetjørn;Vardekkane" />
		<tag k="natural" v="water" />
		<tag k="ssr:stedsnr" v="304198" />
	</node>
	<node lat="58.441416668205534" lon="8.099247226111066" id="-22907">
		<tag k="name" v="Røyrtjønn" />
		<tag k="natural" v="water" />
		<tag k="ssr:stedsnr" v="468496" />
	</node>
	<node lat="58.44908611282683" lon="8.10017778192974" id="-22908">
		<tag k="name" v="Kvennhusbekken" />
		<tag k="ssr:stedsnr" v="468499" />
		<tag k="waterway" v="stream" />
	</node>
	<node lat="58.38133055670881" lon="8.104830552029561" id="-22911">
		<tag k="name" v="Digeholmane" />
		<tag k="place" v="islet" />
		<tag k="ssr:stedsnr" v="468596" />
	</node>
	<node lat="58.3242666666687" lon="8.105133337060119" id="-22913">
		<tag k="name" v="Buetjønn" />
		<tag k="natural" v="water" />
		<tag k="ssr:stedsnr" v="468720" />
	</node>
	<node lat="58.48756389020594" lon="8.178336106616518" id="-22917">
		<tag k="name" v="Trytetjønn" />
		<tag k="natural" v="water" />
		<tag k="ssr:stedsnr" v="468801" />
	</node>
	<node lat="58.380625001669856" lon="8.183036114499016" id="-22924">
		<tag k="name" v="Brunstjønn" />
		<tag k="natural" v="water" />
		<tag k="ssr:stedsnr" v="469435" />
	</node>
	<node lat="58.34975555313344" lon="8.21692778612335" id="-22926">
		<tag k="name" v="Svartetjønn" />
		<tag k="natural" v="water" />
		<tag k="ssr:stedsnr" v="469445" />
	</node>
	<node lat="58.427988892533996" lon="8.144525000852468" id="-22927">
		<tag k="name" v="Spenstadtjønn" />
		<tag k="natural" v="water" />
		<tag k="ssr:stedsnr" v="469457" />
	</node>
	<node lat="58.29020833331814" lon="8.08409443635264" id="-22939">
		<tag k="name" v="Harestikkåstjønn" />
		<tag k="natural" v="water" />
		<tag k="ssr:stedsnr" v="469597" />
	</node>
	<node lat="58.464408335735754" lon="8.087511117779975" id="-22942">
		<tag k="name" v="Berrtjønn" />
		<tag k="natural" v="water" />
		<tag k="ssr:stedsnr" v="469648" />
	</node>
	<node lat="58.34838055405724" lon="8.100638891244476" id="-22944">
		<tag k="name" v="Kjørketjønn" />
		<tag k="natural" v="water" />
		<tag k="ssr:stedsnr" v="469660" />
	</node>
	<node lat="58.52304722369164" lon="8.273766673244937" id="-22947">
		<tag k="name" v="Ånneslåttjønn" />
		<tag k="natural" v="water" />
		<tag k="ssr:stedsnr" v="469893" />
	</node>
	<node lat="58.5349944421522" lon="8.253333329989054" id="-22948">
		<tag k="name" v="Kyremyrtjønn" />
		<tag k="natural" v="water" />
		<tag k="ssr:stedsnr" v="469894" />
	</node>
	<node lat="58.32449444786815" lon="8.26343611573874" id="-22952">
		<tag k="name" v="Stemvann" />
		<tag k="natural" v="water" />
		<tag k="ssr:stedsnr" v="331351" />
		<tag k="water" v="lake" />
	</node>
	<node lat="58.282244444503185" lon="8.241850007296344" id="-22953">
		<tag k="name" v="Fiskelausbekken" />
		<tag k="ssr:stedsnr" v="331291" />
		<tag k="waterway" v="stream" />
	</node>
	<node lat="58.449177777681925" lon="8.314961107779572" id="-22959">
		<tag k="name" v="Bjorbekk" />
		<tag k="ssr:stedsnr" v="336110" />
		<tag k="waterway" v="stream" />
	</node>
	<node lat="58.42237499788532" lon="8.34035833522849" id="-22964">
		<tag k="name" v="Blomreistjenn" />
		<tag k="natural" v="water" />
		<tag k="ssr:stedsnr" v="336046" />
	</node>
	<node lat="58.39081666290318" lon="8.310361113308245" id="-22967">
		<tag k="name" v="Blomstjenn" />
		<tag k="natural" v="water" />
		<tag k="ssr:stedsnr" v="336060" />
	</node>
	<node lat="58.5483916625359" lon="8.375822227069841" id="-22969">
		<tag k="name" v="Lille Paddetjenn" />
		<tag k="natural" v="water" />
		<tag k="ssr:stedsnr" v="336297" />
	</node>
	<node lat="58.363494440035666" lon="8.245174991732846" id="-22973">
		<tag k="name" v="Lona" />
		<tag k="natural" v="water" />
		<tag k="ssr:stedsnr" v="336856" />
		<tag k="water" v="lake" />
	</node>
	<node lat="58.41555000043331" lon="8.12890555738021" id="-22982">
		<tag k="name" v="Lille Elgtjønn" />
		<tag k="natural" v="water" />
		<tag k="ssr:stedsnr" v="346506" />
	</node>
	<node lat="58.50220833449636" lon="8.215552770751664" id="-22987">
		<tag k="name" v="Nordheitjønn" />
		<tag k="natural" v="water" />
		<tag k="ssr:stedsnr" v="346927" />
	</node>
	<node lat="58.38964722538431" lon="8.182608324715611" id="-22995">
		<tag k="name" v="Svartetjønn" />
		<tag k="natural" v="water" />
		<tag k="ssr:stedsnr" v="347412" />
	</node>
	<node lat="58.42793610875594" lon="8.139852774938554" id="-22997">
		<tag k="name" v="Svartetjønn" />
		<tag k="natural" v="water" />
		<tag k="ssr:stedsnr" v="347427" />
	</node>
	<node lat="58.3760805528009" lon="8.150436114242659" id="-22999">
		<tag k="name" v="Nesane" />
		<tag k="natural" v="cape" />
		<tag k="ssr:stedsnr" v="347363" />
	</node>
	<node lat="58.41321388444251" lon="8.233199996655925" id="-23000">
		<tag k="name" v="Ølistjønn" />
		<tag k="natural" v="water" />
		<tag k="ssr:stedsnr" v="347502" />
	</node>
	<node lat="58.37485000191075" lon="8.101841659824197" id="-23001">
		<tag k="name" v="Surtekilen" />
		<tag k="natural" v="bay" />
		<tag k="ssr:stedsnr" v="347577" />
	</node>
	<node lat="58.484202780088005" lon="8.194091658580271" id="-23003">
		<tag k="name" v="Kattetjønn" />
		<tag k="natural" v="water" />
		<tag k="ssr:stedsnr" v="347809" />
	</node>
	<node lat="58.48561944839901" lon="8.218102780377151" id="-23004">
		<tag k="name" v="Fisketjønn" />
		<tag k="natural" v="water" />
		<tag k="ssr:stedsnr" v="347819" />
	</node>
	<node lat="58.34189166528014" lon="8.070980561461198" id="-23007">
		<tag k="name" v="Skarketjønn" />
		<tag k="natural" v="water" />
		<tag k="ssr:stedsnr" v="347773" />
	</node>
	<node lat="58.562319443153825" lon="8.151172225176353" id="-23026">
		<tag k="name" v="Brynhildsbekk" />
		<tag k="ssr:stedsnr" v="352114" />
		<tag k="waterway" v="stream" />
	</node>
	<node lat="58.606144444647434" lon="8.11275277905628" id="-23033">
		<tag k="name" v="Storelibekken" />
		<tag k="ssr:stedsnr" v="352714" />
		<tag k="waterway" v="stream" />
	</node>
	<node lat="58.52802778013582" lon="8.157752780227458" id="-23040">
		<tag k="name" v="Rånestronda" />
		<tag k="natural" v="cape" />
		<tag k="ssr:stedsnr" v="353168" />
	</node>
	<node lat="58.549027777244774" lon="8.196808332154072" id="-23042">
		<tag k="name" v="Langfoss" />
		<tag k="natural" v="waterfall" />
		<tag k="ssr:stedsnr" v="474473" />
	</node>
	<node lat="58.49130689662381" lon="8.067277111346757" id="-23044">
		<tag k="name" v="Tritjønnane" />
		<tag k="natural" v="water" />
		<tag k="ssr:stedsnr" v="353913" />
		<tag k="water" v="lake" />
	</node>
	<node lat="58.5879388855205" lon="8.16989444359245" id="-23056">
		<tag k="name" v="Vrålsbekken" />
		<tag k="ssr:stedsnr" v="474696" />
		<tag k="waterway" v="stream" />
	</node>
	<node lat="58.60646388524431" lon="8.137936117737436" id="-23059">
		<tag k="name" v="Bjønnetjønn" />
		<tag k="natural" v="water" />
		<tag k="ssr:stedsnr" v="474739" />
	</node>
	<node lat="58.6061916664417" lon="8.160163893762794" id="-23062">
		<tag k="name" v="Botnetjønn" />
		<tag k="natural" v="water" />
		<tag k="ssr:stedsnr" v="474754" />
	</node>
	<node lat="58.537927778746045" lon="8.183905554156873" id="-23064">
		<tag k="name" v="Mjåvetjønn" />
		<tag k="natural" v="water" />
		<tag k="ssr:stedsnr" v="475137" />
	</node>
	<node lat="58.36334721975119" lon="8.159100007959353" id="-23069">
		<tag k="name" v="Natveitvannet" />
		<tag k="natural" v="water" />
		<tag k="ssr:stedsnr" v="363319" />
	</node>
	<node lat="58.52455278148767" lon="8.366674994711746" id="-23070">
		<tag k="alt_name" v="Hestetjenn" />
		<tag k="name" v="Hestetjørn" />
		<tag k="natural" v="water" />
		<tag k="ssr:stedsnr" v="364030" />
	</node>
	<node lat="58.54791388519676" lon="8.174658325752224" id="-23072">
		<tag k="alt_name" v="Vrengetjørn" />
		<tag k="name" v="Vrengetjønn" />
		<tag k="natural" v="water" />
		<tag k="ssr:stedsnr" v="364254" />
	</node>
	<node lat="58.50660555487182" lon="8.377655559140221" id="-23083">
		<tag k="alt_name" v="Hisvann" />
		<tag k="name" v="Hisvatnet" />
		<tag k="natural" v="water" />
		<tag k="ssr:stedsnr" v="365013" />
	</node>
	<node lat="58.544199999757296" lon="8.380905554322204" id="-23084">
		<tag k="alt_name" v="Hansestjenn" />
		<tag k="name" v="Hansestjørn" />
		<tag k="natural" v="water" />
		<tag k="ssr:stedsnr" v="365202" />
	</node>
	<node lat="58.53655555385032" lon="8.347991664544148" id="-23085">
		<tag k="name" v="Mannvadet" />
		<tag k="natural" v="bay" />
		<tag k="ssr:stedsnr" v="365205" />
	</node>
	<node lat="58.54993146549675" lon="8.401611712106773" id="-23086">
		<tag k="alt_name" v="Store Ljosvann" />
		<tag k="name" v="Store Ljosvatnet" />
		<tag k="natural" v="water" />
		<tag k="ssr:stedsnr" v="365246" />
		<tag k="water" v="lake" />
	</node>
	<node lat="58.538544497261036" lon="8.208362970154445" id="-23087">
		<tag k="alt_name" v="Ormetjørn" />
		<tag k="name" v="Ormetjønn" />
		<tag k="natural" v="water" />
		<tag k="ssr:stedsnr" v="365256" />
	</node>
	<node lat="58.52032777476687" lon="8.057344436998743" id="-23088">
		<tag k="alt_name" v="Åmbårtjørn" />
		<tag k="name" v="Åmbårstjønn" />
		<tag k="natural" v="water" />
		<tag k="ssr:stedsnr" v="365449" />
	</node>
	<node lat="58.62728690254352" lon="8.099722674067195" id="-23089">
		<tag k="alt_name" v="Førevatnet" />
		<tag k="name" v="Førevatn" />
		<tag k="natural" v="water" />
		<tag k="ssr:stedsnr" v="365554" />
		<tag k="water" v="lake" />
	</node>
	<node lat="58.37365555992966" lon="8.291000001686456" id="-23105">
		<tag k="name" v="Granåstjenn" />
		<tag k="natural" v="water" />
		<tag k="ssr:stedsnr" v="396006" />
	</node>
	<node lat="58.40290555910553" lon="8.293547228947654" id="-23110">
		<tag k="name" v="Rovetjenn" />
		<tag k="natural" v="water" />
		<tag k="ssr:stedsnr" v="396031" />
	</node>
	<node lat="58.46101389245255" lon="8.294716661975356" id="-23115">
		<tag k="name" v="Søylekilen" />
		<tag k="natural" v="bay" />
		<tag k="ssr:stedsnr" v="396093" />
	</node>
	<node lat="58.474686114453284" lon="8.288116666833572" id="-23116">
		<tag k="name" v="Mølledammen" />
		<tag k="natural" v="water" />
		<tag k="ssr:stedsnr" v="396095" />
	</node>
	<node lat="58.58463888520455" lon="8.388200001262057" id="-23122">
		<tag k="name" v="Smørtjønnlonene" />
		<tag k="natural" v="water" />
		<tag k="ssr:stedsnr" v="396309" />
		<tag k="water" v="lake" />
	</node>
	<node lat="58.27428888709191" lon="8.186888890461399" id="-23127">
		<tag k="name" v="Småstetjønn" />
		<tag k="natural" v="water" />
		<tag k="ssr:stedsnr" v="396500" />
	</node>
	<node lat="58.37787777401443" lon="8.293972214225303" id="-23128">
		<tag k="name" v="Vestervasstjenn" />
		<tag k="natural" v="water" />
		<tag k="ssr:stedsnr" v="396736" />
	</node>
	<node lat="58.38151111119264" lon="8.317816674418836" id="-23137">
		<tag k="name" v="Østervann" />
		<tag k="natural" v="water" />
		<tag k="ssr:stedsnr" v="396820" />
		<tag k="water" v="lake" />
	</node>
	<node lat="58.43888333162484" lon="8.363561109287375" id="-23139">
		<tag k="name" v="Djupetjenn" />
		<tag k="natural" v="water" />
		<tag k="ssr:stedsnr" v="396826" />
	</node>
	<node lat="58.44054166752164" lon="8.347672218887157" id="-23140">
		<tag k="name" v="Bøyketangen" />
		<tag k="natural" v="cape" />
		<tag k="ssr:stedsnr" v="396827" />
	</node>
	<node lat="58.335122223753736" lon="8.122136118233678" id="-23145">
		<tag k="name" v="Krokvatnet" />
		<tag k="natural" v="water" />
		<tag k="ssr:stedsnr" v="484518" />
	</node>
	<node lat="58.49350833624074" lon="8.262819441594706" id="-23151">
		<tag k="name" v="Kyllandsvannet" />
		<tag k="natural" v="water" />
		<tag k="ssr:stedsnr" v="485385" />
		<tag k="water" v="lake" />
	</node>
	<node lat="58.4174583306975" lon="8.262855560758556" id="-23152">
		<tag k="name" v="Hestetjønn" />
		<tag k="natural" v="water" />
		<tag k="ssr:stedsnr" v="485350" />
	</node>
	<node lat="58.26774830457068" lon="8.25645274018869" id="-23157">
		<tag k="alt_name" v="Grunnevann" />
		<tag k="name" v="Grunnevannet" />
		<tag k="natural" v="water" />
		<tag k="ssr:stedsnr" v="485679" />
	</node>
	<node lat="58.58636389058359" lon="8.406533326252724" id="-23161">
		<tag k="alt_name" v="Mellomstjenn" />
		<tag k="name" v="Mellomstjørn" />
		<tag k="natural" v="water" />
		<tag k="ssr:stedsnr" v="486168" />
	</node>
	<node lat="58.54070000212936" lon="8.266591668248761" id="-23162">
		<tag k="name" v="Samkom" />
		<tag k="natural" v="water" />
		<tag k="ssr:stedsnr" v="486179" />
		<tag k="water" v="lake" />
	</node>
	<node lat="58.53375833074976" lon="8.29591389564161" id="-23165">
		<tag k="alt_name" v="Råbuvatnet" />
		<tag k="name" v="Robuvatn" />
		<tag k="natural" v="water" />
		<tag k="ssr:stedsnr" v="486184" />
	</node>
	<node lat="58.32684166317634" lon="8.05899721584018" id="-23167">
		<tag k="name" v="Svanetjønn" />
		<tag k="natural" v="water" />
		<tag k="ssr:stedsnr" v="407759" />
	</node>
	<node lat="58.32521944200937" lon="8.150180547114237" id="-23175">
		<tag k="name" v="Dalåstjønnene" />
		<tag k="natural" v="water" />
		<tag k="ssr:stedsnr" v="408255" />
		<tag k="water" v="lake" />
	</node>
	<node lat="58.34866944336212" lon="8.122922226180599" id="-23179">
		<tag k="name" v="Eldhustjønn" />
		<tag k="natural" v="water" />
		<tag k="ssr:stedsnr" v="408408" />
	</node>
	<node lat="58.349888885065965" lon="8.125952781102528" id="-23180">
		<tag k="name" v="Jakobsnes" />
		<tag k="natural" v="cape" />
		<tag k="ssr:stedsnr" v="408409" />
	</node>
	<node lat="58.35568610933197" lon="8.167552785186384" id="-23186">
		<tag k="name" v="Sildebekk" />
		<tag k="ssr:stedsnr" v="408355" />
		<tag k="waterway" v="stream" />
	</node>
	<node lat="58.389350000694286" lon="8.171258325071152" id="-23188">
		<tag k="name" v="Kjerringtjønn" />
		<tag k="natural" v="water" />
		<tag k="ssr:stedsnr" v="408509" />
	</node>
	<node lat="58.40307222331867" lon="8.22046666306247" id="-23189">
		<tag k="name" v="Lonane" />
		<tag k="natural" v="water" />
		<tag k="ssr:stedsnr" v="408518" />
		<tag k="water" v="lake" />
	</node>
	<node lat="58.37172222436439" lon="8.092519439791484" id="-23190">
		<tag k="name" v="Innjordstjønn" />
		<tag k="natural" v="water" />
		<tag k="ssr:stedsnr" v="408565" />
	</node>
	<node lat="58.489519447952674" lon="8.177311106722392" id="-23194">
		<tag k="name" v="Bekkedalstjønn" />
		<tag k="natural" v="water" />
		<tag k="ssr:stedsnr" v="408814" />
	</node>
	<node lat="58.540452776684766" lon="7.998463886523146" id="-23198">
		<tag k="alt_name" v="Kaldetjørna" />
		<tag k="name" v="Kalletjønna" />
		<tag k="natural" v="water" />
		<tag k="ssr:stedsnr" v="486680" />
	</node>
	<node lat="58.53244722611956" lon="7.951963888848368" id="-23200">
		<tag k="name" v="Katteråsåna" />
		<tag k="ssr:stedsnr" v="486686" />
		<tag k="waterway" v="river" />
	</node>
	<node lat="58.515002775405165" lon="8.265386113513001" id="-23204">
		<tag k="name" v="Enketjønn" />
		<tag k="natural" v="water" />
		<tag k="ssr:stedsnr" v="408924" />
	</node>
	<node lat="58.52005833650053" lon="8.264391670815353" id="-23207">
		<tag k="name" v="Likferdtjønn" />
		<tag k="natural" v="water" />
		<tag k="ssr:stedsnr" v="408894" />
	</node>
	<node lat="58.549086109153095" lon="8.047558332759953" id="-23212">
		<tag k="name" v="Grønevassbekken" />
		<tag k="ssr:stedsnr" v="413285" />
		<tag k="waterway" v="stream" />
	</node>
	<node lat="58.56403055389262" lon="8.013580551285099" id="-23218">
		<tag k="name" v="Gluggvardstjønn" />
		<tag k="natural" v="water" />
		<tag k="ssr:stedsnr" v="413738" />
	</node>
	<node lat="58.53162777473272" lon="8.174380550946143" id="-23223">
		<tag k="name" v="Nordheitjønn" />
		<tag k="natural" v="water" />
		<tag k="ssr:stedsnr" v="414108" />
	</node>
	<node lat="58.52203333288072" lon="7.941194445713159" id="-23228">
		<tag k="name" v="Osekleivbekken" />
		<tag k="ssr:stedsnr" v="414650" />
		<tag k="waterway" v="stream" />
	</node>
	<node lat="58.38537778086514" lon="8.148769450507297" id="-23236">
		<tag k="alt_name" v="Berkevannet" />
		<tag k="name" v="Barkevannet" />
		<tag k="natural" v="water" />
		<tag k="ssr:stedsnr" v="424316" />
	</node>
	<node lat="58.3364866989112" lon="8.077536955337798" id="-23238">
		<tag k="name" v="Gangtjønn" />
		<tag k="natural" v="water" />
		<tag k="ssr:stedsnr" v="425102" />
	</node>
	<node lat="58.36999722503438" lon="8.052241665909754" id="-23239">
		<tag k="name" v="Grunnetjønn" />
		<tag k="natural" v="water" />
		<tag k="ssr:stedsnr" v="425159" />
	</node>
	<node lat="58.5387111107071" lon="8.376486112527978" id="-23240">
		<tag k="alt_name" v="Brattekleivtjenn" />
		<tag k="name" v="Brattekleivtjørn" />
		<tag k="natural" v="water" />
		<tag k="ssr:stedsnr" v="425200" />
	</node>
	<node lat="58.295050004323286" lon="8.099469450518615" id="-23241">
		<tag k="name" v="Resvatn" />
		<tag k="natural" v="water" />
		<tag k="old_name" v="Resvatnet;Risvannet" />
		<tag k="ssr:stedsnr" v="425303" />
	</node>
	<node lat="58.40810412157954" lon="8.169233411408992" id="-23242">
		<tag k="name" v="Moltetjønn" />
		<tag k="natural" v="water" />
		<tag k="ssr:stedsnr" v="425407" />
	</node>
	<node lat="58.41807222376975" lon="8.127927784881834" id="-23243">
		<tag k="fixme" v="multiple name tags, choose one and add the other to alt_name" />
		<tag k="name" v="Store Elgtjønn;Elgetjønn" />
		<tag k="natural" v="water" />
		<tag k="ssr:stedsnr" v="425414" />
	</node>
	<node lat="58.36059999692382" lon="8.33201110988427" id="-23250">
		<tag k="alt_name" v="Hundlandsvann" />
		<tag k="name" v="Hundlandsvannet" />
		<tag k="natural" v="water" />
		<tag k="ssr:stedsnr" v="425355" />
	</node>
	<node lat="58.53312500277365" lon="8.154780548942218" id="-23255">
		<tag k="alt_name" v="Hesteneset" />
		<tag k="name" v="Hestneset" />
		<tag k="natural" v="cape" />
		<tag k="ssr:stedsnr" v="426200" />
	</node>
	<node lat="58.59336389025305" lon="8.206891669824738" id="-23256">
		<tag k="name" v="Kolstraumen" />
		<tag k="natural" v="bay" />
		<tag k="ssr:stedsnr" v="426305" />
	</node>
	<node lat="58.59149444258989" lon="8.11439999366996" id="-23258">
		<tag k="alt_name" v="Tverråna" />
		<tag k="name" v="Tvøråna" />
		<tag k="ssr:stedsnr" v="426310" />
		<tag k="waterway" v="stream" />
	</node>
	<node lat="58.5197722185753" lon="7.981824996597765" id="-23259">
		<tag k="alt_name" v="Stavetjørn" />
		<tag k="name" v="Stavetjønn" />
		<tag k="natural" v="water" />
		<tag k="ssr:stedsnr" v="426416" />
	</node>
	<node lat="58.33594721890262" lon="8.187244446509526" id="-23264">
		<tag k="name" v="Tretjønn" />
		<tag k="natural" v="water" />
		<tag k="ssr:stedsnr" v="453380" />
	</node>
	<node lat="58.46329722335127" lon="8.333091674828399" id="-23270">
		<tag k="name" v="Ospevika" />
		<tag k="natural" v="bay" />
		<tag k="ssr:stedsnr" v="457124" />
	</node>
	<node lat="58.486369448129096" lon="8.295219452941891" id="-23274">
		<tag k="name" v="Orretjønn" />
		<tag k="natural" v="water" />
		<tag k="ssr:stedsnr" v="457154" />
	</node>
	<node lat="58.48063333069265" lon="8.363763894088583" id="-23278">
		<tag k="name" v="Lomstjenn" />
		<tag k="natural" v="water" />
		<tag k="ssr:stedsnr" v="457170" />
	</node>
	<node lat="58.37295833482451" lon="8.32369444441294" id="-23280">
		<tag k="name" v="Nordlihølen" />
		<tag k="place" v="locality" />
		<tag k="ssr:stedsnr" v="457002" />
	</node>
	<node lat="58.37589444004084" lon="8.317838891156367" id="-23281">
		<tag k="name" v="Ålekjerrtjenn" />
		<tag k="natural" v="water" />
		<tag k="ssr:stedsnr" v="457008" />
	</node>
	<node lat="58.413980555517476" lon="8.30489167135498" id="-23284">
		<tag k="name" v="Sovartjenn" />
		<tag k="natural" v="water" />
		<tag k="ssr:stedsnr" v="457022" />
	</node>
	<node lat="58.42075833254138" lon="8.33536110745526" id="-23287">
		<tag k="name" v="Gunderstjenn" />
		<tag k="natural" v="water" />
		<tag k="ssr:stedsnr" v="457037" />
	</node>
	<node lat="58.3982416653433" lon="8.310352785006645" id="-23290">
		<tag k="name" v="Røysetjenn" />
		<tag k="natural" v="water" />
		<tag k="ssr:stedsnr" v="457053" />
	</node>
	<node lat="58.57351110840454" lon="8.406983338347924" id="-23300">
		<tag k="name" v="Litjenn" />
		<tag k="natural" v="water" />
		<tag k="ssr:stedsnr" v="457303" />
	</node>
	<node lat="58.46790277882595" lon="8.335413883123952" id="-23303">
		<tag k="name" v="Raudesand" />
		<tag k="natural" v="beach" />
		<tag k="ssr:stedsnr" v="457835" />
	</node>
	<node lat="58.384375004293496" lon="8.255566667110807" id="-23305">
		<tag k="name" v="Tveitsbekken" />
		<tag k="ssr:stedsnr" v="457767" />
		<tag k="waterway" v="stream" />
	</node>
	<node lat="58.434480557528126" lon="8.121627773827713" id="-23313">
		<tag k="name" v="Stemtjønn" />
		<tag k="natural" v="water" />
		<tag k="ssr:stedsnr" v="468482" />
	</node>
	<node lat="58.37052778114173" lon="8.080294442238527" id="-23317">
		<tag k="name" v="Djupetjønn" />
		<tag k="natural" v="water" />
		<tag k="ssr:stedsnr" v="468514" />
	</node>
	<node lat="58.37143611012121" lon="8.088983325863133" id="-23318">
		<tag k="name" v="Smalsundet" />
		<tag k="natural" v="strait" />
		<tag k="ssr:stedsnr" v="468520" />
	</node>
	<node lat="58.42727500167175" lon="8.106672224550424" id="-23321">
		<tag k="name" v="Sauesundet" />
		<tag k="natural" v="strait" />
		<tag k="ssr:stedsnr" v="468578" />
	</node>
	<node lat="58.46575000064237" lon="8.113475006892987" id="-23324">
		<tag k="name" v="Geitshøl" />
		<tag k="place" v="locality" />
		<tag k="ssr:stedsnr" v="468868" />
	</node>
	<node lat="58.49117500235545" lon="8.245819450209586" id="-23326">
		<tag k="name" v="Hustjønn" />
		<tag k="natural" v="water" />
		<tag k="ssr:stedsnr" v="468772" />
	</node>
	<node lat="58.47346388900612" lon="8.160116661207827" id="-23355">
		<tag k="name" v="Rekevika" />
		<tag k="natural" v="bay" />
		<tag k="ssr:stedsnr" v="469661" />
	</node>
	<node lat="58.47084444376391" lon="8.151136106590124" id="-23356">
		<tag k="name" v="Gåsholmen" />
		<tag k="place" v="islet" />
		<tag k="ssr:stedsnr" v="469665" />
	</node>
	<node lat="58.45668333763649" lon="8.101347220936319" id="-23359">
		<tag k="name" v="Finslandsvatnet" />
		<tag k="natural" v="water" />
		<tag k="ssr:stedsnr" v="469672" />
		<tag k="water" v="lake" />
	</node>
	<node lat="58.50090277724848" lon="8.259141673011467" id="-23372">
		<tag k="name" v="Landetjønn" />
		<tag k="natural" v="water" />
		<tag k="ssr:stedsnr" v="469911" />
	</node>
	<node lat="58.58279797310079" lon="8.15470367954371" id="-23377">
		<tag k="name" v="Kjørketjønn" />
		<tag k="natural" v="water" />
		<tag k="ssr:stedsnr" v="474103" />
	</node>
	<node lat="58.61999166682622" lon="8.151761115952016" id="-23380">
		<tag k="name" v="Skrelletjønn" />
		<tag k="natural" v="water" />
		<tag k="ssr:stedsnr" v="474662" />
	</node>
	<node lat="58.51969722574969" lon="7.941016672394302" id="-23381">
		<tag k="name" v="Eftevatnet" />
		<tag k="natural" v="water" />
		<tag k="ssr:stedsnr" v="474677" />
		<tag k="water" v="lake" />
	</node>
	<node lat="58.42464166622561" lon="8.085102783233934" id="-23391">
		<tag k="name" v="Ogge" />
		<tag k="natural" v="water" />
		<tag k="ssr:stedsnr" v="485115" />
		<tag k="water" v="lake" />
	</node>
	<node lat="58.351805552949095" lon="8.074891672064547" id="-23392">
		<tag k="name" v="Lindtjønn" />
		<tag k="natural" v="water" />
		<tag k="ssr:stedsnr" v="485058" />
	</node>
	<node lat="58.32575277434664" lon="8.12841666582895" id="-23394">
		<tag k="name" v="Åbuvannet" />
		<tag k="natural" v="water" />
		<tag k="ssr:stedsnr" v="485213" />
	</node>
	<node lat="58.33948611167344" lon="8.331588887699613" id="-23395">
		<tag k="name" v="Langtjønn" />
		<tag k="natural" v="water" />
		<tag k="ssr:stedsnr" v="485217" />
	</node>
	<node lat="58.42650277719057" lon="8.213269442280959" id="-23399">
		<tag k="name" v="Lille Sandtjønn" />
		<tag k="natural" v="water" />
		<tag k="ssr:stedsnr" v="485312" />
	</node>
	<node lat="58.436079988091954" lon="8.16718365206037" id="-23400">
		<tag k="name" v="Kroktjønn" />
		<tag k="natural" v="water" />
		<tag k="ssr:stedsnr" v="485315" />
	</node>
	<node lat="58.44678888458074" lon="8.17641110759329" id="-23401">
		<tag k="name" v="Langevatna" />
		<tag k="natural" v="water" />
		<tag k="old_name" v="Langvatna;Langevanna" />
		<tag k="ssr:stedsnr" v="485327" />
	</node>
	<node lat="58.475800000962685" lon="8.137116662198936" id="-23403">
		<tag k="fixme" v="multiple name tags, choose one and add the other to alt_name" />
		<tag k="name" v="Skoretjønnane;Skoretjønn" />
		<tag k="natural" v="water" />
		<tag k="ssr:stedsnr" v="485403" />
		<tag k="water" v="lake" />
	</node>
	<node lat="58.45713819443757" lon="8.363342717806157" id="-23404">
		<tag k="name" v="Motjenn" />
		<tag k="natural" v="water" />
		<tag k="ssr:stedsnr" v="485428" />
	</node>
	<node lat="58.44760277479939" lon="8.214783326194803" id="-23405">
		<tag k="name" v="Knutetjønn" />
		<tag k="natural" v="water" />
		<tag k="ssr:stedsnr" v="485435" />
	</node>
	<node lat="58.50498333410897" lon="8.255008330556146" id="-23406">
		<tag k="alt_name" v="Landevatnet" />
		<tag k="name" v="Landevatn" />
		<tag k="natural" v="water" />
		<tag k="ssr:stedsnr" v="486006" />
	</node>
	<node lat="58.50612500217674" lon="8.335152781031152" id="-23407">
		<tag k="alt_name" v="Øksenesodden" />
		<tag k="name" v="Øksnesodden" />
		<tag k="natural" v="cape" />
		<tag k="ssr:stedsnr" v="486010" />
	</node>
	<node lat="58.566408335760066" lon="8.153755549602012" id="-23409">
		<tag k="alt_name" v="Løynfisktjørna" />
		<tag k="name" v="Løynfisktjønn" />
		<tag k="natural" v="water" />
		<tag k="ssr:stedsnr" v="486108" />
	</node>
	<node lat="58.29600329819597" lon="8.233336142066356" id="-23419">
		<tag k="name" v="Dyplane" />
		<tag k="natural" v="water" />
		<tag k="ssr:stedsnr" v="513302" />
	</node>
	<node lat="58.55550833022238" lon="8.4037472223348" id="-23435">
		<tag k="name" v="Speketangen" />
		<tag k="natural" v="cape" />
		<tag k="ssr:stedsnr" v="518321" />
	</node>
	<node lat="58.47734444328204" lon="8.388836117258586" id="-23438">
		<tag k="name" v="Sandtjenn" />
		<tag k="natural" v="water" />
		<tag k="ssr:stedsnr" v="518346" />
	</node>
	<node lat="58.372541669554614" lon="8.228525006490104" id="-23445">
		<tag k="name" v="Lonane" />
		<tag k="natural" v="water" />
		<tag k="ssr:stedsnr" v="518813" />
		<tag k="water" v="lake" />
	</node>
	<node lat="58.35560277911502" lon="8.275122216749699" id="-23448">
		<tag k="name" v="Svindalstjenn" />
		<tag k="natural" v="water" />
		<tag k="ssr:stedsnr" v="518880" />
	</node>
	<node lat="58.27606944414463" lon="8.171961105948027" id="-23449">
		<tag k="name" v="Ansgarstjønn" />
		<tag k="natural" v="water" />
		<tag k="ssr:stedsnr" v="518912" />
	</node>
	<node lat="58.40440000224842" lon="8.11981945101801" id="-23466">
		<tag k="name" v="Dybletjønn" />
		<tag k="natural" v="water" />
		<tag k="ssr:stedsnr" v="529422" />
	</node>
	<node lat="58.40738888908847" lon="8.103219446110877" id="-23467">
		<tag k="name" v="Hellersundet" />
		<tag k="natural" v="strait" />
		<tag k="ssr:stedsnr" v="529603" />
	</node>
	<node lat="58.37073055992358" lon="8.118997218850668" id="-23469">
		<tag k="name" v="Tjøremotjønn" />
		<tag k="natural" v="water" />
		<tag k="ssr:stedsnr" v="529393" />
	</node>
	<node lat="58.28528055246643" lon="8.059213893669225" id="-23471">
		<tag k="name" v="Igletjønn" />
		<tag k="natural" v="water" />
		<tag k="ssr:stedsnr" v="529529" />
	</node>
	<node lat="58.37014444265514" lon="8.10961944669989" id="-23472">
		<tag k="name" v="Langsvassbekken" />
		<tag k="ssr:stedsnr" v="529532" />
		<tag k="waterway" v="stream" />
	</node>
	<node lat="58.513894445950726" lon="8.269249994582024" id="-23474">
		<tag k="name" v="Rundetjønn" />
		<tag k="natural" v="water" />
		<tag k="ssr:stedsnr" v="529936" />
	</node>
	<node lat="58.47837222027775" lon="8.209413886962299" id="-23475">
		<tag k="name" v="Stemtjønn" />
		<tag k="natural" v="water" />
		<tag k="ssr:stedsnr" v="529806" />
	</node>
	<node lat="58.592866670367" lon="8.15859999847402" id="-23477">
		<tag k="name" v="Trollfoss" />
		<tag k="natural" v="waterfall" />
		<tag k="ssr:stedsnr" v="534413" />
	</node>
	<node lat="58.520841671172995" lon="8.142527780432092" id="-23481">
		<tag k="name" v="Baklitjønn" />
		<tag k="natural" v="water" />
		<tag k="ssr:stedsnr" v="535113" />
	</node>
	<node lat="58.51781536523015" lon="7.988163233230137" id="-23508">
		<tag k="name" v="Tvitjønnane" />
		<tag k="natural" v="water" />
		<tag k="ssr:stedsnr" v="535975" />
		<tag k="water" v="lake" />
	</node>
	<node lat="58.28968333516066" lon="8.064149994040557" id="-23510">
		<tag k="alt_name" v="Eikelandsvatnet" />
		<tag k="name" v="Eikelandsvatn" />
		<tag k="natural" v="water" />
		<tag k="ssr:stedsnr" v="546004" />
		<tag k="water" v="lake" />
	</node>
	<node lat="58.34732141675891" lon="8.092155156200864" id="-23511">
		<tag k="name" v="Geitetjønn" />
		<tag k="natural" v="water" />
		<tag k="ssr:stedsnr" v="546084" />
	</node>
	<node lat="58.544727777440514" lon="8.121700001372243" id="-23513">
		<tag k="alt_name" v="Tjørnhom" />
		<tag k="name" v="Tjørnom" />
		<tag k="natural" v="water" />
		<tag k="ssr:stedsnr" v="546226" />
	</node>
	<node lat="58.535747225715724" lon="8.306611106151149" id="-23516">
		<tag k="alt_name" v="Rossetjørn" />
		<tag k="name" v="Rossetjønn" />
		<tag k="natural" v="water" />
		<tag k="ssr:stedsnr" v="546196" />
	</node>
	<node lat="58.38072189791239" lon="8.290667464367765" id="-23517">
		<tag k="name" v="Tvitjønn" />
		<tag k="natural" v="water" />
		<tag k="ssr:stedsnr" v="546308" />
	</node>
	<node lat="58.506994442310535" lon="8.026180561976625" id="-23522">
		<tag k="alt_name" v="Tjørnan" />
		<tag k="name" v="Tjønnane" />
		<tag k="natural" v="water" />
		<tag k="ssr:stedsnr" v="546371" />
	</node>
	<node lat="58.419494447311735" lon="8.328894442385314" id="-23525">
		<tag k="name" v="Svartetjønn" />
		<tag k="natural" v="water" />
		<tag k="ssr:stedsnr" v="546382" />
	</node>
	<node lat="58.556402775358606" lon="8.050372219849407" id="-23527">
		<tag k="alt_name" v="Grønvatna" />
		<tag k="name" v="Grønevatnet" />
		<tag k="natural" v="water" />
		<tag k="ssr:stedsnr" v="546591" />
		<tag k="water" v="lake" />
	</node>
	<node lat="58.531400003688795" lon="8.161525000567233" id="-23530">
		<tag k="alt_name" v="Hesteneskilen" />
		<tag k="name" v="Hestneskilen" />
		<tag k="natural" v="bay" />
		<tag k="ssr:stedsnr" v="547221" />
	</node>
	<node lat="58.34466110720269" lon="8.212261104026382" id="-23541">
		<tag k="name" v="Galtetjønn" />
		<tag k="natural" v="water" />
		<tag k="ssr:stedsnr" v="574395" />
	</node>
	<node lat="58.42721666606464" lon="8.314469438975776" id="-23548">
		<tag k="name" v="Mjåvetjenn" />
		<tag k="natural" v="water" />
		<tag k="ssr:stedsnr" v="578049" />
	</node>
	<node lat="58.39896388552884" lon="8.301080547258842" id="-23549">
		<tag k="name" v="Tallakstjenn" />
		<tag k="natural" v="water" />
		<tag k="ssr:stedsnr" v="578060" />
	</node>
	<node lat="58.46187777766915" lon="8.349961119356513" id="-23551">
		<tag k="name" v="Honnåslona" />
		<tag k="natural" v="water" />
		<tag k="ssr:stedsnr" v="578120" />
	</node>
	<node lat="58.571488884813256" lon="8.401497221802181" id="-23556">
		<tag k="name" v="Øvre Kjellingtjenn" />
		<tag k="natural" v="water" />
		<tag k="ssr:stedsnr" v="578298" />
	</node>
	<node lat="58.35347221817746" lon="8.280722221412631" id="-23557">
		<tag k="name" v="Lilletjenn" />
		<tag k="natural" v="water" />
		<tag k="ssr:stedsnr" v="578714" />
	</node>
	<node lat="58.399522222850486" lon="8.234658329701404" id="-23559">
		<tag k="name" v="Lonebekken" />
		<tag k="ssr:stedsnr" v="578756" />
		<tag k="waterway" v="stream" />
	</node>
	<node lat="58.39620555278366" lon="8.23681389557817" id="-23560">
		<tag k="name" v="Fossekvennlona" />
		<tag k="natural" v="water" />
		<tag k="ssr:stedsnr" v="578758" />
		<tag k="water" v="lake" />
	</node>
	<node lat="58.26448055678089" lon="8.178658332392615" id="-23561">
		<tag k="name" v="Lintjønn" />
		<tag k="natural" v="water" />
		<tag k="ssr:stedsnr" v="578913" />
	</node>
	<node lat="58.393533333375785" lon="8.312847219138293" id="-23563">
		<tag k="name" v="Febutjenn" />
		<tag k="natural" v="water" />
		<tag k="ssr:stedsnr" v="578808" />
	</node>
	<node lat="58.41764999991859" lon="8.309469438383765" id="-23564">
		<tag k="name" v="Badetjønn" />
		<tag k="natural" v="water" />
		<tag k="ssr:stedsnr" v="578809" />
		<tag k="water" v="pond" />
	</node>
	<node lat="58.326952776636574" lon="8.172069436021898" id="-23573">
		<tag k="name" v="Gofarsbekk" />
		<tag k="ssr:stedsnr" v="695381" />
		<tag k="waterway" v="stream" />
	</node>
	<node lat="58.343777782020446" lon="8.216158341129734" id="-23583">
		<tag k="name" v="Eskedalstjønn" />
		<tag k="natural" v="water" />
		<tag k="ssr:stedsnr" v="696374" />
	</node>
	<node lat="58.39100278151446" lon="8.170888882750118" id="-23590">
		<tag k="name" v="Moltetjønn" />
		<tag k="natural" v="water" />
		<tag k="ssr:stedsnr" v="589463" />
	</node>
	<node lat="58.46966944606165" lon="8.228083339907323" id="-23592">
		<tag k="name" v="Vestølbekken" />
		<tag k="ssr:stedsnr" v="589861" />
		<tag k="waterway" v="stream" />
	</node>
	<node lat="58.46279999841879" lon="8.200258327978661" id="-23594">
		<tag k="name" v="Lomstjønn" />
		<tag k="natural" v="water" />
		<tag k="ssr:stedsnr" v="589880" />
	</node>
	<node lat="58.43301388682364" lon="8.236552774672477" id="-23601">
		<tag k="name" v="Risbekk" />
		<tag k="ssr:stedsnr" v="590315" />
		<tag k="waterway" v="stream" />
	</node>
	<node lat="58.35002777938225" lon="8.119752783183413" id="-23604">
		<tag k="name" v="Fjelltjønn" />
		<tag k="natural" v="water" />
		<tag k="ssr:stedsnr" v="590377" />
	</node>
	<node lat="58.37575833079826" lon="8.19362778152496" id="-23606">
		<tag k="name" v="Stemmyrtjønn" />
		<tag k="natural" v="water" />
		<tag k="ssr:stedsnr" v="590387" />
	</node>
	<node lat="58.37004444585017" lon="8.21508611227084" id="-23608">
		<tag k="name" v="Stetjønn" />
		<tag k="natural" v="water" />
		<tag k="ssr:stedsnr" v="590393" />
	</node>
	<node lat="58.44388333680376" lon="8.137480553205206" id="-23618">
		<tag k="name" v="Lonene" />
		<tag k="natural" v="water" />
		<tag k="ssr:stedsnr" v="590525" />
		<tag k="water" v="lake" />
	</node>
	<node lat="58.471052775124306" lon="8.148427771279309" id="-23624">
		<tag k="name" v="Joffertangen" />
		<tag k="natural" v="cape" />
		<tag k="ssr:stedsnr" v="590657" />
	</node>
	<node lat="58.4814972177296" lon="8.217163881393706" id="-23631">
		<tag k="name" v="Bergvalona" />
		<tag k="natural" v="water" />
		<tag k="ssr:stedsnr" v="590775" />
		<tag k="water" v="lake" />
	</node>
	<node lat="58.525491669081426" lon="8.257727784854655" id="-23634">
		<tag k="name" v="Tvillingtjønn" />
		<tag k="natural" v="water" />
		<tag k="ssr:stedsnr" v="590876" />
	</node>
	<node lat="58.554391668772716" lon="8.145933333638482" id="-23642">
		<tag k="name" v="Berbakktjønn" />
		<tag k="natural" v="water" />
		<tag k="ssr:stedsnr" v="595349" />
	</node>
	<node lat="58.630711112493934" lon="8.176222226591184" id="-23644">
		<tag k="name" v="Glipekil" />
		<tag k="natural" v="bay" />
		<tag k="ssr:stedsnr" v="595718" />
	</node>
	<node lat="58.539333329346256" lon="7.973461110463677" id="-23658">
		<tag k="name" v="Fidjeåna" />
		<tag k="ssr:stedsnr" v="596258" />
		<tag k="waterway" v="river" />
	</node>
	<node lat="58.547625000351495" lon="7.980558338229213" id="-23663">
		<tag k="name" v="Ørnetjønn" />
		<tag k="natural" v="water" />
		<tag k="ssr:stedsnr" v="596611" />
	</node>
	<node lat="58.37817500403299" lon="8.32384443869955" id="-23667">
		<tag k="name" v="Ålekjerrvann" />
		<tag k="natural" v="water" />
		<tag k="ssr:stedsnr" v="700017" />
		<tag k="water" v="lake" />
	</node>
	<node lat="58.24684722575715" lon="8.19613889337411" id="-23669">
		<tag k="alt_name" v="Pirketjønn;Pirket" />
		<tag k="name" v="Pirketjørn" />
		<tag k="natural" v="water" />
		<tag k="ssr:stedsnr" v="606330" />
	</node>
	<node lat="58.42033055224887" lon="8.154883336515752" id="-23670">
		<tag k="alt_name" v="Grunnetjønn" />
		<tag k="name" v="Grundetjønn" />
		<tag k="natural" v="water" />
		<tag k="ssr:stedsnr" v="606374" />
	</node>
	<node lat="58.39252919774084" lon="8.099905214354997" id="-23671">
		<tag k="name" v="Storefjord" />
		<tag k="natural" v="water" />
		<tag k="ssr:stedsnr" v="606299" />
	</node>
	<node lat="58.3968320394417" lon="8.211587171178737" id="-23673">
		<tag k="name" v="Søyletjønn" />
		<tag k="natural" v="water" />
		<tag k="ssr:stedsnr" v="606412" />
	</node>
	<node lat="58.400808330344375" lon="8.303394442121677" id="-23675">
		<tag k="name" v="Tvitjønn" />
		<tag k="natural" v="water" />
		<tag k="ssr:stedsnr" v="606400" />
	</node>
	<node lat="58.27374999624588" lon="8.253941663064811" id="-23676">
		<tag k="name" v="Bjortjønn" />
		<tag k="natural" v="water" />
		<tag k="ssr:stedsnr" v="606719" />
	</node>
	<node lat="58.572102773608236" lon="8.389563896554309" id="-23680">
		<tag k="alt_name" v="Gauslåtjenn" />
		<tag k="name" v="Gauslåtjørna" />
		<tag k="natural" v="water" />
		<tag k="ssr:stedsnr" v="607151" />
	</node>
	<node lat="58.52613611555506" lon="8.340286112787929" id="-23682">
		<tag k="alt_name" v="Storøy" />
		<tag k="name" v="Storøya" />
		<tag k="place" v="islet" />
		<tag k="ssr:stedsnr" v="607051" />
	</node>
	<node lat="58.499652780551436" lon="8.109813883222815" id="-23683">
		<tag k="alt_name" v="Håvardstadvatnet;Håverstadvatn" />
		<tag k="name" v="Håverstadvatnet" />
		<tag k="natural" v="water" />
		<tag k="ssr:stedsnr" v="607054" />
		<tag k="water" v="lake" />
	</node>
	<node lat="58.60202777976036" lon="8.133322223326815" id="-23688">
		<tag k="alt_name" v="Langevatnet" />
		<tag k="name" v="Langevatn" />
		<tag k="natural" v="water" />
		<tag k="ssr:stedsnr" v="607346" />
	</node>
	<node lat="58.44335833591287" lon="8.349575006539885" id="-23690">
		<tag k="name" v="Byttingsholmen" />
		<tag k="place" v="islet" />
		<tag k="ssr:stedsnr" v="700086" />
	</node>
	<node lat="58.37979444729706" lon="8.318216671415657" id="-23694">
		<tag k="name" v="Tangen" />
		<tag k="natural" v="cape" />
		<tag k="ssr:stedsnr" v="700023" />
	</node>
	<node lat="58.46730555789875" lon="8.286416662322093" id="-23702">
		<tag k="name" v="Store Bersingholmen" />
		<tag k="place" v="islet" />
		<tag k="ssr:stedsnr" v="700129" />
	</node>
	<node lat="58.46271944208115" lon="8.364277769981994" id="-23705">
		<tag k="name" v="Rosåstjenn" />
		<tag k="natural" v="water" />
		<tag k="ssr:stedsnr" v="700157" />
	</node>
	<node lat="58.49542777774926" lon="8.374813883460954" id="-23707">
		<tag k="name" v="Lille Ljostjenn" />
		<tag k="natural" v="water" />
		<tag k="ssr:stedsnr" v="700242" />
	</node>
	<node lat="58.516947222557825" lon="8.30428055847785" id="-23716">
		<tag k="name" v="Kjørketjønn" />
		<tag k="natural" v="water" />
		<tag k="ssr:stedsnr" v="700301" />
	</node>
	<node lat="58.611955558776515" lon="8.1500444453079" id="-23721">
		<tag k="name" v="Vestre Fjelltjønn" />
		<tag k="natural" v="water" />
		<tag k="ssr:stedsnr" v="717648" />
	</node>
	<node lat="58.29723333770626" lon="8.204375001365488" id="-23724">
		<tag k="name" v="Rundetjønn" />
		<tag k="natural" v="water" />
		<tag k="ssr:stedsnr" v="700554" />
	</node>
	<node lat="58.348136110967204" lon="8.306783334861546" id="-23726">
		<tag k="name" v="Lonåstjenn" />
		<tag k="natural" v="water" />
		<tag k="ssr:stedsnr" v="700752" />
	</node>
	<node lat="58.46457222133595" lon="8.289827783063654" id="-23752">
		<tag k="name" v="Eikenesodden" />
		<tag k="natural" v="cape" />
		<tag k="ssr:stedsnr" v="639126" />
	</node>
	<node lat="58.465305559876754" lon="8.284297216717063" id="-23753">
		<tag k="name" v="Tollenes" />
		<tag k="natural" v="cape" />
		<tag k="ssr:stedsnr" v="639128" />
	</node>
	<node lat="58.47093333686018" lon="8.299811115119546" id="-23754">
		<tag k="name" v="Eidet" />
		<tag k="place" v="locality" />
		<tag k="ssr:stedsnr" v="639132" />
	</node>
	<node lat="58.37621667074694" lon="8.302327781193789" id="-23756">
		<tag k="name" v="Vestervann" />
		<tag k="natural" v="water" />
		<tag k="ssr:stedsnr" v="639010" />
		<tag k="water" v="lake" />
	</node>
	<node lat="58.41828889224672" lon="8.31338055785551" id="-23757">
		<tag k="name" v="Hestetjenn" />
		<tag k="natural" v="water" />
		<tag k="ssr:stedsnr" v="639026" />
	</node>
	<node lat="58.557836107966196" lon="8.358391668158745" id="-23765">
		<tag k="name" v="Risnes" />
		<tag k="natural" v="cape" />
		<tag k="ssr:stedsnr" v="639324" />
	</node>
	<node lat="58.38030542128923" lon="8.22849015531109" id="-23772">
		<tag k="name" v="Flåtjønn" />
		<tag k="natural" v="water" />
		<tag k="ssr:stedsnr" v="639909" />
	</node>
	<node lat="58.38967500307732" lon="8.206391660040754" id="-23775">
		<tag k="alt_name" v="Verevasstjønn" />
		<tag k="name" v="Verevannstjønna" />
		<tag k="natural" v="water" />
		<tag k="ssr:stedsnr" v="649446" />
	</node>
	<node lat="58.35333611369864" lon="8.130077782654789" id="-23783">
		<tag k="name" v="Nessetjønn" />
		<tag k="natural" v="water" />
		<tag k="ssr:stedsnr" v="650305" />
	</node>
	<node lat="58.3513222197743" lon="8.091238887320081" id="-23804">
		<tag k="name" v="Røyrtjønn" />
		<tag k="natural" v="water" />
		<tag k="ssr:stedsnr" v="651647" />
	</node>
	<node lat="58.60942500246183" lon="8.171033336636752" id="-23817">
		<tag k="name" v="Langebergtjønn" />
		<tag k="natural" v="water" />
		<tag k="ssr:stedsnr" v="656712" />
	</node>
	<node lat="58.49128889285709" lon="8.084280555817784" id="-23826">
		<tag k="name" v="Styggtjønn" />
		<tag k="natural" v="water" />
		<tag k="ssr:stedsnr" v="657903" />
	</node>
	<node lat="58.29462131742852" lon="8.060290574871473" id="-23832">
		<tag k="name" v="Stemtjønnane" />
		<tag k="natural" v="water" />
		<tag k="ssr:stedsnr" v="667033" />
		<tag k="water" v="lake" />
	</node>
	<node lat="58.29977499772448" lon="8.14152500295252" id="-23833">
		<tag k="name" v="Gullringstjønn" />
		<tag k="natural" v="water" />
		<tag k="ssr:stedsnr" v="667292" />
	</node>
	<node lat="58.42614726554069" lon="8.255493441598997" id="-23838">
		<tag k="name" v="Langetjønn" />
		<tag k="natural" v="water" />
		<tag k="ssr:stedsnr" v="667382" />
	</node>
	<node lat="58.409369442672826" lon="8.127341659195578" id="-23840">
		<tag k="alt_name" v="Oksevannet" />
		<tag k="name" v="Oksevatn" />
		<tag k="natural" v="water" />
		<tag k="ssr:stedsnr" v="667394" />
	</node>
	<node lat="58.418908332761475" lon="8.20068055138154" id="-23841">
		<tag k="name" v="Sandtjønn" />
		<tag k="natural" v="water" />
		<tag k="ssr:stedsnr" v="667400" />
	</node>
	<node lat="58.552427778788356" lon="8.107763884213913" id="-23847">
		<tag k="alt_name" v="Vrålskilen" />
		<tag k="name" v="Vrålskil" />
		<tag k="natural" v="bay" />
		<tag k="ssr:stedsnr" v="668239" />
	</node>
	<node lat="58.40532499905382" lon="8.215016658576113" id="-23855">
		<tag k="name" v="Bladtjønn" />
		<tag k="natural" v="water" />
		<tag k="ssr:stedsnr" v="893487" />
	</node>
	<node lat="58.40896666439045" lon="8.204958329700393" id="-23856">
		<tag k="name" v="Martestjønn" />
		<tag k="natural" v="water" />
		<tag k="ssr:stedsnr" v="893500" />
	</node>
	<node lat="58.33239722563627" lon="8.072808325947618" id="-23857">
		<tag k="name" v="Sauetjønn" />
		<tag k="natural" v="water" />
		<tag k="ssr:stedsnr" v="893732" />
	</node>
	<node lat="58.33070833685878" lon="8.07620278494929" id="-23858">
		<tag k="name" v="Stemtjønn" />
		<tag k="natural" v="water" />
		<tag k="ssr:stedsnr" v="893733" />
	</node>
	<node lat="58.455541662923295" lon="8.186183329532382" id="-23860">
		<tag k="name" v="Jenstetjønn" />
		<tag k="natural" v="water" />
		<tag k="ssr:stedsnr" v="893846" />
	</node>
	<node lat="58.530000001606524" lon="8.279719447698016" id="-23861">
		<tag k="name" v="Svartetjønn" />
		<tag k="natural" v="water" />
		<tag k="ssr:stedsnr" v="894039" />
	</node>
	<node lat="58.43428611448654" lon="8.19337500161048" id="-23867">
		<tag k="name" v="Dyblane" />
		<tag k="natural" v="water" />
		<tag k="ssr:stedsnr" v="894394" />
		<tag k="water" v="pond" />
	</node>
	<node lat="58.40737221852769" lon="8.111874998850992" id="-23868">
		<tag k="name" v="Sageneset" />
		<tag k="natural" v="cape" />
		<tag k="ssr:stedsnr" v="894480" />
	</node>
	<node lat="58.39880000067271" lon="8.12579444395099" id="-23872">
		<tag k="name" v="Breddefoldtjønn" />
		<tag k="natural" v="water" />
		<tag k="ssr:stedsnr" v="894488" />
	</node>
	<node lat="58.37390278178989" lon="8.152758340105745" id="-23873">
		<tag k="name" v="Ongeenarholmen" />
		<tag k="place" v="islet" />
		<tag k="ssr:stedsnr" v="894399" />
	</node>
	<node lat="58.43218055389398" lon="8.104405553909253" id="-23875">
		<tag k="name" v="Lille Lognøy" />
		<tag k="place" v="island" />
		<tag k="ssr:stedsnr" v="894635" />
	</node>
	<node lat="58.41777777917699" lon="8.168430561071736" id="-23876">
		<tag k="name" v="Sundet" />
		<tag k="natural" v="strait" />
		<tag k="ssr:stedsnr" v="894515" />
	</node>
	<node lat="58.31681944562149" lon="8.069125005822192" id="-23883">
		<tag k="name" v="Gunnarstjønn" />
		<tag k="natural" v="water" />
		<tag k="ssr:stedsnr" v="894736" />
	</node>
	<node lat="58.36519722556706" lon="8.071047218026282" id="-23887">
		<tag k="name" v="Granetjønn" />
		<tag k="natural" v="water" />
		<tag k="ssr:stedsnr" v="894705" />
	</node>
	<node lat="58.50471944517779" lon="8.202247217902258" id="-23894">
		<tag k="name" v="Finslandstjønn" />
		<tag k="natural" v="water" />
		<tag k="ssr:stedsnr" v="894941" />
	</node>
	<node lat="58.53487778096975" lon="8.270313891453444" id="-23898">
		<tag k="name" v="Stekilen" />
		<tag k="natural" v="bay" />
		<tag k="ssr:stedsnr" v="894901" />
	</node>
	<node lat="58.529049997713685" lon="8.270675003562307" id="-23899">
		<tag k="name" v="Dramdreistjønn" />
		<tag k="natural" v="water" />
		<tag k="ssr:stedsnr" v="894902" />
	</node>
	<node lat="58.447466664542766" lon="8.35087221699806" id="-23907">
		<tag k="name" v="Bøykeneset" />
		<tag k="place" v="islet" />
		<tag k="ssr:stedsnr" v="700083" />
	</node>
	<node lat="58.46343055362105" lon="8.353444451665146" id="-23914">
		<tag k="name" v="Torvlona" />
		<tag k="natural" v="water" />
		<tag k="ssr:stedsnr" v="700164" />
		<tag k="water" v="lake" />
	</node>
	<node lat="58.45533055172942" lon="8.188975007218428" id="-23941">
		<tag k="name" v="Hestetjønn" />
		<tag k="natural" v="water" />
		<tag k="ssr:stedsnr" v="710830" />
	</node>
	<node lat="58.44656666801219" lon="8.20616666960202" id="-23951">
		<tag k="name" v="Luetjønn" />
		<tag k="natural" v="water" />
		<tag k="ssr:stedsnr" v="711234" />
	</node>
	<node lat="58.45114722197214" lon="8.235155551477206" id="-23953">
		<tag k="name" v="Kråkenesa" />
		<tag k="natural" v="cape" />
		<tag k="ssr:stedsnr" v="711281" />
	</node>
	<node lat="58.43694444633584" lon="8.249941665173417" id="-23955">
		<tag k="name" v="Risbutjønn" />
		<tag k="natural" v="water" />
		<tag k="ssr:stedsnr" v="711291" />
	</node>
	<node lat="58.39316111120089" lon="8.116227774781294" id="-23959">
		<tag k="name" v="Kroktjønn" />
		<tag k="natural" v="water" />
		<tag k="ssr:stedsnr" v="711425" />
	</node>
	<node lat="58.42129722591701" lon="8.201830558135246" id="-23962">
		<tag k="name" v="Dåpstjønn" />
		<tag k="natural" v="water" />
		<tag k="ssr:stedsnr" v="711306" />
	</node>
	<node lat="58.33084444871408" lon="8.147583338886085" id="-23963">
		<tag k="name" v="Øygardsfossen" />
		<tag k="natural" v="waterfall" />
		<tag k="ssr:stedsnr" v="711310" />
	</node>
	<node lat="58.447405558980954" lon="8.104336102820374" id="-23967">
		<tag k="name" v="Mørketjønn" />
		<tag k="natural" v="water" />
		<tag k="ssr:stedsnr" v="711526" />
	</node>
	<node lat="58.28551666862991" lon="8.070291671652638" id="-23969">
		<tag k="name" v="Orremyrtjønn" />
		<tag k="natural" v="water" />
		<tag k="ssr:stedsnr" v="711532" />
	</node>
	<node lat="58.403876865368346" lon="8.187372415901553" id="-23972">
		<tag k="name" v="Øvre Tjønntveittjønn" />
		<tag k="natural" v="water" />
		<tag k="ssr:stedsnr" v="711490" />
	</node>
	<node lat="58.49122500277568" lon="8.251408334256382" id="-23976">
		<tag k="name" v="Tempeltjønn" />
		<tag k="natural" v="water" />
		<tag k="ssr:stedsnr" v="711804" />
	</node>
	<node lat="58.49080000214291" lon="8.224336111891265" id="-23980">
		<tag k="name" v="Stemtjønn" />
		<tag k="natural" v="water" />
		<tag k="ssr:stedsnr" v="711795" />
	</node>
	<node lat="58.51315000170479" lon="8.26154999712623" id="-23981">
		<tag k="name" v="Urdalstjønn" />
		<tag k="natural" v="water" />
		<tag k="ssr:stedsnr" v="711926" />
	</node>
	<node lat="58.46053333498842" lon="8.163658325327832" id="-23985">
		<tag k="name" v="Grunnetjønn" />
		<tag k="natural" v="water" />
		<tag k="ssr:stedsnr" v="712625" />
	</node>
	<node lat="58.55211110705612" lon="8.00309444116477" id="-24001">
		<tag k="name" v="Lille Elgtjønn" />
		<tag k="natural" v="water" />
		<tag k="ssr:stedsnr" v="717305" />
	</node>
	<node lat="58.54717499960202" lon="8.02147222117021" id="-24013">
		<tag k="name" v="Langetjønn" />
		<tag k="natural" v="water" />
		<tag k="ssr:stedsnr" v="899285" />
	</node>
	<node lat="58.54604721919478" lon="8.084836117110667" id="-24016">
		<tag k="name" v="Klappekilen" />
		<tag k="natural" v="bay" />
		<tag k="ssr:stedsnr" v="899346" />
	</node>
	<node lat="58.4774611129996" lon="8.15148610554706" id="-24034">
		<tag k="name" v="Sandbakkane" />
		<tag k="natural" v="cape" />
		<tag k="ssr:stedsnr" v="900849" />
	</node>
	<node lat="58.40929999943966" lon="8.326211116894646" id="-24038">
		<tag k="name" v="Røyrtjønn" />
		<tag k="natural" v="water" />
		<tag k="ssr:stedsnr" v="728406" />
	</node>
	<node lat="58.4071305570002" lon="8.318430563148834" id="-24039">
		<tag k="name" v="Lomstjønn" />
		<tag k="natural" v="water" />
		<tag k="ssr:stedsnr" v="728407" />
	</node>
	<node lat="58.46467499767327" lon="8.173127776100696" id="-24043">
		<tag k="name" v="Svartetjønn" />
		<tag k="natural" v="water" />
		<tag k="ssr:stedsnr" v="728471" />
	</node>
	<node lat="58.2760888868" lon="8.240902783637262" id="-24045">
		<tag k="name" v="Fjellskårvannet" />
		<tag k="natural" v="water" />
		<tag k="ssr:stedsnr" v="728706" />
	</node>
	<node lat="58.50813611465665" lon="8.32625832572156" id="-24047">
		<tag k="alt_name" v="Ormetjørn" />
		<tag k="name" v="Ormetjønn" />
		<tag k="natural" v="water" />
		<tag k="ssr:stedsnr" v="729010" />
	</node>
	<node lat="58.259119440445836" lon="8.231030558430923" id="-24051">
		<tag k="name" v="Søylepytten" />
		<tag k="natural" v="water" />
		<tag k="ssr:stedsnr" v="756313" />
		<tag k="water" v="pond" />
	</node>
	<node lat="58.28114166461048" lon="8.253611115195735" id="-24052">
		<tag k="name" v="Pærekilen" />
		<tag k="natural" v="water" />
		<tag k="ssr:stedsnr" v="756295" />
	</node>
	<node lat="58.434525003470284" lon="8.284438890908074" id="-24055">
		<tag k="name" v="Hundepyttane" />
		<tag k="natural" v="water" />
		<tag k="ssr:stedsnr" v="760095" />
		<tag k="water" v="pond" />
	</node>
	<node lat="58.46531388449359" lon="8.29460555113782" id="-24059">
		<tag k="name" v="Raunedalstjønn" />
		<tag k="natural" v="water" />
		<tag k="old_name" v="Raunedaldtjønn" />
		<tag k="ssr:stedsnr" v="760112" />
	</node>
	<node lat="58.496055551497605" lon="8.279222228045432" id="-24063">
		<tag k="name" v="Kroktjønn" />
		<tag k="natural" v="water" />
		<tag k="ssr:stedsnr" v="760155" />
	</node>
	<node lat="58.357577778169286" lon="8.330108328792964" id="-24067">
		<tag k="name" v="Tibertjenn" />
		<tag k="natural" v="water" />
		<tag k="ssr:stedsnr" v="760751" />
	</node>
	<node lat="58.309102780991005" lon="8.21289999912879" id="-24075">
		<tag k="name" v="Mollestadtjønn" />
		<tag k="natural" v="water" />
		<tag k="ssr:stedsnr" v="760992" />
	</node>
	<node lat="58.54381666773151" lon="8.360252770266216" id="-24078">
		<tag k="name" v="Rostjennodden" />
		<tag k="natural" v="cape" />
		<tag k="ssr:stedsnr" v="761353" />
	</node>
	<node lat="58.49640555373954" lon="8.371744439850358" id="-24080">
		<tag k="name" v="Djuptjenn" />
		<tag k="natural" v="water" />
		<tag k="ssr:stedsnr" v="761257" />
	</node>
	<node lat="58.525766667614405" lon="8.334808330458152" id="-24081">
		<tag k="name" v="Holmen" />
		<tag k="place" v="islet" />
		<tag k="ssr:stedsnr" v="761292" />
	</node>
	<node lat="58.56178611258296" lon="8.41381944780961" id="-24085">
		<tag k="name" v="Bråtanfoss" />
		<tag k="natural" v="waterfall" />
		<tag k="ssr:stedsnr" v="761417" />
	</node>
	<node lat="58.34886111264298" lon="8.31081667358985" id="-24088">
		<tag k="name" v="Trommekilen" />
		<tag k="place" v="locality" />
		<tag k="ssr:stedsnr" v="761917" />
	</node>
	<node lat="58.37987500039825" lon="8.174069439762766" id="-24092">
		<tag k="name" v="Mosfjelltjønn" />
		<tag k="natural" v="water" />
		<tag k="ssr:stedsnr" v="771435" />
	</node>
	<node lat="58.542902775873465" lon="8.303650004872482" id="-24095">
		<tag k="name" v="Butangen" />
		<tag k="natural" v="cape" />
		<tag k="ssr:stedsnr" v="772017" />
	</node>
	<node lat="58.42823888472025" lon="8.197138890578342" id="-24098">
		<tag k="name" v="Lauvtjønn" />
		<tag k="natural" v="water" />
		<tag k="ssr:stedsnr" v="772327" />
	</node>
	<node lat="58.42091666862448" lon="8.13680555990143" id="-24101">
		<tag k="name" v="Joreidtjønn" />
		<tag k="natural" v="water" />
		<tag k="ssr:stedsnr" v="772503" />
	</node>
	<node lat="58.50667778063019" lon="8.196677776927132" id="-24106">
		<tag k="name" v="Kringletjønn" />
		<tag k="natural" v="water" />
		<tag k="ssr:stedsnr" v="772526" />
	</node>
	<node lat="58.389213888842605" lon="8.121608331959418" id="-24111">
		<tag k="name" v="Fjellmannstjønn" />
		<tag k="natural" v="water" />
		<tag k="ssr:stedsnr" v="772428" />
	</node>
	<node lat="58.41650833323256" lon="8.150302769599865" id="-24117">
		<tag k="name" v="Joreiddalstjønn" />
		<tag k="natural" v="water" />
		<tag k="ssr:stedsnr" v="772473" />
	</node>
	<node lat="58.36087778007997" lon="8.085297219180928" id="-24121">
		<tag k="name" v="Svartetjønn" />
		<tag k="natural" v="water" />
		<tag k="ssr:stedsnr" v="772670" />
	</node>
	<node lat="58.48602777826185" lon="8.194888889251478" id="-24123">
		<tag k="name" v="Reinvasstjønn" />
		<tag k="natural" v="water" />
		<tag k="ssr:stedsnr" v="772808" />
	</node>
	<node lat="58.34021944593295" lon="8.092355553688279" id="-24129">
		<tag k="name" v="Hoskollstjønn" />
		<tag k="natural" v="water" />
		<tag k="ssr:stedsnr" v="772758" />
	</node>
	<node lat="58.37977777342172" lon="8.105783326915917" id="-24132">
		<tag k="name" v="Odderdalsøya" />
		<tag k="place" v="islet" />
		<tag k="ssr:stedsnr" v="772909" />
	</node>
	<node lat="58.5552583323908" lon="8.06687499426047" id="-24139">
		<tag k="name" v="Rakketjønn" />
		<tag k="natural" v="water" />
		<tag k="ssr:stedsnr" v="777307" />
	</node>
	<node lat="58.60223611016368" lon="8.177838887112568" id="-24145">
		<tag k="name" v="Storemyrtjønn" />
		<tag k="natural" v="water" />
		<tag k="ssr:stedsnr" v="777701" />
	</node>
	<node lat="58.49998889018203" lon="8.04870277218573" id="-24147">
		<tag k="name" v="Holetjønn" />
		<tag k="natural" v="water" />
		<tag k="ssr:stedsnr" v="778037" />
	</node>
	<node lat="58.53685277897311" lon="8.154108334101647" id="-24150">
		<tag k="name" v="Beinnesholmen" />
		<tag k="natural" v="cape" />
		<tag k="ssr:stedsnr" v="778162" />
	</node>
	<node lat="58.464748182736564" lon="8.393912191581649" id="-24157">
		<tag k="name" v="Tretjønn" />
		<tag k="natural" v="water" />
		<tag k="ssr:stedsnr" v="909959" />
	</node>
	<node lat="58.31611111203412" lon="8.26631666144625" id="-24162">
		<tag k="name" v="Fiskås tjønner" />
		<tag k="natural" v="water" />
		<tag k="ssr:stedsnr" v="910281" />
	</node>
	<node lat="58.4205749977212" lon="8.187049991827637" id="-24165">
		<tag k="alt_name" v="Lonane" />
		<tag k="name" v="Trolldalsloner" />
		<tag k="natural" v="water" />
		<tag k="ssr:stedsnr" v="910391" />
	</node>
	<node lat="58.466977780442235" lon="8.209002778236187" id="-24167">
		<tag k="name" v="Kroktjønn" />
		<tag k="natural" v="water" />
		<tag k="ssr:stedsnr" v="910466" />
	</node>
	<node lat="58.480936107348974" lon="8.384675004048885" id="-24168">
		<tag k="fixme" v="multiple name tags, choose one and add the other to alt_name" />
		<tag k="name" v="Sandtjenn;Sandvanna" />
		<tag k="natural" v="water" />
		<tag k="ssr:stedsnr" v="910474" />
	</node>
	<node lat="58.587761110588744" lon="8.390099993696772" id="-24173">
		<tag k="alt_name" v="Smørtjenn" />
		<tag k="name" v="Smørtjørn" />
		<tag k="natural" v="water" />
		<tag k="ssr:stedsnr" v="911190" />
	</node>
	<node lat="58.56181388823651" lon="8.225258334384286" id="-24180">
		<tag k="alt_name" v="Kålholmen" />
		<tag k="name" v="Kolholmen" />
		<tag k="place" v="islet" />
		<tag k="ssr:stedsnr" v="911145" />
	</node>
	<node lat="58.4130611077423" lon="8.186733329863936" id="-24183">
		<tag k="name" v="Breietjønn" />
		<tag k="natural" v="water" />
		<tag k="ssr:stedsnr" v="788410" />
	</node>
	<node lat="58.54902500067243" lon="8.361094439881393" id="-24189">
		<tag k="name" v="Gauslåfjorden" />
		<tag k="natural" v="water" />
		<tag k="ssr:stedsnr" v="911250" />
		<tag k="water" v="lake" />
	</node>
	<node lat="58.51979444257542" lon="8.376186114150482" id="-24194">
		<tag k="alt_name" v="Landstveittjenna" />
		<tag k="name" v="Landstveittjørna" />
		<tag k="natural" v="water" />
		<tag k="ssr:stedsnr" v="789027" />
	</node>
	<node lat="58.43776666993746" lon="8.149286103155324" id="-24195">
		<tag k="name" v="Vindvannsvannet" />
		<tag k="natural" v="water" />
		<tag k="ssr:stedsnr" v="911399" />
	</node>
	<node lat="58.30351110909469" lon="8.27036111899112" id="-24196">
		<tag k="name" v="Moelva" />
		<tag k="ssr:stedsnr" v="789319" />
		<tag k="waterway" v="river" />
	</node>
	<node lat="58.30274722259539" lon="8.280305556516485" id="-24197">
		<tag k="alt_name" v="Vestre Fjellvann" />
		<tag k="name" v="Vestre Fjellvannet" />
		<tag k="natural" v="water" />
		<tag k="ssr:stedsnr" v="789320" />
	</node>
	<node lat="58.70888055324976" lon="8.339391662115245" id="-24200">
		<tag k="alt_name" v="Tovdalsåni;Tovdalsvassdraget;Topdalselva;Tovdalselva" />
		<tag k="name" v="Tovdalsåna" />
		<tag k="ssr:stedsnr" v="911490" />
		<tag k="waterway" v="river" />
	</node>
	<node lat="58.398516664014814" lon="8.321916659838816" id="-24201">
		<tag k="name" v="Langvannet" />
		<tag k="natural" v="water" />
		<tag k="ssr:stedsnr" v="789429" />
		<tag k="water" v="lake" />
	</node>
	<node lat="58.54386944224903" lon="8.226613883895483" id="-24203">
		<tag k="alt_name" v="Langetjørn" />
		<tag k="name" v="Langetjønn" />
		<tag k="natural" v="water" />
		<tag k="ssr:stedsnr" v="790207" />
	</node>
	<node lat="58.536802774648876" lon="8.175775001398074" id="-24204">
		<tag k="alt_name" v="Mjåvatnet" />
		<tag k="name" v="Mjåvatn" />
		<tag k="natural" v="water" />
		<tag k="ssr:stedsnr" v="790214" />
	</node>
	<node lat="58.543563885369835" lon="8.115013883438065" id="-24205">
		<tag k="name" v="Kloppekilen" />
		<tag k="natural" v="bay" />
		<tag k="ssr:stedsnr" v="790217" />
	</node>
	<node lat="58.591909851730556" lon="8.367510911396105" id="-24206">
		<tag k="alt_name" v="Stitjønnane" />
		<tag k="name" v="Stitjørnane" />
		<tag k="natural" v="water" />
		<tag k="ssr:stedsnr" v="790149" />
		<tag k="water" v="lake" />
	</node>
	<node lat="58.58736944486315" lon="8.420433325714704" id="-24207">
		<tag k="alt_name" v="Tvitjennane" />
		<tag k="name" v="Tvitjørnane" />
		<tag k="natural" v="water" />
		<tag k="ssr:stedsnr" v="790151" />
		<tag k="water" v="lake" />
	</node>
	<node lat="58.53028888720558" lon="8.201749999704635" id="-24208">
		<tag k="alt_name" v="Lauvtjørn" />
		<tag k="name" v="Lauvtjønn" />
		<tag k="natural" v="water" />
		<tag k="ssr:stedsnr" v="790161" />
	</node>
	<node lat="58.61410555837297" lon="8.152588894183625" id="-24213">
		<tag k="name" v="Fjelltjørnane" />
		<tag k="natural" v="water" />
		<tag k="ssr:stedsnr" v="790348" />
		<tag k="water" v="lake" />
	</node>
	<node lat="58.39671944184301" lon="8.180636114270051" id="-24214">
		<tag k="name" v="Hullelona" />
		<tag k="natural" v="water" />
		<tag k="ssr:stedsnr" v="915453" />
		<tag k="water" v="lake" />
	</node>
	<node lat="58.335697225455775" lon="8.321822226518675" id="-24217">
		<tag k="name" v="Svarttjønn" />
		<tag k="natural" v="water" />
		<tag k="ssr:stedsnr" v="816716" />
	</node>
	<node lat="58.384230554859876" lon="8.31878332851676" id="-24229">
		<tag k="name" v="Stores - oddene" />
		<tag k="natural" v="cape" />
		<tag k="ssr:stedsnr" v="821010" />
	</node>
	<node lat="58.270786111119016" lon="8.193008330830315" id="-24239">
		<tag k="name" v="Storestetjønn" />
		<tag k="natural" v="water" />
		<tag k="ssr:stedsnr" v="821490" />
	</node>
	<node lat="58.57282500141949" lon="8.409411116243668" id="-24251">
		<tag k="name" v="Langetjenn" />
		<tag k="natural" v="water" />
		<tag k="ssr:stedsnr" v="822365" />
	</node>
	<node lat="58.56795555704598" lon="8.402041663536952" id="-24252">
		<tag k="name" v="Nedre Kjellingtjenn" />
		<tag k="natural" v="water" />
		<tag k="ssr:stedsnr" v="822369" />
	</node>
	<node lat="58.39364721789975" lon="8.22815555556782" id="-24258">
		<tag k="name" v="Nedre Stemtjønn" />
		<tag k="natural" v="water" />
		<tag k="ssr:stedsnr" v="822807" />
	</node>
	<node lat="58.52662096593315" lon="8.277432508767859" id="-24261">
		<tag k="name" v="Snipetjønnene" />
		<tag k="natural" v="water" />
		<tag k="ssr:stedsnr" v="833040" />
		<tag k="water" v="lake" />
	</node>
	<node lat="58.30995833450704" lon="8.136347228683634" id="-24265">
		<tag k="name" v="Stemtjønn" />
		<tag k="natural" v="water" />
		<tag k="ssr:stedsnr" v="833282" />
	</node>
	<node lat="58.34001110694511" lon="8.15790276940803" id="-24269">
		<tag k="name" v="Svartetjønn" />
		<tag k="natural" v="water" />
		<tag k="ssr:stedsnr" v="833302" />
	</node>
	<node lat="58.43551666924873" lon="8.133261115451461" id="-24270">
		<tag k="name" v="Skålåna" />
		<tag k="ssr:stedsnr" v="833429" />
		<tag k="waterway" v="river" />
	</node>
	<node lat="58.359661115407434" lon="8.218177778526707" id="-24272">
		<tag k="name" v="Sandbekklona" />
		<tag k="natural" v="water" />
		<tag k="ssr:stedsnr" v="833433" />
		<tag k="water" v="lake" />
	</node>
	<node lat="58.382311110148486" lon="8.114138892141245" id="-24277">
		<tag k="name" v="Smalefosslona" />
		<tag k="natural" v="water" />
		<tag k="ssr:stedsnr" v="833380" />
		<tag k="water" v="lake" />
	</node>
	<node lat="58.34708888741106" lon="8.126775007324328" id="-24278">
		<tag k="name" v="Vesterkilen" />
		<tag k="natural" v="bay" />
		<tag k="ssr:stedsnr" v="833386" />
	</node>
	<node lat="58.3874138879996" lon="8.21325833934678" id="-24279">
		<tag k="name" v="Kroktjønn" />
		<tag k="natural" v="water" />
		<tag k="ssr:stedsnr" v="833393" />
	</node>
	<node lat="58.48317221980322" lon="8.243263895521196" id="-24281">
		<tag k="name" v="Bjortjønn" />
		<tag k="natural" v="water" />
		<tag k="ssr:stedsnr" v="833528" />
	</node>
	<node lat="58.29582500299732" lon="8.060427785891763" id="-24283">
		<tag k="name" v="Øvre Stemtjønn" />
		<tag k="natural" v="water" />
		<tag k="ssr:stedsnr" v="833711" />
	</node>
	<node lat="58.42837777606707" lon="8.226952777688382" id="-24285">
		<tag k="name" v="Bjortjønn" />
		<tag k="natural" v="water" />
		<tag k="ssr:stedsnr" v="833479" />
	</node>
	<node lat="58.45410555635331" lon="8.245986109953511" id="-24288">
		<tag k="name" v="Lona" />
		<tag k="natural" v="water" />
		<tag k="ssr:stedsnr" v="833845" />
		<tag k="water" v="lake" />
	</node>
	<node lat="58.534238889575725" lon="8.104338885237205" id="-24302">
		<tag k="name" v="Stemmen" />
		<tag k="ssr:stedsnr" v="839228" />
		<tag k="waterway" v="dam" />
	</node>
	<node lat="58.47745555200899" lon="8.077766670053418" id="-24304">
		<tag k="name" v="Stemvassbekken" />
		<tag k="ssr:stedsnr" v="839808" />
		<tag k="waterway" v="stream" />
	</node>
	<node lat="58.48699721835088" lon="8.107461119202187" id="-24307">
		<tag k="name" v="Hommebekken" />
		<tag k="ssr:stedsnr" v="839907" />
		<tag k="waterway" v="stream" />
	</node>
	<node lat="58.47297500370968" lon="8.402900003074487" id="-24312">
		<tag k="alt_name" v="Krokvann" />
		<tag k="name" v="Krokvannet" />
		<tag k="natural" v="water" />
		<tag k="ssr:stedsnr" v="849509" />
	</node>
	<node lat="58.518583213493834" lon="8.187623203580905" id="-24315">
		<tag k="alt_name" v="Styggetjørn" />
		<tag k="name" v="Styggetjønn" />
		<tag k="natural" v="water" />
		<tag k="ssr:stedsnr" v="850029" />
	</node>
	<node lat="58.52495278157666" lon="8.249219439173707" id="-24316">
		<tag k="alt_name" v="Svarttjørn" />
		<tag k="name" v="Svartetjønn" />
		<tag k="natural" v="water" />
		<tag k="ssr:stedsnr" v="850035" />
	</node>
	<node lat="58.53059444325993" lon="8.254177783332787" id="-24318">
		<tag k="name" v="Bøylefossen" />
		<tag k="natural" v="waterfall" />
		<tag k="ssr:stedsnr" v="850198" />
	</node>
	<node lat="58.29120277824959" lon="8.106658330619268" id="-24322">
		<tag k="name" v="Ljosevannet" />
		<tag k="natural" v="water" />
		<tag k="ssr:stedsnr" v="850288" />
	</node>
	<node lat="58.44113888518124" lon="8.208677771505265" id="-24323">
		<tag k="name" v="Heggelitjønna" />
		<tag k="natural" v="water" />
		<tag k="ssr:stedsnr" v="850407" />
	</node>
	<node lat="58.504997218643275" lon="7.994602779604715" id="-24324">
		<tag k="name" v="Fidjelandsbekken" />
		<tag k="ssr:stedsnr" v="850416" />
		<tag k="waterway" v="stream" />
	</node>
	<node lat="58.40788611229955" lon="8.23743610873371" id="-24326">
		<tag k="name" v="Ramsetjønn" />
		<tag k="natural" v="water" />
		<tag k="ssr:stedsnr" v="850429" />
	</node>
	<node lat="58.47463611472813" lon="8.14816945283181" id="-24327">
		<tag k="name" v="Lølandsfjorden" />
		<tag k="natural" v="water" />
		<tag k="ssr:stedsnr" v="850477" />
	</node>
	<node lat="58.47783889211976" lon="8.124572217552844" id="-24328">
		<tag k="name" v="Murtetjønn" />
		<tag k="natural" v="water" />
		<tag k="ssr:stedsnr" v="850480" />
	</node>
	<node lat="58.569638891395236" lon="8.436352782876645" id="-24331">
		<tag k="alt_name" v="Bjortjenn" />
		<tag k="name" v="Bjortjørn" />
		<tag k="natural" v="water" />
		<tag k="ssr:stedsnr" v="851138" />
	</node>
	<node lat="58.55293611261607" lon="8.372949998723465" id="-24333">
		<tag k="name" v="Ljosåna" />
		<tag k="ssr:stedsnr" v="851220" />
		<tag k="waterway" v="stream" />
	</node>
	<node lat="58.52573610679915" lon="8.268611115830952" id="-24335">
		<tag k="name" v="Bjortjønn" />
		<tag k="natural" v="water" />
		<tag k="ssr:stedsnr" v="855889" />
	</node>
	<node lat="58.42145555296962" lon="8.160058336066372" id="-24336">
		<tag k="alt_name" v="Øvre Hellerslivatn" />
		<tag k="name" v="Øvre Hellerslivann" />
		<tag k="natural" v="water" />
		<tag k="ssr:stedsnr" v="869907" />
		<tag k="water" v="lake" />
	</node>
	<node lat="58.33642499612892" lon="8.357694438577303" id="-24340">
		<tag k="name" v="Kanallona" />
		<tag k="natural" v="water" />
		<tag k="ssr:stedsnr" v="877502" />
		<tag k="water" v="lake" />
	</node>
	<node lat="58.30820833469636" lon="8.26484166293353" id="-24341">
		<tag k="name" v="Gongetjønn" />
		<tag k="natural" v="water" />
		<tag k="ssr:stedsnr" v="877760" />
	</node>
	<node lat="58.44480555232522" lon="8.337861110845786" id="-24352">
		<tag k="name" v="Storebutangen" />
		<tag k="natural" v="cape" />
		<tag k="ssr:stedsnr" v="882053" />
	</node>
	<node lat="58.46293055887548" lon="8.325999996943022" id="-24359">
		<tag k="name" v="Moldevika" />
		<tag k="natural" v="bay" />
		<tag k="ssr:stedsnr" v="882116" />
	</node>
	<node lat="58.4962583324774" lon="8.334769446391777" id="-24360">
		<tag k="name" v="Galteryggen" />
		<tag k="natural" v="cape" />
		<tag k="ssr:stedsnr" v="882157" />
	</node>
	<node lat="58.3596138932195" lon="8.306813897054349" id="-24372">
		<tag k="name" v="Einerbarbekken" />
		<tag k="ssr:stedsnr" v="882669" />
		<tag k="waterway" v="stream" />
	</node>
	<node lat="58.412802776312795" lon="8.094638889381484" id="-24382">
		<tag k="name" v="Grøttesund" />
		<tag k="natural" v="strait" />
		<tag k="ssr:stedsnr" v="893603" />
	</node>
	<node lat="58.40913333343238" lon="8.096449996973261" id="-24383">
		<tag k="name" v="Hellersøya" />
		<tag k="place" v="island" />
		<tag k="ssr:stedsnr" v="893606" />
	</node>
	<node lat="58.41274999992868" lon="8.103724998424203" id="-24384">
		<tag k="name" v="Blindesund" />
		<tag k="natural" v="strait" />
		<tag k="ssr:stedsnr" v="893607" />
	</node>
	<node lat="58.545727778065306" lon="8.300930558158349" id="-24392">
		<tag k="name" v="Surtetjønn" />
		<tag k="natural" v="bay" />
		<tag k="ssr:stedsnr" v="894010" />
	</node>
	<node lat="58.348994442074606" lon="8.137077783775698" id="-24400">
		<tag k="name" v="Lomstjønn" />
		<tag k="natural" v="water" />
		<tag k="ssr:stedsnr" v="894425" />
	</node>
	<node lat="58.45887777541054" lon="8.09129166371345" id="-24408">
		<tag k="name" v="Stemtjønn" />
		<tag k="natural" v="water" />
		<tag k="ssr:stedsnr" v="894667" />
	</node>
	<node lat="58.36548333471271" lon="8.084644443259734" id="-24412">
		<tag k="name" v="Sirekilen" />
		<tag k="natural" v="bay" />
		<tag k="ssr:stedsnr" v="894691" />
	</node>
	<node lat="58.36668055868182" lon="8.140452781209571" id="-24415">
		<tag k="name" v="Langetjønn" />
		<tag k="natural" v="water" />
		<tag k="ssr:stedsnr" v="894913" />
	</node>
	<node lat="58.54514166942437" lon="8.10577777390653" id="-24426">
		<tag k="name" v="Brubergøya" />
		<tag k="place" v="islet" />
		<tag k="ssr:stedsnr" v="899367" />
	</node>
	<node lat="58.61851111333272" lon="8.151944448259027" id="-24428">
		<tag k="name" v="Bjønnhitjønn" />
		<tag k="natural" v="water" />
		<tag k="ssr:stedsnr" v="899655" />
	</node>
	<node lat="58.376033336305994" lon="8.080308335107734" id="-24439">
		<tag k="name" v="Ærskilen" />
		<tag k="natural" v="bay" />
		<tag k="ssr:stedsnr" v="910175" />
	</node>
	<node lat="58.38037777379054" lon="8.143399998279513" id="-24441">
		<tag k="name" v="Djupedalsvannet" />
		<tag k="natural" v="water" />
		<tag k="ssr:stedsnr" v="910321" />
	</node>
	<node lat="58.4504194435667" lon="8.09468611558507" id="-24444">
		<tag k="name" v="Mårvannet" />
		<tag k="natural" v="water" />
		<tag k="ssr:stedsnr" v="910507" />
	</node>
	<node lat="58.46897778053266" lon="8.372880549591265" id="-24445">
		<tag k="alt_name" v="Stietjenn" />
		<tag k="name" v="Stitjenn" />
		<tag k="natural" v="water" />
		<tag k="ssr:stedsnr" v="910486" />
	</node>
	<node lat="58.50747222009323" lon="8.28983333402273" id="-24446">
		<tag k="alt_name" v="Bjellandsvann" />
		<tag k="name" v="Bjellandsvatnet" />
		<tag k="natural" v="water" />
		<tag k="ssr:stedsnr" v="911018" />
		<tag k="water" v="lake" />
	</node>
	<node lat="58.52423055734985" lon="8.281899993612413" id="-24448">
		<tag k="alt_name" v="Hestetjørn" />
		<tag k="name" v="Øvre Haretjønn" />
		<tag k="natural" v="water" />
		<tag k="ssr:stedsnr" v="911052" />
	</node>
	<node lat="58.51656666677372" lon="8.2578305504183" id="-24451">
		<tag k="alt_name" v="Påslåttjørna, store" />
		<tag k="name" v="Lille Porsslått-tjønn" />
		<tag k="natural" v="water" />
		<tag k="ssr:stedsnr" v="911063" />
	</node>
	<node lat="58.35952500391585" lon="8.22875555175307" id="-24454">
		<tag k="name" v="Høgkleivvannet" />
		<tag k="natural" v="water" />
		<tag k="ssr:stedsnr" v="911360" />
	</node>
	<node lat="58.32628888942029" lon="8.27189999716551" id="-24460">
		<tag k="name" v="Bjorkilen" />
		<tag k="natural" v="bay" />
		<tag k="ssr:stedsnr" v="938338" />
	</node>
	<node lat="58.28218611013302" lon="8.25698889646273" id="-24461">
		<tag k="name" v="Slåttetjønn" />
		<tag k="natural" v="water" />
		<tag k="ssr:stedsnr" v="938287" />
	</node>
	<node lat="58.45163610766164" lon="8.202697214892494" id="-24465">
		<tag k="name" v="Sjølskottjønn" />
		<tag k="natural" v="water" />
		<tag k="ssr:stedsnr" v="953240" />
	</node>
	<node lat="58.399788887768885" lon="8.164438886367583" id="-24482">
		<tag k="name" v="Ormetjønn" />
		<tag k="natural" v="water" />
		<tag k="ssr:stedsnr" v="954442" />
	</node>
	<node lat="58.28441944159262" lon="8.084655555519015" id="-24492">
		<tag k="name" v="Gruetjønn" />
		<tag k="natural" v="water" />
		<tag k="ssr:stedsnr" v="954544" />
	</node>
	<node lat="58.344927773521405" lon="8.060930553657245" id="-24495">
		<tag k="name" v="Hengefoss" />
		<tag k="natural" v="waterfall" />
		<tag k="ssr:stedsnr" v="954758" />
	</node>
	<node lat="58.48213888892017" lon="8.184005550609106" id="-24497">
		<tag k="name" v="Libekken" />
		<tag k="ssr:stedsnr" v="954798" />
		<tag k="waterway" v="stream" />
	</node>
	<node lat="58.613491669841004" lon="8.142016664309947" id="-24504">
		<tag k="name" v="Svartetjønn" />
		<tag k="natural" v="water" />
		<tag k="ssr:stedsnr" v="959621" />
	</node>
	<node lat="58.33502941559253" lon="8.066787409339302" id="-24531">
		<tag k="alt_name" v="Kroktjørna" />
		<tag k="name" v="Kroktjønn" />
		<tag k="natural" v="water" />
		<tag k="ssr:stedsnr" v="126" />
	</node>
	<node lat="58.339700000831876" lon="8.338366658786072" id="-24534">
		<tag k="name" v="Stigselva" />
		<tag k="ssr:stedsnr" v="278" />
		<tag k="waterway" v="river" />
	</node>
	<node lat="58.30976944526791" lon="8.284277779676533" id="-24536">
		<tag k="alt_name" v="Fjellvannet, øvre" />
		<tag k="fixme" v="multiple name tags, choose one and add the other to alt_name" />
		<tag k="name" v="Østre Fjellvann;Øvre Fjellvannet" />
		<tag k="natural" v="water" />
		<tag k="ssr:stedsnr" v="291" />
	</node>
	<node lat="58.42937222054488" lon="8.231161104659112" id="-24538">
		<tag k="name" v="Krokevann" />
		<tag k="natural" v="water" />
		<tag k="ssr:stedsnr" v="381" />
	</node>
	<node lat="58.4449702474532" lon="8.368795815639329" id="-24539">
		<tag k="name" v="Heievanna" />
		<tag k="natural" v="water" />
		<tag k="ssr:stedsnr" v="391" />
	</node>
	<node lat="58.53202222190368" lon="8.33217221808804" id="-24543">
		<tag k="name" v="Hanefossen" />
		<tag k="natural" v="waterfall" />
		<tag k="ssr:stedsnr" v="216" />
	</node>
	<node lat="58.55816389035946" lon="8.412766661913691" id="-24545">
		<tag k="alt_name" v="Ringstøltjenn" />
		<tag k="name" v="Ringstøltjørn" />
		<tag k="natural" v="water" />
		<tag k="ssr:stedsnr" v="230" />
	</node>
	<node lat="58.53355555383219" lon="7.982661115241016" id="-24551">
		<tag k="alt_name" v="Vassvatnet" />
		<tag k="name" v="Vassvatn" />
		<tag k="natural" v="water" />
		<tag k="ssr:stedsnr" v="671" />
		<tag k="water" v="lake" />
	</node>
	<node lat="58.559680555509885" lon="8.142058327921028" id="-24555">
		<tag k="name" v="Brynhildbekken" />
		<tag k="ssr:stedsnr" v="1168" />
		<tag k="waterway" v="stream" />
	</node>
	<node lat="58.53696110683603" lon="8.179377770007962" id="-24556">
		<tag k="alt_name" v="Svarttjørn" />
		<tag k="name" v="Svartetjønn" />
		<tag k="natural" v="water" />
		<tag k="ssr:stedsnr" v="1259" />
	</node>
	<node lat="58.32992499948707" lon="8.200838894638133" id="-24563">
		<tag k="name" v="Flakkestranda" />
		<tag k="natural" v="beach" />
		<tag k="ssr:stedsnr" v="28371" />
	</node>
	<node lat="58.334369445398714" lon="8.180308330639622" id="-24567">
		<tag k="name" v="Orretjønn" />
		<tag k="natural" v="water" />
		<tag k="ssr:stedsnr" v="28391" />
	</node>
	<node lat="58.475286107744445" lon="8.363305557203478" id="-24578">
		<tag k="name" v="Kvenntjenn" />
		<tag k="natural" v="water" />
		<tag k="ssr:stedsnr" v="32162" />
	</node>
	<node lat="58.47784166718207" lon="8.381680556567494" id="-24579">
		<tag k="name" v="Tybergtjenn" />
		<tag k="natural" v="water" />
		<tag k="ssr:stedsnr" v="32181" />
	</node>
	<node lat="58.443630555941425" lon="8.345561104554262" id="-24585">
		<tag k="name" v="Øya" />
		<tag k="place" v="island" />
		<tag k="ssr:stedsnr" v="32056" />
	</node>
	<node lat="58.46064245024695" lon="8.347294086772148" id="-24586">
		<tag k="name" v="Lona" />
		<tag k="natural" v="water" />
		<tag k="ssr:stedsnr" v="32118" />
	</node>
	<node lat="58.493761107023886" lon="8.280338880680372" id="-24587">
		<tag k="name" v="Lille Svartetjønn" />
		<tag k="natural" v="water" />
		<tag k="ssr:stedsnr" v="32125" />
	</node>
	<node lat="58.49615555797859" lon="8.29498055075926" id="-24588">
		<tag k="name" v="Tvitjønnane" />
		<tag k="natural" v="water" />
		<tag k="ssr:stedsnr" v="32139" />
		<tag k="water" v="lake" />
	</node>
	<node lat="58.5320138923659" lon="8.349169449829693" id="-24596">
		<tag k="name" v="Ulvhildsøya" />
		<tag k="place" v="island" />
		<tag k="ssr:stedsnr" v="32197" />
	</node>
	<node lat="58.538211113793224" lon="8.358041662399058" id="-24597">
		<tag k="name" v="Leirkil" />
		<tag k="natural" v="bay" />
		<tag k="ssr:stedsnr" v="32200" />
	</node>
	<node lat="58.30803055467956" lon="8.18260555190028" id="-24598">
		<tag k="name" v="Holmen" />
		<tag k="place" v="islet" />
		<tag k="ssr:stedsnr" v="32470" />
	</node>
	<node lat="58.296452774090525" lon="8.159258341673219" id="-24610">
		<tag k="name" v="Heietjønn" />
		<tag k="natural" v="water" />
		<tag k="ssr:stedsnr" v="32992" />
	</node>
	<node lat="58.27632627830543" lon="8.114165079685922" id="-24612">
		<tag k="name" v="Følsvannet" />
		<tag k="natural" v="water" />
		<tag k="ssr:stedsnr" v="32956" />
		<tag k="water" v="lake" />
	</node>
	<node lat="58.43872500002721" lon="8.112622225800507" id="-24622">
		<tag k="name" v="Neset" />
		<tag k="natural" v="cape" />
		<tag k="ssr:stedsnr" v="44521" />
	</node>
	<node lat="58.51388055165455" lon="8.197497218537245" id="-24627">
		<tag k="name" v="Havrefittjønn" />
		<tag k="natural" v="water" />
		<tag k="ssr:stedsnr" v="43964" />
	</node>
	<node lat="58.5210305517542" lon="8.276913896682318" id="-24631">
		<tag k="name" v="Hestetjønn" />
		<tag k="natural" v="water" />
		<tag k="ssr:stedsnr" v="44040" />
	</node>
	<node lat="58.34851111118261" lon="8.207216661272211" id="-24633">
		<tag k="name" v="Slåttetjønn" />
		<tag k="natural" v="water" />
		<tag k="ssr:stedsnr" v="44400" />
	</node>
	<node lat="58.42623888646512" lon="8.255819436535774" id="-24635">
		<tag k="name" v="Sjuerstjønn" />
		<tag k="natural" v="water" />
		<tag k="ssr:stedsnr" v="44608" />
	</node>
	<node lat="58.39920277921312" lon="8.107750003734932" id="-24636">
		<tag k="name" v="Sagedalsbukta" />
		<tag k="natural" v="bay" />
		<tag k="ssr:stedsnr" v="44619" />
	</node>
	<node lat="58.441230559693246" lon="8.238194437922298" id="-24642">
		<tag k="name" v="Skjeroddane" />
		<tag k="natural" v="cape" />
		<tag k="ssr:stedsnr" v="44282" />
	</node>
	<node lat="58.3134305551068" lon="8.130386113823716" id="-24643">
		<tag k="name" v="Torjustjønn" />
		<tag k="natural" v="water" />
		<tag k="ssr:stedsnr" v="44284" />
	</node>
	<node lat="58.41737222023866" lon="8.176783325221981" id="-24652">
		<tag k="name" v="Kvennhølen" />
		<tag k="place" v="locality" />
		<tag k="ssr:stedsnr" v="44466" />
	</node>
	<node lat="58.46937500241436" lon="8.139544446565347" id="-24659">
		<tag k="name" v="Nesane" />
		<tag k="natural" v="cape" />
		<tag k="ssr:stedsnr" v="44659" />
	</node>
	<node lat="58.53691944835051" lon="7.99948333602633" id="-24672">
		<tag k="name" v="Hellertjønn" />
		<tag k="natural" v="water" />
		<tag k="ssr:stedsnr" v="49033" />
	</node>
	<node lat="58.540644442532" lon="8.105936118318958" id="-24678">
		<tag k="name" v="Langenesodden" />
		<tag k="natural" v="cape" />
		<tag k="ssr:stedsnr" v="49405" />
	</node>
	<node lat="58.60167777824444" lon="8.119050007136112" id="-24687">
		<tag k="name" v="Fårlitjønn" />
		<tag k="natural" v="water" />
		<tag k="ssr:stedsnr" v="49442" />
	</node>
	<node lat="58.553230551426566" lon="8.234691670735803" id="-24707">
		<tag k="name" v="Bukkefjorden" />
		<tag k="natural" v="water" />
		<tag k="ssr:stedsnr" v="61221" />
		<tag k="water" v="lake" />
	</node>
	<node lat="58.28600000154684" lon="8.23209722891326" id="-24709">
		<tag k="name" v="Fiskelausvannet" />
		<tag k="natural" v="water" />
		<tag k="ssr:stedsnr" v="61293" />
	</node>
	<node lat="58.38543889204096" lon="8.282216663456552" id="-24710">
		<tag k="name" v="Stemtjønn" />
		<tag k="natural" v="water" />
		<tag k="ssr:stedsnr" v="61310" />
	</node>
	<node lat="58.46857500385013" lon="8.26125555647572" id="-24714">
		<tag k="name" v="Håndbekktjønn" />
		<tag k="natural" v="water" />
		<tag k="ssr:stedsnr" v="60447" />
	</node>
	<node lat="58.340855552305094" lon="8.078713883099276" id="-24715">
		<tag k="name" v="Åletjønn" />
		<tag k="natural" v="water" />
		<tag k="ssr:stedsnr" v="61065" />
	</node>
	<node lat="58.58577222375829" lon="8.210966664271668" id="-24716">
		<tag k="name" v="Kolstraumfjorden" />
		<tag k="natural" v="water" />
		<tag k="ssr:stedsnr" v="61159" />
		<tag k="water" v="lake" />
	</node>
	<node lat="58.55167778045827" lon="8.31084443826159" id="-24718">
		<tag k="alt_name" v="Raundalstjørna" />
		<tag k="name" v="Raundalstjønna" />
		<tag k="natural" v="water" />
		<tag k="ssr:stedsnr" v="61235" />
	</node>
	<node lat="58.32141666271013" lon="8.127580551368965" id="-24719">
		<tag k="name" v="Fisketjønn" />
		<tag k="natural" v="water" />
		<tag k="ssr:stedsnr" v="61246" />
	</node>
	<node lat="58.32234444497005" lon="8.222513886858726" id="-24720">
		<tag k="name" v="Berse" />
		<tag k="natural" v="water" />
		<tag k="ssr:stedsnr" v="61257" />
		<tag k="water" v="lake" />
	</node>
	<node lat="58.35809999642273" lon="8.200027786207254" id="-24724">
		<tag k="alt_name" v="Bønstjørn" />
		<tag k="name" v="Bønstjønn" />
		<tag k="natural" v="water" />
		<tag k="ssr:stedsnr" v="61340" />
	</node>
	<node lat="58.49207500260968" lon="8.288927770771824" id="-24726">
		<tag k="name" v="Grunnevann" />
		<tag k="natural" v="water" />
		<tag k="ssr:stedsnr" v="61431" />
	</node>
	<node lat="58.48194444301161" lon="8.197361116412393" id="-24728">
		<tag k="alt_name" v="Vestølbekken" />
		<tag k="name" v="Sandvabekken" />
		<tag k="ssr:stedsnr" v="61454" />
		<tag k="waterway" v="stream" />
	</node>
	<node lat="58.571336111796256" lon="8.112183334104534" id="-24730">
		<tag k="alt_name" v="Kroktjørn" />
		<tag k="name" v="Kroktjønn" />
		<tag k="natural" v="water" />
		<tag k="ssr:stedsnr" v="62127" />
	</node>
	<node lat="58.60936111122303" lon="8.141511115680737" id="-24731">
		<tag k="alt_name" v="Håbekktjørn" />
		<tag k="name" v="Håbekktjønn" />
		<tag k="natural" v="water" />
		<tag k="ssr:stedsnr" v="62353" />
	</node>
	<node lat="58.328713890594784" lon="8.258686112987453" id="-24740">
		<tag k="name" v="Rundetjønn" />
		<tag k="natural" v="water" />
		<tag k="ssr:stedsnr" v="89358" />
	</node>
	<node lat="58.438675000140485" lon="8.306491663017963" id="-24753">
		<tag k="name" v="Sundtjønn" />
		<tag k="natural" v="water" />
		<tag k="ssr:stedsnr" v="93071" />
	</node>
	<node lat="58.447208331690895" lon="8.341947228563203" id="-24755">
		<tag k="name" v="Lillebutangen" />
		<tag k="place" v="islet" />
		<tag k="ssr:stedsnr" v="93053" />
	</node>
	<node lat="58.47626388980197" lon="8.295255559029142" id="-24761">
		<tag k="name" v="Storetjønn" />
		<tag k="natural" v="water" />
		<tag k="ssr:stedsnr" v="93146" />
	</node>
	<node lat="58.4760777735196" lon="8.286275000141863" id="-24762">
		<tag k="name" v="Stemtjønn" />
		<tag k="natural" v="water" />
		<tag k="ssr:stedsnr" v="93149" />
	</node>
	<node lat="58.50789721867444" lon="8.289472223611623" id="-24767">
		<tag k="name" v="Mittinga" />
		<tag k="place" v="islet" />
		<tag k="ssr:stedsnr" v="93190" />
	</node>
	<node lat="58.26080833472408" lon="8.20541111199516" id="-24791">
		<tag k="name" v="Harelostjønn" />
		<tag k="natural" v="water" />
		<tag k="ssr:stedsnr" v="93936" />
	</node>
	<node lat="58.33760555995484" lon="8.138624993815997" id="-24799">
		<tag k="name" v="Davidstjønn" />
		<tag k="natural" v="water" />
		<tag k="ssr:stedsnr" v="105332" />
	</node>
	<node lat="58.42764444244345" lon="8.10800277332102" id="-24803">
		<tag k="name" v="Saueneset" />
		<tag k="natural" v="cape" />
		<tag k="ssr:stedsnr" v="104601" />
	</node>
	<node lat="58.404930557719915" lon="8.108130547167805" id="-24822">
		<tag k="name" v="Lilleøya" />
		<tag k="natural" v="cape" />
		<tag k="ssr:stedsnr" v="105626" />
	</node>
	<node lat="58.315988888983355" lon="8.135263882698938" id="-24824">
		<tag k="name" v="Hoppreistjønn" />
		<tag k="natural" v="water" />
		<tag k="ssr:stedsnr" v="105265" />
	</node>
	<node lat="58.427863884991005" lon="8.122961107987049" id="-24827">
		<tag k="name" v="Tvitjønn" />
		<tag k="natural" v="water" />
		<tag k="ssr:stedsnr" v="105441" />
	</node>
	<node lat="58.47376110922358" lon="8.156238892914512" id="-24835">
		<tag k="name" v="Gjertrudsmyrnesane" />
		<tag k="natural" v="cape" />
		<tag k="ssr:stedsnr" v="105657" />
	</node>
	<node lat="58.61223611097283" lon="8.13741389703486" id="-24853">
		<tag k="name" v="Dåsetjønn" />
		<tag k="natural" v="water" />
		<tag k="ssr:stedsnr" v="110745" />
	</node>
	<node lat="58.535225003581196" lon="8.00628333555078" id="-24854">
		<tag k="name" v="Tjørrgrovtjønn" />
		<tag k="natural" v="water" />
		<tag k="ssr:stedsnr" v="110751" />
	</node>
	<node lat="58.63232778095097" lon="8.178088891602211" id="-24856">
		<tag k="name" v="Nystølfjorden" />
		<tag k="natural" v="water" />
		<tag k="ssr:stedsnr" v="110761" />
		<tag k="water" v="lake" />
	</node>
	<node lat="58.54428610865015" lon="8.184727779733919" id="-24860">
		<tag k="name" v="Sveivehølen" />
		<tag k="place" v="locality" />
		<tag k="ssr:stedsnr" v="110508" />
	</node>
	<node lat="58.551052775806454" lon="8.095597213859401" id="-24862">
		<tag k="name" v="Bommekiløya" />
		<tag k="place" v="islet" />
		<tag k="ssr:stedsnr" v="110347" />
	</node>
	<node lat="58.541344444807955" lon="8.093188893604244" id="-24864">
		<tag k="name" v="Drivvikkilen" />
		<tag k="natural" v="bay" />
		<tag k="ssr:stedsnr" v="110366" />
	</node>
	<node lat="58.62053055747329" lon="8.115633332058762" id="-24868">
		<tag k="name" v="Føravasskilen" />
		<tag k="natural" v="bay" />
		<tag k="ssr:stedsnr" v="110667" />
	</node>
	<node lat="58.335122223753736" lon="8.122136118233678" id="-24896">
		<tag k="name" v="Krokvannet" />
		<tag k="natural" v="water" />
		<tag k="ssr:stedsnr" v="121260" />
	</node>
	<node lat="58.49667499728935" lon="8.376283338800455" id="-24899">
		<tag k="alt_name" v="Store Ljostjenn" />
		<tag k="name" v="Ljostjørn" />
		<tag k="natural" v="water" />
		<tag k="ssr:stedsnr" v="121432" />
	</node>
	<node lat="58.46874166896411" lon="8.115019451556885" id="-24900">
		<tag k="name" v="Skrerosåna" />
		<tag k="ssr:stedsnr" v="121438" />
		<tag k="waterway" v="stream" />
	</node>
	<node lat="58.46804444854476" lon="8.401808325532015" id="-24901">
		<tag k="name" v="Storevannet" />
		<tag k="natural" v="water" />
		<tag k="ssr:stedsnr" v="121473" />
	</node>
	<node lat="58.451188886690666" lon="8.37710556249024" id="-24903">
		<tag k="name" v="Bjortjenn" />
		<tag k="natural" v="water" />
		<tag k="ssr:stedsnr" v="121484" />
	</node>
	<node lat="58.52624721958358" lon="8.24262221937078" id="-24908">
		<tag k="alt_name" v="Fidjeevja" />
		<tag k="name" v="Fidjeia" />
		<tag k="natural" v="bay" />
		<tag k="ssr:stedsnr" v="122042" />
	</node>
	<node lat="58.52375000133829" lon="8.240019440643131" id="-24909">
		<tag k="fixme" v="multiple name tags, choose one and add the other to alt_name" />
		<tag k="name" v="Breidungen;Fidjefjorden" />
		<tag k="natural" v="bay" />
		<tag k="ssr:stedsnr" v="122043" />
	</node>
	<node lat="58.514588888782406" lon="8.238002782217782" id="-24911">
		<tag k="alt_name" v="Fidjetjørn" />
		<tag k="name" v="Fidjetjønn" />
		<tag k="natural" v="water" />
		<tag k="ssr:stedsnr" v="122057" />
	</node>
	<node lat="58.547197222723284" lon="8.378019441650311" id="-24913">
		<tag k="alt_name" v="Paddetjenn" />
		<tag k="name" v="Poddetjørn" />
		<tag k="natural" v="water" />
		<tag k="ssr:stedsnr" v="122241" />
	</node>
	<node lat="58.5397305600782" lon="8.225430562310006" id="-24914">
		<tag k="alt_name" v="Fleketjørn" />
		<tag k="name" v="Fleketjønn" />
		<tag k="natural" v="water" />
		<tag k="ssr:stedsnr" v="122256" />
	</node>
	<node lat="58.53895555601532" lon="8.155122229948493" id="-24915">
		<tag k="alt_name" v="Djupekilen" />
		<tag k="name" v="Djupekil" />
		<tag k="natural" v="bay" />
		<tag k="ssr:stedsnr" v="122261" />
	</node>
	<node lat="58.62198993450202" lon="8.183669301253344" id="-24917">
		<tag k="alt_name" v="Beresundet" />
		<tag k="name" v="Beresund" />
		<tag k="natural" v="strait" />
		<tag k="ssr:stedsnr" v="122364" />
	</node>
	<node lat="58.51891388917457" lon="7.960986116531157" id="-24918">
		<tag k="alt_name" v="Fisketjørna" />
		<tag k="name" v="Fisketjønna" />
		<tag k="natural" v="water" />
		<tag k="ssr:stedsnr" v="122427" />
	</node>
	<node lat="58.54642777367211" lon="7.985072218970795" id="-24923">
		<tag k="alt_name" v="Breidlonane" />
		<tag k="name" v="Breilon" />
		<tag k="natural" v="water" />
		<tag k="ssr:stedsnr" v="122659" />
	</node>
	<node lat="58.30303610721054" lon="8.225136107346394" id="-24924">
		<tag k="name" v="Lille Berse" />
		<tag k="natural" v="water" />
		<tag k="ssr:stedsnr" v="147029" />
	</node>
	<node lat="58.33716944769789" lon="8.348663886400042" id="-24925">
		<tag k="name" v="Stigslelona" />
		<tag k="natural" v="water" />
		<tag k="ssr:stedsnr" v="148462" />
		<tag k="water" v="lake" />
	</node>
	<node lat="58.30879444806067" lon="8.279694436464169" id="-24927">
		<tag k="name" v="Fjellvannslona" />
		<tag k="natural" v="water" />
		<tag k="ssr:stedsnr" v="148497" />
	</node>
	<node lat="58.26524444350565" lon="8.24277499215246" id="-24929">
		<tag k="name" v="Digetjønn" />
		<tag k="natural" v="water" />
		<tag k="ssr:stedsnr" v="149239" />
	</node>
	<node lat="58.27387222357277" lon="8.11211944609762" id="-24931">
		<tag k="name" v="Løgntjønn" />
		<tag k="natural" v="water" />
		<tag k="ssr:stedsnr" v="149307" />
	</node>
	<node lat="58.27078333395246" lon="8.246019448722391" id="-24934">
		<tag k="name" v="Halvorstjønn" />
		<tag k="natural" v="water" />
		<tag k="ssr:stedsnr" v="149316" />
	</node>
	<node lat="58.432363884473425" lon="8.104805561063099" id="-24944">
		<tag k="name" v="Lille Lognøya" />
		<tag k="place" v="island" />
		<tag k="ssr:stedsnr" v="151450" />
	</node>
	<node lat="58.31328611332289" lon="8.1880555571676" id="-24947">
		<tag k="name" v="Kalvestrømmen" />
		<tag k="ssr:stedsnr" v="153985" />
		<tag k="waterway" v="rapids" />
	</node>
	<node lat="58.38241944311357" lon="8.303875002936179" id="-24951">
		<tag k="name" v="Trommekilen" />
		<tag k="natural" v="bay" />
		<tag k="ssr:stedsnr" v="154015" />
	</node>
	<node lat="58.43496943999712" lon="8.306374999536434" id="-24961">
		<tag k="name" v="Jernes" />
		<tag k="natural" v="cape" />
		<tag k="ssr:stedsnr" v="154117" />
	</node>
	<node lat="58.44705278046479" lon="8.368372222070384" id="-24966">
		<tag k="name" v="Lille Heievannstjenn" />
		<tag k="natural" v="water" />
		<tag k="ssr:stedsnr" v="154084" />
	</node>
	<node lat="58.524416663825214" lon="8.348858332697196" id="-24976">
		<tag k="name" v="Kjørkekilen" />
		<tag k="natural" v="bay" />
		<tag k="ssr:stedsnr" v="154356" />
	</node>
	<node lat="58.4998555568842" lon="8.281586109999429" id="-24977">
		<tag k="name" v="Barlindtjenn" />
		<tag k="natural" v="water" />
		<tag k="ssr:stedsnr" v="154358" />
	</node>
	<node lat="58.499247223654656" lon="8.285975000423546" id="-24978">
		<tag k="name" v="Stemtjenn" />
		<tag k="natural" v="water" />
		<tag k="ssr:stedsnr" v="154360" />
	</node>
	<node lat="58.55050832992038" lon="8.352791659071544" id="-24994">
		<tag k="name" v="Kyrstjønnsbekken" />
		<tag k="ssr:stedsnr" v="154870" />
		<tag k="waterway" v="stream" />
	</node>
	<node lat="58.38782500432697" lon="8.247755558886702" id="-24999">
		<tag k="name" v="Lona" />
		<tag k="natural" v="water" />
		<tag k="ssr:stedsnr" v="154814" />
		<tag k="water" v="lake" />
	</node>
	<node lat="58.393444443467374" lon="8.274005555000087" id="-25004">
		<tag k="name" v="Laksefoss" />
		<tag k="natural" v="waterfall" />
		<tag k="ssr:stedsnr" v="154829" />
	</node>
	<node lat="58.562699995681285" lon="8.22336666022676" id="-25008">
		<tag k="name" v="Skripelandsfjorden" />
		<tag k="natural" v="water" />
		<tag k="ssr:stedsnr" v="158116" />
		<tag k="water" v="lake" />
	</node>
	<node lat="58.543761109187194" lon="8.312783339568922" id="-25011">
		<tag k="name" v="Retterstølfossen" />
		<tag k="natural" v="strait" />
		<tag k="ssr:stedsnr" v="165008" />
	</node>
	<node lat="58.46135555132917" lon="8.220036113027" id="-25019">
		<tag k="name" v="Ramselitjønn" />
		<tag k="natural" v="water" />
		<tag k="ssr:stedsnr" v="164856" />
	</node>
	<node lat="58.41391388540755" lon="8.192458339665633" id="-25024">
		<tag k="name" v="Hulltjønn" />
		<tag k="natural" v="water" />
		<tag k="ssr:stedsnr" v="165296" />
	</node>
	<node lat="58.412644445040925" lon="8.138747219886737" id="-25027">
		<tag k="name" v="Bjelketjønn" />
		<tag k="natural" v="water" />
		<tag k="ssr:stedsnr" v="165601" />
	</node>
	<node lat="58.37188333290952" lon="8.065569448369224" id="-25036">
		<tag k="name" v="Granedalstjønn" />
		<tag k="natural" v="water" />
		<tag k="ssr:stedsnr" v="165539" />
	</node>
	<node lat="58.443641669055566" lon="8.1197944422355" id="-25037">
		<tag k="name" v="Sundet" />
		<tag k="natural" v="strait" />
		<tag k="ssr:stedsnr" v="165545" />
	</node>
	<node lat="58.4630777753184" lon="8.086355562649095" id="-25040">
		<tag k="name" v="Mosetjønn" />
		<tag k="natural" v="water" />
		<tag k="ssr:stedsnr" v="165631" />
	</node>
	<node lat="58.502711114804875" lon="8.17507222476257" id="-25050">
		<tag k="name" v="Fisketjønn" />
		<tag k="natural" v="water" />
		<tag k="ssr:stedsnr" v="165948" />
	</node>
	<node lat="58.46503611519528" lon="8.142830555942705" id="-25051">
		<tag k="name" v="Vernesane" />
		<tag k="natural" v="cape" />
		<tag k="ssr:stedsnr" v="165653" />
	</node>
	<node lat="58.57494444252218" lon="8.202288893187562" id="-25064">
		<tag k="name" v="Skartjønn" />
		<tag k="natural" v="water" />
		<tag k="ssr:stedsnr" v="170684" />
	</node>
	<node lat="58.570666663403145" lon="8.170930555795039" id="-25066">
		<tag k="name" v="Lilletjønn" />
		<tag k="natural" v="water" />
		<tag k="ssr:stedsnr" v="170688" />
	</node>
	<node lat="58.5778194485356" lon="8.19758056078641" id="-25068">
		<tag k="name" v="Langemyrtjønnane" />
		<tag k="natural" v="water" />
		<tag k="ssr:stedsnr" v="170698" />
		<tag k="water" v="lake" />
	</node>
	<node lat="58.6141666710832" lon="8.152455552701587" id="-25069">
		<tag k="name" v="Austre Fjelltjønn" />
		<tag k="natural" v="water" />
		<tag k="ssr:stedsnr" v="170644" />
	</node>
	<node lat="58.60732222141647" lon="8.132149997462175" id="-25070">
		<tag k="name" v="Lille Kroktjønn" />
		<tag k="natural" v="water" />
		<tag k="ssr:stedsnr" v="170735" />
	</node>
	<node lat="58.61484167013037" lon="8.129736104937582" id="-25071">
		<tag k="name" v="Haltekktjønn" />
		<tag k="natural" v="water" />
		<tag k="ssr:stedsnr" v="170741" />
	</node>
	<node lat="58.53786389094913" lon="8.106455553043185" id="-25085">
		<tag k="name" v="Lonane" />
		<tag k="natural" v="water" />
		<tag k="ssr:stedsnr" v="171197" />
		<tag k="water" v="lake" />
	</node>
	<node lat="58.5187083344437" lon="8.038997223934208" id="-25087">
		<tag k="name" v="Nesane" />
		<tag k="natural" v="cape" />
		<tag k="ssr:stedsnr" v="171730" />
	</node>
	<node lat="58.475850002491384" lon="8.153741665957757" id="-25092">
		<tag k="name" v="Nesane" />
		<tag k="natural" v="cape" />
		<tag k="ssr:stedsnr" v="171852" />
	</node>
	<node lat="58.47748333696305" lon="8.153455547256685" id="-25093">
		<tag k="name" v="Lølandskil" />
		<tag k="natural" v="bay" />
		<tag k="ssr:stedsnr" v="171853" />
	</node>
	<node lat="58.5590083322798" lon="8.227230547909482" id="-25098">
		<tag k="name" v="Likholmen" />
		<tag k="place" v="islet" />
		<tag k="ssr:stedsnr" v="175141" />
	</node>
	<node lat="58.5609472247083" lon="8.363200000620884" id="-25104">
		<tag k="name" v="Andekilen" />
		<tag k="natural" v="bay" />
		<tag k="ssr:stedsnr" v="182212" />
	</node>
	<node lat="58.558630555369845" lon="8.377277784369014" id="-25105">
		<tag k="alt_name" v="Sundtjenn" />
		<tag k="name" v="Sundtjørn" />
		<tag k="natural" v="water" />
		<tag k="ssr:stedsnr" v="182214" />
	</node>
	<node lat="58.332341664793006" lon="8.193844438033858" id="-25109">
		<tag k="name" v="Åltjønn" />
		<tag k="natural" v="water" />
		<tag k="ssr:stedsnr" v="182242" />
	</node>
	<node lat="58.48751666505451" lon="8.189838896736301" id="-25110">
		<tag k="name" v="Rettåna" />
		<tag k="ssr:stedsnr" v="182037" />
		<tag k="waterway" v="river" />
	</node>
	<node lat="58.484547220235754" lon="8.080155554717814" id="-25112">
		<tag k="name" v="Stemvannet" />
		<tag k="natural" v="water" />
		<tag k="ssr:stedsnr" v="182188" />
	</node>
	<node lat="58.2977555561807" lon="8.09398889145585" id="-25117">
		<tag k="name" v="Movannet" />
		<tag k="natural" v="water" />
		<tag k="ssr:stedsnr" v="182280" />
	</node>
	<node lat="58.2488666697246" lon="8.200369447832296" id="-25119">
		<tag k="alt_name" v="Fisketjønn" />
		<tag k="name" v="Fisketjørn" />
		<tag k="natural" v="water" />
		<tag k="ssr:stedsnr" v="182347" />
	</node>
	<node lat="58.423127776957884" lon="8.243150005814293" id="-25121">
		<tag k="name" v="Kleppetjønn" />
		<tag k="natural" v="water" />
		<tag k="ssr:stedsnr" v="182391" />
	</node>
	<node lat="58.260880555492506" lon="8.250891661261761" id="-25122">
		<tag k="name" v="Viemyrtjønna" />
		<tag k="natural" v="water" />
		<tag k="ssr:stedsnr" v="182709" />
	</node>
	<node lat="58.54021666896525" lon="8.021538882728729" id="-25124">
		<tag k="name" v="Lislåna" />
		<tag k="ssr:stedsnr" v="182655" />
		<tag k="waterway" v="stream" />
	</node>
	<node lat="58.523738889227346" lon="7.973008332265791" id="-25126">
		<tag k="alt_name" v="Langetjørn" />
		<tag k="name" v="Langetjønn" />
		<tag k="natural" v="water" />
		<tag k="ssr:stedsnr" v="183390" />
	</node>
	<node lat="58.54448611395963" lon="8.30980833905459" id="-25129">
		<tag k="name" v="Uldalsåna" />
		<tag k="natural" v="water" />
		<tag k="ssr:stedsnr" v="183178" />
		<tag k="water" v="lake" />
	</node>
	<node lat="58.31938055419056" lon="8.239083332159115" id="-25134">
		<tag k="name" v="Lomholmen" />
		<tag k="place" v="islet" />
		<tag k="ssr:stedsnr" v="210362" />
	</node>
	<node lat="58.31104721869031" lon="8.291897224914873" id="-25139">
		<tag k="name" v="Flisebukta" />
		<tag k="natural" v="bay" />
		<tag k="ssr:stedsnr" v="210420" />
	</node>
	<node lat="58.30752777641181" lon="8.225002783032277" id="-25142">
		<tag k="name" v="Fådabben" />
		<tag k="natural" v="water" />
		<tag k="ssr:stedsnr" v="210764" />
		<tag k="water" v="pond" />
	</node>
	<node lat="58.45908055487293" lon="8.328583329312675" id="-25156">
		<tag k="name" v="Geitodden" />
		<tag k="natural" v="cape" />
		<tag k="ssr:stedsnr" v="215140" />
	</node>
	<node lat="58.494466666887966" lon="8.365908337302704" id="-25158">
		<tag k="name" v="Lille Blokktjenn" />
		<tag k="natural" v="water" />
		<tag k="ssr:stedsnr" v="215253" />
	</node>
	<node lat="58.55346111406162" lon="8.398163895935085" id="-25163">
		<tag k="name" v="Kvennetangen" />
		<tag k="natural" v="cape" />
		<tag k="ssr:stedsnr" v="215361" />
	</node>
	<node lat="58.261522221980165" lon="8.212763894575428" id="-25179">
		<tag k="name" v="Heimtjønn" />
		<tag k="natural" v="water" />
		<tag k="ssr:stedsnr" v="215963" />
	</node>
	<node lat="58.40117222282192" lon="8.232611113315935" id="-25182">
		<tag k="name" v="Blekkekjerrlona" />
		<tag k="natural" v="water" />
		<tag k="ssr:stedsnr" v="215811" />
		<tag k="water" v="lake" />
	</node>
	<node lat="58.55565833027146" lon="8.220925007603492" id="-25184">
		<tag k="name" v="Rekslønbekken" />
		<tag k="ssr:stedsnr" v="218066" />
		<tag k="waterway" v="stream" />
	</node>
	<node lat="58.47170555676751" lon="8.200688883036246" id="-25189">
		<tag k="name" v="Halvorstjønn" />
		<tag k="natural" v="water" />
		<tag k="ssr:stedsnr" v="225853" />
	</node>
	<node lat="58.5210138863619" lon="8.235591661909872" id="-25192">
		<tag k="name" v="Nedsteste" />
		<tag k="natural" v="cape" />
		<tag k="ssr:stedsnr" v="226092" />
	</node>
	<node lat="58.40061111423684" lon="8.09932500379204" id="-25193">
		<tag k="name" v="Småøyane" />
		<tag k="place" v="islet" />
		<tag k="ssr:stedsnr" v="226643" />
	</node>
	<node lat="58.35911944405202" lon="8.053591670867842" id="-25194">
		<tag k="name" v="Daletjønn" />
		<tag k="natural" v="water" />
		<tag k="ssr:stedsnr" v="226657" />
	</node>
	<node lat="58.45753610921231" lon="8.082225000601927" id="-25195">
		<tag k="name" v="Hovelitjønn" />
		<tag k="natural" v="water" />
		<tag k="ssr:stedsnr" v="226659" />
	</node>
	<node lat="58.457472226411916" lon="8.10922221644589" id="-25196">
		<tag k="name" v="Lille Ljosevatn" />
		<tag k="natural" v="water" />
		<tag k="ssr:stedsnr" v="226667" />
	</node>
	<node lat="58.35028886812033" lon="8.06044459119818" id="-25198">
		<tag k="name" v="Dybletjønn" />
		<tag k="natural" v="water" />
		<tag k="ssr:stedsnr" v="226672" />
	</node>
	<node lat="58.436617200436174" lon="8.225396825774721" id="-25202">
		<tag k="name" v="Daletjønn" />
		<tag k="natural" v="water" />
		<tag k="ssr:stedsnr" v="226279" />
	</node>
	<node lat="58.39140833460008" lon="8.162372219884965" id="-25207">
		<tag k="name" v="Litjønn" />
		<tag k="natural" v="water" />
		<tag k="ssr:stedsnr" v="226458" />
	</node>
	<node lat="58.35502500221961" lon="8.196986108138535" id="-25209">
		<tag k="name" v="Nåvartjønn" />
		<tag k="natural" v="water" />
		<tag k="ssr:stedsnr" v="226462" />
	</node>
	<node lat="58.41111944705419" lon="8.239522229277357" id="-25214">
		<tag k="name" v="Skarketjønn" />
		<tag k="natural" v="water" />
		<tag k="ssr:stedsnr" v="226537" />
	</node>
	<node lat="58.435861110638136" lon="8.143411117550182" id="-25216">
		<tag k="name" v="Vindvassbekken" />
		<tag k="ssr:stedsnr" v="226555" />
		<tag k="waterway" v="stream" />
	</node>
	<node lat="58.377472225439256" lon="8.182116674950413" id="-25221">
		<tag k="name" v="Trytetjønn" />
		<tag k="natural" v="water" />
		<tag k="ssr:stedsnr" v="226427" />
	</node>
	<node lat="58.3985583303065" lon="8.209713886777612" id="-25224">
		<tag k="alt_name" v="Øyvassvatnet" />
		<tag k="name" v="Øyvannsvannet" />
		<tag k="natural" v="water" />
		<tag k="ssr:stedsnr" v="226523" />
		<tag k="water" v="lake" />
	</node>
	<node lat="58.42139444811879" lon="8.1151722266769" id="-25226">
		<tag k="name" v="Hestesund" />
		<tag k="natural" v="strait" />
		<tag k="ssr:stedsnr" v="226629" />
	</node>
	<node lat="58.4922083291704" lon="8.247341671877368" id="-25232">
		<tag k="name" v="Stetstjønn" />
		<tag k="natural" v="water" />
		<tag k="ssr:stedsnr" v="226820" />
	</node>
	<node lat="58.450197219094996" lon="8.306230553823127" id="-25235">
		<tag k="name" v="Lomstjønn" />
		<tag k="natural" v="water" />
		<tag k="ssr:stedsnr" v="275094" />
	</node>
	<node lat="58.406186107982265" lon="8.314352777664753" id="-25239">
		<tag k="name" v="Lille Paddetjenn" />
		<tag k="natural" v="water" />
		<tag k="ssr:stedsnr" v="275055" />
	</node>
	<node lat="58.35639166534382" lon="8.317005553366068" id="-25252">
		<tag k="name" v="Geitemyrloner" />
		<tag k="natural" v="water" />
		<tag k="ssr:stedsnr" v="275734" />
		<tag k="water" v="lake" />
	</node>
	<node lat="58.3713138872129" lon="8.258216660355309" id="-25259">
		<tag k="name" v="Flårompa" />
		<tag k="natural" v="cape" />
		<tag k="ssr:stedsnr" v="275809" />
	</node>
	<node lat="58.36541389092872" lon="8.243438889802562" id="-25263">
		<tag k="name" v="Åletjønn" />
		<tag k="natural" v="water" />
		<tag k="ssr:stedsnr" v="275845" />
	</node>
	<node lat="58.47256111385738" lon="8.236658329146344" id="-25275">
		<tag k="name" v="Svoetjønn" />
		<tag k="natural" v="water" />
		<tag k="ssr:stedsnr" v="286858" />
	</node>
	<node lat="58.43734999936956" lon="8.173513889424548" id="-25280">
		<tag k="name" v="Dyblet" />
		<tag k="natural" v="water" />
		<tag k="ssr:stedsnr" v="287397" />
	</node>
	<node lat="58.39129999729108" lon="8.187866661264554" id="-25282">
		<tag k="name" v="Brynetjønn" />
		<tag k="natural" v="water" />
		<tag k="ssr:stedsnr" v="287519" />
	</node>
	<node lat="58.49461388898022" lon="8.211047221104225" id="-25284">
		<tag k="name" v="Lona" />
		<tag k="natural" v="water" />
		<tag k="ssr:stedsnr" v="287820" />
		<tag k="water" v="lake" />
	</node>
	<node lat="58.487888885582265" lon="8.197930555293476" id="-25285">
		<tag k="name" v="Midtre Øygardsmyr" />
		<tag k="natural" v="water" />
		<tag k="ssr:stedsnr" v="287823" />
	</node>
	<node lat="58.520024997781825" lon="8.277466674372493" id="-25286">
		<tag k="name" v="Bukketjønn" />
		<tag k="natural" v="water" />
		<tag k="ssr:stedsnr" v="287044" />
	</node>
	<node lat="58.32376944756637" lon="8.129747220151632" id="-25290">
		<tag k="name" v="Bukketjønn" />
		<tag k="natural" v="water" />
		<tag k="ssr:stedsnr" v="287257" />
	</node>
	<node lat="58.379094444210374" lon="8.149288890690773" id="-25294">
		<tag k="name" v="Butangen" />
		<tag k="place" v="islet" />
		<tag k="ssr:stedsnr" v="287374" />
	</node>
	<node lat="58.43059166421105" lon="8.112533337469017" id="-25295">
		<tag k="name" v="Tormodsbukt" />
		<tag k="natural" v="bay" />
		<tag k="ssr:stedsnr" v="287460" />
	</node>
	<node lat="58.40432500141342" lon="8.101944442810186" id="-25300">
		<tag k="name" v="Jorøya" />
		<tag k="place" v="island" />
		<tag k="ssr:stedsnr" v="287655" />
	</node>
	<node lat="58.34033611069447" lon="8.085080562082236" id="-25302">
		<tag k="name" v="Kromletjønn" />
		<tag k="natural" v="water" />
		<tag k="ssr:stedsnr" v="287769" />
	</node>
	<node lat="58.56012499558823" lon="8.016988882816298" id="-25318">
		<tag k="name" v="Langetjønn" />
		<tag k="natural" v="water" />
		<tag k="ssr:stedsnr" v="292241" />
	</node>
	<node lat="58.54941111411843" lon="8.083605559974595" id="-25320">
		<tag k="name" v="Lonerkilen" />
		<tag k="natural" v="bay" />
		<tag k="ssr:stedsnr" v="292318" />
	</node>
	<node lat="58.53589166274772" lon="8.015855559512605" id="-25333">
		<tag k="name" v="Orreleiktjønn" />
		<tag k="natural" v="water" />
		<tag k="ssr:stedsnr" v="292734" />
	</node>
	<node lat="58.51863889160807" lon="8.154280549413675" id="-25348">
		<tag k="name" v="Rakketjønn" />
		<tag k="natural" v="water" />
		<tag k="ssr:stedsnr" v="293156" />
	</node>
	<node lat="58.544241669132774" lon="7.9891499953768825" id="-25352">
		<tag k="name" v="Byttingsbekken" />
		<tag k="ssr:stedsnr" v="293657" />
		<tag k="waterway" v="stream" />
	</node>
	<node lat="58.49251389015932" lon="8.159872220500487" id="-25356">
		<tag k="name" v="Styggetjønn" />
		<tag k="natural" v="water" />
		<tag k="ssr:stedsnr" v="293839" />
	</node>
	<node lat="58.387305555484716" lon="8.201016668990713" id="-25364">
		<tag k="alt_name" v="Verevann;Vervatnet" />
		<tag k="name" v="Verevannet" />
		<tag k="natural" v="water" />
		<tag k="ssr:stedsnr" v="302351" />
	</node>
	<node lat="58.33365277935757" lon="8.244777778862622" id="-25368">
		<tag k="name" v="Haugevannet" />
		<tag k="natural" v="water" />
		<tag k="ssr:stedsnr" v="303250" />
		<tag k="water" v="lake" />
	</node>
	<node lat="58.255458334288264" lon="8.197208337296795" id="-25376">
		<tag k="name" v="Terebutjønn" />
		<tag k="natural" v="water" />
		<tag k="ssr:stedsnr" v="303701" />
	</node>
	<node lat="58.514569448027345" lon="8.144216660963838" id="-25377">
		<tag k="alt_name" v="Hanstjørn" />
		<tag k="name" v="Hansetjønn" />
		<tag k="natural" v="water" />
		<tag k="ssr:stedsnr" v="304044" />
	</node>
	<node lat="58.52313888868717" lon="8.336066665631877" id="-25378">
		<tag k="name" v="Nes" />
		<tag k="natural" v="cape" />
		<tag k="ssr:stedsnr" v="304051" />
	</node>
	<node lat="58.511847218548624" lon="8.267969437164252" id="-25379">
		<tag k="alt_name" v="Bjortjørn" />
		<tag k="name" v="Bjortjønn" />
		<tag k="natural" v="water" />
		<tag k="ssr:stedsnr" v="304056" />
	</node>
	<node lat="58.517252778159694" lon="8.236755547870237" id="-25380">
		<tag k="alt_name" v="Sagtjørn" />
		<tag k="name" v="Sagetjønn" />
		<tag k="natural" v="water" />
		<tag k="ssr:stedsnr" v="304058" />
	</node>
	<node lat="58.518000003635926" lon="8.221894440900765" id="-25381">
		<tag k="name" v="Åstjørn" />
		<tag k="natural" v="water" />
		<tag k="ssr:stedsnr" v="304138" />
	</node>
	<node lat="58.59119999598225" lon="8.17699167087849" id="-25382">
		<tag k="alt_name" v="Flatbekken" />
		<tag k="name" v="Flatåsbekken" />
		<tag k="ssr:stedsnr" v="304154" />
		<tag k="waterway" v="stream" />
	</node>
	<node lat="58.57728055854399" lon="8.358947222807751" id="-25383">
		<tag k="alt_name" v="Svarttjønn" />
		<tag k="name" v="Svarttjørn" />
		<tag k="natural" v="water" />
		<tag k="ssr:stedsnr" v="304119" />
	</node>
	<node lat="58.4831916658001" lon="8.243388896425884" id="-25388">
		<tag k="name" v="Bjortjønn" />
		<tag k="natural" v="water" />
		<tag k="ssr:stedsnr" v="304453" />
	</node>
	<node lat="58.34006666362663" lon="8.24926944934443" id="-25393">
		<tag k="name" v="Rundetjønn" />
		<tag k="natural" v="water" />
		<tag k="ssr:stedsnr" v="331374" />
	</node>
	<node lat="58.276794440299675" lon="8.26071667451212" id="-25399">
		<tag k="name" v="Svartetjønn" />
		<tag k="natural" v="water" />
		<tag k="ssr:stedsnr" v="331332" />
	</node>
	<node lat="58.34360833133061" lon="8.308038886624614" id="-25411">
		<tag k="name" v="Itjønn" />
		<tag k="natural" v="water" />
		<tag k="ssr:stedsnr" v="331675" />
	</node>
	<node lat="58.308272224793626" lon="8.268375002168714" id="-25412">
		<tag k="name" v="Slåttetjønn" />
		<tag k="natural" v="water" />
		<tag k="ssr:stedsnr" v="331738" />
	</node>
	<node lat="58.55913055488817" lon="8.362811110939065" id="-25415">
		<tag k="name" v="Rekevika" />
		<tag k="natural" v="bay" />
		<tag k="ssr:stedsnr" v="336288" />
	</node>
	<node lat="58.477213888147475" lon="8.283783325386628" id="-25421">
		<tag k="name" v="Fjelltjønn" />
		<tag k="natural" v="water" />
		<tag k="ssr:stedsnr" v="336178" />
	</node>
	<node lat="58.47964722512361" lon="8.304902776765768" id="-25427">
		<tag k="name" v="Skjertjønn" />
		<tag k="natural" v="water" />
		<tag k="ssr:stedsnr" v="336197" />
	</node>
	<node lat="58.479308335470186" lon="8.373808336135427" id="-25429">
		<tag k="name" v="Saudalstjenn" />
		<tag k="natural" v="water" />
		<tag k="ssr:stedsnr" v="336210" />
	</node>
	<node lat="58.53685833101757" lon="8.34900276988492" id="-25438">
		<tag k="name" v="Tolløy" />
		<tag k="place" v="islet" />
		<tag k="ssr:stedsnr" v="336245" />
	</node>
	<node lat="58.534255557869194" lon="8.372952781008841" id="-25441">
		<tag k="name" v="Lillemyrtjenn" />
		<tag k="natural" v="water" />
		<tag k="ssr:stedsnr" v="336313" />
	</node>
	<node lat="58.553825001499256" lon="8.407188894076118" id="-25443">
		<tag k="name" v="Stokketjenn" />
		<tag k="natural" v="water" />
		<tag k="ssr:stedsnr" v="336323" />
	</node>
	<node lat="58.48124444122246" lon="8.292836118973462" id="-25444">
		<tag k="name" v="Tønnelitjønn" />
		<tag k="natural" v="water" />
		<tag k="ssr:stedsnr" v="336182" />
	</node>
	<node lat="58.57945555238912" lon="8.435466670169818" id="-25445">
		<tag k="name" v="Sauetjenn" />
		<tag k="natural" v="water" />
		<tag k="ssr:stedsnr" v="336378" />
	</node>
	<node lat="58.450824999509194" lon="8.19585278214687" id="-25468">
		<tag k="name" v="Lille Bjortjønn" />
		<tag k="natural" v="water" />
		<tag k="ssr:stedsnr" v="346225" />
	</node>
	<node lat="58.43425541609655" lon="8.10328612803423" id="-25469">
		<tag k="name" v="Lognesfjorden" />
		<tag k="natural" v="water" />
		<tag k="ssr:stedsnr" v="346552" />
	</node>
	<node lat="58.36078889276752" lon="8.117124996470487" id="-25471">
		<tag k="name" v="Sankestemlona" />
		<tag k="natural" v="water" />
		<tag k="ssr:stedsnr" v="347344" />
		<tag k="water" v="lake" />
	</node>
	<node lat="58.389774998949" lon="8.111602778689086" id="-25472">
		<tag k="name" v="Dragetjønn" />
		<tag k="natural" v="water" />
		<tag k="ssr:stedsnr" v="347424" />
	</node>
	<node lat="58.40562499639238" lon="8.159219450013397" id="-25474">
		<tag k="name" v="Barvabekken" />
		<tag k="ssr:stedsnr" v="347440" />
		<tag k="waterway" v="stream" />
	</node>
	<node lat="58.407091671081574" lon="8.118977770110208" id="-25477">
		<tag k="name" v="Hagetjønn" />
		<tag k="natural" v="water" />
		<tag k="ssr:stedsnr" v="347447" />
	</node>
	<node lat="58.54774722140471" lon="8.30092500251605" id="-25485">
		<tag k="name" v="Lilletjønn" />
		<tag k="natural" v="bay" />
		<tag k="ssr:stedsnr" v="347140" />
	</node>
	<node lat="58.41437222582749" lon="8.115105561104873" id="-25502">
		<tag k="name" v="Smalsund" />
		<tag k="natural" v="strait" />
		<tag k="ssr:stedsnr" v="347590" />
	</node>
	<node lat="58.29793611224902" lon="8.064861110543726" id="-25505">
		<tag k="name" v="Torvtjønn" />
		<tag k="natural" v="water" />
		<tag k="ssr:stedsnr" v="347701" />
	</node>
	<node lat="58.488938890435776" lon="8.244541659609036" id="-25507">
		<tag k="name" v="Kattetjønn" />
		<tag k="natural" v="water" />
		<tag k="ssr:stedsnr" v="347789" />
	</node>
	<node lat="58.537391667048574" lon="8.237202785984293" id="-25510">
		<tag k="name" v="Uldalstjønn" />
		<tag k="natural" v="water" />
		<tag k="ssr:stedsnr" v="347934" />
	</node>
	<node lat="58.54240833516518" lon="8.087411109254187" id="-25522">
		<tag k="name" v="Selbekkilen" />
		<tag k="natural" v="bay" />
		<tag k="ssr:stedsnr" v="352338" />
	</node>
	<node lat="58.573330558996055" lon="8.203705562212816" id="-25525">
		<tag k="name" v="Skartjønn" />
		<tag k="natural" v="water" />
		<tag k="ssr:stedsnr" v="352674" />
	</node>
	<node lat="58.60516111507792" lon="8.13775555042971" id="-25528">
		<tag k="name" v="Sigbjørnstjønn" />
		<tag k="natural" v="water" />
		<tag k="ssr:stedsnr" v="352724" />
	</node>
	<node lat="58.61063333004837" lon="8.159000004490897" id="-25530">
		<tag k="name" v="Bjønnhitjønn" />
		<tag k="natural" v="water" />
		<tag k="ssr:stedsnr" v="352630" />
	</node>
	<node lat="58.52391944224609" lon="8.230863892121354" id="-25561">
		<tag k="name" v="Stitjørn" />
		<tag k="natural" v="water" />
		<tag k="ssr:stedsnr" v="364041" />
	</node>
	<node lat="58.3107055519065" lon="8.137436104893034" id="-25563">
		<tag k="name" v="Kirketjønn" />
		<tag k="natural" v="water" />
		<tag k="ssr:stedsnr" v="364287" />
	</node>
	<node lat="58.36234444387586" lon="8.11829165831647" id="-25565">
		<tag k="alt_name" v="Lonebekken" />
		<tag k="name" v="Knibetjønnbekken" />
		<tag k="ssr:stedsnr" v="364357" />
		<tag k="waterway" v="stream" />
	</node>
	<node lat="58.55973813347791" lon="8.396713403365288" id="-25570">
		<tag k="alt_name" v="Småtjennene" />
		<tag k="name" v="Småtjørnane" />
		<tag k="natural" v="water" />
		<tag k="ssr:stedsnr" v="364245" />
		<tag k="water" v="lake" />
	</node>
	<node lat="58.563813889566" lon="8.416900006677373" id="-25571">
		<tag k="alt_name" v="Blåtjønn" />
		<tag k="name" v="Blåtjørn" />
		<tag k="natural" v="water" />
		<tag k="ssr:stedsnr" v="364246" />
	</node>
	<node lat="58.3907861094664" lon="8.176105551723717" id="-25572">
		<tag k="name" v="Breielona" />
		<tag k="natural" v="water" />
		<tag k="old_name" v="Breidlona;Breielon" />
		<tag k="ssr:stedsnr" v="364325" />
	</node>
	<node lat="58.45970000182408" lon="8.170280559084011" id="-25574">
		<tag k="name" v="Kjørketjønn" />
		<tag k="natural" v="water" />
		<tag k="ssr:stedsnr" v="364465" />
	</node>
	<node lat="58.37782221837105" lon="8.281433329436053" id="-25575">
		<tag k="name" v="Svartetjønn" />
		<tag k="natural" v="water" />
		<tag k="ssr:stedsnr" v="364337" />
	</node>
	<node lat="58.60780277911253" lon="8.133727780531414" id="-25576">
		<tag k="alt_name" v="Kroktjørn" />
		<tag k="name" v="Kroktjønn" />
		<tag k="natural" v="water" />
		<tag k="ssr:stedsnr" v="364341" />
	</node>
	<node lat="58.41601899461379" lon="8.18456091586802" id="-25577">
		<tag k="name" v="Mjåtjønn" />
		<tag k="natural" v="water" />
		<tag k="ssr:stedsnr" v="364429" />
	</node>
	<node lat="58.394005558380194" lon="8.18643610300379" id="-25578">
		<tag k="name" v="Nedre Tjønntveittjønn" />
		<tag k="natural" v="water" />
		<tag k="ssr:stedsnr" v="364433" />
	</node>
	<node lat="58.40331666643128" lon="8.253158329632583" id="-25579">
		<tag k="name" v="Rore" />
		<tag k="place" v="locality" />
		<tag k="ssr:stedsnr" v="364441" />
	</node>
	<node lat="58.47360915121318" lon="8.30622441929234" id="-25584">
		<tag k="alt_name" v="Nesbuvann" />
		<tag k="name" v="Nesbuvannet" />
		<tag k="natural" v="water" />
		<tag k="ssr:stedsnr" v="364474" />
	</node>
	<node lat="58.46723333498447" lon="8.28802499296263" id="-25585">
		<tag k="name" v="Heimdalsvannet" />
		<tag k="natural" v="water" />
		<tag k="ssr:stedsnr" v="364476" />
		<tag k="water" v="lake" />
	</node>
	<node lat="58.51430833741863" lon="8.337144440016404" id="-25587">
		<tag k="alt_name" v="Dånes" />
		<tag k="name" v="Dåneset" />
		<tag k="natural" v="cape" />
		<tag k="ssr:stedsnr" v="365071" />
	</node>
	<node lat="58.5167589325091" lon="8.046632639188172" id="-25588">
		<tag k="alt_name" v="Dovlandsvatnet" />
		<tag k="name" v="Dovlandsvatn" />
		<tag k="natural" v="water" />
		<tag k="ssr:stedsnr" v="365432" />
		<tag k="water" v="lake" />
	</node>
	<node lat="58.62744444818602" lon="8.176033332412803" id="-25589">
		<tag k="name" v="Krosskil" />
		<tag k="natural" v="bay" />
		<tag k="ssr:stedsnr" v="365384" />
	</node>
	<node lat="58.42911666843558" lon="8.20839721761185" id="-25591">
		<tag k="name" v="Store Sandtjønn" />
		<tag k="natural" v="water" />
		<tag k="ssr:stedsnr" v="383929" />
	</node>
	<node lat="58.31105555546054" lon="8.23208055022962" id="-25594">
		<tag k="name" v="Vassbotntjønn" />
		<tag k="natural" v="water" />
		<tag k="ssr:stedsnr" v="391764" />
	</node>
	<node lat="58.48702778231241" lon="8.372644450148224" id="-25600">
		<tag k="name" v="Blokktjenn" />
		<tag k="natural" v="water" />
		<tag k="ssr:stedsnr" v="396187" />
	</node>
	<node lat="58.523766664139174" lon="8.334844437958518" id="-25602">
		<tag k="name" v="Dølekilen" />
		<tag k="natural" v="bay" />
		<tag k="ssr:stedsnr" v="396200" />
	</node>
	<node lat="58.44274722628579" lon="8.343025003281717" id="-25606">
		<tag k="name" v="Kyrkjeholmen" />
		<tag k="place" v="islet" />
		<tag k="ssr:stedsnr" v="396049" />
	</node>
	<node lat="58.54151111283225" lon="8.38753332923067" id="-25623">
		<tag k="name" v="Lille Ljosvassbekken" />
		<tag k="ssr:stedsnr" v="396271" />
		<tag k="waterway" v="stream" />
	</node>
	<node lat="58.459872224378366" lon="8.219202774653903" id="-25642">
		<tag k="name" v="Heftetjønn" />
		<tag k="natural" v="water" />
		<tag k="ssr:stedsnr" v="407862" />
	</node>
	<node lat="58.46584976716922" lon="8.200176342400086" id="-25643">
		<tag k="name" v="Tvitjønnane" />
		<tag k="natural" v="water" />
		<tag k="ssr:stedsnr" v="407864" />
		<tag k="water" v="lake" />
	</node>
	<node lat="58.473427776287856" lon="8.199138893949964" id="-25647">
		<tag k="name" v="Rjomeslått-tjønn" />
		<tag k="natural" v="water" />
		<tag k="ssr:stedsnr" v="407878" />
	</node>
	<node lat="58.429213887308165" lon="8.167263893366723" id="-25652">
		<tag k="name" v="Fjellbekken" />
		<tag k="ssr:stedsnr" v="408333" />
		<tag k="waterway" v="stream" />
	</node>
	<node lat="58.377586106937976" lon="8.092708329162951" id="-25660">
		<tag k="name" v="Nesane" />
		<tag k="natural" v="cape" />
		<tag k="ssr:stedsnr" v="408601" />
	</node>
	<node lat="58.40693055411639" lon="8.099444451830891" id="-25661">
		<tag k="name" v="Sankt Helena" />
		<tag k="place" v="islet" />
		<tag k="ssr:stedsnr" v="408617" />
	</node>
	<node lat="58.31173055123041" lon="8.142969450836796" id="-25662">
		<tag k="name" v="Stutetjønn" />
		<tag k="natural" v="water" />
		<tag k="ssr:stedsnr" v="408261" />
	</node>
	<node lat="58.372261111144155" lon="8.174336106535932" id="-25667">
		<tag k="name" v="Knappholtstjønn" />
		<tag k="natural" v="water" />
		<tag k="ssr:stedsnr" v="408473" />
	</node>
	<node lat="58.404311110330454" lon="8.157175006783858" id="-25668">
		<tag k="name" v="Ospehølen" />
		<tag k="place" v="locality" />
		<tag k="ssr:stedsnr" v="408477" />
	</node>
	<node lat="58.48172499824614" lon="8.225613880682735" id="-25671">
		<tag k="name" v="Lonane" />
		<tag k="natural" v="water" />
		<tag k="ssr:stedsnr" v="408984" />
		<tag k="water" v="lake" />
	</node>
	<node lat="58.44536110957449" lon="8.077602772508007" id="-25673">
		<tag k="name" v="Svarttjønn" />
		<tag k="natural" v="water" />
		<tag k="ssr:stedsnr" v="408548" />
	</node>
	<node lat="58.33266944450144" lon="8.10855000022898" id="-25680">
		<tag k="name" v="Hønsehølen" />
		<tag k="place" v="locality" />
		<tag k="ssr:stedsnr" v="408752" />
	</node>
	<node lat="58.338527775130665" lon="8.080094438033887" id="-25681">
		<tag k="name" v="Ormetjønn" />
		<tag k="natural" v="water" />
		<tag k="ssr:stedsnr" v="408761" />
	</node>
	<node lat="58.3392833354542" lon="8.069091661256522" id="-25682">
		<tag k="name" v="Lille Kroktjønn" />
		<tag k="natural" v="water" />
		<tag k="ssr:stedsnr" v="408773" />
	</node>
	<node lat="58.35220555928683" lon="8.04610832617462" id="-25687">
		<tag k="name" v="Bjorhølen" />
		<tag k="place" v="locality" />
		<tag k="ssr:stedsnr" v="408781" />
	</node>
	<node lat="58.55104166450977" lon="8.098705561283541" id="-25690">
		<tag k="name" v="Sandkil" />
		<tag k="natural" v="bay" />
		<tag k="ssr:stedsnr" v="413321" />
	</node>
	<node lat="58.55328333336278" lon="8.096472213932183" id="-25691">
		<tag k="name" v="Kvennhusbekken" />
		<tag k="ssr:stedsnr" v="413322" />
		<tag k="waterway" v="stream" />
	</node>
	<node lat="58.61666944452599" lon="8.18234722846659" id="-25704">
		<tag k="name" v="Flatelandsfjorden" />
		<tag k="natural" v="water" />
		<tag k="ssr:stedsnr" v="413719" />
	</node>
	<node lat="58.61801933807325" lon="8.119557577652218" id="-25706">
		<tag k="name" v="Tritjønnane" />
		<tag k="natural" v="water" />
		<tag k="ssr:stedsnr" v="413672" />
		<tag k="water" v="lake" />
	</node>
	<node lat="58.49677754593975" lon="8.279411445237296" id="-25723">
		<tag k="alt_name" v="Tritjønnene" />
		<tag k="name" v="Tritjønn" />
		<tag k="natural" v="water" />
		<tag k="ssr:stedsnr" v="425033" />
		<tag k="water" v="lake" />
	</node>
	<node lat="58.45949722177312" lon="8.213861117596924" id="-25724">
		<tag k="name" v="Lundevannet" />
		<tag k="natural" v="water" />
		<tag k="ssr:stedsnr" v="424449" />
	</node>
	<node lat="58.5513083349124" lon="8.004716667762573" id="-25727">
		<tag k="alt_name" v="Elgtjørna" />
		<tag k="name" v="Elgtjønn" />
		<tag k="natural" v="water" />
		<tag k="ssr:stedsnr" v="425677" />
	</node>
	<node lat="58.55113611451352" lon="8.064625001569278" id="-25729">
		<tag k="fixme" v="multiple name tags, choose one and add the other to alt_name" />
		<tag k="name" v="Lonåna;Grønevasselva" />
		<tag k="ssr:stedsnr" v="425682" />
		<tag k="waterway" v="river" />
	</node>
	<node lat="58.304399999738294" lon="8.282377784426687" id="-25731">
		<tag k="name" v="Fiskelausvannet" />
		<tag k="natural" v="water" />
		<tag k="ssr:stedsnr" v="425283" />
	</node>
	<node lat="58.53031110734138" lon="8.35288334100344" id="-25732">
		<tag k="name" v="Lakshøl" />
		<tag k="natural" v="water" />
		<tag k="ssr:stedsnr" v="425210" />
	</node>
	<node lat="58.52540278071686" lon="8.200644450149348" id="-25733">
		<tag k="alt_name" v="Åstjørn" />
		<tag k="name" v="Åstjønn" />
		<tag k="natural" v="water" />
		<tag k="ssr:stedsnr" v="425212" />
	</node>
	<node lat="58.52329167017826" lon="8.211983335487009" id="-25734">
		<tag k="alt_name" v="Kleivtjørn" />
		<tag k="name" v="Kleivetjønn" />
		<tag k="natural" v="water" />
		<tag k="ssr:stedsnr" v="425214" />
	</node>
	<node lat="58.55322500299736" lon="8.208536118704794" id="-25736">
		<tag k="name" v="Engelsåna" />
		<tag k="ssr:stedsnr" v="425226" />
		<tag k="waterway" v="river" />
	</node>
	<node lat="58.43804722189842" lon="8.28830833137829" id="-25746">
		<tag k="name" v="Holmetjønn" />
		<tag k="natural" v="water" />
		<tag k="ssr:stedsnr" v="425385" />
	</node>
	<node lat="58.25231944204231" lon="8.191505552942164" id="-25748">
		<tag k="name" v="Hestvannet" />
		<tag k="natural" v="water" />
		<tag k="ssr:stedsnr" v="425720" />
	</node>
	<node lat="58.51597222392207" lon="8.227963880600742" id="-25752">
		<tag k="name" v="Fidjefjorden" />
		<tag k="natural" v="water" />
		<tag k="ssr:stedsnr" v="426035" />
		<tag k="water" v="lake" />
	</node>
	<node lat="58.46686601893054" lon="8.241747143814033" id="-25757">
		<tag k="name" v="Hagatjønnane" />
		<tag k="natural" v="water" />
		<tag k="ssr:stedsnr" v="710839" />
		<tag k="water" v="lake" />
	</node>
	<node lat="58.33608611524721" lon="8.205655558474938" id="-25764">
		<tag k="name" v="Flakkefossen" />
		<tag k="natural" v="waterfall" />
		<tag k="ssr:stedsnr" v="513393" />
	</node>
	<node lat="58.39261388928532" lon="8.245683340503192" id="-25776">
		<tag k="name" v="Kilen" />
		<tag k="natural" v="bay" />
		<tag k="ssr:stedsnr" v="518788" />
	</node>
	<node lat="58.43806666887237" lon="8.311080558495492" id="-25790">
		<tag k="name" v="Sundtjønnhølen" />
		<tag k="place" v="locality" />
		<tag k="ssr:stedsnr" v="518107" />
	</node>
	<node lat="58.46776666552862" lon="8.292005562463311" id="-25792">
		<tag k="name" v="Byttingsholmen" />
		<tag k="place" v="islet" />
		<tag k="ssr:stedsnr" v="518119" />
	</node>
	<node lat="58.479805551291285" lon="8.361558339559197" id="-25803">
		<tag k="name" v="Holmetjenn" />
		<tag k="natural" v="water" />
		<tag k="ssr:stedsnr" v="518201" />
	</node>
	<node lat="58.53889444105285" lon="8.333052782439525" id="-25810">
		<tag k="name" v="Hanefossdammen" />
		<tag k="ssr:stedsnr" v="518247" />
		<tag k="waterway" v="dam" />
	</node>
	<node lat="58.32528333296242" lon="8.118847220205295" id="-25820">
		<tag k="name" v="Dalandstjønn" />
		<tag k="natural" v="water" />
		<tag k="ssr:stedsnr" v="529272" />
	</node>
	<node lat="58.470369443656345" lon="8.206541663610986" id="-25834">
		<tag k="name" v="Lauvreistjønn" />
		<tag k="natural" v="water" />
		<tag k="ssr:stedsnr" v="528868" />
	</node>
	<node lat="58.342911107476496" lon="8.129213896627817" id="-25846">
		<tag k="name" v="Tjønndyblen" />
		<tag k="natural" v="water" />
		<tag k="ssr:stedsnr" v="529294" />
		<tag k="water" v="pond" />
	</node>
	<node lat="58.41557222485696" lon="8.109586104199854" id="-25850">
		<tag k="name" v="Fiskarbukta" />
		<tag k="natural" v="bay" />
		<tag k="ssr:stedsnr" v="529583" />
	</node>
	<node lat="58.415002782022306" lon="8.166891664473976" id="-25851">
		<tag k="alt_name" v="Nedre Hellerslivatn" />
		<tag k="name" v="Nedre Hellerslivann" />
		<tag k="natural" v="water" />
		<tag k="ssr:stedsnr" v="529592" />
		<tag k="water" v="lake" />
	</node>
	<node lat="58.44191666810351" lon="8.234511104185193" id="-25852">
		<tag k="name" v="Ånneslandsvatnet" />
		<tag k="natural" v="water" />
		<tag k="ssr:stedsnr" v="529600" />
		<tag k="water" v="lake" />
	</node>
	<node lat="58.35922777792277" lon="8.122569451509495" id="-25855">
		<tag k="name" v="Lonene" />
		<tag k="natural" v="water" />
		<tag k="ssr:stedsnr" v="529332" />
		<tag k="water" v="lake" />
	</node>
	<node lat="58.3814083296943" lon="8.142402778978749" id="-25863">
		<tag k="name" v="Hæsåtangen" />
		<tag k="place" v="islet" />
		<tag k="ssr:stedsnr" v="529366" />
	</node>
	<node lat="58.47868333562938" lon="8.259238881045244" id="-25878">
		<tag k="name" v="Svobergtjønn" />
		<tag k="natural" v="water" />
		<tag k="ssr:stedsnr" v="529986" />
	</node>
	<node lat="58.52390277497634" lon="8.00620000253363" id="-25886">
		<tag k="name" v="Langodden" />
		<tag k="natural" v="cape" />
		<tag k="ssr:stedsnr" v="534698" />
	</node>
	<node lat="58.54540832952967" lon="8.089888885221079" id="-25914">
		<tag k="name" v="Haukomvannet" />
		<tag k="natural" v="water" />
		<tag k="ssr:stedsnr" v="546647" />
		<tag k="water" v="lake" />
	</node>
	<node lat="58.518655557239754" lon="8.144088896985409" id="-25917">
		<tag k="name" v="Stølekilen" />
		<tag k="natural" v="bay" />
		<tag k="ssr:stedsnr" v="546210" />
	</node>
	<node lat="58.38420833170966" lon="8.161408335239836" id="-25923">
		<tag k="name" v="Refstadvannet" />
		<tag k="natural" v="water" />
		<tag k="ssr:stedsnr" v="546290" />
	</node>
	<node lat="58.48168333031918" lon="8.29910278551276" id="-25928">
		<tag k="alt_name" v="Blankevann" />
		<tag k="name" v="Blankvannet" />
		<tag k="natural" v="water" />
		<tag k="ssr:stedsnr" v="546433" />
	</node>
	<node lat="58.45400027294204" lon="8.289684882156427" id="-25931">
		<tag k="name" v="Ormetjønn" />
		<tag k="natural" v="water" />
		<tag k="ssr:stedsnr" v="546450" />
	</node>
	<node lat="58.449352773730915" lon="8.19283055051715" id="-25933">
		<tag k="name" v="Bjortjønn" />
		<tag k="natural" v="water" />
		<tag k="ssr:stedsnr" v="546462" />
	</node>
	<node lat="58.45522222115717" lon="8.194902779101936" id="-25934">
		<tag k="name" v="Mjåvetjønn" />
		<tag k="natural" v="water" />
		<tag k="ssr:stedsnr" v="546464" />
	</node>
	<node lat="58.50338611489372" lon="8.296336104389471" id="-25937">
		<tag k="name" v="Bjellandsbekken" />
		<tag k="ssr:stedsnr" v="547015" />
		<tag k="waterway" v="stream" />
	</node>
	<node lat="58.44228888767431" lon="8.36778611371044" id="-25963">
		<tag k="name" v="Nedre Heievann" />
		<tag k="natural" v="water" />
		<tag k="ssr:stedsnr" v="578080" />
		<tag k="water" v="lake" />
	</node>
	<node lat="58.55537222556583" lon="8.371505556565067" id="-25970">
		<tag k="name" v="Strandene" />
		<tag k="natural" v="beach" />
		<tag k="ssr:stedsnr" v="578260" />
	</node>
	<node lat="58.57068610676303" lon="8.355108333140857" id="-25974">
		<tag k="name" v="Lomstjønn" />
		<tag k="natural" v="water" />
		<tag k="ssr:stedsnr" v="578277" />
	</node>
	<node lat="58.584041662604164" lon="8.395880549436912" id="-25977">
		<tag k="name" v="Storefoss" />
		<tag k="natural" v="waterfall" />
		<tag k="ssr:stedsnr" v="578324" />
	</node>
	<node lat="58.56956666275238" lon="8.428522222264846" id="-25978">
		<tag k="name" v="Moltetjenn" />
		<tag k="natural" v="water" />
		<tag k="ssr:stedsnr" v="578337" />
	</node>
	<node lat="58.296538893376514" lon="8.202300004811034" id="-25982">
		<tag k="name" v="Langetjønn" />
		<tag k="natural" v="water" />
		<tag k="ssr:stedsnr" v="578484" />
	</node>
	<node lat="58.36052222284513" lon="8.280655548153836" id="-25988">
		<tag k="name" v="Jamslandstjenn" />
		<tag k="natural" v="water" />
		<tag k="ssr:stedsnr" v="578768" />
	</node>
	<node lat="58.31413333350063" lon="8.188633328715685" id="-25995">
		<tag k="name" v="Nessane" />
		<tag k="natural" v="cape" />
		<tag k="ssr:stedsnr" v="578975" />
	</node>
	<node lat="58.45826110942715" lon="8.18608056349626" id="-25997">
		<tag k="name" v="Normannstjønn" />
		<tag k="natural" v="water" />
		<tag k="ssr:stedsnr" v="710847" />
	</node>
	<node lat="58.45992778083377" lon="8.124208324718218" id="-25998">
		<tag k="name" v="Tverrheitjønn" />
		<tag k="natural" v="water" />
		<tag k="ssr:stedsnr" v="710854" />
	</node>
	<node lat="58.33196111186927" lon="8.063680557342732" id="-26000">
		<tag k="name" v="Karistjønn" />
		<tag k="natural" v="water" />
		<tag k="ssr:stedsnr" v="589744" />
	</node>
	<node lat="58.471905552534196" lon="8.084397223425686" id="-26001">
		<tag k="name" v="Lauvlitjønn" />
		<tag k="natural" v="water" />
		<tag k="ssr:stedsnr" v="589750" />
	</node>
	<node lat="58.47181110778527" lon="8.17052778137011" id="-26003">
		<tag k="name" v="Ålekjerrtjønn" />
		<tag k="natural" v="water" />
		<tag k="ssr:stedsnr" v="589899" />
	</node>
	<node lat="58.369702779864795" lon="8.143491662938992" id="-26013">
		<tag k="name" v="Rundetjønn" />
		<tag k="natural" v="water" />
		<tag k="ssr:stedsnr" v="590398" />
	</node>
	<node lat="58.42844722269618" lon="8.238216658615043" id="-26016">
		<tag k="name" v="Krokevassbekken" />
		<tag k="ssr:stedsnr" v="590480" />
		<tag k="waterway" v="stream" />
	</node>
	<node lat="58.371286112977515" lon="8.15566389378785" id="-26019">
		<tag k="name" v="Knipsundet" />
		<tag k="natural" v="strait" />
		<tag k="ssr:stedsnr" v="590409" />
	</node>
	<node lat="58.39530833257505" lon="8.163886112263326" id="-26027">
		<tag k="name" v="Barkebekken" />
		<tag k="ssr:stedsnr" v="590451" />
		<tag k="waterway" v="stream" />
	</node>
	<node lat="58.445725004389196" lon="8.072719452101323" id="-26030">
		<tag k="name" v="Storelon" />
		<tag k="natural" v="water" />
		<tag k="ssr:stedsnr" v="590540" />
		<tag k="water" v="lake" />
	</node>
	<node lat="58.473988887923866" lon="8.268905558054122" id="-26036">
		<tag k="name" v="Lølandstjønn" />
		<tag k="natural" v="water" />
		<tag k="ssr:stedsnr" v="590815" />
	</node>
	<node lat="58.53003611566031" lon="8.243361117489165" id="-26039">
		<tag k="name" v="Rettåna" />
		<tag k="natural" v="water" />
		<tag k="ssr:stedsnr" v="590887" />
		<tag k="water" v="lake" />
	</node>
	<node lat="58.53061389051127" lon="8.2375583370741" id="-26040">
		<tag k="name" v="Furholtia" />
		<tag k="natural" v="bay" />
		<tag k="ssr:stedsnr" v="590888" />
	</node>
	<node lat="58.56700833539614" lon="8.10386667069556" id="-26047">
		<tag k="name" v="Slorpetjønn" />
		<tag k="natural" v="water" />
		<tag k="ssr:stedsnr" v="595073" />
	</node>
	<node lat="58.50440278037791" lon="8.136569445062813" id="-26063">
		<tag k="name" v="Mørketjønn" />
		<tag k="natural" v="water" />
		<tag k="ssr:stedsnr" v="595892" />
	</node>
	<node lat="58.51617222000462" lon="7.971075006518822" id="-26076">
		<tag k="name" v="Trippetjønn" />
		<tag k="natural" v="water" />
		<tag k="ssr:stedsnr" v="596096" />
	</node>
	<node lat="58.55624166232159" lon="7.985955558791309" id="-26078">
		<tag k="name" v="Flomyrtjønn" />
		<tag k="natural" v="water" />
		<tag k="ssr:stedsnr" v="596630" />
	</node>
	<node lat="58.49269166322687" lon="8.117927786081871" id="-26081">
		<tag k="name" v="Saglona" />
		<tag k="natural" v="water" />
		<tag k="ssr:stedsnr" v="596846" />
		<tag k="water" v="lake" />
	</node>
	<node lat="58.497402781415694" lon="8.16576944572942" id="-26090">
		<tag k="name" v="Fisketjønn" />
		<tag k="natural" v="water" />
		<tag k="ssr:stedsnr" v="606041" />
	</node>
	<node lat="58.3408499959939" lon="8.123205549355974" id="-26091">
		<tag k="name" v="Grunnetjønn" />
		<tag k="natural" v="water" />
		<tag k="ssr:stedsnr" v="606341" />
	</node>
	<node lat="58.35584721865511" lon="8.069352773235638" id="-26095">
		<tag k="name" v="Kleppvannet" />
		<tag k="natural" v="water" />
		<tag k="ssr:stedsnr" v="606063" />
	</node>
	<node lat="58.32831110893005" lon="8.268402775785706" id="-26096">
		<tag k="name" v="Risvannet" />
		<tag k="natural" v="water" />
		<tag k="ssr:stedsnr" v="606255" />
	</node>
	<node lat="58.330563888954316" lon="8.153380555957078" id="-26097">
		<tag k="name" v="Dalebekken" />
		<tag k="ssr:stedsnr" v="606259" />
		<tag k="waterway" v="stream" />
	</node>
	<node lat="58.548830557458324" lon="8.212430549177855" id="-26106">
		<tag k="name" v="Rekslønbekken" />
		<tag k="ssr:stedsnr" v="607241" />
		<tag k="waterway" v="stream" />
	</node>
	<node lat="58.544511107876446" lon="8.142258335421092" id="-26107">
		<tag k="name" v="Tvørevatnet" />
		<tag k="natural" v="water" />
		<tag k="ssr:stedsnr" v="607242" />
		<tag k="water" v="lake" />
	</node>
	<node lat="58.60816666738668" lon="8.181122218286255" id="-26109">
		<tag k="alt_name" v="Lomstjørn" />
		<tag k="name" v="Lomstjønn" />
		<tag k="natural" v="water" />
		<tag k="ssr:stedsnr" v="607342" />
	</node>
	<node lat="58.60443056007281" lon="8.157983339641127" id="-26110">
		<tag k="name" v="Lonane" />
		<tag k="natural" v="water" />
		<tag k="ssr:stedsnr" v="607343" />
		<tag k="water" v="lake" />
	</node>
	<node lat="58.51127778047159" lon="7.978955561133807" id="-26111">
		<tag k="alt_name" v="Stemtjørn" />
		<tag k="name" v="Stemtjønn" />
		<tag k="natural" v="water" />
		<tag k="ssr:stedsnr" v="607420" />
	</node>
	<node lat="58.568222219995484" lon="8.13394167014078" id="-26113">
		<tag k="name" v="Vrålsbekken" />
		<tag k="ssr:stedsnr" v="607133" />
		<tag k="waterway" v="stream" />
	</node>
	<node lat="58.5309888887156" lon="8.069327775802341" id="-26114">
		<tag k="alt_name" v="Færetjørn" />
		<tag k="name" v="Færetjønn" />
		<tag k="natural" v="water" />
		<tag k="ssr:stedsnr" v="607430" />
	</node>
	<node lat="58.28020277357087" lon="8.26809999733844" id="-26117">
		<tag k="alt_name" v="Knutevann" />
		<tag k="name" v="Knutevannet" />
		<tag k="natural" v="water" />
		<tag k="ssr:stedsnr" v="607740" />
	</node>
	<node lat="58.52365277865107" lon="8.29058610935612" id="-26119">
		<tag k="name" v="Munketjønn" />
		<tag k="natural" v="water" />
		<tag k="ssr:stedsnr" v="711044" />
	</node>
	<node lat="58.32813333556229" lon="8.247824998458334" id="-26132">
		<tag k="name" v="Haugevassbekken" />
		<tag k="ssr:stedsnr" v="634367" />
		<tag k="waterway" v="stream" />
	</node>
	<node lat="58.328097222147804" lon="8.227683325098727" id="-26133">
		<tag k="name" v="Møllebekken" />
		<tag k="ssr:stedsnr" v="634371" />
		<tag k="waterway" v="stream" />
	</node>
	<node lat="58.260727775190894" lon="8.172733328510441" id="-26145">
		<tag k="name" v="Lona" />
		<tag k="natural" v="water" />
		<tag k="ssr:stedsnr" v="639969" />
		<tag k="water" v="lake" />
	</node>
	<node lat="58.44131389131867" lon="8.347844437439337" id="-26147">
		<tag k="name" v="Bukkeholmen" />
		<tag k="place" v="islet" />
		<tag k="ssr:stedsnr" v="639092" />
	</node>
	<node lat="58.476105553834024" lon="8.282355559871212" id="-26151">
		<tag k="name" v="Gråskolltjønn" />
		<tag k="natural" v="water" />
		<tag k="ssr:stedsnr" v="639194" />
	</node>
	<node lat="58.47585833155538" lon="8.291397230698593" id="-26152">
		<tag k="name" v="Lilletjønn" />
		<tag k="natural" v="water" />
		<tag k="ssr:stedsnr" v="639197" />
	</node>
	<node lat="58.479047226052835" lon="8.288783333578222" id="-26153">
		<tag k="name" v="Barlindtjønn" />
		<tag k="natural" v="water" />
		<tag k="ssr:stedsnr" v="639201" />
	</node>
	<node lat="58.48841388941443" lon="8.301572222237617" id="-26155">
		<tag k="name" v="Flottedalstjønn" />
		<tag k="natural" v="water" />
		<tag k="ssr:stedsnr" v="639214" />
	</node>
	<node lat="58.42381944070251" lon="8.339094447366797" id="-26162">
		<tag k="name" v="Porstjenn" />
		<tag k="natural" v="water" />
		<tag k="ssr:stedsnr" v="639064" />
	</node>
	<node lat="58.46110555521482" lon="8.363891663320052" id="-26165">
		<tag k="name" v="Lille Rosåsbekk" />
		<tag k="ssr:stedsnr" v="639160" />
		<tag k="waterway" v="stream" />
	</node>
	<node lat="58.50657777932638" lon="8.363580560939955" id="-26172">
		<tag k="name" v="Steane" />
		<tag k="place" v="locality" />
		<tag k="ssr:stedsnr" v="639261" />
	</node>
	<node lat="58.294375000155284" lon="8.202211107457291" id="-26178">
		<tag k="name" v="Høygiltstjønn" />
		<tag k="natural" v="water" />
		<tag k="ssr:stedsnr" v="639541" />
	</node>
	<node lat="58.39039444693193" lon="8.2426111123921" id="-26182">
		<tag k="name" v="Lyngholmen" />
		<tag k="place" v="islet" />
		<tag k="ssr:stedsnr" v="639791" />
	</node>
	<node lat="58.29021110975111" lon="8.20534443624364" id="-26185">
		<tag k="name" v="Grostjønn" />
		<tag k="natural" v="water" />
		<tag k="ssr:stedsnr" v="639981" />
	</node>
	<node lat="58.52201111251036" lon="8.290313880981227" id="-26197">
		<tag k="name" v="Smaletjønn" />
		<tag k="natural" v="water" />
		<tag k="ssr:stedsnr" v="650054" />
	</node>
	<node lat="58.43012499578966" lon="8.158563882578239" id="-26203">
		<tag k="name" v="Storeheitjønn" />
		<tag k="natural" v="water" />
		<tag k="ssr:stedsnr" v="650431" />
	</node>
	<node lat="58.42780833331344" lon="8.262130548711824" id="-26204">
		<tag k="name" v="Bjønnskjeggtjønn" />
		<tag k="natural" v="water" />
		<tag k="ssr:stedsnr" v="650432" />
	</node>
	<node lat="58.346605553691994" lon="8.12782221519247" id="-26217">
		<tag k="name" v="Govertsnes" />
		<tag k="natural" v="cape" />
		<tag k="ssr:stedsnr" v="650356" />
	</node>
	<node lat="58.38307222177627" lon="8.10915832903783" id="-26218">
		<tag k="alt_name" v="Dikeelva" />
		<tag k="name" v="Digeelva" />
		<tag k="ssr:stedsnr" v="650375" />
		<tag k="waterway" v="river" />
	</node>
	<node lat="58.40471944380354" lon="8.18108333115491" id="-26224">
		<tag k="name" v="Lille Søndagstjønn" />
		<tag k="natural" v="water" />
		<tag k="ssr:stedsnr" v="650467" />
	</node>
	<node lat="58.41456389096603" lon="8.11188888142869" id="-26227">
		<tag k="name" v="Lille Hestøy" />
		<tag k="place" v="islet" />
		<tag k="ssr:stedsnr" v="650561" />
	</node>
	<node lat="58.41815832882196" lon="8.093722215114996" id="-26228">
		<tag k="name" v="Lognøya" />
		<tag k="place" v="island" />
		<tag k="ssr:stedsnr" v="650576" />
	</node>
	<node lat="58.37354722100037" lon="8.085377772971182" id="-26235">
		<tag k="name" v="Brulitjønn" />
		<tag k="natural" v="water" />
		<tag k="ssr:stedsnr" v="650508" />
	</node>
	<node lat="58.46320000269839" lon="8.14421388462765" id="-26248">
		<tag k="name" v="Skrerosfjorden" />
		<tag k="natural" v="water" />
		<tag k="ssr:stedsnr" v="651651" />
	</node>
	<node lat="58.52756944122817" lon="8.179280553770415" id="-26255">
		<tag k="name" v="Toskebutjønn" />
		<tag k="natural" v="water" />
		<tag k="ssr:stedsnr" v="656111" />
	</node>
	<node lat="58.537838885999214" lon="8.20119721614128" id="-26257">
		<tag k="name" v="Fisketjønn" />
		<tag k="natural" v="water" />
		<tag k="ssr:stedsnr" v="656121" />
	</node>
	<node lat="58.54266110938398" lon="8.100544450822206" id="-26260">
		<tag k="name" v="Oksøy" />
		<tag k="place" v="island" />
		<tag k="ssr:stedsnr" v="656361" />
	</node>
	<node lat="58.51822778120213" lon="8.266336107637688" id="-26266">
		<tag k="name" v="Håleslåttjønn" />
		<tag k="natural" v="water" />
		<tag k="ssr:stedsnr" v="711096" />
	</node>
	<node lat="58.520469445726825" lon="8.231680553067267" id="-26267">
		<tag k="name" v="Storeste" />
		<tag k="natural" v="cape" />
		<tag k="ssr:stedsnr" v="711101" />
	</node>
	<node lat="58.505994441188975" lon="8.009619437701485" id="-26272">
		<tag k="name" v="Brekketjønn" />
		<tag k="natural" v="water" />
		<tag k="ssr:stedsnr" v="656044" />
	</node>
	<node lat="58.507283330909715" lon="8.020583334722913" id="-26273">
		<tag k="name" v="Solåstjønn" />
		<tag k="natural" v="water" />
		<tag k="ssr:stedsnr" v="656045" />
	</node>
	<node lat="58.514008330119864" lon="8.043247224111907" id="-26275">
		<tag k="name" v="Lienes" />
		<tag k="natural" v="cape" />
		<tag k="ssr:stedsnr" v="656070" />
	</node>
	<node lat="58.3727166693017" lon="8.075763882622166" id="-26308">
		<tag k="name" v="Ærsvannet" />
		<tag k="natural" v="water" />
		<tag k="ssr:stedsnr" v="667102" />
	</node>
	<node lat="58.32827221960007" lon="8.206283339118034" id="-26312">
		<tag k="alt_name" v="Flakksvatnet;Flakksvann" />
		<tag k="name" v="Flakksvannet" />
		<tag k="natural" v="water" />
		<tag k="ssr:stedsnr" v="667276" />
		<tag k="water" v="lake" />
	</node>
	<node lat="58.31985881608884" lon="8.236115080860438" id="-26313">
		<tag k="name" v="Valetjønn" />
		<tag k="natural" v="water" />
		<tag k="ssr:stedsnr" v="667279" />
	</node>
	<node lat="58.341455552711146" lon="8.332988894846011" id="-26314">
		<tag k="name" v="Storelon" />
		<tag k="natural" v="water" />
		<tag k="ssr:stedsnr" v="667361" />
	</node>
	<node lat="58.48328888454106" lon="8.15751389374322" id="-26316">
		<tag k="name" v="Skarketjønn" />
		<tag k="natural" v="water" />
		<tag k="ssr:stedsnr" v="667426" />
	</node>
	<node lat="58.26178333125999" lon="8.234836118116274" id="-26319">
		<tag k="name" v="Kleppevannet" />
		<tag k="natural" v="water" />
		<tag k="ssr:stedsnr" v="667672" />
	</node>
	<node lat="58.54426388984638" lon="8.233911105994277" id="-26321">
		<tag k="alt_name" v="Knipetjørn" />
		<tag k="name" v="Knipetjønn" />
		<tag k="natural" v="water" />
		<tag k="ssr:stedsnr" v="668269" />
	</node>
	<node lat="58.5434111149019" lon="8.218080553715874" id="-26322">
		<tag k="alt_name" v="Rundetjørn" />
		<tag k="name" v="Rundetjønn" />
		<tag k="natural" v="water" />
		<tag k="ssr:stedsnr" v="668271" />
	</node>
	<node lat="58.60640833687677" lon="8.188816667099813" id="-26323">
		<tag k="name" v="Vågsdalsfjorden" />
		<tag k="natural" v="water" />
		<tag k="ssr:stedsnr" v="668366" />
		<tag k="water" v="lake" />
	</node>
	<node lat="58.35799166780502" lon="8.128847226283243" id="-26324">
		<tag k="alt_name" v="Knipetjønn" />
		<tag k="name" v="Knibetjønn" />
		<tag k="natural" v="water" />
		<tag k="ssr:stedsnr" v="668381" />
	</node>
	<node lat="58.518786114181374" lon="8.287216673350738" id="-26331">
		<tag k="alt_name" v="Retterstøltjørn" />
		<tag k="name" v="Retterstøltjønn" />
		<tag k="natural" v="water" />
		<tag k="ssr:stedsnr" v="668060" />
	</node>
	<node lat="58.513205555492796" lon="8.287074996440342" id="-26332">
		<tag k="alt_name" v="Kopskilen" />
		<tag k="name" v="Koppskilen" />
		<tag k="natural" v="bay" />
		<tag k="ssr:stedsnr" v="668061" />
	</node>
	<node lat="58.57723888959704" lon="8.005755560240491" id="-26336">
		<tag k="name" v="Skårsåna" />
		<tag k="ssr:stedsnr" v="668752" />
		<tag k="waterway" v="river" />
	</node>
	<node lat="58.38214722272609" lon="8.149644449705214" id="-26339">
		<tag k="name" v="Sagebekken" />
		<tag k="ssr:stedsnr" v="711399" />
		<tag k="waterway" v="stream" />
	</node>
	<node lat="58.42268888672415" lon="8.259186115483786" id="-26350">
		<tag k="name" v="Skautjønn" />
		<tag k="natural" v="water" />
		<tag k="ssr:stedsnr" v="711449" />
	</node>
	<node lat="58.419358336606074" lon="8.259422216928392" id="-26351">
		<tag k="name" v="Vidmyrtjønn" />
		<tag k="natural" v="water" />
		<tag k="ssr:stedsnr" v="711452" />
	</node>
	<node lat="58.41875000320443" lon="8.10552499393442" id="-26361">
		<tag k="name" v="Hestøya" />
		<tag k="place" v="island" />
		<tag k="ssr:stedsnr" v="711602" />
	</node>
	<node lat="58.478294447505405" lon="8.213063882859014" id="-26362">
		<tag k="name" v="Bekkedalslona" />
		<tag k="natural" v="water" />
		<tag k="ssr:stedsnr" v="711812" />
		<tag k="water" v="lake" />
	</node>
	<node lat="58.361058683800394" lon="8.209825446898446" id="-26376">
		<tag k="name" v="Tretjønnene" />
		<tag k="natural" v="water" />
		<tag k="ssr:stedsnr" v="712408" />
		<tag k="water" v="lake" />
	</node>
	<node lat="58.51372777568319" lon="7.992566671627952" id="-26392">
		<tag k="name" v="Fåtjønn" />
		<tag k="natural" v="water" />
		<tag k="ssr:stedsnr" v="717076" />
	</node>
	<node lat="58.50674721943438" lon="8.091283331893488" id="-26393">
		<tag k="name" v="Nesa" />
		<tag k="natural" v="cape" />
		<tag k="ssr:stedsnr" v="716998" />
	</node>
	<node lat="58.52243333196185" lon="8.009769451007518" id="-26408">
		<tag k="name" v="Skapthøl" />
		<tag k="place" v="locality" />
		<tag k="ssr:stedsnr" v="717687" />
	</node>
	<node lat="58.599755553184096" lon="8.194055555926639" id="-26412">
		<tag k="name" v="Kilen" />
		<tag k="natural" v="bay" />
		<tag k="ssr:stedsnr" v="717698" />
	</node>
	<node lat="58.608061111546334" lon="8.138011105653593" id="-26413">
		<tag k="name" v="Rundetjønn" />
		<tag k="natural" v="water" />
		<tag k="ssr:stedsnr" v="717716" />
	</node>
	<node lat="58.48950000017117" lon="8.124158338672775" id="-26416">
		<tag k="name" v="Følstjønn" />
		<tag k="natural" v="water" />
		<tag k="ssr:stedsnr" v="717840" />
	</node>
	<node lat="58.464930556534505" lon="8.393747225161563" id="-26423">
		<tag k="name" v="Tretjennene" />
		<tag k="natural" v="water" />
		<tag k="ssr:stedsnr" v="728457" />
		<tag k="water" v="lake" />
	</node>
	<node lat="58.51450833534556" lon="8.163983329268731" id="-26427">
		<tag k="name" v="Aggevannet" />
		<tag k="natural" v="water" />
		<tag k="ssr:stedsnr" v="729041" />
		<tag k="water" v="lake" />
	</node>
	<node lat="58.52071110782453" lon="8.29273889620139" id="-26429">
		<tag k="alt_name" v="Orreleikstjørnane" />
		<tag k="name" v="Orreleiktjønnane" />
		<tag k="natural" v="water" />
		<tag k="ssr:stedsnr" v="729048" />
	</node>
	<node lat="58.50177777879214" lon="8.16033889578206" id="-26430">
		<tag k="alt_name" v="Aggevannsbekken" />
		<tag k="name" v="Lonebekken" />
		<tag k="ssr:stedsnr" v="729060" />
		<tag k="waterway" v="stream" />
	</node>
	<node lat="58.57393888815293" lon="8.421547213859542" id="-26431">
		<tag k="alt_name" v="Krokvann" />
		<tag k="name" v="Krokvatnet" />
		<tag k="natural" v="water" />
		<tag k="ssr:stedsnr" v="729129" />
	</node>
	<node lat="58.57270277494719" lon="8.442563885317043" id="-26432">
		<tag k="alt_name" v="Skarketjenn" />
		<tag k="name" v="Skarketjørn" />
		<tag k="natural" v="water" />
		<tag k="ssr:stedsnr" v="729142" />
	</node>
	<node lat="58.56075347055362" lon="8.168052185484434" id="-26433">
		<tag k="alt_name" v="Bytingstjørna" />
		<tag k="name" v="Byttingstjønna" />
		<tag k="natural" v="water" />
		<tag k="ssr:stedsnr" v="729146" />
	</node>
	<node lat="58.39466388729431" lon="8.17004443750899" id="-26434">
		<tag k="alt_name" v="Smallona" />
		<tag k="name" v="Smalelona" />
		<tag k="ssr:stedsnr" v="728397" />
		<tag k="waterway" v="stream" />
	</node>
	<node lat="58.34121944228267" lon="8.255099998596032" id="-26437">
		<tag k="name" v="Stemtjønn" />
		<tag k="natural" v="water" />
		<tag k="ssr:stedsnr" v="728331" />
	</node>
	<node lat="58.432063891972824" lon="8.257002772182778" id="-26439">
		<tag k="name" v="Tallakstjønn" />
		<tag k="natural" v="water" />
		<tag k="ssr:stedsnr" v="728340" />
	</node>
	<node lat="58.544016663284374" lon="7.9597694438500275" id="-26451">
		<tag k="name" v="Fiåna" />
		<tag k="ssr:stedsnr" v="729710" />
		<tag k="waterway" v="river" />
	</node>
	<node lat="58.29341666629884" lon="8.251955549354351" id="-26459">
		<tag k="name" v="Lonebekken" />
		<tag k="ssr:stedsnr" v="756279" />
		<tag k="waterway" v="stream" />
	</node>
	<node lat="58.330436113852066" lon="8.179366671535732" id="-26463">
		<tag k="name" v="Stemtjønn" />
		<tag k="natural" v="water" />
		<tag k="ssr:stedsnr" v="756372" />
	</node>
	<node lat="58.30996388883998" lon="8.257349995997862" id="-26465">
		<tag k="name" v="Igletjønn" />
		<tag k="natural" v="water" />
		<tag k="ssr:stedsnr" v="756770" />
	</node>
	<node lat="58.401599999490394" lon="8.25364443980366" id="-26483">
		<tag k="name" v="Søndle" />
		<tag k="natural" v="water" />
		<tag k="ssr:stedsnr" v="760786" />
		<tag k="water" v="pond" />
	</node>
	<node lat="58.44641111250489" lon="8.350211119106179" id="-26488">
		<tag k="name" v="Bråkonholmen" />
		<tag k="place" v="islet" />
		<tag k="ssr:stedsnr" v="761077" />
	</node>
</osm>
