<?xml version="1.0" encoding="UTF-8"?>
<osm version="0.6" generator="osmapis">
	<node lat="58.459186109718246" lon="8.332930557505232" id="-24647">
		<tag k="bridge" v="yes" />
		<tag k="layer" v="1" />
		<tag k="name" v="Åmli sag" />
		<tag k="ssr:stedsnr" v="46126" />
	</node>
	<node lat="58.320250003927995" lon="8.059586117024018" id="-24648">
		<tag k="bridge" v="yes" />
		<tag k="layer" v="1" />
		<tag k="name" v="Torjussteane" />
		<tag k="ssr:stedsnr" v="46134" />
	</node>
	<node lat="58.27993611129565" lon="8.179644447774882" id="-24649">
		<tag k="bridge" v="yes" />
		<tag k="layer" v="1" />
		<tag k="name" v="Myrene" />
		<tag k="ssr:stedsnr" v="46176" />
	</node>
	<node lat="58.53308055810155" lon="8.360124998346857" id="-24746">
		<tag k="highway" v="path" />
		<tag k="name" v="Brattekleiv" />
		<tag k="ssr:stedsnr" v="93262" />
	</node>
	<node lat="58.259508331155324" lon="8.159666670848981" id="-24764">
		<tag k="bridge" v="yes" />
		<tag k="layer" v="1" />
		<tag k="name" v="Foss bru" />
		<tag k="ssr:stedsnr" v="93977" />
	</node>
	<node lat="58.45564758369867" lon="8.391215735843527" id="-24839">
		<tag k="man_made" v="cairn" />
		<tag k="name" v="Gluggvarden" />
		<tag k="place" v="locality" />
		<tag k="ssr:stedsnr" v="113233" />
	</node>
	<node lat="58.363050002948384" lon="8.23307222290422" id="-24933">
		<tag k="bridge" v="yes" />
		<tag k="layer" v="1" />
		<tag k="name" v="Høykleivvannet" />
		<tag k="ssr:stedsnr" v="168172" />
	</node>
	<node lat="58.30585000417546" lon="8.259077776945018" id="-25022">
		<tag k="bridge" v="yes" />
		<tag k="layer" v="1" />
		<tag k="name" v="Jordbruna" />
		<tag k="ssr:stedsnr" v="270737" />
	</node>
	<node lat="58.359900003975774" lon="8.249638891774524" id="-25065">
		<tag k="bridge" v="yes" />
		<tag k="layer" v="1" />
		<tag k="name" v="Hagestadbekken" />
		<tag k="ssr:stedsnr" v="229185" />
	</node>
	<node lat="58.540849998002074" lon="8.175027780540098" id="-25139">
		<tag k="junction" v="yes" />
		<tag k="name" v="Stemlona" />
		<tag k="place" v="locality" />
		<tag k="ssr:stedsnr" v="267108" />
	</node>
	<node lat="58.52895000155312" lon="7.987480555445746" id="-25311">
		<tag k="bridge" v="yes" />
		<tag k="layer" v="1" />
		<tag k="name" v="Vassvatn" />
		<tag k="ssr:stedsnr" v="471130" />
	</node>
	<node lat="58.57716944617822" lon="8.151741663498758" id="-25312">
		<tag k="bridge" v="yes" />
		<tag k="layer" v="1" />
		<tag k="name" v="Fidjedalen" />
		<tag k="ssr:stedsnr" v="471149" />
	</node>
	<node lat="58.36197499727397" lon="8.243722222106795" id="-25329">
		<tag k="highway" v="path" />
		<tag k="name" v="Gamlekleivane" />
		<tag k="ssr:stedsnr" v="336859" />
	</node>
	<node lat="58.41715000329745" lon="8.29271388255207" id="-25369">
		<tag k="bridge" v="yes" />
		<tag k="layer" v="1" />
		<tag k="name" v="Senumstad bru" />
		<tag k="ssr:stedsnr" v="350158" />
	</node>
	<node lat="58.519711113978666" lon="8.36013055772241" id="-25370">
		<tag k="bridge" v="yes" />
		<tag k="layer" v="1" />
		<tag k="name" v="Lauvlifoss" />
		<tag k="ssr:stedsnr" v="350165" />
	</node>
	<node lat="58.55161111446005" lon="8.032280556735715" id="-25382">
		<tag k="man_made" v="cairn" />
		<tag k="name" v="Grønelirøysa" />
		<tag k="place" v="locality" />
		<tag k="ssr:stedsnr" v="474281" />
	</node>
	<node lat="58.34363055578075" lon="8.182769444594811" id="-25450">
		<tag k="highway" v="path" />
		<tag k="name" v="Ekeli kleiver" />
		<tag k="ssr:stedsnr" v="392392" />
	</node>
	<node lat="58.338774996595774" lon="8.22128333386548" id="-25453">
		<tag k="bridge" v="yes" />
		<tag k="layer" v="1" />
		<tag k="name" v="Flakkebrua" />
		<tag k="ssr:stedsnr" v="392411" />
	</node>
	<node lat="58.46553888709001" lon="8.111772226108023" id="-25563">
		<tag k="bridge" v="yes" />
		<tag k="layer" v="1" />
		<tag k="name" v="Skreros" />
		<tag k="ssr:stedsnr" v="411166" />
	</node>
	<node lat="58.54989444662103" lon="8.214047223539469" id="-25569">
		<tag k="bridge" v="yes" />
		<tag k="layer" v="1" />
		<tag k="name" v="Rekslønbrua" />
		<tag k="ssr:stedsnr" v="413493" />
	</node>
	<node lat="58.54084444350002" lon="8.17511110611609" id="-25729">
		<tag k="bridge" v="yes" />
		<tag k="layer" v="1" />
		<tag k="name" v="Stemlona" />
		<tag k="ssr:stedsnr" v="471172" />
	</node>
	<node lat="58.537869441805334" lon="8.156511112848541" id="-25730">
		<tag k="bridge" v="yes" />
		<tag k="layer" v="1" />
		<tag k="name" v="Prestsund" />
		<tag k="ssr:stedsnr" v="471178" />
	</node>
	<node lat="58.426275003435464" lon="8.210377785799201" id="-25958">
		<tag k="man_made" v="cairn" />
		<tag k="name" v="Trotto" />
		<tag k="place" v="locality" />
		<tag k="ssr:stedsnr" v="590323" />
	</node>
	<node lat="58.53272222345564" lon="8.118527776807417" id="-25990">
		<tag k="bridge" v="yes" />
		<tag k="layer" v="1" />
		<tag k="name" v="Engesland" />
		<tag k="ssr:stedsnr" v="592160" />
	</node>
	<node lat="58.327263890705495" lon="8.236330548838822" id="-25991">
		<tag k="bridge" v="yes" />
		<tag k="layer" v="1" />
		<tag k="name" v="Birkeland" />
		<tag k="ssr:stedsnr" v="592162" />
	</node>
	<node lat="58.514258330525294" lon="8.379466674733848" id="-26063">
		<tag k="highway" v="path" />
		<tag k="name" v="Prestekleiva" />
		<tag k="ssr:stedsnr" v="700253" />
	</node>
	<node lat="58.506630556667254" lon="8.283552782921253" id="-26116">
		<tag k="fixme" v="verify maritime location" />
		<tag k="mooring" v="yes" />
		<tag k="name" v="Vinterstøa" />
		<tag k="place" v="locality" />
		<tag k="ssr:stedsnr" v="639285" />
	</node>
	<node lat="58.47098889001143" lon="8.337616665608733" id="-26291">
		<tag k="bridge" v="yes" />
		<tag k="layer" v="1" />
		<tag k="name" v="Fjerdingsbekk" />
		<tag k="ssr:stedsnr" v="896143" />
	</node>
	<node lat="58.50848611089718" lon="8.344716666896378" id="-26292">
		<tag k="bridge" v="yes" />
		<tag k="layer" v="1" />
		<tag k="name" v="Askeråna" />
		<tag k="ssr:stedsnr" v="896149" />
	</node>
	<node lat="58.52182499571273" lon="8.35172222600407" id="-26343">
		<tag k="bridge" v="yes" />
		<tag k="layer" v="1" />
		<tag k="name" v="Brobakken" />
		<tag k="ssr:stedsnr" v="714124" />
	</node>
</osm>
