<?xml version="1.0" encoding="UTF-8"?>
<osm version="0.6" generator="osmapis">
	<node lat="58.295733329989275" lon="8.129341674927824" id="-32348">
		<tag k="name" v="Risdalen" />
		<tag k="natural" v="valley" />
		<tag k="place" v="locality" />
		<tag k="ssr:stedsnr" v="302" />
	</node>
	<node lat="58.36044999965279" lon="8.141524998691668" id="-32350">
		<tag k="fixme" v="consider natural=peak for the most distinct mountains in the district" />
		<tag k="name" v="Vesterhei" />
		<tag k="natural" v="hill" />
		<tag k="place" v="locality" />
		<tag k="ssr:stedsnr" v="357" />
	</node>
	<node lat="58.40754166377454" lon="8.22044999432854" id="-32357">
		<tag k="fixme" v="consider natural=peak for the most distinct mountains in the district" />
		<tag k="name" v="Kartmyrheia" />
		<tag k="natural" v="hill" />
		<tag k="place" v="locality" />
		<tag k="ssr:stedsnr" v="418" />
	</node>
	<node lat="58.403213893108926" lon="8.205705559417783" id="-32368">
		<tag k="name" v="Beindalen" />
		<tag k="natural" v="valley" />
		<tag k="place" v="locality" />
		<tag k="ssr:stedsnr" v="286499" />
	</node>
	<node lat="58.565636115526225" lon="8.130580552123584" id="-32369">
		<tag k="name" v="Krossdalane" />
		<tag k="natural" v="valley" />
		<tag k="place" v="locality" />
		<tag k="ssr:stedsnr" v="231127" />
	</node>
	<node lat="58.53986944005882" lon="8.02572222380048" id="-32371">
		<tag k="name" v="Salbustad" />
		<tag k="natural" v="slope" />
		<tag k="place" v="locality" />
		<tag k="ssr:stedsnr" v="231330" />
	</node>
	<node lat="58.58981666374767" lon="8.181677783955855" id="-32376">
		<tag k="name" v="Geitedalen" />
		<tag k="natural" v="valley" />
		<tag k="place" v="locality" />
		<tag k="ssr:stedsnr" v="231744" />
	</node>
	<node lat="58.610574999348536" lon="8.178269442524037" id="-32377">
		<tag k="name" v="Almedalskrona" />
		<tag k="natural" v="valley" />
		<tag k="place" v="locality" />
		<tag k="ssr:stedsnr" v="231745" />
	</node>
	<node lat="58.60252777597388" lon="8.191925005737213" id="-32380">
		<tag k="name" v="Lauvdalsfjell" />
		<tag k="natural" v="cliff" />
		<tag k="ssr:stedsnr" v="231751" />
	</node>
	<node lat="58.5151527814373" lon="8.066555553646605" id="-32382">
		<tag k="name" v="Ekorndalen" />
		<tag k="natural" v="valley" />
		<tag k="place" v="locality" />
		<tag k="ssr:stedsnr" v="231970" />
	</node>
	<node lat="58.51561666976459" lon="8.09088055206283" id="-32383">
		<tag k="name" v="Astriddalen" />
		<tag k="natural" v="valley" />
		<tag k="place" v="locality" />
		<tag k="ssr:stedsnr" v="231977" />
	</node>
	<node lat="58.50589721871962" lon="8.104825008520823" id="-32384">
		<tag k="name" v="Lauvlihella" />
		<tag k="natural" v="ridge" />
		<tag k="place" v="locality" />
		<tag k="ssr:stedsnr" v="231983" />
	</node>
	<node lat="58.50358610853944" lon="8.09818889204897" id="-32386">
		<tag k="name" v="Lauversdalen" />
		<tag k="natural" v="valley" />
		<tag k="place" v="locality" />
		<tag k="ssr:stedsnr" v="231997" />
	</node>
	<node lat="58.51336111257033" lon="8.026902769203975" id="-32388">
		<tag k="fixme" v="consider natural=peak for the most distinct mountains in the district" />
		<tag k="name" v="Kråkebakken" />
		<tag k="natural" v="hill" />
		<tag k="place" v="locality" />
		<tag k="ssr:stedsnr" v="232066" />
	</node>
	<node lat="58.54790833398134" lon="7.979283327800725" id="-32394">
		<tag k="name" v="Ospedalen" />
		<tag k="natural" v="valley" />
		<tag k="place" v="locality" />
		<tag k="ssr:stedsnr" v="232590" />
	</node>
	<node lat="58.485502776809824" lon="8.078416671517008" id="-32396">
		<tag k="name" v="Stemvasslia" />
		<tag k="natural" v="slope" />
		<tag k="place" v="locality" />
		<tag k="ssr:stedsnr" v="232920" />
	</node>
	<node lat="58.323402778949436" lon="8.270555547077736" id="-32400">
		<tag k="fixme" v="consider natural=peak for the most distinct mountains in the district" />
		<tag k="name" v="Gunsteinsås" />
		<tag k="natural" v="hill" />
		<tag k="place" v="locality" />
		<tag k="ssr:stedsnr" v="27773" />
	</node>
	<node lat="58.2515444452055" lon="8.243599995657997" id="-32401">
		<tag k="fixme" v="consider natural=peak for the most distinct mountains in the district" />
		<tag k="name" v="Heftåsen" />
		<tag k="natural" v="hill" />
		<tag k="place" v="locality" />
		<tag k="ssr:stedsnr" v="28324" />
	</node>
	<node lat="58.299663892704785" lon="8.239180552418903" id="-32402">
		<tag k="name" v="Gillarhaugen" />
		<tag k="natural" v="hill" />
		<tag k="place" v="locality" />
		<tag k="ssr:stedsnr" v="28281" />
	</node>
	<node lat="58.30098055589145" lon="8.239347226190725" id="-32403">
		<tag k="name" v="Tveidemoner" />
		<tag k="place" v="locality" />
		<tag k="ssr:stedsnr" v="28282" />
	</node>
	<node lat="58.34161388518207" lon="8.25971110419507" id="-32404">
		<tag k="name" v="Skårefjellane" />
		<tag k="place" v="locality" />
		<tag k="ssr:stedsnr" v="28407" />
	</node>
	<node lat="58.34533889193769" lon="8.308344439559352" id="-32405">
		<tag k="fixme" v="consider natural=peak for the most distinct mountains in the district" />
		<tag k="name" v="Lille Torsteinsås" />
		<tag k="natural" v="hill" />
		<tag k="place" v="locality" />
		<tag k="ssr:stedsnr" v="28681" />
	</node>
	<node lat="58.338091668674366" lon="8.307249995926265" id="-32406">
		<tag k="name" v="Ryggen" />
		<tag k="natural" v="ridge" />
		<tag k="place" v="locality" />
		<tag k="ssr:stedsnr" v="28682" />
	</node>
	<node lat="58.417052776076005" lon="8.27576111748333" id="-32409">
		<tag k="fixme" v="consider natural=peak for the most distinct mountains in the district" />
		<tag k="name" v="Ureheia" />
		<tag k="natural" v="hill" />
		<tag k="place" v="locality" />
		<tag k="ssr:stedsnr" v="32014" />
	</node>
	<node lat="58.429450001440465" lon="8.314630560288489" id="-32411">
		<tag k="name" v="Hestedalen" />
		<tag k="natural" v="valley" />
		<tag k="place" v="locality" />
		<tag k="ssr:stedsnr" v="32025" />
	</node>
	<node lat="58.439452776568" lon="8.314908332511664" id="-32412">
		<tag k="name" v="Eikemoen" />
		<tag k="place" v="locality" />
		<tag k="ssr:stedsnr" v="32069" />
	</node>
	<node lat="58.450886107666705" lon="8.327502771127007" id="-32414">
		<tag k="name" v="Ålekjerrdalen" />
		<tag k="natural" v="valley" />
		<tag k="place" v="locality" />
		<tag k="ssr:stedsnr" v="32075" />
	</node>
	<node lat="58.58045555832888" lon="8.375472215826276" id="-32418">
		<tag k="name" v="Myrkroklia" />
		<tag k="natural" v="slope" />
		<tag k="place" v="locality" />
		<tag k="ssr:stedsnr" v="32296" />
	</node>
	<node lat="58.352463890614715" lon="8.271905550143774" id="-32423">
		<tag k="fixme" v="consider natural=peak for the most distinct mountains in the district" />
		<tag k="name" v="Åsane" />
		<tag k="natural" v="hill" />
		<tag k="place" v="locality" />
		<tag k="ssr:stedsnr" v="32804" />
	</node>
	<node lat="58.4062555581743" lon="8.223344443916904" id="-32426">
		<tag k="fixme" v="consider natural=peak for the most distinct mountains in the district" />
		<tag k="name" v="Heggelfjell" />
		<tag k="natural" v="hill" />
		<tag k="place" v="locality" />
		<tag k="ssr:stedsnr" v="32770" />
	</node>
	<node lat="58.256322225084524" lon="8.179094450301891" id="-32430">
		<tag k="name" v="Hestvassdalen" />
		<tag k="natural" v="valley" />
		<tag k="place" v="locality" />
		<tag k="ssr:stedsnr" v="32917" />
	</node>
	<node lat="58.29861667021" lon="8.154816670127005" id="-32431">
		<tag k="fixme" v="consider natural=peak for the most distinct mountains in the district" />
		<tag k="name" v="Roligknutten" />
		<tag k="natural" v="hill" />
		<tag k="place" v="locality" />
		<tag k="ssr:stedsnr" v="32968" />
	</node>
	<node lat="58.3237777762098" lon="8.19496111170517" id="-32433">
		<tag k="name" v="Tollemoen" />
		<tag k="place" v="locality" />
		<tag k="ssr:stedsnr" v="32984" />
	</node>
	<node lat="58.45040833124539" lon="8.101263895953917" id="-32435">
		<tag k="fixme" v="consider natural=peak for the most distinct mountains in the district" />
		<tag k="name" v="Kvennhusåsen" />
		<tag k="natural" v="hill" />
		<tag k="place" v="locality" />
		<tag k="ssr:stedsnr" v="43526" />
	</node>
	<node lat="58.442938891895515" lon="8.089747220388574" id="-32436">
		<tag k="name" v="Bjønndalsliane" />
		<tag k="natural" v="slope" />
		<tag k="place" v="locality" />
		<tag k="ssr:stedsnr" v="43528" />
	</node>
	<node lat="58.40415277881956" lon="8.203272220324218" id="-32437">
		<tag k="name" v="Gausbergknuten" />
		<tag k="natural" v="hill" />
		<tag k="place" v="locality" />
		<tag k="ssr:stedsnr" v="43474" />
	</node>
	<node lat="58.54433611017592" lon="8.240983330827824" id="-32438">
		<tag k="name" v="Kvæven" />
		<tag k="natural" v="valley" />
		<tag k="place" v="locality" />
		<tag k="ssr:stedsnr" v="44115" />
	</node>
	<node lat="58.364125003299044" lon="8.16705555939449" id="-32443">
		<tag k="name" v="Lusedalen" />
		<tag k="natural" v="valley" />
		<tag k="place" v="locality" />
		<tag k="ssr:stedsnr" v="44333" />
	</node>
	<node lat="58.36130277415101" lon="8.11806110698372" id="-32444">
		<tag k="fixme" v="consider natural=peak for the most distinct mountains in the district" />
		<tag k="name" v="Mellemheia" />
		<tag k="natural" v="hill" />
		<tag k="place" v="locality" />
		<tag k="ssr:stedsnr" v="44340" />
	</node>
	<node lat="58.371349996483744" lon="8.18784167521474" id="-32445">
		<tag k="name" v="Skårgongen" />
		<tag k="natural" v="valley" />
		<tag k="place" v="locality" />
		<tag k="ssr:stedsnr" v="44378" />
	</node>
	<node lat="58.38084167028799" lon="8.189241665047009" id="-32446">
		<tag k="name" v="Rommundsdal" />
		<tag k="natural" v="valley" />
		<tag k="place" v="locality" />
		<tag k="ssr:stedsnr" v="44384" />
	</node>
	<node lat="58.40053055536185" lon="8.124722215675536" id="-32447">
		<tag k="name" v="Øytjønndalen" />
		<tag k="natural" v="valley" />
		<tag k="place" v="locality" />
		<tag k="ssr:stedsnr" v="44403" />
	</node>
	<node lat="58.36486944627938" lon="8.18915832542894" id="-32448">
		<tag k="name" v="Daleheia" />
		<tag k="natural" v="hill" />
		<tag k="place" v="locality" />
		<tag k="ssr:stedsnr" v="44408" />
	</node>
	<node lat="58.40871111002822" lon="8.143222218357199" id="-32450">
		<tag k="name" v="Fjellbrekka" />
		<tag k="natural" v="hill" />
		<tag k="place" v="locality" />
		<tag k="ssr:stedsnr" v="44416" />
	</node>
	<node lat="58.36107777828963" lon="8.18157778112637" id="-32451">
		<tag k="fixme" v="consider natural=peak for the most distinct mountains in the district" />
		<tag k="name" v="Øygardsåsen" />
		<tag k="natural" v="hill" />
		<tag k="place" v="locality" />
		<tag k="ssr:stedsnr" v="44422" />
	</node>
	<node lat="58.393891666690045" lon="8.14087777587945" id="-32452">
		<tag k="name" v="Mørkeli" />
		<tag k="natural" v="slope" />
		<tag k="place" v="locality" />
		<tag k="ssr:stedsnr" v="44426" />
	</node>
	<node lat="58.3674138890608" lon="8.168333333097456" id="-32454">
		<tag k="name" v="Langemyrfjella" />
		<tag k="natural" v="ridge" />
		<tag k="place" v="locality" />
		<tag k="ssr:stedsnr" v="44431" />
	</node>
	<node lat="58.39978888497018" lon="8.185183338997966" id="-32458">
		<tag k="name" v="Trommefjell" />
		<tag k="natural" v="cliff" />
		<tag k="ssr:stedsnr" v="44472" />
	</node>
	<node lat="58.4189333304294" lon="8.150969452495653" id="-32459">
		<tag k="name" v="Grundetjønnlia" />
		<tag k="natural" v="slope" />
		<tag k="place" v="locality" />
		<tag k="ssr:stedsnr" v="44486" />
	</node>
	<node lat="58.40287222027112" lon="8.166949992847247" id="-32460">
		<tag k="name" v="Trolldalsheia" />
		<tag k="natural" v="hill" />
		<tag k="place" v="locality" />
		<tag k="ssr:stedsnr" v="44490" />
	</node>
	<node lat="58.42275555525032" lon="8.136174996941898" id="-32461">
		<tag k="name" v="Vestre Bjørklundsdal" />
		<tag k="natural" v="valley" />
		<tag k="place" v="locality" />
		<tag k="ssr:stedsnr" v="44492" />
	</node>
	<node lat="58.41245555206179" lon="8.272294446129493" id="-32462">
		<tag k="name" v="Bjelkedalen" />
		<tag k="natural" v="valley" />
		<tag k="place" v="locality" />
		<tag k="ssr:stedsnr" v="44493" />
	</node>
	<node lat="58.38535833234042" lon="8.108013884752548" id="-32467">
		<tag k="name" v="Digehallane" />
		<tag k="natural" v="slope" />
		<tag k="place" v="locality" />
		<tag k="ssr:stedsnr" v="44625" />
	</node>
	<node lat="58.454386112018085" lon="8.082097213834725" id="-32468">
		<tag k="name" v="Hauglandsfjellet" />
		<tag k="natural" v="cliff" />
		<tag k="ssr:stedsnr" v="44634" />
	</node>
	<node lat="58.458491667315094" lon="8.099380548283605" id="-32470">
		<tag k="name" v="Finslandsfjellet" />
		<tag k="natural" v="cliff" />
		<tag k="ssr:stedsnr" v="44639" />
	</node>
	<node lat="58.36139722226257" lon="8.07022499352908" id="-32474">
		<tag k="name" v="Kleppåsen" />
		<tag k="natural" v="hill" />
		<tag k="place" v="locality" />
		<tag k="ssr:stedsnr" v="44678" />
	</node>
	<node lat="58.492958330374" lon="8.19629166097516" id="-32475">
		<tag k="name" v="Bordalsheia" />
		<tag k="natural" v="hill" />
		<tag k="place" v="locality" />
		<tag k="ssr:stedsnr" v="44805" />
	</node>
	<node lat="58.46267500139083" lon="8.233530553022495" id="-32477">
		<tag k="name" v="Svoefjella" />
		<tag k="natural" v="cliff" />
		<tag k="ssr:stedsnr" v="44811" />
	</node>
	<node lat="58.5381861127418" lon="8.250299991652724" id="-32480">
		<tag k="name" v="Grandalsheia" />
		<tag k="natural" v="hill" />
		<tag k="place" v="locality" />
		<tag k="ssr:stedsnr" v="44885" />
	</node>
	<node lat="58.533597218519965" lon="8.248411107580214" id="-32481">
		<tag k="name" v="Vaheia" />
		<tag k="natural" v="slope" />
		<tag k="place" v="locality" />
		<tag k="ssr:stedsnr" v="44887" />
	</node>
	<node lat="58.49454444879866" lon="8.248016658138322" id="-32482">
		<tag k="name" v="Bagdalen" />
		<tag k="natural" v="valley" />
		<tag k="place" v="locality" />
		<tag k="ssr:stedsnr" v="44777" />
	</node>
	<node lat="58.475677774093825" lon="8.208811113021895" id="-32483">
		<tag k="name" v="Ramsedalen" />
		<tag k="natural" v="valley" />
		<tag k="place" v="locality" />
		<tag k="ssr:stedsnr" v="44778" />
	</node>
	<node lat="58.47885833547365" lon="8.197599997477521" id="-32484">
		<tag k="name" v="Småliane" />
		<tag k="natural" v="slope" />
		<tag k="place" v="locality" />
		<tag k="ssr:stedsnr" v="44779" />
	</node>
	<node lat="58.481383337087095" lon="8.211505562424302" id="-32485">
		<tag k="name" v="Bjønndalshei" />
		<tag k="natural" v="hill" />
		<tag k="place" v="locality" />
		<tag k="ssr:stedsnr" v="44781" />
	</node>
	<node lat="58.47909444082538" lon="8.188138887292935" id="-32486">
		<tag k="name" v="Storemyrdalane" />
		<tag k="natural" v="valley" />
		<tag k="place" v="locality" />
		<tag k="ssr:stedsnr" v="44792" />
	</node>
	<node lat="58.48673611463925" lon="8.167847225444214" id="-32487">
		<tag k="fixme" v="consider natural=peak for the most distinct mountains in the district" />
		<tag k="name" v="Tolleshei" />
		<tag k="natural" v="hill" />
		<tag k="place" v="locality" />
		<tag k="ssr:stedsnr" v="44796" />
	</node>
	<node lat="58.51711944163759" lon="8.272208330781401" id="-32490">
		<tag k="name" v="Matstadknatten" />
		<tag k="natural" v="hill" />
		<tag k="place" v="locality" />
		<tag k="ssr:stedsnr" v="44905" />
	</node>
	<node lat="58.51224999824594" lon="8.249200001185413" id="-32491">
		<tag k="name" v="Ålekjerrdalen" />
		<tag k="natural" v="valley" />
		<tag k="place" v="locality" />
		<tag k="ssr:stedsnr" v="44912" />
	</node>
	<node lat="58.56915024957175" lon="8.097347870762551" id="-32495">
		<tag k="name" v="Storejåren" />
		<tag k="natural" v="hill" />
		<tag k="place" v="locality" />
		<tag k="ssr:stedsnr" v="49111" />
	</node>
	<node lat="58.53723055583392" lon="7.9923722300530065" id="-32496">
		<tag k="name" v="Ospedalsfjellet" />
		<tag k="natural" v="ridge" />
		<tag k="place" v="locality" />
		<tag k="ssr:stedsnr" v="49030" />
	</node>
	<node lat="58.5517055512367" lon="8.037211111391523" id="-32497">
		<tag k="name" v="Grøneliane" />
		<tag k="natural" v="slope" />
		<tag k="place" v="locality" />
		<tag k="ssr:stedsnr" v="49310" />
	</node>
	<node lat="58.53188055250156" lon="7.948777778901615" id="-32498">
		<tag k="name" v="Høgåsknotten" />
		<tag k="natural" v="hill" />
		<tag k="place" v="locality" />
		<tag k="ssr:stedsnr" v="49522" />
	</node>
	<node lat="58.58646667014098" lon="8.204547225862667" id="-32499">
		<tag k="name" v="Djupedalen" />
		<tag k="natural" v="valley" />
		<tag k="place" v="locality" />
		<tag k="ssr:stedsnr" v="49711" />
	</node>
	<node lat="58.58478055151872" lon="8.206636107638188" id="-32500">
		<tag k="name" v="Djupedalen" />
		<tag k="natural" v="valley" />
		<tag k="place" v="locality" />
		<tag k="ssr:stedsnr" v="49712" />
	</node>
	<node lat="58.58640555974053" lon="8.176538885719527" id="-32501">
		<tag k="name" v="Byttesteinknatten" />
		<tag k="natural" v="hill" />
		<tag k="place" v="locality" />
		<tag k="ssr:stedsnr" v="49714" />
	</node>
	<node lat="58.5285694463259" lon="8.00558333137279" id="-32502">
		<tag k="name" v="Koven" />
		<tag k="natural" v="valley" />
		<tag k="place" v="locality" />
		<tag k="ssr:stedsnr" v="49717" />
	</node>
	<node lat="58.62529444105997" lon="8.15943610846133" id="-32503">
		<tag k="name" v="Mannfall" />
		<tag k="natural" v="hill" />
		<tag k="place" v="locality" />
		<tag k="ssr:stedsnr" v="49685" />
	</node>
	<node lat="58.50586666548912" lon="8.115716672408162" id="-32505">
		<tag k="name" v="Håverstadknuten" />
		<tag k="natural" v="hill" />
		<tag k="place" v="locality" />
		<tag k="ssr:stedsnr" v="49907" />
	</node>
	<node lat="58.51309166870988" lon="8.068066670974876" id="-32507">
		<tag k="fixme" v="consider natural=peak for the most distinct mountains in the district" />
		<tag k="name" v="Stutåsane" />
		<tag k="natural" v="hill" />
		<tag k="place" v="locality" />
		<tag k="ssr:stedsnr" v="49972" />
	</node>
	<node lat="58.521169442651846" lon="8.216266669674969" id="-32510">
		<tag k="name" v="Kleivane" />
		<tag k="natural" v="slope" />
		<tag k="place" v="locality" />
		<tag k="ssr:stedsnr" v="50103" />
	</node>
	<node lat="58.52854167083378" lon="8.181661119141296" id="-32511">
		<tag k="name" v="Toskebufjellet" />
		<tag k="natural" v="hill" />
		<tag k="place" v="locality" />
		<tag k="ssr:stedsnr" v="50113" />
	</node>
	<node lat="58.52282778174335" lon="8.116288893009104" id="-32512">
		<tag k="name" v="Mordalsfjellet" />
		<tag k="natural" v="cliff" />
		<tag k="ssr:stedsnr" v="50120" />
	</node>
	<node lat="58.532791669415595" lon="8.061122213605678" id="-32514">
		<tag k="name" v="Røylandsdalen" />
		<tag k="natural" v="valley" />
		<tag k="place" v="locality" />
		<tag k="ssr:stedsnr" v="50225" />
	</node>
	<node lat="58.55343888927901" lon="7.960291661695577" id="-32515">
		<tag k="name" v="Hellersdalen" />
		<tag k="natural" v="valley" />
		<tag k="place" v="locality" />
		<tag k="ssr:stedsnr" v="50616" />
	</node>
	<node lat="58.49265277475185" lon="8.084269452039186" id="-32517">
		<tag k="name" v="Styggtjønnheia" />
		<tag k="natural" v="hill" />
		<tag k="place" v="locality" />
		<tag k="ssr:stedsnr" v="50904" />
	</node>
	<node lat="58.476977780526624" lon="8.119950008397916" id="-32521">
		<tag k="name" v="Tjomesteane" />
		<tag k="place" v="locality" />
		<tag k="ssr:stedsnr" v="50821" />
	</node>
	<node lat="58.518577779954214" lon="7.965691673480645" id="-32522">
		<tag k="fixme" v="consider natural=peak for the most distinct mountains in the district" />
		<tag k="name" v="Langås" />
		<tag k="natural" v="hill" />
		<tag k="place" v="locality" />
		<tag k="ssr:stedsnr" v="50878" />
	</node>
	<node lat="58.42553055887952" lon="8.13351666179954" id="-32524">
		<tag k="fixme" v="consider natural=peak for the most distinct mountains in the district" />
		<tag k="name" v="Knuten" />
		<tag k="natural" v="hill" />
		<tag k="place" v="locality" />
		<tag k="ssr:stedsnr" v="60391" />
	</node>
	<node lat="58.486858334016276" lon="8.034775000972108" id="-32528">
		<tag k="name" v="Fjermedalen" />
		<tag k="natural" v="valley" />
		<tag k="place" v="locality" />
		<tag k="ssr:stedsnr" v="61186" />
	</node>
	<node lat="58.37496388676253" lon="8.227444452530161" id="-32536">
		<tag k="alt_name" v="Glafjell" />
		<tag k="fixme" v="consider natural=peak for the most distinct mountains in the district" />
		<tag k="name" v="Gladfjell" />
		<tag k="natural" v="hill" />
		<tag k="place" v="locality" />
		<tag k="ssr:stedsnr" v="61323" />
	</node>
	<node lat="58.537674996518874" lon="8.289361103276647" id="-32540">
		<tag k="alt_name" v="Råbufjellet" />
		<tag k="fixme" v="consider natural=peak for the most distinct mountains in the district" />
		<tag k="name" v="Robufjell" />
		<tag k="natural" v="hill" />
		<tag k="place" v="locality" />
		<tag k="ssr:stedsnr" v="62181" />
	</node>
	<node lat="58.49737500100558" lon="8.279247230051773" id="-32545">
		<tag k="fixme" v="consider natural=peak for the most distinct mountains in the district" />
		<tag k="name" v="Oksla" />
		<tag k="natural" v="hill" />
		<tag k="place" v="locality" />
		<tag k="ssr:stedsnr" v="243027" />
	</node>
	<node lat="58.501891666493805" lon="8.142761105014026" id="-32546">
		<tag k="fixme" v="consider natural=peak for the most distinct mountains in the district" />
		<tag k="name" v="Katteheia" />
		<tag k="natural" v="hill" />
		<tag k="place" v="locality" />
		<tag k="ssr:stedsnr" v="243034" />
	</node>
	<node lat="58.37159722307713" lon="8.28078610516644" id="-32559">
		<tag k="fixme" v="consider natural=peak for the most distinct mountains in the district" />
		<tag k="name" v="Skibberheia" />
		<tag k="natural" v="hill" />
		<tag k="place" v="locality" />
		<tag k="ssr:stedsnr" v="243333" />
	</node>
	<node lat="58.46561666772633" lon="8.189680560851821" id="-32565">
		<tag k="fixme" v="consider natural=peak for the most distinct mountains in the district" />
		<tag k="name" v="Lunseheia" />
		<tag k="natural" v="hill" />
		<tag k="place" v="locality" />
		<tag k="ssr:stedsnr" v="243459" />
	</node>
	<node lat="58.45523611241998" lon="8.349325006980902" id="-32567">
		<tag k="alt_name" v="Lauvåsheia" />
		<tag k="fixme" v="consider natural=peak for the most distinct mountains in the district" />
		<tag k="name" v="Lauvåsen" />
		<tag k="natural" v="hill" />
		<tag k="place" v="locality" />
		<tag k="ssr:stedsnr" v="243479" />
	</node>
	<node lat="58.527486112481746" lon="8.218936111960675" id="-32570">
		<tag k="fixme" v="consider natural=peak for the most distinct mountains in the district" />
		<tag k="name" v="Åsen" />
		<tag k="natural" v="hill" />
		<tag k="place" v="locality" />
		<tag k="ssr:stedsnr" v="244166" />
	</node>
	<node lat="58.607783332061146" lon="8.16748333661319" id="-32572">
		<tag k="fixme" v="consider natural=peak for the most distinct mountains in the district" />
		<tag k="name" v="Langebergsheia" />
		<tag k="natural" v="hill" />
		<tag k="place" v="locality" />
		<tag k="ssr:stedsnr" v="244357" />
	</node>
	<node lat="58.32666666964435" lon="8.289419451881898" id="-32577">
		<tag k="fixme" v="consider natural=peak for the most distinct mountains in the district" />
		<tag k="name" v="Oddeklovheia" />
		<tag k="natural" v="hill" />
		<tag k="place" v="locality" />
		<tag k="ssr:stedsnr" v="88390" />
	</node>
	<node lat="58.3741166672223" lon="8.31128610977476" id="-32582">
		<tag k="fixme" v="consider natural=peak for the most distinct mountains in the district" />
		<tag k="name" v="Tørrfallheia" />
		<tag k="natural" v="hill" />
		<tag k="place" v="locality" />
		<tag k="ssr:stedsnr" v="93003" />
	</node>
	<node lat="58.41203888996636" lon="8.297011102760235" id="-32583">
		<tag k="name" v="Eskedalen" />
		<tag k="natural" v="valley" />
		<tag k="place" v="locality" />
		<tag k="ssr:stedsnr" v="93019" />
	</node>
	<node lat="58.45423888787216" lon="8.314441671310332" id="-32586">
		<tag k="name" v="Gildalen" />
		<tag k="natural" v="valley" />
		<tag k="place" v="locality" />
		<tag k="ssr:stedsnr" v="93109" />
	</node>
	<node lat="58.51430555377444" lon="8.3257305632084" id="-32590">
		<tag k="fixme" v="consider natural=peak for the most distinct mountains in the district" />
		<tag k="name" v="Beitedalsfjell" />
		<tag k="natural" v="hill" />
		<tag k="place" v="locality" />
		<tag k="ssr:stedsnr" v="93226" />
	</node>
	<node lat="58.54644166384626" lon="8.352411109035705" id="-32592">
		<tag k="fixme" v="consider natural=peak for the most distinct mountains in the district" />
		<tag k="name" v="Bråknatten" />
		<tag k="natural" v="hill" />
		<tag k="place" v="locality" />
		<tag k="ssr:stedsnr" v="93268" />
	</node>
	<node lat="58.573008332642885" lon="8.439352776146325" id="-32597">
		<tag k="fixme" v="consider natural=peak for the most distinct mountains in the district" />
		<tag k="name" v="Skarketjennheia" />
		<tag k="natural" v="hill" />
		<tag k="place" v="locality" />
		<tag k="ssr:stedsnr" v="93315" />
	</node>
	<node lat="58.381400002031874" lon="8.288738889867371" id="-32601">
		<tag k="fixme" v="consider natural=peak for the most distinct mountains in the district" />
		<tag k="name" v="Tvitjennåsen" />
		<tag k="natural" v="hill" />
		<tag k="place" v="locality" />
		<tag k="ssr:stedsnr" v="93710" />
	</node>
	<node lat="58.40013611328284" lon="8.239611108396035" id="-32603">
		<tag k="name" v="Striehola" />
		<tag k="natural" v="valley" />
		<tag k="place" v="locality" />
		<tag k="ssr:stedsnr" v="93718" />
	</node>
	<node lat="58.40530832985075" lon="8.241330556569185" id="-32604">
		<tag k="fixme" v="consider natural=peak for the most distinct mountains in the district" />
		<tag k="name" v="Ramsetjønnåsen" />
		<tag k="natural" v="hill" />
		<tag k="place" v="locality" />
		<tag k="ssr:stedsnr" v="93721" />
	</node>
	<node lat="58.38093888671062" lon="8.238530551077826" id="-32605">
		<tag k="name" v="Mosfjelldalen" />
		<tag k="natural" v="valley" />
		<tag k="place" v="locality" />
		<tag k="ssr:stedsnr" v="93763" />
	</node>
	<node lat="58.37240555280819" lon="8.234116664720327" id="-32606">
		<tag k="fixme" v="consider natural=peak for the most distinct mountains in the district" />
		<tag k="name" v="Tangåsen" />
		<tag k="natural" v="hill" />
		<tag k="place" v="locality" />
		<tag k="ssr:stedsnr" v="93770" />
	</node>
	<node lat="58.31295833330577" lon="8.18114722346861" id="-32608">
		<tag k="name" v="Eikelia" />
		<tag k="natural" v="slope" />
		<tag k="place" v="locality" />
		<tag k="ssr:stedsnr" v="93965" />
	</node>
	<node lat="58.28012499836592" lon="8.158208336059458" id="-32610">
		<tag k="fixme" v="consider natural=peak for the most distinct mountains in the district" />
		<tag k="name" v="Mjønåsen" />
		<tag k="natural" v="hill" />
		<tag k="place" v="locality" />
		<tag k="ssr:stedsnr" v="93978" />
	</node>
	<node lat="58.44735555238319" lon="8.198644437172304" id="-32612">
		<tag k="name" v="Uførsdalen" />
		<tag k="natural" v="valley" />
		<tag k="place" v="locality" />
		<tag k="ssr:stedsnr" v="104227" />
	</node>
	<node lat="58.4447083356796" lon="8.258130561070168" id="-32613">
		<tag k="name" v="Grandalen" />
		<tag k="natural" v="valley" />
		<tag k="place" v="locality" />
		<tag k="ssr:stedsnr" v="104286" />
	</node>
	<node lat="58.44851944842217" lon="8.069338885843667" id="-32616">
		<tag k="name" v="Breddingsliane" />
		<tag k="natural" v="slope" />
		<tag k="place" v="locality" />
		<tag k="ssr:stedsnr" v="104527" />
	</node>
	<node lat="58.44678333492567" lon="8.09526388872826" id="-32617">
		<tag k="name" v="Mårvassheia" />
		<tag k="natural" v="hill" />
		<tag k="place" v="locality" />
		<tag k="ssr:stedsnr" v="104534" />
	</node>
	<node lat="58.548711113619284" lon="8.236055558814948" id="-32625">
		<tag k="name" v="Bukkedalane" />
		<tag k="natural" v="valley" />
		<tag k="place" v="locality" />
		<tag k="ssr:stedsnr" v="105106" />
	</node>
	<node lat="58.54078055217414" lon="8.241341664692028" id="-32626">
		<tag k="name" v="Treldalen" />
		<tag k="natural" v="valley" />
		<tag k="place" v="locality" />
		<tag k="ssr:stedsnr" v="105123" />
	</node>
	<node lat="58.564222218967934" lon="8.220608333574763" id="-32627">
		<tag k="name" v="Breisåsliane" />
		<tag k="natural" v="slope" />
		<tag k="place" v="locality" />
		<tag k="ssr:stedsnr" v="105128" />
	</node>
	<node lat="58.3122638911829" lon="8.118741664121817" id="-32628">
		<tag k="name" v="Lille Svalandsdalen" />
		<tag k="natural" v="valley" />
		<tag k="place" v="locality" />
		<tag k="ssr:stedsnr" v="105302" />
	</node>
	<node lat="58.437777776028085" lon="8.248636115381018" id="-32630">
		<tag k="name" v="Risbufjellet" />
		<tag k="natural" v="cliff" />
		<tag k="ssr:stedsnr" v="105308" />
	</node>
	<node lat="58.31285278216265" lon="8.1388166587027" id="-32631">
		<tag k="fixme" v="consider natural=peak for the most distinct mountains in the district" />
		<tag k="name" v="Stutefjellåsen" />
		<tag k="natural" v="hill" />
		<tag k="place" v="locality" />
		<tag k="ssr:stedsnr" v="105311" />
	</node>
	<node lat="58.35518055815461" lon="8.132233338294457" id="-32632">
		<tag k="name" v="Bjønndalen" />
		<tag k="natural" v="valley" />
		<tag k="place" v="locality" />
		<tag k="ssr:stedsnr" v="105343" />
	</node>
	<node lat="58.30966666699704" lon="8.144058326817936" id="-32633">
		<tag k="fixme" v="consider natural=peak for the most distinct mountains in the district" />
		<tag k="name" v="Snaremyrfjellet" />
		<tag k="natural" v="hill" />
		<tag k="place" v="locality" />
		<tag k="ssr:stedsnr" v="105279" />
	</node>
	<node lat="58.43859166984966" lon="8.23036666058705" id="-32634">
		<tag k="fixme" v="consider natural=peak for the most distinct mountains in the district" />
		<tag k="name" v="Haukereiret" />
		<tag k="natural" v="hill" />
		<tag k="place" v="locality" />
		<tag k="ssr:stedsnr" v="105283" />
	</node>
	<node lat="58.449666667793856" lon="8.214097221168972" id="-32636">
		<tag k="name" v="Heimre Knuteliane" />
		<tag k="natural" v="slope" />
		<tag k="place" v="locality" />
		<tag k="ssr:stedsnr" v="105407" />
	</node>
	<node lat="58.377997218047774" lon="8.207902771595004" id="-32637">
		<tag k="name" v="Kvennhusdalen" />
		<tag k="natural" v="valley" />
		<tag k="place" v="locality" />
		<tag k="ssr:stedsnr" v="105413" />
	</node>
	<node lat="58.39719444092935" lon="8.113341662339208" id="-32640">
		<tag k="name" v="Grandalen" />
		<tag k="natural" v="valley" />
		<tag k="place" v="locality" />
		<tag k="ssr:stedsnr" v="105429" />
	</node>
	<node lat="58.393555554263806" lon="8.112497217484957" id="-32641">
		<tag k="name" v="Bekkedalen" />
		<tag k="natural" v="valley" />
		<tag k="place" v="locality" />
		<tag k="ssr:stedsnr" v="105431" />
	</node>
	<node lat="58.425886106872426" lon="8.221402771001856" id="-32642">
		<tag k="name" v="Skibmannsliane" />
		<tag k="natural" v="slope" />
		<tag k="place" v="locality" />
		<tag k="ssr:stedsnr" v="105475" />
	</node>
	<node lat="58.38189722292509" lon="8.159544438164552" id="-32644">
		<tag k="name" v="Kjerringknutten" />
		<tag k="natural" v="hill" />
		<tag k="place" v="locality" />
		<tag k="ssr:stedsnr" v="105376" />
	</node>
	<node lat="58.410569441395296" lon="8.272163895036824" id="-32648">
		<tag k="name" v="Bjelkedalsknuten" />
		<tag k="natural" v="hill" />
		<tag k="place" v="locality" />
		<tag k="ssr:stedsnr" v="105516" />
	</node>
	<node lat="58.32179722226628" lon="8.10943611804855" id="-32650">
		<tag k="name" v="Blaksmyrdalen" />
		<tag k="natural" v="valley" />
		<tag k="place" v="locality" />
		<tag k="ssr:stedsnr" v="105728" />
	</node>
	<node lat="58.46421111214723" lon="8.221786118549495" id="-32651">
		<tag k="name" v="Kolhusdalen" />
		<tag k="natural" v="valley" />
		<tag k="place" v="locality" />
		<tag k="ssr:stedsnr" v="105835" />
	</node>
	<node lat="58.48995277552621" lon="8.253180555270388" id="-32653">
		<tag k="name" v="Styggeliknuten" />
		<tag k="natural" v="hill" />
		<tag k="place" v="locality" />
		<tag k="ssr:stedsnr" v="105772" />
	</node>
	<node lat="58.47635555971142" lon="8.213075003056666" id="-32654">
		<tag k="name" v="Bjønnskjegghottane" />
		<tag k="natural" v="hill" />
		<tag k="place" v="locality" />
		<tag k="ssr:stedsnr" v="105774" />
	</node>
	<node lat="58.511994445086806" lon="8.231219439183322" id="-32658">
		<tag k="name" v="Fidjetjønndalen" />
		<tag k="natural" v="valley" />
		<tag k="place" v="locality" />
		<tag k="ssr:stedsnr" v="105922" />
	</node>
	<node lat="58.31841944201122" lon="8.133863885411435" id="-32659">
		<tag k="name" v="Furuheia" />
		<tag k="natural" v="hill" />
		<tag k="place" v="locality" />
		<tag k="ssr:stedsnr" v="105984" />
	</node>
	<node lat="58.57015555658237" lon="8.15610277758974" id="-32661">
		<tag k="name" v="Høgemyrkleiva" />
		<tag k="natural" v="slope" />
		<tag k="place" v="locality" />
		<tag k="ssr:stedsnr" v="110109" />
	</node>
	<node lat="58.55710833270461" lon="8.059419438042367" id="-32663">
		<tag k="name" v="Store Bjørkestø" />
		<tag k="natural" v="slope" />
		<tag k="place" v="locality" />
		<tag k="ssr:stedsnr" v="110328" />
	</node>
	<node lat="58.54233333083472" lon="8.067541668455261" id="-32664">
		<tag k="name" v="Skovedalen" />
		<tag k="natural" v="valley" />
		<tag k="place" v="locality" />
		<tag k="ssr:stedsnr" v="110334" />
	</node>
	<node lat="58.50500833148884" lon="8.15392499614317" id="-32666">
		<tag k="name" v="Setedalen" />
		<tag k="natural" v="valley" />
		<tag k="place" v="locality" />
		<tag k="ssr:stedsnr" v="110903" />
	</node>
	<node lat="58.50595277722833" lon="8.126127784380886" id="-32667">
		<tag k="name" v="Uskringsdalen" />
		<tag k="natural" v="valley" />
		<tag k="place" v="locality" />
		<tag k="ssr:stedsnr" v="110912" />
	</node>
	<node lat="58.518083336274245" lon="8.078197227267946" id="-32668">
		<tag k="name" v="Lislefjell" />
		<tag k="natural" v="hill" />
		<tag k="place" v="locality" />
		<tag k="ssr:stedsnr" v="110980" />
	</node>
	<node lat="58.505813890973116" lon="8.076794441235984" id="-32671">
		<tag k="name" v="Austre Blautekjerrdal" />
		<tag k="natural" v="valley" />
		<tag k="place" v="locality" />
		<tag k="ssr:stedsnr" v="110877" />
	</node>
	<node lat="58.51427500349148" lon="8.126308336947675" id="-32672">
		<tag k="name" v="Fiskebekkdalen" />
		<tag k="natural" v="valley" />
		<tag k="place" v="locality" />
		<tag k="ssr:stedsnr" v="110891" />
	</node>
	<node lat="58.48718611195196" lon="8.025269445690315" id="-32673">
		<tag k="name" v="Kvenneli" />
		<tag k="natural" v="slope" />
		<tag k="place" v="locality" />
		<tag k="ssr:stedsnr" v="111005" />
	</node>
	<node lat="58.513794446734195" lon="8.006463885185369" id="-32676">
		<tag k="name" v="Skollhei" />
		<tag k="natural" v="hill" />
		<tag k="place" v="locality" />
		<tag k="ssr:stedsnr" v="111071" />
	</node>
	<node lat="58.51821388987843" lon="8.066286118128176" id="-32678">
		<tag k="name" v="Skavdalen" />
		<tag k="natural" v="valley" />
		<tag k="place" v="locality" />
		<tag k="ssr:stedsnr" v="111187" />
	</node>
	<node lat="58.52731944879561" lon="7.9561638835462585" id="-32681">
		<tag k="name" v="Vollane" />
		<tag k="natural" v="slope" />
		<tag k="place" v="locality" />
		<tag k="ssr:stedsnr" v="111872" />
	</node>
	<node lat="58.40988888718962" lon="8.14336388735581" id="-32693">
		<tag k="fixme" v="consider natural=peak for the most distinct mountains in the district" />
		<tag k="name" v="Dalansheia" />
		<tag k="natural" v="hill" />
		<tag k="place" v="locality" />
		<tag k="ssr:stedsnr" v="121878" />
	</node>
	<node lat="58.51023889149307" lon="8.362158337001508" id="-32695">
		<tag k="fixme" v="consider natural=peak for the most distinct mountains in the district" />
		<tag k="name" v="Solmyrheia" />
		<tag k="natural" v="hill" />
		<tag k="place" v="locality" />
		<tag k="ssr:stedsnr" v="122013" />
	</node>
	<node lat="58.52683055575438" lon="8.082877773944029" id="-32701">
		<tag k="fixme" v="consider natural=peak for the most distinct mountains in the district" />
		<tag k="name" v="Bellandsheia" />
		<tag k="natural" v="hill" />
		<tag k="place" v="locality" />
		<tag k="ssr:stedsnr" v="122420" />
	</node>
	<node lat="58.333336112100554" lon="8.357988893687399" id="-32702">
		<tag k="fixme" v="consider natural=peak for the most distinct mountains in the district" />
		<tag k="name" v="Nordstykket" />
		<tag k="natural" v="hill" />
		<tag k="place" v="locality" />
		<tag k="ssr:stedsnr" v="148503" />
	</node>
	<node lat="58.305180555523926" lon="8.227394445912358" id="-32703">
		<tag k="name" v="Smiefjellet" />
		<tag k="natural" v="hill" />
		<tag k="place" v="locality" />
		<tag k="ssr:stedsnr" v="148762" />
	</node>
	<node lat="58.33548333504603" lon="8.305861104830207" id="-32704">
		<tag k="fixme" v="consider natural=peak for the most distinct mountains in the district" />
		<tag k="name" v="Bærbakken" />
		<tag k="natural" v="hill" />
		<tag k="place" v="locality" />
		<tag k="ssr:stedsnr" v="148669" />
	</node>
	<node lat="58.32928889081382" lon="8.173827772180843" id="-32706">
		<tag k="fixme" v="consider natural=peak for the most distinct mountains in the district" />
		<tag k="name" v="Moneheia" />
		<tag k="natural" v="hill" />
		<tag k="place" v="locality" />
		<tag k="ssr:stedsnr" v="149370" />
	</node>
	<node lat="58.322944440682896" lon="8.208936114430081" id="-32708">
		<tag k="fixme" v="consider natural=peak for the most distinct mountains in the district" />
		<tag k="name" v="Bersekollen" />
		<tag k="natural" v="hill" />
		<tag k="place" v="locality" />
		<tag k="ssr:stedsnr" v="153515" />
	</node>
	<node lat="58.455694440304434" lon="8.298144450750211" id="-32712">
		<tag k="name" v="Mollkleivdalen" />
		<tag k="natural" v="valley" />
		<tag k="place" v="locality" />
		<tag k="ssr:stedsnr" v="154149" />
	</node>
	<node lat="58.51388333090043" lon="8.375930562785545" id="-32715">
		<tag k="name" v="Hellersdalen" />
		<tag k="natural" v="valley" />
		<tag k="place" v="locality" />
		<tag k="ssr:stedsnr" v="154316" />
	</node>
	<node lat="58.50717777998299" lon="8.381366671311552" id="-32716">
		<tag k="fixme" v="consider natural=peak for the most distinct mountains in the district" />
		<tag k="name" v="Lille Hisås" />
		<tag k="natural" v="hill" />
		<tag k="place" v="locality" />
		<tag k="ssr:stedsnr" v="154327" />
	</node>
	<node lat="58.53475000321166" lon="8.358333330265902" id="-32717">
		<tag k="fixme" v="consider natural=peak for the most distinct mountains in the district" />
		<tag k="name" v="Lyngheia" />
		<tag k="natural" v="hill" />
		<tag k="place" v="locality" />
		<tag k="ssr:stedsnr" v="154337" />
	</node>
	<node lat="58.38928333211205" lon="8.319836117211176" id="-32719">
		<tag k="fixme" v="consider natural=peak for the most distinct mountains in the district" />
		<tag k="name" v="Bjelletjennåsen" />
		<tag k="natural" v="hill" />
		<tag k="place" v="locality" />
		<tag k="ssr:stedsnr" v="154058" />
	</node>
	<node lat="58.46597777478724" lon="8.361055552810384" id="-32723">
		<tag k="name" v="Nedrefjell" />
		<tag k="natural" v="hill" />
		<tag k="place" v="locality" />
		<tag k="ssr:stedsnr" v="154215" />
	</node>
	<node lat="58.48217221867157" lon="8.302038896858642" id="-32726">
		<tag k="fixme" v="consider natural=peak for the most distinct mountains in the district" />
		<tag k="name" v="Blankevassknatten" />
		<tag k="natural" v="hill" />
		<tag k="place" v="locality" />
		<tag k="ssr:stedsnr" v="154262" />
	</node>
	<node lat="58.47620277669043" lon="8.307363886777468" id="-32727">
		<tag k="name" v="Simonsbakkane" />
		<tag k="natural" v="slope" />
		<tag k="place" v="locality" />
		<tag k="ssr:stedsnr" v="154267" />
	</node>
	<node lat="58.36761666316142" lon="8.272172221161087" id="-32730">
		<tag k="fixme" v="consider natural=peak for the most distinct mountains in the district" />
		<tag k="name" v="Haugeliåsen" />
		<tag k="natural" v="hill" />
		<tag k="place" v="locality" />
		<tag k="ssr:stedsnr" v="154848" />
	</node>
	<node lat="58.38315833724827" lon="8.273699993871027" id="-32731">
		<tag k="fixme" v="consider natural=peak for the most distinct mountains in the district" />
		<tag k="name" v="Kvennhusåsen" />
		<tag k="natural" v="hill" />
		<tag k="place" v="locality" />
		<tag k="ssr:stedsnr" v="154853" />
	</node>
	<node lat="58.45765000391219" lon="8.36886389693627" id="-32733">
		<tag k="name" v="Trolldalen" />
		<tag k="natural" v="valley" />
		<tag k="place" v="locality" />
		<tag k="ssr:stedsnr" v="154868" />
	</node>
	<node lat="58.44487222019762" lon="8.1946166734163" id="-32741">
		<tag k="name" v="Småtjønnheia" />
		<tag k="natural" v="hill" />
		<tag k="place" v="locality" />
		<tag k="ssr:stedsnr" v="164263" />
	</node>
	<node lat="58.31689722445262" lon="8.140922220587214" id="-32745">
		<tag k="name" v="Lille Barlindås" />
		<tag k="natural" v="ridge" />
		<tag k="place" v="locality" />
		<tag k="ssr:stedsnr" v="165223" />
	</node>
	<node lat="58.549938887973674" lon="8.302380560881502" id="-32747">
		<tag k="name" v="Uldalsholene" />
		<tag k="natural" v="valley" />
		<tag k="place" v="locality" />
		<tag k="ssr:stedsnr" v="165121" />
	</node>
	<node lat="58.302916663732375" lon="8.113116674450335" id="-32749">
		<tag k="fixme" v="consider natural=peak for the most distinct mountains in the district" />
		<tag k="name" v="Bjønnåsen" />
		<tag k="natural" v="hill" />
		<tag k="place" v="locality" />
		<tag k="ssr:stedsnr" v="165260" />
	</node>
	<node lat="58.325969445715934" lon="8.124627784995988" id="-32751">
		<tag k="name" v="Slåttekjerråsen" />
		<tag k="natural" v="hill" />
		<tag k="place" v="locality" />
		<tag k="ssr:stedsnr" v="165280" />
	</node>
	<node lat="58.37453055564686" lon="8.132913897373655" id="-32754">
		<tag k="name" v="Rundetjønnhei" />
		<tag k="natural" v="hill" />
		<tag k="place" v="locality" />
		<tag k="ssr:stedsnr" v="165408" />
	</node>
	<node lat="58.400905555873976" lon="8.114355552508533" id="-32756">
		<tag k="name" v="Sagdalen" />
		<tag k="natural" v="valley" />
		<tag k="place" v="locality" />
		<tag k="ssr:stedsnr" v="165418" />
	</node>
	<node lat="58.359244443339165" lon="8.203916672462945" id="-32757">
		<tag k="name" v="Tretjønndalen" />
		<tag k="natural" v="valley" />
		<tag k="place" v="locality" />
		<tag k="ssr:stedsnr" v="165424" />
	</node>
	<node lat="58.377324998648675" lon="8.158477773846313" id="-32760">
		<tag k="name" v="Skinnerdalen" />
		<tag k="natural" v="valley" />
		<tag k="place" v="locality" />
		<tag k="ssr:stedsnr" v="165366" />
	</node>
	<node lat="58.43338055676679" lon="8.213083336300132" id="-32761">
		<tag k="name" v="Lundane" />
		<tag k="natural" v="ridge" />
		<tag k="place" v="locality" />
		<tag k="ssr:stedsnr" v="165368" />
	</node>
	<node lat="58.4895388877378" lon="8.243872220921933" id="-32767">
		<tag k="name" v="Gullrøgelsesheia" />
		<tag k="natural" v="hill" />
		<tag k="place" v="locality" />
		<tag k="ssr:stedsnr" v="165804" />
	</node>
	<node lat="58.489027782077144" lon="8.253972224778138" id="-32769">
		<tag k="name" v="Svarefjell" />
		<tag k="natural" v="cliff" />
		<tag k="ssr:stedsnr" v="165810" />
	</node>
	<node lat="58.465802774994515" lon="8.245802784356982" id="-32771">
		<tag k="name" v="Grandalen" />
		<tag k="natural" v="valley" />
		<tag k="place" v="locality" />
		<tag k="ssr:stedsnr" v="165860" />
	</node>
	<node lat="58.33043332925459" lon="8.100100002456783" id="-32774">
		<tag k="name" v="Brentebakkane" />
		<tag k="natural" v="slope" />
		<tag k="place" v="locality" />
		<tag k="ssr:stedsnr" v="165777" />
	</node>
	<node lat="58.501847220604404" lon="8.270561115040294" id="-32775">
		<tag k="name" v="Epledalen" />
		<tag k="natural" v="valley" />
		<tag k="place" v="locality" />
		<tag k="ssr:stedsnr" v="165916" />
	</node>
	<node lat="58.564833336612345" lon="8.11563889448727" id="-32779">
		<tag k="name" v="Nyklebergdalane" />
		<tag k="natural" v="valley" />
		<tag k="place" v="locality" />
		<tag k="ssr:stedsnr" v="170111" />
	</node>
	<node lat="58.59488055785361" lon="8.14548333152072" id="-32782">
		<tag k="name" v="Kvenndalen" />
		<tag k="natural" v="valley" />
		<tag k="place" v="locality" />
		<tag k="ssr:stedsnr" v="170457" />
	</node>
	<node lat="58.591547223007495" lon="8.150147228211857" id="-32783">
		<tag k="fixme" v="consider natural=peak for the most distinct mountains in the district" />
		<tag k="name" v="Nonåsen" />
		<tag k="natural" v="hill" />
		<tag k="place" v="locality" />
		<tag k="ssr:stedsnr" v="170458" />
	</node>
	<node lat="58.52561388653254" lon="8.023549997211402" id="-32785">
		<tag k="name" v="Ravnefjell" />
		<tag k="natural" v="cliff" />
		<tag k="ssr:stedsnr" v="170705" />
	</node>
	<node lat="58.52905833305092" lon="8.024991658596242" id="-32786">
		<tag k="name" v="Svintokskleiva" />
		<tag k="natural" v="slope" />
		<tag k="place" v="locality" />
		<tag k="ssr:stedsnr" v="170707" />
	</node>
	<node lat="58.53262777556088" lon="8.067802786187155" id="-32792">
		<tag k="name" v="Færebrota" />
		<tag k="natural" v="slope" />
		<tag k="place" v="locality" />
		<tag k="ssr:stedsnr" v="171213" />
	</node>
	<node lat="58.54907500137376" lon="7.946655557223576" id="-32793">
		<tag k="name" v="Hellerslia" />
		<tag k="natural" v="slope" />
		<tag k="place" v="locality" />
		<tag k="ssr:stedsnr" v="171665" />
	</node>
	<node lat="58.39316110762749" lon="8.121838891241831" id="-32805">
		<tag k="fixme" v="consider natural=peak for the most distinct mountains in the district" />
		<tag k="name" v="Buliheia" />
		<tag k="natural" v="hill" />
		<tag k="place" v="locality" />
		<tag k="ssr:stedsnr" v="182421" />
	</node>
	<node lat="58.489291666203826" lon="8.32973888285436" id="-32807">
		<tag k="alt_name" v="Brudlefjellet" />
		<tag k="fixme" v="consider natural=peak for the most distinct mountains in the district" />
		<tag k="name" v="Brulifjellet" />
		<tag k="natural" v="hill" />
		<tag k="place" v="locality" />
		<tag k="ssr:stedsnr" v="182429" />
	</node>
	<node lat="58.47593333739561" lon="8.101688882049892" id="-32808">
		<tag k="fixme" v="consider natural=peak for the most distinct mountains in the district" />
		<tag k="name" v="Tjomefjell" />
		<tag k="natural" v="hill" />
		<tag k="place" v="locality" />
		<tag k="ssr:stedsnr" v="182433" />
	</node>
	<node lat="58.46233333606287" lon="8.1611638803458" id="-32811">
		<tag k="alt_name" v="Grunnetjønnheia" />
		<tag k="fixme" v="consider natural=peak for the most distinct mountains in the district" />
		<tag k="name" v="Grunntjønnheia" />
		<tag k="natural" v="hill" />
		<tag k="place" v="locality" />
		<tag k="ssr:stedsnr" v="182467" />
	</node>
	<node lat="58.49865277333116" lon="8.357377773052335" id="-32812">
		<tag k="fixme" v="consider natural=peak for the most distinct mountains in the district" />
		<tag k="name" v="Haukheia" />
		<tag k="natural" v="hill" />
		<tag k="place" v="locality" />
		<tag k="ssr:stedsnr" v="183007" />
	</node>
	<node lat="58.50010555599837" lon="8.187972220923655" id="-32813">
		<tag k="name" v="Bekkedalen" />
		<tag k="natural" v="valley" />
		<tag k="place" v="locality" />
		<tag k="ssr:stedsnr" v="183049" />
	</node>
	<node lat="58.326366668202304" lon="8.17821943782591" id="-32818">
		<tag k="name" v="Duelia" />
		<tag k="natural" v="slope" />
		<tag k="place" v="locality" />
		<tag k="ssr:stedsnr" v="210384" />
	</node>
	<node lat="58.298477776494785" lon="8.291447221674389" id="-32822">
		<tag k="name" v="Krogvannsdalen" />
		<tag k="natural" v="valley" />
		<tag k="place" v="locality" />
		<tag k="ssr:stedsnr" v="210681" />
	</node>
	<node lat="58.34057222104176" lon="8.283002775014092" id="-32824">
		<tag k="fixme" v="consider natural=peak for the most distinct mountains in the district" />
		<tag k="name" v="Skjennåsen" />
		<tag k="natural" v="hill" />
		<tag k="place" v="locality" />
		<tag k="ssr:stedsnr" v="210687" />
	</node>
	<node lat="58.47352777677382" lon="8.28989722817569" id="-32826">
		<tag k="fixme" v="consider natural=peak for the most distinct mountains in the district" />
		<tag k="name" v="Søndagsheia" />
		<tag k="natural" v="hill" />
		<tag k="place" v="locality" />
		<tag k="ssr:stedsnr" v="214096" />
	</node>
	<node lat="58.30866944809596" lon="8.177861103423119" id="-32829">
		<tag k="name" v="Bjorhusheia" />
		<tag k="natural" v="hill" />
		<tag k="place" v="locality" />
		<tag k="ssr:stedsnr" v="214495" />
	</node>
	<node lat="58.44667222108828" lon="8.325838887025382" id="-32832">
		<tag k="fixme" v="consider natural=peak for the most distinct mountains in the district" />
		<tag k="name" v="Fossehei" />
		<tag k="natural" v="hill" />
		<tag k="place" v="locality" />
		<tag k="ssr:stedsnr" v="215104" />
	</node>
	<node lat="58.445944445171826" lon="8.32495833398407" id="-32833">
		<tag k="fixme" v="consider natural=peak for the most distinct mountains in the district" />
		<tag k="name" v="Åhei" />
		<tag k="natural" v="hill" />
		<tag k="place" v="locality" />
		<tag k="ssr:stedsnr" v="215107" />
	</node>
	<node lat="58.46518611285124" lon="8.353422219333334" id="-32836">
		<tag k="fixme" v="consider natural=peak for the most distinct mountains in the district" />
		<tag k="name" v="Bjønnfjellet" />
		<tag k="natural" v="hill" />
		<tag k="place" v="locality" />
		<tag k="ssr:stedsnr" v="215179" />
	</node>
	<node lat="58.47667222445913" lon="8.280983333648944" id="-32837">
		<tag k="fixme" v="consider natural=peak for the most distinct mountains in the district" />
		<tag k="name" v="Gråskollheia" />
		<tag k="natural" v="hill" />
		<tag k="place" v="locality" />
		<tag k="ssr:stedsnr" v="215193" />
	</node>
	<node lat="58.47807500271614" lon="8.293622230481123" id="-32838">
		<tag k="name" v="Austre Barlinddal" />
		<tag k="natural" v="valley" />
		<tag k="place" v="locality" />
		<tag k="ssr:stedsnr" v="215196" />
	</node>
	<node lat="58.418627778370414" lon="8.300469451617296" id="-32841">
		<tag k="name" v="Svillebråta" />
		<tag k="natural" v="slope" />
		<tag k="place" v="locality" />
		<tag k="ssr:stedsnr" v="215024" />
	</node>
	<node lat="58.44015833109959" lon="8.356319448329913" id="-32843">
		<tag k="name" v="Rønningdalen" />
		<tag k="natural" v="valley" />
		<tag k="place" v="locality" />
		<tag k="ssr:stedsnr" v="215079" />
	</node>
	<node lat="58.44605277559173" lon="8.290969451804221" id="-32844">
		<tag k="name" v="Godliane" />
		<tag k="natural" v="slope" />
		<tag k="place" v="locality" />
		<tag k="ssr:stedsnr" v="215092" />
	</node>
	<node lat="58.359177778014306" lon="8.235380553964633" id="-32854">
		<tag k="fixme" v="consider natural=peak for the most distinct mountains in the district" />
		<tag k="name" v="Engmyrknuten" />
		<tag k="natural" v="hill" />
		<tag k="place" v="locality" />
		<tag k="ssr:stedsnr" v="215890" />
	</node>
	<node lat="58.35439166936271" lon="8.257652769605476" id="-32855">
		<tag k="fixme" v="consider natural=peak for the most distinct mountains in the district" />
		<tag k="name" v="Furubakke" />
		<tag k="natural" v="hill" />
		<tag k="place" v="locality" />
		<tag k="ssr:stedsnr" v="215893" />
	</node>
	<node lat="58.35554721899168" lon="8.295302773677747" id="-32856">
		<tag k="name" v="Hovdalen" />
		<tag k="natural" v="valley" />
		<tag k="place" v="locality" />
		<tag k="ssr:stedsnr" v="215784" />
	</node>
	<node lat="58.408394444087556" lon="8.267183341640537" id="-32857">
		<tag k="fixme" v="consider natural=peak for the most distinct mountains in the district" />
		<tag k="name" v="Lauvlifjella" />
		<tag k="natural" v="hill" />
		<tag k="place" v="locality" />
		<tag k="ssr:stedsnr" v="215907" />
	</node>
	<node lat="58.25674999786676" lon="8.191286111089616" id="-32858">
		<tag k="fixme" v="consider natural=peak for the most distinct mountains in the district" />
		<tag k="name" v="Midtheia" />
		<tag k="natural" v="hill" />
		<tag k="place" v="locality" />
		<tag k="ssr:stedsnr" v="215925" />
	</node>
	<node lat="58.28531666406151" lon="8.141611110804321" id="-32860">
		<tag k="fixme" v="consider natural=peak for the most distinct mountains in the district" />
		<tag k="name" v="Hjelmåsen" />
		<tag k="natural" v="hill" />
		<tag k="place" v="locality" />
		<tag k="ssr:stedsnr" v="215996" />
	</node>
	<node lat="58.33545832909014" lon="8.337586107634891" id="-32861">
		<tag k="fixme" v="consider natural=peak for the most distinct mountains in the district" />
		<tag k="name" v="Rundemyrheia" />
		<tag k="natural" v="hill" />
		<tag k="place" v="locality" />
		<tag k="ssr:stedsnr" v="270455" />
	</node>
	<node lat="58.326669440128576" lon="8.280477772741575" id="-32862">
		<tag k="fixme" v="consider natural=peak for the most distinct mountains in the district" />
		<tag k="name" v="Nybåsen" />
		<tag k="natural" v="hill" />
		<tag k="place" v="locality" />
		<tag k="ssr:stedsnr" v="270458" />
	</node>
	<node lat="58.332499996778616" lon="8.320019450744947" id="-32864">
		<tag k="name" v="Svensbudalen" />
		<tag k="natural" v="valley" />
		<tag k="place" v="locality" />
		<tag k="ssr:stedsnr" v="270656" />
	</node>
	<node lat="58.32168333304695" lon="8.27782222082834" id="-32865">
		<tag k="name" v="Bjordalen" />
		<tag k="natural" v="valley" />
		<tag k="place" v="locality" />
		<tag k="ssr:stedsnr" v="270660" />
	</node>
	<node lat="58.318738888776444" lon="8.26888611346378" id="-32868">
		<tag k="fixme" v="consider natural=peak for the most distinct mountains in the district" />
		<tag k="name" v="Fiskåsen" />
		<tag k="natural" v="hill" />
		<tag k="place" v="locality" />
		<tag k="ssr:stedsnr" v="270753" />
	</node>
	<node lat="58.2945277775085" lon="8.220552775623215" id="-32871">
		<tag k="alt_name" v="Helleråsen" />
		<tag k="fixme" v="consider natural=peak for the most distinct mountains in the district" />
		<tag k="name" v="Hellaråsen" />
		<tag k="natural" v="hill" />
		<tag k="place" v="locality" />
		<tag k="ssr:stedsnr" v="271338" />
	</node>
	<node lat="58.28929444228631" lon="8.226763892632539" id="-32872">
		<tag k="name" v="Jammerdalen" />
		<tag k="natural" v="valley" />
		<tag k="place" v="locality" />
		<tag k="ssr:stedsnr" v="271341" />
	</node>
	<node lat="58.25712499801119" lon="8.241033332426287" id="-32874">
		<tag k="fixme" v="consider natural=peak for the most distinct mountains in the district" />
		<tag k="name" v="Kattuglåsen" />
		<tag k="natural" v="hill" />
		<tag k="place" v="locality" />
		<tag k="ssr:stedsnr" v="271369" />
	</node>
	<node lat="58.339380557854206" lon="8.254430562329174" id="-32875">
		<tag k="fixme" v="consider natural=peak for the most distinct mountains in the district" />
		<tag k="name" v="Tykkåsen" />
		<tag k="natural" v="hill" />
		<tag k="place" v="locality" />
		<tag k="ssr:stedsnr" v="271443" />
	</node>
	<node lat="58.33739444364739" lon="8.265427782609564" id="-32876">
		<tag k="fixme" v="consider natural=peak for the most distinct mountains in the district" />
		<tag k="name" v="Lille Helleåsen" />
		<tag k="natural" v="hill" />
		<tag k="place" v="locality" />
		<tag k="ssr:stedsnr" v="271395" />
	</node>
	<node lat="58.4613166652057" lon="8.136841667490234" id="-32881">
		<tag k="name" v="Lillekoven" />
		<tag k="natural" v="valley" />
		<tag k="place" v="locality" />
		<tag k="ssr:stedsnr" v="225665" />
	</node>
	<node lat="58.46606110819073" lon="8.168113890089588" id="-32882">
		<tag k="name" v="Lillehei" />
		<tag k="natural" v="hill" />
		<tag k="place" v="locality" />
		<tag k="ssr:stedsnr" v="225845" />
	</node>
	<node lat="58.51319722326538" lon="8.179658336946463" id="-32884">
		<tag k="name" v="Eikedalen" />
		<tag k="natural" v="valley" />
		<tag k="place" v="locality" />
		<tag k="ssr:stedsnr" v="225943" />
	</node>
	<node lat="58.54320000073662" lon="8.23655832504405" id="-32885">
		<tag k="name" v="Smådalane" />
		<tag k="natural" v="valley" />
		<tag k="place" v="locality" />
		<tag k="ssr:stedsnr" v="226111" />
	</node>
	<node lat="58.379841668769586" lon="8.211705549023613" id="-32890">
		<tag k="name" v="Knappefjellet" />
		<tag k="natural" v="cliff" />
		<tag k="ssr:stedsnr" v="226444" />
	</node>
	<node lat="58.43717499899668" lon="8.204605562533636" id="-32892">
		<tag k="name" v="Heggeliane" />
		<tag k="natural" v="slope" />
		<tag k="place" v="locality" />
		<tag k="ssr:stedsnr" v="226396" />
	</node>
	<node lat="58.437983329240595" lon="8.206261114269749" id="-32893">
		<tag k="name" v="Heggelifjell" />
		<tag k="natural" v="cliff" />
		<tag k="ssr:stedsnr" v="226399" />
	</node>
	<node lat="58.47539444469085" lon="8.20572778259367" id="-32898">
		<tag k="fixme" v="consider natural=peak for the most distinct mountains in the district" />
		<tag k="name" v="Maltåsen" />
		<tag k="natural" v="hill" />
		<tag k="place" v="locality" />
		<tag k="ssr:stedsnr" v="226833" />
	</node>
	<node lat="58.487591669639976" lon="8.168716673294194" id="-32899">
		<tag k="name" v="Tollesdalen" />
		<tag k="natural" v="valley" />
		<tag k="place" v="locality" />
		<tag k="ssr:stedsnr" v="226837" />
	</node>
	<node lat="58.449322220807964" lon="8.118105552392807" id="-32901">
		<tag k="name" v="Espedalen" />
		<tag k="natural" v="valley" />
		<tag k="place" v="locality" />
		<tag k="ssr:stedsnr" v="226591" />
	</node>
	<node lat="58.31095833765926" lon="8.059077784202394" id="-32902">
		<tag k="fixme" v="consider natural=peak for the most distinct mountains in the district" />
		<tag k="name" v="Nordmyråsen" />
		<tag k="natural" v="hill" />
		<tag k="place" v="locality" />
		<tag k="ssr:stedsnr" v="226740" />
	</node>
	<node lat="58.305124996830024" lon="8.085091667350303" id="-32904">
		<tag k="name" v="Palisåsen" />
		<tag k="natural" v="ridge" />
		<tag k="place" v="locality" />
		<tag k="ssr:stedsnr" v="226745" />
	</node>
	<node lat="58.493047223461105" lon="8.269544442952556" id="-32908">
		<tag k="name" v="Byttingsdal" />
		<tag k="natural" v="valley" />
		<tag k="place" v="locality" />
		<tag k="ssr:stedsnr" v="226993" />
	</node>
	<node lat="58.487988890594465" lon="8.273538894566245" id="-32909">
		<tag k="name" v="Eikebreksfjella" />
		<tag k="natural" v="cliff" />
		<tag k="ssr:stedsnr" v="226998" />
	</node>
	<node lat="58.52416944519557" lon="7.990080551651877" id="-32911">
		<tag k="name" v="Aust-Liane" />
		<tag k="natural" v="slope" />
		<tag k="place" v="locality" />
		<tag k="ssr:stedsnr" v="231033" />
	</node>
	<node lat="58.57943055644574" lon="8.156847220725775" id="-32913">
		<tag k="name" v="Fidalen" />
		<tag k="natural" v="valley" />
		<tag k="place" v="locality" />
		<tag k="ssr:stedsnr" v="231134" />
	</node>
	<node lat="58.61391666253367" lon="8.147930557809625" id="-32917">
		<tag k="name" v="Gamle Brurle" />
		<tag k="place" v="locality" />
		<tag k="ssr:stedsnr" v="231702" />
	</node>
	<node lat="58.627588892059734" lon="8.161591661555434" id="-32918">
		<tag k="name" v="Sundsliane" />
		<tag k="natural" v="slope" />
		<tag k="place" v="locality" />
		<tag k="ssr:stedsnr" v="231706" />
	</node>
	<node lat="58.525719445357915" lon="8.038275000965685" id="-32919">
		<tag k="name" v="Hasledalen" />
		<tag k="natural" v="valley" />
		<tag k="place" v="locality" />
		<tag k="ssr:stedsnr" v="231782" />
	</node>
	<node lat="58.51063611056028" lon="8.120191663871257" id="-32921">
		<tag k="name" v="Smiedalen" />
		<tag k="natural" v="valley" />
		<tag k="place" v="locality" />
		<tag k="ssr:stedsnr" v="231897" />
	</node>
	<node lat="58.5151472204108" lon="7.951594443195452" id="-32922">
		<tag k="name" v="Ramsåsknotten" />
		<tag k="natural" v="hill" />
		<tag k="place" v="locality" />
		<tag k="ssr:stedsnr" v="232106" />
	</node>
	<node lat="58.516880553925816" lon="7.976711103944446" id="-32924">
		<tag k="name" v="Stavetjønnlia" />
		<tag k="natural" v="slope" />
		<tag k="place" v="locality" />
		<tag k="ssr:stedsnr" v="232099" />
	</node>
	<node lat="58.53861389234904" lon="7.933222219311501" id="-32927">
		<tag k="name" v="Tinndalen" />
		<tag k="natural" v="valley" />
		<tag k="place" v="locality" />
		<tag k="ssr:stedsnr" v="232608" />
	</node>
	<node lat="58.51764166260706" lon="8.02641389165268" id="-32930">
		<tag k="name" v="Eikebakken" />
		<tag k="natural" v="slope" />
		<tag k="place" v="locality" />
		<tag k="ssr:stedsnr" v="232643" />
	</node>
	<node lat="58.49075833069301" lon="8.095311109449" id="-32932">
		<tag k="name" v="Maurli" />
		<tag k="natural" v="slope" />
		<tag k="place" v="locality" />
		<tag k="ssr:stedsnr" v="232906" />
	</node>
	<node lat="58.475830554318" lon="8.062491669781048" id="-32933">
		<tag k="name" v="Tveitfjellet" />
		<tag k="natural" v="hill" />
		<tag k="place" v="locality" />
		<tag k="ssr:stedsnr" v="232803" />
	</node>
	<node lat="58.483458329669375" lon="8.162141671776658" id="-32934">
		<tag k="name" v="Skarketjønnheia" />
		<tag k="natural" v="hill" />
		<tag k="place" v="locality" />
		<tag k="ssr:stedsnr" v="232816" />
	</node>
	<node lat="58.2480833350676" lon="8.206011103862142" id="-32942">
		<tag k="alt_name" v="Temreåsen" />
		<tag k="fixme" v="consider natural=peak for the most distinct mountains in the district" />
		<tag k="name" v="Timreheia" />
		<tag k="natural" v="hill" />
		<tag k="place" v="locality" />
		<tag k="ssr:stedsnr" v="242328" />
	</node>
	<node lat="58.294597220409614" lon="8.22259722125213" id="-32945">
		<tag k="name" v="Askedalen" />
		<tag k="natural" v="valley" />
		<tag k="place" v="locality" />
		<tag k="ssr:stedsnr" v="453301" />
	</node>
	<node lat="58.33863610915558" lon="8.237725001478667" id="-32946">
		<tag k="fixme" v="consider natural=peak for the most distinct mountains in the district" />
		<tag k="name" v="Tømmeråsen" />
		<tag k="natural" v="hill" />
		<tag k="place" v="locality" />
		<tag k="ssr:stedsnr" v="453391" />
	</node>
	<node lat="58.44722778082969" lon="8.15179444945214" id="-32949">
		<tag k="name" v="Bjordalen" />
		<tag k="natural" v="valley" />
		<tag k="place" v="locality" />
		<tag k="ssr:stedsnr" v="243492" />
	</node>
	<node lat="58.57383333543751" lon="8.361419439895046" id="-32953">
		<tag k="alt_name" v="Svarttjønnheia" />
		<tag k="fixme" v="consider natural=peak for the most distinct mountains in the district" />
		<tag k="name" v="Svarttjørnheia" />
		<tag k="natural" v="hill" />
		<tag k="place" v="locality" />
		<tag k="ssr:stedsnr" v="244140" />
	</node>
	<node lat="58.395338892080595" lon="8.17674445081813" id="-32958">
		<tag k="fixme" v="consider natural=peak for the most distinct mountains in the district" />
		<tag k="name" v="Rundemyråsen" />
		<tag k="natural" v="hill" />
		<tag k="place" v="locality" />
		<tag k="ssr:stedsnr" v="248458" />
	</node>
	<node lat="58.318472219001215" lon="8.2525805596698" id="-32960">
		<tag k="name" v="Haredalen" />
		<tag k="natural" v="valley" />
		<tag k="place" v="locality" />
		<tag k="ssr:stedsnr" v="453354" />
	</node>
	<node lat="58.48333055394094" lon="8.331508329388917" id="-32962">
		<tag k="fixme" v="consider natural=peak for the most distinct mountains in the district" />
		<tag k="name" v="Toplandstøa" />
		<tag k="natural" v="hill" />
		<tag k="place" v="locality" />
		<tag k="ssr:stedsnr" v="457183" />
	</node>
	<node lat="58.524433336057875" lon="8.383102774476987" id="-32964">
		<tag k="name" v="Jammerdalslia" />
		<tag k="natural" v="slope" />
		<tag k="place" v="locality" />
		<tag k="ssr:stedsnr" v="457224" />
	</node>
	<node lat="58.50469166807655" lon="8.297480553227953" id="-32968">
		<tag k="fixme" v="consider natural=peak for the most distinct mountains in the district" />
		<tag k="name" v="Kvennhusheia" />
		<tag k="natural" v="hill" />
		<tag k="place" v="locality" />
		<tag k="ssr:stedsnr" v="457244" />
	</node>
	<node lat="58.2668861098823" lon="8.176655548995138" id="-32972">
		<tag k="fixme" v="consider natural=peak for the most distinct mountains in the district" />
		<tag k="name" v="Tjuveheia" />
		<tag k="natural" v="hill" />
		<tag k="place" v="locality" />
		<tag k="ssr:stedsnr" v="457482" />
	</node>
	<node lat="58.32276944432707" lon="8.182811103501788" id="-32973">
		<tag k="name" v="Storemoen" />
		<tag k="place" v="locality" />
		<tag k="ssr:stedsnr" v="457490" />
	</node>
	<node lat="58.3551638856404" lon="8.29157777163975" id="-32975">
		<tag k="fixme" v="consider natural=peak for the most distinct mountains in the district" />
		<tag k="name" v="Hovdalsåsen" />
		<tag k="natural" v="hill" />
		<tag k="place" v="locality" />
		<tag k="ssr:stedsnr" v="457731" />
	</node>
	<node lat="58.356536112994476" lon="8.326450002669207" id="-32976">
		<tag k="fixme" v="consider natural=peak for the most distinct mountains in the district" />
		<tag k="name" v="Granåsen" />
		<tag k="natural" v="hill" />
		<tag k="place" v="locality" />
		<tag k="ssr:stedsnr" v="457742" />
	</node>
	<node lat="58.35650000209835" lon="8.31349166179549" id="-32977">
		<tag k="name" v="Kalvedalen" />
		<tag k="natural" v="valley" />
		<tag k="place" v="locality" />
		<tag k="ssr:stedsnr" v="457744" />
	</node>
	<node lat="58.575797224054014" lon="8.388188888519595" id="-32979">
		<tag k="name" v="Holta" />
		<tag k="natural" v="slope" />
		<tag k="place" v="locality" />
		<tag k="ssr:stedsnr" v="457852" />
	</node>
	<node lat="58.25221389258728" lon="8.182516669739229" id="-32981">
		<tag k="name" v="Skådane" />
		<tag k="natural" v="slope" />
		<tag k="place" v="locality" />
		<tag k="ssr:stedsnr" v="457953" />
	</node>
	<node lat="58.28761111552508" lon="8.20744722267243" id="-32982">
		<tag k="fixme" v="consider natural=peak for the most distinct mountains in the district" />
		<tag k="name" v="Danmarksknipen" />
		<tag k="natural" v="hill" />
		<tag k="place" v="locality" />
		<tag k="ssr:stedsnr" v="457973" />
	</node>
	<node lat="58.32875000292334" lon="8.277586104989116" id="-32985">
		<tag k="fixme" v="consider natural=peak for the most distinct mountains in the district" />
		<tag k="name" v="Knollen" />
		<tag k="natural" v="hill" />
		<tag k="place" v="locality" />
		<tag k="ssr:stedsnr" v="270507" />
	</node>
	<node lat="58.26103055145931" lon="8.229841663931566" id="-32987">
		<tag k="fixme" v="consider natural=peak for the most distinct mountains in the district" />
		<tag k="name" v="Bronåsene" />
		<tag k="natural" v="hill" />
		<tag k="place" v="locality" />
		<tag k="ssr:stedsnr" v="271307" />
	</node>
	<node lat="58.41763611255391" lon="8.280202772621905" id="-32991">
		<tag k="fixme" v="consider natural=peak for the most distinct mountains in the district" />
		<tag k="name" v="Hundefjellet" />
		<tag k="natural" v="hill" />
		<tag k="place" v="locality" />
		<tag k="ssr:stedsnr" v="275017" />
	</node>
	<node lat="58.47146666372718" lon="8.290341667843096" id="-32994">
		<tag k="name" v="Duvreisdal" />
		<tag k="natural" v="valley" />
		<tag k="place" v="locality" />
		<tag k="ssr:stedsnr" v="275106" />
	</node>
	<node lat="58.45900000357922" lon="8.361494449664981" id="-32996">
		<tag k="fixme" v="consider natural=peak for the most distinct mountains in the district" />
		<tag k="name" v="Rugdeåsen" />
		<tag k="natural" v="hill" />
		<tag k="place" v="locality" />
		<tag k="ssr:stedsnr" v="275120" />
	</node>
	<node lat="58.43970833524215" lon="8.301780558935102" id="-32999">
		<tag k="name" v="Gaupeskåra" />
		<tag k="natural" v="valley" />
		<tag k="place" v="locality" />
		<tag k="ssr:stedsnr" v="275079" />
	</node>
	<node lat="58.433802774938805" lon="8.28456666313385" id="-33000">
		<tag k="fixme" v="consider natural=peak for the most distinct mountains in the district" />
		<tag k="name" v="Skreppefjellheia" />
		<tag k="natural" v="hill" />
		<tag k="place" v="locality" />
		<tag k="ssr:stedsnr" v="275082" />
	</node>
	<node lat="58.516955558126845" lon="8.280283336050863" id="-33002">
		<tag k="name" v="Strulvarsdal" />
		<tag k="natural" v="valley" />
		<tag k="place" v="locality" />
		<tag k="ssr:stedsnr" v="275208" />
	</node>
	<node lat="58.50118889041059" lon="8.32146110696367" id="-33004">
		<tag k="fixme" v="consider natural=peak for the most distinct mountains in the district" />
		<tag k="name" v="Midtheia" />
		<tag k="natural" v="hill" />
		<tag k="place" v="locality" />
		<tag k="ssr:stedsnr" v="275220" />
	</node>
	<node lat="58.50073610950395" lon="8.316094439699182" id="-33005">
		<tag k="name" v="Svevet" />
		<tag k="natural" v="slope" />
		<tag k="place" v="locality" />
		<tag k="ssr:stedsnr" v="275225" />
	</node>
	<node lat="58.47664721897508" lon="8.360019439829852" id="-33010">
		<tag k="name" v="Stutedalen" />
		<tag k="natural" v="valley" />
		<tag k="place" v="locality" />
		<tag k="ssr:stedsnr" v="275177" />
	</node>
	<node lat="58.57075000176849" lon="8.404433340961436" id="-33012">
		<tag k="name" v="Åpåldalen" />
		<tag k="natural" v="valley" />
		<tag k="place" v="locality" />
		<tag k="ssr:stedsnr" v="275303" />
	</node>
	<node lat="58.5192527800474" lon="8.394758333307943" id="-33016">
		<tag k="name" v="Haukemyrliene" />
		<tag k="natural" v="slope" />
		<tag k="place" v="locality" />
		<tag k="ssr:stedsnr" v="275324" />
	</node>
	<node lat="58.31143333097471" lon="8.2087444394922" id="-33018">
		<tag k="fixme" v="consider natural=peak for the most distinct mountains in the district" />
		<tag k="name" v="Multemyråsen" />
		<tag k="natural" v="hill" />
		<tag k="place" v="locality" />
		<tag k="ssr:stedsnr" v="275474" />
	</node>
	<node lat="58.313438885198636" lon="8.219238889757428" id="-33019">
		<tag k="fixme" v="consider natural=peak for the most distinct mountains in the district" />
		<tag k="name" v="Kvieråsen" />
		<tag k="natural" v="hill" />
		<tag k="place" v="locality" />
		<tag k="ssr:stedsnr" v="275484" />
	</node>
	<node lat="58.29521666410539" lon="8.200294436053674" id="-33020">
		<tag k="fixme" v="consider natural=peak for the most distinct mountains in the district" />
		<tag k="name" v="Bronåsen" />
		<tag k="natural" v="hill" />
		<tag k="place" v="locality" />
		<tag k="ssr:stedsnr" v="275489" />
	</node>
	<node lat="58.3677638926806" lon="8.256169439524164" id="-33023">
		<tag k="name" v="Gullskofallet" />
		<tag k="place" v="locality" />
		<tag k="ssr:stedsnr" v="275875" />
	</node>
	<node lat="58.27760277523752" lon="8.184008336949585" id="-33025">
		<tag k="fixme" v="consider natural=peak for the most distinct mountains in the district" />
		<tag k="name" v="Bjørnåsen" />
		<tag k="natural" v="hill" />
		<tag k="place" v="locality" />
		<tag k="ssr:stedsnr" v="275999" />
	</node>
	<node lat="58.53015000173821" lon="8.298891672077778" id="-33029">
		<tag k="name" v="Urmakerdalen" />
		<tag k="natural" v="valley" />
		<tag k="place" v="locality" />
		<tag k="ssr:stedsnr" v="287033" />
	</node>
	<node lat="58.540900001619036" lon="8.228894446556673" id="-33030">
		<tag k="name" v="Tvidalsheia" />
		<tag k="natural" v="hill" />
		<tag k="place" v="locality" />
		<tag k="ssr:stedsnr" v="287112" />
	</node>
	<node lat="58.547658333883035" lon="8.241055557391835" id="-33031">
		<tag k="name" v="Knipefjellet" />
		<tag k="natural" v="cliff" />
		<tag k="ssr:stedsnr" v="287128" />
	</node>
	<node lat="58.30655000157338" lon="8.133213883017143" id="-33032">
		<tag k="name" v="Ropstadknuten" />
		<tag k="natural" v="ridge" />
		<tag k="place" v="locality" />
		<tag k="ssr:stedsnr" v="287303" />
	</node>
	<node lat="58.44113611005101" lon="8.258297222382206" id="-33033">
		<tag k="fixme" v="consider natural=peak for the most distinct mountains in the district" />
		<tag k="name" v="Skjolåsen" />
		<tag k="natural" v="hill" />
		<tag k="place" v="locality" />
		<tag k="ssr:stedsnr" v="287305" />
	</node>
	<node lat="58.415691666184685" lon="8.21888332587674" id="-33035">
		<tag k="fixme" v="consider natural=peak for the most distinct mountains in the district" />
		<tag k="name" v="Iversåsen" />
		<tag k="natural" v="hill" />
		<tag k="place" v="locality" />
		<tag k="ssr:stedsnr" v="287309" />
	</node>
	<node lat="58.3297222234907" lon="8.157797214871351" id="-33036">
		<tag k="name" v="Bjorflaten" />
		<tag k="place" v="locality" />
		<tag k="ssr:stedsnr" v="287313" />
	</node>
	<node lat="58.387602773372905" lon="8.134033332967745" id="-33040">
		<tag k="name" v="Styggetjønndalen" />
		<tag k="natural" v="valley" />
		<tag k="place" v="locality" />
		<tag k="ssr:stedsnr" v="287409" />
	</node>
	<node lat="58.399769441801524" lon="8.12154722257201" id="-33042">
		<tag k="name" v="Kvennåsen" />
		<tag k="natural" v="ridge" />
		<tag k="place" v="locality" />
		<tag k="ssr:stedsnr" v="287479" />
	</node>
	<node lat="58.42018333557123" lon="8.241741658853623" id="-33043">
		<tag k="name" v="Sirdalen" />
		<tag k="natural" v="valley" />
		<tag k="place" v="locality" />
		<tag k="ssr:stedsnr" v="287487" />
	</node>
	<node lat="58.420972224873786" lon="8.241155554164559" id="-33044">
		<tag k="name" v="Kvasshommer" />
		<tag k="natural" v="hill" />
		<tag k="place" v="locality" />
		<tag k="ssr:stedsnr" v="287490" />
	</node>
	<node lat="58.41390833473646" lon="8.268697225087099" id="-33045">
		<tag k="name" v="Bjønndalspynten" />
		<tag k="natural" v="ridge" />
		<tag k="place" v="locality" />
		<tag k="ssr:stedsnr" v="287496" />
	</node>
	<node lat="58.42892777498259" lon="8.270222227959493" id="-33046">
		<tag k="name" v="Urdalen" />
		<tag k="natural" v="valley" />
		<tag k="place" v="locality" />
		<tag k="ssr:stedsnr" v="287497" />
	</node>
	<node lat="58.36813333237625" lon="8.10915833527839" id="-33047">
		<tag k="fixme" v="consider natural=peak for the most distinct mountains in the district" />
		<tag k="name" v="Palsheia" />
		<tag k="natural" v="hill" />
		<tag k="place" v="locality" />
		<tag k="ssr:stedsnr" v="287604" />
	</node>
	<node lat="58.41880833571962" lon="8.141541659172148" id="-33051">
		<tag k="name" v="Helleren" />
		<tag k="place" v="locality" />
		<tag k="ssr:stedsnr" v="287534" />
	</node>
	<node lat="58.37053611131459" lon="8.09977499291794" id="-33052">
		<tag k="name" v="Kniben" />
		<tag k="natural" v="ridge" />
		<tag k="place" v="locality" />
		<tag k="ssr:stedsnr" v="287587" />
	</node>
	<node lat="58.48319999582477" lon="8.172583327203133" id="-33053">
		<tag k="name" v="Bjorhusknotten" />
		<tag k="natural" v="hill" />
		<tag k="place" v="locality" />
		<tag k="ssr:stedsnr" v="287808" />
	</node>
	<node lat="58.49206389167689" lon="8.186263892351713" id="-33056">
		<tag k="name" v="Krosshei" />
		<tag k="natural" v="hill" />
		<tag k="place" v="locality" />
		<tag k="ssr:stedsnr" v="287826" />
	</node>
	<node lat="58.46720000117068" lon="8.146586106041987" id="-33058">
		<tag k="name" v="Omundsufs" />
		<tag k="natural" v="cliff" />
		<tag k="ssr:stedsnr" v="287689" />
	</node>
	<node lat="58.47072221965719" lon="8.117258340071833" id="-33059">
		<tag k="name" v="Vrangli" />
		<tag k="natural" v="slope" />
		<tag k="place" v="locality" />
		<tag k="ssr:stedsnr" v="287692" />
	</node>
	<node lat="58.30828611536988" lon="8.085302785875262" id="-33060">
		<tag k="fixme" v="consider natural=peak for the most distinct mountains in the district" />
		<tag k="name" v="Olavsåsen" />
		<tag k="natural" v="hill" />
		<tag k="place" v="locality" />
		<tag k="ssr:stedsnr" v="287731" />
	</node>
	<node lat="58.53024722261501" lon="8.262963896790097" id="-33064">
		<tag k="name" v="Råbudalsliane" />
		<tag k="natural" v="slope" />
		<tag k="place" v="locality" />
		<tag k="ssr:stedsnr" v="287880" />
	</node>
	<node lat="58.53024721903565" lon="8.22509722777229" id="-33065">
		<tag k="name" v="Ranneidsdal" />
		<tag k="natural" v="valley" />
		<tag k="place" v="locality" />
		<tag k="ssr:stedsnr" v="287889" />
	</node>
	<node lat="58.501597220573025" lon="8.169519449679816" id="-33066">
		<tag k="name" v="Fisketjønnlia" />
		<tag k="natural" v="slope" />
		<tag k="place" v="locality" />
		<tag k="ssr:stedsnr" v="287927" />
	</node>
	<node lat="58.50724166924157" lon="8.201308335850426" id="-33067">
		<tag k="name" v="Tueste" />
		<tag k="place" v="locality" />
		<tag k="ssr:stedsnr" v="287934" />
	</node>
	<node lat="58.48499721820435" lon="8.253936115111856" id="-33068">
		<tag k="name" v="Torborgsdal" />
		<tag k="natural" v="valley" />
		<tag k="place" v="locality" />
		<tag k="ssr:stedsnr" v="287976" />
	</node>
	<node lat="58.5638888924345" lon="8.131313882488081" id="-33071">
		<tag k="name" v="Krosslia" />
		<tag k="natural" v="slope" />
		<tag k="place" v="locality" />
		<tag k="ssr:stedsnr" v="292089" />
	</node>
	<node lat="58.54439166250577" lon="8.075750007893486" id="-33072">
		<tag k="name" v="Skovedalsheia" />
		<tag k="natural" v="hill" />
		<tag k="place" v="locality" />
		<tag k="ssr:stedsnr" v="292310" />
	</node>
	<node lat="58.50498889218765" lon="8.13359722196644" id="-33074">
		<tag k="name" v="Stokkedalsfjellet" />
		<tag k="natural" v="cliff" />
		<tag k="ssr:stedsnr" v="292902" />
	</node>
	<node lat="58.50394999840067" lon="8.121838880759142" id="-33075">
		<tag k="name" v="Engedalen" />
		<tag k="natural" v="valley" />
		<tag k="place" v="locality" />
		<tag k="ssr:stedsnr" v="292907" />
	</node>
	<node lat="58.51582499675798" lon="8.095374998912234" id="-33076">
		<tag k="fixme" v="consider natural=peak for the most distinct mountains in the district" />
		<tag k="name" v="Heimre-fjell" />
		<tag k="natural" v="hill" />
		<tag k="place" v="locality" />
		<tag k="ssr:stedsnr" v="292978" />
	</node>
	<node lat="58.500036109738666" lon="8.100636104411977" id="-33077">
		<tag k="name" v="Tjoreholtane" />
		<tag k="natural" v="slope" />
		<tag k="place" v="locality" />
		<tag k="ssr:stedsnr" v="292991" />
	</node>
	<node lat="58.52143888483737" lon="8.049508335181065" id="-33079">
		<tag k="name" v="Maurdalen" />
		<tag k="natural" v="valley" />
		<tag k="place" v="locality" />
		<tag k="ssr:stedsnr" v="293281" />
	</node>
	<node lat="58.53048611283515" lon="7.9587666674930695" id="-33081">
		<tag k="fixme" v="consider natural=peak for the most distinct mountains in the district" />
		<tag k="name" v="Høgåsfjellet" />
		<tag k="natural" v="hill" />
		<tag k="place" v="locality" />
		<tag k="ssr:stedsnr" v="293926" />
	</node>
	<node lat="58.49362500286251" lon="8.0581944381972" id="-33083">
		<tag k="name" v="Nordmyrheia" />
		<tag k="natural" v="hill" />
		<tag k="place" v="locality" />
		<tag k="ssr:stedsnr" v="303204" />
	</node>
	<node lat="58.307061114305746" lon="8.119213895855838" id="-33085">
		<tag k="fixme" v="consider natural=peak for the most distinct mountains in the district" />
		<tag k="name" v="Svalandsheia" />
		<tag k="natural" v="hill" />
		<tag k="place" v="locality" />
		<tag k="ssr:stedsnr" v="303282" />
	</node>
	<node lat="58.28912499597459" lon="8.125597228571307" id="-33092">
		<tag k="fixme" v="consider natural=peak for the most distinct mountains in the district" />
		<tag k="name" v="Bjorvannsheia" />
		<tag k="natural" v="hill" />
		<tag k="place" v="locality" />
		<tag k="ssr:stedsnr" v="304291" />
	</node>
	<node lat="58.46139999911688" lon="8.183269450630439" id="-33099">
		<tag k="name" v="Bordalen" />
		<tag k="natural" v="valley" />
		<tag k="place" v="locality" />
		<tag k="ssr:stedsnr" v="467869" />
	</node>
	<node lat="58.47261666679096" lon="8.222552776688746" id="-33100">
		<tag k="name" v="Simonsliane" />
		<tag k="natural" v="slope" />
		<tag k="place" v="locality" />
		<tag k="ssr:stedsnr" v="467851" />
	</node>
	<node lat="58.53078333180268" lon="8.30628888622411" id="-33101">
		<tag k="name" v="Ålekjerrheia" />
		<tag k="natural" v="hill" />
		<tag k="place" v="locality" />
		<tag k="ssr:stedsnr" v="468034" />
	</node>
	<node lat="58.445375001429845" lon="8.087158327794917" id="-33110">
		<tag k="fixme" v="consider natural=peak for the most distinct mountains in the district" />
		<tag k="name" v="Åsen" />
		<tag k="natural" v="hill" />
		<tag k="place" v="locality" />
		<tag k="ssr:stedsnr" v="468506" />
	</node>
	<node lat="58.546794444371415" lon="8.372936108809945" id="-33112">
		<tag k="fixme" v="consider natural=peak for the most distinct mountains in the district" />
		<tag k="name" v="Lysåsen" />
		<tag k="natural" v="hill" />
		<tag k="place" v="locality" />
		<tag k="ssr:stedsnr" v="518292" />
	</node>
	<node lat="58.482919440474234" lon="8.207127774294458" id="-33114">
		<tag k="name" v="Orretjønnknotten" />
		<tag k="natural" v="hill" />
		<tag k="place" v="locality" />
		<tag k="ssr:stedsnr" v="468789" />
	</node>
	<node lat="58.33451110963489" lon="8.10971388049485" id="-33116">
		<tag k="name" v="Kolvedbakkane" />
		<tag k="natural" v="slope" />
		<tag k="place" v="locality" />
		<tag k="ssr:stedsnr" v="468745" />
	</node>
	<node lat="58.46412777453274" lon="8.257494441536346" id="-33118">
		<tag k="name" v="Lonedalen" />
		<tag k="natural" v="valley" />
		<tag k="place" v="locality" />
		<tag k="ssr:stedsnr" v="468826" />
	</node>
	<node lat="58.317191669263664" lon="8.13965556067624" id="-33119">
		<tag k="name" v="Askedalen" />
		<tag k="natural" v="valley" />
		<tag k="place" v="locality" />
		<tag k="ssr:stedsnr" v="469229" />
	</node>
	<node lat="58.5483638872868" lon="8.327030560442196" id="-33120">
		<tag k="name" v="Øvredal" />
		<tag k="natural" v="valley" />
		<tag k="place" v="locality" />
		<tag k="ssr:stedsnr" v="469144" />
	</node>
	<node lat="58.3609472221" lon="8.13746945055466" id="-33121">
		<tag k="name" v="Hestmyrknuten" />
		<tag k="natural" v="hill" />
		<tag k="place" v="locality" />
		<tag k="ssr:stedsnr" v="469337" />
	</node>
	<node lat="58.35836111389707" lon="8.133047221021949" id="-33122">
		<tag k="name" v="Eldhuset" />
		<tag k="place" v="locality" />
		<tag k="ssr:stedsnr" v="469339" />
	</node>
	<node lat="58.37765833075692" lon="8.163450005318833" id="-33123">
		<tag k="name" v="Kyredalen" />
		<tag k="natural" v="valley" />
		<tag k="place" v="locality" />
		<tag k="ssr:stedsnr" v="469355" />
	</node>
	<node lat="58.37048610803935" lon="8.164077772411831" id="-33125">
		<tag k="name" v="Bustøldalen" />
		<tag k="natural" v="valley" />
		<tag k="place" v="locality" />
		<tag k="ssr:stedsnr" v="469442" />
	</node>
	<node lat="58.3717666706593" lon="8.183908329139646" id="-33129">
		<tag k="fixme" v="consider natural=peak for the most distinct mountains in the district" />
		<tag k="name" v="Bjønnåsen" />
		<tag k="natural" v="hill" />
		<tag k="place" v="locality" />
		<tag k="ssr:stedsnr" v="469401" />
	</node>
	<node lat="58.375408330271284" lon="8.199097228593047" id="-33130">
		<tag k="name" v="Åsane" />
		<tag k="natural" v="hill" />
		<tag k="place" v="locality" />
		<tag k="ssr:stedsnr" v="469403" />
	</node>
	<node lat="58.37522500140289" lon="8.196536113112707" id="-33131">
		<tag k="name" v="Beslutningsdalen" />
		<tag k="natural" v="valley" />
		<tag k="place" v="locality" />
		<tag k="ssr:stedsnr" v="469407" />
	</node>
	<node lat="58.405330559143664" lon="8.218677773651462" id="-33132">
		<tag k="name" v="Lammedalen" />
		<tag k="natural" v="valley" />
		<tag k="place" v="locality" />
		<tag k="ssr:stedsnr" v="469517" />
	</node>
	<node lat="58.41524999940848" lon="8.145074994309358" id="-33134">
		<tag k="name" v="Joreiddalen" />
		<tag k="natural" v="valley" />
		<tag k="place" v="locality" />
		<tag k="ssr:stedsnr" v="469529" />
	</node>
	<node lat="58.42185555447352" lon="8.272383333671677" id="-33136">
		<tag k="name" v="Barlinddalen" />
		<tag k="natural" v="valley" />
		<tag k="place" v="locality" />
		<tag k="ssr:stedsnr" v="469494" />
	</node>
	<node lat="58.28758333287666" lon="8.10928055008904" id="-33138">
		<tag k="name" v="Spydstangheia" />
		<tag k="natural" v="hill" />
		<tag k="place" v="locality" />
		<tag k="ssr:stedsnr" v="469593" />
	</node>
	<node lat="58.456908336292976" lon="8.078083326574175" id="-33140">
		<tag k="name" v="Hoveliane" />
		<tag k="natural" v="slope" />
		<tag k="place" v="locality" />
		<tag k="ssr:stedsnr" v="469639" />
	</node>
	<node lat="58.36489167064059" lon="8.056577780248675" id="-33141">
		<tag k="name" v="Omestaddalen" />
		<tag k="natural" v="valley" />
		<tag k="place" v="locality" />
		<tag k="ssr:stedsnr" v="469647" />
	</node>
	<node lat="58.35555833683616" lon="8.065255563805056" id="-33143">
		<tag k="name" v="Studefjell" />
		<tag k="natural" v="cliff" />
		<tag k="ssr:stedsnr" v="469654" />
	</node>
	<node lat="58.3415111148074" lon="8.205680551640741" id="-33154">
		<tag k="name" v="Almuesmoen" />
		<tag k="place" v="locality" />
		<tag k="ssr:stedsnr" v="331663" />
	</node>
	<node lat="58.29248333247404" lon="8.279155552190058" id="-33155">
		<tag k="name" v="Dalane" />
		<tag k="natural" v="valley" />
		<tag k="place" v="locality" />
		<tag k="ssr:stedsnr" v="331665" />
	</node>
	<node lat="58.44732500289639" lon="8.310238889449062" id="-33158">
		<tag k="name" v="Gjeldkleivhalsen" />
		<tag k="natural" v="slope" />
		<tag k="place" v="locality" />
		<tag k="ssr:stedsnr" v="336106" />
	</node>
	<node lat="58.469913892124865" lon="8.314933341167189" id="-33160">
		<tag k="name" v="Storemyrlia" />
		<tag k="natural" v="slope" />
		<tag k="place" v="locality" />
		<tag k="ssr:stedsnr" v="336149" />
	</node>
	<node lat="58.46405833420206" lon="8.340958338178693" id="-33161">
		<tag k="name" v="Rundehaug" />
		<tag k="natural" v="hill" />
		<tag k="place" v="locality" />
		<tag k="ssr:stedsnr" v="336161" />
	</node>
	<node lat="58.431863889773574" lon="8.319194451443758" id="-33168">
		<tag k="fixme" v="consider natural=peak for the most distinct mountains in the district" />
		<tag k="name" v="Stiansheia" />
		<tag k="natural" v="hill" />
		<tag k="place" v="locality" />
		<tag k="ssr:stedsnr" v="336099" />
	</node>
	<node lat="58.37033611322813" lon="8.238352770025786" id="-33170">
		<tag k="fixme" v="consider natural=peak for the most distinct mountains in the district" />
		<tag k="name" v="Lonåsen" />
		<tag k="natural" v="hill" />
		<tag k="place" v="locality" />
		<tag k="ssr:stedsnr" v="336815" />
	</node>
	<node lat="58.36780000120791" lon="8.269499991930871" id="-33171">
		<tag k="fixme" v="consider natural=peak for the most distinct mountains in the district" />
		<tag k="name" v="Hefteheia" />
		<tag k="natural" v="hill" />
		<tag k="place" v="locality" />
		<tag k="ssr:stedsnr" v="336819" />
	</node>
	<node lat="58.53482499923764" lon="8.38258334080868" id="-33172">
		<tag k="name" v="Stormyrlia" />
		<tag k="natural" v="slope" />
		<tag k="place" v="locality" />
		<tag k="ssr:stedsnr" v="336847" />
	</node>
	<node lat="58.366119442536764" lon="8.309391673735792" id="-33175">
		<tag k="name" v="Trolldalen" />
		<tag k="natural" v="valley" />
		<tag k="place" v="locality" />
		<tag k="ssr:stedsnr" v="336751" />
	</node>
	<node lat="58.35676667057503" lon="8.273183331780618" id="-33177">
		<tag k="name" v="Svindalen" />
		<tag k="natural" v="valley" />
		<tag k="place" v="locality" />
		<tag k="ssr:stedsnr" v="336793" />
	</node>
	<node lat="58.35188889307746" lon="8.264422228671577" id="-33178">
		<tag k="fixme" v="consider natural=peak for the most distinct mountains in the district" />
		<tag k="name" v="Nedre Steinsåsen" />
		<tag k="natural" v="hill" />
		<tag k="place" v="locality" />
		<tag k="ssr:stedsnr" v="336797" />
	</node>
	<node lat="58.297563892130356" lon="8.17592777252572" id="-33181">
		<tag k="name" v="Rugsland moer" />
		<tag k="place" v="locality" />
		<tag k="ssr:stedsnr" v="336995" />
	</node>
	<node lat="58.46711666929137" lon="8.21255555289776" id="-33185">
		<tag k="name" v="Eikedalsknuten" />
		<tag k="natural" v="hill" />
		<tag k="place" v="locality" />
		<tag k="ssr:stedsnr" v="346869" />
	</node>
	<node lat="58.468908329209796" lon="8.221508334965987" id="-33186">
		<tag k="name" v="Eikedalen" />
		<tag k="natural" v="valley" />
		<tag k="place" v="locality" />
		<tag k="ssr:stedsnr" v="346870" />
	</node>
	<node lat="58.33933333207303" lon="8.159869441026366" id="-33191">
		<tag k="fixme" v="consider natural=peak for the most distinct mountains in the district" />
		<tag k="name" v="Svarteberg" />
		<tag k="natural" v="hill" />
		<tag k="place" v="locality" />
		<tag k="ssr:stedsnr" v="347304" />
	</node>
	<node lat="58.34466388642269" lon="8.121722226435661" id="-33192">
		<tag k="name" v="Kvosten" />
		<tag k="natural" v="hill" />
		<tag k="place" v="locality" />
		<tag k="ssr:stedsnr" v="347310" />
	</node>
	<node lat="58.35745277870266" lon="8.142175006288522" id="-33193">
		<tag k="name" v="Fellesstykket" />
		<tag k="natural" v="slope" />
		<tag k="place" v="locality" />
		<tag k="ssr:stedsnr" v="347320" />
	</node>
	<node lat="58.380544443986444" lon="8.21223333869927" id="-33194">
		<tag k="name" v="Trolldalen" />
		<tag k="natural" v="valley" />
		<tag k="place" v="locality" />
		<tag k="ssr:stedsnr" v="347406" />
	</node>
	<node lat="58.399333332995425" lon="8.114983334471662" id="-33196">
		<tag k="fixme" v="consider natural=peak for the most distinct mountains in the district" />
		<tag k="name" v="Sagdalsheia" />
		<tag k="natural" v="hill" />
		<tag k="place" v="locality" />
		<tag k="ssr:stedsnr" v="347421" />
	</node>
	<node lat="58.376583329630165" lon="8.094391668104114" id="-33202">
		<tag k="name" v="Halvvegsupsa" />
		<tag k="natural" v="cliff" />
		<tag k="ssr:stedsnr" v="347579" />
	</node>
	<node lat="58.46255555696257" lon="8.25694999614849" id="-33205">
		<tag k="name" v="Venepal" />
		<tag k="place" v="locality" />
		<tag k="ssr:stedsnr" v="347860" />
	</node>
	<node lat="58.599449996602694" lon="8.171405558310614" id="-33210">
		<tag k="name" v="Stedalen" />
		<tag k="natural" v="valley" />
		<tag k="place" v="locality" />
		<tag k="ssr:stedsnr" v="474720" />
	</node>
	<node lat="58.608683335138394" lon="8.138711112070922" id="-33211">
		<tag k="name" v="Døla" />
		<tag k="natural" v="valley" />
		<tag k="place" v="locality" />
		<tag k="ssr:stedsnr" v="474735" />
	</node>
	<node lat="58.50763055467565" lon="8.10824166453086" id="-33213">
		<tag k="name" v="Bjønndalen" />
		<tag k="natural" v="valley" />
		<tag k="place" v="locality" />
		<tag k="ssr:stedsnr" v="473980" />
	</node>
	<node lat="58.495208335916644" lon="8.017280550290668" id="-33216">
		<tag k="name" v="Kvenneheia" />
		<tag k="natural" v="hill" />
		<tag k="place" v="locality" />
		<tag k="ssr:stedsnr" v="474042" />
	</node>
	<node lat="58.51021666241765" lon="8.029405550746846" id="-33217">
		<tag k="name" v="Engedalen" />
		<tag k="natural" v="valley" />
		<tag k="place" v="locality" />
		<tag k="ssr:stedsnr" v="474072" />
	</node>
	<node lat="58.56592222031175" lon="8.112913895886125" id="-33225">
		<tag k="name" v="Nyklefjell" />
		<tag k="natural" v="cliff" />
		<tag k="ssr:stedsnr" v="352109" />
	</node>
	<node lat="58.539155557367756" lon="8.005400001686926" id="-33228">
		<tag k="name" v="Djupedalsknuten" />
		<tag k="natural" v="hill" />
		<tag k="place" v="locality" />
		<tag k="ssr:stedsnr" v="474297" />
	</node>
	<node lat="58.54841666472019" lon="8.164402773648154" id="-33229">
		<tag k="name" v="Kleivane" />
		<tag k="natural" v="slope" />
		<tag k="place" v="locality" />
		<tag k="ssr:stedsnr" v="352355" />
	</node>
	<node lat="58.5496222178754" lon="8.145244447246984" id="-33230">
		<tag k="name" v="Ribbåsløa" />
		<tag k="place" v="locality" />
		<tag k="ssr:stedsnr" v="352358" />
	</node>
	<node lat="58.567008333245454" lon="8.184322216682247" id="-33231">
		<tag k="name" v="Engedalen" />
		<tag k="natural" v="valley" />
		<tag k="place" v="locality" />
		<tag k="ssr:stedsnr" v="352665" />
	</node>
	<node lat="58.532499995938416" lon="8.03611389027498" id="-33234">
		<tag k="name" v="Bagli" />
		<tag k="natural" v="slope" />
		<tag k="place" v="locality" />
		<tag k="ssr:stedsnr" v="352719" />
	</node>
	<node lat="58.5309527820427" lon="8.045211110455986" id="-33235">
		<tag k="name" v="Badstuheia" />
		<tag k="natural" v="hill" />
		<tag k="place" v="locality" />
		<tag k="ssr:stedsnr" v="352721" />
	</node>
	<node lat="58.52755555863312" lon="8.040608330203161" id="-33236">
		<tag k="name" v="Moldbrotane" />
		<tag k="natural" v="slope" />
		<tag k="place" v="locality" />
		<tag k="ssr:stedsnr" v="352722" />
	</node>
	<node lat="58.49517777689719" lon="8.062313884356671" id="-33245">
		<tag k="name" v="Trettedalen" />
		<tag k="natural" v="valley" />
		<tag k="place" v="locality" />
		<tag k="ssr:stedsnr" v="353916" />
	</node>
	<node lat="58.48120833385369" lon="8.104372225082283" id="-33246">
		<tag k="name" v="Rønningen" />
		<tag k="natural" v="slope" />
		<tag k="place" v="locality" />
		<tag k="ssr:stedsnr" v="353919" />
	</node>
	<node lat="58.54436111124346" lon="8.165683330218265" id="-33247">
		<tag k="name" v="Ågardskrokane" />
		<tag k="natural" v="valley" />
		<tag k="place" v="locality" />
		<tag k="ssr:stedsnr" v="474483" />
	</node>
	<node lat="58.55218055578477" lon="8.180577769999696" id="-33248">
		<tag k="name" v="Varpebakken" />
		<tag k="natural" v="slope" />
		<tag k="place" v="locality" />
		<tag k="ssr:stedsnr" v="474485" />
	</node>
	<node lat="58.526980558103766" lon="7.938830562547411" id="-33251">
		<tag k="fixme" v="consider natural=peak for the most distinct mountains in the district" />
		<tag k="name" v="Sjengsberget" />
		<tag k="natural" v="hill" />
		<tag k="place" v="locality" />
		<tag k="ssr:stedsnr" v="353659" />
	</node>
	<node lat="58.538552774821845" lon="7.9442111186566695" id="-33252">
		<tag k="name" v="Åsen" />
		<tag k="natural" v="hill" />
		<tag k="place" v="locality" />
		<tag k="ssr:stedsnr" v="353663" />
	</node>
	<node lat="58.57621110740158" lon="8.180091661826289" id="-33254">
		<tag k="name" v="Krossdalene" />
		<tag k="natural" v="valley" />
		<tag k="place" v="locality" />
		<tag k="ssr:stedsnr" v="474691" />
	</node>
	<node lat="58.584305554608136" lon="8.166169449417675" id="-33255">
		<tag k="name" v="Storesteane" />
		<tag k="place" v="locality" />
		<tag k="ssr:stedsnr" v="474695" />
	</node>
	<node lat="58.589755554889386" lon="8.172050004467973" id="-33257">
		<tag k="name" v="Kvennhuskleiva" />
		<tag k="natural" v="slope" />
		<tag k="place" v="locality" />
		<tag k="ssr:stedsnr" v="474697" />
	</node>
	<node lat="58.58781111497021" lon="8.185541669059942" id="-33258">
		<tag k="name" v="Geiteknatten" />
		<tag k="natural" v="hill" />
		<tag k="place" v="locality" />
		<tag k="ssr:stedsnr" v="474700" />
	</node>
	<node lat="58.61390555810277" lon="8.136747220309037" id="-33260">
		<tag k="name" v="Dalansløa" />
		<tag k="place" v="locality" />
		<tag k="ssr:stedsnr" v="474744" />
	</node>
	<node lat="58.50736388495875" lon="8.118708332973966" id="-33263">
		<tag k="name" v="Vedredalen" />
		<tag k="natural" v="valley" />
		<tag k="place" v="locality" />
		<tag k="ssr:stedsnr" v="474897" />
	</node>
	<node lat="58.55463055948726" lon="8.010777780307652" id="-33265">
		<tag k="name" v="Torborgsdalen" />
		<tag k="natural" v="valley" />
		<tag k="place" v="locality" />
		<tag k="ssr:stedsnr" v="475653" />
	</node>
	<node lat="58.51911111492876" lon="7.997344441368142" id="-33266">
		<tag k="name" v="Djupedal" />
		<tag k="natural" v="valley" />
		<tag k="place" v="locality" />
		<tag k="ssr:stedsnr" v="475979" />
	</node>
	<node lat="58.484330556808054" lon="8.075958341281385" id="-33268">
		<tag k="name" v="Voggesteindalen" />
		<tag k="natural" v="valley" />
		<tag k="place" v="locality" />
		<tag k="ssr:stedsnr" v="475938" />
	</node>
	<node lat="58.49149166937433" lon="7.996866663962285" id="-33275">
		<tag k="fixme" v="consider natural=peak for the most distinct mountains in the district" />
		<tag k="name" v="Rausheia" />
		<tag k="natural" v="hill" />
		<tag k="place" v="locality" />
		<tag k="ssr:stedsnr" v="364222" />
	</node>
	<node lat="58.50595833421469" lon="7.950888895329982" id="-33277">
		<tag k="fixme" v="consider natural=peak for the most distinct mountains in the district" />
		<tag k="name" v="Salen" />
		<tag k="natural" v="hill" />
		<tag k="place" v="locality" />
		<tag k="ssr:stedsnr" v="364412" />
	</node>
	<node lat="58.36883610870979" lon="8.130311103702109" id="-33278">
		<tag k="name" v="Langedal" />
		<tag k="natural" v="valley" />
		<tag k="place" v="locality" />
		<tag k="ssr:stedsnr" v="364349" />
	</node>
	<node lat="58.440341670395526" lon="8.19555555506974" id="-33279">
		<tag k="fixme" v="consider natural=peak for the most distinct mountains in the district" />
		<tag k="name" v="Trolldalsknuten" />
		<tag k="natural" v="hill" />
		<tag k="place" v="locality" />
		<tag k="ssr:stedsnr" v="364395" />
	</node>
	<node lat="58.44478888732719" lon="8.153841673824257" id="-33280">
		<tag k="fixme" v="consider natural=peak for the most distinct mountains in the district" />
		<tag k="name" v="Tereknipen" />
		<tag k="natural" v="hill" />
		<tag k="place" v="locality" />
		<tag k="ssr:stedsnr" v="364400" />
	</node>
	<node lat="58.446174999838384" lon="8.120900001137729" id="-33281">
		<tag k="name" v="Bjervamoen" />
		<tag k="place" v="locality" />
		<tag k="ssr:stedsnr" v="364495" />
	</node>
	<node lat="58.501191670997066" lon="8.321174999182427" id="-33282">
		<tag k="fixme" v="consider natural=peak for the most distinct mountains in the district" />
		<tag k="name" v="Bjellandsheia" />
		<tag k="natural" v="hill" />
		<tag k="place" v="locality" />
		<tag k="ssr:stedsnr" v="365011" />
	</node>
	<node lat="58.342641666442205" lon="8.327986109882172" id="-33290">
		<tag k="fixme" v="consider natural=peak for the most distinct mountains in the district" />
		<tag k="name" v="Elgåsen" />
		<tag k="natural" v="hill" />
		<tag k="place" v="locality" />
		<tag k="ssr:stedsnr" v="391694" />
	</node>
	<node lat="58.339447221179" lon="8.31553611776336" id="-33291">
		<tag k="name" v="Dalane" />
		<tag k="natural" v="valley" />
		<tag k="place" v="locality" />
		<tag k="ssr:stedsnr" v="391696" />
	</node>
	<node lat="58.344963889547614" lon="8.241963891329881" id="-33297">
		<tag k="fixme" v="consider natural=peak for the most distinct mountains in the district" />
		<tag k="name" v="Årdalsåsen" />
		<tag k="natural" v="hill" />
		<tag k="place" v="locality" />
		<tag k="ssr:stedsnr" v="392404" />
	</node>
	<node lat="58.45385277605293" lon="8.361463897126022" id="-33300">
		<tag k="name" v="Vaseheia" />
		<tag k="natural" v="slope" />
		<tag k="place" v="locality" />
		<tag k="ssr:stedsnr" v="396113" />
	</node>
	<node lat="58.47089444355752" lon="8.382683332032409" id="-33302">
		<tag k="name" v="Takkjerrlia" />
		<tag k="natural" v="slope" />
		<tag k="place" v="locality" />
		<tag k="ssr:stedsnr" v="396130" />
	</node>
	<node lat="58.46202221917711" lon="8.374061106561394" id="-33304">
		<tag k="name" v="Vedalen" />
		<tag k="natural" v="valley" />
		<tag k="place" v="locality" />
		<tag k="ssr:stedsnr" v="396139" />
	</node>
	<node lat="58.37472222558357" lon="8.287475006671942" id="-33306">
		<tag k="name" v="Kvennebakkane" />
		<tag k="natural" v="hill" />
		<tag k="place" v="locality" />
		<tag k="ssr:stedsnr" v="396010" />
	</node>
	<node lat="58.43087499698284" lon="8.288405560264517" id="-33307">
		<tag k="name" v="Skardalen" />
		<tag k="natural" v="valley" />
		<tag k="place" v="locality" />
		<tag k="ssr:stedsnr" v="396011" />
	</node>
	<node lat="58.43031667057803" lon="8.298797221554759" id="-33308">
		<tag k="name" v="Grøndalssletta" />
		<tag k="place" v="locality" />
		<tag k="ssr:stedsnr" v="396012" />
	</node>
	<node lat="58.41487500094589" lon="8.281100006041616" id="-33309">
		<tag k="name" v="Mellom" />
		<tag k="natural" v="slope" />
		<tag k="place" v="locality" />
		<tag k="ssr:stedsnr" v="396014" />
	</node>
	<node lat="58.39455277494584" lon="8.28406665917077" id="-33311">
		<tag k="fixme" v="consider natural=peak for the most distinct mountains in the district" />
		<tag k="name" v="Torskjerrknipen" />
		<tag k="natural" v="hill" />
		<tag k="place" v="locality" />
		<tag k="ssr:stedsnr" v="396040" />
	</node>
	<node lat="58.47473333767107" lon="8.281613881848243" id="-33313">
		<tag k="name" v="Byttingsdalen" />
		<tag k="natural" v="valley" />
		<tag k="place" v="locality" />
		<tag k="ssr:stedsnr" v="396082" />
	</node>
	<node lat="58.46859166786318" lon="8.301066661151193" id="-33314">
		<tag k="name" v="Hunsdalen" />
		<tag k="natural" v="valley" />
		<tag k="place" v="locality" />
		<tag k="ssr:stedsnr" v="396091" />
	</node>
	<node lat="58.584772221005124" lon="8.421636113834957" id="-33321">
		<tag k="fixme" v="consider natural=peak for the most distinct mountains in the district" />
		<tag k="name" v="Tvitjennåsen" />
		<tag k="natural" v="hill" />
		<tag k="place" v="locality" />
		<tag k="ssr:stedsnr" v="396305" />
	</node>
	<node lat="58.58729166512583" lon="8.394555550362547" id="-33323">
		<tag k="fixme" v="consider natural=peak for the most distinct mountains in the district" />
		<tag k="name" v="Smørtjønnrindene" />
		<tag k="natural" v="hill" />
		<tag k="place" v="locality" />
		<tag k="ssr:stedsnr" v="396313" />
	</node>
	<node lat="58.56882778133112" lon="8.41231666490615" id="-33324">
		<tag k="fixme" v="consider natural=peak for the most distinct mountains in the district" />
		<tag k="name" v="Berkestølheia" />
		<tag k="natural" v="hill" />
		<tag k="place" v="locality" />
		<tag k="ssr:stedsnr" v="396333" />
	</node>
	<node lat="58.31636666284393" lon="8.18024443683104" id="-33326">
		<tag k="fixme" v="consider natural=peak for the most distinct mountains in the district" />
		<tag k="name" v="Kringelvollheia" />
		<tag k="natural" v="hill" />
		<tag k="place" v="locality" />
		<tag k="ssr:stedsnr" v="396488" />
	</node>
	<node lat="58.360666666200736" lon="8.289530551574847" id="-33329">
		<tag k="name" v="Hoggebakken" />
		<tag k="natural" v="hill" />
		<tag k="place" v="locality" />
		<tag k="ssr:stedsnr" v="396781" />
	</node>
	<node lat="58.38668055679075" lon="8.238561110828515" id="-33331">
		<tag k="fixme" v="consider natural=peak for the most distinct mountains in the district" />
		<tag k="name" v="Steheia" />
		<tag k="natural" v="hill" />
		<tag k="place" v="locality" />
		<tag k="ssr:stedsnr" v="396793" />
	</node>
	<node lat="58.37841110815529" lon="8.237369444852103" id="-33332">
		<tag k="fixme" v="consider natural=peak for the most distinct mountains in the district" />
		<tag k="name" v="Svartetjønnåsen" />
		<tag k="natural" v="hill" />
		<tag k="place" v="locality" />
		<tag k="ssr:stedsnr" v="396795" />
	</node>
	<node lat="58.37402500117377" lon="8.249769439052917" id="-33336">
		<tag k="name" v="Haugedalen" />
		<tag k="natural" v="valley" />
		<tag k="place" v="locality" />
		<tag k="ssr:stedsnr" v="396805" />
	</node>
	<node lat="58.45560000391088" lon="8.30851389395511" id="-33338">
		<tag k="name" v="Skotane" />
		<tag k="natural" v="slope" />
		<tag k="place" v="locality" />
		<tag k="ssr:stedsnr" v="396824" />
	</node>
	<node lat="58.43545278177755" lon="8.341008332576884" id="-33341">
		<tag k="name" v="Hitre Surtemyrdal" />
		<tag k="natural" v="valley" />
		<tag k="place" v="locality" />
		<tag k="ssr:stedsnr" v="396828" />
	</node>
	<node lat="58.365530552857415" lon="8.239497217235087" id="-33343">
		<tag k="name" v="Hansesdal" />
		<tag k="natural" v="valley" />
		<tag k="place" v="locality" />
		<tag k="ssr:stedsnr" v="396839" />
	</node>
	<node lat="58.30668055266241" lon="8.305230554438662" id="-33350">
		<tag k="fixme" v="consider natural=peak for the most distinct mountains in the district" />
		<tag k="name" v="Elshåmmeren" />
		<tag k="natural" v="hill" />
		<tag k="place" v="locality" />
		<tag k="ssr:stedsnr" v="485227" />
	</node>
	<node lat="58.45178889004182" lon="8.269813890589317" id="-33353">
		<tag k="fixme" v="consider natural=peak for the most distinct mountains in the district" />
		<tag k="name" v="Drivåsheia" />
		<tag k="natural" v="hill" />
		<tag k="place" v="locality" />
		<tag k="ssr:stedsnr" v="485439" />
	</node>
	<node lat="58.47096110861948" lon="8.1114277863363" id="-33354">
		<tag k="alt_name" v="Kvasshamar" />
		<tag k="fixme" v="consider natural=peak for the most distinct mountains in the district" />
		<tag k="name" v="Kvasshåmmaren" />
		<tag k="natural" v="hill" />
		<tag k="place" v="locality" />
		<tag k="ssr:stedsnr" v="485391" />
	</node>
	<node lat="58.528830552346314" lon="8.369019442536883" id="-33358">
		<tag k="fixme" v="consider natural=peak for the most distinct mountains in the district" />
		<tag k="name" v="Tereleiken" />
		<tag k="natural" v="hill" />
		<tag k="place" v="locality" />
		<tag k="ssr:stedsnr" v="486040" />
	</node>
	<node lat="58.587091663760646" lon="8.124902782489697" id="-33363">
		<tag k="alt_name" v="Kjerkemoen" />
		<tag k="name" v="Kjørkemoen" />
		<tag k="place" v="locality" />
		<tag k="ssr:stedsnr" v="486146" />
	</node>
	<node lat="58.32423055544058" lon="8.078477783521471" id="-33366">
		<tag k="name" v="Hollemyrdalen" />
		<tag k="natural" v="valley" />
		<tag k="place" v="locality" />
		<tag k="ssr:stedsnr" v="407757" />
	</node>
	<node lat="58.32421110836356" lon="8.085133331869747" id="-33368">
		<tag k="name" v="Liane" />
		<tag k="natural" v="slope" />
		<tag k="place" v="locality" />
		<tag k="ssr:stedsnr" v="407760" />
	</node>
	<node lat="58.5414500007116" lon="8.295808333445418" id="-33369">
		<tag k="name" v="Gunnvaldsbulia" />
		<tag k="natural" v="slope" />
		<tag k="place" v="locality" />
		<tag k="ssr:stedsnr" v="408011" />
	</node>
	<node lat="58.554919442721975" lon="8.325902774803016" id="-33372">
		<tag k="name" v="Blautekjerrheia" />
		<tag k="natural" v="hill" />
		<tag k="place" v="locality" />
		<tag k="ssr:stedsnr" v="408146" />
	</node>
	<node lat="58.54691666339662" lon="8.324233329314144" id="-33373">
		<tag k="name" v="Mellerdal" />
		<tag k="natural" v="valley" />
		<tag k="place" v="locality" />
		<tag k="ssr:stedsnr" v="408150" />
	</node>
	<node lat="58.43476666695177" lon="8.271861114373197" id="-33376">
		<tag k="name" v="Buhusheia" />
		<tag k="natural" v="slope" />
		<tag k="place" v="locality" />
		<tag k="ssr:stedsnr" v="408292" />
	</node>
	<node lat="58.43499444676861" lon="8.265733324999813" id="-33377">
		<tag k="name" v="Morsdalsfjella" />
		<tag k="natural" v="cliff" />
		<tag k="ssr:stedsnr" v="408293" />
	</node>
	<node lat="58.44646388648255" lon="8.221922222957572" id="-33378">
		<tag k="name" v="Heimdalen" />
		<tag k="natural" v="valley" />
		<tag k="place" v="locality" />
		<tag k="ssr:stedsnr" v="408407" />
	</node>
	<node lat="58.440169446733364" lon="8.215258326961658" id="-33381">
		<tag k="name" v="Refstadbrekkane" />
		<tag k="natural" v="slope" />
		<tag k="place" v="locality" />
		<tag k="ssr:stedsnr" v="408410" />
	</node>
	<node lat="58.375250004101495" lon="8.184144436933968" id="-33382">
		<tag k="name" v="Honnekjerrliane" />
		<tag k="natural" v="slope" />
		<tag k="place" v="locality" />
		<tag k="ssr:stedsnr" v="408419" />
	</node>
	<node lat="58.35966666556068" lon="8.186219436072298" id="-33385">
		<tag k="fixme" v="consider natural=peak for the most distinct mountains in the district" />
		<tag k="name" v="Heståsen" />
		<tag k="natural" v="hill" />
		<tag k="place" v="locality" />
		<tag k="ssr:stedsnr" v="408455" />
	</node>
	<node lat="58.475397217763245" lon="8.201561105914186" id="-33393">
		<tag k="name" v="Slarpedalen" />
		<tag k="natural" v="valley" />
		<tag k="place" v="locality" />
		<tag k="ssr:stedsnr" v="408802" />
	</node>
	<node lat="58.45715555679489" lon="8.252861113842469" id="-33396">
		<tag k="name" v="Grosdal" />
		<tag k="natural" v="valley" />
		<tag k="place" v="locality" />
		<tag k="ssr:stedsnr" v="408827" />
	</node>
	<node lat="58.4647249957924" lon="8.244966662504748" id="-33397">
		<tag k="name" v="Svoeknuten" />
		<tag k="natural" v="hill" />
		<tag k="place" v="locality" />
		<tag k="ssr:stedsnr" v="408831" />
	</node>
	<node lat="58.500455556987745" lon="8.269313880623349" id="-33402">
		<tag k="fixme" v="consider natural=peak for the most distinct mountains in the district" />
		<tag k="name" v="Breisåsen" />
		<tag k="natural" v="hill" />
		<tag k="place" v="locality" />
		<tag k="ssr:stedsnr" v="408917" />
	</node>
	<node lat="58.51307499694074" lon="8.257294437433798" id="-33405">
		<tag k="name" v="Urdalsknatten" />
		<tag k="natural" v="ridge" />
		<tag k="place" v="locality" />
		<tag k="ssr:stedsnr" v="408927" />
	</node>
	<node lat="58.51122222639619" lon="8.254436105859618" id="-33406">
		<tag k="name" v="Hestfjell" />
		<tag k="natural" v="hill" />
		<tag k="place" v="locality" />
		<tag k="ssr:stedsnr" v="408932" />
	</node>
	<node lat="58.54175555248473" lon="8.135633331990075" id="-33413">
		<tag k="name" v="Djupedal" />
		<tag k="natural" v="valley" />
		<tag k="place" v="locality" />
		<tag k="ssr:stedsnr" v="413406" />
	</node>
	<node lat="58.52445833468397" lon="8.024077776285857" id="-33416">
		<tag k="name" v="Døyndalen" />
		<tag k="natural" v="valley" />
		<tag k="place" v="locality" />
		<tag k="ssr:stedsnr" v="413708" />
	</node>
	<node lat="58.595780551172226" lon="8.17287221601445" id="-33417">
		<tag k="name" v="Brakkemonen" />
		<tag k="place" v="locality" />
		<tag k="ssr:stedsnr" v="413713" />
	</node>
	<node lat="58.49638333422211" lon="8.060022214558234" id="-33419">
		<tag k="name" v="Trettekollen" />
		<tag k="natural" v="hill" />
		<tag k="place" v="locality" />
		<tag k="ssr:stedsnr" v="413893" />
	</node>
	<node lat="58.515405557329814" lon="8.139202769527124" id="-33421">
		<tag k="name" v="Tykkeli" />
		<tag k="natural" v="slope" />
		<tag k="place" v="locality" />
		<tag k="ssr:stedsnr" v="413906" />
	</node>
	<node lat="58.51245555570953" lon="7.9738638806144415" id="-33424">
		<tag k="name" v="Skarkedalen" />
		<tag k="natural" v="valley" />
		<tag k="place" v="locality" />
		<tag k="ssr:stedsnr" v="414087" />
	</node>
	<node lat="58.51125277706019" lon="7.991016662500143" id="-33425">
		<tag k="name" v="Bårdsdal" />
		<tag k="natural" v="valley" />
		<tag k="place" v="locality" />
		<tag k="ssr:stedsnr" v="414090" />
	</node>
	<node lat="58.547625000351495" lon="7.980558338229213" id="-33427">
		<tag k="name" v="Ørnedalsfjellet" />
		<tag k="natural" v="hill" />
		<tag k="place" v="locality" />
		<tag k="ssr:stedsnr" v="414637" />
	</node>
	<node lat="58.478516663842115" lon="8.056366669681701" id="-33429">
		<tag k="name" v="Flaten" />
		<tag k="place" v="locality" />
		<tag k="ssr:stedsnr" v="414807" />
	</node>
	<node lat="58.486838888641344" lon="8.149502771516811" id="-33430">
		<tag k="name" v="Storhei" />
		<tag k="natural" v="hill" />
		<tag k="place" v="locality" />
		<tag k="ssr:stedsnr" v="414809" />
	</node>
	<node lat="58.52599722357781" lon="7.982869444994765" id="-33432">
		<tag k="name" v="Sløkebekkdalen" />
		<tag k="natural" v="valley" />
		<tag k="place" v="locality" />
		<tag k="ssr:stedsnr" v="414906" />
	</node>
	<node lat="58.480566668757724" lon="8.082727774955568" id="-33433">
		<tag k="name" v="Snødalen" />
		<tag k="natural" v="valley" />
		<tag k="place" v="locality" />
		<tag k="ssr:stedsnr" v="414911" />
	</node>
	<node lat="58.48720555410549" lon="8.089183331668927" id="-33434">
		<tag k="name" v="Midbakken" />
		<tag k="natural" v="slope" />
		<tag k="place" v="locality" />
		<tag k="ssr:stedsnr" v="414912" />
	</node>
	<node lat="58.41073889284168" lon="8.137699992189606" id="-33444">
		<tag k="name" v="Dalansdalen" />
		<tag k="natural" v="valley" />
		<tag k="place" v="locality" />
		<tag k="ssr:stedsnr" v="425416" />
	</node>
	<node lat="58.56603611241159" lon="8.36479165881786" id="-33453">
		<tag k="alt_name" v="Moheia" />
		<tag k="fixme" v="consider natural=peak for the most distinct mountains in the district" />
		<tag k="name" v="Moenheia" />
		<tag k="natural" v="hill" />
		<tag k="place" v="locality" />
		<tag k="ssr:stedsnr" v="426152" />
	</node>
	<node lat="58.34664166659831" lon="8.210847221483299" id="-33462">
		<tag k="name" v="Sauestøldalen" />
		<tag k="natural" v="valley" />
		<tag k="place" v="locality" />
		<tag k="ssr:stedsnr" v="453368" />
	</node>
	<node lat="58.34372777708675" lon="8.198902774345841" id="-33463">
		<tag k="fixme" v="consider natural=peak for the most distinct mountains in the district" />
		<tag k="name" v="Ørnefjellet" />
		<tag k="natural" v="hill" />
		<tag k="place" v="locality" />
		<tag k="ssr:stedsnr" v="453369" />
	</node>
	<node lat="58.33881388739286" lon="8.277230553847485" id="-33466">
		<tag k="fixme" v="consider natural=peak for the most distinct mountains in the district" />
		<tag k="name" v="Langsåsen" />
		<tag k="natural" v="hill" />
		<tag k="place" v="locality" />
		<tag k="ssr:stedsnr" v="453675" />
	</node>
	<node lat="58.45957499990822" lon="8.359158340614107" id="-33467">
		<tag k="name" v="Trollgjelet" />
		<tag k="natural" v="valley" />
		<tag k="place" v="locality" />
		<tag k="ssr:stedsnr" v="457119" />
	</node>
	<node lat="58.46017222474354" lon="8.364505560943831" id="-33468">
		<tag k="name" v="Høykoll" />
		<tag k="natural" v="hill" />
		<tag k="place" v="locality" />
		<tag k="ssr:stedsnr" v="457120" />
	</node>
	<node lat="58.46458888483025" lon="8.371527772305255" id="-33469">
		<tag k="name" v="Joppes" />
		<tag k="natural" v="slope" />
		<tag k="place" v="locality" />
		<tag k="ssr:stedsnr" v="457121" />
	</node>
	<node lat="58.45802222122764" lon="8.346883338868073" id="-33471">
		<tag k="name" v="Åmlidalen" />
		<tag k="natural" v="valley" />
		<tag k="place" v="locality" />
		<tag k="ssr:stedsnr" v="457130" />
	</node>
	<node lat="58.470050000111605" lon="8.36842777769217" id="-33472">
		<tag k="fixme" v="consider natural=peak for the most distinct mountains in the district" />
		<tag k="name" v="Gjøsebakken" />
		<tag k="natural" v="hill" />
		<tag k="place" v="locality" />
		<tag k="ssr:stedsnr" v="457139" />
	</node>
	<node lat="58.47642499708796" lon="8.290363895356068" id="-33473">
		<tag k="fixme" v="consider natural=peak for the most distinct mountains in the district" />
		<tag k="name" v="Barlindåsen" />
		<tag k="natural" v="hill" />
		<tag k="place" v="locality" />
		<tag k="ssr:stedsnr" v="457147" />
	</node>
	<node lat="58.486091662328654" lon="8.325411107784738" id="-33475">
		<tag k="name" v="Hella" />
		<tag k="place" v="locality" />
		<tag k="ssr:stedsnr" v="457160" />
	</node>
	<node lat="58.475308332958335" lon="8.32739444921419" id="-33477">
		<tag k="name" v="Tellefskålknatten" />
		<tag k="natural" v="ridge" />
		<tag k="place" v="locality" />
		<tag k="ssr:stedsnr" v="457166" />
	</node>
	<node lat="58.47912777977497" lon="8.359955550215556" id="-33479">
		<tag k="fixme" v="consider natural=peak for the most distinct mountains in the district" />
		<tag k="name" v="Holmetjennheia" />
		<tag k="natural" v="hill" />
		<tag k="place" v="locality" />
		<tag k="ssr:stedsnr" v="457178" />
	</node>
	<node lat="58.42156389275432" lon="8.285913895666898" id="-33482">
		<tag k="name" v="Vabakken" />
		<tag k="natural" v="hill" />
		<tag k="place" v="locality" />
		<tag k="ssr:stedsnr" v="457014" />
	</node>
	<node lat="58.41830833677149" lon="8.303994439624619" id="-33483">
		<tag k="fixme" v="consider natural=peak for the most distinct mountains in the district" />
		<tag k="name" v="Hengeknuten" />
		<tag k="natural" v="hill" />
		<tag k="place" v="locality" />
		<tag k="ssr:stedsnr" v="457020" />
	</node>
	<node lat="58.39883055713461" lon="8.29346944902516" id="-33488">
		<tag k="fixme" v="consider natural=peak for the most distinct mountains in the district" />
		<tag k="name" v="Hoggebakkane" />
		<tag k="natural" v="hill" />
		<tag k="place" v="locality" />
		<tag k="ssr:stedsnr" v="457051" />
	</node>
	<node lat="58.40348055890381" lon="8.31733610494739" id="-33489">
		<tag k="fixme" v="consider natural=peak for the most distinct mountains in the district" />
		<tag k="name" v="Langevassåsen" />
		<tag k="natural" v="hill" />
		<tag k="place" v="locality" />
		<tag k="ssr:stedsnr" v="457052" />
	</node>
	<node lat="58.43896666262874" lon="8.351052779812717" id="-33491">
		<tag k="name" v="Seljebakken" />
		<tag k="natural" v="slope" />
		<tag k="place" v="locality" />
		<tag k="ssr:stedsnr" v="457064" />
	</node>
	<node lat="58.447641664627284" lon="8.373433339558353" id="-33492">
		<tag k="name" v="Bjortjennlia" />
		<tag k="natural" v="slope" />
		<tag k="place" v="locality" />
		<tag k="ssr:stedsnr" v="457068" />
	</node>
	<node lat="58.4365055522183" lon="8.315041674039872" id="-33493">
		<tag k="name" v="Grønnbekklia" />
		<tag k="natural" v="slope" />
		<tag k="place" v="locality" />
		<tag k="ssr:stedsnr" v="457078" />
	</node>
	<node lat="58.49904722396364" lon="8.34388889097627" id="-33494">
		<tag k="fixme" v="consider natural=peak for the most distinct mountains in the district" />
		<tag k="name" v="Silefjell" />
		<tag k="natural" v="hill" />
		<tag k="place" v="locality" />
		<tag k="ssr:stedsnr" v="457205" />
	</node>
	<node lat="58.504983335568795" lon="8.352433330923636" id="-33495">
		<tag k="name" v="Skoddalen" />
		<tag k="natural" v="valley" />
		<tag k="place" v="locality" />
		<tag k="ssr:stedsnr" v="457207" />
	</node>
	<node lat="58.55146666364008" lon="8.335147219697527" id="-33498">
		<tag k="fixme" v="consider natural=peak for the most distinct mountains in the district" />
		<tag k="name" v="Hudefjellet" />
		<tag k="natural" v="hill" />
		<tag k="place" v="locality" />
		<tag k="ssr:stedsnr" v="457275" />
	</node>
	<node lat="58.54648611123017" lon="8.331244451407347" id="-33499">
		<tag k="name" v="Dalen" />
		<tag k="natural" v="valley" />
		<tag k="place" v="locality" />
		<tag k="ssr:stedsnr" v="457281" />
	</node>
	<node lat="58.38342778047269" lon="8.23742221943014" id="-33501">
		<tag k="name" v="Vestre Tveitdalen" />
		<tag k="natural" v="valley" />
		<tag k="place" v="locality" />
		<tag k="ssr:stedsnr" v="457804" />
	</node>
	<node lat="58.383200002374615" lon="8.256419445370879" id="-33502">
		<tag k="name" v="Kvennebrøtane" />
		<tag k="natural" v="slope" />
		<tag k="place" v="locality" />
		<tag k="ssr:stedsnr" v="457821" />
	</node>
	<node lat="58.386461107809346" lon="8.297874992170712" id="-33504">
		<tag k="fixme" v="consider natural=peak for the most distinct mountains in the district" />
		<tag k="name" v="Lyngmyråsen" />
		<tag k="natural" v="hill" />
		<tag k="place" v="locality" />
		<tag k="ssr:stedsnr" v="457763" />
	</node>
	<node lat="58.385050001333674" lon="8.252394441981886" id="-33506">
		<tag k="fixme" v="consider natural=peak for the most distinct mountains in the district" />
		<tag k="name" v="Ålekniben" />
		<tag k="natural" v="hill" />
		<tag k="place" v="locality" />
		<tag k="ssr:stedsnr" v="457768" />
	</node>
	<node lat="58.38484444698952" lon="8.248924992872384" id="-33507">
		<tag k="fixme" v="consider natural=peak for the most distinct mountains in the district" />
		<tag k="name" v="Revedalsheia" />
		<tag k="natural" v="hill" />
		<tag k="place" v="locality" />
		<tag k="ssr:stedsnr" v="457770" />
	</node>
	<node lat="58.4444194413768" lon="8.127458329687517" id="-33512">
		<tag k="name" v="Sengebosheia" />
		<tag k="natural" v="hill" />
		<tag k="place" v="locality" />
		<tag k="ssr:stedsnr" v="468479" />
	</node>
	<node lat="58.38669444006406" lon="8.171702776836131" id="-33516">
		<tag k="name" v="Veddalen" />
		<tag k="natural" v="valley" />
		<tag k="place" v="locality" />
		<tag k="ssr:stedsnr" v="468369" />
	</node>
	<node lat="58.41083333161189" lon="8.117786110677857" id="-33520">
		<tag k="name" v="Styggedalen" />
		<tag k="natural" v="valley" />
		<tag k="place" v="locality" />
		<tag k="ssr:stedsnr" v="468571" />
	</node>
	<node lat="58.48886111470224" lon="8.193930547021372" id="-33522">
		<tag k="name" v="Upsane" />
		<tag k="natural" v="cliff" />
		<tag k="ssr:stedsnr" v="468804" />
	</node>
	<node lat="58.45691944216976" lon="8.141241668832052" id="-33525">
		<tag k="name" v="Rebåsknatten" />
		<tag k="natural" v="hill" />
		<tag k="place" v="locality" />
		<tag k="ssr:stedsnr" v="468870" />
	</node>
	<node lat="58.4987500006553" lon="8.228963884317295" id="-33527">
		<tag k="name" v="Torjusli" />
		<tag k="natural" v="slope" />
		<tag k="place" v="locality" />
		<tag k="ssr:stedsnr" v="468773" />
	</node>
	<node lat="58.502224998942125" lon="8.209722225475344" id="-33528">
		<tag k="name" v="Rusteknuten" />
		<tag k="natural" v="hill" />
		<tag k="place" v="locality" />
		<tag k="ssr:stedsnr" v="468925" />
	</node>
	<node lat="58.48760277500387" lon="8.26323611683897" id="-33530">
		<tag k="name" v="Bjorhuslia" />
		<tag k="natural" v="slope" />
		<tag k="place" v="locality" />
		<tag k="ssr:stedsnr" v="468985" />
	</node>
	<node lat="58.32182500270912" lon="8.121688893770857" id="-33532">
		<tag k="name" v="Rompa" />
		<tag k="natural" v="slope" />
		<tag k="place" v="locality" />
		<tag k="ssr:stedsnr" v="469219" />
	</node>
	<node lat="58.31364722163622" lon="8.118697221061419" id="-33534">
		<tag k="name" v="Slåttedalen" />
		<tag k="natural" v="valley" />
		<tag k="place" v="locality" />
		<tag k="ssr:stedsnr" v="469263" />
	</node>
	<node lat="58.30842778029477" lon="8.134497218279432" id="-33535">
		<tag k="name" v="Kvennufsdalen" />
		<tag k="natural" v="valley" />
		<tag k="place" v="locality" />
		<tag k="ssr:stedsnr" v="469264" />
	</node>
	<node lat="58.43660277804413" lon="8.25822778095235" id="-33536">
		<tag k="name" v="Tverrdalen" />
		<tag k="natural" v="valley" />
		<tag k="place" v="locality" />
		<tag k="ssr:stedsnr" v="469267" />
	</node>
	<node lat="58.3317666684809" lon="8.137180552858055" id="-33537">
		<tag k="name" v="Bakhei" />
		<tag k="natural" v="hill" />
		<tag k="place" v="locality" />
		<tag k="ssr:stedsnr" v="469287" />
	</node>
	<node lat="58.423266663716696" lon="8.210838886783499" id="-33540">
		<tag k="fixme" v="consider natural=peak for the most distinct mountains in the district" />
		<tag k="name" v="Eikåsknuten" />
		<tag k="natural" v="hill" />
		<tag k="place" v="locality" />
		<tag k="ssr:stedsnr" v="469315" />
	</node>
	<node lat="58.38603611517185" lon="8.145088882619316" id="-33541">
		<tag k="name" v="Småhaugene" />
		<tag k="natural" v="hill" />
		<tag k="place" v="locality" />
		<tag k="ssr:stedsnr" v="469366" />
	</node>
	<node lat="58.383205560067715" lon="8.143825003563883" id="-33543">
		<tag k="name" v="Stilandsheia" />
		<tag k="natural" v="hill" />
		<tag k="place" v="locality" />
		<tag k="ssr:stedsnr" v="469370" />
	</node>
	<node lat="58.38264999927658" lon="8.134905557399577" id="-33544">
		<tag k="name" v="Hæsåliane" />
		<tag k="natural" v="slope" />
		<tag k="place" v="locality" />
		<tag k="ssr:stedsnr" v="469384" />
	</node>
	<node lat="58.45048333322795" lon="8.221097223203827" id="-33545">
		<tag k="name" v="Skaren" />
		<tag k="natural" v="hill" />
		<tag k="place" v="locality" />
		<tag k="ssr:stedsnr" v="469386" />
	</node>
	<node lat="58.433555559020554" lon="8.204727771234815" id="-33554">
		<tag k="name" v="Bortoknuten" />
		<tag k="natural" v="hill" />
		<tag k="place" v="locality" />
		<tag k="ssr:stedsnr" v="469630" />
	</node>
	<node lat="58.47399444376896" lon="8.13653056189072" id="-33557">
		<tag k="name" v="Skoretjønnheia" />
		<tag k="natural" v="hill" />
		<tag k="place" v="locality" />
		<tag k="ssr:stedsnr" v="469668" />
	</node>
	<node lat="58.46854444332496" lon="8.123544448536324" id="-33558">
		<tag k="name" v="Hovane" />
		<tag k="natural" v="hill" />
		<tag k="place" v="locality" />
		<tag k="ssr:stedsnr" v="469670" />
	</node>
	<node lat="58.30133889312666" lon="8.101838892656714" id="-33560">
		<tag k="fixme" v="consider natural=peak for the most distinct mountains in the district" />
		<tag k="name" v="Elgåsen" />
		<tag k="natural" v="hill" />
		<tag k="place" v="locality" />
		<tag k="ssr:stedsnr" v="469581" />
	</node>
	<node lat="58.35042500319306" lon="8.172061118706264" id="-33561">
		<tag k="name" v="Mørkehei" />
		<tag k="natural" v="hill" />
		<tag k="place" v="locality" />
		<tag k="ssr:stedsnr" v="469702" />
	</node>
	<node lat="58.347661113713265" lon="8.179044444269774" id="-33562">
		<tag k="name" v="Homsli Tverrdal" />
		<tag k="natural" v="valley" />
		<tag k="place" v="locality" />
		<tag k="ssr:stedsnr" v="469706" />
	</node>
	<node lat="58.29713888513551" lon="8.087802771442693" id="-33563">
		<tag k="name" v="Monen" />
		<tag k="place" v="locality" />
		<tag k="ssr:stedsnr" v="469709" />
	</node>
	<node lat="58.3106055528746" lon="8.07247223020016" id="-33565">
		<tag k="name" v="Naglåsen" />
		<tag k="natural" v="hill" />
		<tag k="place" v="locality" />
		<tag k="ssr:stedsnr" v="469722" />
	</node>
	<node lat="58.334349995924995" lon="8.098158332567294" id="-33566">
		<tag k="name" v="Store Masdalen" />
		<tag k="natural" v="valley" />
		<tag k="place" v="locality" />
		<tag k="ssr:stedsnr" v="469765" />
	</node>
	<node lat="58.46359166858047" lon="8.251583329649756" id="-33568">
		<tag k="name" v="Busseliane" />
		<tag k="natural" v="slope" />
		<tag k="place" v="locality" />
		<tag k="ssr:stedsnr" v="469812" />
	</node>
	<node lat="58.532636115281065" lon="8.239833335471094" id="-33569">
		<tag k="name" v="Siggedalen" />
		<tag k="natural" v="valley" />
		<tag k="place" v="locality" />
		<tag k="ssr:stedsnr" v="469904" />
	</node>
	<node lat="58.513105554509146" lon="8.244202773829425" id="-33573">
		<tag k="name" v="Jennsteliane" />
		<tag k="natural" v="slope" />
		<tag k="place" v="locality" />
		<tag k="ssr:stedsnr" v="469919" />
	</node>
	<node lat="58.51486111185744" lon="8.132188887135548" id="-33576">
		<tag k="name" v="Kråkedalen" />
		<tag k="natural" v="valley" />
		<tag k="place" v="locality" />
		<tag k="ssr:stedsnr" v="473905" />
	</node>
	<node lat="58.51481111544197" lon="8.091541672654913" id="-33578">
		<tag k="name" v="Astriddalsbryna" />
		<tag k="natural" v="ridge" />
		<tag k="place" v="locality" />
		<tag k="ssr:stedsnr" v="473969" />
	</node>
	<node lat="58.5912166685482" lon="8.182099996619462" id="-33582">
		<tag k="name" v="Palane" />
		<tag k="place" v="locality" />
		<tag k="ssr:stedsnr" v="474703" />
	</node>
	<node lat="58.5270472217726" lon="8.012774994646211" id="-33584">
		<tag k="name" v="Ydsteli" />
		<tag k="natural" v="slope" />
		<tag k="place" v="locality" />
		<tag k="ssr:stedsnr" v="474706" />
	</node>
	<node lat="58.4802888920106" lon="8.034663890957857" id="-33585">
		<tag k="fixme" v="consider natural=peak for the most distinct mountains in the district" />
		<tag k="name" v="Nottosknuten" />
		<tag k="natural" v="hill" />
		<tag k="place" v="locality" />
		<tag k="ssr:stedsnr" v="475008" />
	</node>
	<node lat="58.49015555841794" lon="8.128680563561074" id="-33588">
		<tag k="name" v="Krokedalen" />
		<tag k="natural" v="valley" />
		<tag k="place" v="locality" />
		<tag k="ssr:stedsnr" v="475830" />
	</node>
	<node lat="58.560902777659564" lon="8.123602783627417" id="-33611">
		<tag k="name" v="Vrålsdalen" />
		<tag k="natural" v="valley" />
		<tag k="place" v="locality" />
		<tag k="ssr:stedsnr" v="486123" />
	</node>
	<node lat="58.53158333597088" lon="8.362066658418424" id="-33612">
		<tag k="fixme" v="consider natural=peak for the most distinct mountains in the district" />
		<tag k="name" v="Jerpefjellet" />
		<tag k="natural" v="hill" />
		<tag k="place" v="locality" />
		<tag k="ssr:stedsnr" v="486199" />
	</node>
	<node lat="58.51500000349824" lon="8.179302784887833" id="-33613">
		<tag k="alt_name" v="Sandtjørnheia" />
		<tag k="fixme" v="consider natural=peak for the most distinct mountains in the district" />
		<tag k="name" v="Sandtjønnheia" />
		<tag k="natural" v="hill" />
		<tag k="place" v="locality" />
		<tag k="ssr:stedsnr" v="486201" />
	</node>
	<node lat="58.26554999821818" lon="8.247930561892103" id="-33616">
		<tag k="fixme" v="consider natural=peak for the most distinct mountains in the district" />
		<tag k="name" v="Raundalshei" />
		<tag k="natural" v="hill" />
		<tag k="place" v="locality" />
		<tag k="ssr:stedsnr" v="513296" />
	</node>
	<node lat="58.34116666233385" lon="8.241722230456523" id="-33618">
		<tag k="fixme" v="consider natural=peak for the most distinct mountains in the district" />
		<tag k="name" v="Ribbåsheia" />
		<tag k="natural" v="hill" />
		<tag k="place" v="locality" />
		<tag k="ssr:stedsnr" v="513416" />
	</node>
	<node lat="58.299844442800364" lon="8.26857777464294" id="-33620">
		<tag k="name" v="Halsedalen" />
		<tag k="natural" v="valley" />
		<tag k="place" v="locality" />
		<tag k="ssr:stedsnr" v="513305" />
	</node>
	<node lat="58.334838890786735" lon="8.319436106975175" id="-33622">
		<tag k="fixme" v="consider natural=peak for the most distinct mountains in the district" />
		<tag k="name" v="Falkeheia" />
		<tag k="natural" v="hill" />
		<tag k="place" v="locality" />
		<tag k="ssr:stedsnr" v="513668" />
	</node>
	<node lat="58.413138884641356" lon="8.301136107125066" id="-33624">
		<tag k="name" v="Sjoliane" />
		<tag k="natural" v="slope" />
		<tag k="place" v="locality" />
		<tag k="ssr:stedsnr" v="518018" />
	</node>
	<node lat="58.42196666824238" lon="8.275680555331874" id="-33625">
		<tag k="fixme" v="consider natural=peak for the most distinct mountains in the district" />
		<tag k="name" v="Barlindknuten" />
		<tag k="natural" v="hill" />
		<tag k="place" v="locality" />
		<tag k="ssr:stedsnr" v="518024" />
	</node>
	<node lat="58.39589722005448" lon="8.27839444062882" id="-33626">
		<tag k="name" v="Djupedalen" />
		<tag k="natural" v="valley" />
		<tag k="place" v="locality" />
		<tag k="ssr:stedsnr" v="518059" />
	</node>
	<node lat="58.38988333323263" lon="8.309116664524094" id="-33627">
		<tag k="name" v="Kvernhusdalen" />
		<tag k="natural" v="valley" />
		<tag k="place" v="locality" />
		<tag k="ssr:stedsnr" v="518066" />
	</node>
	<node lat="58.452686106908686" lon="8.336927774387258" id="-33629">
		<tag k="fixme" v="consider natural=peak for the most distinct mountains in the district" />
		<tag k="name" v="Lauvheia" />
		<tag k="natural" v="hill" />
		<tag k="place" v="locality" />
		<tag k="ssr:stedsnr" v="518069" />
	</node>
	<node lat="58.44930277704159" lon="8.360133337803491" id="-33630">
		<tag k="name" v="Begervasslia" />
		<tag k="natural" v="slope" />
		<tag k="place" v="locality" />
		<tag k="ssr:stedsnr" v="518083" />
	</node>
	<node lat="58.54071388676516" lon="8.33892499386061" id="-33633">
		<tag k="fixme" v="consider natural=peak for the most distinct mountains in the district" />
		<tag k="name" v="Kråkedalsfjellet" />
		<tag k="natural" v="hill" />
		<tag k="place" v="locality" />
		<tag k="ssr:stedsnr" v="518311" />
	</node>
	<node lat="58.55432499955833" lon="8.417219445703335" id="-33636">
		<tag k="fixme" v="consider natural=peak for the most distinct mountains in the district" />
		<tag k="name" v="Hesteheia" />
		<tag k="natural" v="hill" />
		<tag k="place" v="locality" />
		<tag k="ssr:stedsnr" v="518325" />
	</node>
	<node lat="58.57601111385494" lon="8.426938884675401" id="-33639">
		<tag k="alt_name" v="Tjærehjelheia" />
		<tag k="fixme" v="consider natural=peak for the most distinct mountains in the district" />
		<tag k="name" v="Tjæregjelheia" />
		<tag k="natural" v="hill" />
		<tag k="place" v="locality" />
		<tag k="ssr:stedsnr" v="518378" />
	</node>
	<node lat="58.35208611241804" lon="8.29536944372638" id="-33642">
		<tag k="name" v="Mannfalldalen" />
		<tag k="natural" v="valley" />
		<tag k="place" v="locality" />
		<tag k="ssr:stedsnr" v="518749" />
	</node>
	<node lat="58.37717222410394" lon="8.240974998194329" id="-33644">
		<tag k="name" v="Lidalen" />
		<tag k="natural" v="valley" />
		<tag k="place" v="locality" />
		<tag k="ssr:stedsnr" v="518811" />
	</node>
	<node lat="58.37863888979082" lon="8.255752782017026" id="-33646">
		<tag k="name" v="Flåflaten" />
		<tag k="place" v="locality" />
		<tag k="ssr:stedsnr" v="518828" />
	</node>
	<node lat="58.371816669636225" lon="8.262202772680133" id="-33647">
		<tag k="name" v="Ytre Askedalen" />
		<tag k="natural" v="valley" />
		<tag k="place" v="locality" />
		<tag k="ssr:stedsnr" v="518878" />
	</node>
	<node lat="58.293191670254224" lon="8.196680551705954" id="-33650">
		<tag k="name" v="Bekkedalen" />
		<tag k="natural" v="valley" />
		<tag k="place" v="locality" />
		<tag k="ssr:stedsnr" v="518966" />
	</node>
	<node lat="58.31022222444984" lon="8.204158328227841" id="-33651">
		<tag k="name" v="Byttingsdalen" />
		<tag k="natural" v="valley" />
		<tag k="place" v="locality" />
		<tag k="ssr:stedsnr" v="518972" />
	</node>
	<node lat="58.444930551552865" lon="8.246794437327681" id="-33654">
		<tag k="name" v="Orreleiksknuten" />
		<tag k="natural" v="hill" />
		<tag k="place" v="locality" />
		<tag k="ssr:stedsnr" v="528311" />
	</node>
	<node lat="58.54654444527479" lon="8.313569439231475" id="-33656">
		<tag k="name" v="Varpet" />
		<tag k="natural" v="slope" />
		<tag k="place" v="locality" />
		<tag k="ssr:stedsnr" v="529003" />
	</node>
	<node lat="58.54056944710113" lon="8.308119448869865" id="-33657">
		<tag k="name" v="Åletjønndalen" />
		<tag k="natural" v="valley" />
		<tag k="place" v="locality" />
		<tag k="ssr:stedsnr" v="529005" />
	</node>
	<node lat="58.309269444673866" lon="8.162263888920345" id="-33658">
		<tag k="name" v="Rebbåsskåddene" />
		<tag k="natural" v="cliff" />
		<tag k="ssr:stedsnr" v="529225" />
	</node>
	<node lat="58.44011111557624" lon="8.231847216581818" id="-33659">
		<tag k="name" v="Granlia" />
		<tag k="natural" v="slope" />
		<tag k="place" v="locality" />
		<tag k="ssr:stedsnr" v="529233" />
	</node>
	<node lat="58.30389722417219" lon="8.127519445010956" id="-33660">
		<tag k="fixme" v="consider natural=peak for the most distinct mountains in the district" />
		<tag k="name" v="Knutstjønnåsen" />
		<tag k="natural" v="hill" />
		<tag k="place" v="locality" />
		<tag k="ssr:stedsnr" v="529247" />
	</node>
	<node lat="58.38928610837404" lon="8.136174992177688" id="-33664">
		<tag k="name" v="Styggedalen" />
		<tag k="natural" v="valley" />
		<tag k="place" v="locality" />
		<tag k="ssr:stedsnr" v="529407" />
	</node>
	<node lat="58.36069999891499" lon="8.192513888502424" id="-33665">
		<tag k="name" v="Bjønnesnesheia" />
		<tag k="natural" v="hill" />
		<tag k="place" v="locality" />
		<tag k="ssr:stedsnr" v="529411" />
	</node>
	<node lat="58.365061113847354" lon="8.143488893154561" id="-33668">
		<tag k="name" v="Rundetjønnheia" />
		<tag k="natural" v="hill" />
		<tag k="place" v="locality" />
		<tag k="ssr:stedsnr" v="529326" />
	</node>
	<node lat="58.44738333782698" lon="8.064725001954537" id="-33670">
		<tag k="name" v="Barlinddalen" />
		<tag k="natural" v="valley" />
		<tag k="place" v="locality" />
		<tag k="ssr:stedsnr" v="529514" />
	</node>
	<node lat="58.58903055403" lon="8.13823333992849" id="-33678">
		<tag k="name" v="Bagli" />
		<tag k="natural" v="slope" />
		<tag k="place" v="locality" />
		<tag k="ssr:stedsnr" v="534435" />
	</node>
	<node lat="58.51336944482093" lon="8.074722222685319" id="-33679">
		<tag k="name" v="Øygarden" />
		<tag k="natural" v="slope" />
		<tag k="place" v="locality" />
		<tag k="ssr:stedsnr" v="534980" />
	</node>
	<node lat="58.48488610891925" lon="8.024933332379584" id="-33684">
		<tag k="name" v="Skarkåsheftet" />
		<tag k="natural" v="valley" />
		<tag k="place" v="locality" />
		<tag k="ssr:stedsnr" v="535006" />
	</node>
	<node lat="58.53669722166945" lon="7.997219446664641" id="-33686">
		<tag k="fixme" v="consider natural=peak for the most distinct mountains in the district" />
		<tag k="name" v="Gløvredalsknuten" />
		<tag k="natural" v="hill" />
		<tag k="place" v="locality" />
		<tag k="ssr:stedsnr" v="535017" />
	</node>
	<node lat="58.48503611210157" lon="8.039966661264453" id="-33687">
		<tag k="name" v="Mannfalldalen" />
		<tag k="natural" v="valley" />
		<tag k="place" v="locality" />
		<tag k="ssr:stedsnr" v="535018" />
	</node>
	<node lat="58.486513889144035" lon="8.038975001197992" id="-33688">
		<tag k="name" v="Bjønnåsane" />
		<tag k="natural" v="hill" />
		<tag k="place" v="locality" />
		<tag k="ssr:stedsnr" v="535019" />
	</node>
	<node lat="58.49955833088034" lon="8.003788892630933" id="-33689">
		<tag k="name" v="Øygarden" />
		<tag k="natural" v="valley" />
		<tag k="place" v="locality" />
		<tag k="ssr:stedsnr" v="535075" />
	</node>
	<node lat="58.490069445784414" lon="7.998372215203851" id="-33690">
		<tag k="name" v="Rausheia" />
		<tag k="natural" v="hill" />
		<tag k="place" v="locality" />
		<tag k="ssr:stedsnr" v="535078" />
	</node>
	<node lat="58.54097222666831" lon="8.051827772186833" id="-33693">
		<tag k="fixme" v="consider natural=peak for the most distinct mountains in the district" />
		<tag k="name" v="Kviemyråsen" />
		<tag k="natural" v="hill" />
		<tag k="place" v="locality" />
		<tag k="ssr:stedsnr" v="535302" />
	</node>
	<node lat="58.551788888038566" lon="8.111288889622223" id="-33694">
		<tag k="name" v="Smådalane" />
		<tag k="natural" v="valley" />
		<tag k="place" v="locality" />
		<tag k="ssr:stedsnr" v="535382" />
	</node>
	<node lat="58.540586110367165" lon="8.116408333811918" id="-33695">
		<tag k="name" v="Lille Røydalen" />
		<tag k="natural" v="valley" />
		<tag k="place" v="locality" />
		<tag k="ssr:stedsnr" v="535384" />
	</node>
	<node lat="58.537199999163256" lon="7.960436115972145" id="-33696">
		<tag k="name" v="Brekka" />
		<tag k="natural" v="slope" />
		<tag k="place" v="locality" />
		<tag k="ssr:stedsnr" v="535511" />
	</node>
	<node lat="58.53623610938893" lon="7.970236104668192" id="-33697">
		<tag k="name" v="Åmlandsliane" />
		<tag k="natural" v="slope" />
		<tag k="place" v="locality" />
		<tag k="ssr:stedsnr" v="535520" />
	</node>
	<node lat="58.553794443205305" lon="8.045244442627748" id="-33698">
		<tag k="name" v="Bakli" />
		<tag k="natural" v="slope" />
		<tag k="place" v="locality" />
		<tag k="ssr:stedsnr" v="535269" />
	</node>
	<node lat="58.56109444058221" lon="8.020294451577534" id="-33701">
		<tag k="name" v="Kalleråsheia" />
		<tag k="natural" v="hill" />
		<tag k="place" v="locality" />
		<tag k="ssr:stedsnr" v="535703" />
	</node>
	<node lat="58.502936108235325" lon="8.144486117440394" id="-33702">
		<tag k="name" v="Katten" />
		<tag k="natural" v="hill" />
		<tag k="place" v="locality" />
		<tag k="ssr:stedsnr" v="535904" />
	</node>
	<node lat="58.50877777631561" lon="8.142508336737432" id="-33703">
		<tag k="name" v="Setesliane" />
		<tag k="natural" v="slope" />
		<tag k="place" v="locality" />
		<tag k="ssr:stedsnr" v="535905" />
	</node>
	<node lat="58.50829999766072" lon="8.115047215372538" id="-33704">
		<tag k="name" v="Knuteheia" />
		<tag k="natural" v="hill" />
		<tag k="place" v="locality" />
		<tag k="ssr:stedsnr" v="535909" />
	</node>
	<node lat="58.549008329900396" lon="7.980972222509616" id="-33705">
		<tag k="name" v="Rindebakken" />
		<tag k="natural" v="slope" />
		<tag k="place" v="locality" />
		<tag k="ssr:stedsnr" v="535620" />
	</node>
	<node lat="58.58935833079555" lon="8.176230558579045" id="-33706">
		<tag k="name" v="Flatåsane" />
		<tag k="natural" v="hill" />
		<tag k="place" v="locality" />
		<tag k="ssr:stedsnr" v="535682" />
	</node>
	<node lat="58.587702773367546" lon="8.202941658444777" id="-33707">
		<tag k="name" v="Oredalen" />
		<tag k="natural" v="valley" />
		<tag k="place" v="locality" />
		<tag k="ssr:stedsnr" v="535687" />
	</node>
	<node lat="58.488530559896134" lon="8.206086109981817" id="-33719">
		<tag k="alt_name" v="Hunefjell" />
		<tag k="fixme" v="consider natural=peak for the most distinct mountains in the district" />
		<tag k="name" v="Hunefjellet" />
		<tag k="natural" v="hill" />
		<tag k="place" v="locality" />
		<tag k="ssr:stedsnr" v="546424" />
	</node>
	<node lat="58.481430559272596" lon="8.377374991419018" id="-33720">
		<tag k="fixme" v="consider natural=peak for the most distinct mountains in the district" />
		<tag k="name" v="Tvitjønnknatten" />
		<tag k="natural" v="hill" />
		<tag k="place" v="locality" />
		<tag k="ssr:stedsnr" v="546430" />
	</node>
	<node lat="58.4302638908423" lon="8.327916669877737" id="-33723">
		<tag k="fixme" v="consider natural=peak for the most distinct mountains in the district" />
		<tag k="name" v="Knaben" />
		<tag k="natural" v="hill" />
		<tag k="place" v="locality" />
		<tag k="ssr:stedsnr" v="546376" />
	</node>
	<node lat="58.58313055876572" lon="8.184761110611262" id="-33729">
		<tag k="fixme" v="consider natural=peak for the most distinct mountains in the district" />
		<tag k="name" v="Ørnefjellet" />
		<tag k="natural" v="hill" />
		<tag k="place" v="locality" />
		<tag k="ssr:stedsnr" v="547185" />
	</node>
	<node lat="58.326661113901466" lon="8.168722227027553" id="-33732">
		<tag k="name" v="Mollestad daler" />
		<tag k="natural" v="valley" />
		<tag k="place" v="locality" />
		<tag k="ssr:stedsnr" v="571021" />
	</node>
	<node lat="58.33893611092326" lon="8.346441668653444" id="-33733">
		<tag k="fixme" v="consider natural=peak for the most distinct mountains in the district" />
		<tag k="name" v="Starrheia" />
		<tag k="natural" v="hill" />
		<tag k="place" v="locality" />
		<tag k="ssr:stedsnr" v="573432" />
	</node>
	<node lat="58.34011944154536" lon="8.324602773534927" id="-33734">
		<tag k="fixme" v="consider natural=peak for the most distinct mountains in the district" />
		<tag k="name" v="Moneheia" />
		<tag k="natural" v="hill" />
		<tag k="place" v="locality" />
		<tag k="ssr:stedsnr" v="573655" />
	</node>
	<node lat="58.32527500183431" lon="8.199336118127043" id="-33736">
		<tag k="name" v="Hommeren" />
		<tag k="natural" v="ridge" />
		<tag k="place" v="locality" />
		<tag k="ssr:stedsnr" v="574408" />
	</node>
	<node lat="58.291819446023325" lon="8.234841670670507" id="-33739">
		<tag k="fixme" v="consider natural=peak for the most distinct mountains in the district" />
		<tag k="name" v="Dybleåsen" />
		<tag k="natural" v="hill" />
		<tag k="place" v="locality" />
		<tag k="ssr:stedsnr" v="574310" />
	</node>
	<node lat="58.28597500328595" lon="8.222658330107375" id="-33740">
		<tag k="name" v="Torsdal" />
		<tag k="natural" v="valley" />
		<tag k="place" v="locality" />
		<tag k="ssr:stedsnr" v="574311" />
	</node>
	<node lat="58.314872224720524" lon="8.26373055517471" id="-33746">
		<tag k="name" v="Kråkedalen" />
		<tag k="natural" v="valley" />
		<tag k="place" v="locality" />
		<tag k="ssr:stedsnr" v="574805" />
	</node>
	<node lat="58.46930277910242" lon="8.3227388937251" id="-33750">
		<tag k="fixme" v="consider natural=peak for the most distinct mountains in the district" />
		<tag k="name" v="Ramseknatten" />
		<tag k="natural" v="hill" />
		<tag k="place" v="locality" />
		<tag k="ssr:stedsnr" v="578118" />
	</node>
	<node lat="58.47213332907974" lon="8.361216666076883" id="-33752">
		<tag k="name" v="Storekjerrlia" />
		<tag k="natural" v="slope" />
		<tag k="place" v="locality" />
		<tag k="ssr:stedsnr" v="578142" />
	</node>
	<node lat="58.56279999731256" lon="8.391105564056186" id="-33754">
		<tag k="name" v="Bukkedalen" />
		<tag k="natural" v="valley" />
		<tag k="place" v="locality" />
		<tag k="ssr:stedsnr" v="578302" />
	</node>
	<node lat="58.38372500308555" lon="8.251297227942462" id="-33758">
		<tag k="fixme" v="consider natural=peak for the most distinct mountains in the district" />
		<tag k="name" v="Brynefjell" />
		<tag k="natural" v="hill" />
		<tag k="place" v="locality" />
		<tag k="ssr:stedsnr" v="578748" />
	</node>
	<node lat="58.3791527792361" lon="8.267333329295857" id="-33762">
		<tag k="fixme" v="consider natural=peak for the most distinct mountains in the district" />
		<tag k="name" v="Tømmeråsen" />
		<tag k="natural" v="hill" />
		<tag k="place" v="locality" />
		<tag k="ssr:stedsnr" v="578802" />
	</node>
	<node lat="58.540705551571406" lon="8.365908332131097" id="-33766">
		<tag k="fixme" v="consider natural=peak for the most distinct mountains in the district" />
		<tag k="name" v="Rostjennheia" />
		<tag k="natural" v="hill" />
		<tag k="place" v="locality" />
		<tag k="ssr:stedsnr" v="578827" />
	</node>
	<node lat="58.36580000105166" lon="8.264072228808837" id="-33768">
		<tag k="name" v="Portliane" />
		<tag k="natural" v="slope" />
		<tag k="place" v="locality" />
		<tag k="ssr:stedsnr" v="578841" />
	</node>
	<node lat="58.32781110822409" lon="8.253225007669792" id="-33770">
		<tag k="fixme" v="consider natural=peak for the most distinct mountains in the district" />
		<tag k="name" v="Seljeåsen" />
		<tag k="natural" v="hill" />
		<tag k="place" v="locality" />
		<tag k="ssr:stedsnr" v="695349" />
	</node>
	<node lat="58.32997777432357" lon="8.234438888416623" id="-33771">
		<tag k="name" v="Lillemoen" />
		<tag k="place" v="locality" />
		<tag k="ssr:stedsnr" v="695353" />
	</node>
	<node lat="58.28496666794972" lon="8.265050004850808" id="-33776">
		<tag k="fixme" v="consider natural=peak for the most distinct mountains in the district" />
		<tag k="name" v="Bjørkekjerrheia" />
		<tag k="natural" v="hill" />
		<tag k="place" v="locality" />
		<tag k="ssr:stedsnr" v="695304" />
	</node>
	<node lat="58.305574997715674" lon="8.270633326933277" id="-33779">
		<tag k="fixme" v="consider natural=peak for the most distinct mountains in the district" />
		<tag k="name" v="Hefteheia" />
		<tag k="natural" v="hill" />
		<tag k="place" v="locality" />
		<tag k="ssr:stedsnr" v="695742" />
	</node>
	<node lat="58.30491944605605" lon="8.238013881135767" id="-33781">
		<tag k="name" v="Digerhaugen" />
		<tag k="natural" v="hill" />
		<tag k="place" v="locality" />
		<tag k="ssr:stedsnr" v="695749" />
	</node>
	<node lat="58.33808055915118" lon="8.190158327098784" id="-33784">
		<tag k="name" v="Lone Tverrdal" />
		<tag k="natural" v="valley" />
		<tag k="place" v="locality" />
		<tag k="ssr:stedsnr" v="696377" />
	</node>
	<node lat="58.33330555859695" lon="8.200741667841225" id="-33785">
		<tag k="name" v="Driddalen" />
		<tag k="natural" v="valley" />
		<tag k="place" v="locality" />
		<tag k="ssr:stedsnr" v="696383" />
	</node>
	<node lat="58.34549722391854" lon="8.321055561958474" id="-33786">
		<tag k="fixme" v="consider natural=peak for the most distinct mountains in the district" />
		<tag k="name" v="Kleivåsen" />
		<tag k="natural" v="hill" />
		<tag k="place" v="locality" />
		<tag k="ssr:stedsnr" v="696663" />
	</node>
	<node lat="58.30992499988238" lon="8.25478334025694" id="-33788">
		<tag k="fixme" v="consider natural=peak for the most distinct mountains in the district" />
		<tag k="name" v="Bjørndalsheia" />
		<tag k="natural" v="hill" />
		<tag k="place" v="locality" />
		<tag k="ssr:stedsnr" v="696744" />
	</node>
	<node lat="58.44372500433187" lon="8.08070000340737" id="-33791">
		<tag k="name" v="Steiversliane" />
		<tag k="natural" v="slope" />
		<tag k="place" v="locality" />
		<tag k="ssr:stedsnr" v="589508" />
	</node>
	<node lat="58.45845278217617" lon="8.205352773085096" id="-33793">
		<tag k="fixme" v="consider natural=peak for the most distinct mountains in the district" />
		<tag k="name" v="Vestre Tollåsen" />
		<tag k="natural" v="hill" />
		<tag k="place" v="locality" />
		<tag k="ssr:stedsnr" v="589873" />
	</node>
	<node lat="58.31286944472419" lon="8.151886115055998" id="-33795">
		<tag k="name" v="Barlindhallene" />
		<tag k="natural" v="slope" />
		<tag k="place" v="locality" />
		<tag k="ssr:stedsnr" v="590253" />
	</node>
	<node lat="58.305219443332454" lon="8.142861109600421" id="-33796">
		<tag k="name" v="Svalandsdalen" />
		<tag k="natural" v="valley" />
		<tag k="place" v="locality" />
		<tag k="ssr:stedsnr" v="590257" />
	</node>
	<node lat="58.43276944247413" lon="8.226727780002028" id="-33800">
		<tag k="name" v="Krokvassheia" />
		<tag k="natural" v="hill" />
		<tag k="place" v="locality" />
		<tag k="ssr:stedsnr" v="590314" />
	</node>
	<node lat="58.43225833678207" lon="8.269508336789505" id="-33802">
		<tag k="fixme" v="consider natural=peak for the most distinct mountains in the district" />
		<tag k="name" v="Buhusknuten" />
		<tag k="natural" v="hill" />
		<tag k="place" v="locality" />
		<tag k="ssr:stedsnr" v="590318" />
	</node>
	<node lat="58.37411666670698" lon="8.207547221275496" id="-33807">
		<tag k="name" v="Vevreipskapsdalen" />
		<tag k="natural" v="valley" />
		<tag k="place" v="locality" />
		<tag k="ssr:stedsnr" v="590389" />
	</node>
	<node lat="58.37024722355614" lon="8.146547217578018" id="-33809">
		<tag k="name" v="Skifjell" />
		<tag k="natural" v="ridge" />
		<tag k="place" v="locality" />
		<tag k="ssr:stedsnr" v="590397" />
	</node>
	<node lat="58.43385000334101" lon="8.144399998849057" id="-33814">
		<tag k="name" v="Ravneknatten" />
		<tag k="natural" v="hill" />
		<tag k="place" v="locality" />
		<tag k="ssr:stedsnr" v="590517" />
	</node>
	<node lat="58.4500083376908" lon="8.15798888080831" id="-33815">
		<tag k="name" v="Bjordalsliene" />
		<tag k="natural" v="slope" />
		<tag k="place" v="locality" />
		<tag k="ssr:stedsnr" v="590519" />
	</node>
	<node lat="58.44698889069784" lon="8.156466664077902" id="-33816">
		<tag k="name" v="Påskereidal" />
		<tag k="natural" v="valley" />
		<tag k="place" v="locality" />
		<tag k="ssr:stedsnr" v="590521" />
	</node>
	<node lat="58.443805552717684" lon="8.142994445637658" id="-33817">
		<tag k="name" v="Nærdalsheia" />
		<tag k="natural" v="hill" />
		<tag k="place" v="locality" />
		<tag k="ssr:stedsnr" v="590523" />
	</node>
	<node lat="58.41466666838285" lon="8.23911388086022" id="-33820">
		<tag k="name" v="Taraldsdal" />
		<tag k="natural" v="valley" />
		<tag k="place" v="locality" />
		<tag k="ssr:stedsnr" v="590458" />
	</node>
	<node lat="58.425986111880384" lon="8.271427777636282" id="-33821">
		<tag k="name" v="Hageheia" />
		<tag k="natural" v="hill" />
		<tag k="place" v="locality" />
		<tag k="ssr:stedsnr" v="590471" />
	</node>
	<node lat="58.421844448329736" lon="8.095061105715086" id="-33823">
		<tag k="fixme" v="consider natural=peak for the most distinct mountains in the district" />
		<tag k="name" v="Høgåsen" />
		<tag k="natural" v="hill" />
		<tag k="place" v="locality" />
		<tag k="ssr:stedsnr" v="590612" />
	</node>
	<node lat="58.295116668329754" lon="8.068194437505934" id="-33825">
		<tag k="name" v="Passerdalen" />
		<tag k="natural" v="valley" />
		<tag k="place" v="locality" />
		<tag k="ssr:stedsnr" v="590703" />
	</node>
	<node lat="58.302472219706154" lon="8.075769451689736" id="-33826">
		<tag k="fixme" v="consider natural=peak for the most distinct mountains in the district" />
		<tag k="name" v="Liråsen" />
		<tag k="natural" v="hill" />
		<tag k="place" v="locality" />
		<tag k="ssr:stedsnr" v="590708" />
	</node>
	<node lat="58.32496944451041" lon="8.110675002867545" id="-33827">
		<tag k="name" v="Storåkerheia" />
		<tag k="natural" v="hill" />
		<tag k="place" v="locality" />
		<tag k="ssr:stedsnr" v="590728" />
	</node>
	<node lat="58.49264166569449" lon="8.25831388387918" id="-33829">
		<tag k="name" v="Styggelipallen" />
		<tag k="place" v="locality" />
		<tag k="ssr:stedsnr" v="590765" />
	</node>
	<node lat="58.497566668193315" lon="8.209486105564928" id="-33832">
		<tag k="name" v="Storevollhei" />
		<tag k="natural" v="hill" />
		<tag k="place" v="locality" />
		<tag k="ssr:stedsnr" v="590918" />
	</node>
	<node lat="58.57494444664377" lon="8.162911119192737" id="-33838">
		<tag k="name" v="Jabroheia" />
		<tag k="natural" v="hill" />
		<tag k="place" v="locality" />
		<tag k="ssr:stedsnr" v="595101" />
	</node>
	<node lat="58.585725001901245" lon="8.112019443698674" id="-33840">
		<tag k="name" v="Liane" />
		<tag k="natural" v="slope" />
		<tag k="place" v="locality" />
		<tag k="ssr:stedsnr" v="595412" />
	</node>
	<node lat="58.61362222598654" lon="8.135252783659535" id="-33843">
		<tag k="name" v="Dalane" />
		<tag k="natural" v="valley" />
		<tag k="place" v="locality" />
		<tag k="ssr:stedsnr" v="595711" />
	</node>
	<node lat="58.619608335957864" lon="8.167494441067547" id="-33845">
		<tag k="name" v="Rosbulia" />
		<tag k="natural" v="slope" />
		<tag k="place" v="locality" />
		<tag k="ssr:stedsnr" v="595720" />
	</node>
	<node lat="58.534850003833384" lon="8.035438888110598" id="-33846">
		<tag k="name" v="Baglidalen" />
		<tag k="natural" v="valley" />
		<tag k="place" v="locality" />
		<tag k="ssr:stedsnr" v="595721" />
	</node>
	<node lat="58.61824444007706" lon="8.173266664137621" id="-33847">
		<tag k="name" v="Bastevikknuten" />
		<tag k="natural" v="valley" />
		<tag k="place" v="locality" />
		<tag k="ssr:stedsnr" v="595724" />
	</node>
	<node lat="58.5693749976845" lon="8.194513883463799" id="-33848">
		<tag k="name" v="Steinsholane" />
		<tag k="natural" v="valley" />
		<tag k="place" v="locality" />
		<tag k="ssr:stedsnr" v="595652" />
	</node>
	<node lat="58.5812666692814" lon="8.196702778070133" id="-33849">
		<tag k="fixme" v="consider natural=peak for the most distinct mountains in the district" />
		<tag k="name" v="Barlindåsen" />
		<tag k="natural" v="hill" />
		<tag k="place" v="locality" />
		<tag k="ssr:stedsnr" v="595660" />
	</node>
	<node lat="58.60413888995815" lon="8.171908337829752" id="-33851">
		<tag k="name" v="Røsens kiste" />
		<tag k="place" v="locality" />
		<tag k="ssr:stedsnr" v="595671" />
	</node>
	<node lat="58.50491111205639" lon="8.121350006505082" id="-33853">
		<tag k="name" v="Sauerdalen" />
		<tag k="natural" v="valley" />
		<tag k="place" v="locality" />
		<tag k="ssr:stedsnr" v="595899" />
	</node>
	<node lat="58.512388888611916" lon="8.041908330519513" id="-33854">
		<tag k="name" v="Liane" />
		<tag k="natural" v="slope" />
		<tag k="place" v="locality" />
		<tag k="ssr:stedsnr" v="596055" />
	</node>
	<node lat="58.51002777470657" lon="8.042155552060565" id="-33855">
		<tag k="name" v="Høgås" />
		<tag k="natural" v="hill" />
		<tag k="place" v="locality" />
		<tag k="ssr:stedsnr" v="596056" />
	</node>
	<node lat="58.5384694411447" lon="8.080800003471087" id="-33856">
		<tag k="name" v="Bjønnkleiv" />
		<tag k="natural" v="slope" />
		<tag k="place" v="locality" />
		<tag k="ssr:stedsnr" v="596213" />
	</node>
	<node lat="58.5209999983021" lon="8.109713895340814" id="-33859">
		<tag k="name" v="Hestekollen" />
		<tag k="natural" v="hill" />
		<tag k="place" v="locality" />
		<tag k="ssr:stedsnr" v="596155" />
	</node>
	<node lat="58.533813887636555" lon="8.127980548863896" id="-33860">
		<tag k="name" v="Plassen" />
		<tag k="natural" v="slope" />
		<tag k="place" v="locality" />
		<tag k="ssr:stedsnr" v="596166" />
	</node>
	<node lat="58.533005554916016" lon="8.123816673202779" id="-33861">
		<tag k="name" v="Kvinartolla" />
		<tag k="natural" v="hill" />
		<tag k="place" v="locality" />
		<tag k="ssr:stedsnr" v="596167" />
	</node>
	<node lat="58.54348055943888" lon="7.951825002442918" id="-33862">
		<tag k="name" v="Langeliane" />
		<tag k="natural" v="slope" />
		<tag k="place" v="locality" />
		<tag k="ssr:stedsnr" v="596603" />
	</node>
	<node lat="58.5641111094763" lon="8.17992222170521" id="-33865">
		<tag k="name" v="Varpet" />
		<tag k="place" v="locality" />
		<tag k="ssr:stedsnr" v="596652" />
	</node>
	<node lat="58.50705555963428" lon="8.232741673221327" id="-33878">
		<tag k="fixme" v="consider natural=peak for the most distinct mountains in the district" />
		<tag k="name" v="Vindheia" />
		<tag k="natural" v="hill" />
		<tag k="place" v="locality" />
		<tag k="ssr:stedsnr" v="607007" />
	</node>
	<node lat="58.57858889160118" lon="8.362191670136674" id="-33879">
		<tag k="name" v="Lauvraksdalen" />
		<tag k="natural" v="valley" />
		<tag k="place" v="locality" />
		<tag k="ssr:stedsnr" v="607124" />
	</node>
	<node lat="58.52689444519203" lon="8.303541664536436" id="-33881">
		<tag k="name" v="Ålekjerrdalen" />
		<tag k="natural" v="valley" />
		<tag k="place" v="locality" />
		<tag k="ssr:stedsnr" v="607049" />
	</node>
	<node lat="58.501436107194706" lon="8.215744450742534" id="-33884">
		<tag k="alt_name" v="Nordreheia" />
		<tag k="fixme" v="consider natural=peak for the most distinct mountains in the district" />
		<tag k="name" v="Nordheia" />
		<tag k="natural" v="hill" />
		<tag k="place" v="locality" />
		<tag k="ssr:stedsnr" v="607055" />
	</node>
	<node lat="58.42600555773648" lon="8.291516672727948" id="-33896">
		<tag k="name" v="Stauedalen" />
		<tag k="natural" v="valley" />
		<tag k="place" v="locality" />
		<tag k="ssr:stedsnr" v="700034" />
	</node>
	<node lat="58.42469722002089" lon="8.281291668329898" id="-33897">
		<tag k="name" v="Verpevoll" />
		<tag k="place" v="locality" />
		<tag k="ssr:stedsnr" v="700035" />
	</node>
	<node lat="58.45984444494338" lon="8.381619444929054" id="-33900">
		<tag k="name" v="Langetjenndalen" />
		<tag k="natural" v="valley" />
		<tag k="place" v="locality" />
		<tag k="ssr:stedsnr" v="700189" />
	</node>
	<node lat="58.48087499780407" lon="8.280916659916834" id="-33901">
		<tag k="name" v="Grandalen" />
		<tag k="natural" v="valley" />
		<tag k="place" v="locality" />
		<tag k="ssr:stedsnr" v="700196" />
	</node>
	<node lat="58.45368888837524" lon="8.316836113119027" id="-33903">
		<tag k="fixme" v="consider natural=peak for the most distinct mountains in the district" />
		<tag k="name" v="Knipen" />
		<tag k="natural" v="hill" />
		<tag k="place" v="locality" />
		<tag k="ssr:stedsnr" v="700150" />
	</node>
	<node lat="58.46259444751364" lon="8.322372221638993" id="-33904">
		<tag k="name" v="Leirtjøtta" />
		<tag k="place" v="locality" />
		<tag k="ssr:stedsnr" v="700153" />
	</node>
	<node lat="58.56673889251841" lon="8.396919437164991" id="-33910">
		<tag k="name" v="Kjellingdalen" />
		<tag k="natural" v="valley" />
		<tag k="place" v="locality" />
		<tag k="ssr:stedsnr" v="700344" />
	</node>
	<node lat="58.535588889198124" lon="8.341838896952318" id="-33911">
		<tag k="name" v="Pramsdalen" />
		<tag k="natural" v="valley" />
		<tag k="place" v="locality" />
		<tag k="ssr:stedsnr" v="700274" />
	</node>
	<node lat="58.51045833084948" lon="8.317597228182882" id="-33915">
		<tag k="name" v="Ramsedalen" />
		<tag k="natural" v="valley" />
		<tag k="place" v="locality" />
		<tag k="ssr:stedsnr" v="700297" />
	</node>
	<node lat="58.592105555565254" lon="8.373763891125048" id="-33917">
		<tag k="fixme" v="consider natural=peak for the most distinct mountains in the district" />
		<tag k="name" v="Stiheia" />
		<tag k="natural" v="hill" />
		<tag k="place" v="locality" />
		<tag k="ssr:stedsnr" v="700347" />
	</node>
	<node lat="58.47356666980562" lon="8.395483327062614" id="-33918">
		<tag k="name" v="Lyfjellmyrdalen" />
		<tag k="natural" v="valley" />
		<tag k="place" v="locality" />
		<tag k="ssr:stedsnr" v="700353" />
	</node>
	<node lat="58.5621333326422" lon="8.423577777531113" id="-33919">
		<tag k="name" v="Blåtjenndalen" />
		<tag k="natural" v="valley" />
		<tag k="place" v="locality" />
		<tag k="ssr:stedsnr" v="700380" />
	</node>
	<node lat="58.57837499924842" lon="8.433688885287845" id="-33920">
		<tag k="fixme" v="consider natural=peak for the most distinct mountains in the district" />
		<tag k="name" v="Sauetjennheia" />
		<tag k="natural" v="hill" />
		<tag k="place" v="locality" />
		<tag k="ssr:stedsnr" v="700392" />
	</node>
	<node lat="58.31472221921105" lon="8.19773888296046" id="-33922">
		<tag k="fixme" v="consider natural=peak for the most distinct mountains in the district" />
		<tag k="name" v="Bufjella" />
		<tag k="natural" v="hill" />
		<tag k="place" v="locality" />
		<tag k="ssr:stedsnr" v="700532" />
	</node>
	<node lat="58.314174995616575" lon="8.177961114853632" id="-33923">
		<tag k="name" v="Kvennhusmonen" />
		<tag k="place" v="locality" />
		<tag k="ssr:stedsnr" v="700540" />
	</node>
	<node lat="58.35445000040121" lon="8.324375002648196" id="-33925">
		<tag k="fixme" v="consider natural=peak for the most distinct mountains in the district" />
		<tag k="name" v="Vindslandsheia" />
		<tag k="natural" v="hill" />
		<tag k="place" v="locality" />
		<tag k="ssr:stedsnr" v="700748" />
	</node>
	<node lat="58.35592499738314" lon="8.31116111205754" id="-33927">
		<tag k="fixme" v="consider natural=peak for the most distinct mountains in the district" />
		<tag k="name" v="Husebakke" />
		<tag k="natural" v="hill" />
		<tag k="place" v="locality" />
		<tag k="ssr:stedsnr" v="700760" />
	</node>
	<node lat="58.38662500262411" lon="8.279780556685344" id="-33928">
		<tag k="fixme" v="consider natural=peak for the most distinct mountains in the district" />
		<tag k="name" v="Vårliheia" />
		<tag k="natural" v="hill" />
		<tag k="place" v="locality" />
		<tag k="ssr:stedsnr" v="700833" />
	</node>
	<node lat="58.424063885808806" lon="8.317369444268628" id="-33929">
		<tag k="fixme" v="consider natural=peak for the most distinct mountains in the district" />
		<tag k="name" v="Blautmyrheia" />
		<tag k="natural" v="hill" />
		<tag k="place" v="locality" />
		<tag k="ssr:stedsnr" v="700836" />
	</node>
	<node lat="58.43619444141217" lon="8.339966673974455" id="-33930">
		<tag k="name" v="Midtre Surtemyrdal" />
		<tag k="natural" v="valley" />
		<tag k="place" v="locality" />
		<tag k="ssr:stedsnr" v="700842" />
	</node>
	<node lat="58.54192500132124" lon="8.341372227416947" id="-33931">
		<tag k="name" v="Steindalen" />
		<tag k="natural" v="valley" />
		<tag k="place" v="locality" />
		<tag k="ssr:stedsnr" v="700849" />
	</node>
	<node lat="58.40166110971246" lon="8.260763887827457" id="-33932">
		<tag k="name" v="Røydalen" />
		<tag k="natural" v="valley" />
		<tag k="place" v="locality" />
		<tag k="ssr:stedsnr" v="700795" />
	</node>
	<node lat="58.520163886327765" lon="7.948511104035937" id="-33933">
		<tag k="name" v="Storsteindalen" />
		<tag k="natural" v="valley" />
		<tag k="place" v="locality" />
		<tag k="ssr:stedsnr" v="717889" />
	</node>
	<node lat="58.55315000424962" lon="8.372844447827354" id="-33935">
		<tag k="name" v="Gryta" />
		<tag k="place" v="locality" />
		<tag k="ssr:stedsnr" v="700857" />
	</node>
	<node lat="58.28590555913587" lon="8.132058338996403" id="-33938">
		<tag k="name" v="Melhei" />
		<tag k="natural" v="ridge" />
		<tag k="place" v="locality" />
		<tag k="ssr:stedsnr" v="700951" />
	</node>
	<node lat="58.301069444621916" lon="8.195313888733136" id="-33940">
		<tag k="name" v="Trollhaugene" />
		<tag k="natural" v="hill" />
		<tag k="place" v="locality" />
		<tag k="ssr:stedsnr" v="700995" />
	</node>
	<node lat="58.28015277427206" lon="8.180663887688127" id="-33941">
		<tag k="name" v="Sannerdalen" />
		<tag k="natural" v="valley" />
		<tag k="place" v="locality" />
		<tag k="ssr:stedsnr" v="700996" />
	</node>
	<node lat="58.37038055251991" lon="8.25176388905216" id="-33942">
		<tag k="name" v="Tereås-hallane" />
		<tag k="natural" v="slope" />
		<tag k="place" v="locality" />
		<tag k="ssr:stedsnr" v="700903" />
	</node>
	<node lat="58.29197221891887" lon="8.246258331604585" id="-33943">
		<tag k="name" v="Fanteholane" />
		<tag k="natural" v="valley" />
		<tag k="place" v="locality" />
		<tag k="ssr:stedsnr" v="634304" />
	</node>
	<node lat="58.25979444743472" lon="8.246911115777246" id="-33945">
		<tag k="fixme" v="consider natural=peak for the most distinct mountains in the district" />
		<tag k="name" v="Hytteheia" />
		<tag k="natural" v="hill" />
		<tag k="place" v="locality" />
		<tag k="ssr:stedsnr" v="634286" />
	</node>
	<node lat="58.344200003745804" lon="8.24878056347126" id="-33946">
		<tag k="name" v="Heftedalen" />
		<tag k="natural" v="valley" />
		<tag k="place" v="locality" />
		<tag k="ssr:stedsnr" v="634407" />
	</node>
	<node lat="58.27474999617231" lon="8.261769452989355" id="-33948">
		<tag k="name" v="Amerika" />
		<tag k="natural" v="valley" />
		<tag k="place" v="locality" />
		<tag k="ssr:stedsnr" v="634719" />
	</node>
	<node lat="58.308305555322775" lon="8.262761115781498" id="-33949">
		<tag k="fixme" v="consider natural=peak for the most distinct mountains in the district" />
		<tag k="name" v="Mofiheia" />
		<tag k="natural" v="hill" />
		<tag k="place" v="locality" />
		<tag k="ssr:stedsnr" v="634779" />
	</node>
	<node lat="58.312611114639665" lon="8.252602782304077" id="-33950">
		<tag k="name" v="Bjørndalen" />
		<tag k="natural" v="valley" />
		<tag k="place" v="locality" />
		<tag k="ssr:stedsnr" v="634780" />
	</node>
	<node lat="58.31735000315781" lon="8.263877786044526" id="-33951">
		<tag k="name" v="Fiskersdalen" />
		<tag k="natural" v="valley" />
		<tag k="place" v="locality" />
		<tag k="ssr:stedsnr" v="634782" />
	</node>
	<node lat="58.465772220993934" lon="8.349005550721424" id="-33955">
		<tag k="name" v="Granåsdalen" />
		<tag k="natural" v="valley" />
		<tag k="place" v="locality" />
		<tag k="ssr:stedsnr" v="639175" />
	</node>
	<node lat="58.389611110716196" lon="8.287147221466858" id="-33959">
		<tag k="name" v="Roligdalen" />
		<tag k="natural" v="valley" />
		<tag k="place" v="locality" />
		<tag k="ssr:stedsnr" v="639083" />
	</node>
	<node lat="58.47872777981943" lon="8.284380549664156" id="-33960">
		<tag k="name" v="Vestre Barlinddalen" />
		<tag k="natural" v="valley" />
		<tag k="place" v="locality" />
		<tag k="ssr:stedsnr" v="639204" />
	</node>
	<node lat="58.505252774560816" lon="8.306427779424894" id="-33962">
		<tag k="fixme" v="consider natural=peak for the most distinct mountains in the district" />
		<tag k="name" v="Geitefjella" />
		<tag k="natural" v="hill" />
		<tag k="place" v="locality" />
		<tag k="ssr:stedsnr" v="639287" />
	</node>
	<node lat="58.55482777973616" lon="8.335933332472203" id="-33964">
		<tag k="name" v="Skiftingdalen" />
		<tag k="natural" v="valley" />
		<tag k="place" v="locality" />
		<tag k="ssr:stedsnr" v="639315" />
	</node>
	<node lat="58.58416110927177" lon="8.435922217631" id="-33967">
		<tag k="fixme" v="consider natural=peak for the most distinct mountains in the district" />
		<tag k="name" v="Sauetjennheia" />
		<tag k="natural" v="hill" />
		<tag k="place" v="locality" />
		<tag k="ssr:stedsnr" v="639396" />
	</node>
	<node lat="58.319280559480816" lon="8.184108330941767" id="-33968">
		<tag k="fixme" v="consider natural=peak for the most distinct mountains in the district" />
		<tag k="name" v="Smifjellheia" />
		<tag k="natural" v="hill" />
		<tag k="place" v="locality" />
		<tag k="ssr:stedsnr" v="639531" />
	</node>
	<node lat="58.40321110698857" lon="8.260202783681029" id="-33969">
		<tag k="fixme" v="consider natural=peak for the most distinct mountains in the district" />
		<tag k="name" v="Stølåsen" />
		<tag k="natural" v="hill" />
		<tag k="place" v="locality" />
		<tag k="ssr:stedsnr" v="639803" />
	</node>
	<node lat="58.35764999599814" lon="8.253311110214801" id="-33970">
		<tag k="name" v="Lonskleiva" />
		<tag k="natural" v="slope" />
		<tag k="place" v="locality" />
		<tag k="ssr:stedsnr" v="639816" />
	</node>
	<node lat="58.26342499765898" lon="8.174463894620716" id="-33973">
		<tag k="fixme" v="consider natural=peak for the most distinct mountains in the district" />
		<tag k="name" v="Hestehaven" />
		<tag k="natural" v="hill" />
		<tag k="place" v="locality" />
		<tag k="ssr:stedsnr" v="639933" />
	</node>
	<node lat="58.525808335886445" lon="8.292688896036234" id="-33976">
		<tag k="name" v="Bjønndalen" />
		<tag k="natural" v="valley" />
		<tag k="place" v="locality" />
		<tag k="ssr:stedsnr" v="650037" />
	</node>
	<node lat="58.452777774697644" lon="8.199094451352911" id="-33977">
		<tag k="fixme" v="consider natural=peak for the most distinct mountains in the district" />
		<tag k="name" v="Sjølskotknuten" />
		<tag k="natural" v="hill" />
		<tag k="place" v="locality" />
		<tag k="ssr:stedsnr" v="650206" />
	</node>
	<node lat="58.43954167101157" lon="8.244708329763123" id="-33981">
		<tag k="name" v="Risbuheia" />
		<tag k="natural" v="hill" />
		<tag k="place" v="locality" />
		<tag k="ssr:stedsnr" v="650240" />
	</node>
	<node lat="58.35064166518021" lon="8.111977777966946" id="-33984">
		<tag k="fixme" v="consider natural=peak for the most distinct mountains in the district" />
		<tag k="name" v="Smieheia" />
		<tag k="natural" v="hill" />
		<tag k="place" v="locality" />
		<tag k="ssr:stedsnr" v="650309" />
	</node>
	<node lat="58.35976944595158" lon="8.11479166648653" id="-33985">
		<tag k="name" v="Palsheia" />
		<tag k="natural" v="hill" />
		<tag k="place" v="locality" />
		<tag k="ssr:stedsnr" v="650334" />
	</node>
	<node lat="58.42862500243179" lon="8.180105561303552" id="-33986">
		<tag k="name" v="Liansdalen" />
		<tag k="natural" v="valley" />
		<tag k="place" v="locality" />
		<tag k="ssr:stedsnr" v="650297" />
	</node>
	<node lat="58.426586106886255" lon="8.201938894587848" id="-33987">
		<tag k="name" v="Heimdalsheia" />
		<tag k="natural" v="hill" />
		<tag k="place" v="locality" />
		<tag k="ssr:stedsnr" v="650301" />
	</node>
	<node lat="58.42544721804578" lon="8.230919447604313" id="-33988">
		<tag k="fixme" v="consider natural=peak for the most distinct mountains in the district" />
		<tag k="name" v="Skaufjellet" />
		<tag k="natural" v="hill" />
		<tag k="place" v="locality" />
		<tag k="ssr:stedsnr" v="650441" />
	</node>
	<node lat="58.42718055991927" lon="8.117711106474957" id="-33989">
		<tag k="name" v="Tommashei" />
		<tag k="natural" v="hill" />
		<tag k="place" v="locality" />
		<tag k="ssr:stedsnr" v="650396" />
	</node>
	<node lat="58.31466389280992" lon="8.087775004635798" id="-33993">
		<tag k="name" v="Huslåheia" />
		<tag k="natural" v="hill" />
		<tag k="place" v="locality" />
		<tag k="ssr:stedsnr" v="650712" />
	</node>
	<node lat="58.304791664779465" lon="8.100650000992577" id="-33994">
		<tag k="name" v="Stompåsen" />
		<tag k="natural" v="hill" />
		<tag k="place" v="locality" />
		<tag k="ssr:stedsnr" v="650688" />
	</node>
	<node lat="58.49220278130191" lon="8.206669448393155" id="-33996">
		<tag k="name" v="Huneliane" />
		<tag k="natural" v="slope" />
		<tag k="place" v="locality" />
		<tag k="ssr:stedsnr" v="650804" />
	</node>
	<node lat="58.459086110020124" lon="8.237227772595368" id="-33997">
		<tag k="name" v="Stemtjønndalen" />
		<tag k="natural" v="valley" />
		<tag k="place" v="locality" />
		<tag k="ssr:stedsnr" v="650813" />
	</node>
	<node lat="58.471008329889045" lon="8.252291675272941" id="-33998">
		<tag k="name" v="Ringkollen" />
		<tag k="natural" v="hill" />
		<tag k="place" v="locality" />
		<tag k="ssr:stedsnr" v="650846" />
	</node>
	<node lat="58.496841663837564" lon="8.248369449842151" id="-33999">
		<tag k="name" v="Tereleikheia" />
		<tag k="natural" v="hill" />
		<tag k="place" v="locality" />
		<tag k="ssr:stedsnr" v="650905" />
	</node>
	<node lat="58.50584722170447" lon="8.192841674617489" id="-34000">
		<tag k="name" v="Småmonane" />
		<tag k="natural" v="slope" />
		<tag k="place" v="locality" />
		<tag k="ssr:stedsnr" v="650935" />
	</node>
	<node lat="58.50041944275693" lon="8.201361113764204" id="-34001">
		<tag k="name" v="Husebakken" />
		<tag k="natural" v="ridge" />
		<tag k="place" v="locality" />
		<tag k="ssr:stedsnr" v="650937" />
	</node>
	<node lat="58.482288891283126" lon="8.266547220339408" id="-34002">
		<tag k="name" v="Seinli" />
		<tag k="natural" v="slope" />
		<tag k="place" v="locality" />
		<tag k="ssr:stedsnr" v="650997" />
	</node>
	<node lat="58.498280557770265" lon="8.172011115227248" id="-34005">
		<tag k="name" v="Årgardsheia" />
		<tag k="natural" v="hill" />
		<tag k="place" v="locality" />
		<tag k="ssr:stedsnr" v="651934" />
	</node>
	<node lat="58.49864999556919" lon="8.025166670080603" id="-34007">
		<tag k="name" v="Holtepdalen" />
		<tag k="natural" v="valley" />
		<tag k="place" v="locality" />
		<tag k="ssr:stedsnr" v="656031" />
	</node>
	<node lat="58.49654722050041" lon="8.002774996218227" id="-34009">
		<tag k="name" v="Øygardsheia" />
		<tag k="natural" v="hill" />
		<tag k="place" v="locality" />
		<tag k="ssr:stedsnr" v="656039" />
	</node>
	<node lat="58.52109722598189" lon="8.04216666887682" id="-34010">
		<tag k="fixme" v="consider natural=peak for the most distinct mountains in the district" />
		<tag k="name" v="Kråkåsen" />
		<tag k="natural" v="hill" />
		<tag k="place" v="locality" />
		<tag k="ssr:stedsnr" v="656213" />
	</node>
	<node lat="58.542100003100145" lon="7.970886111352648" id="-34011">
		<tag k="name" v="Skareheia" />
		<tag k="natural" v="hill" />
		<tag k="place" v="locality" />
		<tag k="ssr:stedsnr" v="656234" />
	</node>
	<node lat="58.5884333327563" lon="8.122161113637544" id="-34013">
		<tag k="name" v="Holta" />
		<tag k="natural" v="slope" />
		<tag k="place" v="locality" />
		<tag k="ssr:stedsnr" v="656438" />
	</node>
	<node lat="58.58761944211877" lon="8.183083340820406" id="-34014">
		<tag k="name" v="Engedalen" />
		<tag k="natural" v="valley" />
		<tag k="place" v="locality" />
		<tag k="ssr:stedsnr" v="656705" />
	</node>
	<node lat="58.53126388810658" lon="8.020847225014483" id="-34015">
		<tag k="name" v="Komstøltjønnheia" />
		<tag k="natural" v="hill" />
		<tag k="place" v="locality" />
		<tag k="ssr:stedsnr" v="656708" />
	</node>
	<node lat="58.6134000034085" lon="8.181091674688671" id="-34016">
		<tag k="name" v="Heftane" />
		<tag k="place" v="locality" />
		<tag k="ssr:stedsnr" v="656710" />
	</node>
	<node lat="58.605919442500806" lon="8.117141669930312" id="-34019">
		<tag k="name" v="Storelihalla" />
		<tag k="natural" v="slope" />
		<tag k="place" v="locality" />
		<tag k="ssr:stedsnr" v="656743" />
	</node>
	<node lat="58.513302781909296" lon="8.138958333826574" id="-34021">
		<tag k="name" v="Grandalen" />
		<tag k="natural" v="valley" />
		<tag k="place" v="locality" />
		<tag k="ssr:stedsnr" v="656903" />
	</node>
	<node lat="58.51175000406944" lon="8.1629555614351" id="-34022">
		<tag k="name" v="Kolknappen" />
		<tag k="natural" v="hill" />
		<tag k="place" v="locality" />
		<tag k="ssr:stedsnr" v="656905" />
	</node>
	<node lat="58.49835277588988" lon="8.123544440272449" id="-34023">
		<tag k="name" v="Kvennhusdalen" />
		<tag k="natural" v="valley" />
		<tag k="place" v="locality" />
		<tag k="ssr:stedsnr" v="656911" />
	</node>
	<node lat="58.49337222040874" lon="8.133955556991024" id="-34024">
		<tag k="name" v="Smørholheia" />
		<tag k="natural" v="hill" />
		<tag k="place" v="locality" />
		<tag k="ssr:stedsnr" v="657809" />
	</node>
	<node lat="58.481586112087875" lon="8.11753333096265" id="-34025">
		<tag k="name" v="Monen" />
		<tag k="place" v="locality" />
		<tag k="ssr:stedsnr" v="657830" />
	</node>
	<node lat="58.49251110985157" lon="8.088300000246864" id="-34027">
		<tag k="name" v="Trågedalen" />
		<tag k="natural" v="valley" />
		<tag k="place" v="locality" />
		<tag k="ssr:stedsnr" v="657904" />
	</node>
	<node lat="58.369608332024725" lon="8.245169442639275" id="-34036">
		<tag k="fixme" v="consider natural=peak for the most distinct mountains in the district" />
		<tag k="name" v="Tereåsen" />
		<tag k="natural" v="hill" />
		<tag k="place" v="locality" />
		<tag k="ssr:stedsnr" v="667333" />
	</node>
	<node lat="58.426236112469304" lon="8.285500003167847" id="-34037">
		<tag k="alt_name" v="Lofsknuten" />
		<tag k="fixme" v="consider natural=peak for the most distinct mountains in the district" />
		<tag k="name" v="Loftsknuten" />
		<tag k="natural" v="hill" />
		<tag k="place" v="locality" />
		<tag k="ssr:stedsnr" v="667380" />
	</node>
	<node lat="58.43365832997167" lon="8.348488881777092" id="-34039">
		<tag k="name" v="Grandalen" />
		<tag k="natural" v="valley" />
		<tag k="place" v="locality" />
		<tag k="ssr:stedsnr" v="667392" />
	</node>
	<node lat="58.55607778000918" lon="8.198469448339747" id="-34042">
		<tag k="alt_name" v="Breidsåsknuten" />
		<tag k="fixme" v="consider natural=peak for the most distinct mountains in the district" />
		<tag k="name" v="Breisåsknapen" />
		<tag k="natural" v="hill" />
		<tag k="place" v="locality" />
		<tag k="ssr:stedsnr" v="668146" />
	</node>
	<node lat="58.44927222237308" lon="8.252172229203792" id="-34044">
		<tag k="name" v="Rogeli" />
		<tag k="natural" v="slope" />
		<tag k="place" v="locality" />
		<tag k="ssr:stedsnr" v="710287" />
	</node>
	<node lat="58.44727222422435" lon="8.253838889994311" id="-34045">
		<tag k="name" v="Hasledalen" />
		<tag k="natural" v="valley" />
		<tag k="place" v="locality" />
		<tag k="ssr:stedsnr" v="710293" />
	</node>
	<node lat="58.51628055935594" lon="8.206511105960482" id="-34046">
		<tag k="alt_name" v="Fidjeheia" />
		<tag k="fixme" v="consider natural=peak for the most distinct mountains in the district" />
		<tag k="name" v="Fidjehei" />
		<tag k="natural" v="hill" />
		<tag k="place" v="locality" />
		<tag k="ssr:stedsnr" v="668235" />
	</node>
	<node lat="58.54422777484727" lon="8.060880547226661" id="-34049">
		<tag k="alt_name" v="Skurveheia" />
		<tag k="fixme" v="consider natural=peak for the most distinct mountains in the district" />
		<tag k="name" v="Skovehei" />
		<tag k="natural" v="hill" />
		<tag k="place" v="locality" />
		<tag k="ssr:stedsnr" v="668688" />
	</node>
	<node lat="58.38931111017981" lon="8.190508339580763" id="-34053">
		<tag k="fixme" v="consider natural=peak for the most distinct mountains in the district" />
		<tag k="name" v="Brynåsen" />
		<tag k="natural" v="hill" />
		<tag k="place" v="locality" />
		<tag k="ssr:stedsnr" v="893399" />
	</node>
	<node lat="58.42007778155796" lon="8.130036116066652" id="-34054">
		<tag k="name" v="Tveitholane" />
		<tag k="natural" v="valley" />
		<tag k="place" v="locality" />
		<tag k="ssr:stedsnr" v="893483" />
	</node>
	<node lat="58.47225277903608" lon="8.094297215564623" id="-34059">
		<tag k="name" v="Tjomefjell" />
		<tag k="natural" v="cliff" />
		<tag k="ssr:stedsnr" v="893740" />
	</node>
	<node lat="58.54875000192912" lon="8.2306111064918" id="-34062">
		<tag k="name" v="Nordliane" />
		<tag k="natural" v="slope" />
		<tag k="place" v="locality" />
		<tag k="ssr:stedsnr" v="894121" />
	</node>
	<node lat="58.32287777781872" lon="8.123780549721369" id="-34064">
		<tag k="fixme" v="consider natural=peak for the most distinct mountains in the district" />
		<tag k="name" v="Stemåsen" />
		<tag k="natural" v="hill" />
		<tag k="place" v="locality" />
		<tag k="ssr:stedsnr" v="894264" />
	</node>
	<node lat="58.320533337844935" lon="8.145502784419586" id="-34065">
		<tag k="name" v="Knutten" />
		<tag k="natural" v="hill" />
		<tag k="place" v="locality" />
		<tag k="ssr:stedsnr" v="894270" />
	</node>
	<node lat="58.37403055301592" lon="8.10880278371366" id="-34066">
		<tag k="name" v="Odderdalsheia" />
		<tag k="natural" v="hill" />
		<tag k="place" v="locality" />
		<tag k="ssr:stedsnr" v="894384" />
	</node>
	<node lat="58.35825555490531" lon="8.18315833887263" id="-34069">
		<tag k="fixme" v="consider natural=peak for the most distinct mountains in the district" />
		<tag k="name" v="Bjønnåsen" />
		<tag k="natural" v="hill" />
		<tag k="place" v="locality" />
		<tag k="ssr:stedsnr" v="894483" />
	</node>
	<node lat="58.39825277921077" lon="8.215872222569878" id="-34077">
		<tag k="fixme" v="consider natural=peak for the most distinct mountains in the district" />
		<tag k="name" v="Søyletjønnåsen" />
		<tag k="natural" v="hill" />
		<tag k="place" v="locality" />
		<tag k="ssr:stedsnr" v="894535" />
	</node>
	<node lat="58.28502221843037" lon="8.109419444022606" id="-34079">
		<tag k="name" v="Spydstangdalen" />
		<tag k="natural" v="valley" />
		<tag k="place" v="locality" />
		<tag k="ssr:stedsnr" v="894592" />
	</node>
	<node lat="58.36213055789921" lon="8.064497225091953" id="-34082">
		<tag k="name" v="Rebbåsdalen" />
		<tag k="natural" v="valley" />
		<tag k="place" v="locality" />
		<tag k="ssr:stedsnr" v="894697" />
	</node>
	<node lat="58.333272223386444" lon="8.09722777717975" id="-34086">
		<tag k="name" v="Masdalåsen" />
		<tag k="natural" v="hill" />
		<tag k="place" v="locality" />
		<tag k="ssr:stedsnr" v="894755" />
	</node>
	<node lat="58.46296666553735" lon="8.238924997459009" id="-34088">
		<tag k="name" v="Svoeheia" />
		<tag k="natural" v="hill" />
		<tag k="place" v="locality" />
		<tag k="ssr:stedsnr" v="894832" />
	</node>
	<node lat="58.45381389202729" lon="8.26016943585293" id="-34089">
		<tag k="name" v="Ospedalsheia" />
		<tag k="natural" v="hill" />
		<tag k="place" v="locality" />
		<tag k="ssr:stedsnr" v="894834" />
	</node>
	<node lat="58.486297223133434" lon="8.22236943748099" id="-34095">
		<tag k="fixme" v="consider natural=peak for the most distinct mountains in the district" />
		<tag k="name" v="Snautjønnåsen" />
		<tag k="natural" v="hill" />
		<tag k="place" v="locality" />
		<tag k="ssr:stedsnr" v="894991" />
	</node>
	<node lat="58.344999999700505" lon="8.254752780538338" id="-34096">
		<tag k="fixme" v="consider natural=peak for the most distinct mountains in the district" />
		<tag k="name" v="Vesteråsen" />
		<tag k="natural" v="hill" />
		<tag k="place" v="locality" />
		<tag k="ssr:stedsnr" v="695406" />
	</node>
	<node lat="58.51999999677095" lon="8.252772217027506" id="-34097">
		<tag k="name" v="Veneli" />
		<tag k="natural" v="slope" />
		<tag k="place" v="locality" />
		<tag k="ssr:stedsnr" v="894890" />
	</node>
	<node lat="58.29626666803519" lon="8.292072218602797" id="-34100">
		<tag k="fixme" v="consider natural=peak for the most distinct mountains in the district" />
		<tag k="name" v="Bliksheia" />
		<tag k="natural" v="hill" />
		<tag k="place" v="locality" />
		<tag k="ssr:stedsnr" v="695673" />
	</node>
	<node lat="58.305999997303715" lon="8.289402783867759" id="-34103">
		<tag k="fixme" v="consider natural=peak for the most distinct mountains in the district" />
		<tag k="name" v="Skrubbsheia" />
		<tag k="natural" v="hill" />
		<tag k="place" v="locality" />
		<tag k="ssr:stedsnr" v="696416" />
	</node>
	<node lat="58.48978610691639" lon="8.300402784785788" id="-34108">
		<tag k="fixme" v="consider natural=peak for the most distinct mountains in the district" />
		<tag k="name" v="Hismyrheia" />
		<tag k="natural" v="hill" />
		<tag k="place" v="locality" />
		<tag k="ssr:stedsnr" v="700212" />
	</node>
	<node lat="58.48266944454325" lon="8.32363611811654" id="-34109">
		<tag k="fixme" v="consider natural=peak for the most distinct mountains in the district" />
		<tag k="name" v="Sugelifjellet" />
		<tag k="natural" v="hill" />
		<tag k="place" v="locality" />
		<tag k="ssr:stedsnr" v="700220" />
	</node>
	<node lat="58.47779722664552" lon="8.329416671433753" id="-34110">
		<tag k="name" v="Styggeli" />
		<tag k="natural" v="slope" />
		<tag k="place" v="locality" />
		<tag k="ssr:stedsnr" v="700225" />
	</node>
	<node lat="58.47743055125139" lon="8.339791665752415" id="-34111">
		<tag k="name" v="Osuldshol" />
		<tag k="natural" v="slope" />
		<tag k="place" v="locality" />
		<tag k="ssr:stedsnr" v="700226" />
	</node>
	<node lat="58.49926666506627" lon="8.371294437897808" id="-34112">
		<tag k="name" v="Torborgsdal" />
		<tag k="natural" v="valley" />
		<tag k="place" v="locality" />
		<tag k="ssr:stedsnr" v="700267" />
	</node>
	<node lat="58.45250277874081" lon="8.301908328732397" id="-34113">
		<tag k="fixme" v="consider natural=peak for the most distinct mountains in the district" />
		<tag k="name" v="Ronnbuknatten" />
		<tag k="natural" v="hill" />
		<tag k="place" v="locality" />
		<tag k="ssr:stedsnr" v="700106" />
	</node>
	<node lat="58.4873138912288" lon="8.279249999856397" id="-34116">
		<tag k="fixme" v="consider natural=peak for the most distinct mountains in the district" />
		<tag k="name" v="Eikebrekksfjella" />
		<tag k="natural" v="hill" />
		<tag k="place" v="locality" />
		<tag k="ssr:stedsnr" v="700176" />
	</node>
	<node lat="58.57335000252715" lon="8.376902773126426" id="-34120">
		<tag k="fixme" v="consider natural=peak for the most distinct mountains in the district" />
		<tag k="name" v="Bomkollen" />
		<tag k="natural" v="hill" />
		<tag k="place" v="locality" />
		<tag k="ssr:stedsnr" v="700313" />
	</node>
	<node lat="58.5218666636067" lon="8.387950006069524" id="-34125">
		<tag k="name" v="Terelia" />
		<tag k="natural" v="slope" />
		<tag k="place" v="locality" />
		<tag k="ssr:stedsnr" v="700361" />
	</node>
	<node lat="58.588475002477765" lon="8.427474992795599" id="-34126">
		<tag k="name" v="Stodalen" />
		<tag k="natural" v="valley" />
		<tag k="place" v="locality" />
		<tag k="ssr:stedsnr" v="700362" />
	</node>
	<node lat="58.581466670693985" lon="8.406913882057191" id="-34128">
		<tag k="name" v="Kommerliene" />
		<tag k="natural" v="slope" />
		<tag k="place" v="locality" />
		<tag k="ssr:stedsnr" v="700366" />
	</node>
	<node lat="58.369650002238664" lon="8.222236113908156" id="-34130">
		<tag k="fixme" v="consider natural=peak for the most distinct mountains in the district" />
		<tag k="name" v="Lonåsen" />
		<tag k="natural" v="hill" />
		<tag k="place" v="locality" />
		<tag k="ssr:stedsnr" v="700818" />
	</node>
	<node lat="58.29234444310283" lon="8.206241666902649" id="-34134">
		<tag k="fixme" v="consider natural=peak for the most distinct mountains in the district" />
		<tag k="name" v="Øygardsåsen" />
		<tag k="natural" v="hill" />
		<tag k="place" v="locality" />
		<tag k="ssr:stedsnr" v="700977" />
	</node>
	<node lat="58.31391388920882" lon="8.201338880884618" id="-34135">
		<tag k="name" v="Fagerbrekka" />
		<tag k="natural" v="slope" />
		<tag k="place" v="locality" />
		<tag k="ssr:stedsnr" v="700982" />
	</node>
	<node lat="58.4538388862894" lon="8.182047221758365" id="-34140">
		<tag k="name" v="Gluggvarddalen" />
		<tag k="natural" v="valley" />
		<tag k="place" v="locality" />
		<tag k="ssr:stedsnr" v="710828" />
	</node>
	<node lat="58.47029444009335" lon="8.2329305482378" id="-34142">
		<tag k="name" v="Galteheia" />
		<tag k="natural" v="hill" />
		<tag k="place" v="locality" />
		<tag k="ssr:stedsnr" v="710836" />
	</node>
	<node lat="58.54602500281837" lon="8.316780548662528" id="-34144">
		<tag k="name" v="Kalveups" />
		<tag k="natural" v="cliff" />
		<tag k="ssr:stedsnr" v="711003" />
	</node>
	<node lat="58.54126388901869" lon="8.31112500499197" id="-34145">
		<tag k="name" v="Hakedalen" />
		<tag k="natural" v="valley" />
		<tag k="place" v="locality" />
		<tag k="ssr:stedsnr" v="711012" />
	</node>
	<node lat="58.538019445140485" lon="8.319922214274104" id="-34148">
		<tag k="name" v="Fianknuten" />
		<tag k="natural" v="hill" />
		<tag k="place" v="locality" />
		<tag k="ssr:stedsnr" v="711027" />
	</node>
	<node lat="58.52235555580758" lon="8.310222216768437" id="-34149">
		<tag k="name" v="Terelia" />
		<tag k="natural" v="slope" />
		<tag k="place" v="locality" />
		<tag k="ssr:stedsnr" v="711038" />
	</node>
	<node lat="58.44918333385093" lon="8.16868054756926" id="-34150">
		<tag k="name" v="Kolhusknatten" />
		<tag k="natural" v="hill" />
		<tag k="place" v="locality" />
		<tag k="ssr:stedsnr" v="711217" />
	</node>
	<node lat="58.44530555196703" lon="8.20805554731677" id="-34152">
		<tag k="name" v="Vestre Knuteliane" />
		<tag k="natural" v="slope" />
		<tag k="place" v="locality" />
		<tag k="ssr:stedsnr" v="711235" />
	</node>
	<node lat="58.31202500193531" lon="8.132902777101746" id="-34156">
		<tag k="fixme" v="consider natural=peak for the most distinct mountains in the district" />
		<tag k="name" v="Kirketjønnåsen" />
		<tag k="natural" v="hill" />
		<tag k="place" v="locality" />
		<tag k="ssr:stedsnr" v="711293" />
	</node>
	<node lat="58.38257500318468" lon="8.12935000698844" id="-34160">
		<tag k="name" v="Gundersdal" />
		<tag k="natural" v="valley" />
		<tag k="place" v="locality" />
		<tag k="ssr:stedsnr" v="711404" />
	</node>
	<node lat="58.38330833713416" lon="8.136458327878014" id="-34161">
		<tag k="name" v="Pråmsdalen" />
		<tag k="natural" v="valley" />
		<tag k="place" v="locality" />
		<tag k="ssr:stedsnr" v="711405" />
	</node>
	<node lat="58.39828055980636" lon="8.197488891491853" id="-34170">
		<tag k="name" v="Spjotedalen" />
		<tag k="natural" v="valley" />
		<tag k="place" v="locality" />
		<tag k="ssr:stedsnr" v="711483" />
	</node>
	<node lat="58.4214222247761" lon="8.120030559093728" id="-34171">
		<tag k="name" v="Skrikardalen" />
		<tag k="natural" v="valley" />
		<tag k="place" v="locality" />
		<tag k="ssr:stedsnr" v="711485" />
	</node>
	<node lat="58.43355555623331" lon="8.154705556762954" id="-34173">
		<tag k="name" v="Storehei" />
		<tag k="natural" v="hill" />
		<tag k="place" v="locality" />
		<tag k="ssr:stedsnr" v="711495" />
	</node>
	<node lat="58.36374167062954" lon="8.053102780926622" id="-34175">
		<tag k="name" v="Grundetjønnheia" />
		<tag k="natural" v="hill" />
		<tag k="place" v="locality" />
		<tag k="ssr:stedsnr" v="711634" />
	</node>
	<node lat="58.30756110776676" lon="8.115108338185728" id="-34177">
		<tag k="name" v="Selkjerrheia" />
		<tag k="natural" v="hill" />
		<tag k="place" v="locality" />
		<tag k="ssr:stedsnr" v="711726" />
	</node>
	<node lat="58.32017500287537" lon="8.102197228753365" id="-34178">
		<tag k="name" v="Storehei" />
		<tag k="natural" v="hill" />
		<tag k="place" v="locality" />
		<tag k="ssr:stedsnr" v="711731" />
	</node>
	<node lat="58.49241666577678" lon="8.23271389168945" id="-34179">
		<tag k="name" v="Slarpedalen" />
		<tag k="natural" v="valley" />
		<tag k="place" v="locality" />
		<tag k="ssr:stedsnr" v="711792" />
	</node>
	<node lat="58.47648055608322" lon="8.233572214651966" id="-34182">
		<tag k="name" v="Vestre Røyedal" />
		<tag k="natural" v="valley" />
		<tag k="place" v="locality" />
		<tag k="ssr:stedsnr" v="711983" />
	</node>
	<node lat="58.3869611100197" lon="8.217911103373782" id="-34183">
		<tag k="fixme" v="consider natural=peak for the most distinct mountains in the district" />
		<tag k="name" v="Steggtjønnheia" />
		<tag k="natural" v="hill" />
		<tag k="place" v="locality" />
		<tag k="ssr:stedsnr" v="712379" />
	</node>
	<node lat="58.34631110818625" lon="8.213169449310728" id="-34184">
		<tag k="name" v="Galtetjønnåsen" />
		<tag k="natural" v="ridge" />
		<tag k="place" v="locality" />
		<tag k="ssr:stedsnr" v="712398" />
	</node>
	<node lat="58.35655555579006" lon="8.103611109078102" id="-34186">
		<tag k="name" v="Skoddalen" />
		<tag k="natural" v="valley" />
		<tag k="place" v="locality" />
		<tag k="ssr:stedsnr" v="712626" />
	</node>
	<node lat="58.45371666361261" lon="8.095344441193447" id="-34187">
		<tag k="fixme" v="consider natural=peak for the most distinct mountains in the district" />
		<tag k="name" v="Hauglandsåsen" />
		<tag k="natural" v="hill" />
		<tag k="place" v="locality" />
		<tag k="ssr:stedsnr" v="712632" />
	</node>
	<node lat="58.53796111152837" lon="7.999472229087921" id="-34189">
		<tag k="name" v="Helleren" />
		<tag k="place" v="locality" />
		<tag k="ssr:stedsnr" v="899036" />
	</node>
	<node lat="58.50676389217309" lon="8.10251944969549" id="-34192">
		<tag k="name" v="Haukedalen" />
		<tag k="natural" v="valley" />
		<tag k="place" v="locality" />
		<tag k="ssr:stedsnr" v="716981" />
	</node>
	<node lat="58.49768888721066" lon="8.009005552022904" id="-34194">
		<tag k="name" v="Trollungkleiv" />
		<tag k="natural" v="slope" />
		<tag k="place" v="locality" />
		<tag k="ssr:stedsnr" v="717022" />
	</node>
	<node lat="58.528324995614156" lon="8.063361118237966" id="-34195">
		<tag k="name" v="Hestlia" />
		<tag k="natural" v="slope" />
		<tag k="place" v="locality" />
		<tag k="ssr:stedsnr" v="717204" />
	</node>
	<node lat="58.52396666429324" lon="8.057841672792524" id="-34196">
		<tag k="name" v="Trosmyrliane" />
		<tag k="natural" v="slope" />
		<tag k="place" v="locality" />
		<tag k="ssr:stedsnr" v="717209" />
	</node>
	<node lat="58.54419999847831" lon="8.01483888683119" id="-34197">
		<tag k="name" v="Halltekknuten" />
		<tag k="natural" v="hill" />
		<tag k="place" v="locality" />
		<tag k="ssr:stedsnr" v="717284" />
	</node>
	<node lat="58.57783055711158" lon="8.131591663792765" id="-34198">
		<tag k="name" v="Kråkedalen" />
		<tag k="natural" v="valley" />
		<tag k="place" v="locality" />
		<tag k="ssr:stedsnr" v="899085" />
	</node>
	<node lat="58.53367222561659" lon="8.213080547499924" id="-34200">
		<tag k="name" v="Ospålmyrlia" />
		<tag k="natural" v="slope" />
		<tag k="place" v="locality" />
		<tag k="ssr:stedsnr" v="717122" />
	</node>
	<node lat="58.54092222145338" lon="8.011544439383686" id="-34203">
		<tag k="name" v="Palen" />
		<tag k="natural" v="hill" />
		<tag k="place" v="locality" />
		<tag k="ssr:stedsnr" v="717314" />
	</node>
	<node lat="58.569833332746484" lon="8.107022215137016" id="-34205">
		<tag k="name" v="Slorpetjønndalen" />
		<tag k="natural" v="valley" />
		<tag k="place" v="locality" />
		<tag k="ssr:stedsnr" v="899099" />
	</node>
	<node lat="58.53464166427414" lon="8.04776667500504" id="-34207">
		<tag k="name" v="Kjølshei" />
		<tag k="natural" v="hill" />
		<tag k="place" v="locality" />
		<tag k="ssr:stedsnr" v="717729" />
	</node>
	<node lat="58.55476388638914" lon="8.104258330594396" id="-34208">
		<tag k="name" v="Tjørekjellholta" />
		<tag k="natural" v="slope" />
		<tag k="place" v="locality" />
		<tag k="ssr:stedsnr" v="899312" />
	</node>
	<node lat="58.52011389034537" lon="7.988463883233843" id="-34209">
		<tag k="name" v="Bjelkåslia" />
		<tag k="natural" v="slope" />
		<tag k="place" v="locality" />
		<tag k="ssr:stedsnr" v="717905" />
	</node>
	<node lat="58.508533336185366" lon="8.123897215000605" id="-34210">
		<tag k="name" v="Stevetreheia" />
		<tag k="natural" v="hill" />
		<tag k="place" v="locality" />
		<tag k="ssr:stedsnr" v="717909" />
	</node>
	<node lat="58.494300003714535" lon="8.10088889159484" id="-34212">
		<tag k="name" v="Rygg" />
		<tag k="natural" v="ridge" />
		<tag k="place" v="locality" />
		<tag k="ssr:stedsnr" v="717922" />
	</node>
	<node lat="58.54872777447663" lon="8.01862222798708" id="-34214">
		<tag k="name" v="Hommen" />
		<tag k="natural" v="valley" />
		<tag k="place" v="locality" />
		<tag k="ssr:stedsnr" v="899287" />
	</node>
	<node lat="58.54297500126644" lon="8.045608332593288" id="-34215">
		<tag k="name" v="Krossdalen" />
		<tag k="natural" v="valley" />
		<tag k="place" v="locality" />
		<tag k="ssr:stedsnr" v="899292" />
	</node>
</osm>
