<?xml version="1.0" encoding="UTF-8"?>
<osm version="0.6" generator="osmapis">
	<node lat="58.55388888512081" lon="8.124258329591648" id="-32781">
		<tag k="historic" v="boundary_stone" />
		<tag k="man_made" v="cairn" />
		<tag k="name" v="Bruhella" />
		<tag k="place" v="locality" />
		<tag k="ssr:stedsnr" v="170362" />
	</node>
	<node lat="58.54568889103463" lon="8.218036115439931" id="-32784">
		<tag k="historic" v="boundary_stone" />
		<tag k="man_made" v="cairn" />
		<tag k="name" v="Stompesteinen" />
		<tag k="place" v="locality" />
		<tag k="ssr:stedsnr" v="170476" />
	</node>
	<node lat="58.570060565974444" lon="8.444982879699765" id="-32937">
		<tag k="alt_name" v="Skiftesteinen" />
		<tag k="historic" v="boundary_stone" />
		<tag k="man_made" v="cairn" />
		<tag k="name" v="Kobbusteinen" />
		<tag k="place" v="locality" />
		<tag k="ssr:stedsnr" v="234232" />
	</node>
	<node lat="58.43993888748444" lon="8.105969445846569" id="-33106">
		<tag k="historic" v="boundary_stone" />
		<tag k="man_made" v="cairn" />
		<tag k="name" v="Bjønnstehella" />
		<tag k="place" v="locality" />
		<tag k="ssr:stedsnr" v="468494" />
	</node>
	<node lat="58.498100003763504" lon="8.182077779469456" id="-33150">
		<tag k="historic" v="boundary_stone" />
		<tag k="man_made" v="cairn" />
		<tag k="name" v="Bekkedalsrøysa" />
		<tag k="place" v="locality" />
		<tag k="ssr:stedsnr" v="469930" />
	</node>
	<node lat="58.3568583307335" lon="8.132016672658905" id="-33661">
		<tag k="historic" v="boundary_stone" />
		<tag k="man_made" v="cairn" />
		<tag k="name" v="Systeinane" />
		<tag k="place" v="locality" />
		<tag k="ssr:stedsnr" v="529302" />
	</node>
	<node lat="58.416602781915024" lon="8.305363889657256" id="-33709">
		<tag k="fixme" v="consider boundary=protected_area and relevant protect_class if not nature reserve" />
		<tag k="leisure" v="nature_reserve" />
		<tag k="name" v="Rislåknuten naturreservat" />
		<tag k="ssr:stedsnr" v="545877" />
	</node>
	<node lat="58.394663893341814" lon="8.308655558903952" id="-33866">
		<tag k="historic" v="boundary_stone" />
		<tag k="man_made" v="cairn" />
		<tag k="name" v="Flårøysa" />
		<tag k="place" v="locality" />
		<tag k="ssr:stedsnr" v="598952" />
	</node>
	<node lat="58.47451944652515" lon="8.237249996994242" id="-34143">
		<tag k="historic" v="boundary_stone" />
		<tag k="man_made" v="cairn" />
		<tag k="name" v="Storerøys" />
		<tag k="place" v="locality" />
		<tag k="ssr:stedsnr" v="710837" />
	</node>
</osm>
