<?xml version="1.0" encoding="UTF-8"?>
<osm version="0.6" generator="osmapis">
	<node id="7415184476" lat="62.554351" lon="11.274831" version="1" timestamp="2020-04-17T16:39:36Z" changeset="83717753" uid="3497659" user="NKA" />
	<node id="7415184477" lat="62.554403" lon="11.274915" version="1" timestamp="2020-04-17T16:39:36Z" changeset="83717753" uid="3497659" user="NKA" />
	<node id="326139019" lat="62.5535084" lon="11.4141302" version="5" timestamp="2022-01-24T21:00:15Z" changeset="116559033" uid="3497659" user="NKA" />
	<node id="326139022" lat="62.5533666" lon="11.4139376" version="4" timestamp="2022-01-24T21:00:15Z" changeset="116559033" uid="3497659" user="NKA" />
	<node id="249655894" lat="62.5855669" lon="11.3280641" version="4" timestamp="2020-04-17T16:39:36Z" changeset="83717753" uid="3497659" user="NKA" />
	<node id="249655895" lat="62.5855429" lon="11.3292576" version="5" timestamp="2020-04-17T16:39:36Z" changeset="83717753" uid="3497659" user="NKA" />
	<node id="1863678389" lat="62.5983874" lon="11.4817948" version="5" timestamp="2022-01-24T21:00:15Z" changeset="116559033" uid="3497659" user="NKA" />
	<node id="1863678387" lat="62.5982308" lon="11.481936" version="6" timestamp="2022-01-24T21:00:15Z" changeset="116559033" uid="3497659" user="NKA" />
	<node id="249147584" lat="62.6336931" lon="11.3908205" version="3" timestamp="2020-04-17T16:39:36Z" changeset="83717753" uid="3497659" user="NKA" />
	<node id="249147586" lat="62.6350611" lon="11.3914064" version="4" timestamp="2020-04-17T16:39:36Z" changeset="83717753" uid="3497659" user="NKA" />
	<node id="7415184572" lat="62.6344514" lon="11.3911512" version="1" timestamp="2020-04-17T16:39:36Z" changeset="83717753" uid="3497659" user="NKA" />
	<node id="7415184573" lat="62.6342517" lon="11.3910601" version="1" timestamp="2020-04-17T16:39:36Z" changeset="83717753" uid="3497659" user="NKA" />
	<node id="1770848658" lat="62.6709239" lon="11.4288124" version="3" timestamp="2019-10-16T02:48:03Z" changeset="75750175" uid="715936" user="Gazer75" />
	<node id="1770848659" lat="62.6711237" lon="11.4288928" version="2" timestamp="2016-02-18T07:31:44Z" changeset="37281446" uid="2432250" user="rolvtuvom" />
	<node id="259775200" lat="62.6764953" lon="11.4600391" version="3" timestamp="2021-09-08T21:19:06Z" changeset="110938984" uid="5198133" user="Wulfmorn" />
	<node id="259775201" lat="62.676565" lon="11.4607577" version="4" timestamp="2022-05-20T15:39:36Z" changeset="121250879" uid="3497659" user="NKA" />
	<node id="7408240225" lat="62.695003" lon="11.476108" version="1" timestamp="2020-04-15T21:06:49Z" changeset="83612793" uid="3497659" user="NKA" />
	<node id="7408240226" lat="62.695005" lon="11.476454" version="1" timestamp="2020-04-15T21:06:49Z" changeset="83612793" uid="3497659" user="NKA" />
	<node id="1840096908" lat="62.6020443" lon="11.54597" version="4" timestamp="2020-02-24T11:13:07Z" changeset="81402534" uid="1069176" user="landfahrer" />
	<node id="1840096936" lat="62.6021121" lon="11.545683" version="2" timestamp="2016-09-14T09:20:04Z" changeset="42144584" uid="2432250" user="rolvtuvom" />
	<node id="7408240171" lat="62.685389" lon="11.691265" version="1" timestamp="2020-04-15T21:06:49Z" changeset="83612793" uid="3497659" user="NKA" />
	<node id="7408241069" lat="62.685362" lon="11.691173" version="1" timestamp="2020-04-15T21:06:49Z" changeset="83612793" uid="3497659" user="NKA" />
	<node id="7408240588" lat="62.675347" lon="11.862488" version="1" timestamp="2020-04-15T21:06:49Z" changeset="83612793" uid="3497659" user="NKA" />
	<node id="7408240589" lat="62.675708" lon="11.86235" version="1" timestamp="2020-04-15T21:06:49Z" changeset="83612793" uid="3497659" user="NKA" />
	<node id="7408241245" lat="62.69304" lon="11.870881" version="1" timestamp="2020-04-15T21:06:49Z" changeset="83612793" uid="3497659" user="NKA" />
	<node id="7408241247" lat="62.692997" lon="11.871137" version="1" timestamp="2020-04-15T21:06:49Z" changeset="83612793" uid="3497659" user="NKA" />
	<way id="23083994" version="12" timestamp="2022-05-20T15:39:36Z" changeset="121250879" uid="3497659" user="NKA">
		<tag k="bridge" v="yes" />
		<tag k="bridge:description" v="Nyplass O/Søndre Løp" />
		<tag k="highway" v="primary" />
		<tag k="layer" v="1" />
		<tag k="maxspeed" v="80" />
		<tag k="name" v="Nyplassbruan" />
		<tag k="ref" v="30" />
		<tag k="ssr:stedsnr" v="20779" />
		<nd ref="249147584" />
		<nd ref="7415184573" />
	</way>
	<way id="23123108" version="8" timestamp="2022-05-20T15:39:36Z" changeset="121250879" uid="3497659" user="NKA">
		<tag k="bridge" v="yes" />
		<tag k="bridge:description" v="Sundet" />
		<tag k="highway" v="secondary" />
		<tag k="layer" v="1" />
		<tag k="maxspeed" v="80" />
		<tag k="maxweight" v="40" />
		<tag k="name" v="Sundbrua" />
		<tag k="old_name" v="Sundet bru" />
		<tag k="ref" v="6524" />
		<tag k="ssr:stedsnr" v="346356" />
		<nd ref="249655894" />
		<nd ref="249655895" />
	</way>
	<way id="23962802" version="6" timestamp="2022-01-24T21:00:15Z" changeset="116559033" uid="3497659" user="NKA">
		<tag k="bridge" v="yes" />
		<tag k="highway" v="secondary" />
		<tag k="layer" v="1" />
		<tag k="maxspeed" v="80" />
		<tag k="name" v="Vikabrua" />
		<tag k="old_ref" v="562" />
		<tag k="ref" v="6534" />
		<tag k="ssr:stedsnr" v="344110" />
		<nd ref="259775200" />
		<nd ref="259775201" />
	</way>
	<way id="165546991" version="6" timestamp="2022-05-20T15:39:36Z" changeset="121250879" uid="3497659" user="NKA">
		<tag k="bridge" v="yes" />
		<tag k="bridge:description" v="Vintervoll" />
		<tag k="highway" v="secondary" />
		<tag k="layer" v="1" />
		<tag k="maxspeed" v="60" />
		<tag k="name" v="Vintervollbrua" />
		<tag k="ref" v="6536" />
		<tag k="ssr:stedsnr" v="42157" />
		<nd ref="1770848658" />
		<nd ref="1770848659" />
	</way>
	<way id="173181408" version="3" timestamp="2022-01-24T21:00:15Z" changeset="116559033" uid="3497659" user="NKA">
		<tag k="bridge" v="yes" />
		<tag k="highway" v="unclassified" />
		<tag k="layer" v="1" />
		<tag k="name" v="Svendslibrua" />
		<tag k="ssr:stedsnr" v="103914" />
		<tag k="surface" v="gravel" />
		<nd ref="1840096908" />
		<nd ref="1840096936" />
	</way>
	<way id="173533286" version="4" timestamp="2022-01-24T21:00:15Z" changeset="116559033" uid="3497659" user="NKA">
		<tag k="bridge" v="yes" />
		<tag k="highway" v="unclassified" />
		<tag k="layer" v="1" />
		<tag k="name" v="Rybrua" />
		<tag k="ssr:stedsnr" v="870753" />
		<tag k="surface" v="gravel" />
		<nd ref="326139019" />
		<nd ref="326139022" />
	</way>
	<way id="175813485" version="3" timestamp="2022-01-24T21:00:15Z" changeset="116559033" uid="3497659" user="NKA">
		<tag k="bridge" v="yes" />
		<tag k="highway" v="unclassified" />
		<tag k="layer" v="1" />
		<tag k="name" v="Steffabrua" />
		<tag k="ssr:stedsnr" v="627803" />
		<tag k="surface" v="gravel" />
		<nd ref="1863678387" />
		<nd ref="1863678389" />
	</way>
	<way id="551464131" version="4" timestamp="2022-01-24T21:00:15Z" changeset="116559033" uid="3497659" user="NKA">
		<tag k="bridge" v="yes" />
		<tag k="bridge:description" v="Molingen" />
		<tag k="highway" v="secondary" />
		<tag k="layer" v="1" />
		<tag k="maxspeed" v="80" />
		<tag k="name" v="Molingbrua" />
		<tag k="ref" v="6532" />
		<tag k="ssr:stedsnr" v="861971" />
		<tag k="surface" v="asphalt" />
		<nd ref="7408240225" />
		<nd ref="7408240226" />
	</way>
	<way id="731150822" version="4" timestamp="2022-05-20T15:39:36Z" changeset="121250879" uid="3497659" user="NKA">
		<tag k="bridge" v="yes" />
		<tag k="highway" v="primary" />
		<tag k="layer" v="1" />
		<tag k="maxspeed" v="80" />
		<tag k="name" v="Djupabrua" />
		<tag k="ref" v="705" />
		<tag k="ssr:stedsnr" v="104841" />
		<tag k="surface" v="asphalt" />
		<nd ref="7408240589" />
		<nd ref="7408240588" />
	</way>
	<way id="731150827" version="3" timestamp="2022-01-24T21:00:15Z" changeset="116559033" uid="3497659" user="NKA">
		<tag k="bridge" v="yes" />
		<tag k="highway" v="unclassified" />
		<tag k="layer" v="1" />
		<tag k="name" v="Torsvollbrua" />
		<tag k="ssr:stedsnr" v="404991" />
		<nd ref="7408241245" />
		<nd ref="7408241247" />
	</way>
	<way id="792318475" version="2" timestamp="2022-01-24T21:00:15Z" changeset="116559033" uid="3497659" user="NKA">
		<tag k="bridge" v="yes" />
		<tag k="bridge:description" v="Jamtbekk kulvert" />
		<tag k="highway" v="secondary" />
		<tag k="layer" v="1" />
		<tag k="maxspeed" v="80" />
		<tag k="name" v="Jamtbekkbrua" />
		<tag k="ref" v="6532" />
		<tag k="ssr:stedsnr" v="909120" />
		<tag k="surface" v="asphalt" />
		<nd ref="7408241069" />
		<nd ref="7408240171" />
	</way>
	<way id="792983511" version="3" timestamp="2022-05-20T15:39:36Z" changeset="121250879" uid="3497659" user="NKA">
		<tag k="bridge" v="yes" />
		<tag k="bridge:description" v="Galå" />
		<tag k="highway" v="secondary" />
		<tag k="layer" v="1" />
		<tag k="maxspeed" v="60" />
		<tag k="maxweight" v="40" />
		<tag k="name" v="Galåbrua" />
		<tag k="ref" v="6524" />
		<tag k="ssr:stedsnr" v="407336" />
		<tag k="surface" v="asphalt" />
		<nd ref="7415184477" />
		<nd ref="7415184476" />
	</way>
	<way id="792983516" version="3" timestamp="2022-05-20T15:39:36Z" changeset="121250879" uid="3497659" user="NKA">
		<tag k="bridge" v="yes" />
		<tag k="bridge:description" v="Nyplass O/Nordre Løp" />
		<tag k="highway" v="primary" />
		<tag k="layer" v="1" />
		<tag k="maxspeed" v="80" />
		<tag k="name" v="Nyplassbruan" />
		<tag k="ref" v="30" />
		<tag k="ssr:stedsnr" v="20779" />
		<nd ref="7415184572" />
		<nd ref="249147586" />
	</way>
</osm>
