<?xml version="1.0" encoding="UTF-8"?>
<osm generator="osmapis" version="0.6">
	<node id="-553888" lat="62.7380638875" lon="7.1588138897">
		<tag k="name" v="Molde kommune" />
		<tag k="ssr:date" v="2016-05-11" />
		<tag k="ssr:gruppe" v="administrativeIndelinger" />
		<tag k="ssr:hovedgruppe" v="offentligAdministrasjon" />
		<tag k="ssr:stedsnr" v="814760" />
		<tag k="ssr:type" v="kommune" />
	</node>
	<node id="-554207" lat="62.677866665" lon="7.4482166713">
		<tag k="name" v="Sølsnesholmene" />
		<tag k="ssr:date" v="2016-05-11" />
		<tag k="ssr:gruppe" v="navigasjon" />
		<tag k="ssr:hovedgruppe" v="infrastruktur" />
		<tag k="ssr:stedsnr" v="961966" />
		<tag k="ssr:type" v="fyrlykt" />
	</node>
	<node id="-552350" lat="62.7759826907" lon="7.29593975206">
		<tag k="name" v="Kudammen" />
		<tag k="ssr:date" v="2019-05-31" />
		<tag k="ssr:gruppe" v="veg" />
		<tag k="ssr:hovedgruppe" v="infrastruktur" />
		<tag k="ssr:stedsnr" v="1063373" />
		<tag k="ssr:type" v="adressenavn" />
	</node>
	<node id="-554205" lat="62.7326277798" lon="7.15144166135">
		<tag k="name" v="Molde havnelykt" />
		<tag k="ssr:date" v="2016-05-11" />
		<tag k="ssr:gruppe" v="navigasjon" />
		<tag k="ssr:hovedgruppe" v="infrastruktur" />
		<tag k="ssr:stedsnr" v="961318" />
		<tag k="ssr:type" v="fyrlykt" />
	</node>
	<node id="-552348" lat="62.7244583332" lon="7.12436667134">
		<tag k="name" v="Bjørsetholmen" />
		<tag k="ssr:date" v="2016-05-11" />
		<tag k="ssr:gruppe" v="navigasjon" />
		<tag k="ssr:hovedgruppe" v="infrastruktur" />
		<tag k="ssr:stedsnr" v="891036" />
		<tag k="ssr:type" v="lanterne" />
	</node>
	<node id="-554203" lat="62.701094445" lon="7.17585277574">
		<tag k="name" v="Forøytangen lysbøye" />
		<tag k="ssr:date" v="2016-05-11" />
		<tag k="ssr:gruppe" v="navigasjon" />
		<tag k="ssr:hovedgruppe" v="infrastruktur" />
		<tag k="ssr:stedsnr" v="951028" />
		<tag k="ssr:type" v="lysbøye" />
	</node>
	<node id="-552346" lat="62.7457093049" lon="7.07187912542">
		<tag k="name" v="Kringstadsetervegen" />
		<tag k="ssr:date" v="2019-05-31" />
		<tag k="ssr:gruppe" v="veg" />
		<tag k="ssr:hovedgruppe" v="infrastruktur" />
		<tag k="ssr:stedsnr" v="1062045" />
		<tag k="ssr:type" v="adressenavn" />
	</node>
	<node id="-552351" lat="62.738417308" lon="7.16562886752">
		<tag k="name" v="Moldetrappa" />
		<tag k="ssr:date" v="2019-05-31" />
		<tag k="ssr:gruppe" v="veg" />
		<tag k="ssr:hovedgruppe" v="infrastruktur" />
		<tag k="ssr:stedsnr" v="1063375" />
		<tag k="ssr:type" v="adressenavn" />
	</node>
	<node id="-551960" lat="62.7436694425" lon="7.26672221754">
		<tag k="name" v="Årø" />
		<tag k="ssr:date" v="2016-05-10" />
		<tag k="ssr:gruppe" v="navigasjon" />
		<tag k="ssr:hovedgruppe" v="infrastruktur" />
		<tag k="ssr:stedsnr" v="293178" />
		<tag k="ssr:type" v="fyrlykt" />
	</node>
	<node id="-552649" lat="62.7373361112" lon="7.36133056405">
		<tag k="name" v="Dvergsnes" />
		<tag k="ssr:date" v="2016-05-10" />
		<tag k="ssr:gruppe" v="navigasjon" />
		<tag k="ssr:hovedgruppe" v="infrastruktur" />
		<tag k="ssr:stedsnr" v="111879" />
		<tag k="ssr:type" v="fyrlykt" />
	</node>
	<node id="-552786" lat="62.7055472259" lon="7.18566665889">
		<tag k="name" v="Forøytangen" />
		<tag k="ssr:date" v="2016-05-10" />
		<tag k="ssr:gruppe" v="navigasjon" />
		<tag k="ssr:hovedgruppe" v="infrastruktur" />
		<tag k="ssr:stedsnr" v="162020" />
		<tag k="ssr:type" v="lanterne" />
	</node>
	<node id="-552347" lat="62.7330689946" lon="7.0104457782">
		<tag k="name" v="Mordalslia" />
		<tag k="ssr:date" v="2019-05-31" />
		<tag k="ssr:gruppe" v="veg" />
		<tag k="ssr:hovedgruppe" v="infrastruktur" />
		<tag k="ssr:stedsnr" v="1062123" />
		<tag k="ssr:type" v="adressenavn" />
	</node>
	<node id="-552687" lat="62.7345361111" lon="7.15065554732">
		<tag k="alt_name" v="Møre og Romsdal" />
		<tag k="name" v="Møre og Romsdal fylke" />
		<tag k="ssr:date" v="2016-05-10" />
		<tag k="ssr:gruppe" v="administrativeIndelinger" />
		<tag k="ssr:hovedgruppe" v="offentligAdministrasjon" />
		<tag k="ssr:stedsnr" v="145583" />
		<tag k="ssr:type" v="fylke" />
	</node>
	<node id="-552349" lat="62.750746366" lon="7.24650711956">
		<tag k="name" v="Einar O. Bergs veg" />
		<tag k="ssr:date" v="2019-05-31" />
		<tag k="ssr:gruppe" v="veg" />
		<tag k="ssr:hovedgruppe" v="infrastruktur" />
		<tag k="ssr:stedsnr" v="1063279" />
		<tag k="ssr:type" v="adressenavn" />
	</node>
	<node id="-553545" lat="62.7233638889" lon="7.09767221925">
		<tag k="name" v="Mekgrunnen" />
		<tag k="ssr:date" v="2016-05-10" />
		<tag k="ssr:gruppe" v="navigasjon" />
		<tag k="ssr:hovedgruppe" v="infrastruktur" />
		<tag k="ssr:stedsnr" v="647036" />
		<tag k="ssr:type" v="lanterne" />
	</node>
	<node id="-552648" lat="62.7349861107" lon="6.96855277211">
		<tag k="name" v="Julholmen" />
		<tag k="ssr:date" v="2016-05-10" />
		<tag k="ssr:gruppe" v="navigasjon" />
		<tag k="ssr:hovedgruppe" v="infrastruktur" />
		<tag k="ssr:stedsnr" v="111126" />
		<tag k="ssr:type" v="fyrlykt" />
	</node>
	<node id="-552102" lat="62.7107916661" lon="7.11090000816">
		<tag k="name" v="Hjertøytangen" />
		<tag k="ssr:date" v="2016-05-10" />
		<tag k="ssr:gruppe" v="navigasjon" />
		<tag k="ssr:hovedgruppe" v="infrastruktur" />
		<tag k="ssr:stedsnr" v="353163" />
		<tag k="ssr:type" v="fyrlykt" />
	</node>
	<node id="-553409" lat="62.7978777759" lon="7.6242249963">
		<tag k="name" v="Romsdal" />
		<tag k="ssr:date" v="2016-05-10" />
		<tag k="ssr:gruppe" v="terrengområder" />
		<tag k="ssr:hovedgruppe" v="terreng" />
		<tag k="ssr:stedsnr" v="603302" />
		<tag k="ssr:type" v="landskapsområde" />
	</node>
	<node id="-552354" lat="62.7315120567" lon="7.29714558">
		<tag k="name" v="Hulderhaugen" />
		<tag k="old_name" v="Stormyrvegen" />
		<tag k="ssr:date" v="2019-12-05" />
		<tag k="ssr:gruppe" v="veg" />
		<tag k="ssr:hovedgruppe" v="infrastruktur" />
		<tag k="ssr:stedsnr" v="1073741" />
		<tag k="ssr:type" v="adressenavn" />
	</node>
	<node id="-554209" lat="60.8816104596" lon="6.30047518531">
		<tag k="name" v="Vestlandet" />
		<tag k="ssr:date" v="2019-01-06" />
		<tag k="ssr:gruppe" v="administrativeIndelinger" />
		<tag k="ssr:hovedgruppe" v="offentligAdministrasjon" />
		<tag k="ssr:stedsnr" v="974777" />
		<tag k="ssr:type" v="annenAdministrativInndeling" />
	</node>
</osm>
