<?xml version="1.0" encoding="UTF-8"?>
<osm generator="osmapis" version="0.6">
	<node id="-303104" lat="58.6419499965" lon="8.75567221854">
		<tag k="name" v="Kylland" />
		<tag k="place" v="locality" />
		<tag k="ssr:stedsnr" v="62972" />
	</node>
	<node id="-303101" lat="58.6929444487" lon="8.70750832507">
		<tag k="name" v="Nylund" />
		<tag k="place" v="farm" />
		<tag k="ssr:stedsnr" v="62898" />
	</node>
	<node id="-305148" lat="58.76714167" lon="8.53325555124">
		<tag k="alt_name" v="Haugane, austre" />
		<tag k="fixme" v="multiple name tags, choose one and add the other to alt_name" />
		<tag k="name" v="Austigard;Austre Haugane" />
		<tag k="place" v="farm" />
		<tag k="ssr:stedsnr" v="607506" />
	</node>
	<node id="-305147" lat="58.7649749997" lon="8.53604999432">
		<tag k="name" v="Tveit" />
		<tag k="place" v="hamlet" />
		<tag k="ssr:stedsnr" v="607501" />
	</node>
	<node id="-303098" lat="58.6869972235" lon="8.65176944216">
		<tag k="fixme" v="consider place=hamlet" />
		<tag k="name" v="Hovde" />
		<tag k="place" v="farm" />
		<tag k="ssr:stedsnr" v="62885" />
	</node>
	<node id="-303096" lat="58.6310972236" lon="8.69030000042">
		<tag k="name" v="Slevesund" />
		<tag k="place" v="isolated_dwelling" />
		<tag k="ssr:stedsnr" v="62777" />
	</node>
	<node id="-303093" lat="58.7841888891" lon="8.51078332606">
		<tag k="fixme" v="consider place=hamlet" />
		<tag k="name" v="Epletveit" />
		<tag k="place" v="farm" />
		<tag k="ssr:stedsnr" v="62616" />
	</node>
	<node id="-303088" lat="58.6963027775" lon="8.36277222407">
		<tag k="name" v="Hommedal, store" />
		<tag k="place" v="isolated_dwelling" />
		<tag k="ssr:stedsnr" v="62449" />
	</node>
	<node id="-305134" lat="58.7889333342" lon="8.23464167066">
		<tag k="name" v="Myrvang" />
		<tag k="place" v="farm" />
		<tag k="ssr:stedsnr" v="607244" />
	</node>
	<node id="-305132" lat="58.7530166679" lon="8.1255527741">
		<tag k="alt_name" v="Skjeggedal" />
		<tag k="fixme" v="consider place=hamlet" />
		<tag k="name" v="Nedre Skjeggedal" />
		<tag k="place" v="farm" />
		<tag k="ssr:stedsnr" v="607227" />
	</node>
	<node id="-305128" lat="58.8153055576" lon="8.28136110352">
		<tag k="name" v="Slaktarplassen" />
		<tag k="place" v="locality" />
		<tag k="ssr:stedsnr" v="607189" />
	</node>
	<node id="-305126" lat="58.8180611082" lon="8.41243888792">
		<tag k="name" v="Vika" />
		<tag k="place" v="isolated_dwelling" />
		<tag k="ssr:stedsnr" v="607171" />
	</node>
	<node id="-305122" lat="58.8066194481" lon="8.39171944576">
		<tag k="fixme" v="consider place=hamlet" />
		<tag k="name" v="Hunemo" />
		<tag k="place" v="farm" />
		<tag k="ssr:stedsnr" v="607138" />
	</node>
	<node id="-305121" lat="58.8061916685" lon="8.16907777481">
		<tag k="name" v="Øyna" />
		<tag k="place" v="isolated_dwelling" />
		<tag k="ssr:stedsnr" v="607126" />
	</node>
	<node id="-305120" lat="58.8015555566" lon="8.18425277242">
		<tag k="name" v="Bygland" />
		<tag k="place" v="farm" />
		<tag k="ssr:stedsnr" v="607125" />
	</node>
	<node id="-303070" lat="58.8440250028" lon="8.09068611905">
		<tag k="name" v="Mjåland" />
		<tag k="place" v="farm" />
		<tag k="ssr:stedsnr" v="61767" />
	</node>
	<node id="-303068" lat="58.876291663" lon="8.64094166908">
		<tag k="name" v="Drangsmonen" />
		<tag k="place" v="locality" />
		<tag k="ssr:stedsnr" v="61705" />
	</node>
	<node id="-305115" lat="58.8269500023" lon="8.24167777622">
		<tag k="name" v="Listøyl" />
		<tag k="place" v="isolated_dwelling" />
		<tag k="ssr:stedsnr" v="607078" />
	</node>
	<node id="-305114" lat="58.7130444469" lon="8.63996111659">
		<tag k="fixme" v="consider place=hamlet" />
		<tag k="name" v="Gjerustad" />
		<tag k="place" v="farm" />
		<tag k="ssr:stedsnr" v="607071" />
	</node>
	<node id="-307161" lat="58.6324107716" lon="8.40887309394">
		<tag k="fixme" v="consider place=hamlet" />
		<tag k="name" v="Sparhauktveit" />
		<tag k="place" v="farm" />
		<tag k="ssr:stedsnr" v="971353" />
	</node>
	<node id="-307160" lat="58.6773654386" lon="8.54686815736">
		<tag k="fixme" v="consider place=hamlet" />
		<tag k="name" v="Vestre Mosberg" />
		<tag k="place" v="farm" />
		<tag k="ssr:stedsnr" v="971352" />
	</node>
	<node id="-307159" lat="58.6643616277" lon="8.59206941522">
		<tag k="fixme" v="consider place=hamlet" />
		<tag k="name" v="Brattøya" />
		<tag k="place" v="farm" />
		<tag k="ssr:stedsnr" v="971351" />
	</node>
	<node id="-307158" lat="58.6578816013" lon="8.66850392766">
		<tag k="name" v="Vimme" />
		<tag k="place" v="hamlet" />
		<tag k="ssr:stedsnr" v="971348" />
	</node>
	<node id="-307157" lat="58.6873815071" lon="8.6764093165">
		<tag k="fixme" v="consider place=hamlet" />
		<tag k="name" v="Svinåsen" />
		<tag k="place" v="farm" />
		<tag k="ssr:stedsnr" v="971346" />
	</node>
	<node id="-307156" lat="58.7662606662" lon="8.53058952633">
		<tag k="fixme" v="consider place=hamlet" />
		<tag k="name" v="Tveit" />
		<tag k="place" v="farm" />
		<tag k="ssr:stedsnr" v="971345" />
	</node>
	<node id="-307155" lat="58.7674023137" lon="8.49460250248">
		<tag k="fixme" v="consider place=hamlet" />
		<tag k="name" v="Åmli prestegård" />
		<tag k="place" v="farm" />
		<tag k="ssr:stedsnr" v="971344" />
	</node>
	<node id="-307154" lat="58.8333263576" lon="8.3987649679">
		<tag k="fixme" v="consider place=hamlet" />
		<tag k="name" v="Homdrum" />
		<tag k="place" v="farm" />
		<tag k="ssr:stedsnr" v="971341" />
	</node>
	<node id="-307153" lat="58.8727458639" lon="8.30533395134">
		<tag k="fixme" v="consider place=hamlet" />
		<tag k="name" v="Askland" />
		<tag k="place" v="farm" />
		<tag k="ssr:stedsnr" v="971340" />
	</node>
	<node id="-307152" lat="58.8784182673" lon="8.2093962118">
		<tag k="fixme" v="consider place=hamlet" />
		<tag k="name" v="Hågestøl" />
		<tag k="place" v="farm" />
		<tag k="ssr:stedsnr" v="971339" />
	</node>
	<node id="-307151" lat="58.7972618273" lon="8.22312336359">
		<tag k="fixme" v="consider place=hamlet" />
		<tag k="name" v="Øvre Ramse" />
		<tag k="place" v="farm" />
		<tag k="ssr:stedsnr" v="971336" />
	</node>
	<node id="-307150" lat="58.791650934" lon="8.02690234888">
		<tag k="fixme" v="consider place=hamlet" />
		<tag k="name" v="Øvre Skjeggedal" />
		<tag k="place" v="farm" />
		<tag k="ssr:stedsnr" v="971334" />
	</node>
	<node id="-307149" lat="58.7992940339" lon="7.99832674166">
		<tag k="fixme" v="consider place=hamlet" />
		<tag k="name" v="Tveitli" />
		<tag k="place" v="farm" />
		<tag k="ssr:stedsnr" v="971335" />
	</node>
	<node id="-307147" lat="58.9645083304" lon="8.14530555169">
		<tag k="name" v="Torbjørnsbu" />
		<tag k="place" v="isolated_dwelling" />
		<tag k="ssr:stedsnr" v="962986" />
	</node>
	<node id="-303049" lat="58.7723527815" lon="8.37731666461">
		<tag k="name" v="Vikstøyl" />
		<tag k="place" v="isolated_dwelling" />
		<tag k="ssr:stedsnr" v="61187" />
	</node>
	<node id="-303042" lat="58.8540888868" lon="8.45291111958">
		<tag k="name" v="Krossen" />
		<tag k="place" v="isolated_dwelling" />
		<tag k="ssr:stedsnr" v="61110" />
	</node>
	<node id="-303041" lat="58.7242611155" lon="8.55087777978">
		<tag k="name" v="Måmoen" />
		<tag k="place" v="farm" />
		<tag k="ssr:stedsnr" v="61109" />
	</node>
	<node id="-307129" lat="58.8331833293" lon="8.39482221655">
		<tag k="name" v="Haugane" />
		<tag k="place" v="farm" />
		<tag k="ssr:stedsnr" v="962486" />
	</node>
	<node id="-305079" lat="58.859947221" lon="8.32589167065">
		<tag k="name" v="Selås" />
		<tag k="place" v="farm" />
		<tag k="ssr:stedsnr" v="597684" />
	</node>
	<node id="-307123" lat="58.869775001" lon="8.21395277567">
		<tag k="name" v="Fjellstoga" />
		<tag k="place" v="isolated_dwelling" />
		<tag k="ssr:stedsnr" v="962221" />
	</node>
	<node id="-304832" lat="58.792124998" lon="8.02678332707">
		<tag k="alt_name" v="Skjeggedal, øvre" />
		<tag k="name" v="Øvre Skjeggedal" />
		<tag k="place" v="isolated_dwelling" />
		<tag k="ssr:stedsnr" v="547810" />
	</node>
	<node id="-307114" lat="58.7957277795" lon="8.22636111661">
		<tag k="name" v="Livoll" />
		<tag k="place" v="farm" />
		<tag k="ssr:stedsnr" v="961917" />
	</node>
	<node id="-302748" lat="58.6987395399" lon="8.3495248182">
		<tag k="fixme" v="consider place=hamlet" />
		<tag k="name" v="Innjorda" />
		<tag k="place" v="farm" />
		<tag k="ssr:stedsnr" v="1444" />
	</node>
	<node id="-307109" lat="58.7740194413" lon="8.41856110725">
		<tag k="name" v="Mjåvasstoga" />
		<tag k="place" v="isolated_dwelling" />
		<tag k="ssr:stedsnr" v="961854" />
	</node>
	<node id="-307104" lat="58.755138886" lon="8.29802222841">
		<tag k="name" v="Saga" />
		<tag k="place" v="locality" />
		<tag k="ssr:stedsnr" v="961734" />
	</node>
	<node id="-307102" lat="58.7040722199" lon="8.32501666399">
		<tag k="name" v="Kjorrmoplassen" />
		<tag k="place" v="locality" />
		<tag k="ssr:stedsnr" v="961714" />
	</node>
	<node id="-305051" lat="58.7582166701" lon="8.23121944624">
		<tag k="name" v="Høymyrsaga" />
		<tag k="place" v="locality" />
		<tag k="ssr:stedsnr" v="597418" />
	</node>
	<node id="-303002" lat="58.7941499965" lon="8.22164722615">
		<tag k="name" v="Vettevoll" />
		<tag k="place" v="farm" />
		<tag k="ssr:stedsnr" v="51903" />
	</node>
	<node id="-307097" lat="58.8615555528" lon="8.32585555057">
		<tag k="name" v="Mosdøl" />
		<tag k="place" v="farm" />
		<tag k="ssr:stedsnr" v="961696" />
	</node>
	<node id="-302993" lat="58.8119500014" lon="8.13721944426">
		<tag k="name" v="Skivestøyl" />
		<tag k="place" v="locality" />
		<tag k="ssr:stedsnr" v="51757" />
	</node>
	<node id="-305040" lat="58.8691166663" lon="8.19294721639">
		<tag k="name" v="Barlindhaugen" />
		<tag k="place" v="isolated_dwelling" />
		<tag k="ssr:stedsnr" v="597261" />
	</node>
	<node id="-302988" lat="58.8588527758" lon="8.32547777384">
		<tag k="name" v="Fjellstad" />
		<tag k="place" v="farm" />
		<tag k="ssr:stedsnr" v="51715" />
	</node>
	<node id="-302402" lat="58.7719722238" lon="8.53901110289">
		<tag k="name" v="Skaare" />
		<tag k="place" v="farm" />
		<tag k="ssr:stedsnr" v="395248" />
	</node>
	<node id="-305024" lat="58.8769277785" lon="8.21884166484">
		<tag k="name" v="Lisletjønnhytta" />
		<tag k="place" v="isolated_dwelling" />
		<tag k="ssr:stedsnr" v="597009" />
	</node>
	<node id="-307071" lat="58.7537305583" lon="8.36699166282">
		<tag k="name" v="Kvitterli" />
		<tag k="place" v="locality" />
		<tag k="ssr:stedsnr" v="961403" />
	</node>
	<node id="-307066" lat="58.7462916662" lon="8.24486666182">
		<tag k="name" v="Fjalsåbua" />
		<tag k="place" v="locality" />
		<tag k="ssr:stedsnr" v="961322" />
	</node>
	<node id="-302740" lat="58.7635194428" lon="8.37591944853">
		<tag k="name" v="Badstoga" />
		<tag k="place" v="isolated_dwelling" />
		<tag k="ssr:stedsnr" v="1227" />
	</node>
	<node id="-304102" lat="58.770238891" lon="8.24927778161">
		<tag k="name" v="Holte" />
		<tag k="place" v="farm" />
		<tag k="ssr:stedsnr" v="415420" />
	</node>
	<node id="-307029" lat="58.9420888855" lon="8.1086583275">
		<tag k="name" v="Nedre Hægestøyl" />
		<tag k="place" v="locality" />
		<tag k="ssr:stedsnr" v="960200" />
	</node>
	<node id="-304979" lat="58.8900805528" lon="8.01458889522">
		<tag k="name" v="Bjørkholta" />
		<tag k="place" v="locality" />
		<tag k="ssr:stedsnr" v="595177" />
	</node>
	<node id="-302913" lat="58.9020194447" lon="8.00817777181">
		<tag k="name" v="Ånebjørste-bua" />
		<tag k="place" v="locality" />
		<tag k="ssr:stedsnr" v="49246" />
	</node>
	<node id="-302305" lat="58.8092666683" lon="8.3982249947">
		<tag k="alt_name" v="Flata" />
		<tag k="name" v="Flaten" />
		<tag k="place" v="farm" />
		<tag k="ssr:stedsnr" v="365134" />
	</node>
	<node id="-307005" lat="58.6665972216" lon="8.73463611754">
		<tag k="name" v="Sandland" />
		<tag k="place" v="farm" />
		<tag k="ssr:stedsnr" v="954945" />
	</node>
	<node id="-303396" lat="58.9410972259" lon="8.10624999884">
		<tag k="alt_name" v="Hegestøyl" />
		<tag k="name" v="Øvre Hegestøyl" />
		<tag k="place" v="farm" />
		<tag k="ssr:stedsnr" v="122934" />
	</node>
	<node id="-302902" lat="58.6652027741" lon="8.72921111154">
		<tag k="name" v="Gamle Sandland" />
		<tag k="place" v="locality" />
		<tag k="ssr:stedsnr" v="44938" />
	</node>
	<node id="-302897" lat="58.8401722229" lon="8.34961945001">
		<tag k="name" v="Fossli" />
		<tag k="place" v="isolated_dwelling" />
		<tag k="ssr:stedsnr" v="38776" />
	</node>
	<node id="-302893" lat="58.8127222217" lon="8.41378332944">
		<tag k="name" v="Midtstøyl" />
		<tag k="place" v="isolated_dwelling" />
		<tag k="ssr:stedsnr" v="38430" />
	</node>
	<node id="-302889" lat="58.8177888861" lon="8.46813332906">
		<tag k="name" v="Espelibu" />
		<tag k="place" v="locality" />
		<tag k="ssr:stedsnr" v="38412" />
	</node>
	<node id="-303067" lat="58.8203027784" lon="8.6369111121">
		<tag k="alt_name" v="Øvre Haukedalen" />
		<tag k="name" v="Haukedalen" />
		<tag k="place" v="isolated_dwelling" />
		<tag k="ssr:stedsnr" v="61672" />
	</node>
	<node id="-302875" lat="58.7471666707" lon="8.5089777774">
		<tag k="name" v="Åmli hotell" />
		<tag k="ssr:stedsnr" v="32555" />
		<tag k="tourism" v="hotel" />
	</node>
	<node id="-302863" lat="58.7248722197" lon="8.34126943794">
		<tag k="name" v="Heggland" />
		<tag k="place" v="farm" />
		<tag k="ssr:stedsnr" v="32466" />
	</node>
	<node id="-302862" lat="58.7217555581" lon="8.36002500372">
		<tag k="name" v="Eppeland" />
		<tag k="place" v="farm" />
		<tag k="ssr:stedsnr" v="32457" />
	</node>
	<node id="-304908" lat="58.6886750004" lon="8.69036389283">
		<tag k="name" v="Myrane" />
		<tag k="place" v="isolated_dwelling" />
		<tag k="ssr:stedsnr" v="577622" />
	</node>
	<node id="-306955" lat="58.6888916702" lon="8.69667499958">
		<tag k="amenity" v="school" />
		<tag k="name" v="Porskil skule" />
		<tag k="ssr:stedsnr" v="942617" />
	</node>
	<node id="-306952" lat="58.6941083371" lon="8.58854722951">
		<tag k="name" v="Øyna" />
		<tag k="place" v="farm" />
		<tag k="ssr:stedsnr" v="942582" />
	</node>
	<node id="-306951" lat="58.7034249976" lon="8.60204999789">
		<tag k="name" v="Steinsland" />
		<tag k="place" v="farm" />
		<tag k="ssr:stedsnr" v="942578" />
	</node>
	<node id="-306947" lat="58.7075472191" lon="8.5665277828">
		<tag k="name" v="Fossund" />
		<tag k="place" v="isolated_dwelling" />
		<tag k="ssr:stedsnr" v="942560" />
	</node>
	<node id="-302847" lat="58.6857194432" lon="8.40396667153">
		<tag k="name" v="Lundevoll" />
		<tag k="place" v="farm" />
		<tag k="ssr:stedsnr" v="32274" />
	</node>
	<node id="-305109" lat="58.8693000034" lon="8.30733055804">
		<tag k="alt_name" v="Ekra" />
		<tag k="name" v="Ækra" />
		<tag k="place" v="farm" />
		<tag k="ssr:stedsnr" v="607017" />
	</node>
	<node id="-302036" lat="58.690775004" lon="8.43893888238">
		<tag k="historic" v="shieling" />
		<tag k="name" v="Håstøyl" />
		<tag k="place" v="locality" />
		<tag k="ssr:stedsnr" v="335420" />
	</node>
	<node id="-302837" lat="58.742663886" lon="8.44541110656">
		<tag k="name" v="Havstad" />
		<tag k="place" v="farm" />
		<tag k="ssr:stedsnr" v="31657" />
	</node>
	<node id="-304884" lat="58.7623888854" lon="8.5308722217">
		<tag k="name" v="Mørland" />
		<tag k="place" v="farm" />
		<tag k="ssr:stedsnr" v="577245" />
	</node>
	<node id="-303742" lat="58.8844194433" lon="8.59364444585">
		<tag k="name" v="Solmo" />
		<tag k="place" v="isolated_dwelling" />
		<tag k="ssr:stedsnr" v="213026" />
	</node>
	<node id="-306930" lat="58.6820611126" lon="8.54062222543">
		<tag k="name" v="Svalehommen" />
		<tag k="place" v="locality" />
		<tag k="ssr:stedsnr" v="942418" />
	</node>
	<node id="-304881" lat="58.7704583359" lon="8.49477777235">
		<tag k="name" v="Lundevoll" />
		<tag k="place" v="farm" />
		<tag k="ssr:stedsnr" v="577230" />
	</node>
	<node id="-304880" lat="58.7571361087" lon="8.45206666687">
		<tag k="name" v="Brekka" />
		<tag k="place" v="farm" />
		<tag k="ssr:stedsnr" v="577228" />
	</node>
	<node id="-306927" lat="58.693722218" lon="8.47001944693">
		<tag k="name" v="Bjørkholtbuene" />
		<tag k="old_name" v="Bjørkholttbuene" />
		<tag k="place" v="locality" />
		<tag k="ssr:stedsnr" v="942383" />
	</node>
	<node id="-305106" lat="58.8724499984" lon="8.30697499408">
		<tag k="name" v="Bakkane" />
		<tag k="place" v="farm" />
		<tag k="ssr:stedsnr" v="607003" />
	</node>
	<node id="-302825" lat="58.7735444464" lon="8.59332499522">
		<tag k="name" v="Knutebua" />
		<tag k="place" v="locality" />
		<tag k="ssr:stedsnr" v="31382" />
	</node>
	<node id="-306909" lat="58.6694861078" lon="8.41999443609">
		<tag k="name" v="Stemvassbua" />
		<tag k="place" v="locality" />
		<tag k="ssr:stedsnr" v="942240" />
	</node>
	<node id="-302807" lat="58.6899444428" lon="8.63621943859">
		<tag k="name" v="Øygarden" />
		<tag k="place" v="locality" />
		<tag k="ssr:stedsnr" v="31217" />
	</node>
	<node id="-306902" lat="58.6872055538" lon="8.64477500678">
		<tag k="name" v="Bruvoll" />
		<tag k="place" v="isolated_dwelling" />
		<tag k="ssr:stedsnr" v="942190" />
	</node>
	<node id="-304852" lat="58.8533027751" lon="8.53194721547">
		<tag k="historic" v="shieling" />
		<tag k="name" v="Nedre Helleren" />
		<tag k="place" v="locality" />
		<tag k="ssr:stedsnr" v="577049" />
	</node>
	<node id="-302802" lat="58.7049972193" lon="8.58619722672">
		<tag k="building" v="industrial" />
		<tag k="industrial" v="factory" />
		<tag k="name" v="Nidarå trelast A/S" />
		<tag k="ssr:stedsnr" v="31148" />
	</node>
	<node id="-303395" lat="58.6775972252" lon="8.54647499828">
		<tag k="alt_name" v="Vestre Mosberg" />
		<tag k="name" v="Mosberg" />
		<tag k="place" v="isolated_dwelling" />
		<tag k="ssr:stedsnr" v="122917" />
	</node>
	<node id="-304848" lat="58.8777888884" lon="8.53777777679">
		<tag k="name" v="Høybu" />
		<tag k="place" v="locality" />
		<tag k="ssr:stedsnr" v="577023" />
	</node>
	<node id="-303053" lat="58.7839777761" lon="8.2358416647">
		<tag k="name" v="Liane" />
		<tag k="place" v="farm" />
		<tag k="ssr:stedsnr" v="61227" />
	</node>
	<node id="-302792" lat="58.8503416693" lon="8.58172500544">
		<tag k="name" v="Den gamle plassen" />
		<tag k="place" v="locality" />
		<tag k="ssr:stedsnr" v="31048" />
	</node>
	<node id="-304837" lat="58.69633611" lon="8.58503888367">
		<tag k="name" v="Odden" />
		<tag k="place" v="farm" />
		<tag k="ssr:stedsnr" v="547907" />
	</node>
	<node id="-302788" lat="58.8859138905" lon="8.57515832569">
		<tag k="name" v="Lyngmo" />
		<tag k="place" v="isolated_dwelling" />
		<tag k="ssr:stedsnr" v="31022" />
	</node>
	<node id="-304833" lat="58.8100027799" lon="8.05797221696">
		<tag k="name" v="Lauvbukleiv" />
		<tag k="place" v="locality" />
		<tag k="ssr:stedsnr" v="547825" />
	</node>
	<node id="-302784" lat="58.8636055563" lon="8.57765833504">
		<tag k="name" v="Plassen" />
		<tag k="place" v="locality" />
		<tag k="ssr:stedsnr" v="31152" />
	</node>
	<node id="-306877" lat="58.8598138897" lon="8.57464444103">
		<tag k="name" v="Sundsli" />
		<tag k="place" v="locality" />
		<tag k="ssr:stedsnr" v="942043" />
	</node>
	<node id="-306876" lat="58.9043555599" lon="8.55986388139">
		<tag k="name" v="Slettheim" />
		<tag k="place" v="isolated_dwelling" />
		<tag k="ssr:stedsnr" v="942038" />
	</node>
	<node id="-306875" lat="58.905488888" lon="8.55751667153">
		<tag k="name" v="Lund" />
		<tag k="place" v="isolated_dwelling" />
		<tag k="ssr:stedsnr" v="942036" />
	</node>
	<node id="-302777" lat="58.9425694456" lon="8.11878055469">
		<tag k="name" v="Storbekkli" />
		<tag k="place" v="isolated_dwelling" />
		<tag k="ssr:stedsnr" v="1911" />
	</node>
	<node id="-302773" lat="58.6880638887" lon="8.63832222768">
		<tag k="name" v="Myrvang" />
		<tag k="place" v="farm" />
		<tag k="ssr:stedsnr" v="1882" />
	</node>
	<node id="-304820" lat="58.714991666" lon="8.46137500801">
		<tag k="name" v="Nordli" />
		<tag k="place" v="isolated_dwelling" />
		<tag k="ssr:stedsnr" v="547517" />
	</node>
	<node id="-306867" lat="58.679355555" lon="8.37304445282">
		<tag k="alt_name" v="Moen" />
		<tag k="name" v="Monen" />
		<tag k="place" v="farm" />
		<tag k="ssr:stedsnr" v="935197" />
	</node>
	<node id="-304818" lat="58.7250444486" lon="8.34138611558">
		<tag k="name" v="Selberg" />
		<tag k="place" v="isolated_dwelling" />
		<tag k="ssr:stedsnr" v="547511" />
	</node>
	<node id="-302764" lat="58.809680555" lon="8.52152500553">
		<tag k="alt_name" v="Stoa" />
		<tag k="name" v="Ståa" />
		<tag k="place" v="isolated_dwelling" />
		<tag k="ssr:stedsnr" v="1666" />
	</node>
	<node id="-306858" lat="58.9652222189" lon="8.1034111159">
		<tag k="fixme" v="consider tourism=alpine_hut or tourism=chalet" />
		<tag k="name" v="Vindilhytta" />
		<tag k="ssr:stedsnr" v="911879" />
		<tag k="tourism" v="wilderness_hut" />
	</node>
	<node id="-304809" lat="58.7946638873" lon="8.42622221916">
		<tag k="alt_name" v="Barlindbua" />
		<tag k="name" v="Barlindhalsbua" />
		<tag k="place" v="locality" />
		<tag k="ssr:stedsnr" v="547243" />
	</node>
	<node id="-304806" lat="58.7686055516" lon="8.25618054704">
		<tag k="alt_name" v="Ramse ytre;Ramse, yt" />
		<tag k="fixme" v="consider place=hamlet" />
		<tag k="name" v="Ytre Ramse" />
		<tag k="place" v="farm" />
		<tag k="ssr:stedsnr" v="547227" />
	</node>
	<node id="-306853" lat="58.6375305527" lon="8.743663887">
		<tag k="name" v="Eikeland" />
		<tag k="place" v="isolated_dwelling" />
		<tag k="ssr:stedsnr" v="911786" />
	</node>
	<node id="-302755" lat="58.7278972184" lon="8.2068777741">
		<tag k="name" v="Vågsdalen" />
		<tag k="place" v="isolated_dwelling" />
		<tag k="ssr:stedsnr" v="1503" />
	</node>
	<node id="-302753" lat="58.7318527802" lon="8.34708055556">
		<tag k="alt_name" v="Sløylen" />
		<tag k="name" v="Støylen" />
		<tag k="place" v="isolated_dwelling" />
		<tag k="ssr:stedsnr" v="1495" />
	</node>
	<node id="-302752" lat="58.7161749978" lon="8.40159999259">
		<tag k="name" v="Kleiva" />
		<tag k="place" v="locality" />
		<tag k="ssr:stedsnr" v="1492" />
	</node>
	<node id="-306847" lat="58.9042805544" lon="8.01246388258">
		<tag k="historic" v="shieling" />
		<tag k="name" v="Ånebjør" />
		<tag k="place" v="locality" />
		<tag k="ssr:stedsnr" v="911701" />
	</node>
	<node id="-302750" lat="58.7243749971" lon="8.42510278424">
		<tag k="name" v="Smørli" />
		<tag k="place" v="locality" />
		<tag k="ssr:stedsnr" v="1480" />
	</node>
	<node id="-304796" lat="58.8682250027" lon="8.33310555807">
		<tag k="fixme" v="consider place=hamlet" />
		<tag k="name" v="Åmland" />
		<tag k="place" v="farm" />
		<tag k="ssr:stedsnr" v="547114" />
	</node>
	<node id="-302362" lat="58.8915305579" lon="8.42816666214">
		<tag k="name" v="Lundane" />
		<tag k="place" v="locality" />
		<tag k="ssr:stedsnr" v="414203" />
	</node>
	<node id="-306841" lat="58.7863500042" lon="8.60379165951">
		<tag k="name" v="Dobbestøyl" />
		<tag k="place" v="isolated_dwelling" />
		<tag k="ssr:stedsnr" v="911623" />
	</node>
	<node id="-304791" lat="58.8401055517" lon="8.3049166591">
		<tag k="fixme" v="multiple name tags, choose one and add the other to alt_name" />
		<tag k="name" v="Kynnestveit;Tjørnestveit" />
		<tag k="place" v="isolated_dwelling" />
		<tag k="ssr:stedsnr" v="547082" />
	</node>
	<node id="-304788" lat="58.8726083312" lon="8.30193610351">
		<tag k="fixme" v="consider place=hamlet" />
		<tag k="name" v="Askland" />
		<tag k="place" v="village" />
		<tag k="ssr:stedsnr" v="547039" />
	</node>
	<node id="-306835" lat="58.9079250006" lon="8.53153889312">
		<tag k="name" v="Blekom" />
		<tag k="place" v="locality" />
		<tag k="ssr:stedsnr" v="911492" />
	</node>
	<node id="-306833" lat="58.712933329" lon="8.36964999809">
		<tag k="name" v="Rostveitplassen" />
		<tag k="place" v="farm" />
		<tag k="ssr:stedsnr" v="911484" />
	</node>
	<node id="-302730" lat="58.7354194404" lon="8.49837777081">
		<tag k="fixme" v="consider place=hamlet" />
		<tag k="name" v="Sigridnes" />
		<tag k="place" v="farm" />
		<tag k="ssr:stedsnr" v="1120" />
	</node>
	<node id="-306825" lat="58.7483666629" lon="8.44855556283">
		<tag k="name" v="Ljosland" />
		<tag k="place" v="isolated_dwelling" />
		<tag k="ssr:stedsnr" v="911396" />
	</node>
	<node id="-306823" lat="58.6829972257" lon="8.40498055171">
		<tag k="fixme" v="consider place=hamlet" />
		<tag k="name" v="Vehus" />
		<tag k="place" v="farm" />
		<tag k="ssr:stedsnr" v="911319" />
	</node>
	<node id="-306822" lat="58.7605999981" lon="8.3847861026">
		<tag k="name" v="Napen" />
		<tag k="place" v="isolated_dwelling" />
		<tag k="ssr:stedsnr" v="911313" />
	</node>
	<node id="-306819" lat="58.7756500027" lon="8.23043055469">
		<tag k="name" v="Ramsesaga" />
		<tag k="place" v="locality" />
		<tag k="ssr:stedsnr" v="911268" />
	</node>
	<node id="-302699" lat="58.7401194451" lon="8.44391943891">
		<tag k="name" v="Stangemyr" />
		<tag k="place" v="isolated_dwelling" />
		<tag k="ssr:stedsnr" v="395" />
	</node>
	<node id="-302719" lat="58.8684222183" lon="8.19653889371">
		<tag k="alt_name" v="Bjørbu" />
		<tag k="name" v="Bjorbu" />
		<tag k="place" v="isolated_dwelling" />
		<tag k="ssr:stedsnr" v="1027" />
	</node>
	<node id="-302716" lat="58.8748750029" lon="8.30501666013">
		<tag k="name" v="Langvoll" />
		<tag k="place" v="farm" />
		<tag k="ssr:stedsnr" v="1006" />
	</node>
	<node id="-302710" lat="58.7591777817" lon="8.53778889666">
		<tag k="name" v="Solvang" />
		<tag k="place" v="farm" />
		<tag k="ssr:stedsnr" v="544" />
	</node>
	<node id="-304756" lat="58.7921027761" lon="8.14267222979">
		<tag k="historic" v="shieling" />
		<tag k="name" v="Mågestøyl" />
		<tag k="place" v="locality" />
		<tag k="ssr:stedsnr" v="546148" />
	</node>
	<node id="-304755" lat="58.8567638883" lon="8.33530834077">
		<tag k="fixme" v="consider place=hamlet" />
		<tag k="name" v="Harstveit" />
		<tag k="place" v="farm" />
		<tag k="ssr:stedsnr" v="546128" />
	</node>
	<node id="-306801" lat="58.7973888881" lon="8.2202999934">
		<tag k="name" v="Oppistog" />
		<tag k="place" v="farm" />
		<tag k="ssr:stedsnr" v="911133" />
	</node>
	<node id="-306797" lat="58.8485861152" lon="8.24104722605">
		<tag k="name" v="Osli" />
		<tag k="place" v="isolated_dwelling" />
		<tag k="ssr:stedsnr" v="911117" />
	</node>
	<node id="-304753" lat="58.8537361128" lon="8.29801110826">
		<tag k="fixme" v="consider place=hamlet" />
		<tag k="name" v="Landsverk" />
		<tag k="place" v="farm" />
		<tag k="ssr:stedsnr" v="546102" />
	</node>
	<node id="-306795" lat="58.8467583375" lon="8.09789166987">
		<tag k="name" v="Oppigard" />
		<tag k="place" v="farm" />
		<tag k="ssr:stedsnr" v="911111" />
	</node>
	<node id="-302698" lat="58.7428583289" lon="8.21600555376">
		<tag k="historic" v="shieling" />
		<tag k="name" v="Nystøyl" />
		<tag k="place" v="locality" />
		<tag k="ssr:stedsnr" v="385" />
	</node>
	<node id="-306791" lat="58.8397444484" lon="8.36371944977">
		<tag k="name" v="Sesjord" />
		<tag k="place" v="farm" />
		<tag k="ssr:stedsnr" v="911091" />
	</node>
	<node id="-306786" lat="58.711474999" lon="8.63136389182">
		<tag k="name" v="Skotet" />
		<tag k="place" v="isolated_dwelling" />
		<tag k="ssr:stedsnr" v="911080" />
	</node>
	<node id="-306785" lat="58.8406111096" lon="8.24636388277">
		<tag k="name" v="Tjørnestøyl" />
		<tag k="place" v="isolated_dwelling" />
		<tag k="ssr:stedsnr" v="911078" />
	</node>
	<node id="-306784" lat="58.8892916672" lon="8.31843333791">
		<tag k="name" v="Buheim" />
		<tag k="place" v="isolated_dwelling" />
		<tag k="ssr:stedsnr" v="911072" />
	</node>
	<node id="-306782" lat="58.8950111083" lon="8.17951389424">
		<tag k="name" v="Dalen" />
		<tag k="place" v="isolated_dwelling" />
		<tag k="ssr:stedsnr" v="911043" />
	</node>
	<node id="-303717" lat="58.8093833371" lon="8.5362916628">
		<tag k="fixme" v="consider place=hamlet" />
		<tag k="name" v="Seljås" />
		<tag k="place" v="farm" />
		<tag k="ssr:stedsnr" v="183655" />
	</node>
	<node id="-306780" lat="58.8845777741" lon="8.39800277544">
		<tag k="name" v="Mostakk" />
		<tag k="place" v="isolated_dwelling" />
		<tag k="ssr:stedsnr" v="911022" />
	</node>
	<node id="-302690" lat="58.7767638899" lon="8.41395000338">
		<tag k="name" v="Mjåvasstøyl" />
		<tag k="place" v="isolated_dwelling" />
		<tag k="ssr:stedsnr" v="204" />
	</node>
	<node id="-302689" lat="58.8448555589" lon="8.09929166468">
		<tag k="name" v="Nordstog" />
		<tag k="place" v="farm" />
		<tag k="ssr:stedsnr" v="115" />
	</node>
	<node id="-304706" lat="58.8712277818" lon="8.21273054778">
		<tag k="name" v="Storetjønnhytta" />
		<tag k="place" v="isolated_dwelling" />
		<tag k="ssr:stedsnr" v="537220" />
	</node>
	<node id="-306752" lat="58.8621277781" lon="8.32460555508">
		<tag k="name" v="Rydland" />
		<tag k="place" v="farm" />
		<tag k="ssr:stedsnr" v="901684" />
	</node>
	<node id="-306750" lat="58.858349998" lon="8.46893611464">
		<tag k="name" v="Svanlihytta" />
		<tag k="place" v="isolated_dwelling" />
		<tag k="ssr:stedsnr" v="901661" />
	</node>
	<node id="-304697" lat="58.7605666672" lon="8.0040722141">
		<tag k="name" v="Totneset" />
		<tag k="place" v="locality" />
		<tag k="ssr:stedsnr" v="536990" />
	</node>
	<node id="-302644" lat="58.7132861119" lon="8.35879999298">
		<tag k="name" v="Kolstad" />
		<tag k="place" v="farm" />
		<tag k="ssr:stedsnr" v="882436" />
	</node>
	<node id="-302705" lat="58.8851611133" lon="8.5968194386">
		<tag k="name" v="Hagen" />
		<tag k="place" v="isolated_dwelling" />
		<tag k="ssr:stedsnr" v="459" />
	</node>
	<node id="-306726" lat="58.8490694409" lon="8.26722221433">
		<tag k="name" v="Suggebu" />
		<tag k="place" v="isolated_dwelling" />
		<tag k="ssr:stedsnr" v="901357" />
	</node>
	<node id="-306722" lat="58.8846611149" lon="8.16367500181">
		<tag k="name" v="Rasmusfjellbua" />
		<tag k="place" v="locality" />
		<tag k="ssr:stedsnr" v="901269" />
	</node>
	<node id="-302624" lat="58.7971583339" lon="8.22246388836">
		<tag k="name" v="Innistog" />
		<tag k="place" v="farm" />
		<tag k="ssr:stedsnr" v="476891" />
	</node>
	<node id="-304048" lat="58.7558333299" lon="8.4519111128">
		<tag k="name" v="Engenes" />
		<tag k="place" v="farm" />
		<tag k="ssr:stedsnr" v="244296" />
	</node>
	<node id="-304670" lat="58.7852194485" lon="8.42880554975">
		<tag k="name" v="Lundebu" />
		<tag k="place" v="locality" />
		<tag k="ssr:stedsnr" v="536396" />
	</node>
	<node id="-304047" lat="58.8109527757" lon="8.24837221986">
		<tag k="name" v="Lokkeli" />
		<tag k="place" v="isolated_dwelling" />
		<tag k="ssr:stedsnr" v="244194" />
	</node>
	<node id="-306686" lat="58.7675555577" lon="8.18715832699">
		<tag k="name" v="Gjeruvsdalsbua" />
		<tag k="place" v="locality" />
		<tag k="ssr:stedsnr" v="900329" />
	</node>
	<node id="-303701" lat="58.9050944443" lon="8.55877499559">
		<tag k="name" v="Bjorevja" />
		<tag k="place" v="farm" />
		<tag k="ssr:stedsnr" v="183419" />
	</node>
	<node id="-304622" lat="58.650388888" lon="8.72228055819">
		<tag k="name" v="Vestre Furland" />
		<tag k="place" v="locality" />
		<tag k="ssr:stedsnr" v="529977" />
	</node>
	<node id="-306669" lat="58.8664888863" lon="8.06149999431">
		<tag k="name" v="Saga" />
		<tag k="place" v="locality" />
		<tag k="ssr:stedsnr" v="900041" />
	</node>
	<node id="-306668" lat="58.8660277822" lon="8.06308055849">
		<tag k="name" v="Jilsbua" />
		<tag k="place" v="locality" />
		<tag k="ssr:stedsnr" v="900037" />
	</node>
	<node id="-302567" lat="58.8702055555" lon="8.30516110687">
		<tag k="name" v="Sørgard" />
		<tag k="place" v="farm" />
		<tag k="ssr:stedsnr" v="476100" />
	</node>
	<node id="-304609" lat="58.9021527787" lon="8.18195277695">
		<tag k="name" v="Trongedalsbua" />
		<tag k="place" v="locality" />
		<tag k="ssr:stedsnr" v="522300" />
	</node>
	<node id="-304748" lat="58.9059416663" lon="8.30184722333">
		<tag k="name" v="Fagerheim" />
		<tag k="place" v="isolated_dwelling" />
		<tag k="ssr:stedsnr" v="546047" />
	</node>
	<node id="-306637" lat="58.6917388868" lon="8.62113611974">
		<tag k="name" v="Karisbakke" />
		<tag k="place" v="locality" />
		<tag k="ssr:stedsnr" v="881526" />
	</node>
	<node id="-304588" lat="58.6745388855" lon="8.57532499198">
		<tag k="name" v="Hytta" />
		<tag k="place" v="isolated_dwelling" />
		<tag k="ssr:stedsnr" v="517670" />
	</node>
	<node id="-304587" lat="58.6739499966" lon="8.57440832744">
		<tag k="name" v="Mosli" />
		<tag k="place" v="isolated_dwelling" />
		<tag k="ssr:stedsnr" v="517671" />
	</node>
	<node id="-304586" lat="58.7308249991" lon="8.53388888692">
		<tag k="name" v="Gamle Harnes" />
		<tag k="place" v="locality" />
		<tag k="ssr:stedsnr" v="517665" />
	</node>
	<node id="-304579" lat="58.6950499957" lon="8.57021667463">
		<tag k="name" v="Vehusdalsbua" />
		<tag k="place" v="locality" />
		<tag k="ssr:stedsnr" v="517578" />
	</node>
	<node id="-304578" lat="58.7089194463" lon="8.58851944932">
		<tag k="name" v="Haugen" />
		<tag k="place" v="farm" />
		<tag k="ssr:stedsnr" v="517573" />
	</node>
	<node id="-306617" lat="58.6657805565" lon="8.40996667207">
		<tag k="name" v="Oppsal" />
		<tag k="place" v="locality" />
		<tag k="ssr:stedsnr" v="881315" />
	</node>
	<node id="-304567" lat="58.6741777733" lon="8.71352778087">
		<tag k="name" v="Hestås" />
		<tag k="place" v="farm" />
		<tag k="ssr:stedsnr" v="517507" />
	</node>
	<node id="-303347" lat="58.8682000006" lon="8.42555834115">
		<tag k="name" v="Vikstøyl" />
		<tag k="place" v="isolated_dwelling" />
		<tag k="ssr:stedsnr" v="122105" />
	</node>
	<node id="-306603" lat="58.7727194462" lon="8.49646944772">
		<tag k="amenity" v="school" />
		<tag k="name" v="Åmli skule" />
		<tag k="ssr:stedsnr" v="881227" />
	</node>
	<node id="-306602" lat="58.7627333314" lon="8.53656944364">
		<tag k="name" v="Bergland" />
		<tag k="place" v="farm" />
		<tag k="ssr:stedsnr" v="881221" />
	</node>
	<node id="-306599" lat="58.771855558" lon="8.49186944484">
		<tag k="name" v="Granhei" />
		<tag k="place" v="farm" />
		<tag k="ssr:stedsnr" v="881205" />
	</node>
	<node id="-304550" lat="58.7007861071" lon="8.45314167457">
		<tag k="name" v="Lundebu" />
		<tag k="place" v="locality" />
		<tag k="ssr:stedsnr" v="517392" />
	</node>
	<node id="-302497" lat="58.6328944403" lon="8.40931389721">
		<tag k="alt_name" v="Sparåtveit" />
		<tag k="name" v="Sparhaugtveit" />
		<tag k="place" v="locality" />
		<tag k="ssr:stedsnr" v="244368" />
	</node>
	<node id="-306588" lat="58.7959499968" lon="8.51472778116">
		<tag k="name" v="Gamle Mobru" />
		<tag k="place" v="farm" />
		<tag k="ssr:stedsnr" v="881137" />
	</node>
	<node id="-306573" lat="58.760916664" lon="8.61427499223">
		<tag k="name" v="Stavvassbua" />
		<tag k="place" v="locality" />
		<tag k="ssr:stedsnr" v="881018" />
	</node>
	<node id="-302475" lat="58.7055750025" lon="8.61923333075">
		<tag k="building" v="commercial" />
		<tag k="name" v="Simonstad bruk" />
		<tag k="ssr:stedsnr" v="396504" />
	</node>
	<node id="-306570" lat="58.845086113" lon="8.57305555674">
		<tag k="name" v="Sandå" />
		<tag k="place" v="isolated_dwelling" />
		<tag k="ssr:stedsnr" v="874186" />
	</node>
	<node id="-304519" lat="58.8820722229" lon="8.5813222177">
		<tag k="name" v="Skogbu" />
		<tag k="place" v="isolated_dwelling" />
		<tag k="ssr:stedsnr" v="517139" />
	</node>
	<node id="-304516" lat="58.8830694486" lon="8.58205833392">
		<tag k="name" v="Alfheim" />
		<tag k="place" v="isolated_dwelling" />
		<tag k="ssr:stedsnr" v="517126" />
	</node>
	<node id="-306560" lat="58.7969750019" lon="8.02671111329">
		<tag k="name" v="Granli" />
		<tag k="place" v="isolated_dwelling" />
		<tag k="ssr:stedsnr" v="851796" />
	</node>
	<node id="-306557" lat="58.6288611103" lon="8.72259444677">
		<tag k="fixme" v="consider place=hamlet" />
		<tag k="name" v="Imeland" />
		<tag k="place" v="farm" />
		<tag k="ssr:stedsnr" v="851767" />
	</node>
	<node id="-304507" lat="58.8452611155" lon="8.56930555554">
		<tag k="name" v="Nordli" />
		<tag k="place" v="isolated_dwelling" />
		<tag k="ssr:stedsnr" v="517056" />
	</node>
	<node id="-304504" lat="58.8861805527" lon="8.57468055007">
		<tag k="name" v="Solbakken" />
		<tag k="place" v="isolated_dwelling" />
		<tag k="ssr:stedsnr" v="517030" />
	</node>
	<node id="-304503" lat="58.8909305559" lon="8.55846667277">
		<tag k="name" v="Sagmo" />
		<tag k="place" v="isolated_dwelling" />
		<tag k="ssr:stedsnr" v="517025" />
	</node>
	<node id="-306546" lat="58.7224083353" lon="8.38238056394">
		<tag k="name" v="Kleiva" />
		<tag k="place" v="isolated_dwelling" />
		<tag k="ssr:stedsnr" v="851450" />
	</node>
	<node id="-306545" lat="58.7257722253" lon="8.35033610979">
		<tag k="name" v="Heggland" />
		<tag k="place" v="locality" />
		<tag k="ssr:stedsnr" v="851447" />
	</node>
	<node id="-304496" lat="58.9459111107" lon="8.20073055207">
		<tag k="name" v="Rindebakk" />
		<tag k="place" v="farm" />
		<tag k="ssr:stedsnr" v="486961" />
	</node>
	<node id="-301970" lat="58.8718638925" lon="8.62795000718">
		<tag k="name" v="Berli" />
		<tag k="place" v="isolated_dwelling" />
		<tag k="ssr:stedsnr" v="304734" />
	</node>
	<node id="-304267" lat="58.9069416663" lon="8.39872222335">
		<tag k="name" v="Røykstoga" />
		<tag k="place" v="isolated_dwelling" />
		<tag k="ssr:stedsnr" v="426985" />
	</node>
	<node id="-304486" lat="58.6971805574" lon="8.61707222966">
		<tag k="name" v="Fiskådalen" />
		<tag k="place" v="isolated_dwelling" />
		<tag k="ssr:stedsnr" v="486905" />
	</node>
	<node id="-301969" lat="58.8660916685" lon="8.58158888304">
		<tag k="fixme" v="consider place=hamlet" />
		<tag k="name" v="Lia" />
		<tag k="place" v="farm" />
		<tag k="ssr:stedsnr" v="304711" />
	</node>
	<node id="-306532" lat="58.866136112" lon="8.18258333544">
		<tag k="name" v="Nosstøyl" />
		<tag k="place" v="isolated_dwelling" />
		<tag k="ssr:stedsnr" v="851025" />
	</node>
	<node id="-306530" lat="58.7411305564" lon="8.50912500624">
		<tag k="name" v="Feta" />
		<tag k="place" v="locality" />
		<tag k="ssr:stedsnr" v="851019" />
	</node>
	<node id="-306525" lat="58.6579416694" lon="8.68728888882">
		<tag k="name" v="Fredlund" />
		<tag k="place" v="isolated_dwelling" />
		<tag k="ssr:stedsnr" v="850936" />
	</node>
	<node id="-304476" lat="58.8298444409" lon="8.58914167257">
		<tag k="fixme" v="consider place=hamlet" />
		<tag k="name" v="Fiskvatn" />
		<tag k="place" v="farm" />
		<tag k="ssr:stedsnr" v="486650" />
	</node>
	<node id="-304468" lat="58.7554305568" lon="8.51076943833">
		<tag k="name" v="Valle" />
		<tag k="place" v="farm" />
		<tag k="ssr:stedsnr" v="486556" />
	</node>
	<node id="-304467" lat="58.7598305529" lon="8.63545000285">
		<tag k="name" v="Dalane" />
		<tag k="place" v="isolated_dwelling" />
		<tag k="ssr:stedsnr" v="486555" />
	</node>
	<node id="-302418" lat="58.8261111078" lon="8.59739444269">
		<tag k="name" v="Mylbakk" />
		<tag k="place" v="locality" />
		<tag k="ssr:stedsnr" v="395470" />
	</node>
	<node id="-304465" lat="58.7320250034" lon="8.43368889345">
		<tag k="fixme" v="consider place=hamlet" />
		<tag k="name" v="Tverrstøyl" />
		<tag k="place" v="farm" />
		<tag k="ssr:stedsnr" v="486505" />
	</node>
	<node id="-304461" lat="58.889152782" lon="8.58625833242">
		<tag k="alt_name" v="Moen" />
		<tag k="name" v="Monen" />
		<tag k="place" v="isolated_dwelling" />
		<tag k="ssr:stedsnr" v="486476" />
	</node>
	<node id="-306508" lat="58.762063885" lon="8.52200000096">
		<tag k="name" v="Våje" />
		<tag k="place" v="farm" />
		<tag k="ssr:stedsnr" v="850551" />
	</node>
	<node id="-304454" lat="58.7390972226" lon="8.45663333761">
		<tag k="name" v="Bakken" />
		<tag k="place" v="isolated_dwelling" />
		<tag k="ssr:stedsnr" v="486407" />
	</node>
	<node id="-306501" lat="58.6826555576" lon="8.37271388435">
		<tag k="name" v="Bjorå" />
		<tag k="place" v="isolated_dwelling" />
		<tag k="ssr:stedsnr" v="850292" />
	</node>
	<node id="-306500" lat="58.666686109" lon="8.38182778228">
		<tag k="alt_name" v="Skeidmo" />
		<tag k="name" v="Skeimo" />
		<tag k="place" v="isolated_dwelling" />
		<tag k="ssr:stedsnr" v="850271" />
	</node>
	<node id="-304451" lat="58.7535888933" lon="8.30448332563">
		<tag k="fixme" v="consider place=hamlet" />
		<tag k="name" v="Håkedal" />
		<tag k="place" v="farm" />
		<tag k="ssr:stedsnr" v="486334" />
	</node>
	<node id="-304450" lat="58.7495749976" lon="8.18368610597">
		<tag k="alt_name" v="Tjerandslia" />
		<tag k="name" v="Tjerandli" />
		<tag k="place" v="isolated_dwelling" />
		<tag k="ssr:stedsnr" v="486320" />
	</node>
	<node id="-302400" lat="58.7579277755" lon="8.47492221952">
		<tag k="name" v="Engenesstoa" />
		<tag k="place" v="quarter" />
		<tag k="ssr:stedsnr" v="395236" />
	</node>
	<node id="-304447" lat="58.7775722194" lon="8.15976944733">
		<tag k="name" v="Skredløa" />
		<tag k="place" v="locality" />
		<tag k="ssr:stedsnr" v="486246" />
	</node>
	<node id="-306488" lat="58.8032416661" lon="8.44244167367">
		<tag k="alt_name" v="Moghus" />
		<tag k="name" v="Mogghus" />
		<tag k="place" v="isolated_dwelling" />
		<tag k="ssr:stedsnr" v="850152" />
	</node>
	<node id="-306486" lat="58.8060944402" lon="8.33142222803">
		<tag k="alt_name" v="Ljosdalen" />
		<tag k="name" v="Ljosdalane" />
		<tag k="place" v="isolated_dwelling" />
		<tag k="ssr:stedsnr" v="850138" />
	</node>
	<node id="-306485" lat="58.8025138874" lon="8.1828916618">
		<tag k="alt_name" v="Lindås" />
		<tag k="name" v="Lindsås" />
		<tag k="place" v="farm" />
		<tag k="ssr:stedsnr" v="850133" />
	</node>
	<node id="-306483" lat="58.8565166624" lon="8.42629999512">
		<tag k="name" v="Lauvhommen" />
		<tag k="place" v="isolated_dwelling" />
		<tag k="ssr:stedsnr" v="850128" />
	</node>
	<node id="-306481" lat="58.8625444438" lon="8.44646943646">
		<tag k="alt_name" v="Haugedalen" />
		<tag k="name" v="Haugedal" />
		<tag k="place" v="isolated_dwelling" />
		<tag k="ssr:stedsnr" v="850112" />
	</node>
	<node id="-306476" lat="58.7178527799" lon="8.61896943987">
		<tag k="name" v="Øygarden" />
		<tag k="place" v="isolated_dwelling" />
		<tag k="ssr:stedsnr" v="850066" />
	</node>
	<node id="-304425" lat="58.8665277791" lon="8.32662499852">
		<tag k="name" v="Kleivane" />
		<tag k="place" v="farm" />
		<tag k="ssr:stedsnr" v="486084" />
	</node>
	<node id="-306471" lat="58.8884499982" lon="8.27114166377">
		<tag k="name" v="Furulund" />
		<tag k="place" v="farm" />
		<tag k="ssr:stedsnr" v="850024" />
	</node>
	<node id="-302372" lat="58.8925499999" lon="8.12442500541">
		<tag k="fixme" v="consider tourism=alpine_hut or tourism=chalet" />
		<tag k="name" v="Grunnetjørnsbu" />
		<tag k="old_name" v="Grunntjørnbu" />
		<tag k="ssr:stedsnr" v="391361" />
		<tag k="tourism" v="wilderness_hut" />
	</node>
	<node id="-304419" lat="58.7047833364" lon="8.56731665961">
		<tag k="name" v="Fossnes" />
		<tag k="place" v="farm" />
		<tag k="ssr:stedsnr" v="486072" />
	</node>
	<node id="-304413" lat="58.8896527799" lon="8.2536222274">
		<tag k="name" v="Fjellsenden" />
		<tag k="place" v="farm" />
		<tag k="ssr:stedsnr" v="486027" />
	</node>
	<node id="-304410" lat="58.8687805566" lon="8.32551388822">
		<tag k="name" v="Hagen" />
		<tag k="place" v="farm" />
		<tag k="ssr:stedsnr" v="486012" />
	</node>
	<node id="-304408" lat="58.7500805543" lon="8.32343054757">
		<tag k="name" v="Nauthom" />
		<tag k="place" v="isolated_dwelling" />
		<tag k="ssr:stedsnr" v="486312" />
	</node>
	<node id="-302297" lat="58.8896361086" lon="8.26417500447">
		<tag k="fixme" v="multiple name tags, choose one and add the other to alt_name" />
		<tag k="name" v="Mo;Monland" />
		<tag k="place" v="farm" />
		<tag k="ssr:stedsnr" v="365038" />
	</node>
	<node id="-302352" lat="58.9432805551" lon="8.20209999586">
		<tag k="fixme" v="consider place=hamlet" />
		<tag k="name" v="Smedland" />
		<tag k="place" v="farm" />
		<tag k="ssr:stedsnr" v="365967" />
	</node>
	<node id="-302349" lat="58.6863972258" lon="8.70385556187">
		<tag k="name" v="Grimelandshovet" />
		<tag k="place" v="farm" />
		<tag k="ssr:stedsnr" v="365940" />
	</node>
	<node id="-302347" lat="58.7385861078" lon="8.0538749987">
		<tag k="name" v="Solbu" />
		<tag k="place" v="isolated_dwelling" />
		<tag k="ssr:stedsnr" v="365932" />
	</node>
	<node id="-304394" lat="58.8390500011" lon="8.3570166598">
		<tag k="name" v="Lundvoll" />
		<tag k="place" v="farm" />
		<tag k="ssr:stedsnr" v="463749" />
	</node>
	<node id="-302636" lat="58.7013749969" lon="8.35598611114">
		<tag k="name" v="Lille Homedal" />
		<tag k="place" v="farm" />
		<tag k="ssr:stedsnr" v="882350" />
	</node>
	<node id="-306438" lat="58.7567666648" lon="8.31890833731">
		<tag k="name" v="Orgarsbua" />
		<tag k="place" v="locality" />
		<tag k="ssr:stedsnr" v="840709" />
	</node>
	<node id="-302286" lat="58.9639611152" lon="8.17098055652">
		<tag k="name" v="Gjevdestøyl" />
		<tag k="place" v="isolated_dwelling" />
		<tag k="ssr:stedsnr" v="364907" />
	</node>
	<node id="-302340" lat="58.8534250016" lon="8.66293056303">
		<tag k="name" v="Gjerliplassen" />
		<tag k="place" v="locality" />
		<tag k="ssr:stedsnr" v="365745" />
	</node>
	<node id="-302330" lat="58.7880277767" lon="8.46982777219">
		<tag k="name" v="Røyvoll" />
		<tag k="place" v="locality" />
		<tag k="ssr:stedsnr" v="365644" />
	</node>
	<node id="-304377" lat="58.7694861154" lon="8.36839999737">
		<tag k="name" v="Kallingsheim" />
		<tag k="place" v="locality" />
		<tag k="ssr:stedsnr" v="462146" />
	</node>
	<node id="-302320" lat="58.8873777736" lon="8.59608054845">
		<tag k="fixme" v="consider place=hamlet" />
		<tag k="name" v="Øy" />
		<tag k="place" v="farm" />
		<tag k="ssr:stedsnr" v="365478" />
	</node>
	<node id="-304366" lat="58.7150555584" lon="8.63675555455">
		<tag k="name" v="Plassbua" />
		<tag k="place" v="locality" />
		<tag k="ssr:stedsnr" v="457499" />
	</node>
	<node id="-303997" lat="58.7193478406" lon="8.35337423191">
		<tag k="name" v="Skardmyr" />
		<tag k="place" v="farm" />
		<tag k="ssr:stedsnr" v="243468" />
	</node>
	<node id="-302316" lat="58.6509944438" lon="8.43030554697">
		<tag k="fixme" v="consider place=hamlet" />
		<tag k="name" v="Berås" />
		<tag k="place" v="farm" />
		<tag k="ssr:stedsnr" v="365268" />
	</node>
	<node id="-304363" lat="58.7196777762" lon="8.34394999314">
		<tag k="name" v="Skarli" />
		<tag k="place" v="farm" />
		<tag k="ssr:stedsnr" v="457473" />
	</node>
	<node id="-304360" lat="58.7316138875" lon="8.3469583402">
		<tag k="name" v="Støylen" />
		<tag k="place" v="farm" />
		<tag k="ssr:stedsnr" v="457450" />
	</node>
	<node id="-304353" lat="58.7124361068" lon="8.36867222386">
		<tag k="name" v="Rostveit" />
		<tag k="place" v="farm" />
		<tag k="ssr:stedsnr" v="457367" />
	</node>
	<node id="-302299" lat="58.8896222231" lon="8.36734167427">
		<tag k="alt_name" v="Libui" />
		<tag k="name" v="Libua" />
		<tag k="place" v="locality" />
		<tag k="ssr:stedsnr" v="365066" />
	</node>
	<node id="-302298" lat="58.8840833352" lon="8.24143610337">
		<tag k="name" v="Austigard" />
		<tag k="place" v="farm" />
		<tag k="ssr:stedsnr" v="365052" />
	</node>
	<node id="-306393" lat="58.7544611151" lon="8.31863610748">
		<tag k="name" v="Nauthomfjellbua" />
		<tag k="place" v="locality" />
		<tag k="ssr:stedsnr" v="840328" />
	</node>
	<node id="-304342" lat="58.6818416627" lon="8.40151667492">
		<tag k="name" v="Vestigard" />
		<tag k="place" v="farm" />
		<tag k="ssr:stedsnr" v="457233" />
	</node>
	<node id="-304341" lat="58.6799111074" lon="8.40026110672">
		<tag k="name" v="Ingersplass" />
		<tag k="place" v="locality" />
		<tag k="ssr:stedsnr" v="457229" />
	</node>
	<node id="-302291" lat="58.8750611137" lon="8.30166666325">
		<tag k="name" v="Kvernhusbakken" />
		<tag k="place" v="farm" />
		<tag k="ssr:stedsnr" v="365003" />
	</node>
	<node id="-302288" lat="58.6758416707" lon="8.65812499742">
		<tag k="name" v="Hytta" />
		<tag k="place" v="locality" />
		<tag k="ssr:stedsnr" v="364926" />
	</node>
	<node id="-302287" lat="58.6820638884" lon="8.70520277871">
		<tag k="fixme" v="consider place=hamlet" />
		<tag k="name" v="Grimeland" />
		<tag k="place" v="farm" />
		<tag k="ssr:stedsnr" v="364924" />
	</node>
	<node id="-306382" lat="58.7719388877" lon="8.1614305575">
		<tag k="name" v="Vardløa" />
		<tag k="place" v="locality" />
		<tag k="ssr:stedsnr" v="840183" />
	</node>
	<node id="-304332" lat="58.7391305544" lon="8.44963610724">
		<tag k="name" v="Tjørnbrekk" />
		<tag k="place" v="farm" />
		<tag k="ssr:stedsnr" v="456663" />
	</node>
	<node id="-304330" lat="58.7494055541" lon="8.4624361052">
		<tag k="name" v="Hagebua" />
		<tag k="place" v="isolated_dwelling" />
		<tag k="ssr:stedsnr" v="456649" />
	</node>
	<node id="-302284" lat="58.6241583316" lon="8.69993611822">
		<tag k="fixme" v="consider place=hamlet" />
		<tag k="name" v="Kiland" />
		<tag k="place" v="farm" />
		<tag k="ssr:stedsnr" v="364774" />
	</node>
	<node id="-304328" lat="58.7087722217" lon="8.56671666697">
		<tag k="name" v="Fredheim" />
		<tag k="place" v="isolated_dwelling" />
		<tag k="ssr:stedsnr" v="456570" />
	</node>
	<node id="-304327" lat="58.7097138911" lon="8.60336389553">
		<tag k="name" v="Skogen" />
		<tag k="place" v="isolated_dwelling" />
		<tag k="ssr:stedsnr" v="456569" />
	</node>
	<node id="-304326" lat="58.7102583355" lon="8.56742222926">
		<tag k="name" v="Sæter" />
		<tag k="place" v="isolated_dwelling" />
		<tag k="ssr:stedsnr" v="456563" />
	</node>
	<node id="-304325" lat="58.7108055552" lon="8.5926416703">
		<tag k="name" v="Austigard" />
		<tag k="place" v="farm" />
		<tag k="ssr:stedsnr" v="456561" />
	</node>
	<node id="-302273" lat="58.7717666651" lon="8.25008333608">
		<tag k="alt_name" v="Kruna" />
		<tag k="name" v="Krona" />
		<tag k="place" v="farm" />
		<tag k="ssr:stedsnr" v="364265" />
	</node>
	<node id="-302761" lat="58.9486555535" lon="8.04778888398">
		<tag k="name" v="Rosenhol" />
		<tag k="place" v="locality" />
		<tag k="ssr:stedsnr" v="1654" />
	</node>
	<node id="-302258" lat="58.8495388878" lon="8.34675555758">
		<tag k="name" v="Harstveit" />
		<tag k="place" v="farm" />
		<tag k="ssr:stedsnr" v="364074" />
	</node>
	<node id="-302280" lat="58.766205557" lon="8.52986667484">
		<tag k="alt_name" v="Haugane, vestre" />
		<tag k="fixme" v="multiple name tags, choose one and add the other to alt_name" />
		<tag k="name" v="Vestigard;Vestre Haugane" />
		<tag k="place" v="farm" />
		<tag k="ssr:stedsnr" v="364521" />
	</node>
	<node id="-302254" lat="58.8986305515" lon="8.25686389193">
		<tag k="fixme" v="consider place=hamlet" />
		<tag k="name" v="Jørundland" />
		<tag k="place" v="farm" />
		<tag k="ssr:stedsnr" v="364042" />
	</node>
	<node id="-304299" lat="58.7690027814" lon="8.4940305514">
		<tag k="fixme" v="consider place=hamlet" />
		<tag k="name" v="Børtinghus" />
		<tag k="place" v="farm" />
		<tag k="ssr:stedsnr" v="456231" />
	</node>
	<node id="-304295" lat="58.8688222179" lon="8.62907777616">
		<tag k="name" v="Berli" />
		<tag k="place" v="isolated_dwelling" />
		<tag k="ssr:stedsnr" v="456186" />
	</node>
	<node id="-304294" lat="58.8746555516" lon="8.56564722175">
		<tag k="name" v="Svallbua" />
		<tag k="place" v="locality" />
		<tag k="ssr:stedsnr" v="456174" />
	</node>
	<node id="-304293" lat="58.867775" lon="8.58685833551">
		<tag k="name" v="Librakka" />
		<tag k="place" v="isolated_dwelling" />
		<tag k="ssr:stedsnr" v="456169" />
	</node>
	<node id="-302244" lat="58.927291663" lon="8.06849722025">
		<tag k="name" v="Krokvasshytta" />
		<tag k="place" v="isolated_dwelling" />
		<tag k="ssr:stedsnr" v="355895" />
	</node>
	<node id="-306332" lat="58.7323000021" lon="8.53381945262">
		<tag k="name" v="Harnes" />
		<tag k="place" v="locality" />
		<tag k="ssr:stedsnr" v="821671" />
	</node>
	<node id="-306324" lat="58.6446194422" lon="8.71424999643">
		<tag k="name" v="Ospelundsplass" />
		<tag k="place" v="locality" />
		<tag k="ssr:stedsnr" v="821609" />
	</node>
	<node id="-304273" lat="58.9043222228" lon="8.04389165969">
		<tag k="historic" v="shieling" />
		<tag k="name" v="Heststoglia" />
		<tag k="place" v="locality" />
		<tag k="ssr:stedsnr" v="452365" />
	</node>
	<node id="-306320" lat="58.7038916698" lon="8.57206111003">
		<tag k="name" v="Fjellsol" />
		<tag k="place" v="isolated_dwelling" />
		<tag k="ssr:stedsnr" v="821567" />
	</node>
	<node id="-304270" lat="58.8474972191" lon="8.57332778363">
		<tag k="name" v="Raudåna" />
		<tag k="place" v="isolated_dwelling" />
		<tag k="ssr:stedsnr" v="449171" />
	</node>
	<node id="-306316" lat="58.6516472222" lon="8.688805555">
		<tag k="name" v="Skogly" />
		<tag k="place" v="isolated_dwelling" />
		<tag k="ssr:stedsnr" v="821514" />
	</node>
	<node id="-306315" lat="58.6542611072" lon="8.6932277693">
		<tag k="amenity" v="school" />
		<tag k="name" v="Flaten skule" />
		<tag k="ssr:stedsnr" v="821512" />
	</node>
	<node id="-304265" lat="58.6634333314" lon="8.69608055686">
		<tag k="alt_name" v="Østre Vimme;Vimme" />
		<tag k="fixme" v="consider place=hamlet" />
		<tag k="name" v="Vimme, østre" />
		<tag k="place" v="farm" />
		<tag k="ssr:stedsnr" v="426953" />
	</node>
	<node id="-302215" lat="58.7462527801" lon="8.10682777882">
		<tag k="name" v="Haukefjellhytta" />
		<tag k="place" v="locality" />
		<tag k="ssr:stedsnr" v="354859" />
	</node>
	<node id="-301931" lat="58.7787805514" lon="8.31933055024">
		<tag k="alt_name" v="Røndalsbua" />
		<tag k="name" v="Raundalsbua" />
		<tag k="place" v="locality" />
		<tag k="ssr:stedsnr" v="304175" />
	</node>
	<node id="-304256" lat="58.6898972263" lon="8.67208056111">
		<tag k="name" v="Sørdal" />
		<tag k="place" v="farm" />
		<tag k="ssr:stedsnr" v="426897" />
	</node>
	<node id="-306303" lat="58.7225222248" lon="8.38151111441">
		<tag k="name" v="Kleiva" />
		<tag k="place" v="farm" />
		<tag k="ssr:stedsnr" v="821381" />
	</node>
	<node id="-304251" lat="58.8645027757" lon="8.62589167336">
		<tag k="name" v="Berli" />
		<tag k="place" v="isolated_dwelling" />
		<tag k="ssr:stedsnr" v="426704" />
	</node>
	<node id="-302201" lat="58.860341664" lon="8.32331110986">
		<tag k="name" v="Mo" />
		<tag k="place" v="farm" />
		<tag k="ssr:stedsnr" v="354696" />
	</node>
	<node id="-304246" lat="58.8431499976" lon="8.56874999524">
		<tag k="fixme" v="consider place=hamlet" />
		<tag k="name" v="Neset" />
		<tag k="place" v="farm" />
		<tag k="ssr:stedsnr" v="426647" />
	</node>
	<node id="-304238" lat="58.7134499993" lon="8.30142777483">
		<tag k="alt_name" v="Baas" />
		<tag k="fixme" v="consider place=hamlet" />
		<tag k="name" v="Bås" />
		<tag k="place" v="farm" />
		<tag k="ssr:stedsnr" v="426465" />
	</node>
	<node id="-304237" lat="58.7191611104" lon="8.35665832924">
		<tag k="fixme" v="consider place=hamlet" />
		<tag k="name" v="Eppeland" />
		<tag k="place" v="farm" />
		<tag k="ssr:stedsnr" v="426455" />
	</node>
	<node id="-304234" lat="58.7587527809" lon="8.41072500099">
		<tag k="name" v="Vestre Fiskvatn" />
		<tag k="place" v="farm" />
		<tag k="ssr:stedsnr" v="426299" />
	</node>
	<node id="-304233" lat="58.6552444417" lon="8.46438055889">
		<tag k="fixme" v="consider place=hamlet" />
		<tag k="name" v="Solberg" />
		<tag k="place" v="farm" />
		<tag k="ssr:stedsnr" v="426279" />
	</node>
	<node id="-302183" lat="58.7127722259" lon="8.15917500194">
		<tag k="name" v="Sletneshytta" />
		<tag k="place" v="isolated_dwelling" />
		<tag k="ssr:stedsnr" v="354545" />
	</node>
	<node id="-304229" lat="58.7663361141" lon="8.25853889534">
		<tag k="alt_name" v="Nygard" />
		<tag k="name" v="Nygård" />
		<tag k="place" v="farm" />
		<tag k="ssr:stedsnr" v="426204" />
	</node>
	<node id="-302176" lat="58.7445527778" lon="8.34974444617">
		<tag k="name" v="Torsbu" />
		<tag k="place" v="locality" />
		<tag k="ssr:stedsnr" v="354398" />
	</node>
	<node id="-304221" lat="58.7346500028" lon="8.52533332572">
		<tag k="name" v="Kløvfjell" />
		<tag k="place" v="farm" />
		<tag k="ssr:stedsnr" v="426109" />
	</node>
	<node id="-304220" lat="58.7019638889" lon="8.60108889336">
		<tag k="name" v="Elvestad" />
		<tag k="place" v="farm" />
		<tag k="ssr:stedsnr" v="426094" />
	</node>
	<node id="-304218" lat="58.8393833303" lon="8.35975278498">
		<tag k="name" v="Negard" />
		<tag k="place" v="farm" />
		<tag k="ssr:stedsnr" v="426092" />
	</node>
	<node id="-304217" lat="58.8394722193" lon="8.35986388336">
		<tag k="fixme" v="consider place=hamlet" />
		<tag k="name" v="Oland" />
		<tag k="place" v="farm" />
		<tag k="ssr:stedsnr" v="426090" />
	</node>
	<node id="-302168" lat="58.7564916624" lon="8.12621666788">
		<tag k="name" v="Plassen" />
		<tag k="place" v="locality" />
		<tag k="ssr:stedsnr" v="354201" />
	</node>
	<node id="-302164" lat="58.877708332" lon="8.33194723006">
		<tag k="name" v="Napestua" />
		<tag k="place" v="isolated_dwelling" />
		<tag k="ssr:stedsnr" v="354141" />
	</node>
	<node id="-304211" lat="58.8787638885" lon="8.2101611064">
		<tag k="alt_name" v="Hågestøyl" />
		<tag k="name" v="Hågstøyl" />
		<tag k="place" v="isolated_dwelling" />
		<tag k="ssr:stedsnr" v="426050" />
	</node>
	<node id="-304210" lat="58.8828666629" lon="8.23696944258">
		<tag k="fixme" v="consider place=hamlet" />
		<tag k="name" v="Mjåland" />
		<tag k="place" v="farm" />
		<tag k="ssr:stedsnr" v="426048" />
	</node>
	<node id="-306256" lat="58.8631333326" lon="8.53076111473">
		<tag k="name" v="langevassbu" />
		<tag k="place" v="locality" />
		<tag k="ssr:stedsnr" v="820037" />
	</node>
	<node id="-306251" lat="58.7698277797" lon="8.61740277697">
		<tag k="name" v="Mjåvasstoga" />
		<tag k="place" v="locality" />
		<tag k="ssr:stedsnr" v="820006" />
	</node>
	<node id="-304202" lat="58.9081444475" lon="8.2824944387">
		<tag k="name" v="Listøyl" />
		<tag k="place" v="isolated_dwelling" />
		<tag k="ssr:stedsnr" v="425983" />
	</node>
	<node id="-304200" lat="58.6788750001" lon="8.72599444346">
		<tag k="name" v="Vassenden" />
		<tag k="place" v="farm" />
		<tag k="ssr:stedsnr" v="425908" />
	</node>
	<node id="-304197" lat="58.9298555567" lon="8.0369749993">
		<tag k="name" v="Badstoga" />
		<tag k="place" v="isolated_dwelling" />
		<tag k="ssr:stedsnr" v="425673" />
	</node>
	<node id="-304194" lat="58.7704305587" lon="8.53290278096">
		<tag k="name" v="Dukane" />
		<tag k="place" v="farm" />
		<tag k="ssr:stedsnr" v="425494" />
	</node>
	<node id="-304192" lat="58.6743027766" lon="8.37443332626">
		<tag k="name" v="Austadplassen" />
		<tag k="place" v="isolated_dwelling" />
		<tag k="ssr:stedsnr" v="425304" />
	</node>
	<node id="-302141" lat="58.9004777758" lon="8.07637777509">
		<tag k="name" v="Pråmstoga" />
		<tag k="place" v="locality" />
		<tag k="ssr:stedsnr" v="353218" />
	</node>
	<node id="-304187" lat="58.7949722241" lon="8.23186666747">
		<tag k="name" v="Berdalen" />
		<tag k="place" v="farm" />
		<tag k="ssr:stedsnr" v="425156" />
	</node>
	<node id="-304183" lat="58.7873777774" lon="8.09849443861">
		<tag k="name" v="Støylsdalen" />
		<tag k="place" v="isolated_dwelling" />
		<tag k="ssr:stedsnr" v="425135" />
	</node>
	<node id="-306229" lat="58.6856666638" lon="8.67638055042">
		<tag k="name" v="Kil" />
		<tag k="place" v="farm" />
		<tag k="ssr:stedsnr" v="790900" />
	</node>
	<node id="-304180" lat="58.8424277782" lon="8.10009999485">
		<tag k="name" v="Negard" />
		<tag k="place" v="farm" />
		<tag k="ssr:stedsnr" v="425099" />
	</node>
	<node id="-306226" lat="58.8713138883" lon="8.05176943836">
		<tag k="fixme" v="consider place=hamlet" />
		<tag k="name" v="Dale" />
		<tag k="place" v="farm" />
		<tag k="ssr:stedsnr" v="790762" />
	</node>
	<node id="-302125" lat="58.8471638861" lon="8.10001666686">
		<tag k="name" v="Plassen" />
		<tag k="place" v="isolated_dwelling" />
		<tag k="ssr:stedsnr" v="353110" />
	</node>
	<node id="-306219" lat="58.893108335" lon="8.56538611673">
		<tag k="name" v="Breiung" />
		<tag k="place" v="farm" />
		<tag k="ssr:stedsnr" v="790474" />
	</node>
	<node id="-304166" lat="58.8953305527" lon="8.25828334157">
		<tag k="name" v="Solstoga" />
		<tag k="place" v="isolated_dwelling" />
		<tag k="ssr:stedsnr" v="416657" />
	</node>
	<node id="-306211" lat="58.8701527821" lon="8.30736111905">
		<tag k="name" v="Vollen" />
		<tag k="place" v="farm" />
		<tag k="ssr:stedsnr" v="790029" />
	</node>
	<node id="-304160" lat="58.8454250022" lon="8.26737222245">
		<tag k="name" v="Fjellro" />
		<tag k="place" v="isolated_dwelling" />
		<tag k="ssr:stedsnr" v="416324" />
	</node>
	<node id="-306206" lat="58.9071805552" lon="8.24109444774">
		<tag k="name" v="Kåsa" />
		<tag k="place" v="locality" />
		<tag k="ssr:stedsnr" v="789971" />
	</node>
	<node id="-302109" lat="58.6374305541" lon="8.74373055731">
		<tag k="name" v="Steinsbu" />
		<tag k="place" v="isolated_dwelling" />
		<tag k="ssr:stedsnr" v="347821" />
	</node>
	<node id="-306204" lat="58.669591664" lon="8.63909721741">
		<tag k="name" v="Hushovd" />
		<tag k="place" v="farm" />
		<tag k="ssr:stedsnr" v="789959" />
	</node>
	<node id="-304154" lat="58.8755055556" lon="8.22286944974">
		<tag k="name" v="Nattebu" />
		<tag k="place" v="isolated_dwelling" />
		<tag k="ssr:stedsnr" v="416032" />
	</node>
	<node id="-302255" lat="58.8403388847" lon="8.17353888105">
		<tag k="name" v="Skrivarstoga" />
		<tag k="place" v="isolated_dwelling" />
		<tag k="ssr:stedsnr" v="364060" />
	</node>
	<node id="-302103" lat="58.8072694411" lon="8.4657722282">
		<tag k="name" v="Øygarden" />
		<tag k="place" v="locality" />
		<tag k="ssr:stedsnr" v="342356" />
	</node>
	<node id="-304144" lat="58.7746611134" lon="8.43375556159">
		<tag k="name" v="Høydalsbua" />
		<tag k="place" v="locality" />
		<tag k="ssr:stedsnr" v="415888" />
	</node>
	<node id="-304137" lat="58.7673000019" lon="8.05218333361">
		<tag k="name" v="Fossebu" />
		<tag k="place" v="locality" />
		<tag k="ssr:stedsnr" v="415791" />
	</node>
	<node id="-302085" lat="58.7001701984" lon="8.37651539063">
		<tag k="fixme" v="consider place=hamlet" />
		<tag k="name" v="Landsås" />
		<tag k="place" v="farm" />
		<tag k="ssr:stedsnr" v="336407" />
	</node>
	<node id="-304128" lat="58.6921805585" lon="8.31636388314">
		<tag k="name" v="Åslaugsbu" />
		<tag k="place" v="locality" />
		<tag k="ssr:stedsnr" v="415731" />
	</node>
	<node id="-304127" lat="58.8543333366" lon="8.33955554985">
		<tag k="name" v="Bekkemellom" />
		<tag k="place" v="farm" />
		<tag k="ssr:stedsnr" v="415730" />
	</node>
	<node id="-304123" lat="58.8573972248" lon="8.29342500081">
		<tag k="name" v="Lindestøyl" />
		<tag k="place" v="locality" />
		<tag k="ssr:stedsnr" v="415721" />
	</node>
	<node id="-306167" lat="58.7908499958" lon="8.23119166427">
		<tag k="name" v="Storemyr" />
		<tag k="place" v="farm" />
		<tag k="ssr:stedsnr" v="789158" />
	</node>
	<node id="-302069" lat="58.7349444418" lon="8.46471388528">
		<tag k="name" v="Henkane" />
		<tag k="place" v="locality" />
		<tag k="ssr:stedsnr" v="335685" />
	</node>
	<node id="-306160" lat="58.8541555546" lon="8.33611388929">
		<tag k="name" v="Valle" />
		<tag k="place" v="farm" />
		<tag k="ssr:stedsnr" v="789116" />
	</node>
	<node id="-306159" lat="58.7214472209" lon="8.54745832777">
		<tag k="name" v="Kongsgård" />
		<tag k="place" v="isolated_dwelling" />
		<tag k="ssr:stedsnr" v="789114" />
	</node>
	<node id="-306155" lat="58.8454881057" lon="8.09946647165">
		<tag k="fixme" v="consider place=hamlet" />
		<tag k="name" v="Austenå" />
		<tag k="place" v="farm" />
		<tag k="ssr:stedsnr" v="789107" />
	</node>
	<node id="-304105" lat="58.7096777805" lon="8.31294444945">
		<tag k="name" v="Båsplassen" />
		<tag k="place" v="locality" />
		<tag k="ssr:stedsnr" v="415620" />
	</node>
	<node id="-306152" lat="58.8350861109" lon="8.36618056251">
		<tag k="alt_name" v="Slettene" />
		<tag k="name" v="Slettine" />
		<tag k="place" v="isolated_dwelling" />
		<tag k="ssr:stedsnr" v="789083" />
	</node>
	<node id="-306150" lat="58.7077444446" lon="8.56651944674">
		<tag k="name" v="Gangdalen" />
		<tag k="place" v="farm" />
		<tag k="ssr:stedsnr" v="789079" />
	</node>
	<node id="-302051" lat="58.6904777765" lon="8.70169443607">
		<tag k="name" v="Porsli" />
		<tag k="place" v="farm" />
		<tag k="ssr:stedsnr" v="335558" />
	</node>
	<node id="-306136" lat="58.8875138916" lon="8.27114444411">
		<tag k="name" v="Heimtun" />
		<tag k="place" v="isolated_dwelling" />
		<tag k="ssr:stedsnr" v="780661" />
	</node>
	<node id="-306132" lat="58.8293944413" lon="8.39397222384">
		<tag k="name" v="Bruheim" />
		<tag k="place" v="isolated_dwelling" />
		<tag k="ssr:stedsnr" v="780458" />
	</node>
	<node id="-306128" lat="58.9207277807" lon="8.23374444582">
		<tag k="name" v="Ånebergstoga" />
		<tag k="place" v="locality" />
		<tag k="ssr:stedsnr" v="780265" />
	</node>
	<node id="-302024" lat="58.6848166651" lon="8.40124721375">
		<tag k="name" v="Haugen" />
		<tag k="place" v="farm" />
		<tag k="ssr:stedsnr" v="335303" />
	</node>
	<node id="-302019" lat="58.6755499976" lon="8.41810554905">
		<tag k="name" v="Oppstad" />
		<tag k="place" v="locality" />
		<tag k="ssr:stedsnr" v="335249" />
	</node>
	<node id="-304065" lat="58.7235583305" lon="7.99390000417">
		<tag k="name" v="Stoga" />
		<tag k="place" v="locality" />
		<tag k="ssr:stedsnr" v="414387" />
	</node>
	<node id="-302016" lat="58.6845444463" lon="8.40489721553">
		<tag k="name" v="Der heime" />
		<tag k="place" v="farm" />
		<tag k="ssr:stedsnr" v="335237" />
	</node>
	<node id="-303639" lat="58.8019000008" lon="8.41965000301">
		<tag k="name" v="Sandnes" />
		<tag k="place" v="farm" />
		<tag k="ssr:stedsnr" v="182134" />
	</node>
	<node id="-304059" lat="58.6905555534" lon="8.69154721673">
		<tag k="name" v="Solvang" />
		<tag k="place" v="farm" />
		<tag k="ssr:stedsnr" v="244889" />
	</node>
	<node id="-304498" lat="58.6433916671" lon="8.67899444125">
		<tag k="name" v="Flaten" />
		<tag k="place" v="farm" />
		<tag k="ssr:stedsnr" v="486984" />
	</node>
	<node id="-306096" lat="58.8607916626" lon="8.32355277">
		<tag k="amenity" v="school" />
		<tag k="name" v="Gjøvdal skule" />
		<tag k="ssr:stedsnr" v="779680" />
	</node>
	<node id="-306095" lat="58.6967194435" lon="8.3218555526">
		<tag k="name" v="Kilebua" />
		<tag k="place" v="locality" />
		<tag k="ssr:stedsnr" v="779676" />
	</node>
	<node id="-304046" lat="58.8090555518" lon="8.17444167498">
		<tag k="name" v="Plassen" />
		<tag k="place" v="isolated_dwelling" />
		<tag k="ssr:stedsnr" v="244183" />
	</node>
	<node id="-304045" lat="58.8307249963" lon="8.40490555234">
		<tag k="alt_name" v="Ut-på Øygarden;Ødegaarden" />
		<tag k="name" v="Øygarden" />
		<tag k="place" v="farm" />
		<tag k="ssr:stedsnr" v="244168" />
	</node>
	<node id="-301990" lat="58.8866222187" lon="8.59167222966">
		<tag k="name" v="Bjørnestad" />
		<tag k="place" v="isolated_dwelling" />
		<tag k="ssr:stedsnr" v="335019" />
	</node>
	<node id="-301988" lat="58.9072305549" lon="8.55550555133">
		<tag k="name" v="Haugen" />
		<tag k="place" v="isolated_dwelling" />
		<tag k="ssr:stedsnr" v="335002" />
	</node>
	<node id="-304034" lat="58.8679388909" lon="8.10923888456">
		<tag k="name" v="Toskestøyl" />
		<tag k="place" v="isolated_dwelling" />
		<tag k="ssr:stedsnr" v="244032" />
	</node>
	<node id="-304032" lat="58.7421805591" lon="8.52395276964">
		<tag k="name" v="Reklia" />
		<tag k="place" v="isolated_dwelling" />
		<tag k="ssr:stedsnr" v="244024" />
	</node>
	<node id="-301982" lat="58.6579638926" lon="8.66686388474">
		<tag k="alt_name" v="Nygårdsholta" />
		<tag k="name" v="Nygardsholta" />
		<tag k="place" v="farm" />
		<tag k="ssr:stedsnr" v="304933" />
	</node>
	<node id="-301980" lat="58.6898777736" lon="8.71752222843">
		<tag k="name" v="Åsen" />
		<tag k="place" v="farm" />
		<tag k="ssr:stedsnr" v="304921" />
	</node>
	<node id="-304027" lat="58.6564888885" lon="8.63328610683">
		<tag k="fixme" v="consider place=suburb, village or hamlet" />
		<tag k="name" v="Nelaug" />
		<tag k="place" v="quarter" />
		<tag k="ssr:stedsnr" v="243942" />
	</node>
	<node id="-301978" lat="58.7437833334" lon="8.06073334056">
		<tag k="name" v="Barlindhommen" />
		<tag k="place" v="locality" />
		<tag k="ssr:stedsnr" v="304907" />
	</node>
	<node id="-304022" lat="58.7555749975" lon="8.07638611101">
		<tag k="name" v="Høgeli" />
		<tag k="place" v="farm" />
		<tag k="ssr:stedsnr" v="243855" />
	</node>
	<node id="-306069" lat="58.7262833297" lon="8.03904444039">
		<tag k="name" v="Gnausebua" />
		<tag k="place" v="locality" />
		<tag k="ssr:stedsnr" v="779428" />
	</node>
	<node id="-304019" lat="58.8587527797" lon="8.51196943927">
		<tag k="alt_name" v="Øvre Helleren" />
		<tag k="name" v="Helleren" />
		<tag k="place" v="isolated_dwelling" />
		<tag k="ssr:stedsnr" v="243753" />
	</node>
	<node id="-304018" lat="58.8451472204" lon="8.65907499186">
		<tag k="alt_name" v="Katerås" />
		<tag k="fixme" v="consider place=hamlet" />
		<tag k="name" v="Katterås" />
		<tag k="place" v="farm" />
		<tag k="ssr:stedsnr" v="243732" />
	</node>
	<node id="-304017" lat="58.6703388907" lon="8.70740277407">
		<tag k="name" v="Myrli" />
		<tag k="place" v="farm" />
		<tag k="ssr:stedsnr" v="243964" />
	</node>
	<node id="-301964" lat="58.7753527777" lon="8.54316111134">
		<tag k="alt_name" v="Granli" />
		<tag k="name" v="Plassen" />
		<tag k="place" v="isolated_dwelling" />
		<tag k="ssr:stedsnr" v="304613" />
	</node>
	<node id="-301963" lat="58.7934194449" lon="8.4870861083">
		<tag k="fixme" v="consider place=hamlet" />
		<tag k="name" v="Gjøvland" />
		<tag k="place" v="farm" />
		<tag k="ssr:stedsnr" v="304587" />
	</node>
	<node id="-301961" lat="58.7588833296" lon="8.47060832774">
		<tag k="fixme" v="consider place=hamlet" />
		<tag k="name" v="Engenes" />
		<tag k="place" v="farm" />
		<tag k="ssr:stedsnr" v="304559" />
	</node>
	<node id="-301958" lat="58.7524999988" lon="8.5386555502">
		<tag k="name" v="Liane" />
		<tag k="place" v="farm" />
		<tag k="ssr:stedsnr" v="304533" />
	</node>
	<node id="-304005" lat="58.8104333311" lon="8.47478611709">
		<tag k="fixme" v="consider place=hamlet" />
		<tag k="name" v="Gangsei" />
		<tag k="place" v="farm" />
		<tag k="ssr:stedsnr" v="243667" />
	</node>
	<node id="-301954" lat="58.7656638902" lon="8.48391944622">
		<tag k="name" v="Åmli" />
		<tag k="place" v="village" />
		<tag k="ssr:stedsnr" v="304506" />
	</node>
	<node id="-301953" lat="58.7348611103" lon="8.4450722285">
		<tag k="name" v="Solås" />
		<tag k="place" v="locality" />
		<tag k="ssr:stedsnr" v="304481" />
	</node>
	<node id="-304000" lat="58.7656194454" lon="8.55391944059">
		<tag k="name" v="Espeland" />
		<tag k="place" v="farm" />
		<tag k="ssr:stedsnr" v="243516" />
	</node>
	<node id="-303998" lat="58.7216666698" lon="8.40251110557">
		<tag k="fixme" v="consider place=hamlet" />
		<tag k="name" v="Tviland" />
		<tag k="place" v="farm" />
		<tag k="ssr:stedsnr" v="243471" />
	</node>
	<node id="-306045" lat="58.8651888917" lon="8.32106388808">
		<tag k="name" v="Hommen" />
		<tag k="place" v="farm" />
		<tag k="ssr:stedsnr" v="779111" />
	</node>
	<node id="-301944" lat="58.9197055538" lon="8.54070554801">
		<tag k="name" v="Ekra" />
		<tag k="place" v="isolated_dwelling" />
		<tag k="ssr:stedsnr" v="304382" />
	</node>
	<node id="-303990" lat="58.7803499962" lon="8.25971389381">
		<tag k="fixme" v="consider place=hamlet" />
		<tag k="name" v="Gunleifjell" />
		<tag k="place" v="farm" />
		<tag k="ssr:stedsnr" v="243234" />
	</node>
	<node id="-303988" lat="58.7776777778" lon="8.17309721682">
		<tag k="name" v="Hillestadløa" />
		<tag k="place" v="locality" />
		<tag k="ssr:stedsnr" v="243230" />
	</node>
	<node id="-303984" lat="58.7860694445" lon="8.2356916701">
		<tag k="name" v="Lunden" />
		<tag k="place" v="farm" />
		<tag k="ssr:stedsnr" v="243218" />
	</node>
	<node id="-303979" lat="58.7958777814" lon="8.22494444314">
		<tag k="name" v="Bujord" />
		<tag k="place" v="farm" />
		<tag k="ssr:stedsnr" v="243143" />
	</node>
	<node id="-303976" lat="58.7020500002" lon="8.58792221504">
		<tag k="name" v="Fjellvik" />
		<tag k="place" v="farm" />
		<tag k="ssr:stedsnr" v="243084" />
	</node>
	<node id="-303975" lat="58.7089111107" lon="8.58854721621">
		<tag k="fixme" v="consider place=hamlet" />
		<tag k="name" v="Simonstad" />
		<tag k="place" v="farm" />
		<tag k="ssr:stedsnr" v="243081" />
	</node>
	<node id="-301923" lat="58.8148777773" lon="8.4138833339">
		<tag k="name" v="Støylen" />
		<tag k="place" v="farm" />
		<tag k="ssr:stedsnr" v="304114" />
	</node>
	<node id="-303969" lat="58.8997166704" lon="8.32287221883">
		<tag k="name" v="Måvasstøyl" />
		<tag k="place" v="isolated_dwelling" />
		<tag k="ssr:stedsnr" v="243028" />
	</node>
	<node id="-301920" lat="58.8635805514" lon="8.32811388479">
		<tag k="name" v="Bakkane" />
		<tag k="place" v="farm" />
		<tag k="ssr:stedsnr" v="304099" />
	</node>
	<node id="-306013" lat="58.8669527762" lon="8.06409444972">
		<tag k="name" v="Homsbua" />
		<tag k="place" v="locality" />
		<tag k="ssr:stedsnr" v="778029" />
	</node>
	<node id="-301914" lat="58.883852776" lon="8.28415833662">
		<tag k="alt_name" v="Årli, øvre" />
		<tag k="name" v="Øvre Årli" />
		<tag k="place" v="farm" />
		<tag k="ssr:stedsnr" v="304053" />
	</node>
	<node id="-303959" lat="58.853916667" lon="8.23976111345">
		<tag k="name" v="Fjellstøyl" />
		<tag k="place" v="locality" />
		<tag k="ssr:stedsnr" v="234352" />
	</node>
	<node id="-303945" lat="58.9675944421" lon="8.14431111306">
		<tag k="name" v="Gamle Sundstøyl" />
		<tag k="place" v="locality" />
		<tag k="ssr:stedsnr" v="233986" />
	</node>
	<node id="-301892" lat="58.7626777822" lon="8.42772499409">
		<tag k="name" v="Breivik" />
		<tag k="place" v="locality" />
		<tag k="ssr:stedsnr" v="294858" />
	</node>
	<node id="-305985" lat="58.8367833319" lon="8.39561944608">
		<tag k="name" v="Opp-på Øygardane" />
		<tag k="place" v="isolated_dwelling" />
		<tag k="ssr:stedsnr" v="766549" />
	</node>
	<node id="-301885" lat="58.7691555532" lon="8.04701389604">
		<tag k="name" v="Storebu" />
		<tag k="place" v="locality" />
		<tag k="ssr:stedsnr" v="294758" />
	</node>
	<node id="-303931" lat="58.7059166696" lon="8.15554444678">
		<tag k="name" v="Verfjellhytta" />
		<tag k="place" v="isolated_dwelling" />
		<tag k="ssr:stedsnr" v="233787" />
	</node>
	<node id="-305978" lat="58.7431888934" lon="8.45772778107">
		<tag k="name" v="Helset" />
		<tag k="place" v="farm" />
		<tag k="ssr:stedsnr" v="760656" />
	</node>
	<node id="-305974" lat="58.6402333306" lon="8.71038888392">
		<tag k="name" v="Rundehaug" />
		<tag k="place" v="farm" />
		<tag k="ssr:stedsnr" v="760619" />
	</node>
	<node id="-305965" lat="58.711202782" lon="8.56328054731">
		<tag k="name" v="Supland" />
		<tag k="place" v="isolated_dwelling" />
		<tag k="ssr:stedsnr" v="760571" />
	</node>
	<node id="-305957" lat="58.6758722235" lon="8.68736667152">
		<tag k="name" v="Gryting" />
		<tag k="place" v="locality" />
		<tag k="ssr:stedsnr" v="760506" />
	</node>
	<node id="-301846" lat="58.9144333289" lon="8.28835832752">
		<tag k="name" v="Nybu" />
		<tag k="place" v="locality" />
		<tag k="ssr:stedsnr" v="294256" />
	</node>
	<node id="-301842" lat="58.7962083347" lon="8.49364722356">
		<tag k="name" v="Grasnes" />
		<tag k="place" v="farm" />
		<tag k="ssr:stedsnr" v="294104" />
	</node>
	<node id="-305932" lat="58.6849527738" lon="8.40700833154">
		<tag k="name" v="Austigard" />
		<tag k="place" v="farm" />
		<tag k="ssr:stedsnr" v="760253" />
	</node>
	<node id="-301834" lat="58.8822472188" lon="8.25500278429">
		<tag k="name" v="Lauvfok" />
		<tag k="place" v="farm" />
		<tag k="ssr:stedsnr" v="294003" />
	</node>
	<node id="-301830" lat="58.7526666635" lon="8.08105278183">
		<tag k="name" v="Støylsjorde" />
		<tag k="place" v="locality" />
		<tag k="ssr:stedsnr" v="293867" />
	</node>
	<node id="-305916" lat="58.843375001" lon="8.54724445213">
		<tag k="historic" v="shieling" />
		<tag k="name" v="Nystøyl" />
		<tag k="place" v="locality" />
		<tag k="ssr:stedsnr" v="759439" />
	</node>
	<node id="-303861" lat="58.9299027765" lon="8.03704443881">
		<tag k="name" v="Badstoga" />
		<tag k="place" v="isolated_dwelling" />
		<tag k="ssr:stedsnr" v="231163" />
	</node>
	<node id="-303856" lat="58.9111666635" lon="8.1406138805">
		<tag k="name" v="Trongedalshytta" />
		<tag k="place" v="isolated_dwelling" />
		<tag k="ssr:stedsnr" v="227324" />
	</node>
	<node id="-303849" lat="58.8178055568" lon="8.1937611026">
		<tag k="name" v="Hillestadheia" />
		<tag k="place" v="neighbourhood" />
		<tag k="ssr:stedsnr" v="224839" />
	</node>
	<node id="-305885" lat="58.7431388889" lon="8.60957778057">
		<tag k="name" v="Steinsbu" />
		<tag k="place" v="isolated_dwelling" />
		<tag k="ssr:stedsnr" v="759117" />
	</node>
	<node id="-301787" lat="58.9457111082" lon="8.2262000065">
		<tag k="name" v="Stemtjønnhytta" />
		<tag k="place" v="isolated_dwelling" />
		<tag k="ssr:stedsnr" v="287453" />
	</node>
	<node id="-305876" lat="58.7703777802" lon="8.62969167312">
		<tag k="name" v="Risdalen" />
		<tag k="place" v="locality" />
		<tag k="ssr:stedsnr" v="759016" />
	</node>
	<node id="-305873" lat="58.7122888858" lon="8.3436944527">
		<tag k="fixme" v="consider place=hamlet" />
		<tag k="name" v="Dølemo" />
		<tag k="place" v="village" />
		<tag k="ssr:stedsnr" v="752161" />
	</node>
	<node id="-301775" lat="58.9130972197" lon="8.19481666692">
		<tag k="name" v="Ørnebu" />
		<tag k="place" v="locality" />
		<tag k="ssr:stedsnr" v="280209" />
	</node>
	<node id="-305870" lat="58.904986109" lon="8.19664999671">
		<tag k="name" v="Sandvasstøyl" />
		<tag k="place" v="isolated_dwelling" />
		<tag k="ssr:stedsnr" v="729972" />
	</node>
	<node id="-305869" lat="58.6704500014" lon="8.61624167147">
		<tag k="fixme" v="consider place=hamlet" />
		<tag k="name" v="Øynes" />
		<tag k="place" v="farm" />
		<tag k="ssr:stedsnr" v="729956" />
	</node>
	<node id="-305865" lat="58.6575298221" lon="8.66827581411">
		<tag k="alt_name" v="Vimme, vestre" />
		<tag k="fixme" v="consider place=hamlet" />
		<tag k="name" v="Vestre Vimme" />
		<tag k="place" v="farm" />
		<tag k="ssr:stedsnr" v="729940" />
	</node>
	<node id="-305856" lat="58.6954555574" lon="8.68690277419">
		<tag k="name" v="Stanglia" />
		<tag k="place" v="farm" />
		<tag k="ssr:stedsnr" v="729897" />
	</node>
	<node id="-303807" lat="58.6950944473" lon="8.50396666508">
		<tag k="name" v="Fermland" />
		<tag k="place" v="locality" />
		<tag k="ssr:stedsnr" v="214410" />
	</node>
	<node id="-305854" lat="58.9670527777" lon="8.1421083315">
		<tag k="name" v="Sundstøyl" />
		<tag k="place" v="isolated_dwelling" />
		<tag k="ssr:stedsnr" v="729878" />
	</node>
	<node id="-301757" lat="58.7364111111" lon="8.53108889714">
		<tag k="name" v="Plassen" />
		<tag k="place" v="locality" />
		<tag k="ssr:stedsnr" v="274727" />
	</node>
	<node id="-301755" lat="58.767194448" lon="8.49464443937">
		<tag k="name" v="Prestegarden" />
		<tag k="place" v="farm" />
		<tag k="ssr:stedsnr" v="274708" />
	</node>
	<node id="-301750" lat="58.7468083304" lon="8.44468055824">
		<tag k="name" v="Båsland" />
		<tag k="place" v="farm" />
		<tag k="ssr:stedsnr" v="274619" />
	</node>
	<node id="-305844" lat="58.9239972192" lon="7.98925278457">
		<tag k="historic" v="shieling" />
		<tag k="name" v="Videstøyl" />
		<tag k="place" v="locality" />
		<tag k="ssr:stedsnr" v="729694" />
	</node>
	<node id="-305842" lat="58.8127333342" lon="8.52135833518">
		<tag k="fixme" v="consider place=hamlet" />
		<tag k="name" v="Olstad" />
		<tag k="place" v="farm" />
		<tag k="ssr:stedsnr" v="729682" />
	</node>
	<node id="-305839" lat="58.8383500015" lon="8.58150833702">
		<tag k="name" v="Heimtun" />
		<tag k="place" v="isolated_dwelling" />
		<tag k="ssr:stedsnr" v="729654" />
	</node>
	<node id="-303784" lat="58.6797277779" lon="8.43178056141">
		<tag k="name" v="Stigbua" />
		<tag k="place" v="locality" />
		<tag k="ssr:stedsnr" v="214216" />
	</node>
	<node id="-305827" lat="58.7033861071" lon="8.41138333616">
		<tag k="name" v="Vehusheia" />
		<tag k="place" v="farm" />
		<tag k="ssr:stedsnr" v="729453" />
	</node>
	<node id="-303776" lat="58.7836194421" lon="8.58651665839">
		<tag k="name" v="Kleivslåttbu" />
		<tag k="place" v="locality" />
		<tag k="ssr:stedsnr" v="213527" />
	</node>
	<node id="-303216" lat="58.8334250024" lon="8.39852500451">
		<tag k="name" v="Oppigard" />
		<tag k="place" v="farm" />
		<tag k="ssr:stedsnr" v="99576" />
	</node>
	<node id="-303774" lat="58.8289527778" lon="8.59919444706">
		<tag k="name" v="Kleivane" />
		<tag k="place" v="locality" />
		<tag k="ssr:stedsnr" v="213492" />
	</node>
	<node id="-301715" lat="58.6651777813" lon="8.38586666636">
		<tag k="name" v="Skrede" />
		<tag k="place" v="farm" />
		<tag k="ssr:stedsnr" v="274302" />
	</node>
	<node id="-305804" lat="58.8278999977" lon="8.10149999799">
		<tag k="fixme" v="consider place=hamlet" />
		<tag k="name" v="Vrålstad" />
		<tag k="place" v="farm" />
		<tag k="ssr:stedsnr" v="729094" />
	</node>
	<node id="-301705" lat="58.7663222257" lon="8.54530278078">
		<tag k="name" v="Svinåsen" />
		<tag k="place" v="farm" />
		<tag k="ssr:stedsnr" v="274219" />
	</node>
	<node id="-301703" lat="58.7611166644" lon="8.5331888918">
		<tag k="name" v="Sørgard" />
		<tag k="place" v="farm" />
		<tag k="ssr:stedsnr" v="274213" />
	</node>
	<node id="-305797" lat="58.8867888903" lon="8.27286388537">
		<tag k="name" v="Åsen" />
		<tag k="place" v="farm" />
		<tag k="ssr:stedsnr" v="729052" />
	</node>
	<node id="-301694" lat="58.8723611127" lon="8.65431389543">
		<tag k="name" v="Birtestoga" />
		<tag k="place" v="isolated_dwelling" />
		<tag k="ssr:stedsnr" v="274148" />
	</node>
	<node id="-303735" lat="58.6405611117" lon="8.71458333981">
		<tag k="fixme" v="consider place=hamlet" />
		<tag k="name" v="Hovet" />
		<tag k="place" v="farm" />
		<tag k="ssr:stedsnr" v="183974" />
	</node>
	<node id="-303732" lat="58.9406583328" lon="8.20131666244">
		<tag k="name" v="Vang" />
		<tag k="place" v="farm" />
		<tag k="ssr:stedsnr" v="183940" />
	</node>
	<node id="-303731" lat="58.9522222236" lon="8.15743333672">
		<tag k="name" v="Såheim" />
		<tag k="place" v="isolated_dwelling" />
		<tag k="ssr:stedsnr" v="183934" />
	</node>
	<node id="-305776" lat="58.8899166636" lon="8.25629166051">
		<tag k="name" v="Finnhola" />
		<tag k="place" v="isolated_dwelling" />
		<tag k="ssr:stedsnr" v="719682" />
	</node>
	<node id="-305774" lat="58.6893055585" lon="8.32738611402">
		<tag k="name" v="Porsdals-slåttebua" />
		<tag k="place" v="locality" />
		<tag k="ssr:stedsnr" v="719632" />
	</node>
	<node id="-303722" lat="58.7985055525" lon="7.99946388074">
		<tag k="name" v="Tveitli" />
		<tag k="place" v="isolated_dwelling" />
		<tag k="ssr:stedsnr" v="183806" />
	</node>
	<node id="-303721" lat="58.8958166657" lon="8.00552499944">
		<tag k="historic" v="shieling" />
		<tag k="name" v="Stuvestøyl" />
		<tag k="place" v="locality" />
		<tag k="ssr:stedsnr" v="183699" />
	</node>
	<node id="-303720" lat="58.8241055596" lon="8.6444250065">
		<tag k="alt_name" v="Nedre Haukedalen" />
		<tag k="name" v="Haukedalen" />
		<tag k="place" v="isolated_dwelling" />
		<tag k="ssr:stedsnr" v="183669" />
	</node>
	<node id="-305765" lat="58.7276777821" lon="8.30118333449">
		<tag k="name" v="Bjortjønnvollen" />
		<tag k="place" v="farm" />
		<tag k="ssr:stedsnr" v="719592" />
	</node>
	<node id="-303704" lat="58.711702774" lon="8.36953610605">
		<tag k="fixme" v="consider place=hamlet" />
		<tag k="name" v="Rostveit" />
		<tag k="place" v="farm" />
		<tag k="ssr:stedsnr" v="183435" />
	</node>
	<node id="-303703" lat="58.7164222235" lon="8.45298056331">
		<tag k="name" v="Flåstøyl" />
		<tag k="place" v="isolated_dwelling" />
		<tag k="ssr:stedsnr" v="183427" />
	</node>
	<node id="-305749" lat="58.9243444412" lon="8.25848611078">
		<tag k="historic" v="shieling" />
		<tag k="name" v="Ramsestøyl" />
		<tag k="place" v="locality" />
		<tag k="ssr:stedsnr" v="719280" />
	</node>
	<node id="-303700" lat="58.8995388897" lon="8.5656527726">
		<tag k="name" v="Myrane" />
		<tag k="place" v="isolated_dwelling" />
		<tag k="ssr:stedsnr" v="183418" />
	</node>
	<node id="-303203" lat="58.7145972217" lon="8.35260277078">
		<tag k="name" v="Sandhaug" />
		<tag k="place" v="farm" />
		<tag k="ssr:stedsnr" v="93429" />
	</node>
	<node id="-305740" lat="58.7794250026" lon="8.41220277969">
		<tag k="name" v="Plassen" />
		<tag k="place" v="locality" />
		<tag k="ssr:stedsnr" v="719097" />
	</node>
	<node id="-302519" lat="58.8305750001" lon="8.10153889122">
		<tag k="name" v="Haugen" />
		<tag k="place" v="farm" />
		<tag k="ssr:stedsnr" v="474908" />
	</node>
	<node id="-305726" lat="58.7764805519" lon="8.31776111832">
		<tag k="name" v="Rønsdalsbua" />
		<tag k="place" v="locality" />
		<tag k="ssr:stedsnr" v="718691" />
	</node>
	<node id="-303677" lat="58.7305250034" lon="8.53870554908">
		<tag k="name" v="Kaunberget" />
		<tag k="place" v="farm" />
		<tag k="ssr:stedsnr" v="183095" />
	</node>
	<node id="-303671" lat="58.8330611101" lon="8.10434166938">
		<tag k="alt_name" v="Moen;Moen nedre" />
		<tag k="name" v="Nedre Moen" />
		<tag k="place" v="farm" />
		<tag k="ssr:stedsnr" v="183063" />
	</node>
	<node id="-303669" lat="58.8837277804" lon="8.25353611356">
		<tag k="name" v="Stedjan" />
		<tag k="place" v="farm" />
		<tag k="ssr:stedsnr" v="183045" />
	</node>
	<node id="-301921" lat="58.8579888849" lon="8.3375305547">
		<tag k="name" v="Austjordet" />
		<tag k="place" v="farm" />
		<tag k="ssr:stedsnr" v="304107" />
	</node>
	<node id="-303665" lat="58.8647916649" lon="8.20129167403">
		<tag k="name" v="Listøyl" />
		<tag k="place" v="isolated_dwelling" />
		<tag k="ssr:stedsnr" v="183010" />
	</node>
	<node id="-303660" lat="58.6780916665" lon="8.71254721585">
		<tag k="name" v="Kleiva" />
		<tag k="place" v="isolated_dwelling" />
		<tag k="ssr:stedsnr" v="182903" />
	</node>
	<node id="-305704" lat="58.8707888866" lon="8.33840555605">
		<tag k="name" v="Sumarfjøset" />
		<tag k="place" v="locality" />
		<tag k="ssr:stedsnr" v="718405" />
	</node>
	<node id="-305703" lat="58.8689666631" lon="8.33686667031">
		<tag k="name" v="Der oppe" />
		<tag k="place" v="farm" />
		<tag k="ssr:stedsnr" v="718403" />
	</node>
	<node id="-303654" lat="58.7643666673" lon="8.53517777801">
		<tag k="name" v="Bakkane" />
		<tag k="place" v="farm" />
		<tag k="ssr:stedsnr" v="182504" />
	</node>
	<node id="-303653" lat="58.769130554" lon="8.49759166772">
		<tag k="name" v="Høgevoll" />
		<tag k="place" v="farm" />
		<tag k="ssr:stedsnr" v="182505" />
	</node>
	<node id="-303652" lat="58.7662500021" lon="8.53829999904">
		<tag k="name" v="Buvollen" />
		<tag k="place" v="farm" />
		<tag k="ssr:stedsnr" v="182500" />
	</node>
	<node id="-305699" lat="58.7546555577" lon="8.31528332707">
		<tag k="name" v="Hestbrekkbua" />
		<tag k="place" v="locality" />
		<tag k="ssr:stedsnr" v="718341" />
	</node>
	<node id="-303645" lat="58.7728611139" lon="8.09681389053">
		<tag k="fixme" v="consider place=hamlet" />
		<tag k="name" v="Hestkleiv" />
		<tag k="place" v="farm" />
		<tag k="ssr:stedsnr" v="182234" />
	</node>
	<node id="-303640" lat="58.7929611134" lon="8.22745556231">
		<tag k="alt_name" v="Ramse, øvre" />
		<tag k="name" v="Øvre Ramse" />
		<tag k="place" v="hamlet" />
		<tag k="ssr:stedsnr" v="182138" />
	</node>
	<node id="-305687" lat="58.9385972264" lon="8.20275000314">
		<tag k="name" v="Stebua" />
		<tag k="place" v="locality" />
		<tag k="ssr:stedsnr" v="718148" />
	</node>
	<node id="-303638" lat="58.8543888865" lon="8.3378083328">
		<tag k="name" v="Landbø" />
		<tag k="place" v="farm" />
		<tag k="ssr:stedsnr" v="182108" />
	</node>
	<node id="-305668" lat="58.8351055559" lon="8.10389166097">
		<tag k="alt_name" v="Moen øvre" />
		<tag k="name" v="Øvre Moen" />
		<tag k="place" v="farm" />
		<tag k="ssr:stedsnr" v="717929" />
	</node>
	<node id="-303592" lat="58.7598999992" lon="8.41239722439">
		<tag k="name" v="Saga" />
		<tag k="place" v="locality" />
		<tag k="ssr:stedsnr" v="172799" />
	</node>
	<node id="-303583" lat="58.8541277767" lon="8.34186111566">
		<tag k="name" v="Landbø" />
		<tag k="place" v="farm" />
		<tag k="ssr:stedsnr" v="172733" />
	</node>
	<node id="-305627" lat="58.8089972213" lon="8.41364166704">
		<tag k="name" v="Tiljone" />
		<tag k="place" v="farm" />
		<tag k="ssr:stedsnr" v="705487" />
	</node>
	<node id="-303578" lat="58.8496777806" lon="8.29445277537">
		<tag k="name" v="Bjønnåshytta" />
		<tag k="place" v="isolated_dwelling" />
		<tag k="ssr:stedsnr" v="172719" />
	</node>
	<node id="-305625" lat="58.8711750031" lon="8.36776944074">
		<tag k="name" v="Krossvasshytta" />
		<tag k="place" v="isolated_dwelling" />
		<tag k="ssr:stedsnr" v="705473" />
	</node>
	<node id="-303573" lat="58.8398694402" lon="8.2585249959">
		<tag k="name" v="Sinevasshytta" />
		<tag k="place" v="locality" />
		<tag k="ssr:stedsnr" v="172663" />
	</node>
	<node id="-305616" lat="58.6916527817" lon="8.34162500793">
		<tag k="name" v="Langemyrbua" />
		<tag k="place" v="locality" />
		<tag k="ssr:stedsnr" v="700429" />
	</node>
	<node id="-305597" lat="58.7368666698" lon="8.52927222032">
		<tag k="name" v="Øvreplass" />
		<tag k="place" v="locality" />
		<tag k="ssr:stedsnr" v="699579" />
	</node>
	<node id="-303544" lat="58.8251083332" lon="8.0139888902">
		<tag k="name" v="Hudekvina" />
		<tag k="place" v="locality" />
		<tag k="ssr:stedsnr" v="171941" />
	</node>
	<node id="-305589" lat="58.7101694469" lon="8.62731111659">
		<tag k="name" v="Bomvollen" />
		<tag k="place" v="isolated_dwelling" />
		<tag k="ssr:stedsnr" v="699521" />
	</node>
	<node id="-305587" lat="58.7082833338" lon="8.61986110798">
		<tag k="name" v="Follestad" />
		<tag k="place" v="isolated_dwelling" />
		<tag k="ssr:stedsnr" v="699514" />
	</node>
	<node id="-305545" lat="58.7634111092" lon="8.63461666262">
		<tag k="name" v="Dalansplassen" />
		<tag k="place" v="locality" />
		<tag k="ssr:stedsnr" v="699165" />
	</node>
	<node id="-303490" lat="58.7366805565" lon="8.4609472266">
		<tag k="name" v="Kringlebakk" />
		<tag k="place" v="farm" />
		<tag k="ssr:stedsnr" v="153687" />
	</node>
	<node id="-303488" lat="58.7105972204" lon="8.60456110823">
		<tag k="name" v="Hytta" />
		<tag k="place" v="isolated_dwelling" />
		<tag k="ssr:stedsnr" v="153584" />
	</node>
	<node id="-303480" lat="58.7141666622" lon="8.3512249953">
		<tag k="name" v="Frivoll" />
		<tag k="place" v="farm" />
		<tag k="ssr:stedsnr" v="153499" />
	</node>
	<node id="-305522" lat="58.7575666695" lon="8.48248333834">
		<tag k="name" v="Århuskleiva" />
		<tag k="place" v="quarter" />
		<tag k="ssr:stedsnr" v="695434" />
	</node>
	<node id="-305513" lat="58.959861113" lon="8.17751666156">
		<tag k="name" v="Gjevdeli" />
		<tag k="place" v="farm" />
		<tag k="ssr:stedsnr" v="668918" />
	</node>
	<node id="-305501" lat="58.8746361102" lon="8.04771944341">
		<tag k="name" v="Bakken" />
		<tag k="place" v="farm" />
		<tag k="ssr:stedsnr" v="668759" />
	</node>
	<node id="-305487" lat="58.7645583289" lon="8.48806389388">
		<tag k="alt_name" v="Riisland" />
		<tag k="fixme" v="consider place=hamlet" />
		<tag k="name" v="Risland" />
		<tag k="place" v="farm" />
		<tag k="ssr:stedsnr" v="668526" />
	</node>
	<node id="-302477" lat="58.7073777807" lon="8.60796388168">
		<tag k="name" v="Lien" />
		<tag k="place" v="isolated_dwelling" />
		<tag k="ssr:stedsnr" v="396512" />
	</node>
	<node id="-306231" lat="58.6931555559" lon="8.72225277956">
		<tag k="alt_name" v="Grusåsen" />
		<tag k="name" v="Grasåsen" />
		<tag k="place" v="farm" />
		<tag k="ssr:stedsnr" v="790935" />
	</node>
	<node id="-305478" lat="58.7016388921" lon="8.35734165968">
		<tag k="name" v="Hommedal, l" />
		<tag k="place" v="isolated_dwelling" />
		<tag k="ssr:stedsnr" v="668469" />
	</node>
	<node id="-305476" lat="58.6997706517" lon="8.37664259766">
		<tag k="name" v="Landsås" />
		<tag k="place" v="farm" />
		<tag k="ssr:stedsnr" v="668465" />
	</node>
	<node id="-305470" lat="58.7424055551" lon="8.45988055328">
		<tag k="fixme" v="consider place=hamlet" />
		<tag k="name" v="Gjermundnes" />
		<tag k="place" v="farm" />
		<tag k="ssr:stedsnr" v="668418" />
	</node>
	<node id="-305448" lat="58.8076277762" lon="8.17619999516">
		<tag k="fixme" v="consider place=hamlet" />
		<tag k="name" v="Hillestad" />
		<tag k="place" v="farm" />
		<tag k="ssr:stedsnr" v="668179" />
	</node>
	<node id="-303399" lat="58.6568333333" lon="8.72840555892">
		<tag k="fixme" v="consider place=hamlet" />
		<tag k="name" v="Furland" />
		<tag k="place" v="farm" />
		<tag k="ssr:stedsnr" v="122946" />
	</node>
	<node id="-305444" lat="58.7925194448" lon="8.22950554726">
		<tag k="name" v="Brustad" />
		<tag k="place" v="farm" />
		<tag k="ssr:stedsnr" v="668152" />
	</node>
	<node id="-305443" lat="58.7955499962" lon="8.22913056411">
		<tag k="name" v="Kasin" />
		<tag k="place" v="farm" />
		<tag k="ssr:stedsnr" v="668151" />
	</node>
	<node id="-305441" lat="58.8026194424" lon="8.24029165971">
		<tag k="alt_name" v="Næverborg" />
		<tag k="name" v="Nevreborg" />
		<tag k="place" v="isolated_dwelling" />
		<tag k="ssr:stedsnr" v="668136" />
	</node>
	<node id="-305439" lat="58.8093388862" lon="8.40298334029">
		<tag k="name" v="Solvang" />
		<tag k="place" v="farm" />
		<tag k="ssr:stedsnr" v="668125" />
	</node>
	<node id="-303389" lat="58.6887944451" lon="8.51136110923">
		<tag k="name" v="Fjellstøyllia" />
		<tag k="place" v="farm" />
		<tag k="ssr:stedsnr" v="122862" />
	</node>
	<node id="-305435" lat="58.8535722246" lon="8.16829444058">
		<tag k="name" v="Nasestøyl" />
		<tag k="place" v="isolated_dwelling" />
		<tag k="ssr:stedsnr" v="668086" />
	</node>
	<node id="-303386" lat="58.6347027793" lon="8.74668055341">
		<tag k="name" v="Setane" />
		<tag k="place" v="farm" />
		<tag k="ssr:stedsnr" v="122775" />
	</node>
	<node id="-303383" lat="58.8719333363" lon="8.60824445264">
		<tag k="name" v="Fjellstad" />
		<tag k="place" v="farm" />
		<tag k="ssr:stedsnr" v="122715" />
	</node>
	<node id="-303382" lat="58.8852833292" lon="8.09328333563">
		<tag k="name" v="Hagestøyl" />
		<tag k="place" v="isolated_dwelling" />
		<tag k="ssr:stedsnr" v="122714" />
	</node>
	<node id="-305427" lat="58.8823611134" lon="8.28371666887">
		<tag k="alt_name" v="Årli, nedre;Årli" />
		<tag k="name" v="Nedre Årli" />
		<tag k="place" v="farm" />
		<tag k="ssr:stedsnr" v="668047" />
	</node>
	<node id="-303378" lat="58.8221444456" lon="8.54606111174">
		<tag k="fixme" v="consider place=hamlet" />
		<tag k="name" v="Krossbekk" />
		<tag k="place" v="farm" />
		<tag k="ssr:stedsnr" v="122663" />
	</node>
	<node id="-303377" lat="58.8170833356" lon="8.5366249938">
		<tag k="name" v="Bytingsbekk" />
		<tag k="place" v="farm" />
		<tag k="ssr:stedsnr" v="122648" />
	</node>
	<node id="-303821" lat="58.6883138921" lon="8.69883610593">
		<tag k="name" v="Lunde" />
		<tag k="place" v="isolated_dwelling" />
		<tag k="ssr:stedsnr" v="214640" />
	</node>
	<node id="-303375" lat="58.8341916629" lon="8.58469166724">
		<tag k="name" v="Vang" />
		<tag k="place" v="isolated_dwelling" />
		<tag k="ssr:stedsnr" v="122628" />
	</node>
	<node id="-303372" lat="58.7257361154" lon="8.26208611542">
		<tag k="name" v="Øy" />
		<tag k="place" v="isolated_dwelling" />
		<tag k="ssr:stedsnr" v="122478" />
	</node>
	<node id="-303371" lat="58.7213694434" lon="8.1656666637">
		<tag k="name" v="Domtveit" />
		<tag k="place" v="isolated_dwelling" />
		<tag k="ssr:stedsnr" v="122474" />
	</node>
	<node id="-303369" lat="58.7112000034" lon="8.23771111767">
		<tag k="alt_name" v="Vå" />
		<tag k="name" v="Vaa" />
		<tag k="place" v="locality" />
		<tag k="ssr:stedsnr" v="122455" />
	</node>
	<node id="-303361" lat="58.6541083358" lon="8.39811388563">
		<tag k="name" v="Myre" />
		<tag k="place" v="isolated_dwelling" />
		<tag k="ssr:stedsnr" v="122278" />
	</node>
	<node id="-303359" lat="58.7860500015" lon="8.20198611772">
		<tag k="fixme" v="consider place=hamlet" />
		<tag k="name" v="Tveit" />
		<tag k="place" v="farm" />
		<tag k="ssr:stedsnr" v="122231" />
	</node>
	<node id="-303358" lat="58.7938805585" lon="8.30677499374">
		<tag k="name" v="Lauvdal" />
		<tag k="place" v="locality" />
		<tag k="ssr:stedsnr" v="122224" />
	</node>
	<node id="-303357" lat="58.7654277782" lon="8.25698888989">
		<tag k="alt_name" v="Sessvoll" />
		<tag k="name" v="Sæsvoll" />
		<tag k="place" v="farm" />
		<tag k="ssr:stedsnr" v="122204" />
	</node>
	<node id="-303354" lat="58.8338333345" lon="8.3972972267">
		<tag k="fixme" v="consider place=hamlet" />
		<tag k="name" v="Homdrom" />
		<tag k="place" v="village" />
		<tag k="ssr:stedsnr" v="122148" />
	</node>
	<node id="-305395" lat="58.7151111107" lon="8.30268332643">
		<tag k="name" v="Lille Baas" />
		<tag k="place" v="isolated_dwelling" />
		<tag k="ssr:stedsnr" v="658620" />
	</node>
	<node id="-303342" lat="58.7454111136" lon="8.51247777872">
		<tag k="name" v="Vallekilen" />
		<tag k="place" v="isolated_dwelling" />
		<tag k="ssr:stedsnr" v="122017" />
	</node>
	<node id="-305389" lat="58.8332916627" lon="8.40264721724">
		<tag k="name" v="Kvienga" />
		<tag k="place" v="farm" />
		<tag k="ssr:stedsnr" v="658557" />
	</node>
	<node id="-305380" lat="58.8959305561" lon="8.16413889079">
		<tag k="name" v="Steinbua" />
		<tag k="place" v="locality" />
		<tag k="ssr:stedsnr" v="658323" />
	</node>
	<node id="-305367" lat="58.8742694416" lon="8.29954999558">
		<tag k="name" v="Haugå" />
		<tag k="place" v="farm" />
		<tag k="ssr:stedsnr" v="658094" />
	</node>
	<node id="-305357" lat="58.7533000001" lon="8.040433326">
		<tag k="name" v="Bruleheibua" />
		<tag k="place" v="locality" />
		<tag k="ssr:stedsnr" v="657828" />
	</node>
	<node id="-303308" lat="58.8227111075" lon="8.24714723084">
		<tag k="name" v="Skarslihytta" />
		<tag k="place" v="locality" />
		<tag k="ssr:stedsnr" v="112693" />
	</node>
	<node id="-302727" lat="58.8328861124" lon="8.28033333653">
		<tag k="alt_name" v="Skurvestøyl" />
		<tag k="name" v="Skorvestøyl" />
		<tag k="place" v="locality" />
		<tag k="ssr:stedsnr" v="1106" />
	</node>
	<node id="-303275" lat="58.710050002" lon="8.28083332813">
		<tag k="name" v="Saga" />
		<tag k="place" v="locality" />
		<tag k="ssr:stedsnr" v="112606" />
	</node>
	<node id="-302449" lat="58.6919388902" lon="8.72622499909">
		<tag k="name" v="Vindholmen" />
		<tag k="place" v="farm" />
		<tag k="ssr:stedsnr" v="396246" />
	</node>
	<node id="-303265" lat="58.8729222245" lon="8.30057777893">
		<tag k="name" v="Fiane" />
		<tag k="place" v="farm" />
		<tag k="ssr:stedsnr" v="112113" />
	</node>
	<node id="-305292" lat="58.8994805592" lon="8.28977221855">
		<tag k="name" v="Breidablikk" />
		<tag k="place" v="isolated_dwelling" />
		<tag k="ssr:stedsnr" v="643644" />
	</node>
	<node id="-305287" lat="58.6975777802" lon="8.37268055226">
		<tag k="name" v="Vestigard" />
		<tag k="place" v="farm" />
		<tag k="ssr:stedsnr" v="639444" />
	</node>
	<node id="-305286" lat="58.7011055559" lon="8.33869999163">
		<tag k="name" v="Tretteslåttbua" />
		<tag k="place" v="locality" />
		<tag k="ssr:stedsnr" v="639428" />
	</node>
	<node id="-303234" lat="58.8697388878" lon="8.02740833416">
		<tag k="name" v="Kleivhytta" />
		<tag k="place" v="locality" />
		<tag k="ssr:stedsnr" v="111039" />
	</node>
	<node id="-303231" lat="58.9062305513" lon="8.27942778518">
		<tag k="name" v="Stedjan" />
		<tag k="place" v="locality" />
		<tag k="ssr:stedsnr" v="112303" />
	</node>
	<node id="-305278" lat="58.7151000041" lon="8.3665527763">
		<tag k="name" v="Rostveitplassen" />
		<tag k="place" v="farm" />
		<tag k="ssr:stedsnr" v="639406" />
	</node>
	<node id="-305270" lat="58.7671638933" lon="8.53134444274">
		<tag k="name" v="Haugane" />
		<tag k="place" v="farm" />
		<tag k="ssr:stedsnr" v="638729" />
	</node>
	<node id="-305268" lat="58.7455500023" lon="8.45781944355">
		<tag k="name" v="Lunden" />
		<tag k="place" v="farm" />
		<tag k="ssr:stedsnr" v="638636" />
	</node>
	<node id="-305264" lat="58.6893305576" lon="8.69287221627">
		<tag k="name" v="Berget" />
		<tag k="place" v="isolated_dwelling" />
		<tag k="ssr:stedsnr" v="638610" />
	</node>
	<node id="-303215" lat="58.813197222" lon="8.41451111269">
		<tag k="name" v="Haugestøylen" />
		<tag k="place" v="isolated_dwelling" />
		<tag k="ssr:stedsnr" v="99423" />
	</node>
	<node id="-303211" lat="58.8056138924" lon="8.3961305569">
		<tag k="name" v="Der ute" />
		<tag k="place" v="farm" />
		<tag k="ssr:stedsnr" v="98393" />
	</node>
	<node id="-305255" lat="58.69228611" lon="8.62082500608">
		<tag k="name" v="Venli" />
		<tag k="place" v="locality" />
		<tag k="ssr:stedsnr" v="638513" />
	</node>
	<node id="-306534" lat="58.881236113" lon="8.23576111933">
		<tag k="name" v="Oppigard" />
		<tag k="place" v="farm" />
		<tag k="ssr:stedsnr" v="851054" />
	</node>
	<node id="-303202" lat="58.7234555596" lon="8.33191110432">
		<tag k="name" v="Selberg" />
		<tag k="place" v="farm" />
		<tag k="ssr:stedsnr" v="93413" />
	</node>
	<node id="-303200" lat="58.6986359667" lon="8.34898954366">
		<tag k="name" v="Innjorda" />
		<tag k="place" v="farm" />
		<tag k="ssr:stedsnr" v="93339" />
	</node>
	<node id="-303199" lat="58.6963694419" lon="8.3626388887">
		<tag k="name" v="Store Homedal" />
		<tag k="place" v="farm" />
		<tag k="ssr:stedsnr" v="93334" />
	</node>
	<node id="-304484" lat="58.8123999988" lon="8.08294721524">
		<tag k="name" v="Hovdestøyl" />
		<tag k="place" v="locality" />
		<tag k="ssr:stedsnr" v="486798" />
	</node>
	<node id="-303189" lat="58.7472777822" lon="8.45580832888">
		<tag k="name" v="Sundet" />
		<tag k="place" v="farm" />
		<tag k="ssr:stedsnr" v="92660" />
	</node>
	<node id="-303180" lat="58.7085583364" lon="8.56693611318">
		<tag k="name" v="Solvang" />
		<tag k="place" v="isolated_dwelling" />
		<tag k="ssr:stedsnr" v="92586" />
	</node>
	<node id="-303179" lat="58.7105999975" lon="8.58941944814">
		<tag k="name" v="Vollane" />
		<tag k="place" v="farm" />
		<tag k="ssr:stedsnr" v="92584" />
	</node>
	<node id="-305225" lat="58.7235777791" lon="8.38619167062">
		<tag k="name" v="Heggevollen" />
		<tag k="place" v="isolated_dwelling" />
		<tag k="ssr:stedsnr" v="638290" />
	</node>
	<node id="-305219" lat="58.6872416633" lon="8.36793056166">
		<tag k="name" v="Presteholet" />
		<tag k="place" v="locality" />
		<tag k="ssr:stedsnr" v="638258" />
	</node>
	<node id="-305216" lat="58.6760944461" lon="8.41079166517">
		<tag k="name" v="Oppstadbua" />
		<tag k="place" v="locality" />
		<tag k="ssr:stedsnr" v="638230" />
	</node>
	<node id="-303167" lat="58.8297916695" lon="8.55471111467">
		<tag k="name" v="Øvre Krossbekk" />
		<tag k="place" v="isolated_dwelling" />
		<tag k="ssr:stedsnr" v="92437" />
	</node>
	<node id="-303166" lat="58.8313972184" lon="8.55870000624">
		<tag k="name" v="Surtemyr" />
		<tag k="place" v="locality" />
		<tag k="ssr:stedsnr" v="92435" />
	</node>
	<node id="-305213" lat="58.6842055523" lon="8.41013889301">
		<tag k="name" v="Lunderød" />
		<tag k="place" v="isolated_dwelling" />
		<tag k="ssr:stedsnr" v="638222" />
	</node>
	<node id="-305211" lat="58.7747111116" lon="8.49561944092">
		<tag k="name" v="Lillemo" />
		<tag k="place" v="farm" />
		<tag k="ssr:stedsnr" v="638195" />
	</node>
	<node id="-305210" lat="58.7690638885" lon="8.49045277632">
		<tag k="fixme" v="consider place=hamlet" />
		<tag k="name" v="Nergarden" />
		<tag k="place" v="farm" />
		<tag k="ssr:stedsnr" v="638193" />
	</node>
	<node id="-302772" lat="58.6896333324" lon="8.64420555672">
		<tag k="fixme" v="consider place=hamlet" />
		<tag k="name" v="Kleivane" />
		<tag k="place" v="farm" />
		<tag k="ssr:stedsnr" v="1881" />
	</node>
	<node id="-305201" lat="58.905447218" lon="8.54227499651">
		<tag k="name" v="Bua" />
		<tag k="place" v="locality" />
		<tag k="ssr:stedsnr" v="638046" />
	</node>
	<node id="-305190" lat="58.7756027803" lon="8.49691111506">
		<tag k="name" v="Lillemo" />
		<tag k="place" v="hamlet" />
		<tag k="ssr:stedsnr" v="637138" />
	</node>
	<node id="-303110" lat="58.9152277779" lon="8.58089166683">
		<tag k="name" v="Blekkbua" />
		<tag k="place" v="locality" />
		<tag k="ssr:stedsnr" v="92005" />
	</node>
	<node id="-305185" lat="58.8599472226" lon="8.32434443661">
		<tag k="name" v="Mosvald" />
		<tag k="place" v="hamlet" />
		<tag k="ssr:stedsnr" v="632358" />
	</node>
	<node id="-305184" lat="58.8194388928" lon="8.25779444146">
		<tag k="fixme" v="consider tourism=alpine_hut or tourism=chalet" />
		<tag k="name" v="Skarsvassbu" />
		<tag k="ssr:stedsnr" v="631313" />
		<tag k="tourism" v="wilderness_hut" />
	</node>
	<node id="-305172" lat="58.6711277803" lon="8.55847222338">
		<tag k="name" v="Mosberglia" />
		<tag k="place" v="isolated_dwelling" />
		<tag k="ssr:stedsnr" v="607906" />
	</node>
	<node id="-305169" lat="58.6937472265" lon="8.71259166696">
		<tag k="fixme" v="consider place=hamlet" />
		<tag k="name" v="Mosberg" />
		<tag k="place" v="farm" />
		<tag k="ssr:stedsnr" v="607890" />
	</node>
	<node id="-305168" lat="58.699722219" lon="8.59949444311">
		<tag k="name" v="Vik" />
		<tag k="place" v="farm" />
		<tag k="ssr:stedsnr" v="607883" />
	</node>
	<node id="-305166" lat="58.9758972262" lon="8.17906110319">
		<tag k="fixme" v="consider tourism=alpine_hut or tourism=chalet" />
		<tag k="name" v="Mjåvasshytta" />
		<tag k="ssr:stedsnr" v="607864" />
		<tag k="tourism" v="wilderness_hut" />
	</node>
	<node id="-305158" lat="58.8197666686" lon="8.54152499137">
		<tag k="name" v="Bjørnbakken" />
		<tag k="place" v="farm" />
		<tag k="ssr:stedsnr" v="607677" />
	</node>
</osm>
