<?xml version="1.0" encoding="UTF-8"?>
<osm generator="osmapis" version="0.6">
	<node id="-303081" lat="58.8779500016" lon="8.41676111178">
		<tag k="name" v="Reismyr" />
		<tag k="natural" v="wetland" />
		<tag k="ssr:stedsnr" v="62036" />
	</node>
	<node id="-305124" lat="58.7989138861" lon="8.40466110621">
		<tag k="name" v="Stormyra" />
		<tag k="natural" v="wetland" />
		<tag k="ssr:stedsnr" v="607153" />
	</node>
	<node id="-306334" lat="58.712088893" lon="8.50686388629">
		<tag k="name" v="Gyrosmyra" />
		<tag k="natural" v="wetland" />
		<tag k="ssr:stedsnr" v="821697" />
	</node>
	<node id="-301733" lat="58.7427166628" lon="8.58452500306">
		<tag k="name" v="Høgmyr" />
		<tag k="natural" v="wetland" />
		<tag k="ssr:stedsnr" v="274444" />
	</node>
	<node id="-306511" lat="58.8363888933" lon="8.57470555322">
		<tag k="alt_name" v="Fikkjebumyra" />
		<tag k="name" v="Fitjebumyra" />
		<tag k="natural" v="wetland" />
		<tag k="ssr:stedsnr" v="850631" />
	</node>
	<node id="-303060" lat="58.838577774" lon="8.63656666603">
		<tag k="name" v="Lunnekleivmyra" />
		<tag k="natural" v="wetland" />
		<tag k="ssr:stedsnr" v="61636" />
	</node>
	<node id="-302414" lat="58.831327782" lon="8.57914444272">
		<tag k="name" v="Våtmyr" />
		<tag k="natural" v="wetland" />
		<tag k="ssr:stedsnr" v="395440" />
	</node>
	<node id="-303245" lat="58.7353083321" lon="8.36373888341">
		<tag k="name" v="Bjørkhom-myra" />
		<tag k="natural" v="wetland" />
		<tag k="ssr:stedsnr" v="111379" />
	</node>
	<node id="-307144" lat="58.7478555532" lon="8.1486499947">
		<tag k="name" v="Hjuringkjarret" />
		<tag k="natural" v="wetland" />
		<tag k="ssr:stedsnr" v="962909" />
	</node>
	<node id="-305094" lat="58.7417833347" lon="8.18421665913">
		<tag k="name" v="Bjørnefjellheimyrane" />
		<tag k="natural" v="wetland" />
		<tag k="ssr:stedsnr" v="597905" />
	</node>
	<node id="-305093" lat="58.7916277775" lon="8.22951111783">
		<tag k="name" v="Lislemyr" />
		<tag k="natural" v="wetland" />
		<tag k="ssr:stedsnr" v="597902" />
	</node>
	<node id="-307140" lat="58.9662388929" lon="8.11694444429">
		<tag k="name" v="Viskorv" />
		<tag k="natural" v="wetland" />
		<tag k="ssr:stedsnr" v="962893" />
	</node>
	<node id="-305088" lat="58.7497833312" lon="8.39338888375">
		<tag k="name" v="Nordskogen" />
		<tag k="place" v="locality" />
		<tag k="ssr:stedsnr" v="597822" />
	</node>
	<node id="-307135" lat="58.8873777761" lon="8.25024722656">
		<tag k="name" v="Fjellsendmyra" />
		<tag k="natural" v="wetland" />
		<tag k="ssr:stedsnr" v="962704" />
	</node>
	<node id="-307130" lat="58.8240000039" lon="8.39483610897">
		<tag k="name" v="Stormyr" />
		<tag k="natural" v="wetland" />
		<tag k="ssr:stedsnr" v="962537" />
	</node>
	<node id="-305081" lat="58.8484333374" lon="8.30214721956">
		<tag k="name" v="Rotnemyr" />
		<tag k="natural" v="wetland" />
		<tag k="ssr:stedsnr" v="597697" />
	</node>
	<node id="-305080" lat="58.6876444448" lon="8.32576944959">
		<tag k="name" v="Botnen" />
		<tag k="natural" v="wetland" />
		<tag k="ssr:stedsnr" v="597687" />
	</node>
	<node id="-307127" lat="58.8463027778" lon="8.25491388745">
		<tag k="name" v="Brattekleivmyrane" />
		<tag k="natural" v="wetland" />
		<tag k="ssr:stedsnr" v="962320" />
	</node>
	<node id="-305896" lat="58.8518777739" lon="8.64453332746">
		<tag k="name" v="Raundalsmyra" />
		<tag k="natural" v="wetland" />
		<tag k="ssr:stedsnr" v="759184" />
	</node>
	<node id="-307121" lat="58.8729888891" lon="8.22146111674">
		<tag k="name" v="Fossmyrane" />
		<tag k="natural" v="wetland" />
		<tag k="ssr:stedsnr" v="962023" />
	</node>
	<node id="-303024" lat="58.8882000031" lon="8.27329444305">
		<tag k="name" v="Selsmyr" />
		<tag k="natural" v="wetland" />
		<tag k="ssr:stedsnr" v="52678" />
	</node>
	<node id="-302408" lat="58.7470805551" lon="8.56161389467">
		<tag k="name" v="Gunhildskjerr" />
		<tag k="natural" v="wetland" />
		<tag k="ssr:stedsnr" v="395400" />
	</node>
	<node id="-307116" lat="58.9675527792" lon="8.21161666756">
		<tag k="name" v="Skarkeslåttene" />
		<tag k="natural" v="wetland" />
		<tag k="ssr:stedsnr" v="961959" />
	</node>
	<node id="-307112" lat="58.7676888872" lon="8.42354999785">
		<tag k="name" v="Trettekjerret" />
		<tag k="natural" v="wetland" />
		<tag k="ssr:stedsnr" v="961889" />
	</node>
	<node id="-303012" lat="58.8800638864" lon="8.25358888708">
		<tag k="name" v="Surtemyr" />
		<tag k="natural" v="wetland" />
		<tag k="ssr:stedsnr" v="52006" />
	</node>
	<node id="-301723" lat="58.6913055553" lon="8.49241665852">
		<tag k="name" v="Teinebekksteane" />
		<tag k="natural" v="wetland" />
		<tag k="ssr:stedsnr" v="274365" />
	</node>
	<node id="-305056" lat="58.7305444438" lon="8.25161111593">
		<tag k="name" v="Storrslåttkrona" />
		<tag k="natural" v="wetland" />
		<tag k="ssr:stedsnr" v="597527" />
	</node>
	<node id="-305055" lat="58.8230500025" lon="8.42817499347">
		<tag k="name" v="Høgmyr" />
		<tag k="natural" v="wetland" />
		<tag k="ssr:stedsnr" v="597504" />
	</node>
	<node id="-305054" lat="58.7230388872" lon="8.24306388824">
		<tag k="name" v="Sjøllaugsmyr" />
		<tag k="natural" v="wetland" />
		<tag k="ssr:stedsnr" v="597496" />
	</node>
	<node id="-305053" lat="58.7238805513" lon="8.24873888096">
		<tag k="name" v="Fikjemyrane" />
		<tag k="natural" v="wetland" />
		<tag k="ssr:stedsnr" v="597494" />
	</node>
	<node id="-307100" lat="58.7007000024" lon="8.313463881">
		<tag k="name" v="Kilkjerret" />
		<tag k="natural" v="wetland" />
		<tag k="ssr:stedsnr" v="961702" />
	</node>
	<node id="-302998" lat="58.7495916662" lon="8.42050834">
		<tag k="name" v="Storemyr" />
		<tag k="natural" v="wetland" />
		<tag k="ssr:stedsnr" v="51839" />
	</node>
	<node id="-307093" lat="58.8507333329" lon="8.40152777345">
		<tag k="name" v="Grendalsmyrane" />
		<tag k="natural" v="wetland" />
		<tag k="ssr:stedsnr" v="961670" />
	</node>
	<node id="-302995" lat="58.8147138854" lon="8.16058055725">
		<tag k="name" v="Stigemyr" />
		<tag k="natural" v="wetland" />
		<tag k="ssr:stedsnr" v="51764" />
	</node>
	<node id="-307090" lat="58.8493083377" lon="8.34458610353">
		<tag k="name" v="Saurbekkflota" />
		<tag k="natural" v="wetland" />
		<tag k="ssr:stedsnr" v="961660" />
	</node>
	<node id="-305038" lat="58.8912166637" lon="8.49072778411">
		<tag k="name" v="Malvassmyra" />
		<tag k="natural" v="wetland" />
		<tag k="ssr:stedsnr" v="597243" />
	</node>
	<node id="-307081" lat="58.781352781" lon="8.04326389553">
		<tag k="name" v="Moltekjærslåtta" />
		<tag k="natural" v="wetland" />
		<tag k="ssr:stedsnr" v="961610" />
	</node>
	<node id="-307080" lat="58.7897944437" lon="8.03719722064">
		<tag k="name" v="Smislåtta" />
		<tag k="natural" v="wetland" />
		<tag k="ssr:stedsnr" v="961600" />
	</node>
	<node id="-307078" lat="58.8658972186" lon="8.4039611163">
		<tag k="name" v="Leppeslått" />
		<tag k="natural" v="wetland" />
		<tag k="ssr:stedsnr" v="961442" />
	</node>
	<node id="-307077" lat="58.8641277762" lon="8.41030277855">
		<tag k="name" v="Viemyr" />
		<tag k="natural" v="wetland" />
		<tag k="ssr:stedsnr" v="961440" />
	</node>
	<node id="-307074" lat="58.76342778" lon="8.25941389694">
		<tag k="name" v="Kjerret" />
		<tag k="natural" v="wetland" />
		<tag k="ssr:stedsnr" v="961410" />
	</node>
	<node id="-302973" lat="58.7867027734" lon="8.0455805494">
		<tag k="name" v="Pråmmyr" />
		<tag k="natural" v="wetland" />
		<tag k="ssr:stedsnr" v="51616" />
	</node>
	<node id="-302972" lat="58.710633331" lon="8.32096666559">
		<tag k="name" v="Nipemyrane" />
		<tag k="natural" v="wetland" />
		<tag k="ssr:stedsnr" v="51617" />
	</node>
	<node id="-307067" lat="58.7715083349" lon="8.22856665944">
		<tag k="name" v="Grustelimyra" />
		<tag k="natural" v="wetland" />
		<tag k="ssr:stedsnr" v="961395" />
	</node>
	<node id="-305018" lat="58.7409750019" lon="8.08751111396">
		<tag k="name" v="Store-myr" />
		<tag k="natural" v="wetland" />
		<tag k="ssr:stedsnr" v="596855" />
	</node>
	<node id="-307063" lat="58.944708335" lon="8.20737222095">
		<tag k="name" v="Husbakkmyra" />
		<tag k="natural" v="wetland" />
		<tag k="ssr:stedsnr" v="961242" />
	</node>
	<node id="-302966" lat="58.8633666672" lon="8.38663054886">
		<tag k="name" v="Palsmoget" />
		<tag k="place" v="locality" />
		<tag k="ssr:stedsnr" v="51478" />
	</node>
	<node id="-305012" lat="58.7410111129" lon="8.38313055998">
		<tag k="name" v="Matknapp" />
		<tag k="place" v="locality" />
		<tag k="ssr:stedsnr" v="596364" />
	</node>
	<node id="-307053" lat="58.7911722255" lon="8.46756945082">
		<tag k="name" v="Nutemyra" />
		<tag k="natural" v="wetland" />
		<tag k="ssr:stedsnr" v="961092" />
	</node>
	<node id="-305003" lat="58.9432277779" lon="8.13355832787">
		<tag k="name" v="Urdine" />
		<tag k="natural" v="scree" />
		<tag k="ssr:stedsnr" v="596221" />
	</node>
	<node id="-301713" lat="58.6961611076" lon="8.42951111928">
		<tag k="name" v="Orreholta" />
		<tag k="place" v="locality" />
		<tag k="ssr:stedsnr" v="274298" />
	</node>
	<node id="-304989" lat="58.8301000007" lon="8.17550833296">
		<tag k="name" v="Ånonstein" />
		<tag k="natural" v="stone" />
		<tag k="ssr:stedsnr" v="595645" />
	</node>
	<node id="-304761" lat="58.6753111149" lon="8.45258888421">
		<tag k="name" v="Surpedalsmyra" />
		<tag k="natural" v="wetland" />
		<tag k="ssr:stedsnr" v="546270" />
	</node>
	<node id="-303564" lat="58.8132083333" lon="8.26085555055">
		<tag k="name" v="Geitaugskjerr" />
		<tag k="natural" v="wetland" />
		<tag k="ssr:stedsnr" v="172628" />
	</node>
	<node id="-302936" lat="58.8278166638" lon="8.0696888846">
		<tag k="name" v="Håvarkjerret" />
		<tag k="natural" v="wetland" />
		<tag k="ssr:stedsnr" v="50892" />
	</node>
	<node id="-302933" lat="58.784824997" lon="8.1857444372">
		<tag k="name" v="Hestemyr" />
		<tag k="natural" v="wetland" />
		<tag k="ssr:stedsnr" v="50600" />
	</node>
	<node id="-302932" lat="58.7341444485" lon="8.38002221475">
		<tag k="name" v="Bjørndalskjærret" />
		<tag k="natural" v="wetland" />
		<tag k="ssr:stedsnr" v="50391" />
	</node>
	<node id="-302929" lat="58.8048166682" lon="8.17367222708">
		<tag k="name" v="Digrevoll" />
		<tag k="place" v="locality" />
		<tag k="ssr:stedsnr" v="50289" />
	</node>
	<node id="-304970" lat="58.9316583365" lon="8.29719999611">
		<tag k="name" v="Bekkelhommane" />
		<tag k="natural" v="wetland" />
		<tag k="ssr:stedsnr" v="591312" />
	</node>
	<node id="-304965" lat="58.8274083364" lon="8.30015555305">
		<tag k="name" v="Dyplemyrane" />
		<tag k="natural" v="wetland" />
		<tag k="ssr:stedsnr" v="584749" />
	</node>
	<node id="-307007" lat="58.6482249976" lon="8.74249722886">
		<tag k="name" v="Venmyr" />
		<tag k="natural" v="wetland" />
		<tag k="ssr:stedsnr" v="954963" />
	</node>
	<node id="-304957" lat="58.831016663" lon="8.35683333951">
		<tag k="name" v="Høymyr" />
		<tag k="natural" v="wetland" />
		<tag k="ssr:stedsnr" v="583729" />
	</node>
	<node id="-307003" lat="58.6426000003" lon="8.72179166898">
		<tag k="name" v="Langmyr" />
		<tag k="natural" v="wetland" />
		<tag k="ssr:stedsnr" v="954806" />
	</node>
	<node id="-304949" lat="58.6955055539" lon="8.70883333077">
		<tag k="name" v="Sagdammen" />
		<tag k="natural" v="wetland" />
		<tag k="ssr:stedsnr" v="578534" />
	</node>
	<node id="-304948" lat="58.6696277812" lon="8.7218916655">
		<tag k="name" v="Røykjerr" />
		<tag k="natural" v="wetland" />
		<tag k="ssr:stedsnr" v="578529" />
	</node>
	<node id="-304946" lat="58.7004277776" lon="8.62321667239">
		<tag k="name" v="Libumyra" />
		<tag k="natural" v="wetland" />
		<tag k="ssr:stedsnr" v="578509" />
	</node>
	<node id="-304944" lat="58.7135000013" lon="8.62845833869">
		<tag k="name" v="Kilvollen" />
		<tag k="place" v="locality" />
		<tag k="ssr:stedsnr" v="578485" />
	</node>
	<node id="-306991" lat="58.787922226" lon="8.45035556004">
		<tag k="name" v="Pålen i myra" />
		<tag k="natural" v="wetland" />
		<tag k="ssr:stedsnr" v="948091" />
	</node>
	<node id="-304941" lat="58.6974388924" lon="8.37872222437">
		<tag k="name" v="Tomannsslåtten" />
		<tag k="natural" v="wetland" />
		<tag k="ssr:stedsnr" v="578388" />
	</node>
	<node id="-304940" lat="58.6981000031" lon="8.38018888172">
		<tag k="name" v="Flæra" />
		<tag k="place" v="locality" />
		<tag k="ssr:stedsnr" v="578387" />
	</node>
	<node id="-304939" lat="58.6906000027" lon="8.36883611471">
		<tag k="name" v="Myrane" />
		<tag k="natural" v="wetland" />
		<tag k="ssr:stedsnr" v="578386" />
	</node>
	<node id="-306986" lat="58.7169861073" lon="8.33159722387">
		<tag k="name" v="Selbergtjønnmyra" />
		<tag k="natural" v="wetland" />
		<tag k="ssr:stedsnr" v="943493" />
	</node>
	<node id="-304937" lat="58.7104472198" lon="8.37851666406">
		<tag k="name" v="Jamvåg" />
		<tag k="place" v="locality" />
		<tag k="ssr:stedsnr" v="578375" />
	</node>
	<node id="-306984" lat="58.6982833335" lon="8.37151944742">
		<tag k="name" v="Torvmyra" />
		<tag k="natural" v="wetland" />
		<tag k="ssr:stedsnr" v="943429" />
	</node>
	<node id="-306982" lat="58.6957833355" lon="8.34639166016">
		<tag k="name" v="Tjønnmyr" />
		<tag k="natural" v="wetland" />
		<tag k="ssr:stedsnr" v="943421" />
	</node>
	<node id="-304932" lat="58.7151694418" lon="8.36435555083">
		<tag k="name" v="Plassmyrane" />
		<tag k="natural" v="wetland" />
		<tag k="ssr:stedsnr" v="578360" />
	</node>
	<node id="-306979" lat="58.7200666664" lon="8.38477499991">
		<tag k="name" v="Øvre Bronmyra" />
		<tag k="natural" v="wetland" />
		<tag k="ssr:stedsnr" v="943405" />
	</node>
	<node id="-302880" lat="58.7160500012" lon="8.44293888569">
		<tag k="name" v="Rønningsmyr" />
		<tag k="natural" v="wetland" />
		<tag k="ssr:stedsnr" v="32599" />
	</node>
	<node id="-302879" lat="58.6348777819" lon="8.71149167138">
		<tag k="name" v="Tverrmyr" />
		<tag k="natural" v="wetland" />
		<tag k="ssr:stedsnr" v="32589" />
	</node>
	<node id="-306974" lat="58.6740777788" lon="8.645480563">
		<tag k="name" v="Krokmyr" />
		<tag k="natural" v="wetland" />
		<tag k="ssr:stedsnr" v="942771" />
	</node>
	<node id="-306973" lat="58.6804388908" lon="8.62287500149">
		<tag k="name" v="Skarkemyrene" />
		<tag k="natural" v="wetland" />
		<tag k="ssr:stedsnr" v="942769" />
	</node>
	<node id="-302876" lat="58.7496833305" lon="8.50781111685">
		<tag k="name" v="Raudfet" />
		<tag k="natural" v="wetland" />
		<tag k="ssr:stedsnr" v="32559" />
	</node>
	<node id="-304090" lat="58.759227777" lon="8.11133610538">
		<tag k="name" v="Stigholta" />
		<tag k="place" v="locality" />
		<tag k="ssr:stedsnr" v="415199" />
	</node>
	<node id="-304922" lat="58.673711114" lon="8.38469721737">
		<tag k="name" v="Fossmyr" />
		<tag k="natural" v="wetland" />
		<tag k="ssr:stedsnr" v="578272" />
	</node>
	<node id="-302873" lat="58.7533027823" lon="8.5479388928">
		<tag k="name" v="Hollimyra" />
		<tag k="natural" v="wetland" />
		<tag k="ssr:stedsnr" v="32551" />
	</node>
	<node id="-302871" lat="58.7013222263" lon="8.70958333469">
		<tag k="name" v="Østre Diplemyr" />
		<tag k="natural" v="wetland" />
		<tag k="ssr:stedsnr" v="32520" />
	</node>
	<node id="-306966" lat="58.7326694444" lon="8.60068055876">
		<tag k="name" v="Venlimyra" />
		<tag k="natural" v="wetland" />
		<tag k="ssr:stedsnr" v="942682" />
	</node>
	<node id="-302869" lat="58.6940305588" lon="8.62140555106">
		<tag k="name" v="Stemmekjerr" />
		<tag k="natural" v="wetland" />
		<tag k="ssr:stedsnr" v="32508" />
	</node>
	<node id="-306964" lat="58.721674999" lon="8.59979166894">
		<tag k="name" v="Geitstølmyra" />
		<tag k="natural" v="wetland" />
		<tag k="ssr:stedsnr" v="942678" />
	</node>
	<node id="-306963" lat="58.7236444406" lon="8.55843611192">
		<tag k="name" v="Klappmyra" />
		<tag k="natural" v="wetland" />
		<tag k="ssr:stedsnr" v="942676" />
	</node>
	<node id="-304914" lat="58.7124472207" lon="8.53473611112">
		<tag k="name" v="Kleivslåtta" />
		<tag k="natural" v="wetland" />
		<tag k="ssr:stedsnr" v="577663" />
	</node>
	<node id="-302864" lat="58.6738222249" lon="8.67980277442">
		<tag k="name" v="Langmyrsteene" />
		<tag k="natural" v="wetland" />
		<tag k="ssr:stedsnr" v="32472" />
	</node>
	<node id="-306959" lat="58.7288222243" lon="8.54993333935">
		<tag k="name" v="Røyfjellmyra" />
		<tag k="natural" v="wetland" />
		<tag k="ssr:stedsnr" v="942656" />
	</node>
	<node id="-306957" lat="58.7297027791" lon="8.44199165826">
		<tag k="name" v="Momyr" />
		<tag k="natural" v="wetland" />
		<tag k="ssr:stedsnr" v="942642" />
	</node>
	<node id="-304907" lat="58.7383916704" lon="8.53315278105">
		<tag k="name" v="Kolsåsmyrane" />
		<tag k="natural" v="wetland" />
		<tag k="ssr:stedsnr" v="577605" />
	</node>
	<node id="-304905" lat="58.7077416652" lon="8.63243889712">
		<tag k="name" v="Langkjerr" />
		<tag k="natural" v="wetland" />
		<tag k="ssr:stedsnr" v="577539" />
	</node>
	<node id="-304903" lat="58.7190444447" lon="8.6209777752">
		<tag k="name" v="Brustea" />
		<tag k="natural" v="wetland" />
		<tag k="ssr:stedsnr" v="577534" />
	</node>
	<node id="-306950" lat="58.6953166703" lon="8.55472222653">
		<tag k="name" v="Lauvhellermyra" />
		<tag k="natural" v="wetland" />
		<tag k="ssr:stedsnr" v="942575" />
	</node>
	<node id="-302853" lat="58.7293694437" lon="8.36229722545">
		<tag k="name" v="Eikbrekkmyra" />
		<tag k="natural" v="wetland" />
		<tag k="ssr:stedsnr" v="32358" />
	</node>
	<node id="-306948" lat="58.7039416677" lon="8.5521388968">
		<tag k="name" v="Takholtet" />
		<tag k="place" v="locality" />
		<tag k="ssr:stedsnr" v="942570" />
	</node>
	<node id="-304899" lat="58.7950472206" lon="8.58150000331">
		<tag k="name" v="Kaldgrautstea" />
		<tag k="natural" v="wetland" />
		<tag k="ssr:stedsnr" v="577492" />
	</node>
	<node id="-306945" lat="58.6894833358" lon="8.72536111837">
		<tag k="name" v="Stembrumyra" />
		<tag k="natural" v="wetland" />
		<tag k="ssr:stedsnr" v="942543" />
	</node>
	<node id="-304895" lat="58.8006722239" lon="8.54851389465">
		<tag k="name" v="Tellefsmyr" />
		<tag k="natural" v="wetland" />
		<tag k="ssr:stedsnr" v="577470" />
	</node>
	<node id="-306942" lat="58.6916083311" lon="8.61890555406">
		<tag k="name" v="Venlimyra" />
		<tag k="natural" v="wetland" />
		<tag k="ssr:stedsnr" v="942525" />
	</node>
	<node id="-304892" lat="58.8335361143" lon="8.57315834126">
		<tag k="name" v="Feta" />
		<tag k="natural" v="wetland" />
		<tag k="ssr:stedsnr" v="577443" />
	</node>
	<node id="-306939" lat="58.6612944422" lon="8.70470833621">
		<tag k="name" v="Hestemyr" />
		<tag k="natural" v="wetland" />
		<tag k="ssr:stedsnr" v="942487" />
	</node>
	<node id="-306937" lat="58.6561472258" lon="8.70943889733">
		<tag k="name" v="Snikkermyr" />
		<tag k="natural" v="wetland" />
		<tag k="ssr:stedsnr" v="942482" />
	</node>
	<node id="-304888" lat="58.7718611129" lon="8.57606943856">
		<tag k="name" v="Langemyr" />
		<tag k="natural" v="wetland" />
		<tag k="ssr:stedsnr" v="577374" />
	</node>
	<node id="-302838" lat="58.7438138926" lon="8.46894999943">
		<tag k="name" v="Sikle" />
		<tag k="place" v="locality" />
		<tag k="ssr:stedsnr" v="31662" />
	</node>
	<node id="-302836" lat="58.7411638928" lon="8.46660832659">
		<tag k="name" v="Hegrelunden" />
		<tag k="place" v="locality" />
		<tag k="ssr:stedsnr" v="31656" />
	</node>
	<node id="-306931" lat="58.6894666656" lon="8.53762499505">
		<tag k="name" v="Høydalsmyrene" />
		<tag k="natural" v="wetland" />
		<tag k="ssr:stedsnr" v="942419" />
	</node>
	<node id="-302833" lat="58.694450001" lon="8.5701555489">
		<tag k="name" v="Vehusdalsmyrene" />
		<tag k="natural" v="wetland" />
		<tag k="ssr:stedsnr" v="31596" />
	</node>
	<node id="-304878" lat="58.6769499979" lon="8.64133611649">
		<tag k="name" v="Tjønnfly" />
		<tag k="natural" v="wetland" />
		<tag k="ssr:stedsnr" v="577223" />
	</node>
	<node id="-304877" lat="58.6848472194" lon="8.64865276983">
		<tag k="name" v="Lindemyr" />
		<tag k="natural" v="wetland" />
		<tag k="ssr:stedsnr" v="577218" />
	</node>
	<node id="-302828" lat="58.8199000004" lon="8.5358388967">
		<tag k="name" v="Langekjerr" />
		<tag k="natural" v="wetland" />
		<tag k="ssr:stedsnr" v="31434" />
	</node>
	<node id="-301893" lat="58.9695027804" lon="8.13212777994">
		<tag k="name" v="Bratteslåtta" />
		<tag k="natural" v="wetland" />
		<tag k="ssr:stedsnr" v="294899" />
	</node>
	<node id="-304874" lat="58.6729472228" lon="8.65112500698">
		<tag k="name" v="Bjørkholtmyrene" />
		<tag k="natural" v="wetland" />
		<tag k="ssr:stedsnr" v="577213" />
	</node>
	<node id="-306918" lat="58.6978166653" lon="8.4269722197">
		<tag k="name" v="Orregardsmyra" />
		<tag k="natural" v="wetland" />
		<tag k="ssr:stedsnr" v="942300" />
	</node>
	<node id="-306914" lat="58.6369194471" lon="8.44678333119">
		<tag k="name" v="Tjovmyr" />
		<tag k="natural" v="wetland" />
		<tag k="ssr:stedsnr" v="942275" />
	</node>
	<node id="-304861" lat="58.7789166687" lon="8.62636944699">
		<tag k="name" v="Byttingsmyr" />
		<tag k="natural" v="wetland" />
		<tag k="ssr:stedsnr" v="577129" />
	</node>
	<node id="-301690" lat="58.8111305552" lon="8.61378333896">
		<tag k="name" v="Djuptjønnsteane" />
		<tag k="natural" v="wetland" />
		<tag k="ssr:stedsnr" v="274099" />
	</node>
	<node id="-304858" lat="58.8323500006" lon="8.62499722046">
		<tag k="name" v="Øyvassmyrane" />
		<tag k="natural" v="wetland" />
		<tag k="ssr:stedsnr" v="577095" />
	</node>
	<node id="-302809" lat="58.7606861093" lon="8.52219165853">
		<tag k="name" v="Lomsmyrkroken" />
		<tag k="natural" v="wetland" />
		<tag k="ssr:stedsnr" v="31236" />
	</node>
	<node id="-304856" lat="58.853074996" lon="8.62047777589">
		<tag k="name" v="Storsteane" />
		<tag k="natural" v="wetland" />
		<tag k="ssr:stedsnr" v="577083" />
	</node>
	<node id="-304855" lat="58.8300999984" lon="8.70144444294">
		<tag k="name" v="Hågmyr" />
		<tag k="natural" v="wetland" />
		<tag k="ssr:stedsnr" v="577077" />
	</node>
	<node id="-304854" lat="58.8257666701" lon="8.68396111176">
		<tag k="name" v="Bjørkholtslåtta" />
		<tag k="natural" v="wetland" />
		<tag k="ssr:stedsnr" v="577074" />
	</node>
	<node id="-306901" lat="58.675863888" lon="8.65487499191">
		<tag k="name" v="Såtmyr" />
		<tag k="natural" v="wetland" />
		<tag k="ssr:stedsnr" v="942179" />
	</node>
	<node id="-306900" lat="58.7490111072" lon="8.47161388605">
		<tag k="name" v="Rislandsfeta" />
		<tag k="place" v="locality" />
		<tag k="ssr:stedsnr" v="942169" />
	</node>
	<node id="-302803" lat="58.761224998" lon="8.56731388538">
		<tag k="name" v="Ulldalsmyra" />
		<tag k="natural" v="wetland" />
		<tag k="ssr:stedsnr" v="31358" />
	</node>
	<node id="-306898" lat="58.8504944447" lon="8.65777221837">
		<tag k="name" v="Plassmyra" />
		<tag k="natural" v="wetland" />
		<tag k="ssr:stedsnr" v="942155" />
	</node>
	<node id="-306897" lat="58.8960555548" lon="8.60928333114">
		<tag k="name" v="Stokksvasskjerret" />
		<tag k="natural" v="wetland" />
		<tag k="ssr:stedsnr" v="942146" />
	</node>
	<node id="-302800" lat="58.7771499969" lon="8.53896111067">
		<tag k="name" v="Stemste" />
		<tag k="natural" v="wetland" />
		<tag k="ssr:stedsnr" v="31143" />
	</node>
	<node id="-306894" lat="58.8260111112" lon="8.72121944168">
		<tag k="name" v="Kragslåtta" />
		<tag k="natural" v="wetland" />
		<tag k="ssr:stedsnr" v="942133" />
	</node>
	<node id="-304845" lat="58.7562166692" lon="8.61467778081">
		<tag k="name" v="Stavvassmyrane" />
		<tag k="natural" v="wetland" />
		<tag k="ssr:stedsnr" v="577011" />
	</node>
	<node id="-306891" lat="58.79584167" lon="8.642844442">
		<tag k="name" v="Olavskjerr" />
		<tag k="natural" v="wetland" />
		<tag k="ssr:stedsnr" v="942096" />
	</node>
	<node id="-306890" lat="58.7837222251" lon="8.64528055103">
		<tag k="name" v="Storrmyra" />
		<tag k="natural" v="wetland" />
		<tag k="ssr:stedsnr" v="942088" />
	</node>
	<node id="-306889" lat="58.7869777772" lon="8.65970833822">
		<tag k="name" v="Halvorsmyr" />
		<tag k="natural" v="wetland" />
		<tag k="ssr:stedsnr" v="942084" />
	</node>
	<node id="-306884" lat="58.8331527783" lon="8.65583611771">
		<tag k="name" v="Store Haukedalsmyra" />
		<tag k="natural" v="wetland" />
		<tag k="ssr:stedsnr" v="942057" />
	</node>
	<node id="-302785" lat="58.868661115" lon="8.61583611214">
		<tag k="name" v="Koparmyr" />
		<tag k="natural" v="wetland" />
		<tag k="ssr:stedsnr" v="31161" />
	</node>
	<node id="-301685" lat="58.8578750035" lon="8.62712222372">
		<tag k="name" v="Geiborgsmyr" />
		<tag k="natural" v="wetland" />
		<tag k="ssr:stedsnr" v="274069" />
	</node>
	<node id="-304551" lat="58.6929083372" lon="8.45185833549">
		<tag k="name" v="Finngrova" />
		<tag k="natural" v="wetland" />
		<tag k="ssr:stedsnr" v="517393" />
	</node>
	<node id="-306873" lat="58.7655750031" lon="8.61669166061">
		<tag k="name" v="Sniglestadmyra" />
		<tag k="natural" v="wetland" />
		<tag k="ssr:stedsnr" v="942009" />
	</node>
	<node id="-301684" lat="58.9005305514" lon="8.53990833829">
		<tag k="name" v="Tobakkskjerret" />
		<tag k="natural" v="wetland" />
		<tag k="ssr:stedsnr" v="274042" />
	</node>
	<node id="-302765" lat="58.8127444421" lon="8.54706667444">
		<tag k="alt_name" v="Blautmyr" />
		<tag k="name" v="Breidmyr" />
		<tag k="natural" v="wetland" />
		<tag k="ssr:stedsnr" v="1670" />
	</node>
	<node id="-306856" lat="58.684805558" lon="8.49449444887">
		<tag k="name" v="Eikelimyrane" />
		<tag k="natural" v="wetland" />
		<tag k="ssr:stedsnr" v="911861" />
	</node>
	<node id="-304805" lat="58.7651472214" lon="8.23080832812">
		<tag k="name" v="Kongsskogen" />
		<tag k="place" v="locality" />
		<tag k="ssr:stedsnr" v="547225" />
	</node>
	<node id="-306849" lat="58.8629805555" lon="8.66741667372">
		<tag k="alt_name" v="Drangsmyrane" />
		<tag k="name" v="Drangsmyra" />
		<tag k="natural" v="wetland" />
		<tag k="ssr:stedsnr" v="911716" />
	</node>
	<node id="-305635" lat="58.839772221" lon="8.39521944482">
		<tag k="name" v="Snømyr" />
		<tag k="natural" v="wetland" />
		<tag k="ssr:stedsnr" v="706694" />
	</node>
	<node id="-304209" lat="58.9042777757" lon="8.29533333834">
		<tag k="name" v="Ratemyr" />
		<tag k="natural" v="wetland" />
		<tag k="ssr:stedsnr" v="426045" />
	</node>
	<node id="-304794" lat="58.7044333378" lon="8.52891944635">
		<tag k="alt_name" v="Negardsmyrene" />
		<tag k="name" v="Gurosmyrane" />
		<tag k="natural" v="wetland" />
		<tag k="ssr:stedsnr" v="547104" />
	</node>
	<node id="-305092" lat="58.9646166696" lon="8.12731666505">
		<tag k="name" v="Svarthylslåtta" />
		<tag k="natural" v="wetland" />
		<tag k="ssr:stedsnr" v="597903" />
	</node>
	<node id="-306832" lat="58.7037027806" lon="8.33229721581">
		<tag k="name" v="Dølevassmyrane" />
		<tag k="natural" v="wetland" />
		<tag k="ssr:stedsnr" v="911463" />
	</node>
	<node id="-304140" lat="58.7508472266" lon="8.42144166335">
		<tag k="name" v="Sjølskottstea" />
		<tag k="natural" v="wetland" />
		<tag k="ssr:stedsnr" v="415834" />
	</node>
	<node id="-301777" lat="58.8086111113" lon="8.40661667315">
		<tag k="name" v="Flatland" />
		<tag k="natural" v="wetland" />
		<tag k="ssr:stedsnr" v="281421" />
	</node>
	<node id="-305087" lat="58.741925002" lon="8.42084722849">
		<tag k="name" v="Øygardsteane" />
		<tag k="natural" v="wetland" />
		<tag k="ssr:stedsnr" v="597811" />
	</node>
	<node id="-304760" lat="58.7816611114" lon="8.38376389364">
		<tag k="alt_name" v="Saumyra" />
		<tag k="name" v="Saumyr" />
		<tag k="natural" v="wetland" />
		<tag k="ssr:stedsnr" v="546227" />
	</node>
	<node id="-302703" lat="58.7480583339" lon="8.31796944028">
		<tag k="name" v="Selbergstean" />
		<tag k="natural" v="wetland" />
		<tag k="ssr:stedsnr" v="413" />
	</node>
	<node id="-302013" lat="58.7567527817" lon="8.54237778539">
		<tag k="name" v="Grandalsmyra" />
		<tag k="natural" v="wetland" />
		<tag k="ssr:stedsnr" v="335206" />
	</node>
	<node id="-304742" lat="58.7461638908" lon="8.14265000251">
		<tag k="name" v="Moltmyr" />
		<tag k="natural" v="wetland" />
		<tag k="ssr:stedsnr" v="537901" />
	</node>
	<node id="-304741" lat="58.7421055549" lon="8.11886389468">
		<tag k="name" v="Kortane" />
		<tag k="place" v="locality" />
		<tag k="ssr:stedsnr" v="537897" />
	</node>
	<node id="-304735" lat="58.7395638916" lon="8.41117499247">
		<tag k="name" v="Veummyr" />
		<tag k="natural" v="wetland" />
		<tag k="ssr:stedsnr" v="537783" />
	</node>
	<node id="-302010" lat="58.672102777" lon="8.64656388174">
		<tag k="name" v="Lyngmyr" />
		<tag k="natural" v="wetland" />
		<tag k="ssr:stedsnr" v="335179" />
	</node>
	<node id="-306778" lat="58.8743833332" lon="8.263180562">
		<tag k="name" v="Mjålandsmyrane" />
		<tag k="natural" v="wetland" />
		<tag k="ssr:stedsnr" v="911013" />
	</node>
	<node id="-304729" lat="58.8943500026" lon="8.29703611579">
		<tag k="name" v="Dæknesteinane" />
		<tag k="natural" v="stone" />
		<tag k="ssr:stedsnr" v="537618" />
	</node>
	<node id="-304727" lat="58.852152776" lon="8.3756805544">
		<tag k="name" v="Fjorungsteinen" />
		<tag k="natural" v="stone" />
		<tag k="ssr:stedsnr" v="537608" />
	</node>
	<node id="-304722" lat="58.7183083377" lon="8.24499722856">
		<tag k="name" v="Sundsfit" />
		<tag k="natural" v="wetland" />
		<tag k="ssr:stedsnr" v="537507" />
	</node>
	<node id="-306768" lat="58.7454416649" lon="8.21118889664">
		<tag k="name" v="Bjørnholmyra" />
		<tag k="natural" v="wetland" />
		<tag k="ssr:stedsnr" v="901917" />
	</node>
	<node id="-303032" lat="58.8132833352" lon="8.28302499834">
		<tag k="name" v="Skrubbeslåttane" />
		<tag k="natural" v="wetland" />
		<tag k="ssr:stedsnr" v="52955" />
	</node>
	<node id="-306766" lat="58.9655111094" lon="8.13381111626">
		<tag k="name" v="Vervoldmyra" />
		<tag k="natural" v="wetland" />
		<tag k="ssr:stedsnr" v="901903" />
	</node>
	<node id="-303729" lat="58.7015361132" lon="8.67207500015">
		<tag k="name" v="Krokmyr" />
		<tag k="natural" v="wetland" />
		<tag k="ssr:stedsnr" v="183905" />
	</node>
	<node id="-306762" lat="58.764863885" lon="8.39663889221">
		<tag k="name" v="Storlislåtten" />
		<tag k="natural" v="wetland" />
		<tag k="ssr:stedsnr" v="901857" />
	</node>
	<node id="-304713" lat="58.8476833309" lon="8.24559167391">
		<tag k="name" v="Sundsmyra" />
		<tag k="natural" v="wetland" />
		<tag k="ssr:stedsnr" v="537343" />
	</node>
	<node id="-306760" lat="58.7871611125" lon="8.23155556372">
		<tag k="name" v="Lyngmyra" />
		<tag k="natural" v="wetland" />
		<tag k="ssr:stedsnr" v="901786" />
	</node>
	<node id="-302660" lat="58.8128638902" lon="8.46332777862">
		<tag k="name" v="Suklesteinen" />
		<tag k="natural" v="stone" />
		<tag k="ssr:stedsnr" v="888347" />
	</node>
	<node id="-302658" lat="58.8015750031" lon="8.39630278421">
		<tag k="name" v="Kalddalsmyr" />
		<tag k="natural" v="wetland" />
		<tag k="ssr:stedsnr" v="888343" />
	</node>
	<node id="-306753" lat="58.698555553" lon="8.31817777892">
		<tag k="name" v="Kilmyrane" />
		<tag k="natural" v="wetland" />
		<tag k="ssr:stedsnr" v="901686" />
	</node>
	<node id="-302655" lat="58.8054694463" lon="8.33860277642">
		<tag k="name" v="Varslått" />
		<tag k="natural" v="wetland" />
		<tag k="ssr:stedsnr" v="887833" />
	</node>
	<node id="-306749" lat="58.8911222224" lon="8.27791389299">
		<tag k="name" v="Gjeitura" />
		<tag k="natural" v="scree" />
		<tag k="ssr:stedsnr" v="901655" />
	</node>
	<node id="-302652" lat="58.9036750014" lon="8.28316667378">
		<tag k="name" v="Tjøregråmyra" />
		<tag k="natural" v="wetland" />
		<tag k="ssr:stedsnr" v="887669" />
	</node>
	<node id="-304699" lat="58.7702111071" lon="8.0890555553">
		<tag k="name" v="Hestkleiva-myra" />
		<tag k="natural" v="wetland" />
		<tag k="ssr:stedsnr" v="536998" />
	</node>
	<node id="-306743" lat="58.7220638923" lon="8.29814444893">
		<tag k="name" v="Dyrka myra" />
		<tag k="natural" v="wetland" />
		<tag k="ssr:stedsnr" v="901610" />
	</node>
	<node id="-302646" lat="58.7572333374" lon="8.33972500009">
		<tag k="name" v="Jamvåg" />
		<tag k="place" v="locality" />
		<tag k="ssr:stedsnr" v="887135" />
	</node>
	<node id="-304692" lat="58.7725361104" lon="8.4252833317">
		<tag k="name" v="Bjørkekjerra" />
		<tag k="natural" v="wetland" />
		<tag k="ssr:stedsnr" v="536871" />
	</node>
	<node id="-304691" lat="58.7756194412" lon="8.39731666942">
		<tag k="name" v="Rennriksmyrane" />
		<tag k="natural" v="wetland" />
		<tag k="ssr:stedsnr" v="536820" />
	</node>
	<node id="-302642" lat="58.7291361082" lon="8.35450555941">
		<tag k="name" v="Orremyr" />
		<tag k="natural" v="wetland" />
		<tag k="ssr:stedsnr" v="882420" />
	</node>
	<node id="-304689" lat="58.7607944434" lon="8.42101944057">
		<tag k="name" v="Oreholta" />
		<tag k="place" v="locality" />
		<tag k="ssr:stedsnr" v="536767" />
	</node>
	<node id="-302639" lat="58.6547277817" lon="8.65711666598">
		<tag k="name" v="Leirsteinen" />
		<tag k="natural" v="stone" />
		<tag k="ssr:stedsnr" v="882375" />
	</node>
	<node id="-302638" lat="58.6993722195" lon="8.38083055826">
		<tag k="name" v="Plassemyra" />
		<tag k="natural" v="wetland" />
		<tag k="ssr:stedsnr" v="882372" />
	</node>
	<node id="-302637" lat="58.6932583359" lon="8.34627777805">
		<tag k="name" v="Langemyr" />
		<tag k="natural" v="wetland" />
		<tag k="ssr:stedsnr" v="882361" />
	</node>
	<node id="-302635" lat="58.7309194422" lon="8.36928332493">
		<tag k="name" v="Fremsthommyr" />
		<tag k="natural" v="wetland" />
		<tag k="ssr:stedsnr" v="882346" />
	</node>
	<node id="-306730" lat="58.796302781" lon="8.41505000622">
		<tag k="name" v="Orreleiken" />
		<tag k="natural" v="wetland" />
		<tag k="ssr:stedsnr" v="901400" />
	</node>
	<node id="-306729" lat="58.7710861102" lon="8.24407222365">
		<tag k="name" v="Stigemyra" />
		<tag k="natural" v="wetland" />
		<tag k="ssr:stedsnr" v="901398" />
	</node>
	<node id="-304925" lat="58.6234861095" lon="8.43511666374">
		<tag k="name" v="Endestavmyra" />
		<tag k="natural" v="wetland" />
		<tag k="ssr:stedsnr" v="578290" />
	</node>
	<node id="-302627" lat="58.7424888895" lon="8.12240277733">
		<tag k="name" v="Svimslimonen" />
		<tag k="place" v="locality" />
		<tag k="ssr:stedsnr" v="476907" />
	</node>
	<node id="-303182" lat="58.7493583346" lon="8.52991388909">
		<tag k="name" v="Langemyr" />
		<tag k="natural" v="wetland" />
		<tag k="ssr:stedsnr" v="92602" />
	</node>
	<node id="-304671" lat="58.78572222" lon="8.42842777355">
		<tag k="name" v="Oksnutkilen" />
		<tag k="natural" v="wetland" />
		<tag k="ssr:stedsnr" v="536399" />
	</node>
	<node id="-306718" lat="58.9256499969" lon="8.30386389499">
		<tag k="name" v="Tretteslåttene" />
		<tag k="natural" v="wetland" />
		<tag k="ssr:stedsnr" v="901236" />
	</node>
	<node id="-304669" lat="58.7456805585" lon="8.37542499934">
		<tag k="name" v="Steinsmyr" />
		<tag k="natural" v="wetland" />
		<tag k="ssr:stedsnr" v="536394" />
	</node>
	<node id="-306714" lat="58.889824999" lon="8.4493249944">
		<tag k="name" v="Bogsteane" />
		<tag k="natural" v="wetland" />
		<tag k="ssr:stedsnr" v="901196" />
	</node>
	<node id="-306711" lat="58.7795388874" lon="8.42029444333">
		<tag k="name" v="Sisselsmyr" />
		<tag k="natural" v="wetland" />
		<tag k="ssr:stedsnr" v="901087" />
	</node>
	<node id="-304659" lat="58.9413611133" lon="8.19551110266">
		<tag k="name" v="Danmark" />
		<tag k="place" v="locality" />
		<tag k="ssr:stedsnr" v="536226" />
	</node>
	<node id="-302608" lat="58.7246222217" lon="8.30958055463">
		<tag k="name" v="Tranekjerret" />
		<tag k="natural" v="wetland" />
		<tag k="old_name" v="Tranekerret" />
		<tag k="ssr:stedsnr" v="476625" />
	</node>
	<node id="-302603" lat="58.816375001" lon="8.22593610342">
		<tag k="name" v="Verapsteane" />
		<tag k="natural" v="wetland" />
		<tag k="ssr:stedsnr" v="476602" />
	</node>
	<node id="-302600" lat="58.8165333297" lon="8.26236666325">
		<tag k="name" v="Ratemyr" />
		<tag k="natural" v="wetland" />
		<tag k="ssr:stedsnr" v="476594" />
	</node>
	<node id="-304886" lat="58.6907861135" lon="8.41072499248">
		<tag k="name" v="Torvmyra" />
		<tag k="natural" v="wetland" />
		<tag k="ssr:stedsnr" v="577330" />
	</node>
	<node id="-306693" lat="58.8510055549" lon="8.13437221377">
		<tag k="name" v="Valterslåtta" />
		<tag k="natural" v="wetland" />
		<tag k="ssr:stedsnr" v="900560" />
	</node>
	<node id="-304644" lat="58.8943888868" lon="8.01747222607">
		<tag k="name" v="Krokan" />
		<tag k="natural" v="wetland" />
		<tag k="ssr:stedsnr" v="535192" />
	</node>
	<node id="-306690" lat="58.7413361079" lon="8.31986944767">
		<tag k="name" v="Grimelistykket" />
		<tag k="place" v="locality" />
		<tag k="ssr:stedsnr" v="900341" />
	</node>
	<node id="-304640" lat="58.9106194453" lon="8.0016972286">
		<tag k="name" v="Storemyr" />
		<tag k="natural" v="wetland" />
		<tag k="ssr:stedsnr" v="535131" />
	</node>
	<node id="-304639" lat="58.8425944484" lon="8.02254721884">
		<tag k="name" v="Gaidsteinen" />
		<tag k="natural" v="stone" />
		<tag k="ssr:stedsnr" v="535109" />
	</node>
	<node id="-302588" lat="58.7591055543" lon="8.25597499901">
		<tag k="landuse" v="meadow" />
		<tag k="name" v="Kolbotnen" />
		<tag k="ssr:stedsnr" v="476403" />
	</node>
	<node id="-306681" lat="58.9476250031" lon="8.20129443816">
		<tag k="name" v="Kringlemyr" />
		<tag k="place" v="locality" />
		<tag k="ssr:stedsnr" v="900266" />
	</node>
	<node id="-304632" lat="58.8773694442" lon="8.14668055672">
		<tag k="name" v="Nedre Steane" />
		<tag k="natural" v="wetland" />
		<tag k="ssr:stedsnr" v="535004" />
	</node>
	<node id="-302578" lat="58.9118416643" lon="8.29117777105">
		<tag k="name" v="Grønlimyra" />
		<tag k="natural" v="wetland" />
		<tag k="ssr:stedsnr" v="476261" />
	</node>
	<node id="-304623" lat="58.6596388876" lon="8.73491111672">
		<tag k="name" v="Orremyr" />
		<tag k="natural" v="wetland" />
		<tag k="ssr:stedsnr" v="529980" />
	</node>
	<node id="-302574" lat="58.8913416712" lon="8.44771389736">
		<tag k="name" v="Ranneishol" />
		<tag k="natural" v="wetland" />
		<tag k="ssr:stedsnr" v="476209" />
	</node>
	<node id="-304619" lat="58.8370916657" lon="8.28289999422">
		<tag k="name" v="Ostmyrane" />
		<tag k="natural" v="wetland" />
		<tag k="ssr:stedsnr" v="524599" />
	</node>
	<node id="-303809" lat="58.6724916643" lon="8.66478611365">
		<tag k="name" v="Skjellmyr" />
		<tag k="natural" v="wetland" />
		<tag k="ssr:stedsnr" v="214499" />
	</node>
	<node id="-304612" lat="58.7877111082" lon="8.475463882">
		<tag k="name" v="Krikkemyr" />
		<tag k="natural" v="wetland" />
		<tag k="ssr:stedsnr" v="523121" />
	</node>
	<node id="-306659" lat="58.692469443" lon="8.6838638959">
		<tag k="name" v="Surtemyr" />
		<tag k="natural" v="wetland" />
		<tag k="ssr:stedsnr" v="881778" />
	</node>
	<node id="-306655" lat="58.7607888902" lon="8.4808472263">
		<tag k="name" v="Århus" />
		<tag k="place" v="locality" />
		<tag k="ssr:stedsnr" v="881729" />
	</node>
	<node id="-306653" lat="58.7175527772" lon="8.54157221925">
		<tag k="name" v="Tretteslåtta" />
		<tag k="natural" v="wetland" />
		<tag k="ssr:stedsnr" v="881669" />
	</node>
	<node id="-306652" lat="58.7287888887" lon="8.59292777116">
		<tag k="name" v="Øvre Kringlemyr" />
		<tag k="natural" v="wetland" />
		<tag k="ssr:stedsnr" v="881666" />
	</node>
	<node id="-304602" lat="58.7096638884" lon="8.3497138922">
		<tag k="name" v="Kroksteane" />
		<tag k="natural" v="wetland" />
		<tag k="ssr:stedsnr" v="518402" />
	</node>
	<node id="-306648" lat="58.7240166678" lon="8.47611943781">
		<tag k="name" v="Olas stormyr" />
		<tag k="natural" v="wetland" />
		<tag k="ssr:stedsnr" v="881625" />
	</node>
	<node id="-306647" lat="58.7392027753" lon="8.53055555629">
		<tag k="name" v="Gofarsmyr" />
		<tag k="natural" v="wetland" />
		<tag k="ssr:stedsnr" v="881594" />
	</node>
	<node id="-306646" lat="58.7451055518" lon="8.51617222449">
		<tag k="name" v="Grautnesmyrane" />
		<tag k="natural" v="wetland" />
		<tag k="ssr:stedsnr" v="881589" />
	</node>
	<node id="-306645" lat="58.7467055515" lon="8.52241388256">
		<tag k="name" v="Orremyr" />
		<tag k="natural" v="wetland" />
		<tag k="ssr:stedsnr" v="881585" />
	</node>
	<node id="-302670" lat="58.6521444439" lon="8.7470666752">
		<tag k="name" v="Stormyr" />
		<tag k="natural" v="wetland" />
		<tag k="ssr:stedsnr" v="894961" />
	</node>
	<node id="-306642" lat="58.7514499956" lon="8.51909445035">
		<tag k="name" v="Steane" />
		<tag k="place" v="locality" />
		<tag k="ssr:stedsnr" v="881575" />
	</node>
	<node id="-306641" lat="58.7520166663" lon="8.52735277533">
		<tag k="name" v="Homstølmyra" />
		<tag k="natural" v="wetland" />
		<tag k="ssr:stedsnr" v="881574" />
	</node>
	<node id="-304592" lat="58.7263583334" lon="8.59385000144">
		<tag k="name" v="Nedre Kringlemyr" />
		<tag k="natural" v="wetland" />
		<tag k="ssr:stedsnr" v="517692" />
	</node>
	<node id="-306638" lat="58.7021777736" lon="8.71203888298">
		<tag k="name" v="Strandslåtta" />
		<tag k="natural" v="wetland" />
		<tag k="ssr:stedsnr" v="881541" />
	</node>
	<node id="-306636" lat="58.6955944409" lon="8.62327778443">
		<tag k="name" v="Vedstømyra" />
		<tag k="natural" v="wetland" />
		<tag k="ssr:stedsnr" v="881522" />
	</node>
	<node id="-306634" lat="58.7230111155" lon="8.62423332487">
		<tag k="name" v="Simonstadsteane" />
		<tag k="natural" v="wetland" />
		<tag k="ssr:stedsnr" v="881513" />
	</node>
	<node id="-306633" lat="58.6679749977" lon="8.6833583373">
		<tag k="name" v="Turidsmyr" />
		<tag k="natural" v="wetland" />
		<tag k="ssr:stedsnr" v="881492" />
	</node>
	<node id="-306632" lat="58.7824777743" lon="8.56132778014">
		<tag k="name" v="Holslåtta" />
		<tag k="natural" v="wetland" />
		<tag k="ssr:stedsnr" v="881469" />
	</node>
	<node id="-304583" lat="58.7264138852" lon="8.4793777723">
		<tag k="name" v="Fåtjønnmyra" />
		<tag k="natural" v="wetland" />
		<tag k="ssr:stedsnr" v="517639" />
	</node>
	<node id="-304582" lat="58.7345194489" lon="8.54724444861">
		<tag k="name" v="Perskjerr" />
		<tag k="natural" v="wetland" />
		<tag k="ssr:stedsnr" v="517600" />
	</node>
	<node id="-304580" lat="58.7492694427" lon="8.54583333483">
		<tag k="name" v="Blautmyr" />
		<tag k="natural" v="wetland" />
		<tag k="ssr:stedsnr" v="517583" />
	</node>
	<node id="-306627" lat="58.6951083366" lon="8.5170888937">
		<tag k="name" v="Grandalsmyrene" />
		<tag k="natural" v="wetland" />
		<tag k="ssr:stedsnr" v="881404" />
	</node>
	<node id="-304577" lat="58.6984527762" lon="8.67011666703">
		<tag k="name" v="Hagemyr" />
		<tag k="natural" v="wetland" />
		<tag k="ssr:stedsnr" v="517559" />
	</node>
	<node id="-306624" lat="58.7665972249" lon="8.58087778301">
		<tag k="name" v="Bjørndalsmyra" />
		<tag k="natural" v="wetland" />
		<tag k="ssr:stedsnr" v="881383" />
	</node>
	<node id="-306623" lat="58.7682694437" lon="8.57941111927">
		<tag k="name" v="Stutfjellkjerret" />
		<tag k="natural" v="wetland" />
		<tag k="ssr:stedsnr" v="881384" />
	</node>
	<node id="-306622" lat="58.7443388918" lon="8.58001666466">
		<tag k="name" v="Røyrmyr" />
		<tag k="natural" v="wetland" />
		<tag k="ssr:stedsnr" v="881359" />
	</node>
	<node id="-304573" lat="58.6486250024" lon="8.67671388043">
		<tag k="name" v="Øygardsmyra" />
		<tag k="natural" v="wetland" />
		<tag k="ssr:stedsnr" v="517521" />
	</node>
	<node id="-306620" lat="58.7575277775" lon="8.56770555602">
		<tag k="name" v="Kroktjønnmyra" />
		<tag k="natural" v="wetland" />
		<tag k="ssr:stedsnr" v="881343" />
	</node>
	<node id="-306619" lat="58.6626916645" lon="8.4752388921">
		<tag k="name" v="Langemyr" />
		<tag k="natural" v="wetland" />
		<tag k="ssr:stedsnr" v="881327" />
	</node>
	<node id="-306616" lat="58.6975972204" lon="8.43383889386">
		<tag k="name" v="Myrane" />
		<tag k="natural" v="wetland" />
		<tag k="ssr:stedsnr" v="881306" />
	</node>
	<node id="-306615" lat="58.7154305556" lon="8.42689722051">
		<tag k="name" v="Klaffmyrane" />
		<tag k="natural" v="wetland" />
		<tag k="ssr:stedsnr" v="881295" />
	</node>
	<node id="-304566" lat="58.6688888859" lon="8.69515555933">
		<tag k="name" v="Gaulmyr" />
		<tag k="natural" v="wetland" />
		<tag k="ssr:stedsnr" v="517503" />
	</node>
	<node id="-304564" lat="58.8104027765" lon="8.54005000673">
		<tag k="name" v="Smiholtet" />
		<tag k="place" v="locality" />
		<tag k="ssr:stedsnr" v="517492" />
	</node>
	<node id="-306609" lat="58.6929833349" lon="8.71806111821">
		<tag k="name" v="Høljane" />
		<tag k="natural" v="wetland" />
		<tag k="ssr:stedsnr" v="881264" />
	</node>
	<node id="-306608" lat="58.6914888925" lon="8.71861111463">
		<tag k="name" v="Mosbergmyra" />
		<tag k="place" v="locality" />
		<tag k="ssr:stedsnr" v="881263" />
	</node>
	<node id="-306607" lat="58.6777805534" lon="8.44569722498">
		<tag k="name" v="Lauvstakksmyra" />
		<tag k="natural" v="wetland" />
		<tag k="ssr:stedsnr" v="881255" />
	</node>
	<node id="-304557" lat="58.8455555558" lon="8.53213888373">
		<tag k="name" v="Karismyr" />
		<tag k="natural" v="wetland" />
		<tag k="ssr:stedsnr" v="517450" />
	</node>
	<node id="-304556" lat="58.838402777" lon="8.58696388393">
		<tag k="name" v="Bumyr" />
		<tag k="natural" v="wetland" />
		<tag k="ssr:stedsnr" v="517444" />
	</node>
	<node id="-304554" lat="58.7891944474" lon="8.59762778163">
		<tag k="name" v="Skarkekjerret" />
		<tag k="natural" v="wetland" />
		<tag k="ssr:stedsnr" v="517437" />
	</node>
	<node id="-302504" lat="58.6542361098" lon="8.74147222411">
		<tag k="name" v="Skårmyr" />
		<tag k="natural" v="wetland" />
		<tag k="ssr:stedsnr" v="408977" />
	</node>
	<node id="-302503" lat="58.654202778" lon="8.73030834182">
		<tag k="name" v="Store Kringlemyr" />
		<tag k="natural" v="wetland" />
		<tag k="ssr:stedsnr" v="408973" />
	</node>
	<node id="-306597" lat="58.7504111139" lon="8.47499444825">
		<tag k="name" v="Balemyr" />
		<tag k="place" v="locality" />
		<tag k="ssr:stedsnr" v="881183" />
	</node>
	<node id="-302500" lat="58.6648277808" lon="8.72128055474">
		<tag k="name" v="Tjovmyr" />
		<tag k="natural" v="wetland" />
		<tag k="ssr:stedsnr" v="408957" />
	</node>
	<node id="-306595" lat="58.8458500018" lon="8.68775554779">
		<tag k="name" v="Vedlagsmyrane" />
		<tag k="natural" v="wetland" />
		<tag k="ssr:stedsnr" v="881164" />
	</node>
	<node id="-306593" lat="58.8711611107" lon="8.62082777715">
		<tag k="name" v="Langemyra" />
		<tag k="natural" v="wetland" />
		<tag k="ssr:stedsnr" v="881153" />
	</node>
	<node id="-304544" lat="58.7283999973" lon="8.42905833836">
		<tag k="name" v="Ringvoll" />
		<tag k="natural" v="wetland" />
		<tag k="ssr:stedsnr" v="517351" />
	</node>
	<node id="-304543" lat="58.7294527742" lon="8.43261111763">
		<tag k="name" v="Tverrstøylsteane" />
		<tag k="natural" v="wetland" />
		<tag k="ssr:stedsnr" v="517350" />
	</node>
	<node id="-302492" lat="58.8126777766" lon="8.41274444551">
		<tag k="name" v="Myra" />
		<tag k="place" v="locality" />
		<tag k="ssr:stedsnr" v="402444" />
	</node>
	<node id="-306587" lat="58.7895583337" lon="8.51199722236">
		<tag k="name" v="Epletveitsletta" />
		<tag k="place" v="locality" />
		<tag k="ssr:stedsnr" v="881132" />
	</node>
	<node id="-303792" lat="58.6435583297" lon="8.46439999339">
		<tag k="name" v="Salthellermyra" />
		<tag k="natural" v="wetland" />
		<tag k="ssr:stedsnr" v="214274" />
	</node>
	<node id="-306583" lat="58.7738555529" lon="8.64028888344">
		<tag k="name" v="Lauvnesslåttene" />
		<tag k="natural" v="wetland" />
		<tag k="ssr:stedsnr" v="881110" />
	</node>
	<node id="-304534" lat="58.695294447" lon="8.71873056136">
		<tag k="name" v="Lyngmyr" />
		<tag k="natural" v="wetland" />
		<tag k="ssr:stedsnr" v="517253" />
	</node>
	<node id="-304532" lat="58.6836833329" lon="8.46711943823">
		<tag k="name" v="Klomremyr" />
		<tag k="natural" v="wetland" />
		<tag k="ssr:stedsnr" v="517239" />
	</node>
	<node id="-306579" lat="58.8326333301" lon="8.69843610797">
		<tag k="name" v="Anstjønnstea" />
		<tag k="natural" v="wetland" />
		<tag k="ssr:stedsnr" v="881064" />
	</node>
	<node id="-306578" lat="58.8329000031" lon="8.6692944444">
		<tag k="name" v="Rotemyr" />
		<tag k="natural" v="wetland" />
		<tag k="ssr:stedsnr" v="881061" />
	</node>
	<node id="-304529" lat="58.7580444402" lon="8.53071944899">
		<tag k="name" v="Rise" />
		<tag k="place" v="locality" />
		<tag k="ssr:stedsnr" v="517212" />
	</node>
	<node id="-304527" lat="58.713199996" lon="8.44356111766">
		<tag k="name" v="Lauvåsmyr" />
		<tag k="natural" v="wetland" />
		<tag k="ssr:stedsnr" v="517185" />
	</node>
	<node id="-302478" lat="58.6986750034" lon="8.6798416671">
		<tag k="name" v="Stanglikjerra" />
		<tag k="natural" v="wetland" />
		<tag k="ssr:stedsnr" v="396519" />
	</node>
	<node id="-302476" lat="58.7042333311" lon="8.64546944834">
		<tag k="name" v="Kortmyrene" />
		<tag k="natural" v="wetland" />
		<tag k="ssr:stedsnr" v="396508" />
	</node>
	<node id="-304523" lat="58.8497611116" lon="8.65523055878">
		<tag k="name" v="Øystrand" />
		<tag k="natural" v="wetland" />
		<tag k="ssr:stedsnr" v="517164" />
	</node>
	<node id="-302657" lat="58.812749998" lon="8.38294443684">
		<tag k="name" v="Ospegrøvane" />
		<tag k="natural" v="wetland" />
		<tag k="ssr:stedsnr" v="887838" />
	</node>
	<node id="-304514" lat="58.7818527791" lon="8.54551666469">
		<tag k="name" v="Vesle Henningskjerr" />
		<tag k="natural" v="wetland" />
		<tag k="ssr:stedsnr" v="517110" />
	</node>
	<node id="-304512" lat="58.8144666683" lon="8.62948055494">
		<tag k="name" v="Hyttemyr" />
		<tag k="natural" v="wetland" />
		<tag k="ssr:stedsnr" v="517100" />
	</node>
	<node id="-304510" lat="58.7886777753" lon="8.63987222765">
		<tag k="name" v="Kolbonnkjerr" />
		<tag k="natural" v="wetland" />
		<tag k="ssr:stedsnr" v="517094" />
	</node>
	<node id="-302997" lat="58.7607083353" lon="8.39503055233">
		<tag k="name" v="Storgrøvmyra" />
		<tag k="natural" v="wetland" />
		<tag k="ssr:stedsnr" v="51787" />
	</node>
	<node id="-304508" lat="58.8172055543" lon="8.6564388931">
		<tag k="name" v="Nedre Fiskevasskjerr" />
		<tag k="natural" v="wetland" />
		<tag k="ssr:stedsnr" v="517083" />
	</node>
	<node id="-304842" lat="58.7441194415" lon="7.98023056249">
		<tag k="name" v="Gråtarmyr" />
		<tag k="natural" v="wetland" />
		<tag k="ssr:stedsnr" v="569184" />
	</node>
	<node id="-302457" lat="58.651925002" lon="8.4861611173">
		<tag k="name" v="Røylimyra" />
		<tag k="natural" v="wetland" />
		<tag k="ssr:stedsnr" v="396332" />
	</node>
	<node id="-302456" lat="58.7121888907" lon="8.42896110836">
		<tag k="name" v="Tjønnemyra" />
		<tag k="natural" v="wetland" />
		<tag k="ssr:stedsnr" v="396282" />
	</node>
	<node id="-303336" lat="58.7514500039" lon="8.13193889225">
		<tag k="name" v="Beinsur" />
		<tag k="natural" v="scree" />
		<tag k="ssr:stedsnr" v="113954" />
	</node>
	<node id="-304701" lat="58.8798027777" lon="8.22735555966">
		<tag k="name" v="Furudalsmyra" />
		<tag k="natural" v="wetland" />
		<tag k="ssr:stedsnr" v="537020" />
	</node>
	<node id="-302440" lat="58.6854888863" lon="8.69300554872">
		<tag k="name" v="Orremyr" />
		<tag k="natural" v="wetland" />
		<tag k="ssr:stedsnr" v="395790" />
	</node>
	<node id="-302437" lat="58.6879944469" lon="8.6472444397">
		<tag k="name" v="Hovdemyra" />
		<tag k="natural" v="wetland" />
		<tag k="ssr:stedsnr" v="395782" />
	</node>
	<node id="-301880" lat="58.8284194459" lon="8.42341943699">
		<tag k="name" v="Fjorungsteinen" />
		<tag k="natural" v="stone" />
		<tag k="ssr:stedsnr" v="294573" />
	</node>
	<node id="-302428" lat="58.720663893" lon="8.4462583356">
		<tag k="name" v="Tverrstøylmyr" />
		<tag k="natural" v="wetland" />
		<tag k="ssr:stedsnr" v="395657" />
	</node>
	<node id="-304475" lat="58.8290916652" lon="8.6693499945">
		<tag k="alt_name" v="Blautmyr" />
		<tag k="name" v="Blautmyra" />
		<tag k="natural" v="wetland" />
		<tag k="ssr:stedsnr" v="486645" />
	</node>
	<node id="-302426" lat="58.6961666634" lon="8.59026667446">
		<tag k="name" v="Jordsmyr" />
		<tag k="natural" v="wetland" />
		<tag k="ssr:stedsnr" v="395603" />
	</node>
	<node id="-302425" lat="58.7038972184" lon="8.59438333688">
		<tag k="name" v="Svinåsmyra" />
		<tag k="natural" v="wetland" />
		<tag k="ssr:stedsnr" v="395599" />
	</node>
	<node id="-304130" lat="58.8410861155" lon="8.27159722738">
		<tag k="name" v="Ostemyrane" />
		<tag k="natural" v="wetland" />
		<tag k="ssr:stedsnr" v="415734" />
	</node>
	<node id="-304469" lat="58.8052805543" lon="8.56715555753">
		<tag k="alt_name" v="Gullaugsmyr" />
		<tag k="name" v="Gullaugsmyra" />
		<tag k="natural" v="wetland" />
		<tag k="ssr:stedsnr" v="486586" />
	</node>
	<node id="-304466" lat="58.7533444448" lon="8.47534999263">
		<tag k="name" v="Rislandsfeta" />
		<tag k="place" v="locality" />
		<tag k="ssr:stedsnr" v="486549" />
	</node>
	<node id="-302417" lat="58.830955558" lon="8.60353333743">
		<tag k="name" v="Bjørndalskjerret" />
		<tag k="natural" v="wetland" />
		<tag k="ssr:stedsnr" v="395469" />
	</node>
	<node id="-302415" lat="58.7899916688" lon="8.59613889689">
		<tag k="name" v="Elgsteane" />
		<tag k="natural" v="wetland" />
		<tag k="ssr:stedsnr" v="395444" />
	</node>
	<node id="-306510" lat="58.8447861067" lon="8.59160277585">
		<tag k="name" v="Stormyr" />
		<tag k="natural" v="wetland" />
		<tag k="ssr:stedsnr" v="850628" />
	</node>
	<node id="-302412" lat="58.6955138901" lon="8.44740556402">
		<tag k="name" v="Tobakkslåtten" />
		<tag k="natural" v="wetland" />
		<tag k="ssr:stedsnr" v="395412" />
	</node>
	<node id="-306504" lat="58.8793916697" lon="8.50153055173">
		<tag k="alt_name" v="Ravnslåtta" />
		<tag k="name" v="Ramnslåtta" />
		<tag k="natural" v="wetland" />
		<tag k="ssr:stedsnr" v="850465" />
	</node>
	<node id="-302403" lat="58.7692972244" lon="8.53685833771">
		<tag k="name" v="Øvrebakk" />
		<tag k="place" v="locality" />
		<tag k="ssr:stedsnr" v="395250" />
	</node>
	<node id="-306492" lat="58.7747499976" lon="8.44241111511">
		<tag k="alt_name" v="Lundemyr" />
		<tag k="name" v="Lundemyra" />
		<tag k="natural" v="wetland" />
		<tag k="ssr:stedsnr" v="850200" />
	</node>
	<node id="-305033" lat="58.8783916656" lon="8.33582776918">
		<tag k="name" v="Storemyr" />
		<tag k="natural" v="wetland" />
		<tag k="ssr:stedsnr" v="597123" />
	</node>
	<node id="-302385" lat="58.7801027766" lon="8.4969500067">
		<tag k="name" v="Hauglandsmyra" />
		<tag k="natural" v="wetland" />
		<tag k="ssr:stedsnr" v="395153" />
	</node>
	<node id="-302384" lat="58.7412888917" lon="8.61884722757">
		<tag k="name" v="Byttingsmyr" />
		<tag k="natural" v="wetland" />
		<tag k="ssr:stedsnr" v="395137" />
	</node>
	<node id="-305032" lat="58.7972527803" lon="8.46372778276">
		<tag k="name" v="Lauvåskjerret" />
		<tag k="natural" v="wetland" />
		<tag k="ssr:stedsnr" v="597124" />
	</node>
	<node id="-302381" lat="58.8316194447" lon="8.67815277503">
		<tag k="name" v="Fanthyttmyra" />
		<tag k="natural" v="wetland" />
		<tag k="ssr:stedsnr" v="395075" />
	</node>
	<node id="-302376" lat="58.9015611155" lon="8.52529444524">
		<tag k="name" v="Bjørnsmyr" />
		<tag k="natural" v="wetland" />
		<tag k="ssr:stedsnr" v="395035" />
	</node>
	<node id="-306468" lat="58.8111611079" lon="8.2808166631">
		<tag k="name" v="Finnhola" />
		<tag k="natural" v="wetland" />
		<tag k="ssr:stedsnr" v="841953" />
	</node>
	<node id="-302982" lat="58.8377416666" lon="8.33376110735">
		<tag k="name" v="Baltefossmyrane" />
		<tag k="natural" v="wetland" />
		<tag k="ssr:stedsnr" v="51682" />
	</node>
	<node id="-306463" lat="58.8326722247" lon="8.38910555836">
		<tag k="name" v="Revura" />
		<tag k="natural" v="scree" />
		<tag k="ssr:stedsnr" v="841483" />
	</node>
	<node id="-306462" lat="58.7651555523" lon="8.22327222686">
		<tag k="name" v="Terelikjerret" />
		<tag k="natural" v="wetland" />
		<tag k="ssr:stedsnr" v="841410" />
	</node>
	<node id="-302364" lat="58.8996944458" lon="8.02048611655">
		<tag k="name" v="Laurdagsmyran" />
		<tag k="natural" v="wetland" />
		<tag k="ssr:stedsnr" v="414217" />
	</node>
	<node id="-304409" lat="58.8750361113" lon="8.22049721382">
		<tag k="alt_name" v="Løkene" />
		<tag k="name" v="Løkjiene" />
		<tag k="natural" v="wetland" />
		<tag k="ssr:stedsnr" v="486002" />
	</node>
	<node id="-302360" lat="58.8183250017" lon="8.1415527813">
		<tag k="name" v="Torsurd" />
		<tag k="natural" v="scree" />
		<tag k="ssr:stedsnr" v="385759" />
	</node>
	<node id="-306448" lat="58.9608305564" lon="8.17749999224">
		<tag k="name" v="Kaldvætemyra" />
		<tag k="natural" v="wetland" />
		<tag k="old_name" v="Kajdvætemyra" />
		<tag k="ssr:stedsnr" v="840960" />
	</node>
	<node id="-304399" lat="58.6553361146" lon="8.73617777727">
		<tag k="name" v="Lille Kringlemyr" />
		<tag k="natural" v="wetland" />
		<tag k="ssr:stedsnr" v="469969" />
	</node>
	<node id="-306446" lat="58.9542083365" lon="8.20886945227">
		<tag k="name" v="Bjørkeholtslåtta" />
		<tag k="natural" v="wetland" />
		<tag k="ssr:stedsnr" v="840942" />
	</node>
	<node id="-306445" lat="58.7516277745" lon="8.09306943729">
		<tag k="name" v="Stormyr" />
		<tag k="natural" v="wetland" />
		<tag k="ssr:stedsnr" v="840868" />
	</node>
	<node id="-306443" lat="58.7438722246" lon="8.4234916709">
		<tag k="name" v="Beinmyr" />
		<tag k="natural" v="wetland" />
		<tag k="ssr:stedsnr" v="840820" />
	</node>
	<node id="-302346" lat="58.6884611069" lon="8.52790833926">
		<tag k="name" v="Høgmyr" />
		<tag k="natural" v="wetland" />
		<tag k="ssr:stedsnr" v="365896" />
	</node>
	<node id="-304393" lat="58.8361250025" lon="8.35863055725">
		<tag k="name" v="Bekkerhus" />
		<tag k="place" v="locality" />
		<tag k="ssr:stedsnr" v="463727" />
	</node>
	<node id="-304390" lat="58.8677333329" lon="8.46329166112">
		<tag k="name" v="Krokvassurda" />
		<tag k="natural" v="scree" />
		<tag k="ssr:stedsnr" v="463423" />
	</node>
	<node id="-304389" lat="58.8700305588" lon="8.45091945023">
		<tag k="name" v="Bjørmyr" />
		<tag k="natural" v="wetland" />
		<tag k="ssr:stedsnr" v="463407" />
	</node>
	<node id="-304388" lat="58.8052055586" lon="8.42061110798">
		<tag k="name" v="Koparholta" />
		<tag k="place" v="locality" />
		<tag k="ssr:stedsnr" v="463391" />
	</node>
	<node id="-306434" lat="58.8468722191" lon="8.3008694474">
		<tag k="name" v="Skarmyr" />
		<tag k="natural" v="wetland" />
		<tag k="ssr:stedsnr" v="840693" />
	</node>
	<node id="-304383" lat="58.9021638929" lon="8.30133611114">
		<tag k="name" v="Langemyr" />
		<tag k="natural" v="wetland" />
		<tag k="ssr:stedsnr" v="462638" />
	</node>
	<node id="-302333" lat="58.8424444488" lon="8.69711944398">
		<tag k="name" v="Tjovmyra" />
		<tag k="natural" v="wetland" />
		<tag k="ssr:stedsnr" v="365664" />
	</node>
	<node id="-302634" lat="58.7200944459" lon="8.38077499989">
		<tag k="name" v="Nedre Bronmyra" />
		<tag k="natural" v="wetland" />
		<tag k="ssr:stedsnr" v="882336" />
	</node>
	<node id="-304376" lat="58.7832916676" lon="8.46191666772">
		<tag k="name" v="Nedre Moltekjerr" />
		<tag k="natural" v="wetland" />
		<tag k="ssr:stedsnr" v="462107" />
	</node>
	<node id="-302325" lat="58.7536527753" lon="8.63015555774">
		<tag k="name" v="Persmyrane" />
		<tag k="natural" v="wetland" />
		<tag k="ssr:stedsnr" v="365539" />
	</node>
	<node id="-304371" lat="58.6974249997" lon="8.70708611912">
		<tag k="name" v="Bjørnekjerr" />
		<tag k="natural" v="wetland" />
		<tag k="ssr:stedsnr" v="457525" />
	</node>
	<node id="-304370" lat="58.6990333358" lon="8.69486110407">
		<tag k="name" v="Askemyr" />
		<tag k="natural" v="wetland" />
		<tag k="ssr:stedsnr" v="457526" />
	</node>
	<node id="-304368" lat="58.7103277762" lon="8.63698889172">
		<tag k="name" v="Gjerustadmyra" />
		<tag k="place" v="locality" />
		<tag k="ssr:stedsnr" v="457515" />
	</node>
	<node id="-301876" lat="58.7023111152" lon="8.29253611824">
		<tag k="name" v="Grinnarholta" />
		<tag k="place" v="locality" />
		<tag k="ssr:stedsnr" v="294701" />
	</node>
	<node id="-304361" lat="58.7151111136" lon="8.35743332712">
		<tag k="name" v="Kolstad" />
		<tag k="place" v="locality" />
		<tag k="ssr:stedsnr" v="457470" />
	</node>
	<node id="-306406" lat="58.7081388853" lon="8.2935722207">
		<tag k="name" v="Koppsåmyra" />
		<tag k="natural" v="wetland" />
		<tag k="ssr:stedsnr" v="840594" />
	</node>
	<node id="-302307" lat="58.8221944408" lon="8.12007778162">
		<tag k="alt_name" v="Torkjelhommen" />
		<tag k="name" v="Tarkjelshomm" />
		<tag k="place" v="locality" />
		<tag k="ssr:stedsnr" v="365160" />
	</node>
	<node id="-304351" lat="58.648977782" lon="8.42827777054">
		<tag k="name" v="Dukane" />
		<tag k="place" v="locality" />
		<tag k="ssr:stedsnr" v="457346" />
	</node>
	<node id="-304349" lat="58.6617305542" lon="8.39310833576">
		<tag k="name" v="Grytefjellmyra" />
		<tag k="natural" v="wetland" />
		<tag k="ssr:stedsnr" v="457328" />
	</node>
	<node id="-306396" lat="58.8782305523" lon="8.39290555531">
		<tag k="name" v="Floddjordet" />
		<tag k="natural" v="wetland" />
		<tag k="ssr:stedsnr" v="840388" />
	</node>
	<node id="-306395" lat="58.7430944446" lon="8.38297222765">
		<tag k="name" v="Matknappmyra" />
		<tag k="natural" v="wetland" />
		<tag k="ssr:stedsnr" v="840386" />
	</node>
	<node id="-306394" lat="58.7485305531" lon="8.32598889137">
		<tag k="name" v="Nauthommyran" />
		<tag k="natural" v="wetland" />
		<tag k="ssr:stedsnr" v="840330" />
	</node>
	<node id="-304340" lat="58.6807916629" lon="8.39509722188">
		<tag k="name" v="Lislekjerr" />
		<tag k="natural" v="wetland" />
		<tag k="ssr:stedsnr" v="457228" />
	</node>
	<node id="-304339" lat="58.6900500024" lon="8.40506388543">
		<tag k="name" v="Møssvasste" />
		<tag k="natural" v="wetland" />
		<tag k="ssr:stedsnr" v="457223" />
	</node>
	<node id="-302290" lat="58.9141388848" lon="8.28879445095">
		<tag k="name" v="Grønlimyrane" />
		<tag k="natural" v="wetland" />
		<tag k="ssr:stedsnr" v="364996" />
	</node>
	<node id="-302289" lat="58.6713222188" lon="8.67922222174">
		<tag k="name" v="Langmyr" />
		<tag k="natural" v="wetland" />
		<tag k="ssr:stedsnr" v="364963" />
	</node>
	<node id="-306383" lat="58.8939472178" lon="8.4157000042">
		<tag k="name" v="Snippen" />
		<tag k="natural" v="wetland" />
		<tag k="ssr:stedsnr" v="840194" />
	</node>
	<node id="-302795" lat="58.826186111" lon="8.61531388581">
		<tag k="name" v="Sverresmyr" />
		<tag k="natural" v="wetland" />
		<tag k="ssr:stedsnr" v="31092" />
	</node>
	<node id="-306380" lat="58.8791888888" lon="8.33104166013">
		<tag k="name" v="Lislemyr" />
		<tag k="natural" v="wetland" />
		<tag k="ssr:stedsnr" v="840127" />
	</node>
	<node id="-302967" lat="58.7133499977" lon="8.24865833897">
		<tag k="name" v="Yste Øymyr" />
		<tag k="natural" v="wetland" />
		<tag k="ssr:stedsnr" v="51562" />
	</node>
	<node id="-306372" lat="58.83054722" lon="8.08533333893">
		<tag k="name" v="Tinnflota" />
		<tag k="place" v="locality" />
		<tag k="ssr:stedsnr" v="839903" />
	</node>
	<node id="-304323" lat="58.7869611123" lon="8.58434443976">
		<tag k="name" v="Ettevassmyrane" />
		<tag k="natural" v="wetland" />
		<tag k="ssr:stedsnr" v="456490" />
	</node>
	<node id="-304321" lat="58.7479166702" lon="8.5825694415">
		<tag k="name" v="Store Høykleivmyra" />
		<tag k="natural" v="wetland" />
		<tag k="ssr:stedsnr" v="456474" />
	</node>
	<node id="-304318" lat="58.8213861139" lon="8.56323333051">
		<tag k="name" v="Vøylemyrane" />
		<tag k="natural" v="wetland" />
		<tag k="ssr:stedsnr" v="456448" />
	</node>
	<node id="-304317" lat="58.8226194431" lon="8.59760833159">
		<tag k="name" v="Porsmyr" />
		<tag k="natural" v="wetland" />
		<tag k="ssr:stedsnr" v="456447" />
	</node>
	<node id="-304329" lat="58.7541166694" lon="8.51316389086">
		<tag k="name" v="Vallemyra" />
		<tag k="natural" v="wetland" />
		<tag k="ssr:stedsnr" v="456586" />
	</node>
	<node id="-304308" lat="58.7739111081" lon="8.5925083328">
		<tag k="name" v="Knutemyrane" />
		<tag k="natural" v="wetland" />
		<tag k="ssr:stedsnr" v="456385" />
	</node>
	<node id="-302622" lat="58.7512749982" lon="8.4303555486">
		<tag k="name" v="Riplebekkmyrane" />
		<tag k="natural" v="wetland" />
		<tag k="ssr:stedsnr" v="476812" />
	</node>
	<node id="-306346" lat="58.6580861082" lon="8.74146110775">
		<tag k="name" v="Veskekjerra" />
		<tag k="natural" v="wetland" />
		<tag k="ssr:stedsnr" v="833977" />
	</node>
	<node id="-302248" lat="58.9673027817" lon="8.17149999356">
		<tag k="name" v="Køyregrovmyra" />
		<tag k="natural" v="wetland" />
		<tag k="ssr:stedsnr" v="355985" />
	</node>
	<node id="-302246" lat="58.8170722261" lon="8.32531110907">
		<tag k="name" v="Sjormyrane" />
		<tag k="natural" v="wetland" />
		<tag k="ssr:stedsnr" v="355965" />
	</node>
	<node id="-306339" lat="58.8194972229" lon="8.42318610478">
		<tag k="name" v="Bjørnehylen" />
		<tag k="natural" v="wetland" />
		<tag k="ssr:stedsnr" v="827455" />
	</node>
	<node id="-306336" lat="58.8311638905" lon="8.33740555675">
		<tag k="name" v="Sandfetmyrane" />
		<tag k="natural" v="wetland" />
		<tag k="ssr:stedsnr" v="826683" />
	</node>
	<node id="-306335" lat="58.9016499983" lon="8.28704166553">
		<tag k="name" v="Grænhaugane" />
		<tag k="place" v="locality" />
		<tag k="ssr:stedsnr" v="826651" />
	</node>
	<node id="-304286" lat="58.7915583365" lon="8.6433250042">
		<tag k="name" v="Skålsteane" />
		<tag k="natural" v="wetland" />
		<tag k="ssr:stedsnr" v="456126" />
	</node>
	<node id="-304284" lat="58.8012027772" lon="8.64654166448">
		<tag k="name" v="Stemknattmyra" />
		<tag k="natural" v="wetland" />
		<tag k="ssr:stedsnr" v="456101" />
	</node>
	<node id="-304283" lat="58.8326416693" lon="8.70882499876">
		<tag k="name" v="Timannsslåtten" />
		<tag k="natural" v="wetland" />
		<tag k="ssr:stedsnr" v="456086" />
	</node>
	<node id="-304281" lat="58.8532361105" lon="8.58488055711">
		<tag k="name" v="Raudånkjerra" />
		<tag k="natural" v="wetland" />
		<tag k="ssr:stedsnr" v="456047" />
	</node>
	<node id="-306328" lat="58.6815611082" lon="8.66362499953">
		<tag k="name" v="Holmetjønnmyrene" />
		<tag k="natural" v="wetland" />
		<tag k="ssr:stedsnr" v="821630" />
	</node>
	<node id="-303641" lat="58.7781333343" lon="8.31824166562">
		<tag k="alt_name" v="Fitjebumyrane" />
		<tag k="name" v="Fidjemyrane" />
		<tag k="natural" v="wetland" />
		<tag k="ssr:stedsnr" v="182185" />
	</node>
	<node id="-302896" lat="58.8351166672" lon="8.35345277809">
		<tag k="name" v="Stestykket" />
		<tag k="place" v="locality" />
		<tag k="ssr:stedsnr" v="38767" />
	</node>
	<node id="-304275" lat="58.9121055572" lon="8.58626110877">
		<tag k="name" v="Standarmyrene" />
		<tag k="natural" v="wetland" />
		<tag k="ssr:stedsnr" v="456004" />
	</node>
	<node id="-306322" lat="58.7441611119" lon="8.53906110815">
		<tag k="name" v="Holtemyra" />
		<tag k="natural" v="wetland" />
		<tag k="ssr:stedsnr" v="821596" />
	</node>
	<node id="-306319" lat="58.6902277785" lon="8.70760555823">
		<tag k="name" v="Åsmyra" />
		<tag k="natural" v="wetland" />
		<tag k="ssr:stedsnr" v="821545" />
	</node>
	<node id="-306318" lat="58.7001277809" lon="8.67577221472">
		<tag k="name" v="Saulemyr" />
		<tag k="natural" v="wetland" />
		<tag k="ssr:stedsnr" v="821537" />
	</node>
	<node id="-306317" lat="58.7092611082" lon="8.63488889634">
		<tag k="name" v="Vestmyr" />
		<tag k="natural" v="wetland" />
		<tag k="ssr:stedsnr" v="821527" />
	</node>
	<node id="-306314" lat="58.7294555584" lon="8.61349165994">
		<tag k="name" v="Nedre Stislåtta" />
		<tag k="natural" v="wetland" />
		<tag k="ssr:stedsnr" v="821505" />
	</node>
	<node id="-306313" lat="58.6484166676" lon="8.66711666795">
		<tag k="name" v="Flatengene" />
		<tag k="natural" v="wetland" />
		<tag k="ssr:stedsnr" v="821506" />
	</node>
	<node id="-306310" lat="58.7181527809" lon="8.33090833195">
		<tag k="name" v="Matom" />
		<tag k="place" v="locality" />
		<tag k="ssr:stedsnr" v="821452" />
	</node>
	<node id="-306309" lat="58.662230555" lon="8.65236666885">
		<tag k="name" v="Kjerkegårdsmyrane" />
		<tag k="natural" v="wetland" />
		<tag k="ssr:stedsnr" v="821436" />
	</node>
	<node id="-302211" lat="58.7410194487" lon="8.41091665876">
		<tag k="name" v="Høgemyr" />
		<tag k="natural" v="wetland" />
		<tag k="ssr:stedsnr" v="354811" />
	</node>
	<node id="-302210" lat="58.7573694446" lon="8.40246111102">
		<tag k="name" v="Lianstykket" />
		<tag k="place" v="locality" />
		<tag k="ssr:stedsnr" v="354789" />
	</node>
	<node id="-306300" lat="58.7067555549" lon="8.42205834018">
		<tag k="name" v="Sleikeslåtta" />
		<tag k="natural" v="wetland" />
		<tag k="ssr:stedsnr" v="821332" />
	</node>
	<node id="-306299" lat="58.7169555544" lon="8.39966388149">
		<tag k="name" v="Kleivmyra" />
		<tag k="natural" v="wetland" />
		<tag k="ssr:stedsnr" v="821313" />
	</node>
	<node id="-304247" lat="58.8384250021" lon="8.53677499748">
		<tag k="name" v="Leirgrov" />
		<tag k="place" v="locality" />
		<tag k="ssr:stedsnr" v="426648" />
	</node>
	<node id="-306286" lat="58.7362722235" lon="8.59046110542">
		<tag k="name" v="Byttingsmyr" />
		<tag k="natural" v="wetland" />
		<tag k="ssr:stedsnr" v="820482" />
	</node>
	<node id="-304395" lat="58.9112972183" lon="8.11208055251">
		<tag k="name" v="Palane" />
		<tag k="place" v="locality" />
		<tag k="ssr:stedsnr" v="469329" />
	</node>
	<node id="-306284" lat="58.8592055536" lon="8.50737499776">
		<tag k="name" v="Torunnsmyr" />
		<tag k="natural" v="wetland" />
		<tag k="ssr:stedsnr" v="820460" />
	</node>
	<node id="-302187" lat="58.7143361156" lon="8.31507500726">
		<tag k="name" v="Nipekjerret" />
		<tag k="natural" v="wetland" />
		<tag k="ssr:stedsnr" v="354601" />
	</node>
	<node id="-302185" lat="58.7964750008" lon="8.0244166735">
		<tag k="name" v="Holmyr" />
		<tag k="natural" v="wetland" />
		<tag k="ssr:stedsnr" v="354575" />
	</node>
	<node id="-302184" lat="58.7327805536" lon="8.12489165957">
		<tag k="name" v="Nykkevja" />
		<tag k="natural" v="wetland" />
		<tag k="ssr:stedsnr" v="354568" />
	</node>
	<node id="-306279" lat="58.7041000033" lon="8.50438333677">
		<tag k="name" v="Lonene" />
		<tag k="natural" v="wetland" />
		<tag k="ssr:stedsnr" v="820413" />
	</node>
	<node id="-302182" lat="58.7298333337" lon="8.25979721901">
		<tag k="name" v="Heimste Øymyr" />
		<tag k="natural" v="wetland" />
		<tag k="ssr:stedsnr" v="354540" />
	</node>
	<node id="-306277" lat="58.6951444467" lon="8.44076666108">
		<tag k="name" v="Jonsste" />
		<tag k="natural" v="wetland" />
		<tag k="ssr:stedsnr" v="820403" />
	</node>
	<node id="-306275" lat="58.7608250017" lon="8.6040055494">
		<tag k="name" v="Hegnarkleivmyrane" />
		<tag k="natural" v="wetland" />
		<tag k="ssr:stedsnr" v="820383" />
	</node>
	<node id="-306273" lat="58.7704000013" lon="8.56982499222">
		<tag k="name" v="Snoåsmyrane" />
		<tag k="natural" v="wetland" />
		<tag k="ssr:stedsnr" v="820360" />
	</node>
	<node id="-306271" lat="58.7589416711" lon="8.56326666113">
		<tag k="name" v="Høgmyr" />
		<tag k="natural" v="wetland" />
		<tag k="ssr:stedsnr" v="820353" />
	</node>
	<node id="-306270" lat="58.7647555548" lon="8.58437221908">
		<tag k="name" v="Moltekarten" />
		<tag k="natural" v="wetland" />
		<tag k="ssr:stedsnr" v="820350" />
	</node>
	<node id="-302173" lat="58.7499166685" lon="8.3182305633">
		<tag k="name" v="Skrubbedalsmyran" />
		<tag k="natural" v="wetland" />
		<tag k="ssr:stedsnr" v="354347" />
	</node>
	<node id="-306266" lat="58.6722555547" lon="8.66062222286">
		<tag k="name" v="Moltekjerr" />
		<tag k="natural" v="wetland" />
		<tag k="ssr:stedsnr" v="820216" />
	</node>
	<node id="-306261" lat="58.8242111094" lon="8.66954721369">
		<tag k="name" v="Ormeslåtta" />
		<tag k="natural" v="wetland" />
		<tag k="ssr:stedsnr" v="820089" />
	</node>
	<node id="-306260" lat="58.8368111142" lon="8.67632777135">
		<tag k="name" v="Visedalstestykket" />
		<tag k="place" v="locality" />
		<tag k="ssr:stedsnr" v="820085" />
	</node>
	<node id="-302161" lat="58.780272219" lon="8.43464445309">
		<tag k="name" v="Svårtufs-slåttene" />
		<tag k="natural" v="wetland" />
		<tag k="ssr:stedsnr" v="354109" />
	</node>
	<node id="-304204" lat="58.8728972197" lon="8.28922221734">
		<tag k="alt_name" v="Viemyri" />
		<tag k="name" v="Vidmyr" />
		<tag k="natural" v="wetland" />
		<tag k="ssr:stedsnr" v="426002" />
	</node>
	<node id="-302153" lat="58.7743555589" lon="8.30763611452">
		<tag k="name" v="Fikjemyrane" />
		<tag k="natural" v="wetland" />
		<tag k="ssr:stedsnr" v="353728" />
	</node>
	<node id="-306248" lat="58.8783999973" lon="8.5542500017">
		<tag k="name" v="Store Vestheimyr" />
		<tag k="natural" v="wetland" />
		<tag k="ssr:stedsnr" v="820179" />
	</node>
	<node id="-302150" lat="58.8258277805" lon="8.17599999285">
		<tag k="name" v="Tobakksteinen" />
		<tag k="natural" v="stone" />
		<tag k="ssr:stedsnr" v="353664" />
	</node>
	<node id="-306245" lat="58.7907722203" lon="8.5471500049">
		<tag k="name" v="Bergsslåtter" />
		<tag k="natural" v="wetland" />
		<tag k="ssr:stedsnr" v="820163" />
	</node>
	<node id="-306244" lat="58.7393194412" lon="8.61753611945">
		<tag k="name" v="Bjørkholtmyrene" />
		<tag k="natural" v="wetland" />
		<tag k="ssr:stedsnr" v="820154" />
	</node>
	<node id="-302147" lat="58.8027194469" lon="8.17022500255">
		<tag k="name" v="Kyrkjemyrane" />
		<tag k="natural" v="wetland" />
		<tag k="ssr:stedsnr" v="353324" />
	</node>
	<node id="-302145" lat="58.7989638917" lon="8.19631667061">
		<tag k="name" v="Store steinane" />
		<tag k="natural" v="stone" />
		<tag k="ssr:stedsnr" v="353285" />
	</node>
	<node id="-306240" lat="58.7609611101" lon="8.63976944058">
		<tag k="name" v="Trettestea" />
		<tag k="natural" v="wetland" />
		<tag k="ssr:stedsnr" v="820139" />
	</node>
	<node id="-306238" lat="58.8030222193" lon="8.60946666865">
		<tag k="name" v="Fjellveggslåtta" />
		<tag k="natural" v="wetland" />
		<tag k="ssr:stedsnr" v="820127" />
	</node>
	<node id="-306237" lat="58.7830027777" lon="8.65752221996">
		<tag k="name" v="Bjørklunden" />
		<tag k="place" v="locality" />
		<tag k="ssr:stedsnr" v="820119" />
	</node>
	<node id="-306235" lat="58.8234638899" lon="8.62529999648">
		<tag k="name" v="Eikelimyrane" />
		<tag k="natural" v="wetland" />
		<tag k="ssr:stedsnr" v="820110" />
	</node>
	<node id="-306234" lat="58.811741665" lon="8.65666665886">
		<tag k="name" v="Snøkjerra" />
		<tag k="natural" v="wetland" />
		<tag k="ssr:stedsnr" v="820106" />
	</node>
	<node id="-306233" lat="58.9287111102" lon="8.27471945068">
		<tag k="name" v="Diplemyr" />
		<tag k="natural" v="wetland" />
		<tag k="ssr:stedsnr" v="790989" />
	</node>
	<node id="-302135" lat="58.8810444454" lon="8.14869999975">
		<tag k="name" v="Øvre Steane" />
		<tag k="natural" v="wetland" />
		<tag k="ssr:stedsnr" v="414003" />
	</node>
	<node id="-304177" lat="58.9548694473" lon="8.13258610745">
		<tag k="name" v="Dei lange myrene" />
		<tag k="natural" v="wetland" />
		<tag k="ssr:stedsnr" v="416966" />
	</node>
	<node id="-302126" lat="58.8418000015" lon="8.09902222727">
		<tag k="name" v="Lundesteinen" />
		<tag k="natural" v="stone" />
		<tag k="ssr:stedsnr" v="353118" />
	</node>
	<node id="-304165" lat="58.8998916636" lon="8.31402499632">
		<tag k="name" v="Tviland" />
		<tag k="place" v="locality" />
		<tag k="ssr:stedsnr" v="416599" />
	</node>
	<node id="-304164" lat="58.8253555572" lon="8.43290556315">
		<tag k="name" v="Prestehella" />
		<tag k="natural" v="stone" />
		<tag k="ssr:stedsnr" v="416514" />
	</node>
	<node id="-304159" lat="58.9247805538" lon="8.26261666001">
		<tag k="name" v="Bjørkeholtet" />
		<tag k="place" v="locality" />
		<tag k="ssr:stedsnr" v="416265" />
	</node>
	<node id="-306203" lat="58.6728083316" lon="8.69929721484">
		<tag k="name" v="Halvfarmyra" />
		<tag k="natural" v="wetland" />
		<tag k="ssr:stedsnr" v="789956" />
	</node>
	<node id="-302106" lat="58.8335555552" lon="8.34867500327">
		<tag k="name" v="Steane" />
		<tag k="natural" v="wetland" />
		<tag k="ssr:stedsnr" v="342672" />
	</node>
	<node id="-304152" lat="58.8822361148" lon="8.26034444146">
		<tag k="name" v="Langstrengen" />
		<tag k="place" v="locality" />
		<tag k="ssr:stedsnr" v="416005" />
	</node>
	<node id="-304150" lat="58.8807500005" lon="8.25733055755">
		<tag k="name" v="Tivlemyr" />
		<tag k="natural" v="wetland" />
		<tag k="ssr:stedsnr" v="416004" />
	</node>
	<node id="-304148" lat="58.7516194405" lon="8.11801388737">
		<tag k="name" v="Vest-monen" />
		<tag k="place" v="locality" />
		<tag k="ssr:stedsnr" v="415964" />
	</node>
	<node id="-302098" lat="58.8064527749" lon="8.44554444235">
		<tag k="name" v="Blekemyr" />
		<tag k="natural" v="wetland" />
		<tag k="ssr:stedsnr" v="341409" />
	</node>
	<node id="-303619" lat="58.7617888863" lon="8.11762222225">
		<tag k="name" v="Kartane" />
		<tag k="natural" v="wetland" />
		<tag k="ssr:stedsnr" v="173196" />
	</node>
	<node id="-302096" lat="58.9215138911" lon="8.21072222399">
		<tag k="name" v="Blondesteinmyra" />
		<tag k="natural" v="wetland" />
		<tag k="ssr:stedsnr" v="341286" />
	</node>
	<node id="-304142" lat="58.7660249998" lon="8.43253333996">
		<tag k="name" v="Øvre Bjønneholet" />
		<tag k="natural" v="wetland" />
		<tag k="ssr:stedsnr" v="415878" />
	</node>
	<node id="-302093" lat="58.8327055595" lon="8.37177500173">
		<tag k="name" v="Fåtjønnmyra" />
		<tag k="natural" v="wetland" />
		<tag k="ssr:stedsnr" v="340743" />
	</node>
	<node id="-302092" lat="58.8311027743" lon="8.34653055774">
		<tag k="name" v="Trandlekjerret" />
		<tag k="natural" v="wetland" />
		<tag k="ssr:stedsnr" v="340688" />
	</node>
	<node id="-302088" lat="58.7325638848" lon="8.3381361142">
		<tag k="name" v="Kjiggemyrane" />
		<tag k="natural" v="wetland" />
		<tag k="ssr:stedsnr" v="336451" />
	</node>
	<node id="-304135" lat="58.8289416647" lon="8.25586388149">
		<tag k="name" v="Tråvarmyrane" />
		<tag k="natural" v="wetland" />
		<tag k="ssr:stedsnr" v="415742" />
	</node>
	<node id="-302084" lat="58.6663944446" lon="8.64203611713">
		<tag k="name" v="Røydalsmyra" />
		<tag k="place" v="locality" />
		<tag k="ssr:stedsnr" v="336405" />
	</node>
	<node id="-302082" lat="58.7079888909" lon="8.3785194468">
		<tag k="name" v="Moldmyra" />
		<tag k="natural" v="wetland" />
		<tag k="ssr:stedsnr" v="336401" />
	</node>
	<node id="-302081" lat="58.7226916652" lon="8.37141943985">
		<tag k="name" v="Langevoll" />
		<tag k="place" v="locality" />
		<tag k="ssr:stedsnr" v="336390" />
	</node>
	<node id="-302075" lat="58.6848749995" lon="8.61529167266">
		<tag k="name" v="Langmyr" />
		<tag k="natural" v="wetland" />
		<tag k="ssr:stedsnr" v="335792" />
	</node>
	<node id="-304122" lat="58.6937861133" lon="8.32931110747">
		<tag k="name" v="Lindehoggmyra" />
		<tag k="natural" v="wetland" />
		<tag k="ssr:stedsnr" v="415718" />
	</node>
	<node id="-304119" lat="58.8523777803" lon="8.43268055752">
		<tag k="name" v="Lauvskarsmyrane" />
		<tag k="natural" v="wetland" />
		<tag k="ssr:stedsnr" v="415694" />
	</node>
	<node id="-302068" lat="58.6719194425" lon="8.57369166425">
		<tag k="name" v="Leiermyr" />
		<tag k="natural" v="wetland" />
		<tag k="ssr:stedsnr" v="335682" />
	</node>
	<node id="-304115" lat="58.8070722256" lon="8.23224444398">
		<tag k="name" v="Sandkleivmyra" />
		<tag k="natural" v="wetland" />
		<tag k="ssr:stedsnr" v="415671" />
	</node>
	<node id="-306161" lat="58.720611109" lon="8.51155834006">
		<tag k="name" v="Vedalsmyra" />
		<tag k="natural" v="wetland" />
		<tag k="ssr:stedsnr" v="789119" />
	</node>
	<node id="-302064" lat="58.7509944406" lon="8.4944361103">
		<tag k="name" v="Imetjønnholta" />
		<tag k="place" v="locality" />
		<tag k="ssr:stedsnr" v="335664" />
	</node>
	<node id="-302063" lat="58.7491250035" lon="8.45427776992">
		<tag k="name" v="Gåsfet" />
		<tag k="place" v="locality" />
		<tag k="ssr:stedsnr" v="335659" />
	</node>
	<node id="-302061" lat="58.7290305542" lon="8.46878888819">
		<tag k="name" v="Forlandsmyr" />
		<tag k="natural" v="wetland" />
		<tag k="ssr:stedsnr" v="335654" />
	</node>
	<node id="-304107" lat="58.7881388931" lon="8.04981944118">
		<tag k="name" v="Stormyr" />
		<tag k="natural" v="wetland" />
		<tag k="ssr:stedsnr" v="415625" />
	</node>
	<node id="-302058" lat="58.7254333339" lon="8.46641111128">
		<tag k="name" v="Knuts setermyr" />
		<tag k="natural" v="wetland" />
		<tag k="ssr:stedsnr" v="335645" />
	</node>
	<node id="-306153" lat="58.7074222254" lon="8.4747138826">
		<tag k="name" v="Mosbergmyr" />
		<tag k="natural" v="wetland" />
		<tag k="ssr:stedsnr" v="789088" />
	</node>
	<node id="-304103" lat="58.8777138927" lon="8.42712777666">
		<tag k="name" v="Reismyrhålsen" />
		<tag k="natural" v="wetland" />
		<tag k="ssr:stedsnr" v="415424" />
	</node>
	<node id="-304096" lat="58.7388583305" lon="8.31920277151">
		<tag k="name" v="Årlimyran" />
		<tag k="natural" v="wetland" />
		<tag k="ssr:stedsnr" v="415363" />
	</node>
	<node id="-306143" lat="58.8194472243" lon="8.31976944535">
		<tag k="name" v="Bakslåttune" />
		<tag k="natural" v="wetland" />
		<tag k="ssr:stedsnr" v="780937" />
	</node>
	<node id="-306140" lat="58.741738889" lon="8.12415000492">
		<tag k="name" v="Torsmyr" />
		<tag k="natural" v="wetland" />
		<tag k="ssr:stedsnr" v="780885" />
	</node>
	<node id="-306138" lat="58.749997225" lon="8.19403055791">
		<tag k="name" v="Den hole myra" />
		<tag k="natural" v="wetland" />
		<tag k="ssr:stedsnr" v="780856" />
	</node>
	<node id="-303951" lat="58.8710333365" lon="8.20231389612">
		<tag k="name" v="Hågstøylsteane" />
		<tag k="natural" v="wetland" />
		<tag k="ssr:stedsnr" v="234229" />
	</node>
	<node id="-302040" lat="58.7818055533" lon="8.58445833145">
		<tag k="name" v="Kleivmyrane" />
		<tag k="natural" v="wetland" />
		<tag k="ssr:stedsnr" v="335447" />
	</node>
	<node id="-302039" lat="58.6858500041" lon="8.52859722918">
		<tag k="name" v="Dyblemyr" />
		<tag k="natural" v="wetland" />
		<tag k="ssr:stedsnr" v="335440" />
	</node>
	<node id="-302038" lat="58.6995138865" lon="8.52663889281">
		<tag k="name" v="Plankekjerr" />
		<tag k="natural" v="wetland" />
		<tag k="ssr:stedsnr" v="335426" />
	</node>
	<node id="-302037" lat="58.7059749965" lon="8.45839999725">
		<tag k="name" v="Brattstimyra" />
		<tag k="natural" v="wetland" />
		<tag k="ssr:stedsnr" v="335423" />
	</node>
	<node id="-306131" lat="58.8271694479" lon="8.38940000426">
		<tag k="name" v="Steane" />
		<tag k="natural" v="wetland" />
		<tag k="ssr:stedsnr" v="780439" />
	</node>
	<node id="-303267" lat="58.7971916632" lon="8.45722221804">
		<tag k="name" v="Steane" />
		<tag k="natural" v="wetland" />
		<tag k="ssr:stedsnr" v="112122" />
	</node>
	<node id="-302028" lat="58.7094666662" lon="8.42470554983">
		<tag k="name" v="Hyttemyra" />
		<tag k="natural" v="wetland" />
		<tag k="ssr:stedsnr" v="335319" />
	</node>
	<node id="-302027" lat="58.7111333331" lon="8.4190555531">
		<tag k="name" v="Porsmyra" />
		<tag k="natural" v="wetland" />
		<tag k="ssr:stedsnr" v="335317" />
	</node>
	<node id="-304069" lat="58.8419194441" lon="8.11647778128">
		<tag k="name" v="Bjønndalsmyra" />
		<tag k="natural" v="wetland" />
		<tag k="ssr:stedsnr" v="414565" />
	</node>
	<node id="-302018" lat="58.6819583367" lon="8.39601389319">
		<tag k="name" v="Haugmyr" />
		<tag k="place" v="locality" />
		<tag k="ssr:stedsnr" v="335248" />
	</node>
	<node id="-306111" lat="58.7455138928" lon="8.07467499897">
		<tag k="name" v="Orrgardsmyrane" />
		<tag k="natural" v="wetland" />
		<tag k="ssr:stedsnr" v="779850" />
	</node>
	<node id="-304061" lat="58.9346611131" lon="8.11062777285">
		<tag k="alt_name" v="Grautvassmyrane" />
		<tag k="name" v="Grautvassmyra" />
		<tag k="natural" v="wetland" />
		<tag k="ssr:stedsnr" v="244954" />
	</node>
	<node id="-304058" lat="58.6852861152" lon="8.68935555256">
		<tag k="name" v="Grimelandsmyrane" />
		<tag k="natural" v="wetland" />
		<tag k="ssr:stedsnr" v="244890" />
	</node>
	<node id="-306103" lat="58.801719443" lon="8.02539999775">
		<tag k="name" v="Tolleholta" />
		<tag k="place" v="locality" />
		<tag k="ssr:stedsnr" v="779711" />
	</node>
	<node id="-302006" lat="58.8771833322" lon="8.60243610943">
		<tag k="name" v="Gunnarsur" />
		<tag k="natural" v="scree" />
		<tag k="ssr:stedsnr" v="335130" />
	</node>
	<node id="-302005" lat="58.7879111105" lon="8.50215277094">
		<tag k="name" v="Bustoa" />
		<tag k="place" v="locality" />
		<tag k="ssr:stedsnr" v="335120" />
	</node>
	<node id="-306100" lat="58.8592277814" lon="8.34408889253">
		<tag k="name" v="Hesteholune" />
		<tag k="place" v="locality" />
		<tag k="ssr:stedsnr" v="779694" />
	</node>
	<node id="-306099" lat="58.7041500013" lon="8.30362499207">
		<tag k="name" v="Gjennhylmyra" />
		<tag k="natural" v="wetland" />
		<tag k="ssr:stedsnr" v="779688" />
	</node>
	<node id="-302002" lat="58.7476055511" lon="8.61042499857">
		<tag k="name" v="Steinsmyr" />
		<tag k="natural" v="wetland" />
		<tag k="ssr:stedsnr" v="335101" />
	</node>
	<node id="-302000" lat="58.8034944464" lon="8.61373054835">
		<tag k="name" v="Karslåtta" />
		<tag k="natural" v="wetland" />
		<tag k="ssr:stedsnr" v="335094" />
	</node>
	<node id="-301998" lat="58.8058916685" lon="8.6636888835">
		<tag k="name" v="Kjetilen" />
		<tag k="natural" v="wetland" />
		<tag k="ssr:stedsnr" v="335079" />
	</node>
	<node id="-306092" lat="58.8595361075" lon="8.42740277578">
		<tag k="name" v="Krossen" />
		<tag k="natural" v="wetland" />
		<tag k="ssr:stedsnr" v="779656" />
	</node>
	<node id="-301995" lat="58.9025444456" lon="8.53869444435">
		<tag k="name" v="Kvassånmyra" />
		<tag k="natural" v="wetland" />
		<tag k="ssr:stedsnr" v="335043" />
	</node>
	<node id="-306090" lat="58.8441583307" lon="8.33155000317">
		<tag k="name" v="Kriklemyrane" />
		<tag k="natural" v="wetland" />
		<tag k="ssr:stedsnr" v="779652" />
	</node>
	<node id="-301895" lat="58.9674833308" lon="8.12350556379">
		<tag k="name" v="Storliløynda" />
		<tag k="natural" v="wetland" />
		<tag k="ssr:stedsnr" v="294903" />
	</node>
	<node id="-302236" lat="58.8261083302" lon="8.43629722872">
		<tag k="name" v="Røysheimyra" />
		<tag k="natural" v="wetland" />
		<tag k="ssr:stedsnr" v="355518" />
	</node>
	<node id="-306085" lat="58.778683329" lon="7.98641111939">
		<tag k="name" v="Kileslåtta" />
		<tag k="natural" v="wetland" />
		<tag k="ssr:stedsnr" v="779633" />
	</node>
	<node id="-306084" lat="58.803274997" lon="8.22516666774">
		<tag k="name" v="Kleven" />
		<tag k="place" v="locality" />
		<tag k="ssr:stedsnr" v="779628" />
	</node>
	<node id="-306083" lat="58.8079861106" lon="8.2541805564">
		<tag k="name" v="Nevrekjerr" />
		<tag k="natural" v="wetland" />
		<tag k="ssr:stedsnr" v="779617" />
	</node>
	<node id="-303941" lat="58.7340222199" lon="8.42810833411">
		<tag k="name" v="Moltemyr" />
		<tag k="natural" v="wetland" />
		<tag k="ssr:stedsnr" v="233966" />
	</node>
	<node id="-306070" lat="58.714802776" lon="7.99006389634">
		<tag k="name" v="Skinnarslåtton" />
		<tag k="natural" v="wetland" />
		<tag k="ssr:stedsnr" v="779434" />
	</node>
	<node id="-306068" lat="58.7633666634" lon="8.22919167253">
		<tag k="name" v="Store Kongsskogmyra" />
		<tag k="natural" v="wetland" />
		<tag k="ssr:stedsnr" v="779420" />
	</node>
	<node id="-304014" lat="58.674141669" lon="8.60756388821">
		<tag k="name" v="Stormyr" />
		<tag k="natural" v="wetland" />
		<tag k="ssr:stedsnr" v="243957" />
	</node>
	<node id="-306057" lat="58.7373777761" lon="8.24414166826">
		<tag k="name" v="Krossbumyra" />
		<tag k="natural" v="wetland" />
		<tag k="ssr:stedsnr" v="779331" />
	</node>
	<node id="-306055" lat="58.7609111078" lon="8.18664445064">
		<tag k="name" v="Urdvass-steane" />
		<tag k="natural" v="wetland" />
		<tag k="ssr:stedsnr" v="779327" />
	</node>
	<node id="-301889" lat="58.7823277769" lon="8.2374027832">
		<tag k="name" v="Morgensteane" />
		<tag k="natural" v="wetland" />
		<tag k="ssr:stedsnr" v="294770" />
	</node>
	<node id="-301950" lat="58.7304583346" lon="8.39282499579">
		<tag k="name" v="Nordskogen" />
		<tag k="place" v="locality" />
		<tag k="ssr:stedsnr" v="304473" />
	</node>
	<node id="-301947" lat="58.7080500031" lon="8.324100003">
		<tag k="name" v="Båsmyr" />
		<tag k="natural" v="wetland" />
		<tag k="ssr:stedsnr" v="304449" />
	</node>
	<node id="-306042" lat="58.8725194436" lon="8.27577222301">
		<tag k="name" v="Jålefit" />
		<tag k="natural" v="wetland" />
		<tag k="ssr:stedsnr" v="779080" />
	</node>
	<node id="-303992" lat="58.6757638925" lon="8.39286111268">
		<tag k="name" v="Diplemyrane" />
		<tag k="natural" v="wetland" />
		<tag k="ssr:stedsnr" v="243293" />
	</node>
	<node id="-303593" lat="58.7420194489" lon="7.98926944117">
		<tag k="name" v="Svålekronbotnen" />
		<tag k="natural" v="wetland" />
		<tag k="ssr:stedsnr" v="172668" />
	</node>
	<node id="-301940" lat="58.7531499966" lon="8.39913610599">
		<tag k="name" v="Fjattjønnmyrane" />
		<tag k="natural" v="wetland" />
		<tag k="ssr:stedsnr" v="304286" />
	</node>
	<node id="-303987" lat="58.7874249964" lon="8.42816110619">
		<tag k="name" v="Oksenutmyra" />
		<tag k="natural" v="wetland" />
		<tag k="ssr:stedsnr" v="243228" />
	</node>
	<node id="-302818" lat="58.6923861106" lon="8.43265000358">
		<tag k="name" v="Guvedekksmyra" />
		<tag k="natural" v="wetland" />
		<tag k="ssr:stedsnr" v="31321" />
	</node>
	<node id="-306029" lat="58.821044447" lon="8.06135555804">
		<tag k="name" v="Hommeslåtta" />
		<tag k="natural" v="wetland" />
		<tag k="ssr:stedsnr" v="778895" />
	</node>
	<node id="-306028" lat="58.826438893" lon="8.11904166902">
		<tag k="name" v="Vrålstadurene" />
		<tag k="natural" v="scree" />
		<tag k="ssr:stedsnr" v="778652" />
	</node>
	<node id="-303920" lat="58.788730558" lon="8.13026111613">
		<tag k="name" v="Tjovsteinane" />
		<tag k="natural" v="stone" />
		<tag k="ssr:stedsnr" v="233709" />
	</node>
	<node id="-301922" lat="58.799544442" lon="8.17809999542">
		<tag k="alt_name" v="Stormyra" />
		<tag k="name" v="Stormyr" />
		<tag k="natural" v="wetland" />
		<tag k="ssr:stedsnr" v="304111" />
	</node>
	<node id="-306017" lat="58.8484055571" lon="8.0825972304">
		<tag k="name" v="Flatin" />
		<tag k="place" v="locality" />
		<tag k="ssr:stedsnr" v="778096" />
	</node>
	<node id="-306015" lat="58.897424997" lon="8.07558889618">
		<tag k="name" v="Skarmyran" />
		<tag k="natural" v="wetland" />
		<tag k="ssr:stedsnr" v="778046" />
	</node>
	<node id="-303961" lat="58.7535111128" lon="8.19711945103">
		<tag k="name" v="Øvre Tjerandlimyra" />
		<tag k="natural" v="wetland" />
		<tag k="ssr:stedsnr" v="234903" />
	</node>
	<node id="-306004" lat="58.9141555576" lon="8.150502778">
		<tag k="name" v="Bautasteinen" />
		<tag k="natural" v="stone" />
		<tag k="ssr:stedsnr" v="773340" />
	</node>
	<node id="-306002" lat="58.8371222218" lon="8.35753889527">
		<tag k="name" v="Dukane" />
		<tag k="place" v="locality" />
		<tag k="ssr:stedsnr" v="766758" />
	</node>
	<node id="-303953" lat="58.9098388867" lon="8.28889166855">
		<tag k="name" v="Ratemyr" />
		<tag k="natural" v="wetland" />
		<tag k="ssr:stedsnr" v="234261" />
	</node>
	<node id="-305999" lat="58.8056222251" lon="8.45999165897">
		<tag k="name" v="Koparholta" />
		<tag k="place" v="locality" />
		<tag k="ssr:stedsnr" v="766403" />
	</node>
	<node id="-305998" lat="58.8710083327" lon="8.35021110702">
		<tag k="name" v="Bumyrane" />
		<tag k="natural" v="wetland" />
		<tag k="ssr:stedsnr" v="766398" />
	</node>
	<node id="-301901" lat="58.8974027759" lon="8.23986944888">
		<tag k="name" v="Kåsine" />
		<tag k="natural" v="wetland" />
		<tag k="ssr:stedsnr" v="295707" />
	</node>
	<node id="-305996" lat="58.7857805553" lon="8.47691111431">
		<tag k="name" v="Snømyr" />
		<tag k="natural" v="wetland" />
		<tag k="ssr:stedsnr" v="766095" />
	</node>
	<node id="-303947" lat="58.8685861088" lon="8.26658056048">
		<tag k="name" v="Lauvåsmyrane" />
		<tag k="natural" v="wetland" />
		<tag k="ssr:stedsnr" v="234002" />
	</node>
	<node id="-305994" lat="58.7827416676" lon="8.45268054896">
		<tag k="name" v="Vestre Moltekjerr" />
		<tag k="natural" v="wetland" />
		<tag k="ssr:stedsnr" v="766091" />
	</node>
	<node id="-305992" lat="58.7855472203" lon="8.44404166001">
		<tag k="name" v="Gunhildsmyr" />
		<tag k="natural" v="wetland" />
		<tag k="ssr:stedsnr" v="766056" />
	</node>
	<node id="-303943" lat="58.7350916646" lon="8.42284166768">
		<tag k="name" v="Smalkjerr" />
		<tag k="natural" v="wetland" />
		<tag k="ssr:stedsnr" v="233969" />
	</node>
	<node id="-305989" lat="58.7878833373" lon="8.37568610826">
		<tag k="name" v="Fugløyslått" />
		<tag k="natural" v="wetland" />
		<tag k="ssr:stedsnr" v="765365" />
	</node>
	<node id="-303937" lat="58.7441805546" lon="8.20176667154">
		<tag k="name" v="Klovdalsmyra" />
		<tag k="natural" v="wetland" />
		<tag k="ssr:stedsnr" v="233915" />
	</node>
	<node id="-305982" lat="58.7213138907" lon="8.53882222985">
		<tag k="name" v="Sommerfjøssteane" />
		<tag k="natural" v="wetland" />
		<tag k="ssr:stedsnr" v="760678" />
	</node>
	<node id="-303932" lat="58.7103055538" lon="8.16605833507">
		<tag k="name" v="Viermyra" />
		<tag k="natural" v="wetland" />
		<tag k="ssr:stedsnr" v="233789" />
	</node>
	<node id="-305979" lat="58.7340249998" lon="8.46891111183">
		<tag k="name" v="Hekkfet" />
		<tag k="place" v="locality" />
		<tag k="ssr:stedsnr" v="760666" />
	</node>
	<node id="-305976" lat="58.6876250018" lon="8.69110277054">
		<tag k="name" v="Rennarkilen" />
		<tag k="natural" v="wetland" />
		<tag k="ssr:stedsnr" v="760632" />
	</node>
	<node id="-305975" lat="58.6204166661" lon="8.71213889156">
		<tag k="name" v="Kilsmyr" />
		<tag k="natural" v="wetland" />
		<tag k="ssr:stedsnr" v="760626" />
	</node>
	<node id="-305972" lat="58.7335138924" lon="8.52186944627">
		<tag k="name" v="Slettomfet" />
		<tag k="place" v="locality" />
		<tag k="ssr:stedsnr" v="760613" />
	</node>
	<node id="-301875" lat="58.8562277798" lon="8.32014722857">
		<tag k="name" v="Dukane" />
		<tag k="natural" v="wetland" />
		<tag k="ssr:stedsnr" v="294691" />
	</node>
	<node id="-305971" lat="58.7412333294" lon="8.49949166753">
		<tag k="name" v="Tåroldsvoll" />
		<tag k="place" v="locality" />
		<tag k="ssr:stedsnr" v="760612" />
	</node>
	<node id="-305968" lat="58.7433111149" lon="8.53247222937">
		<tag k="name" v="Slekkebekkmyra" />
		<tag k="natural" v="wetland" />
		<tag k="ssr:stedsnr" v="760602" />
	</node>
	<node id="-301871" lat="58.8458888932" lon="8.42906667097">
		<tag k="name" v="Dyplemyrane" />
		<tag k="natural" v="wetland" />
		<tag k="ssr:stedsnr" v="294677" />
	</node>
	<node id="-305966" lat="58.7524722215" lon="8.50810832543">
		<tag k="name" v="Kvernhuskarten" />
		<tag k="natural" v="wetland" />
		<tag k="ssr:stedsnr" v="760588" />
	</node>
	<node id="-304605" lat="58.8097000017" lon="8.39045554832">
		<tag k="name" v="Strandine" />
		<tag k="place" v="locality" />
		<tag k="ssr:stedsnr" v="523448" />
	</node>
	<node id="-305964" lat="58.694627775" lon="8.69912499237">
		<tag k="name" v="Lyngkjerr" />
		<tag k="natural" v="wetland" />
		<tag k="ssr:stedsnr" v="760560" />
	</node>
	<node id="-302898" lat="58.8411166675" lon="8.3641666633">
		<tag k="name" v="Hillækre" />
		<tag k="place" v="locality" />
		<tag k="ssr:stedsnr" v="39661" />
	</node>
	<node id="-303914" lat="58.8041472192" lon="8.23229166591">
		<tag k="name" v="Fedlemyr" />
		<tag k="natural" v="wetland" />
		<tag k="ssr:stedsnr" v="233662" />
	</node>
	<node id="-303913" lat="58.8093166645" lon="8.24763333263">
		<tag k="name" v="Lokkelimyrane" />
		<tag k="natural" v="wetland" />
		<tag k="ssr:stedsnr" v="233657" />
	</node>
	<node id="-305960" lat="58.7283111155" lon="8.61562222945">
		<tag k="name" v="Øvre Stien" />
		<tag k="natural" v="wetland" />
		<tag k="ssr:stedsnr" v="760523" />
	</node>
	<node id="-301862" lat="58.8056972217" lon="8.24685278429">
		<tag k="name" v="Bjørkekjerr" />
		<tag k="natural" v="wetland" />
		<tag k="ssr:stedsnr" v="294643" />
	</node>
	<node id="-305969" lat="58.7426499975" lon="8.53642778024">
		<tag k="name" v="Eikelislåtta" />
		<tag k="natural" v="wetland" />
		<tag k="ssr:stedsnr" v="760604" />
	</node>
	<node id="-305956" lat="58.6640194449" lon="8.6635388964">
		<tag k="name" v="Leiksmyr" />
		<tag k="natural" v="wetland" />
		<tag k="ssr:stedsnr" v="760505" />
	</node>
	<node id="-305955" lat="58.6608138932" lon="8.71353610343">
		<tag k="name" v="Øygardsmyra" />
		<tag k="natural" v="wetland" />
		<tag k="ssr:stedsnr" v="760503" />
	</node>
	<node id="-305954" lat="58.6571222183" lon="8.69466388238">
		<tag k="name" v="Stemyra" />
		<tag k="natural" v="wetland" />
		<tag k="ssr:stedsnr" v="760501" />
	</node>
	<node id="-305953" lat="58.670461114" lon="8.69650277476">
		<tag k="name" v="Gaulmyrfjell" />
		<tag k="natural" v="wetland" />
		<tag k="ssr:stedsnr" v="760491" />
	</node>
	<node id="-303904" lat="58.7141888893" lon="8.23010555089">
		<tag k="name" v="Svårtebergmyra" />
		<tag k="natural" v="wetland" />
		<tag k="ssr:stedsnr" v="233548" />
	</node>
	<node id="-301872" lat="58.7046611101" lon="8.26058055925">
		<tag k="name" v="Storemyr" />
		<tag k="natural" v="wetland" />
		<tag k="ssr:stedsnr" v="294679" />
	</node>
	<node id="-302213" lat="58.7449416692" lon="8.09061943784">
		<tag k="name" v="Krokmyr" />
		<tag k="natural" v="wetland" />
		<tag k="ssr:stedsnr" v="354846" />
	</node>
	<node id="-303900" lat="58.7884888927" lon="8.4285499934">
		<tag k="name" v="Persmyr" />
		<tag k="natural" v="wetland" />
		<tag k="ssr:stedsnr" v="233426" />
	</node>
	<node id="-305947" lat="58.7341555546" lon="8.34289999151">
		<tag k="name" v="Ljosmyr" />
		<tag k="place" v="locality" />
		<tag k="ssr:stedsnr" v="760475" />
	</node>
	<node id="-305946" lat="58.7291583364" lon="8.34503888891">
		<tag k="name" v="Ratemyr" />
		<tag k="natural" v="wetland" />
		<tag k="ssr:stedsnr" v="760463" />
	</node>
	<node id="-305945" lat="58.7057833378" lon="8.38354722965">
		<tag k="name" v="Kjerkemyr" />
		<tag k="natural" v="wetland" />
		<tag k="ssr:stedsnr" v="760422" />
	</node>
	<node id="-305943" lat="58.7278388917" lon="8.38140000209">
		<tag k="name" v="Søyleheftet" />
		<tag k="place" v="locality" />
		<tag k="ssr:stedsnr" v="760381" />
	</node>
	<node id="-305941" lat="58.7301027738" lon="8.43093055335">
		<tag k="name" v="Stiksmyr" />
		<tag k="place" v="locality" />
		<tag k="ssr:stedsnr" v="760372" />
	</node>
	<node id="-305938" lat="58.6315027738" lon="8.44616667049">
		<tag k="name" v="Skrømteleiken" />
		<tag k="place" v="locality" />
		<tag k="ssr:stedsnr" v="760309" />
	</node>
	<node id="-303889" lat="58.9363833316" lon="8.20578333432">
		<tag k="name" v="Råtholta" />
		<tag k="place" v="locality" />
		<tag k="ssr:stedsnr" v="233152" />
	</node>
	<node id="-303888" lat="58.9408305598" lon="8.20223611711">
		<tag k="name" v="Fillemyr" />
		<tag k="natural" v="wetland" />
		<tag k="ssr:stedsnr" v="233150" />
	</node>
	<node id="-305935" lat="58.6730527782" lon="8.45388333202">
		<tag k="name" v="Austre Trælsmyr" />
		<tag k="natural" v="wetland" />
		<tag k="ssr:stedsnr" v="760279" />
	</node>
	<node id="-305934" lat="58.6743750028" lon="8.40071666591">
		<tag k="name" v="Lauvholta" />
		<tag k="place" v="locality" />
		<tag k="ssr:stedsnr" v="760272" />
	</node>
	<node id="-301869" lat="58.7059361147" lon="8.22734721521">
		<tag k="name" v="Våmyr" />
		<tag k="natural" v="wetland" />
		<tag k="ssr:stedsnr" v="294675" />
	</node>
	<node id="-306306" lat="58.7032361115" lon="8.37097221818">
		<tag k="name" v="Dei brente steinane" />
		<tag k="natural" v="stone" />
		<tag k="ssr:stedsnr" v="821408" />
	</node>
	<node id="-303882" lat="58.7600611069" lon="8.09128610867">
		<tag k="name" v="Stigmyrane" />
		<tag k="natural" v="wetland" />
		<tag k="ssr:stedsnr" v="232930" />
	</node>
	<node id="-302892" lat="58.8115111119" lon="8.39287777527">
		<tag k="name" v="Steinslåtta" />
		<tag k="natural" v="wetland" />
		<tag k="ssr:stedsnr" v="38424" />
	</node>
	<node id="-302269" lat="58.7997805593" lon="8.46708889586">
		<tag k="alt_name" v="Åsmyra" />
		<tag k="name" v="Åsemyr" />
		<tag k="natural" v="wetland" />
		<tag k="ssr:stedsnr" v="364159" />
	</node>
	<node id="-302550" lat="58.7454249991" lon="8.09792221402">
		<tag k="name" v="Kveinkjerret" />
		<tag k="natural" v="wetland" />
		<tag k="ssr:stedsnr" v="475843" />
	</node>
	<node id="-303874" lat="58.7377833351" lon="8.32830555669">
		<tag k="name" v="Steane" />
		<tag k="natural" v="wetland" />
		<tag k="ssr:stedsnr" v="232322" />
	</node>
	<node id="-305963" lat="58.6969388924" lon="8.63219444416">
		<tag k="name" v="Taksetkjerr" />
		<tag k="natural" v="wetland" />
		<tag k="ssr:stedsnr" v="760541" />
	</node>
	<node id="-304938" lat="58.6944666681" lon="8.3710833268">
		<tag k="name" v="Rønningen" />
		<tag k="place" v="locality" />
		<tag k="ssr:stedsnr" v="578382" />
	</node>
	<node id="-301818" lat="58.8017277784" lon="8.16765277086">
		<tag k="name" v="Kinnånbakkane" />
		<tag k="place" v="locality" />
		<tag k="ssr:stedsnr" v="293313" />
	</node>
	<node id="-301810" lat="58.760433335" lon="8.24618889349">
		<tag k="name" v="Brustykket" />
		<tag k="place" v="locality" />
		<tag k="ssr:stedsnr" v="294417" />
	</node>
	<node id="-301809" lat="58.782680553" lon="8.42479166981">
		<tag k="name" v="Den store myra" />
		<tag k="natural" v="wetland" />
		<tag k="ssr:stedsnr" v="294408" />
	</node>
	<node id="-302335" lat="58.8090000018" lon="8.67166945204">
		<tag k="name" v="Vrangmyr" />
		<tag k="natural" v="wetland" />
		<tag k="ssr:stedsnr" v="365676" />
	</node>
	<node id="-304936" lat="58.694716665" lon="8.33932778022">
		<tag k="name" v="Torolfsmyr" />
		<tag k="natural" v="wetland" />
		<tag k="ssr:stedsnr" v="578371" />
	</node>
	<node id="-301806" lat="58.8690083353" lon="8.052741662">
		<tag k="name" v="Løvoll" />
		<tag k="place" v="locality" />
		<tag k="ssr:stedsnr" v="293030" />
	</node>
	<node id="-301804" lat="58.8705527819" lon="8.0049527756">
		<tag k="name" v="Ljågrasslåtta" />
		<tag k="natural" v="wetland" />
		<tag k="ssr:stedsnr" v="293023" />
	</node>
	<node id="-303850" lat="58.6345138893" lon="8.74005277875">
		<tag k="name" v="Bronmyr" />
		<tag k="natural" v="wetland" />
		<tag k="ssr:stedsnr" v="226839" />
	</node>
	<node id="-303848" lat="58.8228861141" lon="8.33554999596">
		<tag k="name" v="Sjeklemyrsteane" />
		<tag k="natural" v="wetland" />
		<tag k="ssr:stedsnr" v="220764" />
	</node>
	<node id="-302204" lat="58.8076138903" lon="8.05406111648">
		<tag k="name" v="Langemyr" />
		<tag k="natural" v="wetland" />
		<tag k="ssr:stedsnr" v="354714" />
	</node>
	<node id="-305892" lat="58.8697333359" lon="8.58667499599">
		<tag k="name" v="Likjerret" />
		<tag k="natural" v="wetland" />
		<tag k="ssr:stedsnr" v="759151" />
	</node>
	<node id="-305889" lat="58.7926388925" lon="8.51775277555">
		<tag k="name" v="Krona" />
		<tag k="place" v="locality" />
		<tag k="ssr:stedsnr" v="759138" />
	</node>
	<node id="-305888" lat="58.7896444406" lon="8.51368055887">
		<tag k="name" v="Ljosmyr" />
		<tag k="natural" v="wetland" />
		<tag k="ssr:stedsnr" v="759137" />
	</node>
	<node id="-305887" lat="58.7844111124" lon="8.54530278472">
		<tag k="name" v="Hegningskjerr" />
		<tag k="natural" v="wetland" />
		<tag k="ssr:stedsnr" v="759135" />
	</node>
	<node id="-303838" lat="58.7651166637" lon="8.54764722369">
		<tag k="name" v="Svinåsmyra" />
		<tag k="natural" v="wetland" />
		<tag k="ssr:stedsnr" v="214760" />
	</node>
	<node id="-301861" lat="58.8065194477" lon="8.23475555333">
		<tag k="name" v="Seljesteane" />
		<tag k="place" v="locality" />
		<tag k="ssr:stedsnr" v="294637" />
	</node>
	<node id="-305884" lat="58.8106361111" lon="8.64963888702">
		<tag k="name" v="Nedre Kallestadmyra" />
		<tag k="natural" v="wetland" />
		<tag k="ssr:stedsnr" v="759085" />
	</node>
	<node id="-303834" lat="58.7143805581" lon="8.58743333725">
		<tag k="name" v="Hesseldalsmyra" />
		<tag k="natural" v="wetland" />
		<tag k="ssr:stedsnr" v="214699" />
	</node>
	<node id="-303833" lat="58.6839249992" lon="8.56091944203">
		<tag k="name" v="Djupe Røyrmyr" />
		<tag k="natural" v="wetland" />
		<tag k="ssr:stedsnr" v="214692" />
	</node>
	<node id="-303832" lat="58.72370278" lon="8.54496943619">
		<tag k="name" v="Holta" />
		<tag k="place" v="locality" />
		<tag k="ssr:stedsnr" v="214687" />
	</node>
	<node id="-303830" lat="58.7464222263" lon="8.47618054894">
		<tag k="name" v="Breifeltkarten" />
		<tag k="natural" v="wetland" />
		<tag k="ssr:stedsnr" v="214678" />
	</node>
	<node id="-303829" lat="58.7476750031" lon="8.45808610435">
		<tag k="name" v="Sundssanden" />
		<tag k="natural" v="beach" />
		<tag k="ssr:stedsnr" v="214677" />
		<tag k="surface" v="sand" />
	</node>
	<node id="-303828" lat="58.7498888856" lon="8.4653222175">
		<tag k="name" v="Hagevollen" />
		<tag k="place" v="locality" />
		<tag k="ssr:stedsnr" v="214675" />
	</node>
	<node id="-303827" lat="58.7420027769" lon="8.47137221679">
		<tag k="name" v="Sundsmyra" />
		<tag k="place" v="locality" />
		<tag k="ssr:stedsnr" v="214667" />
	</node>
	<node id="-303826" lat="58.7285944461" lon="8.46009722135">
		<tag k="name" v="Krekane" />
		<tag k="natural" v="wetland" />
		<tag k="ssr:stedsnr" v="214661" />
	</node>
	<node id="-302883" lat="58.7827166656" lon="8.52776666137">
		<tag k="name" v="Fjellstøyl" />
		<tag k="place" v="locality" />
		<tag k="ssr:stedsnr" v="32704" />
	</node>
	<node id="-301776" lat="58.8022249992" lon="8.35544167413">
		<tag k="name" v="Blomesteane" />
		<tag k="natural" v="wetland" />
		<tag k="ssr:stedsnr" v="280828" />
	</node>
	<node id="-303823" lat="58.7184694489" lon="8.45754444238">
		<tag k="name" v="Sigridnesmyr" />
		<tag k="natural" v="wetland" />
		<tag k="ssr:stedsnr" v="214648" />
	</node>
	<node id="-301772" lat="58.7182833306" lon="8.34716389333">
		<tag k="name" v="Torvmyra" />
		<tag k="natural" v="wetland" />
		<tag k="ssr:stedsnr" v="275454" />
	</node>
	<node id="-303906" lat="58.7210638867" lon="8.11555833904">
		<tag k="name" v="Nystølstykket" />
		<tag k="place" v="locality" />
		<tag k="ssr:stedsnr" v="233575" />
	</node>
	<node id="-303818" lat="58.6346722197" lon="8.69023055163">
		<tag k="name" v="Kilandskjerret" />
		<tag k="natural" v="wetland" />
		<tag k="ssr:stedsnr" v="214624" />
	</node>
	<node id="-303816" lat="58.737208329" lon="8.50520832684">
		<tag k="name" v="Sarasaur" />
		<tag k="place" v="locality" />
		<tag k="ssr:stedsnr" v="214608" />
	</node>
	<node id="-303815" lat="58.7519944467" lon="8.51906944316">
		<tag k="name" v="Steane" />
		<tag k="place" v="locality" />
		<tag k="ssr:stedsnr" v="214591" />
	</node>
	<node id="-301766" lat="58.663427782" lon="8.63422222394">
		<tag k="name" v="Varemyrane" />
		<tag k="natural" v="wetland" />
		<tag k="ssr:stedsnr" v="275382" />
	</node>
	<node id="-301764" lat="58.7223916705" lon="8.37509443692">
		<tag k="name" v="Kløvsteinsbrota" />
		<tag k="place" v="locality" />
		<tag k="ssr:stedsnr" v="275367" />
	</node>
	<node id="-303811" lat="58.6964722211" lon="8.69735000586">
		<tag k="name" v="Vestre Diplemyr" />
		<tag k="natural" v="wetland" />
		<tag k="ssr:stedsnr" v="214542" />
	</node>
	<node id="-301762" lat="58.7124416687" lon="8.38236665843">
		<tag k="name" v="Tobakksmyrane" />
		<tag k="natural" v="wetland" />
		<tag k="ssr:stedsnr" v="275356" />
	</node>
	<node id="-301761" lat="58.7280083371" lon="8.37977499479">
		<tag k="name" v="Sorgliholtet" />
		<tag k="place" v="locality" />
		<tag k="ssr:stedsnr" v="275357" />
	</node>
	<node id="-303808" lat="58.7194638849" lon="8.33188332867">
		<tag k="name" v="Flærone" />
		<tag k="place" v="locality" />
		<tag k="ssr:stedsnr" v="214476" />
	</node>
	<node id="-303806" lat="58.6954027746" lon="8.38264722287">
		<tag k="name" v="Flæremyrane" />
		<tag k="natural" v="wetland" />
		<tag k="ssr:stedsnr" v="214404" />
	</node>
	<node id="-303221" lat="58.6431555593" lon="8.73181944512">
		<tag k="name" v="Ostemyr" />
		<tag k="natural" v="wetland" />
		<tag k="ssr:stedsnr" v="105951" />
	</node>
	<node id="-302538" lat="58.7509194424" lon="8.35946111423">
		<tag k="name" v="Stormyr" />
		<tag k="natural" v="wetland" />
		<tag k="ssr:stedsnr" v="475407" />
	</node>
	<node id="-305951" lat="58.7251333361" lon="8.35045278513">
		<tag k="name" v="Nedre Klappekleivmyra" />
		<tag k="natural" v="wetland" />
		<tag k="ssr:stedsnr" v="760487" />
	</node>
	<node id="-303800" lat="58.7323611098" lon="8.38106666736">
		<tag k="name" v="Lauvbua" />
		<tag k="place" v="locality" />
		<tag k="ssr:stedsnr" v="214366" />
	</node>
	<node id="-303798" lat="58.6517805549" lon="8.40594167099">
		<tag k="name" v="Langemyr" />
		<tag k="natural" v="wetland" />
		<tag k="ssr:stedsnr" v="214335" />
	</node>
	<node id="-304585" lat="58.7534833366" lon="8.495227785">
		<tag k="name" v="Buksemyr" />
		<tag k="natural" v="wetland" />
		<tag k="ssr:stedsnr" v="517661" />
	</node>
	<node id="-303796" lat="58.705347225" lon="8.41455554813">
		<tag k="name" v="Saurmyr" />
		<tag k="natural" v="wetland" />
		<tag k="ssr:stedsnr" v="214302" />
	</node>
	<node id="-301747" lat="58.7133805563" lon="8.45610556018">
		<tag k="name" v="Småmyr" />
		<tag k="natural" v="wetland" />
		<tag k="ssr:stedsnr" v="274600" />
	</node>
	<node id="-301745" lat="58.6800583302" lon="8.68516110308">
		<tag k="name" v="Røssingholta" />
		<tag k="place" v="locality" />
		<tag k="ssr:stedsnr" v="274597" />
	</node>
	<node id="-301744" lat="58.6893444423" lon="8.68087222702">
		<tag k="name" v="Nøra" />
		<tag k="place" v="locality" />
		<tag k="ssr:stedsnr" v="274593" />
	</node>
	<node id="-301743" lat="58.6192138852" lon="8.70853054983">
		<tag k="name" v="Torsmyr" />
		<tag k="natural" v="wetland" />
		<tag k="ssr:stedsnr" v="274591" />
	</node>
	<node id="-301742" lat="58.7411944457" lon="8.50982778074">
		<tag k="name" v="Pantteigen" />
		<tag k="place" v="locality" />
		<tag k="ssr:stedsnr" v="274586" />
	</node>
	<node id="-305949" lat="58.7321333335" lon="8.35361111954">
		<tag k="name" v="Svartbergmyrane" />
		<tag k="natural" v="wetland" />
		<tag k="ssr:stedsnr" v="760479" />
	</node>
	<node id="-303787" lat="58.6796250021" lon="8.38744444656">
		<tag k="name" v="Enterste" />
		<tag k="natural" v="wetland" />
		<tag k="ssr:stedsnr" v="214226" />
	</node>
	<node id="-301738" lat="58.700855557" lon="8.70553888277">
		<tag k="name" v="Rokkekjerr" />
		<tag k="natural" v="wetland" />
		<tag k="ssr:stedsnr" v="274528" />
	</node>
	<node id="-301737" lat="58.6662833329" lon="8.6668444518">
		<tag k="name" v="Hestehagen" />
		<tag k="place" v="locality" />
		<tag k="ssr:stedsnr" v="274483" />
	</node>
	<node id="-301736" lat="58.6659722213" lon="8.6720027849">
		<tag k="name" v="Pinsmyr" />
		<tag k="natural" v="wetland" />
		<tag k="ssr:stedsnr" v="274482" />
	</node>
	<node id="-301734" lat="58.7787888908" lon="8.57865276931">
		<tag k="name" v="Holeslåtta" />
		<tag k="natural" v="wetland" />
		<tag k="ssr:stedsnr" v="274451" />
	</node>
	<node id="-303781" lat="58.6762333367" lon="8.61954165894">
		<tag k="name" v="Snømyr" />
		<tag k="natural" v="wetland" />
		<tag k="ssr:stedsnr" v="214177" />
	</node>
	<node id="-303780" lat="58.644349997" lon="8.50464721993">
		<tag k="name" v="Lauvdalsslåtten" />
		<tag k="natural" v="wetland" />
		<tag k="ssr:stedsnr" v="214170" />
	</node>
	<node id="-301730" lat="58.8354611131" lon="8.58782500324">
		<tag k="name" v="Jordsmyr" />
		<tag k="natural" v="wetland" />
		<tag k="ssr:stedsnr" v="274412" />
	</node>
	<node id="-303771" lat="58.7897361092" lon="8.605380564">
		<tag k="name" v="Øygardsmyra" />
		<tag k="natural" v="wetland" />
		<tag k="ssr:stedsnr" v="213472" />
	</node>
	<node id="-301721" lat="58.7631833317" lon="8.5791805507">
		<tag k="name" v="Bjørndalskjerret" />
		<tag k="natural" v="wetland" />
		<tag k="ssr:stedsnr" v="274331" />
	</node>
	<node id="-303768" lat="58.7057138846" lon="8.52480277086">
		<tag k="name" v="Åsulvskjerr" />
		<tag k="natural" v="wetland" />
		<tag k="ssr:stedsnr" v="213444" />
	</node>
	<node id="-303765" lat="58.6948972237" lon="8.40205834122">
		<tag k="name" v="Lislemyr" />
		<tag k="natural" v="wetland" />
		<tag k="ssr:stedsnr" v="213352" />
	</node>
	<node id="-303764" lat="58.6947611097" lon="8.4287944387">
		<tag k="name" v="Holebekksteane" />
		<tag k="natural" v="wetland" />
		<tag k="ssr:stedsnr" v="213353" />
	</node>
	<node id="-303214" lat="58.8123722242" lon="8.40132221549">
		<tag k="name" v="Lundane" />
		<tag k="place" v="locality" />
		<tag k="ssr:stedsnr" v="99417" />
	</node>
	<node id="-303555" lat="58.7392666683" lon="8.28758333531">
		<tag k="name" v="Hækjenkleivmyrane" />
		<tag k="natural" v="wetland" />
		<tag k="ssr:stedsnr" v="172352" />
	</node>
	<node id="-301710" lat="58.6400388857" lon="8.4477583307">
		<tag k="name" v="Kartmyra" />
		<tag k="natural" v="wetland" />
		<tag k="ssr:stedsnr" v="274265" />
	</node>
	<node id="-304720" lat="58.8286861134" lon="8.40037777875">
		<tag k="name" v="Slurpa" />
		<tag k="natural" v="wetland" />
		<tag k="ssr:stedsnr" v="537487" />
	</node>
	<node id="-303756" lat="58.8768694489" lon="8.63895555093">
		<tag k="name" v="Skarvemyrene" />
		<tag k="natural" v="wetland" />
		<tag k="ssr:stedsnr" v="213181" />
	</node>
	<node id="-303895" lat="58.7430277754" lon="8.35518611499">
		<tag k="name" v="Blåmyrane" />
		<tag k="natural" v="wetland" />
		<tag k="ssr:stedsnr" v="233412" />
	</node>
	<node id="-303752" lat="58.7822555533" lon="8.64113055408">
		<tag k="name" v="Byttingsmyra" />
		<tag k="natural" v="wetland" />
		<tag k="ssr:stedsnr" v="213115" />
	</node>
	<node id="-303751" lat="58.8086972178" lon="8.64739721663">
		<tag k="name" v="Øvre Kallestadmyra" />
		<tag k="natural" v="wetland" />
		<tag k="ssr:stedsnr" v="213100" />
	</node>
	<node id="-301702" lat="58.7305499957" lon="8.44800556299">
		<tag k="name" v="Ormåsmyr" />
		<tag k="natural" v="wetland" />
		<tag k="ssr:stedsnr" v="274194" />
	</node>
	<node id="-301701" lat="58.6702333327" lon="8.65551110776">
		<tag k="name" v="Lille Bjørkholtmyra" />
		<tag k="natural" v="wetland" />
		<tag k="ssr:stedsnr" v="274190" />
	</node>
	<node id="-302870" lat="58.7032166663" lon="8.63100832476">
		<tag k="name" v="Botthollsmyr" />
		<tag k="natural" v="wetland" />
		<tag k="ssr:stedsnr" v="32513" />
	</node>
	<node id="-303745" lat="58.8563666629" lon="8.58308611653">
		<tag k="name" v="Svendens myrar" />
		<tag k="natural" v="wetland" />
		<tag k="ssr:stedsnr" v="213041" />
	</node>
	<node id="-301696" lat="58.8772694462" lon="8.63080277243">
		<tag k="name" v="Rubulimyra" />
		<tag k="natural" v="wetland" />
		<tag k="ssr:stedsnr" v="274158" />
	</node>
	<node id="-303743" lat="58.8652277764" lon="8.54864999187">
		<tag k="name" v="Småholune" />
		<tag k="natural" v="wetland" />
		<tag k="ssr:stedsnr" v="213033" />
	</node>
	<node id="-305788" lat="58.7850499961" lon="8.34405554948">
		<tag k="name" v="Kraunehallet" />
		<tag k="natural" v="wetland" />
		<tag k="ssr:stedsnr" v="728212" />
	</node>
	<node id="-303738" lat="58.9103750025" lon="8.56436388966">
		<tag k="name" v="Dei sju slåttene" />
		<tag k="natural" v="wetland" />
		<tag k="ssr:stedsnr" v="213001" />
	</node>
	<node id="-304575" lat="58.7274249974" lon="8.61845000604">
		<tag k="name" v="Fuglemyr" />
		<tag k="natural" v="wetland" />
		<tag k="ssr:stedsnr" v="517535" />
	</node>
	<node id="-301688" lat="58.7796222211" lon="8.61532500413">
		<tag k="name" v="Byttingsmyra" />
		<tag k="natural" v="wetland" />
		<tag k="ssr:stedsnr" v="274087" />
	</node>
	<node id="-301687" lat="58.8399500009" lon="8.61427222587">
		<tag k="name" v="Den store Orreleikmyra" />
		<tag k="natural" v="wetland" />
		<tag k="ssr:stedsnr" v="274083" />
	</node>
	<node id="-305781" lat="58.7642305533" lon="8.43030277877">
		<tag k="name" v="Nedre Bjønneholet" />
		<tag k="natural" v="wetland" />
		<tag k="ssr:stedsnr" v="719835" />
	</node>
	<node id="-305780" lat="58.7855111141" lon="8.233844436">
		<tag k="name" v="Slåttefet" />
		<tag k="natural" v="wetland" />
		<tag k="ssr:stedsnr" v="719751" />
	</node>
	<node id="-302526" lat="58.8776055565" lon="8.14683889683">
		<tag k="name" v="Nedre-steane" />
		<tag k="natural" v="wetland" />
		<tag k="ssr:stedsnr" v="475006" />
	</node>
	<node id="-302867" lat="58.7222999968" lon="8.63387500034">
		<tag k="name" v="Mjåvatsmyra" />
		<tag k="natural" v="wetland" />
		<tag k="ssr:stedsnr" v="32499" />
	</node>
	<node id="-305773" lat="58.7041027778" lon="8.26584444844">
		<tag k="name" v="Tolvmannsteinen" />
		<tag k="natural" v="stone" />
		<tag k="ssr:stedsnr" v="719620" />
	</node>
	<node id="-304572" lat="58.6507083363" lon="8.67230278225">
		<tag k="name" v="Moltemyra" />
		<tag k="natural" v="wetland" />
		<tag k="ssr:stedsnr" v="517520" />
	</node>
	<node id="-305537" lat="58.8278833376" lon="8.61200000057">
		<tag k="name" v="Helgesmyr" />
		<tag k="natural" v="wetland" />
		<tag k="ssr:stedsnr" v="699086" />
	</node>
	<node id="-305762" lat="58.7252472232" lon="8.3030555533">
		<tag k="name" v="Holtebekkmyra" />
		<tag k="natural" v="wetland" />
		<tag k="ssr:stedsnr" v="719567" />
	</node>
	<node id="-305761" lat="58.7160111142" lon="8.32320000652">
		<tag k="name" v="Fjellsendsteinen" />
		<tag k="natural" v="stone" />
		<tag k="ssr:stedsnr" v="719543" />
	</node>
	<node id="-303205" lat="58.7796861117" lon="8.45867500282">
		<tag k="name" v="Bjønnåsmyra" />
		<tag k="natural" v="wetland" />
		<tag k="ssr:stedsnr" v="98081" />
	</node>
	<node id="-305756" lat="58.7665749977" lon="8.23235555704">
		<tag k="name" v="Lisle Kongsskogmyra" />
		<tag k="natural" v="wetland" />
		<tag k="ssr:stedsnr" v="719386" />
	</node>
	<node id="-304909" lat="58.7125861082" lon="8.47450278584">
		<tag k="name" v="Lauvlunden" />
		<tag k="place" v="locality" />
		<tag k="ssr:stedsnr" v="577628" />
	</node>
	<node id="-305739" lat="58.7913305585" lon="8.47035554729">
		<tag k="name" v="Timmeråsen" />
		<tag k="natural" v="wetland" />
		<tag k="ssr:stedsnr" v="719088" />
	</node>
	<node id="-303690" lat="58.7649138889" lon="8.35488889426">
		<tag k="name" v="Midtslåtten" />
		<tag k="natural" v="wetland" />
		<tag k="ssr:stedsnr" v="183192" />
	</node>
	<node id="-305736" lat="58.7312138908" lon="8.21958333175">
		<tag k="name" v="Vogsdalsmyrane" />
		<tag k="natural" v="wetland" />
		<tag k="ssr:stedsnr" v="719479" />
	</node>
	<node id="-305733" lat="58.7252083339" lon="8.21961111835">
		<tag k="name" v="Flegstadmyra" />
		<tag k="natural" v="wetland" />
		<tag k="ssr:stedsnr" v="719456" />
	</node>
	<node id="-305731" lat="58.7381944484" lon="8.00932777188">
		<tag k="name" v="Storemyr" />
		<tag k="natural" v="wetland" />
		<tag k="ssr:stedsnr" v="718841" />
	</node>
	<node id="-303883" lat="58.758127782" lon="8.07830834052">
		<tag k="name" v="Høgelisteane" />
		<tag k="natural" v="wetland" />
		<tag k="ssr:stedsnr" v="232957" />
	</node>
	<node id="-302535" lat="58.7516444439" lon="8.30967500614">
		<tag k="name" v="Orgarsmyran" />
		<tag k="natural" v="wetland" />
		<tag k="ssr:stedsnr" v="475343" />
	</node>
	<node id="-303674" lat="58.8522249986" lon="8.32011945029">
		<tag k="alt_name" v="Blautmyri" />
		<tag k="name" v="Blautmyrane" />
		<tag k="natural" v="wetland" />
		<tag k="ssr:stedsnr" v="183073" />
	</node>
	<node id="-303967" lat="58.8684416638" lon="8.50673611526">
		<tag k="name" v="Simonsmyr" />
		<tag k="natural" v="wetland" />
		<tag k="ssr:stedsnr" v="243706" />
	</node>
	<node id="-303285" lat="58.7284750044" lon="8.24034721793">
		<tag k="name" v="Husebuslåtten" />
		<tag k="natural" v="wetland" />
		<tag k="ssr:stedsnr" v="112531" />
	</node>
	<node id="-305717" lat="58.8054166694" lon="8.23517499852">
		<tag k="name" v="Seljestemyra" />
		<tag k="natural" v="wetland" />
		<tag k="ssr:stedsnr" v="718614" />
	</node>
	<node id="-305716" lat="58.8036944413" lon="8.23644722152">
		<tag k="name" v="Salebrekk" />
		<tag k="place" v="locality" />
		<tag k="ssr:stedsnr" v="718612" />
	</node>
	<node id="-304222" lat="58.8184944441" lon="8.18788332932">
		<tag k="name" v="Nesstøylsteane" />
		<tag k="natural" v="wetland" />
		<tag k="ssr:stedsnr" v="426163" />
	</node>
	<node id="-303661" lat="58.6789472233" lon="8.66801110509">
		<tag k="name" v="Limyra" />
		<tag k="natural" v="wetland" />
		<tag k="ssr:stedsnr" v="182906" />
	</node>
	<node id="-305706" lat="58.7320305534" lon="7.98760554994">
		<tag k="name" v="Sandtjønnmyrane" />
		<tag k="natural" v="wetland" />
		<tag k="ssr:stedsnr" v="718413" />
	</node>
	<node id="-305927" lat="58.6768666666" lon="8.70651944442">
		<tag k="name" v="Vestre Hagen" />
		<tag k="place" v="locality" />
		<tag k="ssr:stedsnr" v="759765" />
	</node>
	<node id="-304561" lat="58.8154416707" lon="8.50101110257">
		<tag k="name" v="Rennemyra" />
		<tag k="natural" v="wetland" />
		<tag k="ssr:stedsnr" v="517470" />
	</node>
	<node id="-302854" lat="58.7007166669" lon="8.3343388972">
		<tag k="name" v="Tretteslåttmyra" />
		<tag k="natural" v="wetland" />
		<tag k="ssr:stedsnr" v="32371" />
	</node>
	<node id="-303195" lat="58.6959222193" lon="8.64596389281">
		<tag k="name" v="Hestehagen" />
		<tag k="place" v="locality" />
		<tag k="ssr:stedsnr" v="92768" />
	</node>
	<node id="-305689" lat="58.8965722182" lon="8.43478333446">
		<tag k="name" v="Hesthommane" />
		<tag k="place" v="locality" />
		<tag k="ssr:stedsnr" v="718195" />
	</node>
	<node id="-302804" lat="58.772763893" lon="8.55200555831">
		<tag k="name" v="Stavdalskjerret" />
		<tag k="natural" v="wetland" />
		<tag k="ssr:stedsnr" v="31362" />
	</node>
	<node id="-305683" lat="58.9400861087" lon="8.19631666502">
		<tag k="name" v="Makkesmogone" />
		<tag k="place" v="locality" />
		<tag k="ssr:stedsnr" v="718136" />
	</node>
	<node id="-305923" lat="58.7948388911" lon="8.5644472156">
		<tag k="name" v="Klokkarmyra" />
		<tag k="natural" v="wetland" />
		<tag k="ssr:stedsnr" v="759494" />
	</node>
	<node id="-303629" lat="58.892061113" lon="8.24818333297">
		<tag k="name" v="Nilsesmyr" />
		<tag k="natural" v="wetland" />
		<tag k="ssr:stedsnr" v="173647" />
	</node>
	<node id="-301826" lat="58.817072221" lon="8.07734999859">
		<tag k="name" v="Dyplemyr" />
		<tag k="natural" v="wetland" />
		<tag k="ssr:stedsnr" v="293698" />
	</node>
	<node id="-303624" lat="58.830202777" lon="8.38628333599">
		<tag k="name" v="Hellsteinkjorra" />
		<tag k="place" v="locality" />
		<tag k="ssr:stedsnr" v="173449" />
	</node>
	<node id="-305671" lat="58.8792833335" lon="8.0652638956">
		<tag k="name" v="Kveldsbeite" />
		<tag k="place" v="locality" />
		<tag k="ssr:stedsnr" v="718024" />
	</node>
	<node id="-305667" lat="58.8310750004" lon="8.10846110931">
		<tag k="alt_name" v="Vassholane" />
		<tag k="name" v="Vassholone" />
		<tag k="place" v="locality" />
		<tag k="ssr:stedsnr" v="717928" />
	</node>
	<node id="-303612" lat="58.877674996" lon="8.25108333233">
		<tag k="name" v="Under-Liane" />
		<tag k="place" v="locality" />
		<tag k="ssr:stedsnr" v="173005" />
	</node>
	<node id="-305659" lat="58.9443861085" lon="8.02772500551">
		<tag k="name" v="Grunntjønnsteane" />
		<tag k="natural" v="wetland" />
		<tag k="ssr:stedsnr" v="717128" />
	</node>
	<node id="-303609" lat="58.9585388861" lon="8.20516388542">
		<tag k="name" v="Gylaugslått" />
		<tag k="natural" v="wetland" />
		<tag k="ssr:stedsnr" v="172949" />
	</node>
	<node id="-303606" lat="58.7683833346" lon="8.40972500547">
		<tag k="name" v="Bjønnhisteinen" />
		<tag k="natural" v="stone" />
		<tag k="ssr:stedsnr" v="172889" />
	</node>
	<node id="-305649" lat="58.9001138886" lon="7.99787777288">
		<tag k="name" v="Moltekarslåtta" />
		<tag k="natural" v="wetland" />
		<tag k="ssr:stedsnr" v="717210" />
	</node>
	<node id="-303598" lat="58.7415333333" lon="8.40243611832">
		<tag k="name" v="Langemyr" />
		<tag k="natural" v="wetland" />
		<tag k="ssr:stedsnr" v="172834" />
	</node>
	<node id="-301849" lat="58.7377611094" lon="8.22749444072">
		<tag k="name" v="Hushovdslåtten" />
		<tag k="natural" v="wetland" />
		<tag k="ssr:stedsnr" v="294314" />
	</node>
	<node id="-303594" lat="58.8557555551" lon="8.42448888765">
		<tag k="name" v="Stigslåttune" />
		<tag k="natural" v="wetland" />
		<tag k="ssr:stedsnr" v="172673" />
	</node>
	<node id="-305641" lat="58.9401916657" lon="8.24234166583">
		<tag k="name" v="Ormekarten" />
		<tag k="natural" v="wetland" />
		<tag k="ssr:stedsnr" v="713331" />
	</node>
	<node id="-305640" lat="58.9292277817" lon="8.26565556169">
		<tag k="name" v="Kveldreimyra" />
		<tag k="natural" v="wetland" />
		<tag k="ssr:stedsnr" v="713327" />
	</node>
	<node id="-302805" lat="58.7415194459" lon="8.57499166632">
		<tag k="name" v="Slåttmyr" />
		<tag k="natural" v="wetland" />
		<tag k="ssr:stedsnr" v="31368" />
	</node>
	<node id="-305637" lat="58.6463861119" lon="8.7520722251">
		<tag k="name" v="Blautmyr" />
		<tag k="natural" v="wetland" />
		<tag k="ssr:stedsnr" v="711958" />
	</node>
	<node id="-303587" lat="58.758724996" lon="8.31985278103">
		<tag k="name" v="Orgarsslåtten" />
		<tag k="natural" v="wetland" />
		<tag k="ssr:stedsnr" v="172768" />
	</node>
	<node id="-303585" lat="58.8089583311" lon="8.05354444612">
		<tag k="name" v="Steinsland" />
		<tag k="place" v="locality" />
		<tag k="ssr:stedsnr" v="172743" />
	</node>
	<node id="-303582" lat="58.8567694419" lon="8.34400555023">
		<tag k="name" v="Oreflatine" />
		<tag k="place" v="locality" />
		<tag k="ssr:stedsnr" v="172731" />
	</node>
	<node id="-302501" lat="58.660888893" lon="8.72441389071">
		<tag k="name" v="Dyråsmyra" />
		<tag k="natural" v="wetland" />
		<tag k="ssr:stedsnr" v="408958" />
	</node>
	<node id="-303580" lat="58.8493055578" lon="8.28036944524">
		<tag k="name" v="Fivrellflota" />
		<tag k="natural" v="wetland" />
		<tag k="ssr:stedsnr" v="172726" />
	</node>
	<node id="-303574" lat="58.7944555538" lon="8.21406943896">
		<tag k="name" v="Napeura" />
		<tag k="natural" v="scree" />
		<tag k="ssr:stedsnr" v="172705" />
	</node>
	<node id="-305619" lat="58.6582333376" lon="8.64828610765">
		<tag k="name" v="Dikesmyra" />
		<tag k="natural" v="wetland" />
		<tag k="ssr:stedsnr" v="700450" />
	</node>
	<node id="-302499" lat="58.6288888872" lon="8.73589722768">
		<tag k="name" v="Trettekjerr" />
		<tag k="natural" v="wetland" />
		<tag k="ssr:stedsnr" v="408821" />
	</node>
	<node id="-303568" lat="58.7294083346" lon="8.30922500151">
		<tag k="name" v="Hestebrekkmyrane" />
		<tag k="natural" v="wetland" />
		<tag k="ssr:stedsnr" v="172644" />
	</node>
	<node id="-305614" lat="58.7110249956" lon="8.37442222787">
		<tag k="landuse" v="meadow" />
		<tag k="name" v="Grøvane" />
		<tag k="ssr:stedsnr" v="700420" />
	</node>
	<node id="-305613" lat="58.6997750044" lon="8.35405832772">
		<tag k="name" v="Rostveitsteane" />
		<tag k="place" v="locality" />
		<tag k="ssr:stedsnr" v="700417" />
	</node>
	<node id="-305612" lat="58.7209083357" lon="8.37121389412">
		<tag k="name" v="Spodalsmyra" />
		<tag k="natural" v="wetland" />
		<tag k="ssr:stedsnr" v="700406" />
	</node>
	<node id="-305610" lat="58.6817361106" lon="8.67196944164">
		<tag k="name" v="Kjørgårdmyra" />
		<tag k="natural" v="wetland" />
		<tag k="ssr:stedsnr" v="699746" />
	</node>
	<node id="-305609" lat="58.6682055511" lon="8.66338888991">
		<tag k="name" v="Grøsskrokane" />
		<tag k="natural" v="wetland" />
		<tag k="ssr:stedsnr" v="699715" />
	</node>
	<node id="-305606" lat="58.7317500026" lon="8.53074443812">
		<tag k="name" v="Lunden" />
		<tag k="place" v="locality" />
		<tag k="ssr:stedsnr" v="699637" />
	</node>
	<node id="-303557" lat="58.767063888" lon="8.21318888411">
		<tag k="name" v="Lindreistjønnmyrane" />
		<tag k="natural" v="wetland" />
		<tag k="ssr:stedsnr" v="172339" />
	</node>
	<node id="-305603" lat="58.7131638924" lon="8.48089444211">
		<tag k="name" v="Mosbergmyr" />
		<tag k="natural" v="wetland" />
		<tag k="ssr:stedsnr" v="699630" />
	</node>
	<node id="-303554" lat="58.8950249983" lon="8.41380833217">
		<tag k="name" v="Uvdalsøygarden" />
		<tag k="place" v="locality" />
		<tag k="ssr:stedsnr" v="172189" />
	</node>
	<node id="-305601" lat="58.7279611151" lon="8.44133054697">
		<tag k="name" v="Blautemyr" />
		<tag k="natural" v="wetland" />
		<tag k="ssr:stedsnr" v="699604" />
	</node>
	<node id="-305600" lat="58.7264194479" lon="8.4472583404">
		<tag k="name" v="Asborgsmyr" />
		<tag k="natural" v="wetland" />
		<tag k="ssr:stedsnr" v="699602" />
	</node>
	<node id="-305599" lat="58.7190749993" lon="8.45228888159">
		<tag k="name" v="Jordsmyr" />
		<tag k="natural" v="wetland" />
		<tag k="ssr:stedsnr" v="699596" />
	</node>
	<node id="-305594" lat="58.7470277791" lon="8.53010000839">
		<tag k="name" v="Oksebåsmyra" />
		<tag k="natural" v="wetland" />
		<tag k="ssr:stedsnr" v="699559" />
	</node>
	<node id="-303543" lat="58.8310527769" lon="8.09763888991">
		<tag k="name" v="Nordgardsfeta" />
		<tag k="place" v="locality" />
		<tag k="ssr:stedsnr" v="171926" />
	</node>
	<node id="-305584" lat="58.6766111124" lon="8.67358610831">
		<tag k="name" v="Ånonskjerr" />
		<tag k="natural" v="wetland" />
		<tag k="ssr:stedsnr" v="699486" />
	</node>
	<node id="-305583" lat="58.8039194452" lon="8.55089167506">
		<tag k="name" v="Gulhusmyr" />
		<tag k="natural" v="wetland" />
		<tag k="ssr:stedsnr" v="699476" />
	</node>
	<node id="-305581" lat="58.7814416685" lon="8.57217221765">
		<tag k="name" v="Steinhusmyrane" />
		<tag k="natural" v="wetland" />
		<tag k="ssr:stedsnr" v="699472" />
	</node>
	<node id="-303532" lat="58.7981888872" lon="8.20149444484">
		<tag k="name" v="Tveiturdene" />
		<tag k="natural" v="scree" />
		<tag k="ssr:stedsnr" v="171232" />
	</node>
	<node id="-303530" lat="58.8886499962" lon="8.02306666336">
		<tag k="name" v="Rjukanmyran" />
		<tag k="natural" v="wetland" />
		<tag k="ssr:stedsnr" v="171174" />
	</node>
	<node id="-305577" lat="58.8294138922" lon="8.57899999731">
		<tag k="name" v="Revemyr" />
		<tag k="natural" v="wetland" />
		<tag k="ssr:stedsnr" v="699430" />
	</node>
	<node id="-305576" lat="58.8373249963" lon="8.55375278049">
		<tag k="name" v="Timmernesmyra" />
		<tag k="natural" v="wetland" />
		<tag k="ssr:stedsnr" v="699421" />
	</node>
	<node id="-305572" lat="58.7032250035" lon="8.44756945078">
		<tag k="name" v="Langemyr" />
		<tag k="natural" v="wetland" />
		<tag k="ssr:stedsnr" v="699391" />
	</node>
	<node id="-305571" lat="58.7494250021" lon="8.55755833775">
		<tag k="name" v="Krosslåtta" />
		<tag k="natural" v="wetland" />
		<tag k="ssr:stedsnr" v="699378" />
	</node>
	<node id="-303518" lat="58.8742861148" lon="8.12184166788">
		<tag k="name" v="Vallhøyslåtta" />
		<tag k="natural" v="wetland" />
		<tag k="ssr:stedsnr" v="171008" />
	</node>
	<node id="-302149" lat="58.7777555568" lon="8.1715055532">
		<tag k="name" v="Hillestadmyra" />
		<tag k="natural" v="wetland" />
		<tag k="ssr:stedsnr" v="353644" />
	</node>
	<node id="-303514" lat="58.6582777802" lon="8.74426945004">
		<tag k="name" v="Høyslåtta" />
		<tag k="natural" v="wetland" />
		<tag k="ssr:stedsnr" v="165976" />
	</node>
	<node id="-305561" lat="58.7078388881" lon="8.40728054929">
		<tag k="name" v="Fylsmyr" />
		<tag k="natural" v="wetland" />
		<tag k="ssr:stedsnr" v="699301" />
	</node>
	<node id="-303512" lat="58.6481249986" lon="8.75591389538">
		<tag k="name" v="Kyllandsmyr" />
		<tag k="natural" v="wetland" />
		<tag k="ssr:stedsnr" v="165967" />
	</node>
	<node id="-303510" lat="58.644863893" lon="8.73447222032">
		<tag k="name" v="Jakobsmyr" />
		<tag k="natural" v="wetland" />
		<tag k="ssr:stedsnr" v="165827" />
	</node>
	<node id="-305557" lat="58.6892555579" lon="8.47574444399">
		<tag k="name" v="Langemyr" />
		<tag k="natural" v="wetland" />
		<tag k="ssr:stedsnr" v="699237" />
	</node>
	<node id="-305554" lat="58.7759888865" lon="8.53263888489">
		<tag k="name" v="Grandalen" />
		<tag k="place" v="locality" />
		<tag k="ssr:stedsnr" v="699218" />
	</node>
	<node id="-305553" lat="58.7613888926" lon="8.51425278099">
		<tag k="name" v="Lomsmyr" />
		<tag k="natural" v="wetland" />
		<tag k="ssr:stedsnr" v="699210" />
	</node>
	<node id="-305551" lat="58.7647916693" lon="8.47770555938">
		<tag k="name" v="Honsfet" />
		<tag k="place" v="locality" />
		<tag k="ssr:stedsnr" v="699197" />
	</node>
	<node id="-305548" lat="58.6714861091" lon="8.64114999316">
		<tag k="name" v="Alauskjerr" />
		<tag k="natural" v="wetland" />
		<tag k="ssr:stedsnr" v="699177" />
	</node>
	<node id="-305547" lat="58.6794277748" lon="8.65449166965">
		<tag k="name" v="Segersmyr" />
		<tag k="natural" v="wetland" />
		<tag k="ssr:stedsnr" v="699171" />
	</node>
	<node id="-305546" lat="58.6797805587" lon="8.64693610628">
		<tag k="name" v="Grandalen" />
		<tag k="natural" v="wetland" />
		<tag k="ssr:stedsnr" v="699170" />
	</node>
	<node id="-305544" lat="58.6725749979" lon="8.64378334064">
		<tag k="name" v="Snømyr" />
		<tag k="natural" v="wetland" />
		<tag k="ssr:stedsnr" v="699161" />
	</node>
	<node id="-305541" lat="58.8689999967" lon="8.5597833283">
		<tag k="name" v="Hestebeitet" />
		<tag k="natural" v="wetland" />
		<tag k="ssr:stedsnr" v="699129" />
	</node>
	<node id="-305539" lat="58.7401500034" lon="8.61807499552">
		<tag k="name" v="Bjørkholta" />
		<tag k="place" v="locality" />
		<tag k="ssr:stedsnr" v="699109" />
	</node>
	<node id="-305538" lat="58.777091666" lon="8.63781110927">
		<tag k="name" v="Væråsmyra" />
		<tag k="natural" v="wetland" />
		<tag k="ssr:stedsnr" v="699087" />
	</node>
	<node id="-303489" lat="58.7473388917" lon="8.46112500536">
		<tag k="name" v="Hageholta" />
		<tag k="old_name" v="Haheholta" />
		<tag k="place" v="locality" />
		<tag k="ssr:stedsnr" v="153670" />
	</node>
	<node id="-305535" lat="58.8023750013" lon="8.6638722159">
		<tag k="name" v="Donafjellmyra" />
		<tag k="natural" v="wetland" />
		<tag k="ssr:stedsnr" v="699082" />
	</node>
	<node id="-303486" lat="58.7017972257" lon="8.7014444402">
		<tag k="name" v="Dalsmyrkilen" />
		<tag k="natural" v="wetland" />
		<tag k="ssr:stedsnr" v="153564" />
	</node>
	<node id="-305533" lat="58.8469777753" lon="8.6336361097">
		<tag k="name" v="Raundalsmyra" />
		<tag k="natural" v="wetland" />
		<tag k="ssr:stedsnr" v="699074" />
	</node>
	<node id="-305532" lat="58.8440361083" lon="8.58561666727">
		<tag k="name" v="Bumyr" />
		<tag k="natural" v="wetland" />
		<tag k="ssr:stedsnr" v="699049" />
	</node>
	<node id="-302826" lat="58.6935916654" lon="8.47616944863">
		<tag k="name" v="Høgemyr" />
		<tag k="natural" v="wetland" />
		<tag k="ssr:stedsnr" v="31386" />
	</node>
	<node id="-302462" lat="58.6940861069" lon="8.37513889064">
		<tag k="name" v="Granhotten" />
		<tag k="place" v="locality" />
		<tag k="ssr:stedsnr" v="396383" />
	</node>
	<node id="-302484" lat="58.6877805594" lon="8.70203888099">
		<tag k="name" v="Ufsvatsmyra" />
		<tag k="natural" v="wetland" />
		<tag k="ssr:stedsnr" v="396598" />
	</node>
	<node id="-305526" lat="58.8809583304" lon="8.53151667009">
		<tag k="name" v="Stakslundshenkane" />
		<tag k="natural" v="wetland" />
		<tag k="ssr:stedsnr" v="699024" />
	</node>
	<node id="-303477" lat="58.7242972202" lon="8.33772777124">
		<tag k="name" v="Avbaksmyra" />
		<tag k="natural" v="wetland" />
		<tag k="ssr:stedsnr" v="153475" />
	</node>
	<node id="-305524" lat="58.762908334" lon="8.63098332675">
		<tag k="name" v="Trandlemyra" />
		<tag k="natural" v="wetland" />
		<tag k="ssr:stedsnr" v="699013" />
	</node>
	<node id="-302142" lat="58.90006667" lon="8.06605833744">
		<tag k="name" v="Lonetjønnsteane" />
		<tag k="natural" v="wetland" />
		<tag k="ssr:stedsnr" v="353219" />
	</node>
	<node id="-301800" lat="58.8964111123" lon="8.01807500685">
		<tag k="name" v="Halsen" />
		<tag k="natural" v="wetland" />
		<tag k="ssr:stedsnr" v="292184" />
	</node>
	<node id="-303744" lat="58.9000277813" lon="8.52795555263">
		<tag k="name" v="Den brende steinen" />
		<tag k="natural" v="stone" />
		<tag k="ssr:stedsnr" v="213037" />
	</node>
	<node id="-305517" lat="58.9085888873" lon="8.34852777163">
		<tag k="name" v="Suggemyr" />
		<tag k="natural" v="wetland" />
		<tag k="ssr:stedsnr" v="668972" />
	</node>
	<node id="-305516" lat="58.922461108" lon="8.10194166108">
		<tag k="name" v="Persbekksteane" />
		<tag k="natural" v="wetland" />
		<tag k="ssr:stedsnr" v="668936" />
	</node>
	<node id="-304530" lat="58.7692472211" lon="8.50699165836">
		<tag k="name" v="Ospeflot" />
		<tag k="place" v="locality" />
		<tag k="ssr:stedsnr" v="517216" />
	</node>
	<node id="-305895" lat="58.8702555527" lon="8.65377499596">
		<tag k="name" v="Olasmyr" />
		<tag k="natural" v="wetland" />
		<tag k="ssr:stedsnr" v="759166" />
	</node>
	<node id="-303463" lat="58.6750277775" lon="8.37698056164">
		<tag k="name" v="Høgemyr" />
		<tag k="natural" v="wetland" />
		<tag k="ssr:stedsnr" v="153283" />
	</node>
	<node id="-303456" lat="58.7427666674" lon="8.51345277031">
		<tag k="name" v="Øystrefet" />
		<tag k="place" v="locality" />
		<tag k="ssr:stedsnr" v="153614" />
	</node>
	<node id="-303455" lat="58.7443972214" lon="8.52577777202">
		<tag k="name" v="Reklimyra" />
		<tag k="natural" v="wetland" />
		<tag k="ssr:stedsnr" v="153615" />
	</node>
	<node id="-303452" lat="58.6803916692" lon="8.63826110539">
		<tag k="name" v="Galgemyrene" />
		<tag k="natural" v="wetland" />
		<tag k="ssr:stedsnr" v="152777" />
	</node>
	<node id="-304437" lat="58.8129833345" lon="8.22785555937">
		<tag k="name" v="Steggebusteane" />
		<tag k="natural" v="wetland" />
		<tag k="ssr:stedsnr" v="486174" />
	</node>
	<node id="-302479" lat="58.6965055551" lon="8.67245276932">
		<tag k="name" v="Siristein" />
		<tag k="natural" v="stone" />
		<tag k="ssr:stedsnr" v="396532" />
	</node>
	<node id="-303448" lat="58.7009527742" lon="8.47903611557">
		<tag k="name" v="Tjønneslåtten" />
		<tag k="natural" v="wetland" />
		<tag k="ssr:stedsnr" v="152446" />
	</node>
	<node id="-303446" lat="58.7736722202" lon="8.60232500616">
		<tag k="name" v="Dei hole slåttene" />
		<tag k="natural" v="wetland" />
		<tag k="ssr:stedsnr" v="152427" />
	</node>
	<node id="-303445" lat="58.7476583292" lon="8.55457500467">
		<tag k="name" v="Den runde slåtten" />
		<tag k="natural" v="wetland" />
		<tag k="ssr:stedsnr" v="152425" />
	</node>
	<node id="-303141" lat="58.6708555599" lon="8.64404999534">
		<tag k="name" v="Kollemyra" />
		<tag k="natural" v="wetland" />
		<tag k="ssr:stedsnr" v="92209" />
	</node>
	<node id="-303441" lat="58.7600249971" lon="8.55980278144">
		<tag k="name" v="Lågmyr" />
		<tag k="natural" v="wetland" />
		<tag k="ssr:stedsnr" v="152404" />
	</node>
	<node id="-303439" lat="58.7763027739" lon="8.52842777146">
		<tag k="name" v="Grandalsmyra" />
		<tag k="natural" v="wetland" />
		<tag k="ssr:stedsnr" v="152258" />
	</node>
	<node id="-303438" lat="58.7575444469" lon="8.51840277678">
		<tag k="name" v="Giggemyr" />
		<tag k="natural" v="wetland" />
		<tag k="ssr:stedsnr" v="152252" />
	</node>
	<node id="-303437" lat="58.7566666695" lon="8.50441666906">
		<tag k="name" v="Hessmyrane" />
		<tag k="natural" v="wetland" />
		<tag k="ssr:stedsnr" v="152243" />
	</node>
	<node id="-303435" lat="58.8534027811" lon="8.65115277354">
		<tag k="name" v="Glerlimyrane" />
		<tag k="natural" v="wetland" />
		<tag k="ssr:stedsnr" v="152203" />
	</node>
	<node id="-305480" lat="58.7159055514" lon="8.17056111232">
		<tag k="alt_name" v="Ekornmyri" />
		<tag k="name" v="Ekornmyr" />
		<tag k="natural" v="wetland" />
		<tag k="ssr:stedsnr" v="668489" />
	</node>
	<node id="-303426" lat="58.7951833366" lon="8.54584999897">
		<tag k="name" v="Klokkarmyra" />
		<tag k="natural" v="wetland" />
		<tag k="ssr:stedsnr" v="152153" />
	</node>
	<node id="-303425" lat="58.7914277745" lon="8.6158388934">
		<tag k="name" v="Grosmyr" />
		<tag k="natural" v="wetland" />
		<tag k="ssr:stedsnr" v="152143" />
	</node>
	<node id="-303004" lat="58.9561805586" lon="8.20677499267">
		<tag k="name" v="Den hole slåtta" />
		<tag k="natural" v="wetland" />
		<tag k="ssr:stedsnr" v="51947" />
	</node>
	<node id="-303422" lat="58.8064944418" lon="8.65490833727">
		<tag k="name" v="Fugletjønnkjerret" />
		<tag k="natural" v="wetland" />
		<tag k="ssr:stedsnr" v="152098" />
	</node>
	<node id="-303420" lat="58.8203972225" lon="8.66367777605">
		<tag k="name" v="Gislesmyr" />
		<tag k="natural" v="wetland" />
		<tag k="ssr:stedsnr" v="152083" />
	</node>
	<node id="-303419" lat="58.8309111121" lon="8.65895000606">
		<tag k="name" v="Haukedalsmyra" />
		<tag k="natural" v="wetland" />
		<tag k="ssr:stedsnr" v="152079" />
	</node>
	<node id="-305466" lat="58.6866583304" lon="8.43221111187">
		<tag k="name" v="Surtemyr" />
		<tag k="natural" v="wetland" />
		<tag k="ssr:stedsnr" v="668332" />
	</node>
	<node id="-303417" lat="58.8512222248" lon="8.55420277285">
		<tag k="name" v="Lindlikjerret" />
		<tag k="natural" v="wetland" />
		<tag k="ssr:stedsnr" v="152072" />
	</node>
	<node id="-303414" lat="58.9012333336" lon="8.55009444762">
		<tag k="name" v="Blektarkjerret" />
		<tag k="natural" v="wetland" />
		<tag k="ssr:stedsnr" v="152051" />
	</node>
	<node id="-302557" lat="58.7593833373" lon="8.06616943841">
		<tag k="name" v="Skremyr" />
		<tag k="natural" v="wetland" />
		<tag k="ssr:stedsnr" v="475972" />
	</node>
	<node id="-303409" lat="58.816172221" lon="8.1431777704">
		<tag k="name" v="Buståsteinen" />
		<tag k="natural" v="stone" />
		<tag k="ssr:stedsnr" v="147743" />
	</node>
	<node id="-302813" lat="58.7099583337" lon="8.43453333836">
		<tag k="name" v="Tjøregrøvmyra" />
		<tag k="natural" v="wetland" />
		<tag k="ssr:stedsnr" v="31307" />
	</node>
	<node id="-302666" lat="58.8406749961" lon="8.27656944084">
		<tag k="name" v="Grytestøylmyrane" />
		<tag k="natural" v="wetland" />
		<tag k="ssr:stedsnr" v="888623" />
	</node>
	<node id="-302469" lat="58.7170416664" lon="8.3497472166">
		<tag k="name" v="Bergestykket" />
		<tag k="place" v="locality" />
		<tag k="ssr:stedsnr" v="396471" />
	</node>
	<node id="-305432" lat="58.8274000007" lon="8.16638332768">
		<tag k="alt_name" v="Storemyri" />
		<tag k="name" v="Storemyr" />
		<tag k="natural" v="wetland" />
		<tag k="ssr:stedsnr" v="668074" />
	</node>
	<node id="-302798" lat="58.7447583344" lon="8.61212221744">
		<tag k="name" v="Bjørnsmyr" />
		<tag k="natural" v="wetland" />
		<tag k="ssr:stedsnr" v="31119" />
	</node>
	<node id="-303491" lat="58.7146055529" lon="8.60492777441">
		<tag k="name" v="Langekjerr" />
		<tag k="natural" v="wetland" />
		<tag k="ssr:stedsnr" v="153688" />
	</node>
	<node id="-303376" lat="58.834755554" lon="8.53600555242">
		<tag k="alt_name" v="Blautmyr" />
		<tag k="name" v="Blautemyr" />
		<tag k="natural" v="wetland" />
		<tag k="ssr:stedsnr" v="122630" />
	</node>
	<node id="-301784" lat="58.8408333331" lon="8.39331666679">
		<tag k="name" v="Kolbotten" />
		<tag k="natural" v="wetland" />
		<tag k="ssr:stedsnr" v="281739" />
	</node>
	<node id="-303373" lat="58.7219833332" lon="8.14418333003">
		<tag k="alt_name" v="Vadmyri" />
		<tag k="name" v="Vamyr" />
		<tag k="natural" v="wetland" />
		<tag k="ssr:stedsnr" v="122480" />
	</node>
	<node id="-302466" lat="58.6679444406" lon="8.6478611148">
		<tag k="name" v="Plassmyra" />
		<tag k="natural" v="wetland" />
		<tag k="ssr:stedsnr" v="396413" />
	</node>
	<node id="-303566" lat="58.8060194401" lon="8.22224722318">
		<tag k="name" v="Stigemyr" />
		<tag k="natural" v="wetland" />
		<tag k="ssr:stedsnr" v="172641" />
	</node>
	<node id="-305414" lat="58.9686611089" lon="8.11171111798">
		<tag k="name" v="Dei lange myrene" />
		<tag k="natural" v="wetland" />
		<tag k="ssr:stedsnr" v="658868" />
	</node>
	<node id="-305413" lat="58.748833332" lon="8.20248333663">
		<tag k="name" v="Gamle Blaksmyr" />
		<tag k="natural" v="wetland" />
		<tag k="ssr:stedsnr" v="658866" />
	</node>
	<node id="-305412" lat="58.9715888915" lon="8.10890554813">
		<tag k="name" v="Dei store slåttone" />
		<tag k="natural" v="wetland" />
		<tag k="ssr:stedsnr" v="658858" />
	</node>
	<node id="-304853" lat="58.8423555594" lon="8.56391666962">
		<tag k="name" v="Nesskogen" />
		<tag k="place" v="locality" />
		<tag k="ssr:stedsnr" v="577060" />
	</node>
	<node id="-305399" lat="58.8489833322" lon="8.37779444785">
		<tag k="name" v="Kringlemyr" />
		<tag k="natural" v="wetland" />
		<tag k="ssr:stedsnr" v="658635" />
	</node>
	<node id="-305534" lat="58.8026111112" lon="8.65333888811">
		<tag k="name" v="Vierkjerra" />
		<tag k="natural" v="wetland" />
		<tag k="ssr:stedsnr" v="699075" />
	</node>
	<node id="-303345" lat="58.8481861144" lon="8.30873056377">
		<tag k="alt_name" v="Bjørnemyri" />
		<tag k="name" v="Bjønnemyr" />
		<tag k="natural" v="wetland" />
		<tag k="ssr:stedsnr" v="122072" />
	</node>
	<node id="-305390" lat="58.7923305585" lon="8.0011638894">
		<tag k="name" v="Tveitlimyrane" />
		<tag k="natural" v="wetland" />
		<tag k="ssr:stedsnr" v="658575" />
	</node>
	<node id="-303485" lat="58.6908972226" lon="8.63012777278">
		<tag k="name" v="Mjåvassmyra" />
		<tag k="natural" v="wetland" />
		<tag k="ssr:stedsnr" v="153554" />
	</node>
	<node id="-303338" lat="58.766749998" lon="8.63717499928">
		<tag k="alt_name" v="Mørkhusdalsmyra" />
		<tag k="name" v="Gruvemyra" />
		<tag k="natural" v="wetland" />
		<tag k="ssr:stedsnr" v="121506" />
	</node>
	<node id="-305385" lat="58.8644027745" lon="8.41756388689">
		<tag k="name" v="Strandvassmyra" />
		<tag k="natural" v="wetland" />
		<tag k="ssr:stedsnr" v="658428" />
	</node>
	<node id="-305384" lat="58.7555944469" lon="8.24695277792">
		<tag k="name" v="Åbrotmyra" />
		<tag k="natural" v="wetland" />
		<tag k="ssr:stedsnr" v="658420" />
	</node>
	<node id="-302460" lat="58.7133722221" lon="8.38041388129">
		<tag k="name" v="Koldalsmyra" />
		<tag k="natural" v="wetland" />
		<tag k="ssr:stedsnr" v="396351" />
	</node>
	<node id="-304849" lat="58.8964916699" lon="8.51143888751">
		<tag k="name" v="Ura" />
		<tag k="natural" v="scree" />
		<tag k="ssr:stedsnr" v="577037" />
	</node>
	<node id="-302461" lat="58.7274277817" lon="8.37754166748">
		<tag k="name" v="Den store eika" />
		<tag k="place" v="locality" />
		<tag k="ssr:stedsnr" v="396366" />
	</node>
	<node id="-303330" lat="58.7371611149" lon="8.11667499701">
		<tag k="name" v="Nautenesmyra" />
		<tag k="natural" v="wetland" />
		<tag k="ssr:stedsnr" v="113906" />
	</node>
	<node id="-305377" lat="58.8631666655" lon="8.20776388578">
		<tag k="name" v="Åskjerret" />
		<tag k="natural" v="wetland" />
		<tag k="ssr:stedsnr" v="658255" />
	</node>
	<node id="-305373" lat="58.8652500018" lon="8.27815277519">
		<tag k="name" v="Fossmyrane" />
		<tag k="natural" v="wetland" />
		<tag k="ssr:stedsnr" v="658129" />
	</node>
	<node id="-305371" lat="58.7845694429" lon="8.39436111277">
		<tag k="name" v="Ommundssteinen" />
		<tag k="natural" v="stone" />
		<tag k="ssr:stedsnr" v="658115" />
	</node>
	<node id="-305365" lat="58.8655666646" lon="8.22989999454">
		<tag k="name" v="Grosmyr" />
		<tag k="natural" v="wetland" />
		<tag k="ssr:stedsnr" v="658011" />
	</node>
	<node id="-303316" lat="58.7476138905" lon="8.19774167012">
		<tag k="name" v="Nedre Tjerandlimyra" />
		<tag k="natural" v="wetland" />
		<tag k="ssr:stedsnr" v="112883" />
	</node>
	<node id="-304846" lat="58.7728916675" lon="8.63319722947">
		<tag k="name" v="Væråsstea" />
		<tag k="natural" v="wetland" />
		<tag k="ssr:stedsnr" v="577014" />
	</node>
	<node id="-305358" lat="58.756136113" lon="8.09011111909">
		<tag k="name" v="Lundemyr" />
		<tag k="natural" v="wetland" />
		<tag k="ssr:stedsnr" v="657928" />
	</node>
	<node id="-302797" lat="58.7672222183" lon="8.64683333588">
		<tag k="name" v="Strandslåtta" />
		<tag k="natural" v="wetland" />
		<tag k="ssr:stedsnr" v="31114" />
	</node>
	<node id="-303479" lat="58.7173583377" lon="8.35510555691">
		<tag k="name" v="Sandane" />
		<tag k="place" v="locality" />
		<tag k="ssr:stedsnr" v="153497" />
	</node>
	<node id="-303478" lat="58.7309194413" lon="8.35013333255">
		<tag k="name" v="Djuplemyr" />
		<tag k="natural" v="wetland" />
		<tag k="ssr:stedsnr" v="153494" />
	</node>
	<node id="-303297" lat="58.8442166655" lon="8.33858333444">
		<tag k="name" v="Jorunds-stø" />
		<tag k="place" v="locality" />
		<tag k="ssr:stedsnr" v="112646" />
	</node>
	<node id="-301847" lat="58.910433335" lon="8.33902499698">
		<tag k="name" v="Stallane" />
		<tag k="place" v="locality" />
		<tag k="ssr:stedsnr" v="294290" />
	</node>
	<node id="-303293" lat="58.7803999994" lon="7.98692778325">
		<tag k="name" v="Storemyr" />
		<tag k="natural" v="wetland" />
		<tag k="ssr:stedsnr" v="112628" />
	</node>
	<node id="-305339" lat="58.9431000023" lon="8.19435278004">
		<tag k="name" v="Moltekarten" />
		<tag k="natural" v="wetland" />
		<tag k="ssr:stedsnr" v="657234" />
	</node>
	<node id="-305336" lat="58.8551611103" lon="8.10021110247">
		<tag k="name" v="Elgmyrane" />
		<tag k="natural" v="wetland" />
		<tag k="ssr:stedsnr" v="657104" />
	</node>
	<node id="-303287" lat="58.7945861122" lon="8.02374445213">
		<tag k="name" v="Langmyr" />
		<tag k="natural" v="wetland" />
		<tag k="ssr:stedsnr" v="112572" />
	</node>
	<node id="-304841" lat="58.7979611079" lon="8.03009167414">
		<tag k="name" v="Bitmyr" />
		<tag k="natural" v="wetland" />
		<tag k="ssr:stedsnr" v="551713" />
	</node>
	<node id="-305523" lat="58.9110333299" lon="8.53123888433">
		<tag k="name" v="Blekemyrene" />
		<tag k="natural" v="wetland" />
		<tag k="ssr:stedsnr" v="699004" />
	</node>
	<node id="-301768" lat="58.6527388867" lon="8.65774165837">
		<tag k="name" v="Trytura" />
		<tag k="natural" v="scree" />
		<tag k="ssr:stedsnr" v="275393" />
	</node>
	<node id="-305324" lat="58.7894277813" lon="8.16775000099">
		<tag k="name" v="Stormyr" />
		<tag k="natural" v="wetland" />
		<tag k="ssr:stedsnr" v="656662" />
	</node>
	<node id="-305322" lat="58.8993388858" lon="8.00629999652">
		<tag k="name" v="Kroneslåtta" />
		<tag k="natural" v="wetland" />
		<tag k="ssr:stedsnr" v="656199" />
	</node>
	<node id="-303271" lat="58.8681166698" lon="8.21680277343">
		<tag k="name" v="Eivindslåtta" />
		<tag k="natural" v="wetland" />
		<tag k="ssr:stedsnr" v="112274" />
	</node>
	<node id="-305315" lat="58.8209250014" lon="8.1008055491">
		<tag k="name" v="Busetmyra" />
		<tag k="natural" v="wetland" />
		<tag k="ssr:stedsnr" v="656032" />
	</node>
	<node id="-303131" lat="58.8710833358" lon="8.63908611865">
		<tag k="name" v="Trytura" />
		<tag k="natural" v="scree" />
		<tag k="ssr:stedsnr" v="92154" />
	</node>
	<node id="-303476" lat="58.665113887" lon="8.65635833319">
		<tag k="name" v="Småmyrane" />
		<tag k="natural" v="wetland" />
		<tag k="ssr:stedsnr" v="153437" />
	</node>
	<node id="-302794" lat="58.8133722257" lon="8.65546666182">
		<tag k="name" v="Øvre Fiskevasskjerr" />
		<tag k="natural" v="wetland" />
		<tag k="ssr:stedsnr" v="31080" />
	</node>
	<node id="-301771" lat="58.7270222207" lon="8.35062778123">
		<tag k="name" v="Øvre Klappekleivmyra" />
		<tag k="natural" v="wetland" />
		<tag k="ssr:stedsnr" v="275455" />
	</node>
	<node id="-305305" lat="58.662527775" lon="8.7391972261">
		<tag k="name" v="Tryttej.slåtta" />
		<tag k="natural" v="wetland" />
		<tag k="ssr:stedsnr" v="650942" />
	</node>
	<node id="-303812" lat="58.7013444475" lon="8.67082500204">
		<tag k="name" v="Trommekjerra" />
		<tag k="natural" v="wetland" />
		<tag k="ssr:stedsnr" v="214551" />
	</node>
	<node id="-305298" lat="58.8027694429" lon="8.43609167116">
		<tag k="name" v="Mogghusmyrane" />
		<tag k="natural" v="wetland" />
		<tag k="ssr:stedsnr" v="644444" />
	</node>
	<node id="-301763" lat="58.7212194426" lon="8.38341111079">
		<tag k="name" v="Bronevollen" />
		<tag k="place" v="locality" />
		<tag k="ssr:stedsnr" v="275360" />
	</node>
	<node id="-302104" lat="58.8240777784" lon="8.33078610743">
		<tag k="name" v="Sjeklemyr" />
		<tag k="natural" v="wetland" />
		<tag k="ssr:stedsnr" v="342624" />
	</node>
	<node id="-305293" lat="58.8748638858" lon="8.37388610965">
		<tag k="name" v="Laurdagsslåtta" />
		<tag k="natural" v="wetland" />
		<tag k="old_name" v="Laurdagsslåta" />
		<tag k="ssr:stedsnr" v="644095" />
	</node>
	<node id="-305291" lat="58.7260972203" lon="8.34953611441">
		<tag k="name" v="Klappekleivmyra" />
		<tag k="natural" v="wetland" />
		<tag k="ssr:stedsnr" v="639525" />
	</node>
	<node id="-305289" lat="58.7177444412" lon="8.34068888661">
		<tag k="name" v="Åskjerret" />
		<tag k="natural" v="wetland" />
		<tag k="ssr:stedsnr" v="639502" />
	</node>
	<node id="-305285" lat="58.7052555581" lon="8.37511389331">
		<tag k="name" v="Gavlemyra" />
		<tag k="natural" v="wetland" />
		<tag k="ssr:stedsnr" v="639422" />
	</node>
	<node id="-305283" lat="58.7058027746" lon="8.35823332978">
		<tag k="name" v="Rostveitmyrane" />
		<tag k="natural" v="wetland" />
		<tag k="ssr:stedsnr" v="639419" />
	</node>
	<node id="-305282" lat="58.7240722229" lon="8.36886666513">
		<tag k="name" v="Sovedokk" />
		<tag k="place" v="locality" />
		<tag k="ssr:stedsnr" v="639417" />
	</node>
	<node id="-305279" lat="58.7131083335" lon="8.36410278541">
		<tag k="name" v="Kolbekkura" />
		<tag k="natural" v="scree" />
		<tag k="ssr:stedsnr" v="639408" />
	</node>
	<node id="-301770" lat="58.7153638848" lon="8.34756666938">
		<tag k="name" v="Kvernhusstea" />
		<tag k="natural" v="wetland" />
		<tag k="ssr:stedsnr" v="275451" />
	</node>
	<node id="-305272" lat="58.6973833312" lon="8.63603888066">
		<tag k="name" v="Hasselholta" />
		<tag k="place" v="locality" />
		<tag k="ssr:stedsnr" v="638772" />
	</node>
	<node id="-305269" lat="58.7481472212" lon="8.44197222653">
		<tag k="name" v="Hommen" />
		<tag k="place" v="locality" />
		<tag k="ssr:stedsnr" v="638642" />
	</node>
	<node id="-304931" lat="58.7126305559" lon="8.38423055608">
		<tag k="name" v="Tobakksteinan" />
		<tag k="natural" v="stone" />
		<tag k="ssr:stedsnr" v="578358" />
	</node>
	<node id="-305267" lat="58.7320861104" lon="8.45824445238">
		<tag k="name" v="Langemyrane" />
		<tag k="natural" v="wetland" />
		<tag k="ssr:stedsnr" v="638628" />
	</node>
	<node id="-305266" lat="58.6878527795" lon="8.71144443689">
		<tag k="name" v="Klovdalskjerret" />
		<tag k="natural" v="wetland" />
		<tag k="ssr:stedsnr" v="638615" />
	</node>
	<node id="-305265" lat="58.713408333" lon="8.46450278542">
		<tag k="name" v="Blautemyr" />
		<tag k="natural" v="wetland" />
		<tag k="ssr:stedsnr" v="638616" />
	</node>
	<node id="-305262" lat="58.6227472227" lon="8.71433888811">
		<tag k="name" v="Langemyr" />
		<tag k="natural" v="wetland" />
		<tag k="ssr:stedsnr" v="638600" />
	</node>
	<node id="-303213" lat="58.8119777779" lon="8.33790277886">
		<tag k="name" v="Grenhaugane" />
		<tag k="place" v="locality" />
		<tag k="ssr:stedsnr" v="98839" />
	</node>
	<node id="-303212" lat="58.8183805581" lon="8.34440000289">
		<tag k="name" v="Klovkjerra" />
		<tag k="natural" v="wetland" />
		<tag k="ssr:stedsnr" v="98837" />
	</node>
	<node id="-303209" lat="58.7813750043" lon="8.38058055918">
		<tag k="name" v="Bårhellene" />
		<tag k="natural" v="stone" />
		<tag k="ssr:stedsnr" v="98380" />
	</node>
	<node id="-303208" lat="58.7904361101" lon="8.34893055518">
		<tag k="name" v="Klovsteinen" />
		<tag k="natural" v="stone" />
		<tag k="ssr:stedsnr" v="98378" />
	</node>
	<node id="-305254" lat="58.6544583324" lon="8.6840444367">
		<tag k="name" v="Kvernmyra" />
		<tag k="natural" v="wetland" />
		<tag k="ssr:stedsnr" v="638481" />
	</node>
	<node id="-305253" lat="58.6664388858" lon="8.69019999823">
		<tag k="name" v="Stormyr" />
		<tag k="natural" v="wetland" />
		<tag k="ssr:stedsnr" v="638469" />
	</node>
	<node id="-305252" lat="58.6771583358" lon="8.69117500212">
		<tag k="name" v="Grytingmyrene" />
		<tag k="natural" v="wetland" />
		<tag k="ssr:stedsnr" v="638454" />
	</node>
	<node id="-303198" lat="58.6944527808" lon="8.35398611199">
		<tag k="name" v="Tjørgrovmyra" />
		<tag k="natural" v="wetland" />
		<tag k="ssr:stedsnr" v="93330" />
	</node>
	<node id="-303197" lat="58.7328777748" lon="8.37627221616">
		<tag k="name" v="Månemyra" />
		<tag k="natural" v="wetland" />
		<tag k="ssr:stedsnr" v="93328" />
	</node>
	<node id="-305244" lat="58.7986833298" lon="8.54614167311">
		<tag k="name" v="Orrmyr" />
		<tag k="natural" v="wetland" />
		<tag k="ssr:stedsnr" v="638427" />
	</node>
	<node id="-305243" lat="58.8237777751" lon="8.60522222751">
		<tag k="name" v="Orreleikmyra" />
		<tag k="natural" v="wetland" />
		<tag k="ssr:stedsnr" v="638419" />
	</node>
	<node id="-303119" lat="58.847447222" lon="8.60502500662">
		<tag k="name" v="Kartmyr" />
		<tag k="natural" v="wetland" />
		<tag k="ssr:stedsnr" v="92047" />
	</node>
	<node id="-301753" lat="58.7187027754" lon="8.57990277227">
		<tag k="name" v="Spjotsheimyra" />
		<tag k="natural" v="wetland" />
		<tag k="ssr:stedsnr" v="274642" />
	</node>
	<node id="-303188" lat="58.7370138918" lon="8.4884527741">
		<tag k="name" v="Nautsgang" />
		<tag k="place" v="locality" />
		<tag k="ssr:stedsnr" v="92654" />
	</node>
	<node id="-303186" lat="58.7166749977" lon="8.46688888759">
		<tag k="name" v="Revemyr" />
		<tag k="natural" v="wetland" />
		<tag k="ssr:stedsnr" v="92638" />
	</node>
	<node id="-303184" lat="58.6387583333" lon="8.71107777431">
		<tag k="name" v="Hovemyra" />
		<tag k="natural" v="wetland" />
		<tag k="ssr:stedsnr" v="92619" />
	</node>
	<node id="-301752" lat="58.7321388922" lon="8.53863334094">
		<tag k="name" v="Langemyr" />
		<tag k="natural" v="wetland" />
		<tag k="ssr:stedsnr" v="274632" />
	</node>
	<node id="-305230" lat="58.6940361149" lon="8.40987223034">
		<tag k="name" v="Varemyrane" />
		<tag k="natural" v="wetland" />
		<tag k="ssr:stedsnr" v="638310" />
	</node>
	<node id="-303181" lat="58.7523638866" lon="8.51532499642">
		<tag k="name" v="Langemyr" />
		<tag k="natural" v="wetland" />
		<tag k="ssr:stedsnr" v="92599" />
	</node>
	<node id="-305227" lat="58.7128555521" lon="8.41751944345">
		<tag k="name" v="Høgemyr" />
		<tag k="natural" v="wetland" />
		<tag k="ssr:stedsnr" v="638298" />
	</node>
	<node id="-305223" lat="58.7203805597" lon="8.42640833068">
		<tag k="name" v="Smørlimyrane" />
		<tag k="natural" v="wetland" />
		<tag k="ssr:stedsnr" v="638286" />
	</node>
	<node id="-305222" lat="58.6374388906" lon="8.46573054858">
		<tag k="name" v="Hyttemyrane" />
		<tag k="natural" v="wetland" />
		<tag k="ssr:stedsnr" v="638281" />
	</node>
	<node id="-303172" lat="58.7178666627" lon="8.61138611349">
		<tag k="name" v="Øktebitkjerr" />
		<tag k="natural" v="wetland" />
		<tag k="ssr:stedsnr" v="92534" />
	</node>
	<node id="-303171" lat="58.6496444452" lon="8.705719453">
		<tag k="name" v="Klemmetskjerr" />
		<tag k="natural" v="wetland" />
		<tag k="ssr:stedsnr" v="92517" />
	</node>
	<node id="-305218" lat="58.6749749977" lon="8.46891666097">
		<tag k="name" v="Tvilandsmyra" />
		<tag k="natural" v="wetland" />
		<tag k="ssr:stedsnr" v="638247" />
	</node>
	<node id="-303163" lat="58.7004194468" lon="8.53440832765">
		<tag k="name" v="Rutemyrene" />
		<tag k="natural" v="wetland" />
		<tag k="ssr:stedsnr" v="92420" />
	</node>
	<node id="-303162" lat="58.7455944429" lon="8.55406667036">
		<tag k="name" v="Lensmannsmyra" />
		<tag k="natural" v="wetland" />
		<tag k="ssr:stedsnr" v="92387" />
	</node>
	<node id="-303160" lat="58.7678138915" lon="8.56558888547">
		<tag k="name" v="Snoåskjerret" />
		<tag k="natural" v="wetland" />
		<tag k="ssr:stedsnr" v="92375" />
	</node>
	<node id="-301748" lat="58.728274996" lon="8.45373055929">
		<tag k="name" v="Grytemyr" />
		<tag k="natural" v="wetland" />
		<tag k="ssr:stedsnr" v="274610" />
	</node>
	<node id="-303157" lat="58.6546555581" lon="8.45014721878">
		<tag k="name" v="Bjørketveit" />
		<tag k="natural" v="wetland" />
		<tag k="ssr:stedsnr" v="92347" />
	</node>
	<node id="-305204" lat="58.8019472263" lon="8.62541111844">
		<tag k="name" v="Persmyrane" />
		<tag k="natural" v="wetland" />
		<tag k="ssr:stedsnr" v="638068" />
	</node>
	<node id="-305202" lat="58.8485222255" lon="8.55088332649">
		<tag k="name" v="Lindlimyra" />
		<tag k="natural" v="wetland" />
		<tag k="ssr:stedsnr" v="638053" />
	</node>
	<node id="-303152" lat="58.6990638853" lon="8.40104444047">
		<tag k="name" v="Storemyr" />
		<tag k="natural" v="wetland" />
		<tag k="ssr:stedsnr" v="92318" />
	</node>
	<node id="-303151" lat="58.6401638851" lon="8.4333083335">
		<tag k="name" v="Høymyr" />
		<tag k="natural" v="wetland" />
		<tag k="ssr:stedsnr" v="92289" />
	</node>
	<node id="-303150" lat="58.6746388849" lon="8.38095278166">
		<tag k="name" v="Langemyr" />
		<tag k="natural" v="wetland" />
		<tag k="ssr:stedsnr" v="92282" />
	</node>
	<node id="-305197" lat="58.9157444403" lon="8.5398944433">
		<tag k="name" v="Fjellmannhola" />
		<tag k="natural" v="wetland" />
		<tag k="ssr:stedsnr" v="638006" />
	</node>
	<node id="-303148" lat="58.69711111" lon="8.71825277539">
		<tag k="name" v="Bjørkkjerra" />
		<tag k="natural" v="wetland" />
		<tag k="ssr:stedsnr" v="92273" />
	</node>
	<node id="-305194" lat="58.8692388873" lon="8.62013611888">
		<tag k="name" v="Bumyrane" />
		<tag k="natural" v="wetland" />
		<tag k="ssr:stedsnr" v="637184" />
	</node>
	<node id="-303145" lat="58.7600444474" lon="8.52677222289">
		<tag k="name" v="Soppkjerret" />
		<tag k="natural" v="wetland" />
		<tag k="ssr:stedsnr" v="92230" />
	</node>
	<node id="-303144" lat="58.7622416682" lon="8.54481110622">
		<tag k="name" v="Makkemyr" />
		<tag k="place" v="locality" />
		<tag k="ssr:stedsnr" v="92222" />
	</node>
	<node id="-305189" lat="58.7854361077" lon="8.63207499364">
		<tag k="name" v="Byttingsmyra" />
		<tag k="natural" v="wetland" />
		<tag k="ssr:stedsnr" v="637133" />
	</node>
	<node id="-302427" lat="58.7513222227" lon="8.55037223048">
		<tag k="name" v="Blautmyrkjerret" />
		<tag k="natural" v="wetland" />
		<tag k="ssr:stedsnr" v="395614" />
	</node>
	<node id="-303135" lat="58.8430583295" lon="8.65768054782">
		<tag k="name" v="Kolåsstea" />
		<tag k="place" v="locality" />
		<tag k="ssr:stedsnr" v="92184" />
	</node>
	<node id="-305180" lat="58.91048056" lon="8.1846444462">
		<tag k="name" v="Hestehommane" />
		<tag k="place" v="locality" />
		<tag k="ssr:stedsnr" v="607995" />
	</node>
	<node id="-303450" lat="58.826094441" lon="8.5577722275">
		<tag k="name" v="Kjellingsprangmyra" />
		<tag k="natural" v="wetland" />
		<tag k="ssr:stedsnr" v="152494" />
	</node>
	<node id="-305178" lat="58.6673666645" lon="8.69184166369">
		<tag k="name" v="Trekkslåtta" />
		<tag k="natural" v="wetland" />
		<tag k="old_name" v="Trekkslålta" />
		<tag k="ssr:stedsnr" v="607946" />
	</node>
	<node id="-303128" lat="58.7702611104" lon="8.63703333664">
		<tag k="name" v="Hellersvasstea" />
		<tag k="natural" v="wetland" />
		<tag k="ssr:stedsnr" v="92103" />
	</node>
	<node id="-303127" lat="58.8098833365" lon="8.62358611594">
		<tag k="name" v="Angrimsmyr" />
		<tag k="natural" v="wetland" />
		<tag k="ssr:stedsnr" v="92100" />
	</node>
	<node id="-303449" lat="58.7008444474" lon="8.49336943829">
		<tag k="name" v="Høgemyr" />
		<tag k="natural" v="wetland" />
		<tag k="ssr:stedsnr" v="152447" />
	</node>
	<node id="-303122" lat="58.8298944482" lon="8.69912500369">
		<tag k="name" v="Lågmyr" />
		<tag k="natural" v="wetland" />
		<tag k="ssr:stedsnr" v="92058" />
	</node>
	<node id="-305496" lat="58.835283333" lon="8.66667500708">
		<tag k="alt_name" v="Bjårmyr" />
		<tag k="name" v="Bjormyr" />
		<tag k="natural" v="wetland" />
		<tag k="ssr:stedsnr" v="668653" />
	</node>
	<node id="-303118" lat="58.8596472221" lon="8.5595527807">
		<tag k="landuse" v="quarry" />
		<tag k="name" v="Gruva" />
		<tag k="ssr:stedsnr" v="92045" />
	</node>
	<node id="-303789" lat="58.6730138849" lon="8.44813332556">
		<tag k="name" v="Vestre Trælsmyr" />
		<tag k="natural" v="wetland" />
		<tag k="ssr:stedsnr" v="214248" />
	</node>
	<node id="-303115" lat="58.8696083298" lon="8.53386667263">
		<tag k="name" v="Djupmyr" />
		<tag k="natural" v="wetland" />
		<tag k="ssr:stedsnr" v="92026" />
	</node>
	<node id="-305161" lat="58.849138887" lon="8.59420278227">
		<tag k="name" v="Langmyr" />
		<tag k="natural" v="wetland" />
		<tag k="ssr:stedsnr" v="607724" />
	</node>
	<node id="-303471" lat="58.7071361109" lon="8.35088889204">
		<tag k="name" v="Holåskjerret" />
		<tag k="natural" v="wetland" />
		<tag k="ssr:stedsnr" v="153398" />
	</node>
	<node id="-305159" lat="58.87537222" lon="8.49186111365">
		<tag k="name" v="Sveinungsmyr" />
		<tag k="natural" v="wetland" />
		<tag k="ssr:stedsnr" v="607710" />
	</node>
	<node id="-303819" lat="58.6366555514" lon="8.7018083402">
		<tag k="name" v="Øygardsmyra" />
		<tag k="natural" v="wetland" />
		<tag k="ssr:stedsnr" v="214627" />
	</node>
</osm>
