<?xml version="1.0" encoding="UTF-8"?>
<osm generator="osmapis" version="0.6">
	<node id="-306944" lat="58.7034583317" lon="8.70618888221">
		<tag k="name" v="Bjørnskarken" />
		<tag k="place" v="locality" />
		<tag k="ssr:stedsnr" v="942540" />
	</node>
	<node id="-304064" lat="58.803675001" lon="8.15740000654">
		<tag k="name" v="Hjuringhuset" />
		<tag k="place" v="locality" />
		<tag k="ssr:stedsnr" v="264728" />
	</node>
	<node id="-304125" lat="58.6860638848" lon="8.32378889709">
		<tag k="name" v="Njukebua" />
		<tag k="place" v="locality" />
		<tag k="ssr:stedsnr" v="415726" />
	</node>
	<node id="-302970" lat="58.7279638931" lon="8.24140278456">
		<tag k="name" v="Husebu" />
		<tag k="place" v="locality" />
		<tag k="ssr:stedsnr" v="51578" />
	</node>
	<node id="-305910" lat="58.6992583362" lon="8.4528611169">
		<tag k="name" v="Lundane" />
		<tag k="place" v="locality" />
		<tag k="ssr:stedsnr" v="759374" />
	</node>
	<node id="-306164" lat="58.806897225" lon="8.17519165882">
		<tag k="alt_name" v="Tovdal" />
		<tag k="amenity" v="place_of_worship" />
		<tag k="denomination" v="lutheran" />
		<tag k="name" v="Tovdal kirke" />
		<tag k="religion" v="christian" />
		<tag k="ssr:stedsnr" v="789130" />
	</node>
	<node id="-303602" lat="58.7342111148" lon="8.42230556262">
		<tag k="name" v="Tverrstøl" />
		<tag k="ssr:stedsnr" v="172972" />
		<tag k="tourism" v="viewpoint" />
	</node>
	<node id="-304369" lat="58.6986694477" lon="8.6313222206">
		<tag k="name" v="Vedbua" />
		<tag k="place" v="locality" />
		<tag k="ssr:stedsnr" v="457522" />
	</node>
	<node id="-306404" lat="58.7814722251" lon="8.0116583333">
		<tag k="name" v="Sølvsneisa" />
		<tag k="place" v="locality" />
		<tag k="ssr:stedsnr" v="840579" />
	</node>
	<node id="-303459" lat="58.7675277806" lon="8.48778333338">
		<tag k="amenity" v="place_of_worship" />
		<tag k="denomination" v="lutheran" />
		<tag k="name" v="Åmli kirke" />
		<tag k="religion" v="christian" />
		<tag k="ssr:stedsnr" v="153221" />
	</node>
	<node id="-303968" lat="58.8740000013" lon="8.51614445168">
		<tag k="name" v="Gråten" />
		<tag k="place" v="locality" />
		<tag k="ssr:stedsnr" v="243718" />
	</node>
	<node id="-304093" lat="58.8180888926" lon="8.1991888958">
		<tag k="name" v="Grånhombua" />
		<tag k="place" v="locality" />
		<tag k="ssr:stedsnr" v="415310" />
	</node>
	<node id="-304859" lat="58.7941527739" lon="8.63757777604">
		<tag k="name" v="Koven" />
		<tag k="place" v="locality" />
		<tag k="ssr:stedsnr" v="577111" />
	</node>
	<node id="-306574" lat="58.7692638872" lon="8.62483056086">
		<tag k="name" v="Østrums post" />
		<tag k="place" v="locality" />
		<tag k="ssr:stedsnr" v="881024" />
	</node>
	<node id="-305231" lat="58.6678611115" lon="8.39398889539">
		<tag k="name" v="Saumjålkholene" />
		<tag k="place" v="locality" />
		<tag k="ssr:stedsnr" v="638318" />
	</node>
	<node id="-302030" lat="58.6683000009" lon="8.43434443946">
		<tag k="name" v="Rustad" />
		<tag k="place" v="locality" />
		<tag k="ssr:stedsnr" v="335340" />
	</node>
	<node id="-304844" lat="58.9092861147" lon="8.5693194391">
		<tag k="name" v="Kolmila" />
		<tag k="place" v="locality" />
		<tag k="ssr:stedsnr" v="577008" />
	</node>
	<node id="-303178" lat="58.7090916692" lon="8.59768333619">
		<tag k="amenity" v="community_centre" />
		<tag k="name" v="Vonheim" />
		<tag k="ssr:stedsnr" v="92581" />
	</node>
	<node id="-304716" lat="58.7651416675" lon="8.25106110558">
		<tag k="name" v="Postkassen" />
		<tag k="place" v="locality" />
		<tag k="ssr:stedsnr" v="537383" />
	</node>
	<node id="-303430" lat="58.8752722263" lon="8.58803055352">
		<tag k="name" v="Berlirullet" />
		<tag k="place" v="locality" />
		<tag k="ssr:stedsnr" v="152169" />
	</node>
	<node id="-306114" lat="58.7926888878" lon="8.22961111016">
		<tag k="name" v="Steinkirke" />
		<tag k="place" v="locality" />
		<tag k="ssr:stedsnr" v="779896" />
	</node>
	<node id="-304576" lat="58.6998388853" lon="8.64283888328">
		<tag k="name" v="Gunnarshus" />
		<tag k="place" v="locality" />
		<tag k="ssr:stedsnr" v="517548" />
	</node>
	<node id="-306236" lat="58.7807638865" lon="8.607572217">
		<tag k="name" v="Sjurstad" />
		<tag k="place" v="locality" />
		<tag k="ssr:stedsnr" v="820115" />
	</node>
	<node id="-304311" lat="58.7033194412" lon="8.46174999826">
		<tag k="name" v="Lauvlunden" />
		<tag k="place" v="locality" />
		<tag k="ssr:stedsnr" v="456399" />
	</node>
	<node id="-306996" lat="58.867919446" lon="8.3451527785">
		<tag k="name" v="Åmlandssaga" />
		<tag k="place" v="locality" />
		<tag k="ssr:stedsnr" v="948441" />
	</node>
	<node id="-303283" lat="58.7678805589" lon="8.24175277152">
		<tag k="name" v="Brynnartrona" />
		<tag k="place" v="locality" />
		<tag k="ssr:stedsnr" v="112424" />
	</node>
	<node id="-302458" lat="58.7266472211" lon="8.42687499873">
		<tag k="name" v="Solheim" />
		<tag k="place" v="locality" />
		<tag k="ssr:stedsnr" v="396346" />
	</node>
	<node id="-306097" lat="58.8579249985" lon="8.33939444712">
		<tag k="name" v="Saga" />
		<tag k="place" v="locality" />
		<tag k="ssr:stedsnr" v="779684" />
	</node>
	<node id="-305326" lat="58.8394333302" lon="8.17375278121">
		<tag k="name" v="Midtstøyl" />
		<tag k="place" v="locality" />
		<tag k="ssr:stedsnr" v="656683" />
	</node>
	<node id="-304680" lat="58.8153638923" lon="8.2351833409">
		<tag k="name" v="Espestøyl" />
		<tag k="place" v="locality" />
		<tag k="ssr:stedsnr" v="536598" />
	</node>
	<node id="-301863" lat="58.7262333306" lon="8.3154305481">
		<tag k="name" v="Lauvlibua" />
		<tag k="place" v="locality" />
		<tag k="ssr:stedsnr" v="294647" />
	</node>
	<node id="-304929" lat="58.7282305601" lon="8.4191944454">
		<tag k="name" v="Brennevinskotet" />
		<tag k="place" v="locality" />
		<tag k="ssr:stedsnr" v="578349" />
	</node>
	<node id="-304928" lat="58.7280916682" lon="8.41454166504">
		<tag k="name" v="Vedbuskotet" />
		<tag k="place" v="locality" />
		<tag k="ssr:stedsnr" v="578344" />
	</node>
	<node id="-304542" lat="58.7296749962" lon="8.41015000349">
		<tag k="name" v="Jørundsbu" />
		<tag k="place" v="locality" />
		<tag k="ssr:stedsnr" v="517344" />
	</node>
	<node id="-301725" lat="58.7065416695" lon="8.44194999281">
		<tag k="name" v="Rullet" />
		<tag k="place" v="locality" />
		<tag k="ssr:stedsnr" v="274373" />
	</node>
	<node id="-301722" lat="58.6965083319" lon="8.46554444578">
		<tag k="name" v="Ringen" />
		<tag k="place" v="locality" />
		<tag k="ssr:stedsnr" v="274361" />
	</node>
	<node id="-301720" lat="58.7266722189" lon="8.39192500219">
		<tag k="name" v="Moldskotet" />
		<tag k="place" v="locality" />
		<tag k="ssr:stedsnr" v="274323" />
	</node>
	<node id="-301718" lat="58.6652555538" lon="8.46323888192">
		<tag k="name" v="Skreleiken" />
		<tag k="place" v="locality" />
		<tag k="ssr:stedsnr" v="274318" />
	</node>
	<node id="-304149" lat="58.7599138854" lon="8.04582777046">
		<tag k="name" v="Tjørnåsbua" />
		<tag k="place" v="locality" />
		<tag k="ssr:stedsnr" v="415986" />
	</node>
	<node id="-301716" lat="58.6534083353" lon="8.43029444281">
		<tag k="name" v="Skotet" />
		<tag k="place" v="locality" />
		<tag k="ssr:stedsnr" v="274310" />
	</node>
	<node id="-302894" lat="58.8338277758" lon="8.4084666586">
		<tag k="name" v="Kvernhusa" />
		<tag k="place" v="locality" />
		<tag k="ssr:stedsnr" v="38565" />
	</node>
	<node id="-302481" lat="58.7377611117" lon="8.52541389372">
		<tag k="name" v="Kolbotn" />
		<tag k="place" v="locality" />
		<tag k="ssr:stedsnr" v="396579" />
	</node>
	<node id="-305550" lat="58.7701805597" lon="8.4833138909">
		<tag k="amenity" v="community_centre" />
		<tag k="name" v="Elvarheim" />
		<tag k="ssr:stedsnr" v="699195" />
	</node>
	<node id="-304779" lat="58.8719111119" lon="8.30390833157">
		<tag k="alt_name" v="Gjøvdal" />
		<tag k="amenity" v="place_of_worship" />
		<tag k="denomination" v="lutheran" />
		<tag k="name" v="Gjøvdal kyrkje" />
		<tag k="religion" v="christian" />
		<tag k="ssr:stedsnr" v="547005" />
	</node>
	<node id="-305674" lat="58.7474666631" lon="8.26026945308">
		<tag k="name" v="Hudekvinna" />
		<tag k="place" v="locality" />
		<tag k="ssr:stedsnr" v="718032" />
	</node>
	<node id="-302597" lat="58.7117861104" lon="8.297152772">
		<tag k="name" v="Fergeplassen" />
		<tag k="place" v="locality" />
		<tag k="ssr:stedsnr" v="476557" />
	</node>
	<node id="-306691" lat="58.7623333289" lon="8.17217221694">
		<tag k="name" v="Urdvassbua" />
		<tag k="place" v="locality" />
		<tag k="ssr:stedsnr" v="900356" />
	</node>
</osm>
