<?xml version="1.0" encoding="UTF-8"?>
<osm generator="osmapis" version="0.6">
	<node id="-452607" lat="60.0986444404" lon="6.5280222243">
		<tag k="fixme" v="consider place=suburb, village or hamlet" />
		<tag k="name" v="Eitrheim" />
		<tag k="place" v="quarter" />
		<tag k="ssr:stedsnr" v="550114" />
	</node>
	<node id="-452606" lat="59.9961111078" lon="6.61027500908">
		<tag k="historic" v="shieling" />
		<tag k="name" v="Heimste Hildalsstølen" />
		<tag k="place" v="locality" />
		<tag k="ssr:stedsnr" v="550100" />
	</node>
	<node id="-452604" lat="60.0517000026" lon="6.53922499243">
		<tag k="name" v="Eidesåsen" />
		<tag k="place" v="quarter" />
		<tag k="ssr:stedsnr" v="550065" />
	</node>
	<node id="-452091" lat="59.7755000022" lon="6.79220000824">
		<tag k="name" v="Huskakk" />
		<tag k="place" v="isolated_dwelling" />
		<tag k="ssr:stedsnr" v="125821" />
	</node>
	<node id="-452602" lat="60.0316000014" lon="6.57766388378">
		<tag k="historic" v="shieling" />
		<tag k="name" v="Gamlestøl" />
		<tag k="place" v="locality" />
		<tag k="ssr:stedsnr" v="550038" />
	</node>
	<node id="-452089" lat="59.909661108" lon="6.5363138851">
		<tag k="alt_name" v="Vassviki" />
		<tag k="fixme" v="consider place=hamlet" />
		<tag k="name" v="Vassvik" />
		<tag k="place" v="farm" />
		<tag k="ssr:stedsnr" v="125497" />
	</node>
	<node id="-453112" lat="60.0280333301" lon="6.5383999989">
		<tag k="alt_name" v="Øvre Strand" />
		<tag k="fixme" v="consider place=hamlet" />
		<tag k="name" v="Strond" />
		<tag k="place" v="farm" />
		<tag k="ssr:stedsnr" v="793026" />
	</node>
	<node id="-452087" lat="59.9296722194" lon="6.58863055961">
		<tag k="name" v="Gravarteigen" />
		<tag k="place" v="farm" />
		<tag k="ssr:stedsnr" v="125479" />
	</node>
	<node id="-452529" lat="59.8245749978" lon="6.88763333427">
		<tag k="historic" v="shieling" />
		<tag k="name" v="Fossen" />
		<tag k="place" v="locality" />
		<tag k="ssr:stedsnr" v="506483" />
	</node>
	<node id="-452085" lat="59.9675388926" lon="6.57211667362">
		<tag k="fixme" v="consider place=hamlet" />
		<tag k="name" v="Grønsdal" />
		<tag k="place" v="farm" />
		<tag k="ssr:stedsnr" v="125458" />
	</node>
	<node id="-453107" lat="59.9514444405" lon="6.59229722852">
		<tag k="fixme" v="consider place=hamlet" />
		<tag k="name" v="Låte" />
		<tag k="place" v="farm" />
		<tag k="ssr:stedsnr" v="792426" />
	</node>
	<node id="-452594" lat="59.7133750633" lon="6.74496403165">
		<tag k="fixme" v="consider place=hamlet" />
		<tag k="name" v="Selland" />
		<tag k="place" v="farm" />
		<tag k="ssr:stedsnr" v="549238" />
	</node>
	<node id="-452593" lat="59.7374833321" lon="6.75917500041">
		<tag k="fixme" v="consider place=hamlet" />
		<tag k="name" v="Lono" />
		<tag k="place" v="farm" />
		<tag k="ssr:stedsnr" v="549229" />
	</node>
	<node id="-452591" lat="59.8142805521" lon="6.77667222214">
		<tag k="name" v="Innigard" />
		<tag k="place" v="farm" />
		<tag k="ssr:stedsnr" v="549216" />
	</node>
	<node id="-452078" lat="59.8653888847" lon="6.85855000005">
		<tag k="historic" v="shieling" />
		<tag k="name" v="Oksastølen" />
		<tag k="place" v="locality" />
		<tag k="ssr:stedsnr" v="125241" />
	</node>
	<node id="-452589" lat="59.9358805583" lon="6.59390555094">
		<tag k="fixme" v="consider place=hamlet" />
		<tag k="name" v="Skare" />
		<tag k="place" v="farm" />
		<tag k="ssr:stedsnr" v="549144" />
	</node>
	<node id="-453100" lat="59.8094277778" lon="6.75191944807">
		<tag k="historic" v="shieling" />
		<tag k="name" v="Breiborg" />
		<tag k="place" v="locality" />
		<tag k="ssr:stedsnr" v="792224" />
	</node>
	<node id="-452075" lat="59.8816750003" lon="6.64570833476">
		<tag k="name" v="Gamlestølen" />
		<tag k="place" v="isolated_dwelling" />
		<tag k="ssr:stedsnr" v="125183" />
	</node>
	<node id="-453098" lat="59.724602774" lon="6.72633055785">
		<tag k="name" v="Lia" />
		<tag k="place" v="farm" />
		<tag k="ssr:stedsnr" v="792220" />
	</node>
	<node id="-452007" lat="59.7009694463" lon="6.66351388682">
		<tag k="historic" v="shieling" />
		<tag k="name" v="Nydjeligstølen" />
		<tag k="place" v="locality" />
		<tag k="ssr:stedsnr" v="99342" />
	</node>
	<node id="-452092" lat="59.7831083316" lon="6.79003889576">
		<tag k="name" v="Haugen" />
		<tag k="place" v="farm" />
		<tag k="ssr:stedsnr" v="125822" />
	</node>
	<node id="-453092" lat="60.0953417678" lon="6.52708055503">
		<tag k="fixme" v="consider place=hamlet" />
		<tag k="name" v="Eitrheim" />
		<tag k="place" v="farm" />
		<tag k="ssr:stedsnr" v="788753" />
	</node>
	<node id="-451554" lat="60.1603222235" lon="6.57719721413">
		<tag k="name" v="Mjøstølsvik" />
		<tag k="place" v="farm" />
		<tag k="ssr:stedsnr" v="341445" />
	</node>
	<node id="-452062" lat="60.0535222222" lon="6.55737221721">
		<tag k="fixme" v="consider place=hamlet" />
		<tag k="name" v="Vasstun" />
		<tag k="place" v="farm" />
		<tag k="ssr:stedsnr" v="125055" />
	</node>
	<node id="-452772" lat="59.8443527811" lon="6.85750000535">
		<tag k="historic" v="shieling" />
		<tag k="name" v="Frøystølen" />
		<tag k="place" v="locality" />
		<tag k="ssr:stedsnr" v="627496" />
	</node>
	<node id="-452775" lat="60.0550222192" lon="6.67005833473">
		<tag k="name" v="Kvanntjørnsbu" />
		<tag k="place" v="isolated_dwelling" />
		<tag k="ssr:stedsnr" v="638299" />
	</node>
	<node id="-452238" lat="59.7792083361" lon="6.79282500253">
		<tag k="historic" v="shieling" />
		<tag k="name" v="Vesleset" />
		<tag k="place" v="locality" />
		<tag k="ssr:stedsnr" v="220318" />
	</node>
	<node id="-451538" lat="60.0849333358" lon="6.52709999373">
		<tag k="name" v="Tokheim" />
		<tag k="place" v="farm" />
		<tag k="ssr:stedsnr" v="325623" />
	</node>
	<node id="-451537" lat="60.0991823663" lon="6.52919229636">
		<tag k="name" v="Eitrheim" />
		<tag k="place" v="farm" />
		<tag k="ssr:stedsnr" v="325619" />
	</node>
	<node id="-452856" lat="59.9180944427" lon="6.52380832826">
		<tag k="historic" v="shieling" />
		<tag k="name" v="Vassvikestølen" />
		<tag k="place" v="locality" />
		<tag k="ssr:stedsnr" v="671457" />
	</node>
	<node id="-452717" lat="59.7520222246" lon="6.81481110753">
		<tag k="historic" v="shieling" />
		<tag k="name" v="Rindastølen" />
		<tag k="place" v="locality" />
		<tag k="ssr:stedsnr" v="610770" />
	</node>
	<node id="-452681" lat="59.8399638848" lon="6.86832778356">
		<tag k="alt_name" v="Store Hovden" />
		<tag k="name" v="Storehovden" />
		<tag k="place" v="farm" />
		<tag k="ssr:stedsnr" v="584478" />
	</node>
	<node id="-451489" lat="59.8143805526" lon="6.76623055306">
		<tag k="name" v="Turtveit" />
		<tag k="place" v="farm" />
		<tag k="ssr:stedsnr" v="307254" />
	</node>
	<node id="-452036" lat="60.0818694457" lon="6.5292611095">
		<tag k="alt_name" v="Eigne Heim" />
		<tag k="name" v="Egne Hjem" />
		<tag k="place" v="quarter" />
		<tag k="ssr:stedsnr" v="104697" />
	</node>
	<node id="-453017" lat="59.7448444487" lon="6.72050834192">
		<tag k="historic" v="shieling" />
		<tag k="name" v="Vasstølen" />
		<tag k="place" v="locality" />
		<tag k="ssr:stedsnr" v="748212" />
	</node>
	<node id="-451659" lat="59.9146305564" lon="6.55574999442">
		<tag k="historic" v="shieling" />
		<tag k="name" v="Grostøl" />
		<tag k="place" v="locality" />
		<tag k="ssr:stedsnr" v="368512" />
	</node>
	<node id="-451519" lat="60.0675499956" lon="6.55691388727">
		<tag k="name" v="Oppeim" />
		<tag k="place" v="farm" />
		<tag k="ssr:stedsnr" v="308064" />
	</node>
	<node id="-451518" lat="60.0689472185" lon="6.55562222818">
		<tag k="fixme" v="consider place=hamlet" />
		<tag k="name" v="Ragde" />
		<tag k="place" v="farm" />
		<tag k="ssr:stedsnr" v="308058" />
	</node>
	<node id="-451573" lat="59.9974157831" lon="6.56282928995">
		<tag k="name" v="Hagen" />
		<tag k="place" v="farm" />
		<tag k="ssr:stedsnr" v="341637" />
	</node>
	<node id="-451930" lat="59.8023555574" lon="6.85603611908">
		<tag k="historic" v="shieling" />
		<tag k="name" v="Nyastølen" />
		<tag k="place" v="locality" />
		<tag k="ssr:stedsnr" v="64801" />
	</node>
	<node id="-451514" lat="59.9996277738" lon="6.56545832673">
		<tag k="name" v="Hyljabakken" />
		<tag k="place" v="farm" />
		<tag k="ssr:stedsnr" v="308008" />
	</node>
	<node id="-452534" lat="60.1301444455" lon="6.75620000294">
		<tag k="fixme" v="consider tourism=alpine_hut or tourism=chalet" />
		<tag k="name" v="Reinaskorsbu" />
		<tag k="ssr:stedsnr" v="517305" />
		<tag k="tourism" v="wilderness_hut" />
	</node>
	<node id="-452533" lat="59.9260833375" lon="6.91700556125">
		<tag k="historic" v="shieling" />
		<tag k="name" v="Åsen" />
		<tag k="place" v="locality" />
		<tag k="ssr:stedsnr" v="510220" />
	</node>
	<node id="-451486" lat="59.8725972226" lon="6.87697221698">
		<tag k="name" v="Einungstølen" />
		<tag k="place" v="isolated_dwelling" />
		<tag k="ssr:stedsnr" v="307230" />
	</node>
	<node id="-452530" lat="60.0859611095" lon="6.52544444805">
		<tag k="name" v="Tokheim" />
		<tag k="place" v="farm" />
		<tag k="ssr:stedsnr" v="507635" />
	</node>
	<node id="-452083" lat="60.0895472224" lon="6.75868888918">
		<tag k="historic" v="shieling" />
		<tag k="name" v="Langavassbui" />
		<tag k="place" v="locality" />
		<tag k="ssr:stedsnr" v="125395" />
	</node>
	<node id="-452527" lat="59.8957777764" lon="6.6340611051">
		<tag k="name" v="Underbrekka" />
		<tag k="place" v="farm" />
		<tag k="ssr:stedsnr" v="506479" />
	</node>
	<node id="-451502" lat="59.7517444421" lon="6.82738055743">
		<tag k="historic" v="shieling" />
		<tag k="name" v="Vollen" />
		<tag k="place" v="locality" />
		<tag k="ssr:stedsnr" v="307757" />
	</node>
	<node id="-451501" lat="59.9366638917" lon="6.5877472231">
		<tag k="name" v="Steinaberg" />
		<tag k="place" v="farm" />
		<tag k="ssr:stedsnr" v="307485" />
	</node>
	<node id="-452012" lat="60.1430663514" lon="6.54060411324">
		<tag k="name" v="Flesje" />
		<tag k="place" v="farm" />
		<tag k="ssr:stedsnr" v="99395" />
	</node>
	<node id="-451498" lat="59.9663361137" lon="6.59026667426">
		<tag k="fixme" v="consider place=hamlet" />
		<tag k="name" v="Heng" />
		<tag k="place" v="farm" />
		<tag k="ssr:stedsnr" v="307439" />
	</node>
	<node id="-451667" lat="60.0668500001" lon="6.57946389432">
		<tag k="historic" v="shieling" />
		<tag k="name" v="Freimsstølen" />
		<tag k="place" v="locality" />
		<tag k="ssr:stedsnr" v="369062" />
	</node>
	<node id="-453031" lat="59.774927778" lon="6.80515554799">
		<tag k="historic" v="shieling" />
		<tag k="name" v="Tjørnastøl" />
		<tag k="place" v="locality" />
		<tag k="ssr:stedsnr" v="766278" />
	</node>
	<node id="-451654" lat="60.1617194487" lon="6.62254444165">
		<tag k="name" v="Værmålen" />
		<tag k="place" v="locality" />
		<tag k="ssr:stedsnr" v="368487" />
	</node>
	<node id="-452513" lat="60.148583331" lon="6.59446943848">
		<tag k="historic" v="shieling" />
		<tag k="name" v="Flugedalen" />
		<tag k="place" v="locality" />
		<tag k="ssr:stedsnr" v="490178" />
	</node>
	<node id="-453022" lat="60.1052222243" lon="6.63811110493">
		<tag k="fixme" v="consider tourism=alpine_hut or tourism=chalet" />
		<tag k="name" v="Mosdalsbu" />
		<tag k="ssr:stedsnr" v="760313" />
		<tag k="tourism" v="wilderness_hut" />
	</node>
	<node id="-452509" lat="60.0975416672" lon="6.5657361151">
		<tag k="historic" v="shieling" />
		<tag k="name" v="Slevedalen" />
		<tag k="place" v="locality" />
		<tag k="ssr:stedsnr" v="490102" />
	</node>
	<node id="-453020" lat="60.0889232641" lon="6.52560921406">
		<tag k="name" v="Tokheim" />
		<tag k="place" v="farm" />
		<tag k="ssr:stedsnr" v="749660" />
	</node>
	<node id="-452505" lat="60.006238889" lon="6.56385832897">
		<tag k="name" v="Espeflot" />
		<tag k="place" v="locality" />
		<tag k="ssr:stedsnr" v="490022" />
	</node>
	<node id="-452502" lat="59.7968055523" lon="6.90464166925">
		<tag k="historic" v="shieling" />
		<tag k="name" v="Blåbergnutstølen" />
		<tag k="place" v="locality" />
		<tag k="ssr:stedsnr" v="489819" />
	</node>
	<node id="-451993" lat="60.1478888868" lon="6.52978055876">
		<tag k="historic" v="shieling" />
		<tag k="name" v="Stuastøl" />
		<tag k="place" v="locality" />
		<tag k="ssr:stedsnr" v="98685" />
	</node>
	<node id="-452500" lat="60.1476893802" lon="6.62471946497">
		<tag k="historic" v="shieling" />
		<tag k="name" v="Tyssesete" />
		<tag k="place" v="locality" />
		<tag k="ssr:stedsnr" v="490439" />
	</node>
	<node id="-451987" lat="59.8064944405" lon="6.80583055786">
		<tag k="fixme" v="consider place=hamlet" />
		<tag k="name" v="Grytøyr" />
		<tag k="place" v="farm" />
		<tag k="ssr:stedsnr" v="98298" />
	</node>
	<node id="-451984" lat="59.8804694446" lon="6.661236103">
		<tag k="leisure" v="pitch" />
		<tag k="name" v="Korlevoll skistadion" />
		<tag k="ssr:stedsnr" v="85185" />
	</node>
	<node id="-452494" lat="59.7515527769" lon="6.79014999504">
		<tag k="name" v="Botnen" />
		<tag k="place" v="farm" />
		<tag k="ssr:stedsnr" v="489768" />
	</node>
	<node id="-451469" lat="60.0441722216" lon="6.47420555181">
		<tag k="fixme" v="consider place=hamlet" />
		<tag k="name" v="Buer" />
		<tag k="place" v="farm" />
		<tag k="ssr:stedsnr" v="307064" />
	</node>
	<node id="-452492" lat="59.7535916668" lon="6.82065556135">
		<tag k="historic" v="shieling" />
		<tag k="name" v="Øynastølen" />
		<tag k="place" v="locality" />
		<tag k="ssr:stedsnr" v="489764" />
	</node>
	<node id="-451979" lat="59.8495166644" lon="7.13169999807">
		<tag k="name" v="Midtfjellsvollen" />
		<tag k="place" v="isolated_dwelling" />
		<tag k="ssr:stedsnr" v="65881" />
	</node>
	<node id="-452490" lat="59.934475002" lon="6.58934166318">
		<tag k="alt_name" v="Skardsmo" />
		<tag k="name" v="Skarsmoen" />
		<tag k="place" v="farm" />
		<tag k="ssr:stedsnr" v="489483" />
	</node>
	<node id="-453001" lat="59.7848916622" lon="6.78821110622">
		<tag k="name" v="Bøen" />
		<tag k="place" v="farm" />
		<tag k="ssr:stedsnr" v="732808" />
	</node>
	<node id="-451975" lat="59.983713886" lon="7.20512222057">
		<tag k="name" v="Hellevassbu" />
		<tag k="place" v="isolated_dwelling" />
		<tag k="ssr:stedsnr" v="65795" />
	</node>
	<node id="-452484" lat="59.9699499963" lon="6.55475556074">
		<tag k="historic" v="shieling" />
		<tag k="name" v="Grønsdalsstølen" />
		<tag k="place" v="locality" />
		<tag k="ssr:stedsnr" v="489438" />
	</node>
	<node id="-452482" lat="59.8410777793" lon="6.87431944961">
		<tag k="name" v="Baklia" />
		<tag k="place" v="farm" />
		<tag k="ssr:stedsnr" v="489283" />
	</node>
	<node id="-452993" lat="59.9508583311" lon="6.54493334068">
		<tag k="historic" v="shieling" />
		<tag k="name" v="Nyastøl" />
		<tag k="place" v="locality" />
		<tag k="ssr:stedsnr" v="732475" />
	</node>
	<node id="-452480" lat="59.8352638932" lon="6.81592499762">
		<tag k="name" v="Einerhaug" />
		<tag k="place" v="farm" />
		<tag k="ssr:stedsnr" v="489269" />
	</node>
	<node id="-452989" lat="60.1035111155" lon="6.78562777722">
		<tag k="name" v="Vinkelen" />
		<tag k="place" v="locality" />
		<tag k="ssr:stedsnr" v="732453" />
	</node>
	<node id="-452074" lat="59.8999861138" lon="6.68100000492">
		<tag k="historic" v="shieling" />
		<tag k="name" v="Nyastølen" />
		<tag k="place" v="locality" />
		<tag k="ssr:stedsnr" v="125176" />
	</node>
	<node id="-451449" lat="60.1321583291" lon="6.61148056336">
		<tag k="historic" v="shieling" />
		<tag k="name" v="Mjøstølen" />
		<tag k="place" v="locality" />
		<tag k="ssr:stedsnr" v="281597" />
	</node>
	<node id="-452472" lat="59.95498889" lon="6.59940000453">
		<tag k="fixme" v="consider place=hamlet" />
		<tag k="name" v="Tveit" />
		<tag k="place" v="farm" />
		<tag k="ssr:stedsnr" v="489171" />
	</node>
	<node id="-452471" lat="59.9679111092" lon="6.73080833243">
		<tag k="name" v="Øyni" />
		<tag k="place" v="farm" />
		<tag k="ssr:stedsnr" v="489167" />
	</node>
	<node id="-452981" lat="59.8334194485" lon="6.81497778576">
		<tag k="name" v="Røldal" />
		<tag k="place" v="village" />
		<tag k="ssr:stedsnr" v="732247" />
	</node>
	<node id="-451956" lat="59.8552750023" lon="6.86768333274">
		<tag k="historic" v="shieling" />
		<tag k="name" v="Nyastøl" />
		<tag k="place" v="locality" />
		<tag k="ssr:stedsnr" v="65189" />
	</node>
	<node id="-452467" lat="59.9786888847" lon="6.60377777489">
		<tag k="historic" v="shieling" />
		<tag k="name" v="Hengsstølen" />
		<tag k="place" v="locality" />
		<tag k="ssr:stedsnr" v="489114" />
	</node>
	<node id="-452978" lat="59.8307861152" lon="6.83468610302">
		<tag k="name" v="Grave" />
		<tag k="place" v="farm" />
		<tag k="ssr:stedsnr" v="732238" />
	</node>
	<node id="-451441" lat="60.0441805558" lon="6.53018055238">
		<tag k="name" v="Gjærde" />
		<tag k="place" v="farm" />
		<tag k="ssr:stedsnr" v="281522" />
	</node>
	<node id="-451952" lat="60.1415472255" lon="6.57237221593">
		<tag k="fixme" v="consider place=hamlet" />
		<tag k="name" v="Stana" />
		<tag k="place" v="farm" />
		<tag k="ssr:stedsnr" v="65164" />
	</node>
	<node id="-451655" lat="59.9312333315" lon="6.57865555275">
		<tag k="fixme" v="consider place=hamlet" />
		<tag k="name" v="Jøsendal" />
		<tag k="place" v="farm" />
		<tag k="ssr:stedsnr" v="368489" />
	</node>
	<node id="-452974" lat="59.8714916624" lon="6.64250000726">
		<tag k="historic" v="shieling" />
		<tag k="name" v="Seljestadstølen" />
		<tag k="place" v="locality" />
		<tag k="ssr:stedsnr" v="732223" />
	</node>
	<node id="-451949" lat="60.1264138931" lon="6.55744444868">
		<tag k="name" v="Oalsskor" />
		<tag k="place" v="locality" />
		<tag k="ssr:stedsnr" v="65152" />
	</node>
	<node id="-452970" lat="59.848716665" lon="6.72154167568">
		<tag k="name" v="Eskjeflota" />
		<tag k="place" v="isolated_dwelling" />
		<tag k="ssr:stedsnr" v="732213" />
	</node>
	<node id="-452967" lat="59.9199944404" lon="6.60579722521">
		<tag k="alt_name" v="Utsikten" />
		<tag k="name" v="Utsikten Leirstad" />
		<tag k="old_name" v="Utsikten hotell" />
		<tag k="ssr:stedsnr" v="732197" />
		<tag k="tourism" v="hotel" />
	</node>
	<node id="-451940" lat="60.0440083368" lon="6.53427778522">
		<tag k="fixme" v="consider place=hamlet" />
		<tag k="name" v="Jordal" />
		<tag k="place" v="farm" />
		<tag k="ssr:stedsnr" v="65038" />
	</node>
	<node id="-451427" lat="60.0751777785" lon="6.5560055499">
		<tag k="historic" v="shieling" />
		<tag k="name" v="Mjølstølen" />
		<tag k="place" v="locality" />
		<tag k="ssr:stedsnr" v="281430" />
	</node>
	<node id="-451934" lat="60.0101388844" lon="6.55492221747">
		<tag k="alt_name" v="Sandve" />
		<tag k="fixme" v="consider place=hamlet" />
		<tag k="name" v="Sandvin" />
		<tag k="place" v="farm" />
		<tag k="ssr:stedsnr" v="65013" />
	</node>
	<node id="-452957" lat="59.9904305556" lon="6.73663610818">
		<tag k="historic" v="shieling" />
		<tag k="name" v="Kvannakroni" />
		<tag k="place" v="locality" />
		<tag k="ssr:stedsnr" v="732118" />
	</node>
	<node id="-452956" lat="59.7144361093" lon="6.73208888933">
		<tag k="name" v="Hegerland" />
		<tag k="place" v="farm" />
		<tag k="ssr:stedsnr" v="732114" />
	</node>
	<node id="-451418" lat="59.776333337" lon="6.79480833329">
		<tag k="historic" v="shieling" />
		<tag k="name" v="Stølsgjo" />
		<tag k="place" v="locality" />
		<tag k="ssr:stedsnr" v="281300" />
	</node>
	<node id="-451929" lat="59.7936527755" lon="6.85345555664">
		<tag k="name" v="Hansastølen" />
		<tag k="place" v="locality" />
		<tag k="ssr:stedsnr" v="64796" />
	</node>
	<node id="-451927" lat="59.8855694478" lon="6.51916943537">
		<tag k="historic" v="shieling" />
		<tag k="name" v="Vintertunstølen" />
		<tag k="place" v="locality" />
		<tag k="ssr:stedsnr" v="64493" />
	</node>
	<node id="-451666" lat="60.0662694438" lon="6.53815833228">
		<tag k="name" v="Hetleflot" />
		<tag k="place" v="village" />
		<tag k="ssr:stedsnr" v="369054" />
	</node>
	<node id="-452436" lat="59.8347611092" lon="6.82600834192">
		<tag k="fixme" v="consider place=hamlet" />
		<tag k="name" v="Øverland" />
		<tag k="place" v="farm" />
		<tag k="ssr:stedsnr" v="463443" />
	</node>
	<node id="-451982" lat="60.0988414946" lon="6.51413616852">
		<tag k="name" v="Eitrheim" />
		<tag k="place" v="farm" />
		<tag k="ssr:stedsnr" v="82615" />
	</node>
	<node id="-451637" lat="59.83908056" lon="6.84471388664">
		<tag k="name" v="Dalen" />
		<tag k="place" v="farm" />
		<tag k="ssr:stedsnr" v="368271" />
	</node>
	<node id="-452945" lat="59.9578444487" lon="6.54622500547">
		<tag k="alt_name" v="Trædsstøl" />
		<tag k="historic" v="shieling" />
		<tag k="name" v="Træstøl" />
		<tag k="place" v="locality" />
		<tag k="ssr:stedsnr" v="726485" />
	</node>
	<node id="-451918" lat="59.7175166698" lon="6.72979166667">
		<tag k="fixme" v="consider place=hamlet" />
		<tag k="name" v="Hegerland" />
		<tag k="place" v="farm" />
		<tag k="ssr:stedsnr" v="64241" />
	</node>
	<node id="-451916" lat="59.7166861125" lon="6.78351388798">
		<tag k="name" v="Svartenutstølen" />
		<tag k="place" v="locality" />
		<tag k="ssr:stedsnr" v="64238" />
	</node>
	<node id="-451914" lat="59.7413388918" lon="6.78993611316">
		<tag k="historic" v="shieling" />
		<tag k="name" v="Kvamastølen" />
		<tag k="place" v="locality" />
		<tag k="ssr:stedsnr" v="64228" />
	</node>
	<node id="-451596" lat="59.7245833369" lon="6.7638277828">
		<tag k="historic" v="shieling" />
		<tag k="name" v="Venemo" />
		<tag k="place" v="locality" />
		<tag k="ssr:stedsnr" v="367172" />
	</node>
	<node id="-452748" lat="59.9723500026" lon="6.76618332429">
		<tag k="historic" v="shieling" />
		<tag k="name" v="Nasastølen" />
		<tag k="place" v="locality" />
		<tag k="ssr:stedsnr" v="611142" />
	</node>
	<node id="-451908" lat="59.9158249965" lon="6.90198055856">
		<tag k="historic" v="shieling" />
		<tag k="loc_name" v="Grytingsstølen" />
		<tag k="name" v="Grytingstøl" />
		<tag k="place" v="locality" />
		<tag k="ssr:stedsnr" v="64172" />
	</node>
	<node id="-451792" lat="59.7103444428" lon="6.75803888838">
		<tag k="historic" v="shieling" />
		<tag k="name" v="Øvrestølen" />
		<tag k="place" v="locality" />
		<tag k="ssr:stedsnr" v="3206" />
	</node>
	<node id="-452917" lat="60.0891213284" lon="6.52642604678">
		<tag k="name" v="Askane" />
		<tag k="place" v="quarter" />
		<tag k="ssr:stedsnr" v="706368" />
	</node>
	<node id="-452920" lat="60.0432583297" lon="6.53210556198">
		<tag k="name" v="Haugen" />
		<tag k="place" v="farm" />
		<tag k="ssr:stedsnr" v="706465" />
	</node>
	<node id="-451977" lat="59.8563583353" lon="7.10681667468">
		<tag k="historic" v="shieling" />
		<tag k="name" v="Nupshallene" />
		<tag k="place" v="locality" />
		<tag k="ssr:stedsnr" v="65870" />
	</node>
	<node id="-452401" lat="60.0962815176" lon="6.52736758152">
		<tag k="name" v="Eitrheim" />
		<tag k="place" v="farm" />
		<tag k="ssr:stedsnr" v="446632" />
	</node>
	<node id="-452400" lat="59.8929416712" lon="6.70164444415">
		<tag k="historic" v="shieling" />
		<tag k="name" v="Loni" />
		<tag k="place" v="locality" />
		<tag k="ssr:stedsnr" v="445504" />
	</node>
	<node id="-452399" lat="59.8342388853" lon="6.82515556">
		<tag k="fixme" v="consider place=hamlet" />
		<tag k="name" v="Grøve" />
		<tag k="place" v="farm" />
		<tag k="ssr:stedsnr" v="445500" />
	</node>
	<node id="-452397" lat="60.0740972236" lon="6.53694444317">
		<tag k="name" v="Kalvanes" />
		<tag k="place" v="quarter" />
		<tag k="ssr:stedsnr" v="430075" />
	</node>
	<node id="-452079" lat="60.1610277782" lon="6.54501666045">
		<tag k="fixme" v="consider place=hamlet" />
		<tag k="name" v="Digranes" />
		<tag k="place" v="farm" />
		<tag k="ssr:stedsnr" v="125244" />
	</node>
	<node id="-451633" lat="59.86977778" lon="6.87298889162">
		<tag k="historic" v="shieling" />
		<tag k="name" v="Ullstølen" />
		<tag k="place" v="locality" />
		<tag k="ssr:stedsnr" v="368223" />
	</node>
	<node id="-452386" lat="59.7937444451" lon="6.80252500037">
		<tag k="historic" v="shieling" />
		<tag k="name" v="Stemmen" />
		<tag k="place" v="locality" />
		<tag k="ssr:stedsnr" v="429787" />
	</node>
	<node id="-451803" lat="60.0271694451" lon="6.58043055524">
		<tag k="historic" v="shieling" />
		<tag k="name" v="Håvås" />
		<tag k="place" v="locality" />
		<tag k="ssr:stedsnr" v="4035" />
	</node>
	<node id="-452895" lat="59.8136027794" lon="6.77549445183">
		<tag k="name" v="Nistov" />
		<tag k="place" v="farm" />
		<tag k="ssr:stedsnr" v="705528" />
	</node>
	<node id="-452382" lat="59.7521833308" lon="6.7973000031">
		<tag k="name" v="Haugen" />
		<tag k="place" v="farm" />
		<tag k="ssr:stedsnr" v="429750" />
	</node>
	<node id="-452948" lat="59.7410999994" lon="6.75521389242">
		<tag k="name" v="Innigard" />
		<tag k="place" v="farm" />
		<tag k="ssr:stedsnr" v="731121" />
	</node>
	<node id="-452314" lat="60.0202388874" lon="7.02224444563">
		<tag k="name" v="Tyristein" />
		<tag k="place" v="locality" />
		<tag k="ssr:stedsnr" v="247253" />
	</node>
	<node id="-452378" lat="60.1276888871" lon="6.62289444167">
		<tag k="name" v="Åsen" />
		<tag k="place" v="isolated_dwelling" />
		<tag k="ssr:stedsnr" v="429393" />
	</node>
	<node id="-451865" lat="59.8480499965" lon="6.84524166419">
		<tag k="historic" v="shieling" />
		<tag k="name" v="Skarstøl" />
		<tag k="place" v="locality" />
		<tag k="ssr:stedsnr" v="38489" />
	</node>
	<node id="-452888" lat="60.036708333" lon="6.62187778139">
		<tag k="historic" v="shieling" />
		<tag k="name" v="Sjausete" />
		<tag k="place" v="locality" />
		<tag k="ssr:stedsnr" v="672380" />
	</node>
	<node id="-451972" lat="59.9104361127" lon="6.51538055084">
		<tag k="fixme" v="consider place=hamlet" />
		<tag k="name" v="Vintertun" />
		<tag k="place" v="farm" />
		<tag k="ssr:stedsnr" v="65467" />
	</node>
	<node id="-452374" lat="60.1377222196" lon="6.62323334067">
		<tag k="historic" v="shieling" />
		<tag k="name" v="Liastølen" />
		<tag k="place" v="locality" />
		<tag k="ssr:stedsnr" v="429450" />
	</node>
	<node id="-452373" lat="59.9505444445" lon="6.53480000482">
		<tag k="historic" v="shieling" />
		<tag k="name" v="Svarthammar" />
		<tag k="place" v="locality" />
		<tag k="ssr:stedsnr" v="429437" />
	</node>
	<node id="-452372" lat="60.1094194427" lon="6.76771388031">
		<tag k="historic" v="shieling" />
		<tag k="name" v="Mikkelsstølen" />
		<tag k="place" v="locality" />
		<tag k="ssr:stedsnr" v="429423" />
	</node>
	<node id="-452369" lat="60.1642388921" lon="6.54611111156">
		<tag k="alt_name" v="Rymbil" />
		<tag k="name" v="Rymbill" />
		<tag k="place" v="farm" />
		<tag k="ssr:stedsnr" v="429199" />
	</node>
	<node id="-452880" lat="60.1633555562" lon="6.5926861156">
		<tag k="name" v="Skjeldvikslåtta" />
		<tag k="place" v="locality" />
		<tag k="ssr:stedsnr" v="672196" />
	</node>
	<node id="-452879" lat="60.1506666651" lon="6.54423888877">
		<tag k="fixme" v="consider place=hamlet" />
		<tag k="name" v="Åpoldo" />
		<tag k="old_name" v="Åpoldi;Åpåldo" />
		<tag k="place" v="farm" />
		<tag k="ssr:stedsnr" v="672161" />
	</node>
	<node id="-452366" lat="59.8546527817" lon="6.8859916617">
		<tag k="historic" v="shieling" />
		<tag k="name" v="Hagastølen" />
		<tag k="place" v="locality" />
		<tag k="ssr:stedsnr" v="429180" />
	</node>
	<node id="-452365" lat="60.1327361092" lon="6.53831944674">
		<tag k="alt_name" v="Ædna, in" />
		<tag k="name" v="Indre Ædna" />
		<tag k="place" v="farm" />
		<tag k="ssr:stedsnr" v="429164" />
	</node>
	<node id="-453387" lat="59.8123611124" lon="6.7742194412">
		<tag k="name" v="Uttun" />
		<tag k="place" v="farm" />
		<tag k="ssr:stedsnr" v="948515" />
	</node>
	<node id="-451495" lat="59.9958027789" lon="6.54299999696">
		<tag k="historic" v="shieling" />
		<tag k="name" v="Lauvås" />
		<tag k="place" v="locality" />
		<tag k="ssr:stedsnr" v="307415" />
	</node>
	<node id="-452361" lat="59.9818888917" lon="6.69979165907">
		<tag k="historic" v="shieling" />
		<tag k="name" v="Vierkvelven" />
		<tag k="place" v="locality" />
		<tag k="ssr:stedsnr" v="429139" />
	</node>
	<node id="-451848" lat="60.1466666672" lon="6.58417500287">
		<tag k="historic" v="shieling" />
		<tag k="name" v="Mjøsstølen" />
		<tag k="place" v="locality" />
		<tag k="ssr:stedsnr" v="5189" />
	</node>
	<node id="-452870" lat="59.8464138866" lon="6.97012499894">
		<tag k="name" v="Fjellsjåhytta" />
		<tag k="place" v="isolated_dwelling" />
		<tag k="ssr:stedsnr" v="671868" />
	</node>
	<node id="-451969" lat="60.1649611134" lon="6.6010944439">
		<tag k="historic" v="shieling" />
		<tag k="name" v="Skjeldesete" />
		<tag k="place" v="locality" />
		<tag k="ssr:stedsnr" v="65438" />
	</node>
	<node id="-452867" lat="59.7853500004" lon="6.80375555302">
		<tag k="historic" v="shieling" />
		<tag k="name" v="Odlandsstølen" />
		<tag k="place" v="locality" />
		<tag k="ssr:stedsnr" v="671802" />
	</node>
	<node id="-452866" lat="59.7865194443" lon="6.76969444384">
		<tag k="name" v="Ekkjestølen" />
		<tag k="place" v="farm" />
		<tag k="ssr:stedsnr" v="671799" />
	</node>
	<node id="-452865" lat="59.7879583377" lon="6.83924166335">
		<tag k="historic" v="shieling" />
		<tag k="name" v="Bratteteigstølen" />
		<tag k="place" v="locality" />
		<tag k="ssr:stedsnr" v="671792" />
	</node>
	<node id="-452777" lat="59.7909027756" lon="6.81044721598">
		<tag k="historic" v="shieling" />
		<tag k="name" v="Gamlestøl" />
		<tag k="place" v="locality" />
		<tag k="ssr:stedsnr" v="644284" />
	</node>
	<node id="-452863" lat="59.7909138874" lon="6.76560555105">
		<tag k="name" v="Ekkjevika" />
		<tag k="place" v="farm" />
		<tag k="ssr:stedsnr" v="671775" />
	</node>
	<node id="-451566" lat="59.8317416688" lon="6.82575833092">
		<tag k="name" v="Hamrane" />
		<tag k="place" v="farm" />
		<tag k="ssr:stedsnr" v="341511" />
	</node>
	<node id="-452347" lat="59.7406250043" lon="6.80213610374">
		<tag k="historic" v="shieling" />
		<tag k="name" v="Helleren" />
		<tag k="place" v="locality" />
		<tag k="ssr:stedsnr" v="428207" />
	</node>
	<node id="-452346" lat="59.8296111102" lon="6.81019444007">
		<tag k="name" v="Seim" />
		<tag k="place" v="farm" />
		<tag k="ssr:stedsnr" v="428199" />
	</node>
	<node id="-453368" lat="60.1355694449" lon="6.53593889143">
		<tag k="historic" v="shieling" />
		<tag k="name" v="Mjølstølen" />
		<tag k="place" v="locality" />
		<tag k="ssr:stedsnr" v="949341" />
	</node>
	<node id="-452851" lat="59.9877138899" lon="6.56605000428">
		<tag k="alt_name" v="Landøyni" />
		<tag k="name" v="Landøyna" />
		<tag k="place" v="farm" />
		<tag k="ssr:stedsnr" v="671403" />
	</node>
	<node id="-452338" lat="59.8610499999" lon="6.8666888908">
		<tag k="historic" v="shieling" />
		<tag k="name" v="Fellesteinen" />
		<tag k="place" v="locality" />
		<tag k="ssr:stedsnr" v="429203" />
	</node>
	<node id="-452849" lat="59.8555861087" lon="6.81287777626">
		<tag k="historic" v="shieling" />
		<tag k="name" v="Tjørna" />
		<tag k="place" v="locality" />
		<tag k="ssr:stedsnr" v="671193" />
	</node>
	<node id="-452336" lat="60.1486166643" lon="6.59574443709">
		<tag k="historic" v="shieling" />
		<tag k="name" v="Flugedalen" />
		<tag k="place" v="locality" />
		<tag k="ssr:stedsnr" v="264776" />
	</node>
	<node id="-452335" lat="60.003699998" lon="6.62960000154">
		<tag k="historic" v="shieling" />
		<tag k="name" v="Instestølen" />
		<tag k="place" v="locality" />
		<tag k="ssr:stedsnr" v="264774" />
	</node>
	<node id="-452846" lat="59.9356333356" lon="6.62271110847">
		<tag k="historic" v="shieling" />
		<tag k="name" v="Skarsstølen" />
		<tag k="place" v="locality" />
		<tag k="ssr:stedsnr" v="671175" />
	</node>
	<node id="-452845" lat="59.908566669" lon="6.63835000328">
		<tag k="fixme" v="consider place=hamlet" />
		<tag k="name" v="Løyning" />
		<tag k="place" v="farm" />
		<tag k="ssr:stedsnr" v="671159" />
	</node>
	<node id="-453355" lat="60.0791916653" lon="6.867313892">
		<tag k="historic" v="shieling" />
		<tag k="name" v="Breiabu" />
		<tag k="place" v="locality" />
		<tag k="ssr:stedsnr" v="915371" />
	</node>
	<node id="-451818" lat="59.8558055563" lon="6.79655832557">
		<tag k="historic" v="shieling" />
		<tag k="name" v="Grøndalen" />
		<tag k="place" v="locality" />
		<tag k="ssr:stedsnr" v="4197" />
	</node>
	<node id="-451817" lat="59.8538388912" lon="6.91207500416">
		<tag k="historic" v="shieling" />
		<tag k="name" v="Innihagastølen" />
		<tag k="place" v="locality" />
		<tag k="ssr:stedsnr" v="4194" />
	</node>
	<node id="-451816" lat="60.1408611085" lon="6.57955555123">
		<tag k="name" v="Furo" />
		<tag k="place" v="farm" />
		<tag k="ssr:stedsnr" v="4178" />
	</node>
	<node id="-453348" lat="60.0833272573" lon="6.55005704528">
		<tag k="name" v="Byrkjenes" />
		<tag k="place" v="farm" />
		<tag k="ssr:stedsnr" v="915085" />
	</node>
	<node id="-452323" lat="60.1087055583" lon="6.7437666585">
		<tag k="name" v="Stødet" />
		<tag k="place" v="locality" />
		<tag k="ssr:stedsnr" v="247408" />
	</node>
	<node id="-453345" lat="60.0321527811" lon="6.53926111891">
		<tag k="alt_name" v="Sjurdstrædet" />
		<tag k="name" v="Sjurstræ" />
		<tag k="place" v="farm" />
		<tag k="ssr:stedsnr" v="915036" />
	</node>
	<node id="-451923" lat="59.9779305597" lon="6.50587778157">
		<tag k="historic" v="shieling" />
		<tag k="name" v="Vierdal" />
		<tag k="place" v="locality" />
		<tag k="ssr:stedsnr" v="64415" />
	</node>
	<node id="-452830" lat="59.8345361104" lon="6.81640277234">
		<tag k="fixme" v="consider place=hamlet" />
		<tag k="name" v="Tufto" />
		<tag k="place" v="farm" />
		<tag k="ssr:stedsnr" v="671239" />
	</node>
	<node id="-452828" lat="59.8305083357" lon="6.82367777077">
		<tag k="fixme" v="consider place=hamlet" />
		<tag k="name" v="Medhus" />
		<tag k="place" v="farm" />
		<tag k="ssr:stedsnr" v="671223" />
	</node>
	<node id="-452827" lat="59.8139388891" lon="6.77312500057">
		<tag k="name" v="Teigen" />
		<tag k="place" v="farm" />
		<tag k="ssr:stedsnr" v="671220" />
	</node>
	<node id="-453338" lat="59.7728638872" lon="6.77568055447">
		<tag k="fixme" v="consider place=hamlet" />
		<tag k="name" v="Holmane" />
		<tag k="place" v="farm" />
		<tag k="ssr:stedsnr" v="914808" />
	</node>
	<node id="-452862" lat="59.9877500038" lon="7.26332500543">
		<tag k="name" v="Helleiksbu" />
		<tag k="place" v="isolated_dwelling" />
		<tag k="ssr:stedsnr" v="671773" />
	</node>
	<node id="-452311" lat="59.8638666683" lon="6.86865278193">
		<tag k="historic" v="shieling" />
		<tag k="name" v="Bråstølflota" />
		<tag k="place" v="locality" />
		<tag k="ssr:stedsnr" v="247206" />
	</node>
	<node id="-452310" lat="60.1551666674" lon="6.57244999365">
		<tag k="name" v="Teigen" />
		<tag k="place" v="farm" />
		<tag k="ssr:stedsnr" v="247193" />
	</node>
	<node id="-452309" lat="59.8534388893" lon="6.83031944037">
		<tag k="historic" v="shieling" />
		<tag k="name" v="Austdalen" />
		<tag k="place" v="locality" />
		<tag k="ssr:stedsnr" v="247188" />
	</node>
	<node id="-451796" lat="59.9945472186" lon="6.58163333054">
		<tag k="historic" v="shieling" />
		<tag k="name" v="Joni" />
		<tag k="place" v="locality" />
		<tag k="ssr:stedsnr" v="3365" />
	</node>
	<node id="-451794" lat="59.7064944405" lon="6.74140832889">
		<tag k="name" v="Sellandsvik" />
		<tag k="place" v="isolated_dwelling" />
		<tag k="ssr:stedsnr" v="3211" />
	</node>
	<node id="-452304" lat="59.9614416681" lon="6.67299444937">
		<tag k="historic" v="shieling" />
		<tag k="name" v="Fisketjørnstølen" />
		<tag k="place" v="locality" />
		<tag k="ssr:stedsnr" v="247156" />
	</node>
	<node id="-451791" lat="59.7381583369" lon="6.75235000801">
		<tag k="name" v="Haugen" />
		<tag k="place" v="farm" />
		<tag k="ssr:stedsnr" v="3136" />
	</node>
	<node id="-451790" lat="59.9429361142" lon="6.67402499491">
		<tag k="name" v="Sanden" />
		<tag k="place" v="isolated_dwelling" />
		<tag k="ssr:stedsnr" v="3129" />
	</node>
	<node id="-452301" lat="59.965702776" lon="6.7662388909">
		<tag k="historic" v="shieling" />
		<tag k="name" v="Setenuten" />
		<tag k="place" v="locality" />
		<tag k="ssr:stedsnr" v="247116" />
	</node>
	<node id="-453323" lat="59.8330111077" lon="6.82044167204">
		<tag k="name" v="Berge" />
		<tag k="place" v="farm" />
		<tag k="ssr:stedsnr" v="914258" />
	</node>
	<node id="-453322" lat="59.8118333358" lon="6.77068332713">
		<tag k="fixme" v="consider place=hamlet" />
		<tag k="name" v="Håra" />
		<tag k="place" v="farm" />
		<tag k="ssr:stedsnr" v="914252" />
	</node>
	<node id="-451959" lat="59.8421083315" lon="6.72579444274">
		<tag k="name" v="Ullshaug" />
		<tag k="place" v="locality" />
		<tag k="ssr:stedsnr" v="65201" />
	</node>
	<node id="-452296" lat="60.0743297556" lon="6.55519152157">
		<tag k="fixme" v="consider place=hamlet" />
		<tag k="name" v="Freim" />
		<tag k="place" v="farm" />
		<tag k="ssr:stedsnr" v="247069" />
	</node>
	<node id="-452295" lat="60.0650944446" lon="6.54997777724">
		<tag k="building" v="industrial" />
		<tag k="industrial" v="factory" />
		<tag k="name" v="Odda Smelteverk" />
		<tag k="ssr:stedsnr" v="247068" />
	</node>
	<node id="-452294" lat="60.0639790202" lon="6.53890869764">
		<tag k="name" v="Erreflot" />
		<tag k="place" v="quarter" />
		<tag k="ssr:stedsnr" v="247062" />
	</node>
	<node id="-453316" lat="59.9051416692" lon="6.59924445146">
		<tag k="historic" v="shieling" />
		<tag k="name" v="Langedal" />
		<tag k="place" v="locality" />
		<tag k="ssr:stedsnr" v="914193" />
	</node>
	<node id="-452290" lat="59.8114805551" lon="6.80922500334">
		<tag k="name" v="Kvile" />
		<tag k="place" v="farm" />
		<tag k="ssr:stedsnr" v="246761" />
	</node>
	<node id="-452289" lat="59.8131833308" lon="6.81057500634">
		<tag k="name" v="Tveita" />
		<tag k="place" v="farm" />
		<tag k="ssr:stedsnr" v="246760" />
	</node>
	<node id="-453312" lat="59.9722749981" lon="6.72258888175">
		<tag k="fixme" v="consider place=hamlet" />
		<tag k="name" v="Reinsnos" />
		<tag k="place" v="farm" />
		<tag k="ssr:stedsnr" v="914155" />
	</node>
	<node id="-453311" lat="59.9714611068" lon="6.59603888167">
		<tag k="name" v="Skoraslåtta" />
		<tag k="place" v="locality" />
		<tag k="ssr:stedsnr" v="914153" />
	</node>
	<node id="-452282" lat="59.7191555574" lon="6.76058055344">
		<tag k="historic" v="shieling" />
		<tag k="name" v="Dalastølen" />
		<tag k="place" v="locality" />
		<tag k="ssr:stedsnr" v="246241" />
	</node>
	<node id="-452383" lat="59.7537694408" lon="6.78037500165">
		<tag k="name" v="Kvamen" />
		<tag k="place" v="farm" />
		<tag k="ssr:stedsnr" v="429758" />
	</node>
	<node id="-453303" lat="60.0224444474" lon="6.38703611516">
		<tag k="name" v="Øyjorda" />
		<tag k="place" v="farm" />
		<tag k="ssr:stedsnr" v="915173" />
	</node>
	<node id="-452278" lat="59.9051638911" lon="6.62191944281">
		<tag k="fixme" v="consider place=hamlet" />
		<tag k="name" v="Torekoven" />
		<tag k="place" v="farm" />
		<tag k="ssr:stedsnr" v="246151" />
	</node>
	<node id="-452789" lat="59.8275166669" lon="6.81971111536">
		<tag k="name" v="Austhus" />
		<tag k="place" v="farm" />
		<tag k="ssr:stedsnr" v="644494" />
	</node>
	<node id="-452276" lat="59.7343916706" lon="6.71947222526">
		<tag k="historic" v="shieling" />
		<tag k="name" v="Hegerlandsstølen" />
		<tag k="place" v="locality" />
		<tag k="ssr:stedsnr" v="246142" />
	</node>
	<node id="-452894" lat="60.0841777798" lon="6.52735833531">
		<tag k="name" v="Tokheim" />
		<tag k="place" v="farm" />
		<tag k="ssr:stedsnr" v="689589" />
	</node>
	<node id="-452274" lat="59.9527972247" lon="6.59790832608">
		<tag k="fixme" v="consider place=hamlet" />
		<tag k="name" v="Berge" />
		<tag k="place" v="farm" />
		<tag k="ssr:stedsnr" v="246128" />
	</node>
	<node id="-452273" lat="60.1144560313" lon="6.55940801673">
		<tag k="alt_name" v="Tyssedalstveit" />
		<tag k="fixme" v="consider place=hamlet" />
		<tag k="name" v="Tyssedalstveiti" />
		<tag k="place" v="farm" />
		<tag k="ssr:stedsnr" v="242737" />
	</node>
	<node id="-453296" lat="59.7384972197" lon="6.75336111358">
		<tag k="name" v="Utigard" />
		<tag k="place" v="farm" />
		<tag k="ssr:stedsnr" v="913147" />
	</node>
	<node id="-453295" lat="60.0845583357" lon="6.52611110395">
		<tag k="fixme" v="consider place=hamlet" />
		<tag k="name" v="Tokheim" />
		<tag k="place" v="farm" />
		<tag k="ssr:stedsnr" v="909763" />
	</node>
	<node id="-453294" lat="59.9560527821" lon="6.61152777862">
		<tag k="name" v="Stigaflot" />
		<tag k="place" v="farm" />
		<tag k="ssr:stedsnr" v="870506" />
	</node>
	<node id="-453405" lat="60.1466180676" lon="6.54408517549">
		<tag k="name" v="Solsnes" />
		<tag k="place" v="farm" />
		<tag k="ssr:stedsnr" v="949345" />
	</node>
	<node id="-451755" lat="60.0573499992" lon="6.57250278069">
		<tag k="historic" v="shieling" />
		<tag k="name" v="Liasete" />
		<tag k="place" v="locality" />
		<tag k="ssr:stedsnr" v="888567" />
	</node>
	<node id="-453290" lat="59.8540361128" lon="7.06952500183">
		<tag k="historic" v="shieling" />
		<tag k="name" v="Ulevåbotnen" />
		<tag k="place" v="locality" />
		<tag k="ssr:stedsnr" v="854857" />
	</node>
	<node id="-453319" lat="59.8464888894" lon="6.878188888">
		<tag k="historic" v="shieling" />
		<tag k="name" v="Steingardsbakklia" />
		<tag k="place" v="locality" />
		<tag k="ssr:stedsnr" v="914208" />
	</node>
	<node id="-453287" lat="59.8268416636" lon="7.14470555599">
		<tag k="historic" v="shieling" />
		<tag k="name" v="Ståvassvika" />
		<tag k="place" v="locality" />
		<tag k="ssr:stedsnr" v="854823" />
	</node>
	<node id="-452773" lat="60.0991350284" lon="6.52854622145">
		<tag k="name" v="Eitrheim" />
		<tag k="place" v="farm" />
		<tag k="ssr:stedsnr" v="628605" />
	</node>
	<node id="-453284" lat="59.7819777752" lon="6.79068332815">
		<tag k="name" v="Ytregarden" />
		<tag k="place" v="farm" />
		<tag k="ssr:stedsnr" v="854796" />
	</node>
	<node id="-453339" lat="59.7836277794" lon="6.76981665818">
		<tag k="name" v="Ekkje" />
		<tag k="place" v="farm" />
		<tag k="ssr:stedsnr" v="914812" />
	</node>
	<node id="-453279" lat="59.8988888881" lon="6.52141110344">
		<tag k="historic" v="shieling" />
		<tag k="name" v="Heimstestølen" />
		<tag k="place" v="locality" />
		<tag k="ssr:stedsnr" v="854463" />
	</node>
	<node id="-452249" lat="59.8043305554" lon="6.76884443938">
		<tag k="name" v="Haratveita" />
		<tag k="place" v="farm" />
		<tag k="ssr:stedsnr" v="220499" />
	</node>
	<node id="-452292" lat="59.7824805569" lon="6.7904194444">
		<tag k="fixme" v="consider place=hamlet" />
		<tag k="name" v="Odland" />
		<tag k="place" v="farm" />
		<tag k="ssr:stedsnr" v="246775" />
	</node>
	<node id="-452757" lat="60.0169416707" lon="6.84999166651">
		<tag k="name" v="Svartenutbu" />
		<tag k="place" v="locality" />
		<tag k="ssr:stedsnr" v="611347" />
	</node>
	<node id="-452754" lat="59.8250916661" lon="6.74345833752">
		<tag k="name" v="Fjellstølen" />
		<tag k="ssr:stedsnr" v="611240" />
		<tag k="tourism" v="hotel" />
	</node>
	<node id="-452753" lat="60.1797277799" lon="6.518700007">
		<tag k="historic" v="shieling" />
		<tag k="name" v="Stølen" />
		<tag k="place" v="locality" />
		<tag k="ssr:stedsnr" v="611237" />
	</node>
	<node id="-452752" lat="59.8398305583" lon="6.81346388518">
		<tag k="name" v="Kvamsflota" />
		<tag k="place" v="isolated_dwelling" />
		<tag k="ssr:stedsnr" v="611236" />
	</node>
	<node id="-452751" lat="60.1584416668" lon="6.54794999383">
		<tag k="fixme" v="consider place=hamlet" />
		<tag k="name" v="Viki" />
		<tag k="place" v="farm" />
		<tag k="ssr:stedsnr" v="611192" />
	</node>
	<node id="-453262" lat="59.8370611151" lon="6.82996111854">
		<tag k="fixme" v="consider place=hamlet" />
		<tag k="name" v="Rabba" />
		<tag k="place" v="farm" />
		<tag k="ssr:stedsnr" v="854222" />
	</node>
	<node id="-451477" lat="59.9575527753" lon="6.62622778654">
		<tag k="historic" v="shieling" />
		<tag k="name" v="Fodnastølen" />
		<tag k="place" v="locality" />
		<tag k="ssr:stedsnr" v="307167" />
	</node>
	<node id="-453260" lat="59.82580833" lon="6.8198805598">
		<tag k="name" v="Fjetland" />
		<tag k="place" v="farm" />
		<tag k="ssr:stedsnr" v="854210" />
	</node>
	<node id="-453256" lat="59.8736055574" lon="6.88041111932">
		<tag k="historic" v="shieling" />
		<tag k="name" v="Øvlandsstølen" />
		<tag k="place" v="locality" />
		<tag k="ssr:stedsnr" v="854188" />
	</node>
	<node id="-452742" lat="60.0597944481" lon="6.54076111819">
		<tag k="name" v="Rødna" />
		<tag k="place" v="quarter" />
		<tag k="ssr:stedsnr" v="611065" />
	</node>
	<node id="-452739" lat="60.0287999959" lon="6.5421444472">
		<tag k="fixme" v="multiple name tags, choose one and add the other to alt_name" />
		<tag k="name" v="Nedre Strand;Vikane" />
		<tag k="place" v="farm" />
		<tag k="ssr:stedsnr" v="611042" />
	</node>
	<node id="-453249" lat="59.9102666656" lon="6.65831389439">
		<tag k="historic" v="shieling" />
		<tag k="loc_name" v="Byrekvam" />
		<tag k="name" v="Torekovstølen" />
		<tag k="place" v="locality" />
		<tag k="ssr:stedsnr" v="854153" />
	</node>
	<node id="-452329" lat="59.7531638925" lon="6.79544166347">
		<tag k="fixme" v="consider place=hamlet" />
		<tag k="name" v="Botnen" />
		<tag k="place" v="village" />
		<tag k="ssr:stedsnr" v="247752" />
	</node>
	<node id="-453245" lat="60.1163055518" lon="6.55906388933">
		<tag k="name" v="Tyssedal" />
		<tag k="place" v="village" />
		<tag k="ssr:stedsnr" v="854116" />
	</node>
	<node id="-451434" lat="59.8283083296" lon="6.81952777178">
		<tag k="name" v="Århus" />
		<tag k="place" v="farm" />
		<tag k="ssr:stedsnr" v="281471" />
	</node>
	<node id="-453242" lat="60.0846694416" lon="6.53058055113">
		<tag k="fixme" v="consider place=suburb, village or hamlet" />
		<tag k="name" v="Tokheim" />
		<tag k="place" v="quarter" />
		<tag k="ssr:stedsnr" v="854065" />
	</node>
	<node id="-452287" lat="59.9583694448" lon="6.57801944421">
		<tag k="name" v="Gjuvet" />
		<tag k="place" v="farm" />
		<tag k="ssr:stedsnr" v="246407" />
	</node>
	<node id="-452727" lat="59.798088889" lon="6.83516667253">
		<tag k="historic" v="shieling" />
		<tag k="name" v="Grytøyrstølen" />
		<tag k="place" v="locality" />
		<tag k="ssr:stedsnr" v="610807" />
	</node>
	<node id="-453147" lat="59.7530722218" lon="6.79761667242">
		<tag k="name" v="Slåtta" />
		<tag k="place" v="farm" />
		<tag k="ssr:stedsnr" v="793779" />
	</node>
	<node id="-453235" lat="59.8040166648" lon="6.79150833787">
		<tag k="name" v="Øner" />
		<tag k="place" v="farm" />
		<tag k="ssr:stedsnr" v="853775" />
	</node>
	<node id="-451603" lat="59.9722305544" lon="6.5833694514">
		<tag k="fixme" v="consider place=hamlet" />
		<tag k="name" v="Brekke" />
		<tag k="place" v="farm" />
		<tag k="ssr:stedsnr" v="367356" />
	</node>
	<node id="-452720" lat="59.7518277814" lon="6.78233610348">
		<tag k="name" v="Eidet" />
		<tag k="place" v="farm" />
		<tag k="ssr:stedsnr" v="610777" />
	</node>
	<node id="-452719" lat="59.7540222254" lon="6.79645000662">
		<tag k="name" v="Øyna" />
		<tag k="place" v="farm" />
		<tag k="ssr:stedsnr" v="610774" />
	</node>
	<node id="-451517" lat="60.0248000036" lon="6.5271833257">
		<tag k="historic" v="shieling" />
		<tag k="name" v="Fossasete" />
		<tag k="place" v="locality" />
		<tag k="ssr:stedsnr" v="308035" />
	</node>
	<node id="-453228" lat="59.7354250023" lon="6.75536389546">
		<tag k="name" v="Nybø" />
		<tag k="place" v="farm" />
		<tag k="ssr:stedsnr" v="853205" />
	</node>
	<node id="-452715" lat="59.9470388888" lon="6.57642777252">
		<tag k="fixme" v="consider place=hamlet" />
		<tag k="name" v="Espeland" />
		<tag k="place" v="farm" />
		<tag k="ssr:stedsnr" v="610491" />
	</node>
	<node id="-453226" lat="59.7253055538" lon="6.72587222257">
		<tag k="name" v="Hellerslia" />
		<tag k="place" v="farm" />
		<tag k="ssr:stedsnr" v="853194" />
	</node>
	<node id="-451689" lat="59.833311115" lon="6.8316638839">
		<tag k="fixme" v="consider place=hamlet" />
		<tag k="name" v="Juvet" />
		<tag k="place" v="farm" />
		<tag k="ssr:stedsnr" v="402496" />
	</node>
	<node id="-451561" lat="59.8393194457" lon="6.85424999147">
		<tag k="alt_name" v="Vetle Hovden" />
		<tag k="name" v="Vetlehovden" />
		<tag k="place" v="farm" />
		<tag k="ssr:stedsnr" v="341484" />
	</node>
	<node id="-453223" lat="59.9120694416" lon="6.63260554859">
		<tag k="name" v="Floten" />
		<tag k="place" v="farm" />
		<tag k="ssr:stedsnr" v="853150" />
	</node>
	<node id="-452881" lat="60.1621833343" lon="6.57696111072">
		<tag k="alt_name" v="Skjelvik" />
		<tag k="fixme" v="consider place=hamlet" />
		<tag k="name" v="Skjeldvik" />
		<tag k="place" v="farm" />
		<tag k="ssr:stedsnr" v="672198" />
	</node>
	<node id="-452435" lat="59.8349305527" lon="6.82162499607">
		<tag k="fixme" v="consider place=hamlet" />
		<tag k="name" v="Gryting" />
		<tag k="place" v="farm" />
		<tag k="ssr:stedsnr" v="463441" />
	</node>
	<node id="-452707" lat="59.7492333325" lon="6.81239443798">
		<tag k="historic" v="shieling" />
		<tag k="name" v="Bøastølen" />
		<tag k="place" v="locality" />
		<tag k="ssr:stedsnr" v="609143" />
	</node>
	<node id="-452194" lat="59.8294336838" lon="6.81066303297">
		<tag k="fixme" v="consider place=hamlet" />
		<tag k="name" v="Seim" />
		<tag k="place" v="farm" />
		<tag k="ssr:stedsnr" v="186222" />
	</node>
	<node id="-452193" lat="59.82595833" lon="6.80071110455">
		<tag k="fixme" v="consider place=hamlet" />
		<tag k="name" v="Hamre" />
		<tag k="place" v="farm" />
		<tag k="ssr:stedsnr" v="186220" />
	</node>
	<node id="-451627" lat="59.8921452922" lon="6.64225745769">
		<tag k="fixme" v="consider place=hamlet" />
		<tag k="name" v="Seljestad" />
		<tag k="place" v="farm" />
		<tag k="ssr:stedsnr" v="368199" />
	</node>
	<node id="-452709" lat="59.8969777751" lon="6.63069166189">
		<tag k="fixme" v="consider place=hamlet" />
		<tag k="name" v="Bru" />
		<tag k="place" v="farm" />
		<tag k="ssr:stedsnr" v="610187" />
	</node>
	<node id="-452708" lat="59.7476750028" lon="6.73709444526">
		<tag k="historic" v="shieling" />
		<tag k="name" v="Innigardsstølen" />
		<tag k="place" v="locality" />
		<tag k="ssr:stedsnr" v="609159" />
	</node>
	<node id="-452464" lat="60.0561055537" lon="6.55727500685">
		<tag k="fixme" v="consider place=hamlet" />
		<tag k="name" v="Mannsåker" />
		<tag k="place" v="farm" />
		<tag k="ssr:stedsnr" v="489074" />
	</node>
	<node id="-451669" lat="60.1455444454" lon="6.53968611831">
		<tag k="name" v="Flesje" />
		<tag k="place" v="locality" />
		<tag k="ssr:stedsnr" v="369160" />
	</node>
	<node id="-452179" lat="60.0568388915" lon="6.54601111263">
		<tag k="name" v="Eide" />
		<tag k="place" v="village" />
		<tag k="ssr:stedsnr" v="186062" />
	</node>
	<node id="-452178" lat="60.1352444477" lon="6.53807777027">
		<tag k="alt_name" v="Ædna, yt;Ædna" />
		<tag k="name" v="Ytre Ædna" />
		<tag k="place" v="farm" />
		<tag k="ssr:stedsnr" v="186166" />
	</node>
	<node id="-452195" lat="60.1703722263" lon="6.53814999907">
		<tag k="fixme" v="consider place=hamlet" />
		<tag k="name" v="Åse" />
		<tag k="place" v="farm" />
		<tag k="ssr:stedsnr" v="186225" />
	</node>
	<node id="-451664" lat="59.8386249979" lon="6.99035832503">
		<tag k="historic" v="shieling" />
		<tag k="name" v="Midtlæger" />
		<tag k="place" v="locality" />
		<tag k="ssr:stedsnr" v="368856" />
	</node>
	<node id="-451661" lat="59.9828944419" lon="7.21511388326">
		<tag k="fixme" v="consider tourism=alpine_hut or tourism=chalet" />
		<tag k="name" v="Hellevassbu" />
		<tag k="ssr:stedsnr" v="368816" />
		<tag k="tourism" v="wilderness_hut" />
	</node>
	<node id="-452172" lat="59.9672361096" lon="6.52863332864">
		<tag k="fixme" v="multiple name tags, choose one and add the other to alt_name" />
		<tag k="historic" v="shieling" />
		<tag k="name" v="Ormannshaug;Øvstestøl" />
		<tag k="place" v="locality" />
		<tag k="ssr:stedsnr" v="185395" />
	</node>
	<node id="-452171" lat="59.9935277744" lon="6.56766666354">
		<tag k="fixme" v="consider place=hamlet" />
		<tag k="name" v="Hildal" />
		<tag k="place" v="farm" />
		<tag k="ssr:stedsnr" v="185384" />
	</node>
	<node id="-453299" lat="59.7162916637" lon="6.76484443729">
		<tag k="historic" v="shieling" />
		<tag k="loc_name" v="Uranutstølen" />
		<tag k="name" v="Bakkastølen" />
		<tag k="place" v="locality" />
		<tag k="ssr:stedsnr" v="913231" />
	</node>
	<node id="-453335" lat="59.9668222235" lon="7.00583334085">
		<tag k="name" v="Middalsbu" />
		<tag k="ssr:stedsnr" v="914774" />
		<tag k="tourism" v="hotel" />
	</node>
	<node id="-451656" lat="59.9282933305" lon="6.58798515457">
		<tag k="alt_name" v="Øyni" />
		<tag k="name" v="Øyna" />
		<tag k="place" v="farm" />
		<tag k="ssr:stedsnr" v="368491" />
	</node>
	<node id="-452167" lat="60.055347225" lon="6.54843888873">
		<tag k="fixme" v="consider place=hamlet" />
		<tag k="name" v="Eide" />
		<tag k="place" v="farm" />
		<tag k="ssr:stedsnr" v="181778" />
	</node>
	<node id="-453190" lat="60.0449972183" lon="6.64404166577">
		<tag k="historic" v="shieling" />
		<tag k="name" v="Augnastøl" />
		<tag k="place" v="locality" />
		<tag k="ssr:stedsnr" v="827579" />
	</node>
	<node id="-452705" lat="60.1350611109" lon="6.53813055703">
		<tag k="fixme" v="consider place=hamlet" />
		<tag k="name" v="Ædna" />
		<tag k="place" v="farm" />
		<tag k="ssr:stedsnr" v="605748" />
	</node>
	<node id="-452676" lat="59.8129000027" lon="6.77455277599">
		<tag k="name" v="Midttun" />
		<tag k="place" v="farm" />
		<tag k="ssr:stedsnr" v="584449" />
	</node>
	<node id="-451650" lat="59.9570611137" lon="6.57619722496">
		<tag k="fixme" v="consider place=hamlet" />
		<tag k="name" v="Vetrhus" />
		<tag k="place" v="farm" />
		<tag k="ssr:stedsnr" v="368471" />
	</node>
	<node id="-452363" lat="60.1414722257" lon="6.58400000196">
		<tag k="fixme" v="consider place=hamlet" />
		<tag k="name" v="Isberg" />
		<tag k="place" v="farm" />
		<tag k="ssr:stedsnr" v="429159" />
	</node>
	<node id="-452736" lat="60.0230999986" lon="6.5799027739">
		<tag k="historic" v="shieling" />
		<tag k="name" v="Hevresete" />
		<tag k="place" v="locality" />
		<tag k="ssr:stedsnr" v="611025" />
	</node>
	<node id="-452277" lat="59.7337166667" lon="6.72241943898">
		<tag k="historic" v="shieling" />
		<tag k="name" v="Hellerslistølen" />
		<tag k="place" v="locality" />
		<tag k="ssr:stedsnr" v="246144" />
	</node>
	<node id="-453179" lat="59.8317416696" lon="6.82343610698">
		<tag k="fixme" v="consider place=hamlet" />
		<tag k="name" v="Prestegård" />
		<tag k="place" v="farm" />
		<tag k="ssr:stedsnr" v="827509" />
	</node>
	<node id="-451638" lat="59.8342972264" lon="6.84272221427">
		<tag k="name" v="Hovdaflota" />
		<tag k="place" v="farm" />
		<tag k="ssr:stedsnr" v="368273" />
	</node>
	<node id="-453385" lat="59.8367916635" lon="6.82279166773">
		<tag k="name" v="Remen" />
		<tag k="place" v="farm" />
		<tag k="ssr:stedsnr" v="948504" />
	</node>
	<node id="-451634" lat="60.1744333373" lon="6.54756388217">
		<tag k="fixme" v="consider place=hamlet" />
		<tag k="name" v="Kvitno" />
		<tag k="place" v="farm" />
		<tag k="ssr:stedsnr" v="368241" />
	</node>
	<node id="-452145" lat="60.1469999975" lon="6.58852777105">
		<tag k="historic" v="shieling" />
		<tag k="name" v="Liastølen" />
		<tag k="place" v="locality" />
		<tag k="ssr:stedsnr" v="160498" />
	</node>
	<node id="-453166" lat="59.711210674" lon="6.74144716759">
		<tag k="name" v="Sellandsbakkane" />
		<tag k="place" v="farm" />
		<tag k="ssr:stedsnr" v="827367" />
	</node>
	<node id="-451506" lat="59.7982638922" lon="6.77056943894">
		<tag k="name" v="Vika" />
		<tag k="place" v="farm" />
		<tag k="ssr:stedsnr" v="307795" />
	</node>
	<node id="-452275" lat="59.743805559" lon="6.79587500281">
		<tag k="name" v="Myrahaugen" />
		<tag k="place" v="locality" />
		<tag k="ssr:stedsnr" v="246138" />
	</node>
	<node id="-452649" lat="59.9555138863" lon="6.60954167246">
		<tag k="name" v="Træsmyr" />
		<tag k="place" v="farm" />
		<tag k="ssr:stedsnr" v="566503" />
	</node>
	<node id="-452650" lat="59.8924972247" lon="6.64242500167">
		<tag k="name" v="Seljestad" />
		<tag k="ssr:stedsnr" v="570063" />
		<tag k="tourism" v="hotel" />
	</node>
	<node id="-451623" lat="59.9666500016" lon="6.67544166301">
		<tag k="historic" v="shieling" />
		<tag k="name" v="Skarsstølen" />
		<tag k="place" v="locality" />
		<tag k="ssr:stedsnr" v="368168" />
	</node>
	<node id="-453158" lat="60.0970703412" lon="6.52931736635">
		<tag k="name" v="Eitrheim" />
		<tag k="place" v="farm" />
		<tag k="ssr:stedsnr" v="810621" />
	</node>
	<node id="-452133" lat="59.8139194441" lon="6.77506110456">
		<tag k="name" v="Oppistov" />
		<tag k="place" v="farm" />
		<tag k="ssr:stedsnr" v="159495" />
	</node>
	<node id="-451606" lat="59.8066055522" lon="6.79495556392">
		<tag k="fixme" v="consider place=hamlet" />
		<tag k="name" v="Bratteteig" />
		<tag k="place" v="farm" />
		<tag k="ssr:stedsnr" v="367776" />
	</node>
	<node id="-452641" lat="59.7049638869" lon="6.75548332908">
		<tag k="historic" v="shieling" />
		<tag k="name" v="Gamlestølen" />
		<tag k="place" v="locality" />
		<tag k="ssr:stedsnr" v="610245" />
	</node>
	<node id="-453149" lat="59.9760611109" lon="7.25373610592">
		<tag k="name" v="Veidemannsbu" />
		<tag k="place" v="isolated_dwelling" />
		<tag k="ssr:stedsnr" v="793796" />
	</node>
	<node id="-452636" lat="59.8989083348" lon="6.69841666335">
		<tag k="historic" v="shieling" />
		<tag k="name" v="Skrøyvo" />
		<tag k="place" v="locality" />
		<tag k="ssr:stedsnr" v="610191" />
	</node>
	<node id="-451611" lat="60.0294431533" lon="6.50417949083">
		<tag k="alt_name" v="Liaset;Øvstestølen" />
		<tag k="historic" v="shieling" />
		<tag k="name" v="Liasete" />
		<tag k="place" v="locality" />
		<tag k="ssr:stedsnr" v="368041" />
	</node>
	<node id="-451503" lat="59.7536333292" lon="6.79948610603">
		<tag k="name" v="Rinden" />
		<tag k="place" v="farm" />
		<tag k="ssr:stedsnr" v="307761" />
	</node>
	<node id="-452632" lat="59.8893388916" lon="6.52480555166">
		<tag k="historic" v="shieling" />
		<tag k="name" v="Botnabu" />
		<tag k="place" v="locality" />
		<tag k="ssr:stedsnr" v="550483" />
	</node>
	<node id="-451607" lat="60.0018694402" lon="6.56521945265">
		<tag k="name" v="Sveinsgjerd" />
		<tag k="place" v="farm" />
		<tag k="ssr:stedsnr" v="368016" />
	</node>
	<node id="-452630" lat="59.9018694439" lon="6.58514165945">
		<tag k="historic" v="shieling" />
		<tag k="name" v="Tungestøl" />
		<tag k="place" v="locality" />
		<tag k="ssr:stedsnr" v="550463" />
	</node>
	<node id="-453141" lat="59.8359555522" lon="6.82623056096">
		<tag k="fixme" v="consider place=hamlet" />
		<tag k="name" v="Hauge" />
		<tag k="place" v="farm" />
		<tag k="ssr:stedsnr" v="793255" />
	</node>
	<node id="-452627" lat="60.1264166642" lon="6.62008611967">
		<tag k="name" v="Eplehaugen" />
		<tag k="place" v="isolated_dwelling" />
		<tag k="ssr:stedsnr" v="550395" />
	</node>
	<node id="-453263" lat="59.8375666708" lon="6.83124723026">
		<tag k="name" v="Hagen" />
		<tag k="place" v="farm" />
		<tag k="ssr:stedsnr" v="854228" />
	</node>
	<node id="-452281" lat="59.7284333332" lon="6.76072499351">
		<tag k="historic" v="shieling" />
		<tag k="name" v="Solhaug" />
		<tag k="place" v="locality" />
		<tag k="ssr:stedsnr" v="246225" />
	</node>
	<node id="-452847" lat="59.9182444436" lon="6.95531111167">
		<tag k="historic" v="shieling" />
		<tag k="name" v="Kjømberget" />
		<tag k="place" v="locality" />
		<tag k="ssr:stedsnr" v="671187" />
	</node>
	<node id="-451524" lat="60.144258329" lon="6.57183054925">
		<tag k="alt_name" v="Ori" />
		<tag k="name" v="Orri" />
		<tag k="place" v="farm" />
		<tag k="ssr:stedsnr" v="308164" />
	</node>
	<node id="-452108" lat="59.9551138899" lon="6.98977500447">
		<tag k="fixme" v="consider tourism=alpine_hut or tourism=chalet" />
		<tag k="name" v="Middalsbu" />
		<tag k="ssr:stedsnr" v="268548" />
		<tag k="tourism" v="wilderness_hut" />
	</node>
	<node id="-451609" lat="60.0097638895" lon="6.56356389219">
		<tag k="name" v="Tjørnadalen" />
		<tag k="place" v="farm" />
		<tag k="ssr:stedsnr" v="368020" />
	</node>
	<node id="-453134" lat="59.8486499988" lon="6.87353332927">
		<tag k="name" v="Lia" />
		<tag k="place" v="farm" />
		<tag k="ssr:stedsnr" v="793208" />
	</node>
	<node id="-452612" lat="59.8565666686" lon="6.90960000734">
		<tag k="historic" v="shieling" />
		<tag k="name" v="Bergsstølen" />
		<tag k="place" v="locality" />
		<tag k="ssr:stedsnr" v="550196" />
	</node>
	<node id="-452099" lat="60.069116664" lon="6.54564444031">
		<tag k="name" v="Odda" />
		<tag k="place" v="town" />
		<tag k="ssr:stedsnr" v="126074" />
	</node>
	<node id="-452098" lat="60.0619916637" lon="6.55306389591">
		<tag k="fixme" v="consider place=hamlet" />
		<tag k="name" v="Hjøllo" />
		<tag k="place" v="farm" />
		<tag k="ssr:stedsnr" v="126072" />
	</node>
</osm>
