<?xml version="1.0" encoding="UTF-8"?>
<osm generator="osmapis" version="0.6">
	<node id="-451839" lat="59.8942499987" lon="7.14023055103">
		<tag k="name" v="Nupsfonn" />
		<tag k="natural" v="glacier" />
		<tag k="ssr:stedsnr" v="4860" />
	</node>
	<node id="-452349" lat="59.8066527791" lon="6.91786111579">
		<tag k="name" v="Skjortefonn" />
		<tag k="natural" v="glacier" />
		<tag k="ssr:stedsnr" v="428771" />
	</node>
	<node id="-453372" lat="59.7815083356" lon="6.79695278199">
		<tag k="name" v="Liamyra" />
		<tag k="natural" v="wetland" />
		<tag k="ssr:stedsnr" v="948311" />
	</node>
	<node id="-451604" lat="59.975598107" lon="6.56917797844">
		<tag k="alt_name" v="Dvergøyni" />
		<tag k="name" v="Drengøyna" />
		<tag k="place" v="locality" />
		<tag k="ssr:stedsnr" v="367359" />
	</node>
	<node id="-451954" lat="60.1378833364" lon="6.52928888992">
		<tag k="name" v="Fivelsmyr" />
		<tag k="natural" v="wetland" />
		<tag k="ssr:stedsnr" v="65172" />
	</node>
	<node id="-452337" lat="60.0009083343" lon="7.12659999603">
		<tag k="name" v="Søre Skavlen" />
		<tag k="place" v="locality" />
		<tag k="ssr:stedsnr" v="264882" />
	</node>
	<node id="-452675" lat="59.8055888931" lon="6.75875000617">
		<tag k="name" v="Klovsteinane" />
		<tag k="natural" v="stone" />
		<tag k="ssr:stedsnr" v="584447" />
	</node>
	<node id="-451564" lat="59.8312111095" lon="6.81741943606">
		<tag k="name" v="Saltvoll" />
		<tag k="place" v="locality" />
		<tag k="ssr:stedsnr" v="341508" />
	</node>
	<node id="-452391" lat="59.9084500041" lon="7.14503611958">
		<tag k="name" v="Store Nupsfonn" />
		<tag k="natural" v="glacier" />
		<tag k="ssr:stedsnr" v="429846" />
	</node>
	<node id="-452028" lat="60.0579333292" lon="6.56578055515">
		<tag k="name" v="Flottura" />
		<tag k="natural" v="scree" />
		<tag k="ssr:stedsnr" v="99625" />
	</node>
	<node id="-453222" lat="59.9318888893" lon="6.81163055299">
		<tag k="name" v="Reinsnosfonni" />
		<tag k="natural" v="glacier" />
		<tag k="ssr:stedsnr" v="853146" />
	</node>
	<node id="-451429" lat="59.964775004" lon="6.5605000081">
		<tag k="name" v="Raudyremyr" />
		<tag k="natural" v="wetland" />
		<tag k="ssr:stedsnr" v="281438" />
	</node>
	<node id="-451725" lat="59.7774194475" lon="6.76880554717">
		<tag k="name" v="Revaura" />
		<tag k="natural" v="scree" />
		<tag k="ssr:stedsnr" v="888239" />
	</node>
	<node id="-452960" lat="59.9651388898" lon="6.7452611165">
		<tag k="name" v="Dusen" />
		<tag k="place" v="locality" />
		<tag k="ssr:stedsnr" v="732139" />
	</node>
	<node id="-451551" lat="59.948402782" lon="6.57358333693">
		<tag k="name" v="Storemyr" />
		<tag k="natural" v="wetland" />
		<tag k="ssr:stedsnr" v="341431" />
	</node>
	<node id="-451805" lat="60.0361416657" lon="6.43245832786">
		<tag k="alt_name" v="Buerbreen, nedre;Nedre Buerbreen" />
		<tag k="name" v="Nedre Buarbreen" />
		<tag k="natural" v="glacier" />
		<tag k="ssr:stedsnr" v="4047" />
	</node>
	<node id="-452188" lat="59.9398444488" lon="6.81738888025">
		<tag k="name" v="Storfonn" />
		<tag k="natural" v="glacier" />
		<tag k="ssr:stedsnr" v="186174" />
	</node>
	<node id="-452154" lat="60.0463388913" lon="6.53132499123">
		<tag k="name" v="Kalhagen" />
		<tag k="place" v="locality" />
		<tag k="ssr:stedsnr" v="160552" />
	</node>
	<node id="-451545" lat="59.7824361097" lon="6.80124445134">
		<tag k="name" v="Myra" />
		<tag k="natural" v="wetland" />
		<tag k="ssr:stedsnr" v="341312" />
	</node>
	<node id="-453207" lat="60.171625003" lon="6.52063055803">
		<tag k="name" v="Slåtta" />
		<tag k="place" v="locality" />
		<tag k="ssr:stedsnr" v="827695" />
	</node>
	<node id="-453206" lat="60.1744944461" lon="6.53951666888">
		<tag k="historic" v="shieling" />
		<tag k="name" v="Mjøstølen" />
		<tag k="place" v="locality" />
		<tag k="ssr:stedsnr" v="827694" />
	</node>
	<node id="-452693" lat="60.0435333289" lon="6.49919721968">
		<tag k="name" v="Jord" />
		<tag k="place" v="locality" />
		<tag k="ssr:stedsnr" v="584626" />
	</node>
	<node id="-453076" lat="60.1466833306" lon="6.53828055482">
		<tag k="name" v="Kyrastein" />
		<tag k="natural" v="stone" />
		<tag k="ssr:stedsnr" v="766695" />
	</node>
	<node id="-451539" lat="60.0071916627" lon="7.12624444329">
		<tag k="name" v="Nordre Skavlen" />
		<tag k="place" v="locality" />
		<tag k="ssr:stedsnr" v="325867" />
	</node>
	<node id="-451512" lat="59.8472000026" lon="7.08782499274">
		<tag k="name" v="Pepparsteinen" />
		<tag k="natural" v="stone" />
		<tag k="ssr:stedsnr" v="307868" />
	</node>
	<node id="-452429" lat="59.9782444427" lon="6.55178611192">
		<tag k="name" v="Eirikslåtta" />
		<tag k="place" v="locality" />
		<tag k="ssr:stedsnr" v="463405" />
	</node>
	<node id="-452556" lat="59.9437500013" lon="6.60723610397">
		<tag k="name" v="Momyrane" />
		<tag k="place" v="locality" />
		<tag k="ssr:stedsnr" v="524338" />
	</node>
	<node id="-452553" lat="59.8490444422" lon="6.86319722422">
		<tag k="name" v="Vardasteinane" />
		<tag k="natural" v="stone" />
		<tag k="ssr:stedsnr" v="523558" />
	</node>
	<node id="-452807" lat="60.0003111121" lon="6.61165277697">
		<tag k="landuse" v="meadow" />
		<tag k="name" v="Nutaslåtta" />
		<tag k="ssr:stedsnr" v="645524" />
	</node>
	<node id="-453189" lat="60.046147222" lon="6.53774443606">
		<tag k="name" v="Tveitæ" />
		<tag k="place" v="locality" />
		<tag k="ssr:stedsnr" v="827576" />
	</node>
	<node id="-452932" lat="60.042569441" lon="6.4676555496">
		<tag k="name" v="Seljemyr" />
		<tag k="natural" v="wetland" />
		<tag k="ssr:stedsnr" v="706575" />
	</node>
	<node id="-451523" lat="60.1344916682" lon="6.52748888752">
		<tag k="name" v="Svagemyr" />
		<tag k="natural" v="wetland" />
		<tag k="ssr:stedsnr" v="308147" />
	</node>
	<node id="-451778" lat="60.0208749982" lon="6.30709165878">
		<tag k="name" v="Folgefonna" />
		<tag k="natural" v="glacier" />
		<tag k="ssr:stedsnr" v="307423" />
	</node>
	<node id="-451776" lat="60.0400517796" lon="6.41986653887">
		<tag k="name" v="Buarbreen" />
		<tag k="natural" v="glacier" />
		<tag k="ssr:stedsnr" v="987857" />
	</node>
	<node id="-452799" lat="60.0693583354" lon="6.55690556302">
		<tag k="name" v="Lindur" />
		<tag k="natural" v="scree" />
		<tag k="ssr:stedsnr" v="645370" />
	</node>
	<node id="-453182" lat="59.9068944474" lon="6.51111389559">
		<tag k="name" v="Nonsnotmyra" />
		<tag k="natural" v="wetland" />
		<tag k="ssr:stedsnr" v="827535" />
	</node>
	<node id="-453181" lat="59.8591527775" lon="6.92683888837">
		<tag k="historic" v="shieling" />
		<tag k="name" v="Hammarstølen" />
		<tag k="place" v="locality" />
		<tag k="ssr:stedsnr" v="827522" />
	</node>
	<node id="-452796" lat="60.1550361076" lon="6.5344222199">
		<tag k="name" v="Bringebærur" />
		<tag k="natural" v="scree" />
		<tag k="ssr:stedsnr" v="644698" />
	</node>
	<node id="-453005" lat="60.0908138932" lon="6.54945555529">
		<tag k="name" v="Kviturd" />
		<tag k="natural" v="scree" />
		<tag k="ssr:stedsnr" v="733118" />
	</node>
	<node id="-453306" lat="60.0437555589" lon="6.42838333156">
		<tag k="alt_name" v="Buerbreen, øvre;Øvre Buerbreen" />
		<tag k="name" v="Øvre Buarbreen" />
		<tag k="natural" v="glacier" />
		<tag k="ssr:stedsnr" v="914059" />
	</node>
	<node id="-453048" lat="59.8291444401" lon="6.74157777745">
		<tag k="name" v="Killestadura" />
		<tag k="natural" v="scree" />
		<tag k="ssr:stedsnr" v="766432" />
	</node>
	<node id="-452791" lat="59.9168305551" lon="6.53253055772">
		<tag k="name" v="Damslåtta" />
		<tag k="place" v="locality" />
		<tag k="ssr:stedsnr" v="644541" />
	</node>
	<node id="-452790" lat="59.9114916666" lon="6.51989443813">
		<tag k="name" v="Høgabergmyra" />
		<tag k="natural" v="wetland" />
		<tag k="ssr:stedsnr" v="644540" />
	</node>
	<node id="-452019" lat="59.9051722237" lon="6.51385554884">
		<tag k="name" v="Halimyra" />
		<tag k="natural" v="wetland" />
		<tag k="ssr:stedsnr" v="99497" />
	</node>
	<node id="-452011" lat="59.9385944406" lon="6.60129445315">
		<tag k="name" v="Storemyr" />
		<tag k="place" v="locality" />
		<tag k="ssr:stedsnr" v="99390" />
	</node>
	<node id="-453041" lat="59.7481916628" lon="6.79007777227">
		<tag k="name" v="Orramyra" />
		<tag k="natural" v="wetland" />
		<tag k="ssr:stedsnr" v="766358" />
	</node>
	<node id="-453168" lat="59.9721861099" lon="6.54968888406">
		<tag k="name" v="Storemyr" />
		<tag k="natural" v="wetland" />
		<tag k="ssr:stedsnr" v="827401" />
	</node>
	<node id="-451758" lat="60.0615666692" lon="6.57353889279">
		<tag k="name" v="Urane" />
		<tag k="natural" v="scree" />
		<tag k="ssr:stedsnr" v="888582" />
	</node>
	<node id="-452125" lat="59.7511500009" lon="6.78126666669">
		<tag k="name" v="Eidesmyrane" />
		<tag k="natural" v="wetland" />
		<tag k="ssr:stedsnr" v="159398" />
	</node>
	<node id="-451884" lat="60.1540777755" lon="6.53591944499">
		<tag k="loc_name" v="Lauvhogget" />
		<tag k="name" v="Lauvhoggen" />
		<tag k="place" v="locality" />
		<tag k="ssr:stedsnr" v="38677" />
	</node>
	<node id="-452395" lat="60.1908249994" lon="6.48512777292">
		<tag k="name" v="Dettebreen" />
		<tag k="natural" v="glacier" />
		<tag k="ssr:stedsnr" v="429867" />
	</node>
	<node id="-452137" lat="59.8633916678" lon="6.86959444339">
		<tag k="historic" v="shieling" />
		<tag k="name" v="Bråstøl" />
		<tag k="place" v="locality" />
		<tag k="ssr:stedsnr" v="159539" />
	</node>
	<node id="-451880" lat="60.1267972262" lon="6.53399444115">
		<tag k="name" v="Sveur" />
		<tag k="natural" v="scree" />
		<tag k="ssr:stedsnr" v="38654" />
	</node>
	<node id="-452903" lat="59.7852388889" lon="6.76710278228">
		<tag k="name" v="Innigardsteigen" />
		<tag k="place" v="locality" />
		<tag k="ssr:stedsnr" v="705316" />
	</node>
	<node id="-452134" lat="59.8153166688" lon="6.76416111207">
		<tag k="landuse" v="meadow" />
		<tag k="name" v="Midttunhagen" />
		<tag k="ssr:stedsnr" v="159500" />
	</node>
	<node id="-452005" lat="59.7942638899" lon="6.75610832548">
		<tag k="historic" v="shieling" />
		<tag k="name" v="Ekkjevikstølen" />
		<tag k="place" v="locality" />
		<tag k="ssr:stedsnr" v="99317" />
	</node>
	<node id="-451748" lat="60.1503555587" lon="6.5891388959">
		<tag k="name" v="Flætena" />
		<tag k="place" v="locality" />
		<tag k="ssr:stedsnr" v="888533" />
	</node>
	<node id="-451871" lat="60.0133166688" lon="6.56507499839">
		<tag k="name" v="Tjørnura" />
		<tag k="natural" v="scree" />
		<tag k="ssr:stedsnr" v="38552" />
	</node>
	<node id="-453061" lat="59.9872722251" lon="6.51567778446">
		<tag k="name" v="Maristein" />
		<tag k="natural" v="stone" />
		<tag k="ssr:stedsnr" v="766569" />
	</node>
	<node id="-453018" lat="59.8374194447" lon="6.86922500725">
		<tag k="name" v="Liamyrane" />
		<tag k="natural" v="wetland" />
		<tag k="ssr:stedsnr" v="748481" />
	</node>
	<node id="-452247" lat="60.1169583326" lon="6.57427223051">
		<tag k="name" v="Telemyr" />
		<tag k="natural" v="wetland" />
		<tag k="ssr:stedsnr" v="220463" />
	</node>
	<node id="-451734" lat="59.813944448" lon="6.75890832697">
		<tag k="name" v="Turtveitmyrane" />
		<tag k="natural" v="wetland" />
		<tag k="ssr:stedsnr" v="888395" />
	</node>
	<node id="-453013" lat="60.0437972216" lon="6.86606111217">
		<tag k="name" v="Hattasteinen" />
		<tag k="natural" v="stone" />
		<tag k="ssr:stedsnr" v="733374" />
	</node>
	<node id="-453396" lat="60.1115222214" lon="6.5580305476">
		<tag k="name" v="Tveitaura" />
		<tag k="natural" v="scree" />
		<tag k="ssr:stedsnr" v="948713" />
	</node>
	<node id="-452114" lat="59.7372722191" lon="6.75818888813">
		<tag k="historic" v="shieling" />
		<tag k="name" v="Melkestølen" />
		<tag k="place" v="locality" />
		<tag k="ssr:stedsnr" v="159274" />
	</node>
	<node id="-452547" lat="59.8572027772" lon="6.92945832917">
		<tag k="historic" v="shieling" />
		<tag k="name" v="Juvastølen" />
		<tag k="place" v="locality" />
		<tag k="ssr:stedsnr" v="523400" />
	</node>
	<node id="-452621" lat="60.0336277806" lon="6.95735832755">
		<tag k="name" v="Solfonn" />
		<tag k="natural" v="glacier" />
		<tag k="ssr:stedsnr" v="550341" />
	</node>
	<node id="-451850" lat="59.7665027789" lon="6.80455554725">
		<tag k="name" v="Hattebergmyra" />
		<tag k="natural" v="wetland" />
		<tag k="ssr:stedsnr" v="38309" />
	</node>
	<node id="-453384" lat="59.8070305527" lon="6.8400694457">
		<tag k="name" v="Klorsteinane" />
		<tag k="natural" v="stone" />
		<tag k="ssr:stedsnr" v="948503" />
	</node>
	<node id="-452999" lat="59.9478499972" lon="6.98929999144">
		<tag k="name" v="Laberget" />
		<tag k="place" v="locality" />
		<tag k="ssr:stedsnr" v="732772" />
	</node>
	<node id="-453380" lat="59.747688892" lon="6.79184444074">
		<tag k="historic" v="shieling" />
		<tag k="name" v="Nedste Stølen" />
		<tag k="place" v="locality" />
		<tag k="ssr:stedsnr" v="948401" />
	</node>
	<node id="-453169" lat="59.9520999976" lon="6.62098055773">
		<tag k="name" v="Storemyr" />
		<tag k="place" v="locality" />
		<tag k="ssr:stedsnr" v="827411" />
	</node>
</osm>
