<?xml version="1.0" encoding="UTF-8"?>
<osm generator="osmapis" version="0.6">
	<node id="-452885" lat="59.9087694459" lon="6.53796667497">
		<tag k="bridge" v="yes" />
		<tag k="layer" v="1" />
		<tag k="name" v="Holstøl" />
		<tag k="ssr:stedsnr" v="228808" />
	</node>
	<node id="-453439" lat="60.0808416684" lon="6.53040555153">
		<tag k="bridge" v="yes" />
		<tag k="layer" v="1" />
		<tag k="name" v="Tokheimselva" />
		<tag k="ssr:stedsnr" v="653793" />
	</node>
	<node id="-453268" lat="59.8441174642" lon="7.02252421113">
		<tag k="alt_name" v="Haukeli" />
		<tag k="layer" v="-1" />
		<tag k="name" v="Haukelitunnelen" />
		<tag k="ssr:stedsnr" v="570975" />
		<tag k="tunnel" v="yes" />
	</node>
	<node id="-454036" lat="60.1020388862" lon="6.55080277242">
		<tag k="bridge" v="yes" />
		<tag k="layer" v="1" />
		<tag k="name" v="Slarkebekk" />
		<tag k="ssr:stedsnr" v="957778" />
	</node>
	<node id="-452205" lat="60.0254942835" lon="6.56227665116">
		<tag k="bridge" v="yes" />
		<tag k="layer" v="1" />
		<tag k="name" v="Tjødnadal" />
		<tag k="ssr:stedsnr" v="350757" />
	</node>
	<node id="-452203" lat="59.9904583304" lon="6.56692499922">
		<tag k="bridge" v="yes" />
		<tag k="layer" v="1" />
		<tag k="name" v="Hildal" />
		<tag k="ssr:stedsnr" v="349805" />
	</node>
	<node id="-452202" lat="60.1020388862" lon="6.55080277242">
		<tag k="alt_name" v="Tyssedal;Tyssedaltunnelen" />
		<tag k="layer" v="-1" />
		<tag k="name" v="Tyssedalstunnelen" />
		<tag k="ssr:stedsnr" v="347653" />
		<tag k="tunnel" v="yes" />
	</node>
	<node id="-452326" lat="60.0955527818" lon="6.52971388261">
		<tag k="bridge" v="yes" />
		<tag k="layer" v="1" />
		<tag k="name" v="Eitrheimsvågen" />
		<tag k="ssr:stedsnr" v="410861" />
	</node>
	<node id="-453093" lat="59.8525000034" lon="6.93608054935">
		<tag k="alt_name" v="Svandalsflona" />
		<tag k="layer" v="-1" />
		<tag k="loc_name" v="Svandalsflotunnelen" />
		<tag k="name" v="Svandalsflonatunnelen" />
		<tag k="old_name" v="Svandalsflonatunnellen" />
		<tag k="ssr:stedsnr" v="489228" />
		<tag k="tunnel" v="yes" />
	</node>
	<node id="-452324" lat="59.881136112" lon="6.66189444555">
		<tag k="bridge" v="yes" />
		<tag k="layer" v="1" />
		<tag k="name" v="Korlevoll" />
		<tag k="ssr:stedsnr" v="410769" />
	</node>
	<node id="-452325" lat="60.1440238603" lon="6.54006608675">
		<tag k="bridge" v="yes" />
		<tag k="layer" v="1" />
		<tag k="name" v="Flesje" />
		<tag k="ssr:stedsnr" v="410770" />
	</node>
	<node id="-452886" lat="60.0691277807" lon="6.54939999873">
		<tag k="bridge" v="yes" />
		<tag k="layer" v="1" />
		<tag k="name" v="Opo" />
		<tag k="ssr:stedsnr" v="228814" />
	</node>
	<node id="-452820" lat="60.0449833324" lon="6.64693056347">
		<tag k="ford" v="yes" />
		<tag k="name" v="Kyravadet" />
		<tag k="place" v="locality" />
		<tag k="ssr:stedsnr" v="186445" />
	</node>
	<node id="-452818" lat="60.0597944424" lon="6.63381944557">
		<tag k="man_made" v="cairn" />
		<tag k="name" v="Bygdavarden" />
		<tag k="place" v="locality" />
		<tag k="ssr:stedsnr" v="186429" />
	</node>
	<node id="-452049" lat="59.8211861106" lon="6.81544999753">
		<tag k="landuse" v="industrial" />
		<tag k="name" v="Røldal kraftstasjon" />
		<tag k="power" v="plant" />
		<tag k="ssr:stedsnr" v="281473" />
	</node>
	<node id="-453200" lat="59.9348194446" lon="6.59718333801">
		<tag k="bridge" v="yes" />
		<tag k="layer" v="1" />
		<tag k="name" v="Skardsbekken" />
		<tag k="ssr:stedsnr" v="532773" />
	</node>
	<node id="-453199" lat="59.9265388854" lon="6.58096667">
		<tag k="layer" v="-1" />
		<tag k="name" v="Torgilshol" />
		<tag k="ssr:stedsnr" v="529704" />
		<tag k="tunnel" v="yes" />
	</node>
	<node id="-452814" lat="59.8405555526" lon="6.71693055892">
		<tag k="alt_name" v="Røldal" />
		<tag k="layer" v="-1" />
		<tag k="name" v="Røldalstunnelen" />
		<tag k="old_name" v="Røldalstunnellen" />
		<tag k="ssr:stedsnr" v="186247" />
		<tag k="tunnel" v="yes" />
	</node>
	<node id="-453068" lat="60.0536027786" lon="6.5553833305">
		<tag k="bridge" v="yes" />
		<tag k="layer" v="1" />
		<tag k="name" v="Vasstun" />
		<tag k="ssr:stedsnr" v="471786" />
	</node>
	<node id="-453201" lat="59.9031499963" lon="6.62183056135">
		<tag k="bridge" v="yes" />
		<tag k="layer" v="1" />
		<tag k="name" v="Seljestad" />
		<tag k="ssr:stedsnr" v="532776" />
	</node>
	<node id="-453066" lat="60.0716861068" lon="6.55239165853">
		<tag k="bridge" v="yes" />
		<tag k="layer" v="1" />
		<tag k="name" v="Freimsbekken" />
		<tag k="ssr:stedsnr" v="470785" />
	</node>
	<node id="-453065" lat="59.74901944" lon="6.69724444522">
		<tag k="bridge" v="yes" />
		<tag k="layer" v="1" />
		<tag k="name" v="Krigleseter" />
		<tag k="ssr:stedsnr" v="470779" />
	</node>
	<node id="-453960" lat="60.0074833296" lon="6.53924444647">
		<tag k="barrier" v="toll_booth" />
		<tag k="name" v="Fjelaleitet" />
		<tag k="ssr:stedsnr" v="915021" />
	</node>
	<node id="-453831" lat="60.1741000005" lon="6.54715833235">
		<tag k="bridge" v="yes" />
		<tag k="layer" v="1" />
		<tag k="name" v="Kvitno" />
		<tag k="ssr:stedsnr" v="835786" />
	</node>
	<node id="-452678" lat="60.0308666646" lon="6.46082500739">
		<tag k="ford" v="yes" />
		<tag k="name" v="Sigridsprang" />
		<tag k="place" v="locality" />
		<tag k="ssr:stedsnr" v="125044" />
	</node>
	<node id="-452662" lat="59.7732444425" lon="6.74245000416">
		<tag k="bridge" v="yes" />
		<tag k="layer" v="1" />
		<tag k="name" v="Ekkjeskar" />
		<tag k="ssr:stedsnr" v="107875" />
	</node>
	<node id="-453314" lat="60.1363138914" lon="6.53835000703">
		<tag k="alt_name" v="Edna" />
		<tag k="layer" v="-1" />
		<tag k="loc_name" v="Ædnatunnelen" />
		<tag k="name" v="Ednatunnelen" />
		<tag k="ssr:stedsnr" v="590410" />
		<tag k="tunnel" v="yes" />
	</node>
	<node id="-453320" lat="59.9482055585" lon="6.59119999517">
		<tag k="bridge" v="yes" />
		<tag k="layer" v="1" />
		<tag k="name" v="Låte" />
		<tag k="ssr:stedsnr" v="592829" />
	</node>
	<node id="-453696" lat="59.7527055556" lon="6.78989444711">
		<tag k="bridge" v="yes" />
		<tag k="layer" v="1" />
		<tag k="name" v="Botna" />
		<tag k="ssr:stedsnr" v="774876" />
	</node>
	<node id="-453695" lat="60.1212388869" lon="6.55818889749">
		<tag k="alt_name" v="Oksla" />
		<tag k="layer" v="-1" />
		<tag k="name" v="Okslatunnelen" />
		<tag k="ssr:stedsnr" v="772366" />
		<tag k="tunnel" v="yes" />
	</node>
	<node id="-453438" lat="59.833455558" lon="6.81505832801">
		<tag k="bridge" v="yes" />
		<tag k="layer" v="1" />
		<tag k="name" v="Tuftejuv" />
		<tag k="ssr:stedsnr" v="653791" />
	</node>
	<node id="-452661" lat="59.8125472263" lon="6.76165833237">
		<tag k="bridge" v="yes" />
		<tag k="layer" v="1" />
		<tag k="name" v="Turtveit" />
		<tag k="ssr:stedsnr" v="107797" />
	</node>
	<node id="-453436" lat="59.7906250017" lon="6.76826665968">
		<tag k="bridge" v="yes" />
		<tag k="layer" v="1" />
		<tag k="name" v="Ekkjevik" />
		<tag k="ssr:stedsnr" v="652756" />
	</node>
	<node id="-453435" lat="59.8091722226" lon="6.77226388885">
		<tag k="bridge" v="yes" />
		<tag k="layer" v="1" />
		<tag k="name" v="Horda" />
		<tag k="ssr:stedsnr" v="652753" />
	</node>
	<node id="-452792" lat="60.029761108" lon="6.58731388982">
		<tag k="ford" v="yes" />
		<tag k="name" v="Bjørkevadet" />
		<tag k="place" v="locality" />
		<tag k="ssr:stedsnr" v="186028" />
	</node>
	<node id="-452663" lat="60.1458694468" lon="6.54161665753">
		<tag k="bridge" v="yes" />
		<tag k="layer" v="1" />
		<tag k="name" v="Apold" />
		<tag k="ssr:stedsnr" v="107879" />
	</node>
	<node id="-453558" lat="60.0821166675" lon="6.53098054651">
		<tag k="bridge" v="yes" />
		<tag k="layer" v="1" />
		<tag k="name" v="Tokheim" />
		<tag k="ssr:stedsnr" v="714761" />
	</node>
	<node id="-453321" lat="59.9474722226" lon="6.58402500286">
		<tag k="bridge" v="yes" />
		<tag k="layer" v="1" />
		<tag k="name" v="Låtefoss" />
		<tag k="ssr:stedsnr" v="592828" />
	</node>
	<node id="-453554" lat="60.0874333321" lon="6.54977777186">
		<tag k="fixme" v="verify maritime location" />
		<tag k="mooring" v="yes" />
		<tag k="name" v="Sandteig" />
		<tag k="place" v="locality" />
		<tag k="ssr:stedsnr" v="711710" />
	</node>
	<node id="-452655" lat="59.8393472206" lon="6.98773333293">
		<tag k="layer" v="-1" />
		<tag k="name" v="Haukeli" />
		<tag k="ssr:stedsnr" v="105974" />
		<tag k="tunnel" v="yes" />
	</node>
	<node id="-452654" lat="59.8584027785" lon="6.87617499828">
		<tag k="layer" v="-1" />
		<tag k="name" v="Austmannli" />
		<tag k="ssr:stedsnr" v="105086" />
		<tag k="tunnel" v="yes" />
	</node>
	<node id="-452777" lat="59.811669442" lon="6.76633889305">
		<tag k="bridge" v="yes" />
		<tag k="layer" v="1" />
		<tag k="name" v="Hordajuvet" />
		<tag k="ssr:stedsnr" v="167785" />
	</node>
	<node id="-452776" lat="59.811622226" lon="6.76574166182">
		<tag k="layer" v="-1" />
		<tag k="name" v="Horda" />
		<tag k="ssr:stedsnr" v="165499" />
		<tag k="tunnel" v="yes" />
	</node>
	<node id="-452775" lat="60.0309194434" lon="6.56417222541">
		<tag k="alt_name" v="Lausastein" />
		<tag k="layer" v="-1" />
		<tag k="name" v="Lausasteintunnelen" />
		<tag k="ssr:stedsnr" v="165293" />
		<tag k="tunnel" v="yes" />
	</node>
	<node id="-453319" lat="59.8703499985" lon="6.67764721614">
		<tag k="bridge" v="yes" />
		<tag k="layer" v="1" />
		<tag k="name" v="Histein" />
		<tag k="ssr:stedsnr" v="592822" />
	</node>
	<node id="-452377" lat="60.0816972191" lon="6.55040833884">
		<tag k="bridge" v="yes" />
		<tag k="layer" v="1" />
		<tag k="name" v="Byrkjenes" />
		<tag k="ssr:stedsnr" v="896897" />
	</node>
	<node id="-453832" lat="60.1337083357" lon="6.53853610315">
		<tag k="bridge" v="yes" />
		<tag k="layer" v="1" />
		<tag k="name" v="Edna" />
		<tag k="ssr:stedsnr" v="835875" />
	</node>
	<node id="-453532" lat="60.0979083312" lon="6.55528889505">
		<tag k="ford" v="yes" />
		<tag k="name" v="Halvgjenge" />
		<tag k="place" v="locality" />
		<tag k="ssr:stedsnr" v="706354" />
	</node>
	<node id="-452507" lat="59.7892194463" lon="6.76918611407">
		<tag k="bridge" v="yes" />
		<tag k="layer" v="1" />
		<tag k="name" v="Ekkje" />
		<tag k="ssr:stedsnr" v="46880" />
	</node>
	<node id="-452506" lat="59.8148555542" lon="6.75789444708">
		<tag k="bridge" v="yes" />
		<tag k="layer" v="1" />
		<tag k="name" v="Hagabekken" />
		<tag k="ssr:stedsnr" v="46798" />
	</node>
	<node id="-452505" lat="59.8141083295" lon="6.75591389239">
		<tag k="bridge" v="yes" />
		<tag k="layer" v="1" />
		<tag k="name" v="Hordali" />
		<tag k="ssr:stedsnr" v="46794" />
	</node>
	<node id="-452376" lat="59.7369750017" lon="6.75297777688">
		<tag k="bridge" v="yes" />
		<tag k="layer" v="1" />
		<tag k="name" v="Lono" />
		<tag k="ssr:stedsnr" v="896824" />
	</node>
	<node id="-452375" lat="59.8451749998" lon="6.97195833848">
		<tag k="bridge" v="yes" />
		<tag k="layer" v="1" />
		<tag k="name" v="Holbubekk" />
		<tag k="ssr:stedsnr" v="896819" />
	</node>
	<node id="-452374" lat="59.7894638904" lon="6.75746944799">
		<tag k="bridge" v="yes" />
		<tag k="layer" v="1" />
		<tag k="name" v="Ekkjestølen" />
		<tag k="ssr:stedsnr" v="896816" />
	</node>
	<node id="-454037" lat="59.7085138873" lon="6.741558334">
		<tag k="bridge" v="yes" />
		<tag k="layer" v="1" />
		<tag k="name" v="Selland" />
		<tag k="ssr:stedsnr" v="957780" />
	</node>
	<node id="-452884" lat="59.7005203777" lon="6.74024939577">
		<tag k="layer" v="-1" />
		<tag k="name" v="Uføreberget" />
		<tag k="ssr:stedsnr" v="226705" />
		<tag k="tunnel" v="yes" />
	</node>
	<node id="-452883" lat="60.0930722221" lon="6.54883055897">
		<tag k="alt_name" v="Kvitur" />
		<tag k="layer" v="-1" />
		<tag k="name" v="Kviturtunnelen" />
		<tag k="ssr:stedsnr" v="226332" />
		<tag k="tunnel" v="yes" />
	</node>
	<node id="-453260" lat="59.8640694406" lon="6.68389166103">
		<tag k="alt_name" v="Seljestad" />
		<tag k="layer" v="-1" />
		<tag k="name" v="Seljestadtunnelen" />
		<tag k="old_name" v="Seljestadtunnellen" />
		<tag k="ssr:stedsnr" v="610260" />
		<tag k="tunnel" v="yes" />
	</node>
	<node id="-452373" lat="60.1508972225" lon="6.57041667511">
		<tag k="layer" v="-1" />
		<tag k="name" v="Skarvabjørg" />
		<tag k="ssr:stedsnr" v="894744" />
		<tag k="tunnel" v="yes" />
	</node>
	<node id="-452611" lat="59.7563055536" lon="6.78717778521">
		<tag k="ford" v="yes" />
		<tag k="name" v="Forvadet" />
		<tag k="place" v="locality" />
		<tag k="ssr:stedsnr" v="99257" />
	</node>
</osm>
