<?xml version="1.0" encoding="UTF-8"?>
<osm generator="osmapis" version="0.6">
	<node id="-452607" lat="59.7469611071" lon="6.76102222012">
		<tag k="name" v="Nipebekken" />
		<tag k="ssr:stedsnr" v="98361" />
		<tag k="waterway" v="stream" />
	</node>
	<node id="-452598" lat="59.9711499987" lon="6.71799444403">
		<tag k="loc_name" v="Storetjørna;Storatjørn" />
		<tag k="name" v="Storetjørni" />
		<tag k="natural" v="water" />
		<tag k="ssr:stedsnr" v="81523" />
	</node>
	<node id="-452597" lat="59.9579056287" lon="6.63719098198">
		<tag k="name" v="Smørtjørn" />
		<tag k="natural" v="water" />
		<tag k="ssr:stedsnr" v="81497" />
	</node>
	<node id="-452595" lat="59.8559805547" lon="7.04846388554">
		<tag k="name" v="Middyrelva" />
		<tag k="ssr:stedsnr" v="65871" />
		<tag k="waterway" v="stream" />
	</node>
	<node id="-452587" lat="60.1551722197" lon="6.74423888396">
		<tag k="name" v="Hallet grøna" />
		<tag k="natural" v="water" />
		<tag k="ssr:stedsnr" v="65445" />
		<tag k="water" v="lake" />
	</node>
	<node id="-452580" lat="60.1855805567" lon="6.50407777334">
		<tag k="name" v="Løkene" />
		<tag k="place" v="locality" />
		<tag k="ssr:stedsnr" v="65234" />
	</node>
	<node id="-452579" lat="59.8160027817" lon="6.74956944057">
		<tag k="name" v="Håraelva" />
		<tag k="ssr:stedsnr" v="65218" />
		<tag k="waterway" v="river" />
	</node>
	<node id="-452578" lat="59.8159790583" lon="6.71410155506">
		<tag k="name" v="Reinsvatnet" />
		<tag k="natural" v="water" />
		<tag k="ssr:stedsnr" v="65217" />
		<tag k="water" v="lake" />
	</node>
	<node id="-452572" lat="60.1391472212" lon="6.53330277928">
		<tag k="name" v="Gjerdfoss" />
		<tag k="natural" v="waterfall" />
		<tag k="ssr:stedsnr" v="65174" />
	</node>
	<node id="-452565" lat="59.9535749963" lon="6.65138888436">
		<tag k="name" v="Austdølo" />
		<tag k="ssr:stedsnr" v="65150" />
		<tag k="waterway" v="river" />
	</node>
	<node id="-452564" lat="59.9683257961" lon="6.6215088831">
		<tag k="name" v="Sigridtjørn" />
		<tag k="natural" v="water" />
		<tag k="ssr:stedsnr" v="65143" />
	</node>
	<node id="-452562" lat="60.100736114" lon="6.51785277853">
		<tag k="fixme" v="multiple name tags, choose one and add the other to alt_name" />
		<tag k="name" v="Eitro;Eitrheimselva" />
		<tag k="ssr:stedsnr" v="65095" />
		<tag k="waterway" v="river" />
	</node>
	<node id="-452560" lat="60.0651166656" lon="6.55042499447">
		<tag k="name" v="Opo" />
		<tag k="ssr:stedsnr" v="65063" />
		<tag k="waterway" v="river" />
	</node>
	<node id="-452554" lat="59.8724617584" lon="6.53387129118">
		<tag k="name" v="Fellevatnet" />
		<tag k="natural" v="water" />
		<tag k="ssr:stedsnr" v="65024" />
	</node>
	<node id="-452553" lat="60.0198583373" lon="6.5133388846">
		<tag k="name" v="Kvirvelivatnet" />
		<tag k="natural" v="water" />
		<tag k="ssr:stedsnr" v="65022" />
	</node>
	<node id="-452552" lat="60.0172055567" lon="6.54044166942">
		<tag k="name" v="Kalddalsbekken" />
		<tag k="ssr:stedsnr" v="65018" />
		<tag k="waterway" v="stream" />
	</node>
	<node id="-452545" lat="59.7919500032" lon="6.75188333371">
		<tag k="name" v="Stølsbekken" />
		<tag k="ssr:stedsnr" v="64791" />
		<tag k="waterway" v="stream" />
	</node>
	<node id="-452543" lat="59.8763353327" lon="6.590037">
		<tag k="loc_name" v="Fljådalsvatnet;Fjørdalsvatnet" />
		<tag k="name" v="Flådalsvatnet" />
		<tag k="natural" v="water" />
		<tag k="ssr:stedsnr" v="64487" />
		<tag k="water" v="lake" />
	</node>
	<node id="-452542" lat="59.9420972248" lon="6.55057777499">
		<tag k="name" v="Hellesvassbekken" />
		<tag k="ssr:stedsnr" v="64440" />
		<tag k="waterway" v="stream" />
	</node>
	<node id="-452541" lat="59.9552875079" lon="6.5697948621">
		<tag k="alt_name" v="Søyletjørn, nedre;Nedre Søyletjørn" />
		<tag k="name" v="Nedstetjørn" />
		<tag k="natural" v="water" />
		<tag k="ssr:stedsnr" v="64434" />
	</node>
	<node id="-452539" lat="59.9883805574" lon="6.56182221404">
		<tag k="name" v="Vidfoss" />
		<tag k="natural" v="waterfall" />
		<tag k="ssr:stedsnr" v="64409" />
	</node>
	<node id="-452538" lat="59.9843313931" lon="6.56482361967">
		<tag k="alt_name" v="Massøyni" />
		<tag k="name" v="Massøyna" />
		<tag k="place" v="island" />
		<tag k="ssr:stedsnr" v="64405" />
	</node>
	<node id="-452537" lat="59.9590833362" lon="7.21342500831">
		<tag k="name" v="Borda" />
		<tag k="ssr:stedsnr" v="64368" />
		<tag k="waterway" v="river" />
	</node>
	<node id="-452526" lat="59.8857027775" lon="6.9080361172">
		<tag k="name" v="Tangavadet" />
		<tag k="natural" v="shoal" />
		<tag k="place" v="locality" />
		<tag k="ssr:stedsnr" v="64203" />
	</node>
	<node id="-452524" lat="59.9237999964" lon="6.89178888088">
		<tag k="name" v="Holdøla" />
		<tag k="ssr:stedsnr" v="64171" />
		<tag k="waterway" v="stream" />
	</node>
	<node id="-452522" lat="59.9042000017" lon="6.64407500481">
		<tag k="name" v="Løyningsvatnet" />
		<tag k="natural" v="water" />
		<tag k="ssr:stedsnr" v="64145" />
		<tag k="water" v="lake" />
	</node>
	<node id="-452519" lat="59.950375001" lon="6.65381945283">
		<tag k="name" v="Bjørnavadet" />
		<tag k="place" v="locality" />
		<tag k="ssr:stedsnr" v="64122" />
	</node>
	<node id="-452499" lat="60.1214777795" lon="6.62212777532">
		<tag k="name" v="Stølsbekken" />
		<tag k="ssr:stedsnr" v="38659" />
		<tag k="waterway" v="stream" />
	</node>
	<node id="-452495" lat="60.0443972234" lon="6.48251945233">
		<tag k="name" v="Øyane" />
		<tag k="place" v="island" />
		<tag k="ssr:stedsnr" v="38636" />
	</node>
	<node id="-452486" lat="60.0231999989" lon="6.54340277099">
		<tag k="name" v="Kvernaneset" />
		<tag k="natural" v="cape" />
		<tag k="ssr:stedsnr" v="38530" />
	</node>
	<node id="-452484" lat="60.0332800194" lon="6.57595904826">
		<tag k="name" v="Lusatjørn" />
		<tag k="natural" v="water" />
		<tag k="ssr:stedsnr" v="38512" />
	</node>
	<node id="-452483" lat="59.8754111083" lon="6.88881389495">
		<tag k="name" v="Valldalsdammen" />
		<tag k="ssr:stedsnr" v="38502" />
		<tag k="waterway" v="dam" />
	</node>
	<node id="-452479" lat="59.8260638908" lon="6.81231943907">
		<tag k="name" v="Kalvsøyna" />
		<tag k="place" v="island" />
		<tag k="ssr:stedsnr" v="38448" />
	</node>
	<node id="-452472" lat="59.9443666672" lon="6.59716110451">
		<tag k="name" v="Tymbervika" />
		<tag k="natural" v="bay" />
		<tag k="ssr:stedsnr" v="38396" />
	</node>
	<node id="-452469" lat="59.7768666705" lon="6.75121111438">
		<tag k="name" v="Utfallsosen" />
		<tag k="natural" v="bay" />
		<tag k="ssr:stedsnr" v="38356" />
	</node>
	<node id="-452460" lat="60.0732611114" lon="6.46962499389">
		<tag k="name" v="Blåvatnet" />
		<tag k="natural" v="water" />
		<tag k="ssr:stedsnr" v="5073" />
	</node>
	<node id="-452459" lat="60.0766833342" lon="6.51550000401">
		<tag k="alt_name" v="Breiskredbekken" />
		<tag k="name" v="Breidskredbekken" />
		<tag k="ssr:stedsnr" v="5072" />
		<tag k="waterway" v="stream" />
	</node>
	<node id="-452457" lat="59.847924997" lon="7.11556111411">
		<tag k="name" v="Stronda" />
		<tag k="natural" v="beach" />
		<tag k="ssr:stedsnr" v="4881" />
	</node>
	<node id="-452454" lat="59.7814982044" lon="6.70785558162">
		<tag k="name" v="Såtetjørna" />
		<tag k="natural" v="water" />
		<tag k="ssr:stedsnr" v="4834" />
	</node>
	<node id="-452453" lat="59.7764694487" lon="6.79651666505">
		<tag k="name" v="Risebekk" />
		<tag k="ssr:stedsnr" v="4822" />
		<tag k="waterway" v="stream" />
	</node>
	<node id="-452452" lat="59.8797416695" lon="6.98204999859">
		<tag k="name" v="Middyrvatnet" />
		<tag k="natural" v="water" />
		<tag k="ssr:stedsnr" v="4604" />
		<tag k="water" v="lake" />
	</node>
	<node id="-452449" lat="60.163641731" lon="6.66655645537">
		<tag k="name" v="Nedra Bersavatnet" />
		<tag k="natural" v="water" />
		<tag k="ssr:stedsnr" v="4444" />
		<tag k="water" v="lake" />
	</node>
	<node id="-452446" lat="60.0547472217" lon="6.93961665825">
		<tag k="name" v="Juklavotni" />
		<tag k="natural" v="water" />
		<tag k="ssr:stedsnr" v="4397" />
		<tag k="water" v="lake" />
	</node>
	<node id="-452440" lat="59.820516665" lon="6.78110833194">
		<tag k="name" v="Ytre Håranesbekken" />
		<tag k="old_name" v="Håranesbekk" />
		<tag k="ssr:stedsnr" v="4246" />
		<tag k="waterway" v="stream" />
	</node>
	<node id="-452439" lat="59.8351980414" lon="6.5943354573">
		<tag k="name" v="Nordre Dyrskarvatna" />
		<tag k="natural" v="water" />
		<tag k="ssr:stedsnr" v="4238" />
		<tag k="water" v="lake" />
	</node>
	<node id="-452436" lat="60.1624638897" lon="6.587630559">
		<tag k="name" v="Skrøyvo" />
		<tag k="ssr:stedsnr" v="4206" />
		<tag k="waterway" v="stream" />
	</node>
	<node id="-452432" lat="59.8975583317" lon="6.67936111951">
		<tag k="name" v="Nyastølsvatnet" />
		<tag k="natural" v="water" />
		<tag k="ssr:stedsnr" v="4175" />
		<tag k="water" v="lake" />
	</node>
	<node id="-452429" lat="59.9674083361" lon="6.7116361185">
		<tag k="name" v="Ljoso" />
		<tag k="natural" v="bay" />
		<tag k="ssr:stedsnr" v="4155" />
	</node>
	<node id="-452426" lat="60.100844633" lon="6.48748866512">
		<tag k="alt_name" v="Kvanngrødvatnet, nedre" />
		<tag k="loc_name" v="Nedsta Kvanngrøvatnet" />
		<tag k="name" v="Nedre Kvanngrødvatnet" />
		<tag k="natural" v="water" />
		<tag k="ssr:stedsnr" v="4117" />
	</node>
	<node id="-452416" lat="59.9646270259" lon="6.58475289829">
		<tag k="alt_name" v="Søkkjetjørn" />
		<tag k="name" v="Sokkatjørn" />
		<tag k="natural" v="water" />
		<tag k="ssr:stedsnr" v="3389" />
	</node>
	<node id="-452415" lat="59.9768603972" lon="6.55621452088">
		<tag k="name" v="Niptjørn" />
		<tag k="natural" v="water" />
		<tag k="ssr:stedsnr" v="3371" />
	</node>
	<node id="-452405" lat="59.9469833355" lon="6.5976666616">
		<tag k="loc_name" v="Låtevatn" />
		<tag k="name" v="Lotevatnet" />
		<tag k="natural" v="water" />
		<tag k="ssr:stedsnr" v="3122" />
		<tag k="water" v="lake" />
	</node>
	<node id="-452404" lat="59.9543927338" lon="6.55368838979">
		<tag k="name" v="Sindertjørn" />
		<tag k="natural" v="water" />
		<tag k="ssr:stedsnr" v="991073" />
	</node>
	<node id="-452402" lat="59.9435962471" lon="6.55827625632">
		<tag k="name" v="Nedste Hedlesvatn" />
		<tag k="natural" v="water" />
		<tag k="ssr:stedsnr" v="991071" />
	</node>
	<node id="-452401" lat="59.9428164062" lon="6.55384894536">
		<tag k="name" v="Øvste Hedlesvatn" />
		<tag k="natural" v="water" />
		<tag k="ssr:stedsnr" v="991070" />
	</node>
	<node id="-452400" lat="60.1753180548" lon="6.70758470532">
		<tag k="name" v="Øvra Bersavatnet" />
		<tag k="natural" v="water" />
		<tag k="ssr:stedsnr" v="247416" />
		<tag k="water" v="lake" />
	</node>
	<node id="-452387" lat="59.8301193315" lon="6.59461051811">
		<tag k="name" v="Dyrskarvatna" />
		<tag k="natural" v="water" />
		<tag k="ssr:stedsnr" v="914043" />
		<tag k="water" v="lake" />
	</node>
	<node id="-452385" lat="59.834891665" lon="6.61297777477">
		<tag k="name" v="Steinatjørnane" />
		<tag k="natural" v="water" />
		<tag k="ssr:stedsnr" v="247226" />
		<tag k="water" v="lake" />
	</node>
	<node id="-452380" lat="59.7720944451" lon="6.68491110363">
		<tag k="name" v="Kroktjørna" />
		<tag k="natural" v="water" />
		<tag k="ssr:stedsnr" v="793812" />
	</node>
	<node id="-452354" lat="60.0393944478" lon="6.50766389296">
		<tag k="name" v="Drebekk" />
		<tag k="ssr:stedsnr" v="888471" />
		<tag k="waterway" v="stream" />
	</node>
	<node id="-452353" lat="59.8571416644" lon="6.85995000749">
		<tag k="name" v="Ljosåna" />
		<tag k="ssr:stedsnr" v="888438" />
		<tag k="waterway" v="stream" />
	</node>
	<node id="-452340" lat="59.7930777745" lon="6.83779999784">
		<tag k="name" v="Grøndalselva" />
		<tag k="ssr:stedsnr" v="888251" />
		<tag k="waterway" v="river" />
	</node>
	<node id="-452333" lat="59.7588888916" lon="6.78760834068">
		<tag k="name" v="Rolvsnes" />
		<tag k="natural" v="cape" />
		<tag k="ssr:stedsnr" v="887352" />
	</node>
	<node id="-452320" lat="60.1489055567" lon="6.53681667231">
		<tag k="name" v="Jervfoss" />
		<tag k="natural" v="waterfall" />
		<tag k="ssr:stedsnr" v="402713" />
	</node>
	<node id="-452316" lat="60.0822027765" lon="6.5173777701">
		<tag k="name" v="Rindaskredbekken" />
		<tag k="ssr:stedsnr" v="402627" />
		<tag k="waterway" v="stream" />
	</node>
	<node id="-452310" lat="60.029008336" lon="6.50583610983">
		<tag k="name" v="Fetabekken" />
		<tag k="ssr:stedsnr" v="402541" />
		<tag k="waterway" v="stream" />
	</node>
	<node id="-452309" lat="60.0354055526" lon="6.59008334123">
		<tag k="name" v="Svoena" />
		<tag k="ssr:stedsnr" v="402534" />
		<tag k="waterway" v="stream" />
	</node>
	<node id="-452308" lat="59.906877781" lon="6.52354722509">
		<tag k="name" v="Nothøl" />
		<tag k="place" v="locality" />
		<tag k="ssr:stedsnr" v="402529" />
	</node>
	<node id="-452306" lat="59.8637654427" lon="6.8514871899">
		<tag k="name" v="Oksestøltjørna" />
		<tag k="natural" v="water" />
		<tag k="ssr:stedsnr" v="402518" />
	</node>
	<node id="-452303" lat="59.8399277804" lon="6.87269721387">
		<tag k="name" v="Nykktjørn" />
		<tag k="natural" v="water" />
		<tag k="ssr:stedsnr" v="402502" />
	</node>
	<node id="-452301" lat="59.8252888853" lon="6.74909444418">
		<tag k="name" v="Reinstigbekken" />
		<tag k="ssr:stedsnr" v="402488" />
		<tag k="waterway" v="stream" />
	</node>
	<node id="-452288" lat="59.7509277748" lon="6.78673333376">
		<tag k="name" v="Åkroken" />
		<tag k="place" v="locality" />
		<tag k="ssr:stedsnr" v="402379" />
	</node>
	<node id="-452287" lat="59.7909666668" lon="6.78334166677">
		<tag k="name" v="Migandebekken" />
		<tag k="ssr:stedsnr" v="402331" />
		<tag k="waterway" v="stream" />
	</node>
	<node id="-452285" lat="59.7789250001" lon="6.76946110721">
		<tag k="name" v="Bytesbekk" />
		<tag k="ssr:stedsnr" v="402284" />
		<tag k="waterway" v="stream" />
	</node>
	<node id="-452284" lat="59.7566083306" lon="6.776261116">
		<tag k="name" v="Kvamabekken" />
		<tag k="ssr:stedsnr" v="402268" />
		<tag k="waterway" v="stream" />
	</node>
	<node id="-452276" lat="59.77922126" lon="6.67201759068">
		<tag k="name" v="Nedra Sandvatnet" />
		<tag k="natural" v="water" />
		<tag k="ssr:stedsnr" v="368846" />
		<tag k="water" v="lake" />
	</node>
	<node id="-452275" lat="59.7823861073" lon="6.83030277372">
		<tag k="name" v="Bratteteigstølbekken" />
		<tag k="ssr:stedsnr" v="368842" />
		<tag k="waterway" v="stream" />
	</node>
	<node id="-452273" lat="59.7520405989" lon="6.69444080576">
		<tag k="name" v="Kringletjørn" />
		<tag k="natural" v="water" />
		<tag k="ssr:stedsnr" v="368798" />
	</node>
	<node id="-452271" lat="60.1525805543" lon="6.7742194454">
		<tag k="loc_name" v="Stednestjørna" />
		<tag k="name" v="Stednestjørni" />
		<tag k="natural" v="water" />
		<tag k="ssr:stedsnr" v="368501" />
	</node>
	<node id="-452266" lat="59.9313430936" lon="6.53080699147">
		<tag k="name" v="Kvanntjørn" />
		<tag k="natural" v="water" />
		<tag k="ssr:stedsnr" v="368486" />
	</node>
	<node id="-452265" lat="60.1545088726" lon="6.60825705961">
		<tag k="loc_name" v="Kvannaskartjørna" />
		<tag k="name" v="Kvannaskartjørni" />
		<tag k="natural" v="water" />
		<tag k="ssr:stedsnr" v="368485" />
	</node>
	<node id="-452264" lat="59.9421342685" lon="6.53826962984">
		<tag k="alt_name" v="Øktarevatnet, nedre" />
		<tag k="name" v="Nedsta Øktarevatnet" />
		<tag k="natural" v="water" />
		<tag k="ssr:stedsnr" v="368473" />
	</node>
	<node id="-452262" lat="60.1047726862" lon="6.6008881224">
		<tag k="name" v="Danielstjørn" />
		<tag k="natural" v="water" />
		<tag k="ssr:stedsnr" v="368464" />
	</node>
	<node id="-452261" lat="60.1016249977" lon="6.64220832626">
		<tag k="name" v="Mosdalsvatnet" />
		<tag k="natural" v="water" />
		<tag k="ssr:stedsnr" v="368459" />
		<tag k="water" v="lake" />
	</node>
	<node id="-452259" lat="60.0565861121" lon="6.67675555367">
		<tag k="name" v="Kvanntjørn" />
		<tag k="natural" v="water" />
		<tag k="ssr:stedsnr" v="368427" />
		<tag k="water" v="lake" />
	</node>
	<node id="-452256" lat="60.0849166708" lon="6.86534444552">
		<tag k="name" v="Breiåna" />
		<tag k="ssr:stedsnr" v="368400" />
		<tag k="waterway" v="river" />
	</node>
	<node id="-452254" lat="59.9992003627" lon="6.83734578026">
		<tag k="alt_name" v="Setevatn, øvre" />
		<tag k="name" v="Setevatn" />
		<tag k="natural" v="water" />
		<tag k="ssr:stedsnr" v="368370" />
		<tag k="water" v="lake" />
	</node>
	<node id="-452253" lat="60.0046250035" lon="6.61702500366">
		<tag k="name" v="Skarvabekken" />
		<tag k="ssr:stedsnr" v="368366" />
		<tag k="waterway" v="stream" />
	</node>
	<node id="-452241" lat="59.9171833302" lon="6.95393054959">
		<tag k="name" v="Kvesso" />
		<tag k="ssr:stedsnr" v="368206" />
		<tag k="waterway" v="river" />
	</node>
	<node id="-452239" lat="59.8937000024" lon="6.69643611799">
		<tag k="name" v="Loni" />
		<tag k="place" v="locality" />
		<tag k="ssr:stedsnr" v="368193" />
	</node>
	<node id="-452237" lat="59.9666888862" lon="6.63114445247">
		<tag k="name" v="Røynebekken" />
		<tag k="ssr:stedsnr" v="368169" />
		<tag k="waterway" v="stream" />
	</node>
	<node id="-452235" lat="59.9723444479" lon="6.69279999813">
		<tag k="name" v="Nyastølbekken" />
		<tag k="ssr:stedsnr" v="368165" />
		<tag k="waterway" v="stream" />
	</node>
	<node id="-452234" lat="59.9774944439" lon="6.70954166501">
		<tag k="name" v="Ljosavatnet" />
		<tag k="natural" v="water" />
		<tag k="ssr:stedsnr" v="368164" />
		<tag k="water" v="lake" />
	</node>
	<node id="-452231" lat="59.9916027757" lon="6.68405277223">
		<tag k="name" v="Vierbekken" />
		<tag k="ssr:stedsnr" v="368111" />
		<tag k="waterway" v="stream" />
	</node>
	<node id="-452229" lat="60.0460888888" lon="6.44260833696">
		<tag k="name" v="Nordbakkelvi" />
		<tag k="ssr:stedsnr" v="368071" />
		<tag k="waterway" v="stream" />
	</node>
	<node id="-452225" lat="60.0436416645" lon="6.4997333359">
		<tag k="alt_name" v="Buerelvi;Buarelva" />
		<tag k="fixme" v="multiple name tags, choose one and add the other to alt_name" />
		<tag k="name" v="Jordalselvi;Buarelvi" />
		<tag k="ssr:stedsnr" v="368050" />
		<tag k="waterway" v="river" />
	</node>
	<node id="-452223" lat="60.0246916677" lon="6.53966666797">
		<tag k="name" v="Strondsfossen" />
		<tag k="natural" v="waterfall" />
		<tag k="ssr:stedsnr" v="368031" />
	</node>
	<node id="-452221" lat="60.0085594795" lon="6.58494235962">
		<tag k="loc_name" v="Eidestjørna" />
		<tag k="name" v="Eidestjørni" />
		<tag k="natural" v="water" />
		<tag k="ssr:stedsnr" v="368018" />
	</node>
	<node id="-452215" lat="59.9847666702" lon="6.5350694495">
		<tag k="name" v="Lomtjørn" />
		<tag k="natural" v="water" />
		<tag k="ssr:stedsnr" v="367352" />
	</node>
	<node id="-452212" lat="59.8085166694" lon="6.80057499679">
		<tag k="name" v="Grytøyr" />
		<tag k="natural" v="cape" />
		<tag k="ssr:stedsnr" v="367181" />
	</node>
	<node id="-452211" lat="59.7289916648" lon="6.72090833451">
		<tag k="name" v="Kolåsåna" />
		<tag k="ssr:stedsnr" v="367177" />
		<tag k="waterway" v="stream" />
	</node>
	<node id="-452208" lat="59.9340930701" lon="6.65283212364">
		<tag k="name" v="Hundatjørnane" />
		<tag k="natural" v="water" />
		<tag k="ssr:stedsnr" v="367145" />
	</node>
	<node id="-452195" lat="60.0405166653" lon="6.53816666546">
		<tag k="name" v="Klumpenes" />
		<tag k="natural" v="cape" />
		<tag k="ssr:stedsnr" v="342434" />
	</node>
	<node id="-452181" lat="59.8438250005" lon="6.81119721586">
		<tag k="name" v="Lambebekk" />
		<tag k="ssr:stedsnr" v="341525" />
		<tag k="waterway" v="stream" />
	</node>
	<node id="-452166" lat="59.9457277815" lon="6.59720277209">
		<tag k="name" v="Langaneset" />
		<tag k="natural" v="cape" />
		<tag k="ssr:stedsnr" v="341433" />
	</node>
	<node id="-452160" lat="59.7309027789" lon="6.74358332588">
		<tag k="name" v="Lonavika" />
		<tag k="natural" v="bay" />
		<tag k="ssr:stedsnr" v="341380" />
	</node>
	<node id="-452148" lat="60.1292111152" lon="6.69158611324">
		<tag k="name" v="Flatanes" />
		<tag k="natural" v="cape" />
		<tag k="ssr:stedsnr" v="308384" />
	</node>
	<node id="-452147" lat="60.1317796418" lon="6.78689500894">
		<tag k="name" v="Reinanuttjørn" />
		<tag k="natural" v="water" />
		<tag k="ssr:stedsnr" v="308381" />
	</node>
	<node id="-452146" lat="60.1435138898" lon="6.78583889528">
		<tag k="name" v="Tyssespranget" />
		<tag k="natural" v="water" />
		<tag k="ssr:stedsnr" v="308372" />
	</node>
	<node id="-452145" lat="60.0693083293" lon="6.6193333366">
		<tag k="name" v="Ragdetjørn" />
		<tag k="natural" v="water" />
		<tag k="ssr:stedsnr" v="308357" />
	</node>
	<node id="-452123" lat="59.7918694474" lon="6.93915277485">
		<tag k="name" v="Blåbergbekken" />
		<tag k="ssr:stedsnr" v="307809" />
		<tag k="waterway" v="stream" />
	</node>
	<node id="-452119" lat="59.7934382257" lon="6.71825930253">
		<tag k="name" v="Steinstjørna" />
		<tag k="natural" v="water" />
		<tag k="ssr:stedsnr" v="307782" />
	</node>
	<node id="-452118" lat="59.987958337" lon="7.30319999675">
		<tag k="name" v="Urevassbekken" />
		<tag k="ssr:stedsnr" v="307778" />
		<tag k="waterway" v="stream" />
	</node>
	<node id="-452113" lat="59.9385629326" lon="6.56834632436">
		<tag k="name" v="Trollatjørn" />
		<tag k="natural" v="water" />
		<tag k="ssr:stedsnr" v="307455" />
	</node>
	<node id="-452111" lat="59.9789722247" lon="6.5670861065">
		<tag k="name" v="Loni" />
		<tag k="natural" v="water" />
		<tag k="ssr:stedsnr" v="307432" />
		<tag k="water" v="lake" />
	</node>
	<node id="-452108" lat="60.010346338" lon="7.18086695991">
		<tag k="name" v="Tangasjøen" />
		<tag k="natural" v="water" />
		<tag k="ssr:stedsnr" v="308245" />
		<tag k="water" v="lake" />
	</node>
	<node id="-452107" lat="60.0368903909" lon="7.06139557045">
		<tag k="name" v="Holmavatnet" />
		<tag k="natural" v="water" />
		<tag k="ssr:stedsnr" v="308231" />
		<tag k="water" v="lake" />
	</node>
	<node id="-452104" lat="59.8173861145" lon="6.78834444172">
		<tag k="name" v="Håranes" />
		<tag k="natural" v="cape" />
		<tag k="ssr:stedsnr" v="307257" />
	</node>
	<node id="-452099" lat="59.8409194471" lon="6.84725555456">
		<tag k="name" v="Kvernabekken" />
		<tag k="ssr:stedsnr" v="307220" />
		<tag k="waterway" v="stream" />
	</node>
	<node id="-452095" lat="59.8785277814" lon="6.64871666561">
		<tag k="name" v="Stølselvi" />
		<tag k="ssr:stedsnr" v="307192" />
		<tag k="waterway" v="stream" />
	</node>
	<node id="-452093" lat="59.9048758571" lon="6.78992422596">
		<tag k="name" v="Revsvatni" />
		<tag k="natural" v="water" />
		<tag k="ssr:stedsnr" v="307176" />
		<tag k="water" v="lake" />
	</node>
	<node id="-452090" lat="59.9691055535" lon="6.73812778616">
		<tag k="name" v="Reinso" />
		<tag k="ssr:stedsnr" v="307163" />
		<tag k="waterway" v="river" />
	</node>
	<node id="-452089" lat="59.9807000019" lon="6.69447777962">
		<tag k="name" v="Kyrabekken" />
		<tag k="ssr:stedsnr" v="307156" />
		<tag k="waterway" v="stream" />
	</node>
	<node id="-452087" lat="59.9607833317" lon="6.69493056075">
		<tag k="name" v="Furnes" />
		<tag k="natural" v="cape" />
		<tag k="ssr:stedsnr" v="307135" />
	</node>
	<node id="-452086" lat="59.9641888934" lon="6.72805278233">
		<tag k="name" v="Djupevik" />
		<tag k="natural" v="bay" />
		<tag k="ssr:stedsnr" v="307136" />
	</node>
	<node id="-452085" lat="59.9567416632" lon="6.68817499191">
		<tag k="name" v="Reinsnosvatnet" />
		<tag k="natural" v="water" />
		<tag k="ssr:stedsnr" v="307133" />
		<tag k="water" v="lake" />
	</node>
	<node id="-452082" lat="59.7377444434" lon="6.79440556321">
		<tag k="name" v="Botnaelva" />
		<tag k="ssr:stedsnr" v="306217" />
		<tag k="waterway" v="stream" />
	</node>
	<node id="-452081" lat="59.739275" lon="6.75683054922">
		<tag k="name" v="Øvra Lonavatnet" />
		<tag k="natural" v="water" />
		<tag k="ssr:stedsnr" v="306135" />
		<tag k="water" v="lake" />
	</node>
	<node id="-452065" lat="60.1009222185" lon="6.5263027855">
		<tag k="name" v="Vikelva" />
		<tag k="ssr:stedsnr" v="281619" />
		<tag k="waterway" v="river" />
	</node>
	<node id="-452059" lat="60.0452194426" lon="6.56208611823">
		<tag k="name" v="Sjursfoss" />
		<tag k="natural" v="waterfall" />
		<tag k="ssr:stedsnr" v="281543" />
	</node>
	<node id="-452044" lat="59.9778611091" lon="6.56800555947">
		<tag k="name" v="Grønsdalslona" />
		<tag k="natural" v="water" />
		<tag k="ssr:stedsnr" v="281443" />
		<tag k="water" v="lake" />
	</node>
	<node id="-452038" lat="60.1291361101" lon="6.51252777268">
		<tag k="name" v="Fossane" />
		<tag k="natural" v="waterfall" />
		<tag k="ssr:stedsnr" v="281408" />
	</node>
	<node id="-452037" lat="59.7048861077" lon="6.72501944381">
		<tag k="name" v="Nesabekken" />
		<tag k="ssr:stedsnr" v="281378" />
		<tag k="waterway" v="stream" />
	</node>
	<node id="-452036" lat="59.7935440968" lon="6.79630892281">
		<tag k="name" v="Stuvaledtjørn" />
		<tag k="natural" v="water" />
		<tag k="ssr:stedsnr" v="281339" />
	</node>
	<node id="-452034" lat="59.7961297718" lon="6.80906743821">
		<tag k="name" v="Lomtjørn" />
		<tag k="natural" v="water" />
		<tag k="ssr:stedsnr" v="281336" />
	</node>
	<node id="-454031" lat="60.1474055589" lon="6.58853333813">
		<tag k="name" v="Mjøstølsbekken" />
		<tag k="ssr:stedsnr" v="949515" />
		<tag k="waterway" v="stream" />
	</node>
	<node id="-454026" lat="60.0460638869" lon="6.47812777678">
		<tag k="name" v="Vetteslattbekk" />
		<tag k="ssr:stedsnr" v="949456" />
		<tag k="waterway" v="stream" />
	</node>
	<node id="-454015" lat="60.1647527788" lon="6.53995000127">
		<tag k="name" v="Slipesteinbekken" />
		<tag k="ssr:stedsnr" v="948729" />
		<tag k="waterway" v="stream" />
	</node>
	<node id="-454003" lat="59.8046472181" lon="6.7619388803">
		<tag k="name" v="Tveitebekken" />
		<tag k="ssr:stedsnr" v="948509" />
		<tag k="waterway" v="stream" />
	</node>
	<node id="-453999" lat="59.9519138935" lon="6.6012944521">
		<tag k="name" v="Tangen" />
		<tag k="natural" v="cape" />
		<tag k="ssr:stedsnr" v="948432" />
	</node>
	<node id="-453983" lat="60.1333611097" lon="6.69770833296">
		<tag k="name" v="Floråna" />
		<tag k="ssr:stedsnr" v="932741" />
		<tag k="waterway" v="river" />
	</node>
	<node id="-453982" lat="59.9790777753" lon="6.74478611092">
		<tag k="name" v="Skredbekken" />
		<tag k="ssr:stedsnr" v="931520" />
		<tag k="waterway" v="stream" />
	</node>
	<node id="-453968" lat="60.0283750028" lon="6.72142500341">
		<tag k="name" v="Nedra Orravatnet" />
		<tag k="natural" v="water" />
		<tag k="ssr:stedsnr" v="915330" />
		<tag k="water" v="lake" />
	</node>
	<node id="-453966" lat="60.1661083335" lon="6.52775000236">
		<tag k="alt_name" v="Digraneselvi" />
		<tag k="name" v="Digraneselva" />
		<tag k="ssr:stedsnr" v="915191" />
		<tag k="waterway" v="stream" />
	</node>
	<node id="-453959" lat="59.7974722224" lon="6.97305000084">
		<tag k="name" v="Blåbergeidet" />
		<tag k="natural" v="strait" />
		<tag k="ssr:stedsnr" v="914909" />
	</node>
	<node id="-453954" lat="59.8026888881" lon="6.8844111181">
		<tag k="name" v="Austmannabekken" />
		<tag k="ssr:stedsnr" v="914788" />
		<tag k="waterway" v="stream" />
	</node>
	<node id="-453953" lat="59.964977781" lon="7.09153610948">
		<tag k="name" v="Langevotna" />
		<tag k="natural" v="water" />
		<tag k="ssr:stedsnr" v="914777" />
		<tag k="water" v="lake" />
	</node>
	<node id="-453951" lat="59.7566202196" lon="6.87992932873">
		<tag k="name" v="Breifonntjørna" />
		<tag k="natural" v="water" />
		<tag k="ssr:stedsnr" v="914759" />
	</node>
	<node id="-453949" lat="59.9312059827" lon="6.54285816331">
		<tag k="alt_name" v="Øktarevatnet, øvre" />
		<tag k="name" v="Øvsta Øktarevatnet" />
		<tag k="natural" v="water" />
		<tag k="ssr:stedsnr" v="914468" />
	</node>
	<node id="-453946" lat="59.9553386289" lon="6.56492780056">
		<tag k="alt_name" v="Søyletjørn, midtre" />
		<tag k="name" v="Midttjørn" />
		<tag k="natural" v="water" />
		<tag k="ssr:stedsnr" v="914449" />
	</node>
	<node id="-453945" lat="59.9768361108" lon="6.56955555736">
		<tag k="name" v="Flateholmen" />
		<tag k="place" v="islet" />
		<tag k="ssr:stedsnr" v="914424" />
	</node>
	<node id="-453943" lat="60.0999277793" lon="6.8148138941">
		<tag k="name" v="Nibbehylen" />
		<tag k="place" v="locality" />
		<tag k="ssr:stedsnr" v="914382" />
	</node>
	<node id="-453942" lat="60.0967305552" lon="6.86936389222">
		<tag k="name" v="Nedra Nybuvatnet" />
		<tag k="natural" v="water" />
		<tag k="ssr:stedsnr" v="914380" />
		<tag k="water" v="lake" />
	</node>
	<node id="-453932" lat="59.9325861119" lon="6.63909166068">
		<tag k="name" v="Langavatnet" />
		<tag k="natural" v="water" />
		<tag k="ssr:stedsnr" v="914182" />
	</node>
	<node id="-453931" lat="59.8905750044" lon="6.85712499697">
		<tag k="name" v="Storavatnet" />
		<tag k="natural" v="water" />
		<tag k="ssr:stedsnr" v="914177" />
		<tag k="water" v="lake" />
	</node>
	<node id="-453927" lat="59.9672157178" lon="6.68126502556">
		<tag k="name" v="Halsatjørn" />
		<tag k="natural" v="water" />
		<tag k="ssr:stedsnr" v="914149" />
	</node>
	<node id="-453924" lat="59.948086109" lon="6.66653333188">
		<tag k="name" v="Naustbukti" />
		<tag k="natural" v="bay" />
		<tag k="ssr:stedsnr" v="914139" />
	</node>
	<node id="-453918" lat="60.103786823" lon="6.49831332565">
		<tag k="loc_name" v="Dalsetevatnet" />
		<tag k="name" v="Dalssetevatnet" />
		<tag k="natural" v="water" />
		<tag k="ssr:stedsnr" v="915121" />
	</node>
	<node id="-453917" lat="59.7155222265" lon="6.7555222261">
		<tag k="name" v="Sellandsbekken" />
		<tag k="ssr:stedsnr" v="913234" />
		<tag k="waterway" v="stream" />
	</node>
	<node id="-453908" lat="59.8681624644" lon="7.11103554663">
		<tag k="name" v="Nupstjørna" />
		<tag k="natural" v="water" />
		<tag k="ssr:stedsnr" v="854870" />
	</node>
	<node id="-453905" lat="59.8212916663" lon="6.99368055973">
		<tag k="name" v="Kaldevasselva" />
		<tag k="ssr:stedsnr" v="854825" />
		<tag k="waterway" v="river" />
	</node>
	<node id="-453903" lat="59.8353140854" lon="6.98769348608">
		<tag k="name" v="Midtlægervatnet" />
		<tag k="natural" v="water" />
		<tag k="ssr:stedsnr" v="854808" />
	</node>
	<node id="-453902" lat="59.7792694445" lon="6.76650833688">
		<tag k="name" v="Lammabekken" />
		<tag k="ssr:stedsnr" v="854802" />
		<tag k="waterway" v="stream" />
	</node>
	<node id="-453900" lat="59.7608987062" lon="6.71237561193">
		<tag k="name" v="Halvfjerdingsvatnet" />
		<tag k="natural" v="water" />
		<tag k="ssr:stedsnr" v="854786" />
	</node>
	<node id="-453899" lat="59.7703416639" lon="6.80119999646">
		<tag k="name" v="Gjerdebergbekken" />
		<tag k="ssr:stedsnr" v="854782" />
		<tag k="waterway" v="stream" />
	</node>
	<node id="-453898" lat="59.9681660492" lon="7.15599221637">
		<tag k="name" v="Høsingvatnet" />
		<tag k="natural" v="water" />
		<tag k="ssr:stedsnr" v="854762" />
	</node>
	<node id="-453897" lat="59.7623806857" lon="6.85230933291">
		<tag k="name" v="Skjemmedalstjørna" />
		<tag k="natural" v="water" />
		<tag k="ssr:stedsnr" v="854753" />
	</node>
	<node id="-453894" lat="59.9190638847" lon="6.56565833695">
		<tag k="name" v="Jøsendalselvi" />
		<tag k="ssr:stedsnr" v="854460" />
		<tag k="waterway" v="stream" />
	</node>
	<node id="-453892" lat="60.1047388917" lon="6.76350555675">
		<tag k="name" v="Ringedalsfossen" />
		<tag k="natural" v="waterfall" />
		<tag k="ssr:stedsnr" v="854421" />
	</node>
	<node id="-453891" lat="60.1196861079" lon="6.66428055206">
		<tag k="name" v="Røysekattneset" />
		<tag k="natural" v="cape" />
		<tag k="ssr:stedsnr" v="854413" />
	</node>
	<node id="-453885" lat="60.1093719041" lon="6.97058503255">
		<tag k="name" v="Øvra Håvardsvatnet" />
		<tag k="natural" v="water" />
		<tag k="ssr:stedsnr" v="854363" />
		<tag k="water" v="lake" />
	</node>
	<node id="-453883" lat="60.013095615" lon="6.82490386745">
		<tag k="name" v="Søra Blåvatnet" />
		<tag k="natural" v="water" />
		<tag k="ssr:stedsnr" v="854315" />
		<tag k="water" v="lake" />
	</node>
	<node id="-453878" lat="59.8303861068" lon="6.79320833894">
		<tag k="name" v="Sæteigbekken" />
		<tag k="ssr:stedsnr" v="854219" />
		<tag k="waterway" v="stream" />
	</node>
	<node id="-453876" lat="59.8170916659" lon="6.72830556106">
		<tag k="name" v="Reinsåna" />
		<tag k="ssr:stedsnr" v="854202" />
		<tag k="waterway" v="stream" />
	</node>
	<node id="-453870" lat="59.8516777742" lon="6.8079749921">
		<tag k="name" v="Mjølåna" />
		<tag k="ssr:stedsnr" v="854180" />
		<tag k="waterway" v="river" />
	</node>
	<node id="-453869" lat="59.8933111133" lon="6.70561667314">
		<tag k="name" v="Skrøyvo" />
		<tag k="ssr:stedsnr" v="854161" />
		<tag k="waterway" v="stream" />
	</node>
	<node id="-453867" lat="59.9091250022" lon="6.82128334158">
		<tag k="name" v="Revseidet" />
		<tag k="natural" v="strait" />
		<tag k="ssr:stedsnr" v="854155" />
	</node>
	<node id="-453865" lat="59.9800501761" lon="6.9402050824">
		<tag k="name" v="Grønhellervatnet" />
		<tag k="natural" v="water" />
		<tag k="ssr:stedsnr" v="854139" />
	</node>
	<node id="-453857" lat="60.0383805582" lon="6.54443054856">
		<tag k="name" v="Storanes" />
		<tag k="natural" v="cape" />
		<tag k="ssr:stedsnr" v="854031" />
	</node>
	<node id="-453854" lat="59.8824214194" lon="6.55908799735">
		<tag k="name" v="Krossdalsvatnet" />
		<tag k="natural" v="water" />
		<tag k="ssr:stedsnr" v="854020" />
	</node>
	<node id="-453853" lat="59.8068444418" lon="6.81660555992">
		<tag k="name" v="Grytøyrelva" />
		<tag k="ssr:stedsnr" v="853783" />
		<tag k="waterway" v="river" />
	</node>
	<node id="-453851" lat="59.9738777747" lon="6.57131389026">
		<tag k="alt_name" v="Storøyni" />
		<tag k="name" v="Storøyna" />
		<tag k="place" v="islet" />
		<tag k="ssr:stedsnr" v="853426" />
	</node>
	<node id="-453850" lat="59.9733382922" lon="6.51393776017">
		<tag k="alt_name" v="Viervatnet" />
		<tag k="name" v="Vierdalsvatnet" />
		<tag k="natural" v="water" />
		<tag k="ssr:stedsnr" v="853419" />
	</node>
	<node id="-453848" lat="59.9854555587" lon="6.55088611225">
		<tag k="name" v="Smyttetjørn" />
		<tag k="natural" v="water" />
		<tag k="ssr:stedsnr" v="853415" />
	</node>
	<node id="-453847" lat="59.9954916665" lon="6.56554999449">
		<tag k="alt_name" v="Storelva" />
		<tag k="name" v="Storelvi" />
		<tag k="ssr:stedsnr" v="853414" />
		<tag k="waterway" v="river" />
	</node>
	<node id="-453844" lat="59.8216111146" lon="6.81560278338">
		<tag k="name" v="Langhamar" />
		<tag k="natural" v="cape" />
		<tag k="ssr:stedsnr" v="853202" />
	</node>
	<node id="-453842" lat="59.7021188181" lon="6.761281308">
		<tag k="name" v="Viereviktjørna" />
		<tag k="natural" v="water" />
		<tag k="ssr:stedsnr" v="853173" />
	</node>
	<node id="-453841" lat="59.6988249984" lon="6.70630554787">
		<tag k="name" v="Nedra Slettedalsvatnet" />
		<tag k="natural" v="water" />
		<tag k="ssr:stedsnr" v="853171" />
	</node>
	<node id="-453817" lat="60.0451805579" lon="6.47631944923">
		<tag k="name" v="Hovdabekken" />
		<tag k="ssr:stedsnr" v="827662" />
		<tag k="waterway" v="stream" />
	</node>
	<node id="-453797" lat="59.8537972255" lon="6.86559444227">
		<tag k="name" v="Nyastølvika" />
		<tag k="natural" v="bay" />
		<tag k="ssr:stedsnr" v="827518" />
	</node>
	<node id="-453789" lat="60.0082916651" lon="6.55548055429">
		<tag k="name" v="Ines" />
		<tag k="natural" v="cape" />
		<tag k="ssr:stedsnr" v="827445" />
	</node>
	<node id="-453774" lat="59.724726333" lon="6.65624662238">
		<tag k="name" v="Vassdalsvatnet" />
		<tag k="natural" v="water" />
		<tag k="ssr:stedsnr" v="809218" />
		<tag k="water" v="lake" />
	</node>
	<node id="-453773" lat="59.9800888845" lon="7.21418888941">
		<tag k="name" v="Øvre Hellevatnet" />
		<tag k="natural" v="water" />
		<tag k="ssr:stedsnr" v="808547" />
		<tag k="water" v="lake" />
	</node>
	<node id="-453770" lat="60.1378444475" lon="6.51935278484">
		<tag k="name" v="Litlelielvi" />
		<tag k="ssr:stedsnr" v="794148" />
		<tag k="waterway" v="stream" />
	</node>
	<node id="-453765" lat="59.7527749974" lon="6.76516667487">
		<tag k="name" v="Aldråna" />
		<tag k="ssr:stedsnr" v="793781" />
		<tag k="waterway" v="stream" />
	</node>
	<node id="-453761" lat="60.0356644299" lon="6.90005321686">
		<tag k="name" v="Løkene" />
		<tag k="natural" v="water" />
		<tag k="ssr:stedsnr" v="793368" />
		<tag k="water" v="lake" />
	</node>
	<node id="-453757" lat="59.8364003181" lon="6.9331794469">
		<tag k="name" v="Votna" />
		<tag k="natural" v="water" />
		<tag k="ssr:stedsnr" v="793250" />
		<tag k="water" v="lake" />
	</node>
	<node id="-453756" lat="60.1794833298" lon="6.51958054691">
		<tag k="name" v="Dettefoss" />
		<tag k="natural" v="waterfall" />
		<tag k="ssr:stedsnr" v="793248" />
	</node>
	<node id="-453750" lat="59.8596376767" lon="6.84203190911">
		<tag k="name" v="Kviteskartjørnane" />
		<tag k="natural" v="water" />
		<tag k="ssr:stedsnr" v="793198" />
		<tag k="water" v="lake" />
	</node>
	<node id="-453747" lat="59.8858638848" lon="6.6937416591">
		<tag k="name" v="Kvannhaugbekken" />
		<tag k="ssr:stedsnr" v="793176" />
		<tag k="waterway" v="stream" />
	</node>
	<node id="-453746" lat="59.8919554382" lon="6.65804781637">
		<tag k="loc_name" v="Røldalstjørna" />
		<tag k="name" v="Røldalstjørni" />
		<tag k="natural" v="water" />
		<tag k="ssr:stedsnr" v="793175" />
	</node>
	<node id="-453744" lat="59.9095777787" lon="6.88934445114">
		<tag k="name" v="Tverrelva" />
		<tag k="ssr:stedsnr" v="793167" />
		<tag k="waterway" v="stream" />
	</node>
	<node id="-453743" lat="60.131933329" lon="6.59051389604">
		<tag k="name" v="Olbogeskor" />
		<tag k="natural" v="strait" />
		<tag k="ssr:stedsnr" v="793162" />
	</node>
	<node id="-453739" lat="59.9610805516" lon="6.78456944942">
		<tag k="name" v="Raudnosvatnet" />
		<tag k="natural" v="water" />
		<tag k="ssr:stedsnr" v="793125" />
	</node>
	<node id="-453737" lat="60.0933499973" lon="6.47227778174">
		<tag k="alt_name" v="Kvanngrødvatnet, øvre" />
		<tag k="loc_name" v="Øvsta Kvanngrøvatnet" />
		<tag k="name" v="Øvre Kvanngrødvatnet" />
		<tag k="natural" v="water" />
		<tag k="ssr:stedsnr" v="793094" />
	</node>
	<node id="-453736" lat="59.9884361112" lon="6.72194444908">
		<tag k="name" v="Fosso" />
		<tag k="natural" v="waterfall" />
		<tag k="ssr:stedsnr" v="793091" />
	</node>
	<node id="-453733" lat="59.8541298316" lon="6.56755760935">
		<tag k="name" v="Steinavatnet" />
		<tag k="natural" v="water" />
		<tag k="ssr:stedsnr" v="793061" />
		<tag k="water" v="lake" />
	</node>
	<node id="-453732" lat="60.033569444" lon="6.4693111153">
		<tag k="alt_name" v="Buervatnet" />
		<tag k="name" v="Buarvatnet" />
		<tag k="natural" v="water" />
		<tag k="ssr:stedsnr" v="793044" />
	</node>
	<node id="-453731" lat="60.0404611104" lon="6.47508333324">
		<tag k="name" v="Reinåna" />
		<tag k="ssr:stedsnr" v="793043" />
		<tag k="waterway" v="stream" />
	</node>
	<node id="-453727" lat="59.8025444423" lon="6.73341111996">
		<tag k="name" v="Lastalon" />
		<tag k="place" v="locality" />
		<tag k="ssr:stedsnr" v="792772" />
	</node>
	<node id="-453726" lat="59.7884944469" lon="6.71321111326">
		<tag k="name" v="Smalatjørna" />
		<tag k="natural" v="water" />
		<tag k="ssr:stedsnr" v="792765" />
	</node>
	<node id="-453725" lat="59.7991555573" lon="6.88932499656">
		<tag k="name" v="Sauakrokane" />
		<tag k="place" v="locality" />
		<tag k="ssr:stedsnr" v="792763" />
	</node>
	<node id="-453721" lat="59.9812278234" lon="6.59133005109">
		<tag k="name" v="Lomtjørn" />
		<tag k="natural" v="water" />
		<tag k="ssr:stedsnr" v="792405" />
	</node>
	<node id="-453720" lat="59.9868194415" lon="6.52233054968">
		<tag k="name" v="Felenes" />
		<tag k="natural" v="cape" />
		<tag k="ssr:stedsnr" v="792392" />
	</node>
	<node id="-453718" lat="59.8074555562" lon="6.78129443755">
		<tag k="name" v="Røldalsvatnet" />
		<tag k="natural" v="water" />
		<tag k="ssr:stedsnr" v="792226" />
		<tag k="water" v="lake" />
	</node>
	<node id="-453711" lat="59.9380250043" lon="6.61734999165">
		<tag k="name" v="Skredbekken" />
		<tag k="ssr:stedsnr" v="792136" />
		<tag k="waterway" v="stream" />
	</node>
	<node id="-453710" lat="59.9688805576" lon="6.96030555945">
		<tag k="name" v="Grøno" />
		<tag k="ssr:stedsnr" v="792129" />
		<tag k="waterway" v="river" />
	</node>
	<node id="-453708" lat="60.1411638921" lon="6.62644166542">
		<tag k="name" v="Mogelielvi" />
		<tag k="ssr:stedsnr" v="793501" />
		<tag k="waterway" v="river" />
	</node>
	<node id="-453704" lat="60.1259055557" lon="6.70920833588">
		<tag k="name" v="Klumpen" />
		<tag k="natural" v="cape" />
		<tag k="ssr:stedsnr" v="793445" />
	</node>
	<node id="-453703" lat="60.1272638885" lon="6.64825832737">
		<tag k="name" v="Båtaneset" />
		<tag k="natural" v="cape" />
		<tag k="ssr:stedsnr" v="793428" />
	</node>
	<node id="-453702" lat="60.055888893" lon="6.89235278414">
		<tag k="name" v="Juklavassåna" />
		<tag k="ssr:stedsnr" v="793425" />
		<tag k="waterway" v="river" />
	</node>
	<node id="-453701" lat="60.0659138851" lon="6.74961945236">
		<tag k="name" v="Langavatnet" />
		<tag k="natural" v="water" />
		<tag k="ssr:stedsnr" v="793420" />
		<tag k="water" v="lake" />
	</node>
	<node id="-453687" lat="60.0594111096" lon="6.53300277667">
		<tag k="name" v="Minne" />
		<tag k="ssr:stedsnr" v="766615" />
		<tag k="waterway" v="stream" />
	</node>
	<node id="-453682" lat="60.1351833304" lon="6.60762499404">
		<tag k="name" v="Langrefossen" />
		<tag k="natural" v="waterfall" />
		<tag k="ssr:stedsnr" v="766588" />
	</node>
	<node id="-453670" lat="59.8641611151" lon="6.87339722034">
		<tag k="name" v="Valldalselva" />
		<tag k="ssr:stedsnr" v="766487" />
		<tag k="waterway" v="river" />
	</node>
	<node id="-453660" lat="59.9422499966" lon="6.61189721591">
		<tag k="name" v="Mobekken" />
		<tag k="ssr:stedsnr" v="766377" />
		<tag k="waterway" v="stream" />
	</node>
	<node id="-453657" lat="59.7525083357" lon="6.77891110579">
		<tag k="name" v="Kvamaholmen" />
		<tag k="place" v="islet" />
		<tag k="ssr:stedsnr" v="766348" />
	</node>
	<node id="-453652" lat="59.7979444458" lon="6.78409999955">
		<tag k="name" v="Lakbakkenes" />
		<tag k="natural" v="cape" />
		<tag k="ssr:stedsnr" v="766307" />
	</node>
	<node id="-453649" lat="59.7877833351" lon="6.78243611387">
		<tag k="name" v="Fantavika" />
		<tag k="natural" v="bay" />
		<tag k="ssr:stedsnr" v="766285" />
	</node>
	<node id="-453645" lat="59.757861113" lon="6.79596666239">
		<tag k="name" v="Jomanes" />
		<tag k="natural" v="cape" />
		<tag k="ssr:stedsnr" v="766246" />
	</node>
	<node id="-453644" lat="59.7572722231" lon="6.78764999602">
		<tag k="name" v="Ørenes" />
		<tag k="natural" v="cape" />
		<tag k="ssr:stedsnr" v="766245" />
	</node>
	<node id="-453640" lat="59.9163055562" lon="6.5286972303">
		<tag k="name" v="Stølselva" />
		<tag k="ssr:stedsnr" v="766506" />
		<tag k="waterway" v="river" />
	</node>
	<node id="-453638" lat="60.0391194476" lon="6.62598332664">
		<tag k="name" v="Stølselvi" />
		<tag k="ssr:stedsnr" v="749796" />
		<tag k="waterway" v="river" />
	</node>
	<node id="-453633" lat="59.9795277765" lon="7.22411943814">
		<tag k="name" v="Nekkos" />
		<tag k="natural" v="bay" />
		<tag k="ssr:stedsnr" v="747550" />
	</node>
	<node id="-453632" lat="60.1331626291" lon="6.80644600802">
		<tag k="name" v="Reinakolltjørn" />
		<tag k="natural" v="water" />
		<tag k="ssr:stedsnr" v="733395" />
	</node>
	<node id="-453628" lat="60.0068555584" lon="7.01734166334">
		<tag k="name" v="Brokafossen" />
		<tag k="natural" v="waterfall" />
		<tag k="ssr:stedsnr" v="733261" />
	</node>
	<node id="-453617" lat="59.7699824735" lon="6.73479242612">
		<tag k="name" v="Langatjørna" />
		<tag k="natural" v="water" />
		<tag k="ssr:stedsnr" v="732803" />
	</node>
	<node id="-453614" lat="59.9931916667" lon="6.71446388545">
		<tag k="name" v="Fossbekken" />
		<tag k="ssr:stedsnr" v="732625" />
		<tag k="waterway" v="stream" />
	</node>
	<node id="-453611" lat="59.9109209643" lon="6.5309614833">
		<tag k="name" v="Vassvikevatnet" />
		<tag k="natural" v="water" />
		<tag k="ssr:stedsnr" v="732500" />
	</node>
	<node id="-453609" lat="59.9431298988" lon="6.55590736511">
		<tag k="name" v="Hellesvatnet" />
		<tag k="natural" v="water" />
		<tag k="ssr:stedsnr" v="732470" />
		<tag k="water" v="lake" />
	</node>
	<node id="-453608" lat="59.9585322438" lon="6.49544300531">
		<tag k="name" v="Blåvatni" />
		<tag k="natural" v="water" />
		<tag k="ssr:stedsnr" v="732463" />
	</node>
	<node id="-453605" lat="60.1172027811" lon="6.64069722241">
		<tag k="name" v="Mosneset" />
		<tag k="natural" v="cape" />
		<tag k="ssr:stedsnr" v="732447" />
	</node>
	<node id="-453603" lat="60.1109083324" lon="6.80103888432">
		<tag k="name" v="Nibbetjørn" />
		<tag k="natural" v="water" />
		<tag k="ssr:stedsnr" v="732442" />
	</node>
	<node id="-453597" lat="60.176641663" lon="6.53552222534">
		<tag k="alt_name" v="Kvitnaelvi;Kvitnoelva" />
		<tag k="name" v="Kvitnelvi" />
		<tag k="old_name" v="Kvitnoelvi" />
		<tag k="ssr:stedsnr" v="732240" />
		<tag k="waterway" v="stream" />
	</node>
	<node id="-453590" lat="60.1615666642" lon="6.53234166733">
		<tag k="name" v="Klakkabekken" />
		<tag k="ssr:stedsnr" v="732221" />
		<tag k="waterway" v="stream" />
	</node>
	<node id="-453588" lat="59.8445833325" lon="6.81993888827">
		<tag k="name" v="Tuftaelva" />
		<tag k="ssr:stedsnr" v="732212" />
		<tag k="waterway" v="river" />
	</node>
	<node id="-453585" lat="59.9112560712" lon="6.91970723898">
		<tag k="name" v="Valldalsvatnet" />
		<tag k="natural" v="water" />
		<tag k="ssr:stedsnr" v="732204" />
		<tag k="water" v="lake" />
	</node>
	<node id="-453583" lat="59.8779278824" lon="6.60126527996">
		<tag k="name" v="Krokavatnet" />
		<tag k="natural" v="water" />
		<tag k="ssr:stedsnr" v="732189" />
	</node>
	<node id="-453581" lat="59.9685999959" lon="6.75281944998">
		<tag k="name" v="Salmeshølen" />
		<tag k="place" v="locality" />
		<tag k="ssr:stedsnr" v="732171" />
	</node>
	<node id="-453576" lat="59.9938111096" lon="6.63620277875">
		<tag k="name" v="Fossbekken" />
		<tag k="ssr:stedsnr" v="732124" />
		<tag k="waterway" v="stream" />
	</node>
	<node id="-453575" lat="59.9930749989" lon="6.73984444457">
		<tag k="name" v="Loni" />
		<tag k="place" v="locality" />
		<tag k="ssr:stedsnr" v="732122" />
	</node>
	<node id="-453572" lat="59.9893500041" lon="6.60343888788">
		<tag k="fixme" v="multiple name tags, choose one and add the other to alt_name" />
		<tag k="name" v="Hildalselvi;Stølselva" />
		<tag k="ssr:stedsnr" v="732115" />
		<tag k="waterway" v="river" />
	</node>
	<node id="-453566" lat="59.7238629689" lon="6.75544048845">
		<tag k="name" v="Geitskelitjørna" />
		<tag k="natural" v="water" />
		<tag k="ssr:stedsnr" v="731196" />
	</node>
	<node id="-453563" lat="59.9519975192" lon="6.56590957698">
		<tag k="alt_name" v="Søyletjørn, øvre" />
		<tag k="name" v="Søyletjørn" />
		<tag k="natural" v="water" />
		<tag k="ssr:stedsnr" v="726486" />
	</node>
	<node id="-453541" lat="60.0132361144" lon="6.55575000827">
		<tag k="name" v="Naustnes" />
		<tag k="natural" v="cape" />
		<tag k="ssr:stedsnr" v="706497" />
	</node>
	<node id="-453539" lat="60.0233194414" lon="6.68709166056">
		<tag k="name" v="Tverrelva" />
		<tag k="ssr:stedsnr" v="706472" />
		<tag k="waterway" v="river" />
	</node>
	<node id="-453525" lat="59.9669186177" lon="6.53700434159">
		<tag k="alt_name" v="Skitstølsvatnet" />
		<tag k="name" v="Skitstølstjørn" />
		<tag k="natural" v="water" />
		<tag k="ssr:stedsnr" v="705486" />
	</node>
	<node id="-453521" lat="59.7938083333" lon="6.78222778136">
		<tag k="name" v="Smørnes" />
		<tag k="natural" v="cape" />
		<tag k="ssr:stedsnr" v="705341" />
	</node>
	<node id="-453516" lat="59.7768611112" lon="6.80149443583">
		<tag k="name" v="Rindaslåtta" />
		<tag k="ssr:stedsnr" v="705294" />
		<tag k="waterway" v="stream" />
	</node>
	<node id="-453515" lat="59.7278277796" lon="6.73979444346">
		<tag k="name" v="Kolåsnes" />
		<tag k="natural" v="cape" />
		<tag k="ssr:stedsnr" v="705287" />
	</node>
	<node id="-453513" lat="59.7633222233" lon="6.79718888217">
		<tag k="name" v="Bytesbekk" />
		<tag k="ssr:stedsnr" v="705279" />
		<tag k="waterway" v="stream" />
	</node>
	<node id="-453510" lat="59.8500500017" lon="7.02132499949">
		<tag k="name" v="Reinstjørna" />
		<tag k="natural" v="water" />
		<tag k="ssr:stedsnr" v="688562" />
	</node>
	<node id="-453502" lat="60.0608861103" lon="6.8736166688">
		<tag k="name" v="Breiavatnet" />
		<tag k="natural" v="water" />
		<tag k="ssr:stedsnr" v="672362" />
		<tag k="water" v="lake" />
	</node>
	<node id="-453501" lat="60.0740249791" lon="6.83048748082">
		<tag k="name" v="Grytenuttjørnane" />
		<tag k="natural" v="water" />
		<tag k="ssr:stedsnr" v="672358" />
		<tag k="water" v="lake" />
	</node>
	<node id="-453494" lat="60.1372861124" lon="6.53567499974">
		<tag k="name" v="Fosso" />
		<tag k="ssr:stedsnr" v="672154" />
		<tag k="waterway" v="stream" />
	</node>
	<node id="-453493" lat="60.106963886" lon="6.5216361182">
		<tag k="name" v="Skredbekken" />
		<tag k="ssr:stedsnr" v="672124" />
		<tag k="waterway" v="stream" />
	</node>
	<node id="-453489" lat="60.0237694017" lon="6.52672433142">
		<tag k="name" v="Fossasetevatnet" />
		<tag k="natural" v="water" />
		<tag k="ssr:stedsnr" v="672030" />
	</node>
	<node id="-453486" lat="59.8839972408" lon="7.06220735148">
		<tag k="name" v="Nupstjørn" />
		<tag k="natural" v="water" />
		<tag k="ssr:stedsnr" v="671850" />
		<tag k="water" v="lake" />
	</node>
	<node id="-453477" lat="59.9994405788" lon="7.0565158548">
		<tag k="name" v="Søra Steggjavatnet" />
		<tag k="natural" v="water" />
		<tag k="ssr:stedsnr" v="671748" />
		<tag k="water" v="lake" />
	</node>
	<node id="-453472" lat="59.942613659" lon="6.52374549682">
		<tag k="name" v="Smylvesvatnet" />
		<tag k="natural" v="water" />
		<tag k="ssr:stedsnr" v="671428" />
	</node>
	<node id="-453471" lat="59.9612194401" lon="6.52596388708">
		<tag k="name" v="Ristjørn" />
		<tag k="natural" v="water" />
		<tag k="ssr:stedsnr" v="671422" />
	</node>
	<node id="-453465" lat="59.8545611121" lon="6.87797778044">
		<tag k="name" v="Risbuelva" />
		<tag k="ssr:stedsnr" v="671191" />
		<tag k="waterway" v="stream" />
	</node>
	<node id="-453461" lat="59.9607019944" lon="6.67106702596">
		<tag k="name" v="Fisketjørn" />
		<tag k="natural" v="water" />
		<tag k="ssr:stedsnr" v="671153" />
	</node>
	<node id="-453460" lat="60.1338944419" lon="6.53111944021">
		<tag k="name" v="Ædna" />
		<tag k="ssr:stedsnr" v="671142" />
		<tag k="waterway" v="stream" />
	</node>
	<node id="-453458" lat="59.9610666648" lon="6.720994443">
		<tag k="name" v="Trosavik" />
		<tag k="natural" v="bay" />
		<tag k="ssr:stedsnr" v="671131" />
	</node>
	<node id="-453455" lat="59.9992380966" lon="6.80695985527">
		<tag k="name" v="Nedsta Setevatnet" />
		<tag k="natural" v="water" />
		<tag k="ssr:stedsnr" v="671105" />
	</node>
	<node id="-453449" lat="60.1778749985" lon="6.51121111919">
		<tag k="name" v="Kvannåna" />
		<tag k="ssr:stedsnr" v="671244" />
		<tag k="waterway" v="stream" />
	</node>
	<node id="-453426" lat="60.1419333302" lon="6.57638611714">
		<tag k="name" v="Kaldebekk" />
		<tag k="ssr:stedsnr" v="645534" />
		<tag k="waterway" v="stream" />
	</node>
	<node id="-453421" lat="60.0107972184" lon="6.56010555025">
		<tag k="name" v="Stegabekken" />
		<tag k="ssr:stedsnr" v="645507" />
		<tag k="waterway" v="stream" />
	</node>
	<node id="-453405" lat="59.8326277807" lon="6.87031388335">
		<tag k="name" v="Åkroken" />
		<tag k="ssr:stedsnr" v="644491" />
		<tag k="waterway" v="stream" />
	</node>
	<node id="-453387" lat="59.8342694442" lon="6.86299444249">
		<tag k="name" v="Storelva" />
		<tag k="ssr:stedsnr" v="611599" />
		<tag k="waterway" v="river" />
	</node>
	<node id="-453386" lat="60.1527596289" lon="6.80232769574">
		<tag k="name" v="Holmavatn" />
		<tag k="natural" v="water" />
		<tag k="ssr:stedsnr" v="611463" />
		<tag k="water" v="lake" />
	</node>
	<node id="-453384" lat="60.163647226" lon="6.60234445318">
		<tag k="name" v="Fagradalsbekken" />
		<tag k="ssr:stedsnr" v="611454" />
		<tag k="waterway" v="stream" />
	</node>
	<node id="-453383" lat="60.1329722246" lon="6.72620277349">
		<tag k="name" v="Endaåna" />
		<tag k="ssr:stedsnr" v="611434" />
		<tag k="waterway" v="river" />
	</node>
	<node id="-453382" lat="60.1428251692" lon="6.77625208874">
		<tag k="name" v="Stednesvatnet" />
		<tag k="natural" v="water" />
		<tag k="ssr:stedsnr" v="611429" />
	</node>
	<node id="-453381" lat="60.1374972238" lon="6.7635499945">
		<tag k="name" v="Tyssehylen" />
		<tag k="place" v="locality" />
		<tag k="ssr:stedsnr" v="611430" />
	</node>
	<node id="-453380" lat="60.0572944479" lon="6.72523332687">
		<tag k="name" v="Båsvikane" />
		<tag k="natural" v="bay" />
		<tag k="ssr:stedsnr" v="611413" />
	</node>
	<node id="-453362" lat="60.0839277772" lon="6.51193889425">
		<tag k="name" v="Tokheimselva" />
		<tag k="ssr:stedsnr" v="611084" />
		<tag k="waterway" v="river" />
	</node>
	<node id="-453360" lat="60.0547163869" lon="6.51337878485">
		<tag k="name" v="Tjørno" />
		<tag k="natural" v="water" />
		<tag k="ssr:stedsnr" v="611066" />
	</node>
	<node id="-453357" lat="60.0309500028" lon="6.4874777712">
		<tag k="name" v="Rotekot" />
		<tag k="natural" v="water" />
		<tag k="ssr:stedsnr" v="611047" />
	</node>
	<node id="-453355" lat="60.0271111087" lon="6.50254444587">
		<tag k="name" v="Liasetevatnet" />
		<tag k="natural" v="water" />
		<tag k="ssr:stedsnr" v="611039" />
	</node>
	<node id="-453354" lat="60.0183161433" lon="6.45121741642">
		<tag k="name" v="Svartenutvatnet" />
		<tag k="natural" v="water" />
		<tag k="ssr:stedsnr" v="611035" />
	</node>
	<node id="-453352" lat="60.0137313106" lon="6.56433698513">
		<tag k="name" v="Tjørni" />
		<tag k="natural" v="water" />
		<tag k="ssr:stedsnr" v="611021" />
	</node>
	<node id="-453346" lat="59.8287248359" lon="7.16001773013">
		<tag k="name" v="Ståvatn" />
		<tag k="natural" v="water" />
		<tag k="ssr:stedsnr" v="610829" />
		<tag k="water" v="lake" />
	</node>
	<node id="-453341" lat="59.9867062608" lon="7.32483011775">
		<tag k="alt_name" v="Urdevatnet, store;Urevatnet, store" />
		<tag k="name" v="Store Urevatnet" />
		<tag k="natural" v="water" />
		<tag k="ssr:stedsnr" v="610790" />
		<tag k="water" v="lake" />
	</node>
	<node id="-453340" lat="59.9779611134" lon="7.25824166762">
		<tag k="name" v="Nedre Hellevatnet" />
		<tag k="natural" v="water" />
		<tag k="ssr:stedsnr" v="610787" />
		<tag k="water" v="lake" />
	</node>
	<node id="-453331" lat="59.9439901588" lon="6.56753544494">
		<tag k="name" v="Rausvatnet" />
		<tag k="natural" v="water" />
		<tag k="ssr:stedsnr" v="610488" />
	</node>
	<node id="-453329" lat="59.9537861093" lon="6.76120278167">
		<tag k="name" v="Tverrelvane" />
		<tag k="ssr:stedsnr" v="610159" />
		<tag k="waterway" v="stream" />
	</node>
	<node id="-453328" lat="59.9921666702" lon="6.59584722805">
		<tag k="name" v="Røynedalsbekken" />
		<tag k="ssr:stedsnr" v="610116" />
		<tag k="waterway" v="stream" />
	</node>
	<node id="-453323" lat="59.743625" lon="6.74432777062">
		<tag k="name" v="Kvernabekken" />
		<tag k="ssr:stedsnr" v="609140" />
		<tag k="waterway" v="stream" />
	</node>
	<node id="-453309" lat="60.0562555522" lon="6.55404999489">
		<tag k="name" v="Eidesfossen" />
		<tag k="natural" v="waterfall" />
		<tag k="ssr:stedsnr" v="584615" />
	</node>
	<node id="-453306" lat="59.997008334" lon="6.56500276892">
		<tag k="name" v="Storøyna" />
		<tag k="place" v="island" />
		<tag k="ssr:stedsnr" v="584563" />
	</node>
	<node id="-453305" lat="60.0167084565" lon="6.49619176567">
		<tag k="name" v="Vetletangen" />
		<tag k="natural" v="cape" />
		<tag k="ssr:stedsnr" v="584543" />
	</node>
	<node id="-453302" lat="60.0214027795" lon="6.54409167138">
		<tag k="name" v="Hestavik" />
		<tag k="natural" v="bay" />
		<tag k="ssr:stedsnr" v="584513" />
	</node>
	<node id="-453299" lat="59.8750666684" lon="6.86623889764">
		<tag k="name" v="Einungstølsåna" />
		<tag k="ssr:stedsnr" v="584493" />
		<tag k="waterway" v="river" />
	</node>
	<node id="-453296" lat="59.8370527811" lon="6.8052305538">
		<tag k="name" v="Bjørnåna" />
		<tag k="ssr:stedsnr" v="584474" />
		<tag k="waterway" v="stream" />
	</node>
	<node id="-453295" lat="59.8343666675" lon="6.80755833529">
		<tag k="name" v="Kvernbekk" />
		<tag k="ssr:stedsnr" v="584467" />
		<tag k="waterway" v="stream" />
	</node>
	<node id="-453284" lat="59.7639249968" lon="6.78590278255">
		<tag k="name" v="Gurines" />
		<tag k="natural" v="cape" />
		<tag k="ssr:stedsnr" v="584298" />
	</node>
	<node id="-453282" lat="59.7744166635" lon="6.79266388507">
		<tag k="name" v="Lokklibekken" />
		<tag k="ssr:stedsnr" v="584295" />
		<tag k="waterway" v="stream" />
	</node>
	<node id="-453280" lat="59.7518722212" lon="6.80109722554">
		<tag k="name" v="Øynaelva" />
		<tag k="ssr:stedsnr" v="584274" />
		<tag k="waterway" v="river" />
	</node>
	<node id="-453272" lat="59.7540472207" lon="6.77318055796">
		<tag k="name" v="Heggeholbekken" />
		<tag k="ssr:stedsnr" v="583365" />
		<tag k="waterway" v="stream" />
	</node>
	<node id="-453271" lat="59.8590934593" lon="6.94090465301">
		<tag k="name" v="Kutjørn" />
		<tag k="natural" v="water" />
		<tag k="ssr:stedsnr" v="583354" />
	</node>
	<node id="-453270" lat="59.7521916686" lon="6.78285278548">
		<tag k="name" v="Hundafoss" />
		<tag k="natural" v="waterfall" />
		<tag k="ssr:stedsnr" v="583339" />
	</node>
	<node id="-453264" lat="59.7021194466" lon="6.75102500715">
		<tag k="loc_name" v="Øvrebekken" />
		<tag k="name" v="Ørebekken" />
		<tag k="ssr:stedsnr" v="566216" />
		<tag k="waterway" v="stream" />
	</node>
	<node id="-453262" lat="59.8096161401" lon="6.67762151887">
		<tag k="name" v="Øvra Sandvatnet" />
		<tag k="natural" v="water" />
		<tag k="ssr:stedsnr" v="610278" />
		<tag k="water" v="lake" />
	</node>
	<node id="-453259" lat="59.884894228" lon="6.84903225418">
		<tag k="name" v="Vetlavatnet" />
		<tag k="natural" v="water" />
		<tag k="ssr:stedsnr" v="610253" />
	</node>
	<node id="-453254" lat="59.9469694414" lon="6.93178611937">
		<tag k="name" v="Strandåna" />
		<tag k="ssr:stedsnr" v="610210" />
		<tag k="waterway" v="stream" />
	</node>
	<node id="-453252" lat="60.0673277806" lon="6.56228889104">
		<tag k="alt_name" v="Freimselvi" />
		<tag k="name" v="Freimselva" />
		<tag k="ssr:stedsnr" v="551067" />
		<tag k="waterway" v="stream" />
	</node>
	<node id="-453251" lat="60.1933638889" lon="6.51140555168">
		<tag k="fixme" v="multiple name tags, choose one and add the other to alt_name" />
		<tag k="name" v="Byteselvi;Sleipåna" />
		<tag k="ssr:stedsnr" v="550861" />
		<tag k="waterway" v="stream" />
	</node>
	<node id="-453250" lat="59.8322975384" lon="7.01996111861">
		<tag k="name" v="Øysteinsvatnet" />
		<tag k="natural" v="water" />
		<tag k="ssr:stedsnr" v="550810" />
	</node>
	<node id="-453246" lat="60.1029388889" lon="6.78037778074">
		<tag k="name" v="Nybuåna" />
		<tag k="ssr:stedsnr" v="550419" />
		<tag k="waterway" v="river" />
	</node>
	<node id="-453243" lat="60.0393416705" lon="6.72397222814">
		<tag k="name" v="Øvra Orravatnet" />
		<tag k="natural" v="water" />
		<tag k="ssr:stedsnr" v="550390" />
		<tag k="water" v="lake" />
	</node>
	<node id="-453241" lat="60.0661256421" lon="6.79923878096">
		<tag k="name" v="Langarusttjørnane" />
		<tag k="natural" v="water" />
		<tag k="ssr:stedsnr" v="550371" />
	</node>
	<node id="-453240" lat="60.1015027749" lon="6.89422500245">
		<tag k="name" v="Øvra Nybuvatnet" />
		<tag k="natural" v="water" />
		<tag k="ssr:stedsnr" v="550362" />
		<tag k="water" v="lake" />
	</node>
	<node id="-453235" lat="60.0083555556" lon="6.63324445114">
		<tag k="name" v="Dyrfoss" />
		<tag k="natural" v="waterfall" />
		<tag k="ssr:stedsnr" v="550328" />
	</node>
	<node id="-453234" lat="60.0914638859" lon="7.00994166886">
		<tag k="name" v="Juklatjørn" />
		<tag k="natural" v="water" />
		<tag k="ssr:stedsnr" v="550291" />
	</node>
	<node id="-453233" lat="60.0044984836" lon="7.05745871108">
		<tag k="name" v="Steggjavotna" />
		<tag k="natural" v="water" />
		<tag k="ssr:stedsnr" v="550267" />
		<tag k="water" v="lake" />
	</node>
	<node id="-453232" lat="60.1632055517" lon="6.57901388362">
		<tag k="name" v="Skjeldvikelvi" />
		<tag k="ssr:stedsnr" v="550215" />
		<tag k="waterway" v="stream" />
	</node>
	<node id="-453230" lat="60.1570000032" lon="6.53153333663">
		<tag k="name" v="Breidskredbekken" />
		<tag k="ssr:stedsnr" v="550201" />
		<tag k="waterway" v="stream" />
	</node>
	<node id="-453228" lat="59.9743977147" lon="6.83007139921">
		<tag k="name" v="Isvatnet" />
		<tag k="natural" v="water" />
		<tag k="ssr:stedsnr" v="550166" />
		<tag k="water" v="lake" />
	</node>
	<node id="-453218" lat="60.0179444487" lon="6.54650555518">
		<tag k="name" v="Kaldnes" />
		<tag k="natural" v="cape" />
		<tag k="ssr:stedsnr" v="550031" />
	</node>
	<node id="-453191" lat="60.1393222245" lon="6.57405833591">
		<tag k="name" v="Langaskjos" />
		<tag k="ssr:stedsnr" v="524516" />
		<tag k="waterway" v="stream" />
	</node>
	<node id="-453187" lat="60.0145150955" lon="6.48827231123">
		<tag k="name" v="Storetangen" />
		<tag k="natural" v="cape" />
		<tag k="ssr:stedsnr" v="524483" />
	</node>
	<node id="-453177" lat="59.9775944475" lon="6.5623944442">
		<tag k="name" v="Geitabekken" />
		<tag k="ssr:stedsnr" v="524369" />
		<tag k="waterway" v="stream" />
	</node>
	<node id="-453166" lat="59.817972219" lon="6.75416389414">
		<tag k="name" v="Hagabekk" />
		<tag k="ssr:stedsnr" v="523527" />
		<tag k="waterway" v="stream" />
	</node>
	<node id="-453163" lat="59.7397666649" lon="6.81413888968">
		<tag k="name" v="Storaskarbekken" />
		<tag k="ssr:stedsnr" v="523360" />
		<tag k="waterway" v="stream" />
	</node>
	<node id="-453161" lat="59.7979999989" lon="6.76922499246">
		<tag k="name" v="Skiphellervika" />
		<tag k="natural" v="bay" />
		<tag k="ssr:stedsnr" v="523335" />
	</node>
	<node id="-453159" lat="59.8029666663" lon="6.79008888458">
		<tag k="name" v="Kvernabekken" />
		<tag k="ssr:stedsnr" v="523320" />
		<tag k="waterway" v="stream" />
	</node>
	<node id="-453157" lat="59.7688222245" lon="6.80078333805">
		<tag k="name" v="Hattebergbekken" />
		<tag k="ssr:stedsnr" v="523291" />
		<tag k="waterway" v="stream" />
	</node>
	<node id="-453149" lat="60.1289083309" lon="6.59880555122">
		<tag k="name" v="Lonene" />
		<tag k="natural" v="water" />
		<tag k="ssr:stedsnr" v="507780" />
		<tag k="water" v="lake" />
	</node>
	<node id="-453148" lat="60.0207722222" lon="6.68042222887">
		<tag k="name" v="Kvannskorfossen" />
		<tag k="natural" v="waterfall" />
		<tag k="ssr:stedsnr" v="507777" />
	</node>
	<node id="-453142" lat="59.7331638884" lon="6.74876110286">
		<tag k="name" v="Nedra Lonavatnet" />
		<tag k="natural" v="water" />
		<tag k="ssr:stedsnr" v="506227" />
		<tag k="water" v="lake" />
	</node>
	<node id="-453141" lat="59.7246583321" lon="6.71832499583">
		<tag k="name" v="Stølsåna" />
		<tag k="ssr:stedsnr" v="506225" />
		<tag k="waterway" v="river" />
	</node>
	<node id="-453140" lat="60.1315952487" lon="6.62370273432">
		<tag k="name" v="Vetlavatnet" />
		<tag k="natural" v="water" />
		<tag k="ssr:stedsnr" v="490392" />
		<tag k="water" v="lake" />
	</node>
	<node id="-453136" lat="60.0919613785" lon="7.04984580704">
		<tag k="name" v="Kollstjørn" />
		<tag k="natural" v="water" />
		<tag k="ssr:stedsnr" v="490295" />
	</node>
	<node id="-453135" lat="60.0709102056" lon="7.08394032097">
		<tag k="name" v="Vassdalsvatni" />
		<tag k="natural" v="water" />
		<tag k="ssr:stedsnr" v="490286" />
		<tag k="water" v="lake" />
	</node>
	<node id="-453133" lat="60.1652666701" lon="6.51023055475">
		<tag k="alt_name" v="Lausvatnet" />
		<tag k="name" v="Lausvatn" />
		<tag k="natural" v="water" />
		<tag k="ssr:stedsnr" v="490204" />
	</node>
	<node id="-453132" lat="60.1665166687" lon="6.52948055365">
		<tag k="name" v="Sagbekken" />
		<tag k="ssr:stedsnr" v="490202" />
		<tag k="waterway" v="stream" />
	</node>
	<node id="-453129" lat="60.104141668" lon="6.51241945317">
		<tag k="name" v="Tverrbekken" />
		<tag k="ssr:stedsnr" v="490123" />
		<tag k="waterway" v="stream" />
	</node>
	<node id="-453127" lat="60.101011109" lon="6.55197222155">
		<tag k="name" v="Slevåna" />
		<tag k="ssr:stedsnr" v="490104" />
		<tag k="waterway" v="stream" />
	</node>
	<node id="-453125" lat="60.0298214414" lon="6.57565059149">
		<tag k="name" v="Lontjørn" />
		<tag k="natural" v="water" />
		<tag k="ssr:stedsnr" v="490046" />
	</node>
	<node id="-453121" lat="60.0013687174" lon="6.4683570187">
		<tag k="name" v="Tjørnane" />
		<tag k="natural" v="water" />
		<tag k="ssr:stedsnr" v="490025" />
	</node>
	<node id="-453120" lat="59.8534645815" lon="7.09648189547">
		<tag k="name" v="Ulevåvatnet" />
		<tag k="natural" v="water" />
		<tag k="ssr:stedsnr" v="489861" />
		<tag k="water" v="lake" />
	</node>
	<node id="-453115" lat="59.800475002" lon="6.85574444494">
		<tag k="name" v="Nyastølselva" />
		<tag k="ssr:stedsnr" v="489792" />
		<tag k="waterway" v="river" />
	</node>
	<node id="-453112" lat="59.755358069" lon="6.68037996381">
		<tag k="name" v="Lemstjørna" />
		<tag k="natural" v="water" />
		<tag k="ssr:stedsnr" v="489770" />
	</node>
	<node id="-453105" lat="59.9475972264" lon="6.58487500047">
		<tag k="name" v="Låtefossen" />
		<tag k="natural" v="waterfall" />
		<tag k="ssr:stedsnr" v="489476" />
	</node>
	<node id="-453104" lat="59.928925726" lon="6.50103889721">
		<tag k="name" v="Kroskardvatni" />
		<tag k="natural" v="water" />
		<tag k="ssr:stedsnr" v="489477" />
	</node>
	<node id="-453103" lat="60.1221944412" lon="6.69560556108">
		<tag k="name" v="Fureneset" />
		<tag k="natural" v="cape" />
		<tag k="ssr:stedsnr" v="489447" />
	</node>
	<node id="-453098" lat="59.8343669174" lon="6.77697517148">
		<tag k="name" v="Sæteigtjørna" />
		<tag k="natural" v="water" />
		<tag k="ssr:stedsnr" v="489271" />
	</node>
	<node id="-453090" lat="59.9075481874" lon="6.73373077133">
		<tag k="name" v="Botnavatnet" />
		<tag k="natural" v="water" />
		<tag k="ssr:stedsnr" v="489180" />
		<tag k="water" v="lake" />
	</node>
	<node id="-453085" lat="59.9375916689" lon="6.69702500785">
		<tag k="name" v="Kurlosebekken" />
		<tag k="ssr:stedsnr" v="489146" />
		<tag k="waterway" v="stream" />
	</node>
	<node id="-453075" lat="60.0415527743" lon="6.54112221502">
		<tag k="alt_name" v="Sandvevatnet" />
		<tag k="name" v="Sandvinvatnet" />
		<tag k="natural" v="water" />
		<tag k="ssr:stedsnr" v="489053" />
		<tag k="water" v="lake" />
	</node>
	<node id="-453074" lat="59.8622301322" lon="6.52313442152">
		<tag k="name" v="Sandbotnevatni" />
		<tag k="natural" v="water" />
		<tag k="ssr:stedsnr" v="489011" />
		<tag k="water" v="lake" />
	</node>
	<node id="-453056" lat="59.9090638924" lon="6.52686388402">
		<tag k="name" v="Ronanes" />
		<tag k="natural" v="cape" />
		<tag k="ssr:stedsnr" v="463470" />
	</node>
	<node id="-453055" lat="59.8666555528" lon="6.85612777664">
		<tag k="name" v="Jønnbubekken" />
		<tag k="ssr:stedsnr" v="463460" />
		<tag k="waterway" v="stream" />
	</node>
	<node id="-453049" lat="59.8142638866" lon="6.74790278103">
		<tag k="name" v="Veslå" />
		<tag k="ssr:stedsnr" v="463414" />
		<tag k="waterway" v="river" />
	</node>
	<node id="-453035" lat="59.8005861135" lon="6.78559999845">
		<tag k="name" v="Einernes" />
		<tag k="natural" v="cape" />
		<tag k="ssr:stedsnr" v="463279" />
	</node>
	<node id="-453033" lat="59.7886083363" lon="6.78444721392">
		<tag k="name" v="Odlandsnes" />
		<tag k="natural" v="cape" />
		<tag k="ssr:stedsnr" v="463273" />
	</node>
	<node id="-453032" lat="59.7385111078" lon="6.7861138808">
		<tag k="name" v="Toraldbekken" />
		<tag k="ssr:stedsnr" v="463251" />
		<tag k="waterway" v="stream" />
	</node>
	<node id="-453022" lat="59.9478416698" lon="6.54344444668">
		<tag k="name" v="Øktarevassbekken" />
		<tag k="ssr:stedsnr" v="462637" />
		<tag k="waterway" v="stream" />
	</node>
	<node id="-453021" lat="59.7518555552" lon="6.77836389118">
		<tag k="name" v="Sandholmen" />
		<tag k="place" v="islet" />
		<tag k="ssr:stedsnr" v="462348" />
	</node>
	<node id="-453020" lat="59.7514416668" lon="6.78525833438">
		<tag k="name" v="Styggehølen" />
		<tag k="place" v="locality" />
		<tag k="ssr:stedsnr" v="462326" />
	</node>
	<node id="-453013" lat="59.7932916657" lon="7.0099250016">
		<tag k="name" v="Kaldevatn" />
		<tag k="natural" v="water" />
		<tag k="ssr:stedsnr" v="429913" />
		<tag k="water" v="lake" />
	</node>
	<node id="-453010" lat="59.9281087146" lon="7.00913290937">
		<tag k="name" v="Trossovtjørna" />
		<tag k="natural" v="water" />
		<tag k="ssr:stedsnr" v="429854" />
	</node>
	<node id="-453009" lat="59.9364418342" lon="7.14551303106">
		<tag k="name" v="Sandflotjørna" />
		<tag k="natural" v="water" />
		<tag k="ssr:stedsnr" v="429850" />
		<tag k="water" v="lake" />
	</node>
	<node id="-453007" lat="59.783544441" lon="6.75902500173">
		<tag k="name" v="Ekkjeåna" />
		<tag k="ssr:stedsnr" v="429818" />
		<tag k="waterway" v="stream" />
	</node>
	<node id="-453002" lat="59.9732270667" lon="6.97247310467">
		<tag k="name" v="Vivassvatnet" />
		<tag k="natural" v="water" />
		<tag k="ssr:stedsnr" v="429773" />
		<tag k="water" v="lake" />
	</node>
	<node id="-452994" lat="60.0093801011" lon="6.60417574448">
		<tag k="name" v="Blåvatnet" />
		<tag k="natural" v="water" />
		<tag k="ssr:stedsnr" v="429329" />
		<tag k="water" v="lake" />
	</node>
	<node id="-452993" lat="60.0087643779" lon="7.13569611391">
		<tag k="name" v="Ivarstjørna" />
		<tag k="natural" v="water" />
		<tag k="ssr:stedsnr" v="429247" />
	</node>
	<node id="-452988" lat="60.1133944419" lon="6.64323611741">
		<tag k="name" v="Mosdalsbekken" />
		<tag k="ssr:stedsnr" v="429410" />
		<tag k="waterway" v="river" />
	</node>
	<node id="-452977" lat="60.1179083356" lon="6.58142500242">
		<tag k="name" v="Tysso" />
		<tag k="ssr:stedsnr" v="429121" />
		<tag k="waterway" v="river" />
	</node>
	<node id="-452970" lat="60.0167527755" lon="6.44293610935">
		<tag k="name" v="Svartenuttjørna" />
		<tag k="natural" v="water" />
		<tag k="ssr:stedsnr" v="429028" />
	</node>
	<node id="-452968" lat="60.0227138911" lon="6.56779999302">
		<tag k="name" v="Tjørnadalsfossen" />
		<tag k="natural" v="waterfall" />
		<tag k="ssr:stedsnr" v="429021" />
	</node>
	<node id="-452965" lat="59.7088361081" lon="6.71127500459">
		<tag k="name" v="Slettedalselva" />
		<tag k="ssr:stedsnr" v="428217" />
		<tag k="waterway" v="stream" />
	</node>
	<node id="-452957" lat="59.831299998" lon="6.88018888839">
		<tag k="name" v="Novlefoss" />
		<tag k="natural" v="waterfall" />
		<tag k="ssr:stedsnr" v="429214" />
	</node>
	<node id="-452956" lat="59.8616971397" lon="6.69391045001">
		<tag k="name" v="Gorsvatnet" />
		<tag k="natural" v="water" />
		<tag k="ssr:stedsnr" v="429206" />
	</node>
	<node id="-452951" lat="59.8963684262" lon="6.67012979591">
		<tag k="loc_name" v="Løyntjørna" />
		<tag k="name" v="Løyntjørni" />
		<tag k="natural" v="water" />
		<tag k="ssr:stedsnr" v="263505" />
	</node>
	<node id="-452945" lat="60.134719442" lon="6.75444445158">
		<tag k="name" v="Tyssestrengene" />
		<tag k="natural" v="waterfall" />
		<tag k="ssr:stedsnr" v="247443" />
	</node>
	<node id="-452939" lat="60.130863893" lon="6.74313055571">
		<tag k="name" v="Tysso" />
		<tag k="ssr:stedsnr" v="247398" />
		<tag k="waterway" v="river" />
	</node>
	<node id="-452934" lat="60.0900388864" lon="6.84005277128">
		<tag k="name" v="Nybuhylen" />
		<tag k="place" v="locality" />
		<tag k="ssr:stedsnr" v="247360" />
	</node>
	<node id="-452932" lat="60.0304083357" lon="6.8026222184">
		<tag k="name" v="Nordra Blåvatnet" />
		<tag k="natural" v="water" />
		<tag k="ssr:stedsnr" v="247336" />
		<tag k="water" v="lake" />
	</node>
	<node id="-452925" lat="60.1498805568" lon="6.52986665813">
		<tag k="name" v="Skyrfosselvi" />
		<tag k="ssr:stedsnr" v="247172" />
		<tag k="waterway" v="stream" />
	</node>
	<node id="-452917" lat="60.1028750032" lon="6.50324999876">
		<tag k="name" v="Skyrfoss" />
		<tag k="natural" v="waterfall" />
		<tag k="ssr:stedsnr" v="247112" />
	</node>
	<node id="-452916" lat="60.0961888861" lon="6.54881944067">
		<tag k="name" v="Slevebekken" />
		<tag k="ssr:stedsnr" v="247092" />
		<tag k="waterway" v="stream" />
	</node>
	<node id="-452908" lat="59.8106836722" lon="6.90123794108">
		<tag k="name" v="Austmannatjørna" />
		<tag k="natural" v="water" />
		<tag k="ssr:stedsnr" v="246764" />
	</node>
	<node id="-452905" lat="59.798750002" lon="6.77140833944">
		<tag k="name" v="Vikanes" />
		<tag k="natural" v="cape" />
		<tag k="ssr:stedsnr" v="246755" />
	</node>
	<node id="-452902" lat="59.9693028221" lon="6.54017016992">
		<tag k="name" v="Leitetjørn" />
		<tag k="natural" v="water" />
		<tag k="ssr:stedsnr" v="246400" />
	</node>
	<node id="-452901" lat="59.9650388894" lon="6.53413611089">
		<tag k="name" v="Andaretjørn" />
		<tag k="natural" v="water" />
		<tag k="ssr:stedsnr" v="246399" />
	</node>
	<node id="-452900" lat="59.9770614828" lon="6.51837316169">
		<tag k="name" v="Vierdalsloni" />
		<tag k="natural" v="water" />
		<tag k="ssr:stedsnr" v="246397" />
	</node>
	<node id="-452897" lat="59.9306638911" lon="6.66940556134">
		<tag k="name" v="Sandabekken" />
		<tag k="ssr:stedsnr" v="246174" />
		<tag k="waterway" v="stream" />
	</node>
	<node id="-452881" lat="60.0727277737" lon="6.52667499558">
		<tag k="name" v="Klungersetbekken" />
		<tag k="ssr:stedsnr" v="221546" />
		<tag k="waterway" v="stream" />
	</node>
	<node id="-452878" lat="60.1171916708" lon="6.577630562">
		<tag k="name" v="Klapphøl" />
		<tag k="place" v="locality" />
		<tag k="ssr:stedsnr" v="220742" />
	</node>
	<node id="-452869" lat="59.9040194427" lon="6.51625834222">
		<tag k="name" v="Stølselva" />
		<tag k="ssr:stedsnr" v="220551" />
		<tag k="waterway" v="river" />
	</node>
	<node id="-452861" lat="59.7481805539" lon="6.76432222923">
		<tag k="name" v="Holmabekken" />
		<tag k="ssr:stedsnr" v="220416" />
		<tag k="waterway" v="stream" />
	</node>
	<node id="-452847" lat="60.0223258012" lon="6.86217938924">
		<tag k="loc_name" v="Stora Buatjørna" />
		<tag k="name" v="Stora Buatjørni" />
		<tag k="natural" v="water" />
		<tag k="ssr:stedsnr" v="187332" />
	</node>
	<node id="-452844" lat="60.0388437819" lon="6.86565565414">
		<tag k="name" v="Hattasteinsvatnet" />
		<tag k="natural" v="water" />
		<tag k="ssr:stedsnr" v="187368" />
		<tag k="water" v="lake" />
	</node>
	<node id="-452840" lat="59.9226500021" lon="6.98566666083">
		<tag k="name" v="Trossovbekken" />
		<tag k="ssr:stedsnr" v="186857" />
		<tag k="waterway" v="stream" />
	</node>
	<node id="-452838" lat="59.9878456684" lon="7.17010359734">
		<tag k="name" v="Vassdalsvatnet" />
		<tag k="natural" v="water" />
		<tag k="ssr:stedsnr" v="186800" />
		<tag k="water" v="lake" />
	</node>
	<node id="-452837" lat="59.9553000039" lon="7.06162777429">
		<tag k="name" v="Trossovtjørna" />
		<tag k="natural" v="water" />
		<tag k="ssr:stedsnr" v="186788" />
	</node>
	<node id="-452833" lat="59.9898159445" lon="7.1143692259">
		<tag k="name" v="Skipstjørn" />
		<tag k="natural" v="water" />
		<tag k="ssr:stedsnr" v="186772" />
	</node>
	<node id="-452830" lat="59.7745896297" lon="6.74824522641">
		<tag k="name" v="Ekkjeskartjørna" />
		<tag k="natural" v="water" />
		<tag k="ssr:stedsnr" v="186821" />
	</node>
	<node id="-452829" lat="59.7718972226" lon="6.78294721791">
		<tag k="alt_name" v="Holmane" />
		<tag k="name" v="Harøyane" />
		<tag k="place" v="island" />
		<tag k="ssr:stedsnr" v="186818" />
	</node>
	<node id="-452826" lat="59.9423248937" lon="6.51449057449">
		<tag k="name" v="Høsetjørn" />
		<tag k="natural" v="water" />
		<tag k="ssr:stedsnr" v="186498" />
	</node>
	<node id="-452824" lat="59.9543381716" lon="6.54793790347">
		<tag k="name" v="Stølsvatnet" />
		<tag k="natural" v="water" />
		<tag k="ssr:stedsnr" v="186490" />
	</node>
	<node id="-452823" lat="60.1225888907" lon="6.6556666685">
		<tag k="name" v="Ringedalsvatnet" />
		<tag k="natural" v="water" />
		<tag k="ssr:stedsnr" v="186475" />
		<tag k="water" v="lake" />
	</node>
	<node id="-452822" lat="60.1163158716" lon="6.80277898453">
		<tag k="name" v="Langtjørn" />
		<tag k="natural" v="water" />
		<tag k="ssr:stedsnr" v="186467" />
	</node>
	<node id="-452817" lat="60.0604472181" lon="6.8909833301">
		<tag k="name" v="Breiaviki" />
		<tag k="natural" v="bay" />
		<tag k="ssr:stedsnr" v="186423" />
	</node>
	<node id="-452816" lat="60.0922694439" lon="6.93711111642">
		<tag k="name" v="Kvannanuttjørnane" />
		<tag k="natural" v="water" />
		<tag k="ssr:stedsnr" v="186417" />
	</node>
	<node id="-452815" lat="59.8284722216" lon="6.7787583375">
		<tag k="name" v="Indre Håranesbekken" />
		<tag k="ssr:stedsnr" v="186249" />
		<tag k="waterway" v="stream" />
	</node>
	<node id="-452808" lat="59.8701108719" lon="6.80947507453">
		<tag k="name" v="Tuftevotna" />
		<tag k="natural" v="water" />
		<tag k="ssr:stedsnr" v="186200" />
	</node>
	<node id="-452807" lat="59.840318446" lon="6.72587299516">
		<tag k="name" v="Elversvatnet" />
		<tag k="natural" v="water" />
		<tag k="ssr:stedsnr" v="186192" />
	</node>
	<node id="-452806" lat="59.9119666631" lon="6.60596111408">
		<tag k="name" v="Lontjørnane" />
		<tag k="natural" v="water" />
		<tag k="ssr:stedsnr" v="186177" />
	</node>
	<node id="-452801" lat="59.9448833372" lon="6.63997499415">
		<tag k="name" v="Daurmålsbekken" />
		<tag k="ssr:stedsnr" v="186141" />
		<tag k="waterway" v="stream" />
	</node>
	<node id="-452800" lat="59.9399500003" lon="6.71737777071">
		<tag k="name" v="Austdalselvi" />
		<tag k="ssr:stedsnr" v="186139" />
		<tag k="waterway" v="river" />
	</node>
	<node id="-452799" lat="59.9588361104" lon="6.96595556433">
		<tag k="name" v="Kjøtbekken" />
		<tag k="ssr:stedsnr" v="186130" />
		<tag k="waterway" v="stream" />
	</node>
	<node id="-452790" lat="59.967772107" lon="6.55162252185">
		<tag k="name" v="Svortetjørn" />
		<tag k="natural" v="water" />
		<tag k="ssr:stedsnr" v="185397" />
	</node>
	<node id="-452787" lat="59.7202715422" lon="6.75460036463">
		<tag k="name" v="Langatjørna" />
		<tag k="natural" v="water" />
		<tag k="ssr:stedsnr" v="185232" />
	</node>
	<node id="-452785" lat="59.8169805561" lon="6.78562222044">
		<tag k="name" v="Håravika" />
		<tag k="natural" v="bay" />
		<tag k="ssr:stedsnr" v="185203" />
	</node>
	<node id="-452768" lat="60.0587305542" lon="6.55223889141">
		<tag k="name" v="Øyna" />
		<tag k="place" v="island" />
		<tag k="ssr:stedsnr" v="160537" />
	</node>
	<node id="-452732" lat="59.7370249979" lon="6.75370278519">
		<tag k="name" v="Lono" />
		<tag k="natural" v="water" />
		<tag k="ssr:stedsnr" v="159276" />
		<tag k="water" v="lake" />
	</node>
	<node id="-452721" lat="60.0635555598" lon="7.00855000755">
		<tag k="name" v="Juklavotni" />
		<tag k="natural" v="water" />
		<tag k="ssr:stedsnr" v="127654" />
		<tag k="water" v="lake" />
	</node>
	<node id="-452720" lat="60.1555805585" lon="6.53601666853">
		<tag k="name" v="Digranesbekken" />
		<tag k="ssr:stedsnr" v="126187" />
		<tag k="waterway" v="stream" />
	</node>
	<node id="-452719" lat="60.1516250036" lon="6.51998611505">
		<tag k="name" v="Skyrfoss" />
		<tag k="natural" v="waterfall" />
		<tag k="ssr:stedsnr" v="126183" />
	</node>
	<node id="-452712" lat="59.9589330476" lon="7.17937928016">
		<tag k="name" v="Skurevatnet" />
		<tag k="natural" v="water" />
		<tag k="ssr:stedsnr" v="125787" />
		<tag k="water" v="lake" />
	</node>
	<node id="-452710" lat="59.8565888917" lon="7.14410278206">
		<tag k="name" v="Nupselva" />
		<tag k="ssr:stedsnr" v="125838" />
		<tag k="waterway" v="stream" />
	</node>
	<node id="-452707" lat="59.7929501572" lon="6.70115952215">
		<tag k="name" v="Langetjørn" />
		<tag k="natural" v="water" />
		<tag k="ssr:stedsnr" v="125802" />
	</node>
	<node id="-452705" lat="59.9130653556" lon="6.5541658639">
		<tag k="name" v="Grastjørn" />
		<tag k="natural" v="water" />
		<tag k="ssr:stedsnr" v="125495" />
	</node>
	<node id="-452697" lat="59.8763138856" lon="6.96346111262">
		<tag k="name" v="Middyrvatnet" />
		<tag k="natural" v="water" />
		<tag k="ssr:stedsnr" v="125248" />
		<tag k="water" v="lake" />
	</node>
	<node id="-452690" lat="59.904219448" lon="6.70006945228">
		<tag k="name" v="Tjukkedalsbekken" />
		<tag k="ssr:stedsnr" v="125166" />
		<tag k="waterway" v="stream" />
	</node>
	<node id="-452689" lat="59.9684888923" lon="6.77160554845">
		<tag k="name" v="Svartavatnet" />
		<tag k="natural" v="water" />
		<tag k="ssr:stedsnr" v="125158" />
	</node>
	<node id="-452688" lat="59.9860777821" lon="6.93463333397">
		<tag k="name" v="Olabubekken" />
		<tag k="ssr:stedsnr" v="125157" />
		<tag k="waterway" v="stream" />
	</node>
	<node id="-452686" lat="59.9622264924" lon="6.82130621079">
		<tag k="name" v="Øvstaloftsvatnet" />
		<tag k="natural" v="water" />
		<tag k="ssr:stedsnr" v="125136" />
	</node>
	<node id="-452684" lat="60.1197333336" lon="6.59273888927">
		<tag k="name" v="Rjukande" />
		<tag k="place" v="locality" />
		<tag k="ssr:stedsnr" v="125133" />
	</node>
	<node id="-452677" lat="60.0139109073" lon="6.45851343971">
		<tag k="name" v="Blåvatn" />
		<tag k="natural" v="water" />
		<tag k="ssr:stedsnr" v="125023" />
	</node>
	<node id="-452676" lat="60.0140694483" lon="6.48942499422">
		<tag k="name" v="Kvanndalsvatn" />
		<tag k="natural" v="water" />
		<tag k="ssr:stedsnr" v="125018" />
	</node>
	<node id="-452673" lat="59.7153468092" lon="6.78168819086">
		<tag k="name" v="Svartenuttjørna" />
		<tag k="natural" v="water" />
		<tag k="ssr:stedsnr" v="124190" />
	</node>
	<node id="-452671" lat="59.9876350614" lon="6.52516035478">
		<tag k="name" v="Midtstølsvatnet" />
		<tag k="natural" v="water" />
		<tag k="ssr:stedsnr" v="125439" />
		<tag k="water" v="lake" />
	</node>
	<node id="-452670" lat="59.989511541" lon="6.56537330824">
		<tag k="alt_name" v="Orøyni" />
		<tag k="name" v="Orrøyna" />
		<tag k="place" v="island" />
		<tag k="ssr:stedsnr" v="125437" />
	</node>
	<node id="-452668" lat="59.9978444463" lon="6.51538888261">
		<tag k="name" v="Midtstølsbekken" />
		<tag k="ssr:stedsnr" v="125430" />
		<tag k="waterway" v="stream" />
	</node>
	<node id="-452667" lat="59.9822222241" lon="6.51908889613">
		<tag k="name" v="Årebukti" />
		<tag k="place" v="locality" />
		<tag k="ssr:stedsnr" v="125431" />
	</node>
	<node id="-452666" lat="60.0539418149" lon="6.66312367686">
		<tag k="name" v="Vetlatjørn" />
		<tag k="natural" v="water" />
		<tag k="ssr:stedsnr" v="125410" />
	</node>
	<node id="-452649" lat="60.1188083369" lon="6.60396943628">
		<tag k="name" v="Smibekken" />
		<tag k="ssr:stedsnr" v="99710" />
		<tag k="waterway" v="stream" />
	</node>
	<node id="-452647" lat="60.0458222266" lon="6.47521666776">
		<tag k="name" v="Tindabekken" />
		<tag k="ssr:stedsnr" v="99645" />
		<tag k="waterway" v="stream" />
	</node>
	<node id="-452634" lat="59.8622777758" lon="6.85545000444">
		<tag k="name" v="Fellesteinsbekken" />
		<tag k="ssr:stedsnr" v="99484" />
		<tag k="waterway" v="stream" />
	</node>
	<node id="-452631" lat="59.9639993287" lon="6.53991176991">
		<tag k="alt_name" v="Midtstølsvatnet" />
		<tag k="name" v="Midtstølstjørnane" />
		<tag k="natural" v="water" />
		<tag k="ssr:stedsnr" v="99420" />
	</node>
	<node id="-452630" lat="60.0843333291" lon="6.51649166728">
		<tag k="name" v="Buksefoss" />
		<tag k="natural" v="waterfall" />
		<tag k="ssr:stedsnr" v="99398" />
	</node>
	<node id="-452626" lat="59.8150611082" lon="6.81628610433">
		<tag k="name" v="Gjertrabekk" />
		<tag k="ssr:stedsnr" v="99367" />
		<tag k="waterway" v="stream" />
	</node>
	<node id="-452625" lat="59.7843305532" lon="6.79003333166">
		<tag k="name" v="Stuvaledbekken" />
		<tag k="ssr:stedsnr" v="99364" />
		<tag k="waterway" v="stream" />
	</node>
	<node id="-452623" lat="59.7899083325" lon="6.76684444946">
		<tag k="name" v="Veslaelva" />
		<tag k="ssr:stedsnr" v="99316" />
		<tag k="waterway" v="river" />
	</node>
	<node id="-452621" lat="59.7822777759" lon="6.79276666714">
		<tag k="name" v="Kvernabekken" />
		<tag k="ssr:stedsnr" v="99298" />
		<tag k="waterway" v="stream" />
	</node>
	<node id="-452618" lat="59.7901570596" lon="6.80368714828">
		<tag k="name" v="Kringletjørn" />
		<tag k="natural" v="water" />
		<tag k="ssr:stedsnr" v="99294" />
	</node>
	<node id="-452616" lat="59.7707805513" lon="6.77622777686">
		<tag k="name" v="Holmavika" />
		<tag k="natural" v="bay" />
		<tag k="ssr:stedsnr" v="99285" />
	</node>
</osm>
