<?xml version="1.0" encoding="UTF-8"?>
<osm generator="osmapis" version="0.6">
	<node id="-451579" lat="60.1533055557" lon="6.55047499101">
		<tag k="name" v="Belgen" />
		<tag k="natural" v="cape" />
		<tag k="ssr:stedsnr" v="341742" />
	</node>
	<node id="-452470" lat="60.1306166637" lon="6.52526388639">
		<tag k="name" v="Øyane" />
		<tag k="place" v="islet" />
		<tag k="ssr:stedsnr" v="489157" />
	</node>
	<node id="-451702" lat="60.0775999973" lon="6.52924167527">
		<tag k="alt_name" v="Sanden" />
		<tag k="name" v="Stranda" />
		<tag k="natural" v="beach" />
		<tag k="place" v="locality" />
		<tag k="ssr:stedsnr" v="402623" />
	</node>
	<node id="-452972" lat="60.1668666629" lon="6.54923055984">
		<tag k="name" v="Storaneset" />
		<tag k="natural" v="cape" />
		<tag k="ssr:stedsnr" v="732218" />
	</node>
	<node id="-451684" lat="60.1227499975" lon="6.55321943836">
		<tag k="name" v="Sengjanes" />
		<tag k="natural" v="cape" />
		<tag k="ssr:stedsnr" v="402447" />
	</node>
	<node id="-451681" lat="60.0374694458" lon="6.54400554745">
		<tag k="name" v="Storenes" />
		<tag k="natural" v="cape" />
		<tag k="ssr:stedsnr" v="402414" />
	</node>
	<node id="-452445" lat="60.0921555515" lon="6.55015278064">
		<tag k="name" v="Tømmervik" />
		<tag k="natural" v="bay" />
		<tag k="ssr:stedsnr" v="463563" />
	</node>
	<node id="-453212" lat="60.1387223786" lon="6.56640571301">
		<tag k="alt_name" v="Raumoseneset;Raudmos" />
		<tag k="name" v="Raudmoseneset" />
		<tag k="natural" v="cape" />
		<tag k="ssr:stedsnr" v="828533" />
	</node>
	<node id="-452180" lat="60.0937388761" lon="6.53666630425">
		<tag k="name" v="Holmen" />
		<tag k="natural" v="cape" />
		<tag k="ssr:stedsnr" v="186099" />
	</node>
	<node id="-452557" lat="60.0482249968" lon="6.53906945285">
		<tag k="name" v="Stabbursnes" />
		<tag k="natural" v="cape" />
		<tag k="ssr:stedsnr" v="524344" />
	</node>
	<node id="-452810" lat="60.0840444463" lon="6.54914999313">
		<tag k="name" v="Kistevik" />
		<tag k="natural" v="bay" />
		<tag k="ssr:stedsnr" v="645545" />
	</node>
	<node id="-452936" lat="60.0492972211" lon="6.54229721937">
		<tag k="name" v="Hetlevik" />
		<tag k="natural" v="bay" />
		<tag k="ssr:stedsnr" v="706581" />
	</node>
	<node id="-453046" lat="60.087290526" lon="6.53160298874">
		<tag k="name" v="Eitrheimsvågen" />
		<tag k="natural" v="bay" />
		<tag k="ssr:stedsnr" v="766410" />
	</node>
	<node id="-452673" lat="60.0716111106" lon="6.54000277474">
		<tag k="name" v="Kleivavika" />
		<tag k="natural" v="bay" />
		<tag k="ssr:stedsnr" v="584427" />
	</node>
	<node id="-453309" lat="60.1264916702" lon="6.5392888931">
		<tag k="alt_name" v="Furenes" />
		<tag k="name" v="Fureneset" />
		<tag k="natural" v="cape" />
		<tag k="ssr:stedsnr" v="914147" />
	</node>
	<node id="-453302" lat="60.1461369675" lon="6.54395421947">
		<tag k="alt_name" v="Solnes" />
		<tag k="name" v="Solneset" />
		<tag k="natural" v="cape" />
		<tag k="ssr:stedsnr" v="915163" />
	</node>
	<node id="-452272" lat="60.0963888845" lon="6.54603332949">
		<tag k="alt_name" v="Lindeneset, vla" />
		<tag k="name" v="Indra Lindeneset" />
		<tag k="natural" v="cape" />
		<tag k="ssr:stedsnr" v="238097" />
	</node>
	<node id="-451759" lat="60.1719746073" lon="6.54767081398">
		<tag k="loc_name" v="Kvitnavika" />
		<tag k="name" v="Kvitnovik" />
		<tag k="natural" v="bay" />
		<tag k="ssr:stedsnr" v="893763" />
	</node>
	<node id="-453292" lat="60.1355500027" lon="6.56123333761">
		<tag k="fixme" v="multiple name tags, choose one and add the other to alt_name" />
		<tag k="name" v="Bergneset;Eikeneset" />
		<tag k="natural" v="cape" />
		<tag k="ssr:stedsnr" v="855619" />
	</node>
	<node id="-451625" lat="60.1258444403" lon="6.55626389482">
		<tag k="name" v="Bergneset" />
		<tag k="natural" v="cape" />
		<tag k="ssr:stedsnr" v="368182" />
	</node>
	<node id="-452514" lat="60.1514055568" lon="6.54915833789">
		<tag k="name" v="Eikeneset" />
		<tag k="natural" v="cape" />
		<tag k="ssr:stedsnr" v="490196" />
	</node>
	<node id="-452129" lat="60.0852555517" lon="6.5300861118">
		<tag k="name" v="Struten" />
		<tag k="natural" v="cape" />
		<tag k="ssr:stedsnr" v="159454" />
	</node>
	<node id="-452511" lat="60.1006250012" lon="6.54731943635">
		<tag k="alt_name" v="Ytra Lindeneset" />
		<tag k="name" v="Lindenes" />
		<tag k="natural" v="cape" />
		<tag k="ssr:stedsnr" v="490106" />
	</node>
	<node id="-453404" lat="60.1409999999" lon="6.5407888816">
		<tag k="name" v="Rotebekkneset" />
		<tag k="natural" v="cape" />
		<tag k="ssr:stedsnr" v="948754" />
	</node>
	<node id="-451887" lat="60.1119944412" lon="6.53726388841">
		<tag k="name" v="Mulaneset" />
		<tag k="natural" v="cape" />
		<tag k="ssr:stedsnr" v="43691" />
	</node>
	<node id="-451730" lat="60.0791638898" lon="6.55099999509">
		<tag k="name" v="Djupevik" />
		<tag k="natural" v="bay" />
		<tag k="ssr:stedsnr" v="888350" />
	</node>
	<node id="-451724" lat="60.1448796068" lon="6.54163335611">
		<tag k="name" v="Solstø" />
		<tag k="natural" v="cape" />
		<tag k="ssr:stedsnr" v="887695" />
	</node>
	<node id="-451457" lat="60.110922223" lon="6.5549611119">
		<tag k="name" v="Tveitabukta" />
		<tag k="natural" v="bay" />
		<tag k="old_name" v="Tveitabukt" />
		<tag k="ssr:stedsnr" v="286736" />
	</node>
	<node id="-451587" lat="60.1622057025" lon="6.54841031166">
		<tag k="name" v="Digranesvika" />
		<tag k="natural" v="bay" />
		<tag k="old_name" v="Digranesvik" />
		<tag k="ssr:stedsnr" v="346717" />
	</node>
	<node id="-452097" lat="60.0873444441" lon="6.53719722341">
		<tag k="name" v="Eitrheimsneset" />
		<tag k="natural" v="cape" />
		<tag k="ssr:stedsnr" v="126104" />
	</node>
</osm>
