<?xml version="1.0" encoding="UTF-8"?>
<osm version="0.6" generator="osmapis">
	<node id="251987263" lat="59.8883927" lon="11.099525" version="5" timestamp="2022-02-01T07:28:18Z" changeset="116853439" uid="3497659" user="NKA">
		<tag k="junction" v="yes" />
		<tag k="name" v="Tveitertørje" />
		<tag k="ssr:stedsnr" v="387650" />
	</node>
	<node id="961061080" lat="59.921804" lon="11.0738113" version="3" timestamp="2022-04-16T06:07:35Z" changeset="119772043" uid="3497659" user="NKA">
		<tag k="name" v="Fjerdingby" />
		<tag k="place" v="village" />
		<tag k="ssr:stedsnr" v="146589" />
	</node>
	<node id="1416247780" lat="59.936959" lon="11.026377" version="2" timestamp="2022-04-16T06:07:35Z" changeset="119772043" uid="3497659" user="NKA">
		<tag k="name" v="Løvenstad" />
		<tag k="place" v="suburb" />
		<tag k="ssr:stedsnr" v="429051" />
	</node>
	<node id="1416252230" lat="59.9313545" lon="11.0381079" version="2" timestamp="2022-04-16T06:07:35Z" changeset="119772043" uid="3497659" user="NKA">
		<tag k="name" v="Blystadlia" />
		<tag k="place" v="suburb" />
		<tag k="ssr:stedsnr" v="934516" />
	</node>
	<node id="2773375729" lat="59.8870177" lon="11.0470607" version="7" timestamp="2022-04-16T06:07:35Z" changeset="119772043" uid="3497659" user="NKA">
		<tag k="board_type" v="history" />
		<tag k="fixme" v="position" />
		<tag k="historic" v="shieling" />
		<tag k="historic:operator" v="Hektner" />
		<tag k="information" v="board" />
		<tag k="information:operator" v="Rælingen Historielag" />
		<tag k="name" v="Hektnersetra" />
		<tag k="place" v="locality" />
		<tag k="ssr:stedsnr" v="550179" />
		<tag k="tourism" v="information" />
	</node>
	<node id="2840720859" lat="59.8900374" lon="11.0704099" version="3" timestamp="2022-04-16T06:07:35Z" changeset="119772043" uid="3497659" user="NKA">
		<tag k="mrv:iid" v="178" />
		<tag k="name" v="Hesteberja" />
		<tag k="official_name" v="Hesteberga" />
		<tag k="place" v="locality" />
		<tag k="source" v="Rælingen Historielag" />
		<tag k="ssr:stedsnr" v="934619" />
	</node>
	<node id="2841192487" lat="59.8791604" lon="11.0864335" version="4" timestamp="2022-04-16T06:07:35Z" changeset="119772043" uid="3497659" user="NKA">
		<tag k="name" v="Grinitajet" />
		<tag k="place" v="hamlet" />
		<tag k="source" v="Rælingen Historielag" />
		<tag k="ssr:stedsnr" v="429167" />
	</node>
	<node id="2841192500" lat="59.8778916" lon="11.0423916" version="2" timestamp="2022-04-16T06:07:35Z" changeset="119772043" uid="3497659" user="NKA">
		<tag k="mrv:direction" v="90" />
		<tag k="mrv:iid" v="35" />
		<tag k="name" v="Romperud" />
		<tag k="place" v="croft" />
		<tag k="source:name" v="Rælingen Historielag" />
		<tag k="ssr:stedsnr" v="873390" />
	</node>
	<node id="2841211070" lat="59.9010061" lon="11.0928234" version="2" timestamp="2022-04-16T06:07:35Z" changeset="119772043" uid="3497659" user="NKA">
		<tag k="mrv:iid" v="45" />
		<tag k="name" v="Opsahl" />
		<tag k="official_name" v="Oppsal" />
		<tag k="place" v="neighbourhood" />
		<tag k="source" v="Rælingen Historielag" />
		<tag k="ssr:stedsnr" v="509711" />
	</node>
	<node id="2854058801" lat="59.8951657" lon="11.113608" version="2" timestamp="2022-04-16T06:07:35Z" changeset="119772043" uid="3497659" user="NKA">
		<tag k="mrv:iid" v="182" />
		<tag k="name" v="Buret" />
		<tag k="place" v="neighbourhood" />
		<tag k="source" v="Rælingen Historielag" />
		<tag k="ssr:stedsnr" v="23680" />
	</node>
	<node id="2854058821" lat="59.9064249" lon="11.0906199" version="2" timestamp="2022-04-16T06:07:35Z" changeset="119772043" uid="3497659" user="NKA">
		<tag k="mrv:iid" v="61" />
		<tag k="name" v="Myrvold" />
		<tag k="official_name" v="Myrvoll" />
		<tag k="place" v="neighbourhood" />
		<tag k="source" v="Rælingen Historielag" />
		<tag k="ssr:stedsnr" v="327711" />
	</node>
	<node id="2854058823" lat="59.9069228" lon="11.096928" version="3" timestamp="2022-04-16T06:07:35Z" changeset="119772043" uid="3497659" user="NKA">
		<tag k="historic" v="farm" />
		<tag k="mrv:iid" v="55" />
		<tag k="name" v="Nordre Smestad" />
		<tag k="place" v="neighbourhood" />
		<tag k="source" v="Rælingen Historielag" />
		<tag k="ssr:stedsnr" v="934720" />
	</node>
	<node id="2854058848" lat="59.9050372" lon="11.0968978" version="3" timestamp="2022-04-16T06:07:35Z" changeset="119772043" uid="3497659" user="NKA">
		<tag k="historic" v="farm" />
		<tag k="name" v="Søndre Smedstad" />
		<tag k="official_name" v="Søndre Smestad" />
		<tag k="place" v="neighbourhood" />
		<tag k="source" v="Rælingen Historielag" />
		<tag k="ssr:stedsnr" v="691730" />
	</node>
	<node id="2854058850" lat="59.8960886" lon="11.1131595" version="2" timestamp="2022-04-16T06:07:35Z" changeset="119772043" uid="3497659" user="NKA">
		<tag k="name" v="Trollykkja" />
		<tag k="place" v="neighbourhood" />
		<tag k="source" v="Rælingen Historielag" />
		<tag k="ssr:stedsnr" v="509607" />
	</node>
	<node id="3235796584" lat="59.8645537" lon="11.1040209" version="2" timestamp="2022-04-16T06:07:35Z" changeset="119772043" uid="3497659" user="NKA">
		<tag k="name" v="Fiskerbygda" />
		<tag k="official_name" v="Fiskebygda" />
		<tag k="place" v="neighbourhood" />
		<tag k="ssr:stedsnr" v="327590" />
	</node>
	<node id="6236538557" lat="59.8674612" lon="11.09335" version="2" timestamp="2022-04-16T06:07:35Z" changeset="119772043" uid="3497659" user="NKA">
		<tag k="name" v="Nordby" />
		<tag k="place" v="hamlet" />
		<tag k="ssr:stedsnr" v="550689" />
	</node>
	<node id="7983873103" lat="59.9059831" lon="11.0962579" version="5" timestamp="2022-04-16T06:07:35Z" changeset="119772043" uid="3497659" user="NKA">
		<tag k="alt_name" v="Smedstad" />
		<tag k="name" v="Smestad" />
		<tag k="place" v="village" />
		<tag k="population" v="2548" />
		<tag k="population:date" v="2021-01-01" />
		<tag k="ref:ssb_tettsted" v="0701" />
		<tag k="source:population" v="SSB - befolkning i tettstedet" />
		<tag k="ssr:stedsnr" v="369561" />
	</node>
	<node id="7983873110" lat="59.8577137" lon="11.0963221" version="5" timestamp="2022-04-16T06:07:35Z" changeset="119772043" uid="3497659" user="NKA">
		<tag k="name" v="Fjellstad" />
		<tag k="place" v="village" />
		<tag k="population" v="1007" />
		<tag k="population:date" v="2021-01-01" />
		<tag k="ref:ssb_tettsted" v="0702" />
		<tag k="source:population" v="SSB - befolkning i tettstedet" />
		<tag k="ssr:stedsnr" v="145609" />
	</node>
	<node id="9669574932" lat="59.93286" lon="11.0745011" version="1" timestamp="2022-04-16T06:07:35Z" changeset="119772043" uid="3497659" user="NKA">
		<tag k="name" v="Bålsrud" />
		<tag k="place" v="farm" />
		<tag k="ssr:stedsnr" v="267533" />
	</node>
	<node id="9669574933" lat="59.9149074" lon="11.0816484" version="1" timestamp="2022-04-16T06:07:35Z" changeset="119772043" uid="3497659" user="NKA">
		<tag k="name" v="Haug" />
		<tag k="place" v="hamlet" />
		<tag k="ssr:stedsnr" v="387735" />
	</node>
	<node id="9669574935" lat="59.9433139" lon="11.0564167" version="1" timestamp="2022-04-16T06:07:35Z" changeset="119772043" uid="3497659" user="NKA">
		<tag k="name" v="Borgen" />
		<tag k="place" v="neighbourhood" />
		<tag k="ssr:stedsnr" v="751729" />
	</node>
	<node id="9669574936" lat="59.930075" lon="11.0302528" version="1" timestamp="2022-04-16T06:07:35Z" changeset="119772043" uid="3497659" user="NKA">
		<tag k="name" v="Sandbekken" />
		<tag k="place" v="isolated_dwelling" />
		<tag k="ssr:stedsnr" v="490003" />
	</node>
	<node id="9669574937" lat="59.8931685" lon="11.1003095" version="1" timestamp="2022-04-16T06:07:35Z" changeset="119772043" uid="3497659" user="NKA">
		<tag k="name" v="Hektner" />
		<tag k="place" v="farm" />
		<tag k="ssr:stedsnr" v="915628" />
	</node>
	<node id="9669574938" lat="59.8951444" lon="11.0480277" version="1" timestamp="2022-04-16T06:07:35Z" changeset="119772043" uid="3497659" user="NKA">
		<tag k="name" v="Kommunehytta" />
		<tag k="place" v="isolated_dwelling" />
		<tag k="ssr:stedsnr" v="812403" />
	</node>
	<node id="9669574939" lat="59.8705736" lon="11.0958504" version="1" timestamp="2022-04-16T06:07:35Z" changeset="119772043" uid="3497659" user="NKA">
		<tag k="name" v="Svingen" />
		<tag k="place" v="farm" />
		<tag k="ssr:stedsnr" v="388596" />
	</node>
	<node id="9669574940" lat="59.9150372" lon="11.0824637" version="1" timestamp="2022-04-16T06:07:35Z" changeset="119772043" uid="3497659" user="NKA">
		<tag k="name" v="Nybakk" />
		<tag k="place" v="farm" />
		<tag k="ssr:stedsnr" v="84760" />
	</node>
	<node id="9669574941" lat="59.8587877" lon="11.104863" version="1" timestamp="2022-04-16T06:07:35Z" changeset="119772043" uid="3497659" user="NKA">
		<tag k="name" v="Uller" />
		<tag k="place" v="farm" />
		<tag k="ssr:stedsnr" v="611722" />
	</node>
	<node id="9669574942" lat="59.9302473" lon="11.0631389" version="1" timestamp="2022-04-16T06:07:35Z" changeset="119772043" uid="3497659" user="NKA">
		<tag k="alt_name" v="Sundhagan" />
		<tag k="name" v="Hagan" />
		<tag k="old_name" v="Hagen" />
		<tag k="place" v="isolated_dwelling" />
		<tag k="ssr:stedsnr" v="490001" />
	</node>
	<node id="9669574943" lat="59.8510993" lon="11.1108001" version="1" timestamp="2022-04-16T06:07:35Z" changeset="119772043" uid="3497659" user="NKA">
		<tag k="name" v="Narvestad" />
		<tag k="place" v="farm" />
		<tag k="ssr:stedsnr" v="429719" />
	</node>
	<node id="9669574944" lat="59.8837555" lon="11.0966666" version="1" timestamp="2022-04-16T06:07:35Z" changeset="119772043" uid="3497659" user="NKA">
		<tag k="name" v="Nordstua Jaer" />
		<tag k="place" v="farm" />
		<tag k="ssr:stedsnr" v="812685" />
	</node>
	<node id="9669574945" lat="59.855655" lon="11.1070446" version="1" timestamp="2022-04-16T06:07:35Z" changeset="119772043" uid="3497659" user="NKA">
		<tag k="name" v="By" />
		<tag k="place" v="hamlet" />
		<tag k="ssr:stedsnr" v="793741" />
	</node>
	<node id="9669574946" lat="59.8577322" lon="11.1039476" version="1" timestamp="2022-04-16T06:07:35Z" changeset="119772043" uid="3497659" user="NKA">
		<tag k="name" v="Sør-Uller" />
		<tag k="place" v="farm" />
		<tag k="ssr:stedsnr" v="267599" />
	</node>
	<node id="9669574947" lat="59.8499111" lon="11.0753833" version="1" timestamp="2022-04-16T06:07:35Z" changeset="119772043" uid="3497659" user="NKA">
		<tag k="name" v="Tyrigrava" />
		<tag k="place" v="locality" />
		<tag k="ssr:stedsnr" v="509646" />
	</node>
	<node id="9669574948" lat="59.885809" lon="11.1020921" version="1" timestamp="2022-04-16T06:07:35Z" changeset="119772043" uid="3497659" user="NKA">
		<tag k="name" v="Søstua Tveiter" />
		<tag k="place" v="farm" />
		<tag k="ssr:stedsnr" v="569655" />
	</node>
	<node id="9669574949" lat="59.8601472" lon="11.0983889" version="1" timestamp="2022-04-16T06:07:35Z" changeset="119772043" uid="3497659" user="NKA">
		<tag k="name" v="Karlstad" />
		<tag k="place" v="farm" />
		<tag k="ssr:stedsnr" v="793719" />
	</node>
	<node id="9669574950" lat="59.9197056" lon="11.0814393" version="1" timestamp="2022-04-16T06:07:35Z" changeset="119772043" uid="3497659" user="NKA">
		<tag k="name" v="Søgarden" />
		<tag k="place" v="farm" />
		<tag k="ssr:stedsnr" v="85492" />
	</node>
	<node id="9669574951" lat="59.8955277" lon="11.104119" version="1" timestamp="2022-04-16T06:07:35Z" changeset="119772043" uid="3497659" user="NKA">
		<tag k="name" v="Skogholt" />
		<tag k="place" v="farm" />
		<tag k="ssr:stedsnr" v="793674" />
	</node>
	<node id="9669574952" lat="59.9374402" lon="11.0588629" version="1" timestamp="2022-04-16T06:07:35Z" changeset="119772043" uid="3497659" user="NKA">
		<tag k="name" v="Øgården" />
		<tag k="place" v="neighbourhood" />
		<tag k="ssr:stedsnr" v="611063" />
	</node>
	<node id="9669574953" lat="59.8912285" lon="11.096307" version="1" timestamp="2022-04-16T06:07:35Z" changeset="119772043" uid="3497659" user="NKA">
		<tag k="name" v="Vestegarden" />
		<tag k="place" v="farm" />
		<tag k="ssr:stedsnr" v="448699" />
	</node>
	<node id="9669574954" lat="59.9341484" lon="11.060601" version="1" timestamp="2022-04-16T06:07:35Z" changeset="119772043" uid="3497659" user="NKA">
		<tag k="name" v="Norum" />
		<tag k="place" v="neighbourhood" />
		<tag k="ssr:stedsnr" v="569557" />
	</node>
	<node id="9669574955" lat="59.901875" lon="11.0919778" version="1" timestamp="2022-04-16T06:07:35Z" changeset="119772043" uid="3497659" user="NKA">
		<tag k="alt_name" v="Flateby" />
		<tag k="name" v="Flatby" />
		<tag k="place" v="farm" />
		<tag k="ssr:stedsnr" v="65632" />
	</node>
	<node id="9669574956" lat="59.9302278" lon="11.0301194" version="1" timestamp="2022-04-16T06:07:35Z" changeset="119772043" uid="3497659" user="NKA">
		<tag k="name" v="Blystadhytta" />
		<tag k="place" v="isolated_dwelling" />
		<tag k="ssr:stedsnr" v="630494" />
	</node>
	<node id="9669574957" lat="59.9224084" lon="11.0723237" version="1" timestamp="2022-04-16T06:07:35Z" changeset="119772043" uid="3497659" user="NKA">
		<tag k="name" v="Hauger" />
		<tag k="place" v="farm" />
		<tag k="ssr:stedsnr" v="368123" />
	</node>
	<node id="9669574958" lat="59.8709055" lon="11.0918501" version="1" timestamp="2022-04-16T06:07:35Z" changeset="119772043" uid="3497659" user="NKA">
		<tag k="name" v="Opphaugen" />
		<tag k="place" v="farm" />
		<tag k="ssr:stedsnr" v="145614" />
	</node>
	<node id="9669574959" lat="59.94195" lon="11.0591972" version="1" timestamp="2022-04-16T06:07:35Z" changeset="119772043" uid="3497659" user="NKA">
		<tag k="name" v="Berg" />
		<tag k="place" v="neighbourhood" />
		<tag k="ssr:stedsnr" v="691697" />
	</node>
	<node id="9669574960" lat="59.9040981" lon="11.0944433" version="1" timestamp="2022-04-16T06:07:35Z" changeset="119772043" uid="3497659" user="NKA">
		<tag k="name" v="Løvlia" />
		<tag k="place" v="neighbourhood" />
		<tag k="ssr:stedsnr" v="509699" />
	</node>
	<node id="9669574961" lat="59.8782083" lon="11.0897279" version="1" timestamp="2022-04-16T06:07:35Z" changeset="119772043" uid="3497659" user="NKA">
		<tag k="name" v="Øvergarden" />
		<tag k="place" v="farm" />
		<tag k="ssr:stedsnr" v="84678" />
	</node>
	<node id="9669574962" lat="59.8713972" lon="11.0949195" version="1" timestamp="2022-04-16T06:07:35Z" changeset="119772043" uid="3497659" user="NKA">
		<tag k="name" v="Nerhaugen" />
		<tag k="place" v="farm" />
		<tag k="ssr:stedsnr" v="509587" />
	</node>
	<node id="9669574963" lat="59.9119178" lon="11.0915125" version="1" timestamp="2022-04-16T06:07:35Z" changeset="119772043" uid="3497659" user="NKA">
		<tag k="name" v="Øvre Holt" />
		<tag k="place" v="farm" />
		<tag k="ssr:stedsnr" v="84763" />
	</node>
	<node id="9669574964" lat="59.8481555" lon="11.1253524" version="1" timestamp="2022-04-16T06:07:35Z" changeset="119772043" uid="3497659" user="NKA">
		<tag k="name" v="Teigen" />
		<tag k="place" v="farm" />
		<tag k="ssr:stedsnr" v="611748" />
	</node>
	<node id="9669574965" lat="59.8489889" lon="11.1220167" version="1" timestamp="2022-04-16T06:07:35Z" changeset="119772043" uid="3497659" user="NKA">
		<tag k="name" v="Bråten" />
		<tag k="place" v="farm" />
		<tag k="ssr:stedsnr" v="65739" />
	</node>
	<node id="9669574966" lat="59.8591111" lon="11.0931472" version="1" timestamp="2022-04-16T06:07:35Z" changeset="119772043" uid="3497659" user="NKA">
		<tag k="name" v="Løkka" />
		<tag k="place" v="neighbourhood" />
		<tag k="ssr:stedsnr" v="874629" />
	</node>
	<node id="9669574967" lat="59.9378195" lon="11.0522083" version="1" timestamp="2022-04-16T06:07:35Z" changeset="119772043" uid="3497659" user="NKA">
		<tag k="name" v="Øgardshøgda" />
		<tag k="place" v="neighbourhood" />
		<tag k="ssr:stedsnr" v="448572" />
	</node>
	<node id="9669574968" lat="59.9142444" lon="11.0863388" version="1" timestamp="2022-04-16T06:07:35Z" changeset="119772043" uid="3497659" user="NKA">
		<tag k="name" v="Holthagan" />
		<tag k="place" v="locality" />
		<tag k="ssr:stedsnr" v="812758" />
	</node>
	<node id="9669574969" lat="59.893709" lon="11.1004993" version="1" timestamp="2022-04-16T06:07:35Z" changeset="119772043" uid="3497659" user="NKA">
		<tag k="name" v="Nordre Hektner" />
		<tag k="place" v="farm" />
		<tag k="ssr:stedsnr" v="509613" />
	</node>
	<node id="9669574970" lat="59.8785638" lon="11.0834777" version="1" timestamp="2022-04-16T06:07:35Z" changeset="119772043" uid="3497659" user="NKA">
		<tag k="name" v="Grinibråtan" />
		<tag k="place" v="locality" />
		<tag k="ssr:stedsnr" v="874685" />
	</node>
	<node id="9669574971" lat="59.9128128" lon="11.092739" version="1" timestamp="2022-04-16T06:07:35Z" changeset="119772043" uid="3497659" user="NKA">
		<tag k="name" v="Holt" />
		<tag k="place" v="hamlet" />
		<tag k="ssr:stedsnr" v="65102" />
	</node>
	<node id="9669574972" lat="59.8700917" lon="11.0962667" version="1" timestamp="2022-04-16T06:07:35Z" changeset="119772043" uid="3497659" user="NKA">
		<tag k="name" v="Dølahaugen" />
		<tag k="place" v="hamlet" />
		<tag k="ssr:stedsnr" v="206590" />
	</node>
	<node id="9669574973" lat="59.9270833" lon="11.0598055" version="1" timestamp="2022-04-16T06:07:35Z" changeset="119772043" uid="3497659" user="NKA">
		<tag k="alt_name" v="Nygard" />
		<tag k="name" v="Nygård" />
		<tag k="place" v="isolated_dwelling" />
		<tag k="ssr:stedsnr" v="550004" />
	</node>
	<node id="9669574974" lat="59.9018233" lon="11.0942168" version="1" timestamp="2022-04-16T06:07:35Z" changeset="119772043" uid="3497659" user="NKA">
		<tag k="name" v="Norum" />
		<tag k="place" v="farm" />
		<tag k="ssr:stedsnr" v="84757" />
	</node>
	<node id="9669574975" lat="59.8931711" lon="11.1158897" version="1" timestamp="2022-04-16T06:07:35Z" changeset="119772043" uid="3497659" user="NKA">
		<tag k="name" v="Årnes" />
		<tag k="place" v="hamlet" />
		<tag k="ssr:stedsnr" v="125659" />
	</node>
	<node id="9669574976" lat="59.8829512" lon="11.0953496" version="1" timestamp="2022-04-16T06:07:35Z" changeset="119772043" uid="3497659" user="NKA">
		<tag k="name" v="Søstua Jaer" />
		<tag k="place" v="farm" />
		<tag k="ssr:stedsnr" v="144674" />
	</node>
	<node id="9669574977" lat="59.8650259" lon="11.1000131" version="1" timestamp="2022-04-16T06:07:35Z" changeset="119772043" uid="3497659" user="NKA">
		<tag k="alt_name" v="Tomta" />
		<tag k="name" v="Tomter" />
		<tag k="place" v="farm" />
		<tag k="ssr:stedsnr" v="550687" />
	</node>
	<node id="9669574978" lat="59.9237583" lon="11.08485" version="1" timestamp="2022-04-16T06:07:35Z" changeset="119772043" uid="3497659" user="NKA">
		<tag k="name" v="Enga" />
		<tag k="place" v="locality" />
		<tag k="ssr:stedsnr" v="206548" />
	</node>
	<node id="9669574979" lat="59.9042222" lon="11.090318" version="1" timestamp="2022-04-16T06:07:35Z" changeset="119772043" uid="3497659" user="NKA">
		<tag k="name" v="Skoglund" />
		<tag k="place" v="farm" />
		<tag k="ssr:stedsnr" v="812756" />
	</node>
	<node id="9669574980" lat="59.8997528" lon="11.0931112" version="1" timestamp="2022-04-16T06:07:35Z" changeset="119772043" uid="3497659" user="NKA">
		<tag k="name" v="Slette" />
		<tag k="old_name" v="Stette" />
		<tag k="place" v="locality" />
		<tag k="ssr:stedsnr" v="125656" />
	</node>
	<node id="9669574981" lat="59.8750571" lon="11.1043973" version="1" timestamp="2022-04-16T06:07:35Z" changeset="119772043" uid="3497659" user="NKA">
		<tag k="name" v="Nordstua Nes" />
		<tag k="place" v="farm" />
		<tag k="ssr:stedsnr" v="934614" />
	</node>
	<node id="9669574982" lat="59.9254361" lon="11.058825" version="1" timestamp="2022-04-16T06:07:35Z" changeset="119772043" uid="3497659" user="NKA">
		<tag k="name" v="Korsvegen" />
		<tag k="place" v="farm" />
		<tag k="ssr:stedsnr" v="672001" />
	</node>
	<node id="9669574983" lat="59.844225" lon="11.0863888" version="1" timestamp="2022-04-16T06:07:35Z" changeset="119772043" uid="3497659" user="NKA">
		<tag k="name" v="Byseter" />
		<tag k="place" v="locality" />
		<tag k="ssr:stedsnr" v="448727" />
	</node>
	<node id="9669574984" lat="59.9392555" lon="11.0637916" version="1" timestamp="2022-04-16T06:07:35Z" changeset="119772043" uid="3497659" user="NKA">
		<tag k="name" v="Nyland" />
		<tag k="place" v="neighbourhood" />
		<tag k="ssr:stedsnr" v="509556" />
	</node>
	<node id="9669574985" lat="59.8839746" lon="11.0969081" version="1" timestamp="2022-04-16T06:07:35Z" changeset="119772043" uid="3497659" user="NKA">
		<tag k="name" v="Jar" />
		<tag k="place" v="farm" />
		<tag k="ssr:stedsnr" v="187628" />
	</node>
	<node id="9669574986" lat="59.9298672" lon="11.0789626" version="1" timestamp="2022-04-16T06:07:35Z" changeset="119772043" uid="3497659" user="NKA">
		<tag k="name" v="Ensrud" />
		<tag k="place" v="isolated_dwelling" />
		<tag k="ssr:stedsnr" v="429007" />
	</node>
	<node id="9669574987" lat="59.845475" lon="11.0277749" version="1" timestamp="2022-04-16T06:07:35Z" changeset="119772043" uid="3497659" user="NKA">
		<tag k="name" v="Bokhytta" />
		<tag k="place" v="isolated_dwelling" />
		<tag k="ssr:stedsnr" v="448427" />
	</node>
	<node id="9669574988" lat="59.8710305" lon="11.0890167" version="1" timestamp="2022-04-16T06:07:35Z" changeset="119772043" uid="3497659" user="NKA">
		<tag k="alt_name" v="Hestløkka" />
		<tag k="name" v="Hesteløkka" />
		<tag k="place" v="isolated_dwelling" />
		<tag k="ssr:stedsnr" v="247118" />
	</node>
	<node id="9669574989" lat="59.8621097" lon="11.1032521" version="1" timestamp="2022-04-16T06:07:35Z" changeset="119772043" uid="3497659" user="NKA">
		<tag k="name" v="Østby" />
		<tag k="place" v="isolated_dwelling" />
		<tag k="ssr:stedsnr" v="874636" />
	</node>
	<node id="9669574990" lat="59.8759479" lon="11.0919037" version="1" timestamp="2022-04-16T06:07:35Z" changeset="119772043" uid="3497659" user="NKA">
		<tag k="alt_name" v="Grini Søgarden" />
		<tag k="name" v="Søgarden Grini" />
		<tag k="place" v="farm" />
		<tag k="ssr:stedsnr" v="751685" />
	</node>
	<node id="9669574991" lat="59.8653182" lon="11.1054042" version="1" timestamp="2022-04-16T06:07:35Z" changeset="119772043" uid="3497659" user="NKA">
		<tag k="name" v="Berget" />
		<tag k="place" v="neighbourhood" />
		<tag k="ssr:stedsnr" v="186726" />
	</node>
	<node id="9669574992" lat="59.898825" lon="11.1000223" version="1" timestamp="2022-04-16T06:07:35Z" changeset="119772043" uid="3497659" user="NKA">
		<tag k="name" v="Hagan" />
		<tag k="place" v="farm" />
		<tag k="ssr:stedsnr" v="732663" />
	</node>
	<node id="9669574993" lat="59.9356799" lon="11.0634234" version="1" timestamp="2022-04-16T06:07:35Z" changeset="119772043" uid="3497659" user="NKA">
		<tag k="name" v="Øvre Åmot" />
		<tag k="place" v="farm" />
		<tag k="ssr:stedsnr" v="267537" />
	</node>
	<node id="9669574994" lat="59.8900731" lon="11.0996455" version="1" timestamp="2022-04-16T06:07:35Z" changeset="119772043" uid="3497659" user="NKA">
		<tag k="name" v="Østegarden" />
		<tag k="place" v="farm" />
		<tag k="ssr:stedsnr" v="611671" />
	</node>
	<node id="9669574995" lat="59.9362444" lon="11.0708527" version="1" timestamp="2022-04-16T06:07:35Z" changeset="119772043" uid="3497659" user="NKA">
		<tag k="name" v="Tangen" />
		<tag k="place" v="neighbourhood" />
		<tag k="ssr:stedsnr" v="85501" />
	</node>
	<node id="9669574996" lat="59.8606472" lon="11.0185305" version="1" timestamp="2022-04-16T06:07:35Z" changeset="119772043" uid="3497659" user="NKA">
		<tag k="name" v="Morterudkoia" />
		<tag k="place" v="isolated_dwelling" />
		<tag k="ssr:stedsnr" v="915198" />
	</node>
	<node id="9669574997" lat="59.8415108" lon="11.1404471" version="1" timestamp="2022-04-16T06:07:35Z" changeset="119772043" uid="3497659" user="NKA">
		<tag k="name" v="Sofiedal" />
		<tag k="place" v="isolated_dwelling" />
		<tag k="ssr:stedsnr" v="794747" />
	</node>
	<node id="9669574998" lat="59.947875" lon="11.03095" version="1" timestamp="2022-04-16T06:07:35Z" changeset="119772043" uid="3497659" user="NKA">
		<tag k="alt_name" v="Strøm, østre" />
		<tag k="name" v="Østre Strøm" />
		<tag k="place" v="farm" />
		<tag k="ssr:stedsnr" v="550047" />
	</node>
	<node id="9669574999" lat="59.9270834" lon="11.0770251" version="1" timestamp="2022-04-16T06:07:35Z" changeset="119772043" uid="3497659" user="NKA">
		<tag k="name" v="Lund" />
		<tag k="place" v="farm" />
		<tag k="ssr:stedsnr" v="125005" />
	</node>
	<node id="9669575000" lat="59.9483167" lon="11.0244945" version="1" timestamp="2022-04-16T06:07:35Z" changeset="119772043" uid="3497659" user="NKA">
		<tag k="alt_name" v="Strøm, vestre" />
		<tag k="name" v="Vestre Strøm" />
		<tag k="place" v="farm" />
		<tag k="ssr:stedsnr" v="611046" />
	</node>
	<node id="9669575001" lat="59.8777657" lon="11.0924118" version="1" timestamp="2022-04-16T06:07:35Z" changeset="119772043" uid="3497659" user="NKA">
		<tag k="alt_name" v="Grini Øststua" />
		<tag k="name" v="Grini" />
		<tag k="place" v="farm" />
		<tag k="ssr:stedsnr" v="66501" />
	</node>
	<node id="9669575002" lat="59.9031666" lon="11.0919017" version="1" timestamp="2022-04-16T06:07:35Z" changeset="119772043" uid="3497659" user="NKA">
		<tag k="name" v="Fjell" />
		<tag k="place" v="neighbourhood" />
		<tag k="ssr:stedsnr" v="387733" />
	</node>
	<node id="9669575003" lat="59.9163028" lon="11.0868499" version="1" timestamp="2022-04-16T06:07:35Z" changeset="119772043" uid="3497659" user="NKA">
		<tag k="name" v="Haugen" />
		<tag k="place" v="farm" />
		<tag k="ssr:stedsnr" v="126101" />
	</node>
	<node id="9669575004" lat="59.890475" lon="11.0207499" version="1" timestamp="2022-04-16T06:07:35Z" changeset="119772043" uid="3497659" user="NKA">
		<tag k="name" v="Djupdalshytta" />
		<tag k="place" v="isolated_dwelling" />
		<tag k="ssr:stedsnr" v="551087" />
	</node>
	<node id="9669575005" lat="59.9368894" lon="11.0645349" version="1" timestamp="2022-04-16T06:07:35Z" changeset="119772043" uid="3497659" user="NKA">
		<tag k="name" v="Nedre Åmot" />
		<tag k="place" v="farm" />
		<tag k="ssr:stedsnr" v="752550" />
	</node>
	<node id="9669575006" lat="59.868516" lon="11.0955328" version="1" timestamp="2022-04-16T06:07:35Z" changeset="119772043" uid="3497659" user="NKA">
		<tag k="name" v="Kikut" />
		<tag k="place" v="isolated_dwelling" />
		<tag k="ssr:stedsnr" v="388603" />
	</node>
	<node id="9669575007" lat="59.9211821" lon="11.0796044" version="1" timestamp="2022-04-16T06:07:35Z" changeset="119772043" uid="3497659" user="NKA">
		<tag k="name" v="Tajet" />
		<tag k="place" v="farm" />
		<tag k="ssr:stedsnr" v="692560" />
	</node>
	<node id="9669575008" lat="59.9314834" lon="11.0778761" version="1" timestamp="2022-04-16T06:07:35Z" changeset="119772043" uid="3497659" user="NKA">
		<tag k="name" v="Sundet" />
		<tag k="place" v="farm" />
		<tag k="ssr:stedsnr" v="550008" />
	</node>
	<node id="9669575009" lat="59.9222928" lon="11.0774577" version="1" timestamp="2022-04-16T06:07:35Z" changeset="119772043" uid="3497659" user="NKA">
		<tag k="name" v="Nordgarden" />
		<tag k="place" v="farm" />
		<tag k="ssr:stedsnr" v="24579" />
	</node>
	<node id="9669575010" lat="59.8734555" lon="11.0937918" version="1" timestamp="2022-04-16T06:07:35Z" changeset="119772043" uid="3497659" user="NKA">
		<tag k="name" v="Neshagan" />
		<tag k="place" v="locality" />
		<tag k="ssr:stedsnr" v="752594" />
	</node>
	<node id="9669575011" lat="59.947161" lon="11.0403161" version="1" timestamp="2022-04-16T06:07:35Z" changeset="119772043" uid="3497659" user="NKA">
		<tag k="name" v="Rud" />
		<tag k="place" v="farm" />
		<tag k="ssr:stedsnr" v="490051" />
	</node>
	<node id="9669575012" lat="59.8886789" lon="11.0922041" version="1" timestamp="2022-04-16T06:07:35Z" changeset="119772043" uid="3497659" user="NKA">
		<tag k="name" v="Ramstad" />
		<tag k="place" v="farm" />
		<tag k="ssr:stedsnr" v="611081" />
	</node>
	<node id="9669575013" lat="59.8642194" lon="11.1029333" version="1" timestamp="2022-04-16T06:07:35Z" changeset="119772043" uid="3497659" user="NKA">
		<tag k="name" v="Flaen" />
		<tag k="place" v="neighbourhood" />
		<tag k="ssr:stedsnr" v="85539" />
	</node>
	<node id="9669575014" lat="59.9259135" lon="11.0704728" version="1" timestamp="2022-04-16T06:07:35Z" changeset="119772043" uid="3497659" user="NKA">
		<tag k="name" v="Bjørnholt" />
		<tag k="place" v="farm" />
		<tag k="ssr:stedsnr" v="793002" />
	</node>
	<node id="9669575015" lat="59.8587316" lon="11.1032328" version="1" timestamp="2022-04-16T06:07:35Z" changeset="119772043" uid="3497659" user="NKA">
		<tag k="name" v="Stuetomta" />
		<tag k="place" v="isolated_dwelling" />
		<tag k="ssr:stedsnr" v="813608" />
	</node>
	<node id="9669575016" lat="59.8788549" lon="11.091882" version="1" timestamp="2022-04-16T06:07:35Z" changeset="119772043" uid="3497659" user="NKA">
		<tag k="alt_name" v="Grini Nordgarden" />
		<tag k="name" v="Nordgarden Grini" />
		<tag k="place" v="farm" />
		<tag k="ssr:stedsnr" v="144681" />
	</node>
	<node id="9669579017" lat="59.8752719" lon="11.1016953" version="1" timestamp="2022-04-16T06:07:35Z" changeset="119772043" uid="3497659" user="NKA">
		<tag k="name" v="Søstua Nes" />
		<tag k="place" v="farm" />
		<tag k="ssr:stedsnr" v="205699" />
	</node>
	<node id="9669579018" lat="59.8959439" lon="11.1023934" version="1" timestamp="2022-04-16T06:07:35Z" changeset="119772043" uid="3497659" user="NKA">
		<tag k="name" v="Solbu" />
		<tag k="place" v="farm" />
		<tag k="ssr:stedsnr" v="812678" />
	</node>
	<node id="9669579019" lat="59.9019037" lon="11.1003947" version="1" timestamp="2022-04-16T06:07:35Z" changeset="119772043" uid="3497659" user="NKA">
		<tag k="name" v="Støtterud" />
		<tag k="place" v="farm" />
		<tag k="ssr:stedsnr" v="186677" />
	</node>
	<node id="9669579020" lat="59.8857142" lon="11.103772" version="1" timestamp="2022-04-16T06:07:35Z" changeset="119772043" uid="3497659" user="NKA">
		<tag k="name" v="Tveiter" />
		<tag k="place" v="farm" />
		<tag k="ssr:stedsnr" v="126648" />
	</node>
	<node id="9669579021" lat="59.8704639" lon="11.0835888" version="1" timestamp="2022-04-16T06:07:35Z" changeset="119772043" uid="3497659" user="NKA">
		<tag k="name" v="Oppvestby" />
		<tag k="place" v="hamlet" />
		<tag k="ssr:stedsnr" v="813596" />
	</node>
	<node id="9669579022" lat="59.9090548" lon="11.098905" version="1" timestamp="2022-04-16T06:07:35Z" changeset="119772043" uid="3497659" user="NKA">
		<tag k="name" v="Oleberg" />
		<tag k="place" v="isolated_dwelling" />
		<tag k="ssr:stedsnr" v="23765" />
	</node>
	<node id="9669579023" lat="59.8846711" lon="11.1046664" version="1" timestamp="2022-04-16T06:07:35Z" changeset="119772043" uid="3497659" user="NKA">
		<tag k="name" v="Nesøgarden" />
		<tag k="place" v="farm" />
		<tag k="ssr:stedsnr" v="873617" />
	</node>
	<node id="9669579024" lat="59.9360445" lon="11.0654681" version="1" timestamp="2022-04-16T06:07:35Z" changeset="119772043" uid="3497659" user="NKA">
		<tag k="name" v="Åmot" />
		<tag k="place" v="farm" />
		<tag k="ssr:stedsnr" v="126060" />
	</node>
	<node id="9669579025" lat="59.9122209" lon="11.0810023" version="1" timestamp="2022-04-16T06:07:35Z" changeset="119772043" uid="3497659" user="NKA">
		<tag k="name" v="Sørli" />
		<tag k="place" v="farm" />
		<tag k="ssr:stedsnr" v="691724" />
	</node>
	<node id="9669579026" lat="59.8693529" lon="11.0980131" version="1" timestamp="2022-04-16T06:07:35Z" changeset="119772043" uid="3497659" user="NKA">
		<tag k="name" v="Lindemark" />
		<tag k="place" v="isolated_dwelling" />
		<tag k="ssr:stedsnr" v="145619" />
	</node>
	<node id="9669579027" lat="59.8532945" lon="11.1023667" version="1" timestamp="2022-04-16T06:07:35Z" changeset="119772043" uid="3497659" user="NKA">
		<tag k="name" v="Smedbakken" />
		<tag k="place" v="locality" />
		<tag k="ssr:stedsnr" v="205726" />
	</node>
	<node id="9669579028" lat="59.8833389" lon="11.1008528" version="1" timestamp="2022-04-16T06:07:35Z" changeset="119772043" uid="3497659" user="NKA">
		<tag k="name" v="Jaersjordet" />
		<tag k="place" v="farm" />
		<tag k="ssr:stedsnr" v="873621" />
	</node>
	<node id="9669579029" lat="59.919292" lon="11.0757862" version="1" timestamp="2022-04-16T06:07:35Z" changeset="119772043" uid="3497659" user="NKA">
		<tag k="name" v="Kirkeby" />
		<tag k="place" v="neighbourhood" />
		<tag k="ssr:stedsnr" v="570521" />
	</node>
	<node id="9669579030" lat="59.8783431" lon="11.1095037" version="1" timestamp="2022-04-16T06:07:35Z" changeset="119772043" uid="3497659" user="NKA">
		<tag k="name" v="Fetta" />
		<tag k="place" v="isolated_dwelling" />
		<tag k="ssr:stedsnr" v="144686" />
	</node>
	<node id="9669579031" lat="59.8986694" lon="11.1105361" version="1" timestamp="2022-04-16T06:07:35Z" changeset="119772043" uid="3497659" user="NKA">
		<tag k="name" v="Nordhagan" />
		<tag k="place" v="farm" />
		<tag k="ssr:stedsnr" v="550619" />
	</node>
	<node id="9669579032" lat="59.8768419" lon="11.0903038" version="1" timestamp="2022-04-16T06:07:35Z" changeset="119772043" uid="3497659" user="NKA">
		<tag k="name" v="Oppistua" />
		<tag k="place" v="farm" />
		<tag k="ssr:stedsnr" v="691644" />
	</node>
	<node id="9669579033" lat="59.9085528" lon="11.0507221" version="1" timestamp="2022-04-16T06:07:35Z" changeset="119772043" uid="3497659" user="NKA">
		<tag k="loc_name" v="Røde Kors-hytta" />
		<tag k="name" v="Røde Kors hytta" />
		<tag k="place" v="isolated_dwelling" />
		<tag k="ssr:stedsnr" v="23458" />
	</node>
	<node id="9669579034" lat="59.9124739" lon="11.0901426" version="1" timestamp="2022-04-16T06:07:35Z" changeset="119772043" uid="3497659" user="NKA">
		<tag k="name" v="Vestby" />
		<tag k="place" v="neighbourhood" />
		<tag k="ssr:stedsnr" v="812766" />
	</node>
	<node id="9669579035" lat="59.886842" lon="11.1028127" version="1" timestamp="2022-04-16T06:07:35Z" changeset="119772043" uid="3497659" user="NKA">
		<tag k="alt_name" v="Tveiter Nordgarden" />
		<tag k="name" v="Nordgarden Tveiter" />
		<tag k="place" v="farm" />
		<tag k="ssr:stedsnr" v="144671" />
	</node>
	<node id="9669579036" lat="59.891734" lon="11.0981208" version="1" timestamp="2022-04-16T06:07:35Z" changeset="119772043" uid="3497659" user="NKA">
		<tag k="name" v="Søndre Hektner" />
		<tag k="place" v="farm" />
		<tag k="ssr:stedsnr" v="84682" />
	</node>
	<node id="9669579037" lat="59.8602932" lon="11.1041373" version="1" timestamp="2022-04-16T06:07:35Z" changeset="119772043" uid="3497659" user="NKA">
		<tag k="name" v="Ner-Uller" />
		<tag k="place" v="farm" />
		<tag k="ssr:stedsnr" v="85545" />
	</node>
	<node id="9669579038" lat="59.9143413" lon="11.0930218" version="1" timestamp="2022-04-16T06:07:35Z" changeset="119772043" uid="3497659" user="NKA">
		<tag k="name" v="Nedre Holt" />
		<tag k="place" v="farm" />
		<tag k="ssr:stedsnr" v="84761" />
	</node>
	<node id="9669579039" lat="59.949925" lon="11.0422444" version="1" timestamp="2022-04-16T06:07:35Z" changeset="119772043" uid="3497659" user="NKA">
		<tag k="name" v="Rudsberget" />
		<tag k="place" v="isolated_dwelling" />
		<tag k="ssr:stedsnr" v="751727" />
	</node>
	<node id="9669579040" lat="59.9483472" lon="11.03705" version="1" timestamp="2022-04-16T06:07:35Z" changeset="119772043" uid="3497659" user="NKA">
		<tag k="name" v="Strømsborg" />
		<tag k="place" v="neighbourhood" />
		<tag k="ssr:stedsnr" v="448738" />
	</node>
	<node id="9669579041" lat="59.8754279" lon="11.1034562" version="1" timestamp="2022-04-16T06:07:35Z" changeset="119772043" uid="3497659" user="NKA">
		<tag k="name" v="Nes" />
		<tag k="place" v="hamlet" />
		<tag k="ssr:stedsnr" v="65683" />
	</node>
	<node id="9669579042" lat="59.9057666" lon="11.1035539" version="1" timestamp="2022-04-16T06:07:35Z" changeset="119772043" uid="3497659" user="NKA">
		<tag k="name" v="Støa" />
		<tag k="place" v="farm" />
		<tag k="ssr:stedsnr" v="144748" />
	</node>
	<node id="2841211084" lat="59.8956877" lon="11.0921646" version="1" timestamp="2014-05-07T06:18:55Z" changeset="22180146" uid="11992" user="vibrog" />
	<node id="2841211085" lat="59.8957358" lon="11.091727" version="1" timestamp="2014-05-07T06:18:55Z" changeset="22180146" uid="11992" user="vibrog" />
	<node id="2841211086" lat="59.8957917" lon="11.0915121" version="1" timestamp="2014-05-07T06:18:55Z" changeset="22180146" uid="11992" user="vibrog" />
	<node id="2841211087" lat="59.8958995" lon="11.0914162" version="1" timestamp="2014-05-07T06:18:55Z" changeset="22180146" uid="11992" user="vibrog" />
	<node id="2841211088" lat="59.8959803" lon="11.092556" version="1" timestamp="2014-05-07T06:18:55Z" changeset="22180146" uid="11992" user="vibrog" />
	<node id="2841211089" lat="59.8960573" lon="11.0914277" version="1" timestamp="2014-05-07T06:18:55Z" changeset="22180146" uid="11992" user="vibrog" />
	<node id="2841211090" lat="59.8961767" lon="11.0921722" version="1" timestamp="2014-05-07T06:18:55Z" changeset="22180146" uid="11992" user="vibrog" />
	<node id="2841211091" lat="59.8962922" lon="11.0918038" version="1" timestamp="2014-05-07T06:18:55Z" changeset="22180146" uid="11992" user="vibrog" />
	<way id="279940059" version="2" timestamp="2022-04-16T06:07:35Z" changeset="119772043" uid="3497659" user="NKA">
		<tag k="landuse" v="residential" />
		<tag k="mrv:iid" v="178" />
		<tag k="name" v="Solli" />
		<tag k="place" v="croft" />
		<tag k="source" v="Rælingen Historielag" />
		<tag k="ssr:stedsnr" v="509610" />
		<nd ref="2841211091" />
		<nd ref="2841211090" />
		<nd ref="2841211088" />
		<nd ref="2841211084" />
		<nd ref="2841211085" />
		<nd ref="2841211086" />
		<nd ref="2841211087" />
		<nd ref="2841211089" />
		<nd ref="2841211091" />
	</way>
</osm>
