<?xml version="1.0" encoding="UTF-8"?>
<osm generator="osmapis" version="0.6">
	<node id="-171648" lat="60.7991222198" lon="8.82907499548">
		<tag k="name" v="Horkanmyran" />
		<tag k="natural" v="wetland" />
		<tag k="ssr:stedsnr" v="423700" />
	</node>
	<node id="-172160" lat="60.7641361108" lon="8.95822777992">
		<tag k="alt_name" v="Julsanmyran;Julsanmyr" />
		<tag k="loc_name" v="Julsonmyran" />
		<tag k="name" v="Jørsnamyran" />
		<tag k="natural" v="wetland" />
		<tag k="old_name" v="Julsanmyrann" />
		<tag k="ssr:stedsnr" v="797286" />
	</node>
	<node id="-172297" lat="60.8130055524" lon="8.79407500519">
		<tag k="name" v="Storemyre" />
		<tag k="natural" v="wetland" />
		<tag k="ssr:stedsnr" v="919216" />
	</node>
	<node id="-171130" lat="60.7288944472" lon="9.04720833491">
		<tag k="name" v="Raudbekkmyre" />
		<tag k="natural" v="wetland" />
		<tag k="ssr:stedsnr" v="343821" />
	</node>
	<node id="-171561" lat="60.842947224" lon="8.8252527813">
		<tag k="name" v="Storemyr" />
		<tag k="natural" v="wetland" />
		<tag k="ssr:stedsnr" v="220539" />
	</node>
	<node id="-171380" lat="60.8122777779" lon="8.79279443819">
		<tag k="name" v="Kringitjern" />
		<tag k="natural" v="wetland" />
		<tag k="ssr:stedsnr" v="99265" />
	</node>
	<node id="-171634" lat="60.799166665" lon="8.90363055008">
		<tag k="name" v="Storemyr" />
		<tag k="natural" v="wetland" />
		<tag k="ssr:stedsnr" v="251496" />
	</node>
	<node id="-172232" lat="60.8490999961" lon="8.82560000131">
		<tag k="alt_name" v="Storemyr" />
		<tag k="name" v="Storemyre" />
		<tag k="natural" v="wetland" />
		<tag k="ssr:stedsnr" v="858193" />
	</node>
	<node id="-172040" lat="60.7709555582" lon="8.98070555004">
		<tag k="name" v="Stølsdokkslette" />
		<tag k="natural" v="wetland" />
		<tag k="ssr:stedsnr" v="710579" />
	</node>
	<node id="-171498" lat="60.6686666669" lon="9.01619443595">
		<tag k="name" v="Ytreskogen" />
		<tag k="place" v="locality" />
		<tag k="ssr:stedsnr" v="176408" />
	</node>
	<node id="-171241" lat="60.7711527775" lon="9.01613611822">
		<tag k="name" v="Eidsgardflæi" />
		<tag k="natural" v="wetland" />
		<tag k="ssr:stedsnr" v="892540" />
	</node>
	<node id="-172049" lat="60.7055861144" lon="9.32351943905">
		<tag k="name" v="Bualandet" />
		<tag k="place" v="locality" />
		<tag k="ssr:stedsnr" v="725825" />
	</node>
	<node id="-171236" lat="60.7082083376" lon="9.04814721402">
		<tag k="name" v="Turkoppurene" />
		<tag k="natural" v="scree" />
		<tag k="ssr:stedsnr" v="891189" />
	</node>
	<node id="-171362" lat="60.8114444435" lon="8.85641389196">
		<tag k="name" v="Flåmyre" />
		<tag k="natural" v="wetland" />
		<tag k="ssr:stedsnr" v="69534" />
	</node>
	<node id="-171226" lat="60.716491669" lon="9.03703611006">
		<tag k="name" v="Steinstølmyre" />
		<tag k="natural" v="wetland" />
		<tag k="ssr:stedsnr" v="889780" />
	</node>
	<node id="-172118" lat="60.7865361139" lon="8.84601944585">
		<tag k="name" v="Fjerdingmyre" />
		<tag k="natural" v="wetland" />
		<tag k="ssr:stedsnr" v="787663" />
	</node>
	<node id="-171150" lat="60.7979166667" lon="8.84320832521">
		<tag k="historic" v="shieling" />
		<tag k="name" v="Skinnhaugvollen" />
		<tag k="place" v="locality" />
		<tag k="ssr:stedsnr" v="362679" />
	</node>
	<node id="-171217" lat="60.7719750017" lon="8.83175277951">
		<tag k="name" v="Bøttesletti" />
		<tag k="natural" v="wetland" />
		<tag k="ssr:stedsnr" v="407595" />
	</node>
	<node id="-172105" lat="60.7629888849" lon="9.14375555739">
		<tag k="name" v="Kapteinmyran" />
		<tag k="natural" v="wetland" />
		<tag k="ssr:stedsnr" v="771587" />
	</node>
	<node id="-171208" lat="60.7183027774" lon="8.81275278511">
		<tag k="name" v="Sauemyre" />
		<tag k="natural" v="wetland" />
		<tag k="ssr:stedsnr" v="405169" />
	</node>
	<node id="-171202" lat="60.7162694423" lon="9.01876667325">
		<tag k="name" v="Leggemyre" />
		<tag k="natural" v="wetland" />
		<tag k="ssr:stedsnr" v="404787" />
	</node>
	<node id="-172171" lat="60.823486112" lon="9.00332778664">
		<tag k="name" v="Buamyran" />
		<tag k="natural" v="wetland" />
		<tag k="ssr:stedsnr" v="798419" />
	</node>
	<node id="-172218" lat="60.7178472226" lon="8.85730832442">
		<tag k="alt_name" v="Klovsteinmyr" />
		<tag k="name" v="Klovsteinmyre" />
		<tag k="natural" v="wetland" />
		<tag k="ssr:stedsnr" v="857153" />
	</node>
	<node id="-171321" lat="60.7308833325" lon="8.9700972276">
		<tag k="name" v="Dammyre" />
		<tag k="natural" v="wetland" />
		<tag k="ssr:stedsnr" v="41191" />
	</node>
	<node id="-171703" lat="60.7768305535" lon="9.04670833066">
		<tag k="name" v="Gardhamarflæi" />
		<tag k="natural" v="wetland" />
		<tag k="ssr:stedsnr" v="467578" />
	</node>
	<node id="-172086" lat="60.8071083366" lon="8.78968333926">
		<tag k="name" v="Røykingsetmyre" />
		<tag k="natural" v="wetland" />
		<tag k="ssr:stedsnr" v="766252" />
	</node>
	<node id="-171573" lat="60.6982638886" lon="9.0814666627">
		<tag k="name" v="Hyttemyran" />
		<tag k="natural" v="wetland" />
		<tag k="ssr:stedsnr" v="224182" />
	</node>
	<node id="-171697" lat="60.7023027816" lon="9.08261389449">
		<tag k="name" v="Bjørnamyran" />
		<tag k="natural" v="wetland" />
		<tag k="ssr:stedsnr" v="466176" />
	</node>
	<node id="-171720" lat="60.732858332" lon="9.02236667072">
		<tag k="name" v="Høgemyr" />
		<tag k="natural" v="wetland" />
		<tag k="ssr:stedsnr" v="492120" />
	</node>
	<node id="-171179" lat="60.7891111138" lon="8.93062500692">
		<tag k="name" v="Turkuppmyran" />
		<tag k="natural" v="wetland" />
		<tag k="ssr:stedsnr" v="372295" />
	</node>
	<node id="-171945" lat="60.6973472185" lon="9.10769166728">
		<tag k="name" v="Gladhusmyre" />
		<tag k="natural" v="wetland" />
		<tag k="ssr:stedsnr" v="648029" />
	</node>
	<node id="-171174" lat="60.7798888859" lon="8.87746945036">
		<tag k="name" v="Romyran" />
		<tag k="natural" v="wetland" />
		<tag k="ssr:stedsnr" v="372269" />
	</node>
	<node id="-171553" lat="60.7565361151" lon="9.00333888712">
		<tag k="alt_name" v="Fesøymmyre" />
		<tag k="name" v="Fesøymyre" />
		<tag k="natural" v="wetland" />
		<tag k="ssr:stedsnr" v="191309" />
	</node>
	<node id="-172318" lat="60.7148166687" lon="9.00535000459">
		<tag k="name" v="Tuppemyre" />
		<tag k="natural" v="wetland" />
		<tag k="ssr:stedsnr" v="950775" />
	</node>
	<node id="-171866" lat="60.7167916671" lon="9.01231388423">
		<tag k="name" v="Hyttemyre" />
		<tag k="natural" v="wetland" />
		<tag k="ssr:stedsnr" v="585768" />
	</node>
	<node id="-171290" lat="60.8127500003" lon="8.78366111032">
		<tag k="name" v="Geitemyri" />
		<tag k="natural" v="wetland" />
		<tag k="ssr:stedsnr" v="8260" />
	</node>
	<node id="-172033" lat="60.7089749966" lon="9.08133055635">
		<tag k="name" v="Målarmyre" />
		<tag k="natural" v="wetland" />
		<tag k="ssr:stedsnr" v="709169" />
	</node>
	<node id="-171544" lat="60.7601027766" lon="8.9173277777">
		<tag k="alt_name" v="Perhusmyr" />
		<tag k="name" v="Perhusmyre" />
		<tag k="natural" v="wetland" />
		<tag k="ssr:stedsnr" v="190307" />
	</node>
	<node id="-171798" lat="60.774438886" lon="8.80265832938">
		<tag k="name" v="Bjørnemyran" />
		<tag k="natural" v="wetland" />
		<tag k="ssr:stedsnr" v="528576" />
	</node>
	<node id="-171154" lat="60.6909833302" lon="9.15255277919">
		<tag k="name" v="Viddemyre" />
		<tag k="natural" v="wetland" />
		<tag k="ssr:stedsnr" v="370333" />
	</node>
	<node id="-171537" lat="60.7803055572" lon="8.87193888352">
		<tag k="name" v="Hattemyran" />
		<tag k="natural" v="wetland" />
		<tag k="ssr:stedsnr" v="190250" />
	</node>
	<node id="-172175" lat="60.8055194443" lon="8.82617222114">
		<tag k="name" v="Gjerdingsmyre" />
		<tag k="natural" v="wetland" />
		<tag k="ssr:stedsnr" v="827324" />
	</node>
	<node id="-171790" lat="60.6747222246" lon="9.04405277535">
		<tag k="name" v="Trollseturi" />
		<tag k="natural" v="scree" />
		<tag k="ssr:stedsnr" v="527022" />
	</node>
	<node id="-171532" lat="60.709411107" lon="9.08666389278">
		<tag k="alt_name" v="Pålsteinen" />
		<tag k="name" v="Pålstein" />
		<tag k="natural" v="stone" />
		<tag k="ssr:stedsnr" v="189340" />
	</node>
	<node id="-171074" lat="60.6985638874" lon="9.09732778049">
		<tag k="name" v="Skardmyran" />
		<tag k="natural" v="wetland" />
		<tag k="ssr:stedsnr" v="310339" />
	</node>
	<node id="-171145" lat="60.7090944478" lon="8.86663611262">
		<tag k="name" v="Storemyr" />
		<tag k="natural" v="wetland" />
		<tag k="ssr:stedsnr" v="360177" />
	</node>
	<node id="-171400" lat="60.7177111078" lon="8.80613888843">
		<tag k="name" v="Langmyre" />
		<tag k="natural" v="wetland" />
		<tag k="ssr:stedsnr" v="102185" />
	</node>
	<node id="-172037" lat="60.7701527787" lon="8.78776111165">
		<tag k="name" v="Lislaskogmyre" />
		<tag k="natural" v="wetland" />
		<tag k="ssr:stedsnr" v="709814" />
	</node>
	<node id="-171930" lat="60.817575002" lon="8.85695555369">
		<tag k="name" v="Glomsrudmyre" />
		<tag k="natural" v="wetland" />
		<tag k="ssr:stedsnr" v="615475" />
	</node>
	<node id="-171266" lat="60.6997722259" lon="9.18609444928">
		<tag k="historic" v="shieling" />
		<tag k="name" v="Viddevollen" />
		<tag k="place" v="locality" />
		<tag k="ssr:stedsnr" v="6359" />
	</node>
	<node id="-171265" lat="60.7017527733" lon="8.86289166962">
		<tag k="historic" v="shieling" />
		<tag k="name" v="Skagastølen" />
		<tag k="place" v="locality" />
		<tag k="ssr:stedsnr" v="6337" />
	</node>
</osm>
