<?xml version="1.0" encoding="UTF-8"?>
<osm generator="osmapis" version="0.6">
	<node id="-171263" lat="60.7005916687" lon="8.9228722194">
		<tag k="bridge" v="yes" />
		<tag k="layer" v="1" />
		<tag k="name" v="Heslasvingen" />
		<tag k="ssr:stedsnr" v="350808" />
	</node>
	<node id="-171630" lat="60.6751611102" lon="8.80863611566">
		<tag k="bridge" v="yes" />
		<tag k="layer" v="1" />
		<tag k="name" v="Eilivmo" />
		<tag k="ssr:stedsnr" v="168806" />
	</node>
	<node id="-171629" lat="60.7750000036" lon="9.00837222235">
		<tag k="bridge" v="yes" />
		<tag k="layer" v="1" />
		<tag k="name" v="Hallingen" />
		<tag k="ssr:stedsnr" v="168804" />
	</node>
	<node id="-171628" lat="60.6967999973" lon="9.01559444663">
		<tag k="bridge" v="yes" />
		<tag k="layer" v="1" />
		<tag k="name" v="Sag" />
		<tag k="ssr:stedsnr" v="168784" />
	</node>
	<node id="-172325" lat="60.7002277771" lon="9.00428333988">
		<tag k="bridge" v="yes" />
		<tag k="layer" v="1" />
		<tag k="name" v="Hoftun" />
		<tag k="ssr:stedsnr" v="836821" />
	</node>
	<node id="-171482" lat="60.6990611125" lon="8.97134445181">
		<tag k="alt_name" v="Gol" />
		<tag k="name" v="Gol stasjon" />
		<tag k="railway" v="station" />
		<tag k="ssr:stedsnr" v="67346" />
		<tag k="train" v="yes" />
	</node>
	<node id="-172244" lat="60.6954583297" lon="8.93122777662">
		<tag k="bridge" v="yes" />
		<tag k="layer" v="1" />
		<tag k="name" v="Glitre" />
		<tag k="ssr:stedsnr" v="775805" />
	</node>
	<node id="-172243" lat="60.7862666662" lon="9.05501667485">
		<tag k="bridge" v="yes" />
		<tag k="layer" v="1" />
		<tag k="name" v="Tubbeåen" />
		<tag k="ssr:stedsnr" v="775773" />
	</node>
	<node id="-172322" lat="60.7233722264" lon="8.90390000229">
		<tag k="bridge" v="yes" />
		<tag k="layer" v="1" />
		<tag k="name" v="Spildra" />
		<tag k="ssr:stedsnr" v="836791" />
	</node>
	<node id="-172229" lat="60.7376777799" lon="9.07927500726">
		<tag k="highway" v="path" />
		<tag k="name" v="Gjøtavegen" />
		<tag k="ssr:stedsnr" v="768818" />
	</node>
	<node id="-171843" lat="60.7632694471" lon="8.81108889459">
		<tag k="bridge" v="yes" />
		<tag k="layer" v="1" />
		<tag k="name" v="Juva" />
		<tag k="ssr:stedsnr" v="471827" />
	</node>
	<node id="-171842" lat="60.7751555563" lon="8.77166389266">
		<tag k="bridge" v="yes" />
		<tag k="layer" v="1" />
		<tag k="name" v="Sørbøl" />
		<tag k="ssr:stedsnr" v="471794" />
	</node>
	<node id="-171713" lat="60.6941333329" lon="8.92620832636">
		<tag k="bridge" v="yes" />
		<tag k="layer" v="1" />
		<tag k="name" v="Badeplassen" />
		<tag k="ssr:stedsnr" v="228837" />
	</node>
	<node id="-172094" lat="60.7009250039" lon="8.96776110935">
		<tag k="bridge" v="yes" />
		<tag k="layer" v="1" />
		<tag k="name" v="Gol" />
		<tag k="ssr:stedsnr" v="653832" />
	</node>
	<node id="-172093" lat="60.6947916632" lon="9.01797221972">
		<tag k="bridge" v="yes" />
		<tag k="layer" v="1" />
		<tag k="name" v="Søre Brøtabrune" />
		<tag k="ssr:stedsnr" v="653834" />
	</node>
	<node id="-172092" lat="60.7624055557" lon="8.99434999586">
		<tag k="bridge" v="yes" />
		<tag k="layer" v="1" />
		<tag k="name" v="Brautemo" />
		<tag k="ssr:stedsnr" v="653822" />
	</node>
	<node id="-172469" lat="60.7731250006" lon="8.83573610301">
		<tag k="bridge" v="yes" />
		<tag k="layer" v="1" />
		<tag k="name" v="Juva øvre" />
		<tag k="ssr:stedsnr" v="957818" />
	</node>
	<node id="-172465" lat="60.7290277761" lon="8.94480000368">
		<tag k="highway" v="path" />
		<tag k="name" v="Høgdehaugvegen" />
		<tag k="ssr:stedsnr" v="952224" />
	</node>
	<node id="-172455" lat="60.7176249964" lon="9.0259138942">
		<tag k="highway" v="path" />
		<tag k="name" v="Heradsvegen" />
		<tag k="ssr:stedsnr" v="950786" />
	</node>
	<node id="-171429" lat="60.7908224383" lon="9.05014639056">
		<tag k="aeroway" v="aerodrome" />
		<tag k="fixme" v="multiple name tags, choose one and add the other to alt_name" />
		<tag k="name" v="Gol flyplass, Klanten;Klanten" />
		<tag k="ssr:stedsnr" v="8291" />
	</node>
	<node id="-172324" lat="60.6950194429" lon="9.01763610529">
		<tag k="bridge" v="yes" />
		<tag k="layer" v="1" />
		<tag k="name" v="Nørdre Brøtabrune" />
		<tag k="ssr:stedsnr" v="836816" />
	</node>
	<node id="-172323" lat="60.8116555582" lon="9.11001110925">
		<tag k="bridge" v="yes" />
		<tag k="layer" v="1" />
		<tag k="name" v="Elghornbekk" />
		<tag k="ssr:stedsnr" v="836814" />
	</node>
	<node id="-171170" lat="60.7463388893" lon="9.001227773">
		<tag k="highway" v="path" />
		<tag k="name" v="Smogvegen" />
		<tag k="ssr:stedsnr" v="298962" />
	</node>
	<node id="-171937" lat="60.7029388928" lon="8.9337083311">
		<tag k="bridge" v="yes" />
		<tag k="layer" v="1" />
		<tag k="name" v="Hesla" />
		<tag k="ssr:stedsnr" v="532814" />
	</node>
	<node id="-171552" lat="60.7661333332" lon="9.12299165947">
		<tag k="ford" v="yes" />
		<tag k="name" v="Langvadet" />
		<tag k="place" v="locality" />
		<tag k="ssr:stedsnr" v="119657" />
	</node>
	<node id="-172062" lat="60.7553972211" lon="9.21414167186">
		<tag k="man_made" v="cairn" />
		<tag k="name" v="Nystølvarden" />
		<tag k="place" v="locality" />
		<tag k="ssr:stedsnr" v="615305" />
	</node>
	<node id="-171164" lat="60.7002527808" lon="9.00402221914">
		<tag k="bridge" v="yes" />
		<tag k="layer" v="1" />
		<tag k="name" v="Hoftun Søndre" />
		<tag k="ssr:stedsnr" v="289865" />
	</node>
	<node id="-171163" lat="60.6810888873" lon="8.82989444334">
		<tag k="bridge" v="yes" />
		<tag k="layer" v="1" />
		<tag k="name" v="Vermeå" />
		<tag k="ssr:stedsnr" v="289836" />
	</node>
	<node id="-171542" lat="60.7899444421" lon="8.81987221696">
		<tag k="bridge" v="yes" />
		<tag k="layer" v="1" />
		<tag k="name" v="Logga øvre" />
		<tag k="ssr:stedsnr" v="107824" />
	</node>
	<node id="-171541" lat="60.748347226" lon="8.85890833763">
		<tag k="bridge" v="yes" />
		<tag k="layer" v="1" />
		<tag k="name" v="Ro" />
		<tag k="ssr:stedsnr" v="107804" />
	</node>
	<node id="-172172" lat="60.7170138887" lon="8.92733610289">
		<tag k="name" v="Ronklesvingen" />
		<tag k="place" v="locality" />
		<tag k="ssr:stedsnr" v="709198" />
	</node>
	<node id="-171714" lat="60.6948972201" lon="8.92700000114">
		<tag k="bridge" v="yes" />
		<tag k="layer" v="1" />
		<tag k="name" v="Rampen" />
		<tag k="ssr:stedsnr" v="228842" />
	</node>
	<node id="-171141" lat="60.8064944486" lon="8.88080278006">
		<tag k="highway" v="path" />
		<tag k="name" v="Gurisetvegen" />
		<tag k="ssr:stedsnr" v="281346" />
	</node>
</osm>
