<?xml version="1.0" encoding="UTF-8"?>
<osm generator="osmapis" version="0.6">
	<node id="-172032" lat="60.7356277779" lon="8.92784444819">
		<tag k="name" v="Kollen" />
		<tag k="place" v="locality" />
		<tag k="ssr:stedsnr" v="613151" />
	</node>
	<node id="-172031" lat="60.7224944465" lon="8.93385000035">
		<tag k="name" v="Berget" />
		<tag k="place" v="farm" />
		<tag k="ssr:stedsnr" v="613139" />
	</node>
	<node id="-172029" lat="60.7236722179" lon="9.1663250007">
		<tag k="alt_name" v="Holt Sr" />
		<tag k="fixme" v="multiple name tags, choose one and add the other to alt_name" />
		<tag k="historic" v="shieling" />
		<tag k="name" v="Holt;Holtstølen" />
		<tag k="place" v="locality" />
		<tag k="ssr:stedsnr" v="613131" />
	</node>
	<node id="-172028" lat="60.7186388894" lon="8.94763888402">
		<tag k="name" v="Stake" />
		<tag k="place" v="farm" />
		<tag k="ssr:stedsnr" v="613129" />
	</node>
	<node id="-172027" lat="60.7290666678" lon="8.80497221951">
		<tag k="historic" v="shieling" />
		<tag k="name" v="Habbeset" />
		<tag k="place" v="locality" />
		<tag k="ssr:stedsnr" v="612837" />
	</node>
	<node id="-172026" lat="60.7412166651" lon="8.82259166517">
		<tag k="historic" v="shieling" />
		<tag k="name" v="Magnetunrudningen" />
		<tag k="place" v="locality" />
		<tag k="ssr:stedsnr" v="612795" />
	</node>
	<node id="-172025" lat="60.7414972236" lon="8.80757500151">
		<tag k="historic" v="shieling" />
		<tag k="name" v="Røyselie" />
		<tag k="place" v="locality" />
		<tag k="ssr:stedsnr" v="612794" />
	</node>
	<node id="-172023" lat="60.7984222227" lon="8.8439972278">
		<tag k="historic" v="shieling" />
		<tag k="name" v="Løstegardstølen" />
		<tag k="place" v="locality" />
		<tag k="ssr:stedsnr" v="604685" />
	</node>
	<node id="-172021" lat="60.7079333357" lon="8.91905834023">
		<tag k="name" v="Kinneberg" />
		<tag k="place" v="farm" />
		<tag k="ssr:stedsnr" v="603195" />
	</node>
	<node id="-172020" lat="60.7050222208" lon="8.83924722226">
		<tag k="name" v="Skjenhovdstølen" />
		<tag k="place" v="locality" />
		<tag k="ssr:stedsnr" v="603181" />
	</node>
	<node id="-172019" lat="60.7226527779" lon="8.98011111711">
		<tag k="name" v="Mellom-Rust" />
		<tag k="place" v="farm" />
		<tag k="ssr:stedsnr" v="603030" />
	</node>
	<node id="-172016" lat="60.6817138916" lon="9.03986945016">
		<tag k="alt_name" v="Uthallen" />
		<tag k="name" v="Uthalli" />
		<tag k="place" v="farm" />
		<tag k="ssr:stedsnr" v="598289" />
	</node>
	<node id="-172015" lat="60.7745749992" lon="9.00449722531">
		<tag k="name" v="Hjalleslette" />
		<tag k="place" v="farm" />
		<tag k="ssr:stedsnr" v="588554" />
	</node>
	<node id="-172014" lat="60.7069972214" lon="9.01157777114">
		<tag k="name" v="Nordre Brenno" />
		<tag k="place" v="farm" />
		<tag k="ssr:stedsnr" v="587175" />
	</node>
	<node id="-172011" lat="60.6879611125" lon="8.89925834241">
		<tag k="name" v="Øvre Vermåker" />
		<tag k="place" v="farm" />
		<tag k="ssr:stedsnr" v="587128" />
	</node>
	<node id="-172008" lat="60.7561499969" lon="8.76319165799">
		<tag k="name" v="Vangjerstølen" />
		<tag k="place" v="farm" />
		<tag k="ssr:stedsnr" v="586875" />
	</node>
	<node id="-172007" lat="60.7547527807" lon="8.76503610541">
		<tag k="name" v="Kråkehaug" />
		<tag k="place" v="farm" />
		<tag k="ssr:stedsnr" v="586873" />
	</node>
	<node id="-172006" lat="60.6534777793" lon="9.0978166748">
		<tag k="name" v="Bakkeskoghytta" />
		<tag k="place" v="isolated_dwelling" />
		<tag k="ssr:stedsnr" v="586382" />
	</node>
	<node id="-172004" lat="60.7214333327" lon="8.98544723124">
		<tag k="name" v="Rust" />
		<tag k="place" v="farm" />
		<tag k="ssr:stedsnr" v="585776" />
	</node>
	<node id="-172002" lat="60.7806333363" lon="9.16577777884">
		<tag k="alt_name" v="Varhovd" />
		<tag k="historic" v="shieling" />
		<tag k="loc_name" v="Valhovd" />
		<tag k="name" v="Vardhovd" />
		<tag k="place" v="locality" />
		<tag k="ssr:stedsnr" v="585264" />
	</node>
	<node id="-172000" lat="60.8046222204" lon="8.97328055639">
		<tag k="name" v="Kontakten" />
		<tag k="place" v="isolated_dwelling" />
		<tag k="ssr:stedsnr" v="584391" />
	</node>
	<node id="-171999" lat="60.7579194412" lon="9.26566666606">
		<tag k="alt_name" v="Vassvollan" />
		<tag k="historic" v="shieling" />
		<tag k="name" v="Vassvollen" />
		<tag k="place" v="locality" />
		<tag k="ssr:stedsnr" v="555786" />
	</node>
	<node id="-171998" lat="60.749741667" lon="8.82977777732">
		<tag k="name" v="Haugen" />
		<tag k="place" v="farm" />
		<tag k="ssr:stedsnr" v="555056" />
	</node>
	<node id="-171997" lat="60.7531638845" lon="8.80471388831">
		<tag k="name" v="Søre Brennhovd" />
		<tag k="place" v="farm" />
		<tag k="ssr:stedsnr" v="555053" />
	</node>
	<node id="-171992" lat="60.7745749961" lon="9.07220555667">
		<tag k="name" v="Johannesdalen" />
		<tag k="place" v="farm" />
		<tag k="ssr:stedsnr" v="554328" />
	</node>
	<node id="-171991" lat="60.7698500009" lon="9.07350000419">
		<tag k="name" v="Haldorværelset" />
		<tag k="place" v="locality" />
		<tag k="ssr:stedsnr" v="554323" />
	</node>
	<node id="-171987" lat="60.7852000016" lon="8.90433610349">
		<tag k="alt_name" v="Magnetun;Nordre Magnetun seter" />
		<tag k="historic" v="shieling" />
		<tag k="name" v="Magnetunstølen" />
		<tag k="place" v="locality" />
		<tag k="ssr:stedsnr" v="554266" />
	</node>
	<node id="-171985" lat="60.7914111131" lon="8.81682500344">
		<tag k="name" v="Skogly" />
		<tag k="place" v="isolated_dwelling" />
		<tag k="ssr:stedsnr" v="554020" />
	</node>
	<node id="-171982" lat="60.6387583365" lon="9.07486389128">
		<tag k="alt_name" v="Nordre Rennsla" />
		<tag k="name" v="Nordre Rensla" />
		<tag k="place" v="farm" />
		<tag k="ssr:stedsnr" v="553458" />
	</node>
	<node id="-171981" lat="60.7090638892" lon="8.95842778659">
		<tag k="name" v="Larshus" />
		<tag k="place" v="farm" />
		<tag k="ssr:stedsnr" v="553349" />
	</node>
	<node id="-171980" lat="60.7175277741" lon="8.98046388307">
		<tag k="name" v="Solli" />
		<tag k="place" v="farm" />
		<tag k="ssr:stedsnr" v="553337" />
	</node>
	<node id="-171976" lat="60.7178861104" lon="8.94573333117">
		<tag k="loc_name" v="Åsgardane" />
		<tag k="name" v="Åsgardan" />
		<tag k="old_name" v="Aasgardann" />
		<tag k="place" v="hamlet" />
		<tag k="ssr:stedsnr" v="553122" />
	</node>
	<node id="-171975" lat="60.6669583334" lon="8.83105277061">
		<tag k="name" v="Ivarslie" />
		<tag k="place" v="locality" />
		<tag k="ssr:stedsnr" v="552988" />
	</node>
	<node id="-171974" lat="60.6914285706" lon="8.82085484987">
		<tag k="fixme" v="consider place=hamlet" />
		<tag k="name" v="Grov" />
		<tag k="place" v="farm" />
		<tag k="ssr:stedsnr" v="552925" />
	</node>
	<node id="-171973" lat="60.6930366975" lon="8.79699326032">
		<tag k="fixme" v="consider place=hamlet" />
		<tag k="name" v="Finnesgarden" />
		<tag k="place" v="farm" />
		<tag k="ssr:stedsnr" v="552917" />
	</node>
	<node id="-171972" lat="60.698749997" lon="8.83477221591">
		<tag k="alt_name" v="Stavdokkene" />
		<tag k="name" v="Stavdokki" />
		<tag k="place" v="locality" />
		<tag k="ssr:stedsnr" v="552913" />
	</node>
	<node id="-171970" lat="60.7096166639" lon="8.78550278282">
		<tag k="historic" v="shieling" />
		<tag k="name" v="Maristølen" />
		<tag k="place" v="locality" />
		<tag k="ssr:stedsnr" v="552894" />
	</node>
	<node id="-171969" lat="60.7194305528" lon="8.82304722297">
		<tag k="historic" v="shieling" />
		<tag k="name" v="Veslestølen" />
		<tag k="place" v="locality" />
		<tag k="ssr:stedsnr" v="552882" />
	</node>
	<node id="-171967" lat="60.7025222257" lon="8.86812777324">
		<tag k="name" v="Skålan" />
		<tag k="place" v="locality" />
		<tag k="ssr:stedsnr" v="552407" />
	</node>
	<node id="-171966" lat="60.703000329" lon="8.92809535124">
		<tag k="fixme" v="consider place=hamlet" />
		<tag k="name" v="Hesla" />
		<tag k="place" v="farm" />
		<tag k="ssr:stedsnr" v="552353" />
	</node>
	<node id="-171964" lat="60.6583333372" lon="9.15351388199">
		<tag k="historic" v="shieling" />
		<tag k="name" v="Møne" />
		<tag k="place" v="locality" />
		<tag k="ssr:stedsnr" v="552314" />
	</node>
	<node id="-171962" lat="60.6569305557" lon="9.05423610371">
		<tag k="alt_name" v="Engene" />
		<tag k="name" v="Engjan" />
		<tag k="old_name" v="Enganne" />
		<tag k="place" v="farm" />
		<tag k="ssr:stedsnr" v="552307" />
	</node>
	<node id="-171961" lat="60.6511000027" lon="9.06348055109">
		<tag k="name" v="Liahaugen" />
		<tag k="place" v="farm" />
		<tag k="ssr:stedsnr" v="552308" />
	</node>
	<node id="-171959" lat="60.7402638257" lon="8.85928533172">
		<tag k="fixme" v="consider place=hamlet" />
		<tag k="name" v="Magnetun" />
		<tag k="place" v="farm" />
		<tag k="ssr:stedsnr" v="552198" />
	</node>
	<node id="-171956" lat="60.7416222211" lon="8.89810000695">
		<tag k="name" v="Rasmusbråten" />
		<tag k="place" v="farm" />
		<tag k="ssr:stedsnr" v="552187" />
	</node>
	<node id="-171955" lat="60.7382222229" lon="8.91540556405">
		<tag k="name" v="Skreddarberget" />
		<tag k="place" v="farm" />
		<tag k="ssr:stedsnr" v="552184" />
	</node>
	<node id="-171954" lat="60.735340014" lon="8.86995052336">
		<tag k="fixme" v="consider place=hamlet" />
		<tag k="name" v="Bråten" />
		<tag k="place" v="farm" />
		<tag k="ssr:stedsnr" v="552183" />
	</node>
	<node id="-171950" lat="60.7829166693" lon="8.95089445308">
		<tag k="name" v="Skutuset" />
		<tag k="place" v="farm" />
		<tag k="ssr:stedsnr" v="544744" />
	</node>
	<node id="-171949" lat="60.8001666687" lon="8.86283889597">
		<tag k="historic" v="shieling" />
		<tag k="name" v="Blakkestadstølen" />
		<tag k="place" v="locality" />
		<tag k="ssr:stedsnr" v="544673" />
	</node>
	<node id="-171947" lat="60.7961777795" lon="8.80362778391">
		<tag k="name" v="Nyhus" />
		<tag k="place" v="farm" />
		<tag k="ssr:stedsnr" v="544661" />
	</node>
	<node id="-171946" lat="60.7871305582" lon="8.8928861182">
		<tag k="historic" v="shieling" />
		<tag k="name" v="Ellingvollen" />
		<tag k="place" v="locality" />
		<tag k="ssr:stedsnr" v="544657" />
	</node>
	<node id="-171945" lat="60.6959166626" lon="9.0062805473">
		<tag k="name" v="Øvre Eikle" />
		<tag k="place" v="farm" />
		<tag k="ssr:stedsnr" v="543579" />
	</node>
	<node id="-171944" lat="60.6752583373" lon="9.20169445116">
		<tag k="historic" v="shieling" />
		<tag k="name" v="Bjørnsonlie" />
		<tag k="old_name" v="Bjørnsanli;Bjørnsandii" />
		<tag k="place" v="locality" />
		<tag k="ssr:stedsnr" v="543277" />
	</node>
	<node id="-171940" lat="60.6992115159" lon="8.98175460055">
		<tag k="fixme" v="consider place=hamlet" />
		<tag k="name" v="Nøreim" />
		<tag k="place" v="farm" />
		<tag k="ssr:stedsnr" v="538185" />
	</node>
	<node id="-171938" lat="60.7007833085" lon="9.00654346735">
		<tag k="name" v="Nedre Frøysåk" />
		<tag k="place" v="farm" />
		<tag k="ssr:stedsnr" v="533385" />
	</node>
	<node id="-171934" lat="60.7185027734" lon="8.94366111892">
		<tag k="name" v="Moen" />
		<tag k="place" v="farm" />
		<tag k="ssr:stedsnr" v="527201" />
	</node>
	<node id="-171933" lat="60.7220444421" lon="8.88151944541">
		<tag k="historic" v="shieling" />
		<tag k="name" v="Olsgardseter" />
		<tag k="place" v="locality" />
		<tag k="ssr:stedsnr" v="527193" />
	</node>
	<node id="-171932" lat="60.7145083371" lon="8.91006111722">
		<tag k="name" v="Øvre Sagabråten" />
		<tag k="place" v="farm" />
		<tag k="ssr:stedsnr" v="527188" />
	</node>
	<node id="-171928" lat="60.6807861073" lon="9.02689166974">
		<tag k="name" v="Plassen" />
		<tag k="place" v="farm" />
		<tag k="ssr:stedsnr" v="527130" />
	</node>
	<node id="-171925" lat="60.66754167" lon="9.03264444811">
		<tag k="name" v="Vershølen" />
		<tag k="old_name" v="Versøyi" />
		<tag k="place" v="farm" />
		<tag k="ssr:stedsnr" v="526249" />
	</node>
	<node id="-171924" lat="60.7400694432" lon="8.81490000426">
		<tag k="name" v="Båsheim" />
		<tag k="place" v="locality" />
		<tag k="ssr:stedsnr" v="525872" />
	</node>
	<node id="-171917" lat="60.6852583295" lon="8.84381110927">
		<tag k="name" v="Jonsgard" />
		<tag k="place" v="farm" />
		<tag k="ssr:stedsnr" v="525428" />
	</node>
	<node id="-171916" lat="60.8363000041" lon="8.85076389446">
		<tag k="historic" v="shieling" />
		<tag k="name" v="Skagavollen" />
		<tag k="place" v="locality" />
		<tag k="ssr:stedsnr" v="524402" />
	</node>
	<node id="-171915" lat="60.8376577757" lon="8.84529033796">
		<tag k="historic" v="shieling" />
		<tag k="name" v="Hovdestølen" />
		<tag k="place" v="locality" />
		<tag k="ssr:stedsnr" v="524401" />
	</node>
	<node id="-171914" lat="60.8534305586" lon="8.9140138859">
		<tag k="historic" v="shieling" />
		<tag k="name" v="Øvre Glomsrud seter" />
		<tag k="place" v="locality" />
		<tag k="ssr:stedsnr" v="524393" />
	</node>
	<node id="-171913" lat="60.8551722178" lon="8.91376943885">
		<tag k="name" v="Myrvang" />
		<tag k="place" v="farm" />
		<tag k="ssr:stedsnr" v="524392" />
	</node>
	<node id="-171912" lat="60.8556178482" lon="8.90887086035">
		<tag k="name" v="Auenhauglie" />
		<tag k="place" v="farm" />
		<tag k="ssr:stedsnr" v="524391" />
	</node>
	<node id="-171909" lat="60.8015527793" lon="8.96995833796">
		<tag k="historic" v="shieling" />
		<tag k="name" v="Veslestølen" />
		<tag k="place" v="locality" />
		<tag k="ssr:stedsnr" v="524287" />
	</node>
	<node id="-171907" lat="60.8012055521" lon="8.79194721713">
		<tag k="name" v="Veslevollen" />
		<tag k="place" v="isolated_dwelling" />
		<tag k="ssr:stedsnr" v="523272" />
	</node>
	<node id="-171906" lat="60.792530552" lon="8.8670972195">
		<tag k="name" v="Jondalen hyttegrend" />
		<tag k="place" v="hamlet" />
		<tag k="ssr:stedsnr" v="519936" />
	</node>
	<node id="-171905" lat="60.8630807098" lon="8.84994190048">
		<tag k="historic" v="shieling" />
		<tag k="name" v="Nørelie" />
		<tag k="place" v="locality" />
		<tag k="ssr:stedsnr" v="495400" />
	</node>
	<node id="-171904" lat="60.7514694485" lon="9.2276000025">
		<tag k="historic" v="shieling" />
		<tag k="name" v="Nystølen" />
		<tag k="place" v="locality" />
		<tag k="ssr:stedsnr" v="494740" />
	</node>
	<node id="-171900" lat="60.7578055543" lon="8.86355278101">
		<tag k="name" v="Berget" />
		<tag k="place" v="farm" />
		<tag k="ssr:stedsnr" v="494273" />
	</node>
	<node id="-171898" lat="60.7535527773" lon="8.86415833466">
		<tag k="name" v="Hattebråten" />
		<tag k="place" v="farm" />
		<tag k="ssr:stedsnr" v="494258" />
	</node>
	<node id="-171892" lat="60.750874998" lon="8.81605276928">
		<tag k="name" v="Ivarsrud" />
		<tag k="place" v="farm" />
		<tag k="ssr:stedsnr" v="494066" />
	</node>
	<node id="-171891" lat="60.7988944471" lon="8.78942500488">
		<tag k="name" v="Skarabakken" />
		<tag k="place" v="farm" />
		<tag k="ssr:stedsnr" v="494020" />
	</node>
	<node id="-171888" lat="60.8051722209" lon="9.11235556449">
		<tag k="name" v="Fjøsstølremmen" />
		<tag k="place" v="locality" />
		<tag k="ssr:stedsnr" v="493466" />
	</node>
	<node id="-171886" lat="60.7858750041" lon="8.90940277084">
		<tag k="historic" v="shieling" />
		<tag k="name" v="Fjellro" />
		<tag k="place" v="locality" />
		<tag k="ssr:stedsnr" v="493276" />
	</node>
	<node id="-171885" lat="60.7860388892" lon="8.89055834096">
		<tag k="alt_name" v="Rosætri;Rosetra" />
		<tag k="historic" v="shieling" />
		<tag k="loc_name" v="Rosetre" />
		<tag k="name" v="Rostølen" />
		<tag k="place" v="locality" />
		<tag k="ssr:stedsnr" v="493275" />
	</node>
	<node id="-171882" lat="60.6844194408" lon="8.81484999815">
		<tag k="alt_name" v="Gjerden" />
		<tag k="fixme" v="multiple name tags, choose one and add the other to alt_name" />
		<tag k="loc_name" v="Gjerdun" />
		<tag k="name" v="Gjerdene;Skriu" />
		<tag k="place" v="farm" />
		<tag k="ssr:stedsnr" v="492916" />
	</node>
	<node id="-171881" lat="60.7181130379" lon="8.93974439662">
		<tag k="fixme" v="consider place=hamlet" />
		<tag k="name" v="Berg" />
		<tag k="place" v="farm" />
		<tag k="ssr:stedsnr" v="492889" />
	</node>
	<node id="-171878" lat="60.6854583296" lon="9.24872777084">
		<tag k="alt_name" v="Fisketjernstølen" />
		<tag k="historic" v="shieling" />
		<tag k="name" v="Fisketjernlie" />
		<tag k="place" v="locality" />
		<tag k="ssr:stedsnr" v="492679" />
	</node>
	<node id="-171876" lat="60.7033777786" lon="9.01003611686">
		<tag k="name" v="Frøytun" />
		<tag k="place" v="farm" />
		<tag k="ssr:stedsnr" v="492363" />
	</node>
	<node id="-171874" lat="60.7056937259" lon="8.92263442507">
		<tag k="fixme" v="consider place=hamlet" />
		<tag k="name" v="Golberg" />
		<tag k="place" v="farm" />
		<tag k="ssr:stedsnr" v="492348" />
	</node>
	<node id="-171873" lat="60.7198750042" lon="8.96535833698">
		<tag k="name" v="Bakko" />
		<tag k="place" v="farm" />
		<tag k="ssr:stedsnr" v="492333" />
	</node>
	<node id="-171872" lat="60.6970027776" lon="9.00289443743">
		<tag k="name" v="Nordre Eikle" />
		<tag k="place" v="farm" />
		<tag k="ssr:stedsnr" v="492316" />
	</node>
	<node id="-171870" lat="60.7022416662" lon="9.03705833379">
		<tag k="alt_name" v="Turkopp;Turkop" />
		<tag k="name" v="Turkupp" />
		<tag k="place" v="farm" />
		<tag k="ssr:stedsnr" v="492296" />
	</node>
	<node id="-171869" lat="60.696844447" lon="8.89252777747">
		<tag k="name" v="Skreddargarden" />
		<tag k="place" v="farm" />
		<tag k="ssr:stedsnr" v="492294" />
	</node>
	<node id="-171868" lat="60.7002055568" lon="8.85863055586">
		<tag k="historic" v="shieling" />
		<tag k="name" v="Nedstedokk" />
		<tag k="place" v="locality" />
		<tag k="ssr:stedsnr" v="492289" />
	</node>
	<node id="-171867" lat="60.672369441" lon="9.03934722481">
		<tag k="alt_name" v="Floget" />
		<tag k="name" v="Flaget" />
		<tag k="place" v="farm" />
		<tag k="ssr:stedsnr" v="492286" />
	</node>
	<node id="-171863" lat="60.684327775" lon="8.84557499579">
		<tag k="alt_name" v="Jorde;Martegarden" />
		<tag k="name" v="Jordet" />
		<tag k="place" v="farm" />
		<tag k="ssr:stedsnr" v="492265" />
	</node>
	<node id="-171862" lat="60.6623500044" lon="9.12788334005">
		<tag k="alt_name" v="Hestedokkhytta" />
		<tag k="name" v="Hestedokki" />
		<tag k="place" v="isolated_dwelling" />
		<tag k="ssr:stedsnr" v="492228" />
	</node>
	<node id="-171860" lat="60.7420194436" lon="8.86778334019">
		<tag k="name" v="Rohaugen" />
		<tag k="old_name" v="Haug" />
		<tag k="place" v="farm" />
		<tag k="ssr:stedsnr" v="492144" />
	</node>
	<node id="-171856" lat="60.7258333363" lon="8.87041666337">
		<tag k="alt_name" v="Storestøl" />
		<tag k="historic" v="shieling" />
		<tag k="name" v="Storestølen" />
		<tag k="place" v="locality" />
		<tag k="ssr:stedsnr" v="492118" />
	</node>
	<node id="-171855" lat="60.7276251055" lon="8.87922750867">
		<tag k="alt_name" v="Hornungset" />
		<tag k="fixme" v="consider place=hamlet" />
		<tag k="name" v="Hodnungset" />
		<tag k="place" v="farm" />
		<tag k="ssr:stedsnr" v="492115" />
	</node>
	<node id="-171854" lat="60.7226333344" lon="9.10106667172">
		<tag k="fixme" v="multiple name tags, choose one and add the other to alt_name" />
		<tag k="name" v="Haugarukan;Rukan" />
		<tag k="place" v="isolated_dwelling" />
		<tag k="ssr:stedsnr" v="492102" />
	</node>
	<node id="-171853" lat="60.7141722244" lon="8.95503054983">
		<tag k="alt_name" v="Ransedokken" />
		<tag k="name" v="Ransedokki" />
		<tag k="place" v="farm" />
		<tag k="ssr:stedsnr" v="492097" />
	</node>
	<node id="-171850" lat="60.7927138845" lon="8.86452499518">
		<tag k="historic" v="shieling" />
		<tag k="name" v="Bakkevollen" />
		<tag k="place" v="locality" />
		<tag k="ssr:stedsnr" v="483674" />
	</node>
	<node id="-171848" lat="60.828738892" lon="8.97960556024">
		<tag k="alt_name" v="Buidn" />
		<tag k="historic" v="shieling" />
		<tag k="name" v="Buin" />
		<tag k="old_name" v="Buinn" />
		<tag k="place" v="locality" />
		<tag k="ssr:stedsnr" v="483539" />
	</node>
	<node id="-171846" lat="60.7099027811" lon="8.80243054978">
		<tag k="name" v="Hansestølen" />
		<tag k="place" v="locality" />
		<tag k="ssr:stedsnr" v="482189" />
	</node>
	<node id="-171845" lat="60.6933138874" lon="8.84496389148">
		<tag k="historic" v="shieling" />
		<tag k="name" v="Breidokkene" />
		<tag k="place" v="locality" />
		<tag k="ssr:stedsnr" v="482184" />
	</node>
	<node id="-171841" lat="60.6831416623" lon="8.83723055763">
		<tag k="name" v="Nordre Rotneim" />
		<tag k="place" v="farm" />
		<tag k="ssr:stedsnr" v="471195" />
	</node>
	<node id="-171838" lat="60.7591638918" lon="8.78790555379">
		<tag k="alt_name" v="Brennhovd" />
		<tag k="name" v="Søre Brennhovd" />
		<tag k="place" v="farm" />
		<tag k="ssr:stedsnr" v="466850" />
	</node>
	<node id="-171837" lat="60.7227888869" lon="8.92767222183">
		<tag k="name" v="Eliberget" />
		<tag k="place" v="locality" />
		<tag k="ssr:stedsnr" v="466202" />
	</node>
	<node id="-171836" lat="60.7287166625" lon="8.89345000815">
		<tag k="name" v="Bygdheim" />
		<tag k="place" v="isolated_dwelling" />
		<tag k="ssr:stedsnr" v="466199" />
	</node>
	<node id="-171835" lat="60.7110055567" lon="9.0787888936">
		<tag k="name" v="Trollbu" />
		<tag k="place" v="isolated_dwelling" />
		<tag k="ssr:stedsnr" v="466182" />
	</node>
	<node id="-171832" lat="60.6746888922" lon="9.03036388452">
		<tag k="name" v="Strand" />
		<tag k="place" v="farm" />
		<tag k="ssr:stedsnr" v="466021" />
	</node>
	<node id="-171831" lat="60.6729111138" lon="9.03180833833">
		<tag k="name" v="Austheim" />
		<tag k="place" v="farm" />
		<tag k="ssr:stedsnr" v="466020" />
	</node>
	<node id="-171830" lat="60.6850861148" lon="9.02843332685">
		<tag k="name" v="Lauvli" />
		<tag k="place" v="farm" />
		<tag k="ssr:stedsnr" v="466011" />
	</node>
	<node id="-171829" lat="60.7043274243" lon="8.91366394478">
		<tag k="alt_name" v="Nibstad;Nipstad" />
		<tag k="fixme" v="consider place=hamlet" />
		<tag k="name" v="Nifstad" />
		<tag k="place" v="farm" />
		<tag k="ssr:stedsnr" v="465510" />
	</node>
	<node id="-171827" lat="60.6697722256" lon="9.16381666389">
		<tag k="name" v="Liahytta" />
		<tag k="place" v="isolated_dwelling" />
		<tag k="ssr:stedsnr" v="464387" />
	</node>
	<node id="-171826" lat="60.6967472201" lon="8.96377222694">
		<tag k="name" v="Norheim" />
		<tag k="place" v="farm" />
		<tag k="ssr:stedsnr" v="464315" />
	</node>
	<node id="-171823" lat="60.8490888933" lon="8.89486944129">
		<tag k="alt_name" v="Lagmannsgard seter" />
		<tag k="historic" v="shieling" />
		<tag k="name" v="Lagmannsgardstølen" />
		<tag k="place" v="locality" />
		<tag k="ssr:stedsnr" v="434418" />
	</node>
	<node id="-171819" lat="60.8072444457" lon="9.12309444915">
		<tag k="name" v="Fagervang" />
		<tag k="place" v="isolated_dwelling" />
		<tag k="ssr:stedsnr" v="433469" />
	</node>
	<node id="-171818" lat="60.7650583298" lon="8.91498611673">
		<tag k="alt_name" v="Løstegårdskalet;Moskaret;Løstegardskaret" />
		<tag k="fixme" v="multiple name tags, choose one and add the other to alt_name" />
		<tag k="historic" v="shieling" />
		<tag k="name" v="Løstegardskardet;Moskardet" />
		<tag k="place" v="locality" />
		<tag k="ssr:stedsnr" v="433294" />
	</node>
	<node id="-171817" lat="60.7611361116" lon="8.84571943826">
		<tag k="name" v="Skogheim" />
		<tag k="place" v="farm" />
		<tag k="ssr:stedsnr" v="433286" />
	</node>
	<node id="-171816" lat="60.7877936651" lon="9.13472850612">
		<tag k="name" v="Brenn" />
		<tag k="place" v="farm" />
		<tag k="ssr:stedsnr" v="433255" />
	</node>
	<node id="-171814" lat="60.782105553" lon="8.94233888142">
		<tag k="alt_name" v="Storestøl;Skutuset" />
		<tag k="historic" v="shieling" />
		<tag k="name" v="Storestølen" />
		<tag k="place" v="locality" />
		<tag k="ssr:stedsnr" v="433244" />
	</node>
	<node id="-171812" lat="60.7831583329" lon="8.91560000089">
		<tag k="historic" v="shieling" />
		<tag k="name" v="Veslevollen" />
		<tag k="place" v="locality" />
		<tag k="ssr:stedsnr" v="433240" />
	</node>
	<node id="-171811" lat="60.805522226" lon="8.81571666892">
		<tag k="name" v="Halli" />
		<tag k="place" v="isolated_dwelling" />
		<tag k="ssr:stedsnr" v="433236" />
	</node>
	<node id="-171804" lat="60.7347888873" lon="9.13482776903">
		<tag k="name" v="Koparviki" />
		<tag k="place" v="isolated_dwelling" />
		<tag k="ssr:stedsnr" v="432156" />
	</node>
	<node id="-171803" lat="60.7300305596" lon="8.88627499378">
		<tag k="name" v="Bråten" />
		<tag k="place" v="farm" />
		<tag k="ssr:stedsnr" v="432150" />
	</node>
	<node id="-171800" lat="60.7214557016" lon="8.90280132053">
		<tag k="fixme" v="consider place=hamlet" />
		<tag k="name" v="Glomsrud" />
		<tag k="place" v="farm" />
		<tag k="ssr:stedsnr" v="432121" />
	</node>
	<node id="-171799" lat="60.6805805587" lon="8.78582499537">
		<tag k="name" v="Haugo" />
		<tag k="place" v="farm" />
		<tag k="ssr:stedsnr" v="431929" />
	</node>
	<node id="-171798" lat="60.7058666635" lon="8.81681944793">
		<tag k="alt_name" v="Syverstøl" />
		<tag k="historic" v="shieling" />
		<tag k="name" v="Syverstølen" />
		<tag k="place" v="locality" />
		<tag k="ssr:stedsnr" v="431892" />
	</node>
	<node id="-171795" lat="60.7339277777" lon="8.83671388846">
		<tag k="historic" v="shieling" />
		<tag k="name" v="Marivollen" />
		<tag k="place" v="locality" />
		<tag k="ssr:stedsnr" v="431838" />
	</node>
	<node id="-171794" lat="60.6946361128" lon="8.86325277966">
		<tag k="alt_name" v="Skaret" />
		<tag k="name" v="Skardet" />
		<tag k="place" v="locality" />
		<tag k="ssr:stedsnr" v="431354" />
	</node>
	<node id="-171793" lat="60.7026861155" lon="9.0126027712">
		<tag k="name" v="Hovli" />
		<tag k="place" v="farm" />
		<tag k="ssr:stedsnr" v="431351" />
	</node>
	<node id="-171792" lat="60.7004865301" lon="9.00847375362">
		<tag k="fixme" v="consider place=hamlet" />
		<tag k="name" v="Hoftun" />
		<tag k="place" v="farm" />
		<tag k="ssr:stedsnr" v="431349" />
	</node>
	<node id="-171791" lat="60.6878527762" lon="9.017355559">
		<tag k="name" v="Eiknes" />
		<tag k="place" v="farm" />
		<tag k="ssr:stedsnr" v="431315" />
	</node>
	<node id="-171790" lat="60.6954222195" lon="9.01448611001">
		<tag k="name" v="Storebråten" />
		<tag k="place" v="farm" />
		<tag k="ssr:stedsnr" v="431314" />
	</node>
	<node id="-171789" lat="60.6532083374" lon="9.06394165823">
		<tag k="name" v="Hjallen" />
		<tag k="place" v="farm" />
		<tag k="ssr:stedsnr" v="431303" />
	</node>
	<node id="-171787" lat="60.7475305523" lon="8.85090278442">
		<tag k="name" v="Haugo" />
		<tag k="place" v="farm" />
		<tag k="ssr:stedsnr" v="431202" />
	</node>
	<node id="-171783" lat="60.6937611083" lon="8.88737499459">
		<tag k="name" v="Rudningen" />
		<tag k="place" v="farm" />
		<tag k="ssr:stedsnr" v="422200" />
	</node>
	<node id="-171779" lat="60.7081222197" lon="8.93959444949">
		<tag k="alt_name" v="Rennsla" />
		<tag k="name" v="Renslo" />
		<tag k="place" v="farm" />
		<tag k="ssr:stedsnr" v="417397" />
	</node>
	<node id="-171778" lat="60.6921972189" lon="9.03098333296">
		<tag k="alt_name" v="Ommundsli" />
		<tag k="name" v="Amundsli" />
		<tag k="place" v="farm" />
		<tag k="ssr:stedsnr" v="417298" />
	</node>
	<node id="-171776" lat="60.7606472214" lon="8.78363888853">
		<tag k="name" v="Nordre Brennhovd" />
		<tag k="place" v="farm" />
		<tag k="ssr:stedsnr" v="252045" />
	</node>
	<node id="-171775" lat="60.7647249987" lon="8.77442499821">
		<tag k="name" v="Bråten" />
		<tag k="place" v="farm" />
		<tag k="ssr:stedsnr" v="252041" />
	</node>
	<node id="-171774" lat="60.8179583319" lon="8.9976472137">
		<tag k="historic" v="shieling" />
		<tag k="name" v="Ørterstølen" />
		<tag k="place" v="locality" />
		<tag k="ssr:stedsnr" v="251510" />
	</node>
	<node id="-171766" lat="60.7645250045" lon="8.85039999403">
		<tag k="alt_name" v="Klep søndre" />
		<tag k="name" v="Søre Klepp" />
		<tag k="place" v="farm" />
		<tag k="ssr:stedsnr" v="251323" />
	</node>
	<node id="-171764" lat="60.7962572021" lon="9.06924038835">
		<tag k="historic" v="shieling" />
		<tag k="name" v="Møne" />
		<tag k="place" v="locality" />
		<tag k="ssr:stedsnr" v="251308" />
	</node>
	<node id="-171762" lat="60.7864277767" lon="8.91786666917">
		<tag k="historic" v="shieling" />
		<tag k="name" v="Bergavollen" />
		<tag k="place" v="locality" />
		<tag k="ssr:stedsnr" v="251293" />
	</node>
	<node id="-171761" lat="60.7886194401" lon="8.88123888202">
		<tag k="historic" v="shieling" />
		<tag k="name" v="Melie" />
		<tag k="place" v="locality" />
		<tag k="ssr:stedsnr" v="251285" />
	</node>
	<node id="-171758" lat="60.7697361133" lon="8.75437221832">
		<tag k="fixme" v="multiple name tags, choose one and add the other to alt_name" />
		<tag k="name" v="Øynelie;Storøyne" />
		<tag k="place" v="farm" />
		<tag k="ssr:stedsnr" v="251023" />
	</node>
	<node id="-171754" lat="60.7087500042" lon="9.29697499245">
		<tag k="alt_name" v="Høvreslie" />
		<tag k="historic" v="shieling" />
		<tag k="name" v="Halling-Høvreslie" />
		<tag k="place" v="locality" />
		<tag k="ssr:stedsnr" v="250533" />
	</node>
	<node id="-171753" lat="60.7040138873" lon="8.90008611254">
		<tag k="name" v="Farset" />
		<tag k="place" v="farm" />
		<tag k="ssr:stedsnr" v="250364" />
	</node>
	<node id="-171751" lat="60.7217777784" lon="9.11583888727">
		<tag k="name" v="Hagarukan" />
		<tag k="place" v="isolated_dwelling" />
		<tag k="ssr:stedsnr" v="250350" />
	</node>
	<node id="-171749" lat="60.6844222259" lon="9.02887221948">
		<tag k="alt_name" v="Libråten" />
		<tag k="name" v="Liabråten" />
		<tag k="old_name" v="Skardet" />
		<tag k="place" v="isolated_dwelling" />
		<tag k="ssr:stedsnr" v="250290" />
	</node>
	<node id="-171748" lat="60.6764833378" lon="9.02981389567">
		<tag k="alt_name" v="Danielsplass" />
		<tag k="name" v="Danielsplassen" />
		<tag k="place" v="farm" />
		<tag k="ssr:stedsnr" v="250288" />
	</node>
	<node id="-171747" lat="60.7137731081" lon="8.91077899951">
		<tag k="fixme" v="consider place=hamlet" />
		<tag k="name" v="Olsgard" />
		<tag k="old_name" v="Ørsgard" />
		<tag k="place" v="farm" />
		<tag k="ssr:stedsnr" v="250132" />
	</node>
	<node id="-171746" lat="60.676541664" lon="8.81713056295">
		<tag k="name" v="Håvålmoen" />
		<tag k="old_name" v="Håvardmoen;Hovelmoen;Haavaalmoen;Haavalmoen" />
		<tag k="place" v="farm" />
		<tag k="ssr:stedsnr" v="249953" />
	</node>
	<node id="-171745" lat="60.6847027738" lon="8.84009444419">
		<tag k="name" v="Teigen" />
		<tag k="place" v="farm" />
		<tag k="ssr:stedsnr" v="249915" />
	</node>
	<node id="-171744" lat="60.7203250019" lon="8.7886749962">
		<tag k="alt_name" v="Nystølane" />
		<tag k="historic" v="shieling" />
		<tag k="name" v="Nystølan" />
		<tag k="place" v="locality" />
		<tag k="ssr:stedsnr" v="249830" />
	</node>
	<node id="-171743" lat="60.7344083374" lon="8.80411388632">
		<tag k="historic" v="shieling" />
		<tag k="name" v="Helgeset" />
		<tag k="place" v="locality" />
		<tag k="ssr:stedsnr" v="249820" />
	</node>
	<node id="-171742" lat="60.7376666659" lon="8.75005278577">
		<tag k="historic" v="shieling" />
		<tag k="name" v="Snuforinkje" />
		<tag k="place" v="locality" />
		<tag k="ssr:stedsnr" v="249802" />
	</node>
	<node id="-171741" lat="60.7461749962" lon="8.80482777774">
		<tag k="historic" v="shieling" />
		<tag k="name" v="Myklelie" />
		<tag k="place" v="locality" />
		<tag k="ssr:stedsnr" v="249783" />
	</node>
	<node id="-171740" lat="60.6341416673" lon="9.07758054786">
		<tag k="alt_name" v="Søre Rennsla" />
		<tag k="name" v="Søre Rensla" />
		<tag k="place" v="farm" />
		<tag k="ssr:stedsnr" v="249506" />
	</node>
	<node id="-171739" lat="60.6942888891" lon="8.89627222088">
		<tag k="fixme" v="consider place=hamlet" />
		<tag k="name" v="Tuppeskogen" />
		<tag k="place" v="village" />
		<tag k="ssr:stedsnr" v="249340" />
	</node>
	<node id="-171738" lat="60.699952776" lon="9.03476388844">
		<tag k="name" v="Gladhus" />
		<tag k="place" v="farm" />
		<tag k="ssr:stedsnr" v="249321" />
	</node>
	<node id="-171737" lat="60.7037194482" lon="8.86154721506">
		<tag k="alt_name" v="Halfarslett" />
		<tag k="name" v="Halvfarsletti" />
		<tag k="place" v="locality" />
		<tag k="ssr:stedsnr" v="249317" />
	</node>
	<node id="-171736" lat="60.6845148507" lon="8.86691774077">
		<tag k="fixme" v="multiple name tags, choose one and add the other to alt_name" />
		<tag k="name" v="Fossebakken;Fossebråten" />
		<tag k="place" v="farm" />
		<tag k="ssr:stedsnr" v="249287" />
	</node>
	<node id="-171735" lat="60.6579833305" lon="9.05239167452">
		<tag k="alt_name" v="Bakken" />
		<tag k="name" v="Engebakken" />
		<tag k="place" v="farm" />
		<tag k="ssr:stedsnr" v="249247" />
	</node>
	<node id="-171734" lat="60.7437694431" lon="8.86685832911">
		<tag k="alt_name" v="Gjerdingene" />
		<tag k="name" v="Gjerdingan" />
		<tag k="place" v="farm" />
		<tag k="ssr:stedsnr" v="249167" />
	</node>
	<node id="-171733" lat="60.7389166689" lon="8.89605555052">
		<tag k="alt_name" v="Rasmushaug" />
		<tag k="name" v="Rasmushaugen" />
		<tag k="place" v="farm" />
		<tag k="ssr:stedsnr" v="249162" />
	</node>
	<node id="-171731" lat="60.7267944407" lon="8.8923722257">
		<tag k="name" v="Svang" />
		<tag k="place" v="farm" />
		<tag k="ssr:stedsnr" v="249148" />
	</node>
	<node id="-171730" lat="60.7293518217" lon="8.89092561769">
		<tag k="alt_name" v="Håving" />
		<tag k="fixme" v="consider place=hamlet" />
		<tag k="name" v="Hovin" />
		<tag k="place" v="farm" />
		<tag k="ssr:stedsnr" v="249146" />
	</node>
	<node id="-171729" lat="60.7254250022" lon="8.96868888057">
		<tag k="name" v="Nymoen" />
		<tag k="place" v="farm" />
		<tag k="ssr:stedsnr" v="249137" />
	</node>
	<node id="-171728" lat="60.724794446" lon="8.96296943681">
		<tag k="name" v="Bergli" />
		<tag k="place" v="farm" />
		<tag k="ssr:stedsnr" v="249136" />
	</node>
	<node id="-171727" lat="60.7274999993" lon="8.89777776883">
		<tag k="name" v="Rese" />
		<tag k="place" v="farm" />
		<tag k="ssr:stedsnr" v="249133" />
	</node>
	<node id="-171726" lat="60.7925305521" lon="8.92778888289">
		<tag k="historic" v="shieling" />
		<tag k="name" v="Turkuppmyre" />
		<tag k="place" v="locality" />
		<tag k="ssr:stedsnr" v="241724" />
	</node>
	<node id="-171725" lat="60.7922027777" lon="8.87279165807">
		<tag k="historic" v="shieling" />
		<tag k="name" v="Nordre Sagabråten seter" />
		<tag k="place" v="locality" />
		<tag k="ssr:stedsnr" v="241647" />
	</node>
	<node id="-171724" lat="60.8004333358" lon="8.8537055475">
		<tag k="historic" v="shieling" />
		<tag k="name" v="Nordre Lauvsetstøl" />
		<tag k="place" v="locality" />
		<tag k="ssr:stedsnr" v="241648" />
	</node>
	<node id="-171723" lat="60.7899944466" lon="8.87217777435">
		<tag k="historic" v="shieling" />
		<tag k="name" v="Arnestølen" />
		<tag k="place" v="locality" />
		<tag k="ssr:stedsnr" v="241645" />
	</node>
	<node id="-171722" lat="60.7902638904" lon="8.84670000644">
		<tag k="alt_name" v="Støi" />
		<tag k="name" v="Støe" />
		<tag k="place" v="isolated_dwelling" />
		<tag k="ssr:stedsnr" v="241633" />
	</node>
	<node id="-171719" lat="60.6934638925" lon="8.94256944075">
		<tag k="name" v="Rundebråten" />
		<tag k="place" v="locality" />
		<tag k="ssr:stedsnr" v="239210" />
	</node>
	<node id="-171712" lat="60.7224611088" lon="8.89610833105">
		<tag k="name" v="Nordre Holtegard" />
		<tag k="place" v="farm" />
		<tag k="ssr:stedsnr" v="224193" />
	</node>
	<node id="-171709" lat="60.7124255433" lon="8.91618665661">
		<tag k="fixme" v="consider place=hamlet" />
		<tag k="name" v="Trondsgard" />
		<tag k="place" v="farm" />
		<tag k="ssr:stedsnr" v="224173" />
	</node>
	<node id="-171708" lat="60.6895944465" lon="8.86823611749">
		<tag k="name" v="Hanseplassen" />
		<tag k="place" v="farm" />
		<tag k="ssr:stedsnr" v="224144" />
	</node>
	<node id="-171706" lat="60.6752277822" lon="9.03272500195">
		<tag k="name" v="Øvre Pytten" />
		<tag k="place" v="farm" />
		<tag k="ssr:stedsnr" v="224030" />
	</node>
	<node id="-171702" lat="60.7668916697" lon="8.84631666178">
		<tag k="name" v="Jondalen" />
		<tag k="place" v="farm" />
		<tag k="ssr:stedsnr" v="222786" />
	</node>
	<node id="-171701" lat="60.667663887" lon="9.04137222538">
		<tag k="name" v="Hovland" />
		<tag k="place" v="farm" />
		<tag k="ssr:stedsnr" v="222352" />
	</node>
	<node id="-171700" lat="60.6837277773" lon="8.87398887976">
		<tag k="name" v="Nedrebråten" />
		<tag k="place" v="farm" />
		<tag k="ssr:stedsnr" v="222069" />
	</node>
	<node id="-171699" lat="60.740958329" lon="8.87536111258">
		<tag k="name" v="Søre Løstegard" />
		<tag k="place" v="farm" />
		<tag k="ssr:stedsnr" v="222997" />
	</node>
	<node id="-171696" lat="60.6979838944" lon="9.03243778338">
		<tag k="fixme" v="consider place=hamlet" />
		<tag k="name" v="Nørdreli" />
		<tag k="place" v="farm" />
		<tag k="ssr:stedsnr" v="219317" />
	</node>
	<node id="-171694" lat="60.7508305551" lon="8.87335834086">
		<tag k="name" v="Bakken" />
		<tag k="place" v="farm" />
		<tag k="ssr:stedsnr" v="191608" />
	</node>
	<node id="-171687" lat="60.7540555554" lon="8.72831110224">
		<tag k="historic" v="shieling" />
		<tag k="name" v="Hovdestølen" />
		<tag k="place" v="locality" />
		<tag k="ssr:stedsnr" v="191041" />
	</node>
	<node id="-171683" lat="60.7529361121" lon="8.86874722724">
		<tag k="alt_name" v="Rusten" />
		<tag k="name" v="Rusti" />
		<tag k="place" v="farm" />
		<tag k="ssr:stedsnr" v="190343" />
	</node>
	<node id="-171682" lat="60.7799944457" lon="9.05763889056">
		<tag k="alt_name" v="Haug" />
		<tag k="name" v="Tubbehaugen" />
		<tag k="place" v="farm" />
		<tag k="ssr:stedsnr" v="190314" />
	</node>
	<node id="-171680" lat="60.7598805587" lon="9.09643332434">
		<tag k="historic" v="shieling" />
		<tag k="name" v="Steinstølan" />
		<tag k="place" v="locality" />
		<tag k="ssr:stedsnr" v="190294" />
	</node>
	<node id="-171679" lat="60.7954083376" lon="9.15951388354">
		<tag k="name" v="Fanterud" />
		<tag k="place" v="farm" />
		<tag k="ssr:stedsnr" v="190290" />
	</node>
	<node id="-171678" lat="60.801179502" lon="9.06390757329">
		<tag k="historic" v="shieling" />
		<tag k="name" v="Lyservollen" />
		<tag k="place" v="locality" />
		<tag k="ssr:stedsnr" v="190286" />
	</node>
	<node id="-171675" lat="60.7819749986" lon="8.95183332724">
		<tag k="alt_name" v="Bakken seter" />
		<tag k="historic" v="shieling" />
		<tag k="name" v="Bakkestølen" />
		<tag k="place" v="locality" />
		<tag k="ssr:stedsnr" v="190255" />
	</node>
	<node id="-171673" lat="60.6915388923" lon="9.03693611402">
		<tag k="name" v="Haugen" />
		<tag k="place" v="farm" />
		<tag k="ssr:stedsnr" v="189887" />
	</node>
	<node id="-171672" lat="60.7456781382" lon="9.2585642571">
		<tag k="historic" v="shieling" />
		<tag k="name" v="Bergaleina" />
		<tag k="place" v="locality" />
		<tag k="ssr:stedsnr" v="189474" />
	</node>
	<node id="-171671" lat="60.6370333362" lon="9.06146111434">
		<tag k="name" v="Elvestad" />
		<tag k="place" v="farm" />
		<tag k="ssr:stedsnr" v="189444" />
	</node>
	<node id="-171670" lat="60.7086000002" lon="9.01725833422">
		<tag k="name" v="Berget" />
		<tag k="place" v="farm" />
		<tag k="ssr:stedsnr" v="189346" />
	</node>
	<node id="-171668" lat="60.7111120087" lon="8.91680582018">
		<tag k="fixme" v="consider place=hamlet" />
		<tag k="name" v="Storla" />
		<tag k="place" v="farm" />
		<tag k="ssr:stedsnr" v="189338" />
	</node>
	<node id="-171666" lat="60.7199999959" lon="9.15303888621">
		<tag k="historic" v="shieling" />
		<tag k="name" v="Holtelie" />
		<tag k="place" v="locality" />
		<tag k="ssr:stedsnr" v="189323" />
	</node>
	<node id="-171665" lat="60.6912055566" lon="8.88220000792">
		<tag k="name" v="Slåtto" />
		<tag k="place" v="farm" />
		<tag k="ssr:stedsnr" v="189320" />
	</node>
	<node id="-171664" lat="60.6907495079" lon="8.87580255475">
		<tag k="alt_name" v="Gjeglheim" />
		<tag k="fixme" v="consider place=hamlet" />
		<tag k="name" v="Jegleim" />
		<tag k="place" v="farm" />
		<tag k="ssr:stedsnr" v="189318" />
	</node>
	<node id="-171660" lat="60.7326138875" lon="8.88410277871">
		<tag k="name" v="Svarteberg" />
		<tag k="place" v="farm" />
		<tag k="ssr:stedsnr" v="189149" />
	</node>
	<node id="-171657" lat="60.7290416679" lon="8.87282221762">
		<tag k="name" v="Svartebråten" />
		<tag k="place" v="farm" />
		<tag k="ssr:stedsnr" v="189139" />
	</node>
	<node id="-171656" lat="60.7215638845" lon="8.94336388948">
		<tag k="alt_name" v="Espedokken" />
		<tag k="name" v="Espedokki" />
		<tag k="place" v="farm" />
		<tag k="ssr:stedsnr" v="189119" />
	</node>
	<node id="-171654" lat="60.7193194425" lon="8.89965556413">
		<tag k="alt_name" v="Bleiktvedt" />
		<tag k="name" v="Bleikfet" />
		<tag k="place" v="farm" />
		<tag k="ssr:stedsnr" v="189116" />
	</node>
	<node id="-171651" lat="60.6944083339" lon="8.83666110813">
		<tag k="name" v="Hagen" />
		<tag k="place" v="farm" />
		<tag k="ssr:stedsnr" v="188916" />
	</node>
	<node id="-171650" lat="60.7223944477" lon="8.78407500844">
		<tag k="historic" v="shieling" />
		<tag k="name" v="Ronestølen" />
		<tag k="place" v="locality" />
		<tag k="ssr:stedsnr" v="188837" />
	</node>
	<node id="-171649" lat="60.742880555" lon="8.87975555794">
		<tag k="name" v="Viljugrein" />
		<tag k="place" v="farm" />
		<tag k="ssr:stedsnr" v="188216" />
	</node>
	<node id="-171648" lat="60.7493333364" lon="8.87498056161">
		<tag k="name" v="Bakken" />
		<tag k="place" v="farm" />
		<tag k="ssr:stedsnr" v="188215" />
	</node>
	<node id="-171647" lat="60.6977055577" lon="8.93216110837">
		<tag k="alt_name" v="Glitremoen" />
		<tag k="name" v="Glitre" />
		<tag k="place" v="quarter" />
		<tag k="ssr:stedsnr" v="188342" />
	</node>
	<node id="-171646" lat="60.7798972233" lon="8.97330000148">
		<tag k="name" v="Sevjabakken" />
		<tag k="place" v="locality" />
		<tag k="ssr:stedsnr" v="180733" />
	</node>
	<node id="-171645" lat="60.7834111102" lon="8.95144443973">
		<tag k="loc_name" v="Eidsvallvollen" />
		<tag k="name" v="Eidsvoll" />
		<tag k="place" v="isolated_dwelling" />
		<tag k="ssr:stedsnr" v="180731" />
	</node>
	<node id="-171644" lat="60.6957293658" lon="9.00717774231">
		<tag k="fixme" v="consider place=hamlet" />
		<tag k="name" v="Eikle" />
		<tag k="place" v="farm" />
		<tag k="ssr:stedsnr" v="180668" />
	</node>
	<node id="-171643" lat="60.799872223" lon="8.84204166426">
		<tag k="name" v="Gjerdingvollen" />
		<tag k="place" v="isolated_dwelling" />
		<tag k="ssr:stedsnr" v="180663" />
	</node>
	<node id="-171642" lat="60.8001694473" lon="8.8672305637">
		<tag k="historic" v="shieling" />
		<tag k="name" v="Raubakken seter" />
		<tag k="place" v="locality" />
		<tag k="ssr:stedsnr" v="180655" />
	</node>
	<node id="-171641" lat="60.7930249963" lon="8.86090555636">
		<tag k="historic" v="shieling" />
		<tag k="name" v="Skagastølen" />
		<tag k="place" v="locality" />
		<tag k="ssr:stedsnr" v="180648" />
	</node>
	<node id="-171632" lat="60.6983555587" lon="8.9718861072">
		<tag k="name" v="Nørdre Nøreim" />
		<tag k="place" v="farm" />
		<tag k="ssr:stedsnr" v="174218" />
	</node>
	<node id="-171631" lat="60.6744166625" lon="9.12749165917">
		<tag k="alt_name" v="Ommundhytta" />
		<tag k="name" v="Amundhytta" />
		<tag k="place" v="isolated_dwelling" />
		<tag k="ssr:stedsnr" v="174284" />
	</node>
	<node id="-171627" lat="60.7196249982" lon="8.96249999905">
		<tag k="name" v="Dalen" />
		<tag k="place" v="farm" />
		<tag k="ssr:stedsnr" v="163179" />
	</node>
	<node id="-171626" lat="60.7212583349" lon="8.96092222693">
		<tag k="name" v="Gjerden" />
		<tag k="place" v="farm" />
		<tag k="ssr:stedsnr" v="163177" />
	</node>
	<node id="-171625" lat="60.7219305536" lon="8.93720555519">
		<tag k="name" v="Graneid" />
		<tag k="place" v="farm" />
		<tag k="ssr:stedsnr" v="163175" />
	</node>
	<node id="-171624" lat="60.721366664" lon="8.89741388899">
		<tag k="name" v="Holtegard" />
		<tag k="place" v="farm" />
		<tag k="ssr:stedsnr" v="163168" />
	</node>
	<node id="-171622" lat="60.7107638902" lon="8.9247472235">
		<tag k="name" v="Teigen" />
		<tag k="place" v="farm" />
		<tag k="ssr:stedsnr" v="163144" />
	</node>
	<node id="-171620" lat="60.6872388877" lon="9.03861389069">
		<tag k="name" v="Hjalleskaret" />
		<tag k="place" v="farm" />
		<tag k="ssr:stedsnr" v="163003" />
	</node>
	<node id="-171619" lat="60.7499388926" lon="8.83658055789">
		<tag k="name" v="Smøttebråten" />
		<tag k="place" v="farm" />
		<tag k="ssr:stedsnr" v="161997" />
	</node>
	<node id="-171618" lat="60.7392861095" lon="8.87549721522">
		<tag k="name" v="Søre Ro" />
		<tag k="place" v="farm" />
		<tag k="ssr:stedsnr" v="161996" />
	</node>
	<node id="-171616" lat="60.74676667" lon="8.73781944858">
		<tag k="historic" v="shieling" />
		<tag k="name" v="Jordheimstølen" />
		<tag k="place" v="locality" />
		<tag k="ssr:stedsnr" v="161877" />
	</node>
	<node id="-171613" lat="60.664727777" lon="9.04191666179">
		<tag k="name" v="Haugen" />
		<tag k="place" v="farm" />
		<tag k="ssr:stedsnr" v="161400" />
	</node>
	<node id="-171612" lat="60.6569305557" lon="9.05423610371">
		<tag k="alt_name" v="Søre Engene" />
		<tag k="name" v="Søre Engjan" />
		<tag k="old_name" v="Søre Enganne" />
		<tag k="place" v="farm" />
		<tag k="ssr:stedsnr" v="161396" />
	</node>
	<node id="-171611" lat="60.6790527764" lon="8.80794722947">
		<tag k="name" v="Botten" />
		<tag k="place" v="farm" />
		<tag k="ssr:stedsnr" v="161377" />
	</node>
	<node id="-171610" lat="60.6846361084" lon="8.88467778001">
		<tag k="name" v="Rustberggard" />
		<tag k="place" v="farm" />
		<tag k="ssr:stedsnr" v="161090" />
	</node>
	<node id="-171609" lat="60.8367694445" lon="8.8453000008">
		<tag k="historic" v="shieling" />
		<tag k="name" v="Veslevollen" />
		<tag k="place" v="locality" />
		<tag k="ssr:stedsnr" v="159527" />
	</node>
	<node id="-171608" lat="60.86498889" lon="8.84617499119">
		<tag k="historic" v="shieling" />
		<tag k="name" v="Nystølen" />
		<tag k="place" v="locality" />
		<tag k="ssr:stedsnr" v="159512" />
	</node>
	<node id="-171607" lat="60.8023083369" lon="8.86843334243">
		<tag k="name" v="Øyevollen" />
		<tag k="place" v="isolated_dwelling" />
		<tag k="ssr:stedsnr" v="159333" />
	</node>
	<node id="-171605" lat="60.7850083294" lon="9.00031110542">
		<tag k="fixme" v="multiple name tags, choose one and add the other to alt_name" />
		<tag k="historic" v="shieling" />
		<tag k="loc_name" v="Rustevollen" />
		<tag k="name" v="Rust heimseter;Rust nedre seter" />
		<tag k="place" v="locality" />
		<tag k="ssr:stedsnr" v="159286" />
	</node>
	<node id="-171603" lat="60.8001277819" lon="8.99616110807">
		<tag k="name" v="Espedokkmyri" />
		<tag k="place" v="farm" />
		<tag k="ssr:stedsnr" v="159267" />
	</node>
	<node id="-171599" lat="60.8401361153" lon="8.85393055344">
		<tag k="historic" v="shieling" />
		<tag k="name" v="Nystølen" />
		<tag k="place" v="locality" />
		<tag k="ssr:stedsnr" v="130412" />
	</node>
	<node id="-171593" lat="60.8023611125" lon="8.97998888309">
		<tag k="alt_name" v="Kamben hotell" />
		<tag k="historic" v="shieling" />
		<tag k="name" v="Kamben" />
		<tag k="place" v="locality" />
		<tag k="ssr:stedsnr" v="129284" />
	</node>
	<node id="-171591" lat="60.8365181044" lon="8.84773249808">
		<tag k="historic" v="shieling" />
		<tag k="name" v="Lauvsjø" />
		<tag k="place" v="locality" />
		<tag k="ssr:stedsnr" v="129205" />
	</node>
	<node id="-171588" lat="60.7073305542" lon="8.91737221504">
		<tag k="alt_name" v="Jorde" />
		<tag k="name" v="Jordet" />
		<tag k="place" v="farm" />
		<tag k="ssr:stedsnr" v="128342" />
	</node>
	<node id="-171587" lat="60.7069777805" lon="8.95392221731">
		<tag k="name" v="Hjallen" />
		<tag k="place" v="farm" />
		<tag k="ssr:stedsnr" v="128335" />
	</node>
	<node id="-171585" lat="60.711469789" lon="8.87885166851">
		<tag k="fixme" v="multiple name tags, choose one and add the other to alt_name" />
		<tag k="historic" v="shieling" />
		<tag k="name" v="Rudningsskaran;Rudningsstølen" />
		<tag k="old_name" v="Botteskaran;Nifstadskaran;Botteskarene" />
		<tag k="place" v="locality" />
		<tag k="ssr:stedsnr" v="128324" />
	</node>
	<node id="-171583" lat="60.7021138845" lon="9.04528055431">
		<tag k="name" v="Haugen" />
		<tag k="place" v="farm" />
		<tag k="ssr:stedsnr" v="128294" />
	</node>
	<node id="-171582" lat="60.6947444467" lon="9.03803611821">
		<tag k="name" v="Bergo" />
		<tag k="place" v="farm" />
		<tag k="ssr:stedsnr" v="128293" />
	</node>
	<node id="-171576" lat="60.6937888911" lon="9.01864166364">
		<tag k="name" v="Bruflat" />
		<tag k="place" v="isolated_dwelling" />
		<tag k="ssr:stedsnr" v="128257" />
	</node>
	<node id="-171573" lat="60.7087500042" lon="9.29697499245">
		<tag k="name" v="Dokkvollen" />
		<tag k="place" v="locality" />
		<tag k="ssr:stedsnr" v="128226" />
	</node>
	<node id="-171572" lat="60.7372544994" lon="8.87363643317">
		<tag k="fixme" v="consider place=hamlet" />
		<tag k="name" v="Blakkestad" />
		<tag k="place" v="farm" />
		<tag k="ssr:stedsnr" v="128139" />
	</node>
	<node id="-171567" lat="60.7243845773" lon="8.9841305531">
		<tag k="name" v="Austre Rust" />
		<tag k="place" v="farm" />
		<tag k="ssr:stedsnr" v="128111" />
	</node>
	<node id="-171566" lat="60.7260305523" lon="8.98528055349">
		<tag k="name" v="Rusteplassen" />
		<tag k="old_name" v="Rustepladsen" />
		<tag k="place" v="farm" />
		<tag k="ssr:stedsnr" v="128110" />
	</node>
	<node id="-171565" lat="60.7138944427" lon="8.95792777427">
		<tag k="alt_name" v="Stølsdokken" />
		<tag k="name" v="Stølsdokki" />
		<tag k="place" v="farm" />
		<tag k="ssr:stedsnr" v="128095" />
	</node>
	<node id="-171563" lat="60.6728055534" lon="8.81127500752">
		<tag k="name" v="Velta" />
		<tag k="place" v="isolated_dwelling" />
		<tag k="ssr:stedsnr" v="127955" />
	</node>
	<node id="-171562" lat="60.696144442" lon="8.81810000003">
		<tag k="name" v="Helgeset" />
		<tag k="place" v="locality" />
		<tag k="ssr:stedsnr" v="127899" />
	</node>
	<node id="-171561" lat="60.7010500002" lon="8.78394722666">
		<tag k="alt_name" v="Finnestøl" />
		<tag k="historic" v="shieling" />
		<tag k="name" v="Finnestølen" />
		<tag k="place" v="locality" />
		<tag k="ssr:stedsnr" v="127895" />
	</node>
	<node id="-171560" lat="60.7078305587" lon="8.80654443786">
		<tag k="historic" v="shieling" />
		<tag k="name" v="Haugastølen" />
		<tag k="place" v="locality" />
		<tag k="ssr:stedsnr" v="127880" />
	</node>
	<node id="-171558" lat="60.7183638852" lon="8.77642777441">
		<tag k="historic" v="shieling" />
		<tag k="name" v="Gamlevollen" />
		<tag k="place" v="locality" />
		<tag k="ssr:stedsnr" v="127846" />
	</node>
	<node id="-171557" lat="60.7148611076" lon="8.81029722757">
		<tag k="historic" v="shieling" />
		<tag k="name" v="Høysjøstølen" />
		<tag k="place" v="locality" />
		<tag k="ssr:stedsnr" v="127843" />
	</node>
	<node id="-171555" lat="60.7482277818" lon="8.83319722158">
		<tag k="alt_name" v="Raunedokken" />
		<tag k="name" v="Raunedokki" />
		<tag k="place" v="farm" />
		<tag k="ssr:stedsnr" v="127821" />
	</node>
	<node id="-171554" lat="60.7975694458" lon="8.84427499494">
		<tag k="historic" v="shieling" />
		<tag k="name" v="Svellestølen" />
		<tag k="place" v="locality" />
		<tag k="ssr:stedsnr" v="119673" />
	</node>
	<node id="-171553" lat="60.786433335" lon="8.91112777891">
		<tag k="historic" v="shieling" />
		<tag k="name" v="Eidsgardvollen" />
		<tag k="place" v="locality" />
		<tag k="ssr:stedsnr" v="119662" />
	</node>
	<node id="-171551" lat="60.7005833354" lon="8.91235277858">
		<tag k="name" v="Furujordet" />
		<tag k="place" v="farm" />
		<tag k="ssr:stedsnr" v="118196" />
	</node>
	<node id="-171550" lat="60.7075694401" lon="8.92622221715">
		<tag k="name" v="Røysi" />
		<tag k="place" v="farm" />
		<tag k="ssr:stedsnr" v="118195" />
	</node>
	<node id="-171548" lat="60.6950888928" lon="8.88716944898">
		<tag k="name" v="Rasmusgarden" />
		<tag k="place" v="farm" />
		<tag k="ssr:stedsnr" v="118180" />
	</node>
	<node id="-171545" lat="60.64929722" lon="9.06230555767">
		<tag k="alt_name" v="Lii" />
		<tag k="name" v="Lien" />
		<tag k="place" v="farm" />
		<tag k="ssr:stedsnr" v="110699" />
	</node>
	<node id="-171544" lat="60.687797222" lon="9.03610556268">
		<tag k="name" v="Brenno" />
		<tag k="place" v="farm" />
		<tag k="ssr:stedsnr" v="110262" />
	</node>
	<node id="-171539" lat="60.7270666681" lon="8.88355555202">
		<tag k="name" v="Sjåheim" />
		<tag k="place" v="farm" />
		<tag k="ssr:stedsnr" v="102207" />
	</node>
	<node id="-171535" lat="60.6998583306" lon="9.00523888396">
		<tag k="name" v="Nedre Hoftun" />
		<tag k="place" v="farm" />
		<tag k="ssr:stedsnr" v="102172" />
	</node>
	<node id="-171534" lat="60.6924222215" lon="8.85924999451">
		<tag k="name" v="Lauvdokki" />
		<tag k="place" v="farm" />
		<tag k="ssr:stedsnr" v="102125" />
	</node>
	<node id="-171531" lat="60.6934682358" lon="9.02987226487">
		<tag k="name" v="Li" />
		<tag k="place" v="hamlet" />
		<tag k="ssr:stedsnr" v="102005" />
	</node>
	<node id="-171529" lat="60.69176667" lon="8.8208361044">
		<tag k="name" v="Mellom-Grov" />
		<tag k="place" v="farm" />
		<tag k="ssr:stedsnr" v="101437" />
	</node>
	<node id="-171525" lat="60.6926694436" lon="8.89435555815">
		<tag k="name" v="Smedsgarden" />
		<tag k="old_name" v="Smedsgården;Smedsgaarden" />
		<tag k="place" v="farm" />
		<tag k="ssr:stedsnr" v="100310" />
	</node>
	<node id="-171523" lat="60.8320694418" lon="8.83507777625">
		<tag k="name" v="Botolvshaugen" />
		<tag k="place" v="farm" />
		<tag k="ssr:stedsnr" v="99491" />
	</node>
	<node id="-171520" lat="60.8542833312" lon="8.91428888263">
		<tag k="historic" v="shieling" />
		<tag k="loc_name" v="Glomsrudvollen" />
		<tag k="name" v="Glomsrud seter" />
		<tag k="place" v="locality" />
		<tag k="ssr:stedsnr" v="99467" />
	</node>
	<node id="-171519" lat="60.8027555531" lon="8.97750833892">
		<tag k="fixme" v="multiple name tags, choose one and add the other to alt_name" />
		<tag k="historic" v="shieling" />
		<tag k="name" v="Eidsvallvollen;Sollisetre" />
		<tag k="place" v="locality" />
		<tag k="ssr:stedsnr" v="99375" />
	</node>
	<node id="-171516" lat="60.8528750029" lon="8.91780555161">
		<tag k="historic" v="shieling" />
		<tag k="name" v="Jordesvollen" />
		<tag k="place" v="locality" />
		<tag k="ssr:stedsnr" v="70444" />
	</node>
	<node id="-171515" lat="60.8343840115" lon="8.99832568166">
		<tag k="historic" v="shieling" />
		<tag k="name" v="Oset" />
		<tag k="place" v="locality" />
		<tag k="ssr:stedsnr" v="70412" />
	</node>
	<node id="-171513" lat="60.751744448" lon="8.79839443877">
		<tag k="name" v="Larsbråten" />
		<tag k="place" v="isolated_dwelling" />
		<tag k="ssr:stedsnr" v="70053" />
	</node>
	<node id="-171511" lat="60.7551805528" lon="8.81037777591">
		<tag k="name" v="Grønlio" />
		<tag k="place" v="hamlet" />
		<tag k="ssr:stedsnr" v="70026" />
	</node>
	<node id="-171509" lat="60.7689805574" lon="8.90051110896">
		<tag k="alt_name" v="Roskaret" />
		<tag k="historic" v="shieling" />
		<tag k="name" v="Roskardet" />
		<tag k="place" v="locality" />
		<tag k="ssr:stedsnr" v="69331" />
	</node>
	<node id="-171506" lat="60.7717305519" lon="9.00413055723">
		<tag k="name" v="Hamarstad" />
		<tag k="place" v="locality" />
		<tag k="ssr:stedsnr" v="69318" />
	</node>
	<node id="-171503" lat="60.7919416654" lon="9.0615527858">
		<tag k="historic" v="shieling" />
		<tag k="name" v="Lægret" />
		<tag k="place" v="locality" />
		<tag k="ssr:stedsnr" v="69275" />
	</node>
	<node id="-171501" lat="60.832672226" lon="8.82098610673">
		<tag k="alt_name" v="Hjartingstølane" />
		<tag k="historic" v="shieling" />
		<tag k="name" v="Hjartingstølan" />
		<tag k="place" v="locality" />
		<tag k="ssr:stedsnr" v="69208" />
	</node>
	<node id="-171499" lat="60.8004722263" lon="8.95839999529">
		<tag k="alt_name" v="Lille Einarset" />
		<tag k="historic" v="shieling" />
		<tag k="name" v="Vesle Einarset" />
		<tag k="place" v="locality" />
		<tag k="ssr:stedsnr" v="69512" />
	</node>
	<node id="-171494" lat="60.7110226722" lon="8.92195281297">
		<tag k="fixme" v="consider place=hamlet" />
		<tag k="name" v="Lagmannsgard" />
		<tag k="old_name" v="Lagmansgard" />
		<tag k="place" v="farm" />
		<tag k="ssr:stedsnr" v="68377" />
	</node>
	<node id="-171493" lat="60.7014194486" lon="8.94550555376">
		<tag k="name" v="Gol" />
		<tag k="place" v="village" />
		<tag k="ssr:stedsnr" v="68372" />
	</node>
	<node id="-171492" lat="60.7098944479" lon="8.89761388467">
		<tag k="historic" v="shieling" />
		<tag k="name" v="Nygjerdun" />
		<tag k="place" v="locality" />
		<tag k="ssr:stedsnr" v="68363" />
	</node>
	<node id="-171491" lat="60.7136055529" lon="9.09389166228">
		<tag k="alt_name" v="Bjørkeskar;Bjørkeskar Sr" />
		<tag k="name" v="Bjørkeskardsstølen" />
		<tag k="place" v="isolated_dwelling" />
		<tag k="ssr:stedsnr" v="68359" />
	</node>
	<node id="-171489" lat="60.6764305543" lon="9.20301944045">
		<tag k="name" v="Gamlevollen" />
		<tag k="place" v="isolated_dwelling" />
		<tag k="ssr:stedsnr" v="68313" />
	</node>
	<node id="-171488" lat="60.7356694417" lon="8.78947222261">
		<tag k="historic" v="shieling" />
		<tag k="name" v="Lislastølen" />
		<tag k="place" v="locality" />
		<tag k="ssr:stedsnr" v="67818" />
	</node>
	<node id="-171487" lat="60.6891222245" lon="8.81685833283">
		<tag k="alt_name" v="Oterdokki;Otterdokken" />
		<tag k="name" v="Otterdokki" />
		<tag k="place" v="farm" />
		<tag k="ssr:stedsnr" v="67909" />
	</node>
	<node id="-171485" lat="60.6939361105" lon="8.91892777931">
		<tag k="name" v="Klemma" />
		<tag k="place" v="farm" />
		<tag k="ssr:stedsnr" v="67358" />
	</node>
	<node id="-171483" lat="60.699347218" lon="8.99096943852">
		<tag k="name" v="Fredheim" />
		<tag k="place" v="farm" />
		<tag k="ssr:stedsnr" v="67349" />
	</node>
	<node id="-171481" lat="60.6996999961" lon="9.03987499172">
		<tag k="alt_name" v="Rusten" />
		<tag k="name" v="Rusti" />
		<tag k="place" v="farm" />
		<tag k="ssr:stedsnr" v="67344" />
	</node>
	<node id="-171480" lat="60.6864583297" lon="8.8944666616">
		<tag k="alt_name" v="Slåtten" />
		<tag k="name" v="Slåtta" />
		<tag k="place" v="farm" />
		<tag k="ssr:stedsnr" v="67317" />
	</node>
	<node id="-171479" lat="60.7428861113" lon="9.09392500437">
		<tag k="historic" v="shieling" />
		<tag k="name" v="Gjøta" />
		<tag k="place" v="locality" />
		<tag k="ssr:stedsnr" v="67205" />
	</node>
	<node id="-171476" lat="60.7222916697" lon="8.96612778482">
		<tag k="alt_name" v="Rusten" />
		<tag k="name" v="Rusti" />
		<tag k="place" v="farm" />
		<tag k="ssr:stedsnr" v="67169" />
	</node>
	<node id="-171474" lat="60.7991694452" lon="8.84612500418">
		<tag k="historic" v="shieling" />
		<tag k="name" v="Nordre Klepp seter" />
		<tag k="place" v="locality" />
		<tag k="ssr:stedsnr" v="59659" />
	</node>
	<node id="-171468" lat="60.6622747371" lon="9.04390329808">
		<tag k="alt_name" v="Nordengene" />
		<tag k="name" v="Nordengjan" />
		<tag k="place" v="farm" />
		<tag k="ssr:stedsnr" v="49582" />
	</node>
	<node id="-171467" lat="60.7225268793" lon="8.95232638491">
		<tag k="alt_name" v="Trelverket" />
		<tag k="fixme" v="consider place=hamlet" />
		<tag k="name" v="Treverket" />
		<tag k="place" v="farm" />
		<tag k="ssr:stedsnr" v="49468" />
	</node>
	<node id="-171466" lat="60.6912416712" lon="8.87229444621">
		<tag k="alt_name" v="Øvre Gjeglheim" />
		<tag k="name" v="Øvre Jegleim" />
		<tag k="place" v="farm" />
		<tag k="ssr:stedsnr" v="48181" />
	</node>
	<node id="-171464" lat="60.7692000033" lon="8.83910834083">
		<tag k="name" v="Solhaug" />
		<tag k="place" v="isolated_dwelling" />
		<tag k="ssr:stedsnr" v="43537" />
	</node>
	<node id="-171462" lat="60.7673805597" lon="8.76180556468">
		<tag k="name" v="Olsgardlie" />
		<tag k="place" v="farm" />
		<tag k="ssr:stedsnr" v="42797" />
	</node>
	<node id="-171458" lat="60.7351972241" lon="8.87824444495">
		<tag k="name" v="Austre Blakkestad" />
		<tag k="place" v="farm" />
		<tag k="ssr:stedsnr" v="41185" />
	</node>
	<node id="-171457" lat="60.7220694407" lon="8.89878611965">
		<tag k="alt_name" v="Pershus" />
		<tag k="name" v="Perhus" />
		<tag k="place" v="farm" />
		<tag k="ssr:stedsnr" v="41183" />
	</node>
	<node id="-171456" lat="60.7154750001" lon="8.90782221521">
		<tag k="name" v="Nedre Sagabråten" />
		<tag k="place" v="farm" />
		<tag k="ssr:stedsnr" v="41177" />
	</node>
	<node id="-171455" lat="60.7013849438" lon="9.00149200943">
		<tag k="fixme" v="consider place=hamlet" />
		<tag k="name" v="Hagen" />
		<tag k="place" v="farm" />
		<tag k="ssr:stedsnr" v="41156" />
	</node>
	<node id="-171454" lat="60.7004944485" lon="9.01190555911">
		<tag k="fixme" v="multiple name tags, choose one and add the other to alt_name" />
		<tag k="name" v="Bråten;Torejordet" />
		<tag k="place" v="farm" />
		<tag k="ssr:stedsnr" v="41154" />
	</node>
	<node id="-171453" lat="60.7403250045" lon="8.86313055559">
		<tag k="name" v="Hagen" />
		<tag k="place" v="farm" />
		<tag k="ssr:stedsnr" v="40997" />
	</node>
	<node id="-171452" lat="60.7429111075" lon="8.87144721607">
		<tag k="name" v="Ekrehaugen" />
		<tag k="place" v="farm" />
		<tag k="ssr:stedsnr" v="40994" />
	</node>
	<node id="-171451" lat="60.7494527735" lon="8.85876388005">
		<tag k="name" v="Eidsberget" />
		<tag k="place" v="farm" />
		<tag k="ssr:stedsnr" v="40991" />
	</node>
	<node id="-171450" lat="60.73934722" lon="8.82447777633">
		<tag k="name" v="Rustene" />
		<tag k="place" v="isolated_dwelling" />
		<tag k="ssr:stedsnr" v="40903" />
	</node>
	<node id="-171449" lat="60.6834583338" lon="8.84010556201">
		<tag k="name" v="Perigard" />
		<tag k="place" v="farm" />
		<tag k="ssr:stedsnr" v="40439" />
	</node>
	<node id="-171448" lat="60.7245668135" lon="8.98455006955">
		<tag k="fixme" v="consider place=hamlet" />
		<tag k="name" v="Rust" />
		<tag k="place" v="farm" />
		<tag k="ssr:stedsnr" v="39776" />
	</node>
	<node id="-171447" lat="60.7519805564" lon="9.03652777083">
		<tag k="name" v="Stølsdokkhytta" />
		<tag k="place" v="isolated_dwelling" />
		<tag k="ssr:stedsnr" v="39758" />
	</node>
	<node id="-171445" lat="60.7835277777" lon="8.99764999526">
		<tag k="name" v="Bergavollen" />
		<tag k="place" v="farm" />
		<tag k="ssr:stedsnr" v="38305" />
	</node>
	<node id="-171444" lat="60.7865166636" lon="9.00896389384">
		<tag k="name" v="Myreng" />
		<tag k="place" v="farm" />
		<tag k="ssr:stedsnr" v="38294" />
	</node>
	<node id="-171443" lat="60.8482583319" lon="8.89914166913">
		<tag k="alt_name" v="Gjerden seter" />
		<tag k="name" v="Gjerdestølen" />
		<tag k="place" v="isolated_dwelling" />
		<tag k="ssr:stedsnr" v="9459" />
	</node>
	<node id="-171441" lat="60.8294944405" lon="8.98135277816">
		<tag k="historic" v="shieling" />
		<tag k="name" v="Fjellro" />
		<tag k="place" v="locality" />
		<tag k="ssr:stedsnr" v="9445" />
	</node>
	<node id="-171440" lat="60.8502166653" lon="8.8900249993">
		<tag k="name" v="Golsfjell Fjellstue" />
		<tag k="old_name" v="Golsfjell Turisthytte;Gol Turisthytte" />
		<tag k="ssr:stedsnr" v="9405" />
		<tag k="tourism" v="hotel" />
	</node>
	<node id="-171439" lat="60.7566187089" lon="8.76627538406">
		<tag k="historic" v="shieling" />
		<tag k="name" v="Sjauset" />
		<tag k="place" v="locality" />
		<tag k="ssr:stedsnr" v="9028" />
	</node>
	<node id="-171436" lat="60.8019472211" lon="8.96580554908">
		<tag k="historic" v="shieling" />
		<tag k="name" v="Vestre Einarset" />
		<tag k="place" v="locality" />
		<tag k="ssr:stedsnr" v="8503" />
	</node>
	<node id="-171435" lat="60.8023277766" lon="8.9920805536">
		<tag k="alt_name" v="Stakestølen;Stakesetra" />
		<tag k="historic" v="shieling" />
		<tag k="name" v="Rudningsvollen" />
		<tag k="place" v="locality" />
		<tag k="ssr:stedsnr" v="8501" />
	</node>
	<node id="-171432" lat="60.7864388881" lon="8.90596666936">
		<tag k="historic" v="shieling" />
		<tag k="name" v="Svartebråtstølen" />
		<tag k="old_name" v="Svartebråtsetra;Svartebråtsetre" />
		<tag k="place" v="locality" />
		<tag k="ssr:stedsnr" v="8304" />
	</node>
	<node id="-171426" lat="60.7781583289" lon="8.75893611169">
		<tag k="alt_name" v="Strømstad" />
		<tag k="name" v="Straumstad" />
		<tag k="place" v="farm" />
		<tag k="ssr:stedsnr" v="8033" />
	</node>
	<node id="-171425" lat="60.7682570078" lon="8.84206993112">
		<tag k="fixme" v="consider place=hamlet" />
		<tag k="name" v="Nordre Klepp" />
		<tag k="place" v="farm" />
		<tag k="ssr:stedsnr" v="8024" />
	</node>
	<node id="-171421" lat="60.7060888901" lon="9.01546110502">
		<tag k="name" v="Brenno" />
		<tag k="place" v="farm" />
		<tag k="ssr:stedsnr" v="7369" />
	</node>
	<node id="-171419" lat="60.7048805554" lon="8.85584445353">
		<tag k="alt_name" v="Tjernset" />
		<tag k="historic" v="shieling" />
		<tag k="name" v="Tjernsetstølen" />
		<tag k="place" v="locality" />
		<tag k="ssr:stedsnr" v="7354" />
	</node>
	<node id="-171418" lat="60.7116605375" lon="8.91216007268">
		<tag k="fixme" v="consider place=hamlet" />
		<tag k="name" v="Brekke" />
		<tag k="place" v="farm" />
		<tag k="ssr:stedsnr" v="7352" />
	</node>
	<node id="-171415" lat="60.6782583335" lon="9.06565833377">
		<tag k="alt_name" v="Veikulseter;Veikul Sr" />
		<tag k="historic" v="shieling" />
		<tag k="name" v="Veikulstølan" />
		<tag k="place" v="locality" />
		<tag k="ssr:stedsnr" v="7300" />
	</node>
	<node id="-171414" lat="60.6780444448" lon="9.03038333607">
		<tag k="name" v="Dokken" />
		<tag k="place" v="farm" />
		<tag k="ssr:stedsnr" v="7296" />
	</node>
	<node id="-171413" lat="60.6819027754" lon="8.99194443552">
		<tag k="name" v="Nøreimshytta" />
		<tag k="place" v="isolated_dwelling" />
		<tag k="ssr:stedsnr" v="7289" />
	</node>
	<node id="-171410" lat="60.7313277805" lon="9.18952222859">
		<tag k="name" v="Holet" />
		<tag k="place" v="isolated_dwelling" />
		<tag k="ssr:stedsnr" v="7160" />
	</node>
	<node id="-171409" lat="60.7337111095" lon="9.21135833568">
		<tag k="name" v="Grøset" />
		<tag k="place" v="isolated_dwelling" />
		<tag k="ssr:stedsnr" v="7159" />
	</node>
	<node id="-171408" lat="60.681191667" lon="8.80851945247">
		<tag k="name" v="Underberget" />
		<tag k="place" v="farm" />
		<tag k="ssr:stedsnr" v="6930" />
	</node>
	<node id="-171407" lat="60.7082611073" lon="8.81841389209">
		<tag k="historic" v="shieling" />
		<tag k="name" v="Nigardsleini" />
		<tag k="place" v="locality" />
		<tag k="ssr:stedsnr" v="6878" />
	</node>
	<node id="-171406" lat="60.7319055525" lon="8.83388333572">
		<tag k="name" v="Nystølen" />
		<tag k="place" v="locality" />
		<tag k="ssr:stedsnr" v="6829" />
	</node>
	<node id="-171405" lat="60.6923222189" lon="8.92572500199">
		<tag k="name" v="Moen" />
		<tag k="place" v="farm" />
		<tag k="ssr:stedsnr" v="6361" />
	</node>
	<node id="-171402" lat="60.7016833367" lon="8.91806667341">
		<tag k="name" v="Nordberg" />
		<tag k="place" v="farm" />
		<tag k="ssr:stedsnr" v="6336" />
	</node>
	<node id="-171401" lat="60.6836555517" lon="8.88320000313">
		<tag k="name" v="Fossheim" />
		<tag k="place" v="farm" />
		<tag k="ssr:stedsnr" v="6314" />
	</node>
	<node id="-171392" lat="60.8343058968" lon="8.99628640968">
		<tag k="name" v="Oset høyfjellshotell" />
		<tag k="ssr:stedsnr" v="985099" />
		<tag k="tourism" v="hotel" />
	</node>
	<node id="-171375" lat="60.8162880704" lon="9.00111114552">
		<tag k="historic" v="shieling" />
		<tag k="name" v="Nøreimsvollen" />
		<tag k="place" v="locality" />
		<tag k="ssr:stedsnr" v="1072403" />
	</node>
	<node id="-171374" lat="60.7106802389" lon="8.91434809939">
		<tag k="fixme" v="consider place=hamlet" />
		<tag k="name" v="Gol prestegård" />
		<tag k="place" v="farm" />
		<tag k="ssr:stedsnr" v="1072319" />
	</node>
	<node id="-171373" lat="60.6366744096" lon="9.07749109828">
		<tag k="name" v="Rensla" />
		<tag k="place" v="locality" />
		<tag k="ssr:stedsnr" v="1072115" />
	</node>
	<node id="-171372" lat="60.7376054511" lon="9.23083406729">
		<tag k="historic" v="shieling" />
		<tag k="name" v="Nørdre Bråtovollen" />
		<tag k="place" v="locality" />
		<tag k="ssr:stedsnr" v="1072084" />
	</node>
	<node id="-171371" lat="60.7377757712" lon="9.23439523616">
		<tag k="historic" v="shieling" />
		<tag k="name" v="Søre Brøtavollen" />
		<tag k="place" v="locality" />
		<tag k="ssr:stedsnr" v="1072083" />
	</node>
	<node id="-171370" lat="60.737958287" lon="9.23725243291">
		<tag k="historic" v="shieling" />
		<tag k="name" v="Tangevollen" />
		<tag k="place" v="locality" />
		<tag k="ssr:stedsnr" v="1072082" />
	</node>
	<node id="-171369" lat="60.7441782556" lon="9.25250440937">
		<tag k="historic" v="shieling" />
		<tag k="name" v="Soknevollen" />
		<tag k="place" v="locality" />
		<tag k="ssr:stedsnr" v="1072081" />
	</node>
	<node id="-171368" lat="60.6920416423" lon="9.01980204355">
		<tag k="name" v="Nørdre Brøto" />
		<tag k="place" v="farm" />
		<tag k="ssr:stedsnr" v="1072079" />
	</node>
	<node id="-171367" lat="60.7072842047" lon="8.88191530464">
		<tag k="historic" v="shieling" />
		<tag k="name" v="Haugstadskaran" />
		<tag k="old_name" v="Jordoskaran;Skaran" />
		<tag k="place" v="locality" />
		<tag k="ssr:stedsnr" v="1072075" />
	</node>
	<node id="-171366" lat="60.7950745101" lon="9.06851420559">
		<tag k="name" v="Gamlemøne" />
		<tag k="place" v="farm" />
		<tag k="ssr:stedsnr" v="1072070" />
	</node>
	<node id="-171361" lat="60.7224194471" lon="8.9495583274">
		<tag k="name" v="Elstad" />
		<tag k="place" v="farm" />
		<tag k="ssr:stedsnr" v="891222" />
	</node>
	<node id="-171360" lat="60.7258416654" lon="8.89972777619">
		<tag k="name" v="Buksegarden" />
		<tag k="place" v="farm" />
		<tag k="ssr:stedsnr" v="891213" />
	</node>
	<node id="-171359" lat="60.7364138897" lon="8.83452222929">
		<tag k="historic" v="shieling" />
		<tag k="name" v="Nylie" />
		<tag k="place" v="locality" />
		<tag k="ssr:stedsnr" v="891201" />
	</node>
	<node id="-171355" lat="60.7080769259" lon="8.91726420112">
		<tag k="fixme" v="consider place=hamlet" />
		<tag k="name" v="Eidsgard" />
		<tag k="place" v="farm" />
		<tag k="ssr:stedsnr" v="891163" />
	</node>
	<node id="-171354" lat="60.6926666676" lon="8.89080278">
		<tag k="name" v="Turrhus" />
		<tag k="place" v="farm" />
		<tag k="ssr:stedsnr" v="891137" />
	</node>
	<node id="-171353" lat="60.6735305572" lon="9.03385832617">
		<tag k="name" v="Flagstad" />
		<tag k="place" v="farm" />
		<tag k="ssr:stedsnr" v="891018" />
	</node>
	<node id="-171351" lat="60.7559388903" lon="8.77601945204">
		<tag k="name" v="Tryhusvollen" />
		<tag k="place" v="isolated_dwelling" />
		<tag k="ssr:stedsnr" v="890896" />
	</node>
	<node id="-171350" lat="60.6808749973" lon="8.81381111217">
		<tag k="name" v="Torhaugen" />
		<tag k="place" v="farm" />
		<tag k="ssr:stedsnr" v="890394" />
	</node>
	<node id="-171349" lat="60.6815500027" lon="8.83502499313">
		<tag k="name" v="Syversgarden" />
		<tag k="place" v="farm" />
		<tag k="ssr:stedsnr" v="890384" />
	</node>
	<node id="-171344" lat="60.6384694449" lon="9.05974445176">
		<tag k="name" v="Renslemoen" />
		<tag k="place" v="farm" />
		<tag k="ssr:stedsnr" v="413508" />
	</node>
	<node id="-171343" lat="60.7852416632" lon="8.99054166516">
		<tag k="historic" v="shieling" />
		<tag k="name" v="Breidokkvollen" />
		<tag k="old_name" v="Breidokksætra;Breidokksetre" />
		<tag k="place" v="locality" />
		<tag k="ssr:stedsnr" v="413474" />
	</node>
	<node id="-171341" lat="60.6896472229" lon="9.02761388074">
		<tag k="name" v="Larsplass" />
		<tag k="place" v="farm" />
		<tag k="ssr:stedsnr" v="412656" />
	</node>
	<node id="-171337" lat="60.7153388934" lon="8.91696665805">
		<tag k="name" v="Juven" />
		<tag k="place" v="farm" />
		<tag k="ssr:stedsnr" v="406194" />
	</node>
	<node id="-171336" lat="60.7158666654" lon="8.94892500027">
		<tag k="name" v="Bråten" />
		<tag k="place" v="farm" />
		<tag k="ssr:stedsnr" v="406192" />
	</node>
	<node id="-171335" lat="60.7189722254" lon="8.90147221923">
		<tag k="name" v="Eikro" />
		<tag k="place" v="farm" />
		<tag k="ssr:stedsnr" v="406182" />
	</node>
	<node id="-171327" lat="60.738484263" lon="8.87166075288">
		<tag k="fixme" v="consider place=hamlet" />
		<tag k="name" v="Arnegard" />
		<tag k="place" v="farm" />
		<tag k="ssr:stedsnr" v="404994" />
	</node>
	<node id="-171326" lat="60.7461916647" lon="8.86657221601">
		<tag k="name" v="Langehaugen" />
		<tag k="place" v="farm" />
		<tag k="ssr:stedsnr" v="404992" />
	</node>
	<node id="-171322" lat="60.673461114" lon="8.80269166615">
		<tag k="name" v="Kårmo" />
		<tag k="place" v="farm" />
		<tag k="ssr:stedsnr" v="404348" />
	</node>
	<node id="-171321" lat="60.6866666647" lon="8.89838333416">
		<tag k="name" v="Nedre Vermåker" />
		<tag k="place" v="farm" />
		<tag k="ssr:stedsnr" v="404071" />
	</node>
	<node id="-171319" lat="60.8031083335" lon="8.98434443988">
		<tag k="name" v="Dokken seter" />
		<tag k="place" v="locality" />
		<tag k="ssr:stedsnr" v="402390" />
	</node>
	<node id="-171316" lat="60.8181805519" lon="8.84402778264">
		<tag k="historic" v="shieling" />
		<tag k="name" v="Hatteland" />
		<tag k="place" v="locality" />
		<tag k="ssr:stedsnr" v="373499" />
	</node>
	<node id="-171314" lat="60.8505416712" lon="8.89388888229">
		<tag k="historic" v="shieling" />
		<tag k="name" v="Bakkevollen" />
		<tag k="old_name" v="Bakkesætra;Bakkesetre" />
		<tag k="place" v="locality" />
		<tag k="ssr:stedsnr" v="373462" />
	</node>
	<node id="-171312" lat="60.79821111" lon="8.85018889098">
		<tag k="alt_name" v="Berget seter" />
		<tag k="historic" v="shieling" />
		<tag k="name" v="Bergestølen" />
		<tag k="place" v="locality" />
		<tag k="ssr:stedsnr" v="372508" />
	</node>
	<node id="-171311" lat="60.7941583332" lon="8.86262499873">
		<tag k="historic" v="shieling" />
		<tag k="name" v="Plassen" />
		<tag k="place" v="locality" />
		<tag k="ssr:stedsnr" v="372507" />
	</node>
	<node id="-171307" lat="60.7789555557" lon="9.01826944373">
		<tag k="historic" v="shieling" />
		<tag k="name" v="Åsheim" />
		<tag k="place" v="locality" />
		<tag k="ssr:stedsnr" v="372330" />
	</node>
	<node id="-171306" lat="60.7811555535" lon="9.05473889696">
		<tag k="alt_name" v="Norrhaug" />
		<tag k="loc_name" v="Norhaug" />
		<tag k="name" v="Nordhaug" />
		<tag k="place" v="farm" />
		<tag k="ssr:stedsnr" v="372326" />
	</node>
	<node id="-171305" lat="60.7731055556" lon="9.13590556266">
		<tag k="historic" v="shieling" />
		<tag k="name" v="Svilestølan" />
		<tag k="place" v="locality" />
		<tag k="ssr:stedsnr" v="372318" />
	</node>
	<node id="-171302" lat="60.8012868196" lon="9.07013105297">
		<tag k="historic" v="shieling" />
		<tag k="name" v="Saravollen" />
		<tag k="place" v="locality" />
		<tag k="ssr:stedsnr" v="372302" />
	</node>
	<node id="-171300" lat="60.7921194424" lon="8.88085833981">
		<tag k="alt_name" v="Rønnughaugvollen" />
		<tag k="name" v="Rønnhaugvollen" />
		<tag k="place" v="isolated_dwelling" />
		<tag k="ssr:stedsnr" v="372290" />
	</node>
	<node id="-171299" lat="60.7839138922" lon="9.04782221783">
		<tag k="name" v="Kvanhøgd" />
		<tag k="place" v="farm" />
		<tag k="ssr:stedsnr" v="372281" />
	</node>
	<node id="-171298" lat="60.7850083295" lon="9.00659444329">
		<tag k="historic" v="shieling" />
		<tag k="name" v="Rekkjeset" />
		<tag k="place" v="locality" />
		<tag k="ssr:stedsnr" v="372277" />
	</node>
	<node id="-171297" lat="60.7834305561" lon="8.95605556017">
		<tag k="alt_name" v="Dypendalsvollen" />
		<tag k="historic" v="shieling" />
		<tag k="name" v="Djupedalsvollen" />
		<tag k="place" v="locality" />
		<tag k="ssr:stedsnr" v="372276" />
	</node>
	<node id="-171295" lat="60.8031222207" lon="8.78971111747">
		<tag k="name" v="Plassen" />
		<tag k="place" v="isolated_dwelling" />
		<tag k="ssr:stedsnr" v="372262" />
	</node>
	<node id="-171294" lat="60.8093555578" lon="8.78983610518">
		<tag k="name" v="Røykingset" />
		<tag k="place" v="locality" />
		<tag k="ssr:stedsnr" v="372259" />
	</node>
	<node id="-171293" lat="60.8156555598" lon="8.82072500693">
		<tag k="fixme" v="multiple name tags, choose one and add the other to alt_name" />
		<tag k="historic" v="shieling" />
		<tag k="name" v="Øvre Vermelie;Veslestølen" />
		<tag k="place" v="locality" />
		<tag k="ssr:stedsnr" v="372246" />
	</node>
	<node id="-171292" lat="60.6849388917" lon="9.03974722427">
		<tag k="alt_name" v="Roen" />
		<tag k="name" v="Roni" />
		<tag k="place" v="farm" />
		<tag k="ssr:stedsnr" v="371280" />
	</node>
	<node id="-171290" lat="60.7238527801" lon="8.88534444735">
		<tag k="name" v="Bjørnebråten" />
		<tag k="place" v="farm" />
		<tag k="ssr:stedsnr" v="371159" />
	</node>
	<node id="-171289" lat="60.7286666651" lon="8.97523055602">
		<tag k="name" v="Brennli" />
		<tag k="place" v="farm" />
		<tag k="ssr:stedsnr" v="371155" />
	</node>
	<node id="-171287" lat="60.723980556" lon="8.97980000114">
		<tag k="name" v="Vestre Rust" />
		<tag k="place" v="farm" />
		<tag k="ssr:stedsnr" v="371150" />
	</node>
	<node id="-171285" lat="60.6913249967" lon="8.84192778051">
		<tag k="name" v="Urdsdalen" />
		<tag k="old_name" v="Ursdalen" />
		<tag k="place" v="farm" />
		<tag k="ssr:stedsnr" v="370912" />
	</node>
	<node id="-171284" lat="60.7270833353" lon="8.80485555237">
		<tag k="name" v="Grovhaugen" />
		<tag k="place" v="isolated_dwelling" />
		<tag k="ssr:stedsnr" v="370852" />
	</node>
	<node id="-171283" lat="60.7394305514" lon="8.77798611247">
		<tag k="alt_name" v="Smylistølane" />
		<tag k="historic" v="shieling" />
		<tag k="name" v="Smylistølan" />
		<tag k="place" v="locality" />
		<tag k="ssr:stedsnr" v="370811" />
	</node>
	<node id="-171282" lat="60.6861961794" lon="9.23223476996">
		<tag k="historic" v="shieling" />
		<tag k="name" v="Røggjen" />
		<tag k="old_name" v="Røggin" />
		<tag k="place" v="locality" />
		<tag k="ssr:stedsnr" v="370715" />
	</node>
	<node id="-171280" lat="60.698022225" lon="8.89662777182">
		<tag k="alt_name" v="Lauvdokken" />
		<tag k="name" v="Lauvdokki" />
		<tag k="place" v="farm" />
		<tag k="ssr:stedsnr" v="370372" />
	</node>
	<node id="-171279" lat="60.6983222252" lon="8.86017778224">
		<tag k="name" v="Gjøta" />
		<tag k="place" v="farm" />
		<tag k="ssr:stedsnr" v="370370" />
	</node>
	<node id="-171278" lat="60.6978305528" lon="8.90457777396">
		<tag k="name" v="Steinmoen" />
		<tag k="place" v="farm" />
		<tag k="ssr:stedsnr" v="370367" />
	</node>
	<node id="-171271" lat="60.7828527804" lon="8.94623055901">
		<tag k="name" v="Veslestølen" />
		<tag k="place" v="isolated_dwelling" />
		<tag k="ssr:stedsnr" v="362673" />
	</node>
	<node id="-171269" lat="60.6946305596" lon="8.91220556411">
		<tag k="name" v="Kristenbråten" />
		<tag k="place" v="farm" />
		<tag k="ssr:stedsnr" v="360189" />
	</node>
	<node id="-171268" lat="60.7081583292" lon="8.92079721621">
		<tag k="name" v="Bergheim" />
		<tag k="place" v="farm" />
		<tag k="ssr:stedsnr" v="360186" />
	</node>
	<node id="-171265" lat="60.6715777763" lon="8.80526389547">
		<tag k="name" v="Eilevmoen" />
		<tag k="place" v="locality" />
		<tag k="ssr:stedsnr" v="358426" />
	</node>
	<node id="-171264" lat="60.6593076284" lon="9.0478648221">
		<tag k="alt_name" v="Nedre Engene" />
		<tag k="name" v="Nedre Engjan" />
		<tag k="place" v="farm" />
		<tag k="ssr:stedsnr" v="352536" />
	</node>
	<node id="-171261" lat="60.8025333342" lon="8.95938888287">
		<tag k="historic" v="shieling" />
		<tag k="name" v="Einarset" />
		<tag k="place" v="locality" />
		<tag k="ssr:stedsnr" v="345850" />
	</node>
	<node id="-171255" lat="60.6857166649" lon="9.02585278451">
		<tag k="name" v="Gudbrandsgard" />
		<tag k="place" v="farm" />
		<tag k="ssr:stedsnr" v="345011" />
	</node>
	<node id="-171250" lat="60.6868583329" lon="8.85303333382">
		<tag k="name" v="Bakko" />
		<tag k="place" v="farm" />
		<tag k="ssr:stedsnr" v="343417" />
	</node>
	<node id="-171249" lat="60.6920416656" lon="8.81814166172">
		<tag k="name" v="Vestre Grov" />
		<tag k="place" v="farm" />
		<tag k="ssr:stedsnr" v="343414" />
	</node>
	<node id="-171246" lat="60.8366694402" lon="8.99994444784">
		<tag k="name" v="Lilleoset" />
		<tag k="place" v="isolated_dwelling" />
		<tag k="ssr:stedsnr" v="341539" />
	</node>
	<node id="-171244" lat="60.8369194453" lon="8.9471527747">
		<tag k="name" v="Øvre Perhusvollen" />
		<tag k="place" v="farm" />
		<tag k="ssr:stedsnr" v="341535" />
	</node>
	<node id="-171242" lat="60.8098416704" lon="8.98395555296">
		<tag k="historic" v="shieling" />
		<tag k="name" v="Bjørnalie" />
		<tag k="place" v="locality" />
		<tag k="ssr:stedsnr" v="341403" />
	</node>
	<node id="-171239" lat="60.8181444428" lon="8.82779444939">
		<tag k="name" v="Amundlie" />
		<tag k="place" v="farm" />
		<tag k="ssr:stedsnr" v="341359" />
	</node>
	<node id="-171238" lat="60.810511113" lon="8.82643888374">
		<tag k="name" v="Embretsgard" />
		<tag k="place" v="isolated_dwelling" />
		<tag k="ssr:stedsnr" v="341331" />
	</node>
	<node id="-171237" lat="60.7841638892" lon="9.00367221458">
		<tag k="historic" v="shieling" />
		<tag k="name" v="Vestre Rekkjeset" />
		<tag k="place" v="locality" />
		<tag k="ssr:stedsnr" v="341295" />
	</node>
	<node id="-171234" lat="60.7868027742" lon="9.13943611892">
		<tag k="name" v="Søre Brenn" />
		<tag k="place" v="farm" />
		<tag k="ssr:stedsnr" v="341271" />
	</node>
	<node id="-171229" lat="60.8407749986" lon="8.8577138817">
		<tag k="alt_name" v="Eikro seter" />
		<tag k="historic" v="shieling" />
		<tag k="name" v="Eikrestølen" />
		<tag k="place" v="locality" />
		<tag k="ssr:stedsnr" v="313450" />
	</node>
	<node id="-171225" lat="60.8030083338" lon="9.01038333895">
		<tag k="historic" v="shieling" />
		<tag k="name" v="Petterbråtvollen" />
		<tag k="place" v="locality" />
		<tag k="ssr:stedsnr" v="312468" />
	</node>
	<node id="-171223" lat="60.8382666654" lon="8.95382777736">
		<tag k="alt_name" v="Stølsdokken seter" />
		<tag k="historic" v="shieling" />
		<tag k="name" v="Stølsdokki" />
		<tag k="place" v="locality" />
		<tag k="ssr:stedsnr" v="312442" />
	</node>
	<node id="-171212" lat="60.7519916657" lon="8.81295832558">
		<tag k="alt_name" v="Tjennbardsbroten" />
		<tag k="name" v="Kinnebergbråten" />
		<tag k="place" v="farm" />
		<tag k="ssr:stedsnr" v="312056" />
	</node>
	<node id="-171211" lat="60.7619055562" lon="8.80901110284">
		<tag k="alt_name" v="Volebråten" />
		<tag k="name" v="Volebrotane" />
		<tag k="place" v="locality" />
		<tag k="ssr:stedsnr" v="312050" />
	</node>
	<node id="-171210" lat="60.7610138931" lon="8.81969721571">
		<tag k="name" v="Gladhus" />
		<tag k="place" v="farm" />
		<tag k="ssr:stedsnr" v="312035" />
	</node>
	<node id="-171209" lat="60.800808334" lon="8.79277499975">
		<tag k="historic" v="shieling" />
		<tag k="name" v="Mattislian" />
		<tag k="place" v="locality" />
		<tag k="ssr:stedsnr" v="312014" />
	</node>
	<node id="-171208" lat="60.7965749985" lon="8.79846110791">
		<tag k="name" v="Sørbølhaugen" />
		<tag k="place" v="farm" />
		<tag k="ssr:stedsnr" v="312015" />
	</node>
	<node id="-171207" lat="60.7968805526" lon="9.15329444796">
		<tag k="historic" v="shieling" />
		<tag k="name" v="Åsgard" />
		<tag k="place" v="locality" />
		<tag k="ssr:stedsnr" v="311344" />
	</node>
	<node id="-171205" lat="60.7905083369" lon="8.80024444739">
		<tag k="name" v="Lii" />
		<tag k="place" v="farm" />
		<tag k="ssr:stedsnr" v="311033" />
	</node>
	<node id="-171204" lat="60.7688578386" lon="8.75854704834">
		<tag k="fixme" v="multiple name tags, choose one and add the other to alt_name" />
		<tag k="name" v="Trondsgardlie;Lian" />
		<tag k="place" v="farm" />
		<tag k="ssr:stedsnr" v="311028" />
	</node>
	<node id="-171201" lat="60.7711833302" lon="8.74990000731">
		<tag k="name" v="Lislalii" />
		<tag k="old_name" v="Litlelii" />
		<tag k="place" v="farm" />
		<tag k="ssr:stedsnr" v="311017" />
	</node>
	<node id="-171200" lat="60.7946145199" lon="8.80338185365">
		<tag k="fixme" v="consider place=hamlet" />
		<tag k="name" v="Sørbøl" />
		<tag k="place" v="farm" />
		<tag k="ssr:stedsnr" v="311002" />
	</node>
	<node id="-171199" lat="60.7198499978" lon="9.30778056427">
		<tag k="alt_name" v="Raudalen" />
		<tag k="historic" v="shieling" />
		<tag k="name" v="Rauddalen" />
		<tag k="place" v="locality" />
		<tag k="ssr:stedsnr" v="310543" />
	</node>
	<node id="-171198" lat="60.7041388933" lon="9.01817222255">
		<tag k="name" v="Bakken" />
		<tag k="place" v="farm" />
		<tag k="ssr:stedsnr" v="310378" />
	</node>
	<node id="-171195" lat="60.6871000041" lon="8.86143610684">
		<tag k="alt_name" v="Gaukedokken" />
		<tag k="name" v="Gaukedokki" />
		<tag k="old_name" v="Gaukdokki" />
		<tag k="place" v="farm" />
		<tag k="ssr:stedsnr" v="310337" />
	</node>
	<node id="-171194" lat="60.701186394" lon="9.00699214029">
		<tag k="fixme" v="consider place=hamlet" />
		<tag k="name" v="Frøysåk" />
		<tag k="old_name" v="Frøysaak;Nordre Frøysaker;Nørdre Frøysåk" />
		<tag k="place" v="farm" />
		<tag k="ssr:stedsnr" v="310332" />
	</node>
	<node id="-171192" lat="60.6759333313" lon="9.03407777653">
		<tag k="name" v="Pytten" />
		<tag k="place" v="farm" />
		<tag k="ssr:stedsnr" v="310310" />
	</node>
	<node id="-171190" lat="60.6795472191" lon="9.02137776917">
		<tag k="name" v="Vestheim" />
		<tag k="place" v="farm" />
		<tag k="ssr:stedsnr" v="310298" />
	</node>
	<node id="-171188" lat="60.6802472216" lon="8.84367778355">
		<tag k="fixme" v="multiple name tags, choose one and add the other to alt_name" />
		<tag k="name" v="Strand;Øynestrond" />
		<tag k="old_name" v="Øynesstranden og Granøen;(Øyne)Strandene og Grønøen" />
		<tag k="place" v="farm" />
		<tag k="ssr:stedsnr" v="310290" />
	</node>
	<node id="-171187" lat="60.6913912103" lon="9.01954004215">
		<tag k="fixme" v="consider place=hamlet" />
		<tag k="loc_name" v="Søre Frøysåk;Søre Frøysåker" />
		<tag k="name" v="Brøto" />
		<tag k="place" v="farm" />
		<tag k="ssr:stedsnr" v="310280" />
	</node>
	<node id="-171186" lat="60.7494888886" lon="8.88861110292">
		<tag k="name" v="Storebråten" />
		<tag k="place" v="farm" />
		<tag k="ssr:stedsnr" v="310173" />
	</node>
	<node id="-171185" lat="60.7440472232" lon="8.87628610667">
		<tag k="name" v="Frydlund" />
		<tag k="place" v="farm" />
		<tag k="ssr:stedsnr" v="310170" />
	</node>
	<node id="-171184" lat="60.7424416634" lon="8.8447611094">
		<tag k="name" v="Myte" />
		<tag k="place" v="isolated_dwelling" />
		<tag k="ssr:stedsnr" v="310166" />
	</node>
	<node id="-171183" lat="60.7413750028" lon="8.89179166201">
		<tag k="alt_name" v="Turkop" />
		<tag k="name" v="Turkupp" />
		<tag k="place" v="farm" />
		<tag k="ssr:stedsnr" v="310158" />
	</node>
	<node id="-171180" lat="60.7283777765" lon="8.90763889291">
		<tag k="name" v="Gjesthus" />
		<tag k="place" v="isolated_dwelling" />
		<tag k="ssr:stedsnr" v="310136" />
	</node>
	<node id="-171179" lat="60.721697219" lon="8.95654166959">
		<tag k="name" v="Haugen" />
		<tag k="place" v="farm" />
		<tag k="ssr:stedsnr" v="310133" />
	</node>
	<node id="-171177" lat="60.7186138914" lon="8.82972221955">
		<tag k="historic" v="shieling" />
		<tag k="name" v="Feten" />
		<tag k="place" v="locality" />
		<tag k="ssr:stedsnr" v="309861" />
	</node>
	<node id="-171176" lat="60.7475805595" lon="8.74212221952">
		<tag k="historic" v="shieling" />
		<tag k="name" v="Narveset" />
		<tag k="place" v="locality" />
		<tag k="ssr:stedsnr" v="309806" />
	</node>
	<node id="-171174" lat="60.7997555594" lon="8.84786667513">
		<tag k="alt_name" v="Kleppestølen" />
		<tag k="historic" v="shieling" />
		<tag k="name" v="Kleppstølen" />
		<tag k="place" v="locality" />
		<tag k="ssr:stedsnr" v="301654" />
	</node>
	<node id="-171172" lat="60.6952833363" lon="8.89630555489">
		<tag k="name" v="Lybekk" />
		<tag k="place" v="farm" />
		<tag k="ssr:stedsnr" v="300219" />
	</node>
	<node id="-171169" lat="60.6612547905" lon="9.04531826232">
		<tag k="alt_name" v="Engene" />
		<tag k="name" v="Engjan" />
		<tag k="old_name" v="Enganne" />
		<tag k="place" v="locality" />
		<tag k="ssr:stedsnr" v="298745" />
	</node>
	<node id="-171165" lat="60.7132499969" lon="8.9374055495">
		<tag k="name" v="Svingen" />
		<tag k="place" v="farm" />
		<tag k="ssr:stedsnr" v="291340" />
	</node>
	<node id="-171161" lat="60.758449997" lon="8.76934167426">
		<tag k="historic" v="shieling" />
		<tag k="name" v="Heimattseter" />
		<tag k="place" v="locality" />
		<tag k="ssr:stedsnr" v="285830" />
	</node>
	<node id="-171159" lat="60.7620777735" lon="8.92761945264">
		<tag k="name" v="Golbergbui" />
		<tag k="place" v="isolated_dwelling" />
		<tag k="ssr:stedsnr" v="285549" />
	</node>
	<node id="-171157" lat="60.7184444419" lon="8.93147500894">
		<tag k="name" v="Bratterud" />
		<tag k="place" v="isolated_dwelling" />
		<tag k="ssr:stedsnr" v="284189" />
	</node>
	<node id="-171152" lat="60.6836000004" lon="8.84489999443">
		<tag k="name" v="Hansegard" />
		<tag k="place" v="farm" />
		<tag k="ssr:stedsnr" v="283363" />
	</node>
	<node id="-171151" lat="60.6826138889" lon="8.83919444853">
		<tag k="name" v="Nedre Rotneim" />
		<tag k="place" v="farm" />
		<tag k="ssr:stedsnr" v="282926" />
	</node>
	<node id="-171146" lat="60.6894361077" lon="8.86151666115">
		<tag k="alt_name" v="Granlii" />
		<tag k="name" v="Granli" />
		<tag k="place" v="farm" />
		<tag k="ssr:stedsnr" v="282294" />
	</node>
	<node id="-171145" lat="60.8501444489" lon="8.91275277531">
		<tag k="name" v="Vidsyn" />
		<tag k="place" v="farm" />
		<tag k="ssr:stedsnr" v="281482" />
	</node>
	<node id="-171144" lat="60.8036277791" lon="8.98776111112">
		<tag k="historic" v="shieling" />
		<tag k="name" v="Rensel seter" />
		<tag k="place" v="locality" />
		<tag k="ssr:stedsnr" v="281392" />
	</node>
	<node id="-171142" lat="60.8013750004" lon="8.98057777667">
		<tag k="name" v="Veslestølen" />
		<tag k="place" v="locality" />
		<tag k="ssr:stedsnr" v="281385" />
	</node>
	<node id="-171139" lat="60.790672219" lon="9.19140000032">
		<tag k="historic" v="shieling" />
		<tag k="name" v="Hølstølen" />
		<tag k="place" v="locality" />
		<tag k="ssr:stedsnr" v="281292" />
	</node>
	<node id="-171138" lat="60.7981333324" lon="8.99373612002">
		<tag k="historic" v="shieling" />
		<tag k="name" v="Espedokki seter" />
		<tag k="place" v="locality" />
		<tag k="ssr:stedsnr" v="281284" />
	</node>
	<node id="-171137" lat="60.7910055576" lon="9.06932222018">
		<tag k="name" v="Klanten" />
		<tag k="place" v="farm" />
		<tag k="ssr:stedsnr" v="281281" />
	</node>
	<node id="-171136" lat="60.7894333356" lon="9.13213610472">
		<tag k="name" v="Nordbrenn" />
		<tag k="place" v="farm" />
		<tag k="ssr:stedsnr" v="281278" />
	</node>
	<node id="-172491" lat="60.8129603761" lon="8.8211178322">
		<tag k="historic" v="shieling" />
		<tag k="name" v="Vermelian" />
		<tag k="place" v="locality" />
		<tag k="ssr:stedsnr" v="979537" />
	</node>
	<node id="-172490" lat="60.7811431906" lon="8.92165551965">
		<tag k="name" v="Nørdre Vermelie" />
		<tag k="place" v="farm" />
		<tag k="ssr:stedsnr" v="979313" />
	</node>
	<node id="-172489" lat="60.7850152975" lon="8.90989797159">
		<tag k="historic" v="shieling" />
		<tag k="name" v="Tunnetjern" />
		<tag k="place" v="locality" />
		<tag k="ssr:stedsnr" v="979319" />
	</node>
	<node id="-172488" lat="60.6875332636" lon="9.23687742141">
		<tag k="historic" v="shieling" />
		<tag k="name" v="Vollstadhaugen" />
		<tag k="place" v="locality" />
		<tag k="ssr:stedsnr" v="978962" />
	</node>
	<node id="-172487" lat="60.6910184398" lon="9.02130469999">
		<tag k="name" v="Søre Bråto" />
		<tag k="place" v="farm" />
		<tag k="ssr:stedsnr" v="977520" />
	</node>
	<node id="-172486" lat="60.7017956266" lon="9.00731937105">
		<tag k="name" v="Øvre Frøysåk" />
		<tag k="place" v="farm" />
		<tag k="ssr:stedsnr" v="977519" />
	</node>
	<node id="-172485" lat="60.6950631733" lon="9.0193491136">
		<tag k="name" v="Narvebråten" />
		<tag k="place" v="locality" />
		<tag k="ssr:stedsnr" v="977433" />
	</node>
	<node id="-172479" lat="60.7020149619" lon="8.95413980846">
		<tag k="fixme" v="consider place=hamlet" />
		<tag k="name" v="Breidokk" />
		<tag k="place" v="farm" />
		<tag k="ssr:stedsnr" v="967172" />
	</node>
	<node id="-172478" lat="60.6950055562" lon="8.89390832821">
		<tag k="name" v="Svartebråten" />
		<tag k="place" v="farm" />
		<tag k="ssr:stedsnr" v="967160" />
	</node>
	<node id="-172477" lat="60.7828333342" lon="8.87718333846">
		<tag k="name" v="Meliskaret" />
		<tag k="place" v="farm" />
		<tag k="ssr:stedsnr" v="967043" />
	</node>
	<node id="-172476" lat="60.8525611133" lon="8.91512222267">
		<tag k="historic" v="shieling" />
		<tag k="name" v="Blakkestadvollen" />
		<tag k="place" v="locality" />
		<tag k="ssr:stedsnr" v="967042" />
	</node>
	<node id="-172473" lat="60.6352583363" lon="9.07099999488">
		<tag k="alt_name" v="Hovind" />
		<tag k="name" v="Hovin" />
		<tag k="place" v="farm" />
		<tag k="ssr:stedsnr" v="963511" />
	</node>
	<node id="-172472" lat="60.68982778" lon="8.89733055997">
		<tag k="name" v="Botn" />
		<tag k="place" v="farm" />
		<tag k="ssr:stedsnr" v="963369" />
	</node>
	<node id="-172471" lat="60.7001153358" lon="8.97681766296">
		<tag k="name" v="Søre Nøreim" />
		<tag k="place" v="farm" />
		<tag k="ssr:stedsnr" v="963173" />
	</node>
	<node id="-172470" lat="60.6939555557" lon="9.03001665857">
		<tag k="alt_name" v="Vilheimslii" />
		<tag k="name" v="Vilhelmsli" />
		<tag k="place" v="farm" />
		<tag k="ssr:stedsnr" v="958751" />
	</node>
	<node id="-172468" lat="60.7726825307" lon="9.00676335787">
		<tag k="name" v="Fjellheim" />
		<tag k="place" v="farm" />
		<tag k="ssr:stedsnr" v="953610" />
	</node>
	<node id="-172467" lat="60.7244777769" lon="8.95323888644">
		<tag k="name" v="Marken" />
		<tag k="place" v="farm" />
		<tag k="ssr:stedsnr" v="952227" />
	</node>
	<node id="-172462" lat="60.6982416645" lon="8.99853610417">
		<tag k="name" v="Eiklund" />
		<tag k="place" v="farm" />
		<tag k="ssr:stedsnr" v="952180" />
	</node>
	<node id="-172461" lat="60.6900472186" lon="8.87218889364">
		<tag k="name" v="Jordheim" />
		<tag k="place" v="farm" />
		<tag k="ssr:stedsnr" v="952140" />
	</node>
	<node id="-172456" lat="60.7218722267" lon="8.97606110893">
		<tag k="name" v="Olavsbråten" />
		<tag k="place" v="farm" />
		<tag k="ssr:stedsnr" v="950789" />
	</node>
	<node id="-172452" lat="60.6833722183" lon="8.84312499709">
		<tag k="name" v="Gutigard" />
		<tag k="place" v="farm" />
		<tag k="ssr:stedsnr" v="950417" />
	</node>
	<node id="-172451" lat="60.6795916625" lon="8.82189167388">
		<tag k="name" v="Bergli" />
		<tag k="place" v="farm" />
		<tag k="ssr:stedsnr" v="950379" />
	</node>
	<node id="-172450" lat="60.6758277795" lon="8.81202777745">
		<tag k="name" v="Rødningen" />
		<tag k="place" v="farm" />
		<tag k="ssr:stedsnr" v="950368" />
	</node>
	<node id="-172448" lat="60.8143749959" lon="8.82893611318">
		<tag k="name" v="Skalbergslettet" />
		<tag k="place" v="isolated_dwelling" />
		<tag k="ssr:stedsnr" v="948356" />
	</node>
	<node id="-172446" lat="60.8541750045" lon="8.91413889735">
		<tag k="historic" v="shieling" />
		<tag k="name" v="Auenhauglie" />
		<tag k="old_name" v="Glomsrud" />
		<tag k="place" v="locality" />
		<tag k="ssr:stedsnr" v="920434" />
	</node>
	<node id="-172441" lat="60.838449996" lon="8.85472777451">
		<tag k="historic" v="shieling" />
		<tag k="name" v="Brattebakken" />
		<tag k="place" v="locality" />
		<tag k="ssr:stedsnr" v="919448" />
	</node>
	<node id="-172440" lat="60.8323472195" lon="8.97248611474">
		<tag k="fixme" v="multiple name tags, choose one and add the other to alt_name" />
		<tag k="historic" v="shieling" />
		<tag k="name" v="Torkjellen;Torkjellstølen" />
		<tag k="place" v="locality" />
		<tag k="ssr:stedsnr" v="919441" />
	</node>
	<node id="-172439" lat="60.8354000019" lon="8.97483610665">
		<tag k="alt_name" v="Rolvstølen" />
		<tag k="historic" v="shieling" />
		<tag k="name" v="Rolfstølen" />
		<tag k="place" v="locality" />
		<tag k="ssr:stedsnr" v="919442" />
	</node>
	<node id="-172437" lat="60.7895500013" lon="9.16938611064">
		<tag k="historic" v="shieling" />
		<tag k="name" v="Gamlestølen" />
		<tag k="place" v="locality" />
		<tag k="ssr:stedsnr" v="919255" />
	</node>
	<node id="-172435" lat="60.7809711207" lon="8.92377225648">
		<tag k="historic" v="shieling" />
		<tag k="name" v="Vermelie" />
		<tag k="place" v="locality" />
		<tag k="ssr:stedsnr" v="919247" />
	</node>
	<node id="-172432" lat="60.8156244472" lon="8.79652845222">
		<tag k="alt_name" v="Skrøyvestølane" />
		<tag k="historic" v="shieling" />
		<tag k="name" v="Skrøyvestølan" />
		<tag k="place" v="locality" />
		<tag k="ssr:stedsnr" v="919215" />
	</node>
	<node id="-172430" lat="60.7526805555" lon="8.75617222259">
		<tag k="name" v="Gården" />
		<tag k="place" v="farm" />
		<tag k="ssr:stedsnr" v="919057" />
	</node>
	<node id="-172429" lat="60.7662916622" lon="8.83268056375">
		<tag k="name" v="Maradokki" />
		<tag k="place" v="locality" />
		<tag k="ssr:stedsnr" v="919037" />
	</node>
	<node id="-172428" lat="60.8000694402" lon="8.85786111731">
		<tag k="name" v="Svangvollen" />
		<tag k="place" v="isolated_dwelling" />
		<tag k="ssr:stedsnr" v="918541" />
	</node>
	<node id="-172427" lat="60.7934318691" lon="8.87111879008">
		<tag k="alt_name" v="Jondalsætri;Jondalen seter" />
		<tag k="historic" v="shieling" />
		<tag k="name" v="Jondalstølen" />
		<tag k="place" v="locality" />
		<tag k="ssr:stedsnr" v="918315" />
	</node>
	<node id="-172425" lat="60.6726111093" lon="8.79965833063">
		<tag k="alt_name" v="Rone" />
		<tag k="name" v="Roni" />
		<tag k="place" v="farm" />
		<tag k="ssr:stedsnr" v="917944" />
	</node>
	<node id="-172423" lat="60.7394428317" lon="9.23987716166">
		<tag k="historic" v="shieling" />
		<tag k="name" v="Frøysåkstølan" />
		<tag k="place" v="locality" />
		<tag k="ssr:stedsnr" v="917485" />
	</node>
	<node id="-172422" lat="60.7094361087" lon="8.92669443987">
		<tag k="alt_name" v="Leikvollen" />
		<tag k="name" v="Leikvoll" />
		<tag k="place" v="farm" />
		<tag k="ssr:stedsnr" v="917344" />
	</node>
	<node id="-172421" lat="60.6940333317" lon="8.93795277177">
		<tag k="name" v="Slåtta" />
		<tag k="place" v="farm" />
		<tag k="ssr:stedsnr" v="917312" />
	</node>
	<node id="-172418" lat="60.6993805553" lon="8.89741110454">
		<tag k="name" v="Bakken" />
		<tag k="place" v="farm" />
		<tag k="ssr:stedsnr" v="917285" />
	</node>
	<node id="-172417" lat="60.701408768" lon="8.90770143424">
		<tag k="fixme" v="consider place=hamlet" />
		<tag k="name" v="Skaga" />
		<tag k="place" v="farm" />
		<tag k="ssr:stedsnr" v="917281" />
	</node>
	<node id="-172414" lat="60.6786333349" lon="9.17669444125">
		<tag k="name" v="Nyvollen" />
		<tag k="place" v="isolated_dwelling" />
		<tag k="ssr:stedsnr" v="917269" />
	</node>
	<node id="-172413" lat="60.6861416711" lon="9.0409194435">
		<tag k="name" v="Skaret" />
		<tag k="place" v="farm" />
		<tag k="ssr:stedsnr" v="917254" />
	</node>
	<node id="-172412" lat="60.6939638885" lon="9.03518055176">
		<tag k="name" v="Haugen" />
		<tag k="place" v="farm" />
		<tag k="ssr:stedsnr" v="917250" />
	</node>
	<node id="-172408" lat="60.6750361133" lon="9.19274166893">
		<tag k="name" v="Hallgrimvollen" />
		<tag k="place" v="isolated_dwelling" />
		<tag k="ssr:stedsnr" v="917210" />
	</node>
	<node id="-172407" lat="60.7434888934" lon="8.90752222547">
		<tag k="name" v="Gården" />
		<tag k="place" v="farm" />
		<tag k="ssr:stedsnr" v="917140" />
	</node>
	<node id="-172405" lat="60.7242722245" lon="9.11995556343">
		<tag k="historic" v="shieling" />
		<tag k="name" v="Velteruko" />
		<tag k="old_name" v="Vetlerukan" />
		<tag k="place" v="locality" />
		<tag k="ssr:stedsnr" v="917110" />
	</node>
	<node id="-172404" lat="60.7166222265" lon="8.89359722362">
		<tag k="name" v="Aslebråten" />
		<tag k="place" v="isolated_dwelling" />
		<tag k="ssr:stedsnr" v="917108" />
	</node>
	<node id="-172403" lat="60.6959323105" lon="8.84127403919">
		<tag k="fixme" v="consider place=hamlet" />
		<tag k="name" v="Flatagrov" />
		<tag k="place" v="farm" />
		<tag k="ssr:stedsnr" v="916904" />
	</node>
	<node id="-172402" lat="60.6984611091" lon="8.8024250059">
		<tag k="historic" v="shieling" />
		<tag k="name" v="Langeset" />
		<tag k="place" v="locality" />
		<tag k="ssr:stedsnr" v="916897" />
	</node>
	<node id="-172399" lat="60.7844694451" lon="8.94979167482">
		<tag k="historic" v="shieling" />
		<tag k="name" v="Stølsdokkvollen" />
		<tag k="place" v="locality" />
		<tag k="ssr:stedsnr" v="908784" />
	</node>
	<node id="-172398" lat="60.7024138844" lon="8.91075555689">
		<tag k="amenity" v="school" />
		<tag k="name" v="Hallingdal folkehøgskule" />
		<tag k="ssr:stedsnr" v="907189" />
	</node>
	<node id="-172396" lat="60.705072219" lon="9.28732499447">
		<tag k="historic" v="shieling" />
		<tag k="name" v="Grønlie" />
		<tag k="place" v="locality" />
		<tag k="ssr:stedsnr" v="907176" />
	</node>
	<node id="-172395" lat="60.6994836361" lon="9.00965128576">
		<tag k="fixme" v="consider place=hamlet" />
		<tag k="name" v="Herad" />
		<tag k="place" v="village" />
		<tag k="ssr:stedsnr" v="902344" />
	</node>
	<node id="-172394" lat="60.6944694475" lon="9.03045556253">
		<tag k="loc_name" v="Liagardane" />
		<tag k="name" v="Liagardan" />
		<tag k="old_name" v="Liagardann" />
		<tag k="place" v="hamlet" />
		<tag k="ssr:stedsnr" v="902296" />
	</node>
	<node id="-172392" lat="60.851461113" lon="8.90756110224">
		<tag k="historic" v="shieling" />
		<tag k="name" v="Leikvollen" />
		<tag k="place" v="locality" />
		<tag k="ssr:stedsnr" v="859421" />
	</node>
	<node id="-172390" lat="60.7656249973" lon="8.76980834039">
		<tag k="alt_name" v="Lio" />
		<tag k="name" v="Lian" />
		<tag k="place" v="farm" />
		<tag k="ssr:stedsnr" v="859039" />
	</node>
	<node id="-172388" lat="60.8040527805" lon="8.95621111854">
		<tag k="alt_name" v="Storefjell Høyfjellshotell" />
		<tag k="name" v="Storefjell" />
		<tag k="ssr:stedsnr" v="858522" />
		<tag k="tourism" v="hotel" />
	</node>
	<node id="-172385" lat="60.8034055582" lon="8.95463055497">
		<tag k="historic" v="shieling" />
		<tag k="name" v="Austre Einarset" />
		<tag k="place" v="locality" />
		<tag k="ssr:stedsnr" v="858500" />
	</node>
	<node id="-172384" lat="60.7522499966" lon="8.96415000641">
		<tag k="historic" v="shieling" />
		<tag k="name" v="Høgehaug" />
		<tag k="place" v="locality" />
		<tag k="ssr:stedsnr" v="858346" />
	</node>
	<node id="-172381" lat="60.7674666663" lon="8.84515555408">
		<tag k="name" v="Jondalen fjellgård" />
		<tag k="ssr:stedsnr" v="858322" />
		<tag k="tourism" v="guest_house" />
	</node>
	<node id="-172379" lat="60.7743861126" lon="9.00978611387">
		<tag k="name" v="Hallingen" />
		<tag k="ssr:stedsnr" v="858310" />
		<tag k="tourism" v="hotel" />
	</node>
	<node id="-172377" lat="60.7513833292" lon="8.86143054664">
		<tag k="alt_name" v="Møllerplass" />
		<tag k="name" v="Mølnaplassen" />
		<tag k="place" v="farm" />
		<tag k="ssr:stedsnr" v="858294" />
	</node>
	<node id="-172376" lat="60.7958166671" lon="8.98078333693">
		<tag k="historic" v="shieling" />
		<tag k="name" v="Brastadstølen" />
		<tag k="place" v="locality" />
		<tag k="ssr:stedsnr" v="858281" />
	</node>
	<node id="-172375" lat="60.7911250001" lon="8.87193333887">
		<tag k="alt_name" v="Lauvset" />
		<tag k="historic" v="shieling" />
		<tag k="loc_name" v="Lauvsetstølan" />
		<tag k="name" v="Lauvsetstølen" />
		<tag k="place" v="locality" />
		<tag k="ssr:stedsnr" v="858269" />
	</node>
	<node id="-172373" lat="60.7862916638" lon="8.98923888479">
		<tag k="alt_name" v="Ransedokki seter;Ransedokksætri" />
		<tag k="historic" v="shieling" />
		<tag k="name" v="Ransedokkstølen" />
		<tag k="place" v="locality" />
		<tag k="ssr:stedsnr" v="858259" />
	</node>
	<node id="-172370" lat="60.8191333301" lon="8.82898611049">
		<tag k="historic" v="shieling" />
		<tag k="name" v="Maureset" />
		<tag k="place" v="locality" />
		<tag k="ssr:stedsnr" v="858240" />
	</node>
	<node id="-172367" lat="60.7777833301" lon="8.76022222086">
		<tag k="name" v="Granheim" />
		<tag k="ssr:stedsnr" v="858021" />
		<tag k="tourism" v="hotel" />
	</node>
	<node id="-172364" lat="60.7980027741" lon="8.82465277344">
		<tag k="name" v="Holet" />
		<tag k="place" v="isolated_dwelling" />
		<tag k="ssr:stedsnr" v="858002" />
	</node>
	<node id="-172362" lat="60.706016664" lon="9.02215000016">
		<tag k="alt_name" v="Halden;Nybråten" />
		<tag k="name" v="Halli" />
		<tag k="place" v="farm" />
		<tag k="ssr:stedsnr" v="857399" />
	</node>
	<node id="-172361" lat="60.7072916693" lon="9.00353332887">
		<tag k="name" v="Glenna" />
		<tag k="place" v="locality" />
		<tag k="ssr:stedsnr" v="857387" />
	</node>
	<node id="-172360" lat="60.7123972229" lon="8.96295000257">
		<tag k="alt_name" v="Bjørkedokken" />
		<tag k="name" v="Bjørkedokki" />
		<tag k="place" v="farm" />
		<tag k="ssr:stedsnr" v="857386" />
	</node>
	<node id="-172358" lat="60.7093058144" lon="8.88062751443">
		<tag k="historic" v="shieling" />
		<tag k="name" v="Skaran" />
		<tag k="old_name" v="Skarann" />
		<tag k="place" v="locality" />
		<tag k="ssr:stedsnr" v="857375" />
	</node>
	<node id="-172353" lat="60.7247944487" lon="9.0366611068">
		<tag k="name" v="Sandbekkhytta" />
		<tag k="place" v="isolated_dwelling" />
		<tag k="ssr:stedsnr" v="857150" />
	</node>
	<node id="-172352" lat="60.7182694489" lon="8.96866111328">
		<tag k="name" v="Brenna" />
		<tag k="old_name" v="Brenno" />
		<tag k="place" v="farm" />
		<tag k="ssr:stedsnr" v="857140" />
	</node>
	<node id="-172351" lat="60.6863638877" lon="8.82690278394">
		<tag k="name" v="Hjelmen" />
		<tag k="place" v="locality" />
		<tag k="ssr:stedsnr" v="856922" />
	</node>
	<node id="-172350" lat="60.6969694462" lon="8.81206944226">
		<tag k="alt_name" v="Tubbedokken" />
		<tag k="historic" v="shieling" />
		<tag k="name" v="Tubbedokki" />
		<tag k="place" v="locality" />
		<tag k="ssr:stedsnr" v="856901" />
	</node>
	<node id="-172349" lat="60.7044472212" lon="8.82419166506">
		<tag k="name" v="Lappeset" />
		<tag k="place" v="locality" />
		<tag k="ssr:stedsnr" v="856884" />
	</node>
	<node id="-172348" lat="60.7450611101" lon="8.83902500534">
		<tag k="name" v="Grønlie" />
		<tag k="place" v="farm" />
		<tag k="ssr:stedsnr" v="856810" />
	</node>
	<node id="-172347" lat="60.7453611101" lon="8.83443611205">
		<tag k="historic" v="shieling" />
		<tag k="name" v="Stuveset" />
		<tag k="place" v="locality" />
		<tag k="ssr:stedsnr" v="856809" />
	</node>
	<node id="-172346" lat="60.6924500027" lon="9.01029166716">
		<tag k="name" v="Søre Eikle" />
		<tag k="place" v="farm" />
		<tag k="ssr:stedsnr" v="856378" />
	</node>
	<node id="-172345" lat="60.7022388857" lon="9.18222776885">
		<tag k="name" v="Knutsvollen" />
		<tag k="place" v="isolated_dwelling" />
		<tag k="ssr:stedsnr" v="856374" />
	</node>
	<node id="-172344" lat="60.7024916693" lon="8.89562221522">
		<tag k="name" v="Brenno" />
		<tag k="place" v="farm" />
		<tag k="ssr:stedsnr" v="856342" />
	</node>
	<node id="-172343" lat="60.6943472251" lon="9.04325556213">
		<tag k="name" v="Grangard" />
		<tag k="place" v="farm" />
		<tag k="ssr:stedsnr" v="856310" />
	</node>
	<node id="-172341" lat="60.6883886993" lon="9.03142583131">
		<tag k="alt_name" v="Søre Li;Søndreli" />
		<tag k="fixme" v="consider place=hamlet" />
		<tag k="name" v="Søreli" />
		<tag k="place" v="farm" />
		<tag k="ssr:stedsnr" v="856305" />
	</node>
	<node id="-172339" lat="60.7441555593" lon="8.88926943771">
		<tag k="name" v="Pålrud" />
		<tag k="place" v="farm" />
		<tag k="ssr:stedsnr" v="856195" />
	</node>
	<node id="-172337" lat="60.7405805553" lon="9.17338332873">
		<tag k="name" v="Endefjellstølen" />
		<tag k="place" v="isolated_dwelling" />
		<tag k="ssr:stedsnr" v="856172" />
	</node>
	<node id="-172333" lat="60.7092166685" lon="8.93361944163">
		<tag k="name" v="Petterbråten" />
		<tag k="place" v="quarter" />
		<tag k="ssr:stedsnr" v="847254" />
	</node>
	<node id="-172331" lat="60.6959694482" lon="8.83630554801">
		<tag k="name" v="Skarvegløtt" />
		<tag k="place" v="isolated_dwelling" />
		<tag k="ssr:stedsnr" v="846166" />
	</node>
	<node id="-172329" lat="60.6502444408" lon="9.06688054665">
		<tag k="name" v="Trælup" />
		<tag k="place" v="locality" />
		<tag k="ssr:stedsnr" v="844456" />
	</node>
	<node id="-172327" lat="60.7381965358" lon="8.86609389875">
		<tag k="alt_name" v="Elbjør;Eldbjør" />
		<tag k="fixme" v="consider place=hamlet" />
		<tag k="name" v="Eldbjørgo" />
		<tag k="place" v="farm" />
		<tag k="ssr:stedsnr" v="838329" />
	</node>
	<node id="-172321" lat="60.7233750024" lon="9.29751388012">
		<tag k="historic" v="shieling" />
		<tag k="name" v="Gamlevollen" />
		<tag k="place" v="locality" />
		<tag k="ssr:stedsnr" v="831797" />
	</node>
	<node id="-172320" lat="60.7407452283" lon="9.24482452074">
		<tag k="historic" v="shieling" />
		<tag k="name" v="Skarpetrø" />
		<tag k="place" v="locality" />
		<tag k="ssr:stedsnr" v="831794" />
	</node>
	<node id="-172317" lat="60.7418527737" lon="8.87174443748">
		<tag k="name" v="Nordre Løstegard" />
		<tag k="place" v="farm" />
		<tag k="ssr:stedsnr" v="829998" />
	</node>
	<node id="-172316" lat="60.7471499969" lon="8.81137223123">
		<tag k="name" v="Øvre Mykleset" />
		<tag k="place" v="farm" />
		<tag k="ssr:stedsnr" v="829892" />
	</node>
	<node id="-172314" lat="60.7256305526" lon="9.0614277772">
		<tag k="name" v="Gamle Sygardshytta" />
		<tag k="place" v="locality" />
		<tag k="ssr:stedsnr" v="829799" />
	</node>
	<node id="-172313" lat="60.6840472235" lon="8.86001944639">
		<tag k="name" v="Øygarden" />
		<tag k="place" v="isolated_dwelling" />
		<tag k="ssr:stedsnr" v="829418" />
	</node>
	<node id="-172309" lat="60.7985027742" lon="8.99217222323">
		<tag k="historic" v="shieling" />
		<tag k="name" v="Moen seter" />
		<tag k="place" v="locality" />
		<tag k="ssr:stedsnr" v="827291" />
	</node>
	<node id="-172308" lat="60.8399638871" lon="8.95207499902">
		<tag k="name" v="Guriset fjellstue" />
		<tag k="ssr:stedsnr" v="798424" />
		<tag k="tourism" v="hotel" />
	</node>
	<node id="-172305" lat="60.8502861072" lon="8.88765277608">
		<tag k="alt_name" v="Bleiktvedt seter" />
		<tag k="name" v="Bleiktveit" />
		<tag k="place" v="farm" />
		<tag k="ssr:stedsnr" v="798386" />
	</node>
	<node id="-172303" lat="60.7632333317" lon="8.78028611291">
		<tag k="name" v="Hulbaklie" />
		<tag k="place" v="farm" />
		<tag k="ssr:stedsnr" v="798050" />
	</node>
	<node id="-172300" lat="60.8050916682" lon="8.97791111505">
		<tag k="alt_name" v="Treverket seter;Trælverkestølen" />
		<tag k="historic" v="shieling" />
		<tag k="name" v="Treverkstølen" />
		<tag k="place" v="locality" />
		<tag k="ssr:stedsnr" v="797473" />
	</node>
	<node id="-172295" lat="60.7564500019" lon="8.85535833084">
		<tag k="name" v="Hatten" />
		<tag k="place" v="farm" />
		<tag k="ssr:stedsnr" v="797276" />
	</node>
	<node id="-172293" lat="60.7922192891" lon="9.1823088318">
		<tag k="historic" v="shieling" />
		<tag k="name" v="Hølstølen" />
		<tag k="place" v="locality" />
		<tag k="ssr:stedsnr" v="797248" />
	</node>
	<node id="-172291" lat="60.708880556" lon="9.02158333854">
		<tag k="name" v="Toppen" />
		<tag k="place" v="farm" />
		<tag k="ssr:stedsnr" v="796377" />
	</node>
	<node id="-172290" lat="60.7054888856" lon="9.17533611392">
		<tag k="historic" v="shieling" />
		<tag k="name" v="Eivindlie" />
		<tag k="place" v="locality" />
		<tag k="ssr:stedsnr" v="796372" />
	</node>
	<node id="-172287" lat="60.7051728976" lon="8.90796142612">
		<tag k="fixme" v="consider place=hamlet" />
		<tag k="name" v="Haugstad" />
		<tag k="place" v="farm" />
		<tag k="ssr:stedsnr" v="796351" />
	</node>
	<node id="-172286" lat="60.7150472246" lon="8.98051944812">
		<tag k="name" v="Vindfallet" />
		<tag k="place" v="locality" />
		<tag k="ssr:stedsnr" v="796347" />
	</node>
	<node id="-172284" lat="60.718708334" lon="9.05985555192">
		<tag k="name" v="Sygardshytta" />
		<tag k="place" v="isolated_dwelling" />
		<tag k="ssr:stedsnr" v="796344" />
	</node>
	<node id="-172283" lat="60.672722226" lon="9.03336389547">
		<tag k="name" v="Stegsrud" />
		<tag k="old_name" v="Stegerud" />
		<tag k="place" v="farm" />
		<tag k="ssr:stedsnr" v="796309" />
	</node>
	<node id="-172282" lat="60.7375166678" lon="9.1613555518">
		<tag k="alt_name" v="Søthaug" />
		<tag k="name" v="Søtehaug" />
		<tag k="place" v="locality" />
		<tag k="ssr:stedsnr" v="796155" />
	</node>
	<node id="-172280" lat="60.7251722216" lon="8.89712499314">
		<tag k="name" v="Svello" />
		<tag k="place" v="farm" />
		<tag k="ssr:stedsnr" v="796144" />
	</node>
	<node id="-172279" lat="60.7235620245" lon="8.90229328168">
		<tag k="fixme" v="consider place=hamlet" />
		<tag k="name" v="Steinsrud" />
		<tag k="place" v="farm" />
		<tag k="ssr:stedsnr" v="796145" />
	</node>
	<node id="-172278" lat="60.7241111114" lon="8.95849999665">
		<tag k="alt_name" v="Dokken" />
		<tag k="name" v="Dokki" />
		<tag k="place" v="farm" />
		<tag k="ssr:stedsnr" v="796140" />
	</node>
	<node id="-172277" lat="60.7205833299" lon="8.88319444876">
		<tag k="historic" v="shieling" />
		<tag k="name" v="Holtegardsvollen" />
		<tag k="old_name" v="Hørtegardsvollen" />
		<tag k="place" v="locality" />
		<tag k="ssr:stedsnr" v="796133" />
	</node>
	<node id="-172276" lat="60.7189805571" lon="8.87881945303">
		<tag k="alt_name" v="Øvre Langset" />
		<tag k="historic" v="shieling" />
		<tag k="name" v="Langset" />
		<tag k="place" v="locality" />
		<tag k="ssr:stedsnr" v="796131" />
	</node>
	<node id="-172274" lat="60.7139361092" lon="8.94902221546">
		<tag k="alt_name" v="Midtgård" />
		<tag k="name" v="Midtgard" />
		<tag k="place" v="farm" />
		<tag k="ssr:stedsnr" v="796122" />
	</node>
	<node id="-172273" lat="60.6751638873" lon="8.80604721746">
		<tag k="name" v="Eilevmoen" />
		<tag k="place" v="farm" />
		<tag k="ssr:stedsnr" v="795960" />
	</node>
	<node id="-172272" lat="60.700833334" lon="8.79799443835">
		<tag k="alt_name" v="Guråstølen" />
		<tag k="historic" v="shieling" />
		<tag k="name" v="Gurostølen" />
		<tag k="place" v="locality" />
		<tag k="ssr:stedsnr" v="795885" />
	</node>
	<node id="-172271" lat="60.7376833306" lon="8.80352499422">
		<tag k="historic" v="shieling" />
		<tag k="name" v="Gamlelie" />
		<tag k="place" v="locality" />
		<tag k="ssr:stedsnr" v="795823" />
	</node>
	<node id="-172270" lat="60.7388250012" lon="8.84184166923">
		<tag k="alt_name" v="Skøttestølen" />
		<tag k="historic" v="shieling" />
		<tag k="name" v="Skottestølen" />
		<tag k="place" v="locality" />
		<tag k="ssr:stedsnr" v="795821" />
	</node>
	<node id="-172269" lat="60.7472305588" lon="8.82894165771">
		<tag k="name" v="Veslehaugen" />
		<tag k="place" v="farm" />
		<tag k="ssr:stedsnr" v="795795" />
	</node>
	<node id="-172268" lat="60.693697222" lon="8.90008333641">
		<tag k="name" v="Knaldre" />
		<tag k="place" v="farm" />
		<tag k="ssr:stedsnr" v="795393" />
	</node>
	<node id="-172267" lat="60.6936888906" lon="8.86841944033">
		<tag k="alt_name" v="Gjerdene" />
		<tag k="name" v="Gjerdun" />
		<tag k="place" v="farm" />
		<tag k="ssr:stedsnr" v="795385" />
	</node>
	<node id="-172264" lat="60.6839833338" lon="8.85859166067">
		<tag k="name" v="Øynebråten" />
		<tag k="place" v="farm" />
		<tag k="ssr:stedsnr" v="795377" />
	</node>
	<node id="-172263" lat="60.6883861109" lon="8.85315277787">
		<tag k="name" v="Brekko" />
		<tag k="place" v="farm" />
		<tag k="ssr:stedsnr" v="795375" />
	</node>
	<node id="-172262" lat="60.6930305542" lon="8.86494443725">
		<tag k="alt_name" v="Lauvdokken" />
		<tag k="name" v="Lauvdokki" />
		<tag k="place" v="farm" />
		<tag k="ssr:stedsnr" v="795372" />
	</node>
	<node id="-172261" lat="60.7022333319" lon="8.97678888116">
		<tag k="name" v="Velta" />
		<tag k="place" v="farm" />
		<tag k="ssr:stedsnr" v="795367" />
	</node>
	<node id="-172259" lat="60.692691669" lon="9.03072778165">
		<tag k="name" v="Steingrimsli" />
		<tag k="place" v="farm" />
		<tag k="ssr:stedsnr" v="795324" />
	</node>
	<node id="-172256" lat="60.7809916651" lon="8.9262194427">
		<tag k="historic" v="shieling" />
		<tag k="name" v="Søre Vermelie" />
		<tag k="place" v="locality" />
		<tag k="ssr:stedsnr" v="787675" />
	</node>
	<node id="-172255" lat="60.7864277786" lon="8.9552250064">
		<tag k="historic" v="shieling" />
		<tag k="name" v="Skutuset" />
		<tag k="old_name" v="Skutusetseter" />
		<tag k="place" v="locality" />
		<tag k="ssr:stedsnr" v="787673" />
	</node>
	<node id="-172253" lat="60.694938888" lon="8.87944166848">
		<tag k="alt_name" v="Steinsgard" />
		<tag k="name" v="Steingarden" />
		<tag k="old_name" v="Steingaarden" />
		<tag k="place" v="farm" />
		<tag k="ssr:stedsnr" v="786329" />
	</node>
	<node id="-172252" lat="60.7079388923" lon="8.92816389024">
		<tag k="name" v="Elvestad" />
		<tag k="place" v="farm" />
		<tag k="ssr:stedsnr" v="785205" />
	</node>
	<node id="-172251" lat="60.6960055562" lon="8.89963611796">
		<tag k="name" v="Fikkesletten" />
		<tag k="place" v="farm" />
		<tag k="ssr:stedsnr" v="785193" />
	</node>
	<node id="-172250" lat="60.6414078163" lon="9.05983732088">
		<tag k="alt_name" v="Arnfinnmo" />
		<tag k="name" v="Arnfinnmoen" />
		<tag k="place" v="locality" />
		<tag k="ssr:stedsnr" v="783455" />
	</node>
	<node id="-172245" lat="60.6900750029" lon="8.87345277484">
		<tag k="alt_name" v="Nordre Gjeglheim;Nordre Jegleim" />
		<tag k="name" v="Nørdre Jegleim" />
		<tag k="place" v="farm" />
		<tag k="ssr:stedsnr" v="776194" />
	</node>
	<node id="-172242" lat="60.7545055527" lon="8.94194722635">
		<tag k="alt_name" v="Værelse Sr" />
		<tag k="name" v="Værelset" />
		<tag k="place" v="locality" />
		<tag k="ssr:stedsnr" v="774978" />
	</node>
	<node id="-172239" lat="60.6847027761" lon="9.01986388169">
		<tag k="name" v="Eggum" />
		<tag k="place" v="locality" />
		<tag k="ssr:stedsnr" v="770113" />
	</node>
	<node id="-172237" lat="60.7238138888" lon="8.9555138958">
		<tag k="name" v="Eidsgardbråten" />
		<tag k="place" v="farm" />
		<tag k="ssr:stedsnr" v="769184" />
	</node>
	<node id="-172236" lat="60.7522333364" lon="8.75280000814">
		<tag k="name" v="Veslegården" />
		<tag k="place" v="farm" />
		<tag k="ssr:stedsnr" v="768911" />
	</node>
	<node id="-172235" lat="60.7454555561" lon="8.82761666257">
		<tag k="name" v="Stuveset" />
		<tag k="place" v="farm" />
		<tag k="ssr:stedsnr" v="768901" />
	</node>
	<node id="-172234" lat="60.7573111099" lon="8.77074444014">
		<tag k="name" v="Nibstadvollen" />
		<tag k="place" v="isolated_dwelling" />
		<tag k="ssr:stedsnr" v="768898" />
	</node>
	<node id="-172233" lat="60.7567777764" lon="8.77314999272">
		<tag k="name" v="Elbjørvollen" />
		<tag k="place" v="isolated_dwelling" />
		<tag k="ssr:stedsnr" v="768897" />
	</node>
	<node id="-172232" lat="60.7575944422" lon="8.76771388142">
		<tag k="name" v="Rohaugstølen" />
		<tag k="place" v="isolated_dwelling" />
		<tag k="ssr:stedsnr" v="768894" />
	</node>
	<node id="-172231" lat="60.7217194436" lon="8.98013055458">
		<tag k="name" v="Nedre Rust" />
		<tag k="place" v="farm" />
		<tag k="ssr:stedsnr" v="768836" />
	</node>
	<node id="-172228" lat="60.7164166683" lon="9.04152777757">
		<tag k="historic" v="shieling" />
		<tag k="name" v="Sygardshytta" />
		<tag k="place" v="locality" />
		<tag k="ssr:stedsnr" v="768816" />
	</node>
	<node id="-172227" lat="60.6915666707" lon="8.82654999527">
		<tag k="name" v="Austre Grov" />
		<tag k="place" v="farm" />
		<tag k="ssr:stedsnr" v="768411" />
	</node>
	<node id="-172225" lat="60.6956194478" lon="8.88941944552">
		<tag k="alt_name" v="Turhus" />
		<tag k="name" v="Turrhus" />
		<tag k="place" v="farm" />
		<tag k="ssr:stedsnr" v="767297" />
	</node>
	<node id="-172221" lat="60.8520888911" lon="8.92633054761">
		<tag k="alt_name" v="Roseter" />
		<tag k="historic" v="shieling" />
		<tag k="name" v="Rostølen" />
		<tag k="old_name" v="Råstølen" />
		<tag k="place" v="locality" />
		<tag k="ssr:stedsnr" v="737434" />
	</node>
	<node id="-172219" lat="60.8326833315" lon="9.00343889463">
		<tag k="name" v="Vesle Skaugum" />
		<tag k="place" v="isolated_dwelling" />
		<tag k="ssr:stedsnr" v="737416" />
	</node>
	<node id="-172218" lat="60.7679027821" lon="9.12243055725">
		<tag k="name" v="Dunkehybelen" />
		<tag k="place" v="isolated_dwelling" />
		<tag k="ssr:stedsnr" v="737271" />
	</node>
	<node id="-172217" lat="60.7586138864" lon="8.85655554686">
		<tag k="name" v="Overhatten" />
		<tag k="place" v="farm" />
		<tag k="ssr:stedsnr" v="737267" />
	</node>
	<node id="-172216" lat="60.7533305579" lon="8.79758332547">
		<tag k="name" v="Snekkerhaugen" />
		<tag k="place" v="farm" />
		<tag k="ssr:stedsnr" v="737048" />
	</node>
	<node id="-172214" lat="60.7952277781" lon="8.86396389131">
		<tag k="alt_name" v="Bråtestølen" />
		<tag k="historic" v="shieling" />
		<tag k="name" v="Bråtastølen" />
		<tag k="place" v="locality" />
		<tag k="ssr:stedsnr" v="736476" />
	</node>
	<node id="-172213" lat="60.7993030442" lon="9.0624002715">
		<tag k="historic" v="shieling" />
		<tag k="name" v="Fjøsstølen" />
		<tag k="place" v="locality" />
		<tag k="ssr:stedsnr" v="736291" />
	</node>
	<node id="-172212" lat="60.8028222239" lon="9.00637499272">
		<tag k="fixme" v="multiple name tags, choose one and add the other to alt_name" />
		<tag k="historic" v="shieling" />
		<tag k="name" v="Jønnbustølen;Vikovollen" />
		<tag k="place" v="locality" />
		<tag k="ssr:stedsnr" v="736288" />
	</node>
	<node id="-172211" lat="60.7994361131" lon="8.99843888588">
		<tag k="historic" v="shieling" />
		<tag k="name" v="Rustemyrvollen" />
		<tag k="place" v="locality" />
		<tag k="ssr:stedsnr" v="736286" />
	</node>
	<node id="-172210" lat="60.6985222214" lon="9.27246665892">
		<tag k="historic" v="shieling" />
		<tag k="name" v="Andsjøstølan" />
		<tag k="place" v="locality" />
		<tag k="ssr:stedsnr" v="735699" />
	</node>
	<node id="-172209" lat="60.7318888893" lon="9.26813889529">
		<tag k="alt_name" v="Søndreli-Nystølen" />
		<tag k="historic" v="shieling" />
		<tag k="name" v="Søreli-Nystølen" />
		<tag k="place" v="locality" />
		<tag k="ssr:stedsnr" v="735529" />
	</node>
	<node id="-172207" lat="60.6345777781" lon="9.06534999739">
		<tag k="alt_name" v="Søre Krusedokki;Søre Krusedokken" />
		<tag k="name" v="Krusedokki" />
		<tag k="place" v="farm" />
		<tag k="ssr:stedsnr" v="735455" />
	</node>
	<node id="-172206" lat="60.7123638909" lon="8.94920556016">
		<tag k="name" v="Rudningen" />
		<tag k="place" v="farm" />
		<tag k="ssr:stedsnr" v="735362" />
	</node>
	<node id="-172205" lat="60.7100389183" lon="8.91653954787">
		<tag k="fixme" v="consider place=hamlet" />
		<tag k="name" v="Hersgard" />
		<tag k="place" v="farm" />
		<tag k="ssr:stedsnr" v="735353" />
	</node>
	<node id="-172200" lat="60.6809555533" lon="9.03245555297">
		<tag k="alt_name" v="Urene" />
		<tag k="name" v="Urdin" />
		<tag k="place" v="farm" />
		<tag k="ssr:stedsnr" v="735298" />
	</node>
	<node id="-172197" lat="60.6634249962" lon="9.04923333415">
		<tag k="name" v="Haugen" />
		<tag k="place" v="farm" />
		<tag k="ssr:stedsnr" v="735254" />
	</node>
	<node id="-172194" lat="60.7383944449" lon="8.91694444609">
		<tag k="name" v="Bekkestad" />
		<tag k="place" v="farm" />
		<tag k="ssr:stedsnr" v="735148" />
	</node>
	<node id="-172193" lat="60.7227750017" lon="8.87574165849">
		<tag k="name" v="Holt" />
		<tag k="place" v="isolated_dwelling" />
		<tag k="ssr:stedsnr" v="735146" />
	</node>
	<node id="-172192" lat="60.7213047557" lon="8.89891145617">
		<tag k="fixme" v="consider place=hamlet" />
		<tag k="name" v="Holtegard" />
		<tag k="place" v="farm" />
		<tag k="ssr:stedsnr" v="735118" />
	</node>
	<node id="-172191" lat="60.6834055589" lon="8.82736388814">
		<tag k="name" v="Bråten" />
		<tag k="place" v="farm" />
		<tag k="ssr:stedsnr" v="734921" />
	</node>
	<node id="-172190" lat="60.6817305568" lon="8.8119166658">
		<tag k="name" v="Plassen" />
		<tag k="place" v="farm" />
		<tag k="ssr:stedsnr" v="734919" />
	</node>
	<node id="-172189" lat="60.7097083359" lon="8.84011666315">
		<tag k="historic" v="shieling" />
		<tag k="name" v="Fagerdalen" />
		<tag k="place" v="locality" />
		<tag k="ssr:stedsnr" v="734860" />
	</node>
	<node id="-172187" lat="60.723272221" lon="8.77342500239">
		<tag k="alt_name" v="Maureleina" />
		<tag k="historic" v="shieling" />
		<tag k="name" v="Maureleini" />
		<tag k="place" v="locality" />
		<tag k="ssr:stedsnr" v="734811" />
	</node>
	<node id="-172186" lat="60.7482562108" lon="8.81196786871">
		<tag k="name" v="Mykleset" />
		<tag k="place" v="locality" />
		<tag k="ssr:stedsnr" v="734786" />
	</node>
	<node id="-172182" lat="60.7405222199" lon="8.7807472225">
		<tag k="historic" v="shieling" />
		<tag k="name" v="Bakkevollen" />
		<tag k="place" v="locality" />
		<tag k="ssr:stedsnr" v="725047" />
	</node>
	<node id="-172180" lat="60.7172722253" lon="8.78292222055">
		<tag k="name" v="Øystølen" />
		<tag k="place" v="locality" />
		<tag k="ssr:stedsnr" v="723485" />
	</node>
	<node id="-172179" lat="60.6500333343" lon="9.05733333558">
		<tag k="name" v="Tørrisdokki" />
		<tag k="place" v="farm" />
		<tag k="ssr:stedsnr" v="722459" />
	</node>
	<node id="-172178" lat="60.7024777805" lon="8.91227499115">
		<tag k="fixme" v="consider place=hamlet" />
		<tag k="name" v="Golreppen" />
		<tag k="old_name" v="Golsreppen" />
		<tag k="place" v="village" />
		<tag k="ssr:stedsnr" v="720352" />
	</node>
	<node id="-172177" lat="60.7362194404" lon="8.8781500067">
		<tag k="name" v="Søre Blakkestad" />
		<tag k="place" v="farm" />
		<tag k="ssr:stedsnr" v="714985" />
	</node>
	<node id="-172175" lat="60.7588777808" lon="8.76689722712">
		<tag k="historic" v="shieling" />
		<tag k="name" v="Brennhovdseter" />
		<tag k="place" v="locality" />
		<tag k="ssr:stedsnr" v="709827" />
	</node>
	<node id="-172171" lat="60.7336305575" lon="8.84095555784">
		<tag k="historic" v="shieling" />
		<tag k="name" v="Skåråsbråtstølen" />
		<tag k="place" v="locality" />
		<tag k="ssr:stedsnr" v="709188" />
	</node>
	<node id="-172168" lat="60.7058083337" lon="8.97405833593">
		<tag k="name" v="Domholt" />
		<tag k="place" v="locality" />
		<tag k="ssr:stedsnr" v="709164" />
	</node>
	<node id="-172167" lat="60.7128241946" lon="8.91980736498">
		<tag k="fixme" v="consider place=hamlet" />
		<tag k="name" v="Lisla" />
		<tag k="place" v="farm" />
		<tag k="ssr:stedsnr" v="709156" />
	</node>
	<node id="-172165" lat="60.7387388847" lon="8.86533889026">
		<tag k="alt_name" v="Nørdre Eldbjør" />
		<tag k="name" v="Nørdre Eldbjørgo" />
		<tag k="place" v="farm" />
		<tag k="ssr:stedsnr" v="708784" />
	</node>
	<node id="-172164" lat="60.7484666637" lon="8.87975278402">
		<tag k="name" v="Raudbakken" />
		<tag k="old_name" v="Raubakken;Raudbekken;Raubakke" />
		<tag k="place" v="farm" />
		<tag k="ssr:stedsnr" v="708195" />
	</node>
	<node id="-172163" lat="60.7399305563" lon="8.87059721784">
		<tag k="name" v="Rakelgarden" />
		<tag k="place" v="farm" />
		<tag k="ssr:stedsnr" v="707997" />
	</node>
	<node id="-172159" lat="60.6882527756" lon="8.89319723092">
		<tag k="name" v="Ringstad" />
		<tag k="place" v="farm" />
		<tag k="ssr:stedsnr" v="707085" />
	</node>
	<node id="-172158" lat="60.8050361102" lon="8.98039166451">
		<tag k="historic" v="shieling" />
		<tag k="name" v="Eldstad seter" />
		<tag k="place" v="locality" />
		<tag k="ssr:stedsnr" v="706341" />
	</node>
	<node id="-172157" lat="60.7794694444" lon="8.99776110685">
		<tag k="name" v="Renslomyr" />
		<tag k="place" v="isolated_dwelling" />
		<tag k="ssr:stedsnr" v="706263" />
	</node>
	<node id="-172156" lat="60.8551194466" lon="8.90629722076">
		<tag k="fixme" v="multiple name tags, choose one and add the other to alt_name" />
		<tag k="historic" v="shieling" />
		<tag k="name" v="Sortebergstølen;Rostølen" />
		<tag k="old_name" v="Råstølen" />
		<tag k="place" v="locality" />
		<tag k="ssr:stedsnr" v="677393" />
	</node>
	<node id="-172151" lat="60.8383555542" lon="8.94928333417">
		<tag k="name" v="Øvre Guriset" />
		<tag k="ssr:stedsnr" v="676461" />
		<tag k="tourism" v="hotel" />
	</node>
	<node id="-172149" lat="60.7564944401" lon="8.98823889097">
		<tag k="historic" v="shieling" />
		<tag k="name" v="Brautemo" />
		<tag k="place" v="locality" />
		<tag k="ssr:stedsnr" v="676344" />
	</node>
	<node id="-172147" lat="60.780094442" lon="9.02533888984">
		<tag k="historic" v="shieling" />
		<tag k="name" v="Fosshaug" />
		<tag k="place" v="locality" />
		<tag k="ssr:stedsnr" v="676305" />
	</node>
	<node id="-172146" lat="60.7829416679" lon="8.98809999206">
		<tag k="alt_name" v="Espedokki;Hosovollen Sr;Høsavollen" />
		<tag k="historic" v="shieling" />
		<tag k="name" v="Espedokkvollen" />
		<tag k="place" v="locality" />
		<tag k="ssr:stedsnr" v="676248" />
	</node>
	<node id="-172144" lat="60.8101361139" lon="8.82153332838">
		<tag k="historic" v="shieling" />
		<tag k="name" v="Nedre Vermelie" />
		<tag k="place" v="locality" />
		<tag k="ssr:stedsnr" v="676232" />
	</node>
	<node id="-172141" lat="60.7588194423" lon="8.81607499653">
		<tag k="name" v="Slåtta" />
		<tag k="place" v="farm" />
		<tag k="ssr:stedsnr" v="676034" />
	</node>
	<node id="-172140" lat="60.8015000007" lon="8.86735277729">
		<tag k="historic" v="shieling" />
		<tag k="name" v="Bråtastølen" />
		<tag k="old_name" v="Bråtåstølen" />
		<tag k="place" v="locality" />
		<tag k="ssr:stedsnr" v="675502" />
	</node>
	<node id="-172138" lat="60.79782778" lon="8.98847777475">
		<tag k="historic" v="shieling" />
		<tag k="name" v="Bergavollen" />
		<tag k="old_name" v="Berg seter;Bergsætri;Bergstølen;Bergastølen" />
		<tag k="place" v="locality" />
		<tag k="ssr:stedsnr" v="675313" />
	</node>
	<node id="-172137" lat="60.8014916711" lon="8.99314722044">
		<tag k="historic" v="shieling" />
		<tag k="name" v="Ludderudvollen" />
		<tag k="place" v="locality" />
		<tag k="ssr:stedsnr" v="675309" />
	</node>
	<node id="-172133" lat="60.7835500023" lon="8.79680556225">
		<tag k="name" v="Roflekk" />
		<tag k="place" v="locality" />
		<tag k="ssr:stedsnr" v="675021" />
	</node>
	<node id="-172123" lat="60.7185307147" lon="9.18725653186">
		<tag k="historic" v="shieling" />
		<tag k="name" v="Vestrelie" />
		<tag k="place" v="locality" />
		<tag k="ssr:stedsnr" v="674342" />
	</node>
	<node id="-172119" lat="60.6997250022" lon="8.95550832534">
		<tag k="name" v="Viko" />
		<tag k="place" v="farm" />
		<tag k="ssr:stedsnr" v="674309" />
	</node>
	<node id="-172118" lat="60.7020444417" lon="9.04055556195">
		<tag k="name" v="Jonsrud" />
		<tag k="old_name" v="Jonshaugen" />
		<tag k="place" v="farm" />
		<tag k="ssr:stedsnr" v="674304" />
	</node>
	<node id="-172117" lat="60.6946138925" lon="8.90163888809">
		<tag k="alt_name" v="Billebroten" />
		<tag k="name" v="Billebråten" />
		<tag k="old_name" v="Gillebråten" />
		<tag k="place" v="farm" />
		<tag k="ssr:stedsnr" v="674297" />
	</node>
	<node id="-172115" lat="60.688899998" lon="9.03469721425">
		<tag k="alt_name" v="Køsene;Køso" />
		<tag k="name" v="Kosin" />
		<tag k="place" v="farm" />
		<tag k="ssr:stedsnr" v="674272" />
	</node>
	<node id="-172114" lat="60.7469777799" lon="8.89239722922">
		<tag k="name" v="Moen" />
		<tag k="place" v="isolated_dwelling" />
		<tag k="ssr:stedsnr" v="674185" />
	</node>
	<node id="-172112" lat="60.7379305549" lon="8.8645916718">
		<tag k="alt_name" v="Søre Eldbjør" />
		<tag k="name" v="Søre Eldbjørgo" />
		<tag k="old_name" v="Sødre Eldbjør" />
		<tag k="place" v="farm" />
		<tag k="ssr:stedsnr" v="674169" />
	</node>
	<node id="-172111" lat="60.725155557" lon="8.88669721344">
		<tag k="loc_name" v="Øygardane" />
		<tag k="name" v="Øygardan" />
		<tag k="place" v="hamlet" />
		<tag k="ssr:stedsnr" v="674167" />
	</node>
	<node id="-172107" lat="60.7162472265" lon="8.90677500574">
		<tag k="alt_name" v="Trandeim" />
		<tag k="name" v="Trandheim" />
		<tag k="place" v="farm" />
		<tag k="ssr:stedsnr" v="674126" />
	</node>
	<node id="-172103" lat="60.7978861106" lon="8.84728888823">
		<tag k="historic" v="shieling" />
		<tag k="name" v="Hersgard seter" />
		<tag k="place" v="locality" />
		<tag k="ssr:stedsnr" v="665711" />
	</node>
	<node id="-172102" lat="60.7938027793" lon="8.85594166042">
		<tag k="name" v="Svartebråtvollen" />
		<tag k="place" v="isolated_dwelling" />
		<tag k="ssr:stedsnr" v="665698" />
	</node>
	<node id="-172100" lat="60.6969361071" lon="8.93987222273">
		<tag k="name" v="Husøyne" />
		<tag k="place" v="locality" />
		<tag k="ssr:stedsnr" v="664205" />
	</node>
	<node id="-172099" lat="60.6997083311" lon="9.26729167307">
		<tag k="name" v="Maurset" />
		<tag k="place" v="farm" />
		<tag k="ssr:stedsnr" v="664185" />
	</node>
	<node id="-172098" lat="60.8524305559" lon="8.92115834221">
		<tag k="name" v="Storebu" />
		<tag k="place" v="isolated_dwelling" />
		<tag k="ssr:stedsnr" v="664048" />
	</node>
	<node id="-172097" lat="60.6819782811" lon="8.83688916023">
		<tag k="fixme" v="consider place=hamlet" />
		<tag k="name" v="Rotneim" />
		<tag k="place" v="farm" />
		<tag k="ssr:stedsnr" v="659330" />
	</node>
	<node id="-172096" lat="60.6903361099" lon="8.87515554851">
		<tag k="alt_name" v="Søre Gjeglheim" />
		<tag k="name" v="Søre Jegleim" />
		<tag k="place" v="farm" />
		<tag k="ssr:stedsnr" v="654569" />
	</node>
	<node id="-172095" lat="60.7401138873" lon="8.87486943942">
		<tag k="name" v="Nordre Ro" />
		<tag k="place" v="farm" />
		<tag k="ssr:stedsnr" v="654178" />
	</node>
	<node id="-172088" lat="60.7222861099" lon="8.89040834247">
		<tag k="historic" v="shieling" />
		<tag k="name" v="Holtegardsjordet" />
		<tag k="place" v="locality" />
		<tag k="ssr:stedsnr" v="648211" />
	</node>
	<node id="-172087" lat="60.6991138905" lon="9.01258333191">
		<tag k="name" v="Øvre Hoftun" />
		<tag k="place" v="farm" />
		<tag k="ssr:stedsnr" v="648184" />
	</node>
	<node id="-172086" lat="60.6920472195" lon="8.87989167009">
		<tag k="name" v="Østheim" />
		<tag k="place" v="farm" />
		<tag k="ssr:stedsnr" v="648137" />
	</node>
	<node id="-172085" lat="60.6919416698" lon="8.92008611081">
		<tag k="name" v="Personbråten" />
		<tag k="place" v="farm" />
		<tag k="ssr:stedsnr" v="648134" />
	</node>
	<node id="-172081" lat="60.6820944401" lon="9.03218332944">
		<tag k="name" v="Bjørkerud" />
		<tag k="place" v="farm" />
		<tag k="ssr:stedsnr" v="648003" />
	</node>
	<node id="-172080" lat="60.7524722219" lon="8.81049721367">
		<tag k="name" v="Nordli" />
		<tag k="place" v="farm" />
		<tag k="ssr:stedsnr" v="647000" />
	</node>
	<node id="-172079" lat="60.7499111138" lon="8.80888055243">
		<tag k="name" v="Grønvoll" />
		<tag k="place" v="locality" />
		<tag k="ssr:stedsnr" v="646999" />
	</node>
	<node id="-172078" lat="60.7495222178" lon="8.81282777247">
		<tag k="name" v="Nedre Mykleset" />
		<tag k="place" v="farm" />
		<tag k="ssr:stedsnr" v="646998" />
	</node>
	<node id="-172077" lat="60.7369138925" lon="8.87328610985">
		<tag k="name" v="Nordre Blakkestad" />
		<tag k="place" v="farm" />
		<tag k="ssr:stedsnr" v="646996" />
	</node>
	<node id="-172076" lat="60.7414888896" lon="8.85980554788">
		<tag k="name" v="Nordre Magnetun" />
		<tag k="place" v="farm" />
		<tag k="ssr:stedsnr" v="646992" />
	</node>
	<node id="-172075" lat="60.6834055535" lon="8.8482138819">
		<tag k="name" v="Søre Gutigard" />
		<tag k="place" v="farm" />
		<tag k="ssr:stedsnr" v="646365" />
	</node>
	<node id="-172073" lat="60.8531916701" lon="8.90672778291">
		<tag k="historic" v="shieling" />
		<tag k="name" v="Holtegardstølen" />
		<tag k="place" v="locality" />
		<tag k="ssr:stedsnr" v="644501" />
	</node>
	<node id="-172072" lat="60.8033499999" lon="8.97930833055">
		<tag k="historic" v="shieling" />
		<tag k="name" v="Haugen seter" />
		<tag k="place" v="locality" />
		<tag k="ssr:stedsnr" v="644378" />
	</node>
	<node id="-172069" lat="60.8598166657" lon="8.88215277342">
		<tag k="historic" v="shieling" />
		<tag k="name" v="Løggestølen" />
		<tag k="place" v="locality" />
		<tag k="ssr:stedsnr" v="616404" />
	</node>
	<node id="-172065" lat="60.8365722234" lon="8.9668888954">
		<tag k="historic" v="shieling" />
		<tag k="name" v="Nedre Guriset" />
		<tag k="place" v="locality" />
		<tag k="ssr:stedsnr" v="615447" />
	</node>
	<node id="-172061" lat="60.7799861072" lon="9.17104443615">
		<tag k="alt_name" v="Varhaug" />
		<tag k="historic" v="shieling" />
		<tag k="name" v="Vardhaug" />
		<tag k="place" v="locality" />
		<tag k="ssr:stedsnr" v="615289" />
	</node>
	<node id="-172059" lat="60.7743694448" lon="9.0430333249">
		<tag k="historic" v="shieling" />
		<tag k="name" v="Slåttebu" />
		<tag k="place" v="locality" />
		<tag k="ssr:stedsnr" v="615278" />
	</node>
	<node id="-172057" lat="60.7656277813" lon="8.84758888461">
		<tag k="name" v="Vanberg" />
		<tag k="place" v="farm" />
		<tag k="ssr:stedsnr" v="615267" />
	</node>
	<node id="-172056" lat="60.7836694419" lon="9.0036722131">
		<tag k="alt_name" v="Vikastølen;Vikovollen" />
		<tag k="historic" v="shieling" />
		<tag k="name" v="Vikostølen" />
		<tag k="old_name" v="Viko seter" />
		<tag k="place" v="locality" />
		<tag k="ssr:stedsnr" v="615233" />
	</node>
	<node id="-172054" lat="60.7510722223" lon="8.83101666529">
		<tag k="name" v="Slåttestølen" />
		<tag k="place" v="farm" />
		<tag k="ssr:stedsnr" v="615058" />
	</node>
	<node id="-172053" lat="60.7994583352" lon="8.86776389336">
		<tag k="historic" v="shieling" />
		<tag k="name" v="Rasmusvollen" />
		<tag k="place" v="locality" />
		<tag k="ssr:stedsnr" v="614490" />
	</node>
	<node id="-172052" lat="60.7944749957" lon="8.87316944063">
		<tag k="alt_name" v="Hornungsetvollen" />
		<tag k="historic" v="shieling" />
		<tag k="name" v="Hodnungsetvollen" />
		<tag k="place" v="locality" />
		<tag k="ssr:stedsnr" v="614486" />
	</node>
	<node id="-172051" lat="60.7842416675" lon="8.9425555486">
		<tag k="name" v="Skutuset" />
		<tag k="place" v="neighbourhood" />
		<tag k="ssr:stedsnr" v="614284" />
	</node>
	<node id="-172050" lat="60.7868277768" lon="8.8983249917">
		<tag k="name" v="Hovdestølen" />
		<tag k="place" v="isolated_dwelling" />
		<tag k="ssr:stedsnr" v="614281" />
	</node>
	<node id="-172049" lat="60.7997055537" lon="8.84435832891">
		<tag k="historic" v="shieling" />
		<tag k="name" v="Lauvsetstølen" />
		<tag k="place" v="locality" />
		<tag k="ssr:stedsnr" v="614001" />
	</node>
	<node id="-172048" lat="60.6671388899" lon="8.81476944365">
		<tag k="alt_name" v="Haugeplass" />
		<tag k="name" v="Haugeplassen" />
		<tag k="place" v="farm" />
		<tag k="ssr:stedsnr" v="613959" />
	</node>
	<node id="-172046" lat="60.7286999999" lon="9.25729722503">
		<tag k="fixme" v="multiple name tags, choose one and add the other to alt_name" />
		<tag k="historic" v="shieling" />
		<tag k="name" v="Brennesetre;Urdevollen" />
		<tag k="place" v="locality" />
		<tag k="ssr:stedsnr" v="613550" />
	</node>
	<node id="-172043" lat="60.7103208731" lon="8.93825928456">
		<tag k="name" v="Petterbråten" />
		<tag k="old_name" v="Petersenbråten" />
		<tag k="place" v="farm" />
		<tag k="ssr:stedsnr" v="613373" />
	</node>
	<node id="-172042" lat="60.6925472236" lon="8.91043332627">
		<tag k="name" v="Musehaugen" />
		<tag k="place" v="farm" />
		<tag k="ssr:stedsnr" v="613342" />
	</node>
	<node id="-172039" lat="60.6830722242" lon="9.04001943577">
		<tag k="name" v="Viddi" />
		<tag k="place" v="isolated_dwelling" />
		<tag k="ssr:stedsnr" v="613304" />
	</node>
	<node id="-172038" lat="60.6825027772" lon="9.01907500828">
		<tag k="fixme" v="multiple name tags, choose one and add the other to alt_name" />
		<tag k="name" v="Engjo;Sersjantengjo;Skysskaffarengjo" />
		<tag k="old_name" v="Sesjantengann" />
		<tag k="place" v="farm" />
		<tag k="ssr:stedsnr" v="613299" />
	</node>
	<node id="-172036" lat="60.7417283456" lon="8.87368610357">
		<tag k="fixme" v="consider place=hamlet" />
		<tag k="name" v="Løstegard" />
		<tag k="place" v="farm" />
		<tag k="ssr:stedsnr" v="613181" />
	</node>
	<node id="-172035" lat="60.7396148601" lon="8.87614962557">
		<tag k="name" v="Ro" />
		<tag k="place" v="locality" />
		<tag k="ssr:stedsnr" v="613180" />
	</node>
	<node id="-172034" lat="60.74648056" lon="8.87814444006">
		<tag k="name" v="Bakkerud" />
		<tag k="place" v="farm" />
		<tag k="ssr:stedsnr" v="613177" />
	</node>
	<node id="-172033" lat="60.7440666709" lon="8.90045832689">
		<tag k="name" v="Glomsrudbråten" />
		<tag k="place" v="farm" />
		<tag k="ssr:stedsnr" v="613163" />
	</node>
</osm>
