<?xml version="1.0" encoding="UTF-8"?>
<osm generator="osmapis" version="0.6">
	<node id="-171233" lat="60.790588887" lon="9.10348610623">
		<tag k="fixme" v="consider boundary=protected_area and relevant protect_class if not nature reserve" />
		<tag k="leisure" v="nature_reserve" />
		<tag k="name" v="Metubba naturreservat" />
		<tag k="ssr:stedsnr" v="341269" />
	</node>
	<node id="-171391" lat="60.6907188352" lon="8.98845514346">
		<tag k="fixme" v="consider boundary=protected_area and relevant protect_class if not nature reserve" />
		<tag k="leisure" v="nature_reserve" />
		<tag k="name" v="Nøreimsbekken naturreservat" />
		<tag k="ssr:stedsnr" v="982683" />
	</node>
	<node id="-171461" lat="60.6719222185" lon="9.07927778211">
		<tag k="fixme" v="consider boundary=protected_area and relevant protect_class if not nature reserve" />
		<tag k="leisure" v="nature_reserve" />
		<tag k="name" v="Veikulåsen naturreservat" />
		<tag k="ssr:stedsnr" v="41018" />
	</node>
	<node id="-171394" lat="60.6684576756" lon="8.96017870747">
		<tag k="fixme" v="consider boundary=protected_area and relevant protect_class if not nature reserve" />
		<tag k="leisure" v="nature_reserve" />
		<tag k="name" v="Flatdalsåsen naturreservat" />
		<tag k="ssr:stedsnr" v="989184" />
	</node>
	<node id="-171911" lat="60.8083777743" lon="9.04868332884">
		<tag k="fixme" v="consider boundary=protected_area and relevant protect_class if not nature reserve" />
		<tag k="leisure" v="nature_reserve" />
		<tag k="name" v="Lyseren naturreservat" />
		<tag k="ssr:stedsnr" v="524319" />
	</node>
</osm>
