<?xml version="1.0" encoding="UTF-8"?>
<osm generator="osmapis" version="0.6">
	<node id="-171171" lat="60.8617277778" lon="8.89079722027">
		<tag k="name" v="Brennodden" />
		<tag k="natural" v="shoal" />
		<tag k="place" v="locality" />
		<tag k="ssr:stedsnr" v="300055" />
	</node>
	<node id="-172024" lat="60.7465027754" lon="8.78442777006">
		<tag k="name" v="Nystølbekken" />
		<tag k="ssr:stedsnr" v="612790" />
		<tag k="waterway" v="stream" />
	</node>
	<node id="-171508" lat="60.770077778" lon="8.92822499538">
		<tag k="alt_name" v="Langetjern" />
		<tag k="name" v="Langtjerne" />
		<tag k="natural" v="water" />
		<tag k="ssr:stedsnr" v="69323" />
	</node>
	<node id="-171507" lat="60.7698305557" lon="9.0347861102">
		<tag k="name" v="Drammedalsbekken" />
		<tag k="ssr:stedsnr" v="69322" />
		<tag k="waterway" v="stream" />
	</node>
	<node id="-172017" lat="60.6667222265" lon="8.84743333226">
		<tag k="name" v="Svartedalsbekken" />
		<tag k="ssr:stedsnr" v="601439" />
		<tag k="waterway" v="stream" />
	</node>
	<node id="-171504" lat="60.7746805536" lon="9.17173054791">
		<tag k="alt_name" v="Damtjerne" />
		<tag k="name" v="Damtjern" />
		<tag k="natural" v="water" />
		<tag k="ssr:stedsnr" v="69313" />
	</node>
	<node id="-171502" lat="60.7773722254" lon="8.90746111748">
		<tag k="alt_name" v="Svartetjern" />
		<tag k="name" v="Svartetjerne" />
		<tag k="natural" v="water" />
		<tag k="ssr:stedsnr" v="69265" />
	</node>
	<node id="-172013" lat="60.6979194448" lon="9.01058611414">
		<tag k="name" v="Bukkeøyne" />
		<tag k="place" v="islet" />
		<tag k="ssr:stedsnr" v="587170" />
	</node>
	<node id="-171346" lat="60.8593611121" lon="8.88373610656">
		<tag k="name" v="Løgga" />
		<tag k="ssr:stedsnr" v="888426" />
		<tag k="waterway" v="stream" />
	</node>
	<node id="-172010" lat="60.6719250015" lon="9.0749583304">
		<tag k="name" v="Eilevtjernan" />
		<tag k="natural" v="water" />
		<tag k="ssr:stedsnr" v="587019" />
		<tag k="water" v="lake" />
	</node>
	<node id="-171497" lat="60.7435999969" lon="9.30055556236">
		<tag k="alt_name" v="Lille Grevsjø" />
		<tag k="name" v="Vesle Grevsjøen" />
		<tag k="natural" v="water" />
		<tag k="ssr:stedsnr" v="68523" />
	</node>
	<node id="-171496" lat="60.7061611143" lon="9.12959445319">
		<tag k="name" v="Ruketjern" />
		<tag k="natural" v="water" />
		<tag k="ssr:stedsnr" v="68392" />
	</node>
	<node id="-172005" lat="60.6722138904" lon="8.80341111269">
		<tag k="name" v="Bukkesteinfossen" />
		<tag k="natural" v="waterfall" />
		<tag k="ssr:stedsnr" v="586379" />
	</node>
	<node id="-171486" lat="60.7012500033" lon="9.19727777784">
		<tag k="alt_name" v="Brilletjern" />
		<tag k="name" v="Brilletjerne" />
		<tag k="natural" v="water" />
		<tag k="ssr:stedsnr" v="67357" />
	</node>
	<node id="-171484" lat="60.6948388922" lon="9.09786666926">
		<tag k="name" v="Glitrefjorden" />
		<tag k="natural" v="bay" />
		<tag k="ssr:stedsnr" v="67354" />
	</node>
	<node id="-171994" lat="60.7533194475" lon="9.1804222199">
		<tag k="alt_name" v="Flagetjern" />
		<tag k="name" v="Flagetjerne" />
		<tag k="natural" v="water" />
		<tag k="ssr:stedsnr" v="554357" />
	</node>
	<node id="-171659" lat="60.7341166649" lon="9.05488055181">
		<tag k="alt_name" v="Halfarbekken" />
		<tag k="name" v="Halvfarbekken" />
		<tag k="ssr:stedsnr" v="189145" />
		<tag k="waterway" v="stream" />
	</node>
	<node id="-172196" lat="60.6664500025" lon="9.10958333311">
		<tag k="alt_name" v="Søre Langtjern;Søndre Langetjern" />
		<tag k="name" v="Søre Langetjern" />
		<tag k="natural" v="water" />
		<tag k="ssr:stedsnr" v="735240" />
	</node>
	<node id="-171990" lat="60.7692944406" lon="9.00146667474">
		<tag k="name" v="Hamartjerne" />
		<tag k="natural" v="water" />
		<tag k="ssr:stedsnr" v="554318" />
	</node>
	<node id="-171988" lat="60.7927526745" lon="9.08596040222">
		<tag k="alt_name" v="Gautetjernet" />
		<tag k="name" v="Gautetjern" />
		<tag k="natural" v="water" />
		<tag k="ssr:stedsnr" v="554276" />
	</node>
	<node id="-171475" lat="60.7986305565" lon="8.96016666373">
		<tag k="name" v="Einarsetbekken" />
		<tag k="ssr:stedsnr" v="59720" />
		<tag k="waterway" v="stream" />
	</node>
	<node id="-171986" lat="60.8271750033" lon="8.835644447">
		<tag k="name" v="Bjørnatjernan" />
		<tag k="natural" v="water" />
		<tag k="ssr:stedsnr" v="554249" />
	</node>
	<node id="-171473" lat="60.772586114" lon="9.12628611042">
		<tag k="name" v="Heimbekken" />
		<tag k="ssr:stedsnr" v="59645" />
		<tag k="waterway" v="stream" />
	</node>
	<node id="-171984" lat="60.8008055598" lon="8.8164000071">
		<tag k="alt_name" v="Geitetjern" />
		<tag k="name" v="Geitetjerni" />
		<tag k="natural" v="water" />
		<tag k="ssr:stedsnr" v="554003" />
	</node>
	<node id="-171983" lat="60.6545861104" lon="9.10111111059">
		<tag k="name" v="Svartetjern" />
		<tag k="natural" v="water" />
		<tag k="ssr:stedsnr" v="553904" />
	</node>
	<node id="-171978" lat="60.6728527771" lon="9.17678889224">
		<tag k="alt_name" v="Nyvolltjern" />
		<tag k="name" v="Nyvolltjerne" />
		<tag k="natural" v="water" />
		<tag k="ssr:stedsnr" v="553243" />
	</node>
	<node id="-171977" lat="60.7302937604" lon="9.20542510511">
		<tag k="alt_name" v="Grøsetvatn" />
		<tag k="name" v="Grøsetvatnet" />
		<tag k="natural" v="water" />
		<tag k="ssr:stedsnr" v="553129" />
		<tag k="water" v="lake" />
	</node>
	<node id="-171463" lat="60.7586055584" lon="8.82543610617">
		<tag k="name" v="Skinnaugøyi" />
		<tag k="place" v="islet" />
		<tag k="ssr:stedsnr" v="43534" />
	</node>
	<node id="-172483" lat="60.7791435334" lon="9.04517101389">
		<tag k="name" v="Kvannebakktjerne" />
		<tag k="natural" v="water" />
		<tag k="ssr:stedsnr" v="976595" />
	</node>
	<node id="-171424" lat="60.6991750028" lon="9.28612499308">
		<tag k="fixme" v="multiple name tags, choose one and add the other to alt_name" />
		<tag k="name" v="Andsjøbekken;Andsjøelve" />
		<tag k="ssr:stedsnr" v="7684" />
		<tag k="waterway" v="stream" />
	</node>
	<node id="-171965" lat="60.6919833364" lon="9.20269443555">
		<tag k="name" v="Mattismotjerne" />
		<tag k="natural" v="water" />
		<tag k="ssr:stedsnr" v="552330" />
	</node>
	<node id="-171963" lat="60.6590972197" lon="9.1088250078">
		<tag k="alt_name" v="Ronetjern" />
		<tag k="name" v="Rundetjern" />
		<tag k="natural" v="water" />
		<tag k="ssr:stedsnr" v="552309" />
	</node>
	<node id="-172474" lat="60.634236114" lon="9.06927777186">
		<tag k="name" v="Krusetjernbekken" />
		<tag k="ssr:stedsnr" v="965461" />
		<tag k="waterway" v="stream" />
	</node>
	<node id="-171220" lat="60.7769500034" lon="9.06020555138">
		<tag k="alt_name" v="Tubbehaugtjern" />
		<tag k="name" v="Tubbehaugtjerne" />
		<tag k="natural" v="water" />
		<tag k="ssr:stedsnr" v="312300" />
	</node>
	<node id="-171957" lat="60.7436972186" lon="8.97890833844">
		<tag k="alt_name" v="Fjerdingsbekken;Fjordings bk" />
		<tag k="name" v="Fjordungsbekken" />
		<tag k="ssr:stedsnr" v="552191" />
		<tag k="waterway" v="stream" />
	</node>
	<node id="-171251" lat="60.725340684" lon="9.00187887923">
		<tag k="name" v="Øvre Røytjern" />
		<tag k="natural" v="water" />
		<tag k="ssr:stedsnr" v="343816" />
	</node>
	<node id="-171952" lat="60.6985472183" lon="8.9512250037">
		<tag k="name" v="Vesleåne" />
		<tag k="ssr:stedsnr" v="545862" />
		<tag k="waterway" v="river" />
	</node>
	<node id="-172055" lat="60.832384724" lon="8.84452927851">
		<tag k="alt_name" v="Lauvsjø" />
		<tag k="name" v="Lauvsjøen" />
		<tag k="natural" v="water" />
		<tag k="ssr:stedsnr" v="615185" />
		<tag k="water" v="lake" />
	</node>
	<node id="-172460" lat="60.6776194447" lon="9.08698056116">
		<tag k="name" v="Øvre Litjern" />
		<tag k="natural" v="water" />
		<tag k="ssr:stedsnr" v="952021" />
	</node>
	<node id="-172458" lat="60.7326222221" lon="9.09218888019">
		<tag k="alt_name" v="Ruketjernane" />
		<tag k="loc_name" v="Ruketjennan" />
		<tag k="name" v="Ruketjernan" />
		<tag k="natural" v="water" />
		<tag k="old_name" v="Ruketjønnann" />
		<tag k="ssr:stedsnr" v="951171" />
		<tag k="water" v="lake" />
	</node>
	<node id="-171433" lat="60.794950004" lon="9.10561388718">
		<tag k="name" v="Raudbekktjerne" />
		<tag k="natural" v="water" />
		<tag k="ssr:stedsnr" v="8311" />
	</node>
	<node id="-171943" lat="60.7049444421" lon="9.22188612021">
		<tag k="name" v="Kroktjern" />
		<tag k="natural" v="water" />
		<tag k="ssr:stedsnr" v="543051" />
	</node>
	<node id="-171430" lat="60.7918166655" lon="9.10416944573">
		<tag k="name" v="Metubba" />
		<tag k="ssr:stedsnr" v="8299" />
		<tag k="waterway" v="stream" />
	</node>
	<node id="-171941" lat="60.6637861089" lon="8.89417500698">
		<tag k="name" v="Jegleimtjern" />
		<tag k="natural" v="water" />
		<tag k="ssr:stedsnr" v="540445" />
	</node>
	<node id="-171936" lat="60.7776333331" lon="8.84894445269">
		<tag k="name" v="Helgetjern" />
		<tag k="natural" v="water" />
		<tag k="ssr:stedsnr" v="528578" />
	</node>
	<node id="-172447" lat="60.7521666652" lon="9.23796666393">
		<tag k="alt_name" v="Nystølstjerni" />
		<tag k="name" v="Nystøltjern" />
		<tag k="natural" v="water" />
		<tag k="ssr:stedsnr" v="920747" />
	</node>
	<node id="-171422" lat="60.7166083304" lon="9.27596666273">
		<tag k="alt_name" v="Raudalsvatnet" />
		<tag k="name" v="Rauddalsvatnet" />
		<tag k="natural" v="water" />
		<tag k="ssr:stedsnr" v="7520" />
	</node>
	<node id="-172445" lat="60.8586583298" lon="8.87317221341">
		<tag k="alt_name" v="Løggestøltjern" />
		<tag k="name" v="Løggestøltjerne" />
		<tag k="natural" v="water" />
		<tag k="ssr:stedsnr" v="920374" />
	</node>
	<node id="-171420" lat="60.7065361106" lon="9.07209166341">
		<tag k="name" v="Meåne" />
		<tag k="ssr:stedsnr" v="7367" />
		<tag k="waterway" v="river" />
	</node>
	<node id="-171931" lat="60.7193333307" lon="8.80413333912">
		<tag k="name" v="Vesle Svarabergtjern" />
		<tag k="natural" v="water" />
		<tag k="ssr:stedsnr" v="527185" />
	</node>
	<node id="-172442" lat="60.8101666654" lon="9.04113333673">
		<tag k="alt_name" v="Trytetjørnan" />
		<tag k="name" v="Trytetjernan" />
		<tag k="natural" v="water" />
		<tag k="ssr:stedsnr" v="919482" />
		<tag k="water" v="lake" />
	</node>
	<node id="-171417" lat="60.7150854831" lon="9.12612720347">
		<tag k="alt_name" v="Fjølangstjern;Fjølangstj" />
		<tag k="name" v="Fjordungstjerne" />
		<tag k="natural" v="water" />
		<tag k="ssr:stedsnr" v="7343" />
	</node>
	<node id="-171416" lat="60.6861499989" lon="9.1156361044">
		<tag k="name" v="Nørdre Dyrtjern" />
		<tag k="natural" v="water" />
		<tag k="ssr:stedsnr" v="7303" />
	</node>
	<node id="-172436" lat="60.7889760455" lon="9.08631952487">
		<tag k="name" v="Metubba" />
		<tag k="natural" v="water" />
		<tag k="ssr:stedsnr" v="919251" />
	</node>
	<node id="-171411" lat="60.7337944462" lon="9.00278611924">
		<tag k="alt_name" v="Avgangtjern" />
		<tag k="name" v="Avgangtjerne" />
		<tag k="natural" v="water" />
		<tag k="ssr:stedsnr" v="7171" />
	</node>
	<node id="-171922" lat="60.732019441" lon="9.1478527689">
		<tag k="name" v="Myklesjøviki" />
		<tag k="natural" v="bay" />
		<tag k="ssr:stedsnr" v="525775" />
	</node>
	<node id="-171919" lat="60.6909166689" lon="8.82369722734">
		<tag k="name" v="Verma" />
		<tag k="ssr:stedsnr" v="525434" />
		<tag k="waterway" v="stream" />
	</node>
	<node id="-171918" lat="60.6886583323" lon="8.81935277359">
		<tag k="name" v="Søredalsbekken" />
		<tag k="ssr:stedsnr" v="525432" />
		<tag k="waterway" v="stream" />
	</node>
	<node id="-172426" lat="60.6492611146" lon="8.84016389">
		<tag k="name" v="Svøbekken" />
		<tag k="ssr:stedsnr" v="917987" />
		<tag k="waterway" v="stream" />
	</node>
	<node id="-171400" lat="60.692091666" lon="9.21330000863">
		<tag k="alt_name" v="Langevatn" />
		<tag k="name" v="Langvatnet" />
		<tag k="natural" v="water" />
		<tag k="ssr:stedsnr" v="6309" />
	</node>
	<node id="-171399" lat="60.7467388933" lon="9.11301111244">
		<tag k="alt_name" v="Grøtjern" />
		<tag k="name" v="Grøtjerne" />
		<tag k="natural" v="water" />
		<tag k="ssr:stedsnr" v="6194" />
	</node>
	<node id="-171398" lat="60.7417722266" lon="8.92438056437">
		<tag k="name" v="Skreddarbekken" />
		<tag k="ssr:stedsnr" v="6185" />
		<tag k="waterway" v="stream" />
	</node>
	<node id="-172416" lat="60.6817222234" lon="9.20748055782">
		<tag k="alt_name" v="Svartevatn" />
		<tag k="name" v="Svartevatnet" />
		<tag k="natural" v="water" />
		<tag k="ssr:stedsnr" v="917277" />
		<tag k="water" v="lake" />
	</node>
	<node id="-171390" lat="60.6922333302" lon="9.27050832538">
		<tag k="name" v="Andsjøen" />
		<tag k="natural" v="water" />
		<tag k="ssr:stedsnr" v="674718" />
	</node>
	<node id="-171389" lat="60.6989849532" lon="9.31791131767">
		<tag k="name" v="Høvren" />
		<tag k="natural" v="water" />
		<tag k="ssr:stedsnr" v="7686" />
		<tag k="water" v="lake" />
	</node>
	<node id="-172275" lat="60.7291027772" lon="9.06350554794">
		<tag k="name" v="Rukeåne" />
		<tag k="ssr:stedsnr" v="796128" />
		<tag k="waterway" v="stream" />
	</node>
	<node id="-171899" lat="60.7619138873" lon="8.8676833321">
		<tag k="name" v="Henrikbekken" />
		<tag k="ssr:stedsnr" v="494271" />
		<tag k="waterway" v="stream" />
	</node>
	<node id="-172410" lat="60.6768194437" lon="9.15501111491">
		<tag k="name" v="Broketjern" />
		<tag k="natural" v="water" />
		<tag k="ssr:stedsnr" v="917211" />
	</node>
	<node id="-171897" lat="60.763144448" lon="8.98471111675">
		<tag k="name" v="Ørkbekken" />
		<tag k="ssr:stedsnr" v="494256" />
		<tag k="waterway" v="stream" />
	</node>
	<node id="-171896" lat="60.758675" lon="8.97943054853">
		<tag k="name" v="Haugabekken" />
		<tag k="ssr:stedsnr" v="494255" />
		<tag k="waterway" v="stream" />
	</node>
	<node id="-171895" lat="60.8094722222" lon="8.82850277531">
		<tag k="alt_name" v="Embretsgardtjern" />
		<tag k="name" v="Embretsgardtjerne" />
		<tag k="natural" v="water" />
		<tag k="ssr:stedsnr" v="494221" />
	</node>
	<node id="-171894" lat="60.8212749957" lon="8.81184999283">
		<tag k="name" v="Kalvetjerne" />
		<tag k="natural" v="water" />
		<tag k="ssr:stedsnr" v="494201" />
	</node>
	<node id="-171893" lat="60.8750166628" lon="8.83933054649">
		<tag k="name" v="Tisleifjorden" />
		<tag k="natural" v="water" />
		<tag k="old_name" v="Tisleifjord;Tesleien" />
		<tag k="ssr:stedsnr" v="494116" />
		<tag k="water" v="lake" />
	</node>
	<node id="-171890" lat="60.819372223" lon="8.87338333319">
		<tag k="name" v="Fåleløken" />
		<tag k="ssr:stedsnr" v="493487" />
		<tag k="waterway" v="stream" />
	</node>
	<node id="-171889" lat="60.8080555518" lon="8.98709723111">
		<tag k="name" v="Bjørnalibekken" />
		<tag k="ssr:stedsnr" v="493469" />
		<tag k="waterway" v="stream" />
	</node>
	<node id="-171887" lat="60.7820499996" lon="9.14284999152">
		<tag k="name" v="Brennbekken" />
		<tag k="ssr:stedsnr" v="493314" />
		<tag k="waterway" v="stream" />
	</node>
	<node id="-171883" lat="60.8587277768" lon="8.83828054789">
		<tag k="alt_name" v="Elgetjern" />
		<tag k="name" v="Elgetjerne" />
		<tag k="natural" v="water" />
		<tag k="ssr:stedsnr" v="493169" />
	</node>
	<node id="-171880" lat="60.6976611149" lon="9.27720000913">
		<tag k="name" v="Vesle Andsjøen" />
		<tag k="natural" v="water" />
		<tag k="ssr:stedsnr" v="492698" />
	</node>
	<node id="-171879" lat="60.7025111141" lon="9.25397500746">
		<tag k="alt_name" v="Fjelltjern" />
		<tag k="name" v="Fjelltjerne" />
		<tag k="natural" v="water" />
		<tag k="ssr:stedsnr" v="492695" />
	</node>
	<node id="-171875" lat="60.7115174385" lon="9.12807270745">
		<tag k="name" v="Revshola" />
		<tag k="natural" v="water" />
		<tag k="old_name" v="Revsholtjern;Revsholtjerni;Revsaltjerne" />
		<tag k="ssr:stedsnr" v="492357" />
	</node>
	<node id="-172386" lat="60.8012944482" lon="8.94785277555">
		<tag k="name" v="Bekrebekken" />
		<tag k="ssr:stedsnr" v="858504" />
		<tag k="waterway" v="stream" />
	</node>
	<node id="-171871" lat="60.6919805554" lon="9.09104722402">
		<tag k="alt_name" v="Sagåne" />
		<tag k="fixme" v="multiple name tags, choose one and add the other to alt_name" />
		<tag k="name" v="Veikulåne;Sagaåne" />
		<tag k="ssr:stedsnr" v="492307" />
		<tag k="waterway" v="river" />
	</node>
	<node id="-172382" lat="60.7569999981" lon="9.03436666549">
		<tag k="name" v="Nedre Revshaltjerne" />
		<tag k="natural" v="water" />
		<tag k="ssr:stedsnr" v="858339" />
	</node>
	<node id="-172090" lat="60.7784250025" lon="8.77957223055">
		<tag k="name" v="Mattisbekken" />
		<tag k="ssr:stedsnr" v="648818" />
		<tag k="waterway" v="stream" />
	</node>
	<node id="-171861" lat="60.6719499985" lon="9.19263332647">
		<tag k="alt_name" v="Hallgrimtjern" />
		<tag k="name" v="Hallgrimtjerne" />
		<tag k="natural" v="water" />
		<tag k="ssr:stedsnr" v="492218" />
	</node>
	<node id="-171859" lat="60.7420307368" lon="9.11103508897">
		<tag k="name" v="Stegaskardtjernan" />
		<tag k="natural" v="water" />
		<tag k="ssr:stedsnr" v="492140" />
		<tag k="water" v="lake" />
	</node>
	<node id="-171858" lat="60.7479388909" lon="8.9645388824">
		<tag k="name" v="Grovtjern" />
		<tag k="natural" v="water" />
		<tag k="ssr:stedsnr" v="492133" />
	</node>
	<node id="-172369" lat="60.8229250029" lon="8.83920000755">
		<tag k="name" v="Hamartjern" />
		<tag k="natural" v="water" />
		<tag k="ssr:stedsnr" v="858227" />
	</node>
	<node id="-171342" lat="60.8242472193" lon="8.79939167492">
		<tag k="alt_name" v="Skinhovdtjernan" />
		<tag k="name" v="Skinhovdtjern" />
		<tag k="natural" v="water" />
		<tag k="ssr:stedsnr" v="413420" />
	</node>
	<node id="-172363" lat="60.705511107" lon="9.23278333791">
		<tag k="name" v="Pipesjøen" />
		<tag k="natural" v="water" />
		<tag k="ssr:stedsnr" v="857571" />
	</node>
	<node id="-171849" lat="60.7728888892" lon="9.11848332922">
		<tag k="name" v="Dunkehybelbekken" />
		<tag k="ssr:stedsnr" v="483671" />
		<tag k="waterway" v="stream" />
	</node>
	<node id="-171847" lat="60.7141888852" lon="8.85325555223">
		<tag k="name" v="Spildredammen" />
		<tag k="natural" v="water" />
		<tag k="ssr:stedsnr" v="482194" />
	</node>
	<node id="-171333" lat="60.6893249982" lon="9.01748611907">
		<tag k="name" v="Storøyne" />
		<tag k="place" v="islet" />
		<tag k="ssr:stedsnr" v="406016" />
	</node>
	<node id="-172355" lat="60.7165583347" lon="8.91368332796">
		<tag k="name" v="Spildra" />
		<tag k="ssr:stedsnr" v="857152" />
		<tag k="waterway" v="river" />
	</node>
	<node id="-171329" lat="60.7243083354" lon="8.80490833069">
		<tag k="name" v="Habbesettjern" />
		<tag k="natural" v="water" />
		<tag k="ssr:stedsnr" v="405164" />
	</node>
	<node id="-171323" lat="60.723733334" lon="9.00269444037">
		<tag k="name" v="Nedre Røytjern" />
		<tag k="natural" v="water" />
		<tag k="ssr:stedsnr" v="404775" />
	</node>
	<node id="-171833" lat="60.6974194454" lon="9.08232777625">
		<tag k="name" v="Veatjern" />
		<tag k="natural" v="water" />
		<tag k="ssr:stedsnr" v="466168" />
	</node>
	<node id="-171318" lat="60.655722223" lon="8.87151944692">
		<tag k="name" v="Langetjern" />
		<tag k="natural" v="water" />
		<tag k="ssr:stedsnr" v="237461" />
	</node>
	<node id="-171317" lat="60.7570027788" lon="8.94757776934">
		<tag k="alt_name" v="Store Langtjernet" />
		<tag k="name" v="Store Langetjern" />
		<tag k="natural" v="water" />
		<tag k="ssr:stedsnr" v="433291" />
	</node>
	<node id="-171828" lat="60.6914222267" lon="8.8114083342">
		<tag k="name" v="Nørdredalsbekken" />
		<tag k="ssr:stedsnr" v="464422" />
		<tag k="waterway" v="stream" />
	</node>
	<node id="-171313" lat="60.7514666708" lon="8.77104165787">
		<tag k="alt_name" v="Omundbekken" />
		<tag k="name" v="Ommundbekken" />
		<tag k="ssr:stedsnr" v="373044" />
		<tag k="waterway" v="stream" />
	</node>
	<node id="-171824" lat="60.832977779" lon="8.98569166981">
		<tag k="name" v="Gurisetbekken" />
		<tag k="ssr:stedsnr" v="434422" />
		<tag k="waterway" v="stream" />
	</node>
	<node id="-172335" lat="60.7376638886" lon="8.94175832956">
		<tag k="alt_name" v="Surtebytjern" />
		<tag k="name" v="Surtebytjerne" />
		<tag k="natural" v="water" />
		<tag k="ssr:stedsnr" v="856159" />
	</node>
	<node id="-171822" lat="60.830041671" lon="9.00367778534">
		<tag k="alt_name" v="Lille Ørteren" />
		<tag k="name" v="Vesle Ørteren" />
		<tag k="natural" v="water" />
		<tag k="ssr:stedsnr" v="434396" />
	</node>
	<node id="-171309" lat="60.7521888856" lon="9.05931111332">
		<tag k="name" v="Øvre Revshaltjerne" />
		<tag k="natural" v="water" />
		<tag k="ssr:stedsnr" v="372359" />
	</node>
	<node id="-171308" lat="60.7699083366" lon="8.90542500868">
		<tag k="alt_name" v="Vesle Jørsna" />
		<tag k="name" v="Vesle Jørsnen" />
		<tag k="natural" v="water" />
		<tag k="old_name" v="l Jørsna" />
		<tag k="ssr:stedsnr" v="372334" />
	</node>
	<node id="-171304" lat="60.7650861083" lon="8.99798055581">
		<tag k="alt_name" v="Teinehøl" />
		<tag k="name" v="Teinehølen" />
		<tag k="place" v="locality" />
		<tag k="ssr:stedsnr" v="372312" />
	</node>
	<node id="-171815" lat="60.7805053393" lon="8.9020645792">
		<tag k="name" v="Tunnetjern" />
		<tag k="natural" v="water" />
		<tag k="ssr:stedsnr" v="433245" />
	</node>
	<node id="-171813" lat="60.782063892" lon="8.87147500311">
		<tag k="name" v="Hattebekken" />
		<tag k="ssr:stedsnr" v="433242" />
		<tag k="waterway" v="stream" />
	</node>
	<node id="-171810" lat="60.8296147778" lon="8.81674246005">
		<tag k="alt_name" v="Prestetjern" />
		<tag k="name" v="Prestetjerne" />
		<tag k="natural" v="water" />
		<tag k="ssr:stedsnr" v="433220" />
	</node>
	<node id="-171809" lat="60.7877305555" lon="8.83337499608">
		<tag k="alt_name" v="Svartetjern" />
		<tag k="name" v="Svartetjerne" />
		<tag k="natural" v="water" />
		<tag k="ssr:stedsnr" v="433027" />
	</node>
	<node id="-171808" lat="60.6964527777" lon="9.24630278329">
		<tag k="name" v="Pipesjøbekken" />
		<tag k="ssr:stedsnr" v="432693" />
		<tag k="waterway" v="stream" />
	</node>
	<node id="-172319" lat="60.7784000028" lon="8.75441666574">
		<tag k="name" v="Klevaøyne" />
		<tag k="place" v="islet" />
		<tag k="ssr:stedsnr" v="831791" />
	</node>
	<node id="-171805" lat="60.6812888908" lon="9.10990833679">
		<tag k="name" v="Runda" />
		<tag k="natural" v="water" />
		<tag k="ssr:stedsnr" v="432278" />
	</node>
	<node id="-171291" lat="60.7308222211" lon="9.17149722627">
		<tag k="name" v="Tyritjern" />
		<tag k="natural" v="water" />
		<tag k="ssr:stedsnr" v="371158" />
	</node>
	<node id="-171802" lat="60.7237226533" lon="8.8486813457">
		<tag k="alt_name" v="Mjørsettjern" />
		<tag k="name" v="Mjørsettjerne" />
		<tag k="natural" v="water" />
		<tag k="ssr:stedsnr" v="432147" />
	</node>
	<node id="-171801" lat="60.736691663" lon="8.93961388299">
		<tag k="name" v="Kollbekken" />
		<tag k="ssr:stedsnr" v="432134" />
		<tag k="waterway" v="stream" />
	</node>
	<node id="-171288" lat="60.7254999991" lon="9.00152221923">
		<tag k="name" v="Røytjern" />
		<tag k="natural" v="water" />
		<tag k="ssr:stedsnr" v="371151" />
		<tag k="water" v="lake" />
	</node>
	<node id="-172249" lat="60.6519416662" lon="9.0837277802">
		<tag k="name" v="Latebekken" />
		<tag k="ssr:stedsnr" v="783454" />
		<tag k="waterway" v="stream" />
	</node>
	<node id="-171796" lat="60.7175833376" lon="8.79581945104">
		<tag k="alt_name" v="Nystøltjern" />
		<tag k="name" v="Nystøltjerne" />
		<tag k="natural" v="water" />
		<tag k="ssr:stedsnr" v="431846" />
	</node>
	<node id="-171310" lat="60.7502861075" lon="9.09196388799">
		<tag k="name" v="Grøtjernbekken" />
		<tag k="ssr:stedsnr" v="372360" />
		<tag k="waterway" v="stream" />
	</node>
	<node id="-172306" lat="60.8338277754" lon="8.84946944468">
		<tag k="name" v="Vesletjern" />
		<tag k="natural" v="water" />
		<tag k="ssr:stedsnr" v="798405" />
	</node>
	<node id="-171281" lat="60.7174888917" lon="9.18566666286">
		<tag k="name" v="Leinebekken" />
		<tag k="ssr:stedsnr" v="370417" />
		<tag k="waterway" v="stream" />
	</node>
	<node id="-171788" lat="60.667366669" lon="9.09617222689">
		<tag k="alt_name" v="Påltjern" />
		<tag k="name" v="Påltjerne" />
		<tag k="natural" v="water" />
		<tag k="ssr:stedsnr" v="431287" />
	</node>
	<node id="-171275" lat="60.7420333377" lon="8.96511666902">
		<tag k="alt_name" v="Beitehaugtjern" />
		<tag k="name" v="Beitehaugtjerne" />
		<tag k="natural" v="water" />
		<tag k="ssr:stedsnr" v="370208" />
	</node>
	<node id="-171274" lat="60.7514388897" lon="8.99513889191">
		<tag k="name" v="Fesøymbekken" />
		<tag k="ssr:stedsnr" v="362966" />
		<tag k="waterway" v="stream" />
	</node>
	<node id="-172297" lat="60.7681416701" lon="8.92156666173">
		<tag k="alt_name" v="Store Jørsna" />
		<tag k="name" v="Store Jørsnen" />
		<tag k="natural" v="water" />
		<tag k="ssr:stedsnr" v="797293" />
	</node>
	<node id="-171784" lat="60.7024388916" lon="8.81866943604">
		<tag k="name" v="Helgesetbekken" />
		<tag k="ssr:stedsnr" v="422205" />
		<tag k="waterway" v="stream" />
	</node>
	<node id="-171781" lat="60.6593861106" lon="8.88125556081">
		<tag k="name" v="Øyetjern" />
		<tag k="natural" v="water" />
		<tag k="ssr:stedsnr" v="419440" />
	</node>
	<node id="-172292" lat="60.7931231831" lon="9.03122754697">
		<tag k="alt_name" v="Lislalitjern" />
		<tag k="name" v="Lislalitjerne" />
		<tag k="natural" v="water" />
		<tag k="ssr:stedsnr" v="797245" />
	</node>
	<node id="-171478" lat="60.7400222255" lon="9.16523610443">
		<tag k="name" v="Endefjellbekken" />
		<tag k="ssr:stedsnr" v="67189" />
		<tag k="waterway" v="stream" />
	</node>
	<node id="-171248" lat="60.6823805589" lon="8.85420555379">
		<tag k="name" v="Rotneimsøyne" />
		<tag k="place" v="islet" />
		<tag k="ssr:stedsnr" v="343388" />
	</node>
	<node id="-172289" lat="60.7194583358" lon="9.17537776883">
		<tag k="alt_name" v="Holtevatn" />
		<tag k="name" v="Holtevatnet" />
		<tag k="natural" v="water" />
		<tag k="ssr:stedsnr" v="796360" />
		<tag k="water" v="lake" />
	</node>
	<node id="-172288" lat="60.7073888901" lon="8.85814167073">
		<tag k="alt_name" v="Langtjern" />
		<tag k="name" v="Langetjern" />
		<tag k="natural" v="water" />
		<tag k="ssr:stedsnr" v="796357" />
	</node>
	<node id="-171262" lat="60.7416333293" lon="8.9485194465">
		<tag k="name" v="Rundetjern" />
		<tag k="natural" v="water" />
		<tag k="ssr:stedsnr" v="349984" />
	</node>
	<node id="-171773" lat="60.8138861138" lon="9.07788056169">
		<tag k="name" v="Bakkhusbekken" />
		<tag k="ssr:stedsnr" v="251508" />
		<tag k="waterway" v="stream" />
	</node>
	<node id="-171770" lat="60.839663918" lon="8.86073157774">
		<tag k="alt_name" v="Nystøltjern;Eikretjerne" />
		<tag k="name" v="Nystøltjernet" />
		<tag k="natural" v="water" />
		<tag k="ssr:stedsnr" v="251482" />
	</node>
	<node id="-171769" lat="60.8233444467" lon="9.01669444396">
		<tag k="name" v="Store Ørteren" />
		<tag k="natural" v="water" />
		<tag k="ssr:stedsnr" v="251466" />
		<tag k="water" v="lake" />
	</node>
	<node id="-171768" lat="60.7568972259" lon="8.9919444477">
		<tag k="alt_name" v="Brautemotjern" />
		<tag k="name" v="Brautemotjerne" />
		<tag k="natural" v="water" />
		<tag k="ssr:stedsnr" v="251371" />
	</node>
	<node id="-171767" lat="60.7610999966" lon="8.93380555206">
		<tag k="alt_name" v="Vesle Langtjernet" />
		<tag k="name" v="Vesle Langetjern" />
		<tag k="natural" v="water" />
		<tag k="ssr:stedsnr" v="251328" />
	</node>
	<node id="-172083" lat="60.6963277807" lon="9.1726333364">
		<tag k="name" v="Nonstjern" />
		<tag k="natural" v="water" />
		<tag k="ssr:stedsnr" v="648028" />
	</node>
	<node id="-171765" lat="60.7633861107" lon="9.17848056094">
		<tag k="alt_name" v="Dugurdstjern" />
		<tag k="name" v="Dugurdstjerne" />
		<tag k="natural" v="water" />
		<tag k="ssr:stedsnr" v="251321" />
	</node>
	<node id="-171763" lat="60.7926388865" lon="8.98335833048">
		<tag k="name" v="Brastadbekken" />
		<tag k="ssr:stedsnr" v="251298" />
		<tag k="waterway" v="stream" />
	</node>
	<node id="-171760" lat="60.7866805524" lon="9.03798055168">
		<tag k="name" v="Tubbeåne" />
		<tag k="ssr:stedsnr" v="251282" />
		<tag k="waterway" v="stream" />
	</node>
	<node id="-171759" lat="60.8241638912" lon="8.79227500427">
		<tag k="name" v="Brenneløkbekken" />
		<tag k="ssr:stedsnr" v="251254" />
		<tag k="waterway" v="stream" />
	</node>
	<node id="-171303" lat="60.7636861144" lon="9.07935555921">
		<tag k="alt_name" v="Jakopstjern" />
		<tag k="name" v="Jakopstjerne" />
		<tag k="natural" v="water" />
		<tag k="ssr:stedsnr" v="372306" />
	</node>
	<node id="-171752" lat="60.7114777781" lon="8.84767777727">
		<tag k="alt_name" v="Heitjern" />
		<tag k="name" v="Heitjerne" />
		<tag k="natural" v="water" />
		<tag k="ssr:stedsnr" v="250357" />
	</node>
	<node id="-172260" lat="60.6910722242" lon="9.1879138817">
		<tag k="name" v="Kroktjern" />
		<tag k="natural" v="water" />
		<tag k="old_name" v="Kroktjønna" />
		<tag k="ssr:stedsnr" v="795328" />
	</node>
	<node id="-172257" lat="60.6615999977" lon="9.09893610497">
		<tag k="name" v="Emundtjerne" />
		<tag k="natural" v="water" />
		<tag k="ssr:stedsnr" v="795301" />
	</node>
	<node id="-171230" lat="60.7619999957" lon="9.22594445227">
		<tag k="alt_name" v="Hestetjernet" />
		<tag k="name" v="Hestetjern" />
		<tag k="natural" v="water" />
		<tag k="ssr:stedsnr" v="313825" />
	</node>
	<node id="-171228" lat="60.852633334" lon="8.86288888145">
		<tag k="alt_name" v="Blekketjern" />
		<tag k="name" v="Blekketjerne" />
		<tag k="natural" v="water" />
		<tag k="ssr:stedsnr" v="313405" />
	</node>
	<node id="-172154" lat="60.8105083342" lon="9.12680278441">
		<tag k="name" v="Elgshornbekken" />
		<tag k="ssr:stedsnr" v="676469" />
		<tag k="waterway" v="stream" />
	</node>
	<node id="-171226" lat="60.8161166703" lon="8.98540277226">
		<tag k="name" v="Ørterstølbekken" />
		<tag k="ssr:stedsnr" v="312482" />
		<tag k="waterway" v="stream" />
	</node>
	<node id="-171471" lat="60.6860166697" lon="9.20643055544">
		<tag k="alt_name" v="Bergatjerne" />
		<tag k="name" v="Bergatjern" />
		<tag k="natural" v="water" />
		<tag k="ssr:stedsnr" v="57037" />
	</node>
	<node id="-172247" lat="60.6388694416" lon="8.85423888025">
		<tag k="name" v="Smylihølet" />
		<tag k="natural" v="water" />
		<tag k="ssr:stedsnr" v="783443" />
		<tag k="water" v="pond" />
	</node>
	<node id="-171222" lat="60.7642277759" lon="8.90550000677">
		<tag k="name" v="Storebråtbekken" />
		<tag k="ssr:stedsnr" v="312333" />
		<tag k="waterway" v="stream" />
	</node>
	<node id="-172409" lat="60.6713749972" lon="9.13326111266">
		<tag k="name" v="Galdebekken" />
		<tag k="ssr:stedsnr" v="917212" />
		<tag k="waterway" v="stream" />
	</node>
	<node id="-171732" lat="60.7391277796" lon="9.17663889604">
		<tag k="alt_name" v="Endefjellvatn" />
		<tag k="name" v="Endefjellvatnet" />
		<tag k="natural" v="water" />
		<tag k="ssr:stedsnr" v="249158" />
	</node>
	<node id="-171219" lat="60.7673694465" lon="9.07615278196">
		<tag k="name" v="Steintjerne" />
		<tag k="natural" v="water" />
		<tag k="ssr:stedsnr" v="312293" />
	</node>
	<node id="-171218" lat="60.7717222246" lon="8.93694166727">
		<tag k="alt_name" v="Kroktjern" />
		<tag k="name" v="Kroktjerne" />
		<tag k="natural" v="water" />
		<tag k="ssr:stedsnr" v="312292" />
	</node>
	<node id="-171217" lat="60.7620055597" lon="9.22484999296">
		<tag k="alt_name" v="Hestatjernan;Hestetjønnan" />
		<tag k="name" v="Hestetjernan" />
		<tag k="natural" v="water" />
		<tag k="ssr:stedsnr" v="312282" />
		<tag k="water" v="lake" />
	</node>
	<node id="-171216" lat="60.7651333346" lon="9.19286111091">
		<tag k="alt_name" v="Langetjern" />
		<tag k="name" v="Langetjerne" />
		<tag k="natural" v="water" />
		<tag k="ssr:stedsnr" v="312281" />
	</node>
	<node id="-172184" lat="60.694949997" lon="8.9552777759">
		<tag k="name" v="Huseplassbekken" />
		<tag k="ssr:stedsnr" v="725212" />
		<tag k="waterway" v="stream" />
	</node>
	<node id="-171214" lat="60.7594805571" lon="9.0113222296">
		<tag k="alt_name" v="Øvre Fesheimtjern" />
		<tag k="name" v="Øvre Fesheimtjerne" />
		<tag k="natural" v="water" />
		<tag k="ssr:stedsnr" v="312272" />
	</node>
	<node id="-172136" lat="60.6738166636" lon="9.08901944093">
		<tag k="alt_name" v="Letjern" />
		<tag k="name" v="Letjerne" />
		<tag k="natural" v="water" />
		<tag k="ssr:stedsnr" v="675290" />
	</node>
	<node id="-172230" lat="60.7299555572" lon="9.11984723031">
		<tag k="name" v="Nordsjøen" />
		<tag k="natural" v="bay" />
		<tag k="ssr:stedsnr" v="768824" />
	</node>
	<node id="-171716" lat="60.7587277777" lon="9.01658611616">
		<tag k="alt_name" v="Revsalbekken" />
		<tag k="name" v="Revshalbekken" />
		<tag k="ssr:stedsnr" v="234289" />
		<tag k="waterway" v="stream" />
	</node>
	<node id="-172406" lat="60.7322277766" lon="9.13635832899">
		<tag k="name" v="Myklesjøen" />
		<tag k="natural" v="water" />
		<tag k="ssr:stedsnr" v="917116" />
		<tag k="water" v="lake" />
	</node>
	<node id="-172226" lat="60.6861277805" lon="8.83564166845">
		<tag k="name" v="Sprenenbekken" />
		<tag k="ssr:stedsnr" v="768405" />
		<tag k="waterway" v="stream" />
	</node>
	<node id="-172371" lat="60.8029833353" lon="8.81831944507">
		<tag k="name" v="Logga" />
		<tag k="ssr:stedsnr" v="858243" />
		<tag k="waterway" v="stream" />
	</node>
	<node id="-171191" lat="60.6830462922" lon="9.19613509714">
		<tag k="alt_name" v="Strindtjern" />
		<tag k="name" v="Laksa" />
		<tag k="natural" v="water" />
		<tag k="ssr:stedsnr" v="310307" />
	</node>
	<node id="-172208" lat="60.7416499961" lon="9.2762749976">
		<tag k="alt_name" v="Store Grevsjø" />
		<tag k="name" v="Store Grevsjøen" />
		<tag k="natural" v="water" />
		<tag k="ssr:stedsnr" v="735497" />
	</node>
	<node id="-171692" lat="60.8205027813" lon="9.03848056193">
		<tag k="name" v="Ørterbekken" />
		<tag k="ssr:stedsnr" v="191405" />
		<tag k="waterway" v="stream" />
	</node>
	<node id="-171691" lat="60.8546666703" lon="8.87651945301">
		<tag k="name" v="Blekketjernbekken" />
		<tag k="ssr:stedsnr" v="191371" />
		<tag k="waterway" v="stream" />
	</node>
	<node id="-172202" lat="60.7005969544" lon="9.20835622707">
		<tag k="name" v="Gustavvatnet" />
		<tag k="natural" v="water" />
		<tag k="ssr:stedsnr" v="735334" />
		<tag k="water" v="lake" />
	</node>
	<node id="-171688" lat="60.7538972241" lon="9.00526389249">
		<tag k="alt_name" v="Nedre Fesøymtjern" />
		<tag k="name" v="Nedre Fesheimtjerne" />
		<tag k="natural" v="water" />
		<tag k="ssr:stedsnr" v="191300" />
	</node>
	<node id="-171175" lat="60.7434138906" lon="8.77346111646">
		<tag k="name" v="Snuforbekken" />
		<tag k="ssr:stedsnr" v="309793" />
		<tag k="waterway" v="stream" />
	</node>
	<node id="-172198" lat="60.6616388902" lon="9.15292500455">
		<tag k="alt_name" v="Dyretj;Møntjern" />
		<tag k="name" v="Dyretjern" />
		<tag k="natural" v="water" />
		<tag k="ssr:stedsnr" v="735255" />
	</node>
	<node id="-172401" lat="60.7364696682" lon="8.74751612955">
		<tag k="fixme" v="multiple name tags, choose one and add the other to alt_name" />
		<tag k="name" v="Kroktjern;Gravastøltjern" />
		<tag k="natural" v="water" />
		<tag k="ssr:stedsnr" v="916838" />
	</node>
	<node id="-171684" lat="60.8058249988" lon="9.05714999253">
		<tag k="name" v="Vesle Lyseren" />
		<tag k="natural" v="water" />
		<tag k="ssr:stedsnr" v="190488" />
	</node>
	<node id="-172195" lat="60.7481305592" lon="9.19888610521">
		<tag k="alt_name" v="Hestetjern" />
		<tag k="name" v="Hestetjerne" />
		<tag k="natural" v="water" />
		<tag k="ssr:stedsnr" v="735160" />
	</node>
	<node id="-171166" lat="60.6591833314" lon="8.8755666689">
		<tag k="name" v="Brennstalltjern" />
		<tag k="natural" v="water" />
		<tag k="ssr:stedsnr" v="298424" />
	</node>
	<node id="-171677" lat="60.79375" lon="8.94386111918">
		<tag k="name" v="Nedrebekken" />
		<tag k="ssr:stedsnr" v="190280" />
		<tag k="waterway" v="stream" />
	</node>
	<node id="-172188" lat="60.7147277783" lon="8.77817221975">
		<tag k="name" v="Drambbottjern" />
		<tag k="natural" v="water" />
		<tag k="ssr:stedsnr" v="734827" />
	</node>
	<node id="-171160" lat="60.7722999997" lon="8.96967221359">
		<tag k="name" v="Gørtjønnan" />
		<tag k="natural" v="water" />
		<tag k="ssr:stedsnr" v="285553" />
		<tag k="water" v="lake" />
	</node>
	<node id="-171667" lat="60.7139805518" lon="9.11161388251">
		<tag k="name" v="Rukebekken" />
		<tag k="ssr:stedsnr" v="189325" />
		<tag k="waterway" v="stream" />
	</node>
	<node id="-171154" lat="60.6953500037" lon="8.98296666541">
		<tag k="name" v="Nøreimsbekken" />
		<tag k="ssr:stedsnr" v="284011" />
		<tag k="waterway" v="stream" />
	</node>
	<node id="-171971" lat="60.7054138903" lon="8.79256110909">
		<tag k="alt_name" v="Guråtjern" />
		<tag k="name" v="Gurotjerne" />
		<tag k="natural" v="water" />
		<tag k="ssr:stedsnr" v="552899" />
	</node>
	<node id="-172312" lat="60.8108111074" lon="8.85095832512">
		<tag k="name" v="Flisegrøtbekken" />
		<tag k="ssr:stedsnr" v="827340" />
		<tag k="waterway" v="stream" />
	</node>
	<node id="-171150" lat="60.7171666649" lon="8.98442222197">
		<tag k="name" v="Sollibekken" />
		<tag k="ssr:stedsnr" v="282784" />
		<tag k="waterway" v="stream" />
	</node>
	<node id="-171661" lat="60.6701583338" lon="9.11120834095">
		<tag k="alt_name" v="Nordre Langtjern" />
		<tag k="name" v="Nordre Langetjern" />
		<tag k="natural" v="water" />
		<tag k="ssr:stedsnr" v="189224" />
	</node>
	<node id="-171148" lat="60.7172361121" lon="9.03461945135">
		<tag k="name" v="Toretjern" />
		<tag k="natural" v="water" />
		<tag k="ssr:stedsnr" v="282770" />
	</node>
	<node id="-171203" lat="60.7686916647" lon="8.82068055181">
		<tag k="name" v="Gjuva" />
		<tag k="ssr:stedsnr" v="311027" />
		<tag k="waterway" v="stream" />
	</node>
	<node id="-171658" lat="60.7376916634" lon="8.94971667081">
		<tag k="name" v="Svartetjern" />
		<tag k="natural" v="water" />
		<tag k="ssr:stedsnr" v="189142" />
	</node>
	<node id="-172285" lat="60.7243972203" lon="9.04538611499">
		<tag k="name" v="Sandbekken" />
		<tag k="ssr:stedsnr" v="796346" />
		<tag k="waterway" v="stream" />
	</node>
	<node id="-171143" lat="60.8086194471" lon="9.02177777542">
		<tag k="name" v="Fåliløken" />
		<tag k="ssr:stedsnr" v="281389" />
		<tag k="waterway" v="stream" />
	</node>
	<node id="-171653" lat="60.7606500021" lon="8.81555277279">
		<tag k="name" v="Hemsil" />
		<tag k="ssr:stedsnr" v="189112" />
		<tag k="waterway" v="river" />
	</node>
	<node id="-171652" lat="60.6788805576" lon="8.80115554895">
		<tag k="alt_name" v="Finneselvi" />
		<tag k="name" v="Verma" />
		<tag k="ssr:stedsnr" v="188926" />
		<tag k="waterway" v="river" />
	</node>
	<node id="-172161" lat="60.6665805522" lon="9.07953889568">
		<tag k="name" v="Brennhaugtjern" />
		<tag k="natural" v="water" />
		<tag k="ssr:stedsnr" v="707412" />
	</node>
	<node id="-171431" lat="60.7863222258" lon="8.87588055225">
		<tag k="name" v="Fiskedammen" />
		<tag k="natural" v="water" />
		<tag k="ssr:stedsnr" v="8302" />
	</node>
	<node id="-172153" lat="60.8510361142" lon="8.88212778005">
		<tag k="name" v="Storebekken" />
		<tag k="ssr:stedsnr" v="676467" />
		<tag k="waterway" v="stream" />
	</node>
	<node id="-172152" lat="60.8379750029" lon="8.92325277934">
		<tag k="alt_name" v="Flataskardtjernet" />
		<tag k="name" v="Flataskortjern" />
		<tag k="natural" v="water" />
		<tag k="ssr:stedsnr" v="676465" />
	</node>
	<node id="-171634" lat="60.7522111077" lon="9.01829166397">
		<tag k="alt_name" v="Mosahaugtjønnan" />
		<tag k="name" v="Mosahaugtjernan" />
		<tag k="natural" v="water" />
		<tag k="old_name" v="Mosahaugtj" />
		<tag k="ssr:stedsnr" v="174859" />
		<tag k="water" v="lake" />
	</node>
	<node id="-172145" lat="60.8051499985" lon="8.80147500819">
		<tag k="alt_name" v="Sørbøltjern" />
		<tag k="name" v="Sørbøltjerne" />
		<tag k="natural" v="water" />
		<tag k="ssr:stedsnr" v="676239" />
	</node>
	<node id="-171505" lat="60.7749444434" lon="9.12899443934">
		<tag k="name" v="Svilestølbekken" />
		<tag k="ssr:stedsnr" v="69314" />
		<tag k="waterway" v="stream" />
	</node>
	<node id="-172142" lat="60.7649750009" lon="8.97729444023">
		<tag k="alt_name" v="Ørkvatn" />
		<tag k="name" v="Ørkvatnet" />
		<tag k="natural" v="water" />
		<tag k="ssr:stedsnr" v="676286" />
	</node>
	<node id="-172139" lat="60.6818416687" lon="9.11589721801">
		<tag k="name" v="Søre Dyrtjern" />
		<tag k="natural" v="water" />
		<tag k="ssr:stedsnr" v="675329" />
	</node>
	<node id="-172334" lat="60.7627194473" lon="9.12608054977">
		<tag k="name" v="Fjellbekken" />
		<tag k="ssr:stedsnr" v="848662" />
		<tag k="waterway" v="stream" />
	</node>
	<node id="-172135" lat="60.6717722254" lon="9.06901111914">
		<tag k="name" v="Svartetjern" />
		<tag k="natural" v="water" />
		<tag k="ssr:stedsnr" v="675291" />
	</node>
	<node id="-172134" lat="60.8022666688" lon="8.79815000807">
		<tag k="name" v="Mattislibekken" />
		<tag k="ssr:stedsnr" v="675029" />
		<tag k="waterway" v="stream" />
	</node>
	<node id="-172132" lat="60.6792583331" lon="8.82658055776">
		<tag k="name" v="Vermefoss" />
		<tag k="natural" v="waterfall" />
		<tag k="ssr:stedsnr" v="674908" />
	</node>
	<node id="-172130" lat="60.7268499958" lon="9.30826389297">
		<tag k="name" v="Dansartjerne" />
		<tag k="natural" v="water" />
		<tag k="ssr:stedsnr" v="674553" />
	</node>
	<node id="-172127" lat="60.722416665" lon="9.03526666434">
		<tag k="alt_name" v="Brennebekken" />
		<tag k="name" v="Brennbekken" />
		<tag k="ssr:stedsnr" v="674362" />
		<tag k="waterway" v="stream" />
	</node>
	<node id="-172126" lat="60.7073944438" lon="9.19964166922">
		<tag k="name" v="Leinetjern" />
		<tag k="natural" v="water" />
		<tag k="ssr:stedsnr" v="674358" />
	</node>
	<node id="-172124" lat="60.7141916708" lon="9.15922222225">
		<tag k="name" v="Holteåne" />
		<tag k="ssr:stedsnr" v="674344" />
		<tag k="waterway" v="river" />
	</node>
	<node id="-172122" lat="60.7067305555" lon="8.84982499433">
		<tag k="name" v="Damtjern" />
		<tag k="natural" v="water" />
		<tag k="ssr:stedsnr" v="674340" />
	</node>
	<node id="-172121" lat="60.7173916658" lon="8.98968054656">
		<tag k="name" v="Rusteåne" />
		<tag k="ssr:stedsnr" v="674331" />
		<tag k="waterway" v="river" />
	</node>
	<node id="-172116" lat="60.6972750007" lon="9.16157499387">
		<tag k="alt_name" v="Kroketjernbekken" />
		<tag k="name" v="Kroktjernbekken" />
		<tag k="ssr:stedsnr" v="674279" />
		<tag k="waterway" v="stream" />
	</node>
	<node id="-172265" lat="60.6855583299" lon="8.96036111162">
		<tag k="fixme" v="multiple name tags, choose one and add the other to alt_name" />
		<tag k="name" v="Husenplassbekken;Kvernabekken" />
		<tag k="ssr:stedsnr" v="795383" />
		<tag k="waterway" v="stream" />
	</node>
	<node id="-171598" lat="60.818827776" lon="8.8112333285">
		<tag k="name" v="Liabekken" />
		<tag k="ssr:stedsnr" v="130217" />
		<tag k="waterway" v="stream" />
	</node>
	<node id="-171597" lat="60.8089527782" lon="8.93376110483">
		<tag k="name" v="Einarsetbekken" />
		<tag k="ssr:stedsnr" v="129490" />
		<tag k="waterway" v="stream" />
	</node>
	<node id="-171596" lat="60.8145361119" lon="9.07009165822">
		<tag k="name" v="Lyserbekken" />
		<tag k="ssr:stedsnr" v="129485" />
		<tag k="waterway" v="stream" />
	</node>
	<node id="-171595" lat="60.8041055573" lon="9.04353054914">
		<tag k="name" v="Lyseren" />
		<tag k="natural" v="water" />
		<tag k="ssr:stedsnr" v="129477" />
	</node>
	<node id="-172105" lat="60.7219055515" lon="8.79705556334">
		<tag k="alt_name" v="Svarabergtjern" />
		<tag k="name" v="Svarabergtjerne" />
		<tag k="natural" v="water" />
		<tag k="ssr:stedsnr" v="673849" />
	</node>
	<node id="-171592" lat="60.7856697894" lon="9.0633808525">
		<tag k="alt_name" v="Tubbetjern" />
		<tag k="name" v="Tubbetjerne" />
		<tag k="natural" v="water" />
		<tag k="ssr:stedsnr" v="129277" />
	</node>
	<node id="-171590" lat="60.6865861073" lon="9.17800000122">
		<tag k="alt_name" v="Trytetjern" />
		<tag k="name" v="Trytetjerne" />
		<tag k="natural" v="water" />
		<tag k="ssr:stedsnr" v="128888" />
	</node>
	<node id="-171589" lat="60.7004750008" lon="9.22908333503">
		<tag k="alt_name" v="Holmetjern" />
		<tag k="name" v="Holmetjerne" />
		<tag k="natural" v="water" />
		<tag k="ssr:stedsnr" v="128686" />
	</node>
	<node id="-171586" lat="60.7154083329" lon="9.14641945352">
		<tag k="name" v="Holtebekken" />
		<tag k="ssr:stedsnr" v="128329" />
		<tag k="waterway" v="stream" />
	</node>
	<node id="-171584" lat="60.7105666692" lon="9.07453611932">
		<tag k="name" v="Styggedalsbekken" />
		<tag k="ssr:stedsnr" v="128316" />
		<tag k="waterway" v="stream" />
	</node>
	<node id="-171581" lat="60.6828746323" lon="9.20215341853">
		<tag k="alt_name" v="Laksa" />
		<tag k="name" v="Strinda" />
		<tag k="natural" v="water" />
		<tag k="ssr:stedsnr" v="128281" />
	</node>
	<node id="-171580" lat="60.6901027806" lon="9.22775277985">
		<tag k="fixme" v="multiple name tags, choose one and add the other to alt_name" />
		<tag k="name" v="Djupevatnet;Røggjen" />
		<tag k="natural" v="water" />
		<tag k="ssr:stedsnr" v="128278" />
		<tag k="water" v="lake" />
	</node>
	<node id="-172298" lat="60.7732305518" lon="9.06500556033">
		<tag k="alt_name" v="Daletjern" />
		<tag k="name" v="Daletjerne" />
		<tag k="natural" v="water" />
		<tag k="ssr:stedsnr" v="797296" />
	</node>
	<node id="-171578" lat="60.6849694433" lon="8.92632777284">
		<tag k="fixme" v="multiple name tags, choose one and add the other to alt_name" />
		<tag k="name" v="Mobekken;Veltebekken" />
		<tag k="ssr:stedsnr" v="128266" />
		<tag k="waterway" v="stream" />
	</node>
	<node id="-171577" lat="60.6909333351" lon="9.10089722385">
		<tag k="alt_name" v="Veikultjerni" />
		<tag k="name" v="Veikultjern" />
		<tag k="natural" v="water" />
		<tag k="old_name" v="Veikultjønna" />
		<tag k="ssr:stedsnr" v="128258" />
	</node>
	<node id="-171575" lat="60.6658805559" lon="8.90979444369">
		<tag k="name" v="Benketjernan" />
		<tag k="natural" v="water" />
		<tag k="ssr:stedsnr" v="128231" />
		<tag k="water" v="lake" />
	</node>
	<node id="-171574" lat="60.6759527772" lon="9.11367778279">
		<tag k="name" v="Pålløken" />
		<tag k="place" v="locality" />
		<tag k="ssr:stedsnr" v="128229" />
	</node>
	<node id="-172084" lat="60.6820805565" lon="9.02456665836">
		<tag k="name" v="Plassevju" />
		<tag k="place" v="locality" />
		<tag k="ssr:stedsnr" v="648132" />
	</node>
	<node id="-171571" lat="60.7338472195" lon="8.84434443683">
		<tag k="name" v="Mjørsetbekken" />
		<tag k="ssr:stedsnr" v="128137" />
		<tag k="waterway" v="stream" />
	</node>
	<node id="-171568" lat="60.7356888883" lon="9.17674999724">
		<tag k="alt_name" v="Brøddkjølen" />
		<tag k="name" v="Broddkjølen" />
		<tag k="natural" v="water" />
		<tag k="ssr:stedsnr" v="128119" />
	</node>
	<node id="-171633" lat="60.673441664" lon="8.98954721664">
		<tag k="name" v="Nøreimstjern" />
		<tag k="natural" v="water" />
		<tag k="old_name" v="Nordheimstjerni" />
		<tag k="ssr:stedsnr" v="174353" />
	</node>
	<node id="-172366" lat="60.8000999972" lon="8.8298583339">
		<tag k="alt_name" v="Horkantjern" />
		<tag k="name" v="Horkantjerne" />
		<tag k="natural" v="water" />
		<tag k="ssr:stedsnr" v="858009" />
	</node>
	<node id="-172101" lat="60.760166663" lon="9.23557222533">
		<tag k="name" v="Nystølbekken" />
		<tag k="ssr:stedsnr" v="665694" />
		<tag k="waterway" v="stream" />
	</node>
	<node id="-172383" lat="60.7549611107" lon="9.10307777435">
		<tag k="alt_name" v="Steinstøltjern" />
		<tag k="name" v="Steinstøltjerne" />
		<tag k="natural" v="water" />
		<tag k="ssr:stedsnr" v="858343" />
	</node>
	<node id="-171953" lat="60.7410472189" lon="9.20393888342">
		<tag k="alt_name" v="Nysettjern" />
		<tag k="name" v="Nysettjerne" />
		<tag k="natural" v="water" />
		<tag k="ssr:stedsnr" v="552178" />
	</node>
	<node id="-171556" lat="60.747699998" lon="8.76798611046">
		<tag k="name" v="Vola" />
		<tag k="ssr:stedsnr" v="127833" />
		<tag k="waterway" v="river" />
	</node>
	<node id="-172434" lat="60.7824138894" lon="8.86199443592">
		<tag k="alt_name" v="Svartetjern" />
		<tag k="name" v="Svartetjerne" />
		<tag k="natural" v="water" />
		<tag k="ssr:stedsnr" v="919242" />
	</node>
	<node id="-172066" lat="60.8122055513" lon="8.92114445349">
		<tag k="name" v="Veslefjelltjerne" />
		<tag k="natural" v="water" />
		<tag k="ssr:stedsnr" v="615474" />
	</node>
	<node id="-172063" lat="60.7565388923" lon="9.09631110969">
		<tag k="alt_name" v="Syningstjern" />
		<tag k="name" v="Syningstjerne" />
		<tag k="natural" v="water" />
		<tag k="ssr:stedsnr" v="615310" />
	</node>
	<node id="-171559" lat="60.7156583351" lon="8.82207777665">
		<tag k="name" v="Høysjøen" />
		<tag k="natural" v="water" />
		<tag k="ssr:stedsnr" v="127872" />
	</node>
	<node id="-172060" lat="60.7704083341" lon="9.04856943569">
		<tag k="alt_name" v="Øytjern" />
		<tag k="name" v="Øytjerne" />
		<tag k="natural" v="water" />
		<tag k="ssr:stedsnr" v="615279" />
	</node>
	<node id="-172058" lat="60.770130559" lon="8.94683888945">
		<tag k="alt_name" v="Fantesekjulløken" />
		<tag k="name" v="Fanteskjulløken" />
		<tag k="natural" v="water" />
		<tag k="ssr:stedsnr" v="615277" />
	</node>
	<node id="-171543" lat="60.7468111098" lon="8.96835834172">
		<tag k="alt_name" v="Ralletjerne" />
		<tag k="name" v="Ralletjern" />
		<tag k="natural" v="water" />
		<tag k="ssr:stedsnr" v="107985" />
	</node>
	<node id="-171540" lat="60.6797831314" lon="9.21696776802">
		<tag k="name" v="Røggjetjern" />
		<tag k="natural" v="water" />
		<tag k="ssr:stedsnr" v="107538" />
	</node>
	<node id="-171240" lat="60.8058555573" lon="8.98573889268">
		<tag k="name" v="Veslebekken" />
		<tag k="ssr:stedsnr" v="341394" />
		<tag k="waterway" v="stream" />
	</node>
	<node id="-172045" lat="60.7159416688" lon="9.30065277031">
		<tag k="alt_name" v="Raudalselve;Raudalsbekken" />
		<tag k="name" v="Rauddalselve" />
		<tag k="ssr:stedsnr" v="613537" />
		<tag k="waterway" v="stream" />
	</node>
	<node id="-172044" lat="60.7039999997" lon="9.046183325">
		<tag k="name" v="Liaåne" />
		<tag k="ssr:stedsnr" v="613383" />
		<tag k="waterway" v="river" />
	</node>
	<node id="-171385" lat="60.6370833363" lon="9.08710555409">
		<tag k="name" v="Krusetjern" />
		<tag k="natural" v="water" />
		<tag k="ssr:stedsnr" v="67537" />
	</node>
	<node id="-172041" lat="60.6963222192" lon="9.20623889538">
		<tag k="alt_name" v="Trytetjern" />
		<tag k="name" v="Trytetjerne" />
		<tag k="natural" v="water" />
		<tag k="ssr:stedsnr" v="613329" />
	</node>
	<node id="-171528" lat="60.6915722231" lon="8.80483333704">
		<tag k="name" v="Nattebekken" />
		<tag k="ssr:stedsnr" v="101435" />
		<tag k="waterway" v="stream" />
	</node>
	<node id="-171527" lat="60.6640749986" lon="9.03809166222">
		<tag k="name" v="Brannøyni" />
		<tag k="place" v="islet" />
		<tag k="ssr:stedsnr" v="101388" />
	</node>
	<node id="-171526" lat="60.7003333377" lon="9.1459833259">
		<tag k="name" v="Nørdrelitjern" />
		<tag k="natural" v="water" />
		<tag k="ssr:stedsnr" v="101330" />
	</node>
	<node id="-171524" lat="60.829750001" lon="8.82615277026">
		<tag k="name" v="Bjørnabekken" />
		<tag k="ssr:stedsnr" v="99493" />
		<tag k="waterway" v="stream" />
	</node>
	<node id="-171521" lat="60.8397722252" lon="8.82664999959">
		<tag k="name" v="Hjartingbekken" />
		<tag k="ssr:stedsnr" v="99475" />
		<tag k="waterway" v="stream" />
	</node>
</osm>
