<?xml version="1.0" encoding="UTF-8"?>
<osm version="0.6" generator="osmapis">
	<node lat="67.03771944381387" lon="14.591811110430232" id="-19334">
		<tag k="name" v="Tverrvikfaret" />
		<tag k="ssr:date" v="2016-05-11" />
		<tag k="ssr:gruppe" v="sjøbunn" />
		<tag k="ssr:hovedgruppe" v="sjø" />
		<tag k="ssr:stedsnr" v="699307" />
		<tag k="ssr:type" v="renneKløftISjø" />
	</node>
	<node lat="67.00724999726413" lon="14.573033324251973" id="-19592">
		<tag k="loc_name:smj" v="Bájddára suohkan" />
		<tag k="name" v="Beiarn kommune" />
		<tag k="name:no" v="Beiarn kommune" />
		<tag k="ssr:date" v="2016-10-31" />
		<tag k="ssr:gruppe" v="administrativeIndelinger" />
		<tag k="ssr:hovedgruppe" v="offentligAdministrasjon" />
		<tag k="ssr:stedsnr" v="936243" />
		<tag k="ssr:type" v="kommune" />
	</node>
	<node lat="67.06788332891321" lon="14.483905561453126" id="-19787">
		<tag k="name" v="Agneset" />
		<tag k="ssr:date" v="2016-05-10" />
		<tag k="ssr:gruppe" v="navigasjon" />
		<tag k="ssr:hovedgruppe" v="infrastruktur" />
		<tag k="ssr:stedsnr" v="115492" />
		<tag k="ssr:type" v="lanterne" />
	</node>
	<node lat="67.03838610893625" lon="14.604694438238344" id="-19914">
		<tag k="name" v="Mulhammerfaret" />
		<tag k="ssr:date" v="2016-05-10" />
		<tag k="ssr:gruppe" v="sjøbunn" />
		<tag k="ssr:hovedgruppe" v="sjø" />
		<tag k="ssr:stedsnr" v="214313" />
		<tag k="ssr:type" v="renneKløftISjø" />
	</node>
	<node lat="67.0844722185248" lon="14.429211115910102" id="-19955">
		<tag k="name" v="Færrissund" />
		<tag k="ssr:date" v="2016-05-10" />
		<tag k="ssr:gruppe" v="navigasjon" />
		<tag k="ssr:hovedgruppe" v="infrastruktur" />
		<tag k="ssr:stedsnr" v="297486" />
		<tag k="ssr:type" v="fyrlykt" />
	</node>
	<node lat="67.2804027758844" lon="14.376388898255625" id="-20192">
		<tag k="alt_name:no" v="Nordland" />
		<tag k="loc_name:se" v="Nordlándda fylka" />
		<tag k="loc_name:sma" v="Nordlaanten fylhke" />
		<tag k="name" v="Nordland fylke" />
		<tag k="name:no" v="Nordland fylke" />
		<tag k="name:smj" v="Nordlánda fylkka" />
		<tag k="ssr:date" v="2021-02-03" />
		<tag k="ssr:gruppe" v="administrativeIndelinger" />
		<tag k="ssr:hovedgruppe" v="offentligAdministrasjon" />
		<tag k="ssr:stedsnr" v="511766" />
		<tag k="ssr:type" v="fylke" />
	</node>
</osm>
