<?xml version="1.0" encoding="UTF-8"?>
<osm generator="osmapis" version="0.6">
	<node id="-788475" lat="69.9781694489" lon="23.4548665793">
		<tag k="name" v="Rismyr" />
		<tag k="place" v="farm" />
		<tag k="ssr:stedsnr" v="747268" />
	</node>
	<node id="-786415" lat="69.9529638927" lon="23.1941749144">
		<tag k="loc_name:fkv" v="Aapana" />
		<tag k="loc_name:se" v="Áhpan" />
		<tag k="name" v="Apana" />
		<tag k="name:fkv" v="Apana" />
		<tag k="place" v="farm" />
		<tag k="ssr:stedsnr" v="268484" />
	</node>
	<node id="-786412" lat="69.9510388938" lon="23.2065360238">
		<tag k="name" v="Moe" />
		<tag k="place" v="farm" />
		<tag k="ssr:stedsnr" v="268476" />
	</node>
	<node id="-788454" lat="70.1267277825" lon="23.3697721375">
		<tag k="name" v="Nordmannsgammen" />
		<tag k="place" v="isolated_dwelling" />
		<tag k="ssr:stedsnr" v="713997" />
	</node>
	<node id="-788452" lat="69.9453388945" lon="23.142827712">
		<tag k="name" v="Saltvik" />
		<tag k="place" v="isolated_dwelling" />
		<tag k="ssr:stedsnr" v="713847" />
	</node>
	<node id="-788450" lat="69.9771861162" lon="23.2627165971">
		<tag k="loc_name:fkv" v="Kurralahti" />
		<tag k="name" v="Tollevik" />
		<tag k="name:no" v="Tollevik" />
		<tag k="place" v="quarter" />
		<tag k="ssr:stedsnr" v="713820" />
	</node>
	<node id="-786388" lat="70.2437861176" lon="23.3000888021">
		<tag k="name" v="Skjærvik" />
		<tag k="place" v="isolated_dwelling" />
		<tag k="ssr:stedsnr" v="107968" />
	</node>
	<node id="-786386" lat="70.0781222252" lon="22.4965943932">
		<tag k="name" v="Nyheim" />
		<tag k="place" v="isolated_dwelling" />
		<tag k="ssr:stedsnr" v="106692" />
	</node>
	<node id="-786385" lat="70.0877083342" lon="22.6243360633">
		<tag k="name" v="Fjølnes" />
		<tag k="place" v="farm" />
		<tag k="ssr:stedsnr" v="106688" />
	</node>
	<node id="-787104" lat="69.948355562" lon="23.056674915">
		<tag k="name" v="Steinbakken" />
		<tag k="place" v="farm" />
		<tag k="ssr:stedsnr" v="268359" />
	</node>
	<node id="-787103" lat="69.9287916656" lon="23.3100082383">
		<tag k="name" v="Mellommoen" />
		<tag k="place" v="farm" />
		<tag k="ssr:stedsnr" v="268219" />
	</node>
	<node id="-788406" lat="70.2642888924" lon="23.3466693593">
		<tag k="name" v="Jakobsslått" />
		<tag k="place" v="farm" />
		<tag k="ssr:stedsnr" v="701115" />
	</node>
	<node id="-788403" lat="70.0566055527" lon="22.361013846">
		<tag k="name" v="Langfjord" />
		<tag k="place" v="hamlet" />
		<tag k="ssr:stedsnr" v="697218" />
	</node>
	<node id="-786351" lat="70.3288833324" lon="23.054233266">
		<tag k="name" v="Fjordstrand" />
		<tag k="place" v="farm" />
		<tag k="ssr:stedsnr" v="94585" />
	</node>
	<node id="-787442" lat="70.1191833319" lon="22.8290443866">
		<tag k="name" v="Rástejeaggi" />
		<tag k="name:se" v="Rástejeaggi" />
		<tag k="old_name:se" v="Rastejæggi" />
		<tag k="place" v="isolated_dwelling" />
		<tag k="ssr:stedsnr" v="504719" />
	</node>
	<node id="-788390" lat="69.8622972284" lon="23.3163554792">
		<tag k="name" v="Tvestrømmen" />
		<tag k="place" v="farm" />
		<tag k="ssr:stedsnr" v="694723" />
	</node>
	<node id="-786341" lat="70.3481333307" lon="22.7827777185">
		<tag k="name" v="Åslia" />
		<tag k="place" v="farm" />
		<tag k="ssr:stedsnr" v="87824" />
	</node>
	<node id="-786339" lat="69.9210222225" lon="23.2630193507">
		<tag k="name" v="Flaten" />
		<tag k="place" v="farm" />
		<tag k="ssr:stedsnr" v="87765" />
	</node>
	<node id="-788385" lat="70.0137611154" lon="23.5662637913">
		<tag k="name" v="Moen" />
		<tag k="place" v="farm" />
		<tag k="ssr:stedsnr" v="694440" />
	</node>
	<node id="-788382" lat="69.8677638929" lon="23.2788277043">
		<tag k="name" v="Svingen" />
		<tag k="place" v="farm" />
		<tag k="ssr:stedsnr" v="694331" />
	</node>
	<node id="-786333" lat="69.9040611161" lon="23.2495221412">
		<tag k="name" v="Sagbruk" />
		<tag k="place" v="isolated_dwelling" />
		<tag k="ssr:stedsnr" v="87748" />
	</node>
	<node id="-786332" lat="70.3395194508" lon="23.0611360395">
		<tag k="name" v="Olanes" />
		<tag k="place" v="farm" />
		<tag k="ssr:stedsnr" v="87457" />
	</node>
	<node id="-786331" lat="70.1004972283" lon="23.5588749067">
		<tag k="name" v="Sarvesjok" />
		<tag k="place" v="neighbourhood" />
		<tag k="ssr:stedsnr" v="87443" />
	</node>
	<node id="-786329" lat="70.2608166737" lon="23.4091637963">
		<tag k="loc_name:se" v="Gámabahta" />
		<tag k="name" v="Komagfjord" />
		<tag k="name:no" v="Komagfjord" />
		<tag k="place" v="hamlet" />
		<tag k="ssr:stedsnr" v="87407" />
	</node>
	<node id="-788374" lat="69.9291055558" lon="23.4954887916">
		<tag k="name" v="Strandsletta" />
		<tag k="place" v="farm" />
		<tag k="ssr:stedsnr" v="694040" />
	</node>
	<node id="-788364" lat="69.9587222261" lon="23.3082443658">
		<tag k="name" v="Lillejord" />
		<tag k="place" v="farm" />
		<tag k="ssr:stedsnr" v="693806" />
	</node>
	<node id="-788363" lat="69.9520138926" lon="23.2741999129">
		<tag k="name" v="Rostad" />
		<tag k="place" v="farm" />
		<tag k="ssr:stedsnr" v="693804" />
	</node>
	<node id="-788361" lat="69.9571777834" lon="23.3696776776">
		<tag k="alt_name:fkv" v="Kaiskuro" />
		<tag k="name" v="Kaiskuru" />
		<tag k="name:fkv" v="Kaiskuru" />
		<tag k="place" v="quarter" />
		<tag k="ssr:stedsnr" v="693801" />
	</node>
	<node id="-788360" lat="69.952352779" lon="23.3239110178">
		<tag k="name" v="Mikkelholmen" />
		<tag k="place" v="farm" />
		<tag k="ssr:stedsnr" v="693790" />
	</node>
	<node id="-786311" lat="70.1151861126" lon="23.4387165647">
		<tag k="name" v="Moldfornes" />
		<tag k="place" v="farm" />
		<tag k="ssr:stedsnr" v="86491" />
	</node>
	<node id="-788358" lat="69.9633000028" lon="23.2619276926">
		<tag k="name" v="Alta prestegård" />
		<tag k="place" v="farm" />
		<tag k="ssr:stedsnr" v="693629" />
	</node>
	<node id="-786302" lat="69.9427694513" lon="23.3262471393">
		<tag k="name" v="Bjørkesletten" />
		<tag k="place" v="farm" />
		<tag k="ssr:stedsnr" v="86222" />
	</node>
	<node id="-786297" lat="69.9566972274" lon="23.408305468">
		<tag k="name" v="Fossenakken" />
		<tag k="place" v="farm" />
		<tag k="ssr:stedsnr" v="86075" />
	</node>
	<node id="-786296" lat="69.9453833374" lon="23.3986832485">
		<tag k="name" v="Solbakken" />
		<tag k="place" v="farm" />
		<tag k="ssr:stedsnr" v="86063" />
	</node>
	<node id="-786294" lat="70.0756500036" lon="22.9833999232">
		<tag k="name" v="Gregus Kari" />
		<tag k="place" v="isolated_dwelling" />
		<tag k="ssr:stedsnr" v="86031" />
	</node>
	<node id="-786292" lat="69.9860888933" lon="23.5021054729">
		<tag k="name" v="Elvestrand" />
		<tag k="place" v="farm" />
		<tag k="ssr:stedsnr" v="86011" />
	</node>
	<node id="-788339" lat="70.0462333375" lon="22.9590499311">
		<tag k="name" v="Øra" />
		<tag k="place" v="hamlet" />
		<tag k="ssr:stedsnr" v="693068" />
	</node>
	<node id="-788338" lat="69.9806416721" lon="23.4931249155">
		<tag k="name" v="Padooda" />
		<tag k="name:fkv" v="Padooda" />
		<tag k="place" v="farm" />
		<tag k="ssr:stedsnr" v="693053" />
	</node>
	<node id="-787091" lat="70.2860583352" lon="23.0931332553">
		<tag k="name" v="Vuolmmasgieddi" />
		<tag k="name:se" v="Vuolmmasgieddi" />
		<tag k="old_name:se" v="Vuolmasgieddi" />
		<tag k="place" v="farm" />
		<tag k="ssr:stedsnr" v="262944" />
	</node>
	<node id="-786287" lat="69.9517083325" lon="23.4154276786">
		<tag k="name" v="Maaheinä-kenttä" />
		<tag k="name:fkv" v="Maaheinä-kenttä" />
		<tag k="place" v="locality" />
		<tag k="ssr:stedsnr" v="268073" />
	</node>
	<node id="-786286" lat="70.2607333408" lon="23.406524909">
		<tag k="name" v="Nerum" />
		<tag k="place" v="farm" />
		<tag k="ssr:stedsnr" v="81951" />
	</node>
	<node id="-786283" lat="70.2838611113" lon="23.538049913">
		<tag k="fixme" v="consider place=hamlet" />
		<tag k="name" v="Store Lerresfjord" />
		<tag k="place" v="village" />
		<tag k="ssr:stedsnr" v="81806" />
	</node>
	<node id="-786276" lat="70.1103861162" lon="23.5132582354">
		<tag k="alt_name" v="Løvås" />
		<tag k="name" v="Lauvås" />
		<tag k="place" v="isolated_dwelling" />
		<tag k="ssr:stedsnr" v="80933" />
	</node>
	<node id="-788320" lat="70.020355557" lon="23.5369526914">
		<tag k="alt_name" v="Rishaug" />
		<tag k="name" v="Rishaugen" />
		<tag k="place" v="farm" />
		<tag k="ssr:stedsnr" v="687977" />
	</node>
	<node id="-788318" lat="70.2796361157" lon="23.3872304685">
		<tag k="name" v="Garnasen - Gárnášša" />
		<tag k="name:no" v="Garnasen" />
		<tag k="name:se" v="Gárnášša" />
		<tag k="old_name:se" v="Garnašša" />
		<tag k="place" v="farm" />
		<tag k="ssr:stedsnr" v="687929" />
	</node>
	<node id="-786269" lat="70.3180361099" lon="22.8683443764">
		<tag k="fixme" v="consider place=hamlet" />
		<tag k="name" v="Store Kvalfjord" />
		<tag k="place" v="village" />
		<tag k="ssr:stedsnr" v="80908" />
	</node>
	<node id="-786265" lat="70.3127638915" lon="22.8732832773">
		<tag k="name" v="Birangohppi" />
		<tag k="name:se" v="Birangohppi" />
		<tag k="old_name:se" v="Birangåppi;Birangoppi" />
		<tag k="place" v="farm" />
		<tag k="ssr:stedsnr" v="80899" />
	</node>
	<node id="-786263" lat="70.0015611108" lon="23.5022582272">
		<tag k="name" v="Slåtten" />
		<tag k="place" v="isolated_dwelling" />
		<tag k="ssr:stedsnr" v="80993" />
	</node>
	<node id="-786261" lat="70.0272111126" lon="23.4393276783">
		<tag k="name" v="Myrbakken" />
		<tag k="place" v="isolated_dwelling" />
		<tag k="ssr:stedsnr" v="80976" />
	</node>
	<node id="-788307" lat="70.3370611155" lon="23.0629277087">
		<tag k="name" v="Dagsvoll - Beaivvašgieddi" />
		<tag k="name:no" v="Dagsvoll" />
		<tag k="name:se" v="Beaivvašgieddi" />
		<tag k="old_name:se" v="Bæivašgieddi" />
		<tag k="place" v="isolated_dwelling" />
		<tag k="ssr:stedsnr" v="687882" />
	</node>
	<node id="-786248" lat="70.1007277804" lon="23.3529999254">
		<tag k="alt_name" v="Jupvik" />
		<tag k="name" v="Djupvik" />
		<tag k="place" v="farm" />
		<tag k="ssr:stedsnr" v="80711" />
	</node>
	<node id="-788295" lat="70.3259083363" lon="23.50726102">
		<tag k="name" v="Moen" />
		<tag k="place" v="isolated_dwelling" />
		<tag k="ssr:stedsnr" v="687795" />
	</node>
	<node id="-786242" lat="69.9315583316" lon="23.4927693543">
		<tag k="name" v="Sagslåtten" />
		<tag k="place" v="farm" />
		<tag k="ssr:stedsnr" v="80684" />
	</node>
	<node id="-786236" lat="69.859513892" lon="23.6831276637">
		<tag k="name" v="Stillasætra" />
		<tag k="place" v="isolated_dwelling" />
		<tag k="ssr:stedsnr" v="80651" />
	</node>
	<node id="-786235" lat="70.1686777827" lon="23.2789360226">
		<tag k="name" v="Kariheimen" />
		<tag k="place" v="locality" />
		<tag k="ssr:stedsnr" v="80648" />
	</node>
	<node id="-786232" lat="69.8922750014" lon="23.4800999136">
		<tag k="alt_name" v="Losvarsetra" />
		<tag k="historic" v="shieling" />
		<tag k="name" v="Losvarsætra" />
		<tag k="place" v="locality" />
		<tag k="ssr:stedsnr" v="80637" />
	</node>
	<node id="-788273" lat="69.9457222209" lon="23.2578332488">
		<tag k="name" v="Berge" />
		<tag k="place" v="farm" />
		<tag k="ssr:stedsnr" v="687421" />
	</node>
	<node id="-786222" lat="70.1311555618" lon="22.9481332669">
		<tag k="alt_name" v="Sandnes, l" />
		<tag k="name" v="Lillesandnes" />
		<tag k="place" v="farm" />
		<tag k="ssr:stedsnr" v="80757" />
	</node>
	<node id="-786219" lat="70.2424972206" lon="23.335191583">
		<tag k="alt_name" v="Lamvik, in;Lamvik Indre" />
		<tag k="name" v="Indre Lamvik" />
		<tag k="place" v="farm" />
		<tag k="ssr:stedsnr" v="80593" />
	</node>
	<node id="-786211" lat="70.0818083363" lon="22.446424951">
		<tag k="name" v="Bjørndal" />
		<tag k="place" v="farm" />
		<tag k="ssr:stedsnr" v="80527" />
	</node>
	<node id="-786210" lat="70.0750250042" lon="22.4221805058">
		<tag k="name" v="Kobbesteinøra" />
		<tag k="place" v="locality" />
		<tag k="ssr:stedsnr" v="80525" />
	</node>
	<node id="-786208" lat="69.9815694491" lon="23.3039610252">
		<tag k="alt_name" v="Stenseng" />
		<tag k="name" v="Steinseng" />
		<tag k="place" v="hamlet" />
		<tag k="ssr:stedsnr" v="80479" />
	</node>
	<node id="-787077" lat="70.0464138912" lon="22.9442721517">
		<tag k="name" v="Åsen" />
		<tag k="place" v="hamlet" />
		<tag k="ssr:stedsnr" v="262821" />
	</node>
	<node id="-786204" lat="70.003063891" lon="22.3329749437">
		<tag k="name" v="Solvoll" />
		<tag k="place" v="farm" />
		<tag k="ssr:stedsnr" v="80611" />
	</node>
	<node id="-786197" lat="69.9274083364" lon="23.2581387992">
		<tag k="name" v="Lampe" />
		<tag k="place" v="farm" />
		<tag k="ssr:stedsnr" v="80418" />
	</node>
	<node id="-786196" lat="69.8861916653" lon="23.2038388056">
		<tag k="fixme" v="consider place=hamlet" />
		<tag k="loc_name:fkv" v="Äipiö" />
		<tag k="name" v="Eiby" />
		<tag k="name:no" v="Eiby" />
		<tag k="place" v="village" />
		<tag k="ssr:stedsnr" v="80383" />
	</node>
	<node id="-786194" lat="69.8937416653" lon="23.2265332574">
		<tag k="alt_name" v="Valsethmoen" />
		<tag k="name" v="Valsetmoen" />
		<tag k="place" v="farm" />
		<tag k="ssr:stedsnr" v="80368" />
	</node>
	<node id="-788241" lat="70.1246166684" lon="23.4003193434">
		<tag k="alt_name" v="Fossebakken" />
		<tag k="name" v="Fossbakken" />
		<tag k="place" v="farm" />
		<tag k="ssr:stedsnr" v="686737" />
	</node>
	<node id="-786191" lat="69.9140555571" lon="23.2856054549">
		<tag k="name" v="Killi" />
		<tag k="place" v="isolated_dwelling" />
		<tag k="ssr:stedsnr" v="80330" />
	</node>
	<node id="-788238" lat="70.1086027807" lon="22.8864638319">
		<tag k="name" v="Elvenes" />
		<tag k="place" v="hamlet" />
		<tag k="ssr:stedsnr" v="686721" />
	</node>
	<node id="-786186" lat="69.8666777821" lon="23.2708165727">
		<tag k="name" v="Fjellheim" />
		<tag k="place" v="farm" />
		<tag k="ssr:stedsnr" v="80288" />
	</node>
	<node id="-787756" lat="69.9023750066" lon="23.4663610088">
		<tag k="name" v="Odden" />
		<tag k="place" v="isolated_dwelling" />
		<tag k="ssr:stedsnr" v="565646" />
	</node>
	<node id="-788229" lat="69.9689833341" lon="23.4296332386">
		<tag k="fixme" v="consider place=suburb, village or hamlet" />
		<tag k="name" v="Nerskogen - Alaouta" />
		<tag k="name:fkv" v="Alaouta" />
		<tag k="name:no" v="Nerskogen" />
		<tag k="place" v="quarter" />
		<tag k="ssr:stedsnr" v="686656" />
	</node>
	<node id="-788227" lat="70.1443722218" lon="23.2680360261">
		<tag k="name" v="Kongshus" />
		<tag k="place" v="hamlet" />
		<tag k="ssr:stedsnr" v="686641" />
	</node>
	<node id="-788223" lat="70.2267250035" lon="23.3398360333">
		<tag k="name" v="Fjellstrand" />
		<tag k="place" v="isolated_dwelling" />
		<tag k="ssr:stedsnr" v="686586" />
	</node>
	<node id="-788095" lat="69.8806305566" lon="23.1897249037">
		<tag k="name" v="Tyvold" />
		<tag k="place" v="farm" />
		<tag k="ssr:stedsnr" v="632414" />
	</node>
	<node id="-786168" lat="69.7249305615" lon="23.4061804677">
		<tag k="name" v="Midtstua" />
		<tag k="place" v="isolated_dwelling" />
		<tag k="ssr:stedsnr" v="79723" />
	</node>
	<node id="-788210" lat="69.9616388903" lon="23.1056638192">
		<tag k="alt_name" v="Løveng" />
		<tag k="name" v="Lauveng" />
		<tag k="place" v="farm" />
		<tag k="ssr:stedsnr" v="686413" />
	</node>
	<node id="-788209" lat="69.9648750039" lon="23.4018582539">
		<tag k="alt_name" v="Teglplana" />
		<tag k="name" v="Teigplana" />
		<tag k="place" v="farm" />
		<tag k="ssr:stedsnr" v="686409" />
	</node>
	<node id="-788204" lat="69.9575055576" lon="23.0939638149">
		<tag k="name" v="Haugen" />
		<tag k="place" v="farm" />
		<tag k="ssr:stedsnr" v="686377" />
	</node>
	<node id="-786152" lat="70.0087861121" lon="22.3257804964">
		<tag k="name" v="Øverjord" />
		<tag k="place" v="farm" />
		<tag k="ssr:stedsnr" v="46755" />
	</node>
	<node id="-786149" lat="69.9570638909" lon="23.0956360273">
		<tag k="name" v="Nygård" />
		<tag k="place" v="farm" />
		<tag k="ssr:stedsnr" v="45831" />
	</node>
	<node id="-786147" lat="70.0510944428" lon="22.3110082775">
		<tag k="name" v="Aspa" />
		<tag k="place" v="isolated_dwelling" />
		<tag k="ssr:stedsnr" v="45693" />
	</node>
	<node id="-786146" lat="70.08501667" lon="22.6214166038">
		<tag k="name" v="Skrivarslåtta" />
		<tag k="place" v="farm" />
		<tag k="ssr:stedsnr" v="45681" />
	</node>
	<node id="-787748" lat="70.0221888892" lon="22.304933278">
		<tag k="name" v="Ørbakken" />
		<tag k="place" v="farm" />
		<tag k="ssr:stedsnr" v="565612" />
	</node>
	<node id="-788180" lat="70.0364305577" lon="22.2740194051">
		<tag k="name" v="Søre Nordskog" />
		<tag k="place" v="isolated_dwelling" />
		<tag k="ssr:stedsnr" v="652704" />
	</node>
	<node id="-787406" lat="69.9597583334" lon="23.0977971303">
		<tag k="loc_name:se" v="Sisgieddi" />
		<tag k="name" v="Flintnes" />
		<tag k="name:no" v="Flintnes" />
		<tag k="place" v="farm" />
		<tag k="ssr:stedsnr" v="504398" />
	</node>
	<node id="-788088" lat="69.8431916704" lon="22.8810971419">
		<tag k="name" v="Ongajoksetra" />
		<tag k="old_name" v="Oaggojokksetra" />
		<tag k="place" v="isolated_dwelling" />
		<tag k="ssr:stedsnr" v="632165" />
	</node>
	<node id="-786193" lat="69.8833555559" lon="23.2016693625">
		<tag k="name" v="Skogly" />
		<tag k="place" v="farm" />
		<tag k="ssr:stedsnr" v="80356" />
	</node>
	<node id="-788147" lat="70.208477777" lon="22.6263249338">
		<tag k="name" v="Sommarset" />
		<tag k="place" v="locality" />
		<tag k="ssr:stedsnr" v="640716" />
	</node>
	<node id="-786093" lat="69.9421472198" lon="23.2866388113">
		<tag k="name" v="Hareholmen" />
		<tag k="place" v="farm" />
		<tag k="ssr:stedsnr" v="26750" />
	</node>
	<node id="-787740" lat="70.0582166641" lon="22.3345971813">
		<tag k="name" v="Bjørkvoll" />
		<tag k="place" v="farm" />
		<tag k="ssr:stedsnr" v="565492" />
	</node>
	<node id="-786557" lat="69.9620194504" lon="23.3409443454">
		<tag k="loc_name:se" v="Árronnjárga" />
		<tag k="name" v="Nedre Aronnes" />
		<tag k="name:no" v="Nedre Aronnes" />
		<tag k="place" v="hamlet" />
		<tag k="ssr:stedsnr" v="146769" />
	</node>
	<node id="-786083" lat="70.1085333408" lon="23.5538749064">
		<tag k="name" v="Trollhaugen" />
		<tag k="place" v="isolated_dwelling" />
		<tag k="ssr:stedsnr" v="26459" />
	</node>
	<node id="-788129" lat="69.8846472285" lon="23.2631276976">
		<tag k="name" v="Fiskehytte" />
		<tag k="place" v="isolated_dwelling" />
		<tag k="ssr:stedsnr" v="633702" />
	</node>
	<node id="-786079" lat="69.8891305611" lon="23.2111332511">
		<tag k="name" v="Flinkestad nedre" />
		<tag k="place" v="farm" />
		<tag k="ssr:stedsnr" v="26431" />
	</node>
	<node id="-786078" lat="69.892516672" lon="23.2078915857">
		<tag k="name" v="Valsethmyra" />
		<tag k="place" v="farm" />
		<tag k="ssr:stedsnr" v="26432" />
	</node>
	<node id="-786075" lat="69.9394666701" lon="23.0332110336">
		<tag k="leisure" v="pitch" />
		<tag k="name" v="Lindebergdammen" />
		<tag k="ssr:stedsnr" v="26270" />
	</node>
	<node id="-786071" lat="69.9284805572" lon="23.2655999053">
		<tag k="name" v="Stenfossholmen" />
		<tag k="place" v="farm" />
		<tag k="ssr:stedsnr" v="26247" />
	</node>
	<node id="-788118" lat="69.84098334" lon="23.4555221264">
		<tag k="name" v="Bolloholmen" />
		<tag k="place" v="farm" />
		<tag k="ssr:stedsnr" v="633177" />
	</node>
	<node id="-788116" lat="69.9272888964" lon="23.4880665707">
		<tag k="name" v="Kjossletta" />
		<tag k="place" v="farm" />
		<tag k="ssr:stedsnr" v="633056" />
	</node>
	<node id="-786065" lat="70.121952777" lon="22.9837554955">
		<tag k="name" v="Heimstein" />
		<tag k="place" v="isolated_dwelling" />
		<tag k="ssr:stedsnr" v="26119" />
	</node>
	<node id="-786064" lat="69.9708611186" lon="23.4429304529">
		<tag k="name" v="Kildeengen" />
		<tag k="place" v="farm" />
		<tag k="ssr:stedsnr" v="26073" />
	</node>
	<node id="-786063" lat="69.9866722287" lon="23.5018582315">
		<tag k="name" v="Kildeeng" />
		<tag k="place" v="farm" />
		<tag k="ssr:stedsnr" v="26062" />
	</node>
	<node id="-788110" lat="70.3478222243" lon="22.7876777054">
		<tag k="name" v="Váillasgohppi" />
		<tag k="name:se" v="Váillasgohppi" />
		<tag k="place" v="farm" />
		<tag k="ssr:stedsnr" v="632797" />
	</node>
	<node id="-786060" lat="69.975083333" lon="23.4876888005">
		<tag k="name" v="Elvenes nordre" />
		<tag k="place" v="farm" />
		<tag k="ssr:stedsnr" v="26010" />
	</node>
	<node id="-787735" lat="69.942547222" lon="23.3951999103">
		<tag k="alt_name" v="Losvar" />
		<tag k="name" v="Losvær" />
		<tag k="place" v="farm" />
		<tag k="ssr:stedsnr" v="565415" />
	</node>
	<node id="-788103" lat="69.9639222242" lon="23.3151471462">
		<tag k="name" v="Skogmo" />
		<tag k="place" v="farm" />
		<tag k="ssr:stedsnr" v="632777" />
	</node>
	<node id="-788102" lat="69.934586111" lon="23.2675554604">
		<tag k="name" v="Gammelslåtten" />
		<tag k="place" v="farm" />
		<tag k="ssr:stedsnr" v="632757" />
	</node>
	<node id="-786710" lat="69.9994027744" lon="22.3323555123">
		<tag k="name" v="Skogheim" />
		<tag k="place" v="farm" />
		<tag k="ssr:stedsnr" v="201021" />
	</node>
	<node id="-786049" lat="69.9625305629" lon="23.3272026887">
		<tag k="name" v="Ringstad" />
		<tag k="place" v="farm" />
		<tag k="ssr:stedsnr" v="25808" />
	</node>
	<node id="-786048" lat="69.9456861168" lon="23.2403054812">
		<tag k="name" v="Storgjerdsbakken" />
		<tag k="place" v="farm" />
		<tag k="ssr:stedsnr" v="25804" />
	</node>
	<node id="-786047" lat="69.9516805545" lon="23.2908499163">
		<tag k="name" v="Ulvestad" />
		<tag k="place" v="farm" />
		<tag k="ssr:stedsnr" v="25803" />
	</node>
	<node id="-786046" lat="69.9443083409" lon="23.3279360134">
		<tag k="name" v="Bjerkesletten" />
		<tag k="place" v="farm" />
		<tag k="ssr:stedsnr" v="25797" />
	</node>
	<node id="-786045" lat="69.9545333338" lon="23.2244276972">
		<tag k="name" v="Furuli" />
		<tag k="place" v="quarter" />
		<tag k="ssr:stedsnr" v="25610" />
	</node>
	<node id="-786040" lat="69.9707666672" lon="23.3818832457">
		<tag k="name" v="Øyra" />
		<tag k="place" v="quarter" />
		<tag k="ssr:stedsnr" v="24939" />
	</node>
	<node id="-788087" lat="70.0272416677" lon="23.5018054659">
		<tag k="name" v="Gjerdebakken" />
		<tag k="place" v="farm" />
		<tag k="ssr:stedsnr" v="632038" />
	</node>
	<node id="-788083" lat="69.9833333338" lon="23.4833332361">
		<tag k="fixme" v="consider place=hamlet" />
		<tag k="name" v="Midtstrand" />
		<tag k="place" v="village" />
		<tag k="ssr:stedsnr" v="630996" />
	</node>
	<node id="-788082" lat="69.8855500046" lon="23.2618860372">
		<tag k="name" v="Stengelsmoen" />
		<tag k="place" v="farm" />
		<tag k="ssr:stedsnr" v="630945" />
	</node>
	<node id="-787048" lat="69.8898555604" lon="23.5756110035">
		<tag k="alt_name" v="Opgårdsetra" />
		<tag k="historic" v="shieling" />
		<tag k="name" v="Oppgårdsætra" />
		<tag k="place" v="locality" />
		<tag k="ssr:stedsnr" v="262630" />
	</node>
	<node id="-786019" lat="70.022550004" lon="23.5243582495">
		<tag k="name" v="Solsletta" />
		<tag k="place" v="farm" />
		<tag k="ssr:stedsnr" v="19966" />
	</node>
	<node id="-786017" lat="70.0197500002" lon="23.5285999041">
		<tag k="name" v="Moen" />
		<tag k="place" v="farm" />
		<tag k="ssr:stedsnr" v="19964" />
	</node>
	<node id="-788055" lat="70.2987166658" lon="23.6057304702">
		<tag k="name" v="Elvegarden" />
		<tag k="place" v="isolated_dwelling" />
		<tag k="ssr:stedsnr" v="626807" />
	</node>
	<node id="-788050" lat="70.0970222244" lon="22.8405443689">
		<tag k="name" v="Steinbakken" />
		<tag k="place" v="farm" />
		<tag k="ssr:stedsnr" v="626727" />
	</node>
	<node id="-787043" lat="70.0336611093" lon="22.2768277327">
		<tag k="name" v="Flatstrand" />
		<tag k="place" v="farm" />
		<tag k="ssr:stedsnr" v="262620" />
	</node>
	<node id="-785996" lat="70.0424722211" lon="22.9498527031">
		<tag k="loc_name:fkv" v="Talmulahti" />
		<tag k="loc_name:se" v="Dálbmeluovta" />
		<tag k="name" v="Talvik" />
		<tag k="name:no" v="Talvik" />
		<tag k="place" v="village" />
		<tag k="ssr:stedsnr" v="19801" />
	</node>
	<node id="-788042" lat="70.1911194423" lon="23.2401360334">
		<tag k="name" v="Elvebukt - Johkaluokta" />
		<tag k="name:no" v="Elvebukt" />
		<tag k="name:se" v="Johkaluokta" />
		<tag k="old_name:se" v="Jåkkaluokta" />
		<tag k="place" v="locality" />
		<tag k="ssr:stedsnr" v="626683" />
	</node>
	<node id="-785987" lat="70.1368583355" lon="23.3352776832">
		<tag k="alt_name" v="Elven" />
		<tag k="name" v="Elva" />
		<tag k="place" v="isolated_dwelling" />
		<tag k="ssr:stedsnr" v="19735" />
	</node>
	<node id="-788034" lat="70.0024194464" lon="22.3337971806">
		<tag k="name" v="Øvergård" />
		<tag k="place" v="farm" />
		<tag k="ssr:stedsnr" v="626625" />
	</node>
	<node id="-785985" lat="70.1134472212" lon="22.9857804781">
		<tag k="name" v="Gjermundby" />
		<tag k="place" v="farm" />
		<tag k="ssr:stedsnr" v="19726" />
	</node>
	<node id="-785982" lat="70.1135027799" lon="22.8922804792">
		<tag k="fixme" v="consider place=hamlet" />
		<tag k="loc_name:se" v="Stuora Sáttonjárga" />
		<tag k="name" v="Storsandnes" />
		<tag k="name:no" v="Storsandnes" />
		<tag k="place" v="village" />
		<tag k="ssr:stedsnr" v="19721" />
	</node>
	<node id="-788027" lat="69.9389138908" lon="23.0273832541">
		<tag k="name" v="Sanden" />
		<tag k="place" v="isolated_dwelling" />
		<tag k="ssr:stedsnr" v="626465" />
	</node>
	<node id="-785977" lat="69.9275194435" lon="23.4695443571">
		<tag k="alt_name" v="Smedslåtten" />
		<tag k="name" v="Smideslåtten" />
		<tag k="place" v="farm" />
		<tag k="ssr:stedsnr" v="19666" />
	</node>
	<node id="-788024" lat="69.9321500052" lon="23.357849908">
		<tag k="alt_name" v="Kobberdal" />
		<tag k="name" v="Kopperdal" />
		<tag k="place" v="isolated_dwelling" />
		<tag k="ssr:stedsnr" v="626443" />
	</node>
	<node id="-788023" lat="69.9395833313" lon="23.2474471413">
		<tag k="name" v="Småland" />
		<tag k="place" v="farm" />
		<tag k="ssr:stedsnr" v="626441" />
	</node>
	<node id="-788020" lat="69.924077782" lon="23.2733777003">
		<tag k="name" v="Øvergård" />
		<tag k="place" v="farm" />
		<tag k="ssr:stedsnr" v="626373" />
	</node>
	<node id="-788014" lat="69.8403000055" lon="23.4137665841">
		<tag k="alt_name" v="Aavangen" />
		<tag k="name" v="Åvangen" />
		<tag k="place" v="farm" />
		<tag k="ssr:stedsnr" v="626270" />
	</node>
	<node id="-785963" lat="69.8352750025" lon="23.457080471">
		<tag k="name" v="Solstad" />
		<tag k="place" v="farm" />
		<tag k="ssr:stedsnr" v="19615" />
	</node>
	<node id="-785962" lat="69.8325166692" lon="23.4881193337">
		<tag k="name" v="Gargiasetra" />
		<tag k="place" v="isolated_dwelling" />
		<tag k="ssr:stedsnr" v="19613" />
	</node>
	<node id="-785960" lat="70.1385888919" lon="23.3286082624">
		<tag k="name" v="Mikkelsby" />
		<tag k="place" v="farm" />
		<tag k="ssr:stedsnr" v="19605" />
	</node>
	<node id="-785956" lat="70.0271500062" lon="22.3111971698">
		<tag k="alt_name" v="Raudmyr" />
		<tag k="name" v="Rødmyr" />
		<tag k="place" v="farm" />
		<tag k="ssr:stedsnr" v="19577" />
	</node>
	<node id="-785955" lat="70.0260749996" lon="22.3088166176">
		<tag k="name" v="Sandstrand" />
		<tag k="place" v="farm" />
		<tag k="ssr:stedsnr" v="19576" />
	</node>
	<node id="-785954" lat="70.0101333364" lon="22.3226166055">
		<tag k="name" v="Midtjord" />
		<tag k="old_name" v="Midtfjord" />
		<tag k="place" v="farm" />
		<tag k="ssr:stedsnr" v="19575" />
	</node>
	<node id="-785952" lat="70.2141888907" lon="23.2021638145">
		<tag k="fixme" v="consider place=hamlet" />
		<tag k="name" v="Storekorsnes - Giranjárga" />
		<tag k="name:no" v="Storekorsnes" />
		<tag k="name:se" v="Giranjárga" />
		<tag k="old_name:no" v="Storekursnes" />
		<tag k="place" v="village" />
		<tag k="ssr:stedsnr" v="19539" />
	</node>
	<node id="-787999" lat="70.017888891" lon="23.5404943541">
		<tag k="name" v="Leirbakken" />
		<tag k="place" v="farm" />
		<tag k="ssr:stedsnr" v="625975" />
	</node>
	<node id="-787995" lat="70.1140000001" lon="23.4315443481">
		<tag k="name" v="Nyeng" />
		<tag k="place" v="isolated_dwelling" />
		<tag k="ssr:stedsnr" v="625930" />
	</node>
	<node id="-785944" lat="69.9951250001" lon="23.0969360215">
		<tag k="alt_name" v="Sanden" />
		<tag k="name" v="Sand" />
		<tag k="place" v="isolated_dwelling" />
		<tag k="ssr:stedsnr" v="19462" />
	</node>
	<node id="-787990" lat="70.0284305545" lon="23.4584165772">
		<tag k="loc_name:se" v="Boaressiidasajji" />
		<tag k="name" v="Gammelheim" />
		<tag k="name:no" v="Gammelheim" />
		<tag k="place" v="hamlet" />
		<tag k="ssr:stedsnr" v="625901" />
	</node>
	<node id="-787986" lat="70.1549638964" lon="23.7196276698">
		<tag k="name" v="Bigáš" />
		<tag k="name:se" v="Bigáš" />
		<tag k="old_name:se" v="Bigaš" />
		<tag k="place" v="farm" />
		<tag k="ssr:stedsnr" v="625837" />
	</node>
	<node id="-785937" lat="69.9412916671" lon="23.2380165824">
		<tag k="alt_name" v="Storgjerdet nordre" />
		<tag k="name" v="Nordre Storgjerdet" />
		<tag k="place" v="farm" />
		<tag k="ssr:stedsnr" v="19411" />
	</node>
	<node id="-785936" lat="69.9378138918" lon="23.3194860242">
		<tag k="fixme" v="multiple name tags, choose one and add the other to alt_name" />
		<tag k="name" v="Raipas;Raipas nedre" />
		<tag k="place" v="farm" />
		<tag k="ssr:stedsnr" v="19402" />
	</node>
	<node id="-785934" lat="69.9694472238" lon="23.373574902">
		<tag k="loc_name:fkv" v="Joensuu;Jovensuu" />
		<tag k="loc_name:se" v="Joganjálbmi" />
		<tag k="name" v="Elvebakken" />
		<tag k="name:no" v="Elvebakken" />
		<tag k="place" v="suburb" />
		<tag k="ssr:stedsnr" v="19388" />
	</node>
	<node id="-785933" lat="69.9518027773" lon="23.2646499207">
		<tag k="fixme" v="consider place=hamlet" />
		<tag k="loc_name:fkv" v="Keskiranta" />
		<tag k="name" v="Elvestrand" />
		<tag k="name:no" v="Elvestrand" />
		<tag k="place" v="village" />
		<tag k="ssr:stedsnr" v="19381" />
	</node>
	<node id="-785932" lat="69.9520361131" lon="23.2803943573">
		<tag k="name" v="Myreng" />
		<tag k="place" v="farm" />
		<tag k="ssr:stedsnr" v="19379" />
	</node>
	<node id="-785931" lat="69.9476277765" lon="23.4065693557">
		<tag k="name" v="Nybrott" />
		<tag k="place" v="farm" />
		<tag k="ssr:stedsnr" v="19373" />
	</node>
	<node id="-785930" lat="69.8932944447" lon="23.2040499247">
		<tag k="name" v="Bakkehaug" />
		<tag k="place" v="farm" />
		<tag k="ssr:stedsnr" v="19366" />
	</node>
	<node id="-785929" lat="69.8902111144" lon="23.2568082529">
		<tag k="name" v="Fredlund" />
		<tag k="place" v="farm" />
		<tag k="ssr:stedsnr" v="19355" />
	</node>
	<node id="-785928" lat="69.9189777767" lon="23.2726249081">
		<tag k="name" v="Myrslett" />
		<tag k="place" v="farm" />
		<tag k="ssr:stedsnr" v="19326" />
	</node>
	<node id="-785927" lat="69.9021611113" lon="23.2574943496">
		<tag k="name" v="Myrmo" />
		<tag k="place" v="farm" />
		<tag k="ssr:stedsnr" v="19297" />
	</node>
	<node id="-785925" lat="69.9839694472" lon="23.4845165784">
		<tag k="name" v="Transfarelv - Gáidoš - Kaitusjoki" />
		<tag k="name:fkv" v="Kaitusjoki" />
		<tag k="name:no" v="Transfarelv" />
		<tag k="name:se" v="Gáidoš" />
		<tag k="place" v="hamlet" />
		<tag k="ssr:stedsnr" v="19256" />
	</node>
	<node id="-785924" lat="69.8662194491" lon="23.3157499028">
		<tag k="name" v="Furulund" />
		<tag k="place" v="farm" />
		<tag k="ssr:stedsnr" v="19250" />
	</node>
	<node id="-785923" lat="69.8601194447" lon="23.3305443429">
		<tag k="name" v="Ryeng" />
		<tag k="place" v="farm" />
		<tag k="ssr:stedsnr" v="19249" />
	</node>
	<node id="-787969" lat="69.918452776" lon="23.4693249086">
		<tag k="name" v="Romsdal" />
		<tag k="place" v="farm" />
		<tag k="ssr:stedsnr" v="625673" />
	</node>
	<node id="-787963" lat="69.9389805563" lon="23.4234276812">
		<tag k="name" v="Myreng" />
		<tag k="place" v="farm" />
		<tag k="ssr:stedsnr" v="625648" />
	</node>
	<node id="-787957" lat="70.1399472246" lon="23.2374415737">
		<tag k="name" v="Solstad" />
		<tag k="place" v="farm" />
		<tag k="ssr:stedsnr" v="625629" />
	</node>
	<node id="-785906" lat="69.9302555555" lon="23.3255360293">
		<tag k="name" v="Moen" />
		<tag k="place" v="farm" />
		<tag k="ssr:stedsnr" v="25222" />
	</node>
	<node id="-787952" lat="70.0314666655" lon="22.2801444006">
		<tag k="name" v="Midtskog" />
		<tag k="place" v="farm" />
		<tag k="ssr:stedsnr" v="625604" />
	</node>
	<node id="-785901" lat="69.9388682649" lon="22.9226167001">
		<tag k="fixme" v="consider tourism=alpine_hut or tourism=chalet" />
		<tag k="name" v="Nordlysobservatoriet Halde" />
		<tag k="ssr:stedsnr" v="990984" />
		<tag k="tourism" v="wilderness_hut" />
	</node>
	<node id="-787948" lat="70.2258666674" lon="23.3990054744">
		<tag k="name" v="Sandbukta" />
		<tag k="place" v="farm" />
		<tag k="ssr:stedsnr" v="625560" />
	</node>
	<node id="-785899" lat="70.311663141" lon="23.4417677087">
		<tag k="name" v="Várgonjárga" />
		<tag k="name:se" v="Várgonjárga" />
		<tag k="place" v="farm" />
		<tag k="ssr:stedsnr" v="1072014" />
	</node>
	<node id="-787946" lat="70.2186027817" lon="23.2345054885">
		<tag k="name" v="Nordli" />
		<tag k="place" v="farm" />
		<tag k="ssr:stedsnr" v="625547" />
	</node>
	<node id="-787943" lat="70.0827611166" lon="22.4681888401">
		<tag k="fixme" v="consider place=hamlet" />
		<tag k="name" v="Tappeluft - Dáhpeluokta" />
		<tag k="name:no" v="Tappeluft" />
		<tag k="name:se" v="Dáhpeluokta" />
		<tag k="old_name:se" v="Dappeluokta" />
		<tag k="place" v="village" />
		<tag k="ssr:stedsnr" v="625505" />
	</node>
	<node id="-785891" lat="69.9617138908" lon="23.3636665842">
		<tag k="name" v="Kroken" />
		<tag k="place" v="isolated_dwelling" />
		<tag k="ssr:stedsnr" v="895798" />
	</node>
	<node id="-787938" lat="69.9487944483" lon="23.2456776998">
		<tag k="name" v="Fjellheim" />
		<tag k="place" v="farm" />
		<tag k="ssr:stedsnr" v="625418" />
	</node>
	<node id="-787934" lat="69.9518388921" lon="23.2941026836">
		<tag k="alt_name" v="Kronsletten" />
		<tag k="name" v="Kronsletta" />
		<tag k="place" v="farm" />
		<tag k="ssr:stedsnr" v="625391" />
	</node>
	<node id="-787931" lat="69.8883416734" lon="22.9974443714">
		<tag k="alt_name" v="Mathisgård" />
		<tag k="name" v="Mattisgård" />
		<tag k="place" v="farm" />
		<tag k="ssr:stedsnr" v="625365" />
	</node>
	<node id="-787021" lat="69.951558334" lon="23.2702110116">
		<tag k="alt_name" v="Myrvold" />
		<tag k="name" v="Myrvoll" />
		<tag k="place" v="farm" />
		<tag k="ssr:stedsnr" v="262400" />
	</node>
	<node id="-786679" lat="69.9630083373" lon="23.1141832493">
		<tag k="name" v="Øgleenga" />
		<tag k="place" v="locality" />
		<tag k="ssr:stedsnr" v="167856" />
	</node>
	<node id="-787912" lat="70.0950805538" lon="22.8251554967">
		<tag k="name" v="Rundbukt" />
		<tag k="place" v="farm" />
		<tag k="ssr:stedsnr" v="591826" />
	</node>
	<node id="-787020" lat="69.9509611124" lon="23.3329276978">
		<tag k="alt_name" v="Veibakken" />
		<tag k="name" v="Vegbakken" />
		<tag k="place" v="farm" />
		<tag k="ssr:stedsnr" v="262395" />
	</node>
	<node id="-787910" lat="70.0239055528" lon="22.2843499614">
		<tag k="name" v="Vestereng" />
		<tag k="place" v="isolated_dwelling" />
		<tag k="ssr:stedsnr" v="591691" />
	</node>
	<node id="-787909" lat="70.0787388936" lon="22.4732527353">
		<tag k="name" v="Boberg" />
		<tag k="place" v="isolated_dwelling" />
		<tag k="ssr:stedsnr" v="591677" />
	</node>
	<node id="-785850" lat="69.8811583331" lon="23.2693637991">
		<tag k="name" v="Nedre Stengelse" />
		<tag k="place" v="isolated_dwelling" />
		<tag k="ssr:stedsnr" v="883742" />
	</node>
	<node id="-785848" lat="70.3329055569" lon="23.0589582683">
		<tag k="name" v="Myreng" />
		<tag k="place" v="farm" />
		<tag k="ssr:stedsnr" v="883554" />
	</node>
	<node id="-785846" lat="70.2614500064" lon="23.4121332578">
		<tag k="name" v="Komagfjordbotn" />
		<tag k="place" v="farm" />
		<tag k="ssr:stedsnr" v="883121" />
	</node>
	<node id="-787017" lat="69.9523416721" lon="23.2161860335">
		<tag k="name" v="Gakori" />
		<tag k="place" v="quarter" />
		<tag k="ssr:stedsnr" v="262385" />
	</node>
	<node id="-785843" lat="69.8414083334" lon="23.4308221165">
		<tag k="loc_name:se" v="Viidnestohpu" />
		<tag k="name" v="Vina" />
		<tag k="name:no" v="Vina" />
		<tag k="place" v="farm" />
		<tag k="ssr:stedsnr" v="269155" />
	</node>
	<node id="-786675" lat="70.2248944478" lon="23.3116804691">
		<tag k="name" v="Kverven" />
		<tag k="place" v="isolated_dwelling" />
		<tag k="ssr:stedsnr" v="166944" />
	</node>
	<node id="-785840" lat="69.917744445" lon="23.4750082357">
		<tag k="name" v="Furulund" />
		<tag k="place" v="farm" />
		<tag k="ssr:stedsnr" v="269117" />
	</node>
	<node id="-787879" lat="70.2037638942" lon="22.5867860593">
		<tag k="name" v="Botn" />
		<tag k="place" v="locality" />
		<tag k="ssr:stedsnr" v="580682" />
	</node>
	<node id="-785830" lat="70.0300361097" lon="22.9821582565">
		<tag k="name" v="Duggelv" />
		<tag k="place" v="farm" />
		<tag k="ssr:stedsnr" v="409820" />
	</node>
	<node id="-785829" lat="70.0274583403" lon="23.4493776924">
		<tag k="name" v="Lilleng" />
		<tag k="place" v="isolated_dwelling" />
		<tag k="ssr:stedsnr" v="409779" />
	</node>
	<node id="-787868" lat="70.2146611118" lon="23.1918471363">
		<tag k="name" v="Smedjordet" />
		<tag k="place" v="hamlet" />
		<tag k="ssr:stedsnr" v="574327" />
	</node>
	<node id="-787864" lat="69.9322277824" lon="23.0940693772">
		<tag k="name" v="Vestre Kvenvik" />
		<tag k="place" v="hamlet" />
		<tag k="ssr:stedsnr" v="573455" />
	</node>
	<node id="-787853" lat="70.1090277842" lon="23.3621276847">
		<tag k="alt_name" v="Garnnessletta" />
		<tag k="name" v="Sletta" />
		<tag k="place" v="farm" />
		<tag k="ssr:stedsnr" v="572227" />
	</node>
	<node id="-787852" lat="70.0977555553" lon="23.3442971303">
		<tag k="name" v="Ågårdsminne" />
		<tag k="place" v="farm" />
		<tag k="ssr:stedsnr" v="572224" />
	</node>
	<node id="-787851" lat="69.923175001" lon="23.4744332264">
		<tag k="name" v="Nygård" />
		<tag k="place" v="farm" />
		<tag k="ssr:stedsnr" v="572179" />
	</node>
	<node id="-787849" lat="69.8346749993" lon="23.4826915767">
		<tag k="name" v="Gargiaholmen" />
		<tag k="place" v="farm" />
		<tag k="ssr:stedsnr" v="572158" />
	</node>
	<node id="-787848" lat="70.1133472218" lon="22.986858267">
		<tag k="name" v="Gjermundsby" />
		<tag k="place" v="hamlet" />
		<tag k="ssr:stedsnr" v="572139" />
	</node>
	<node id="-787847" lat="69.920550002" lon="23.4769582241">
		<tag k="name" v="Elveseth" />
		<tag k="place" v="farm" />
		<tag k="ssr:stedsnr" v="572128" />
	</node>
	<node id="-787846" lat="69.9284111187" lon="23.4984082335">
		<tag k="name" v="Bjerke" />
		<tag k="place" v="farm" />
		<tag k="ssr:stedsnr" v="572062" />
	</node>
	<node id="-787009" lat="69.8714305546" lon="23.2838832422">
		<tag k="name" v="Vatnheim" />
		<tag k="place" v="farm" />
		<tag k="ssr:stedsnr" v="262340" />
	</node>
	<node id="-787839" lat="70.3487194497" lon="22.7883999286">
		<tag k="name" v="Myrbakken" />
		<tag k="place" v="farm" />
		<tag k="ssr:stedsnr" v="571801" />
	</node>
	<node id="-785790" lat="70.3136000027" lon="23.4906638112">
		<tag k="name" v="Indre Laukeng" />
		<tag k="place" v="hamlet" />
		<tag k="ssr:stedsnr" v="398111" />
	</node>
	<node id="-787834" lat="69.9570972257" lon="23.2849721395">
		<tag k="name" v="Nergård" />
		<tag k="place" v="farm" />
		<tag k="ssr:stedsnr" v="571705" />
	</node>
	<node id="-787831" lat="70.0160361103" lon="23.0432277076">
		<tag k="name" v="Westervoll" />
		<tag k="place" v="isolated_dwelling" />
		<tag k="ssr:stedsnr" v="571351" />
	</node>
	<node id="-787827" lat="69.9228527823" lon="23.2690360309">
		<tag k="name" v="Skogro" />
		<tag k="place" v="farm" />
		<tag k="ssr:stedsnr" v="571206" />
	</node>
	<node id="-787826" lat="70.0451555605" lon="22.9464415879">
		<tag k="name" v="Nilsengen" />
		<tag k="place" v="isolated_dwelling" />
		<tag k="ssr:stedsnr" v="571181" />
	</node>
	<node id="-787820" lat="70.0741833354" lon="22.9821943723">
		<tag k="alt_name" v="Gjermundshest" />
		<tag k="name" v="Gjermund-hessen" />
		<tag k="place" v="isolated_dwelling" />
		<tag k="ssr:stedsnr" v="571020" />
	</node>
	<node id="-787814" lat="70.0138111109" lon="23.554455447">
		<tag k="name" v="Sørelvdalen - Láhtetskáidi - Skaiti" />
		<tag k="name:fkv" v="Skaiti" />
		<tag k="name:no" v="Sørelvdalen" />
		<tag k="name:se" v="Láhtetskáidi" />
		<tag k="place" v="hamlet" />
		<tag k="ssr:stedsnr" v="565982" />
	</node>
	<node id="-787811" lat="70.2502111174" lon="23.4012026835">
		<tag k="name" v="Eidet" />
		<tag k="place" v="farm" />
		<tag k="ssr:stedsnr" v="565953" />
	</node>
	<node id="-787810" lat="70.2603527796" lon="23.0051915935">
		<tag k="name" v="Vinšá" />
		<tag k="name:se" v="Vinšá" />
		<tag k="old_name:se" v="Vinša" />
		<tag k="place" v="isolated_dwelling" />
		<tag k="ssr:stedsnr" v="565949" />
	</node>
	<node id="-788025" lat="69.927636115" lon="23.2392971489">
		<tag k="name" v="Skoglund" />
		<tag k="place" v="farm" />
		<tag k="ssr:stedsnr" v="626452" />
	</node>
	<node id="-785737" lat="69.9848666657" lon="22.4006693891">
		<tag k="name" v="Finngamman" />
		<tag k="place" v="locality" />
		<tag k="ssr:stedsnr" v="392242" />
	</node>
	<node id="-787783" lat="70.0272750042" lon="23.06361105">
		<tag k="name" v="Flatstrand" />
		<tag k="place" v="farm" />
		<tag k="ssr:stedsnr" v="565781" />
	</node>
	<node id="-785727" lat="70.0668888864" lon="22.3716749471">
		<tag k="name" v="Suborg" />
		<tag k="place" v="farm" />
		<tag k="ssr:stedsnr" v="390955" />
	</node>
	<node id="-785720" lat="69.8886861111" lon="23.2625026767">
		<tag k="name" v="Flatmark" />
		<tag k="place" v="farm" />
		<tag k="ssr:stedsnr" v="390644" />
	</node>
	<node id="-787765" lat="70.2053055585" lon="23.2077527002">
		<tag k="name" v="Bergli" />
		<tag k="place" v="isolated_dwelling" />
		<tag k="ssr:stedsnr" v="565689" />
	</node>
	<node id="-787678" lat="69.8212166709" lon="23.4791749064">
		<tag k="name" v="Storeng" />
		<tag k="place" v="farm" />
		<tag k="ssr:stedsnr" v="564709" />
	</node>
	<node id="-785711" lat="70.1303805562" lon="23.2299332507">
		<tag k="name" v="Mortensnes" />
		<tag k="place" v="farm" />
		<tag k="ssr:stedsnr" v="390405" />
	</node>
	<node id="-785708" lat="70.1022777848" lon="23.3259804611">
		<tag k="name" v="Ryggeløs" />
		<tag k="place" v="farm" />
		<tag k="ssr:stedsnr" v="390203" />
	</node>
	<node id="-787090" lat="70.1154138915" lon="23.4506665826">
		<tag k="name" v="Storeng" />
		<tag k="place" v="farm" />
		<tag k="ssr:stedsnr" v="262940" />
	</node>
	<node id="-785706" lat="69.9198027772" lon="23.4676943545">
		<tag k="name" v="Isberget" />
		<tag k="place" v="farm" />
		<tag k="ssr:stedsnr" v="390157" />
	</node>
	<node id="-788359" lat="69.9509694436" lon="23.2434165841">
		<tag k="name" v="Myreng" />
		<tag k="place" v="farm" />
		<tag k="ssr:stedsnr" v="693769" />
	</node>
	<node id="-787752" lat="70.0450000057" lon="22.2886332761">
		<tag k="loc_name:se" v="Sehpanboldni" />
		<tag k="name" v="Sebeaheim" />
		<tag k="name:no" v="Sebeaheim" />
		<tag k="place" v="farm" />
		<tag k="ssr:stedsnr" v="565630" />
	</node>
	<node id="-787751" lat="70.040866666" lon="22.2494888444">
		<tag k="name" v="Parken" />
		<tag k="place" v="farm" />
		<tag k="ssr:stedsnr" v="565629" />
	</node>
	<node id="-785701" lat="69.9617888882" lon="23.3304221283">
		<tag k="name" v="Skoggjerdet" />
		<tag k="place" v="farm" />
		<tag k="ssr:stedsnr" v="389785" />
	</node>
	<node id="-785700" lat="69.9550305619" lon="23.3266915716">
		<tag k="name" v="Bakslåtten" />
		<tag k="place" v="farm" />
		<tag k="ssr:stedsnr" v="389781" />
	</node>
	<node id="-785699" lat="69.9599111142" lon="23.3403138092">
		<tag k="name" v="Holme" />
		<tag k="place" v="farm" />
		<tag k="ssr:stedsnr" v="389782" />
	</node>
	<node id="-785696" lat="70.1200805537" lon="23.3905554743">
		<tag k="name" v="Mobakken" />
		<tag k="place" v="farm" />
		<tag k="ssr:stedsnr" v="389491" />
	</node>
	<node id="-785692" lat="69.8823777799" lon="23.1932832469">
		<tag k="name" v="Furulund" />
		<tag k="place" v="farm" />
		<tag k="ssr:stedsnr" v="389411" />
	</node>
	<node id="-785691" lat="70.2953666646" lon="23.5358138078">
		<tag k="name" v="Maribukt - Máregohppi" />
		<tag k="name:no" v="Maribukt" />
		<tag k="name:se" v="Máregohppi" />
		<tag k="place" v="hamlet" />
		<tag k="ssr:stedsnr" v="389366" />
	</node>
	<node id="-785689" lat="69.9342527803" lon="23.3059915878">
		<tag k="name" v="England østre" />
		<tag k="place" v="farm" />
		<tag k="ssr:stedsnr" v="389213" />
	</node>
	<node id="-785687" lat="69.9395750024" lon="23.3136610225">
		<tag k="name" v="Flatjord" />
		<tag k="place" v="farm" />
		<tag k="ssr:stedsnr" v="389207" />
	</node>
	<node id="-785686" lat="69.932927776" lon="23.4408499139">
		<tag k="name" v="Bullbakken" />
		<tag k="place" v="farm" />
		<tag k="ssr:stedsnr" v="389076" />
	</node>
	<node id="-787733" lat="69.9417611133" lon="23.3154221403">
		<tag k="name" v="Holmen" />
		<tag k="place" v="farm" />
		<tag k="ssr:stedsnr" v="565413" />
	</node>
	<node id="-787731" lat="69.9452638901" lon="23.1982221472">
		<tag k="name" v="Øvergård" />
		<tag k="place" v="farm" />
		<tag k="ssr:stedsnr" v="565408" />
	</node>
	<node id="-785682" lat="70.0228777806" lon="23.5244637882">
		<tag k="name" v="Vasskog" />
		<tag k="place" v="farm" />
		<tag k="ssr:stedsnr" v="389018" />
	</node>
	<node id="-787729" lat="69.9425222205" lon="23.2923832507">
		<tag k="name" v="Masternes" />
		<tag k="place" v="farm" />
		<tag k="ssr:stedsnr" v="565404" />
	</node>
	<node id="-787727" lat="69.9334555567" lon="23.2306582602">
		<tag k="amenity" v="school" />
		<tag k="name" v="Øytun folkehøgskole" />
		<tag k="ssr:stedsnr" v="565394" />
	</node>
	<node id="-785678" lat="69.7975638946" lon="24.1831776507">
		<tag k="alt_name" v="Bojobeaskihytta" />
		<tag k="fixme" v="consider tourism=alpine_hut or tourism=chalet" />
		<tag k="name" v="Bojobæskihytta" />
		<tag k="ssr:stedsnr" v="389186" />
		<tag k="tourism" v="wilderness_hut" />
	</node>
	<node id="-787714" lat="69.9149638907" lon="23.2299110317">
		<tag k="name" v="Nylund" />
		<tag k="place" v="farm" />
		<tag k="ssr:stedsnr" v="565324" />
	</node>
	<node id="-785659" lat="70.2900194489" lon="22.9086721698">
		<tag k="fixme" v="consider place=hamlet" />
		<tag k="name" v="Lille Kvalfjord" />
		<tag k="place" v="village" />
		<tag k="ssr:stedsnr" v="383921" />
	</node>
	<node id="-787694" lat="70.3682666672" lon="22.8897610334">
		<tag k="name" v="Høyvik" />
		<tag k="place" v="locality" />
		<tag k="ssr:stedsnr" v="565015" />
	</node>
	<node id="-785640" lat="70.0238944509" lon="23.3703665719">
		<tag k="name" v="Holmsund" />
		<tag k="place" v="isolated_dwelling" />
		<tag k="ssr:stedsnr" v="383770" />
	</node>
	<node id="-785637" lat="70.1227944427" lon="22.9846249364">
		<tag k="name" v="Heimstad" />
		<tag k="place" v="isolated_dwelling" />
		<tag k="ssr:stedsnr" v="383752" />
	</node>
	<node id="-787679" lat="69.8063404193" lon="23.4896084388">
		<tag k="name" v="Gargia fjellstue" />
		<tag k="ssr:stedsnr" v="564712" />
		<tag k="tourism" v="hotel" />
	</node>
	<node id="-785630" lat="70.113136115" lon="23.4092943559">
		<tag k="name" v="Rundingen" />
		<tag k="place" v="farm" />
		<tag k="ssr:stedsnr" v="383725" />
	</node>
	<node id="-788345" lat="69.9385000057" lon="23.3108165769">
		<tag k="name" v="Stengelsholmen" />
		<tag k="place" v="farm" />
		<tag k="ssr:stedsnr" v="693261" />
	</node>
	<node id="-785615" lat="70.1795694469" lon="23.3777638039">
		<tag k="name" v="Fjordbukta" />
		<tag k="place" v="hamlet" />
		<tag k="ssr:stedsnr" v="383669" />
	</node>
	<node id="-787656" lat="70.0405361146" lon="22.2693082813">
		<tag k="name" v="Russelvnes" />
		<tag k="place" v="farm" />
		<tag k="ssr:stedsnr" v="531728" />
	</node>
	<node id="-785605" lat="70.2486388903" lon="22.8680499233">
		<tag k="name" v="Davatluft" />
		<tag k="place" v="isolated_dwelling" />
		<tag k="ssr:stedsnr" v="383608" />
	</node>
	<node id="-787652" lat="70.1252333363" lon="23.3822082351">
		<tag k="name" v="Olderbakken" />
		<tag k="place" v="isolated_dwelling" />
		<tag k="ssr:stedsnr" v="530989" />
	</node>
	<node id="-788340" lat="70.0462333375" lon="22.9590499311">
		<tag k="name" v="Talvik" />
		<tag k="place" v="isolated_dwelling" />
		<tag k="ssr:stedsnr" v="693067" />
	</node>
	<node id="-785584" lat="69.9404722231" lon="23.2719304733">
		<tag k="alt_name" v="Holmesletten" />
		<tag k="name" v="Holmsletta" />
		<tag k="place" v="farm" />
		<tag k="ssr:stedsnr" v="383442" />
	</node>
	<node id="-786973" lat="69.750647223" lon="23.7482609886">
		<tag k="name" v="Sautso-gården" />
		<tag k="old_name" v="Šavčo-gården;Šávču-gården;Šávčugården" />
		<tag k="place" v="isolated_dwelling" />
		<tag k="ssr:stedsnr" v="261712" />
	</node>
	<node id="-785577" lat="69.9571388936" lon="23.2716082386">
		<tag k="loc_name:se" v="Lovtáidi" />
		<tag k="name" v="Fagerli" />
		<tag k="name:no" v="Fagerli" />
		<tag k="place" v="farm" />
		<tag k="ssr:stedsnr" v="383415" />
	</node>
	<node id="-785576" lat="69.9510083402" lon="23.0732749252">
		<tag k="name" v="Dullan" />
		<tag k="place" v="isolated_dwelling" />
		<tag k="ssr:stedsnr" v="383401" />
	</node>
	<node id="-785569" lat="69.8737638918" lon="23.2906749157">
		<tag k="name" v="Øvre Stengelse" />
		<tag k="old_name" v="Stengelse, øvre;Stengelse" />
		<tag k="place" v="farm" />
		<tag k="ssr:stedsnr" v="383360" />
	</node>
	<node id="-785567" lat="69.9023444427" lon="23.2487360281">
		<tag k="name" v="Skillemo" />
		<tag k="place" v="farm" />
		<tag k="ssr:stedsnr" v="383334" />
	</node>
	<node id="-787653" lat="70.1235666686" lon="23.3962832357">
		<tag k="name" v="Nygård" />
		<tag k="place" v="farm" />
		<tag k="ssr:stedsnr" v="530991" />
	</node>
	<node id="-787608" lat="69.8871777762" lon="23.2752026935">
		<tag k="name" v="Aaset søndre" />
		<tag k="place" v="farm" />
		<tag k="ssr:stedsnr" v="512705" />
	</node>
	<node id="-785604" lat="70.2417361172" lon="23.3250471476">
		<tag k="alt_name" v="Lamvik, yt;Lamvik Ytre" />
		<tag k="loc_name" v="Lamvik" />
		<tag k="name" v="Ytre Lamvik" />
		<tag k="place" v="farm" />
		<tag k="ssr:stedsnr" v="383602" />
	</node>
	<node id="-785558" lat="69.8455277778" lon="23.3208610213">
		<tag k="alt_name" v="Seterheim" />
		<tag k="name" v="Sæterheim" />
		<tag k="place" v="isolated_dwelling" />
		<tag k="ssr:stedsnr" v="383287" />
	</node>
	<node id="-788334" lat="70.0266083399" lon="23.5199193382">
		<tag k="name" v="Furumoen" />
		<tag k="place" v="farm" />
		<tag k="ssr:stedsnr" v="693025" />
	</node>
	<node id="-787308" lat="69.8126527818" lon="23.4847832405">
		<tag k="name" v="Soleng" />
		<tag k="place" v="farm" />
		<tag k="ssr:stedsnr" v="451160" />
	</node>
	<node id="-787586" lat="69.9229249989" lon="23.4996332464">
		<tag k="alt_name" v="Øverslåtten" />
		<tag k="name" v="Øvreslåtten" />
		<tag k="place" v="farm" />
		<tag k="ssr:stedsnr" v="512161" />
	</node>
	<node id="-787585" lat="69.8604388917" lon="23.5046276785">
		<tag k="name" v="Bollo hytteområde" />
		<tag k="place" v="neighbourhood" />
		<tag k="ssr:stedsnr" v="512154" />
	</node>
	<node id="-788126" lat="69.9373944519" lon="23.1021665815">
		<tag k="name" v="Kvenviknes" />
		<tag k="place" v="farm" />
		<tag k="ssr:stedsnr" v="633495" />
	</node>
	<node id="-787582" lat="70.0249638909" lon="22.3061416288">
		<tag k="name" v="Bognelv" />
		<tag k="place" v="hamlet" />
		<tag k="ssr:stedsnr" v="511951" />
	</node>
	<node id="-787306" lat="70.0202222208" lon="22.9044999191">
		<tag k="name" v="Tyristua" />
		<tag k="place" v="isolated_dwelling" />
		<tag k="ssr:stedsnr" v="451011" />
	</node>
	<node id="-787574" lat="69.9621777836" lon="23.3155915786">
		<tag k="name" v="Furumoen" />
		<tag k="place" v="farm" />
		<tag k="ssr:stedsnr" v="511788" />
	</node>
	<node id="-787572" lat="69.9359333353" lon="23.2717860167">
		<tag k="name" v="Rønningen" />
		<tag k="place" v="farm" />
		<tag k="ssr:stedsnr" v="511765" />
	</node>
	<node id="-785522" lat="70.0327861154" lon="22.3236082864">
		<tag k="name" v="Ytre Oldernes" />
		<tag k="place" v="farm" />
		<tag k="ssr:stedsnr" v="349743" />
	</node>
	<node id="-785521" lat="70.0489805564" lon="22.3045721672">
		<tag k="name" v="Bratteng" />
		<tag k="place" v="isolated_dwelling" />
		<tag k="ssr:stedsnr" v="349739" />
	</node>
	<node id="-785519" lat="70.0269333393" lon="23.3982860178">
		<tag k="name" v="Steinnes" />
		<tag k="place" v="farm" />
		<tag k="ssr:stedsnr" v="348976" />
	</node>
	<node id="-785518" lat="70.0280972239" lon="23.3930915752">
		<tag k="name" v="Leirbakken" />
		<tag k="place" v="farm" />
		<tag k="ssr:stedsnr" v="348968" />
	</node>
	<node id="-785517" lat="70.0904472241" lon="22.6936943884">
		<tag k="name" v="Brattfjell" />
		<tag k="place" v="locality" />
		<tag k="ssr:stedsnr" v="348811" />
	</node>
	<node id="-785516" lat="69.9819916689" lon="23.3028665875">
		<tag k="name" v="Økseberget" />
		<tag k="place" v="isolated_dwelling" />
		<tag k="ssr:stedsnr" v="348792" />
	</node>
	<node id="-787562" lat="69.8753194349" lon="23.1801185684">
		<tag k="name" v="Roligheten" />
		<tag k="place" v="farm" />
		<tag k="ssr:stedsnr" v="511401" />
	</node>
	<node id="-787555" lat="69.926550001" lon="23.3149804669">
		<tag k="name" v="Furumoen" />
		<tag k="place" v="farm" />
		<tag k="ssr:stedsnr" v="511234" />
	</node>
	<node id="-787552" lat="69.9413944451" lon="23.2945082355">
		<tag k="name" v="Saari" />
		<tag k="name:fkv" v="Saari" />
		<tag k="place" v="farm" />
		<tag k="ssr:stedsnr" v="511227" />
	</node>
	<node id="-787550" lat="70.0435416653" lon="22.9439138102">
		<tag k="name" v="Mogjerdet" />
		<tag k="place" v="isolated_dwelling" />
		<tag k="ssr:stedsnr" v="511195" />
	</node>
	<node id="-787543" lat="69.9775222202" lon="23.4786304691">
		<tag k="name" v="Reinholdtholmen" />
		<tag k="place" v="farm" />
		<tag k="ssr:stedsnr" v="511053" />
	</node>
	<node id="-787541" lat="70.0212777846" lon="23.533327688">
		<tag k="name" v="Aspebakken" />
		<tag k="place" v="farm" />
		<tag k="ssr:stedsnr" v="511027" />
	</node>
	<node id="-787540" lat="70.1285555596" lon="23.3973499161">
		<tag k="name" v="Båttua" />
		<tag k="place" v="locality" />
		<tag k="ssr:stedsnr" v="511024" />
	</node>
	<node id="-785486" lat="70.0902472211" lon="22.631855504">
		<tag k="name" v="Vuojatluokta" />
		<tag k="name:se" v="Vuojatluokta" />
		<tag k="place" v="hamlet" />
		<tag k="ssr:stedsnr" v="343082" />
	</node>
	<node id="-787525" lat="70.2902222281" lon="22.9712221591">
		<tag k="name" v="Tudvik" />
		<tag k="place" v="isolated_dwelling" />
		<tag k="ssr:stedsnr" v="505899" />
	</node>
	<node id="-787978" lat="70.131933333" lon="23.3526610178">
		<tag k="alt_name" v="Masvik;Massvik" />
		<tag k="name" v="Madsvik" />
		<tag k="place" v="farm" />
		<tag k="ssr:stedsnr" v="625753" />
	</node>
	<node id="-787508" lat="70.0847888907" lon="22.9852193821">
		<tag k="name" v="Hovdenes" />
		<tag k="place" v="farm" />
		<tag k="ssr:stedsnr" v="505705" />
	</node>
	<node id="-785458" lat="69.8114666676" lon="23.2308693522">
		<tag k="historic" v="shieling" />
		<tag k="name" v="Knutsetera" />
		<tag k="place" v="locality" />
		<tag k="ssr:stedsnr" v="330396" />
	</node>
	<node id="-785454" lat="70.3199166679" lon="23.4760110318">
		<tag k="loc_name:se" v="Sarvvissiidnjárga" />
		<tag k="name" v="Horsnes" />
		<tag k="name:no" v="Horsnes" />
		<tag k="place" v="farm" />
		<tag k="ssr:stedsnr" v="330208" />
	</node>
	<node id="-787293" lat="69.9494111121" lon="23.1984860212">
		<tag k="name" v="Nyheim" />
		<tag k="place" v="farm" />
		<tag k="ssr:stedsnr" v="450483" />
	</node>
	<node id="-785452" lat="69.974016666" lon="23.3666221234">
		<tag k="name" v="Nedre Elvebakken" />
		<tag k="place" v="quarter" />
		<tag k="ssr:stedsnr" v="330189" />
	</node>
	<node id="-785445" lat="70.3383527839" lon="22.823230491">
		<tag k="name" v="Nordvoll" />
		<tag k="place" v="farm" />
		<tag k="ssr:stedsnr" v="329801" />
	</node>
	<node id="-787491" lat="69.9357250038" lon="23.2277721384">
		<tag k="name" v="Rydningen" />
		<tag k="place" v="farm" />
		<tag k="ssr:stedsnr" v="505424" />
	</node>
	<node id="-785441" lat="69.960005559" lon="23.3165138053">
		<tag k="name" v="Nergård" />
		<tag k="place" v="farm" />
		<tag k="ssr:stedsnr" v="329779" />
	</node>
	<node id="-785440" lat="69.9588499981" lon="23.3409415856">
		<tag k="name" v="Elvemo" />
		<tag k="place" v="farm" />
		<tag k="ssr:stedsnr" v="329772" />
	</node>
	<node id="-785439" lat="69.9367777803" lon="23.2639360245">
		<tag k="name" v="Sjungarholmen" />
		<tag k="place" v="farm" />
		<tag k="ssr:stedsnr" v="329750" />
	</node>
	<node id="-787486" lat="69.918377779" lon="23.2855332486">
		<tag k="name" v="Flatmoen" />
		<tag k="place" v="farm" />
		<tag k="ssr:stedsnr" v="505340" />
	</node>
	<node id="-785437" lat="69.953397226" lon="23.2763693621">
		<tag k="name" v="Furulund" />
		<tag k="place" v="farm" />
		<tag k="ssr:stedsnr" v="329708" />
	</node>
	<node id="-785432" lat="70.1138222256" lon="23.420005466">
		<tag k="name" v="Joenga" />
		<tag k="place" v="farm" />
		<tag k="ssr:stedsnr" v="329481" />
	</node>
	<node id="-785425" lat="70.0282527826" lon="23.0667193603">
		<tag k="name" v="Kråknes" />
		<tag k="place" v="hamlet" />
		<tag k="ssr:stedsnr" v="329259" />
	</node>
	<node id="-787288" lat="69.8828666722" lon="23.1974887982">
		<tag k="name" v="Veimoen" />
		<tag k="place" v="farm" />
		<tag k="ssr:stedsnr" v="450388" />
	</node>
	<node id="-787566" lat="69.9505361132" lon="23.2017165947">
		<tag k="name" v="Myrberg" />
		<tag k="place" v="farm" />
		<tag k="ssr:stedsnr" v="511475" />
	</node>
	<node id="-787287" lat="69.8856250006" lon="23.2054999252">
		<tag k="name" v="Bjørkevold" />
		<tag k="place" v="farm" />
		<tag k="ssr:stedsnr" v="450378" />
	</node>
	<node id="-785414" lat="69.9322222305" lon="23.4032999003">
		<tag k="name" v="Sørås" />
		<tag k="place" v="farm" />
		<tag k="ssr:stedsnr" v="329104" />
	</node>
	<node id="-785411" lat="70.0281027768" lon="23.5134471351">
		<tag k="name" v="Broelven" />
		<tag k="place" v="farm" />
		<tag k="ssr:stedsnr" v="329034" />
	</node>
	<node id="-789333" lat="69.9466527813" lon="23.4024860329">
		<tag k="name" v="Gammelneset" />
		<tag k="place" v="farm" />
		<tag k="ssr:stedsnr" v="936067" />
	</node>
	<node id="-787451" lat="70.0174138895" lon="23.0208499253">
		<tag k="name" v="Smedvik" />
		<tag k="place" v="isolated_dwelling" />
		<tag k="ssr:stedsnr" v="504756" />
	</node>
	<node id="-787443" lat="70.1124527832" lon="23.4124526942">
		<tag k="name" v="Øversletta" />
		<tag k="place" v="farm" />
		<tag k="ssr:stedsnr" v="504722" />
	</node>
	<node id="-785394" lat="70.0584416712" lon="22.9652388144">
		<tag k="name" v="Sætran" />
		<tag k="place" v="isolated_dwelling" />
		<tag k="ssr:stedsnr" v="323794" />
	</node>
	<node id="-787283" lat="69.8680111168" lon="23.3184526823">
		<tag k="name" v="Tvislebakken" />
		<tag k="place" v="farm" />
		<tag k="ssr:stedsnr" v="450309" />
	</node>
	<node id="-785375" lat="69.9363555604" lon="23.220727688">
		<tag k="name" v="Bergstad" />
		<tag k="place" v="farm" />
		<tag k="ssr:stedsnr" v="323415" />
	</node>
	<node id="-785374" lat="69.9333111171" lon="23.2505749308">
		<tag k="alt_name" v="Lerbakke" />
		<tag k="name" v="Leirbakken" />
		<tag k="place" v="locality" />
		<tag k="ssr:stedsnr" v="323407" />
	</node>
	<node id="-785372" lat="69.9227472243" lon="23.2390054818">
		<tag k="alt_name" v="Myrseth" />
		<tag k="name" v="Myrset" />
		<tag k="place" v="farm" />
		<tag k="ssr:stedsnr" v="323323" />
	</node>
	<node id="-786465" lat="69.9629722294" lon="23.3490804581">
		<tag k="name" v="Nygjerdet" />
		<tag k="place" v="farm" />
		<tag k="ssr:stedsnr" v="140408" />
	</node>
	<node id="-787409" lat="69.9418083389" lon="23.3128665743">
		<tag k="name" v="Øverbø" />
		<tag k="place" v="farm" />
		<tag k="ssr:stedsnr" v="504429" />
	</node>
	<node id="-787408" lat="69.9459083376" lon="23.1879860415">
		<tag k="fixme" v="consider place=suburb, village or hamlet" />
		<tag k="loc_name:fkv" v="Jiemulahti" />
		<tag k="loc_name:se" v="Jiemmaluovta" />
		<tag k="name" v="Hjemmeluft" />
		<tag k="name:no" v="Hjemmeluft" />
		<tag k="place" v="quarter" />
		<tag k="ssr:stedsnr" v="504425" />
	</node>
	<node id="-785358" lat="70.026327782" lon="23.5197082492">
		<tag k="name" v="Fjelldal" />
		<tag k="place" v="farm" />
		<tag k="ssr:stedsnr" v="322965" />
	</node>
	<node id="-787405" lat="69.9673027763" lon="23.3314582435">
		<tag k="fixme" v="consider place=suburb, village or hamlet" />
		<tag k="name" v="Aronnes" />
		<tag k="place" v="quarter" />
		<tag k="ssr:stedsnr" v="504396" />
	</node>
	<node id="-787403" lat="69.9501833331" lon="23.3620443495">
		<tag k="name" v="Mobakken" />
		<tag k="place" v="farm" />
		<tag k="ssr:stedsnr" v="504368" />
	</node>
	<node id="-787401" lat="69.8807583357" lon="23.1879693703">
		<tag k="alt_name" v="Forseth" />
		<tag k="name" v="Forset" />
		<tag k="place" v="farm" />
		<tag k="ssr:stedsnr" v="504329" />
	</node>
	<node id="-787400" lat="69.8863944436" lon="23.2015832607">
		<tag k="alt_name" v="Klercks minde" />
		<tag k="name" v="Klerks minne" />
		<tag k="place" v="farm" />
		<tag k="ssr:stedsnr" v="504328" />
	</node>
	<node id="-785351" lat="70.124916669" lon="22.9859054797">
		<tag k="alt_name" v="Gjæran;Gjerand" />
		<tag k="name" v="Gjerdan" />
		<tag k="place" v="isolated_dwelling" />
		<tag k="ssr:stedsnr" v="322728" />
	</node>
	<node id="-785347" lat="70.2080111136" lon="23.2077693621">
		<tag k="name" v="Kvenroren" />
		<tag k="place" v="isolated_dwelling" />
		<tag k="ssr:stedsnr" v="322668" />
	</node>
	<node id="-787394" lat="69.8648583337" lon="22.9573499254">
		<tag k="name" v="Omdal" />
		<tag k="place" v="farm" />
		<tag k="ssr:stedsnr" v="504246" />
	</node>
	<node id="-785340" lat="70.2264972273" lon="23.3652749154">
		<tag k="name" v="Strandheim" />
		<tag k="place" v="isolated_dwelling" />
		<tag k="ssr:stedsnr" v="322571" />
	</node>
	<node id="-785335" lat="70.0762916695" lon="22.5181555023">
		<tag k="fixme" v="multiple name tags, choose one and add the other to alt_name" />
		<tag k="name" v="Myra;Myren vestre" />
		<tag k="place" v="farm" />
		<tag k="ssr:stedsnr" v="322521" />
	</node>
	<node id="-785331" lat="69.9667027794" lon="23.3618110295">
		<tag k="name" v="Aronneskjosen" />
		<tag k="place" v="quarter" />
		<tag k="ssr:stedsnr" v="322395" />
	</node>
	<node id="-785330" lat="69.956202785" lon="23.3042276848">
		<tag k="alt_name" v="Dalsletten" />
		<tag k="name" v="Dalsletta" />
		<tag k="place" v="farm" />
		<tag k="ssr:stedsnr" v="322376" />
	</node>
	<node id="-785328" lat="69.8907944458" lon="23.2127221246">
		<tag k="name" v="Valset" />
		<tag k="place" v="farm" />
		<tag k="ssr:stedsnr" v="322360" />
	</node>
	<node id="-788296" lat="70.3107805553" lon="23.4832165831">
		<tag k="alt_name" v="Ytre Laukeng" />
		<tag k="name" v="Laukeng" />
		<tag k="place" v="hamlet" />
		<tag k="ssr:stedsnr" v="687801" />
	</node>
	<node id="-785326" lat="69.8828694487" lon="22.8998249245">
		<tag k="name" v="Finnkroken" />
		<tag k="place" v="isolated_dwelling" />
		<tag k="ssr:stedsnr" v="322349" />
	</node>
	<node id="-785325" lat="69.8765555552" lon="22.9800971536">
		<tag k="name" v="Vidbu" />
		<tag k="place" v="farm" />
		<tag k="ssr:stedsnr" v="322344" />
	</node>
	<node id="-787372" lat="70.0767361131" lon="22.692024926">
		<tag k="name" v="Ytre Ulvsvåg" />
		<tag k="place" v="farm" />
		<tag k="ssr:stedsnr" v="470839" />
	</node>
	<node id="-785323" lat="69.87769445" lon="23.1977499238">
		<tag k="name" v="Borkhuseng" />
		<tag k="place" v="farm" />
		<tag k="ssr:stedsnr" v="322324" />
	</node>
	<node id="-787370" lat="70.0897166685" lon="22.6442221618">
		<tag k="name" v="Stabbursneset" />
		<tag k="place" v="isolated_dwelling" />
		<tag k="ssr:stedsnr" v="469645" />
	</node>
	<node id="-785321" lat="69.9002527841" lon="23.2624388019">
		<tag k="name" v="Sletta" />
		<tag k="place" v="farm" />
		<tag k="ssr:stedsnr" v="322293" />
	</node>
	<node id="-785320" lat="69.9922527807" lon="23.4890749175">
		<tag k="alt_name" v="Rafsnes, vestre" />
		<tag k="name" v="Vestre Rafsnes" />
		<tag k="place" v="farm" />
		<tag k="ssr:stedsnr" v="322256" />
	</node>
	<node id="-785319" lat="69.8600444525" lon="23.2940415715">
		<tag k="name" v="Bekkvassli" />
		<tag k="place" v="farm" />
		<tag k="ssr:stedsnr" v="322241" />
	</node>
	<node id="-789404" lat="70.2613722253" lon="23.3377610379">
		<tag k="name" v="Rakeluft" />
		<tag k="place" v="farm" />
		<tag k="ssr:stedsnr" v="944109" />
	</node>
	<node id="-789403" lat="70.2824111165" lon="23.4108193691">
		<tag k="name" v="Eielborg" />
		<tag k="place" v="locality" />
		<tag k="ssr:stedsnr" v="944108" />
	</node>
	<node id="-789388" lat="69.9191361123" lon="23.241141588">
		<tag k="name" v="Solstad" />
		<tag k="place" v="farm" />
		<tag k="ssr:stedsnr" v="937781" />
	</node>
	<node id="-789387" lat="69.8917388907" lon="23.2817832524">
		<tag k="name" v="Aaset" />
		<tag k="place" v="farm" />
		<tag k="ssr:stedsnr" v="937713" />
	</node>
	<node id="-789386" lat="69.8892500069" lon="23.2449221414">
		<tag k="name" v="Tangen vestre" />
		<tag k="place" v="farm" />
		<tag k="ssr:stedsnr" v="937705" />
	</node>
	<node id="-785285" lat="70.0781083317" lon="22.487413822">
		<tag k="name" v="Tappeluftnes" />
		<tag k="place" v="isolated_dwelling" />
		<tag k="ssr:stedsnr" v="288654" />
	</node>
	<node id="-789375" lat="69.9690500003" lon="23.3529499184">
		<tag k="name" v="Sandfallmo" />
		<tag k="place" v="farm" />
		<tag k="ssr:stedsnr" v="937216" />
	</node>
	<node id="-789372" lat="69.9228055581" lon="23.4631582321">
		<tag k="name" v="Seterhaug" />
		<tag k="place" v="farm" />
		<tag k="ssr:stedsnr" v="937189" />
	</node>
	<node id="-789371" lat="70.0285111125" lon="23.4078999213">
		<tag k="name" v="Seterbakken" />
		<tag k="place" v="farm" />
		<tag k="ssr:stedsnr" v="937039" />
	</node>
	<node id="-789367" lat="70.3205361166" lon="22.8751388168">
		<tag k="loc_name:se" v="Luovveriidi" />
		<tag k="name" v="Løvlia" />
		<tag k="name:no" v="Løvlia" />
		<tag k="place" v="farm" />
		<tag k="ssr:stedsnr" v="936820" />
	</node>
	<node id="-787280" lat="69.8652166709" lon="23.860130428">
		<tag k="fixme" v="consider tourism=alpine_hut or tourism=chalet" />
		<tag k="name" v="Reinbukkelvhytta" />
		<tag k="ssr:stedsnr" v="450189" />
		<tag k="tourism" v="wilderness_hut" />
	</node>
	<node id="-789362" lat="69.9599861136" lon="23.3092721369">
		<tag k="name" v="Storjord" />
		<tag k="place" v="farm" />
		<tag k="ssr:stedsnr" v="936782" />
	</node>
	<node id="-787312" lat="69.9943805551" lon="22.8734499383">
		<tag k="name" v="Nonskarholmen" />
		<tag k="place" v="locality" />
		<tag k="ssr:stedsnr" v="451211" />
	</node>
	<node id="-787309" lat="69.9213500015" lon="23.4683721296">
		<tag k="name" v="Setermo" />
		<tag k="place" v="farm" />
		<tag k="ssr:stedsnr" v="451175" />
	</node>
	<node id="-789356" lat="69.944202782" lon="23.180827691">
		<tag k="name" v="Steine" />
		<tag k="place" v="farm" />
		<tag k="ssr:stedsnr" v="936484" />
	</node>
	<node id="-789354" lat="69.9782500069" lon="23.5437860037">
		<tag k="name" v="Nussurasletta" />
		<tag k="name:se" v="Nussurasletta" />
		<tag k="place" v="locality" />
		<tag k="ssr:stedsnr" v="936445" />
	</node>
	<node id="-789353" lat="69.8383000048" lon="23.1851110296">
		<tag k="name" v="Bjørknes" />
		<tag k="place" v="locality" />
		<tag k="ssr:stedsnr" v="936394" />
	</node>
	<node id="-789351" lat="69.8514527805" lon="23.1766332384">
		<tag k="name" v="Furunes" />
		<tag k="place" v="locality" />
		<tag k="ssr:stedsnr" v="936389" />
	</node>
	<node id="-789350" lat="69.8782583384" lon="23.1844749301">
		<tag k="name" v="Elvevold" />
		<tag k="place" v="farm" />
		<tag k="ssr:stedsnr" v="936388" />
	</node>
	<node id="-787301" lat="69.9487555579" lon="23.3269749177">
		<tag k="name" v="Bjørnengen" />
		<tag k="place" v="farm" />
		<tag k="ssr:stedsnr" v="450786" />
	</node>
	<node id="-787300" lat="69.9467000078" lon="23.3627943512">
		<tag k="name" v="Raipasin-tausta" />
		<tag k="name:fkv" v="Raipasin-tausta" />
		<tag k="place" v="hamlet" />
		<tag k="ssr:stedsnr" v="450784" />
	</node>
	<node id="-789344" lat="69.9256055608" lon="23.3177665779">
		<tag k="name" v="Volden" />
		<tag k="place" v="farm" />
		<tag k="ssr:stedsnr" v="936206" />
	</node>
	<node id="-789343" lat="69.927977783" lon="23.3133054586">
		<tag k="name" v="Rosten" />
		<tag k="place" v="farm" />
		<tag k="ssr:stedsnr" v="936204" />
	</node>
	<node id="-789341" lat="69.9368638944" lon="23.3082249259">
		<tag k="name" v="Kjosheim" />
		<tag k="place" v="farm" />
		<tag k="ssr:stedsnr" v="936197" />
	</node>
	<node id="-789340" lat="69.9350777838" lon="23.3264804682">
		<tag k="name" v="Risbakken" />
		<tag k="place" v="farm" />
		<tag k="ssr:stedsnr" v="936195" />
	</node>
	<node id="-789339" lat="69.9253555588" lon="23.2417999286">
		<tag k="name" v="Myreng" />
		<tag k="place" v="farm" />
		<tag k="ssr:stedsnr" v="936191" />
	</node>
	<node id="-785242" lat="69.9449638919" lon="23.1968082623">
		<tag k="name" v="Myreng" />
		<tag k="place" v="farm" />
		<tag k="ssr:stedsnr" v="269494" />
	</node>
	<node id="-785241" lat="69.9455138915" lon="23.1867304662">
		<tag k="name" v="Hjemmeluft øvre" />
		<tag k="place" v="farm" />
		<tag k="ssr:stedsnr" v="269491" />
	</node>
	<node id="-785240" lat="69.9850194448" lon="23.0924637981">
		<tag k="alt_name:no" v="Kidelv" />
		<tag k="loc_name:se" v="Gihccejohka" />
		<tag k="name" v="Kidelven" />
		<tag k="name:no" v="Kidelven" />
		<tag k="place" v="farm" />
		<tag k="ssr:stedsnr" v="269464" />
	</node>
	<node id="-785239" lat="70.0122722251" lon="23.557630445">
		<tag k="name" v="Stangnes" />
		<tag k="place" v="farm" />
		<tag k="ssr:stedsnr" v="269459" />
	</node>
	<node id="-785237" lat="69.8445500049" lon="23.3545776961">
		<tag k="name" v="Sokelma" />
		<tag k="place" v="isolated_dwelling" />
		<tag k="ssr:stedsnr" v="269773" />
	</node>
	<node id="-787284" lat="69.8695527774" lon="23.311361021">
		<tag k="name" v="Frydenlund" />
		<tag k="place" v="farm" />
		<tag k="ssr:stedsnr" v="450314" />
	</node>
	<node id="-785235" lat="69.8606722233" lon="23.3280832472">
		<tag k="name" v="Skogsletten" />
		<tag k="place" v="farm" />
		<tag k="ssr:stedsnr" v="269759" />
	</node>
	<node id="-785233" lat="69.8363444484" lon="23.1336221303">
		<tag k="name" v="Skogstue" />
		<tag k="place" v="isolated_dwelling" />
		<tag k="ssr:stedsnr" v="269420" />
	</node>
	<node id="-789328" lat="70.2654333364" lon="23.3764610139">
		<tag k="name" v="Nygård" />
		<tag k="place" v="hamlet" />
		<tag k="ssr:stedsnr" v="934998" />
	</node>
	<node id="-787279" lat="70.0277388951" lon="22.9265554832">
		<tag k="name" v="Gammelheimen" />
		<tag k="place" v="farm" />
		<tag k="ssr:stedsnr" v="450178" />
	</node>
	<node id="-787278" lat="70.0421083373" lon="22.9293221528">
		<tag k="name" v="Blåberget" />
		<tag k="place" v="hamlet" />
		<tag k="ssr:stedsnr" v="450151" />
	</node>
	<node id="-787275" lat="69.9560916715" lon="23.4196665701">
		<tag k="name" v="Sagli" />
		<tag k="place" v="farm" />
		<tag k="ssr:stedsnr" v="450052" />
	</node>
	<node id="-787274" lat="70.0329972221" lon="22.9547916037">
		<tag k="name" v="Halsemarka" />
		<tag k="place" v="farm" />
		<tag k="ssr:stedsnr" v="450049" />
	</node>
	<node id="-787272" lat="70.0300166708" lon="23.5233943594">
		<tag k="name" v="Bjerkelid" />
		<tag k="place" v="farm" />
		<tag k="ssr:stedsnr" v="450015" />
	</node>
	<node id="-789316" lat="70.3372750001" lon="22.8329332769">
		<tag k="name" v="Bollu" />
		<tag k="name:se" v="Bollu" />
		<tag k="old_name:se" v="Bållo" />
		<tag k="place" v="farm" />
		<tag k="ssr:stedsnr" v="930882" />
	</node>
	<node id="-787262" lat="70.317713888" lon="23.4692749144">
		<tag k="name" v="Saraset" />
		<tag k="place" v="isolated_dwelling" />
		<tag k="ssr:stedsnr" v="445797" />
	</node>
	<node id="-789308" lat="70.2947333355" lon="23.5359943636">
		<tag k="name" v="Marivika" />
		<tag k="place" v="farm" />
		<tag k="ssr:stedsnr" v="930816" />
	</node>
	<node id="-787254" lat="70.0141972264" lon="23.5276276741">
		<tag k="loc_name:se" v="Láhtetnjárga" />
		<tag k="name" v="Bunes" />
		<tag k="name:no" v="Bunes" />
		<tag k="place" v="farm" />
		<tag k="ssr:stedsnr" v="444981" />
	</node>
	<node id="-786568" lat="69.9291027809" lon="23.4689415613">
		<tag k="name" v="Juomakentta" />
		<tag k="place" v="farm" />
		<tag k="ssr:stedsnr" v="147084" />
	</node>
	<node id="-788096" lat="69.8794472222" lon="23.1878165749">
		<tag k="name" v="Nyheim" />
		<tag k="place" v="farm" />
		<tag k="ssr:stedsnr" v="632415" />
	</node>
	<node id="-787243" lat="70.337794442" lon="22.8476249389">
		<tag k="name" v="Vinterset" />
		<tag k="place" v="farm" />
		<tag k="ssr:stedsnr" v="444892" />
	</node>
	<node id="-789282" lat="69.9389972241" lon="23.028644374">
		<tag k="fixme" v="consider place=hamlet" />
		<tag k="loc_name:fkv" v="Kaavuono" />
		<tag k="loc_name:se" v="Gávvuonna" />
		<tag k="name" v="Kåfjord" />
		<tag k="name:no" v="Kåfjord" />
		<tag k="place" v="village" />
		<tag k="ssr:stedsnr" v="930448" />
	</node>
	<node id="-789280" lat="69.9358638887" lon="23.3990193413">
		<tag k="name" v="Moen" />
		<tag k="place" v="farm" />
		<tag k="ssr:stedsnr" v="930439" />
	</node>
	<node id="-789277" lat="69.9113333404" lon="23.0397443678">
		<tag k="name" v="Valset" />
		<tag k="place" v="farm" />
		<tag k="ssr:stedsnr" v="930351" />
	</node>
	<node id="-787220" lat="70.1150500056" lon="23.3815443719">
		<tag k="fixme" v="consider place=hamlet" />
		<tag k="loc_name:fkv" v="Rairo" />
		<tag k="loc_name:se" v="Ráiro" />
		<tag k="name" v="Kviby" />
		<tag k="name:no" v="Kviby" />
		<tag k="place" v="village" />
		<tag k="ssr:stedsnr" v="444716" />
	</node>
	<node id="-788270" lat="69.8680944481" lon="22.9716193667">
		<tag k="name" v="Nordhus" />
		<tag k="place" v="farm" />
		<tag k="ssr:stedsnr" v="687277" />
	</node>
	<node id="-787218" lat="70.120900003" lon="23.4044054569">
		<tag k="name" v="Grøneng" />
		<tag k="place" v="farm" />
		<tag k="ssr:stedsnr" v="444711" />
	</node>
	<node id="-787072" lat="70.2420138918" lon="23.5084276935">
		<tag k="name" v="Elvestrand" />
		<tag k="place" v="isolated_dwelling" />
		<tag k="ssr:stedsnr" v="262799" />
	</node>
	<node id="-787208" lat="70.1837999988" lon="23.3571332491">
		<tag k="name" v="Kobberøya" />
		<tag k="place" v="farm" />
		<tag k="ssr:stedsnr" v="444643" />
	</node>
	<node id="-787205" lat="70.1404972255" lon="23.2301249263">
		<tag k="name" v="Bukta" />
		<tag k="place" v="hamlet" />
		<tag k="ssr:stedsnr" v="444630" />
	</node>
	<node id="-789243" lat="70.0223500005" lon="23.3633665741">
		<tag k="loc_name:fkv" v="Ruoslahti" />
		<tag k="name" v="Russeluft - Ruoššaluokta" />
		<tag k="name:no" v="Russeluft" />
		<tag k="name:se" v="Ruoššaluokta" />
		<tag k="place" v="hamlet" />
		<tag k="ssr:stedsnr" v="929755" />
	</node>
	<node id="-787193" lat="70.0197583336" lon="22.2938666084">
		<tag k="alt_name" v="Fjellbakken" />
		<tag k="name" v="Garmo" />
		<tag k="place" v="farm" />
		<tag k="ssr:stedsnr" v="444588" />
	</node>
	<node id="-787189" lat="70.2248277829" lon="23.3084665822">
		<tag k="name" v="Utheim" />
		<tag k="place" v="isolated_dwelling" />
		<tag k="ssr:stedsnr" v="444559" />
	</node>
	<node id="-786558" lat="69.9453694476" lon="23.255727681">
		<tag k="name" v="Pahtakorva" />
		<tag k="name:fkv" v="Pahtakorva" />
		<tag k="place" v="hamlet" />
		<tag k="ssr:stedsnr" v="146771" />
	</node>
	<node id="-789233" lat="69.816955559" lon="23.6208443262">
		<tag k="name" v="Sandiagården" />
		<tag k="place" v="isolated_dwelling" />
		<tag k="ssr:stedsnr" v="929723" />
	</node>
	<node id="-787182" lat="70.0666666673" lon="22.5688304854">
		<tag k="fixme" v="multiple name tags, choose one and add the other to alt_name" />
		<tag k="name" v="Bånes;Bånes søndre" />
		<tag k="place" v="isolated_dwelling" />
		<tag k="ssr:stedsnr" v="444491" />
	</node>
	<node id="-787181" lat="69.9776583407" lon="23.3040415779">
		<tag k="name" v="Bukta" />
		<tag k="place" v="suburb" />
		<tag k="ssr:stedsnr" v="444475" />
	</node>
	<node id="-789227" lat="69.910936116" lon="23.4921499036">
		<tag k="alt_name" v="Gammelseteren" />
		<tag k="name" v="Gammelsætra" />
		<tag k="place" v="locality" />
		<tag k="ssr:stedsnr" v="929650" />
	</node>
	<node id="-789225" lat="69.9732805572" lon="23.4834749136">
		<tag k="name" v="Elvenes" />
		<tag k="place" v="farm" />
		<tag k="ssr:stedsnr" v="929644" />
	</node>
	<node id="-787171" lat="69.9459972212" lon="23.4079137978">
		<tag k="name" v="Bakkely" />
		<tag k="place" v="farm" />
		<tag k="ssr:stedsnr" v="444413" />
	</node>
	<node id="-787168" lat="69.925711116" lon="23.2231110298">
		<tag k="name" v="Åsheim" />
		<tag k="place" v="farm" />
		<tag k="ssr:stedsnr" v="444395" />
	</node>
	<node id="-787166" lat="69.9377305598" lon="23.2263832514">
		<tag k="name" v="Bråten" />
		<tag k="place" v="farm" />
		<tag k="ssr:stedsnr" v="444393" />
	</node>
	<node id="-787165" lat="69.9340166678" lon="23.2383471424">
		<tag k="alt_name" v="Storgjerdet søndre" />
		<tag k="name" v="Søndre Storgjerdet" />
		<tag k="old_name" v="Storgjerdet, s" />
		<tag k="place" v="farm" />
		<tag k="ssr:stedsnr" v="444387" />
	</node>
	<node id="-787164" lat="69.9655611153" lon="23.1127582597">
		<tag k="name" v="Eide" />
		<tag k="place" v="isolated_dwelling" />
		<tag k="ssr:stedsnr" v="444385" />
	</node>
	<node id="-787161" lat="69.9494333403" lon="23.3409304668">
		<tag k="leisure" v="pitch" />
		<tag k="name" v="Raipatun" />
		<tag k="ssr:stedsnr" v="444370" />
	</node>
	<node id="-789206" lat="70.2254194456" lon="23.3828582576">
		<tag k="name" v="Øyra" />
		<tag k="place" v="farm" />
		<tag k="ssr:stedsnr" v="929548" />
	</node>
	<node id="-787157" lat="69.9203111173" lon="23.2812110188">
		<tag k="alt_name" v="Litlebakken" />
		<tag k="name" v="Lillebakken" />
		<tag k="place" v="isolated_dwelling" />
		<tag k="ssr:stedsnr" v="444305" />
	</node>
	<node id="-787156" lat="69.9127388923" lon="23.029488811">
		<tag k="name" v="Gryteng" />
		<tag k="place" v="farm" />
		<tag k="ssr:stedsnr" v="444295" />
	</node>
	<node id="-789203" lat="70.0742499989" lon="22.6729305013">
		<tag k="fixme" v="multiple name tags, choose one and add the other to alt_name" />
		<tag k="name" v="Indre Ulvsvåg;Ulvsvåg" />
		<tag k="place" v="hamlet" />
		<tag k="ssr:stedsnr" v="929501" />
	</node>
	<node id="-789202" lat="70.076866671" lon="22.5748888338">
		<tag k="name" v="Langelva" />
		<tag k="place" v="isolated_dwelling" />
		<tag k="ssr:stedsnr" v="929499" />
	</node>
	<node id="-788259" lat="70.030155558" lon="23.5099804479">
		<tag k="name" v="Elvehaugen" />
		<tag k="place" v="farm" />
		<tag k="ssr:stedsnr" v="686973" />
	</node>
	<node id="-789200" lat="70.0616888874" lon="22.517772153">
		<tag k="alt_name" v="Kjerringdal, yt" />
		<tag k="name" v="Ytre Kjerringdal" />
		<tag k="old_name" v="Kjerringdal" />
		<tag k="place" v="farm" />
		<tag k="ssr:stedsnr" v="929487" />
	</node>
	<node id="-786552" lat="69.9482777761" lon="23.1814360401">
		<tag k="name" v="Hjemmeluft nedre" />
		<tag k="place" v="isolated_dwelling" />
		<tag k="ssr:stedsnr" v="146431" />
	</node>
	<node id="-789194" lat="70.2059500039" lon="22.6210749483">
		<tag k="name" v="Sommarbukt" />
		<tag k="place" v="locality" />
		<tag k="ssr:stedsnr" v="929388" />
	</node>
	<node id="-789187" lat="69.8902666689" lon="23.2474471448">
		<tag k="fixme" v="multiple name tags, choose one and add the other to alt_name" />
		<tag k="name" v="Tangen;Tangen østre" />
		<tag k="place" v="farm" />
		<tag k="ssr:stedsnr" v="929337" />
	</node>
	<node id="-786891" lat="69.9213388892" lon="23.2778971451">
		<tag k="name" v="Minde" />
		<tag k="place" v="farm" />
		<tag k="ssr:stedsnr" v="208760" />
	</node>
	<node id="-787232" lat="70.0296416674" lon="23.4035638041">
		<tag k="name" v="Dalshaug" />
		<tag k="place" v="isolated_dwelling" />
		<tag k="ssr:stedsnr" v="444795" />
	</node>
	<node id="-787123" lat="69.7550472233" lon="23.9331443161">
		<tag k="fixme" v="consider tourism=alpine_hut or tourism=chalet" />
		<tag k="loc_name" v="Jotka fjellstue" />
		<tag k="name" v="Joatkajávri fjellstue" />
		<tag k="old_name" v="Joatkajávri;Joatkajavri fjellstue" />
		<tag k="ssr:stedsnr" v="479746" />
		<tag k="tourism" v="wilderness_hut" />
	</node>
	<node id="-789169" lat="70.0409500063" lon="22.9263638222">
		<tag k="name" v="Blåberg" />
		<tag k="place" v="farm" />
		<tag k="ssr:stedsnr" v="929805" />
	</node>
	<node id="-787229" lat="70.0042638949" lon="23.0992276973">
		<tag k="name" v="Ølvik" />
		<tag k="place" v="farm" />
		<tag k="ssr:stedsnr" v="444770" />
	</node>
	<node id="-787114" lat="70.3328138926" lon="22.8169027086">
		<tag k="name" v="Myrvoll" />
		<tag k="place" v="farm" />
		<tag k="ssr:stedsnr" v="268799" />
	</node>
	<node id="-789161" lat="70.0569416712" lon="22.4561999575">
		<tag k="loc_name:se" v="Siskkit Áhkkávággi" />
		<tag k="name" v="Indre Kjerringdal" />
		<tag k="name:no" v="Indre Kjerringdal" />
		<tag k="place" v="hamlet" />
		<tag k="ssr:stedsnr" v="880300" />
	</node>
	<node id="-787112" lat="69.9612500023" lon="23.335986027">
		<tag k="name" v="Energjerdet" />
		<tag k="place" v="hamlet" />
		<tag k="ssr:stedsnr" v="268788" />
	</node>
	<node id="-787110" lat="69.9270083334" lon="23.2198471452">
		<tag k="name" v="Nyeng" />
		<tag k="place" v="farm" />
		<tag k="ssr:stedsnr" v="268774" />
	</node>
	<node id="-787109" lat="69.9349194441" lon="23.2825193576">
		<tag k="name" v="England vestre" />
		<tag k="place" v="farm" />
		<tag k="ssr:stedsnr" v="268770" />
	</node>
	<node id="-787108" lat="69.9379972273" lon="23.2483276888">
		<tag k="name" v="Elvejord" />
		<tag k="place" v="farm" />
		<tag k="ssr:stedsnr" v="268768" />
	</node>
	<node id="-787106" lat="69.8846972215" lon="23.2042193492">
		<tag k="name" v="Østvold" />
		<tag k="place" v="farm" />
		<tag k="ssr:stedsnr" v="268372" />
	</node>
	<node id="-787105" lat="69.9586805601" lon="23.0974971431">
		<tag k="name" v="Kildeengen" />
		<tag k="place" v="farm" />
		<tag k="ssr:stedsnr" v="268360" />
	</node>
	<node id="-789152" lat="70.15798889" lon="23.2790138126">
		<tag k="name" v="Rasmusgammen" />
		<tag k="place" v="locality" />
		<tag k="ssr:stedsnr" v="876892" />
	</node>
	<node id="-789151" lat="70.1384083388" lon="23.3264554647">
		<tag k="name" v="Mikkelsøy" />
		<tag k="place" v="hamlet" />
		<tag k="ssr:stedsnr" v="876885" />
	</node>
	<node id="-787102" lat="69.9434000037" lon="23.3667443467">
		<tag k="name" v="Bergmo" />
		<tag k="place" v="farm" />
		<tag k="ssr:stedsnr" v="268212" />
	</node>
	<node id="-787101" lat="69.9363527774" lon="23.3033276995">
		<tag k="name" v="Bygningsholmen" />
		<tag k="place" v="farm" />
		<tag k="ssr:stedsnr" v="268211" />
	</node>
	<node id="-787098" lat="70.1320916714" lon="22.9928415923">
		<tag k="name" v="Storeng" />
		<tag k="place" v="hamlet" />
		<tag k="ssr:stedsnr" v="267998" />
	</node>
	<node id="-789145" lat="69.860186112" lon="23.3371749023">
		<tag k="name" v="Fjelldalen" />
		<tag k="place" v="farm" />
		<tag k="ssr:stedsnr" v="876751" />
	</node>
	<node id="-789144" lat="70.1661249994" lon="23.2882276827">
		<tag k="historic" v="shieling" />
		<tag k="name" v="Sætra" />
		<tag k="place" v="locality" />
		<tag k="ssr:stedsnr" v="876628" />
	</node>
	<node id="-787095" lat="70.2642750062" lon="23.4192027028">
		<tag k="name" v="Solli" />
		<tag k="place" v="farm" />
		<tag k="ssr:stedsnr" v="263822" />
	</node>
	<node id="-789139" lat="69.945802778" lon="23.194336019">
		<tag k="name" v="Nyeng" />
		<tag k="place" v="farm" />
		<tag k="ssr:stedsnr" v="876506" />
	</node>
	<node id="-789138" lat="69.9385944439" lon="23.128236037">
		<tag k="name" v="Kvenvikbukta" />
		<tag k="place" v="locality" />
		<tag k="ssr:stedsnr" v="876463" />
	</node>
	<node id="-787089" lat="70.1124972281" lon="23.4311388102">
		<tag k="name" v="Nybrott" />
		<tag k="place" v="isolated_dwelling" />
		<tag k="ssr:stedsnr" v="262941" />
	</node>
	<node id="-789136" lat="69.8760617098" lon="23.1810316407">
		<tag k="name" v="Lundmark" />
		<tag k="place" v="farm" />
		<tag k="ssr:stedsnr" v="876424" />
	</node>
	<node id="-787565" lat="70.1229138955" lon="23.3993887932">
		<tag k="name" v="Hesjebakken" />
		<tag k="place" v="farm" />
		<tag k="ssr:stedsnr" v="511466" />
	</node>
	<node id="-789128" lat="69.8717277779" lon="23.2947443464">
		<tag k="name" v="Danielsletten" />
		<tag k="place" v="farm" />
		<tag k="ssr:stedsnr" v="876347" />
	</node>
	<node id="-789127" lat="69.8756083369" lon="23.2907526959">
		<tag k="name" v="Bekkeli" />
		<tag k="place" v="farm" />
		<tag k="ssr:stedsnr" v="876345" />
	</node>
	<node id="-789125" lat="70.0987027826" lon="23.3481749248">
		<tag k="name" v="Selbakken" />
		<tag k="place" v="farm" />
		<tag k="ssr:stedsnr" v="876202" />
	</node>
	<node id="-787076" lat="70.3233333384" lon="23.5178915714">
		<tag k="name" v="Gjerdebakken" />
		<tag k="place" v="isolated_dwelling" />
		<tag k="ssr:stedsnr" v="262819" />
	</node>
	<node id="-789120" lat="70.0969777834" lon="23.3519610216">
		<tag k="name" v="Ringberget" />
		<tag k="place" v="farm" />
		<tag k="ssr:stedsnr" v="876147" />
	</node>
	<node id="-787071" lat="70.1314833398" lon="22.9925749248">
		<tag k="name" v="Vollstrand" />
		<tag k="place" v="farm" />
		<tag k="ssr:stedsnr" v="262782" />
	</node>
	<node id="-789118" lat="69.9227083364" lon="23.4776999167">
		<tag k="name" v="Myrseth" />
		<tag k="place" v="farm" />
		<tag k="ssr:stedsnr" v="876115" />
	</node>
	<node id="-789113" lat="69.9497250023" lon="23.2493415892">
		<tag k="name" v="Thomasbakken" />
		<tag k="place" v="quarter" />
		<tag k="ssr:stedsnr" v="875790" />
	</node>
	<node id="-789112" lat="69.9466583382" lon="23.3714971221">
		<tag k="name" v="Øvre Mølledalen" />
		<tag k="place" v="farm" />
		<tag k="ssr:stedsnr" v="875775" />
	</node>
	<node id="-789111" lat="69.937708336" lon="23.2404638001">
		<tag k="name" v="Storgjerdet mellom" />
		<tag k="place" v="farm" />
		<tag k="ssr:stedsnr" v="875764" />
	</node>
	<node id="-787062" lat="69.9348388899" lon="23.4366693562">
		<tag k="name" v="Solheim" />
		<tag k="place" v="farm" />
		<tag k="ssr:stedsnr" v="262702" />
	</node>
	<node id="-787060" lat="69.9220777793" lon="23.4851860096">
		<tag k="alt_name" v="Mandsverk" />
		<tag k="name" v="Mannsverk" />
		<tag k="place" v="farm" />
		<tag k="ssr:stedsnr" v="262696" />
	</node>
	<node id="-786878" lat="70.1049777854" lon="23.5605276774">
		<tag k="name" v="Solhov" />
		<tag k="place" v="isolated_dwelling" />
		<tag k="ssr:stedsnr" v="208448" />
	</node>
	<node id="-789100" lat="69.9394500047" lon="23.3006360289">
		<tag k="name" v="Bakholmen" />
		<tag k="place" v="farm" />
		<tag k="ssr:stedsnr" v="875219" />
	</node>
	<node id="-789099" lat="69.8502222201" lon="22.9096999339">
		<tag k="name" v="Skogstue" />
		<tag k="place" v="isolated_dwelling" />
		<tag k="ssr:stedsnr" v="875162" />
	</node>
	<node id="-789097" lat="69.8891194435" lon="23.4409804667">
		<tag k="historic" v="shieling" />
		<tag k="name" v="Seter" />
		<tag k="place" v="locality" />
		<tag k="ssr:stedsnr" v="875127" />
	</node>
	<node id="-789096" lat="70.1306916718" lon="22.9911221596">
		<tag k="name" v="Steingjerdet" />
		<tag k="place" v="farm" />
		<tag k="ssr:stedsnr" v="875108" />
	</node>
	<node id="-789095" lat="69.9365583375" lon="23.4191749169">
		<tag k="name" v="Rognskog" />
		<tag k="place" v="hamlet" />
		<tag k="ssr:stedsnr" v="875096" />
	</node>
	<node id="-789093" lat="69.9290972288" lon="23.4416888037">
		<tag k="name" v="Storskogen" />
		<tag k="place" v="farm" />
		<tag k="ssr:stedsnr" v="875083" />
	</node>
	<node id="-789091" lat="69.9622111136" lon="23.4789026699">
		<tag k="name" v="Neulagoppe" />
		<tag k="place" v="locality" />
		<tag k="ssr:stedsnr" v="875065" />
	</node>
	<node id="-787042" lat="70.0184749993" lon="22.3081249385">
		<tag k="alt_name" v="Bekkeplassen nordre" />
		<tag k="name" v="Bekkeplass" />
		<tag k="place" v="farm" />
		<tag k="ssr:stedsnr" v="262618" />
	</node>
	<node id="-787037" lat="70.217983337" lon="23.2195554737">
		<tag k="name" v="Myrvoll" />
		<tag k="place" v="farm" />
		<tag k="ssr:stedsnr" v="262580" />
	</node>
	<node id="-788239" lat="69.8136361157" lon="23.4815388048">
		<tag k="fixme" v="consider place=hamlet" />
		<tag k="name" v="Gargia - Karkia" />
		<tag k="name:fkv" v="Karkia" />
		<tag k="name:no" v="Gargia" />
		<tag k="place" v="village" />
		<tag k="ssr:stedsnr" v="686726" />
	</node>
	<node id="-789078" lat="70.2591277816" lon="23.3492249095">
		<tag k="name" v="Myrset" />
		<tag k="place" v="farm" />
		<tag k="ssr:stedsnr" v="869948" />
	</node>
	<node id="-786873" lat="69.8832833367" lon="23.1970388053">
		<tag k="name" v="Seterbakken" />
		<tag k="place" v="farm" />
		<tag k="ssr:stedsnr" v="208399" />
	</node>
	<node id="-787025" lat="69.9271222271" lon="23.104905469">
		<tag k="fixme" v="consider place=hamlet" />
		<tag k="loc_name:fkv" v="Suislahti" />
		<tag k="name" v="Kvenvik - Šuovošluovta" />
		<tag k="name:no" v="Kvenvik" />
		<tag k="name:se" v="Šuovošluovta" />
		<tag k="place" v="village" />
		<tag k="ssr:stedsnr" v="262435" />
	</node>
	<node id="-787024" lat="69.9239166733" lon="23.2608110321">
		<tag k="name" v="Molund" />
		<tag k="place" v="farm" />
		<tag k="ssr:stedsnr" v="262431" />
	</node>
	<node id="-787022" lat="69.9636388871" lon="23.3823610261">
		<tag k="name" v="Kronstad" />
		<tag k="place" v="suburb" />
		<tag k="ssr:stedsnr" v="262406" />
	</node>
	<node id="-789069" lat="70.029172222" lon="23.4272110105">
		<tag k="name" v="Bjørkeli" />
		<tag k="place" v="farm" />
		<tag k="ssr:stedsnr" v="869901" />
	</node>
	<node id="-789068" lat="70.0283805604" lon="23.0658971516">
		<tag k="name" v="Kråknes" />
		<tag k="place" v="farm" />
		<tag k="ssr:stedsnr" v="869790" />
	</node>
	<node id="-787019" lat="69.9573861161" lon="23.4170387884">
		<tag k="name" v="Saga" />
		<tag k="place" v="farm" />
		<tag k="ssr:stedsnr" v="262391" />
	</node>
	<node id="-789065" lat="70.1282388899" lon="23.3754971244">
		<tag k="name" v="Bjørnsnara" />
		<tag k="place" v="farm" />
		<tag k="ssr:stedsnr" v="869763" />
	</node>
	<node id="-787016" lat="69.9566583319" lon="23.2660526963">
		<tag k="name" v="Bjerkeng" />
		<tag k="place" v="farm" />
		<tag k="ssr:stedsnr" v="262382" />
	</node>
	<node id="-786247" lat="70.0956444485" lon="23.3583471239">
		<tag k="alt_name" v="Litledalen" />
		<tag k="name" v="Lilledal" />
		<tag k="place" v="farm" />
		<tag k="ssr:stedsnr" v="80710" />
	</node>
	<node id="-789061" lat="70.1187972256" lon="23.4060471385">
		<tag k="name" v="Hillestad" />
		<tag k="place" v="farm" />
		<tag k="ssr:stedsnr" v="869748" />
	</node>
	<node id="-787012" lat="69.8846388924" lon="23.1991360323">
		<tag k="name" v="Sæterbakken" />
		<tag k="place" v="farm" />
		<tag k="ssr:stedsnr" v="262349" />
	</node>
	<node id="-787011" lat="69.8836944451" lon="23.1760721516">
		<tag k="name" v="Furuheim" />
		<tag k="place" v="farm" />
		<tag k="ssr:stedsnr" v="262345" />
	</node>
	<node id="-789057" lat="70.0749194497" lon="22.9819721602">
		<tag k="name" v="Sørenstykket" />
		<tag k="place" v="isolated_dwelling" />
		<tag k="ssr:stedsnr" v="869723" />
	</node>
	<node id="-787008" lat="69.8706111125" lon="23.3074304746">
		<tag k="name" v="Heggelund" />
		<tag k="place" v="farm" />
		<tag k="ssr:stedsnr" v="262339" />
	</node>
	<node id="-789053" lat="70.2097583325" lon="23.2078860236">
		<tag k="name" v="Steinvika" />
		<tag k="place" v="hamlet" />
		<tag k="ssr:stedsnr" v="869706" />
	</node>
	<node id="-786999" lat="69.8647416663" lon="23.3188276971">
		<tag k="name" v="Solheim" />
		<tag k="place" v="farm" />
		<tag k="ssr:stedsnr" v="262269" />
	</node>
	<node id="-789046" lat="70.0075750008" lon="22.3282249377">
		<tag k="name" v="Skoglund" />
		<tag k="place" v="farm" />
		<tag k="ssr:stedsnr" v="869643" />
	</node>
	<node id="-786988" lat="69.9986888891" lon="22.3350305053">
		<tag k="name" v="Sletta" />
		<tag k="place" v="farm" />
		<tag k="ssr:stedsnr" v="262018" />
	</node>
	<node id="-789035" lat="69.9388333394" lon="23.182047138">
		<tag k="name" v="Skogstad" />
		<tag k="place" v="farm" />
		<tag k="ssr:stedsnr" v="869459" />
	</node>
	<node id="-789032" lat="69.9596416711" lon="23.297536033">
		<tag k="name" v="Flaten" />
		<tag k="place" v="farm" />
		<tag k="ssr:stedsnr" v="869446" />
	</node>
	<node id="-789023" lat="69.9256500006" lon="23.273805455">
		<tag k="name" v="Heimnes" />
		<tag k="place" v="farm" />
		<tag k="ssr:stedsnr" v="869375" />
	</node>
	<node id="-789021" lat="69.9186805618" lon="23.2560249156">
		<tag k="name" v="Solheim" />
		<tag k="place" v="farm" />
		<tag k="ssr:stedsnr" v="869373" />
	</node>
	<node id="-789017" lat="69.899249999" lon="23.018524921">
		<tag k="name" v="Vestermo" />
		<tag k="place" v="farm" />
		<tag k="ssr:stedsnr" v="869349" />
	</node>
	<node id="-786951" lat="70.0203111093" lon="22.3028305014">
		<tag k="name" v="Myra" />
		<tag k="place" v="farm" />
		<tag k="ssr:stedsnr" v="229722" />
	</node>
	<node id="-786950" lat="70.011783335" lon="22.3182916163">
		<tag k="name" v="Moen" />
		<tag k="place" v="farm" />
		<tag k="ssr:stedsnr" v="229723" />
	</node>
	<node id="-786949" lat="70.0300083373" lon="22.2815527285">
		<tag k="name" v="Laukeng" />
		<tag k="place" v="farm" />
		<tag k="ssr:stedsnr" v="228752" />
	</node>
	<node id="-786948" lat="70.0319444466" lon="22.319880505">
		<tag k="name" v="Indre Oldernes" />
		<tag k="place" v="farm" />
		<tag k="ssr:stedsnr" v="228753" />
	</node>
	<node id="-786947" lat="70.0534388929" lon="22.3250527256">
		<tag k="name" v="Fjellsletta" />
		<tag k="place" v="isolated_dwelling" />
		<tag k="ssr:stedsnr" v="228744" />
	</node>
	<node id="-786944" lat="70.0931555595" lon="23.1936526937">
		<tag k="name" v="Solheim" />
		<tag k="place" v="isolated_dwelling" />
		<tag k="ssr:stedsnr" v="227982" />
	</node>
	<node id="-786943" lat="69.9286083395" lon="23.4837249097">
		<tag k="name" v="Holmestad" />
		<tag k="place" v="farm" />
		<tag k="ssr:stedsnr" v="269047" />
	</node>
	<node id="-786857" lat="70.0587166718" lon="22.9597554904">
		<tag k="historic" v="shieling" />
		<tag k="name" v="Finnsjåsetra" />
		<tag k="place" v="locality" />
		<tag k="ssr:stedsnr" v="208096" />
	</node>
	<node id="-788290" lat="70.0698000004" lon="22.9881415984">
		<tag k="alt_name:no" v="Finnsjåen" />
		<tag k="loc_name:no" v="Finnsjå" />
		<tag k="loc_name:se" v="Finskievvu" />
		<tag k="name" v="Finnskjåen" />
		<tag k="name:no" v="Finnskjåen" />
		<tag k="place" v="farm" />
		<tag k="ssr:stedsnr" v="687707" />
	</node>
	<node id="-788965" lat="70.2447222286" lon="23.4479999122">
		<tag k="name" v="Mikkelgalnes" />
		<tag k="place" v="isolated_dwelling" />
		<tag k="ssr:stedsnr" v="835944" />
	</node>
	<node id="-788963" lat="70.0765916664" lon="22.5120804968">
		<tag k="name" v="Sennastein" />
		<tag k="place" v="isolated_dwelling" />
		<tag k="ssr:stedsnr" v="835724" />
	</node>
	<node id="-786907" lat="70.2857277795" lon="23.4362749006">
		<tag k="name" v="Gammeleng" />
		<tag k="place" v="farm" />
		<tag k="ssr:stedsnr" v="216097" />
	</node>
	<node id="-786906" lat="70.2536944498" lon="23.263755482">
		<tag k="name" v="Steinvik" />
		<tag k="place" v="locality" />
		<tag k="ssr:stedsnr" v="216093" />
	</node>
	<node id="-786895" lat="69.9154888882" lon="23.4729943478">
		<tag k="name" v="Øvergård" />
		<tag k="place" v="farm" />
		<tag k="ssr:stedsnr" v="209104" />
	</node>
	<node id="-786892" lat="69.9196916691" lon="23.2557637928">
		<tag k="name" v="Ryddeland" />
		<tag k="place" v="farm" />
		<tag k="ssr:stedsnr" v="208761" />
	</node>
	<node id="-788939" lat="69.9257055624" lon="23.4828054664">
		<tag k="fixme" v="consider place=hamlet" />
		<tag k="name" v="Mannsverk" />
		<tag k="place" v="village" />
		<tag k="ssr:stedsnr" v="819341" />
	</node>
	<node id="-786887" lat="69.892588887" lon="23.2204471404">
		<tag k="name" v="Nymoen" />
		<tag k="place" v="farm" />
		<tag k="ssr:stedsnr" v="208649" />
	</node>
	<node id="-786884" lat="70.1154777825" lon="23.4106693497">
		<tag k="name" v="Per Johnsa-stykket" />
		<tag k="place" v="farm" />
		<tag k="ssr:stedsnr" v="208498" />
	</node>
	<node id="-786882" lat="69.9435888877" lon="23.1796777018">
		<tag k="name" v="Lyngset" />
		<tag k="place" v="farm" />
		<tag k="ssr:stedsnr" v="208490" />
	</node>
	<node id="-788928" lat="69.9121388935" lon="23.2562221471">
		<tag k="name" v="Skogdal" />
		<tag k="place" v="farm" />
		<tag k="ssr:stedsnr" v="815750" />
	</node>
	<node id="-788927" lat="69.862216668" lon="23.3254693461">
		<tag k="name" v="Laksesletta" />
		<tag k="place" v="farm" />
		<tag k="ssr:stedsnr" v="815726" />
	</node>
	<node id="-788926" lat="69.8634444525" lon="23.3243110122">
		<tag k="name" v="Setra" />
		<tag k="place" v="farm" />
		<tag k="ssr:stedsnr" v="815705" />
	</node>
	<node id="-788921" lat="70.3057888926" lon="23.0608693802">
		<tag k="name" v="Grueng" />
		<tag k="place" v="farm" />
		<tag k="ssr:stedsnr" v="815512" />
	</node>
	<node id="-788920" lat="69.941794447" lon="23.1877637985">
		<tag k="name" v="Myrkroken" />
		<tag k="place" v="farm" />
		<tag k="ssr:stedsnr" v="815434" />
	</node>
	<node id="-788918" lat="70.1189805562" lon="23.3939165829">
		<tag k="fixme" v="consider place=hamlet" />
		<tag k="name" v="Leirbotn" />
		<tag k="place" v="village" />
		<tag k="ssr:stedsnr" v="815379" />
	</node>
	<node id="-786867" lat="69.9695083392" lon="23.2959471441">
		<tag k="name" v="Kobberstad" />
		<tag k="place" v="farm" />
		<tag k="ssr:stedsnr" v="208169" />
	</node>
	<node id="-786865" lat="69.8453277796" lon="23.4221776897">
		<tag k="alt_name:fkv" v="Gavala" />
		<tag k="name" v="Kavala" />
		<tag k="name:fkv" v="Kavala" />
		<tag k="place" v="farm" />
		<tag k="ssr:stedsnr" v="208137" />
	</node>
	<node id="-788912" lat="69.8408666665" lon="23.4193693359">
		<tag k="name" v="Strand" />
		<tag k="place" v="farm" />
		<tag k="ssr:stedsnr" v="815157" />
	</node>
	<node id="-786863" lat="69.8300694453" lon="23.5082804591">
		<tag k="name" v="Skogstue" />
		<tag k="place" v="isolated_dwelling" />
		<tag k="ssr:stedsnr" v="208128" />
	</node>
	<node id="-788909" lat="69.8132861121" lon="23.4856498907">
		<tag k="name" v="Lilleslåtten" />
		<tag k="place" v="farm" />
		<tag k="ssr:stedsnr" v="815146" />
	</node>
	<node id="-788906" lat="69.9213194487" lon="23.5048860198">
		<tag k="name" v="Hurulinflaten" />
		<tag k="place" v="quarter" />
		<tag k="ssr:stedsnr" v="815117" />
	</node>
	<node id="-788905" lat="69.9287222261" lon="23.5013110176">
		<tag k="name" v="Sageng" />
		<tag k="place" v="farm" />
		<tag k="ssr:stedsnr" v="815046" />
	</node>
	<node id="-786856" lat="69.9321388895" lon="23.4992304676">
		<tag k="name" v="Kjosvold" />
		<tag k="place" v="farm" />
		<tag k="ssr:stedsnr" v="208080" />
	</node>
	<node id="-786855" lat="69.9318361155" lon="23.4733249016">
		<tag k="name" v="Bjørneng" />
		<tag k="place" v="farm" />
		<tag k="ssr:stedsnr" v="208048" />
	</node>
	<node id="-786854" lat="70.0275416658" lon="23.3970832511">
		<tag k="name" v="Thomasnes" />
		<tag k="place" v="farm" />
		<tag k="ssr:stedsnr" v="208034" />
	</node>
	<node id="-786852" lat="70.0163638899" lon="23.5388888016">
		<tag k="name" v="Sørelv" />
		<tag k="place" v="farm" />
		<tag k="ssr:stedsnr" v="208028" />
	</node>
	<node id="-786850" lat="70.0150027833" lon="23.0402860429">
		<tag k="fixme" v="consider place=hamlet" />
		<tag k="name" v="Melsvik" />
		<tag k="place" v="village" />
		<tag k="ssr:stedsnr" v="208022" />
	</node>
	<node id="-786848" lat="70.3465138907" lon="22.77911105">
		<tag k="name" v="Storlia" />
		<tag k="place" v="farm" />
		<tag k="ssr:stedsnr" v="207814" />
	</node>
	<node id="-786846" lat="69.9552972279" lon="23.2930026806">
		<tag k="name" v="Nygård" />
		<tag k="place" v="farm" />
		<tag k="ssr:stedsnr" v="207781" />
	</node>
	<node id="-787878" lat="70.2044472201" lon="22.924341602">
		<tag k="name" v="Gamnes" />
		<tag k="place" v="isolated_dwelling" />
		<tag k="ssr:stedsnr" v="580678" />
	</node>
	<node id="-786843" lat="69.9352388887" lon="23.2467165784">
		<tag k="name" v="Torstad" />
		<tag k="place" v="farm" />
		<tag k="ssr:stedsnr" v="207767" />
	</node>
	<node id="-788889" lat="69.9319916702" lon="23.2681471373">
		<tag k="name" v="Moen" />
		<tag k="place" v="farm" />
		<tag k="ssr:stedsnr" v="814782" />
	</node>
	<node id="-788888" lat="69.9397000059" lon="23.2869776977">
		<tag k="name" v="Holmen" />
		<tag k="place" v="hamlet" />
		<tag k="ssr:stedsnr" v="814781" />
	</node>
	<node id="-788886" lat="69.9510972288" lon="23.1723721441">
		<tag k="building" v="civic" />
		<tag k="name" v="Decca-stasjon" />
		<tag k="ssr:stedsnr" v="814506" />
	</node>
	<node id="-786836" lat="69.9351166689" lon="23.4215054692">
		<tag k="name" v="Bakken" />
		<tag k="place" v="farm" />
		<tag k="ssr:stedsnr" v="207069" />
	</node>
	<node id="-786830" lat="70.3259444477" lon="23.5429693449">
		<tag k="name" v="Leirbakken" />
		<tag k="place" v="farm" />
		<tag k="ssr:stedsnr" v="202812" />
	</node>
	<node id="-788877" lat="69.9402277782" lon="23.3217860332">
		<tag k="name" v="Myren" />
		<tag k="place" v="farm" />
		<tag k="ssr:stedsnr" v="814263" />
	</node>
	<node id="-786827" lat="69.9253583388" lon="23.2642887984">
		<tag k="fixme" v="consider place=hamlet" />
		<tag k="loc_name:fkv" v="Ylipää" />
		<tag k="name" v="Øvre Alta" />
		<tag k="name:no" v="Øvre Alta" />
		<tag k="place" v="village" />
		<tag k="ssr:stedsnr" v="202336" />
	</node>
	<node id="-788874" lat="70.0438638916" lon="22.9487666082">
		<tag k="name" v="Dungen" />
		<tag k="place" v="isolated_dwelling" />
		<tag k="ssr:stedsnr" v="814224" />
	</node>
	<node id="-788871" lat="69.9327777776" lon="23.4780387935">
		<tag k="name" v="Gamengbakken" />
		<tag k="place" v="farm" />
		<tag k="ssr:stedsnr" v="814082" />
	</node>
	<node id="-788870" lat="69.9621388933" lon="23.4169665805">
		<tag k="name" v="Skogheim" />
		<tag k="place" v="farm" />
		<tag k="ssr:stedsnr" v="814066" />
	</node>
	<node id="-788864" lat="70.1294555616" lon="23.4098054601">
		<tag k="name" v="Krekedalen" />
		<tag k="place" v="locality" />
		<tag k="ssr:stedsnr" v="814015" />
	</node>
	<node id="-788863" lat="69.9750166706" lon="23.3534526878">
		<tag k="landuse" v="military" />
		<tag k="name" v="Altagård" />
		<tag k="ssr:stedsnr" v="813933" />
	</node>
	<node id="-786812" lat="70.0187027792" lon="23.5373776869">
		<tag k="fixme" v="consider place=hamlet" />
		<tag k="loc_name:se" v="Reaššvuonna" />
		<tag k="name" v="Rafsbotn - Rässivuono" />
		<tag k="name:fkv" v="Rässivuono" />
		<tag k="name:no" v="Rafsbotn" />
		<tag k="place" v="village" />
		<tag k="ssr:stedsnr" v="201972" />
	</node>
	<node id="-788855" lat="70.324608336" lon="23.5133693648">
		<tag k="fixme" v="consider place=hamlet" />
		<tag k="name" v="Lille Lerresfjord - Liidnavuonna" />
		<tag k="name:no" v="Lille Lerresfjord" />
		<tag k="name:se" v="Liidnavuonna" />
		<tag k="place" v="village" />
		<tag k="ssr:stedsnr" v="809790" />
	</node>
	<node id="-786796" lat="70.2376333373" lon="23.4379999147">
		<tag k="name" v="Nevervik" />
		<tag k="place" v="farm" />
		<tag k="ssr:stedsnr" v="201836" />
	</node>
	<node id="-786787" lat="70.0276111114" lon="23.4048721381">
		<tag k="alt_name" v="Turelva, vestre" />
		<tag k="fixme" v="multiple name tags, choose one and add the other to alt_name; consider place=hamlet" />
		<tag k="name" v="Turelv;Vestre Turelva" />
		<tag k="place" v="village" />
		<tag k="ssr:stedsnr" v="201742" />
	</node>
	<node id="-786785" lat="70.1112305555" lon="22.9899277186">
		<tag k="name" v="Øyra" />
		<tag k="place" v="farm" />
		<tag k="ssr:stedsnr" v="201717" />
	</node>
	<node id="-786779" lat="70.1017833399" lon="22.8650777095">
		<tag k="name" v="Saraset" />
		<tag k="place" v="farm" />
		<tag k="ssr:stedsnr" v="201679" />
	</node>
	<node id="-786778" lat="70.0985277764" lon="22.8438943671">
		<tag k="name" v="Giske" />
		<tag k="place" v="isolated_dwelling" />
		<tag k="ssr:stedsnr" v="201676" />
	</node>
	<node id="-786776" lat="70.1340666651" lon="22.9892277023">
		<tag k="fixme" v="consider place=hamlet" />
		<tag k="name" v="Isnestoften" />
		<tag k="place" v="village" />
		<tag k="ssr:stedsnr" v="201601" />
	</node>
	<node id="-786774" lat="70.0447055566" lon="22.2852027293">
		<tag k="name" v="Myrland" />
		<tag k="place" v="farm" />
		<tag k="ssr:stedsnr" v="201590" />
	</node>
	<node id="-788820" lat="70.0272805552" lon="23.415233241">
		<tag k="alt_name" v="Turelva, østre" />
		<tag k="fixme" v="consider place=hamlet" />
		<tag k="name" v="Østre Turelva" />
		<tag k="place" v="village" />
		<tag k="ssr:stedsnr" v="808763" />
	</node>
	<node id="-786771" lat="70.0397416641" lon="22.2578332953">
		<tag k="fixme" v="consider place=hamlet" />
		<tag k="name" v="Langfjordbotn - Lákkovuonbahta" />
		<tag k="name:no" v="Langfjordbotn" />
		<tag k="name:se" v="Lákkovuonbahta" />
		<tag k="old_name:se" v="Lagguvuonbatta" />
		<tag k="place" v="village" />
		<tag k="ssr:stedsnr" v="201574" />
	</node>
	<node id="-786766" lat="70.2261250035" lon="23.3804554603">
		<tag k="fixme" v="consider place=hamlet" />
		<tag k="name" v="Nyvoll - Gárgu" />
		<tag k="name:no" v="Nyvoll" />
		<tag k="name:se" v="Gárgu" />
		<tag k="place" v="village" />
		<tag k="ssr:stedsnr" v="201537" />
	</node>
	<node id="-786764" lat="70.2151000047" lon="23.2114804734">
		<tag k="name" v="Solvang" />
		<tag k="place" v="farm" />
		<tag k="ssr:stedsnr" v="201527" />
	</node>
	<node id="-788810" lat="70.2064972216" lon="23.2103638008">
		<tag k="name" v="Lássávuolli" />
		<tag k="name:se" v="Lássávuolli" />
		<tag k="old_name:se" v="Lassavuolli" />
		<tag k="place" v="isolated_dwelling" />
		<tag k="ssr:stedsnr" v="808674" />
	</node>
	<node id="-788809" lat="69.9240472258" lon="23.493222114">
		<tag k="name" v="Sønvismoen" />
		<tag k="place" v="quarter" />
		<tag k="ssr:stedsnr" v="808672" />
	</node>
	<node id="-786759" lat="70.0902472211" lon="22.631855504">
		<tag k="loc_name:se" v="Rievvárgohpi" />
		<tag k="name" v="Rivarbukt - Vuojatluokta" />
		<tag k="name:no" v="Rivarbukt" />
		<tag k="name:se" v="Vuojatluokta" />
		<tag k="place" v="hamlet" />
		<tag k="ssr:stedsnr" v="201494" />
	</node>
	<node id="-788805" lat="69.9584250049" lon="23.4205026845">
		<tag k="loc_name:se" v="Sahá" />
		<tag k="name" v="Saga" />
		<tag k="name:no" v="Saga" />
		<tag k="place" v="quarter" />
		<tag k="ssr:stedsnr" v="808657" />
	</node>
	<node id="-788803" lat="70.1820222253" lon="23.3594221508">
		<tag k="name" v="Jorva" />
		<tag k="place" v="isolated_dwelling" />
		<tag k="ssr:stedsnr" v="808654" />
	</node>
	<node id="-788284" lat="69.9150444475" lon="23.6320749034">
		<tag k="alt_name" v="Østerelvsetra" />
		<tag k="name" v="Austerelvsætra" />
		<tag k="place" v="locality" />
		<tag k="ssr:stedsnr" v="687641" />
	</node>
	<node id="-788795" lat="69.9031027819" lon="23.5663248937">
		<tag k="name" v="Øverstua" />
		<tag k="place" v="locality" />
		<tag k="ssr:stedsnr" v="808636" />
	</node>
	<node id="-786745" lat="69.9296388867" lon="23.1145193706">
		<tag k="alt_name" v="Årevik, austre" />
		<tag k="name" v="Austre Årevik" />
		<tag k="place" v="farm" />
		<tag k="ssr:stedsnr" v="201394" />
	</node>
	<node id="-786744" lat="69.9338805539" lon="23.4021638054">
		<tag k="alt_name" v="Opgård" />
		<tag k="name" v="Oppgård" />
		<tag k="place" v="farm" />
		<tag k="ssr:stedsnr" v="201393" />
	</node>
	<node id="-786741" lat="69.9532555559" lon="23.2607749234">
		<tag k="name" v="Bakkeslett" />
		<tag k="place" v="farm" />
		<tag k="ssr:stedsnr" v="201369" />
	</node>
	<node id="-786740" lat="69.9516999982" lon="23.3332388104">
		<tag k="name" v="Fjellborg" />
		<tag k="place" v="farm" />
		<tag k="ssr:stedsnr" v="201362" />
	</node>
	<node id="-786739" lat="70.2111250012" lon="22.5870999541">
		<tag k="name" v="Gamleheimen" />
		<tag k="place" v="locality" />
		<tag k="ssr:stedsnr" v="201358" />
	</node>
	<node id="-786737" lat="69.9561472303" lon="23.2427221288">
		<tag k="loc_name:se" v="Mogensluohkká" />
		<tag k="name" v="Monsbakken" />
		<tag k="name:no" v="Monsbakken" />
		<tag k="place" v="farm" />
		<tag k="ssr:stedsnr" v="201355" />
	</node>
	<node id="-788779" lat="70.0756138857" lon="22.537241617">
		<tag k="name" v="Seljeli" />
		<tag k="place" v="farm" />
		<tag k="ssr:stedsnr" v="808498" />
	</node>
	<node id="-786724" lat="69.9653222289" lon="23.433349909">
		<tag k="alt_name" v="Aspemyren" />
		<tag k="name" v="Aspemyra" />
		<tag k="place" v="farm" />
		<tag k="ssr:stedsnr" v="201629" />
	</node>
	<node id="-788769" lat="69.9400500017" lon="23.4117554624">
		<tag k="name" v="Engdal" />
		<tag k="place" v="farm" />
		<tag k="ssr:stedsnr" v="808412" />
	</node>
	<node id="-788768" lat="69.9409305558" lon="23.2789749236">
		<tag k="alt_name" v="Østerli" />
		<tag k="name" v="Austerli" />
		<tag k="place" v="farm" />
		<tag k="ssr:stedsnr" v="808406" />
	</node>
	<node id="-788767" lat="69.9257138929" lon="23.2681360383">
		<tag k="name" v="Midtgård" />
		<tag k="place" v="farm" />
		<tag k="ssr:stedsnr" v="808403" />
	</node>
	<node id="-788764" lat="69.9602305584" lon="23.2350804711">
		<tag k="loc_name:fkv" v="Possukoppa" />
		<tag k="loc_name:se" v="Bossogohppi" />
		<tag k="name" v="Bossekop" />
		<tag k="name:no" v="Bossekop" />
		<tag k="place" v="suburb" />
		<tag k="ssr:stedsnr" v="808395" />
	</node>
	<node id="-788763" lat="69.959513889" lon="23.4055637921">
		<tag k="name" v="Møllenes" />
		<tag k="place" v="farm" />
		<tag k="ssr:stedsnr" v="808392" />
	</node>
	<node id="-788761" lat="69.9743166736" lon="23.1054054684">
		<tag k="loc_name:se" v="Stuorluovta" />
		<tag k="name" v="Storvik" />
		<tag k="name:no" v="Storvik" />
		<tag k="place" v="farm" />
		<tag k="ssr:stedsnr" v="808389" />
	</node>
	<node id="-788760" lat="69.9674833323" lon="23.3113499061">
		<tag k="name" v="Engeset" />
		<tag k="place" v="farm" />
		<tag k="ssr:stedsnr" v="808386" />
	</node>
	<node id="-788758" lat="69.9522861189" lon="23.4050637915">
		<tag k="name" v="Fosseng" />
		<tag k="place" v="farm" />
		<tag k="ssr:stedsnr" v="808380" />
	</node>
	<node id="-786879" lat="69.972766669" lon="23.5716832255">
		<tag k="name" v="Steinstrømmen" />
		<tag k="name:se" v="Steinstrømmen" />
		<tag k="place" v="locality" />
		<tag k="ssr:stedsnr" v="208457" />
	</node>
	<node id="-788752" lat="69.9304361119" lon="23.2726277038">
		<tag k="name" v="Jordfall" />
		<tag k="place" v="farm" />
		<tag k="ssr:stedsnr" v="808330" />
	</node>
	<node id="-788751" lat="69.9226861158" lon="23.2793054619">
		<tag k="name" v="Heimdal" />
		<tag k="place" v="farm" />
		<tag k="ssr:stedsnr" v="808326" />
	</node>
	<node id="-788748" lat="69.9054750016" lon="23.0190582609">
		<tag k="alt_name" v="Stokkestad" />
		<tag k="name" v="Stokkstad" />
		<tag k="place" v="isolated_dwelling" />
		<tag k="ssr:stedsnr" v="808301" />
	</node>
	<node id="-789204" lat="70.0771972262" lon="22.4287694004">
		<tag k="name" v="Elvedal" />
		<tag k="place" v="locality" />
		<tag k="ssr:stedsnr" v="929504" />
	</node>
	<node id="-786677" lat="70.0622" lon="22.356544385">
		<tag k="name" v="Yttre Sopnesbukta" />
		<tag k="place" v="isolated_dwelling" />
		<tag k="ssr:stedsnr" v="167736" />
	</node>
	<node id="-786676" lat="70.1236250036" lon="23.3930721284">
		<tag k="fixme" v="consider place=hamlet" />
		<tag k="name" v="Krokelv" />
		<tag k="place" v="village" />
		<tag k="ssr:stedsnr" v="166984" />
	</node>
	<node id="-787395" lat="69.8670111116" lon="22.9685943668">
		<tag k="name" v="Sandbu" />
		<tag k="place" v="farm" />
		<tag k="ssr:stedsnr" v="504247" />
	</node>
	<node id="-788179" lat="70.0835250011" lon="22.6176943802">
		<tag k="name" v="Kastnes" />
		<tag k="place" v="farm" />
		<tag k="ssr:stedsnr" v="652684" />
	</node>
	<node id="-789201" lat="70.0561194444" lon="22.4412249497">
		<tag k="alt_name" v="Kjerringdal, in" />
		<tag k="name" v="Indre Kjerringdal" />
		<tag k="place" v="farm" />
		<tag k="ssr:stedsnr" v="929489" />
	</node>
	<node id="-788708" lat="70.0379527777" lon="22.2706221815">
		<tag k="name" v="Nordre Nordskog" />
		<tag k="place" v="isolated_dwelling" />
		<tag k="ssr:stedsnr" v="774740" />
	</node>
	<node id="-788705" lat="70.1803333354" lon="23.3764249052">
		<tag k="name" v="Skillefjordbotn" />
		<tag k="place" v="hamlet" />
		<tag k="ssr:stedsnr" v="773979" />
	</node>
	<node id="-788704" lat="70.0884277773" lon="22.7659832605">
		<tag k="name" v="Mosesheimen" />
		<tag k="place" v="farm" />
		<tag k="ssr:stedsnr" v="773815" />
	</node>
	<node id="-788702" lat="70.0631916695" lon="22.5382832758">
		<tag k="name" v="Bånes" />
		<tag k="place" v="farm" />
		<tag k="ssr:stedsnr" v="773663" />
	</node>
	<node id="-787121" lat="70.2644472232" lon="23.3467721434">
		<tag k="name" v="Slåtten" />
		<tag k="place" v="farm" />
		<tag k="ssr:stedsnr" v="268938" />
	</node>
	<node id="-787489" lat="69.9398000054" lon="23.2280749089">
		<tag k="name" v="Myrvoll" />
		<tag k="place" v="farm" />
		<tag k="ssr:stedsnr" v="505419" />
	</node>
	<node id="-787939" lat="69.968869448" lon="23.2716276885">
		<tag k="loc_name:se" v="Álaheadju;Álaheajju" />
		<tag k="name" v="Alta - Áltá - Alattio" />
		<tag k="name:fkv" v="Alattio" />
		<tag k="name:no" v="Alta" />
		<tag k="name:se" v="Áltá" />
		<tag k="place" v="town" />
		<tag k="ssr:stedsnr" v="625468" />
	</node>
	<node id="-787488" lat="69.9389555546" lon="23.2885304653">
		<tag k="name" v="Skogdal" />
		<tag k="place" v="farm" />
		<tag k="ssr:stedsnr" v="505412" />
	</node>
	<node id="-788669" lat="70.317713888" lon="23.4692749144">
		<tag k="name" v="Vargo" />
		<tag k="place" v="isolated_dwelling" />
		<tag k="ssr:stedsnr" v="762114" />
	</node>
	<node id="-787487" lat="69.9195166682" lon="23.2280388142">
		<tag k="alt_name" v="Solheimen" />
		<tag k="name" v="Solheim" />
		<tag k="place" v="farm" />
		<tag k="ssr:stedsnr" v="505346" />
	</node>
	<node id="-786614" lat="69.9296027764" lon="23.1175054786">
		<tag k="name" v="Østre Kvenvik" />
		<tag k="place" v="hamlet" />
		<tag k="ssr:stedsnr" v="148488" />
	</node>
	<node id="-786603" lat="69.9417222243" lon="23.2683610273">
		<tag k="name" v="Lusieholmen" />
		<tag k="place" v="farm" />
		<tag k="ssr:stedsnr" v="147763" />
	</node>
	<node id="-788649" lat="69.9394444466" lon="23.2852776996">
		<tag k="name" v="Bakkemo" />
		<tag k="place" v="farm" />
		<tag k="ssr:stedsnr" v="754783" />
	</node>
	<node id="-786600" lat="69.9211138926" lon="23.2378804787">
		<tag k="name" v="Heimen" />
		<tag k="place" v="farm" />
		<tag k="ssr:stedsnr" v="147730" />
	</node>
	<node id="-786598" lat="69.8869027769" lon="23.2577943689">
		<tag k="name" v="Skogly" />
		<tag k="place" v="farm" />
		<tag k="ssr:stedsnr" v="147635" />
	</node>
	<node id="-786597" lat="69.8988388894" lon="23.280719344">
		<tag k="name" v="Raipas-slått" />
		<tag k="place" v="farm" />
		<tag k="ssr:stedsnr" v="147631" />
	</node>
	<node id="-788640" lat="70.0127916684" lon="23.5612943424">
		<tag k="name" v="Vinterset" />
		<tag k="place" v="farm" />
		<tag k="ssr:stedsnr" v="754474" />
	</node>
	<node id="-788637" lat="69.8672277789" lon="23.2829832509">
		<tag k="name" v="Norddal" />
		<tag k="place" v="farm" />
		<tag k="ssr:stedsnr" v="754402" />
	</node>
	<node id="-788636" lat="69.8714583349" lon="23.3079638123">
		<tag k="name" v="Stengelsbukt øvre" />
		<tag k="place" v="farm" />
		<tag k="ssr:stedsnr" v="754385" />
	</node>
	<node id="-786585" lat="69.8877472208" lon="23.2051221437">
		<tag k="name" v="Øvereng" />
		<tag k="place" v="farm" />
		<tag k="ssr:stedsnr" v="147406" />
	</node>
	<node id="-788632" lat="69.9408750039" lon="23.2956693572">
		<tag k="name" v="Sarholmen søndre" />
		<tag k="place" v="farm" />
		<tag k="ssr:stedsnr" v="754267" />
	</node>
	<node id="-788628" lat="70.1362166694" lon="23.3375777001">
		<tag k="name" v="Rødmyra" />
		<tag k="place" v="farm" />
		<tag k="ssr:stedsnr" v="754229" />
	</node>
	<node id="-788622" lat="69.9323166715" lon="23.4243637857">
		<tag k="name" v="Skoglund" />
		<tag k="place" v="farm" />
		<tag k="ssr:stedsnr" v="754114" />
	</node>
	<node id="-788621" lat="69.931686116" lon="23.4305971328">
		<tag k="name" v="Furubakken" />
		<tag k="place" v="farm" />
		<tag k="ssr:stedsnr" v="754112" />
	</node>
	<node id="-788620" lat="69.9291027821" lon="23.4485082294">
		<tag k="name" v="Pelkiouta" />
		<tag k="name:fkv" v="Pelkiouta" />
		<tag k="place" v="hamlet" />
		<tag k="ssr:stedsnr" v="754101" />
	</node>
	<node id="-788618" lat="70.0453111173" lon="22.9508388237">
		<tag k="name" v="Bøkkergjerdet" />
		<tag k="place" v="farm" />
		<tag k="ssr:stedsnr" v="754067" />
	</node>
	<node id="-788616" lat="69.9748722245" lon="23.4677415628">
		<tag k="name" v="Øvreengen" />
		<tag k="place" v="farm" />
		<tag k="ssr:stedsnr" v="754021" />
	</node>
	<node id="-786567" lat="69.9516583348" lon="23.4267471288">
		<tag k="name" v="Fjellstad" />
		<tag k="place" v="farm" />
		<tag k="ssr:stedsnr" v="147065" />
	</node>
	<node id="-788607" lat="70.336708336" lon="22.8241943823">
		<tag k="name" v="Solheim" />
		<tag k="place" v="farm" />
		<tag k="ssr:stedsnr" v="753784" />
	</node>
	<node id="-788606" lat="69.9355000036" lon="23.2499860322">
		<tag k="name" v="Steinfossen" />
		<tag k="place" v="farm" />
		<tag k="ssr:stedsnr" v="753755" />
	</node>
	<node id="-788605" lat="69.9344250019" lon="23.2471721324">
		<tag k="name" v="Flaten" />
		<tag k="place" v="farm" />
		<tag k="ssr:stedsnr" v="753754" />
	</node>
	<node id="-786556" lat="69.9588527791" lon="23.3536721291">
		<tag k="name" v="Broderholmen" />
		<tag k="place" v="farm" />
		<tag k="ssr:stedsnr" v="146766" />
	</node>
	<node id="-788603" lat="69.9565361109" lon="23.2372026958">
		<tag k="name" v="Bakkejord" />
		<tag k="place" v="farm" />
		<tag k="ssr:stedsnr" v="753573" />
	</node>
	<node id="-788600" lat="69.9498805615" lon="23.1801832475">
		<tag k="name" v="Sjøstrand" />
		<tag k="place" v="isolated_dwelling" />
		<tag k="ssr:stedsnr" v="753419" />
	</node>
	<node id="-786452" lat="69.9700638942" lon="23.3119915945">
		<tag k="name" v="Vinterset" />
		<tag k="place" v="farm" />
		<tag k="ssr:stedsnr" v="140398" />
	</node>
	<node id="-786550" lat="69.9245500033" lon="23.3050554562">
		<tag k="name" v="Talonsaari" />
		<tag k="name:fkv" v="Talonsaari" />
		<tag k="place" v="farm" />
		<tag k="ssr:stedsnr" v="146206" />
	</node>
	<node id="-788597" lat="69.9383777834" lon="23.3243026871">
		<tag k="name" v="Raipasin ala" />
		<tag k="name:fkv" v="Raipasin ala" />
		<tag k="place" v="farm" />
		<tag k="ssr:stedsnr" v="753171" />
	</node>
	<node id="-786548" lat="70.033330558" lon="22.9279693727">
		<tag k="name" v="Kløyva" />
		<tag k="place" v="hamlet" />
		<tag k="ssr:stedsnr" v="146183" />
	</node>
	<node id="-788595" lat="70.0335666741" lon="22.9354776995">
		<tag k="name" v="Huglin" />
		<tag k="place" v="isolated_dwelling" />
		<tag k="ssr:stedsnr" v="753161" />
	</node>
	<node id="-786542" lat="70.2785166657" lon="23.1224999307">
		<tag k="fixme" v="consider place=hamlet" />
		<tag k="loc_name:se" v="Leaibeluokta" />
		<tag k="name" v="Hakkstabben" />
		<tag k="name:no" v="Hakkstabben" />
		<tag k="place" v="village" />
		<tag k="ssr:stedsnr" v="141926" />
	</node>
	<node id="-786541" lat="70.2633777834" lon="23.3404638188">
		<tag k="name" v="Ráhkanluokta" />
		<tag k="name:se" v="Ráhkanluokta" />
		<tag k="old_name:se" v="Rakkanluokta" />
		<tag k="place" v="farm" />
		<tag k="ssr:stedsnr" v="141914" />
	</node>
	<node id="-787371" lat="70.0521638892" lon="22.324263828">
		<tag k="name" v="Indre Sopnesbukta" />
		<tag k="place" v="farm" />
		<tag k="ssr:stedsnr" v="470701" />
	</node>
	<node id="-786534" lat="70.2636777784" lon="22.6204721555">
		<tag k="alt_name" v="Litlebukta" />
		<tag k="loc_name" v="Lillebukta" />
		<tag k="name" v="Lillebukt" />
		<tag k="place" v="hamlet" />
		<tag k="ssr:stedsnr" v="141109" />
	</node>
	<node id="-786449" lat="69.8880083352" lon="23.2083054701">
		<tag k="name" v="Flinkestad" />
		<tag k="place" v="farm" />
		<tag k="ssr:stedsnr" v="140375" />
	</node>
	<node id="-786526" lat="70.0267361146" lon="22.9458721397">
		<tag k="name" v="Seljen" />
		<tag k="place" v="locality" />
		<tag k="ssr:stedsnr" v="140793" />
	</node>
	<node id="-789360" lat="69.9523888946" lon="23.3580415858">
		<tag k="name" v="Paskapudas" />
		<tag k="name:fkv" v="Paskapudas" />
		<tag k="place" v="farm" />
		<tag k="ssr:stedsnr" v="936764" />
	</node>
	<node id="-786507" lat="70.1016444432" lon="23.2921971325">
		<tag k="name" v="Laukvik" />
		<tag k="place" v="hamlet" />
		<tag k="ssr:stedsnr" v="140729" />
	</node>
	<node id="-786498" lat="69.9263555588" lon="23.4991193402">
		<tag k="name" v="Bjørnstad" />
		<tag k="place" v="farm" />
		<tag k="ssr:stedsnr" v="140661" />
	</node>
	<node id="-786494" lat="70.0285416701" lon="22.2826249401">
		<tag k="name" v="Storeng" />
		<tag k="place" v="farm" />
		<tag k="ssr:stedsnr" v="140601" />
	</node>
	<node id="-786490" lat="70.2255500028" lon="23.3769804828">
		<tag k="loc_name:se" v="Čuđegieddi" />
		<tag k="name" v="Sjurseng" />
		<tag k="name:no" v="Sjurseng" />
		<tag k="place" v="farm" />
		<tag k="ssr:stedsnr" v="140561" />
	</node>
	<node id="-788537" lat="69.9365500035" lon="23.4286915866">
		<tag k="alt_name" v="Sætrum" />
		<tag k="name" v="Sætrom" />
		<tag k="place" v="farm" />
		<tag k="ssr:stedsnr" v="747680" />
	</node>
	<node id="-788528" lat="70.0136611144" lon="22.3129777366">
		<tag k="name" v="Vestermo" />
		<tag k="place" v="farm" />
		<tag k="ssr:stedsnr" v="747598" />
	</node>
	<node id="-788527" lat="70.0285777771" lon="22.3132360656">
		<tag k="name" v="Strandheim" />
		<tag k="place" v="farm" />
		<tag k="ssr:stedsnr" v="747591" />
	</node>
	<node id="-786478" lat="70.1436222241" lon="23.1859471464">
		<tag k="name" v="Myreng" />
		<tag k="place" v="farm" />
		<tag k="ssr:stedsnr" v="140630" />
	</node>
	<node id="-788523" lat="70.2473944505" lon="23.3861999126">
		<tag k="alt_name" v="Korsfjord" />
		<tag k="fixme" v="consider place=hamlet" />
		<tag k="name" v="Korsfjorden" />
		<tag k="place" v="village" />
		<tag k="ssr:stedsnr" v="747578" />
	</node>
	<node id="-788522" lat="70.2268055579" lon="23.3550971489">
		<tag k="alt_name:no" v="Røgeberg" />
		<tag k="loc_name:se" v="Rivnnesbávti" />
		<tag k="name" v="Røykeberg" />
		<tag k="name:no" v="Røykeberg" />
		<tag k="place" v="isolated_dwelling" />
		<tag k="ssr:stedsnr" v="747576" />
	</node>
	<node id="-786470" lat="69.9454333363" lon="23.3213193532">
		<tag k="name" v="Raipas" />
		<tag k="place" v="hamlet" />
		<tag k="ssr:stedsnr" v="140432" />
	</node>
	<node id="-788517" lat="70.0928166672" lon="22.8067193791">
		<tag k="name" v="Goddevik - Goddevággi" />
		<tag k="name:no" v="Goddevik" />
		<tag k="name:se" v="Goddevággi" />
		<tag k="old_name:se" v="Gåddevaggi" />
		<tag k="place" v="hamlet" />
		<tag k="ssr:stedsnr" v="747519" />
	</node>
	<node id="-786468" lat="69.9485055628" lon="23.2570165723">
		<tag k="name" v="Solbakken" />
		<tag k="place" v="farm" />
		<tag k="ssr:stedsnr" v="140422" />
	</node>
	<node id="-786466" lat="69.9619055598" lon="23.2810999286">
		<tag k="name" v="Smedgjerdet" />
		<tag k="place" v="farm" />
		<tag k="ssr:stedsnr" v="140409" />
	</node>
	<node id="-788513" lat="70.0554388917" lon="22.3521999556">
		<tag k="name" v="Sopnes" />
		<tag k="place" v="isolated_dwelling" />
		<tag k="ssr:stedsnr" v="747482" />
	</node>
	<node id="-786464" lat="69.9618305546" lon="23.309866587">
		<tag k="name" v="Furulund" />
		<tag k="place" v="farm" />
		<tag k="ssr:stedsnr" v="140405" />
	</node>
	<node id="-786463" lat="69.916813889" lon="23.2325304771">
		<tag k="name" v="Myrslett" />
		<tag k="place" v="isolated_dwelling" />
		<tag k="ssr:stedsnr" v="140351" />
	</node>
	<node id="-786462" lat="69.9131777837" lon="23.2542638009">
		<tag k="name" v="Lundemo" />
		<tag k="place" v="farm" />
		<tag k="ssr:stedsnr" v="140342" />
	</node>
	<node id="-786460" lat="69.8974666718" lon="23.2145860376">
		<tag k="name" v="Solvang" />
		<tag k="place" v="farm" />
		<tag k="ssr:stedsnr" v="140335" />
	</node>
	<node id="-788504" lat="69.9702138967" lon="23.2854915721">
		<tag k="name" v="Nyland" />
		<tag k="place" v="quarter" />
		<tag k="ssr:stedsnr" v="747385" />
	</node>
	<node id="-788503" lat="69.9510222259" lon="23.3964249083">
		<tag k="name" v="Nordset" />
		<tag k="place" v="farm" />
		<tag k="ssr:stedsnr" v="747372" />
	</node>
	<node id="-788501" lat="69.8948000059" lon="23.2115415895">
		<tag k="name" v="Fjellmyr" />
		<tag k="place" v="farm" />
		<tag k="ssr:stedsnr" v="747365" />
	</node>
	<node id="-788500" lat="69.9012055601" lon="23.2676332367">
		<tag k="name" v="Jøraholmen" />
		<tag k="place" v="farm" />
		<tag k="ssr:stedsnr" v="747355" />
	</node>
	<node id="-788497" lat="69.916863887" lon="23.2263971427">
		<tag k="name" v="Fjellheim" />
		<tag k="place" v="farm" />
		<tag k="ssr:stedsnr" v="747330" />
	</node>
	<node id="-786447" lat="69.8778444445" lon="23.2728026938">
		<tag k="name" v="Nedre Stengelse" />
		<tag k="old_name" v="Stengelse, nedre" />
		<tag k="place" v="isolated_dwelling" />
		<tag k="ssr:stedsnr" v="140370" />
	</node>
	<node id="-786446" lat="69.8670111131" lon="23.313791585">
		<tag k="name" v="Thealund" />
		<tag k="place" v="farm" />
		<tag k="ssr:stedsnr" v="140366" />
	</node>
</osm>
