<?xml version="1.0" encoding="UTF-8"?>
<osm generator="osmapis" version="0.6">
	<node id="-23369" lat="59.637492562" lon="10.7418061866">
		<tag k="name" v="Støkken" />
		<tag k="place" v="hamlet" />
		<tag k="ssr:stedsnr" v="977365" />
	</node>
	<node id="-23365" lat="59.7645944441" lon="10.7887583319">
		<tag k="name" v="Flauenberg" />
		<tag k="place" v="locality" />
		<tag k="ssr:stedsnr" v="933943" />
	</node>
	<node id="-23363" lat="59.646669441" lon="10.7128944506">
		<tag k="alt_name" v="Myrer vestre" />
		<tag k="name" v="Vestre Myrer" />
		<tag k="place" v="farm" />
		<tag k="ssr:stedsnr" v="933889" />
	</node>
	<node id="-23362" lat="59.6562333347" lon="10.6826805504">
		<tag k="alt_name" v="Klommestein østre" />
		<tag k="name" v="Østre Klommestein" />
		<tag k="place" v="farm" />
		<tag k="ssr:stedsnr" v="933886" />
	</node>
	<node id="-23361" lat="59.6686499968" lon="10.7158388814">
		<tag k="alt_name" v="Hogsmark søndre" />
		<tag k="name" v="Søndre Hogsmark" />
		<tag k="place" v="farm" />
		<tag k="ssr:stedsnr" v="933875" />
	</node>
	<node id="-23360" lat="59.6545888917" lon="10.6864611137">
		<tag k="name" v="Knapmyra" />
		<tag k="place" v="isolated_dwelling" />
		<tag k="ssr:stedsnr" v="933838" />
	</node>
	<node id="-23358" lat="59.6138111102" lon="10.8227861062">
		<tag k="name" v="Myrvoll" />
		<tag k="place" v="farm" />
		<tag k="ssr:stedsnr" v="933736" />
	</node>
	<node id="-23355" lat="59.6760000012" lon="10.7767722269">
		<tag k="alt_name" v="Østby vestre" />
		<tag k="name" v="Vestre Østby" />
		<tag k="place" v="farm" />
		<tag k="ssr:stedsnr" v="933688" />
	</node>
	<node id="-23354" lat="59.6603277777" lon="10.8105694387">
		<tag k="name" v="Dysterbråten" />
		<tag k="place" v="locality" />
		<tag k="ssr:stedsnr" v="933677" />
	</node>
	<node id="-23353" lat="59.745066666" lon="10.7568305523">
		<tag k="name" v="Pollen" />
		<tag k="place" v="locality" />
		<tag k="ssr:stedsnr" v="933529" />
	</node>
	<node id="-23352" lat="59.7326805541" lon="10.7457194431">
		<tag k="name" v="Enerhaugen" />
		<tag k="place" v="farm" />
		<tag k="ssr:stedsnr" v="933510" />
	</node>
	<node id="-23351" lat="59.7254861101" lon="10.7638333312">
		<tag k="amenity" v="school" />
		<tag k="name" v="Nordbytun ungd. skole" />
		<tag k="ssr:stedsnr" v="933506" />
	</node>
	<node id="-23350" lat="59.6957111129" lon="10.7649694371">
		<tag k="name" v="Teigen" />
		<tag k="place" v="farm" />
		<tag k="ssr:stedsnr" v="933445" />
	</node>
	<node id="-23349" lat="59.6412722233" lon="10.7907388934">
		<tag k="name" v="Sand" />
		<tag k="place" v="isolated_dwelling" />
		<tag k="ssr:stedsnr" v="933346" />
	</node>
	<node id="-23348" lat="59.6395555527" lon="10.7979111037">
		<tag k="alt_name" v="Hogstvet østre" />
		<tag k="name" v="Østre Hogstvet" />
		<tag k="place" v="farm" />
		<tag k="ssr:stedsnr" v="933334" />
	</node>
	<node id="-23346" lat="59.6566222254" lon="10.7447250018">
		<tag k="name" v="Beverdalen" />
		<tag k="place" v="quarter" />
		<tag k="ssr:stedsnr" v="933300" />
	</node>
	<node id="-23345" lat="59.6589055544" lon="10.7471694414">
		<tag k="name" v="Nygård" />
		<tag k="place" v="quarter" />
		<tag k="ssr:stedsnr" v="933299" />
	</node>
	<node id="-23344" lat="59.6680694439" lon="10.798861119">
		<tag k="leisure" v="pitch" />
		<tag k="name" v="Ås stadion" />
		<tag k="ssr:stedsnr" v="933271" />
	</node>
	<node id="-23342" lat="59.6393916643" lon="10.835249991">
		<tag k="name" v="Furumoen" />
		<tag k="place" v="farm" />
		<tag k="ssr:stedsnr" v="933044" />
	</node>
	<node id="-23341" lat="59.7507750035" lon="10.7803611117">
		<tag k="name" v="Høyungen" />
		<tag k="place" v="farm" />
		<tag k="ssr:stedsnr" v="915366" />
	</node>
	<node id="-23339" lat="59.7538638879" lon="10.7299638889">
		<tag k="alt_name" v="Øvre Køya;Kjøye" />
		<tag k="name" v="Kjøya" />
		<tag k="place" v="hamlet" />
		<tag k="ssr:stedsnr" v="915360" />
	</node>
	<node id="-23338" lat="59.6575499985" lon="10.7137611187">
		<tag k="name" v="Holstad" />
		<tag k="place" v="farm" />
		<tag k="ssr:stedsnr" v="914820" />
	</node>
	<node id="-23337" lat="59.6715027747" lon="10.727433327">
		<tag k="name" v="Tokerud" />
		<tag k="place" v="farm" />
		<tag k="ssr:stedsnr" v="914478" />
	</node>
	<node id="-23336" lat="59.6768972215" lon="10.8230333405">
		<tag k="alt_name" v="Skuterud, søndre;Skuterud søndre" />
		<tag k="name" v="Søndre Skuterud" />
		<tag k="place" v="farm" />
		<tag k="ssr:stedsnr" v="914458" />
	</node>
	<node id="-23335" lat="59.6829500024" lon="10.8350083421">
		<tag k="name" v="Hol" />
		<tag k="place" v="farm" />
		<tag k="ssr:stedsnr" v="914455" />
	</node>
	<node id="-23334" lat="59.6909527754" lon="10.753486104">
		<tag k="alt_name" v="Syverud (nedl.)" />
		<tag k="name" v="Syverrud" />
		<tag k="place" v="farm" />
		<tag k="ssr:stedsnr" v="914415" />
	</node>
	<node id="-23333" lat="59.7008166701" lon="10.7566138825">
		<tag k="name" v="Ødemark" />
		<tag k="place" v="farm" />
		<tag k="ssr:stedsnr" v="914403" />
	</node>
	<node id="-23332" lat="59.7021972188" lon="10.8521638934">
		<tag k="name" v="Haugteigen" />
		<tag k="place" v="farm" />
		<tag k="ssr:stedsnr" v="914389" />
	</node>
	<node id="-23331" lat="59.6542583369" lon="10.7940638973">
		<tag k="alt_name" v="Moer;Moer søndre" />
		<tag k="name" v="Søndre Moer" />
		<tag k="place" v="farm" />
		<tag k="ssr:stedsnr" v="914020" />
	</node>
	<node id="-23330" lat="59.7266999972" lon="10.7493499923">
		<tag k="name" v="Askehaug" />
		<tag k="place" v="farm" />
		<tag k="ssr:stedsnr" v="913580" />
	</node>
	<node id="-23329" lat="59.7095111128" lon="10.7724333376">
		<tag k="name" v="Østenga" />
		<tag k="place" v="farm" />
		<tag k="ssr:stedsnr" v="913373" />
	</node>
	<node id="-23327" lat="59.6102472236" lon="10.8864499921">
		<tag k="name" v="Bakk" />
		<tag k="place" v="farm" />
		<tag k="ssr:stedsnr" v="913360" />
	</node>
	<node id="-23326" lat="59.6548888871" lon="10.7939750088">
		<tag k="alt_name" v="Moer;Moer nordre" />
		<tag k="name" v="Nordre Moer" />
		<tag k="place" v="farm" />
		<tag k="ssr:stedsnr" v="913244" />
	</node>
	<node id="-23325" lat="59.7213805527" lon="10.7290500021">
		<tag k="name" v="Elva" />
		<tag k="place" v="isolated_dwelling" />
		<tag k="ssr:stedsnr" v="908495" />
	</node>
	<node id="-23324" lat="59.7227888855" lon="10.7299611114">
		<tag k="name" v="Paris" />
		<tag k="place" v="isolated_dwelling" />
		<tag k="ssr:stedsnr" v="908492" />
	</node>
	<node id="-23321" lat="59.7093194408" lon="10.7601500007">
		<tag k="name" v="Sundbyhagen" />
		<tag k="place" v="farm" />
		<tag k="ssr:stedsnr" v="873345" />
	</node>
	<node id="-23320" lat="59.7117972241" lon="10.7611694525">
		<tag k="alt_name" v="Risplass midtre" />
		<tag k="name" v="Midtre Risplass" />
		<tag k="place" v="isolated_dwelling" />
		<tag k="ssr:stedsnr" v="873343" />
	</node>
	<node id="-23318" lat="59.6605166646" lon="10.7090138915">
		<tag k="name" v="Holstadkulen" />
		<tag k="place" v="isolated_dwelling" />
		<tag k="ssr:stedsnr" v="872873" />
	</node>
	<node id="-23313" lat="59.6625027794" lon="10.7977666695">
		<tag k="amenity" v="sports_centre" />
		<tag k="name" v="Åshallen" />
		<tag k="ssr:stedsnr" v="872657" />
	</node>
	<node id="-23312" lat="59.738833333" lon="10.7556166722">
		<tag k="alt_name" v="Toødegård (nedl.)" />
		<tag k="name" v="Toødegård" />
		<tag k="place" v="farm" />
		<tag k="ssr:stedsnr" v="872507" />
	</node>
	<node id="-23311" lat="59.7314138912" lon="10.7385444496">
		<tag k="name" v="Markusløkka" />
		<tag k="place" v="isolated_dwelling" />
		<tag k="ssr:stedsnr" v="872505" />
	</node>
	<node id="-23310" lat="59.7382472223" lon="10.7608972176">
		<tag k="name" v="Nordskogen" />
		<tag k="place" v="quarter" />
		<tag k="ssr:stedsnr" v="872500" />
	</node>
	<node id="-23309" lat="59.6864027749" lon="10.8076000073">
		<tag k="alt_name" v="Haugerud østre" />
		<tag k="name" v="Østre Haugerud" />
		<tag k="place" v="farm" />
		<tag k="ssr:stedsnr" v="872468" />
	</node>
	<node id="-23307" lat="59.6851555511" lon="10.7621194473">
		<tag k="name" v="Bjerklund" />
		<tag k="place" v="farm" />
		<tag k="ssr:stedsnr" v="872453" />
	</node>
	<node id="-23305" lat="59.7232444475" lon="10.7976333327">
		<tag k="alt_name" v="Solberg nordre" />
		<tag k="name" v="Nordre Solberg" />
		<tag k="place" v="farm" />
		<tag k="ssr:stedsnr" v="872412" />
	</node>
	<node id="-23303" lat="59.659719449" lon="10.725874992">
		<tag k="alt_name" v="Haug nordre" />
		<tag k="name" v="Nordre Haug" />
		<tag k="place" v="farm" />
		<tag k="ssr:stedsnr" v="872300" />
	</node>
	<node id="-23302" lat="59.6642083362" lon="10.7909444477">
		<tag k="amenity" v="townhall" />
		<tag k="name" v="Ås rådhus" />
		<tag k="ssr:stedsnr" v="872281" />
	</node>
	<node id="-23301" lat="59.6526944483" lon="10.8390111025">
		<tag k="name" v="Østli" />
		<tag k="place" v="isolated_dwelling" />
		<tag k="ssr:stedsnr" v="872033" />
	</node>
	<node id="-23300" lat="59.7422944452" lon="10.7631972281">
		<tag k="name" v="Nøstvet" />
		<tag k="place" v="locality" />
		<tag k="ssr:stedsnr" v="872026" />
	</node>
	<node id="-23299" lat="59.739419445" lon="10.7768611103">
		<tag k="name" v="Myrås" />
		<tag k="place" v="isolated_dwelling" />
		<tag k="ssr:stedsnr" v="872020" />
	</node>
	<node id="-23297" lat="59.6859527809" lon="10.7526749955">
		<tag k="name" v="Berg" />
		<tag k="place" v="farm" />
		<tag k="ssr:stedsnr" v="854415" />
	</node>
	<node id="-23295" lat="59.7294027761" lon="10.7336999914">
		<tag k="alt_name" v="Nesset" />
		<tag k="name" v="Neset" />
		<tag k="place" v="hamlet" />
		<tag k="ssr:stedsnr" v="853581" />
	</node>
	<node id="-23294" lat="59.7260500011" lon="10.7965749935">
		<tag k="name" v="Solberg" />
		<tag k="place" v="farm" />
		<tag k="ssr:stedsnr" v="853552" />
	</node>
	<node id="-23293" lat="59.6903250012" lon="10.8386527811">
		<tag k="alt_name" v="Østensjø, nordre;Østensjø nordre" />
		<tag k="name" v="Nordre Østensjø" />
		<tag k="place" v="farm" />
		<tag k="ssr:stedsnr" v="853411" />
	</node>
	<node id="-23291" lat="59.6874472226" lon="10.7926777694">
		<tag k="alt_name" v="Slørstad;Slørstad nordre" />
		<tag k="name" v="Nordre Slørstad" />
		<tag k="place" v="farm" />
		<tag k="ssr:stedsnr" v="853407" />
	</node>
	<node id="-23290" lat="59.6910972243" lon="10.7790472253">
		<tag k="name" v="Bølstad" />
		<tag k="place" v="farm" />
		<tag k="ssr:stedsnr" v="853408" />
	</node>
	<node id="-23289" lat="59.6151527735" lon="10.8324083305">
		<tag k="name" v="Kaksrud" />
		<tag k="place" v="farm" />
		<tag k="ssr:stedsnr" v="853351" />
	</node>
	<node id="-23288" lat="59.6356504829" lon="10.7405066654">
		<tag k="alt_name" v="Støkken, vestre;Støkken vestre" />
		<tag k="fixme" v="consider place=hamlet" />
		<tag k="name" v="Vestre Støkken" />
		<tag k="place" v="farm" />
		<tag k="ssr:stedsnr" v="853284" />
	</node>
	<node id="-23287" lat="59.6612166703" lon="10.6859416606">
		<tag k="alt_name" v="Fjøser;Fjøser søndre" />
		<tag k="name" v="Søndre Fjøser" />
		<tag k="place" v="farm" />
		<tag k="ssr:stedsnr" v="853019" />
	</node>
	<node id="-23286" lat="59.6600499988" lon="10.7269166635">
		<tag k="name" v="Haug" />
		<tag k="place" v="farm" />
		<tag k="ssr:stedsnr" v="852461" />
	</node>
	<node id="-23285" lat="59.6445305521" lon="10.7744361085">
		<tag k="alt_name" v="Rød;Rød nordre" />
		<tag k="name" v="Nordre Rød" />
		<tag k="place" v="farm" />
		<tag k="ssr:stedsnr" v="852280" />
	</node>
	<node id="-23284" lat="59.6549444457" lon="10.7256472236">
		<tag k="alt_name" v="Haug, søndre;Haug søndre" />
		<tag k="name" v="Søndre Haug" />
		<tag k="place" v="farm" />
		<tag k="ssr:stedsnr" v="852261" />
	</node>
	<node id="-23283" lat="59.7536555539" lon="10.7302194424">
		<tag k="name" v="Øvre Kjøye" />
		<tag k="place" v="isolated_dwelling" />
		<tag k="ssr:stedsnr" v="845777" />
	</node>
	<node id="-23280" lat="59.7043555592" lon="10.7618194462">
		<tag k="alt_name" v="Sundby vestre" />
		<tag k="name" v="Vestre Sundby" />
		<tag k="place" v="farm" />
		<tag k="ssr:stedsnr" v="812349" />
	</node>
	<node id="-23279" lat="59.7110861134" lon="10.7603777743">
		<tag k="alt_name" v="Risplass søndre" />
		<tag k="name" v="Søndre Risplass" />
		<tag k="place" v="isolated_dwelling" />
		<tag k="ssr:stedsnr" v="812344" />
	</node>
	<node id="-23276" lat="59.6439666664" lon="10.7133555595">
		<tag k="alt_name" v="Myrer søndre" />
		<tag k="name" v="Søndre Myrer" />
		<tag k="place" v="farm" />
		<tag k="ssr:stedsnr" v="811832" />
	</node>
	<node id="-23275" lat="59.6679611097" lon="10.6895111192">
		<tag k="alt_name" v="Torp østre" />
		<tag k="name" v="Østre Torp" />
		<tag k="place" v="farm" />
		<tag k="ssr:stedsnr" v="811819" />
	</node>
	<node id="-23274" lat="59.7509527808" lon="10.7252888842">
		<tag k="name" v="Skrekken" />
		<tag k="place" v="isolated_dwelling" />
		<tag k="ssr:stedsnr" v="811805" />
	</node>
	<node id="-23269" lat="59.674058329" lon="10.7637666678">
		<tag k="name" v="Gullberg" />
		<tag k="place" v="isolated_dwelling" />
		<tag k="ssr:stedsnr" v="811661" />
	</node>
	<node id="-23268" lat="59.6659944449" lon="10.8109611185">
		<tag k="amenity" v="school" />
		<tag k="name" v="Rustad skole" />
		<tag k="ssr:stedsnr" v="811635" />
	</node>
	<node id="-23267" lat="59.7315666681" lon="10.7344833249">
		<tag k="name" v="Kjerkeløkka" />
		<tag k="place" v="locality" />
		<tag k="ssr:stedsnr" v="811465" />
	</node>
	<node id="-23266" lat="59.7421388883" lon="10.7308055546">
		<tag k="name" v="Strandenga" />
		<tag k="place" v="farm" />
		<tag k="ssr:stedsnr" v="811442" />
	</node>
	<node id="-23265" lat="59.7017166633" lon="10.82871944">
		<tag k="name" v="Kjølstadhøgda" />
		<tag k="place" v="quarter" />
		<tag k="ssr:stedsnr" v="811418" />
	</node>
	<node id="-23264" lat="59.6972472211" lon="10.7608111164">
		<tag k="alt_name" v="Skau" />
		<tag k="name" v="Skaug" />
		<tag k="place" v="farm" />
		<tag k="ssr:stedsnr" v="811400" />
	</node>
	<node id="-23263" lat="59.7000499962" lon="10.7437833349">
		<tag k="name" v="Sollia" />
		<tag k="place" v="farm" />
		<tag k="ssr:stedsnr" v="811398" />
	</node>
	<node id="-23262" lat="59.6494444463" lon="10.8092944363">
		<tag k="name" v="Ødegården" />
		<tag k="place" v="farm" />
		<tag k="ssr:stedsnr" v="811308" />
	</node>
	<node id="-23261" lat="59.6540833318" lon="10.7434138964">
		<tag k="name" v="Dalen" />
		<tag k="place" v="farm" />
		<tag k="ssr:stedsnr" v="811294" />
	</node>
	<node id="-23260" lat="59.6575638873" lon="10.7809111115">
		<tag k="name" v="Landås" />
		<tag k="place" v="quarter" />
		<tag k="ssr:stedsnr" v="811284" />
	</node>
	<node id="-23257" lat="59.6405638875" lon="10.7623694423">
		<tag k="name" v="Østli" />
		<tag k="place" v="isolated_dwelling" />
		<tag k="ssr:stedsnr" v="811268" />
	</node>
	<node id="-23252" lat="59.6341444432" lon="10.8479777736">
		<tag k="name" v="Vollholen" />
		<tag k="place" v="hamlet" />
		<tag k="ssr:stedsnr" v="811003" />
	</node>
	<node id="-23251" lat="59.6688138909" lon="10.7168249961">
		<tag k="name" v="Hogsmørk" />
		<tag k="place" v="farm" />
		<tag k="ssr:stedsnr" v="793880" />
	</node>
	<node id="-23250" lat="59.7310305591" lon="10.7834055563">
		<tag k="name" v="Kveldro" />
		<tag k="place" v="isolated_dwelling" />
		<tag k="ssr:stedsnr" v="792602" />
	</node>
	<node id="-23249" lat="59.7158861096" lon="10.775488897">
		<tag k="name" v="Ris" />
		<tag k="place" v="farm" />
		<tag k="ssr:stedsnr" v="792538" />
	</node>
	<node id="-23246" lat="59.616525002" lon="10.8644999934">
		<tag k="name" v="Toverud" />
		<tag k="place" v="farm" />
		<tag k="ssr:stedsnr" v="792336" />
	</node>
	<node id="-23245" lat="59.7400166692" lon="10.7447999967">
		<tag k="alt_name" v="Fåle, m;Fåle mellom;Mellom Fåle" />
		<tag k="fixme" v="multiple name tags, choose one and add the other to alt_name" />
		<tag k="name" v="Søndre Fåle;Mellom-Fåle" />
		<tag k="place" v="farm" />
		<tag k="ssr:stedsnr" v="791491" />
	</node>
	<node id="-23244" lat="59.6634749987" lon="10.9706444529">
		<tag k="name" v="Østereng" />
		<tag k="place" v="farm" />
		<tag k="ssr:stedsnr" v="791473" />
	</node>
	<node id="-23242" lat="59.7045377409" lon="10.7655341679">
		<tag k="name" v="Sundby" />
		<tag k="place" v="farm" />
		<tag k="ssr:stedsnr" v="791363" />
	</node>
	<node id="-23241" lat="59.6415944449" lon="10.7522833359">
		<tag k="name" v="Bjerkeskau" />
		<tag k="place" v="isolated_dwelling" />
		<tag k="ssr:stedsnr" v="791291" />
	</node>
	<node id="-23240" lat="59.6397126512" lon="10.744283763">
		<tag k="alt_name" v="Støkken, nordre;Støkken nordre" />
		<tag k="fixme" v="consider place=hamlet" />
		<tag k="name" v="Nordre Støkken" />
		<tag k="place" v="farm" />
		<tag k="ssr:stedsnr" v="791290" />
	</node>
	<node id="-23239" lat="59.7610999969" lon="10.7565000031">
		<tag k="name" v="Østli" />
		<tag k="place" v="farm" />
		<tag k="ssr:stedsnr" v="793443" />
	</node>
	<node id="-23238" lat="59.7583194438" lon="10.774786105">
		<tag k="alt_name" v="Seiersten" />
		<tag k="name" v="Seierstein" />
		<tag k="place" v="farm" />
		<tag k="ssr:stedsnr" v="793444" />
	</node>
	<node id="-23231" lat="59.668400004" lon="10.6875972286">
		<tag k="alt_name" v="Torp vestre" />
		<tag k="name" v="Vestre Torp" />
		<tag k="place" v="farm" />
		<tag k="ssr:stedsnr" v="750822" />
	</node>
	<node id="-23228" lat="59.615222221" lon="10.8217499986">
		<tag k="name" v="Dammen" />
		<tag k="place" v="farm" />
		<tag k="ssr:stedsnr" v="750679" />
	</node>
	<node id="-23227" lat="59.6813666637" lon="10.7372722252">
		<tag k="alt_name" v="Trosterud nordre" />
		<tag k="name" v="Nordre Trosterud" />
		<tag k="place" v="farm" />
		<tag k="ssr:stedsnr" v="750662" />
	</node>
	<node id="-23226" lat="59.661036107" lon="10.7342499918">
		<tag k="alt_name" v="Treider østre" />
		<tag k="name" v="Østre Treider" />
		<tag k="place" v="farm" />
		<tag k="ssr:stedsnr" v="750659" />
	</node>
	<node id="-23225" lat="59.66515278" lon="10.7253444451">
		<tag k="name" v="Haughagen" />
		<tag k="place" v="farm" />
		<tag k="ssr:stedsnr" v="750657" />
	</node>
	<node id="-23223" lat="59.742219446" lon="10.7620861195">
		<tag k="name" v="Pollenga" />
		<tag k="place" v="quarter" />
		<tag k="ssr:stedsnr" v="750440" />
	</node>
	<node id="-23220" lat="59.7230472242" lon="10.787077769">
		<tag k="name" v="Nordeng" />
		<tag k="place" v="farm" />
		<tag k="ssr:stedsnr" v="750364" />
	</node>
	<node id="-23219" lat="59.7242111087" lon="10.7912083348">
		<tag k="name" v="Olasbråten" />
		<tag k="place" v="farm" />
		<tag k="ssr:stedsnr" v="750358" />
	</node>
	<node id="-23218" lat="59.645619447" lon="10.8289888947">
		<tag k="name" v="Berget" />
		<tag k="place" v="locality" />
		<tag k="ssr:stedsnr" v="750324" />
	</node>
	<node id="-23217" lat="59.6258472183" lon="10.8421777725">
		<tag k="name" v="Brantløkka" />
		<tag k="place" v="farm" />
		<tag k="ssr:stedsnr" v="750037" />
	</node>
	<node id="-23216" lat="59.7253944441" lon="10.7922444468">
		<tag k="name" v="Verken" />
		<tag k="place" v="farm" />
		<tag k="ssr:stedsnr" v="750012" />
	</node>
	<node id="-23215" lat="59.6575333371" lon="10.8285055561">
		<tag k="amenity" v="nursing_home" />
		<tag k="name" v="Bjørnebekk kursted" />
		<tag k="ssr:stedsnr" v="750286" />
	</node>
	<node id="-23214" lat="59.6597055539" lon="10.7274722158">
		<tag k="alt_name" v="Haug østre" />
		<tag k="name" v="Østre Haug" />
		<tag k="place" v="farm" />
		<tag k="ssr:stedsnr" v="750254" />
	</node>
	<node id="-23212" lat="59.7551805534" lon="10.7509416583">
		<tag k="alt_name" v="Labråtan" />
		<tag k="name" v="Labråten" />
		<tag k="place" v="isolated_dwelling" />
		<tag k="ssr:stedsnr" v="733361" />
	</node>
	<node id="-23211" lat="59.7569305586" lon="10.7362527719">
		<tag k="name" v="Brenningsmyra" />
		<tag k="place" v="isolated_dwelling" />
		<tag k="ssr:stedsnr" v="733358" />
	</node>
	<node id="-23210" lat="59.660916667" lon="10.6888166587">
		<tag k="alt_name" v="Ekeberg" />
		<tag k="name" v="Eikeberg" />
		<tag k="place" v="farm" />
		<tag k="ssr:stedsnr" v="732861" />
	</node>
	<node id="-23209" lat="59.6803527776" lon="10.7828999919">
		<tag k="name" v="Østli" />
		<tag k="place" v="farm" />
		<tag k="ssr:stedsnr" v="732474" />
	</node>
	<node id="-23208" lat="59.6794944437" lon="10.8255916647">
		<tag k="alt_name" v="Skuterud, nordre" />
		<tag k="name" v="Nordre Skuterud" />
		<tag k="place" v="farm" />
		<tag k="ssr:stedsnr" v="732472" />
	</node>
	<node id="-23207" lat="59.6874666644" lon="10.7594944422">
		<tag k="alt_name" v="Dylterud;Dylterud vestre" />
		<tag k="name" v="Vestre Dylterud" />
		<tag k="place" v="farm" />
		<tag k="ssr:stedsnr" v="732436" />
	</node>
	<node id="-23206" lat="59.7081527748" lon="10.7992749948">
		<tag k="alt_name" v="Salstein (nedl.)" />
		<tag k="name" v="Salstein" />
		<tag k="place" v="locality" />
		<tag k="ssr:stedsnr" v="732406" />
	</node>
	<node id="-23205" lat="59.7468888855" lon="10.7353500014">
		<tag k="name" v="Kjærnes" />
		<tag k="place" v="farm" />
		<tag k="ssr:stedsnr" v="731466" />
	</node>
	<node id="-23204" lat="59.6647166694" lon="10.7946361077">
		<tag k="name" v="Ås" />
		<tag k="place" v="village" />
		<tag k="ssr:stedsnr" v="731438" />
	</node>
	<node id="-23203" lat="59.7118999998" lon="10.7734638831">
		<tag k="name" v="Skyssjordet" />
		<tag k="place" v="farm" />
		<tag k="ssr:stedsnr" v="731350" />
	</node>
	<node id="-23202" lat="59.6136777812" lon="10.8248305642">
		<tag k="name" v="Svaheim" />
		<tag k="place" v="farm" />
		<tag k="ssr:stedsnr" v="731338" />
	</node>
	<node id="-23201" lat="59.6343250036" lon="10.7927638913">
		<tag k="name" v="Abberud" />
		<tag k="place" v="farm" />
		<tag k="ssr:stedsnr" v="731249" />
	</node>
	<node id="-23200" lat="59.6392166649" lon="10.8520694521">
		<tag k="alt_name" v="Kroer, m;Mellom Kroer;Kroer mellom" />
		<tag k="name" v="Mellom-Kroer" />
		<tag k="place" v="farm" />
		<tag k="ssr:stedsnr" v="731250" />
	</node>
	<node id="-23199" lat="59.6421983366" lon="10.7378924283">
		<tag k="name" v="Støkkenbråten" />
		<tag k="place" v="farm" />
		<tag k="ssr:stedsnr" v="731243" />
	</node>
	<node id="-23198" lat="59.6437388889" lon="10.7214111123">
		<tag k="name" v="Iversrud" />
		<tag k="place" v="farm" />
		<tag k="ssr:stedsnr" v="731219" />
	</node>
	<node id="-23197" lat="59.6513138929" lon="10.8019249929">
		<tag k="name" v="Solli" />
		<tag k="place" v="farm" />
		<tag k="ssr:stedsnr" v="731209" />
	</node>
	<node id="-23196" lat="59.659147224" lon="10.7300500012">
		<tag k="name" v="Treider" />
		<tag k="place" v="farm" />
		<tag k="ssr:stedsnr" v="731206" />
	</node>
	<node id="-23195" lat="59.6541389827" lon="10.7052264537">
		<tag k="alt_name" v="Vennersgård" />
		<tag k="fixme" v="consider place=hamlet" />
		<tag k="name" v="Venneskål" />
		<tag k="place" v="farm" />
		<tag k="ssr:stedsnr" v="725137" />
	</node>
	<node id="-23193" lat="59.6662527754" lon="10.8081638919">
		<tag k="name" v="Søndre Rustad" />
		<tag k="place" v="quarter" />
		<tag k="ssr:stedsnr" v="691634" />
	</node>
	<node id="-23191" lat="59.6581472178" lon="10.6789416672">
		<tag k="alt_name" v="Klommestein søndre" />
		<tag k="name" v="Søndre Klommestein" />
		<tag k="place" v="farm" />
		<tag k="ssr:stedsnr" v="690886" />
	</node>
	<node id="-23190" lat="59.6533749988" lon="10.7061333314">
		<tag k="alt_name" v="Vennersgård østre;Østre Vennersgård" />
		<tag k="name" v="Østre Venneskål" />
		<tag k="place" v="farm" />
		<tag k="ssr:stedsnr" v="690874" />
	</node>
	<node id="-23187" lat="59.6270583353" lon="10.8190555549">
		<tag k="name" v="Granerud" />
		<tag k="old_name" v="Vest-Bråte;Bråte vestre;Vestre Bråte" />
		<tag k="place" v="farm" />
		<tag k="ssr:stedsnr" v="690744" />
	</node>
	<node id="-23184" lat="59.6718083374" lon="10.7286944388">
		<tag k="alt_name" v="Tokerud nordre" />
		<tag k="name" v="Nordre Tokerud" />
		<tag k="place" v="farm" />
		<tag k="ssr:stedsnr" v="690723" />
	</node>
	<node id="-23182" lat="59.663513888" lon="10.7886027768">
		<tag k="name" v="Åsgård" />
		<tag k="place" v="isolated_dwelling" />
		<tag k="ssr:stedsnr" v="690674" />
	</node>
	<node id="-23180" lat="59.6978138863" lon="10.8305222173">
		<tag k="alt_name" v="Kjølstad nordre" />
		<tag k="name" v="Nordre Kjølstad" />
		<tag k="place" v="farm" />
		<tag k="ssr:stedsnr" v="690478" />
	</node>
	<node id="-23179" lat="59.6945472238" lon="10.766652772">
		<tag k="name" v="Sundbyteigen" />
		<tag k="place" v="farm" />
		<tag k="ssr:stedsnr" v="690448" />
	</node>
	<node id="-23178" lat="59.7187916675" lon="10.7930972163">
		<tag k="amenity" v="school" />
		<tag k="name" v="Solberg skole" />
		<tag k="ssr:stedsnr" v="690425" />
	</node>
	<node id="-23177" lat="59.7184555511" lon="10.7747055551">
		<tag k="alt_name" v="Nordby vestre" />
		<tag k="name" v="Vestre Nordby" />
		<tag k="place" v="farm" />
		<tag k="ssr:stedsnr" v="690421" />
	</node>
	<node id="-23176" lat="59.6593805589" lon="10.7310222173">
		<tag k="alt_name" v="Treider vestre" />
		<tag k="name" v="Vestre Treider" />
		<tag k="place" v="farm" />
		<tag k="ssr:stedsnr" v="690324" />
	</node>
	<node id="-23174" lat="59.7406555525" lon="10.8061999977">
		<tag k="name" v="Øverstuene" />
		<tag k="place" v="farm" />
		<tag k="ssr:stedsnr" v="690023" />
	</node>
	<node id="-23172" lat="59.7420944402" lon="10.7826027722">
		<tag k="name" v="Vinterbro" />
		<tag k="place" v="hamlet" />
		<tag k="ssr:stedsnr" v="690018" />
	</node>
	<node id="-23171" lat="59.737505555" lon="10.7291861067">
		<tag k="name" v="Breivoll" />
		<tag k="place" v="farm" />
		<tag k="ssr:stedsnr" v="731570" />
	</node>
	<node id="-23168" lat="59.6619666648" lon="10.7013305626">
		<tag k="name" v="Børsumrud" />
		<tag k="place" v="farm" />
		<tag k="ssr:stedsnr" v="671874" />
	</node>
	<node id="-23167" lat="59.7007027814" lon="10.7742611082">
		<tag k="name" v="Verpet" />
		<tag k="place" v="farm" />
		<tag k="ssr:stedsnr" v="671394" />
	</node>
	<node id="-23166" lat="59.5948833295" lon="10.8575499964">
		<tag k="name" v="Bjørnstad" />
		<tag k="place" v="farm" />
		<tag k="ssr:stedsnr" v="671179" />
	</node>
	<node id="-23165" lat="59.6491138906" lon="10.8142333283">
		<tag k="alt_name" v="Eldor;Eldor nordre" />
		<tag k="name" v="Nordre Eldor" />
		<tag k="place" v="farm" />
		<tag k="ssr:stedsnr" v="671032" />
	</node>
	<node id="-23164" lat="59.6416750005" lon="10.7756888945">
		<tag k="alt_name" v="Rød;Rød søndre" />
		<tag k="name" v="Søndre Rød" />
		<tag k="place" v="farm" />
		<tag k="ssr:stedsnr" v="671029" />
	</node>
	<node id="-23163" lat="59.705391669" lon="10.748997216">
		<tag k="name" v="Fjellstad" />
		<tag k="place" v="farm" />
		<tag k="ssr:stedsnr" v="670545" />
	</node>
	<node id="-23162" lat="59.628405557" lon="10.8735111024">
		<tag k="name" v="Stensrud" />
		<tag k="place" v="farm" />
		<tag k="ssr:stedsnr" v="670321" />
	</node>
	<node id="-23161" lat="59.6498805595" lon="10.7593111058">
		<tag k="name" v="Børsum" />
		<tag k="place" v="farm" />
		<tag k="ssr:stedsnr" v="670268" />
	</node>
	<node id="-23160" lat="59.6599111081" lon="10.7528416685">
		<tag k="fixme" v="consider place=hamlet" />
		<tag k="name" v="Voll" />
		<tag k="place" v="farm" />
		<tag k="ssr:stedsnr" v="670247" />
	</node>
	<node id="-23158" lat="59.6489249957" lon="10.6877916699">
		<tag k="alt_name" v="Kinn nordre" />
		<tag k="name" v="Nordre Kinn" />
		<tag k="place" v="farm" />
		<tag k="ssr:stedsnr" v="629879" />
	</node>
	<node id="-23157" lat="59.6591499995" lon="10.7159222297">
		<tag k="alt_name" v="Holstad nordre" />
		<tag k="name" v="Nordre Holstad" />
		<tag k="place" v="farm" />
		<tag k="ssr:stedsnr" v="629875" />
	</node>
	<node id="-23153" lat="59.6609888926" lon="10.7701583289">
		<tag k="name" v="Pentagon" />
		<tag k="place" v="quarter" />
		<tag k="ssr:stedsnr" v="629698" />
	</node>
	<node id="-23152" lat="59.6786583315" lon="10.7527055532">
		<tag k="name" v="Hale" />
		<tag k="place" v="farm" />
		<tag k="ssr:stedsnr" v="629688" />
	</node>
	<node id="-23150" lat="59.6631138865" lon="10.7972805555">
		<tag k="amenity" v="school" />
		<tag k="name" v="Ås videregående skole" />
		<tag k="ssr:stedsnr" v="629653" />
	</node>
	<node id="-23148" lat="59.6819861087" lon="10.8000249945">
		<tag k="name" v="Lefsrud" />
		<tag k="place" v="farm" />
		<tag k="ssr:stedsnr" v="629450" />
	</node>
	<node id="-23147" lat="59.6906166645" lon="10.8167083413">
		<tag k="building" v="commercial" />
		<tag k="name" v="Felleskjøpet" />
		<tag k="ssr:stedsnr" v="629443" />
	</node>
	<node id="-23146" lat="59.6865861151" lon="10.8113277692">
		<tag k="amenity" v="school" />
		<tag k="name" v="Holstad skole" />
		<tag k="ssr:stedsnr" v="629442" />
	</node>
	<node id="-23145" lat="59.6985805526" lon="10.7457833293">
		<tag k="name" v="Skuggen" />
		<tag k="place" v="isolated_dwelling" />
		<tag k="ssr:stedsnr" v="629428" />
	</node>
	<node id="-23143" lat="59.7190249979" lon="10.803952779">
		<tag k="amenity" v="nursing_home" />
		<tag k="name" v="Nordby sykehjem" />
		<tag k="ssr:stedsnr" v="629386" />
	</node>
	<node id="-23142" lat="59.7226277741" lon="10.7907055484">
		<tag k="name" v="Haugen" />
		<tag k="place" v="farm" />
		<tag k="ssr:stedsnr" v="629381" />
	</node>
	<node id="-23141" lat="59.7055111143" lon="10.7891138928">
		<tag k="name" v="Østreng" />
		<tag k="place" v="farm" />
		<tag k="ssr:stedsnr" v="629379" />
	</node>
	<node id="-23140" lat="59.7190249966" lon="10.7789861132">
		<tag k="alt_name" v="Nordby østre" />
		<tag k="name" v="Østre Nordby" />
		<tag k="place" v="farm" />
		<tag k="ssr:stedsnr" v="629378" />
	</node>
	<node id="-23139" lat="59.7220416652" lon="10.8047194355">
		<tag k="name" v="Solbergskogen" />
		<tag k="place" v="quarter" />
		<tag k="ssr:stedsnr" v="629377" />
	</node>
	<node id="-23138" lat="59.639419445" lon="10.8041777722">
		<tag k="name" v="Kølabonn" />
		<tag k="place" v="farm" />
		<tag k="ssr:stedsnr" v="629319" />
	</node>
	<node id="-23137" lat="59.6500055579" lon="10.7612583373">
		<tag k="alt_name" v="Børsum søndre" />
		<tag k="name" v="Søndre Børsum" />
		<tag k="place" v="farm" />
		<tag k="ssr:stedsnr" v="629300" />
	</node>
	<node id="-23136" lat="59.7017138931" lon="10.8474694446">
		<tag k="name" v="Tandbergløkka" />
		<tag k="place" v="hamlet" />
		<tag k="ssr:stedsnr" v="629092" />
	</node>
	<node id="-23134" lat="59.656727777" lon="10.6828027788">
		<tag k="name" v="Klommestein" />
		<tag k="place" v="farm" />
		<tag k="ssr:stedsnr" v="610833" />
	</node>
	<node id="-23133" lat="59.6858027812" lon="10.8184666691">
		<tag k="name" v="Askjum" />
		<tag k="place" v="farm" />
		<tag k="ssr:stedsnr" v="610490" />
	</node>
	<node id="-23131" lat="59.7351055518" lon="10.737944453">
		<tag k="alt_name" v="Fåle, søndre" />
		<tag k="name" v="Søndre Fåle" />
		<tag k="place" v="farm" />
		<tag k="ssr:stedsnr" v="609579" />
	</node>
	<node id="-23130" lat="59.7099527792" lon="10.7516250061">
		<tag k="name" v="Grøterud" />
		<tag k="place" v="farm" />
		<tag k="ssr:stedsnr" v="609540" />
	</node>
	<node id="-23128" lat="59.6634222217" lon="10.7338777817">
		<tag k="name" v="Haugsten" />
		<tag k="place" v="quarter" />
		<tag k="ssr:stedsnr" v="609442" />
	</node>
	<node id="-23127" lat="59.6364615826" lon="10.7443114696">
		<tag k="alt_name" v="Støkken, østre;Støkken" />
		<tag k="fixme" v="consider place=hamlet" />
		<tag k="name" v="Østre Støkken" />
		<tag k="place" v="farm" />
		<tag k="ssr:stedsnr" v="609283" />
	</node>
	<node id="-23125" lat="59.65319722" lon="10.7487638926">
		<tag k="name" v="Linnestad" />
		<tag k="place" v="farm" />
		<tag k="ssr:stedsnr" v="609244" />
	</node>
	<node id="-23122" lat="59.7176777783" lon="10.7909333392">
		<tag k="name" v="Solberg" />
		<tag k="place" v="hamlet" />
		<tag k="ssr:stedsnr" v="569357" />
	</node>
	<node id="-23121" lat="59.7490166653" lon="10.7782666591">
		<tag k="name" v="Tusenfryd" />
		<tag k="old_name" v="Dyreparken" />
		<tag k="ssr:stedsnr" v="568920" />
		<tag k="tourism" v="theme_park" />
	</node>
	<node id="-23119" lat="59.6513861126" lon="10.6933027722">
		<tag k="name" v="Solheim" />
		<tag k="place" v="isolated_dwelling" />
		<tag k="ssr:stedsnr" v="568809" />
	</node>
	<node id="-23117" lat="59.6765277818" lon="10.7455777818">
		<tag k="alt_name" v="Fosterud søndre" />
		<tag k="name" v="Søndre Fosterud" />
		<tag k="place" v="farm" />
		<tag k="ssr:stedsnr" v="568658" />
	</node>
	<node id="-23115" lat="59.6687777782" lon="10.7962972266">
		<tag k="name" v="Langbakken industriområde" />
		<tag k="place" v="quarter" />
		<tag k="ssr:stedsnr" v="568629" />
	</node>
	<node id="-23114" lat="59.7320916636" lon="10.7507722269">
		<tag k="name" v="Askehaugbråten" />
		<tag k="place" v="farm" />
		<tag k="ssr:stedsnr" v="568449" />
	</node>
	<node id="-23110" lat="59.6588666657" lon="10.7735611086">
		<tag k="name" v="Kilehagen" />
		<tag k="place" v="quarter" />
		<tag k="ssr:stedsnr" v="568297" />
	</node>
	<node id="-23107" lat="59.7282888904" lon="10.7984444521">
		<tag k="name" v="Nystuen" />
		<tag k="place" v="isolated_dwelling" />
		<tag k="ssr:stedsnr" v="568016" />
	</node>
	<node id="-23106" lat="59.7394027765" lon="10.7886166672">
		<tag k="name" v="Tremannsdelet" />
		<tag k="place" v="locality" />
		<tag k="ssr:stedsnr" v="568006" />
	</node>
	<node id="-23103" lat="59.6837305528" lon="10.7931555617">
		<tag k="alt_name" v="Slørstad, m;Slørstad;Slørstad søndre" />
		<tag k="name" v="Midtre Slørstad" />
		<tag k="place" v="farm" />
		<tag k="ssr:stedsnr" v="550441" />
	</node>
	<node id="-23102" lat="59.6900027806" lon="10.8086805607">
		<tag k="alt_name" v="Holstad, nedre;Holstad;Hoelstad" />
		<tag k="name" v="Nedre Holstad" />
		<tag k="place" v="farm" />
		<tag k="ssr:stedsnr" v="550397" />
	</node>
	<node id="-23100" lat="59.7206138855" lon="10.773177776">
		<tag k="name" v="Nordby" />
		<tag k="place" v="hamlet" />
		<tag k="ssr:stedsnr" v="549535" />
	</node>
	<node id="-23099" lat="59.6682472263" lon="10.819555563">
		<tag k="name" v="Rustad" />
		<tag k="place" v="farm" />
		<tag k="ssr:stedsnr" v="549431" />
	</node>
	<node id="-23098" lat="59.6302749989" lon="10.8476333276">
		<tag k="name" v="Moer" />
		<tag k="place" v="farm" />
		<tag k="ssr:stedsnr" v="549328" />
	</node>
	<node id="-23097" lat="59.6368694451" lon="10.8522222155">
		<tag k="alt_name" v="Kroer, s;Kroer søndre;Sør-Kroer" />
		<tag k="name" v="Søndre Kroer" />
		<tag k="place" v="farm" />
		<tag k="ssr:stedsnr" v="549307" />
	</node>
	<node id="-23096" lat="59.6389916668" lon="10.7783416657">
		<tag k="name" v="Rud" />
		<tag k="place" v="isolated_dwelling" />
		<tag k="ssr:stedsnr" v="549303" />
	</node>
	<node id="-23095" lat="59.647216669" lon="10.8305555502">
		<tag k="name" v="Danskerud" />
		<tag k="place" v="quarter" />
		<tag k="ssr:stedsnr" v="549283" />
	</node>
	<node id="-23094" lat="59.6536777821" lon="10.7768305491">
		<tag k="name" v="Burum" />
		<tag k="place" v="farm" />
		<tag k="ssr:stedsnr" v="549257" />
	</node>
	<node id="-23092" lat="59.6682666677" lon="10.7380083337">
		<tag k="name" v="Stensrud" />
		<tag k="place" v="farm" />
		<tag k="ssr:stedsnr" v="548482" />
	</node>
	<node id="-23091" lat="59.6623416702" lon="10.7510333281">
		<tag k="name" v="Vollebekk" />
		<tag k="place" v="farm" />
		<tag k="ssr:stedsnr" v="548475" />
	</node>
	<node id="-23089" lat="59.6587833304" lon="10.7109527794">
		<tag k="alt_name" v="Holstad vestre" />
		<tag k="name" v="Vestre Holstad" />
		<tag k="place" v="farm" />
		<tag k="ssr:stedsnr" v="508865" />
	</node>
	<node id="-23085" lat="59.6639638887" lon="10.750899995">
		<tag k="amenity" v="school" />
		<tag k="name" v="Brønnerud skole" />
		<tag k="ssr:stedsnr" v="508680" />
	</node>
	<node id="-23084" lat="59.6764944454" lon="10.7784750032">
		<tag k="alt_name" v="Østby østre" />
		<tag k="name" v="Østre Østby" />
		<tag k="place" v="farm" />
		<tag k="ssr:stedsnr" v="508663" />
	</node>
	<node id="-23080" lat="59.7038749996" lon="10.785374992">
		<tag k="name" v="Skremma" />
		<tag k="place" v="locality" />
		<tag k="ssr:stedsnr" v="508438" />
	</node>
	<node id="-23079" lat="59.7090499995" lon="10.7852027742">
		<tag k="name" v="Langli" />
		<tag k="place" v="farm" />
		<tag k="ssr:stedsnr" v="508410" />
	</node>
	<node id="-23078" lat="59.6451388891" lon="10.80732777">
		<tag k="alt_name" v="Eldor østre" />
		<tag k="name" v="Østre Eldor" />
		<tag k="place" v="farm" />
		<tag k="ssr:stedsnr" v="508328" />
	</node>
	<node id="-23077" lat="59.6415861124" lon="10.765913896">
		<tag k="name" v="Børsumbråten" />
		<tag k="place" v="isolated_dwelling" />
		<tag k="ssr:stedsnr" v="508312" />
	</node>
	<node id="-23076" lat="59.6509888857" lon="10.7603333352">
		<tag k="alt_name" v="Børsum øvre" />
		<tag k="name" v="Øvre Børsum" />
		<tag k="place" v="farm" />
		<tag k="ssr:stedsnr" v="508308" />
	</node>
	<node id="-23075" lat="59.6355194486" lon="10.8476472169">
		<tag k="name" v="Vestereng" />
		<tag k="place" v="farm" />
		<tag k="ssr:stedsnr" v="508054" />
	</node>
	<node id="-23074" lat="59.6405388928" lon="10.8333361118">
		<tag k="name" v="Heia" />
		<tag k="place" v="farm" />
		<tag k="ssr:stedsnr" v="508041" />
	</node>
	<node id="-23073" lat="59.631675" lon="10.8442888885">
		<tag k="name" v="Sutterhol" />
		<tag k="place" v="farm" />
		<tag k="ssr:stedsnr" v="508005" />
	</node>
	<node id="-23071" lat="59.7530333333" lon="10.7538222192">
		<tag k="alt_name" v="Nybråtan" />
		<tag k="name" v="Nybråten" />
		<tag k="place" v="isolated_dwelling" />
		<tag k="ssr:stedsnr" v="490369" />
	</node>
	<node id="-23070" lat="59.6576444421" lon="10.6917944479">
		<tag k="name" v="Skoftestad" />
		<tag k="place" v="farm" />
		<tag k="ssr:stedsnr" v="489829" />
	</node>
	<node id="-23068" lat="59.6993111088" lon="10.7817750022">
		<tag k="name" v="Sneis" />
		<tag k="place" v="farm" />
		<tag k="ssr:stedsnr" v="489418" />
	</node>
	<node id="-23066" lat="59.6658999979" lon="10.7203999976">
		<tag k="name" v="Rustad" />
		<tag k="place" v="farm" />
		<tag k="ssr:stedsnr" v="488443" />
	</node>
	<node id="-23065" lat="59.6659555519" lon="10.7427361098">
		<tag k="name" v="Kvestad" />
		<tag k="place" v="farm" />
		<tag k="ssr:stedsnr" v="488441" />
	</node>
	<node id="-23064" lat="59.611625004" lon="10.8569777799">
		<tag k="name" v="Tierud" />
		<tag k="place" v="locality" />
		<tag k="ssr:stedsnr" v="488351" />
	</node>
	<node id="-23063" lat="59.6308250033" lon="10.8347527696">
		<tag k="name" v="Rød" />
		<tag k="place" v="farm" />
		<tag k="ssr:stedsnr" v="488292" />
	</node>
	<node id="-23062" lat="59.6346916682" lon="10.8148305627">
		<tag k="name" v="Ommen" />
		<tag k="place" v="farm" />
		<tag k="ssr:stedsnr" v="488267" />
	</node>
	<node id="-23061" lat="59.6453138866" lon="10.8066249925">
		<tag k="name" v="Eldor" />
		<tag k="place" v="farm" />
		<tag k="ssr:stedsnr" v="488247" />
	</node>
	<node id="-23060" lat="59.6428472262" lon="10.8296611071">
		<tag k="name" v="Revhaug" />
		<tag k="place" v="farm" />
		<tag k="ssr:stedsnr" v="488245" />
	</node>
	<node id="-23059" lat="59.6470138912" lon="10.7885138916">
		<tag k="alt_name" v="Brekka, m;Brekke mellom;Brekken mellem" />
		<tag k="name" v="Mellom-Brekke" />
		<tag k="place" v="farm" />
		<tag k="ssr:stedsnr" v="488239" />
	</node>
	<node id="-23058" lat="59.658147223" lon="10.8022250053">
		<tag k="fixme" v="consider place=hamlet" />
		<tag k="name" v="Dyster" />
		<tag k="place" v="farm" />
		<tag k="ssr:stedsnr" v="488224" />
	</node>
	<node id="-23056" lat="59.6249337848" lon="10.8226906981">
		<tag k="name" v="Bråta" />
		<tag k="old_name" v="Braate" />
		<tag k="place" v="hamlet" />
		<tag k="ssr:stedsnr" v="465082" />
	</node>
	<node id="-23055" lat="59.7462694452" lon="10.7282916706">
		<tag k="name" v="Bogen" />
		<tag k="place" v="isolated_dwelling" />
		<tag k="ssr:stedsnr" v="450247" />
	</node>
	<node id="-23054" lat="59.6692111082" lon="10.8067416644">
		<tag k="name" v="Rustadskog" />
		<tag k="place" v="quarter" />
		<tag k="ssr:stedsnr" v="448684" />
	</node>
	<node id="-23053" lat="59.7192527774" lon="10.8050305561">
		<tag k="name" v="Solhaug" />
		<tag k="place" v="hamlet" />
		<tag k="ssr:stedsnr" v="448400" />
	</node>
	<node id="-23052" lat="59.7217138912" lon="10.7689361038">
		<tag k="name" v="Liahøy" />
		<tag k="place" v="isolated_dwelling" />
		<tag k="ssr:stedsnr" v="448399" />
	</node>
	<node id="-23051" lat="59.7145027761" lon="10.7459777769">
		<tag k="name" v="Nordli" />
		<tag k="place" v="farm" />
		<tag k="ssr:stedsnr" v="448381" />
	</node>
	<node id="-23050" lat="59.7036111114" lon="10.7658138955">
		<tag k="alt_name" v="Sundby søndre" />
		<tag k="name" v="Søndre Sundby" />
		<tag k="place" v="farm" />
		<tag k="ssr:stedsnr" v="448380" />
	</node>
	<node id="-23049" lat="59.7213583338" lon="10.7724249928">
		<tag k="alt_name" v="Nordby nordre" />
		<tag k="name" v="Nordre Nordby" />
		<tag k="place" v="farm" />
		<tag k="ssr:stedsnr" v="448371" />
	</node>
	<node id="-23048" lat="59.7208333346" lon="10.7727861104">
		<tag k="alt_name" v="Nordby østre" />
		<tag k="name" v="Østre Nordby" />
		<tag k="place" v="farm" />
		<tag k="ssr:stedsnr" v="448368" />
	</node>
	<node id="-23047" lat="59.6495361152" lon="10.7899388831">
		<tag k="name" v="Sandsgård" />
		<tag k="place" v="farm" />
		<tag k="ssr:stedsnr" v="448351" />
	</node>
	<node id="-23044" lat="59.6583417244" lon="10.6793702765">
		<tag k="alt_name" v="Klommestein nordre" />
		<tag k="name" v="Nordre Klommestein" />
		<tag k="place" v="farm" />
		<tag k="ssr:stedsnr" v="447848" />
	</node>
	<node id="-23041" lat="59.666049325" lon="10.766287592">
		<tag k="amenity" v="university" />
		<tag k="fixme" v="multiple name tags, choose one and add the other to alt_name" />
		<tag k="name" v="Norges miljø- og biovitenskapelige universitet;NMBU" />
		<tag k="old_name" v="Norges landbrukshøgskole;UMB;NLH;Universitetet for miljø- og biovitenskap" />
		<tag k="ssr:stedsnr" v="447634" />
	</node>
	<node id="-23039" lat="59.7343055541" lon="10.7560666578">
		<tag k="name" v="Togrenda" />
		<tag k="place" v="quarter" />
		<tag k="ssr:stedsnr" v="447435" />
	</node>
	<node id="-23034" lat="59.6863083293" lon="10.8058027715">
		<tag k="alt_name" v="Haugerud vestre" />
		<tag k="name" v="Vestre Haugerud" />
		<tag k="place" v="farm" />
		<tag k="ssr:stedsnr" v="447402" />
	</node>
	<node id="-23031" lat="59.6964527762" lon="10.7448111042">
		<tag k="name" v="Lurenga" />
		<tag k="place" v="isolated_dwelling" />
		<tag k="ssr:stedsnr" v="447384" />
	</node>
	<node id="-23030" lat="59.6909750025" lon="10.7661861096">
		<tag k="name" v="Kjærsrud" />
		<tag k="place" v="isolated_dwelling" />
		<tag k="ssr:stedsnr" v="447379" />
	</node>
	<node id="-23029" lat="59.6855555556" lon="10.7732777749">
		<tag k="name" v="Stein" />
		<tag k="place" v="farm" />
		<tag k="ssr:stedsnr" v="447378" />
	</node>
	<node id="-23028" lat="59.6466500013" lon="10.8319944412">
		<tag k="name" v="Stigen" />
		<tag k="place" v="farm" />
		<tag k="ssr:stedsnr" v="447045" />
	</node>
	<node id="-23027" lat="59.6426833318" lon="10.8589861123">
		<tag k="name" v="Steinbråten" />
		<tag k="place" v="isolated_dwelling" />
		<tag k="ssr:stedsnr" v="447027" />
	</node>
	<node id="-23025" lat="59.652566668" lon="10.686733329">
		<tag k="alt_name" v="Skoftestad, søndre;Skoftestad søndre" />
		<tag k="name" v="Søndre Skoftestad" />
		<tag k="place" v="farm" />
		<tag k="ssr:stedsnr" v="429828" />
	</node>
	<node id="-23024" lat="59.6483221033" lon="10.6876143382">
		<tag k="fixme" v="consider place=hamlet" />
		<tag k="name" v="Kinn" />
		<tag k="place" v="farm" />
		<tag k="ssr:stedsnr" v="428837" />
	</node>
	<node id="-23023" lat="59.7206416636" lon="10.7624388957">
		<tag k="name" v="Kirkerud" />
		<tag k="place" v="farm" />
		<tag k="ssr:stedsnr" v="428521" />
	</node>
	<node id="-23022" lat="59.6768805525" lon="10.7202555549">
		<tag k="name" v="Smedbøl" />
		<tag k="place" v="farm" />
		<tag k="ssr:stedsnr" v="428422" />
	</node>
	<node id="-23021" lat="59.7025222251" lon="10.8279055642">
		<tag k="name" v="Sjønhaug" />
		<tag k="place" v="isolated_dwelling" />
		<tag k="ssr:stedsnr" v="428363" />
	</node>
	<node id="-23020" lat="59.7066055537" lon="10.7695111079">
		<tag k="name" v="Øvre Melby" />
		<tag k="place" v="farm" />
		<tag k="ssr:stedsnr" v="428343" />
	</node>
	<node id="-23019" lat="59.6311277779" lon="10.7739249956">
		<tag k="name" v="Fjellet" />
		<tag k="place" v="farm" />
		<tag k="ssr:stedsnr" v="428299" />
	</node>
	<node id="-23018" lat="59.6218749974" lon="10.8703277744">
		<tag k="name" v="Gåvim" />
		<tag k="place" v="farm" />
		<tag k="ssr:stedsnr" v="428297" />
	</node>
	<node id="-23017" lat="59.6492305583" lon="10.7420805518">
		<tag k="name" v="Kongstein" />
		<tag k="place" v="farm" />
		<tag k="ssr:stedsnr" v="428256" />
	</node>
	<node id="-23012" lat="59.6576916708" lon="10.7058527779">
		<tag k="name" v="Skogstad" />
		<tag k="place" v="farm" />
		<tag k="ssr:stedsnr" v="265866" />
	</node>
	<node id="-23010" lat="59.6347972249" lon="10.8090527844">
		<tag k="name" v="Tangen" />
		<tag k="place" v="farm" />
		<tag k="ssr:stedsnr" v="265750" />
	</node>
	<node id="-23009" lat="59.6202944448" lon="10.8273277744">
		<tag k="name" v="Kølabonn" />
		<tag k="place" v="farm" />
		<tag k="ssr:stedsnr" v="265747" />
	</node>
	<node id="-23008" lat="59.619644449" lon="10.8208166585">
		<tag k="name" v="Dammyra" />
		<tag k="place" v="isolated_dwelling" />
		<tag k="ssr:stedsnr" v="265748" />
	</node>
	<node id="-23006" lat="59.6800805597" lon="10.7373666607">
		<tag k="alt_name" v="Trosterud søndre" />
		<tag k="name" v="Søndre Trosterud" />
		<tag k="place" v="farm" />
		<tag k="ssr:stedsnr" v="265717" />
	</node>
	<node id="-23004" lat="59.6804583301" lon="10.7659083315">
		<tag k="leisure" v="pitch" />
		<tag k="name" v="Norderåsbakken" />
		<tag k="ssr:stedsnr" v="265688" />
	</node>
	<node id="-23003" lat="59.6636777754" lon="10.7864083243">
		<tag k="amenity" v="school" />
		<tag k="name" v="Åsgård skole" />
		<tag k="ssr:stedsnr" v="265680" />
	</node>
	<node id="-23002" lat="59.6805138879" lon="10.8129333249">
		<tag k="name" v="Sandli" />
		<tag k="place" v="isolated_dwelling" />
		<tag k="ssr:stedsnr" v="265675" />
	</node>
	<node id="-23000" lat="59.7316916664" lon="10.7374333377">
		<tag k="name" v="Sundet" />
		<tag k="place" v="locality" />
		<tag k="ssr:stedsnr" v="265504" />
	</node>
	<node id="-22998" lat="59.6998722194" lon="10.7799611168">
		<tag k="alt_name" v="Sneis vestre" />
		<tag k="name" v="Vestre Sneis" />
		<tag k="place" v="farm" />
		<tag k="ssr:stedsnr" v="265452" />
	</node>
	<node id="-22997" lat="59.6987777798" lon="10.7814916606">
		<tag k="alt_name" v="Sneis søndre" />
		<tag k="name" v="Søndre Sneis" />
		<tag k="place" v="farm" />
		<tag k="ssr:stedsnr" v="265449" />
	</node>
	<node id="-22994" lat="59.6483749957" lon="10.7604277847">
		<tag k="alt_name" v="Børsum midtre" />
		<tag k="name" v="Midtre Børsum" />
		<tag k="place" v="farm" />
		<tag k="ssr:stedsnr" v="265330" />
	</node>
	<node id="-22993" lat="59.6541527816" lon="10.8023888833">
		<tag k="name" v="Blåfjellet" />
		<tag k="place" v="hamlet" />
		<tag k="ssr:stedsnr" v="265328" />
	</node>
	<node id="-22992" lat="59.6434527776" lon="10.7217222295">
		<tag k="alt_name" v="Iversrud nordre" />
		<tag k="name" v="Nordre Iversrud" />
		<tag k="place" v="farm" />
		<tag k="ssr:stedsnr" v="265308" />
	</node>
	<node id="-22991" lat="59.7026666674" lon="10.841024996">
		<tag k="name" v="Grønlund" />
		<tag k="place" v="farm" />
		<tag k="ssr:stedsnr" v="265088" />
	</node>
	<node id="-22990" lat="59.6144277781" lon="10.8732527723">
		<tag k="name" v="Østby" />
		<tag k="place" v="farm" />
		<tag k="ssr:stedsnr" v="265040" />
	</node>
	<node id="-22989" lat="59.6515027749" lon="10.839088883">
		<tag k="alt_name" v="Sørli (nedl.)" />
		<tag k="name" v="Sørli" />
		<tag k="place" v="locality" />
		<tag k="ssr:stedsnr" v="265028" />
	</node>
	<node id="-22984" lat="59.7352138883" lon="10.7544194363">
		<tag k="name" v="To" />
		<tag k="place" v="farm" />
		<tag k="ssr:stedsnr" v="246583" />
	</node>
	<node id="-22982" lat="59.696350004" lon="10.8510777762">
		<tag k="alt_name" v="Hagalund" />
		<tag k="name" v="Hagelund" />
		<tag k="place" v="farm" />
		<tag k="ssr:stedsnr" v="246386" />
	</node>
	<node id="-22981" lat="59.6614027761" lon="10.7741861137">
		<tag k="name" v="Sørås" />
		<tag k="place" v="farm" />
		<tag k="ssr:stedsnr" v="245451" />
	</node>
	<node id="-22980" lat="59.7077083313" lon="10.7857722277">
		<tag k="name" v="Sørli" />
		<tag k="place" v="isolated_dwelling" />
		<tag k="ssr:stedsnr" v="245363" />
	</node>
	<node id="-22979" lat="59.6394313908" lon="10.795718581">
		<tag k="fixme" v="consider place=hamlet" />
		<tag k="name" v="Hogstvet" />
		<tag k="place" v="farm" />
		<tag k="ssr:stedsnr" v="245285" />
	</node>
	<node id="-22978" lat="59.6516499993" lon="10.7721472151">
		<tag k="name" v="Herumhagen" />
		<tag k="place" v="farm" />
		<tag k="ssr:stedsnr" v="245237" />
	</node>
	<node id="-22977" lat="59.6432123516" lon="10.7003110721">
		<tag k="fixme" v="consider place=hamlet" />
		<tag k="name" v="Gultvet" />
		<tag k="place" v="farm" />
		<tag k="ssr:stedsnr" v="242185" />
	</node>
	<node id="-22973" lat="59.7225805555" lon="10.7285833408">
		<tag k="name" v="Paris" />
		<tag k="place" v="isolated_dwelling" />
		<tag k="ssr:stedsnr" v="205409" />
	</node>
	<node id="-22971" lat="59.7562250029" lon="10.7432638892">
		<tag k="name" v="Stormannsbråten" />
		<tag k="place" v="locality" />
		<tag k="ssr:stedsnr" v="204806" />
	</node>
	<node id="-22969" lat="59.6601666684" lon="10.7328750033">
		<tag k="alt_name" v="Treider vestre" />
		<tag k="name" v="Vestre Treider" />
		<tag k="place" v="farm" />
		<tag k="ssr:stedsnr" v="204654" />
	</node>
	<node id="-22966" lat="59.6869611099" lon="10.7656305574">
		<tag k="name" v="Dylterud" />
		<tag k="place" v="farm" />
		<tag k="ssr:stedsnr" v="204359" />
	</node>
	<node id="-22965" lat="59.6438722248" lon="10.779069441">
		<tag k="name" v="Lillerød" />
		<tag k="place" v="farm" />
		<tag k="ssr:stedsnr" v="204283" />
	</node>
	<node id="-22963" lat="59.6899611076" lon="10.8434111114">
		<tag k="alt_name" v="Hauger østre" />
		<tag k="name" v="Østre Hauger" />
		<tag k="place" v="farm" />
		<tag k="ssr:stedsnr" v="204073" />
	</node>
	<node id="-22962" lat="59.7437249998" lon="10.8075444382">
		<tag k="name" v="Nordstuene" />
		<tag k="place" v="farm" />
		<tag k="ssr:stedsnr" v="204013" />
	</node>
	<node id="-22959" lat="59.681338885" lon="10.7436055641">
		<tag k="name" v="Fosterud" />
		<tag k="place" v="farm" />
		<tag k="ssr:stedsnr" v="186476" />
	</node>
	<node id="-22958" lat="59.681916663" lon="10.7272611166">
		<tag k="name" v="Nordstrand" />
		<tag k="place" v="farm" />
		<tag k="ssr:stedsnr" v="186473" />
	</node>
	<node id="-22957" lat="59.6912722179" lon="10.801269439">
		<tag k="alt_name" v="Holstad, øvre;Holstad øvre" />
		<tag k="name" v="Øvre Holstad" />
		<tag k="place" v="farm" />
		<tag k="ssr:stedsnr" v="186451" />
	</node>
	<node id="-22956" lat="59.6944388866" lon="10.7814583415">
		<tag k="name" v="Grøstad" />
		<tag k="place" v="farm" />
		<tag k="ssr:stedsnr" v="186439" />
	</node>
	<node id="-22955" lat="59.6796249971" lon="10.7690583396">
		<tag k="name" v="Norderås" />
		<tag k="place" v="farm" />
		<tag k="ssr:stedsnr" v="186504" />
	</node>
	<node id="-22954" lat="59.6440490906" lon="10.7142118747">
		<tag k="fixme" v="consider place=hamlet" />
		<tag k="name" v="Myrer" />
		<tag k="place" v="farm" />
		<tag k="ssr:stedsnr" v="185825" />
	</node>
	<node id="-22952" lat="59.7280666676" lon="10.7588277772">
		<tag k="name" v="Bølstad" />
		<tag k="place" v="farm" />
		<tag k="ssr:stedsnr" v="185524" />
	</node>
	<node id="-22951" lat="59.7441777781" lon="10.767455563">
		<tag k="name" v="Sjøskogen" />
		<tag k="place" v="quarter" />
		<tag k="ssr:stedsnr" v="185460" />
	</node>
	<node id="-22950" lat="59.6098472229" lon="10.8800749934">
		<tag k="fixme" v="consider place=hamlet" />
		<tag k="name" v="Ålerud" />
		<tag k="place" v="farm" />
		<tag k="ssr:stedsnr" v="185356" />
	</node>
	<node id="-22949" lat="59.6404250019" lon="10.8555416627">
		<tag k="alt_name" v="Kroer, nordre;Nord-Kroer;Kroer nordre" />
		<tag k="name" v="Nordre Kroer" />
		<tag k="place" v="farm" />
		<tag k="ssr:stedsnr" v="185290" />
	</node>
	<node id="-22948" lat="59.6566666694" lon="10.773122222">
		<tag k="name" v="Tomter" />
		<tag k="place" v="farm" />
		<tag k="ssr:stedsnr" v="185239" />
	</node>
	<node id="-22946" lat="59.7629055515" lon="10.7287944485">
		<tag k="name" v="Sjøstrand" />
		<tag k="place" v="isolated_dwelling" />
		<tag k="ssr:stedsnr" v="146201" />
	</node>
	<node id="-22943" lat="59.6577944451" lon="10.7136888927">
		<tag k="alt_name" v="Holstad søndre" />
		<tag k="name" v="Søndre Holstad" />
		<tag k="place" v="farm" />
		<tag k="ssr:stedsnr" v="143838" />
	</node>
	<node id="-22942" lat="59.6693111156" lon="10.7170111112">
		<tag k="alt_name" v="Hogsmark nordre" />
		<tag k="name" v="Nordre Hogsmark" />
		<tag k="place" v="farm" />
		<tag k="ssr:stedsnr" v="143822" />
	</node>
	<node id="-22941" lat="59.7596166645" lon="10.7284416689">
		<tag k="name" v="Linneflauet" />
		<tag k="place" v="isolated_dwelling" />
		<tag k="ssr:stedsnr" v="143814" />
	</node>
	<node id="-22940" lat="59.7473361128" lon="10.7414638806">
		<tag k="name" v="Libråten" />
		<tag k="place" v="farm" />
		<tag k="ssr:stedsnr" v="143813" />
	</node>
	<node id="-22939" lat="59.6802277812" lon="10.7224611088">
		<tag k="name" v="Bakkelund" />
		<tag k="place" v="isolated_dwelling" />
		<tag k="ssr:stedsnr" v="143677" />
	</node>
	<node id="-22938" lat="59.6604361095" lon="10.755697225">
		<tag k="alt_name" v="Voll østre" />
		<tag k="name" v="Østre Voll" />
		<tag k="place" v="farm" />
		<tag k="ssr:stedsnr" v="143673" />
	</node>
	<node id="-22935" lat="59.6816638871" lon="10.7783333368">
		<tag k="name" v="Lund" />
		<tag k="place" v="farm" />
		<tag k="ssr:stedsnr" v="143430" />
	</node>
	<node id="-22934" lat="59.6959888907" lon="10.8280361124">
		<tag k="alt_name" v="Kjølstad østre" />
		<tag k="name" v="Østre Kjølstad" />
		<tag k="place" v="farm" />
		<tag k="ssr:stedsnr" v="143426" />
	</node>
	<node id="-22933" lat="59.649297218" lon="10.7970416722">
		<tag k="name" v="Lier" />
		<tag k="place" v="hamlet" />
		<tag k="ssr:stedsnr" v="143273" />
	</node>
	<node id="-22932" lat="59.6143416692" lon="10.8771861042">
		<tag k="name" v="Ålerudneset" />
		<tag k="place" v="farm" />
		<tag k="ssr:stedsnr" v="143045" />
	</node>
	<node id="-22931" lat="59.6057555523" lon="10.8644500073">
		<tag k="name" v="Piskenhus" />
		<tag k="place" v="locality" />
		<tag k="ssr:stedsnr" v="143034" />
	</node>
	<node id="-22930" lat="59.6472166699" lon="10.8319388898">
		<tag k="name" v="Høgda" />
		<tag k="place" v="farm" />
		<tag k="ssr:stedsnr" v="143025" />
	</node>
	<node id="-22929" lat="59.6406055582" lon="10.8348250036">
		<tag k="amenity" v="nursing_home" />
		<tag k="name" v="Granås sykehjem" />
		<tag k="ssr:stedsnr" v="143023" />
	</node>
	<node id="-22928" lat="59.6105138868" lon="10.8887138903">
		<tag k="name" v="Bakkenga" />
		<tag k="place" v="isolated_dwelling" />
		<tag k="ssr:stedsnr" v="143073" />
	</node>
	<node id="-22926" lat="59.6715444469" lon="10.7545944374">
		<tag k="alt_name" v="Lopphullet" />
		<tag k="name" v="Loppholet" />
		<tag k="place" v="locality" />
		<tag k="ssr:stedsnr" v="124398" />
	</node>
	<node id="-22925" lat="59.6219111146" lon="10.8223388831">
		<tag k="name" v="Sørbråta" />
		<tag k="place" v="farm" />
		<tag k="ssr:stedsnr" v="124300" />
	</node>
	<node id="-22924" lat="59.6241638911" lon="10.8361277719">
		<tag k="name" v="Sennebråte" />
		<tag k="place" v="farm" />
		<tag k="ssr:stedsnr" v="124273" />
	</node>
	<node id="-22923" lat="59.6483388864" lon="10.8011749939">
		<tag k="name" v="Eldorhagen" />
		<tag k="place" v="farm" />
		<tag k="ssr:stedsnr" v="124230" />
	</node>
	<node id="-22922" lat="59.640830558" lon="10.8467055569">
		<tag k="name" v="Krosser" />
		<tag k="place" v="farm" />
		<tag k="ssr:stedsnr" v="124229" />
	</node>
	<node id="-22921" lat="59.6862461823" lon="10.8064430606">
		<tag k="fixme" v="consider place=hamlet" />
		<tag k="name" v="Haugerud" />
		<tag k="place" v="farm" />
		<tag k="ssr:stedsnr" v="125425" />
	</node>
	<node id="-22920" lat="59.6977055565" lon="10.7729138829">
		<tag k="alt_name" v="Egge" />
		<tag k="name" v="Egget" />
		<tag k="place" v="farm" />
		<tag k="ssr:stedsnr" v="125422" />
	</node>
	<node id="-22916" lat="59.7129333298" lon="10.7639249969">
		<tag k="alt_name" v="Risplass nordre" />
		<tag k="name" v="Nordre Risplass" />
		<tag k="place" v="isolated_dwelling" />
		<tag k="ssr:stedsnr" v="84344" />
	</node>
	<node id="-22915" lat="59.7143388918" lon="10.769138884">
		<tag k="name" v="Rislunden" />
		<tag k="place" v="isolated_dwelling" />
		<tag k="ssr:stedsnr" v="84338" />
	</node>
	<node id="-22911" lat="59.6696555573" lon="10.7290861134">
		<tag k="alt_name" v="Tokerud søndre" />
		<tag k="name" v="Søndre Tokerud" />
		<tag k="place" v="farm" />
		<tag k="ssr:stedsnr" v="83697" />
	</node>
	<node id="-22910" lat="59.6735555597" lon="10.7309111043">
		<tag k="name" v="Apaltun" />
		<tag k="place" v="isolated_dwelling" />
		<tag k="ssr:stedsnr" v="83687" />
	</node>
	<node id="-22907" lat="59.7027666651" lon="10.7480111132">
		<tag k="name" v="Sundbyødegården" />
		<tag k="place" v="farm" />
		<tag k="ssr:stedsnr" v="83416" />
	</node>
	<node id="-22906" lat="59.6521527738" lon="10.7898361033">
		<tag k="name" v="Moer" />
		<tag k="place" v="quarter" />
		<tag k="ssr:stedsnr" v="83308" />
	</node>
	<node id="-22905" lat="59.6669805529" lon="10.7833583318">
		<tag k="name" v="Kaia" />
		<tag k="place" v="locality" />
		<tag k="ssr:stedsnr" v="83265" />
	</node>
	<node id="-22903" lat="59.6327555524" lon="10.8482138914">
		<tag k="amenity" v="school" />
		<tag k="name" v="Kroer skole" />
		<tag k="ssr:stedsnr" v="83050" />
	</node>
	<node id="-22901" lat="59.7257444461" lon="10.7943750064">
		<tag k="name" v="Lilleby" />
		<tag k="place" v="isolated_dwelling" />
		<tag k="ssr:stedsnr" v="83020" />
	</node>
	<node id="-22900" lat="59.6317694434" lon="10.853863895">
		<tag k="name" v="Eng" />
		<tag k="place" v="farm" />
		<tag k="ssr:stedsnr" v="83005" />
	</node>
	<node id="-22899" lat="59.6685805557" lon="10.6879055628">
		<tag k="name" v="Torp" />
		<tag k="place" v="farm" />
		<tag k="ssr:stedsnr" v="65891" />
	</node>
	<node id="-22898" lat="59.6429494239" lon="10.7006751808">
		<tag k="name" v="Gultvedt" />
		<tag k="place" v="farm" />
		<tag k="ssr:stedsnr" v="64855" />
	</node>
	<node id="-22897" lat="59.6760051774" lon="10.7786983606">
		<tag k="fixme" v="consider place=hamlet" />
		<tag k="name" v="Østby" />
		<tag k="place" v="farm" />
		<tag k="ssr:stedsnr" v="64449" />
	</node>
	<node id="-22896" lat="59.6709388882" lon="10.8125111117">
		<tag k="name" v="Nyborg" />
		<tag k="place" v="isolated_dwelling" />
		<tag k="ssr:stedsnr" v="64447" />
	</node>
	<node id="-22895" lat="59.6732583315" lon="10.8222583381">
		<tag k="name" v="Torderud" />
		<tag k="place" v="farm" />
		<tag k="ssr:stedsnr" v="64446" />
	</node>
	<node id="-22894" lat="59.6933083297" lon="10.8425416666">
		<tag k="name" v="Haga" />
		<tag k="place" v="farm" />
		<tag k="ssr:stedsnr" v="64399" />
	</node>
	<node id="-22893" lat="59.6877027764" lon="10.836624995">
		<tag k="alt_name" v="Østensjø, søndre;Østensjø søndre" />
		<tag k="name" v="Søndre Østensjø" />
		<tag k="place" v="farm" />
		<tag k="ssr:stedsnr" v="64398" />
	</node>
	<node id="-22892" lat="59.6968583312" lon="10.8221833281">
		<tag k="alt_name" v="Kjølstad;Kjølstad vestre (nedl.)" />
		<tag k="name" v="Vestre Kjølstad" />
		<tag k="place" v="farm" />
		<tag k="ssr:stedsnr" v="64394" />
	</node>
	<node id="-22890" lat="59.6263500007" lon="10.8241777816">
		<tag k="fixme" v="multiple name tags, choose one and add the other to alt_name" />
		<tag k="name" v="Østbråta;Bråte, nordre;Nordre Bråte" />
		<tag k="place" v="farm" />
		<tag k="ssr:stedsnr" v="64326" />
	</node>
	<node id="-22888" lat="59.6953305524" lon="10.8281527761">
		<tag k="name" v="Kjølstad" />
		<tag k="place" v="farm" />
		<tag k="ssr:stedsnr" v="64015" />
	</node>
	<node id="-22886" lat="59.7056394762" lon="10.7859745271">
		<tag k="name" v="Nordenga" />
		<tag k="place" v="farm" />
		<tag k="ssr:stedsnr" v="63400" />
	</node>
	<node id="-22885" lat="59.6500527769" lon="10.7909666729">
		<tag k="alt_name" v="Brekka, nordre;Brekke nordre;Brekken nordre" />
		<tag k="name" v="Nordre Brekke" />
		<tag k="place" v="farm" />
		<tag k="ssr:stedsnr" v="63298" />
	</node>
	<node id="-22884" lat="59.6542500037" lon="10.8315249915">
		<tag k="name" v="Bjørnebekk" />
		<tag k="place" v="farm" />
		<tag k="ssr:stedsnr" v="63279" />
	</node>
	<node id="-22880" lat="59.7609833356" lon="10.7267722156">
		<tag k="name" v="Granum" />
		<tag k="place" v="isolated_dwelling" />
		<tag k="ssr:stedsnr" v="56760" />
	</node>
	<node id="-22878" lat="59.6843888908" lon="10.8050527811">
		<tag k="name" v="Bjerklund" />
		<tag k="place" v="isolated_dwelling" />
		<tag k="ssr:stedsnr" v="23490" />
	</node>
	<node id="-22877" lat="59.7051361144" lon="10.7667138855">
		<tag k="alt_name" v="Sundby østre" />
		<tag k="name" v="Østre Sundby" />
		<tag k="place" v="farm" />
		<tag k="ssr:stedsnr" v="23398" />
	</node>
	<node id="-22876" lat="59.6478499965" lon="10.6867972249">
		<tag k="alt_name" v="Kinn søndre" />
		<tag k="name" v="Søndre Kinn" />
		<tag k="place" v="farm" />
		<tag k="ssr:stedsnr" v="22853" />
	</node>
	<node id="-22875" lat="59.6445916674" lon="10.7164583335">
		<tag k="alt_name" v="Myrer østre" />
		<tag k="name" v="Østre Myrer" />
		<tag k="place" v="farm" />
		<tag k="ssr:stedsnr" v="22849" />
	</node>
	<node id="-22874" lat="59.653019442" lon="10.7044305607">
		<tag k="alt_name" v="Vennersgård vestre;Vestre Vennersgård" />
		<tag k="name" v="Vestre Venneskål" />
		<tag k="place" v="farm" />
		<tag k="ssr:stedsnr" v="22844" />
	</node>
	<node id="-22870" lat="59.6662757334" lon="10.7634714364">
		<tag k="leisure" v="park" />
		<tag k="name" v="Fougnerhaugen" />
		<tag k="ssr:stedsnr" v="22676" />
	</node>
	<node id="-22869" lat="59.6743388851" lon="10.7264111167">
		<tag k="name" v="Bekkevang" />
		<tag k="place" v="farm" />
		<tag k="ssr:stedsnr" v="22674" />
	</node>
	<node id="-22868" lat="59.677608337" lon="10.7310055525">
		<tag k="name" v="Hønserud" />
		<tag k="place" v="isolated_dwelling" />
		<tag k="ssr:stedsnr" v="22670" />
	</node>
	<node id="-22867" lat="59.6732972242" lon="10.7475722164">
		<tag k="name" v="Fagernes" />
		<tag k="place" v="isolated_dwelling" />
		<tag k="ssr:stedsnr" v="22669" />
	</node>
	<node id="-22866" lat="59.6811305526" lon="10.7507194412">
		<tag k="name" v="Kinnåsen" />
		<tag k="place" v="isolated_dwelling" />
		<tag k="ssr:stedsnr" v="22664" />
	</node>
	<node id="-22864" lat="59.7444583303" lon="10.7400944456">
		<tag k="name" v="Ekeberg" />
		<tag k="place" v="isolated_dwelling" />
		<tag k="ssr:stedsnr" v="22442" />
	</node>
	<node id="-22863" lat="59.7259472217" lon="10.7591666651">
		<tag k="name" v="Sporret" />
		<tag k="place" v="quarter" />
		<tag k="ssr:stedsnr" v="22440" />
	</node>
	<node id="-22860" lat="59.7200861151" lon="10.7980750073">
		<tag k="alt_name" v="Solberg østre" />
		<tag k="name" v="Østre Solberg" />
		<tag k="place" v="farm" />
		<tag k="ssr:stedsnr" v="22367" />
	</node>
	<node id="-22859" lat="59.7200138854" lon="10.7864222211">
		<tag k="name" v="Nygård" />
		<tag k="place" v="farm" />
		<tag k="ssr:stedsnr" v="22363" />
	</node>
	<node id="-22858" lat="59.649341664" lon="10.8031499938">
		<tag k="name" v="Nylenna" />
		<tag k="place" v="farm" />
		<tag k="ssr:stedsnr" v="22298" />
	</node>
	<node id="-22857" lat="59.6512138895" lon="10.7527083387">
		<tag k="name" v="Lund" />
		<tag k="place" v="isolated_dwelling" />
		<tag k="ssr:stedsnr" v="22291" />
	</node>
	<node id="-22856" lat="59.6493944422" lon="10.7956861172">
		<tag k="name" v="Brekkeskog" />
		<tag k="place" v="quarter" />
		<tag k="ssr:stedsnr" v="22283" />
	</node>
	<node id="-22855" lat="59.6635694426" lon="10.778141658">
		<tag k="leisure" v="pitch" />
		<tag k="name" v="Storebrand stadion" />
		<tag k="ssr:stedsnr" v="22256" />
	</node>
	<node id="-22853" lat="59.7259000004" lon="10.796869447">
		<tag k="alt_name" v="Solberg nordre" />
		<tag k="name" v="Nordre Solberg" />
		<tag k="place" v="farm" />
		<tag k="ssr:stedsnr" v="22014" />
	</node>
	<node id="-22852" lat="59.7510888885" lon="10.7995999951">
		<tag k="name" v="Nøstvet" />
		<tag k="place" v="farm" />
		<tag k="ssr:stedsnr" v="5370" />
	</node>
	<node id="-22851" lat="59.6526055534" lon="10.6903499934">
		<tag k="name" v="Kantebakke" />
		<tag k="place" v="farm" />
		<tag k="ssr:stedsnr" v="4845" />
	</node>
	<node id="-22850" lat="59.6815388876" lon="10.7365638803">
		<tag k="name" v="Trosterud" />
		<tag k="place" v="farm" />
		<tag k="ssr:stedsnr" v="4419" />
	</node>
	<node id="-22849" lat="59.6919861085" lon="10.7634555472">
		<tag k="name" v="Sagstua" />
		<tag k="place" v="farm" />
		<tag k="ssr:stedsnr" v="4412" />
	</node>
	<node id="-22848" lat="59.7587305574" lon="10.7799194372">
		<tag k="name" v="Ringnes" />
		<tag k="place" v="isolated_dwelling" />
		<tag k="ssr:stedsnr" v="4408" />
	</node>
	<node id="-22847" lat="59.691500004" lon="10.7865611103">
		<tag k="name" v="Pukstad" />
		<tag k="place" v="farm" />
		<tag k="ssr:stedsnr" v="4398" />
	</node>
	<node id="-22845" lat="59.7425027797" lon="10.7435055507">
		<tag k="alt_name" v="Fåle, nordre;Fåle nordre" />
		<tag k="name" v="Nordre Fåle" />
		<tag k="place" v="farm" />
		<tag k="ssr:stedsnr" v="3453" />
	</node>
	<node id="-22844" lat="59.7040638864" lon="10.7921722188">
		<tag k="name" v="Bjerkeskau" />
		<tag k="place" v="farm" />
		<tag k="ssr:stedsnr" v="3345" />
	</node>
	<node id="-22843" lat="59.7056999964" lon="10.7739944438">
		<tag k="name" v="Melby" />
		<tag k="place" v="farm" />
		<tag k="ssr:stedsnr" v="3339" />
	</node>
	<node id="-22842" lat="59.6271222222" lon="10.8124500042">
		<tag k="name" v="Granerud" />
		<tag k="place" v="farm" />
		<tag k="ssr:stedsnr" v="3293" />
	</node>
	<node id="-22841" lat="59.6500166686" lon="10.7733000056">
		<tag k="name" v="Herum" />
		<tag k="place" v="farm" />
		<tag k="ssr:stedsnr" v="3249" />
	</node>
	<node id="-22840" lat="59.644283333" lon="10.7931055476">
		<tag k="alt_name" v="Brekka, s;Brekke søndre;Brekken søndre" />
		<tag k="name" v="Søndre Brekke" />
		<tag k="place" v="farm" />
		<tag k="ssr:stedsnr" v="3245" />
	</node>
	<node id="-22839" lat="59.6527416639" lon="10.7293805616">
		<tag k="name" v="Spornes" />
		<tag k="place" v="farm" />
		<tag k="ssr:stedsnr" v="3223" />
	</node>
	<node id="-22838" lat="59.723430558" lon="10.7290249995">
		<tag k="name" v="Bekk" />
		<tag k="place" v="isolated_dwelling" />
		<tag k="ssr:stedsnr" v="267293" />
	</node>
	<node id="-22825" lat="59.7466083323" lon="10.7347666609">
		<tag k="alt_name" v="Kjærnes øvre" />
		<tag k="name" v="Øvre Kjærnes" />
		<tag k="place" v="farm" />
		<tag k="ssr:stedsnr" v="386828" />
	</node>
	<node id="-22821" lat="59.6140777816" lon="10.8281972209">
		<tag k="name" v="Nordskau" />
		<tag k="place" v="farm" />
		<tag k="ssr:stedsnr" v="386693" />
	</node>
	<node id="-22819" lat="59.6612249978" lon="10.7356111081">
		<tag k="name" v="Vangensten" />
		<tag k="place" v="isolated_dwelling" />
		<tag k="ssr:stedsnr" v="386674" />
	</node>
	<node id="-22818" lat="59.668613889" lon="10.7258499935">
		<tag k="name" v="Tokerudbakken" />
		<tag k="place" v="isolated_dwelling" />
		<tag k="ssr:stedsnr" v="386675" />
	</node>
	<node id="-22817" lat="59.6659777782" lon="10.7297583398">
		<tag k="name" v="Holtet" />
		<tag k="place" v="farm" />
		<tag k="ssr:stedsnr" v="386667" />
	</node>
	<node id="-22816" lat="59.6769333314" lon="10.7615194396">
		<tag k="name" v="Einarstua" />
		<tag k="place" v="isolated_dwelling" />
		<tag k="ssr:stedsnr" v="386662" />
	</node>
	<node id="-22813" lat="59.6704222243" lon="10.7998111144">
		<tag k="amenity" v="school" />
		<tag k="name" v="Ås ungd. skole" />
		<tag k="ssr:stedsnr" v="386637" />
	</node>
	<node id="-22811" lat="59.6976222237" lon="10.7706388904">
		<tag k="name" v="Kølabonn" />
		<tag k="place" v="isolated_dwelling" />
		<tag k="ssr:stedsnr" v="386397" />
	</node>
	<node id="-22810" lat="59.6456083293" lon="10.8026527813">
		<tag k="alt_name" v="Eldor søndre" />
		<tag k="name" v="Søndre Eldor" />
		<tag k="place" v="farm" />
		<tag k="ssr:stedsnr" v="386307" />
	</node>
	<node id="-22809" lat="59.6492916655" lon="10.833650004">
		<tag k="name" v="Danskerud" />
		<tag k="place" v="farm" />
		<tag k="ssr:stedsnr" v="386041" />
	</node>
	<node id="-22808" lat="59.7415777775" lon="10.7713833295">
		<tag k="name" v="Grimsrud" />
		<tag k="place" v="locality" />
		<tag k="ssr:stedsnr" v="386026" />
	</node>
	<node id="-22807" lat="59.7269194425" lon="10.7951888956">
		<tag k="name" v="Bråtehaugen" />
		<tag k="place" v="farm" />
		<tag k="ssr:stedsnr" v="386023" />
	</node>
	<node id="-22806" lat="59.7430694445" lon="10.8068777776">
		<tag k="name" v="Mellomstuene" />
		<tag k="place" v="farm" />
		<tag k="ssr:stedsnr" v="386022" />
	</node>
	<node id="-22805" lat="59.6193833366" lon="10.8338749915">
		<tag k="name" v="Tørkopp" />
		<tag k="place" v="farm" />
		<tag k="ssr:stedsnr" v="386010" />
	</node>
	<node id="-22804" lat="59.6824749956" lon="10.7538611198">
		<tag k="name" v="Kinn" />
		<tag k="place" v="farm" />
		<tag k="ssr:stedsnr" v="368483" />
	</node>
	<node id="-22803" lat="59.6860861145" lon="10.7660583358">
		<tag k="alt_name" v="Fagerlien" />
		<tag k="name" v="Fagerli" />
		<tag k="place" v="farm" />
		<tag k="ssr:stedsnr" v="368482" />
	</node>
	<node id="-22802" lat="59.6817694488" lon="10.7928194503">
		<tag k="alt_name" v="Slørstad, søndre;Slørstad søndre" />
		<tag k="name" v="Søndre Slørstad" />
		<tag k="place" v="farm" />
		<tag k="ssr:stedsnr" v="368481" />
	</node>
	<node id="-22801" lat="59.6875856759" lon="10.8460031506">
		<tag k="fixme" v="consider place=hamlet" />
		<tag k="name" v="Hauger" />
		<tag k="place" v="farm" />
		<tag k="ssr:stedsnr" v="368439" />
	</node>
	<node id="-22799" lat="59.7166750009" lon="10.7458527817">
		<tag k="name" v="Kaksrudødegården" />
		<tag k="place" v="farm" />
		<tag k="ssr:stedsnr" v="367540" />
	</node>
	<node id="-22798" lat="59.7084250036" lon="10.7573527715">
		<tag k="alt_name" v="Orskau" />
		<tag k="name" v="Orskog" />
		<tag k="place" v="farm" />
		<tag k="ssr:stedsnr" v="367517" />
	</node>
	<node id="-22797" lat="59.7177000027" lon="10.7599222191">
		<tag k="name" v="Kaksrud" />
		<tag k="place" v="farm" />
		<tag k="ssr:stedsnr" v="367505" />
	</node>
	<node id="-22796" lat="59.7434216801" lon="10.8064502792">
		<tag k="fixme" v="consider place=hamlet" />
		<tag k="name" v="Stuene" />
		<tag k="place" v="farm" />
		<tag k="ssr:stedsnr" v="367431" />
	</node>
	<node id="-22795" lat="59.6214888891" lon="10.8741249944">
		<tag k="name" v="Østby" />
		<tag k="place" v="farm" />
		<tag k="ssr:stedsnr" v="367288" />
	</node>
	<node id="-22793" lat="59.6363972227" lon="10.8314805525">
		<tag k="alt_name" v="Helgestad;Helgestad øvre" />
		<tag k="name" v="Øvre Helgestad" />
		<tag k="place" v="farm" />
		<tag k="ssr:stedsnr" v="367246" />
	</node>
	<node id="-22792" lat="59.6350250009" lon="10.7867750028">
		<tag k="name" v="Høyås" />
		<tag k="place" v="farm" />
		<tag k="ssr:stedsnr" v="367245" />
	</node>
	<node id="-22790" lat="59.7549611134" lon="10.7300222297">
		<tag k="name" v="Nedre Kjøye" />
		<tag k="place" v="isolated_dwelling" />
		<tag k="ssr:stedsnr" v="359741" />
	</node>
	<node id="-22786" lat="59.7473222209" lon="10.7302833301">
		<tag k="alt_name" v="Kjærnes nedre" />
		<tag k="name" v="Nedre Kjærnes" />
		<tag k="place" v="farm" />
		<tag k="ssr:stedsnr" v="326829" />
	</node>
	<node id="-22785" lat="59.7521777815" lon="10.7246444382">
		<tag k="name" v="Bratli" />
		<tag k="place" v="isolated_dwelling" />
		<tag k="ssr:stedsnr" v="326811" />
	</node>
	<node id="-22783" lat="59.6378833307" lon="10.7941499913">
		<tag k="alt_name" v="Hogstvet vestre" />
		<tag k="name" v="Vestre Hogstvet" />
		<tag k="place" v="farm" />
		<tag k="ssr:stedsnr" v="326723" />
	</node>
	<node id="-22782" lat="59.6615805517" lon="10.7729055555">
		<tag k="name" v="Sørås" />
		<tag k="place" v="quarter" />
		<tag k="ssr:stedsnr" v="326704" />
	</node>
	<node id="-22780" lat="59.6642416681" lon="10.8089250081">
		<tag k="name" v="Dysterlia" />
		<tag k="place" v="quarter" />
		<tag k="ssr:stedsnr" v="326672" />
	</node>
	<node id="-22779" lat="59.6627222214" lon="10.8174000036">
		<tag k="name" v="Kjetilsrud" />
		<tag k="place" v="quarter" />
		<tag k="ssr:stedsnr" v="326671" />
	</node>
	<node id="-22778" lat="59.6720500014" lon="10.7987083282">
		<tag k="name" v="Grønnslett" />
		<tag k="place" v="quarter" />
		<tag k="ssr:stedsnr" v="326669" />
	</node>
	<node id="-22777" lat="59.6628916622" lon="10.8266750014">
		<tag k="name" v="Monsrud" />
		<tag k="place" v="farm" />
		<tag k="ssr:stedsnr" v="326666" />
	</node>
	<node id="-22776" lat="59.6729972245" lon="10.8152638934">
		<tag k="name" v="Kampenhaug" />
		<tag k="place" v="isolated_dwelling" />
		<tag k="ssr:stedsnr" v="326665" />
	</node>
	<node id="-22775" lat="59.6618722246" lon="10.8044527739">
		<tag k="amenity" v="nursing_home" />
		<tag k="name" v="Follo helseheim" />
		<tag k="ssr:stedsnr" v="326659" />
	</node>
	<node id="-22774" lat="59.7250666625" lon="10.7624833336">
		<tag k="amenity" v="school" />
		<tag k="name" v="Nordby skole" />
		<tag k="ssr:stedsnr" v="326492" />
	</node>
	<node id="-22771" lat="59.6994333347" lon="10.7831916579">
		<tag k="alt_name" v="Sneis østre" />
		<tag k="name" v="Østre Sneis" />
		<tag k="place" v="farm" />
		<tag k="ssr:stedsnr" v="326465" />
	</node>
	<node id="-22770" lat="59.6462055552" lon="10.8049027851">
		<tag k="alt_name" v="Eldor vestre" />
		<tag k="name" v="Vestre Eldor" />
		<tag k="place" v="farm" />
		<tag k="ssr:stedsnr" v="326338" />
	</node>
	<node id="-22769" lat="59.6477166645" lon="10.7868388906">
		<tag k="name" v="Fjellvang" />
		<tag k="place" v="farm" />
		<tag k="ssr:stedsnr" v="326329" />
	</node>
	<node id="-22768" lat="59.6384555598" lon="10.8207805527">
		<tag k="alt_name" v="Kjetterud" />
		<tag k="amenity" v="cafe" />
		<tag k="name" v="Trampen" />
		<tag k="ssr:stedsnr" v="326321" />
	</node>
	<node id="-22767" lat="59.6513055581" lon="10.7594083418">
		<tag k="alt_name" v="Børsum nedre" />
		<tag k="name" v="Nedre Børsum" />
		<tag k="place" v="farm" />
		<tag k="ssr:stedsnr" v="326315" />
	</node>
	<node id="-22766" lat="59.6584555511" lon="10.7727444512">
		<tag k="name" v="Landås" />
		<tag k="place" v="isolated_dwelling" />
		<tag k="ssr:stedsnr" v="326287" />
	</node>
	<node id="-22765" lat="59.6428972244" lon="10.7236805582">
		<tag k="alt_name" v="Iversrud søndre" />
		<tag k="name" v="Søndre Iversrud" />
		<tag k="place" v="farm" />
		<tag k="ssr:stedsnr" v="326285" />
	</node>
	<node id="-22764" lat="59.6856611156" lon="10.847600001">
		<tag k="alt_name" v="Hauger vestre" />
		<tag k="name" v="Vestre Hauger" />
		<tag k="place" v="farm" />
		<tag k="ssr:stedsnr" v="326077" />
	</node>
	<node id="-22763" lat="59.6087249994" lon="10.8724472223">
		<tag k="name" v="Ålerudmyra" />
		<tag k="place" v="farm" />
		<tag k="ssr:stedsnr" v="326044" />
	</node>
	<node id="-22761" lat="59.7294361127" lon="10.7917333262">
		<tag k="name" v="Gårdmannsbråten" />
		<tag k="place" v="farm" />
		<tag k="ssr:stedsnr" v="306574" />
	</node>
	<node id="-22760" lat="59.7416888884" lon="10.7847083289">
		<tag k="name" v="Vinterdalen" />
		<tag k="place" v="farm" />
		<tag k="ssr:stedsnr" v="306468" />
	</node>
	<node id="-22759" lat="59.6627114078" lon="10.7471918461">
		<tag k="name" v="Korsegården" />
		<tag k="place" v="farm" />
		<tag k="ssr:stedsnr" v="306441" />
	</node>
	<node id="-22758" lat="59.6212138879" lon="10.8548500055">
		<tag k="name" v="Gulli" />
		<tag k="place" v="farm" />
		<tag k="ssr:stedsnr" v="306338" />
	</node>
	<node id="-22757" lat="59.6518361136" lon="10.8451805557">
		<tag k="name" v="Krosser" />
		<tag k="place" v="isolated_dwelling" />
		<tag k="ssr:stedsnr" v="306295" />
	</node>
	<node id="-22756" lat="59.6407500036" lon="10.769830548">
		<tag k="name" v="Fjellsenga" />
		<tag k="place" v="farm" />
		<tag k="ssr:stedsnr" v="306290" />
	</node>
	<node id="-22755" lat="59.6326361123" lon="10.7586388849">
		<tag k="name" v="Torsnes" />
		<tag k="place" v="farm" />
		<tag k="ssr:stedsnr" v="306289" />
	</node>
	<node id="-22754" lat="59.6431777746" lon="10.7569361123">
		<tag k="alt_name" v="Fjærdinghagen" />
		<tag k="name" v="Fjerdinghagen" />
		<tag k="place" v="farm" />
		<tag k="ssr:stedsnr" v="306257" />
	</node>
</osm>
