<?xml version="1.0" encoding="UTF-8"?>
<osm generator="osmapis" version="0.6">
	<node id="-23162" lat="59.7458916666" lon="10.7456444417">
		<tag k="fixme" v="consider natural=peak for the most distinct mountains in the district" />
		<tag k="name" v="Kopåsen" />
		<tag k="natural" v="hill" />
		<tag k="place" v="locality" />
		<tag k="ssr:stedsnr" v="629462" />
	</node>
	<node id="-22776" lat="59.7574027788" lon="10.7895611113">
		<tag k="fixme" v="consider natural=peak for the most distinct mountains in the district" />
		<tag k="name" v="Lauvåsen" />
		<tag k="natural" v="hill" />
		<tag k="place" v="locality" />
		<tag k="ssr:stedsnr" v="308501" />
	</node>
	<node id="-22902" lat="59.6265138854" lon="10.8624833376">
		<tag k="fixme" v="consider natural=peak for the most distinct mountains in the district" />
		<tag k="name" v="Gulliåsen" />
		<tag k="natural" v="hill" />
		<tag k="place" v="locality" />
		<tag k="ssr:stedsnr" v="64322" />
	</node>
	<node id="-23028" lat="59.7042805544" lon="10.7890194387">
		<tag k="name" v="Sneissletta" />
		<tag k="place" v="locality" />
		<tag k="ssr:stedsnr" v="266339" />
	</node>
	<node id="-23018" lat="59.6691833377" lon="10.7772194375">
		<tag k="name" v="Frydenhaug" />
		<tag k="natural" v="hill" />
		<tag k="place" v="locality" />
		<tag k="ssr:stedsnr" v="265693" />
	</node>
	<node id="-23121" lat="59.7432222219" lon="10.790611104">
		<tag k="name" v="Vinterdalen" />
		<tag k="natural" v="valley" />
		<tag k="place" v="locality" />
		<tag k="ssr:stedsnr" v="568022" />
	</node>
	<node id="-23267" lat="59.7358472255" lon="10.775930561">
		<tag k="name" v="Myråsdalen" />
		<tag k="natural" v="valley" />
		<tag k="place" v="locality" />
		<tag k="ssr:stedsnr" v="811035" />
	</node>
	<node id="-23266" lat="59.7370166687" lon="10.7939222252">
		<tag k="fixme" v="consider natural=peak for the most distinct mountains in the district" />
		<tag k="name" v="Nordbyåsen" />
		<tag k="natural" v="hill" />
		<tag k="place" v="locality" />
		<tag k="ssr:stedsnr" v="811033" />
	</node>
	<node id="-22885" lat="59.7544999974" lon="10.7667777827">
		<tag k="fixme" v="consider natural=peak for the most distinct mountains in the district" />
		<tag k="name" v="Midtåsen" />
		<tag k="natural" v="hill" />
		<tag k="place" v="locality" />
		<tag k="ssr:stedsnr" v="22811" />
	</node>
	<node id="-23260" lat="59.6110249974" lon="10.865850003">
		<tag k="fixme" v="consider natural=peak for the most distinct mountains in the district" />
		<tag k="name" v="Korpåsen" />
		<tag k="natural" v="hill" />
		<tag k="place" v="locality" />
		<tag k="ssr:stedsnr" v="792360" />
	</node>
	<node id="-23290" lat="59.7546444483" lon="10.7947083376">
		<tag k="fixme" v="consider natural=peak for the most distinct mountains in the district" />
		<tag k="name" v="Langsloråsen" />
		<tag k="natural" v="hill" />
		<tag k="place" v="locality" />
		<tag k="ssr:stedsnr" v="811892" />
	</node>
	<node id="-22874" lat="59.7353027795" lon="10.7741944394">
		<tag k="name" v="Furukollen" />
		<tag k="natural" v="hill" />
		<tag k="place" v="locality" />
		<tag k="ssr:stedsnr" v="22424" />
	</node>
	<node id="-23311" lat="59.755180555" lon="10.8076888955">
		<tag k="alt_name" v="Haugbroåsen" />
		<tag k="fixme" v="consider natural=peak for the most distinct mountains in the district" />
		<tag k="name" v="Haugbruåsen" />
		<tag k="natural" v="hill" />
		<tag k="place" v="locality" />
		<tag k="ssr:stedsnr" v="855379" />
	</node>
	<node id="-22999" lat="59.7444500032" lon="10.7967444444">
		<tag k="name" v="Haretorvet" />
		<tag k="place" v="locality" />
		<tag k="ssr:stedsnr" v="265011" />
	</node>
	<node id="-22798" lat="59.7583194435" lon="10.75304723">
		<tag k="fixme" v="consider natural=peak for the most distinct mountains in the district" />
		<tag k="name" v="Lauvåsen" />
		<tag k="natural" v="hill" />
		<tag k="place" v="locality" />
		<tag k="ssr:stedsnr" v="326809" />
	</node>
	<node id="-23377" lat="59.7597666656" lon="10.7845499934">
		<tag k="fixme" v="consider natural=peak for the most distinct mountains in the district" />
		<tag k="name" v="Tømmeråsen" />
		<tag k="natural" v="hill" />
		<tag k="place" v="locality" />
		<tag k="ssr:stedsnr" v="933925" />
	</node>
	<node id="-23118" lat="59.7520083309" lon="10.771386118">
		<tag k="fixme" v="consider natural=peak for the most distinct mountains in the district" />
		<tag k="name" v="Eikeholen" />
		<tag k="natural" v="hill" />
		<tag k="place" v="locality" />
		<tag k="ssr:stedsnr" v="551373" />
	</node>
	<node id="-22957" lat="59.7575638882" lon="10.8002500027">
		<tag k="fixme" v="consider natural=peak for the most distinct mountains in the district" />
		<tag k="name" v="Vinebergåsen" />
		<tag k="natural" v="hill" />
		<tag k="place" v="locality" />
		<tag k="ssr:stedsnr" v="143904" />
	</node>
	<node id="-22859" lat="59.7271666691" lon="10.7741833264">
		<tag k="fixme" v="consider natural=peak for the most distinct mountains in the district" />
		<tag k="name" v="Kirkerudåsen" />
		<tag k="natural" v="hill" />
		<tag k="place" v="locality" />
		<tag k="ssr:stedsnr" v="3537" />
	</node>
	<node id="-23369" lat="59.6744166684" lon="10.7885694473">
		<tag k="fixme" v="consider natural=peak for the most distinct mountains in the district" />
		<tag k="name" v="Hellerudåsen" />
		<tag k="natural" v="hill" />
		<tag k="place" v="locality" />
		<tag k="ssr:stedsnr" v="933696" />
	</node>
	<node id="-22981" lat="59.7598416666" lon="10.8013249976">
		<tag k="name" v="Vinebergdalen" />
		<tag k="natural" v="valley" />
		<tag k="place" v="locality" />
		<tag k="ssr:stedsnr" v="204902" />
	</node>
	<node id="-22980" lat="59.739527778" lon="10.758963886">
		<tag k="name" v="Homannskollen" />
		<tag k="natural" v="hill" />
		<tag k="place" v="locality" />
		<tag k="ssr:stedsnr" v="204393" />
	</node>
	<node id="-22927" lat="59.7545972202" lon="10.8122250004">
		<tag k="name" v="Rytterbenken" />
		<tag k="place" v="locality" />
		<tag k="ssr:stedsnr" v="83931" />
	</node>
	<node id="-23106" lat="59.6423805588" lon="10.7865972185">
		<tag k="fixme" v="consider natural=peak for the most distinct mountains in the district" />
		<tag k="name" v="Vardåsen" />
		<tag k="natural" v="hill" />
		<tag k="place" v="locality" />
		<tag k="ssr:stedsnr" v="549045" />
	</node>
	<node id="-23360" lat="59.6469833355" lon="10.8004222165">
		<tag k="name" v="Granheimlia" />
		<tag k="natural" v="slope" />
		<tag k="place" v="locality" />
		<tag k="ssr:stedsnr" v="933320" />
	</node>
	<node id="-23101" lat="59.7546166675" lon="10.7776194487">
		<tag k="alt_name" v="Fålesloråsen vestre" />
		<tag k="fixme" v="consider natural=peak for the most distinct mountains in the district" />
		<tag k="name" v="Vestre Fålesloråsen" />
		<tag k="natural" v="hill" />
		<tag k="place" v="locality" />
		<tag k="ssr:stedsnr" v="508842" />
	</node>
	<node id="-23099" lat="59.7529805576" lon="10.7254749913">
		<tag k="name" v="Vestnebba" />
		<tag k="natural" v="hill" />
		<tag k="place" v="locality" />
		<tag k="ssr:stedsnr" v="508829" />
	</node>
	<node id="-23353" lat="59.7515250018" lon="10.7638833274">
		<tag k="alt_name" v="Pollefløyten" />
		<tag k="name" v="Fløyta" />
		<tag k="place" v="locality" />
		<tag k="ssr:stedsnr" v="915361" />
	</node>
	<node id="-23001" lat="59.7331583305" lon="10.799213889">
		<tag k="name" v="Firsprangsletta" />
		<tag k="place" v="locality" />
		<tag k="ssr:stedsnr" v="265021" />
	</node>
	<node id="-23055" lat="59.7485972257" lon="10.7425722155">
		<tag k="name" v="Kjærneshøgda" />
		<tag k="natural" v="hill" />
		<tag k="place" v="locality" />
		<tag k="ssr:stedsnr" v="447785" />
	</node>
	<node id="-23085" lat="59.6375333334" lon="10.869452785">
		<tag k="name" v="Kongehøgda" />
		<tag k="natural" v="hill" />
		<tag k="place" v="locality" />
		<tag k="ssr:stedsnr" v="508003" />
	</node>
	<node id="-22828" lat="59.6796527739" lon="10.8131777824">
		<tag k="name" v="Skuterudsletta" />
		<tag k="place" v="locality" />
		<tag k="ssr:stedsnr" v="386639" />
	</node>
	<node id="-22826" lat="59.7278277819" lon="10.7411222175">
		<tag k="fixme" v="consider natural=peak for the most distinct mountains in the district" />
		<tag k="name" v="Askehaugåsen" />
		<tag k="natural" v="hill" />
		<tag k="place" v="locality" />
		<tag k="ssr:stedsnr" v="386427" />
	</node>
	<node id="-23205" lat="59.7608416641" lon="10.7967805506">
		<tag k="name" v="Langslordalen" />
		<tag k="natural" v="valley" />
		<tag k="place" v="locality" />
		<tag k="ssr:stedsnr" v="690922" />
	</node>
	<node id="-22875" lat="59.7446972207" lon="10.7269222179">
		<tag k="name" v="Strandengkollen" />
		<tag k="natural" v="hill" />
		<tag k="place" v="locality" />
		<tag k="ssr:stedsnr" v="22426" />
	</node>
	<node id="-23341" lat="59.7118500014" lon="10.7947583284">
		<tag k="fixme" v="consider natural=peak for the most distinct mountains in the district" />
		<tag k="name" v="Sørliåsen" />
		<tag k="natural" v="hill" />
		<tag k="place" v="locality" />
		<tag k="ssr:stedsnr" v="913372" />
	</node>
	<node id="-23321" lat="59.6827694448" lon="10.7888805476">
		<tag k="name" v="Slørstadhøgda" />
		<tag k="natural" v="hill" />
		<tag k="place" v="locality" />
		<tag k="ssr:stedsnr" v="872465" />
	</node>
	<node id="-23317" lat="59.6485194437" lon="10.8210166676">
		<tag k="fixme" v="consider natural=peak for the most distinct mountains in the district" />
		<tag k="name" v="Tiuråsen" />
		<tag k="natural" v="hill" />
		<tag k="place" v="locality" />
		<tag k="ssr:stedsnr" v="872318" />
	</node>
	<node id="-23188" lat="59.7454777766" lon="10.7948916645">
		<tag k="fixme" v="consider natural=peak for the most distinct mountains in the district" />
		<tag k="name" v="Flyflauåsen" />
		<tag k="natural" v="hill" />
		<tag k="place" v="locality" />
		<tag k="ssr:stedsnr" v="690031" />
	</node>
	<node id="-23059" lat="59.7586361072" lon="10.7922027793">
		<tag k="name" v="Haretorvet" />
		<tag k="place" v="locality" />
		<tag k="ssr:stedsnr" v="447905" />
	</node>
	<node id="-22802" lat="59.7541222227" lon="10.786827771">
		<tag k="alt_name" v="Fålesloråsen østre" />
		<tag k="fixme" v="consider natural=peak for the most distinct mountains in the district" />
		<tag k="name" v="Østre Fålesloråsen" />
		<tag k="natural" v="hill" />
		<tag k="place" v="locality" />
		<tag k="ssr:stedsnr" v="326923" />
	</node>
	<node id="-23183" lat="59.761913888" lon="10.7861722255">
		<tag k="alt_name" v="Tyvdalen" />
		<tag k="name" v="Tjuvedalen" />
		<tag k="natural" v="valley" />
		<tag k="place" v="locality" />
		<tag k="ssr:stedsnr" v="672402" />
	</node>
	<node id="-23182" lat="59.7539583325" lon="10.7646666607">
		<tag k="alt_name" v="Torvet" />
		<tag k="name" v="Torget" />
		<tag k="place" v="locality" />
		<tag k="ssr:stedsnr" v="672352" />
	</node>
	<node id="-23309" lat="59.7334416681" lon="10.7496638869">
		<tag k="fixme" v="consider natural=peak for the most distinct mountains in the district" />
		<tag k="name" v="Toåsen" />
		<tag k="natural" v="hill" />
		<tag k="place" v="locality" />
		<tag k="ssr:stedsnr" v="853596" />
	</node>
	<node id="-23051" lat="59.7251583326" lon="10.7732222201">
		<tag k="fixme" v="consider natural=peak for the most distinct mountains in the district" />
		<tag k="name" v="Vardåsen" />
		<tag k="natural" v="hill" />
		<tag k="place" v="locality" />
		<tag k="ssr:stedsnr" v="447430" />
	</node>
	<node id="-23050" lat="59.7369500035" lon="10.7433888838">
		<tag k="name" v="Kjonebakken" />
		<tag k="natural" v="slope" />
		<tag k="place" v="locality" />
		<tag k="ssr:stedsnr" v="447429" />
	</node>
	<node id="-22921" lat="59.7348722196" lon="10.7500972256">
		<tag k="name" v="Katteberget" />
		<tag k="natural" v="hill" />
		<tag k="place" v="locality" />
		<tag k="ssr:stedsnr" v="83444" />
	</node>
	<node id="-23045" lat="59.6960444451" lon="10.7983472252">
		<tag k="name" v="Sneissletta" />
		<tag k="place" v="locality" />
		<tag k="ssr:stedsnr" v="447392" />
	</node>
	<node id="-22915" lat="59.6428833339" lon="10.8376250015">
		<tag k="name" v="Revhaugbakken" />
		<tag k="natural" v="slope" />
		<tag k="place" v="locality" />
		<tag k="ssr:stedsnr" v="83034" />
	</node>
</osm>
