<?xml version="1.0" encoding="UTF-8"?>
<osm version="0.6" generator="osmapis">
	<node id="2524498394" lat="65.9593195" lon="12.2675645" version="2" timestamp="2022-07-16T11:25:09Z" changeset="123686338" uid="3497659" user="NKA">
		<tag k="name" v="Tenno" />
		<tag k="place" v="hamlet" />
		<tag k="ssr:stedsnr" v="379278" />
	</node>
	<node id="6205774442" lat="65.983325" lon="12.2885049" version="5" timestamp="2022-07-16T11:25:09Z" changeset="123686338" uid="3497659" user="NKA">
		<tag k="alt_name" v="Herøyholmen;Herøy" />
		<tag k="name" v="Silvalen" />
		<tag k="place" v="village" />
		<tag k="population" v="862" />
		<tag k="population:date" v="2021-01-01" />
		<tag k="ref:ssb_tettsted" v="7561" />
		<tag k="source:population" v="SSB - befolkning i tettstedet" />
		<tag k="ssr:stedsnr" v="282349" />
	</node>
	<node id="6205774454" lat="65.9138291" lon="12.1733358" version="2" timestamp="2022-07-16T11:25:09Z" changeset="123686338" uid="3497659" user="NKA">
		<tag k="name" v="Brasøya" />
		<tag k="place" v="hamlet" />
		<tag k="ssr:stedsnr" v="1072370" />
	</node>
	<node id="9891381702" lat="65.9584679" lon="12.271553" version="1" timestamp="2022-07-16T11:25:09Z" changeset="123686338" uid="3497659" user="NKA">
		<tag k="name" v="Solstad" />
		<tag k="place" v="farm" />
		<tag k="ssr:stedsnr" v="896988" />
	</node>
	<node id="9891381703" lat="65.9837897" lon="12.3085928" version="1" timestamp="2022-07-16T11:25:09Z" changeset="123686338" uid="3497659" user="NKA">
		<tag k="name" v="Vangen" />
		<tag k="place" v="farm" />
		<tag k="ssr:stedsnr" v="15661" />
	</node>
	<node id="9891381704" lat="66.0054909" lon="12.3186293" version="1" timestamp="2022-07-16T11:25:09Z" changeset="123686338" uid="3497659" user="NKA">
		<tag k="name" v="Vikran" />
		<tag k="place" v="farm" />
		<tag k="ssr:stedsnr" v="561891" />
	</node>
	<node id="9891381705" lat="65.9302565" lon="12.1540633" version="1" timestamp="2022-07-16T11:25:09Z" changeset="123686338" uid="3497659" user="NKA">
		<tag k="name" v="Allmenningen" />
		<tag k="place" v="farm" />
		<tag k="ssr:stedsnr" v="1072371" />
	</node>
	<node id="9891381706" lat="66.0037833" lon="12.3034612" version="1" timestamp="2022-07-16T11:25:09Z" changeset="123686338" uid="3497659" user="NKA">
		<tag k="name" v="Brunnsvikstranda" />
		<tag k="place" v="farm" />
		<tag k="ssr:stedsnr" v="501895" />
	</node>
	<node id="9891381707" lat="66.0464847" lon="12.0083369" version="1" timestamp="2022-07-16T11:25:09Z" changeset="123686338" uid="3497659" user="NKA">
		<tag k="name" v="Sørgåsvær" />
		<tag k="place" v="farm" />
		<tag k="ssr:stedsnr" v="989887" />
	</node>
	<node id="9891381708" lat="66.0773049" lon="12.0575537" version="1" timestamp="2022-07-16T11:25:09Z" changeset="123686338" uid="3497659" user="NKA">
		<tag k="name" v="Innerodden" />
		<tag k="place" v="locality" />
		<tag k="ssr:stedsnr" v="989886" />
	</node>
	<node id="9891381709" lat="65.9958361" lon="12.2294695" version="1" timestamp="2022-07-16T11:25:09Z" changeset="123686338" uid="3497659" user="NKA">
		<tag k="name" v="Nordli" />
		<tag k="place" v="farm" />
		<tag k="ssr:stedsnr" v="774716" />
	</node>
	<node id="9891381710" lat="65.9998806" lon="12.2307667" version="1" timestamp="2022-07-16T11:25:09Z" changeset="123686338" uid="3497659" user="NKA">
		<tag k="name" v="Solhaugen" />
		<tag k="place" v="isolated_dwelling" />
		<tag k="ssr:stedsnr" v="349879" />
	</node>
	<node id="9891381711" lat="65.9509967" lon="12.2852394" version="1" timestamp="2022-07-16T11:25:09Z" changeset="123686338" uid="3497659" user="NKA">
		<tag k="name" v="Øver-og Nergården" />
		<tag k="place" v="farm" />
		<tag k="ssr:stedsnr" v="775041" />
	</node>
	<node id="9891381712" lat="65.9949639" lon="12.2750555" version="1" timestamp="2022-07-16T11:25:09Z" changeset="123686338" uid="3497659" user="NKA">
		<tag k="name" v="Finnvika" />
		<tag k="place" v="farm" />
		<tag k="ssr:stedsnr" v="682700" />
	</node>
	<node id="9891381713" lat="65.9951029" lon="12.2441744" version="1" timestamp="2022-07-16T11:25:09Z" changeset="123686338" uid="3497659" user="NKA">
		<tag k="alt_name" v="Øksningan gård" />
		<tag k="name" v="Øksningan" />
		<tag k="old_name" v="Øsningan gård" />
		<tag k="place" v="farm" />
		<tag k="ssr:stedsnr" v="471844" />
	</node>
	<node id="9891381714" lat="65.9954595" lon="12.3329443" version="1" timestamp="2022-07-16T11:25:09Z" changeset="123686338" uid="3497659" user="NKA">
		<tag k="name" v="Hokleppen" />
		<tag k="place" v="hamlet" />
		<tag k="ssr:stedsnr" v="682699" />
	</node>
	<node id="9891381715" lat="65.9898019" lon="12.2594715" version="1" timestamp="2022-07-16T11:25:09Z" changeset="123686338" uid="3497659" user="NKA">
		<tag k="name" v="Nordfærøya" />
		<tag k="place" v="farm" />
		<tag k="ssr:stedsnr" v="335781" />
	</node>
	<node id="9891381716" lat="65.9976639" lon="12.2385779" version="1" timestamp="2022-07-16T11:25:09Z" changeset="123686338" uid="3497659" user="NKA">
		<tag k="name" v="Finnbogen" />
		<tag k="place" v="hamlet" />
		<tag k="ssr:stedsnr" v="471851" />
	</node>
	<node id="9891392617" lat="65.8915674" lon="12.2048025" version="1" timestamp="2022-07-16T11:25:09Z" changeset="123686338" uid="3497659" user="NKA">
		<tag k="name" v="Sanderøya" />
		<tag k="place" v="locality" />
		<tag k="ssr:stedsnr" v="1072368" />
	</node>
	<node id="9891392618" lat="66.0093" lon="12.2258916" version="1" timestamp="2022-07-16T11:25:09Z" changeset="123686338" uid="3497659" user="NKA">
		<tag k="alt_name" v="Ytter-Øksningan;Øksningan ytre" />
		<tag k="name" v="Ytre Øksningan" />
		<tag k="place" v="hamlet" />
		<tag k="ssr:stedsnr" v="653663" />
	</node>
	<node id="9891392619" lat="65.9875833" lon="12.2264083" version="1" timestamp="2022-07-16T11:25:09Z" changeset="123686338" uid="3497659" user="NKA">
		<tag k="name" v="Sørvågen" />
		<tag k="place" v="hamlet" />
		<tag k="ssr:stedsnr" v="469784" />
	</node>
	<node id="9891392620" lat="66.0272235" lon="12.240427" version="1" timestamp="2022-07-16T11:25:09Z" changeset="123686338" uid="3497659" user="NKA">
		<tag k="name" v="Finnhågjen" />
		<tag k="place" v="isolated_dwelling" />
		<tag k="ssr:stedsnr" v="107674" />
	</node>
	<node id="9891392621" lat="65.9830833" lon="12.2972279" version="1" timestamp="2022-07-16T11:25:09Z" changeset="123686338" uid="3497659" user="NKA">
		<tag k="name" v="Nyheim" />
		<tag k="place" v="farm" />
		<tag k="ssr:stedsnr" v="379630" />
	</node>
	<node id="9891392622" lat="65.9555117" lon="12.2527611" version="1" timestamp="2022-07-16T11:25:09Z" changeset="123686338" uid="3497659" user="NKA">
		<tag k="name" v="Vangen" />
		<tag k="place" v="farm" />
		<tag k="ssr:stedsnr" v="107032" />
	</node>
	<node id="9891392623" lat="66.0121915" lon="12.2167837" version="1" timestamp="2022-07-16T11:25:09Z" changeset="123686338" uid="3497659" user="NKA">
		<tag k="name" v="Myrvang" />
		<tag k="place" v="farm" />
		<tag k="ssr:stedsnr" v="107665" />
	</node>
	<node id="9891392624" lat="65.9531036" lon="12.2702236" version="1" timestamp="2022-07-16T11:25:09Z" changeset="123686338" uid="3497659" user="NKA">
		<tag k="name" v="Søre Vangsholmen" />
		<tag k="place" v="farm" />
		<tag k="ssr:stedsnr" v="156331" />
	</node>
	<node id="9891392625" lat="66.0291675" lon="12.2961457" version="1" timestamp="2022-07-16T11:25:09Z" changeset="123686338" uid="3497659" user="NKA">
		<tag k="name" v="Sørstaulen" />
		<tag k="place" v="hamlet" />
		<tag k="ssr:stedsnr" v="561992" />
	</node>
	<node id="9891392626" lat="66.0024139" lon="12.2360917" version="1" timestamp="2022-07-16T11:25:09Z" changeset="123686338" uid="3497659" user="NKA">
		<tag k="name" v="Innerøya" />
		<tag k="place" v="hamlet" />
		<tag k="ssr:stedsnr" v="532818" />
	</node>
	<node id="9891392627" lat="66.1279036" lon="12.0348452" version="1" timestamp="2022-07-16T11:25:09Z" changeset="123686338" uid="3497659" user="NKA">
		<tag k="name" v="Skibbåtsvær" />
		<tag k="place" v="hamlet" />
		<tag k="ssr:stedsnr" v="484003" />
	</node>
	<node id="9891392628" lat="66.0583893" lon="11.9468776" version="1" timestamp="2022-07-16T11:25:09Z" changeset="123686338" uid="3497659" user="NKA">
		<tag k="name" v="Lyngvær" />
		<tag k="place" v="locality" />
		<tag k="ssr:stedsnr" v="989889" />
	</node>
	<node id="9891392629" lat="65.9082839" lon="12.1628092" version="1" timestamp="2022-07-16T11:25:09Z" changeset="123686338" uid="3497659" user="NKA">
		<tag k="name" v="Prestøya" />
		<tag k="place" v="village" />
		<tag k="ssr:stedsnr" v="1072369" />
	</node>
	<node id="9891392630" lat="65.9594306" lon="12.2802139" version="1" timestamp="2022-07-16T11:25:09Z" changeset="123686338" uid="3497659" user="NKA">
		<tag k="name" v="Seljeholmen" />
		<tag k="place" v="farm" />
		<tag k="ssr:stedsnr" v="804309" />
	</node>
	<node id="9891392631" lat="66.0616756" lon="12.2173927" version="1" timestamp="2022-07-16T11:25:09Z" changeset="123686338" uid="3497659" user="NKA">
		<tag k="name" v="Sildøya" />
		<tag k="place" v="locality" />
		<tag k="ssr:stedsnr" v="989884" />
	</node>
	<node id="9891392632" lat="65.9750293" lon="12.290842" version="1" timestamp="2022-07-16T11:25:09Z" changeset="123686338" uid="3497659" user="NKA">
		<tag k="name" v="Dragneset" />
		<tag k="place" v="hamlet" />
		<tag k="ssr:stedsnr" v="197291" />
	</node>
	<node id="9891392633" lat="66.0131909" lon="12.1669526" version="1" timestamp="2022-07-16T11:25:09Z" changeset="123686338" uid="3497659" user="NKA">
		<tag k="name" v="Indre Vardøya" />
		<tag k="place" v="locality" />
		<tag k="ssr:stedsnr" v="989881" />
	</node>
	<node id="9891392634" lat="65.9552778" lon="12.2451138" version="1" timestamp="2022-07-16T11:25:09Z" changeset="123686338" uid="3497659" user="NKA">
		<tag k="name" v="Landsand" />
		<tag k="place" v="farm" />
		<tag k="ssr:stedsnr" v="957043" />
	</node>
	<node id="9891392635" lat="66.016494" lon="12.1542969" version="1" timestamp="2022-07-16T11:25:09Z" changeset="123686338" uid="3497659" user="NKA">
		<tag k="name" v="Ytre Vardøya" />
		<tag k="place" v="locality" />
		<tag k="ssr:stedsnr" v="989882" />
	</node>
	<node id="9891392636" lat="66.0544976" lon="12.0128774" version="1" timestamp="2022-07-16T11:25:09Z" changeset="123686338" uid="3497659" user="NKA">
		<tag k="name" v="Nordgåsvær" />
		<tag k="place" v="farm" />
		<tag k="ssr:stedsnr" v="989888" />
	</node>
	<node id="9891392637" lat="66.0094066" lon="12.2291329" version="1" timestamp="2022-07-16T11:25:09Z" changeset="123686338" uid="3497659" user="NKA">
		<tag k="name" v="Ytter-Øksningan" />
		<tag k="place" v="farm" />
		<tag k="ssr:stedsnr" v="989878" />
	</node>
	<node id="9891392638" lat="65.9708767" lon="12.2366894" version="1" timestamp="2022-07-16T11:25:09Z" changeset="123686338" uid="3497659" user="NKA">
		<tag k="name" v="Sandvika" />
		<tag k="place" v="hamlet" />
		<tag k="ssr:stedsnr" v="136305" />
	</node>
	<node id="9891392639" lat="65.9530002" lon="12.2388565" version="1" timestamp="2022-07-16T11:25:09Z" changeset="123686338" uid="3497659" user="NKA">
		<tag k="name" v="Damman" />
		<tag k="place" v="farm" />
		<tag k="ssr:stedsnr" v="805246" />
	</node>
	<node id="9891392640" lat="65.9607234" lon="12.2266945" version="1" timestamp="2022-07-16T11:25:09Z" changeset="123686338" uid="3497659" user="NKA">
		<tag k="name" v="Nygård" />
		<tag k="place" v="hamlet" />
		<tag k="ssr:stedsnr" v="744207" />
	</node>
	<node id="9891392641" lat="66.009233" lon="12.1987596" version="1" timestamp="2022-07-16T11:25:09Z" changeset="123686338" uid="3497659" user="NKA">
		<tag k="name" v="Solvika" />
		<tag k="place" v="isolated_dwelling" />
		<tag k="ssr:stedsnr" v="592679" />
	</node>
	<node id="9891392642" lat="65.9649861" lon="12.2743307" version="1" timestamp="2022-07-16T11:25:09Z" changeset="123686338" uid="3497659" user="NKA">
		<tag k="name" v="Lendinga" />
		<tag k="place" v="farm" />
		<tag k="ssr:stedsnr" v="744204" />
	</node>
	<node id="9891392643" lat="65.9641777" lon="12.2623944" version="1" timestamp="2022-07-16T11:25:09Z" changeset="123686338" uid="3497659" user="NKA">
		<tag k="alt_name" v="Sauværstøa" />
		<tag k="name" v="Sandværstøa" />
		<tag k="place" v="farm" />
		<tag k="ssr:stedsnr" v="804296" />
	</node>
	<node id="9891392644" lat="65.9823591" lon="12.252526" version="1" timestamp="2022-07-16T11:25:09Z" changeset="123686338" uid="3497659" user="NKA">
		<tag k="name" v="Risvang" />
		<tag k="place" v="farm" />
		<tag k="ssr:stedsnr" v="712754" />
	</node>
	<node id="9891392645" lat="65.9828215" lon="12.2624961" version="1" timestamp="2022-07-16T11:25:09Z" changeset="123686338" uid="3497659" user="NKA">
		<tag k="name" v="Åsvang" />
		<tag k="place" v="farm" />
		<tag k="ssr:stedsnr" v="105764" />
	</node>
	<node id="9891392646" lat="66.0393881" lon="12.2986402" version="1" timestamp="2022-07-16T11:25:09Z" changeset="123686338" uid="3497659" user="NKA">
		<tag k="name" v="Nordstaulen" />
		<tag k="place" v="hamlet" />
		<tag k="ssr:stedsnr" v="501975" />
	</node>
	<node id="9891392647" lat="65.9929723" lon="12.2693404" version="1" timestamp="2022-07-16T11:25:09Z" changeset="123686338" uid="3497659" user="NKA">
		<tag k="name" v="Fagervika" />
		<tag k="place" v="farm" />
		<tag k="ssr:stedsnr" v="712829" />
	</node>
	<node id="9891392648" lat="65.959604" lon="12.2738256" version="1" timestamp="2022-07-16T11:25:09Z" changeset="123686338" uid="3497659" user="NKA">
		<tag k="name" v="Kroken" />
		<tag k="place" v="hamlet" />
		<tag k="ssr:stedsnr" v="592991" />
	</node>
	<node id="9891392649" lat="66.0003528" lon="12.3057473" version="1" timestamp="2022-07-16T11:25:09Z" changeset="123686338" uid="3497659" user="NKA">
		<tag k="name" v="Bakkan" />
		<tag k="place" v="farm" />
		<tag k="ssr:stedsnr" v="836874" />
	</node>
	<node id="9891392650" lat="65.9901389" lon="12.2652499" version="1" timestamp="2022-07-16T11:25:09Z" changeset="123686338" uid="3497659" user="NKA">
		<tag k="name" v="Alfheim" />
		<tag k="place" v="neighbourhood" />
		<tag k="ssr:stedsnr" v="834835" />
	</node>
	<node id="9891392651" lat="65.904403" lon="12.1666991" version="1" timestamp="2022-07-16T11:25:09Z" changeset="123686338" uid="3497659" user="NKA">
		<tag k="name" v="Steinsholmen" />
		<tag k="place" v="farm" />
		<tag k="ssr:stedsnr" v="969003" />
	</node>
	<node id="9891392652" lat="65.9544917" lon="12.2670668" version="1" timestamp="2022-07-16T11:25:09Z" changeset="123686338" uid="3497659" user="NKA">
		<tag k="name" v="Gåshuset" />
		<tag k="place" v="isolated_dwelling" />
		<tag k="ssr:stedsnr" v="592989" />
	</node>
	<node id="9891392653" lat="66.0054584" lon="12.3260722" version="1" timestamp="2022-07-16T11:25:09Z" changeset="123686338" uid="3497659" user="NKA">
		<tag k="name" v="Kippervika" />
		<tag k="place" v="farm" />
		<tag k="ssr:stedsnr" v="91921" />
	</node>
	<node id="9891392654" lat="65.9561258" lon="12.266468" version="1" timestamp="2022-07-16T11:25:09Z" changeset="123686338" uid="3497659" user="NKA">
		<tag k="name" v="Nystad" />
		<tag k="place" v="farm" />
		<tag k="ssr:stedsnr" v="411982" />
	</node>
	<node id="9891392655" lat="65.9896972" lon="12.2124696" version="1" timestamp="2022-07-16T11:25:09Z" changeset="123686338" uid="3497659" user="NKA">
		<tag k="name" v="Fjellvang" />
		<tag k="place" v="farm" />
		<tag k="ssr:stedsnr" v="835837" />
	</node>
	<node id="9891392656" lat="65.9895831" lon="12.2775288" version="1" timestamp="2022-07-16T11:25:09Z" changeset="123686338" uid="3497659" user="NKA">
		<tag k="name" v="Storvika" />
		<tag k="place" v="farm" />
		<tag k="ssr:stedsnr" v="621689" />
	</node>
	<node id="9891392657" lat="65.9599883" lon="12.2456448" version="1" timestamp="2022-07-16T11:25:09Z" changeset="123686338" uid="3497659" user="NKA">
		<tag k="name" v="Nyrud" />
		<tag k="place" v="farm" />
		<tag k="ssr:stedsnr" v="411960" />
	</node>
	<node id="9891392658" lat="65.9562222" lon="12.2490165" version="1" timestamp="2022-07-16T11:25:09Z" changeset="123686338" uid="3497659" user="NKA">
		<tag k="name" v="Stranda" />
		<tag k="place" v="hamlet" />
		<tag k="ssr:stedsnr" v="592032" />
	</node>
	<node id="9891392659" lat="65.9838556" lon="12.2423945" version="1" timestamp="2022-07-16T11:25:09Z" changeset="123686338" uid="3497659" user="NKA">
		<tag k="name" v="Sørfærøya" />
		<tag k="place" v="farm" />
		<tag k="ssr:stedsnr" v="517765" />
	</node>
	<node id="9891392660" lat="66.0690333" lon="12.219589" version="1" timestamp="2022-07-16T11:25:09Z" changeset="123686338" uid="3497659" user="NKA">
		<tag k="name" v="Sundøya" />
		<tag k="place" v="farm" />
		<tag k="ssr:stedsnr" v="100031" />
	</node>
	<node id="9891392661" lat="65.958225" lon="12.2424749" version="1" timestamp="2022-07-16T11:25:09Z" changeset="123686338" uid="3497659" user="NKA">
		<tag k="name" v="Vestrem" />
		<tag k="place" v="farm" />
		<tag k="ssr:stedsnr" v="440289" />
	</node>
	<node id="9891392662" lat="66.0035434" lon="12.4082781" version="1" timestamp="2022-07-16T11:25:09Z" changeset="123686338" uid="3497659" user="NKA">
		<tag k="name" v="Hjartøya" />
		<tag k="place" v="locality" />
		<tag k="ssr:stedsnr" v="990374" />
	</node>
	<node id="9891392663" lat="65.9980294" lon="12.3275272" version="1" timestamp="2022-07-16T11:25:09Z" changeset="123686338" uid="3497659" user="NKA">
		<tag k="name" v="Vassbogen" />
		<tag k="place" v="hamlet" />
		<tag k="ssr:stedsnr" v="379635" />
	</node>
	<node id="9891392664" lat="66.0813177" lon="12.1843595" version="1" timestamp="2022-07-16T11:25:09Z" changeset="123686338" uid="3497659" user="NKA">
		<tag k="name" v="Måsvær" />
		<tag k="place" v="locality" />
		<tag k="ssr:stedsnr" v="989885" />
	</node>
	<node id="9891392665" lat="66.0281086" lon="12.2356114" version="1" timestamp="2022-07-16T11:25:09Z" changeset="123686338" uid="3497659" user="NKA">
		<tag k="name" v="Seløya" />
		<tag k="place" v="hamlet" />
		<tag k="ssr:stedsnr" v="989877" />
	</node>
	<node id="9891392666" lat="65.9718943" lon="12.2405341" version="1" timestamp="2022-07-16T11:25:09Z" changeset="123686338" uid="3497659" user="NKA">
		<tag k="name" v="Høgtun" />
		<tag k="place" v="farm" />
		<tag k="ssr:stedsnr" v="168811" />
	</node>
	<node id="9891392667" lat="66.0012334" lon="12.2910249" version="1" timestamp="2022-07-16T11:25:09Z" changeset="123686338" uid="3497659" user="NKA">
		<tag k="name" v="Brunvikstrand" />
		<tag k="place" v="farm" />
		<tag k="ssr:stedsnr" v="957830" />
	</node>
	<node id="9891392668" lat="65.9693442" lon="12.2819869" version="1" timestamp="2022-07-16T11:25:09Z" changeset="123686338" uid="3497659" user="NKA">
		<tag k="name" v="Flostad" />
		<tag k="place" v="farm" />
		<tag k="ssr:stedsnr" v="168801" />
	</node>
	<node id="9891392669" lat="66.0032236" lon="12.2190961" version="1" timestamp="2022-07-16T11:25:09Z" changeset="123686338" uid="3497659" user="NKA">
		<tag k="name" v="Vågen" />
		<tag k="place" v="farm" />
		<tag k="ssr:stedsnr" v="168658" />
	</node>
	<node id="9891392670" lat="66.0088583" lon="12.3590389" version="1" timestamp="2022-07-16T11:25:09Z" changeset="123686338" uid="3497659" user="NKA">
		<tag k="name" v="Morskogen" />
		<tag k="place" v="farm" />
		<tag k="ssr:stedsnr" v="136935" />
	</node>
	<node id="9891392671" lat="65.9159257" lon="12.1766856" version="1" timestamp="2022-07-16T11:25:09Z" changeset="123686338" uid="3497659" user="NKA">
		<tag k="name" v="Brasøygården" />
		<tag k="place" v="farm" />
		<tag k="ssr:stedsnr" v="46188" />
	</node>
	<node id="9891392672" lat="65.9835666" lon="12.2624362" version="1" timestamp="2022-07-16T11:25:09Z" changeset="123686338" uid="3497659" user="NKA">
		<tag k="name" v="Åsheim" />
		<tag k="place" v="farm" />
		<tag k="ssr:stedsnr" v="166749" />
	</node>
	<node id="9891392673" lat="65.9554048" lon="12.2739623" version="1" timestamp="2022-07-16T11:25:09Z" changeset="123686338" uid="3497659" user="NKA">
		<tag k="name" v="Nordre Vangsholmen" />
		<tag k="place" v="farm" />
		<tag k="ssr:stedsnr" v="683272" />
	</node>
	<node id="9891392674" lat="65.898876" lon="11.9994405" version="1" timestamp="2022-07-16T11:25:09Z" changeset="123686338" uid="3497659" user="NKA">
		<tag k="name" v="Draget" />
		<tag k="place" v="farm" />
		<tag k="ssr:stedsnr" v="107246" />
	</node>
	<node id="9891392675" lat="65.9638082" lon="12.2415083" version="1" timestamp="2022-07-16T11:25:09Z" changeset="123686338" uid="3497659" user="NKA">
		<tag k="alt_name" v="Ytternes" />
		<tag k="name" v="Ytterneset" />
		<tag k="place" v="farm" />
		<tag k="ssr:stedsnr" v="137229" />
	</node>
	<node id="9891392676" lat="66.0378667" lon="12.2784805" version="1" timestamp="2022-07-16T11:25:09Z" changeset="123686338" uid="3497659" user="NKA">
		<tag k="alt_name" v="Sandvika" />
		<tag k="name" v="Sandvikja" />
		<tag k="place" v="hamlet" />
		<tag k="ssr:stedsnr" v="76964" />
	</node>
	<node id="9891392677" lat="65.9630611" lon="12.2693417" version="1" timestamp="2022-07-16T11:25:09Z" changeset="123686338" uid="3497659" user="NKA">
		<tag k="alt_name" v="Ledningsneset" />
		<tag k="name" v="Lendingneset" />
		<tag k="place" v="farm" />
		<tag k="ssr:stedsnr" v="440290" />
	</node>
	<node id="9891392678" lat="65.9981757" lon="12.2264694" version="1" timestamp="2022-07-16T11:25:09Z" changeset="123686338" uid="3497659" user="NKA">
		<tag k="name" v="Plassen" />
		<tag k="place" v="farm" />
		<tag k="ssr:stedsnr" v="957658" />
	</node>
	<node id="9891392679" lat="66.0110917" lon="12.3754362" version="1" timestamp="2022-07-16T11:25:09Z" changeset="123686338" uid="3497659" user="NKA">
		<tag k="name" v="Engan" />
		<tag k="place" v="hamlet" />
		<tag k="ssr:stedsnr" v="15934" />
	</node>
	<node id="9891392680" lat="65.907301" lon="12.1560711" version="1" timestamp="2022-07-16T11:25:09Z" changeset="123686338" uid="3497659" user="NKA">
		<tag k="name" v="Prestøygården" />
		<tag k="place" v="farm" />
		<tag k="ssr:stedsnr" v="896212" />
	</node>
	<node id="9891392681" lat="66.0072058" lon="12.3361614" version="1" timestamp="2022-07-16T11:25:09Z" changeset="123686338" uid="3497659" user="NKA">
		<tag k="name" v="Vikerenget" />
		<tag k="place" v="farm" />
		<tag k="ssr:stedsnr" v="137924" />
	</node>
	<node id="9891392682" lat="65.9942665" lon="12.2820801" version="1" timestamp="2022-07-16T11:25:09Z" changeset="123686338" uid="3497659" user="NKA">
		<tag k="name" v="Karsvika" />
		<tag k="place" v="farm" />
		<tag k="ssr:stedsnr" v="865669" />
	</node>
	<node id="9891392683" lat="65.9722536" lon="12.2788384" version="1" timestamp="2022-07-16T11:25:09Z" changeset="123686338" uid="3497659" user="NKA">
		<tag k="name" v="Hesthågjen" />
		<tag k="place" v="hamlet" />
		<tag k="ssr:stedsnr" v="714775" />
	</node>
	<node id="9891392684" lat="65.9733699" lon="12.2969498" version="1" timestamp="2022-07-16T11:25:09Z" changeset="123686338" uid="3497659" user="NKA">
		<tag k="name" v="Grindstrand" />
		<tag k="place" v="farm" />
		<tag k="ssr:stedsnr" v="15287" />
	</node>
	<node id="9891392685" lat="66.0028107" lon="12.3015299" version="1" timestamp="2022-07-16T11:25:09Z" changeset="123686338" uid="3497659" user="NKA">
		<tag k="name" v="Brunsvik" />
		<tag k="place" v="hamlet" />
		<tag k="ssr:stedsnr" v="712857" />
	</node>
	<node id="9891392686" lat="66.0113434" lon="12.2030365" version="1" timestamp="2022-07-16T11:25:09Z" changeset="123686338" uid="3497659" user="NKA">
		<tag k="name" v="Vestheim" />
		<tag k="place" v="farm" />
		<tag k="ssr:stedsnr" v="47621" />
	</node>
	<node id="9891392687" lat="65.9977297" lon="12.311941" version="1" timestamp="2022-07-16T11:25:09Z" changeset="123686338" uid="3497659" user="NKA">
		<tag k="alt_name" v="Herøy, nordre;Nord Herø" />
		<tag k="loc_name" v="Nord-Herøy" />
		<tag k="name" v="Nordre Herøy" />
		<tag k="place" v="hamlet" />
		<tag k="ssr:stedsnr" v="76652" />
	</node>
	<node id="9891392688" lat="65.9929305" lon="12.2738445" version="1" timestamp="2022-07-16T11:25:09Z" changeset="123686338" uid="3497659" user="NKA">
		<tag k="name" v="Nordhus" />
		<tag k="place" v="farm" />
		<tag k="ssr:stedsnr" v="834852" />
	</node>
	<node id="9891392689" lat="65.9742889" lon="12.2429806" version="1" timestamp="2022-07-16T11:25:09Z" changeset="123686338" uid="3497659" user="NKA">
		<tag k="name" v="Solheim" />
		<tag k="place" v="farm" />
		<tag k="ssr:stedsnr" v="926261" />
	</node>
	<node id="9891392690" lat="65.9140959" lon="12.1207362" version="1" timestamp="2022-07-16T11:25:09Z" changeset="123686338" uid="3497659" user="NKA">
		<tag k="name" v="Husvær" />
		<tag k="place" v="village" />
		<tag k="ssr:stedsnr" v="1072372" />
	</node>
	<node id="9891392691" lat="65.9179093" lon="12.1767339" version="1" timestamp="2022-07-16T11:25:09Z" changeset="123686338" uid="3497659" user="NKA">
		<tag k="name" v="Hågjen" />
		<tag k="place" v="isolated_dwelling" />
		<tag k="ssr:stedsnr" v="896189" />
	</node>
	<node id="9891392692" lat="66.028281" lon="11.785954" version="1" timestamp="2022-07-16T11:25:09Z" changeset="123686338" uid="3497659" user="NKA">
		<tag k="name" v="Innerholmen" />
		<tag k="place" v="locality" />
		<tag k="ssr:stedsnr" v="989890" />
	</node>
	<node id="9891392693" lat="65.991688" lon="12.1982403" version="1" timestamp="2022-07-16T11:25:09Z" changeset="123686338" uid="3497659" user="NKA">
		<tag k="name" v="Hjelmsøya" />
		<tag k="place" v="locality" />
		<tag k="ssr:stedsnr" v="989879" />
	</node>
	<node id="9891392694" lat="66.1283719" lon="12.0365501" version="1" timestamp="2022-07-16T11:25:09Z" changeset="123686338" uid="3497659" user="NKA">
		<tag k="name" v="Skipbåtsværet" />
		<tag k="place" v="farm" />
		<tag k="ssr:stedsnr" v="646194" />
	</node>
	<node id="9891392695" lat="65.9696712" lon="12.2760617" version="1" timestamp="2022-07-16T11:25:09Z" changeset="123686338" uid="3497659" user="NKA">
		<tag k="name" v="Kjerkåsen boligfelt" />
		<tag k="place" v="neighbourhood" />
		<tag k="ssr:stedsnr" v="411806" />
	</node>
	<node id="9891392696" lat="66.0713583" lon="12.2283999" version="1" timestamp="2022-07-16T11:25:09Z" changeset="123686338" uid="3497659" user="NKA">
		<tag k="name" v="Stokkøya" />
		<tag k="place" v="farm" />
		<tag k="ssr:stedsnr" v="829042" />
	</node>
	<node id="9891392697" lat="65.9931" lon="12.2441501" version="1" timestamp="2022-07-16T11:25:09Z" changeset="123686338" uid="3497659" user="NKA">
		<tag k="name" v="Strand" />
		<tag k="place" v="neighbourhood" />
		<tag k="ssr:stedsnr" v="408855" />
	</node>
	<node id="9891392698" lat="65.9883417" lon="12.264243" version="1" timestamp="2022-07-16T11:25:09Z" changeset="123686338" uid="3497659" user="NKA">
		<tag k="name" v="Lauvås" />
		<tag k="place" v="hamlet" />
		<tag k="ssr:stedsnr" v="318680" />
	</node>
	<node id="430916796" lat="65.9820667" lon="12.2859617" version="4" timestamp="2018-09-21T13:58:01Z" changeset="62798686" uid="8470372" user="Entur AS | Angie Torres" />
	<node id="2393317700" lat="65.9819351" lon="12.2855937" version="2" timestamp="2018-09-21T13:58:24Z" changeset="62798686" uid="8470372" user="Entur AS | Angie Torres" />
	<node id="5920655964" lat="65.9814753" lon="12.2828421" version="1" timestamp="2018-09-21T13:55:34Z" changeset="62798686" uid="8470372" user="Entur AS | Angie Torres" />
	<node id="5920658498" lat="65.9820049" lon="12.2858156" version="1" timestamp="2018-09-21T13:56:12Z" changeset="62798686" uid="8470372" user="Entur AS | Angie Torres" />
	<node id="5920658910" lat="65.9820933" lon="12.286025" version="1" timestamp="2018-09-21T13:56:20Z" changeset="62798686" uid="8470372" user="Entur AS | Angie Torres" />
	<node id="5920659546" lat="65.9815285" lon="12.2831037" version="1" timestamp="2018-09-21T13:56:28Z" changeset="62798686" uid="8470372" user="Entur AS | Angie Torres" />
	<node id="5920660275" lat="65.9819678" lon="12.2857145" version="1" timestamp="2018-09-21T13:56:39Z" changeset="62798686" uid="8470372" user="Entur AS | Angie Torres" />
	<node id="5920662515" lat="65.9819011" lon="12.2854327" version="1" timestamp="2018-09-21T13:56:57Z" changeset="62798686" uid="8470372" user="Entur AS | Angie Torres" />
	<node id="5920663120" lat="65.9815029" lon="12.2829625" version="1" timestamp="2018-09-21T13:57:06Z" changeset="62798686" uid="8470372" user="Entur AS | Angie Torres" />
	<node id="5920663261" lat="65.9817668" lon="12.2846114" version="1" timestamp="2018-09-21T13:57:08Z" changeset="62798686" uid="8470372" user="Entur AS | Angie Torres" />
	<way id="37051660" version="6" timestamp="2022-01-24T06:56:00Z" changeset="116526664" uid="3497659" user="NKA">
		<tag k="bridge" v="yes" />
		<tag k="bridge:structure" v="beam" />
		<tag k="highway" v="primary" />
		<tag k="layer" v="1" />
		<tag k="maxspeed" v="50" />
		<tag k="name" v="Herøysundbrua" />
		<tag k="ref" v="828" />
		<tag k="ssr:stedsnr" v="896831" />
		<nd ref="5920658910" />
		<nd ref="430916796" />
		<nd ref="5920658498" />
		<nd ref="5920660275" />
		<nd ref="2393317700" />
		<nd ref="5920662515" />
		<nd ref="5920663261" />
		<nd ref="5920659546" />
		<nd ref="5920663120" />
		<nd ref="5920655964" />
	</way>
</osm>
