<?xml version="1.0" encoding="UTF-8"?>
<osm version="0.6" generator="osmapis">
	<node lat="63.140779759417754" lon="11.7828238851411" id="-85471">
		<tag k="name" v="Kranklivegen" />
		<tag k="ssr:date" v="2019-05-30" />
		<tag k="ssr:gruppe" v="veg" />
		<tag k="ssr:hovedgruppe" v="infrastruktur" />
		<tag k="ssr:stedsnr" v="60686" />
		<tag k="ssr:type" v="adressenavn" />
	</node>
	<node lat="62.99592917773396" lon="11.691332803891795" id="-85588">
		<tag k="name" v="Harvollvegen" />
		<tag k="ssr:date" v="2019-05-30" />
		<tag k="ssr:gruppe" v="veg" />
		<tag k="ssr:hovedgruppe" v="infrastruktur" />
		<tag k="ssr:stedsnr" v="455581" />
		<tag k="ssr:type" v="adressenavn" />
	</node>
	<node lat="63.090313840892115" lon="11.697442763886169" id="-85642">
		<tag k="name" v="Skarpdalsvegen" />
		<tag k="ssr:date" v="2019-05-30" />
		<tag k="ssr:gruppe" v="veg" />
		<tag k="ssr:hovedgruppe" v="infrastruktur" />
		<tag k="ssr:stedsnr" v="284481" />
		<tag k="ssr:type" v="adressenavn" />
	</node>
	<node lat="62.931977114974735" lon="11.886837359851421" id="-85782">
		<tag k="name" v="Litjbekkvegen" />
		<tag k="ssr:date" v="2019-05-30" />
		<tag k="ssr:gruppe" v="veg" />
		<tag k="ssr:hovedgruppe" v="infrastruktur" />
		<tag k="ssr:stedsnr" v="545672" />
		<tag k="ssr:type" v="adressenavn" />
	</node>
	<node lat="62.911919440623684" lon="11.907588890132828" id="-85958">
		<tag k="name" v="Sylsjøvegen" />
		<tag k="ssr:date" v="2018-01-09" />
		<tag k="ssr:gruppe" v="veg" />
		<tag k="ssr:hovedgruppe" v="infrastruktur" />
		<tag k="ssr:stedsnr" v="819908" />
		<tag k="ssr:type" v="vegstrekning" />
	</node>
	<node lat="63.042602773575304" lon="11.725263894152693" id="-86005">
		<tag k="name" v="Langdalsvegen" />
		<tag k="ssr:date" v="2018-01-09" />
		<tag k="ssr:gruppe" v="veg" />
		<tag k="ssr:hovedgruppe" v="infrastruktur" />
		<tag k="ssr:stedsnr" v="880704" />
		<tag k="ssr:type" v="vegstrekning" />
	</node>
	<node lat="63.05262414737683" lon="11.482297620390737" id="-86038">
		<tag k="name" v="Hynnfossvegen" />
		<tag k="ssr:date" v="2019-05-30" />
		<tag k="ssr:gruppe" v="veg" />
		<tag k="ssr:hovedgruppe" v="infrastruktur" />
		<tag k="ssr:stedsnr" v="981098" />
		<tag k="ssr:type" v="adressenavn" />
	</node>
	<node lat="62.91297016682898" lon="11.922546141890143" id="-86108">
		<tag k="name" v="Rotåvegen" />
		<tag k="ssr:date" v="2019-05-30" />
		<tag k="ssr:gruppe" v="veg" />
		<tag k="ssr:hovedgruppe" v="infrastruktur" />
		<tag k="ssr:stedsnr" v="60688" />
		<tag k="ssr:type" v="adressenavn" />
	</node>
	<node lat="63.07765000107923" lon="11.43848888998294" id="-86135">
		<tag k="name" v="Kubjørgvegen" />
		<tag k="ssr:date" v="2018-01-09" />
		<tag k="ssr:gruppe" v="veg" />
		<tag k="ssr:hovedgruppe" v="infrastruktur" />
		<tag k="ssr:stedsnr" v="91573" />
		<tag k="ssr:type" v="vegstrekning" />
	</node>
	<node lat="63.090494446573004" lon="11.682030549748458" id="-86171">
		<tag k="name" v="Skogsvegen" />
		<tag k="ssr:date" v="2018-01-09" />
		<tag k="ssr:gruppe" v="veg" />
		<tag k="ssr:hovedgruppe" v="infrastruktur" />
		<tag k="ssr:stedsnr" v="151781" />
		<tag k="ssr:type" v="vegstrekning" />
	</node>
	<node lat="63.050422225748406" lon="11.595958339504154" id="-86187">
		<tag k="name" v="Åsdalsvegen" />
		<tag k="ssr:date" v="2018-01-09" />
		<tag k="ssr:gruppe" v="veg" />
		<tag k="ssr:hovedgruppe" v="infrastruktur" />
		<tag k="ssr:stedsnr" v="152578" />
		<tag k="ssr:type" v="vegstrekning" />
	</node>
	<node lat="62.936689116348305" lon="11.83124027614312" id="-86206">
		<tag k="name" v="Øvervollvegen" />
		<tag k="ssr:date" v="2019-05-30" />
		<tag k="ssr:gruppe" v="veg" />
		<tag k="ssr:hovedgruppe" v="infrastruktur" />
		<tag k="ssr:stedsnr" v="161335" />
		<tag k="ssr:type" v="adressenavn" />
	</node>
	<node lat="63.04639444223421" lon="11.646236103326803" id="-86244">
		<tag k="name" v="Tydal kommune" />
		<tag k="ssr:date" v="2018-01-09" />
		<tag k="ssr:gruppe" v="administrativeIndelinger" />
		<tag k="ssr:hovedgruppe" v="offentligAdministrasjon" />
		<tag k="ssr:stedsnr" v="207887" />
		<tag k="ssr:type" v="kommune" />
	</node>
	<node lat="62.942722223543" lon="11.7933833401463" id="-86271">
		<tag k="name" v="Reitanvegen" />
		<tag k="ssr:date" v="2018-01-09" />
		<tag k="ssr:gruppe" v="veg" />
		<tag k="ssr:hovedgruppe" v="infrastruktur" />
		<tag k="ssr:stedsnr" v="213886" />
		<tag k="ssr:type" v="vegstrekning" />
	</node>
	<node lat="62.88462974917028" lon="11.864533458768165" id="-86309">
		<tag k="name" v="Brattkåsvegen" />
		<tag k="ssr:date" v="2019-05-30" />
		<tag k="ssr:gruppe" v="veg" />
		<tag k="ssr:hovedgruppe" v="infrastruktur" />
		<tag k="ssr:stedsnr" v="302799" />
		<tag k="ssr:type" v="adressenavn" />
	</node>
	<node lat="62.89569767751455" lon="11.905189814286885" id="-86363">
		<tag k="name" v="Møsjødalsvegen" />
		<tag k="old_name" v="Mjøsjødalsvegen" />
		<tag k="ssr:date" v="2019-05-30" />
		<tag k="ssr:gruppe" v="veg" />
		<tag k="ssr:hovedgruppe" v="infrastruktur" />
		<tag k="ssr:stedsnr" v="343127" />
		<tag k="ssr:type" v="adressenavn" />
	</node>
	<node lat="62.946102781540716" lon="11.78543055484655" id="-86518">
		<tag k="name" v="Finnøyvegen" />
		<tag k="ssr:date" v="2018-01-09" />
		<tag k="ssr:gruppe" v="veg" />
		<tag k="ssr:hovedgruppe" v="infrastruktur" />
		<tag k="ssr:stedsnr" v="516885" />
		<tag k="ssr:type" v="vegstrekning" />
	</node>
	<node lat="63.09181944881668" lon="11.697855546668519" id="-86558">
		<tag k="name" v="Esandvegen" />
		<tag k="ssr:date" v="2018-01-09" />
		<tag k="ssr:gruppe" v="veg" />
		<tag k="ssr:hovedgruppe" v="infrastruktur" />
		<tag k="ssr:stedsnr" v="576790" />
		<tag k="ssr:type" v="vegstrekning" />
	</node>
	<node lat="63.044246810422614" lon="11.659001931048845" id="-86576">
		<tag k="name" v="Jenshaugvegen" />
		<tag k="ssr:date" v="2019-05-30" />
		<tag k="ssr:gruppe" v="veg" />
		<tag k="ssr:hovedgruppe" v="infrastruktur" />
		<tag k="ssr:stedsnr" v="606693" />
		<tag k="ssr:type" v="adressenavn" />
	</node>
	<node lat="62.9265944460238" lon="11.885699997884737" id="-86660">
		<tag k="name" v="Kjølvollvegen" />
		<tag k="ssr:date" v="2018-01-09" />
		<tag k="ssr:gruppe" v="veg" />
		<tag k="ssr:hovedgruppe" v="infrastruktur" />
		<tag k="ssr:stedsnr" v="758935" />
		<tag k="ssr:type" v="vegstrekning" />
	</node>
	<node lat="62.92242765385064" lon="11.866199949844546" id="-86682">
		<tag k="name" v="Brennåsvollvegen" />
		<tag k="ssr:date" v="2019-05-30" />
		<tag k="ssr:gruppe" v="veg" />
		<tag k="ssr:hovedgruppe" v="infrastruktur" />
		<tag k="ssr:stedsnr" v="768112" />
		<tag k="ssr:type" v="adressenavn" />
	</node>
	<node lat="63.03472221856117" lon="11.70896666648727" id="-86826">
		<tag k="name" v="Livollvegen" />
		<tag k="ssr:date" v="2018-01-09" />
		<tag k="ssr:gruppe" v="veg" />
		<tag k="ssr:hovedgruppe" v="infrastruktur" />
		<tag k="ssr:stedsnr" v="941819" />
		<tag k="ssr:type" v="vegstrekning" />
	</node>
	<node lat="62.92898907008409" lon="11.793181457230904" id="-86840">
		<tag k="name" v="Langtjønnvegen" />
		<tag k="ssr:date" v="2019-05-30" />
		<tag k="ssr:gruppe" v="veg" />
		<tag k="ssr:hovedgruppe" v="infrastruktur" />
		<tag k="ssr:stedsnr" v="981100" />
		<tag k="ssr:type" v="adressenavn" />
	</node>
	<node lat="63.00645869532284" lon="11.545495816316603" id="-86842">
		<tag k="name" v="Hendalen" />
		<tag k="ssr:date" v="2019-05-30" />
		<tag k="ssr:gruppe" v="veg" />
		<tag k="ssr:hovedgruppe" v="infrastruktur" />
		<tag k="ssr:stedsnr" v="981102" />
		<tag k="ssr:type" v="adressenavn" />
	</node>
	<node lat="63.096145333140306" lon="11.484170180949702" id="-86843">
		<tag k="name" v="Melshogna" />
		<tag k="ssr:date" v="2019-05-30" />
		<tag k="ssr:gruppe" v="veg" />
		<tag k="ssr:hovedgruppe" v="infrastruktur" />
		<tag k="ssr:stedsnr" v="981103" />
		<tag k="ssr:type" v="adressenavn" />
	</node>
</osm>
