<?xml version="1.0" encoding="UTF-8"?>
<osm generator="osmapis" version="0.6">
	<node id="-61426" lat="60.4093555529" lon="11.8040083396">
		<tag k="alt_name" v="Brillberget" />
		<tag k="name" v="Brilleberget" />
		<tag k="natural" v="hill" />
		<tag k="place" v="locality" />
		<tag k="ssr:stedsnr" v="795838" />
	</node>
	<node id="-61405" lat="60.4714277753" lon="11.5388305488">
		<tag k="name" v="Sæterhøgda" />
		<tag k="natural" v="hill" />
		<tag k="place" v="locality" />
		<tag k="ssr:stedsnr" v="795262" />
	</node>
	<node id="-61400" lat="60.425574996" lon="11.7217361038">
		<tag k="name" v="Bakkesæterhøgda" />
		<tag k="natural" v="hill" />
		<tag k="place" v="locality" />
		<tag k="ssr:stedsnr" v="787808" />
	</node>
	<node id="-61389" lat="60.5375555529" lon="11.6851777835">
		<tag k="name" v="Tierhøgda" />
		<tag k="natural" v="hill" />
		<tag k="place" v="locality" />
		<tag k="ssr:stedsnr" v="785952" />
	</node>
	<node id="-61385" lat="60.473055559" lon="11.6572638918">
		<tag k="loc_name" v="Skotthaldet" />
		<tag k="name" v="Skøtthallet" />
		<tag k="natural" v="hill" />
		<tag k="place" v="locality" />
		<tag k="ssr:stedsnr" v="785902" />
	</node>
	<node id="-61373" lat="60.376619444" lon="11.7252750024">
		<tag k="name" v="Kjusdalen" />
		<tag k="natural" v="valley" />
		<tag k="place" v="locality" />
		<tag k="ssr:stedsnr" v="785224" />
	</node>
	<node id="-61367" lat="60.4869166636" lon="11.4527694482">
		<tag k="name" v="Rismyrberget" />
		<tag k="natural" v="hill" />
		<tag k="place" v="locality" />
		<tag k="ssr:stedsnr" v="783841" />
	</node>
	<node id="-61365" lat="60.4652583345" lon="11.5364472181">
		<tag k="name" v="Jammerhølet" />
		<tag k="natural" v="valley" />
		<tag k="place" v="locality" />
		<tag k="ssr:stedsnr" v="783473" />
	</node>
	<node id="-61364" lat="60.4642027741" lon="11.5477805558">
		<tag k="name" v="Gravliknappen" />
		<tag k="natural" v="hill" />
		<tag k="place" v="locality" />
		<tag k="ssr:stedsnr" v="783470" />
	</node>
	<node id="-61362" lat="60.5020083329" lon="11.4636472227">
		<tag k="name" v="Stygghølet" />
		<tag k="natural" v="valley" />
		<tag k="place" v="locality" />
		<tag k="ssr:stedsnr" v="783392" />
	</node>
	<node id="-61360" lat="60.4147000035" lon="11.5318972199">
		<tag k="name" v="Sleppa" />
		<tag k="natural" v="valley" />
		<tag k="place" v="locality" />
		<tag k="ssr:stedsnr" v="783347" />
	</node>
	<node id="-61359" lat="60.4078583351" lon="11.5810500092">
		<tag k="name" v="Heshøgda" />
		<tag k="natural" v="hill" />
		<tag k="place" v="locality" />
		<tag k="ssr:stedsnr" v="783343" />
	</node>
	<node id="-61357" lat="60.4221499997" lon="11.5451611109">
		<tag k="name" v="Sæterhøgda" />
		<tag k="natural" v="hill" />
		<tag k="place" v="locality" />
		<tag k="ssr:stedsnr" v="783332" />
	</node>
	<node id="-61353" lat="60.3660000029" lon="11.4667777831">
		<tag k="name" v="Mørktjennssæterlia" />
		<tag k="natural" v="slope" />
		<tag k="place" v="locality" />
		<tag k="ssr:stedsnr" v="775850" />
	</node>
	<node id="-61345" lat="60.4445361127" lon="11.4356583301">
		<tag k="name" v="Øytjennshaugen" />
		<tag k="natural" v="hill" />
		<tag k="place" v="locality" />
		<tag k="ssr:stedsnr" v="775031" />
	</node>
	<node id="-61337" lat="60.3159500005" lon="11.4974277751">
		<tag k="name" v="Grasdalen" />
		<tag k="natural" v="valley" />
		<tag k="place" v="locality" />
		<tag k="ssr:stedsnr" v="770688" />
	</node>
	<node id="-61332" lat="60.3523555546" lon="11.4464444383">
		<tag k="name" v="Tennungslia" />
		<tag k="natural" v="slope" />
		<tag k="place" v="locality" />
		<tag k="ssr:stedsnr" v="770638" />
	</node>
	<node id="-61326" lat="60.4886972265" lon="11.584730548">
		<tag k="name" v="Finnlia" />
		<tag k="natural" v="slope" />
		<tag k="place" v="locality" />
		<tag k="ssr:stedsnr" v="770086" />
	</node>
	<node id="-61323" lat="60.415933333" lon="11.4456249968">
		<tag k="name" v="Løsethøgda" />
		<tag k="natural" v="hill" />
		<tag k="place" v="locality" />
		<tag k="ssr:stedsnr" v="769972" />
	</node>
	<node id="-61322" lat="60.3831861078" lon="11.7413611126">
		<tag k="name" v="Langmyrbakken" />
		<tag k="natural" v="slope" />
		<tag k="place" v="locality" />
		<tag k="ssr:stedsnr" v="769661" />
	</node>
	<node id="-61317" lat="60.4640611107" lon="11.4468583332">
		<tag k="name" v="Gammelsæterberget" />
		<tag k="natural" v="hill" />
		<tag k="place" v="locality" />
		<tag k="ssr:stedsnr" v="768938" />
	</node>
	<node id="-61313" lat="60.3333638912" lon="11.5492749927">
		<tag k="name" v="Svartkåvådalen" />
		<tag k="natural" v="valley" />
		<tag k="place" v="locality" />
		<tag k="ssr:stedsnr" v="768821" />
	</node>
	<node id="-61312" lat="60.3481805531" lon="11.5738472173">
		<tag k="fixme" v="consider natural=peak for the most distinct mountains in the district" />
		<tag k="name" v="Hvilbenkhøgda" />
		<tag k="natural" v="hill" />
		<tag k="place" v="locality" />
		<tag k="ssr:stedsnr" v="768802" />
	</node>
	<node id="-61303" lat="60.5118444452" lon="11.3867250068">
		<tag k="name" v="Fautfallia" />
		<tag k="natural" v="slope" />
		<tag k="place" v="locality" />
		<tag k="ssr:stedsnr" v="768123" />
	</node>
	<node id="-61299" lat="60.3458861098" lon="11.44882777">
		<tag k="fixme" v="consider natural=peak for the most distinct mountains in the district" />
		<tag k="name" v="Murukollen" />
		<tag k="natural" v="hill" />
		<tag k="place" v="locality" />
		<tag k="ssr:stedsnr" v="748982" />
	</node>
	<node id="-61294" lat="60.3320638891" lon="11.4743611162">
		<tag k="fixme" v="consider natural=peak for the most distinct mountains in the district" />
		<tag k="name" v="Ursknappen" />
		<tag k="natural" v="hill" />
		<tag k="place" v="locality" />
		<tag k="ssr:stedsnr" v="734996" />
	</node>
	<node id="-61269" lat="60.4840999984" lon="11.377397223">
		<tag k="name" v="Hundemyrhaugen" />
		<tag k="natural" v="hill" />
		<tag k="place" v="locality" />
		<tag k="ssr:stedsnr" v="734413" />
	</node>
	<node id="-61240" lat="60.5574444423" lon="11.6534833262">
		<tag k="name" v="Bukkeholmen" />
		<tag k="natural" v="hill" />
		<tag k="place" v="locality" />
		<tag k="ssr:stedsnr" v="725480" />
	</node>
	<node id="-61235" lat="60.4315694407" lon="11.5965277843">
		<tag k="name" v="Korphølet" />
		<tag k="natural" v="valley" />
		<tag k="place" v="locality" />
		<tag k="ssr:stedsnr" v="725321" />
	</node>
	<node id="-61231" lat="60.4842138894" lon="11.3858500004">
		<tag k="name" v="Koimyrdalen" />
		<tag k="natural" v="valley" />
		<tag k="place" v="locality" />
		<tag k="ssr:stedsnr" v="725294" />
	</node>
	<node id="-61230" lat="60.4568861121" lon="11.3997388891">
		<tag k="name" v="Paradisbrenna" />
		<tag k="natural" v="hill" />
		<tag k="place" v="locality" />
		<tag k="ssr:stedsnr" v="725286" />
	</node>
	<node id="-61229" lat="60.4581555597" lon="11.3719222276">
		<tag k="name" v="Otthøgda" />
		<tag k="natural" v="hill" />
		<tag k="place" v="locality" />
		<tag k="ssr:stedsnr" v="725283" />
	</node>
	<node id="-61224" lat="60.4367611113" lon="11.3821944391">
		<tag k="name" v="Astmalia" />
		<tag k="natural" v="slope" />
		<tag k="place" v="locality" />
		<tag k="ssr:stedsnr" v="725241" />
	</node>
	<node id="-61223" lat="60.3725277788" lon="11.7299555626">
		<tag k="name" v="Korshallberget" />
		<tag k="natural" v="hill" />
		<tag k="place" v="locality" />
		<tag k="ssr:stedsnr" v="725226" />
	</node>
	<node id="-61218" lat="60.4464833303" lon="11.6768472249">
		<tag k="name" v="Skarslia" />
		<tag k="natural" v="slope" />
		<tag k="place" v="locality" />
		<tag k="ssr:stedsnr" v="724888" />
	</node>
	<node id="-61214" lat="60.33789722" lon="11.5046472158">
		<tag k="name" v="Portdalen" />
		<tag k="natural" v="valley" />
		<tag k="place" v="locality" />
		<tag k="ssr:stedsnr" v="723668" />
	</node>
	<node id="-61211" lat="60.4537194461" lon="11.4422305495">
		<tag k="name" v="Slettholen" />
		<tag k="place" v="locality" />
		<tag k="ssr:stedsnr" v="723930" />
	</node>
	<node id="-61204" lat="60.5072166687" lon="11.434900008">
		<tag k="name" v="Kjøldalen" />
		<tag k="natural" v="valley" />
		<tag k="place" v="locality" />
		<tag k="ssr:stedsnr" v="722391" />
	</node>
	<node id="-61199" lat="60.4844138875" lon="11.4383583386">
		<tag k="name" v="Østre Igletjennsberget" />
		<tag k="natural" v="hill" />
		<tag k="place" v="locality" />
		<tag k="ssr:stedsnr" v="714800" />
	</node>
	<node id="-61188" lat="60.4315555566" lon="11.4194416629">
		<tag k="name" v="Halvvegsdalen" />
		<tag k="natural" v="valley" />
		<tag k="place" v="locality" />
		<tag k="ssr:stedsnr" v="709979" />
	</node>
	<node id="-61186" lat="60.4242472207" lon="11.4664500074">
		<tag k="name" v="Knappen" />
		<tag k="natural" v="hill" />
		<tag k="place" v="locality" />
		<tag k="ssr:stedsnr" v="709971" />
	</node>
	<node id="-61185" lat="60.4721805561" lon="11.5108388963">
		<tag k="name" v="Askholmen" />
		<tag k="place" v="locality" />
		<tag k="ssr:stedsnr" v="709895" />
	</node>
	<node id="-61184" lat="60.4748916675" lon="11.5196694391">
		<tag k="name" v="Lønndalen" />
		<tag k="natural" v="valley" />
		<tag k="place" v="locality" />
		<tag k="ssr:stedsnr" v="709892" />
	</node>
	<node id="-61181" lat="60.3536694461" lon="11.4798416701">
		<tag k="name" v="Elgstokken" />
		<tag k="place" v="locality" />
		<tag k="ssr:stedsnr" v="709644" />
	</node>
	<node id="-59685" lat="60.4454694408" lon="11.5363500059">
		<tag k="name" v="Bjønnmyrhøgda" />
		<tag k="natural" v="hill" />
		<tag k="place" v="locality" />
		<tag k="ssr:stedsnr" v="343338" />
	</node>
	<node id="-61148" lat="60.5113138928" lon="11.6629083415">
		<tag k="name" v="Tårnet" />
		<tag k="natural" v="hill" />
		<tag k="place" v="locality" />
		<tag k="ssr:stedsnr" v="674214" />
	</node>
	<node id="-61130" lat="60.4596999983" lon="11.694075008">
		<tag k="name" v="Rudsvellhøgda" />
		<tag k="natural" v="hill" />
		<tag k="place" v="locality" />
		<tag k="ssr:stedsnr" v="673781" />
	</node>
	<node id="-61117" lat="60.5043611099" lon="11.5372277758">
		<tag k="name" v="Moltedalen" />
		<tag k="natural" v="valley" />
		<tag k="place" v="locality" />
		<tag k="ssr:stedsnr" v="665907" />
	</node>
	<node id="-61111" lat="60.3978416666" lon="11.5907249985">
		<tag k="name" v="Millomhøgda" />
		<tag k="natural" v="hill" />
		<tag k="place" v="locality" />
		<tag k="ssr:stedsnr" v="665316" />
	</node>
	<node id="-61106" lat="60.3072611109" lon="11.5364583418">
		<tag k="name" v="Østre Styggdalsholen" />
		<tag k="natural" v="hill" />
		<tag k="place" v="locality" />
		<tag k="ssr:stedsnr" v="664834" />
	</node>
	<node id="-61104" lat="60.4337361091" lon="11.8170944377">
		<tag k="name" v="Teljknivberget" />
		<tag k="natural" v="hill" />
		<tag k="place" v="locality" />
		<tag k="ssr:stedsnr" v="664594" />
	</node>
	<node id="-61103" lat="60.5403833346" lon="11.6948638826">
		<tag k="name" v="Deldalshøgda" />
		<tag k="natural" v="hill" />
		<tag k="place" v="locality" />
		<tag k="ssr:stedsnr" v="664508" />
	</node>
	<node id="-61101" lat="60.3880416689" lon="11.407647223">
		<tag k="name" v="Steinsjøhøgda" />
		<tag k="natural" v="hill" />
		<tag k="place" v="locality" />
		<tag k="ssr:stedsnr" v="664354" />
	</node>
	<node id="-61095" lat="60.3817416628" lon="11.5752666676">
		<tag k="name" v="Fjerten" />
		<tag k="natural" v="hill" />
		<tag k="place" v="locality" />
		<tag k="ssr:stedsnr" v="664268" />
	</node>
	<node id="-61093" lat="60.4438583307" lon="11.3660777834">
		<tag k="name" v="Løva" />
		<tag k="natural" v="slope" />
		<tag k="place" v="locality" />
		<tag k="ssr:stedsnr" v="664260" />
	</node>
	<node id="-61091" lat="60.4401444453" lon="11.3696750038">
		<tag k="name" v="Storkampen" />
		<tag k="natural" v="hill" />
		<tag k="place" v="locality" />
		<tag k="ssr:stedsnr" v="664229" />
	</node>
	<node id="-61085" lat="60.4443472182" lon="11.454047217">
		<tag k="name" v="Den grønne sletta" />
		<tag k="place" v="locality" />
		<tag k="ssr:stedsnr" v="662946" />
	</node>
	<node id="-61076" lat="60.4168638888" lon="11.5552388885">
		<tag k="name" v="Meåsen" />
		<tag k="natural" v="hill" />
		<tag k="place" v="locality" />
		<tag k="ssr:stedsnr" v="662355" />
	</node>
	<node id="-61074" lat="60.3791111084" lon="11.5903916575">
		<tag k="name" v="Kjonberget" />
		<tag k="natural" v="hill" />
		<tag k="place" v="locality" />
		<tag k="ssr:stedsnr" v="662273" />
	</node>
	<node id="-61067" lat="60.4670083334" lon="11.5604416691">
		<tag k="name" v="Tjennsdalen" />
		<tag k="natural" v="valley" />
		<tag k="place" v="locality" />
		<tag k="ssr:stedsnr" v="654069" />
	</node>
	<node id="-61063" lat="60.3647472223" lon="11.5172666716">
		<tag k="fixme" v="consider natural=peak for the most distinct mountains in the district" />
		<tag k="name" v="Bjønnlihaugen" />
		<tag k="natural" v="hill" />
		<tag k="place" v="locality" />
		<tag k="ssr:stedsnr" v="653838" />
	</node>
	<node id="-61058" lat="60.4232638889" lon="11.4175555495">
		<tag k="name" v="Tomtlia" />
		<tag k="natural" v="slope" />
		<tag k="place" v="locality" />
		<tag k="ssr:stedsnr" v="648983" />
	</node>
	<node id="-61057" lat="60.4904222183" lon="11.5070611064">
		<tag k="name" v="Tangberget" />
		<tag k="natural" v="hill" />
		<tag k="place" v="locality" />
		<tag k="ssr:stedsnr" v="648902" />
	</node>
	<node id="-61056" lat="60.5025722233" lon="11.5447722144">
		<tag k="name" v="Tømmermyrlia" />
		<tag k="natural" v="slope" />
		<tag k="place" v="locality" />
		<tag k="ssr:stedsnr" v="648779" />
	</node>
	<node id="-61055" lat="60.3429833344" lon="11.4915666748">
		<tag k="name" v="Hellene" />
		<tag k="natural" v="hill" />
		<tag k="place" v="locality" />
		<tag k="ssr:stedsnr" v="648688" />
	</node>
	<node id="-61054" lat="60.3511861122" lon="11.5206166612">
		<tag k="name" v="Fåfengdalen" />
		<tag k="natural" v="valley" />
		<tag k="place" v="locality" />
		<tag k="ssr:stedsnr" v="648657" />
	</node>
	<node id="-61053" lat="60.4604722186" lon="11.5672249942">
		<tag k="name" v="Kudalen" />
		<tag k="natural" v="valley" />
		<tag k="place" v="locality" />
		<tag k="ssr:stedsnr" v="648492" />
	</node>
	<node id="-61045" lat="60.5486805525" lon="11.6050277861">
		<tag k="name" v="Langdalen" />
		<tag k="natural" v="valley" />
		<tag k="place" v="locality" />
		<tag k="ssr:stedsnr" v="648161" />
	</node>
	<node id="-61040" lat="60.5528694459" lon="11.6400277843">
		<tag k="name" v="Nysæterhøgda" />
		<tag k="natural" v="hill" />
		<tag k="place" v="locality" />
		<tag k="ssr:stedsnr" v="647184" />
	</node>
	<node id="-61038" lat="60.4632722211" lon="11.46488888">
		<tag k="name" v="Styggdalen" />
		<tag k="natural" v="valley" />
		<tag k="place" v="locality" />
		<tag k="ssr:stedsnr" v="646922" />
	</node>
	<node id="-61035" lat="60.3274388922" lon="11.5453777838">
		<tag k="name" v="Oterfalldalen" />
		<tag k="natural" v="valley" />
		<tag k="place" v="locality" />
		<tag k="ssr:stedsnr" v="646819" />
	</node>
	<node id="-61033" lat="60.3142111069" lon="11.5605888929">
		<tag k="name" v="Raudåsdalen" />
		<tag k="natural" v="valley" />
		<tag k="place" v="locality" />
		<tag k="ssr:stedsnr" v="646796" />
	</node>
	<node id="-61032" lat="60.3147138929" lon="11.5507583287">
		<tag k="name" v="Hundmyrdalen" />
		<tag k="natural" v="valley" />
		<tag k="place" v="locality" />
		<tag k="ssr:stedsnr" v="646793" />
	</node>
	<node id="-61029" lat="60.3299777742" lon="11.6017972255">
		<tag k="fixme" v="consider natural=peak for the most distinct mountains in the district" />
		<tag k="name" v="Tempelberget" />
		<tag k="natural" v="hill" />
		<tag k="place" v="locality" />
		<tag k="ssr:stedsnr" v="646735" />
	</node>
	<node id="-61018" lat="60.5082527789" lon="11.3817000042">
		<tag k="name" v="Bråtehøgda" />
		<tag k="natural" v="hill" />
		<tag k="place" v="locality" />
		<tag k="ssr:stedsnr" v="646112" />
	</node>
	<node id="-61016" lat="60.4775694465" lon="11.5342333312">
		<tag k="name" v="Skvækmyrhøgda" />
		<tag k="natural" v="hill" />
		<tag k="place" v="locality" />
		<tag k="ssr:stedsnr" v="632293" />
	</node>
	<node id="-61008" lat="60.4901305551" lon="11.6694222136">
		<tag k="name" v="Tannåberget" />
		<tag k="natural" v="hill" />
		<tag k="place" v="locality" />
		<tag k="ssr:stedsnr" v="613230" />
	</node>
	<node id="-61004" lat="60.582494445" lon="11.6116583364">
		<tag k="name" v="Årkjølen" />
		<tag k="natural" v="hill" />
		<tag k="place" v="locality" />
		<tag k="ssr:stedsnr" v="613161" />
	</node>
	<node id="-61001" lat="60.3331750029" lon="11.4754222271">
		<tag k="name" v="Geitrabben" />
		<tag k="natural" v="hill" />
		<tag k="place" v="locality" />
		<tag k="ssr:stedsnr" v="612986" />
	</node>
	<node id="-60973" lat="60.457588886" lon="11.3594638915">
		<tag k="name" v="Stygghaugen" />
		<tag k="natural" v="hill" />
		<tag k="place" v="locality" />
		<tag k="ssr:stedsnr" v="604881" />
	</node>
	<node id="-60969" lat="60.3831944416" lon="11.426602776">
		<tag k="name" v="Tullberget" />
		<tag k="natural" v="hill" />
		<tag k="place" v="locality" />
		<tag k="ssr:stedsnr" v="604610" />
	</node>
	<node id="-60967" lat="60.3844083314" lon="11.4894944476">
		<tag k="name" v="Fuglleiklia" />
		<tag k="natural" v="slope" />
		<tag k="place" v="locality" />
		<tag k="ssr:stedsnr" v="604595" />
	</node>
	<node id="-60957" lat="60.3414361108" lon="11.5801194513">
		<tag k="name" v="Leikberget" />
		<tag k="natural" v="hill" />
		<tag k="place" v="locality" />
		<tag k="ssr:stedsnr" v="603761" />
	</node>
	<node id="-60952" lat="60.3924027765" lon="11.5668388851">
		<tag k="name" v="Hesbergsdalen" />
		<tag k="natural" v="valley" />
		<tag k="place" v="locality" />
		<tag k="ssr:stedsnr" v="603354" />
	</node>
	<node id="-60945" lat="60.3884527745" lon="11.7310083382">
		<tag k="name" v="Hareposten" />
		<tag k="place" v="locality" />
		<tag k="ssr:stedsnr" v="603227" />
	</node>
	<node id="-60944" lat="60.3873777789" lon="11.7125305492">
		<tag k="fixme" v="consider natural=peak for the most distinct mountains in the district" />
		<tag k="name" v="Husiåsen" />
		<tag k="natural" v="hill" />
		<tag k="place" v="locality" />
		<tag k="ssr:stedsnr" v="603220" />
	</node>
	<node id="-60938" lat="60.444572222" lon="11.4222805623">
		<tag k="name" v="Raudmosemyrlia" />
		<tag k="natural" v="slope" />
		<tag k="place" v="locality" />
		<tag k="ssr:stedsnr" v="601950" />
	</node>
	<node id="-60937" lat="60.4958333349" lon="11.4237694501">
		<tag k="name" v="Vaskarhella" />
		<tag k="natural" v="hill" />
		<tag k="place" v="locality" />
		<tag k="ssr:stedsnr" v="601828" />
	</node>
	<node id="-60930" lat="60.4151805593" lon="11.5417111069">
		<tag k="name" v="Røymyrberget" />
		<tag k="natural" v="hill" />
		<tag k="place" v="locality" />
		<tag k="ssr:stedsnr" v="601339" />
	</node>
	<node id="-60919" lat="60.506849996" lon="11.4609916743">
		<tag k="name" v="Rovelstaddalen" />
		<tag k="natural" v="valley" />
		<tag k="place" v="locality" />
		<tag k="ssr:stedsnr" v="600386" />
	</node>
	<node id="-60911" lat="60.4692000032" lon="11.7519166616">
		<tag k="name" v="Eitjennshøgda" />
		<tag k="natural" v="hill" />
		<tag k="place" v="locality" />
		<tag k="ssr:stedsnr" v="593047" />
	</node>
	<node id="-60910" lat="60.4469222254" lon="11.445075008">
		<tag k="name" v="Øytjennsdalen" />
		<tag k="natural" v="valley" />
		<tag k="place" v="locality" />
		<tag k="ssr:stedsnr" v="593035" />
	</node>
	<node id="-60909" lat="60.4786111104" lon="11.4845333332">
		<tag k="name" v="Haugshøgda" />
		<tag k="natural" v="hill" />
		<tag k="place" v="locality" />
		<tag k="ssr:stedsnr" v="592976" />
	</node>
	<node id="-60904" lat="60.5681722256" lon="11.6403888907">
		<tag k="name" v="Kullbergslia" />
		<tag k="natural" v="slope" />
		<tag k="place" v="locality" />
		<tag k="ssr:stedsnr" v="588764" />
	</node>
	<node id="-60898" lat="60.4751000019" lon="11.4919083326">
		<tag k="name" v="Okseberget" />
		<tag k="natural" v="hill" />
		<tag k="place" v="locality" />
		<tag k="ssr:stedsnr" v="587892" />
	</node>
	<node id="-60897" lat="60.3458249994" lon="11.4668916717">
		<tag k="name" v="Langveggdalen" />
		<tag k="natural" v="valley" />
		<tag k="place" v="locality" />
		<tag k="ssr:stedsnr" v="587696" />
	</node>
	<node id="-60894" lat="60.465913892" lon="11.7953444366">
		<tag k="name" v="Sandsokningsholen" />
		<tag k="natural" v="hill" />
		<tag k="place" v="locality" />
		<tag k="ssr:stedsnr" v="587653" />
	</node>
	<node id="-59721" lat="60.4233222194" lon="11.4793000008">
		<tag k="name" v="Knappen" />
		<tag k="natural" v="hill" />
		<tag k="place" v="locality" />
		<tag k="ssr:stedsnr" v="345970" />
	</node>
	<node id="-60877" lat="60.483977776" lon="11.5340972224">
		<tag k="name" v="Timigerlia" />
		<tag k="natural" v="slope" />
		<tag k="place" v="locality" />
		<tag k="ssr:stedsnr" v="587099" />
	</node>
	<node id="-60873" lat="60.3357472182" lon="11.5839000044">
		<tag k="name" v="Korsedalen" />
		<tag k="natural" v="valley" />
		<tag k="place" v="locality" />
		<tag k="ssr:stedsnr" v="586844" />
	</node>
	<node id="-60869" lat="60.4419388877" lon="11.5367361036">
		<tag k="name" v="Tørrhaugdalshøgda" />
		<tag k="natural" v="hill" />
		<tag k="place" v="locality" />
		<tag k="ssr:stedsnr" v="586407" />
	</node>
	<node id="-60863" lat="60.476844444" lon="11.6457888855">
		<tag k="name" v="Fosserudberget" />
		<tag k="natural" v="hill" />
		<tag k="place" v="locality" />
		<tag k="ssr:stedsnr" v="585389" />
	</node>
	<node id="-60860" lat="60.4341166702" lon="11.6024083419">
		<tag k="name" v="Kløn" />
		<tag k="natural" v="slope" />
		<tag k="place" v="locality" />
		<tag k="ssr:stedsnr" v="585376" />
	</node>
	<node id="-60858" lat="60.4407305536" lon="11.5805000042">
		<tag k="name" v="Engebråtelia" />
		<tag k="natural" v="slope" />
		<tag k="place" v="locality" />
		<tag k="ssr:stedsnr" v="585328" />
	</node>
	<node id="-59720" lat="60.4313611127" lon="11.4779250006">
		<tag k="name" v="Lisknappen" />
		<tag k="natural" v="hill" />
		<tag k="place" v="locality" />
		<tag k="ssr:stedsnr" v="345969" />
	</node>
	<node id="-60850" lat="60.398852778" lon="11.5905666729">
		<tag k="name" v="Lønnsåsen" />
		<tag k="natural" v="hill" />
		<tag k="place" v="locality" />
		<tag k="ssr:stedsnr" v="552944" />
	</node>
	<node id="-60849" lat="60.3773111067" lon="11.7384222236">
		<tag k="name" v="Jenshøgda" />
		<tag k="natural" v="hill" />
		<tag k="place" v="locality" />
		<tag k="ssr:stedsnr" v="552938" />
	</node>
	<node id="-59631" lat="60.3819944436" lon="11.5273694496">
		<tag k="name" v="Åsberget" />
		<tag k="natural" v="hill" />
		<tag k="place" v="locality" />
		<tag k="ssr:stedsnr" v="301573" />
	</node>
	<node id="-60805" lat="60.4834194433" lon="11.523988894">
		<tag k="name" v="Trætbråtelia" />
		<tag k="natural" v="slope" />
		<tag k="place" v="locality" />
		<tag k="ssr:stedsnr" v="543882" />
	</node>
	<node id="-60795" lat="60.4889888894" lon="11.3715749924">
		<tag k="name" v="Hundmyrlia" />
		<tag k="natural" v="slope" />
		<tag k="place" v="locality" />
		<tag k="ssr:stedsnr" v="543330" />
	</node>
	<node id="-60791" lat="60.5147861127" lon="11.3689611109">
		<tag k="name" v="Svartfalldalen" />
		<tag k="natural" v="valley" />
		<tag k="place" v="locality" />
		<tag k="ssr:stedsnr" v="543141" />
	</node>
	<node id="-60789" lat="60.4633805556" lon="11.6750722154">
		<tag k="name" v="Råhaugen" />
		<tag k="natural" v="hill" />
		<tag k="place" v="locality" />
		<tag k="ssr:stedsnr" v="542896" />
	</node>
	<node id="-60776" lat="60.3594333375" lon="11.5328472279">
		<tag k="name" v="Haugene" />
		<tag k="natural" v="hill" />
		<tag k="place" v="locality" />
		<tag k="ssr:stedsnr" v="541308" />
	</node>
	<node id="-60766" lat="60.5029972177" lon="11.472769449">
		<tag k="name" v="Svenndalen" />
		<tag k="natural" v="valley" />
		<tag k="place" v="locality" />
		<tag k="ssr:stedsnr" v="540389" />
	</node>
	<node id="-60763" lat="60.3863305552" lon="11.4935777771">
		<tag k="name" v="Tjennsdalen" />
		<tag k="natural" v="valley" />
		<tag k="place" v="locality" />
		<tag k="ssr:stedsnr" v="532842" />
	</node>
	<node id="-60761" lat="60.4469083307" lon="11.5981222133">
		<tag k="name" v="Granberget" />
		<tag k="natural" v="hill" />
		<tag k="place" v="locality" />
		<tag k="ssr:stedsnr" v="532783" />
	</node>
	<node id="-60758" lat="60.4661527775" lon="11.7780444497">
		<tag k="name" v="Bleigen" />
		<tag k="natural" v="hill" />
		<tag k="place" v="locality" />
		<tag k="ssr:stedsnr" v="531806" />
	</node>
	<node id="-60756" lat="60.5210472196" lon="11.5675111035">
		<tag k="name" v="Ortjennslia" />
		<tag k="natural" v="slope" />
		<tag k="place" v="locality" />
		<tag k="ssr:stedsnr" v="531453" />
	</node>
	<node id="-60751" lat="60.4268472265" lon="11.4339361044">
		<tag k="name" v="Kjerkeknappen" />
		<tag k="natural" v="hill" />
		<tag k="place" v="locality" />
		<tag k="ssr:stedsnr" v="527980" />
	</node>
	<node id="-60745" lat="60.3165277735" lon="11.5046055608">
		<tag k="name" v="Kongeposten" />
		<tag k="place" v="locality" />
		<tag k="ssr:stedsnr" v="527705" />
	</node>
	<node id="-60743" lat="60.3446055569" lon="11.5254166619">
		<tag k="name" v="Elgedråga" />
		<tag k="natural" v="valley" />
		<tag k="place" v="locality" />
		<tag k="ssr:stedsnr" v="527682" />
	</node>
	<node id="-60742" lat="60.3406500032" lon="11.4415305601">
		<tag k="name" v="Knappdalen" />
		<tag k="natural" v="valley" />
		<tag k="place" v="locality" />
		<tag k="ssr:stedsnr" v="527665" />
	</node>
	<node id="-60741" lat="60.3942111153" lon="11.4239944457">
		<tag k="name" v="Knapphella" />
		<tag k="natural" v="hill" />
		<tag k="place" v="locality" />
		<tag k="ssr:stedsnr" v="527525" />
	</node>
	<node id="-60740" lat="60.4911611134" lon="11.6324250021">
		<tag k="name" v="Helgeberget" />
		<tag k="natural" v="hill" />
		<tag k="place" v="locality" />
		<tag k="ssr:stedsnr" v="527470" />
	</node>
	<node id="-60739" lat="60.3963666634" lon="11.6563166736">
		<tag k="name" v="Knappen" />
		<tag k="natural" v="hill" />
		<tag k="place" v="locality" />
		<tag k="ssr:stedsnr" v="527254" />
	</node>
	<node id="-60728" lat="60.5057555535" lon="11.5977249985">
		<tag k="name" v="Johanbråtelia" />
		<tag k="natural" v="slope" />
		<tag k="place" v="locality" />
		<tag k="ssr:stedsnr" v="527074" />
	</node>
	<node id="-60722" lat="60.3122222261" lon="11.5342833427">
		<tag k="name" v="Styggdalen" />
		<tag k="natural" v="valley" />
		<tag k="place" v="locality" />
		<tag k="ssr:stedsnr" v="525806" />
	</node>
	<node id="-60715" lat="60.4395000007" lon="11.5917472292">
		<tag k="fixme" v="consider natural=peak for the most distinct mountains in the district" />
		<tag k="name" v="Øgardsberget" />
		<tag k="natural" v="hill" />
		<tag k="place" v="locality" />
		<tag k="ssr:stedsnr" v="525427" />
	</node>
	<node id="-60714" lat="60.449269442" lon="11.5472194517">
		<tag k="name" v="Høg-Tørrhaugen" />
		<tag k="natural" v="hill" />
		<tag k="place" v="locality" />
		<tag k="ssr:stedsnr" v="525394" />
	</node>
	<node id="-60703" lat="60.5372083334" lon="11.5722999924">
		<tag k="name" v="Bjønnberget" />
		<tag k="natural" v="hill" />
		<tag k="place" v="locality" />
		<tag k="ssr:stedsnr" v="492200" />
	</node>
	<node id="-60686" lat="60.3970250038" lon="11.7551555587">
		<tag k="name" v="Okseberget" />
		<tag k="natural" v="hill" />
		<tag k="place" v="locality" />
		<tag k="ssr:stedsnr" v="491812" />
	</node>
	<node id="-60671" lat="60.4404277811" lon="11.6973222259">
		<tag k="name" v="Kjølberget" />
		<tag k="natural" v="hill" />
		<tag k="place" v="locality" />
		<tag k="ssr:stedsnr" v="491745" />
	</node>
	<node id="-60658" lat="60.4120361095" lon="11.681666659">
		<tag k="name" v="Jomfrudalen" />
		<tag k="natural" v="valley" />
		<tag k="place" v="locality" />
		<tag k="ssr:stedsnr" v="483851" />
	</node>
	<node id="-60655" lat="60.3969388853" lon="11.5915722207">
		<tag k="name" v="Gaupstokkdalen" />
		<tag k="natural" v="valley" />
		<tag k="place" v="locality" />
		<tag k="ssr:stedsnr" v="483299" />
	</node>
	<node id="-60654" lat="60.4005388852" lon="11.591288889">
		<tag k="name" v="Styggdalen" />
		<tag k="natural" v="valley" />
		<tag k="place" v="locality" />
		<tag k="ssr:stedsnr" v="483297" />
	</node>
	<node id="-60652" lat="60.5324916663" lon="11.6878138805">
		<tag k="name" v="Nierhøgda" />
		<tag k="natural" v="hill" />
		<tag k="place" v="locality" />
		<tag k="ssr:stedsnr" v="482938" />
	</node>
	<node id="-60651" lat="60.5370472192" lon="11.655355558">
		<tag k="name" v="Høyveglia" />
		<tag k="natural" v="slope" />
		<tag k="place" v="locality" />
		<tag k="ssr:stedsnr" v="482924" />
	</node>
	<node id="-60650" lat="60.4980944445" lon="11.6730166653">
		<tag k="name" v="Elghaugen" />
		<tag k="natural" v="hill" />
		<tag k="place" v="locality" />
		<tag k="ssr:stedsnr" v="482906" />
	</node>
	<node id="-60648" lat="60.4856222211" lon="11.6962972269">
		<tag k="name" v="Grønndalshøgda" />
		<tag k="natural" v="hill" />
		<tag k="place" v="locality" />
		<tag k="ssr:stedsnr" v="482898" />
	</node>
	<node id="-60645" lat="60.3103469085" lon="11.5456362623">
		<tag k="name" v="Høgbråtehaugen" />
		<tag k="natural" v="hill" />
		<tag k="place" v="locality" />
		<tag k="ssr:stedsnr" v="482821" />
	</node>
	<node id="-60637" lat="60.4645749975" lon="11.3732138964">
		<tag k="name" v="Kalvmyrlia" />
		<tag k="natural" v="slope" />
		<tag k="place" v="locality" />
		<tag k="ssr:stedsnr" v="482318" />
	</node>
	<node id="-60618" lat="60.3693972183" lon="11.4491666722">
		<tag k="name" v="Mørktjennshaugen" />
		<tag k="natural" v="hill" />
		<tag k="place" v="locality" />
		<tag k="ssr:stedsnr" v="472860" />
	</node>
	<node id="-60602" lat="60.5075694485" lon="11.5452249935">
		<tag k="name" v="Deldalen" />
		<tag k="natural" v="valley" />
		<tag k="place" v="locality" />
		<tag k="ssr:stedsnr" v="466813" />
	</node>
	<node id="-60600" lat="60.3543361074" lon="11.4884444418">
		<tag k="name" v="Skarpsnohøgda" />
		<tag k="natural" v="hill" />
		<tag k="place" v="locality" />
		<tag k="ssr:stedsnr" v="466680" />
	</node>
	<node id="-59592" lat="60.3919249976" lon="11.5073194412">
		<tag k="name" v="Korpberget" />
		<tag k="natural" v="hill" />
		<tag k="place" v="locality" />
		<tag k="ssr:stedsnr" v="298531" />
	</node>
	<node id="-60590" lat="60.5054000016" lon="11.624033342">
		<tag k="name" v="Krakabakken" />
		<tag k="natural" v="slope" />
		<tag k="place" v="locality" />
		<tag k="ssr:stedsnr" v="466076" />
	</node>
	<node id="-60589" lat="60.4646805519" lon="11.4648499993">
		<tag k="name" v="Styggdalsberget" />
		<tag k="natural" v="hill" />
		<tag k="place" v="locality" />
		<tag k="ssr:stedsnr" v="465936" />
	</node>
	<node id="-60585" lat="60.3937805535" lon="11.4305500058">
		<tag k="name" v="Bjørndalen" />
		<tag k="natural" v="valley" />
		<tag k="place" v="locality" />
		<tag k="ssr:stedsnr" v="466531" />
	</node>
	<node id="-60584" lat="60.4033388909" lon="11.4290527824">
		<tag k="name" v="Myssmørhølet" />
		<tag k="natural" v="valley" />
		<tag k="place" v="locality" />
		<tag k="ssr:stedsnr" v="466519" />
	</node>
	<node id="-60577" lat="60.5018222259" lon="11.3753444488">
		<tag k="name" v="Bråtelia" />
		<tag k="natural" v="slope" />
		<tag k="place" v="locality" />
		<tag k="ssr:stedsnr" v="464133" />
	</node>
	<node id="-60575" lat="60.3773750033" lon="11.4023194488">
		<tag k="fixme" v="consider natural=peak for the most distinct mountains in the district" />
		<tag k="name" v="Garpen" />
		<tag k="natural" v="hill" />
		<tag k="place" v="locality" />
		<tag k="ssr:stedsnr" v="444997" />
	</node>
	<node id="-60546" lat="60.4621027745" lon="11.4635250041">
		<tag k="fixme" v="consider natural=peak for the most distinct mountains in the district" />
		<tag k="name" v="Skavåsen" />
		<tag k="natural" v="hill" />
		<tag k="place" v="locality" />
		<tag k="ssr:stedsnr" v="431446" />
	</node>
	<node id="-60538" lat="60.4883611131" lon="11.5264194387">
		<tag k="name" v="Vestre Timigerdalen" />
		<tag k="natural" v="valley" />
		<tag k="place" v="locality" />
		<tag k="ssr:stedsnr" v="422910" />
	</node>
	<node id="-60534" lat="60.4486194449" lon="11.3599416655">
		<tag k="name" v="Raudvasslia" />
		<tag k="natural" v="slope" />
		<tag k="place" v="locality" />
		<tag k="ssr:stedsnr" v="422272" />
	</node>
	<node id="-60529" lat="60.4651111088" lon="11.7499999967">
		<tag k="name" v="Vålmyrlia" />
		<tag k="natural" v="slope" />
		<tag k="place" v="locality" />
		<tag k="ssr:stedsnr" v="421911" />
	</node>
	<node id="-60528" lat="60.4832555562" lon="11.4575972159">
		<tag k="name" v="Skrikhaugen" />
		<tag k="natural" v="hill" />
		<tag k="place" v="locality" />
		<tag k="ssr:stedsnr" v="421909" />
	</node>
	<node id="-60515" lat="60.4472750037" lon="11.4407972185">
		<tag k="name" v="Trekanten" />
		<tag k="place" v="locality" />
		<tag k="ssr:stedsnr" v="419937" />
	</node>
	<node id="-60512" lat="60.4477750004" lon="11.5096277763">
		<tag k="name" v="Herverkets plass" />
		<tag k="place" v="locality" />
		<tag k="ssr:stedsnr" v="419898" />
	</node>
	<node id="-60510" lat="60.3408944462" lon="11.5033777723">
		<tag k="fixme" v="consider natural=peak for the most distinct mountains in the district" />
		<tag k="name" v="Portberget" />
		<tag k="natural" v="hill" />
		<tag k="place" v="locality" />
		<tag k="ssr:stedsnr" v="419678" />
	</node>
	<node id="-60507" lat="60.4983750008" lon="11.5299083249">
		<tag k="name" v="Slepplia" />
		<tag k="natural" v="slope" />
		<tag k="place" v="locality" />
		<tag k="ssr:stedsnr" v="419567" />
	</node>
	<node id="-60505" lat="60.4575444473" lon="11.5830333399">
		<tag k="name" v="Gruvlia" />
		<tag k="natural" v="slope" />
		<tag k="place" v="locality" />
		<tag k="ssr:stedsnr" v="419469" />
	</node>
	<node id="-60503" lat="60.3752055557" lon="11.6003472307">
		<tag k="name" v="Fiskerberget" />
		<tag k="natural" v="hill" />
		<tag k="place" v="locality" />
		<tag k="ssr:stedsnr" v="419301" />
	</node>
	<node id="-60488" lat="60.3447750029" lon="11.5227638832">
		<tag k="fixme" v="consider natural=peak for the most distinct mountains in the district" />
		<tag k="name" v="Songkjølen" />
		<tag k="natural" v="hill" />
		<tag k="place" v="locality" />
		<tag k="ssr:stedsnr" v="249877" />
	</node>
	<node id="-60454" lat="60.4263833308" lon="11.7476500086">
		<tag k="name" v="Jernmyrholen" />
		<tag k="natural" v="hill" />
		<tag k="place" v="locality" />
		<tag k="ssr:stedsnr" v="241853" />
	</node>
	<node id="-60449" lat="60.3742555548" lon="11.4945694477">
		<tag k="name" v="Gubbhaugen" />
		<tag k="natural" v="hill" />
		<tag k="place" v="locality" />
		<tag k="ssr:stedsnr" v="241589" />
	</node>
	<node id="-60448" lat="60.3827749956" lon="11.5215694414">
		<tag k="name" v="Bergjuvdalen" />
		<tag k="natural" v="valley" />
		<tag k="place" v="locality" />
		<tag k="ssr:stedsnr" v="241576" />
	</node>
	<node id="-60446" lat="60.4041194469" lon="11.5931444368">
		<tag k="name" v="Svenskehølet" />
		<tag k="natural" v="slope" />
		<tag k="place" v="locality" />
		<tag k="ssr:stedsnr" v="241270" />
	</node>
	<node id="-60441" lat="60.3961527743" lon="11.3922555486">
		<tag k="name" v="Botshaugsæterhøgda" />
		<tag k="natural" v="hill" />
		<tag k="place" v="locality" />
		<tag k="ssr:stedsnr" v="240407" />
	</node>
	<node id="-60435" lat="60.4310277764" lon="11.404975004">
		<tag k="name" v="Lønnlia" />
		<tag k="natural" v="slope" />
		<tag k="place" v="locality" />
		<tag k="ssr:stedsnr" v="240277" />
	</node>
	<node id="-60434" lat="60.5250055557" lon="11.6740055476">
		<tag k="name" v="Lauvdalen" />
		<tag k="natural" v="valley" />
		<tag k="place" v="locality" />
		<tag k="ssr:stedsnr" v="239956" />
	</node>
	<node id="-60423" lat="60.4011055524" lon="11.5815416633">
		<tag k="name" v="Rundknappen" />
		<tag k="natural" v="hill" />
		<tag k="place" v="locality" />
		<tag k="ssr:stedsnr" v="239340" />
	</node>
	<node id="-60416" lat="60.3844083377" lon="11.7220527725">
		<tag k="fixme" v="consider natural=peak for the most distinct mountains in the district" />
		<tag k="name" v="Vesleåsen" />
		<tag k="natural" v="hill" />
		<tag k="place" v="locality" />
		<tag k="ssr:stedsnr" v="239227" />
	</node>
	<node id="-60414" lat="60.4498666686" lon="11.6844527792">
		<tag k="name" v="Merradalen" />
		<tag k="natural" v="valley" />
		<tag k="place" v="locality" />
		<tag k="ssr:stedsnr" v="239913" />
	</node>
	<node id="-60410" lat="60.4070666702" lon="11.719172214">
		<tag k="name" v="Hesleberget" />
		<tag k="natural" v="slope" />
		<tag k="place" v="locality" />
		<tag k="ssr:stedsnr" v="237806" />
	</node>
	<node id="-60407" lat="60.3561527753" lon="11.4942666697">
		<tag k="name" v="Høymyråsen" />
		<tag k="natural" v="hill" />
		<tag k="place" v="locality" />
		<tag k="ssr:stedsnr" v="237668" />
	</node>
	<node id="-60402" lat="60.4285638923" lon="11.5357111074">
		<tag k="name" v="Djupendal" />
		<tag k="natural" v="valley" />
		<tag k="place" v="locality" />
		<tag k="ssr:stedsnr" v="237357" />
	</node>
	<node id="-60395" lat="60.3853027756" lon="11.5176916576">
		<tag k="name" v="Steinsberget" />
		<tag k="natural" v="hill" />
		<tag k="place" v="locality" />
		<tag k="ssr:stedsnr" v="229795" />
	</node>
	<node id="-60394" lat="60.4876333324" lon="11.4650166589">
		<tag k="name" v="Bruntjennsberget" />
		<tag k="natural" v="hill" />
		<tag k="place" v="locality" />
		<tag k="ssr:stedsnr" v="229542" />
	</node>
	<node id="-60371" lat="60.4060583373" lon="11.4555666663">
		<tag k="name" v="Turrisbakka" />
		<tag k="natural" v="slope" />
		<tag k="place" v="locality" />
		<tag k="ssr:stedsnr" v="223530" />
	</node>
	<node id="-60358" lat="60.4451944433" lon="11.5785277784">
		<tag k="name" v="Svartbråtebakken" />
		<tag k="natural" v="slope" />
		<tag k="place" v="locality" />
		<tag k="ssr:stedsnr" v="222348" />
	</node>
	<node id="-60337" lat="60.3843583329" lon="11.5071750024">
		<tag k="name" v="Lurhøl" />
		<tag k="place" v="locality" />
		<tag k="ssr:stedsnr" v="180576" />
	</node>
	<node id="-60335" lat="60.3864749969" lon="11.5956277752">
		<tag k="name" v="Dritarbakken" />
		<tag k="natural" v="slope" />
		<tag k="place" v="locality" />
		<tag k="ssr:stedsnr" v="180272" />
	</node>
	<node id="-60333" lat="60.4898499994" lon="11.495894436">
		<tag k="name" v="Kvernhushaugen" />
		<tag k="natural" v="hill" />
		<tag k="place" v="locality" />
		<tag k="ssr:stedsnr" v="179904" />
	</node>
	<node id="-60327" lat="60.4458777779" lon="11.4094833288">
		<tag k="name" v="Smalmyrtoppen" />
		<tag k="natural" v="hill" />
		<tag k="place" v="locality" />
		<tag k="ssr:stedsnr" v="179282" />
	</node>
	<node id="-60324" lat="60.5143722233" lon="11.6544499955">
		<tag k="name" v="Blautmyrberget" />
		<tag k="natural" v="hill" />
		<tag k="place" v="locality" />
		<tag k="ssr:stedsnr" v="178911" />
	</node>
	<node id="-60321" lat="60.4584944457" lon="11.7149499971">
		<tag k="name" v="Trætbråtehaugen" />
		<tag k="natural" v="hill" />
		<tag k="place" v="locality" />
		<tag k="ssr:stedsnr" v="178884" />
	</node>
	<node id="-60316" lat="60.3896611097" lon="11.7265666618">
		<tag k="name" v="Faråsen" />
		<tag k="natural" v="hill" />
		<tag k="place" v="locality" />
		<tag k="ssr:stedsnr" v="178221" />
	</node>
	<node id="-60315" lat="60.3612166703" lon="11.7372888931">
		<tag k="name" v="Fløytberget" />
		<tag k="natural" v="hill" />
		<tag k="place" v="locality" />
		<tag k="ssr:stedsnr" v="178205" />
	</node>
	<node id="-60308" lat="60.3347277785" lon="11.4771222166">
		<tag k="name" v="Fenstadhøgda" />
		<tag k="natural" v="hill" />
		<tag k="place" v="locality" />
		<tag k="ssr:stedsnr" v="176685" />
	</node>
	<node id="-60305" lat="60.515038888" lon="11.5200722217">
		<tag k="name" v="Deldalen" />
		<tag k="natural" v="valley" />
		<tag k="place" v="locality" />
		<tag k="ssr:stedsnr" v="176544" />
	</node>
	<node id="-60304" lat="60.5072194487" lon="11.5289444382">
		<tag k="name" v="Trebergslia" />
		<tag k="natural" v="slope" />
		<tag k="place" v="locality" />
		<tag k="ssr:stedsnr" v="176528" />
	</node>
	<node id="-59544" lat="60.4719469841" lon="11.4740863827">
		<tag k="name" v="Jensbråtelia" />
		<tag k="natural" v="slope" />
		<tag k="place" v="locality" />
		<tag k="ssr:stedsnr" v="283878" />
	</node>
	<node id="-60298" lat="60.4045249999" lon="11.5731944468">
		<tag k="name" v="Gullfotdalen" />
		<tag k="natural" v="valley" />
		<tag k="place" v="locality" />
		<tag k="ssr:stedsnr" v="176337" />
	</node>
	<node id="-60296" lat="60.3308305549" lon="11.5151416612">
		<tag k="fixme" v="consider natural=peak for the most distinct mountains in the district" />
		<tag k="name" v="Ulvtjennshøgda" />
		<tag k="natural" v="hill" />
		<tag k="place" v="locality" />
		<tag k="ssr:stedsnr" v="168991" />
	</node>
	<node id="-60289" lat="60.5001861125" lon="11.4895916577">
		<tag k="name" v="Sæterberget" />
		<tag k="natural" v="hill" />
		<tag k="place" v="locality" />
		<tag k="ssr:stedsnr" v="167999" />
	</node>
	<node id="-60288" lat="60.4955944478" lon="11.5410111065">
		<tag k="name" v="Torphaugen" />
		<tag k="natural" v="hill" />
		<tag k="place" v="locality" />
		<tag k="ssr:stedsnr" v="167977" />
	</node>
	<node id="-60287" lat="60.350069447" lon="11.4924750058">
		<tag k="name" v="Sæterberget" />
		<tag k="natural" v="hill" />
		<tag k="place" v="locality" />
		<tag k="ssr:stedsnr" v="167771" />
	</node>
	<node id="-60277" lat="60.51720833" lon="11.6191555511">
		<tag k="name" v="Grauthola" />
		<tag k="place" v="locality" />
		<tag k="ssr:stedsnr" v="163061" />
	</node>
	<node id="-60276" lat="60.3955138881" lon="11.4270499963">
		<tag k="fixme" v="consider natural=peak for the most distinct mountains in the district" />
		<tag k="name" v="Bjertberget" />
		<tag k="natural" v="hill" />
		<tag k="place" v="locality" />
		<tag k="ssr:stedsnr" v="162541" />
	</node>
	<node id="-60269" lat="60.3529611092" lon="11.5690083282">
		<tag k="name" v="Heggedalen" />
		<tag k="natural" v="valley" />
		<tag k="place" v="locality" />
		<tag k="ssr:stedsnr" v="161750" />
	</node>
	<node id="-60263" lat="60.4391055525" lon="11.5391527782">
		<tag k="name" v="Ranghildhølet" />
		<tag k="natural" v="valley" />
		<tag k="place" v="locality" />
		<tag k="ssr:stedsnr" v="161387" />
	</node>
	<node id="-60262" lat="60.4538805599" lon="11.5519166666">
		<tag k="name" v="Kølmilbotn" />
		<tag k="place" v="locality" />
		<tag k="ssr:stedsnr" v="161365" />
	</node>
	<node id="-60261" lat="60.5046194418" lon="11.4116555473">
		<tag k="name" v="Skarfallberget" />
		<tag k="natural" v="hill" />
		<tag k="place" v="locality" />
		<tag k="ssr:stedsnr" v="161128" />
	</node>
	<node id="-60254" lat="60.32740278" lon="11.5787222146">
		<tag k="name" v="Tørrberget" />
		<tag k="natural" v="hill" />
		<tag k="place" v="locality" />
		<tag k="ssr:stedsnr" v="128000" />
	</node>
	<node id="-60251" lat="60.3917111133" lon="11.6579249958">
		<tag k="name" v="Trøsiberget" />
		<tag k="natural" v="hill" />
		<tag k="place" v="locality" />
		<tag k="ssr:stedsnr" v="127929" />
	</node>
	<node id="-60220" lat="60.3864805585" lon="11.4576472203">
		<tag k="name" v="Brattlia" />
		<tag k="natural" v="slope" />
		<tag k="place" v="locality" />
		<tag k="ssr:stedsnr" v="119625" />
	</node>
	<node id="-60216" lat="60.4846416682" lon="11.6938861108">
		<tag k="name" v="Grønndalen" />
		<tag k="natural" v="valley" />
		<tag k="place" v="locality" />
		<tag k="ssr:stedsnr" v="118912" />
	</node>
	<node id="-60215" lat="60.4810861115" lon="11.6942888967">
		<tag k="name" v="Gomyrdalen" />
		<tag k="natural" v="valley" />
		<tag k="place" v="locality" />
		<tag k="ssr:stedsnr" v="118913" />
	</node>
	<node id="-60214" lat="60.4772638846" lon="11.6716055488">
		<tag k="name" v="Stygghaugen" />
		<tag k="natural" v="hill" />
		<tag k="place" v="locality" />
		<tag k="ssr:stedsnr" v="118908" />
	</node>
	<node id="-60211" lat="60.4503527764" lon="11.7667777728">
		<tag k="name" v="Gransjølia" />
		<tag k="natural" v="slope" />
		<tag k="place" v="locality" />
		<tag k="ssr:stedsnr" v="118585" />
	</node>
	<node id="-60202" lat="60.3855944424" lon="11.5763638894">
		<tag k="name" v="Sveaberget" />
		<tag k="natural" v="hill" />
		<tag k="place" v="locality" />
		<tag k="ssr:stedsnr" v="118280" />
	</node>
	<node id="-60199" lat="60.4493472266" lon="11.3800694399">
		<tag k="name" v="Korsgranskuta" />
		<tag k="natural" v="hill" />
		<tag k="place" v="locality" />
		<tag k="ssr:stedsnr" v="118250" />
	</node>
	<node id="-60193" lat="60.4704944435" lon="11.7595694493">
		<tag k="name" v="Lognsjøhøgda" />
		<tag k="natural" v="hill" />
		<tag k="place" v="locality" />
		<tag k="ssr:stedsnr" v="117896" />
	</node>
	<node id="-60188" lat="60.4459111132" lon="11.5270055488">
		<tag k="alt_name" v="Bjønnmyrlia" />
		<tag k="name" v="Bjørnmyrlia" />
		<tag k="natural" v="slope" />
		<tag k="place" v="locality" />
		<tag k="ssr:stedsnr" v="116892" />
	</node>
	<node id="-60185" lat="60.3322583374" lon="11.4802888959">
		<tag k="name" v="Sognesstokken" />
		<tag k="place" v="locality" />
		<tag k="ssr:stedsnr" v="116685" />
	</node>
	<node id="-60184" lat="60.3643527793" lon="11.4854194497">
		<tag k="name" v="Turpryggen" />
		<tag k="natural" v="hill" />
		<tag k="place" v="locality" />
		<tag k="ssr:stedsnr" v="116667" />
	</node>
	<node id="-60182" lat="60.5026361089" lon="11.4858083346">
		<tag k="name" v="Drågen" />
		<tag k="natural" v="valley" />
		<tag k="place" v="locality" />
		<tag k="ssr:stedsnr" v="116642" />
	</node>
	<node id="-60177" lat="60.4730166637" lon="11.540313886">
		<tag k="name" v="Gunhildbråtelia" />
		<tag k="natural" v="slope" />
		<tag k="place" v="locality" />
		<tag k="ssr:stedsnr" v="116495" />
	</node>
	<node id="-60176" lat="60.4682666657" lon="11.583516658">
		<tag k="name" v="Høymyrlia" />
		<tag k="natural" v="slope" />
		<tag k="place" v="locality" />
		<tag k="ssr:stedsnr" v="116481" />
	</node>
	<node id="-60172" lat="60.3518527737" lon="11.546772213">
		<tag k="name" v="Heia" />
		<tag k="natural" v="hill" />
		<tag k="place" v="locality" />
		<tag k="ssr:stedsnr" v="116271" />
	</node>
	<node id="-60163" lat="60.4817166625" lon="11.6222027723">
		<tag k="name" v="Prærien" />
		<tag k="place" v="locality" />
		<tag k="ssr:stedsnr" v="107855" />
	</node>
	<node id="-60160" lat="60.4939222204" lon="11.3743611109">
		<tag k="name" v="Tjennsjøholen" />
		<tag k="natural" v="slope" />
		<tag k="place" v="locality" />
		<tag k="ssr:stedsnr" v="107801" />
	</node>
	<node id="-60156" lat="60.5155111096" lon="11.5642694534">
		<tag k="name" v="Jonsoklia" />
		<tag k="natural" v="slope" />
		<tag k="place" v="locality" />
		<tag k="ssr:stedsnr" v="103783" />
	</node>
	<node id="-60155" lat="60.5646305547" lon="11.6090888807">
		<tag k="name" v="Gladhaugen" />
		<tag k="natural" v="hill" />
		<tag k="place" v="locality" />
		<tag k="ssr:stedsnr" v="103752" />
	</node>
	<node id="-60152" lat="60.4265888867" lon="11.5208444533">
		<tag k="name" v="Kakonberget" />
		<tag k="natural" v="hill" />
		<tag k="place" v="locality" />
		<tag k="ssr:stedsnr" v="102996" />
	</node>
	<node id="-60147" lat="60.3531805587" lon="11.5201194441">
		<tag k="name" v="Lyarberget" />
		<tag k="natural" v="hill" />
		<tag k="place" v="locality" />
		<tag k="ssr:stedsnr" v="102698" />
	</node>
	<node id="-60145" lat="60.4882027811" lon="11.6333777859">
		<tag k="fixme" v="consider natural=peak for the most distinct mountains in the district" />
		<tag k="name" v="Moaberget" />
		<tag k="natural" v="hill" />
		<tag k="place" v="locality" />
		<tag k="ssr:stedsnr" v="102535" />
	</node>
	<node id="-60136" lat="60.4922416664" lon="11.5418527783">
		<tag k="name" v="Langmyrlia" />
		<tag k="natural" v="slope" />
		<tag k="place" v="locality" />
		<tag k="ssr:stedsnr" v="102083" />
	</node>
	<node id="-60135" lat="60.4847888867" lon="11.5393555611">
		<tag k="name" v="Østre Timigerdalen" />
		<tag k="natural" v="valley" />
		<tag k="place" v="locality" />
		<tag k="ssr:stedsnr" v="102080" />
	</node>
	<node id="-60126" lat="60.440213891" lon="11.5980499918">
		<tag k="name" v="Sillerudsberget" />
		<tag k="natural" v="hill" />
		<tag k="place" v="locality" />
		<tag k="ssr:stedsnr" v="100393" />
	</node>
	<node id="-60125" lat="60.449161113" lon="11.5993805493">
		<tag k="name" v="Haukvengen" />
		<tag k="natural" v="hill" />
		<tag k="place" v="locality" />
		<tag k="ssr:stedsnr" v="100389" />
	</node>
	<node id="-60103" lat="60.4806500025" lon="11.7109250046">
		<tag k="name" v="Jonsokberget" />
		<tag k="natural" v="hill" />
		<tag k="place" v="locality" />
		<tag k="ssr:stedsnr" v="67272" />
	</node>
	<node id="-60092" lat="60.4456611072" lon="11.7336333286">
		<tag k="name" v="Skålberget" />
		<tag k="natural" v="hill" />
		<tag k="place" v="locality" />
		<tag k="ssr:stedsnr" v="66763" />
	</node>
	<node id="-60083" lat="60.3907333361" lon="11.5922250067">
		<tag k="name" v="Kjussdalen" />
		<tag k="natural" v="valley" />
		<tag k="place" v="locality" />
		<tag k="ssr:stedsnr" v="59278" />
	</node>
	<node id="-60080" lat="60.4034444424" lon="11.4052861059">
		<tag k="name" v="Sundsæterdalen" />
		<tag k="natural" v="valley" />
		<tag k="place" v="locality" />
		<tag k="ssr:stedsnr" v="58414" />
	</node>
	<node id="-60072" lat="60.444913885" lon="11.6703527845">
		<tag k="loc_name" v="Skotthaldet" />
		<tag k="name" v="Skøtthaldet" />
		<tag k="natural" v="hill" />
		<tag k="place" v="locality" />
		<tag k="ssr:stedsnr" v="57885" />
	</node>
	<node id="-60070" lat="60.4510138923" lon="11.7556583351">
		<tag k="name" v="Hundbysæterlia" />
		<tag k="natural" v="slope" />
		<tag k="place" v="locality" />
		<tag k="ssr:stedsnr" v="57857" />
	</node>
	<node id="-60067" lat="60.4906111108" lon="11.5073555613">
		<tag k="name" v="Tangberget" />
		<tag k="natural" v="hill" />
		<tag k="place" v="locality" />
		<tag k="ssr:stedsnr" v="57902" />
	</node>
	<node id="-60066" lat="60.4793194469" lon="11.6587722298">
		<tag k="name" v="Våldalen" />
		<tag k="natural" v="valley" />
		<tag k="place" v="locality" />
		<tag k="ssr:stedsnr" v="57904" />
	</node>
	<node id="-60057" lat="60.3667222247" lon="11.7486055561">
		<tag k="name" v="Løftdalen" />
		<tag k="natural" v="valley" />
		<tag k="place" v="locality" />
		<tag k="ssr:stedsnr" v="57174" />
	</node>
	<node id="-60056" lat="60.4391083325" lon="11.5268027849">
		<tag k="name" v="Korpdalen" />
		<tag k="natural" v="valley" />
		<tag k="place" v="locality" />
		<tag k="ssr:stedsnr" v="55905" />
	</node>
	<node id="-60055" lat="60.4948305595" lon="11.4199805485">
		<tag k="name" v="Lognsjøberget" />
		<tag k="natural" v="hill" />
		<tag k="place" v="locality" />
		<tag k="ssr:stedsnr" v="55835" />
	</node>
	<node id="-60052" lat="60.3567833321" lon="11.5520055562">
		<tag k="name" v="Skofalldalen" />
		<tag k="natural" v="valley" />
		<tag k="place" v="locality" />
		<tag k="ssr:stedsnr" v="55744" />
	</node>
	<node id="-60051" lat="60.3629694405" lon="11.5489722201">
		<tag k="name" v="Furuberget" />
		<tag k="natural" v="hill" />
		<tag k="place" v="locality" />
		<tag k="ssr:stedsnr" v="55742" />
	</node>
	<node id="-60050" lat="60.3402611155" lon="11.4857444362">
		<tag k="fixme" v="consider natural=peak for the most distinct mountains in the district" />
		<tag k="name" v="Smørkleivhøgda" />
		<tag k="natural" v="hill" />
		<tag k="place" v="locality" />
		<tag k="ssr:stedsnr" v="55660" />
	</node>
	<node id="-60049" lat="60.3579583368" lon="11.4737472154">
		<tag k="name" v="Granmyrlia" />
		<tag k="natural" v="slope" />
		<tag k="place" v="locality" />
		<tag k="ssr:stedsnr" v="55616" />
	</node>
	<node id="-60038" lat="60.3885055579" lon="11.4963777776">
		<tag k="name" v="Lurhølshøgda" />
		<tag k="natural" v="hill" />
		<tag k="place" v="locality" />
		<tag k="ssr:stedsnr" v="47794" />
	</node>
	<node id="-60026" lat="60.4221916665" lon="11.5249666626">
		<tag k="fixme" v="consider natural=peak for the most distinct mountains in the district" />
		<tag k="name" v="Breibyhøgda" />
		<tag k="natural" v="hill" />
		<tag k="place" v="locality" />
		<tag k="ssr:stedsnr" v="42989" />
	</node>
	<node id="-60014" lat="60.4170055561" lon="11.4413638943">
		<tag k="name" v="Korpdalen" />
		<tag k="natural" v="valley" />
		<tag k="place" v="locality" />
		<tag k="ssr:stedsnr" v="41979" />
	</node>
	<node id="-60009" lat="60.5046444427" lon="11.6150583341">
		<tag k="name" v="Blekjaberget" />
		<tag k="natural" v="hill" />
		<tag k="place" v="locality" />
		<tag k="ssr:stedsnr" v="41085" />
	</node>
	<node id="-60008" lat="60.3256916675" lon="11.5606111145">
		<tag k="name" v="Sandbekkdalen" />
		<tag k="natural" v="valley" />
		<tag k="place" v="locality" />
		<tag k="ssr:stedsnr" v="40856" />
	</node>
	<node id="-60005" lat="60.3350055531" lon="11.5752972161">
		<tag k="name" v="Jupdalen" />
		<tag k="natural" v="valley" />
		<tag k="place" v="locality" />
		<tag k="ssr:stedsnr" v="40826" />
	</node>
	<node id="-59991" lat="60.5090499978" lon="11.5778611161">
		<tag k="name" v="Styggberget" />
		<tag k="natural" v="hill" />
		<tag k="place" v="locality" />
		<tag k="ssr:stedsnr" v="7234" />
	</node>
	<node id="-59990" lat="60.5652527776" lon="11.5794750058">
		<tag k="name" v="Grytberget" />
		<tag k="natural" v="hill" />
		<tag k="place" v="locality" />
		<tag k="ssr:stedsnr" v="7169" />
	</node>
	<node id="-59964" lat="60.4338999998" lon="11.4396722294">
		<tag k="name" v="Høgberget" />
		<tag k="natural" v="hill" />
		<tag k="place" v="locality" />
		<tag k="ssr:stedsnr" v="6481" />
	</node>
	<node id="-59959" lat="60.4840555512" lon="11.4918138949">
		<tag k="name" v="Skuta" />
		<tag k="natural" v="hill" />
		<tag k="place" v="locality" />
		<tag k="ssr:stedsnr" v="6256" />
	</node>
	<node id="-59948" lat="60.3919138869" lon="11.5647444471">
		<tag k="name" v="Svartberget" />
		<tag k="natural" v="hill" />
		<tag k="place" v="locality" />
		<tag k="ssr:stedsnr" v="896839" />
	</node>
	<node id="-59942" lat="60.3053166681" lon="11.5256833408">
		<tag k="name" v="Vestre Styggdalsholen" />
		<tag k="natural" v="hill" />
		<tag k="place" v="locality" />
		<tag k="ssr:stedsnr" v="892686" />
	</node>
	<node id="-59933" lat="60.3382444447" lon="11.4566694458">
		<tag k="name" v="Grevlingdalen" />
		<tag k="natural" v="valley" />
		<tag k="place" v="locality" />
		<tag k="ssr:stedsnr" v="891688" />
	</node>
	<node id="-59931" lat="60.3973749966" lon="11.4349444465">
		<tag k="name" v="Bjertbergbrauta" />
		<tag k="natural" v="hill" />
		<tag k="place" v="locality" />
		<tag k="ssr:stedsnr" v="891538" />
	</node>
	<node id="-59929" lat="60.3942194453" lon="11.7001861024">
		<tag k="fixme" v="consider natural=peak for the most distinct mountains in the district" />
		<tag k="name" v="Kallskjeggberget" />
		<tag k="natural" v="hill" />
		<tag k="place" v="locality" />
		<tag k="ssr:stedsnr" v="891249" />
	</node>
	<node id="-59928" lat="60.5201555539" lon="11.6214027731">
		<tag k="name" v="Goddalen" />
		<tag k="natural" v="valley" />
		<tag k="place" v="locality" />
		<tag k="ssr:stedsnr" v="891174" />
	</node>
	<node id="-59920" lat="60.465847219" lon="11.4651111128">
		<tag k="name" v="Reservdalen" />
		<tag k="natural" v="valley" />
		<tag k="place" v="locality" />
		<tag k="ssr:stedsnr" v="890944" />
	</node>
	<node id="-59917" lat="60.323600003" lon="11.5901138913">
		<tag k="name" v="Paraplyen" />
		<tag k="place" v="locality" />
		<tag k="ssr:stedsnr" v="890863" />
	</node>
	<node id="-59915" lat="60.3430583288" lon="11.5364611186">
		<tag k="name" v="Songkjøllia" />
		<tag k="natural" v="slope" />
		<tag k="place" v="locality" />
		<tag k="ssr:stedsnr" v="890814" />
	</node>
	<node id="-59914" lat="60.552444446" lon="11.5841694486">
		<tag k="fixme" v="consider natural=peak for the most distinct mountains in the district" />
		<tag k="loc_name" v="Mellomhøgdberget" />
		<tag k="name" v="Mellemhøgdberget" />
		<tag k="natural" v="hill" />
		<tag k="place" v="locality" />
		<tag k="ssr:stedsnr" v="890787" />
	</node>
	<node id="-59913" lat="60.4381333377" lon="11.54532222">
		<tag k="name" v="Stormyrdalen" />
		<tag k="natural" v="valley" />
		<tag k="place" v="locality" />
		<tag k="ssr:stedsnr" v="890402" />
	</node>
	<node id="-59911" lat="60.4373111109" lon="11.560847214">
		<tag k="name" v="Tonerbergholen" />
		<tag k="natural" v="hill" />
		<tag k="place" v="locality" />
		<tag k="ssr:stedsnr" v="890393" />
	</node>
	<node id="-59900" lat="60.4815166637" lon="11.4337000081">
		<tag k="name" v="Vestre Igletjennsberget" />
		<tag k="natural" v="hill" />
		<tag k="place" v="locality" />
		<tag k="ssr:stedsnr" v="411801" />
	</node>
	<node id="-59886" lat="60.5139472263" lon="11.5417472292">
		<tag k="name" v="Skirsberget" />
		<tag k="natural" v="hill" />
		<tag k="place" v="locality" />
		<tag k="ssr:stedsnr" v="406798" />
	</node>
	<node id="-59885" lat="60.5080444475" lon="11.5410694431">
		<tag k="name" v="Deldalslia" />
		<tag k="natural" v="slope" />
		<tag k="place" v="locality" />
		<tag k="ssr:stedsnr" v="406797" />
	</node>
	<node id="-59875" lat="60.3855500019" lon="11.6829722141">
		<tag k="name" v="Hustømmerhaugen" />
		<tag k="natural" v="hill" />
		<tag k="place" v="locality" />
		<tag k="ssr:stedsnr" v="406161" />
	</node>
	<node id="-59871" lat="60.4852361085" lon="11.5657416628">
		<tag k="name" v="Gammelsæterlia" />
		<tag k="natural" v="slope" />
		<tag k="place" v="locality" />
		<tag k="ssr:stedsnr" v="406089" />
	</node>
	<node id="-59865" lat="60.3977361077" lon="11.4579000075">
		<tag k="name" v="Deldalen" />
		<tag k="natural" v="valley" />
		<tag k="place" v="locality" />
		<tag k="ssr:stedsnr" v="405530" />
	</node>
	<node id="-59860" lat="60.3116666699" lon="11.5921305538">
		<tag k="name" v="Kjøgemesterhaugen" />
		<tag k="natural" v="hill" />
		<tag k="place" v="locality" />
		<tag k="ssr:stedsnr" v="404830" />
	</node>
	<node id="-59859" lat="60.3190638875" lon="11.5972861133">
		<tag k="name" v="Bjønnvåla" />
		<tag k="place" v="locality" />
		<tag k="ssr:stedsnr" v="404831" />
	</node>
	<node id="-59858" lat="60.3276111114" lon="11.5408583346">
		<tag k="name" v="Langmyrberget" />
		<tag k="natural" v="hill" />
		<tag k="place" v="locality" />
		<tag k="ssr:stedsnr" v="404821" />
	</node>
	<node id="-59857" lat="60.3234472217" lon="11.5764638928">
		<tag k="name" v="Lukersæterdalen" />
		<tag k="natural" v="valley" />
		<tag k="place" v="locality" />
		<tag k="ssr:stedsnr" v="404804" />
	</node>
	<node id="-59845" lat="60.4073777767" lon="11.4407472265">
		<tag k="name" v="Breidbekkdalen" />
		<tag k="natural" v="valley" />
		<tag k="place" v="locality" />
		<tag k="ssr:stedsnr" v="384977" />
	</node>
	<node id="-59843" lat="60.5379611103" lon="11.6884249993">
		<tag k="name" v="Vålhaugen" />
		<tag k="natural" v="hill" />
		<tag k="place" v="locality" />
		<tag k="ssr:stedsnr" v="371223" />
	</node>
	<node id="-59842" lat="60.5073388933" lon="11.4840555496">
		<tag k="name" v="Krafshølberget" />
		<tag k="natural" v="hill" />
		<tag k="place" v="locality" />
		<tag k="ssr:stedsnr" v="371219" />
	</node>
	<node id="-59838" lat="60.3893694427" lon="11.7860722134">
		<tag k="name" v="Abborhøgda" />
		<tag k="natural" v="hill" />
		<tag k="place" v="locality" />
		<tag k="ssr:stedsnr" v="370938" />
	</node>
	<node id="-59837" lat="60.3857805591" lon="11.7381916699">
		<tag k="name" v="Tårnet" />
		<tag k="natural" v="hill" />
		<tag k="place" v="locality" />
		<tag k="ssr:stedsnr" v="370916" />
	</node>
	<node id="-59833" lat="60.4285527738" lon="11.7978611129">
		<tag k="name" v="Sillerudsberget" />
		<tag k="natural" v="hill" />
		<tag k="place" v="locality" />
		<tag k="ssr:stedsnr" v="370871" />
	</node>
	<node id="-59824" lat="60.4619777756" lon="11.711002784">
		<tag k="name" v="Rognhaugen" />
		<tag k="natural" v="hill" />
		<tag k="place" v="locality" />
		<tag k="ssr:stedsnr" v="370803" />
	</node>
	<node id="-59797" lat="60.3704611149" lon="11.5273027762">
		<tag k="name" v="Nustlia" />
		<tag k="natural" v="slope" />
		<tag k="place" v="locality" />
		<tag k="ssr:stedsnr" v="362600" />
	</node>
	<node id="-59796" lat="60.3867499965" lon="11.5050361167">
		<tag k="name" v="Kølmiltomta" />
		<tag k="place" v="locality" />
		<tag k="ssr:stedsnr" v="362595" />
	</node>
	<node id="-59792" lat="60.3964250039" lon="11.5918666609">
		<tag k="name" v="Orrhyttene" />
		<tag k="place" v="locality" />
		<tag k="ssr:stedsnr" v="362291" />
	</node>
	<node id="-59789" lat="60.3856527775" lon="11.4680361192">
		<tag k="name" v="Høymyrlia" />
		<tag k="natural" v="slope" />
		<tag k="place" v="locality" />
		<tag k="ssr:stedsnr" v="362608" />
	</node>
	<node id="-59786" lat="60.4074555561" lon="11.4019777699">
		<tag k="name" v="Tårnliberget" />
		<tag k="natural" v="hill" />
		<tag k="place" v="locality" />
		<tag k="ssr:stedsnr" v="361419" />
	</node>
	<node id="-59785" lat="60.4950388846" lon="11.3600722246">
		<tag k="name" v="Finnsroa" />
		<tag k="natural" v="slope" />
		<tag k="place" v="locality" />
		<tag k="ssr:stedsnr" v="361353" />
	</node>
	<node id="-59779" lat="60.4129583317" lon="11.4019638974">
		<tag k="name" v="Tårnliberget" />
		<tag k="natural" v="hill" />
		<tag k="place" v="locality" />
		<tag k="ssr:stedsnr" v="361296" />
	</node>
	<node id="-59778" lat="60.437744444" lon="11.3905138956">
		<tag k="name" v="Nydamberget" />
		<tag k="natural" v="hill" />
		<tag k="place" v="locality" />
		<tag k="ssr:stedsnr" v="361292" />
	</node>
	<node id="-59775" lat="60.431447221" lon="11.3935083336">
		<tag k="name" v="Veslekampen" />
		<tag k="natural" v="hill" />
		<tag k="place" v="locality" />
		<tag k="ssr:stedsnr" v="361281" />
	</node>
	<node id="-59773" lat="60.5262805521" lon="11.689066662">
		<tag k="name" v="Vålhaugen" />
		<tag k="natural" v="hill" />
		<tag k="place" v="locality" />
		<tag k="ssr:stedsnr" v="360927" />
	</node>
	<node id="-59758" lat="60.3796583331" lon="11.5309749969">
		<tag k="fixme" v="consider natural=peak for the most distinct mountains in the district" />
		<tag k="name" v="Åsberget" />
		<tag k="natural" v="hill" />
		<tag k="place" v="locality" />
		<tag k="ssr:stedsnr" v="360286" />
	</node>
	<node id="-59754" lat="60.3944250007" lon="11.4893499913">
		<tag k="fixme" v="consider natural=peak for the most distinct mountains in the district" />
		<tag k="name" v="Heerberget" />
		<tag k="natural" v="hill" />
		<tag k="place" v="locality" />
		<tag k="ssr:stedsnr" v="237554" />
	</node>
	<node id="-59753" lat="60.4016444443" lon="11.47331945">
		<tag k="name" v="Løkkerberget" />
		<tag k="natural" v="hill" />
		<tag k="place" v="locality" />
		<tag k="ssr:stedsnr" v="237550" />
	</node>
	<node id="-61800" lat="60.4222208387" lon="11.6534870574">
		<tag k="alt_name" v="Garvikåsen" />
		<tag k="fixme" v="consider natural=peak for the most distinct mountains in the district" />
		<tag k="name" v="Gardvikåsen" />
		<tag k="natural" v="hill" />
		<tag k="place" v="locality" />
		<tag k="ssr:stedsnr" v="980126" />
	</node>
	<node id="-59751" lat="60.4503388913" lon="11.4369777845">
		<tag k="name" v="Bjørndalen" />
		<tag k="natural" v="valley" />
		<tag k="place" v="locality" />
		<tag k="ssr:stedsnr" v="358946" />
	</node>
	<node id="-59748" lat="60.4933638924" lon="11.467013882">
		<tag k="name" v="Kølmiltomta" />
		<tag k="place" v="locality" />
		<tag k="ssr:stedsnr" v="358829" />
	</node>
	<node id="-59747" lat="60.3930694447" lon="11.734144441">
		<tag k="name" v="Vesle-Okseberget" />
		<tag k="natural" v="hill" />
		<tag k="place" v="locality" />
		<tag k="ssr:stedsnr" v="358806" />
	</node>
	<node id="-59746" lat="60.399819448" lon="11.7232138861">
		<tag k="name" v="Paradis" />
		<tag k="place" v="locality" />
		<tag k="ssr:stedsnr" v="358804" />
	</node>
	<node id="-59745" lat="60.3327222237" lon="11.5269527753">
		<tag k="fixme" v="consider natural=peak for the most distinct mountains in the district" />
		<tag k="name" v="Brennberget" />
		<tag k="natural" v="hill" />
		<tag k="place" v="locality" />
		<tag k="ssr:stedsnr" v="358691" />
	</node>
	<node id="-59744" lat="60.3579277776" lon="11.4945999913">
		<tag k="name" v="Bjønnstokken" />
		<tag k="place" v="locality" />
		<tag k="ssr:stedsnr" v="358668" />
	</node>
	<node id="-59732" lat="60.4509999962" lon="11.5354166717">
		<tag k="name" v="Streverudshøgda" />
		<tag k="natural" v="hill" />
		<tag k="place" v="locality" />
		<tag k="ssr:stedsnr" v="350770" />
	</node>
	<node id="-61778" lat="60.4266777772" lon="11.7012333342">
		<tag k="name" v="Mastsluket" />
		<tag k="natural" v="valley" />
		<tag k="place" v="locality" />
		<tag k="ssr:stedsnr" v="969830" />
	</node>
	<node id="-61771" lat="60.4008666689" lon="11.5894833265">
		<tag k="name" v="Klopphøgda" />
		<tag k="natural" v="hill" />
		<tag k="place" v="locality" />
		<tag k="ssr:stedsnr" v="969274" />
	</node>
	<node id="-59722" lat="60.4188861078" lon="11.5241416645">
		<tag k="fixme" v="consider natural=peak for the most distinct mountains in the district" />
		<tag k="name" v="Flikkerudshøgda" />
		<tag k="natural" v="hill" />
		<tag k="place" v="locality" />
		<tag k="ssr:stedsnr" v="345984" />
	</node>
	<node id="-61769" lat="60.4580861122" lon="11.3526222284">
		<tag k="name" v="Kvernhushaugen" />
		<tag k="natural" v="hill" />
		<tag k="place" v="locality" />
		<tag k="ssr:stedsnr" v="968917" />
	</node>
	<node id="-61768" lat="60.3901333331" lon="11.4296555606">
		<tag k="fixme" v="consider natural=peak for the most distinct mountains in the district" />
		<tag k="name" v="Bjertberget" />
		<tag k="natural" v="hill" />
		<tag k="place" v="locality" />
		<tag k="ssr:stedsnr" v="968621" />
	</node>
	<node id="-61767" lat="60.3812694475" lon="11.4541194361">
		<tag k="name" v="Klomma" />
		<tag k="natural" v="valley" />
		<tag k="place" v="locality" />
		<tag k="ssr:stedsnr" v="968613" />
	</node>
	<node id="-59717" lat="60.4727888873" lon="11.5233638818">
		<tag k="name" v="Heggedalen" />
		<tag k="natural" v="valley" />
		<tag k="place" v="locality" />
		<tag k="ssr:stedsnr" v="345884" />
	</node>
	<node id="-61764" lat="60.4924027785" lon="11.3593999988">
		<tag k="name" v="Sjølikleiva" />
		<tag k="natural" v="slope" />
		<tag k="place" v="locality" />
		<tag k="ssr:stedsnr" v="968331" />
	</node>
	<node id="-59713" lat="60.3199583305" lon="11.5074388854">
		<tag k="name" v="Grenisæterberget" />
		<tag k="natural" v="hill" />
		<tag k="place" v="locality" />
		<tag k="ssr:stedsnr" v="345657" />
	</node>
	<node id="-61756" lat="60.5309444412" lon="11.6591166593">
		<tag k="name" v="Blekkbråtelia" />
		<tag k="natural" v="slope" />
		<tag k="place" v="locality" />
		<tag k="ssr:stedsnr" v="967922" />
	</node>
	<node id="-61755" lat="60.5081999987" lon="11.6831583403">
		<tag k="name" v="Håkenskoia" />
		<tag k="place" v="locality" />
		<tag k="ssr:stedsnr" v="967905" />
	</node>
	<node id="-59706" lat="60.370105557" lon="11.5387666592">
		<tag k="name" v="Kampen" />
		<tag k="natural" v="hill" />
		<tag k="place" v="locality" />
		<tag k="ssr:stedsnr" v="345288" />
	</node>
	<node id="-59703" lat="60.3964750013" lon="11.6985666632">
		<tag k="name" v="Røymyrhøgda" />
		<tag k="natural" v="hill" />
		<tag k="place" v="locality" />
		<tag k="ssr:stedsnr" v="345228" />
	</node>
	<node id="-61746" lat="60.4262166662" lon="11.730633332">
		<tag k="name" v="Hølbekklia" />
		<tag k="natural" v="slope" />
		<tag k="place" v="locality" />
		<tag k="ssr:stedsnr" v="967606" />
	</node>
	<node id="-59690" lat="60.3472194445" lon="11.5893444478">
		<tag k="fixme" v="consider natural=peak for the most distinct mountains in the district" />
		<tag k="name" v="Heibergshøgda" />
		<tag k="natural" v="hill" />
		<tag k="place" v="locality" />
		<tag k="ssr:stedsnr" v="343793" />
	</node>
	<node id="-61737" lat="60.4070222265" lon="11.7309472275">
		<tag k="name" v="Åtrakta" />
		<tag k="natural" v="valley" />
		<tag k="place" v="locality" />
		<tag k="ssr:stedsnr" v="965816" />
	</node>
	<node id="-61735" lat="60.336580552" lon="11.4780888811">
		<tag k="name" v="Torsonhøgda" />
		<tag k="natural" v="hill" />
		<tag k="place" v="locality" />
		<tag k="ssr:stedsnr" v="965687" />
	</node>
	<node id="-61733" lat="60.3674777743" lon="11.4803805463">
		<tag k="name" v="Gjerterudsberget" />
		<tag k="natural" v="hill" />
		<tag k="place" v="locality" />
		<tag k="ssr:stedsnr" v="965669" />
	</node>
	<node id="-59682" lat="60.430430552" lon="11.4567305527">
		<tag k="name" v="Kjerringknappen" />
		<tag k="natural" v="hill" />
		<tag k="place" v="locality" />
		<tag k="ssr:stedsnr" v="344991" />
	</node>
	<node id="-59681" lat="60.431719448" lon="11.4490083282">
		<tag k="name" v="Vindvålbråten" />
		<tag k="place" v="locality" />
		<tag k="ssr:stedsnr" v="344986" />
	</node>
	<node id="-61727" lat="60.4630527814" lon="11.5649638955">
		<tag k="name" v="Mildalen" />
		<tag k="natural" v="valley" />
		<tag k="place" v="locality" />
		<tag k="ssr:stedsnr" v="965493" />
	</node>
	<node id="-61726" lat="60.502897226" lon="11.428616666">
		<tag k="fixme" v="consider natural=peak for the most distinct mountains in the district" />
		<tag k="name" v="Muslivanghøgda" />
		<tag k="natural" v="hill" />
		<tag k="place" v="locality" />
		<tag k="ssr:stedsnr" v="965419" />
	</node>
	<node id="-59677" lat="60.4753222252" lon="11.3559749931">
		<tag k="name" v="Spellmannslia" />
		<tag k="natural" v="slope" />
		<tag k="place" v="locality" />
		<tag k="ssr:stedsnr" v="119919" />
	</node>
	<node id="-61724" lat="60.3474527802" lon="11.5641583414">
		<tag k="name" v="Mikkelsbakken" />
		<tag k="natural" v="slope" />
		<tag k="place" v="locality" />
		<tag k="ssr:stedsnr" v="965310" />
	</node>
	<node id="-59673" lat="60.3184111147" lon="11.5390694372">
		<tag k="name" v="Puttdalen" />
		<tag k="natural" v="valley" />
		<tag k="place" v="locality" />
		<tag k="ssr:stedsnr" v="101833" />
	</node>
	<node id="-61716" lat="60.4771694483" lon="11.3718444386">
		<tag k="name" v="Lomtjennsskogen" />
		<tag k="natural" v="slope" />
		<tag k="place" v="locality" />
		<tag k="ssr:stedsnr" v="957800" />
	</node>
	<node id="-59666" lat="60.4799750015" lon="11.7285999914">
		<tag k="fixme" v="consider natural=peak for the most distinct mountains in the district" />
		<tag k="name" v="Høgbrenna" />
		<tag k="natural" v="hill" />
		<tag k="place" v="locality" />
		<tag k="ssr:stedsnr" v="310228" />
	</node>
	<node id="-61713" lat="60.3496027807" lon="11.5044583376">
		<tag k="fixme" v="consider natural=peak for the most distinct mountains in the district" />
		<tag k="name" v="Svarttjennsberget" />
		<tag k="natural" v="hill" />
		<tag k="place" v="locality" />
		<tag k="ssr:stedsnr" v="957767" />
	</node>
	<node id="-61710" lat="60.4442499972" lon="11.5247444509">
		<tag k="name" v="Djuptjennsholen" />
		<tag k="natural" v="hill" />
		<tag k="place" v="locality" />
		<tag k="ssr:stedsnr" v="957031" />
	</node>
	<node id="-61709" lat="60.4577777807" lon="11.5643194491">
		<tag k="name" v="Kjølen" />
		<tag k="natural" v="ridge" />
		<tag k="place" v="locality" />
		<tag k="ssr:stedsnr" v="956799" />
	</node>
	<node id="-61701" lat="60.3604222242" lon="11.4384694464">
		<tag k="name" v="Hornberget" />
		<tag k="natural" v="hill" />
		<tag k="place" v="locality" />
		<tag k="ssr:stedsnr" v="952644" />
	</node>
	<node id="-61700" lat="60.344897223" lon="11.4660388935">
		<tag k="name" v="Langveggen" />
		<tag k="natural" v="slope" />
		<tag k="place" v="locality" />
		<tag k="ssr:stedsnr" v="952639" />
	</node>
	<node id="-61693" lat="60.5037277762" lon="11.6323027734">
		<tag k="name" v="Ragnhildkleiva" />
		<tag k="natural" v="slope" />
		<tag k="place" v="locality" />
		<tag k="ssr:stedsnr" v="952111" />
	</node>
	<node id="-61689" lat="60.4013222203" lon="11.8011277735">
		<tag k="name" v="Grasbergtoppen" />
		<tag k="natural" v="hill" />
		<tag k="place" v="locality" />
		<tag k="ssr:stedsnr" v="951600" />
	</node>
	<node id="-59640" lat="60.4605916661" lon="11.3507083305">
		<tag k="name" v="Hagahaugen" />
		<tag k="natural" v="hill" />
		<tag k="place" v="locality" />
		<tag k="ssr:stedsnr" v="301922" />
	</node>
	<node id="-59635" lat="60.4131166701" lon="11.7072694461">
		<tag k="name" v="Skrakkelbakken" />
		<tag k="natural" v="slope" />
		<tag k="place" v="locality" />
		<tag k="ssr:stedsnr" v="301849" />
	</node>
	<node id="-61679" lat="60.4149750037" lon="11.8370111192">
		<tag k="name" v="Karlshøgda" />
		<tag k="natural" v="hill" />
		<tag k="place" v="locality" />
		<tag k="ssr:stedsnr" v="950551" />
	</node>
	<node id="-61674" lat="60.4502944469" lon="11.5988833299">
		<tag k="name" v="Myrdalen" />
		<tag k="natural" v="valley" />
		<tag k="place" v="locality" />
		<tag k="ssr:stedsnr" v="950427" />
	</node>
	<node id="-59624" lat="60.5145166692" lon="11.6645388945">
		<tag k="loc_name" v="Gråsida" />
		<tag k="name" v="Gråsia" />
		<tag k="natural" v="slope" />
		<tag k="place" v="locality" />
		<tag k="ssr:stedsnr" v="300931" />
	</node>
	<node id="-59623" lat="60.5123083346" lon="11.6610166734">
		<tag k="name" v="Tårnknappen" />
		<tag k="natural" v="hill" />
		<tag k="place" v="locality" />
		<tag k="ssr:stedsnr" v="300921" />
	</node>
	<node id="-59622" lat="60.489525002" lon="11.5024555572">
		<tag k="name" v="Krokholen" />
		<tag k="natural" v="ridge" />
		<tag k="place" v="locality" />
		<tag k="ssr:stedsnr" v="300893" />
	</node>
	<node id="-59617" lat="60.3932444469" lon="11.5687666648">
		<tag k="name" v="Hesbergsdalshøgda" />
		<tag k="natural" v="hill" />
		<tag k="place" v="locality" />
		<tag k="ssr:stedsnr" v="57327" />
	</node>
	<node id="-59616" lat="60.4113111079" lon="11.6407555546">
		<tag k="name" v="Hammarberga" />
		<tag k="natural" v="hill" />
		<tag k="place" v="locality" />
		<tag k="ssr:stedsnr" v="57320" />
	</node>
	<node id="-59612" lat="60.3729194487" lon="11.4124416724">
		<tag k="name" v="Rudssæterlia" />
		<tag k="natural" v="slope" />
		<tag k="place" v="locality" />
		<tag k="ssr:stedsnr" v="300393" />
	</node>
	<node id="-59598" lat="60.4504527812" lon="11.4236250059">
		<tag k="name" v="Persbråtehaugen" />
		<tag k="natural" v="hill" />
		<tag k="place" v="locality" />
		<tag k="ssr:stedsnr" v="298941" />
	</node>
	<node id="-59596" lat="60.4912333349" lon="11.4262527722">
		<tag k="name" v="Kløvsteinberget" />
		<tag k="natural" v="hill" />
		<tag k="place" v="locality" />
		<tag k="ssr:stedsnr" v="298808" />
	</node>
	<node id="-59594" lat="60.5111999989" lon="11.490344451">
		<tag k="name" v="Bjønnstokken" />
		<tag k="natural" v="slope" />
		<tag k="place" v="locality" />
		<tag k="ssr:stedsnr" v="298550" />
	</node>
	<node id="-61641" lat="60.4294222255" lon="11.6502194389">
		<tag k="alt_name" v="Østmoåsen" />
		<tag k="fixme" v="consider natural=peak for the most distinct mountains in the district" />
		<tag k="name" v="Åsen" />
		<tag k="natural" v="hill" />
		<tag k="place" v="locality" />
		<tag k="ssr:stedsnr" v="916773" />
	</node>
	<node id="-61640" lat="60.4268499979" lon="11.3731777803">
		<tag k="fixme" v="consider natural=peak for the most distinct mountains in the district" />
		<tag k="name" v="Engerfjellet" />
		<tag k="natural" v="hill" />
		<tag k="place" v="locality" />
		<tag k="ssr:stedsnr" v="916515" />
	</node>
	<node id="-61639" lat="60.4791999984" lon="11.3477749984">
		<tag k="name" v="Neskonghøgda" />
		<tag k="natural" v="hill" />
		<tag k="place" v="locality" />
		<tag k="ssr:stedsnr" v="916412" />
	</node>
	<node id="-61638" lat="60.4861055562" lon="11.4374555591">
		<tag k="name" v="Steppberget" />
		<tag k="natural" v="hill" />
		<tag k="place" v="locality" />
		<tag k="ssr:stedsnr" v="916403" />
	</node>
	<node id="-59588" lat="60.4097555559" lon="11.586052779">
		<tag k="name" v="Fjellshøgda" />
		<tag k="natural" v="hill" />
		<tag k="place" v="locality" />
		<tag k="ssr:stedsnr" v="298333" />
	</node>
	<node id="-61634" lat="60.3726555555" lon="11.4742833323">
		<tag k="name" v="Vardberget" />
		<tag k="natural" v="hill" />
		<tag k="place" v="locality" />
		<tag k="ssr:stedsnr" v="908627" />
	</node>
	<node id="-61633" lat="60.3830972226" lon="11.5276333249">
		<tag k="name" v="Kleiva" />
		<tag k="natural" v="valley" />
		<tag k="place" v="locality" />
		<tag k="ssr:stedsnr" v="908613" />
	</node>
	<node id="-61629" lat="60.3866083354" lon="11.590227781">
		<tag k="name" v="Sauberget" />
		<tag k="natural" v="hill" />
		<tag k="place" v="locality" />
		<tag k="ssr:stedsnr" v="908340" />
	</node>
	<node id="-61626" lat="60.5014555578" lon="11.3509527832">
		<tag k="name" v="Åbakkene" />
		<tag k="natural" v="slope" />
		<tag k="place" v="locality" />
		<tag k="ssr:stedsnr" v="908074" />
	</node>
	<node id="-59569" lat="60.4287166628" lon="11.560666661">
		<tag k="name" v="Eierberget" />
		<tag k="natural" v="hill" />
		<tag k="place" v="locality" />
		<tag k="ssr:stedsnr" v="289846" />
	</node>
	<node id="-59556" lat="60.3398250032" lon="11.4663027835">
		<tag k="name" v="Klomma" />
		<tag k="natural" v="valley" />
		<tag k="place" v="locality" />
		<tag k="ssr:stedsnr" v="284691" />
	</node>
	<node id="-59552" lat="60.3516499972" lon="11.5285611107">
		<tag k="name" v="Sylta" />
		<tag k="place" v="locality" />
		<tag k="ssr:stedsnr" v="284673" />
	</node>
	<node id="-61599" lat="60.4394527791" lon="11.3641583406">
		<tag k="name" v="Koiholen" />
		<tag k="natural" v="hill" />
		<tag k="place" v="locality" />
		<tag k="ssr:stedsnr" v="907224" />
	</node>
	<node id="-59548" lat="60.4792194402" lon="11.5432527802">
		<tag k="name" v="Nybråtelia" />
		<tag k="natural" v="slope" />
		<tag k="place" v="locality" />
		<tag k="ssr:stedsnr" v="284100" />
	</node>
	<node id="-59545" lat="60.5069722204" lon="11.631902776">
		<tag k="name" v="Bjønndalen" />
		<tag k="natural" v="valley" />
		<tag k="place" v="locality" />
		<tag k="ssr:stedsnr" v="284073" />
	</node>
	<node id="-61592" lat="60.4442583321" lon="11.5181194494">
		<tag k="name" v="Svinmyrdalen" />
		<tag k="natural" v="valley" />
		<tag k="place" v="locality" />
		<tag k="ssr:stedsnr" v="905968" />
	</node>
	<node id="-61587" lat="60.4361138861" lon="11.5307583256">
		<tag k="name" v="Oppiberget" />
		<tag k="natural" v="slope" />
		<tag k="place" v="locality" />
		<tag k="ssr:stedsnr" v="905904" />
	</node>
	<node id="-61585" lat="60.4859499988" lon="11.466936117">
		<tag k="name" v="Nesdalen" />
		<tag k="natural" v="valley" />
		<tag k="place" v="locality" />
		<tag k="ssr:stedsnr" v="905843" />
	</node>
	<node id="-61583" lat="60.3614666623" lon="11.4928166697">
		<tag k="name" v="Geitberget" />
		<tag k="natural" v="hill" />
		<tag k="place" v="locality" />
		<tag k="ssr:stedsnr" v="905689" />
	</node>
	<node id="-61573" lat="60.3608111093" lon="11.5305277794">
		<tag k="name" v="Styggdalen" />
		<tag k="natural" v="valley" />
		<tag k="place" v="locality" />
		<tag k="ssr:stedsnr" v="905276" />
	</node>
	<node id="-61571" lat="60.4070555596" lon="11.727791667">
		<tag k="name" v="Smitomta" />
		<tag k="place" v="locality" />
		<tag k="ssr:stedsnr" v="904823" />
	</node>
	<node id="-61565" lat="60.4156083361" lon="11.4427277737">
		<tag k="name" v="Korpdalen" />
		<tag k="natural" v="valley" />
		<tag k="place" v="locality" />
		<tag k="ssr:stedsnr" v="869981" />
	</node>
	<node id="-61553" lat="60.4089527749" lon="11.5840972133">
		<tag k="fixme" v="consider natural=peak for the most distinct mountains in the district" />
		<tag k="name" v="Knappåsen" />
		<tag k="natural" v="hill" />
		<tag k="place" v="locality" />
		<tag k="ssr:stedsnr" v="856850" />
	</node>
	<node id="-61545" lat="60.471125001" lon="11.3470805527">
		<tag k="name" v="Fuglehøgda" />
		<tag k="natural" v="hill" />
		<tag k="place" v="locality" />
		<tag k="ssr:stedsnr" v="856496" />
	</node>
	<node id="-61543" lat="60.4557999969" lon="11.3924777801">
		<tag k="name" v="Plassæterhøgda" />
		<tag k="natural" v="hill" />
		<tag k="place" v="locality" />
		<tag k="ssr:stedsnr" v="856472" />
	</node>
	<node id="-61541" lat="60.487516665" lon="11.6793305489">
		<tag k="name" v="Tannåbergskurven" />
		<tag k="natural" v="hill" />
		<tag k="place" v="locality" />
		<tag k="ssr:stedsnr" v="856242" />
	</node>
	<node id="-61531" lat="60.4701166623" lon="11.3499083305">
		<tag k="name" v="Kjøsfallberget" />
		<tag k="natural" v="hill" />
		<tag k="place" v="locality" />
		<tag k="ssr:stedsnr" v="848894" />
	</node>
	<node id="-61528" lat="60.3852111117" lon="11.4503833404">
		<tag k="name" v="Bittberget" />
		<tag k="natural" v="hill" />
		<tag k="place" v="locality" />
		<tag k="ssr:stedsnr" v="848614" />
	</node>
	<node id="-61520" lat="60.4760555593" lon="11.3893388868">
		<tag k="fixme" v="consider natural=peak for the most distinct mountains in the district" />
		<tag k="name" v="Gjeddevassberget" />
		<tag k="natural" v="hill" />
		<tag k="place" v="locality" />
		<tag k="ssr:stedsnr" v="847342" />
	</node>
	<node id="-61517" lat="60.4373361105" lon="11.4090666654">
		<tag k="name" v="Håkonsmyrholene" />
		<tag k="natural" v="hill" />
		<tag k="place" v="locality" />
		<tag k="ssr:stedsnr" v="847304" />
	</node>
	<node id="-61501" lat="60.3737083347" lon="11.7304611142">
		<tag k="fixme" v="consider natural=peak for the most distinct mountains in the district" />
		<tag k="name" v="Bergsknappen" />
		<tag k="natural" v="hill" />
		<tag k="place" v="locality" />
		<tag k="ssr:stedsnr" v="846202" />
	</node>
	<node id="-61498" lat="60.3957027754" lon="11.709808342">
		<tag k="fixme" v="consider natural=peak for the most distinct mountains in the district" />
		<tag k="name" v="Ulvåsen" />
		<tag k="natural" v="hill" />
		<tag k="place" v="locality" />
		<tag k="ssr:stedsnr" v="844813" />
	</node>
	<node id="-61494" lat="60.5054583353" lon="11.4974861158">
		<tag k="loc_name" v="Busserullhaugen" />
		<tag k="name" v="Buserullhaugen" />
		<tag k="natural" v="hill" />
		<tag k="place" v="locality" />
		<tag k="ssr:stedsnr" v="844579" />
	</node>
	<node id="-61467" lat="60.5171055528" lon="11.6052055487">
		<tag k="name" v="Rabbhøgda" />
		<tag k="natural" v="hill" />
		<tag k="place" v="locality" />
		<tag k="ssr:stedsnr" v="831078" />
	</node>
	<node id="-61464" lat="60.415152779" lon="11.4289277791">
		<tag k="name" v="Steinbråteberget" />
		<tag k="natural" v="hill" />
		<tag k="place" v="locality" />
		<tag k="ssr:stedsnr" v="830972" />
	</node>
	<node id="-61459" lat="60.3350055525" lon="11.5552194471">
		<tag k="name" v="Dørumdalen" />
		<tag k="natural" v="valley" />
		<tag k="place" v="locality" />
		<tag k="ssr:stedsnr" v="829802" />
	</node>
	<node id="-61457" lat="60.3539000041" lon="11.5751194484">
		<tag k="name" v="Smørdalen" />
		<tag k="natural" v="valley" />
		<tag k="place" v="locality" />
		<tag k="ssr:stedsnr" v="829770" />
	</node>
	<node id="-61456" lat="60.3509611113" lon="11.570297214">
		<tag k="name" v="Kalasen" />
		<tag k="place" v="locality" />
		<tag k="ssr:stedsnr" v="829768" />
	</node>
	<node id="-61444" lat="60.5366777734" lon="11.5542388962">
		<tag k="name" v="Hundberget" />
		<tag k="natural" v="hill" />
		<tag k="place" v="locality" />
		<tag k="ssr:stedsnr" v="796240" />
	</node>
	<node id="-61442" lat="60.320133329" lon="11.5594555618">
		<tag k="fixme" v="consider natural=peak for the most distinct mountains in the district" />
		<tag k="name" v="Raudåsen" />
		<tag k="natural" v="hill" />
		<tag k="place" v="locality" />
		<tag k="ssr:stedsnr" v="795987" />
	</node>
</osm>
