<?xml version="1.0" encoding="UTF-8"?>
<osm generator="osmapis" version="0.6">
	<node id="-61436" lat="60.3932805599" lon="11.5443722269">
		<tag k="amenity" v="nursing_home" />
		<tag k="name" v="Nord-Odal alders- og sykehjem" />
		<tag k="ssr:stedsnr" v="846353" />
	</node>
	<node id="-61435" lat="60.4201472211" lon="11.5959499996">
		<tag k="name" v="Sjøberg" />
		<tag k="place" v="isolated_dwelling" />
		<tag k="ssr:stedsnr" v="846320" />
	</node>
	<node id="-61434" lat="60.4158027754" lon="11.5975027713">
		<tag k="name" v="Ås" />
		<tag k="place" v="farm" />
		<tag k="ssr:stedsnr" v="846310" />
	</node>
	<node id="-61428" lat="60.438916669" lon="11.4625166711">
		<tag k="name" v="Nord-Haugen" />
		<tag k="place" v="farm" />
		<tag k="ssr:stedsnr" v="844954" />
	</node>
	<node id="-61425" lat="60.3675447233" lon="11.5528092561">
		<tag k="name" v="Illgomyra" />
		<tag k="place" v="locality" />
		<tag k="ssr:stedsnr" v="844778" />
	</node>
	<node id="-61409" lat="60.4173666655" lon="11.7760222213">
		<tag k="name" v="Småtjennkoia" />
		<tag k="place" v="isolated_dwelling" />
		<tag k="ssr:stedsnr" v="835748" />
	</node>
	<node id="-61407" lat="60.3937685813" lon="11.5124721667">
		<tag k="name" v="Sollausthagen" />
		<tag k="place" v="farm" />
		<tag k="ssr:stedsnr" v="835301" />
	</node>
	<node id="-61406" lat="60.4258041735" lon="11.5150418255">
		<tag k="name" v="Breibybråten" />
		<tag k="place" v="farm" />
		<tag k="ssr:stedsnr" v="831992" />
	</node>
	<node id="-61405" lat="60.4127306329" lon="11.4872605768">
		<tag k="name" v="Rudsbråten" />
		<tag k="place" v="farm" />
		<tag k="ssr:stedsnr" v="831983" />
	</node>
	<node id="-61404" lat="60.4720333328" lon="11.5174361026">
		<tag k="name" v="Lønndalskoia" />
		<tag k="place" v="isolated_dwelling" />
		<tag k="ssr:stedsnr" v="831879" />
	</node>
	<node id="-61401" lat="60.4546388848" lon="11.5396694364">
		<tag k="name" v="Nord-Streverud" />
		<tag k="place" v="locality" />
		<tag k="ssr:stedsnr" v="831478" />
	</node>
	<node id="-61400" lat="60.4021243766" lon="11.6502357915">
		<tag k="name" v="Trøbråten" />
		<tag k="place" v="locality" />
		<tag k="ssr:stedsnr" v="831230" />
	</node>
	<node id="-61398" lat="60.3861250028" lon="11.692691675">
		<tag k="name" v="Bergestad" />
		<tag k="place" v="farm" />
		<tag k="ssr:stedsnr" v="831150" />
	</node>
	<node id="-61396" lat="60.5167305526" lon="11.6366194463">
		<tag k="name" v="Åtterkoia" />
		<tag k="place" v="isolated_dwelling" />
		<tag k="ssr:stedsnr" v="831082" />
	</node>
	<node id="-61390" lat="60.3981278432" lon="11.4718977027">
		<tag k="name" v="Løkkerbekken" />
		<tag k="place" v="farm" />
		<tag k="ssr:stedsnr" v="830507" />
	</node>
	<node id="-61388" lat="60.3097954621" lon="11.6109044514">
		<tag k="name" v="Suterudbråten" />
		<tag k="place" v="locality" />
		<tag k="ssr:stedsnr" v="829851" />
	</node>
	<node id="-61379" lat="60.4758444418" lon="11.6332694514">
		<tag k="name" v="Bjørnstad" />
		<tag k="place" v="isolated_dwelling" />
		<tag k="ssr:stedsnr" v="829445" />
	</node>
	<node id="-61378" lat="60.4775722182" lon="11.6140222136">
		<tag k="name" v="Oppi" />
		<tag k="place" v="farm" />
		<tag k="ssr:stedsnr" v="829441" />
	</node>
	<node id="-61377" lat="60.4406111075" lon="11.6336083276">
		<tag k="name" v="Nor" />
		<tag k="place" v="farm" />
		<tag k="ssr:stedsnr" v="829431" />
	</node>
	<node id="-61376" lat="60.4412432346" lon="11.5728408818">
		<tag k="name" v="Kjølbråten" />
		<tag k="place" v="farm" />
		<tag k="ssr:stedsnr" v="829376" />
	</node>
	<node id="-61375" lat="60.4389416704" lon="11.5597083318">
		<tag k="name" v="Tonerberget" />
		<tag k="place" v="isolated_dwelling" />
		<tag k="ssr:stedsnr" v="829372" />
	</node>
	<node id="-61374" lat="60.5056404077" lon="11.3872079494">
		<tag k="name" v="Nordhagen" />
		<tag k="place" v="farm" />
		<tag k="ssr:stedsnr" v="829127" />
	</node>
	<node id="-61373" lat="60.4026305579" lon="11.8090361131">
		<tag k="name" v="Øvre Grasberget" />
		<tag k="place" v="locality" />
		<tag k="ssr:stedsnr" v="814444" />
	</node>
	<node id="-61371" lat="60.334436112" lon="11.4993472157">
		<tag k="name" v="Bjelkersætra" />
		<tag k="place" v="isolated_dwelling" />
		<tag k="ssr:stedsnr" v="795998" />
	</node>
	<node id="-61368" lat="60.3054500032" lon="11.5476833382">
		<tag k="name" v="Dalsætra" />
		<tag k="place" v="isolated_dwelling" />
		<tag k="ssr:stedsnr" v="795977" />
	</node>
	<node id="-61367" lat="60.3082564434" lon="11.6178667701">
		<tag k="alt_name" v="Midtre Iler" />
		<tag k="name" v="Iler" />
		<tag k="place" v="farm" />
		<tag k="ssr:stedsnr" v="795972" />
	</node>
	<node id="-61366" lat="60.3115527783" lon="11.6173499975">
		<tag k="name" v="Steinerud" />
		<tag k="place" v="isolated_dwelling" />
		<tag k="ssr:stedsnr" v="795967" />
	</node>
	<node id="-61365" lat="60.3868416656" lon="11.6665805628">
		<tag k="name" v="Vestby" />
		<tag k="place" v="isolated_dwelling" />
		<tag k="ssr:stedsnr" v="795947" />
	</node>
	<node id="-61364" lat="60.3916055584" lon="11.5304194467">
		<tag k="name" v="Stein" />
		<tag k="place" v="farm" />
		<tag k="ssr:stedsnr" v="795939" />
	</node>
	<node id="-61363" lat="60.3768666626" lon="11.7129027763">
		<tag k="name" v="Pilterud" />
		<tag k="place" v="farm" />
		<tag k="ssr:stedsnr" v="795917" />
	</node>
	<node id="-61362" lat="60.3642888862" lon="11.5056222155">
		<tag k="name" v="Kommunekoia" />
		<tag k="place" v="isolated_dwelling" />
		<tag k="ssr:stedsnr" v="795901" />
	</node>
	<node id="-61361" lat="60.3655499965" lon="11.714824994">
		<tag k="name" v="Nordstrand" />
		<tag k="place" v="farm" />
		<tag k="ssr:stedsnr" v="795897" />
	</node>
	<node id="-61360" lat="60.4309500025" lon="11.4982000024">
		<tag k="name" v="Nes" />
		<tag k="place" v="farm" />
		<tag k="ssr:stedsnr" v="795879" />
	</node>
	<node id="-61359" lat="60.4342472201" lon="11.6390416726">
		<tag k="name" v="Brustad" />
		<tag k="place" v="farm" />
		<tag k="ssr:stedsnr" v="795869" />
	</node>
	<node id="-61357" lat="60.4109564872" lon="11.4800769034">
		<tag k="name" v="Runi" />
		<tag k="place" v="farm" />
		<tag k="ssr:stedsnr" v="795851" />
	</node>
	<node id="-61356" lat="60.4148916691" lon="11.4700305572">
		<tag k="alt_name" v="Nordre Slåmot" />
		<tag k="name" v="Slåmot" />
		<tag k="place" v="farm" />
		<tag k="ssr:stedsnr" v="795848" />
	</node>
	<node id="-61355" lat="60.4164677494" lon="11.6476817459">
		<tag k="alt_name" v="Garvik" />
		<tag k="fixme" v="consider place=hamlet" />
		<tag k="name" v="Gardvik" />
		<tag k="place" v="farm" />
		<tag k="ssr:stedsnr" v="795843" />
	</node>
	<node id="-61353" lat="60.4114833376" lon="11.8087777751">
		<tag k="name" v="Hella" />
		<tag k="place" v="locality" />
		<tag k="ssr:stedsnr" v="795835" />
	</node>
	<node id="-61352" lat="60.3994222261" lon="11.4690777708">
		<tag k="name" v="Vestvoll" />
		<tag k="place" v="isolated_dwelling" />
		<tag k="ssr:stedsnr" v="795819" />
	</node>
	<node id="-61351" lat="60.4011361153" lon="11.534002773">
		<tag k="name" v="Letterud" />
		<tag k="place" v="farm" />
		<tag k="ssr:stedsnr" v="795815" />
	</node>
	<node id="-61350" lat="60.397922467" lon="11.5286480286">
		<tag k="name" v="Solvest" />
		<tag k="place" v="farm" />
		<tag k="ssr:stedsnr" v="795814" />
	</node>
	<node id="-61349" lat="60.4699722258" lon="11.6117916707">
		<tag k="name" v="Mellomberget" />
		<tag k="place" v="farm" />
		<tag k="ssr:stedsnr" v="795796" />
	</node>
	<node id="-61348" lat="60.4592970396" lon="11.4869878498">
		<tag k="alt_name" v="Veabråten" />
		<tag k="name" v="Vedbråten" />
		<tag k="place" v="farm" />
		<tag k="ssr:stedsnr" v="795793" />
	</node>
	<node id="-61346" lat="60.4568361144" lon="11.7153277795">
		<tag k="historic" v="shieling" />
		<tag k="name" v="Odals-Østmosætra" />
		<tag k="old_name" v="Østmosetra" />
		<tag k="place" v="locality" />
		<tag k="ssr:stedsnr" v="795786" />
	</node>
	<node id="-61345" lat="60.4553305575" lon="11.6218777857">
		<tag k="name" v="Melgard" />
		<tag k="place" v="farm" />
		<tag k="ssr:stedsnr" v="795782" />
	</node>
	<node id="-61344" lat="60.4498361137" lon="11.6165694532">
		<tag k="name" v="Dalsrud" />
		<tag k="place" v="farm" />
		<tag k="ssr:stedsnr" v="795768" />
	</node>
	<node id="-61343" lat="60.4398249979" lon="11.4998638903">
		<tag k="name" v="Haug" />
		<tag k="place" v="farm" />
		<tag k="ssr:stedsnr" v="795766" />
	</node>
	<node id="-61342" lat="60.4368111153" lon="11.6302499956">
		<tag k="name" v="Granholt" />
		<tag k="place" v="farm" />
		<tag k="ssr:stedsnr" v="795760" />
	</node>
	<node id="-61340" lat="60.4243749964" lon="11.4380416665">
		<tag k="name" v="Stamphuset" />
		<tag k="place" v="isolated_dwelling" />
		<tag k="ssr:stedsnr" v="795552" />
	</node>
	<node id="-61335" lat="60.4949472227" lon="11.6019277814">
		<tag k="name" v="Botner" />
		<tag k="place" v="isolated_dwelling" />
		<tag k="ssr:stedsnr" v="795267" />
	</node>
	<node id="-61334" lat="60.4963083303" lon="11.5104361105">
		<tag k="historic" v="shieling" />
		<tag k="name" v="Skinnarbu" />
		<tag k="place" v="locality" />
		<tag k="ssr:stedsnr" v="795264" />
	</node>
	<node id="-61330" lat="60.4315944462" lon="11.6601583367">
		<tag k="name" v="Nilsrud" />
		<tag k="place" v="farm" />
		<tag k="ssr:stedsnr" v="787824" />
	</node>
	<node id="-61326" lat="60.3751555512" lon="11.5046694484">
		<tag k="name" v="Tonerkoia" />
		<tag k="place" v="isolated_dwelling" />
		<tag k="ssr:stedsnr" v="787622" />
	</node>
	<node id="-61305" lat="60.4008777786" lon="11.5395555615">
		<tag k="name" v="Storbråten" />
		<tag k="place" v="quarter" />
		<tag k="ssr:stedsnr" v="785342" />
	</node>
	<node id="-61304" lat="60.430072223" lon="11.6327499945">
		<tag k="name" v="Myrvoll" />
		<tag k="place" v="farm" />
		<tag k="ssr:stedsnr" v="785314" />
	</node>
	<node id="-61303" lat="60.4314444445" lon="11.616791671">
		<tag k="name" v="Vestereng" />
		<tag k="place" v="farm" />
		<tag k="ssr:stedsnr" v="785310" />
	</node>
	<node id="-61302" lat="60.3819250007" lon="11.7429361195">
		<tag k="name" v="Langmyrkoia" />
		<tag k="place" v="locality" />
		<tag k="ssr:stedsnr" v="785226" />
	</node>
	<node id="-61300" lat="60.4432889357" lon="11.5054113677">
		<tag k="name" v="Holthagen" />
		<tag k="place" v="farm" />
		<tag k="ssr:stedsnr" v="783970" />
	</node>
	<node id="-61299" lat="60.4398805574" lon="11.5040805536">
		<tag k="name" v="Holt-Ødegården" />
		<tag k="place" v="farm" />
		<tag k="ssr:stedsnr" v="783965" />
	</node>
	<node id="-61298" lat="60.448052781" lon="11.4657583329">
		<tag k="name" v="Rovelstadmoen" />
		<tag k="place" v="farm" />
		<tag k="ssr:stedsnr" v="783950" />
	</node>
	<node id="-61297" lat="60.4359739881" lon="11.4671824744">
		<tag k="name" v="Lishagen" />
		<tag k="place" v="farm" />
		<tag k="ssr:stedsnr" v="783944" />
	</node>
	<node id="-61296" lat="60.4657416687" lon="11.4850499973">
		<tag k="name" v="Vangom" />
		<tag k="place" v="farm" />
		<tag k="ssr:stedsnr" v="783867" />
	</node>
	<node id="-61294" lat="60.3981416706" lon="11.5123138914">
		<tag k="fixme" v="consider natural=beach + surface=sand" />
		<tag k="leisure" v="swimming_area" />
		<tag k="name" v="Lauvarhella" />
		<tag k="place" v="locality" />
		<tag k="ssr:stedsnr" v="783533" />
	</node>
	<node id="-61291" lat="60.4599250025" lon="11.5894555565">
		<tag k="name" v="To" />
		<tag k="place" v="isolated_dwelling" />
		<tag k="ssr:stedsnr" v="783467" />
	</node>
	<node id="-61278" lat="60.4878555532" lon="11.5562805614">
		<tag k="name" v="Gørrtjennssætervangen" />
		<tag k="place" v="locality" />
		<tag k="ssr:stedsnr" v="775520" />
	</node>
	<node id="-61270" lat="60.4232194434" lon="11.5048055606">
		<tag k="name" v="Breibynesset" />
		<tag k="place" v="farm" />
		<tag k="ssr:stedsnr" v="770990" />
	</node>
	<node id="-61267" lat="60.4685250026" lon="11.5293666735">
		<tag k="name" v="Olderkoia" />
		<tag k="place" v="locality" />
		<tag k="ssr:stedsnr" v="770893" />
	</node>
	<node id="-59548" lat="60.4009138859" lon="11.5452000024">
		<tag k="building" v="commercial" />
		<tag k="name" v="Rescon" />
		<tag k="ssr:stedsnr" v="57341" />
	</node>
	<node id="-61261" lat="60.4326240467" lon="11.5140221549">
		<tag k="name" v="Tollhaugen" />
		<tag k="place" v="farm" />
		<tag k="ssr:stedsnr" v="770637" />
	</node>
	<node id="-61259" lat="60.3718257571" lon="11.545966783">
		<tag k="name" v="Hagen" />
		<tag k="place" v="farm" />
		<tag k="ssr:stedsnr" v="770289" />
	</node>
	<node id="-61257" lat="60.3882777734" lon="11.6728250033">
		<tag k="name" v="Såheim" />
		<tag k="place" v="isolated_dwelling" />
		<tag k="ssr:stedsnr" v="770131" />
	</node>
	<node id="-61252" lat="60.5091750009" lon="11.6194416719">
		<tag k="historic" v="shieling" />
		<tag k="name" v="Nordlislåtten" />
		<tag k="place" v="locality" />
		<tag k="ssr:stedsnr" v="770082" />
	</node>
	<node id="-61247" lat="60.4051361113" lon="11.4634388849">
		<tag k="name" v="Gråmyrkoia" />
		<tag k="place" v="isolated_dwelling" />
		<tag k="ssr:stedsnr" v="769512" />
	</node>
	<node id="-61239" lat="60.3572388873" lon="11.5932361117">
		<tag k="name" v="Strandhaug" />
		<tag k="place" v="isolated_dwelling" />
		<tag k="ssr:stedsnr" v="768799" />
	</node>
	<node id="-61238" lat="60.3488444405" lon="11.5988972203">
		<tag k="name" v="Granli" />
		<tag k="place" v="isolated_dwelling" />
		<tag k="ssr:stedsnr" v="768798" />
	</node>
	<node id="-61237" lat="60.5246055532" lon="11.5624861192">
		<tag k="name" v="Syverkoia" />
		<tag k="place" v="locality" />
		<tag k="ssr:stedsnr" v="768795" />
	</node>
	<node id="-61234" lat="60.4730861142" lon="11.6215361056">
		<tag k="name" v="Nordgård" />
		<tag k="place" v="farm" />
		<tag k="ssr:stedsnr" v="768471" />
	</node>
	<node id="-61233" lat="60.4754305589" lon="11.6198194392">
		<tag k="name" v="Nedre Holen" />
		<tag k="place" v="farm" />
		<tag k="ssr:stedsnr" v="768468" />
	</node>
	<node id="-61232" lat="60.4403932541" lon="11.5762102075">
		<tag k="name" v="Fjellsbråten" />
		<tag k="place" v="farm" />
		<tag k="ssr:stedsnr" v="768337" />
	</node>
	<node id="-61230" lat="60.5036877352" lon="11.3621104239">
		<tag k="name" v="Dalsrudhagen" />
		<tag k="place" v="farm" />
		<tag k="ssr:stedsnr" v="768118" />
	</node>
	<node id="-61229" lat="60.5014305511" lon="11.3870916655">
		<tag k="fixme" v="consider place=hamlet" />
		<tag k="name" v="Trautskogen" />
		<tag k="place" v="village" />
		<tag k="ssr:stedsnr" v="754761" />
	</node>
	<node id="-61223" lat="60.562744448" lon="11.5979055615">
		<tag k="name" v="Gjellbekksætra" />
		<tag k="place" v="locality" />
		<tag k="ssr:stedsnr" v="735143" />
	</node>
	<node id="-61221" lat="60.3269611154" lon="11.6153444476">
		<tag k="name" v="Luker" />
		<tag k="place" v="farm" />
		<tag k="ssr:stedsnr" v="734981" />
	</node>
	<node id="-61220" lat="60.3953500025" lon="11.5763305595">
		<tag k="name" v="Dalen" />
		<tag k="place" v="farm" />
		<tag k="ssr:stedsnr" v="734922" />
	</node>
	<node id="-61219" lat="60.3768722229" lon="11.6714416672">
		<tag k="name" v="Vatne" />
		<tag k="place" v="farm" />
		<tag k="ssr:stedsnr" v="734917" />
	</node>
	<node id="-61217" lat="60.3737194437" lon="11.5349222297">
		<tag k="alt_name" v="Tjernet, nordre;Nord-Tjennet" />
		<tag k="name" v="Nordre Tjernet" />
		<tag k="place" v="farm" />
		<tag k="ssr:stedsnr" v="734889" />
	</node>
	<node id="-61216" lat="60.4312027749" lon="11.5089027783">
		<tag k="name" v="Solheim" />
		<tag k="place" v="farm" />
		<tag k="ssr:stedsnr" v="734867" />
	</node>
	<node id="-61215" lat="60.4363555531" lon="11.4993833301">
		<tag k="alt_name" v="Haug" />
		<tag k="name" v="Søstua" />
		<tag k="place" v="farm" />
		<tag k="ssr:stedsnr" v="734865" />
	</node>
	<node id="-61214" lat="60.4325305592" lon="11.4869416615">
		<tag k="name" v="Sørli" />
		<tag k="place" v="farm" />
		<tag k="ssr:stedsnr" v="734862" />
	</node>
	<node id="-61213" lat="60.4338972258" lon="11.760911105">
		<tag k="historic" v="shieling" />
		<tag k="name" v="Nersætra" />
		<tag k="place" v="locality" />
		<tag k="ssr:stedsnr" v="734853" />
	</node>
	<node id="-61211" lat="60.4228000017" lon="11.7427472267">
		<tag k="name" v="Åsvingen" />
		<tag k="place" v="isolated_dwelling" />
		<tag k="ssr:stedsnr" v="734841" />
	</node>
	<node id="-61210" lat="60.418394443" lon="11.5085916689">
		<tag k="name" v="Vilborg" />
		<tag k="place" v="farm" />
		<tag k="ssr:stedsnr" v="734838" />
	</node>
	<node id="-61209" lat="60.4043611085" lon="11.6497333363">
		<tag k="name" v="Fosshaug" />
		<tag k="place" v="farm" />
		<tag k="ssr:stedsnr" v="734826" />
	</node>
	<node id="-61206" lat="60.4641916639" lon="11.5019527749">
		<tag k="name" v="Linder" />
		<tag k="place" v="farm" />
		<tag k="ssr:stedsnr" v="734791" />
	</node>
	<node id="-61205" lat="60.4455138862" lon="11.6326388875">
		<tag k="fixme" v="consider place=hamlet" />
		<tag k="name" v="Rud" />
		<tag k="place" v="farm" />
		<tag k="ssr:stedsnr" v="734768" />
	</node>
	<node id="-61204" lat="60.440425004" lon="11.5103083395">
		<tag k="name" v="Bruvoll" />
		<tag k="place" v="hamlet" />
		<tag k="ssr:stedsnr" v="734757" />
	</node>
	<node id="-61203" lat="60.4420277762" lon="11.614783326">
		<tag k="name" v="Furuvoll" />
		<tag k="place" v="farm" />
		<tag k="ssr:stedsnr" v="734754" />
	</node>
	<node id="-61202" lat="60.4229916657" lon="11.4531694423">
		<tag k="name" v="Verket" />
		<tag k="place" v="farm" />
		<tag k="ssr:stedsnr" v="734550" />
	</node>
	<node id="-59527" lat="60.4418666665" lon="11.4659444529">
		<tag k="name" v="Teigland" />
		<tag k="place" v="farm" />
		<tag k="ssr:stedsnr" v="298935" />
	</node>
	<node id="-61196" lat="60.480041669" lon="11.6136722161">
		<tag k="name" v="Harestad" />
		<tag k="place" v="farm" />
		<tag k="ssr:stedsnr" v="734279" />
	</node>
	<node id="-61191" lat="60.5132249979" lon="11.3546194449">
		<tag k="alt_name" v="Øvre Kjernli" />
		<tag k="loc_name" v="Øvre Tjennli" />
		<tag k="name" v="Øvre Tjernli" />
		<tag k="place" v="hamlet" />
		<tag k="ssr:stedsnr" v="726955" />
	</node>
	<node id="-61190" lat="60.5036277785" lon="11.7118888973">
		<tag k="name" v="Høbekkoia" />
		<tag k="place" v="locality" />
		<tag k="ssr:stedsnr" v="726934" />
	</node>
	<node id="-61186" lat="60.4249527741" lon="11.6627833395">
		<tag k="name" v="Inngjerdinga" />
		<tag k="place" v="locality" />
		<tag k="ssr:stedsnr" v="726838" />
	</node>
	<node id="-61176" lat="60.447637087" lon="11.7440389989">
		<tag k="name" v="Persløkkekoia" />
		<tag k="place" v="locality" />
		<tag k="ssr:stedsnr" v="725837" />
	</node>
	<node id="-61171" lat="60.3966194421" lon="11.676663894">
		<tag k="alt_name" v="Nystua" />
		<tag k="name" v="Sørkedalen" />
		<tag k="place" v="farm" />
		<tag k="ssr:stedsnr" v="725710" />
	</node>
	<node id="-61170" lat="60.4239921417" lon="11.6333533662">
		<tag k="name" v="Østmoen" />
		<tag k="place" v="farm" />
		<tag k="ssr:stedsnr" v="725648" />
	</node>
	<node id="-61166" lat="60.3568109034" lon="11.6023376168">
		<tag k="name" v="Nord-Songnes" />
		<tag k="place" v="farm" />
		<tag k="ssr:stedsnr" v="725381" />
	</node>
	<node id="-61162" lat="60.4321250037" lon="11.6050972301">
		<tag k="leisure" v="park" />
		<tag k="name" v="Kolstadparken" />
		<tag k="ssr:stedsnr" v="725320" />
	</node>
	<node id="-61156" lat="60.3754543321" lon="11.5351957082">
		<tag k="name" v="Sør-Åsen" />
		<tag k="place" v="farm" />
		<tag k="ssr:stedsnr" v="725279" />
	</node>
	<node id="-61147" lat="60.4429694405" lon="11.6561444413">
		<tag k="name" v="Ellefsrud" />
		<tag k="place" v="isolated_dwelling" />
		<tag k="ssr:stedsnr" v="724893" />
	</node>
	<node id="-61141" lat="60.4494861149" lon="11.4883388824">
		<tag k="name" v="Skyrudsmoen" />
		<tag k="place" v="farm" />
		<tag k="ssr:stedsnr" v="723941" />
	</node>
	<node id="-61135" lat="60.3992055587" lon="11.5512499956">
		<tag k="name" v="Vandevja" />
		<tag k="place" v="farm" />
		<tag k="ssr:stedsnr" v="723344" />
	</node>
	<node id="-59661" lat="60.3788166657" lon="11.7573694432">
		<tag k="name" v="Ufstjennskoia" />
		<tag k="place" v="locality" />
		<tag k="ssr:stedsnr" v="350753" />
	</node>
	<node id="-61128" lat="60.3760972256" lon="11.422708333">
		<tag k="name" v="Abbortjennskoia" />
		<tag k="place" v="locality" />
		<tag k="ssr:stedsnr" v="714874" />
	</node>
	<node id="-61121" lat="60.4056138885" lon="11.601308341">
		<tag k="name" v="Søndre Skolbekken" />
		<tag k="place" v="farm" />
		<tag k="ssr:stedsnr" v="713750" />
	</node>
	<node id="-61118" lat="60.4148993291" lon="11.4877700946">
		<tag k="name" v="Øvre Føskerbråten" />
		<tag k="place" v="locality" />
		<tag k="ssr:stedsnr" v="709983" />
	</node>
	<node id="-61117" lat="60.4120500038" lon="11.5206333296">
		<tag k="name" v="Nordstua" />
		<tag k="place" v="farm" />
		<tag k="ssr:stedsnr" v="709981" />
	</node>
	<node id="-61107" lat="60.3926166641" lon="11.4682333295">
		<tag k="name" v="Nyberg" />
		<tag k="place" v="farm" />
		<tag k="ssr:stedsnr" v="709522" />
	</node>
	<node id="-61105" lat="60.3901222216" lon="11.6749638866">
		<tag k="name" v="Rønningen" />
		<tag k="place" v="farm" />
		<tag k="ssr:stedsnr" v="709272" />
	</node>
	<node id="-61104" lat="60.4067222222" lon="11.6843583367">
		<tag k="name" v="Nord-Sannerud" />
		<tag k="place" v="farm" />
		<tag k="ssr:stedsnr" v="709255" />
	</node>
	<node id="-61103" lat="60.4079472205" lon="11.6598055593">
		<tag k="name" v="Kvernstuhaugen" />
		<tag k="place" v="isolated_dwelling" />
		<tag k="ssr:stedsnr" v="709254" />
	</node>
	<node id="-61102" lat="60.3956027805" lon="11.6815083402">
		<tag k="name" v="Øverby" />
		<tag k="place" v="isolated_dwelling" />
		<tag k="ssr:stedsnr" v="709240" />
	</node>
	<node id="-61101" lat="60.3783083331" lon="11.6852611039">
		<tag k="name" v="Utgarden" />
		<tag k="place" v="farm" />
		<tag k="ssr:stedsnr" v="709140" />
	</node>
	<node id="-61098" lat="60.4797194451" lon="11.5793638977">
		<tag k="name" v="Øyset" />
		<tag k="place" v="locality" />
		<tag k="ssr:stedsnr" v="709089" />
	</node>
	<node id="-61095" lat="60.4531222214" lon="11.6116583392">
		<tag k="name" v="Fredrikstad" />
		<tag k="place" v="farm" />
		<tag k="ssr:stedsnr" v="708792" />
	</node>
	<node id="-61094" lat="60.3119694449" lon="11.623350003">
		<tag k="name" v="Veiti" />
		<tag k="place" v="farm" />
		<tag k="ssr:stedsnr" v="707841" />
	</node>
	<node id="-61092" lat="60.4559499974" lon="11.6388888927">
		<tag k="name" v="Bergsødegården" />
		<tag k="place" v="isolated_dwelling" />
		<tag k="ssr:stedsnr" v="707439" />
	</node>
	<node id="-61091" lat="60.4356527746" lon="11.6248972218">
		<tag k="name" v="Lunby" />
		<tag k="place" v="farm" />
		<tag k="ssr:stedsnr" v="707425" />
	</node>
	<node id="-61090" lat="60.4507388933" lon="11.6358166601">
		<tag k="name" v="Gran" />
		<tag k="place" v="farm" />
		<tag k="ssr:stedsnr" v="707391" />
	</node>
	<node id="-61088" lat="60.4997833325" lon="11.3644944488">
		<tag k="name" v="Gammeldalsrud" />
		<tag k="place" v="locality" />
		<tag k="ssr:stedsnr" v="707001" />
	</node>
	<node id="-61086" lat="60.3921944453" lon="11.5402611053">
		<tag k="name" v="Sand" />
		<tag k="place" v="village" />
		<tag k="ssr:stedsnr" v="693288" />
	</node>
	<node id="-61084" lat="60.3842166658" lon="11.5728111062">
		<tag k="name" v="Krattebøl" />
		<tag k="place" v="farm" />
		<tag k="ssr:stedsnr" v="674917" />
	</node>
	<node id="-61083" lat="60.3915083321" lon="11.5493750001">
		<tag k="alt_name" v="Sand" />
		<tag k="name" v="Øvre Sand" />
		<tag k="place" v="farm" />
		<tag k="ssr:stedsnr" v="674915" />
	</node>
	<node id="-61082" lat="60.506872226" lon="11.3668388842">
		<tag k="alt_name" v="Millom" />
		<tag k="name" v="Mellom" />
		<tag k="place" v="farm" />
		<tag k="ssr:stedsnr" v="674487" />
	</node>
	<node id="-61081" lat="60.4355916705" lon="11.4632777844">
		<tag k="alt_name" v="Lishaugen" />
		<tag k="name" v="Haugen" />
		<tag k="place" v="farm" />
		<tag k="ssr:stedsnr" v="674425" />
	</node>
	<node id="-61079" lat="60.4922333359" lon="11.507413884">
		<tag k="name" v="Eriksætra" />
		<tag k="place" v="isolated_dwelling" />
		<tag k="ssr:stedsnr" v="674219" />
	</node>
	<node id="-61078" lat="60.5054250007" lon="11.5885972173">
		<tag k="historic" v="shieling" />
		<tag k="name" v="Skirshaugsætra" />
		<tag k="place" v="locality" />
		<tag k="ssr:stedsnr" v="674220" />
	</node>
	<node id="-61077" lat="60.520541664" lon="11.6859416729">
		<tag k="historic" v="shieling" />
		<tag k="name" v="Stømnersætra" />
		<tag k="place" v="locality" />
		<tag k="ssr:stedsnr" v="674217" />
	</node>
	<node id="-61073" lat="60.3766388893" lon="11.6547555466">
		<tag k="name" v="Trøsi" />
		<tag k="place" v="farm" />
		<tag k="ssr:stedsnr" v="673926" />
	</node>
	<node id="-61072" lat="60.3787731425" lon="11.5975234616">
		<tag k="name" v="Svennebyvika" />
		<tag k="place" v="locality" />
		<tag k="ssr:stedsnr" v="673925" />
	</node>
	<node id="-61071" lat="60.3806795474" lon="11.5876332458">
		<tag k="name" v="Inngjerdinga" />
		<tag k="place" v="farm" />
		<tag k="ssr:stedsnr" v="673924" />
	</node>
	<node id="-61068" lat="60.3566981916" lon="11.6021202597">
		<tag k="fixme" v="consider place=hamlet" />
		<tag k="name" v="Songnes" />
		<tag k="place" v="farm" />
		<tag k="ssr:stedsnr" v="673885" />
	</node>
	<node id="-61067" lat="60.4229111068" lon="11.791766665">
		<tag k="name" v="Stuttbakkoia" />
		<tag k="place" v="isolated_dwelling" />
		<tag k="ssr:stedsnr" v="673863" />
	</node>
	<node id="-61066" lat="60.4223027738" lon="11.5139944466">
		<tag k="alt_name" v="Nord-Breiby" />
		<tag k="name" v="Breiby" />
		<tag k="place" v="farm" />
		<tag k="ssr:stedsnr" v="673859" />
	</node>
	<node id="-61065" lat="60.4207500025" lon="11.7202999917">
		<tag k="name" v="Bakkesætra" />
		<tag k="place" v="isolated_dwelling" />
		<tag k="ssr:stedsnr" v="673858" />
	</node>
	<node id="-61063" lat="60.4718083297" lon="11.6870777772">
		<tag k="name" v="Snøplogkoia" />
		<tag k="place" v="isolated_dwelling" />
		<tag k="ssr:stedsnr" v="673811" />
	</node>
	<node id="-61062" lat="60.4692444432" lon="11.650263881">
		<tag k="name" v="Øyset" />
		<tag k="place" v="farm" />
		<tag k="ssr:stedsnr" v="673804" />
	</node>
	<node id="-61061" lat="60.47172778" lon="11.6071166673">
		<tag k="name" v="Nordberget" />
		<tag k="place" v="farm" />
		<tag k="ssr:stedsnr" v="673798" />
	</node>
	<node id="-61060" lat="60.4639083303" lon="11.4885527713">
		<tag k="name" v="Johansrud" />
		<tag k="place" v="farm" />
		<tag k="ssr:stedsnr" v="673787" />
	</node>
	<node id="-61057" lat="60.4673916624" lon="11.6913694399">
		<tag k="name" v="Svullkoia" />
		<tag k="place" v="isolated_dwelling" />
		<tag k="ssr:stedsnr" v="673780" />
	</node>
	<node id="-61055" lat="60.4551250041" lon="11.630897222">
		<tag k="name" v="Mangset" />
		<tag k="place" v="farm" />
		<tag k="ssr:stedsnr" v="673769" />
	</node>
	<node id="-61053" lat="60.4418166691" lon="11.5599694431">
		<tag k="alt_name" v="Toner, l" />
		<tag k="loc_name" v="Vesle Toner" />
		<tag k="name" v="Lille Toner" />
		<tag k="old_name" v="Lille-Thoner" />
		<tag k="place" v="farm" />
		<tag k="ssr:stedsnr" v="673755" />
	</node>
	<node id="-61052" lat="60.4378595387" lon="11.5715590674">
		<tag k="alt_name" v="St. Toner" />
		<tag k="fixme" v="multiple name tags, choose one and add the other to alt_name; consider place=hamlet" />
		<tag k="name" v="Store Toner;Toner" />
		<tag k="place" v="farm" />
		<tag k="ssr:stedsnr" v="673751" />
	</node>
	<node id="-61051" lat="60.4415749964" lon="11.7942027831">
		<tag k="name" v="Brederud" />
		<tag k="place" v="isolated_dwelling" />
		<tag k="ssr:stedsnr" v="673748" />
	</node>
	<node id="-61050" lat="60.4423888892" lon="11.47078889">
		<tag k="name" v="Rovelstad" />
		<tag k="place" v="farm" />
		<tag k="ssr:stedsnr" v="673747" />
	</node>
	<node id="-61049" lat="60.4371166657" lon="11.7298416658">
		<tag k="alt_name" v="Skållbergsætra" />
		<tag k="historic" v="shieling" />
		<tag k="name" v="Skålbergsætra" />
		<tag k="place" v="locality" />
		<tag k="ssr:stedsnr" v="673744" />
	</node>
	<node id="-61048" lat="60.4250194446" lon="11.4566111199">
		<tag k="name" v="Sollund" />
		<tag k="place" v="isolated_dwelling" />
		<tag k="ssr:stedsnr" v="673513" />
	</node>
	<node id="-61047" lat="60.4726082799" lon="11.4576950779">
		<tag k="name" v="Gruva" />
		<tag k="place" v="locality" />
		<tag k="ssr:stedsnr" v="673446" />
	</node>
	<node id="-61046" lat="60.3977277783" lon="11.4044361089">
		<tag k="alt_name" v="Bjertnessætra" />
		<tag k="name" v="Bjertnes" />
		<tag k="place" v="isolated_dwelling" />
		<tag k="ssr:stedsnr" v="673008" />
	</node>
	<node id="-61043" lat="60.4463805511" lon="11.5894944522">
		<tag k="name" v="Koiebråten" />
		<tag k="place" v="locality" />
		<tag k="ssr:stedsnr" v="665650" />
	</node>
	<node id="-61041" lat="60.4101777808" lon="11.5190888934">
		<tag k="alt_name" v="Dagfinrud;Veststua" />
		<tag k="name" v="Veststua Dagfinrud" />
		<tag k="place" v="farm" />
		<tag k="ssr:stedsnr" v="665593" />
	</node>
	<node id="-61038" lat="60.5107694477" lon="11.3531888914">
		<tag k="alt_name" v="Nedre Kjernli" />
		<tag k="loc_name" v="Nedre Tjennli" />
		<tag k="name" v="Nedre Tjernli" />
		<tag k="place" v="farm" />
		<tag k="ssr:stedsnr" v="665072" />
	</node>
	<node id="-61030" lat="60.5589361122" lon="11.6573361063">
		<tag k="name" v="Damkoia" />
		<tag k="place" v="locality" />
		<tag k="ssr:stedsnr" v="664507" />
	</node>
	<node id="-61028" lat="60.431035041" lon="11.5896240703">
		<tag k="name" v="Søhagen" />
		<tag k="place" v="farm" />
		<tag k="ssr:stedsnr" v="664353" />
	</node>
	<node id="-61027" lat="60.3915805601" lon="11.5406999933">
		<tag k="building" v="commercial" />
		<tag k="name" v="Milepelen" />
		<tag k="ssr:stedsnr" v="664346" />
	</node>
	<node id="-61026" lat="60.4294333358" lon="11.6169527844">
		<tag k="name" v="Hauger" />
		<tag k="place" v="farm" />
		<tag k="ssr:stedsnr" v="664314" />
	</node>
	<node id="-61025" lat="60.431574997" lon="11.6175749966">
		<tag k="name" v="Movang" />
		<tag k="place" v="farm" />
		<tag k="ssr:stedsnr" v="664312" />
	</node>
	<node id="-61014" lat="60.4396027764" lon="11.4982055586">
		<tag k="name" v="Monsstua" />
		<tag k="place" v="isolated_dwelling" />
		<tag k="ssr:stedsnr" v="662966" />
	</node>
	<node id="-61006" lat="60.4048083367" lon="11.5292944366">
		<tag k="name" v="Karlstad" />
		<tag k="place" v="isolated_dwelling" />
		<tag k="ssr:stedsnr" v="662543" />
	</node>
	<node id="-61005" lat="60.4095222214" lon="11.4864027846">
		<tag k="name" v="Nordstua Rud" />
		<tag k="place" v="farm" />
		<tag k="ssr:stedsnr" v="662541" />
	</node>
	<node id="-60988" lat="60.3982250046" lon="11.5259527711">
		<tag k="name" v="Vestli" />
		<tag k="place" v="farm" />
		<tag k="ssr:stedsnr" v="652726" />
	</node>
	<node id="-60987" lat="60.462519447" lon="11.4895444411">
		<tag k="name" v="Linderud" />
		<tag k="place" v="isolated_dwelling" />
		<tag k="ssr:stedsnr" v="652665" />
	</node>
	<node id="-60979" lat="60.4819444477" lon="11.6138888868">
		<tag k="name" v="Holtet" />
		<tag k="place" v="isolated_dwelling" />
		<tag k="ssr:stedsnr" v="648454" />
	</node>
	<node id="-60956" lat="60.4679138887" lon="11.6415000056">
		<tag k="name" v="Kvernstuen" />
		<tag k="place" v="farm" />
		<tag k="ssr:stedsnr" v="646482" />
	</node>
	<node id="-60955" lat="60.4635027737" lon="11.637050006">
		<tag k="name" v="Vestby" />
		<tag k="place" v="farm" />
		<tag k="ssr:stedsnr" v="646478" />
	</node>
	<node id="-60954" lat="60.4588277734" lon="11.6169444526">
		<tag k="name" v="Søndre Vangen" />
		<tag k="place" v="isolated_dwelling" />
		<tag k="ssr:stedsnr" v="646467" />
	</node>
	<node id="-60952" lat="60.4434972214" lon="11.6209583296">
		<tag k="name" v="Kolemunkerud" />
		<tag k="place" v="farm" />
		<tag k="ssr:stedsnr" v="646420" />
	</node>
	<node id="-60951" lat="60.4371305559" lon="11.635963896">
		<tag k="name" v="Damholen" />
		<tag k="place" v="farm" />
		<tag k="ssr:stedsnr" v="646406" />
	</node>
	<node id="-60950" lat="60.4540000022" lon="11.5812666606">
		<tag k="name" v="Damlia" />
		<tag k="place" v="locality" />
		<tag k="ssr:stedsnr" v="646367" />
	</node>
	<node id="-60947" lat="60.4338277758" lon="11.5822055575">
		<tag k="name" v="Løvli" />
		<tag k="place" v="farm" />
		<tag k="ssr:stedsnr" v="646357" />
	</node>
	<node id="-60943" lat="60.3834666658" lon="11.6778333376">
		<tag k="name" v="Sorknes" />
		<tag k="place" v="farm" />
		<tag k="ssr:stedsnr" v="613931" />
	</node>
	<node id="-60942" lat="60.4042777756" lon="11.4913972304">
		<tag k="name" v="Galterud" />
		<tag k="place" v="farm" />
		<tag k="ssr:stedsnr" v="613834" />
	</node>
	<node id="-60941" lat="60.4052111154" lon="11.647969436">
		<tag k="name" v="Lutne" />
		<tag k="place" v="farm" />
		<tag k="ssr:stedsnr" v="613822" />
	</node>
	<node id="-60940" lat="60.3978911394" lon="11.4781874548">
		<tag k="name" v="Nerli" />
		<tag k="place" v="farm" />
		<tag k="ssr:stedsnr" v="613806" />
	</node>
	<node id="-60938" lat="60.4866338352" lon="11.6243911136">
		<tag k="fixme" v="multiple name tags, choose one and add the other to alt_name" />
		<tag k="name" v="Skogheim;Steinbekken" />
		<tag k="place" v="farm" />
		<tag k="ssr:stedsnr" v="613237" />
	</node>
	<node id="-60935" lat="60.4968499971" lon="11.7416222309">
		<tag k="name" v="Aurtjennsætra" />
		<tag k="place" v="isolated_dwelling" />
		<tag k="ssr:stedsnr" v="613231" />
	</node>
	<node id="-60933" lat="60.50914722" lon="11.6179111031">
		<tag k="historic" v="shieling" />
		<tag k="name" v="Holtslåtten" />
		<tag k="place" v="locality" />
		<tag k="ssr:stedsnr" v="613221" />
	</node>
	<node id="-60928" lat="60.3751527768" lon="11.6695972278">
		<tag k="name" v="Ramsvik" />
		<tag k="place" v="farm" />
		<tag k="ssr:stedsnr" v="612932" />
	</node>
	<node id="-60927" lat="60.3557254814" lon="11.5893464758">
		<tag k="alt_name" v="Linnerud" />
		<tag k="name" v="Linderud" />
		<tag k="place" v="farm" />
		<tag k="ssr:stedsnr" v="612917" />
	</node>
	<node id="-60926" lat="60.3731496592" lon="11.574600442">
		<tag k="fixme" v="consider place=hamlet" />
		<tag k="name" v="Svenneby" />
		<tag k="place" v="farm" />
		<tag k="ssr:stedsnr" v="612897" />
	</node>
	<node id="-60924" lat="60.3508295163" lon="11.5981203772">
		<tag k="name" v="Haugen" />
		<tag k="place" v="farm" />
		<tag k="ssr:stedsnr" v="612889" />
	</node>
	<node id="-60923" lat="60.4292972254" lon="11.615769441">
		<tag k="name" v="Viker" />
		<tag k="place" v="farm" />
		<tag k="ssr:stedsnr" v="612860" />
	</node>
	<node id="-60922" lat="60.428458334" lon="11.6042694522">
		<tag k="name" v="Fjellstad" />
		<tag k="place" v="farm" />
		<tag k="ssr:stedsnr" v="612858" />
	</node>
	<node id="-60921" lat="60.4328972217" lon="11.6170305476">
		<tag k="name" v="Myre" />
		<tag k="place" v="farm" />
		<tag k="ssr:stedsnr" v="612857" />
	</node>
	<node id="-60919" lat="60.42540278" lon="11.6297472241">
		<tag k="alt_name" v="Nordre Stormoen" />
		<tag k="name" v="Stormoen" />
		<tag k="place" v="farm" />
		<tag k="ssr:stedsnr" v="612850" />
	</node>
	<node id="-60918" lat="60.4200499987" lon="11.6667611167">
		<tag k="name" v="Ellingsrud" />
		<tag k="place" v="farm" />
		<tag k="ssr:stedsnr" v="612846" />
	</node>
	<node id="-60916" lat="60.4711484514" lon="11.7713713794">
		<tag k="historic" v="shieling" />
		<tag k="name" v="Solør-Østmosætra" />
		<tag k="place" v="locality" />
		<tag k="ssr:stedsnr" v="612806" />
	</node>
	<node id="-60915" lat="60.4750083323" lon="11.6333916676">
		<tag k="alt_name" v="Nordre Bjørnstad" />
		<tag k="name" v="Bjørnstad" />
		<tag k="place" v="farm" />
		<tag k="ssr:stedsnr" v="612798" />
	</node>
	<node id="-60913" lat="60.4667128358" lon="11.7478685377">
		<tag k="name" v="Østmokoia" />
		<tag k="place" v="locality" />
		<tag k="ssr:stedsnr" v="612787" />
	</node>
	<node id="-60912" lat="60.4514427499" lon="11.5568648095">
		<tag k="alt_name" v="Tostensbråten" />
		<tag k="name" v="Bråten" />
		<tag k="place" v="farm" />
		<tag k="ssr:stedsnr" v="612777" />
	</node>
	<node id="-60911" lat="60.4473861143" lon="11.6138305624">
		<tag k="name" v="Dalen" />
		<tag k="place" v="farm" />
		<tag k="ssr:stedsnr" v="612767" />
	</node>
	<node id="-60910" lat="60.4376388867" lon="11.4773444455">
		<tag k="alt_name" v="Nordli" />
		<tag k="name" v="Li" />
		<tag k="place" v="farm" />
		<tag k="ssr:stedsnr" v="612757" />
	</node>
	<node id="-60909" lat="60.4718000041" lon="11.3639250001">
		<tag k="fixme" v="multiple name tags, choose one and add the other to alt_name" />
		<tag k="name" v="Nysæterkoia;Smalmyrkoia" />
		<tag k="place" v="isolated_dwelling" />
		<tag k="ssr:stedsnr" v="612460" />
	</node>
	<node id="-60906" lat="60.4899583374" lon="11.3619166708">
		<tag k="name" v="Sjøli" />
		<tag k="place" v="isolated_dwelling" />
		<tag k="ssr:stedsnr" v="612394" />
	</node>
	<node id="-60905" lat="60.3943722255" lon="11.4672916677">
		<tag k="alt_name" v="Søndre Steinberg" />
		<tag k="name" v="Stenberg" />
		<tag k="place" v="farm" />
		<tag k="ssr:stedsnr" v="612002" />
	</node>
	<node id="-60896" lat="60.3777830794" lon="11.5022497408">
		<tag k="name" v="Evensløkka" />
		<tag k="place" v="farm" />
		<tag k="ssr:stedsnr" v="604607" />
	</node>
	<node id="-60892" lat="60.3867527773" lon="11.6092916698">
		<tag k="name" v="Sør-Bunes" />
		<tag k="place" v="farm" />
		<tag k="ssr:stedsnr" v="604291" />
	</node>
	<node id="-60891" lat="60.3931055537" lon="11.6028249958">
		<tag k="name" v="Tussland" />
		<tag k="place" v="locality" />
		<tag k="ssr:stedsnr" v="604287" />
	</node>
	<node id="-60890" lat="60.3977249981" lon="11.6071777813">
		<tag k="name" v="Søsætra" />
		<tag k="place" v="farm" />
		<tag k="ssr:stedsnr" v="604284" />
	</node>
	<node id="-60879" lat="60.3898972264" lon="11.5528472138">
		<tag k="amenity" v="nursing_home" />
		<tag k="name" v="Evjebakken" />
		<tag k="ssr:stedsnr" v="603353" />
	</node>
	<node id="-60877" lat="60.4226861145" lon="11.644399996">
		<tag k="amenity" v="school" />
		<tag k="name" v="Nord-Odal ungdomsskole" />
		<tag k="ssr:stedsnr" v="603345" />
	</node>
	<node id="-60875" lat="60.4403361143" lon="11.3997388872">
		<tag k="name" v="Nydamkoia" />
		<tag k="place" v="isolated_dwelling" />
		<tag k="ssr:stedsnr" v="603268" />
	</node>
	<node id="-60871" lat="60.4403595691" lon="11.6636533903">
		<tag k="name" v="Snurumyrbakken" />
		<tag k="place" v="farm" />
		<tag k="ssr:stedsnr" v="602877" />
	</node>
	<node id="-60870" lat="60.4412141798" lon="11.659112564">
		<tag k="name" v="Østmodalen" />
		<tag k="place" v="farm" />
		<tag k="ssr:stedsnr" v="602878" />
	</node>
	<node id="-60868" lat="60.4435000001" lon="11.4947749932">
		<tag k="name" v="Nordstua" />
		<tag k="place" v="farm" />
		<tag k="ssr:stedsnr" v="601952" />
	</node>
	<node id="-60867" lat="60.4354166633" lon="11.4892444483">
		<tag k="name" v="Nesmyra" />
		<tag k="place" v="farm" />
		<tag k="ssr:stedsnr" v="601951" />
	</node>
	<node id="-60857" lat="60.3787761664" lon="11.5975277852">
		<tag k="name" v="Søvika" />
		<tag k="place" v="locality" />
		<tag k="ssr:stedsnr" v="601264" />
	</node>
	<node id="-60855" lat="60.3756861084" lon="11.6103138944">
		<tag k="name" v="Hoksmo" />
		<tag k="place" v="farm" />
		<tag k="ssr:stedsnr" v="601260" />
	</node>
	<node id="-60854" lat="60.3798111093" lon="11.590755552">
		<tag k="name" v="Viken" />
		<tag k="place" v="farm" />
		<tag k="ssr:stedsnr" v="601256" />
	</node>
	<node id="-60842" lat="60.4911500007" lon="11.473058336">
		<tag k="historic" v="shieling" />
		<tag k="name" v="Bruntjennssætra" />
		<tag k="place" v="locality" />
		<tag k="ssr:stedsnr" v="593515" />
	</node>
	<node id="-60834" lat="60.3978333363" lon="11.7322694481">
		<tag k="name" v="Djuptjennkoia" />
		<tag k="place" v="locality" />
		<tag k="ssr:stedsnr" v="592157" />
	</node>
	<node id="-60827" lat="60.4322442497" lon="11.6675109921">
		<tag k="name" v="Torgersbekken" />
		<tag k="place" v="farm" />
		<tag k="ssr:stedsnr" v="587894" />
	</node>
	<node id="-60820" lat="60.3823499679" lon="11.6843735048">
		<tag k="name" v="Lykkja" />
		<tag k="place" v="farm" />
		<tag k="ssr:stedsnr" v="587517" />
	</node>
	<node id="-60818" lat="60.3736953511" lon="11.5404271826">
		<tag k="fixme" v="multiple name tags, choose one and add the other to alt_name" />
		<tag k="name" v="Ekornhol;Åsheim" />
		<tag k="place" v="farm" />
		<tag k="ssr:stedsnr" v="587320" />
	</node>
	<node id="-60815" lat="60.4047916671" lon="11.6604944402">
		<tag k="name" v="Nordby" />
		<tag k="place" v="farm" />
		<tag k="ssr:stedsnr" v="587248" />
	</node>
	<node id="-60814" lat="60.4102666657" lon="11.6555888836">
		<tag k="name" v="Søndre Dammen" />
		<tag k="place" v="isolated_dwelling" />
		<tag k="ssr:stedsnr" v="587247" />
	</node>
	<node id="-60813" lat="60.4050888867" lon="11.6565666614">
		<tag k="name" v="Trønes" />
		<tag k="place" v="farm" />
		<tag k="ssr:stedsnr" v="587243" />
	</node>
	<node id="-60812" lat="60.3992444465" lon="11.6643277734">
		<tag k="name" v="Høymyrhaugen" />
		<tag k="place" v="isolated_dwelling" />
		<tag k="ssr:stedsnr" v="587240" />
	</node>
	<node id="-60811" lat="60.3902361142" lon="11.685122227">
		<tag k="name" v="Sønsterud" />
		<tag k="place" v="farm" />
		<tag k="ssr:stedsnr" v="587230" />
	</node>
	<node id="-60808" lat="60.3825711601" lon="11.6893280329">
		<tag k="name" v="Austvasshagen" />
		<tag k="place" v="farm" />
		<tag k="ssr:stedsnr" v="587152" />
	</node>
	<node id="-60807" lat="60.3851055541" lon="11.6895777737">
		<tag k="name" v="Linnerud" />
		<tag k="place" v="farm" />
		<tag k="ssr:stedsnr" v="587147" />
	</node>
	<node id="-60802" lat="60.4724861151" lon="11.4575361115">
		<tag k="name" v="Sør-Gruva" />
		<tag k="place" v="farm" />
		<tag k="ssr:stedsnr" v="586877" />
	</node>
	<node id="-60800" lat="60.3207138881" lon="11.56569444">
		<tag k="name" v="Fischerkoia" />
		<tag k="place" v="isolated_dwelling" />
		<tag k="ssr:stedsnr" v="586830" />
	</node>
	<node id="-60796" lat="60.42908889" lon="11.4892222227">
		<tag k="fixme" v="consider place=hamlet" />
		<tag k="name" v="Føsker" />
		<tag k="place" v="farm" />
		<tag k="ssr:stedsnr" v="586256" />
	</node>
	<node id="-60795" lat="60.4170111068" lon="11.6497444453">
		<tag k="name" v="Gardvikåsen" />
		<tag k="place" v="quarter" />
		<tag k="ssr:stedsnr" v="585808" />
	</node>
	<node id="-60794" lat="60.4397805518" lon="11.5613194438">
		<tag k="alt_name" v="Lille Toner" />
		<tag k="loc_name" v="Vesle-Toner" />
		<tag k="name" v="Lille-Toner" />
		<tag k="old_name" v="Lillethoner" />
		<tag k="place" v="farm" />
		<tag k="ssr:stedsnr" v="585622" />
	</node>
	<node id="-60793" lat="60.4741663939" lon="11.6264739416">
		<tag k="name" v="Nordliløkken" />
		<tag k="place" v="farm" />
		<tag k="ssr:stedsnr" v="585437" />
	</node>
	<node id="-60792" lat="60.4726861113" lon="11.6275444502">
		<tag k="name" v="Nordre Sørli" />
		<tag k="place" v="farm" />
		<tag k="ssr:stedsnr" v="585433" />
	</node>
	<node id="-60790" lat="60.4793772674" lon="11.6079705738">
		<tag k="name" v="Hestebråten" />
		<tag k="place" v="farm" />
		<tag k="ssr:stedsnr" v="585386" />
	</node>
	<node id="-60789" lat="60.4414972203" lon="11.6403916702">
		<tag k="name" v="Rudshaug" />
		<tag k="place" v="farm" />
		<tag k="ssr:stedsnr" v="585384" />
	</node>
	<node id="-60785" lat="60.4353277778" lon="11.5803027691">
		<tag k="name" v="Smestad" />
		<tag k="place" v="farm" />
		<tag k="ssr:stedsnr" v="585329" />
	</node>
	<node id="-60783" lat="60.5112361152" lon="11.3682166679">
		<tag k="name" v="Østli" />
		<tag k="place" v="locality" />
		<tag k="ssr:stedsnr" v="585126" />
	</node>
	<node id="-60782" lat="60.5100182693" lon="11.3588104028">
		<tag k="name" v="Skjulbråten" />
		<tag k="place" v="farm" />
		<tag k="ssr:stedsnr" v="585123" />
	</node>
	<node id="-60780" lat="60.3133999982" lon="11.5382750007">
		<tag k="name" v="Raudåssætra" />
		<tag k="place" v="locality" />
		<tag k="ssr:stedsnr" v="552979" />
	</node>
	<node id="-60776" lat="60.3791694453" lon="11.7524055551">
		<tag k="alt_name" v="Nedre Tjennsli" />
		<tag k="name" v="Tjernsli" />
		<tag k="place" v="farm" />
		<tag k="ssr:stedsnr" v="552927" />
	</node>
	<node id="-60774" lat="60.3720394307" lon="11.5510909728">
		<tag k="name" v="Grønnerud" />
		<tag k="place" v="farm" />
		<tag k="ssr:stedsnr" v="552915" />
	</node>
	<node id="-60772" lat="60.433347223" lon="11.5686083296">
		<tag k="name" v="Vestby" />
		<tag k="place" v="farm" />
		<tag k="ssr:stedsnr" v="552896" />
	</node>
	<node id="-60770" lat="60.435594443" lon="11.611183327">
		<tag k="alt_name" v="Øvre Myrer" />
		<tag k="name" v="Myrer" />
		<tag k="place" v="farm" />
		<tag k="ssr:stedsnr" v="552889" />
	</node>
	<node id="-60768" lat="60.4148541568" lon="11.4888331586">
		<tag k="name" v="Føskerbråten" />
		<tag k="place" v="locality" />
		<tag k="ssr:stedsnr" v="552874" />
	</node>
	<node id="-60767" lat="60.4102973924" lon="11.4811140528">
		<tag k="name" v="Solberg" />
		<tag k="place" v="farm" />
		<tag k="ssr:stedsnr" v="552867" />
	</node>
	<node id="-60766" lat="60.4039542558" lon="11.4854243151">
		<tag k="fixme" v="consider place=hamlet" />
		<tag k="name" v="Løkker" />
		<tag k="place" v="farm" />
		<tag k="ssr:stedsnr" v="552865" />
	</node>
	<node id="-60765" lat="60.4071249967" lon="11.478633334">
		<tag k="name" v="Bjørnstadhaugen" />
		<tag k="place" v="farm" />
		<tag k="ssr:stedsnr" v="552863" />
	</node>
	<node id="-60764" lat="60.4057888847" lon="11.5259805544">
		<tag k="name" v="Rindal" />
		<tag k="place" v="farm" />
		<tag k="ssr:stedsnr" v="552862" />
	</node>
	<node id="-60763" lat="60.4101500019" lon="11.5193999931">
		<tag k="fixme" v="consider place=hamlet" />
		<tag k="name" v="Dagfinrud" />
		<tag k="place" v="farm" />
		<tag k="ssr:stedsnr" v="552861" />
	</node>
	<node id="-60762" lat="60.3953833355" lon="11.5184888893">
		<tag k="name" v="Sollaust" />
		<tag k="place" v="farm" />
		<tag k="ssr:stedsnr" v="552841" />
	</node>
	<node id="-60761" lat="60.4361416699" lon="11.527583335">
		<tag k="name" v="Tune" />
		<tag k="place" v="farm" />
		<tag k="ssr:stedsnr" v="552783" />
	</node>
	<node id="-60760" lat="60.4370611146" lon="11.6117333322">
		<tag k="name" v="Haugsrud" />
		<tag k="place" v="farm" />
		<tag k="ssr:stedsnr" v="552767" />
	</node>
	<node id="-60758" lat="60.4129277777" lon="11.42217778">
		<tag k="name" v="Føskersæterkoia" />
		<tag k="place" v="isolated_dwelling" />
		<tag k="ssr:stedsnr" v="552542" />
	</node>
	<node id="-60757" lat="60.4143166695" lon="11.4635916597">
		<tag k="name" v="Løset" />
		<tag k="place" v="farm" />
		<tag k="ssr:stedsnr" v="552537" />
	</node>
	<node id="-59619" lat="60.4649638904" lon="11.6320000065">
		<tag k="name" v="Håkenrud" />
		<tag k="place" v="farm" />
		<tag k="ssr:stedsnr" v="343469" />
	</node>
	<node id="-60752" lat="60.4976694441" lon="11.5049805599">
		<tag k="historic" v="shieling" />
		<tag k="name" v="Vatningsætra" />
		<tag k="place" v="locality" />
		<tag k="ssr:stedsnr" v="552248" />
	</node>
	<node id="-60751" lat="60.3877527777" lon="11.4664527821">
		<tag k="name" v="Høymyra" />
		<tag k="place" v="isolated_dwelling" />
		<tag k="ssr:stedsnr" v="552029" />
	</node>
	<node id="-60750" lat="60.3988972188" lon="11.4620250067">
		<tag k="name" v="Holtet" />
		<tag k="place" v="farm" />
		<tag k="ssr:stedsnr" v="552006" />
	</node>
	<node id="-60749" lat="60.3768138879" lon="11.5792527823">
		<tag k="name" v="Smedvika" />
		<tag k="place" v="farm" />
		<tag k="ssr:stedsnr" v="551915" />
	</node>
	<node id="-60746" lat="60.4612249978" lon="11.6398861024">
		<tag k="name" v="Grinda" />
		<tag k="place" v="farm" />
		<tag k="ssr:stedsnr" v="551814" />
	</node>
	<node id="-60745" lat="60.4486194447" lon="11.5050805515">
		<tag k="name" v="Malerud" />
		<tag k="place" v="farm" />
		<tag k="ssr:stedsnr" v="551808" />
	</node>
	<node id="-60744" lat="60.4476361103" lon="11.5601861141">
		<tag k="name" v="Brattli" />
		<tag k="place" v="isolated_dwelling" />
		<tag k="ssr:stedsnr" v="551805" />
	</node>
	<node id="-60743" lat="60.4515638914" lon="11.6135083335">
		<tag k="name" v="Inngjerdinga" />
		<tag k="place" v="farm" />
		<tag k="ssr:stedsnr" v="551788" />
	</node>
	<node id="-60742" lat="60.4817722223" lon="11.6147444459">
		<tag k="name" v="Fossteppa" />
		<tag k="place" v="farm" />
		<tag k="ssr:stedsnr" v="545586" />
	</node>
	<node id="-60735" lat="60.3926249981" lon="11.6086888843">
		<tag k="name" v="Nord-Bunes" />
		<tag k="place" v="isolated_dwelling" />
		<tag k="ssr:stedsnr" v="544279" />
	</node>
	<node id="-60731" lat="60.4960194414" lon="11.4069777766">
		<tag k="name" v="Bekken" />
		<tag k="place" v="isolated_dwelling" />
		<tag k="ssr:stedsnr" v="543737" />
	</node>
	<node id="-60727" lat="60.4207027735" lon="11.5947111046">
		<tag k="name" v="Rønning" />
		<tag k="place" v="farm" />
		<tag k="ssr:stedsnr" v="543352" />
	</node>
	<node id="-60726" lat="60.4309972225" lon="11.6299250082">
		<tag k="name" v="Granlund" />
		<tag k="place" v="farm" />
		<tag k="ssr:stedsnr" v="543349" />
	</node>
	<node id="-60715" lat="60.4412388931" lon="11.6557694506">
		<tag k="name" v="Stenberg" />
		<tag k="place" v="isolated_dwelling" />
		<tag k="ssr:stedsnr" v="542884" />
	</node>
	<node id="-60714" lat="60.440697222" lon="11.4655305531">
		<tag k="name" v="Oppset" />
		<tag k="place" v="farm" />
		<tag k="ssr:stedsnr" v="542608" />
	</node>
	<node id="-60711" lat="60.3881972235" lon="11.5578444408">
		<tag k="name" v="Kjonhaugen" />
		<tag k="old_name" v="He;Skogly" />
		<tag k="place" v="farm" />
		<tag k="ssr:stedsnr" v="542312" />
	</node>
	<node id="-60710" lat="60.3887611118" lon="11.5423166606">
		<tag k="name" v="Tangen" />
		<tag k="place" v="isolated_dwelling" />
		<tag k="ssr:stedsnr" v="542302" />
	</node>
	<node id="-60708" lat="60.3707472264" lon="11.7515972152">
		<tag k="name" v="Hal" />
		<tag k="place" v="locality" />
		<tag k="ssr:stedsnr" v="542228" />
	</node>
	<node id="-60707" lat="60.3808305562" lon="11.7544527715">
		<tag k="name" v="Tjennsli" />
		<tag k="place" v="isolated_dwelling" />
		<tag k="ssr:stedsnr" v="542229" />
	</node>
	<node id="-60706" lat="60.3562666707" lon="11.7307222232">
		<tag k="name" v="Sagstua" />
		<tag k="place" v="isolated_dwelling" />
		<tag k="ssr:stedsnr" v="542203" />
	</node>
	<node id="-60705" lat="60.4724305577" lon="11.6109166661">
		<tag k="name" v="Midtsundstad" />
		<tag k="place" v="farm" />
		<tag k="ssr:stedsnr" v="541524" />
	</node>
	<node id="-60696" lat="60.4003277755" lon="11.4917194445">
		<tag k="name" v="Ringvoll" />
		<tag k="place" v="isolated_dwelling" />
		<tag k="ssr:stedsnr" v="540547" />
	</node>
	<node id="-59609" lat="60.5022277769" lon="11.3911861031">
		<tag k="name" v="Stensby" />
		<tag k="place" v="farm" />
		<tag k="ssr:stedsnr" v="343126" />
	</node>
	<node id="-60692" lat="60.4064061986" lon="11.6006386413">
		<tag k="fixme" v="consider place=hamlet" />
		<tag k="name" v="Skolbekken" />
		<tag k="place" v="farm" />
		<tag k="ssr:stedsnr" v="534936" />
	</node>
	<node id="-59510" lat="60.3710888928" lon="11.457763898">
		<tag k="name" v="Mørktjennssætra" />
		<tag k="place" v="isolated_dwelling" />
		<tag k="ssr:stedsnr" v="290849" />
	</node>
	<node id="-60688" lat="60.4173749987" lon="11.7760250031">
		<tag k="name" v="Småtjennkoia" />
		<tag k="place" v="locality" />
		<tag k="ssr:stedsnr" v="532205" />
	</node>
	<node id="-60676" lat="60.5020027821" lon="11.5411166676">
		<tag k="name" v="Tømmermyrkoia" />
		<tag k="place" v="isolated_dwelling" />
		<tag k="ssr:stedsnr" v="527790" />
	</node>
	<node id="-60666" lat="60.3956416703" lon="11.6659472193">
		<tag k="name" v="Skogheim" />
		<tag k="place" v="farm" />
		<tag k="ssr:stedsnr" v="527253" />
	</node>
	<node id="-60664" lat="60.4082833315" lon="11.6504166732">
		<tag k="name" v="Østli" />
		<tag k="place" v="farm" />
		<tag k="ssr:stedsnr" v="527233" />
	</node>
	<node id="-60663" lat="60.3899638909" lon="11.6932222202">
		<tag k="name" v="Berger" />
		<tag k="place" v="locality" />
		<tag k="ssr:stedsnr" v="527226" />
	</node>
	<node id="-60660" lat="60.5080555558" lon="11.6134222174">
		<tag k="name" v="Dalsæterkoia" />
		<tag k="place" v="isolated_dwelling" />
		<tag k="ssr:stedsnr" v="527089" />
	</node>
	<node id="-60654" lat="60.4677138899" lon="11.4695555556">
		<tag k="name" v="Lønnbergsbråtekoia" />
		<tag k="place" v="locality" />
		<tag k="ssr:stedsnr" v="525919" />
	</node>
	<node id="-60646" lat="60.4782333364" lon="11.6304083416">
		<tag k="name" v="Nordlimoen" />
		<tag k="place" v="farm" />
		<tag k="ssr:stedsnr" v="525442" />
	</node>
	<node id="-60645" lat="60.4437916686" lon="11.634497229">
		<tag k="fixme" v="multiple name tags, choose one and add the other to alt_name" />
		<tag k="name" v="Rud;Veststua" />
		<tag k="place" v="farm" />
		<tag k="ssr:stedsnr" v="525435" />
	</node>
	<node id="-60644" lat="60.4488749978" lon="11.6405250069">
		<tag k="name" v="Skogly" />
		<tag k="place" v="isolated_dwelling" />
		<tag k="ssr:stedsnr" v="525431" />
	</node>
	<node id="-60641" lat="60.4537166668" lon="11.6349916677">
		<tag k="name" v="Bergstrøm" />
		<tag k="place" v="farm" />
		<tag k="ssr:stedsnr" v="525385" />
	</node>
	<node id="-60640" lat="60.5035027813" lon="11.3893555576">
		<tag k="name" v="Nyland" />
		<tag k="place" v="farm" />
		<tag k="ssr:stedsnr" v="525144" />
	</node>
	<node id="-60639" lat="60.5019442663" lon="11.3803622865">
		<tag k="name" v="Vester" />
		<tag k="place" v="farm" />
		<tag k="ssr:stedsnr" v="525143" />
	</node>
	<node id="-60636" lat="60.4239305579" lon="11.5924749957">
		<tag k="alt_name" v="Fjell søndre" />
		<tag k="name" v="Søndre Fjell" />
		<tag k="place" v="farm" />
		<tag k="ssr:stedsnr" v="512700" />
	</node>
	<node id="-60635" lat="60.4279638859" lon="11.6400694511">
		<tag k="name" v="Mo" />
		<tag k="place" v="village" />
		<tag k="ssr:stedsnr" v="510798" />
	</node>
	<node id="-60634" lat="60.3942888848" lon="11.7916444373">
		<tag k="name" v="Abborsætra" />
		<tag k="place" v="isolated_dwelling" />
		<tag k="ssr:stedsnr" v="492925" />
	</node>
	<node id="-60633" lat="60.395055554" lon="11.6726333284">
		<tag k="name" v="Sørkedalen" />
		<tag k="place" v="farm" />
		<tag k="ssr:stedsnr" v="492922" />
	</node>
	<node id="-60632" lat="60.5324027792" lon="11.6566222288">
		<tag k="historic" v="shieling" />
		<tag k="name" v="Paradissætra" />
		<tag k="place" v="locality" />
		<tag k="ssr:stedsnr" v="492203" />
	</node>
	<node id="-60626" lat="60.379697222" lon="11.7097416577">
		<tag k="alt_name" v="Berg, s" />
		<tag k="name" v="Søndre Berg" />
		<tag k="place" v="farm" />
		<tag k="ssr:stedsnr" v="491924" />
	</node>
	<node id="-60624" lat="60.3565112436" lon="11.5821303157">
		<tag k="name" v="Høybråten" />
		<tag k="place" v="farm" />
		<tag k="ssr:stedsnr" v="491909" />
	</node>
	<node id="-60621" lat="60.3481416629" lon="11.5344166677">
		<tag k="name" v="Bjelkerkoia" />
		<tag k="place" v="isolated_dwelling" />
		<tag k="ssr:stedsnr" v="491881" />
	</node>
	<node id="-60618" lat="60.4329666663" lon="11.6009500079">
		<tag k="alt_name" v="Fjell, nordre" />
		<tag k="name" v="Nordre Fjell" />
		<tag k="place" v="farm" />
		<tag k="ssr:stedsnr" v="491868" />
	</node>
	<node id="-60616" lat="60.430424997" lon="11.6661250085">
		<tag k="name" v="Bekkegrenda" />
		<tag k="place" v="hamlet" />
		<tag k="ssr:stedsnr" v="491857" />
	</node>
	<node id="-60613" lat="60.4788611072" lon="11.6484666642">
		<tag k="name" v="Vangen" />
		<tag k="place" v="farm" />
		<tag k="ssr:stedsnr" v="491799" />
	</node>
	<node id="-60612" lat="60.4795388898" lon="11.6386999952">
		<tag k="alt_name" v="Køien" />
		<tag k="name" v="Køya" />
		<tag k="place" v="farm" />
		<tag k="ssr:stedsnr" v="491796" />
	</node>
	<node id="-60611" lat="60.4637722252" lon="11.6410944383">
		<tag k="name" v="Bergstua" />
		<tag k="place" v="farm" />
		<tag k="ssr:stedsnr" v="491789" />
	</node>
	<node id="-60610" lat="60.4690499997" lon="11.6364499988">
		<tag k="name" v="Melby" />
		<tag k="place" v="farm" />
		<tag k="ssr:stedsnr" v="491788" />
	</node>
	<node id="-60609" lat="60.4715333368" lon="11.6188194449">
		<tag k="name" v="Borge" />
		<tag k="place" v="farm" />
		<tag k="ssr:stedsnr" v="491786" />
	</node>
	<node id="-60608" lat="60.4615888916" lon="11.7425083362">
		<tag k="alt_name" v="Garviksætra" />
		<tag k="historic" v="shieling" />
		<tag k="name" v="Gardviksætra" />
		<tag k="place" v="locality" />
		<tag k="ssr:stedsnr" v="491778" />
	</node>
	<node id="-60607" lat="60.4571000038" lon="11.7762083363">
		<tag k="name" v="Kulpkoia" />
		<tag k="place" v="isolated_dwelling" />
		<tag k="ssr:stedsnr" v="491775" />
	</node>
	<node id="-60606" lat="60.4602500019" lon="11.6177638827">
		<tag k="alt_name" v="Nordre Vangen" />
		<tag k="name" v="Vangen" />
		<tag k="place" v="farm" />
		<tag k="ssr:stedsnr" v="491771" />
	</node>
	<node id="-60605" lat="60.4496190252" lon="11.4982876009">
		<tag k="name" v="Åbråten" />
		<tag k="place" v="farm" />
		<tag k="ssr:stedsnr" v="491770" />
	</node>
	<node id="-60604" lat="60.4520749982" lon="11.5421750037">
		<tag k="alt_name" v="Sør-Streverud" />
		<tag k="name" v="Streverud" />
		<tag k="place" v="locality" />
		<tag k="ssr:stedsnr" v="491767" />
	</node>
	<node id="-60603" lat="60.4470628433" lon="11.4786927164">
		<tag k="fixme" v="consider place=hamlet" />
		<tag k="name" v="Trauten" />
		<tag k="place" v="farm" />
		<tag k="ssr:stedsnr" v="491764" />
	</node>
	<node id="-60602" lat="60.4495499996" lon="11.6241805537">
		<tag k="name" v="Norderud" />
		<tag k="place" v="farm" />
		<tag k="ssr:stedsnr" v="491757" />
	</node>
	<node id="-60601" lat="60.4523416694" lon="11.6229972147">
		<tag k="name" v="Ringkilen" />
		<tag k="place" v="farm" />
		<tag k="ssr:stedsnr" v="491755" />
	</node>
	<node id="-60600" lat="60.4402083303" lon="11.4700749997">
		<tag k="name" v="Røne" />
		<tag k="place" v="farm" />
		<tag k="ssr:stedsnr" v="491753" />
	</node>
	<node id="-60598" lat="60.4049527805" lon="11.4365749953">
		<tag k="name" v="Sæterbu" />
		<tag k="place" v="isolated_dwelling" />
		<tag k="ssr:stedsnr" v="491509" />
	</node>
	<node id="-60597" lat="60.4957499984" lon="11.4352277752">
		<tag k="fixme" v="multiple name tags, choose one and add the other to alt_name" />
		<tag k="name" v="Lognsjølia;Sør Lien" />
		<tag k="place" v="farm" />
		<tag k="ssr:stedsnr" v="491428" />
	</node>
	<node id="-60596" lat="60.3593527752" lon="11.4518361174">
		<tag k="name" v="Masthaugen" />
		<tag k="place" v="isolated_dwelling" />
		<tag k="ssr:stedsnr" v="491068" />
	</node>
	<node id="-60592" lat="60.4282972228" lon="11.6883361043">
		<tag k="name" v="Gunnarkjølen" />
		<tag k="place" v="isolated_dwelling" />
		<tag k="ssr:stedsnr" v="483870" />
	</node>
	<node id="-60591" lat="60.4212722255" lon="11.7291916632">
		<tag k="name" v="Varden" />
		<tag k="place" v="isolated_dwelling" />
		<tag k="ssr:stedsnr" v="483868" />
	</node>
	<node id="-60589" lat="60.4132999981" lon="11.6694888906">
		<tag k="name" v="Lyngås" />
		<tag k="place" v="isolated_dwelling" />
		<tag k="ssr:stedsnr" v="483856" />
	</node>
	<node id="-60588" lat="60.4130277771" lon="11.662330549">
		<tag k="name" v="Granås" />
		<tag k="place" v="farm" />
		<tag k="ssr:stedsnr" v="483854" />
	</node>
	<node id="-60574" lat="60.4395027784" lon="11.7548222195">
		<tag k="name" v="Nordlikoia" />
		<tag k="place" v="locality" />
		<tag k="ssr:stedsnr" v="482848" />
	</node>
	<node id="-60571" lat="60.4245111118" lon="11.6320861117">
		<tag k="name" v="Østmoen" />
		<tag k="place" v="farm" />
		<tag k="ssr:stedsnr" v="482679" />
	</node>
	<node id="-60564" lat="60.3880138891" lon="11.5381277736">
		<tag k="amenity" v="school" />
		<tag k="name" v="Sand sentralskole" />
		<tag k="ssr:stedsnr" v="482313" />
	</node>
	<node id="-59587" lat="60.434727777" lon="11.599091663">
		<tag k="alt_name" v="Fjell, øvre" />
		<tag k="name" v="Øvre Fjell" />
		<tag k="place" v="hamlet" />
		<tag k="ssr:stedsnr" v="309871" />
	</node>
	<node id="-60560" lat="60.437697225" lon="11.5151611124">
		<tag k="name" v="Nedre Holt" />
		<tag k="place" v="farm" />
		<tag k="ssr:stedsnr" v="480974" />
	</node>
	<node id="-60559" lat="60.4411666702" lon="11.4820416584">
		<tag k="name" v="Trautmoen" />
		<tag k="place" v="quarter" />
		<tag k="ssr:stedsnr" v="480969" />
	</node>
	<node id="-60557" lat="60.4466611082" lon="11.4612416681">
		<tag k="name" v="Sandvoll" />
		<tag k="place" v="farm" />
		<tag k="ssr:stedsnr" v="480957" />
	</node>
	<node id="-59586" lat="60.4220083353" lon="11.5077361094">
		<tag k="name" v="Eng" />
		<tag k="place" v="farm" />
		<tag k="ssr:stedsnr" v="309862" />
	</node>
	<node id="-60554" lat="60.4974972211" lon="11.4331194506">
		<tag k="name" v="Nord Lien" />
		<tag k="place" v="farm" />
		<tag k="ssr:stedsnr" v="480849" />
	</node>
	<node id="-60550" lat="60.4290722222" lon="11.5745999973">
		<tag k="name" v="Hovde" />
		<tag k="place" v="farm" />
		<tag k="ssr:stedsnr" v="480321" />
	</node>
	<node id="-60532" lat="60.4197833369" lon="11.5134916677">
		<tag k="name" v="Sør-Breiby" />
		<tag k="place" v="farm" />
		<tag k="ssr:stedsnr" v="466989" />
	</node>
	<node id="-60531" lat="60.4200694476" lon="11.5090333381">
		<tag k="name" v="Breibyhaugen" />
		<tag k="place" v="farm" />
		<tag k="ssr:stedsnr" v="466988" />
	</node>
	<node id="-60526" lat="60.4712222193" lon="11.3853111043">
		<tag k="name" v="Bergkoia" />
		<tag k="place" v="isolated_dwelling" />
		<tag k="ssr:stedsnr" v="466637" />
	</node>
	<node id="-60525" lat="60.4587722218" lon="11.5418999991">
		<tag k="name" v="Vestre Gravlia" />
		<tag k="place" v="locality" />
		<tag k="ssr:stedsnr" v="466497" />
	</node>
	<node id="-60522" lat="60.3702972207" lon="11.5481250006">
		<tag k="name" v="Plassen" />
		<tag k="place" v="farm" />
		<tag k="ssr:stedsnr" v="466326" />
	</node>
	<node id="-60521" lat="60.3932972189" lon="11.6851583263">
		<tag k="name" v="Heggerud" />
		<tag k="place" v="farm" />
		<tag k="ssr:stedsnr" v="466237" />
	</node>
	<node id="-60520" lat="60.5473638853" lon="11.6434444452">
		<tag k="name" v="Vestre Tolverkoia" />
		<tag k="place" v="locality" />
		<tag k="ssr:stedsnr" v="466164" />
	</node>
	<node id="-60519" lat="60.376208336" lon="11.6999027772">
		<tag k="name" v="Lensebakken" />
		<tag k="place" v="isolated_dwelling" />
		<tag k="ssr:stedsnr" v="466136" />
	</node>
	<node id="-60514" lat="60.3358749995" lon="11.6082555489">
		<tag k="name" v="Vestli" />
		<tag k="place" v="farm" />
		<tag k="ssr:stedsnr" v="465773" />
	</node>
	<node id="-59579" lat="60.4641344566" lon="11.4784631521">
		<tag k="name" v="Holtet" />
		<tag k="place" v="farm" />
		<tag k="ssr:stedsnr" v="309790" />
	</node>
	<node id="-60509" lat="60.4760111146" lon="11.6002138958">
		<tag k="name" v="Nybakk" />
		<tag k="place" v="isolated_dwelling" />
		<tag k="ssr:stedsnr" v="464433" />
	</node>
	<node id="-60508" lat="60.443341663" lon="11.617463896">
		<tag k="name" v="Sandmo" />
		<tag k="place" v="farm" />
		<tag k="ssr:stedsnr" v="464428" />
	</node>
	<node id="-60504" lat="60.45209167" lon="11.4952916734">
		<tag k="name" v="Korsholen" />
		<tag k="place" v="quarter" />
		<tag k="ssr:stedsnr" v="450765" />
	</node>
	<node id="-60502" lat="60.5248361125" lon="11.6796444419">
		<tag k="name" v="Puttsætra" />
		<tag k="place" v="isolated_dwelling" />
		<tag k="ssr:stedsnr" v="432238" />
	</node>
	<node id="-59577" lat="60.4455916659" lon="11.4883222249">
		<tag k="name" v="Snekkermoen" />
		<tag k="place" v="isolated_dwelling" />
		<tag k="ssr:stedsnr" v="309755" />
	</node>
	<node id="-60500" lat="60.5730500045" lon="11.6090833285">
		<tag k="name" v="Kjølstua" />
		<tag k="place" v="isolated_dwelling" />
		<tag k="ssr:stedsnr" v="432143" />
	</node>
	<node id="-60498" lat="60.3387888882" lon="11.6154500059">
		<tag k="name" v="Bjelker" />
		<tag k="place" v="farm" />
		<tag k="ssr:stedsnr" v="431993" />
	</node>
	<node id="-60497" lat="60.3324888923" lon="11.4965333255">
		<tag k="name" v="Kanken" />
		<tag k="place" v="isolated_dwelling" />
		<tag k="ssr:stedsnr" v="431992" />
	</node>
	<node id="-60496" lat="60.3782666623" lon="11.6928194432">
		<tag k="fixme" v="consider place=hamlet" />
		<tag k="name" v="Austvatn" />
		<tag k="place" v="village" />
		<tag k="ssr:stedsnr" v="431950" />
	</node>
	<node id="-60495" lat="60.3855999971" lon="11.5837083282">
		<tag k="name" v="Brenna" />
		<tag k="place" v="farm" />
		<tag k="ssr:stedsnr" v="431944" />
	</node>
	<node id="-60493" lat="60.3981277789" lon="11.6447416739">
		<tag k="name" v="Trøhaugen" />
		<tag k="place" v="farm" />
		<tag k="ssr:stedsnr" v="431935" />
	</node>
	<node id="-60492" lat="60.3748777779" lon="11.5457333312">
		<tag k="fixme" v="consider place=hamlet" />
		<tag k="loc_name" v="Ikornhol" />
		<tag k="name" v="Ekornhol" />
		<tag k="place" v="farm" />
		<tag k="ssr:stedsnr" v="431928" />
	</node>
	<node id="-60491" lat="60.3578972233" lon="11.735988888">
		<tag k="name" v="Brenna" />
		<tag k="place" v="farm" />
		<tag k="ssr:stedsnr" v="431917" />
	</node>
	<node id="-60490" lat="60.3619527805" lon="11.4831055614">
		<tag k="name" v="Viksætra" />
		<tag k="place" v="locality" />
		<tag k="ssr:stedsnr" v="431915" />
	</node>
	<node id="-60489" lat="60.3610527752" lon="11.5438499936">
		<tag k="name" v="Velta" />
		<tag k="place" v="farm" />
		<tag k="ssr:stedsnr" v="431912" />
	</node>
	<node id="-60488" lat="60.4324611099" lon="11.636230551">
		<tag k="name" v="Åmot" />
		<tag k="place" v="farm" />
		<tag k="ssr:stedsnr" v="431890" />
	</node>
	<node id="-60486" lat="60.4114250027" lon="11.559297219">
		<tag k="name" v="Midtskog" />
		<tag k="place" v="isolated_dwelling" />
		<tag k="ssr:stedsnr" v="431864" />
	</node>
	<node id="-60484" lat="60.4056749996" lon="11.7431166716">
		<tag k="name" v="Husmannssætra" />
		<tag k="place" v="isolated_dwelling" />
		<tag k="ssr:stedsnr" v="431841" />
	</node>
	<node id="-60483" lat="60.396249902" lon="11.5522346558">
		<tag k="name" v="Hesbråten" />
		<tag k="place" v="farm" />
		<tag k="ssr:stedsnr" v="431829" />
	</node>
	<node id="-60482" lat="60.472477778" lon="11.6374166633">
		<tag k="name" v="Nymoen" />
		<tag k="place" v="farm" />
		<tag k="ssr:stedsnr" v="431822" />
	</node>
	<node id="-60481" lat="60.4583194473" lon="11.6325944434">
		<tag k="name" v="Mangnes" />
		<tag k="place" v="farm" />
		<tag k="ssr:stedsnr" v="431806" />
	</node>
	<node id="-60479" lat="60.4498083336" lon="11.4839694434">
		<tag k="name" v="Østby" />
		<tag k="place" v="farm" />
		<tag k="ssr:stedsnr" v="431792" />
	</node>
	<node id="-60476" lat="60.4515000032" lon="11.4647222256">
		<tag k="name" v="Arnerud" />
		<tag k="place" v="isolated_dwelling" />
		<tag k="ssr:stedsnr" v="431492" />
	</node>
	<node id="-60473" lat="60.4985083363" lon="11.4165111186">
		<tag k="alt_name" v="Sjøenden" />
		<tag k="name" v="Sjøen" />
		<tag k="place" v="farm" />
		<tag k="ssr:stedsnr" v="431420" />
	</node>
	<node id="-60472" lat="60.480594441" lon="11.6458111178">
		<tag k="name" v="Bergsætra" />
		<tag k="place" v="farm" />
		<tag k="ssr:stedsnr" v="431264" />
	</node>
	<node id="-60465" lat="60.4359666686" lon="11.7789916724">
		<tag k="name" v="Elgsjøkoia" />
		<tag k="place" v="isolated_dwelling" />
		<tag k="ssr:stedsnr" v="422577" />
	</node>
	<node id="-60452" lat="60.4322111083" lon="11.580727779">
		<tag k="name" v="Nyborg" />
		<tag k="place" v="farm" />
		<tag k="ssr:stedsnr" v="421363" />
	</node>
	<node id="-60451" lat="60.4134611069" lon="11.5985111126">
		<tag k="name" v="Gran" />
		<tag k="place" v="isolated_dwelling" />
		<tag k="ssr:stedsnr" v="421321" />
	</node>
	<node id="-60450" lat="60.4167361082" lon="11.597419438">
		<tag k="name" v="Ringebu" />
		<tag k="place" v="farm" />
		<tag k="ssr:stedsnr" v="421319" />
	</node>
	<node id="-60449" lat="60.3629472243" lon="11.7219749976">
		<tag k="name" v="Løbråten" />
		<tag k="place" v="locality" />
		<tag k="ssr:stedsnr" v="421228" />
	</node>
	<node id="-60446" lat="60.3575277812" lon="11.7348194483">
		<tag k="name" v="Oppi" />
		<tag k="place" v="isolated_dwelling" />
		<tag k="ssr:stedsnr" v="421201" />
	</node>
	<node id="-60444" lat="60.4411805516" lon="11.4983888945">
		<tag k="name" v="Øststua" />
		<tag k="place" v="farm" />
		<tag k="ssr:stedsnr" v="419951" />
	</node>
	<node id="-60441" lat="60.4486166681" lon="11.4818527824">
		<tag k="name" v="Oliv" />
		<tag k="place" v="farm" />
		<tag k="ssr:stedsnr" v="419932" />
	</node>
	<node id="-60434" lat="60.3963605775" lon="11.5083611727">
		<tag k="name" v="Steinshagen" />
		<tag k="place" v="farm" />
		<tag k="ssr:stedsnr" v="419541" />
	</node>
	<node id="-60428" lat="60.3797321367" lon="11.5961344509">
		<tag k="name" v="Andersvika" />
		<tag k="place" v="farm" />
		<tag k="ssr:stedsnr" v="419292" />
	</node>
	<node id="-60426" lat="60.51028889" lon="11.511347229">
		<tag k="name" v="Mjøvasskoia" />
		<tag k="place" v="isolated_dwelling" />
		<tag k="ssr:stedsnr" v="479569" />
	</node>
	<node id="-60422" lat="60.3054000029" lon="11.6140166597">
		<tag k="name" v="Kroken" />
		<tag k="place" v="farm" />
		<tag k="ssr:stedsnr" v="249970" />
	</node>
	<node id="-60421" lat="60.3899361129" lon="11.6096138944">
		<tag k="alt_name" v="Mellom-Bunes" />
		<tag k="name" v="Bunes" />
		<tag k="place" v="farm" />
		<tag k="ssr:stedsnr" v="249934" />
	</node>
	<node id="-60420" lat="60.3789638913" lon="11.5417638877">
		<tag k="name" v="Neset" />
		<tag k="place" v="farm" />
		<tag k="ssr:stedsnr" v="249909" />
	</node>
	<node id="-60418" lat="60.3857527775" lon="11.8027361066">
		<tag k="name" v="Sagkoia" />
		<tag k="place" v="isolated_dwelling" />
		<tag k="ssr:stedsnr" v="249904" />
	</node>
	<node id="-60417" lat="60.339950004" lon="11.5919416583">
		<tag k="alt_name" v="Kroksrudvangen" />
		<tag k="name" v="Vangen" />
		<tag k="place" v="isolated_dwelling" />
		<tag k="ssr:stedsnr" v="249878" />
	</node>
	<node id="-60415" lat="60.4222666645" lon="11.5918499996">
		<tag k="name" v="Fjelland" />
		<tag k="place" v="farm" />
		<tag k="ssr:stedsnr" v="249855" />
	</node>
	<node id="-60414" lat="60.4125694472" lon="11.4728444375">
		<tag k="name" v="Klengerud" />
		<tag k="place" v="farm" />
		<tag k="ssr:stedsnr" v="249850" />
	</node>
	<node id="-60413" lat="60.4116527779" lon="11.559069439">
		<tag k="name" v="Granerud" />
		<tag k="place" v="farm" />
		<tag k="ssr:stedsnr" v="249847" />
	</node>
	<node id="-60412" lat="60.4029666697" lon="11.539700007">
		<tag k="name" v="Furuli" />
		<tag k="place" v="farm" />
		<tag k="ssr:stedsnr" v="249831" />
	</node>
	<node id="-60408" lat="60.4585027734" lon="11.3669333318">
		<tag k="alt_name" v="Otten, søndre" />
		<tag k="name" v="Sør-Otten" />
		<tag k="place" v="locality" />
		<tag k="ssr:stedsnr" v="249416" />
	</node>
	<node id="-60405" lat="60.497577778" lon="11.5574833314">
		<tag k="historic" v="shieling" />
		<tag k="name" v="Jomfrusætra" />
		<tag k="place" v="locality" />
		<tag k="ssr:stedsnr" v="249207" />
	</node>
	<node id="-60402" lat="60.5116750031" lon="11.5357555571">
		<tag k="name" v="Deldalskoia" />
		<tag k="place" v="isolated_dwelling" />
		<tag k="ssr:stedsnr" v="249196" />
	</node>
	<node id="-60399" lat="60.3789769754" lon="11.5689448277">
		<tag k="name" v="Svennebyhagen" />
		<tag k="place" v="farm" />
		<tag k="ssr:stedsnr" v="248928" />
	</node>
	<node id="-60398" lat="60.3708000013" lon="11.5429305601">
		<tag k="alt_name" v="Tjernet, søndre;Sør-Tjennet" />
		<tag k="name" v="Søndre Tjernet" />
		<tag k="place" v="farm" />
		<tag k="ssr:stedsnr" v="248902" />
	</node>
	<node id="-60397" lat="60.433280558" lon="11.6200722207">
		<tag k="name" v="Bøyum" />
		<tag k="place" v="farm" />
		<tag k="ssr:stedsnr" v="248876" />
	</node>
	<node id="-60396" lat="60.4344916637" lon="11.6109888824">
		<tag k="name" v="Skulstad" />
		<tag k="place" v="farm" />
		<tag k="ssr:stedsnr" v="248875" />
	</node>
	<node id="-60395" lat="60.4681277764" lon="11.788836105">
		<tag k="alt_name" v="Godhølkoia" />
		<tag k="name" v="Godholet" />
		<tag k="place" v="isolated_dwelling" />
		<tag k="ssr:stedsnr" v="248829" />
	</node>
	<node id="-60394" lat="60.466916664" lon="11.6496111127">
		<tag k="name" v="Søbakk" />
		<tag k="place" v="farm" />
		<tag k="ssr:stedsnr" v="248821" />
	</node>
	<node id="-60393" lat="60.4687305531" lon="11.6132222173">
		<tag k="name" v="Søberget" />
		<tag k="place" v="farm" />
		<tag k="ssr:stedsnr" v="248817" />
	</node>
	<node id="-60392" lat="60.4612416696" lon="11.5509861094">
		<tag k="alt_name" v="Østre Gravlia" />
		<tag k="name" v="Gravlia" />
		<tag k="place" v="locality" />
		<tag k="ssr:stedsnr" v="248807" />
	</node>
	<node id="-60391" lat="60.462736109" lon="11.483344445">
		<tag k="name" v="Sannerud" />
		<tag k="place" v="farm" />
		<tag k="ssr:stedsnr" v="248804" />
	</node>
	<node id="-60390" lat="60.4509583341" lon="11.784111113">
		<tag k="historic" v="shieling" />
		<tag k="name" v="Nordgardssætra" />
		<tag k="place" v="locality" />
		<tag k="ssr:stedsnr" v="248789" />
	</node>
	<node id="-60389" lat="60.4503944411" lon="11.469066661">
		<tag k="name" v="Vestby" />
		<tag k="place" v="farm" />
		<tag k="ssr:stedsnr" v="248785" />
	</node>
	<node id="-60388" lat="60.4533250023" lon="11.6330194472">
		<tag k="alt_name" v="Berg, nordre" />
		<tag k="name" v="Nordre Berg" />
		<tag k="place" v="farm" />
		<tag k="ssr:stedsnr" v="248783" />
	</node>
	<node id="-60384" lat="60.4128805573" lon="11.3863277828">
		<tag k="name" v="Nysætra" />
		<tag k="place" v="isolated_dwelling" />
		<tag k="ssr:stedsnr" v="248459" />
	</node>
	<node id="-59556" lat="60.5348083314" lon="11.6887388925">
		<tag k="name" v="Bjørnstadkoia" />
		<tag k="place" v="locality" />
		<tag k="ssr:stedsnr" v="300944" />
	</node>
	<node id="-60359" lat="60.5104833358" lon="11.3547499975">
		<tag k="name" v="Plassen" />
		<tag k="place" v="farm" />
		<tag k="ssr:stedsnr" v="240070" />
	</node>
	<node id="-60357" lat="60.4481027788" lon="11.7535861067">
		<tag k="name" v="Hundbysætra" />
		<tag k="place" v="isolated_dwelling" />
		<tag k="ssr:stedsnr" v="239875" />
	</node>
	<node id="-60355" lat="60.3966749966" lon="11.6729111038">
		<tag k="name" v="Søstua" />
		<tag k="place" v="locality" />
		<tag k="ssr:stedsnr" v="239770" />
	</node>
	<node id="-60354" lat="60.4404916666" lon="11.4759222266">
		<tag k="name" v="Enger" />
		<tag k="place" v="farm" />
		<tag k="ssr:stedsnr" v="239615" />
	</node>
	<node id="-60352" lat="60.4257472234" lon="11.5838083413">
		<tag k="name" v="Fjellhaug" />
		<tag k="place" v="isolated_dwelling" />
		<tag k="ssr:stedsnr" v="239354" />
	</node>
	<node id="-60347" lat="60.3774305558" lon="11.5529472268">
		<tag k="name" v="Nord-Ekornhol" />
		<tag k="place" v="farm" />
		<tag k="ssr:stedsnr" v="239285" />
	</node>
	<node id="-60343" lat="60.3752583331" lon="11.7069249921">
		<tag k="name" v="Sandvik" />
		<tag k="place" v="farm" />
		<tag k="ssr:stedsnr" v="239225" />
	</node>
	<node id="-60341" lat="60.4322583319" lon="11.6842944527">
		<tag k="name" v="Nordkjølen" />
		<tag k="place" v="isolated_dwelling" />
		<tag k="ssr:stedsnr" v="239904" />
	</node>
	<node id="-60339" lat="60.4360444435" lon="11.5261083339">
		<tag k="name" v="Skogbakken" />
		<tag k="place" v="farm" />
		<tag k="ssr:stedsnr" v="237896" />
	</node>
	<node id="-60336" lat="60.3409361128" lon="11.5083777727">
		<tag k="name" v="Portkoia" />
		<tag k="place" v="locality" />
		<tag k="ssr:stedsnr" v="237699" />
	</node>
	<node id="-60328" lat="60.3572949007" lon="11.5384809312">
		<tag k="name" v="Langbråten" />
		<tag k="place" v="farm" />
		<tag k="ssr:stedsnr" v="237286" />
	</node>
	<node id="-59574" lat="60.4994000018" lon="11.3626999997">
		<tag k="name" v="Enga" />
		<tag k="old_name" v="Søbråten" />
		<tag k="place" v="farm" />
		<tag k="ssr:stedsnr" v="309433" />
	</node>
	<node id="-60326" lat="60.4579999974" lon="11.5747750039">
		<tag k="name" v="Fjellskoia" />
		<tag k="place" v="isolated_dwelling" />
		<tag k="ssr:stedsnr" v="237494" />
	</node>
	<node id="-60318" lat="60.3966166624" lon="11.5155333303">
		<tag k="name" v="Sollaust" />
		<tag k="place" v="farm" />
		<tag k="ssr:stedsnr" v="228771" />
	</node>
	<node id="-60317" lat="60.3940249975" lon="11.5248472196">
		<tag k="name" v="Sollaust" />
		<tag k="place" v="farm" />
		<tag k="ssr:stedsnr" v="227308" />
	</node>
	<node id="-60312" lat="60.4213250018" lon="11.5288861046">
		<tag k="name" v="Bergejordet" />
		<tag k="place" v="locality" />
		<tag k="ssr:stedsnr" v="224989" />
	</node>
	<node id="-60311" lat="60.4162027767" lon="11.5115972266">
		<tag k="name" v="Nordstua" />
		<tag k="place" v="farm" />
		<tag k="ssr:stedsnr" v="224958" />
	</node>
	<node id="-60309" lat="60.4033083294" lon="11.6785416711">
		<tag k="name" v="Solbakken" />
		<tag k="place" v="farm" />
		<tag k="ssr:stedsnr" v="224223" />
	</node>
	<node id="-60305" lat="60.4922333335" lon="11.6147527715">
		<tag k="building" v="industrial" />
		<tag k="industrial" v="factory" />
		<tag k="name" v="Skyrudssaga" />
		<tag k="ssr:stedsnr" v="224443" />
	</node>
	<node id="-60303" lat="60.4134916688" lon="11.4717055629">
		<tag k="name" v="Søndre Slåmot" />
		<tag k="place" v="farm" />
		<tag k="ssr:stedsnr" v="223989" />
	</node>
	<node id="-60297" lat="60.3070111132" lon="11.6159055624">
		<tag k="name" v="Søndre Iler" />
		<tag k="place" v="farm" />
		<tag k="ssr:stedsnr" v="222835" />
	</node>
	<node id="-60296" lat="60.3216111122" lon="11.6167916641">
		<tag k="name" v="Søndre Helgedagsrud" />
		<tag k="place" v="farm" />
		<tag k="ssr:stedsnr" v="222830" />
	</node>
	<node id="-60293" lat="60.4628194448" lon="11.6238694377">
		<tag k="name" v="Sandholen" />
		<tag k="place" v="farm" />
		<tag k="ssr:stedsnr" v="222451" />
	</node>
	<node id="-60292" lat="60.4678805522" lon="11.6335000076">
		<tag k="name" v="Myrvang" />
		<tag k="place" v="isolated_dwelling" />
		<tag k="ssr:stedsnr" v="222450" />
	</node>
	<node id="-60291" lat="60.4785888882" lon="11.6230333333">
		<tag k="name" v="Nordlihaugen" />
		<tag k="place" v="isolated_dwelling" />
		<tag k="ssr:stedsnr" v="222403" />
	</node>
	<node id="-60290" lat="60.4422881855" lon="11.5658639393">
		<tag k="name" v="Orbråten" />
		<tag k="place" v="farm" />
		<tag k="ssr:stedsnr" v="222359" />
	</node>
	<node id="-60289" lat="60.4368186717" lon="11.5770847042">
		<tag k="name" v="Dyrhagen" />
		<tag k="place" v="farm" />
		<tag k="ssr:stedsnr" v="222355" />
	</node>
	<node id="-60288" lat="60.4478166704" lon="11.6313027731">
		<tag k="name" v="Rudsjordet" />
		<tag k="place" v="farm" />
		<tag k="ssr:stedsnr" v="222353" />
	</node>
	<node id="-60287" lat="60.4344166624" lon="11.5754666579">
		<tag k="name" v="Stendal" />
		<tag k="place" v="isolated_dwelling" />
		<tag k="ssr:stedsnr" v="222349" />
	</node>
	<node id="-60285" lat="60.4380694466" lon="11.5715472301">
		<tag k="name" v="Nord-Toner" />
		<tag k="place" v="farm" />
		<tag k="ssr:stedsnr" v="221606" />
	</node>
	<node id="-60283" lat="60.5006722187" lon="11.36101945">
		<tag k="name" v="Dalsrud" />
		<tag k="place" v="farm" />
		<tag k="ssr:stedsnr" v="189418" />
	</node>
	<node id="-60281" lat="60.4329805542" lon="11.6390249922">
		<tag k="name" v="Gardstad" />
		<tag k="place" v="farm" />
		<tag k="ssr:stedsnr" v="188871" />
	</node>
	<node id="-59540" lat="60.4250222258" lon="11.5998027784">
		<tag k="name" v="Strand" />
		<tag k="place" v="farm" />
		<tag k="ssr:stedsnr" v="300364" />
	</node>
	<node id="-60278" lat="60.4730776789" lon="11.6450547761">
		<tag k="alt_name" v="Bråten" />
		<tag k="name" v="Finnbråten" />
		<tag k="place" v="farm" />
		<tag k="ssr:stedsnr" v="188830" />
	</node>
	<node id="-60277" lat="60.4507555512" lon="11.7725861152">
		<tag k="name" v="Gransjøkoia" />
		<tag k="place" v="isolated_dwelling" />
		<tag k="ssr:stedsnr" v="188816" />
	</node>
	<node id="-60276" lat="60.4460416626" lon="11.623144441">
		<tag k="name" v="Morterud" />
		<tag k="place" v="farm" />
		<tag k="ssr:stedsnr" v="188802" />
	</node>
	<node id="-60273" lat="60.4104972191" lon="11.4583527713">
		<tag k="name" v="Steinerud" />
		<tag k="place" v="farm" />
		<tag k="ssr:stedsnr" v="188537" />
	</node>
	<node id="-60272" lat="60.4789499971" lon="11.7569722159">
		<tag k="name" v="Vakkerholtet" />
		<tag k="place" v="isolated_dwelling" />
		<tag k="ssr:stedsnr" v="188270" />
	</node>
	<node id="-60271" lat="60.4928361139" lon="11.6169888897">
		<tag k="name" v="Skyrud" />
		<tag k="place" v="farm" />
		<tag k="ssr:stedsnr" v="188259" />
	</node>
	<node id="-60269" lat="60.4268277798" lon="11.6641250084">
		<tag k="name" v="Bakkeli" />
		<tag k="place" v="farm" />
		<tag k="ssr:stedsnr" v="180837" />
	</node>
	<node id="-60262" lat="60.4080111136" lon="11.599072217">
		<tag k="name" v="Øvre Skolbekken" />
		<tag k="place" v="isolated_dwelling" />
		<tag k="ssr:stedsnr" v="180262" />
	</node>
	<node id="-60257" lat="60.4102305571" lon="11.5656416613">
		<tag k="name" v="Granerud" />
		<tag k="place" v="quarter" />
		<tag k="ssr:stedsnr" v="179845" />
	</node>
	<node id="-60253" lat="60.4255916626" lon="11.4011388901">
		<tag k="name" v="Vollmyrkoia" />
		<tag k="place" v="locality" />
		<tag k="ssr:stedsnr" v="179269" />
	</node>
	<node id="-59535" lat="60.4778138893" lon="11.4142333304">
		<tag k="name" v="Gjeddevasskoia" />
		<tag k="place" v="isolated_dwelling" />
		<tag k="ssr:stedsnr" v="300335" />
	</node>
	<node id="-60248" lat="60.4250450902" lon="11.6452149917">
		<tag k="name" v="Østmoløkken" />
		<tag k="place" v="farm" />
		<tag k="ssr:stedsnr" v="178332" />
	</node>
	<node id="-60246" lat="60.3890444464" lon="11.58008334">
		<tag k="name" v="Rønningen" />
		<tag k="place" v="locality" />
		<tag k="ssr:stedsnr" v="178297" />
	</node>
	<node id="-60245" lat="60.3874333351" lon="11.7195888882">
		<tag k="name" v="Moakoia" />
		<tag k="place" v="isolated_dwelling" />
		<tag k="ssr:stedsnr" v="178220" />
	</node>
	<node id="-60242" lat="60.4252583323" lon="11.58027223">
		<tag k="name" v="Skoglund" />
		<tag k="place" v="farm" />
		<tag k="ssr:stedsnr" v="177364" />
	</node>
	<node id="-60238" lat="60.4923555515" lon="11.4297138965">
		<tag k="fixme" v="consider natural=beach + surface=sand" />
		<tag k="leisure" v="swimming_area" />
		<tag k="name" v="Badeberget" />
		<tag k="place" v="locality" />
		<tag k="ssr:stedsnr" v="176828" />
	</node>
	<node id="-59533" lat="60.3713444465" lon="11.748552783">
		<tag k="name" v="Halskoia" />
		<tag k="place" v="locality" />
		<tag k="ssr:stedsnr" v="300249" />
	</node>
	<node id="-60231" lat="60.3965277809" lon="11.4796944473">
		<tag k="name" v="Brenna" />
		<tag k="place" v="isolated_dwelling" />
		<tag k="ssr:stedsnr" v="176504" />
	</node>
	<node id="-60230" lat="60.4073500032" lon="11.4861888929">
		<tag k="name" v="Søstua Rud" />
		<tag k="place" v="farm" />
		<tag k="ssr:stedsnr" v="176496" />
	</node>
	<node id="-60229" lat="60.4062207099" lon="11.5199024585">
		<tag k="name" v="Dagfinrudhagen" />
		<tag k="place" v="farm" />
		<tag k="ssr:stedsnr" v="176492" />
	</node>
	<node id="-60213" lat="60.473411113" lon="11.4968305585">
		<tag k="name" v="Knutsbråten" />
		<tag k="place" v="isolated_dwelling" />
		<tag k="ssr:stedsnr" v="163891" />
	</node>
	<node id="-60211" lat="60.5042333346" lon="11.577827781">
		<tag k="name" v="Skirsdamkoia" />
		<tag k="place" v="isolated_dwelling" />
		<tag k="ssr:stedsnr" v="163774" />
	</node>
	<node id="-60207" lat="60.3772388864" lon="11.6790305638">
		<tag k="name" v="Køien" />
		<tag k="place" v="farm" />
		<tag k="ssr:stedsnr" v="163139" />
	</node>
	<node id="-60206" lat="60.5112944466" lon="11.6189722249">
		<tag k="name" v="Krakerud" />
		<tag k="place" v="locality" />
		<tag k="ssr:stedsnr" v="163075" />
	</node>
	<node id="-60203" lat="60.3973916677" lon="11.4679055573">
		<tag k="name" v="Breibekken" />
		<tag k="place" v="isolated_dwelling" />
		<tag k="ssr:stedsnr" v="162534" />
	</node>
	<node id="-60201" lat="60.3999000007" lon="11.4379944481">
		<tag k="name" v="Ormbekken" />
		<tag k="place" v="isolated_dwelling" />
		<tag k="ssr:stedsnr" v="162531" />
	</node>
	<node id="-60200" lat="60.3256027777" lon="11.572011107">
		<tag k="name" v="Mariastuggua" />
		<tag k="place" v="isolated_dwelling" />
		<tag k="ssr:stedsnr" v="161823" />
	</node>
	<node id="-60195" lat="60.4712138904" lon="11.6447749953">
		<tag k="name" v="Kvernli" />
		<tag k="place" v="farm" />
		<tag k="ssr:stedsnr" v="161471" />
	</node>
	<node id="-60194" lat="60.46021111" lon="11.632758336">
		<tag k="name" v="Sagmoen" />
		<tag k="place" v="farm" />
		<tag k="ssr:stedsnr" v="161466" />
	</node>
	<node id="-60187" lat="60.4826000027" lon="11.6965000079">
		<tag k="name" v="Gomidalskoia" />
		<tag k="place" v="isolated_dwelling" />
		<tag k="ssr:stedsnr" v="128215" />
	</node>
	<node id="-60186" lat="60.484988887" lon="11.6134083375">
		<tag k="name" v="Jonsrud" />
		<tag k="place" v="farm" />
		<tag k="ssr:stedsnr" v="128209" />
	</node>
	<node id="-60185" lat="60.5671750004" lon="11.5949916632">
		<tag k="name" v="Dansarsletta" />
		<tag k="place" v="isolated_dwelling" />
		<tag k="ssr:stedsnr" v="128121" />
	</node>
	<node id="-60183" lat="60.5430638922" lon="11.6715416751">
		<tag k="historic" v="shieling" />
		<tag k="name" v="Hølsætra" />
		<tag k="place" v="locality" />
		<tag k="ssr:stedsnr" v="128098" />
	</node>
	<node id="-60181" lat="60.3363055555" lon="11.4866833349">
		<tag k="name" v="Furumyrkoia" />
		<tag k="place" v="isolated_dwelling" />
		<tag k="ssr:stedsnr" v="127988" />
	</node>
	<node id="-60178" lat="60.3777611142" lon="11.5268666744">
		<tag k="alt_name" v="Nord-Bekken" />
		<tag k="name" v="Bekken" />
		<tag k="place" v="farm" />
		<tag k="ssr:stedsnr" v="127918" />
	</node>
	<node id="-60177" lat="60.3767472264" lon="11.5298694453">
		<tag k="alt_name" v="Nord-Åsen" />
		<tag k="name" v="Åsen" />
		<tag k="place" v="farm" />
		<tag k="ssr:stedsnr" v="127917" />
	</node>
	<node id="-60175" lat="60.3581527793" lon="11.7233500062">
		<tag k="name" v="Kuggerud" />
		<tag k="place" v="farm" />
		<tag k="ssr:stedsnr" v="127911" />
	</node>
	<node id="-60172" lat="60.4342598971" lon="11.5208412983">
		<tag k="name" v="Lykkja" />
		<tag k="place" v="farm" />
		<tag k="ssr:stedsnr" v="127889" />
	</node>
	<node id="-60171" lat="60.4283250034" lon="11.5780472244">
		<tag k="name" v="Eier" />
		<tag k="place" v="farm" />
		<tag k="ssr:stedsnr" v="127884" />
	</node>
	<node id="-60169" lat="60.4240694462" lon="11.5910083377">
		<tag k="alt_name" v="Nedre Fjell;Fjeld nedre" />
		<tag k="name" v="Fjell" />
		<tag k="place" v="farm" />
		<tag k="ssr:stedsnr" v="127865" />
	</node>
	<node id="-60166" lat="60.4168749964" lon="11.6678305606">
		<tag k="name" v="Hauge" />
		<tag k="place" v="farm" />
		<tag k="ssr:stedsnr" v="127859" />
	</node>
	<node id="-60165" lat="60.4378916631" lon="11.5157111045">
		<tag k="alt_name" v="Øvre Holt" />
		<tag k="name" v="Holt" />
		<tag k="place" v="farm" />
		<tag k="ssr:stedsnr" v="127793" />
	</node>
	<node id="-60164" lat="60.4428833309" lon="11.5609361102">
		<tag k="name" v="Inngjerdinga" />
		<tag k="place" v="farm" />
		<tag k="ssr:stedsnr" v="127792" />
	</node>
	<node id="-60163" lat="60.4407916648" lon="11.6031583259">
		<tag k="name" v="Netterud" />
		<tag k="place" v="isolated_dwelling" />
		<tag k="ssr:stedsnr" v="127790" />
	</node>
	<node id="-60162" lat="60.4034111122" lon="11.5358444475">
		<tag k="name" v="Bekkholt" />
		<tag k="place" v="farm" />
		<tag k="ssr:stedsnr" v="127845" />
	</node>
	<node id="-60161" lat="60.4013666671" lon="11.4874833266">
		<tag k="name" v="Heer" />
		<tag k="place" v="farm" />
		<tag k="ssr:stedsnr" v="127840" />
	</node>
	<node id="-60160" lat="60.3962250029" lon="11.5500750078">
		<tag k="name" v="Hauggard" />
		<tag k="place" v="farm" />
		<tag k="ssr:stedsnr" v="127837" />
	</node>
	<node id="-60159" lat="60.4660666645" lon="11.7207388914">
		<tag k="name" v="Rudssætra" />
		<tag k="place" v="hamlet" />
		<tag k="ssr:stedsnr" v="127815" />
	</node>
	<node id="-60158" lat="60.4180472215" lon="11.4661444419">
		<tag k="name" v="Årud" />
		<tag k="place" v="farm" />
		<tag k="ssr:stedsnr" v="127517" />
	</node>
	<node id="-60155" lat="60.439208334" lon="11.3846416638">
		<tag k="name" v="Ottkoia" />
		<tag k="place" v="isolated_dwelling" />
		<tag k="ssr:stedsnr" v="127490" />
	</node>
	<node id="-60152" lat="60.4623277757" lon="11.3599361188">
		<tag k="alt_name" v="Otten, nordre;Otten" />
		<tag k="name" v="Nord-Otten" />
		<tag k="place" v="isolated_dwelling" />
		<tag k="ssr:stedsnr" v="127433" />
	</node>
	<node id="-60150" lat="60.3726555559" lon="11.4421638868">
		<tag k="name" v="Galterudsætra" />
		<tag k="place" v="isolated_dwelling" />
		<tag k="ssr:stedsnr" v="127053" />
	</node>
	<node id="-60146" lat="60.5034444443" lon="11.3497722189">
		<tag k="name" v="Linnerud" />
		<tag k="place" v="locality" />
		<tag k="ssr:stedsnr" v="119067" />
	</node>
	<node id="-60135" lat="60.4125638894" lon="11.5984861065">
		<tag k="name" v="Røyse" />
		<tag k="place" v="isolated_dwelling" />
		<tag k="ssr:stedsnr" v="118326" />
	</node>
	<node id="-60134" lat="60.4191472197" lon="11.5940888972">
		<tag k="name" v="Fagertun" />
		<tag k="place" v="farm" />
		<tag k="ssr:stedsnr" v="118323" />
	</node>
	<node id="-60132" lat="60.4631416698" lon="11.4140833419">
		<tag k="name" v="Høymyrbrukoia" />
		<tag k="place" v="isolated_dwelling" />
		<tag k="ssr:stedsnr" v="118301" />
	</node>
	<node id="-60126" lat="60.4503444401" lon="11.4119222176">
		<tag k="name" v="Kleivmyrkoia" />
		<tag k="place" v="locality" />
		<tag k="ssr:stedsnr" v="118248" />
	</node>
	<node id="-60123" lat="60.4349861095" lon="11.365341659">
		<tag k="name" v="Sandkornmyrkoia" />
		<tag k="place" v="isolated_dwelling" />
		<tag k="ssr:stedsnr" v="118228" />
	</node>
	<node id="-60122" lat="60.362547223" lon="11.7264750028">
		<tag k="name" v="Våserud" />
		<tag k="place" v="locality" />
		<tag k="ssr:stedsnr" v="118199" />
	</node>
	<node id="-60118" lat="60.4827722213" lon="11.4752111102">
		<tag k="name" v="Kalbakk" />
		<tag k="place" v="locality" />
		<tag k="ssr:stedsnr" v="117606" />
	</node>
	<node id="-59541" lat="60.4219888884" lon="11.6439250055">
		<tag k="amenity" v="school" />
		<tag k="name" v="Garvik skole" />
		<tag k="ssr:stedsnr" v="300373" />
	</node>
	<node id="-60107" lat="60.4052027746" lon="11.5204500044">
		<tag k="name" v="Templet" />
		<tag k="place" v="isolated_dwelling" />
		<tag k="ssr:stedsnr" v="116544" />
	</node>
	<node id="-60103" lat="60.4587305545" lon="11.5687249978">
		<tag k="name" v="Kudalskoia" />
		<tag k="place" v="isolated_dwelling" />
		<tag k="ssr:stedsnr" v="116478" />
	</node>
	<node id="-60099" lat="60.4481163675" lon="11.4946598943">
		<tag k="name" v="Bakken" />
		<tag k="place" v="farm" />
		<tag k="ssr:stedsnr" v="116961" />
	</node>
	<node id="-60098" lat="60.4468249991" lon="11.4778418935">
		<tag k="name" v="Nestua" />
		<tag k="place" v="farm" />
		<tag k="ssr:stedsnr" v="116960" />
	</node>
	<node id="-60097" lat="60.4443652674" lon="11.4614000584">
		<tag k="name" v="Myrhagen" />
		<tag k="place" v="farm" />
		<tag k="ssr:stedsnr" v="116950" />
	</node>
	<node id="-60089" lat="60.5137416642" lon="11.55926945">
		<tag k="name" v="Rotvelttjennkoia" />
		<tag k="place" v="locality" />
		<tag k="ssr:stedsnr" v="107850" />
	</node>
	<node id="-60087" lat="60.4589888875" lon="11.5045166634">
		<tag k="name" v="Linderinngjerdinga" />
		<tag k="place" v="isolated_dwelling" />
		<tag k="ssr:stedsnr" v="107687" />
	</node>
	<node id="-60085" lat="60.5058249974" lon="11.5561027739">
		<tag k="name" v="Skirskoia" />
		<tag k="place" v="isolated_dwelling" />
		<tag k="ssr:stedsnr" v="103785" />
	</node>
	<node id="-60079" lat="60.4152972222" lon="11.5163055633">
		<tag k="name" v="Øststua" />
		<tag k="place" v="farm" />
		<tag k="ssr:stedsnr" v="102963" />
	</node>
	<node id="-60072" lat="60.4081999968" lon="11.6544055594">
		<tag k="name" v="Kjonfossen" />
		<tag k="place" v="isolated_dwelling" />
		<tag k="ssr:stedsnr" v="102267" />
	</node>
	<node id="-60069" lat="60.3848194441" lon="11.6846555529">
		<tag k="amenity" v="school" />
		<tag k="name" v="Austvatn skole" />
		<tag k="ssr:stedsnr" v="102149" />
	</node>
	<node id="-60060" lat="60.4357444427" lon="11.5730305481">
		<tag k="name" v="Sør-Toner" />
		<tag k="place" v="farm" />
		<tag k="ssr:stedsnr" v="101371" />
	</node>
	<node id="-60059" lat="60.3540749204" lon="11.5901408752">
		<tag k="name" v="Øvre Songnesløkken" />
		<tag k="place" v="farm" />
		<tag k="ssr:stedsnr" v="100737" />
	</node>
	<node id="-60058" lat="60.3426027813" lon="11.6022972272">
		<tag k="name" v="Svarverud" />
		<tag k="place" v="farm" />
		<tag k="ssr:stedsnr" v="100714" />
	</node>
	<node id="-60057" lat="60.465116669" lon="11.6188083314">
		<tag k="name" v="Stensby" />
		<tag k="place" v="farm" />
		<tag k="ssr:stedsnr" v="100460" />
	</node>
	<node id="-60055" lat="60.4389500024" lon="11.6376861148">
		<tag k="name" v="Dambakken" />
		<tag k="place" v="isolated_dwelling" />
		<tag k="ssr:stedsnr" v="100397" />
	</node>
	<node id="-60052" lat="60.5021583324" lon="11.3934650709">
		<tag k="name" v="Nerhagen" />
		<tag k="place" v="farm" />
		<tag k="ssr:stedsnr" v="100126" />
	</node>
	<node id="-60050" lat="60.5192305543" lon="11.6372111182">
		<tag k="historic" v="shieling" />
		<tag k="name" v="Rotsætra" />
		<tag k="place" v="locality" />
		<tag k="ssr:stedsnr" v="68231" />
	</node>
	<node id="-60049" lat="60.3303583353" lon="11.6078333423">
		<tag k="name" v="Lukerstua" />
		<tag k="place" v="farm" />
		<tag k="ssr:stedsnr" v="68000" />
	</node>
	<node id="-60048" lat="60.3385111146" lon="11.6031833332">
		<tag k="name" v="Kroksrud" />
		<tag k="place" v="farm" />
		<tag k="ssr:stedsnr" v="67999" />
	</node>
	<node id="-60047" lat="60.3355000006" lon="11.6145833404">
		<tag k="alt_name" v="Mellom Haukerud" />
		<tag k="name" v="Mellom" />
		<tag k="place" v="farm" />
		<tag k="ssr:stedsnr" v="67996" />
	</node>
	<node id="-60043" lat="60.4280388884" lon="11.8273500065">
		<tag k="name" v="Nysætra" />
		<tag k="place" v="isolated_dwelling" />
		<tag k="ssr:stedsnr" v="67865" />
	</node>
	<node id="-60042" lat="60.4081499973" lon="11.4851222242">
		<tag k="fixme" v="consider place=hamlet" />
		<tag k="name" v="Rud" />
		<tag k="place" v="farm" />
		<tag k="ssr:stedsnr" v="67839" />
	</node>
	<node id="-60041" lat="60.403948259" lon="11.5265432893">
		<tag k="name" v="Sandsbråten" />
		<tag k="place" v="locality" />
		<tag k="ssr:stedsnr" v="67836" />
	</node>
	<node id="-60040" lat="60.4054499997" lon="11.547563882">
		<tag k="name" v="Dammen" />
		<tag k="place" v="farm" />
		<tag k="ssr:stedsnr" v="67833" />
	</node>
	<node id="-60039" lat="60.4011611155" lon="11.6865527765">
		<tag k="name" v="Dånåsen" />
		<tag k="place" v="farm" />
		<tag k="ssr:stedsnr" v="67819" />
	</node>
	<node id="-60037" lat="60.4572418134" lon="11.6180116127">
		<tag k="fixme" v="consider place=hamlet" />
		<tag k="name" v="Mobråten" />
		<tag k="place" v="farm" />
		<tag k="ssr:stedsnr" v="67681" />
	</node>
	<node id="-60036" lat="60.5032777818" lon="11.4446027864">
		<tag k="name" v="Kjølen" />
		<tag k="place" v="isolated_dwelling" />
		<tag k="ssr:stedsnr" v="67465" />
	</node>
	<node id="-60035" lat="60.5083888852" lon="11.4049277774">
		<tag k="name" v="Rønningen" />
		<tag k="place" v="farm" />
		<tag k="ssr:stedsnr" v="67463" />
	</node>
	<node id="-60032" lat="60.4966972194" lon="11.3549722311">
		<tag k="name" v="Holtet" />
		<tag k="place" v="isolated_dwelling" />
		<tag k="ssr:stedsnr" v="67399" />
	</node>
	<node id="-60030" lat="60.4943944457" lon="11.5351083329">
		<tag k="name" v="Nysætra" />
		<tag k="place" v="isolated_dwelling" />
		<tag k="ssr:stedsnr" v="67260" />
	</node>
	<node id="-60029" lat="60.4919111147" lon="11.5011194449">
		<tag k="name" v="Lomtuva" />
		<tag k="place" v="locality" />
		<tag k="ssr:stedsnr" v="67255" />
	</node>
	<node id="-60027" lat="60.3866166665" lon="11.4234861098">
		<tag k="alt_name" v="Bjørnstadsætra, vestre" />
		<tag k="fixme" v="multiple name tags, choose one and add the other to alt_name" />
		<tag k="name" v="Bjertkoia;Vestre Bjørnstadsætra" />
		<tag k="place" v="isolated_dwelling" />
		<tag k="ssr:stedsnr" v="67026" />
	</node>
	<node id="-60024" lat="60.4763361167" lon="11.6387861484">
		<tag k="name" v="Sagbråtån" />
		<tag k="place" v="farm" />
		<tag k="ssr:stedsnr" v="66799" />
	</node>
	<node id="-60023" lat="60.4458055581" lon="11.6886916594">
		<tag k="alt_name" v="Høymyrbakkoia" />
		<tag k="name" v="Høymyrbakken" />
		<tag k="place" v="isolated_dwelling" />
		<tag k="ssr:stedsnr" v="66772" />
	</node>
	<node id="-60019" lat="60.4446833364" lon="11.610086108">
		<tag k="name" v="Sjåoppiberget" />
		<tag k="place" v="farm" />
		<tag k="ssr:stedsnr" v="66760" />
	</node>
	<node id="-59624" lat="60.4218388929" lon="11.4921750078">
		<tag k="fixme" v="multiple name tags, choose one and add the other to alt_name" />
		<tag k="name" v="Føsker;Sør-Føsker" />
		<tag k="place" v="farm" />
		<tag k="ssr:stedsnr" v="343890" />
	</node>
	<node id="-60017" lat="60.4296000034" lon="11.6845055611">
		<tag k="name" v="Finnkjølen" />
		<tag k="place" v="farm" />
		<tag k="ssr:stedsnr" v="59821" />
	</node>
	<node id="-60012" lat="60.3804972247" lon="11.6902583361">
		<tag k="fixme" v="consider place=hamlet" />
		<tag k="name" v="Austvatn" />
		<tag k="place" v="farm" />
		<tag k="ssr:stedsnr" v="59354" />
	</node>
	<node id="-60010" lat="60.3886666667" lon="11.6444527766">
		<tag k="name" v="Brefetta" />
		<tag k="place" v="locality" />
		<tag k="ssr:stedsnr" v="59277" />
	</node>
	<node id="-60003" lat="60.4966138894" lon="11.4829194393">
		<tag k="name" v="Grønland" />
		<tag k="place" v="locality" />
		<tag k="ssr:stedsnr" v="57900" />
	</node>
	<node id="-59992" lat="60.3230055535" lon="11.6173555494">
		<tag k="name" v="Nordre Helgedagsrud" />
		<tag k="place" v="farm" />
		<tag k="ssr:stedsnr" v="57670" />
	</node>
	<node id="-59991" lat="60.4319361108" lon="11.5872416673">
		<tag k="name" v="Fjell" />
		<tag k="place" v="hamlet" />
		<tag k="ssr:stedsnr" v="57355" />
	</node>
	<node id="-59990" lat="60.3868999992" lon="11.5398416728">
		<tag k="name" v="Sagstuhamna" />
		<tag k="place" v="quarter" />
		<tag k="ssr:stedsnr" v="57283" />
	</node>
	<node id="-59989" lat="60.3862861151" lon="11.5343111181">
		<tag k="name" v="Øvre Vik" />
		<tag k="place" v="farm" />
		<tag k="ssr:stedsnr" v="57282" />
	</node>
	<node id="-59987" lat="60.3706684983" lon="11.7200842012">
		<tag k="name" v="Amundsbråten" />
		<tag k="place" v="isolated_dwelling" />
		<tag k="ssr:stedsnr" v="57190" />
	</node>
	<node id="-59986" lat="60.3777444481" lon="11.7153027795">
		<tag k="name" v="Steinerud" />
		<tag k="place" v="isolated_dwelling" />
		<tag k="ssr:stedsnr" v="57189" />
	</node>
	<node id="-59491" lat="60.4033444481" lon="11.6847305528">
		<tag k="name" v="Sør-Sannerud" />
		<tag k="place" v="farm" />
		<tag k="ssr:stedsnr" v="285235" />
	</node>
	<node id="-59982" lat="60.4943666625" lon="11.4396916645">
		<tag k="name" v="Øvre Inngjerdingen" />
		<tag k="place" v="farm" />
		<tag k="ssr:stedsnr" v="55825" />
	</node>
	<node id="-59976" lat="60.4729122532" lon="11.6007757784">
		<tag k="name" v="Storbråten" />
		<tag k="place" v="farm" />
		<tag k="ssr:stedsnr" v="55461" />
	</node>
	<node id="-59975" lat="60.5047861105" lon="11.4658388828">
		<tag k="name" v="Frydenlund" />
		<tag k="place" v="isolated_dwelling" />
		<tag k="ssr:stedsnr" v="55376" />
	</node>
	<node id="-59970" lat="60.3877500021" lon="11.4196916741">
		<tag k="loc_name" v="Gammelsætra" />
		<tag k="name" v="Gammelvangen" />
		<tag k="place" v="isolated_dwelling" />
		<tag k="ssr:stedsnr" v="51966" />
	</node>
	<node id="-59963" lat="60.4259249984" lon="11.7821694368">
		<tag k="name" v="Langmyrkoia" />
		<tag k="place" v="isolated_dwelling" />
		<tag k="ssr:stedsnr" v="47726" />
	</node>
	<node id="-59957" lat="60.472530557" lon="11.5753666585">
		<tag k="name" v="Svarttjennsætra" />
		<tag k="place" v="isolated_dwelling" />
		<tag k="ssr:stedsnr" v="46814" />
	</node>
	<node id="-59955" lat="60.4311749981" lon="11.5178888962">
		<tag k="name" v="Solheimsteppa" />
		<tag k="place" v="farm" />
		<tag k="ssr:stedsnr" v="42994" />
	</node>
	<node id="-59952" lat="60.4656333335" lon="11.5282583352">
		<tag k="name" v="Jammerhølkoia" />
		<tag k="place" v="isolated_dwelling" />
		<tag k="ssr:stedsnr" v="42872" />
	</node>
	<node id="-59951" lat="60.474500001" lon="11.5253138921">
		<tag k="name" v="Stikkoia" />
		<tag k="place" v="locality" />
		<tag k="ssr:stedsnr" v="42867" />
	</node>
	<node id="-59946" lat="60.377994442" lon="11.6839833404">
		<tag k="name" v="Sletta" />
		<tag k="place" v="farm" />
		<tag k="ssr:stedsnr" v="42159" />
	</node>
	<node id="-59943" lat="60.4207611089" lon="11.460380547">
		<tag k="name" v="Grande" />
		<tag k="place" v="farm" />
		<tag k="ssr:stedsnr" v="41985" />
	</node>
	<node id="-59941" lat="60.4832972264" lon="11.3548388967">
		<tag k="name" v="Nysætra" />
		<tag k="place" v="isolated_dwelling" />
		<tag k="ssr:stedsnr" v="41968" />
	</node>
	<node id="-59940" lat="60.5500083337" lon="11.6038611096">
		<tag k="name" v="Langdalskoia" />
		<tag k="place" v="locality" />
		<tag k="ssr:stedsnr" v="42150" />
	</node>
	<node id="-59932" lat="60.5547777819" lon="11.5657638964">
		<tag k="name" v="Grytsæterkoia" />
		<tag k="place" v="isolated_dwelling" />
		<tag k="ssr:stedsnr" v="40797" />
	</node>
	<node id="-59931" lat="60.3313944458" lon="11.616625002">
		<tag k="name" v="Søndre Haukerud" />
		<tag k="place" v="farm" />
		<tag k="ssr:stedsnr" v="40790" />
	</node>
	<node id="-59928" lat="60.4430388884" lon="11.5534555523">
		<tag k="name" v="Tørrhaugen" />
		<tag k="place" v="locality" />
		<tag k="ssr:stedsnr" v="40387" />
	</node>
	<node id="-59926" lat="60.3416861079" lon="11.6052249919">
		<tag k="name" v="Vestre Bjelker" />
		<tag k="place" v="farm" />
		<tag k="ssr:stedsnr" v="39701" />
	</node>
	<node id="-59924" lat="60.4744527742" lon="11.6421750019">
		<tag k="name" v="Lien" />
		<tag k="place" v="farm" />
		<tag k="ssr:stedsnr" v="39439" />
	</node>
	<node id="-59923" lat="60.4773333357" lon="11.6412749956">
		<tag k="name" v="Fosserud" />
		<tag k="place" v="farm" />
		<tag k="ssr:stedsnr" v="39366" />
	</node>
	<node id="-59922" lat="60.44521111" lon="11.6381888958">
		<tag k="name" v="Rud" />
		<tag k="place" v="farm" />
		<tag k="ssr:stedsnr" v="39353" />
	</node>
	<node id="-59921" lat="60.5402833376" lon="11.6304944397">
		<tag k="alt_name" v="Bjønnstampen" />
		<tag k="historic" v="shieling" />
		<tag k="name" v="Bjørnstampen" />
		<tag k="place" v="locality" />
		<tag k="ssr:stedsnr" v="7257" />
	</node>
	<node id="-59917" lat="60.5574055579" lon="11.5609138914">
		<tag k="historic" v="shieling" />
		<tag k="name" v="Grytsætra" />
		<tag k="place" v="locality" />
		<tag k="ssr:stedsnr" v="7145" />
	</node>
	<node id="-59916" lat="60.3319916695" lon="11.6171472277">
		<tag k="alt_name" v="Nordre Haukerud" />
		<tag k="name" v="Haukerud" />
		<tag k="place" v="farm" />
		<tag k="ssr:stedsnr" v="7000" />
	</node>
	<node id="-59915" lat="60.3269027802" lon="11.5270861119">
		<tag k="name" v="Ulvtjennskoia" />
		<tag k="place" v="locality" />
		<tag k="ssr:stedsnr" v="6982" />
	</node>
	<node id="-59914" lat="60.3829841689" lon="11.5869211448">
		<tag k="name" v="Holtet" />
		<tag k="place" v="farm" />
		<tag k="ssr:stedsnr" v="6953" />
	</node>
	<node id="-59913" lat="60.3880833293" lon="11.5774277707">
		<tag k="name" v="Gravdalen" />
		<tag k="place" v="farm" />
		<tag k="ssr:stedsnr" v="6949" />
	</node>
	<node id="-59912" lat="60.38231111" lon="11.5385999933">
		<tag k="name" v="Vik" />
		<tag k="place" v="farm" />
		<tag k="ssr:stedsnr" v="6947" />
	</node>
	<node id="-59911" lat="60.3757444447" lon="11.7825722239">
		<tag k="name" v="Kuggerudsætra" />
		<tag k="place" v="isolated_dwelling" />
		<tag k="ssr:stedsnr" v="6935" />
	</node>
	<node id="-59910" lat="60.3715888931" lon="11.7390055531">
		<tag k="name" v="Bergsvangen" />
		<tag k="place" v="isolated_dwelling" />
		<tag k="ssr:stedsnr" v="6931" />
	</node>
	<node id="-59908" lat="60.368546894" lon="11.7168718015">
		<tag k="fixme" v="multiple name tags, choose one and add the other to alt_name" />
		<tag k="name" v="Grinda;Grinna" />
		<tag k="place" v="farm" />
		<tag k="ssr:stedsnr" v="6908" />
	</node>
	<node id="-59907" lat="60.3585499961" lon="11.5763638842">
		<tag k="name" v="Hanoråsen" />
		<tag k="place" v="farm" />
		<tag k="ssr:stedsnr" v="6909" />
	</node>
	<node id="-59904" lat="60.4368222224" lon="11.526580556">
		<tag k="name" v="Oppi" />
		<tag k="place" v="farm" />
		<tag k="ssr:stedsnr" v="6877" />
	</node>
	<node id="-59901" lat="60.405341665" lon="11.6037944441">
		<tag k="name" v="Vang" />
		<tag k="place" v="farm" />
		<tag k="ssr:stedsnr" v="6836" />
	</node>
	<node id="-59900" lat="60.4043555587" lon="11.6378555551">
		<tag k="alt_name" v="Breidvika" />
		<tag k="name" v="Breivika" />
		<tag k="place" v="farm" />
		<tag k="ssr:stedsnr" v="6835" />
	</node>
	<node id="-59899" lat="60.3985416706" lon="11.4946722154">
		<tag k="name" v="Fritsvoll" />
		<tag k="place" v="farm" />
		<tag k="ssr:stedsnr" v="6828" />
	</node>
	<node id="-59898" lat="60.4667722261" lon="11.6374277719">
		<tag k="name" v="Mellom" />
		<tag k="place" v="farm" />
		<tag k="ssr:stedsnr" v="6816" />
	</node>
	<node id="-59896" lat="60.4515666661" lon="11.4918777812">
		<tag k="alt_name" v="Skirud" />
		<tag k="name" v="Skyrud" />
		<tag k="place" v="farm" />
		<tag k="ssr:stedsnr" v="6791" />
	</node>
	<node id="-59895" lat="60.4367361134" lon="11.599772226">
		<tag k="name" v="Tronsrud" />
		<tag k="place" v="farm" />
		<tag k="ssr:stedsnr" v="6775" />
	</node>
	<node id="-59894" lat="60.4383750015" lon="11.7284944515">
		<tag k="historic" v="shieling" />
		<tag k="name" v="Rønningsætra" />
		<tag k="place" v="locality" />
		<tag k="ssr:stedsnr" v="6766" />
	</node>
	<node id="-59891" lat="60.4495333344" lon="11.3859944384">
		<tag k="alt_name" v="Stuggukoia" />
		<tag k="name" v="Stugukoia" />
		<tag k="place" v="isolated_dwelling" />
		<tag k="ssr:stedsnr" v="6451" />
	</node>
	<node id="-59890" lat="60.456491668" lon="11.4365000065">
		<tag k="name" v="Fløytdamsaga" />
		<tag k="place" v="locality" />
		<tag k="ssr:stedsnr" v="6449" />
	</node>
	<node id="-59888" lat="60.4873722199" lon="11.4126722224">
		<tag k="alt_name" v="Hølbekkoia" />
		<tag k="name" v="Holbekkoia" />
		<tag k="place" v="isolated_dwelling" />
		<tag k="ssr:stedsnr" v="6408" />
	</node>
	<node id="-59880" lat="60.4137583316" lon="11.7524999967">
		<tag k="name" v="Nøkktjennskoia" />
		<tag k="place" v="isolated_dwelling" />
		<tag k="ssr:stedsnr" v="897210" />
	</node>
	<node id="-59876" lat="60.3969158963" lon="11.5166027082">
		<tag k="fixme" v="consider place=hamlet" />
		<tag k="name" v="Sollaust" />
		<tag k="place" v="farm" />
		<tag k="ssr:stedsnr" v="896784" />
	</node>
	<node id="-59873" lat="60.4755944485" lon="11.5888944389">
		<tag k="name" v="Nyhus" />
		<tag k="place" v="isolated_dwelling" />
		<tag k="ssr:stedsnr" v="895762" />
	</node>
	<node id="-59871" lat="60.4271388896" lon="11.5127444397">
		<tag k="name" v="Steinskjær" />
		<tag k="place" v="farm" />
		<tag k="ssr:stedsnr" v="891998" />
	</node>
	<node id="-59870" lat="60.4139333361" lon="11.4745805605">
		<tag k="name" v="Skogheim" />
		<tag k="place" v="farm" />
		<tag k="ssr:stedsnr" v="891987" />
	</node>
	<node id="-59869" lat="60.4942489849" lon="11.3560765465">
		<tag k="name" v="Rovelstadbråten" />
		<tag k="place" v="farm" />
		<tag k="ssr:stedsnr" v="891976" />
	</node>
	<node id="-59866" lat="60.4331666708" lon="11.6652361192">
		<tag k="name" v="Bertebekken" />
		<tag k="place" v="farm" />
		<tag k="ssr:stedsnr" v="891892" />
	</node>
	<node id="-59865" lat="60.3634249999" lon="11.4590861024">
		<tag k="name" v="Galterudskoia" />
		<tag k="place" v="isolated_dwelling" />
		<tag k="ssr:stedsnr" v="891700" />
	</node>
	<node id="-59862" lat="60.3557194489" lon="11.4760861139">
		<tag k="name" v="Granmyrlikoia" />
		<tag k="place" v="isolated_dwelling" />
		<tag k="ssr:stedsnr" v="891676" />
	</node>
	<node id="-59860" lat="60.4584944482" lon="11.5449638814">
		<tag k="name" v="Mellom-Gravlia" />
		<tag k="place" v="locality" />
		<tag k="ssr:stedsnr" v="891509" />
	</node>
	<node id="-59469" lat="60.4277138901" lon="11.6439972225">
		<tag k="name" v="Østmoåsen" />
		<tag k="place" v="quarter" />
		<tag k="ssr:stedsnr" v="282819" />
	</node>
	<node id="-59851" lat="60.4567027815" lon="11.4400055475">
		<tag k="name" v="Fløytdamkoia" />
		<tag k="place" v="locality" />
		<tag k="ssr:stedsnr" v="890946" />
	</node>
	<node id="-59468" lat="60.4668000018" lon="11.6445583371">
		<tag k="name" v="Skogstad" />
		<tag k="place" v="farm" />
		<tag k="ssr:stedsnr" v="282470" />
	</node>
	<node id="-59550" lat="60.4497833368" lon="11.7429555625">
		<tag k="name" v="Trengshaugkoia" />
		<tag k="place" v="isolated_dwelling" />
		<tag k="ssr:stedsnr" v="300864" />
	</node>
	<node id="-59842" lat="60.4485194413" lon="11.6277638884">
		<tag k="name" v="Ånerud" />
		<tag k="place" v="farm" />
		<tag k="ssr:stedsnr" v="890398" />
	</node>
	<node id="-59839" lat="60.3475861101" lon="11.6020888921">
		<tag k="name" v="Nordre Svarverud" />
		<tag k="place" v="farm" />
		<tag k="ssr:stedsnr" v="889768" />
	</node>
	<node id="-59836" lat="60.4739666675" lon="11.6348333288">
		<tag k="name" v="Søndre Bjørnstad" />
		<tag k="place" v="farm" />
		<tag k="ssr:stedsnr" v="889480" />
	</node>
	<node id="-59835" lat="60.4577277799" lon="11.6284361147">
		<tag k="name" v="Mangnes" />
		<tag k="place" v="farm" />
		<tag k="ssr:stedsnr" v="889475" />
	</node>
	<node id="-59834" lat="60.4435176642" lon="11.6272831112">
		<tag k="name" v="Åbråten" />
		<tag k="place" v="farm" />
		<tag k="ssr:stedsnr" v="889417" />
	</node>
	<node id="-59833" lat="60.4389305596" lon="11.6300194495">
		<tag k="name" v="Åstad" />
		<tag k="place" v="farm" />
		<tag k="ssr:stedsnr" v="889415" />
	</node>
	<node id="-59823" lat="60.3818888848" lon="11.677869452">
		<tag k="leisure" v="pitch" />
		<tag k="name" v="Myra stadion" />
		<tag k="ssr:stedsnr" v="410743" />
	</node>
	<node id="-59822" lat="60.3955499971" lon="11.5153972161">
		<tag k="name" v="Sollaust" />
		<tag k="place" v="farm" />
		<tag k="ssr:stedsnr" v="410736" />
	</node>
	<node id="-59820" lat="60.4215111128" lon="11.5142583289">
		<tag k="name" v="Mellom-Breiby" />
		<tag k="place" v="farm" />
		<tag k="ssr:stedsnr" v="406992" />
	</node>
	<node id="-59819" lat="60.4153055574" lon="11.5163027742">
		<tag k="name" v="Øststua" />
		<tag k="place" v="isolated_dwelling" />
		<tag k="ssr:stedsnr" v="406988" />
	</node>
	<node id="-59813" lat="60.4124055532" lon="11.5600916718">
		<tag k="name" v="Øvre Granerud" />
		<tag k="place" v="farm" />
		<tag k="ssr:stedsnr" v="406760" />
	</node>
	<node id="-59462" lat="60.4777638883" lon="11.6159361144">
		<tag k="name" v="Bakken" />
		<tag k="place" v="farm" />
		<tag k="ssr:stedsnr" v="282402" />
	</node>
	<node id="-59809" lat="60.4890638855" lon="11.6147194526">
		<tag k="name" v="Knauserud" />
		<tag k="place" v="isolated_dwelling" />
		<tag k="ssr:stedsnr" v="406479" />
	</node>
	<node id="-59808" lat="60.3748999991" lon="11.545486107">
		<tag k="name" v="Stuggua" />
		<tag k="place" v="isolated_dwelling" />
		<tag k="ssr:stedsnr" v="406314" />
	</node>
	<node id="-59807" lat="60.3938944431" lon="11.668252774">
		<tag k="name" v="Granli" />
		<tag k="place" v="farm" />
		<tag k="ssr:stedsnr" v="406262" />
	</node>
	<node id="-59806" lat="60.3977833321" lon="11.6818277736">
		<tag k="name" v="Fluginn" />
		<tag k="place" v="farm" />
		<tag k="ssr:stedsnr" v="406236" />
	</node>
	<node id="-59461" lat="60.4351777767" lon="11.6247027721">
		<tag k="name" v="Akre" />
		<tag k="place" v="farm" />
		<tag k="ssr:stedsnr" v="282393" />
	</node>
	<node id="-59802" lat="60.4774305596" lon="11.540533336">
		<tag k="name" v="Harabua" />
		<tag k="place" v="isolated_dwelling" />
		<tag k="ssr:stedsnr" v="406101" />
	</node>
	<node id="-59460" lat="60.4356355951" lon="11.5829523845">
		<tag k="name" v="Nordhagen" />
		<tag k="place" v="farm" />
		<tag k="ssr:stedsnr" v="282347" />
	</node>
	<node id="-59791" lat="60.4748290778" lon="11.4590127956">
		<tag k="name" v="Øver-Gruva" />
		<tag k="place" v="farm" />
		<tag k="ssr:stedsnr" v="404876" />
	</node>
	<node id="-59783" lat="60.3541590459" lon="11.5947893748">
		<tag k="name" v="Nedre Songnesløkken" />
		<tag k="place" v="farm" />
		<tag k="ssr:stedsnr" v="404754" />
	</node>
	<node id="-59781" lat="60.4604777779" lon="11.6369833308">
		<tag k="name" v="Kvernmoen" />
		<tag k="place" v="farm" />
		<tag k="ssr:stedsnr" v="404418" />
	</node>
	<node id="-59780" lat="60.4479777771" lon="11.6222416654">
		<tag k="name" v="Reine" />
		<tag k="place" v="isolated_dwelling" />
		<tag k="ssr:stedsnr" v="404408" />
	</node>
	<node id="-59779" lat="60.4362444458" lon="11.6129444437">
		<tag k="name" v="Nedre Myrer" />
		<tag k="place" v="farm" />
		<tag k="ssr:stedsnr" v="404397" />
	</node>
	<node id="-59777" lat="60.4238972196" lon="11.4466166619">
		<tag k="alt_name" v="Føsker" />
		<tag k="name" v="Føsker skog" />
		<tag k="place" v="farm" />
		<tag k="ssr:stedsnr" v="404241" />
	</node>
	<node id="-59776" lat="60.5066638917" lon="11.406711111">
		<tag k="name" v="Skarfallet" />
		<tag k="place" v="locality" />
		<tag k="ssr:stedsnr" v="404110" />
	</node>
	<node id="-59774" lat="60.5299250025" lon="11.558797222">
		<tag k="name" v="Torpet" />
		<tag k="place" v="farm" />
		<tag k="ssr:stedsnr" v="371237" />
	</node>
	<node id="-59769" lat="60.3872888905" lon="11.5609500016">
		<tag k="name" v="He" />
		<tag k="place" v="farm" />
		<tag k="ssr:stedsnr" v="370941" />
	</node>
	<node id="-59766" lat="60.3747222245" lon="11.4793555558">
		<tag k="name" v="Sandsætra" />
		<tag k="place" v="isolated_dwelling" />
		<tag k="ssr:stedsnr" v="370902" />
	</node>
	<node id="-59765" lat="60.365430929" lon="11.5639105025">
		<tag k="alt_name" v="Ilgoshaugen" />
		<tag k="name" v="Illgohaugen" />
		<tag k="place" v="farm" />
		<tag k="ssr:stedsnr" v="370899" />
	</node>
	<node id="-59764" lat="60.4315134118" lon="11.5089193871">
		<tag k="fixme" v="consider place=hamlet" />
		<tag k="name" v="Skjeppestad" />
		<tag k="place" v="farm" />
		<tag k="ssr:stedsnr" v="370884" />
	</node>
	<node id="-59761" lat="60.4175805573" lon="11.5148500012">
		<tag k="name" v="Austad" />
		<tag k="place" v="farm" />
		<tag k="ssr:stedsnr" v="370854" />
	</node>
	<node id="-59759" lat="60.3973143177" lon="11.4747492135">
		<tag k="name" v="Løkkerlia" />
		<tag k="place" v="farm" />
		<tag k="ssr:stedsnr" v="370838" />
	</node>
	<node id="-59758" lat="60.3953055584" lon="11.5047888907">
		<tag k="name" v="Nybakk" />
		<tag k="place" v="farm" />
		<tag k="ssr:stedsnr" v="370835" />
	</node>
	<node id="-59757" lat="60.4659722255" lon="11.6172305483">
		<tag k="name" v="Sønsterud" />
		<tag k="place" v="isolated_dwelling" />
		<tag k="ssr:stedsnr" v="370814" />
	</node>
	<node id="-59755" lat="60.4609485998" lon="11.4820123934">
		<tag k="name" v="Kolbråtån" />
		<tag k="place" v="farm" />
		<tag k="ssr:stedsnr" v="370805" />
	</node>
	<node id="-59753" lat="60.4572144109" lon="11.617950035">
		<tag k="alt_name" v="Nordre Mobråten" />
		<tag k="name" v="Mobråten" />
		<tag k="place" v="farm" />
		<tag k="ssr:stedsnr" v="370796" />
	</node>
	<node id="-59752" lat="60.4397027751" lon="11.6105805486">
		<tag k="name" v="Finnsrud" />
		<tag k="place" v="farm" />
		<tag k="ssr:stedsnr" v="370775" />
	</node>
	<node id="-59750" lat="60.4391611085" lon="11.6128888851">
		<tag k="name" v="Veium" />
		<tag k="place" v="isolated_dwelling" />
		<tag k="ssr:stedsnr" v="370765" />
	</node>
	<node id="-59749" lat="60.4404277744" lon="11.6195972163">
		<tag k="name" v="Bryn" />
		<tag k="place" v="farm" />
		<tag k="ssr:stedsnr" v="370764" />
	</node>
	<node id="-59748" lat="60.4361861133" lon="11.6377333324">
		<tag k="name" v="Elsmo" />
		<tag k="place" v="farm" />
		<tag k="ssr:stedsnr" v="370763" />
	</node>
	<node id="-59747" lat="60.442463886" lon="11.6554722161">
		<tag k="name" v="Tjernsligrenda" />
		<tag k="place" v="hamlet" />
		<tag k="ssr:stedsnr" v="370762" />
	</node>
	<node id="-59746" lat="60.5118249997" lon="11.358158334">
		<tag k="name" v="Tjernli" />
		<tag k="place" v="hamlet" />
		<tag k="ssr:stedsnr" v="370537" />
	</node>
	<node id="-59745" lat="60.4071750018" lon="11.3972166702">
		<tag k="alt_name" v="Tempelsæterkoia" />
		<tag k="name" v="Tempelsætra" />
		<tag k="place" v="isolated_dwelling" />
		<tag k="ssr:stedsnr" v="370530" />
	</node>
	<node id="-59744" lat="60.451622225" lon="11.461697226">
		<tag k="name" v="Slettmo" />
		<tag k="place" v="farm" />
		<tag k="ssr:stedsnr" v="370506" />
	</node>
	<node id="-59743" lat="60.4781583332" lon="11.4162861165">
		<tag k="name" v="Damkoie" />
		<tag k="place" v="locality" />
		<tag k="ssr:stedsnr" v="370473" />
	</node>
	<node id="-59742" lat="60.4976611149" lon="11.4048333268">
		<tag k="alt_name" v="Svarverud" />
		<tag k="name" v="Sververud" />
		<tag k="place" v="isolated_dwelling" />
		<tag k="ssr:stedsnr" v="370442" />
	</node>
	<node id="-59741" lat="60.4807916698" lon="11.6076916651">
		<tag k="name" v="Pålerud" />
		<tag k="place" v="isolated_dwelling" />
		<tag k="ssr:stedsnr" v="370295" />
	</node>
	<node id="-59740" lat="60.4843847767" lon="11.6459734642">
		<tag k="alt_name" v="Bråten, vestre" />
		<tag k="name" v="Bråten" />
		<tag k="place" v="farm" />
		<tag k="ssr:stedsnr" v="370284" />
	</node>
	<node id="-59739" lat="60.4819611149" lon="11.6164722284">
		<tag k="name" v="Fossen" />
		<tag k="place" v="farm" />
		<tag k="ssr:stedsnr" v="370280" />
	</node>
	<node id="-59738" lat="60.495066663" lon="11.719855557">
		<tag k="name" v="Korbølsætra" />
		<tag k="place" v="hamlet" />
		<tag k="ssr:stedsnr" v="370271" />
	</node>
	<node id="-59737" lat="60.3783805586" lon="11.4295916709">
		<tag k="name" v="Haugom" />
		<tag k="place" v="locality" />
		<tag k="ssr:stedsnr" v="370047" />
	</node>
	<node id="-59736" lat="60.3956972242" lon="11.4394333393">
		<tag k="alt_name" v="Bjørnstadsætra, østre;Bjørnstadsætra" />
		<tag k="historic" v="shieling" />
		<tag k="name" v="Østre Bjørnstadsætra" />
		<tag k="place" v="locality" />
		<tag k="ssr:stedsnr" v="370005" />
	</node>
	<node id="-59730" lat="60.4180000023" lon="11.6648138905">
		<tag k="name" v="Eli-Dammen" />
		<tag k="place" v="isolated_dwelling" />
		<tag k="ssr:stedsnr" v="362826" />
	</node>
	<node id="-59728" lat="60.4239149683" lon="11.665483083">
		<tag k="alt_name" v="Garvikbråten;Bråten" />
		<tag k="name" v="Gardvikbråten" />
		<tag k="old_name" v="Braaten" />
		<tag k="place" v="locality" />
		<tag k="ssr:stedsnr" v="362822" />
	</node>
	<node id="-59723" lat="60.3962444472" lon="11.6455916714">
		<tag k="name" v="Sør-Trøhaugen" />
		<tag k="place" v="isolated_dwelling" />
		<tag k="ssr:stedsnr" v="362292" />
	</node>
	<node id="-59713" lat="60.4615055525" lon="11.3773527745">
		<tag k="name" v="Stokholm" />
		<tag k="place" v="isolated_dwelling" />
		<tag k="ssr:stedsnr" v="361333" />
	</node>
	<node id="-59523" lat="60.3967583312" lon="11.5305444378">
		<tag k="name" v="Syverstua" />
		<tag k="place" v="farm" />
		<tag k="ssr:stedsnr" v="298532" />
	</node>
	<node id="-59694" lat="60.4444472235" lon="11.6527555481">
		<tag k="name" v="Tjernsli" />
		<tag k="place" v="farm" />
		<tag k="ssr:stedsnr" v="360871" />
	</node>
	<node id="-59691" lat="60.5482138909" lon="11.6731555488">
		<tag k="name" v="Østre Tolverkoia" />
		<tag k="place" v="locality" />
		<tag k="ssr:stedsnr" v="360505" />
	</node>
	<node id="-59690" lat="60.3922726912" lon="11.5382280792">
		<tag k="name" v="Nedre Sand" />
		<tag k="place" v="farm" />
		<tag k="ssr:stedsnr" v="360345" />
	</node>
	<node id="-59689" lat="60.4254472223" lon="11.603408342">
		<tag k="name" v="Stranda" />
		<tag k="place" v="farm" />
		<tag k="ssr:stedsnr" v="360298" />
	</node>
	<node id="-59687" lat="60.3751249996" lon="11.5310444462">
		<tag k="name" v="Sør-Bekken" />
		<tag k="place" v="farm" />
		<tag k="ssr:stedsnr" v="360258" />
	</node>
	<node id="-59686" lat="60.37689167" lon="11.5473500012">
		<tag k="name" v="Haugen" />
		<tag k="place" v="farm" />
		<tag k="ssr:stedsnr" v="360256" />
	</node>
	<node id="-59682" lat="60.4483055595" lon="11.4558999944">
		<tag k="name" v="Myrholmen" />
		<tag k="place" v="farm" />
		<tag k="ssr:stedsnr" v="358949" />
	</node>
	<node id="-59680" lat="60.440838892" lon="11.4731861109">
		<tag k="name" v="Birkeland" />
		<tag k="place" v="farm" />
		<tag k="ssr:stedsnr" v="358936" />
	</node>
	<node id="-59679" lat="60.4884833364" lon="11.4451111101">
		<tag k="name" v="Rismyrkoia" />
		<tag k="place" v="isolated_dwelling" />
		<tag k="ssr:stedsnr" v="358841" />
	</node>
	<node id="-59671" lat="60.4113499984" lon="11.5192694392">
		<tag k="name" v="Arstua" />
		<tag k="place" v="farm" />
		<tag k="ssr:stedsnr" v="358549" />
	</node>
	<node id="-59670" lat="60.4745416629" lon="11.6024666728">
		<tag k="name" v="Fallet" />
		<tag k="place" v="farm" />
		<tag k="ssr:stedsnr" v="358488" />
	</node>
	<node id="-59669" lat="60.4732555573" lon="11.5467194462">
		<tag k="name" v="Nilsebu" />
		<tag k="place" v="locality" />
		<tag k="ssr:stedsnr" v="358480" />
	</node>
	<node id="-59667" lat="60.4271444477" lon="11.5801777696">
		<tag k="name" v="Søndre Eier" />
		<tag k="place" v="farm" />
		<tag k="ssr:stedsnr" v="358344" />
	</node>
	<node id="-59666" lat="60.3817611141" lon="11.5931277786">
		<tag k="name" v="Åserud" />
		<tag k="place" v="farm" />
		<tag k="ssr:stedsnr" v="358278" />
	</node>
	<node id="-61713" lat="60.4729730854" lon="11.4579297977">
		<tag k="name" v="Midt-Gruva" />
		<tag k="place" v="farm" />
		<tag k="ssr:stedsnr" v="978619" />
	</node>
	<node id="-61712" lat="60.4475180776" lon="11.4740565165">
		<tag k="name" v="Nordstua" />
		<tag k="place" v="locality" />
		<tag k="ssr:stedsnr" v="978617" />
	</node>
	<node id="-61711" lat="60.3524312188" lon="11.605817695">
		<tag k="name" v="Sør-Songnes" />
		<tag k="place" v="farm" />
		<tag k="ssr:stedsnr" v="978610" />
	</node>
	<node id="-61710" lat="60.4016009539" lon="11.67261485">
		<tag k="alt_name" v="Holtbråten" />
		<tag k="name" v="Holt" />
		<tag k="place" v="farm" />
		<tag k="ssr:stedsnr" v="978556" />
	</node>
	<node id="-61709" lat="60.4537336829" lon="11.6208900463">
		<tag k="name" v="Søndre Mobråten" />
		<tag k="place" v="farm" />
		<tag k="ssr:stedsnr" v="978550" />
	</node>
	<node id="-61708" lat="60.4151260252" lon="11.4892667758">
		<tag k="name" v="Nedre Føskerbråten" />
		<tag k="place" v="locality" />
		<tag k="ssr:stedsnr" v="978534" />
	</node>
	<node id="-59464" lat="60.4640444404" lon="11.6234861021">
		<tag k="name" v="Nordliengen" />
		<tag k="place" v="farm" />
		<tag k="ssr:stedsnr" v="282459" />
	</node>
	<node id="-59654" lat="60.4258083366" lon="11.5118583377">
		<tag k="name" v="Garli" />
		<tag k="place" v="isolated_dwelling" />
		<tag k="ssr:stedsnr" v="345994" />
	</node>
	<node id="-59653" lat="60.4329000034" lon="11.5038583249">
		<tag k="name" v="Labben" />
		<tag k="place" v="farm" />
		<tag k="ssr:stedsnr" v="345990" />
	</node>
	<node id="-59649" lat="60.4875305514" lon="11.5315833398">
		<tag k="name" v="Timigerkoia" />
		<tag k="place" v="locality" />
		<tag k="ssr:stedsnr" v="345903" />
	</node>
	<node id="-59635" lat="60.40296842" lon="11.6724618238">
		<tag k="name" v="Storbråten" />
		<tag k="place" v="farm" />
		<tag k="ssr:stedsnr" v="345232" />
	</node>
	<node id="-59632" lat="60.3839111105" lon="11.6957972154">
		<tag k="name" v="Bjerke" />
		<tag k="place" v="isolated_dwelling" />
		<tag k="ssr:stedsnr" v="345157" />
	</node>
	<node id="-59630" lat="60.3779527738" lon="11.7032166693">
		<tag k="name" v="Enerhaugen" />
		<tag k="place" v="isolated_dwelling" />
		<tag k="ssr:stedsnr" v="345151" />
	</node>
	<node id="-59625" lat="60.42908889" lon="11.4892222227">
		<tag k="fixme" v="multiple name tags, choose one and add the other to alt_name" />
		<tag k="name" v="Føsker;Nord-Føsker" />
		<tag k="place" v="farm" />
		<tag k="ssr:stedsnr" v="343891" />
	</node>
	<node id="-61672" lat="60.4223638888" lon="11.5945750044">
		<tag k="name" v="Finstad" />
		<tag k="place" v="farm" />
		<tag k="ssr:stedsnr" v="967306" />
	</node>
	<node id="-59621" lat="60.3415888847" lon="11.5884000007">
		<tag k="name" v="Øver-Vangen" />
		<tag k="place" v="locality" />
		<tag k="ssr:stedsnr" v="343795" />
	</node>
	<node id="-61667" lat="60.4398778635" lon="11.4847015919">
		<tag k="name" v="Nilsrud" />
		<tag k="place" v="farm" />
		<tag k="ssr:stedsnr" v="965970" />
	</node>
	<node id="-59618" lat="60.4732833351" lon="11.6163222243">
		<tag k="name" v="Brennhaugen" />
		<tag k="place" v="isolated_dwelling" />
		<tag k="ssr:stedsnr" v="343465" />
	</node>
	<node id="-59617" lat="60.47993611" lon="11.6174166718">
		<tag k="name" v="Knapperholen" />
		<tag k="place" v="farm" />
		<tag k="ssr:stedsnr" v="343423" />
	</node>
	<node id="-59616" lat="60.4480644738" lon="11.5956040094">
		<tag k="name" v="Nybråten" />
		<tag k="place" v="locality" />
		<tag k="ssr:stedsnr" v="343412" />
	</node>
	<node id="-59614" lat="60.4329388885" lon="11.5764805504">
		<tag k="name" v="Bergaust" />
		<tag k="place" v="farm" />
		<tag k="ssr:stedsnr" v="343331" />
	</node>
	<node id="-59613" lat="60.4312944486" lon="11.5741555623">
		<tag k="fixme" v="multiple name tags, choose one and add the other to alt_name" />
		<tag k="name" v="Foss;Fossheim;Revholen" />
		<tag k="old_name" v="Rævholen" />
		<tag k="place" v="farm" />
		<tag k="ssr:stedsnr" v="343320" />
	</node>
	<node id="-59610" lat="60.501122223" lon="11.3915444474">
		<tag k="name" v="Solhaug" />
		<tag k="place" v="farm" />
		<tag k="ssr:stedsnr" v="343129" />
	</node>
	<node id="-61657" lat="60.3924168315" lon="11.4736582642">
		<tag k="name" v="Løkkerdalen" />
		<tag k="place" v="farm" />
		<tag k="ssr:stedsnr" v="965557" />
	</node>
	<node id="-59605" lat="60.3500999974" lon="11.4337527764">
		<tag k="name" v="Tennungsaga" />
		<tag k="place" v="isolated_dwelling" />
		<tag k="ssr:stedsnr" v="102710" />
	</node>
	<node id="-61651" lat="60.3676416648" lon="11.545086118">
		<tag k="name" v="Bakken" />
		<tag k="place" v="isolated_dwelling" />
		<tag k="ssr:stedsnr" v="965302" />
	</node>
	<node id="-59601" lat="60.3164363602" lon="11.6188985804">
		<tag k="fixme" v="consider place=hamlet" />
		<tag k="name" v="Suterud" />
		<tag k="place" v="farm" />
		<tag k="ssr:stedsnr" v="310953" />
	</node>
	<node id="-59600" lat="60.384155556" lon="11.7030055627">
		<tag k="name" v="Bakken" />
		<tag k="place" v="farm" />
		<tag k="ssr:stedsnr" v="310924" />
	</node>
	<node id="-59599" lat="60.3887777071" lon="11.69731213">
		<tag k="name" v="Bakkebråten" />
		<tag k="place" v="farm" />
		<tag k="ssr:stedsnr" v="310918" />
	</node>
	<node id="-59598" lat="60.3937861122" lon="11.5778861105">
		<tag k="name" v="Fallet" />
		<tag k="place" v="isolated_dwelling" />
		<tag k="ssr:stedsnr" v="310912" />
	</node>
	<node id="-59597" lat="60.3796499788" lon="11.5380248389">
		<tag k="loc_name" v="Vikslykkja" />
		<tag k="name" v="Viksløkka" />
		<tag k="old_name" v="Viksløkken" />
		<tag k="place" v="farm" />
		<tag k="ssr:stedsnr" v="310900" />
	</node>
	<node id="-59594" lat="60.4820194418" lon="11.6411722161">
		<tag k="name" v="Bjørnli" />
		<tag k="place" v="farm" />
		<tag k="ssr:stedsnr" v="310223" />
	</node>
	<node id="-59593" lat="60.5485416696" lon="11.63091388">
		<tag k="historic" v="shieling" />
		<tag k="name" v="Nysætra" />
		<tag k="place" v="locality" />
		<tag k="ssr:stedsnr" v="310126" />
	</node>
	<node id="-59592" lat="60.3462277733" lon="11.6009472275">
		<tag k="alt_name" v="Midtre Svarverud" />
		<tag k="name" v="Svarverud" />
		<tag k="place" v="farm" />
		<tag k="ssr:stedsnr" v="309996" />
	</node>
	<node id="-59591" lat="60.3793444442" lon="11.6745583377">
		<tag k="name" v="Sørkeid" />
		<tag k="place" v="farm" />
		<tag k="ssr:stedsnr" v="309922" />
	</node>
	<node id="-59589" lat="60.4355050938" lon="11.5217211758">
		<tag k="alt_name" v="Drøsrud" />
		<tag k="name" v="Inngjerdinga" />
		<tag k="place" v="farm" />
		<tag k="ssr:stedsnr" v="309878" />
	</node>
	<node id="-59588" lat="60.4277722228" lon="11.5968472276">
		<tag k="alt_name" v="Fjell, midtre;Fjeld mellem;Mellom-Fjell" />
		<tag k="name" v="Midtre Fjell" />
		<tag k="place" v="farm" />
		<tag k="ssr:stedsnr" v="309873" />
	</node>
	<node id="-61635" lat="60.3986749985" lon="11.5339944522">
		<tag k="name" v="Prestberget" />
		<tag k="place" v="quarter" />
		<tag k="ssr:stedsnr" v="955263" />
	</node>
	<node id="-61634" lat="60.4117666676" lon="11.4908472314">
		<tag k="name" v="Sjøli" />
		<tag k="place" v="farm" />
		<tag k="ssr:stedsnr" v="952985" />
	</node>
	<node id="-59585" lat="60.4074638845" lon="11.7714444516">
		<tag k="name" v="Bergsætra" />
		<tag k="place" v="isolated_dwelling" />
		<tag k="ssr:stedsnr" v="309839" />
	</node>
	<node id="-59584" lat="60.402202778" lon="11.6059194355">
		<tag k="alt_name" v="Krattebølsætra" />
		<tag k="name" v="Sæter" />
		<tag k="place" v="farm" />
		<tag k="ssr:stedsnr" v="309831" />
	</node>
	<node id="-59583" lat="60.4028064429" lon="11.6733681877">
		<tag k="name" v="Storbråten" />
		<tag k="place" v="farm" />
		<tag k="ssr:stedsnr" v="309829" />
	</node>
	<node id="-59582" lat="60.3994166702" lon="11.500133333">
		<tag k="name" v="Delbekk" />
		<tag k="place" v="farm" />
		<tag k="ssr:stedsnr" v="309817" />
	</node>
	<node id="-59581" lat="60.3978805517" lon="11.5478083289">
		<tag k="name" v="Myrvoll" />
		<tag k="place" v="farm" />
		<tag k="ssr:stedsnr" v="309809" />
	</node>
	<node id="-59580" lat="60.4692527768" lon="11.6220027712">
		<tag k="fixme" v="consider place=hamlet" />
		<tag k="name" v="Knapper" />
		<tag k="place" v="village" />
		<tag k="ssr:stedsnr" v="309797" />
	</node>
	<node id="-61627" lat="60.3587138853" lon="11.5284999975">
		<tag k="name" v="Finnsbråten" />
		<tag k="place" v="locality" />
		<tag k="ssr:stedsnr" v="952613" />
	</node>
	<node id="-59578" lat="60.4470611085" lon="11.5576277713">
		<tag k="name" v="Snekkerlia" />
		<tag k="place" v="farm" />
		<tag k="ssr:stedsnr" v="309775" />
	</node>
	<node id="-61625" lat="60.4833916649" lon="11.6146916718">
		<tag k="name" v="Holtgård" />
		<tag k="place" v="isolated_dwelling" />
		<tag k="ssr:stedsnr" v="952464" />
	</node>
	<node id="-61624" lat="60.3812972221" lon="11.6950500059">
		<tag k="name" v="Nordset" />
		<tag k="place" v="isolated_dwelling" />
		<tag k="ssr:stedsnr" v="952173" />
	</node>
	<node id="-61622" lat="60.3755138862" lon="11.5542388836">
		<tag k="name" v="Sør-Ekornhol" />
		<tag k="place" v="farm" />
		<tag k="ssr:stedsnr" v="952136" />
	</node>
	<node id="-59573" lat="60.4927611129" lon="11.437711118">
		<tag k="alt_name" v="Nedre Inngjerdingen" />
		<tag k="name" v="Inngjerdinga" />
		<tag k="place" v="farm" />
		<tag k="ssr:stedsnr" v="309413" />
	</node>
	<node id="-59567" lat="60.4281958795" lon="11.6641696618">
		<tag k="alt_name" v="Storbekken" />
		<tag k="name" v="Bekken" />
		<tag k="place" v="locality" />
		<tag k="ssr:stedsnr" v="301854" />
	</node>
	<node id="-59566" lat="60.4305722211" lon="11.666650006">
		<tag k="name" v="Aslakbekken" />
		<tag k="place" v="farm" />
		<tag k="ssr:stedsnr" v="301853" />
	</node>
	<node id="-59564" lat="60.4305861127" lon="11.6747833356">
		<tag k="name" v="Hildekjølen" />
		<tag k="place" v="farm" />
		<tag k="ssr:stedsnr" v="301842" />
	</node>
	<node id="-61606" lat="60.4613694438" lon="11.6313555619">
		<tag k="name" v="Mangnesholen" />
		<tag k="place" v="farm" />
		<tag k="ssr:stedsnr" v="950464" />
	</node>
	<node id="-61605" lat="60.4763972268" lon="11.6245361031">
		<tag k="name" v="Nordli" />
		<tag k="place" v="farm" />
		<tag k="ssr:stedsnr" v="950433" />
	</node>
	<node id="-61604" lat="60.4769972196" lon="11.6299916597">
		<tag k="name" v="Bjørnstadhaugen" />
		<tag k="place" v="farm" />
		<tag k="ssr:stedsnr" v="950431" />
	</node>
	<node id="-61603" lat="60.4785924071" lon="11.6031115869">
		<tag k="alt_name" v="Bryhni" />
		<tag k="historic" v="shieling" />
		<tag k="name" v="Bryni" />
		<tag k="place" v="locality" />
		<tag k="ssr:stedsnr" v="950430" />
	</node>
	<node id="-61601" lat="60.4391388859" lon="11.6351277733">
		<tag k="name" v="Dammen" />
		<tag k="place" v="farm" />
		<tag k="ssr:stedsnr" v="950420" />
	</node>
	<node id="-61600" lat="60.433530558" lon="11.62438334">
		<tag k="name" v="Broberg" />
		<tag k="place" v="farm" />
		<tag k="ssr:stedsnr" v="950418" />
	</node>
	<node id="-61599" lat="60.5041583378" lon="11.3932277798">
		<tag k="name" v="Smedsrud" />
		<tag k="place" v="farm" />
		<tag k="ssr:stedsnr" v="950153" />
	</node>
	<node id="-61598" lat="60.5017416353" lon="11.3847544251">
		<tag k="name" v="Trautbråten" />
		<tag k="place" v="locality" />
		<tag k="ssr:stedsnr" v="950152" />
	</node>
	<node id="-61596" lat="60.3834583305" lon="11.710961116">
		<tag k="name" v="Syningom" />
		<tag k="place" v="isolated_dwelling" />
		<tag k="ssr:stedsnr" v="917924" />
	</node>
	<node id="-59545" lat="60.4195333369" lon="11.5966416581">
		<tag k="name" v="Fjellsauren" />
		<tag k="place" v="isolated_dwelling" />
		<tag k="ssr:stedsnr" v="57306" />
	</node>
	<node id="-61591" lat="60.4761638844" lon="11.6176944489">
		<tag k="alt_name" v="Øvre Holen" />
		<tag k="name" v="Holen" />
		<tag k="place" v="farm" />
		<tag k="ssr:stedsnr" v="917202" />
	</node>
	<node id="-61590" lat="60.5295527766" lon="11.6281694493">
		<tag k="name" v="Bergesætra" />
		<tag k="place" v="isolated_dwelling" />
		<tag k="ssr:stedsnr" v="917200" />
	</node>
	<node id="-61589" lat="60.4765055599" lon="11.6028833362">
		<tag k="name" v="Øverby" />
		<tag k="place" v="isolated_dwelling" />
		<tag k="ssr:stedsnr" v="917199" />
	</node>
	<node id="-61588" lat="60.5346750033" lon="11.6005416602">
		<tag k="name" v="Koivolla" />
		<tag k="place" v="locality" />
		<tag k="ssr:stedsnr" v="917196" />
	</node>
	<node id="-59539" lat="60.4231861074" lon="11.5968666639">
		<tag k="name" v="Leirvoll" />
		<tag k="place" v="isolated_dwelling" />
		<tag k="ssr:stedsnr" v="300363" />
	</node>
	<node id="-59538" lat="60.4189416633" lon="11.5966250048">
		<tag k="name" v="Fjellvang" />
		<tag k="place" v="isolated_dwelling" />
		<tag k="ssr:stedsnr" v="300358" />
	</node>
	<node id="-61583" lat="60.3312416693" lon="11.5502722299">
		<tag k="name" v="Kroksrudsætra" />
		<tag k="place" v="isolated_dwelling" />
		<tag k="ssr:stedsnr" v="917000" />
	</node>
	<node id="-61582" lat="60.3220017937" lon="11.617627576">
		<tag k="fixme" v="consider place=hamlet" />
		<tag k="name" v="Helgedagsrud" />
		<tag k="place" v="farm" />
		<tag k="ssr:stedsnr" v="916971" />
	</node>
	<node id="-61581" lat="60.3639722247" lon="11.5367750081">
		<tag k="name" v="Bjørnlihaugen" />
		<tag k="place" v="farm" />
		<tag k="ssr:stedsnr" v="916916" />
	</node>
	<node id="-61580" lat="60.3457555598" lon="11.4950277868">
		<tag k="historic" v="shieling" />
		<tag k="name" v="Ekornholsætra" />
		<tag k="place" v="locality" />
		<tag k="ssr:stedsnr" v="916907" />
	</node>
	<node id="-61579" lat="60.4301666659" lon="11.5777861057">
		<tag k="alt_name" v="Vestre Fjell" />
		<tag k="name" v="Vestfjell" />
		<tag k="place" v="farm" />
		<tag k="ssr:stedsnr" v="916881" />
	</node>
	<node id="-61578" lat="60.4241322643" lon="11.6333544185">
		<tag k="fixme" v="consider place=hamlet" />
		<tag k="name" v="Østmoen" />
		<tag k="place" v="farm" />
		<tag k="ssr:stedsnr" v="916870" />
	</node>
	<node id="-61575" lat="60.4017805537" lon="11.662561105">
		<tag k="name" v="Høyby" />
		<tag k="place" v="farm" />
		<tag k="ssr:stedsnr" v="916842" />
	</node>
	<node id="-61574" lat="60.4061749999" lon="11.67549723">
		<tag k="name" v="Østby" />
		<tag k="place" v="farm" />
		<tag k="ssr:stedsnr" v="916841" />
	</node>
	<node id="-61573" lat="60.3934419317" lon="11.471198757">
		<tag k="name" v="Nybergshagen" />
		<tag k="place" v="farm" />
		<tag k="ssr:stedsnr" v="916834" />
	</node>
	<node id="-61572" lat="60.4001064928" lon="11.5253588717">
		<tag k="name" v="Norderud" />
		<tag k="place" v="farm" />
		<tag k="ssr:stedsnr" v="916832" />
	</node>
	<node id="-61571" lat="60.4665861129" lon="11.5424777849">
		<tag k="name" v="Holtsætra" />
		<tag k="place" v="isolated_dwelling" />
		<tag k="ssr:stedsnr" v="916811" />
	</node>
	<node id="-61570" lat="60.4612361155" lon="11.6305972265">
		<tag k="name" v="Ringnes" />
		<tag k="place" v="farm" />
		<tag k="ssr:stedsnr" v="916801" />
	</node>
	<node id="-59519" lat="60.4083388916" lon="11.5209611183">
		<tag k="name" v="Søstua" />
		<tag k="place" v="farm" />
		<tag k="ssr:stedsnr" v="298519" />
	</node>
	<node id="-61565" lat="60.4907388913" lon="11.3949694408">
		<tag k="name" v="Mortleikkoia" />
		<tag k="place" v="isolated_dwelling" />
		<tag k="ssr:stedsnr" v="916401" />
	</node>
	<node id="-59514" lat="60.380558544" lon="11.5934481285">
		<tag k="name" v="Svennebybråten" />
		<tag k="place" v="farm" />
		<tag k="ssr:stedsnr" v="298270" />
	</node>
	<node id="-59512" lat="60.3911396295" lon="11.5480936833">
		<tag k="name" v="Mellom-Sand" />
		<tag k="place" v="farm" />
		<tag k="ssr:stedsnr" v="46733" />
	</node>
	<node id="-61559" lat="60.4117722241" lon="11.5223305593">
		<tag k="alt_name" v="Dagfinrud;Øststua" />
		<tag k="name" v="Øststua Dagfinrud" />
		<tag k="place" v="farm" />
		<tag k="ssr:stedsnr" v="908575" />
	</node>
	<node id="-61558" lat="60.3807888929" lon="11.6905000081">
		<tag k="fixme" v="multiple name tags, choose one and add the other to alt_name" />
		<tag k="name" v="Austvatn;Veststua Austvatn" />
		<tag k="place" v="farm" />
		<tag k="ssr:stedsnr" v="908383" />
	</node>
	<node id="-61556" lat="60.3836361077" lon="11.5971111153">
		<tag k="name" v="Lunde" />
		<tag k="place" v="isolated_dwelling" />
		<tag k="ssr:stedsnr" v="908297" />
	</node>
	<node id="-61553" lat="60.5361944428" lon="11.6607611055">
		<tag k="name" v="Myssmørdøsskoia" />
		<tag k="place" v="locality" />
		<tag k="ssr:stedsnr" v="907930" />
	</node>
	<node id="-61552" lat="60.5315388926" lon="11.6561999914">
		<tag k="name" v="Gomyrkoia" />
		<tag k="place" v="locality" />
		<tag k="ssr:stedsnr" v="907931" />
	</node>
	<node id="-61551" lat="60.5092416692" lon="11.6783666624">
		<tag k="name" v="Gåsvikkoia" />
		<tag k="place" v="locality" />
		<tag k="ssr:stedsnr" v="907904" />
	</node>
	<node id="-59498" lat="60.4354694452" lon="11.731213898">
		<tag k="historic" v="shieling" />
		<tag k="name" v="Skålbergsætra" />
		<tag k="place" v="locality" />
		<tag k="ssr:stedsnr" v="289351" />
	</node>
	<node id="-61544" lat="60.4061944483" lon="11.6753444373">
		<tag k="name" v="Persstua" />
		<tag k="place" v="farm" />
		<tag k="ssr:stedsnr" v="907623" />
	</node>
	<node id="-61539" lat="60.4018473544" lon="11.5245490057">
		<tag k="name" v="Søndre Sandsbråten" />
		<tag k="place" v="farm" />
		<tag k="ssr:stedsnr" v="907378" />
	</node>
	<node id="-61538" lat="60.3562895053" lon="11.5870979612">
		<tag k="name" v="Songnesbråten" />
		<tag k="place" v="farm" />
		<tag k="ssr:stedsnr" v="907376" />
	</node>
	<node id="-61537" lat="60.4306316033" lon="11.5869519645">
		<tag k="name" v="Haga" />
		<tag k="place" v="farm" />
		<tag k="ssr:stedsnr" v="907342" />
	</node>
	<node id="-61535" lat="60.397652775" lon="11.5447527774">
		<tag k="name" v="Høgbråten" />
		<tag k="place" v="quarter" />
		<tag k="ssr:stedsnr" v="907327" />
	</node>
	<node id="-59485" lat="60.3524833303" lon="11.4511388857">
		<tag k="name" v="Heerkoia" />
		<tag k="place" v="isolated_dwelling" />
		<tag k="ssr:stedsnr" v="284689" />
	</node>
	<node id="-59481" lat="60.3963305594" lon="11.468352781">
		<tag k="name" v="Nordre Steinberg" />
		<tag k="place" v="isolated_dwelling" />
		<tag k="ssr:stedsnr" v="284526" />
	</node>
	<node id="-59480" lat="60.5102" lon="11.408569438">
		<tag k="name" v="Rønningskoia" />
		<tag k="place" v="isolated_dwelling" />
		<tag k="ssr:stedsnr" v="284442" />
	</node>
	<node id="-59476" lat="60.5056583338" lon="11.6412944393">
		<tag k="name" v="Skyrudskoia" />
		<tag k="place" v="isolated_dwelling" />
		<tag k="ssr:stedsnr" v="284075" />
	</node>
	<node id="-59473" lat="60.3090555594" lon="11.6205916609">
		<tag k="name" v="Nordre Iler" />
		<tag k="place" v="farm" />
		<tag k="ssr:stedsnr" v="283849" />
	</node>
	<node id="-61517" lat="60.4450388869" lon="11.467072222">
		<tag k="alt_name" v="Østvold" />
		<tag k="name" v="Østvoll" />
		<tag k="place" v="isolated_dwelling" />
		<tag k="ssr:stedsnr" v="905953" />
	</node>
	<node id="-61516" lat="60.4369583316" lon="11.4645444492">
		<tag k="name" v="Haugli" />
		<tag k="place" v="farm" />
		<tag k="ssr:stedsnr" v="905949" />
	</node>
	<node id="-59467" lat="60.4691083302" lon="11.6363527786">
		<tag k="name" v="Skjønhaug" />
		<tag k="place" v="farm" />
		<tag k="ssr:stedsnr" v="282468" />
	</node>
	<node id="-59466" lat="60.4698138895" lon="11.6314805546">
		<tag k="amenity" v="school" />
		<tag k="name" v="Knapper skole" />
		<tag k="ssr:stedsnr" v="282463" />
	</node>
	<node id="-59465" lat="60.4716805589" lon="11.6316972264">
		<tag k="name" v="Søndre Sørli" />
		<tag k="place" v="farm" />
		<tag k="ssr:stedsnr" v="282462" />
	</node>
	<node id="-61512" lat="60.4941888901" lon="11.4491666724">
		<tag k="name" v="Kjølkoia" />
		<tag k="place" v="locality" />
		<tag k="ssr:stedsnr" v="905836" />
	</node>
	<node id="-59463" lat="60.4546194481" lon="11.631291675">
		<tag k="name" v="Haugland" />
		<tag k="place" v="farm" />
		<tag k="ssr:stedsnr" v="282457" />
	</node>
	<node id="-61510" lat="60.396894448" lon="11.4984777755">
		<tag k="name" v="Øvre Delbekk" />
		<tag k="place" v="farm" />
		<tag k="ssr:stedsnr" v="905564" />
	</node>
	<node id="-61509" lat="60.3983472246" lon="11.4908027789">
		<tag k="name" v="Inngjerdinga" />
		<tag k="place" v="farm" />
		<tag k="ssr:stedsnr" v="905560" />
	</node>
	<node id="-61508" lat="60.3995027765" lon="11.5250611178">
		<tag k="name" v="Vestli" />
		<tag k="place" v="farm" />
		<tag k="ssr:stedsnr" v="905556" />
	</node>
	<node id="-59459" lat="60.437452775" lon="11.5780500085">
		<tag k="name" v="Brederud" />
		<tag k="place" v="farm" />
		<tag k="ssr:stedsnr" v="282342" />
	</node>
	<node id="-61506" lat="60.4084777742" lon="11.5159555579">
		<tag k="name" v="Enevoll" />
		<tag k="place" v="isolated_dwelling" />
		<tag k="ssr:stedsnr" v="905552" />
	</node>
	<node id="-61502" lat="60.3778935487" lon="11.5977537332">
		<tag k="name" v="Søndre Søvika" />
		<tag k="place" v="farm" />
		<tag k="ssr:stedsnr" v="905287" />
	</node>
	<node id="-61496" lat="60.4051249995" lon="11.4362888873">
		<tag k="name" v="Hansmyra" />
		<tag k="place" v="isolated_dwelling" />
		<tag k="ssr:stedsnr" v="900160" />
	</node>
	<node id="-61495" lat="60.4127861072" lon="11.386372227">
		<tag k="historic" v="shieling" />
		<tag k="name" v="Nysætra" />
		<tag k="place" v="locality" />
		<tag k="ssr:stedsnr" v="869984" />
	</node>
	<node id="-61494" lat="60.4004361111" lon="11.4097888871">
		<tag k="historic" v="shieling" />
		<tag k="name" v="Sundsætra" />
		<tag k="place" v="locality" />
		<tag k="ssr:stedsnr" v="869982" />
	</node>
	<node id="-61491" lat="60.5075166641" lon="11.4927972182">
		<tag k="name" v="Krafshølkoia" />
		<tag k="place" v="isolated_dwelling" />
		<tag k="ssr:stedsnr" v="857255" />
	</node>
	<node id="-61490" lat="60.3343083358" lon="11.5342055584">
		<tag k="historic" v="shieling" />
		<tag k="name" v="Songnessætra" />
		<tag k="place" v="locality" />
		<tag k="ssr:stedsnr" v="856998" />
	</node>
	<node id="-61489" lat="60.3906000032" lon="11.6809638858">
		<tag k="name" v="Leirdalen" />
		<tag k="place" v="farm" />
		<tag k="ssr:stedsnr" v="856944" />
	</node>
	<node id="-61488" lat="60.3897444416" lon="11.6713083315">
		<tag k="name" v="Rustad" />
		<tag k="place" v="farm" />
		<tag k="ssr:stedsnr" v="856942" />
	</node>
	<node id="-61486" lat="60.357002777" lon="11.5007999927">
		<tag k="name" v="Høymyra" />
		<tag k="place" v="locality" />
		<tag k="ssr:stedsnr" v="856888" />
	</node>
	<node id="-61484" lat="60.4168527815" lon="11.4890111107">
		<tag k="name" v="Voll" />
		<tag k="place" v="farm" />
		<tag k="ssr:stedsnr" v="856863" />
	</node>
	<node id="-61483" lat="60.4153055578" lon="11.5162861166">
		<tag k="fixme" v="consider place=hamlet" />
		<tag k="name" v="Flikkerud" />
		<tag k="place" v="farm" />
		<tag k="ssr:stedsnr" v="856853" />
	</node>
	<node id="-61482" lat="60.4156749968" lon="11.662477783">
		<tag k="alt_name" v="Nord-Dammen" />
		<tag k="name" v="Dammen" />
		<tag k="place" v="isolated_dwelling" />
		<tag k="ssr:stedsnr" v="856851" />
	</node>
	<node id="-61480" lat="60.4090444455" lon="11.472599991">
		<tag k="name" v="Bjørnstad" />
		<tag k="place" v="farm" />
		<tag k="ssr:stedsnr" v="856845" />
	</node>
	<node id="-61479" lat="60.4060973324" lon="11.6007810416">
		<tag k="name" v="Nordre Skolbekken" />
		<tag k="place" v="farm" />
		<tag k="ssr:stedsnr" v="856835" />
	</node>
	<node id="-61478" lat="60.404630556" lon="11.6853722249">
		<tag k="name" v="Sanderud" />
		<tag k="place" v="farm" />
		<tag k="ssr:stedsnr" v="856829" />
	</node>
	<node id="-61477" lat="60.4041527732" lon="11.8258638966">
		<tag k="name" v="Nedre Grasberget" />
		<tag k="place" v="isolated_dwelling" />
		<tag k="ssr:stedsnr" v="856825" />
	</node>
	<node id="-61475" lat="60.4374499963" lon="11.4711833336">
		<tag k="name" v="Norum" />
		<tag k="place" v="farm" />
		<tag k="ssr:stedsnr" v="856767" />
	</node>
	<node id="-61474" lat="60.4417722205" lon="11.4628666588">
		<tag k="alt_name" v="Rovelstadstuen" />
		<tag k="name" v="Stua" />
		<tag k="place" v="farm" />
		<tag k="ssr:stedsnr" v="856525" />
	</node>
	<node id="-61470" lat="60.4751765264" lon="11.6068850866">
		<tag k="name" v="Bråten" />
		<tag k="place" v="farm" />
		<tag k="ssr:stedsnr" v="856257" />
	</node>
	<node id="-61468" lat="60.4931249999" lon="11.5578972288">
		<tag k="historic" v="shieling" />
		<tag k="name" v="Gardsætra" />
		<tag k="place" v="locality" />
		<tag k="ssr:stedsnr" v="856236" />
	</node>
	<node id="-61467" lat="60.3896472194" lon="11.4646083401">
		<tag k="name" v="Damholen" />
		<tag k="place" v="farm" />
		<tag k="ssr:stedsnr" v="856025" />
	</node>
	<node id="-61465" lat="60.3629722202" lon="11.5755194427">
		<tag k="name" v="Hanor" />
		<tag k="place" v="farm" />
		<tag k="ssr:stedsnr" v="855900" />
	</node>
	<node id="-61464" lat="60.3687686711" lon="11.5587586608">
		<tag k="fixme" v="consider place=hamlet" />
		<tag k="name" v="Illgo" />
		<tag k="place" v="farm" />
		<tag k="ssr:stedsnr" v="855895" />
	</node>
	<node id="-61462" lat="60.4592333374" lon="11.6273694378">
		<tag k="name" v="Tannes" />
		<tag k="place" v="farm" />
		<tag k="ssr:stedsnr" v="855813" />
	</node>
	<node id="-61461" lat="60.4261111135" lon="11.4239166671">
		<tag k="name" v="Storkoia" />
		<tag k="place" v="isolated_dwelling" />
		<tag k="ssr:stedsnr" v="855468" />
	</node>
	<node id="-61457" lat="60.4333611155" lon="11.7377000053">
		<tag k="name" v="Bakkekoia" />
		<tag k="place" v="isolated_dwelling" />
		<tag k="ssr:stedsnr" v="848845" />
	</node>
	<node id="-61453" lat="60.4128555544" lon="11.6649749963">
		<tag k="name" v="Austgård" />
		<tag k="place" v="farm" />
		<tag k="ssr:stedsnr" v="848811" />
	</node>
	<node id="-61451" lat="60.3806444467" lon="11.8051972172">
		<tag k="name" v="Fiskehytta" />
		<tag k="place" v="isolated_dwelling" />
		<tag k="ssr:stedsnr" v="848581" />
	</node>
</osm>
