<?xml version="1.0" encoding="UTF-8"?>
<osm generator="osmapis" version="0.6">
	<node id="-60572" lat="60.497566666" lon="11.4078111197">
		<tag k="amenity" v="community_centre" />
		<tag k="name" v="Skogvang" />
		<tag k="ssr:stedsnr" v="482731" />
	</node>
	<node id="-61636" lat="60.4570555582" lon="11.5803972238">
		<tag k="name" v="Storgruva" />
		<tag k="place" v="locality" />
		<tag k="ssr:stedsnr" v="956796" />
	</node>
	<node id="-59925" lat="60.338958336" lon="11.61016666">
		<tag k="amenity" v="community_centre" />
		<tag k="name" v="Songheim" />
		<tag k="ssr:stedsnr" v="39699" />
	</node>
	<node id="-60180" lat="60.3901305537" lon="11.5439666624">
		<tag k="amenity" v="place_of_worship" />
		<tag k="denomination" v="lutheran" />
		<tag k="name" v="Sand kirke" />
		<tag k="religion" v="christian" />
		<tag k="ssr:stedsnr" v="127934" />
	</node>
	<node id="-60817" lat="60.3938444478" lon="11.6751277715">
		<tag k="amenity" v="community_centre" />
		<tag k="name" v="Skytterhuset" />
		<tag k="ssr:stedsnr" v="587274" />
	</node>
	<node id="-60617" lat="60.4289388872" lon="11.6357583349">
		<tag k="amenity" v="place_of_worship" />
		<tag k="denomination" v="lutheran" />
		<tag k="name" v="Mo kirke" />
		<tag k="religion" v="christian" />
		<tag k="ssr:stedsnr" v="491864" />
	</node>
	<node id="-60685" lat="60.3642361117" lon="11.8173027704">
		<tag k="name" v="Trøhaugkverna" />
		<tag k="place" v="locality" />
		<tag k="ssr:stedsnr" v="531689" />
	</node>
	<node id="-61226" lat="60.5020638935" lon="11.3827694365">
		<tag k="amenity" v="place_of_worship" />
		<tag k="denomination" v="lutheran" />
		<tag k="name" v="Trøftskogen kapell" />
		<tag k="old_name" v="Trautskogen" />
		<tag k="religion" v="christian" />
		<tag k="ssr:stedsnr" v="735427" />
	</node>
	<node id="-61161" lat="60.431719447" lon="11.6251527841">
		<tag k="amenity" v="community_centre" />
		<tag k="name" v="Vonheim" />
		<tag k="ssr:stedsnr" v="725316" />
	</node>
	<node id="-60999" lat="60.5006916684" lon="11.471261117">
		<tag k="name" v="Bautaen" />
		<tag k="ssr:stedsnr" v="661365" />
		<tag k="tourism" v="attraction" />
	</node>
	<node id="-61476" lat="60.4384250031" lon="11.4921833402">
		<tag k="amenity" v="community_centre" />
		<tag k="name" v="Trudvang" />
		<tag k="ssr:stedsnr" v="856773" />
	</node>
</osm>
