<?xml version="1.0" encoding="UTF-8"?>
<<<<<<< HEAD
<osm version="0.6" generator="osmapis">
	<node lat="58.7688444477775" lon="9.318088886925306" id="-21189">
		<tag k="name" v="Langmyr" />
		<tag k="natural" v="wetland" />
		<tag k="ssr:stedsnr" v="23532" />
	</node>
	<node lat="58.79117500030567" lon="9.231324995434308" id="-21196">
		<tag k="name" v="Persstykket" />
		<tag k="place" v="locality" />
		<tag k="ssr:stedsnr" v="23488" />
	</node>
	<node lat="58.78770555741744" lon="9.257586110408557" id="-21197">
		<tag k="name" v="Bjørningskjerr" />
		<tag k="natural" v="wetland" />
		<tag k="ssr:stedsnr" v="23494" />
	</node>
	<node lat="58.730558329052926" lon="9.180874994986365" id="-21224">
		<tag k="alt_name" v="Teremyr" />
		<tag k="name" v="Teremyra" />
		<tag k="natural" v="wetland" />
		<tag k="ssr:stedsnr" v="62569" />
	</node>
	<node lat="58.70407221885429" lon="9.060922213598678" id="-21239">
		<tag k="alt_name" v="Bromsmyr" />
		<tag k="name" v="Bromsmyra" />
		<tag k="natural" v="wetland" />
		<tag k="ssr:stedsnr" v="243622" />
	</node>
	<node lat="58.78230555251508" lon="9.076577778632952" id="-21253">
		<tag k="name" v="Bråtane" />
		<tag k="place" v="locality" />
		<tag k="ssr:stedsnr" v="84215" />
	</node>
	<node lat="58.67518611365871" lon="9.122555557394456" id="-21265">
		<tag k="name" v="Nevlingskjerret" />
=======
<osm generator="osmapis" version="0.6">
	<node id="-482814" lat="58.7113166642" lon="9.05431111692">
		<tag k="name" v="Kleivkjerr" />
		<tag k="natural" v="wetland" />
		<tag k="ssr:stedsnr" v="387790" />
	</node>
	<node id="-481877" lat="58.7419722178" lon="9.07310278182">
		<tag k="name" v="Blesvikmyra" />
		<tag k="natural" v="wetland" />
		<tag k="ssr:stedsnr" v="690187" />
	</node>
	<node id="-482297" lat="58.7526944422" lon="9.01280000238">
		<tag k="name" v="Bjørkekjerr" />
		<tag k="natural" v="wetland" />
		<tag k="ssr:stedsnr" v="23963" />
	</node>
	<node id="-481784" lat="58.6747972214" lon="9.10488055956">
		<tag k="name" v="Dørkane" />
		<tag k="place" v="locality" />
		<tag k="ssr:stedsnr" v="448305" />
	</node>
	<node id="-482293" lat="58.7877055574" lon="9.25758611041">
		<tag k="name" v="Bjørningskjerr" />
		<tag k="natural" v="wetland" />
		<tag k="ssr:stedsnr" v="23494" />
	</node>
	<node id="-482804" lat="58.7200333369" lon="8.98434167118">
		<tag k="name" v="Tøresmyr" />
		<tag k="natural" v="wetland" />
		<tag k="ssr:stedsnr" v="387880" />
	</node>
	<node id="-481534" lat="58.788866669" lon="9.08208055086">
		<tag k="name" v="Skarpvoll" />
		<tag k="place" v="locality" />
		<tag k="ssr:stedsnr" v="205221" />
	</node>
	<node id="-481704" lat="58.7717249956" lon="9.11529166346">
		<tag k="name" v="Langmyr" />
		<tag k="natural" v="wetland" />
		<tag k="ssr:stedsnr" v="387815" />
	</node>
	<node id="-482797" lat="58.8125361149" lon="9.16684999274">
		<tag k="name" v="Langemyrene" />
		<tag k="natural" v="wetland" />
		<tag k="ssr:stedsnr" v="387426" />
	</node>
	<node id="-482130" lat="58.779358335" lon="9.16777776952">
		<tag k="name" v="Kjørgangsmyra" />
		<tag k="natural" v="wetland" />
		<tag k="ssr:stedsnr" v="933471" />
	</node>
	<node id="-482995" lat="58.6748250029" lon="9.16934721739">
		<tag k="name" v="Hisåsmyrene" />
		<tag k="natural" v="wetland" />
		<tag k="ssr:stedsnr" v="629031" />
	</node>
	<node id="-482793" lat="58.7706083323" lon="9.29408332923">
		<tag k="name" v="Dalmyra" />
		<tag k="natural" v="wetland" />
		<tag k="ssr:stedsnr" v="387485" />
	</node>
	<node id="-482280" lat="58.6671972246" lon="9.11839721749">
		<tag k="name" v="Kaldmyr" />
		<tag k="place" v="locality" />
		<tag k="ssr:stedsnr" v="23293" />
	</node>
	<node id="-482788" lat="58.6826888874" lon="9.1852694452">
		<tag k="name" v="Dalen" />
		<tag k="place" v="locality" />
		<tag k="ssr:stedsnr" v="387242" />
	</node>
	<node id="-482275" lat="58.6831833293" lon="9.18085555916">
		<tag k="name" v="Ørken" />
		<tag k="place" v="locality" />
		<tag k="ssr:stedsnr" v="23272" />
	</node>
	<node id="-481762" lat="58.7442166689" lon="9.01134723033">
		<tag k="name" v="Espehaugmyr" />
		<tag k="natural" v="wetland" />
		<tag k="ssr:stedsnr" v="508958" />
	</node>
	<node id="-482785" lat="58.7399111144" lon="9.05625000509">
		<tag k="name" v="Revstømyra" />
		<tag k="natural" v="wetland" />
		<tag k="ssr:stedsnr" v="387195" />
	</node>
	<node id="-482784" lat="58.6798638878" lon="9.16837222717">
		<tag k="name" v="Stokkmyra" />
		<tag k="natural" v="wetland" />
		<tag k="ssr:stedsnr" v="387034" />
	</node>
	<node id="-482783" lat="58.6735388904" lon="9.16502222043">
		<tag k="name" v="Hyttekjerrene" />
		<tag k="natural" v="wetland" />
		<tag k="ssr:stedsnr" v="387033" />
	</node>
	<node id="-482782" lat="58.6715861124" lon="9.17741944276">
		<tag k="name" v="Styggkjerr" />
		<tag k="natural" v="wetland" />
		<tag k="ssr:stedsnr" v="387027" />
	</node>
	<node id="-482108" lat="58.7887027816" lon="9.11038610919">
		<tag k="landuse" v="quarry" />
		<tag k="name" v="Hiåsen gruver" />
		<tag k="ssr:stedsnr" v="933239" />
	</node>
	<node id="-482777" lat="58.7634888934" lon="9.20456943791">
		<tag k="name" v="Hestemyr" />
		<tag k="natural" v="wetland" />
		<tag k="ssr:stedsnr" v="387140" />
	</node>
	<node id="-483287" lat="58.7610888922" lon="9.21994722907">
		<tag k="name" v="Eidskjerr" />
		<tag k="natural" v="wetland" />
		<tag k="ssr:stedsnr" v="873368" />
	</node>
	<node id="-481750" lat="58.7186638901" lon="9.09874443595">
		<tag k="name" v="Blautmyr" />
		<tag k="natural" v="wetland" />
		<tag k="ssr:stedsnr" v="508795" />
	</node>
	<node id="-481785" lat="58.6738527816" lon="9.10988332575">
		<tag k="name" v="Fuglemyr" />
		<tag k="natural" v="wetland" />
		<tag k="ssr:stedsnr" v="448308" />
	</node>
	<node id="-483284" lat="58.7047527766" lon="9.1596194398">
		<tag k="name" v="Tjennmyra" />
		<tag k="natural" v="wetland" />
		<tag k="ssr:stedsnr" v="873090" />
	</node>
	<node id="-481747" lat="58.7006305551" lon="9.05008889243">
		<tag k="name" v="Fuglekjerr" />
		<tag k="natural" v="wetland" />
		<tag k="ssr:stedsnr" v="508765" />
	</node>
	<node id="-483281" lat="58.762100003" lon="9.00897776928">
		<tag k="name" v="Elgemyrene" />
		<tag k="natural" v="wetland" />
		<tag k="ssr:stedsnr" v="872997" />
	</node>
	<node id="-481744" lat="58.8021305541" lon="9.17708333984">
		<tag k="name" v="Skiftingsmyra" />
		<tag k="natural" v="wetland" />
		<tag k="ssr:stedsnr" v="508442" />
	</node>
	<node id="-482296" lat="58.7551861144" lon="9.03919723083">
		<tag k="alt_name" v="Terjerskjerr" />
		<tag k="name" v="Terjerdskjerr" />
		<tag k="natural" v="wetland" />
		<tag k="ssr:stedsnr" v="23950" />
	</node>
	<node id="-481937" lat="58.7448138875" lon="9.01124722932">
		<tag k="name" v="Riggusteinen" />
		<tag k="natural" v="stone" />
		<tag k="ssr:stedsnr" v="690953" />
	</node>
	<node id="-482722" lat="58.7563749985" lon="9.04746111129">
		<tag k="name" v="Det blaute kjerret" />
		<tag k="natural" v="wetland" />
		<tag k="ssr:stedsnr" v="326954" />
	</node>
	<node id="-482250" lat="58.6719833333" lon="9.1617305515">
		<tag k="name" v="Gamlemyr" />
		<tag k="natural" v="wetland" />
		<tag k="ssr:stedsnr" v="23030" />
	</node>
	<node id="-481736" lat="58.7754555535" lon="9.05848888118">
		<tag k="name" v="Ålekarmyra" />
		<tag k="natural" v="wetland" />
		<tag k="ssr:stedsnr" v="508232" />
	</node>
	<node id="-481340" lat="58.7688444478" lon="9.31808888693">
		<tag k="name" v="Langmyr" />
		<tag k="natural" v="wetland" />
		<tag k="ssr:stedsnr" v="23532" />
	</node>
	<node id="-482123" lat="58.7753861131" lon="9.28654999872">
		<tag k="name" v="Porsmyr" />
		<tag k="natural" v="wetland" />
		<tag k="ssr:stedsnr" v="933358" />
	</node>
	<node id="-483257" lat="58.7611583342" lon="9.11149999914">
		<tag k="name" v="Stormyr" />
		<tag k="natural" v="wetland" />
		<tag k="ssr:stedsnr" v="872144" />
	</node>
	<node id="-482292" lat="58.7911750003" lon="9.23132499543">
		<tag k="name" v="Persstykket" />
		<tag k="place" v="locality" />
		<tag k="ssr:stedsnr" v="23488" />
	</node>
	<node id="-481718" lat="58.6752611087" lon="9.13960833527">
		<tag k="name" v="Gloppekjær" />
		<tag k="natural" v="wetland" />
		<tag k="ssr:stedsnr" v="508259" />
	</node>
	<node id="-481865" lat="58.7652694471" lon="9.13654721528">
		<tag k="name" v="Hestmyr" />
		<tag k="natural" v="wetland" />
		<tag k="ssr:stedsnr" v="690145" />
	</node>
	<node id="-481715" lat="58.6820638912" lon="9.16998611922">
		<tag k="name" v="Rønningen" />
		<tag k="place" v="locality" />
		<tag k="ssr:stedsnr" v="508036" />
	</node>
	<node id="-482738" lat="58.7210638915" lon="9.02726388754">
		<tag k="name" v="Eidkjerret" />
		<tag k="natural" v="wetland" />
		<tag k="ssr:stedsnr" v="327850" />
	</node>
	<node id="-481712" lat="58.6675694445" lon="9.18478332956">
		<tag k="name" v="Svaekjerra" />
		<tag k="natural" v="wetland" />
		<tag k="ssr:stedsnr" v="508026" />
	</node>
	<node id="-482120" lat="58.6607861102" lon="9.14519999912">
		<tag k="name" v="Lillemyr" />
		<tag k="natural" v="wetland" />
		<tag k="ssr:stedsnr" v="933323" />
	</node>
	<node id="-481710" lat="58.7302388915" lon="9.16262777362">
		<tag k="name" v="Dyvikhovet" />
		<tag k="place" v="locality" />
		<tag k="ssr:stedsnr" v="508006" />
	</node>
	<node id="-481709" lat="58.7558972193" lon="9.26920000498">
		<tag k="name" v="Lyngmyr" />
		<tag k="natural" v="wetland" />
		<tag k="ssr:stedsnr" v="508112" />
	</node>
	<node id="-482218" lat="58.7571138856" lon="9.30827778365">
		<tag k="name" v="Husmyr" />
		<tag k="place" v="locality" />
		<tag k="ssr:stedsnr" v="933517" />
	</node>
	<node id="-482217" lat="58.7561638867" lon="9.30319444757">
		<tag k="name" v="Langmyr" />
		<tag k="natural" v="wetland" />
		<tag k="ssr:stedsnr" v="933516" />
	</node>
	<node id="-482216" lat="58.7622861144" lon="9.30936110533">
		<tag k="name" v="Tømmermyr" />
		<tag k="place" v="locality" />
		<tag k="ssr:stedsnr" v="933512" />
	</node>
	<node id="-481701" lat="58.7036444484" lon="8.97816666864">
		<tag k="name" v="Per Steinsen" />
		<tag k="natural" v="stone" />
		<tag k="ssr:stedsnr" v="387976" />
	</node>
	<node id="-482723" lat="58.7518916646" lon="9.04307500137">
		<tag k="name" v="Hesthagmyra" />
		<tag k="natural" v="wetland" />
		<tag k="ssr:stedsnr" v="326957" />
	</node>
	<node id="-481698" lat="58.7546138851" lon="9.01127500513">
		<tag k="name" v="Dukmyr" />
		<tag k="natural" v="wetland" />
		<tag k="ssr:stedsnr" v="387956" />
	</node>
	<node id="-482721" lat="58.7539861129" lon="9.0332055503">
		<tag k="name" v="Kolvedkjerrhogsten" />
		<tag k="place" v="locality" />
		<tag k="ssr:stedsnr" v="326950" />
	</node>
	<node id="-481696" lat="58.7112583348" lon="9.09465833004">
		<tag k="name" v="Storemyr" />
		<tag k="natural" v="wetland" />
		<tag k="ssr:stedsnr" v="387773" />
	</node>
	<node id="-481690" lat="58.7571000029" lon="9.31466944101">
		<tag k="name" v="Einerhagen" />
		<tag k="place" v="locality" />
		<tag k="ssr:stedsnr" v="387508" />
	</node>
	<node id="-482714" lat="58.7002027764" lon="9.08898056024">
		<tag k="name" v="Rundkjerr" />
		<tag k="natural" v="wetland" />
		<tag k="ssr:stedsnr" v="326770" />
	</node>
	<node id="-481689" lat="58.7600666653" lon="9.31478055552">
		<tag k="name" v="Lonmyra" />
		<tag k="natural" v="wetland" />
		<tag k="ssr:stedsnr" v="387507" />
	</node>
	<node id="-482712" lat="58.7635083338" lon="9.29286111263">
		<tag k="name" v="Sandbakkmyra" />
		<tag k="natural" v="wetland" />
		<tag k="ssr:stedsnr" v="326501" />
	</node>
	<node id="-481348" lat="58.7675250042" lon="9.05675000825">
		<tag k="name" v="Korsmyr" />
		<tag k="natural" v="wetland" />
		<tag k="ssr:stedsnr" v="23849" />
	</node>
	<node id="-481911" lat="58.7858611095" lon="9.20071388977">
		<tag k="name" v="Midtkilstykket" />
		<tag k="place" v="locality" />
		<tag k="ssr:stedsnr" v="690453" />
	</node>
	<node id="-482709" lat="58.79260556" lon="9.18033055567">
		<tag k="name" v="Sandviksmyrene" />
		<tag k="natural" v="wetland" />
		<tag k="ssr:stedsnr" v="326456" />
	</node>
	<node id="-482708" lat="58.7906972184" lon="9.21227500683">
		<tag k="name" v="Rødbekkmyra" />
		<tag k="natural" v="wetland" />
		<tag k="ssr:stedsnr" v="326452" />
	</node>
	<node id="-481681" lat="58.7813694427" lon="9.15443610913">
		<tag k="name" v="Jensmyr" />
		<tag k="natural" v="wetland" />
		<tag k="ssr:stedsnr" v="387261" />
	</node>
	<node id="-482703" lat="58.7574861067" lon="9.27347777929">
		<tag k="name" v="Korsmyr" />
		<tag k="natural" v="wetland" />
		<tag k="ssr:stedsnr" v="326510" />
	</node>
	<node id="-482187" lat="58.6933166703" lon="9.0837722223">
		<tag k="name" v="Fåmyr" />
		<tag k="natural" v="wetland" />
		<tag k="ssr:stedsnr" v="872857" />
	</node>
	<node id="-482186" lat="58.7738916642" lon="9.09535833579">
		<tag k="name" v="Vasstømyra" />
		<tag k="place" v="locality" />
		<tag k="ssr:stedsnr" v="872823" />
	</node>
	<node id="-482697" lat="58.6641305539" lon="9.14126388318">
		<tag k="name" v="Engene" />
		<tag k="place" v="locality" />
		<tag k="ssr:stedsnr" v="326289" />
	</node>
	<node id="-483208" lat="58.7654944451" lon="9.01785833112">
		<tag k="name" v="Orremyra" />
		<tag k="natural" v="wetland" />
		<tag k="ssr:stedsnr" v="812999" />
	</node>
	<node id="-481668" lat="58.7591499973" lon="9.13894444125">
		<tag k="name" v="Orekjerr" />
		<tag k="natural" v="wetland" />
		<tag k="ssr:stedsnr" v="387160" />
	</node>
	<node id="-483203" lat="58.7499027752" lon="9.03353055904">
		<tag k="name" v="Østre Klomrekjerr" />
		<tag k="natural" v="wetland" />
		<tag k="ssr:stedsnr" v="812960" />
	</node>
	<node id="-481664" lat="58.7678111116" lon="9.25989999981">
		<tag k="name" v="Knutmyra" />
		<tag k="natural" v="wetland" />
		<tag k="ssr:stedsnr" v="387119" />
	</node>
	<node id="-482175" lat="58.7811166701" lon="9.24481389249">
		<tag k="name" v="Stormyrene" />
		<tag k="natural" v="wetland" />
		<tag k="ssr:stedsnr" v="872473" />
	</node>
	<node id="-482686" lat="58.7827555596" lon="9.28876943916">
		<tag k="name" v="Korskjerr" />
		<tag k="natural" v="wetland" />
		<tag k="ssr:stedsnr" v="326380" />
	</node>
	<node id="-483197" lat="58.707658336" lon="9.1435305596">
		<tag k="name" v="Ormkjerr" />
		<tag k="natural" v="wetland" />
		<tag k="ssr:stedsnr" v="812863" />
	</node>
	<node id="-483196" lat="58.7608027785" lon="9.0497444403">
		<tag k="name" v="Kartmyrkjerr" />
		<tag k="natural" v="wetland" />
		<tag k="ssr:stedsnr" v="812856" />
	</node>
	<node id="-482682" lat="58.7717444418" lon="9.35234999933">
		<tag k="name" v="Lyngmyr" />
		<tag k="natural" v="wetland" />
		<tag k="ssr:stedsnr" v="326357" />
	</node>
	<node id="-482681" lat="58.7660833313" lon="9.32775555732">
		<tag k="name" v="Hommstøa" />
		<tag k="place" v="locality" />
		<tag k="ssr:stedsnr" v="326354" />
	</node>
	<node id="-482679" lat="58.7882833333" lon="9.0740111102">
		<tag k="name" v="Vestgarden" />
		<tag k="place" v="locality" />
		<tag k="ssr:stedsnr" v="326189" />
	</node>
	<node id="-483190" lat="58.7635583305" lon="9.30209444819">
		<tag k="name" v="Hødnebømyra" />
		<tag k="natural" v="wetland" />
		<tag k="ssr:stedsnr" v="812502" />
	</node>
	<node id="-483189" lat="58.768094445" lon="9.30843888465">
		<tag k="name" v="Karismyr" />
		<tag k="natural" v="wetland" />
		<tag k="ssr:stedsnr" v="812492" />
	</node>
	<node id="-483186" lat="58.7816444466" lon="9.23774443884">
		<tag k="name" v="Brattlimyr" />
		<tag k="natural" v="wetland" />
		<tag k="ssr:stedsnr" v="812477" />
	</node>
	<node id="-483181" lat="58.799233334" lon="9.16227500068">
		<tag k="name" v="Dinglekjerr" />
		<tag k="natural" v="wetland" />
		<tag k="ssr:stedsnr" v="812416" />
	</node>
	<node id="-482152" lat="58.7033194429" lon="9.17836666842">
		<tag k="name" v="Skibmyra" />
		<tag k="natural" v="wetland" />
		<tag k="ssr:stedsnr" v="934081" />
	</node>
	<node id="-482620" lat="58.7034916684" lon="9.14650554884">
		<tag k="name" v="Husmyr" />
		<tag k="natural" v="wetland" />
		<tag k="ssr:stedsnr" v="205855" />
	</node>
	<node id="-482150" lat="58.6972722199" lon="9.00647222615">
		<tag k="name" v="Bordalskjerret" />
		<tag k="natural" v="wetland" />
		<tag k="ssr:stedsnr" v="933988" />
	</node>
	<node id="-482149" lat="58.7030833358" lon="9.02546944329">
		<tag k="name" v="Kvernjorde" />
		<tag k="place" v="locality" />
		<tag k="ssr:stedsnr" v="933987" />
	</node>
	<node id="-481636" lat="58.7621333351" lon="9.05207222814">
		<tag k="name" v="Almannmyra" />
		<tag k="natural" v="wetland" />
		<tag k="ssr:stedsnr" v="326807" />
	</node>
	<node id="-482146" lat="58.7454305561" lon="9.03930277915">
		<tag k="name" v="Lindmyr" />
		<tag k="natural" v="wetland" />
		<tag k="ssr:stedsnr" v="933964" />
	</node>
	<node id="-481851" lat="58.7172055549" lon="8.97475833749">
		<tag k="name" v="Hesttjennmyr" />
		<tag k="natural" v="wetland" />
		<tag k="ssr:stedsnr" v="508886" />
	</node>
	<node id="-483168" lat="58.7792222214" lon="9.27598889195">
		<tag k="name" v="Hoppeslåtta" />
		<tag k="place" v="locality" />
		<tag k="ssr:stedsnr" v="812334" />
	</node>
	<node id="-482142" lat="58.7007916701" lon="9.06073055031">
		<tag k="name" v="Byttingsmyra" />
		<tag k="place" v="locality" />
		<tag k="ssr:stedsnr" v="933789" />
	</node>
	<node id="-481628" lat="58.6576527748" lon="9.12413611241">
		<tag k="name" v="Gåsemyr" />
		<tag k="natural" v="wetland" />
		<tag k="ssr:stedsnr" v="326317" />
	</node>
	<node id="-483163" lat="58.6624694439" lon="9.11871945056">
		<tag k="name" v="Saltrømyrene" />
		<tag k="place" v="locality" />
		<tag k="ssr:stedsnr" v="812296" />
	</node>
	<node id="-483161" lat="58.6852611141" lon="9.13854165854">
		<tag k="name" v="Hagane" />
		<tag k="place" v="locality" />
		<tag k="ssr:stedsnr" v="812290" />
	</node>
	<node id="-482136" lat="58.7036083355" lon="9.13026388065">
		<tag k="name" v="Gartemyrkrokene" />
		<tag k="place" v="locality" />
		<tag k="ssr:stedsnr" v="933870" />
	</node>
	<node id="-482132" lat="58.7873083289" lon="9.21748055921">
		<tag k="name" v="Røybekkmyra" />
		<tag k="natural" v="wetland" />
		<tag k="ssr:stedsnr" v="933481" />
	</node>
	<node id="-483154" lat="58.7886555515" lon="9.07039445114">
		<tag k="name" v="Hestehagen" />
		<tag k="place" v="locality" />
		<tag k="ssr:stedsnr" v="812217" />
	</node>
	<node id="-483153" lat="58.788263893" lon="9.07958889411">
		<tag k="name" v="Dalane" />
		<tag k="place" v="locality" />
		<tag k="ssr:stedsnr" v="812215" />
	</node>
	<node id="-482126" lat="58.68449167" lon="9.11550833176">
		<tag k="name" v="Småmyrene" />
		<tag k="natural" v="wetland" />
		<tag k="ssr:stedsnr" v="933278" />
	</node>
	<node id="-482124" lat="58.7779444443" lon="9.33208332492">
		<tag k="name" v="Søndre Kallarbergmyra" />
		<tag k="natural" v="wetland" />
		<tag k="ssr:stedsnr" v="933374" />
	</node>
	<node id="-482635" lat="58.7085638907" lon="9.16116666008">
		<tag k="name" v="Dypdalsmyra" />
		<tag k="place" v="locality" />
		<tag k="ssr:stedsnr" v="206100" />
	</node>
	<node id="-483144" lat="58.7037500037" lon="9.19498054829">
		<tag k="name" v="Oterura" />
		<tag k="natural" v="scree" />
		<tag k="ssr:stedsnr" v="812077" />
	</node>
	<node id="-483143" lat="58.6929250026" lon="9.19903333848">
		<tag k="name" v="Blåkjerret" />
		<tag k="natural" v="wetland" />
		<tag k="ssr:stedsnr" v="812069" />
	</node>
	<node id="-482630" lat="58.7590000014" lon="9.04140000033">
		<tag k="name" v="Kløftekjerr" />
		<tag k="natural" v="wetland" />
		<tag k="ssr:stedsnr" v="205953" />
	</node>
	<node id="-482629" lat="58.726372221" lon="9.01754999956">
		<tag k="name" v="Jenseskjerr" />
>>>>>>> e1d4bc35ff8a6074a6f2e91616a996b547c36f15
		<tag k="natural" v="wetland" />
		<tag k="ssr:stedsnr" v="205902" />
	</node>
<<<<<<< HEAD
	<node lat="58.680597226393544" lon="9.106566659381345" id="-21266">
		<tag k="name" v="Kjerrmyra" />
		<tag k="natural" v="wetland" />
		<tag k="ssr:stedsnr" v="84285" />
	</node>
	<node lat="58.76443889111329" lon="9.082797215009915" id="-21278">
		<tag k="name" v="Skibrei" />
		<tag k="place" v="locality" />
		<tag k="ssr:stedsnr" v="84824" />
	</node>
	<node lat="58.71486110790605" lon="8.980327771534023" id="-21285">
		<tag k="name" v="Store Venemyr" />
		<tag k="natural" v="wetland" />
		<tag k="ssr:stedsnr" v="84892" />
	</node>
	<node lat="58.67247221866315" lon="9.122338888355655" id="-21314">
		<tag k="name" v="Langemyr" />
		<tag k="natural" v="wetland" />
		<tag k="ssr:stedsnr" v="144285" />
	</node>
	<node lat="58.659908329238725" lon="9.116380551932444" id="-21318">
		<tag k="name" v="Opstad" />
		<tag k="place" v="locality" />
		<tag k="ssr:stedsnr" v="144307" />
	</node>
	<node lat="58.769558331372465" lon="9.336272222364178" id="-21327">
		<tag k="name" v="Skrubbemyr" />
		<tag k="natural" v="wetland" />
		<tag k="ssr:stedsnr" v="144353" />
	</node>
	<node lat="58.75318611504799" lon="9.288191672720009" id="-21331">
		<tag k="name" v="Øygardsmyra" />
		<tag k="natural" v="wetland" />
		<tag k="ssr:stedsnr" v="144505" />
	</node>
	<node lat="58.75698333266592" lon="9.280852784871493" id="-21341">
		<tag k="name" v="Omdalsmyrene" />
		<tag k="natural" v="wetland" />
		<tag k="ssr:stedsnr" v="144498" />
	</node>
	<node lat="58.75921944368785" lon="9.290616664354296" id="-21342">
		<tag k="name" v="Spetmyr" />
		<tag k="natural" v="wetland" />
		<tag k="ssr:stedsnr" v="144500" />
	</node>
	<node lat="58.764691667824636" lon="9.04525833160111" id="-21344">
		<tag k="name" v="Snøkjerr" />
		<tag k="natural" v="wetland" />
		<tag k="ssr:stedsnr" v="144989" />
	</node>
	<node lat="58.75771388548094" lon="9.01743332537254" id="-21346">
		<tag k="name" v="Moltekjerr" />
		<tag k="natural" v="wetland" />
		<tag k="ssr:stedsnr" v="144999" />
	</node>
	<node lat="58.790697218427354" lon="9.212275006829278" id="-21350">
		<tag k="name" v="Rødbekkmyra" />
		<tag k="natural" v="wetland" />
		<tag k="ssr:stedsnr" v="326452" />
	</node>
	<node lat="58.79260556002863" lon="9.180330555673057" id="-21354">
		<tag k="name" v="Sandviksmyrene" />
		<tag k="natural" v="wetland" />
		<tag k="ssr:stedsnr" v="326456" />
	</node>
	<node lat="58.677802775064166" lon="9.172780550929355" id="-21360">
		<tag k="name" v="Granstølkjerret" />
		<tag k="natural" v="wetland" />
		<tag k="ssr:stedsnr" v="266027" />
	</node>
	<node lat="58.71189166780147" lon="9.171111105252022" id="-21367">
		<tag k="name" v="Lille Hestemyr" />
		<tag k="natural" v="wetland" />
		<tag k="ssr:stedsnr" v="266059" />
	</node>
	<node lat="58.68066944481831" lon="9.089555556425367" id="-21372">
		<tag k="name" v="Grimslandsmyra" />
		<tag k="natural" v="wetland" />
		<tag k="ssr:stedsnr" v="266249" />
	</node>
	<node lat="58.68467500337401" lon="9.131336103881267" id="-21378">
		<tag k="name" v="Geitestaua" />
		<tag k="place" v="locality" />
		<tag k="ssr:stedsnr" v="266278" />
	</node>
	<node lat="58.78351666994768" lon="9.251569439319827" id="-21380">
		<tag k="name" v="Skiftingsmyrene" />
		<tag k="natural" v="wetland" />
		<tag k="ssr:stedsnr" v="266423" />
	</node>
	<node lat="58.76745833610352" lon="9.3203666718588" id="-21389">
		<tag k="name" v="Storemyr" />
		<tag k="natural" v="wetland" />
		<tag k="ssr:stedsnr" v="266448" />
	</node>
	<node lat="58.76504999836184" lon="9.320786117671338" id="-21392">
		<tag k="name" v="Moltemyr" />
		<tag k="natural" v="wetland" />
		<tag k="ssr:stedsnr" v="266460" />
	</node>
	<node lat="58.75279722272505" lon="9.273419442707713" id="-21395">
		<tag k="name" v="Sortmyr" />
		<tag k="natural" v="wetland" />
		<tag k="ssr:stedsnr" v="266473" />
	</node>
	<node lat="58.705241670917296" lon="9.153980562666513" id="-21399">
		<tag k="name" v="Tremyr" />
		<tag k="natural" v="wetland" />
		<tag k="ssr:stedsnr" v="266847" />
	</node>
	<node lat="58.71486944246949" lon="9.070827780990259" id="-21402">
		<tag k="name" v="Hagane" />
		<tag k="place" v="locality" />
		<tag k="ssr:stedsnr" v="266766" />
	</node>
	<node lat="58.716827781086494" lon="9.083219451158728" id="-21403">
		<tag k="name" v="Holland" />
		<tag k="place" v="locality" />
		<tag k="ssr:stedsnr" v="266767" />
	</node>
	<node lat="58.73016666609156" lon="9.020147229131515" id="-21404">
		<tag k="name" v="Hollendermyra" />
		<tag k="natural" v="wetland" />
		<tag k="ssr:stedsnr" v="266888" />
	</node>
	<node lat="58.70939166453658" lon="9.032433337012952" id="-21410">
		<tag k="name" v="Kvernmyr" />
		<tag k="natural" v="wetland" />
		<tag k="ssr:stedsnr" v="266985" />
	</node>
	<node lat="58.77012777658323" lon="9.013886109924915" id="-21412">
		<tag k="name" v="Holbekkmyra" />
		<tag k="natural" v="wetland" />
		<tag k="ssr:stedsnr" v="266991" />
	</node>
	<node lat="58.72641666612026" lon="9.0630916742331" id="-21413">
		<tag k="name" v="Urene" />
		<tag k="natural" v="scree" />
		<tag k="ssr:stedsnr" v="266958" />
	</node>
	<node lat="58.70571667070656" lon="9.001041666471197" id="-21416">
		<tag k="name" v="Hestemyr" />
		<tag k="natural" v="wetland" />
		<tag k="ssr:stedsnr" v="266977" />
	</node>
	<node lat="58.72771111067851" lon="9.171216670324641" id="-21420">
		<tag k="name" v="Porsmyr" />
		<tag k="natural" v="wetland" />
		<tag k="ssr:stedsnr" v="205007" />
	</node>
	<node lat="58.75313889254127" lon="9.210499998746263" id="-21426">
		<tag k="name" v="Stembråtmyra" />
		<tag k="natural" v="wetland" />
		<tag k="ssr:stedsnr" v="205118" />
	</node>
	<node lat="58.780163886588284" lon="9.01187221782761" id="-21439">
		<tag k="name" v="Villiamsmyr" />
		<tag k="natural" v="wetland" />
		<tag k="ssr:stedsnr" v="205289" />
	</node>
	<node lat="58.678599996503905" lon="9.127711108710798" id="-21441">
		<tag k="name" v="Sankerkjerrene" />
		<tag k="natural" v="wetland" />
		<tag k="ssr:stedsnr" v="205298" />
	</node>
	<node lat="58.67998610899701" lon="9.110894438685838" id="-21442">
		<tag k="name" v="Bastkjerr" />
		<tag k="natural" v="wetland" />
		<tag k="ssr:stedsnr" v="205300" />
	</node>
	<node lat="58.79290833696601" lon="9.245269437537733" id="-21446">
		<tag k="name" v="Slettheimyra" />
		<tag k="natural" v="wetland" />
		<tag k="ssr:stedsnr" v="205481" />
	</node>
	<node lat="58.726372220962375" lon="9.017549999555673" id="-21458">
		<tag k="name" v="Jenseskjerr" />
		<tag k="natural" v="wetland" />
		<tag k="ssr:stedsnr" v="205902" />
	</node>
	<node lat="58.7688861096682" lon="9.138749994774747" id="-21465">
		<tag k="name" v="Kvernhusmarka" />
		<tag k="place" v="locality" />
		<tag k="ssr:stedsnr" v="243385" />
	</node>
	<node lat="58.724105556138724" lon="9.003919446983764" id="-21474">
		<tag k="name" v="Moltekjerr" />
		<tag k="natural" v="wetland" />
		<tag k="ssr:stedsnr" v="265894" />
	</node>
	<node lat="58.78877221948659" lon="9.12666944857259" id="-21499">
		<tag k="name" v="Bråtebua" />
		<tag k="place" v="locality" />
		<tag k="ssr:stedsnr" v="266239" />
	</node>
	<node lat="58.794166670664055" lon="9.25795556182341" id="-21502">
		<tag k="name" v="Hellermyra" />
		<tag k="natural" v="wetland" />
		<tag k="ssr:stedsnr" v="266418" />
	</node>
	<node lat="58.765313886684844" lon="9.087297215767839" id="-21512">
		<tag k="name" v="Pålsmyr" />
		<tag k="place" v="locality" />
		<tag k="ssr:stedsnr" v="266808" />
	</node>
	<node lat="58.76179722397786" lon="9.085808326859986" id="-21513">
		<tag k="name" v="Dukane" />
		<tag k="place" v="locality" />
		<tag k="ssr:stedsnr" v="266809" />
	</node>
	<node lat="58.763797220482026" lon="9.052763882965287" id="-21515">
		<tag k="name" v="Diplemyr" />
		<tag k="natural" v="wetland" />
		<tag k="ssr:stedsnr" v="266840" />
	</node>
	<node lat="58.80213055407061" lon="9.17708333984223" id="-21522">
		<tag k="name" v="Skiftingsmyra" />
		<tag k="natural" v="wetland" />
		<tag k="ssr:stedsnr" v="508442" />
	</node>
	<node lat="58.78303889227187" lon="9.276941664430957" id="-21556">
		<tag k="name" v="Slåttene" />
=======
	<node id="-481603" lat="58.7091444422" lon="9.1941555621">
		<tag k="name" v="Hestmyr" />
		<tag k="natural" v="wetland" />
		<tag k="ssr:stedsnr" v="449079" />
	</node>
	<node id="-481601" lat="58.7049472198" lon="9.19191666345">
		<tag k="name" v="Storrkjerr" />
		<tag k="natural" v="wetland" />
		<tag k="ssr:stedsnr" v="449071" />
	</node>
	<node id="-482624" lat="58.7020250005" lon="9.09243611865">
		<tag k="name" v="Bjørnkjerr" />
		<tag k="natural" v="wetland" />
		<tag k="ssr:stedsnr" v="205869" />
	</node>
	<node id="-482272" lat="58.7966833309" lon="9.1528499999">
		<tag k="name" v="Øygardsmyra" />
		<tag k="natural" v="wetland" />
		<tag k="ssr:stedsnr" v="23259" />
	</node>
	<node id="-482621" lat="58.7032666678" lon="9.12764445041">
		<tag k="name" v="Bukkebladkjerr" />
		<tag k="natural" v="wetland" />
		<tag k="ssr:stedsnr" v="205860" />
	</node>
	<node id="-481596" lat="58.7575555561" lon="9.04685277137">
		<tag k="name" v="Vestre Skurstemkjerr" />
		<tag k="natural" v="wetland" />
		<tag k="ssr:stedsnr" v="448958" />
	</node>
	<node id="-483279" lat="58.7005638933" lon="9.01222778256">
		<tag k="name" v="Dalansmyra" />
		<tag k="place" v="locality" />
		<tag k="ssr:stedsnr" v="872982" />
	</node>
	<node id="-482615" lat="58.7632694483" lon="9.09881111306">
		<tag k="name" v="Bjørnemyr" />
		<tag k="natural" v="wetland" />
		<tag k="ssr:stedsnr" v="205822" />
	</node>
	<node id="-482185" lat="58.761588885" lon="9.06015555387">
		<tag k="name" v="Nedre Mollkleivkjerr" />
		<tag k="natural" v="wetland" />
		<tag k="ssr:stedsnr" v="872815" />
	</node>
	<node id="-481502" lat="58.7052416709" lon="9.15398056267">
		<tag k="name" v="Tremyr" />
		<tag k="natural" v="wetland" />
		<tag k="ssr:stedsnr" v="266847" />
	</node>
	<node id="-482098" lat="58.7302722214" lon="9.20304999409">
		<tag k="name" v="Stormyr" />
		<tag k="natural" v="wetland" />
		<tag k="ssr:stedsnr" v="933057" />
	</node>
	<node id="-481584" lat="58.7061527769" lon="9.14657778464">
		<tag k="name" v="Kartmyr" />
		<tag k="natural" v="wetland" />
		<tag k="ssr:stedsnr" v="448863" />
	</node>
	<node id="-481582" lat="58.7826027734" lon="9.25559999915">
		<tag k="name" v="Slettheikilen" />
		<tag k="natural" v="wetland" />
		<tag k="ssr:stedsnr" v="448472" />
	</node>
	<node id="-481580" lat="58.7845611125" lon="9.23073334047">
		<tag k="name" v="Gograsmyra" />
		<tag k="natural" v="wetland" />
		<tag k="ssr:stedsnr" v="448465" />
	</node>
	<node id="-481578" lat="58.7914583297" lon="9.25683055647">
		<tag k="name" v="Sevaldsmyra" />
		<tag k="natural" v="wetland" />
		<tag k="ssr:stedsnr" v="448461" />
	</node>
	<node id="-483142" lat="58.6919444404" lon="9.19734999644">
		<tag k="name" v="Blåbærmarka" />
		<tag k="place" v="locality" />
		<tag k="ssr:stedsnr" v="812065" />
	</node>
	<node id="-481576" lat="58.799408334" lon="9.18810832831">
		<tag k="name" v="Krokvassmyra" />
		<tag k="natural" v="wetland" />
		<tag k="ssr:stedsnr" v="448439" />
	</node>
	<node id="-481420" lat="58.6778027751" lon="9.17278055093">
		<tag k="name" v="Granstølkjerret" />
		<tag k="natural" v="wetland" />
		<tag k="ssr:stedsnr" v="266027" />
	</node>
	<node id="-482598" lat="58.792908337" lon="9.24526943754">
		<tag k="name" v="Slettheimyra" />
		<tag k="natural" v="wetland" />
		<tag k="ssr:stedsnr" v="205481" />
	</node>
	<node id="-483109" lat="58.7093833374" lon="8.99751665993">
		<tag k="name" v="Myrbu" />
		<tag k="natural" v="wetland" />
		<tag k="ssr:stedsnr" v="752967" />
	</node>
	<node id="-481533" lat="58.8019861096" lon="9.14232500117">
		<tag k="name" v="Ramsåsmyra" />
		<tag k="natural" v="wetland" />
		<tag k="ssr:stedsnr" v="205219" />
	</node>
	<node id="-482438" lat="58.713452774" lon="9.16497499809">
		<tag k="name" v="Store Hestemyr" />
		<tag k="natural" v="wetland" />
		<tag k="ssr:stedsnr" v="144061" />
	</node>
	<node id="-481570" lat="58.6804222188" lon="9.11833611918">
		<tag k="name" v="Eikmyrene" />
		<tag k="natural" v="wetland" />
		<tag k="ssr:stedsnr" v="448290" />
	</node>
	<node id="-481566" lat="58.7787333323" lon="9.11813888928">
		<tag k="name" v="Bjordammen" />
		<tag k="place" v="locality" />
		<tag k="ssr:stedsnr" v="448257" />
	</node>
	<node id="-481413" lat="58.7241055561" lon="9.00391944698">
		<tag k="name" v="Moltekjerr" />
		<tag k="natural" v="wetland" />
		<tag k="ssr:stedsnr" v="265894" />
	</node>
	<node id="-483099" lat="58.7423194408" lon="9.02350554727">
		<tag k="name" v="Askekjerr" />
		<tag k="natural" v="wetland" />
		<tag k="ssr:stedsnr" v="751973" />
	</node>
	<node id="-482585" lat="58.7683277759" lon="9.35311110847">
		<tag k="name" v="Slettemyr" />
		<tag k="natural" v="wetland" />
		<tag k="ssr:stedsnr" v="205377" />
	</node>
	<node id="-482580" lat="58.679986109" lon="9.11089443869">
		<tag k="name" v="Bastkjerr" />
		<tag k="natural" v="wetland" />
		<tag k="ssr:stedsnr" v="205300" />
	</node>
	<node id="-483091" lat="58.7189250034" lon="9.06341389469">
		<tag k="name" v="Spitvikmyra" />
		<tag k="natural" v="wetland" />
		<tag k="ssr:stedsnr" v="751817" />
	</node>
	<node id="-482577" lat="58.7801638866" lon="9.01187221783">
		<tag k="name" v="Villiamsmyr" />
		<tag k="natural" v="wetland" />
		<tag k="ssr:stedsnr" v="205289" />
	</node>
	<node id="-481496" lat="58.7653138867" lon="9.08729721577">
		<tag k="name" v="Pålsmyr" />
		<tag k="place" v="locality" />
		<tag k="ssr:stedsnr" v="266808" />
	</node>
	<node id="-482574" lat="58.6860749987" lon="9.14246110538">
		<tag k="name" v="Hopemyra" />
		<tag k="natural" v="wetland" />
		<tag k="ssr:stedsnr" v="205275" />
	</node>
	<node id="-482313" lat="58.7619388933" lon="9.04739999923">
		<tag k="name" v="Kartmyr" />
		<tag k="natural" v="wetland" />
		<tag k="ssr:stedsnr" v="23997" />
	</node>
	<node id="-481542" lat="58.7040722189" lon="9.0609222136">
		<tag k="alt_name" v="Bromsmyr" />
		<tag k="name" v="Bromsmyra" />
		<tag k="natural" v="wetland" />
		<tag k="ssr:stedsnr" v="243622" />
	</node>
	<node id="-483075" lat="58.8051861071" lon="9.1910138889">
		<tag k="name" v="Den runde myra" />
		<tag k="natural" v="wetland" />
		<tag k="ssr:stedsnr" v="751441" />
	</node>
	<node id="-483074" lat="58.7981499993" lon="9.21392222831">
		<tag k="name" v="Bjordamsmyra" />
		<tag k="natural" v="wetland" />
		<tag k="ssr:stedsnr" v="751438" />
	</node>
	<node id="-483073" lat="58.8078777782" lon="9.18517500579">
		<tag k="name" v="Berulfsmyr" />
		<tag k="natural" v="wetland" />
		<tag k="ssr:stedsnr" v="751425" />
	</node>
	<node id="-481521" lat="58.7650805598" lon="9.06373611682">
		<tag k="name" v="Bjørnekjerra" />
		<tag k="natural" v="wetland" />
		<tag k="ssr:stedsnr" v="326810" />
	</node>
	<node id="-482559" lat="58.7555416669" lon="9.1967916588">
		<tag k="name" v="Jordbærflaten" />
		<tag k="place" v="locality" />
		<tag k="ssr:stedsnr" v="205121" />
	</node>
	<node id="-482558" lat="58.7531388925" lon="9.21049999875">
		<tag k="name" v="Stembråtmyra" />
		<tag k="natural" v="wetland" />
		<tag k="ssr:stedsnr" v="205118" />
	</node>
	<node id="-483069" lat="58.776483336" lon="9.35106388067">
		<tag k="name" v="Bronmyr" />
		<tag k="natural" v="wetland" />
		<tag k="ssr:stedsnr" v="751366" />
	</node>
	<node id="-482552" lat="58.6765194409" lon="9.16470277841">
		<tag k="name" v="Bjørnehiet" />
		<tag k="natural" v="scree" />
		<tag k="ssr:stedsnr" v="205028" />
	</node>
	<node id="-482550" lat="58.7277111107" lon="9.17121667032">
		<tag k="name" v="Porsmyr" />
		<tag k="natural" v="wetland" />
		<tag k="ssr:stedsnr" v="205007" />
	</node>
	<node id="-483061" lat="58.6794138871" lon="9.18129444995">
		<tag k="name" v="Kobbervika" />
		<tag k="place" v="locality" />
		<tag k="ssr:stedsnr" v="751242" />
	</node>
	<node id="-481524" lat="58.6713694489" lon="9.18789999808">
		<tag k="name" v="Vassvit" />
		<tag k="natural" v="wetland" />
		<tag k="ssr:stedsnr" v="144026" />
	</node>
	<node id="-482033" lat="58.7048555535" lon="9.15244999696">
		<tag k="name" v="Fjøsmyr" />
		<tag k="natural" v="wetland" />
		<tag k="ssr:stedsnr" v="690857" />
	</node>
	<node id="-481518" lat="58.7701277766" lon="9.01388610992">
		<tag k="name" v="Holbekkmyra" />
		<tag k="natural" v="wetland" />
		<tag k="ssr:stedsnr" v="266991" />
	</node>
	<node id="-482685" lat="58.7830388923" lon="9.27694166443">
		<tag k="name" v="Slåttene" />
		<tag k="natural" v="wetland" />
		<tag k="ssr:stedsnr" v="326376" />
	</node>
	<node id="-481516" lat="58.7093916645" lon="9.03243333701">
		<tag k="name" v="Kvernmyr" />
		<tag k="natural" v="wetland" />
		<tag k="ssr:stedsnr" v="266985" />
	</node>
	<node id="-481515" lat="58.7057166707" lon="9.00104166647">
		<tag k="name" v="Hestemyr" />
		<tag k="natural" v="wetland" />
		<tag k="ssr:stedsnr" v="266977" />
	</node>
	<node id="-481793" lat="58.7654444443" lon="9.27748611903">
		<tag k="name" v="Styggekjerr" />
		<tag k="natural" v="wetland" />
		<tag k="ssr:stedsnr" v="448503" />
	</node>
	<node id="-481512" lat="58.7264166661" lon="9.06309167423">
		<tag k="name" v="Urene" />
		<tag k="natural" v="scree" />
		<tag k="ssr:stedsnr" v="266958" />
	</node>
	<node id="-481508" lat="58.7301666661" lon="9.02014722913">
		<tag k="name" v="Hollendermyra" />
		<tag k="natural" v="wetland" />
		<tag k="ssr:stedsnr" v="266888" />
	</node>
	<node id="-482526" lat="58.7031888879" lon="8.98695277648">
		<tag k="name" v="Kariskjerr" />
		<tag k="natural" v="wetland" />
		<tag k="ssr:stedsnr" v="145892" />
	</node>
	<node id="-481500" lat="58.7637972205" lon="9.05276388297">
		<tag k="name" v="Diplemyr" />
		<tag k="natural" v="wetland" />
		<tag k="ssr:stedsnr" v="266840" />
	</node>
	<node id="-482523" lat="58.7072361115" lon="9.19313054965">
		<tag k="name" v="Langemyr" />
		<tag k="natural" v="wetland" />
		<tag k="ssr:stedsnr" v="145095" />
	</node>
	<node id="-481497" lat="58.761797224" lon="9.08580832686">
		<tag k="name" v="Dukane" />
		<tag k="place" v="locality" />
		<tag k="ssr:stedsnr" v="266809" />
	</node>
	<node id="-482520" lat="58.7577138855" lon="9.01743332537">
		<tag k="name" v="Moltekjerr" />
		<tag k="natural" v="wetland" />
		<tag k="ssr:stedsnr" v="144999" />
	</node>
	<node id="-482518" lat="58.7646916678" lon="9.0452583316">
		<tag k="name" v="Snøkjerr" />
		<tag k="natural" v="wetland" />
		<tag k="ssr:stedsnr" v="144989" />
	</node>
	<node id="-481493" lat="58.7168277811" lon="9.08321945116">
		<tag k="name" v="Holland" />
		<tag k="place" v="locality" />
		<tag k="ssr:stedsnr" v="266767" />
	</node>
	<node id="-481492" lat="58.7148694425" lon="9.07082778099">
		<tag k="name" v="Hagane" />
		<tag k="place" v="locality" />
		<tag k="ssr:stedsnr" v="266766" />
	</node>
	<node id="-482513" lat="58.728655557" lon="9.03680555884">
		<tag k="name" v="Hegna" />
		<tag k="place" v="locality" />
		<tag k="ssr:stedsnr" v="144880" />
	</node>
	<node id="-481400" lat="58.7644388911" lon="9.08279721501">
		<tag k="name" v="Skibrei" />
		<tag k="place" v="locality" />
		<tag k="ssr:stedsnr" v="84824" />
	</node>
	<node id="-481483" lat="58.7527972227" lon="9.27341944271">
		<tag k="name" v="Sortmyr" />
		<tag k="natural" v="wetland" />
		<tag k="ssr:stedsnr" v="266473" />
	</node>
	<node id="-482505" lat="58.7236555518" lon="9.13909444725">
		<tag k="name" v="Nauteneskjerka" />
		<tag k="natural" v="stone" />
		<tag k="ssr:stedsnr" v="144791" />
	</node>
	<node id="-481992" lat="58.7016555512" lon="8.9874972291">
		<tag k="name" v="Buksekjerr" />
		<tag k="natural" v="wetland" />
		<tag k="ssr:stedsnr" v="630872" />
	</node>
	<node id="-481990" lat="58.700677779" lon="9.09619999831">
		<tag k="name" v="Slåttekjerr" />
		<tag k="natural" v="wetland" />
		<tag k="ssr:stedsnr" v="629866" />
	</node>
	<node id="-481477" lat="58.7674583361" lon="9.32036667186">
		<tag k="name" v="Storemyr" />
		<tag k="natural" v="wetland" />
		<tag k="ssr:stedsnr" v="266448" />
	</node>
	<node id="-483012" lat="58.6697305545" lon="9.13077221531">
		<tag k="name" v="Bjormyr" />
		<tag k="natural" v="wetland" />
		<tag k="ssr:stedsnr" v="629281" />
	</node>
	<node id="-483010" lat="58.7912527768" lon="9.22877500403">
		<tag k="name" v="Tranbærmyra" />
		<tag k="natural" v="wetland" />
		<tag k="ssr:stedsnr" v="629446" />
	</node>
	<node id="-481472" lat="58.7835166699" lon="9.25156943932">
		<tag k="name" v="Skiftingsmyrene" />
		<tag k="natural" v="wetland" />
		<tag k="ssr:stedsnr" v="266423" />
	</node>
	<node id="-481983" lat="58.703488887" lon="9.06896389696">
		<tag k="name" v="Skårbumyra" />
>>>>>>> e1d4bc35ff8a6074a6f2e91616a996b547c36f15
		<tag k="natural" v="wetland" />
		<tag k="ssr:stedsnr" v="326376" />
	</node>
<<<<<<< HEAD
	<node lat="58.78275555958385" lon="9.288769439161305" id="-21557">
		<tag k="name" v="Korskjerr" />
		<tag k="natural" v="wetland" />
		<tag k="ssr:stedsnr" v="326380" />
	</node>
	<node lat="58.7574861066969" lon="9.273477779293874" id="-21558">
		<tag k="name" v="Korsmyr" />
=======
	<node id="-482493" lat="58.753186115" lon="9.28819167272">
		<tag k="name" v="Øygardsmyra" />
		<tag k="natural" v="wetland" />
		<tag k="ssr:stedsnr" v="144505" />
	</node>
	<node id="-482492" lat="58.7592194437" lon="9.29061666435">
		<tag k="name" v="Spetmyr" />
>>>>>>> e1d4bc35ff8a6074a6f2e91616a996b547c36f15
		<tag k="natural" v="wetland" />
		<tag k="ssr:stedsnr" v="144500" />
	</node>
<<<<<<< HEAD
	<node lat="58.70020277644432" lon="9.088980560236806" id="-21569">
		<tag k="name" v="Rundkjerr" />
		<tag k="natural" v="wetland" />
		<tag k="ssr:stedsnr" v="326770" />
	</node>
	<node lat="58.762133335105666" lon="9.052072228138421" id="-21572">
		<tag k="name" v="Almannmyra" />
		<tag k="natural" v="wetland" />
		<tag k="ssr:stedsnr" v="326807" />
	</node>
	<node lat="58.76508055980842" lon="9.063736116817232" id="-21573">
		<tag k="name" v="Bjørnekjerra" />
		<tag k="natural" v="wetland" />
		<tag k="ssr:stedsnr" v="326810" />
	</node>
	<node lat="58.71178055946967" lon="8.97866389220207" id="-21574">
		<tag k="name" v="Lille Venemyr" />
		<tag k="natural" v="wetland" />
		<tag k="ssr:stedsnr" v="327819" />
	</node>
	<node lat="58.76781111164971" lon="9.2598999998126" id="-21594">
		<tag k="name" v="Knutmyra" />
		<tag k="natural" v="wetland" />
		<tag k="ssr:stedsnr" v="387119" />
	</node>
	<node lat="58.75914999731876" lon="9.138944441248588" id="-21598">
		<tag k="name" v="Orekjerr" />
=======
	<node id="-482491" lat="58.7569833327" lon="9.28085278487">
		<tag k="name" v="Omdalsmyrene" />
		<tag k="natural" v="wetland" />
		<tag k="ssr:stedsnr" v="144498" />
	</node>
	<node id="-482489" lat="58.7999500037" lon="9.20145000309">
		<tag k="name" v="Hølsknutmyrene" />
		<tag k="natural" v="wetland" />
		<tag k="ssr:stedsnr" v="144450" />
	</node>
	<node id="-483000" lat="58.7622694414" lon="9.1164027779">
		<tag k="name" v="Endestaven" />
		<tag k="natural" v="stone" />
		<tag k="ssr:stedsnr" v="629138" />
	</node>
	<node id="-481971" lat="58.7729694486" lon="9.16856944638">
		<tag k="name" v="Bjørnmyr" />
		<tag k="natural" v="wetland" />
		<tag k="ssr:stedsnr" v="629076" />
	</node>
	<node id="-482481" lat="58.7572222202" lon="9.22925832544">
		<tag k="name" v="Jomfrulandsmyra" />
>>>>>>> e1d4bc35ff8a6074a6f2e91616a996b547c36f15
		<tag k="natural" v="wetland" />
		<tag k="ssr:stedsnr" v="144400" />
	</node>
<<<<<<< HEAD
	<node lat="58.739911114421155" lon="9.056250005087962" id="-21600">
		<tag k="name" v="Revstømyra" />
		<tag k="natural" v="wetland" />
		<tag k="ssr:stedsnr" v="387195" />
	</node>
	<node lat="58.68268888740654" lon="9.185269445202488" id="-21609">
		<tag k="name" v="Dalen" />
		<tag k="place" v="locality" />
		<tag k="ssr:stedsnr" v="387242" />
	</node>
	<node lat="58.78136944270124" lon="9.154436109129117" id="-21610">
		<tag k="name" v="Jensmyr" />
		<tag k="natural" v="wetland" />
		<tag k="ssr:stedsnr" v="387261" />
	</node>
	<node lat="58.760066665284576" lon="9.31478055551568" id="-21615">
		<tag k="name" v="Lonmyra" />
		<tag k="natural" v="wetland" />
		<tag k="ssr:stedsnr" v="387507" />
	</node>
	<node lat="58.75710000294413" lon="9.314669441014521" id="-21616">
		<tag k="name" v="Einerhagen" />
		<tag k="place" v="locality" />
		<tag k="ssr:stedsnr" v="387508" />
	</node>
	<node lat="58.754788885297344" lon="9.314469452370595" id="-21617">
		<tag k="name" v="Raumyr" />
		<tag k="place" v="locality" />
		<tag k="ssr:stedsnr" v="387519" />
	</node>
	<node lat="58.70364444841146" lon="8.978166668639192" id="-21622">
		<tag k="name" v="Per Steinsen" />
		<tag k="natural" v="stone" />
		<tag k="ssr:stedsnr" v="387976" />
	</node>
	<node lat="58.75973333265747" lon="9.006644449739708" id="-21625">
		<tag k="name" v="Øy-Storemyr" />
		<tag k="natural" v="wetland" />
		<tag k="ssr:stedsnr" v="387998" />
	</node>
	<node lat="58.690552778809256" lon="9.100197221844128" id="-21626">
		<tag k="name" v="Sønderåker" />
		<tag k="place" v="locality" />
		<tag k="ssr:stedsnr" v="387841" />
	</node>
	<node lat="58.67479722144562" lon="9.104880559560534" id="-21664">
		<tag k="name" v="Dørkane" />
		<tag k="place" v="locality" />
		<tag k="ssr:stedsnr" v="448305" />
	</node>
	<node lat="58.67385278159703" lon="9.109883325749571" id="-21665">
		<tag k="name" v="Fuglemyr" />
		<tag k="natural" v="wetland" />
		<tag k="ssr:stedsnr" v="448308" />
	</node>
	<node lat="58.680422218775625" lon="9.118336119175959" id="-21672">
		<tag k="name" v="Eikmyrene" />
		<tag k="natural" v="wetland" />
		<tag k="ssr:stedsnr" v="448290" />
	</node>
	<node lat="58.765444444334896" lon="9.277486119033162" id="-21677">
		<tag k="name" v="Styggekjerr" />
		<tag k="natural" v="wetland" />
		<tag k="ssr:stedsnr" v="448503" />
	</node>
	<node lat="58.6752611086672" lon="9.13960833526543" id="-21705">
		<tag k="name" v="Gloppekjær" />
		<tag k="natural" v="wetland" />
		<tag k="ssr:stedsnr" v="508259" />
	</node>
	<node lat="58.75589721933795" lon="9.269200004979197" id="-21709">
		<tag k="name" v="Lyngmyr" />
		<tag k="natural" v="wetland" />
		<tag k="ssr:stedsnr" v="508112" />
	</node>
	<node lat="58.7849249973907" lon="9.26369166597882" id="-21719">
		<tag k="name" v="Hellikskjerr" />
		<tag k="natural" v="wetland" />
		<tag k="ssr:stedsnr" v="508495" />
	</node>
	<node lat="58.779399995814025" lon="9.217575000473017" id="-21720">
		<tag k="name" v="Nesmyra" />
		<tag k="natural" v="wetland" />
		<tag k="ssr:stedsnr" v="508503" />
	</node>
	<node lat="58.71720555490802" lon="8.97475833748899" id="-21726">
		<tag k="name" v="Hesttjennmyr" />
		<tag k="natural" v="wetland" />
		<tag k="ssr:stedsnr" v="508886" />
	</node>
	<node lat="58.72633333246462" lon="9.014602781220448" id="-21727">
		<tag k="name" v="Diplemyr" />
		<tag k="natural" v="wetland" />
		<tag k="ssr:stedsnr" v="508901" />
	</node>
	<node lat="58.7186638900984" lon="9.098744435950122" id="-21729">
		<tag k="name" v="Blautmyr" />
		<tag k="natural" v="wetland" />
		<tag k="ssr:stedsnr" v="508795" />
	</node>
	<node lat="58.689888888027056" lon="9.226930563601211" id="-21753">
		<tag k="name" v="Laksegrunnsteina" />
		<tag k="natural" v="stone" />
		<tag k="ssr:stedsnr" v="690047" />
	</node>
	<node lat="58.779247220331115" lon="9.06543611961486" id="-21756">
		<tag k="name" v="Småmyrene" />
		<tag k="natural" v="wetland" />
		<tag k="ssr:stedsnr" v="690224" />
	</node>
	<node lat="58.785861109450664" lon="9.200713889774327" id="-21764">
		<tag k="name" v="Midtkilstykket" />
		<tag k="place" v="locality" />
		<tag k="ssr:stedsnr" v="690453" />
	</node>
	<node lat="58.765269447143396" lon="9.136547215279537" id="-21765">
		<tag k="name" v="Hestmyr" />
		<tag k="natural" v="wetland" />
		<tag k="ssr:stedsnr" v="690145" />
	</node>
	<node lat="58.684880559267995" lon="9.185716665249277" id="-21777">
		<tag k="name" v="Brennvikmyra" />
		<tag k="natural" v="wetland" />
		<tag k="ssr:stedsnr" v="690259" />
	</node>
	<node lat="58.763975003811325" lon="9.34374444399946" id="-21781">
		<tag k="name" v="Nepemyr" />
		<tag k="natural" v="wetland" />
		<tag k="ssr:stedsnr" v="690360" />
	</node>
	<node lat="58.82343888617702" lon="9.189708336077732" id="-21783">
		<tag k="name" v="Skarkekjerr" />
		<tag k="natural" v="wetland" />
		<tag k="ssr:stedsnr" v="690366" />
	</node>
	<node lat="58.78483888513354" lon="9.280019444660436" id="-21784">
		<tag k="name" v="Fliskjerr" />
		<tag k="natural" v="wetland" />
		<tag k="ssr:stedsnr" v="690396" />
	</node>
	<node lat="58.710449998636506" lon="9.06211110721122" id="-21791">
		<tag k="name" v="Eikeliskjerr" />
		<tag k="natural" v="wetland" />
		<tag k="ssr:stedsnr" v="690820" />
	</node>
	<node lat="58.70485555346168" lon="9.152449996962561" id="-21796">
		<tag k="name" v="Fjøsmyr" />
		<tag k="natural" v="wetland" />
		<tag k="ssr:stedsnr" v="690857" />
	</node>
	<node lat="58.7448138874584" lon="9.011247229316213" id="-21800">
		<tag k="name" v="Riggusteinen" />
		<tag k="natural" v="stone" />
		<tag k="ssr:stedsnr" v="690953" />
	</node>
	<node lat="58.74388333625505" lon="9.041030557136732" id="-21801">
		<tag k="name" v="Porskjerr" />
		<tag k="natural" v="wetland" />
		<tag k="ssr:stedsnr" v="690966" />
	</node>
	<node lat="58.76419722512495" lon="9.006188889425756" id="-21803">
		<tag k="name" v="Djupmyr" />
		<tag k="natural" v="wetland" />
		<tag k="ssr:stedsnr" v="691000" />
	</node>
	<node lat="58.72239166254037" lon="9.016133331341816" id="-21807">
		<tag k="name" v="Sagmyra" />
		<tag k="natural" v="wetland" />
		<tag k="ssr:stedsnr" v="568881" />
	</node>
	<node lat="58.66358611033909" lon="9.123486113945335" id="-21822">
		<tag k="name" v="Kobbervikmyra" />
		<tag k="natural" v="wetland" />
		<tag k="ssr:stedsnr" v="569280" />
	</node>
	<node lat="58.75581388924507" lon="9.048294449751983" id="-21827">
		<tag k="name" v="Det smale kjerret" />
		<tag k="natural" v="wetland" />
		<tag k="ssr:stedsnr" v="569923" />
	</node>
	<node lat="58.708472220555805" lon="9.027738882270915" id="-21830">
		<tag k="name" v="Kollbotn" />
		<tag k="place" v="locality" />
		<tag k="ssr:stedsnr" v="569974" />
	</node>
	<node lat="58.7267027789414" lon="9.160050007769048" id="-21845">
		<tag k="name" v="Auenskjerr" />
		<tag k="natural" v="wetland" />
		<tag k="ssr:stedsnr" v="629007" />
	</node>
	<node lat="58.79125277682605" lon="9.228775004033512" id="-21865">
		<tag k="name" v="Tranbærmyra" />
		<tag k="natural" v="wetland" />
		<tag k="ssr:stedsnr" v="629446" />
	</node>
	<node lat="58.703488886976274" lon="9.068963896961733" id="-21871">
		<tag k="name" v="Skårbumyra" />
		<tag k="natural" v="wetland" />
		<tag k="ssr:stedsnr" v="629759" />
	</node>
	<node lat="58.77302221825054" lon="9.196647220207582" id="-21897">
		<tag k="name" v="Miansmyr" />
		<tag k="natural" v="wetland" />
		<tag k="ssr:stedsnr" v="690108" />
	</node>
	<node lat="58.68764722282762" lon="9.159702779976923" id="-21901">
		<tag k="name" v="Nipekjerr" />
		<tag k="natural" v="wetland" />
		<tag k="ssr:stedsnr" v="690265" />
	</node>
	<node lat="58.74197221784119" lon="9.073102781824907" id="-21906">
		<tag k="name" v="Blesvikmyra" />
		<tag k="natural" v="wetland" />
		<tag k="ssr:stedsnr" v="690187" />
	</node>
	<node lat="58.76148888801595" lon="9.337747225688746" id="-21911">
		<tag k="name" v="Slåttemyr" />
		<tag k="place" v="locality" />
		<tag k="ssr:stedsnr" v="690382" />
	</node>
	<node lat="58.772683331059135" lon="9.348327776578795" id="-21912">
		<tag k="name" v="Langmyr" />
		<tag k="natural" v="wetland" />
		<tag k="ssr:stedsnr" v="690388" />
	</node>
	<node lat="58.78223610908101" lon="9.28441388641596" id="-21914">
		<tag k="name" v="Kufarkjerret" />
		<tag k="place" v="locality" />
		<tag k="ssr:stedsnr" v="690404" />
	</node>
	<node lat="58.79643889277962" lon="9.204311116690157" id="-21917">
		<tag k="name" v="Rørkjerr" />
		<tag k="natural" v="wetland" />
		<tag k="ssr:stedsnr" v="690462" />
	</node>
	<node lat="58.79113055762188" lon="9.234833337233445" id="-21919">
		<tag k="name" v="Homlebukjerret" />
		<tag k="natural" v="wetland" />
		<tag k="ssr:stedsnr" v="690480" />
	</node>
	<node lat="58.776483336028534" lon="9.351063880669354" id="-21964">
		<tag k="name" v="Bronmyr" />
		<tag k="natural" v="wetland" />
		<tag k="ssr:stedsnr" v="751366" />
	</node>
	<node lat="58.80787777820622" lon="9.185175005785952" id="-21970">
		<tag k="name" v="Berulfsmyr" />
		<tag k="natural" v="wetland" />
		<tag k="ssr:stedsnr" v="751425" />
	</node>
	<node lat="58.718925003351465" lon="9.063413894691603" id="-21975">
		<tag k="name" v="Spitvikmyra" />
		<tag k="natural" v="wetland" />
		<tag k="ssr:stedsnr" v="751817" />
	</node>
	<node lat="58.74231944082901" lon="9.023505547266648" id="-21978">
		<tag k="name" v="Askekjerr" />
=======
	<node id="-481968" lat="58.7267027789" lon="9.16005000777">
		<tag k="name" v="Auenskjerr" />
		<tag k="natural" v="wetland" />
		<tag k="ssr:stedsnr" v="629007" />
	</node>
	<node id="-481480" lat="58.7650499984" lon="9.32078611767">
		<tag k="name" v="Moltemyr" />
		<tag k="natural" v="wetland" />
		<tag k="ssr:stedsnr" v="266460" />
	</node>
	<node id="-482476" lat="58.7695583314" lon="9.33627222236">
		<tag k="name" v="Skrubbemyr" />
		<tag k="natural" v="wetland" />
		<tag k="ssr:stedsnr" v="144353" />
	</node>
	<node id="-481450" lat="58.6806694448" lon="9.08955555643">
		<tag k="name" v="Grimslandsmyra" />
		<tag k="natural" v="wetland" />
		<tag k="ssr:stedsnr" v="266249" />
	</node>
	<node id="-481449" lat="58.7887722195" lon="9.12666944857">
		<tag k="name" v="Bråtebua" />
		<tag k="place" v="locality" />
		<tag k="ssr:stedsnr" v="266239" />
	</node>
	<node id="-482467" lat="58.6599083292" lon="9.11638055193">
		<tag k="name" v="Opstad" />
		<tag k="place" v="locality" />
		<tag k="ssr:stedsnr" v="144307" />
	</node>
	<node id="-482464" lat="58.6724722187" lon="9.12233888836">
		<tag k="name" v="Langemyr" />
		<tag k="natural" v="wetland" />
		<tag k="ssr:stedsnr" v="144285" />
	</node>
	<node id="-482461" lat="58.678163887" lon="9.09870000388">
		<tag k="name" v="Langmyr" />
		<tag k="natural" v="wetland" />
		<tag k="ssr:stedsnr" v="144270" />
	</node>
	<node id="-482970" lat="58.7611166677" lon="9.04103055362">
		<tag k="name" v="Suggekjerr" />
		<tag k="natural" v="wetland" />
		<tag k="ssr:stedsnr" v="569994" />
	</node>
	<node id="-481391" lat="58.7538805552" lon="9.12520555133">
		<tag k="name" v="Rafstø" />
		<tag k="place" v="locality" />
		<tag k="ssr:stedsnr" v="84175" />
	</node>
	<node id="-482967" lat="58.7084722206" lon="9.02773888227">
		<tag k="name" v="Kollbotn" />
		<tag k="place" v="locality" />
		<tag k="ssr:stedsnr" v="569974" />
	</node>
	<node id="-481561" lat="58.7792833318" lon="9.33862221829">
		<tag k="name" v="Greipmyr" />
		<tag k="natural" v="wetland" />
		<tag k="ssr:stedsnr" v="448367" />
	</node>
	<node id="-482964" lat="58.7414638912" lon="9.01061666466">
		<tag k="name" v="Langemyr" />
		<tag k="natural" v="wetland" />
		<tag k="ssr:stedsnr" v="569950" />
	</node>
	<node id="-481938" lat="58.7438833363" lon="9.04103055714">
		<tag k="name" v="Porskjerr" />
		<tag k="natural" v="wetland" />
		<tag k="ssr:stedsnr" v="690966" />
	</node>
	<node id="-482961" lat="58.7558138892" lon="9.04829444975">
		<tag k="name" v="Det smale kjerret" />
		<tag k="natural" v="wetland" />
		<tag k="ssr:stedsnr" v="569923" />
	</node>
	<node id="-481424" lat="58.7118916678" lon="9.17111110525">
		<tag k="name" v="Lille Hestemyr" />
		<tag k="natural" v="wetland" />
		<tag k="ssr:stedsnr" v="266059" />
	</node>
	<node id="-481901" lat="58.7726833311" lon="9.34832777658">
		<tag k="name" v="Langmyr" />
		<tag k="natural" v="wetland" />
		<tag k="ssr:stedsnr" v="690388" />
	</node>
	<node id="-482956" lat="58.7122194438" lon="8.97058333431">
		<tag k="name" v="Bjørkekjerr" />
		<tag k="natural" v="wetland" />
		<tag k="ssr:stedsnr" v="569855" />
	</node>
	<node id="-481691" lat="58.7547888853" lon="9.31446945237">
		<tag k="name" v="Raumyr" />
		<tag k="place" v="locality" />
		<tag k="ssr:stedsnr" v="387519" />
	</node>
	<node id="-482165" lat="58.7720027762" lon="9.21627222035">
		<tag k="name" v="Ospelunden" />
		<tag k="place" v="locality" />
		<tag k="ssr:stedsnr" v="872110" />
	</node>
	<node id="-481927" lat="58.7104499986" lon="9.06211110721">
		<tag k="name" v="Eikeliskjerr" />
		<tag k="natural" v="wetland" />
		<tag k="ssr:stedsnr" v="690820" />
	</node>
	<node id="-482950" lat="58.7620444433" lon="9.05738055842">
		<tag k="name" v="Øvre Mollkleivkjerr" />
		<tag k="natural" v="wetland" />
		<tag k="ssr:stedsnr" v="569779" />
	</node>
	<node id="-482364" lat="58.6805972264" lon="9.10656665938">
		<tag k="name" v="Kjerrmyra" />
		<tag k="natural" v="wetland" />
		<tag k="ssr:stedsnr" v="84285" />
	</node>
	<node id="-482557" lat="58.6895944471" lon="9.19276389299">
		<tag k="name" v="Ønderåsmyra" />
		<tag k="natural" v="wetland" />
		<tag k="ssr:stedsnr" v="205076" />
	</node>
	<node id="-481406" lat="58.7466972235" lon="9.02329999538">
		<tag k="name" v="Roligheta" />
		<tag k="place" v="locality" />
		<tag k="ssr:stedsnr" v="84966" />
	</node>
	<node id="-481405" lat="58.7489861153" lon="9.03028610766">
		<tag k="name" v="Vestre Klomrekjerr" />
		<tag k="natural" v="wetland" />
		<tag k="ssr:stedsnr" v="84965" />
	</node>
	<node id="-481384" lat="58.7796138925" lon="9.17623611732">
		<tag k="name" v="Bjørndalsmyr" />
		<tag k="natural" v="wetland" />
		<tag k="ssr:stedsnr" v="84422" />
	</node>
	<node id="-481915" lat="58.7911305576" lon="9.23483333723">
		<tag k="name" v="Homlebukjerret" />
		<tag k="natural" v="wetland" />
		<tag k="ssr:stedsnr" v="690480" />
	</node>
	<node id="-481471" lat="58.7941666707" lon="9.25795556182">
		<tag k="name" v="Hellermyra" />
		<tag k="natural" v="wetland" />
		<tag k="ssr:stedsnr" v="266418" />
	</node>
	<node id="-481912" lat="58.7964388928" lon="9.20431111669">
		<tag k="name" v="Rørkjerr" />
		<tag k="natural" v="wetland" />
		<tag k="ssr:stedsnr" v="690462" />
	</node>
	<node id="-483102" lat="58.7084388865" lon="9.17221666309">
		<tag k="name" v="Karlsingerkjerr" />
		<tag k="natural" v="wetland" />
		<tag k="ssr:stedsnr" v="752063" />
	</node>
	<node id="-482932" lat="58.7788805589" lon="9.29021944728">
		<tag k="name" v="Svinemyr" />
		<tag k="natural" v="wetland" />
		<tag k="ssr:stedsnr" v="569339" />
	</node>
	<node id="-482579" lat="58.6785999965" lon="9.12771110871">
		<tag k="name" v="Sankerkjerrene" />
		<tag k="natural" v="wetland" />
		<tag k="ssr:stedsnr" v="205298" />
	</node>
	<node id="-481904" lat="58.7822361091" lon="9.28441388642">
		<tag k="name" v="Kufarkjerret" />
		<tag k="place" v="locality" />
		<tag k="ssr:stedsnr" v="690404" />
	</node>
	<node id="-481903" lat="58.7848388851" lon="9.28001944466">
		<tag k="name" v="Fliskjerr" />
		<tag k="natural" v="wetland" />
		<tag k="ssr:stedsnr" v="690396" />
	</node>
	<node id="-482458" lat="58.7864972213" lon="9.12184445284">
		<tag k="name" v="Hirsdalsmyr" />
		<tag k="natural" v="wetland" />
		<tag k="ssr:stedsnr" v="144259" />
	</node>
	<node id="-482925" lat="58.6635861103" lon="9.12348611395">
		<tag k="name" v="Kobbervikmyra" />
		<tag k="natural" v="wetland" />
		<tag k="ssr:stedsnr" v="569280" />
	</node>
	<node id="-481900" lat="58.761488888" lon="9.33774722569">
		<tag k="name" v="Slåttemyr" />
		<tag k="place" v="locality" />
		<tag k="ssr:stedsnr" v="690382" />
	</node>
	<node id="-481898" lat="58.8234388862" lon="9.18970833608">
		<tag k="name" v="Skarkekjerr" />
		<tag k="natural" v="wetland" />
		<tag k="ssr:stedsnr" v="690366" />
	</node>
	<node id="-481896" lat="58.7639750038" lon="9.343744444">
		<tag k="name" v="Nepemyr" />
		<tag k="natural" v="wetland" />
		<tag k="ssr:stedsnr" v="690360" />
	</node>
	<node id="-482407" lat="58.6904249959" lon="9.20076388914">
		<tag k="name" v="Multemyr" />
		<tag k="natural" v="wetland" />
		<tag k="ssr:stedsnr" v="107360" />
	</node>
	<node id="-481553" lat="58.7607027767" lon="9.10768055349">
		<tag k="name" v="Kjellsmyr" />
		<tag k="natural" v="wetland" />
		<tag k="ssr:stedsnr" v="448158" />
	</node>
	<node id="-481638" lat="58.7117805595" lon="8.9786638922">
		<tag k="name" v="Lille Venemyr" />
		<tag k="natural" v="wetland" />
		<tag k="ssr:stedsnr" v="327819" />
	</node>
	<node id="-482401" lat="58.7148611079" lon="8.98032777153">
		<tag k="name" v="Store Venemyr" />
		<tag k="natural" v="wetland" />
		<tag k="ssr:stedsnr" v="84892" />
	</node>
	<node id="-481887" lat="58.6848805593" lon="9.18571666525">
		<tag k="name" v="Brennvikmyra" />
		<tag k="natural" v="wetland" />
		<tag k="ssr:stedsnr" v="690259" />
	</node>
	<node id="-482395" lat="58.7585611104" lon="9.04822222385">
		<tag k="name" v="Østre Skurstemkjerr" />
		<tag k="natural" v="wetland" />
		<tag k="ssr:stedsnr" v="84993" />
	</node>
	<node id="-481882" lat="58.7792472203" lon="9.06543611961">
		<tag k="name" v="Småmyrene" />
		<tag k="natural" v="wetland" />
		<tag k="ssr:stedsnr" v="690224" />
	</node>
	<node id="-482905" lat="58.7616277773" lon="9.19161111474">
		<tag k="name" v="Langporsmyr" />
		<tag k="natural" v="wetland" />
		<tag k="ssr:stedsnr" v="569136" />
	</node>
	<node id="-481386" lat="58.7800388849" lon="9.21586944523">
		<tag k="name" v="Øygardskjerret" />
		<tag k="natural" v="wetland" />
		<tag k="ssr:stedsnr" v="84461" />
	</node>
	<node id="-482389" lat="58.7251277805" lon="9.10160833788">
		<tag k="name" v="Stompesteinen" />
		<tag k="natural" v="stone" />
		<tag k="ssr:stedsnr" v="84801" />
	</node>
	<node id="-481980" lat="58.7522388917" lon="9.17070833361">
		<tag k="name" v="Storemyr" />
		<tag k="natural" v="wetland" />
		<tag k="ssr:stedsnr" v="629380" />
	</node>
	<node id="-481363" lat="58.7688861097" lon="9.13874999477">
		<tag k="name" v="Kvernhusmarka" />
		<tag k="place" v="locality" />
		<tag k="ssr:stedsnr" v="243385" />
	</node>
	<node id="-481379" lat="58.7823055525" lon="9.07657777863">
		<tag k="name" v="Bråtane" />
		<tag k="place" v="locality" />
		<tag k="ssr:stedsnr" v="84215" />
	</node>
	<node id="-482896" lat="58.6691388854" lon="9.18368055369">
		<tag k="name" v="Østerjordet" />
		<tag k="place" v="locality" />
		<tag k="ssr:stedsnr" v="569024" />
	</node>
	<node id="-482488" lat="58.7840833308" lon="9.18012221762">
		<tag k="name" v="Heimyr" />
		<tag k="natural" v="wetland" />
		<tag k="ssr:stedsnr" v="144444" />
	</node>
	<node id="-482893" lat="58.7223916625" lon="9.01613333134">
		<tag k="name" v="Sagmyra" />
		<tag k="natural" v="wetland" />
		<tag k="ssr:stedsnr" v="568881" />
	</node>
	<node id="-482377" lat="58.7769861132" lon="9.25644167123">
		<tag k="name" v="Langmyr" />
		<tag k="natural" v="wetland" />
		<tag k="ssr:stedsnr" v="84464" />
	</node>
	<node id="-482888" lat="58.7227499966" lon="9.06613888892">
		<tag k="alt_name" v="Moensmyrene" />
		<tag k="name" v="Moensmyrane" />
		<tag k="place" v="locality" />
		<tag k="ssr:stedsnr" v="547636" />
	</node>
	<node id="-481863" lat="58.7730222183" lon="9.19664722021">
		<tag k="name" v="Miansmyr" />
>>>>>>> e1d4bc35ff8a6074a6f2e91616a996b547c36f15
		<tag k="natural" v="wetland" />
		<tag k="ssr:stedsnr" v="690108" />
	</node>
<<<<<<< HEAD
	<node lat="58.70843888654073" lon="9.172216663092524" id="-21980">
		<tag k="name" v="Karlsingerkjerr" />
		<tag k="natural" v="wetland" />
		<tag k="ssr:stedsnr" v="752063" />
	</node>
	<node lat="58.709383337409975" lon="8.997516659933659" id="-21986">
		<tag k="name" v="Myrbu" />
		<tag k="natural" v="wetland" />
		<tag k="ssr:stedsnr" v="752967" />
	</node>
	<node lat="58.788263892977874" lon="9.079588894107662" id="-22033">
		<tag k="name" v="Dalane" />
		<tag k="place" v="locality" />
		<tag k="ssr:stedsnr" v="812215" />
	</node>
	<node lat="58.78865555147379" lon="9.070394451143741" id="-22034">
		<tag k="name" v="Hestehagen" />
		<tag k="place" v="locality" />
		<tag k="ssr:stedsnr" v="812217" />
	</node>
	<node lat="58.79923333404275" lon="9.162275000683653" id="-22045">
		<tag k="name" v="Dinglekjerr" />
		<tag k="natural" v="wetland" />
		<tag k="ssr:stedsnr" v="812416" />
	</node>
	<node lat="58.768094444968156" lon="9.308438884648279" id="-22051">
		<tag k="name" v="Karismyr" />
		<tag k="natural" v="wetland" />
		<tag k="ssr:stedsnr" v="812492" />
	</node>
	<node lat="58.76355833045652" lon="9.302094448194714" id="-22052">
		<tag k="name" v="Hødnebømyra" />
		<tag k="natural" v="wetland" />
		<tag k="ssr:stedsnr" v="812502" />
	</node>
	<node lat="58.660786110179664" lon="9.145199999123529" id="-22092">
		<tag k="name" v="Lillemyr" />
=======
	<node id="-481889" lat="58.6876472228" lon="9.15970277998">
		<tag k="name" v="Nipekjerr" />
		<tag k="natural" v="wetland" />
		<tag k="ssr:stedsnr" v="690265" />
	</node>
	<node id="-481860" lat="58.689888888" lon="9.2269305636">
		<tag k="name" v="Laksegrunnsteina" />
		<tag k="natural" v="stone" />
		<tag k="ssr:stedsnr" v="690047" />
	</node>
	<node id="-481852" lat="58.7263333325" lon="9.01460278122">
		<tag k="name" v="Diplemyr" />
		<tag k="natural" v="wetland" />
		<tag k="ssr:stedsnr" v="508901" />
	</node>
	<node id="-482363" lat="58.6751861137" lon="9.12255555739">
		<tag k="name" v="Nevlingskjerret" />
		<tag k="natural" v="wetland" />
		<tag k="ssr:stedsnr" v="84284" />
	</node>
	<node id="-481849" lat="58.7057249992" lon="9.1250000002">
		<tag k="name" v="Tjenndalsmyra" />
		<tag k="natural" v="wetland" />
		<tag k="ssr:stedsnr" v="508861" />
	</node>
	<node id="-481847" lat="58.7793999958" lon="9.21757500047">
		<tag k="name" v="Nesmyra" />
		<tag k="natural" v="wetland" />
		<tag k="ssr:stedsnr" v="508503" />
	</node>
	<node id="-481846" lat="58.7849249974" lon="9.26369166598">
		<tag k="name" v="Hellikskjerr" />
>>>>>>> e1d4bc35ff8a6074a6f2e91616a996b547c36f15
		<tag k="natural" v="wetland" />
		<tag k="ssr:stedsnr" v="508495" />
	</node>
<<<<<<< HEAD
	<node lat="58.68449166999879" lon="9.115508331755317" id="-22103">
		<tag k="name" v="Småmyrene" />
		<tag k="natural" v="wetland" />
		<tag k="ssr:stedsnr" v="933278" />
	</node>
	<node lat="58.77538611313246" lon="9.286549998720343" id="-22106">
		<tag k="name" v="Porsmyr" />
		<tag k="natural" v="wetland" />
		<tag k="ssr:stedsnr" v="933358" />
	</node>
	<node lat="58.777944444253855" lon="9.332083324921" id="-22107">
		<tag k="name" v="Søndre Kallarbergmyra" />
		<tag k="natural" v="wetland" />
		<tag k="ssr:stedsnr" v="933374" />
	</node>
	<node lat="58.77935833497231" lon="9.16777776951519" id="-22117">
		<tag k="name" v="Kjørgangsmyra" />
=======
	<node id="-481845" lat="58.775066666" lon="9.17807776953">
		<tag k="name" v="Langkjerr" />
		<tag k="natural" v="wetland" />
		<tag k="ssr:stedsnr" v="508471" />
	</node>
	<node id="-481841" lat="58.7631388891" lon="9.32561665909">
		<tag k="name" v="Ravallskjerr" />
		<tag k="place" v="locality" />
		<tag k="ssr:stedsnr" v="508354" />
	</node>
	<node id="-481327" lat="58.7358166702" lon="9.05999444801">
		<tag k="name" v="Vormliknutane" />
		<tag k="place" v="locality" />
		<tag k="ssr:stedsnr" v="23217" />
	</node>
	<node id="-482345" lat="58.7305583291" lon="9.18087499499">
		<tag k="alt_name" v="Teremyr" />
		<tag k="name" v="Teremyra" />
		<tag k="natural" v="wetland" />
		<tag k="ssr:stedsnr" v="62569" />
	</node>
	<node id="-481940" lat="58.7641972251" lon="9.00618888943">
		<tag k="name" v="Djupmyr" />
		<tag k="natural" v="wetland" />
		<tag k="ssr:stedsnr" v="691000" />
	</node>
	<node id="-482839" lat="58.7028499998" lon="9.0855333312">
		<tag k="alt_name" v="Bukkemyr" />
		<tag k="name" v="Bukkemyra" />
>>>>>>> e1d4bc35ff8a6074a6f2e91616a996b547c36f15
		<tag k="natural" v="wetland" />
		<tag k="ssr:stedsnr" v="425587" />
	</node>
<<<<<<< HEAD
	<node lat="58.78730832892272" lon="9.217480559210319" id="-22119">
		<tag k="name" v="Røybekkmyra" />
		<tag k="natural" v="wetland" />
		<tag k="ssr:stedsnr" v="933481" />
	</node>
	<node lat="58.70360833551197" lon="9.130263880648755" id="-22131">
		<tag k="name" v="Gartemyrkrokene" />
		<tag k="place" v="locality" />
		<tag k="ssr:stedsnr" v="933870" />
	</node>
	<node lat="58.694611108702595" lon="9.085933327471917" id="-22132">
		<tag k="name" v="Storfjellmyra" />
		<tag k="natural" v="wetland" />
		<tag k="ssr:stedsnr" v="933877" />
	</node>
	<node lat="58.745430556062104" lon="9.039302779150173" id="-22134">
		<tag k="name" v="Lindmyr" />
		<tag k="natural" v="wetland" />
		<tag k="ssr:stedsnr" v="933964" />
	</node>
	<node lat="58.7033194429412" lon="9.178366668417176" id="-22137">
		<tag k="name" v="Skibmyra" />
		<tag k="natural" v="wetland" />
		<tag k="ssr:stedsnr" v="934081" />
=======
	<node id="-482137" lat="58.6946111087" lon="9.08593332747">
		<tag k="name" v="Storfjellmyra" />
		<tag k="natural" v="wetland" />
		<tag k="ssr:stedsnr" v="933877" />
	</node>
	<node id="-482318" lat="58.7059388861" lon="9.16543888857">
		<tag k="name" v="Moltemyr" />
		<tag k="natural" v="wetland" />
		<tag k="ssr:stedsnr" v="24081" />
	</node>
	<node id="-482317" lat="58.6886527743" lon="9.17519166675">
		<tag k="name" v="Olavskjerr" />
		<tag k="place" v="locality" />
		<tag k="ssr:stedsnr" v="24079" />
	</node>
	<node id="-482825" lat="58.7597333327" lon="9.00664444974">
		<tag k="name" v="Øy-Storemyr" />
		<tag k="natural" v="wetland" />
		<tag k="ssr:stedsnr" v="387998" />
	</node>
	<node id="-481452" lat="58.6846750034" lon="9.13133610388">
		<tag k="name" v="Geitestaua" />
		<tag k="place" v="locality" />
		<tag k="ssr:stedsnr" v="266278" />
	</node>
	<node id="-482822" lat="58.7669722185" lon="9.01760277885">
		<tag k="name" v="Den runde myra" />
		<tag k="natural" v="wetland" />
		<tag k="ssr:stedsnr" v="387987" />
	</node>
	<node id="-482821" lat="58.7675361081" lon="9.01366389333">
		<tag k="name" v="Storemyr" />
		<tag k="natural" v="wetland" />
		<tag k="ssr:stedsnr" v="387986" />
	</node>
	<node id="-482817" lat="58.6905527788" lon="9.10019722184">
		<tag k="name" v="Sønderåker" />
		<tag k="place" v="locality" />
		<tag k="ssr:stedsnr" v="387841" />
>>>>>>> e1d4bc35ff8a6074a6f2e91616a996b547c36f15
	</node>
</osm>
