<?xml version="1.0" encoding="UTF-8"?>
<osm version="0.6" generator="osmapis">
	<node lat="58.76313888963473" lon="9.079783337251863" id="-35883">
		<tag k="alt_name" v="Indre Søndeled" />
		<tag k="amenity" v="place_of_worship" />
		<tag k="denomination" v="lutheran" />
		<tag k="name" v="Søndeled kirke" />
		<tag k="religion" v="christian" />
		<tag k="ssr:stedsnr" v="1402" />
	</node>
	<node lat="58.76658046710554" lon="9.062350791010969" id="-35952">
		<tag k="alt_name" v="Robbersmyr" />
		<tag k="name" v="Robbermyra" />
		<tag k="place" v="locality" />
		<tag k="ssr:stedsnr" v="243378" />
	</node>
	<node lat="58.76135833658305" lon="9.276797221856242" id="-35990">
		<tag k="name" v="Hefte" />
		<tag k="place" v="locality" />
		<tag k="ssr:stedsnr" v="84488" />
	</node>
	<node lat="58.75425555733521" lon="9.34991666377092" id="-36046">
		<tag k="name" v="Essen" />
		<tag k="place" v="locality" />
		<tag k="ssr:stedsnr" v="144346" />
	</node>
	<node lat="58.810363892088596" lon="9.154208336397607" id="-36085">
		<tag k="name" v="Brurestolen" />
		<tag k="place" v="locality" />
		<tag k="ssr:stedsnr" v="266218" />
	</node>
	<node lat="58.74251388569673" lon="9.193744442624073" id="-36106">
		<tag k="name" v="Brurbenken" />
		<tag k="place" v="locality" />
		<tag k="ssr:stedsnr" v="266366" />
	</node>
	<node lat="58.81353889060742" lon="9.17576945069996" id="-36229">
		<tag k="name" v="Bekkestøa" />
		<tag k="place" v="locality" />
		<tag k="ssr:stedsnr" v="266397" />
	</node>
	<node lat="58.7791361078579" lon="9.06061944517253" id="-36434">
		<tag k="name" v="Einaren" />
		<tag k="place" v="locality" />
		<tag k="ssr:stedsnr" v="508194" />
	</node>
	<node lat="58.69625000220866" lon="9.107136102834424" id="-36648">
		<tag k="name" v="Bøtte" />
		<tag k="place" v="locality" />
		<tag k="ssr:stedsnr" v="690887" />
	</node>
	<node lat="58.72773888754844" lon="9.018661106062426" id="-36697">
		<tag k="name" v="Ålkaret" />
		<tag k="place" v="locality" />
		<tag k="ssr:stedsnr" v="751911" />
	</node>
	<node lat="58.75164721930575" lon="9.197080547898558" id="-36833">
		<tag k="amenity" v="community_centre" />
		<tag k="name" v="Sevik bedehus" />
		<tag k="ssr:stedsnr" v="933410" />
	</node>
</osm>
