<?xml version="1.0" encoding="UTF-8"?>
<osm version="0.6" generator="osmapis">
	<node lat="58.716897219395356" lon="9.126977780227742" id="-35881">
		<tag k="fixme" v="consider natural=peak for the most distinct mountains in the district" />
		<tag k="name" v="Gartåsen" />
		<tag k="natural" v="hill" />
		<tag k="place" v="locality" />
		<tag k="ssr:stedsnr" v="598" />
	</node>
	<node lat="58.76414443999676" lon="9.21472778435183" id="-35893">
		<tag k="name" v="Lauvhjelsheia" />
		<tag k="natural" v="hill" />
		<tag k="place" v="locality" />
		<tag k="ssr:stedsnr" v="23109" />
	</node>
	<node lat="58.75715833034837" lon="9.189388880709272" id="-35896">
		<tag k="name" v="Spardalen" />
		<tag k="natural" v="valley" />
		<tag k="place" v="locality" />
		<tag k="ssr:stedsnr" v="23145" />
	</node>
	<node lat="58.668794446741785" lon="9.1715666682646" id="-35897">
		<tag k="name" v="Kollbotn" />
		<tag k="natural" v="valley" />
		<tag k="place" v="locality" />
		<tag k="ssr:stedsnr" v="23034" />
	</node>
	<node lat="58.78191666802279" lon="9.072361107750986" id="-35899">
		<tag k="name" v="Plankedalen" />
		<tag k="natural" v="valley" />
		<tag k="place" v="locality" />
		<tag k="ssr:stedsnr" v="23240" />
	</node>
	<node lat="58.790611107902095" lon="9.114041674006414" id="-35900">
		<tag k="name" v="Åsulvsdal" />
		<tag k="natural" v="valley" />
		<tag k="place" v="locality" />
		<tag k="ssr:stedsnr" v="23282" />
	</node>
	<node lat="58.79557222596936" lon="9.266144446012731" id="-35902">
		<tag k="name" v="Torvtjenndalen" />
		<tag k="natural" v="valley" />
		<tag k="place" v="locality" />
		<tag k="ssr:stedsnr" v="23342" />
	</node>
	<node lat="58.77706111471198" lon="9.277633339166746" id="-35906">
		<tag k="name" v="Fløyheia" />
		<tag k="natural" v="hill" />
		<tag k="place" v="locality" />
		<tag k="ssr:stedsnr" v="23384" />
	</node>
	<node lat="58.768433330047124" lon="9.337122218785849" id="-35907">
		<tag k="fixme" v="consider natural=peak for the most distinct mountains in the district" />
		<tag k="name" v="Homsdalsknuten" />
		<tag k="natural" v="hill" />
		<tag k="place" v="locality" />
		<tag k="ssr:stedsnr" v="23389" />
	</node>
	<node lat="58.783122222968196" lon="9.273986117500206" id="-35912">
		<tag k="name" v="Steinkleiv" />
		<tag k="natural" v="slope" />
		<tag k="place" v="locality" />
		<tag k="ssr:stedsnr" v="23402" />
	</node>
	<node lat="58.787711107211514" lon="9.208741674737148" id="-35915">
		<tag k="fixme" v="consider natural=peak for the most distinct mountains in the district" />
		<tag k="name" v="Stolphusfjell" />
		<tag k="natural" v="hill" />
		<tag k="place" v="locality" />
		<tag k="ssr:stedsnr" v="23483" />
	</node>
	<node lat="58.788697219226584" lon="9.26105000246594" id="-35919">
		<tag k="name" v="Rognliene" />
		<tag k="natural" v="slope" />
		<tag k="place" v="locality" />
		<tag k="ssr:stedsnr" v="23497" />
	</node>
	<node lat="58.702280557877174" lon="9.068236110484003" id="-35922">
		<tag k="name" v="Ulvikdalene" />
		<tag k="natural" v="valley" />
		<tag k="place" v="locality" />
		<tag k="ssr:stedsnr" v="23786" />
	</node>
	<node lat="58.71388610956051" lon="9.09498889619534" id="-35924">
		<tag k="fixme" v="consider natural=peak for the most distinct mountains in the district" />
		<tag k="name" v="Brynåsen" />
		<tag k="natural" v="hill" />
		<tag k="place" v="locality" />
		<tag k="ssr:stedsnr" v="23806" />
	</node>
	<node lat="58.68929999583734" lon="9.08987778420428" id="-35925">
		<tag k="name" v="Torskebergflua" />
		<tag k="natural" v="slope" />
		<tag k="place" v="locality" />
		<tag k="ssr:stedsnr" v="23879" />
	</node>
	<node lat="58.69700277634738" lon="9.015466669270602" id="-35931">
		<tag k="name" v="Hullfjell" />
		<tag k="natural" v="hill" />
		<tag k="place" v="locality" />
		<tag k="ssr:stedsnr" v="23982" />
	</node>
	<node lat="58.70508888528567" lon="9.022947229153308" id="-35934">
		<tag k="fixme" v="consider natural=peak for the most distinct mountains in the district" />
		<tag k="name" v="Brunåsen" />
		<tag k="natural" v="hill" />
		<tag k="place" v="locality" />
		<tag k="ssr:stedsnr" v="24980" />
	</node>
	<node lat="58.737125001442664" lon="9.030544448098874" id="-35942">
		<tag k="alt_name" v="Skreifjell" />
		<tag k="fixme" v="consider natural=peak for the most distinct mountains in the district" />
		<tag k="name" v="Skrefjell" />
		<tag k="natural" v="hill" />
		<tag k="place" v="locality" />
		<tag k="ssr:stedsnr" v="61508" />
	</node>
	<node lat="58.715238888082176" lon="9.03452778591845" id="-35961">
		<tag k="fixme" v="consider natural=peak for the most distinct mountains in the district" />
		<tag k="name" v="Lauvåsen" />
		<tag k="natural" v="hill" />
		<tag k="place" v="locality" />
		<tag k="ssr:stedsnr" v="244154" />
	</node>
	<node lat="58.797174999295756" lon="9.081797222613545" id="-35962">
		<tag k="fixme" v="consider natural=peak for the most distinct mountains in the district" />
		<tag k="name" v="Kjørkeliheia" />
		<tag k="natural" v="hill" />
		<tag k="place" v="locality" />
		<tag k="ssr:stedsnr" v="244522" />
	</node>
	<node lat="58.72924722400157" lon="9.015016659698794" id="-35964">
		<tag k="name" v="Fagerliroa" />
		<tag k="natural" v="valley" />
		<tag k="place" v="locality" />
		<tag k="ssr:stedsnr" v="83886" />
	</node>
	<node lat="58.72520833745027" lon="9.192302782189703" id="-35967">
		<tag k="name" v="Kvennhusheia" />
		<tag k="natural" v="hill" />
		<tag k="place" v="locality" />
		<tag k="ssr:stedsnr" v="84085" />
	</node>
	<node lat="58.78482222096338" lon="9.062497221195938" id="-35972">
		<tag k="name" v="Mjåvannshøgda" />
		<tag k="natural" v="hill" />
		<tag k="place" v="locality" />
		<tag k="ssr:stedsnr" v="84206" />
	</node>
	<node lat="58.73710000427775" lon="9.140366666909674" id="-35975">
		<tag k="name" v="Moensskåt" />
		<tag k="natural" v="slope" />
		<tag k="place" v="locality" />
		<tag k="ssr:stedsnr" v="84217" />
	</node>
	<node lat="58.75639722275" lon="9.164447213648405" id="-35980">
		<tag k="fixme" v="consider natural=peak for the most distinct mountains in the district" />
		<tag k="name" v="Vassvikknuten" />
		<tag k="natural" v="hill" />
		<tag k="place" v="locality" />
		<tag k="ssr:stedsnr" v="84139" />
	</node>
	<node lat="58.736000001859956" lon="9.195483330334083" id="-35983">
		<tag k="fixme" v="consider natural=peak for the most distinct mountains in the district" />
		<tag k="name" v="Grønvollsåsen" />
		<tag k="natural" v="hill" />
		<tag k="place" v="locality" />
		<tag k="ssr:stedsnr" v="84380" />
	</node>
	<node lat="58.75146111530332" lon="9.222413886242464" id="-35984">
		<tag k="name" v="Svinmyrheia" />
		<tag k="natural" v="hill" />
		<tag k="place" v="locality" />
		<tag k="ssr:stedsnr" v="84385" />
	</node>
	<node lat="58.763480560056145" lon="9.28451666591716" id="-35991">
		<tag k="name" v="Karlshellerheia" />
		<tag k="natural" v="hill" />
		<tag k="place" v="locality" />
		<tag k="ssr:stedsnr" v="84500" />
	</node>
	<node lat="58.72921388797175" lon="9.002730561333653" id="-35993">
		<tag k="name" v="Barlinddalen" />
		<tag k="natural" v="valley" />
		<tag k="place" v="locality" />
		<tag k="ssr:stedsnr" v="84902" />
	</node>
	<node lat="58.75781944229918" lon="9.02063611413652" id="-35995">
		<tag k="name" v="Perslia" />
		<tag k="natural" v="slope" />
		<tag k="place" v="locality" />
		<tag k="ssr:stedsnr" v="84955" />
	</node>
	<node lat="58.711480554780245" lon="9.057830555690485" id="-35997">
		<tag k="fixme" v="consider natural=peak for the most distinct mountains in the district" />
		<tag k="name" v="Falkknatten" />
		<tag k="natural" v="hill" />
		<tag k="place" v="locality" />
		<tag k="ssr:stedsnr" v="84815" />
	</node>
	<node lat="58.75623055751755" lon="9.095005549065723" id="-36000">
		<tag k="fixme" v="consider natural=peak for the most distinct mountains in the district" />
		<tag k="name" v="Ramsåsen" />
		<tag k="natural" v="hill" />
		<tag k="place" v="locality" />
		<tag k="ssr:stedsnr" v="84845" />
	</node>
	<node lat="58.75976388981736" lon="9.06588333708521" id="-36002">
		<tag k="name" v="Ørsheia" />
		<tag k="natural" v="hill" />
		<tag k="place" v="locality" />
		<tag k="ssr:stedsnr" v="84852" />
	</node>
	<node lat="58.72361110764524" lon="8.980255560561256" id="-36004">
		<tag k="name" v="Brumyrdalen" />
		<tag k="natural" v="valley" />
		<tag k="place" v="locality" />
		<tag k="ssr:stedsnr" v="84885" />
	</node>
	<node lat="58.695116662644615" lon="9.0119055637501" id="-36007">
		<tag k="fixme" v="consider natural=peak for the most distinct mountains in the district" />
		<tag k="name" v="Beråsknuten" />
		<tag k="natural" v="hill" />
		<tag k="place" v="locality" />
		<tag k="ssr:stedsnr" v="84984" />
	</node>
	<node lat="58.811041662649295" lon="9.182716665938232" id="-36012">
		<tag k="alt_name" v="Skuggefjell" />
		<tag k="fixme" v="consider natural=peak for the most distinct mountains in the district" />
		<tag k="name" v="Skuggefjellet" />
		<tag k="natural" v="hill" />
		<tag k="place" v="locality" />
		<tag k="ssr:stedsnr" v="122008" />
	</node>
	<node lat="58.67909444502354" lon="9.135452780478186" id="-36036">
		<tag k="fixme" v="consider natural=peak for the most distinct mountains in the district" />
		<tag k="name" v="Hudalsknuten" />
		<tag k="natural" v="hill" />
		<tag k="place" v="locality" />
		<tag k="ssr:stedsnr" v="144291" />
	</node>
	<node lat="58.665355558373925" lon="9.113772224681039" id="-36038">
		<tag k="name" v="Folevannsdalen" />
		<tag k="natural" v="valley" />
		<tag k="place" v="locality" />
		<tag k="ssr:stedsnr" v="144304" />
	</node>
	<node lat="58.66903333679127" lon="9.1327861188269" id="-36040">
		<tag k="name" v="Vesterheia" />
		<tag k="natural" v="hill" />
		<tag k="place" v="locality" />
		<tag k="ssr:stedsnr" v="144309" />
	</node>
	<node lat="58.670716667369526" lon="9.116830552231383" id="-36041">
		<tag k="name" v="Dypedal" />
		<tag k="natural" v="valley" />
		<tag k="place" v="locality" />
		<tag k="ssr:stedsnr" v="144310" />
	</node>
	<node lat="58.668333335305626" lon="9.104094449371994" id="-36042">
		<tag k="fixme" v="consider natural=peak for the most distinct mountains in the district" />
		<tag k="name" v="Tereknuten" />
		<tag k="natural" v="hill" />
		<tag k="place" v="locality" />
		<tag k="ssr:stedsnr" v="144313" />
	</node>
	<node lat="58.75924999842571" lon="9.347208333976258" id="-36044">
		<tag k="name" v="Varden" />
		<tag k="natural" v="hill" />
		<tag k="place" v="locality" />
		<tag k="ssr:stedsnr" v="144335" />
	</node>
	<node lat="58.7729277768664" lon="9.338294452735221" id="-36049">
		<tag k="name" v="Grusteindalen" />
		<tag k="natural" v="valley" />
		<tag k="place" v="locality" />
		<tag k="ssr:stedsnr" v="144354" />
	</node>
	<node lat="58.78373610758296" lon="9.282147223005628" id="-36051">
		<tag k="name" v="Kloppedalen" />
		<tag k="natural" v="valley" />
		<tag k="place" v="locality" />
		<tag k="ssr:stedsnr" v="144379" />
	</node>
	<node lat="58.71263888835878" lon="9.144747216429543" id="-36053">
		<tag k="name" v="Lillemyrdalen" />
		<tag k="natural" v="valley" />
		<tag k="place" v="locality" />
		<tag k="ssr:stedsnr" v="144735" />
	</node>
	<node lat="58.71441944093241" lon="9.146808337268446" id="-36054">
		<tag k="name" v="Skardalen" />
		<tag k="natural" v="valley" />
		<tag k="place" v="locality" />
		<tag k="ssr:stedsnr" v="144740" />
	</node>
	<node lat="58.70951944483032" lon="9.069547229719756" id="-36056">
		<tag k="name" v="Heiansklova" />
		<tag k="natural" v="valley" />
		<tag k="place" v="locality" />
		<tag k="ssr:stedsnr" v="144754" />
	</node>
	<node lat="58.71138055287805" lon="9.13189444436215" id="-36080">
		<tag k="name" v="Storheia" />
		<tag k="natural" v="hill" />
		<tag k="place" v="locality" />
		<tag k="ssr:stedsnr" v="266729" />
	</node>
	<node lat="58.73573611230065" lon="9.109449999619335" id="-36082">
		<tag k="fixme" v="consider natural=peak for the most distinct mountains in the district" />
		<tag k="name" v="Klovåsen" />
		<tag k="natural" v="hill" />
		<tag k="place" v="locality" />
		<tag k="ssr:stedsnr" v="266209" />
	</node>
	<node lat="58.732466668565216" lon="9.138511115643762" id="-36083">
		<tag k="name" v="Lille Øyknuten" />
		<tag k="natural" v="hill" />
		<tag k="place" v="locality" />
		<tag k="ssr:stedsnr" v="266211" />
	</node>
	<node lat="58.754591663826034" lon="9.135663890618861" id="-36091">
		<tag k="name" v="Tjennknuten" />
		<tag k="natural" v="hill" />
		<tag k="place" v="locality" />
		<tag k="ssr:stedsnr" v="266168" />
	</node>
	<node lat="58.7387944401349" lon="9.105030563502224" id="-36092">
		<tag k="name" v="Dalen" />
		<tag k="natural" v="valley" />
		<tag k="place" v="locality" />
		<tag k="ssr:stedsnr" v="266179" />
	</node>
	<node lat="58.762425001422386" lon="9.343494451644617" id="-36094">
		<tag k="name" v="Låveheia" />
		<tag k="natural" v="hill" />
		<tag k="place" v="locality" />
		<tag k="ssr:stedsnr" v="266310" />
	</node>
	<node lat="58.76616944291743" lon="9.345683340358809" id="-36097">
		<tag k="name" v="Verdalsknuten" />
		<tag k="natural" v="hill" />
		<tag k="place" v="locality" />
		<tag k="ssr:stedsnr" v="266319" />
	</node>
	<node lat="58.747594444019505" lon="9.288977783090358" id="-36098">
		<tag k="name" v="Fantheia" />
		<tag k="natural" v="hill" />
		<tag k="place" v="locality" />
		<tag k="ssr:stedsnr" v="266261" />
	</node>
	<node lat="58.778744442038786" lon="9.273411102795281" id="-36100">
		<tag k="name" v="Grandalen" />
		<tag k="natural" v="valley" />
		<tag k="place" v="locality" />
		<tag k="ssr:stedsnr" v="266327" />
	</node>
	<node lat="58.7852083348636" lon="9.232011109868903" id="-36102">
		<tag k="name" v="Grasmyrfjella" />
		<tag k="natural" v="hill" />
		<tag k="place" v="locality" />
		<tag k="ssr:stedsnr" v="266424" />
	</node>
	<node lat="58.77951666821954" lon="9.268999997740508" id="-36103">
		<tag k="name" v="Nedre Beinerheiene" />
		<tag k="natural" v="hill" />
		<tag k="place" v="locality" />
		<tag k="ssr:stedsnr" v="266428" />
	</node>
	<node lat="58.75201667098497" lon="9.250980561240462" id="-36108">
		<tag k="name" v="Høgheia" />
		<tag k="natural" v="hill" />
		<tag k="place" v="locality" />
		<tag k="ssr:stedsnr" v="266373" />
	</node>
	<node lat="58.77124999681623" lon="9.31174722037297" id="-36111">
		<tag k="name" v="Hellerstadheia" />
		<tag k="natural" v="hill" />
		<tag k="place" v="locality" />
		<tag k="ssr:stedsnr" v="266453" />
	</node>
	<node lat="58.77242500227466" lon="9.27976943822894" id="-36112">
		<tag k="name" v="Englia" />
		<tag k="natural" v="slope" />
		<tag k="place" v="locality" />
		<tag k="ssr:stedsnr" v="266457" />
	</node>
	<node lat="58.75788333609957" lon="9.296319441109787" id="-36114">
		<tag k="name" v="Råtneheia" />
		<tag k="natural" v="hill" />
		<tag k="place" v="locality" />
		<tag k="ssr:stedsnr" v="266467" />
	</node>
	<node lat="58.755283329287224" lon="9.29252499658018" id="-36115">
		<tag k="name" v="Borheia" />
		<tag k="natural" v="hill" />
		<tag k="place" v="locality" />
		<tag k="ssr:stedsnr" v="266470" />
	</node>
	<node lat="58.771302775464385" lon="9.1355388935609" id="-36119">
		<tag k="name" v="Knappersdal" />
		<tag k="natural" v="valley" />
		<tag k="place" v="locality" />
		<tag k="ssr:stedsnr" v="266825" />
	</node>
	<node lat="58.688980551668315" lon="9.137983339535614" id="-36121">
		<tag k="name" v="Østerhei" />
		<tag k="natural" v="hill" />
		<tag k="place" v="locality" />
		<tag k="ssr:stedsnr" v="266850" />
	</node>
	<node lat="58.708002781288045" lon="9.061108337662414" id="-36122">
		<tag k="name" v="Bromsmyrkleivene" />
		<tag k="natural" v="slope" />
		<tag k="place" v="locality" />
		<tag k="ssr:stedsnr" v="266759" />
	</node>
	<node lat="58.701569442986774" lon="9.131949995363883" id="-36128">
		<tag k="name" v="Bronhei" />
		<tag k="natural" v="hill" />
		<tag k="place" v="locality" />
		<tag k="ssr:stedsnr" v="266870" />
	</node>
	<node lat="58.699450002884284" lon="9.019008328352239" id="-36132">
		<tag k="fixme" v="consider natural=peak for the most distinct mountains in the district" />
		<tag k="name" v="Kongsås" />
		<tag k="natural" v="hill" />
		<tag k="place" v="locality" />
		<tag k="ssr:stedsnr" v="266986" />
	</node>
	<node lat="58.721199999617845" lon="9.049233326823929" id="-36135">
		<tag k="name" v="Henriksdalen" />
		<tag k="natural" v="valley" />
		<tag k="place" v="locality" />
		<tag k="ssr:stedsnr" v="266972" />
	</node>
	<node lat="58.72786944010858" lon="9.191283333331503" id="-36140">
		<tag k="name" v="Oksåsen" />
		<tag k="natural" v="hill" />
		<tag k="place" v="locality" />
		<tag k="ssr:stedsnr" v="205002" />
	</node>
	<node lat="58.6873500017762" lon="9.1100305551696" id="-36144">
		<tag k="fixme" v="consider natural=peak for the most distinct mountains in the district" />
		<tag k="name" v="Bronåsen" />
		<tag k="natural" v="hill" />
		<tag k="place" v="locality" />
		<tag k="ssr:stedsnr" v="205303" />
	</node>
	<node lat="58.66528888939709" lon="9.147452781529392" id="-36145">
		<tag k="name" v="Fløyheia" />
		<tag k="natural" v="hill" />
		<tag k="place" v="locality" />
		<tag k="ssr:stedsnr" v="205348" />
	</node>
	<node lat="58.74911944482197" lon="9.053424993184423" id="-36149">
		<tag k="name" v="Molandskleivene" />
		<tag k="natural" v="slope" />
		<tag k="place" v="locality" />
		<tag k="ssr:stedsnr" v="205140" />
	</node>
	<node lat="58.73693333699944" lon="9.128936116219677" id="-36156">
		<tag k="fixme" v="consider natural=peak for the most distinct mountains in the district" />
		<tag k="name" v="Bronåsen" />
		<tag k="natural" v="hill" />
		<tag k="place" v="locality" />
		<tag k="ssr:stedsnr" v="205209" />
	</node>
	<node lat="58.68510277869812" lon="9.180530550404287" id="-36157">
		<tag k="name" v="Knappenålshaugene" />
		<tag k="natural" v="hill" />
		<tag k="place" v="locality" />
		<tag k="ssr:stedsnr" v="205237" />
	</node>
	<node lat="58.687166662252615" lon="9.163758335909707" id="-36158">
		<tag k="name" v="Midtheia" />
		<tag k="natural" v="hill" />
		<tag k="place" v="locality" />
		<tag k="ssr:stedsnr" v="205239" />
	</node>
	<node lat="58.6777777818343" lon="9.144169449882286" id="-36161">
		<tag k="name" v="Sponlia" />
		<tag k="natural" v="slope" />
		<tag k="place" v="locality" />
		<tag k="ssr:stedsnr" v="205291" />
	</node>
	<node lat="58.78662500287989" lon="9.165799994383972" id="-36166">
		<tag k="name" v="Sandstølliene" />
		<tag k="natural" v="slope" />
		<tag k="place" v="locality" />
		<tag k="ssr:stedsnr" v="205473" />
	</node>
	<node lat="58.78828055954354" lon="9.2674555482855" id="-36168">
		<tag k="fixme" v="consider natural=peak for the most distinct mountains in the district" />
		<tag k="name" v="Gofjell" />
		<tag k="natural" v="hill" />
		<tag k="place" v="locality" />
		<tag k="ssr:stedsnr" v="205487" />
	</node>
	<node lat="58.792047221562285" lon="9.264688888471056" id="-36169">
		<tag k="name" v="Hullheia" />
		<tag k="natural" v="hill" />
		<tag k="place" v="locality" />
		<tag k="ssr:stedsnr" v="205490" />
	</node>
	<node lat="58.730230552087896" lon="9.156855550013276" id="-36172">
		<tag k="fixme" v="consider natural=peak for the most distinct mountains in the district" />
		<tag k="name" v="Svegåsen" />
		<tag k="natural" v="hill" />
		<tag k="place" v="locality" />
		<tag k="ssr:stedsnr" v="205814" />
	</node>
	<node lat="58.76517222374852" lon="9.102649996735243" id="-36173">
		<tag k="name" v="Kinnreisholene" />
		<tag k="natural" v="valley" />
		<tag k="place" v="locality" />
		<tag k="ssr:stedsnr" v="205820" />
	</node>
	<node lat="58.7122444423881" lon="9.10470556073595" id="-36178">
		<tag k="fixme" v="consider natural=peak for the most distinct mountains in the district" />
		<tag k="name" v="Roparåsen" />
		<tag k="natural" v="hill" />
		<tag k="place" v="locality" />
		<tag k="ssr:stedsnr" v="205787" />
	</node>
	<node lat="58.75948889220755" lon="9.009580562227743" id="-36191">
		<tag k="fixme" v="consider natural=peak for the most distinct mountains in the district" />
		<tag k="name" v="Stormyråsen" />
		<tag k="natural" v="hill" />
		<tag k="place" v="locality" />
		<tag k="ssr:stedsnr" v="244407" />
	</node>
	<node lat="58.77821666927443" lon="9.168930558629324" id="-36192">
		<tag k="alt_name" v="Tereleikheiene" />
		<tag k="fixme" v="consider natural=peak for the most distinct mountains in the district" />
		<tag k="name" v="Tereleikheiane" />
		<tag k="natural" v="hill" />
		<tag k="place" v="locality" />
		<tag k="ssr:stedsnr" v="244430" />
	</node>
	<node lat="58.658524995706195" lon="9.170572226740088" id="-36197">
		<tag k="fixme" v="consider natural=peak for the most distinct mountains in the district" />
		<tag k="name" v="Skarvsetheia" />
		<tag k="natural" v="hill" />
		<tag k="place" v="locality" />
		<tag k="ssr:stedsnr" v="266010" />
	</node>
	<node lat="58.66458610730584" lon="9.178747223429033" id="-36198">
		<tag k="name" v="Spelmannsknatten" />
		<tag k="natural" v="hill" />
		<tag k="place" v="locality" />
		<tag k="ssr:stedsnr" v="266012" />
	</node>
	<node lat="58.672738892453964" lon="9.193113895313244" id="-36200">
		<tag k="name" v="Mørkedalen" />
		<tag k="natural" v="valley" />
		<tag k="place" v="locality" />
		<tag k="ssr:stedsnr" v="266018" />
	</node>
	<node lat="58.68880833443051" lon="9.179311114839201" id="-36203">
		<tag k="name" v="Loddheia" />
		<tag k="natural" v="hill" />
		<tag k="place" v="locality" />
		<tag k="ssr:stedsnr" v="266083" />
	</node>
	<node lat="58.76259722301225" lon="9.221224998592664" id="-36206">
		<tag k="name" v="Eidskjerrheia" />
		<tag k="natural" v="hill" />
		<tag k="place" v="locality" />
		<tag k="ssr:stedsnr" v="266104" />
	</node>
	<node lat="58.77088332986343" lon="9.266875000616468" id="-36208">
		<tag k="name" v="Hødnebødalen" />
		<tag k="natural" v="valley" />
		<tag k="place" v="locality" />
		<tag k="ssr:stedsnr" v="266111" />
	</node>
	<node lat="58.74601944549951" lon="9.101480548553429" id="-36213">
		<tag k="fixme" v="consider natural=peak for the most distinct mountains in the district" />
		<tag k="name" v="Frøynknuten" />
		<tag k="natural" v="hill" />
		<tag k="place" v="locality" />
		<tag k="ssr:stedsnr" v="266146" />
	</node>
	<node lat="58.74677500235804" lon="9.09805277067103" id="-36215">
		<tag k="name" v="Flaten" />
		<tag k="place" v="locality" />
		<tag k="ssr:stedsnr" v="266185" />
	</node>
	<node lat="58.74338055629525" lon="9.054944444613195" id="-36216">
		<tag k="name" v="Ekorndalen" />
		<tag k="natural" v="valley" />
		<tag k="place" v="locality" />
		<tag k="ssr:stedsnr" v="266187" />
	</node>
	<node lat="58.68469166344968" lon="9.17591944108777" id="-36219">
		<tag k="name" v="Eikbusdalen" />
		<tag k="natural" v="valley" />
		<tag k="place" v="locality" />
		<tag k="ssr:stedsnr" v="266237" />
	</node>
	<node lat="58.77600000063787" lon="9.194400005487056" id="-36222">
		<tag k="name" v="Skåtheiene" />
		<tag k="natural" v="hill" />
		<tag k="place" v="locality" />
		<tag k="ssr:stedsnr" v="266407" />
	</node>
	<node lat="58.72831944274062" lon="9.294136108622244" id="-36225">
		<tag k="name" v="Helleren" />
		<tag k="place" v="locality" />
		<tag k="ssr:stedsnr" v="266444" />
	</node>
	<node lat="58.80960833071198" lon="9.186069442784094" id="-36228">
		<tag k="name" v="Fliseiddalen" />
		<tag k="natural" v="valley" />
		<tag k="place" v="locality" />
		<tag k="ssr:stedsnr" v="266394" />
	</node>
	<node lat="58.76621388531845" lon="9.079086112719668" id="-36231">
		<tag k="name" v="Venli" />
		<tag k="natural" v="slope" />
		<tag k="place" v="locality" />
		<tag k="ssr:stedsnr" v="266805" />
	</node>
	<node lat="58.762280558378286" lon="9.073244439181394" id="-36232">
		<tag k="name" v="Monane" />
		<tag k="place" v="locality" />
		<tag k="ssr:stedsnr" v="266807" />
	</node>
	<node lat="58.763816665301235" lon="9.057630552565294" id="-36237">
		<tag k="name" v="Husmannsåsen" />
		<tag k="natural" v="hill" />
		<tag k="place" v="locality" />
		<tag k="ssr:stedsnr" v="266841" />
	</node>
	<node lat="58.791991064589745" lon="9.071277697987403" id="-36242">
		<tag k="name" v="Haugemoenheia" />
		<tag k="natural" v="hill" />
		<tag k="place" v="locality" />
		<tag k="ssr:stedsnr" v="266952" />
	</node>
	<node lat="58.78184444292589" lon="9.163811116740087" id="-36258">
		<tag k="alt_name" v="Ilvorsdalen" />
		<tag k="name" v="Illversdalen" />
		<tag k="natural" v="valley" />
		<tag k="place" v="locality" />
		<tag k="ssr:stedsnr" v="305450" />
	</node>
	<node lat="58.67883611223242" lon="9.169913897107211" id="-36262">
		<tag k="name" v="Svintoksheia" />
		<tag k="natural" v="hill" />
		<tag k="place" v="locality" />
		<tag k="ssr:stedsnr" v="326028" />
	</node>
	<node lat="58.679152776487676" lon="9.163383334291646" id="-36263">
		<tag k="name" v="Kollbonnen" />
		<tag k="natural" v="valley" />
		<tag k="place" v="locality" />
		<tag k="ssr:stedsnr" v="326030" />
	</node>
	<node lat="58.73420555817932" lon="9.138627777854554" id="-36264">
		<tag k="name" v="Øyknuten" />
		<tag k="natural" v="hill" />
		<tag k="place" v="locality" />
		<tag k="ssr:stedsnr" v="326206" />
	</node>
	<node lat="58.791666665888286" lon="9.079688881019345" id="-36265">
		<tag k="name" v="Skallbakken" />
		<tag k="natural" v="slope" />
		<tag k="place" v="locality" />
		<tag k="ssr:stedsnr" v="326211" />
	</node>
	<node lat="58.687736112532875" lon="9.193411112078252" id="-36267">
		<tag k="fixme" v="consider natural=peak for the most distinct mountains in the district" />
		<tag k="name" v="Ønderåsen" />
		<tag k="natural" v="hill" />
		<tag k="place" v="locality" />
		<tag k="ssr:stedsnr" v="326224" />
	</node>
	<node lat="58.74119166650929" lon="9.05624167205252" id="-36271">
		<tag k="name" v="Revstøknuten" />
		<tag k="natural" v="hill" />
		<tag k="place" v="locality" />
		<tag k="ssr:stedsnr" v="326166" />
	</node>
	<node lat="58.79094167004056" lon="9.07230832964844" id="-36273">
		<tag k="name" v="Koksfjell" />
		<tag k="natural" v="hill" />
		<tag k="place" v="locality" />
		<tag k="ssr:stedsnr" v="326182" />
	</node>
	<node lat="58.74666944172114" lon="9.298738881080384" id="-36280">
		<tag k="name" v="Sudapfjellet" />
		<tag k="natural" v="hill" />
		<tag k="place" v="locality" />
		<tag k="ssr:stedsnr" v="326513" />
	</node>
	<node lat="58.7461277738926" lon="9.192747219176399" id="-36283">
		<tag k="name" v="Landheia" />
		<tag k="natural" v="hill" />
		<tag k="place" v="locality" />
		<tag k="ssr:stedsnr" v="326403" />
	</node>
	<node lat="58.734622222425685" lon="9.203497214310737" id="-36285">
		<tag k="name" v="Skjulsdalen" />
		<tag k="natural" v="valley" />
		<tag k="place" v="locality" />
		<tag k="ssr:stedsnr" v="326413" />
	</node>
	<node lat="58.70743611487472" lon="8.990241670971097" id="-36296">
		<tag k="name" v="Granmoen" />
		<tag k="place" v="locality" />
		<tag k="ssr:stedsnr" v="327967" />
	</node>
	<node lat="58.79161388462909" lon="9.196819441357167" id="-36308">
		<tag k="fixme" v="consider natural=peak for the most distinct mountains in the district" />
		<tag k="name" v="Midtkilheia" />
		<tag k="natural" v="hill" />
		<tag k="place" v="locality" />
		<tag k="ssr:stedsnr" v="365454" />
	</node>
	<node lat="58.77434999800627" lon="9.138544450029443" id="-36311">
		<tag k="alt_name" v="Glupeåsen" />
		<tag k="fixme" v="consider natural=peak for the most distinct mountains in the district" />
		<tag k="name" v="Glupåsen" />
		<tag k="natural" v="hill" />
		<tag k="place" v="locality" />
		<tag k="ssr:stedsnr" v="366432" />
	</node>
	<node lat="58.771169444253836" lon="9.26381111211733" id="-36314">
		<tag k="name" v="Hødnebøknuten" />
		<tag k="natural" v="hill" />
		<tag k="place" v="locality" />
		<tag k="ssr:stedsnr" v="387117" />
	</node>
	<node lat="58.76065000445745" lon="9.134744444204378" id="-36320">
		<tag k="fixme" v="consider natural=peak for the most distinct mountains in the district" />
		<tag k="name" v="Heståsen" />
		<tag k="natural" v="hill" />
		<tag k="place" v="locality" />
		<tag k="ssr:stedsnr" v="387161" />
	</node>
	<node lat="58.791763889772724" lon="9.085666668805901" id="-36322">
		<tag k="name" v="Eivindsbråte" />
		<tag k="natural" v="slope" />
		<tag k="place" v="locality" />
		<tag k="ssr:stedsnr" v="387201" />
	</node>
	<node lat="58.764736110386835" lon="9.35003333309932" id="-36324">
		<tag k="name" v="Verdalen" />
		<tag k="natural" v="valley" />
		<tag k="place" v="locality" />
		<tag k="ssr:stedsnr" v="387324" />
	</node>
	<node lat="58.78513611129871" lon="9.072702783045544" id="-36326">
		<tag k="name" v="Klubbkleivene" />
		<tag k="natural" v="slope" />
		<tag k="place" v="locality" />
		<tag k="ssr:stedsnr" v="387204" />
	</node>
	<node lat="58.77756944379977" lon="9.115299995445923" id="-36332">
		<tag k="fixme" v="consider natural=peak for the most distinct mountains in the district" />
		<tag k="name" v="Helleråsen" />
		<tag k="natural" v="hill" />
		<tag k="place" v="locality" />
		<tag k="ssr:stedsnr" v="387262" />
	</node>
	<node lat="58.708344440038964" lon="9.092280554643404" id="-36339">
		<tag k="name" v="Ingbretsås" />
		<tag k="natural" v="hill" />
		<tag k="place" v="locality" />
		<tag k="ssr:stedsnr" v="387743" />
	</node>
	<node lat="58.70818610791456" lon="9.086138894788112" id="-36340">
		<tag k="name" v="Eidsbekkheia" />
		<tag k="natural" v="hill" />
		<tag k="place" v="locality" />
		<tag k="ssr:stedsnr" v="387747" />
	</node>
	<node lat="58.73394166601775" lon="9.020272220033856" id="-36341">
		<tag k="name" v="Huldknatten" />
		<tag k="natural" v="hill" />
		<tag k="place" v="locality" />
		<tag k="ssr:stedsnr" v="387962" />
	</node>
	<node lat="58.7600777760528" lon="9.05576944072714" id="-36352">
		<tag k="fixme" v="consider natural=peak for the most distinct mountains in the district" />
		<tag k="name" v="Ormåsen" />
		<tag k="natural" v="hill" />
		<tag k="place" v="locality" />
		<tag k="ssr:stedsnr" v="486050" />
	</node>
	<node lat="58.75098889312595" lon="9.138916669877428" id="-36356">
		<tag k="fixme" v="consider natural=peak for the most distinct mountains in the district" />
		<tag k="name" v="Trollåsen" />
		<tag k="natural" v="hill" />
		<tag k="place" v="locality" />
		<tag k="ssr:stedsnr" v="486395" />
	</node>
	<node lat="58.75469166512493" lon="9.04513334112543" id="-36357">
		<tag k="name" v="Vårbakken" />
		<tag k="natural" v="slope" />
		<tag k="place" v="locality" />
		<tag k="ssr:stedsnr" v="486432" />
	</node>
	<node lat="58.735597221331346" lon="9.04496389300541" id="-36359">
		<tag k="fixme" v="consider natural=peak for the most distinct mountains in the district" />
		<tag k="name" v="Ormåsen" />
		<tag k="natural" v="hill" />
		<tag k="place" v="locality" />
		<tag k="ssr:stedsnr" v="486553" />
	</node>
	<node lat="58.78711110806583" lon="9.096850002073923" id="-36369">
		<tag k="fixme" v="consider natural=peak for the most distinct mountains in the district" />
		<tag k="name" v="Eikenes" />
		<tag k="natural" v="hill" />
		<tag k="place" v="locality" />
		<tag k="ssr:stedsnr" v="426439" />
	</node>
	<node lat="58.74588333157025" lon="9.04723055773398" id="-36370">
		<tag k="alt_name" v="Kjerrnipen" />
		<tag k="fixme" v="consider natural=peak for the most distinct mountains in the district" />
		<tag k="name" v="Kjerrnipa" />
		<tag k="natural" v="hill" />
		<tag k="place" v="locality" />
		<tag k="ssr:stedsnr" v="426497" />
	</node>
	<node lat="58.74560833781438" lon="9.029377779475384" id="-36371">
		<tag k="alt_name" v="Geitefjell" />
		<tag k="fixme" v="consider natural=peak for the most distinct mountains in the district" />
		<tag k="name" v="Geitfjellet" />
		<tag k="natural" v="hill" />
		<tag k="place" v="locality" />
		<tag k="ssr:stedsnr" v="426501" />
	</node>
	<node lat="58.67111944658181" lon="9.193344448246386" id="-36378">
		<tag k="name" v="Vinterkleiv" />
		<tag k="natural" v="slope" />
		<tag k="place" v="locality" />
		<tag k="ssr:stedsnr" v="448026" />
	</node>
	<node lat="58.68910277931105" lon="9.182958337337666" id="-36379">
		<tag k="name" v="Tjærehjellen" />
		<tag k="natural" v="hill" />
		<tag k="place" v="locality" />
		<tag k="ssr:stedsnr" v="448080" />
	</node>
	<node lat="58.76788888825637" lon="9.255044449354225" id="-36380">
		<tag k="name" v="Okseliene" />
		<tag k="natural" v="slope" />
		<tag k="place" v="locality" />
		<tag k="ssr:stedsnr" v="448113" />
	</node>
	<node lat="58.7429555595953" lon="9.104677781728327" id="-36382">
		<tag k="fixme" v="consider natural=peak for the most distinct mountains in the district" />
		<tag k="name" v="Geitefjell" />
		<tag k="natural" v="hill" />
		<tag k="place" v="locality" />
		<tag k="ssr:stedsnr" v="448182" />
	</node>
	<node lat="58.66315833312291" lon="9.144425004081533" id="-36389">
		<tag k="name" v="Stormyrheia" />
		<tag k="natural" v="hill" />
		<tag k="place" v="locality" />
		<tag k="ssr:stedsnr" v="448327" />
	</node>
	<node lat="58.68559444713616" lon="9.087419438688382" id="-36391">
		<tag k="name" v="Grimslandsliene" />
		<tag k="natural" v="slope" />
		<tag k="place" v="locality" />
		<tag k="ssr:stedsnr" v="448275" />
	</node>
	<node lat="58.67529444032343" lon="9.150827771055248" id="-36392">
		<tag k="name" v="Kilsdalen" />
		<tag k="natural" v="valley" />
		<tag k="place" v="locality" />
		<tag k="ssr:stedsnr" v="448281" />
	</node>
	<node lat="58.735574997079325" lon="9.200861117943218" id="-36396">
		<tag k="name" v="Merrheia" />
		<tag k="natural" v="hill" />
		<tag k="place" v="locality" />
		<tag k="ssr:stedsnr" v="448424" />
	</node>
	<node lat="58.752997218195866" lon="9.282438894751678" id="-36399">
		<tag k="name" v="Kallerberg" />
		<tag k="natural" v="hill" />
		<tag k="place" v="locality" />
		<tag k="ssr:stedsnr" v="448513" />
	</node>
	<node lat="58.75498889034799" lon="9.052711113563792" id="-36404">
		<tag k="fixme" v="consider natural=peak for the most distinct mountains in the district" />
		<tag k="name" v="Lille Gullås" />
		<tag k="natural" v="hill" />
		<tag k="place" v="locality" />
		<tag k="ssr:stedsnr" v="448842" />
	</node>
	<node lat="58.75638888471143" lon="9.091222223514087" id="-36406">
		<tag k="name" v="Hasdalen" />
		<tag k="natural" v="valley" />
		<tag k="place" v="locality" />
		<tag k="ssr:stedsnr" v="448853" />
	</node>
	<node lat="58.70611388755501" lon="8.99427221892904" id="-36407">
		<tag k="name" v="Dalhei" />
		<tag k="natural" v="hill" />
		<tag k="place" v="locality" />
		<tag k="ssr:stedsnr" v="448988" />
	</node>
	<node lat="58.770541665255095" lon="9.119386109124846" id="-36416">
		<tag k="alt_name" v="Bjelkemyrhei" />
		<tag k="fixme" v="consider natural=peak for the most distinct mountains in the district" />
		<tag k="name" v="Bjelkemyrheia" />
		<tag k="natural" v="hill" />
		<tag k="place" v="locality" />
		<tag k="ssr:stedsnr" v="486406" />
	</node>
	<node lat="58.7727222189756" lon="9.254997215940545" id="-36424">
		<tag k="name" v="Røyslandsknuten" />
		<tag k="natural" v="hill" />
		<tag k="place" v="locality" />
		<tag k="ssr:stedsnr" v="508101" />
	</node>
	<node lat="58.79881666512236" lon="9.142966670502744" id="-36425">
		<tag k="fixme" v="consider natural=peak for the most distinct mountains in the district" />
		<tag k="name" v="Ramsåsen" />
		<tag k="natural" v="hill" />
		<tag k="place" v="locality" />
		<tag k="ssr:stedsnr" v="508216" />
	</node>
	<node lat="58.67338055820019" lon="9.13918056274631" id="-36428">
		<tag k="name" v="Østerheia" />
		<tag k="natural" v="hill" />
		<tag k="place" v="locality" />
		<tag k="ssr:stedsnr" v="508262" />
	</node>
	<node lat="58.68724444167408" lon="9.147216658049368" id="-36429">
		<tag k="fixme" v="consider natural=peak for the most distinct mountains in the district" />
		<tag k="name" v="Rønningsåsen" />
		<tag k="natural" v="hill" />
		<tag k="place" v="locality" />
		<tag k="ssr:stedsnr" v="508263" />
	</node>
	<node lat="58.77849721920013" lon="9.073747230389825" id="-36433">
		<tag k="name" v="Tjenndalen" />
		<tag k="natural" v="valley" />
		<tag k="place" v="locality" />
		<tag k="ssr:stedsnr" v="508193" />
	</node>
	<node lat="58.73370000417138" lon="9.154230547492492" id="-36436">
		<tag k="fixme" v="consider natural=peak for the most distinct mountains in the district" />
		<tag k="name" v="Muskattåsen" />
		<tag k="natural" v="hill" />
		<tag k="place" v="locality" />
		<tag k="ssr:stedsnr" v="508197" />
	</node>
	<node lat="58.7629027770548" lon="9.338058334312851" id="-36437">
		<tag k="name" v="Melkeheia" />
		<tag k="natural" v="hill" />
		<tag k="place" v="locality" />
		<tag k="ssr:stedsnr" v="508322" />
	</node>
	<node lat="58.782058330399686" lon="9.322986118217644" id="-36439">
		<tag k="name" v="Kallarberg" />
		<tag k="natural" v="slope" />
		<tag k="place" v="locality" />
		<tag k="ssr:stedsnr" v="508342" />
	</node>
	<node lat="58.76961110844794" lon="9.271013885343494" id="-36444">
		<tag k="name" v="Vinterkleiva" />
		<tag k="natural" v="slope" />
		<tag k="place" v="locality" />
		<tag k="ssr:stedsnr" v="508523" />
	</node>
	<node lat="58.71092499621419" lon="9.076869439942595" id="-36445">
		<tag k="fixme" v="consider natural=peak for the most distinct mountains in the district" />
		<tag k="name" v="Fløyknatten" />
		<tag k="natural" v="hill" />
		<tag k="place" v="locality" />
		<tag k="ssr:stedsnr" v="508807" />
	</node>
	<node lat="58.71034166476734" lon="9.072008337027086" id="-36446">
		<tag k="name" v="Heiane" />
		<tag k="natural" v="hill" />
		<tag k="place" v="locality" />
		<tag k="ssr:stedsnr" v="508810" />
	</node>
	<node lat="58.71742500285761" lon="9.07949167347178" id="-36451">
		<tag k="fixme" v="consider natural=peak for the most distinct mountains in the district" />
		<tag k="name" v="Kufjell" />
		<tag k="natural" v="hill" />
		<tag k="place" v="locality" />
		<tag k="ssr:stedsnr" v="508796" />
	</node>
	<node lat="58.723591667408066" lon="9.014108333500356" id="-36452">
		<tag k="name" v="Sotingskleiv" />
		<tag k="natural" v="slope" />
		<tag k="place" v="locality" />
		<tag k="ssr:stedsnr" v="508902" />
	</node>
	<node lat="58.74896388910652" lon="9.044313891306512" id="-36453">
		<tag k="name" v="Tjennheia" />
		<tag k="natural" v="hill" />
		<tag k="place" v="locality" />
		<tag k="ssr:stedsnr" v="508954" />
	</node>
	<node lat="58.70145833544762" lon="9.03037222095988" id="-36457">
		<tag k="name" v="Bordalen" />
		<tag k="natural" v="valley" />
		<tag k="place" v="locality" />
		<tag k="ssr:stedsnr" v="509971" />
	</node>
	<node lat="58.803430557394286" lon="9.19979999142146" id="-36467">
		<tag k="fixme" v="consider natural=peak for the most distinct mountains in the district" />
		<tag k="name" v="Hølsknuten" />
		<tag k="natural" v="hill" />
		<tag k="place" v="locality" />
		<tag k="ssr:stedsnr" v="547518" />
	</node>
	<node lat="58.80351111169388" lon="9.154138886323233" id="-36469">
		<tag k="fixme" v="consider natural=peak for the most distinct mountains in the district" />
		<tag k="name" v="Andtjennheia" />
		<tag k="natural" v="hill" />
		<tag k="place" v="locality" />
		<tag k="ssr:stedsnr" v="547522" />
	</node>
	<node lat="58.690713891889345" lon="9.202238883715182" id="-36475">
		<tag k="name" v="Vintermyrheia" />
		<tag k="natural" v="hill" />
		<tag k="place" v="locality" />
		<tag k="ssr:stedsnr" v="690064" />
	</node>
	<node lat="58.68502500325639" lon="9.14921666584654" id="-36479">
		<tag k="fixme" v="consider natural=peak for the most distinct mountains in the district" />
		<tag k="name" v="Naddalsknuten" />
		<tag k="natural" v="hill" />
		<tag k="place" v="locality" />
		<tag k="ssr:stedsnr" v="690312" />
	</node>
	<node lat="58.669094443784545" lon="9.154522228138175" id="-36480">
		<tag k="name" v="Sundsdalsheia" />
		<tag k="natural" v="hill" />
		<tag k="place" v="locality" />
		<tag k="ssr:stedsnr" v="690325" />
	</node>
	<node lat="58.74925277755587" lon="9.175022225960927" id="-36481">
		<tag k="name" v="Erikshei" />
		<tag k="natural" v="hill" />
		<tag k="place" v="locality" />
		<tag k="ssr:stedsnr" v="690431" />
	</node>
	<node lat="58.743286114789576" lon="9.175349995785524" id="-36482">
		<tag k="name" v="Skinnbleia" />
		<tag k="natural" v="hill" />
		<tag k="place" v="locality" />
		<tag k="ssr:stedsnr" v="690433" />
	</node>
	<node lat="58.73385277829951" lon="9.181433331012594" id="-36483">
		<tag k="name" v="Taraldsheia" />
		<tag k="natural" v="hill" />
		<tag k="place" v="locality" />
		<tag k="ssr:stedsnr" v="690440" />
	</node>
	<node lat="58.809019443659764" lon="9.17376666997234" id="-36484">
		<tag k="name" v="Barlinddalen" />
		<tag k="natural" v="valley" />
		<tag k="place" v="locality" />
		<tag k="ssr:stedsnr" v="690451" />
	</node>
	<node lat="58.75689166229934" lon="9.144966660501025" id="-36489">
		<tag k="name" v="Almenhaugane" />
		<tag k="natural" v="hill" />
		<tag k="place" v="locality" />
		<tag k="ssr:stedsnr" v="690157" />
	</node>
	<node lat="58.73468333587014" lon="9.063083337143532" id="-36492">
		<tag k="name" v="Loftshei" />
		<tag k="natural" v="hill" />
		<tag k="place" v="locality" />
		<tag k="ssr:stedsnr" v="690168" />
	</node>
	<node lat="58.73997222615392" lon="9.116630555273568" id="-36494">
		<tag k="name" v="Hestmyrheia" />
		<tag k="natural" v="hill" />
		<tag k="place" v="locality" />
		<tag k="ssr:stedsnr" v="690170" />
	</node>
	<node lat="58.80653332954869" lon="9.15313610953789" id="-36496">
		<tag k="name" v="Svartufsdalene" />
		<tag k="natural" v="valley" />
		<tag k="place" v="locality" />
		<tag k="ssr:stedsnr" v="690245" />
	</node>
	<node lat="58.76918611099969" lon="9.27353611215892" id="-36506">
		<tag k="name" v="Bråtane" />
		<tag k="natural" v="slope" />
		<tag k="place" v="locality" />
		<tag k="ssr:stedsnr" v="690515" />
	</node>
	<node lat="58.79832500145013" lon="9.220597214928576" id="-36508">
		<tag k="name" v="Vasspollheia" />
		<tag k="natural" v="hill" />
		<tag k="place" v="locality" />
		<tag k="ssr:stedsnr" v="690475" />
	</node>
	<node lat="58.712516666700935" lon="9.106133330766758" id="-36511">
		<tag k="name" v="Lauvhjelldalen" />
		<tag k="natural" v="valley" />
		<tag k="place" v="locality" />
		<tag k="ssr:stedsnr" v="690799" />
	</node>
	<node lat="58.698499996973965" lon="9.123938882633075" id="-36514">
		<tag k="name" v="Brattkleiv" />
		<tag k="natural" v="slope" />
		<tag k="place" v="locality" />
		<tag k="ssr:stedsnr" v="690883" />
	</node>
	<node lat="58.75415277352769" lon="9.025052783262975" id="-36519">
		<tag k="name" v="Lille Espehaugen" />
		<tag k="natural" v="hill" />
		<tag k="place" v="locality" />
		<tag k="ssr:stedsnr" v="690947" />
	</node>
	<node lat="58.756072226535416" lon="9.03819999328323" id="-36520">
		<tag k="name" v="Klemstra" />
		<tag k="natural" v="valley" />
		<tag k="place" v="locality" />
		<tag k="ssr:stedsnr" v="690949" />
	</node>
	<node lat="58.825358335591886" lon="9.187108332467929" id="-36533">
		<tag k="name" v="Bronen" />
		<tag k="natural" v="hill" />
		<tag k="place" v="locality" />
		<tag k="ssr:stedsnr" v="569305" />
	</node>
	<node lat="58.733880557012725" lon="9.150447230787385" id="-36538">
		<tag k="name" v="Gruveheia" />
		<tag k="natural" v="hill" />
		<tag k="place" v="locality" />
		<tag k="ssr:stedsnr" v="569221" />
	</node>
	<node lat="58.67933333067896" lon="9.1040888929646" id="-36539">
		<tag k="fixme" v="consider natural=peak for the most distinct mountains in the district" />
		<tag k="name" v="Kjerrmyråsen" />
		<tag k="natural" v="hill" />
		<tag k="place" v="locality" />
		<tag k="ssr:stedsnr" v="569267" />
	</node>
	<node lat="58.68720000020521" lon="9.104961107497303" id="-36540">
		<tag k="name" v="Byttingsklova" />
		<tag k="natural" v="valley" />
		<tag k="place" v="locality" />
		<tag k="ssr:stedsnr" v="569271" />
	</node>
	<node lat="58.68181667099402" lon="9.13034443654046" id="-36542">
		<tag k="name" v="Lundkleivheia" />
		<tag k="natural" v="hill" />
		<tag k="place" v="locality" />
		<tag k="ssr:stedsnr" v="569278" />
	</node>
	<node lat="58.72603610980219" lon="9.092924998372393" id="-36545">
		<tag k="name" v="Bergnebbliene" />
		<tag k="natural" v="slope" />
		<tag k="place" v="locality" />
		<tag k="ssr:stedsnr" v="569752" />
	</node>
	<node lat="58.73956944555192" lon="9.035452772900937" id="-36549">
		<tag k="name" v="Molandsdalen" />
		<tag k="natural" v="valley" />
		<tag k="place" v="locality" />
		<tag k="ssr:stedsnr" v="569959" />
	</node>
	<node lat="58.72806110702256" lon="9.166974991812145" id="-36565">
		<tag k="name" v="Porsmyrheia" />
		<tag k="natural" v="hill" />
		<tag k="place" v="locality" />
		<tag k="ssr:stedsnr" v="629006" />
	</node>
	<node lat="58.778936109731575" lon="9.2831527813737" id="-36576">
		<tag k="name" v="Mosehei" />
		<tag k="natural" v="hill" />
		<tag k="place" v="locality" />
		<tag k="ssr:stedsnr" v="629343" />
	</node>
	<node lat="58.75125555376041" lon="9.319372215233392" id="-36580">
		<tag k="name" v="Vollheia" />
		<tag k="natural" v="hill" />
		<tag k="place" v="locality" />
		<tag k="ssr:stedsnr" v="629508" />
	</node>
	<node lat="58.76129444148153" lon="9.063458327176798" id="-36587">
		<tag k="name" v="Orreknatten" />
		<tag k="natural" v="hill" />
		<tag k="place" v="locality" />
		<tag k="ssr:stedsnr" v="629806" />
	</node>
	<node lat="58.76684722322164" lon="9.092958338666516" id="-36588">
		<tag k="name" v="Askedalen" />
		<tag k="natural" v="valley" />
		<tag k="place" v="locality" />
		<tag k="ssr:stedsnr" v="629814" />
	</node>
	<node lat="58.765302779756965" lon="9.099777783087383" id="-36589">
		<tag k="name" v="Lille Heiberg" />
		<tag k="natural" v="hill" />
		<tag k="place" v="locality" />
		<tag k="ssr:stedsnr" v="629816" />
	</node>
	<node lat="58.77093055238914" lon="9.156758330778686" id="-36590">
		<tag k="name" v="Landskåt" />
		<tag k="natural" v="valley" />
		<tag k="place" v="locality" />
		<tag k="ssr:stedsnr" v="629825" />
	</node>
	<node lat="58.773586110864535" lon="9.129869437609225" id="-36591">
		<tag k="name" v="Knappersdal" />
		<tag k="natural" v="valley" />
		<tag k="place" v="locality" />
		<tag k="ssr:stedsnr" v="629833" />
	</node>
	<node lat="58.72108611302865" lon="9.079699997733183" id="-36593">
		<tag k="fixme" v="consider natural=peak for the most distinct mountains in the district" />
		<tag k="name" v="Gardslifjell" />
		<tag k="natural" v="hill" />
		<tag k="place" v="locality" />
		<tag k="ssr:stedsnr" v="629791" />
	</node>
	<node lat="58.66452499946332" lon="9.153816660318451" id="-36599">
		<tag k="name" v="Dampestolen" />
		<tag k="natural" v="cliff" />
		<tag k="ssr:stedsnr" v="633492" />
	</node>
	<node lat="58.7647666656624" lon="9.049658339987074" id="-36607">
		<tag k="fixme" v="consider natural=peak for the most distinct mountains in the district" />
		<tag k="name" v="Pineknuten" />
		<tag k="natural" v="hill" />
		<tag k="place" v="locality" />
		<tag k="ssr:stedsnr" v="668409" />
	</node>
	<node lat="58.765850002915904" lon="9.17610000393346" id="-36609">
		<tag k="alt_name" v="Stiheia" />
		<tag k="fixme" v="consider natural=peak for the most distinct mountains in the district" />
		<tag k="name" v="Stigheia" />
		<tag k="natural" v="hill" />
		<tag k="place" v="locality" />
		<tag k="ssr:stedsnr" v="668415" />
	</node>
	<node lat="58.75951111076364" lon="9.189688892652395" id="-36610">
		<tag k="fixme" v="consider natural=peak for the most distinct mountains in the district" />
		<tag k="name" v="Skaltjennhausene" />
		<tag k="natural" v="hill" />
		<tag k="place" v="locality" />
		<tag k="ssr:stedsnr" v="668385" />
	</node>
	<node lat="58.75448888652529" lon="9.14145555836044" id="-36611">
		<tag k="fixme" v="consider natural=peak for the most distinct mountains in the district" />
		<tag k="name" v="Skreiåsen" />
		<tag k="natural" v="hill" />
		<tag k="place" v="locality" />
		<tag k="ssr:stedsnr" v="668399" />
	</node>
	<node lat="58.73536666681921" lon="9.217886105303393" id="-36615">
		<tag k="fixme" v="consider natural=peak for the most distinct mountains in the district" />
		<tag k="name" v="Tjenndalsheia" />
		<tag k="natural" v="hill" />
		<tag k="place" v="locality" />
		<tag k="ssr:stedsnr" v="668587" />
	</node>
	<node lat="58.758719447941644" lon="9.22887778380708" id="-36617">
		<tag k="fixme" v="consider natural=peak for the most distinct mountains in the district" />
		<tag k="name" v="Jomfrulandsåsen" />
		<tag k="natural" v="hill" />
		<tag k="place" v="locality" />
		<tag k="ssr:stedsnr" v="690104" />
	</node>
	<node lat="58.738013889277255" lon="9.05853888110199" id="-36619">
		<tag k="name" v="Angerskleiv" />
		<tag k="natural" v="slope" />
		<tag k="place" v="locality" />
		<tag k="ssr:stedsnr" v="690208" />
	</node>
	<node lat="58.68535277484361" lon="9.17316667448782" id="-36621">
		<tag k="name" v="Bjørndals Fløyhei" />
		<tag k="natural" v="hill" />
		<tag k="place" v="locality" />
		<tag k="ssr:stedsnr" v="690262" />
	</node>
	<node lat="58.74437222182522" lon="9.08401111447378" id="-36623">
		<tag k="fixme" v="consider natural=peak for the most distinct mountains in the district" />
		<tag k="name" v="Høgheia" />
		<tag k="natural" v="hill" />
		<tag k="place" v="locality" />
		<tag k="ssr:stedsnr" v="690129" />
	</node>
	<node lat="58.74115833216269" lon="9.076900003945646" id="-36625">
		<tag k="fixme" v="consider natural=peak for the most distinct mountains in the district" />
		<tag k="name" v="Middagsåsen" />
		<tag k="natural" v="hill" />
		<tag k="place" v="locality" />
		<tag k="ssr:stedsnr" v="690181" />
	</node>
	<node lat="58.74293888745949" lon="9.082088892610463" id="-36626">
		<tag k="name" v="Sandvikheia" />
		<tag k="natural" v="hill" />
		<tag k="place" v="locality" />
		<tag k="ssr:stedsnr" v="690184" />
	</node>
	<node lat="58.738430557830384" lon="9.095355547310152" id="-36630">
		<tag k="name" v="Tangvarden" />
		<tag k="natural" v="hill" />
		<tag k="place" v="locality" />
		<tag k="ssr:stedsnr" v="690201" />
	</node>
	<node lat="58.77655833592348" lon="9.2885833366445" id="-36631">
		<tag k="name" v="Porsmyrheia" />
		<tag k="natural" v="hill" />
		<tag k="place" v="locality" />
		<tag k="ssr:stedsnr" v="690376" />
	</node>
	<node lat="58.78231944526826" lon="9.328291662609535" id="-36634">
		<tag k="name" v="Kallarbergliene" />
		<tag k="natural" v="slope" />
		<tag k="place" v="locality" />
		<tag k="ssr:stedsnr" v="690394" />
	</node>
	<node lat="58.72426667053345" lon="9.123250004883094" id="-36642">
		<tag k="name" v="Kisskår" />
		<tag k="natural" v="valley" />
		<tag k="place" v="locality" />
		<tag k="ssr:stedsnr" v="690777" />
	</node>
	<node lat="58.71051944089576" lon="9.089252774638334" id="-36644">
		<tag k="name" v="Graskjerrheia" />
		<tag k="natural" v="hill" />
		<tag k="place" v="locality" />
		<tag k="ssr:stedsnr" v="690809" />
	</node>
	<node lat="58.772366664050416" lon="9.099094451154539" id="-36647">
		<tag k="fixme" v="consider natural=peak for the most distinct mountains in the district" />
		<tag k="name" v="Blåbæråsen" />
		<tag k="natural" v="hill" />
		<tag k="place" v="locality" />
		<tag k="ssr:stedsnr" v="690837" />
	</node>
	<node lat="58.73303611195287" lon="9.171663891275308" id="-36654">
		<tag k="name" v="Gruveheia" />
		<tag k="natural" v="hill" />
		<tag k="place" v="locality" />
		<tag k="ssr:stedsnr" v="691399" />
	</node>
	<node lat="58.70527500314304" lon="9.027177769513386" id="-36658">
		<tag k="fixme" v="consider natural=peak for the most distinct mountains in the district" />
		<tag k="name" v="Miåsen" />
		<tag k="natural" v="hill" />
		<tag k="place" v="locality" />
		<tag k="ssr:stedsnr" v="691987" />
	</node>
	<node lat="58.81663055840615" lon="9.181569448319125" id="-36662">
		<tag k="fixme" v="consider natural=peak for the most distinct mountains in the district" />
		<tag k="name" v="Lindfjellheia" />
		<tag k="natural" v="hill" />
		<tag k="place" v="locality" />
		<tag k="ssr:stedsnr" v="729011" />
	</node>
	<node lat="58.73013889334304" lon="8.991849997564874" id="-36670">
		<tag k="alt_name" v="Langhølknatten" />
		<tag k="fixme" v="consider natural=peak for the most distinct mountains in the district" />
		<tag k="name" v="Langhølknuten" />
		<tag k="natural" v="hill" />
		<tag k="place" v="locality" />
		<tag k="ssr:stedsnr" v="729568" />
	</node>
	<node lat="58.72444999804953" lon="9.064258332109786" id="-36672">
		<tag k="fixme" v="consider natural=peak for the most distinct mountains in the district" />
		<tag k="name" v="Storåsen" />
		<tag k="natural" v="hill" />
		<tag k="place" v="locality" />
		<tag k="ssr:stedsnr" v="729590" />
	</node>
	<node lat="58.750891668053406" lon="9.118866673905632" id="-36683">
		<tag k="fixme" v="consider natural=peak for the most distinct mountains in the district" />
		<tag k="name" v="Sagåsen" />
		<tag k="natural" v="hill" />
		<tag k="place" v="locality" />
		<tag k="ssr:stedsnr" v="751167" />
	</node>
	<node lat="58.670077774211286" lon="9.142688888661521" id="-36684">
		<tag k="fixme" v="consider natural=peak for the most distinct mountains in the district" />
		<tag k="name" v="Hopeknollen" />
		<tag k="natural" v="hill" />
		<tag k="place" v="locality" />
		<tag k="ssr:stedsnr" v="751308" />
	</node>
	<node lat="58.68091389177601" lon="9.082483324901514" id="-36688">
		<tag k="fixme" v="consider natural=peak for the most distinct mountains in the district" />
		<tag k="name" v="Merråsen" />
		<tag k="natural" v="hill" />
		<tag k="place" v="locality" />
		<tag k="ssr:stedsnr" v="751271" />
	</node>
	<node lat="58.67736944693873" lon="9.146161116657035" id="-36689">
		<tag k="name" v="Askedalen" />
		<tag k="natural" v="valley" />
		<tag k="place" v="locality" />
		<tag k="ssr:stedsnr" v="751280" />
	</node>
	<node lat="58.718527777805654" lon="9.144305552688753" id="-36694">
		<tag k="fixme" v="consider natural=peak for the most distinct mountains in the district" />
		<tag k="name" v="Seljåsen" />
		<tag k="natural" v="hill" />
		<tag k="place" v="locality" />
		<tag k="ssr:stedsnr" v="751762" />
	</node>
	<node lat="58.701133329513574" lon="9.17608889109962" id="-36703">
		<tag k="name" v="Stranddalsheia" />
		<tag k="natural" v="hill" />
		<tag k="place" v="locality" />
		<tag k="ssr:stedsnr" v="752067" />
	</node>
	<node lat="58.70442222624511" lon="9.004555559896364" id="-36710">
		<tag k="fixme" v="consider natural=peak for the most distinct mountains in the district" />
		<tag k="name" v="Lidlands-Husfjell" />
		<tag k="natural" v="hill" />
		<tag k="place" v="locality" />
		<tag k="ssr:stedsnr" v="784916" />
	</node>
	<node lat="58.76780278211583" lon="9.137791658688288" id="-36713">
		<tag k="fixme" v="consider natural=peak for the most distinct mountains in the district" />
		<tag k="name" v="Lyåsen" />
		<tag k="natural" v="hill" />
		<tag k="place" v="locality" />
		<tag k="ssr:stedsnr" v="911406" />
	</node>
	<node lat="58.766888889891" lon="9.006988881777215" id="-36717">
		<tag k="fixme" v="consider natural=peak for the most distinct mountains in the district" />
		<tag k="name" v="Brattlandsheia" />
		<tag k="natural" v="hill" />
		<tag k="place" v="locality" />
		<tag k="ssr:stedsnr" v="911393" />
	</node>
	<node lat="58.72964444868454" lon="9.010658330807516" id="-36723">
		<tag k="fixme" v="consider natural=peak for the most distinct mountains in the district" />
		<tag k="name" v="Fjerbuheia" />
		<tag k="natural" v="hill" />
		<tag k="place" v="locality" />
		<tag k="ssr:stedsnr" v="911568" />
	</node>
	<node lat="58.79431111311885" lon="9.211783334761177" id="-36730">
		<tag k="alt_name" v="Vondheiene" />
		<tag k="fixme" v="consider natural=peak for the most distinct mountains in the district" />
		<tag k="name" v="Vondheiane" />
		<tag k="natural" v="hill" />
		<tag k="place" v="locality" />
		<tag k="ssr:stedsnr" v="790455" />
	</node>
	<node lat="58.75898888769214" lon="9.16928610397375" id="-36731">
		<tag k="alt_name" v="Vinterveiåsen" />
		<tag k="fixme" v="consider natural=peak for the most distinct mountains in the district" />
		<tag k="name" v="Vintervegåsen" />
		<tag k="natural" v="hill" />
		<tag k="place" v="locality" />
		<tag k="ssr:stedsnr" v="790345" />
	</node>
	<node lat="58.78597777900812" lon="9.24086389677749" id="-36737">
		<tag k="fixme" v="consider natural=peak for the most distinct mountains in the district" />
		<tag k="name" v="Bjørndalsfjellet" />
		<tag k="natural" v="hill" />
		<tag k="place" v="locality" />
		<tag k="ssr:stedsnr" v="791538" />
	</node>
	<node lat="58.77917500305819" lon="9.00476110777908" id="-36738">
		<tag k="fixme" v="consider natural=peak for the most distinct mountains in the district" />
		<tag k="name" v="Ljøsvassheia" />
		<tag k="natural" v="hill" />
		<tag k="place" v="locality" />
		<tag k="ssr:stedsnr" v="912433" />
	</node>
	<node lat="58.79533889087283" lon="9.173480548658961" id="-36740">
		<tag k="name" v="Krokdalen" />
		<tag k="natural" v="valley" />
		<tag k="place" v="locality" />
		<tag k="ssr:stedsnr" v="912459" />
	</node>
	<node lat="58.78232499836595" lon="9.215705561595826" id="-36743">
		<tag k="alt_name" v="Neshei" />
		<tag k="fixme" v="consider natural=peak for the most distinct mountains in the district" />
		<tag k="name" v="Nesheia" />
		<tag k="natural" v="hill" />
		<tag k="place" v="locality" />
		<tag k="ssr:stedsnr" v="912484" />
	</node>
	<node lat="58.67569166748006" lon="9.19211944901934" id="-36751">
		<tag k="name" v="Dyvikheia" />
		<tag k="natural" v="hill" />
		<tag k="place" v="locality" />
		<tag k="ssr:stedsnr" v="812021" />
	</node>
	<node lat="58.791174998853265" lon="9.0794500024909" id="-36753">
		<tag k="name" v="Nattliknatten" />
		<tag k="natural" v="hill" />
		<tag k="place" v="locality" />
		<tag k="ssr:stedsnr" v="812212" />
	</node>
	<node lat="58.73761666767298" lon="9.123636109209176" id="-36756">
		<tag k="fixme" v="consider natural=peak for the most distinct mountains in the district" />
		<tag k="name" v="Byttingsåsen" />
		<tag k="natural" v="hill" />
		<tag k="place" v="locality" />
		<tag k="ssr:stedsnr" v="812230" />
	</node>
	<node lat="58.8006000044456" lon="9.156822224496324" id="-36757">
		<tag k="name" v="Limdalen" />
		<tag k="natural" v="valley" />
		<tag k="place" v="locality" />
		<tag k="ssr:stedsnr" v="812233" />
	</node>
	<node lat="58.73220278110792" lon="9.126155554244889" id="-36758">
		<tag k="name" v="Svenesheia" />
		<tag k="natural" v="hill" />
		<tag k="place" v="locality" />
		<tag k="ssr:stedsnr" v="812179" />
	</node>
	<node lat="58.74174444509674" lon="9.1134249987356" id="-36759">
		<tag k="name" v="Lindholpallene" />
		<tag k="natural" v="slope" />
		<tag k="place" v="locality" />
		<tag k="ssr:stedsnr" v="812181" />
	</node>
	<node lat="58.79161667035324" lon="9.199247219633692" id="-36767">
		<tag k="name" v="Sørbødalen" />
		<tag k="natural" v="valley" />
		<tag k="place" v="locality" />
		<tag k="ssr:stedsnr" v="812424" />
	</node>
	<node lat="58.764169441900805" lon="9.075711113044948" id="-36774">
		<tag k="name" v="Ørsmoen" />
		<tag k="place" v="locality" />
		<tag k="ssr:stedsnr" v="812813" />
	</node>
	<node lat="58.697275002574735" lon="9.14172777311917" id="-36775">
		<tag k="name" v="Ramnbergheia" />
		<tag k="natural" v="hill" />
		<tag k="place" v="locality" />
		<tag k="ssr:stedsnr" v="812878" />
	</node>
	<node lat="58.70381388680558" lon="9.016649998470788" id="-36778">
		<tag k="name" v="Liane" />
		<tag k="natural" v="slope" />
		<tag k="place" v="locality" />
		<tag k="ssr:stedsnr" v="812979" />
	</node>
	<node lat="58.76781944237065" lon="9.071725005901001" id="-36783">
		<tag k="fixme" v="consider natural=peak for the most distinct mountains in the district" />
		<tag k="name" v="Rognheia" />
		<tag k="natural" v="hill" />
		<tag k="place" v="locality" />
		<tag k="ssr:stedsnr" v="850395" />
	</node>
	<node lat="58.70186944307827" lon="9.11164166282331" id="-36788">
		<tag k="fixme" v="consider natural=peak for the most distinct mountains in the district" />
		<tag k="name" v="Skyfjell" />
		<tag k="natural" v="hill" />
		<tag k="place" v="locality" />
		<tag k="ssr:stedsnr" v="850603" />
	</node>
	<node lat="58.79106944484589" lon="9.146605552502075" id="-36793">
		<tag k="fixme" v="consider natural=peak for the most distinct mountains in the district" />
		<tag k="name" v="Nordheia" />
		<tag k="natural" v="hill" />
		<tag k="place" v="locality" />
		<tag k="ssr:stedsnr" v="851405" />
	</node>
	<node lat="58.793886108195515" lon="9.077788880582268" id="-36797">
		<tag k="name" v="Kvernhusdalen" />
		<tag k="natural" v="valley" />
		<tag k="place" v="locality" />
		<tag k="ssr:stedsnr" v="872206" />
	</node>
	<node lat="58.67821666484455" lon="9.187636109494717" id="-36804">
		<tag k="name" v="Hellersdalen" />
		<tag k="natural" v="valley" />
		<tag k="place" v="locality" />
		<tag k="ssr:stedsnr" v="933225" />
	</node>
	<node lat="58.66941944216654" lon="9.120227771257849" id="-36806">
		<tag k="name" v="Barlinddalen" />
		<tag k="natural" v="valley" />
		<tag k="place" v="locality" />
		<tag k="ssr:stedsnr" v="933298" />
	</node>
	<node lat="58.669086108462565" lon="9.111161106555418" id="-36807">
		<tag k="name" v="Hestefjell" />
		<tag k="natural" v="hill" />
		<tag k="place" v="locality" />
		<tag k="ssr:stedsnr" v="933304" />
	</node>
	<node lat="58.674333329711345" lon="9.116230547249542" id="-36808">
		<tag k="fixme" v="consider natural=peak for the most distinct mountains in the district" />
		<tag k="name" v="Dypetjennåsen" />
		<tag k="natural" v="hill" />
		<tag k="place" v="locality" />
		<tag k="ssr:stedsnr" v="933305" />
	</node>
	<node lat="58.795988892576574" lon="9.241227772282285" id="-36809">
		<tag k="fixme" v="consider natural=peak for the most distinct mountains in the district" />
		<tag k="name" v="Slettheifjell" />
		<tag k="natural" v="hill" />
		<tag k="place" v="locality" />
		<tag k="ssr:stedsnr" v="933311" />
	</node>
	<node lat="58.744666666752906" lon="9.1354888814271" id="-36816">
		<tag k="name" v="Skutoddheia" />
		<tag k="natural" v="hill" />
		<tag k="place" v="locality" />
		<tag k="ssr:stedsnr" v="933165" />
	</node>
	<node lat="58.742866663754974" lon="9.070849995501918" id="-36817">
		<tag k="fixme" v="consider natural=peak for the most distinct mountains in the district" />
		<tag k="name" v="Blesvikknuten" />
		<tag k="natural" v="hill" />
		<tag k="place" v="locality" />
		<tag k="ssr:stedsnr" v="933169" />
	</node>
	<node lat="58.748052776981105" lon="9.101097229886092" id="-36820">
		<tag k="name" v="Smiberget" />
		<tag k="natural" v="hill" />
		<tag k="place" v="locality" />
		<tag k="ssr:stedsnr" v="933175" />
	</node>
	<node lat="58.6784777809667" lon="9.093494444428677" id="-36821">
		<tag k="fixme" v="consider natural=peak for the most distinct mountains in the district" />
		<tag k="name" v="Store Stabbdalsåsen" />
		<tag k="natural" v="hill" />
		<tag k="place" v="locality" />
		<tag k="ssr:stedsnr" v="933254" />
	</node>
	<node lat="58.68793055676179" lon="9.07604999894271" id="-36823">
		<tag k="fixme" v="consider natural=peak for the most distinct mountains in the district" />
		<tag k="name" v="Åleknuten" />
		<tag k="natural" v="hill" />
		<tag k="place" v="locality" />
		<tag k="ssr:stedsnr" v="933259" />
	</node>
	<node lat="58.789258329223046" lon="9.281647222005308" id="-36829">
		<tag k="name" v="Eikelia" />
		<tag k="natural" v="slope" />
		<tag k="place" v="locality" />
		<tag k="ssr:stedsnr" v="933386" />
	</node>
	<node lat="58.74847778198831" lon="9.19967221394323" id="-36831">
		<tag k="name" v="Flåthellklova" />
		<tag k="natural" v="valley" />
		<tag k="place" v="locality" />
		<tag k="ssr:stedsnr" v="933405" />
	</node>
	<node lat="58.749972218967336" lon="9.161102775669505" id="-36834">
		<tag k="fixme" v="consider natural=peak for the most distinct mountains in the district" />
		<tag k="name" v="Grasåsen" />
		<tag k="natural" v="hill" />
		<tag k="place" v="locality" />
		<tag k="ssr:stedsnr" v="933414" />
	</node>
	<node lat="58.78059999633534" lon="9.19605555296736" id="-36837">
		<tag k="name" v="Halsen" />
		<tag k="natural" v="valley" />
		<tag k="place" v="locality" />
		<tag k="ssr:stedsnr" v="933466" />
	</node>
	<node lat="58.79032222293717" lon="9.223397227945272" id="-36839">
		<tag k="name" v="Skarvannsliane" />
		<tag k="natural" v="slope" />
		<tag k="place" v="locality" />
		<tag k="ssr:stedsnr" v="933477" />
	</node>
	<node lat="58.71313055803895" lon="9.14688889664753" id="-36841">
		<tag k="name" v="Høgli" />
		<tag k="natural" v="hill" />
		<tag k="place" v="locality" />
		<tag k="ssr:stedsnr" v="933775" />
	</node>
	<node lat="58.71941388807801" lon="9.111858341276994" id="-36842">
		<tag k="name" v="Dalen" />
		<tag k="natural" v="valley" />
		<tag k="place" v="locality" />
		<tag k="ssr:stedsnr" v="933777" />
	</node>
	<node lat="58.76397500169543" lon="9.08060554952816" id="-36845">
		<tag k="name" v="Kjørkehaugen" />
		<tag k="natural" v="hill" />
		<tag k="place" v="locality" />
		<tag k="ssr:stedsnr" v="933832" />
	</node>
	<node lat="58.75334444120207" lon="9.070419446807836" id="-36846">
		<tag k="fixme" v="consider natural=peak for the most distinct mountains in the district" />
		<tag k="name" v="Kalstad" />
		<tag k="natural" v="hill" />
		<tag k="place" v="locality" />
		<tag k="ssr:stedsnr" v="933844" />
	</node>
	<node lat="58.754361115381315" lon="9.060838891655102" id="-36847">
		<tag k="name" v="Grønli" />
		<tag k="natural" v="slope" />
		<tag k="place" v="locality" />
		<tag k="ssr:stedsnr" v="933854" />
	</node>
	<node lat="58.757205552799896" lon="9.070838896164679" id="-36849">
		<tag k="name" v="Presthella" />
		<tag k="place" v="locality" />
		<tag k="ssr:stedsnr" v="933857" />
	</node>
	<node lat="58.76028055183014" lon="9.07537222182205" id="-36850">
		<tag k="name" v="Ørsmålen" />
		<tag k="place" v="locality" />
		<tag k="ssr:stedsnr" v="933860" />
	</node>
	<node lat="58.70110832978359" lon="9.155169448386632" id="-36851">
		<tag k="name" v="Flubergheia" />
		<tag k="natural" v="hill" />
		<tag k="place" v="locality" />
		<tag k="ssr:stedsnr" v="933866" />
	</node>
	<node lat="58.73556388537295" lon="9.023813882652215" id="-36856">
		<tag k="name" v="Bjordamsheia" />
		<tag k="natural" v="hill" />
		<tag k="place" v="locality" />
		<tag k="ssr:stedsnr" v="933966" />
	</node>
	<node lat="58.72862222058076" lon="9.051375001812158" id="-36857">
		<tag k="fixme" v="consider natural=peak for the most distinct mountains in the district" />
		<tag k="name" v="Rødsåsen" />
		<tag k="natural" v="hill" />
		<tag k="place" v="locality" />
		<tag k="ssr:stedsnr" v="933976" />
	</node>
	<node lat="58.70820833581705" lon="8.966674992651356" id="-36859">
		<tag k="name" v="Blekktjennheia" />
		<tag k="natural" v="hill" />
		<tag k="place" v="locality" />
		<tag k="ssr:stedsnr" v="934887" />
	</node>
	<node lat="58.78831666435288" lon="9.17884166382972" id="-36861">
		<tag k="fixme" v="consider natural=peak for the most distinct mountains in the district" />
		<tag k="name" v="Varden" />
		<tag k="natural" v="hill" />
		<tag k="place" v="locality" />
		<tag k="ssr:stedsnr" v="911069" />
	</node>
</osm>
