<?xml version="1.0" encoding="UTF-8"?>
<osm version="0.6" generator="osmapis">
	<node lat="58.75377222235704" lon="9.257880551257179" id="-21174">
		<tag k="name" v="Hødnebøkilen" />
		<tag k="natural" v="bay" />
		<tag k="ssr:stedsnr" v="23132" />
	</node>
	<node lat="58.68227221906323" lon="9.22238333279696" id="-21182">
		<tag k="name" v="Yttersund" />
		<tag k="natural" v="strait" />
		<tag k="ssr:stedsnr" v="23343" />
	</node>
	<node lat="58.68337499968355" lon="9.223727778161944" id="-21183">
		<tag k="name" v="Laukholmen" />
		<tag k="place" v="islet" />
		<tag k="ssr:stedsnr" v="23344" />
	</node>
	<node lat="58.68139721961386" lon="9.22230277242509" id="-21184">
		<tag k="name" v="Vestre Karrholmen" />
		<tag k="place" v="islet" />
		<tag k="ssr:stedsnr" v="23346" />
	</node>
	<node lat="58.75112221808353" lon="9.188494449282205" id="-21192">
		<tag k="name" v="Breibukt" />
		<tag k="natural" v="bay" />
		<tag k="ssr:stedsnr" v="23440" />
	</node>
	<node lat="58.740063890603224" lon="9.172072221819738" id="-21193">
		<tag k="fixme" v="consider seamark:type=rock or natural=shoal" />
		<tag k="name" v="Ramsskjær" />
		<tag k="place" v="islet" />
		<tag k="ssr:stedsnr" v="23445" />
	</node>
	<node lat="58.72273055917738" lon="9.118805554890644" id="-21199">
		<tag k="name" v="Skudvika" />
		<tag k="natural" v="bay" />
		<tag k="ssr:stedsnr" v="23780" />
	</node>
	<node lat="58.71713333493807" lon="9.064669450519226" id="-21202">
		<tag k="name" v="Spitvika" />
		<tag k="natural" v="bay" />
		<tag k="ssr:stedsnr" v="23798" />
	</node>
	<node lat="58.69790277382874" lon="9.11897500610473" id="-21205">
		<tag k="fixme" v="consider seamark:type=rock or natural=shoal" />
		<tag k="name" v="Badstuskjæret" />
		<tag k="place" v="islet" />
		<tag k="ssr:stedsnr" v="23888" />
	</node>
	<node lat="58.69561388572757" lon="9.109702781442481" id="-21207">
		<tag k="fixme" v="consider seamark:type=rock or natural=shoal" />
		<tag k="name" v="Bøtteskjæra" />
		<tag k="place" v="islet" />
		<tag k="ssr:stedsnr" v="23893" />
	</node>
	<node lat="58.72805000357086" lon="9.25568333620095" id="-21209">
		<tag k="name" v="Dynamittholmen" />
		<tag k="place" v="islet" />
		<tag k="ssr:stedsnr" v="24034" />
	</node>
	<node lat="58.729449998433815" lon="9.327155548690351" id="-21211">
		<tag k="name" v="Sjursgrunnknattene" />
		<tag k="natural" v="shoal" />
		<tag k="place" v="locality" />
		<tag k="ssr:stedsnr" v="24420" />
	</node>
	<node lat="58.675808334412835" lon="9.22005000798367" id="-21212">
		<tag k="name" v="Skollenberg" />
		<tag k="place" v="locality" />
		<tag k="seamark:type" v="rock" />
		<tag k="ssr:stedsnr" v="24427" />
	</node>
	<node lat="58.714213886817575" lon="9.022638891732068" id="-21214">
		<tag k="name" v="Gunhild" />
		<tag k="place" v="islet" />
		<tag k="ssr:stedsnr" v="24889" />
	</node>
	<node lat="58.71783889116535" lon="9.292775000390971" id="-21215">
		<tag k="name" v="Bremsundknattene" />
		<tag k="natural" v="shoal" />
		<tag k="place" v="locality" />
		<tag k="ssr:stedsnr" v="27305" />
	</node>
	<node lat="58.7319555536348" lon="9.28969999388133" id="-21218">
		<tag k="alt_name" v="Vardøya, store" />
		<tag k="name" v="Store Vardøya" />
		<tag k="place" v="island" />
		<tag k="ssr:stedsnr" v="61204" />
	</node>
	<node lat="58.73253611012383" lon="9.27707500692704" id="-21229">
		<tag k="name" v="Bremsundet" />
		<tag k="natural" v="strait" />
		<tag k="ssr:stedsnr" v="243195" />
	</node>
	<node lat="58.720899999765344" lon="9.181150001114188" id="-21244">
		<tag k="name" v="Breibukt" />
		<tag k="natural" v="bay" />
		<tag k="ssr:stedsnr" v="84006" />
	</node>
	<node lat="58.72009722169592" lon="9.262538895564894" id="-21245">
		<tag k="name" v="Toppsund" />
		<tag k="natural" v="strait" />
		<tag k="ssr:stedsnr" v="84042" />
	</node>
	<node lat="58.69263611339981" lon="9.17447222382239" id="-21248">
		<tag k="name" v="Karolina" />
		<tag k="natural" v="beach" />
		<tag k="ssr:stedsnr" v="84092" />
	</node>
	<node lat="58.69251310815844" lon="9.213202523519195" id="-21249">
		<tag k="name" v="Sauholmen" />
		<tag k="place" v="islet" />
		<tag k="ssr:stedsnr" v="84097" />
	</node>
	<node lat="58.71895833772664" lon="9.186311114083198" id="-21255">
		<tag k="name" v="Østebøneset" />
		<tag k="natural" v="cape" />
		<tag k="old_name" v="Østenbøneset" />
		<tag k="ssr:stedsnr" v="84001" />
	</node>
	<node lat="58.69283055804433" lon="9.184191664884452" id="-21256">
		<tag k="name" v="Laukvikbukta" />
		<tag k="natural" v="bay" />
		<tag k="ssr:stedsnr" v="84102" />
	</node>
	<node lat="58.715341670277205" lon="9.250091660348595" id="-21257">
		<tag k="name" v="Olavsgapet" />
		<tag k="natural" v="strait" />
		<tag k="ssr:stedsnr" v="84119" />
	</node>
	<node lat="58.73013610853737" lon="9.29837222147814" id="-21267">
		<tag k="name" v="Vardøysundet" />
		<tag k="natural" v="strait" />
		<tag k="ssr:stedsnr" v="84481" />
	</node>
	<node lat="58.7298166628517" lon="9.279569442723213" id="-21268">
		<tag k="name" v="Bremsundholmen" />
		<tag k="place" v="islet" />
		<tag k="ssr:stedsnr" v="84483" />
	</node>
	<node lat="58.71845000059193" lon="9.136686103544719" id="-21271">
		<tag k="name" v="Sandvikbukta" />
		<tag k="natural" v="bay" />
		<tag k="ssr:stedsnr" v="84739" />
	</node>
	<node lat="58.72706110696469" lon="9.14888888060613" id="-21275">
		<tag k="name" v="Barkedalsodden" />
		<tag k="natural" v="cape" />
		<tag k="ssr:stedsnr" v="84806" />
	</node>
	<node lat="58.72166666409999" lon="9.1121916651096" id="-21277">
		<tag k="name" v="Kotereid" />
		<tag k="place" v="locality" />
		<tag k="ssr:stedsnr" v="84818" />
	</node>
	<node lat="58.7576194405273" lon="9.075786110227298" id="-21280">
		<tag k="name" v="Bomodden" />
		<tag k="natural" v="cape" />
		<tag k="ssr:stedsnr" v="84847" />
	</node>
	<node lat="58.69580277627588" lon="9.128391661796597" id="-21282">
		<tag k="name" v="Kvernsvika" />
		<tag k="natural" v="bay" />
		<tag k="ssr:stedsnr" v="84880" />
	</node>
	<node lat="58.67249862889817" lon="9.225534903952612" id="-21288">
		<tag k="name" v="Blåkollen" />
		<tag k="natural" v="shoal" />
		<tag k="place" v="locality" />
		<tag k="ssr:stedsnr" v="88414" />
	</node>
	<node lat="58.66195833276833" lon="9.172580559688836" id="-21304">
		<tag k="name" v="Torsholmen" />
		<tag k="place" v="islet" />
		<tag k="ssr:stedsnr" v="144014" />
	</node>
	<node lat="58.659477778103614" lon="9.172500006726185" id="-21305">
		<tag k="name" v="Skarvsetbukta" />
		<tag k="natural" v="bay" />
		<tag k="ssr:stedsnr" v="144021" />
	</node>
	<node lat="58.73438888939989" lon="9.289622230372105" id="-21313">
		<tag k="name" v="Breibukt" />
		<tag k="natural" v="bay" />
		<tag k="ssr:stedsnr" v="144279" />
	</node>
	<node lat="58.74822777594234" lon="9.186669452249973" id="-21316">
		<tag k="name" v="Bjørnsholl" />
		<tag k="natural" v="bay" />
		<tag k="ssr:stedsnr" v="144411" />
	</node>
	<node lat="58.66522778120887" lon="9.151277781413146" id="-21322">
		<tag k="name" v="Ytre Nipekilen" />
		<tag k="natural" v="bay" />
		<tag k="ssr:stedsnr" v="144329" />
	</node>
	<node lat="58.760555555306695" lon="9.355422227665077" id="-21324">
		<tag k="name" v="Fiskekroktangen" />
		<tag k="natural" v="cape" />
		<tag k="ssr:stedsnr" v="144337" />
	</node>
	<node lat="58.75436666420769" lon="9.33246388303123" id="-21326">
		<tag k="name" v="Troskeneset" />
		<tag k="natural" v="cape" />
		<tag k="ssr:stedsnr" v="144350" />
	</node>
	<node lat="58.74429166864992" lon="9.260288884987224" id="-21340">
		<tag k="name" v="Skjellvika" />
		<tag k="natural" v="bay" />
		<tag k="ssr:stedsnr" v="144432" />
	</node>
	<node lat="58.719283332261774" lon="9.30532222852361" id="-21347">
		<tag k="name" v="Mikkelsbåen" />
		<tag k="place" v="locality" />
		<tag k="seamark:type" v="rock" />
		<tag k="ssr:stedsnr" v="148319" />
	</node>
	<node lat="58.66637500254631" lon="9.20223054706166" id="-21358">
		<tag k="name" v="Sildodden" />
		<tag k="natural" v="cape" />
		<tag k="ssr:stedsnr" v="263066" />
	</node>
	<node lat="58.66766388536525" lon="9.20503610305924" id="-21365">
		<tag k="fixme" v="consider seamark:type=rock or natural=shoal" />
		<tag k="name" v="Mannskjær" />
		<tag k="place" v="islet" />
		<tag k="ssr:stedsnr" v="266221" />
	</node>
	<node lat="58.69273889124385" lon="9.173122225388814" id="-21368">
		<tag k="name" v="Knutsodden" />
		<tag k="natural" v="cape" />
		<tag k="ssr:stedsnr" v="266070" />
	</node>
	<node lat="58.744047220032115" lon="9.290275000126126" id="-21383">
		<tag k="name" v="Kringlekilen" />
		<tag k="natural" v="bay" />
		<tag k="ssr:stedsnr" v="266486" />
	</node>
	<node lat="58.73904444156963" lon="9.162580556565862" id="-21386">
		<tag k="name" v="Havsnes" />
		<tag k="natural" v="cape" />
		<tag k="ssr:stedsnr" v="266369" />
	</node>
	<node lat="58.733433334391115" lon="9.224316674310737" id="-21388">
		<tag k="name" v="Laholmen" />
		<tag k="place" v="islet" />
		<tag k="ssr:stedsnr" v="266379" />
	</node>
	<node lat="58.688986107981435" lon="9.094738893558329" id="-21406">
		<tag k="name" v="Skåttholmen" />
		<tag k="place" v="islet" />
		<tag k="ssr:stedsnr" v="266857" />
	</node>
	<node lat="58.745172224316384" lon="9.380433332394524" id="-21417">
		<tag k="name" v="Hausen" />
		<tag k="natural" v="shoal" />
		<tag k="place" v="locality" />
		<tag k="ssr:stedsnr" v="267389" />
	</node>
	<node lat="58.68526944812963" lon="9.242877775164253" id="-21418">
		<tag k="name" v="Svartskjærbåen" />
		<tag k="place" v="locality" />
		<tag k="seamark:type" v="rock" />
		<tag k="ssr:stedsnr" v="267393" />
	</node>
	<node lat="58.75686666924521" lon="9.337161119769737" id="-21425">
		<tag k="name" v="Tangen" />
		<tag k="natural" v="cape" />
		<tag k="ssr:stedsnr" v="205351" />
	</node>
	<node lat="58.748586113115046" lon="9.076758341776168" id="-21427">
		<tag k="name" v="Grønnodden" />
		<tag k="natural" v="cape" />
		<tag k="ssr:stedsnr" v="205137" />
	</node>
	<node lat="58.74892221881599" lon="9.08296388836852" id="-21429">
		<tag k="name" v="Apalvika" />
		<tag k="natural" v="bay" />
		<tag k="ssr:stedsnr" v="205147" />
	</node>
	<node lat="58.745961114991005" lon="9.087824991903197" id="-21430">
		<tag k="fixme" v="consider seamark:type=rock or natural=shoal" />
		<tag k="name" v="Borkebuskjæret" />
		<tag k="place" v="islet" />
		<tag k="ssr:stedsnr" v="205149" />
	</node>
	<node lat="58.7466027818091" lon="9.076369445482186" id="-21431">
		<tag k="name" v="Blesvikbukta" />
		<tag k="natural" v="bay" />
		<tag k="ssr:stedsnr" v="205150" />
	</node>
	<node lat="58.73261944103732" lon="9.224633336137876" id="-21444">
		<tag k="name" v="Vestre Finnøya" />
		<tag k="place" v="island" />
		<tag k="ssr:stedsnr" v="205442" />
	</node>
	<node lat="58.72839444589228" lon="9.156363884858726" id="-21450">
		<tag k="name" v="Dyvika" />
		<tag k="natural" v="bay" />
		<tag k="ssr:stedsnr" v="205809" />
	</node>
	<node lat="58.758836110942035" lon="9.071430561513337" id="-21453">
		<tag k="name" v="Østerbukt" />
		<tag k="natural" v="bay" />
		<tag k="ssr:stedsnr" v="205847" />
	</node>
	<node lat="58.69488055165452" lon="9.188061116374213" id="-21459">
		<tag k="name" v="Laukvikholmen" />
		<tag k="place" v="islet" />
		<tag k="ssr:stedsnr" v="209484" />
	</node>
	<node lat="58.68125080305608" lon="9.234619555576305" id="-21460">
		<tag k="name" v="Fieflaket" />
		<tag k="natural" v="shoal" />
		<tag k="place" v="locality" />
		<tag k="ssr:stedsnr" v="209497" />
	</node>
	<node lat="58.719241669786484" lon="9.325505549761276" id="-21472">
		<tag k="name" v="Vardøybåene" />
		<tag k="place" v="locality" />
		<tag k="seamark:type" v="rock" />
		<tag k="ssr:stedsnr" v="452296" />
	</node>
	<node lat="58.66353333528455" lon="9.203113888986636" id="-21473">
		<tag k="fixme" v="consider seamark:type=rock or natural=shoal" />
		<tag k="name" v="Sildskjær" />
		<tag k="place" v="islet" />
		<tag k="ssr:stedsnr" v="452487" />
	</node>
	<node lat="58.658897220635666" lon="9.166336114641595" id="-21475">
		<tag k="name" v="Danehavn" />
		<tag k="natural" v="bay" />
		<tag k="ssr:stedsnr" v="266009" />
	</node>
	<node lat="58.6607555576811" lon="9.181974998367977" id="-21478">
		<tag k="name" v="Smell-landet" />
		<tag k="natural" v="beach" />
		<tag k="ssr:stedsnr" v="266015" />
	</node>
	<node lat="58.72999166501823" lon="9.25998054741807" id="-21480">
		<tag k="name" v="Gråholmen" />
		<tag k="place" v="islet" />
		<tag k="ssr:stedsnr" v="266033" />
	</node>
	<node lat="58.725477781230936" lon="9.210619450838983" id="-21484">
		<tag k="bay" v="fjord" />
		<tag k="name" v="Kranfjorden" />
		<tag k="natural" v="bay" />
		<tag k="ssr:stedsnr" v="266001" />
	</node>
	<node lat="58.747763885287824" lon="9.080555558107175" id="-21491">
		<tag k="name" v="Strømodden" />
		<tag k="natural" v="cape" />
		<tag k="ssr:stedsnr" v="266136" />
	</node>
	<node lat="58.743380556314015" lon="9.101216673128414" id="-21493">
		<tag k="name" v="Barmsundet" />
		<tag k="natural" v="strait" />
		<tag k="ssr:stedsnr" v="266184" />
	</node>
	<node lat="58.75998610944587" lon="9.350030554954937" id="-21497">
		<tag k="name" v="Fiskekrokbukta" />
		<tag k="natural" v="bay" />
		<tag k="ssr:stedsnr" v="266302" />
	</node>
	<node lat="58.738030552479685" lon="9.231280549318914" id="-21505">
		<tag k="name" v="Småsunda" />
		<tag k="natural" v="strait" />
		<tag k="ssr:stedsnr" v="266384" />
	</node>
	<node lat="58.74781944104401" lon="9.255913895570059" id="-21506">
		<tag k="name" v="Labakken" />
		<tag k="natural" v="beach" />
		<tag k="ssr:stedsnr" v="266389" />
	</node>
	<node lat="58.72352777409068" lon="9.110113893526577" id="-21517">
		<tag k="name" v="Vaodden" />
		<tag k="natural" v="cape" />
		<tag k="ssr:stedsnr" v="266731" />
	</node>
	<node lat="58.72281110695714" lon="9.110216666552791" id="-21518">
		<tag k="name" v="Kotereidbukta" />
		<tag k="natural" v="bay" />
		<tag k="ssr:stedsnr" v="266733" />
	</node>
	<node lat="58.72015833762875" lon="9.121088887551386" id="-21519">
		<tag k="name" v="Gartesundet" />
		<tag k="natural" v="strait" />
		<tag k="ssr:stedsnr" v="266735" />
	</node>
	<node lat="58.73723055197758" lon="9.241011114088087" id="-21526">
		<tag k="name" v="Brattholmen" />
		<tag k="place" v="islet" />
		<tag k="ssr:stedsnr" v="304182" />
	</node>
	<node lat="58.733433336792764" lon="9.303116662566254" id="-21527">
		<tag k="alt_name" v="Vardøya, lille" />
		<tag k="name" v="Lille Vardøya" />
		<tag k="place" v="island" />
		<tag k="ssr:stedsnr" v="304191" />
	</node>
	<node lat="58.74961944181522" lon="9.088866671799819" id="-21548">
		<tag k="name" v="Lindvika" />
		<tag k="natural" v="bay" />
		<tag k="ssr:stedsnr" v="326114" />
	</node>
	<node lat="58.742155558572186" lon="9.100983333463583" id="-21551">
		<tag k="name" v="Kullbunnodden" />
		<tag k="natural" v="cape" />
		<tag k="ssr:stedsnr" v="326169" />
	</node>
	<node lat="58.68268333022712" lon="9.219672230471387" id="-21553">
		<tag k="name" v="Ellefsbukta" />
		<tag k="natural" v="bay" />
		<tag k="ssr:stedsnr" v="326304" />
	</node>
	<node lat="58.76511388866565" lon="9.35836388507975" id="-21554">
		<tag k="name" v="Sandvika" />
		<tag k="natural" v="bay" />
		<tag k="ssr:stedsnr" v="326360" />
	</node>
	<node lat="58.68634444068442" lon="9.084361112016802" id="-21560">
		<tag k="name" v="Lagfjorden" />
		<tag k="natural" v="bay" />
		<tag k="ssr:stedsnr" v="326260" />
	</node>
	<node lat="58.74491111141436" lon="9.203122229581426" id="-21563">
		<tag k="name" v="Flåthellholmene" />
		<tag k="place" v="islet" />
		<tag k="ssr:stedsnr" v="326404" />
	</node>
	<node lat="58.72423611134233" lon="9.298069444513498" id="-21565">
		<tag k="name" v="Kvinerane" />
		<tag k="natural" v="shoal" />
		<tag k="place" v="locality" />
		<tag k="ssr:stedsnr" v="326483" />
	</node>
	<node lat="58.72059444506065" lon="9.120680556807471" id="-21566">
		<tag k="fixme" v="consider seamark:type=rock or natural=shoal" />
		<tag k="name" v="Taterskjæret" />
		<tag k="place" v="islet" />
		<tag k="ssr:stedsnr" v="326761" />
	</node>
	<node lat="58.727400001395054" lon="9.120649992014835" id="-21571">
		<tag k="name" v="Stutholmen" />
		<tag k="place" v="islet" />
		<tag k="ssr:stedsnr" v="326806" />
	</node>
	<node lat="58.73343889002688" lon="9.329955563735323" id="-21576">
		<tag k="name" v="Flatholmknatten" />
		<tag k="place" v="locality" />
		<tag k="seamark:type" v="rock" />
		<tag k="ssr:stedsnr" v="328405" />
	</node>
	<node lat="58.71820277882282" lon="9.279225008379377" id="-21577">
		<tag k="name" v="Bremsundgapet" />
		<tag k="natural" v="strait" />
		<tag k="ssr:stedsnr" v="328410" />
	</node>
	<node lat="58.65635555160169" lon="9.2099138901016" id="-21579">
		<tag k="name" v="Persknatt" />
		<tag k="natural" v="shoal" />
		<tag k="place" v="locality" />
		<tag k="ssr:stedsnr" v="330503" />
	</node>
	<node lat="58.662866668270986" lon="9.209694447806278" id="-21580">
		<tag k="name" v="Lille Sildegrunnen" />
		<tag k="natural" v="shoal" />
		<tag k="place" v="locality" />
		<tag k="ssr:stedsnr" v="356420" />
	</node>
	<node lat="58.65944999931359" lon="9.175233327229435" id="-21592">
		<tag k="name" v="Smørholla" />
		<tag k="natural" v="bay" />
		<tag k="ssr:stedsnr" v="387014" />
	</node>
	<node lat="58.682883337664826" lon="9.221602774364822" id="-21602">
		<tag k="name" v="Innersund" />
		<tag k="natural" v="strait" />
		<tag k="ssr:stedsnr" v="387311" />
	</node>
	<node lat="58.73297499858344" lon="9.106833328062772" id="-21606">
		<tag k="name" v="Der bikkja beit mannen" />
		<tag k="natural" v="beach" />
		<tag k="ssr:stedsnr" v="387218" />
	</node>
	<node lat="58.738502774250314" lon="9.209797227945712" id="-21612">
		<tag k="name" v="Revodden" />
		<tag k="natural" v="cape" />
		<tag k="ssr:stedsnr" v="387403" />
	</node>
	<node lat="58.74239167105666" lon="9.233525006050884" id="-21613">
		<tag k="name" v="Kvalen" />
		<tag k="natural" v="cape" />
		<tag k="ssr:stedsnr" v="387407" />
	</node>
	<node lat="58.72642777999417" lon="9.066669443549616" id="-21621">
		<tag k="name" v="Vesterstrand" />
		<tag k="natural" v="beach" />
		<tag k="ssr:stedsnr" v="387967" />
	</node>
	<node lat="58.761800000127785" lon="9.370069438203119" id="-21628">
		<tag k="name" v="Sandvikhausene" />
		<tag k="natural" v="shoal" />
		<tag k="place" v="locality" />
		<tag k="ssr:stedsnr" v="388405" />
	</node>
	<node lat="58.705658336164255" lon="9.232855560336429" id="-21629">
		<tag k="name" v="Mariasbåen" />
		<tag k="place" v="locality" />
		<tag k="seamark:type" v="rock" />
		<tag k="ssr:stedsnr" v="391314" />
	</node>
	<node lat="58.74094444203199" lon="9.150430548941696" id="-21663">
		<tag k="fixme" v="consider seamark:type=rock or natural=shoal" />
		<tag k="name" v="Håvikskjær" />
		<tag k="place" v="islet" />
		<tag k="ssr:stedsnr" v="448185" />
	</node>
	<node lat="58.681955558688216" lon="9.218100002142924" id="-21666">
		<tag k="name" v="Sundodden" />
		<tag k="natural" v="cape" />
		<tag k="ssr:stedsnr" v="448317" />
	</node>
	<node lat="58.68683055705335" lon="9.229183334463281" id="-21667">
		<tag k="name" v="Lysstakholmen" />
		<tag k="place" v="islet" />
		<tag k="ssr:stedsnr" v="448320" />
	</node>
	<node lat="58.74611944458395" lon="9.187616659347025" id="-21674">
		<tag k="name" v="Ellefsodde" />
		<tag k="natural" v="cape" />
		<tag k="ssr:stedsnr" v="448413" />
	</node>
	<node lat="58.726694445961584" lon="9.155566664168797" id="-21679">
		<tag k="name" v="Geitetangen" />
		<tag k="natural" v="cape" />
		<tag k="ssr:stedsnr" v="448815" />
	</node>
	<node lat="58.73055000387286" lon="9.109794437661789" id="-21680">
		<tag k="name" v="Linpon" />
		<tag k="place" v="islet" />
		<tag k="ssr:stedsnr" v="448821" />
	</node>
	<node lat="58.75624722589202" lon="9.364688882198996" id="-21688">
		<tag k="name" v="Gjershausen" />
		<tag k="natural" v="shoal" />
		<tag k="place" v="locality" />
		<tag k="ssr:stedsnr" v="449405" />
	</node>
	<node lat="58.74598333451751" lon="9.338333338426846" id="-21689">
		<tag k="name" v="Grønholmgapet" />
		<tag k="natural" v="strait" />
		<tag k="ssr:stedsnr" v="449406" />
	</node>
	<node lat="58.69501666317433" lon="9.242099999094226" id="-21690">
		<tag k="name" v="Taraldsskjærrumpa" />
		<tag k="natural" v="shoal" />
		<tag k="place" v="locality" />
		<tag k="ssr:stedsnr" v="452303" />
	</node>
	<node lat="58.662252774405054" lon="9.216827780086883" id="-21691">
		<tag k="name" v="Store Sildegrunnen" />
		<tag k="natural" v="shoal" />
		<tag k="place" v="locality" />
		<tag k="ssr:stedsnr" v="452485" />
	</node>
	<node lat="58.69950277755429" lon="9.103644451314352" id="-21698">
		<tag k="alt_name" v="Avreidkilen, yt" />
		<tag k="name" v="Ytre Avreidkilen" />
		<tag k="natural" v="bay" />
		<tag k="ssr:stedsnr" v="486496" />
	</node>
	<node lat="58.75385555720389" lon="9.335800007276784" id="-21717">
		<tag k="fixme" v="consider seamark:type=rock or natural=shoal" />
		<tag k="name" v="Kuskjær" />
		<tag k="place" v="islet" />
		<tag k="ssr:stedsnr" v="508335" />
	</node>
	<node lat="58.72672778064148" lon="9.297477776798141" id="-21722">
		<tag k="fixme" v="consider seamark:type=rock or natural=shoal" />
		<tag k="name" v="Gule skjæret" />
		<tag k="place" v="islet" />
		<tag k="ssr:stedsnr" v="508517" />
	</node>
	<node lat="58.70864166537904" lon="9.241286118908759" id="-21740">
		<tag k="alt_name" v="Stangholmen, l" />
		<tag k="name" v="Lille Stangholmen" />
		<tag k="place" v="islet" />
		<tag k="ssr:stedsnr" v="539467" />
	</node>
	<node lat="58.664369440572685" lon="9.173238885590603" id="-21755">
		<tag k="name" v="Åkvågsunda" />
		<tag k="natural" v="strait" />
		<tag k="ssr:stedsnr" v="690016" />
	</node>
	<node lat="58.73555833418823" lon="9.297408327442822" id="-21757">
		<tag k="name" v="Perleporten" />
		<tag k="natural" v="strait" />
		<tag k="ssr:stedsnr" v="690302" />
	</node>
	<node lat="58.737602777120784" lon="9.09280833289676" id="-21766">
		<tag k="fixme" v="consider seamark:type=rock or natural=shoal" />
		<tag k="name" v="Tobakksrullen" />
		<tag k="place" v="islet" />
		<tag k="ssr:stedsnr" v="690151" />
	</node>
	<node lat="58.75044444015341" lon="9.112747214936011" id="-21769">
		<tag k="name" v="Spilholmene" />
		<tag k="place" v="islet" />
		<tag k="ssr:stedsnr" v="690160" />
	</node>
	<node lat="58.73350000264588" lon="9.10316111638153" id="-21770">
		<tag k="name" v="Terneholmen" />
		<tag k="place" v="islet" />
		<tag k="ssr:stedsnr" v="690165" />
	</node>
	<node lat="58.742569442834366" lon="9.118827775514003" id="-21772">
		<tag k="fixme" v="consider seamark:type=rock or natural=shoal" />
		<tag k="name" v="Langskjær" />
		<tag k="place" v="islet" />
		<tag k="ssr:stedsnr" v="690169" />
	</node>
	<node lat="58.7372805511596" lon="9.103569444906197" id="-21774">
		<tag k="name" v="Lindvika" />
		<tag k="natural" v="bay" />
		<tag k="ssr:stedsnr" v="690235" />
	</node>
	<node lat="58.68485833412943" lon="9.22634721458151" id="-21778">
		<tag k="name" v="Breiungen" />
		<tag k="natural" v="bay" />
		<tag k="ssr:stedsnr" v="690349" />
	</node>
	<node lat="58.76207500304196" lon="9.353088897403865" id="-21780">
		<tag k="name" v="Østre Fiskekrokbukta" />
		<tag k="natural" v="bay" />
		<tag k="ssr:stedsnr" v="690357" />
	</node>
	<node lat="58.745008329289405" lon="9.30077221598472" id="-21788">
		<tag k="fixme" v="consider seamark:type=rock or natural=shoal" />
		<tag k="name" v="Tvillingene" />
		<tag k="place" v="islet" />
		<tag k="ssr:stedsnr" v="690532" />
	</node>
	<node lat="58.75671111092016" lon="9.07411944403408" id="-21795">
		<tag k="name" v="Haken" />
		<tag k="natural" v="cape" />
		<tag k="ssr:stedsnr" v="690849" />
	</node>
	<node lat="58.72837500116529" lon="9.058849994075361" id="-21802">
		<tag k="name" v="Rødstranna" />
		<tag k="natural" v="beach" />
		<tag k="ssr:stedsnr" v="690973" />
	</node>
	<node lat="58.66167499820628" lon="9.170197215568376" id="-21808">
		<tag k="name" v="Gunnarsholmen" />
		<tag k="place" v="islet" />
		<tag k="ssr:stedsnr" v="569009" />
	</node>
	<node lat="58.74396944648889" lon="9.141227783304844" id="-21811">
		<tag k="name" v="Narvikbukt" />
		<tag k="natural" v="bay" />
		<tag k="ssr:stedsnr" v="569180" />
	</node>
	<node lat="58.715516669423266" lon="9.186316673814108" id="-21814">
		<tag k="name" v="Trondalskilen" />
		<tag k="natural" v="bay" />
		<tag k="ssr:stedsnr" v="569064" />
	</node>
	<node lat="58.71782222454314" lon="9.195597221562089" id="-21815">
		<tag k="name" v="Engholmen" />
		<tag k="place" v="islet" />
		<tag k="ssr:stedsnr" v="569067" />
	</node>
	<node lat="58.7265027784162" lon="9.087819452109468" id="-21825">
		<tag k="name" v="Kvitholmen" />
		<tag k="place" v="islet" />
		<tag k="ssr:stedsnr" v="569753" />
	</node>
	<node lat="58.67818611173298" lon="9.231566665989783" id="-21831">
		<tag k="name" v="Nils Jensensgrunn" />
		<tag k="natural" v="shoal" />
		<tag k="place" v="locality" />
		<tag k="ssr:stedsnr" v="694455" />
	</node>
	<node lat="58.671319626056594" lon="9.235520454390063" id="-21832">
		<tag k="name" v="Fiebåen" />
		<tag k="place" v="locality" />
		<tag k="seamark:type" v="rock" />
		<tag k="ssr:stedsnr" v="694459" />
	</node>
	<node lat="58.744591667771495" lon="9.308880553237858" id="-21836">
		<tag k="name" v="Kattholmen" />
		<tag k="place" v="islet" />
		<tag k="ssr:stedsnr" v="607213" />
	</node>
	<node lat="58.74602777354186" lon="9.322322226882944" id="-21837">
		<tag k="alt_name" v="Store Grønholmen" />
		<tag k="name" v="Grønholmen" />
		<tag k="place" v="islet" />
		<tag k="ssr:stedsnr" v="607223" />
	</node>
	<node lat="58.721338890928436" lon="9.159674999088585" id="-21843">
		<tag k="name" v="Andholmen" />
		<tag k="place" v="islet" />
		<tag k="ssr:stedsnr" v="629005" />
	</node>
	<node lat="58.66377499895532" lon="9.196911116651764" id="-21846">
		<tag k="fixme" v="consider seamark:type=rock or natural=shoal" />
		<tag k="name" v="Munkene" />
		<tag k="place" v="islet" />
		<tag k="ssr:stedsnr" v="629012" />
	</node>
	<node lat="58.664288886697626" lon="9.170108325119852" id="-21847">
		<tag k="name" v="Skudvika" />
		<tag k="natural" v="bay" />
		<tag k="ssr:stedsnr" v="629018" />
	</node>
	<node lat="58.73561388757338" lon="9.097133335202864" id="-21853">
		<tag k="name" v="Skauholmene" />
		<tag k="place" v="islet" />
		<tag k="ssr:stedsnr" v="629158" />
	</node>
	<node lat="58.74994721963763" lon="9.18594166434203" id="-21856">
		<tag k="name" v="Lauvholla" />
		<tag k="natural" v="bay" />
		<tag k="ssr:stedsnr" v="629399" />
	</node>
	<node lat="58.74771389193555" lon="9.306761106821472" id="-21858">
		<tag k="name" v="Bondevika" />
		<tag k="natural" v="bay" />
		<tag k="ssr:stedsnr" v="629506" />
	</node>
	<node lat="58.68106944225196" lon="9.214319450608057" id="-21861">
		<tag k="name" v="Strandbukta" />
		<tag k="natural" v="bay" />
		<tag k="ssr:stedsnr" v="629297" />
	</node>
	<node lat="58.72975833091856" lon="9.130549992246163" id="-21873">
		<tag k="name" v="Bjørndalsbukta" />
		<tag k="natural" v="bay" />
		<tag k="ssr:stedsnr" v="629797" />
	</node>
	<node lat="58.72812778222176" lon="9.124072228341308" id="-21874">
		<tag k="name" v="Laukholmen" />
		<tag k="place" v="islet" />
		<tag k="ssr:stedsnr" v="629798" />
	</node>
	<node lat="58.72838888916392" lon="9.113822218255347" id="-21875">
		<tag k="name" v="Skauholmen" />
		<tag k="place" v="islet" />
		<tag k="ssr:stedsnr" v="629802" />
	</node>
	<node lat="58.71333055755821" lon="9.267655561890429" id="-21877">
		<tag k="name" v="Kistnesgrunnen" />
		<tag k="natural" v="shoal" />
		<tag k="place" v="locality" />
		<tag k="ssr:stedsnr" v="633312" />
	</node>
	<node lat="58.70864166537904" lon="9.241286118908759" id="-21882">
		<tag k="alt_name" v="Stangholmen, st" />
		<tag k="name" v="Store Stangholmen" />
		<tag k="place" v="islet" />
		<tag k="ssr:stedsnr" v="660495" />
	</node>
	<node lat="58.70864166537904" lon="9.241286118908759" id="-21884">
		<tag k="name" v="Stangholmen" />
		<tag k="place" v="islet" />
		<tag k="ssr:stedsnr" v="668168" />
	</node>
	<node lat="58.73614444493065" lon="9.146150006629727" id="-21899">
		<tag k="name" v="Øystranda" />
		<tag k="natural" v="beach" />
		<tag k="ssr:stedsnr" v="690228" />
	</node>
	<node lat="58.741480557775446" lon="9.124741673112558" id="-21903">
		<tag k="fixme" v="consider seamark:type=rock or natural=shoal" />
		<tag k="name" v="Langskjærungen" />
		<tag k="place" v="islet" />
		<tag k="ssr:stedsnr" v="690178" />
	</node>
	<node lat="58.74367778223397" lon="9.197180561311159" id="-21916">
		<tag k="name" v="Karishol" />
		<tag k="natural" v="bay" />
		<tag k="ssr:stedsnr" v="690430" />
	</node>
	<node lat="58.74820833320811" lon="9.30443888246941" id="-21920">
		<tag k="name" v="Ormdalsstrand" />
		<tag k="natural" v="beach" />
		<tag k="ssr:stedsnr" v="690529" />
	</node>
	<node lat="58.72466389008392" lon="9.116830559009784" id="-21922">
		<tag k="name" v="Grøsstø" />
		<tag k="natural" v="beach" />
		<tag k="ssr:stedsnr" v="690780" />
	</node>
	<node lat="58.72604721849311" lon="9.132577784544477" id="-21924">
		<tag k="name" v="Munkholmene" />
		<tag k="place" v="islet" />
		<tag k="ssr:stedsnr" v="690811" />
	</node>
	<node lat="58.72778055253165" lon="9.129991666684573" id="-21925">
		<tag k="fixme" v="consider seamark:type=rock or natural=shoal" />
		<tag k="name" v="Terneskjær" />
		<tag k="place" v="islet" />
		<tag k="ssr:stedsnr" v="690813" />
	</node>
	<node lat="58.71853333366515" lon="9.249511114935947" id="-21928">
		<tag k="name" v="Fantholmen" />
		<tag k="place" v="islet" />
		<tag k="ssr:stedsnr" v="691038" />
	</node>
	<node lat="58.71131666615374" lon="9.024819449112222" id="-21934">
		<tag k="name" v="Lomsholmen" />
		<tag k="place" v="islet" />
		<tag k="ssr:stedsnr" v="691878" />
	</node>
	<node lat="58.7288833369746" lon="9.309741667439143" id="-21938">
		<tag k="fixme" v="consider seamark:type=rock or natural=shoal" />
		<tag k="name" v="Lille Driver" />
		<tag k="place" v="islet" />
		<tag k="ssr:stedsnr" v="692418" />
	</node>
	<node lat="58.74308888777713" lon="9.36802221428276" id="-21939">
		<tag k="name" v="Gjersbåene" />
		<tag k="natural" v="shoal" />
		<tag k="place" v="locality" />
		<tag k="ssr:stedsnr" v="692420" />
	</node>
	<node lat="58.71037222247853" lon="9.235366664048684" id="-21942">
		<tag k="alt_name" v="Bjørnskjer;Bjørneskjær" />
		<tag k="fixme" v="consider seamark:type=rock or natural=shoal" />
		<tag k="name" v="Bjørnskjær" />
		<tag k="place" v="islet" />
		<tag k="ssr:stedsnr" v="729169" />
	</node>
	<node lat="58.66388333232083" lon="9.173455554769644" id="-21956">
		<tag k="name" v="Nissenes" />
		<tag k="natural" v="cape" />
		<tag k="ssr:stedsnr" v="751006" />
	</node>
	<node lat="58.66514444738098" lon="9.187849995555009" id="-21957">
		<tag k="name" v="Tjennodden" />
		<tag k="natural" v="cape" />
		<tag k="ssr:stedsnr" v="751007" />
	</node>
	<node lat="58.72125277823578" lon="9.202988889945226" id="-21960">
		<tag k="name" v="Langsand" />
		<tag k="natural" v="beach" />
		<tag k="ssr:stedsnr" v="751069" />
	</node>
	<node lat="58.73196944025581" lon="9.102347216512186" id="-21961">
		<tag k="name" v="Kjeholmen" />
		<tag k="place" v="islet" />
		<tag k="ssr:stedsnr" v="751157" />
	</node>
	<node lat="58.73773889128831" lon="9.203755548553527" id="-21969">
		<tag k="name" v="Tjenndalsstranda" />
		<tag k="natural" v="beach" />
		<tag k="ssr:stedsnr" v="751413" />
	</node>
	<node lat="58.74298055121614" lon="9.29370833166085" id="-21972">
		<tag k="name" v="Serkholmene" />
		<tag k="place" v="islet" />
		<tag k="ssr:stedsnr" v="751512" />
	</node>
	<node lat="58.75643610733237" lon="9.066380553719638" id="-21979">
		<tag k="name" v="Vesterbukt" />
		<tag k="natural" v="bay" />
		<tag k="ssr:stedsnr" v="751855" />
	</node>
	<node lat="58.6934277792826" lon="9.159477784169773" id="-21981">
		<tag k="name" v="Kjerkenes" />
		<tag k="natural" v="cape" />
		<tag k="ssr:stedsnr" v="752065" />
	</node>
	<node lat="58.71356666535918" lon="9.248513883153398" id="-21983">
		<tag k="name" v="Enga" />
		<tag k="place" v="islet" />
		<tag k="ssr:stedsnr" v="752068" />
	</node>
	<node lat="58.72732222370348" lon="9.337652779134315" id="-21984">
		<tag k="name" v="Grunnberget" />
		<tag k="natural" v="shoal" />
		<tag k="place" v="locality" />
		<tag k="ssr:stedsnr" v="752405" />
	</node>
	<node lat="58.73093055221189" lon="9.26046667238707" id="-21985">
		<tag k="name" v="Jektebåen" />
		<tag k="place" v="locality" />
		<tag k="seamark:type" v="rock" />
		<tag k="ssr:stedsnr" v="752409" />
	</node>
	<node lat="58.69092221859672" lon="9.272588890047146" id="-21988">
		<tag k="name" v="Steingrunnberget" />
		<tag k="natural" v="shoal" />
		<tag k="place" v="locality" />
		<tag k="ssr:stedsnr" v="755312" />
	</node>
	<node lat="58.718581752627415" lon="9.256270335915021" id="-21991">
		<tag k="name" v="Brennholmen" />
		<tag k="place" v="islet" />
		<tag k="ssr:stedsnr" v="911167" />
	</node>
	<node lat="58.69750833350032" lon="9.218302778127134" id="-21998">
		<tag k="alt_name" v="Furøy;Furuøya, store" />
		<tag k="loc_name" v="Furuøya" />
		<tag k="name" v="Store Furuøya" />
		<tag k="place" v="island" />
		<tag k="ssr:stedsnr" v="911480" />
	</node>
	<node lat="58.66650277792421" lon="9.1905416580675" id="-22006">
		<tag k="alt_name" v="Breivik" />
		<tag k="name" v="Breidvika" />
		<tag k="natural" v="bay" />
		<tag k="ssr:stedsnr" v="911440" />
	</node>
	<node lat="58.743125001169176" lon="9.129727780753713" id="-22012">
		<tag k="bay" v="fjord" />
		<tag k="name" v="Nordfjorden" />
		<tag k="natural" v="bay" />
		<tag k="ssr:stedsnr" v="790559" />
	</node>
	<node lat="58.72080833272664" lon="9.162572221802792" id="-22028">
		<tag k="name" v="Høgholmen" />
		<tag k="place" v="islet" />
		<tag k="ssr:stedsnr" v="812006" />
	</node>
	<node lat="58.66245000325168" lon="9.164738880532118" id="-22029">
		<tag k="name" v="Ørnehaue" />
		<tag k="natural" v="cape" />
		<tag k="ssr:stedsnr" v="812008" />
	</node>
	<node lat="58.681733337376954" lon="9.214830549274444" id="-22039">
		<tag k="name" v="Fiestranda" />
		<tag k="natural" v="beach" />
		<tag k="ssr:stedsnr" v="812306" />
	</node>
	<node lat="58.74425555887552" lon="9.296055553656458" id="-22040">
		<tag k="name" v="Snikodden" />
		<tag k="natural" v="cape" />
		<tag k="ssr:stedsnr" v="812527" />
	</node>
	<node lat="58.73433055991324" lon="9.260816675076308" id="-22041">
		<tag k="bay" v="fjord" />
		<tag k="name" v="Østerfjorden" />
		<tag k="natural" v="bay" />
		<tag k="ssr:stedsnr" v="812405" />
	</node>
	<node lat="58.73352222243542" lon="9.222438892944597" id="-22042">
		<tag k="name" v="Finnøysund" />
		<tag k="natural" v="strait" />
		<tag k="ssr:stedsnr" v="812409" />
	</node>
	<node lat="58.73165832929056" lon="9.22408888966093" id="-22043">
		<tag k="name" v="Feierhola" />
		<tag k="natural" v="bay" />
		<tag k="ssr:stedsnr" v="812411" />
	</node>
	<node lat="58.74333611165101" lon="9.26623611576109" id="-22044">
		<tag k="name" v="Vindvikbukta" />
		<tag k="natural" v="bay" />
		<tag k="ssr:stedsnr" v="812413" />
	</node>
	<node lat="58.72449166393196" lon="9.27511666252294" id="-22049">
		<tag k="name" v="Vroldstangsholmen" />
		<tag k="place" v="islet" />
		<tag k="ssr:stedsnr" v="812486" />
	</node>
	<node lat="58.7271694436917" lon="9.294591661580066" id="-22050">
		<tag k="fixme" v="consider seamark:type=rock or natural=shoal" />
		<tag k="name" v="Hellerskjæra" />
		<tag k="place" v="islet" />
		<tag k="ssr:stedsnr" v="812488" />
	</node>
	<node lat="58.69604444628904" lon="9.137269446562163" id="-22055">
		<tag k="name" v="Urvika" />
		<tag k="natural" v="bay" />
		<tag k="ssr:stedsnr" v="812879" />
	</node>
	<node lat="58.698347218127545" lon="9.113655555394532" id="-22056">
		<tag k="name" v="Aurekilen" />
		<tag k="natural" v="bay" />
		<tag k="ssr:stedsnr" v="812886" />
	</node>
	<node lat="58.7261194466657" lon="9.264419443635761" id="-22060">
		<tag k="name" v="Risøya" />
		<tag k="place" v="island" />
		<tag k="ssr:stedsnr" v="850099" />
	</node>
	<node lat="58.75692500206193" lon="9.357872215230062" id="-22064">
		<tag k="fixme" v="consider seamark:type=rock or natural=shoal" />
		<tag k="name" v="Gjersbrotet" />
		<tag k="place" v="islet" />
		<tag k="ssr:stedsnr" v="850580" />
	</node>
	<node lat="58.65828610740841" lon="9.17211667275328" id="-22073">
		<tag k="name" v="Smellen" />
		<tag k="natural" v="beach" />
		<tag k="ssr:stedsnr" v="872009" />
	</node>
	<node lat="58.66822499645903" lon="9.199277778085968" id="-22074">
		<tag k="name" v="Sild" />
		<tag k="natural" v="cape" />
		<tag k="ssr:stedsnr" v="872011" />
	</node>
	<node lat="58.674069444710305" lon="9.215905549927099" id="-22078">
		<tag k="fixme" v="consider seamark:type=rock or natural=shoal" />
		<tag k="name" v="Grimskjær" />
		<tag k="place" v="islet" />
		<tag k="ssr:stedsnr" v="872323" />
	</node>
	<node lat="58.68010000406797" lon="9.216455554031493" id="-22079">
		<tag k="name" v="Staholmen" />
		<tag k="place" v="islet" />
		<tag k="ssr:stedsnr" v="872329" />
	</node>
	<node lat="58.658002773328604" lon="9.142541667681057" id="-22080">
		<tag k="name" v="Nøkkelholmen" />
		<tag k="place" v="islet" />
		<tag k="ssr:stedsnr" v="872339" />
	</node>
	<node lat="58.68283055236413" lon="9.222099993975915" id="-22089">
		<tag k="name" v="Torsholmen" />
		<tag k="place" v="islet" />
		<tag k="ssr:stedsnr" v="933314" />
	</node>
	<node lat="58.67947222492244" lon="9.214052773826795" id="-22090">
		<tag k="name" v="Krokstangen" />
		<tag k="natural" v="cape" />
		<tag k="ssr:stedsnr" v="933318" />
	</node>
	<node lat="58.68321944749638" lon="9.225283330090065" id="-22091">
		<tag k="name" v="Midtre Karrholmen" />
		<tag k="place" v="islet" />
		<tag k="ssr:stedsnr" v="933321" />
	</node>
	<node lat="58.7426027795526" lon="9.115297215186148" id="-22094">
		<tag k="name" v="Lindhola" />
		<tag k="natural" v="bay" />
		<tag k="ssr:stedsnr" v="933162" />
	</node>
	<node lat="58.68733611340899" lon="9.081913888167495" id="-22101">
		<tag k="name" v="Torskebergstranda" />
		<tag k="natural" v="beach" />
		<tag k="ssr:stedsnr" v="933258" />
	</node>
	<node lat="58.6955305545129" lon="9.22448334145013" id="-22109">
		<tag k="name" v="Ytre Furuholmen" />
		<tag k="place" v="islet" />
		<tag k="ssr:stedsnr" v="933401" />
	</node>
	<node lat="58.73641110768047" lon="9.179049993889633" id="-22114">
		<tag k="name" v="Trettodden" />
		<tag k="natural" v="cape" />
		<tag k="ssr:stedsnr" v="933420" />
	</node>
	<node lat="58.74486388857595" lon="9.211949999274415" id="-22115">
		<tag k="name" v="Lindvika" />
		<tag k="natural" v="bay" />
		<tag k="ssr:stedsnr" v="933427" />
	</node>
	<node lat="58.721225002162775" lon="9.149808329931977" id="-22123">
		<tag k="name" v="Seljåsholmen" />
		<tag k="place" v="islet" />
		<tag k="ssr:stedsnr" v="933817" />
	</node>
</osm>
