<?xml version="1.0" encoding="UTF-8"?>
<osm version="0.6" generator="osmapis">
	<node lat="58.67355397694031" lon="9.205383145573856" id="-21226">
		<tag k="alt_name" v="Åsmundhavn" />
		<tag k="landuse" v="harbour" />
		<tag k="name" v="Åsmundhamn" />
		<tag k="seamark:type" v="harbour" />
		<tag k="ssr:stedsnr" v="243441" />
	</node>
	<node lat="58.79111667007321" lon="9.077586110535611" id="-21349">
		<tag k="bridge" v="yes" />
		<tag k="layer" v="1" />
		<tag k="name" v="Homme" />
		<tag k="ssr:stedsnr" v="167119" />
	</node>
	<node lat="58.762233330043316" lon="9.327330564045054" id="-21375">
		<tag k="alt_name" v="Galte" />
		<tag k="bridge" v="yes" />
		<tag k="layer" v="1" />
		<tag k="name" v="Galtebrua" />
		<tag k="ssr:stedsnr" v="266315" />
	</node>
	<node lat="58.74858888570868" lon="9.20404999393477" id="-21443">
		<tag k="man_made" v="quay" />
		<tag k="name" v="Kjødvik brygge" />
		<tag k="place" v="locality" />
		<tag k="ssr:stedsnr" v="205414" />
	</node>
	<node lat="58.724608336371816" lon="9.040147214447419" id="-21578">
		<tag k="bridge" v="yes" />
		<tag k="layer" v="1" />
		<tag k="name" v="Vinterkjær" />
		<tag k="ssr:stedsnr" v="470057" />
	</node>
	<node lat="58.73615833158058" lon="9.036638896192432" id="-21693">
		<tag k="bridge" v="yes" />
		<tag k="layer" v="1" />
		<tag k="name" v="Bråten" />
		<tag k="ssr:stedsnr" v="470105" />
	</node>
	<node lat="58.698961111848675" lon="9.122549995011518" id="-21792">
		<tag k="leisure" v="marina" />
		<tag k="name" v="Fjebuverven" />
		<tag k="ssr:stedsnr" v="690882" />
	</node>
	<node lat="58.76693611333976" lon="9.044869445358984" id="-21833">
		<tag k="bridge" v="yes" />
		<tag k="layer" v="1" />
		<tag k="name" v="Pinetangen" />
		<tag k="ssr:stedsnr" v="591062" />
	</node>
	<node lat="58.77120277812021" lon="9.275722223605403" id="-21834">
		<tag k="bridge" v="yes" />
		<tag k="layer" v="1" />
		<tag k="name" v="Hødnebø" />
		<tag k="ssr:stedsnr" v="591110" />
	</node>
	<node lat="58.71534444623545" lon="9.116513888958313" id="-21835">
		<tag k="bridge" v="yes" />
		<tag k="layer" v="1" />
		<tag k="name" v="Avreid" />
		<tag k="ssr:stedsnr" v="591113" />
	</node>
	<node lat="58.73682500428052" lon="9.036247215662565" id="-21879">
		<tag k="bridge" v="yes" />
		<tag k="layer" v="1" />
		<tag k="name" v="Ospelunden" />
		<tag k="ssr:stedsnr" v="652047" />
	</node>
	<node lat="58.737283336807934" lon="9.034125004409207" id="-21880">
		<tag k="bridge" v="yes" />
		<tag k="layer" v="1" />
		<tag k="name" v="Sivdalen" />
		<tag k="ssr:stedsnr" v="652049" />
	</node>
	<node lat="58.71766944890071" lon="9.106966664448125" id="-21881">
		<tag k="bridge" v="yes" />
		<tag k="layer" v="1" />
		<tag k="name" v="Bosvik" />
		<tag k="ssr:stedsnr" v="652104" />
	</node>
	<node lat="58.72344721986138" lon="9.057086108650372" id="-21940">
		<tag k="bridge" v="yes" />
		<tag k="layer" v="1" />
		<tag k="name" v="Hammeren" />
		<tag k="ssr:stedsnr" v="713124" />
	</node>
	<node lat="58.7171277753695" lon="9.116397217817122" id="-22122">
		<tag k="name" v="Verven" />
		<tag k="place" v="locality" />
		<tag k="ssr:stedsnr" v="933781" />
	</node>
	<node lat="58.71387221893253" lon="9.185394446891657" id="-22139">
		<tag k="bridge" v="yes" />
		<tag k="layer" v="1" />
		<tag k="name" v="Trondalen" />
		<tag k="ssr:stedsnr" v="895067" />
	</node>
</osm>
