<?xml version="1.0" encoding="UTF-8"?>
<osm version="0.6" generator="osmapis">
	<node lat="58.80237290983704" lon="9.19797978667116" id="-35887">
		<tag k="alt_name" v="Hølsknuttjenn" />
		<tag k="name" v="Hølsknuttjenna" />
		<tag k="natural" v="water" />
		<tag k="ssr:stedsnr" v="1487" />
	</node>
	<node lat="58.7617861103017" lon="9.237488897459171" id="-35892">
		<tag k="name" v="Brattstadkilen" />
		<tag k="natural" v="bay" />
		<tag k="ssr:stedsnr" v="23104" />
	</node>
	<node lat="58.77213055932966" lon="9.224188890875485" id="-35894">
		<tag k="name" v="Breiungen" />
		<tag k="natural" v="water" />
		<tag k="ssr:stedsnr" v="23119" />
		<tag k="water" v="lake" />
	</node>
	<node lat="58.78641944221002" lon="9.108602782475524" id="-35901">
		<tag k="name" v="Leirbukta" />
		<tag k="natural" v="bay" />
		<tag k="ssr:stedsnr" v="23285" />
	</node>
	<node lat="58.792266670095366" lon="9.272844449627028" id="-35908">
		<tag k="name" v="Eikelandstjenna" />
		<tag k="natural" v="water" />
		<tag k="ssr:stedsnr" v="23392" />
	</node>
	<node lat="58.769827774407574" lon="9.295419451884813" id="-35909">
		<tag k="name" v="Granstølkjeften" />
		<tag k="natural" v="bay" />
		<tag k="ssr:stedsnr" v="23530" />
	</node>
	<node lat="58.773241667180834" lon="9.272402784889263" id="-35911">
		<tag k="name" v="Hødnebøtjenn" />
		<tag k="natural" v="water" />
		<tag k="ssr:stedsnr" v="23535" />
	</node>
	<node lat="58.79203888826587" lon="9.240136113652774" id="-35916">
		<tag k="name" v="Slettheitjenn" />
		<tag k="natural" v="water" />
		<tag k="ssr:stedsnr" v="23485" />
	</node>
	<node lat="58.698811108292524" lon="9.080424992175425" id="-35921">
		<tag k="name" v="Lauvbuholmen" />
		<tag k="place" v="islet" />
		<tag k="ssr:stedsnr" v="23785" />
	</node>
	<node lat="58.81526388483368" lon="9.178413894782496" id="-35938">
		<tag k="alt_name" v="Ansteinvann" />
		<tag k="name" v="Ansteinvannet" />
		<tag k="natural" v="water" />
		<tag k="ssr:stedsnr" v="40017" />
		<tag k="water" v="lake" />
	</node>
	<node lat="58.80988369402363" lon="9.160758035436302" id="-35943">
		<tag k="alt_name" v="Andtjenn" />
		<tag k="name" v="Andtjenna" />
		<tag k="natural" v="water" />
		<tag k="ssr:stedsnr" v="62014" />
	</node>
	<node lat="58.761555554819964" lon="9.013541665030365" id="-35944">
		<tag k="alt_name" v="Store Grimsbutjenn" />
		<tag k="name" v="Store Grimsbutjenna" />
		<tag k="natural" v="water" />
		<tag k="ssr:stedsnr" v="62401" />
	</node>
	<node lat="58.66344999629719" lon="9.099363889495987" id="-35958">
		<tag k="name" v="Folevann" />
		<tag k="natural" v="water" />
		<tag k="ssr:stedsnr" v="243418" />
		<tag k="water" v="lake" />
	</node>
	<node lat="58.74408611189607" lon="9.061941666560926" id="-35963">
		<tag k="name" v="Vormlitjenna" />
		<tag k="natural" v="water" />
		<tag k="ssr:stedsnr" v="81551" />
	</node>
	<node lat="58.767705558575734" lon="9.250322222456022" id="-35979">
		<tag k="name" v="Okselifjorden" />
		<tag k="natural" v="bay" />
		<tag k="ssr:stedsnr" v="84132" />
	</node>
	<node lat="58.71204166944476" lon="9.039122225213415" id="-35994">
		<tag k="name" v="Svarthøl" />
		<tag k="place" v="locality" />
		<tag k="ssr:stedsnr" v="84920" />
	</node>
	<node lat="58.714419448047856" lon="8.98238333764514" id="-36005">
		<tag k="name" v="Snøreistjenn" />
		<tag k="natural" v="water" />
		<tag k="ssr:stedsnr" v="84891" />
	</node>
	<node lat="58.67031967061922" lon="9.096663448247002" id="-36010">
		<tag k="name" v="Maurnestjenn" />
		<tag k="natural" v="water" />
		<tag k="ssr:stedsnr" v="90385" />
	</node>
	<node lat="58.759655556746395" lon="9.031086110207267" id="-36019">
		<tag k="name" v="Odden" />
		<tag k="natural" v="cape" />
		<tag k="ssr:stedsnr" v="122402" />
	</node>
	<node lat="58.76513333758293" lon="9.24391667514163" id="-36027">
		<tag k="name" v="Ansteinsneset" />
		<tag k="natural" v="cape" />
		<tag k="ssr:stedsnr" v="144105" />
	</node>
	<node lat="58.76160000209817" lon="9.264638892868097" id="-36028">
		<tag k="name" v="Vinterstøa" />
		<tag k="natural" v="beach" />
		<tag k="ssr:stedsnr" v="144107" />
	</node>
	<node lat="58.778691667494165" lon="9.078316660866717" id="-36030">
		<tag k="name" v="Askekjerrtjenn" />
		<tag k="natural" v="water" />
		<tag k="ssr:stedsnr" v="144221" />
	</node>
	<node lat="58.7970438602026" lon="9.123273471247677" id="-36031">
		<tag k="name" v="Bikkjetjenn" />
		<tag k="natural" v="water" />
		<tag k="ssr:stedsnr" v="144232" />
	</node>
	<node lat="58.79874722610441" lon="9.12809167182211" id="-36032">
		<tag k="name" v="Svarttjenn" />
		<tag k="natural" v="water" />
		<tag k="ssr:stedsnr" v="144236" />
	</node>
	<node lat="58.78283333147494" lon="9.322841670646978" id="-36050">
		<tag k="name" v="Levangsdalkilen" />
		<tag k="natural" v="bay" />
		<tag k="ssr:stedsnr" v="144356" />
	</node>
	<node lat="58.699516668126506" lon="9.081924995016973" id="-36057">
		<tag k="name" v="Lauvbubukta" />
		<tag k="natural" v="bay" />
		<tag k="ssr:stedsnr" v="144755" />
	</node>
	<node lat="58.71538333104175" lon="9.091083326208807" id="-36058">
		<tag k="name" v="Glipen" />
		<tag k="natural" v="bay" />
		<tag k="ssr:stedsnr" v="144767" />
	</node>
	<node lat="58.712363889382" lon="9.08641944778355" id="-36059">
		<tag k="name" v="Klasodden" />
		<tag k="natural" v="cape" />
		<tag k="ssr:stedsnr" v="144772" />
	</node>
	<node lat="58.76863611353549" lon="9.003658334320852" id="-36064">
		<tag k="name" v="Langeratet" />
		<tag k="ssr:stedsnr" v="144986" />
		<tag k="waterway" v="rapids" />
	</node>
	<node lat="58.76183610890699" lon="9.029688886352732" id="-36066">
		<tag k="name" v="Radtangkilen" />
		<tag k="natural" v="bay" />
		<tag k="ssr:stedsnr" v="144996" />
	</node>
	<node lat="58.68323610855698" lon="9.19449723050721" id="-36069">
		<tag k="name" v="Fietjenn" />
		<tag k="natural" v="water" />
		<tag k="ssr:stedsnr" v="161748" />
	</node>
	<node lat="58.695714656051706" lon="9.075164344108032" id="-36076">
		<tag k="alt_name" v="Hommevann" />
		<tag k="name" v="Hommevannet" />
		<tag k="natural" v="water" />
		<tag k="ssr:stedsnr" v="183443" />
		<tag k="water" v="lake" />
	</node>
	<node lat="58.77329444275308" lon="9.210052784588326" id="-36078">
		<tag k="alt_name" v="Bjornes" />
		<tag k="name" v="Bjorneset" />
		<tag k="natural" v="cape" />
		<tag k="ssr:stedsnr" v="184440" />
	</node>
	<node lat="58.80882221875941" lon="9.153619449092675" id="-36084">
		<tag k="name" v="Prambukta" />
		<tag k="natural" v="bay" />
		<tag k="ssr:stedsnr" v="266217" />
	</node>
	<node lat="58.75700277365873" lon="9.112577770709555" id="-36090">
		<tag k="name" v="Nordstrand" />
		<tag k="natural" v="beach" />
		<tag k="ssr:stedsnr" v="266166" />
	</node>
	<node lat="58.77838610902734" lon="9.32090555974781" id="-36095">
		<tag k="name" v="Rundholmen" />
		<tag k="place" v="islet" />
		<tag k="ssr:stedsnr" v="266314" />
	</node>
	<node lat="58.75130832978063" lon="9.190919440407898" id="-36105">
		<tag k="name" v="Saulekilen" />
		<tag k="natural" v="bay" />
		<tag k="ssr:stedsnr" v="266364" />
	</node>
	<node lat="58.719297219618376" lon="9.010802770331907" id="-36126">
		<tag k="name" v="Kjørslehølen" />
		<tag k="place" v="locality" />
		<tag k="ssr:stedsnr" v="266901" />
	</node>
	<node lat="58.72519722156856" lon="8.988483341290957" id="-36129">
		<tag k="name" v="Knutebekken" />
		<tag k="ssr:stedsnr" v="266876" />
		<tag k="waterway" v="stream" />
	</node>
	<node lat="58.71132777662468" lon="8.984113895374874" id="-36130">
		<tag k="name" v="Lomstjenn" />
		<tag k="natural" v="water" />
		<tag k="ssr:stedsnr" v="266880" />
	</node>
	<node lat="58.707794442272224" lon="8.997363886305532" id="-36136">
		<tag k="name" v="Skåltjenn" />
		<tag k="natural" v="water" />
		<tag k="ssr:stedsnr" v="266975" />
	</node>
	<node lat="58.721030559813194" lon="9.22765833159815" id="-36142">
		<tag k="name" v="Tjenna" />
		<tag k="natural" v="water" />
		<tag k="ssr:stedsnr" v="205047" />
	</node>
	<node lat="58.74622221968407" lon="9.065886113786126" id="-36153">
		<tag k="name" v="Langodden" />
		<tag k="natural" v="cape" />
		<tag k="ssr:stedsnr" v="205151" />
	</node>
	<node lat="58.77769444501321" lon="9.05796943734046" id="-36154">
		<tag k="name" v="Lirostangen" />
		<tag k="natural" v="cape" />
		<tag k="ssr:stedsnr" v="205203" />
	</node>
	<node lat="58.77691666900394" lon="9.09775833738245" id="-36155">
		<tag k="name" v="Vasstøstranda" />
		<tag k="natural" v="beach" />
		<tag k="ssr:stedsnr" v="205206" />
	</node>
	<node lat="58.77616944035956" lon="9.004886109977502" id="-36159">
		<tag k="name" v="Saltvassoget" />
		<tag k="natural" v="strait" />
		<tag k="ssr:stedsnr" v="205288" />
	</node>
	<node lat="58.783955554505674" lon="9.235233335446628" id="-36170">
		<tag k="name" v="Butjenn" />
		<tag k="natural" v="water" />
		<tag k="ssr:stedsnr" v="205495" />
	</node>
	<node lat="58.71820000407375" lon="8.985277784877672" id="-36177">
		<tag k="name" v="Tøresmyrtjenn" />
		<tag k="natural" v="water" />
		<tag k="ssr:stedsnr" v="205896" />
	</node>
	<node lat="58.713763890129364" lon="8.973711118548618" id="-36188">
		<tag k="name" v="Stavvann" />
		<tag k="natural" v="water" />
		<tag k="ssr:stedsnr" v="243591" />
	</node>
	<node lat="58.711252776777" lon="9.123841660517078" id="-36189">
		<tag k="name" v="Gartebekk" />
		<tag k="ssr:stedsnr" v="243598" />
		<tag k="waterway" v="stream" />
	</node>
	<node lat="58.77153888597802" lon="9.255122225236493" id="-36207">
		<tag k="name" v="Lilletjenn" />
		<tag k="natural" v="water" />
		<tag k="ssr:stedsnr" v="266110" />
	</node>
	<node lat="58.770011109835025" lon="9.228319441489404" id="-36209">
		<tag k="name" v="Halvveisholmen" />
		<tag k="place" v="islet" />
		<tag k="ssr:stedsnr" v="266114" />
	</node>
	<node lat="58.76804166808231" lon="9.226908341819305" id="-36210">
		<tag k="name" v="Husåsholmen" />
		<tag k="place" v="islet" />
		<tag k="ssr:stedsnr" v="266115" />
	</node>
	<node lat="58.75478055331232" lon="9.163308334727947" id="-36211">
		<tag k="name" v="Vassvika" />
		<tag k="natural" v="bay" />
		<tag k="ssr:stedsnr" v="266118" />
	</node>
	<node lat="58.78250832905313" lon="9.22485277033646" id="-36224">
		<tag k="name" v="Kattholmen" />
		<tag k="place" v="islet" />
		<tag k="ssr:stedsnr" v="266434" />
	</node>
	<node lat="58.8162638880398" lon="9.190991672659239" id="-36230">
		<tag k="name" v="Lindfjellbekken" />
		<tag k="ssr:stedsnr" v="266401" />
		<tag k="waterway" v="stream" />
	</node>
	<node lat="58.75599999745176" lon="9.032299994062658" id="-36241">
		<tag k="name" v="Damkilen" />
		<tag k="natural" v="bay" />
		<tag k="ssr:stedsnr" v="266938" />
	</node>
	<node lat="58.769913886039696" lon="9.048333327332996" id="-36250">
		<tag k="alt_name" v="Pinesund" />
		<tag k="name" v="Pinesundet" />
		<tag k="natural" v="strait" />
		<tag k="ssr:stedsnr" v="304380" />
	</node>
	<node lat="58.71821388466904" lon="9.069741670703824" id="-36256">
		<tag k="alt_name" v="Auslandstjenn" />
		<tag k="name" v="Auslandstjenna" />
		<tag k="natural" v="water" />
		<tag k="ssr:stedsnr" v="304615" />
	</node>
	<node lat="58.672991666801416" lon="9.191513887734843" id="-36260">
		<tag k="name" v="Eidet" />
		<tag k="place" v="locality" />
		<tag k="ssr:stedsnr" v="326022" />
	</node>
	<node lat="58.68294722072723" lon="9.173780554241096" id="-36268">
		<tag k="name" v="Svartebekk" />
		<tag k="ssr:stedsnr" v="326227" />
		<tag k="waterway" v="stream" />
	</node>
	<node lat="58.782741663137465" lon="9.276650005774957" id="-36276">
		<tag k="name" v="Slåttetjenn" />
		<tag k="natural" v="water" />
		<tag k="ssr:stedsnr" v="326375" />
	</node>
	<node lat="58.77699444134658" lon="9.009155555678129" id="-36282">
		<tag k="name" v="Saltvassia" />
		<tag k="natural" v="water" />
		<tag k="ssr:stedsnr" v="326265" />
		<tag k="water" v="lake" />
	</node>
	<node lat="58.70626389217115" lon="9.081541671250795" id="-36289">
		<tag k="name" v="Eidsbekk" />
		<tag k="ssr:stedsnr" v="326768" />
		<tag k="waterway" v="stream" />
	</node>
	<node lat="58.81571944665464" lon="9.152022214826447" id="-36306">
		<tag k="name" v="Svart" />
		<tag k="natural" v="water" />
		<tag k="ssr:stedsnr" v="365008" />
		<tag k="water" v="lake" />
	</node>
	<node lat="58.72590833541461" lon="9.196208326484847" id="-36312">
		<tag k="name" v="Tjenndalstjenna" />
		<tag k="natural" v="water" />
		<tag k="ssr:stedsnr" v="383997" />
		<tag k="water" v="lake" />
	</node>
	<node lat="58.76882222049111" lon="9.217627775895883" id="-36316">
		<tag k="name" v="Fiskebekktangen" />
		<tag k="natural" v="cape" />
		<tag k="ssr:stedsnr" v="387123" />
	</node>
	<node lat="58.76116666528038" lon="9.143194438848338" id="-36318">
		<tag k="name" v="Kvernbekk" />
		<tag k="ssr:stedsnr" v="387159" />
		<tag k="waterway" v="stream" />
	</node>
	<node lat="58.80464722016265" lon="9.144966671260528" id="-36328">
		<tag k="name" v="Eikestøa" />
		<tag k="natural" v="beach" />
		<tag k="ssr:stedsnr" v="387223" />
	</node>
	<node lat="58.68055555507291" lon="9.208988890077315" id="-36329">
		<tag k="name" v="Ålkilen" />
		<tag k="natural" v="water" />
		<tag k="ssr:stedsnr" v="387235" />
	</node>
	<node lat="58.802074996276616" lon="9.16888888445249" id="-36335">
		<tag k="name" v="Vestre Grasmyrtjenn" />
		<tag k="natural" v="water" />
		<tag k="ssr:stedsnr" v="387423" />
	</node>
	<node lat="58.76170000370377" lon="9.024319442964602" id="-36344">
		<tag k="name" v="Brattlandskilen" />
		<tag k="natural" v="bay" />
		<tag k="ssr:stedsnr" v="387992" />
	</node>
	<node lat="58.759741670768385" lon="9.026955562591827" id="-36345">
		<tag k="name" v="Persodde" />
		<tag k="natural" v="cape" />
		<tag k="ssr:stedsnr" v="387993" />
	</node>
	<node lat="58.69577777452541" lon="9.076900005131368" id="-36348">
		<tag k="name" v="Terneholmene" />
		<tag k="place" v="islet" />
		<tag k="ssr:stedsnr" v="387844" />
	</node>
	<node lat="58.77394722063379" lon="9.087580561094814" id="-36363">
		<tag k="alt_name" v="Brøbørvann" />
		<tag k="name" v="Brøbøvann" />
		<tag k="natural" v="water" />
		<tag k="old_name" v="Brøbergvatnet" />
		<tag k="ssr:stedsnr" v="487449" />
		<tag k="water" v="lake" />
	</node>
	<node lat="58.79673773656423" lon="9.195436655655262" id="-36364">
		<tag k="name" v="Sørbøtjenna" />
		<tag k="natural" v="water" />
		<tag k="ssr:stedsnr" v="487466" />
	</node>
	<node lat="58.76649166498471" lon="9.287050005279463" id="-36366">
		<tag k="name" v="Lonene" />
		<tag k="natural" v="strait" />
		<tag k="ssr:stedsnr" v="425517" />
	</node>
	<node lat="58.70966666732798" lon="9.140636110161859" id="-36373">
		<tag k="alt_name" v="Stemtjenn" />
		<tag k="name" v="Stemtjenna" />
		<tag k="natural" v="water" />
		<tag k="ssr:stedsnr" v="426613" />
	</node>
	<node lat="58.70393610858917" lon="9.077927773971155" id="-36377">
		<tag k="alt_name" v="Ulevann" />
		<tag k="name" v="Ulevannet" />
		<tag k="natural" v="water" />
		<tag k="ssr:stedsnr" v="426627" />
	</node>
	<node lat="58.76943889207025" lon="9.239794446778205" id="-36381">
		<tag k="name" v="Smisund" />
		<tag k="natural" v="strait" />
		<tag k="ssr:stedsnr" v="448115" />
	</node>
	<node lat="58.761386114850026" lon="9.224824999678738" id="-36394">
		<tag k="name" v="Fisketjenn" />
		<tag k="natural" v="water" />
		<tag k="ssr:stedsnr" v="448406" />
	</node>
	<node lat="58.7708138845269" lon="9.14907223001662" id="-36402">
		<tag k="name" v="Livsnes" />
		<tag k="natural" v="cape" />
		<tag k="ssr:stedsnr" v="448836" />
	</node>
	<node lat="58.77013055431226" lon="9.140480563950689" id="-36403">
		<tag k="name" v="Glupetjenn" />
		<tag k="natural" v="water" />
		<tag k="ssr:stedsnr" v="448838" />
	</node>
	<node lat="58.75651111011942" lon="9.058708330903581" id="-36405">
		<tag k="name" v="Hellerdalstjenn" />
		<tag k="natural" v="water" />
		<tag k="ssr:stedsnr" v="448844" />
	</node>
	<node lat="58.806563887375866" lon="9.202780563594377" id="-36418">
		<tag k="name" v="Høl" />
		<tag k="natural" v="water" />
		<tag k="ssr:stedsnr" v="486489" />
	</node>
	<node lat="58.70925000238209" lon="8.977183336390437" id="-36421">
		<tag k="name" v="Langevann" />
		<tag k="natural" v="water" />
		<tag k="ssr:stedsnr" v="486632" />
	</node>
	<node lat="58.76024444833442" lon="9.260755547692211" id="-36423">
		<tag k="name" v="Kjørslevika" />
		<tag k="natural" v="bay" />
		<tag k="ssr:stedsnr" v="508092" />
	</node>
	<node lat="58.68429721890524" lon="9.193488896614657" id="-36427">
		<tag k="name" v="Lille Fietjenn" />
		<tag k="natural" v="water" />
		<tag k="ssr:stedsnr" v="508225" />
	</node>
	<node lat="58.7806444428451" lon="9.059419439886401" id="-36432">
		<tag k="name" v="Flisetangen" />
		<tag k="natural" v="cape" />
		<tag k="ssr:stedsnr" v="508190" />
	</node>
	<node lat="58.779772222026565" lon="9.102658324928228" id="-36435">
		<tag k="name" v="Vasstøodden" />
		<tag k="natural" v="cape" />
		<tag k="ssr:stedsnr" v="508195" />
	</node>
	<node lat="58.77584166967359" lon="9.215963889251004" id="-36442">
		<tag k="alt_name" v="Midtkil" />
		<tag k="name" v="Midtkilen" />
		<tag k="natural" v="bay" />
		<tag k="ssr:stedsnr" v="508511" />
	</node>
	<node lat="58.6970833361102" lon="9.033063884975647" id="-36454">
		<tag k="name" v="Storvik" />
		<tag k="natural" v="bay" />
		<tag k="ssr:stedsnr" v="508990" />
	</node>
	<node lat="58.772177778247794" lon="9.005383341677566" id="-36455">
		<tag k="name" v="Brattlandslona" />
		<tag k="natural" v="water" />
		<tag k="ssr:stedsnr" v="508995" />
		<tag k="water" v="lake" />
	</node>
	<node lat="58.708977777673724" lon="9.026869450393995" id="-36456">
		<tag k="name" v="Bjorbukta" />
		<tag k="natural" v="bay" />
		<tag k="ssr:stedsnr" v="509962" />
	</node>
	<node lat="58.776827778446105" lon="9.228033336362248" id="-36459">
		<tag k="name" v="Starknesholmen" />
		<tag k="place" v="islet" />
		<tag k="ssr:stedsnr" v="751468" />
	</node>
	<node lat="58.77787500235562" lon="9.220455555168945" id="-36460">
		<tag k="name" v="Skuggemyrneset" />
		<tag k="natural" v="cape" />
		<tag k="ssr:stedsnr" v="751471" />
	</node>
	<node lat="58.70655277430924" lon="9.129144451599295" id="-36462">
		<tag k="alt_name" v="Gartetjenn" />
		<tag k="name" v="Gartetjenna" />
		<tag k="natural" v="water" />
		<tag k="ssr:stedsnr" v="546570" />
	</node>
	<node lat="58.703119441023226" lon="9.140833327185941" id="-36463">
		<tag k="alt_name" v="Vemmelstjenn" />
		<tag k="name" v="Vemmelstjenna" />
		<tag k="natural" v="water" />
		<tag k="ssr:stedsnr" v="546571" />
	</node>
	<node lat="58.70227222549768" lon="9.159536114326867" id="-36464">
		<tag k="alt_name" v="Åmlandstjenn" />
		<tag k="name" v="Åmlandstjenna" />
		<tag k="natural" v="water" />
		<tag k="ssr:stedsnr" v="546572" />
	</node>
	<node lat="58.75691111093121" lon="9.121783326162756" id="-36488">
		<tag k="name" v="Terneholmen" />
		<tag k="place" v="islet" />
		<tag k="ssr:stedsnr" v="690153" />
	</node>
	<node lat="58.701172220799556" lon="9.078549996308137" id="-36510">
		<tag k="name" v="Hommevassbekken" />
		<tag k="ssr:stedsnr" v="690790" />
		<tag k="waterway" v="stream" />
	</node>
	<node lat="58.755480556168216" lon="9.014697218786676" id="-36518">
		<tag k="name" v="Snøreistjenn" />
		<tag k="natural" v="water" />
		<tag k="ssr:stedsnr" v="690945" />
	</node>
	<node lat="58.7475555533343" lon="9.06559443597707" id="-36530">
		<tag k="name" v="Lona" />
		<tag k="ssr:stedsnr" v="569155" />
		<tag k="waterway" v="stream" />
	</node>
	<node lat="58.73639999932081" lon="9.104458334595922" id="-36537">
		<tag k="name" v="Skårbekk" />
		<tag k="ssr:stedsnr" v="569217" />
		<tag k="waterway" v="stream" />
	</node>
	<node lat="58.681250001149394" lon="9.155377784164981" id="-36541">
		<tag k="name" v="Ordalstjenn" />
		<tag k="natural" v="water" />
		<tag k="ssr:stedsnr" v="569274" />
	</node>
	<node lat="58.75611944396458" lon="9.035350000551125" id="-36547">
		<tag k="name" v="Damlona" />
		<tag k="natural" v="water" />
		<tag k="ssr:stedsnr" v="569919" />
		<tag k="water" v="lake" />
	</node>
	<node lat="58.75588332911803" lon="9.136955547352699" id="-36559">
		<tag k="name" v="Lille Stamsøytjenn" />
		<tag k="natural" v="water" />
		<tag k="ssr:stedsnr" v="607366" />
	</node>
	<node lat="58.67557778153651" lon="9.129322221668978" id="-36560">
		<tag k="alt_name" v="Nevlingsvannet" />
		<tag k="name" v="Nevlungvannet" />
		<tag k="natural" v="water" />
		<tag k="ssr:stedsnr" v="607454" />
	</node>
	<node lat="58.768277775509866" lon="9.241588890250707" id="-36569">
		<tag k="name" v="Skuta" />
		<tag k="place" v="islet" />
		<tag k="ssr:stedsnr" v="629099" />
	</node>
	<node lat="58.76244722333952" lon="9.151699994725679" id="-36572">
		<tag k="name" v="Bråtodden" />
		<tag k="natural" v="cape" />
		<tag k="ssr:stedsnr" v="629142" />
	</node>
	<node lat="58.7957805563247" lon="9.22125555912696" id="-36581">
		<tag k="name" v="Vasspollen" />
		<tag k="natural" v="bay" />
		<tag k="ssr:stedsnr" v="629290" />
	</node>
	<node lat="58.805041670575484" lon="9.173352781597362" id="-36583">
		<tag k="name" v="Midtre Grasmyrtjenn" />
		<tag k="natural" v="water" />
		<tag k="ssr:stedsnr" v="629423" />
	</node>
	<node lat="58.77769166618366" lon="9.21368055432833" id="-36584">
		<tag k="name" v="Hestholmen" />
		<tag k="place" v="islet" />
		<tag k="ssr:stedsnr" v="629444" />
	</node>
	<node lat="58.775111111362875" lon="9.213861105704758" id="-36585">
		<tag k="name" v="Bjørnholmene" />
		<tag k="place" v="islet" />
		<tag k="ssr:stedsnr" v="629445" />
	</node>
	<node lat="58.76018888568441" lon="9.038741663024203" id="-36597">
		<tag k="name" v="Hestekjerrbukta" />
		<tag k="natural" v="bay" />
		<tag k="ssr:stedsnr" v="629996" />
	</node>
	<node lat="58.77259166521107" lon="9.017594450690515" id="-36606">
		<tag k="alt_name" v="Brattlandsvann" />
		<tag k="name" v="Brattlandsvannet" />
		<tag k="natural" v="water" />
		<tag k="ssr:stedsnr" v="668407" />
	</node>
	<node lat="58.77621111250963" lon="9.109966673348005" id="-36616">
		<tag k="alt_name" v="Søndeledmyrtjenn" />
		<tag k="name" v="Søndeledmyrtjenna" />
		<tag k="natural" v="water" />
		<tag k="ssr:stedsnr" v="669434" />
	</node>
	<node lat="58.736313886449445" lon="9.07453889381045" id="-36628">
		<tag k="name" v="Mianbekken" />
		<tag k="ssr:stedsnr" v="690198" />
		<tag k="waterway" v="stream" />
	</node>
	<node lat="58.776380556363435" lon="9.207408325976894" id="-36639">
		<tag k="name" v="Flatholmen" />
		<tag k="place" v="islet" />
		<tag k="ssr:stedsnr" v="690465" />
	</node>
	<node lat="58.72493055392491" lon="9.036663895169456" id="-36650">
		<tag k="name" v="Blåbærnes" />
		<tag k="natural" v="cape" />
		<tag k="ssr:stedsnr" v="690904" />
	</node>
	<node lat="58.722030557185015" lon="9.037486111718632" id="-36651">
		<tag k="name" v="Stupshøl" />
		<tag k="place" v="locality" />
		<tag k="ssr:stedsnr" v="690906" />
	</node>
	<node lat="58.70961944872101" lon="9.03363333574196" id="-36657">
		<tag k="name" v="Bjørkestø" />
		<tag k="natural" v="beach" />
		<tag k="ssr:stedsnr" v="691976" />
	</node>
	<node lat="58.72094166314365" lon="9.056883341413599" id="-36671">
		<tag k="alt_name" v="Hammertjenn" />
		<tag k="name" v="Hammertjenna" />
		<tag k="natural" v="water" />
		<tag k="ssr:stedsnr" v="729589" />
	</node>
	<node lat="58.79113055256808" lon="9.09972222565675" id="-36674">
		<tag k="alt_name" v="Vasstøvann" />
		<tag k="name" v="Vasstøvannet" />
		<tag k="natural" v="water" />
		<tag k="ssr:stedsnr" v="730476" />
		<tag k="water" v="lake" />
	</node>
	<node lat="58.672261111725845" lon="9.095491660967937" id="-36687">
		<tag k="name" v="Bjørkholmen" />
		<tag k="place" v="islet" />
		<tag k="ssr:stedsnr" v="751269" />
	</node>
	<node lat="58.72624166775949" lon="9.099133327566863" id="-36695">
		<tag k="name" v="Hjembuodden" />
		<tag k="natural" v="cape" />
		<tag k="ssr:stedsnr" v="751813" />
	</node>
	<node lat="58.738824996465645" lon="9.016333331858553" id="-36698">
		<tag k="name" v="Paddetjenn" />
		<tag k="natural" v="water" />
		<tag k="ssr:stedsnr" v="751969" />
	</node>
	<node lat="58.7088277738816" lon="8.999366669822281" id="-36708">
		<tag k="name" v="Myrbutjenn" />
		<tag k="natural" v="water" />
		<tag k="ssr:stedsnr" v="752969" />
	</node>
	<node lat="58.75820500946494" lon="9.199302717310522" id="-36720">
		<tag k="name" v="Porstjenna" />
		<tag k="natural" v="water" />
		<tag k="ssr:stedsnr" v="789372" />
	</node>
	<node lat="58.77439166249247" lon="9.062058341688417" id="-36728">
		<tag k="alt_name" v="Kroktjenn" />
		<tag k="name" v="Kroktjenna" />
		<tag k="natural" v="water" />
		<tag k="ssr:stedsnr" v="790414" />
	</node>
	<node lat="58.79685747115611" lon="9.151141999850335" id="-36729">
		<tag k="name" v="Øygardsmyrtjenna" />
		<tag k="natural" v="water" />
		<tag k="ssr:stedsnr" v="790448" />
	</node>
	<node lat="58.763119440126495" lon="9.132983328436751" id="-36732">
		<tag k="name" v="Smalrona" />
		<tag k="place" v="locality" />
		<tag k="ssr:stedsnr" v="790349" />
	</node>
	<node lat="58.80009444617612" lon="9.184547229730114" id="-36739">
		<tag k="name" v="Krokvann" />
		<tag k="natural" v="water" />
		<tag k="old_name" v="Krokvatnet" />
		<tag k="ssr:stedsnr" v="912454" />
		<tag k="water" v="lake" />
	</node>
	<node lat="58.70979999938339" lon="9.024588888722459" id="-36779">
		<tag k="name" v="Butangen" />
		<tag k="natural" v="cape" />
		<tag k="ssr:stedsnr" v="812980" />
	</node>
	<node lat="58.711055557968685" lon="9.022430551677012" id="-36786">
		<tag k="alt_name" v="Lindlandsvann" />
		<tag k="name" v="Lindlandsvannet" />
		<tag k="natural" v="water" />
		<tag k="ssr:stedsnr" v="850593" />
		<tag k="water" v="lake" />
	</node>
	<node lat="58.79634075575423" lon="9.20664782294363" id="-36792">
		<tag k="alt_name" v="Bjortjenn" />
		<tag k="name" v="Bjortjenna" />
		<tag k="natural" v="water" />
		<tag k="ssr:stedsnr" v="851404" />
	</node>
	<node lat="58.67289999985361" lon="9.115450003791548" id="-36798">
		<tag k="name" v="Dypetjenn" />
		<tag k="natural" v="water" />
		<tag k="ssr:stedsnr" v="872316" />
	</node>
	<node lat="58.67627222020534" lon="9.18580000439764" id="-36803">
		<tag k="name" v="Heslevika" />
		<tag k="natural" v="bay" />
		<tag k="ssr:stedsnr" v="933224" />
	</node>
	<node lat="58.74305000156799" lon="9.066361112061172" id="-36819">
		<tag k="name" v="Storodden" />
		<tag k="natural" v="cape" />
		<tag k="ssr:stedsnr" v="933172" />
	</node>
	<node lat="58.771669440721894" lon="9.327669435959704" id="-36825">
		<tag k="name" v="Sandvika" />
		<tag k="natural" v="bay" />
		<tag k="ssr:stedsnr" v="933351" />
	</node>
	<node lat="58.77704721988501" lon="9.319094441216848" id="-36826">
		<tag k="name" v="Teiensodden" />
		<tag k="natural" v="cape" />
		<tag k="ssr:stedsnr" v="933353" />
	</node>
	<node lat="58.68876944732214" lon="9.143050003218631" id="-36854">
		<tag k="name" v="Hopetjenn" />
		<tag k="natural" v="water" />
		<tag k="ssr:stedsnr" v="933883" />
	</node>
</osm>
