<?xml version="1.0" encoding="UTF-8"?>
<osm version="0.6" generator="osmapis">
	<node lat="58.75813055389512" lon="9.070338882640044" id="-35882">
		<tag k="name" v="Øren" />
		<tag k="place" v="farm" />
		<tag k="ssr:stedsnr" v="1401" />
	</node>
	<node lat="58.689983336066625" lon="9.084400007351483" id="-35884">
		<tag k="alt_name" v="Torskeberg" />
		<tag k="fixme" v="consider place=hamlet" />
		<tag k="name" v="Toskeberg" />
		<tag k="place" v="farm" />
		<tag k="ssr:stedsnr" v="1483" />
	</node>
	<node lat="58.6836027759044" lon="9.090625007544952" id="-35885">
		<tag k="fixme" v="consider place=hamlet" />
		<tag k="name" v="Grimsland" />
		<tag k="place" v="farm" />
		<tag k="ssr:stedsnr" v="1484" />
	</node>
	<node lat="58.68576110905697" lon="9.106724997114368" id="-35886">
		<tag k="name" v="Myra" />
		<tag k="place" v="farm" />
		<tag k="ssr:stedsnr" v="1485" />
	</node>
	<node lat="58.69366666757608" lon="9.104388884307081" id="-35888">
		<tag k="name" v="Reiers" />
		<tag k="place" v="farm" />
		<tag k="ssr:stedsnr" v="1498" />
	</node>
	<node lat="58.69674444642114" lon="9.128550000125859" id="-35889">
		<tag k="name" v="Fjebudalen" />
		<tag k="place" v="farm" />
		<tag k="ssr:stedsnr" v="1502" />
	</node>
	<node lat="58.726647222060485" lon="9.04689444616661" id="-35890">
		<tag k="alt_name" v="Bråtane" />
		<tag k="name" v="Bråten" />
		<tag k="place" v="farm" />
		<tag k="ssr:stedsnr" v="1573" />
	</node>
	<node lat="58.775503934385746" lon="9.012933353472842" id="-35891">
		<tag k="name" v="Brattland" />
		<tag k="place" v="locality" />
		<tag k="ssr:stedsnr" v="2436" />
	</node>
	<node lat="58.78484444385451" lon="9.081000004037799" id="-35898">
		<tag k="name" v="Nygård" />
		<tag k="place" v="farm" />
		<tag k="ssr:stedsnr" v="23234" />
	</node>
	<node lat="58.69937777542886" lon="9.10677222427626" id="-35927">
		<tag k="name" v="Nordhagen" />
		<tag k="place" v="farm" />
		<tag k="ssr:stedsnr" v="23892" />
	</node>
	<node lat="58.71530000064929" lon="9.224719447952674" id="-35929">
		<tag k="fixme" v="consider place=suburb, village or hamlet" />
		<tag k="name" v="Konvoibyen" />
		<tag k="place" v="quarter" />
		<tag k="ssr:stedsnr" v="24033" />
	</node>
	<node lat="58.69201110839633" lon="9.096180549052304" id="-35937">
		<tag k="name" v="Sønningdalen" />
		<tag k="place" v="farm" />
		<tag k="ssr:stedsnr" v="27506" />
	</node>
	<node lat="58.74871279895852" lon="9.251096291926597" id="-35940">
		<tag k="alt_name" v="Grudal" />
		<tag k="name" v="Grudalen" />
		<tag k="place" v="farm" />
		<tag k="ssr:stedsnr" v="61209" />
	</node>
	<node lat="58.702369441724066" lon="9.18562777263854" id="-35941">
		<tag k="name" v="Rullandsdalen" />
		<tag k="place" v="farm" />
		<tag k="ssr:stedsnr" v="61606" />
	</node>
	<node lat="58.751758333035326" lon="9.308405562181031" id="-35946">
		<tag k="name" v="Styggemyr" />
		<tag k="place" v="farm" />
		<tag k="ssr:stedsnr" v="62579" />
	</node>
	<node lat="58.7422694414186" lon="9.279800005975838" id="-35948">
		<tag k="alt_name" v="Robbersvik" />
		<tag k="name" v="Robersvik" />
		<tag k="place" v="farm" />
		<tag k="ssr:stedsnr" v="243191" />
	</node>
	<node lat="58.727033333783254" lon="9.227591668713442" id="-35949">
		<tag k="fixme" v="consider place=suburb, village or hamlet" />
		<tag k="name" v="Krana" />
		<tag k="place" v="quarter" />
		<tag k="ssr:stedsnr" v="243194" />
	</node>
	<node lat="58.747836114796804" lon="9.241619449063958" id="-35951">
		<tag k="name" v="Sandvika" />
		<tag k="place" v="isolated_dwelling" />
		<tag k="ssr:stedsnr" v="243198" />
	</node>
	<node lat="58.74070277680385" lon="9.101833337037238" id="-35953">
		<tag k="fixme" v="consider place=hamlet" />
		<tag k="name" v="Barmen" />
		<tag k="place" v="farm" />
		<tag k="ssr:stedsnr" v="243543" />
	</node>
	<node lat="58.77473333219461" lon="9.343491659980332" id="-35954">
		<tag k="name" v="Stormyr" />
		<tag k="place" v="farm" />
		<tag k="ssr:stedsnr" v="243546" />
	</node>
	<node lat="58.746816665079685" lon="9.133736107267234" id="-35955">
		<tag k="name" v="Skutodden" />
		<tag k="place" v="farm" />
		<tag k="ssr:stedsnr" v="243553" />
	</node>
	<node lat="58.74765555317913" lon="9.188636113188727" id="-35956">
		<tag k="name" v="Landa" />
		<tag k="place" v="farm" />
		<tag k="ssr:stedsnr" v="243556" />
	</node>
	<node lat="58.76875278081093" lon="9.205299998654917" id="-35957">
		<tag k="name" v="Langmyrbråten" />
		<tag k="place" v="farm" />
		<tag k="ssr:stedsnr" v="243392" />
	</node>
	<node lat="58.66594999700804" lon="9.161469452655112" id="-35959">
		<tag k="name" v="Østerdal" />
		<tag k="place" v="farm" />
		<tag k="ssr:stedsnr" v="243427" />
	</node>
	<node lat="58.69181666585512" lon="9.165252783959193" id="-35968">
		<tag k="name" v="Sørlandet Feriesenter" />
		<tag k="ssr:stedsnr" v="84091" />
		<tag k="tourism" v="camp_site" />
	</node>
	<node lat="58.791580558444295" lon="9.073338895671883" id="-35971">
		<tag k="name" v="Vedtjennplassen" />
		<tag k="place" v="locality" />
		<tag k="ssr:stedsnr" v="84203" />
	</node>
	<node lat="58.78061666621243" lon="9.085608327046273" id="-35973">
		<tag k="name" v="Hommefoss" />
		<tag k="place" v="farm" />
		<tag k="ssr:stedsnr" v="84209" />
	</node>
	<node lat="58.753805033660626" lon="9.110556263574331" id="-35981">
		<tag k="name" v="Rundsag" />
		<tag k="place" v="farm" />
		<tag k="ssr:stedsnr" v="84185" />
	</node>
	<node lat="58.66747778164718" lon="9.14962222181135" id="-35982">
		<tag k="name" v="Sundet" />
		<tag k="place" v="farm" />
		<tag k="ssr:stedsnr" v="84303" />
	</node>
	<node lat="58.76532222570858" lon="9.334738896558244" id="-35985">
		<tag k="name" v="Småkjerra" />
		<tag k="place" v="isolated_dwelling" />
		<tag k="ssr:stedsnr" v="84334" />
	</node>
	<node lat="58.74590555125371" lon="9.127238884599914" id="-36011">
		<tag k="name" v="Stamsøyholmen" />
		<tag k="place" v="farm" />
		<tag k="ssr:stedsnr" v="99711" />
	</node>
	<node lat="58.73343611094945" lon="9.283077783312248" id="-36013">
		<tag k="alt_name" v="Vardøy" />
		<tag k="fixme" v="consider place=hamlet" />
		<tag k="name" v="Vardøya" />
		<tag k="place" v="farm" />
		<tag k="ssr:stedsnr" v="122207" />
	</node>
	<node lat="58.746864865961115" lon="9.295407400259505" id="-36014">
		<tag k="name" v="Skåtet" />
		<tag k="place" v="farm" />
		<tag k="ssr:stedsnr" v="122215" />
	</node>
	<node lat="58.745383335727325" lon="9.232391673546907" id="-36015">
		<tag k="alt_name" v="Hosås" />
		<tag k="fixme" v="consider place=hamlet" />
		<tag k="name" v="Husås" />
		<tag k="place" v="farm" />
		<tag k="ssr:stedsnr" v="122217" />
	</node>
	<node lat="58.765516664402725" lon="9.329777779726589" id="-36016">
		<tag k="name" v="Hommen" />
		<tag k="place" v="farm" />
		<tag k="ssr:stedsnr" v="122520" />
	</node>
	<node lat="58.75606666557006" lon="9.313336114374488" id="-36017">
		<tag k="alt_name" v="Nistesvåg" />
		<tag k="fixme" v="consider place=hamlet" />
		<tag k="name" v="Nistevåg" />
		<tag k="place" v="farm" />
		<tag k="ssr:stedsnr" v="122525" />
	</node>
	<node lat="58.73131944084171" lon="9.116052785703046" id="-36018">
		<tag k="name" v="Svenes" />
		<tag k="place" v="farm" />
		<tag k="ssr:stedsnr" v="122528" />
	</node>
	<node lat="58.71834167057288" lon="9.03781389262582" id="-36020">
		<tag k="name" v="Øylandsdal" />
		<tag k="place" v="farm" />
		<tag k="ssr:stedsnr" v="122602" />
	</node>
	<node lat="58.717752780712544" lon="9.075983324724776" id="-36021">
		<tag k="name" v="Øygarden" />
		<tag k="place" v="farm" />
		<tag k="ssr:stedsnr" v="122604" />
	</node>
	<node lat="58.75149722224548" lon="9.257352779808345" id="-36022">
		<tag k="alt_name" v="Vikingsdal" />
		<tag k="name" v="Vikingdalen" />
		<tag k="place" v="farm" />
		<tag k="ssr:stedsnr" v="122573" />
	</node>
	<node lat="58.78624999797666" lon="9.083216675273574" id="-36023">
		<tag k="name" v="Åsen" />
		<tag k="place" v="farm" />
		<tag k="ssr:stedsnr" v="123510" />
	</node>
	<node lat="58.78024444752293" lon="9.113816658813752" id="-36024">
		<tag k="name" v="Søndeledmyr" />
		<tag k="place" v="farm" />
		<tag k="ssr:stedsnr" v="123468" />
	</node>
	<node lat="58.7788120135002" lon="9.084862036398981" id="-36029">
		<tag k="name" v="Bråten" />
		<tag k="place" v="farm" />
		<tag k="ssr:stedsnr" v="144217" />
	</node>
	<node lat="58.797572218552475" lon="9.13442777817924" id="-36033">
		<tag k="name" v="Gåsemyr" />
		<tag k="place" v="farm" />
		<tag k="ssr:stedsnr" v="144237" />
	</node>
	<node lat="58.71675555830983" lon="9.112191663312613" id="-36055">
		<tag k="name" v="Risør gjesthus" />
		<tag k="ssr:stedsnr" v="144747" />
		<tag k="tourism" v="guest_house" />
	</node>
	<node lat="58.72323611391324" lon="9.055372217212202" id="-36060">
		<tag k="name" v="Hammeren" />
		<tag k="place" v="farm" />
		<tag k="ssr:stedsnr" v="144775" />
	</node>
	<node lat="58.77284722413116" lon="9.269166666880448" id="-36072">
		<tag k="fixme" v="consider place=hamlet" />
		<tag k="name" v="Hødnebø" />
		<tag k="place" v="farm" />
		<tag k="ssr:stedsnr" v="182524" />
	</node>
	<node lat="58.770566663903715" lon="9.280094439365818" id="-36073">
		<tag k="alt_name" v="Tallaksegne" />
		<tag k="name" v="Tallakseng" />
		<tag k="place" v="farm" />
		<tag k="ssr:stedsnr" v="182528" />
	</node>
	<node lat="58.7712249981514" lon="9.337444441450371" id="-36074">
		<tag k="alt_name" v="Solvang" />
		<tag k="name" v="Sulvang" />
		<tag k="place" v="farm" />
		<tag k="ssr:stedsnr" v="182534" />
	</node>
	<node lat="58.74590643658454" lon="9.200636640016382" id="-36077">
		<tag k="alt_name" v="Flåthella" />
		<tag k="name" v="Flåtehella" />
		<tag k="place" v="farm" />
		<tag k="ssr:stedsnr" v="183509" />
	</node>
	<node lat="58.71660617231567" lon="9.174591152504311" id="-36087">
		<tag k="name" v="Solstad" />
		<tag k="place" v="farm" />
		<tag k="ssr:stedsnr" v="266058" />
	</node>
	<node lat="58.7503916641956" lon="9.272738889202346" id="-36117">
		<tag k="name" v="Kortmyr" />
		<tag k="place" v="farm" />
		<tag k="ssr:stedsnr" v="266475" />
	</node>
	<node lat="58.752102775395024" lon="9.308172214498757" id="-36118">
		<tag k="name" v="Ormdalen" />
		<tag k="place" v="farm" />
		<tag k="ssr:stedsnr" v="266480" />
	</node>
	<node lat="58.716625001327095" lon="9.199680557238192" id="-36143">
		<tag k="fixme" v="consider place=hamlet" />
		<tag k="name" v="Grundesund" />
		<tag k="place" v="farm" />
		<tag k="ssr:stedsnr" v="205053" />
	</node>
	<node lat="58.75951111460459" lon="9.069936104992665" id="-36175">
		<tag k="name" v="Bakken" />
		<tag k="place" v="quarter" />
		<tag k="ssr:stedsnr" v="205848" />
	</node>
	<node lat="58.69500000337645" lon="9.106152772317486" id="-36176">
		<tag k="name" v="Rønningen" />
		<tag k="place" v="isolated_dwelling" />
		<tag k="ssr:stedsnr" v="205893" />
	</node>
	<node lat="58.700969444936284" lon="9.136974993531426" id="-36182">
		<tag k="alt_name" v="Kvernsmyr" />
		<tag k="name" v="Kvernmyr" />
		<tag k="place" v="farm" />
		<tag k="ssr:stedsnr" v="243485" />
	</node>
	<node lat="58.69926402519376" lon="9.009363118654994" id="-36183">
		<tag k="name" v="Dalane" />
		<tag k="place" v="farm" />
		<tag k="ssr:stedsnr" v="243498" />
	</node>
	<node lat="58.70429444831518" lon="9.102588893692415" id="-36184">
		<tag k="name" v="Avreid" />
		<tag k="place" v="farm" />
		<tag k="ssr:stedsnr" v="243607" />
	</node>
	<node lat="58.707174995648266" lon="8.97483611668065" id="-36185">
		<tag k="name" v="Langtveit" />
		<tag k="place" v="farm" />
		<tag k="ssr:stedsnr" v="243616" />
	</node>
	<node lat="58.716108331260486" lon="8.980977777038376" id="-36187">
		<tag k="name" v="Bumyr" />
		<tag k="place" v="farm" />
		<tag k="ssr:stedsnr" v="243590" />
	</node>
	<node lat="58.72244541653321" lon="9.219215367416387" id="-36202">
		<tag k="name" v="Glupen" />
		<tag k="place" v="farm" />
		<tag k="ssr:stedsnr" v="266038" />
	</node>
	<node lat="58.68927777795007" lon="9.203316664675045" id="-36204">
		<tag k="name" v="Myrvang" />
		<tag k="place" v="farm" />
		<tag k="ssr:stedsnr" v="266086" />
	</node>
	<node lat="58.792961112056396" lon="9.080144450483186" id="-36217">
		<tag k="name" v="Flaten" />
		<tag k="place" v="farm" />
		<tag k="ssr:stedsnr" v="266191" />
	</node>
	<node lat="58.78962500104869" lon="9.167338891392571" id="-36221">
		<tag k="historic" v="shieling" />
		<tag k="name" v="Sandstøl" />
		<tag k="place" v="isolated_dwelling" />
		<tag k="ssr:stedsnr" v="266405" />
	</node>
	<node lat="58.760737698199634" lon="9.07395124953421" id="-36235">
		<tag k="name" v="Bråten" />
		<tag k="place" v="farm" />
		<tag k="ssr:stedsnr" v="266835" />
	</node>
	<node lat="58.819802779169486" lon="9.178952773831602" id="-36244">
		<tag k="name" v="Kilen" />
		<tag k="place" v="isolated_dwelling" />
		<tag k="ssr:stedsnr" v="304043" />
	</node>
	<node lat="58.758427781696234" lon="9.05818610370468" id="-36245">
		<tag k="name" v="Hellerdalen" />
		<tag k="place" v="farm" />
		<tag k="ssr:stedsnr" v="304405" />
	</node>
	<node lat="58.669277777394754" lon="9.146277779551493" id="-36246">
		<tag k="name" v="Myra" />
		<tag k="place" v="farm" />
		<tag k="ssr:stedsnr" v="304424" />
	</node>
	<node lat="58.752110974335736" lon="9.123707553501607" id="-36249">
		<tag k="name" v="Ramsåsen" />
		<tag k="place" v="isolated_dwelling" />
		<tag k="ssr:stedsnr" v="304377" />
	</node>
	<node lat="58.76770277402628" lon="9.118102778975986" id="-36251">
		<tag k="name" v="Bjelkemyr" />
		<tag k="place" v="farm" />
		<tag k="ssr:stedsnr" v="304387" />
	</node>
	<node lat="58.72842778204608" lon="9.193366671326663" id="-36252">
		<tag k="alt_name" v="Skjelsøygard" />
		<tag k="name" v="Øygarden" />
		<tag k="place" v="farm" />
		<tag k="ssr:stedsnr" v="304578" />
	</node>
	<node lat="58.71925000401996" lon="9.17000554889084" id="-36253">
		<tag k="fixme" v="consider place=hamlet" />
		<tag k="name" v="Østebø" />
		<tag k="place" v="farm" />
		<tag k="ssr:stedsnr" v="304595" />
	</node>
	<node lat="58.69986667094114" lon="9.164583340848322" id="-36254">
		<tag k="alt_name" v="Osvik;Åsvik" />
		<tag k="name" v="Åsvika" />
		<tag k="place" v="farm" />
		<tag k="ssr:stedsnr" v="304479" />
	</node>
	<node lat="58.700741671161126" lon="9.025266664515874" id="-36255">
		<tag k="fixme" v="consider place=hamlet" />
		<tag k="name" v="Røysland" />
		<tag k="place" v="farm" />
		<tag k="ssr:stedsnr" v="304482" />
	</node>
	<node lat="58.78085000262482" lon="9.190288880809717" id="-36257">
		<tag k="fixme" v="consider place=hamlet" />
		<tag k="loc_name" v="Hanemyr" />
		<tag k="name" v="Hannemyr" />
		<tag k="place" v="farm" />
		<tag k="ssr:stedsnr" v="305448" />
	</node>
	<node lat="58.662891667319286" lon="9.158450001937009" id="-36259">
		<tag k="name" v="Marikove" />
		<tag k="place" v="farm" />
		<tag k="ssr:stedsnr" v="326021" />
	</node>
	<node lat="58.67438333446986" lon="9.189591667531381" id="-36261">
		<tag k="name" v="Koveto" />
		<tag k="place" v="locality" />
		<tag k="ssr:stedsnr" v="326023" />
	</node>
	<node lat="58.68516666909847" lon="9.208566659671654" id="-36266">
		<tag k="name" v="Korsen" />
		<tag k="place" v="farm" />
		<tag k="ssr:stedsnr" v="326223" />
	</node>
	<node lat="58.74560555540039" lon="9.084219443336805" id="-36270">
		<tag k="name" v="Løkketangen" />
		<tag k="place" v="farm" />
		<tag k="ssr:stedsnr" v="326123" />
	</node>
	<node lat="58.70254444810664" lon="9.057727786280818" id="-36288">
		<tag k="name" v="Bromsmyrbråten" />
		<tag k="place" v="locality" />
		<tag k="ssr:stedsnr" v="326766" />
	</node>
	<node lat="58.71227221892256" lon="9.051919442044234" id="-36291">
		<tag k="name" v="Lille Haukedal" />
		<tag k="place" v="farm" />
		<tag k="ssr:stedsnr" v="326803" />
	</node>
	<node lat="58.769505557288134" lon="9.176583333934607" id="-36302">
		<tag k="name" v="Grasmyr" />
		<tag k="place" v="farm" />
		<tag k="ssr:stedsnr" v="364401" />
	</node>
	<node lat="58.75575833271111" lon="9.279283336937105" id="-36303">
		<tag k="name" v="Klingremyr" />
		<tag k="place" v="farm" />
		<tag k="ssr:stedsnr" v="364554" />
	</node>
	<node lat="58.755883333209646" lon="9.32908056139755" id="-36304">
		<tag k="name" v="Bommyr" />
		<tag k="place" v="farm" />
		<tag k="ssr:stedsnr" v="364556" />
	</node>
	<node lat="58.69645278162875" lon="9.02689999290855" id="-36305">
		<tag k="fixme" v="consider place=hamlet" />
		<tag k="name" v="Løvdal" />
		<tag k="place" v="farm" />
		<tag k="ssr:stedsnr" v="364488" />
	</node>
	<node lat="58.676975002479296" lon="9.207602785312895" id="-36307">
		<tag k="name" v="Krabbesund" />
		<tag k="place" v="farm" />
		<tag k="ssr:stedsnr" v="365452" />
	</node>
	<node lat="58.75402777619892" lon="9.29824722396147" id="-36309">
		<tag k="alt_name" v="Omdal" />
		<tag k="name" v="Omdalen" />
		<tag k="place" v="farm" />
		<tag k="ssr:stedsnr" v="365594" />
	</node>
	<node lat="58.72147652190245" lon="9.060717672653709" id="-36310">
		<tag k="name" v="Sauvika" />
		<tag k="place" v="farm" />
		<tag k="ssr:stedsnr" v="365598" />
	</node>
	<node lat="58.74460000062505" lon="9.078447223528668" id="-36317">
		<tag k="name" v="Plassen" />
		<tag k="place" v="farm" />
		<tag k="ssr:stedsnr" v="387154" />
	</node>
	<node lat="58.78549166460577" lon="9.096955561726908" id="-36325">
		<tag k="name" v="Vipekjær" />
		<tag k="place" v="locality" />
		<tag k="ssr:stedsnr" v="387203" />
	</node>
	<node lat="58.72439444082402" lon="9.109844452940832" id="-36351">
		<tag k="name" v="Bjerkheim" />
		<tag k="place" v="farm" />
		<tag k="ssr:stedsnr" v="485546" />
	</node>
	<node lat="58.687630555493485" lon="9.136350004070572" id="-36353">
		<tag k="fixme" v="consider place=hamlet" />
		<tag k="name" v="Hope" />
		<tag k="place" v="farm" />
		<tag k="ssr:stedsnr" v="486477" />
	</node>
	<node lat="58.69169166223048" lon="9.179150007314965" id="-36354">
		<tag k="alt_name" v="Gloppekjær" />
		<tag k="name" v="Gloppekjerr" />
		<tag k="place" v="isolated_dwelling" />
		<tag k="ssr:stedsnr" v="486480" />
	</node>
	<node lat="58.6852694458831" lon="9.166805551419541" id="-36355">
		<tag k="alt_name" v="Forsete" />
		<tag k="name" v="Forset" />
		<tag k="place" v="farm" />
		<tag k="ssr:stedsnr" v="486481" />
	</node>
	<node lat="58.74797499692839" lon="9.067277779318925" id="-36358">
		<tag k="alt_name" v="Kvernvik" />
		<tag k="name" v="Kvernvika" />
		<tag k="place" v="farm" />
		<tag k="ssr:stedsnr" v="486551" />
	</node>
	<node lat="58.72851388998776" lon="9.178116673570715" id="-36360">
		<tag k="name" v="Øymyr" />
		<tag k="place" v="farm" />
		<tag k="ssr:stedsnr" v="486580" />
	</node>
	<node lat="58.72840555512609" lon="9.197922214369534" id="-36361">
		<tag k="fixme" v="consider place=hamlet" />
		<tag k="name" v="Tjenndalen" />
		<tag k="place" v="farm" />
		<tag k="ssr:stedsnr" v="486584" />
	</node>
	<node lat="58.77566666736838" lon="9.131600006889238" id="-36362">
		<tag k="name" v="Glupe" />
		<tag k="place" v="locality" />
		<tag k="ssr:stedsnr" v="487455" />
	</node>
	<node lat="58.75769187627449" lon="9.197659100155974" id="-36365">
		<tag k="name" v="Porsmyr" />
		<tag k="place" v="farm" />
		<tag k="ssr:stedsnr" v="425354" />
	</node>
	<node lat="58.76786111371132" lon="9.297188880704821" id="-36367">
		<tag k="name" v="Haukedalen" />
		<tag k="place" v="farm" />
		<tag k="ssr:stedsnr" v="425518" />
	</node>
	<node lat="58.722827778848206" lon="9.082749996085733" id="-36368">
		<tag k="name" v="Moensdalen" />
		<tag k="place" v="farm" />
		<tag k="ssr:stedsnr" v="425565" />
	</node>
	<node lat="58.70726944298103" lon="9.088477777012539" id="-36372">
		<tag k="name" v="Graskjerr" />
		<tag k="place" v="farm" />
		<tag k="ssr:stedsnr" v="426609" />
	</node>
	<node lat="58.748449998841224" lon="9.180880558225459" id="-36374">
		<tag k="name" v="Hommen" />
		<tag k="place" v="farm" />
		<tag k="ssr:stedsnr" v="426530" />
	</node>
	<node lat="58.72318888501061" lon="9.073352781001486" id="-36375">
		<tag k="fixme" v="consider place=hamlet" />
		<tag k="name" v="Moen" />
		<tag k="place" v="farm" />
		<tag k="ssr:stedsnr" v="426579" />
	</node>
	<node lat="58.713416875654204" lon="9.183520558378142" id="-36376">
		<tag k="alt_name" v="Nordahl" />
		<tag k="name" v="Norddal" />
		<tag k="place" v="farm" />
		<tag k="ssr:stedsnr" v="426593" />
	</node>
	<node lat="58.739755557586825" lon="9.155124998959307" id="-36383">
		<tag k="name" v="Ravnen" />
		<tag k="place" v="isolated_dwelling" />
		<tag k="ssr:stedsnr" v="448184" />
	</node>
	<node lat="58.66261666991088" lon="9.1480249952449" id="-36390">
		<tag k="name" v="Stormyr" />
		<tag k="place" v="farm" />
		<tag k="ssr:stedsnr" v="448329" />
	</node>
	<node lat="58.789674998216405" lon="9.273833337271418" id="-36397">
		<tag k="name" v="Kjærstisplass" />
		<tag k="place" v="locality" />
		<tag k="ssr:stedsnr" v="448370" />
	</node>
	<node lat="58.69489999730832" lon="9.01706943719383" id="-36408">
		<tag k="name" v="Bråtane" />
		<tag k="place" v="farm" />
		<tag k="ssr:stedsnr" v="448991" />
	</node>
	<node lat="58.7505555546121" lon="9.128086116626722" id="-36413">
		<tag k="name" v="Stamsøy" />
		<tag k="place" v="farm" />
		<tag k="ssr:stedsnr" v="463662" />
	</node>
	<node lat="58.743388892661486" lon="9.243372224979932" id="-36415">
		<tag k="name" v="Grøffstø" />
		<tag k="place" v="isolated_dwelling" />
		<tag k="ssr:stedsnr" v="486213" />
	</node>
	<node lat="58.76635277474035" lon="9.18835833670239" id="-36417">
		<tag k="alt_name" v="Kringlemyr" />
		<tag k="name" v="Klingremyr" />
		<tag k="place" v="farm" />
		<tag k="ssr:stedsnr" v="486408" />
	</node>
	<node lat="58.716252779282286" lon="9.113425004319309" id="-36420">
		<tag k="fixme" v="consider place=hamlet" />
		<tag k="name" v="Bossvik" />
		<tag k="place" v="farm" />
		<tag k="ssr:stedsnr" v="486622" />
	</node>
	<node lat="58.70614999793182" lon="9.010805551294206" id="-36422">
		<tag k="alt_name" v="Lindland, nedre" />
		<tag k="name" v="Nedre Lindland" />
		<tag k="place" v="farm" />
		<tag k="ssr:stedsnr" v="486633" />
	</node>
	<node lat="58.751008331487725" lon="9.055958334334886" id="-36431">
		<tag k="name" v="Håvardsvoll" />
		<tag k="place" v="farm" />
		<tag k="ssr:stedsnr" v="508120" />
	</node>
	<node lat="58.70992499939718" lon="9.226588885184277" id="-36449">
		<tag k="name" v="Lille Randvik" />
		<tag k="place" v="farm" />
		<tag k="ssr:stedsnr" v="509028" />
	</node>
	<node lat="58.69956273848645" lon="9.041341550193565" id="-36458">
		<tag k="name" v="Løvdalsstøa" />
		<tag k="place" v="farm" />
		<tag k="ssr:stedsnr" v="509978" />
	</node>
	<node lat="58.710658334180074" lon="9.011533331463509" id="-36465">
		<tag k="alt_name" v="Lindland, øvre" />
		<tag k="name" v="Øvre Lindland" />
		<tag k="place" v="farm" />
		<tag k="ssr:stedsnr" v="546580" />
	</node>
	<node lat="58.7074611128222" lon="9.044033339602441" id="-36466">
		<tag k="fixme" v="consider place=hamlet" />
		<tag k="name" v="Haukedal" />
		<tag k="place" v="farm" />
		<tag k="ssr:stedsnr" v="546586" />
	</node>
	<node lat="58.69521388750829" lon="9.200500001958336" id="-36468">
		<tag k="alt_name" v="Sildvika" />
		<tag k="name" v="Sildvik" />
		<tag k="place" v="farm" />
		<tag k="ssr:stedsnr" v="547519" />
	</node>
	<node lat="58.742905557826084" lon="9.033227781144594" id="-36470">
		<tag k="fixme" v="consider place=hamlet" />
		<tag k="name" v="Moland" />
		<tag k="place" v="farm" />
		<tag k="ssr:stedsnr" v="547578" />
	</node>
	<node lat="58.73113055789683" lon="9.057741666983583" id="-36471">
		<tag k="alt_name" v="Østre Rød" />
		<tag k="name" v="Rød" />
		<tag k="place" v="farm" />
		<tag k="ssr:stedsnr" v="547584" />
	</node>
	<node lat="58.736027776088" lon="9.026380555526627" id="-36472">
		<tag k="name" v="Rønningen" />
		<tag k="place" v="farm" />
		<tag k="ssr:stedsnr" v="547591" />
	</node>
	<node lat="58.792408335417655" lon="9.112541660275495" id="-36473">
		<tag k="name" v="Bukta" />
		<tag k="place" v="farm" />
		<tag k="ssr:stedsnr" v="547479" />
	</node>
	<node lat="58.68701389222561" lon="9.207266661269195" id="-36497">
		<tag k="name" v="Vang" />
		<tag k="place" v="farm" />
		<tag k="ssr:stedsnr" v="690258" />
	</node>
	<node lat="58.68595833448437" lon="9.216016674955952" id="-36500">
		<tag k="name" v="Kroksmyr" />
		<tag k="place" v="farm" />
		<tag k="ssr:stedsnr" v="690350" />
	</node>
	<node lat="58.762411114687154" lon="9.340874996610781" id="-36503">
		<tag k="fixme" v="consider place=hamlet" />
		<tag k="name" v="Nordre Gjernes" />
		<tag k="place" v="farm" />
		<tag k="ssr:stedsnr" v="690363" />
	</node>
	<node lat="58.76197221817402" lon="9.320852782851444" id="-36507">
		<tag k="name" v="Bredal" />
		<tag k="place" v="farm" />
		<tag k="ssr:stedsnr" v="690518" />
	</node>
	<node lat="58.77268888590715" lon="9.126258335842257" id="-36515">
		<tag k="name" v="Nedstemyr" />
		<tag k="place" v="locality" />
		<tag k="ssr:stedsnr" v="690844" />
	</node>
	<node lat="58.693630559075565" lon="9.194344450595912" id="-36525">
		<tag k="name" v="Øverland" />
		<tag k="place" v="farm" />
		<tag k="ssr:stedsnr" v="691092" />
	</node>
	<node lat="58.669186113929236" lon="9.1945611162067" id="-36527">
		<tag k="name" v="Munkvika" />
		<tag k="place" v="farm" />
		<tag k="ssr:stedsnr" v="565999" />
	</node>
	<node lat="58.752077775616655" lon="9.09468334044876" id="-36531">
		<tag k="name" v="Enghasdalen" />
		<tag k="place" v="farm" />
		<tag k="ssr:stedsnr" v="569162" />
	</node>
	<node lat="58.76013055743109" lon="9.335299999493502" id="-36534">
		<tag k="name" v="Orekjær" />
		<tag k="place" v="isolated_dwelling" />
		<tag k="ssr:stedsnr" v="569314" />
	</node>
	<node lat="58.7396333368373" lon="9.045544444448305" id="-36550">
		<tag k="name" v="Ekorndalen" />
		<tag k="place" v="farm" />
		<tag k="ssr:stedsnr" v="569960" />
	</node>
	<node lat="58.68711944578162" lon="9.199416666668318" id="-36561">
		<tag k="name" v="Solli" />
		<tag k="place" v="farm" />
		<tag k="ssr:stedsnr" v="607457" />
	</node>
	<node lat="58.68730278073069" lon="9.12291111172833" id="-36562">
		<tag k="name" v="Hope" />
		<tag k="place" v="farm" />
		<tag k="ssr:stedsnr" v="607463" />
	</node>
	<node lat="58.78306944120222" lon="9.120986116868094" id="-36563">
		<tag k="alt_name" v="Urdfjell" />
		<tag k="name" v="Urfjell" />
		<tag k="place" v="farm" />
		<tag k="ssr:stedsnr" v="608494" />
	</node>
	<node lat="58.76651388927054" lon="9.223447223536581" id="-36570">
		<tag k="name" v="Fiskebekk" />
		<tag k="place" v="farm" />
		<tag k="ssr:stedsnr" v="629100" />
	</node>
	<node lat="58.75327500274041" lon="9.160736114857594" id="-36571">
		<tag k="name" v="Fena" />
		<tag k="place" v="farm" />
		<tag k="ssr:stedsnr" v="629104" />
	</node>
	<node lat="58.658261110738934" lon="9.130263884458103" id="-36575">
		<tag k="name" v="Bergebu" />
		<tag k="place" v="farm" />
		<tag k="ssr:stedsnr" v="629304" />
	</node>
	<node lat="58.73984166637421" lon="9.163930549430523" id="-36578">
		<tag k="name" v="Juten" />
		<tag k="place" v="isolated_dwelling" />
		<tag k="ssr:stedsnr" v="629402" />
	</node>
	<node lat="58.708455559080726" lon="9.006386119041355" id="-36604">
		<tag k="fixme" v="consider place=hamlet" />
		<tag k="name" v="Lindland" />
		<tag k="place" v="farm" />
		<tag k="ssr:stedsnr" v="663117" />
	</node>
	<node lat="58.76939721980049" lon="9.092544442141461" id="-36608">
		<tag k="name" v="Østebø" />
		<tag k="place" v="farm" />
		<tag k="ssr:stedsnr" v="668414" />
	</node>
	<node lat="58.75333333580376" lon="9.08404444758216" id="-36612">
		<tag k="alt_name" v="Hasåsmyr" />
		<tag k="name" v="Hasåsmyra" />
		<tag k="place" v="farm" />
		<tag k="ssr:stedsnr" v="668400" />
	</node>
	<node lat="58.70003888873492" lon="9.152697216685274" id="-36613">
		<tag k="fixme" v="consider place=hamlet" />
		<tag k="name" v="Åmland" />
		<tag k="place" v="farm" />
		<tag k="ssr:stedsnr" v="668504" />
	</node>
	<node lat="58.77516111105527" lon="9.236705555914078" id="-36614">
		<tag k="fixme" v="consider place=hamlet" />
		<tag k="name" v="Røysland" />
		<tag k="place" v="farm" />
		<tag k="ssr:stedsnr" v="668543" />
	</node>
	<node lat="58.73818055529112" lon="9.102594452798105" id="-36629">
		<tag k="name" v="Baltservika" />
		<tag k="place" v="farm" />
		<tag k="ssr:stedsnr" v="690199" />
	</node>
	<node lat="58.744430555962516" lon="9.193605561076884" id="-36636">
		<tag k="name" v="Øvre Sildnes" />
		<tag k="place" v="farm" />
		<tag k="ssr:stedsnr" v="690428" />
	</node>
	<node lat="58.71729166275705" lon="9.240011103770124" id="-36652">
		<tag k="fixme" v="consider place=suburb, village or hamlet" />
		<tag k="name" v="Kastellet" />
		<tag k="place" v="quarter" />
		<tag k="ssr:stedsnr" v="691114" />
	</node>
	<node lat="58.75566667074359" lon="9.2064111194716" id="-36653">
		<tag k="name" v="Kjerrene" />
		<tag k="place" v="farm" />
		<tag k="ssr:stedsnr" v="691154" />
	</node>
	<node lat="58.76088055607638" lon="9.0749361145329" id="-36656">
		<tag k="name" v="Søndeled" />
		<tag k="place" v="village" />
		<tag k="ssr:stedsnr" v="692004" />
	</node>
	<node lat="58.65964166975045" lon="9.137705558800976" id="-36664">
		<tag k="fixme" v="consider place=hamlet" />
		<tag k="name" v="Gloppe" />
		<tag k="place" v="farm" />
		<tag k="ssr:stedsnr" v="729417" />
	</node>
	<node lat="58.69915185698714" lon="9.120228388109467" id="-36665">
		<tag k="fixme" v="consider place=hamlet" />
		<tag k="name" v="Fjebu" />
		<tag k="place" v="farm" />
		<tag k="ssr:stedsnr" v="729479" />
	</node>
	<node lat="58.74231666670334" lon="9.045944438098216" id="-36666">
		<tag k="name" v="Spiremyr" />
		<tag k="place" v="farm" />
		<tag k="ssr:stedsnr" v="729525" />
	</node>
	<node lat="58.745568621232586" lon="9.216950365432972" id="-36667">
		<tag k="fixme" v="consider place=hamlet" />
		<tag k="name" v="Trulsvik" />
		<tag k="place" v="farm" />
		<tag k="ssr:stedsnr" v="729538" />
	</node>
	<node lat="58.77083889330901" lon="9.290280562633928" id="-36668">
		<tag k="name" v="Granstøl" />
		<tag k="place" v="farm" />
		<tag k="ssr:stedsnr" v="729539" />
	</node>
	<node lat="58.7590611120803" lon="9.25854999313874" id="-36669">
		<tag k="name" v="Rønningen" />
		<tag k="place" v="farm" />
		<tag k="ssr:stedsnr" v="729545" />
	</node>
	<node lat="58.72533055617849" lon="9.187149995859176" id="-36673">
		<tag k="fixme" v="consider place=hamlet" />
		<tag k="name" v="Skjelsøy" />
		<tag k="place" v="farm" />
		<tag k="ssr:stedsnr" v="729591" />
	</node>
	<node lat="58.669405556136795" lon="9.1507361114735" id="-36676">
		<tag k="name" v="Sundsdalsmyra" />
		<tag k="place" v="farm" />
		<tag k="ssr:stedsnr" v="903471" />
	</node>
	<node lat="58.67823610991383" lon="9.174249999073371" id="-36679">
		<tag k="historic" v="shieling" />
		<tag k="name" v="Granstøl" />
		<tag k="place" v="isolated_dwelling" />
		<tag k="ssr:stedsnr" v="751029" />
	</node>
	<node lat="58.72065555238195" lon="9.206052779476014" id="-36680">
		<tag k="name" v="Vestlandstykket" />
		<tag k="place" v="quarter" />
		<tag k="ssr:stedsnr" v="751065" />
	</node>
	<node lat="58.78311944483389" lon="9.088061109658497" id="-36686">
		<tag k="name" v="Breiva" />
		<tag k="place" v="farm" />
		<tag k="ssr:stedsnr" v="751206" />
	</node>
	<node lat="58.74747222110052" lon="9.292530555855338" id="-36692">
		<tag k="name" v="Dammyr" />
		<tag k="place" v="farm" />
		<tag k="ssr:stedsnr" v="751511" />
	</node>
	<node lat="58.72699166894596" lon="9.05664999255195" id="-36711">
		<tag k="alt_name" v="Vestre Rød" />
		<tag k="name" v="Rød" />
		<tag k="place" v="farm" />
		<tag k="ssr:stedsnr" v="911138" />
	</node>
	<node lat="58.76395555347853" lon="9.161530557533146" id="-36714">
		<tag k="alt_name" v="Lindbekk, øvre" />
		<tag k="name" v="Øvre Lindbekk" />
		<tag k="place" v="farm" />
		<tag k="ssr:stedsnr" v="911411" />
	</node>
	<node lat="58.753419445611414" lon="9.177761113173567" id="-36715">
		<tag k="fixme" v="consider place=hamlet" />
		<tag k="name" v="Sivik" />
		<tag k="place" v="farm" />
		<tag k="ssr:stedsnr" v="911385" />
	</node>
	<node lat="58.82100018514745" lon="9.185589722210812" id="-36716">
		<tag k="name" v="Lindfjell" />
		<tag k="place" v="locality" />
		<tag k="ssr:stedsnr" v="789029" />
	</node>
	<node lat="58.68490555340539" lon="9.101238881359228" id="-36718">
		<tag k="name" v="Bråten" />
		<tag k="place" v="farm" />
		<tag k="ssr:stedsnr" v="911475" />
	</node>
	<node lat="58.747977775846174" lon="9.036327783333704" id="-36721">
		<tag k="name" v="Moland" />
		<tag k="place" v="farm" />
		<tag k="ssr:stedsnr" v="789513" />
	</node>
	<node lat="58.74902754312754" lon="9.117633385248533" id="-36722">
		<tag k="name" v="Grandalen" />
		<tag k="place" v="farm" />
		<tag k="ssr:stedsnr" v="911553" />
	</node>
	<node lat="58.722761107498144" lon="9.09764444839955" id="-36724">
		<tag k="alt_name" v="Hjembu, nedre" />
		<tag k="name" v="Nedre Hjembu" />
		<tag k="place" v="farm" />
		<tag k="ssr:stedsnr" v="911595" />
	</node>
	<node lat="58.694716664540714" lon="9.024816668648004" id="-36725">
		<tag k="name" v="Løvdal vest" />
		<tag k="place" v="farm" />
		<tag k="ssr:stedsnr" v="790119" />
	</node>
	<node lat="58.668341670436774" lon="9.14118889562546" id="-36726">
		<tag k="fixme" v="consider place=hamlet" />
		<tag k="name" v="Nipe" />
		<tag k="place" v="farm" />
		<tag k="ssr:stedsnr" v="911439" />
	</node>
	<node lat="58.72234722038626" lon="9.116841669551356" id="-36734">
		<tag k="fixme" v="consider place=hamlet" />
		<tag k="name" v="Nautenes" />
		<tag k="place" v="farm" />
		<tag k="ssr:stedsnr" v="911601" />
	</node>
	<node lat="58.71846944499751" lon="9.104624993212735" id="-36735">
		<tag k="name" v="Bossvika" />
		<tag k="place" v="hamlet" />
		<tag k="ssr:stedsnr" v="911602" />
	</node>
	<node lat="58.71046944291938" lon="9.185463893840042" id="-36736">
		<tag k="name" v="Frivoll" />
		<tag k="place" v="farm" />
		<tag k="ssr:stedsnr" v="911622" />
	</node>
	<node lat="58.79005555246308" lon="9.089452769313638" id="-36741">
		<tag k="building" v="industrial" />
		<tag k="industrial" v="factory" />
		<tag k="name" v="Stifoss" />
		<tag k="ssr:stedsnr" v="912474" />
	</node>
	<node lat="58.78249999614066" lon="9.081494439544326" id="-36742">
		<tag k="alt_name" v="Opstad" />
		<tag k="name" v="Oppstad" />
		<tag k="place" v="farm" />
		<tag k="ssr:stedsnr" v="912475" />
	</node>
	<node lat="58.760569087000235" lon="9.079670535090873" id="-36744">
		<tag k="fixme" v="consider place=hamlet" />
		<tag k="name" v="Store Søndeled" />
		<tag k="place" v="farm" />
		<tag k="ssr:stedsnr" v="971282" />
	</node>
	<node lat="58.761361390001035" lon="9.078350102576904" id="-36745">
		<tag k="name" v="Søndeled" />
		<tag k="place" v="hamlet" />
		<tag k="ssr:stedsnr" v="971283" />
	</node>
	<node lat="58.731713817311984" lon="9.05680098661579" id="-36746">
		<tag k="fixme" v="consider place=hamlet" />
		<tag k="name" v="Østre Rød" />
		<tag k="place" v="farm" />
		<tag k="ssr:stedsnr" v="971284" />
	</node>
	<node lat="58.726817420687595" lon="9.056584811925498" id="-36747">
		<tag k="fixme" v="consider place=hamlet" />
		<tag k="name" v="Vestre Rød" />
		<tag k="place" v="farm" />
		<tag k="ssr:stedsnr" v="971285" />
	</node>
	<node lat="58.72860687667649" lon="9.058289212791417" id="-36748">
		<tag k="name" v="Rød" />
		<tag k="place" v="hamlet" />
		<tag k="ssr:stedsnr" v="971286" />
	</node>
	<node lat="58.76016944870823" lon="9.26648055319723" id="-36752">
		<tag k="name" v="Damskog" />
		<tag k="place" v="farm" />
		<tag k="ssr:stedsnr" v="812090" />
	</node>
	<node lat="58.7804833315407" lon="9.209541667010278" id="-36768">
		<tag k="name" v="Sørheim" />
		<tag k="place" v="farm" />
		<tag k="ssr:stedsnr" v="812435" />
	</node>
	<node lat="58.780794447246144" lon="9.20777777599755" id="-36769">
		<tag k="name" v="Skarbu" />
		<tag k="place" v="isolated_dwelling" />
		<tag k="ssr:stedsnr" v="812438" />
	</node>
	<node lat="58.77566133395848" lon="9.013206509128365" id="-36780">
		<tag k="fixme" v="consider place=hamlet" />
		<tag k="name" v="Bratland" />
		<tag k="place" v="farm" />
		<tag k="ssr:stedsnr" v="971287" />
	</node>
	<node lat="58.75240832907469" lon="9.079541659677625" id="-36782">
		<tag k="name" v="Plassen" />
		<tag k="place" v="farm" />
		<tag k="ssr:stedsnr" v="850383" />
	</node>
	<node lat="58.68695555356593" lon="9.1274305566344" id="-36784">
		<tag k="name" v="Dalen" />
		<tag k="place" v="farm" />
		<tag k="ssr:stedsnr" v="850478" />
	</node>
	<node lat="58.71516388700381" lon="9.049113889025472" id="-36787">
		<tag k="alt_name" v="Storemyr" />
		<tag k="name" v="Stormyr" />
		<tag k="place" v="farm" />
		<tag k="ssr:stedsnr" v="850595" />
	</node>
	<node lat="58.703138887593376" lon="9.173205555311023" id="-36789">
		<tag k="name" v="Øygarden" />
		<tag k="place" v="farm" />
		<tag k="ssr:stedsnr" v="850605" />
	</node>
	<node lat="58.70113889161693" lon="9.010113897273209" id="-36790">
		<tag k="name" v="Linddal" />
		<tag k="place" v="farm" />
		<tag k="ssr:stedsnr" v="850610" />
	</node>
	<node lat="58.73244721807279" lon="9.016888883097266" id="-36791">
		<tag k="name" v="Fjerbumyra" />
		<tag k="place" v="farm" />
		<tag k="ssr:stedsnr" v="851529" />
	</node>
	<node lat="58.66685555900627" lon="9.1816861070478" id="-36796">
		<tag k="name" v="Svae" />
		<tag k="place" v="farm" />
		<tag k="ssr:stedsnr" v="872017" />
	</node>
	<node lat="58.75835555897194" lon="9.33971388059333" id="-36802">
		<tag k="name" v="Persmyr" />
		<tag k="place" v="farm" />
		<tag k="ssr:stedsnr" v="872341" />
	</node>
	<node lat="58.789838892060466" lon="9.132888885909466" id="-36805">
		<tag k="name" v="Solheim" />
		<tag k="place" v="farm" />
		<tag k="ssr:stedsnr" v="933235" />
	</node>
	<node lat="58.77400555735454" lon="9.183175005881244" id="-36814">
		<tag k="name" v="Rønningen" />
		<tag k="place" v="farm" />
		<tag k="ssr:stedsnr" v="933069" />
	</node>
	<node lat="58.74318333664715" lon="9.074136119410998" id="-36818">
		<tag k="name" v="Åsheim" />
		<tag k="place" v="locality" />
		<tag k="ssr:stedsnr" v="933170" />
	</node>
	<node lat="58.74549999655942" lon="9.209847227078194" id="-36832">
		<tag k="name" v="Trulsviknes" />
		<tag k="place" v="farm" />
		<tag k="ssr:stedsnr" v="933407" />
	</node>
	<node lat="58.75416666730393" lon="9.067052777086353" id="-36848">
		<tag k="name" v="Strandjordet" />
		<tag k="place" v="farm" />
		<tag k="ssr:stedsnr" v="933855" />
	</node>
	<node lat="58.75550555151254" lon="9.216869439331576" id="-36862">
		<tag k="name" v="Bråten" />
		<tag k="place" v="farm" />
		<tag k="ssr:stedsnr" v="911363" />
	</node>
	<node lat="58.75085833540329" lon="9.208325003845102" id="-36863">
		<tag k="name" v="Solberg" />
		<tag k="place" v="farm" />
		<tag k="ssr:stedsnr" v="911377" />
	</node>
	<node lat="58.68436666638533" lon="9.21069722683292" id="-36864">
		<tag k="fixme" v="consider place=hamlet" />
		<tag k="name" v="Fie" />
		<tag k="place" v="farm" />
		<tag k="ssr:stedsnr" v="911460" />
	</node>
</osm>
