<?xml version="1.0" encoding="UTF-8"?>
<osm generator="osmapis" version="0.6">
	<node id="-769019" lat="69.0737851281" lon="20.5018857925">
		<tag k="fixme" v="consider tourism=alpine_hut or tourism=chalet" />
		<tag k="name" v="Goldahytta" />
		<tag k="ssr:stedsnr" v="19526" />
		<tag k="tourism" v="wilderness_hut" />
	</node>
	<node id="-769009" lat="69.2576999985" lon="19.8774999795">
		<tag k="name" v="Sommerlund" />
		<tag k="place" v="farm" />
		<tag k="ssr:stedsnr" v="18553" />
	</node>
	<node id="-769127" lat="69.2518444466" lon="19.8747499783">
		<tag k="name" v="Øverli" />
		<tag k="place" v="farm" />
		<tag k="ssr:stedsnr" v="79556" />
	</node>
	<node id="-769004" lat="69.3212027778" lon="20.0159999799">
		<tag k="name" v="Slettnes" />
		<tag k="place" v="farm" />
		<tag k="ssr:stedsnr" v="18388" />
	</node>
	<node id="-769003" lat="69.322902781" lon="20.0153388877">
		<tag k="name" v="Lundheim" />
		<tag k="place" v="farm" />
		<tag k="ssr:stedsnr" v="18387" />
	</node>
	<node id="-769002" lat="69.3213500045" lon="19.957722201">
		<tag k="name" v="Sandøra" />
		<tag k="place" v="hamlet" />
		<tag k="ssr:stedsnr" v="18384" />
	</node>
	<node id="-769000" lat="69.2605750037" lon="19.8798472049">
		<tag k="name" v="Sætersletta" />
		<tag k="place" v="farm" />
		<tag k="ssr:stedsnr" v="18358" />
	</node>
	<node id="-768999" lat="69.2489055533" lon="19.8576777653">
		<tag k="name" v="Furumo" />
		<tag k="place" v="farm" />
		<tag k="ssr:stedsnr" v="18336" />
	</node>
	<node id="-768998" lat="69.2366500013" lon="20.0739721983">
		<tag k="name" v="Lauvset" />
		<tag k="place" v="farm" />
		<tag k="ssr:stedsnr" v="18328" />
	</node>
	<node id="-770020" lat="69.2566444415" lon="19.874058323">
		<tag k="name" v="Seljeli" />
		<tag k="place" v="farm" />
		<tag k="ssr:stedsnr" v="686598" />
	</node>
	<node id="-769446" lat="69.2366888868" lon="20.0777138847">
		<tag k="loc_name:se" v="Ruodnesluohkká" />
		<tag k="name" v="Grønli" />
		<tag k="name:no" v="Grønli" />
		<tag k="place" v="farm" />
		<tag k="ssr:stedsnr" v="261377" />
	</node>
	<node id="-769505" lat="69.2548277798" lon="19.8754055319">
		<tag k="name" v="Oterodden" />
		<tag k="place" v="farm" />
		<tag k="ssr:stedsnr" v="418384" />
	</node>
	<node id="-769500" lat="69.1878361104" lon="19.9898666521">
		<tag k="name" v="Solstad" />
		<tag k="place" v="farm" />
		<tag k="ssr:stedsnr" v="418350" />
	</node>
	<node id="-768984" lat="69.4418925803" lon="20.3028317093">
		<tag k="loc_name" v="Larsberget" />
		<tag k="name" v="Larsberg" />
		<tag k="place" v="farm" />
		<tag k="ssr:stedsnr" v="990664" />
	</node>
	<node id="-770005" lat="69.3679722257" lon="20.0230499995">
		<tag k="name" v="Teigen" />
		<tag k="place" v="farm" />
		<tag k="ssr:stedsnr" v="686459" />
	</node>
	<node id="-769358" lat="69.2526249967" lon="20.0077749815">
		<tag k="loc_name:se" v="Njáimmet" />
		<tag k="name" v="Naimakka" />
		<tag k="name:fkv" v="Naimakka" />
		<tag k="place" v="farm" />
		<tag k="ssr:stedsnr" v="201534" />
	</node>
	<node id="-768978" lat="69.3912263177" lon="20.1196620509">
		<tag k="name" v="Elvegård" />
		<tag k="place" v="farm" />
		<tag k="ssr:stedsnr" v="868475" />
	</node>
	<node id="-769999" lat="69.2443138845" lon="20.0630777706">
		<tag k="name" v="Kitdalen" />
		<tag k="place" v="farm" />
		<tag k="ssr:stedsnr" v="686381" />
	</node>
	<node id="-769998" lat="69.3046777736" lon="19.9313388792">
		<tag k="name" v="Bukta - Luokta" />
		<tag k="name:no" v="Bukta" />
		<tag k="name:se" v="Luokta" />
		<tag k="place" v="farm" />
		<tag k="ssr:stedsnr" v="686380" />
	</node>
	<node id="-769997" lat="69.2431638873" lon="19.9328027653">
		<tag k="name" v="Fjellset" />
		<tag k="place" v="farm" />
		<tag k="ssr:stedsnr" v="686376" />
	</node>
	<node id="-769996" lat="69.2299277778" lon="19.8241499877">
		<tag k="name" v="Elvebakken" />
		<tag k="place" v="farm" />
		<tag k="ssr:stedsnr" v="686365" />
	</node>
	<node id="-769995" lat="69.233719441" lon="19.8224333113">
		<tag k="loc_name:se" v="Riehppi" />
		<tag k="name" v="Skogli" />
		<tag k="name:no" v="Skogli" />
		<tag k="place" v="farm" />
		<tag k="ssr:stedsnr" v="686359" />
	</node>
	<node id="-770506" lat="69.287047367" lon="20.7157430012">
		<tag k="name" v="Rovvehytta" />
		<tag k="name:se" v="Rovvehytta" />
		<tag k="place" v="locality" />
		<tag k="ssr:stedsnr" v="974627" />
	</node>
	<node id="-769993" lat="69.2411666634" lon="20.0465527547">
		<tag k="name" v="Sørli" />
		<tag k="place" v="farm" />
		<tag k="ssr:stedsnr" v="686351" />
	</node>
	<node id="-769989" lat="69.1892777783" lon="19.9683610864">
		<tag k="alt_name" v="Skogly" />
		<tag k="name" v="Skogli" />
		<tag k="place" v="farm" />
		<tag k="ssr:stedsnr" v="686318" />
	</node>
	<node id="-769475" lat="69.3396694417" lon="19.925147197">
		<tag k="name" v="Finnstua" />
		<tag k="place" v="isolated_dwelling" />
		<tag k="ssr:stedsnr" v="479521" />
	</node>
	<node id="-769474" lat="69.2118083309" lon="19.978933307">
		<tag k="name" v="Broderstad" />
		<tag k="place" v="farm" />
		<tag k="ssr:stedsnr" v="479480" />
	</node>
	<node id="-769471" lat="69.3075388893" lon="20.4275416385">
		<tag k="name" v="Lullevárri" />
		<tag k="name:se" v="Lullevárri" />
		<tag k="place" v="isolated_dwelling" />
		<tag k="ssr:stedsnr" v="261562" />
	</node>
	<node id="-769982" lat="69.1170305552" lon="20.105788864">
		<tag k="name" v="Paras" />
		<tag k="place" v="farm" />
		<tag k="ssr:stedsnr" v="686270" />
	</node>
	<node id="-769468" lat="69.3812055523" lon="20.2685222092">
		<tag k="alt_name" v="Furuholm" />
		<tag k="name" v="Furuholmen" />
		<tag k="place" v="farm" />
		<tag k="ssr:stedsnr" v="261514" />
	</node>
	<node id="-769979" lat="69.3087111115" lon="19.940083326">
		<tag k="name" v="Nyvoll" />
		<tag k="place" v="farm" />
		<tag k="ssr:stedsnr" v="685410" />
	</node>
	<node id="-769978" lat="69.3116694415" lon="19.9447083312">
		<tag k="alt_name:no" v="Oldernes" />
		<tag k="loc_name:se" v="Ruššugieddi" />
		<tag k="name" v="Oldereng - Russugieddi" />
		<tag k="name:no" v="Oldereng" />
		<tag k="name:se" v="Russugieddi" />
		<tag k="place" v="farm" />
		<tag k="ssr:stedsnr" v="685406" />
	</node>
	<node id="-769977" lat="69.3174111154" lon="20.364058309">
		<tag k="name" v="Kavelnes" />
		<tag k="place" v="farm" />
		<tag k="ssr:stedsnr" v="685404" />
	</node>
	<node id="-769464" lat="69.3921500041" lon="20.1212249819">
		<tag k="name" v="Rasteby" />
		<tag k="place" v="farm" />
		<tag k="ssr:stedsnr" v="261488" />
	</node>
	<node id="-769463" lat="69.3963833362" lon="20.131369423">
		<tag k="name" v="Årland" />
		<tag k="place" v="farm" />
		<tag k="ssr:stedsnr" v="261482" />
	</node>
	<node id="-769462" lat="69.3455638873" lon="19.9698221997">
		<tag k="name" v="Borge" />
		<tag k="place" v="farm" />
		<tag k="ssr:stedsnr" v="261477" />
	</node>
	<node id="-769461" lat="69.3628750015" lon="20.307105542">
		<tag k="name" v="Nyheim" />
		<tag k="place" v="farm" />
		<tag k="ssr:stedsnr" v="261470" />
	</node>
	<node id="-770484" lat="69.3625666695" lon="20.012666647">
		<tag k="name" v="Strand" />
		<tag k="place" v="farm" />
		<tag k="ssr:stedsnr" v="965635" />
	</node>
	<node id="-768947" lat="69.2593250037" lon="19.8927861126">
		<tag k="name" v="Roland" />
		<tag k="place" v="farm" />
		<tag k="ssr:stedsnr" v="478397" />
	</node>
	<node id="-769458" lat="69.3651749979" lon="20.2697027595">
		<tag k="name" v="Fossmo" />
		<tag k="place" v="farm" />
		<tag k="ssr:stedsnr" v="261457" />
	</node>
	<node id="-769457" lat="69.375599996" lon="20.2303999907">
		<tag k="name" v="Skogtun" />
		<tag k="place" v="farm" />
		<tag k="ssr:stedsnr" v="261450" />
	</node>
	<node id="-769456" lat="69.310700002" lon="19.9432611008">
		<tag k="name" v="Stubbeng - Láđugieddi" />
		<tag k="name:no" v="Stubbeng" />
		<tag k="name:se" v="Láđugieddi" />
		<tag k="place" v="hamlet" />
		<tag k="ssr:stedsnr" v="261438" />
	</node>
	<node id="-770479" lat="69.3207888906" lon="19.9574499782">
		<tag k="name" v="Sandøra" />
		<tag k="place" v="farm" />
		<tag k="ssr:stedsnr" v="965603" />
	</node>
	<node id="-769453" lat="69.3154638929" lon="19.9518194439">
		<tag k="alt_name" v="Nygard" />
		<tag k="name" v="Nygård" />
		<tag k="place" v="farm" />
		<tag k="ssr:stedsnr" v="261427" />
	</node>
	<node id="-769448" lat="69.246411113" lon="20.0495583196">
		<tag k="name" v="Heggeli" />
		<tag k="place" v="farm" />
		<tag k="ssr:stedsnr" v="261387" />
	</node>
	<node id="-769447" lat="69.2472416723" lon="20.0182888654">
		<tag k="name" v="Elvemo" />
		<tag k="place" v="farm" />
		<tag k="ssr:stedsnr" v="261381" />
	</node>
	<node id="-770470" lat="69.2732888912" lon="19.9616833251">
		<tag k="amenity" v="school" />
		<tag k="name" v="Hatteng skole" />
		<tag k="ssr:stedsnr" v="964442" />
	</node>
	<node id="-769442" lat="69.1673388912" lon="20.0441860883">
		<tag k="name" v="Mannfjell" />
		<tag k="place" v="farm" />
		<tag k="ssr:stedsnr" v="261332" />
	</node>
	<node id="-768928" lat="69.2908777794" lon="20.4047333288">
		<tag k="loc_name:fkv" v="Mätämukka" />
		<tag k="name" v="Mätämutka" />
		<tag k="name:fkv" v="Mätämutka" />
		<tag k="place" v="farm" />
		<tag k="ssr:stedsnr" v="400136" />
	</node>
	<node id="-769951" lat="69.3142944458" lon="19.9485277608">
		<tag k="name" v="Myrvoll" />
		<tag k="place" v="farm" />
		<tag k="ssr:stedsnr" v="661552" />
	</node>
	<node id="-769438" lat="69.1285083345" lon="20.3781305361">
		<tag k="name" v="Stoarbmagieddi" />
		<tag k="name:se" v="Stoarbmagieddi" />
		<tag k="place" v="locality" />
		<tag k="ssr:stedsnr" v="261281" />
	</node>
	<node id="-769349" lat="69.3671555582" lon="20.3036305421">
		<tag k="name" v="Nedstevatn" />
		<tag k="place" v="farm" />
		<tag k="ssr:stedsnr" v="201435" />
	</node>
	<node id="-769943" lat="69.3429777786" lon="19.9649916656">
		<tag k="name" v="Letto" />
		<tag k="place" v="farm" />
		<tag k="ssr:stedsnr" v="661511" />
	</node>
	<node id="-768915" lat="69.1440444431" lon="20.764183299">
		<tag k="name" v="Gálggogobba" />
		<tag k="name:se" v="Gálggogobba" />
		<tag k="place" v="locality" />
		<tag k="ssr:stedsnr" v="383963" />
	</node>
	<node id="-770371" lat="69.3759166641" lon="20.2948027595">
		<tag k="name" v="Åsli" />
		<tag k="place" v="farm" />
		<tag k="ssr:stedsnr" v="904991" />
	</node>
	<node id="-769933" lat="69.2596527795" lon="19.9188333292">
		<tag k="name" v="Kirkenes" />
		<tag k="place" v="farm" />
		<tag k="ssr:stedsnr" v="660441" />
	</node>
	<node id="-769418" lat="69.3594611154" lon="20.0994194392">
		<tag k="name" v="Bentsnes" />
		<tag k="place" v="farm" />
		<tag k="ssr:stedsnr" v="237746" />
	</node>
	<node id="-769074" lat="69.3783861081" lon="20.2785166434">
		<tag k="loc_name" v="Skoggårdan" />
		<tag k="name" v="Skoggård" />
		<tag k="place" v="hamlet" />
		<tag k="ssr:stedsnr" v="55130" />
	</node>
	<node id="-768902" lat="69.2554499965" lon="19.883927761">
		<tag k="fixme" v="consider place=hamlet" />
		<tag k="name" v="Oteren - Čávkkus - Saukkonen" />
		<tag k="name:fkv" v="Saukkonen" />
		<tag k="name:no" v="Oteren" />
		<tag k="name:se" v="Čávkkus" />
		<tag k="place" v="village" />
		<tag k="ssr:stedsnr" v="382568" />
	</node>
	<node id="-768900" lat="69.2501555538" lon="19.8497249972">
		<tag k="name" v="Tverrdal" />
		<tag k="place" v="farm" />
		<tag k="ssr:stedsnr" v="382559" />
	</node>
	<node id="-770283" lat="69.3724388927" lon="20.0424611037">
		<tag k="name" v="Nyheim" />
		<tag k="place" v="farm" />
		<tag k="ssr:stedsnr" v="844716" />
	</node>
	<node id="-768896" lat="69.4036805572" lon="20.1465083204">
		<tag k="alt_name:no" v="Yttergård" />
		<tag k="loc_name:se" v="Davvesiida" />
		<tag k="name" v="Yttergården" />
		<tag k="name:no" v="Yttergården" />
		<tag k="place" v="farm" />
		<tag k="ssr:stedsnr" v="382473" />
	</node>
	<node id="-768895" lat="69.4051305524" lon="20.2659777657">
		<tag k="name" v="Kvalberg" />
		<tag k="place" v="farm" />
		<tag k="ssr:stedsnr" v="382470" />
	</node>
	<node id="-769406" lat="69.3674111129" lon="20.0206860873">
		<tag k="name" v="Haug" />
		<tag k="place" v="farm" />
		<tag k="ssr:stedsnr" v="237566" />
	</node>
	<node id="-768892" lat="69.371338888" lon="20.2605249845">
		<tag k="name" v="Skogvoll" />
		<tag k="place" v="farm" />
		<tag k="ssr:stedsnr" v="382437" />
	</node>
	<node id="-768891" lat="69.3142166656" lon="20.0021360849">
		<tag k="name" v="Solstrand - Beaivegieddi" />
		<tag k="name:no" v="Solstrand" />
		<tag k="name:se" v="Beaivegieddi" />
		<tag k="place" v="farm" />
		<tag k="ssr:stedsnr" v="382432" />
	</node>
	<node id="-769909" lat="69.3378083367" lon="20.0534138884">
		<tag k="loc_name:se" v="Juomvággi" />
		<tag k="name" v="Elsnes" />
		<tag k="name:no" v="Elsnes" />
		<tag k="place" v="hamlet" />
		<tag k="ssr:stedsnr" v="633909" />
	</node>
	<node id="-770419" lat="69.3782702767" lon="20.2277670121">
		<tag k="name" v="Nállovuohppi - Nalluvuopio" />
		<tag k="name:fkv" v="Nalluvuopio" />
		<tag k="name:se" v="Nállovuohppi" />
		<tag k="place" v="locality" />
		<tag k="ssr:stedsnr" v="929477" />
	</node>
	<node id="-770418" lat="69.3840777803" lon="20.2015999787">
		<tag k="name" v="Falsnes" />
		<tag k="place" v="farm" />
		<tag k="ssr:stedsnr" v="929476" />
	</node>
	<node id="-769392" lat="69.2102000012" lon="19.9694638646">
		<tag k="name" v="Fiskegammen" />
		<tag k="place" v="locality" />
		<tag k="ssr:stedsnr" v="236461" />
	</node>
	<node id="-769390" lat="69.2638277816" lon="19.8857972122">
		<tag k="name" v="Skogeng" />
		<tag k="place" v="farm" />
		<tag k="ssr:stedsnr" v="236389" />
	</node>
	<node id="-770413" lat="69.3386055594" lon="20.0550833317">
		<tag k="loc_name:se" v="Juomvággi" />
		<tag k="name" v="Elsnes" />
		<tag k="name:no" v="Elsnes" />
		<tag k="place" v="farm" />
		<tag k="ssr:stedsnr" v="929396" />
	</node>
	<node id="-770412" lat="69.3403305576" lon="19.9661083104">
		<tag k="alt_name:no" v="Elvevoll" />
		<tag k="loc_name:se" v="Johkamielli" />
		<tag k="name" v="Elvevollen" />
		<tag k="name:no" v="Elvevollen" />
		<tag k="place" v="farm" />
		<tag k="ssr:stedsnr" v="929393" />
	</node>
	<node id="-770410" lat="69.2935333373" lon="19.9166305356">
		<tag k="name" v="Kvalnes - Bossonjárga" />
		<tag k="name:no" v="Kvalnes" />
		<tag k="name:se" v="Bossonjárga" />
		<tag k="place" v="farm" />
		<tag k="ssr:stedsnr" v="929366" />
	</node>
	<node id="-768873" lat="69.2032944419" lon="19.9591388814">
		<tag k="alt_name" v="Sollisæter" />
		<tag k="historic" v="shieling" />
		<tag k="name" v="Sollisætra" />
		<tag k="place" v="locality" />
		<tag k="ssr:stedsnr" v="382326" />
	</node>
	<node id="-770408" lat="69.2383333351" lon="20.0600749768">
		<tag k="name" v="Olderlund" />
		<tag k="place" v="farm" />
		<tag k="ssr:stedsnr" v="929338" />
	</node>
	<node id="-769895" lat="69.2658055511" lon="19.9523444383">
		<tag k="name" v="Åsheim" />
		<tag k="place" v="farm" />
		<tag k="ssr:stedsnr" v="625573" />
	</node>
	<node id="-770406" lat="69.2342111094" lon="20.0987499955">
		<tag k="name" v="Søreng" />
		<tag k="place" v="farm" />
		<tag k="ssr:stedsnr" v="929324" />
	</node>
	<node id="-768869" lat="69.1362555531" lon="20.0709083123">
		<tag k="loc_name:se" v="Čáhcevággi" />
		<tag k="name" v="Vassdal" />
		<tag k="name:no" v="Vassdal" />
		<tag k="place" v="farm" />
		<tag k="ssr:stedsnr" v="382306" />
	</node>
	<node id="-770403" lat="69.1720416688" lon="20.0334694219">
		<tag k="name" v="Løkstad" />
		<tag k="place" v="farm" />
		<tag k="ssr:stedsnr" v="929299" />
	</node>
	<node id="-768866" lat="69.119116665" lon="20.0948666598">
		<tag k="name" v="Lundeng" />
		<tag k="place" v="farm" />
		<tag k="ssr:stedsnr" v="382274" />
	</node>
	<node id="-770107" lat="69.3744611139" lon="20.2576610888">
		<tag k="alt_name" v="Mellomjord" />
		<tag k="name" v="Mellomjorda" />
		<tag k="place" v="farm" />
		<tag k="ssr:stedsnr" v="746431" />
	</node>
	<node id="-769888" lat="69.3959611117" lon="20.2801416551">
		<tag k="name" v="Solli" />
		<tag k="place" v="farm" />
		<tag k="ssr:stedsnr" v="625467" />
	</node>
	<node id="-770399" lat="69.2883333327" lon="20.7212722051">
		<tag k="barrier" v="fence" />
		<tag k="name" v="Rovvegárdi" />
		<tag k="name:se" v="Rovvegárdi" />
		<tag k="ssr:stedsnr" v="928671" />
	</node>
	<node id="-769886" lat="69.3720499969" lon="20.3006499756">
		<tag k="name" v="Myreng" />
		<tag k="place" v="farm" />
		<tag k="ssr:stedsnr" v="625448" />
	</node>
	<node id="-769885" lat="69.3780111096" lon="20.29165555">
		<tag k="name" v="Olderelv" />
		<tag k="place" v="farm" />
		<tag k="ssr:stedsnr" v="625437" />
	</node>
	<node id="-770362" lat="69.2184222205" lon="19.9719527629">
		<tag k="name" v="Fossmo" />
		<tag k="place" v="farm" />
		<tag k="ssr:stedsnr" v="904471" />
	</node>
	<node id="-769881" lat="69.2845194467" lon="19.9578472165">
		<tag k="name" v="Kvesmenes - Vieksegieddi - Vieksikenttä" />
		<tag k="name:fkv" v="Vieksikenttä" />
		<tag k="name:no" v="Kvesmenes" />
		<tag k="name:se" v="Vieksegieddi" />
		<tag k="place" v="hamlet" />
		<tag k="ssr:stedsnr" v="625396" />
	</node>
	<node id="-769880" lat="69.293069442" lon="19.8765861012">
		<tag k="name" v="Geassegieddi" />
		<tag k="name:se" v="Geassegieddi" />
		<tag k="place" v="locality" />
		<tag k="ssr:stedsnr" v="625390" />
	</node>
	<node id="-769879" lat="69.2452500008" lon="20.05439999">
		<tag k="name" v="Slettvoll" />
		<tag k="place" v="farm" />
		<tag k="ssr:stedsnr" v="625382" />
	</node>
	<node id="-768825" lat="69.3614611081" lon="20.2718110994">
		<tag k="name" v="Ballones" />
		<tag k="place" v="farm" />
		<tag k="ssr:stedsnr" v="358004" />
	</node>
	<node id="-770387" lat="69.1236777785" lon="20.1043360977">
		<tag k="alt_name" v="Olsborgsæter" />
		<tag k="historic" v="shieling" />
		<tag k="name" v="Olsborgsætra" />
		<tag k="place" v="locality" />
		<tag k="ssr:stedsnr" v="928250" />
	</node>
	<node id="-770281" lat="69.3661055541" lon="20.0215833095">
		<tag k="name" v="Steinvik" />
		<tag k="place" v="farm" />
		<tag k="ssr:stedsnr" v="844645" />
	</node>
	<node id="-769870" lat="69.3233250021" lon="19.9606860995">
		<tag k="name" v="Solås" />
		<tag k="place" v="farm" />
		<tag k="ssr:stedsnr" v="624427" />
	</node>
	<node id="-770379" lat="69.3798138919" lon="20.2947971979">
		<tag k="name" v="Olderelv camping" />
		<tag k="ssr:stedsnr" v="910473" />
		<tag k="tourism" v="camp_site" />
	</node>
	<node id="-768841" lat="69.3151027789" lon="20.0031360868">
		<tag k="name" v="Berg" />
		<tag k="place" v="farm" />
		<tag k="ssr:stedsnr" v="358617" />
	</node>
	<node id="-769352" lat="69.3476527787" lon="19.9735610953">
		<tag k="name" v="Storeng - Muorjenjárga" />
		<tag k="name:no" v="Storeng" />
		<tag k="name:se" v="Muorjenjárga" />
		<tag k="place" v="farm" />
		<tag k="ssr:stedsnr" v="201445" />
	</node>
	<node id="-769861" lat="69.1848249959" lon="19.9917722125">
		<tag k="fixme" v="consider place=hamlet" />
		<tag k="name" v="Signaldalen - Čiekŋalvuovdi - Singalanouta" />
		<tag k="name:fkv" v="Singalanouta" />
		<tag k="name:no" v="Signaldalen" />
		<tag k="name:se" v="Čiekŋalvuovdi" />
		<tag k="place" v="village" />
		<tag k="ssr:stedsnr" v="601353" />
	</node>
	<node id="-770372" lat="69.2563611113" lon="19.9946499819">
		<tag k="fixme" v="consider place=hamlet" />
		<tag k="name" v="Kitdalen - Čoaigedanvuovdi - Soiketanouta" />
		<tag k="name:fkv" v="Soiketanouta" />
		<tag k="name:no" v="Kitdalen" />
		<tag k="name:se" v="Čoaigedanvuovdi" />
		<tag k="place" v="village" />
		<tag k="ssr:stedsnr" v="905362" />
	</node>
	<node id="-769347" lat="69.3609611095" lon="20.1048305328">
		<tag k="alt_name:no" v="Bentsjord" />
		<tag k="fixme" v="consider place=hamlet" />
		<tag k="name" v="Bentsjorda - Suollatvággi" />
		<tag k="name:no" v="Bentsjorda" />
		<tag k="name:se" v="Suollatvággi" />
		<tag k="place" v="farm" />
		<tag k="ssr:stedsnr" v="201420" />
	</node>
	<node id="-769345" lat="69.1822972199" lon="19.9873999743">
		<tag k="loc_name:se" v="Luhpposiida" />
		<tag k="name" v="Heggelund" />
		<tag k="name:no" v="Heggelund" />
		<tag k="place" v="farm" />
		<tag k="ssr:stedsnr" v="201316" />
	</node>
	<node id="-769341" lat="69.2551555587" lon="19.8667444269">
		<tag k="name" v="Myra" />
		<tag k="place" v="farm" />
		<tag k="ssr:stedsnr" v="200601" />
	</node>
	<node id="-769340" lat="69.2533527817" lon="19.8624777654">
		<tag k="name" v="Myreng" />
		<tag k="place" v="farm" />
		<tag k="ssr:stedsnr" v="200600" />
	</node>
	<node id="-769338" lat="69.2535499997" lon="19.9955722196">
		<tag k="loc_name:se" v="Soahkefállas" />
		<tag k="name" v="Bjørkemo" />
		<tag k="name:no" v="Bjørkemo" />
		<tag k="place" v="farm" />
		<tag k="ssr:stedsnr" v="200594" />
	</node>
	<node id="-769337" lat="69.2523944431" lon="19.8762721964">
		<tag k="name" v="Skogtun" />
		<tag k="place" v="farm" />
		<tag k="ssr:stedsnr" v="200589" />
	</node>
	<node id="-769336" lat="69.2540777753" lon="19.8819499962">
		<tag k="loc_name:se" v="Čávkosdievvá" />
		<tag k="name" v="Oterbakken" />
		<tag k="name:no" v="Oterbakken" />
		<tag k="place" v="farm" />
		<tag k="ssr:stedsnr" v="200586" />
	</node>
	<node id="-770100" lat="69.3001583337" lon="19.9818277768">
		<tag k="alt_name:no" v="Berg, in;Inberg" />
		<tag k="name" v="Indre Berg - Guolbanvággi" />
		<tag k="name:no" v="Indre Berg" />
		<tag k="name:se" v="Guolbanvággi" />
		<tag k="place" v="farm" />
		<tag k="ssr:stedsnr" v="746376" />
	</node>
	<node id="-769332" lat="69.374405561" lon="20.2535416405">
		<tag k="alt_name" v="Sommarset" />
		<tag k="name" v="Sommerset" />
		<tag k="place" v="farm" />
		<tag k="ssr:stedsnr" v="200446" />
	</node>
	<node id="-769331" lat="69.3876222196" lon="20.286811095">
		<tag k="alt_name" v="Lillevoll" />
		<tag k="name" v="Litlevollen" />
		<tag k="place" v="farm" />
		<tag k="ssr:stedsnr" v="200523" />
	</node>
	<node id="-769330" lat="69.3850277786" lon="20.2669944278">
		<tag k="name" v="Myrgjerdet" />
		<tag k="place" v="farm" />
		<tag k="ssr:stedsnr" v="200522" />
	</node>
	<node id="-769841" lat="69.368805552" lon="20.0280472053">
		<tag k="name" v="Lillemo" />
		<tag k="place" v="farm" />
		<tag k="ssr:stedsnr" v="600520" />
	</node>
	<node id="-769328" lat="69.3800277771" lon="20.0791722177">
		<tag k="name" v="Steinmoen" />
		<tag k="place" v="farm" />
		<tag k="ssr:stedsnr" v="200505" />
	</node>
	<node id="-770350" lat="69.3932083316" lon="20.2716333102">
		<tag k="name" v="Storsanden" />
		<tag k="place" v="quarter" />
		<tag k="ssr:stedsnr" v="904100" />
	</node>
	<node id="-768813" lat="69.2744999982" lon="19.9559388817">
		<tag k="name" v="Hatten" />
		<tag k="place" v="farm" />
		<tag k="ssr:stedsnr" v="355465" />
	</node>
	<node id="-769324" lat="69.2423999974" lon="20.0398499956">
		<tag k="name" v="Mo" />
		<tag k="place" v="farm" />
		<tag k="ssr:stedsnr" v="200366" />
	</node>
	<node id="-770354" lat="69.3775444446" lon="20.2787472128">
		<tag k="name" v="Bekkevoll" />
		<tag k="place" v="farm" />
		<tag k="ssr:stedsnr" v="904135" />
	</node>
	<node id="-769320" lat="69.1250833317" lon="20.1022138683">
		<tag k="alt_name" v="Fredheimsæter" />
		<tag k="historic" v="shieling" />
		<tag k="name" v="Fredheimsætra" />
		<tag k="place" v="locality" />
		<tag k="ssr:stedsnr" v="200286" />
	</node>
	<node id="-769315" lat="69.3184361132" lon="19.9539333326">
		<tag k="name" v="Nyborg" />
		<tag k="place" v="farm" />
		<tag k="ssr:stedsnr" v="200420" />
	</node>
	<node id="-770334" lat="69.090450003" lon="20.4446499896">
		<tag k="name" v="Doggehytta" />
		<tag k="place" v="isolated_dwelling" />
		<tag k="ssr:stedsnr" v="869575" />
	</node>
	<node id="-770326" lat="69.2592749973" lon="19.9163555464">
		<tag k="name" v="Solstad" />
		<tag k="place" v="farm" />
		<tag k="ssr:stedsnr" v="868558" />
	</node>
	<node id="-770324" lat="69.2501999986" lon="20.0255527755">
		<tag k="name" v="Fagerli" />
		<tag k="place" v="farm" />
		<tag k="ssr:stedsnr" v="868552" />
	</node>
	<node id="-770296" lat="69.1505999977" lon="20.0635999932">
		<tag k="name" v="Solvang" />
		<tag k="place" v="farm" />
		<tag k="ssr:stedsnr" v="868289" />
	</node>
	<node id="-770320" lat="69.3866444413" lon="20.102816651">
		<tag k="alt_name" v="Nybrot" />
		<tag k="name" v="Nybrott" />
		<tag k="place" v="farm" />
		<tag k="ssr:stedsnr" v="868481" />
	</node>
	<node id="-770319" lat="69.394299998" lon="20.2701972147">
		<tag k="name" v="Solbakken" />
		<tag k="place" v="farm" />
		<tag k="ssr:stedsnr" v="868476" />
	</node>
	<node id="-770093" lat="69.1190999958" lon="20.1193111036">
		<tag k="name" v="Dalheim" />
		<tag k="place" v="farm" />
		<tag k="ssr:stedsnr" v="746279" />
	</node>
	<node id="-770316" lat="69.363455558" lon="20.0141249903">
		<tag k="alt_name" v="Steinslund" />
		<tag k="name" v="Steinlund" />
		<tag k="place" v="farm" />
		<tag k="ssr:stedsnr" v="868448" />
	</node>
	<node id="-770314" lat="69.3715527784" lon="20.2541833049">
		<tag k="name" v="Furustad" />
		<tag k="place" v="farm" />
		<tag k="ssr:stedsnr" v="868436" />
	</node>
	<node id="-770313" lat="69.3329249984" lon="20.0398360937">
		<tag k="name" v="Salmenes" />
		<tag k="place" v="farm" />
		<tag k="ssr:stedsnr" v="868415" />
	</node>
	<node id="-770312" lat="69.2804722243" lon="19.9034083119">
		<tag k="alt_name:no" v="Olderbakk" />
		<tag k="fixme" v="multiple name tags, choose one and add the other to alt_name" />
		<tag k="loc_name:se" v="Leaibečorru" />
		<tag k="name" v="Olderbakken;Oldernes" />
		<tag k="name:no" v="Olderbakken;Oldernes" />
		<tag k="place" v="farm" />
		<tag k="ssr:stedsnr" v="868383" />
	</node>
	<node id="-768775" lat="69.4009083307" lon="20.2684388693">
		<tag k="name" v="Furuli" />
		<tag k="place" v="farm" />
		<tag k="ssr:stedsnr" v="322466" />
	</node>
	<node id="-770310" lat="69.2361416676" lon="20.0996527595">
		<tag k="name" v="Myrhaug" />
		<tag k="place" v="farm" />
		<tag k="ssr:stedsnr" v="868358" />
	</node>
	<node id="-770309" lat="69.2408361159" lon="20.0834805312">
		<tag k="name" v="Steinbakken" />
		<tag k="place" v="farm" />
		<tag k="ssr:stedsnr" v="868357" />
	</node>
	<node id="-768771" lat="69.2940361088" lon="19.916449992">
		<tag k="name" v="Nordli" />
		<tag k="place" v="farm" />
		<tag k="ssr:stedsnr" v="322377" />
	</node>
	<node id="-770306" lat="69.2198722191" lon="19.9727444227">
		<tag k="name" v="Fossli" />
		<tag k="place" v="farm" />
		<tag k="ssr:stedsnr" v="868329" />
	</node>
	<node id="-768769" lat="69.2397249964" lon="20.0848027668">
		<tag k="loc_name:se" v="Vuovdesiida" />
		<tag k="name" v="Kitdalen" />
		<tag k="name:no" v="Kitdalen" />
		<tag k="place" v="farm" />
		<tag k="ssr:stedsnr" v="322362" />
	</node>
	<node id="-770303" lat="69.1879305516" lon="19.9751499866">
		<tag k="name" v="Frydenlund" />
		<tag k="place" v="farm" />
		<tag k="ssr:stedsnr" v="868318" />
	</node>
	<node id="-768765" lat="69.2092416722" lon="19.9815027558">
		<tag k="name" v="Fjellstad" />
		<tag k="place" v="farm" />
		<tag k="ssr:stedsnr" v="322330" />
	</node>
	<node id="-770300" lat="69.1746055514" lon="20.0269777671">
		<tag k="name" v="Olsborg" />
		<tag k="place" v="farm" />
		<tag k="ssr:stedsnr" v="868308" />
	</node>
	<node id="-770299" lat="69.148088894" lon="20.0684916488">
		<tag k="name" v="Eggen" />
		<tag k="place" v="farm" />
		<tag k="ssr:stedsnr" v="868295" />
	</node>
	<node id="-768762" lat="69.1786083327" lon="20.0178249826">
		<tag k="name" v="Lund" />
		<tag k="place" v="farm" />
		<tag k="ssr:stedsnr" v="322289" />
	</node>
	<node id="-770297" lat="69.1522555566" lon="20.0593749879">
		<tag k="name" v="Skogstad" />
		<tag k="place" v="farm" />
		<tag k="ssr:stedsnr" v="868288" />
	</node>
	<node id="-769784" lat="69.1098416704" lon="20.7959388644">
		<tag k="name" v="Gálggonjárga" />
		<tag k="name:se" v="Gálggonjárga" />
		<tag k="place" v="farm" />
		<tag k="ssr:stedsnr" v="565535" />
	</node>
	<node id="-768758" lat="69.3973000023" lon="20.1368805501">
		<tag k="name" v="Nymoen" />
		<tag k="place" v="farm" />
		<tag k="ssr:stedsnr" v="321441" />
	</node>
	<node id="-768894" lat="69.3986000035" lon="20.1364805381">
		<tag k="name" v="Tuevoll" />
		<tag k="place" v="farm" />
		<tag k="ssr:stedsnr" v="382467" />
	</node>
	<node id="-769778" lat="69.2507833346" lon="19.8549749875">
		<tag k="name" v="Bakke" />
		<tag k="place" v="farm" />
		<tag k="ssr:stedsnr" v="564576" />
	</node>
	<node id="-768979" lat="69.2577190164" lon="19.981438463">
		<tag k="name" v="Ryddestad" />
		<tag k="place" v="farm" />
		<tag k="ssr:stedsnr" v="807571" />
	</node>
	<node id="-770288" lat="69.3059500022" lon="20.4335305305">
		<tag k="name" v="Lulleborg" />
		<tag k="place" v="farm" />
		<tag k="ssr:stedsnr" v="844988" />
	</node>
	<node id="-770285" lat="69.3749055546" lon="20.0440555471">
		<tag k="name" v="Elvestrand" />
		<tag k="place" v="farm" />
		<tag k="ssr:stedsnr" v="844719" />
	</node>
	<node id="-769771" lat="69.3256361082" lon="19.9642222038">
		<tag k="loc_name:se" v="Dimbbarnjárga" />
		<tag k="name" v="Tømmernes" />
		<tag k="name:no" v="Tømmernes" />
		<tag k="place" v="farm" />
		<tag k="ssr:stedsnr" v="564426" />
	</node>
	<node id="-769770" lat="69.3313111115" lon="19.9718360959">
		<tag k="name" v="Sandøra - Stálugárgu" />
		<tag k="name:no" v="Sandøra" />
		<tag k="name:se" v="Stálugárgu" />
		<tag k="place" v="farm" />
		<tag k="ssr:stedsnr" v="564424" />
	</node>
	<node id="-769769" lat="69.3357750023" lon="20.0457860948">
		<tag k="name" v="Bukta - Luokta" />
		<tag k="name:no" v="Bukta" />
		<tag k="name:se" v="Luokta" />
		<tag k="place" v="farm" />
		<tag k="ssr:stedsnr" v="564420" />
	</node>
	<node id="-769768" lat="69.3393277756" lon="19.9605527533">
		<tag k="name" v="Brustad" />
		<tag k="place" v="farm" />
		<tag k="ssr:stedsnr" v="564419" />
	</node>
	<node id="-770279" lat="69.2964444411" lon="19.9190777628">
		<tag k="name" v="Láiregieddi" />
		<tag k="name:se" v="Láiregieddi" />
		<tag k="place" v="farm" />
		<tag k="ssr:stedsnr" v="844625" />
	</node>
	<node id="-769765" lat="69.2887472202" lon="19.9129749756">
		<tag k="name" v="Dállu" />
		<tag k="name:se" v="Dállu" />
		<tag k="place" v="farm" />
		<tag k="ssr:stedsnr" v="564404" />
	</node>
	<node id="-770275" lat="69.3244944435" lon="19.9620694228">
		<tag k="name" v="Fagerhaug" />
		<tag k="place" v="farm" />
		<tag k="ssr:stedsnr" v="844564" />
	</node>
	<node id="-770272" lat="69.3453194471" lon="19.9723222122">
		<tag k="name" v="Riidekenttä" />
		<tag k="name:fkv" v="Riidekenttä" />
		<tag k="place" v="farm" />
		<tag k="ssr:stedsnr" v="844544" />
	</node>
	<node id="-769247" lat="69.1911888899" lon="20.9830999821">
		<tag k="name" v="Loassuhytta" />
		<tag k="place" v="isolated_dwelling" />
		<tag k="ssr:stedsnr" v="140968" />
	</node>
	<node id="-769758" lat="69.2352444476" lon="20.0981999889">
		<tag k="alt_name" v="Bjørkelund" />
		<tag k="name" v="Bjørklund" />
		<tag k="place" v="farm" />
		<tag k="ssr:stedsnr" v="564371" />
	</node>
	<node id="-770269" lat="69.3757583366" lon="20.2829527606">
		<tag k="name" v="Skibotn" />
		<tag k="place" v="farm" />
		<tag k="ssr:stedsnr" v="844134" />
	</node>
	<node id="-769754" lat="69.2229138884" lon="19.9716166454">
		<tag k="loc_name:se" v="Gurti" />
		<tag k="name" v="Fossen" />
		<tag k="name:no" v="Fossen" />
		<tag k="place" v="farm" />
		<tag k="ssr:stedsnr" v="564341" />
	</node>
	<node id="-768975" lat="69.1136274908" lon="20.2405566187">
		<tag k="fixme" v="consider tourism=alpine_hut or tourism=chalet" />
		<tag k="name" v="Mallahytta" />
		<tag k="ssr:stedsnr" v="1071910" />
		<tag k="tourism" v="wilderness_hut" />
	</node>
	<node id="-770264" lat="69.3427611141" lon="20.3524527591">
		<tag k="name" v="Haskihytta" />
		<tag k="place" v="isolated_dwelling" />
		<tag k="ssr:stedsnr" v="844038" />
	</node>
	<node id="-769239" lat="69.1678944432" lon="20.0289110911">
		<tag k="name" v="Signalnes - Čiekŋalnjárga" />
		<tag k="name:no" v="Signalnes" />
		<tag k="name:se" v="Čiekŋalnjárga" />
		<tag k="place" v="farm" />
		<tag k="ssr:stedsnr" v="140339" />
	</node>
	<node id="-768974" lat="69.3851472204" lon="20.0012222177">
		<tag k="fixme" v="consider tourism=alpine_hut or tourism=chalet" />
		<tag k="name" v="Steindalshytta" />
		<tag k="ssr:stedsnr" v="891007" />
		<tag k="tourism" v="wilderness_hut" />
	</node>
	<node id="-770258" lat="69.2620250043" lon="19.8841694241">
		<tag k="loc_name:se" v="Márttadievvá" />
		<tag k="name" v="Martabakken" />
		<tag k="name:no" v="Martabakken" />
		<tag k="place" v="farm" />
		<tag k="ssr:stedsnr" v="843421" />
	</node>
	<node id="-768721" lat="69.370555553" lon="20.2825166527">
		<tag k="name" v="Seljestad" />
		<tag k="place" v="farm" />
		<tag k="ssr:stedsnr" v="297152" />
	</node>
	<node id="-768718" lat="69.3924805563" lon="20.2685999744">
		<tag k="name" v="Marketsplassen" />
		<tag k="place" v="square" />
		<tag k="ssr:stedsnr" v="297120" />
	</node>
	<node id="-769229" lat="69.3730833307" lon="20.045355529">
		<tag k="name" v="Elvenes" />
		<tag k="place" v="farm" />
		<tag k="ssr:stedsnr" v="139465" />
	</node>
	<node id="-770430" lat="69.3977611085" lon="20.1376249734">
		<tag k="name" v="Rastebynes" />
		<tag k="place" v="farm" />
		<tag k="ssr:stedsnr" v="935816" />
	</node>
	<node id="-769224" lat="69.3224500008" lon="19.9594222039">
		<tag k="name" v="Myrbakken" />
		<tag k="place" v="farm" />
		<tag k="ssr:stedsnr" v="139443" />
	</node>
	<node id="-770508" lat="69.2629587174" lon="19.9645021572">
		<tag k="name" v="Veibakken" />
		<tag k="place" v="farm" />
		<tag k="ssr:stedsnr" v="980322" />
	</node>
	<node id="-769222" lat="69.3249500009" lon="20.0162527648">
		<tag k="name" v="Horsnes - Čohkkugieddi" />
		<tag k="name:no" v="Horsnes" />
		<tag k="name:se" v="Čohkkugieddi" />
		<tag k="place" v="farm" />
		<tag k="ssr:stedsnr" v="139431" />
	</node>
	<node id="-769117" lat="69.3675694425" lon="20.0266277694">
		<tag k="loc_name:se" v="Gieddegeahči" />
		<tag k="name" v="Strandeng" />
		<tag k="name:no" v="Strandeng" />
		<tag k="place" v="farm" />
		<tag k="ssr:stedsnr" v="79427" />
	</node>
	<node id="-769217" lat="69.2475805597" lon="20.0439194324">
		<tag k="name" v="Heggeblom" />
		<tag k="place" v="farm" />
		<tag k="ssr:stedsnr" v="139387" />
	</node>
	<node id="-769216" lat="69.2414222208" lon="19.8421166423">
		<tag k="name" v="Solvoll" />
		<tag k="place" v="farm" />
		<tag k="ssr:stedsnr" v="139384" />
	</node>
	<node id="-769726" lat="69.309080557" lon="19.9405638853">
		<tag k="name" v="Lavoll" />
		<tag k="place" v="farm" />
		<tag k="ssr:stedsnr" v="540591" />
	</node>
	<node id="-768885" lat="69.268899998" lon="19.8987499879">
		<tag k="name" v="Melen - Mielli" />
		<tag k="name:no" v="Melen" />
		<tag k="name:se" v="Mielli" />
		<tag k="place" v="farm" />
		<tag k="ssr:stedsnr" v="382397" />
	</node>
	<node id="-769212" lat="69.2313138931" lon="19.9830972204">
		<tag k="name" v="Nyli" />
		<tag k="place" v="farm" />
		<tag k="ssr:stedsnr" v="139354" />
	</node>
	<node id="-769994" lat="69.2364638895" lon="19.8383110945">
		<tag k="name" v="Fjelldal" />
		<tag k="place" v="farm" />
		<tag k="ssr:stedsnr" v="686356" />
	</node>
	<node id="-769210" lat="69.1151194426" lon="20.1021222138">
		<tag k="name" v="Rognli" />
		<tag k="place" v="farm" />
		<tag k="ssr:stedsnr" v="139291" />
	</node>
	<node id="-769253" lat="69.3367305553" lon="20.3508194252">
		<tag k="name" v="Brennfjell" />
		<tag k="place" v="neighbourhood" />
		<tag k="ssr:stedsnr" v="149682" />
	</node>
	<node id="-769206" lat="69.1317527761" lon="20.0696666418">
		<tag k="name" v="Nymo" />
		<tag k="place" v="farm" />
		<tag k="ssr:stedsnr" v="139316" />
	</node>
	<node id="-769717" lat="69.2597972206" lon="19.9948944327">
		<tag k="name" v="Lien" />
		<tag k="place" v="farm" />
		<tag k="ssr:stedsnr" v="540434" />
	</node>
	<node id="-769226" lat="69.3062777762" lon="19.9340333082">
		<tag k="name" v="Jernoll" />
		<tag k="place" v="farm" />
		<tag k="ssr:stedsnr" v="139453" />
	</node>
	<node id="-769199" lat="69.373652778" lon="20.0447472092">
		<tag k="fixme" v="consider place=hamlet" />
		<tag k="name" v="Steindalen - Gievdanvággi - Kivetänlahti" />
		<tag k="name:fkv" v="Kivetänlahti" />
		<tag k="name:no" v="Steindalen" />
		<tag k="name:se" v="Gievdanvággi" />
		<tag k="place" v="village" />
		<tag k="ssr:stedsnr" v="116355" />
	</node>
	<node id="-769707" lat="69.3763138902" lon="20.2871583242">
		<tag k="name" v="Huggenhull" />
		<tag k="place" v="farm" />
		<tag k="ssr:stedsnr" v="540139" />
	</node>
	<node id="-770173" lat="69.292700003" lon="19.9139666442">
		<tag k="name" v="Kileng" />
		<tag k="place" v="farm" />
		<tag k="ssr:stedsnr" v="783608" />
	</node>
	<node id="-770208" lat="69.2534916703" lon="19.921352757">
		<tag k="loc_name:se" v="Stuoranjárga" />
		<tag k="name" v="Stornes" />
		<tag k="name:no" v="Stornes" />
		<tag k="place" v="farm" />
		<tag k="ssr:stedsnr" v="807566" />
	</node>
	<node id="-768880" lat="69.222913891" lon="20.2546944415">
		<tag k="name" v="Brakke" />
		<tag k="place" v="isolated_dwelling" />
		<tag k="ssr:stedsnr" v="382342" />
	</node>
	<node id="-769751" lat="69.1830472195" lon="20.0052694249">
		<tag k="name" v="Fosshaug" />
		<tag k="place" v="farm" />
		<tag k="ssr:stedsnr" v="564306" />
	</node>
	<node id="-770205" lat="69.3425555544" lon="19.9643749967">
		<tag k="name" v="Skredvollen - Riđđogieddi" />
		<tag k="name:no" v="Skredvollen" />
		<tag k="name:se" v="Riđđogieddi" />
		<tag k="place" v="farm" />
		<tag k="ssr:stedsnr" v="807455" />
	</node>
	<node id="-770204" lat="69.3682500022" lon="20.2653999925">
		<tag k="name" v="Skibotn" />
		<tag k="place" v="farm" />
		<tag k="ssr:stedsnr" v="807450" />
	</node>
	<node id="-770203" lat="69.3633749966" lon="20.0129027683">
		<tag k="name" v="Storeng" />
		<tag k="place" v="hamlet" />
		<tag k="ssr:stedsnr" v="807442" />
	</node>
	<node id="-770202" lat="69.3775694469" lon="20.3023833124">
		<tag k="name" v="Bakken" />
		<tag k="place" v="farm" />
		<tag k="ssr:stedsnr" v="807424" />
	</node>
	<node id="-770198" lat="69.2371055523" lon="20.0684194344">
		<tag k="alt_name:no" v="Heggemo" />
		<tag k="loc_name:se" v="Ávžáfállas" />
		<tag k="name" v="Heggemoen" />
		<tag k="name:no" v="Heggemoen" />
		<tag k="place" v="farm" />
		<tag k="ssr:stedsnr" v="807366" />
	</node>
	<node id="-769173" lat="69.4002777803" lon="20.0528861003">
		<tag k="fixme" v="consider tourism=alpine_hut or tourism=chalet" />
		<tag k="name" v="Rullebu" />
		<tag k="ssr:stedsnr" v="102059" />
		<tag k="tourism" v="wilderness_hut" />
	</node>
	<node id="-768878" lat="69.2247305512" lon="20.1750833268">
		<tag k="name" v="Midtdalsvollen" />
		<tag k="place" v="locality" />
		<tag k="ssr:stedsnr" v="382341" />
	</node>
	<node id="-770193" lat="69.2058583372" lon="19.9797333183">
		<tag k="name" v="Nystad" />
		<tag k="place" v="farm" />
		<tag k="ssr:stedsnr" v="807312" />
	</node>
	<node id="-768953" lat="69.3963000024" lon="20.2775333134">
		<tag k="historic" v="shieling" />
		<tag k="name" v="Yttersætra" />
		<tag k="place" v="locality" />
		<tag k="ssr:stedsnr" v="479086" />
	</node>
	<node id="-769160" lat="69.3512666654" lon="20.2745416535">
		<tag k="name" v="Paskaput" />
		<tag k="place" v="locality" />
		<tag k="ssr:stedsnr" v="93251" />
	</node>
	<node id="-770176" lat="69.3927833368" lon="20.1229555547">
		<tag k="loc_name:se" v="Sildegieddi" />
		<tag k="name" v="Bruvoll" />
		<tag k="name:no" v="Bruvoll" />
		<tag k="place" v="farm" />
		<tag k="ssr:stedsnr" v="783730" />
	</node>
	<node id="-769151" lat="69.3250472205" lon="20.0181916512">
		<tag k="loc_name:se" v="Čohkkugieddi" />
		<tag k="name" v="Horsnes" />
		<tag k="name:no" v="Horsnes" />
		<tag k="place" v="hamlet" />
		<tag k="ssr:stedsnr" v="89637" />
	</node>
	<node id="-769150" lat="69.3399555526" lon="19.9628666588">
		<tag k="fixme" v="consider place=hamlet" />
		<tag k="name" v="Elvevoll - Stállovággi - Staaluvankka" />
		<tag k="name:fkv" v="Staaluvankka" />
		<tag k="name:no" v="Elvevoll" />
		<tag k="name:se" v="Stállovággi" />
		<tag k="place" v="village" />
		<tag k="ssr:stedsnr" v="87126" />
	</node>
	<node id="-769661" lat="69.2579749979" lon="19.9838971948">
		<tag k="name" v="Ryeng" />
		<tag k="place" v="farm" />
		<tag k="ssr:stedsnr" v="504590" />
	</node>
	<node id="-769659" lat="69.2586555518" lon="19.9173499957">
		<tag k="alt_name:no" v="Kjerkenes" />
		<tag k="name" v="Kjerkeneset - Girkonjárga" />
		<tag k="name:no" v="Kjerkeneset" />
		<tag k="name:se" v="Girkonjárga" />
		<tag k="place" v="farm" />
		<tag k="ssr:stedsnr" v="504583" />
	</node>
	<node id="-769654" lat="69.3796083305" lon="20.2698027681">
		<tag k="name" v="Grønslett" />
		<tag k="place" v="farm" />
		<tag k="ssr:stedsnr" v="504502" />
	</node>
	<node id="-770409" lat="69.2497750035" lon="20.0325610869">
		<tag k="name" v="Moen" />
		<tag k="place" v="farm" />
		<tag k="ssr:stedsnr" v="929358" />
	</node>
	<node id="-769128" lat="69.2517083359" lon="19.9961360981">
		<tag k="name" v="Åsvang" />
		<tag k="place" v="farm" />
		<tag k="ssr:stedsnr" v="79558" />
	</node>
	<node id="-769646" lat="69.3748666665" lon="20.0522222125">
		<tag k="name" v="Steindalen" />
		<tag k="place" v="farm" />
		<tag k="ssr:stedsnr" v="504440" />
	</node>
	<node id="-769182" lat="69.2510222258" lon="19.8724416654">
		<tag k="name" v="Sáiserohtu" />
		<tag k="name:se" v="Sáiserohtu" />
		<tag k="place" v="farm" />
		<tag k="ssr:stedsnr" v="115404" />
	</node>
	<node id="-769644" lat="69.2706944447" lon="19.9594611048">
		<tag k="fixme" v="consider place=suburb, village or hamlet" />
		<tag k="name" v="Hatteng - Háhtta - Hattu" />
		<tag k="name:fkv" v="Hattu" />
		<tag k="name:no" v="Hatteng" />
		<tag k="name:se" v="Háhtta" />
		<tag k="place" v="quarter" />
		<tag k="ssr:stedsnr" v="504395" />
	</node>
	<node id="-769643" lat="69.2839027817" lon="19.9070999839">
		<tag k="name" v="Geitstein - Gáicageađgi" />
		<tag k="name:no" v="Geitstein" />
		<tag k="name:se" v="Gáicageađgi" />
		<tag k="place" v="farm" />
		<tag k="ssr:stedsnr" v="504391" />
	</node>
	<node id="-769129" lat="69.2615111109" lon="19.9115222111">
		<tag k="name" v="Strand" />
		<tag k="place" v="farm" />
		<tag k="ssr:stedsnr" v="79561" />
	</node>
	<node id="-769640" lat="69.2848777799" lon="19.9070833272">
		<tag k="name" v="Kileng" />
		<tag k="place" v="farm" />
		<tag k="ssr:stedsnr" v="504383" />
	</node>
	<node id="-769639" lat="69.2439500018" lon="19.8477499984">
		<tag k="name" v="Daleng" />
		<tag k="place" v="farm" />
		<tag k="ssr:stedsnr" v="504358" />
	</node>
	<node id="-770150" lat="69.1523555522" lon="20.0434555311">
		<tag k="name" v="Innseth" />
		<tag k="place" v="farm" />
		<tag k="ssr:stedsnr" v="782347" />
	</node>
	<node id="-769125" lat="69.2498999996" lon="20.0282722082">
		<tag k="name" v="Bjørkeli" />
		<tag k="place" v="farm" />
		<tag k="ssr:stedsnr" v="79551" />
	</node>
	<node id="-769126" lat="69.2499194454" lon="20.0131777763">
		<tag k="name" v="Bakkely" />
		<tag k="place" v="farm" />
		<tag k="ssr:stedsnr" v="79553" />
	</node>
	<node id="-769122" lat="69.3781250032" lon="20.0660388699">
		<tag k="alt_name" v="Indre Selnes" />
		<tag k="name" v="Selnes" />
		<tag k="place" v="farm" />
		<tag k="ssr:stedsnr" v="79465" />
	</node>
	<node id="-769119" lat="69.4009499972" lon="20.1435999949">
		<tag k="name" v="Gunnarberg" />
		<tag k="place" v="farm" />
		<tag k="ssr:stedsnr" v="79448" />
	</node>
	<node id="-769637" lat="69.2012749982" lon="19.9787749965">
		<tag k="name" v="Solli" />
		<tag k="place" v="farm" />
		<tag k="ssr:stedsnr" v="504306" />
	</node>
	<node id="-769627" lat="69.4004944474" lon="20.1386861093">
		<tag k="name" v="Bjørklund" />
		<tag k="place" v="farm" />
		<tag k="ssr:stedsnr" v="503444" />
	</node>
	<node id="-769114" lat="69.376" lon="20.3015833085">
		<tag k="name" v="Fagerli" />
		<tag k="place" v="farm" />
		<tag k="ssr:stedsnr" v="79415" />
	</node>
	<node id="-769624" lat="69.3013583304" lon="19.9260722114">
		<tag k="name" v="Brattvoll" />
		<tag k="place" v="farm" />
		<tag k="ssr:stedsnr" v="503361" />
	</node>
	<node id="-770135" lat="69.3174777813" lon="19.9547972222">
		<tag k="name" v="Nordnes" />
		<tag k="place" v="farm" />
		<tag k="ssr:stedsnr" v="755025" />
	</node>
	<node id="-769622" lat="69.3169138927" lon="20.3768472107">
		<tag k="name" v="Ivarvollen" />
		<tag k="place" v="isolated_dwelling" />
		<tag k="ssr:stedsnr" v="503356" />
	</node>
	<node id="-769465" lat="69.397486109" lon="20.1356944255">
		<tag k="fixme" v="consider place=hamlet" />
		<tag k="name" v="Rasteby - Čuollonjárga - Sulluniemi" />
		<tag k="name:fkv" v="Sulluniemi" />
		<tag k="name:no" v="Rasteby" />
		<tag k="name:se" v="Čuollonjárga" />
		<tag k="place" v="village" />
		<tag k="ssr:stedsnr" v="261490" />
	</node>
	<node id="-769108" lat="69.2378000039" lon="20.1799360931">
		<tag k="name" v="Jorbagieddi - Jorbmakenttä" />
		<tag k="name:fkv" v="Jorbmakenttä" />
		<tag k="name:se" v="Jorbagieddi" />
		<tag k="place" v="locality" />
		<tag k="ssr:stedsnr" v="79352" />
	</node>
	<node id="-769106" lat="69.2357611136" lon="19.8319222132">
		<tag k="name" v="Molund" />
		<tag k="place" v="farm" />
		<tag k="ssr:stedsnr" v="79346" />
	</node>
	<node id="-769617" lat="69.3885749996" lon="20.1088999949">
		<tag k="name" v="Rasteby" />
		<tag k="place" v="farm" />
		<tag k="ssr:stedsnr" v="503069" />
	</node>
	<node id="-769103" lat="69.1503249999" lon="20.0543471965">
		<tag k="name" v="Elverum" />
		<tag k="place" v="farm" />
		<tag k="ssr:stedsnr" v="79292" />
	</node>
	<node id="-770074" lat="69.3957166673" lon="20.1302472169">
		<tag k="name" v="Moberg" />
		<tag k="place" v="farm" />
		<tag k="ssr:stedsnr" v="722765" />
	</node>
	<node id="-770061" lat="69.372938893" lon="20.2645555292">
		<tag k="name" v="Holmen" />
		<tag k="place" v="farm" />
		<tag k="ssr:stedsnr" v="722139" />
	</node>
	<node id="-769099" lat="69.0530249989" lon="20.2533777656">
		<tag k="fixme" v="consider tourism=alpine_hut or tourism=chalet" />
		<tag k="name" v="Gappohytta" />
		<tag k="name:no" v="Gappohytta" />
		<tag k="old_name:se" v="Gáhppostohpu" />
		<tag k="ssr:stedsnr" v="79255" />
		<tag k="tourism" v="wilderness_hut" />
	</node>
	<node id="-770487" lat="69.3971750005" lon="20.1332694265">
		<tag k="name" v="Blomli" />
		<tag k="place" v="farm" />
		<tag k="ssr:stedsnr" v="965743" />
	</node>
	<node id="-770115" lat="69.2600249971" lon="19.9740444347">
		<tag k="loc_name:se" v="Biertnagieddi" />
		<tag k="name" v="Bjørnevoll" />
		<tag k="name:no" v="Bjørnevoll" />
		<tag k="place" v="farm" />
		<tag k="ssr:stedsnr" v="746579" />
	</node>
	<node id="-770059" lat="69.3925888928" lon="20.2777138637">
		<tag k="name" v="Gustavgjerdet" />
		<tag k="place" v="quarter" />
		<tag k="ssr:stedsnr" v="722111" />
	</node>
	<node id="-770110" lat="69.3683611138" lon="20.2543333288">
		<tag k="name" v="Myrslett" />
		<tag k="place" v="farm" />
		<tag k="ssr:stedsnr" v="746444" />
	</node>
	<node id="-769290" lat="69.2330750028" lon="20.1087527694">
		<tag k="name" v="Tindstad" />
		<tag k="place" v="farm" />
		<tag k="ssr:stedsnr" v="176714" />
	</node>
	<node id="-769590" lat="69.258250001" lon="19.8942861062">
		<tag k="name" v="Åsgården" />
		<tag k="place" v="farm" />
		<tag k="ssr:stedsnr" v="443579" />
	</node>
	<node id="-768777" lat="69.3815138894" lon="20.3021777566">
		<tag k="name" v="Sommarset" />
		<tag k="place" v="farm" />
		<tag k="ssr:stedsnr" v="322487" />
	</node>
	<node id="-769588" lat="69.390866663" lon="20.2673972098">
		<tag k="name" v="Skibotn - Ivgobahta - Yykeänperä" />
		<tag k="name:fkv" v="Yykeänperä" />
		<tag k="name:no" v="Skibotn" />
		<tag k="name:se" v="Ivgobahta" />
		<tag k="place" v="village" />
		<tag k="ssr:stedsnr" v="443485" />
	</node>
	<node id="-769587" lat="69.3944388898" lon="20.1277249964">
		<tag k="name" v="Steinberg" />
		<tag k="place" v="farm" />
		<tag k="ssr:stedsnr" v="443480" />
	</node>
	<node id="-770101" lat="69.3054305526" lon="20.4022222117">
		<tag k="name" v="Lullenes" />
		<tag k="place" v="isolated_dwelling" />
		<tag k="ssr:stedsnr" v="746381" />
	</node>
	<node id="-769078" lat="69.2997694482" lon="19.9255277587">
		<tag k="name" v="Tillnes" />
		<tag k="place" v="farm" />
		<tag k="ssr:stedsnr" v="55573" />
	</node>
	<node id="-769070" lat="69.3800305526" lon="20.3034222017">
		<tag k="name" v="Grindholmen" />
		<tag k="place" v="farm" />
		<tag k="ssr:stedsnr" v="55115" />
	</node>
	<node id="-769581" lat="69.3129750002" lon="20.0002110972">
		<tag k="alt_name:no" v="Berg, ytre" />
		<tag k="name" v="Ytre Berg - Sisgeahči" />
		<tag k="name:no" v="Ytre Berg" />
		<tag k="name:se" v="Sisgeahči" />
		<tag k="place" v="farm" />
		<tag k="ssr:stedsnr" v="443445" />
	</node>
	<node id="-769578" lat="69.2630333346" lon="19.8805749882">
		<tag k="name" v="Slåtten" />
		<tag k="place" v="farm" />
		<tag k="ssr:stedsnr" v="443418" />
	</node>
	<node id="-769577" lat="69.2756583344" lon="19.9604305371">
		<tag k="alt_name" v="Hatteng nordre" />
		<tag k="name" v="Nordre Hatteng" />
		<tag k="place" v="farm" />
		<tag k="ssr:stedsnr" v="443417" />
	</node>
	<node id="-770098" lat="69.2970499978" lon="19.9198610925">
		<tag k="name" v="Bjørkåker" />
		<tag k="place" v="farm" />
		<tag k="ssr:stedsnr" v="746364" />
	</node>
	<node id="-769575" lat="69.3032027739" lon="20.4136499853">
		<tag k="alt_name" v="Lullestova" />
		<tag k="name" v="Lullestua" />
		<tag k="place" v="isolated_dwelling" />
		<tag k="ssr:stedsnr" v="443406" />
	</node>
	<node id="-769574" lat="69.2491111105" lon="19.8509971997">
		<tag k="name" v="Solvoll" />
		<tag k="place" v="farm" />
		<tag k="ssr:stedsnr" v="443401" />
	</node>
	<node id="-770481" lat="69.3078138923" lon="19.9385194402">
		<tag k="name" v="Stubbeng" />
		<tag k="place" v="farm" />
		<tag k="ssr:stedsnr" v="965609" />
	</node>
	<node id="-769060" lat="69.2718888872" lon="19.9501110902">
		<tag k="name" v="Hatten søndre" />
		<tag k="place" v="farm" />
		<tag k="ssr:stedsnr" v="52464" />
	</node>
	<node id="-769589" lat="69.3793583328" lon="20.2851110927">
		<tag k="name" v="Tu" />
		<tag k="place" v="farm" />
		<tag k="ssr:stedsnr" v="443497" />
	</node>
	<node id="-769115" lat="69.375880558" lon="20.2844499882">
		<tag k="alt_name" v="Skibotn, s" />
		<tag k="name" v="Søre Skibotn" />
		<tag k="place" v="farm" />
		<tag k="ssr:stedsnr" v="79419" />
	</node>
	<node id="-769568" lat="69.2432749967" lon="20.1901999825">
		<tag k="name" v="Stuoragieddi" />
		<tag k="name:se" v="Stuoragieddi" />
		<tag k="place" v="locality" />
		<tag k="ssr:stedsnr" v="443377" />
	</node>
	<node id="-769567" lat="69.2377000001" lon="19.8381444375">
		<tag k="name" v="Krokan" />
		<tag k="place" v="farm" />
		<tag k="ssr:stedsnr" v="443376" />
	</node>
	<node id="-769566" lat="69.2341166676" lon="19.9624416426">
		<tag k="loc_name:se" v="Boarrenjárga" />
		<tag k="name" v="Borrenes" />
		<tag k="name:no" v="Borrenes" />
		<tag k="place" v="farm" />
		<tag k="ssr:stedsnr" v="443372" />
	</node>
	<node id="-769562" lat="69.2328916709" lon="20.1059805392">
		<tag k="name" v="Moskkagáisi" />
		<tag k="name:se" v="Moskkagáisi" />
		<tag k="place" v="farm" />
		<tag k="ssr:stedsnr" v="443361" />
	</node>
	<node id="-769561" lat="69.1733027798" lon="20.0309499964">
		<tag k="name" v="Fredheim" />
		<tag k="place" v="farm" />
		<tag k="ssr:stedsnr" v="443338" />
	</node>
	<node id="-769759" lat="69.2491666676" lon="20.0085388719">
		<tag k="loc_name:se" v="Beassefállas" />
		<tag k="name" v="Nevermo" />
		<tag k="name:no" v="Nevermo" />
		<tag k="place" v="farm" />
		<tag k="ssr:stedsnr" v="564378" />
	</node>
	<node id="-769553" lat="69.1550083352" lon="20.0566249983">
		<tag k="name" v="Løvland" />
		<tag k="place" v="farm" />
		<tag k="ssr:stedsnr" v="443303" />
	</node>
	<node id="-769112" lat="69.3176027816" lon="20.0103527725">
		<tag k="name" v="Slettås" />
		<tag k="place" v="farm" />
		<tag k="ssr:stedsnr" v="79404" />
	</node>
	<node id="-769037" lat="69.334952775" lon="20.2982472047">
		<tag k="name" v="Leppäveräjä" />
		<tag k="name:fkv" v="Leppäveräjä" />
		<tag k="place" v="farm" />
		<tag k="ssr:stedsnr" v="36042" />
	</node>
	<node id="-769035" lat="69.3512666654" lon="20.2745416535">
		<tag k="name" v="Paskaput" />
		<tag k="place" v="farm" />
		<tag k="ssr:stedsnr" v="31204" />
	</node>
	<node id="-769184" lat="69.2604472251" lon="19.8788361009">
		<tag k="loc_name:se" v="Geassesadji" />
		<tag k="name" v="Sommarset" />
		<tag k="name:no" v="Sommarset" />
		<tag k="place" v="farm" />
		<tag k="ssr:stedsnr" v="115419" />
	</node>
	<node id="-769032" lat="69.1998055526" lon="20.7090610963">
		<tag k="fixme" v="consider tourism=alpine_hut or tourism=chalet" />
		<tag k="name" v="Helligskogen vandrerhjem" />
		<tag k="old_name" v="Helligskogen Fjellstove" />
		<tag k="ssr:stedsnr" v="24972" />
		<tag k="tourism" v="wilderness_hut" />
	</node>
	<node id="-770054" lat="69.2576000004" lon="19.8920888725">
		<tag k="name" v="Hauge" />
		<tag k="place" v="farm" />
		<tag k="ssr:stedsnr" v="721398" />
	</node>
	<node id="-769230" lat="69.3611916682" lon="20.1047138843">
		<tag k="name" v="Strandvoll" />
		<tag k="place" v="farm" />
		<tag k="ssr:stedsnr" v="139468" />
	</node>
	<node id="-769027" lat="69.2270750041" lon="20.6718749835">
		<tag k="name" v="Steinbakken" />
		<tag k="place" v="locality" />
		<tag k="ssr:stedsnr" v="19982" />
	</node>
</osm>
