<?xml version="1.0" encoding="UTF-8"?>
<osm generator="osmapis" version="0.6">
	<node id="-767996" lat="69.3540666636" lon="20.351911098">
		<tag k="name" v="Luhteenjoki" />
		<tag k="name:fkv" v="Luhteenjoki" />
		<tag k="ssr:stedsnr" v="218136" />
		<tag k="waterway" v="stream" />
	</node>
	<node id="-767993" lat="69.2977916719" lon="20.406438868">
		<tag k="name" v="Potkanlantto" />
		<tag k="name:fkv" v="Potkanlantto" />
		<tag k="natural" v="water" />
		<tag k="ssr:stedsnr" v="213381" />
		<tag k="water" v="lake" />
	</node>
	<node id="-767988" lat="69.2171805577" lon="20.8791666455">
		<tag k="name" v="Ráššajárjohka" />
		<tag k="name:se" v="Ráššajárjohka" />
		<tag k="ssr:stedsnr" v="201983" />
		<tag k="waterway" v="river" />
	</node>
	<node id="-767987" lat="69.2078499998" lon="20.8773110825">
		<tag k="name" v="Unna Didnojávrráš" />
		<tag k="name:se" v="Unna Didnojávrráš" />
		<tag k="natural" v="water" />
		<tag k="old_name:se" v="Didnojávrráš, unna" />
		<tag k="ssr:stedsnr" v="201973" />
	</node>
	<node id="-767984" lat="69.1491416628" lon="20.6252888738">
		<tag k="name" v="Bajit Sallojávri" />
		<tag k="name:se" v="Bajit Sallojávri" />
		<tag k="natural" v="water" />
		<tag k="old_name:se" v="Sallojávri, bajit" />
		<tag k="ssr:stedsnr" v="201954" />
		<tag k="water" v="lake" />
	</node>
	<node id="-767983" lat="69.133074999" lon="20.5078999788">
		<tag k="name" v="Doggejávrrit" />
		<tag k="name:se" v="Doggejávrrit" />
		<tag k="natural" v="water" />
		<tag k="ssr:stedsnr" v="201950" />
		<tag k="water" v="lake" />
	</node>
	<node id="-767975" lat="69.1025750007" lon="20.9858083023">
		<tag k="name" v="Heargejohka" />
		<tag k="name:se" v="Heargejohka" />
		<tag k="ssr:stedsnr" v="201505" />
		<tag k="waterway" v="river" />
	</node>
	<node id="-767974" lat="69.1034499987" lon="20.8326499654">
		<tag k="name" v="Gállajohka" />
		<tag k="name:se" v="Gállajohka" />
		<tag k="ssr:stedsnr" v="201501" />
		<tag k="waterway" v="river" />
	</node>
	<node id="-767972" lat="69.3389833363" lon="19.9186972114">
		<tag k="name" v="Elvevollelva - Stállováhjohka" />
		<tag k="name:no" v="Elvevollelva" />
		<tag k="name:se" v="Stállováhjohka" />
		<tag k="ssr:stedsnr" v="201438" />
		<tag k="waterway" v="river" />
	</node>
	<node id="-767971" lat="69.3462972231" lon="20.3534638705">
		<tag k="alt_name:no" v="Haskielva, nedre" />
		<tag k="name" v="Nedre Haskielva - Ala-Haskijoki" />
		<tag k="name:fkv" v="Ala-Haskijoki" />
		<tag k="name:no" v="Nedre Haskielva" />
		<tag k="ssr:stedsnr" v="201437" />
		<tag k="waterway" v="stream" />
	</node>
	<node id="-767965" lat="69.185174998" lon="19.9964110899">
		<tag k="alt_name:no" v="Kavelfossen" />
		<tag k="loc_name:se" v="Gávalgurti" />
		<tag k="name" v="Kavlefossen" />
		<tag k="name:no" v="Kavlefossen" />
		<tag k="natural" v="waterfall" />
		<tag k="ssr:stedsnr" v="201297" />
	</node>
	<node id="-767964" lat="69.2414111096" lon="19.7974138837">
		<tag k="name" v="Riehpijávri" />
		<tag k="name:se" v="Riehpijávri" />
		<tag k="natural" v="water" />
		<tag k="ssr:stedsnr" v="201164" />
	</node>
	<node id="-767955" lat="69.2987749967" lon="20.6701360959">
		<tag k="name" v="Stálonjárgajávri" />
		<tag k="name:se" v="Stálonjárgajávri" />
		<tag k="natural" v="water" />
		<tag k="ssr:stedsnr" v="200551" />
	</node>
	<node id="-767954" lat="69.3991138926" lon="20.0597888657">
		<tag k="name" v="Lomvatnet - Gáhkkorjávri" />
		<tag k="name:no" v="Lomvatnet" />
		<tag k="name:se" v="Gáhkkorjávri" />
		<tag k="natural" v="water" />
		<tag k="ssr:stedsnr" v="200487" />
	</node>
	<node id="-767948" lat="69.385669442" lon="20.0061111072">
		<tag k="name" v="Tverrelva - Doaresjohka" />
		<tag k="name:no" v="Tverrelva" />
		<tag k="name:se" v="Doaresjohka" />
		<tag k="ssr:stedsnr" v="200503" />
		<tag k="waterway" v="stream" />
	</node>
	<node id="-767944" lat="69.1648555519" lon="20.2959777705">
		<tag k="name" v="Heargejohka" />
		<tag k="name:se" v="Heargejohka" />
		<tag k="ssr:stedsnr" v="200330" />
		<tag k="waterway" v="stream" />
	</node>
	<node id="-767943" lat="69.1565555547" lon="20.2518249902">
		<tag k="name" v="Langvatnet" />
		<tag k="natural" v="water" />
		<tag k="ssr:stedsnr" v="200309" />
	</node>
	<node id="-767940" lat="69.1321805523" lon="20.3790221951">
		<tag k="name" v="Goahteorotjohka" />
		<tag k="name:se" v="Goahteorotjohka" />
		<tag k="ssr:stedsnr" v="200283" />
		<tag k="waterway" v="stream" />
	</node>
	<node id="-767938" lat="69.4145888882" lon="20.3006083201">
		<tag k="name" v="Røykeneselva - Ruikatjohka - Ruikkatanjoki" />
		<tag k="name:fkv" v="Ruikkatanjoki" />
		<tag k="name:no" v="Røykeneselva" />
		<tag k="name:se" v="Ruikatjohka" />
		<tag k="ssr:stedsnr" v="200272" />
		<tag k="waterway" v="stream" />
	</node>
	<node id="-767921" lat="69.2796777764" lon="20.4897833226">
		<tag k="name" v="Slemelva" />
		<tag k="ssr:stedsnr" v="176962" />
		<tag k="waterway" v="stream" />
	</node>
	<node id="-767917" lat="69.111444444" lon="20.789780534">
		<tag k="name" v="Gálggonjárga" />
		<tag k="name:se" v="Gálggonjárga" />
		<tag k="natural" v="cape" />
		<tag k="ssr:stedsnr" v="176888" />
	</node>
	<node id="-767910" lat="69.1240194422" lon="20.0906416621">
		<tag k="name" v="Storholmen" />
		<tag k="place" v="islet" />
		<tag k="ssr:stedsnr" v="176705" />
	</node>
	<node id="-767889" lat="69.3293027821" lon="19.8405110984">
		<tag k="name" v="Stillelva" />
		<tag k="natural" v="water" />
		<tag k="ssr:stedsnr" v="175375" />
		<tag k="water" v="lake" />
	</node>
	<node id="-767887" lat="69.2334666666" lon="19.9429333218">
		<tag k="name" v="Borrejohka" />
		<tag k="name:se" v="Borrejohka" />
		<tag k="ssr:stedsnr" v="175368" />
		<tag k="waterway" v="stream" />
	</node>
	<node id="-767886" lat="69.1802888858" lon="20.0046388783">
		<tag k="name" v="Kroneset" />
		<tag k="natural" v="cape" />
		<tag k="ssr:stedsnr" v="175363" />
	</node>
	<node id="-767880" lat="69.3857055571" lon="19.9938916612">
		<tag k="name" v="Fielbmá" />
		<tag k="name:se" v="Fielbmá" />
		<tag k="ssr:stedsnr" v="157570" />
		<tag k="waterway" v="stream" />
	</node>
	<node id="-767875" lat="69.3749277752" lon="19.9850083192">
		<tag k="name" v="Njunijávri" />
		<tag k="name:se" v="Njunijávri" />
		<tag k="natural" v="water" />
		<tag k="ssr:stedsnr" v="152842" />
	</node>
	<node id="-767872" lat="69.0778861152" lon="20.1192249745">
		<tag k="name" v="Skjærbekken" />
		<tag k="ssr:stedsnr" v="142457" />
		<tag k="waterway" v="stream" />
	</node>
	<node id="-767870" lat="69.2066277778" lon="20.9204305417">
		<tag k="name" v="Suolojávri" />
		<tag k="name:se" v="Suolojávri" />
		<tag k="natural" v="water" />
		<tag k="ssr:stedsnr" v="140976" />
		<tag k="water" v="lake" />
	</node>
	<node id="-767869" lat="69.1331555574" lon="20.7626027499">
		<tag k="name" v="Gálggojávri" />
		<tag k="name:se" v="Gálggojávri" />
		<tag k="natural" v="water" />
		<tag k="ssr:stedsnr" v="140950" />
		<tag k="water" v="lake" />
	</node>
	<node id="-767864" lat="69.0689750017" lon="21.0303916421">
		<tag k="name" v="Sáđgejohka" />
		<tag k="name:se" v="Sáđgejohka" />
		<tag k="ssr:stedsnr" v="140539" />
		<tag k="waterway" v="river" />
	</node>
	<node id="-767861" lat="69.2068000011" lon="20.2027860856">
		<tag k="name" v="Moskkogáissijávri" />
		<tag k="name:se" v="Moskkogáissijávri" />
		<tag k="natural" v="water" />
		<tag k="ssr:stedsnr" v="140343" />
	</node>
	<node id="-767859" lat="69.1850583292" lon="20.1084666565">
		<tag k="name" v="Kortelvskardvatnet" />
		<tag k="natural" v="water" />
		<tag k="ssr:stedsnr" v="140336" />
	</node>
	<node id="-767858" lat="69.3461249975" lon="19.8923361056">
		<tag k="name" v="Dalvatnan" />
		<tag k="natural" v="water" />
		<tag k="ssr:stedsnr" v="140460" />
		<tag k="water" v="lake" />
	</node>
	<node id="-767855" lat="69.2610944462" lon="20.6782083015">
		<tag k="name" v="Suonjerjohka" />
		<tag k="name:se" v="Suonjerjohka" />
		<tag k="ssr:stedsnr" v="139662" />
		<tag k="waterway" v="river" />
	</node>
	<node id="-767853" lat="69.3805361137" lon="20.0257388724">
		<tag k="name" v="Gobijohka" />
		<tag k="name:se" v="Gobijohka" />
		<tag k="ssr:stedsnr" v="139505" />
		<tag k="waterway" v="stream" />
	</node>
	<node id="-767852" lat="69.3552111093" lon="20.2957083035">
		<tag k="alt_name:no" v="Skjellvatnet" />
		<tag k="name" v="Skilvatnet - Rajajärvi" />
		<tag k="name:fkv" v="Rajajärvi" />
		<tag k="name:no" v="Skilvatnet" />
		<tag k="natural" v="water" />
		<tag k="ssr:stedsnr" v="139479" />
	</node>
	<node id="-767844" lat="69.3284249975" lon="20.3762888702">
		<tag k="name" v="Brennfjellvatnan - Puolamavaaranjärvet" />
		<tag k="name:fkv" v="Puolamavaaranjärvet" />
		<tag k="name:no" v="Brennfjellvatnan" />
		<tag k="natural" v="water" />
		<tag k="ssr:stedsnr" v="139441" />
	</node>
	<node id="-767841" lat="69.2766805571" lon="19.877349994">
		<tag k="name" v="Akeelva - Áhkejohka" />
		<tag k="name:no" v="Akeelva" />
		<tag k="name:se" v="Áhkejohka" />
		<tag k="ssr:stedsnr" v="139407" />
		<tag k="waterway" v="stream" />
	</node>
	<node id="-767834" lat="69.2278333334" lon="19.9923055502">
		<tag k="name" v="Gorsa" />
		<tag k="name:se" v="Gorsa" />
		<tag k="ssr:stedsnr" v="139356" />
		<tag k="waterway" v="stream" />
	</node>
	<node id="-767832" lat="69.1138166691" lon="20.2332111075">
		<tag k="alt_name:no" v="Markuselva, indre" />
		<tag k="name" v="Indre Markuselva - Márkosvádjajohka" />
		<tag k="name:no" v="Indre Markuselva" />
		<tag k="name:se" v="Márkosvádjajohka" />
		<tag k="ssr:stedsnr" v="139294" />
		<tag k="waterway" v="stream" />
	</node>
	<node id="-767830" lat="69.4183249968" lon="20.3413999757">
		<tag k="name" v="Kvalbergvatnan" />
		<tag k="natural" v="water" />
		<tag k="ssr:stedsnr" v="139273" />
	</node>
	<node id="-767828" lat="69.2614249967" lon="19.7713999874">
		<tag k="name" v="Rieppeelva - Riehpijohka" />
		<tag k="name:no" v="Rieppeelva" />
		<tag k="name:se" v="Riehpijohka" />
		<tag k="ssr:stedsnr" v="139338" />
		<tag k="waterway" v="river" />
	</node>
	<node id="-767826" lat="69.1533000017" lon="20.094705534">
		<tag k="name" v="Tverrelva" />
		<tag k="ssr:stedsnr" v="139307" />
		<tag k="waterway" v="stream" />
	</node>
	<node id="-767825" lat="69.2205944407" lon="20.0941805377">
		<tag k="name" v="Sørdalselva - Orjjessuorggijohka - Orjassuorkinjoki" />
		<tag k="name:fkv" v="Orjassuorkinjoki" />
		<tag k="name:no" v="Sørdalselva" />
		<tag k="name:se" v="Orjjessuorggijohka" />
		<tag k="ssr:stedsnr" v="139076" />
		<tag k="waterway" v="river" />
	</node>
	<node id="-767824" lat="69.2134805582" lon="19.7891027726">
		<tag k="alt_name:no" v="Ballsfjordelva" />
		<tag k="name" v="Balsfjordelva - Báhccavuonjohka - Paatsivuononjoki" />
		<tag k="name:fkv" v="Paatsivuononjoki" />
		<tag k="name:no" v="Balsfjordelva" />
		<tag k="name:se" v="Báhccavuonjohka" />
		<tag k="ssr:stedsnr" v="139075" />
		<tag k="waterway" v="river" />
	</node>
	<node id="-767823" lat="69.3276499972" lon="20.0844749727">
		<tag k="name" v="Elsneselva - Juomváhjohka - Juovankanjoki" />
		<tag k="name:fkv" v="Juovankanjoki" />
		<tag k="name:no" v="Elsneselva" />
		<tag k="name:se" v="Juomváhjohka" />
		<tag k="ssr:stedsnr" v="139071" />
		<tag k="waterway" v="river" />
	</node>
	<node id="-767818" lat="69.2820888859" lon="20.4594083042">
		<tag k="fixme" v="multiple name tags, choose one and add the other to alt_name" />
		<tag k="name" v="Leppäsaari;Olderholmen" />
		<tag k="place" v="islet" />
		<tag k="ssr:stedsnr" v="115964" />
	</node>
	<node id="-767817" lat="69.3002388922" lon="20.5071471991">
		<tag k="name" v="Speinnajávri" />
		<tag k="name:se" v="Speinnajávri" />
		<tag k="natural" v="water" />
		<tag k="ssr:stedsnr" v="115960" />
	</node>
	<node id="-767807" lat="69.1994361134" lon="19.9719666469">
		<tag k="name" v="Gustavneset" />
		<tag k="natural" v="cape" />
		<tag k="ssr:stedsnr" v="115482" />
	</node>
	<node id="-767806" lat="69.198199999" lon="19.9709666551">
		<tag k="name" v="Andskjulet" />
		<tag k="place" v="islet" />
		<tag k="ssr:stedsnr" v="115480" />
	</node>
	<node id="-767795" lat="69.3550749991" lon="20.2424166606">
		<tag k="name" v="Gamskogelva" />
		<tag k="ssr:stedsnr" v="115016" />
		<tag k="waterway" v="stream" />
	</node>
	<node id="-767779" lat="69.3962444426" lon="20.2718527679">
		<tag k="name" v="Ronkanjoki" />
		<tag k="name:fkv" v="Ronkanjoki" />
		<tag k="ssr:stedsnr" v="92985" />
		<tag k="waterway" v="stream" />
	</node>
	<node id="-767776" lat="69.337755552" lon="20.2964694233">
		<tag k="name" v="Palosaari" />
		<tag k="name:fkv" v="Palosaari" />
		<tag k="place" v="islet" />
		<tag k="ssr:stedsnr" v="92429" />
	</node>
	<node id="-767774" lat="69.358644449" lon="20.2666249891">
		<tag k="name" v="Fossen - Guoika - Koski" />
		<tag k="name:fkv" v="Koski" />
		<tag k="name:no" v="Fossen" />
		<tag k="name:se" v="Guoika" />
		<tag k="natural" v="waterfall" />
		<tag k="ssr:stedsnr" v="92029" />
	</node>
	<node id="-767767" lat="69.2399888866" lon="20.92894997">
		<tag k="name" v="Gieddejávri" />
		<tag k="name:se" v="Gieddejávri" />
		<tag k="natural" v="water" />
		<tag k="ssr:stedsnr" v="80996" />
	</node>
	<node id="-767765" lat="69.2099277811" lon="20.6112833061">
		<tag k="alt_name:se" v="Riehppejávri" />
		<tag k="name" v="Rihpojávri" />
		<tag k="name:se" v="Rihpojávri" />
		<tag k="natural" v="water" />
		<tag k="ssr:stedsnr" v="80984" />
		<tag k="water" v="lake" />
	</node>
	<node id="-767763" lat="69.2071999998" lon="20.7712360879">
		<tag k="name" v="Bogijávri" />
		<tag k="name:se" v="Bogijávri" />
		<tag k="natural" v="water" />
		<tag k="ssr:stedsnr" v="80978" />
		<tag k="water" v="lake" />
	</node>
	<node id="-767762" lat="69.20824167" lon="20.7122083209">
		<tag k="name" v="Slåttelva - Bogijohka" />
		<tag k="name:no" v="Slåttelva" />
		<tag k="name:se" v="Bogijohka" />
		<tag k="ssr:stedsnr" v="80977" />
		<tag k="waterway" v="river" />
	</node>
	<node id="-767758" lat="69.0758388912" lon="20.4271638761">
		<tag k="name" v="Vuolit Golddaluoppal" />
		<tag k="name:se" v="Vuolit Golddaluoppal" />
		<tag k="natural" v="water" />
		<tag k="old_name:se" v="Golddaluoppal, vuolit" />
		<tag k="ssr:stedsnr" v="80551" />
	</node>
	<node id="-767757" lat="69.0858138876" lon="20.9635166302">
		<tag k="name" v="Bierccejohka" />
		<tag k="name:se" v="Bierccejohka" />
		<tag k="ssr:stedsnr" v="80550" />
		<tag k="waterway" v="stream" />
	</node>
	<node id="-767756" lat="69.2672611111" lon="20.7774249728">
		<tag k="name" v="Gaskkamus Rovvejávri" />
		<tag k="name:se" v="Gaskkamus Rovvejávri" />
		<tag k="natural" v="water" />
		<tag k="old_name:se" v="Rovvejávri, gaskkamus" />
		<tag k="ssr:stedsnr" v="79670" />
	</node>
	<node id="-767754" lat="69.277330555" lon="20.4781638597">
		<tag k="name" v="Gustavsvingen" />
		<tag k="place" v="locality" />
		<tag k="ssr:stedsnr" v="79658" />
	</node>
	<node id="-767752" lat="69.2609361092" lon="20.7406166435">
		<tag k="name" v="Rovvejávri" />
		<tag k="name:se" v="Rovvejávri" />
		<tag k="natural" v="water" />
		<tag k="ssr:stedsnr" v="79647" />
		<tag k="water" v="lake" />
	</node>
	<node id="-767751" lat="69.2560861085" lon="20.7022666441">
		<tag k="name" v="Suonjerjávrrit" />
		<tag k="name:se" v="Suonjerjávrrit" />
		<tag k="natural" v="water" />
		<tag k="ssr:stedsnr" v="79644" />
	</node>
	<node id="-767745" lat="69.313924998" lon="20.6525194147">
		<tag k="name" v="Stálujohka" />
		<tag k="name:se" v="Stálujohka" />
		<tag k="ssr:stedsnr" v="79529" />
		<tag k="waterway" v="stream" />
	</node>
	<node id="-767731" lat="69.2944999977" lon="20.0001027715">
		<tag k="alt_name:no" v="Bergelva" />
		<tag k="name" v="Bergselva - Guolbanváhjohka - Kuolpanvankanjoki" />
		<tag k="name:fkv" v="Kuolpanvankanjoki" />
		<tag k="name:no" v="Bergselva" />
		<tag k="name:se" v="Guolbanváhjohka" />
		<tag k="ssr:stedsnr" v="79373" />
		<tag k="waterway" v="river" />
	</node>
	<node id="-767723" lat="69.2572749978" lon="19.7190138726">
		<tag k="loc_name:se" v="Gurgalanjávri" />
		<tag k="name" v="Gurgela" />
		<tag k="name:no" v="Gurgela" />
		<tag k="natural" v="water" />
		<tag k="ssr:stedsnr" v="79281" />
		<tag k="water" v="lake" />
	</node>
	<node id="-767709" lat="69.3351833372" lon="20.4024999778">
		<tag k="name" v="Haskielva" />
		<tag k="ssr:stedsnr" v="55936" />
		<tag k="waterway" v="stream" />
	</node>
	<node id="-767702" lat="69.2360277743" lon="20.0882083118">
		<tag k="name" v="Holmen" />
		<tag k="place" v="islet" />
		<tag k="ssr:stedsnr" v="55678" />
	</node>
	<node id="-767696" lat="69.335888886" lon="20.3033972162">
		<tag k="name" v="Olderholman" />
		<tag k="place" v="islet" />
		<tag k="ssr:stedsnr" v="55034" />
	</node>
	<node id="-767694" lat="69.370041664" lon="20.2521416381">
		<tag k="loc_name:se" v="Heargesilddijohka" />
		<tag k="name" v="Okselva" />
		<tag k="name:no" v="Okselva" />
		<tag k="ssr:stedsnr" v="55127" />
		<tag k="waterway" v="stream" />
	</node>
	<node id="-767692" lat="69.3730749967" lon="20.2694610991">
		<tag k="name" v="Hundhalsøra" />
		<tag k="natural" v="cape" />
		<tag k="ssr:stedsnr" v="55119" />
	</node>
	<node id="-767690" lat="69.2139138924" lon="19.9651221975">
		<tag k="name" v="Lilleelva" />
		<tag k="ssr:stedsnr" v="54513" />
		<tag k="waterway" v="stream" />
	</node>
	<node id="-767688" lat="69.2517611093" lon="19.8797888714">
		<tag k="loc_name:se" v="Sarašjohka" />
		<tag k="name" v="Sarabekken" />
		<tag k="name:no" v="Sarabekken" />
		<tag k="ssr:stedsnr" v="54406" />
		<tag k="waterway" v="stream" />
	</node>
	<node id="-767686" lat="69.1927749979" lon="19.9801527755">
		<tag k="name" v="Kassholmen" />
		<tag k="place" v="islet" />
		<tag k="ssr:stedsnr" v="54401" />
	</node>
	<node id="-767682" lat="69.1808944437" lon="19.9701944246">
		<tag k="name" v="Skredbekken" />
		<tag k="ssr:stedsnr" v="54373" />
		<tag k="waterway" v="stream" />
	</node>
	<node id="-767671" lat="69.4017972205" lon="19.9926583316">
		<tag k="name" v="Jorbajávri" />
		<tag k="name:se" v="Jorbajávri" />
		<tag k="natural" v="water" />
		<tag k="ssr:stedsnr" v="36362" />
	</node>
	<node id="-767669" lat="69.3046027788" lon="19.9095916419">
		<tag k="name" v="Gobijohka" />
		<tag k="name:se" v="Gobijohka" />
		<tag k="ssr:stedsnr" v="36348" />
		<tag k="waterway" v="stream" />
	</node>
	<node id="-767662" lat="69.3640666681" lon="20.2899527622">
		<tag k="name" v="Gállojohka - Kahlujoki" />
		<tag k="name:fkv" v="Kahlujoki" />
		<tag k="name:se" v="Gállojohka" />
		<tag k="ssr:stedsnr" v="36123" />
		<tag k="waterway" v="stream" />
	</node>
	<node id="-767661" lat="69.3290250008" lon="20.3369999781">
		<tag k="name" v="Kuukislomanjurma" />
		<tag k="name:fkv" v="Kuukislomanjurma" />
		<tag k="place" v="locality" />
		<tag k="ssr:stedsnr" v="36119" />
	</node>
	<node id="-767655" lat="69.3061638918" lon="20.3905638699">
		<tag k="name" v="Ahonlauttauspaikka" />
		<tag k="name:fkv" v="Ahonlauttauspaikka" />
		<tag k="natural" v="beach" />
		<tag k="ssr:stedsnr" v="31364" />
	</node>
	<node id="-767647" lat="69.2326500017" lon="20.8336249694">
		<tag k="name" v="Meahccevátjohka" />
		<tag k="name:se" v="Meahccevátjohka" />
		<tag k="ssr:stedsnr" v="19980" />
		<tag k="waterway" v="stream" />
	</node>
	<node id="-767646" lat="69.2232000052" lon="20.5891499779">
		<tag k="name" v="Buvssasmohkki" />
		<tag k="name:se" v="Buvssasmohkki" />
		<tag k="natural" v="bay" />
		<tag k="ssr:stedsnr" v="19977" />
	</node>
	<node id="-767645" lat="69.1767583323" lon="20.6692999684">
		<tag k="name" v="Roggejávri" />
		<tag k="name:se" v="Roggejávri" />
		<tag k="natural" v="water" />
		<tag k="ssr:stedsnr" v="19958" />
		<tag k="water" v="lake" />
	</node>
	<node id="-767644" lat="69.1880555571" lon="20.6510999704">
		<tag k="name" v="Roggejohka" />
		<tag k="name:se" v="Roggejohka" />
		<tag k="ssr:stedsnr" v="19951" />
		<tag k="waterway" v="river" />
	</node>
	<node id="-767643" lat="69.1261277758" lon="20.6207499804">
		<tag k="name" v="Guhkesjávri" />
		<tag k="name:se" v="Guhkesjávri" />
		<tag k="natural" v="water" />
		<tag k="ssr:stedsnr" v="19937" />
		<tag k="water" v="lake" />
	</node>
	<node id="-767629" lat="69.2545250047" lon="19.8453360893">
		<tag k="alt_name:se" v="Doaresjohka;Tverrdalselva" />
		<tag k="name" v="Tverrelva" />
		<tag k="name:se" v="Tverrelva" />
		<tag k="ssr:stedsnr" v="18551" />
		<tag k="waterway" v="river" />
	</node>
	<node id="-767626" lat="69.3163944472" lon="20.3255610958">
		<tag k="name" v="Kvitlielva - Guvgesloapmejohka - Kuukislomanjoki" />
		<tag k="name:fkv" v="Kuukislomanjoki" />
		<tag k="name:no" v="Kvitlielva" />
		<tag k="name:se" v="Guvgesloapmejohka" />
		<tag k="ssr:stedsnr" v="18392" />
		<tag k="waterway" v="river" />
	</node>
	<node id="-767616" lat="69.1568499974" lon="19.9745860983">
		<tag k="name" v="Signalneselva - Čiekŋaljávrrejohka" />
		<tag k="name:no" v="Signalneselva" />
		<tag k="name:se" v="Čiekŋaljávrrejohka" />
		<tag k="ssr:stedsnr" v="18273" />
		<tag k="waterway" v="stream" />
	</node>
	<node id="-767615" lat="69.4307194494" lon="20.3680305394">
		<tag k="name" v="Midtre Larsbergelva" />
		<tag k="ssr:stedsnr" v="18253" />
		<tag k="waterway" v="stream" />
	</node>
	<node id="-767613" lat="69.3929249988" lon="20.0120083311">
		<tag k="name" v="Svartvasselva" />
		<tag k="ssr:stedsnr" v="18437" />
		<tag k="waterway" v="stream" />
	</node>
	<node id="-767604" lat="69.4422946382" lon="20.2973270489">
		<tag k="loc_name:fkv" v="Larspahdanjoki" />
		<tag k="name" v="Larsbergelva - Lárasbáhjohka" />
		<tag k="name:no" v="Larsbergelva" />
		<tag k="name:se" v="Lárasbáhjohka" />
		<tag k="ssr:stedsnr" v="985383" />
		<tag k="waterway" v="river" />
	</node>
	<node id="-767592" lat="69.3557222194" lon="20.2632861049">
		<tag k="name" v="Koskensaari" />
		<tag k="name:fkv" v="Koskensaari" />
		<tag k="place" v="islet" />
		<tag k="ssr:stedsnr" v="886109" />
	</node>
	<node id="-767583" lat="69.3699527769" lon="20.2754666606">
		<tag k="name" v="Småholman" />
		<tag k="place" v="islet" />
		<tag k="ssr:stedsnr" v="479130" />
	</node>
	<node id="-767577" lat="69.3365638874" lon="20.3041360951">
		<tag k="name" v="Bukkholman" />
		<tag k="place" v="islet" />
		<tag k="ssr:stedsnr" v="479026" />
	</node>
	<node id="-767576" lat="69.3412222213" lon="20.2786888643">
		<tag k="name" v="Bergkulpen" />
		<tag k="place" v="locality" />
		<tag k="ssr:stedsnr" v="479025" />
	</node>
	<node id="-767570" lat="69.1138999978" lon="20.0464833215">
		<tag k="name" v="Tverrelvvatnet" />
		<tag k="natural" v="water" />
		<tag k="ssr:stedsnr" v="473634" />
	</node>
	<node id="-767566" lat="69.3849222229" lon="19.992299979">
		<tag k="name" v="Geailu" />
		<tag k="name:se" v="Geailu" />
		<tag k="natural" v="bay" />
		<tag k="ssr:stedsnr" v="400926" />
	</node>
	<node id="-767565" lat="69.2552777796" lon="19.9248194394">
		<tag k="name" v="Storneset - Stuoranjárga" />
		<tag k="name:no" v="Storneset" />
		<tag k="name:se" v="Stuoranjárga" />
		<tag k="natural" v="cape" />
		<tag k="ssr:stedsnr" v="400650" />
	</node>
	<node id="-767564" lat="69.3186833365" lon="20.360911093">
		<tag k="name" v="Kavelneset - Kaavelinniemi" />
		<tag k="name:fkv" v="Kaavelinniemi" />
		<tag k="name:no" v="Kavelneset" />
		<tag k="natural" v="cape" />
		<tag k="ssr:stedsnr" v="400474" />
	</node>
	<node id="-767560" lat="69.3032055579" lon="19.9099166644">
		<tag k="name" v="Luovttajohka" />
		<tag k="name:se" v="Luovttajohka" />
		<tag k="ssr:stedsnr" v="400383" />
		<tag k="waterway" v="stream" />
	</node>
	<node id="-767554" lat="69.3380555563" lon="20.2869472145">
		<tag k="name" v="Äimä" />
		<tag k="name:fkv" v="Äimä" />
		<tag k="place" v="locality" />
		<tag k="ssr:stedsnr" v="400086" />
	</node>
	<node id="-767550" lat="69.3423444432" lon="20.2856360938">
		<tag k="name" v="Gorteneset - Korteniemi" />
		<tag k="name:fkv" v="Korteniemi" />
		<tag k="name:no" v="Gorteneset" />
		<tag k="natural" v="cape" />
		<tag k="ssr:stedsnr" v="395460" />
	</node>
	<node id="-767543" lat="69.1951000045" lon="20.9264388625">
		<tag k="name" v="Suolojohka" />
		<tag k="name:se" v="Suolojohka" />
		<tag k="ssr:stedsnr" v="383979" />
		<tag k="waterway" v="river" />
	</node>
	<node id="-767541" lat="69.1223333322" lon="21.009938851">
		<tag k="name" v="Áldojohka" />
		<tag k="name:se" v="Áldojohka" />
		<tag k="ssr:stedsnr" v="383947" />
		<tag k="waterway" v="river" />
	</node>
	<node id="-767538" lat="69.0941138895" lon="20.6045999759">
		<tag k="name" v="Nilppanjárgajávri" />
		<tag k="name:se" v="Nilppanjárgajávri" />
		<tag k="natural" v="water" />
		<tag k="ssr:stedsnr" v="383567" />
	</node>
	<node id="-767537" lat="69.0961305591" lon="20.8332583044">
		<tag k="name" v="Veajetjohka" />
		<tag k="name:se" v="Veajetjohka" />
		<tag k="ssr:stedsnr" v="383566" />
		<tag k="waterway" v="river" />
	</node>
	<node id="-767536" lat="69.1074000055" lon="20.9814388625">
		<tag k="name" v="Heargejávri" />
		<tag k="name:se" v="Heargejávri" />
		<tag k="natural" v="water" />
		<tag k="ssr:stedsnr" v="383564" />
	</node>
	<node id="-767535" lat="69.1801138927" lon="20.9042360985">
		<tag k="name" v="Didnojohka" />
		<tag k="name:se" v="Didnojohka" />
		<tag k="ssr:stedsnr" v="383445" />
		<tag k="waterway" v="river" />
	</node>
	<node id="-767534" lat="69.2110499994" lon="20.4847916459">
		<tag k="name" v="Skurčojohka" />
		<tag k="name:se" v="Skurčojohka" />
		<tag k="ssr:stedsnr" v="383443" />
		<tag k="waterway" v="river" />
	</node>
	<node id="-767532" lat="69.2774944484" lon="20.7051944282">
		<tag k="name" v="Rovveluoppal" />
		<tag k="name:se" v="Rovveluoppal" />
		<tag k="natural" v="water" />
		<tag k="ssr:stedsnr" v="382676" />
	</node>
	<node id="-767531" lat="69.2898277811" lon="20.5594027665">
		<tag k="name" v="Doaresjohka" />
		<tag k="name:se" v="Doaresjohka" />
		<tag k="ssr:stedsnr" v="382670" />
		<tag k="waterway" v="stream" />
	</node>
	<node id="-767530" lat="69.2586694444" lon="20.0738749892">
		<tag k="loc_name:se" v="Dittivádjájohka" />
		<tag k="name" v="Skardelva - Vaajajoki" />
		<tag k="name:fkv" v="Vaajajoki" />
		<tag k="name:no" v="Skardelva" />
		<tag k="ssr:stedsnr" v="382572" />
		<tag k="waterway" v="stream" />
	</node>
	<node id="-767528" lat="69.2563833312" lon="20.4104833043">
		<tag k="name" v="Luhčajávri" />
		<tag k="name:se" v="Luhčajávri" />
		<tag k="natural" v="water" />
		<tag k="ssr:stedsnr" v="382560" />
	</node>
	<node id="-767516" lat="69.3143249994" lon="20.0794972117">
		<tag k="name" v="Reppielva - Riehppejohka - Rieppijoki" />
		<tag k="name:fkv" v="Rieppijoki" />
		<tag k="name:no" v="Reppielva" />
		<tag k="name:se" v="Riehppejohka" />
		<tag k="ssr:stedsnr" v="382425" />
		<tag k="waterway" v="stream" />
	</node>
	<node id="-767509" lat="69.2393333323" lon="20.3117083239">
		<tag k="name" v="Viessogasjávrrit" />
		<tag k="name:se" v="Viessogasjávrrit" />
		<tag k="natural" v="water" />
		<tag k="ssr:stedsnr" v="382358" />
		<tag k="water" v="lake" />
	</node>
	<node id="-767508" lat="69.2477749968" lon="20.4004499865">
		<tag k="name" v="Luhčajávrrit" />
		<tag k="name:se" v="Luhčajávrrit" />
		<tag k="natural" v="water" />
		<tag k="ssr:stedsnr" v="382350" />
		<tag k="water" v="lake" />
	</node>
	<node id="-767501" lat="69.196375" lon="20.1087277714">
		<tag k="name" v="Bogelvvatnet - Čoamohasjávri" />
		<tag k="name:no" v="Bogelvvatnet" />
		<tag k="name:se" v="Čoamohasjávri" />
		<tag k="natural" v="water" />
		<tag k="ssr:stedsnr" v="382328" />
	</node>
	<node id="-767499" lat="69.1718638943" lon="20.041844424">
		<tag k="name" v="Kortelva" />
		<tag k="ssr:stedsnr" v="382322" />
		<tag k="waterway" v="river" />
	</node>
	<node id="-767498" lat="69.1885916682" lon="20.2934249736">
		<tag k="name" v="Govdajávri - Koutajärvi" />
		<tag k="name:fkv" v="Koutajärvi" />
		<tag k="name:se" v="Govdajávri" />
		<tag k="natural" v="water" />
		<tag k="ssr:stedsnr" v="382317" />
		<tag k="water" v="lake" />
	</node>
	<node id="-767495" lat="69.1545305527" lon="20.0035972002">
		<tag k="alt_name:no" v="Signalvatnet" />
		<tag k="name" v="Signalnesvatnet - Čiekŋaljávri" />
		<tag k="name:no" v="Signalnesvatnet" />
		<tag k="name:se" v="Čiekŋaljávri" />
		<tag k="natural" v="water" />
		<tag k="ssr:stedsnr" v="382296" />
	</node>
	<node id="-767494" lat="69.0998499997" lon="20.2646999841">
		<tag k="name" v="Mallabekken" />
		<tag k="ssr:stedsnr" v="382287" />
		<tag k="waterway" v="stream" />
	</node>
	<node id="-767492" lat="69.4324027778" lon="20.3655388743">
		<tag k="name" v="Nordre Larsbergelva" />
		<tag k="ssr:stedsnr" v="382258" />
		<tag k="waterway" v="stream" />
	</node>
	<node id="-767491" lat="69.4087055563" lon="20.0018610913">
		<tag k="name" v="Grønvatnet - Ruonájávri" />
		<tag k="name:no" v="Grønvatnet" />
		<tag k="name:se" v="Ruonájávri" />
		<tag k="natural" v="water" />
		<tag k="ssr:stedsnr" v="382253" />
	</node>
	<node id="-767490" lat="69.2351805526" lon="19.8078194196">
		<tag k="name" v="Skarelva - Riehpijohka" />
		<tag k="name:no" v="Skarelva" />
		<tag k="name:se" v="Riehpijohka" />
		<tag k="ssr:stedsnr" v="382143" />
		<tag k="waterway" v="river" />
	</node>
	<node id="-767489" lat="69.3811388938" lon="20.3410416454">
		<tag k="name" v="Olderelva - Leaibejohka - Leppäjoki" />
		<tag k="name:fkv" v="Leppäjoki" />
		<tag k="name:no" v="Olderelva" />
		<tag k="name:se" v="Leaibejohka" />
		<tag k="ssr:stedsnr" v="382076" />
		<tag k="waterway" v="river" />
	</node>
	<node id="-767484" lat="69.2594666687" lon="20.580744432">
		<tag k="name" v="Rovijokkfossen - Rovvegorži - Rovijoenkoski" />
		<tag k="name:fkv" v="Rovijoenkoski" />
		<tag k="name:no" v="Rovijokkfossen" />
		<tag k="name:se" v="Rovvegorži" />
		<tag k="natural" v="waterfall" />
		<tag k="ssr:stedsnr" v="363445" />
	</node>
	<node id="-767474" lat="69.350994448" lon="20.1381194201">
		<tag k="loc_name:se" v="Geinnodat" />
		<tag k="name" v="Geidnodakka" />
		<tag k="name:no" v="Geidnodakka" />
		<tag k="ssr:stedsnr" v="358737" />
		<tag k="waterway" v="stream" />
	</node>
	<node id="-767459" lat="69.3716472225" lon="20.2378916455">
		<tag k="name" v="Gangatanesen" />
		<tag k="natural" v="cape" />
		<tag k="ssr:stedsnr" v="358126" />
	</node>
	<node id="-767456" lat="69.4070888898" lon="20.2991333091">
		<tag k="name" v="Iselva" />
		<tag k="ssr:stedsnr" v="358100" />
		<tag k="waterway" v="stream" />
	</node>
	<node id="-767446" lat="69.3527583375" lon="19.8748583292">
		<tag k="name" v="Dalelva" />
		<tag k="ssr:stedsnr" v="357385" />
		<tag k="waterway" v="stream" />
	</node>
	<node id="-767445" lat="69.2388777769" lon="19.7992972148">
		<tag k="name" v="Riehpijohka" />
		<tag k="name:se" v="Riehpijohka" />
		<tag k="ssr:stedsnr" v="357383" />
		<tag k="waterway" v="stream" />
	</node>
	<node id="-767441" lat="69.1680861071" lon="20.0256055518">
		<tag k="name" v="Kjelda" />
		<tag k="natural" v="spring" />
		<tag k="ssr:stedsnr" v="357355" />
	</node>
	<node id="-767435" lat="69.3650027768" lon="20.1380194273">
		<tag k="name" v="Rássenjárjohka - Rassiniemenjoki" />
		<tag k="name:fkv" v="Rassiniemenjoki" />
		<tag k="name:se" v="Rássenjárjohka" />
		<tag k="ssr:stedsnr" v="339326" />
		<tag k="waterway" v="stream" />
	</node>
	<node id="-767432" lat="69.3376972228" lon="20.2916555417">
		<tag k="name" v="Ställinjurma" />
		<tag k="name:fkv" v="Ställinjurma" />
		<tag k="place" v="locality" />
		<tag k="ssr:stedsnr" v="339035" />
	</node>
	<node id="-767427" lat="69.3469000017" lon="19.8912444325">
		<tag k="name" v="Øvervatnet - Badjejávri" />
		<tag k="name:no" v="Øvervatnet" />
		<tag k="name:se" v="Badjejávri" />
		<tag k="natural" v="water" />
		<tag k="ssr:stedsnr" v="335036" />
	</node>
	<node id="-767418" lat="69.189772225" lon="20.7316472096">
		<tag k="alt_name:se" v="Dápmotláttu" />
		<tag k="name" v="Dápmotjávri" />
		<tag k="name:se" v="Dápmotjávri" />
		<tag k="natural" v="water" />
		<tag k="ssr:stedsnr" v="323968" />
	</node>
	<node id="-767415" lat="69.1626611101" lon="20.8822110852">
		<tag k="name" v="Gáhkkorjohka" />
		<tag k="name:se" v="Gáhkkorjohka" />
		<tag k="ssr:stedsnr" v="322949" />
		<tag k="waterway" v="river" />
	</node>
	<node id="-767411" lat="69.4465583381" lon="20.4539916397">
		<tag k="name" v="Revdalsvatna - Reavčájávrrit" />
		<tag k="name:no" v="Revdalsvatna" />
		<tag k="name:se" v="Reavčájávrrit" />
		<tag k="natural" v="water" />
		<tag k="ssr:stedsnr" v="322596" />
		<tag k="water" v="lake" />
	</node>
	<node id="-767408" lat="69.0974583362" lon="21.0593749615">
		<tag k="name" v="Buolvirjohka" />
		<tag k="name:se" v="Buolvirjohka" />
		<tag k="ssr:stedsnr" v="322548" />
		<tag k="waterway" v="river" />
	</node>
	<node id="-767405" lat="69.3705277799" lon="19.9986166431">
		<tag k="fixme" v="multiple name tags, choose one and add the other to alt_name" />
		<tag k="name" v="Jenselva;Storengelva - Jeanssajohka" />
		<tag k="name:no" v="Jenselva;Storengelva" />
		<tag k="name:se" v="Jeanssajohka" />
		<tag k="ssr:stedsnr" v="322492" />
		<tag k="waterway" v="stream" />
	</node>
	<node id="-767400" lat="69.1704777824" lon="20.8187444207">
		<tag k="name" v="Didnojohka" />
		<tag k="name:se" v="Didnojohka" />
		<tag k="ssr:stedsnr" v="322422" />
		<tag k="waterway" v="river" />
	</node>
	<node id="-767399" lat="69.3336499971" lon="19.9152916415">
		<tag k="name" v="Langdalselva - Guhkesváhjohka" />
		<tag k="name:no" v="Langdalselva" />
		<tag k="name:se" v="Guhkesváhjohka" />
		<tag k="ssr:stedsnr" v="322401" />
		<tag k="waterway" v="river" />
	</node>
	<node id="-767397" lat="69.2460000031" lon="19.9243694368">
		<tag k="name" v="Steinfossen" />
		<tag k="natural" v="waterfall" />
		<tag k="ssr:stedsnr" v="322365" />
	</node>
	<node id="-767393" lat="69.2146750039" lon="20.2649749789">
		<tag k="name" v="Langvatnet - Guhkolašjávri" />
		<tag k="name:no" v="Langvatnet" />
		<tag k="name:se" v="Guhkolašjávri" />
		<tag k="natural" v="water" />
		<tag k="ssr:stedsnr" v="322338" />
	</node>
	<node id="-767391" lat="69.1981111081" lon="19.9827110993">
		<tag k="name" v="Gustavtjørna" />
		<tag k="natural" v="water" />
		<tag k="ssr:stedsnr" v="322318" />
	</node>
	<node id="-767387" lat="69.2986583385" lon="20.516477753">
		<tag k="name" v="Speainnajávrrit" />
		<tag k="name:se" v="Speainnajávrrit" />
		<tag k="natural" v="water" />
		<tag k="ssr:stedsnr" v="321510" />
	</node>
	<node id="-767370" lat="69.0989499969" lon="20.3589249718">
		<tag k="loc_name:no" v="Mallavatnan" />
		<tag k="name" v="Mallajávrrit" />
		<tag k="name:se" v="Mallajávrrit" />
		<tag k="natural" v="water" />
		<tag k="ssr:stedsnr" v="299719" />
		<tag k="water" v="lake" />
	</node>
	<node id="-767366" lat="69.1063222219" lon="20.0973805475">
		<tag k="name" v="Skjærbekken" />
		<tag k="ssr:stedsnr" v="297690" />
		<tag k="waterway" v="stream" />
	</node>
	<node id="-767364" lat="69.4412999971" lon="20.3073833067">
		<tag k="name" v="Ytter-Larsbergelva" />
		<tag k="ssr:stedsnr" v="297994" />
		<tag k="waterway" v="stream" />
	</node>
	<node id="-767363" lat="69.2772944487" lon="20.4781916517">
		<tag k="name" v="Svingen" />
		<tag k="natural" v="bay" />
		<tag k="ssr:stedsnr" v="297972" />
	</node>
	<node id="-767357" lat="69.2543694418" lon="19.9175777676">
		<tag k="loc_name:se" v="Vuollegirkonjárga" />
		<tag k="name" v="Nerkirkenes" />
		<tag k="name:no" v="Nerkirkenes" />
		<tag k="natural" v="cape" />
		<tag k="ssr:stedsnr" v="297545" />
	</node>
	<node id="-767355" lat="69.2365083378" lon="19.9636416479">
		<tag k="name" v="Nerstrokket" />
		<tag k="ssr:stedsnr" v="297466" />
		<tag k="waterway" v="rapids" />
	</node>
	<node id="-767354" lat="69.2041777748" lon="19.9776499733">
		<tag k="loc_name:se" v="Uhcagurttáš" />
		<tag k="name" v="Lillefossen" />
		<tag k="name:no" v="Lillefossen" />
		<tag k="natural" v="waterfall" />
		<tag k="ssr:stedsnr" v="297446" />
	</node>
	<node id="-767343" lat="69.3520222227" lon="20.2640222032">
		<tag k="name" v="Gammelkielva" />
		<tag k="ssr:stedsnr" v="297001" />
		<tag k="waterway" v="stream" />
	</node>
	<node id="-767339" lat="69.4031555575" lon="19.9748888866">
		<tag k="name" v="Čáhppesjávri" />
		<tag k="name:se" v="Čáhppesjávri" />
		<tag k="natural" v="water" />
		<tag k="ssr:stedsnr" v="279797" />
	</node>
	<node id="-767337" lat="69.4046555539" lon="20.1260083179">
		<tag k="name" v="Rundvatnet - Jorbajávri" />
		<tag k="name:no" v="Rundvatnet" />
		<tag k="name:se" v="Jorbajávri" />
		<tag k="natural" v="water" />
		<tag k="ssr:stedsnr" v="279627" />
	</node>
	<node id="-767326" lat="69.2980722244" lon="20.4076499711">
		<tag k="loc_name:no" v="Potkaholmen" />
		<tag k="name" v="Potka - Pikku-Potka" />
		<tag k="name:fkv" v="Pikku-Potka" />
		<tag k="name:no" v="Potka" />
		<tag k="place" v="islet" />
		<tag k="ssr:stedsnr" v="274330" />
	</node>
	<node id="-767325" lat="69.3416194437" lon="20.2729610971">
		<tag k="name" v="Langstilla - Pitkäsuanto" />
		<tag k="name:fkv" v="Pitkäsuanto" />
		<tag k="name:no" v="Langstilla" />
		<tag k="place" v="locality" />
		<tag k="ssr:stedsnr" v="274269" />
	</node>
	<node id="-767324" lat="69.3375166666" lon="19.9442749774">
		<tag k="name" v="Storelva - Stuorajohka" />
		<tag k="name:no" v="Storelva" />
		<tag k="name:se" v="Stuorajohka" />
		<tag k="ssr:stedsnr" v="274146" />
		<tag k="waterway" v="river" />
	</node>
	<node id="-769116" lat="69.2939583379" lon="20.4192972108">
		<tag k="name" v="Accisuolu" />
		<tag k="name:se" v="Accisuolu" />
		<tag k="place" v="islet" />
		<tag k="ssr:stedsnr" v="965961" />
	</node>
	<node id="-769115" lat="69.1979277828" lon="20.611319427">
		<tag k="name" v="Biedenjárga" />
		<tag k="name:se" v="Biedenjárga" />
		<tag k="natural" v="cape" />
		<tag k="ssr:stedsnr" v="965949" />
	</node>
	<node id="-769114" lat="69.301811112" lon="20.4831027606">
		<tag k="name" v="Ákšogaikunjávri" />
		<tag k="name:se" v="Ákšogaikunjávri" />
		<tag k="natural" v="water" />
		<tag k="ssr:stedsnr" v="965942" />
	</node>
	<node id="-769113" lat="69.2455166706" lon="20.6507499732">
		<tag k="name" v="Vuolit Garranjohka" />
		<tag k="name:se" v="Vuolit Garranjohka" />
		<tag k="ssr:stedsnr" v="965909" />
		<tag k="waterway" v="stream" />
	</node>
	<node id="-769089" lat="69.1486333316" lon="20.0530361007">
		<tag k="name" v="Floen" />
		<tag k="natural" v="water" />
		<tag k="ssr:stedsnr" v="964403" />
		<tag k="water" v="lake" />
	</node>
	<node id="-769088" lat="69.1877833339" lon="19.9556166589">
		<tag k="name" v="Nybekken" />
		<tag k="ssr:stedsnr" v="964398" />
		<tag k="waterway" v="stream" />
	</node>
	<node id="-769086" lat="69.1667305517" lon="20.0224166602">
		<tag k="name" v="Signalelva" />
		<tag k="ssr:stedsnr" v="964378" />
		<tag k="waterway" v="stream" />
	</node>
	<node id="-769074" lat="69.2461583378" lon="20.0267333144">
		<tag k="name" v="Saranjorma" />
		<tag k="name:fkv" v="Saranjorma" />
		<tag k="place" v="locality" />
		<tag k="ssr:stedsnr" v="946444" />
	</node>
	<node id="-769073" lat="69.3297750016" lon="20.3695972137">
		<tag k="name" v="Alainen Puolamavaaranjärvi" />
		<tag k="name:fkv" v="Alainen Puolamavaaranjärvi" />
		<tag k="natural" v="water" />
		<tag k="ssr:stedsnr" v="946430" />
	</node>
	<node id="-769067" lat="69.2903361116" lon="19.9017444386">
		<tag k="alt_name:se" v="Dálujohka" />
		<tag k="name" v="Daloelva" />
		<tag k="name:se" v="Daloelva" />
		<tag k="ssr:stedsnr" v="946339" />
		<tag k="waterway" v="stream" />
	</node>
	<node id="-769064" lat="69.3483638909" lon="20.3399360877">
		<tag k="name" v="Kaivosjoki" />
		<tag k="name:fkv" v="Kaivosjoki" />
		<tag k="ssr:stedsnr" v="946115" />
		<tag k="waterway" v="stream" />
	</node>
	<node id="-769063" lat="69.3077555556" lon="20.3863166381">
		<tag k="fixme" v="multiple name tags, choose one and add the other to alt_name" />
		<tag k="name" v="Valkeapahta;Valkeanpahanjurma" />
		<tag k="name:fkv" v="Valkeapahta;Valkeanpahanjurma" />
		<tag k="place" v="locality" />
		<tag k="ssr:stedsnr" v="946109" />
	</node>
	<node id="-769061" lat="69.3520750047" lon="20.2767722028">
		<tag k="name" v="Baskaputt - Paskapuas" />
		<tag k="name:fkv" v="Paskapuas" />
		<tag k="name:no" v="Baskaputt" />
		<tag k="natural" v="water" />
		<tag k="ssr:stedsnr" v="943309" />
		<tag k="water" v="lake" />
	</node>
	<node id="-769057" lat="69.3512666654" lon="20.2745416535">
		<tag k="loc_name:no" v="Dreyerholmen" />
		<tag k="name" v="Paskaputhaansaari" />
		<tag k="name:fkv" v="Paskaputhaansaari" />
		<tag k="place" v="islet" />
		<tag k="ssr:stedsnr" v="942257" />
	</node>
	<node id="-769056" lat="69.3883444481" lon="19.9884999811">
		<tag k="loc_name:no" v="Steindalselva" />
		<tag k="name" v="Gievdanjohka" />
		<tag k="name:se" v="Gievdanjohka" />
		<tag k="ssr:stedsnr" v="942086" />
		<tag k="waterway" v="river" />
	</node>
	<node id="-769051" lat="69.2320805529" lon="20.6131110959">
		<tag k="alt_name:se" v="Busesjohka" />
		<tag k="name" v="Buvssasjohka" />
		<tag k="name:se" v="Buvssasjohka" />
		<tag k="ssr:stedsnr" v="930985" />
		<tag k="waterway" v="stream" />
	</node>
	<node id="-769048" lat="69.1851750043" lon="20.931286087">
		<tag k="name" v="Didnojávri" />
		<tag k="name:se" v="Didnojávri" />
		<tag k="natural" v="water" />
		<tag k="ssr:stedsnr" v="929966" />
		<tag k="water" v="lake" />
	</node>
	<node id="-769047" lat="69.2525833359" lon="20.6740083152">
		<tag k="name" v="Lávvojohka" />
		<tag k="name:se" v="Lávvojohka" />
		<tag k="ssr:stedsnr" v="929680" />
		<tag k="waterway" v="stream" />
	</node>
	<node id="-769046" lat="69.2646777819" lon="20.6717777655">
		<tag k="name" v="Rovijokkelva - Rovvejohka - Rovijoki" />
		<tag k="name:fkv" v="Rovijoki" />
		<tag k="name:no" v="Rovijokkelva" />
		<tag k="name:se" v="Rovvejohka" />
		<tag k="ssr:stedsnr" v="929669" />
		<tag k="waterway" v="river" />
	</node>
	<node id="-769044" lat="69.0949583364" lon="20.6471277546">
		<tag k="name" v="Goallárjávri" />
		<tag k="name:se" v="Goallárjávri" />
		<tag k="natural" v="water" />
		<tag k="ssr:stedsnr" v="929519" />
		<tag k="water" v="lake" />
	</node>
	<node id="-769043" lat="69.1189277773" lon="20.7598666314">
		<tag k="name" v="Russeneset - Ruoššanjárga" />
		<tag k="name:no" v="Russeneset" />
		<tag k="name:se" v="Ruoššanjárga" />
		<tag k="natural" v="cape" />
		<tag k="ssr:stedsnr" v="929515" />
	</node>
	<node id="-769039" lat="69.3872611118" lon="20.326630532">
		<tag k="name" v="Gobijohka - Kupanjoki" />
		<tag k="name:fkv" v="Kupanjoki" />
		<tag k="name:se" v="Gobijohka" />
		<tag k="ssr:stedsnr" v="929472" />
		<tag k="waterway" v="stream" />
	</node>
	<node id="-769030" lat="69.2931138931" lon="19.7722333236">
		<tag k="loc_name:se" v="Jiehkkejávri" />
		<tag k="name" v="Jekkivatnet" />
		<tag k="name:no" v="Jekkivatnet" />
		<tag k="natural" v="water" />
		<tag k="ssr:stedsnr" v="929339" />
		<tag k="water" v="lake" />
	</node>
	<node id="-769025" lat="69.1772249979" lon="20.2546833238">
		<tag k="name" v="Oksefjellsmåvatnan - Härkävaaranjärvet" />
		<tag k="name:fkv" v="Härkävaaranjärvet" />
		<tag k="name:no" v="Oksefjellsmåvatnan" />
		<tag k="natural" v="water" />
		<tag k="ssr:stedsnr" v="929293" />
	</node>
	<node id="-769024" lat="69.0672500042" lon="20.2516555465">
		<tag k="name" v="Visieđggajohka" />
		<tag k="name:se" v="Visieđggajohka" />
		<tag k="ssr:stedsnr" v="929244" />
		<tag k="waterway" v="river" />
	</node>
	<node id="-769021" lat="69.2852361111" lon="20.8259888548">
		<tag k="name" v="Bajimus Rovvejávri" />
		<tag k="name:se" v="Bajimus Rovvejávri" />
		<tag k="natural" v="water" />
		<tag k="old_name:se" v="Rovvejávri, bajimus" />
		<tag k="ssr:stedsnr" v="928670" />
		<tag k="water" v="lake" />
	</node>
	<node id="-769020" lat="69.2843944423" lon="20.5009805329">
		<tag k="name" v="Steinelva" />
		<tag k="ssr:stedsnr" v="928665" />
		<tag k="waterway" v="stream" />
	</node>
	<node id="-769019" lat="69.3037666682" lon="20.4662249764">
		<tag k="name" v="Ákšogaikunskáidi" />
		<tag k="name:se" v="Ákšogaikunskáidi" />
		<tag k="natural" v="cape" />
		<tag k="ssr:stedsnr" v="928505" />
	</node>
	<node id="-769015" lat="69.313619448" lon="20.2672777516">
		<tag k="name" v="Kielva - Gihccejohka - Kitsijoki" />
		<tag k="name:fkv" v="Kitsijoki" />
		<tag k="name:no" v="Kielva" />
		<tag k="name:se" v="Gihccejohka" />
		<tag k="ssr:stedsnr" v="928398" />
		<tag k="waterway" v="river" />
	</node>
	<node id="-769014" lat="69.3324111112" lon="20.3288472044">
		<tag k="alt_name:no" v="Isaksteinen" />
		<tag k="name" v="Isakstein - Iisakinkivi" />
		<tag k="name:fkv" v="Iisakinkivi" />
		<tag k="name:no" v="Isakstein" />
		<tag k="place" v="islet" />
		<tag k="ssr:stedsnr" v="928385" />
	</node>
	<node id="-769013" lat="69.300830557" lon="19.8258888854">
		<tag k="name" v="Gievdnejohka" />
		<tag k="name:se" v="Gievdnejohka" />
		<tag k="ssr:stedsnr" v="928357" />
		<tag k="waterway" v="stream" />
	</node>
	<node id="-769009" lat="69.1222749996" lon="20.3881221915">
		<tag k="name" v="Breidalselva - Govdajohka" />
		<tag k="name:no" v="Breidalselva" />
		<tag k="name:se" v="Govdajohka" />
		<tag k="old_name:no" v="Breiddalselva" />
		<tag k="ssr:stedsnr" v="928248" />
		<tag k="waterway" v="river" />
	</node>
	<node id="-768986" lat="69.1977166695" lon="19.992286109">
		<tag k="name" v="Gustavbergan" />
		<tag k="ssr:stedsnr" v="904479" />
		<tag k="waterway" v="stream" />
	</node>
	<node id="-768983" lat="69.2598555559" lon="19.8901527585">
		<tag k="name" v="Skáidi" />
		<tag k="name:se" v="Skáidi" />
		<tag k="natural" v="cape" />
		<tag k="ssr:stedsnr" v="904410" />
	</node>
	<node id="-768979" lat="69.3785222215" lon="20.2168610934">
		<tag k="name" v="Starkbekken" />
		<tag k="ssr:stedsnr" v="904241" />
		<tag k="waterway" v="stream" />
	</node>
	<node id="-768971" lat="69.3526805549" lon="20.2465666565">
		<tag k="name" v="Storskredelva" />
		<tag k="ssr:stedsnr" v="904013" />
		<tag k="waterway" v="stream" />
	</node>
	<node id="-768968" lat="69.334577774" lon="20.318547208">
		<tag k="name" v="Haskiholmen - Haskisaari" />
		<tag k="name:fkv" v="Haskisaari" />
		<tag k="name:no" v="Haskiholmen" />
		<tag k="place" v="islet" />
		<tag k="ssr:stedsnr" v="881420" />
	</node>
	<node id="-768967" lat="69.302419445" lon="20.3991444245">
		<tag k="name" v="Ala-Potka" />
		<tag k="name:fkv" v="Ala-Potka" />
		<tag k="place" v="islet" />
		<tag k="ssr:stedsnr" v="881357" />
	</node>
	<node id="-768966" lat="69.2944000034" lon="20.4145721977">
		<tag k="name" v="Iso-Potka" />
		<tag k="name:fkv" v="Iso-Potka" />
		<tag k="place" v="islet" />
		<tag k="ssr:stedsnr" v="881348" />
	</node>
	<node id="-768965" lat="69.3538000045" lon="20.2528444297">
		<tag k="name" v="Haasielva - Haasionjoki" />
		<tag k="name:fkv" v="Haasionjoki" />
		<tag k="name:no" v="Haasielva" />
		<tag k="ssr:stedsnr" v="881199" />
		<tag k="waterway" v="stream" />
	</node>
	<node id="-768961" lat="69.2298388875" lon="20.6077777442">
		<tag k="name" v="Buvssasláddu" />
		<tag k="name:se" v="Buvssasláddu" />
		<tag k="natural" v="water" />
		<tag k="ssr:stedsnr" v="869988" />
	</node>
	<node id="-768956" lat="69.1844111089" lon="20.8328083138">
		<tag k="name" v="Biedjojohka" />
		<tag k="name:se" v="Biedjojohka" />
		<tag k="ssr:stedsnr" v="869468" />
		<tag k="waterway" v="river" />
	</node>
	<node id="-768955" lat="69.1472388898" lon="20.7390916389">
		<tag k="name" v="Sallojohka" />
		<tag k="name:se" v="Sallojohka" />
		<tag k="ssr:stedsnr" v="868940" />
		<tag k="waterway" v="river" />
	</node>
	<node id="-768954" lat="69.1525500046" lon="20.9217999812">
		<tag k="name" v="Vuolit Gáhkkorjávri" />
		<tag k="name:se" v="Vuolit Gáhkkorjávri" />
		<tag k="natural" v="water" />
		<tag k="old_name:se" v="Gáhkkorjávri, vuolit" />
		<tag k="ssr:stedsnr" v="868934" />
		<tag k="water" v="lake" />
	</node>
	<node id="-768946" lat="69.3195750008" lon="20.6326666338">
		<tag k="name" v="Stálujávri" />
		<tag k="name:se" v="Stálujávri" />
		<tag k="natural" v="water" />
		<tag k="ssr:stedsnr" v="868537" />
	</node>
	<node id="-768945" lat="69.2968833317" lon="20.6181888762">
		<tag k="name" v="Doaresjávrrit" />
		<tag k="name:se" v="Doaresjávrrit" />
		<tag k="natural" v="water" />
		<tag k="ssr:stedsnr" v="868529" />
	</node>
	<node id="-768944" lat="69.364424997" lon="19.9256971965">
		<tag k="name" v="Imajávri" />
		<tag k="name:se" v="Imajávri" />
		<tag k="natural" v="water" />
		<tag k="ssr:stedsnr" v="868493" />
		<tag k="water" v="lake" />
	</node>
	<node id="-768939" lat="69.3566777816" lon="20.3104027548">
		<tag k="name" v="Lomvatnet - Kaakkurijärvi" />
		<tag k="name:fkv" v="Kaakkurijärvi" />
		<tag k="name:no" v="Lomvatnet" />
		<tag k="natural" v="water" />
		<tag k="ssr:stedsnr" v="868454" />
	</node>
	<node id="-768933" lat="69.2439805591" lon="20.0351499781">
		<tag k="alt_name:no" v="Kitdalelva;Kittelva" />
		<tag k="fixme" v="multiple name tags, choose one and add the other to alt_name" />
		<tag k="name" v="Kitdalselva - Čoaigedanvuovddijohka - Soiketanouanjoki;Soiketanjoki" />
		<tag k="name:fkv" v="Soiketanouanjoki;Soiketanjoki" />
		<tag k="name:no" v="Kitdalselva" />
		<tag k="name:se" v="Čoaigedanvuovddijohka" />
		<tag k="ssr:stedsnr" v="868367" />
		<tag k="waterway" v="river" />
	</node>
	<node id="-768930" lat="69.2068999971" lon="19.9890083133">
		<tag k="name" v="Knivbekken" />
		<tag k="ssr:stedsnr" v="868333" />
		<tag k="waterway" v="stream" />
	</node>
	<node id="-768924" lat="69.2663416707" lon="19.775074985">
		<tag k="name" v="Rieppevatnet - Riehpijávri" />
		<tag k="name:no" v="Rieppevatnet" />
		<tag k="name:se" v="Riehpijávri" />
		<tag k="natural" v="water" />
		<tag k="ssr:stedsnr" v="868311" />
		<tag k="water" v="lake" />
	</node>
	<node id="-768917" lat="69.1112333305" lon="20.4006083184">
		<tag k="name" v="Rávdoluoppal" />
		<tag k="name:se" v="Rávdoluoppal" />
		<tag k="place" v="locality" />
		<tag k="ssr:stedsnr" v="868279" />
	</node>
	<node id="-768915" lat="69.0863527773" lon="20.3371249705">
		<tag k="name" v="Lássájohka" />
		<tag k="name:se" v="Lássájohka" />
		<tag k="ssr:stedsnr" v="868241" />
		<tag k="waterway" v="river" />
	</node>
	<node id="-768899" lat="69.2389027747" lon="19.9444388855">
		<tag k="name" v="Lapingárdi" />
		<tag k="name:se" v="Lapingárdi" />
		<tag k="natural" v="water" />
		<tag k="ssr:stedsnr" v="844583" />
		<tag k="water" v="lake" />
	</node>
	<node id="-768881" lat="69.2675833378" lon="19.8939055324">
		<tag k="loc_name:se" v="Geavgilgurra" />
		<tag k="name" v="Gávgilgurra" />
		<tag k="name:se" v="Gávgilgurra" />
		<tag k="natural" v="bay" />
		<tag k="ssr:stedsnr" v="843422" />
	</node>
	<node id="-768873" lat="69.1590833324" lon="20.0502888652">
		<tag k="name" v="Russetjønna" />
		<tag k="natural" v="water" />
		<tag k="ssr:stedsnr" v="843357" />
	</node>
	<node id="-768872" lat="69.1699388861" lon="20.0156194199">
		<tag k="name" v="Storsteinen" />
		<tag k="place" v="islet" />
		<tag k="ssr:stedsnr" v="843349" />
	</node>
	<node id="-768867" lat="69.2378527797" lon="20.1842416406">
		<tag k="name" v="Kaarnassuorkinjoki" />
		<tag k="name:fkv" v="Kaarnassuorkinjoki" />
		<tag k="ssr:stedsnr" v="825630" />
		<tag k="waterway" v="river" />
	</node>
	<node id="-768864" lat="69.3281388903" lon="20.3764971952">
		<tag k="name" v="Ylinen Puolamavaaranjärvi" />
		<tag k="name:fkv" v="Ylinen Puolamavaaranjärvi" />
		<tag k="natural" v="water" />
		<tag k="ssr:stedsnr" v="825416" />
	</node>
	<node id="-768860" lat="69.3415055588" lon="19.8967277698">
		<tag k="name" v="Nervatnet - Vuollejávri" />
		<tag k="name:no" v="Nervatnet" />
		<tag k="name:se" v="Vuollejávri" />
		<tag k="natural" v="water" />
		<tag k="ssr:stedsnr" v="821025" />
	</node>
	<node id="-768858" lat="69.3638638896" lon="20.3232166416">
		<tag k="name" v="Suonjujohka - Suoinujoki" />
		<tag k="name:fkv" v="Suoinujoki" />
		<tag k="name:se" v="Suonjujohka" />
		<tag k="ssr:stedsnr" v="820991" />
		<tag k="waterway" v="stream" />
	</node>
	<node id="-768853" lat="69.2231999962" lon="20.4913138687">
		<tag k="name" v="Lávkajávri" />
		<tag k="name:se" v="Lávkajávri" />
		<tag k="natural" v="water" />
		<tag k="ssr:stedsnr" v="808981" />
		<tag k="water" v="lake" />
	</node>
	<node id="-768852" lat="69.2088111163" lon="20.8396555272">
		<tag k="name" v="Biedjojávri" />
		<tag k="name:se" v="Biedjojávri" />
		<tag k="natural" v="water" />
		<tag k="old_name:se" v="Biedojávri" />
		<tag k="ssr:stedsnr" v="808975" />
		<tag k="water" v="lake" />
	</node>
	<node id="-768851" lat="69.1917166696" lon="20.9735416399">
		<tag k="name" v="Njárgajávri" />
		<tag k="name:se" v="Njárgajávri" />
		<tag k="natural" v="water" />
		<tag k="ssr:stedsnr" v="808967" />
	</node>
	<node id="-768849" lat="69.1822027834" lon="20.6905666406">
		<tag k="name" v="Guhkesjávri" />
		<tag k="name:se" v="Guhkesjávri" />
		<tag k="natural" v="water" />
		<tag k="ssr:stedsnr" v="808965" />
	</node>
	<node id="-768848" lat="69.1679138908" lon="20.7481416333">
		<tag k="name" v="Gárdeborluoppal - Lompolanjärvi" />
		<tag k="name:fkv" v="Lompolanjärvi" />
		<tag k="name:se" v="Gárdeborluoppal" />
		<tag k="natural" v="water" />
		<tag k="ssr:stedsnr" v="808960" />
	</node>
	<node id="-768845" lat="69.1611888939" lon="20.7978749708">
		<tag k="name" v="Sáhkkojávri" />
		<tag k="name:se" v="Sáhkkojávri" />
		<tag k="natural" v="water" />
		<tag k="ssr:stedsnr" v="808954" />
	</node>
	<node id="-768844" lat="69.1613055553" lon="20.8046916536">
		<tag k="name" v="Elle-Márjjajávri" />
		<tag k="name:se" v="Elle-Márjjajávri" />
		<tag k="natural" v="water" />
		<tag k="ssr:stedsnr" v="808952" />
	</node>
	<node id="-768839" lat="69.087700003" lon="21.0554277386">
		<tag k="name" v="Duolljehuipojohka" />
		<tag k="name:se" v="Duolljehuipojohka" />
		<tag k="ssr:stedsnr" v="808543" />
		<tag k="waterway" v="river" />
	</node>
	<node id="-768837" lat="69.0513444456" lon="21.0135805374">
		<tag k="name" v="Čoahppeluoppal" />
		<tag k="name:se" v="Čoahppeluoppal" />
		<tag k="natural" v="water" />
		<tag k="ssr:stedsnr" v="808537" />
	</node>
	<node id="-768836" lat="69.0732861125" lon="20.9556638505">
		<tag k="name" v="Gállaluoppal" />
		<tag k="name:se" v="Gállaluoppal" />
		<tag k="natural" v="water" />
		<tag k="ssr:stedsnr" v="808533" />
	</node>
	<node id="-768835" lat="69.0971500029" lon="20.4591611022">
		<tag k="name" v="Doggejohka" />
		<tag k="name:se" v="Doggejohka" />
		<tag k="ssr:stedsnr" v="808523" />
		<tag k="waterway" v="river" />
	</node>
	<node id="-768834" lat="69.1897500022" lon="20.2385749819">
		<tag k="name" v="Čazajávri" />
		<tag k="name:se" v="Čazajávri" />
		<tag k="natural" v="water" />
		<tag k="ssr:stedsnr" v="808325" />
		<tag k="water" v="lake" />
	</node>
	<node id="-768833" lat="69.2547361115" lon="20.5982749726">
		<tag k="name" v="Rovveskáidi" />
		<tag k="name:se" v="Rovveskáidi" />
		<tag k="natural" v="cape" />
		<tag k="ssr:stedsnr" v="807669" />
	</node>
	<node id="-768832" lat="69.2627638912" lon="20.2932888623">
		<tag k="name" v="Nuortaváhjávrrit" />
		<tag k="name:se" v="Nuortaváhjávrrit" />
		<tag k="natural" v="water" />
		<tag k="ssr:stedsnr" v="807574" />
		<tag k="water" v="lake" />
	</node>
	<node id="-768827" lat="69.4032833345" lon="19.9761999851">
		<tag k="name" v="Svartvatnan" />
		<tag k="natural" v="water" />
		<tag k="ssr:stedsnr" v="807467" />
	</node>
	<node id="-768815" lat="69.2258888933" lon="19.9760860922">
		<tag k="alt_name:no" v="Signalelva;Signaldalselva" />
		<tag k="fixme" v="multiple name tags, choose one and add the other to alt_name" />
		<tag k="name" v="Signaldalelva - Čiekŋaleatnu - Singalanjoki;Singalanväylä" />
		<tag k="name:fkv" v="Singalanjoki;Singalanväylä" />
		<tag k="name:no" v="Signaldalelva" />
		<tag k="name:se" v="Čiekŋaleatnu" />
		<tag k="ssr:stedsnr" v="807316" />
		<tag k="waterway" v="river" />
	</node>
	<node id="-768813" lat="69.1697055603" lon="20.1715055376">
		<tag k="name" v="Halordalvatnet" />
		<tag k="natural" v="water" />
		<tag k="ssr:stedsnr" v="807304" />
		<tag k="water" v="lake" />
	</node>
	<node id="-768809" lat="69.2410083317" lon="19.7546805397">
		<tag k="name" v="Kilavatna" />
		<tag k="natural" v="water" />
		<tag k="ssr:stedsnr" v="807181" />
	</node>
	<node id="-768808" lat="69.3560750029" lon="19.896572209">
		<tag k="name" v="Tverrelva - Doaresjohka" />
		<tag k="name:no" v="Tverrelva" />
		<tag k="name:se" v="Doaresjohka" />
		<tag k="ssr:stedsnr" v="807081" />
		<tag k="waterway" v="stream" />
	</node>
	<node id="-768796" lat="69.1207166718" lon="20.1338249785">
		<tag k="name" v="Bråtefloen" />
		<tag k="natural" v="water" />
		<tag k="ssr:stedsnr" v="783709" />
		<tag k="water" v="lake" />
	</node>
	<node id="-768785" lat="69.202963885" lon="20.0029972178">
		<tag k="name" v="Rasbekken" />
		<tag k="ssr:stedsnr" v="783485" />
		<tag k="waterway" v="stream" />
	</node>
	<node id="-768778" lat="69.3334638909" lon="20.3231277726">
		<tag k="name" v="Øvre Haskikulpen" />
		<tag k="place" v="locality" />
		<tag k="ssr:stedsnr" v="783035" />
	</node>
	<node id="-768777" lat="69.3609388886" lon="20.2687249763">
		<tag k="name" v="Magerneset" />
		<tag k="natural" v="cape" />
		<tag k="ssr:stedsnr" v="783007" />
	</node>
	<node id="-768775" lat="69.2240666643" lon="19.9754777517">
		<tag k="name" v="Gugasholmen" />
		<tag k="place" v="islet" />
		<tag k="ssr:stedsnr" v="782451" />
	</node>
	<node id="-768774" lat="69.27161389" lon="19.9563194415">
		<tag k="loc_name:se" v="Ánnjálajohka" />
		<tag k="name" v="Angelelva" />
		<tag k="name:no" v="Angelelva" />
		<tag k="ssr:stedsnr" v="782392" />
		<tag k="waterway" v="stream" />
	</node>
	<node id="-768770" lat="69.2345194436" lon="19.976147197">
		<tag k="name" v="Borrekjosen" />
		<tag k="natural" v="bay" />
		<tag k="ssr:stedsnr" v="782344" />
	</node>
	<node id="-768768" lat="69.3152333341" lon="20.3684722025">
		<tag k="name" v="Lauttauspaikka" />
		<tag k="name:fkv" v="Lauttauspaikka" />
		<tag k="natural" v="beach" />
		<tag k="ssr:stedsnr" v="776973" />
	</node>
	<node id="-768762" lat="69.3616611152" lon="20.2678111088">
		<tag k="name" v="Hiirihaasionmukka" />
		<tag k="name:fkv" v="Hiirihaasionmukka" />
		<tag k="natural" v="bay" />
		<tag k="ssr:stedsnr" v="764115" />
	</node>
	<node id="-768759" lat="69.384324999" lon="20.3284138736">
		<tag k="name" v="Hengen - Henko" />
		<tag k="name:fkv" v="Henko" />
		<tag k="name:no" v="Hengen" />
		<tag k="natural" v="waterfall" />
		<tag k="ssr:stedsnr" v="760910" />
	</node>
	<node id="-768754" lat="69.2431027754" lon="20.74402498">
		<tag k="name" v="Bogivátjávri" />
		<tag k="name:se" v="Bogivátjávri" />
		<tag k="natural" v="water" />
		<tag k="ssr:stedsnr" v="747991" />
	</node>
	<node id="-768753" lat="69.2097000047" lon="20.6905055303">
		<tag k="name" v="Helligskogvatnet - Basejávri" />
		<tag k="name:no" v="Helligskogvatnet" />
		<tag k="name:se" v="Basejávri" />
		<tag k="natural" v="water" />
		<tag k="ssr:stedsnr" v="747981" />
		<tag k="water" v="lake" />
	</node>
	<node id="-768750" lat="69.1412388903" lon="20.7990805277">
		<tag k="name" v="Gárášjohka" />
		<tag k="name:se" v="Gárášjohka" />
		<tag k="ssr:stedsnr" v="747948" />
		<tag k="waterway" v="stream" />
	</node>
	<node id="-768748" lat="69.0645583347" lon="20.5065999895">
		<tag k="loc_name:fkv" v="Kolttajärvi" />
		<tag k="name" v="Golddajávri" />
		<tag k="name:se" v="Golddajávri" />
		<tag k="natural" v="water" />
		<tag k="ssr:stedsnr" v="747536" />
		<tag k="water" v="lake" />
	</node>
	<node id="-768743" lat="69.1110000026" lon="20.8824083188">
		<tag k="name" v="Fiehtarjohka" />
		<tag k="name:se" v="Fiehtarjohka" />
		<tag k="ssr:stedsnr" v="747521" />
		<tag k="waterway" v="stream" />
	</node>
	<node id="-768724" lat="69.2748749973" lon="20.3993722133">
		<tag k="fixme" v="multiple name tags, choose one and add the other to alt_name" />
		<tag k="name" v="Norddalselva - Nuortaváhjohka - Nuorttujoki;Nuorttuvakanjoki" />
		<tag k="name:fkv" v="Nuorttujoki;Nuorttuvakanjoki" />
		<tag k="name:no" v="Norddalselva" />
		<tag k="name:se" v="Nuortaváhjohka" />
		<tag k="ssr:stedsnr" v="746397" />
		<tag k="waterway" v="river" />
	</node>
	<node id="-768720" lat="69.2990500014" lon="19.8585638858">
		<tag k="name" v="Galbmajohka" />
		<tag k="name:se" v="Galbmajohka" />
		<tag k="ssr:stedsnr" v="746368" />
		<tag k="waterway" v="stream" />
	</node>
	<node id="-768716" lat="69.1671666668" lon="20.2298305451">
		<tag k="name" v="Poikkiharjunjärvi" />
		<tag k="name:fkv" v="Poikkiharjunjärvi" />
		<tag k="natural" v="water" />
		<tag k="ssr:stedsnr" v="746306" />
	</node>
	<node id="-768715" lat="69.0919444426" lon="20.0112249797">
		<tag k="name" v="Finnelvvatnet - Gievdneváhjávri" />
		<tag k="name:no" v="Finnelvvatnet" />
		<tag k="name:se" v="Gievdneváhjávri" />
		<tag k="natural" v="water" />
		<tag k="ssr:stedsnr" v="746287" />
		<tag k="water" v="lake" />
	</node>
	<node id="-768713" lat="69.1304972195" lon="20.166174974">
		<tag k="alt_name:no" v="Markuselva, nedre" />
		<tag k="name" v="Nedre Markuselva - Skurčojohka" />
		<tag k="name:no" v="Nedre Markuselva" />
		<tag k="name:se" v="Skurčojohka" />
		<tag k="ssr:stedsnr" v="746271" />
		<tag k="waterway" v="river" />
	</node>
	<node id="-768711" lat="69.0866305597" lon="20.0681138755">
		<tag k="fixme" v="multiple name tags, choose one and add the other to alt_name" />
		<tag k="name" v="Finnelva;Nedre Finnelv - Gievdneváhjohka" />
		<tag k="name:no" v="Finnelva;Nedre Finnelv" />
		<tag k="name:se" v="Gievdneváhjohka" />
		<tag k="ssr:stedsnr" v="746259" />
		<tag k="waterway" v="stream" />
	</node>
	<node id="-768709" lat="69.1181361153" lon="20.1851999897">
		<tag k="name" v="Stordalselva - Bulljaraseatnu" />
		<tag k="name:no" v="Stordalselva" />
		<tag k="name:se" v="Bulljaraseatnu" />
		<tag k="ssr:stedsnr" v="746070" />
		<tag k="waterway" v="river" />
	</node>
	<node id="-768691" lat="69.2434250047" lon="19.9473805437">
		<tag k="loc_name:se" v="Ruovdesuolu" />
		<tag k="name" v="Jarnholmen" />
		<tag k="name:no" v="Jarnholmen" />
		<tag k="place" v="islet" />
		<tag k="ssr:stedsnr" v="722596" />
	</node>
	<node id="-768677" lat="69.2746888906" lon="19.8676916448">
		<tag k="loc_name:se" v="Áhkejávri" />
		<tag k="name" v="Akevatnet" />
		<tag k="name:no" v="Akevatnet" />
		<tag k="natural" v="water" />
		<tag k="ssr:stedsnr" v="721415" />
	</node>
	<node id="-768670" lat="69.2582999975" lon="19.925099997">
		<tag k="name" v="Girkonjárga - Kirkkoniemi" />
		<tag k="name:fkv" v="Kirkkoniemi" />
		<tag k="name:se" v="Girkonjárga" />
		<tag k="natural" v="cape" />
		<tag k="ssr:stedsnr" v="703408" />
	</node>
	<node id="-768656" lat="69.2423750034" lon="20.5673916399">
		<tag k="name" v="Lávkaskáidi" />
		<tag k="name:se" v="Lávkaskáidi" />
		<tag k="natural" v="cape" />
		<tag k="ssr:stedsnr" v="687991" />
	</node>
	<node id="-768651" lat="69.1579416635" lon="20.4585916509">
		<tag k="name" v="Ragatjávri" />
		<tag k="name:se" v="Ragatjávri" />
		<tag k="natural" v="water" />
		<tag k="ssr:stedsnr" v="686953" />
		<tag k="water" v="lake" />
	</node>
	<node id="-768650" lat="69.1542333364" lon="20.6615666357">
		<tag k="name" v="Bajit Sallojohka" />
		<tag k="name:se" v="Bajit Sallojohka" />
		<tag k="old_name:se" v="Sallojohka, bajit" />
		<tag k="ssr:stedsnr" v="686950" />
		<tag k="waterway" v="stream" />
	</node>
	<node id="-768649" lat="69.1454916677" lon="20.7942083">
		<tag k="alt_name:se" v="Pierajohka" />
		<tag k="name" v="Bierajohka" />
		<tag k="name:se" v="Bierajohka" />
		<tag k="ssr:stedsnr" v="686947" />
		<tag k="waterway" v="stream" />
	</node>
	<node id="-768647" lat="69.1267388931" lon="21.0028555327">
		<tag k="name" v="Nigošjávri" />
		<tag k="name:se" v="Nigošjávri" />
		<tag k="natural" v="water" />
		<tag k="ssr:stedsnr" v="686937" />
	</node>
	<node id="-768646" lat="69.2706583324" lon="20.6894194285">
		<tag k="name" v="Rovvejohluoppal" />
		<tag k="name:se" v="Rovvejohluoppal" />
		<tag k="place" v="locality" />
		<tag k="ssr:stedsnr" v="686716" />
	</node>
	<node id="-768634" lat="69.0813777793" lon="21.0130610865">
		<tag k="name" v="Sáđgejávri" />
		<tag k="name:se" v="Sáđgejávri" />
		<tag k="natural" v="water" />
		<tag k="ssr:stedsnr" v="686551" />
		<tag k="water" v="lake" />
	</node>
	<node id="-768632" lat="69.0856416664" lon="20.5589555458">
		<tag k="name" v="Golddaláhkojávri" />
		<tag k="name:se" v="Golddaláhkojávri" />
		<tag k="natural" v="water" />
		<tag k="ssr:stedsnr" v="686547" />
	</node>
	<node id="-768611" lat="69.1991250007" lon="19.9514527751">
		<tag k="name" v="Luppoelva - Luhppujohka" />
		<tag k="name:no" v="Luppoelva" />
		<tag k="name:se" v="Luhppujohka" />
		<tag k="ssr:stedsnr" v="686320" />
		<tag k="waterway" v="stream" />
	</node>
	<node id="-768609" lat="69.1776694471" lon="20.0325888762">
		<tag k="name" v="Mannfjellelva" />
		<tag k="ssr:stedsnr" v="686293" />
		<tag k="waterway" v="stream" />
	</node>
	<node id="-768608" lat="69.1890416646" lon="20.2779222004">
		<tag k="name" v="Govdajárnjárga" />
		<tag k="name:se" v="Govdajárnjárga" />
		<tag k="natural" v="cape" />
		<tag k="ssr:stedsnr" v="686288" />
	</node>
	<node id="-768607" lat="69.1779722189" lon="20.0011888799">
		<tag k="loc_name:se" v="Gávalmohkki" />
		<tag k="name" v="Storattkjippa" />
		<tag k="name:no" v="Storattkjippa" />
		<tag k="place" v="locality" />
		<tag k="ssr:stedsnr" v="686286" />
	</node>
	<node id="-768605" lat="69.0989500009" lon="20.3589221953">
		<tag k="name" v="Mallajávrrit" />
		<tag k="name:se" v="Mallajávrrit" />
		<tag k="natural" v="water" />
		<tag k="ssr:stedsnr" v="686274" />
		<tag k="water" v="lake" />
	</node>
	<node id="-768602" lat="69.1206833336" lon="20.402108307">
		<tag k="name" v="Ragatjohka" />
		<tag k="name:se" v="Ragatjohka" />
		<tag k="ssr:stedsnr" v="686268" />
		<tag k="waterway" v="river" />
	</node>
	<node id="-768601" lat="69.0589527778" lon="20.2577027615">
		<tag k="name" v="Gáhppojohka" />
		<tag k="name:se" v="Gáhppojohka" />
		<tag k="ssr:stedsnr" v="686254" />
		<tag k="waterway" v="river" />
	</node>
	<node id="-768596" lat="69.1691111157" lon="20.3592777528">
		<tag k="name" v="Ruovddášjávri" />
		<tag k="name:se" v="Ruovddášjávri" />
		<tag k="natural" v="water" />
		<tag k="ssr:stedsnr" v="685305" />
	</node>
	<node id="-768584" lat="69.2965472233" lon="20.4127638679">
		<tag k="name" v="Buollánsuolu" />
		<tag k="name:se" v="Buollánsuolu" />
		<tag k="place" v="islet" />
		<tag k="ssr:stedsnr" v="661962" />
	</node>
	<node id="-768582" lat="69.1537305549" lon="20.7712194204">
		<tag k="name" v="Peianlantto" />
		<tag k="name:fkv" v="Peianlantto" />
		<tag k="natural" v="water" />
		<tag k="ssr:stedsnr" v="661914" />
	</node>
	<node id="-768571" lat="69.2394111114" lon="19.9467916564">
		<tag k="name" v="Hoppaneset" />
		<tag k="natural" v="cape" />
		<tag k="ssr:stedsnr" v="661539" />
	</node>
	<node id="-768569" lat="69.374191664" lon="19.9877138667">
		<tag k="name" v="Heikájávri" />
		<tag k="natural" v="water" />
		<tag k="ssr:stedsnr" v="661523" />
	</node>
	<node id="-768563" lat="69.2014166679" lon="19.9809083213">
		<tag k="loc_name:se" v="Luhpponjárga" />
		<tag k="name" v="Lupponeset" />
		<tag k="name:no" v="Lupponeset" />
		<tag k="natural" v="cape" />
		<tag k="ssr:stedsnr" v="661462" />
	</node>
	<node id="-768561" lat="69.2648944459" lon="19.963399981">
		<tag k="loc_name:se" v="Beahkájorbmi" />
		<tag k="name" v="Pekkajorma" />
		<tag k="name:fkv" v="Pekkajorma" />
		<tag k="place" v="locality" />
		<tag k="ssr:stedsnr" v="661404" />
	</node>
	<node id="-768558" lat="69.1805861112" lon="20.0220222116">
		<tag k="name" v="Øvste Stormyrbekk" />
		<tag k="ssr:stedsnr" v="661344" />
		<tag k="waterway" v="stream" />
	</node>
	<node id="-768557" lat="69.1816277766" lon="20.00054166">
		<tag k="name" v="Heggelundkjosen" />
		<tag k="natural" v="bay" />
		<tag k="ssr:stedsnr" v="661343" />
	</node>
	<node id="-768551" lat="69.3212444468" lon="19.8710666653">
		<tag k="name" v="Dalbukta" />
		<tag k="natural" v="bay" />
		<tag k="ssr:stedsnr" v="660415" />
	</node>
	<node id="-768548" lat="69.3469305567" lon="19.8959472136">
		<tag k="loc_name:se" v="Rássenjárga" />
		<tag k="name" v="Rasseneset" />
		<tag k="name:no" v="Rasseneset" />
		<tag k="natural" v="cape" />
		<tag k="ssr:stedsnr" v="660408" />
	</node>
	<node id="-768540" lat="69.2291249969" lon="20.157986103">
		<tag k="loc_name:se" v="Gaskasuorggijohka" />
		<tag k="name" v="Midterelva - Keskisuorkinjoki" />
		<tag k="name:fkv" v="Keskisuorkinjoki" />
		<tag k="name:no" v="Midterelva" />
		<tag k="ssr:stedsnr" v="642644" />
		<tag k="waterway" v="river" />
	</node>
	<node id="-768536" lat="69.3686750042" lon="20.1612444402">
		<tag k="name" v="Guršojohka - Kursunjoki" />
		<tag k="name:fkv" v="Kursunjoki" />
		<tag k="name:se" v="Guršojohka" />
		<tag k="ssr:stedsnr" v="642307" />
		<tag k="waterway" v="stream" />
	</node>
	<node id="-768533" lat="69.3351277807" lon="20.3105555385">
		<tag k="name" v="Koijusaari" />
		<tag k="name:fkv" v="Koijusaari" />
		<tag k="place" v="islet" />
		<tag k="ssr:stedsnr" v="642124" />
	</node>
	<node id="-768524" lat="69.1781555516" lon="20.5737610957">
		<tag k="name" v="Rihposkohppejávri" />
		<tag k="name:se" v="Rihposkohppejávri" />
		<tag k="natural" v="water" />
		<tag k="ssr:stedsnr" v="625971" />
		<tag k="water" v="lake" />
	</node>
	<node id="-768522" lat="69.1775305583" lon="20.7402416527">
		<tag k="name" v="Gorsaluoppal" />
		<tag k="name:se" v="Gorsaluoppal" />
		<tag k="natural" v="water" />
		<tag k="ssr:stedsnr" v="625963" />
	</node>
	<node id="-768521" lat="69.155377782" lon="20.9647082966">
		<tag k="name" v="Bajit Gáhkkorjávri" />
		<tag k="name:se" v="Bajit Gáhkkorjávri" />
		<tag k="natural" v="water" />
		<tag k="old_name:se" v="Gáhkkorjávri, bajit" />
		<tag k="ssr:stedsnr" v="625958" />
		<tag k="water" v="lake" />
	</node>
	<node id="-768520" lat="69.1505055553" lon="20.5753749855">
		<tag k="name" v="Salloráššajávrrit" />
		<tag k="name:se" v="Salloráššajávrrit" />
		<tag k="natural" v="water" />
		<tag k="ssr:stedsnr" v="625957" />
		<tag k="water" v="lake" />
	</node>
	<node id="-768512" lat="69.3694916671" lon="19.9605916528">
		<tag k="name" v="Langvatnet - Guhkesjávri" />
		<tag k="name:no" v="Langvatnet" />
		<tag k="name:se" v="Guhkesjávri" />
		<tag k="natural" v="water" />
		<tag k="ssr:stedsnr" v="625480" />
	</node>
	<node id="-768504" lat="69.3348000006" lon="20.3307499718">
		<tag k="fixme" v="multiple name tags, choose one and add the other to alt_name" />
		<tag k="name" v="Haskielva;Haskielva, øvre;Øvre Haskielva - Yli-Haskijoki" />
		<tag k="name:fkv" v="Yli-Haskijoki" />
		<tag k="name:no" v="Haskielva;Haskielva, øvre;Øvre Haskielva" />
		<tag k="ssr:stedsnr" v="625408" />
		<tag k="waterway" v="river" />
	</node>
	<node id="-768494" lat="69.3051833386" lon="20.7754249736">
		<tag k="name" v="Bajit Geasášjávri" />
		<tag k="name:se" v="Bajit Geasášjávri" />
		<tag k="natural" v="water" />
		<tag k="old_name:se" v="Geasásjávri, bajit" />
		<tag k="ssr:stedsnr" v="624539" />
	</node>
	<node id="-768488" lat="69.1517916646" lon="20.2876999895">
		<tag k="name" v="Allibergvatnet" />
		<tag k="natural" v="water" />
		<tag k="ssr:stedsnr" v="624319" />
	</node>
	<node id="-768478" lat="69.3063138865" lon="20.4158721978">
		<tag k="name" v="Tørrelva" />
		<tag k="ssr:stedsnr" v="600986" />
		<tag k="waterway" v="stream" />
	</node>
	<node id="-768466" lat="69.2404138881" lon="19.9569333151">
		<tag k="name" v="Hoppaneskjosen" />
		<tag k="natural" v="bay" />
		<tag k="ssr:stedsnr" v="600544" />
	</node>
	<node id="-768460" lat="69.2252638902" lon="19.9760027749">
		<tag k="loc_name:se" v="Njuorjomohkki" />
		<tag k="name" v="Storbukta" />
		<tag k="name:no" v="Storbukta" />
		<tag k="natural" v="bay" />
		<tag k="ssr:stedsnr" v="600474" />
	</node>
	<node id="-768459" lat="69.2188750043" lon="19.9757972158">
		<tag k="name" v="Siket" />
		<tag k="ssr:stedsnr" v="600472" />
		<tag k="waterway" v="stream" />
	</node>
	<node id="-768455" lat="69.1925833316" lon="19.9467860981">
		<tag k="name" v="Sæterbekken" />
		<tag k="ssr:stedsnr" v="600372" />
		<tag k="waterway" v="stream" />
	</node>
	<node id="-768454" lat="69.1579083349" lon="20.0406194321">
		<tag k="name" v="Renasvingen" />
		<tag k="natural" v="bay" />
		<tag k="ssr:stedsnr" v="600359" />
	</node>
	<node id="-768453" lat="69.1611944451" lon="20.0185583277">
		<tag k="name" v="Signalfossen" />
		<tag k="natural" v="waterfall" />
		<tag k="ssr:stedsnr" v="600358" />
	</node>
	<node id="-768449" lat="69.3736472231" lon="20.262572209">
		<tag k="name" v="Grapeholmen" />
		<tag k="place" v="islet" />
		<tag k="ssr:stedsnr" v="600129" />
	</node>
	<node id="-768442" lat="69.3235027794" lon="19.8408999912">
		<tag k="name" v="Stillvatnan" />
		<tag k="natural" v="water" />
		<tag k="ssr:stedsnr" v="599369" />
		<tag k="water" v="lake" />
	</node>
	<node id="-768434" lat="69.3383027748" lon="19.9319694376">
		<tag k="name" v="Skáidi" />
		<tag k="name:se" v="Skáidi" />
		<tag k="natural" v="cape" />
		<tag k="ssr:stedsnr" v="582402" />
	</node>
	<node id="-768432" lat="69.3574499981" lon="20.2669638605">
		<tag k="name" v="Saviuitto" />
		<tag k="name:fkv" v="Saviuitto" />
		<tag k="natural" v="bay" />
		<tag k="ssr:stedsnr" v="582129" />
	</node>
	<node id="-768428" lat="69.3768222224" lon="20.2734805296">
		<tag k="name" v="Venejurma" />
		<tag k="name:fkv" v="Venejurma" />
		<tag k="place" v="locality" />
		<tag k="ssr:stedsnr" v="581198" />
	</node>
	<node id="-768426" lat="69.3288472238" lon="20.3372583175">
		<tag k="name" v="Iisakinkivi" />
		<tag k="name:fkv" v="Iisakinkivi" />
		<tag k="place" v="locality" />
		<tag k="ssr:stedsnr" v="581108" />
	</node>
	<node id="-768420" lat="69.3406027793" lon="20.2983944313">
		<tag k="loc_name:no" v="Stælli" />
		<tag k="name" v="Stealli - Ställi" />
		<tag k="name:fkv" v="Ställi" />
		<tag k="name:se" v="Stealli" />
		<tag k="place" v="locality" />
		<tag k="ssr:stedsnr" v="577454" />
	</node>
	<node id="-768419" lat="69.2562805525" lon="19.8738138738">
		<tag k="name" v="Sommarsetelva - Geassesajijohka - Paatsivuononjoki" />
		<tag k="name:fkv" v="Paatsivuononjoki" />
		<tag k="name:no" v="Sommarsetelva" />
		<tag k="name:se" v="Geassesajijohka" />
		<tag k="ssr:stedsnr" v="577136" />
		<tag k="waterway" v="river" />
	</node>
	<node id="-768413" lat="69.2437416638" lon="20.5789971894">
		<tag k="alt_name:se" v="Riehppejohka" />
		<tag k="name" v="Rihpojohka" />
		<tag k="name:se" v="Rihpojohka" />
		<tag k="ssr:stedsnr" v="565994" />
		<tag k="waterway" v="river" />
	</node>
	<node id="-768409" lat="69.198980554" lon="20.9606360844">
		<tag k="name" v="Skihpajohka" />
		<tag k="name:se" v="Skihpajohka" />
		<tag k="ssr:stedsnr" v="565972" />
		<tag k="waterway" v="river" />
	</node>
	<node id="-768400" lat="69.2566055593" lon="20.8495638754">
		<tag k="name" v="Stuora Ráššajávri" />
		<tag k="name:se" v="Stuora Ráššajávri" />
		<tag k="natural" v="water" />
		<tag k="old_name:se" v="Ráššajávri, stuora" />
		<tag k="ssr:stedsnr" v="564675" />
		<tag k="water" v="lake" />
	</node>
	<node id="-768395" lat="69.3520055601" lon="20.3301360969">
		<tag k="alt_name:no" v="Øvrevatnet" />
		<tag k="name" v="Øvstevatnet - Bajit Ivgujávri - Ylijärvi" />
		<tag k="name:fkv" v="Ylijärvi" />
		<tag k="name:no" v="Øvstevatnet" />
		<tag k="name:se" v="Bajit Ivgujávri" />
		<tag k="natural" v="water" />
		<tag k="ssr:stedsnr" v="564477" />
		<tag k="water" v="lake" />
	</node>
	<node id="-768388" lat="69.2619500034" lon="19.8493777673">
		<tag k="name" v="Akselelva - Oalggijohka" />
		<tag k="name:no" v="Akselelva" />
		<tag k="name:se" v="Oalggijohka" />
		<tag k="ssr:stedsnr" v="564414" />
		<tag k="waterway" v="stream" />
	</node>
	<node id="-768381" lat="69.3153805574" lon="20.4061638609">
		<tag k="alt_name:no" v="Kavelelva" />
		<tag k="name" v="Kavleelva - Kaavelinjoki" />
		<tag k="name:fkv" v="Kaavelinjoki" />
		<tag k="name:no" v="Kavleelva" />
		<tag k="ssr:stedsnr" v="564381" />
		<tag k="waterway" v="stream" />
	</node>
	<node id="-768376" lat="69.2084861127" lon="19.9721138654">
		<tag k="loc_name:se" v="Sahágurti" />
		<tag k="name" v="Sagfossen" />
		<tag k="name:no" v="Sagfossen" />
		<tag k="natural" v="waterfall" />
		<tag k="ssr:stedsnr" v="564353" />
	</node>
	<node id="-768371" lat="69.1877249974" lon="20.1348583044">
		<tag k="name" v="Fiskelaus" />
		<tag k="natural" v="water" />
		<tag k="ssr:stedsnr" v="564304" />
	</node>
	<node id="-768369" lat="69.143483334" lon="20.1182527719">
		<tag k="name" v="Markusvatna" />
		<tag k="natural" v="water" />
		<tag k="ssr:stedsnr" v="564298" />
	</node>
	<node id="-768368" lat="69.1475833376" lon="20.322774984">
		<tag k="name" v="Varitlanjajohka" />
		<tag k="name:se" v="Varitlanjajohka" />
		<tag k="ssr:stedsnr" v="564294" />
		<tag k="waterway" v="stream" />
	</node>
	<node id="-768365" lat="69.3172166686" lon="19.7693777547">
		<tag k="loc_name:se" v="Rievssatjávri" />
		<tag k="name" v="Rypedalsvatnet" />
		<tag k="name:no" v="Rypedalsvatnet" />
		<tag k="natural" v="water" />
		<tag k="ssr:stedsnr" v="564117" />
		<tag k="water" v="lake" />
	</node>
	<node id="-768355" lat="69.3010749974" lon="20.3997638647">
		<tag k="name" v="Margretefossen" />
		<tag k="natural" v="waterfall" />
		<tag k="ssr:stedsnr" v="540955" />
	</node>
	<node id="-768354" lat="69.1271666639" lon="20.7564833025">
		<tag k="name" v="Myggbukta" />
		<tag k="natural" v="bay" />
		<tag k="ssr:stedsnr" v="540897" />
	</node>
	<node id="-768341" lat="69.2045944427" lon="19.9722833285">
		<tag k="name" v="Luppotjønna" />
		<tag k="natural" v="water" />
		<tag k="ssr:stedsnr" v="540511" />
	</node>
	<node id="-768337" lat="69.1833694469" lon="19.9897194234">
		<tag k="name" v="Heggelundtjønna" />
		<tag k="natural" v="water" />
		<tag k="ssr:stedsnr" v="540358" />
	</node>
	<node id="-768333" lat="69.3253166638" lon="20.3502333242">
		<tag k="name" v="Allionjurma" />
		<tag k="name:fkv" v="Allionjurma" />
		<tag k="natural" v="water" />
		<tag k="ssr:stedsnr" v="540238" />
		<tag k="water" v="lake" />
	</node>
	<node id="-768325" lat="69.3327222258" lon="20.316624986">
		<tag k="name" v="Rotkulpen" />
		<tag k="place" v="locality" />
		<tag k="ssr:stedsnr" v="540053" />
	</node>
	<node id="-768320" lat="69.1888694493" lon="19.9570027603">
		<tag k="name" v="Haugbekken" />
		<tag k="ssr:stedsnr" v="539344" />
		<tag k="waterway" v="stream" />
	</node>
	<node id="-768312" lat="69.3294027796" lon="20.0432999897">
		<tag k="name" v="Horsnesvatnet - Jávri - Järvi" />
		<tag k="name:fkv" v="Järvi" />
		<tag k="name:no" v="Horsnesvatnet" />
		<tag k="name:se" v="Jávri" />
		<tag k="natural" v="water" />
		<tag k="ssr:stedsnr" v="521634" />
	</node>
	<node id="-768308" lat="69.3538472218" lon="20.2696527541">
		<tag k="name" v="Jensestilla - Jensinsuanto" />
		<tag k="name:fkv" v="Jensinsuanto" />
		<tag k="name:no" v="Jensestilla" />
		<tag k="natural" v="water" />
		<tag k="ssr:stedsnr" v="521118" />
		<tag k="water" v="lake" />
	</node>
	<node id="-768306" lat="69.3593166637" lon="20.2671027545">
		<tag k="fixme" v="multiple name tags, choose one and add the other to alt_name" />
		<tag k="name" v="Fossesteinen - Karvosenkivi;Koskenkivi" />
		<tag k="name:fkv" v="Karvosenkivi;Koskenkivi" />
		<tag k="name:no" v="Fossesteinen" />
		<tag k="place" v="islet" />
		<tag k="ssr:stedsnr" v="521113" />
	</node>
	<node id="-768305" lat="69.3462611144" lon="20.3536694267">
		<tag k="name" v="Haskijoet" />
		<tag k="name:fkv" v="Haskijoet" />
		<tag k="ssr:stedsnr" v="521082" />
		<tag k="waterway" v="stream" />
	</node>
	<node id="-768304" lat="69.3400027762" lon="20.3073277484">
		<tag k="name" v="Goaki - Kuokkilantto" />
		<tag k="name:fkv" v="Kuokkilantto" />
		<tag k="name:no" v="Goaki" />
		<tag k="natural" v="water" />
		<tag k="ssr:stedsnr" v="521077" />
	</node>
	<node id="-768303" lat="69.4294250017" lon="20.3636916597">
		<tag k="name" v="Larspahanjoki" />
		<tag k="name:fkv" v="Larspahanjoki" />
		<tag k="ssr:stedsnr" v="517904" />
		<tag k="waterway" v="river" />
	</node>
	<node id="-768298" lat="69.2413861108" lon="20.9602555244">
		<tag k="name" v="Skihpajávri" />
		<tag k="name:se" v="Skihpajávri" />
		<tag k="natural" v="water" />
		<tag k="ssr:stedsnr" v="505986" />
	</node>
	<node id="-768295" lat="69.2380638884" lon="20.5133194294">
		<tag k="name" v="Lávkaluoppal" />
		<tag k="name:se" v="Lávkaluoppal" />
		<tag k="natural" v="water" />
		<tag k="ssr:stedsnr" v="504998" />
	</node>
	<node id="-768294" lat="69.1575055544" lon="20.8422499771">
		<tag k="name" v="Leattajohka" />
		<tag k="name:se" v="Leattajohka" />
		<tag k="ssr:stedsnr" v="504966" />
		<tag k="waterway" v="stream" />
	</node>
	<node id="-768293" lat="69.1492166711" lon="20.7021749727">
		<tag k="name" v="Sallojávri" />
		<tag k="name:se" v="Sallojávri" />
		<tag k="natural" v="water" />
		<tag k="ssr:stedsnr" v="504965" />
		<tag k="water" v="lake" />
	</node>
	<node id="-768292" lat="69.1365638857" lon="20.7126805398">
		<tag k="name" v="Moalkejávri" />
		<tag k="name:se" v="Moalkejávri" />
		<tag k="natural" v="water" />
		<tag k="ssr:stedsnr" v="504958" />
	</node>
	<node id="-768290" lat="69.1165305612" lon="20.6815277457">
		<tag k="name" v="Bossojohka" />
		<tag k="name:se" v="Bossojohka" />
		<tag k="ssr:stedsnr" v="504950" />
		<tag k="waterway" v="river" />
	</node>
	<node id="-768289" lat="69.2653083325" lon="20.6118638729">
		<tag k="name" v="Doggejohka" />
		<tag k="name:se" v="Doggejohka" />
		<tag k="ssr:stedsnr" v="504715" />
		<tag k="waterway" v="stream" />
	</node>
	<node id="-768288" lat="69.2555999972" lon="20.8755944188">
		<tag k="name" v="Ráššajárnjárga" />
		<tag k="name:se" v="Ráššajárnjárga" />
		<tag k="natural" v="cape" />
		<tag k="ssr:stedsnr" v="504703" />
	</node>
	<node id="-768286" lat="69.2335694456" lon="20.5267527511">
		<tag k="name" v="Lávkajohka" />
		<tag k="name:se" v="Lávkajohka" />
		<tag k="ssr:stedsnr" v="504697" />
		<tag k="waterway" v="river" />
	</node>
	<node id="-768285" lat="69.2536416698" lon="20.5657972002">
		<tag k="name" v="Lávkaskáidi" />
		<tag k="name:se" v="Lávkaskáidi" />
		<tag k="natural" v="cape" />
		<tag k="ssr:stedsnr" v="504695" />
	</node>
	<node id="-768278" lat="69.0655833313" lon="20.9834749825">
		<tag k="name" v="Čoahppejohka" />
		<tag k="name:se" v="Čoahppejohka" />
		<tag k="ssr:stedsnr" v="504558" />
		<tag k="waterway" v="river" />
	</node>
	<node id="-768270" lat="69.3644444428" lon="20.2976555389">
		<tag k="alt_name:no" v="Nedrevatnet" />
		<tag k="name" v="Nedstevatnet - Vuolit Ivgujávri - Aläjärvi" />
		<tag k="name:fkv" v="Aläjärvi" />
		<tag k="name:no" v="Nedstevatnet" />
		<tag k="name:se" v="Vuolit Ivgujávri" />
		<tag k="natural" v="water" />
		<tag k="ssr:stedsnr" v="504455" />
	</node>
	<node id="-768259" lat="69.2237777768" lon="19.8721110935">
		<tag k="name" v="Mortendalselva - Márttaváhjohka" />
		<tag k="name:no" v="Mortendalselva" />
		<tag k="name:se" v="Márttaváhjohka" />
		<tag k="ssr:stedsnr" v="504323" />
		<tag k="waterway" v="river" />
	</node>
	<node id="-768256" lat="69.2039500003" lon="20.1044749909">
		<tag k="name" v="Bogelva - Čoamohasjohka" />
		<tag k="name:no" v="Bogelva" />
		<tag k="name:se" v="Čoamohasjohka" />
		<tag k="ssr:stedsnr" v="504301" />
		<tag k="waterway" v="stream" />
	</node>
	<node id="-768254" lat="69.1085250033" lon="20.0751583212">
		<tag k="name" v="Tverrelva - Váddásjohka" />
		<tag k="name:no" v="Tverrelva" />
		<tag k="name:se" v="Váddásjohka" />
		<tag k="ssr:stedsnr" v="504255" />
		<tag k="waterway" v="stream" />
	</node>
	<node id="-768251" lat="69.3037027794" lon="20.7362999679">
		<tag k="name" v="Geasášjohka" />
		<tag k="name:se" v="Geasášjohka" />
		<tag k="old_name:se" v="Geasásjohka" />
		<tag k="ssr:stedsnr" v="503514" />
		<tag k="waterway" v="stream" />
	</node>
	<node id="-768250" lat="69.302300004" lon="20.4387722071">
		<tag k="name" v="Lulleelva - Lullejohka - Lullinjoki" />
		<tag k="name:fkv" v="Lullinjoki" />
		<tag k="name:no" v="Lulleelva" />
		<tag k="name:se" v="Lullejohka" />
		<tag k="ssr:stedsnr" v="503512" />
		<tag k="waterway" v="stream" />
	</node>
	<node id="-768242" lat="69.3109277765" lon="20.4098916427">
		<tag k="name" v="Iselva - Jiekŋajohka - Jääjoki" />
		<tag k="name:fkv" v="Jääjoki" />
		<tag k="name:no" v="Iselva" />
		<tag k="name:se" v="Jiekŋajohka" />
		<tag k="ssr:stedsnr" v="503353" />
		<tag k="waterway" v="stream" />
	</node>
	<node id="-768241" lat="69.1569611104" lon="20.2528222061">
		<tag k="name" v="Varitlanjajávrrit - Mallanjärvet" />
		<tag k="name:fkv" v="Mallanjärvet" />
		<tag k="name:se" v="Varitlanjajávrrit" />
		<tag k="natural" v="water" />
		<tag k="ssr:stedsnr" v="503279" />
		<tag k="water" v="lake" />
	</node>
	<node id="-768230" lat="69.3022638918" lon="20.3956499898">
		<tag k="name" v="Lullinniemi" />
		<tag k="name:fkv" v="Lullinniemi" />
		<tag k="natural" v="cape" />
		<tag k="ssr:stedsnr" v="461437" />
	</node>
	<node id="-768229" lat="69.3394527744" lon="20.2843861005">
		<tag k="name" v="Äimänsaari" />
		<tag k="name:fkv" v="Äimänsaari" />
		<tag k="place" v="islet" />
		<tag k="ssr:stedsnr" v="461030" />
	</node>
	<node id="-768223" lat="69.3123666634" lon="20.0156416439">
		<tag k="name" v="Sisgeažejohka - Sisäpäänjoki" />
		<tag k="name:fkv" v="Sisäpäänjoki" />
		<tag k="name:se" v="Sisgeažejohka" />
		<tag k="ssr:stedsnr" v="461365" />
		<tag k="waterway" v="stream" />
	</node>
	<node id="-768221" lat="69.2967416707" lon="20.4151666525">
		<tag k="name" v="Ylä-Potka" />
		<tag k="name:fkv" v="Ylä-Potka" />
		<tag k="place" v="islet" />
		<tag k="ssr:stedsnr" v="456358" />
	</node>
	<node id="-768215" lat="69.0536916687" lon="21.0549499816">
		<tag k="name" v="Čoahppejávri" />
		<tag k="name:se" v="Čoahppejávri" />
		<tag k="natural" v="water" />
		<tag k="ssr:stedsnr" v="444543" />
		<tag k="water" v="lake" />
	</node>
	<node id="-768213" lat="69.3117749992" lon="20.5342888725">
		<tag k="name" v="Ákšogaikunjohka" />
		<tag k="name:se" v="Ákšogaikunjohka" />
		<tag k="ssr:stedsnr" v="444528" />
		<tag k="waterway" v="stream" />
	</node>
	<node id="-768212" lat="69.2675277738" lon="20.5711638784">
		<tag k="name" v="Čeabetjogat" />
		<tag k="name:se" v="Čeabetjogat" />
		<tag k="ssr:stedsnr" v="443680" />
		<tag k="waterway" v="stream" />
	</node>
	<node id="-768205" lat="69.3488666699" lon="20.271252771">
		<tag k="name" v="Kiholmen - Gihccesuolu - Kitsisaari" />
		<tag k="name:fkv" v="Kitsisaari" />
		<tag k="name:no" v="Kiholmen" />
		<tag k="name:se" v="Gihccesuolu" />
		<tag k="natural" v="cape" />
		<tag k="ssr:stedsnr" v="443468" />
	</node>
	<node id="-768203" lat="69.3545750042" lon="20.1097805383">
		<tag k="name" v="Bentsjordelva - Suollatvákkijohka" />
		<tag k="name:no" v="Bentsjordelva" />
		<tag k="name:se" v="Suollatvákkijohka" />
		<tag k="ssr:stedsnr" v="443463" />
		<tag k="waterway" v="river" />
	</node>
	<node id="-768193" lat="69.304072224" lon="20.3946610914">
		<tag k="name" v="Lullekulpen - Lullinjurma" />
		<tag k="name:fkv" v="Lullinjurma" />
		<tag k="name:no" v="Lullekulpen" />
		<tag k="place" v="locality" />
		<tag k="ssr:stedsnr" v="443396" />
	</node>
	<node id="-768190" lat="69.3101000025" lon="20.3804777739">
		<tag k="alt_name:no" v="Rattunes" />
		<tag k="name" v="Rattuneset - Rattuniemi" />
		<tag k="name:fkv" v="Rattuniemi" />
		<tag k="name:no" v="Rattuneset" />
		<tag k="natural" v="cape" />
		<tag k="ssr:stedsnr" v="443386" />
	</node>
	<node id="-768184" lat="69.2138749978" lon="20.0707277743">
		<tag k="name" v="Blåiselva" />
		<tag k="ssr:stedsnr" v="443362" />
		<tag k="waterway" v="stream" />
	</node>
	<node id="-768181" lat="69.1687805578" lon="20.0421805386">
		<tag k="name" v="Attkjippa" />
		<tag k="place" v="locality" />
		<tag k="ssr:stedsnr" v="443333" />
	</node>
	<node id="-768180" lat="69.18503056" lon="20.1982999829">
		<tag k="loc_name:se" v="Čazaláttut" />
		<tag k="name" v="Sørdalssmåvatnan" />
		<tag k="name:no" v="Sørdalssmåvatnan" />
		<tag k="natural" v="water" />
		<tag k="ssr:stedsnr" v="443324" />
		<tag k="water" v="lake" />
	</node>
	<node id="-768177" lat="69.1557583319" lon="20.3388221911">
		<tag k="name" v="Ruovddášjohka" />
		<tag k="name:se" v="Ruovddášjohka" />
		<tag k="ssr:stedsnr" v="443311" />
		<tag k="waterway" v="stream" />
	</node>
	<node id="-768171" lat="69.0628305527" lon="20.0871333039">
		<tag k="name" v="Øvre Finnelv - Čorrováhjohka" />
		<tag k="name:no" v="Øvre Finnelv" />
		<tag k="name:se" v="Čorrováhjohka" />
		<tag k="ssr:stedsnr" v="443268" />
		<tag k="waterway" v="stream" />
	</node>
	<node id="-768170" lat="69.2541305566" lon="20.1225833146">
		<tag k="name" v="Stordalselva - Didnojohka - Vankanjoki" />
		<tag k="name:fkv" v="Vankanjoki" />
		<tag k="name:no" v="Stordalselva" />
		<tag k="name:se" v="Didnojohka" />
		<tag k="ssr:stedsnr" v="443069" />
		<tag k="waterway" v="river" />
	</node>
	<node id="-768155" lat="69.3201111131" lon="20.4035749811">
		<tag k="name" v="Bærfjellkroken" />
		<tag k="natural" v="cape" />
		<tag k="ssr:stedsnr" v="419972" />
	</node>
	<node id="-768151" lat="69.2351833327" lon="20.6834944287">
		<tag k="name" v="Bajit Gearrajohka" />
		<tag k="name:se" v="Bajit Gearrajohka" />
		<tag k="ssr:stedsnr" v="419930" />
		<tag k="waterway" v="stream" />
	</node>
	<node id="-768149" lat="69.2442333312" lon="19.9432972139">
		<tag k="loc_name:se" v="Ruollaluokta" />
		<tag k="name" v="Trollvika" />
		<tag k="name:no" v="Trollvika" />
		<tag k="natural" v="bay" />
		<tag k="ssr:stedsnr" v="419573" />
	</node>
	<node id="-768144" lat="69.34277778" lon="19.9378694328">
		<tag k="name" v="Bersnjirrajohka" />
		<tag k="name:se" v="Bersnjirrajohka" />
		<tag k="ssr:stedsnr" v="419539" />
		<tag k="waterway" v="stream" />
	</node>
	<node id="-768141" lat="69.2656888882" lon="19.9611611048">
		<tag k="name" v="Pekkanes" />
		<tag k="natural" v="cape" />
		<tag k="ssr:stedsnr" v="419432" />
	</node>
	<node id="-768139" lat="69.3097499989" lon="20.3772055393">
		<tag k="name" v="Bertinekulpen" />
		<tag k="place" v="locality" />
		<tag k="ssr:stedsnr" v="419244" />
	</node>
	<node id="-768132" lat="69.3272555532" lon="20.3457083079">
		<tag k="name" v="Brennfjellkulpen" />
		<tag k="place" v="locality" />
		<tag k="ssr:stedsnr" v="419058" />
	</node>
	<node id="-768131" lat="69.2256194447" lon="19.9742916576">
		<tag k="loc_name:se" v="Njuorjonjárga" />
		<tag k="name" v="Kobbeneset" />
		<tag k="name:no" v="Kobbeneset" />
		<tag k="natural" v="cape" />
		<tag k="ssr:stedsnr" v="418474" />
	</node>
	<node id="-768130" lat="69.2223555599" lon="19.9832610879">
		<tag k="loc_name:se" v="Sullot" />
		<tag k="name" v="Holman" />
		<tag k="name:no" v="Holman" />
		<tag k="natural" v="cape" />
		<tag k="ssr:stedsnr" v="418471" />
	</node>
	<node id="-768124" lat="69.3352805593" lon="19.8316333273">
		<tag k="name" v="Fielbmá" />
		<tag k="name:se" v="Fielbmá" />
		<tag k="natural" v="water" />
		<tag k="ssr:stedsnr" v="418363" />
		<tag k="water" v="lake" />
	</node>
	<node id="-768123" lat="69.160030558" lon="20.0723638808">
		<tag k="name" v="Russetjønnbekken" />
		<tag k="ssr:stedsnr" v="418359" />
		<tag k="waterway" v="stream" />
	</node>
	<node id="-768122" lat="69.2290333352" lon="19.9613944254">
		<tag k="name" v="Innersibekken" />
		<tag k="ssr:stedsnr" v="418360" />
		<tag k="waterway" v="stream" />
	</node>
	<node id="-768119" lat="69.3370027824" lon="20.0910610958">
		<tag k="loc_name:se" v="Ruovddášjohka" />
		<tag k="name" v="Ramnelva" />
		<tag k="name:no" v="Ramnelva" />
		<tag k="ssr:stedsnr" v="479726" />
		<tag k="waterway" v="stream" />
	</node>
	<node id="-768109" lat="69.3375972252" lon="19.9680416532">
		<tag k="name" v="Vellantto" />
		<tag k="name:fkv" v="Vellantto" />
		<tag k="natural" v="bay" />
		<tag k="ssr:stedsnr" v="479549" />
	</node>
	<node id="-768104" lat="69.1943833358" lon="20.7048083077">
		<tag k="name" v="Gálggojohka" />
		<tag k="name:se" v="Gálggojohka" />
		<tag k="ssr:stedsnr" v="262984" />
		<tag k="waterway" v="river" />
	</node>
	<node id="-768103" lat="69.0908999977" lon="20.9038805303">
		<tag k="name" v="Gállajávri" />
		<tag k="name:se" v="Gállajávri" />
		<tag k="natural" v="water" />
		<tag k="ssr:stedsnr" v="262559" />
		<tag k="water" v="lake" />
	</node>
	<node id="-768101" lat="69.1434833338" lon="20.4318916603">
		<tag k="name" v="Goahteorotjávrrit" />
		<tag k="name:se" v="Goahteorotjávrrit" />
		<tag k="natural" v="water" />
		<tag k="ssr:stedsnr" v="261935" />
	</node>
	<node id="-768093" lat="69.2701527752" lon="20.4054805473">
		<tag k="name" v="Luhčajohka" />
		<tag k="name:se" v="Luhčajohka" />
		<tag k="ssr:stedsnr" v="261588" />
		<tag k="waterway" v="stream" />
	</node>
	<node id="-768090" lat="69.2970805584" lon="20.7042833028">
		<tag k="name" v="Geasášjávri" />
		<tag k="name:se" v="Geasášjávri" />
		<tag k="natural" v="water" />
		<tag k="old_name:se" v="Geasásjávri" />
		<tag k="ssr:stedsnr" v="261543" />
		<tag k="water" v="lake" />
	</node>
	<node id="-768081" lat="69.3563750021" lon="20.2175222107">
		<tag k="name" v="Rádjejohka" />
		<tag k="name:se" v="Rádjejohka" />
		<tag k="ssr:stedsnr" v="261468" />
		<tag k="waterway" v="stream" />
	</node>
	<node id="-768073" lat="69.3375722228" lon="20.291522204">
		<tag k="fixme" v="multiple name tags, choose one and add the other to alt_name" />
		<tag k="name" v="Skibotnelva - Gálggojohka;Ivgojohka - Yykeänperänjoki" />
		<tag k="name:fkv" v="Yykeänperänjoki" />
		<tag k="name:no" v="Skibotnelva" />
		<tag k="name:se" v="Gálggojohka;Ivgojohka" />
		<tag k="ssr:stedsnr" v="261417" />
		<tag k="waterway" v="river" />
	</node>
	<node id="-768072" lat="69.3412888912" lon="20.3715471992">
		<tag k="alt_name:no" v="Haskielva, midtre" />
		<tag k="name" v="Midtre Haskielva - Keski-Haskijoki" />
		<tag k="name:fkv" v="Keski-Haskijoki" />
		<tag k="name:no" v="Midtre Haskielva" />
		<tag k="ssr:stedsnr" v="261416" />
		<tag k="waterway" v="stream" />
	</node>
	<node id="-768061" lat="69.1138777788" lon="20.1010027575">
		<tag k="name" v="Paraselva - Bárrásjohka" />
		<tag k="name:no" v="Paraselva" />
		<tag k="name:se" v="Bárrásjohka" />
		<tag k="ssr:stedsnr" v="261292" />
		<tag k="waterway" v="river" />
	</node>
	<node id="-768057" lat="69.4209722213" lon="20.3647277488">
		<tag k="name" v="Søndre Larsbergelva" />
		<tag k="ssr:stedsnr" v="261264" />
		<tag k="waterway" v="stream" />
	</node>
	<node id="-768056" lat="69.0901750015" lon="20.1261972178">
		<tag k="name" v="Skredbekken - Čáŋahatjohka" />
		<tag k="name:no" v="Skredbekken" />
		<tag k="name:se" v="Čáŋahatjohka" />
		<tag k="ssr:stedsnr" v="261260" />
		<tag k="waterway" v="stream" />
	</node>
	<node id="-768044" lat="69.4240500026" lon="20.3062805313">
		<tag k="name" v="Lomvatnet" />
		<tag k="natural" v="water" />
		<tag k="ssr:stedsnr" v="237999" />
	</node>
	<node id="-768043" lat="69.4403166691" lon="20.2990971963">
		<tag k="name" v="Inner-Larsbergelva" />
		<tag k="ssr:stedsnr" v="237997" />
		<tag k="waterway" v="stream" />
	</node>
	<node id="-768037" lat="69.4087361112" lon="20.1205722197">
		<tag k="name" v="Elijávri" />
		<tag k="name:se" v="Elijávri" />
		<tag k="natural" v="water" />
		<tag k="ssr:stedsnr" v="237740" />
	</node>
	<node id="-768035" lat="69.1218277751" lon="20.1005888735">
		<tag k="name" v="Erikholmen" />
		<tag k="place" v="islet" />
		<tag k="ssr:stedsnr" v="237727" />
	</node>
	<node id="-768033" lat="69.1177500022" lon="20.145052761">
		<tag k="name" v="Sløkbekken" />
		<tag k="ssr:stedsnr" v="237711" />
		<tag k="waterway" v="stream" />
	</node>
	<node id="-768032" lat="69.3529805554" lon="19.9802444418">
		<tag k="name" v="Njirran" />
		<tag k="name:se" v="Njirran" />
		<tag k="ssr:stedsnr" v="237637" />
		<tag k="waterway" v="stream" />
	</node>
	<node id="-768025" lat="69.3672694485" lon="20.2377166458">
		<tag k="name" v="Riidejohka" />
		<tag k="name:se" v="Riidejohka" />
		<tag k="ssr:stedsnr" v="237233" />
		<tag k="waterway" v="stream" />
	</node>
	<node id="-768022" lat="69.1962833336" lon="19.9594999937">
		<tag k="name" v="Sennekjosen" />
		<tag k="natural" v="water" />
		<tag k="ssr:stedsnr" v="237477" />
	</node>
	<node id="-768021" lat="69.3313138894" lon="20.3283222132">
		<tag k="name" v="Putaansaari" />
		<tag k="name:fkv" v="Putaansaari" />
		<tag k="place" v="islet" />
		<tag k="ssr:stedsnr" v="237038" />
	</node>
	<node id="-768020" lat="69.3340055521" lon="20.3104916463">
		<tag k="name" v="Bjørkholmen" />
		<tag k="place" v="islet" />
		<tag k="ssr:stedsnr" v="237032" />
	</node>
	<node id="-768015" lat="69.3753638868" lon="20.2701194323">
		<tag k="name" v="Bekkoholmen" />
		<tag k="natural" v="cape" />
		<tag k="ssr:stedsnr" v="237126" />
	</node>
	<node id="-768009" lat="69.322350002" lon="19.8350972227">
		<tag k="name" v="Rypdalselva" />
		<tag k="ssr:stedsnr" v="236372" />
		<tag k="waterway" v="stream" />
	</node>
</osm>
