<?xml version="1.0" encoding="UTF-8"?>
<osm generator="osmapis" version="0.6">
	<node id="-20992" lat="59.5727638916" lon="10.9765083304">
		<tag k="name" v="Mærehytta" />
		<tag k="place" v="isolated_dwelling" />
		<tag k="ssr:stedsnr" v="610256" />
	</node>
	<node id="-20991" lat="59.5608277818" lon="10.8033666635">
		<tag k="name" v="Bjoner" />
		<tag k="place" v="farm" />
		<tag k="ssr:stedsnr" v="610242" />
	</node>
	<node id="-20990" lat="59.5611638863" lon="10.8552083298">
		<tag k="name" v="Hvam" />
		<tag k="place" v="farm" />
		<tag k="ssr:stedsnr" v="610240" />
	</node>
	<node id="-20989" lat="59.5603816273" lon="10.8400989159">
		<tag k="alt_name" v="Ringstad søndre" />
		<tag k="name" v="Søndre Ringstad" />
		<tag k="place" v="farm" />
		<tag k="ssr:stedsnr" v="610235" />
	</node>
	<node id="-20984" lat="59.5471166631" lon="10.7906583402">
		<tag k="alt_name" v="Narvestad øvre" />
		<tag k="name" v="Narvestad" />
		<tag k="place" v="farm" />
		<tag k="ssr:stedsnr" v="550221" />
	</node>
	<node id="-20983" lat="59.5472908095" lon="10.8370418323">
		<tag k="fixme" v="multiple name tags, choose one and add the other to alt_name" />
		<tag k="name" v="Skjelfoss;Skjelstad" />
		<tag k="place" v="farm" />
		<tag k="ssr:stedsnr" v="550219" />
	</node>
	<node id="-20982" lat="59.5905805558" lon="10.8886638817">
		<tag k="alt_name" v="Hvitstein, s" />
		<tag k="name" v="Hvitsten" />
		<tag k="place" v="farm" />
		<tag k="ssr:stedsnr" v="550193" />
	</node>
	<node id="-20981" lat="59.5927249981" lon="10.9301111109">
		<tag k="name" v="Skvetta" />
		<tag k="place" v="farm" />
		<tag k="ssr:stedsnr" v="550190" />
	</node>
	<node id="-20980" lat="59.6013388871" lon="10.9384916729">
		<tag k="name" v="Haslerud" />
		<tag k="place" v="farm" />
		<tag k="ssr:stedsnr" v="550146" />
	</node>
	<node id="-20978" lat="59.6201833346" lon="10.990058342">
		<tag k="name" v="Melleby" />
		<tag k="place" v="farm" />
		<tag k="ssr:stedsnr" v="549359" />
	</node>
	<node id="-20977" lat="59.6179416684" lon="10.9008166657">
		<tag k="name" v="Østerdal" />
		<tag k="place" v="farm" />
		<tag k="ssr:stedsnr" v="549360" />
	</node>
	<node id="-20976" lat="59.6254472195" lon="11.0140333308">
		<tag k="alt_name" v="Lippestad m;Leppestad" />
		<tag k="name" v="Nordre Leppestad" />
		<tag k="place" v="farm" />
		<tag k="ssr:stedsnr" v="549338" />
	</node>
	<node id="-20975" lat="59.6373638849" lon="11.0107833379">
		<tag k="name" v="Sølvberg" />
		<tag k="place" v="farm" />
		<tag k="ssr:stedsnr" v="549322" />
	</node>
	<node id="-20974" lat="59.6374305564" lon="10.9740138909">
		<tag k="name" v="Tassebakke" />
		<tag k="place" v="farm" />
		<tag k="ssr:stedsnr" v="549312" />
	</node>
	<node id="-20973" lat="59.5611916642" lon="10.9808027718">
		<tag k="name" v="Seut" />
		<tag k="place" v="isolated_dwelling" />
		<tag k="ssr:stedsnr" v="549192" />
	</node>
	<node id="-20971" lat="59.6034249956" lon="10.9085833317">
		<tag k="amenity" v="school" />
		<tag k="name" v="Hagen" />
		<tag k="ssr:stedsnr" v="508938" />
	</node>
	<node id="-20969" lat="59.5580972265" lon="10.91888611">
		<tag k="name" v="Pipen" />
		<tag k="place" v="locality" />
		<tag k="ssr:stedsnr" v="508928" />
	</node>
	<node id="-20968" lat="59.5651444446" lon="10.8900500018">
		<tag k="name" v="Røstad" />
		<tag k="place" v="locality" />
		<tag k="ssr:stedsnr" v="508926" />
	</node>
	<node id="-20967" lat="59.5710388852" lon="10.8716499961">
		<tag k="name" v="Sandvollen" />
		<tag k="place" v="farm" />
		<tag k="ssr:stedsnr" v="508921" />
	</node>
	<node id="-20966" lat="59.5606111086" lon="10.8064583267">
		<tag k="alt_name" v="Bjoner øvre" />
		<tag k="name" v="Øvre Bjoner" />
		<tag k="place" v="farm" />
		<tag k="ssr:stedsnr" v="508885" />
	</node>
	<node id="-20965" lat="59.6132777812" lon="10.8887277713">
		<tag k="alt_name" v="Haug søndre" />
		<tag k="name" v="Søndre Haug" />
		<tag k="place" v="farm" />
		<tag k="ssr:stedsnr" v="507966" />
	</node>
	<node id="-20964" lat="59.616619441" lon="10.9234444514">
		<tag k="name" v="Hestehagen" />
		<tag k="place" v="farm" />
		<tag k="ssr:stedsnr" v="507957" />
	</node>
	<node id="-20961" lat="59.6469055591" lon="10.9461166607">
		<tag k="name" v="Støttumhøgda" />
		<tag k="place" v="farm" />
		<tag k="ssr:stedsnr" v="507841" />
	</node>
	<node id="-20958" lat="59.6541055602" lon="11.0227222139">
		<tag k="name" v="Roås" />
		<tag k="place" v="farm" />
		<tag k="ssr:stedsnr" v="507801" />
	</node>
	<node id="-20954" lat="59.5539249972" lon="10.916513892">
		<tag k="alt_name" v="Kjernsli" />
		<tag k="name" v="Tjernsli" />
		<tag k="place" v="farm" />
		<tag k="ssr:stedsnr" v="489270" />
	</node>
	<node id="-20953" lat="59.5458249986" lon="10.8674749973">
		<tag k="name" v="Karlstad" />
		<tag k="place" v="farm" />
		<tag k="ssr:stedsnr" v="489252" />
	</node>
	<node id="-20951" lat="59.567058332" lon="10.8801749998">
		<tag k="name" v="Lier" />
		<tag k="place" v="isolated_dwelling" />
		<tag k="ssr:stedsnr" v="489219" />
	</node>
	<node id="-20948" lat="59.6733944484" lon="11.028447216">
		<tag k="alt_name" v="Hov Nordre" />
		<tag k="name" v="Nordre Hov" />
		<tag k="place" v="farm" />
		<tag k="ssr:stedsnr" v="488447" />
	</node>
	<node id="-20947" lat="59.6209249996" lon="10.957249992">
		<tag k="alt_name" v="Bovum, nordre" />
		<tag k="name" v="Bovim" />
		<tag k="place" v="farm" />
		<tag k="ssr:stedsnr" v="488335" />
	</node>
	<node id="-20946" lat="59.615052782" lon="10.9519749927">
		<tag k="name" v="Gusland" />
		<tag k="place" v="farm" />
		<tag k="ssr:stedsnr" v="488333" />
	</node>
	<node id="-20945" lat="59.6229000042" lon="11.0023833382">
		<tag k="name" v="Holt" />
		<tag k="place" v="farm" />
		<tag k="ssr:stedsnr" v="488315" />
	</node>
	<node id="-20944" lat="59.6217749974" lon="10.9437833355">
		<tag k="name" v="Tingulstad" />
		<tag k="place" v="farm" />
		<tag k="ssr:stedsnr" v="488302" />
	</node>
	<node id="-20943" lat="59.6267027814" lon="10.9591083282">
		<tag k="alt_name" v="Nesset" />
		<tag k="name" v="Neset" />
		<tag k="place" v="farm" />
		<tag k="ssr:stedsnr" v="488299" />
	</node>
	<node id="-20942" lat="59.6297638906" lon="10.9665388887">
		<tag k="name" v="Haskilt" />
		<tag k="place" v="farm" />
		<tag k="ssr:stedsnr" v="488280" />
	</node>
	<node id="-20941" lat="59.6104305544" lon="10.9636361076">
		<tag k="alt_name" v="Sterkhytta" />
		<tag k="name" v="Sterkehytta" />
		<tag k="place" v="isolated_dwelling" />
		<tag k="ssr:stedsnr" v="488137" />
	</node>
	<node id="-20940" lat="59.6183666661" lon="10.9166472233">
		<tag k="name" v="Gustvethytta" />
		<tag k="place" v="isolated_dwelling" />
		<tag k="ssr:stedsnr" v="448931" />
	</node>
	<node id="-20939" lat="59.5693194436" lon="10.8752611196">
		<tag k="name" v="Høgda" />
		<tag k="place" v="farm" />
		<tag k="ssr:stedsnr" v="448922" />
	</node>
	<node id="-20936" lat="59.5459416652" lon="10.8622361045">
		<tag k="name" v="Bardus" />
		<tag k="place" v="isolated_dwelling" />
		<tag k="ssr:stedsnr" v="447911" />
	</node>
	<node id="-20934" lat="59.5465416672" lon="10.8321972262">
		<tag k="name" v="Komnes" />
		<tag k="place" v="locality" />
		<tag k="ssr:stedsnr" v="447908" />
	</node>
	<node id="-20933" lat="59.5539944425" lon="10.8279888875">
		<tag k="name" v="Skog" />
		<tag k="place" v="farm" />
		<tag k="ssr:stedsnr" v="447861" />
	</node>
	<node id="-20931" lat="59.6040638919" lon="10.984619437">
		<tag k="name" v="Krok" />
		<tag k="place" v="farm" />
		<tag k="ssr:stedsnr" v="447730" />
	</node>
	<node id="-20928" lat="59.5844694471" lon="10.874780555">
		<tag k="name" v="Grønnsletta" />
		<tag k="place" v="isolated_dwelling" />
		<tag k="ssr:stedsnr" v="446936" />
	</node>
	<node id="-20927" lat="59.542911113" lon="10.8151111101">
		<tag k="name" v="Berg" />
		<tag k="place" v="farm" />
		<tag k="ssr:stedsnr" v="446901" />
	</node>
	<node id="-20926" lat="59.5877611097" lon="10.8958749944">
		<tag k="alt_name" v="Rygge øvre" />
		<tag k="name" v="Øvre Rygge" />
		<tag k="place" v="farm" />
		<tag k="ssr:stedsnr" v="429178" />
	</node>
	<node id="-20925" lat="59.5888249962" lon="10.8664027748">
		<tag k="name" v="Nygård" />
		<tag k="place" v="farm" />
		<tag k="ssr:stedsnr" v="429171" />
	</node>
	<node id="-20924" lat="59.5795638914" lon="10.9165749937">
		<tag k="name" v="Bøler" />
		<tag k="place" v="farm" />
		<tag k="ssr:stedsnr" v="429163" />
	</node>
	<node id="-20922" lat="59.6808333329" lon="10.9786472278">
		<tag k="name" v="Bergerud" />
		<tag k="place" v="locality" />
		<tag k="ssr:stedsnr" v="428400" />
	</node>
	<node id="-20921" lat="59.6935277788" lon="11.0527638897">
		<tag k="name" v="Bognerud" />
		<tag k="place" v="farm" />
		<tag k="ssr:stedsnr" v="428378" />
	</node>
	<node id="-20920" lat="59.60649722" lon="10.9143500014">
		<tag k="alt_name" v="Stenbøl" />
		<tag k="name" v="Steinbøl" />
		<tag k="place" v="farm" />
		<tag k="ssr:stedsnr" v="428332" />
	</node>
	<node id="-20919" lat="59.6165555583" lon="10.8811305518">
		<tag k="alt_name" v="Haugjordet" />
		<tag k="name" v="Haugsjordet" />
		<tag k="place" v="farm" />
		<tag k="ssr:stedsnr" v="428321" />
	</node>
	<node id="-20918" lat="59.641" lon="11.0009583268">
		<tag k="alt_name" v="Lilleby, østre;Lilleby" />
		<tag k="name" v="Østre Lilleby" />
		<tag k="place" v="farm" />
		<tag k="ssr:stedsnr" v="428269" />
	</node>
	<node id="-20917" lat="59.6574611069" lon="11.0351166575">
		<tag k="name" v="Vesterby" />
		<tag k="place" v="farm" />
		<tag k="ssr:stedsnr" v="427494" />
	</node>
	<node id="-20914" lat="59.615108329" lon="10.8887833365">
		<tag k="alt_name" v="Haug nordre" />
		<tag k="name" v="Nordre Haug" />
		<tag k="place" v="farm" />
		<tag k="ssr:stedsnr" v="265954" />
	</node>
	<node id="-20911" lat="59.6125833373" lon="10.927341666">
		<tag k="alt_name" v="Hvitsten øvre" />
		<tag k="name" v="Øvre Hvitsten" />
		<tag k="place" v="farm" />
		<tag k="ssr:stedsnr" v="264958" />
	</node>
	<node id="-20910" lat="59.5521666644" lon="10.8010888849">
		<tag k="name" v="Nygård" />
		<tag k="place" v="farm" />
		<tag k="ssr:stedsnr" v="264891" />
	</node>
	<node id="-20909" lat="59.6588888871" lon="11.0051805541">
		<tag k="name" v="Engen" />
		<tag k="place" v="farm" />
		<tag k="ssr:stedsnr" v="264813" />
	</node>
	<node id="-20907" lat="59.6731888869" lon="10.9708194418">
		<tag k="name" v="Svanesund" />
		<tag k="place" v="farm" />
		<tag k="ssr:stedsnr" v="264790" />
	</node>
	<node id="-20906" lat="59.6325444447" lon="10.9594249946">
		<tag k="name" v="Støttum" />
		<tag k="place" v="farm" />
		<tag k="ssr:stedsnr" v="264773" />
	</node>
	<node id="-20905" lat="59.611569443" lon="10.9867583277">
		<tag k="name" v="Sandaker" />
		<tag k="place" v="farm" />
		<tag k="ssr:stedsnr" v="264759" />
	</node>
	<node id="-20904" lat="59.6703305526" lon="11.0235999925">
		<tag k="name" v="Vaglen" />
		<tag k="place" v="farm" />
		<tag k="ssr:stedsnr" v="264752" />
	</node>
	<node id="-20903" lat="59.5716666659" lon="10.8588138951">
		<tag k="alt_name" v="Gleden" />
		<tag k="name" v="Gleda" />
		<tag k="place" v="farm" />
		<tag k="ssr:stedsnr" v="247212" />
	</node>
	<node id="-20902" lat="59.5913583292" lon="10.9037499932">
		<tag k="name" v="Riser" />
		<tag k="place" v="farm" />
		<tag k="ssr:stedsnr" v="247183" />
	</node>
	<node id="-20899" lat="59.580000003" lon="10.8869750074">
		<tag k="alt_name" v="Rygge nedre" />
		<tag k="name" v="Nedre Rygge" />
		<tag k="place" v="farm" />
		<tag k="ssr:stedsnr" v="247170" />
	</node>
	<node id="-20898" lat="59.5334972229" lon="10.7966750087">
		<tag k="alt_name" v="Vang (Blekkhus)" />
		<tag k="name" v="Vang" />
		<tag k="place" v="farm" />
		<tag k="ssr:stedsnr" v="247022" />
	</node>
	<node id="-20896" lat="59.5295499999" lon="10.8715055517">
		<tag k="name" v="Slutningen" />
		<tag k="place" v="isolated_dwelling" />
		<tag k="ssr:stedsnr" v="247011" />
	</node>
	<node id="-20895" lat="59.6792750033" lon="11.0024055529">
		<tag k="name" v="Unås" />
		<tag k="place" v="farm" />
		<tag k="ssr:stedsnr" v="246422" />
	</node>
	<node id="-20894" lat="59.6091388914" lon="10.9143277784">
		<tag k="name" v="Orskog" />
		<tag k="place" v="farm" />
		<tag k="ssr:stedsnr" v="246359" />
	</node>
	<node id="-20893" lat="59.6117277766" lon="10.9423333367">
		<tag k="name" v="Fjell" />
		<tag k="place" v="farm" />
		<tag k="ssr:stedsnr" v="246350" />
	</node>
	<node id="-20892" lat="59.6135805531" lon="10.8888000057">
		<tag k="name" v="Haug" />
		<tag k="place" v="farm" />
		<tag k="ssr:stedsnr" v="246342" />
	</node>
	<node id="-20891" lat="59.6252638897" lon="10.9180583389">
		<tag k="name" v="Gustvet" />
		<tag k="place" v="farm" />
		<tag k="ssr:stedsnr" v="246336" />
	</node>
	<node id="-20890" lat="59.6213111147" lon="10.9707499951">
		<tag k="name" v="Vestereng" />
		<tag k="place" v="farm" />
		<tag k="ssr:stedsnr" v="246330" />
	</node>
	<node id="-20889" lat="59.6289805553" lon="11.0144750047">
		<tag k="alt_name" v="Øvre Lippestad;Lippestad nordre" />
		<tag k="fixme" v="multiple name tags, choose one and add the other to alt_name" />
		<tag k="name" v="Nordre Lippestad;Øvre Leppestad" />
		<tag k="place" v="farm" />
		<tag k="ssr:stedsnr" v="246328" />
	</node>
	<node id="-20888" lat="59.6212500031" lon="11.0172333419">
		<tag k="alt_name" v="Lippestad søndre;Søndre Lippestad;Leppestad" />
		<tag k="name" v="Søndre Leppestad" />
		<tag k="place" v="farm" />
		<tag k="ssr:stedsnr" v="246324" />
	</node>
	<node id="-20886" lat="59.6074750032" lon="10.931424998">
		<tag k="name" v="Skjolden" />
		<tag k="place" v="farm" />
		<tag k="ssr:stedsnr" v="246146" />
	</node>
	<node id="-20885" lat="59.5981527771" lon="10.8928611034">
		<tag k="name" v="Hul" />
		<tag k="place" v="farm" />
		<tag k="ssr:stedsnr" v="246137" />
	</node>
	<node id="-20884" lat="59.5448583376" lon="10.8712749973">
		<tag k="name" v="Tømt" />
		<tag k="place" v="farm" />
		<tag k="ssr:stedsnr" v="246019" />
	</node>
	<node id="-20883" lat="59.6688555601" lon="11.0239999988">
		<tag k="name" v="Vaglen" />
		<tag k="place" v="farm" />
		<tag k="ssr:stedsnr" v="245462" />
	</node>
	<node id="-20882" lat="59.6366111132" lon="10.9983388876">
		<tag k="name" v="Berg" />
		<tag k="place" v="farm" />
		<tag k="ssr:stedsnr" v="245301" />
	</node>
	<node id="-20881" lat="59.629447219" lon="10.9834055626">
		<tag k="name" v="Hollen" />
		<tag k="place" v="farm" />
		<tag k="ssr:stedsnr" v="245299" />
	</node>
	<node id="-20880" lat="59.6447361123" lon="10.9796416714">
		<tag k="alt_name" v="Brekke" />
		<tag k="name" v="Brekka" />
		<tag k="place" v="farm" />
		<tag k="ssr:stedsnr" v="245274" />
	</node>
	<node id="-20876" lat="59.5857805553" lon="10.8705500058">
		<tag k="name" v="Nygårhytta" />
		<tag k="place" v="isolated_dwelling" />
		<tag k="ssr:stedsnr" v="205943" />
	</node>
	<node id="-20875" lat="59.554775001" lon="10.9223638813">
		<tag k="name" v="Storebråten" />
		<tag k="place" v="isolated_dwelling" />
		<tag k="ssr:stedsnr" v="205932" />
	</node>
	<node id="-20872" lat="59.6718722249" lon="10.9887055589">
		<tag k="name" v="Føskerenga" />
		<tag k="place" v="farm" />
		<tag k="ssr:stedsnr" v="204813" />
	</node>
	<node id="-20869" lat="59.6559583329" lon="11.0387916748">
		<tag k="name" v="Monsrud" />
		<tag k="place" v="farm" />
		<tag k="ssr:stedsnr" v="204785" />
	</node>
	<node id="-20867" lat="59.6160369713" lon="10.9783141795">
		<tag k="name" v="Riggesem" />
		<tag k="place" v="farm" />
		<tag k="ssr:stedsnr" v="204748" />
	</node>
	<node id="-20864" lat="59.5533555517" lon="10.8131416613">
		<tag k="alt_name" v="Skinnerud;Skinnerød vestre;Skinnerud vestre" />
		<tag k="name" v="Vestre Skinnerud" />
		<tag k="place" v="farm" />
		<tag k="ssr:stedsnr" v="186239" />
	</node>
	<node id="-20863" lat="59.5553250022" lon="10.8365888876">
		<tag k="name" v="Kongshaug" />
		<tag k="place" v="farm" />
		<tag k="ssr:stedsnr" v="186235" />
	</node>
	<node id="-20861" lat="59.5495250015" lon="10.8026944455">
		<tag k="alt_name" v="Vestby" />
		<tag k="name" v="Vesterby" />
		<tag k="place" v="farm" />
		<tag k="ssr:stedsnr" v="186215" />
	</node>
	<node id="-20860" lat="59.5935555559" lon="10.9228999946">
		<tag k="name" v="Mære" />
		<tag k="place" v="farm" />
		<tag k="ssr:stedsnr" v="186180" />
	</node>
	<node id="-20858" lat="59.6009388899" lon="10.9309388961">
		<tag k="name" v="Hovin" />
		<tag k="place" v="farm" />
		<tag k="ssr:stedsnr" v="186135" />
	</node>
	<node id="-20857" lat="59.5968638927" lon="10.8712416597">
		<tag k="name" v="Hol" />
		<tag k="place" v="farm" />
		<tag k="ssr:stedsnr" v="186131" />
	</node>
	<node id="-20855" lat="59.5308111117" lon="10.7857416601">
		<tag k="name" v="Dal" />
		<tag k="place" v="farm" />
		<tag k="ssr:stedsnr" v="186004" />
	</node>
	<node id="-20854" lat="59.6716166677" lon="11.0076111065">
		<tag k="name" v="Vegger" />
		<tag k="place" v="farm" />
		<tag k="ssr:stedsnr" v="185437" />
	</node>
	<node id="-20853" lat="59.6178277739" lon="10.9581666615">
		<tag k="alt_name" v="Bovum, s" />
		<tag k="name" v="Bovim" />
		<tag k="place" v="farm" />
		<tag k="ssr:stedsnr" v="185346" />
	</node>
	<node id="-20852" lat="59.6166750006" lon="10.9342166656">
		<tag k="alt_name" v="Greaker" />
		<tag k="name" v="Greåker" />
		<tag k="place" v="farm" />
		<tag k="ssr:stedsnr" v="185343" />
	</node>
	<node id="-20851" lat="59.6190861086" lon="11.018927777">
		<tag k="name" v="Dammen" />
		<tag k="place" v="farm" />
		<tag k="ssr:stedsnr" v="185338" />
	</node>
	<node id="-20850" lat="59.6200805588" lon="10.9844138843">
		<tag k="name" v="Foss" />
		<tag k="place" v="farm" />
		<tag k="ssr:stedsnr" v="185335" />
	</node>
	<node id="-20849" lat="59.6260611109" lon="11.036550006">
		<tag k="alt_name" v="Ekeberg" />
		<tag k="name" v="Eikeberg" />
		<tag k="place" v="farm" />
		<tag k="ssr:stedsnr" v="185327" />
	</node>
	<node id="-20848" lat="59.6281750044" lon="11.020519443">
		<tag k="name" v="Haugen" />
		<tag k="place" v="farm" />
		<tag k="ssr:stedsnr" v="185326" />
	</node>
	<node id="-20847" lat="59.625697224" lon="10.9491000016">
		<tag k="name" v="Nærbøl" />
		<tag k="place" v="farm" />
		<tag k="ssr:stedsnr" v="185318" />
	</node>
	<node id="-20846" lat="59.6471999975" lon="11.0167138959">
		<tag k="name" v="Hagen" />
		<tag k="place" v="farm" />
		<tag k="ssr:stedsnr" v="185250" />
	</node>
	<node id="-20845" lat="59.6020999967" lon="10.9820583384">
		<tag k="alt_name" v="Krok;Krok, vestre" />
		<tag k="name" v="Vestre Krok" />
		<tag k="place" v="farm" />
		<tag k="ssr:stedsnr" v="185138" />
	</node>
	<node id="-20844" lat="59.567955555" lon="10.8960833312">
		<tag k="name" v="Trinnenborg" />
		<tag k="place" v="locality" />
		<tag k="ssr:stedsnr" v="144910" />
	</node>
	<node id="-20843" lat="59.5600416681" lon="10.8641888945">
		<tag k="name" v="Hvamshytta" />
		<tag k="place" v="isolated_dwelling" />
		<tag k="ssr:stedsnr" v="144909" />
	</node>
	<node id="-20842" lat="59.6102138914" lon="10.9006333403">
		<tag k="name" v="Bråten" />
		<tag k="place" v="locality" />
		<tag k="ssr:stedsnr" v="143949" />
	</node>
	<node id="-20841" lat="59.5492972213" lon="10.7732749993">
		<tag k="name" v="Verpe" />
		<tag k="place" v="locality" />
		<tag k="ssr:stedsnr" v="143893" />
	</node>
	<node id="-20840" lat="59.5216944426" lon="10.8013444438">
		<tag k="name" v="Sandli" />
		<tag k="place" v="isolated_dwelling" />
		<tag k="ssr:stedsnr" v="143860" />
	</node>
	<node id="-20838" lat="59.6452499982" lon="10.9915222193">
		<tag k="name" v="Lilleby" />
		<tag k="place" v="farm" />
		<tag k="ssr:stedsnr" v="143808" />
	</node>
	<node id="-20837" lat="59.6412138931" lon="11.0392611145">
		<tag k="name" v="Moa" />
		<tag k="place" v="isolated_dwelling" />
		<tag k="ssr:stedsnr" v="143785" />
	</node>
	<node id="-20836" lat="59.6943666629" lon="11.0216805614">
		<tag k="name" v="Skogen" />
		<tag k="place" v="isolated_dwelling" />
		<tag k="ssr:stedsnr" v="143776" />
	</node>
	<node id="-20833" lat="59.6265777776" lon="10.9773166625">
		<tag k="name" v="Fosshøgda" />
		<tag k="place" v="farm" />
		<tag k="ssr:stedsnr" v="143754" />
	</node>
	<node id="-20830" lat="59.5575555588" lon="10.865238889">
		<tag k="alt_name" v="Aspeli" />
		<tag k="name" v="Espeli" />
		<tag k="place" v="isolated_dwelling" />
		<tag k="ssr:stedsnr" v="125263" />
	</node>
	<node id="-20829" lat="59.5456583368" lon="10.7896416698">
		<tag k="name" v="Åsheim" />
		<tag k="place" v="farm" />
		<tag k="ssr:stedsnr" v="125251" />
	</node>
	<node id="-20827" lat="59.5873750019" lon="10.9125000058">
		<tag k="name" v="Daler" />
		<tag k="place" v="farm" />
		<tag k="ssr:stedsnr" v="125206" />
	</node>
	<node id="-20826" lat="59.5928666628" lon="10.9423083253">
		<tag k="name" v="Nyborg" />
		<tag k="place" v="isolated_dwelling" />
		<tag k="ssr:stedsnr" v="125203" />
	</node>
	<node id="-20825" lat="59.5928222237" lon="11.0206499975">
		<tag k="name" v="Bøler" />
		<tag k="place" v="farm" />
		<tag k="ssr:stedsnr" v="125144" />
	</node>
	<node id="-20824" lat="59.6591000002" lon="10.9948666629">
		<tag k="name" v="Tomter" />
		<tag k="place" v="village" />
		<tag k="ssr:stedsnr" v="124428" />
	</node>
	<node id="-20823" lat="59.6808305534" lon="11.0211555509">
		<tag k="alt_name" v="Syversby" />
		<tag k="name" v="Surby" />
		<tag k="place" v="farm" />
		<tag k="ssr:stedsnr" v="124405" />
	</node>
	<node id="-20822" lat="59.6327527785" lon="11.0260555567">
		<tag k="alt_name" v="Toen" />
		<tag k="name" v="Ton" />
		<tag k="place" v="farm" />
		<tag k="ssr:stedsnr" v="124271" />
	</node>
	<node id="-20821" lat="59.6393555574" lon="10.9673166694">
		<tag k="alt_name" v="Bjørkeskog" />
		<tag k="name" v="Bjerkeskog" />
		<tag k="place" v="farm" />
		<tag k="ssr:stedsnr" v="124240" />
	</node>
	<node id="-20820" lat="59.6524055532" lon="10.9870361184">
		<tag k="alt_name" v="Tolshus" />
		<tag k="name" v="Tolfshus" />
		<tag k="place" v="farm" />
		<tag k="ssr:stedsnr" v="124215" />
	</node>
	<node id="-20819" lat="59.6858249964" lon="11.0458500071">
		<tag k="alt_name" v="Jaren Nedre" />
		<tag k="name" v="Nedre Jaren" />
		<tag k="place" v="farm" />
		<tag k="ssr:stedsnr" v="125445" />
	</node>
	<node id="-20818" lat="59.6866388899" lon="11.0366722281">
		<tag k="alt_name" v="Svikebøl nedre" />
		<tag k="name" v="Nedre Svikebøl" />
		<tag k="place" v="farm" />
		<tag k="ssr:stedsnr" v="125444" />
	</node>
	<node id="-20817" lat="59.622028036" lon="11.0288188172">
		<tag k="fixme" v="consider place=hamlet" />
		<tag k="loc_name" v="Knapstad" />
		<tag k="name" v="Knappstad" />
		<tag k="place" v="farm" />
		<tag k="ssr:stedsnr" v="115056" />
	</node>
	<node id="-20811" lat="59.5975055574" lon="10.9355583291">
		<tag k="name" v="Bjerkelund" />
		<tag k="place" v="locality" />
		<tag k="ssr:stedsnr" v="82961" />
	</node>
	<node id="-20810" lat="59.5695666693" lon="10.8532722162">
		<tag k="alt_name" v="Saksebøl nedre" />
		<tag k="name" v="Nedre Saksebøl" />
		<tag k="place" v="farm" />
		<tag k="ssr:stedsnr" v="82960" />
	</node>
	<node id="-20809" lat="59.6057138927" lon="10.9394027759">
		<tag k="name" v="Jonsrud" />
		<tag k="place" v="isolated_dwelling" />
		<tag k="ssr:stedsnr" v="82949" />
	</node>
	<node id="-20808" lat="59.6078638867" lon="10.9133138937">
		<tag k="name" v="Bilitt" />
		<tag k="place" v="farm" />
		<tag k="ssr:stedsnr" v="82945" />
	</node>
	<node id="-20806" lat="59.6233916648" lon="10.9615944407">
		<tag k="name" v="Jonsrud" />
		<tag k="place" v="isolated_dwelling" />
		<tag k="ssr:stedsnr" v="82762" />
	</node>
	<node id="-20805" lat="59.6035722224" lon="10.9958277708">
		<tag k="name" v="Krok" />
		<tag k="place" v="farm" />
		<tag k="ssr:stedsnr" v="82749" />
	</node>
	<node id="-20804" lat="59.6747777795" lon="11.0260166657">
		<tag k="name" v="Nordal" />
		<tag k="place" v="isolated_dwelling" />
		<tag k="ssr:stedsnr" v="82745" />
	</node>
	<node id="-20803" lat="59.6715250026" lon="11.016327782">
		<tag k="name" v="Solli" />
		<tag k="place" v="farm" />
		<tag k="ssr:stedsnr" v="82736" />
	</node>
	<node id="-20802" lat="59.678497226" lon="10.9880388857">
		<tag k="name" v="Kølabånn" />
		<tag k="place" v="farm" />
		<tag k="ssr:stedsnr" v="82848" />
	</node>
	<node id="-20801" lat="59.6482287578" lon="10.950272823">
		<tag k="name" v="Lilleskog" />
		<tag k="place" v="farm" />
		<tag k="ssr:stedsnr" v="82843" />
	</node>
	<node id="-20799" lat="59.6861749969" lon="10.9994083287">
		<tag k="name" v="Tyrihjellen" />
		<tag k="place" v="farm" />
		<tag k="ssr:stedsnr" v="65407" />
	</node>
	<node id="-20798" lat="59.5840527759" lon="10.845416672">
		<tag k="alt_name" v="Låsken" />
		<tag k="name" v="Loska" />
		<tag k="place" v="isolated_dwelling" />
		<tag k="ssr:stedsnr" v="65166" />
	</node>
	<node id="-20797" lat="59.5208111073" lon="10.7838750085">
		<tag k="name" v="Haglerud" />
		<tag k="place" v="farm" />
		<tag k="ssr:stedsnr" v="65043" />
	</node>
	<node id="-20796" lat="59.5403361151" lon="10.8771638873">
		<tag k="name" v="Enga" />
		<tag k="place" v="farm" />
		<tag k="ssr:stedsnr" v="65020" />
	</node>
	<node id="-20794" lat="59.6970055588" lon="10.991416658">
		<tag k="name" v="Gaupesteinhytta" />
		<tag k="place" v="isolated_dwelling" />
		<tag k="ssr:stedsnr" v="64402" />
	</node>
	<node id="-20793" lat="59.6146083298" lon="10.9665916633">
		<tag k="alt_name" v="Smedebøl" />
		<tag k="name" v="Smedabøl" />
		<tag k="place" v="farm" />
		<tag k="ssr:stedsnr" v="64359" />
	</node>
	<node id="-20792" lat="59.6187138924" lon="10.9033027787">
		<tag k="name" v="Høgda" />
		<tag k="place" v="farm" />
		<tag k="ssr:stedsnr" v="64352" />
	</node>
	<node id="-20791" lat="59.6296858752" lon="10.9366373351">
		<tag k="alt_name" v="Pigstad;Pigstad øvre;Øvre Pigstad;Øvre Pekstad" />
		<tag k="name" v="Pegstad" />
		<tag k="place" v="locality" />
		<tag k="ssr:stedsnr" v="64340" />
	</node>
	<node id="-20790" lat="59.5432361079" lon="10.8173388881">
		<tag k="alt_name" v="Bråte søndre" />
		<tag k="name" v="Bråte" />
		<tag k="place" v="farm" />
		<tag k="ssr:stedsnr" v="64024" />
	</node>
	<node id="-20788" lat="59.6630888898" lon="10.9950138829">
		<tag k="name" v="Øyen" />
		<tag k="place" v="farm" />
		<tag k="ssr:stedsnr" v="63505" />
	</node>
	<node id="-20787" lat="59.6667861139" lon="11.0004555574">
		<tag k="name" v="Knatrebakk" />
		<tag k="place" v="farm" />
		<tag k="ssr:stedsnr" v="63499" />
	</node>
	<node id="-20786" lat="59.6297079913" lon="10.9408122367">
		<tag k="name" v="Skog" />
		<tag k="place" v="farm" />
		<tag k="ssr:stedsnr" v="63336" />
	</node>
	<node id="-20785" lat="59.6465555537" lon="10.9517500028">
		<tag k="name" v="Stubberud" />
		<tag k="place" v="farm" />
		<tag k="ssr:stedsnr" v="63310" />
	</node>
	<node id="-20784" lat="59.6475222194" lon="10.9735777848">
		<tag k="name" v="Holen" />
		<tag k="place" v="farm" />
		<tag k="ssr:stedsnr" v="63290" />
	</node>
	<node id="-20782" lat="59.5732611093" lon="10.8702611125">
		<tag k="name" v="Sandbekk" />
		<tag k="place" v="farm" />
		<tag k="ssr:stedsnr" v="23923" />
	</node>
	<node id="-20779" lat="59.5484777805" lon="10.8402250054">
		<tag k="name" v="Skjelfoss" />
		<tag k="place" v="farm" />
		<tag k="ssr:stedsnr" v="22922" />
	</node>
	<node id="-20778" lat="59.5594361079" lon="10.797166667">
		<tag k="name" v="Bjonerhytta" />
		<tag k="place" v="isolated_dwelling" />
		<tag k="ssr:stedsnr" v="22862" />
	</node>
	<node id="-20774" lat="59.5539527799" lon="10.781463896">
		<tag k="name" v="Brånen" />
		<tag k="place" v="farm" />
		<tag k="ssr:stedsnr" v="4243" />
	</node>
	<node id="-20773" lat="59.5546361077" lon="10.8753055556">
		<tag k="name" v="Holo" />
		<tag k="place" v="farm" />
		<tag k="ssr:stedsnr" v="4240" />
	</node>
	<node id="-20772" lat="59.5549388891" lon="10.9335055472">
		<tag k="name" v="Bærøe" />
		<tag k="place" v="farm" />
		<tag k="ssr:stedsnr" v="4230" />
	</node>
	<node id="-20771" lat="59.5728000026" lon="10.8729861138">
		<tag k="name" v="Stubberud" />
		<tag k="place" v="farm" />
		<tag k="ssr:stedsnr" v="4205" />
	</node>
	<node id="-20770" lat="59.6025083348" lon="10.9468527779">
		<tag k="name" v="Huken" />
		<tag k="place" v="farm" />
		<tag k="ssr:stedsnr" v="4134" />
	</node>
	<node id="-20769" lat="59.6603722266" lon="11.0187638858">
		<tag k="alt_name" v="Finnstad" />
		<tag k="name" v="Finstad" />
		<tag k="place" v="farm" />
		<tag k="ssr:stedsnr" v="3435" />
	</node>
	<node id="-20768" lat="59.6685416678" lon="11.0312055521">
		<tag k="alt_name" v="Hov Søndre;Hov" />
		<tag k="name" v="Søndre Hov" />
		<tag k="place" v="farm" />
		<tag k="ssr:stedsnr" v="3429" />
	</node>
	<node id="-20767" lat="59.6760166652" lon="10.9777388907">
		<tag k="alt_name" v="Vien;Vien søndre" />
		<tag k="name" v="Søndre Vien" />
		<tag k="place" v="farm" />
		<tag k="ssr:stedsnr" v="3390" />
	</node>
	<node id="-20765" lat="59.6179055537" lon="10.8902499955">
		<tag k="name" v="Dalås" />
		<tag k="place" v="farm" />
		<tag k="ssr:stedsnr" v="3308" />
	</node>
	<node id="-20764" lat="59.6307555598" lon="10.9883583393">
		<tag k="name" v="Nordby" />
		<tag k="place" v="farm" />
		<tag k="ssr:stedsnr" v="3287" />
	</node>
	<node id="-20763" lat="59.6408583293" lon="11.0323527839">
		<tag k="name" v="Smalopp" />
		<tag k="place" v="farm" />
		<tag k="ssr:stedsnr" v="3267" />
	</node>
	<node id="-20762" lat="59.644466666" lon="11.0197611089">
		<tag k="alt_name" v="Homlerud" />
		<tag k="name" v="Homlerød" />
		<tag k="place" v="farm" />
		<tag k="ssr:stedsnr" v="3266" />
	</node>
	<node id="-20759" lat="59.6045166637" lon="10.9954222152">
		<tag k="alt_name" v="Krok, østre;Krok" />
		<tag k="name" v="Østre Krok" />
		<tag k="place" v="farm" />
		<tag k="ssr:stedsnr" v="3142" />
	</node>
	<node id="-20758" lat="59.6108111083" lon="10.9246999957">
		<tag k="alt_name" v="Hvitstein nordre" />
		<tag k="name" v="Nordre Hvitstein" />
		<tag k="place" v="farm" />
		<tag k="ssr:stedsnr" v="3140" />
	</node>
	<node id="-20757" lat="59.573238886" lon="10.8796416651">
		<tag k="name" v="Nylenda" />
		<tag k="place" v="farm" />
		<tag k="ssr:stedsnr" v="266907" />
	</node>
	<node id="-20744" lat="59.6378750011" lon="11.0254666644">
		<tag k="alt_name" v="Elverud" />
		<tag k="name" v="Elverød" />
		<tag k="place" v="farm" />
		<tag k="ssr:stedsnr" v="245309" />
	</node>
	<node id="-20743" lat="59.6296499984" lon="11.0345666718">
		<tag k="name" v="Sørli" />
		<tag k="place" v="farm" />
		<tag k="ssr:stedsnr" v="245306" />
	</node>
	<node id="-20742" lat="59.5849222237" lon="10.8448583287">
		<tag k="name" v="Sagbakken" />
		<tag k="place" v="farm" />
		<tag k="ssr:stedsnr" v="387929" />
	</node>
	<node id="-20739" lat="59.5500250041" lon="10.877311117">
		<tag k="name" v="Rognelund" />
		<tag k="place" v="isolated_dwelling" />
		<tag k="ssr:stedsnr" v="386918" />
	</node>
	<node id="-20738" lat="59.5523277758" lon="10.7776277788">
		<tag k="alt_name" v="Brånen søndre" />
		<tag k="name" v="Søndre Brånen" />
		<tag k="place" v="farm" />
		<tag k="ssr:stedsnr" v="386875" />
	</node>
	<node id="-20737" lat="59.558733337" lon="10.7910222262">
		<tag k="name" v="Bjonerneset" />
		<tag k="place" v="locality" />
		<tag k="ssr:stedsnr" v="386869" />
	</node>
	<node id="-20731" lat="59.6222277759" lon="11.0292722179">
		<tag k="alt_name" v="Knapstad vestre" />
		<tag k="name" v="Vestre Knapstad" />
		<tag k="place" v="farm" />
		<tag k="ssr:stedsnr" v="386770" />
	</node>
	<node id="-20728" lat="59.6217249969" lon="11.0492861189">
		<tag k="name" v="Hollebøltangen" />
		<tag k="place" v="isolated_dwelling" />
		<tag k="ssr:stedsnr" v="386755" />
	</node>
	<node id="-20726" lat="59.6045166628" lon="10.8959722204">
		<tag k="name" v="Hulsnesa" />
		<tag k="place" v="isolated_dwelling" />
		<tag k="ssr:stedsnr" v="385960" />
	</node>
	<node id="-20724" lat="59.5262361139" lon="10.8048305543">
		<tag k="name" v="Ødegården" />
		<tag k="place" v="locality" />
		<tag k="ssr:stedsnr" v="385879" />
	</node>
	<node id="-20723" lat="59.622263888" lon="10.9613722296">
		<tag k="name" v="Klingenberg" />
		<tag k="place" v="farm" />
		<tag k="ssr:stedsnr" v="385783" />
	</node>
	<node id="-20722" lat="59.5515916651" lon="10.8600250009">
		<tag k="alt_name" v="Høyfoss" />
		<tag k="name" v="Høgfoss" />
		<tag k="place" v="farm" />
		<tag k="ssr:stedsnr" v="368256" />
	</node>
	<node id="-20721" lat="59.5500222218" lon="10.8920166726">
		<tag k="name" v="Tønnerud" />
		<tag k="place" v="farm" />
		<tag k="ssr:stedsnr" v="368254" />
	</node>
	<node id="-20720" lat="59.5487999961" lon="10.8542611057">
		<tag k="name" v="Svelgen" />
		<tag k="place" v="farm" />
		<tag k="ssr:stedsnr" v="368234" />
	</node>
	<node id="-20719" lat="59.5985972219" lon="10.9126250059">
		<tag k="name" v="Årås" />
		<tag k="place" v="farm" />
		<tag k="ssr:stedsnr" v="368156" />
	</node>
	<node id="-20717" lat="59.6187000008" lon="11.0093472245">
		<tag k="name" v="Rakelstad" />
		<tag k="place" v="farm" />
		<tag k="ssr:stedsnr" v="367292" />
	</node>
	<node id="-20716" lat="59.6431277793" lon="10.9944861107">
		<tag k="alt_name" v="Lilleby, vestre;Lilleby" />
		<tag k="name" v="Vestre Lilleby" />
		<tag k="place" v="farm" />
		<tag k="ssr:stedsnr" v="367236" />
	</node>
	<node id="-20715" lat="59.6417666674" lon="10.9537388831">
		<tag k="alt_name" v="Hestehagen" />
		<tag k="name" v="Hesthagen" />
		<tag k="place" v="farm" />
		<tag k="ssr:stedsnr" v="367233" />
	</node>
	<node id="-20714" lat="59.6498833301" lon="11.0121194422">
		<tag k="name" v="Tomter" />
		<tag k="place" v="farm" />
		<tag k="ssr:stedsnr" v="367222" />
	</node>
	<node id="-20712" lat="59.5623190949" lon="10.8420125163">
		<tag k="name" v="Ringstad" />
		<tag k="place" v="hamlet" />
		<tag k="ssr:stedsnr" v="354980" />
	</node>
	<node id="-20709" lat="59.5525666629" lon="10.8602777841">
		<tag k="name" v="Høyfoss" />
		<tag k="place" v="isolated_dwelling" />
		<tag k="ssr:stedsnr" v="326928" />
	</node>
	<node id="-20708" lat="59.5527999965" lon="10.8435027851">
		<tag k="name" v="Bekkensten" />
		<tag k="place" v="isolated_dwelling" />
		<tag k="ssr:stedsnr" v="326925" />
	</node>
	<node id="-20707" lat="59.5599750009" lon="10.8186055545">
		<tag k="name" v="Smertu" />
		<tag k="place" v="farm" />
		<tag k="ssr:stedsnr" v="326870" />
	</node>
	<node id="-20704" lat="59.5713416629" lon="10.9713222185">
		<tag k="name" v="Ramstadstykket" />
		<tag k="place" v="locality" />
		<tag k="ssr:stedsnr" v="325965" />
	</node>
	<node id="-20702" lat="59.5334472257" lon="10.8074527747">
		<tag k="name" v="Jerpelotten" />
		<tag k="place" v="locality" />
		<tag k="ssr:stedsnr" v="325880" />
	</node>
	<node id="-20700" lat="59.650122224" lon="11.0070611165">
		<tag k="name" v="Tomter" />
		<tag k="place" v="farm" />
		<tag k="ssr:stedsnr" v="325774" />
	</node>
	<node id="-20697" lat="59.6198277734" lon="11.0261388865">
		<tag k="name" v="Linnestad" />
		<tag k="place" v="farm" />
		<tag k="ssr:stedsnr" v="325746" />
	</node>
	<node id="-20695" lat="59.6033888845" lon="10.999247229">
		<tag k="name" v="Bråten" />
		<tag k="place" v="farm" />
		<tag k="ssr:stedsnr" v="325734" />
	</node>
	<node id="-20694" lat="59.6670000036" lon="11.0006916682">
		<tag k="name" v="Gran" />
		<tag k="place" v="farm" />
		<tag k="ssr:stedsnr" v="325811" />
	</node>
	<node id="-20693" lat="59.6456722207" lon="10.9719666664">
		<tag k="name" v="Vestereng" />
		<tag k="place" v="farm" />
		<tag k="ssr:stedsnr" v="325804" />
	</node>
	<node id="-20692" lat="59.6816750035" lon="10.9744555519">
		<tag k="name" v="Myrvoll" />
		<tag k="place" v="farm" />
		<tag k="ssr:stedsnr" v="307445" />
	</node>
	<node id="-20691" lat="59.5513277767" lon="10.8822527839">
		<tag k="name" v="Skistad" />
		<tag k="place" v="farm" />
		<tag k="ssr:stedsnr" v="307276" />
	</node>
	<node id="-20690" lat="59.5505999969" lon="10.8643750051">
		<tag k="name" v="Karlstad" />
		<tag k="place" v="farm" />
		<tag k="ssr:stedsnr" v="307274" />
	</node>
	<node id="-20689" lat="59.5696081685" lon="10.8542078062">
		<tag k="name" v="Saksebøl" />
		<tag k="place" v="hamlet" />
		<tag k="ssr:stedsnr" v="307247" />
	</node>
	<node id="-20688" lat="59.5632472259" lon="10.8443027824">
		<tag k="alt_name" v="Ringstad nordre" />
		<tag k="name" v="Nordre Ringstad" />
		<tag k="place" v="farm" />
		<tag k="ssr:stedsnr" v="307213" />
	</node>
	<node id="-20687" lat="59.5658638929" lon="10.844300002">
		<tag k="name" v="Li" />
		<tag k="place" v="farm" />
		<tag k="ssr:stedsnr" v="307214" />
	</node>
	<node id="-20686" lat="59.5619277764" lon="10.8311111097">
		<tag k="alt_name" v="Nommestad" />
		<tag k="name" v="Nummestad" />
		<tag k="place" v="farm" />
		<tag k="ssr:stedsnr" v="307211" />
	</node>
	<node id="-20684" lat="59.532430554" lon="10.8809138865">
		<tag k="name" v="Tjernshagen" />
		<tag k="place" v="farm" />
		<tag k="ssr:stedsnr" v="307035" />
	</node>
	<node id="-20683" lat="59.5517472188" lon="10.8176444431">
		<tag k="alt_name" v="Skinnerud;Skinnerud østre;Skinnerød østre" />
		<tag k="name" v="Østre Skinnerud" />
		<tag k="place" v="farm" />
		<tag k="ssr:stedsnr" v="307033" />
	</node>
	<node id="-20682" lat="59.630425004" lon="10.9988222176">
		<tag k="name" v="Dullerud" />
		<tag k="place" v="farm" />
		<tag k="ssr:stedsnr" v="306303" />
	</node>
	<node id="-20681" lat="59.6461388922" lon="11.0255055474">
		<tag k="alt_name" v="Ødegård" />
		<tag k="name" v="Ødegården" />
		<tag k="place" v="farm" />
		<tag k="ssr:stedsnr" v="306280" />
	</node>
	<node id="-21183" lat="59.6282166705" lon="10.9255611035">
		<tag k="name" v="Kølabonn" />
		<tag k="place" v="farm" />
		<tag k="ssr:stedsnr" v="933931" />
	</node>
	<node id="-21182" lat="59.6371469442" lon="10.9388579531">
		<tag k="alt_name" v="Skog nordre" />
		<tag k="fixme" v="consider place=hamlet" />
		<tag k="name" v="Nordre Skog" />
		<tag k="place" v="farm" />
		<tag k="ssr:stedsnr" v="933930" />
	</node>
	<node id="-21181" lat="59.6349222201" lon="10.9388472135">
		<tag k="alt_name" v="Skog søndre" />
		<tag k="fixme" v="consider place=hamlet" />
		<tag k="name" v="Søndre Skog" />
		<tag k="place" v="farm" />
		<tag k="ssr:stedsnr" v="933928" />
	</node>
	<node id="-21176" lat="59.6289833311" lon="10.9478444462">
		<tag k="name" v="Nærbølhagen" />
		<tag k="place" v="farm" />
		<tag k="ssr:stedsnr" v="932738" />
	</node>
	<node id="-21170" lat="59.5513472191" lon="10.8464055636">
		<tag k="alt_name" v="Skjelfoss" />
		<tag k="name" v="Skjellfoss" />
		<tag k="place" v="farm" />
		<tag k="ssr:stedsnr" v="914264" />
	</node>
	<node id="-21169" lat="59.5472833325" lon="10.8141138838">
		<tag k="name" v="Bråte" />
		<tag k="place" v="farm" />
		<tag k="ssr:stedsnr" v="914241" />
	</node>
	<node id="-21168" lat="59.5762249983" lon="10.8835722208">
		<tag k="name" v="Eng" />
		<tag k="place" v="farm" />
		<tag k="ssr:stedsnr" v="914231" />
	</node>
	<node id="-21167" lat="59.5710583311" lon="10.8907361105">
		<tag k="name" v="Holstad" />
		<tag k="place" v="farm" />
		<tag k="ssr:stedsnr" v="914227" />
	</node>
	<node id="-21166" lat="59.5653055587" lon="10.8785527775">
		<tag k="name" v="Rom" />
		<tag k="place" v="farm" />
		<tag k="ssr:stedsnr" v="914204" />
	</node>
	<node id="-21165" lat="59.5771249995" lon="10.9424833259">
		<tag k="name" v="Gaukestua" />
		<tag k="place" v="isolated_dwelling" />
		<tag k="ssr:stedsnr" v="914178" />
	</node>
	<node id="-21164" lat="59.6684277824" lon="11.0153249932">
		<tag k="name" v="Kråkeruddalen" />
		<tag k="place" v="farm" />
		<tag k="ssr:stedsnr" v="913444" />
	</node>
	<node id="-21163" lat="59.627563888" lon="10.984836116">
		<tag k="name" v="Torp" />
		<tag k="place" v="farm" />
		<tag k="ssr:stedsnr" v="913324" />
	</node>
	<node id="-21162" lat="59.6325999966" lon="11.0158361103">
		<tag k="name" v="Nordenga" />
		<tag k="place" v="farm" />
		<tag k="ssr:stedsnr" v="913307" />
	</node>
	<node id="-21161" lat="59.6315305547" lon="11.0527361081">
		<tag k="name" v="Hollebøl" />
		<tag k="place" v="farm" />
		<tag k="ssr:stedsnr" v="913305" />
	</node>
	<node id="-21160" lat="59.6357192206" lon="10.9391093503">
		<tag k="name" v="Skog" />
		<tag k="place" v="hamlet" />
		<tag k="ssr:stedsnr" v="913297" />
	</node>
	<node id="-21159" lat="59.6553333302" lon="11.023449997">
		<tag k="name" v="Roås" />
		<tag k="place" v="farm" />
		<tag k="ssr:stedsnr" v="913249" />
	</node>
	<node id="-21158" lat="59.5543444471" lon="10.9136499986">
		<tag k="name" v="Bakken" />
		<tag k="place" v="locality" />
		<tag k="ssr:stedsnr" v="873912" />
	</node>
	<node id="-21156" lat="59.5712333334" lon="10.8685999913">
		<tag k="name" v="Kolstad" />
		<tag k="place" v="farm" />
		<tag k="ssr:stedsnr" v="873894" />
	</node>
	<node id="-21155" lat="59.6185694464" lon="10.9224416584">
		<tag k="name" v="Groterud" />
		<tag k="place" v="isolated_dwelling" />
		<tag k="ssr:stedsnr" v="872967" />
	</node>
	<node id="-21154" lat="59.5498611073" lon="10.7937111191">
		<tag k="alt_name" v="Oddestad vestre" />
		<tag k="name" v="Vestre Oddestad" />
		<tag k="place" v="farm" />
		<tag k="ssr:stedsnr" v="871878" />
	</node>
	<node id="-21153" lat="59.6422416695" lon="10.9737611043">
		<tag k="name" v="Sagbakken" />
		<tag k="place" v="farm" />
		<tag k="ssr:stedsnr" v="871806" />
	</node>
	<node id="-21149" lat="59.6519583373" lon="11.0085972228">
		<tag k="name" v="Tomter" />
		<tag k="place" v="farm" />
		<tag k="ssr:stedsnr" v="871774" />
	</node>
	<node id="-21148" lat="59.6742361117" lon="10.9700638923">
		<tag k="name" v="Svanesund" />
		<tag k="place" v="farm" />
		<tag k="ssr:stedsnr" v="871761" />
	</node>
	<node id="-21145" lat="59.6830972235" lon="11.049408331">
		<tag k="alt_name" v="Jaren Øvre" />
		<tag k="name" v="Øvre Jaren" />
		<tag k="place" v="farm" />
		<tag k="ssr:stedsnr" v="854408" />
	</node>
	<node id="-21144" lat="59.572522219" lon="10.8857361071">
		<tag k="name" v="Tisbjørnrud" />
		<tag k="place" v="farm" />
		<tag k="ssr:stedsnr" v="854197" />
	</node>
	<node id="-21143" lat="59.5322833312" lon="10.8003055586">
		<tag k="alt_name" v="Daltun" />
		<tag k="name" v="Bekkhusmyra" />
		<tag k="place" v="farm" />
		<tag k="ssr:stedsnr" v="854005" />
	</node>
	<node id="-21140" lat="59.6055805549" lon="10.9093944404">
		<tag k="name" v="Åsen" />
		<tag k="place" v="farm" />
		<tag k="ssr:stedsnr" v="853366" />
	</node>
	<node id="-21139" lat="59.6157784855" lon="10.9783807586">
		<tag k="alt_name" v="Riggesem" />
		<tag k="fixme" v="consider place=hamlet" />
		<tag k="name" v="Riggesum" />
		<tag k="place" v="farm" />
		<tag k="ssr:stedsnr" v="853352" />
	</node>
	<node id="-21138" lat="59.6362361097" lon="11.0465499971">
		<tag k="name" v="Igsi" />
		<tag k="place" v="farm" />
		<tag k="ssr:stedsnr" v="853302" />
	</node>
	<node id="-21135" lat="59.6076527801" lon="10.9164805591">
		<tag k="name" v="Bilitt" />
		<tag k="place" v="farm" />
		<tag k="ssr:stedsnr" v="853116" />
	</node>
	<node id="-21134" lat="59.6573666629" lon="10.9956722171">
		<tag k="name" v="Brøholt" />
		<tag k="place" v="farm" />
		<tag k="ssr:stedsnr" v="852474" />
	</node>
	<node id="-21133" lat="59.5302805523" lon="10.8800027709">
		<tag k="fixme" v="consider tourism=alpine_hut or tourism=chalet" />
		<tag k="name" v="Askerødhytta" />
		<tag k="ssr:stedsnr" v="844894" />
		<tag k="tourism" v="wilderness_hut" />
	</node>
	<node id="-21130" lat="59.5872027799" lon="10.8754083335">
		<tag k="name" v="Snippen" />
		<tag k="place" v="isolated_dwelling" />
		<tag k="ssr:stedsnr" v="812944" />
	</node>
	<node id="-21129" lat="59.5827527798" lon="10.8387499945">
		<tag k="name" v="Låsken" />
		<tag k="place" v="farm" />
		<tag k="ssr:stedsnr" v="812941" />
	</node>
	<node id="-21128" lat="59.5577583299" lon="10.9206916708">
		<tag k="name" v="Piskopp" />
		<tag k="place" v="isolated_dwelling" />
		<tag k="ssr:stedsnr" v="812918" />
	</node>
	<node id="-21122" lat="59.6706749975" lon="11.0219833308">
		<tag k="name" v="Møllerstua" />
		<tag k="place" v="isolated_dwelling" />
		<tag k="ssr:stedsnr" v="811729" />
	</node>
	<node id="-21121" lat="59.5497333356" lon="10.799355562">
		<tag k="alt_name" v="Oddestad østre" />
		<tag k="name" v="Østre Oddestad" />
		<tag k="place" v="farm" />
		<tag k="ssr:stedsnr" v="810913" />
	</node>
	<node id="-21120" lat="59.6773472268" lon="10.9829861099">
		<tag k="alt_name" v="Svanebakke" />
		<tag k="name" v="Svanebakk" />
		<tag k="place" v="farm" />
		<tag k="ssr:stedsnr" v="792451" />
	</node>
	<node id="-21118" lat="59.6125972208" lon="10.9206000061">
		<tag k="name" v="Rød" />
		<tag k="place" v="farm" />
		<tag k="ssr:stedsnr" v="792346" />
	</node>
	<node id="-21117" lat="59.6229120977" lon="10.9507461234">
		<tag k="fixme" v="consider place=hamlet" />
		<tag k="name" v="Elvestad" />
		<tag k="place" v="village" />
		<tag k="ssr:stedsnr" v="792315" />
	</node>
	<node id="-21116" lat="59.6277305567" lon="10.9774722253">
		<tag k="alt_name" v="Vestgård" />
		<tag k="name" v="Vestgard" />
		<tag k="place" v="farm" />
		<tag k="ssr:stedsnr" v="792311" />
	</node>
	<node id="-21115" lat="59.5497000001" lon="10.79311112">
		<tag k="name" v="Oddestad" />
		<tag k="place" v="farm" />
		<tag k="ssr:stedsnr" v="792218" />
	</node>
	<node id="-21114" lat="59.5938250038" lon="11.0146138805">
		<tag k="name" v="Sagbakken" />
		<tag k="place" v="farm" />
		<tag k="ssr:stedsnr" v="792140" />
	</node>
	<node id="-21111" lat="59.594127774" lon="10.918252781">
		<tag k="name" v="Berger" />
		<tag k="place" v="farm" />
		<tag k="ssr:stedsnr" v="792133" />
	</node>
	<node id="-21110" lat="59.6357499964" lon="10.9629888889">
		<tag k="alt_name" v="Bjørkeskog" />
		<tag k="name" v="Bjerkeskog" />
		<tag k="place" v="farm" />
		<tag k="ssr:stedsnr" v="792039" />
	</node>
	<node id="-21109" lat="59.5472138903" lon="10.8488666618">
		<tag k="alt_name" v="Skjelfoss" />
		<tag k="name" v="Skjellfoss" />
		<tag k="place" v="farm" />
		<tag k="ssr:stedsnr" v="792037" />
	</node>
	<node id="-21108" lat="59.6607111109" lon="11.0263722277">
		<tag k="alt_name" v="Østereng" />
		<tag k="name" v="Geiteberg" />
		<tag k="place" v="farm" />
		<tag k="ssr:stedsnr" v="791468" />
	</node>
	<node id="-21107" lat="59.6638805555" lon="11.0193749961">
		<tag k="name" v="Kråkerud" />
		<tag k="place" v="farm" />
		<tag k="ssr:stedsnr" v="791467" />
	</node>
	<node id="-21106" lat="59.6561999977" lon="11.0109527753">
		<tag k="name" v="Nygård" />
		<tag k="place" v="farm" />
		<tag k="ssr:stedsnr" v="791464" />
	</node>
	<node id="-21105" lat="59.6650527763" lon="11.0239833391">
		<tag k="name" v="Myra" />
		<tag k="place" v="farm" />
		<tag k="ssr:stedsnr" v="791455" />
	</node>
	<node id="-21104" lat="59.6449666707" lon="10.9918944416">
		<tag k="name" v="Vestby" />
		<tag k="place" v="farm" />
		<tag k="ssr:stedsnr" v="791284" />
	</node>
	<node id="-21103" lat="59.6390192575" lon="10.9484011392">
		<tag k="name" v="Bråten" />
		<tag k="place" v="farm" />
		<tag k="ssr:stedsnr" v="791277" />
	</node>
	<node id="-21102" lat="59.6551916703" lon="11.016875001">
		<tag k="alt_name" v="Blikksland" />
		<tag k="name" v="Bliksland" />
		<tag k="place" v="farm" />
		<tag k="ssr:stedsnr" v="791252" />
	</node>
	<node id="-21101" lat="59.5574000021" lon="10.8411861039">
		<tag k="fixme" v="consider place=hamlet" />
		<tag k="name" v="Ringvoll" />
		<tag k="place" v="village" />
		<tag k="ssr:stedsnr" v="752437" />
	</node>
	<node id="-21100" lat="59.5930777752" lon="10.9404472255">
		<tag k="name" v="Sofiatomta" />
		<tag k="place" v="isolated_dwelling" />
		<tag k="ssr:stedsnr" v="751950" />
	</node>
	<node id="-21096" lat="59.6182888915" lon="10.9351750063">
		<tag k="alt_name" v="Greaker øvre" />
		<tag k="name" v="Øvre Greaker" />
		<tag k="place" v="farm" />
		<tag k="ssr:stedsnr" v="750959" />
	</node>
	<node id="-21095" lat="59.5479166634" lon="10.8094694385">
		<tag k="alt_name" v="Bråte vestre" />
		<tag k="name" v="Vestre Bråte" />
		<tag k="place" v="farm" />
		<tag k="ssr:stedsnr" v="750886" />
	</node>
	<node id="-21094" lat="59.5540888927" lon="10.7820861095">
		<tag k="alt_name" v="Brånen nordre" />
		<tag k="name" v="Nordre Brånen" />
		<tag k="place" v="farm" />
		<tag k="ssr:stedsnr" v="750852" />
	</node>
	<node id="-21092" lat="59.6815083332" lon="11.0149055595">
		<tag k="name" v="Sanner" />
		<tag k="place" v="isolated_dwelling" />
		<tag k="ssr:stedsnr" v="750773" />
	</node>
	<node id="-21090" lat="59.6311055546" lon="10.9579944427">
		<tag k="name" v="Støttum" />
		<tag k="place" v="farm" />
		<tag k="ssr:stedsnr" v="750750" />
	</node>
	<node id="-21089" lat="59.5543611135" lon="10.8912166616">
		<tag k="name" v="Kornetta" />
		<tag k="place" v="farm" />
		<tag k="ssr:stedsnr" v="732252" />
	</node>
	<node id="-21088" lat="59.5648805566" lon="10.8837527748">
		<tag k="name" v="Granrud" />
		<tag k="place" v="isolated_dwelling" />
		<tag k="ssr:stedsnr" v="732206" />
	</node>
	<node id="-21086" lat="59.6807777804" lon="11.0195666743">
		<tag k="name" v="Kroken" />
		<tag k="place" v="farm" />
		<tag k="ssr:stedsnr" v="731433" />
	</node>
	<node id="-21085" lat="59.6796527783" lon="10.9771527843">
		<tag k="alt_name" v="Vien nordre" />
		<tag k="name" v="Nordre Vien" />
		<tag k="place" v="farm" />
		<tag k="ssr:stedsnr" v="731407" />
	</node>
	<node id="-21084" lat="59.6105972241" lon="10.895827775">
		<tag k="name" v="Kattås" />
		<tag k="place" v="farm" />
		<tag k="ssr:stedsnr" v="731329" />
	</node>
	<node id="-21083" lat="59.6395750021" lon="10.9823527836">
		<tag k="name" v="Lyshaug" />
		<tag k="place" v="farm" />
		<tag k="ssr:stedsnr" v="731238" />
	</node>
	<node id="-21082" lat="59.6471583325" lon="11.0023583262">
		<tag k="alt_name" v="Kinnerud" />
		<tag k="name" v="Kinnerød" />
		<tag k="place" v="farm" />
		<tag k="ssr:stedsnr" v="731216" />
	</node>
	<node id="-21080" lat="59.5928444456" lon="10.921072228">
		<tag k="name" v="Mære" />
		<tag k="place" v="farm" />
		<tag k="ssr:stedsnr" v="691917" />
	</node>
	<node id="-21079" lat="59.5553416663" lon="10.9120444523">
		<tag k="name" v="Tyrihjellen" />
		<tag k="place" v="isolated_dwelling" />
		<tag k="ssr:stedsnr" v="691898" />
	</node>
	<node id="-21078" lat="59.5687138866" lon="10.8709527718">
		<tag k="name" v="Sørli" />
		<tag k="place" v="farm" />
		<tag k="ssr:stedsnr" v="691887" />
	</node>
	<node id="-21077" lat="59.6100166696" lon="10.9227222192">
		<tag k="name" v="Hvitsten" />
		<tag k="place" v="farm" />
		<tag k="ssr:stedsnr" v="690964" />
	</node>
	<node id="-21076" lat="59.6020888899" lon="10.8944416725">
		<tag k="name" v="Hulsbråten" />
		<tag k="place" v="farm" />
		<tag k="ssr:stedsnr" v="690962" />
	</node>
	<node id="-21075" lat="59.5528944435" lon="10.8244333373">
		<tag k="name" v="Sandaker" />
		<tag k="place" v="farm" />
		<tag k="ssr:stedsnr" v="690890" />
	</node>
	<node id="-21072" lat="59.6793888856" lon="10.9842444461">
		<tag k="name" v="Burås" />
		<tag k="place" v="isolated_dwelling" />
		<tag k="ssr:stedsnr" v="689805" />
	</node>
	<node id="-21071" lat="59.6498666661" lon="10.9872861196">
		<tag k="name" v="Tolfshus" />
		<tag k="place" v="farm" />
		<tag k="ssr:stedsnr" v="689797" />
	</node>
	<node id="-21069" lat="59.7001611138" lon="10.9756833365">
		<tag k="name" v="Holshytta" />
		<tag k="place" v="isolated_dwelling" />
		<tag k="ssr:stedsnr" v="689789" />
	</node>
	<node id="-21064" lat="59.6837500028" lon="11.0346027727">
		<tag k="alt_name" v="Svikebøl Øvre" />
		<tag k="name" v="Øvre Svikebøl" />
		<tag k="place" v="farm" />
		<tag k="ssr:stedsnr" v="671409" />
	</node>
	<node id="-21063" lat="59.5614361114" lon="10.8789583354">
		<tag k="alt_name" v="Bakknesa" />
		<tag k="name" v="Bakkneset" />
		<tag k="place" v="farm" />
		<tag k="ssr:stedsnr" v="671196" />
	</node>
	<node id="-21061" lat="59.6684472222" lon="11.0286972235">
		<tag k="name" v="Vaglen" />
		<tag k="place" v="farm" />
		<tag k="ssr:stedsnr" v="671019" />
	</node>
	<node id="-21060" lat="59.6626972188" lon="10.9830972249">
		<tag k="name" v="Solberg" />
		<tag k="place" v="farm" />
		<tag k="ssr:stedsnr" v="670459" />
	</node>
	<node id="-21059" lat="59.6635833291" lon="11.0371388896">
		<tag k="name" v="Sørli" />
		<tag k="place" v="isolated_dwelling" />
		<tag k="ssr:stedsnr" v="670456" />
	</node>
	<node id="-21058" lat="59.6716972253" lon="10.9971972154">
		<tag k="name" v="Føsker" />
		<tag k="place" v="farm" />
		<tag k="ssr:stedsnr" v="670452" />
	</node>
	<node id="-21057" lat="59.6143250031" lon="10.9984694445">
		<tag k="name" v="Grimsrud" />
		<tag k="place" v="farm" />
		<tag k="ssr:stedsnr" v="670360" />
	</node>
	<node id="-21056" lat="59.6204166632" lon="10.9965972248">
		<tag k="name" v="Jaren" />
		<tag k="place" v="farm" />
		<tag k="ssr:stedsnr" v="670349" />
	</node>
	<node id="-21055" lat="59.6316500029" lon="10.9574277723">
		<tag k="name" v="Støttum" />
		<tag k="place" v="farm" />
		<tag k="ssr:stedsnr" v="670304" />
	</node>
	<node id="-21054" lat="59.6424611077" lon="11.0123499953">
		<tag k="name" v="Kjærbu" />
		<tag k="place" v="farm" />
		<tag k="ssr:stedsnr" v="670282" />
	</node>
	<node id="-21053" lat="59.6392250025" lon="11.0075999944">
		<tag k="name" v="Lundeby" />
		<tag k="place" v="farm" />
		<tag k="ssr:stedsnr" v="670281" />
	</node>
	<node id="-21051" lat="59.6034861144" lon="11.008866675">
		<tag k="name" v="Lure" />
		<tag k="place" v="farm" />
		<tag k="ssr:stedsnr" v="670154" />
	</node>
	<node id="-21050" lat="59.554925001" lon="10.8097944373">
		<tag k="name" v="Råken" />
		<tag k="place" v="farm" />
		<tag k="ssr:stedsnr" v="671241" />
	</node>
	<node id="-21048" lat="59.6233638909" lon="10.9420944372">
		<tag k="alt_name" v="Tingulstad øvre" />
		<tag k="name" v="Øvre Tingulstad" />
		<tag k="place" v="farm" />
		<tag k="ssr:stedsnr" v="629973" />
	</node>
	<node id="-21046" lat="59.5571388885" lon="10.8418222229">
		<tag k="name" v="Ringvoll" />
		<tag k="place" v="isolated_dwelling" />
		<tag k="ssr:stedsnr" v="629922" />
	</node>
	<node id="-21045" lat="59.5702305538" lon="10.8733555562">
		<tag k="name" v="Fjellstad" />
		<tag k="place" v="farm" />
		<tag k="ssr:stedsnr" v="629917" />
	</node>
	<node id="-21044" lat="59.5598222215" lon="10.8218000056">
		<tag k="name" v="Holtet" />
		<tag k="place" v="farm" />
		<tag k="ssr:stedsnr" v="629894" />
	</node>
	<node id="-21043" lat="59.5731277769" lon="10.9818611067">
		<tag k="alt_name" v="Tretterstykker" />
		<tag k="name" v="Tretterstykke" />
		<tag k="place" v="locality" />
		<tag k="ssr:stedsnr" v="628965" />
	</node>
	<node id="-21042" lat="59.6021055521" lon="10.9289722275">
		<tag k="name" v="Hovin" />
		<tag k="place" v="isolated_dwelling" />
		<tag k="ssr:stedsnr" v="628959" />
	</node>
	<node id="-21040" lat="59.5318833297" lon="10.8362666628">
		<tag k="name" v="Høyås" />
		<tag k="old_name" v="Hoyås;Høiaas;Nordre Heiaas" />
		<tag k="place" v="farm" />
		<tag k="ssr:stedsnr" v="628905" />
	</node>
	<node id="-21039" lat="59.5459000019" lon="10.7989555613">
		<tag k="name" v="Stubberud" />
		<tag k="place" v="farm" />
		<tag k="ssr:stedsnr" v="628875" />
	</node>
	<node id="-21032" lat="59.6750722211" lon="10.9550916656">
		<tag k="name" v="Bjørnehjellen" />
		<tag k="place" v="farm" />
		<tag k="ssr:stedsnr" v="610479" />
	</node>
	<node id="-21030" lat="59.5952361092" lon="10.934455562">
		<tag k="alt_name" v="Hovinshytta" />
		<tag k="name" v="Hovin" />
		<tag k="place" v="farm" />
		<tag k="ssr:stedsnr" v="610163" />
	</node>
	<node id="-21029" lat="59.5972249986" lon="11.0275388856">
		<tag k="alt_name" v="Levestad" />
		<tag k="name" v="Levorstad" />
		<tag k="place" v="farm" />
		<tag k="ssr:stedsnr" v="610146" />
	</node>
	<node id="-21028" lat="59.5987111109" lon="10.9297111182">
		<tag k="name" v="Hovin" />
		<tag k="place" v="farm" />
		<tag k="ssr:stedsnr" v="610033" />
	</node>
	<node id="-21027" lat="59.5341388849" lon="10.8701722197">
		<tag k="name" v="Holmen" />
		<tag k="place" v="farm" />
		<tag k="ssr:stedsnr" v="610029" />
	</node>
	<node id="-21026" lat="59.5440305539" lon="10.785063889">
		<tag k="alt_name" v="Narvestad nedre" />
		<tag k="name" v="Narvestad" />
		<tag k="place" v="farm" />
		<tag k="ssr:stedsnr" v="610027" />
	</node>
	<node id="-21025" lat="59.6723388861" lon="10.9797944392">
		<tag k="alt_name" v="Stokstad" />
		<tag k="name" v="Stokkstad" />
		<tag k="place" v="farm" />
		<tag k="ssr:stedsnr" v="609453" />
	</node>
	<node id="-21024" lat="59.6680388896" lon="10.9884888922">
		<tag k="name" v="Villumstad" />
		<tag k="place" v="farm" />
		<tag k="ssr:stedsnr" v="609451" />
	</node>
	<node id="-21023" lat="59.604019441" lon="10.9044472247">
		<tag k="name" v="Bjerve" />
		<tag k="place" v="farm" />
		<tag k="ssr:stedsnr" v="609360" />
	</node>
	<node id="-21022" lat="59.6351750026" lon="10.9740055583">
		<tag k="name" v="Finnholt" />
		<tag k="place" v="farm" />
		<tag k="ssr:stedsnr" v="609304" />
	</node>
	<node id="-21021" lat="59.655866666" lon="11.0438638861">
		<tag k="name" v="Trosterud" />
		<tag k="place" v="farm" />
		<tag k="ssr:stedsnr" v="609242" />
	</node>
	<node id="-21020" lat="59.6864305515" lon="11.0371472197">
		<tag k="fixme" v="consider place=hamlet" />
		<tag k="name" v="Svikebøl" />
		<tag k="place" v="farm" />
		<tag k="ssr:stedsnr" v="600333" />
	</node>
	<node id="-21016" lat="59.6242416688" lon="11.0327388893">
		<tag k="alt_name" v="Knapstad" />
		<tag k="fixme" v="consider place=suburb, village or hamlet" />
		<tag k="name" v="Knappstad" />
		<tag k="place" v="quarter" />
		<tag k="ssr:stedsnr" v="570391" />
	</node>
	<node id="-21015" lat="59.5842472215" lon="10.8803250047">
		<tag k="name" v="Skogrom" />
		<tag k="place" v="isolated_dwelling" />
		<tag k="ssr:stedsnr" v="569912" />
	</node>
	<node id="-21014" lat="59.5694866152" lon="10.8550585823">
		<tag k="alt_name" v="Saksebøl øvre" />
		<tag k="name" v="Øvre Saksebøl" />
		<tag k="place" v="farm" />
		<tag k="ssr:stedsnr" v="569879" />
	</node>
	<node id="-21013" lat="59.5681916644" lon="10.8803749942">
		<tag k="name" v="Østereng" />
		<tag k="place" v="farm" />
		<tag k="ssr:stedsnr" v="569872" />
	</node>
	<node id="-21012" lat="59.5728444477" lon="10.8481111057">
		<tag k="name" v="Vestereng" />
		<tag k="place" v="farm" />
		<tag k="ssr:stedsnr" v="569871" />
	</node>
	<node id="-21011" lat="59.6205694427" lon="10.9217527797">
		<tag k="name" v="Groterud" />
		<tag k="place" v="isolated_dwelling" />
		<tag k="ssr:stedsnr" v="568962" />
	</node>
	<node id="-21009" lat="59.5608527775" lon="10.8037833337">
		<tag k="alt_name" v="Bjoner nedre" />
		<tag k="name" v="Nedre Bjoner" />
		<tag k="place" v="farm" />
		<tag k="ssr:stedsnr" v="568863" />
	</node>
	<node id="-21008" lat="59.6066694476" lon="10.8913055487">
		<tag k="name" v="Trollhetta" />
		<tag k="place" v="isolated_dwelling" />
		<tag k="ssr:stedsnr" v="567961" />
	</node>
	<node id="-21006" lat="59.6641027778" lon="10.9955222234">
		<tag k="name" v="Øyen" />
		<tag k="place" v="farm" />
		<tag k="ssr:stedsnr" v="567838" />
	</node>
	<node id="-21005" lat="59.6395472184" lon="10.9714833322">
		<tag k="name" v="Nesset" />
		<tag k="place" v="farm" />
		<tag k="ssr:stedsnr" v="567832" />
	</node>
	<node id="-20999" lat="59.6226527817" lon="10.9956972142">
		<tag k="name" v="Holtskolen" />
		<tag k="place" v="farm" />
		<tag k="ssr:stedsnr" v="567763" />
	</node>
	<node id="-20998" lat="59.6282916669" lon="10.9647694514">
		<tag k="name" v="Sulebru" />
		<tag k="place" v="farm" />
		<tag k="ssr:stedsnr" v="567758" />
	</node>
	<node id="-20997" lat="59.6078083326" lon="10.9451777758">
		<tag k="name" v="Kasperhytta" />
		<tag k="place" v="isolated_dwelling" />
		<tag k="ssr:stedsnr" v="567752" />
	</node>
	<node id="-20995" lat="59.6806055545" lon="11.0171777747">
		<tag k="name" v="Lund" />
		<tag k="place" v="isolated_dwelling" />
		<tag k="ssr:stedsnr" v="567746" />
	</node>
</osm>
