<?xml version="1.0" encoding="UTF-8"?>
<osm generator="osmapis" version="0.6">
	<node id="-20988" lat="59.6237888929" lon="10.9403888843">
		<tag k="name" v="Tingulstadbekken" />
		<tag k="ssr:stedsnr" v="508933" />
		<tag k="waterway" v="stream" />
	</node>
	<node id="-20846" lat="59.5692499957" lon="10.9321305635">
		<tag k="alt_name" v="Søretjern" />
		<tag k="name" v="Søretjernet" />
		<tag k="natural" v="water" />
		<tag k="ssr:stedsnr" v="125243" />
	</node>
	<node id="-20968" lat="59.6004305595" lon="10.9596749944">
		<tag k="name" v="Haslerudbekken" />
		<tag k="ssr:stedsnr" v="489149" />
		<tag k="waterway" v="stream" />
	</node>
	<node id="-20833" lat="59.5937249969" lon="10.9863666696">
		<tag k="name" v="Jutulbekken" />
		<tag k="ssr:stedsnr" v="82997" />
		<tag k="waterway" v="stream" />
	</node>
	<node id="-20832" lat="59.5899138925" lon="10.9911416597">
		<tag k="name" v="Mjærdammen" />
		<tag k="natural" v="water" />
		<tag k="ssr:stedsnr" v="82970" />
	</node>
	<node id="-21086" lat="59.6142527768" lon="10.9744999937">
		<tag k="name" v="Kvernhusbekken" />
		<tag k="ssr:stedsnr" v="689724" />
		<tag k="waterway" v="stream" />
	</node>
	<node id="-20825" lat="59.6228194405" lon="10.9778861191">
		<tag k="name" v="Fossbekken" />
		<tag k="ssr:stedsnr" v="82769" />
		<tag k="waterway" v="stream" />
	</node>
	<node id="-21199" lat="59.5593027808" lon="10.7912944378">
		<tag k="name" v="Garderbekken" />
		<tag k="ssr:stedsnr" v="933898" />
		<tag k="waterway" v="stream" />
	</node>
	<node id="-20813" lat="59.5459472242" lon="10.9470555605">
		<tag k="name" v="Svartbekken" />
		<tag k="ssr:stedsnr" v="65012" />
		<tag k="waterway" v="stream" />
	</node>
	<node id="-21194" lat="59.6144333378" lon="10.9904805594">
		<tag k="name" v="Sandakerbekken" />
		<tag k="ssr:stedsnr" v="932732" />
		<tag k="waterway" v="stream" />
	</node>
	<node id="-21190" lat="59.6990222234" lon="10.9686083362">
		<tag k="alt_name" v="Gørjetjern" />
		<tag k="name" v="Gjørjetjernet" />
		<tag k="natural" v="water" />
		<tag k="ssr:stedsnr" v="914413" />
	</node>
	<node id="-20933" lat="59.6142583365" lon="10.8839277759">
		<tag k="name" v="Kroerbekken" />
		<tag k="ssr:stedsnr" v="265957" />
		<tag k="waterway" v="stream" />
	</node>
	<node id="-20930" lat="59.5996194443" lon="10.8977805576">
		<tag k="name" v="Hulsbekken" />
		<tag k="ssr:stedsnr" v="264973" />
		<tag k="waterway" v="stream" />
	</node>
	<node id="-20795" lat="59.6491500017" lon="10.9799250021">
		<tag k="name" v="Solbergbekken" />
		<tag k="ssr:stedsnr" v="22832" />
		<tag k="waterway" v="stream" />
	</node>
	<node id="-20915" lat="59.542297222" lon="10.9855138862">
		<tag k="alt_name" v="Lommetjern" />
		<tag k="name" v="Lommetjernet" />
		<tag k="natural" v="water" />
		<tag k="ssr:stedsnr" v="247019" />
	</node>
	<node id="-20784" lat="59.6991916661" lon="11.0691250047">
		<tag k="alt_name" v="Skånetjern" />
		<tag k="name" v="Skånetjernet" />
		<tag k="natural" v="water" />
		<tag k="ssr:stedsnr" v="3350" />
	</node>
	<node id="-20778" lat="59.5667638872" lon="10.9167111194">
		<tag k="alt_name" v="Bølertjern" />
		<tag k="name" v="Bølertjernet" />
		<tag k="natural" v="water" />
		<tag k="ssr:stedsnr" v="3165" />
	</node>
	<node id="-21155" lat="59.6090833378" lon="10.9892583359">
		<tag k="alt_name" v="Storedalsbekken" />
		<tag k="name" v="Stordalsbekken" />
		<tag k="ssr:stedsnr" v="853119" />
		<tag k="waterway" v="stream" />
	</node>
	<node id="-21146" lat="59.5827083347" lon="10.9967444433">
		<tag k="name" v="Moenbekken" />
		<tag k="ssr:stedsnr" v="811973" />
		<tag k="waterway" v="stream" />
	</node>
	<node id="-21081" lat="59.579322221" lon="11.0178888816">
		<tag k="loc_name" v="Karusstjernet" />
		<tag k="name" v="Karustjernet" />
		<tag k="natural" v="water" />
		<tag k="ssr:stedsnr" v="671167" />
	</node>
	<node id="-21005" lat="59.5779000002" lon="10.9897027862">
		<tag k="name" v="Kroktjernet" />
		<tag k="natural" v="water" />
		<tag k="ssr:stedsnr" v="610204" />
	</node>
	<node id="-20750" lat="59.6766500009" lon="10.9540722146">
		<tag k="name" v="Sandbekken" />
		<tag k="ssr:stedsnr" v="386779" />
		<tag k="waterway" v="stream" />
	</node>
	<node id="-20877" lat="59.5682388924" lon="10.9805194473">
		<tag k="name" v="Stenerudtjernet" />
		<tag k="natural" v="water" />
		<tag k="ssr:stedsnr" v="186203" />
	</node>
	<node id="-21003" lat="59.5513749995" lon="10.9204555477">
		<tag k="alt_name" v="Bærøetjern" />
		<tag k="name" v="Bæretjernet" />
		<tag k="natural" v="water" />
		<tag k="ssr:stedsnr" v="550236" />
	</node>
</osm>
