<?xml version="1.0" encoding="UTF-8"?>
<osm generator="osmapis" version="0.6">
	<node id="-20730" lat="59.605316665" lon="10.9634777864">
		<tag k="highway" v="path" />
		<tag k="name" v="Korsveien" />
		<tag k="ssr:stedsnr" v="386761" />
	</node>
	<node id="-20972" lat="59.6248262925" lon="11.0324444069">
		<tag k="alt_name" v="Knappstad;Knapstad" />
		<tag k="name" v="Knapstad holdeplass" />
		<tag k="railway" v="halt" />
		<tag k="ssr:stedsnr" v="541355" />
		<tag k="train" v="yes" />
	</node>
	<node id="-20839" lat="59.6410111107" lon="10.969252776">
		<tag k="junction" v="yes" />
		<tag k="name" v="Klågot" />
		<tag k="place" v="locality" />
		<tag k="ssr:stedsnr" v="143810" />
	</node>
	<node id="-21081" lat="59.5615000028" lon="10.8815527756">
		<tag k="bridge" v="yes" />
		<tag k="layer" v="1" />
		<tag k="name" v="Holo" />
		<tag k="ssr:stedsnr" v="713472" />
	</node>
	<node id="-20878" lat="59.6684916665" lon="11.0130500077">
		<tag k="bridge" v="yes" />
		<tag k="layer" v="1" />
		<tag k="name" v="Vegger" />
		<tag k="ssr:stedsnr" v="228507" />
	</node>
	<node id="-21074" lat="59.5644999969" lon="10.8299805614">
		<tag k="junction" v="yes" />
		<tag k="name" v="Nummestad" />
		<tag k="place" v="locality" />
		<tag k="ssr:stedsnr" v="690279" />
	</node>
	<node id="-20816" lat="59.6570166678" lon="11.0180027825">
		<tag k="bridge" v="yes" />
		<tag k="layer" v="1" />
		<tag k="name" v="Bliksland" />
		<tag k="ssr:stedsnr" v="107466" />
	</node>
	<node id="-20680" lat="59.6219833328" lon="10.9833611184">
		<tag k="bridge" v="yes" />
		<tag k="layer" v="1" />
		<tag k="name" v="Foss" />
		<tag k="ssr:stedsnr" v="289473" />
	</node>
	<node id="-20679" lat="59.6421861107" lon="10.9777999965">
		<tag k="bridge" v="yes" />
		<tag k="layer" v="1" />
		<tag k="name" v="Brekke" />
		<tag k="ssr:stedsnr" v="289461" />
	</node>
	<node id="-21187" lat="59.6412361145" lon="10.9688583269">
		<tag k="bridge" v="yes" />
		<tag k="layer" v="1" />
		<tag k="name" v="Klågot" />
		<tag k="ssr:stedsnr" v="956493" />
	</node>
	<node id="-21186" lat="59.6862194437" lon="11.0403333298">
		<tag k="bridge" v="yes" />
		<tag k="layer" v="1" />
		<tag k="name" v="Jaren" />
		<tag k="ssr:stedsnr" v="956491" />
	</node>
	<node id="-21185" lat="59.6227638876" lon="10.9523694477">
		<tag k="bridge" v="yes" />
		<tag k="layer" v="1" />
		<tag k="name" v="Bovim" />
		<tag k="ssr:stedsnr" v="956487" />
	</node>
	<node id="-21184" lat="59.6220611106" lon="10.9712305515">
		<tag k="bridge" v="yes" />
		<tag k="layer" v="1" />
		<tag k="name" v="Foss" />
		<tag k="ssr:stedsnr" v="956484" />
	</node>
	<node id="-21049" lat="59.5953111071" lon="10.8954305576">
		<tag k="bridge" v="yes" />
		<tag k="layer" v="1" />
		<tag k="name" v="Huls" />
		<tag k="ssr:stedsnr" v="652436" />
	</node>
	<node id="-20789" lat="59.6598869452" lon="11.0023036874">
		<tag k="alt_name" v="Tomter" />
		<tag k="name" v="Tomter stasjon" />
		<tag k="railway" v="station" />
		<tag k="ssr:stedsnr" v="63518" />
		<tag k="train" v="yes" />
	</node>
	<node id="-20783" lat="59.6065138919" lon="10.9195888926">
		<tag k="bridge" v="yes" />
		<tag k="layer" v="1" />
		<tag k="name" v="Hobøl" />
		<tag k="ssr:stedsnr" v="46490" />
	</node>
	<node id="-21019" lat="59.6185555559" lon="10.9433111064">
		<tag k="bridge" v="yes" />
		<tag k="layer" v="1" />
		<tag k="name" v="Tingulstad" />
		<tag k="ssr:stedsnr" v="592500" />
	</node>
	<node id="-21018" lat="59.6228332094" lon="10.9496104619">
		<tag k="bridge" v="yes" />
		<tag k="layer" v="1" />
		<tag k="name" v="Elvestadkrysset" />
		<tag k="ssr:stedsnr" v="592488" />
	</node>
	<node id="-21017" lat="59.6224527753" lon="10.9863416668">
		<tag k="bridge" v="yes" />
		<tag k="layer" v="1" />
		<tag k="name" v="Feierkulpa" />
		<tag k="ssr:stedsnr" v="592485" />
	</node>
	<node id="-20752" lat="59.6284701165" lon="10.9550570014">
		<tag k="junction" v="yes" />
		<tag k="name" v="Elvestadkrysset" />
		<tag k="place" v="locality" />
		<tag k="ssr:stedsnr" v="981544" />
	</node>
	<node id="-20750" lat="59.655558335" lon="11.0040361113">
		<tag k="bridge" v="yes" />
		<tag k="layer" v="1" />
		<tag k="name" v="Brøholt" />
		<tag k="ssr:stedsnr" v="896473" />
	</node>
	<node id="-20877" lat="59.5783944456" lon="10.9375916598">
		<tag k="bridge" v="yes" />
		<tag k="layer" v="1" />
		<tag k="name" v="Tørjebrua" />
		<tag k="ssr:stedsnr" v="205944" />
	</node>
	<node id="-21132" lat="59.6223138927" lon="10.9839249991">
		<tag k="bridge" v="yes" />
		<tag k="layer" v="1" />
		<tag k="name" v="Hestehavna" />
		<tag k="ssr:stedsnr" v="835499" />
	</node>
	<node id="-21131" lat="59.5481750016" lon="10.8460083257">
		<tag k="bridge" v="yes" />
		<tag k="layer" v="1" />
		<tag k="name" v="Skjellfoss" />
		<tag k="ssr:stedsnr" v="835498" />
	</node>
</osm>
