<?xml version="1.0" encoding="UTF-8"?>
<osm generator="osmapis" version="0.6">
	<node id="-21118" lat="59.5542611082" lon="10.8485500072">
		<tag k="name" v="Sprangmyra" />
		<tag k="natural" v="wetland" />
		<tag k="ssr:stedsnr" v="751929" />
	</node>
	<node id="-20731" lat="59.5653833323" lon="10.9642583295">
		<tag k="name" v="Ertevassmyrene" />
		<tag k="natural" v="wetland" />
		<tag k="ssr:stedsnr" v="367157" />
	</node>
	<node id="-21112" lat="59.6386388852" lon="10.9557333274">
		<tag k="name" v="Mosseby" />
		<tag k="place" v="locality" />
		<tag k="ssr:stedsnr" v="750814" />
	</node>
	<node id="-20853" lat="59.6876749999" lon="11.018116675">
		<tag k="name" v="Holtsmosen" />
		<tag k="natural" v="wetland" />
		<tag k="ssr:stedsnr" v="143774" />
	</node>
	<node id="-20852" lat="59.6772361089" lon="10.9632944362">
		<tag k="loc_name" v="Multemyra" />
		<tag k="name" v="Svanesundmyra" />
		<tag k="natural" v="wetland" />
		<tag k="ssr:stedsnr" v="143764" />
	</node>
	<node id="-20723" lat="59.5745861125" lon="10.9773194515">
		<tag k="name" v="Breimyra" />
		<tag k="natural" v="wetland" />
		<tag k="ssr:stedsnr" v="325966" />
	</node>
	<node id="-20975" lat="59.5956083355" lon="11.0042388947">
		<tag k="name" v="Hyskemosen" />
		<tag k="natural" v="wetland" />
		<tag k="ssr:stedsnr" v="507767" />
	</node>
	<node id="-20716" lat="59.6864388879" lon="11.0165611053">
		<tag k="name" v="Holtet" />
		<tag k="place" v="locality" />
		<tag k="ssr:stedsnr" v="325765" />
	</node>
	<node id="-20714" lat="59.6082555573" lon="10.9614861084">
		<tag k="name" v="Dammen" />
		<tag k="place" v="locality" />
		<tag k="ssr:stedsnr" v="325739" />
	</node>
	<node id="-20967" lat="59.5348611103" lon="10.8151361072">
		<tag k="name" v="Stormyra" />
		<tag k="natural" v="wetland" />
		<tag k="ssr:stedsnr" v="489028" />
	</node>
	<node id="-21092" lat="59.5797888859" lon="10.9880388872">
		<tag k="name" v="Slåmosen" />
		<tag k="natural" v="wetland" />
		<tag k="ssr:stedsnr" v="689971" />
	</node>
	<node id="-20752" lat="59.6924083292" lon="10.9975611093">
		<tag k="name" v="Brånamosen" />
		<tag k="natural" v="wetland" />
		<tag k="ssr:stedsnr" v="386819" />
	</node>
	<node id="-21089" lat="59.6864333369" lon="10.971119447">
		<tag k="name" v="Vienmosen" />
		<tag k="natural" v="wetland" />
		<tag k="ssr:stedsnr" v="689790" />
	</node>
	<node id="-21087" lat="59.6843750042" lon="11.0227527731">
		<tag k="name" v="Kloppmyra" />
		<tag k="natural" v="wetland" />
		<tag k="ssr:stedsnr" v="689757" />
	</node>
	<node id="-21085" lat="59.5991194438" lon="11.0155472204">
		<tag k="name" v="Bølermosen" />
		<tag k="natural" v="wetland" />
		<tag k="ssr:stedsnr" v="689722" />
	</node>
	<node id="-21084" lat="59.5958472247" lon="10.9753999932">
		<tag k="name" v="Korsfurua" />
		<tag k="place" v="locality" />
		<tag k="ssr:stedsnr" v="689718" />
	</node>
	<node id="-20953" lat="59.5414305563" lon="10.8443277728">
		<tag k="name" v="Lure" />
		<tag k="place" v="locality" />
		<tag k="ssr:stedsnr" v="447912" />
	</node>
	<node id="-21192" lat="59.5974444415" lon="11.0083333262">
		<tag k="name" v="Sagholtet" />
		<tag k="place" v="locality" />
		<tag k="ssr:stedsnr" v="932722" />
	</node>
	<node id="-21056" lat="59.6986388929" lon="10.9855166652">
		<tag k="name" v="Høymyra" />
		<tag k="natural" v="wetland" />
		<tag k="ssr:stedsnr" v="628795" />
	</node>
	<node id="-20799" lat="59.5862277789" lon="10.9701194459">
		<tag k="name" v="Tjoremosen" />
		<tag k="natural" v="wetland" />
		<tag k="ssr:stedsnr" v="22973" />
	</node>
	<node id="-20926" lat="59.6616833304" lon="11.0422083376">
		<tag k="name" v="Tjormyra" />
		<tag k="natural" v="wetland" />
		<tag k="ssr:stedsnr" v="264807" />
	</node>
	<node id="-21052" lat="59.600422223" lon="11.0053694505">
		<tag k="landuse" v="meadow" />
		<tag k="name" v="Hysken" />
		<tag k="ssr:stedsnr" v="628736" />
	</node>
	<node id="-20724" lat="59.5864555567" lon="10.9463416623">
		<tag k="name" v="Merramyra" />
		<tag k="natural" v="wetland" />
		<tag k="ssr:stedsnr" v="325969" />
	</node>
	<node id="-20745" lat="59.608313885" lon="10.9991194364">
		<tag k="name" v="Grådalen" />
		<tag k="place" v="locality" />
		<tag k="ssr:stedsnr" v="386753" />
	</node>
	<node id="-21170" lat="59.7010249957" lon="10.9937666675">
		<tag k="name" v="Gaupesteinmosen" />
		<tag k="natural" v="wetland" />
		<tag k="ssr:stedsnr" v="871792" />
	</node>
	<node id="-21166" lat="59.6002555598" lon="10.9633250003">
		<tag k="name" v="Brånen" />
		<tag k="place" v="locality" />
		<tag k="ssr:stedsnr" v="871750" />
	</node>
	<node id="-21165" lat="59.6140027817" lon="10.9924055527">
		<tag k="name" v="Vestenga" />
		<tag k="place" v="locality" />
		<tag k="ssr:stedsnr" v="871747" />
	</node>
	<node id="-21160" lat="59.7045888933" lon="10.9898916601">
		<tag k="name" v="Gaupestein" />
		<tag k="natural" v="stone" />
		<tag k="ssr:stedsnr" v="853383" />
	</node>
	<node id="-21020" lat="59.5867333355" lon="11.0024555534">
		<tag k="name" v="Hvitmosen" />
		<tag k="natural" v="wetland" />
		<tag k="ssr:stedsnr" v="567783" />
	</node>
	<node id="-20889" lat="59.7016666633" lon="10.9701083344">
		<tag k="name" v="Åremosen" />
		<tag k="natural" v="wetland" />
		<tag k="ssr:stedsnr" v="204803" />
	</node>
	<node id="-21015" lat="59.6055083364" lon="11.0025694469">
		<tag k="name" v="Ødegården" />
		<tag k="place" v="locality" />
		<tag k="ssr:stedsnr" v="567750" />
	</node>
	<node id="-21142" lat="59.5994638917" lon="10.9872361198">
		<tag k="name" v="Jutulen" />
		<tag k="place" v="locality" />
		<tag k="ssr:stedsnr" v="811735" />
	</node>
	<node id="-20880" lat="59.5540305549" lon="10.9744222302">
		<tag k="alt_name" v="Seutmosen" />
		<tag k="name" v="Seutmosan" />
		<tag k="natural" v="wetland" />
		<tag k="ssr:stedsnr" v="186229" />
	</node>
	<node id="-20751" lat="59.6921777794" lon="11.0052277774">
		<tag k="name" v="Elgmyra" />
		<tag k="natural" v="wetland" />
		<tag k="ssr:stedsnr" v="386808" />
	</node>
	<node id="-21006" lat="59.5817027785" lon="10.8999416646">
		<tag k="name" v="Risermosan" />
		<tag k="natural" v="wetland" />
		<tag k="ssr:stedsnr" v="610206" />
	</node>
	<node id="-21004" lat="59.6943333291" lon="10.9770055532">
		<tag k="alt_name" v="Bredmosen" />
		<tag k="name" v="Breidmosan" />
		<tag k="natural" v="wetland" />
		<tag k="ssr:stedsnr" v="550406" />
	</node>
	<node id="-20747" lat="59.6118000041" lon="10.975802772">
		<tag k="name" v="Lauvås" />
		<tag k="place" v="locality" />
		<tag k="ssr:stedsnr" v="386757" />
	</node>
	<node id="-21143" lat="59.6125249965" lon="10.9914083338">
		<tag k="name" v="Nordreås" />
		<tag k="place" v="locality" />
		<tag k="ssr:stedsnr" v="811739" />
	</node>
	<node id="-20886" lat="59.6986111146" lon="11.0131583363">
		<tag k="name" v="Nordli" />
		<tag k="place" v="locality" />
		<tag k="ssr:stedsnr" v="204773" />
	</node>
</osm>
