<?xml version="1.0" encoding="UTF-8"?>
<osm generator="osmapis" version="0.6">
	<node id="-20736" lat="59.5389611137" lon="10.9315111149">
		<tag k="fixme" v="consider natural=peak for the most distinct mountains in the district" />
		<tag k="name" v="Korsfuruåsen" />
		<tag k="natural" v="hill" />
		<tag k="place" v="locality" />
		<tag k="ssr:stedsnr" v="368017" />
	</node>
	<node id="-21117" lat="59.5752444417" lon="10.9287027853">
		<tag k="fixme" v="consider natural=peak for the most distinct mountains in the district" />
		<tag k="name" v="Bjørnåsen" />
		<tag k="natural" v="hill" />
		<tag k="place" v="locality" />
		<tag k="ssr:stedsnr" v="751923" />
	</node>
	<node id="-21116" lat="59.5877888857" lon="10.989122226">
		<tag k="fixme" v="consider natural=peak for the most distinct mountains in the district" />
		<tag k="name" v="Bjørnåsen" />
		<tag k="natural" v="hill" />
		<tag k="place" v="locality" />
		<tag k="ssr:stedsnr" v="750971" />
	</node>
	<node id="-20728" lat="59.5702611152" lon="10.8972138873">
		<tag k="name" v="Steintørt" />
		<tag k="natural" v="slope" />
		<tag k="place" v="locality" />
		<tag k="ssr:stedsnr" v="326931" />
	</node>
	<node id="-20884" lat="59.5970527818" lon="11.0159638831">
		<tag k="fixme" v="consider natural=peak for the most distinct mountains in the district" />
		<tag k="name" v="Evensåsen" />
		<tag k="natural" v="hill" />
		<tag k="place" v="locality" />
		<tag k="ssr:stedsnr" v="204740" />
	</node>
	<node id="-21110" lat="59.6842472205" lon="11.019291666">
		<tag k="fixme" v="consider natural=peak for the most distinct mountains in the district" />
		<tag k="name" v="Krokåsen" />
		<tag k="natural" v="hill" />
		<tag k="place" v="locality" />
		<tag k="ssr:stedsnr" v="750771" />
	</node>
	<node id="-20981" lat="59.5466111114" lon="10.9409166741">
		<tag k="name" v="Brannstad" />
		<tag k="natural" v="valley" />
		<tag k="place" v="locality" />
		<tag k="ssr:stedsnr" v="507928" />
	</node>
	<node id="-20980" lat="59.5500222179" lon="10.9258416741">
		<tag k="fixme" v="consider natural=peak for the most distinct mountains in the district" />
		<tag k="name" v="Sagåsen" />
		<tag k="natural" v="hill" />
		<tag k="place" v="locality" />
		<tag k="ssr:stedsnr" v="507926" />
	</node>
	<node id="-21106" lat="59.5394750022" lon="10.9099611101">
		<tag k="fixme" v="consider natural=peak for the most distinct mountains in the district" />
		<tag k="name" v="Tjernsliåsen" />
		<tag k="natural" v="hill" />
		<tag k="place" v="locality" />
		<tag k="ssr:stedsnr" v="732015" />
	</node>
	<node id="-20977" lat="59.6891916643" lon="10.9820444359">
		<tag k="fixme" v="consider natural=peak for the most distinct mountains in the district" />
		<tag k="name" v="Lønjedalsåsen" />
		<tag k="natural" v="hill" />
		<tag k="place" v="locality" />
		<tag k="ssr:stedsnr" v="507829" />
	</node>
	<node id="-20719" lat="59.6859944468" lon="10.958200005">
		<tag k="name" v="Tjernsli" />
		<tag k="natural" v="slope" />
		<tag k="place" v="locality" />
		<tag k="ssr:stedsnr" v="325800" />
	</node>
	<node id="-20974" lat="59.6684861105" lon="11.0139222237">
		<tag k="name" v="Veggerdalen" />
		<tag k="natural" v="valley" />
		<tag k="place" v="locality" />
		<tag k="ssr:stedsnr" v="507759" />
	</node>
	<node id="-20973" lat="59.6876416633" lon="10.983486116">
		<tag k="fixme" v="consider natural=peak for the most distinct mountains in the district" />
		<tag k="name" v="Bergerudåsen" />
		<tag k="natural" v="hill" />
		<tag k="place" v="locality" />
		<tag k="ssr:stedsnr" v="489437" />
	</node>
	<node id="-20754" lat="59.6797055515" lon="10.9972666579">
		<tag k="fixme" v="consider natural=peak for the most distinct mountains in the district" />
		<tag k="name" v="Fjøsåsen" />
		<tag k="natural" v="hill" />
		<tag k="place" v="locality" />
		<tag k="ssr:stedsnr" v="386832" />
	</node>
	<node id="-20970" lat="59.5693750037" lon="10.9558277705">
		<tag k="alt_name" v="Lægeråsen" />
		<tag k="fixme" v="consider natural=peak for the most distinct mountains in the district" />
		<tag k="name" v="Legeråsen" />
		<tag k="natural" v="hill" />
		<tag k="place" v="locality" />
		<tag k="ssr:stedsnr" v="489245" />
	</node>
	<node id="-20849" lat="59.596408329" lon="10.9954083348">
		<tag k="name" v="Merradalen" />
		<tag k="natural" v="valley" />
		<tag k="place" v="locality" />
		<tag k="ssr:stedsnr" v="143735" />
	</node>
	<node id="-20850" lat="59.6312694489" lon="11.0207583371">
		<tag k="fixme" v="consider natural=peak for the most distinct mountains in the district" />
		<tag k="name" v="Toenåsen" />
		<tag k="natural" v="hill" />
		<tag k="place" v="locality" />
		<tag k="ssr:stedsnr" v="143753" />
	</node>
	<node id="-20831" lat="59.586974996" lon="10.9797666631">
		<tag k="fixme" v="consider natural=peak for the most distinct mountains in the district" />
		<tag k="name" v="Hytteåsen" />
		<tag k="natural" v="hill" />
		<tag k="place" v="locality" />
		<tag k="ssr:stedsnr" v="82969" />
	</node>
	<node id="-20830" lat="59.5802527809" lon="10.9951722262">
		<tag k="name" v="Moen" />
		<tag k="place" v="locality" />
		<tag k="ssr:stedsnr" v="82965" />
	</node>
	<node id="-20956" lat="59.5745888925" lon="10.9224999918">
		<tag k="fixme" v="consider natural=peak for the most distinct mountains in the district" />
		<tag k="name" v="Bøleråsen" />
		<tag k="natural" v="hill" />
		<tag k="place" v="locality" />
		<tag k="ssr:stedsnr" v="448916" />
	</node>
	<node id="-20955" lat="59.5830361098" lon="10.954441668">
		<tag k="name" v="Fugleleiken" />
		<tag k="place" v="locality" />
		<tag k="ssr:stedsnr" v="447968" />
	</node>
	<node id="-20950" lat="59.6077666671" lon="10.950461105">
		<tag k="fixme" v="consider natural=peak for the most distinct mountains in the district" />
		<tag k="name" v="Høgåsen" />
		<tag k="natural" v="hill" />
		<tag k="place" v="locality" />
		<tag k="ssr:stedsnr" v="447735" />
	</node>
	<node id="-20948" lat="59.6038222183" lon="10.9538527746">
		<tag k="fixme" v="consider natural=peak for the most distinct mountains in the district" />
		<tag k="name" v="Prestbråten" />
		<tag k="natural" v="hill" />
		<tag k="place" v="locality" />
		<tag k="ssr:stedsnr" v="447727" />
	</node>
	<node id="-20947" lat="59.6685555519" lon="11.0412305525">
		<tag k="name" v="Hovshytta" />
		<tag k="natural" v="slope" />
		<tag k="place" v="locality" />
		<tag k="ssr:stedsnr" v="447725" />
	</node>
	<node id="-20818" lat="59.6906055567" lon="10.9606638937">
		<tag k="name" v="Viendalen" />
		<tag k="natural" v="valley" />
		<tag k="place" v="locality" />
		<tag k="ssr:stedsnr" v="82834" />
	</node>
	<node id="-20794" lat="59.6071444489" lon="10.9899333319">
		<tag k="name" v="Dalsenga" />
		<tag k="natural" v="slope" />
		<tag k="place" v="locality" />
		<tag k="ssr:stedsnr" v="22759" />
	</node>
	<node id="-21071" lat="59.6477527745" lon="11.0343333278">
		<tag k="alt_name" v="Ulveåsen" />
		<tag k="fixme" v="consider natural=peak for the most distinct mountains in the district" />
		<tag k="name" v="Ulvåsen" />
		<tag k="natural" v="hill" />
		<tag k="place" v="locality" />
		<tag k="ssr:stedsnr" v="670262" />
	</node>
	<node id="-21198" lat="59.6442555584" lon="10.9668444466">
		<tag k="name" v="Kastet" />
		<tag k="natural" v="hill" />
		<tag k="place" v="locality" />
		<tag k="ssr:stedsnr" v="932809" />
	</node>
	<node id="-21197" lat="59.6412250025" lon="11.0085638901">
		<tag k="fixme" v="consider natural=peak for the most distinct mountains in the district" />
		<tag k="name" v="Lillebyåsen" />
		<tag k="natural" v="hill" />
		<tag k="place" v="locality" />
		<tag k="ssr:stedsnr" v="932766" />
	</node>
	<node id="-21196" lat="59.5880416628" lon="11.002280555">
		<tag k="name" v="Hareposten" />
		<tag k="natural" v="hill" />
		<tag k="place" v="locality" />
		<tag k="ssr:stedsnr" v="932751" />
	</node>
	<node id="-21066" lat="59.5440527761" lon="10.8858777801">
		<tag k="name" v="Tønnerøddalen" />
		<tag k="natural" v="valley" />
		<tag k="place" v="locality" />
		<tag k="ssr:stedsnr" v="629944" />
	</node>
	<node id="-21193" lat="59.6040638848" lon="10.9491472249">
		<tag k="name" v="Ommedalen" />
		<tag k="natural" v="valley" />
		<tag k="place" v="locality" />
		<tag k="ssr:stedsnr" v="932727" />
	</node>
	<node id="-21191" lat="59.6689611105" lon="11.0152305512">
		<tag k="name" v="Norddalen" />
		<tag k="natural" v="valley" />
		<tag k="place" v="locality" />
		<tag k="ssr:stedsnr" v="932708" />
	</node>
	<node id="-20934" lat="59.5694472202" lon="10.9254166641">
		<tag k="fixme" v="consider natural=peak for the most distinct mountains in the district" />
		<tag k="name" v="Brånen" />
		<tag k="natural" v="hill" />
		<tag k="place" v="locality" />
		<tag k="ssr:stedsnr" v="429205" />
	</node>
	<node id="-21060" lat="59.5443361106" lon="10.9133972302">
		<tag k="fixme" v="consider natural=peak for the most distinct mountains in the district" />
		<tag k="name" v="Marikova" />
		<tag k="natural" v="hill" />
		<tag k="place" v="locality" />
		<tag k="ssr:stedsnr" v="628908" />
	</node>
	<node id="-20931" lat="59.5778638894" lon="10.9998583371">
		<tag k="name" v="Smedebølstangen" />
		<tag k="natural" v="valley" />
		<tag k="place" v="locality" />
		<tag k="ssr:stedsnr" v="265000" />
	</node>
	<node id="-20905" lat="59.6061138856" lon="10.9682416721">
		<tag k="fixme" v="consider natural=peak for the most distinct mountains in the district" />
		<tag k="name" v="Høgåsen" />
		<tag k="natural" v="hill" />
		<tag k="place" v="locality" />
		<tag k="ssr:stedsnr" v="246147" />
	</node>
	<node id="-21057" lat="59.6921027792" lon="10.9914611111">
		<tag k="fixme" v="consider natural=peak for the most distinct mountains in the district" />
		<tag k="name" v="Mellemhaugen" />
		<tag k="natural" v="hill" />
		<tag k="place" v="locality" />
		<tag k="ssr:stedsnr" v="628797" />
	</node>
	<node id="-20721" lat="59.5401166643" lon="10.9206388908">
		<tag k="name" v="Orebru" />
		<tag k="natural" v="slope" />
		<tag k="place" v="locality" />
		<tag k="ssr:stedsnr" v="325918" />
	</node>
	<node id="-21055" lat="59.6336527756" lon="10.9793499958">
		<tag k="name" v="Ødegården" />
		<tag k="place" v="locality" />
		<tag k="ssr:stedsnr" v="628751" />
	</node>
	<node id="-20798" lat="59.5685750008" lon="10.9729999942">
		<tag k="name" v="Stutefoss" />
		<tag k="place" v="locality" />
		<tag k="ssr:stedsnr" v="22972" />
	</node>
	<node id="-21053" lat="59.6044000007" lon="10.9483527807">
		<tag k="name" v="Kongehulen" />
		<tag k="natural" v="valley" />
		<tag k="place" v="locality" />
		<tag k="ssr:stedsnr" v="628742" />
	</node>
	<node id="-21050" lat="59.6919333362" lon="11.0107000007">
		<tag k="alt_name" v="Høgbråtetoppen" />
		<tag k="fixme" v="consider natural=peak for the most distinct mountains in the district" />
		<tag k="name" v="Høgbråten" />
		<tag k="natural" v="hill" />
		<tag k="place" v="locality" />
		<tag k="ssr:stedsnr" v="610452" />
	</node>
	<node id="-20793" lat="59.6647055537" lon="11.0129972221">
		<tag k="name" v="Nordeng" />
		<tag k="natural" v="hill" />
		<tag k="place" v="locality" />
		<tag k="ssr:stedsnr" v="22748" />
	</node>
	<node id="-21176" lat="59.57036111" lon="10.9373694472">
		<tag k="fixme" v="consider natural=peak for the most distinct mountains in the district" />
		<tag k="name" v="Svenskeåsen" />
		<tag k="natural" v="hill" />
		<tag k="place" v="locality" />
		<tag k="ssr:stedsnr" v="873902" />
	</node>
	<node id="-20919" lat="59.5874583325" lon="10.9400333404">
		<tag k="alt_name" v="Hobølvarde" />
		<tag k="fixme" v="consider natural=peak for the most distinct mountains in the district" />
		<tag k="name" v="Hobøl varde" />
		<tag k="natural" v="hill" />
		<tag k="place" v="locality" />
		<tag k="ssr:stedsnr" v="247181" />
	</node>
	<node id="-20918" lat="59.5874166662" lon="10.9801722268">
		<tag k="alt_name" v="Juldalshøgda" />
		<tag k="fixme" v="consider natural=peak for the most distinct mountains in the district" />
		<tag k="name" v="Juledagshøgda" />
		<tag k="natural" v="hill" />
		<tag k="place" v="locality" />
		<tag k="ssr:stedsnr" v="247177" />
	</node>
	<node id="-21171" lat="59.6935083304" lon="10.9867222197">
		<tag k="fixme" v="consider natural=peak for the most distinct mountains in the district" />
		<tag k="name" v="Lauvåsen" />
		<tag k="natural" v="hill" />
		<tag k="place" v="locality" />
		<tag k="ssr:stedsnr" v="871796" />
	</node>
	<node id="-21169" lat="59.692511107" lon="11.0091361172">
		<tag k="fixme" v="consider natural=peak for the most distinct mountains in the district" />
		<tag k="name" v="Elgmyråsen" />
		<tag k="natural" v="hill" />
		<tag k="place" v="locality" />
		<tag k="ssr:stedsnr" v="871779" />
	</node>
	<node id="-20978" lat="59.6961833355" lon="10.9709611185">
		<tag k="fixme" v="consider natural=peak for the most distinct mountains in the district" />
		<tag k="name" v="Mellegårdskula" />
		<tag k="natural" v="hill" />
		<tag k="place" v="locality" />
		<tag k="ssr:stedsnr" v="507830" />
	</node>
	<node id="-21161" lat="59.6912722198" lon="10.9690777689">
		<tag k="fixme" v="consider natural=peak for the most distinct mountains in the district" />
		<tag k="name" v="Vangsåsen" />
		<tag k="natural" v="hill" />
		<tag k="place" v="locality" />
		<tag k="ssr:stedsnr" v="853412" />
	</node>
	<node id="-21029" lat="59.5433305556" lon="10.881358334">
		<tag k="name" v="Askerød" />
		<tag k="natural" v="slope" />
		<tag k="place" v="locality" />
		<tag k="ssr:stedsnr" v="568923" />
	</node>
	<node id="-21156" lat="59.5495888894" lon="10.9794861128">
		<tag k="alt_name" v="Gammeleriken" />
		<tag k="fixme" v="consider natural=peak for the most distinct mountains in the district" />
		<tag k="loc_name" v="Gamle-Eriken" />
		<tag k="name" v="Gamleeriken" />
		<tag k="natural" v="hill" />
		<tag k="place" v="locality" />
		<tag k="ssr:stedsnr" v="853206" />
	</node>
	<node id="-20703" lat="59.5827749962" lon="10.9599861061">
		<tag k="fixme" v="consider natural=peak for the most distinct mountains in the district" />
		<tag k="name" v="Bjørnås" />
		<tag k="natural" v="hill" />
		<tag k="place" v="locality" />
		<tag k="ssr:stedsnr" v="307184" />
	</node>
	<node id="-21026" lat="59.5414555518" lon="10.9303250061">
		<tag k="fixme" v="consider natural=peak for the most distinct mountains in the district" />
		<tag k="name" v="Østensmyråsen" />
		<tag k="natural" v="hill" />
		<tag k="place" v="locality" />
		<tag k="ssr:stedsnr" v="567938" />
	</node>
	<node id="-20769" lat="59.6459249989" lon="10.9319777733">
		<tag k="alt_name" v="Brekkaåsen" />
		<tag k="fixme" v="consider natural=peak for the most distinct mountains in the district" />
		<tag k="name" v="Brekkeåsen" />
		<tag k="natural" v="hill" />
		<tag k="place" v="locality" />
		<tag k="ssr:stedsnr" v="689481" />
	</node>
	<node id="-21023" lat="59.6902861074" lon="10.9760472193">
		<tag k="fixme" v="consider natural=peak for the most distinct mountains in the district" />
		<tag k="name" v="Engskula" />
		<tag k="natural" v="hill" />
		<tag k="place" v="locality" />
		<tag k="ssr:stedsnr" v="567821" />
	</node>
	<node id="-21022" lat="59.6878749991" lon="10.9771888862">
		<tag k="name" v="Lønjedalen" />
		<tag k="natural" v="valley" />
		<tag k="place" v="locality" />
		<tag k="ssr:stedsnr" v="567816" />
	</node>
	<node id="-21021" lat="59.6883527814" lon="11.0029694426">
		<tag k="name" v="Spissdalen" />
		<tag k="natural" v="valley" />
		<tag k="place" v="locality" />
		<tag k="ssr:stedsnr" v="567802" />
	</node>
	<node id="-20892" lat="59.5812750022" lon="10.9995250069">
		<tag k="name" v="Sandmoen" />
		<tag k="place" v="locality" />
		<tag k="ssr:stedsnr" v="204974" />
	</node>
	<node id="-21019" lat="59.6783388881" lon="10.9694638951">
		<tag k="fixme" v="consider natural=peak for the most distinct mountains in the district" />
		<tag k="name" v="Multemyråsen" />
		<tag k="natural" v="hill" />
		<tag k="place" v="locality" />
		<tag k="ssr:stedsnr" v="567774" />
	</node>
	<node id="-21145" lat="59.6982916656" lon="11.0032194499">
		<tag k="fixme" v="consider natural=peak for the most distinct mountains in the district" />
		<tag k="name" v="Sponåsen" />
		<tag k="natural" v="hill" />
		<tag k="place" v="locality" />
		<tag k="ssr:stedsnr" v="811779" />
	</node>
	<node id="-21144" lat="59.68334722" lon="11.0223416614">
		<tag k="fixme" v="consider natural=peak for the most distinct mountains in the district" />
		<tag k="name" v="Surbyåsen" />
		<tag k="natural" v="hill" />
		<tag k="place" v="locality" />
		<tag k="ssr:stedsnr" v="811769" />
	</node>
	<node id="-20759" lat="59.5926249964" lon="10.9759555531">
		<tag k="name" v="Ulvegravene" />
		<tag k="natural" v="valley" />
		<tag k="place" v="locality" />
		<tag k="ssr:stedsnr" v="386995" />
	</node>
	<node id="-20758" lat="59.5861833347" lon="10.9980944375">
		<tag k="fixme" v="consider natural=peak for the most distinct mountains in the district" />
		<tag k="name" v="Sponåsfestingen" />
		<tag k="natural" v="hill" />
		<tag k="place" v="locality" />
		<tag k="ssr:stedsnr" v="386978" />
	</node>
	<node id="-21013" lat="59.6671222216" lon="11.0359805556">
		<tag k="fixme" v="consider natural=peak for the most distinct mountains in the district" />
		<tag k="name" v="Revåsen" />
		<tag k="natural" v="hill" />
		<tag k="place" v="locality" />
		<tag k="ssr:stedsnr" v="567743" />
	</node>
	<node id="-21012" lat="59.666999996" lon="11.0126972219">
		<tag k="name" v="Veggernesset" />
		<tag k="place" v="locality" />
		<tag k="ssr:stedsnr" v="567738" />
	</node>
	<node id="-20883" lat="59.5456861148" lon="10.923175006">
		<tag k="name" v="Slora" />
		<tag k="natural" v="valley" />
		<tag k="place" v="locality" />
		<tag k="ssr:stedsnr" v="204930" />
	</node>
	<node id="-21138" lat="59.680572222" lon="10.9649527841">
		<tag k="fixme" v="consider natural=peak for the most distinct mountains in the district" />
		<tag k="name" v="Bjørnåsen" />
		<tag k="natural" v="hill" />
		<tag k="place" v="locality" />
		<tag k="ssr:stedsnr" v="792420" />
	</node>
	<node id="-20753" lat="59.6523833349" lon="10.9789749974">
		<tag k="name" v="Plundropp" />
		<tag k="natural" v="slope" />
		<tag k="place" v="locality" />
		<tag k="ssr:stedsnr" v="386827" />
	</node>
	<node id="-20888" lat="59.6884305551" lon="11.0010333383">
		<tag k="fixme" v="consider natural=peak for the most distinct mountains in the district" />
		<tag k="name" v="Vardåsen" />
		<tag k="natural" v="hill" />
		<tag k="place" v="locality" />
		<tag k="ssr:stedsnr" v="204797" />
	</node>
	<node id="-20717" lat="59.6642666673" lon="11.0396222264">
		<tag k="name" v="Strevopp" />
		<tag k="natural" v="slope" />
		<tag k="place" v="locality" />
		<tag k="ssr:stedsnr" v="325772" />
	</node>
	<node id="-21132" lat="59.5990916694" lon="10.9925861025">
		<tag k="alt_name" v="Jutulåsen" />
		<tag k="fixme" v="consider natural=peak for the most distinct mountains in the district" />
		<tag k="name" v="Jutulen" />
		<tag k="natural" v="hill" />
		<tag k="place" v="locality" />
		<tag k="ssr:stedsnr" v="792138" />
	</node>
	<node id="-21131" lat="59.5945666655" lon="10.9946555643">
		<tag k="fixme" v="consider natural=peak for the most distinct mountains in the district" />
		<tag k="name" v="Gampåsen" />
		<tag k="natural" v="hill" />
		<tag k="place" v="locality" />
		<tag k="ssr:stedsnr" v="792137" />
	</node>
	<node id="-20874" lat="59.5893055548" lon="10.9956722236">
		<tag k="fixme" v="consider natural=peak for the most distinct mountains in the district" />
		<tag k="name" v="Sponåsen" />
		<tag k="natural" v="hill" />
		<tag k="place" v="locality" />
		<tag k="ssr:stedsnr" v="186170" />
	</node>
	<node id="-20891" lat="59.6805361115" lon="10.9914055539">
		<tag k="fixme" v="consider natural=peak for the most distinct mountains in the district" />
		<tag k="name" v="Kølabånnåsen" />
		<tag k="natural" v="hill" />
		<tag k="place" v="locality" />
		<tag k="ssr:stedsnr" v="204815" />
	</node>
	<node id="-20743" lat="59.539597223" lon="10.8374194366">
		<tag k="fixme" v="consider natural=peak for the most distinct mountains in the district" />
		<tag k="name" v="Norderås" />
		<tag k="natural" v="hill" />
		<tag k="place" v="locality" />
		<tag k="ssr:stedsnr" v="385928" />
	</node>
	<node id="-20997" lat="59.5366611072" lon="10.9021611049">
		<tag k="fixme" v="consider natural=peak for the most distinct mountains in the district" />
		<tag k="name" v="Hytteåsen" />
		<tag k="natural" v="hill" />
		<tag k="place" v="locality" />
		<tag k="ssr:stedsnr" v="550034" />
	</node>
	<node id="-20779" lat="59.5590527736" lon="10.9515499983">
		<tag k="fixme" v="consider natural=peak for the most distinct mountains in the district" />
		<tag k="name" v="Helvete" />
		<tag k="natural" v="hill" />
		<tag k="place" v="locality" />
		<tag k="ssr:stedsnr" v="3166" />
	</node>
</osm>
