<?xml version="1.0" encoding="UTF-8"?>
<osm generator="osmapis" version="0.6">
	<node id="-133759" lat="60.5181472189" lon="10.6756305562">
		<tag k="name" v="Hågåbekken" />
		<tag k="ssr:stedsnr" v="796062" />
		<tag k="waterway" v="stream" />
	</node>
	<node id="-133366" lat="60.5719333299" lon="10.6250999982">
		<tag k="name" v="Sangnæsbekken" />
		<tag k="ssr:stedsnr" v="177214" />
		<tag k="waterway" v="stream" />
	</node>
	<node id="-133109" lat="60.6078944421" lon="10.626230554">
		<tag k="name" v="Blilisanden" />
		<tag k="natural" v="beach" />
		<tag k="ssr:stedsnr" v="310183" />
	</node>
	<node id="-133236" lat="60.6454611099" lon="10.5851777765">
		<tag k="name" v="Lortputten" />
		<tag k="natural" v="water" />
		<tag k="ssr:stedsnr" v="7281" />
	</node>
	<node id="-133875" lat="60.6696499976" lon="10.6513472295">
		<tag k="name" v="Rauputten" />
		<tag k="natural" v="water" />
		<tag k="ssr:stedsnr" v="966809" />
	</node>
	<node id="-133104" lat="60.5811805573" lon="10.5664972254">
		<tag k="alt_name" v="Skreppelva" />
		<tag k="name" v="Skreppeelva" />
		<tag k="ssr:stedsnr" v="310138" />
		<tag k="waterway" v="river" />
	</node>
	<node id="-133102" lat="60.5621250014" lon="10.5575166672">
		<tag k="name" v="Rognlitjernet" />
		<tag k="natural" v="water" />
		<tag k="ssr:stedsnr" v="310127" />
	</node>
	<node id="-133869" lat="60.621166663" lon="10.5805166686">
		<tag k="name" v="Strømstadelva" />
		<tag k="ssr:stedsnr" v="951620" />
		<tag k="waterway" v="river" />
	</node>
	<node id="-133612" lat="60.6172750041" lon="10.5826777759">
		<tag k="name" v="Gørvika" />
		<tag k="natural" v="bay" />
		<tag k="ssr:stedsnr" v="613205" />
	</node>
	<node id="-133616" lat="60.6467055554" lon="10.6432944453">
		<tag k="alt_name" v="Sivesintjernet" />
		<tag k="name" v="Sivesintjern" />
		<tag k="natural" v="water" />
		<tag k="ssr:stedsnr" v="613276" />
	</node>
	<node id="-133535" lat="60.7180027759" lon="10.639255556">
		<tag k="name" v="Korta" />
		<tag k="ssr:stedsnr" v="508757" />
		<tag k="waterway" v="stream" />
	</node>
	<node id="-133349" lat="60.6912361115" lon="10.7291166755">
		<tag k="name" v="Kauserudtjernet" />
		<tag k="natural" v="water" />
		<tag k="ssr:stedsnr" v="128958" />
	</node>
	<node id="-133604" lat="60.6738666704" lon="10.6624777743">
		<tag k="name" v="Rudsbekken" />
		<tag k="ssr:stedsnr" v="605260" />
		<tag k="waterway" v="stream" />
	</node>
	<node id="-133219" lat="60.5123250033" lon="10.6378277697">
		<tag k="alt_name" v="Evjubekken" />
		<tag k="name" v="Evjua" />
		<tag k="ssr:stedsnr" v="6084" />
		<tag k="waterway" v="stream" />
	</node>
	<node id="-133602" lat="60.6800166647" lon="10.6783361026">
		<tag k="name" v="Fredagsputten" />
		<tag k="natural" v="water" />
		<tag k="ssr:stedsnr" v="602537" />
		<tag k="water" v="pond" />
	</node>
	<node id="-133307" lat="60.653930551" lon="10.5983111195">
		<tag k="name" v="Vestbakkdammen" />
		<tag k="natural" v="water" />
		<tag k="ssr:stedsnr" v="102444" />
		<tag k="water" v="pond" />
	</node>
	<node id="-133471" lat="60.6283908396" lon="10.5641047232">
		<tag k="name" v="Skjelbreida" />
		<tag k="natural" v="water" />
		<tag k="old_name" v="Skjellbreia;Skjelbreia" />
		<tag k="ssr:stedsnr" v="432215" />
		<tag k="water" v="lake" />
	</node>
	<node id="-133214" lat="60.7067527788" lon="10.5117805631">
		<tag k="alt_name" v="Skjærsjøen" />
		<tag k="name" v="Skjersjøen" />
		<tag k="natural" v="water" />
		<tag k="ssr:stedsnr" v="431436" />
	</node>
	<node id="-133469" lat="60.6001361121" lon="10.6216944447">
		<tag k="name" v="Skavangen" />
		<tag k="natural" v="cape" />
		<tag k="ssr:stedsnr" v="432168" />
	</node>
	<node id="-133084" lat="60.6654999981" lon="10.5715611064">
		<tag k="name" v="Seterputten" />
		<tag k="natural" v="water" />
		<tag k="ssr:stedsnr" v="284377" />
		<tag k="water" v="pond" />
	</node>
	<node id="-133594" lat="60.6146888882" lon="10.5867222178">
		<tag k="name" v="Korpnebben" />
		<tag k="natural" v="cape" />
		<tag k="ssr:stedsnr" v="587608" />
	</node>
	<node id="-133592" lat="60.6570083294" lon="10.4903361128">
		<tag k="name" v="Furusetdammen" />
		<tag k="natural" v="water" />
		<tag k="ssr:stedsnr" v="586747" />
		<tag k="water" v="pond" />
	</node>
	<node id="-133589" lat="60.6031833324" lon="10.6280027817">
		<tag k="name" v="Næsvika" />
		<tag k="natural" v="bay" />
		<tag k="ssr:stedsnr" v="586185" />
	</node>
	<node id="-133076" lat="60.6665583353" lon="10.6661027766">
		<tag k="alt_name" v="Bergsjøen vesle" />
		<tag k="name" v="Vesle Bergsjøen" />
		<tag k="natural" v="water" />
		<tag k="ssr:stedsnr" v="269807" />
	</node>
	<node id="-133520" lat="60.6756833296" lon="10.5718527803">
		<tag k="name" v="Buertjernet" />
		<tag k="natural" v="water" />
		<tag k="ssr:stedsnr" v="492254" />
	</node>
	<node id="-133712" lat="60.5721000006" lon="10.6328388947">
		<tag k="alt_name" v="Einafjorden" />
		<tag k="name" v="Einavatnet" />
		<tag k="natural" v="water" />
		<tag k="old_name" v="Enevand;Eina-Vd;Eina Vd;Eina" />
		<tag k="ssr:stedsnr" v="735133" />
		<tag k="water" v="lake" />
	</node>
	<node id="-133836" lat="60.5525500017" lon="10.5909472265">
		<tag k="name" v="Sangnesbekken" />
		<tag k="ssr:stedsnr" v="917094" />
		<tag k="waterway" v="stream" />
	</node>
	<node id="-133191" lat="60.5995694418" lon="10.5896888927">
		<tag k="name" v="Mørkodden" />
		<tag k="natural" v="cape" />
		<tag k="ssr:stedsnr" v="888572" />
	</node>
	<node id="-133702" lat="60.7094000028" lon="10.6539916693">
		<tag k="name" v="Gårderputten" />
		<tag k="natural" v="water" />
		<tag k="ssr:stedsnr" v="723895" />
		<tag k="water" v="pond" />
	</node>
	<node id="-133573" lat="60.614458336" lon="10.5821055537">
		<tag k="name" v="Støvika" />
		<tag k="natural" v="bay" />
		<tag k="ssr:stedsnr" v="553194" />
	</node>
	<node id="-133572" lat="60.5984138903" lon="10.5993777817">
		<tag k="name" v="Trangvika" />
		<tag k="natural" v="bay" />
		<tag k="ssr:stedsnr" v="553171" />
	</node>
	<node id="-133789" lat="60.6919944428" lon="10.5005999924">
		<tag k="name" v="Korperudbekken" />
		<tag k="ssr:stedsnr" v="830472" />
		<tag k="waterway" v="stream" />
	</node>
	<node id="-133150" lat="60.616219444" lon="10.5544555476">
		<tag k="alt_name" v="Hågårbekken" />
		<tag k="name" v="Hågårtjernbekken" />
		<tag k="ssr:stedsnr" v="370247" />
		<tag k="waterway" v="stream" />
	</node>
	<node id="-133821" lat="60.6815416633" lon="10.655852782">
		<tag k="name" v="Klopptjernet" />
		<tag k="natural" v="water" />
		<tag k="ssr:stedsnr" v="857356" />
	</node>
	<node id="-133692" lat="60.6178444413" lon="10.5947527697">
		<tag k="name" v="Brenna" />
		<tag k="natural" v="cape" />
		<tag k="ssr:stedsnr" v="708584" />
	</node>
	<node id="-133819" lat="60.6453944478" lon="10.5450694438">
		<tag k="alt_name" v="Vegtjernet" />
		<tag k="name" v="Veitjernet" />
		<tag k="natural" v="water" />
		<tag k="ssr:stedsnr" v="857301" />
	</node>
	<node id="-133663" lat="60.6463999993" lon="10.5726583377">
		<tag k="alt_name" v="Kulltjernet" />
		<tag k="name" v="Koltjernet" />
		<tag k="natural" v="water" />
		<tag k="ssr:stedsnr" v="674269" />
	</node>
	<node id="-133816" lat="60.6490999988" lon="10.4963500005">
		<tag k="name" v="Vadbekken" />
		<tag k="ssr:stedsnr" v="857293" />
		<tag k="waterway" v="stream" />
	</node>
	<node id="-133302" lat="60.6182083347" lon="10.6256722285">
		<tag k="name" v="Thunetjernet" />
		<tag k="natural" v="water" />
		<tag k="ssr:stedsnr" v="101071" />
	</node>
	<node id="-133813" lat="60.604119444" lon="10.6008111028">
		<tag k="name" v="Brurholmen" />
		<tag k="place" v="islet" />
		<tag k="ssr:stedsnr" v="857204" />
	</node>
	<node id="-133662" lat="60.6553027787" lon="10.6880944496">
		<tag k="name" v="Bøvra" />
		<tag k="ssr:stedsnr" v="674252" />
		<tag k="waterway" v="stream" />
	</node>
	<node id="-133553" lat="60.5809249965" lon="10.6669416652">
		<tag k="alt_name" v="Bjørnerudelva" />
		<tag k="name" v="Vigga" />
		<tag k="ssr:stedsnr" v="552170" />
		<tag k="waterway" v="river" />
	</node>
	<node id="-133424" lat="60.6981472203" lon="10.7266277804">
		<tag k="alt_name" v="Sillongen" />
		<tag k="name" v="Sillungen" />
		<tag k="natural" v="water" />
		<tag k="ssr:stedsnr" v="236955" />
	</node>
	<node id="-133128" lat="60.7044305562" lon="10.7251999992">
		<tag k="fixme" v="multiple name tags, choose one and add the other to alt_name" />
		<tag k="name" v="Eriksrudtjernet;Nordtjernet" />
		<tag k="natural" v="water" />
		<tag k="ssr:stedsnr" v="310932" />
	</node>
	<node id="-133678" lat="60.5932222259" lon="10.5558694472">
		<tag k="name" v="Abbortjernet" />
		<tag k="natural" v="water" />
		<tag k="ssr:stedsnr" v="675198" />
	</node>
	<node id="-133677" lat="60.6955138898" lon="10.744625009">
		<tag k="name" v="Slomma" />
		<tag k="natural" v="water" />
		<tag k="ssr:stedsnr" v="674954" />
	</node>
	<node id="-133648" lat="60.6539333374" lon="10.5406305638">
		<tag k="name" v="Gauplibekken" />
		<tag k="ssr:stedsnr" v="647764" />
		<tag k="waterway" v="stream" />
	</node>
	<node id="-133801" lat="60.5841250011" lon="10.5447111046">
		<tag k="name" v="Lomtjernet" />
		<tag k="natural" v="water" />
		<tag k="ssr:stedsnr" v="856176" />
	</node>
	<node id="-133800" lat="60.5703138917" lon="10.5290555536">
		<tag k="alt_name" v="Søstebyelva" />
		<tag k="name" v="Steinbekken" />
		<tag k="ssr:stedsnr" v="856152" />
		<tag k="waterway" v="stream" />
	</node>
	<node id="-133724" lat="60.6793583348" lon="10.6926499953">
		<tag k="name" v="Steffensrudtjernet" />
		<tag k="natural" v="water" />
		<tag k="ssr:stedsnr" v="735341" />
	</node>
	<node id="-133542" lat="60.6193027734" lon="10.5679972189">
		<tag k="name" v="Langvika" />
		<tag k="natural" v="bay" />
		<tag k="ssr:stedsnr" v="526621" />
	</node>
	<node id="-133144" lat="60.6787361087" lon="10.6227027765">
		<tag k="name" v="Prestseterbekken" />
		<tag k="ssr:stedsnr" v="359252" />
		<tag k="waterway" v="stream" />
	</node>
	<node id="-133284" lat="60.6014861093" lon="10.6014111139">
		<tag k="name" v="Lauvodden" />
		<tag k="natural" v="cape" />
		<tag k="ssr:stedsnr" v="68192" />
	</node>
	<node id="-133155" lat="60.6732388851" lon="10.5847472133">
		<tag k="name" v="Tjernsbekken" />
		<tag k="ssr:stedsnr" v="370349" />
		<tag k="waterway" v="stream" />
	</node>
	<node id="-133328" lat="60.5872916664" lon="10.5486972165">
		<tag k="name" v="Hardtjernet" />
		<tag k="natural" v="water" />
		<tag k="ssr:stedsnr" v="128147" />
	</node>
	<node id="-133360" lat="60.621083334" lon="10.562347218">
		<tag k="name" v="Langvikodden" />
		<tag k="natural" v="cape" />
		<tag k="ssr:stedsnr" v="162639" />
	</node>
	<node id="-133744" lat="60.6119222226" lon="10.6271833389">
		<tag k="name" v="Thunebekken" />
		<tag k="ssr:stedsnr" v="769071" />
		<tag k="waterway" v="stream" />
	</node>
	<node id="-133790" lat="60.6763388889" lon="10.489711109">
		<tag k="name" v="Skjerra" />
		<tag k="ssr:stedsnr" v="830479" />
		<tag k="waterway" v="river" />
	</node>
	<node id="-133149" lat="60.5819694416" lon="10.5493555594">
		<tag k="alt_name" v="Totjernet" />
		<tag k="name" v="Totjerna" />
		<tag k="natural" v="water" />
		<tag k="ssr:stedsnr" v="370199" />
	</node>
	<node id="-133788" lat="60.6751055521" lon="10.5929555624">
		<tag k="name" v="Buertjernsbekken" />
		<tag k="ssr:stedsnr" v="830365" />
		<tag k="waterway" v="stream" />
	</node>
	<node id="-133787" lat="60.6429111112" lon="10.5983333398">
		<tag k="name" v="Fiskevolldammen" />
		<tag k="natural" v="water" />
		<tag k="ssr:stedsnr" v="830363" />
		<tag k="water" v="pond" />
	</node>
	<node id="-133657" lat="60.5103749964" lon="10.649080554">
		<tag k="name" v="Helgedalselva" />
		<tag k="ssr:stedsnr" v="674077" />
		<tag k="waterway" v="stream" />
	</node>
	<node id="-133272" lat="60.6663416629" lon="10.6572527687">
		<tag k="name" v="Bergsjøane" />
		<tag k="natural" v="water" />
		<tag k="ssr:stedsnr" v="67333" />
	</node>
	<node id="-133444" lat="60.5455416694" lon="10.5806916588">
		<tag k="name" v="Dotsettjernet" />
		<tag k="natural" v="water" />
		<tag k="ssr:stedsnr" v="250123" />
	</node>
	<node id="-133142" lat="60.6420213225" lon="10.545211029">
		<tag k="name" v="Veitjernsbekken" />
		<tag k="ssr:stedsnr" v="346254" />
		<tag k="waterway" v="stream" />
	</node>
	<node id="-133784" lat="60.6813583318" lon="10.5950749992">
		<tag k="name" v="Brennbekken" />
		<tag k="ssr:stedsnr" v="830046" />
		<tag k="waterway" v="stream" />
	</node>
	<node id="-133396" lat="60.7032361125" lon="10.6983777852">
		<tag k="name" v="Helsettjernet" />
		<tag k="natural" v="water" />
		<tag k="ssr:stedsnr" v="189374" />
	</node>
	<node id="-133523" lat="60.6602805582" lon="10.6587527843">
		<tag k="alt_name" v="Holtjernet" />
		<tag k="name" v="Holetjernet" />
		<tag k="natural" v="water" />
		<tag k="ssr:stedsnr" v="492282" />
	</node>
	<node id="-133522" lat="60.6775166629" lon="10.6058111021">
		<tag k="name" v="Reinsvolldammen" />
		<tag k="natural" v="water" />
		<tag k="ssr:stedsnr" v="492271" />
	</node>
	<node id="-133256" lat="60.5989416636" lon="10.5985694519">
		<tag k="name" v="Larsholmen" />
		<tag k="place" v="islet" />
		<tag k="ssr:stedsnr" v="39535" />
	</node>
	<node id="-133392" lat="60.7017249992" lon="10.547236106">
		<tag k="alt_name" v="Veltmanntjern" />
		<tag k="name" v="Veltmanntjernet" />
		<tag k="natural" v="water" />
		<tag k="ssr:stedsnr" v="189327" />
	</node>
	<node id="-133080" lat="60.6655444435" lon="10.4914638898">
		<tag k="name" v="Sollidammen" />
		<tag k="natural" v="water" />
		<tag k="ssr:stedsnr" v="283735" />
		<tag k="water" v="pond" />
	</node>
	<node id="-133134" lat="60.5232166696" lon="10.6492166601">
		<tag k="name" v="Odden" />
		<tag k="natural" v="cape" />
		<tag k="ssr:stedsnr" v="335633" />
	</node>
	<node id="-133741" lat="60.6661083291" lon="10.6573694516">
		<tag k="alt_name" v="Bergsjøen, store" />
		<tag k="name" v="Store Bergsjøen" />
		<tag k="natural" v="water" />
		<tag k="ssr:stedsnr" v="755817" />
	</node>
	<node id="-133772" lat="60.694504254" lon="10.6908534863">
		<tag k="alt_name" v="Finstadputten" />
		<tag k="name" v="Finnstadputten" />
		<tag k="natural" v="water" />
		<tag k="ssr:stedsnr" v="796367" />
	</node>
	<node id="-133259" lat="60.6651444404" lon="10.4926333359">
		<tag k="name" v="Larsvefløyta" />
		<tag k="natural" v="water" />
		<tag k="ssr:stedsnr" v="40768" />
		<tag k="water" v="lake" />
	</node>
	<node id="-133130" lat="60.7544055562" lon="10.6848583355">
		<tag k="name" v="Åstjernet" />
		<tag k="natural" v="water" />
		<tag k="ssr:stedsnr" v="312095" />
	</node>
	<node id="-133513" lat="60.5976249992" lon="10.5842916637">
		<tag k="name" v="Sætervika" />
		<tag k="natural" v="bay" />
		<tag k="ssr:stedsnr" v="492155" />
	</node>
	<node id="-133768" lat="60.687716668" lon="10.7069750083">
		<tag k="name" v="Hørsrudputten" />
		<tag k="natural" v="water" />
		<tag k="ssr:stedsnr" v="796322" />
	</node>
	<node id="-133765" lat="60.5970027757" lon="10.5542055575">
		<tag k="name" v="Frosketjernet" />
		<tag k="natural" v="water" />
		<tag k="ssr:stedsnr" v="796195" />
	</node>
</osm>
