<?xml version="1.0" encoding="UTF-8"?>
<<<<<<< HEAD
<osm version="0.6" generator="osmapis">
	<node lat="62.75750555805867" lon="8.451477775407954" id="-6780">
		<tag k="name" v="Flåmarka" />
		<tag k="ssr:date" v="2019-05-31" />
		<tag k="ssr:gruppe" v="veg" />
		<tag k="ssr:hovedgruppe" v="infrastruktur" />
		<tag k="ssr:stedsnr" v="42405" />
		<tag k="ssr:type" v="adressenavn" />
	</node>
	<node lat="62.5617361074016" lon="8.943241673866874" id="-6786">
		<tag k="name" v="Gammelsetra" />
		<tag k="ssr:date" v="2019-05-31" />
		<tag k="ssr:gruppe" v="veg" />
		<tag k="ssr:hovedgruppe" v="infrastruktur" />
		<tag k="ssr:stedsnr" v="242440" />
		<tag k="ssr:type" v="adressenavn" />
	</node>
	<node lat="62.666949995992574" lon="8.732727774577516" id="-6787">
		<tag k="name" v="Trolla" />
=======
<osm generator="osmapis" version="0.6">
	<node id="-86269" lat="62.8635111073" lon="8.50249722952">
		<tag k="name" v="Fættavegen" />
		<tag k="ssr:date" v="2016-05-10" />
		<tag k="ssr:gruppe" v="veg" />
		<tag k="ssr:hovedgruppe" v="infrastruktur" />
		<tag k="ssr:stedsnr" v="631094" />
		<tag k="ssr:type" v="vegstrekning" />
	</node>
	<node id="-85500" lat="62.5191777752" lon="8.65787223062">
		<tag k="name" v="Raudbergstela" />
		<tag k="ssr:date" v="2019-05-31" />
		<tag k="ssr:gruppe" v="veg" />
		<tag k="ssr:hovedgruppe" v="infrastruktur" />
		<tag k="ssr:stedsnr" v="181920" />
		<tag k="ssr:type" v="adressenavn" />
	</node>
	<node id="-85499" lat="62.5157776421" lon="8.99065135278">
		<tag k="name" v="Hafsåsen" />
		<tag k="ssr:date" v="2019-05-31" />
		<tag k="ssr:gruppe" v="veg" />
		<tag k="ssr:hovedgruppe" v="infrastruktur" />
		<tag k="ssr:stedsnr" v="181539" />
		<tag k="ssr:type" v="adressenavn" />
	</node>
	<node id="-83483" lat="62.6644027737" lon="8.41888611115">
		<tag k="name" v="Kleppen" />
>>>>>>> e1d4bc35ff8a6074a6f2e91616a996b547c36f15
		<tag k="ssr:date" v="2019-05-31" />
		<tag k="ssr:gruppe" v="veg" />
		<tag k="ssr:hovedgruppe" v="infrastruktur" />
		<tag k="ssr:stedsnr" v="284439" />
		<tag k="ssr:type" v="adressenavn" />
	</node>
<<<<<<< HEAD
	<node lat="62.657022220578824" lon="8.829566674123743" id="-6788">
		<tag k="name" v="Tverrådalen" />
		<tag k="ssr:date" v="2019-05-31" />
		<tag k="ssr:gruppe" v="veg" />
		<tag k="ssr:hovedgruppe" v="infrastruktur" />
		<tag k="ssr:stedsnr" v="242473" />
		<tag k="ssr:type" v="adressenavn" />
	</node>
	<node lat="62.4944027744648" lon="8.527794441641749" id="-6796">
		<tag k="name" v="Aursjøvegen" />
		<tag k="ssr:date" v="2019-05-31" />
		<tag k="ssr:gruppe" v="veg" />
		<tag k="ssr:hovedgruppe" v="infrastruktur" />
		<tag k="ssr:stedsnr" v="242914" />
		<tag k="ssr:type" v="adressenavn" />
	</node>
	<node lat="62.66330000179514" lon="8.300936112880805" id="-6878">
		<tag k="name" v="Storgladnebba" />
=======
	<node id="-83529" lat="62.4944027745" lon="8.52779444164">
		<tag k="name" v="Aursjøvegen" />
		<tag k="ssr:date" v="2019-05-31" />
		<tag k="ssr:gruppe" v="veg" />
		<tag k="ssr:hovedgruppe" v="infrastruktur" />
		<tag k="ssr:stedsnr" v="242914" />
		<tag k="ssr:type" v="adressenavn" />
	</node>
	<node id="-84086" lat="62.6828694415" lon="8.34606112045">
		<tag k="name" v="Børsetbotnen" />
		<tag k="ssr:date" v="2019-05-31" />
		<tag k="ssr:gruppe" v="veg" />
		<tag k="ssr:hovedgruppe" v="infrastruktur" />
		<tag k="ssr:stedsnr" v="466460" />
		<tag k="ssr:type" v="adressenavn" />
	</node>
	<node id="-84085" lat="62.575019445" lon="9.10415000236">
		<tag k="name" v="Volladalen" />
		<tag k="ssr:date" v="2019-05-31" />
		<tag k="ssr:gruppe" v="veg" />
		<tag k="ssr:hovedgruppe" v="infrastruktur" />
		<tag k="ssr:stedsnr" v="667497" />
		<tag k="ssr:type" v="adressenavn" />
	</node>
	<node id="-84084" lat="62.5190944459" lon="8.85696389009">
		<tag k="name" v="Råstu" />
		<tag k="ssr:date" v="2019-05-31" />
		<tag k="ssr:gruppe" v="veg" />
		<tag k="ssr:hovedgruppe" v="infrastruktur" />
		<tag k="ssr:stedsnr" v="667492" />
		<tag k="ssr:type" v="adressenavn" />
	</node>
	<node id="-85491" lat="62.8069027735" lon="8.48274445269">
		<tag k="name" v="Smisetfjella" />
		<tag k="ssr:date" v="2019-05-31" />
		<tag k="ssr:gruppe" v="veg" />
		<tag k="ssr:hovedgruppe" v="infrastruktur" />
		<tag k="ssr:stedsnr" v="163378" />
		<tag k="ssr:type" v="adressenavn" />
	</node>
	<node id="-84978" lat="62.7325833341" lon="8.26871944152">
		<tag k="name" v="Oppigardsfjellet" />
		<tag k="ssr:date" v="2019-05-31" />
		<tag k="ssr:gruppe" v="veg" />
		<tag k="ssr:hovedgruppe" v="infrastruktur" />
		<tag k="ssr:stedsnr" v="952448" />
		<tag k="ssr:type" v="adressenavn" />
	</node>
	<node id="-83696" lat="62.8047472257" lon="8.54171666154">
		<tag k="name" v="Rennsetvatnet" />
		<tag k="ssr:date" v="2019-05-31" />
		<tag k="ssr:gruppe" v="veg" />
		<tag k="ssr:hovedgruppe" v="infrastruktur" />
		<tag k="ssr:stedsnr" v="467441" />
		<tag k="ssr:type" v="adressenavn" />
	</node>
	<node id="-84463" lat="62.878108337" lon="8.49063333692">
		<tag k="name" v="Røkkem" />
		<tag k="ssr:date" v="2016-05-10" />
		<tag k="ssr:gruppe" v="navigasjon" />
		<tag k="ssr:hovedgruppe" v="infrastruktur" />
		<tag k="ssr:stedsnr" v="656475" />
		<tag k="ssr:type" v="fyrlykt" />
	</node>
	<node id="-83698" lat="62.4976638882" lon="9.08276110442">
		<tag k="name" v="Øverlia" />
		<tag k="ssr:date" v="2019-05-31" />
		<tag k="ssr:gruppe" v="veg" />
		<tag k="ssr:hovedgruppe" v="infrastruktur" />
		<tag k="ssr:stedsnr" v="303465" />
		<tag k="ssr:type" v="adressenavn" />
	</node>
	<node id="-85993" lat="62.7633861149" lon="8.49751110499">
		<tag k="name" v="Bråttafjellet" />
		<tag k="ssr:date" v="2019-05-31" />
		<tag k="ssr:gruppe" v="veg" />
		<tag k="ssr:hovedgruppe" v="infrastruktur" />
		<tag k="ssr:stedsnr" v="406449" />
		<tag k="ssr:type" v="adressenavn" />
	</node>
	<node id="-83174" lat="62.666949996" lon="8.73272777458">
		<tag k="name" v="Trolla" />
		<tag k="ssr:date" v="2019-05-31" />
		<tag k="ssr:gruppe" v="veg" />
		<tag k="ssr:hovedgruppe" v="infrastruktur" />
		<tag k="ssr:stedsnr" v="242444" />
		<tag k="ssr:type" v="adressenavn" />
	</node>
	<node id="-83173" lat="62.5617361074" lon="8.94324167387">
		<tag k="name" v="Gammelsetra" />
		<tag k="ssr:date" v="2019-05-31" />
		<tag k="ssr:gruppe" v="veg" />
		<tag k="ssr:hovedgruppe" v="infrastruktur" />
		<tag k="ssr:stedsnr" v="242440" />
		<tag k="ssr:type" v="adressenavn" />
	</node>
	<node id="-85858" lat="62.5581111111" lon="9.17445833019">
		<tag k="name" v="Svarthaugen" />
>>>>>>> e1d4bc35ff8a6074a6f2e91616a996b547c36f15
		<tag k="ssr:date" v="2019-05-31" />
		<tag k="ssr:gruppe" v="veg" />
		<tag k="ssr:hovedgruppe" v="infrastruktur" />
		<tag k="ssr:stedsnr" v="102511" />
		<tag k="ssr:type" v="adressenavn" />
	</node>
<<<<<<< HEAD
	<node lat="62.80690277354441" lon="8.482744452686815" id="-7006">
		<tag k="name" v="Smisetfjella" />
=======
	<node id="-85857" lat="62.4386333352" lon="8.99523333936">
		<tag k="name" v="Reppdalen" />
>>>>>>> e1d4bc35ff8a6074a6f2e91616a996b547c36f15
		<tag k="ssr:date" v="2019-05-31" />
		<tag k="ssr:gruppe" v="veg" />
		<tag k="ssr:hovedgruppe" v="infrastruktur" />
		<tag k="ssr:stedsnr" v="163378" />
		<tag k="ssr:type" v="adressenavn" />
	</node>
<<<<<<< HEAD
	<node lat="62.515777642068976" lon="8.990651352779286" id="-7010">
		<tag k="name" v="Hafsåsen" />
=======
	<node id="-85856" lat="62.5241999963" lon="8.98544999358">
		<tag k="name" v="Åsen" />
>>>>>>> e1d4bc35ff8a6074a6f2e91616a996b547c36f15
		<tag k="ssr:date" v="2019-05-31" />
		<tag k="ssr:gruppe" v="veg" />
		<tag k="ssr:hovedgruppe" v="infrastruktur" />
		<tag k="ssr:stedsnr" v="181539" />
		<tag k="ssr:type" v="adressenavn" />
	</node>
<<<<<<< HEAD
	<node lat="62.51917777515003" lon="8.657872230624886" id="-7011">
		<tag k="name" v="Raudbergstela" />
		<tag k="ssr:date" v="2019-05-31" />
		<tag k="ssr:gruppe" v="veg" />
		<tag k="ssr:hovedgruppe" v="infrastruktur" />
		<tag k="ssr:stedsnr" v="181920" />
		<tag k="ssr:type" v="adressenavn" />
	</node>
	<node lat="62.72011666804372" lon="8.787413883413148" id="-7171">
		<tag k="name" v="Innerdalen" />
=======
	<node id="-86842" lat="62.5759222255" lon="8.70433333521">
		<tag k="name" v="Grynningsdalen" />
		<tag k="ssr:date" v="2019-05-31" />
		<tag k="ssr:gruppe" v="veg" />
		<tag k="ssr:hovedgruppe" v="infrastruktur" />
		<tag k="ssr:stedsnr" v="970033" />
		<tag k="ssr:type" v="adressenavn" />
	</node>
	<node id="-85338" lat="62.5520833301" lon="8.95761110578">
		<tag k="name" v="Storvatnet" />
>>>>>>> e1d4bc35ff8a6074a6f2e91616a996b547c36f15
		<tag k="ssr:date" v="2019-05-31" />
		<tag k="ssr:gruppe" v="veg" />
		<tag k="ssr:hovedgruppe" v="infrastruktur" />
		<tag k="ssr:stedsnr" v="224409" />
		<tag k="ssr:type" v="adressenavn" />
	</node>
<<<<<<< HEAD
	<node lat="62.54114444803379" lon="8.969580548803973" id="-7320">
		<tag k="name" v="Slættet" />
		<tag k="ssr:date" v="2019-05-31" />
		<tag k="ssr:gruppe" v="veg" />
		<tag k="ssr:hovedgruppe" v="infrastruktur" />
		<tag k="ssr:stedsnr" v="303472" />
		<tag k="ssr:type" v="adressenavn" />
	</node>
	<node lat="62.524333337296994" lon="9.029799998635077" id="-7321">
		<tag k="name" v="Nylykkja" />
=======
	<node id="-84367" lat="62.6993194409" lon="8.29344167434">
		<tag k="name" v="Ryssdalen" />
		<tag k="ssr:date" v="2019-05-31" />
		<tag k="ssr:gruppe" v="veg" />
		<tag k="ssr:hovedgruppe" v="infrastruktur" />
		<tag k="ssr:stedsnr" v="709448" />
		<tag k="ssr:type" v="adressenavn" />
	</node>
	<node id="-83288" lat="62.8306500026" lon="8.51010277781">
		<tag k="name" v="Seljebømarka" />
>>>>>>> e1d4bc35ff8a6074a6f2e91616a996b547c36f15
		<tag k="ssr:date" v="2019-05-31" />
		<tag k="ssr:gruppe" v="veg" />
		<tag k="ssr:hovedgruppe" v="infrastruktur" />
		<tag k="ssr:stedsnr" v="303475" />
		<tag k="ssr:type" v="adressenavn" />
	</node>
<<<<<<< HEAD
	<node lat="62.68286944154541" lon="8.346061120448862" id="-7322">
		<tag k="name" v="Børsetbotnen" />
		<tag k="ssr:date" v="2019-05-31" />
		<tag k="ssr:gruppe" v="veg" />
		<tag k="ssr:hovedgruppe" v="infrastruktur" />
		<tag k="ssr:stedsnr" v="466460" />
		<tag k="ssr:type" v="adressenavn" />
	</node>
	<node lat="62.80474722574702" lon="8.541716661540951" id="-7346">
		<tag k="name" v="Rennsetvatnet" />
		<tag k="ssr:date" v="2019-05-31" />
		<tag k="ssr:gruppe" v="veg" />
		<tag k="ssr:hovedgruppe" v="infrastruktur" />
		<tag k="ssr:stedsnr" v="467441" />
		<tag k="ssr:type" v="adressenavn" />
	</node>
	<node lat="62.59491110970222" lon="8.343613897824158" id="-7401">
		<tag k="name" v="Moldbakkan" />
=======
	<node id="-84361" lat="62.8637666709" lon="8.57216111815">
		<tag k="name" v="Vikhamran" />
		<tag k="ssr:date" v="2019-05-31" />
		<tag k="ssr:gruppe" v="veg" />
		<tag k="ssr:hovedgruppe" v="infrastruktur" />
		<tag k="ssr:stedsnr" v="707397" />
		<tag k="ssr:type" v="adressenavn" />
	</node>
	<node id="-84979" lat="62.5771333324" lon="8.57523333078">
		<tag k="name" v="Skarvdalen" />
		<tag k="ssr:date" v="2019-05-31" />
		<tag k="ssr:gruppe" v="veg" />
		<tag k="ssr:hovedgruppe" v="infrastruktur" />
		<tag k="ssr:stedsnr" v="970641" />
		<tag k="ssr:type" v="adressenavn" />
	</node>
	<node id="-85329" lat="62.7565777769" lon="8.58959167504">
		<tag k="name" v="Viromdalen" />
>>>>>>> e1d4bc35ff8a6074a6f2e91616a996b547c36f15
		<tag k="ssr:date" v="2019-05-31" />
		<tag k="ssr:gruppe" v="veg" />
		<tag k="ssr:hovedgruppe" v="infrastruktur" />
		<tag k="ssr:stedsnr" v="345421" />
		<tag k="ssr:type" v="adressenavn" />
	</node>
<<<<<<< HEAD
	<node lat="62.75020833705465" lon="8.321902781926886" id="-7402">
		<tag k="name" v="Liamarka" />
=======
	<node id="-84559" lat="62.7617972232" lon="8.28362499267">
		<tag k="name" v="Storsteinsfjellet" />
>>>>>>> e1d4bc35ff8a6074a6f2e91616a996b547c36f15
		<tag k="ssr:date" v="2019-05-31" />
		<tag k="ssr:gruppe" v="veg" />
		<tag k="ssr:hovedgruppe" v="infrastruktur" />
		<tag k="ssr:stedsnr" v="345424" />
		<tag k="ssr:type" v="adressenavn" />
	</node>
<<<<<<< HEAD
	<node lat="62.642966667664275" lon="8.896802778326496" id="-7480">
		<tag k="name" v="Snøva" />
=======
	<node id="-86349" lat="62.7224222227" lon="8.32445832558">
		<tag k="name" v="Litlmiddagshaugen" />
>>>>>>> e1d4bc35ff8a6074a6f2e91616a996b547c36f15
		<tag k="ssr:date" v="2019-05-31" />
		<tag k="ssr:gruppe" v="veg" />
		<tag k="ssr:hovedgruppe" v="infrastruktur" />
		<tag k="ssr:stedsnr" v="485441" />
		<tag k="ssr:type" v="adressenavn" />
	</node>
<<<<<<< HEAD
	<node lat="62.76338611492697" lon="8.49751110499126" id="-7481">
		<tag k="name" v="Bråttafjellet" />
=======
	<node id="-86348" lat="62.7517138893" lon="8.44618333255">
		<tag k="name" v="Flåøya" />
>>>>>>> e1d4bc35ff8a6074a6f2e91616a996b547c36f15
		<tag k="ssr:date" v="2019-05-31" />
		<tag k="ssr:gruppe" v="veg" />
		<tag k="ssr:hovedgruppe" v="infrastruktur" />
		<tag k="ssr:stedsnr" v="406449" />
		<tag k="ssr:type" v="adressenavn" />
	</node>
<<<<<<< HEAD
	<node lat="62.40565555241999" lon="8.91153055450125" id="-7487">
		<tag k="name" v="Grøvudalen" />
=======
	<node id="-86347" lat="62.7440472209" lon="8.51660832901">
		<tag k="name" v="Gjersvollhaugen" />
>>>>>>> e1d4bc35ff8a6074a6f2e91616a996b547c36f15
		<tag k="ssr:date" v="2019-05-31" />
		<tag k="ssr:gruppe" v="veg" />
		<tag k="ssr:hovedgruppe" v="infrastruktur" />
		<tag k="ssr:stedsnr" v="424509" />
		<tag k="ssr:type" v="adressenavn" />
	</node>
<<<<<<< HEAD
	<node lat="62.56125277927473" lon="8.4003194445163" id="-7578">
		<tag k="name" v="Reinsvatnet" />
		<tag k="ssr:date" v="2019-05-31" />
		<tag k="ssr:gruppe" v="veg" />
		<tag k="ssr:hovedgruppe" v="infrastruktur" />
		<tag k="ssr:stedsnr" v="485922" />
		<tag k="ssr:type" v="adressenavn" />
	</node>
	<node lat="62.68685000007069" lon="8.768724993553672" id="-7690">
		<tag k="name" v="Flatvaddalen" />
		<tag k="ssr:date" v="2019-05-31" />
=======
	<node id="-86857" lat="69.6388889725" lon="30.5666644427">
		<tag k="fixme" v="multiple name tags, choose one and add the other to alt_name" />
		<tag k="loc_name:se" v="Norgga gonagasriika" />
		<tag k="loc_name:sma" v="Nöörjen gånkarïjhke" />
		<tag k="loc_name:smj" v="Vuona gånågisrijkka" />
		<tag k="name" v="Noreg;Norge" />
		<tag k="name:en" v="Norway" />
		<tag k="name:no" v="Noreg;Norge" />
		<tag k="ssr:date" v="2020-06-04" />
		<tag k="ssr:gruppe" v="administrativeIndelinger" />
		<tag k="ssr:hovedgruppe" v="offentligAdministrasjon" />
		<tag k="ssr:stedsnr" v="26330" />
		<tag k="ssr:type" v="nasjon" />
	</node>
	<node id="-86856" lat="62.8542111675" lon="8.52179641995">
		<tag k="name" v="Haugavegen" />
		<tag k="ssr:date" v="2020-01-31" />
>>>>>>> e1d4bc35ff8a6074a6f2e91616a996b547c36f15
		<tag k="ssr:gruppe" v="veg" />
		<tag k="ssr:hovedgruppe" v="infrastruktur" />
		<tag k="ssr:stedsnr" v="545471" />
		<tag k="ssr:type" v="adressenavn" />
	</node>
<<<<<<< HEAD
	<node lat="62.634477774602594" lon="8.59547222352751" id="-7691">
		<tag k="name" v="Kalkinn" />
=======
	<node id="-84556" lat="62.8896277765" lon="8.42645277185">
		<tag k="name" v="Hestberget" />
		<tag k="ssr:date" v="2019-05-31" />
		<tag k="ssr:gruppe" v="veg" />
		<tag k="ssr:hovedgruppe" v="infrastruktur" />
		<tag k="ssr:stedsnr" v="889473" />
		<tag k="ssr:type" v="adressenavn" />
	</node>
	<node id="-83782" lat="62.7502083371" lon="8.32190278193">
		<tag k="name" v="Liamarka" />
>>>>>>> e1d4bc35ff8a6074a6f2e91616a996b547c36f15
		<tag k="ssr:date" v="2019-05-31" />
		<tag k="ssr:gruppe" v="veg" />
		<tag k="ssr:hovedgruppe" v="infrastruktur" />
		<tag k="ssr:stedsnr" v="545907" />
		<tag k="ssr:type" v="adressenavn" />
	</node>
<<<<<<< HEAD
	<node lat="62.69916667082148" lon="8.434405549567485" id="-7850">
		<tag k="name" v="Høghamran" />
=======
	<node id="-83781" lat="62.5949111097" lon="8.34361389782">
		<tag k="name" v="Moldbakkan" />
>>>>>>> e1d4bc35ff8a6074a6f2e91616a996b547c36f15
		<tag k="ssr:date" v="2019-05-31" />
		<tag k="ssr:gruppe" v="veg" />
		<tag k="ssr:hovedgruppe" v="infrastruktur" />
		<tag k="ssr:stedsnr" v="587455" />
		<tag k="ssr:type" v="adressenavn" />
	</node>
<<<<<<< HEAD
	<node lat="62.86351110725722" lon="8.502497229524241" id="-7893">
		<tag k="name" v="Fættavegen" />
		<tag k="ssr:date" v="2016-05-10" />
		<tag k="ssr:gruppe" v="veg" />
		<tag k="ssr:hovedgruppe" v="infrastruktur" />
		<tag k="ssr:stedsnr" v="631094" />
		<tag k="ssr:type" v="vegstrekning" />
	</node>
	<node lat="62.744047220883175" lon="8.516608329006502" id="-7944">
		<tag k="name" v="Gjersvollhaugen" />
=======
	<node id="-83780" lat="62.5612527793" lon="8.40031944452">
		<tag k="name" v="Reinsvatnet" />
>>>>>>> e1d4bc35ff8a6074a6f2e91616a996b547c36f15
		<tag k="ssr:date" v="2019-05-31" />
		<tag k="ssr:gruppe" v="veg" />
		<tag k="ssr:hovedgruppe" v="infrastruktur" />
		<tag k="ssr:stedsnr" v="648417" />
		<tag k="ssr:type" v="adressenavn" />
	</node>
<<<<<<< HEAD
	<node lat="62.86376667092969" lon="8.572161118149161" id="-7945">
		<tag k="name" v="Vikhamran" />
=======
	<node id="-83779" lat="62.6429666677" lon="8.89680277833">
		<tag k="name" v="Snøva" />
>>>>>>> e1d4bc35ff8a6074a6f2e91616a996b547c36f15
		<tag k="ssr:date" v="2019-05-31" />
		<tag k="ssr:gruppe" v="veg" />
		<tag k="ssr:hovedgruppe" v="infrastruktur" />
		<tag k="ssr:stedsnr" v="707397" />
		<tag k="ssr:type" v="adressenavn" />
	</node>
<<<<<<< HEAD
	<node lat="62.90815555508559" lon="8.400877774837923" id="-7946">
		<tag k="name" v="Typperhaugvegen" />
		<tag k="ssr:date" v="2019-05-31" />
		<tag k="ssr:gruppe" v="veg" />
		<tag k="ssr:hovedgruppe" v="infrastruktur" />
		<tag k="ssr:stedsnr" v="707491" />
		<tag k="ssr:type" v="adressenavn" />
	</node>
	<node lat="62.601191665387546" lon="8.282880546190388" id="-7950">
		<tag k="name" v="Breitela" />
=======
	<node id="-84555" lat="62.7577138868" lon="8.51260556164">
		<tag k="name" v="Skaudalsvegen" />
		<tag k="ssr:date" v="2019-05-31" />
		<tag k="ssr:gruppe" v="veg" />
		<tag k="ssr:hovedgruppe" v="infrastruktur" />
		<tag k="ssr:stedsnr" v="889367" />
		<tag k="ssr:type" v="adressenavn" />
	</node>
	<node id="-86720" lat="62.6677277747" lon="8.50666667449">
		<tag k="name" v="Vikfjellet" />
>>>>>>> e1d4bc35ff8a6074a6f2e91616a996b547c36f15
		<tag k="ssr:date" v="2019-05-31" />
		<tag k="ssr:gruppe" v="veg" />
		<tag k="ssr:hovedgruppe" v="infrastruktur" />
		<tag k="ssr:stedsnr" v="709443" />
		<tag k="ssr:type" v="adressenavn" />
	</node>
<<<<<<< HEAD
	<node lat="62.69931944087977" lon="8.293441674340135" id="-7951">
		<tag k="name" v="Ryssdalen" />
		<tag k="ssr:date" v="2019-05-31" />
		<tag k="ssr:gruppe" v="veg" />
		<tag k="ssr:hovedgruppe" v="infrastruktur" />
		<tag k="ssr:stedsnr" v="709448" />
		<tag k="ssr:type" v="adressenavn" />
	</node>
	<node lat="62.519094445899334" lon="8.856963890091873" id="-7954">
		<tag k="name" v="Råstu" />
=======
	<node id="-83478" lat="62.8310861152" lon="8.52448333623">
		<tag k="name" v="Lægdvegen" />
		<tag k="ssr:date" v="2019-05-31" />
		<tag k="ssr:gruppe" v="veg" />
		<tag k="ssr:hovedgruppe" v="infrastruktur" />
		<tag k="ssr:stedsnr" v="161468" />
		<tag k="ssr:type" v="adressenavn" />
	</node>
	<node id="-84030" lat="62.4056555524" lon="8.9115305545">
		<tag k="name" v="Grøvudalen" />
		<tag k="ssr:date" v="2019-05-31" />
		<tag k="ssr:gruppe" v="veg" />
		<tag k="ssr:hovedgruppe" v="infrastruktur" />
		<tag k="ssr:stedsnr" v="424509" />
		<tag k="ssr:type" v="adressenavn" />
	</node>
	<node id="-86715" lat="62.7431055535" lon="8.34772499903">
		<tag k="name" v="Mjølkillmyra" />
>>>>>>> e1d4bc35ff8a6074a6f2e91616a996b547c36f15
		<tag k="ssr:date" v="2019-05-31" />
		<tag k="ssr:gruppe" v="veg" />
		<tag k="ssr:hovedgruppe" v="infrastruktur" />
		<tag k="ssr:stedsnr" v="667492" />
		<tag k="ssr:type" v="adressenavn" />
	</node>
<<<<<<< HEAD
	<node lat="62.575019445014966" lon="9.104150002356539" id="-7955">
		<tag k="name" v="Volladalen" />
=======
	<node id="-86714" lat="62.7411749986" lon="8.54620555252">
		<tag k="name" v="Mohaugen" />
>>>>>>> e1d4bc35ff8a6074a6f2e91616a996b547c36f15
		<tag k="ssr:date" v="2019-05-31" />
		<tag k="ssr:gruppe" v="veg" />
		<tag k="ssr:hovedgruppe" v="infrastruktur" />
		<tag k="ssr:stedsnr" v="667497" />
		<tag k="ssr:type" v="adressenavn" />
	</node>
<<<<<<< HEAD
	<node lat="62.748380003051714" lon="8.4454651183498" id="-7971">
		<tag k="name" v="Flåøy" />
		<tag k="ssr:date" v="2021-06-08" />
		<tag k="ssr:gruppe" v="navigasjon" />
		<tag k="ssr:hovedgruppe" v="infrastruktur" />
		<tag k="ssr:stedsnr" v="679216" />
		<tag k="ssr:type" v="fyrlykt" />
	</node>
	<node lat="62.76179722320799" lon="8.283624992674453" id="-7981">
		<tag k="name" v="Storsteinsfjellet" />
		<tag k="ssr:date" v="2019-05-31" />
		<tag k="ssr:gruppe" v="veg" />
		<tag k="ssr:hovedgruppe" v="infrastruktur" />
		<tag k="ssr:stedsnr" v="892442" />
		<tag k="ssr:type" v="adressenavn" />
	</node>
	<node lat="62.55710278226796" lon="8.816077784512144" id="-8150">
		<tag k="name" v="Sandremman" />
		<tag k="ssr:date" v="2019-05-31" />
		<tag k="ssr:gruppe" v="veg" />
		<tag k="ssr:hovedgruppe" v="infrastruktur" />
		<tag k="ssr:stedsnr" v="910538" />
		<tag k="ssr:type" v="adressenavn" />
	</node>
	<node lat="62.58983333273641" lon="8.888594436162245" id="-8151">
		<tag k="name" v="Heimfjellet" />
		<tag k="ssr:date" v="2019-05-31" />
		<tag k="ssr:gruppe" v="veg" />
		<tag k="ssr:hovedgruppe" v="infrastruktur" />
		<tag k="ssr:stedsnr" v="910541" />
		<tag k="ssr:type" v="adressenavn" />
	</node>
	<node lat="62.45029444868597" lon="8.54104722497883" id="-8153">
		<tag k="name" v="Torbuhøa" />
=======
	<node id="-83700" lat="62.5243333373" lon="9.02979999864">
		<tag k="name" v="Nylykkja" />
		<tag k="ssr:date" v="2019-05-31" />
		<tag k="ssr:gruppe" v="veg" />
		<tag k="ssr:hovedgruppe" v="infrastruktur" />
		<tag k="ssr:stedsnr" v="303475" />
		<tag k="ssr:type" v="adressenavn" />
	</node>
	<node id="-86198" lat="62.6081444488" lon="8.99875278332">
		<tag k="name" v="Ottdalen" />
		<tag k="ssr:date" v="2019-05-31" />
		<tag k="ssr:gruppe" v="veg" />
		<tag k="ssr:hovedgruppe" v="infrastruktur" />
		<tag k="ssr:stedsnr" v="606524" />
		<tag k="ssr:type" v="adressenavn" />
	</node>
	<node id="-86197" lat="62.4852638868" lon="8.84172221587">
		<tag k="name" v="Geitådalen" />
		<tag k="ssr:date" v="2019-05-31" />
		<tag k="ssr:gruppe" v="veg" />
		<tag k="ssr:hovedgruppe" v="infrastruktur" />
		<tag k="ssr:stedsnr" v="606522" />
		<tag k="ssr:type" v="adressenavn" />
	</node>
	<node id="-86194" lat="62.7760166635" lon="8.50041110316">
		<tag k="name" v="Røsetfjellet" />
>>>>>>> e1d4bc35ff8a6074a6f2e91616a996b547c36f15
		<tag k="ssr:date" v="2019-05-31" />
		<tag k="ssr:gruppe" v="veg" />
		<tag k="ssr:hovedgruppe" v="infrastruktur" />
		<tag k="ssr:stedsnr" v="788915" />
		<tag k="ssr:type" v="adressenavn" />
	</node>
<<<<<<< HEAD
	<node lat="62.74117499857821" lon="8.546205552518199" id="-8285">
		<tag k="name" v="Mohaugen" />
=======
	<node id="-86193" lat="62.7845277783" lon="8.53779722164">
		<tag k="name" v="Valsetfjellet" />
>>>>>>> e1d4bc35ff8a6074a6f2e91616a996b547c36f15
		<tag k="ssr:date" v="2019-05-31" />
		<tag k="ssr:gruppe" v="veg" />
		<tag k="ssr:hovedgruppe" v="infrastruktur" />
		<tag k="ssr:stedsnr" v="831397" />
		<tag k="ssr:type" v="adressenavn" />
	</node>
<<<<<<< HEAD
	<node lat="62.47934999801385" lon="8.675922223935297" id="-8417">
		<tag k="name" v="Håkodalen" />
		<tag k="ssr:date" v="2019-05-31" />
		<tag k="ssr:gruppe" v="veg" />
		<tag k="ssr:hovedgruppe" v="infrastruktur" />
		<tag k="ssr:stedsnr" v="910928" />
		<tag k="ssr:type" v="adressenavn" />
	</node>
	<node lat="62.73258333407755" lon="8.268719441518904" id="-8500">
		<tag k="name" v="Oppigardsfjellet" />
		<tag k="ssr:date" v="2019-05-31" />
		<tag k="ssr:gruppe" v="veg" />
		<tag k="ssr:hovedgruppe" v="infrastruktur" />
		<tag k="ssr:stedsnr" v="952448" />
		<tag k="ssr:type" v="adressenavn" />
	</node>
	<node lat="62.57592222549041" lon="8.704333335212842" id="-8501">
		<tag k="name" v="Grynningsdalen" />
		<tag k="ssr:date" v="2019-05-31" />
		<tag k="ssr:gruppe" v="veg" />
		<tag k="ssr:hovedgruppe" v="infrastruktur" />
		<tag k="ssr:stedsnr" v="970033" />
		<tag k="ssr:type" v="adressenavn" />
	</node>
	<node lat="62.65498889155755" lon="8.679391662345743" id="-8628">
		<tag k="name" v="Vinnuvegen" />
		<tag k="ssr:date" v="2019-05-31" />
		<tag k="ssr:gruppe" v="veg" />
		<tag k="ssr:hovedgruppe" v="infrastruktur" />
		<tag k="ssr:stedsnr" v="60487" />
		<tag k="ssr:type" v="adressenavn" />
	</node>
	<node lat="62.60413888831106" lon="8.666908341196466" id="-8629">
		<tag k="name" v="Serkjedalen" />
=======
	<node id="-83528" lat="62.6570222206" lon="8.82956667412">
		<tag k="name" v="Tverrådalen" />
		<tag k="ssr:date" v="2019-05-31" />
		<tag k="ssr:gruppe" v="veg" />
		<tag k="ssr:hovedgruppe" v="infrastruktur" />
		<tag k="ssr:stedsnr" v="242473" />
		<tag k="ssr:type" v="adressenavn" />
	</node>
	<node id="-83699" lat="62.541144448" lon="8.9695805488">
		<tag k="name" v="Slættet" />
		<tag k="ssr:date" v="2019-05-31" />
		<tag k="ssr:gruppe" v="veg" />
		<tag k="ssr:hovedgruppe" v="infrastruktur" />
		<tag k="ssr:stedsnr" v="303472" />
		<tag k="ssr:type" v="adressenavn" />
	</node>
	<node id="-86188" lat="62.8413499982" lon="8.53111112045">
		<tag k="name" v="Ålvundlia" />
		<tag k="ssr:date" v="2019-05-31" />
		<tag k="ssr:gruppe" v="veg" />
		<tag k="ssr:hovedgruppe" v="infrastruktur" />
		<tag k="ssr:stedsnr" v="585333" />
		<tag k="ssr:type" v="adressenavn" />
	</node>
	<node id="-84914" lat="62.6746333364" lon="8.56188889737">
		<tag k="name" v="Sunndal kommune" />
		<tag k="ssr:date" v="2016-05-11" />
		<tag k="ssr:gruppe" v="administrativeIndelinger" />
		<tag k="ssr:hovedgruppe" v="offentligAdministrasjon" />
		<tag k="ssr:stedsnr" v="875635" />
		<tag k="ssr:type" v="kommune" />
	</node>
	<node id="-84901" lat="62.8613750004" lon="8.58235277754">
		<tag k="name" v="Drøppingfjellet" />
>>>>>>> e1d4bc35ff8a6074a6f2e91616a996b547c36f15
		<tag k="ssr:date" v="2019-05-31" />
		<tag k="ssr:gruppe" v="veg" />
		<tag k="ssr:hovedgruppe" v="infrastruktur" />
		<tag k="ssr:stedsnr" v="60492" />
		<tag k="ssr:type" v="adressenavn" />
	</node>
<<<<<<< HEAD
	<node lat="62.83065000263696" lon="8.510102777806916" id="-8787">
		<tag k="name" v="Seljebømarka" />
=======
	<node id="-86051" lat="62.6344777746" lon="8.59547222353">
		<tag k="name" v="Kalkinn" />
>>>>>>> e1d4bc35ff8a6074a6f2e91616a996b547c36f15
		<tag k="ssr:date" v="2019-05-31" />
		<tag k="ssr:gruppe" v="veg" />
		<tag k="ssr:hovedgruppe" v="infrastruktur" />
		<tag k="ssr:stedsnr" v="100353" />
		<tag k="ssr:type" v="adressenavn" />
	</node>
<<<<<<< HEAD
	<node lat="62.756577776879354" lon="8.589591675041508" id="-8792">
		<tag k="name" v="Viromdalen" />
=======
	<node id="-86050" lat="62.5017944421" lon="9.12596667439">
		<tag k="name" v="Linndalen" />
>>>>>>> e1d4bc35ff8a6074a6f2e91616a996b547c36f15
		<tag k="ssr:date" v="2019-05-31" />
		<tag k="ssr:gruppe" v="veg" />
		<tag k="ssr:hovedgruppe" v="infrastruktur" />
		<tag k="ssr:stedsnr" v="103431" />
		<tag k="ssr:type" v="adressenavn" />
	</node>
<<<<<<< HEAD
	<node lat="62.55208333010534" lon="8.957611105778911" id="-8801">
		<tag k="name" v="Storvatnet" />
=======
	<node id="-86049" lat="62.6868500001" lon="8.76872499355">
		<tag k="name" v="Flatvaddalen" />
>>>>>>> e1d4bc35ff8a6074a6f2e91616a996b547c36f15
		<tag k="ssr:date" v="2019-05-31" />
		<tag k="ssr:gruppe" v="veg" />
		<tag k="ssr:hovedgruppe" v="infrastruktur" />
		<tag k="ssr:stedsnr" v="121458" />
		<tag k="ssr:type" v="adressenavn" />
	</node>
<<<<<<< HEAD
	<node lat="62.464347219976" lon="9.106227773716203" id="-8802">
		<tag k="name" v="Skirådalen" />
		<tag k="ssr:date" v="2019-05-31" />
		<tag k="ssr:gruppe" v="veg" />
		<tag k="ssr:hovedgruppe" v="infrastruktur" />
		<tag k="ssr:stedsnr" v="121528" />
		<tag k="ssr:type" v="adressenavn" />
	</node>
	<node lat="62.73392710705581" lon="7.14918030614603" id="-8867">
		<tag k="alt_name" v="Møre og Romsdal" />
		<tag k="name" v="Møre og Romsdal fylke" />
		<tag k="ssr:date" v="2021-09-21" />
		<tag k="ssr:gruppe" v="administrativeIndelinger" />
		<tag k="ssr:hovedgruppe" v="offentligAdministrasjon" />
		<tag k="ssr:stedsnr" v="145583" />
		<tag k="ssr:type" v="fylke" />
	</node>
	<node lat="62.83108611522741" lon="8.524483336231846" id="-8945">
		<tag k="name" v="Lægdvegen" />
=======
	<node id="-85151" lat="62.6041388883" lon="8.6669083412">
		<tag k="name" v="Serkjedalen" />
>>>>>>> e1d4bc35ff8a6074a6f2e91616a996b547c36f15
		<tag k="ssr:date" v="2019-05-31" />
		<tag k="ssr:gruppe" v="veg" />
		<tag k="ssr:hovedgruppe" v="infrastruktur" />
		<tag k="ssr:stedsnr" v="161468" />
		<tag k="ssr:type" v="adressenavn" />
	</node>
<<<<<<< HEAD
	<node lat="62.664402773747696" lon="8.418886111149451" id="-9134">
		<tag k="name" v="Kleppen" />
=======
	<node id="-85150" lat="62.6549888916" lon="8.67939166235">
		<tag k="name" v="Vinnuvegen" />
>>>>>>> e1d4bc35ff8a6074a6f2e91616a996b547c36f15
		<tag k="ssr:date" v="2019-05-31" />
		<tag k="ssr:gruppe" v="veg" />
		<tag k="ssr:hovedgruppe" v="infrastruktur" />
		<tag k="ssr:stedsnr" v="284439" />
		<tag k="ssr:type" v="adressenavn" />
	</node>
<<<<<<< HEAD
	<node lat="62.70704444782983" lon="8.376041662241576" id="-9135">
=======
	<node id="-84485" lat="62.7484527785" lon="8.44541943576">
		<tag k="name" v="Flåøy" />
		<tag k="ssr:date" v="2016-05-11" />
		<tag k="ssr:gruppe" v="navigasjon" />
		<tag k="ssr:hovedgruppe" v="infrastruktur" />
		<tag k="ssr:stedsnr" v="679216" />
		<tag k="ssr:type" v="fyrlykt" />
	</node>
	<node id="-83484" lat="62.7070444478" lon="8.37604166224">
>>>>>>> e1d4bc35ff8a6074a6f2e91616a996b547c36f15
		<tag k="name" v="Erstadbotnen" />
		<tag k="ssr:date" v="2019-05-31" />
		<tag k="ssr:gruppe" v="veg" />
		<tag k="ssr:hovedgruppe" v="infrastruktur" />
		<tag k="ssr:stedsnr" v="284446" />
		<tag k="ssr:type" v="adressenavn" />
	</node>
<<<<<<< HEAD
	<node lat="62.49766388818113" lon="9.082761104417932" id="-9141">
		<tag k="name" v="Øverlia" />
=======
	<node id="-86043" lat="62.6328777781" lon="8.3302000062">
		<tag k="name" v="Skrondalsnebba" />
>>>>>>> e1d4bc35ff8a6074a6f2e91616a996b547c36f15
		<tag k="ssr:date" v="2019-05-31" />
		<tag k="ssr:gruppe" v="veg" />
		<tag k="ssr:hovedgruppe" v="infrastruktur" />
		<tag k="ssr:stedsnr" v="303465" />
		<tag k="ssr:type" v="adressenavn" />
	</node>
<<<<<<< HEAD
	<node lat="62.52419999625568" lon="8.98544999357979" id="-9296">
		<tag k="name" v="Åsen" />
=======
	<node id="-86042" lat="62.7899583321" lon="8.34349444399">
		<tag k="name" v="Almskårmarka" />
>>>>>>> e1d4bc35ff8a6074a6f2e91616a996b547c36f15
		<tag k="ssr:date" v="2019-05-31" />
		<tag k="ssr:gruppe" v="veg" />
		<tag k="ssr:hovedgruppe" v="infrastruktur" />
		<tag k="ssr:stedsnr" v="363432" />
		<tag k="ssr:type" v="adressenavn" />
	</node>
<<<<<<< HEAD
	<node lat="62.438633335169456" lon="8.99523333935789" id="-9297">
		<tag k="name" v="Reppdalen" />
		<tag k="ssr:date" v="2019-05-31" />
		<tag k="ssr:gruppe" v="veg" />
		<tag k="ssr:hovedgruppe" v="infrastruktur" />
		<tag k="ssr:stedsnr" v="363486" />
		<tag k="ssr:type" v="adressenavn" />
	</node>
	<node lat="62.55811111107755" lon="9.174458330186939" id="-9298">
		<tag k="name" v="Svarthaugen" />
=======
	<node id="-86039" lat="62.8552083297" lon="8.4290499916">
		<tag k="name" v="Mulvikmarka" />
>>>>>>> e1d4bc35ff8a6074a6f2e91616a996b547c36f15
		<tag k="ssr:date" v="2019-05-31" />
		<tag k="ssr:gruppe" v="veg" />
		<tag k="ssr:hovedgruppe" v="infrastruktur" />
		<tag k="ssr:stedsnr" v="363489" />
		<tag k="ssr:type" v="adressenavn" />
	</node>
<<<<<<< HEAD
	<node lat="62.846322218233944" lon="8.442380551717395" id="-9652">
=======
	<node id="-86038" lat="62.8463222182" lon="8.44238055172">
>>>>>>> e1d4bc35ff8a6074a6f2e91616a996b547c36f15
		<tag k="name" v="Sessbømarka" />
		<tag k="ssr:date" v="2019-05-31" />
		<tag k="ssr:gruppe" v="veg" />
		<tag k="ssr:hovedgruppe" v="infrastruktur" />
		<tag k="ssr:stedsnr" v="525389" />
		<tag k="ssr:type" v="adressenavn" />
	</node>
<<<<<<< HEAD
	<node lat="62.85520832971349" lon="8.429049991601154" id="-9653">
		<tag k="name" v="Mulvikmarka" />
		<tag k="ssr:date" v="2019-05-31" />
		<tag k="ssr:gruppe" v="veg" />
		<tag k="ssr:hovedgruppe" v="infrastruktur" />
		<tag k="ssr:stedsnr" v="525391" />
		<tag k="ssr:type" v="adressenavn" />
	</node>
	<node lat="62.78995833211769" lon="8.343494443988787" id="-9654">
		<tag k="name" v="Almskårmarka" />
		<tag k="ssr:date" v="2019-05-31" />
		<tag k="ssr:gruppe" v="veg" />
		<tag k="ssr:hovedgruppe" v="infrastruktur" />
		<tag k="ssr:stedsnr" v="527424" />
		<tag k="ssr:type" v="adressenavn" />
	</node>
	<node lat="62.63287777807171" lon="8.33020000619817" id="-9655">
		<tag k="name" v="Skrondalsnebba" />
		<tag k="ssr:date" v="2019-05-31" />
		<tag k="ssr:gruppe" v="veg" />
		<tag k="ssr:hovedgruppe" v="infrastruktur" />
		<tag k="ssr:stedsnr" v="527437" />
		<tag k="ssr:type" v="adressenavn" />
	</node>
	<node lat="62.501794442145595" lon="9.125966674392973" id="-9661">
		<tag k="name" v="Linndalen" />
		<tag k="ssr:date" v="2019-05-31" />
		<tag k="ssr:gruppe" v="veg" />
		<tag k="ssr:hovedgruppe" v="infrastruktur" />
		<tag k="ssr:stedsnr" v="545500" />
		<tag k="ssr:type" v="adressenavn" />
	</node>
	<node lat="62.841349998153575" lon="8.531111120452527" id="-9775">
		<tag k="name" v="Ålvundlia" />
		<tag k="ssr:date" v="2019-05-31" />
		<tag k="ssr:gruppe" v="veg" />
		<tag k="ssr:hovedgruppe" v="infrastruktur" />
		<tag k="ssr:stedsnr" v="585333" />
		<tag k="ssr:type" v="adressenavn" />
	</node>
	<node lat="62.78452777828683" lon="8.537797221643466" id="-9777">
		<tag k="name" v="Valsetfjellet" />
		<tag k="ssr:date" v="2019-05-31" />
		<tag k="ssr:gruppe" v="veg" />
		<tag k="ssr:hovedgruppe" v="infrastruktur" />
		<tag k="ssr:stedsnr" v="588393" />
		<tag k="ssr:type" v="adressenavn" />
	</node>
	<node lat="62.77601666350327" lon="8.500411103161811" id="-9778">
		<tag k="name" v="Røsetfjellet" />
		<tag k="ssr:date" v="2019-05-31" />
		<tag k="ssr:gruppe" v="veg" />
		<tag k="ssr:hovedgruppe" v="infrastruktur" />
		<tag k="ssr:stedsnr" v="588396" />
		<tag k="ssr:type" v="adressenavn" />
	</node>
	<node lat="62.48526388676923" lon="8.841722215867499" id="-9781">
		<tag k="name" v="Geitådalen" />
		<tag k="ssr:date" v="2019-05-31" />
		<tag k="ssr:gruppe" v="veg" />
		<tag k="ssr:hovedgruppe" v="infrastruktur" />
		<tag k="ssr:stedsnr" v="606522" />
		<tag k="ssr:type" v="adressenavn" />
	</node>
	<node lat="62.608144448798875" lon="8.99875278331845" id="-9782">
		<tag k="name" v="Ottdalen" />
		<tag k="ssr:date" v="2019-05-31" />
		<tag k="ssr:gruppe" v="veg" />
		<tag k="ssr:hovedgruppe" v="infrastruktur" />
		<tag k="ssr:stedsnr" v="606524" />
		<tag k="ssr:type" v="adressenavn" />
	</node>
	<node lat="62.75171388930069" lon="8.446183332551108" id="-9918">
		<tag k="name" v="Flåøya" />
		<tag k="ssr:date" v="2019-05-31" />
		<tag k="ssr:gruppe" v="veg" />
		<tag k="ssr:hovedgruppe" v="infrastruktur" />
		<tag k="ssr:stedsnr" v="648425" />
		<tag k="ssr:type" v="adressenavn" />
	</node>
	<node lat="62.72242222273315" lon="8.324458325575343" id="-9919">
		<tag k="name" v="Litlmiddagshaugen" />
		<tag k="ssr:date" v="2019-05-31" />
		<tag k="ssr:gruppe" v="veg" />
		<tag k="ssr:hovedgruppe" v="infrastruktur" />
		<tag k="ssr:stedsnr" v="648440" />
		<tag k="ssr:type" v="adressenavn" />
	</node>
	<node lat="62.878108337024734" lon="8.490633336922684" id="-9922">
		<tag k="name" v="Røkkem" />
		<tag k="ssr:date" v="2016-05-10" />
		<tag k="ssr:gruppe" v="navigasjon" />
		<tag k="ssr:hovedgruppe" v="infrastruktur" />
		<tag k="ssr:stedsnr" v="656475" />
		<tag k="ssr:type" v="fyrlykt" />
	</node>
	<node lat="62.743105553492086" lon="8.347724999027212" id="-10201">
		<tag k="name" v="Mjølkillmyra" />
		<tag k="ssr:date" v="2019-05-31" />
		<tag k="ssr:gruppe" v="veg" />
		<tag k="ssr:hovedgruppe" v="infrastruktur" />
		<tag k="ssr:stedsnr" v="831425" />
		<tag k="ssr:type" v="adressenavn" />
	</node>
	<node lat="62.66772777471288" lon="8.50666667449461" id="-10209">
		<tag k="name" v="Vikfjellet" />
		<tag k="ssr:date" v="2019-05-31" />
		<tag k="ssr:gruppe" v="veg" />
		<tag k="ssr:hovedgruppe" v="infrastruktur" />
		<tag k="ssr:stedsnr" v="849918" />
		<tag k="ssr:type" v="adressenavn" />
	</node>
	<node lat="62.674633336408995" lon="8.561888897368481" id="-10346">
		<tag k="alt_name" v="Sunndal" />
		<tag k="name" v="Sunndal kommune" />
		<tag k="ssr:date" v="2016-05-11" />
		<tag k="ssr:gruppe" v="administrativeIndelinger" />
		<tag k="ssr:hovedgruppe" v="offentligAdministrasjon" />
		<tag k="ssr:stedsnr" v="875635" />
		<tag k="ssr:type" v="kommune" />
	</node>
	<node lat="62.757713886824895" lon="8.512605561644014" id="-10367">
		<tag k="name" v="Skaudalsvegen" />
		<tag k="ssr:date" v="2019-05-31" />
		<tag k="ssr:gruppe" v="veg" />
		<tag k="ssr:hovedgruppe" v="infrastruktur" />
		<tag k="ssr:stedsnr" v="889367" />
		<tag k="ssr:type" v="adressenavn" />
	</node>
	<node lat="62.88962777647838" lon="8.426452771851634" id="-10368">
		<tag k="name" v="Hestberget" />
		<tag k="ssr:date" v="2019-05-31" />
		<tag k="ssr:gruppe" v="veg" />
		<tag k="ssr:hovedgruppe" v="infrastruktur" />
		<tag k="ssr:stedsnr" v="889473" />
		<tag k="ssr:type" v="adressenavn" />
	</node>
	<node lat="62.86137500042759" lon="8.582352777541761" id="-10418">
		<tag k="name" v="Drøppingfjellet" />
		<tag k="ssr:date" v="2019-05-31" />
		<tag k="ssr:gruppe" v="veg" />
		<tag k="ssr:hovedgruppe" v="infrastruktur" />
		<tag k="ssr:stedsnr" v="950370" />
		<tag k="ssr:type" v="adressenavn" />
	</node>
	<node lat="62.57713333237183" lon="8.575233330778758" id="-10423">
		<tag k="name" v="Skarvdalen" />
		<tag k="ssr:date" v="2019-05-31" />
		<tag k="ssr:gruppe" v="veg" />
		<tag k="ssr:hovedgruppe" v="infrastruktur" />
		<tag k="ssr:stedsnr" v="970641" />
		<tag k="ssr:type" v="adressenavn" />
	</node>
	<node lat="62.8542111675387" lon="8.521796419945126" id="-10433">
		<tag k="name" v="Haugavegen" />
		<tag k="ssr:date" v="2020-01-31" />
		<tag k="ssr:gruppe" v="veg" />
		<tag k="ssr:hovedgruppe" v="infrastruktur" />
		<tag k="ssr:stedsnr" v="1074827" />
		<tag k="ssr:type" v="adressenavn" />
	</node>
	<node lat="62.65663098345625" lon="8.532239018033904" id="-10436">
		<tag k="name" v="Peøya" />
		<tag k="ssr:date" v="2021-05-06" />
		<tag k="ssr:gruppe" v="veg" />
		<tag k="ssr:hovedgruppe" v="infrastruktur" />
		<tag k="ssr:stedsnr" v="1081200" />
		<tag k="ssr:type" v="adressenavn" />
	</node>
=======
	<node id="-83289" lat="62.6633000018" lon="8.30093611288">
		<tag k="name" v="Storgladnebba" />
		<tag k="ssr:date" v="2019-05-31" />
		<tag k="ssr:gruppe" v="veg" />
		<tag k="ssr:hovedgruppe" v="infrastruktur" />
		<tag k="ssr:stedsnr" v="102511" />
		<tag k="ssr:type" v="adressenavn" />
	</node>
	<node id="-83131" lat="62.720116668" lon="8.78741388341">
		<tag k="name" v="Innerdalen" />
		<tag k="ssr:date" v="2019-05-31" />
		<tag k="ssr:gruppe" v="veg" />
		<tag k="ssr:hovedgruppe" v="infrastruktur" />
		<tag k="ssr:stedsnr" v="224409" />
		<tag k="ssr:type" v="adressenavn" />
	</node>
	<node id="-84368" lat="62.6991666708" lon="8.43440554957">
		<tag k="name" v="Høghamran" />
		<tag k="ssr:date" v="2019-05-31" />
		<tag k="ssr:gruppe" v="veg" />
		<tag k="ssr:hovedgruppe" v="infrastruktur" />
		<tag k="ssr:stedsnr" v="587455" />
		<tag k="ssr:type" v="adressenavn" />
	</node>
	<node id="-85339" lat="62.46434722" lon="9.10622777372">
		<tag k="name" v="Skirådalen" />
		<tag k="ssr:date" v="2019-05-31" />
		<tag k="ssr:gruppe" v="veg" />
		<tag k="ssr:hovedgruppe" v="infrastruktur" />
		<tag k="ssr:stedsnr" v="121528" />
		<tag k="ssr:type" v="adressenavn" />
	</node>
	<node id="-84366" lat="62.6011916654" lon="8.28288054619">
		<tag k="name" v="Breitela" />
		<tag k="ssr:date" v="2019-05-31" />
		<tag k="ssr:gruppe" v="veg" />
		<tag k="ssr:hovedgruppe" v="infrastruktur" />
		<tag k="ssr:stedsnr" v="709443" />
		<tag k="ssr:type" v="adressenavn" />
	</node>
	<node id="-84362" lat="62.9081555551" lon="8.40087777484">
		<tag k="name" v="Typperhaugvegen" />
		<tag k="ssr:date" v="2019-05-31" />
		<tag k="ssr:gruppe" v="veg" />
		<tag k="ssr:hovedgruppe" v="infrastruktur" />
		<tag k="ssr:stedsnr" v="707491" />
		<tag k="ssr:type" v="adressenavn" />
	</node>
	<node id="-85143" lat="62.7575055581" lon="8.45147777541">
		<tag k="name" v="Flåmarka" />
		<tag k="ssr:date" v="2019-05-31" />
		<tag k="ssr:gruppe" v="veg" />
		<tag k="ssr:hovedgruppe" v="infrastruktur" />
		<tag k="ssr:stedsnr" v="42405" />
		<tag k="ssr:type" v="adressenavn" />
	</node>
	<node id="-84613" lat="62.479349998" lon="8.67592222394">
		<tag k="name" v="Håkodalen" />
		<tag k="ssr:date" v="2019-05-31" />
		<tag k="ssr:gruppe" v="veg" />
		<tag k="ssr:hovedgruppe" v="infrastruktur" />
		<tag k="ssr:stedsnr" v="910928" />
		<tag k="ssr:type" v="adressenavn" />
	</node>
	<node id="-84611" lat="62.5898333327" lon="8.88859443616">
		<tag k="name" v="Heimfjellet" />
		<tag k="ssr:date" v="2019-05-31" />
		<tag k="ssr:gruppe" v="veg" />
		<tag k="ssr:hovedgruppe" v="infrastruktur" />
		<tag k="ssr:stedsnr" v="910541" />
		<tag k="ssr:type" v="adressenavn" />
	</node>
	<node id="-84610" lat="62.5571027823" lon="8.81607778451">
		<tag k="name" v="Sandremman" />
		<tag k="ssr:date" v="2019-05-31" />
		<tag k="ssr:gruppe" v="veg" />
		<tag k="ssr:hovedgruppe" v="infrastruktur" />
		<tag k="ssr:stedsnr" v="910538" />
		<tag k="ssr:type" v="adressenavn" />
	</node>
	<node id="-86529" lat="62.4502944487" lon="8.54104722498">
		<tag k="name" v="Torbuhøa" />
		<tag k="ssr:date" v="2019-05-31" />
		<tag k="ssr:gruppe" v="veg" />
		<tag k="ssr:hovedgruppe" v="infrastruktur" />
		<tag k="ssr:stedsnr" v="788915" />
		<tag k="ssr:type" v="adressenavn" />
	</node>
>>>>>>> e1d4bc35ff8a6074a6f2e91616a996b547c36f15
</osm>
