<?xml version="1.0" encoding="UTF-8"?>
<osm generator="osmapis" version="0.6">
	<node id="-554880" lat="62.4996694406" lon="6.18094444463">
		<tag k="name" v="Gildrenes" />
		<tag k="ssr:date" v="2016-05-10" />
		<tag k="ssr:gruppe" v="navigasjon" />
		<tag k="ssr:hovedgruppe" v="infrastruktur" />
		<tag k="ssr:stedsnr" v="557973" />
		<tag k="ssr:type" v="fyrlykt" />
	</node>
	<node id="-554495" lat="62.4932972186" lon="6.38416666033">
		<tag k="name" v="Årsetholmen" />
		<tag k="ssr:date" v="2016-05-10" />
		<tag k="ssr:gruppe" v="navigasjon" />
		<tag k="ssr:hovedgruppe" v="infrastruktur" />
		<tag k="ssr:stedsnr" v="34358" />
		<tag k="ssr:type" v="fyrlykt" />
	</node>
	<node id="-554494" lat="62.4953777812" lon="6.30723610374">
		<tag k="name" v="Ellingsvegen" />
		<tag k="ssr:date" v="2019-05-31" />
		<tag k="ssr:gruppe" v="veg" />
		<tag k="ssr:hovedgruppe" v="infrastruktur" />
		<tag k="ssr:stedsnr" v="30723" />
		<tag k="ssr:type" v="adressenavn" />
	</node>
	<node id="-555005" lat="62.4669027758" lon="6.32986667459">
		<tag k="name" v="Lerkelia" />
		<tag k="ssr:date" v="2019-05-31" />
		<tag k="ssr:gruppe" v="veg" />
		<tag k="ssr:hovedgruppe" v="infrastruktur" />
		<tag k="ssr:stedsnr" v="697816" />
		<tag k="ssr:type" v="adressenavn" />
	</node>
	<node id="-554742" lat="62.4341138904" lon="6.46246111105">
		<tag k="name" v="Høghaugen" />
		<tag k="ssr:date" v="2019-05-31" />
		<tag k="ssr:gruppe" v="veg" />
		<tag k="ssr:hovedgruppe" v="infrastruktur" />
		<tag k="ssr:stedsnr" v="457221" />
		<tag k="ssr:type" v="adressenavn" />
	</node>
	<node id="-554741" lat="62.4945833368" lon="6.30602777676">
		<tag k="fixme" v="multiple name tags, choose one and add the other to alt_name" />
		<tag k="name" v="Nedre Ellingsvegen;Hansvegen" />
		<tag k="ssr:date" v="2019-05-31" />
		<tag k="ssr:gruppe" v="veg" />
		<tag k="ssr:hovedgruppe" v="infrastruktur" />
		<tag k="ssr:stedsnr" v="455700" />
		<tag k="ssr:type" v="adressenavn" />
	</node>
	<node id="-554739" lat="62.4712369144" lon="6.15434524351">
		<tag k="name" v="Ålesund kommune" />
		<tag k="ssr:date" v="2019-03-25" />
		<tag k="ssr:gruppe" v="administrativeIndelinger" />
		<tag k="ssr:hovedgruppe" v="offentligAdministrasjon" />
		<tag k="ssr:stedsnr" v="450122" />
		<tag k="ssr:type" v="kommune" />
	</node>
	<node id="-554365" lat="62.4183083349" lon="6.38593333561">
		<tag k="alt_name" v="Flisnes lykt" />
		<tag k="name" v="Flisneset" />
		<tag k="ssr:date" v="2016-05-11" />
		<tag k="ssr:gruppe" v="navigasjon" />
		<tag k="ssr:hovedgruppe" v="infrastruktur" />
		<tag k="ssr:stedsnr" v="884358" />
		<tag k="ssr:type" v="fyrlykt" />
	</node>
	<node id="-554858" lat="62.5065111072" lon="6.41675277223">
		<tag k="fixme" v="multiple name tags, choose one and add the other to alt_name" />
		<tag k="name" v="Reitevegen;Øvre Stokkereitane" />
		<tag k="ssr:date" v="2019-05-31" />
		<tag k="ssr:gruppe" v="veg" />
		<tag k="ssr:hovedgruppe" v="infrastruktur" />
		<tag k="ssr:stedsnr" v="539234" />
		<tag k="ssr:type" v="adressenavn" />
	</node>
	<node id="-554984" lat="62.4909055562" lon="6.28583332765">
		<tag k="name" v="Sjøstrandvegen" />
		<tag k="ssr:date" v="2019-05-31" />
		<tag k="ssr:gruppe" v="veg" />
		<tag k="ssr:hovedgruppe" v="infrastruktur" />
		<tag k="ssr:stedsnr" v="661285" />
		<tag k="ssr:type" v="adressenavn" />
	</node>
	<node id="-554727" lat="62.4354555514" lon="6.40379722345">
		<tag k="name" v="Søre-Glenna" />
		<tag k="ssr:date" v="2019-05-31" />
		<tag k="ssr:gruppe" v="veg" />
		<tag k="ssr:hovedgruppe" v="infrastruktur" />
		<tag k="ssr:stedsnr" v="424634" />
		<tag k="ssr:type" v="adressenavn" />
	</node>
	<node id="-554726" lat="62.4527777752" lon="6.3553666746">
		<tag k="name" v="Myrvollstubben" />
		<tag k="ssr:date" v="2019-05-31" />
		<tag k="ssr:gruppe" v="veg" />
		<tag k="ssr:hovedgruppe" v="infrastruktur" />
		<tag k="ssr:stedsnr" v="424632" />
		<tag k="ssr:type" v="adressenavn" />
	</node>
	<node id="-554853" lat="62.4297666637" lon="6.40072499367">
		<tag k="name" v="Krokmyra" />
		<tag k="ssr:date" v="2019-05-31" />
		<tag k="ssr:gruppe" v="veg" />
		<tag k="ssr:hovedgruppe" v="infrastruktur" />
		<tag k="ssr:stedsnr" v="526855" />
		<tag k="ssr:type" v="adressenavn" />
	</node>
	<node id="-555105" lat="62.4368055561" lon="6.40736388191">
		<tag k="name" v="Nord-Glenna" />
		<tag k="ssr:date" v="2019-05-31" />
		<tag k="ssr:gruppe" v="veg" />
		<tag k="ssr:hovedgruppe" v="infrastruktur" />
		<tag k="ssr:stedsnr" v="788631" />
		<tag k="ssr:type" v="adressenavn" />
	</node>
	<node id="-554977" lat="62.4693027762" lon="6.0674944405">
		<tag k="name" v="Erkneflua" />
		<tag k="ssr:date" v="2016-05-10" />
		<tag k="ssr:gruppe" v="navigasjon" />
		<tag k="ssr:hovedgruppe" v="infrastruktur" />
		<tag k="ssr:stedsnr" v="647952" />
		<tag k="ssr:type" v="lysbøye" />
	</node>
	<node id="-554976" lat="62.4338583322" lon="6.42909167269">
		<tag k="name" v="Ludvikplassen" />
		<tag k="ssr:date" v="2019-05-31" />
		<tag k="ssr:gruppe" v="veg" />
		<tag k="ssr:hovedgruppe" v="infrastruktur" />
		<tag k="ssr:stedsnr" v="646719" />
		<tag k="ssr:type" v="adressenavn" />
	</node>
	<node id="-554981" lat="62.484261112" lon="6.21835555466">
		<tag k="name" v="Brattholmen" />
		<tag k="ssr:date" v="2016-05-10" />
		<tag k="ssr:gruppe" v="navigasjon" />
		<tag k="ssr:hovedgruppe" v="infrastruktur" />
		<tag k="ssr:stedsnr" v="658772" />
		<tag k="ssr:type" v="fyrlykt" />
	</node>
	<node id="-554457" lat="62.4662137623" lon="6.28023339036">
		<tag k="name" v="Rosendalsvegen" />
		<tag k="old_name" v="Dunkjevlevegen" />
		<tag k="ssr:date" v="2019-11-13" />
		<tag k="ssr:gruppe" v="veg" />
		<tag k="ssr:hovedgruppe" v="infrastruktur" />
		<tag k="ssr:stedsnr" v="987878" />
		<tag k="ssr:type" v="adressenavn" />
	</node>
	<node id="-555205" lat="62.4946388927" lon="6.32381111202">
		<tag k="name" v="Vikbakken" />
		<tag k="ssr:date" v="2019-05-31" />
		<tag k="ssr:gruppe" v="veg" />
		<tag k="ssr:hovedgruppe" v="infrastruktur" />
		<tag k="ssr:stedsnr" v="909648" />
		<tag k="ssr:type" v="adressenavn" />
	</node>
	<node id="-554577" lat="62.4338046382" lon="6.43187834273">
		<tag k="fixme" v="multiple name tags, choose one and add the other to alt_name" />
		<tag k="name" v="Knuthaugen;Knutgarden" />
		<tag k="ssr:date" v="2019-05-31" />
		<tag k="ssr:gruppe" v="veg" />
		<tag k="ssr:hovedgruppe" v="infrastruktur" />
		<tag k="ssr:stedsnr" v="100699" />
		<tag k="ssr:type" v="adressenavn" />
	</node>
	<node id="-554316" lat="62.4366138906" lon="6.40191388947">
		<tag k="name" v="Erikhaugen" />
		<tag k="ssr:date" v="2019-05-31" />
		<tag k="ssr:gruppe" v="veg" />
		<tag k="ssr:hovedgruppe" v="infrastruktur" />
		<tag k="ssr:stedsnr" v="363604" />
		<tag k="ssr:type" v="adressenavn" />
	</node>
	<node id="-554699" lat="62.434899997" lon="6.36801110552">
		<tag k="name" v="Myrlandsbakken" />
		<tag k="ssr:date" v="2019-05-31" />
		<tag k="ssr:gruppe" v="veg" />
		<tag k="ssr:hovedgruppe" v="infrastruktur" />
		<tag k="ssr:stedsnr" v="241650" />
		<tag k="ssr:type" v="adressenavn" />
	</node>
	<node id="-555209" lat="62.4622302076" lon="6.08473018767">
		<tag k="name" v="Snegleværsholmen" />
		<tag k="ssr:date" v="2018-04-26" />
		<tag k="ssr:gruppe" v="navigasjon" />
		<tag k="ssr:hovedgruppe" v="infrastruktur" />
		<tag k="ssr:stedsnr" v="921933" />
		<tag k="ssr:type" v="lanterne" />
	</node>
	<node id="-555206" lat="62.459844448" lon="6.14801944923">
		<tag k="name" v="Magnarvegen" />
		<tag k="ssr:date" v="2019-05-31" />
		<tag k="ssr:gruppe" v="veg" />
		<tag k="ssr:hovedgruppe" v="infrastruktur" />
		<tag k="ssr:stedsnr" v="909877" />
		<tag k="ssr:type" v="adressenavn" />
	</node>
	<node id="-554273" lat="62.495052776" lon="6.30378056057">
		<tag k="name" v="Nilsvegen" />
		<tag k="ssr:date" v="2019-05-31" />
		<tag k="ssr:gruppe" v="veg" />
		<tag k="ssr:hovedgruppe" v="infrastruktur" />
		<tag k="ssr:stedsnr" v="333703" />
		<tag k="ssr:type" v="adressenavn" />
	</node>
	<node id="-555204" lat="62.4918055573" lon="6.28223888095">
		<tag k="name" v="Øvre Kvalstein" />
		<tag k="ssr:date" v="2019-05-31" />
		<tag k="ssr:gruppe" v="veg" />
		<tag k="ssr:hovedgruppe" v="infrastruktur" />
		<tag k="ssr:stedsnr" v="909649" />
		<tag k="ssr:type" v="adressenavn" />
	</node>
	<node id="-554690" lat="62.4384666635" lon="6.33300277834">
		<tag k="name" v="Årvikstranda" />
		<tag k="ssr:date" v="2019-05-31" />
		<tag k="ssr:gruppe" v="veg" />
		<tag k="ssr:hovedgruppe" v="infrastruktur" />
		<tag k="ssr:stedsnr" v="232547" />
		<tag k="ssr:type" v="adressenavn" />
	</node>
	<node id="-554315" lat="62.4520277768" lon="6.35275556337">
		<tag k="name" v="Remvikstubben" />
		<tag k="ssr:date" v="2019-05-31" />
		<tag k="ssr:gruppe" v="veg" />
		<tag k="ssr:hovedgruppe" v="infrastruktur" />
		<tag k="ssr:stedsnr" v="363602" />
		<tag k="ssr:type" v="adressenavn" />
	</node>
	<node id="-554814" lat="62.4673333308" lon="6.32913332972">
		<tag k="name" v="Carstenvegen" />
		<tag k="ssr:date" v="2019-05-31" />
		<tag k="ssr:gruppe" v="veg" />
		<tag k="ssr:hovedgruppe" v="infrastruktur" />
		<tag k="ssr:stedsnr" v="517227" />
		<tag k="ssr:type" v="adressenavn" />
	</node>
	<node id="-554813" lat="62.4673833339" lon="6.3276611187">
		<tag k="name" v="Åsetoppen" />
		<tag k="ssr:date" v="2019-05-31" />
		<tag k="ssr:gruppe" v="veg" />
		<tag k="ssr:hovedgruppe" v="infrastruktur" />
		<tag k="ssr:stedsnr" v="515726" />
		<tag k="ssr:type" v="adressenavn" />
	</node>
	<node id="-554812" lat="62.495733332" lon="6.30879166841">
		<tag k="name" v="Lyngtua" />
		<tag k="ssr:date" v="2019-05-31" />
		<tag k="ssr:gruppe" v="veg" />
		<tag k="ssr:hovedgruppe" v="infrastruktur" />
		<tag k="ssr:stedsnr" v="515722" />
		<tag k="ssr:type" v="adressenavn" />
	</node>
	<node id="-555274" lat="60.8816104596" lon="6.30047518531">
		<tag k="name" v="Vestlandet" />
		<tag k="ssr:date" v="2019-01-06" />
		<tag k="ssr:gruppe" v="administrativeIndelinger" />
		<tag k="ssr:hovedgruppe" v="offentligAdministrasjon" />
		<tag k="ssr:stedsnr" v="974777" />
		<tag k="ssr:type" v="annenAdministrativInndeling" />
	</node>
	<node id="-555192" lat="62.4745499994" lon="6.15024444877">
		<tag k="name" v="Ålesund" />
		<tag k="ssr:date" v="2016-05-11" />
		<tag k="ssr:gruppe" v="navigasjon" />
		<tag k="ssr:hovedgruppe" v="infrastruktur" />
		<tag k="ssr:stedsnr" v="901589" />
		<tag k="ssr:type" v="fyrlykt" />
	</node>
	<node id="-554421" lat="62.4826479513" lon="6.31067734513">
		<tag k="name" v="Lille Kalvøya" />
		<tag k="ssr:date" v="2019-12-12" />
		<tag k="ssr:gruppe" v="veg" />
		<tag k="ssr:hovedgruppe" v="infrastruktur" />
		<tag k="ssr:stedsnr" v="1074084" />
		<tag k="ssr:type" v="adressenavn" />
	</node>
	<node id="-555188" lat="62.4942527741" lon="6.30408611907">
		<tag k="fixme" v="multiple name tags, choose one and add the other to alt_name" />
		<tag k="name" v="Sperrebakken;Gjerdevegen" />
		<tag k="ssr:date" v="2019-05-31" />
		<tag k="ssr:gruppe" v="veg" />
		<tag k="ssr:hovedgruppe" v="infrastruktur" />
		<tag k="ssr:stedsnr" v="880743" />
		<tag k="ssr:type" v="adressenavn" />
	</node>
	<node id="-555166" lat="62.4686972245" lon="6.26394723157">
		<tag k="name" v="Ytre Gåseidnes" />
		<tag k="ssr:date" v="2019-05-31" />
		<tag k="ssr:gruppe" v="veg" />
		<tag k="ssr:hovedgruppe" v="infrastruktur" />
		<tag k="ssr:stedsnr" v="846030" />
		<tag k="ssr:type" v="adressenavn" />
	</node>
	<node id="-554927" lat="62.5030305528" lon="6.39941667399">
		<tag k="name" v="Stokkebakken" />
		<tag k="ssr:date" v="2019-05-31" />
		<tag k="ssr:gruppe" v="veg" />
		<tag k="ssr:hovedgruppe" v="infrastruktur" />
		<tag k="ssr:stedsnr" v="605660" />
		<tag k="ssr:type" v="adressenavn" />
	</node>
	<node id="-555054" lat="62.4951361111" lon="6.32300834026">
		<tag k="name" v="Øvre Vikhagen" />
		<tag k="ssr:date" v="2019-05-31" />
		<tag k="ssr:gruppe" v="veg" />
		<tag k="ssr:hovedgruppe" v="infrastruktur" />
		<tag k="ssr:stedsnr" v="727653" />
		<tag k="ssr:type" v="adressenavn" />
	</node>
	<node id="-555197" lat="62.4918805548" lon="6.28559165988">
		<tag k="name" v="Utheimvegen" />
		<tag k="ssr:date" v="2019-05-31" />
		<tag k="ssr:gruppe" v="veg" />
		<tag k="ssr:hovedgruppe" v="infrastruktur" />
		<tag k="ssr:stedsnr" v="904306" />
		<tag k="ssr:type" v="adressenavn" />
	</node>
	<node id="-554923" lat="62.4582805528" lon="6.14003888601">
		<tag k="fixme" v="multiple name tags, choose one and add the other to alt_name" />
		<tag k="name" v="Niklagarden;Niklavegen" />
		<tag k="ssr:date" v="2019-05-31" />
		<tag k="ssr:gruppe" v="veg" />
		<tag k="ssr:hovedgruppe" v="infrastruktur" />
		<tag k="ssr:stedsnr" v="602147" />
		<tag k="ssr:type" v="adressenavn" />
	</node>
	<node id="-554410" lat="62.4338864663" lon="6.43276219202">
		<tag k="name" v="Knuthaugen" />
		<tag k="ssr:date" v="2019-05-31" />
		<tag k="ssr:gruppe" v="veg" />
		<tag k="ssr:hovedgruppe" v="infrastruktur" />
		<tag k="ssr:stedsnr" v="1065070" />
		<tag k="ssr:type" v="adressenavn" />
	</node>
	<node id="-554409" lat="62.4755673382" lon="6.16357788403">
		<tag k="name" v="Verpingviksvegen" />
		<tag k="ssr:date" v="2019-05-31" />
		<tag k="ssr:gruppe" v="veg" />
		<tag k="ssr:hovedgruppe" v="infrastruktur" />
		<tag k="ssr:stedsnr" v="1063527" />
		<tag k="ssr:type" v="adressenavn" />
	</node>
	<node id="-554920" lat="62.4812861078" lon="6.14010832927">
		<tag k="alt_name" v="Olsskjer" />
		<tag k="name" v="Olsskjeret" />
		<tag k="ssr:date" v="2016-05-10" />
		<tag k="ssr:gruppe" v="navigasjon" />
		<tag k="ssr:hovedgruppe" v="infrastruktur" />
		<tag k="ssr:stedsnr" v="597833" />
		<tag k="ssr:type" v="lanterne" />
	</node>
	<node id="-555036" lat="62.4342638881" lon="6.4292499969">
		<tag k="name" v="Leitet" />
		<tag k="ssr:date" v="2019-05-31" />
		<tag k="ssr:gruppe" v="veg" />
		<tag k="ssr:hovedgruppe" v="infrastruktur" />
		<tag k="ssr:stedsnr" v="707744" />
		<tag k="ssr:type" v="adressenavn" />
	</node>
	<node id="-555270" lat="62.4729277791" lon="6.33631110496">
		<tag k="name" v="Villumvegen" />
		<tag k="ssr:date" v="2019-05-31" />
		<tag k="ssr:gruppe" v="veg" />
		<tag k="ssr:hovedgruppe" v="infrastruktur" />
		<tag k="ssr:stedsnr" v="969672" />
		<tag k="ssr:type" v="adressenavn" />
	</node>
	<node id="-554523" lat="62.4584388862" lon="6.13461389061">
		<tag k="fixme" v="multiple name tags, choose one and add the other to alt_name" />
		<tag k="name" v="Skolestigen;Grytavegen" />
		<tag k="ssr:date" v="2019-05-31" />
		<tag k="ssr:gruppe" v="veg" />
		<tag k="ssr:hovedgruppe" v="infrastruktur" />
		<tag k="ssr:stedsnr" v="41784" />
		<tag k="ssr:type" v="adressenavn" />
	</node>
	<node id="-554526" lat="62.4636916634" lon="6.12268054927">
		<tag k="name" v="Steinvåg" />
		<tag k="ssr:date" v="2016-05-10" />
		<tag k="ssr:gruppe" v="navigasjon" />
		<tag k="ssr:hovedgruppe" v="infrastruktur" />
		<tag k="ssr:stedsnr" v="51855" />
		<tag k="ssr:type" v="fyrlykt" />
	</node>
	<node id="-554781" lat="62.4394888885" lon="6.38609999754">
		<tag k="name" v="Ospedalsstubben" />
		<tag k="ssr:date" v="2019-05-31" />
		<tag k="ssr:gruppe" v="veg" />
		<tag k="ssr:hovedgruppe" v="infrastruktur" />
		<tag k="ssr:stedsnr" v="484858" />
		<tag k="ssr:type" v="adressenavn" />
	</node>
	<node id="-554780" lat="62.4908611084" lon="6.28310000074">
		<tag k="name" v="Kvalsteinbakken" />
		<tag k="ssr:date" v="2019-05-31" />
		<tag k="ssr:gruppe" v="veg" />
		<tag k="ssr:hovedgruppe" v="infrastruktur" />
		<tag k="ssr:stedsnr" v="484644" />
		<tag k="ssr:type" v="adressenavn" />
	</node>
	<node id="-554779" lat="62.4949249975" lon="6.32223054733">
		<tag k="name" v="Nedre Vikhagen" />
		<tag k="ssr:date" v="2019-05-31" />
		<tag k="ssr:gruppe" v="veg" />
		<tag k="ssr:hovedgruppe" v="infrastruktur" />
		<tag k="ssr:stedsnr" v="484642" />
		<tag k="ssr:type" v="adressenavn" />
	</node>
	<node id="-554776" lat="62.4380805517" lon="6.3255555634">
		<tag k="name" v="Vågsledvegen" />
		<tag k="ssr:date" v="2019-05-31" />
		<tag k="ssr:gruppe" v="veg" />
		<tag k="ssr:hovedgruppe" v="infrastruktur" />
		<tag k="ssr:stedsnr" v="481435" />
		<tag k="ssr:type" v="adressenavn" />
	</node>
	<node id="-555169" lat="62.4362305511" lon="6.40344166514">
		<tag k="name" v="Flåhamrane" />
		<tag k="ssr:date" v="2019-05-31" />
		<tag k="ssr:gruppe" v="veg" />
		<tag k="ssr:hovedgruppe" v="infrastruktur" />
		<tag k="ssr:stedsnr" v="849694" />
		<tag k="ssr:type" v="adressenavn" />
	</node>
	<node id="-554255" lat="62.5026944479" lon="6.39789166403">
		<tag k="name" v="Nils Stokkes veg" />
		<tag k="ssr:date" v="2019-05-31" />
		<tag k="ssr:gruppe" v="veg" />
		<tag k="ssr:hovedgruppe" v="infrastruktur" />
		<tag k="ssr:stedsnr" v="302671" />
		<tag k="ssr:type" v="adressenavn" />
	</node>
	<node id="-555276" lat="62.4326205802" lon="6.46646243885">
		<tag k="name" v="Midthaugvegen" />
		<tag k="ssr:date" v="2019-05-31" />
		<tag k="ssr:gruppe" v="veg" />
		<tag k="ssr:hovedgruppe" v="infrastruktur" />
		<tag k="ssr:stedsnr" v="978038" />
		<tag k="ssr:type" v="adressenavn" />
	</node>
	<node id="-555275" lat="62.4307480992" lon="6.40858590673">
		<tag k="name" v="Brisingstubben" />
		<tag k="ssr:date" v="2019-05-31" />
		<tag k="ssr:gruppe" v="veg" />
		<tag k="ssr:hovedgruppe" v="infrastruktur" />
		<tag k="ssr:stedsnr" v="978039" />
		<tag k="ssr:type" v="adressenavn" />
	</node>
	<node id="-554634" lat="62.4373555552" lon="6.32478610758">
		<tag k="name" v="Tørlevågvegen" />
		<tag k="ssr:date" v="2019-05-31" />
		<tag k="ssr:gruppe" v="veg" />
		<tag k="ssr:hovedgruppe" v="infrastruktur" />
		<tag k="ssr:stedsnr" v="178399" />
		<tag k="ssr:type" v="adressenavn" />
	</node>
	<node id="-554246" lat="62.4613985587" lon="6.132573437">
		<tag k="loc_name" v="Fergevegen" />
		<tag k="name" v="Gamle Fergevegen" />
		<tag k="ssr:date" v="2019-05-31" />
		<tag k="ssr:gruppe" v="veg" />
		<tag k="ssr:hovedgruppe" v="infrastruktur" />
		<tag k="ssr:stedsnr" v="293990" />
		<tag k="ssr:type" v="adressenavn" />
	</node>
	<node id="-554597" lat="62.4858277762" lon="6.31355277901">
		<tag k="name" v="Kalvøyskjæret" />
		<tag k="ssr:date" v="2016-05-10" />
		<tag k="ssr:gruppe" v="navigasjon" />
		<tag k="ssr:hovedgruppe" v="infrastruktur" />
		<tag k="ssr:stedsnr" v="155394" />
		<tag k="ssr:type" v="fyrlykt" />
	</node>
	<node id="-554411" lat="62.5041496268" lon="6.39640617888">
		<tag k="name" v="Røysetmarka" />
		<tag k="ssr:date" v="2019-06-17" />
		<tag k="ssr:gruppe" v="veg" />
		<tag k="ssr:hovedgruppe" v="infrastruktur" />
		<tag k="ssr:stedsnr" v="1071947" />
		<tag k="ssr:type" v="adressenavn" />
	</node>
</osm>
