<?xml version="1.0" encoding="UTF-8"?>
<osm version="0.6" generator="osmapis">
	<node lat="59.456213886469676" lon="5.838816662763316" id="-5435">
		<tag k="alt_name" v="Hettanes" />
		<tag k="name" v="Hettanes lykt" />
		<tag k="ssr:date" v="2016-05-11" />
		<tag k="ssr:gruppe" v="navigasjon" />
		<tag k="ssr:hovedgruppe" v="infrastruktur" />
		<tag k="ssr:stedsnr" v="692450" />
		<tag k="ssr:type" v="fyrlykt" />
	</node>
	<node lat="59.644327776444136" lon="5.792341662027739" id="-5557">
		<tag k="alt_name" v="Kampareholmen" />
		<tag k="name" v="Kampareholmen lykt" />
		<tag k="ssr:date" v="2016-05-11" />
		<tag k="ssr:gruppe" v="navigasjon" />
		<tag k="ssr:hovedgruppe" v="infrastruktur" />
		<tag k="ssr:stedsnr" v="791446" />
		<tag k="ssr:type" v="fyrlykt" />
	</node>
	<node lat="59.497066667673934" lon="5.71418887998634" id="-5641">
		<tag k="name" v="Haugalandet" />
		<tag k="ssr:date" v="2016-05-11" />
		<tag k="ssr:gruppe" v="terrengområder" />
		<tag k="ssr:hovedgruppe" v="terreng" />
		<tag k="ssr:stedsnr" v="816490" />
		<tag k="ssr:type" v="landskapsområde" />
	</node>
	<node lat="59.642202958637526" lon="5.640419690673452" id="-5833">
		<tag k="name" v="Baslivegen" />
		<tag k="ssr:date" v="2016-12-13" />
		<tag k="ssr:gruppe" v="veg" />
		<tag k="ssr:hovedgruppe" v="infrastruktur" />
		<tag k="ssr:stedsnr" v="973339" />
		<tag k="ssr:type" v="vegstrekning" />
	</node>
	<node lat="59.65872139733799" lon="5.7512778353679375" id="-5838">
		<tag k="name" v="Brattholmen lanterne" />
		<tag k="ssr:date" v="2016-12-14" />
		<tag k="ssr:gruppe" v="navigasjon" />
		<tag k="ssr:hovedgruppe" v="infrastruktur" />
		<tag k="ssr:stedsnr" v="973360" />
		<tag k="ssr:type" v="lanterne" />
	</node>
	<node lat="59.68820323806244" lon="5.606727739574481" id="-6035">
		<tag k="alt_name" v="Svollandsnes" />
		<tag k="name" v="Svollandsnes lykt" />
		<tag k="ssr:date" v="2020-09-03" />
		<tag k="ssr:gruppe" v="navigasjon" />
		<tag k="ssr:hovedgruppe" v="infrastruktur" />
		<tag k="ssr:stedsnr" v="3054" />
		<tag k="ssr:type" v="fyrlykt" />
	</node>
	<node lat="58.9647333357896" lon="5.731188892301877" id="-6644">
		<tag k="alt_name" v="Rogaland" />
		<tag k="name" v="Rogaland fylke" />
		<tag k="ssr:date" v="2021-02-03" />
		<tag k="ssr:gruppe" v="administrativeIndelinger" />
		<tag k="ssr:hovedgruppe" v="offentligAdministrasjon" />
		<tag k="ssr:stedsnr" v="511115" />
		<tag k="ssr:type" v="fylke" />
	</node>
	<node lat="59.68494722538629" lon="5.729597214335791" id="-6731">
		<tag k="alt_name" v="Fornesholmen" />
		<tag k="name" v="Fornesholmen lykt" />
		<tag k="ssr:date" v="2016-05-10" />
		<tag k="ssr:gruppe" v="navigasjon" />
		<tag k="ssr:hovedgruppe" v="infrastruktur" />
		<tag k="ssr:stedsnr" v="590630" />
		<tag k="ssr:type" v="fyrlykt" />
	</node>
	<node lat="59.48169823979186" lon="5.885358017752344" id="-6879">
		<tag k="alt_name" v="Sønnanåneset" />
		<tag k="name" v="Sønnanåneset lykt" />
		<tag k="old_name" v="Sunnanåneset" />
		<tag k="ssr:date" v="2020-09-03" />
		<tag k="ssr:gruppe" v="navigasjon" />
		<tag k="ssr:hovedgruppe" v="infrastruktur" />
		<tag k="ssr:stedsnr" v="669265" />
		<tag k="ssr:type" v="fyrlykt" />
	</node>
	<node lat="59.46804721780249" lon="5.745761106527042" id="-7081">
		<tag k="alt_name" v="Skjervheim" />
		<tag k="name" v="Skjervheim lykt" />
		<tag k="ssr:date" v="2016-05-11" />
		<tag k="ssr:gruppe" v="navigasjon" />
		<tag k="ssr:hovedgruppe" v="infrastruktur" />
		<tag k="ssr:stedsnr" v="791832" />
		<tag k="ssr:type" v="fyrlykt" />
	</node>
	<node lat="59.52191111207359" lon="5.68163056409939" id="-7133">
		<tag k="name" v="Prestavegen" />
		<tag k="ssr:date" v="2016-05-11" />
		<tag k="ssr:gruppe" v="veg" />
		<tag k="ssr:hovedgruppe" v="infrastruktur" />
		<tag k="ssr:stedsnr" v="846562" />
		<tag k="ssr:type" v="vegstrekning" />
	</node>
	<node lat="59.60542777779749" lon="5.807852773158429" id="-7213">
		<tag k="alt_name" v="Vindafjord" />
		<tag k="name" v="Vindafjord kommune" />
		<tag k="ssr:date" v="2017-03-24" />
		<tag k="ssr:gruppe" v="administrativeIndelinger" />
		<tag k="ssr:hovedgruppe" v="offentligAdministrasjon" />
		<tag k="ssr:stedsnr" v="935700" />
		<tag k="ssr:type" v="kommune" />
	</node>
	<node lat="59.63766389133698" lon="5.589482558160951" id="-7282">
		<tag k="name" v="Skredalsvegen" />
		<tag k="ssr:date" v="2016-12-08" />
		<tag k="ssr:gruppe" v="veg" />
		<tag k="ssr:hovedgruppe" v="infrastruktur" />
		<tag k="ssr:stedsnr" v="973232" />
		<tag k="ssr:type" v="vegstrekning" />
	</node>
	<node lat="59.633098267726425" lon="5.576004203446485" id="-7431">
		<tag k="name" v="Årvikevegen" />
		<tag k="ssr:date" v="2017-01-30" />
		<tag k="ssr:gruppe" v="veg" />
		<tag k="ssr:hovedgruppe" v="infrastruktur" />
		<tag k="ssr:stedsnr" v="974196" />
		<tag k="ssr:type" v="vegstrekning" />
	</node>
	<node lat="59.59489639086781" lon="5.570870769349253" id="-7543">
		<tag k="name" v="Naustvikvegen" />
		<tag k="ssr:date" v="2017-07-26" />
		<tag k="ssr:gruppe" v="veg" />
		<tag k="ssr:hovedgruppe" v="infrastruktur" />
		<tag k="ssr:stedsnr" v="977208" />
		<tag k="ssr:type" v="vegstrekning" />
	</node>
	<node lat="59.511488741479745" lon="5.483845912755733" id="-7819">
		<tag k="name" v="Grasdalsvegen" />
		<tag k="ssr:date" v="2020-11-18" />
		<tag k="ssr:gruppe" v="veg" />
		<tag k="ssr:hovedgruppe" v="infrastruktur" />
		<tag k="ssr:stedsnr" v="1078941" />
		<tag k="ssr:type" v="adressenavn" />
	</node>
	<node lat="59.45024096533604" lon="5.805341494769716" id="-7820">
		<tag k="name" v="Nising" />
		<tag k="ssr:date" v="2020-11-18" />
		<tag k="ssr:gruppe" v="veg" />
		<tag k="ssr:hovedgruppe" v="infrastruktur" />
		<tag k="ssr:stedsnr" v="1078942" />
		<tag k="ssr:type" v="adressenavn" />
	</node>
</osm>
