<?xml version="1.0" encoding="UTF-8"?>
<osm generator="osmapis" version="0.6">
	<node id="-196223" lat="60.2359111112" lon="8.12264167428">
		<tag k="name" v="Skjortemyran" />
		<tag k="natural" v="wetland" />
		<tag k="ssr:stedsnr" v="794523" />
	</node>
	<node id="-195710" lat="60.2595944435" lon="8.87378054742">
		<tag k="name" v="Sandin" />
		<tag k="place" v="locality" />
		<tag k="ssr:stedsnr" v="585544" />
	</node>
	<node id="-194752" lat="60.3408000014" lon="7.73059722752">
		<tag k="historic" v="shieling" />
		<tag k="name" v="Skaupsjølægret" />
		<tag k="place" v="locality" />
		<tag k="ssr:stedsnr" v="66807" />
	</node>
	<node id="-195578" lat="60.1434249965" lon="9.10711945043">
		<tag k="name" v="Farmyr" />
		<tag k="natural" v="wetland" />
		<tag k="ssr:stedsnr" v="542036" />
	</node>
	<node id="-195448" lat="60.231663889" lon="8.93885000632">
		<tag k="landuse" v="quarry" />
		<tag k="name" v="Brynebrudd" />
		<tag k="ssr:stedsnr" v="482334" />
	</node>
	<node id="-196343" lat="60.1915333379" lon="7.5997611165">
		<tag k="name" v="Krakavadmyran" />
		<tag k="natural" v="wetland" />
		<tag k="ssr:stedsnr" v="854674" />
	</node>
	<node id="-194292" lat="60.2124444474" lon="8.98956944558">
		<tag k="name" v="Bakkemyre" />
		<tag k="natural" v="wetland" />
		<tag k="ssr:stedsnr" v="308907" />
	</node>
	<node id="-195184" lat="60.465136113" lon="8.74140278383">
		<tag k="name" v="Vintermyra" />
		<tag k="natural" v="wetland" />
		<tag k="ssr:stedsnr" v="239298" />
	</node>
	<node id="-195183" lat="60.3526277756" lon="8.85890555068">
		<tag k="name" v="Blåur" />
		<tag k="natural" v="scree" />
		<tag k="ssr:stedsnr" v="239172" />
	</node>
	<node id="-195218" lat="60.2329250019" lon="9.15660555171">
		<tag k="name" v="Kårsetmyran" />
		<tag k="natural" v="wetland" />
		<tag k="ssr:stedsnr" v="247866" />
	</node>
	<node id="-195817" lat="60.3331500038" lon="8.8260638828">
		<tag k="name" v="Buggerudmyre" />
		<tag k="natural" v="wetland" />
		<tag k="ssr:stedsnr" v="612450" />
	</node>
	<node id="-194534" lat="60.2155361134" lon="8.81411111663">
		<tag k="name" v="Ålykkjemyrane" />
		<tag k="natural" v="wetland" />
		<tag k="ssr:stedsnr" v="404324" />
	</node>
	<node id="-195427" lat="60.2595027778" lon="8.81124166222">
		<tag k="name" v="Harangsdalen" />
		<tag k="place" v="locality" />
		<tag k="ssr:stedsnr" v="464615" />
	</node>
	<node id="-195168" lat="60.3146249993" lon="8.46491111105">
		<tag k="historic" v="shieling" />
		<tag k="name" v="Grønnebakken" />
		<tag k="place" v="locality" />
		<tag k="ssr:stedsnr" v="223601" />
	</node>
	<node id="-195934" lat="60.2105722251" lon="9.06221110944">
		<tag k="loc_name" v="Kymyran" />
		<tag k="name" v="Kyrmyran" />
		<tag k="natural" v="wetland" />
		<tag k="ssr:stedsnr" v="672922" />
	</node>
	<node id="-194298" lat="60.2866499987" lon="9.03425000153">
		<tag k="name" v="Repemyran" />
		<tag k="natural" v="wetland" />
		<tag k="ssr:stedsnr" v="309522" />
	</node>
	<node id="-196184" lat="60.1090305554" lon="9.0258111099">
		<tag k="alt_name" v="Fallemyran" />
		<tag k="name" v="Fallsmyran" />
		<tag k="natural" v="wetland" />
		<tag k="ssr:stedsnr" v="793575" />
	</node>
	<node id="-196429" lat="60.2839583361" lon="8.48040276881">
		<tag k="loc_name" v="Bjønnemyran" />
		<tag k="name" v="Bjørnemyran" />
		<tag k="natural" v="wetland" />
		<tag k="ssr:stedsnr" v="856516" />
	</node>
	<node id="-195147" lat="60.3132416671" lon="9.00307778058">
		<tag k="name" v="Hølemyran" />
		<tag k="natural" v="wetland" />
		<tag k="ssr:stedsnr" v="188487" />
	</node>
	<node id="-195011" lat="60.2591194413" lon="8.80571389498">
		<tag k="name" v="Karlsnes" />
		<tag k="place" v="locality" />
		<tag k="ssr:stedsnr" v="161600" />
	</node>
	<node id="-195008" lat="60.2562027742" lon="8.82759444478">
		<tag k="name" v="Odden" />
		<tag k="place" v="locality" />
		<tag k="ssr:stedsnr" v="161540" />
	</node>
	<node id="-194874" lat="60.1873388906" lon="9.01554166036">
		<tag k="name" v="Kråkesanden" />
		<tag k="natural" v="beach" />
		<tag k="ssr:stedsnr" v="101100" />
		<tag k="surface" v="sand" />
	</node>
	<node id="-195252" lat="60.2668944413" lon="7.64529999495">
		<tag k="name" v="Bakkatjønnmyran" />
		<tag k="natural" v="wetland" />
		<tag k="ssr:stedsnr" v="248976" />
	</node>
	<node id="-196145" lat="60.251766671" lon="8.77307500663">
		<tag k="name" v="Brennemyra" />
		<tag k="natural" v="wetland" />
		<tag k="ssr:stedsnr" v="768620" />
	</node>
	<node id="-196141" lat="60.2553027765" lon="8.8400472209">
		<tag k="name" v="Luvelien" />
		<tag k="place" v="locality" />
		<tag k="ssr:stedsnr" v="768560" />
	</node>
	<node id="-195883" lat="60.2939777753" lon="9.0902472198">
		<tag k="name" v="Raudtjønnmyran" />
		<tag k="natural" v="wetland" />
		<tag k="ssr:stedsnr" v="665894" />
	</node>
	<node id="-196010" lat="60.2943944428" lon="8.83149721715">
		<tag k="historic" v="shieling" />
		<tag k="name" v="Smådølvollan" />
		<tag k="place" v="locality" />
		<tag k="ssr:stedsnr" v="709893" />
	</node>
	<node id="-194225" lat="60.2956555536" lon="8.78443888397">
		<tag k="name" v="Domstein" />
		<tag k="natural" v="stone" />
		<tag k="ssr:stedsnr" v="284904" />
	</node>
	<node id="-195101" lat="60.4262249973" lon="8.73960000295">
		<tag k="name" v="Slåttemyr" />
		<tag k="natural" v="wetland" />
		<tag k="ssr:stedsnr" v="188127" />
	</node>
	<node id="-195349" lat="60.2758722236" lon="7.92249999711">
		<tag k="name" v="Djupemyran" />
		<tag k="natural" v="wetland" />
		<tag k="ssr:stedsnr" v="430769" />
	</node>
	<node id="-196370" lat="60.2512972246" lon="8.01774722489">
		<tag k="name" v="Skrykkemyre" />
		<tag k="natural" v="wetland" />
		<tag k="ssr:stedsnr" v="855797" />
	</node>
	<node id="-194264" lat="60.190430553" lon="7.68008332983">
		<tag k="name" v="Kileurde" />
		<tag k="natural" v="scree" />
		<tag k="ssr:stedsnr" v="307702" />
	</node>
	<node id="-195597" lat="60.2881027789" lon="9.07999444409">
		<tag k="name" v="Moltehølet" />
		<tag k="natural" v="wetland" />
		<tag k="ssr:stedsnr" v="544872" />
	</node>
	<node id="-195716" lat="60.2565972245" lon="8.81257500044">
		<tag k="name" v="Stakkestå" />
		<tag k="place" v="locality" />
		<tag k="ssr:stedsnr" v="585578" />
	</node>
</osm>
