<?xml version="1.0" encoding="UTF-8"?>
<osm generator="osmapis" version="0.6">
	<node id="-194556" lat="60.2445138905" lon="8.78528055244">
		<tag k="fixme" v="consider natural=peak for the most distinct mountains in the district" />
		<tag k="name" v="Haugåsen" />
		<tag k="natural" v="hill" />
		<tag k="place" v="locality" />
		<tag k="ssr:stedsnr" v="308848" />
	</node>
	<node id="-196603" lat="60.3663444411" lon="8.72411110981">
		<tag k="name" v="Skriulikjørkja" />
		<tag k="natural" v="hill" />
		<tag k="place" v="locality" />
		<tag k="ssr:stedsnr" v="842016" />
	</node>
	<node id="-194553" lat="60.2101999956" lon="7.62058610842">
		<tag k="fixme" v="consider natural=peak for the most distinct mountains in the district" />
		<tag k="name" v="Skrovet" />
		<tag k="natural" v="hill" />
		<tag k="place" v="locality" />
		<tag k="ssr:stedsnr" v="308682" />
	</node>
	<node id="-194549" lat="60.1026083326" lon="7.81303888261">
		<tag k="fixme" v="consider natural=peak for the most distinct mountains in the district" />
		<tag k="name" v="Storhellertjønnhovda" />
		<tag k="natural" v="hill" />
		<tag k="place" v="locality" />
		<tag k="ssr:stedsnr" v="308588" />
	</node>
	<node id="-196594" lat="60.1416777785" lon="9.02639722553">
		<tag k="name" v="Fagreidalen" />
		<tag k="natural" v="slope" />
		<tag k="place" v="locality" />
		<tag k="ssr:stedsnr" v="830026" />
	</node>
	<node id="-194544" lat="60.1371861092" lon="7.92063332603">
		<tag k="fixme" v="consider natural=peak for the most distinct mountains in the district" />
		<tag k="name" v="Viuvasshovdun" />
		<tag k="natural" v="hill" />
		<tag k="place" v="locality" />
		<tag k="ssr:stedsnr" v="308543" />
	</node>
	<node id="-196589" lat="60.2099861084" lon="9.10816666723">
		<tag k="name" v="Volleskaret" />
		<tag k="natural" v="valley" />
		<tag k="place" v="locality" />
		<tag k="ssr:stedsnr" v="829652" />
	</node>
	<node id="-196588" lat="60.2525916625" lon="8.77805555697">
		<tag k="name" v="Brennekulten" />
		<tag k="natural" v="hill" />
		<tag k="place" v="locality" />
		<tag k="ssr:stedsnr" v="829629" />
	</node>
	<node id="-194538" lat="60.1395999966" lon="9.1839305533">
		<tag k="fixme" v="consider natural=peak for the most distinct mountains in the district" />
		<tag k="name" v="Hovdåsen" />
		<tag k="natural" v="hill" />
		<tag k="place" v="locality" />
		<tag k="ssr:stedsnr" v="308477" />
	</node>
	<node id="-196584" lat="60.5023611138" lon="8.66666111644">
		<tag k="fixme" v="consider natural=peak for the most distinct mountains in the district" />
		<tag k="name" v="Vardhovda" />
		<tag k="natural" v="hill" />
		<tag k="place" v="locality" />
		<tag k="ssr:stedsnr" v="796187" />
	</node>
	<node id="-196580" lat="60.3017305593" lon="8.99156944973">
		<tag k="fixme" v="consider natural=peak for the most distinct mountains in the district" />
		<tag k="name" v="Ringputtåsen" />
		<tag k="natural" v="hill" />
		<tag k="place" v="locality" />
		<tag k="ssr:stedsnr" v="795526" />
	</node>
	<node id="-194530" lat="60.1917749974" lon="8.04224999443">
		<tag k="fixme" v="consider natural=peak for the most distinct mountains in the district" />
		<tag k="name" v="Falkenuten" />
		<tag k="natural" v="hill" />
		<tag k="place" v="locality" />
		<tag k="ssr:stedsnr" v="307600" />
	</node>
	<node id="-196577" lat="60.2890888869" lon="8.61259722447">
		<tag k="alt_name" v="Kvetanuten" />
		<tag k="fixme" v="consider natural=peak for the most distinct mountains in the district" />
		<tag k="name" v="Gvetanuten" />
		<tag k="natural" v="hill" />
		<tag k="place" v="locality" />
		<tag k="ssr:stedsnr" v="795511" />
	</node>
	<node id="-196572" lat="60.3392249968" lon="8.59961389698">
		<tag k="fixme" v="consider natural=peak for the most distinct mountains in the district" />
		<tag k="name" v="Steindalsheie" />
		<tag k="natural" v="hill" />
		<tag k="old_name" v="Steendals-Heia;Steindalsheia" />
		<tag k="place" v="locality" />
		<tag k="ssr:stedsnr" v="795476" />
	</node>
	<node id="-194523" lat="60.1819861147" lon="8.98828333092">
		<tag k="fixme" v="consider natural=peak for the most distinct mountains in the district" />
		<tag k="loc_name" v="Tjuvenatten" />
		<tag k="name" v="Tjugenattan" />
		<tag k="natural" v="hill" />
		<tag k="place" v="locality" />
		<tag k="ssr:stedsnr" v="302698" />
	</node>
	<node id="-196570" lat="60.3414111093" lon="8.65224721396">
		<tag k="alt_name" v="Hvilinghallene" />
		<tag k="name" v="Gvilingshallin" />
		<tag k="natural" v="slope" />
		<tag k="place" v="locality" />
		<tag k="ssr:stedsnr" v="795473" />
	</node>
	<node id="-196569" lat="60.3530388924" lon="8.75855278009">
		<tag k="name" v="Kotåsberget" />
		<tag k="natural" v="hill" />
		<tag k="place" v="locality" />
		<tag k="ssr:stedsnr" v="795463" />
	</node>
	<node id="-196567" lat="60.3531499959" lon="8.81164999449">
		<tag k="fixme" v="consider natural=peak for the most distinct mountains in the district" />
		<tag k="name" v="Blåurdranten" />
		<tag k="natural" v="hill" />
		<tag k="place" v="locality" />
		<tag k="ssr:stedsnr" v="795460" />
	</node>
	<node id="-196566" lat="60.3810722209" lon="8.81343888372">
		<tag k="fixme" v="consider natural=peak for the most distinct mountains in the district" />
		<tag k="name" v="Nutenutan" />
		<tag k="natural" v="hill" />
		<tag k="place" v="locality" />
		<tag k="ssr:stedsnr" v="795448" />
	</node>
	<node id="-196564" lat="60.4018888905" lon="8.81718610682">
		<tag k="fixme" v="consider natural=peak for the most distinct mountains in the district" />
		<tag k="name" v="Sveinsnuten" />
		<tag k="natural" v="hill" />
		<tag k="place" v="locality" />
		<tag k="ssr:stedsnr" v="795441" />
	</node>
	<node id="-196550" lat="60.3359555569" lon="8.37035556199">
		<tag k="name" v="Nordseternuten" />
		<tag k="natural" v="hill" />
		<tag k="place" v="locality" />
		<tag k="ssr:stedsnr" v="795274" />
	</node>
	<node id="-196545" lat="60.4079277751" lon="8.68503888552">
		<tag k="fixme" v="consider natural=peak for the most distinct mountains in the district" />
		<tag k="name" v="Dusetind" />
		<tag k="natural" v="hill" />
		<tag k="place" v="locality" />
		<tag k="ssr:stedsnr" v="795132" />
	</node>
	<node id="-196542" lat="60.465336108" lon="8.76698610516">
		<tag k="fixme" v="consider natural=peak for the most distinct mountains in the district" />
		<tag k="name" v="Tunhovdåsen" />
		<tag k="natural" v="hill" />
		<tag k="place" v="locality" />
		<tag k="ssr:stedsnr" v="795103" />
	</node>
	<node id="-196540" lat="60.3115666685" lon="8.41895000003">
		<tag k="fixme" v="consider natural=peak for the most distinct mountains in the district" />
		<tag k="name" v="Jønndalsberget" />
		<tag k="natural" v="hill" />
		<tag k="place" v="locality" />
		<tag k="ssr:stedsnr" v="795046" />
	</node>
	<node id="-196538" lat="60.2952083342" lon="8.2817555552">
		<tag k="fixme" v="consider natural=peak for the most distinct mountains in the district" />
		<tag k="name" v="Beltenuten" />
		<tag k="natural" v="hill" />
		<tag k="place" v="locality" />
		<tag k="ssr:stedsnr" v="795019" />
	</node>
	<node id="-196533" lat="60.1974499969" lon="8.87246945265">
		<tag k="name" v="Siljelinovi" />
		<tag k="natural" v="hill" />
		<tag k="place" v="locality" />
		<tag k="ssr:stedsnr" v="794934" />
	</node>
	<node id="-196531" lat="60.1986111089" lon="8.91962499419">
		<tag k="name" v="Brennatten" />
		<tag k="natural" v="hill" />
		<tag k="place" v="locality" />
		<tag k="ssr:stedsnr" v="794927" />
	</node>
	<node id="-196529" lat="60.2016388888" lon="8.82786110728">
		<tag k="alt_name" v="Holmevasshaugane" />
		<tag k="name" v="Holmevasshaugan" />
		<tag k="natural" v="hill" />
		<tag k="place" v="locality" />
		<tag k="ssr:stedsnr" v="794865" />
	</node>
	<node id="-196526" lat="60.1720166656" lon="8.65988889608">
		<tag k="fixme" v="consider natural=peak for the most distinct mountains in the district" />
		<tag k="name" v="Borgsjåbrotet" />
		<tag k="natural" v="hill" />
		<tag k="place" v="locality" />
		<tag k="ssr:stedsnr" v="794856" />
	</node>
	<node id="-196525" lat="60.3676249981" lon="8.00687222302">
		<tag k="fixme" v="consider natural=peak for the most distinct mountains in the district" />
		<tag k="name" v="Bleikehæe" />
		<tag k="natural" v="hill" />
		<tag k="place" v="locality" />
		<tag k="ssr:stedsnr" v="794780" />
	</node>
	<node id="-196520" lat="60.1983138896" lon="9.13458611248">
		<tag k="name" v="Vergjelie" />
		<tag k="natural" v="slope" />
		<tag k="place" v="locality" />
		<tag k="ssr:stedsnr" v="794582" />
	</node>
	<node id="-196519" lat="60.2417611077" lon="8.37170833181">
		<tag k="alt_name" v="Vikstølnuten" />
		<tag k="name" v="Vikstulnuten" />
		<tag k="natural" v="hill" />
		<tag k="place" v="locality" />
		<tag k="ssr:stedsnr" v="794525" />
	</node>
	<node id="-196515" lat="60.3671000013" lon="8.30602777595">
		<tag k="alt_name" v="Mosehøvda" />
		<tag k="fixme" v="consider natural=peak for the most distinct mountains in the district" />
		<tag k="loc_name" v="Mosohovda" />
		<tag k="name" v="Mosehovda" />
		<tag k="natural" v="hill" />
		<tag k="place" v="locality" />
		<tag k="ssr:stedsnr" v="794172" />
	</node>
	<node id="-196512" lat="60.2161250021" lon="8.18958332488">
		<tag k="fixme" v="consider natural=peak for the most distinct mountains in the district" />
		<tag k="name" v="Skjortevarden" />
		<tag k="natural" v="hill" />
		<tag k="place" v="locality" />
		<tag k="ssr:stedsnr" v="793961" />
	</node>
	<node id="-196506" lat="60.2180888852" lon="8.96971667166">
		<tag k="name" v="Hogstan" />
		<tag k="natural" v="hill" />
		<tag k="place" v="locality" />
		<tag k="ssr:stedsnr" v="793896" />
	</node>
	<node id="-196503" lat="60.228486109" lon="8.94064166927">
		<tag k="alt_name" v="Brynbergdalen" />
		<tag k="name" v="Brynebergdalen" />
		<tag k="natural" v="valley" />
		<tag k="place" v="locality" />
		<tag k="ssr:stedsnr" v="793883" />
	</node>
	<node id="-196499" lat="60.1198805576" lon="7.59301667335">
		<tag k="name" v="Langebu" />
		<tag k="place" v="locality" />
		<tag k="ssr:stedsnr" v="793757" />
	</node>
	<node id="-194541" lat="60.0951527808" lon="9.00891110922">
		<tag k="name" v="Smylinatten" />
		<tag k="natural" v="hill" />
		<tag k="place" v="locality" />
		<tag k="ssr:stedsnr" v="308500" />
	</node>
	<node id="-196491" lat="60.161830556" lon="8.99421110262">
		<tag k="alt_name" v="Hansgonatten" />
		<tag k="fixme" v="consider natural=peak for the most distinct mountains in the district" />
		<tag k="name" v="Hanskonatten" />
		<tag k="natural" v="hill" />
		<tag k="place" v="locality" />
		<tag k="ssr:stedsnr" v="793637" />
	</node>
	<node id="-196486" lat="60.1894999994" lon="8.93925000848">
		<tag k="fixme" v="consider natural=peak for the most distinct mountains in the district" />
		<tag k="name" v="Gampegrønatten" />
		<tag k="natural" v="hill" />
		<tag k="place" v="locality" />
		<tag k="ssr:stedsnr" v="793617" />
	</node>
	<node id="-196482" lat="60.128474998" lon="7.7777638905">
		<tag k="name" v="Sørtjønnflotte" />
		<tag k="place" v="locality" />
		<tag k="ssr:stedsnr" v="793598" />
	</node>
	<node id="-196481" lat="60.1137166636" lon="7.83129999191">
		<tag k="fixme" v="consider natural=peak for the most distinct mountains in the district" />
		<tag k="name" v="Vierhytthovdun" />
		<tag k="natural" v="hill" />
		<tag k="place" v="locality" />
		<tag k="ssr:stedsnr" v="793597" />
	</node>
	<node id="-196474" lat="60.300663888" lon="9.10718054902">
		<tag k="name" v="Bestemorhaugen" />
		<tag k="natural" v="hill" />
		<tag k="place" v="locality" />
		<tag k="ssr:stedsnr" v="787853" />
	</node>
	<node id="-196448" lat="60.2482249975" lon="8.9492416686">
		<tag k="name" v="Kulebrekke" />
		<tag k="natural" v="ridge" />
		<tag k="place" v="locality" />
		<tag k="ssr:stedsnr" v="778032" />
	</node>
	<node id="-196441" lat="60.2161583377" lon="9.03035277668">
		<tag k="fixme" v="consider natural=peak for the most distinct mountains in the district" />
		<tag k="name" v="Nyhusåsen" />
		<tag k="natural" v="hill" />
		<tag k="place" v="locality" />
		<tag k="ssr:stedsnr" v="768702" />
	</node>
	<node id="-196433" lat="60.2692249972" lon="7.85202500499">
		<tag k="fixme" v="consider natural=peak for the most distinct mountains in the district" />
		<tag k="name" v="Midtnuten" />
		<tag k="natural" v="hill" />
		<tag k="place" v="locality" />
		<tag k="ssr:stedsnr" v="748105" />
	</node>
	<node id="-196431" lat="60.3034583321" lon="7.70373611212">
		<tag k="fixme" v="consider natural=peak for the most distinct mountains in the district" />
		<tag k="name" v="Skaupsjønuten" />
		<tag k="natural" v="hill" />
		<tag k="place" v="locality" />
		<tag k="ssr:stedsnr" v="734895" />
	</node>
	<node id="-196417" lat="60.2966055566" lon="8.93517778332">
		<tag k="fixme" v="consider natural=peak for the most distinct mountains in the district" />
		<tag k="name" v="Taklinatten" />
		<tag k="natural" v="hill" />
		<tag k="place" v="locality" />
		<tag k="ssr:stedsnr" v="734500" />
	</node>
	<node id="-196415" lat="60.2969499975" lon="8.68258888944">
		<tag k="alt_name" v="Trifotgrevle" />
		<tag k="name" v="Trifotgryvlet" />
		<tag k="natural" v="valley" />
		<tag k="place" v="locality" />
		<tag k="ssr:stedsnr" v="734491" />
	</node>
	<node id="-196411" lat="60.312474998" lon="8.86270833733">
		<tag k="alt_name" v="Vehovdfjell" />
		<tag k="fixme" v="consider natural=peak for the most distinct mountains in the district" />
		<tag k="name" v="Vehovdfjellet" />
		<tag k="natural" v="hill" />
		<tag k="place" v="locality" />
		<tag k="ssr:stedsnr" v="734478" />
	</node>
	<node id="-196405" lat="60.3510361117" lon="8.50253055878">
		<tag k="alt_name" v="Veahøvda;Veahovda" />
		<tag k="name" v="Vedahovda" />
		<tag k="natural" v="hill" />
		<tag k="place" v="locality" />
		<tag k="ssr:stedsnr" v="734450" />
	</node>
	<node id="-196404" lat="60.3733555546" lon="8.77192222519">
		<tag k="alt_name" v="Gamskar" />
		<tag k="name" v="Gampskard" />
		<tag k="natural" v="valley" />
		<tag k="place" v="locality" />
		<tag k="ssr:stedsnr" v="734448" />
	</node>
	<node id="-196401" lat="60.3447527765" lon="9.0749583256">
		<tag k="name" v="Vasslie" />
		<tag k="natural" v="slope" />
		<tag k="place" v="locality" />
		<tag k="ssr:stedsnr" v="734442" />
	</node>
	<node id="-196386" lat="60.3502777746" lon="8.33345832664">
		<tag k="fixme" v="consider natural=peak for the most distinct mountains in the district" />
		<tag k="name" v="Falketind" />
		<tag k="natural" v="hill" />
		<tag k="place" v="locality" />
		<tag k="ssr:stedsnr" v="734258" />
	</node>
	<node id="-196385" lat="60.3354305525" lon="8.38275554832">
		<tag k="name" v="Falkberget" />
		<tag k="natural" v="hill" />
		<tag k="place" v="locality" />
		<tag k="ssr:stedsnr" v="734248" />
	</node>
	<node id="-196381" lat="60.4644055573" lon="8.83630832951">
		<tag k="name" v="Ljøtelendet" />
		<tag k="natural" v="slope" />
		<tag k="place" v="locality" />
		<tag k="ssr:stedsnr" v="734074" />
	</node>
	<node id="-196364" lat="60.2132194439" lon="8.64105276921">
		<tag k="fixme" v="consider natural=peak for the most distinct mountains in the district" />
		<tag k="name" v="Sedalsbrotet" />
		<tag k="natural" v="hill" />
		<tag k="place" v="locality" />
		<tag k="ssr:stedsnr" v="733866" />
	</node>
	<node id="-196359" lat="60.1235805559" lon="7.85637777414">
		<tag k="fixme" v="consider natural=peak for the most distinct mountains in the district" />
		<tag k="name" v="Flåhovda" />
		<tag k="natural" v="hill" />
		<tag k="place" v="locality" />
		<tag k="ssr:stedsnr" v="733589" />
	</node>
	<node id="-196357" lat="60.1989555512" lon="9.15889721826">
		<tag k="fixme" v="consider natural=peak for the most distinct mountains in the district" />
		<tag k="name" v="Nybufjellet" />
		<tag k="natural" v="hill" />
		<tag k="place" v="locality" />
		<tag k="ssr:stedsnr" v="733553" />
	</node>
	<node id="-196668" lat="60.2615722221" lon="7.91687221621">
		<tag k="name" v="Langesjøfloti" />
		<tag k="place" v="locality" />
		<tag k="ssr:stedsnr" v="855805" />
	</node>
	<node id="-194518" lat="60.3122638932" lon="8.99315833911">
		<tag k="name" v="Høledalen" />
		<tag k="natural" v="valley" />
		<tag k="place" v="locality" />
		<tag k="ssr:stedsnr" v="301042" />
	</node>
	<node id="-196352" lat="60.2466055566" lon="8.42409722033">
		<tag k="fixme" v="consider natural=peak for the most distinct mountains in the district" />
		<tag k="name" v="Synhovd" />
		<tag k="natural" v="hill" />
		<tag k="place" v="locality" />
		<tag k="ssr:stedsnr" v="733502" />
	</node>
	<node id="-196351" lat="60.2397000044" lon="8.18674444833">
		<tag k="fixme" v="consider natural=peak for the most distinct mountains in the district" />
		<tag k="name" v="Dragøyhøgdin" />
		<tag k="natural" v="hill" />
		<tag k="place" v="locality" />
		<tag k="ssr:stedsnr" v="733501" />
	</node>
	<node id="-196350" lat="60.1379305568" lon="8.90286388286">
		<tag k="name" v="Kvannehøgdin" />
		<tag k="natural" v="hill" />
		<tag k="place" v="locality" />
		<tag k="ssr:stedsnr" v="733496" />
	</node>
	<node id="-196349" lat="60.2387861118" lon="9.02932500339">
		<tag k="fixme" v="consider natural=peak for the most distinct mountains in the district" />
		<tag k="name" v="Vardåsen" />
		<tag k="natural" v="hill" />
		<tag k="place" v="locality" />
		<tag k="ssr:stedsnr" v="732988" />
	</node>
	<node id="-196346" lat="60.2009500018" lon="8.21351666496">
		<tag k="fixme" v="consider natural=peak for the most distinct mountains in the district" />
		<tag k="name" v="Olavarden" />
		<tag k="natural" v="hill" />
		<tag k="place" v="locality" />
		<tag k="ssr:stedsnr" v="732961" />
	</node>
	<node id="-196345" lat="60.2006444403" lon="8.44654166264">
		<tag k="fixme" v="consider natural=peak for the most distinct mountains in the district" />
		<tag k="name" v="Gryttjønnhovdun" />
		<tag k="natural" v="hill" />
		<tag k="place" v="locality" />
		<tag k="ssr:stedsnr" v="732958" />
	</node>
	<node id="-196332" lat="60.1771777752" lon="9.13426666602">
		<tag k="fixme" v="multiple name tags, choose one and add the other to alt_name; consider natural=peak for the most distinct mountains in the district" />
		<tag k="name" v="Ledalsnatten;Ledalsnuten" />
		<tag k="natural" v="hill" />
		<tag k="place" v="locality" />
		<tag k="ssr:stedsnr" v="732607" />
	</node>
	<node id="-196310" lat="60.2622444466" lon="8.26979166514">
		<tag k="fixme" v="consider natural=peak for the most distinct mountains in the district" />
		<tag k="name" v="Simlehovde" />
		<tag k="natural" v="hill" />
		<tag k="place" v="locality" />
		<tag k="ssr:stedsnr" v="721042" />
	</node>
	<node id="-196288" lat="60.2606027787" lon="7.85602500463">
		<tag k="fixme" v="consider natural=peak for the most distinct mountains in the district" />
		<tag k="name" v="Langesjønuten" />
		<tag k="natural" v="hill" />
		<tag k="place" v="locality" />
		<tag k="ssr:stedsnr" v="688109" />
	</node>
	<node id="-196286" lat="60.274272224" lon="8.68645278599">
		<tag k="alt_name" v="Røyslandberget" />
		<tag k="name" v="Røyslandsberget" />
		<tag k="natural" v="hill" />
		<tag k="place" v="locality" />
		<tag k="ssr:stedsnr" v="674460" />
	</node>
	<node id="-196283" lat="60.3061833342" lon="8.88173332752">
		<tag k="name" v="Kynatten" />
		<tag k="natural" v="hill" />
		<tag k="place" v="locality" />
		<tag k="ssr:stedsnr" v="674448" />
	</node>
	<node id="-196281" lat="60.3010000024" lon="8.90848332524">
		<tag k="fixme" v="multiple name tags, choose one and add the other to alt_name; consider natural=peak for the most distinct mountains in the district" />
		<tag k="name" v="Grytingfjellet;Solheimfjellet" />
		<tag k="natural" v="hill" />
		<tag k="place" v="locality" />
		<tag k="ssr:stedsnr" v="674445" />
	</node>
	<node id="-196277" lat="60.4053138907" lon="8.73913611825">
		<tag k="name" v="Bueggen" />
		<tag k="natural" v="ridge" />
		<tag k="place" v="locality" />
		<tag k="ssr:stedsnr" v="674105" />
	</node>
	<node id="-196260" lat="60.3315222218" lon="8.99454999644">
		<tag k="fixme" v="consider natural=peak for the most distinct mountains in the district" />
		<tag k="loc_name" v="Gonnarås" />
		<tag k="name" v="Gunnaråsen" />
		<tag k="natural" v="hill" />
		<tag k="place" v="locality" />
		<tag k="ssr:stedsnr" v="673428" />
	</node>
	<node id="-196258" lat="60.3866472226" lon="8.5351500001">
		<tag k="alt_name" v="Skulkehøgde" />
		<tag k="name" v="Skulkehovda" />
		<tag k="natural" v="hill" />
		<tag k="place" v="locality" />
		<tag k="ssr:stedsnr" v="673412" />
	</node>
	<node id="-196252" lat="60.2549805574" lon="8.8967750056">
		<tag k="name" v="Birgitshovda" />
		<tag k="natural" v="hill" />
		<tag k="place" v="locality" />
		<tag k="ssr:stedsnr" v="673322" />
	</node>
	<node id="-196249" lat="60.329908333" lon="8.36362499522">
		<tag k="fixme" v="consider natural=peak for the most distinct mountains in the district" />
		<tag k="name" v="Kistenuten" />
		<tag k="natural" v="hill" />
		<tag k="place" v="locality" />
		<tag k="ssr:stedsnr" v="673268" />
	</node>
	<node id="-196248" lat="60.3311888928" lon="8.39170832551">
		<tag k="fixme" v="consider natural=peak for the most distinct mountains in the district" />
		<tag k="name" v="Urdhovda" />
		<tag k="natural" v="hill" />
		<tag k="place" v="locality" />
		<tag k="ssr:stedsnr" v="673267" />
	</node>
	<node id="-196246" lat="60.3076527774" lon="8.35673055529">
		<tag k="alt_name" v="Smørhøl" />
		<tag k="name" v="Smørholet" />
		<tag k="natural" v="slope" />
		<tag k="place" v="locality" />
		<tag k="ssr:stedsnr" v="673252" />
	</node>
	<node id="-196244" lat="60.3209138905" lon="8.35275833897">
		<tag k="fixme" v="consider natural=peak for the most distinct mountains in the district" />
		<tag k="name" v="Storhovde" />
		<tag k="natural" v="hill" />
		<tag k="place" v="locality" />
		<tag k="ssr:stedsnr" v="673247" />
	</node>
	<node id="-196243" lat="60.357377781" lon="8.37940278469">
		<tag k="loc_name" v="Bjønn" />
		<tag k="name" v="Bjørn" />
		<tag k="place" v="locality" />
		<tag k="ssr:stedsnr" v="673219" />
	</node>
	<node id="-196237" lat="60.2551611115" lon="8.29173888962">
		<tag k="fixme" v="consider natural=peak for the most distinct mountains in the district" />
		<tag k="name" v="Langetjønnfjellet" />
		<tag k="natural" v="hill" />
		<tag k="place" v="locality" />
		<tag k="ssr:stedsnr" v="673056" />
	</node>
	<node id="-196225" lat="60.2119527803" lon="9.09454999846">
		<tag k="fixme" v="multiple name tags, choose one and add the other to alt_name; consider natural=peak for the most distinct mountains in the district" />
		<tag k="name" v="Gymleåsen;Skurven" />
		<tag k="natural" v="hill" />
		<tag k="place" v="locality" />
		<tag k="ssr:stedsnr" v="672907" />
	</node>
	<node id="-196219" lat="60.2312166708" lon="8.60063055726">
		<tag k="alt_name" v="Sønstevasshovd" />
		<tag k="fixme" v="consider natural=peak for the most distinct mountains in the district" />
		<tag k="name" v="Sønstevasshovda" />
		<tag k="natural" v="hill" />
		<tag k="place" v="locality" />
		<tag k="ssr:stedsnr" v="672852" />
	</node>
	<node id="-196218" lat="60.1345083356" lon="7.61770555124">
		<tag k="name" v="Langebuflatin" />
		<tag k="place" v="locality" />
		<tag k="ssr:stedsnr" v="672714" />
	</node>
	<node id="-196217" lat="60.2098555518" lon="7.66703055905">
		<tag k="fixme" v="consider natural=peak for the most distinct mountains in the district" />
		<tag k="name" v="Veisenuten" />
		<tag k="natural" v="hill" />
		<tag k="place" v="locality" />
		<tag k="ssr:stedsnr" v="672691" />
	</node>
	<node id="-196213" lat="60.1696277799" lon="9.0940777764">
		<tag k="alt_name" v="Elgsdalsåsen" />
		<tag k="fixme" v="consider natural=peak for the most distinct mountains in the district" />
		<tag k="name" v="Elgdalsåsen" />
		<tag k="natural" v="hill" />
		<tag k="place" v="locality" />
		<tag k="ssr:stedsnr" v="672595" />
	</node>
	<node id="-196212" lat="60.163263888" lon="8.94432778356">
		<tag k="name" v="Gamlestulnatten" />
		<tag k="natural" v="hill" />
		<tag k="place" v="locality" />
		<tag k="ssr:stedsnr" v="672587" />
	</node>
	<node id="-196207" lat="60.1499749956" lon="9.14682778589">
		<tag k="fixme" v="consider natural=peak for the most distinct mountains in the district" />
		<tag k="name" v="Meseteråsen" />
		<tag k="natural" v="hill" />
		<tag k="place" v="locality" />
		<tag k="ssr:stedsnr" v="672489" />
	</node>
	<node id="-196205" lat="60.1389638852" lon="8.96898056279">
		<tag k="fixme" v="consider natural=peak for the most distinct mountains in the district" />
		<tag k="name" v="Heggesetnatten" />
		<tag k="natural" v="hill" />
		<tag k="place" v="locality" />
		<tag k="ssr:stedsnr" v="672472" />
	</node>
	<node id="-196200" lat="60.2362055522" lon="9.09504999969">
		<tag k="name" v="Kolbjørnsdalen" />
		<tag k="natural" v="valley" />
		<tag k="place" v="locality" />
		<tag k="ssr:stedsnr" v="671987" />
	</node>
	<node id="-196193" lat="60.2046027817" lon="7.83528333895">
		<tag k="name" v="Geitvassgapet" />
		<tag k="natural" v="valley" />
		<tag k="place" v="locality" />
		<tag k="ssr:stedsnr" v="671677" />
	</node>
	<node id="-196192" lat="60.2046611088" lon="7.91297222149">
		<tag k="fixme" v="consider natural=peak for the most distinct mountains in the district" />
		<tag k="name" v="Muranhovda" />
		<tag k="natural" v="hill" />
		<tag k="place" v="locality" />
		<tag k="ssr:stedsnr" v="671674" />
	</node>
	<node id="-196191" lat="60.2389722248" lon="7.91078332461">
		<tag k="name" v="Reinvassdalen" />
		<tag k="natural" v="valley" />
		<tag k="place" v="locality" />
		<tag k="ssr:stedsnr" v="671670" />
	</node>
	<node id="-196172" lat="60.1983972266" lon="9.0750305598">
		<tag k="name" v="Stevnemyrdalen" />
		<tag k="natural" v="valley" />
		<tag k="place" v="locality" />
		<tag k="ssr:stedsnr" v="664361" />
	</node>
	<node id="-196171" lat="60.2037749983" lon="8.88673055459">
		<tag k="loc_name" v="Gvitenatten" />
		<tag k="name" v="Hvitenatten" />
		<tag k="natural" v="hill" />
		<tag k="place" v="locality" />
		<tag k="ssr:stedsnr" v="664330" />
	</node>
	<node id="-196141" lat="60.2985749996" lon="8.76777499449">
		<tag k="loc_name" v="Flotte" />
		<tag k="name" v="Flotti" />
		<tag k="place" v="locality" />
		<tag k="ssr:stedsnr" v="613456" />
	</node>
	<node id="-196139" lat="60.3222833361" lon="9.0678555639">
		<tag k="name" v="Småhaugan" />
		<tag k="natural" v="hill" />
		<tag k="place" v="locality" />
		<tag k="ssr:stedsnr" v="613434" />
	</node>
	<node id="-196131" lat="60.2821472254" lon="8.31267499238">
		<tag k="fixme" v="consider natural=peak for the most distinct mountains in the district" />
		<tag k="name" v="Krukenuten" />
		<tag k="natural" v="hill" />
		<tag k="place" v="locality" />
		<tag k="ssr:stedsnr" v="613010" />
	</node>
	<node id="-196115" lat="60.3214250014" lon="8.86433610705">
		<tag k="alt_name" v="Gutusetnatten" />
		<tag k="fixme" v="consider natural=peak for the most distinct mountains in the district" />
		<tag k="name" v="Gusetnatten" />
		<tag k="natural" v="hill" />
		<tag k="place" v="locality" />
		<tag k="ssr:stedsnr" v="612462" />
	</node>
	<node id="-196107" lat="60.335072226" lon="9.06134444321">
		<tag k="name" v="Fjellsethaugen" />
		<tag k="natural" v="hill" />
		<tag k="place" v="locality" />
		<tag k="ssr:stedsnr" v="612417" />
	</node>
	<node id="-196096" lat="60.3448111127" lon="8.25113333178">
		<tag k="name" v="Rundhovdnuten" />
		<tag k="natural" v="hill" />
		<tag k="place" v="locality" />
		<tag k="ssr:stedsnr" v="612250" />
	</node>
	<node id="-196092" lat="60.4957888863" lon="8.60620277358">
		<tag k="alt_name" v="Åshøgde" />
		<tag k="fixme" v="consider natural=peak for the most distinct mountains in the district" />
		<tag k="name" v="Åshovda" />
		<tag k="natural" v="hill" />
		<tag k="old_name" v="Aassæter Hövde;Grevskardnat" />
		<tag k="place" v="locality" />
		<tag k="ssr:stedsnr" v="612058" />
	</node>
	<node id="-196077" lat="60.2169444443" lon="8.77376389267">
		<tag k="fixme" v="consider natural=peak for the most distinct mountains in the district" />
		<tag k="name" v="Devegghovda" />
		<tag k="natural" v="hill" />
		<tag k="place" v="locality" />
		<tag k="ssr:stedsnr" v="611888" />
	</node>
	<node id="-196076" lat="60.1920749966" lon="8.76058888704">
		<tag k="name" v="Oleshovda" />
		<tag k="natural" v="hill" />
		<tag k="place" v="locality" />
		<tag k="ssr:stedsnr" v="611881" />
	</node>
	<node id="-196073" lat="60.2092972231" lon="8.5934861073">
		<tag k="name" v="Urdelie" />
		<tag k="natural" v="slope" />
		<tag k="place" v="locality" />
		<tag k="ssr:stedsnr" v="611864" />
	</node>
	<node id="-196067" lat="60.0970694445" lon="9.07199721353">
		<tag k="name" v="Kubbekleiv" />
		<tag k="natural" v="slope" />
		<tag k="place" v="locality" />
		<tag k="ssr:stedsnr" v="611713" />
	</node>
	<node id="-196066" lat="60.2171222217" lon="8.06510555408">
		<tag k="fixme" v="consider natural=peak for the most distinct mountains in the district" />
		<tag k="name" v="Kosadalsbrotet" />
		<tag k="natural" v="hill" />
		<tag k="place" v="locality" />
		<tag k="ssr:stedsnr" v="611684" />
	</node>
	<node id="-196062" lat="60.1605305574" lon="9.2000750049">
		<tag k="fixme" v="consider natural=peak for the most distinct mountains in the district" />
		<tag k="name" v="Lauvåsen" />
		<tag k="natural" v="hill" />
		<tag k="place" v="locality" />
		<tag k="ssr:stedsnr" v="611609" />
	</node>
	<node id="-196061" lat="60.1496583291" lon="9.03700277598">
		<tag k="fixme" v="consider natural=peak for the most distinct mountains in the district" />
		<tag k="name" v="Straumsåsen" />
		<tag k="natural" v="hill" />
		<tag k="place" v="locality" />
		<tag k="ssr:stedsnr" v="611606" />
	</node>
	<node id="-196058" lat="60.2023777749" lon="8.04082499599">
		<tag k="fixme" v="consider natural=peak for the most distinct mountains in the district" />
		<tag k="name" v="Kosadalsnutan" />
		<tag k="natural" v="hill" />
		<tag k="place" v="locality" />
		<tag k="ssr:stedsnr" v="611595" />
	</node>
	<node id="-196056" lat="60.1636722229" lon="7.87309721523">
		<tag k="fixme" v="consider natural=peak for the most distinct mountains in the district" />
		<tag k="name" v="Vestre Steintjønn-nuten" />
		<tag k="natural" v="hill" />
		<tag k="place" v="locality" />
		<tag k="ssr:stedsnr" v="611581" />
	</node>
	<node id="-196037" lat="60.3126138905" lon="8.9910777822">
		<tag k="name" v="Høleåsen" />
		<tag k="natural" v="hill" />
		<tag k="place" v="locality" />
		<tag k="ssr:stedsnr" v="604043" />
	</node>
	<node id="-196033" lat="60.2174555581" lon="8.95316945205">
		<tag k="name" v="Hengelinatten" />
		<tag k="natural" v="hill" />
		<tag k="place" v="locality" />
		<tag k="ssr:stedsnr" v="603343" />
	</node>
	<node id="-196022" lat="60.255347219" lon="8.26611388698">
		<tag k="fixme" v="consider natural=peak for the most distinct mountains in the district" />
		<tag k="name" v="Falkenutbrotet" />
		<tag k="natural" v="hill" />
		<tag k="place" v="locality" />
		<tag k="ssr:stedsnr" v="599178" />
	</node>
	<node id="-196007" lat="60.2471583366" lon="8.9538666737">
		<tag k="name" v="Nybusnippen" />
		<tag k="natural" v="hill" />
		<tag k="place" v="locality" />
		<tag k="ssr:stedsnr" v="585545" />
	</node>
	<node id="-195997" lat="60.2695499998" lon="7.83397778383">
		<tag k="fixme" v="consider natural=peak for the most distinct mountains in the district" />
		<tag k="name" v="Langenuten" />
		<tag k="natural" v="hill" />
		<tag k="place" v="locality" />
		<tag k="ssr:stedsnr" v="566776" />
	</node>
	<node id="-195987" lat="60.2852000003" lon="8.67535277888">
		<tag k="name" v="Røyslandshøgde" />
		<tag k="natural" v="hill" />
		<tag k="place" v="locality" />
		<tag k="ssr:stedsnr" v="552516" />
	</node>
	<node id="-195984" lat="60.3048250007" lon="8.48791388746">
		<tag k="fixme" v="consider natural=peak for the most distinct mountains in the district" />
		<tag k="name" v="Skardkulten" />
		<tag k="natural" v="hill" />
		<tag k="place" v="locality" />
		<tag k="ssr:stedsnr" v="552503" />
	</node>
	<node id="-195980" lat="60.3237361082" lon="8.78584721788">
		<tag k="loc_name" v="Økslin" />
		<tag k="name" v="Okslin" />
		<tag k="natural" v="hill" />
		<tag k="place" v="locality" />
		<tag k="ssr:stedsnr" v="552491" />
	</node>
	<node id="-195965" lat="60.4093666672" lon="8.87038611889">
		<tag k="fixme" v="consider natural=peak for the most distinct mountains in the district" />
		<tag k="name" v="Storneskulten" />
		<tag k="natural" v="hill" />
		<tag k="place" v="locality" />
		<tag k="ssr:stedsnr" v="552370" />
	</node>
	<node id="-195960" lat="60.2818722179" lon="9.07827776877">
		<tag k="name" v="Dalshøgde" />
		<tag k="natural" v="hill" />
		<tag k="place" v="locality" />
		<tag k="ssr:stedsnr" v="552285" />
	</node>
	<node id="-195959" lat="60.331647218" lon="8.46010277649">
		<tag k="fixme" v="consider natural=peak for the most distinct mountains in the district" />
		<tag k="name" v="Gvonnetjønn-nuten" />
		<tag k="natural" v="hill" />
		<tag k="place" v="locality" />
		<tag k="ssr:stedsnr" v="552270" />
	</node>
	<node id="-195957" lat="60.3153861114" lon="8.35713889655">
		<tag k="name" v="Rundhovda" />
		<tag k="natural" v="hill" />
		<tag k="place" v="locality" />
		<tag k="ssr:stedsnr" v="552253" />
	</node>
	<node id="-195955" lat="60.3192250042" lon="8.25347500048">
		<tag k="name" v="Feti" />
		<tag k="place" v="locality" />
		<tag k="ssr:stedsnr" v="552239" />
	</node>
	<node id="-195951" lat="60.4742611086" lon="8.64148888464">
		<tag k="fixme" v="consider natural=peak for the most distinct mountains in the district" />
		<tag k="name" v="Hallgrimsfjell" />
		<tag k="natural" v="hill" />
		<tag k="place" v="locality" />
		<tag k="ssr:stedsnr" v="552089" />
	</node>
	<node id="-195950" lat="60.4600833313" lon="8.70055277051">
		<tag k="alt_name" v="Breidvikåsen" />
		<tag k="fixme" v="consider natural=peak for the most distinct mountains in the district" />
		<tag k="name" v="Breivikåsen" />
		<tag k="natural" v="hill" />
		<tag k="place" v="locality" />
		<tag k="ssr:stedsnr" v="552076" />
	</node>
	<node id="-195933" lat="60.3438472225" lon="7.87184721325">
		<tag k="fixme" v="consider natural=peak for the most distinct mountains in the district" />
		<tag k="name" v="Halnekongen" />
		<tag k="natural" v="hill" />
		<tag k="place" v="locality" />
		<tag k="ssr:stedsnr" v="551822" />
	</node>
	<node id="-195929" lat="60.3337999982" lon="7.985474998">
		<tag k="fixme" v="consider natural=peak for the most distinct mountains in the district" />
		<tag k="name" v="Heinberget" />
		<tag k="natural" v="hill" />
		<tag k="place" v="locality" />
		<tag k="ssr:stedsnr" v="551771" />
	</node>
	<node id="-195920" lat="60.4025805546" lon="8.51582778268">
		<tag k="alt_name" v="Leirøksli" />
		<tag k="name" v="Leiråoksli" />
		<tag k="natural" v="hill" />
		<tag k="place" v="locality" />
		<tag k="ssr:stedsnr" v="551364" />
	</node>
	<node id="-195919" lat="60.40310833" lon="8.66836110549">
		<tag k="fixme" v="consider natural=peak for the most distinct mountains in the district" />
		<tag k="name" v="Dusehesten" />
		<tag k="natural" v="hill" />
		<tag k="place" v="locality" />
		<tag k="ssr:stedsnr" v="551361" />
	</node>
	<node id="-195911" lat="60.2254833323" lon="8.93268611269">
		<tag k="alt_name" v="Hallandsfjell" />
		<tag k="fixme" v="consider natural=peak for the most distinct mountains in the district" />
		<tag k="name" v="Hallandsfjellet" />
		<tag k="natural" v="hill" />
		<tag k="place" v="locality" />
		<tag k="ssr:stedsnr" v="550874" />
	</node>
	<node id="-195908" lat="60.1337555537" lon="7.70675000052">
		<tag k="name" v="Elsjålega" />
		<tag k="place" v="locality" />
		<tag k="ssr:stedsnr" v="550707" />
	</node>
	<node id="-195899" lat="60.1909555583" lon="7.77459722925">
		<tag k="fixme" v="consider natural=peak for the most distinct mountains in the district" />
		<tag k="name" v="Steinarshovda" />
		<tag k="natural" v="hill" />
		<tag k="place" v="locality" />
		<tag k="ssr:stedsnr" v="550582" />
	</node>
	<node id="-195840" lat="60.2712388917" lon="8.99718055527">
		<tag k="alt_name" v="Åsen" />
		<tag k="fixme" v="consider natural=peak for the most distinct mountains in the district" />
		<tag k="name" v="Lykkjeåsen" />
		<tag k="natural" v="hill" />
		<tag k="place" v="locality" />
		<tag k="ssr:stedsnr" v="492252" />
	</node>
	<node id="-196787" lat="60.1492333329" lon="9.04506111389">
		<tag k="name" v="Heimseterdalen" />
		<tag k="natural" v="valley" />
		<tag k="place" v="locality" />
		<tag k="ssr:stedsnr" v="915572" />
	</node>
	<node id="-195832" lat="60.2785249971" lon="7.75372499576">
		<tag k="name" v="Tormodfloti" />
		<tag k="natural" v="hill" />
		<tag k="place" v="locality" />
		<tag k="ssr:stedsnr" v="491741" />
	</node>
	<node id="-195819" lat="60.2921694481" lon="8.69552222707">
		<tag k="fixme" v="consider natural=peak for the most distinct mountains in the district" />
		<tag k="name" v="Høghovda" />
		<tag k="natural" v="hill" />
		<tag k="place" v="locality" />
		<tag k="ssr:stedsnr" v="491473" />
	</node>
	<node id="-195817" lat="60.3286083323" lon="8.84881388087">
		<tag k="name" v="Skållie" />
		<tag k="natural" v="slope" />
		<tag k="place" v="locality" />
		<tag k="ssr:stedsnr" v="491432" />
	</node>
	<node id="-195816" lat="60.3661999966" lon="8.73882223081">
		<tag k="alt_name" v="Veåsen" />
		<tag k="fixme" v="consider natural=peak for the most distinct mountains in the district" />
		<tag k="name" v="Vedåsen" />
		<tag k="natural" v="hill" />
		<tag k="place" v="locality" />
		<tag k="ssr:stedsnr" v="491424" />
	</node>
	<node id="-195814" lat="60.3363388877" lon="9.08940000693">
		<tag k="name" v="Kupanatten" />
		<tag k="natural" v="hill" />
		<tag k="place" v="locality" />
		<tag k="ssr:stedsnr" v="491415" />
	</node>
	<node id="-195807" lat="60.2767472189" lon="8.42913334066">
		<tag k="fixme" v="consider natural=peak for the most distinct mountains in the district" />
		<tag k="name" v="Vardehovde" />
		<tag k="natural" v="hill" />
		<tag k="old_name" v="Vardehovd" />
		<tag k="place" v="locality" />
		<tag k="ssr:stedsnr" v="491060" />
	</node>
	<node id="-195804" lat="60.3019472222" lon="8.41250000712">
		<tag k="name" v="Jønndalen" />
		<tag k="natural" v="valley" />
		<tag k="place" v="locality" />
		<tag k="ssr:stedsnr" v="491021" />
	</node>
	<node id="-195801" lat="60.2255416667" lon="8.11320554693">
		<tag k="name" v="Skjortedalen" />
		<tag k="natural" v="valley" />
		<tag k="place" v="locality" />
		<tag k="ssr:stedsnr" v="490947" />
	</node>
	<node id="-195800" lat="60.2278388928" lon="8.31671388569">
		<tag k="name" v="Smågådalen" />
		<tag k="natural" v="valley" />
		<tag k="place" v="locality" />
		<tag k="ssr:stedsnr" v="490944" />
	</node>
	<node id="-195780" lat="60.1160027805" lon="7.76454999851">
		<tag k="fixme" v="consider natural=peak for the most distinct mountains in the district" />
		<tag k="name" v="Sørtjønnhovda" />
		<tag k="natural" v="hill" />
		<tag k="place" v="locality" />
		<tag k="ssr:stedsnr" v="490548" />
	</node>
	<node id="-195777" lat="60.2770777752" lon="9.13556110476">
		<tag k="fixme" v="consider natural=peak for the most distinct mountains in the district" />
		<tag k="name" v="Haugefjellet" />
		<tag k="natural" v="hill" />
		<tag k="place" v="locality" />
		<tag k="ssr:stedsnr" v="491264" />
	</node>
	<node id="-195773" lat="60.3124722258" lon="8.27270556304">
		<tag k="name" v="Dyregravshallie" />
		<tag k="natural" v="slope" />
		<tag k="place" v="locality" />
		<tag k="ssr:stedsnr" v="491233" />
	</node>
	<node id="-195772" lat="60.3137916697" lon="8.29121111622">
		<tag k="name" v="Skarvsfetjan" />
		<tag k="place" v="locality" />
		<tag k="ssr:stedsnr" v="491226" />
	</node>
	<node id="-195768" lat="60.3717194471" lon="8.41570555095">
		<tag k="fixme" v="consider natural=peak for the most distinct mountains in the district" />
		<tag k="name" v="Storåsen" />
		<tag k="natural" v="hill" />
		<tag k="place" v="locality" />
		<tag k="ssr:stedsnr" v="490187" />
	</node>
	<node id="-195766" lat="60.2229694427" lon="8.34107499978">
		<tag k="fixme" v="consider natural=peak for the most distinct mountains in the district" />
		<tag k="name" v="Søre Afdalsnuten" />
		<tag k="natural" v="hill" />
		<tag k="place" v="locality" />
		<tag k="ssr:stedsnr" v="489955" />
	</node>
	<node id="-195765" lat="60.2266916695" lon="8.44798054747">
		<tag k="loc_name" v="Sjugurdshovde" />
		<tag k="name" v="Sjugurdstjønnberget" />
		<tag k="natural" v="hill" />
		<tag k="place" v="locality" />
		<tag k="ssr:stedsnr" v="489933" />
	</node>
	<node id="-195764" lat="60.1271166701" lon="9.00451666489">
		<tag k="alt_name" v="Nonsnuten" />
		<tag k="loc_name" v="Nonsetnattin" />
		<tag k="name" v="Nonsetnatten" />
		<tag k="natural" v="hill" />
		<tag k="place" v="locality" />
		<tag k="ssr:stedsnr" v="490487" />
	</node>
	<node id="-195760" lat="60.1730888892" lon="7.75184999803">
		<tag k="fixme" v="consider natural=peak for the most distinct mountains in the district" />
		<tag k="name" v="Nottaren" />
		<tag k="natural" v="hill" />
		<tag k="place" v="locality" />
		<tag k="ssr:stedsnr" v="489612" />
	</node>
	<node id="-195757" lat="60.1670361086" lon="8.94108889625">
		<tag k="alt_name" v="Byggingan" />
		<tag k="fixme" v="consider natural=peak for the most distinct mountains in the district" />
		<tag k="name" v="Byggingen" />
		<tag k="natural" v="hill" />
		<tag k="place" v="locality" />
		<tag k="ssr:stedsnr" v="489594" />
	</node>
	<node id="-195751" lat="60.0968388895" lon="8.97710277068">
		<tag k="loc_name" v="Slepeskaret" />
		<tag k="name" v="Slepeskardet" />
		<tag k="natural" v="valley" />
		<tag k="place" v="locality" />
		<tag k="ssr:stedsnr" v="483582" />
	</node>
	<node id="-195737" lat="60.2655333368" lon="8.85156388697">
		<tag k="name" v="Høllarbakken" />
		<tag k="natural" v="slope" />
		<tag k="place" v="locality" />
		<tag k="ssr:stedsnr" v="481070" />
	</node>
	<node id="-195715" lat="60.1754555554" lon="8.43373610666">
		<tag k="fixme" v="consider natural=peak for the most distinct mountains in the district" />
		<tag k="name" v="Numedalshovda" />
		<tag k="natural" v="hill" />
		<tag k="place" v="locality" />
		<tag k="ssr:stedsnr" v="445119" />
	</node>
	<node id="-195713" lat="60.2578722238" lon="8.52786943923">
		<tag k="fixme" v="consider natural=peak for the most distinct mountains in the district" />
		<tag k="name" v="Gråvårranden" />
		<tag k="natural" v="hill" />
		<tag k="place" v="locality" />
		<tag k="ssr:stedsnr" v="431533" />
	</node>
	<node id="-195712" lat="60.2844999996" lon="8.99189722339">
		<tag k="alt_name" v="Landsnippen" />
		<tag k="fixme" v="consider natural=peak for the most distinct mountains in the district" />
		<tag k="name" v="Landsnipen" />
		<tag k="natural" v="hill" />
		<tag k="place" v="locality" />
		<tag k="ssr:stedsnr" v="431529" />
	</node>
	<node id="-195707" lat="60.2767666675" lon="8.52360000225">
		<tag k="fixme" v="consider natural=peak for the most distinct mountains in the district" />
		<tag k="name" v="Nordnuten" />
		<tag k="natural" v="hill" />
		<tag k="place" v="locality" />
		<tag k="ssr:stedsnr" v="431510" />
	</node>
	<node id="-195705" lat="60.2883027769" lon="8.53301666783">
		<tag k="name" v="Uvdal" />
		<tag k="natural" v="valley" />
		<tag k="place" v="locality" />
		<tag k="ssr:stedsnr" v="431500" />
	</node>
	<node id="-195703" lat="60.3048638867" lon="9.11867499712">
		<tag k="fixme" v="consider natural=peak for the most distinct mountains in the district" />
		<tag k="name" v="Slokoåsen" />
		<tag k="natural" v="hill" />
		<tag k="place" v="locality" />
		<tag k="ssr:stedsnr" v="431491" />
	</node>
	<node id="-195698" lat="60.3083222235" lon="8.89074721906">
		<tag k="alt_name" v="Heisnatten" />
		<tag k="fixme" v="consider natural=peak for the most distinct mountains in the district" />
		<tag k="name" v="Hestnatten" />
		<tag k="natural" v="hill" />
		<tag k="ssr:stedsnr" v="431480" />
	</node>
	<node id="-195694" lat="60.3195000026" lon="9.10327499106">
		<tag k="fixme" v="consider natural=peak for the most distinct mountains in the district" />
		<tag k="name" v="Stornatten" />
		<tag k="natural" v="hill" />
		<tag k="place" v="locality" />
		<tag k="ssr:stedsnr" v="431454" />
	</node>
	<node id="-195691" lat="60.3217504811" lon="8.57433333702">
		<tag k="fixme" v="consider natural=peak for the most distinct mountains in the district" />
		<tag k="name" v="Kringlehovda" />
		<tag k="natural" v="hill" />
		<tag k="place" v="locality" />
		<tag k="ssr:stedsnr" v="431450" />
	</node>
	<node id="-195690" lat="60.3351999991" lon="8.48707777481">
		<tag k="fixme" v="consider natural=peak for the most distinct mountains in the district" />
		<tag k="name" v="Djupegrønuten" />
		<tag k="natural" v="hill" />
		<tag k="place" v="locality" />
		<tag k="ssr:stedsnr" v="431445" />
	</node>
	<node id="-195680" lat="60.3988638865" lon="8.49895278495">
		<tag k="fixme" v="consider natural=peak for the most distinct mountains in the district" />
		<tag k="name" v="Tallåsen" />
		<tag k="natural" v="hill" />
		<tag k="place" v="locality" />
		<tag k="ssr:stedsnr" v="431407" />
	</node>
	<node id="-195677" lat="60.3659861132" lon="8.90533055337">
		<tag k="fixme" v="consider natural=peak for the most distinct mountains in the district" />
		<tag k="name" v="Natten" />
		<tag k="natural" v="hill" />
		<tag k="place" v="locality" />
		<tag k="ssr:stedsnr" v="431398" />
	</node>
	<node id="-196794" lat="60.2358083329" lon="8.48692499538">
		<tag k="fixme" v="consider natural=peak for the most distinct mountains in the district" />
		<tag k="name" v="Hallvorstaulnuten" />
		<tag k="natural" v="hill" />
		<tag k="place" v="locality" />
		<tag k="ssr:stedsnr" v="915846" />
	</node>
	<node id="-195671" lat="60.2763833322" lon="9.03628333682">
		<tag k="name" v="Trytetjønnatten" />
		<tag k="natural" v="hill" />
		<tag k="place" v="locality" />
		<tag k="ssr:stedsnr" v="431282" />
	</node>
	<node id="-196793" lat="60.1482722192" lon="8.83775000231">
		<tag k="alt_name" v="Synhovda, vesle" />
		<tag k="loc_name" v="Veslesynhovd" />
		<tag k="name" v="Vesle Synhovda" />
		<tag k="natural" v="hill" />
		<tag k="place" v="locality" />
		<tag k="ssr:stedsnr" v="915766" />
	</node>
	<node id="-195665" lat="60.355538892" lon="8.1091555637">
		<tag k="fixme" v="consider natural=peak for the most distinct mountains in the district" />
		<tag k="name" v="Låglitunga" />
		<tag k="natural" v="hill" />
		<tag k="place" v="locality" />
		<tag k="ssr:stedsnr" v="431218" />
	</node>
	<node id="-195659" lat="60.2553722217" lon="8.26616666564">
		<tag k="fixme" v="consider natural=peak for the most distinct mountains in the district" />
		<tag k="name" v="Falkenuten" />
		<tag k="natural" v="hill" />
		<tag k="place" v="locality" />
		<tag k="ssr:stedsnr" v="431053" />
	</node>
	<node id="-195658" lat="60.3033583296" lon="8.22667500395">
		<tag k="name" v="Kyrkja" />
		<tag k="place" v="locality" />
		<tag k="ssr:stedsnr" v="431032" />
	</node>
	<node id="-195655" lat="60.3150944452" lon="7.68875833865">
		<tag k="fixme" v="consider natural=peak for the most distinct mountains in the district" />
		<tag k="name" v="Nibbenuten" />
		<tag k="natural" v="hill" />
		<tag k="place" v="locality" />
		<tag k="ssr:stedsnr" v="430896" />
	</node>
	<node id="-195654" lat="60.1792999989" lon="8.49297778277">
		<tag k="loc_name" v="Knutsfisknuten" />
		<tag k="name" v="Knutfiskenuten" />
		<tag k="natural" v="hill" />
		<tag k="place" v="locality" />
		<tag k="ssr:stedsnr" v="430853" />
	</node>
	<node id="-195652" lat="60.3422277758" lon="8.06962500837">
		<tag k="fixme" v="consider natural=peak for the most distinct mountains in the district" />
		<tag k="name" v="Låglitunga" />
		<tag k="natural" v="hill" />
		<tag k="place" v="locality" />
		<tag k="ssr:stedsnr" v="430790" />
	</node>
	<node id="-195649" lat="60.359997219" lon="7.96682778006">
		<tag k="name" v="Albrektnuten" />
		<tag k="natural" v="hill" />
		<tag k="place" v="locality" />
		<tag k="ssr:stedsnr" v="430779" />
	</node>
	<node id="-195647" lat="60.2721000022" lon="8.02822777982">
		<tag k="fixme" v="consider natural=peak for the most distinct mountains in the district" />
		<tag k="name" v="Slagsvolltangen" />
		<tag k="natural" v="hill" />
		<tag k="place" v="locality" />
		<tag k="ssr:stedsnr" v="430771" />
	</node>
	<node id="-195639" lat="60.3734777805" lon="8.35104722408">
		<tag k="alt_name" v="Djupeskar" />
		<tag k="fixme" v="consider natural=peak for the most distinct mountains in the district" />
		<tag k="name" v="Djupeskard" />
		<tag k="natural" v="hill" />
		<tag k="place" v="locality" />
		<tag k="ssr:stedsnr" v="430180" />
	</node>
	<node id="-195633" lat="60.204186108" lon="8.41790833376">
		<tag k="name" v="Nuteflott" />
		<tag k="natural" v="hill" />
		<tag k="place" v="locality" />
		<tag k="ssr:stedsnr" v="429963" />
	</node>
	<node id="-195632" lat="60.1990305523" lon="8.3722555582">
		<tag k="name" v="Nutenuten" />
		<tag k="natural" v="hill" />
		<tag k="place" v="locality" />
		<tag k="ssr:stedsnr" v="429961" />
	</node>
	<node id="-195630" lat="60.2116277764" lon="8.31223333025">
		<tag k="fixme" v="consider natural=peak for the most distinct mountains in the district" />
		<tag k="name" v="Nordre Afdalsnuten" />
		<tag k="natural" v="hill" />
		<tag k="place" v="locality" />
		<tag k="ssr:stedsnr" v="429952" />
	</node>
	<node id="-195623" lat="60.0798138924" lon="9.0090222225">
		<tag k="fixme" v="consider natural=peak for the most distinct mountains in the district" />
		<tag k="name" v="Dynatten" />
		<tag k="natural" v="hill" />
		<tag k="place" v="locality" />
		<tag k="ssr:stedsnr" v="429695" />
	</node>
	<node id="-195621" lat="60.2260388915" lon="7.98738054649">
		<tag k="fixme" v="consider natural=peak for the most distinct mountains in the district" />
		<tag k="name" v="Krossvasshovda" />
		<tag k="natural" v="hill" />
		<tag k="place" v="locality" />
		<tag k="ssr:stedsnr" v="429650" />
	</node>
	<node id="-195620" lat="60.2180611092" lon="7.97138610307">
		<tag k="fixme" v="consider natural=peak for the most distinct mountains in the district" />
		<tag k="name" v="Festningsnutan" />
		<tag k="natural" v="hill" />
		<tag k="place" v="locality" />
		<tag k="ssr:stedsnr" v="429648" />
	</node>
	<node id="-195617" lat="60.1711416692" lon="8.99554999238">
		<tag k="name" v="Noreåsen" />
		<tag k="natural" v="slope" />
		<tag k="old_name" v="Nordåsen" />
		<tag k="place" v="locality" />
		<tag k="ssr:stedsnr" v="429596" />
	</node>
	<node id="-195613" lat="60.1817055575" lon="8.92578056395">
		<tag k="fixme" v="consider natural=peak for the most distinct mountains in the district" />
		<tag k="name" v="Krosstjønnhovdun" />
		<tag k="natural" v="hill" />
		<tag k="place" v="locality" />
		<tag k="ssr:stedsnr" v="429566" />
	</node>
	<node id="-195610" lat="60.1541500009" lon="7.82329167096">
		<tag k="fixme" v="consider natural=peak for the most distinct mountains in the district" />
		<tag k="name" v="Vegarhovda" />
		<tag k="natural" v="hill" />
		<tag k="place" v="locality" />
		<tag k="ssr:stedsnr" v="429554" />
	</node>
	<node id="-195609" lat="60.1486388852" lon="7.73144721698">
		<tag k="fixme" v="consider natural=peak for the most distinct mountains in the district" />
		<tag k="name" v="Meinsbunutan" />
		<tag k="natural" v="hill" />
		<tag k="place" v="locality" />
		<tag k="ssr:stedsnr" v="429548" />
	</node>
	<node id="-195607" lat="60.1496249983" lon="9.19003055482">
		<tag k="fixme" v="consider natural=peak for the most distinct mountains in the district" />
		<tag k="name" v="Hyttevollåsen" />
		<tag k="natural" v="hill" />
		<tag k="place" v="locality" />
		<tag k="ssr:stedsnr" v="429498" />
	</node>
	<node id="-195605" lat="60.3004361088" lon="9.11997221618">
		<tag k="name" v="Krosstjørnhaugfjellet" />
		<tag k="natural" v="hill" />
		<tag k="place" v="locality" />
		<tag k="ssr:stedsnr" v="423878" />
	</node>
	<node id="-195602" lat="60.1723833339" lon="9.03516110606">
		<tag k="fixme" v="consider natural=peak for the most distinct mountains in the district" />
		<tag k="loc_name" v="Hvålsåsen;Hvaalsåsen" />
		<tag k="name" v="Gvålsåsen" />
		<tag k="natural" v="hill" />
		<tag k="place" v="locality" />
		<tag k="ssr:stedsnr" v="423077" />
	</node>
	<node id="-195597" lat="60.1531749987" lon="8.84768888116">
		<tag k="alt_name" v="Store Synhovd" />
		<tag k="fixme" v="consider natural=peak for the most distinct mountains in the district" />
		<tag k="loc_name" v="Storesynhovd" />
		<tag k="name" v="Store Synhovda" />
		<tag k="natural" v="hill" />
		<tag k="place" v="locality" />
		<tag k="ssr:stedsnr" v="421604" />
	</node>
	<node id="-195586" lat="60.3138333339" lon="8.66474999581">
		<tag k="name" v="Raudsjødalen" />
		<tag k="natural" v="valley" />
		<tag k="place" v="locality" />
		<tag k="ssr:stedsnr" v="249460" />
	</node>
	<node id="-195585" lat="60.3230416629" lon="8.75746389433">
		<tag k="alt_name" v="Granasetfjellet;Grånåsetfjell" />
		<tag k="fixme" v="consider natural=peak for the most distinct mountains in the district" />
		<tag k="name" v="Grånåsetfjellet" />
		<tag k="natural" v="hill" />
		<tag k="place" v="locality" />
		<tag k="ssr:stedsnr" v="249450" />
	</node>
	<node id="-195584" lat="60.326625004" lon="8.64201111527">
		<tag k="alt_name" v="Hvilinghallnuten" />
		<tag k="fixme" v="consider natural=peak for the most distinct mountains in the district" />
		<tag k="name" v="Gvilingshallnuten" />
		<tag k="natural" v="hill" />
		<tag k="place" v="locality" />
		<tag k="ssr:stedsnr" v="249443" />
	</node>
	<node id="-195579" lat="60.348813885" lon="9.0082805468">
		<tag k="alt_name" v="Austhaugen" />
		<tag k="name" v="Austhaugan" />
		<tag k="natural" v="hill" />
		<tag k="place" v="locality" />
		<tag k="ssr:stedsnr" v="249407" />
	</node>
	<node id="-195574" lat="60.3804722212" lon="9.05709444401">
		<tag k="fixme" v="consider natural=peak for the most distinct mountains in the district" />
		<tag k="loc_name" v="Styggramflæe" />
		<tag k="name" v="Styggegramsfjellet" />
		<tag k="natural" v="hill" />
		<tag k="old_name" v="Styggegram-Fj." />
		<tag k="place" v="locality" />
		<tag k="ssr:stedsnr" v="249370" />
	</node>
	<node id="-195570" lat="60.2561833289" lon="8.96643889131">
		<tag k="fixme" v="consider natural=peak for the most distinct mountains in the district" />
		<tag k="name" v="Geitåsen" />
		<tag k="natural" v="hill" />
		<tag k="place" v="locality" />
		<tag k="ssr:stedsnr" v="249292" />
	</node>
	<node id="-195562" lat="60.2518666656" lon="8.55127777688">
		<tag k="name" v="Ræpeholberget" />
		<tag k="natural" v="hill" />
		<tag k="place" v="locality" />
		<tag k="ssr:stedsnr" v="249245" />
	</node>
	<node id="-195559" lat="60.3530166637" lon="8.10271944889">
		<tag k="fixme" v="consider natural=peak for the most distinct mountains in the district" />
		<tag k="name" v="Halstjønntind" />
		<tag k="natural" v="hill" />
		<tag k="place" v="locality" />
		<tag k="ssr:stedsnr" v="249178" />
	</node>
	<node id="-195558" lat="60.4241000043" lon="8.70974721874">
		<tag k="fixme" v="consider natural=peak for the most distinct mountains in the district" />
		<tag k="name" v="Turrhaugnatten" />
		<tag k="natural" v="hill" />
		<tag k="place" v="locality" />
		<tag k="ssr:stedsnr" v="249092" />
	</node>
	<node id="-195553" lat="60.4897027747" lon="8.63478334144">
		<tag k="name" v="Knippen" />
		<tag k="natural" v="hill" />
		<tag k="place" v="locality" />
		<tag k="ssr:stedsnr" v="249038" />
	</node>
	<node id="-195548" lat="60.3473499956" lon="7.90527500045">
		<tag k="fixme" v="consider natural=peak for the most distinct mountains in the district" />
		<tag k="name" v="Selstjønnutan" />
		<tag k="natural" v="hill" />
		<tag k="place" v="locality" />
		<tag k="ssr:stedsnr" v="248827" />
	</node>
	<node id="-195546" lat="60.3336499985" lon="7.88762500684">
		<tag k="name" v="Midtselstjønndalen" />
		<tag k="natural" v="valley" />
		<tag k="place" v="locality" />
		<tag k="ssr:stedsnr" v="248819" />
	</node>
	<node id="-195540" lat="60.2981750021" lon="9.08768055208">
		<tag k="name" v="Gauknatten" />
		<tag k="natural" v="hill" />
		<tag k="place" v="locality" />
		<tag k="ssr:stedsnr" v="248472" />
	</node>
	<node id="-195534" lat="60.3683611129" lon="8.97666666207">
		<tag k="alt_name" v="Ryggfjell" />
		<tag k="fixme" v="consider natural=peak for the most distinct mountains in the district" />
		<tag k="name" v="Ryggfjellet" />
		<tag k="natural" v="hill" />
		<tag k="place" v="locality" />
		<tag k="ssr:stedsnr" v="248358" />
	</node>
	<node id="-195533" lat="60.4031583367" lon="8.57476111325">
		<tag k="alt_name" v="Rudaåsen" />
		<tag k="fixme" v="consider natural=peak for the most distinct mountains in the district" />
		<tag k="name" v="Ruaåsen" />
		<tag k="natural" v="hill" />
		<tag k="place" v="locality" />
		<tag k="ssr:stedsnr" v="248351" />
	</node>
	<node id="-195525" lat="60.2322611148" lon="8.87886111093">
		<tag k="alt_name" v="Skjenhovdkulten" />
		<tag k="fixme" v="consider natural=peak for the most distinct mountains in the district" />
		<tag k="loc_name" v="Skjenhøvdkulten" />
		<tag k="name" v="Skinhovdkulten" />
		<tag k="natural" v="hill" />
		<tag k="place" v="locality" />
		<tag k="ssr:stedsnr" v="247991" />
	</node>
	<node id="-195522" lat="60.1811472186" lon="8.38425833859">
		<tag k="alt_name" v="Gvonnenut" />
		<tag k="fixme" v="consider natural=peak for the most distinct mountains in the district" />
		<tag k="name" v="Gvonnenutan" />
		<tag k="natural" v="hill" />
		<tag k="place" v="locality" />
		<tag k="ssr:stedsnr" v="247960" />
	</node>
	<node id="-195519" lat="60.1913611155" lon="9.04895833019">
		<tag k="fixme" v="consider natural=peak for the most distinct mountains in the district" />
		<tag k="name" v="Lauvbuåsen" />
		<tag k="natural" v="hill" />
		<tag k="place" v="locality" />
		<tag k="ssr:stedsnr" v="247932" />
	</node>
	<node id="-195516" lat="60.2254500039" lon="8.94888888615">
		<tag k="name" v="Rosetnatten" />
		<tag k="natural" v="hill" />
		<tag k="place" v="locality" />
		<tag k="ssr:stedsnr" v="247878" />
	</node>
	<node id="-195513" lat="60.237836107" lon="8.57696944237">
		<tag k="fixme" v="consider natural=peak for the most distinct mountains in the district" />
		<tag k="name" v="Glopphovda" />
		<tag k="natural" v="hill" />
		<tag k="place" v="locality" />
		<tag k="ssr:stedsnr" v="247849" />
	</node>
	<node id="-195510" lat="60.2433944426" lon="8.64924999283">
		<tag k="alt_name" v="Sedalshøgda" />
		<tag k="fixme" v="consider natural=peak for the most distinct mountains in the district" />
		<tag k="name" v="Sedalshovda" />
		<tag k="natural" v="hill" />
		<tag k="place" v="locality" />
		<tag k="ssr:stedsnr" v="247813" />
	</node>
	<node id="-196766" lat="60.111163887" lon="9.06349999548">
		<tag k="alt_name" v="Numedalen" />
		<tag k="name" v="Numedal" />
		<tag k="natural" v="valley" />
		<tag k="place" v="locality" />
		<tag k="ssr:stedsnr" v="914568" />
	</node>
	<node id="-195504" lat="60.1721305547" lon="9.08326666714">
		<tag k="alt_name" v="Elgdalen" />
		<tag k="name" v="Elgsdalen" />
		<tag k="natural" v="valley" />
		<tag k="place" v="locality" />
		<tag k="ssr:stedsnr" v="247598" />
	</node>
	<node id="-195498" lat="60.1725638909" lon="7.97205000547">
		<tag k="alt_name" v="Vestre Hettehove" />
		<tag k="fixme" v="consider natural=peak for the most distinct mountains in the district" />
		<tag k="name" v="Vestre Hettehovet" />
		<tag k="natural" v="hill" />
		<tag k="old_name" v="v Hettehove" />
		<tag k="place" v="locality" />
		<tag k="ssr:stedsnr" v="247553" />
	</node>
	<node id="-195496" lat="60.1723749989" lon="8.84967500092">
		<tag k="fixme" v="consider natural=peak for the most distinct mountains in the district" />
		<tag k="name" v="Breidsethovda" />
		<tag k="natural" v="hill" />
		<tag k="place" v="locality" />
		<tag k="ssr:stedsnr" v="247549" />
	</node>
	<node id="-195493" lat="60.2397000038" lon="8.25445000571">
		<tag k="name" v="Synhovd" />
		<tag k="natural" v="hill" />
		<tag k="place" v="locality" />
		<tag k="ssr:stedsnr" v="247513" />
	</node>
	<node id="-195472" lat="60.433908337" lon="8.66476944767">
		<tag k="alt_name" v="Aastveit" />
		<tag k="name" v="Åstveit" />
		<tag k="place" v="locality" />
		<tag k="ssr:stedsnr" v="234487" />
	</node>
	<node id="-195449" lat="60.2583611109" lon="7.69624999852">
		<tag k="name" v="Midtstrandsdalen" />
		<tag k="natural" v="valley" />
		<tag k="place" v="locality" />
		<tag k="ssr:stedsnr" v="188986" />
	</node>
	<node id="-196739" lat="60.3434750028" lon="8.92017778534">
		<tag k="fixme" v="consider natural=peak for the most distinct mountains in the district" />
		<tag k="loc_name" v="Skarpinord;Skarpnord" />
		<tag k="name" v="Skarpnor" />
		<tag k="natural" v="hill" />
		<tag k="place" v="locality" />
		<tag k="ssr:stedsnr" v="902988" />
	</node>
	<node id="-195441" lat="60.3207833356" lon="9.00220832784">
		<tag k="alt_name" v="Rykfosshaugen" />
		<tag k="loc_name" v="Rykkføsshaugan" />
		<tag k="name" v="Rykfosshaugan" />
		<tag k="natural" v="hill" />
		<tag k="place" v="locality" />
		<tag k="ssr:stedsnr" v="188480" />
	</node>
	<node id="-196754" lat="60.2058055552" lon="9.02801665816">
		<tag k="name" v="Furterudåsen" />
		<tag k="natural" v="hill" />
		<tag k="place" v="locality" />
		<tag k="ssr:stedsnr" v="907346" />
	</node>
	<node id="-195429" lat="60.2816138908" lon="8.83322500874">
		<tag k="name" v="Baklie" />
		<tag k="natural" v="slope" />
		<tag k="place" v="locality" />
		<tag k="ssr:stedsnr" v="188511" />
	</node>
	<node id="-195427" lat="60.4213611156" lon="8.92865833258">
		<tag k="fixme" v="consider natural=peak for the most distinct mountains in the district" />
		<tag k="name" v="Skridunattan" />
		<tag k="natural" v="hill" />
		<tag k="place" v="locality" />
		<tag k="ssr:stedsnr" v="188361" />
	</node>
	<node id="-195421" lat="60.3480777769" lon="8.99796944105">
		<tag k="alt_name" v="Hestnatten" />
		<tag k="name" v="Heslinatten" />
		<tag k="natural" v="hill" />
		<tag k="place" v="locality" />
		<tag k="ssr:stedsnr" v="188453" />
	</node>
	<node id="-195414" lat="60.3943500022" lon="8.76664999308">
		<tag k="alt_name" v="Vaggehøvda" />
		<tag k="name" v="Vaggehovda" />
		<tag k="natural" v="hill" />
		<tag k="place" v="locality" />
		<tag k="ssr:stedsnr" v="188427" />
	</node>
	<node id="-195409" lat="60.3203222185" lon="8.23313611341">
		<tag k="fixme" v="consider natural=peak for the most distinct mountains in the district" />
		<tag k="name" v="Ræpeholnuten" />
		<tag k="natural" v="hill" />
		<tag k="ssr:stedsnr" v="188244" />
	</node>
	<node id="-195408" lat="60.3171361094" lon="8.18214166795">
		<tag k="name" v="Høgbrotet" />
		<tag k="natural" v="hill" />
		<tag k="place" v="locality" />
		<tag k="ssr:stedsnr" v="188245" />
	</node>
	<node id="-195394" lat="60.2905833353" lon="8.35665000676">
		<tag k="name" v="Veneli" />
		<tag k="natural" v="slope" />
		<tag k="place" v="locality" />
		<tag k="ssr:stedsnr" v="188010" />
	</node>
	<node id="-195381" lat="60.2702583355" lon="7.70528610961">
		<tag k="fixme" v="consider natural=peak for the most distinct mountains in the district" />
		<tag k="name" v="Napparrjoet" />
		<tag k="natural" v="hill" />
		<tag k="place" v="locality" />
		<tag k="ssr:stedsnr" v="187977" />
	</node>
	<node id="-195377" lat="60.2031527772" lon="9.11878611309">
		<tag k="name" v="Hektemogen" />
		<tag k="natural" v="valley" />
		<tag k="place" v="locality" />
		<tag k="ssr:stedsnr" v="187903" />
	</node>
	<node id="-195374" lat="60.2169388919" lon="8.73300000661">
		<tag k="fixme" v="consider natural=peak for the most distinct mountains in the district" />
		<tag k="name" v="Nonshovda" />
		<tag k="natural" v="hill" />
		<tag k="place" v="locality" />
		<tag k="ssr:stedsnr" v="187861" />
	</node>
	<node id="-196742" lat="60.1777111141" lon="8.54174722564">
		<tag k="name" v="Fantehovdun" />
		<tag k="natural" v="slope" />
		<tag k="place" v="locality" />
		<tag k="ssr:stedsnr" v="906023" />
	</node>
	<node id="-195356" lat="60.2089749986" lon="8.43068610469">
		<tag k="name" v="Vikbuhallet" />
		<tag k="natural" v="slope" />
		<tag k="place" v="locality" />
		<tag k="ssr:stedsnr" v="186941" />
	</node>
	<node id="-195355" lat="60.2161416687" lon="8.18879443686">
		<tag k="fixme" v="consider natural=peak for the most distinct mountains in the district" />
		<tag k="name" v="Skjortebrotet" />
		<tag k="natural" v="hill" />
		<tag k="place" v="locality" />
		<tag k="ssr:stedsnr" v="186935" />
	</node>
	<node id="-195353" lat="60.1825888903" lon="7.8913972252">
		<tag k="fixme" v="consider natural=peak for the most distinct mountains in the district" />
		<tag k="name" v="Hyttenuten" />
		<tag k="natural" v="hill" />
		<tag k="place" v="locality" />
		<tag k="ssr:stedsnr" v="186641" />
	</node>
	<node id="-195350" lat="60.1815305528" lon="8.99444721701">
		<tag k="loc_name" v="Tjuvenatten" />
		<tag k="name" v="Tjugenatten" />
		<tag k="natural" v="hill" />
		<tag k="place" v="locality" />
		<tag k="ssr:stedsnr" v="186622" />
	</node>
	<node id="-195345" lat="60.2241638871" lon="7.92026943551">
		<tag k="name" v="Geitvassdalen" />
		<tag k="natural" v="valley" />
		<tag k="place" v="locality" />
		<tag k="ssr:stedsnr" v="186692" />
	</node>
	<node id="-195338" lat="60.3062027808" lon="8.99802777484">
		<tag k="name" v="Kølhusdalen" />
		<tag k="natural" v="valley" />
		<tag k="place" v="locality" />
		<tag k="ssr:stedsnr" v="180046" />
	</node>
	<node id="-195318" lat="60.2208055533" lon="9.0825194529">
		<tag k="fixme" v="consider natural=peak for the most distinct mountains in the district" />
		<tag k="name" v="Snonatten" />
		<tag k="natural" v="hill" />
		<tag k="place" v="locality" />
		<tag k="ssr:stedsnr" v="163497" />
	</node>
	<node id="-195313" lat="60.1107250035" lon="8.92354999748">
		<tag k="alt_name" v="Skirveggen" />
		<tag k="loc_name" v="Skjærveggen;Skjerveggen" />
		<tag k="name" v="Skirveggin" />
		<tag k="place" v="locality" />
		<tag k="ssr:stedsnr" v="162589" />
	</node>
	<node id="-195311" lat="60.3084583372" lon="8.63856387991">
		<tag k="fixme" v="consider natural=peak for the most distinct mountains in the district" />
		<tag k="name" v="Røyslandshøgde" />
		<tag k="natural" v="hill" />
		<tag k="place" v="locality" />
		<tag k="ssr:stedsnr" v="161899" />
	</node>
	<node id="-195299" lat="60.2128083348" lon="8.10191111728">
		<tag k="name" v="Karl Johan" />
		<tag k="natural" v="valley" />
		<tag k="place" v="locality" />
		<tag k="ssr:stedsnr" v="141113" />
	</node>
	<node id="-195297" lat="60.2929750013" lon="7.8340250062">
		<tag k="fixme" v="consider natural=peak for the most distinct mountains in the district" />
		<tag k="name" v="Tormodbrotet" />
		<tag k="natural" v="hill" />
		<tag k="place" v="locality" />
		<tag k="ssr:stedsnr" v="127784" />
	</node>
	<node id="-195293" lat="60.3335277775" lon="7.85039723127">
		<tag k="fixme" v="consider natural=peak for the most distinct mountains in the district" />
		<tag k="name" v="Midtselstjønnhovda" />
		<tag k="natural" v="hill" />
		<tag k="place" v="locality" />
		<tag k="ssr:stedsnr" v="127824" />
	</node>
	<node id="-195292" lat="60.3258694475" lon="7.86270833135">
		<tag k="name" v="Selstjønndalen" />
		<tag k="natural" v="valley" />
		<tag k="place" v="locality" />
		<tag k="ssr:stedsnr" v="127825" />
	</node>
	<node id="-195291" lat="60.2609138921" lon="8.42929999145">
		<tag k="alt_name" v="Vikstølnuten" />
		<tag k="fixme" v="consider natural=peak for the most distinct mountains in the district" />
		<tag k="name" v="Vikstulnuten" />
		<tag k="natural" v="hill" />
		<tag k="place" v="locality" />
		<tag k="ssr:stedsnr" v="127635" />
	</node>
	<node id="-195280" lat="60.3049555577" lon="8.93388056398">
		<tag k="name" v="Stornatten" />
		<tag k="natural" v="hill" />
		<tag k="place" v="locality" />
		<tag k="ssr:stedsnr" v="127511" />
	</node>
	<node id="-195274" lat="60.3098305567" lon="9.12835833604">
		<tag k="fixme" v="consider natural=peak for the most distinct mountains in the district" />
		<tag k="name" v="Hesteleinnatten" />
		<tag k="natural" v="hill" />
		<tag k="place" v="locality" />
		<tag k="ssr:stedsnr" v="127479" />
	</node>
	<node id="-196727" lat="60.2824888857" lon="9.09764721785">
		<tag k="fixme" v="consider natural=peak for the most distinct mountains in the district" />
		<tag k="name" v="Bjørnlinatten" />
		<tag k="natural" v="hill" />
		<tag k="place" v="locality" />
		<tag k="ssr:stedsnr" v="856543" />
	</node>
	<node id="-195261" lat="60.3495250025" lon="8.6683166709">
		<tag k="name" v="Steinsetdalen" />
		<tag k="natural" v="valley" />
		<tag k="place" v="locality" />
		<tag k="ssr:stedsnr" v="127434" />
	</node>
	<node id="-195260" lat="60.3732249981" lon="8.6036749945">
		<tag k="alt_name" v="Rjuphøvda" />
		<tag k="name" v="Rjupehovda" />
		<tag k="natural" v="hill" />
		<tag k="place" v="locality" />
		<tag k="ssr:stedsnr" v="127429" />
	</node>
	<node id="-195257" lat="60.3641777749" lon="8.66494166085">
		<tag k="alt_name" v="Steinsetfjell" />
		<tag k="fixme" v="consider natural=peak for the most distinct mountains in the district" />
		<tag k="name" v="Steinsetfjellet" />
		<tag k="natural" v="hill" />
		<tag k="place" v="locality" />
		<tag k="ssr:stedsnr" v="127419" />
	</node>
	<node id="-195255" lat="60.3774333369" lon="8.51694444414">
		<tag k="loc_name" v="Sjugurdshøvde" />
		<tag k="name" v="Sjugurdshøgde" />
		<tag k="natural" v="hill" />
		<tag k="place" v="locality" />
		<tag k="ssr:stedsnr" v="127413" />
	</node>
	<node id="-195250" lat="60.2718805542" lon="8.96790276912">
		<tag k="name" v="Rånatten" />
		<tag k="natural" v="hill" />
		<tag k="place" v="locality" />
		<tag k="ssr:stedsnr" v="127307" />
	</node>
	<node id="-195239" lat="60.3272222211" lon="8.17812500342">
		<tag k="fixme" v="consider natural=peak for the most distinct mountains in the district" />
		<tag k="name" v="Fagerskardnutan" />
		<tag k="natural" v="hill" />
		<tag k="place" v="locality" />
		<tag k="ssr:stedsnr" v="127270" />
	</node>
	<node id="-196721" lat="60.2990249965" lon="8.53315556455">
		<tag k="name" v="Kulten" />
		<tag k="natural" v="hill" />
		<tag k="place" v="locality" />
		<tag k="ssr:stedsnr" v="856506" />
	</node>
	<node id="-195233" lat="60.2903250027" lon="8.43819443539">
		<tag k="fixme" v="consider natural=peak for the most distinct mountains in the district" />
		<tag k="loc_name" v="Rygghøvde;Ryggjehovde" />
		<tag k="name" v="Ryggehovde" />
		<tag k="natural" v="hill" />
		<tag k="old_name" v="Ryggehovd" />
		<tag k="place" v="locality" />
		<tag k="ssr:stedsnr" v="127011" />
	</node>
	<node id="-195232" lat="60.270480552" lon="8.37942499187">
		<tag k="fixme" v="consider natural=peak for the most distinct mountains in the district" />
		<tag k="loc_name" v="Rondenut" />
		<tag k="name" v="Rundenut" />
		<tag k="natural" v="hill" />
		<tag k="place" v="locality" />
		<tag k="ssr:stedsnr" v="127064" />
	</node>
	<node id="-195231" lat="60.2734777767" lon="8.26019443857">
		<tag k="fixme" v="consider natural=peak for the most distinct mountains in the district" />
		<tag k="name" v="Bollatjønnuten" />
		<tag k="natural" v="hill" />
		<tag k="place" v="locality" />
		<tag k="ssr:stedsnr" v="127060" />
	</node>
	<node id="-195226" lat="60.1928694443" lon="8.61692778139">
		<tag k="fixme" v="consider natural=peak for the most distinct mountains in the district" />
		<tag k="name" v="Borgsjånutan" />
		<tag k="natural" v="hill" />
		<tag k="place" v="locality" />
		<tag k="ssr:stedsnr" v="126860" />
	</node>
	<node id="-195225" lat="60.235441671" lon="8.61126944474">
		<tag k="alt_name" v="Tverrlihovd" />
		<tag k="name" v="Tverrlihovda" />
		<tag k="natural" v="hill" />
		<tag k="place" v="locality" />
		<tag k="ssr:stedsnr" v="126856" />
	</node>
	<node id="-195216" lat="60.1457527756" lon="7.72691667497">
		<tag k="fixme" v="consider natural=peak for the most distinct mountains in the district" />
		<tag k="name" v="Elsjåhovda" />
		<tag k="natural" v="hill" />
		<tag k="place" v="locality" />
		<tag k="ssr:stedsnr" v="126568" />
	</node>
	<node id="-195210" lat="60.207577777" lon="8.28029445189">
		<tag k="fixme" v="consider natural=peak for the most distinct mountains in the district" />
		<tag k="name" v="Søltjønnhovda" />
		<tag k="natural" v="hill" />
		<tag k="place" v="locality" />
		<tag k="ssr:stedsnr" v="125958" />
	</node>
	<node id="-195209" lat="60.2117999985" lon="8.32982499937">
		<tag k="name" v="Afdalen" />
		<tag k="natural" v="valley" />
		<tag k="place" v="locality" />
		<tag k="ssr:stedsnr" v="125956" />
	</node>
	<node id="-195206" lat="60.225424998" lon="8.88524166645">
		<tag k="loc_name" v="Trøllhøvd" />
		<tag k="name" v="Trollhovd" />
		<tag k="natural" v="hill" />
		<tag k="place" v="locality" />
		<tag k="ssr:stedsnr" v="125887" />
	</node>
	<node id="-195202" lat="60.173899999" lon="7.73436666918">
		<tag k="fixme" v="consider natural=peak for the most distinct mountains in the district" />
		<tag k="name" v="Kilenuten" />
		<tag k="natural" v="hill" />
		<tag k="place" v="locality" />
		<tag k="ssr:stedsnr" v="125588" />
	</node>
	<node id="-195200" lat="60.1791194452" lon="9.0581222271">
		<tag k="alt_name" v="Gronskaråsen;Gronskardaasen" />
		<tag k="fixme" v="consider natural=peak for the most distinct mountains in the district" />
		<tag k="loc_name" v="Grånskardåsen" />
		<tag k="name" v="Granskardåsen" />
		<tag k="natural" v="hill" />
		<tag k="place" v="locality" />
		<tag k="ssr:stedsnr" v="125582" />
	</node>
	<node id="-195175" lat="60.1687499995" lon="8.4863444489">
		<tag k="alt_name" v="Salhovd" />
		<tag k="fixme" v="consider natural=peak for the most distinct mountains in the district" />
		<tag k="loc_name" v="Salhovde" />
		<tag k="name" v="Salhovda" />
		<tag k="natural" v="hill" />
		<tag k="old_name" v="Sahovda" />
		<tag k="place" v="locality" />
		<tag k="ssr:stedsnr" v="102878" />
	</node>
	<node id="-195151" lat="60.2855413623" lon="9.12001265292">
		<tag k="alt_name" v="Bjørnlinuten;Bjørnlifjell" />
		<tag k="fixme" v="consider natural=peak for the most distinct mountains in the district" />
		<tag k="name" v="Bjørnlifjellet" />
		<tag k="natural" v="hill" />
		<tag k="old_name" v="Bjønnlifjellet" />
		<tag k="place" v="locality" />
		<tag k="ssr:stedsnr" v="67524" />
	</node>
	<node id="-195142" lat="60.3176250002" lon="8.8634638844">
		<tag k="fixme" v="consider natural=peak for the most distinct mountains in the district" />
		<tag k="name" v="Trollnatten" />
		<tag k="natural" v="hill" />
		<tag k="place" v="locality" />
		<tag k="ssr:stedsnr" v="67454" />
	</node>
	<node id="-195141" lat="60.3602138891" lon="8.74895834102">
		<tag k="fixme" v="consider natural=peak for the most distinct mountains in the district" />
		<tag k="name" v="Bjørnebergåsen" />
		<tag k="natural" v="hill" />
		<tag k="place" v="locality" />
		<tag k="ssr:stedsnr" v="67431" />
	</node>
	<node id="-195140" lat="60.3412527739" lon="9.08727500209">
		<tag k="name" v="Skjerøkternatten" />
		<tag k="natural" v="hill" />
		<tag k="place" v="locality" />
		<tag k="ssr:stedsnr" v="67412" />
	</node>
	<node id="-195137" lat="60.4211027786" lon="8.98404999237">
		<tag k="name" v="Åsbrun" />
		<tag k="natural" v="ridge" />
		<tag k="old_name" v="Isbrunatten" />
		<tag k="place" v="locality" />
		<tag k="ssr:stedsnr" v="67350" />
	</node>
	<node id="-195127" lat="60.3115055533" lon="8.25879167486">
		<tag k="name" v="Kyrkjuna" />
		<tag k="place" v="locality" />
		<tag k="ssr:stedsnr" v="67262" />
	</node>
	<node id="-195126" lat="60.3170250013" lon="8.22818056109">
		<tag k="name" v="Skarvsberget" />
		<tag k="natural" v="hill" />
		<tag k="place" v="locality" />
		<tag k="ssr:stedsnr" v="67248" />
	</node>
	<node id="-195114" lat="60.2833777735" lon="8.18570000147">
		<tag k="fixme" v="consider natural=peak for the most distinct mountains in the district" />
		<tag k="name" v="Bakketjønnuten" />
		<tag k="natural" v="hill" />
		<tag k="place" v="locality" />
		<tag k="ssr:stedsnr" v="67011" />
	</node>
	<node id="-195113" lat="60.2890638906" lon="8.39640000824">
		<tag k="fixme" v="consider natural=peak for the most distinct mountains in the district" />
		<tag k="loc_name" v="Grythøvd" />
		<tag k="name" v="Grytehovde" />
		<tag k="natural" v="hill" />
		<tag k="old_name" v="Grythovd" />
		<tag k="place" v="locality" />
		<tag k="ssr:stedsnr" v="67005" />
	</node>
	<node id="-195111" lat="60.494697224" lon="8.7474138831">
		<tag k="fixme" v="consider natural=peak for the most distinct mountains in the district" />
		<tag k="name" v="Urderudnatten" />
		<tag k="natural" v="hill" />
		<tag k="place" v="locality" />
		<tag k="ssr:stedsnr" v="67051" />
	</node>
	<node id="-195109" lat="60.3713111108" lon="7.7018777821">
		<tag k="fixme" v="consider natural=peak for the most distinct mountains in the district" />
		<tag k="name" v="Storholmnuten" />
		<tag k="natural" v="hill" />
		<tag k="old_name" v="Storholmenuten" />
		<tag k="place" v="locality" />
		<tag k="ssr:stedsnr" v="66924" />
	</node>
	<node id="-195105" lat="60.3573222231" lon="7.76060277212">
		<tag k="name" v="Skaupsjøtunga" />
		<tag k="natural" v="hill" />
		<tag k="place" v="locality" />
		<tag k="ssr:stedsnr" v="66785" />
	</node>
	<node id="-195104" lat="60.3715722234" lon="7.90810000411">
		<tag k="fixme" v="consider natural=peak for the most distinct mountains in the district" />
		<tag k="name" v="Tremannshøgde" />
		<tag k="natural" v="hill" />
		<tag k="place" v="locality" />
		<tag k="ssr:stedsnr" v="66781" />
	</node>
	<node id="-195102" lat="60.3069750023" lon="7.84850000591">
		<tag k="name" v="Skyttarbudalen" />
		<tag k="natural" v="valley" />
		<tag k="place" v="locality" />
		<tag k="ssr:stedsnr" v="66754" />
	</node>
	<node id="-195100" lat="60.3003388862" lon="8.07458054754">
		<tag k="fixme" v="consider natural=peak for the most distinct mountains in the district" />
		<tag k="name" v="Høljabrotet" />
		<tag k="natural" v="hill" />
		<tag k="place" v="locality" />
		<tag k="ssr:stedsnr" v="66740" />
	</node>
	<node id="-195089" lat="60.3058694421" lon="9.0995249945">
		<tag k="name" v="Kokkendalen" />
		<tag k="natural" v="valley" />
		<tag k="place" v="locality" />
		<tag k="ssr:stedsnr" v="66421" />
	</node>
	<node id="-195085" lat="60.2532777756" lon="8.94651388678">
		<tag k="name" v="Skreidberget" />
		<tag k="natural" v="hill" />
		<tag k="place" v="locality" />
		<tag k="ssr:stedsnr" v="66302" />
	</node>
	<node id="-195083" lat="60.2387666626" lon="7.67640277969">
		<tag k="fixme" v="consider natural=peak for the most distinct mountains in the district" />
		<tag k="name" v="Nilsbunuten" />
		<tag k="natural" v="hill" />
		<tag k="place" v="locality" />
		<tag k="ssr:stedsnr" v="66261" />
	</node>
	<node id="-195079" lat="60.2617166688" lon="8.4115944445">
		<tag k="fixme" v="consider natural=peak for the most distinct mountains in the district" />
		<tag k="name" v="Gamleseternuten" />
		<tag k="natural" v="hill" />
		<tag k="place" v="locality" />
		<tag k="ssr:stedsnr" v="66049" />
	</node>
	<node id="-195066" lat="60.2466000022" lon="8.49157499938">
		<tag k="name" v="Urdhovda" />
		<tag k="natural" v="hill" />
		<tag k="place" v="locality" />
		<tag k="ssr:stedsnr" v="65830" />
	</node>
	<node id="-195064" lat="60.218738891" lon="7.81308610288">
		<tag k="fixme" v="consider natural=peak for the most distinct mountains in the district" />
		<tag k="name" v="Vesle Skrekken" />
		<tag k="natural" v="hill" />
		<tag k="place" v="locality" />
		<tag k="ssr:stedsnr" v="65651" />
	</node>
	<node id="-195063" lat="60.2278750011" lon="7.8034749992">
		<tag k="fixme" v="consider natural=peak for the most distinct mountains in the district" />
		<tag k="name" v="Store Skrekken" />
		<tag k="natural" v="hill" />
		<tag k="place" v="locality" />
		<tag k="ssr:stedsnr" v="65640" />
	</node>
	<node id="-195057" lat="60.1768638885" lon="8.06914721968">
		<tag k="alt_name" v="Austre Hettehove" />
		<tag k="fixme" v="consider natural=peak for the most distinct mountains in the district" />
		<tag k="name" v="Austre Hettehovet" />
		<tag k="natural" v="hill" />
		<tag k="old_name" v="a Hettehove" />
		<tag k="place" v="locality" />
		<tag k="ssr:stedsnr" v="65563" />
	</node>
	<node id="-195054" lat="60.1176361122" lon="8.98831667253">
		<tag k="fixme" v="consider natural=peak for the most distinct mountains in the district" />
		<tag k="name" v="Eidsfjellet" />
		<tag k="natural" v="hill" />
		<tag k="place" v="locality" />
		<tag k="ssr:stedsnr" v="65539" />
	</node>
	<node id="-195049" lat="60.3416999979" lon="7.83699999941">
		<tag k="name" v="Halnekongdalen" />
		<tag k="natural" v="valley" />
		<tag k="place" v="locality" />
		<tag k="ssr:stedsnr" v="66805" />
	</node>
	<node id="-195048" lat="60.2862027813" lon="9.12420555299">
		<tag k="name" v="Bjørnlinuten" />
		<tag k="natural" v="hill" />
		<tag k="place" v="locality" />
		<tag k="ssr:stedsnr" v="59862" />
	</node>
	<node id="-195038" lat="60.2311305572" lon="8.93253054901">
		<tag k="name" v="Rypenattnuten" />
		<tag k="natural" v="hill" />
		<tag k="place" v="locality" />
		<tag k="ssr:stedsnr" v="57295" />
	</node>
	<node id="-195020" lat="60.2290027764" lon="8.70825832974">
		<tag k="name" v="Sauola" />
		<tag k="natural" v="hill" />
		<tag k="place" v="locality" />
		<tag k="ssr:stedsnr" v="40296" />
	</node>
	<node id="-195015" lat="60.3428777782" lon="8.4065472276">
		<tag k="name" v="Tøddøldalen" />
		<tag k="natural" v="valley" />
		<tag k="place" v="locality" />
		<tag k="ssr:stedsnr" v="20020" />
	</node>
	<node id="-195013" lat="60.2685250012" lon="7.72507499372">
		<tag k="fixme" v="consider natural=peak for the most distinct mountains in the district" />
		<tag k="name" v="Nappen" />
		<tag k="natural" v="hill" />
		<tag k="place" v="locality" />
		<tag k="ssr:stedsnr" v="6789" />
	</node>
	<node id="-195009" lat="60.2945472214" lon="7.72672222046">
		<tag k="fixme" v="consider natural=peak for the most distinct mountains in the district" />
		<tag k="name" v="Holmenuten" />
		<tag k="natural" v="hill" />
		<tag k="place" v="locality" />
		<tag k="ssr:stedsnr" v="6758" />
	</node>
	<node id="-194998" lat="60.2955250016" lon="8.85831111719">
		<tag k="alt_name" v="Vikuhøgda" />
		<tag k="name" v="Vikuhovda" />
		<tag k="natural" v="hill" />
		<tag k="place" v="locality" />
		<tag k="ssr:stedsnr" v="6500" />
	</node>
	<node id="-194992" lat="60.3126027772" lon="9.08503888092">
		<tag k="fixme" v="consider natural=peak for the most distinct mountains in the district" />
		<tag k="name" v="Kråkenatten" />
		<tag k="natural" v="hill" />
		<tag k="place" v="locality" />
		<tag k="ssr:stedsnr" v="6470" />
	</node>
	<node id="-194990" lat="60.3382000008" lon="9.11358888561">
		<tag k="fixme" v="consider natural=peak for the most distinct mountains in the district" />
		<tag k="loc_name" v="Fagerfetfjellet" />
		<tag k="name" v="Fagerfjellet" />
		<tag k="natural" v="hill" />
		<tag k="place" v="locality" />
		<tag k="ssr:stedsnr" v="6457" />
	</node>
	<node id="-194986" lat="60.3421111135" lon="8.93443888863">
		<tag k="fixme" v="consider natural=peak for the most distinct mountains in the district" />
		<tag k="loc_name" v="Einseten" />
		<tag k="name" v="Einsetnatten" />
		<tag k="natural" v="hill" />
		<tag k="old_name" v="Einsættingsnat;Einsæt-Nat;Einsetnt" />
		<tag k="ssr:stedsnr" v="6431" />
	</node>
	<node id="-194982" lat="60.4039250031" lon="9.06489999104">
		<tag k="fixme" v="consider natural=peak for the most distinct mountains in the district" />
		<tag k="name" v="Reinsjøfjellet" />
		<tag k="natural" v="hill" />
		<tag k="place" v="locality" />
		<tag k="ssr:stedsnr" v="6383" />
	</node>
	<node id="-194966" lat="60.3235611073" lon="8.33454444094">
		<tag k="name" v="Remmarhovda" />
		<tag k="natural" v="hill" />
		<tag k="place" v="locality" />
		<tag k="ssr:stedsnr" v="6231" />
	</node>
	<node id="-194957" lat="60.3139027807" lon="8.42511945239">
		<tag k="loc_name" v="Hårånattin" />
		<tag k="name" v="Hårånuten" />
		<tag k="natural" v="hill" />
		<tag k="place" v="locality" />
		<tag k="ssr:stedsnr" v="6038" />
	</node>
	<node id="-194956" lat="60.3118249982" lon="8.43941666585">
		<tag k="name" v="Staupskulten" />
		<tag k="natural" v="hill" />
		<tag k="place" v="locality" />
		<tag k="ssr:stedsnr" v="6035" />
	</node>
	<node id="-194955" lat="60.2799944424" lon="7.66480833739">
		<tag k="fixme" v="consider natural=peak for the most distinct mountains in the district" />
		<tag k="name" v="Ribbehæ" />
		<tag k="natural" v="hill" />
		<tag k="place" v="locality" />
		<tag k="ssr:stedsnr" v="5965" />
	</node>
	<node id="-194954" lat="60.2292638869" lon="8.37243610603">
		<tag k="name" v="Grånuten" />
		<tag k="natural" v="hill" />
		<tag k="place" v="locality" />
		<tag k="ssr:stedsnr" v="5929" />
	</node>
	<node id="-194953" lat="60.2038111132" lon="9.07787499741">
		<tag k="name" v="Langelihøgde" />
		<tag k="natural" v="hill" />
		<tag k="place" v="locality" />
		<tag k="ssr:stedsnr" v="5904" />
	</node>
	<node id="-194949" lat="60.2110527814" lon="8.68586111958">
		<tag k="name" v="Røyslandsflotti" />
		<tag k="place" v="locality" />
		<tag k="ssr:stedsnr" v="5846" />
	</node>
	<node id="-194948" lat="60.2167916645" lon="8.83483333902">
		<tag k="name" v="Liverudhaugen" />
		<tag k="natural" v="hill" />
		<tag k="place" v="locality" />
		<tag k="ssr:stedsnr" v="5847" />
	</node>
	<node id="-194946" lat="60.2378194443" lon="8.63851110256">
		<tag k="name" v="Sedalen" />
		<tag k="natural" v="valley" />
		<tag k="place" v="locality" />
		<tag k="ssr:stedsnr" v="5824" />
	</node>
	<node id="-194941" lat="60.3715222233" lon="7.97237222579">
		<tag k="name" v="Syningen" />
		<tag k="natural" v="hill" />
		<tag k="place" v="locality" />
		<tag k="ssr:stedsnr" v="5766" />
	</node>
	<node id="-194934" lat="60.2481916711" lon="8.149872223">
		<tag k="name" v="Breidhovd" />
		<tag k="natural" v="hill" />
		<tag k="place" v="locality" />
		<tag k="ssr:stedsnr" v="5514" />
	</node>
	<node id="-196669" lat="60.2581972203" lon="7.76017778137">
		<tag k="fixme" v="consider natural=peak for the most distinct mountains in the district" />
		<tag k="name" v="Midstrandnuten" />
		<tag k="natural" v="hill" />
		<tag k="place" v="locality" />
		<tag k="ssr:stedsnr" v="855806" />
	</node>
	<node id="-194924" lat="60.2188666692" lon="9.13767777439">
		<tag k="fixme" v="consider natural=peak for the most distinct mountains in the district" />
		<tag k="name" v="Myrsetåsen" />
		<tag k="natural" v="hill" />
		<tag k="place" v="locality" />
		<tag k="ssr:stedsnr" v="4913" />
	</node>
	<node id="-194921" lat="60.2225333349" lon="9.15186389731">
		<tag k="alt_name" v="Bjørneskarfjell" />
		<tag k="fixme" v="consider natural=peak for the most distinct mountains in the district" />
		<tag k="name" v="Bjørneskardsfjellet" />
		<tag k="natural" v="hill" />
		<tag k="place" v="locality" />
		<tag k="ssr:stedsnr" v="4905" />
	</node>
	<node id="-194920" lat="60.2213027741" lon="9.03030555028">
		<tag k="fixme" v="multiple name tags, choose one and add the other to alt_name; consider natural=peak for the most distinct mountains in the district" />
		<tag k="name" v="Lintveitåsen;Vetterhusåsen" />
		<tag k="natural" v="hill" />
		<tag k="place" v="locality" />
		<tag k="ssr:stedsnr" v="4900" />
	</node>
	<node id="-194919" lat="60.2347166628" lon="9.08921667125">
		<tag k="fixme" v="consider natural=peak for the most distinct mountains in the district" />
		<tag k="name" v="Ljosdalsåsen" />
		<tag k="natural" v="hill" />
		<tag k="place" v="locality" />
		<tag k="ssr:stedsnr" v="4896" />
	</node>
	<node id="-194917" lat="60.1266805561" lon="7.64591388368">
		<tag k="fixme" v="consider natural=peak for the most distinct mountains in the district" />
		<tag k="name" v="Langebueggi" />
		<tag k="natural" v="hill" />
		<tag k="place" v="locality" />
		<tag k="ssr:stedsnr" v="4751" />
	</node>
	<node id="-194916" lat="60.0911305581" lon="9.06346111681">
		<tag k="name" v="Geiteryggen" />
		<tag k="natural" v="ridge" />
		<tag k="place" v="locality" />
		<tag k="ssr:stedsnr" v="4733" />
	</node>
	<node id="-194910" lat="60.2003000016" lon="7.83821389716">
		<tag k="fixme" v="consider natural=peak for the most distinct mountains in the district" />
		<tag k="name" v="Melrakknutan" />
		<tag k="natural" v="hill" />
		<tag k="place" v="locality" />
		<tag k="ssr:stedsnr" v="4589" />
	</node>
	<node id="-194903" lat="60.0989499998" lon="7.48798333971">
		<tag k="name" v="Hardangervidda" />
		<tag k="natural" v="plateau" />
		<tag k="ssr:stedsnr" v="85109" />
	</node>
	<node id="-194902" lat="60.1453499957" lon="8.95592500572">
		<tag k="alt_name" v="Skirvdalen" />
		<tag k="name" v="Skirvedalen" />
		<tag k="natural" v="valley" />
		<tag k="place" v="locality" />
		<tag k="ssr:stedsnr" v="732372" />
	</node>
	<node id="-196896" lat="60.2048083295" lon="9.02751110459">
		<tag k="name" v="Kalvehullet" />
		<tag k="place" v="locality" />
		<tag k="ssr:stedsnr" v="967345" />
	</node>
	<node id="-194844" lat="60.2333204428" lon="9.06665007467">
		<tag k="name" v="Åbuktdalen" />
		<tag k="natural" v="valley" />
		<tag k="place" v="locality" />
		<tag k="ssr:stedsnr" v="1072023" />
	</node>
	<node id="-196884" lat="60.2522444461" lon="8.51322499326">
		<tag k="name" v="Flåtåtjernhøgda" />
		<tag k="natural" v="hill" />
		<tag k="place" v="locality" />
		<tag k="ssr:stedsnr" v="952535" />
	</node>
	<node id="-196858" lat="60.2562444435" lon="9.10754166335">
		<tag k="fixme" v="multiple name tags, choose one and add the other to alt_name" />
		<tag k="loc_name" v="Høgvardreset" />
		<tag k="name" v="Høgvarde;Høgvardereset" />
		<tag k="natural" v="hill" />
		<tag k="place" v="locality" />
		<tag k="ssr:stedsnr" v="917270" />
	</node>
	<node id="-196856" lat="60.261224998" lon="8.20497221439">
		<tag k="fixme" v="consider natural=peak for the most distinct mountains in the district" />
		<tag k="name" v="Halstjønnberget" />
		<tag k="natural" v="hill" />
		<tag k="place" v="locality" />
		<tag k="ssr:stedsnr" v="917001" />
	</node>
	<node id="-194793" lat="60.1819499957" lon="8.72293611138">
		<tag k="fixme" v="consider natural=peak for the most distinct mountains in the district" />
		<tag k="name" v="Gråvårantan" />
		<tag k="natural" v="hill" />
		<tag k="place" v="locality" />
		<tag k="ssr:stedsnr" v="392298" />
	</node>
	<node id="-194792" lat="60.3352222245" lon="8.38277777582">
		<tag k="fixme" v="consider natural=peak for the most distinct mountains in the district" />
		<tag k="name" v="Venegrøvstølnuten" />
		<tag k="natural" v="hill" />
		<tag k="place" v="locality" />
		<tag k="ssr:stedsnr" v="385027" />
	</node>
	<node id="-194790" lat="60.142213893" lon="8.95799165906">
		<tag k="fixme" v="multiple name tags, choose one and add the other to alt_name" />
		<tag k="name" v="Skirvdalen;Skriudalen" />
		<tag k="natural" v="valley" />
		<tag k="place" v="locality" />
		<tag k="ssr:stedsnr" v="378777" />
	</node>
	<node id="-196834" lat="60.3350555528" lon="8.80220000576">
		<tag k="name" v="Smådøldalen" />
		<tag k="natural" v="valley" />
		<tag k="place" v="locality" />
		<tag k="ssr:stedsnr" v="916453" />
	</node>
	<node id="-196833" lat="60.341599999" lon="9.1245888818">
		<tag k="name" v="Hestlegningen" />
		<tag k="natural" v="valley" />
		<tag k="place" v="locality" />
		<tag k="ssr:stedsnr" v="916447" />
	</node>
	<node id="-194783" lat="60.2648277799" lon="8.56080555261">
		<tag k="alt_name" v="Imingfjellet" />
		<tag k="fixme" v="consider natural=peak for the most distinct mountains in the district" />
		<tag k="name" v="Imingfjell" />
		<tag k="natural" v="hill" />
		<tag k="place" v="locality" />
		<tag k="ssr:stedsnr" v="370524" />
	</node>
	<node id="-194782" lat="60.2737611096" lon="8.61786111791">
		<tag k="alt_name" v="Tandbergberget" />
		<tag k="loc_name" v="Tønnbergsberget" />
		<tag k="name" v="Tonnbergsberget" />
		<tag k="natural" v="hill" />
		<tag k="place" v="locality" />
		<tag k="ssr:stedsnr" v="370514" />
	</node>
	<node id="-196827" lat="60.3819027768" lon="8.76522500418">
		<tag k="alt_name" v="Jøransetfjell" />
		<tag k="fixme" v="consider natural=peak for the most distinct mountains in the district" />
		<tag k="name" v="Jøransetfjellet" />
		<tag k="natural" v="hill" />
		<tag k="place" v="locality" />
		<tag k="ssr:stedsnr" v="916421" />
	</node>
	<node id="-196826" lat="60.3934500014" lon="8.49224999875">
		<tag k="alt_name" v="Hagesetåsen" />
		<tag k="fixme" v="consider natural=peak for the most distinct mountains in the district" />
		<tag k="loc_name" v="Hågåsetåsen" />
		<tag k="name" v="Hagasetåsen" />
		<tag k="natural" v="hill" />
		<tag k="place" v="locality" />
		<tag k="ssr:stedsnr" v="916413" />
	</node>
	<node id="-196822" lat="60.3790722247" lon="8.94533611672">
		<tag k="alt_name" v="Langåsfjella" />
		<tag k="fixme" v="consider natural=peak for the most distinct mountains in the district" />
		<tag k="name" v="Langfjellet" />
		<tag k="natural" v="hill" />
		<tag k="place" v="locality" />
		<tag k="ssr:stedsnr" v="916396" />
	</node>
	<node id="-196820" lat="60.4353277751" lon="8.93827499792">
		<tag k="fixme" v="consider natural=peak for the most distinct mountains in the district" />
		<tag k="name" v="Grårovnatten" />
		<tag k="natural" v="hill" />
		<tag k="place" v="locality" />
		<tag k="ssr:stedsnr" v="916356" />
	</node>
	<node id="-194771" lat="60.3545111147" lon="8.842183331">
		<tag k="fixme" v="consider natural=peak for the most distinct mountains in the district" />
		<tag k="name" v="Blånuten" />
		<tag k="natural" v="hill" />
		<tag k="place" v="locality" />
		<tag k="ssr:stedsnr" v="370451" />
	</node>
	<node id="-196817" lat="60.4482055536" lon="8.92445555401">
		<tag k="fixme" v="consider natural=peak for the most distinct mountains in the district" />
		<tag k="name" v="Skridunatten" />
		<tag k="natural" v="hill" />
		<tag k="place" v="locality" />
		<tag k="ssr:stedsnr" v="916318" />
	</node>
	<node id="-194765" lat="60.3768749982" lon="9.11208333327">
		<tag k="name" v="Langelie" />
		<tag k="natural" v="slope" />
		<tag k="place" v="locality" />
		<tag k="ssr:stedsnr" v="370420" />
	</node>
	<node id="-194763" lat="60.4226250034" lon="8.90924999507">
		<tag k="fixme" v="consider natural=peak for the most distinct mountains in the district" />
		<tag k="name" v="Sundbuliåsen" />
		<tag k="natural" v="hill" />
		<tag k="place" v="locality" />
		<tag k="ssr:stedsnr" v="370396" />
	</node>
	<node id="-196804" lat="60.2992666649" lon="8.46640832682">
		<tag k="alt_name" v="Flåtåfjell" />
		<tag k="fixme" v="consider natural=peak for the most distinct mountains in the district" />
		<tag k="name" v="Flåtåfjellet" />
		<tag k="natural" v="hill" />
		<tag k="place" v="locality" />
		<tag k="ssr:stedsnr" v="916017" />
	</node>
	<node id="-194755" lat="60.3305584886" lon="8.21210772231">
		<tag k="fixme" v="consider natural=peak for the most distinct mountains in the district" />
		<tag k="name" v="Ræpeholåsen" />
		<tag k="natural" v="hill" />
		<tag k="place" v="locality" />
		<tag k="ssr:stedsnr" v="370291" />
	</node>
	<node id="-196802" lat="60.359977774" lon="7.6905666653">
		<tag k="name" v="Skaupsjøtunga" />
		<tag k="natural" v="ridge" />
		<tag k="place" v="locality" />
		<tag k="ssr:stedsnr" v="915929" />
	</node>
	<node id="-196797" lat="60.2070444404" lon="8.47026667476">
		<tag k="name" v="Solhøgde" />
		<tag k="natural" v="hill" />
		<tag k="place" v="locality" />
		<tag k="ssr:stedsnr" v="915872" />
	</node>
	<node id="-194746" lat="60.4057277755" lon="8.59840555939">
		<tag k="fixme" v="consider natural=peak for the most distinct mountains in the district" />
		<tag k="name" v="Bergsjøåsen" />
		<tag k="natural" v="hill" />
		<tag k="place" v="locality" />
		<tag k="ssr:stedsnr" v="370123" />
	</node>
	<node id="-194745" lat="60.4668916658" lon="8.68541389235">
		<tag k="fixme" v="consider natural=peak for the most distinct mountains in the district" />
		<tag k="name" v="Lianåsen" />
		<tag k="natural" v="hill" />
		<tag k="place" v="locality" />
		<tag k="ssr:stedsnr" v="370106" />
	</node>
	<node id="-196791" lat="60.157608335" lon="8.88749443804">
		<tag k="fixme" v="consider natural=peak for the most distinct mountains in the district" />
		<tag k="name" v="Rustin" />
		<tag k="natural" v="hill" />
		<tag k="place" v="locality" />
		<tag k="ssr:stedsnr" v="915597" />
	</node>
	<node id="-194740" lat="60.2760333318" lon="8.39817499489">
		<tag k="fixme" v="consider natural=peak for the most distinct mountains in the district" />
		<tag k="loc_name" v="Skjennuten" />
		<tag k="name" v="Skinnuten" />
		<tag k="natural" v="hill" />
		<tag k="place" v="locality" />
		<tag k="ssr:stedsnr" v="370071" />
	</node>
	<node id="-194739" lat="60.252688888" lon="8.11478888277">
		<tag k="fixme" v="consider natural=peak for the most distinct mountains in the district" />
		<tag k="name" v="Skrykkjevarden" />
		<tag k="natural" v="hill" />
		<tag k="place" v="locality" />
		<tag k="ssr:stedsnr" v="370070" />
	</node>
	<node id="-194737" lat="60.249836107" lon="8.34601388628">
		<tag k="name" v="Tyrhovdnuten" />
		<tag k="natural" v="hill" />
		<tag k="place" v="locality" />
		<tag k="ssr:stedsnr" v="370052" />
	</node>
	<node id="-196784" lat="60.1198166705" lon="7.84470278464">
		<tag k="name" v="Flådalen" />
		<tag k="natural" v="valley" />
		<tag k="place" v="locality" />
		<tag k="ssr:stedsnr" v="915542" />
	</node>
	<node id="-194732" lat="60.2882638859" lon="8.27280834223">
		<tag k="name" v="Hestehallene" />
		<tag k="natural" v="valley" />
		<tag k="place" v="locality" />
		<tag k="ssr:stedsnr" v="370019" />
	</node>
	<node id="-194730" lat="60.2915083292" lon="8.38558888944">
		<tag k="fixme" v="consider natural=peak for the most distinct mountains in the district" />
		<tag k="loc_name" v="Snofonnskardkultan" />
		<tag k="name" v="Snøfonnskardnutan" />
		<tag k="natural" v="hill" />
		<tag k="place" v="locality" />
		<tag k="ssr:stedsnr" v="370010" />
	</node>
	<node id="-196777" lat="60.2475166655" lon="7.70472223125">
		<tag k="fixme" v="consider natural=peak for the most distinct mountains in the district" />
		<tag k="name" v="Sunnaveggen" />
		<tag k="natural" v="hill" />
		<tag k="place" v="locality" />
		<tag k="ssr:stedsnr" v="915256" />
	</node>
	<node id="-194728" lat="60.2838111155" lon="8.41264445035">
		<tag k="fixme" v="consider natural=peak for the most distinct mountains in the district" />
		<tag k="loc_name" v="Salhøvde" />
		<tag k="name" v="Salhovde" />
		<tag k="natural" v="hill" />
		<tag k="old_name" v="Salberget" />
		<tag k="place" v="locality" />
		<tag k="ssr:stedsnr" v="370001" />
	</node>
	<node id="-194727" lat="60.197855554" lon="8.74339722053">
		<tag k="fixme" v="consider natural=peak for the most distinct mountains in the district" />
		<tag k="name" v="Gråvårrandan" />
		<tag k="natural" v="hill" />
		<tag k="old_name" v="Gråvårranden" />
		<tag k="place" v="locality" />
		<tag k="ssr:stedsnr" v="369867" />
	</node>
	<node id="-196774" lat="60.2141749993" lon="8.0383833283">
		<tag k="name" v="Grøntjønndalen" />
		<tag k="natural" v="valley" />
		<tag k="place" v="locality" />
		<tag k="ssr:stedsnr" v="914690" />
	</node>
	<node id="-194725" lat="60.2116944428" lon="8.51414999267">
		<tag k="fixme" v="consider natural=peak for the most distinct mountains in the district" />
		<tag k="name" v="Johovda" />
		<tag k="natural" v="hill" />
		<tag k="place" v="locality" />
		<tag k="ssr:stedsnr" v="369833" />
	</node>
	<node id="-194723" lat="60.3323250015" lon="8.05952222996">
		<tag k="name" v="Lågliberget" />
		<tag k="natural" v="hill" />
		<tag k="place" v="locality" />
		<tag k="ssr:stedsnr" v="369783" />
	</node>
	<node id="-194721" lat="60.2774999963" lon="7.97789721548">
		<tag k="fixme" v="consider natural=peak for the most distinct mountains in the district" />
		<tag k="name" v="Dagfiskenutan" />
		<tag k="natural" v="hill" />
		<tag k="place" v="locality" />
		<tag k="ssr:stedsnr" v="369764" />
	</node>
	<node id="-194720" lat="60.2566000025" lon="7.91412221997">
		<tag k="fixme" v="consider natural=peak for the most distinct mountains in the district" />
		<tag k="name" v="Reinavasshovda" />
		<tag k="natural" v="hill" />
		<tag k="place" v="locality" />
		<tag k="ssr:stedsnr" v="369749" />
	</node>
	<node id="-196767" lat="60.1777805543" lon="8.87253610278">
		<tag k="fixme" v="consider natural=peak for the most distinct mountains in the district" />
		<tag k="name" v="Langegrøun" />
		<tag k="natural" v="hill" />
		<tag k="place" v="locality" />
		<tag k="ssr:stedsnr" v="914593" />
	</node>
	<node id="-194718" lat="60.1981138875" lon="9.15239999231">
		<tag k="name" v="Vergjelibrotet" />
		<tag k="natural" v="slope" />
		<tag k="place" v="locality" />
		<tag k="ssr:stedsnr" v="369530" />
	</node>
	<node id="-196765" lat="60.1145111126" lon="9.08460832893">
		<tag k="fixme" v="consider natural=peak for the most distinct mountains in the district" />
		<tag k="loc_name" v="Døbbeltnattin" />
		<tag k="name" v="Dobbeltnatten" />
		<tag k="natural" v="hill" />
		<tag k="place" v="locality" />
		<tag k="ssr:stedsnr" v="914567" />
	</node>
	<node id="-194715" lat="60.3693861067" lon="8.33027500036">
		<tag k="name" v="Sessebråten" />
		<tag k="natural" v="hill" />
		<tag k="place" v="locality" />
		<tag k="ssr:stedsnr" v="369180" />
	</node>
	<node id="-196762" lat="60.2940722183" lon="9.11738055068">
		<tag k="loc_name" v="Slokulie" />
		<tag k="name" v="Slokolia" />
		<tag k="natural" v="slope" />
		<tag k="place" v="locality" />
		<tag k="ssr:stedsnr" v="909871" />
	</node>
	<node id="-194710" lat="60.2201444412" lon="8.12259443897">
		<tag k="fixme" v="consider natural=peak for the most distinct mountains in the district" />
		<tag k="name" v="Skjorteknappen" />
		<tag k="natural" v="hill" />
		<tag k="place" v="locality" />
		<tag k="ssr:stedsnr" v="368946" />
	</node>
	<node id="-194706" lat="60.2343499964" lon="7.88542500035">
		<tag k="fixme" v="consider natural=peak for the most distinct mountains in the district" />
		<tag k="name" v="Tjuvhyttnutan" />
		<tag k="natural" v="hill" />
		<tag k="place" v="locality" />
		<tag k="ssr:stedsnr" v="368701" />
	</node>
	<node id="-194703" lat="60.1559694472" lon="9.07857221539">
		<tag k="alt_name" v="Vedhusdalen" />
		<tag k="name" v="Vehusdalen" />
		<tag k="natural" v="valley" />
		<tag k="place" v="locality" />
		<tag k="ssr:stedsnr" v="368654" />
	</node>
	<node id="-194700" lat="60.160038887" lon="9.12437777855">
		<tag k="alt_name" v="Verjebrotet" />
		<tag k="fixme" v="consider natural=peak for the most distinct mountains in the district" />
		<tag k="name" v="Vergjebrotet" />
		<tag k="natural" v="hill" />
		<tag k="place" v="locality" />
		<tag k="ssr:stedsnr" v="368641" />
	</node>
	<node id="-194698" lat="60.2008361074" lon="7.73184999155">
		<tag k="fixme" v="consider natural=peak for the most distinct mountains in the district" />
		<tag k="name" v="Torjusnuten" />
		<tag k="natural" v="hill" />
		<tag k="place" v="locality" />
		<tag k="ssr:stedsnr" v="368627" />
	</node>
	<node id="-196745" lat="60.4044222221" lon="8.89276666665">
		<tag k="alt_name" v="Rauberg" />
		<tag k="name" v="Raudberg" />
		<tag k="natural" v="hill" />
		<tag k="place" v="locality" />
		<tag k="ssr:stedsnr" v="906361" />
	</node>
	<node id="-194695" lat="60.1736083338" lon="7.84802500585">
		<tag k="fixme" v="consider natural=peak for the most distinct mountains in the district" />
		<tag k="name" v="Skjerhølnuten" />
		<tag k="natural" v="hill" />
		<tag k="place" v="locality" />
		<tag k="ssr:stedsnr" v="368609" />
	</node>
	<node id="-194694" lat="60.1650638845" lon="7.90184721766">
		<tag k="fixme" v="consider natural=peak for the most distinct mountains in the district" />
		<tag k="name" v="Austre Steintjønnuten" />
		<tag k="natural" v="hill" />
		<tag k="place" v="locality" />
		<tag k="ssr:stedsnr" v="368607" />
	</node>
	<node id="-194691" lat="60.1147277806" lon="9.11528333566">
		<tag k="fixme" v="consider natural=peak for the most distinct mountains in the district" />
		<tag k="name" v="Piggtjønnåsen" />
		<tag k="natural" v="hill" />
		<tag k="place" v="locality" />
		<tag k="ssr:stedsnr" v="368578" />
	</node>
	<node id="-196732" lat="60.3501972222" lon="8.46530555056">
		<tag k="fixme" v="consider natural=peak for the most distinct mountains in the district" />
		<tag k="name" v="Sigridfjell" />
		<tag k="natural" v="hill" />
		<tag k="place" v="locality" />
		<tag k="ssr:stedsnr" v="870024" />
	</node>
	<node id="-194679" lat="60.3389611081" lon="8.47251945195">
		<tag k="fixme" v="consider natural=peak for the most distinct mountains in the district" />
		<tag k="name" v="Djupegrønut" />
		<tag k="natural" v="hill" />
		<tag k="place" v="locality" />
		<tag k="ssr:stedsnr" v="362222" />
	</node>
	<node id="-194673" lat="60.3143555573" lon="8.99520278426">
		<tag k="name" v="Hølet" />
		<tag k="place" v="locality" />
		<tag k="ssr:stedsnr" v="362053" />
	</node>
	<node id="-196719" lat="60.3174472209" lon="8.69619445105">
		<tag k="alt_name" v="Rausjødalsberget" />
		<tag k="fixme" v="consider natural=peak for the most distinct mountains in the district" />
		<tag k="name" v="Raudsjødalsberget" />
		<tag k="natural" v="hill" />
		<tag k="place" v="locality" />
		<tag k="ssr:stedsnr" v="856498" />
	</node>
	<node id="-196718" lat="60.3228999982" lon="8.63326388719">
		<tag k="fixme" v="consider natural=peak for the most distinct mountains in the district" />
		<tag k="name" v="Fjellbunuten" />
		<tag k="natural" v="hill" />
		<tag k="place" v="locality" />
		<tag k="ssr:stedsnr" v="856497" />
	</node>
	<node id="-196714" lat="60.3579555562" lon="8.80463611027">
		<tag k="alt_name" v="Fauskofjell" />
		<tag k="fixme" v="consider natural=peak for the most distinct mountains in the district" />
		<tag k="name" v="Fauskofjellet" />
		<tag k="natural" v="hill" />
		<tag k="place" v="locality" />
		<tag k="ssr:stedsnr" v="856462" />
	</node>
	<node id="-194665" lat="60.197800002" lon="9.00977500263">
		<tag k="name" v="Rundberg" />
		<tag k="place" v="locality" />
		<tag k="ssr:stedsnr" v="360302" />
	</node>
	<node id="-196708" lat="60.350208331" lon="8.86459999863">
		<tag k="name" v="Blåurde" />
		<tag k="natural" v="slope" />
		<tag k="place" v="locality" />
		<tag k="ssr:stedsnr" v="856416" />
	</node>
	<node id="-196706" lat="60.4118999989" lon="8.94945832757">
		<tag k="fixme" v="consider natural=peak for the most distinct mountains in the district" />
		<tag k="name" v="Butjønnatten" />
		<tag k="natural" v="hill" />
		<tag k="place" v="locality" />
		<tag k="ssr:stedsnr" v="856399" />
	</node>
	<node id="-196690" lat="60.3511333374" lon="8.43450276865">
		<tag k="name" v="Brendekult" />
		<tag k="natural" v="hill" />
		<tag k="place" v="locality" />
		<tag k="ssr:stedsnr" v="856246" />
	</node>
	<node id="-196688" lat="60.3592222231" lon="8.36688055639">
		<tag k="fixme" v="consider natural=peak for the most distinct mountains in the district" />
		<tag k="loc_name" v="Skirvenuten" />
		<tag k="name" v="Skrivenuten" />
		<tag k="natural" v="hill" />
		<tag k="place" v="locality" />
		<tag k="ssr:stedsnr" v="856206" />
	</node>
	<node id="-196687" lat="60.4405388857" lon="8.74487778002">
		<tag k="name" v="Tunhovdmoen" />
		<tag k="place" v="locality" />
		<tag k="ssr:stedsnr" v="856110" />
	</node>
	<node id="-194638" lat="60.3260555554" lon="8.38684165845">
		<tag k="fixme" v="consider natural=peak for the most distinct mountains in the district" />
		<tag k="name" v="Falkeberget" />
		<tag k="natural" v="hill" />
		<tag k="place" v="locality" />
		<tag k="ssr:stedsnr" v="323024" />
	</node>
	<node id="-196684" lat="60.4637250001" lon="8.77559722965">
		<tag k="alt_name" v="Sønstegardnatten" />
		<tag k="name" v="Synstegardnatten" />
		<tag k="natural" v="hill" />
		<tag k="place" v="locality" />
		<tag k="ssr:stedsnr" v="856070" />
	</node>
	<node id="-196680" lat="60.2917777734" lon="8.42736945073">
		<tag k="loc_name" v="Rondkult" />
		<tag k="name" v="Rundkult" />
		<tag k="natural" v="hill" />
		<tag k="place" v="locality" />
		<tag k="ssr:stedsnr" v="856010" />
	</node>
	<node id="-196676" lat="60.4003194447" lon="7.69165000119">
		<tag k="fixme" v="consider natural=peak for the most distinct mountains in the district" />
		<tag k="name" v="Skuleviknuten" />
		<tag k="natural" v="hill" />
		<tag k="ssr:stedsnr" v="855919" />
	</node>
	<node id="-196675" lat="60.208691669" lon="8.74473610552">
		<tag k="fixme" v="consider natural=peak for the most distinct mountains in the district" />
		<tag k="name" v="Berghovda" />
		<tag k="natural" v="hill" />
		<tag k="place" v="locality" />
		<tag k="ssr:stedsnr" v="855883" />
	</node>
	<node id="-194626" lat="60.2945111152" lon="8.15830555396">
		<tag k="fixme" v="consider natural=peak for the most distinct mountains in the district" />
		<tag k="name" v="Ulvelinuten" />
		<tag k="natural" v="hill" />
		<tag k="place" v="locality" />
		<tag k="ssr:stedsnr" v="310012" />
	</node>
	<node id="-194623" lat="60.3794749991" lon="7.97262499873">
		<tag k="fixme" v="consider natural=peak for the most distinct mountains in the district" />
		<tag k="name" v="Grasnuten" />
		<tag k="natural" v="hill" />
		<tag k="place" v="locality" />
		<tag k="ssr:stedsnr" v="309791" />
	</node>
	<node id="-194622" lat="60.3711500037" lon="7.9075999916">
		<tag k="fixme" v="consider natural=peak for the most distinct mountains in the district" />
		<tag k="name" v="Heinbunuten" />
		<tag k="natural" v="hill" />
		<tag k="place" v="locality" />
		<tag k="ssr:stedsnr" v="309782" />
	</node>
	<node id="-194621" lat="60.2717972233" lon="7.83357500588">
		<tag k="fixme" v="consider natural=peak for the most distinct mountains in the district" />
		<tag k="name" v="Raudhellerskoran" />
		<tag k="natural" v="hill" />
		<tag k="place" v="locality" />
		<tag k="ssr:stedsnr" v="309768" />
	</node>
	<node id="-194620" lat="60.3172500036" lon="7.75567500463">
		<tag k="fixme" v="consider natural=peak for the most distinct mountains in the district" />
		<tag k="name" v="Kolvenuten" />
		<tag k="natural" v="hill" />
		<tag k="place" v="locality" />
		<tag k="ssr:stedsnr" v="309754" />
	</node>
	<node id="-194615" lat="60.3170055559" lon="9.04014999552">
		<tag k="name" v="Endreskard" />
		<tag k="natural" v="valley" />
		<tag k="place" v="locality" />
		<tag k="ssr:stedsnr" v="309472" />
	</node>
	<node id="-196662" lat="60.3132249956" lon="7.93419722064">
		<tag k="fixme" v="consider natural=peak for the most distinct mountains in the district" />
		<tag k="name" v="Geitsjøhovda" />
		<tag k="natural" v="hill" />
		<tag k="place" v="locality" />
		<tag k="ssr:stedsnr" v="855788" />
	</node>
	<node id="-196661" lat="60.3172249983" lon="7.85422499462">
		<tag k="fixme" v="consider natural=peak for the most distinct mountains in the district" />
		<tag k="name" v="Skyttarbuhovda" />
		<tag k="natural" v="hill" />
		<tag k="place" v="locality" />
		<tag k="ssr:stedsnr" v="855786" />
	</node>
	<node id="-194607" lat="60.3284694443" lon="9.05227777405">
		<tag k="name" v="Bruhaugen" />
		<tag k="natural" v="hill" />
		<tag k="place" v="locality" />
		<tag k="ssr:stedsnr" v="309449" />
	</node>
	<node id="-196650" lat="60.3663972197" lon="8.95271944799">
		<tag k="alt_name" v="Langfjellet" />
		<tag k="fixme" v="consider natural=peak for the most distinct mountains in the district" />
		<tag k="name" v="Langåsen" />
		<tag k="natural" v="hill" />
		<tag k="place" v="locality" />
		<tag k="ssr:stedsnr" v="855354" />
	</node>
	<node id="-194600" lat="60.342625002" lon="8.99102500606">
		<tag k="alt_name" v="Bjørstølfjell" />
		<tag k="fixme" v="consider natural=peak for the most distinct mountains in the district" />
		<tag k="loc_name" v="Bjorstulfjellet" />
		<tag k="name" v="Bjørstølfjellet" />
		<tag k="natural" v="hill" />
		<tag k="place" v="locality" />
		<tag k="ssr:stedsnr" v="309432" />
	</node>
	<node id="-196643" lat="60.2121444425" lon="8.42585278117">
		<tag k="name" v="Imingdalen" />
		<tag k="natural" v="valley" />
		<tag k="place" v="locality" />
		<tag k="ssr:stedsnr" v="854946" />
	</node>
	<node id="-196641" lat="60.1392277763" lon="7.6874833346">
		<tag k="name" v="Elsjådalen" />
		<tag k="natural" v="valley" />
		<tag k="place" v="locality" />
		<tag k="ssr:stedsnr" v="854724" />
	</node>
	<node id="-194590" lat="60.2672750014" lon="8.8973833334">
		<tag k="alt_name" v="Hovdakollen" />
		<tag k="fixme" v="consider natural=peak for the most distinct mountains in the district" />
		<tag k="name" v="Hovdekollen" />
		<tag k="natural" v="hill" />
		<tag k="place" v="locality" />
		<tag k="ssr:stedsnr" v="309305" />
	</node>
	<node id="-196632" lat="60.1755499971" lon="9.18012223104">
		<tag k="alt_name" v="Kortefjellet" />
		<tag k="fixme" v="consider natural=peak for the most distinct mountains in the district" />
		<tag k="name" v="Kortefjell" />
		<tag k="natural" v="hill" />
		<tag k="place" v="locality" />
		<tag k="ssr:stedsnr" v="854559" />
	</node>
	<node id="-194583" lat="60.3087833344" lon="8.34018333413">
		<tag k="alt_name" v="Solheimstølberget" />
		<tag k="name" v="Solheimstulberget" />
		<tag k="natural" v="hill" />
		<tag k="place" v="locality" />
		<tag k="ssr:stedsnr" v="309267" />
	</node>
	<node id="-194577" lat="60.468383331" lon="8.75916111076">
		<tag k="name" v="Driftebergnuten" />
		<tag k="natural" v="hill" />
		<tag k="place" v="locality" />
		<tag k="ssr:stedsnr" v="309073" />
	</node>
	<node id="-196623" lat="60.1045666627" lon="9.08834166275">
		<tag k="fixme" v="consider natural=peak for the most distinct mountains in the district" />
		<tag k="name" v="Skagsåsen" />
		<tag k="natural" v="hill" />
		<tag k="place" v="locality" />
		<tag k="ssr:stedsnr" v="854517" />
	</node>
	<node id="-194574" lat="60.303166665" lon="8.24175278446">
		<tag k="name" v="Skarvshalli" />
		<tag k="natural" v="slope" />
		<tag k="place" v="locality" />
		<tag k="ssr:stedsnr" v="309025" />
	</node>
</osm>
