<?xml version="1.0" encoding="UTF-8"?>
<<<<<<< HEAD
<osm version="0.6" generator="osmapis">
	<node lat="67.65620833634702" lon="12.72531389664678" id="-10818">
=======
<osm generator="osmapis" version="0.6">
	<node id="-187255" lat="67.665403822" lon="12.6949577698">
		<tag k="alt_name" v="Sørland kirke" />
		<tag k="amenity" v="place_of_worship" />
		<tag k="denomination" v="lutheran" />
		<tag k="name" v="Værøy kirke" />
		<tag k="religion" v="christian" />
		<tag k="ssr:stedsnr" v="805378" />
	</node>
	<node id="-187046" lat="67.6562083363" lon="12.7253138966">
>>>>>>> e1d4bc35ff8a6074a6f2e91616a996b547c36f15
		<tag k="name" v="Kvitvarden" />
		<tag k="ssr:stedsnr" v="926384" />
		<tag k="tourism" v="viewpoint" />
	</node>
<<<<<<< HEAD
	<node lat="67.69292499951351" lon="12.709525004833266" id="-10933">
		<tag k="alt_name" v="Nordland kirke" />
		<tag k="amenity" v="place_of_worship" />
		<tag k="denomination" v="lutheran" />
		<tag k="name" v="Værøy" />
		<tag k="religion" v="christian" />
		<tag k="ssr:stedsnr" v="405710" />
	</node>
	<node lat="67.69280555522148" lon="12.71766388533053" id="-11019">
=======
	<node id="-187035" lat="67.6928055552" lon="12.7176638853">
>>>>>>> e1d4bc35ff8a6074a6f2e91616a996b547c36f15
		<tag k="cemetery" v="grave" />
		<tag k="name" v="Værøy kirkegård" />
		<tag k="place" v="locality" />
		<tag k="ssr:stedsnr" v="769690" />
	</node>
<<<<<<< HEAD
	<node lat="67.66540382196473" lon="12.694957769788047" id="-11029">
		<tag k="alt_name" v="Sørland kirke" />
=======
	<node id="-186962" lat="67.6929249995" lon="12.7095250048">
>>>>>>> e1d4bc35ff8a6074a6f2e91616a996b547c36f15
		<tag k="amenity" v="place_of_worship" />
		<tag k="denomination" v="lutheran" />
		<tag k="name" v="Værøy kirke" />
		<tag k="religion" v="christian" />
		<tag k="ssr:stedsnr" v="805378" />
	</node>
</osm>
