<?xml version="1.0" encoding="UTF-8"?>
<<<<<<< HEAD
<osm version="0.6" generator="osmapis">
	<node lat="67.6933388849761" lon="12.703225004831104" id="-10657">
		<tag k="fixme" v="consider place=hamlet" />
		<tag k="name" v="Nordland" />
		<tag k="place" v="village" />
		<tag k="ssr:stedsnr" v="76370" />
	</node>
	<node lat="67.6917777750968" lon="12.690527766819688" id="-10669">
		<tag k="name" v="Grindgården" />
		<tag k="place" v="farm" />
		<tag k="ssr:stedsnr" v="258361" />
	</node>
	<node lat="67.6585472236053" lon="12.714855562350927" id="-10713">
		<tag k="name" v="Venes" />
		<tag k="place" v="quarter" />
		<tag k="ssr:stedsnr" v="465634" />
	</node>
	<node lat="67.65464444554571" lon="12.704213891385322" id="-10776">
		<tag k="name" v="Tynes" />
		<tag k="place" v="quarter" />
		<tag k="ssr:stedsnr" v="708646" />
	</node>
	<node lat="67.66608611326284" lon="12.688919448250088" id="-10777">
=======
<osm generator="osmapis" version="0.6">
	<node id="-186995" lat="67.6660861133" lon="12.6889194483">
>>>>>>> e1d4bc35ff8a6074a6f2e91616a996b547c36f15
		<tag k="amenity" v="school" />
		<tag k="name" v="Værøy skole" />
		<tag k="ssr:stedsnr" v="708659" />
	</node>
<<<<<<< HEAD
	<node lat="67.64332999541313" lon="12.593102178391131" id="-10786">
		<tag k="fixme" v="consider place=hamlet" />
		<tag k="name" v="Måstad" />
		<tag k="place" v="farm" />
		<tag k="ssr:stedsnr" v="683366" />
	</node>
	<node lat="67.67654722575466" lon="12.698113883475033" id="-10792">
=======
	<node id="-186994" lat="67.6546444455" lon="12.7042138914">
		<tag k="name" v="Tynes" />
		<tag k="place" v="quarter" />
		<tag k="ssr:stedsnr" v="708646" />
	</node>
	<node id="-186991" lat="67.6765472258" lon="12.6981138835">
>>>>>>> e1d4bc35ff8a6074a6f2e91616a996b547c36f15
		<tag k="name" v="Leite" />
		<tag k="place" v="farm" />
		<tag k="ssr:stedsnr" v="706676" />
	</node>
<<<<<<< HEAD
	<node lat="67.67847947769661" lon="12.697074810281299" id="-10797">
		<tag k="fixme" v="consider place=hamlet" />
		<tag k="name" v="Breivika" />
		<tag k="place" v="farm" />
		<tag k="ssr:stedsnr" v="714625" />
	</node>
	<node lat="67.65990000377397" lon="12.693252774507943" id="-10860">
=======
	<node id="-186989" lat="67.663349996" lon="12.6858361015">
		<tag k="name" v="Stølen" />
		<tag k="place" v="farm" />
		<tag k="ssr:stedsnr" v="561380" />
	</node>
	<node id="-187242" lat="67.6648944408" lon="12.7092083331">
		<tag k="amenity" v="nursing_home" />
		<tag k="name" v="Værøy helseheim" />
		<tag k="ssr:stedsnr" v="769635" />
	</node>
	<node id="-187102" lat="67.6599000038" lon="12.6932527745">
>>>>>>> e1d4bc35ff8a6074a6f2e91616a996b547c36f15
		<tag k="name" v="Grindvika" />
		<tag k="place" v="quarter" />
		<tag k="ssr:stedsnr" v="101659" />
	</node>
<<<<<<< HEAD
	<node lat="67.66435277565868" lon="12.708436112595097" id="-10884">
		<tag k="name" v="Vågstranda" />
=======
	<node id="-186966" lat="67.6600027786" lon="12.7176333326">
		<tag k="name" v="Torvvågan" />
>>>>>>> e1d4bc35ff8a6074a6f2e91616a996b547c36f15
		<tag k="place" v="quarter" />
		<tag k="ssr:stedsnr" v="162673" />
	</node>
<<<<<<< HEAD
	<node lat="67.66563610941886" lon="12.697838888512281" id="-10885">
		<tag k="name" v="Sørland" />
=======
	<node id="-187091" lat="67.693338885" lon="12.7032250048">
		<tag k="fixme" v="consider place=hamlet" />
		<tag k="name" v="Nordland" />
>>>>>>> e1d4bc35ff8a6074a6f2e91616a996b547c36f15
		<tag k="place" v="village" />
		<tag k="ssr:stedsnr" v="198332" />
	</node>
<<<<<<< HEAD
	<node lat="67.66625555813475" lon="12.70136110618545" id="-10913">
		<tag k="name" v="Sponga" />
		<tag k="place" v="farm" />
		<tag k="ssr:stedsnr" v="344670" />
	</node>
	<node lat="67.66000277859158" lon="12.71763333258352" id="-10929">
		<tag k="name" v="Torvvågan" />
=======
	<node id="-186941" lat="67.6585472236" lon="12.7148555624">
		<tag k="name" v="Venes" />
>>>>>>> e1d4bc35ff8a6074a6f2e91616a996b547c36f15
		<tag k="place" v="quarter" />
		<tag k="ssr:stedsnr" v="405666" />
	</node>
<<<<<<< HEAD
	<node lat="67.66334999596621" lon="12.685836101533392" id="-10963">
		<tag k="name" v="Stølen" />
		<tag k="place" v="farm" />
		<tag k="ssr:stedsnr" v="561380" />
	</node>
	<node lat="67.66489444082312" lon="12.70920833306046" id="-11017">
		<tag k="amenity" v="nursing_home" />
		<tag k="name" v="Værøy helseheim" />
		<tag k="ssr:stedsnr" v="769635" />
	</node>
	<node lat="67.65501666430939" lon="12.721544455849834" id="-11032">
		<tag k="fixme" v="consider place=suburb, village or hamlet" />
		<tag k="name" v="Røssnesvågen" />
		<tag k="place" v="quarter" />
		<tag k="ssr:stedsnr" v="805408" />
	</node>
	<node lat="67.66142222036132" lon="12.683927780337646" id="-11065">
=======
	<node id="-187064" lat="67.6637861095" lon="12.6899944368">
		<tag k="leisure" v="pitch" />
		<tag k="name" v="Værøy idrettsplass" />
		<tag k="ssr:stedsnr" v="951675" />
	</node>
	<node id="-187063" lat="67.6614222204" lon="12.6839277803">
>>>>>>> e1d4bc35ff8a6074a6f2e91616a996b547c36f15
		<tag k="name" v="Ramvoll" />
		<tag k="place" v="farm" />
		<tag k="ssr:stedsnr" v="951672" />
	</node>
<<<<<<< HEAD
	<node lat="67.66378610947699" lon="12.68999443676371" id="-11066">
		<tag k="leisure" v="pitch" />
		<tag k="name" v="Værøy idrettsplass" />
		<tag k="ssr:stedsnr" v="951675" />
	</node>
	<node lat="67.67408055409965" lon="12.694483333847701" id="-11069">
=======
	<node id="-186934" lat="67.6917777751" lon="12.6905277668">
		<tag k="name" v="Grindgården" />
		<tag k="place" v="farm" />
		<tag k="ssr:stedsnr" v="258361" />
	</node>
	<node id="-187058" lat="67.6740805541" lon="12.6944833338">
>>>>>>> e1d4bc35ff8a6074a6f2e91616a996b547c36f15
		<tag k="name" v="Skarsvollen" />
		<tag k="place" v="farm" />
		<tag k="ssr:stedsnr" v="949655" />
	</node>
<<<<<<< HEAD
	<node lat="67.66946731516025" lon="12.684744108657757" id="-11079">
		<tag k="fixme" v="consider place=hamlet" />
		<tag k="name" v="Sørland" />
		<tag k="place" v="farm" />
		<tag k="ssr:stedsnr" v="1075882" />
	</node>
	<node lat="67.69272201378074" lon="12.71302221734972" id="-11080">
		<tag k="name" v="Værøy prestegård" />
		<tag k="place" v="locality" />
		<tag k="ssr:stedsnr" v="1075885" />
	</node>
	<node lat="67.69264012202474" lon="12.70037275955211" id="-11081">
		<tag k="fixme" v="consider place=hamlet" />
		<tag k="name" v="Nordland" />
		<tag k="place" v="farm" />
		<tag k="ssr:stedsnr" v="1075886" />
=======
	<node id="-187052" lat="67.6550166643" lon="12.7215444558">
		<tag k="fixme" v="consider place=suburb, village or hamlet" />
		<tag k="name" v="Røssnesvågen" />
		<tag k="place" v="quarter" />
		<tag k="ssr:stedsnr" v="805408" />
>>>>>>> e1d4bc35ff8a6074a6f2e91616a996b547c36f15
	</node>
	<node id="-186916" lat="67.6656361094" lon="12.6978388885">
		<tag k="name" v="Sørland" />
		<tag k="place" v="village" />
		<tag k="ssr:stedsnr" v="198332" />
	</node>
	<node id="-187294" lat="67.692640122" lon="12.7003727596">
		<tag k="fixme" v="consider place=hamlet" />
		<tag k="name" v="Nordland" />
		<tag k="place" v="farm" />
		<tag k="ssr:stedsnr" v="1075886" />
	</node>
	<node id="-187293" lat="67.6927220138" lon="12.7130222173">
		<tag k="name" v="Værøy prestegård" />
		<tag k="place" v="locality" />
		<tag k="ssr:stedsnr" v="1075885" />
	</node>
	<node id="-187292" lat="67.6694673152" lon="12.6847441087">
		<tag k="fixme" v="consider place=hamlet" />
		<tag k="name" v="Sørland" />
		<tag k="place" v="farm" />
		<tag k="ssr:stedsnr" v="1075882" />
	</node>
	<node id="-187155" lat="67.6662555581" lon="12.7013611062">
		<tag k="name" v="Sponga" />
		<tag k="place" v="farm" />
		<tag k="ssr:stedsnr" v="344670" />
	</node>
	<node id="-186898" lat="67.6643527757" lon="12.7084361126">
		<tag k="name" v="Vågstranda" />
		<tag k="place" v="quarter" />
		<tag k="ssr:stedsnr" v="162673" />
	</node>
	<node id="-187023" lat="67.6784794777" lon="12.6970748103">
		<tag k="fixme" v="consider place=hamlet" />
		<tag k="name" v="Breivika" />
		<tag k="place" v="farm" />
		<tag k="ssr:stedsnr" v="714625" />
	</node>
	<node id="-187009" lat="67.6433299954" lon="12.5931021784">
		<tag k="fixme" v="consider place=hamlet" />
		<tag k="name" v="Måstad" />
		<tag k="place" v="farm" />
		<tag k="ssr:stedsnr" v="683366" />
	</node>
</osm>
