<?xml version="1.0" encoding="UTF-8"?>
<<<<<<< HEAD
<osm version="0.6" generator="osmapis">
	<node lat="67.67182500286853" lon="12.693849990750667" id="-10664">
		<tag k="name" v="Skardsurda" />
		<tag k="natural" v="scree" />
		<tag k="ssr:stedsnr" v="137347" />
	</node>
	<node lat="67.69137499640831" lon="12.7083305530809" id="-10675">
=======
<osm generator="osmapis" version="0.6">
	<node id="-186896" lat="67.6913749964" lon="12.7083305531">
>>>>>>> e1d4bc35ff8a6074a6f2e91616a996b547c36f15
		<tag k="name" v="Kildmyra" />
		<tag k="natural" v="wetland" />
		<tag k="ssr:stedsnr" v="162711" />
	</node>
<<<<<<< HEAD
	<node lat="67.69058333065544" lon="12.675930549364434" id="-10714">
=======
	<node id="-186942" lat="67.6905833307" lon="12.6759305494">
>>>>>>> e1d4bc35ff8a6074a6f2e91616a996b547c36f15
		<tag k="name" v="Kvilsteinan" />
		<tag k="natural" v="stone" />
		<tag k="ssr:stedsnr" v="465644" />
	</node>
<<<<<<< HEAD
	<node lat="67.64941388672332" lon="12.574405547122273" id="-10737">
		<tag k="alt_name" v="Lundurda" />
		<tag k="name" v="Lundura" />
		<tag k="natural" v="scree" />
		<tag k="ssr:stedsnr" v="441397" />
	</node>
	<node lat="67.68233889165616" lon="12.646852783535998" id="-10882">
=======
	<node id="-187127" lat="67.6823388917" lon="12.6468527835">
>>>>>>> e1d4bc35ff8a6074a6f2e91616a996b547c36f15
		<tag k="name" v="Storura" />
		<tag k="natural" v="scree" />
		<tag k="ssr:stedsnr" v="162748" />
	</node>
<<<<<<< HEAD
	<node lat="67.66386666322538" lon="12.704494445828033" id="-10883">
		<tag k="name" v="Leiran" />
		<tag k="place" v="locality" />
		<tag k="ssr:stedsnr" v="162672" />
	</node>
	<node lat="67.67610277732884" lon="12.63208610190787" id="-10915">
=======
	<node id="-187158" lat="67.6761027773" lon="12.6320861019">
>>>>>>> e1d4bc35ff8a6074a6f2e91616a996b547c36f15
		<tag k="name" v="Høystøsteinan" />
		<tag k="natural" v="scree" />
		<tag k="ssr:stedsnr" v="344755" />
	</node>
<<<<<<< HEAD
	<node lat="67.67307778142568" lon="12.676172212296736" id="-10951">
		<tag k="name" v="Marka" />
=======
	<node id="-186897" lat="67.6638666632" lon="12.7044944458">
		<tag k="name" v="Leiran" />
>>>>>>> e1d4bc35ff8a6074a6f2e91616a996b547c36f15
		<tag k="place" v="locality" />
		<tag k="ssr:stedsnr" v="524639" />
	</node>
<<<<<<< HEAD
	<node lat="67.6528972265897" lon="12.579258324046858" id="-10956">
		<tag k="name" v="Nordlandsura" />
=======
	<node id="-186928" lat="67.6494138867" lon="12.5744055471">
		<tag k="alt_name" v="Lundurda" />
		<tag k="name" v="Lundura" />
>>>>>>> e1d4bc35ff8a6074a6f2e91616a996b547c36f15
		<tag k="natural" v="scree" />
		<tag k="ssr:stedsnr" v="526824" />
	</node>
<<<<<<< HEAD
	<node lat="67.67579999710567" lon="12.667641669935831" id="-11000">
		<tag k="name" v="Myran" />
		<tag k="natural" v="wetland" />
		<tag k="ssr:stedsnr" v="889666" />
=======
	<node id="-187180" lat="67.6730777814" lon="12.6761722123">
		<tag k="name" v="Marka" />
		<tag k="place" v="locality" />
		<tag k="ssr:stedsnr" v="524639" />
	</node>
	<node id="-187116" lat="67.6718250029" lon="12.6938499908">
		<tag k="name" v="Skardsurda" />
		<tag k="natural" v="scree" />
		<tag k="ssr:stedsnr" v="137347" />
>>>>>>> e1d4bc35ff8a6074a6f2e91616a996b547c36f15
	</node>
	<node id="-186982" lat="67.6528972266" lon="12.579258324">
		<tag k="name" v="Nordlandsura" />
		<tag k="natural" v="scree" />
		<tag k="ssr:stedsnr" v="526824" />
	</node>
	<node id="-187013" lat="67.6757999971" lon="12.6676416699">
		<tag k="name" v="Myran" />
		<tag k="natural" v="wetland" />
		<tag k="ssr:stedsnr" v="889666" />
	</node>
</osm>
