<?xml version="1.0" encoding="UTF-8"?>
<osm generator="osmapis" version="0.6">
	<node id="-19456" lat="67.6783805544" lon="12.7341472235">
		<tag k="alt_name" v="Hundholmen" />
		<tag k="name" v="Hundholman" />
		<tag k="place" v="islet" />
		<tag k="ssr:stedsnr" v="744344" />
	</node>
	<node id="-19453" lat="67.7316583325" lon="12.7441944426">
		<tag k="alt_name" v="Hikjelen" />
		<tag k="fixme" v="consider seamark:type=rock or natural=shoal" />
		<tag k="name" v="Hekkelen" />
		<tag k="place" v="islet" />
		<tag k="ssr:stedsnr" v="744302" />
	</node>
	<node id="-19452" lat="67.7143583356" lon="12.655627778">
		<tag k="name" v="Snøskitan" />
		<tag k="natural" v="shoal" />
		<tag k="place" v="locality" />
		<tag k="ssr:stedsnr" v="744295" />
	</node>
	<node id="-19451" lat="67.7175444418" lon="12.7063444536">
		<tag k="bay" v="fjord" />
		<tag k="name" v="Nordlandsflaget" />
		<tag k="natural" v="bay" />
		<tag k="ssr:stedsnr" v="744294" />
	</node>
	<node id="-19449" lat="67.7433333307" lon="12.7007805492">
		<tag k="name" v="Slåklakkleia" />
		<tag k="natural" v="strait" />
		<tag k="ssr:stedsnr" v="744286" />
	</node>
	<node id="-19448" lat="67.6026444432" lon="12.5862472312">
		<tag k="name" v="Sørfallet" />
		<tag k="natural" v="shoal" />
		<tag k="place" v="locality" />
		<tag k="ssr:stedsnr" v="744389" />
	</node>
	<node id="-19447" lat="67.651327775" lon="12.5638083401">
		<tag k="fixme" v="consider seamark:type=rock or natural=shoal" />
		<tag k="name" v="Nattmålsteinan" />
		<tag k="place" v="islet" />
		<tag k="ssr:stedsnr" v="654616" />
	</node>
	<node id="-19446" lat="67.6586083361" lon="12.5939333231">
		<tag k="name" v="Stranda" />
		<tag k="natural" v="beach" />
		<tag k="place" v="locality" />
		<tag k="ssr:stedsnr" v="647833" />
	</node>
	<node id="-19443" lat="67.6315888909" lon="12.5852861133">
		<tag k="name" v="Brunnesholmen" />
		<tag k="natural" v="cape" />
		<tag k="ssr:stedsnr" v="647789" />
	</node>
	<node id="-19441" lat="67.7472305578" lon="12.7658277812">
		<tag k="name" v="Hattbergmolla" />
		<tag k="natural" v="bay" />
		<tag k="ssr:stedsnr" v="647602" />
	</node>
	<node id="-19439" lat="67.6625944481" lon="12.6825388815">
		<tag k="name" v="Brønnsvika" />
		<tag k="natural" v="bay" />
		<tag k="ssr:stedsnr" v="645606" />
	</node>
	<node id="-19438" lat="67.678386113" lon="12.7082250069">
		<tag k="name" v="Nevan" />
		<tag k="natural" v="cape" />
		<tag k="ssr:stedsnr" v="645722" />
	</node>
	<node id="-19437" lat="67.7874749991" lon="12.7931805451">
		<tag k="name" v="Iflesa" />
		<tag k="place" v="islet" />
		<tag k="ssr:stedsnr" v="623095" />
	</node>
	<node id="-19436" lat="67.7811444477" lon="12.8250027868">
		<tag k="name" v="Svarvan" />
		<tag k="place" v="islet" />
		<tag k="ssr:stedsnr" v="623077" />
	</node>
	<node id="-19435" lat="67.6425555597" lon="12.7137833388">
		<tag k="fixme" v="consider seamark:type=rock or natural=shoal" />
		<tag k="name" v="Tindskjeret" />
		<tag k="place" v="islet" />
		<tag k="ssr:stedsnr" v="622400" />
	</node>
	<node id="-19432" lat="67.6728777775" lon="12.7353361021">
		<tag k="name" v="Drangen" />
		<tag k="place" v="islet" />
		<tag k="ssr:stedsnr" v="622372" />
	</node>
	<node id="-19431" lat="67.663597222" lon="12.738274991">
		<tag k="name" v="Erikflua" />
		<tag k="natural" v="shoal" />
		<tag k="place" v="locality" />
		<tag k="ssr:stedsnr" v="622368" />
	</node>
	<node id="-19430" lat="67.7028277751" lon="12.5823805444">
		<tag k="alt_name" v="Flesa" />
		<tag k="fixme" v="consider seamark:type=rock or natural=shoal" />
		<tag k="name" v="Ytreflesa" />
		<tag k="place" v="islet" />
		<tag k="ssr:stedsnr" v="622343" />
	</node>
	<node id="-19429" lat="67.6306833352" lon="12.7010583252">
		<tag k="alt_name" v="Bordbakkskjeret" />
		<tag k="fixme" v="consider seamark:type=rock or natural=shoal" />
		<tag k="name" v="Bårbakkskjeret" />
		<tag k="place" v="islet" />
		<tag k="ssr:stedsnr" v="622420" />
	</node>
	<node id="-19428" lat="67.6296027776" lon="12.5986472268">
		<tag k="name" v="Månesbåan" />
		<tag k="natural" v="shoal" />
		<tag k="place" v="locality" />
		<tag k="ssr:stedsnr" v="622416" />
	</node>
	<node id="-19427" lat="67.6037527759" lon="12.6076111063">
		<tag k="name" v="Gullfiskskallen" />
		<tag k="natural" v="shoal" />
		<tag k="place" v="locality" />
		<tag k="ssr:stedsnr" v="622413" />
	</node>
	<node id="-19426" lat="67.6092472239" lon="12.5756361094">
		<tag k="fixme" v="consider seamark:type=rock or natural=shoal" />
		<tag k="name" v="Kallen" />
		<tag k="place" v="islet" />
		<tag k="ssr:stedsnr" v="622405" />
	</node>
	<node id="-19423" lat="67.6918666688" lon="12.6841416787">
		<tag k="name" v="Bogen" />
		<tag k="natural" v="bay" />
		<tag k="ssr:stedsnr" v="586691" />
	</node>
	<node id="-19420" lat="67.7522805575" lon="12.7543583226">
		<tag k="name" v="Hanslistranden" />
		<tag k="natural" v="beach" />
		<tag k="place" v="locality" />
		<tag k="ssr:stedsnr" v="586676" />
	</node>
	<node id="-19419" lat="67.7496555578" lon="12.753450009">
		<tag k="name" v="Yttersanden" />
		<tag k="natural" v="beach" />
		<tag k="place" v="locality" />
		<tag k="ssr:stedsnr" v="586674" />
	</node>
	<node id="-19416" lat="67.7415083309" lon="12.748361104">
		<tag k="name" v="Sørsanden" />
		<tag k="natural" v="beach" />
		<tag k="place" v="locality" />
		<tag k="ssr:stedsnr" v="586596" />
	</node>
	<node id="-19413" lat="67.7430583303" lon="12.606366658">
		<tag k="name" v="Nordhandtaren" />
		<tag k="natural" v="shoal" />
		<tag k="place" v="locality" />
		<tag k="ssr:stedsnr" v="562327" />
	</node>
	<node id="-19412" lat="67.6458027799" lon="12.6543972275">
		<tag k="fixme" v="consider seamark:type=rock or natural=shoal" />
		<tag k="name" v="Delskjeran" />
		<tag k="place" v="islet" />
		<tag k="ssr:stedsnr" v="561399" />
	</node>
	<node id="-19411" lat="67.735588892" lon="12.6534638873">
		<tag k="name" v="Sørleia" />
		<tag k="natural" v="strait" />
		<tag k="ssr:stedsnr" v="561342" />
	</node>
	<node id="-19410" lat="67.6616277788" lon="12.5790694381">
		<tag k="name" v="Fløa" />
		<tag k="natural" v="shoal" />
		<tag k="place" v="locality" />
		<tag k="ssr:stedsnr" v="561389" />
	</node>
	<node id="-19409" lat="67.6121055562" lon="12.5584388852">
		<tag k="name" v="Veltan" />
		<tag k="natural" v="shoal" />
		<tag k="place" v="locality" />
		<tag k="ssr:stedsnr" v="533642" />
	</node>
	<node id="-19406" lat="67.7461416688" lon="12.74010278">
		<tag k="fixme" v="consider seamark:type=rock or natural=shoal" />
		<tag k="name" v="Steffenliskjeret" />
		<tag k="place" v="islet" />
		<tag k="ssr:stedsnr" v="526690" />
	</node>
	<node id="-19404" lat="67.6555111084" lon="12.6847916726">
		<tag k="name" v="Grindvika" />
		<tag k="natural" v="bay" />
		<tag k="ssr:stedsnr" v="526666" />
	</node>
	<node id="-19403" lat="67.6528861109" lon="12.7226861037">
		<tag k="name" v="Langodden" />
		<tag k="natural" v="cape" />
		<tag k="ssr:stedsnr" v="526653" />
	</node>
	<node id="-19401" lat="67.6678861135" lon="12.6721055446">
		<tag k="name" v="Austervågen" />
		<tag k="natural" v="bay" />
		<tag k="ssr:stedsnr" v="524690" />
	</node>
	<node id="-19399" lat="67.686213893" lon="12.7210416572">
		<tag k="fixme" v="consider seamark:type=rock or natural=shoal" />
		<tag k="name" v="Teisthammarskjeran" />
		<tag k="place" v="islet" />
		<tag k="ssr:stedsnr" v="524646" />
	</node>
	<node id="-19396" lat="67.6437861088" lon="12.5479916632">
		<tag k="name" v="Eldbåen" />
		<tag k="place" v="locality" />
		<tag k="seamark:type" v="rock" />
		<tag k="ssr:stedsnr" v="412572" />
	</node>
	<node id="-19395" lat="67.6487416656" lon="12.5642638991">
		<tag k="fixme" v="consider seamark:type=rock or natural=shoal" />
		<tag k="name" v="Sjøbakken" />
		<tag k="place" v="islet" />
		<tag k="ssr:stedsnr" v="412570" />
	</node>
	<node id="-19394" lat="67.6529888885" lon="12.7352444341">
		<tag k="name" v="Langflua" />
		<tag k="natural" v="shoal" />
		<tag k="place" v="locality" />
		<tag k="ssr:stedsnr" v="411628" />
	</node>
	<node id="-19393" lat="67.6374305525" lon="12.693941673">
		<tag k="name" v="Littjsundet" />
		<tag k="natural" v="strait" />
		<tag k="ssr:stedsnr" v="405835" />
	</node>
	<node id="-19391" lat="67.6632416635" lon="12.6996249941">
		<tag k="name" v="Langholmen" />
		<tag k="natural" v="cape" />
		<tag k="ssr:stedsnr" v="405686" />
	</node>
	<node id="-19389" lat="67.7847249995" lon="12.8052194387">
		<tag k="name" v="Høgholmen" />
		<tag k="place" v="islet" />
		<tag k="ssr:stedsnr" v="381082" />
	</node>
	<node id="-19388" lat="67.5941194477" lon="12.5124194438">
		<tag k="name" v="Møkkelgarden" />
		<tag k="natural" v="shoal" />
		<tag k="place" v="locality" />
		<tag k="ssr:stedsnr" v="380449" />
	</node>
	<node id="-19387" lat="67.6135361077" lon="12.642919448">
		<tag k="name" v="Eirgrunnen" />
		<tag k="natural" v="shoal" />
		<tag k="place" v="locality" />
		<tag k="ssr:stedsnr" v="380441" />
	</node>
	<node id="-19386" lat="67.6334138879" lon="12.58472501">
		<tag k="name" v="Stakk" />
		<tag k="natural" v="cape" />
		<tag k="ssr:stedsnr" v="380437" />
	</node>
	<node id="-19384" lat="67.648227779" lon="12.6782999892">
		<tag k="name" v="Rognan" />
		<tag k="place" v="islet" />
		<tag k="ssr:stedsnr" v="380409" />
	</node>
	<node id="-19383" lat="67.6575166694" lon="12.5854444346">
		<tag k="alt_name" v="Kalkluomnan" />
		<tag k="name" v="Kalkomnan" />
		<tag k="natural" v="cape" />
		<tag k="ssr:stedsnr" v="380391" />
	</node>
	<node id="-19381" lat="67.7457777759" lon="12.7554305443">
		<tag k="name" v="Mosken" />
		<tag k="place" v="island" />
		<tag k="ssr:stedsnr" v="380357" />
	</node>
	<node id="-19377" lat="67.7237583359" lon="12.5254722156">
		<tag k="name" v="Slettgjerdskallen" />
		<tag k="natural" v="shoal" />
		<tag k="place" v="locality" />
		<tag k="ssr:stedsnr" v="379340" />
	</node>
	<node id="-19374" lat="67.6807638909" lon="12.6328916778">
		<tag k="name" v="Høgholmen" />
		<tag k="natural" v="shoal" />
		<tag k="place" v="locality" />
		<tag k="ssr:stedsnr" v="344750" />
	</node>
	<node id="-19372" lat="67.658625004" lon="12.6835416773">
		<tag k="name" v="Bensvika" />
		<tag k="natural" v="bay" />
		<tag k="ssr:stedsnr" v="344668" />
	</node>
	<node id="-19371" lat="67.6665944439" lon="12.6823333283">
		<tag k="name" v="Sprengern" />
		<tag k="natural" v="cape" />
		<tag k="ssr:stedsnr" v="342670" />
	</node>
	<node id="-19370" lat="67.7402861141" lon="12.6874333394">
		<tag k="name" v="Breidsundet" />
		<tag k="natural" v="strait" />
		<tag k="ssr:stedsnr" v="320345" />
	</node>
	<node id="-19369" lat="67.6211749986" lon="12.6706638807">
		<tag k="alt_name" v="Moskenskallen" />
		<tag k="name" v="Moskeskallen" />
		<tag k="natural" v="shoal" />
		<tag k="place" v="locality" />
		<tag k="ssr:stedsnr" v="319417" />
	</node>
	<node id="-19368" lat="67.5996944425" lon="12.507574993">
		<tag k="name" v="Brandsgrunnen" />
		<tag k="natural" v="shoal" />
		<tag k="place" v="locality" />
		<tag k="ssr:stedsnr" v="319410" />
	</node>
	<node id="-19367" lat="67.6339888882" lon="12.5674611096">
		<tag k="fixme" v="consider seamark:type=rock or natural=shoal" />
		<tag k="name" v="Koppskjeret" />
		<tag k="place" v="islet" />
		<tag k="ssr:stedsnr" v="319395" />
	</node>
	<node id="-19366" lat="67.6383416657" lon="12.6950333384">
		<tag k="name" v="Kvalnesodden" />
		<tag k="natural" v="cape" />
		<tag k="ssr:stedsnr" v="319386" />
	</node>
	<node id="-19364" lat="67.6547916694" lon="12.7268166667">
		<tag k="name" v="Tabbisodden" />
		<tag k="natural" v="cape" />
		<tag k="ssr:stedsnr" v="319369" />
	</node>
	<node id="-19361" lat="67.665241667" lon="12.7418750059">
		<tag k="name" v="Hallbåen" />
		<tag k="natural" v="shoal" />
		<tag k="place" v="locality" />
		<tag k="ssr:stedsnr" v="319361" />
	</node>
	<node id="-19359" lat="67.7114944414" lon="12.6807111143">
		<tag k="name" v="Stabben" />
		<tag k="natural" v="shoal" />
		<tag k="place" v="locality" />
		<tag k="ssr:stedsnr" v="319343" />
	</node>
	<node id="-19358" lat="67.7282694421" lon="12.644133344">
		<tag k="fixme" v="consider seamark:type=rock or natural=shoal" />
		<tag k="name" v="Småskjeran" />
		<tag k="place" v="islet" />
		<tag k="ssr:stedsnr" v="319338" />
	</node>
	<node id="-19356" lat="67.5750500024" lon="12.4399861089">
		<tag k="name" v="Røsthavet" />
		<tag k="place" v="sea" />
		<tag k="ssr:stedsnr" v="198400" />
	</node>
	<node id="-19355" lat="67.6145194483" lon="12.6125333335">
		<tag k="name" v="Torbåan" />
		<tag k="natural" v="shoal" />
		<tag k="place" v="locality" />
		<tag k="ssr:stedsnr" v="198395" />
	</node>
	<node id="-19354" lat="67.6527305597" lon="12.6178083446">
		<tag k="alt_name" v="Måstadbukta" />
		<tag k="name" v="Måstadvika" />
		<tag k="natural" v="bay" />
		<tag k="ssr:stedsnr" v="198372" />
	</node>
	<node id="-19352" lat="67.6514222203" lon="12.6526055526">
		<tag k="name" v="Nupsneset" />
		<tag k="natural" v="cape" />
		<tag k="ssr:stedsnr" v="198366" />
	</node>
	<node id="-19349" lat="67.6625555534" lon="12.6139138833">
		<tag k="alt_name" v="Yttertussen" />
		<tag k="name" v="Ytretussen" />
		<tag k="natural" v="cape" />
		<tag k="ssr:stedsnr" v="198358" />
	</node>
	<node id="-19348" lat="67.7378555552" lon="12.7560944485">
		<tag k="fixme" v="consider seamark:type=rock or natural=shoal" />
		<tag k="name" v="Migskjeret" />
		<tag k="place" v="islet" />
		<tag k="ssr:stedsnr" v="162636" />
	</node>
	<node id="-19346" lat="67.7402194399" lon="12.7648638933">
		<tag k="name" v="Austlimolla" />
		<tag k="natural" v="bay" />
		<tag k="ssr:stedsnr" v="162628" />
	</node>
	<node id="-19342" lat="67.6317277794" lon="12.5958027721">
		<tag k="alt_name" v="Måneset" />
		<tag k="name" v="Månesodden" />
		<tag k="natural" v="cape" />
		<tag k="ssr:stedsnr" v="137417" />
	</node>
	<node id="-19341" lat="67.6303805525" lon="12.5879055665">
		<tag k="fixme" v="consider seamark:type=rock or natural=shoal" />
		<tag k="name" v="Rubbelskjeret" />
		<tag k="place" v="islet" />
		<tag k="ssr:stedsnr" v="137414" />
	</node>
	<node id="-19340" lat="67.6067555522" lon="12.5528111177">
		<tag k="name" v="Oddskallen" />
		<tag k="natural" v="shoal" />
		<tag k="place" v="locality" />
		<tag k="ssr:stedsnr" v="137404" />
	</node>
	<node id="-19339" lat="67.6368805534" lon="12.6859638769">
		<tag k="name" v="Oksen" />
		<tag k="natural" v="shoal" />
		<tag k="place" v="locality" />
		<tag k="ssr:stedsnr" v="137392" />
	</node>
	<node id="-19336" lat="67.6615111123" lon="12.6003583336">
		<tag k="alt_name" v="Eidbukta;Eidebukta" />
		<tag k="name" v="Eidvika" />
		<tag k="natural" v="bay" />
		<tag k="ssr:stedsnr" v="137369" />
	</node>
	<node id="-19335" lat="67.6720277796" lon="12.757875011">
		<tag k="name" v="Rolflua" />
		<tag k="natural" v="shoal" />
		<tag k="place" v="locality" />
		<tag k="ssr:stedsnr" v="137363" />
	</node>
	<node id="-19331" lat="67.7429361118" lon="12.7128583429">
		<tag k="alt_name" v="Kullskjeran" />
		<tag k="fixme" v="consider seamark:type=rock or natural=shoal" />
		<tag k="name" v="Kolskjeran" />
		<tag k="place" v="islet" />
		<tag k="ssr:stedsnr" v="137332" />
	</node>
	<node id="-19330" lat="67.7328222215" lon="12.7953499885">
		<tag k="name" v="Slåklakkskallen" />
		<tag k="natural" v="shoal" />
		<tag k="place" v="locality" />
		<tag k="ssr:stedsnr" v="137330" />
	</node>
	<node id="-19327" lat="67.740286115" lon="12.7802638806">
		<tag k="name" v="Austlibåan" />
		<tag k="natural" v="shoal" />
		<tag k="place" v="locality" />
		<tag k="ssr:stedsnr" v="108255" />
	</node>
	<node id="-19325" lat="67.6314194403" lon="12.582286102">
		<tag k="name" v="Småleian" />
		<tag k="natural" v="bay" />
		<tag k="ssr:stedsnr" v="101769" />
	</node>
	<node id="-19324" lat="67.6350611097" lon="12.7028222206">
		<tag k="name" v="Breisundet" />
		<tag k="natural" v="strait" />
		<tag k="ssr:stedsnr" v="101721" />
	</node>
	<node id="-19323" lat="67.6978000001" lon="12.7217388832">
		<tag k="fixme" v="consider seamark:type=rock or natural=shoal" />
		<tag k="name" v="Jokkomskjeret" />
		<tag k="place" v="islet" />
		<tag k="ssr:stedsnr" v="101709" />
	</node>
	<node id="-19321" lat="67.7443944401" lon="12.7396555603">
		<tag k="name" v="Oterhollan" />
		<tag k="natural" v="bay" />
		<tag k="ssr:stedsnr" v="101683" />
	</node>
	<node id="-19315" lat="67.6239999974" lon="12.6119333432">
		<tag k="name" v="Storfjellskallen" />
		<tag k="natural" v="shoal" />
		<tag k="place" v="locality" />
		<tag k="ssr:stedsnr" v="77444" />
	</node>
	<node id="-19314" lat="67.6726472206" lon="12.4178805583">
		<tag k="name" v="Brunskallan" />
		<tag k="natural" v="shoal" />
		<tag k="place" v="locality" />
		<tag k="ssr:stedsnr" v="76392" />
	</node>
	<node id="-19313" lat="67.6758638913" lon="12.7344361099">
		<tag k="name" v="Storholmen" />
		<tag k="place" v="islet" />
		<tag k="ssr:stedsnr" v="76389" />
	</node>
	<node id="-19310" lat="67.6963305528" lon="12.7264388899">
		<tag k="alt_name" v="Littj-Skarvskjeret" />
		<tag k="fixme" v="consider seamark:type=rock or natural=shoal" />
		<tag k="name" v="Litlskarvskjeret" />
		<tag k="place" v="islet" />
		<tag k="ssr:stedsnr" v="76374" />
	</node>
	<node id="-19307" lat="67.6476722195" lon="12.7525722277">
		<tag k="name" v="Grunnågskallen" />
		<tag k="natural" v="shoal" />
		<tag k="place" v="locality" />
		<tag k="ssr:stedsnr" v="77434" />
	</node>
	<node id="-19306" lat="67.6531194412" lon="12.6413749957">
		<tag k="name" v="Nesan" />
		<tag k="natural" v="cape" />
		<tag k="ssr:stedsnr" v="77412" />
	</node>
	<node id="-19304" lat="67.6282777756" lon="12.5422277787">
		<tag k="name" v="Brandsflua" />
		<tag k="natural" v="shoal" />
		<tag k="place" v="locality" />
		<tag k="ssr:stedsnr" v="48618" />
	</node>
	<node id="-19303" lat="67.6697944465" lon="12.6180638846">
		<tag k="alt_name" v="Gjura" />
		<tag k="name" v="Jura" />
		<tag k="natural" v="cape" />
		<tag k="ssr:stedsnr" v="48616" />
	</node>
	<node id="-19302" lat="67.7800833337" lon="12.7105333274">
		<tag k="name" v="Nordskallen" />
		<tag k="natural" v="shoal" />
		<tag k="place" v="locality" />
		<tag k="ssr:stedsnr" v="47255" />
	</node>
	<node id="-19301" lat="67.7570888924" lon="12.7681333441">
		<tag k="name" v="Forhammarbukta" />
		<tag k="natural" v="bay" />
		<tag k="ssr:stedsnr" v="41598" />
	</node>
	<node id="-19299" lat="67.6607166671" lon="12.6072583274">
		<tag k="name" v="Klømra" />
		<tag k="natural" v="bay" />
		<tag k="ssr:stedsnr" v="40833" />
	</node>
	<node id="-19298" lat="67.6776083339" lon="12.6332083423">
		<tag k="name" v="Kalvvika" />
		<tag k="natural" v="bay" />
		<tag k="ssr:stedsnr" v="40749" />
	</node>
	<node id="-19297" lat="67.7837611088" lon="12.7980361049">
		<tag k="name" v="Keilholmen" />
		<tag k="place" v="islet" />
		<tag k="ssr:stedsnr" v="17089" />
	</node>
	<node id="-19296" lat="67.7764472195" lon="12.7705111038">
		<tag k="name" v="Buholmflaget" />
		<tag k="place" v="locality" />
		<tag k="ssr:stedsnr" v="17080" />
	</node>
	<node id="-19295" lat="67.5922250022" lon="12.565430548">
		<tag k="alt_name" v="Steinsgrunnen" />
		<tag k="name" v="Steingrunnen" />
		<tag k="natural" v="shoal" />
		<tag k="place" v="locality" />
		<tag k="ssr:stedsnr" v="16422" />
	</node>
	<node id="-19294" lat="67.6166361109" lon="12.5868166689">
		<tag k="name" v="Storflua" />
		<tag k="natural" v="shoal" />
		<tag k="place" v="locality" />
		<tag k="ssr:stedsnr" v="16406" />
	</node>
	<node id="-19293" lat="67.6271833346" lon="12.5951888994">
		<tag k="name" v="Stabben" />
		<tag k="natural" v="shoal" />
		<tag k="place" v="locality" />
		<tag k="ssr:stedsnr" v="16403" />
	</node>
	<node id="-19292" lat="67.6281499964" lon="12.5344222176">
		<tag k="name" v="Båan" />
		<tag k="natural" v="shoal" />
		<tag k="place" v="locality" />
		<tag k="ssr:stedsnr" v="16401" />
	</node>
	<node id="-19291" lat="67.6402277799" lon="12.6037527685">
		<tag k="alt_name" v="Buneset" />
		<tag k="name" v="Bunesodden" />
		<tag k="natural" v="cape" />
		<tag k="ssr:stedsnr" v="16385" />
	</node>
	<node id="-19290" lat="67.6541722179" lon="12.7049583338">
		<tag k="name" v="Tjuvneset" />
		<tag k="natural" v="cape" />
		<tag k="ssr:stedsnr" v="16366" />
	</node>
	<node id="-19287" lat="67.6574944432" lon="12.603149991">
		<tag k="name" v="Eidet" />
		<tag k="place" v="locality" />
		<tag k="ssr:stedsnr" v="16362" />
	</node>
	<node id="-19285" lat="67.6939638915" lon="12.7421888843">
		<tag k="name" v="Auka" />
		<tag k="place" v="islet" />
		<tag k="ssr:stedsnr" v="951724" />
	</node>
	<node id="-19283" lat="67.7560500017" lon="12.758475011">
		<tag k="name" v="Reirhalsen" />
		<tag k="natural" v="cape" />
		<tag k="ssr:stedsnr" v="951709" />
	</node>
	<node id="-19280" lat="67.7718833357" lon="12.7643777716">
		<tag k="fixme" v="consider seamark:type=rock or natural=shoal" />
		<tag k="name" v="Buholmskjeran" />
		<tag k="place" v="islet" />
		<tag k="ssr:stedsnr" v="951624" />
	</node>
	<node id="-19277" lat="67.7542666686" lon="12.7657972146">
		<tag k="name" v="Godbonåkeren" />
		<tag k="natural" v="bay" />
		<tag k="ssr:stedsnr" v="951612" />
	</node>
	<node id="-19274" lat="67.6943638881" lon="12.730858335">
		<tag k="name" v="Lamholmsundet" />
		<tag k="natural" v="strait" />
		<tag k="ssr:stedsnr" v="865405" />
	</node>
	<node id="-19273" lat="67.6475277819" lon="12.721316666">
		<tag k="fixme" v="consider seamark:type=rock or natural=shoal" />
		<tag k="name" v="Seiklakken" />
		<tag k="place" v="islet" />
		<tag k="ssr:stedsnr" v="805424" />
	</node>
	<node id="-19272" lat="67.6340777777" lon="12.7063833292">
		<tag k="fixme" v="consider seamark:type=rock or natural=shoal" />
		<tag k="name" v="Alkskjeret" />
		<tag k="place" v="islet" />
		<tag k="ssr:stedsnr" v="805421" />
	</node>
	<node id="-19271" lat="67.6388305545" lon="12.7159194458">
		<tag k="name" v="Kvalbakflua" />
		<tag k="natural" v="shoal" />
		<tag k="place" v="locality" />
		<tag k="ssr:stedsnr" v="805420" />
	</node>
	<node id="-19269" lat="67.6918749996" lon="12.6218277693">
		<tag k="fixme" v="consider seamark:type=rock or natural=shoal" />
		<tag k="name" v="Hagsteinan" />
		<tag k="place" v="islet" />
		<tag k="ssr:stedsnr" v="805353" />
	</node>
	<node id="-19265" lat="67.6397833347" lon="12.5654722209">
		<tag k="name" v="Eldsetvika" />
		<tag k="natural" v="bay" />
		<tag k="ssr:stedsnr" v="926398" />
	</node>
	<node id="-19263" lat="67.6580583336" lon="12.6350527693">
		<tag k="name" v="Repphellaren" />
		<tag k="place" v="islet" />
		<tag k="ssr:stedsnr" v="926382" />
	</node>
	<node id="-19260" lat="67.6771916646" lon="12.7010722147">
		<tag k="name" v="Breivika" />
		<tag k="natural" v="bay" />
		<tag k="old_name" v="Breidvika" />
		<tag k="ssr:stedsnr" v="926360" />
	</node>
	<node id="-19258" lat="67.6852138932" lon="12.4809361199">
		<tag k="name" v="Råkhalsfluan" />
		<tag k="natural" v="shoal" />
		<tag k="place" v="locality" />
		<tag k="ssr:stedsnr" v="926349" />
	</node>
	<node id="-19257" lat="67.7258083366" lon="12.7809805611">
		<tag k="name" v="Flima" />
		<tag k="place" v="islet" />
		<tag k="ssr:stedsnr" v="926337" />
	</node>
	<node id="-19256" lat="67.6406666625" lon="12.9191972312">
		<tag k="name" v="Vestfjorden" />
		<tag k="place" v="sea" />
		<tag k="ssr:stedsnr" v="926139" />
	</node>
	<node id="-19255" lat="67.6877388911" lon="12.6671888828">
		<tag k="name" v="Langmolla" />
		<tag k="natural" v="beach" />
		<tag k="place" v="locality" />
		<tag k="ssr:stedsnr" v="769734" />
	</node>
	<node id="-19249" lat="67.672999997" lon="12.704927767">
		<tag k="name" v="Breivikbukta" />
		<tag k="natural" v="bay" />
		<tag k="ssr:stedsnr" v="767672" />
	</node>
	<node id="-19248" lat="67.6886777737" lon="12.7265888783">
		<tag k="fixme" v="consider seamark:type=rock or natural=shoal" />
		<tag k="name" v="Perjørgensaskjeret" />
		<tag k="place" v="islet" />
		<tag k="ssr:stedsnr" v="767670" />
	</node>
	<node id="-19247" lat="67.5895166636" lon="12.5279055531">
		<tag k="name" v="Grunnaregga" />
		<tag k="natural" v="shoal" />
		<tag k="place" v="locality" />
		<tag k="ssr:stedsnr" v="744415" />
	</node>
	<node id="-19245" lat="67.6576277804" lon="12.7454250103">
		<tag k="name" v="Mikkjelsgrunnen" />
		<tag k="natural" v="shoal" />
		<tag k="place" v="locality" />
		<tag k="ssr:stedsnr" v="744353" />
	</node>
	<node id="-19244" lat="67.6779583375" lon="12.7276249905">
		<tag k="fixme" v="consider seamark:type=rock or natural=shoal" />
		<tag k="name" v="Sandskjeret" />
		<tag k="place" v="islet" />
		<tag k="ssr:stedsnr" v="744325" />
	</node>
	<node id="-19243" lat="67.6756305523" lon="12.700491657">
		<tag k="alt_name" v="Alveneset" />
		<tag k="name" v="Alvneset" />
		<tag k="natural" v="cape" />
		<tag k="ssr:stedsnr" v="744323" />
	</node>
	<node id="-19242" lat="67.7103694445" lon="12.8057611143">
		<tag k="name" v="Seiskallen" />
		<tag k="natural" v="shoal" />
		<tag k="place" v="locality" />
		<tag k="ssr:stedsnr" v="897244" />
	</node>
	<node id="-19240" lat="67.6968249987" lon="12.7660361016">
		<tag k="name" v="Kvitholmen" />
		<tag k="place" v="islet" />
		<tag k="ssr:stedsnr" v="714620" />
	</node>
	<node id="-19239" lat="67.6439361108" lon="12.6990111204">
		<tag k="name" v="Ferskvågen" />
		<tag k="natural" v="bay" />
		<tag k="ssr:stedsnr" v="890829" />
	</node>
	<node id="-19237" lat="67.6998277772" lon="12.7327166652">
		<tag k="fixme" v="consider seamark:type=rock or natural=shoal" />
		<tag k="name" v="Brørn" />
		<tag k="place" v="islet" />
		<tag k="ssr:stedsnr" v="890727" />
	</node>
	<node id="-19236" lat="67.7117805567" lon="12.7165527856">
		<tag k="name" v="Aurholmskjeret" />
		<tag k="natural" v="shoal" />
		<tag k="place" v="locality" />
		<tag k="ssr:stedsnr" v="890719" />
	</node>
	<node id="-19235" lat="67.7581305524" lon="12.7719888875">
		<tag k="name" v="Forhammarsundet" />
		<tag k="natural" v="strait" />
		<tag k="ssr:stedsnr" v="890616" />
	</node>
	<node id="-19234" lat="67.6639222193" lon="12.6825027869">
		<tag k="name" v="Kvitsanden" />
		<tag k="natural" v="cape" />
		<tag k="ssr:stedsnr" v="889713" />
	</node>
	<node id="-19232" lat="67.677069444" lon="12.7134777739">
		<tag k="fixme" v="consider seamark:type=rock or natural=shoal" />
		<tag k="name" v="Nevskjeret" />
		<tag k="place" v="islet" />
		<tag k="ssr:stedsnr" v="889675" />
	</node>
	<node id="-19229" lat="67.6370861079" lon="12.5964111184">
		<tag k="fixme" v="multiple name tags, choose one and add the other to alt_name" />
		<tag k="name" v="Hensneset;Mannsneset" />
		<tag k="natural" v="cape" />
		<tag k="ssr:stedsnr" v="683377" />
	</node>
	<node id="-19226" lat="67.6642388855" lon="12.455333342">
		<tag k="name" v="Høgtuvskallan" />
		<tag k="natural" v="shoal" />
		<tag k="place" v="locality" />
		<tag k="ssr:stedsnr" v="683359" />
	</node>
	<node id="-19225" lat="67.7270833288" lon="12.5443194506">
		<tag k="name" v="Kalvvikskallan" />
		<tag k="natural" v="shoal" />
		<tag k="place" v="locality" />
		<tag k="ssr:stedsnr" v="683326" />
	</node>
	<node id="-19224" lat="67.729113886" lon="12.7418361114">
		<tag k="name" v="Langrumpholmen" />
		<tag k="place" v="islet" />
		<tag k="ssr:stedsnr" v="683322" />
	</node>
	<node id="-19223" lat="67.7364527783" lon="12.6497611109">
		<tag k="fixme" v="consider seamark:type=rock or natural=shoal" />
		<tag k="name" v="Sørleiskjeret" />
		<tag k="place" v="islet" />
		<tag k="ssr:stedsnr" v="683305" />
	</node>
	<node id="-19221" lat="67.6951138861" lon="12.7428111006">
		<tag k="name" v="Båthellarneset" />
		<tag k="natural" v="cape" />
		<tag k="ssr:stedsnr" v="647711" />
	</node>
	<node id="-19215" lat="67.7752305521" lon="12.7558805468">
		<tag k="fixme" v="consider seamark:type=rock or natural=shoal" />
		<tag k="name" v="Buholmskaftan" />
		<tag k="place" v="islet" />
		<tag k="ssr:stedsnr" v="708671" />
	</node>
	<node id="-19214" lat="67.6607583333" lon="12.6980277883">
		<tag k="name" v="Hjellholmen" />
		<tag k="natural" v="cape" />
		<tag k="ssr:stedsnr" v="708662" />
	</node>
	<node id="-19211" lat="67.6809722208" lon="12.7089888773">
		<tag k="name" v="Vassvika" />
		<tag k="natural" v="bay" />
		<tag k="ssr:stedsnr" v="706728" />
	</node>
	<node id="-19208" lat="67.6816638891" lon="12.7166666587">
		<tag k="fixme" v="consider seamark:type=rock or natural=shoal" />
		<tag k="name" v="Oternesskjeran" />
		<tag k="place" v="islet" />
		<tag k="ssr:stedsnr" v="706662" />
	</node>
	<node id="-19204" lat="67.6498472197" lon="12.7521166756">
		<tag k="name" v="Tverrbergskallen" />
		<tag k="natural" v="shoal" />
		<tag k="place" v="locality" />
		<tag k="ssr:stedsnr" v="561413" />
	</node>
	<node id="-19203" lat="67.6450472194" lon="12.7046083287">
		<tag k="name" v="Kvalneset" />
		<tag k="natural" v="cape" />
		<tag k="ssr:stedsnr" v="561412" />
	</node>
	<node id="-19202" lat="67.6356916668" lon="12.6908722174">
		<tag k="fixme" v="consider seamark:type=rock or natural=shoal" />
		<tag k="name" v="Oddskjeran" />
		<tag k="place" v="islet" />
		<tag k="ssr:stedsnr" v="561409" />
	</node>
	<node id="-19199" lat="67.6462611109" lon="12.7168194481">
		<tag k="name" v="Littj-Seiklakken" />
		<tag k="place" v="islet" />
		<tag k="ssr:stedsnr" v="526820" />
	</node>
	<node id="-19198" lat="67.7941361141" lon="12.8296444522">
		<tag k="name" v="Svarvskallan" />
		<tag k="natural" v="shoal" />
		<tag k="place" v="locality" />
		<tag k="ssr:stedsnr" v="684074" />
	</node>
	<node id="-19197" lat="67.7715861145" lon="12.7577222229">
		<tag k="name" v="Buholman" />
		<tag k="place" v="islet" />
		<tag k="ssr:stedsnr" v="684058" />
	</node>
	<node id="-19196" lat="67.6326361108" lon="12.6359666612">
		<tag k="name" v="Vestrehella" />
		<tag k="natural" v="shoal" />
		<tag k="place" v="locality" />
		<tag k="ssr:stedsnr" v="683401" />
	</node>
	<node id="-19195" lat="67.6842500029" lon="12.7848833229">
		<tag k="name" v="Slåklakkskallen" />
		<tag k="natural" v="shoal" />
		<tag k="place" v="locality" />
		<tag k="ssr:stedsnr" v="683351" />
	</node>
	<node id="-19194" lat="67.6690888903" lon="12.7075500009">
		<tag k="name" v="Skjersvikneset" />
		<tag k="natural" v="cape" />
		<tag k="ssr:stedsnr" v="683350" />
	</node>
	<node id="-19193" lat="67.7097861087" lon="12.7130833375">
		<tag k="name" v="Aurholmen" />
		<tag k="place" v="islet" />
		<tag k="ssr:stedsnr" v="683334" />
	</node>
	<node id="-19192" lat="67.6374194469" lon="12.7122777692">
		<tag k="fixme" v="consider seamark:type=rock or natural=shoal" />
		<tag k="name" v="Kvalbaken" />
		<tag k="place" v="islet" />
		<tag k="ssr:stedsnr" v="683383" />
	</node>
	<node id="-19190" lat="67.6825472212" lon="12.6501388778">
		<tag k="name" v="Skiphalsen" />
		<tag k="natural" v="cape" />
		<tag k="ssr:stedsnr" v="501334" />
	</node>
	<node id="-19189" lat="67.7373666663" lon="12.6571277802">
		<tag k="name" v="Sørholmen" />
		<tag k="place" v="islet" />
		<tag k="ssr:stedsnr" v="501328" />
	</node>
	<node id="-19188" lat="67.720666665" lon="12.5101694436">
		<tag k="name" v="Ytretusskallen" />
		<tag k="natural" v="shoal" />
		<tag k="place" v="locality" />
		<tag k="ssr:stedsnr" v="501319" />
	</node>
	<node id="-19187" lat="67.7393555564" lon="12.6649027693">
		<tag k="name" v="Nordnakken" />
		<tag k="place" v="islet" />
		<tag k="ssr:stedsnr" v="501311" />
	</node>
	<node id="-19175" lat="67.6237916674" lon="12.529097218">
		<tag k="name" v="Svadbruna" />
		<tag k="natural" v="shoal" />
		<tag k="place" v="locality" />
		<tag k="ssr:stedsnr" v="501409" />
	</node>
	<node id="-19174" lat="67.6359777817" lon="12.6985388859">
		<tag k="alt_name" v="Svartskjeran" />
		<tag k="fixme" v="consider seamark:type=rock or natural=shoal" />
		<tag k="name" v="Svartskjeret" />
		<tag k="place" v="islet" />
		<tag k="ssr:stedsnr" v="501386" />
	</node>
	<node id="-19172" lat="67.6366277778" lon="12.639744438">
		<tag k="name" v="Fauskan" />
		<tag k="natural" v="shoal" />
		<tag k="place" v="locality" />
		<tag k="ssr:stedsnr" v="501378" />
	</node>
	<node id="-19170" lat="67.6533777811" lon="12.5699388866">
		<tag k="name" v="Knappen" />
		<tag k="natural" v="cape" />
		<tag k="ssr:stedsnr" v="501363" />
	</node>
	<node id="-19169" lat="67.6709722207" lon="12.6211305535">
		<tag k="name" v="Slettstranda" />
		<tag k="natural" v="beach" />
		<tag k="place" v="locality" />
		<tag k="ssr:stedsnr" v="501357" />
	</node>
	<node id="-19168" lat="67.6953833309" lon="12.7369972326">
		<tag k="name" v="Lamholmen" />
		<tag k="place" v="islet" />
		<tag k="ssr:stedsnr" v="501344" />
	</node>
	<node id="-19166" lat="67.7380750037" lon="12.6615750052">
		<tag k="name" v="Skarvholman" />
		<tag k="place" v="island" />
		<tag k="ssr:stedsnr" v="472247" />
	</node>
	<node id="-19165" lat="67.6579666622" lon="12.7222416747">
		<tag k="name" v="Torvvågen" />
		<tag k="natural" v="bay" />
		<tag k="ssr:stedsnr" v="471652" />
	</node>
	<node id="-19163" lat="67.6429222219" lon="12.5615638976">
		<tag k="fixme" v="consider seamark:type=rock or natural=shoal" />
		<tag k="name" v="Krykkjesteinan" />
		<tag k="place" v="islet" />
		<tag k="ssr:stedsnr" v="465777" />
	</node>
	<node id="-19162" lat="67.6966527758" lon="12.7378916694">
		<tag k="name" v="Nordsundet" />
		<tag k="natural" v="strait" />
		<tag k="ssr:stedsnr" v="465697" />
	</node>
	<node id="-19155" lat="67.6436055526" lon="12.7282833437">
		<tag k="name" v="Sørlandsvågen" />
		<tag k="natural" v="bay" />
		<tag k="ssr:stedsnr" v="258409" />
	</node>
	<node id="-19150" lat="67.7607750031" lon="12.7855583261">
		<tag k="name" v="Forhammarbåen" />
		<tag k="natural" v="shoal" />
		<tag k="place" v="locality" />
		<tag k="ssr:stedsnr" v="442089" />
	</node>
	<node id="-19149" lat="67.7766694473" lon="12.7444444555">
		<tag k="name" v="Buholmskallan" />
		<tag k="natural" v="shoal" />
		<tag k="place" v="locality" />
		<tag k="ssr:stedsnr" v="442086" />
	</node>
	<node id="-19148" lat="67.6108027805" lon="12.5986777755">
		<tag k="name" v="Heimrefallet" />
		<tag k="natural" v="shoal" />
		<tag k="place" v="locality" />
		<tag k="ssr:stedsnr" v="441420" />
	</node>
	<node id="-19147" lat="67.6405527813" lon="12.6728805607">
		<tag k="name" v="Austrehella" />
		<tag k="natural" v="shoal" />
		<tag k="place" v="locality" />
		<tag k="ssr:stedsnr" v="441408" />
	</node>
	<node id="-19145" lat="67.6723499993" lon="12.7031444394">
		<tag k="name" v="Skjersvika" />
		<tag k="natural" v="bay" />
		<tag k="ssr:stedsnr" v="440397" />
	</node>
	<node id="-19144" lat="67.6933305587" lon="12.7255249887">
		<tag k="name" v="Prestholmen" />
		<tag k="natural" v="cape" />
		<tag k="ssr:stedsnr" v="440392" />
	</node>
	<node id="-19142" lat="67.7160194448" lon="12.7920638868">
		<tag k="alt_name" v="Flesa" />
		<tag k="fixme" v="consider seamark:type=rock or natural=shoal" />
		<tag k="name" v="Indreflesa" />
		<tag k="place" v="islet" />
		<tag k="ssr:stedsnr" v="440375" />
	</node>
	<node id="-19141" lat="67.7127666689" lon="12.5328361137">
		<tag k="alt_name" v="Tusskallan" />
		<tag k="name" v="Tusskallen" />
		<tag k="natural" v="shoal" />
		<tag k="place" v="locality" />
		<tag k="ssr:stedsnr" v="440374" />
	</node>
	<node id="-19140" lat="67.6146249994" lon="12.5647166765">
		<tag k="name" v="Kalltåga" />
		<tag k="natural" v="shoal" />
		<tag k="place" v="locality" />
		<tag k="ssr:stedsnr" v="198414" />
	</node>
	<node id="-19139" lat="67.6164277782" lon="12.5186388972">
		<tag k="alt_name" v="Rørliskallan" />
		<tag k="name" v="Røliskallan" />
		<tag k="natural" v="shoal" />
		<tag k="place" v="locality" />
		<tag k="ssr:stedsnr" v="198413" />
	</node>
	<node id="-19138" lat="67.5994416631" lon="12.6131694383">
		<tag k="name" v="Foten" />
		<tag k="natural" v="shoal" />
		<tag k="place" v="locality" />
		<tag k="ssr:stedsnr" v="198403" />
	</node>
	<node id="-19135" lat="67.6778000025" lon="12.6640000024">
		<tag k="alt_name" v="Værøy" />
		<tag k="name" v="Værøya" />
		<tag k="place" v="island" />
		<tag k="ssr:stedsnr" v="198346" />
	</node>
	<node id="-19133" lat="67.7334472259" lon="12.7019749911">
		<tag k="alt_name" v="Kullskjeret" />
		<tag k="fixme" v="consider seamark:type=rock or natural=shoal" />
		<tag k="name" v="Kolskjeret" />
		<tag k="place" v="islet" />
		<tag k="ssr:stedsnr" v="198316" />
	</node>
	<node id="-19132" lat="67.7465611108" lon="12.6976583251">
		<tag k="alt_name" v="Vesterslåklakken" />
		<tag k="fixme" v="multiple name tags, choose one and add the other to alt_name" />
		<tag k="name" v="Slåklakkan;Vestreslåklakken" />
		<tag k="place" v="islet" />
		<tag k="ssr:stedsnr" v="198311" />
	</node>
	<node id="-19130" lat="67.6335638843" lon="12.5738444552">
		<tag k="name" v="Koppan" />
		<tag k="natural" v="cape" />
		<tag k="ssr:stedsnr" v="290588" />
	</node>
	<node id="-19128" lat="67.6469222263" lon="12.5644749914">
		<tag k="name" v="Jordneset" />
		<tag k="natural" v="cape" />
		<tag k="ssr:stedsnr" v="283813" />
	</node>
	<node id="-19127" lat="67.6305722247" lon="12.5917027792">
		<tag k="name" v="Stakkbukta" />
		<tag k="natural" v="bay" />
		<tag k="ssr:stedsnr" v="283800" />
	</node>
	<node id="-19124" lat="67.6973666709" lon="12.7429027786">
		<tag k="fixme" v="consider seamark:type=rock or natural=shoal" />
		<tag k="name" v="Lamholmskjeran" />
		<tag k="place" v="islet" />
		<tag k="ssr:stedsnr" v="283688" />
	</node>
	<node id="-19123" lat="67.6488027812" lon="12.7016944411">
		<tag k="name" v="Kvalnessteinan" />
		<tag k="natural" v="cape" />
		<tag k="ssr:stedsnr" v="283629" />
	</node>
	<node id="-19122" lat="67.6536305574" lon="12.7246416716">
		<tag k="name" v="Håkjerringvika" />
		<tag k="natural" v="bay" />
		<tag k="ssr:stedsnr" v="283628" />
	</node>
	<node id="-19121" lat="67.6580888924" lon="12.7046333267">
		<tag k="name" v="Sørlandsvågen" />
		<tag k="natural" v="bay" />
		<tag k="ssr:stedsnr" v="283612" />
	</node>
	<node id="-19119" lat="67.6771555522" lon="12.7376888891">
		<tag k="fixme" v="consider seamark:type=rock or natural=shoal" />
		<tag k="name" v="Trollet" />
		<tag k="place" v="islet" />
		<tag k="ssr:stedsnr" v="282656" />
	</node>
	<node id="-19117" lat="67.641602778" lon="12.5712000093">
		<tag k="fixme" v="consider seamark:type=rock or natural=shoal" />
		<tag k="name" v="Omfløddholmen" />
		<tag k="place" v="islet" />
		<tag k="ssr:stedsnr" v="162806" />
	</node>
	<node id="-19113" lat="67.738197218" lon="12.6621611169">
		<tag k="name" v="Nordholmen" />
		<tag k="place" v="islet" />
		<tag k="ssr:stedsnr" v="137317" />
	</node>
	<node id="-19112" lat="67.758233335" lon="12.7729277836">
		<tag k="name" v="Forhammaren" />
		<tag k="place" v="islet" />
		<tag k="ssr:stedsnr" v="260100" />
	</node>
	<node id="-19111" lat="67.7319416685" lon="12.5599138815">
		<tag k="name" v="Sørhandtaren" />
		<tag k="natural" v="shoal" />
		<tag k="place" v="locality" />
		<tag k="ssr:stedsnr" v="258348" />
	</node>
	<node id="-19110" lat="67.7456972233" lon="12.7120444546">
		<tag k="alt_name" v="Austerslåklakken" />
		<tag k="name" v="Austreslåklakken" />
		<tag k="place" v="islet" />
		<tag k="ssr:stedsnr" v="258347" />
	</node>
	<node id="-19109" lat="67.6786111134" lon="12.7390361046">
		<tag k="alt_name" v="Vettmålskjeret" />
		<tag k="fixme" v="consider seamark:type=rock or natural=shoal" />
		<tag k="name" v="Vetmålsskjeret" />
		<tag k="place" v="islet" />
		<tag k="ssr:stedsnr" v="258394" />
	</node>
	<node id="-19108" lat="67.6552555517" lon="12.5768222146">
		<tag k="alt_name" v="Svaneset" />
		<tag k="name" v="Svadneset" />
		<tag k="natural" v="cape" />
		<tag k="ssr:stedsnr" v="258387" />
	</node>
	<node id="-19107" lat="67.6656000026" lon="12.6754472304">
		<tag k="name" v="Holmen" />
		<tag k="natural" v="cape" />
		<tag k="ssr:stedsnr" v="258385" />
	</node>
	<node id="-19102" lat="67.6675027797" lon="12.6164805573">
		<tag k="name" v="Kringla" />
		<tag k="natural" v="bay" />
		<tag k="ssr:stedsnr" v="39655" />
	</node>
	<node id="-19101" lat="67.6445388897" lon="12.5616583294">
		<tag k="name" v="Eldsneset" />
		<tag k="natural" v="cape" />
		<tag k="ssr:stedsnr" v="230594" />
	</node>
	<node id="-19100" lat="67.7348027822" lon="12.8076166712">
		<tag k="name" v="Brunskallen" />
		<tag k="natural" v="shoal" />
		<tag k="place" v="locality" />
		<tag k="ssr:stedsnr" v="229259" />
	</node>
	<node id="-19099" lat="67.6429583305" lon="12.4589111024">
		<tag k="name" v="Toppskallan" />
		<tag k="natural" v="shoal" />
		<tag k="place" v="locality" />
		<tag k="ssr:stedsnr" v="16354" />
	</node>
	<node id="-19098" lat="67.6600555534" lon="12.6265027829">
		<tag k="fixme" v="multiple name tags, choose one and add the other to alt_name" />
		<tag k="name" v="Rund-Sanden;Sanden" />
		<tag k="natural" v="cape" />
		<tag k="ssr:stedsnr" v="16344" />
	</node>
	<node id="-19097" lat="67.6756194485" lon="12.7634111023">
		<tag k="name" v="Småbrotflua" />
		<tag k="natural" v="shoal" />
		<tag k="place" v="locality" />
		<tag k="ssr:stedsnr" v="16343" />
	</node>
	<node id="-19096" lat="67.670341668" lon="12.7620472123">
		<tag k="name" v="Hammarskallen" />
		<tag k="natural" v="shoal" />
		<tag k="place" v="locality" />
		<tag k="ssr:stedsnr" v="16342" />
	</node>
	<node id="-19095" lat="67.6648861101" lon="12.6515000073">
		<tag k="name" v="Sørlandshagen" />
		<tag k="natural" v="beach" />
		<tag k="place" v="locality" />
		<tag k="ssr:stedsnr" v="16338" />
	</node>
	<node id="-19094" lat="67.6943555582" lon="12.7504027849">
		<tag k="fixme" v="consider seamark:type=rock or natural=shoal" />
		<tag k="name" v="Lamholmskjeret" />
		<tag k="place" v="islet" />
		<tag k="ssr:stedsnr" v="16325" />
	</node>
	<node id="-19093" lat="67.6849027732" lon="12.6558777842">
		<tag k="fixme" v="multiple name tags, choose one and add the other to alt_name" />
		<tag k="name" v="Heimretussen;Tussen" />
		<tag k="natural" v="cape" />
		<tag k="ssr:stedsnr" v="16318" />
	</node>
	<node id="-19090" lat="67.6366249984" lon="12.6959777682">
		<tag k="name" v="Oddsundet" />
		<tag k="natural" v="strait" />
		<tag k="ssr:stedsnr" v="223839" />
	</node>
	<node id="-19086" lat="67.7728555595" lon="12.7608250061">
		<tag k="name" v="Nordbuholmen" />
		<tag k="place" v="islet" />
		<tag k="ssr:stedsnr" v="223707" />
	</node>
	<node id="-19084" lat="67.6738861112" lon="12.6283194555">
		<tag k="fixme" v="multiple name tags, choose one and add the other to alt_name" />
		<tag k="name" v="Kalvvika;Kavringmolla" />
		<tag k="natural" v="bay" />
		<tag k="ssr:stedsnr" v="223702" />
	</node>
	<node id="-19083" lat="67.659397218" lon="12.681744442">
		<tag k="name" v="Sørvika" />
		<tag k="natural" v="bay" />
		<tag k="ssr:stedsnr" v="223691" />
	</node>
	<node id="-19078" lat="67.6827583361" lon="12.7088638961">
		<tag k="name" v="Oternesan" />
		<tag k="natural" v="cape" />
		<tag k="ssr:stedsnr" v="221687" />
	</node>
	<node id="-19509" lat="67.6300444437" lon="12.5678666631">
		<tag k="name" v="Bøan" />
		<tag k="natural" v="shoal" />
		<tag k="place" v="locality" />
		<tag k="ssr:stedsnr" v="958674" />
	</node>
	<node id="-19508" lat="67.7698944416" lon="12.7568888927">
		<tag k="name" v="Sørbuholmen" />
		<tag k="place" v="islet" />
		<tag k="ssr:stedsnr" v="951682" />
	</node>
	<node id="-19507" lat="67.7573333305" lon="12.7356611172">
		<tag k="fixme" v="consider seamark:type=rock or natural=shoal" />
		<tag k="name" v="Hornskarskjeran" />
		<tag k="place" v="islet" />
		<tag k="ssr:stedsnr" v="951681" />
	</node>
	<node id="-19506" lat="67.7525388878" lon="12.7497638961">
		<tag k="alt_name" v="Avløysa" />
		<tag k="name" v="Avløysneset" />
		<tag k="natural" v="cape" />
		<tag k="ssr:stedsnr" v="867090" />
	</node>
	<node id="-19505" lat="67.611530552" lon="12.6637916684">
		<tag k="name" v="Båen" />
		<tag k="natural" v="shoal" />
		<tag k="place" v="locality" />
		<tag k="ssr:stedsnr" v="866404" />
	</node>
	<node id="-19504" lat="67.6297027751" lon="12.6554138877">
		<tag k="name" v="Småskallan" />
		<tag k="natural" v="shoal" />
		<tag k="place" v="locality" />
		<tag k="ssr:stedsnr" v="865466" />
	</node>
	<node id="-19503" lat="67.6272055577" lon="12.5816138888">
		<tag k="name" v="Tavla" />
		<tag k="natural" v="shoal" />
		<tag k="place" v="locality" />
		<tag k="ssr:stedsnr" v="865464" />
	</node>
	<node id="-19502" lat="67.6099722263" lon="12.5867250082">
		<tag k="name" v="Skiten" />
		<tag k="natural" v="shoal" />
		<tag k="place" v="locality" />
		<tag k="ssr:stedsnr" v="865458" />
	</node>
	<node id="-19501" lat="67.6089888873" lon="12.5046694427">
		<tag k="name" v="Storfjellbåen" />
		<tag k="natural" v="shoal" />
		<tag k="place" v="locality" />
		<tag k="ssr:stedsnr" v="865456" />
	</node>
	<node id="-19500" lat="67.6074611126" lon="12.5291749953">
		<tag k="name" v="Nupskallen" />
		<tag k="natural" v="shoal" />
		<tag k="place" v="locality" />
		<tag k="ssr:stedsnr" v="865455" />
	</node>
	<node id="-19499" lat="67.6396277735" lon="12.5724166694">
		<tag k="alt_name" v="Sæingsnesan" />
		<tag k="name" v="Sædingsneset" />
		<tag k="natural" v="cape" />
		<tag k="ssr:stedsnr" v="865454" />
	</node>
	<node id="-19497" lat="67.6578916669" lon="12.6667499941">
		<tag k="alt_name" v="Sørlandsbukta" />
		<tag k="name" v="Sørlandsvika" />
		<tag k="natural" v="bay" />
		<tag k="ssr:stedsnr" v="865446" />
	</node>
	<node id="-19496" lat="67.6449638859" lon="12.6760916634">
		<tag k="fixme" v="consider seamark:type=rock or natural=shoal" />
		<tag k="name" v="Rogndisken" />
		<tag k="place" v="islet" />
		<tag k="ssr:stedsnr" v="865435" />
	</node>
	<node id="-19495" lat="67.679219443" lon="12.7311611092">
		<tag k="fixme" v="multiple name tags, choose one and add the other to alt_name" />
		<tag k="name" v="Buholmen;Løngholmen" />
		<tag k="place" v="islet" />
		<tag k="ssr:stedsnr" v="865417" />
	</node>
	<node id="-19492" lat="67.6986555562" lon="12.730941676">
		<tag k="fixme" v="multiple name tags, choose one and add the other to alt_name; consider seamark:type=rock or natural=shoal" />
		<tag k="name" v="Skarvskjeret;Storskarvskjeret" />
		<tag k="place" v="islet" />
		<tag k="ssr:stedsnr" v="865397" />
	</node>
	<node id="-19491" lat="67.7148472239" lon="12.5121388799">
		<tag k="name" v="Versetskallen" />
		<tag k="natural" v="shoal" />
		<tag k="place" v="locality" />
		<tag k="ssr:stedsnr" v="865386" />
	</node>
	<node id="-19489" lat="67.6271305536" lon="12.5860000104">
		<tag k="name" v="Flaget" />
		<tag k="natural" v="shoal" />
		<tag k="place" v="locality" />
		<tag k="ssr:stedsnr" v="830814" />
	</node>
	<node id="-19484" lat="67.7482527784" lon="12.7643583346">
		<tag k="name" v="Hattberget" />
		<tag k="natural" v="cape" />
		<tag k="ssr:stedsnr" v="830604" />
	</node>
	<node id="-19483" lat="67.7489027741" lon="12.7646027886">
		<tag k="name" v="Sørkrokan" />
		<tag k="natural" v="bay" />
		<tag k="ssr:stedsnr" v="830603" />
	</node>
	<node id="-19481" lat="67.7573749988" lon="12.7705944413">
		<tag k="name" v="Forhammarneset" />
		<tag k="natural" v="cape" />
		<tag k="ssr:stedsnr" v="830597" />
	</node>
	<node id="-19479" lat="67.6751416683" lon="12.7136166609">
		<tag k="fixme" v="consider seamark:type=rock or natural=shoal" />
		<tag k="name" v="Skarvskjeret" />
		<tag k="place" v="islet" />
		<tag k="ssr:stedsnr" v="828662" />
	</node>
	<node id="-19476" lat="67.7679555565" lon="12.7269555544">
		<tag k="alt_name" v="Skjettenskarvholmen" />
		<tag k="name" v="Skitenskarvholman" />
		<tag k="place" v="islet" />
		<tag k="ssr:stedsnr" v="806063" />
	</node>
	<node id="-19475" lat="67.624472226" lon="12.5971333332">
		<tag k="name" v="Skarven" />
		<tag k="natural" v="shoal" />
		<tag k="place" v="locality" />
		<tag k="ssr:stedsnr" v="805448" />
	</node>
	<node id="-19474" lat="67.6536194427" lon="12.7489888905">
		<tag k="name" v="Kristofferskallen" />
		<tag k="natural" v="shoal" />
		<tag k="place" v="locality" />
		<tag k="ssr:stedsnr" v="805395" />
	</node>
	<node id="-19470" lat="67.6948611153" lon="12.7870666681">
		<tag k="name" v="Kvitholmbåen" />
		<tag k="natural" v="shoal" />
		<tag k="place" v="locality" />
		<tag k="ssr:stedsnr" v="805367" />
	</node>
	<node id="-19469" lat="67.6906472246" lon="12.7909500028">
		<tag k="alt_name" v="Stikkskallen" />
		<tag k="name" v="Stokkskallen" />
		<tag k="natural" v="shoal" />
		<tag k="place" v="locality" />
		<tag k="ssr:stedsnr" v="805359" />
	</node>
	<node id="-19468" lat="67.7012305553" lon="12.7739722301">
		<tag k="name" v="Nordbåen" />
		<tag k="natural" v="shoal" />
		<tag k="place" v="locality" />
		<tag k="ssr:stedsnr" v="805356" />
	</node>
	<node id="-19467" lat="67.737747221" lon="12.6537305479">
		<tag k="name" v="Sørnakken" />
		<tag k="place" v="islet" />
		<tag k="ssr:stedsnr" v="805334" />
	</node>
	<node id="-19466" lat="67.657225001" lon="12.5803250024">
		<tag k="name" v="Svadodden" />
		<tag k="natural" v="cape" />
		<tag k="ssr:stedsnr" v="776593" />
	</node>
	<node id="-19465" lat="67.6449444406" lon="12.721591659">
		<tag k="name" v="Seiklakkflua" />
		<tag k="natural" v="shoal" />
		<tag k="place" v="locality" />
		<tag k="ssr:stedsnr" v="775622" />
	</node>
	<node id="-19463" lat="67.67941111" lon="12.6373722171">
		<tag k="alt_name" v="Slørvnakkan" />
		<tag k="name" v="Slurvnakkan" />
		<tag k="natural" v="cape" />
		<tag k="ssr:stedsnr" v="775613" />
	</node>
	<node id="-19462" lat="67.6379083375" lon="12.5714166724">
		<tag k="fixme" v="consider seamark:type=rock or natural=shoal" />
		<tag k="name" v="Sæingsskjeret" />
		<tag k="place" v="islet" />
		<tag k="ssr:stedsnr" v="769772" />
	</node>
</osm>
