<?xml version="1.0" encoding="UTF-8"?>
<osm generator="osmapis" version="0.6">
	<node id="-701175" lat="67.6300444437" lon="12.5678666631">
		<tag k="name" v="Bøan" />
		<tag k="natural" v="shoal" />
		<tag k="place" v="locality" />
		<tag k="ssr:stedsnr" v="958674" />
	</node>
	<node id="-701174" lat="67.6939638915" lon="12.7421888843">
		<tag k="name" v="Auka" />
		<tag k="place" v="islet" />
		<tag k="ssr:stedsnr" v="951724" />
	</node>
	<node id="-701173" lat="67.6902638868" lon="12.6952361051">
		<tag k="name" v="Kalvdalen" />
		<tag k="natural" v="valley" />
		<tag k="place" v="locality" />
		<tag k="ssr:stedsnr" v="951715" />
	</node>
	<node id="-701172" lat="67.7560500017" lon="12.758475011">
		<tag k="name" v="Reirhalsen" />
		<tag k="natural" v="cape" />
		<tag k="ssr:stedsnr" v="951709" />
	</node>
	<node id="-701171" lat="67.7698944416" lon="12.7568888927">
		<tag k="name" v="Sørbuholmen" />
		<tag k="place" v="islet" />
		<tag k="ssr:stedsnr" v="951682" />
	</node>
	<node id="-701170" lat="67.7573333305" lon="12.7356611172">
		<tag k="fixme" v="consider seamark:type=rock or natural=shoal" />
		<tag k="name" v="Hornskarskjeran" />
		<tag k="place" v="islet" />
		<tag k="ssr:stedsnr" v="951681" />
	</node>
	<node id="-701169" lat="67.6637861095" lon="12.6899944368">
		<tag k="leisure" v="pitch" />
		<tag k="name" v="Værøy idrettsplass" />
		<tag k="ssr:stedsnr" v="951675" />
	</node>
	<node id="-701168" lat="67.6614222204" lon="12.6839277803">
		<tag k="name" v="Ramvoll" />
		<tag k="place" v="farm" />
		<tag k="ssr:stedsnr" v="951672" />
	</node>
	<node id="-701167" lat="67.7718833357" lon="12.7643777716">
		<tag k="fixme" v="consider seamark:type=rock or natural=shoal" />
		<tag k="name" v="Buholmskjeran" />
		<tag k="place" v="islet" />
		<tag k="ssr:stedsnr" v="951624" />
	</node>
	<node id="-701166" lat="67.7457083331" lon="12.7654055465">
		<tag k="name" v="Gabriellia" />
		<tag k="natural" v="slope" />
		<tag k="place" v="locality" />
		<tag k="ssr:stedsnr" v="951617" />
	</node>
	<node id="-701165" lat="67.7562444435" lon="12.7660833373">
		<tag k="name" v="Hesten" />
		<tag k="natural" v="hill" />
		<tag k="place" v="locality" />
		<tag k="ssr:stedsnr" v="951614" />
	</node>
	<node id="-701164" lat="67.7542666686" lon="12.7657972146">
		<tag k="name" v="Godbonåkeren" />
		<tag k="natural" v="bay" />
		<tag k="ssr:stedsnr" v="951612" />
	</node>
	<node id="-701163" lat="67.6740805541" lon="12.6944833338">
		<tag k="name" v="Skarsvollen" />
		<tag k="place" v="farm" />
		<tag k="ssr:stedsnr" v="949655" />
	</node>
	<node id="-701162" lat="67.6415416634" lon="12.5823999887">
		<tag k="fixme" v="consider natural=peak for the most distinct mountains in the district" />
		<tag k="name" v="Reka" />
		<tag k="natural" v="hill" />
		<tag k="place" v="locality" />
		<tag k="ssr:stedsnr" v="926401" />
	</node>
	<node id="-701161" lat="67.6344583355" lon="12.5757111019">
		<tag k="name" v="Storgropa" />
		<tag k="natural" v="valley" />
		<tag k="place" v="locality" />
		<tag k="ssr:stedsnr" v="926400" />
	</node>
	<node id="-701160" lat="67.6357027782" lon="12.5738472333">
		<tag k="name" v="Koppnakkan" />
		<tag k="natural" v="slope" />
		<tag k="place" v="locality" />
		<tag k="ssr:stedsnr" v="926399" />
	</node>
	<node id="-701159" lat="67.6397833347" lon="12.5654722209">
		<tag k="name" v="Eldsetvika" />
		<tag k="natural" v="bay" />
		<tag k="ssr:stedsnr" v="926398" />
	</node>
	<node id="-701158" lat="67.6562083363" lon="12.7253138966">
		<tag k="name" v="Kvitvarden" />
		<tag k="ssr:stedsnr" v="926384" />
		<tag k="tourism" v="viewpoint" />
	</node>
	<node id="-701157" lat="67.6580583336" lon="12.6350527693">
		<tag k="name" v="Repphellaren" />
		<tag k="place" v="islet" />
		<tag k="ssr:stedsnr" v="926382" />
	</node>
	<node id="-701156" lat="67.6445805553" lon="12.5674749961">
		<tag k="name" v="Eldet" />
		<tag k="place" v="locality" />
		<tag k="ssr:stedsnr" v="926377" />
	</node>
	<node id="-701155" lat="67.6730277756" lon="12.6903611154">
		<tag k="name" v="Bjørgan" />
		<tag k="natural" v="slope" />
		<tag k="place" v="locality" />
		<tag k="ssr:stedsnr" v="926368" />
	</node>
	<node id="-701154" lat="67.6771916646" lon="12.7010722147">
		<tag k="name" v="Breivika" />
		<tag k="natural" v="bay" />
		<tag k="old_name" v="Breidvika" />
		<tag k="ssr:stedsnr" v="926360" />
	</node>
	<node id="-701153" lat="67.6852194411" lon="12.6849138885">
		<tag k="alt_name" v="Kalvskardet" />
		<tag k="name" v="Kalvskaret" />
		<tag k="natural" v="valley" />
		<tag k="place" v="locality" />
		<tag k="ssr:stedsnr" v="926352" />
	</node>
	<node id="-701152" lat="67.6852138932" lon="12.4809361199">
		<tag k="name" v="Råkhalsfluan" />
		<tag k="natural" v="shoal" />
		<tag k="place" v="locality" />
		<tag k="ssr:stedsnr" v="926349" />
	</node>
	<node id="-701151" lat="67.7258083366" lon="12.7809805611">
		<tag k="name" v="Flima" />
		<tag k="place" v="islet" />
		<tag k="ssr:stedsnr" v="926337" />
	</node>
	<node id="-701150" lat="67.6406666625" lon="12.9191972312">
		<tag k="name" v="Vestfjorden" />
		<tag k="place" v="sea" />
		<tag k="ssr:stedsnr" v="926139" />
	</node>
	<node id="-701149" lat="67.7525388878" lon="12.7497638961">
		<tag k="alt_name" v="Avløysa" />
		<tag k="name" v="Avløysneset" />
		<tag k="natural" v="cape" />
		<tag k="ssr:stedsnr" v="867090" />
	</node>
	<node id="-701148" lat="67.611530552" lon="12.6637916684">
		<tag k="name" v="Båen" />
		<tag k="natural" v="shoal" />
		<tag k="place" v="locality" />
		<tag k="ssr:stedsnr" v="866404" />
	</node>
	<node id="-701147" lat="67.6297027751" lon="12.6554138877">
		<tag k="name" v="Småskallan" />
		<tag k="natural" v="shoal" />
		<tag k="place" v="locality" />
		<tag k="ssr:stedsnr" v="865466" />
	</node>
	<node id="-701146" lat="67.6272055577" lon="12.5816138888">
		<tag k="name" v="Tavla" />
		<tag k="natural" v="shoal" />
		<tag k="place" v="locality" />
		<tag k="ssr:stedsnr" v="865464" />
	</node>
	<node id="-701145" lat="67.6099722263" lon="12.5867250082">
		<tag k="name" v="Skiten" />
		<tag k="natural" v="shoal" />
		<tag k="place" v="locality" />
		<tag k="ssr:stedsnr" v="865458" />
	</node>
	<node id="-701144" lat="67.6089888873" lon="12.5046694427">
		<tag k="name" v="Storfjellbåen" />
		<tag k="natural" v="shoal" />
		<tag k="place" v="locality" />
		<tag k="ssr:stedsnr" v="865456" />
	</node>
	<node id="-701143" lat="67.6074611126" lon="12.5291749953">
		<tag k="name" v="Nupskallen" />
		<tag k="natural" v="shoal" />
		<tag k="place" v="locality" />
		<tag k="ssr:stedsnr" v="865455" />
	</node>
	<node id="-701142" lat="67.6396277735" lon="12.5724166694">
		<tag k="alt_name" v="Sæingsnesan" />
		<tag k="name" v="Sædingsneset" />
		<tag k="natural" v="cape" />
		<tag k="ssr:stedsnr" v="865454" />
	</node>
	<node id="-701140" lat="67.6578916669" lon="12.6667499941">
		<tag k="alt_name" v="Sørlandsbukta" />
		<tag k="name" v="Sørlandsvika" />
		<tag k="natural" v="bay" />
		<tag k="ssr:stedsnr" v="865446" />
	</node>
	<node id="-701139" lat="67.6449638859" lon="12.6760916634">
		<tag k="fixme" v="consider seamark:type=rock or natural=shoal" />
		<tag k="name" v="Rogndisken" />
		<tag k="place" v="islet" />
		<tag k="ssr:stedsnr" v="865435" />
	</node>
	<node id="-701138" lat="67.679219443" lon="12.7311611092">
		<tag k="fixme" v="multiple name tags, choose one and add the other to alt_name" />
		<tag k="name" v="Buholmen;Løngholmen" />
		<tag k="place" v="islet" />
		<tag k="ssr:stedsnr" v="865417" />
	</node>
	<node id="-701137" lat="67.6787055565" lon="12.7059527839">
		<tag k="fixme" v="consider natural=peak for the most distinct mountains in the district" />
		<tag k="name" v="Nevkollen" />
		<tag k="natural" v="hill" />
		<tag k="place" v="locality" />
		<tag k="ssr:stedsnr" v="865413" />
	</node>
	<node id="-701136" lat="67.6794333348" lon="12.7041805567">
		<tag k="alt_name" v="Mekollen" />
		<tag k="fixme" v="consider natural=peak for the most distinct mountains in the district" />
		<tag k="name" v="Medkollen" />
		<tag k="natural" v="hill" />
		<tag k="place" v="locality" />
		<tag k="ssr:stedsnr" v="865412" />
	</node>
	<node id="-701135" lat="67.6943638881" lon="12.730858335">
		<tag k="name" v="Lamholmsundet" />
		<tag k="natural" v="strait" />
		<tag k="ssr:stedsnr" v="865405" />
	</node>
	<node id="-701134" lat="67.6888277761" lon="12.7123583321">
		<tag k="name" v="Teisthammaren" />
		<tag k="natural" v="hill" />
		<tag k="place" v="locality" />
		<tag k="ssr:stedsnr" v="865406" />
	</node>
	<node id="-701133" lat="67.6986555562" lon="12.730941676">
		<tag k="fixme" v="multiple name tags, choose one and add the other to alt_name; consider seamark:type=rock or natural=shoal" />
		<tag k="name" v="Skarvskjeret;Storskarvskjeret" />
		<tag k="place" v="islet" />
		<tag k="ssr:stedsnr" v="865397" />
	</node>
	<node id="-701132" lat="67.7148472239" lon="12.5121388799">
		<tag k="name" v="Versetskallen" />
		<tag k="natural" v="shoal" />
		<tag k="place" v="locality" />
		<tag k="ssr:stedsnr" v="865386" />
	</node>
	<node id="-701130" lat="67.6271305536" lon="12.5860000104">
		<tag k="name" v="Flaget" />
		<tag k="natural" v="shoal" />
		<tag k="place" v="locality" />
		<tag k="ssr:stedsnr" v="830814" />
	</node>
	<node id="-701129" lat="67.7556305529" lon="12.7598166766">
		<tag k="name" v="Reiret" />
		<tag k="natural" v="valley" />
		<tag k="place" v="locality" />
		<tag k="ssr:stedsnr" v="830696" />
	</node>
	<node id="-701128" lat="67.6665499992" lon="12.7133416719">
		<tag k="name" v="Mælan" />
		<tag k="natural" v="slope" />
		<tag k="place" v="locality" />
		<tag k="ssr:stedsnr" v="830678" />
	</node>
	<node id="-701127" lat="67.6514555529" lon="12.6492527656">
		<tag k="name" v="Omnan" />
		<tag k="natural" v="hill" />
		<tag k="place" v="locality" />
		<tag k="ssr:stedsnr" v="830661" />
	</node>
	<node id="-701126" lat="67.7411888905" lon="12.7578361102">
		<tag k="name" v="Råkberget" />
		<tag k="natural" v="hill" />
		<tag k="place" v="locality" />
		<tag k="ssr:stedsnr" v="830612" />
	</node>
	<node id="-701125" lat="67.7482527784" lon="12.7643583346">
		<tag k="name" v="Hattberget" />
		<tag k="natural" v="cape" />
		<tag k="ssr:stedsnr" v="830604" />
	</node>
	<node id="-701124" lat="67.7489027741" lon="12.7646027886">
		<tag k="name" v="Sørkrokan" />
		<tag k="natural" v="bay" />
		<tag k="ssr:stedsnr" v="830603" />
	</node>
	<node id="-701123" lat="67.7517638872" lon="12.764613881">
		<tag k="name" v="Brattlian" />
		<tag k="natural" v="slope" />
		<tag k="place" v="locality" />
		<tag k="ssr:stedsnr" v="830600" />
	</node>
	<node id="-701122" lat="67.7573749988" lon="12.7705944413">
		<tag k="name" v="Forhammarneset" />
		<tag k="natural" v="cape" />
		<tag k="ssr:stedsnr" v="830597" />
	</node>
	<node id="-701121" lat="67.6619944445" lon="12.6191833239">
		<tag k="name" v="Mottollgrævan" />
		<tag k="natural" v="valley" />
		<tag k="place" v="locality" />
		<tag k="ssr:stedsnr" v="828692" />
	</node>
	<node id="-701120" lat="67.6751416683" lon="12.7136166609">
		<tag k="fixme" v="consider seamark:type=rock or natural=shoal" />
		<tag k="name" v="Skarvskjeret" />
		<tag k="place" v="islet" />
		<tag k="ssr:stedsnr" v="828662" />
	</node>
	<node id="-701119" lat="67.678933331" lon="12.6771527746">
		<tag k="name" v="Hamran" />
		<tag k="natural" v="hill" />
		<tag k="place" v="locality" />
		<tag k="ssr:stedsnr" v="828652" />
	</node>
	<node id="-701118" lat="67.6702472237" lon="12.6392361226">
		<tag k="name" v="Heia" />
		<tag k="natural" v="hill" />
		<tag k="place" v="locality" />
		<tag k="ssr:stedsnr" v="828648" />
	</node>
	<node id="-701117" lat="67.7679555565" lon="12.7269555544">
		<tag k="alt_name" v="Skjettenskarvholmen" />
		<tag k="name" v="Skitenskarvholman" />
		<tag k="place" v="islet" />
		<tag k="ssr:stedsnr" v="806063" />
	</node>
	<node id="-701116" lat="67.624472226" lon="12.5971333332">
		<tag k="name" v="Skarven" />
		<tag k="natural" v="shoal" />
		<tag k="place" v="locality" />
		<tag k="ssr:stedsnr" v="805448" />
	</node>
	<node id="-701115" lat="67.6475277819" lon="12.721316666">
		<tag k="fixme" v="consider seamark:type=rock or natural=shoal" />
		<tag k="name" v="Seiklakken" />
		<tag k="place" v="islet" />
		<tag k="ssr:stedsnr" v="805424" />
	</node>
	<node id="-701114" lat="67.6340777777" lon="12.7063833292">
		<tag k="fixme" v="consider seamark:type=rock or natural=shoal" />
		<tag k="name" v="Alkskjeret" />
		<tag k="place" v="islet" />
		<tag k="ssr:stedsnr" v="805421" />
	</node>
	<node id="-701113" lat="67.6388305545" lon="12.7159194458">
		<tag k="name" v="Kvalbakflua" />
		<tag k="natural" v="shoal" />
		<tag k="place" v="locality" />
		<tag k="ssr:stedsnr" v="805420" />
	</node>
	<node id="-701112" lat="67.6550166643" lon="12.7215444558">
		<tag k="fixme" v="consider place=suburb, village or hamlet" />
		<tag k="name" v="Røssnesvågen" />
		<tag k="place" v="quarter" />
		<tag k="ssr:stedsnr" v="805408" />
	</node>
	<node id="-701111" lat="67.6536194427" lon="12.7489888905">
		<tag k="name" v="Kristofferskallen" />
		<tag k="natural" v="shoal" />
		<tag k="place" v="locality" />
		<tag k="ssr:stedsnr" v="805395" />
	</node>
	<node id="-701110" lat="67.6657333294" lon="12.7116916635">
		<tag k="fixme" v="consider natural=peak for the most distinct mountains in the district" />
		<tag k="name" v="Stormelen" />
		<tag k="natural" v="hill" />
		<tag k="place" v="locality" />
		<tag k="ssr:stedsnr" v="805377" />
	</node>
	<node id="-701109" lat="67.6653055514" lon="12.6946583386">
		<tag k="amenity" v="place_of_worship" />
		<tag k="denomination" v="lutheran" />
		<tag k="fixme" v="multiple name tags, choose one and add the other to alt_name" />
		<tag k="name" v="Sørland kirke;Værøy" />
		<tag k="religion" v="christian" />
		<tag k="ssr:stedsnr" v="805378" />
	</node>
	<node id="-701108" lat="67.6668805559" lon="12.7083083264">
		<tag k="alt_name" v="Valttinden" />
		<tag k="fixme" v="consider natural=peak for the most distinct mountains in the district" />
		<tag k="name" v="Valltinden" />
		<tag k="natural" v="hill" />
		<tag k="place" v="locality" />
		<tag k="ssr:stedsnr" v="805375" />
	</node>
	<node id="-701107" lat="67.6948611153" lon="12.7870666681">
		<tag k="name" v="Kvitholmbåen" />
		<tag k="natural" v="shoal" />
		<tag k="place" v="locality" />
		<tag k="ssr:stedsnr" v="805367" />
	</node>
	<node id="-701106" lat="67.6906472246" lon="12.7909500028">
		<tag k="alt_name" v="Stikkskallen" />
		<tag k="name" v="Stokkskallen" />
		<tag k="natural" v="shoal" />
		<tag k="place" v="locality" />
		<tag k="ssr:stedsnr" v="805359" />
	</node>
	<node id="-701105" lat="67.7012305553" lon="12.7739722301">
		<tag k="name" v="Nordbåen" />
		<tag k="natural" v="shoal" />
		<tag k="place" v="locality" />
		<tag k="ssr:stedsnr" v="805356" />
	</node>
	<node id="-701104" lat="67.6918749996" lon="12.6218277693">
		<tag k="fixme" v="consider seamark:type=rock or natural=shoal" />
		<tag k="name" v="Hagsteinan" />
		<tag k="place" v="islet" />
		<tag k="ssr:stedsnr" v="805353" />
	</node>
	<node id="-701103" lat="67.737747221" lon="12.6537305479">
		<tag k="name" v="Sørnakken" />
		<tag k="place" v="islet" />
		<tag k="ssr:stedsnr" v="805334" />
	</node>
	<node id="-701102" lat="67.657225001" lon="12.5803250024">
		<tag k="name" v="Svadodden" />
		<tag k="natural" v="cape" />
		<tag k="ssr:stedsnr" v="776593" />
	</node>
	<node id="-701101" lat="67.6449444406" lon="12.721591659">
		<tag k="name" v="Seiklakkflua" />
		<tag k="natural" v="shoal" />
		<tag k="place" v="locality" />
		<tag k="ssr:stedsnr" v="775622" />
	</node>
	<node id="-701099" lat="67.67941111" lon="12.6373722171">
		<tag k="alt_name" v="Slørvnakkan" />
		<tag k="name" v="Slurvnakkan" />
		<tag k="natural" v="cape" />
		<tag k="ssr:stedsnr" v="775613" />
	</node>
	<node id="-701098" lat="67.6379083375" lon="12.5714166724">
		<tag k="fixme" v="consider seamark:type=rock or natural=shoal" />
		<tag k="name" v="Sæingsskjeret" />
		<tag k="place" v="islet" />
		<tag k="ssr:stedsnr" v="769772" />
	</node>
	<node id="-701097" lat="67.6877388911" lon="12.6671888828">
		<tag k="name" v="Langmolla" />
		<tag k="natural" v="beach" />
		<tag k="place" v="locality" />
		<tag k="ssr:stedsnr" v="769734" />
	</node>
	<node id="-701096" lat="67.6917777741" lon="12.7056916639">
		<tag k="name" v="Lenatjønna" />
		<tag k="natural" v="water" />
		<tag k="ssr:stedsnr" v="769691" />
	</node>
	<node id="-701095" lat="67.6928055552" lon="12.7176638853">
		<tag k="cemetery" v="grave" />
		<tag k="name" v="Værøy kirkegård" />
		<tag k="place" v="locality" />
		<tag k="ssr:stedsnr" v="769690" />
	</node>
	<node id="-701094" lat="67.6577" lon="12.6918416701">
		<tag k="name" v="Vardan" />
		<tag k="natural" v="hill" />
		<tag k="place" v="locality" />
		<tag k="ssr:stedsnr" v="769638" />
	</node>
	<node id="-701093" lat="67.6648944408" lon="12.7092083331">
		<tag k="amenity" v="nursing_home" />
		<tag k="name" v="Værøy helseheim" />
		<tag k="ssr:stedsnr" v="769635" />
	</node>
	<node id="-701092" lat="67.7392055598" lon="12.7584750064">
		<tag k="name" v="Migan" />
		<tag k="natural" v="hill" />
		<tag k="place" v="locality" />
		<tag k="ssr:stedsnr" v="769605" />
	</node>
	<node id="-701091" lat="67.7472916683" lon="12.7557611158">
		<tag k="name" v="Nordlia" />
		<tag k="natural" v="slope" />
		<tag k="place" v="locality" />
		<tag k="ssr:stedsnr" v="769600" />
	</node>
	<node id="-701090" lat="67.672999997" lon="12.704927767">
		<tag k="name" v="Breivikbukta" />
		<tag k="natural" v="bay" />
		<tag k="ssr:stedsnr" v="767672" />
	</node>
	<node id="-701089" lat="67.6886777737" lon="12.7265888783">
		<tag k="fixme" v="consider seamark:type=rock or natural=shoal" />
		<tag k="name" v="Perjørgensaskjeret" />
		<tag k="place" v="islet" />
		<tag k="ssr:stedsnr" v="767670" />
	</node>
	<node id="-701088" lat="67.6625194423" lon="12.6473000054">
		<tag k="name" v="Hagsletta" />
		<tag k="place" v="locality" />
		<tag k="ssr:stedsnr" v="767712" />
	</node>
	<node id="-701087" lat="67.6604277746" lon="12.6460694431">
		<tag k="name" v="Saubønnan" />
		<tag k="natural" v="slope" />
		<tag k="place" v="locality" />
		<tag k="ssr:stedsnr" v="767710" />
	</node>
	<node id="-701086" lat="67.6587111154" lon="12.642749993">
		<tag k="fixme" v="consider natural=peak for the most distinct mountains in the district" />
		<tag k="name" v="Kammen" />
		<tag k="natural" v="hill" />
		<tag k="place" v="locality" />
		<tag k="ssr:stedsnr" v="767711" />
	</node>
	<node id="-701085" lat="67.5895166636" lon="12.5279055531">
		<tag k="name" v="Grunnaregga" />
		<tag k="natural" v="shoal" />
		<tag k="place" v="locality" />
		<tag k="ssr:stedsnr" v="744415" />
	</node>
	<node id="-701084" lat="67.6026444432" lon="12.5862472312">
		<tag k="name" v="Sørfallet" />
		<tag k="natural" v="shoal" />
		<tag k="place" v="locality" />
		<tag k="ssr:stedsnr" v="744389" />
	</node>
	<node id="-701083" lat="67.6535805572" lon="12.6954472227">
		<tag k="fixme" v="consider natural=peak for the most distinct mountains in the district" />
		<tag k="name" v="Klaumertinden" />
		<tag k="natural" v="hill" />
		<tag k="place" v="locality" />
		<tag k="ssr:stedsnr" v="744361" />
	</node>
	<node id="-701082" lat="67.6576277804" lon="12.7454250103">
		<tag k="name" v="Mikkjelsgrunnen" />
		<tag k="natural" v="shoal" />
		<tag k="place" v="locality" />
		<tag k="ssr:stedsnr" v="744353" />
	</node>
	<node id="-701081" lat="67.658925" lon="12.6106361054">
		<tag k="alt_name" v="Klakktuven" />
		<tag k="name" v="Klakktuva" />
		<tag k="natural" v="hill" />
		<tag k="place" v="locality" />
		<tag k="ssr:stedsnr" v="744349" />
	</node>
	<node id="-701080" lat="67.6783805544" lon="12.7341472235">
		<tag k="alt_name" v="Hundholmen" />
		<tag k="name" v="Hundholman" />
		<tag k="place" v="islet" />
		<tag k="ssr:stedsnr" v="744344" />
	</node>
	<node id="-701079" lat="67.6633444487" lon="12.7151638834">
		<tag k="fixme" v="multiple name tags, choose one and add the other to alt_name; consider natural=peak for the most distinct mountains in the district" />
		<tag k="name" v="Gullaksla;Storfjellet" />
		<tag k="natural" v="hill" />
		<tag k="place" v="locality" />
		<tag k="ssr:stedsnr" v="744340" />
	</node>
	<node id="-701078" lat="67.6546694437" lon="12.5875138789">
		<tag k="fixme" v="consider natural=peak for the most distinct mountains in the district" />
		<tag k="name" v="Breidfjellet" />
		<tag k="natural" v="hill" />
		<tag k="place" v="locality" />
		<tag k="ssr:stedsnr" v="744339" />
	</node>
	<node id="-701077" lat="67.6779583375" lon="12.7276249905">
		<tag k="fixme" v="consider seamark:type=rock or natural=shoal" />
		<tag k="name" v="Sandskjeret" />
		<tag k="place" v="islet" />
		<tag k="ssr:stedsnr" v="744325" />
	</node>
	<node id="-701076" lat="67.6756305523" lon="12.700491657">
		<tag k="alt_name" v="Alveneset" />
		<tag k="name" v="Alvneset" />
		<tag k="natural" v="cape" />
		<tag k="ssr:stedsnr" v="744323" />
	</node>
	<node id="-701075" lat="67.7316583325" lon="12.7441944426">
		<tag k="alt_name" v="Hikjelen" />
		<tag k="fixme" v="consider seamark:type=rock or natural=shoal" />
		<tag k="name" v="Hekkelen" />
		<tag k="place" v="islet" />
		<tag k="ssr:stedsnr" v="744302" />
	</node>
	<node id="-701074" lat="67.7143583356" lon="12.655627778">
		<tag k="name" v="Snøskitan" />
		<tag k="natural" v="shoal" />
		<tag k="place" v="locality" />
		<tag k="ssr:stedsnr" v="744295" />
	</node>
	<node id="-701073" lat="67.7175444418" lon="12.7063444536">
		<tag k="bay" v="fjord" />
		<tag k="name" v="Nordlandsflaget" />
		<tag k="natural" v="bay" />
		<tag k="ssr:stedsnr" v="744294" />
	</node>
	<node id="-701071" lat="67.7433333307" lon="12.7007805492">
		<tag k="name" v="Slåklakkleia" />
		<tag k="natural" v="strait" />
		<tag k="ssr:stedsnr" v="744286" />
	</node>
	<node id="-701070" lat="67.6532111078" lon="12.5721027742">
		<tag k="name" v="Branden" />
		<tag k="natural" v="hill" />
		<tag k="place" v="locality" />
		<tag k="ssr:stedsnr" v="715618" />
	</node>
	<node id="-701069" lat="67.6782527739" lon="12.6961750024">
		<tag k="name" v="Breivika" />
		<tag k="place" v="farm" />
		<tag k="ssr:stedsnr" v="714625" />
	</node>
	<node id="-701068" lat="67.6968249987" lon="12.7660361016">
		<tag k="name" v="Kvitholmen" />
		<tag k="place" v="islet" />
		<tag k="ssr:stedsnr" v="714620" />
	</node>
	<node id="-701067" lat="67.6591388926" lon="12.6050833286">
		<tag k="name" v="Sauhellaren" />
		<tag k="natural" v="hill" />
		<tag k="place" v="locality" />
		<tag k="ssr:stedsnr" v="708808" />
	</node>
	<node id="-701066" lat="67.6918000016" lon="12.7213499909">
		<tag k="name" v="Barnberget" />
		<tag k="natural" v="hill" />
		<tag k="place" v="locality" />
		<tag k="ssr:stedsnr" v="708694" />
	</node>
	<node id="-701065" lat="67.7752305521" lon="12.7558805468">
		<tag k="fixme" v="consider seamark:type=rock or natural=shoal" />
		<tag k="name" v="Buholmskaftan" />
		<tag k="place" v="islet" />
		<tag k="ssr:stedsnr" v="708671" />
	</node>
	<node id="-701064" lat="67.6607583333" lon="12.6980277883">
		<tag k="name" v="Hjellholmen" />
		<tag k="natural" v="cape" />
		<tag k="ssr:stedsnr" v="708662" />
	</node>
	<node id="-701063" lat="67.6660861133" lon="12.6889194483">
		<tag k="amenity" v="school" />
		<tag k="name" v="Værøy skole" />
		<tag k="ssr:stedsnr" v="708659" />
	</node>
	<node id="-701062" lat="67.6546444455" lon="12.7042138914">
		<tag k="name" v="Tynes" />
		<tag k="place" v="quarter" />
		<tag k="ssr:stedsnr" v="708646" />
	</node>
	<node id="-701061" lat="67.6809722208" lon="12.7089888773">
		<tag k="name" v="Vassvika" />
		<tag k="natural" v="bay" />
		<tag k="ssr:stedsnr" v="706728" />
	</node>
	<node id="-701060" lat="67.6858305599" lon="12.7073361168">
		<tag k="name" v="Gjerdbakkan" />
		<tag k="natural" v="slope" />
		<tag k="place" v="locality" />
		<tag k="ssr:stedsnr" v="706722" />
	</node>
	<node id="-701059" lat="67.6765472258" lon="12.6981138835">
		<tag k="name" v="Leite" />
		<tag k="place" v="farm" />
		<tag k="ssr:stedsnr" v="706676" />
	</node>
	<node id="-701058" lat="67.6816638891" lon="12.7166666587">
		<tag k="fixme" v="consider seamark:type=rock or natural=shoal" />
		<tag k="name" v="Oternesskjeran" />
		<tag k="place" v="islet" />
		<tag k="ssr:stedsnr" v="706662" />
	</node>
	<node id="-701057" lat="67.7941361141" lon="12.8296444522">
		<tag k="name" v="Svarvskallan" />
		<tag k="natural" v="shoal" />
		<tag k="place" v="locality" />
		<tag k="ssr:stedsnr" v="684074" />
	</node>
	<node id="-701056" lat="67.7715861145" lon="12.7577222229">
		<tag k="name" v="Buholman" />
		<tag k="place" v="islet" />
		<tag k="ssr:stedsnr" v="684058" />
	</node>
	<node id="-701055" lat="67.6326361108" lon="12.6359666612">
		<tag k="name" v="Vestrehella" />
		<tag k="natural" v="shoal" />
		<tag k="place" v="locality" />
		<tag k="ssr:stedsnr" v="683401" />
	</node>
	<node id="-701054" lat="67.6374194469" lon="12.7122777692">
		<tag k="fixme" v="consider seamark:type=rock or natural=shoal" />
		<tag k="name" v="Kvalbaken" />
		<tag k="place" v="islet" />
		<tag k="ssr:stedsnr" v="683383" />
	</node>
	<node id="-701053" lat="67.6355055531" lon="12.5964083407">
		<tag k="name" v="Storkleiva" />
		<tag k="natural" v="slope" />
		<tag k="place" v="locality" />
		<tag k="ssr:stedsnr" v="683378" />
	</node>
	<node id="-701052" lat="67.6370861079" lon="12.5964111184">
		<tag k="fixme" v="multiple name tags, choose one and add the other to alt_name" />
		<tag k="name" v="Hensneset;Mannsneset" />
		<tag k="natural" v="cape" />
		<tag k="ssr:stedsnr" v="683377" />
	</node>
	<node id="-701051" lat="67.6555583308" lon="12.5956277687">
		<tag k="name" v="Hagslett" />
		<tag k="place" v="locality" />
		<tag k="ssr:stedsnr" v="683369" />
	</node>
	<node id="-701050" lat="67.643580556" lon="12.5938166779">
		<tag k="name" v="Måstad" />
		<tag k="place" v="hamlet" />
		<tag k="ssr:stedsnr" v="683366" />
	</node>
	<node id="-701049" lat="67.6642388855" lon="12.455333342">
		<tag k="name" v="Høgtuvskallan" />
		<tag k="natural" v="shoal" />
		<tag k="place" v="locality" />
		<tag k="ssr:stedsnr" v="683359" />
	</node>
	<node id="-701048" lat="67.6842500029" lon="12.7848833229">
		<tag k="name" v="Slåklakkskallen" />
		<tag k="natural" v="shoal" />
		<tag k="place" v="locality" />
		<tag k="ssr:stedsnr" v="683351" />
	</node>
	<node id="-701047" lat="67.6690888903" lon="12.7075500009">
		<tag k="name" v="Skjersvikneset" />
		<tag k="natural" v="cape" />
		<tag k="ssr:stedsnr" v="683350" />
	</node>
	<node id="-701046" lat="67.7097861087" lon="12.7130833375">
		<tag k="name" v="Aurholmen" />
		<tag k="place" v="islet" />
		<tag k="ssr:stedsnr" v="683334" />
	</node>
	<node id="-701045" lat="67.7270833288" lon="12.5443194506">
		<tag k="name" v="Kalvvikskallan" />
		<tag k="natural" v="shoal" />
		<tag k="place" v="locality" />
		<tag k="ssr:stedsnr" v="683326" />
	</node>
	<node id="-701044" lat="67.729113886" lon="12.7418361114">
		<tag k="name" v="Langrumpholmen" />
		<tag k="place" v="islet" />
		<tag k="ssr:stedsnr" v="683322" />
	</node>
	<node id="-701043" lat="67.7364527783" lon="12.6497611109">
		<tag k="fixme" v="consider seamark:type=rock or natural=shoal" />
		<tag k="name" v="Sørleiskjeret" />
		<tag k="place" v="islet" />
		<tag k="ssr:stedsnr" v="683305" />
	</node>
	<node id="-701041" lat="67.651327775" lon="12.5638083401">
		<tag k="fixme" v="consider seamark:type=rock or natural=shoal" />
		<tag k="name" v="Nattmålsteinan" />
		<tag k="place" v="islet" />
		<tag k="ssr:stedsnr" v="654616" />
	</node>
	<node id="-701040" lat="67.6586083361" lon="12.5939333231">
		<tag k="name" v="Stranda" />
		<tag k="natural" v="beach" />
		<tag k="place" v="locality" />
		<tag k="ssr:stedsnr" v="647833" />
	</node>
	<node id="-701039" lat="67.6405166632" lon="12.6989666663">
		<tag k="name" v="Høgsandhausen" />
		<tag k="natural" v="hill" />
		<tag k="place" v="locality" />
		<tag k="ssr:stedsnr" v="647824" />
	</node>
	<node id="-701038" lat="67.63796667" lon="12.5862111223">
		<tag k="name" v="Bruna" />
		<tag k="natural" v="ridge" />
		<tag k="place" v="locality" />
		<tag k="ssr:stedsnr" v="647822" />
	</node>
	<node id="-701037" lat="67.6315888909" lon="12.5852861133">
		<tag k="name" v="Brunnesholmen" />
		<tag k="natural" v="cape" />
		<tag k="ssr:stedsnr" v="647789" />
	</node>
	<node id="-701036" lat="67.6951138861" lon="12.7428111006">
		<tag k="name" v="Båthellarneset" />
		<tag k="natural" v="cape" />
		<tag k="ssr:stedsnr" v="647711" />
	</node>
	<node id="-701034" lat="67.6569611125" lon="12.6495055544">
		<tag k="name" v="Piklia" />
		<tag k="natural" v="slope" />
		<tag k="place" v="locality" />
		<tag k="ssr:stedsnr" v="647665" />
	</node>
	<node id="-701033" lat="67.7429138907" lon="12.7552083438">
		<tag k="name" v="Korsan" />
		<tag k="natural" v="hill" />
		<tag k="place" v="locality" />
		<tag k="ssr:stedsnr" v="647609" />
	</node>
	<node id="-701032" lat="67.7472305578" lon="12.7658277812">
		<tag k="name" v="Hattbergmolla" />
		<tag k="natural" v="bay" />
		<tag k="ssr:stedsnr" v="647602" />
	</node>
	<node id="-701031" lat="67.678386113" lon="12.7082250069">
		<tag k="name" v="Nevan" />
		<tag k="natural" v="cape" />
		<tag k="ssr:stedsnr" v="645722" />
	</node>
	<node id="-701030" lat="67.670327782" lon="12.6343416578">
		<tag k="name" v="Stavan" />
		<tag k="natural" v="hill" />
		<tag k="place" v="locality" />
		<tag k="ssr:stedsnr" v="645660" />
	</node>
	<node id="-701029" lat="67.6625944481" lon="12.6825388815">
		<tag k="name" v="Brønnsvika" />
		<tag k="natural" v="bay" />
		<tag k="ssr:stedsnr" v="645606" />
	</node>
	<node id="-701028" lat="67.7874749991" lon="12.7931805451">
		<tag k="name" v="Iflesa" />
		<tag k="place" v="islet" />
		<tag k="ssr:stedsnr" v="623095" />
	</node>
	<node id="-701027" lat="67.7811444477" lon="12.8250027868">
		<tag k="name" v="Svarvan" />
		<tag k="place" v="islet" />
		<tag k="ssr:stedsnr" v="623077" />
	</node>
	<node id="-701026" lat="67.6306833352" lon="12.7010583252">
		<tag k="alt_name" v="Bordbakkskjeret" />
		<tag k="fixme" v="consider seamark:type=rock or natural=shoal" />
		<tag k="name" v="Bårbakkskjeret" />
		<tag k="place" v="islet" />
		<tag k="ssr:stedsnr" v="622420" />
	</node>
	<node id="-701025" lat="67.6296027776" lon="12.5986472268">
		<tag k="name" v="Månesbåan" />
		<tag k="natural" v="shoal" />
		<tag k="place" v="locality" />
		<tag k="ssr:stedsnr" v="622416" />
	</node>
	<node id="-701024" lat="67.6037527759" lon="12.6076111063">
		<tag k="name" v="Gullfiskskallen" />
		<tag k="natural" v="shoal" />
		<tag k="place" v="locality" />
		<tag k="ssr:stedsnr" v="622413" />
	</node>
	<node id="-701023" lat="67.6092472239" lon="12.5756361094">
		<tag k="fixme" v="consider seamark:type=rock or natural=shoal" />
		<tag k="name" v="Kallen" />
		<tag k="place" v="islet" />
		<tag k="ssr:stedsnr" v="622405" />
	</node>
	<node id="-701022" lat="67.6425555597" lon="12.7137833388">
		<tag k="fixme" v="consider seamark:type=rock or natural=shoal" />
		<tag k="name" v="Tindskjeret" />
		<tag k="place" v="islet" />
		<tag k="ssr:stedsnr" v="622400" />
	</node>
	<node id="-701021" lat="67.6404638923" lon="12.5948638908">
		<tag k="name" v="Staupan" />
		<tag k="place" v="locality" />
		<tag k="ssr:stedsnr" v="622385" />
	</node>
	<node id="-701019" lat="67.6728777775" lon="12.7353361021">
		<tag k="name" v="Drangen" />
		<tag k="place" v="islet" />
		<tag k="ssr:stedsnr" v="622372" />
	</node>
	<node id="-701018" lat="67.663597222" lon="12.738274991">
		<tag k="name" v="Erikflua" />
		<tag k="natural" v="shoal" />
		<tag k="place" v="locality" />
		<tag k="ssr:stedsnr" v="622368" />
	</node>
	<node id="-701017" lat="67.7028277751" lon="12.5823805444">
		<tag k="alt_name" v="Flesa" />
		<tag k="fixme" v="consider seamark:type=rock or natural=shoal" />
		<tag k="name" v="Ytreflesa" />
		<tag k="place" v="islet" />
		<tag k="ssr:stedsnr" v="622343" />
	</node>
	<node id="-701016" lat="67.6539555597" lon="12.5870972149">
		<tag k="name" v="Breifjellmoan" />
		<tag k="place" v="locality" />
		<tag k="ssr:stedsnr" v="586816" />
	</node>
	<node id="-701015" lat="67.6918666688" lon="12.6841416787">
		<tag k="name" v="Bogen" />
		<tag k="natural" v="bay" />
		<tag k="ssr:stedsnr" v="586691" />
	</node>
	<node id="-701014" lat="67.692086108" lon="12.7162916726">
		<tag k="name" v="Vardetjønna" />
		<tag k="natural" v="water" />
		<tag k="ssr:stedsnr" v="586685" />
	</node>
	<node id="-701013" lat="67.7536888928" lon="12.7576333442">
		<tag k="name" v="Hanslian" />
		<tag k="natural" v="slope" />
		<tag k="place" v="locality" />
		<tag k="ssr:stedsnr" v="586678" />
	</node>
	<node id="-701012" lat="67.7522805575" lon="12.7543583226">
		<tag k="name" v="Hanslistranden" />
		<tag k="natural" v="beach" />
		<tag k="place" v="locality" />
		<tag k="ssr:stedsnr" v="586676" />
	</node>
	<node id="-701011" lat="67.7496555578" lon="12.753450009">
		<tag k="name" v="Yttersanden" />
		<tag k="natural" v="beach" />
		<tag k="place" v="locality" />
		<tag k="ssr:stedsnr" v="586674" />
	</node>
	<node id="-701010" lat="67.749044444" lon="12.754099994">
		<tag k="name" v="Ramnhågen" />
		<tag k="natural" v="hill" />
		<tag k="place" v="locality" />
		<tag k="ssr:stedsnr" v="586673" />
	</node>
	<node id="-701009" lat="67.6547222242" lon="12.6510722264">
		<tag k="name" v="Skathalsen" />
		<tag k="natural" v="valley" />
		<tag k="place" v="locality" />
		<tag k="ssr:stedsnr" v="586659" />
	</node>
	<node id="-701008" lat="67.6528861082" lon="12.6971944336">
		<tag k="fixme" v="consider natural=peak for the most distinct mountains in the district" />
		<tag k="name" v="Yttertinden" />
		<tag k="natural" v="hill" />
		<tag k="place" v="locality" />
		<tag k="ssr:stedsnr" v="586639" />
	</node>
	<node id="-701007" lat="67.7415083309" lon="12.748361104">
		<tag k="name" v="Sørsanden" />
		<tag k="natural" v="beach" />
		<tag k="place" v="locality" />
		<tag k="ssr:stedsnr" v="586596" />
	</node>
	<node id="-701006" lat="67.6657750012" lon="12.6514583347">
		<tag k="name" v="Hagmolla" />
		<tag k="place" v="locality" />
		<tag k="ssr:stedsnr" v="585696" />
	</node>
	<node id="-701005" lat="67.671347219" lon="12.6296833298">
		<tag k="name" v="Saubønnan" />
		<tag k="natural" v="slope" />
		<tag k="place" v="locality" />
		<tag k="ssr:stedsnr" v="585683" />
	</node>
	<node id="-701004" lat="67.671558332" lon="12.6579361124">
		<tag k="name" v="Hagskaret" />
		<tag k="natural" v="valley" />
		<tag k="place" v="locality" />
		<tag k="ssr:stedsnr" v="585653" />
	</node>
	<node id="-701003" lat="67.7430583303" lon="12.606366658">
		<tag k="name" v="Nordhandtaren" />
		<tag k="natural" v="shoal" />
		<tag k="place" v="locality" />
		<tag k="ssr:stedsnr" v="562327" />
	</node>
	<node id="-701002" lat="67.6394055519" lon="12.5992166672">
		<tag k="fixme" v="consider natural=peak for the most distinct mountains in the district" />
		<tag k="name" v="Tinden" />
		<tag k="natural" v="hill" />
		<tag k="place" v="locality" />
		<tag k="ssr:stedsnr" v="561418" />
	</node>
	<node id="-701001" lat="67.6450472194" lon="12.7046083287">
		<tag k="name" v="Kvalneset" />
		<tag k="natural" v="cape" />
		<tag k="ssr:stedsnr" v="561412" />
	</node>
	<node id="-701000" lat="67.6498472197" lon="12.7521166756">
		<tag k="name" v="Tverrbergskallen" />
		<tag k="natural" v="shoal" />
		<tag k="place" v="locality" />
		<tag k="ssr:stedsnr" v="561413" />
	</node>
	<node id="-700998" lat="67.6356916668" lon="12.6908722174">
		<tag k="fixme" v="consider seamark:type=rock or natural=shoal" />
		<tag k="name" v="Oddskjeran" />
		<tag k="place" v="islet" />
		<tag k="ssr:stedsnr" v="561409" />
	</node>
	<node id="-700997" lat="67.6458027799" lon="12.6543972275">
		<tag k="fixme" v="consider seamark:type=rock or natural=shoal" />
		<tag k="name" v="Delskjeran" />
		<tag k="place" v="islet" />
		<tag k="ssr:stedsnr" v="561399" />
	</node>
	<node id="-700996" lat="67.6616277788" lon="12.5790694381">
		<tag k="name" v="Fløa" />
		<tag k="natural" v="shoal" />
		<tag k="place" v="locality" />
		<tag k="ssr:stedsnr" v="561389" />
	</node>
	<node id="-700995" lat="67.663349996" lon="12.6858361015">
		<tag k="name" v="Stølen" />
		<tag k="place" v="farm" />
		<tag k="ssr:stedsnr" v="561380" />
	</node>
	<node id="-700994" lat="67.6704222215" lon="12.6570111016">
		<tag k="name" v="Tverrberget" />
		<tag k="natural" v="hill" />
		<tag k="place" v="locality" />
		<tag k="ssr:stedsnr" v="561376" />
	</node>
	<node id="-700993" lat="67.735588892" lon="12.6534638873">
		<tag k="name" v="Sørleia" />
		<tag k="natural" v="strait" />
		<tag k="ssr:stedsnr" v="561342" />
	</node>
	<node id="-700992" lat="67.6121055562" lon="12.5584388852">
		<tag k="name" v="Veltan" />
		<tag k="natural" v="shoal" />
		<tag k="place" v="locality" />
		<tag k="ssr:stedsnr" v="533642" />
	</node>
	<node id="-700991" lat="67.6528972266" lon="12.579258324">
		<tag k="name" v="Nordlandsura" />
		<tag k="natural" v="scree" />
		<tag k="ssr:stedsnr" v="526824" />
	</node>
	<node id="-700990" lat="67.6462611109" lon="12.7168194481">
		<tag k="name" v="Littj-Seiklakken" />
		<tag k="place" v="islet" />
		<tag k="ssr:stedsnr" v="526820" />
	</node>
	<node id="-700989" lat="67.646161111" lon="12.5651916581">
		<tag k="name" v="Krykkjebakkan" />
		<tag k="natural" v="slope" />
		<tag k="place" v="locality" />
		<tag k="ssr:stedsnr" v="526795" />
	</node>
	<node id="-700988" lat="67.6939083335" lon="12.7174388994">
		<tag k="name" v="Ebergan" />
		<tag k="natural" v="hill" />
		<tag k="place" v="locality" />
		<tag k="ssr:stedsnr" v="526696" />
	</node>
	<node id="-700987" lat="67.7461416688" lon="12.74010278">
		<tag k="fixme" v="consider seamark:type=rock or natural=shoal" />
		<tag k="name" v="Steffenliskjeret" />
		<tag k="place" v="islet" />
		<tag k="ssr:stedsnr" v="526690" />
	</node>
	<node id="-700986" lat="67.7460805592" lon="12.7454833325">
		<tag k="name" v="Steffenlia" />
		<tag k="natural" v="slope" />
		<tag k="place" v="locality" />
		<tag k="ssr:stedsnr" v="526689" />
	</node>
	<node id="-700985" lat="67.6555111084" lon="12.6847916726">
		<tag k="name" v="Grindvika" />
		<tag k="natural" v="bay" />
		<tag k="ssr:stedsnr" v="526666" />
	</node>
	<node id="-700984" lat="67.6528861109" lon="12.7226861037">
		<tag k="name" v="Langodden" />
		<tag k="natural" v="cape" />
		<tag k="ssr:stedsnr" v="526653" />
	</node>
	<node id="-700983" lat="67.6892527803" lon="12.6998694501">
		<tag k="fixme" v="consider natural=peak for the most distinct mountains in the district" />
		<tag k="name" v="Nordlandsaksla" />
		<tag k="natural" v="hill" />
		<tag k="place" v="locality" />
		<tag k="ssr:stedsnr" v="524696" />
	</node>
	<node id="-700982" lat="67.6678861135" lon="12.6721055446">
		<tag k="name" v="Austervågen" />
		<tag k="natural" v="bay" />
		<tag k="ssr:stedsnr" v="524690" />
	</node>
	<node id="-700981" lat="67.664158331" lon="12.6173138925">
		<tag k="name" v="Hundsloppan" />
		<tag k="natural" v="slope" />
		<tag k="place" v="locality" />
		<tag k="ssr:stedsnr" v="524679" />
	</node>
	<node id="-700980" lat="67.686213893" lon="12.7210416572">
		<tag k="fixme" v="consider seamark:type=rock or natural=shoal" />
		<tag k="name" v="Teisthammarskjeran" />
		<tag k="place" v="islet" />
		<tag k="ssr:stedsnr" v="524646" />
	</node>
	<node id="-700979" lat="67.6730777814" lon="12.6761722123">
		<tag k="name" v="Marka" />
		<tag k="place" v="locality" />
		<tag k="ssr:stedsnr" v="524639" />
	</node>
	<node id="-700978" lat="67.6723750006" lon="12.6503750088">
		<tag k="name" v="Bjørka" />
		<tag k="natural" v="slope" />
		<tag k="place" v="locality" />
		<tag k="ssr:stedsnr" v="524635" />
	</node>
	<node id="-700977" lat="67.6237916674" lon="12.529097218">
		<tag k="name" v="Svadbruna" />
		<tag k="natural" v="shoal" />
		<tag k="place" v="locality" />
		<tag k="ssr:stedsnr" v="501409" />
	</node>
	<node id="-700976" lat="67.6359777817" lon="12.6985388859">
		<tag k="alt_name" v="Svartskjeran" />
		<tag k="fixme" v="consider seamark:type=rock or natural=shoal" />
		<tag k="name" v="Svartskjeret" />
		<tag k="place" v="islet" />
		<tag k="ssr:stedsnr" v="501386" />
	</node>
	<node id="-700975" lat="67.6317083346" lon="12.5956444375">
		<tag k="name" v="Månestuva" />
		<tag k="natural" v="hill" />
		<tag k="place" v="locality" />
		<tag k="ssr:stedsnr" v="501381" />
	</node>
	<node id="-700974" lat="67.6366277778" lon="12.639744438">
		<tag k="name" v="Fauskan" />
		<tag k="natural" v="shoal" />
		<tag k="place" v="locality" />
		<tag k="ssr:stedsnr" v="501378" />
	</node>
	<node id="-700973" lat="67.6566083376" lon="12.6455555487">
		<tag k="alt_name" v="Tjyvskaret" />
		<tag k="name" v="Tjuvskardet" />
		<tag k="natural" v="valley" />
		<tag k="place" v="locality" />
		<tag k="ssr:stedsnr" v="501374" />
	</node>
	<node id="-700972" lat="67.6533777811" lon="12.5699388866">
		<tag k="name" v="Knappen" />
		<tag k="natural" v="cape" />
		<tag k="ssr:stedsnr" v="501363" />
	</node>
	<node id="-700971" lat="67.6709722207" lon="12.6211305535">
		<tag k="name" v="Slettstranda" />
		<tag k="natural" v="beach" />
		<tag k="place" v="locality" />
		<tag k="ssr:stedsnr" v="501357" />
	</node>
	<node id="-700970" lat="67.6953833309" lon="12.7369972326">
		<tag k="name" v="Lamholmen" />
		<tag k="place" v="islet" />
		<tag k="ssr:stedsnr" v="501344" />
	</node>
	<node id="-700969" lat="67.6894194407" lon="12.6849722123">
		<tag k="name" v="Gåstjønna" />
		<tag k="natural" v="water" />
		<tag k="ssr:stedsnr" v="501336" />
	</node>
	<node id="-700968" lat="67.6825472212" lon="12.6501388778">
		<tag k="name" v="Skiphalsen" />
		<tag k="natural" v="cape" />
		<tag k="ssr:stedsnr" v="501334" />
	</node>
	<node id="-700967" lat="67.7373666663" lon="12.6571277802">
		<tag k="name" v="Sørholmen" />
		<tag k="place" v="islet" />
		<tag k="ssr:stedsnr" v="501328" />
	</node>
	<node id="-700966" lat="67.720666665" lon="12.5101694436">
		<tag k="name" v="Ytretusskallen" />
		<tag k="natural" v="shoal" />
		<tag k="place" v="locality" />
		<tag k="ssr:stedsnr" v="501319" />
	</node>
	<node id="-700965" lat="67.7393555564" lon="12.6649027693">
		<tag k="name" v="Nordnakken" />
		<tag k="place" v="islet" />
		<tag k="ssr:stedsnr" v="501311" />
	</node>
	<node id="-700964" lat="67.7380750037" lon="12.6615750052">
		<tag k="name" v="Skarvholman" />
		<tag k="place" v="island" />
		<tag k="ssr:stedsnr" v="472247" />
	</node>
	<node id="-700963" lat="67.6579666622" lon="12.7222416747">
		<tag k="name" v="Torvvågen" />
		<tag k="natural" v="bay" />
		<tag k="ssr:stedsnr" v="471652" />
	</node>
	<node id="-700962" lat="67.6495555535" lon="12.5827138929">
		<tag k="fixme" v="consider natural=peak for the most distinct mountains in the district" />
		<tag k="name" v="Lundsteinen" />
		<tag k="natural" v="hill" />
		<tag k="place" v="locality" />
		<tag k="ssr:stedsnr" v="465825" />
	</node>
	<node id="-700961" lat="67.6429222219" lon="12.5615638976">
		<tag k="fixme" v="consider seamark:type=rock or natural=shoal" />
		<tag k="name" v="Krykkjesteinan" />
		<tag k="place" v="islet" />
		<tag k="ssr:stedsnr" v="465777" />
	</node>
	<node id="-700960" lat="67.6966527758" lon="12.7378916694">
		<tag k="name" v="Nordsundet" />
		<tag k="natural" v="strait" />
		<tag k="ssr:stedsnr" v="465697" />
	</node>
	<node id="-700959" lat="67.66740556" lon="12.6989138811">
		<tag k="name" v="Tjyvberget" />
		<tag k="natural" v="hill" />
		<tag k="place" v="locality" />
		<tag k="ssr:stedsnr" v="465661" />
	</node>
	<node id="-700958" lat="67.6905833307" lon="12.6759305494">
		<tag k="name" v="Kvilsteinan" />
		<tag k="natural" v="stone" />
		<tag k="ssr:stedsnr" v="465644" />
	</node>
	<node id="-700957" lat="67.6585472236" lon="12.7148555624">
		<tag k="name" v="Venes" />
		<tag k="place" v="quarter" />
		<tag k="ssr:stedsnr" v="465634" />
	</node>
	<node id="-700956" lat="67.683902775" lon="12.7054916716">
		<tag k="name" v="Høggjerdan" />
		<tag k="place" v="locality" />
		<tag k="ssr:stedsnr" v="464738" />
	</node>
	<node id="-700955" lat="67.6695499962" lon="12.7020777873">
		<tag k="name" v="Einingan" />
		<tag k="place" v="locality" />
		<tag k="ssr:stedsnr" v="464700" />
	</node>
	<node id="-700954" lat="67.6604166693" lon="12.6333805471">
		<tag k="name" v="Repphellaren" />
		<tag k="natural" v="hill" />
		<tag k="place" v="locality" />
		<tag k="ssr:stedsnr" v="464730" />
	</node>
	<node id="-700953" lat="67.6670444407" lon="12.6202555548">
		<tag k="name" v="Helveteshågen" />
		<tag k="natural" v="hill" />
		<tag k="place" v="locality" />
		<tag k="ssr:stedsnr" v="464727" />
	</node>
	<node id="-700952" lat="67.7607750031" lon="12.7855583261">
		<tag k="name" v="Forhammarbåen" />
		<tag k="natural" v="shoal" />
		<tag k="place" v="locality" />
		<tag k="ssr:stedsnr" v="442089" />
	</node>
	<node id="-700951" lat="67.7766694473" lon="12.7444444555">
		<tag k="name" v="Buholmskallan" />
		<tag k="natural" v="shoal" />
		<tag k="place" v="locality" />
		<tag k="ssr:stedsnr" v="442086" />
	</node>
	<node id="-700950" lat="67.6108027805" lon="12.5986777755">
		<tag k="name" v="Heimrefallet" />
		<tag k="natural" v="shoal" />
		<tag k="place" v="locality" />
		<tag k="ssr:stedsnr" v="441420" />
	</node>
	<node id="-700949" lat="67.6405527813" lon="12.6728805607">
		<tag k="name" v="Austrehella" />
		<tag k="natural" v="shoal" />
		<tag k="place" v="locality" />
		<tag k="ssr:stedsnr" v="441408" />
	</node>
	<node id="-700948" lat="67.6494138867" lon="12.5744055471">
		<tag k="alt_name" v="Lundurda" />
		<tag k="name" v="Lundura" />
		<tag k="natural" v="scree" />
		<tag k="ssr:stedsnr" v="441397" />
	</node>
	<node id="-700947" lat="67.6723499993" lon="12.7031444394">
		<tag k="name" v="Skjersvika" />
		<tag k="natural" v="bay" />
		<tag k="ssr:stedsnr" v="440397" />
	</node>
	<node id="-700946" lat="67.6933305587" lon="12.7255249887">
		<tag k="name" v="Prestholmen" />
		<tag k="natural" v="cape" />
		<tag k="ssr:stedsnr" v="440392" />
	</node>
	<node id="-700945" lat="67.6544972246" lon="12.7268222212">
		<tag k="aeroway" v="aerodrome" />
		<tag k="alt_name" v="Tabbisodden" />
		<tag k="name" v="Værøy helikopterhavn, Tabbisodden" />
		<tag k="old_name" v="Værøy helikopterplass" />
		<tag k="ssr:stedsnr" v="440381" />
	</node>
	<node id="-700944" lat="67.7160194448" lon="12.7920638868">
		<tag k="alt_name" v="Flesa" />
		<tag k="fixme" v="consider seamark:type=rock or natural=shoal" />
		<tag k="name" v="Indreflesa" />
		<tag k="place" v="islet" />
		<tag k="ssr:stedsnr" v="440375" />
	</node>
	<node id="-700943" lat="67.7127666689" lon="12.5328361137">
		<tag k="alt_name" v="Tusskallan" />
		<tag k="name" v="Tusskallen" />
		<tag k="natural" v="shoal" />
		<tag k="place" v="locality" />
		<tag k="ssr:stedsnr" v="440374" />
	</node>
	<node id="-700942" lat="67.758233335" lon="12.7729277836">
		<tag k="name" v="Forhammaren" />
		<tag k="place" v="islet" />
		<tag k="ssr:stedsnr" v="260100" />
	</node>
	<node id="-700941" lat="67.6436055526" lon="12.7282833437">
		<tag k="name" v="Sørlandsvågen" />
		<tag k="natural" v="bay" />
		<tag k="ssr:stedsnr" v="258409" />
	</node>
	<node id="-700940" lat="67.6786111134" lon="12.7390361046">
		<tag k="alt_name" v="Vettmålskjeret" />
		<tag k="fixme" v="consider seamark:type=rock or natural=shoal" />
		<tag k="name" v="Vetmålsskjeret" />
		<tag k="place" v="islet" />
		<tag k="ssr:stedsnr" v="258394" />
	</node>
	<node id="-700939" lat="67.6552555517" lon="12.5768222146">
		<tag k="alt_name" v="Svaneset" />
		<tag k="name" v="Svadneset" />
		<tag k="natural" v="cape" />
		<tag k="ssr:stedsnr" v="258387" />
	</node>
	<node id="-700938" lat="67.6656000026" lon="12.6754472304">
		<tag k="name" v="Holmen" />
		<tag k="natural" v="cape" />
		<tag k="ssr:stedsnr" v="258385" />
	</node>
	<node id="-700937" lat="67.6826222203" lon="12.6734111073">
		<tag k="fixme" v="consider natural=peak for the most distinct mountains in the district" />
		<tag k="name" v="Gjerdheia" />
		<tag k="natural" v="hill" />
		<tag k="place" v="locality" />
		<tag k="ssr:stedsnr" v="258372" />
	</node>
	<node id="-700936" lat="67.6868194421" lon="12.671980557">
		<tag k="name" v="Sandtjønna" />
		<tag k="natural" v="water" />
		<tag k="ssr:stedsnr" v="258364" />
	</node>
	<node id="-700935" lat="67.6891888858" lon="12.6750305507">
		<tag k="name" v="Ørntuva" />
		<tag k="natural" v="hill" />
		<tag k="place" v="locality" />
		<tag k="ssr:stedsnr" v="258360" />
	</node>
	<node id="-700934" lat="67.6917777751" lon="12.6905277668">
		<tag k="name" v="Grindgården" />
		<tag k="place" v="farm" />
		<tag k="ssr:stedsnr" v="258361" />
	</node>
	<node id="-700933" lat="67.7319416685" lon="12.5599138815">
		<tag k="name" v="Sørhandtaren" />
		<tag k="natural" v="shoal" />
		<tag k="place" v="locality" />
		<tag k="ssr:stedsnr" v="258348" />
	</node>
	<node id="-700932" lat="67.7456972233" lon="12.7120444546">
		<tag k="alt_name" v="Austerslåklakken" />
		<tag k="name" v="Austreslåklakken" />
		<tag k="place" v="islet" />
		<tag k="ssr:stedsnr" v="258347" />
	</node>
	<node id="-700931" lat="67.6445388897" lon="12.5616583294">
		<tag k="name" v="Eldsneset" />
		<tag k="natural" v="cape" />
		<tag k="ssr:stedsnr" v="230594" />
	</node>
	<node id="-700930" lat="67.7348027822" lon="12.8076166712">
		<tag k="name" v="Brunskallen" />
		<tag k="natural" v="shoal" />
		<tag k="place" v="locality" />
		<tag k="ssr:stedsnr" v="229259" />
	</node>
	<node id="-700929" lat="67.6545694431" lon="12.583119434">
		<tag k="name" v="Svaan" />
		<tag k="natural" v="slope" />
		<tag k="place" v="locality" />
		<tag k="ssr:stedsnr" v="223844" />
	</node>
	<node id="-700928" lat="67.646544446" lon="12.6988277766">
		<tag k="fixme" v="consider natural=peak for the most distinct mountains in the district" />
		<tag k="name" v="Statsfjellet" />
		<tag k="natural" v="hill" />
		<tag k="place" v="locality" />
		<tag k="ssr:stedsnr" v="223841" />
	</node>
	<node id="-700927" lat="67.6366249984" lon="12.6959777682">
		<tag k="name" v="Oddsundet" />
		<tag k="natural" v="strait" />
		<tag k="ssr:stedsnr" v="223839" />
	</node>
	<node id="-700926" lat="67.6861805583" lon="12.67993055">
		<tag k="name" v="Djupbekkerhågen" />
		<tag k="natural" v="hill" />
		<tag k="place" v="locality" />
		<tag k="ssr:stedsnr" v="223762" />
	</node>
	<node id="-700925" lat="67.6916388861" lon="12.7003916742">
		<tag k="name" v="Olsdalen" />
		<tag k="natural" v="valley" />
		<tag k="place" v="locality" />
		<tag k="ssr:stedsnr" v="223723" />
	</node>
	<node id="-700924" lat="67.7481138909" lon="12.7517500074">
		<tag k="name" v="Bukksætan" />
		<tag k="natural" v="slope" />
		<tag k="place" v="locality" />
		<tag k="ssr:stedsnr" v="223717" />
	</node>
	<node id="-700923" lat="67.7728555595" lon="12.7608250061">
		<tag k="name" v="Nordbuholmen" />
		<tag k="place" v="islet" />
		<tag k="ssr:stedsnr" v="223707" />
	</node>
	<node id="-700922" lat="67.6682194484" lon="12.7031750086">
		<tag k="name" v="Gångskaret" />
		<tag k="natural" v="valley" />
		<tag k="place" v="locality" />
		<tag k="ssr:stedsnr" v="223703" />
	</node>
	<node id="-700921" lat="67.6738861112" lon="12.6283194555">
		<tag k="fixme" v="multiple name tags, choose one and add the other to alt_name" />
		<tag k="name" v="Kalvvika;Kavringmolla" />
		<tag k="natural" v="bay" />
		<tag k="ssr:stedsnr" v="223702" />
	</node>
	<node id="-700920" lat="67.659397218" lon="12.681744442">
		<tag k="name" v="Sørvika" />
		<tag k="natural" v="bay" />
		<tag k="ssr:stedsnr" v="223691" />
	</node>
	<node id="-700919" lat="67.7394499994" lon="12.7566277786">
		<tag k="name" v="Råkhalsen" />
		<tag k="natural" v="valley" />
		<tag k="place" v="locality" />
		<tag k="ssr:stedsnr" v="223639" />
	</node>
	<node id="-700918" lat="67.7418666642" lon="12.7444444359">
		<tag k="name" v="Teistberget" />
		<tag k="natural" v="hill" />
		<tag k="place" v="locality" />
		<tag k="ssr:stedsnr" v="223636" />
	</node>
	<node id="-700917" lat="67.744147225" lon="12.7588555595">
		<tag k="fixme" v="consider natural=peak for the most distinct mountains in the district" />
		<tag k="name" v="Fuggelheia" />
		<tag k="natural" v="hill" />
		<tag k="place" v="locality" />
		<tag k="ssr:stedsnr" v="223637" />
	</node>
	<node id="-700916" lat="67.7446972215" lon="12.7669694455">
		<tag k="name" v="Alkhalsen" />
		<tag k="natural" v="valley" />
		<tag k="place" v="locality" />
		<tag k="ssr:stedsnr" v="223633" />
	</node>
	<node id="-700915" lat="67.6827583361" lon="12.7088638961">
		<tag k="name" v="Oternesan" />
		<tag k="natural" v="cape" />
		<tag k="ssr:stedsnr" v="221687" />
	</node>
	<node id="-700914" lat="67.6758138887" lon="12.6449333247">
		<tag k="name" v="Rømdalen" />
		<tag k="natural" v="valley" />
		<tag k="place" v="locality" />
		<tag k="ssr:stedsnr" v="221629" />
	</node>
	<node id="-700912" lat="67.5750500024" lon="12.4399861089">
		<tag k="name" v="Røsthavet" />
		<tag k="place" v="sea" />
		<tag k="ssr:stedsnr" v="198400" />
	</node>
	<node id="-700911" lat="67.6145194483" lon="12.6125333335">
		<tag k="name" v="Torbåan" />
		<tag k="natural" v="shoal" />
		<tag k="place" v="locality" />
		<tag k="ssr:stedsnr" v="198395" />
	</node>
	<node id="-700910" lat="67.6527305597" lon="12.6178083446">
		<tag k="alt_name" v="Måstadbukta" />
		<tag k="name" v="Måstadvika" />
		<tag k="natural" v="bay" />
		<tag k="ssr:stedsnr" v="198372" />
	</node>
	<node id="-700909" lat="67.6482138876" lon="12.5950638854">
		<tag k="fixme" v="multiple name tags, choose one and add the other to alt_name" />
		<tag k="name" v="Oterberget;Storhaugen" />
		<tag k="natural" v="hill" />
		<tag k="place" v="locality" />
		<tag k="ssr:stedsnr" v="198369" />
	</node>
	<node id="-700908" lat="67.6514222203" lon="12.6526055526">
		<tag k="name" v="Nupsneset" />
		<tag k="natural" v="cape" />
		<tag k="ssr:stedsnr" v="198366" />
	</node>
	<node id="-700907" lat="67.6485638872" lon="12.6982055489">
		<tag k="fixme" v="consider natural=peak for the most distinct mountains in the district" />
		<tag k="name" v="Sålbotstinden" />
		<tag k="natural" v="hill" />
		<tag k="place" v="locality" />
		<tag k="ssr:stedsnr" v="198363" />
	</node>
	<node id="-700906" lat="67.6426777799" lon="12.5711361">
		<tag k="alt_name" v="Rødlii;Rødlibergan" />
		<tag k="name" v="Røliberget" />
		<tag k="natural" v="hill" />
		<tag k="place" v="locality" />
		<tag k="ssr:stedsnr" v="198360" />
	</node>
	<node id="-700905" lat="67.6625555534" lon="12.6139138833">
		<tag k="alt_name" v="Yttertussen" />
		<tag k="name" v="Ytretussen" />
		<tag k="natural" v="cape" />
		<tag k="ssr:stedsnr" v="198358" />
	</node>
	<node id="-700904" lat="67.6635527745" lon="12.6268833222">
		<tag k="fixme" v="multiple name tags, choose one and add the other to alt_name; consider natural=peak for the most distinct mountains in the district" />
		<tag k="name" v="Håen;Håtua" />
		<tag k="natural" v="hill" />
		<tag k="place" v="locality" />
		<tag k="ssr:stedsnr" v="198355" />
	</node>
	<node id="-700903" lat="67.6664222249" lon="12.6354194346">
		<tag k="fixme" v="multiple name tags, choose one and add the other to alt_name; consider natural=peak for the most distinct mountains in the district" />
		<tag k="name" v="Heia;Håheia" />
		<tag k="natural" v="hill" />
		<tag k="place" v="locality" />
		<tag k="ssr:stedsnr" v="198354" />
	</node>
	<node id="-700902" lat="67.6778000025" lon="12.6640000024">
		<tag k="alt_name" v="Værøy" />
		<tag k="name" v="Værøya" />
		<tag k="place" v="island" />
		<tag k="ssr:stedsnr" v="198346" />
	</node>
	<node id="-700901" lat="67.6656361094" lon="12.6978388885">
		<tag k="name" v="Sørland" />
		<tag k="place" v="village" />
		<tag k="ssr:stedsnr" v="198332" />
	</node>
	<node id="-700900" lat="67.7334472259" lon="12.7019749911">
		<tag k="alt_name" v="Kullskjeret" />
		<tag k="fixme" v="consider seamark:type=rock or natural=shoal" />
		<tag k="name" v="Kolskjeret" />
		<tag k="place" v="islet" />
		<tag k="ssr:stedsnr" v="198316" />
	</node>
	<node id="-700899" lat="67.7465611108" lon="12.6976583251">
		<tag k="alt_name" v="Vesterslåklakken" />
		<tag k="fixme" v="multiple name tags, choose one and add the other to alt_name" />
		<tag k="name" v="Slåklakkan;Vestreslåklakken" />
		<tag k="place" v="islet" />
		<tag k="ssr:stedsnr" v="198311" />
	</node>
	<node id="-700898" lat="67.7481250039" lon="12.751822223">
		<tag k="name" v="Salen" />
		<tag k="natural" v="hill" />
		<tag k="place" v="locality" />
		<tag k="ssr:stedsnr" v="198309" />
	</node>
	<node id="-700897" lat="67.6164277782" lon="12.5186388972">
		<tag k="alt_name" v="Rørliskallan" />
		<tag k="name" v="Røliskallan" />
		<tag k="natural" v="shoal" />
		<tag k="place" v="locality" />
		<tag k="ssr:stedsnr" v="198413" />
	</node>
	<node id="-700896" lat="67.6146249994" lon="12.5647166765">
		<tag k="name" v="Kalltåga" />
		<tag k="natural" v="shoal" />
		<tag k="place" v="locality" />
		<tag k="ssr:stedsnr" v="198414" />
	</node>
	<node id="-700895" lat="67.5994416631" lon="12.6131694383">
		<tag k="name" v="Foten" />
		<tag k="natural" v="shoal" />
		<tag k="place" v="locality" />
		<tag k="ssr:stedsnr" v="198403" />
	</node>
	<node id="-700894" lat="67.6337000003" lon="12.5925861024">
		<tag k="name" v="Osætan" />
		<tag k="natural" v="hill" />
		<tag k="place" v="locality" />
		<tag k="ssr:stedsnr" v="162822" />
	</node>
	<node id="-700893" lat="67.641602778" lon="12.5712000093">
		<tag k="fixme" v="consider seamark:type=rock or natural=shoal" />
		<tag k="name" v="Omfløddholmen" />
		<tag k="place" v="islet" />
		<tag k="ssr:stedsnr" v="162806" />
	</node>
	<node id="-700892" lat="67.6823388917" lon="12.6468527835">
		<tag k="name" v="Storura" />
		<tag k="natural" v="scree" />
		<tag k="ssr:stedsnr" v="162748" />
	</node>
	<node id="-700891" lat="67.6913749964" lon="12.7083305531">
		<tag k="name" v="Kildmyra" />
		<tag k="natural" v="wetland" />
		<tag k="ssr:stedsnr" v="162711" />
	</node>
	<node id="-700890" lat="67.6643527757" lon="12.7084361126">
		<tag k="name" v="Vågstranda" />
		<tag k="place" v="quarter" />
		<tag k="ssr:stedsnr" v="162673" />
	</node>
	<node id="-700889" lat="67.6638666632" lon="12.7044944458">
		<tag k="name" v="Leiran" />
		<tag k="place" v="locality" />
		<tag k="ssr:stedsnr" v="162672" />
	</node>
	<node id="-700888" lat="67.7378555552" lon="12.7560944485">
		<tag k="fixme" v="consider seamark:type=rock or natural=shoal" />
		<tag k="name" v="Migskjeret" />
		<tag k="place" v="islet" />
		<tag k="ssr:stedsnr" v="162636" />
	</node>
	<node id="-700887" lat="67.7437416661" lon="12.752288893">
		<tag k="name" v="Dalen" />
		<tag k="natural" v="valley" />
		<tag k="place" v="locality" />
		<tag k="ssr:stedsnr" v="162630" />
	</node>
	<node id="-700886" lat="67.7402194399" lon="12.7648638933">
		<tag k="name" v="Austlimolla" />
		<tag k="natural" v="bay" />
		<tag k="ssr:stedsnr" v="162628" />
	</node>
	<node id="-700885" lat="67.6890972265" lon="12.709780559">
		<tag k="name" v="Stor-Andneven" />
		<tag k="natural" v="slope" />
		<tag k="place" v="locality" />
		<tag k="ssr:stedsnr" v="160691" />
	</node>
	<node id="-700884" lat="67.6612222184" lon="12.6216694358">
		<tag k="name" v="Grotte" />
		<tag k="natural" v="cave_entrance" />
		<tag k="ssr:stedsnr" v="160683" />
	</node>
	<node id="-700883" lat="67.6317277794" lon="12.5958027721">
		<tag k="alt_name" v="Måneset" />
		<tag k="name" v="Månesodden" />
		<tag k="natural" v="cape" />
		<tag k="ssr:stedsnr" v="137417" />
	</node>
	<node id="-700882" lat="67.6303805525" lon="12.5879055665">
		<tag k="fixme" v="consider seamark:type=rock or natural=shoal" />
		<tag k="name" v="Rubbelskjeret" />
		<tag k="place" v="islet" />
		<tag k="ssr:stedsnr" v="137414" />
	</node>
	<node id="-700881" lat="67.6067555522" lon="12.5528111177">
		<tag k="name" v="Oddskallen" />
		<tag k="natural" v="shoal" />
		<tag k="place" v="locality" />
		<tag k="ssr:stedsnr" v="137404" />
	</node>
	<node id="-700880" lat="67.6368805534" lon="12.6859638769">
		<tag k="name" v="Oksen" />
		<tag k="natural" v="shoal" />
		<tag k="place" v="locality" />
		<tag k="ssr:stedsnr" v="137392" />
	</node>
	<node id="-700879" lat="67.635152778" lon="12.5883833225">
		<tag k="fixme" v="consider natural=peak for the most distinct mountains in the district" />
		<tag k="name" v="Måhornet" />
		<tag k="natural" v="hill" />
		<tag k="place" v="locality" />
		<tag k="ssr:stedsnr" v="137388" />
	</node>
	<node id="-700878" lat="67.654019447" lon="12.6477472258">
		<tag k="fixme" v="multiple name tags, choose one and add the other to alt_name; consider natural=peak for the most distinct mountains in the district" />
		<tag k="name" v="Høgtuva;Nupen" />
		<tag k="natural" v="hill" />
		<tag k="place" v="locality" />
		<tag k="ssr:stedsnr" v="137387" />
	</node>
	<node id="-700877" lat="67.6615111123" lon="12.6003583336">
		<tag k="alt_name" v="Eidbukta;Eidebukta" />
		<tag k="name" v="Eidvika" />
		<tag k="natural" v="bay" />
		<tag k="ssr:stedsnr" v="137369" />
	</node>
	<node id="-700876" lat="67.6720277796" lon="12.757875011">
		<tag k="name" v="Rolflua" />
		<tag k="natural" v="shoal" />
		<tag k="place" v="locality" />
		<tag k="ssr:stedsnr" v="137363" />
	</node>
	<node id="-700875" lat="67.6718250029" lon="12.6938499908">
		<tag k="name" v="Skardsurda" />
		<tag k="natural" v="scree" />
		<tag k="ssr:stedsnr" v="137347" />
	</node>
	<node id="-700874" lat="67.6820472216" lon="12.6910833429">
		<tag k="alt_name" v="Breiddalen" />
		<tag k="name" v="Breivikdalen" />
		<tag k="natural" v="valley" />
		<tag k="place" v="locality" />
		<tag k="ssr:stedsnr" v="137343" />
	</node>
	<node id="-700873" lat="67.6800805576" lon="12.6494388917">
		<tag k="name" v="Hornet" />
		<tag k="natural" v="hill" />
		<tag k="place" v="locality" />
		<tag k="ssr:stedsnr" v="137340" />
	</node>
	<node id="-700872" lat="67.7429361118" lon="12.7128583429">
		<tag k="alt_name" v="Kullskjeran" />
		<tag k="fixme" v="consider seamark:type=rock or natural=shoal" />
		<tag k="name" v="Kolskjeran" />
		<tag k="place" v="islet" />
		<tag k="ssr:stedsnr" v="137332" />
	</node>
	<node id="-700871" lat="67.7328222215" lon="12.7953499885">
		<tag k="name" v="Slåklakkskallen" />
		<tag k="natural" v="shoal" />
		<tag k="place" v="locality" />
		<tag k="ssr:stedsnr" v="137330" />
	</node>
	<node id="-700870" lat="67.7456722249" lon="12.7554666645">
		<tag k="alt_name" v="Wilhelmstind" />
		<tag k="fixme" v="consider natural=peak for the most distinct mountains in the district" />
		<tag k="name" v="Wilhelmtinden" />
		<tag k="natural" v="hill" />
		<tag k="place" v="locality" />
		<tag k="ssr:stedsnr" v="137325" />
	</node>
	<node id="-700869" lat="67.7420194433" lon="12.7562749908">
		<tag k="name" v="Heia" />
		<tag k="natural" v="hill" />
		<tag k="place" v="locality" />
		<tag k="ssr:stedsnr" v="137324" />
	</node>
	<node id="-700868" lat="67.738197218" lon="12.6621611169">
		<tag k="name" v="Nordholmen" />
		<tag k="place" v="islet" />
		<tag k="ssr:stedsnr" v="137317" />
	</node>
	<node id="-700867" lat="67.740286115" lon="12.7802638806">
		<tag k="name" v="Austlibåan" />
		<tag k="natural" v="shoal" />
		<tag k="place" v="locality" />
		<tag k="ssr:stedsnr" v="108255" />
	</node>
	<node id="-700865" lat="67.6314194403" lon="12.582286102">
		<tag k="name" v="Småleian" />
		<tag k="natural" v="bay" />
		<tag k="ssr:stedsnr" v="101769" />
	</node>
	<node id="-700864" lat="67.6350611097" lon="12.7028222206">
		<tag k="name" v="Breisundet" />
		<tag k="natural" v="strait" />
		<tag k="ssr:stedsnr" v="101721" />
	</node>
	<node id="-700863" lat="67.6978000001" lon="12.7217388832">
		<tag k="fixme" v="consider seamark:type=rock or natural=shoal" />
		<tag k="name" v="Jokkomskjeret" />
		<tag k="place" v="islet" />
		<tag k="ssr:stedsnr" v="101709" />
	</node>
	<node id="-700862" lat="67.7572416623" lon="12.761533342">
		<tag k="name" v="Reinlian" />
		<tag k="natural" v="slope" />
		<tag k="place" v="locality" />
		<tag k="ssr:stedsnr" v="101695" />
	</node>
	<node id="-700861" lat="67.7443944401" lon="12.7396555603">
		<tag k="name" v="Oterhollan" />
		<tag k="natural" v="bay" />
		<tag k="ssr:stedsnr" v="101683" />
	</node>
	<node id="-700860" lat="67.6599000038" lon="12.6932527745">
		<tag k="name" v="Grindvika" />
		<tag k="place" v="quarter" />
		<tag k="ssr:stedsnr" v="101659" />
	</node>
	<node id="-700859" lat="67.652336108" lon="12.6506499897">
		<tag k="name" v="Nupsdalen" />
		<tag k="natural" v="valley" />
		<tag k="place" v="locality" />
		<tag k="ssr:stedsnr" v="101649" />
	</node>
	<node id="-700858" lat="67.656883331" lon="12.6981944364">
		<tag k="name" v="Tynesleina" />
		<tag k="place" v="locality" />
		<tag k="ssr:stedsnr" v="101635" />
	</node>
	<node id="-700857" lat="67.6870000015" lon="12.6992388853">
		<tag k="fixme" v="consider natural=peak for the most distinct mountains in the district" />
		<tag k="name" v="Breiviknupen" />
		<tag k="natural" v="hill" />
		<tag k="place" v="locality" />
		<tag k="ssr:stedsnr" v="100688" />
	</node>
	<node id="-700856" lat="67.6600833377" lon="12.682077767">
		<tag k="name" v="Ramnberget" />
		<tag k="natural" v="hill" />
		<tag k="place" v="locality" />
		<tag k="ssr:stedsnr" v="100616" />
	</node>
	<node id="-700855" lat="67.6239999974" lon="12.6119333432">
		<tag k="name" v="Storfjellskallen" />
		<tag k="natural" v="shoal" />
		<tag k="place" v="locality" />
		<tag k="ssr:stedsnr" v="77444" />
	</node>
	<node id="-700854" lat="67.6388500006" lon="12.6004833241">
		<tag k="name" v="Litlkleiva" />
		<tag k="natural" v="slope" />
		<tag k="place" v="locality" />
		<tag k="ssr:stedsnr" v="77436" />
	</node>
	<node id="-700853" lat="67.6476722195" lon="12.7525722277">
		<tag k="name" v="Grunnågskallen" />
		<tag k="natural" v="shoal" />
		<tag k="place" v="locality" />
		<tag k="ssr:stedsnr" v="77434" />
	</node>
	<node id="-700852" lat="67.6531194412" lon="12.6413749957">
		<tag k="name" v="Nesan" />
		<tag k="natural" v="cape" />
		<tag k="ssr:stedsnr" v="77412" />
	</node>
	<node id="-700851" lat="67.6464833331" lon="12.5777722204">
		<tag k="fixme" v="multiple name tags, choose one and add the other to alt_name" />
		<tag k="name" v="Heia;Måstadheia" />
		<tag k="natural" v="slope" />
		<tag k="place" v="locality" />
		<tag k="ssr:stedsnr" v="77405" />
	</node>
	<node id="-700850" lat="67.6726472206" lon="12.4178805583">
		<tag k="name" v="Brunskallan" />
		<tag k="natural" v="shoal" />
		<tag k="place" v="locality" />
		<tag k="ssr:stedsnr" v="76392" />
	</node>
	<node id="-700849" lat="67.6758638913" lon="12.7344361099">
		<tag k="name" v="Storholmen" />
		<tag k="place" v="islet" />
		<tag k="ssr:stedsnr" v="76389" />
	</node>
	<node id="-700848" lat="67.6877666669" lon="12.7020444405">
		<tag k="alt_name" v="Nordlandsnubben" />
		<tag k="name" v="Nordlandsnupen" />
		<tag k="natural" v="hill" />
		<tag k="place" v="locality" />
		<tag k="ssr:stedsnr" v="76383" />
	</node>
	<node id="-700847" lat="67.6839138881" lon="12.7011944413">
		<tag k="name" v="Børan" />
		<tag k="natural" v="hill" />
		<tag k="place" v="locality" />
		<tag k="ssr:stedsnr" v="76379" />
	</node>
	<node id="-700846" lat="67.6963305528" lon="12.7264388899">
		<tag k="alt_name" v="Littj-Skarvskjeret" />
		<tag k="fixme" v="consider seamark:type=rock or natural=shoal" />
		<tag k="name" v="Litlskarvskjeret" />
		<tag k="place" v="islet" />
		<tag k="ssr:stedsnr" v="76374" />
	</node>
	<node id="-700845" lat="67.693338885" lon="12.7032250048">
		<tag k="fixme" v="consider place=hamlet" />
		<tag k="name" v="Nordland" />
		<tag k="place" v="village" />
		<tag k="ssr:stedsnr" v="76370" />
	</node>
	<node id="-700844" lat="67.6282777756" lon="12.5422277787">
		<tag k="name" v="Brandsflua" />
		<tag k="natural" v="shoal" />
		<tag k="place" v="locality" />
		<tag k="ssr:stedsnr" v="48618" />
	</node>
	<node id="-700843" lat="67.6697944465" lon="12.6180638846">
		<tag k="alt_name" v="Gjura" />
		<tag k="name" v="Jura" />
		<tag k="natural" v="cape" />
		<tag k="ssr:stedsnr" v="48616" />
	</node>
	<node id="-700842" lat="67.7800833337" lon="12.7105333274">
		<tag k="name" v="Nordskallen" />
		<tag k="natural" v="shoal" />
		<tag k="place" v="locality" />
		<tag k="ssr:stedsnr" v="47255" />
	</node>
	<node id="-700841" lat="67.7570888924" lon="12.7681333441">
		<tag k="name" v="Forhammarbukta" />
		<tag k="natural" v="bay" />
		<tag k="ssr:stedsnr" v="41598" />
	</node>
	<node id="-700840" lat="67.6911027745" lon="12.7190083301">
		<tag k="name" v="Sjybakkan" />
		<tag k="natural" v="slope" />
		<tag k="place" v="locality" />
		<tag k="ssr:stedsnr" v="41704" />
	</node>
	<node id="-700839" lat="67.6927083294" lon="12.7208861159">
		<tag k="name" v="Sjyberget" />
		<tag k="natural" v="hill" />
		<tag k="place" v="locality" />
		<tag k="ssr:stedsnr" v="41702" />
	</node>
	<node id="-700838" lat="67.7391444461" lon="12.7605638776">
		<tag k="name" v="Mighalsen" />
		<tag k="natural" v="valley" />
		<tag k="place" v="locality" />
		<tag k="ssr:stedsnr" v="41604" />
	</node>
	<node id="-700837" lat="67.6561722232" lon="12.596774996">
		<tag k="name" v="Hagslettbruna" />
		<tag k="natural" v="ridge" />
		<tag k="place" v="locality" />
		<tag k="ssr:stedsnr" v="40836" />
	</node>
	<node id="-700836" lat="67.6607166671" lon="12.6072583274">
		<tag k="name" v="Klømra" />
		<tag k="natural" v="bay" />
		<tag k="ssr:stedsnr" v="40833" />
	</node>
	<node id="-700835" lat="67.6776083339" lon="12.6332083423">
		<tag k="name" v="Kalvvika" />
		<tag k="natural" v="bay" />
		<tag k="ssr:stedsnr" v="40749" />
	</node>
	<node id="-700834" lat="67.6675027797" lon="12.6164805573">
		<tag k="name" v="Kringla" />
		<tag k="natural" v="bay" />
		<tag k="ssr:stedsnr" v="39655" />
	</node>
	<node id="-700833" lat="67.7837611088" lon="12.7980361049">
		<tag k="name" v="Keilholmen" />
		<tag k="place" v="islet" />
		<tag k="ssr:stedsnr" v="17089" />
	</node>
	<node id="-700832" lat="67.7764472195" lon="12.7705111038">
		<tag k="name" v="Buholmflaget" />
		<tag k="place" v="locality" />
		<tag k="ssr:stedsnr" v="17080" />
	</node>
	<node id="-700831" lat="67.5922250022" lon="12.565430548">
		<tag k="alt_name" v="Steinsgrunnen" />
		<tag k="name" v="Steingrunnen" />
		<tag k="natural" v="shoal" />
		<tag k="place" v="locality" />
		<tag k="ssr:stedsnr" v="16422" />
	</node>
	<node id="-700830" lat="67.6166361109" lon="12.5868166689">
		<tag k="name" v="Storflua" />
		<tag k="natural" v="shoal" />
		<tag k="place" v="locality" />
		<tag k="ssr:stedsnr" v="16406" />
	</node>
	<node id="-700829" lat="67.6271833346" lon="12.5951888994">
		<tag k="name" v="Stabben" />
		<tag k="natural" v="shoal" />
		<tag k="place" v="locality" />
		<tag k="ssr:stedsnr" v="16403" />
	</node>
	<node id="-700828" lat="67.6281499964" lon="12.5344222176">
		<tag k="name" v="Båan" />
		<tag k="natural" v="shoal" />
		<tag k="place" v="locality" />
		<tag k="ssr:stedsnr" v="16401" />
	</node>
	<node id="-700827" lat="67.6402277799" lon="12.6037527685">
		<tag k="alt_name" v="Buneset" />
		<tag k="name" v="Bunesodden" />
		<tag k="natural" v="cape" />
		<tag k="ssr:stedsnr" v="16385" />
	</node>
	<node id="-700826" lat="67.6541722179" lon="12.7049583338">
		<tag k="name" v="Tjuvneset" />
		<tag k="natural" v="cape" />
		<tag k="ssr:stedsnr" v="16366" />
	</node>
	<node id="-700825" lat="67.6512361084" lon="12.7004194336">
		<tag k="fixme" v="consider natural=peak for the most distinct mountains in the district" />
		<tag k="name" v="Svinkammen" />
		<tag k="natural" v="hill" />
		<tag k="place" v="locality" />
		<tag k="ssr:stedsnr" v="16364" />
	</node>
	<node id="-700824" lat="67.64960833" lon="12.5843583226">
		<tag k="fixme" v="consider natural=peak for the most distinct mountains in the district" />
		<tag k="name" v="Måstadfjellet" />
		<tag k="natural" v="hill" />
		<tag k="place" v="locality" />
		<tag k="ssr:stedsnr" v="16363" />
	</node>
	<node id="-700823" lat="67.6574944432" lon="12.603149991">
		<tag k="name" v="Eidet" />
		<tag k="place" v="locality" />
		<tag k="ssr:stedsnr" v="16362" />
	</node>
	<node id="-700822" lat="67.6429583305" lon="12.4589111024">
		<tag k="name" v="Toppskallan" />
		<tag k="natural" v="shoal" />
		<tag k="place" v="locality" />
		<tag k="ssr:stedsnr" v="16354" />
	</node>
	<node id="-700821" lat="67.6600555534" lon="12.6265027829">
		<tag k="fixme" v="multiple name tags, choose one and add the other to alt_name" />
		<tag k="name" v="Rund-Sanden;Sanden" />
		<tag k="natural" v="cape" />
		<tag k="ssr:stedsnr" v="16344" />
	</node>
	<node id="-700820" lat="67.6756194485" lon="12.7634111023">
		<tag k="name" v="Småbrotflua" />
		<tag k="natural" v="shoal" />
		<tag k="place" v="locality" />
		<tag k="ssr:stedsnr" v="16343" />
	</node>
	<node id="-700819" lat="67.670341668" lon="12.7620472123">
		<tag k="name" v="Hammarskallen" />
		<tag k="natural" v="shoal" />
		<tag k="place" v="locality" />
		<tag k="ssr:stedsnr" v="16342" />
	</node>
	<node id="-700818" lat="67.6648861101" lon="12.6515000073">
		<tag k="name" v="Sørlandshagen" />
		<tag k="natural" v="beach" />
		<tag k="place" v="locality" />
		<tag k="ssr:stedsnr" v="16338" />
	</node>
	<node id="-700817" lat="67.6943555582" lon="12.7504027849">
		<tag k="fixme" v="consider seamark:type=rock or natural=shoal" />
		<tag k="name" v="Lamholmskjeret" />
		<tag k="place" v="islet" />
		<tag k="ssr:stedsnr" v="16325" />
	</node>
	<node id="-700816" lat="67.6849027732" lon="12.6558777842">
		<tag k="fixme" v="multiple name tags, choose one and add the other to alt_name" />
		<tag k="name" v="Heimretussen;Tussen" />
		<tag k="natural" v="cape" />
		<tag k="ssr:stedsnr" v="16318" />
	</node>
	<node id="-700814" lat="67.7103694445" lon="12.8057611143">
		<tag k="name" v="Seiskallen" />
		<tag k="natural" v="shoal" />
		<tag k="place" v="locality" />
		<tag k="ssr:stedsnr" v="897244" />
	</node>
	<node id="-700813" lat="67.6439361108" lon="12.6990111204">
		<tag k="name" v="Ferskvågen" />
		<tag k="natural" v="bay" />
		<tag k="ssr:stedsnr" v="890829" />
	</node>
	<node id="-700812" lat="67.6913916682" lon="12.7147305569">
		<tag k="name" v="Varden" />
		<tag k="natural" v="hill" />
		<tag k="place" v="locality" />
		<tag k="ssr:stedsnr" v="890729" />
	</node>
	<node id="-700811" lat="67.6998277772" lon="12.7327166652">
		<tag k="fixme" v="consider seamark:type=rock or natural=shoal" />
		<tag k="name" v="Brørn" />
		<tag k="place" v="islet" />
		<tag k="ssr:stedsnr" v="890727" />
	</node>
	<node id="-700810" lat="67.7117805567" lon="12.7165527856">
		<tag k="name" v="Aurholmskjeret" />
		<tag k="natural" v="shoal" />
		<tag k="place" v="locality" />
		<tag k="ssr:stedsnr" v="890719" />
	</node>
	<node id="-700809" lat="67.7581305524" lon="12.7719888875">
		<tag k="name" v="Forhammarsundet" />
		<tag k="natural" v="strait" />
		<tag k="ssr:stedsnr" v="890616" />
	</node>
	<node id="-700808" lat="67.6639222193" lon="12.6825027869">
		<tag k="name" v="Kvitsanden" />
		<tag k="natural" v="cape" />
		<tag k="ssr:stedsnr" v="889713" />
	</node>
	<node id="-700807" lat="67.6625277772" lon="12.6311611139">
		<tag k="fixme" v="consider natural=peak for the most distinct mountains in the district" />
		<tag k="name" v="Grunnereggtua" />
		<tag k="natural" v="hill" />
		<tag k="place" v="locality" />
		<tag k="ssr:stedsnr" v="889709" />
	</node>
	<node id="-700806" lat="67.677069444" lon="12.7134777739">
		<tag k="fixme" v="consider seamark:type=rock or natural=shoal" />
		<tag k="name" v="Nevskjeret" />
		<tag k="place" v="islet" />
		<tag k="ssr:stedsnr" v="889675" />
	</node>
	<node id="-700805" lat="67.6757999971" lon="12.6676416699">
		<tag k="name" v="Myran" />
		<tag k="natural" v="wetland" />
		<tag k="ssr:stedsnr" v="889666" />
	</node>
	<node id="-700804" lat="67.6437861088" lon="12.5479916632">
		<tag k="name" v="Eldbåen" />
		<tag k="place" v="locality" />
		<tag k="seamark:type" v="rock" />
		<tag k="ssr:stedsnr" v="412572" />
	</node>
	<node id="-700803" lat="67.6487416656" lon="12.5642638991">
		<tag k="fixme" v="consider seamark:type=rock or natural=shoal" />
		<tag k="name" v="Sjøbakken" />
		<tag k="place" v="islet" />
		<tag k="ssr:stedsnr" v="412570" />
	</node>
	<node id="-700802" lat="67.6529888885" lon="12.7352444341">
		<tag k="name" v="Langflua" />
		<tag k="natural" v="shoal" />
		<tag k="place" v="locality" />
		<tag k="ssr:stedsnr" v="411628" />
	</node>
	<node id="-700801" lat="67.6374305525" lon="12.693941673">
		<tag k="name" v="Littjsundet" />
		<tag k="natural" v="strait" />
		<tag k="ssr:stedsnr" v="405835" />
	</node>
	<node id="-700800" lat="67.6856638912" lon="12.6638527669">
		<tag k="name" v="Sandhausan" />
		<tag k="natural" v="hill" />
		<tag k="place" v="locality" />
		<tag k="ssr:stedsnr" v="405747" />
	</node>
	<node id="-700798" lat="67.6929249995" lon="12.7095250048">
		<tag k="amenity" v="place_of_worship" />
		<tag k="denomination" v="lutheran" />
		<tag k="name" v="Nordland kirke" />
		<tag k="religion" v="christian" />
		<tag k="ssr:stedsnr" v="405710" />
	</node>
	<node id="-700797" lat="67.690280559" lon="12.7129249975">
		<tag k="name" v="Steinvarden" />
		<tag k="natural" v="hill" />
		<tag k="place" v="locality" />
		<tag k="ssr:stedsnr" v="405709" />
	</node>
	<node id="-700796" lat="67.6632416635" lon="12.6996249941">
		<tag k="name" v="Langholmen" />
		<tag k="natural" v="cape" />
		<tag k="ssr:stedsnr" v="405686" />
	</node>
	<node id="-700795" lat="67.6570749989" lon="12.6413111158">
		<tag k="name" v="Nesan" />
		<tag k="natural" v="slope" />
		<tag k="place" v="locality" />
		<tag k="ssr:stedsnr" v="405682" />
	</node>
	<node id="-700794" lat="67.6600027786" lon="12.7176333326">
		<tag k="name" v="Torvvågan" />
		<tag k="place" v="quarter" />
		<tag k="ssr:stedsnr" v="405666" />
	</node>
	<node id="-700793" lat="67.7419611111" lon="12.7597027662">
		<tag k="name" v="Fuggelskaret" />
		<tag k="natural" v="valley" />
		<tag k="place" v="locality" />
		<tag k="ssr:stedsnr" v="405624" />
	</node>
	<node id="-700792" lat="67.743319444" lon="12.7652305456">
		<tag k="name" v="Austlian" />
		<tag k="natural" v="slope" />
		<tag k="place" v="locality" />
		<tag k="ssr:stedsnr" v="405623" />
	</node>
	<node id="-700791" lat="67.682661114" lon="12.7040305516">
		<tag k="name" v="Larslihalsen" />
		<tag k="natural" v="valley" />
		<tag k="place" v="locality" />
		<tag k="ssr:stedsnr" v="403714" />
	</node>
	<node id="-700790" lat="67.6767611131" lon="12.6929944341">
		<tag k="name" v="Djupdalen" />
		<tag k="natural" v="valley" />
		<tag k="place" v="locality" />
		<tag k="ssr:stedsnr" v="403713" />
	</node>
	<node id="-700789" lat="67.6875583378" lon="12.7075694348">
		<tag k="name" v="Prestlihalsen" />
		<tag k="natural" v="valley" />
		<tag k="place" v="locality" />
		<tag k="ssr:stedsnr" v="403709" />
	</node>
	<node id="-700788" lat="67.7847249995" lon="12.8052194387">
		<tag k="name" v="Høgholmen" />
		<tag k="place" v="islet" />
		<tag k="ssr:stedsnr" v="381082" />
	</node>
	<node id="-700787" lat="67.5941194477" lon="12.5124194438">
		<tag k="name" v="Møkkelgarden" />
		<tag k="natural" v="shoal" />
		<tag k="place" v="locality" />
		<tag k="ssr:stedsnr" v="380449" />
	</node>
	<node id="-700786" lat="67.6135361077" lon="12.642919448">
		<tag k="name" v="Eirgrunnen" />
		<tag k="natural" v="shoal" />
		<tag k="place" v="locality" />
		<tag k="ssr:stedsnr" v="380441" />
	</node>
	<node id="-700785" lat="67.6334138879" lon="12.58472501">
		<tag k="name" v="Stakk" />
		<tag k="natural" v="cape" />
		<tag k="ssr:stedsnr" v="380437" />
	</node>
	<node id="-700784" lat="67.6521305528" lon="12.6481944476">
		<tag k="fixme" v="multiple name tags, choose one and add the other to alt_name; consider natural=peak for the most distinct mountains in the district" />
		<tag k="name" v="Nupen;Nuphetta" />
		<tag k="natural" v="hill" />
		<tag k="place" v="locality" />
		<tag k="ssr:stedsnr" v="380419" />
	</node>
	<node id="-700783" lat="67.648227779" lon="12.6782999892">
		<tag k="name" v="Rognan" />
		<tag k="place" v="islet" />
		<tag k="ssr:stedsnr" v="380409" />
	</node>
	<node id="-700782" lat="67.6575166694" lon="12.5854444346">
		<tag k="alt_name" v="Kalkluomnan" />
		<tag k="name" v="Kalkomnan" />
		<tag k="natural" v="cape" />
		<tag k="ssr:stedsnr" v="380391" />
	</node>
	<node id="-700781" lat="67.664911107" lon="12.7134027798">
		<tag k="fixme" v="consider natural=peak for the most distinct mountains in the district" />
		<tag k="name" v="Litlmelen" />
		<tag k="natural" v="hill" />
		<tag k="place" v="locality" />
		<tag k="ssr:stedsnr" v="380384" />
	</node>
	<node id="-700780" lat="67.7457777759" lon="12.7554305443">
		<tag k="name" v="Mosken" />
		<tag k="place" v="island" />
		<tag k="ssr:stedsnr" v="380357" />
	</node>
	<node id="-700779" lat="67.6673444482" lon="12.7030250007">
		<tag k="fixme" v="consider natural=peak for the most distinct mountains in the district" />
		<tag k="name" v="Gångskårtinden" />
		<tag k="natural" v="hill" />
		<tag k="place" v="locality" />
		<tag k="ssr:stedsnr" v="379371" />
	</node>
	<node id="-700778" lat="67.6862333304" lon="12.687911106">
		<tag k="fixme" v="consider natural=peak for the most distinct mountains in the district" />
		<tag k="name" v="Ånhammaren" />
		<tag k="natural" v="hill" />
		<tag k="place" v="locality" />
		<tag k="ssr:stedsnr" v="379358" />
	</node>
	<node id="-700777" lat="67.6879833321" lon="12.6780222143">
		<tag k="fixme" v="multiple name tags, choose one and add the other to alt_name" />
		<tag k="name" v="Hagen;Nordlandshagen" />
		<tag k="place" v="locality" />
		<tag k="ssr:stedsnr" v="379346" />
	</node>
	<node id="-700776" lat="67.7237583359" lon="12.5254722156">
		<tag k="name" v="Slettgjerdskallen" />
		<tag k="natural" v="shoal" />
		<tag k="place" v="locality" />
		<tag k="ssr:stedsnr" v="379340" />
	</node>
	<node id="-700775" lat="67.6761027773" lon="12.6320861019">
		<tag k="name" v="Høystøsteinan" />
		<tag k="natural" v="scree" />
		<tag k="ssr:stedsnr" v="344755" />
	</node>
	<node id="-700774" lat="67.6807638909" lon="12.6328916778">
		<tag k="name" v="Høgholmen" />
		<tag k="natural" v="shoal" />
		<tag k="place" v="locality" />
		<tag k="ssr:stedsnr" v="344750" />
	</node>
	<node id="-700773" lat="67.69055833" lon="12.7159694472">
		<tag k="name" v="Mollan" />
		<tag k="natural" v="hill" />
		<tag k="place" v="locality" />
		<tag k="ssr:stedsnr" v="344722" />
	</node>
	<node id="-700772" lat="67.7511527782" lon="12.7533777822">
		<tag k="name" v="Steinberget" />
		<tag k="natural" v="hill" />
		<tag k="place" v="locality" />
		<tag k="ssr:stedsnr" v="344697" />
	</node>
	<node id="-700771" lat="67.6662555581" lon="12.7013611062">
		<tag k="name" v="Sponga" />
		<tag k="place" v="farm" />
		<tag k="ssr:stedsnr" v="344670" />
	</node>
	<node id="-700770" lat="67.658625004" lon="12.6835416773">
		<tag k="name" v="Bensvika" />
		<tag k="natural" v="bay" />
		<tag k="ssr:stedsnr" v="344668" />
	</node>
	<node id="-700769" lat="67.6665944439" lon="12.6823333283">
		<tag k="name" v="Sprengern" />
		<tag k="natural" v="cape" />
		<tag k="ssr:stedsnr" v="342670" />
	</node>
	<node id="-700768" lat="67.7402861141" lon="12.6874333394">
		<tag k="name" v="Breidsundet" />
		<tag k="natural" v="strait" />
		<tag k="ssr:stedsnr" v="320345" />
	</node>
	<node id="-700767" lat="67.6211749986" lon="12.6706638807">
		<tag k="alt_name" v="Moskenskallen" />
		<tag k="name" v="Moskeskallen" />
		<tag k="natural" v="shoal" />
		<tag k="place" v="locality" />
		<tag k="ssr:stedsnr" v="319417" />
	</node>
	<node id="-700766" lat="67.5996944425" lon="12.507574993">
		<tag k="name" v="Brandsgrunnen" />
		<tag k="natural" v="shoal" />
		<tag k="place" v="locality" />
		<tag k="ssr:stedsnr" v="319410" />
	</node>
	<node id="-700765" lat="67.6339888882" lon="12.5674611096">
		<tag k="fixme" v="consider seamark:type=rock or natural=shoal" />
		<tag k="name" v="Koppskjeret" />
		<tag k="place" v="islet" />
		<tag k="ssr:stedsnr" v="319395" />
	</node>
	<node id="-700764" lat="67.6383416657" lon="12.6950333384">
		<tag k="name" v="Kvalnesodden" />
		<tag k="natural" v="cape" />
		<tag k="ssr:stedsnr" v="319386" />
	</node>
	<node id="-700763" lat="67.6333722265" lon="12.5911777733">
		<tag k="name" v="Stakkhalsen" />
		<tag k="natural" v="valley" />
		<tag k="place" v="locality" />
		<tag k="ssr:stedsnr" v="319381" />
	</node>
	<node id="-700762" lat="67.6547916694" lon="12.7268166667">
		<tag k="name" v="Tabbisodden" />
		<tag k="natural" v="cape" />
		<tag k="ssr:stedsnr" v="319369" />
	</node>
	<node id="-700761" lat="67.6605055561" lon="12.6148749976">
		<tag k="alt_name" v="Littjhåen" />
		<tag k="name" v="Litlhåen" />
		<tag k="natural" v="hill" />
		<tag k="place" v="locality" />
		<tag k="ssr:stedsnr" v="319367" />
	</node>
	<node id="-700760" lat="67.6606249993" lon="12.6404361071">
		<tag k="fixme" v="multiple name tags, choose one and add the other to alt_name; consider natural=peak for the most distinct mountains in the district" />
		<tag k="name" v="Kamheia;Skamheia" />
		<tag k="natural" v="hill" />
		<tag k="place" v="locality" />
		<tag k="ssr:stedsnr" v="319365" />
	</node>
	<node id="-700759" lat="67.665241667" lon="12.7418750059">
		<tag k="name" v="Hallbåen" />
		<tag k="natural" v="shoal" />
		<tag k="place" v="locality" />
		<tag k="ssr:stedsnr" v="319361" />
	</node>
	<node id="-700757" lat="67.7114944414" lon="12.6807111143">
		<tag k="name" v="Stabben" />
		<tag k="natural" v="shoal" />
		<tag k="place" v="locality" />
		<tag k="ssr:stedsnr" v="319343" />
	</node>
	<node id="-700756" lat="67.7282694421" lon="12.644133344">
		<tag k="fixme" v="consider seamark:type=rock or natural=shoal" />
		<tag k="name" v="Småskjeran" />
		<tag k="place" v="islet" />
		<tag k="ssr:stedsnr" v="319338" />
	</node>
	<node id="-700754" lat="67.6335638843" lon="12.5738444552">
		<tag k="name" v="Koppan" />
		<tag k="natural" v="cape" />
		<tag k="ssr:stedsnr" v="290588" />
	</node>
	<node id="-700753" lat="67.6414138878" lon="12.6977499952">
		<tag k="fixme" v="consider natural=peak for the most distinct mountains in the district" />
		<tag k="name" v="Fersktuva" />
		<tag k="natural" v="hill" />
		<tag k="place" v="locality" />
		<tag k="ssr:stedsnr" v="283815" />
	</node>
	<node id="-700752" lat="67.6469222263" lon="12.5644749914">
		<tag k="name" v="Jordneset" />
		<tag k="natural" v="cape" />
		<tag k="ssr:stedsnr" v="283813" />
	</node>
	<node id="-700751" lat="67.6305722247" lon="12.5917027792">
		<tag k="name" v="Stakkbukta" />
		<tag k="natural" v="bay" />
		<tag k="ssr:stedsnr" v="283800" />
	</node>
	<node id="-700750" lat="67.6397722264" lon="12.5785083273">
		<tag k="name" v="Skarvhamran" />
		<tag k="natural" v="hill" />
		<tag k="place" v="locality" />
		<tag k="ssr:stedsnr" v="283765" />
	</node>
	<node id="-700749" lat="67.6429666677" lon="12.5814083363">
		<tag k="fixme" v="consider natural=peak for the most distinct mountains in the district" />
		<tag k="name" v="Blåbrekkrabben" />
		<tag k="natural" v="hill" />
		<tag k="place" v="locality" />
		<tag k="ssr:stedsnr" v="283762" />
	</node>
	<node id="-700748" lat="67.6973666709" lon="12.7429027786">
		<tag k="fixme" v="consider seamark:type=rock or natural=shoal" />
		<tag k="name" v="Lamholmskjeran" />
		<tag k="place" v="islet" />
		<tag k="ssr:stedsnr" v="283688" />
	</node>
	<node id="-700747" lat="67.6488027812" lon="12.7016944411">
		<tag k="name" v="Kvalnessteinan" />
		<tag k="natural" v="cape" />
		<tag k="ssr:stedsnr" v="283629" />
	</node>
	<node id="-700746" lat="67.6536305574" lon="12.7246416716">
		<tag k="name" v="Håkjerringvika" />
		<tag k="natural" v="bay" />
		<tag k="ssr:stedsnr" v="283628" />
	</node>
	<node id="-700745" lat="67.6541166668" lon="12.6923111018">
		<tag k="fixme" v="consider natural=peak for the most distinct mountains in the district" />
		<tag k="name" v="Hermertinden" />
		<tag k="natural" v="hill" />
		<tag k="place" v="locality" />
		<tag k="ssr:stedsnr" v="283611" />
	</node>
	<node id="-700744" lat="67.6580888924" lon="12.7046333267">
		<tag k="name" v="Sørlandsvågen" />
		<tag k="natural" v="bay" />
		<tag k="ssr:stedsnr" v="283612" />
	</node>
	<node id="-700743" lat="67.6771555522" lon="12.7376888891">
		<tag k="fixme" v="consider seamark:type=rock or natural=shoal" />
		<tag k="name" v="Trollet" />
		<tag k="place" v="islet" />
		<tag k="ssr:stedsnr" v="282656" />
	</node>
</osm>
