<?xml version="1.0" encoding="UTF-8"?>
<osm version="0.6" generator="osmapis">
	<node lat="67.6496083299932" lon="12.584358322582048" id="-22044">
		<tag k="fixme" v="consider natural=peak for the most distinct mountains in the district" />
		<tag k="name" v="Måstadfjellet" />
		<tag k="natural" v="hill" />
		<tag k="place" v="locality" />
		<tag k="ssr:stedsnr" v="16363" />
	</node>
	<node lat="67.65123610840945" lon="12.700419433649136" id="-22045">
		<tag k="fixme" v="consider natural=peak for the most distinct mountains in the district" />
		<tag k="name" v="Svinkammen" />
		<tag k="natural" v="hill" />
		<tag k="place" v="locality" />
		<tag k="ssr:stedsnr" v="16364" />
	</node>
	<node lat="67.73914444606031" lon="12.760563877560786" id="-22047">
		<tag k="name" v="Mighalsen" />
		<tag k="natural" v="valley" />
		<tag k="place" v="locality" />
		<tag k="ssr:stedsnr" v="41604" />
	</node>
	<node lat="67.64648333311857" lon="12.577772220397435" id="-22051">
		<tag k="fixme" v="multiple name tags, choose one and add the other to alt_name" />
		<tag k="name" v="Måstadheia;Heia" />
		<tag k="natural" v="slope" />
		<tag k="place" v="locality" />
		<tag k="ssr:stedsnr" v="77405" />
	</node>
	<node lat="67.66008333772845" lon="12.6820777669708" id="-22053">
		<tag k="name" v="Ramnberget" />
		<tag k="natural" v="hill" />
		<tag k="place" v="locality" />
		<tag k="ssr:stedsnr" v="100616" />
	</node>
	<node lat="67.68204722156477" lon="12.691083342923315" id="-22056">
		<tag k="alt_name" v="Breiddalen" />
		<tag k="name" v="Breivikdalen" />
		<tag k="natural" v="valley" />
		<tag k="place" v="locality" />
		<tag k="ssr:stedsnr" v="137343" />
	</node>
	<node lat="67.68918888583644" lon="12.67503055065053" id="-22061">
		<tag k="name" v="Ørntuva" />
		<tag k="natural" v="hill" />
		<tag k="place" v="locality" />
		<tag k="ssr:stedsnr" v="258360" />
	</node>
	<node lat="67.68262222026645" lon="12.673411107275827" id="-22064">
		<tag k="fixme" v="consider natural=peak for the most distinct mountains in the district" />
		<tag k="name" v="Gjerdheia" />
		<tag k="natural" v="hill" />
		<tag k="place" v="locality" />
		<tag k="ssr:stedsnr" v="258372" />
	</node>
	<node lat="67.63370000030687" lon="12.592586102426816" id="-22070">
		<tag k="name" v="Osætan" />
		<tag k="natural" v="hill" />
		<tag k="place" v="locality" />
		<tag k="ssr:stedsnr" v="162822" />
	</node>
	<node lat="67.74812500389918" lon="12.751822223037662" id="-22072">
		<tag k="name" v="Salen" />
		<tag k="natural" v="hill" />
		<tag k="place" v="locality" />
		<tag k="ssr:stedsnr" v="198309" />
	</node>
	<node lat="67.6426777799422" lon="12.571136099996906" id="-22079">
		<tag k="alt_name" v="Rødlii;Rødlibergan" />
		<tag k="name" v="Røliberget" />
		<tag k="natural" v="hill" />
		<tag k="place" v="locality" />
		<tag k="ssr:stedsnr" v="198360" />
	</node>
	<node lat="67.64856388720152" lon="12.698205548909861" id="-22080">
		<tag k="fixme" v="consider natural=peak for the most distinct mountains in the district" />
		<tag k="name" v="Sålbotstinden" />
		<tag k="natural" v="hill" />
		<tag k="place" v="locality" />
		<tag k="ssr:stedsnr" v="198363" />
	</node>
	<node lat="67.67581388873948" lon="12.644933324738117" id="-22083">
		<tag k="name" v="Rømdalen" />
		<tag k="natural" v="valley" />
		<tag k="place" v="locality" />
		<tag k="ssr:stedsnr" v="221629" />
	</node>
	<node lat="67.7446972215448" lon="12.766969445485149" id="-22084">
		<tag k="name" v="Alkhalsen" />
		<tag k="natural" v="valley" />
		<tag k="place" v="locality" />
		<tag k="ssr:stedsnr" v="223633" />
	</node>
	<node lat="67.74186666422823" lon="12.74444443588694" id="-22085">
		<tag k="name" v="Teistberget" />
		<tag k="natural" v="hill" />
		<tag k="place" v="locality" />
		<tag k="ssr:stedsnr" v="223636" />
	</node>
	<node lat="67.74414722498013" lon="12.75885555946128" id="-22086">
		<tag k="fixme" v="consider natural=peak for the most distinct mountains in the district" />
		<tag k="name" v="Fuggelheia" />
		<tag k="natural" v="hill" />
		<tag k="place" v="locality" />
		<tag k="ssr:stedsnr" v="223637" />
	</node>
	<node lat="67.73944999941796" lon="12.756627778597023" id="-22087">
		<tag k="name" v="Råkhalsen" />
		<tag k="natural" v="valley" />
		<tag k="place" v="locality" />
		<tag k="ssr:stedsnr" v="223639" />
	</node>
	<node lat="67.64654444601865" lon="12.698827776646443" id="-22089">
		<tag k="fixme" v="consider natural=peak for the most distinct mountains in the district" />
		<tag k="name" v="Statsfjellet" />
		<tag k="natural" v="hill" />
		<tag k="place" v="locality" />
		<tag k="ssr:stedsnr" v="223841" />
	</node>
	<node lat="67.65456944308917" lon="12.583119433959855" id="-22090">
		<tag k="name" v="Svaan" />
		<tag k="natural" v="slope" />
		<tag k="place" v="locality" />
		<tag k="ssr:stedsnr" v="223844" />
	</node>
	<node lat="67.66821944841588" lon="12.703175008628428" id="-22092">
		<tag k="name" v="Gångskaret" />
		<tag k="natural" v="valley" />
		<tag k="place" v="locality" />
		<tag k="ssr:stedsnr" v="223703" />
	</node>
	<node lat="67.74811389088252" lon="12.751750007412216" id="-22094">
		<tag k="name" v="Bukksætan" />
		<tag k="natural" v="slope" />
		<tag k="place" v="locality" />
		<tag k="ssr:stedsnr" v="223717" />
	</node>
	<node lat="67.69163888611789" lon="12.700391674178707" id="-22095">
		<tag k="name" v="Olsdalen" />
		<tag k="natural" v="valley" />
		<tag k="place" v="locality" />
		<tag k="ssr:stedsnr" v="223723" />
	</node>
	<node lat="67.6414138878177" lon="12.697749995220384" id="-22100">
		<tag k="fixme" v="consider natural=peak for the most distinct mountains in the district" />
		<tag k="name" v="Fersktuva" />
		<tag k="natural" v="hill" />
		<tag k="place" v="locality" />
		<tag k="ssr:stedsnr" v="283815" />
	</node>
	<node lat="67.66954999620756" lon="12.702077787307216" id="-22102">
		<tag k="name" v="Einingan" />
		<tag k="place" v="locality" />
		<tag k="ssr:stedsnr" v="464700" />
	</node>
	<node lat="67.66704444069457" lon="12.620255554783146" id="-22103">
		<tag k="name" v="Helveteshågen" />
		<tag k="natural" v="hill" />
		<tag k="place" v="locality" />
		<tag k="ssr:stedsnr" v="464727" />
	</node>
	<node lat="67.66041666929257" lon="12.633380547104272" id="-22104">
		<tag k="name" v="Repphellaren" />
		<tag k="natural" v="hill" />
		<tag k="place" v="locality" />
		<tag k="ssr:stedsnr" v="464730" />
	</node>
	<node lat="67.68390277497085" lon="12.705491671551242" id="-22105">
		<tag k="name" v="Høggjerdan" />
		<tag k="place" v="locality" />
		<tag k="ssr:stedsnr" v="464738" />
	</node>
	<node lat="67.69055833004364" lon="12.71596944723853" id="-22119">
		<tag k="name" v="Mollan" />
		<tag k="natural" v="hill" />
		<tag k="place" v="locality" />
		<tag k="ssr:stedsnr" v="344722" />
	</node>
	<node lat="67.75115277816268" lon="12.753377782203156" id="-22120">
		<tag k="name" v="Steinberget" />
		<tag k="natural" v="hill" />
		<tag k="place" v="locality" />
		<tag k="ssr:stedsnr" v="344697" />
	</node>
	<node lat="67.66734444823318" lon="12.70302500073332" id="-22121">
		<tag k="fixme" v="consider natural=peak for the most distinct mountains in the district" />
		<tag k="name" v="Gångskårtinden" />
		<tag k="natural" v="hill" />
		<tag k="place" v="locality" />
		<tag k="ssr:stedsnr" v="379371" />
	</node>
	<node lat="67.65213055283577" lon="12.648194447628438" id="-22123">
		<tag k="fixme" v="multiple name tags, choose one and add the other to alt_name; consider natural=peak for the most distinct mountains in the district" />
		<tag k="name" v="Nuphetta;Nupen" />
		<tag k="natural" v="hill" />
		<tag k="place" v="locality" />
		<tag k="ssr:stedsnr" v="380419" />
	</node>
	<node lat="67.69028055897542" lon="12.712924997534895" id="-22124">
		<tag k="name" v="Steinvarden" />
		<tag k="natural" v="hill" />
		<tag k="place" v="locality" />
		<tag k="ssr:stedsnr" v="405709" />
	</node>
	<node lat="67.68566389122459" lon="12.663852766885796" id="-22125">
		<tag k="name" v="Sandhausan" />
		<tag k="natural" v="hill" />
		<tag k="place" v="locality" />
		<tag k="ssr:stedsnr" v="405747" />
	</node>
	<node lat="67.66740555998237" lon="12.698913881108298" id="-22133">
		<tag k="name" v="Tjyvberget" />
		<tag k="natural" v="hill" />
		<tag k="place" v="locality" />
		<tag k="ssr:stedsnr" v="465661" />
	</node>
	<node lat="67.64955555354518" lon="12.582713892942257" id="-22134">
		<tag k="fixme" v="consider natural=peak for the most distinct mountains in the district" />
		<tag k="name" v="Lundsteinen" />
		<tag k="natural" v="hill" />
		<tag k="place" v="locality" />
		<tag k="ssr:stedsnr" v="465825" />
	</node>
	<node lat="67.74608055922586" lon="12.745483332484612" id="-22150">
		<tag k="name" v="Steffenlia" />
		<tag k="natural" v="slope" />
		<tag k="place" v="locality" />
		<tag k="ssr:stedsnr" v="526689" />
	</node>
	<node lat="67.66577500121419" lon="12.651458334708213" id="-22152">
		<tag k="name" v="Hagmolla" />
		<tag k="place" v="locality" />
		<tag k="ssr:stedsnr" v="585696" />
	</node>
	<node lat="67.65395555971503" lon="12.587097214899288" id="-22155">
		<tag k="name" v="Breifjellmoan" />
		<tag k="place" v="locality" />
		<tag k="ssr:stedsnr" v="586816" />
	</node>
	<node lat="67.64046389228885" lon="12.59486389080547" id="-22159">
		<tag k="name" v="Staupan" />
		<tag k="place" v="locality" />
		<tag k="ssr:stedsnr" v="622385" />
	</node>
	<node lat="67.68583055990159" lon="12.70733611679075" id="-22163">
		<tag k="name" v="Gjerdbakkan" />
		<tag k="natural" v="slope" />
		<tag k="place" v="locality" />
		<tag k="ssr:stedsnr" v="706722" />
	</node>
	<node lat="67.74291389070947" lon="12.755208343836607" id="-22165">
		<tag k="name" v="Korsan" />
		<tag k="natural" v="hill" />
		<tag k="place" v="locality" />
		<tag k="ssr:stedsnr" v="647609" />
	</node>
	<node lat="67.69139166816205" lon="12.714730556887183" id="-22173">
		<tag k="name" v="Varden" />
		<tag k="natural" v="hill" />
		<tag k="place" v="locality" />
		<tag k="ssr:stedsnr" v="890729" />
	</node>
	<node lat="67.65555833076242" lon="12.595627768695689" id="-22180">
		<tag k="name" v="Hagslett" />
		<tag k="place" v="locality" />
		<tag k="ssr:stedsnr" v="683369" />
	</node>
	<node lat="67.63550555314319" lon="12.596408340723329" id="-22182">
		<tag k="name" v="Storkleiva" />
		<tag k="natural" v="slope" />
		<tag k="place" v="locality" />
		<tag k="ssr:stedsnr" v="683378" />
	</node>
	<node lat="67.6918000015837" lon="12.721349990931603" id="-22188">
		<tag k="name" v="Barnberget" />
		<tag k="natural" v="hill" />
		<tag k="place" v="locality" />
		<tag k="ssr:stedsnr" v="708694" />
	</node>
	<node lat="67.65913889259085" lon="12.605083328649096" id="-22189">
		<tag k="name" v="Sauhellaren" />
		<tag k="natural" v="hill" />
		<tag k="place" v="locality" />
		<tag k="ssr:stedsnr" v="708808" />
	</node>
	<node lat="67.65145555293594" lon="12.649252765593832" id="-22203">
		<tag k="name" v="Omnan" />
		<tag k="natural" v="hill" />
		<tag k="place" v="locality" />
		<tag k="ssr:stedsnr" v="830661" />
	</node>
	<node lat="67.66654999924363" lon="12.713341671861583" id="-22204">
		<tag k="name" v="Mælan" />
		<tag k="natural" v="slope" />
		<tag k="place" v="locality" />
		<tag k="ssr:stedsnr" v="830678" />
	</node>
	<node lat="67.75563055293091" lon="12.759816676621169" id="-22205">
		<tag k="name" v="Reiret" />
		<tag k="natural" v="valley" />
		<tag k="place" v="locality" />
		<tag k="ssr:stedsnr" v="830696" />
	</node>
	<node lat="67.68521944110282" lon="12.684913888481576" id="-22210">
		<tag k="alt_name" v="Kalvskardet" />
		<tag k="name" v="Kalvskaret" />
		<tag k="natural" v="valley" />
		<tag k="place" v="locality" />
		<tag k="ssr:stedsnr" v="926352" />
	</node>
	<node lat="67.63570277817668" lon="12.57384723325746" id="-22213">
		<tag k="name" v="Koppnakkan" />
		<tag k="natural" v="slope" />
		<tag k="place" v="locality" />
		<tag k="ssr:stedsnr" v="926399" />
	</node>
	<node lat="67.63445833552873" lon="12.57571110189997" id="-22214">
		<tag k="name" v="Storgropa" />
		<tag k="natural" v="valley" />
		<tag k="place" v="locality" />
		<tag k="ssr:stedsnr" v="926400" />
	</node>
	<node lat="67.64154166344441" lon="12.582399988684418" id="-22215">
		<tag k="fixme" v="consider natural=peak for the most distinct mountains in the district" />
		<tag k="name" v="Reka" />
		<tag k="natural" v="hill" />
		<tag k="place" v="locality" />
		<tag k="ssr:stedsnr" v="926401" />
	</node>
	<node lat="67.67302777559584" lon="12.690361115352136" id="-22219">
		<tag k="name" v="Bjørgan" />
		<tag k="natural" v="slope" />
		<tag k="place" v="locality" />
		<tag k="ssr:stedsnr" v="926368" />
	</node>
	<node lat="67.6445805553381" lon="12.56747499614388" id="-22220">
		<tag k="name" v="Eldet" />
		<tag k="place" v="locality" />
		<tag k="ssr:stedsnr" v="926377" />
	</node>
	<node lat="67.65617222315572" lon="12.596774995998608" id="-22247">
		<tag k="name" v="Hagslettbruna" />
		<tag k="natural" v="ridge" />
		<tag k="place" v="locality" />
		<tag k="ssr:stedsnr" v="40836" />
	</node>
	<node lat="67.69270832939205" lon="12.7208861159465" id="-22249">
		<tag k="name" v="Sjyberget" />
		<tag k="natural" v="hill" />
		<tag k="place" v="locality" />
		<tag k="ssr:stedsnr" v="41702" />
	</node>
	<node lat="67.69110277447608" lon="12.719008330081603" id="-22250">
		<tag k="name" v="Sjybakkan" />
		<tag k="natural" v="slope" />
		<tag k="place" v="locality" />
		<tag k="ssr:stedsnr" v="41704" />
	</node>
	<node lat="67.68391388813642" lon="12.701194441259009" id="-22253">
		<tag k="name" v="Børan" />
		<tag k="natural" v="hill" />
		<tag k="place" v="locality" />
		<tag k="ssr:stedsnr" v="76379" />
	</node>
	<node lat="67.68776666685697" lon="12.702044440516314" id="-22254">
		<tag k="alt_name" v="Nordlandsnubben" />
		<tag k="name" v="Nordlandsnupen" />
		<tag k="natural" v="hill" />
		<tag k="place" v="locality" />
		<tag k="ssr:stedsnr" v="76383" />
	</node>
	<node lat="67.63885000055066" lon="12.600483324062749" id="-22258">
		<tag k="name" v="Litlkleiva" />
		<tag k="natural" v="slope" />
		<tag k="place" v="locality" />
		<tag k="ssr:stedsnr" v="77436" />
	</node>
	<node lat="67.68700000154678" lon="12.699238885337834" id="-22261">
		<tag k="fixme" v="consider natural=peak for the most distinct mountains in the district" />
		<tag k="name" v="Breiviknupen" />
		<tag k="natural" v="hill" />
		<tag k="place" v="locality" />
		<tag k="ssr:stedsnr" v="100688" />
	</node>
	<node lat="67.75724166232597" lon="12.761533342031035" id="-22262">
		<tag k="name" v="Reinlian" />
		<tag k="natural" v="slope" />
		<tag k="place" v="locality" />
		<tag k="ssr:stedsnr" v="101695" />
	</node>
	<node lat="67.6568833309766" lon="12.698194436392443" id="-22264">
		<tag k="name" v="Tynesleina" />
		<tag k="place" v="locality" />
		<tag k="ssr:stedsnr" v="101635" />
	</node>
	<node lat="67.65233610800368" lon="12.65064998971855" id="-22265">
		<tag k="name" v="Nupsdalen" />
		<tag k="natural" v="valley" />
		<tag k="place" v="locality" />
		<tag k="ssr:stedsnr" v="101649" />
	</node>
	<node lat="67.6540194470333" lon="12.647747225817543" id="-22271">
		<tag k="fixme" v="multiple name tags, choose one and add the other to alt_name; consider natural=peak for the most distinct mountains in the district" />
		<tag k="name" v="Nupen;Høgtuva" />
		<tag k="natural" v="hill" />
		<tag k="place" v="locality" />
		<tag k="ssr:stedsnr" v="137387" />
	</node>
	<node lat="67.63515277795652" lon="12.588383322513721" id="-22272">
		<tag k="fixme" v="consider natural=peak for the most distinct mountains in the district" />
		<tag k="name" v="Måhornet" />
		<tag k="natural" v="hill" />
		<tag k="place" v="locality" />
		<tag k="ssr:stedsnr" v="137388" />
	</node>
	<node lat="67.74201944333181" lon="12.756274990781098" id="-22278">
		<tag k="name" v="Heia" />
		<tag k="natural" v="hill" />
		<tag k="place" v="locality" />
		<tag k="ssr:stedsnr" v="137324" />
	</node>
	<node lat="67.74567222491207" lon="12.7554666645191" id="-22279">
		<tag k="alt_name" v="Wilhelmstind" />
		<tag k="fixme" v="consider natural=peak for the most distinct mountains in the district" />
		<tag k="name" v="Wilhelmtinden" />
		<tag k="natural" v="hill" />
		<tag k="place" v="locality" />
		<tag k="ssr:stedsnr" v="137325" />
	</node>
	<node lat="67.68008055756172" lon="12.649438891681298" id="-22282">
		<tag k="name" v="Hornet" />
		<tag k="natural" v="hill" />
		<tag k="place" v="locality" />
		<tag k="ssr:stedsnr" v="137340" />
	</node>
	<node lat="67.66122221839676" lon="12.621669435774102" id="-22283">
		<tag k="name" v="Grotte" />
		<tag k="natural" v="cave_entrance" />
		<tag k="ssr:stedsnr" v="160683" />
	</node>
	<node lat="67.68909722653547" lon="12.709780559031142" id="-22284">
		<tag k="name" v="Stor-Andneven" />
		<tag k="natural" v="slope" />
		<tag k="place" v="locality" />
		<tag k="ssr:stedsnr" v="160691" />
	</node>
	<node lat="67.74374166612718" lon="12.752288892967822" id="-22286">
		<tag k="name" v="Dalen" />
		<tag k="natural" v="valley" />
		<tag k="place" v="locality" />
		<tag k="ssr:stedsnr" v="162630" />
	</node>
	<node lat="67.64821388759876" lon="12.595063885364395" id="-22292">
		<tag k="fixme" v="multiple name tags, choose one and add the other to alt_name" />
		<tag k="name" v="Storhaugen;Oterberget" />
		<tag k="natural" v="hill" />
		<tag k="place" v="locality" />
		<tag k="ssr:stedsnr" v="198369" />
	</node>
	<node lat="67.66642222486875" lon="12.635419434588293" id="-22297">
		<tag k="fixme" v="multiple name tags, choose one and add the other to alt_name; consider natural=peak for the most distinct mountains in the district" />
		<tag k="name" v="Håheia;Heia" />
		<tag k="natural" v="hill" />
		<tag k="place" v="locality" />
		<tag k="ssr:stedsnr" v="198354" />
	</node>
	<node lat="67.66355277445209" lon="12.626883322197921" id="-22298">
		<tag k="fixme" v="multiple name tags, choose one and add the other to alt_name; consider natural=peak for the most distinct mountains in the district" />
		<tag k="name" v="Håen;Håtua" />
		<tag k="natural" v="hill" />
		<tag k="place" v="locality" />
		<tag k="ssr:stedsnr" v="198355" />
	</node>
	<node lat="67.68618055829556" lon="12.679930550005466" id="-22301">
		<tag k="name" v="Djupbekkerhågen" />
		<tag k="natural" v="hill" />
		<tag k="place" v="locality" />
		<tag k="ssr:stedsnr" v="223762" />
	</node>
	<node lat="67.65411666679184" lon="12.692311101762689" id="-22302">
		<tag k="fixme" v="consider natural=peak for the most distinct mountains in the district" />
		<tag k="name" v="Hermertinden" />
		<tag k="natural" v="hill" />
		<tag k="place" v="locality" />
		<tag k="ssr:stedsnr" v="283611" />
	</node>
	<node lat="67.64296666768061" lon="12.581408336301541" id="-22308">
		<tag k="fixme" v="consider natural=peak for the most distinct mountains in the district" />
		<tag k="name" v="Blåbrekkrabben" />
		<tag k="natural" v="hill" />
		<tag k="place" v="locality" />
		<tag k="ssr:stedsnr" v="283762" />
	</node>
	<node lat="67.63977222637328" lon="12.578508327257403" id="-22309">
		<tag k="name" v="Skarvhamran" />
		<tag k="natural" v="hill" />
		<tag k="place" v="locality" />
		<tag k="ssr:stedsnr" v="283765" />
	</node>
	<node lat="67.66062499925465" lon="12.640436107067915" id="-22313">
		<tag k="fixme" v="multiple name tags, choose one and add the other to alt_name; consider natural=peak for the most distinct mountains in the district" />
		<tag k="name" v="Skamheia;Kamheia" />
		<tag k="natural" v="hill" />
		<tag k="place" v="locality" />
		<tag k="ssr:stedsnr" v="319365" />
	</node>
	<node lat="67.66050555609844" lon="12.614874997628021" id="-22314">
		<tag k="alt_name" v="Littjhåen" />
		<tag k="name" v="Litlhåen" />
		<tag k="natural" v="hill" />
		<tag k="place" v="locality" />
		<tag k="ssr:stedsnr" v="319367" />
	</node>
	<node lat="67.63337222650995" lon="12.591177773332138" id="-22316">
		<tag k="name" v="Stakkhalsen" />
		<tag k="natural" v="valley" />
		<tag k="place" v="locality" />
		<tag k="ssr:stedsnr" v="319381" />
	</node>
	<node lat="67.68798333207323" lon="12.678022214308797" id="-22323">
		<tag k="fixme" v="multiple name tags, choose one and add the other to alt_name" />
		<tag k="name" v="Nordlandshagen;Hagen" />
		<tag k="place" v="locality" />
		<tag k="ssr:stedsnr" v="379346" />
	</node>
	<node lat="67.68623333044081" lon="12.687911105995038" id="-22324">
		<tag k="fixme" v="consider natural=peak for the most distinct mountains in the district" />
		<tag k="name" v="Ånhammaren" />
		<tag k="natural" v="hill" />
		<tag k="place" v="locality" />
		<tag k="ssr:stedsnr" v="379358" />
	</node>
	<node lat="67.66491110696182" lon="12.713402779814244" id="-22325">
		<tag k="fixme" v="consider natural=peak for the most distinct mountains in the district" />
		<tag k="name" v="Litlmelen" />
		<tag k="natural" v="hill" />
		<tag k="place" v="locality" />
		<tag k="ssr:stedsnr" v="380384" />
	</node>
	<node lat="67.68755833780227" lon="12.707569434775937" id="-22332">
		<tag k="name" v="Prestlihalsen" />
		<tag k="natural" v="valley" />
		<tag k="place" v="locality" />
		<tag k="ssr:stedsnr" v="403709" />
	</node>
	<node lat="67.6767611131452" lon="12.69299443406234" id="-22333">
		<tag k="name" v="Djupdalen" />
		<tag k="natural" v="valley" />
		<tag k="place" v="locality" />
		<tag k="ssr:stedsnr" v="403713" />
	</node>
	<node lat="67.682661113986" lon="12.704030551640399" id="-22334">
		<tag k="name" v="Larslihalsen" />
		<tag k="natural" v="valley" />
		<tag k="place" v="locality" />
		<tag k="ssr:stedsnr" v="403714" />
	</node>
	<node lat="67.6570749988623" lon="12.641311115832544" id="-22336">
		<tag k="name" v="Nesan" />
		<tag k="natural" v="slope" />
		<tag k="place" v="locality" />
		<tag k="ssr:stedsnr" v="405682" />
	</node>
	<node lat="67.74331944399242" lon="12.76523054563956" id="-22337">
		<tag k="name" v="Austlian" />
		<tag k="natural" v="slope" />
		<tag k="place" v="locality" />
		<tag k="ssr:stedsnr" v="405623" />
	</node>
	<node lat="67.74196111106096" lon="12.759702766189793" id="-22338">
		<tag k="name" v="Fuggelskaret" />
		<tag k="natural" v="valley" />
		<tag k="place" v="locality" />
		<tag k="ssr:stedsnr" v="405624" />
	</node>
	<node lat="67.65660833757595" lon="12.64555554869983" id="-22352">
		<tag k="alt_name" v="Tjyvskaret" />
		<tag k="name" v="Tjuvskardet" />
		<tag k="natural" v="valley" />
		<tag k="place" v="locality" />
		<tag k="ssr:stedsnr" v="501374" />
	</node>
	<node lat="67.63170833459155" lon="12.595644437518144" id="-22354">
		<tag k="name" v="Månestuva" />
		<tag k="natural" v="hill" />
		<tag k="place" v="locality" />
		<tag k="ssr:stedsnr" v="501381" />
	</node>
	<node lat="67.67237500058071" lon="12.650375008768005" id="-22356">
		<tag k="name" v="Bjørka" />
		<tag k="natural" v="slope" />
		<tag k="place" v="locality" />
		<tag k="ssr:stedsnr" v="524635" />
	</node>
	<node lat="67.66415833102549" lon="12.617313892519478" id="-22358">
		<tag k="name" v="Hundsloppan" />
		<tag k="natural" v="slope" />
		<tag k="place" v="locality" />
		<tag k="ssr:stedsnr" v="524679" />
	</node>
	<node lat="67.68925278031458" lon="12.69986945005008" id="-22360">
		<tag k="fixme" v="consider natural=peak for the most distinct mountains in the district" />
		<tag k="name" v="Nordlandsaksla" />
		<tag k="natural" v="hill" />
		<tag k="place" v="locality" />
		<tag k="ssr:stedsnr" v="524696" />
	</node>
	<node lat="67.69390833345663" lon="12.717438899404" id="-22364">
		<tag k="name" v="Ebergan" />
		<tag k="natural" v="hill" />
		<tag k="place" v="locality" />
		<tag k="ssr:stedsnr" v="526696" />
	</node>
	<node lat="67.64616111103412" lon="12.565191658103622" id="-22365">
		<tag k="name" v="Krykkjebakkan" />
		<tag k="natural" v="slope" />
		<tag k="place" v="locality" />
		<tag k="ssr:stedsnr" v="526795" />
	</node>
	<node lat="67.67042222145659" lon="12.657011101583073" id="-22368">
		<tag k="name" v="Tverrberget" />
		<tag k="natural" v="hill" />
		<tag k="place" v="locality" />
		<tag k="ssr:stedsnr" v="561376" />
	</node>
	<node lat="67.63940555188043" lon="12.599216667240167" id="-22376">
		<tag k="fixme" v="consider natural=peak for the most distinct mountains in the district" />
		<tag k="name" v="Tinden" />
		<tag k="natural" v="hill" />
		<tag k="place" v="locality" />
		<tag k="ssr:stedsnr" v="561418" />
	</node>
	<node lat="67.67155833199782" lon="12.657936112389661" id="-22378">
		<tag k="name" v="Hagskaret" />
		<tag k="natural" v="valley" />
		<tag k="place" v="locality" />
		<tag k="ssr:stedsnr" v="585653" />
	</node>
	<node lat="67.67134721901861" lon="12.629683329767849" id="-22379">
		<tag k="name" v="Saubønnan" />
		<tag k="natural" v="slope" />
		<tag k="place" v="locality" />
		<tag k="ssr:stedsnr" v="585683" />
	</node>
	<node lat="67.65288610815291" lon="12.697194433585434" id="-22380">
		<tag k="fixme" v="consider natural=peak for the most distinct mountains in the district" />
		<tag k="name" v="Yttertinden" />
		<tag k="natural" v="hill" />
		<tag k="place" v="locality" />
		<tag k="ssr:stedsnr" v="586639" />
	</node>
	<node lat="67.65472222423828" lon="12.651072226377192" id="-22381">
		<tag k="name" v="Skathalsen" />
		<tag k="natural" v="valley" />
		<tag k="place" v="locality" />
		<tag k="ssr:stedsnr" v="586659" />
	</node>
	<node lat="67.74904444401476" lon="12.754099994036784" id="-22382">
		<tag k="name" v="Ramnhågen" />
		<tag k="natural" v="hill" />
		<tag k="place" v="locality" />
		<tag k="ssr:stedsnr" v="586673" />
	</node>
	<node lat="67.7536888927627" lon="12.757633344170923" id="-22385">
		<tag k="name" v="Hanslian" />
		<tag k="natural" v="slope" />
		<tag k="place" v="locality" />
		<tag k="ssr:stedsnr" v="586678" />
	</node>
	<node lat="67.67032778195144" lon="12.63434165776329" id="-22393">
		<tag k="name" v="Stavan" />
		<tag k="natural" v="hill" />
		<tag k="place" v="locality" />
		<tag k="ssr:stedsnr" v="645660" />
	</node>
	<node lat="67.63796666997423" lon="12.586211122338312" id="-22396">
		<tag k="name" v="Bruna" />
		<tag k="natural" v="ridge" />
		<tag k="place" v="locality" />
		<tag k="ssr:stedsnr" v="647822" />
	</node>
	<node lat="67.64051666321447" lon="12.698966666347186" id="-22397">
		<tag k="name" v="Høgsandhausen" />
		<tag k="natural" v="hill" />
		<tag k="place" v="locality" />
		<tag k="ssr:stedsnr" v="647824" />
	</node>
	<node lat="67.65696111251677" lon="12.649505554420035" id="-22399">
		<tag k="name" v="Piklia" />
		<tag k="natural" v="slope" />
		<tag k="place" v="locality" />
		<tag k="ssr:stedsnr" v="647665" />
	</node>
	<node lat="67.66252777717206" lon="12.631161113919896" id="-22402">
		<tag k="fixme" v="consider natural=peak for the most distinct mountains in the district" />
		<tag k="name" v="Grunnereggtua" />
		<tag k="natural" v="hill" />
		<tag k="place" v="locality" />
		<tag k="ssr:stedsnr" v="889709" />
	</node>
	<node lat="67.65321110784404" lon="12.57210277415224" id="-22405">
		<tag k="name" v="Branden" />
		<tag k="natural" v="hill" />
		<tag k="place" v="locality" />
		<tag k="ssr:stedsnr" v="715618" />
	</node>
	<node lat="67.65466944369228" lon="12.587513878897568" id="-22409">
		<tag k="alt_name" v="Breidfjellet" />
		<tag k="fixme" v="consider natural=peak for the most distinct mountains in the district" />
		<tag k="name" v="Breifjellet" />
		<tag k="natural" v="hill" />
		<tag k="place" v="locality" />
		<tag k="ssr:stedsnr" v="744339" />
	</node>
	<node lat="67.66334444871353" lon="12.71516388340592" id="-22410">
		<tag k="fixme" v="multiple name tags, choose one and add the other to alt_name; consider natural=peak for the most distinct mountains in the district" />
		<tag k="name" v="Gullaksla;Storfjellet" />
		<tag k="natural" v="hill" />
		<tag k="place" v="locality" />
		<tag k="ssr:stedsnr" v="744340" />
	</node>
	<node lat="67.65892500004735" lon="12.61063610544135" id="-22412">
		<tag k="alt_name" v="Klakktuven" />
		<tag k="name" v="Klakktuva" />
		<tag k="natural" v="hill" />
		<tag k="place" v="locality" />
		<tag k="ssr:stedsnr" v="744349" />
	</node>
	<node lat="67.65358055721794" lon="12.695447222726663" id="-22414">
		<tag k="fixme" v="consider natural=peak for the most distinct mountains in the district" />
		<tag k="name" v="Klaumertinden" />
		<tag k="natural" v="hill" />
		<tag k="place" v="locality" />
		<tag k="ssr:stedsnr" v="744361" />
	</node>
	<node lat="67.66042777461071" lon="12.646069443129381" id="-22416">
		<tag k="name" v="Saubønnan" />
		<tag k="natural" v="slope" />
		<tag k="place" v="locality" />
		<tag k="ssr:stedsnr" v="767710" />
	</node>
	<node lat="67.6587111154263" lon="12.642749992967461" id="-22417">
		<tag k="fixme" v="consider natural=peak for the most distinct mountains in the district" />
		<tag k="name" v="Kammen" />
		<tag k="natural" v="hill" />
		<tag k="place" v="locality" />
		<tag k="ssr:stedsnr" v="767711" />
	</node>
	<node lat="67.66251944234344" lon="12.647300005431443" id="-22418">
		<tag k="name" v="Hagsletta" />
		<tag k="place" v="locality" />
		<tag k="ssr:stedsnr" v="767712" />
	</node>
	<node lat="67.74729166833797" lon="12.755761115829863" id="-22421">
		<tag k="name" v="Nordlia" />
		<tag k="natural" v="slope" />
		<tag k="place" v="locality" />
		<tag k="ssr:stedsnr" v="769600" />
	</node>
	<node lat="67.7392055597602" lon="12.758475006378767" id="-22422">
		<tag k="name" v="Migan" />
		<tag k="natural" v="hill" />
		<tag k="place" v="locality" />
		<tag k="ssr:stedsnr" v="769605" />
	</node>
	<node lat="67.65770000003297" lon="12.691841670089493" id="-22424">
		<tag k="name" v="Vardan" />
		<tag k="natural" v="hill" />
		<tag k="place" v="locality" />
		<tag k="ssr:stedsnr" v="769638" />
	</node>
	<node lat="67.6668805559343" lon="12.708308326393343" id="-22433">
		<tag k="alt_name" v="Valttinden" />
		<tag k="fixme" v="consider natural=peak for the most distinct mountains in the district" />
		<tag k="name" v="Valltinden" />
		<tag k="natural" v="hill" />
		<tag k="place" v="locality" />
		<tag k="ssr:stedsnr" v="805375" />
	</node>
	<node lat="67.66573332935857" lon="12.711691663501723" id="-22434">
		<tag k="fixme" v="consider natural=peak for the most distinct mountains in the district" />
		<tag k="name" v="Stormelen" />
		<tag k="natural" v="hill" />
		<tag k="place" v="locality" />
		<tag k="ssr:stedsnr" v="805377" />
	</node>
	<node lat="67.67024722367243" lon="12.639236122567825" id="-22444">
		<tag k="name" v="Heia" />
		<tag k="natural" v="hill" />
		<tag k="place" v="locality" />
		<tag k="ssr:stedsnr" v="828648" />
	</node>
	<node lat="67.67893333095172" lon="12.67715277456828" id="-22445">
		<tag k="name" v="Hamran" />
		<tag k="natural" v="hill" />
		<tag k="place" v="locality" />
		<tag k="ssr:stedsnr" v="828652" />
	</node>
	<node lat="67.66199444449857" lon="12.619183323852074" id="-22446">
		<tag k="name" v="Mottollgrævan" />
		<tag k="natural" v="valley" />
		<tag k="place" v="locality" />
		<tag k="ssr:stedsnr" v="828692" />
	</node>
	<node lat="67.75176388723129" lon="12.764613881036434" id="-22448">
		<tag k="name" v="Brattlian" />
		<tag k="natural" v="slope" />
		<tag k="place" v="locality" />
		<tag k="ssr:stedsnr" v="830600" />
	</node>
	<node lat="67.74118889048518" lon="12.757836110150585" id="-22451">
		<tag k="name" v="Råkberget" />
		<tag k="natural" v="hill" />
		<tag k="place" v="locality" />
		<tag k="ssr:stedsnr" v="830612" />
	</node>
	<node lat="67.68882777614947" lon="12.712358332125849" id="-22456">
		<tag k="name" v="Teisthammaren" />
		<tag k="natural" v="hill" />
		<tag k="place" v="locality" />
		<tag k="ssr:stedsnr" v="865406" />
	</node>
	<node lat="67.6794333348427" lon="12.704180556706747" id="-22457">
		<tag k="alt_name" v="Mekollen" />
		<tag k="fixme" v="consider natural=peak for the most distinct mountains in the district" />
		<tag k="name" v="Medkollen" />
		<tag k="natural" v="hill" />
		<tag k="place" v="locality" />
		<tag k="ssr:stedsnr" v="865412" />
	</node>
	<node lat="67.67870555653143" lon="12.70595278390043" id="-22458">
		<tag k="fixme" v="consider natural=peak for the most distinct mountains in the district" />
		<tag k="name" v="Nevkollen" />
		<tag k="natural" v="hill" />
		<tag k="place" v="locality" />
		<tag k="ssr:stedsnr" v="865413" />
	</node>
	<node lat="67.75624444354881" lon="12.766083337348286" id="-22477">
		<tag k="name" v="Hesten" />
		<tag k="natural" v="hill" />
		<tag k="place" v="locality" />
		<tag k="ssr:stedsnr" v="951614" />
	</node>
	<node lat="67.74570833312633" lon="12.765405546450836" id="-22478">
		<tag k="name" v="Gabriellia" />
		<tag k="natural" v="slope" />
		<tag k="place" v="locality" />
		<tag k="ssr:stedsnr" v="951617" />
	</node>
	<node lat="67.69026388676559" lon="12.695236105123096" id="-22481">
		<tag k="name" v="Kalvdalen" />
		<tag k="natural" v="valley" />
		<tag k="place" v="locality" />
		<tag k="ssr:stedsnr" v="951715" />
	</node>
</osm>
