<?xml version="1.0" encoding="UTF-8"?>
<osm version="0.6" generator="osmapis">
	<node lat="60.834516669389146" lon="11.35442500118926" id="-19170">
		<tag k="bridge" v="yes" />
		<tag k="layer" v="1" />
		<tag k="name" v="Seglabrua" />
		<tag k="ssr:stedsnr" v="231455" />
	</node>
	<node lat="60.81873473471241" lon="11.342046000351209" id="-19180">
		<tag k="alt_name" v="Løten" />
		<tag k="name" v="Løten stasjon" />
		<tag k="railway" v="station" />
		<tag k="ssr:stedsnr" v="9802" />
		<tag k="train" v="yes" />
	</node>
	<node lat="60.763077782079186" lon="11.544088881169282" id="-19303">
		<tag k="alt_name" v="Rennbrua" />
		<tag k="bridge" v="yes" />
		<tag k="layer" v="1" />
		<tag k="name" v="Rennebrua" />
		<tag k="ssr:stedsnr" v="191304" />
	</node>
	<node lat="60.86877500419989" lon="11.39515277836246" id="-19337">
		<tag k="highway" v="path" />
		<tag k="name" v="Sagåbakkmyrvegen" />
		<tag k="ssr:stedsnr" v="292380" />
	</node>
	<node lat="60.79665000445767" lon="11.345613890111272" id="-19339">
		<tag k="junction" v="yes" />
		<tag k="name" v="Skjervetangen" />
		<tag k="place" v="locality" />
		<tag k="ssr:stedsnr" v="292581" />
	</node>
	<node lat="60.786769442871204" lon="11.302138892427372" id="-19363">
		<tag k="bridge" v="yes" />
		<tag k="layer" v="1" />
		<tag k="loc_name" v="Klevfoss bru" />
		<tag k="name" v="Klevfos bru" />
		<tag k="ssr:stedsnr" v="470599" />
	</node>
	<node lat="60.85726111327257" lon="11.29991665883157" id="-19382">
		<tag k="junction" v="yes" />
		<tag k="name" v="Reksla" />
		<tag k="place" v="locality" />
		<tag k="ssr:stedsnr" v="474462" />
	</node>
	<node lat="61.031597220082055" lon="11.24885555792237" id="-19457">
		<tag k="highway" v="path" />
		<tag k="name" v="Brennsæterstien" />
		<tag k="ssr:stedsnr" v="473717" />
	</node>
	<node lat="60.78789166590144" lon="11.33321389448027" id="-19468">
		<tag k="junction" v="yes" />
		<tag k="name" v="Veiberg" />
		<tag k="place" v="locality" />
		<tag k="ssr:stedsnr" v="474925" />
	</node>
	<node lat="60.83987222498641" lon="11.383916661288811" id="-19498">
		<tag k="junction" v="yes" />
		<tag k="name" v="Rosetporten" />
		<tag k="place" v="locality" />
		<tag k="ssr:stedsnr" v="534421" />
	</node>
	<node lat="60.869191664051904" lon="11.333983338141945" id="-19531">
		<tag k="bridge" v="yes" />
		<tag k="layer" v="1" />
		<tag k="name" v="Grylling" />
		<tag k="ssr:stedsnr" v="591564" />
	</node>
	<node lat="60.8132083306078" lon="11.308119439471762" id="-19587">
		<tag k="bridge" v="yes" />
		<tag k="layer" v="1" />
		<tag k="name" v="Høllingstad" />
		<tag k="ssr:stedsnr" v="713629" />
	</node>
	<node lat="60.822297221543174" lon="11.334597221940264" id="-19606">
		<tag k="junction" v="yes" />
		<tag k="name" v="Venskrysset" />
		<tag k="place" v="locality" />
		<tag k="ssr:stedsnr" v="899476" />
	</node>
	<node lat="60.846466667885466" lon="11.461947224113645" id="-19613">
		<tag k="ford" v="yes" />
		<tag k="name" v="Killingbekkvadet" />
		<tag k="place" v="locality" />
		<tag k="ssr:stedsnr" v="899683" />
	</node>
	<node lat="60.797223380859826" lon="11.306483309479756" id="-19691">
		<tag k="name" v="Ådalsbruk stasjon" />
		<tag k="railway" v="station" />
		<tag k="ssr:stedsnr" v="919870" />
		<tag k="train" v="yes" />
	</node>
	<node lat="60.78487222183022" lon="11.460541659625495" id="-19703">
		<tag k="fixme" v="verify maritime location" />
		<tag k="mooring" v="yes" />
		<tag k="name" v="Rokobåtstøa" />
		<tag k="place" v="locality" />
		<tag k="ssr:stedsnr" v="837796" />
	</node>
	<node lat="60.79014444250207" lon="11.273452783218486" id="-19706">
		<tag k="junction" v="yes" />
		<tag k="name" v="Hørsand kryss" />
		<tag k="place" v="locality" />
		<tag k="ssr:stedsnr" v="838404" />
	</node>
	<node lat="60.822288886072364" lon="11.336099998074285" id="-19749">
		<tag k="bridge" v="yes" />
		<tag k="layer" v="1" />
		<tag k="name" v="Vingerjesa" />
		<tag k="ssr:stedsnr" v="956660" />
	</node>
	<node lat="60.98224722095189" lon="11.243630559355928" id="-19775">
		<tag k="man_made" v="cairn" />
		<tag k="name" v="Målivarden" />
		<tag k="place" v="locality" />
		<tag k="ssr:stedsnr" v="48584" />
	</node>
	<node lat="60.78749722453131" lon="11.403544441438443" id="-19831">
		<tag k="bridge" v="yes" />
		<tag k="layer" v="1" />
		<tag k="name" v="Kanalbrua" />
		<tag k="ssr:stedsnr" v="106598" />
	</node>
	<node lat="60.83450555222192" lon="11.354383331769904" id="-19832">
		<tag k="bridge" v="yes" />
		<tag k="layer" v="1" />
		<tag k="name" v="Segla bru" />
		<tag k="ssr:stedsnr" v="106600" />
	</node>
	<node lat="60.979522225776726" lon="11.334366662722484" id="-19842">
		<tag k="ford" v="yes" />
		<tag k="name" v="Hindret" />
		<tag k="place" v="locality" />
		<tag k="ssr:stedsnr" v="110454" />
	</node>
	<node lat="60.808936111262064" lon="11.443141666793613" id="-19843">
		<tag k="ford" v="yes" />
		<tag k="name" v="Bjørnbekkvadet" />
		<tag k="place" v="locality" />
		<tag k="ssr:stedsnr" v="110547" />
	</node>
	<node lat="60.84626944701397" lon="11.358327782543363" id="-19883">
		<tag k="bridge" v="yes" />
		<tag k="layer" v="1" />
		<tag k="name" v="Ånestad" />
		<tag k="ssr:stedsnr" v="167647" />
	</node>
	<node lat="60.896263889814456" lon="11.262513880861535" id="-19898">
		<tag k="highway" v="path" />
		<tag k="name" v="Midtlinstien (Bårdsæterstien)" />
		<tag k="ssr:stedsnr" v="170492" />
	</node>
	<node lat="60.87016944012035" lon="11.371216661760554" id="-19905">
		<tag k="junction" v="yes" />
		<tag k="name" v="Heimdal" />
		<tag k="place" v="locality" />
		<tag k="ssr:stedsnr" v="170999" />
	</node>
	<node lat="60.847783332443285" lon="11.364605557389716" id="-20017">
		<tag k="junction" v="yes" />
		<tag k="name" v="Ånestadkrysset" />
		<tag k="place" v="locality" />
		<tag k="ssr:stedsnr" v="413459" />
	</node>
	<node lat="61.063174996571234" lon="11.184788881470602" id="-20044">
		<tag k="highway" v="path" />
		<tag k="name" v="Rondanestien" />
		<tag k="ssr:stedsnr" v="446185" />
	</node>
	<node lat="60.846050001303645" lon="11.35945833611505" id="-20083">
		<tag k="bridge" v="yes" />
		<tag k="layer" v="1" />
		<tag k="name" v="Ånestad bru" />
		<tag k="ssr:stedsnr" v="591585" />
	</node>
	<node lat="60.82553610720342" lon="11.347066662774457" id="-20173">
		<tag k="bridge" v="yes" />
		<tag k="layer" v="1" />
		<tag k="name" v="Grindereng" />
		<tag k="ssr:stedsnr" v="774644" />
	</node>
	<node lat="60.82812500449477" lon="11.306066667968434" id="-20174">
		<tag k="bridge" v="yes" />
		<tag k="layer" v="1" />
		<tag k="name" v="Brenneri" />
		<tag k="ssr:stedsnr" v="774645" />
	</node>
	<node lat="60.899725000919396" lon="11.283461107627433" id="-20266">
		<tag k="highway" v="path" />
		<tag k="name" v="Nordbystien" />
		<tag k="ssr:stedsnr" v="958743" />
	</node>
	<node lat="60.864266664745664" lon="11.399605557855116" id="-20274">
		<tag k="highway" v="path" />
		<tag k="name" v="Sagåbakkmyrvegen" />
		<tag k="ssr:stedsnr" v="959436" />
	</node>
</osm>
