<?xml version="1.0" encoding="UTF-8"?>
<osm generator="osmapis" version="0.6">
	<node id="-309243" lat="60.7353027814" lon="11.4981333289">
		<tag k="name" v="Lømo" />
		<tag k="place" v="farm" />
		<tag k="ssr:stedsnr" v="777280" />
	</node>
	<node id="-309242" lat="60.8594472217" lon="11.2875500048">
		<tag k="name" v="Tomsrønningen" />
		<tag k="place" v="farm" />
		<tag k="ssr:stedsnr" v="777254" />
	</node>
	<node id="-309238" lat="60.9489444454" lon="11.2763361188">
		<tag k="name" v="Svaenlia" />
		<tag k="place" v="neighbourhood" />
		<tag k="ssr:stedsnr" v="776712" />
	</node>
	<node id="-309236" lat="60.870111115" lon="11.3723722206">
		<tag k="fixme" v="consider place=suburb, village or hamlet" />
		<tag k="name" v="Jønsrud" />
		<tag k="place" v="quarter" />
		<tag k="ssr:stedsnr" v="753014" />
	</node>
	<node id="-309234" lat="60.8333472225" lon="11.2715527733">
		<tag k="name" v="Nordaker" />
		<tag k="place" v="farm" />
		<tag k="ssr:stedsnr" v="737796" />
	</node>
	<node id="-309233" lat="60.8440577064" lon="11.3774891074">
		<tag k="fixme" v="consider place=hamlet" />
		<tag k="name" v="Stabberud" />
		<tag k="place" v="farm" />
		<tag k="ssr:stedsnr" v="737774" />
	</node>
	<node id="-309232" lat="60.8412393825" lon="11.2881424687">
		<tag k="alt_name" v="Vestre Lund" />
		<tag k="fixme" v="consider place=hamlet" />
		<tag k="name" v="Lund" />
		<tag k="place" v="farm" />
		<tag k="ssr:stedsnr" v="737769" />
	</node>
	<node id="-309231" lat="60.8715611136" lon="11.3772138817">
		<tag k="name" v="Anberg" />
		<tag k="place" v="farm" />
		<tag k="ssr:stedsnr" v="899998" />
	</node>
	<node id="-309230" lat="60.7859373558" lon="11.3242654367">
		<tag k="fixme" v="consider place=hamlet" />
		<tag k="name" v="Ålsvoll" />
		<tag k="place" v="farm" />
		<tag k="ssr:stedsnr" v="899930" />
	</node>
	<node id="-309229" lat="60.8286140674" lon="11.3146235788">
		<tag k="fixme" v="consider place=hamlet" />
		<tag k="name" v="Løten prestegård" />
		<tag k="place" v="farm" />
		<tag k="ssr:stedsnr" v="899924" />
	</node>
	<node id="-309228" lat="60.820080556" lon="11.3835833359">
		<tag k="name" v="Hanstad" />
		<tag k="place" v="farm" />
		<tag k="ssr:stedsnr" v="899891" />
	</node>
	<node id="-309226" lat="60.8838055545" lon="11.3438638902">
		<tag k="name" v="Holstua" />
		<tag k="place" v="farm" />
		<tag k="ssr:stedsnr" v="899988" />
	</node>
	<node id="-309225" lat="60.8118277747" lon="11.29838055">
		<tag k="name" v="Rønningen" />
		<tag k="place" v="farm" />
		<tag k="ssr:stedsnr" v="899582" />
	</node>
	<node id="-309224" lat="60.8313388924" lon="11.3130305604">
		<tag k="amenity" v="school" />
		<tag k="name" v="Lund skole" />
		<tag k="ssr:stedsnr" v="899539" />
	</node>
	<node id="-309211" lat="60.7502888915" lon="11.575911105">
		<tag k="name" v="Bronkebakken" />
		<tag k="place" v="farm" />
		<tag k="ssr:stedsnr" v="899298" />
	</node>
	<node id="-309209" lat="60.8449916702" lon="11.3083277719">
		<tag k="name" v="Lillehagen" />
		<tag k="place" v="farm" />
		<tag k="ssr:stedsnr" v="898987" />
	</node>
	<node id="-309208" lat="60.9259166626" lon="11.420797226">
		<tag k="name" v="Storkoia" />
		<tag k="place" v="isolated_dwelling" />
		<tag k="ssr:stedsnr" v="898796" />
	</node>
	<node id="-309206" lat="60.7968666661" lon="11.2447444376">
		<tag k="name" v="Åsheim" />
		<tag k="place" v="farm" />
		<tag k="ssr:stedsnr" v="716953" />
	</node>
	<node id="-309205" lat="60.8777083297" lon="11.2965222258">
		<tag k="name" v="Mykirønningen" />
		<tag k="place" v="farm" />
		<tag k="ssr:stedsnr" v="716609" />
	</node>
	<node id="-309198" lat="60.7557472264" lon="11.564488893">
		<tag k="amenity" v="school" />
		<tag k="name" v="Solbakken" />
		<tag k="ssr:stedsnr" v="716318" />
	</node>
	<node id="-309196" lat="60.8621361122" lon="11.3682805602">
		<tag k="name" v="Haraldsrud" />
		<tag k="old_name" v="Haraldstad" />
		<tag k="place" v="farm" />
		<tag k="ssr:stedsnr" v="716311" />
	</node>
	<node id="-309195" lat="60.8696916703" lon="11.3088222242">
		<tag k="name" v="Søndre Alfei" />
		<tag k="place" v="isolated_dwelling" />
		<tag k="ssr:stedsnr" v="713437" />
	</node>
	<node id="-309194" lat="60.8931568725" lon="11.3616319022">
		<tag k="fixme" v="consider place=hamlet" />
		<tag k="name" v="Løvlia" />
		<tag k="place" v="farm" />
		<tag k="ssr:stedsnr" v="886633" />
	</node>
	<node id="-309193" lat="60.8024638927" lon="11.241274998">
		<tag k="name" v="Volla" />
		<tag k="place" v="farm" />
		<tag k="ssr:stedsnr" v="677857" />
	</node>
	<node id="-309192" lat="60.7870249986" lon="11.3490249914">
		<tag k="amenity" v="kindergarten" />
		<tag k="name" v="Bruvoll barnehage" />
		<tag k="ssr:stedsnr" v="677913" />
	</node>
	<node id="-309191" lat="60.9496694472" lon="11.3532888927">
		<tag k="historic" v="shieling" />
		<tag k="name" v="Storholtet" />
		<tag k="place" v="locality" />
		<tag k="ssr:stedsnr" v="677554" />
	</node>
	<node id="-309190" lat="60.8834888849" lon="11.4220583284">
		<tag k="historic" v="shieling" />
		<tag k="name" v="Nysætra" />
		<tag k="place" v="locality" />
		<tag k="ssr:stedsnr" v="677675" />
	</node>
	<node id="-309189" lat="60.8889355919" lon="11.4013372741">
		<tag k="fixme" v="consider place=hamlet" />
		<tag k="name" v="Libakk" />
		<tag k="place" v="farm" />
		<tag k="ssr:stedsnr" v="677672" />
	</node>
	<node id="-309188" lat="60.8804060457" lon="11.3558438763">
		<tag k="fixme" v="consider place=hamlet" />
		<tag k="name" v="Kavlediket" />
		<tag k="place" v="farm" />
		<tag k="ssr:stedsnr" v="677658" />
	</node>
	<node id="-309185" lat="60.8857951676" lon="11.342828337">
		<tag k="alt_name" v="Holen, nordre" />
		<tag k="fixme" v="consider place=hamlet" />
		<tag k="name" v="Nordre Holen" />
		<tag k="place" v="farm" />
		<tag k="ssr:stedsnr" v="677629" />
	</node>
	<node id="-309182" lat="60.8239214979" lon="11.3977927982">
		<tag k="fixme" v="consider place=hamlet" />
		<tag k="name" v="Gauksletta" />
		<tag k="place" v="farm" />
		<tag k="ssr:stedsnr" v="676814" />
	</node>
	<node id="-309180" lat="60.8208527757" lon="11.3637555612">
		<tag k="name" v="Tangneshagen" />
		<tag k="place" v="farm" />
		<tag k="ssr:stedsnr" v="655889" />
	</node>
	<node id="-309179" lat="60.8133083299" lon="11.3364999984">
		<tag k="name" v="Breidablikk" />
		<tag k="place" v="farm" />
		<tag k="ssr:stedsnr" v="655870" />
	</node>
	<node id="-309178" lat="60.8079000043" lon="11.3133055503">
		<tag k="name" v="Finnstadødegården" />
		<tag k="place" v="farm" />
		<tag k="ssr:stedsnr" v="655864" />
	</node>
	<node id="-309175" lat="60.8230722216" lon="11.3524416688">
		<tag k="amenity" v="school" />
		<tag k="name" v="Østvang skole" />
		<tag k="ssr:stedsnr" v="655455" />
	</node>
	<node id="-309174" lat="60.735497219" lon="11.5181111089">
		<tag k="alt_name" v="Hagenstuen" />
		<tag k="name" v="Hagastua" />
		<tag k="place" v="farm" />
		<tag k="ssr:stedsnr" v="735454" />
	</node>
	<node id="-309173" lat="60.7256194426" lon="11.491936112">
		<tag k="name" v="Sørsveen" />
		<tag k="place" v="farm" />
		<tag k="ssr:stedsnr" v="735313" />
	</node>
	<node id="-309171" lat="60.7715722243" lon="11.4736277845">
		<tag k="name" v="Høyby" />
		<tag k="old_name" v="Høiby" />
		<tag k="place" v="farm" />
		<tag k="ssr:stedsnr" v="628858" />
	</node>
	<node id="-309170" lat="60.8457830161" lon="11.3060462043">
		<tag k="fixme" v="consider place=hamlet" />
		<tag k="name" v="Bergseng" />
		<tag k="place" v="farm" />
		<tag k="ssr:stedsnr" v="616754" />
	</node>
	<node id="-309166" lat="60.8270357618" lon="11.2972411032">
		<tag k="fixme" v="consider place=hamlet" />
		<tag k="name" v="Tønset" />
		<tag k="place" v="farm" />
		<tag k="ssr:stedsnr" v="615799" />
	</node>
	<node id="-309165" lat="60.8185247258" lon="11.3101730829">
		<tag k="alt_name" v="Norseng" />
		<tag k="fixme" v="consider place=hamlet" />
		<tag k="name" v="Nørseng" />
		<tag k="place" v="farm" />
		<tag k="ssr:stedsnr" v="615796" />
	</node>
	<node id="-309164" lat="60.8272313408" lon="11.3938509364">
		<tag k="fixme" v="consider place=hamlet" />
		<tag k="name" v="Høgholen" />
		<tag k="place" v="farm" />
		<tag k="ssr:stedsnr" v="615785" />
	</node>
	<node id="-309163" lat="60.8278580397" lon="11.3987471745">
		<tag k="fixme" v="consider place=hamlet" />
		<tag k="name" v="Nysvea" />
		<tag k="place" v="farm" />
		<tag k="ssr:stedsnr" v="615783" />
	</node>
	<node id="-309162" lat="60.8290234839" lon="11.270647362">
		<tag k="fixme" v="consider place=hamlet" />
		<tag k="name" v="Jevnaker" />
		<tag k="place" v="farm" />
		<tag k="ssr:stedsnr" v="615776" />
	</node>
	<node id="-309161" lat="60.8831414042" lon="11.2834302798">
		<tag k="fixme" v="consider place=hamlet" />
		<tag k="name" v="Hjelsengsvea" />
		<tag k="place" v="farm" />
		<tag k="ssr:stedsnr" v="615620" />
	</node>
	<node id="-309159" lat="60.6776277766" lon="11.6220555632">
		<tag k="alt_name" v="Veltdamkoia" />
		<tag k="name" v="Vesldamkoia" />
		<tag k="place" v="isolated_dwelling" />
		<tag k="ssr:stedsnr" v="613366" />
	</node>
	<node id="-309157" lat="60.8344888862" lon="11.3652583369">
		<tag k="name" v="Søplet" />
		<tag k="place" v="farm" />
		<tag k="ssr:stedsnr" v="716914" />
	</node>
	<node id="-309156" lat="60.8145388926" lon="11.3581611144">
		<tag k="name" v="Engesletten" />
		<tag k="place" v="farm" />
		<tag k="ssr:stedsnr" v="716889" />
	</node>
	<node id="-309155" lat="60.8233611131" lon="11.4370083413">
		<tag k="name" v="Mosjøkoia" />
		<tag k="place" v="locality" />
		<tag k="ssr:stedsnr" v="716856" />
	</node>
	<node id="-309154" lat="60.7603833329" lon="11.3356944356">
		<tag k="loc_name" v="Nybakk" />
		<tag k="name" v="Nybak" />
		<tag k="place" v="farm" />
		<tag k="ssr:stedsnr" v="716786" />
	</node>
	<node id="-309147" lat="60.8684499974" lon="11.3611416643">
		<tag k="name" v="Sandås" />
		<tag k="place" v="isolated_dwelling" />
		<tag k="ssr:stedsnr" v="716482" />
	</node>
	<node id="-309146" lat="60.8222111112" lon="11.3406055555">
		<tag k="name" v="Elvebakken" />
		<tag k="place" v="quarter" />
		<tag k="ssr:stedsnr" v="716478" />
	</node>
	<node id="-309144" lat="60.7948444442" lon="11.3553888876">
		<tag k="name" v="Bekk" />
		<tag k="place" v="farm" />
		<tag k="ssr:stedsnr" v="595915" />
	</node>
	<node id="-309143" lat="60.7904638908" lon="11.3392249959">
		<tag k="name" v="Skogly" />
		<tag k="place" v="farm" />
		<tag k="ssr:stedsnr" v="595912" />
	</node>
	<node id="-309142" lat="60.8243556185" lon="11.314098082">
		<tag k="fixme" v="consider place=hamlet" />
		<tag k="name" v="Vestre Norderhov" />
		<tag k="place" v="farm" />
		<tag k="ssr:stedsnr" v="595852" />
	</node>
	<node id="-309140" lat="60.7744245147" lon="11.3761692971">
		<tag k="fixme" v="consider place=hamlet" />
		<tag k="name" v="Slåttsvea" />
		<tag k="place" v="farm" />
		<tag k="ssr:stedsnr" v="555912" />
	</node>
	<node id="-309139" lat="60.7729444415" lon="11.4025611134">
		<tag k="alt_name" v="Nordre Grønsvea" />
		<tag k="name" v="Grønsvea" />
		<tag k="place" v="farm" />
		<tag k="ssr:stedsnr" v="555910" />
	</node>
	<node id="-309137" lat="60.8624169621" lon="11.3218197866">
		<tag k="alt_name" v="Kvæstad øde" />
		<tag k="fixme" v="consider place=hamlet" />
		<tag k="name" v="Økvestad" />
		<tag k="place" v="farm" />
		<tag k="ssr:stedsnr" v="555710" />
	</node>
	<node id="-309135" lat="60.7966972258" lon="11.2584611117">
		<tag k="name" v="Birkely" />
		<tag k="place" v="farm" />
		<tag k="ssr:stedsnr" v="555866" />
	</node>
	<node id="-309134" lat="60.8690678162" lon="11.3187414214">
		<tag k="fixme" v="consider place=hamlet" />
		<tag k="name" v="Klette" />
		<tag k="place" v="farm" />
		<tag k="ssr:stedsnr" v="555667" />
	</node>
	<node id="-309133" lat="60.9027694479" lon="11.4449666712">
		<tag k="name" v="Nierkoia" />
		<tag k="place" v="locality" />
		<tag k="ssr:stedsnr" v="534953" />
	</node>
	<node id="-309132" lat="60.7574111067" lon="11.463633332">
		<tag k="name" v="Nedre Godbakklikoia" />
		<tag k="place" v="isolated_dwelling" />
		<tag k="ssr:stedsnr" v="534752" />
	</node>
	<node id="-309131" lat="60.8249805559" lon="11.2735166602">
		<tag k="name" v="Moen" />
		<tag k="place" v="farm" />
		<tag k="ssr:stedsnr" v="534583" />
	</node>
	<node id="-309130" lat="60.8258055533" lon="11.2650222296">
		<tag k="name" v="Grønli" />
		<tag k="place" v="farm" />
		<tag k="ssr:stedsnr" v="534578" />
	</node>
	<node id="-309129" lat="60.8020777785" lon="11.2749611045">
		<tag k="name" v="Furubakken" />
		<tag k="place" v="isolated_dwelling" />
		<tag k="ssr:stedsnr" v="534575" />
	</node>
	<node id="-309128" lat="60.8087833308" lon="11.2963611142">
		<tag k="name" v="Rustadstua" />
		<tag k="place" v="farm" />
		<tag k="ssr:stedsnr" v="534571" />
	</node>
	<node id="-309125" lat="60.8283555551" lon="11.2862111072">
		<tag k="name" v="Nordal" />
		<tag k="place" v="farm" />
		<tag k="ssr:stedsnr" v="534622" />
	</node>
	<node id="-309123" lat="60.8054670406" lon="11.3281869193">
		<tag k="fixme" v="consider place=hamlet" />
		<tag k="name" v="Finnstad" />
		<tag k="place" v="farm" />
		<tag k="ssr:stedsnr" v="506085" />
	</node>
	<node id="-309122" lat="60.8773722258" lon="11.3081611187">
		<tag k="alt_name" v="Mykju, l;Myki lille" />
		<tag k="name" v="Lille Mykju" />
		<tag k="place" v="farm" />
		<tag k="ssr:stedsnr" v="495675" />
	</node>
	<node id="-309119" lat="60.7890392291" lon="11.2967858508">
		<tag k="fixme" v="consider place=hamlet" />
		<tag k="name" v="By" />
		<tag k="place" v="farm" />
		<tag k="ssr:stedsnr" v="494887" />
	</node>
	<node id="-309117" lat="60.7973041653" lon="11.2789784214">
		<tag k="fixme" v="consider place=hamlet" />
		<tag k="name" v="Haukstad" />
		<tag k="place" v="farm" />
		<tag k="ssr:stedsnr" v="494882" />
	</node>
	<node id="-309116" lat="60.8601225844" lon="11.35544948">
		<tag k="fixme" v="consider place=hamlet" />
		<tag k="name" v="Murstad" />
		<tag k="place" v="farm" />
		<tag k="ssr:stedsnr" v="494710" />
	</node>
	<node id="-309115" lat="60.8553211593" lon="11.3927144185">
		<tag k="alt_name" v="Husom, østre" />
		<tag k="fixme" v="consider place=hamlet" />
		<tag k="name" v="Østre Husom" />
		<tag k="place" v="farm" />
		<tag k="ssr:stedsnr" v="494707" />
	</node>
	<node id="-309112" lat="60.8369000014" lon="11.4392027762">
		<tag k="name" v="Arnstadkoia" />
		<tag k="place" v="locality" />
		<tag k="ssr:stedsnr" v="677798" />
	</node>
	<node id="-309111" lat="60.8413833362" lon="11.381708334">
		<tag k="name" v="Butterud" />
		<tag k="place" v="farm" />
		<tag k="ssr:stedsnr" v="677791" />
	</node>
	<node id="-309110" lat="60.9695444488" lon="11.3045666666">
		<tag k="alt_name" v="Vesleødegardsholtet" />
		<tag k="historic" v="shieling" />
		<tag k="name" v="Veslegardsholtet" />
		<tag k="place" v="locality" />
		<tag k="ssr:stedsnr" v="677585" />
	</node>
	<node id="-309109" lat="60.8013791431" lon="11.4255827506">
		<tag k="fixme" v="consider place=hamlet" />
		<tag k="name" v="Skogsrud" />
		<tag k="place" v="farm" />
		<tag k="ssr:stedsnr" v="677881" />
	</node>
	<node id="-309108" lat="60.8928543187" lon="11.3656831131">
		<tag k="fixme" v="consider place=hamlet" />
		<tag k="name" v="Løvlia" />
		<tag k="place" v="farm" />
		<tag k="ssr:stedsnr" v="676638" />
	</node>
	<node id="-309107" lat="60.8612379747" lon="11.3087599913">
		<tag k="fixme" v="consider place=hamlet" />
		<tag k="name" v="Årsrud" />
		<tag k="place" v="farm" />
		<tag k="ssr:stedsnr" v="676735" />
	</node>
	<node id="-309106" lat="60.8681158916" lon="11.3294380436">
		<tag k="fixme" v="consider place=hamlet" />
		<tag k="name" v="Grylling" />
		<tag k="place" v="farm" />
		<tag k="ssr:stedsnr" v="676691" />
	</node>
	<node id="-309105" lat="60.8646611138" lon="11.461780558">
		<tag k="name" v="Bjørnbekkoia" />
		<tag k="place" v="isolated_dwelling" />
		<tag k="ssr:stedsnr" v="676684" />
	</node>
	<node id="-309104" lat="60.9163888895" lon="11.3306694537">
		<tag k="name" v="Djupdalskoia" />
		<tag k="place" v="isolated_dwelling" />
		<tag k="ssr:stedsnr" v="676595" />
	</node>
	<node id="-309101" lat="60.7483472207" lon="11.5694805517">
		<tag k="name" v="Midtli" />
		<tag k="place" v="farm" />
		<tag k="ssr:stedsnr" v="674429" />
	</node>
	<node id="-309096" lat="60.8619444411" lon="11.35561388">
		<tag k="name" v="Frogner" />
		<tag k="place" v="farm" />
		<tag k="ssr:stedsnr" v="655977" />
	</node>
	<node id="-309095" lat="60.6940833326" lon="11.6191499995">
		<tag k="name" v="Søndre Bendikkoia" />
		<tag k="place" v="isolated_dwelling" />
		<tag k="ssr:stedsnr" v="655969" />
	</node>
	<node id="-309093" lat="60.8896027765" lon="11.4384666691">
		<tag k="name" v="Grasbakkmyrkoia" />
		<tag k="place" v="locality" />
		<tag k="ssr:stedsnr" v="655950" />
	</node>
	<node id="-309092" lat="60.984161114" lon="11.3342805634">
		<tag k="name" v="Nordhuekoia" />
		<tag k="place" v="isolated_dwelling" />
		<tag k="ssr:stedsnr" v="655948" />
	</node>
	<node id="-309091" lat="60.7794916705" lon="11.3307666732">
		<tag k="name" v="Ekeberg" />
		<tag k="place" v="farm" />
		<tag k="ssr:stedsnr" v="655921" />
	</node>
	<node id="-309090" lat="60.9081111139" lon="11.2806916745">
		<tag k="name" v="Norbykoia" />
		<tag k="place" v="isolated_dwelling" />
		<tag k="ssr:stedsnr" v="655789" />
	</node>
	<node id="-309089" lat="60.7315500011" lon="11.5519944517">
		<tag k="name" v="Borrekoia" />
		<tag k="place" v="isolated_dwelling" />
		<tag k="ssr:stedsnr" v="655762" />
	</node>
	<node id="-309088" lat="60.7162611071" lon="11.5253500051">
		<tag k="name" v="Nysvekoia" />
		<tag k="place" v="isolated_dwelling" />
		<tag k="ssr:stedsnr" v="655758" />
	</node>
	<node id="-309087" lat="60.7699444414" lon="11.4834194353">
		<tag k="name" v="Rokostuen" />
		<tag k="place" v="farm" />
		<tag k="ssr:stedsnr" v="655750" />
	</node>
	<node id="-309086" lat="60.7735361107" lon="11.472825003">
		<tag k="name" v="Prestløkken" />
		<tag k="place" v="farm" />
		<tag k="ssr:stedsnr" v="655748" />
	</node>
	<node id="-309081" lat="60.8054616426" lon="11.3759684569">
		<tag k="fixme" v="consider place=hamlet" />
		<tag k="name" v="Færgen" />
		<tag k="place" v="farm" />
		<tag k="ssr:stedsnr" v="434828" />
	</node>
	<node id="-309080" lat="60.8101416708" lon="11.2403055646">
		<tag k="name" v="Li" />
		<tag k="place" v="isolated_dwelling" />
		<tag k="ssr:stedsnr" v="434814" />
	</node>
	<node id="-309079" lat="60.8114933463" lon="11.2775956321">
		<tag k="fixme" v="consider place=hamlet" />
		<tag k="name" v="Skillingstad" />
		<tag k="place" v="farm" />
		<tag k="ssr:stedsnr" v="434802" />
	</node>
	<node id="-309077" lat="60.8399188064" lon="11.3489151988">
		<tag k="alt_name" v="Skramstad østre" />
		<tag k="name" v="Skramstad" />
		<tag k="place" v="hamlet" />
		<tag k="ssr:stedsnr" v="434740" />
	</node>
	<node id="-309076" lat="60.8425805549" lon="11.3214444379">
		<tag k="alt_name" v="Rømma, vestre;Rømma;Stor-Rømma;Rømmen store" />
		<tag k="name" v="Vestre Rømma" />
		<tag k="place" v="farm" />
		<tag k="ssr:stedsnr" v="434739" />
	</node>
	<node id="-309074" lat="60.779113886" lon="11.5216055628">
		<tag k="name" v="Sagen" />
		<tag k="place" v="farm" />
		<tag k="ssr:stedsnr" v="434329" />
	</node>
	<node id="-309073" lat="60.7266691917" lon="11.5591350327">
		<tag k="fixme" v="consider place=hamlet" />
		<tag k="name" v="Stensåsen" />
		<tag k="place" v="farm" />
		<tag k="ssr:stedsnr" v="432259" />
	</node>
	<node id="-309072" lat="60.7518251694" lon="11.5758195097">
		<tag k="fixme" v="consider place=hamlet" />
		<tag k="name" v="Øvre Solberg" />
		<tag k="place" v="farm" />
		<tag k="ssr:stedsnr" v="413315" />
	</node>
	<node id="-309071" lat="60.7715500012" lon="11.402697218">
		<tag k="name" v="Østre Grønsvea" />
		<tag k="place" v="farm" />
		<tag k="ssr:stedsnr" v="405916" />
	</node>
	<node id="-309070" lat="60.7385833349" lon="11.4961333371">
		<tag k="fixme" v="consider place=hamlet" />
		<tag k="name" v="Oppegård" />
		<tag k="place" v="village" />
		<tag k="ssr:stedsnr" v="389003" />
	</node>
	<node id="-309069" lat="60.7672156712" lon="11.398675527">
		<tag k="fixme" v="consider place=hamlet" />
		<tag k="name" v="Grønsvea" />
		<tag k="place" v="farm" />
		<tag k="ssr:stedsnr" v="373958" />
	</node>
	<node id="-309068" lat="60.7747281495" lon="11.359292229">
		<tag k="fixme" v="consider place=hamlet" />
		<tag k="name" v="Kollset" />
		<tag k="place" v="farm" />
		<tag k="ssr:stedsnr" v="373918" />
	</node>
	<node id="-309067" lat="60.8043869468" lon="11.4099484566">
		<tag k="fixme" v="consider place=hamlet" />
		<tag k="name" v="Stubberud" />
		<tag k="place" v="farm" />
		<tag k="ssr:stedsnr" v="373877" />
	</node>
	<node id="-309066" lat="60.8031861569" lon="11.3050192737">
		<tag k="fixme" v="consider place=hamlet" />
		<tag k="name" v="Nordre Ommang" />
		<tag k="place" v="farm" />
		<tag k="ssr:stedsnr" v="373864" />
	</node>
	<node id="-309065" lat="60.8194083368" lon="11.3420944458">
		<tag k="name" v="Løten" />
		<tag k="place" v="village" />
		<tag k="ssr:stedsnr" v="373820" />
	</node>
	<node id="-309063" lat="60.825964505" lon="11.374771696">
		<tag k="fixme" v="consider place=hamlet" />
		<tag k="name" v="Jønsberg" />
		<tag k="place" v="farm" />
		<tag k="ssr:stedsnr" v="373818" />
	</node>
	<node id="-309061" lat="60.8794722232" lon="11.399180561">
		<tag k="name" v="Nordre Sjølia" />
		<tag k="place" v="farm" />
		<tag k="ssr:stedsnr" v="373664" />
	</node>
	<node id="-309060" lat="60.8905783469" lon="11.3831521483">
		<tag k="alt_name" v="Marken" />
		<tag k="fixme" v="consider place=hamlet" />
		<tag k="name" v="Marka" />
		<tag k="place" v="farm" />
		<tag k="ssr:stedsnr" v="373660" />
	</node>
	<node id="-309059" lat="60.8142472198" lon="11.35175834">
		<tag k="alt_name" v="Berg vestre" />
		<tag k="name" v="Berg" />
		<tag k="place" v="farm" />
		<tag k="ssr:stedsnr" v="373658" />
	</node>
	<node id="-309058" lat="60.868134589" lon="11.2733398214">
		<tag k="alt_name" v="Brøttet" />
		<tag k="fixme" v="consider place=hamlet" />
		<tag k="name" v="Brotet" />
		<tag k="place" v="farm" />
		<tag k="ssr:stedsnr" v="373718" />
	</node>
	<node id="-309057" lat="60.9672583294" lon="11.3278138953">
		<tag k="name" v="Øysætra" />
		<tag k="place" v="hamlet" />
		<tag k="ssr:stedsnr" v="373604" />
	</node>
	<node id="-309056" lat="60.7555611066" lon="11.5638138962">
		<tag k="name" v="Rønningstad" />
		<tag k="place" v="farm" />
		<tag k="ssr:stedsnr" v="373410" />
	</node>
	<node id="-309055" lat="60.7689611122" lon="11.5397611133">
		<tag k="alt_name" v="Kjernsholen" />
		<tag k="name" v="Tjernsholen" />
		<tag k="place" v="farm" />
		<tag k="ssr:stedsnr" v="373320" />
	</node>
	<node id="-309054" lat="60.7697333307" lon="11.5421750024">
		<tag k="name" v="Nybakk" />
		<tag k="place" v="farm" />
		<tag k="ssr:stedsnr" v="373311" />
	</node>
	<node id="-309053" lat="60.7344361123" lon="11.4868749929">
		<tag k="alt_name" v="Engesverønningen" />
		<tag k="name" v="Rønningen" />
		<tag k="place" v="farm" />
		<tag k="ssr:stedsnr" v="371277" />
	</node>
	<node id="-309052" lat="60.7354888895" lon="11.491141669">
		<tag k="name" v="Skjærbakken" />
		<tag k="old_name" v="Skjerbakken" />
		<tag k="place" v="farm" />
		<tag k="ssr:stedsnr" v="371276" />
	</node>
	<node id="-309050" lat="60.8369861147" lon="11.4660749913">
		<tag k="fixme" v="consider tourism=alpine_hut or tourism=chalet" />
		<tag k="name" v="Svartskogkoia" />
		<tag k="old_name" v="Svartskog" />
		<tag k="ssr:stedsnr" v="495794" />
		<tag k="tourism" v="wilderness_hut" />
	</node>
	<node id="-309049" lat="60.8772972244" lon="11.3499472135">
		<tag k="name" v="Nordby" />
		<tag k="place" v="farm" />
		<tag k="ssr:stedsnr" v="495678" />
	</node>
	<node id="-309047" lat="60.8137114223" lon="11.3674143527">
		<tag k="fixme" v="consider place=hamlet" />
		<tag k="name" v="Dyri" />
		<tag k="place" v="farm" />
		<tag k="ssr:stedsnr" v="494841" />
	</node>
	<node id="-309046" lat="60.8123522168" lon="11.3182902065">
		<tag k="alt_name" v="Rustad, store" />
		<tag k="fixme" v="consider place=hamlet" />
		<tag k="name" v="Store Rustad" />
		<tag k="place" v="farm" />
		<tag k="ssr:stedsnr" v="494826" />
	</node>
	<node id="-309045" lat="60.8133815828" lon="11.3096569759">
		<tag k="fixme" v="consider place=hamlet" />
		<tag k="name" v="Hølingstad" />
		<tag k="place" v="farm" />
		<tag k="ssr:stedsnr" v="494825" />
	</node>
	<node id="-309044" lat="60.8157638851" lon="11.3579361071">
		<tag k="name" v="Lillehov" />
		<tag k="place" v="farm" />
		<tag k="ssr:stedsnr" v="494823" />
	</node>
	<node id="-309043" lat="60.823613891" lon="11.3624888859">
		<tag k="name" v="Vestre Hov" />
		<tag k="place" v="farm" />
		<tag k="ssr:stedsnr" v="494813" />
	</node>
	<node id="-309042" lat="60.8188416681" lon="11.3499611146">
		<tag k="alt_name" v="Næstad" />
		<tag k="name" v="Nestad" />
		<tag k="place" v="farm" />
		<tag k="ssr:stedsnr" v="494812" />
	</node>
	<node id="-309041" lat="60.8210222594" lon="11.3911687931">
		<tag k="alt_name" v="Bløtmyra" />
		<tag k="fixme" v="consider place=hamlet" />
		<tag k="name" v="Myra" />
		<tag k="place" v="farm" />
		<tag k="ssr:stedsnr" v="494804" />
	</node>
	<node id="-309040" lat="60.8319818901" lon="11.3288754501">
		<tag k="fixme" v="consider place=hamlet" />
		<tag k="name" v="Øgrøholt" />
		<tag k="place" v="farm" />
		<tag k="ssr:stedsnr" v="494776" />
	</node>
	<node id="-309039" lat="60.8510660551" lon="11.3289903435">
		<tag k="alt_name" v="Berger" />
		<tag k="fixme" v="consider place=hamlet" />
		<tag k="name" v="Berge" />
		<tag k="place" v="farm" />
		<tag k="ssr:stedsnr" v="494724" />
	</node>
	<node id="-309038" lat="60.8457027529" lon="11.3333480359">
		<tag k="fixme" v="consider place=hamlet" />
		<tag k="name" v="Haugen" />
		<tag k="place" v="farm" />
		<tag k="ssr:stedsnr" v="494722" />
	</node>
	<node id="-309037" lat="60.8510611154" lon="11.2974249925">
		<tag k="name" v="Østby" />
		<tag k="place" v="farm" />
		<tag k="ssr:stedsnr" v="494688" />
	</node>
	<node id="-309035" lat="60.8964086186" lon="11.3011809673">
		<tag k="fixme" v="multiple name tags, choose one and add the other to alt_name; consider place=hamlet" />
		<tag k="name" v="Karlsmyra;Karlstad" />
		<tag k="place" v="farm" />
		<tag k="ssr:stedsnr" v="494614" />
	</node>
	<node id="-309034" lat="60.8819144538" lon="11.3612157424">
		<tag k="fixme" v="consider place=hamlet" />
		<tag k="name" v="Rødmoen" />
		<tag k="place" v="farm" />
		<tag k="ssr:stedsnr" v="494601" />
	</node>
	<node id="-309033" lat="60.8907166657" lon="11.3729083416">
		<tag k="name" v="Søndre Petersborg" />
		<tag k="place" v="farm" />
		<tag k="ssr:stedsnr" v="494597" />
	</node>
	<node id="-309031" lat="60.907277778" lon="11.3116166638">
		<tag k="name" v="Brattbakkoia" />
		<tag k="place" v="isolated_dwelling" />
		<tag k="ssr:stedsnr" v="494568" />
	</node>
	<node id="-309028" lat="60.7557583344" lon="11.5033777819">
		<tag k="alt_name" v="Østre Nordsveen" />
		<tag k="name" v="Nordsvea" />
		<tag k="place" v="farm" />
		<tag k="ssr:stedsnr" v="494395" />
	</node>
	<node id="-309027" lat="60.770255555" lon="11.4885305641">
		<tag k="name" v="Bjølset" />
		<tag k="place" v="farm" />
		<tag k="ssr:stedsnr" v="494311" />
	</node>
	<node id="-309026" lat="60.7678138869" lon="11.4873499913">
		<tag k="name" v="Liberg" />
		<tag k="place" v="farm" />
		<tag k="ssr:stedsnr" v="494309" />
	</node>
	<node id="-309023" lat="60.7106944465" lon="11.5874083341">
		<tag k="name" v="Høgdkoia" />
		<tag k="place" v="isolated_dwelling" />
		<tag k="ssr:stedsnr" v="492276" />
	</node>
	<node id="-309021" lat="60.8334805555" lon="11.3602166649">
		<tag k="name" v="Seglahagen" />
		<tag k="place" v="farm" />
		<tag k="ssr:stedsnr" v="352912" />
	</node>
	<node id="-309020" lat="60.8412222265" lon="11.3361055594">
		<tag k="name" v="Hagabakken" />
		<tag k="place" v="farm" />
		<tag k="ssr:stedsnr" v="352902" />
	</node>
	<node id="-309019" lat="61.0387777796" lon="11.2479194391">
		<tag k="fixme" v="consider tourism=alpine_hut or tourism=chalet" />
		<tag k="name" v="Snippkoia" />
		<tag k="ssr:stedsnr" v="344957" />
		<tag k="tourism" v="wilderness_hut" />
	</node>
	<node id="-309017" lat="60.7885194471" lon="11.3275805575">
		<tag k="name" v="Maihaugen" />
		<tag k="place" v="isolated_dwelling" />
		<tag k="ssr:stedsnr" v="474924" />
	</node>
	<node id="-309016" lat="60.827713885" lon="11.3220944406">
		<tag k="name" v="Vennerslyst" />
		<tag k="place" v="farm" />
		<tag k="ssr:stedsnr" v="474909" />
	</node>
	<node id="-309015" lat="60.7740638899" lon="11.3876944472">
		<tag k="name" v="Brennmyrkoia" />
		<tag k="place" v="isolated_dwelling" />
		<tag k="ssr:stedsnr" v="474905" />
	</node>
	<node id="-309014" lat="60.8274444427" lon="11.3739583353">
		<tag k="name" v="Østråt" />
		<tag k="place" v="farm" />
		<tag k="ssr:stedsnr" v="474900" />
	</node>
	<node id="-309013" lat="60.8000261847" lon="11.3198031048">
		<tag k="fixme" v="consider place=hamlet" />
		<tag k="name" v="Vestre Bjørke" />
		<tag k="place" v="farm" />
		<tag k="ssr:stedsnr" v="474867" />
	</node>
	<node id="-309012" lat="60.8239250039" lon="11.3632472223">
		<tag k="name" v="Midtre Hov" />
		<tag k="place" v="farm" />
		<tag k="ssr:stedsnr" v="474854" />
	</node>
	<node id="-309011" lat="60.743877776" lon="11.5611583315">
		<tag k="name" v="Totbergskoia" />
		<tag k="place" v="isolated_dwelling" />
		<tag k="ssr:stedsnr" v="474772" />
	</node>
	<node id="-309009" lat="60.7685861094" lon="11.5392166607">
		<tag k="name" v="Øvre Kjernsholen" />
		<tag k="place" v="farm" />
		<tag k="ssr:stedsnr" v="474757" />
	</node>
	<node id="-309007" lat="60.8830222198" lon="11.3154249984">
		<tag k="name" v="Nordsetenga" />
		<tag k="place" v="farm" />
		<tag k="ssr:stedsnr" v="474611" />
	</node>
	<node id="-309006" lat="60.8623722188" lon="11.3061222162">
		<tag k="name" v="Bekkelund" />
		<tag k="place" v="isolated_dwelling" />
		<tag k="ssr:stedsnr" v="474595" />
	</node>
	<node id="-308996" lat="60.7649916639" lon="11.3355527687">
		<tag k="name" v="Enga" />
		<tag k="place" v="farm" />
		<tag k="ssr:stedsnr" v="474265" />
	</node>
	<node id="-308995" lat="60.769152775" lon="11.3683027756">
		<tag k="name" v="Grinda" />
		<tag k="place" v="farm" />
		<tag k="ssr:stedsnr" v="313959" />
	</node>
	<node id="-308994" lat="60.8431310134" lon="11.3465432435">
		<tag k="fixme" v="consider place=hamlet" />
		<tag k="name" v="Kroksti" />
		<tag k="place" v="farm" />
		<tag k="ssr:stedsnr" v="313805" />
	</node>
	<node id="-308993" lat="60.7842899819" lon="11.407854794">
		<tag k="fixme" v="consider place=hamlet" />
		<tag k="name" v="Vollmo" />
		<tag k="place" v="farm" />
		<tag k="ssr:stedsnr" v="313913" />
	</node>
	<node id="-308992" lat="60.7848722534" lon="11.4184982308">
		<tag k="alt_name" v="Kolboden" />
		<tag k="fixme" v="consider place=hamlet" />
		<tag k="name" v="Kolbu" />
		<tag k="place" v="farm" />
		<tag k="ssr:stedsnr" v="313912" />
	</node>
	<node id="-308991" lat="60.7925190884" lon="11.3021798687">
		<tag k="name" v="Englaug" />
		<tag k="place" v="hamlet" />
		<tag k="ssr:stedsnr" v="313910" />
	</node>
	<node id="-308990" lat="60.9203444473" lon="11.3049777781">
		<tag k="name" v="Brukoia" />
		<tag k="place" v="locality" />
		<tag k="ssr:stedsnr" v="473806" />
	</node>
	<node id="-308989" lat="60.8804041088" lon="11.3433061579">
		<tag k="fixme" v="consider place=hamlet" />
		<tag k="name" v="Nordre Holen" />
		<tag k="place" v="farm" />
		<tag k="ssr:stedsnr" v="313674" />
	</node>
	<node id="-308988" lat="60.8787461374" lon="11.3247749862">
		<tag k="alt_name" v="Foskum" />
		<tag k="fixme" v="consider place=hamlet" />
		<tag k="name" v="Foskom" />
		<tag k="place" v="farm" />
		<tag k="ssr:stedsnr" v="313667" />
	</node>
	<node id="-308987" lat="60.8757638884" lon="11.3538333383">
		<tag k="alt_name" v="Østhagen" />
		<tag k="name" v="Østerhagen" />
		<tag k="place" v="farm" />
		<tag k="ssr:stedsnr" v="313665" />
	</node>
	<node id="-308986" lat="60.8729499992" lon="11.3621194356">
		<tag k="name" v="Lier" />
		<tag k="place" v="farm" />
		<tag k="ssr:stedsnr" v="313662" />
	</node>
	<node id="-308985" lat="60.875673861" lon="11.3774316498">
		<tag k="fixme" v="consider place=hamlet" />
		<tag k="name" v="Nordre Sagåbakken" />
		<tag k="place" v="farm" />
		<tag k="ssr:stedsnr" v="313659" />
	</node>
	<node id="-308984" lat="60.9585972263" lon="11.3661027784">
		<tag k="name" v="Korperud" />
		<tag k="place" v="isolated_dwelling" />
		<tag k="ssr:stedsnr" v="313607" />
	</node>
	<node id="-308981" lat="60.816594442" lon="11.2897499963">
		<tag k="name" v="Sandmoen" />
		<tag k="place" v="farm" />
		<tag k="ssr:stedsnr" v="312826" />
	</node>
	<node id="-308980" lat="60.816483333" lon="11.3506888913">
		<tag k="name" v="Berg østre" />
		<tag k="place" v="farm" />
		<tag k="ssr:stedsnr" v="312818" />
	</node>
	<node id="-308977" lat="60.8322661431" lon="11.414913223">
		<tag k="fixme" v="consider place=hamlet" />
		<tag k="name" v="Grefsum" />
		<tag k="place" v="farm" />
		<tag k="ssr:stedsnr" v="312775" />
	</node>
	<node id="-308976" lat="60.8330900674" lon="11.3949077397">
		<tag k="fixme" v="consider place=hamlet" />
		<tag k="name" v="Tømmerholen" />
		<tag k="place" v="farm" />
		<tag k="ssr:stedsnr" v="312774" />
	</node>
	<node id="-308961" lat="60.8041666653" lon="11.2926666748">
		<tag k="name" v="Vollen" />
		<tag k="place" v="farm" />
		<tag k="ssr:stedsnr" v="292427" />
	</node>
	<node id="-308960" lat="60.8742209869" lon="11.3501164468">
		<tag k="fixme" v="consider place=hamlet" />
		<tag k="name" v="Nyjordet" />
		<tag k="place" v="farm" />
		<tag k="ssr:stedsnr" v="252610" />
	</node>
	<node id="-308958" lat="60.8311777821" lon="11.2830277824">
		<tag k="name" v="Svea" />
		<tag k="place" v="farm" />
		<tag k="ssr:stedsnr" v="242022" />
	</node>
	<node id="-308956" lat="60.8024497914" lon="11.3049949589">
		<tag k="fixme" v="consider place=hamlet" />
		<tag k="name" v="Søndre Ommang" />
		<tag k="place" v="farm" />
		<tag k="ssr:stedsnr" v="231871" />
	</node>
	<node id="-308951" lat="60.8206472265" lon="11.3380444385">
		<tag k="amenity" v="school" />
		<tag k="name" v="Løten ungdomsskole" />
		<tag k="ssr:stedsnr" v="231554" />
	</node>
	<node id="-308949" lat="60.8704194489" lon="11.2924611076">
		<tag k="name" v="Ringnesrønningen" />
		<tag k="place" v="farm" />
		<tag k="ssr:stedsnr" v="231502" />
	</node>
	<node id="-308945" lat="60.8866527802" lon="11.4200527857">
		<tag k="historic" v="shieling" />
		<tag k="name" v="Nysætra" />
		<tag k="place" v="locality" />
		<tag k="ssr:stedsnr" v="230764" />
	</node>
	<node id="-308944" lat="60.7712416696" lon="11.3352527845">
		<tag k="name" v="Åset" />
		<tag k="place" v="farm" />
		<tag k="ssr:stedsnr" v="230758" />
	</node>
	<node id="-308942" lat="60.8748388913" lon="11.3813472264">
		<tag k="fixme" v="consider place=hamlet" />
		<tag k="name" v="Mellom-Sagåbakken" />
		<tag k="place" v="farm" />
		<tag k="ssr:stedsnr" v="292999" />
	</node>
	<node id="-308941" lat="60.7652888855" lon="11.3810749937">
		<tag k="name" v="Grindkoia" />
		<tag k="place" v="locality" />
		<tag k="ssr:stedsnr" v="292911" />
	</node>
	<node id="-308940" lat="60.8284444465" lon="11.3677749995">
		<tag k="name" v="Skogekern" />
		<tag k="place" v="farm" />
		<tag k="ssr:stedsnr" v="292881" />
	</node>
	<node id="-308939" lat="60.809363888" lon="11.3769944432">
		<tag k="name" v="Engemoen" />
		<tag k="place" v="farm" />
		<tag k="ssr:stedsnr" v="292878" />
	</node>
	<node id="-308937" lat="60.7702277798" lon="11.4425222142">
		<tag k="name" v="Brattbakkoia" />
		<tag k="place" v="isolated_dwelling" />
		<tag k="ssr:stedsnr" v="292747" />
	</node>
	<node id="-308935" lat="60.781786111" lon="11.3639833331">
		<tag k="name" v="Nedre Herdal" />
		<tag k="place" v="farm" />
		<tag k="ssr:stedsnr" v="292606" />
	</node>
	<node id="-308933" lat="60.8244777768" lon="11.3040000024">
		<tag k="name" v="Heggedal" />
		<tag k="place" v="farm" />
		<tag k="ssr:stedsnr" v="292564" />
	</node>
	<node id="-308931" lat="60.7681611083" lon="11.5695055482">
		<tag k="name" v="Haratjernskoia" />
		<tag k="place" v="isolated_dwelling" />
		<tag k="ssr:stedsnr" v="292274" />
	</node>
	<node id="-308929" lat="60.8521583356" lon="11.3772833363">
		<tag k="name" v="Torvestad" />
		<tag k="place" v="farm" />
		<tag k="ssr:stedsnr" v="191706" />
	</node>
	<node id="-308928" lat="60.7965611115" lon="11.2420583276">
		<tag k="name" v="Torstad" />
		<tag k="place" v="farm" />
		<tag k="ssr:stedsnr" v="191846" />
	</node>
	<node id="-308927" lat="60.7965333304" lon="11.3088277848">
		<tag k="fixme" v="consider place=hamlet" />
		<tag k="name" v="Ådalsbruk" />
		<tag k="place" v="village" />
		<tag k="ssr:stedsnr" v="191841" />
	</node>
	<node id="-308926" lat="60.8084337113" lon="11.3871482366">
		<tag k="fixme" v="consider place=hamlet" />
		<tag k="name" v="Flakstad" />
		<tag k="place" v="farm" />
		<tag k="ssr:stedsnr" v="191815" />
	</node>
	<node id="-308925" lat="60.8172083321" lon="11.2926249969">
		<tag k="name" v="Furuset" />
		<tag k="place" v="farm" />
		<tag k="ssr:stedsnr" v="191805" />
	</node>
	<node id="-308924" lat="60.8905479372" lon="11.3624873115">
		<tag k="name" v="Lauveng" />
		<tag k="place" v="farm" />
		<tag k="ssr:stedsnr" v="191605" />
	</node>
	<node id="-308914" lat="60.8925643378" lon="11.3741179454">
		<tag k="fixme" v="consider place=hamlet" />
		<tag k="name" v="Petersborg" />
		<tag k="place" v="farm" />
		<tag k="ssr:stedsnr" v="291130" />
	</node>
	<node id="-308907" lat="60.8259222257" lon="11.3492305629">
		<tag k="name" v="Karudhagan" />
		<tag k="place" v="quarter" />
		<tag k="ssr:stedsnr" v="170403" />
	</node>
	<node id="-308905" lat="60.8146888851" lon="11.3878166711">
		<tag k="name" v="Hagastua" />
		<tag k="place" v="farm" />
		<tag k="ssr:stedsnr" v="130813" />
	</node>
	<node id="-308904" lat="60.8809673297" lon="11.2930658456">
		<tag k="fixme" v="consider place=hamlet" />
		<tag k="name" v="Stenberg" />
		<tag k="place" v="farm" />
		<tag k="ssr:stedsnr" v="130634" />
	</node>
	<node id="-308903" lat="60.8804500024" lon="11.3223750041">
		<tag k="name" v="Langenga" />
		<tag k="place" v="isolated_dwelling" />
		<tag k="ssr:stedsnr" v="130632" />
	</node>
	<node id="-308902" lat="60.8775250002" lon="11.3279444366">
		<tag k="name" v="Kvernenga" />
		<tag k="place" v="farm" />
		<tag k="ssr:stedsnr" v="130631" />
	</node>
	<node id="-308901" lat="60.8915785526" lon="11.309539044">
		<tag k="alt_name" v="Linsvemyren" />
		<tag k="fixme" v="consider place=hamlet" />
		<tag k="name" v="Myre" />
		<tag k="place" v="farm" />
		<tag k="ssr:stedsnr" v="130615" />
	</node>
	<node id="-308900" lat="60.8490138874" lon="11.3379833369">
		<tag k="name" v="Nordvoll" />
		<tag k="place" v="farm" />
		<tag k="ssr:stedsnr" v="130706" />
	</node>
	<node id="-308898" lat="60.851097226" lon="11.4031999913">
		<tag k="name" v="Høyås" />
		<tag k="place" v="farm" />
		<tag k="ssr:stedsnr" v="130704" />
	</node>
	<node id="-308896" lat="60.7935346429" lon="11.4711647342">
		<tag k="fixme" v="consider place=hamlet" />
		<tag k="name" v="Haverbekken" />
		<tag k="place" v="farm" />
		<tag k="ssr:stedsnr" v="130325" />
	</node>
	<node id="-308895" lat="60.7916416369" lon="11.4777735665">
		<tag k="fixme" v="consider place=hamlet" />
		<tag k="name" v="Johanstad" />
		<tag k="place" v="farm" />
		<tag k="ssr:stedsnr" v="130324" />
	</node>
	<node id="-308891" lat="61.0094333318" lon="11.2753777703">
		<tag k="historic" v="shieling" />
		<tag k="name" v="Doksrudsætra" />
		<tag k="place" v="locality" />
		<tag k="ssr:stedsnr" v="263160" />
	</node>
	<node id="-308890" lat="60.7910833291" lon="11.3382055511">
		<tag k="name" v="Moen" />
		<tag k="place" v="farm" />
		<tag k="ssr:stedsnr" v="110931" />
	</node>
	<node id="-308889" lat="60.8324888846" lon="11.3594638884">
		<tag k="name" v="Skålerud" />
		<tag k="place" v="farm" />
		<tag k="ssr:stedsnr" v="110926" />
	</node>
	<node id="-308887" lat="60.8633472208" lon="11.3032444392">
		<tag k="name" v="Lille Tomte" />
		<tag k="place" v="farm" />
		<tag k="ssr:stedsnr" v="110620" />
	</node>
	<node id="-308886" lat="60.8197" lon="11.2755499967">
		<tag k="name" v="Svestua" />
		<tag k="place" v="farm" />
		<tag k="ssr:stedsnr" v="110607" />
	</node>
	<node id="-308885" lat="60.8176999993" lon="11.3433111154">
		<tag k="amenity" v="townhall" />
		<tag k="name" v="Tingberg" />
		<tag k="ssr:stedsnr" v="110427" />
	</node>
	<node id="-308882" lat="60.7545388882" lon="11.5655694456">
		<tag k="name" v="Solås" />
		<tag k="place" v="isolated_dwelling" />
		<tag k="ssr:stedsnr" v="110302" />
	</node>
	<node id="-308878" lat="60.8652194481" lon="11.2845750073">
		<tag k="name" v="Hovinsløkken" />
		<tag k="place" v="farm" />
		<tag k="ssr:stedsnr" v="97658" />
	</node>
	<node id="-308876" lat="60.7655916709" lon="11.4293527864">
		<tag k="alt_name" v="Østlikoia" />
		<tag k="name" v="Austlikoia" />
		<tag k="place" v="isolated_dwelling" />
		<tag k="ssr:stedsnr" v="252927" />
	</node>
	<node id="-308875" lat="60.7788782027" lon="11.4312434021">
		<tag k="fixme" v="consider place=hamlet" />
		<tag k="name" v="Bekken" />
		<tag k="place" v="farm" />
		<tag k="ssr:stedsnr" v="252913" />
	</node>
	<node id="-308874" lat="60.7888138856" lon="11.3484222188">
		<tag k="name" v="Klæpa bruk" />
		<tag k="place" v="farm" />
		<tag k="ssr:stedsnr" v="252869" />
	</node>
	<node id="-308873" lat="60.801603047" lon="11.3918728797">
		<tag k="name" v="Bekkenga" />
		<tag k="place" v="hamlet" />
		<tag k="ssr:stedsnr" v="252853" />
	</node>
	<node id="-308872" lat="60.8064055548" lon="11.383725007">
		<tag k="name" v="Nordli" />
		<tag k="place" v="farm" />
		<tag k="ssr:stedsnr" v="252851" />
	</node>
	<node id="-308871" lat="60.8013477539" lon="11.3474124547">
		<tag k="fixme" v="consider place=hamlet" />
		<tag k="name" v="Skjerve" />
		<tag k="place" v="farm" />
		<tag k="ssr:stedsnr" v="252837" />
	</node>
	<node id="-308870" lat="60.816170412" lon="11.3823396317">
		<tag k="fixme" v="consider place=hamlet" />
		<tag k="name" v="Korilstad" />
		<tag k="place" v="farm" />
		<tag k="ssr:stedsnr" v="252820" />
	</node>
	<node id="-308869" lat="60.8430182144" lon="11.3954484262">
		<tag k="fixme" v="consider place=hamlet" />
		<tag k="name" v="Vivelstad" />
		<tag k="place" v="farm" />
		<tag k="ssr:stedsnr" v="252766" />
	</node>
	<node id="-308868" lat="60.8398583358" lon="11.3916444486">
		<tag k="name" v="Synstad" />
		<tag k="place" v="farm" />
		<tag k="ssr:stedsnr" v="252765" />
	</node>
	<node id="-308866" lat="60.850833337" lon="11.39082778">
		<tag k="name" v="Granerud" />
		<tag k="place" v="farm" />
		<tag k="ssr:stedsnr" v="252733" />
	</node>
	<node id="-308865" lat="60.8485832193" lon="11.3302356145">
		<tag k="fixme" v="consider place=hamlet" />
		<tag k="name" v="Torshov" />
		<tag k="place" v="farm" />
		<tag k="ssr:stedsnr" v="252727" />
	</node>
	<node id="-308864" lat="60.8548594814" lon="11.347583378">
		<tag k="fixme" v="consider place=hamlet" />
		<tag k="name" v="Stafseng" />
		<tag k="place" v="farm" />
		<tag k="ssr:stedsnr" v="252713" />
	</node>
	<node id="-308863" lat="60.8478277753" lon="11.2836805605">
		<tag k="name" v="Lundstua" />
		<tag k="place" v="farm" />
		<tag k="ssr:stedsnr" v="252701" />
	</node>
	<node id="-308862" lat="60.8831989785" lon="11.399610011">
		<tag k="fixme" v="consider place=hamlet" />
		<tag k="name" v="Slagsvea" />
		<tag k="place" v="farm" />
		<tag k="ssr:stedsnr" v="252648" />
	</node>
	<node id="-308861" lat="60.8790111068" lon="11.3453361165">
		<tag k="alt_name" v="Holaker" />
		<tag k="name" v="Holåker" />
		<tag k="place" v="farm" />
		<tag k="ssr:stedsnr" v="252624" />
	</node>
	<node id="-308860" lat="60.9020999975" lon="11.3767083239">
		<tag k="name" v="Granlikoia" />
		<tag k="place" v="isolated_dwelling" />
		<tag k="ssr:stedsnr" v="252601" />
	</node>
	<node id="-308859" lat="60.8903861751" lon="11.356735894">
		<tag k="fixme" v="consider place=hamlet" />
		<tag k="name" v="Løbakk" />
		<tag k="place" v="farm" />
		<tag k="ssr:stedsnr" v="252595" />
	</node>
	<node id="-308857" lat="60.7504472196" lon="11.5784222247">
		<tag k="name" v="Husom" />
		<tag k="place" v="farm" />
		<tag k="ssr:stedsnr" v="252372" />
	</node>
	<node id="-308855" lat="60.8290666647" lon="11.3716499952">
		<tag k="name" v="Nilsby" />
		<tag k="place" v="isolated_dwelling" />
		<tag k="ssr:stedsnr" v="251837" />
	</node>
	<node id="-308854" lat="60.8281316718" lon="11.343917885">
		<tag k="fixme" v="consider place=hamlet" />
		<tag k="name" v="Grindereng" />
		<tag k="place" v="farm" />
		<tag k="ssr:stedsnr" v="251831" />
	</node>
	<node id="-308853" lat="60.8683787645" lon="11.285425959">
		<tag k="alt_name" v="Vestgård" />
		<tag k="fixme" v="consider place=hamlet" />
		<tag k="name" v="Vestgard" />
		<tag k="place" v="farm" />
		<tag k="ssr:stedsnr" v="251733" />
	</node>
	<node id="-308852" lat="60.8655558212" lon="11.3401505578">
		<tag k="fixme" v="consider place=hamlet" />
		<tag k="name" v="Brandsrud" />
		<tag k="place" v="farm" />
		<tag k="ssr:stedsnr" v="251730" />
	</node>
	<node id="-308851" lat="60.9031500004" lon="11.3567250012">
		<tag k="name" v="Brennkoia" />
		<tag k="place" v="locality" />
		<tag k="ssr:stedsnr" v="251678" />
	</node>
	<node id="-308850" lat="60.9258722213" lon="11.3261583383">
		<tag k="name" v="Værelsvolla" />
		<tag k="place" v="isolated_dwelling" />
		<tag k="ssr:stedsnr" v="251646" />
	</node>
	<node id="-308846" lat="60.9103777781" lon="11.4282694404">
		<tag k="alt_name" v="Tobakk-koia" />
		<tag k="name" v="Tobekkoia" />
		<tag k="place" v="isolated_dwelling" />
		<tag k="ssr:stedsnr" v="251616" />
	</node>
	<node id="-308845" lat="60.7273527754" lon="11.5468555463">
		<tag k="name" v="Stensåsstua" />
		<tag k="place" v="farm" />
		<tag k="ssr:stedsnr" v="249280" />
	</node>
	<node id="-308844" lat="60.8642553842" lon="11.2827300034">
		<tag k="alt_name" v="Hovinsveen" />
		<tag k="fixme" v="consider place=hamlet" />
		<tag k="name" v="Hovinsvea" />
		<tag k="place" v="farm" />
		<tag k="ssr:stedsnr" v="70708" />
	</node>
	<node id="-308843" lat="60.8782520294" lon="11.3716756321">
		<tag k="fixme" v="consider place=hamlet" />
		<tag k="name" v="Stenberg" />
		<tag k="place" v="farm" />
		<tag k="ssr:stedsnr" v="70652" />
	</node>
	<node id="-308842" lat="60.8943194447" lon="11.373838898">
		<tag k="name" v="Petersborg" />
		<tag k="place" v="farm" />
		<tag k="ssr:stedsnr" v="70644" />
	</node>
	<node id="-308841" lat="60.8710565563" lon="11.3805798893">
		<tag k="fixme" v="consider place=hamlet" />
		<tag k="name" v="Søndre Sagåbakken" />
		<tag k="place" v="farm" />
		<tag k="ssr:stedsnr" v="70635" />
	</node>
	<node id="-308840" lat="60.8805722204" lon="11.3761527832">
		<tag k="name" v="Smedstad" />
		<tag k="place" v="farm" />
		<tag k="ssr:stedsnr" v="70626" />
	</node>
	<node id="-308839" lat="60.9388611109" lon="11.3825666611">
		<tag k="name" v="Sloken" />
		<tag k="place" v="hamlet" />
		<tag k="ssr:stedsnr" v="70607" />
	</node>
	<node id="-308838" lat="60.7866083308" lon="11.353277783">
		<tag k="name" v="Nedre Heggen" />
		<tag k="place" v="farm" />
		<tag k="ssr:stedsnr" v="41656" />
	</node>
	<node id="-308837" lat="60.928066664" lon="11.2997249988">
		<tag k="leisure" v="pitch" />
		<tag k="name" v="Budor skistadion" />
		<tag k="ssr:stedsnr" v="41605" />
	</node>
	<node id="-308836" lat="60.8837972261" lon="11.3266638966">
		<tag k="name" v="Furasaga" />
		<tag k="place" v="farm" />
		<tag k="ssr:stedsnr" v="231985" />
	</node>
	<node id="-308835" lat="60.8064999958" lon="11.3308722133">
		<tag k="name" v="Lille vestre Finnstad" />
		<tag k="place" v="farm" />
		<tag k="ssr:stedsnr" v="231879" />
	</node>
	<node id="-308834" lat="60.7547666657" lon="11.5002722299">
		<tag k="name" v="Vestre Nordsveen" />
		<tag k="place" v="farm" />
		<tag k="ssr:stedsnr" v="231797" />
	</node>
	<node id="-308833" lat="60.8225777749" lon="11.3058500066">
		<tag k="name" v="Ågård" />
		<tag k="place" v="farm" />
		<tag k="ssr:stedsnr" v="231648" />
	</node>
	<node id="-308832" lat="60.8220111122" lon="11.3016611085">
		<tag k="name" v="Melby" />
		<tag k="place" v="farm" />
		<tag k="ssr:stedsnr" v="231647" />
	</node>
	<node id="-308831" lat="60.8033416635" lon="11.2750888837">
		<tag k="loc_name" v="Brattvoll" />
		<tag k="name" v="Bratvoll" />
		<tag k="place" v="farm" />
		<tag k="ssr:stedsnr" v="231642" />
	</node>
	<node id="-308824" lat="60.7742194455" lon="11.4035583259">
		<tag k="name" v="Grønsvebakken" />
		<tag k="place" v="farm" />
		<tag k="ssr:stedsnr" v="231495" />
	</node>
	<node id="-308823" lat="60.7709111144" lon="11.4768638872">
		<tag k="name" v="Rokosveen" />
		<tag k="place" v="farm" />
		<tag k="ssr:stedsnr" v="231489" />
	</node>
	<node id="-308822" lat="60.77934722" lon="11.522505557">
		<tag k="name" v="Sagen" />
		<tag k="place" v="neighbourhood" />
		<tag k="ssr:stedsnr" v="231486" />
	</node>
	<node id="-308820" lat="60.8500749991" lon="11.3569861181">
		<tag k="name" v="Østerhagen" />
		<tag k="place" v="farm" />
		<tag k="ssr:stedsnr" v="230985" />
	</node>
	<node id="-308819" lat="60.9252166666" lon="11.2456888917">
		<tag k="historic" v="shieling" />
		<tag k="name" v="Bårdsæterkoia" />
		<tag k="place" v="locality" />
		<tag k="ssr:stedsnr" v="230776" />
	</node>
	<node id="-308817" lat="60.7733666682" lon="11.3369500033">
		<tag k="fixme" v="multiple name tags, choose one and add the other to alt_name" />
		<tag k="name" v="Akselstad;Nyværelset" />
		<tag k="place" v="farm" />
		<tag k="ssr:stedsnr" v="223644" />
	</node>
	<node id="-308816" lat="60.8607424646" lon="11.3177593233">
		<tag k="fixme" v="consider place=hamlet" />
		<tag k="name" v="Hovin" />
		<tag k="place" v="farm" />
		<tag k="ssr:stedsnr" v="9743" />
	</node>
	<node id="-308813" lat="60.8499555542" lon="11.2932222167">
		<tag k="name" v="Nystua" />
		<tag k="place" v="farm" />
		<tag k="ssr:stedsnr" v="9725" />
	</node>
	<node id="-308810" lat="60.7681611083" lon="11.5695055482">
		<tag k="name" v="Haratjennskoia" />
		<tag k="place" v="isolated_dwelling" />
		<tag k="ssr:stedsnr" v="9318" />
	</node>
	<node id="-309972" lat="60.7523696747" lon="11.5733349888">
		<tag k="name" v="Solberg" />
		<tag k="place" v="hamlet" />
		<tag k="ssr:stedsnr" v="1075656" />
	</node>
	<node id="-309971" lat="60.8835273548" lon="11.3711197364">
		<tag k="name" v="Rom" />
		<tag k="place" v="hamlet" />
		<tag k="ssr:stedsnr" v="1075610" />
	</node>
	<node id="-309970" lat="60.8663813845" lon="11.346477309">
		<tag k="name" v="Rogstad" />
		<tag k="place" v="hamlet" />
		<tag k="ssr:stedsnr" v="1075605" />
	</node>
	<node id="-309969" lat="60.8014650377" lon="11.3217810361">
		<tag k="name" v="Bjørke" />
		<tag k="place" v="hamlet" />
		<tag k="ssr:stedsnr" v="1075514" />
	</node>
	<node id="-309968" lat="60.8027378685" lon="11.3057661102">
		<tag k="name" v="Ommang" />
		<tag k="place" v="hamlet" />
		<tag k="ssr:stedsnr" v="1075513" />
	</node>
	<node id="-309967" lat="60.8106435726" lon="11.3331474021">
		<tag k="name" v="Hommerstad" />
		<tag k="place" v="hamlet" />
		<tag k="ssr:stedsnr" v="1075454" />
	</node>
	<node id="-309966" lat="60.8161566445" lon="11.3511445213">
		<tag k="fixme" v="consider place=hamlet" />
		<tag k="name" v="Berg" />
		<tag k="place" v="farm" />
		<tag k="ssr:stedsnr" v="1075450" />
	</node>
	<node id="-309965" lat="60.811880375" lon="11.3637419033">
		<tag k="fixme" v="consider place=hamlet" />
		<tag k="name" v="Enge" />
		<tag k="place" v="farm" />
		<tag k="ssr:stedsnr" v="1075447" />
	</node>
	<node id="-309964" lat="60.798843636" lon="11.3720989722">
		<tag k="fixme" v="consider place=hamlet" />
		<tag k="name" v="Holen" />
		<tag k="place" v="farm" />
		<tag k="ssr:stedsnr" v="1075445" />
	</node>
	<node id="-309963" lat="60.8231691072" lon="11.3612658483">
		<tag k="fixme" v="consider place=hamlet" />
		<tag k="name" v="Hov" />
		<tag k="place" v="farm" />
		<tag k="ssr:stedsnr" v="1075437" />
	</node>
	<node id="-309962" lat="60.8232988062" lon="11.3807178173">
		<tag k="fixme" v="consider place=hamlet" />
		<tag k="name" v="Svea" />
		<tag k="place" v="farm" />
		<tag k="ssr:stedsnr" v="1075436" />
	</node>
	<node id="-309961" lat="60.8314600758" lon="11.3906828504">
		<tag k="fixme" v="consider place=hamlet" />
		<tag k="name" v="Liva" />
		<tag k="place" v="farm" />
		<tag k="ssr:stedsnr" v="1075435" />
	</node>
	<node id="-309960" lat="60.8366873103" lon="11.3893525731">
		<tag k="fixme" v="consider place=hamlet" />
		<tag k="name" v="Roset" />
		<tag k="place" v="farm" />
		<tag k="ssr:stedsnr" v="1075432" />
	</node>
	<node id="-309959" lat="60.8790409316" lon="11.3986640439">
		<tag k="fixme" v="consider place=hamlet" />
		<tag k="name" v="Sjølia" />
		<tag k="place" v="farm" />
		<tag k="ssr:stedsnr" v="1075425" />
	</node>
	<node id="-309958" lat="60.8728379699" lon="11.3768516515">
		<tag k="name" v="Sagåbakken" />
		<tag k="place" v="hamlet" />
		<tag k="ssr:stedsnr" v="1075423" />
	</node>
	<node id="-309957" lat="60.8684165724" lon="11.3706857251">
		<tag k="name" v="Brennholen" />
		<tag k="place" v="hamlet" />
		<tag k="ssr:stedsnr" v="1075400" />
	</node>
	<node id="-309956" lat="60.8679149465" lon="11.3683975117">
		<tag k="fixme" v="consider place=hamlet" />
		<tag k="name" v="Jønsrudbakken" />
		<tag k="place" v="farm" />
		<tag k="ssr:stedsnr" v="1075398" />
	</node>
	<node id="-309955" lat="60.8843813226" lon="11.3443053929">
		<tag k="name" v="Holen" />
		<tag k="place" v="hamlet" />
		<tag k="ssr:stedsnr" v="1075390" />
	</node>
	<node id="-309954" lat="60.8752546517" lon="11.341279648">
		<tag k="name" v="Langset" />
		<tag k="place" v="hamlet" />
		<tag k="ssr:stedsnr" v="1075382" />
	</node>
	<node id="-309952" lat="60.8687486166" lon="11.3033140211">
		<tag k="fixme" v="consider place=hamlet" />
		<tag k="name" v="Ringnes" />
		<tag k="place" v="farm" />
		<tag k="ssr:stedsnr" v="1075267" />
	</node>
	<node id="-309951" lat="60.8416299657" lon="11.3229375382">
		<tag k="name" v="Rømma" />
		<tag k="place" v="hamlet" />
		<tag k="ssr:stedsnr" v="1075266" />
	</node>
	<node id="-309950" lat="60.8233424993" lon="11.3150954984">
		<tag k="name" v="Norderhov" />
		<tag k="place" v="hamlet" />
		<tag k="ssr:stedsnr" v="1075171" />
	</node>
	<node id="-309945" lat="60.9166040762" lon="11.3679995706">
		<tag k="fixme" v="consider tourism=alpine_hut or tourism=chalet" />
		<tag k="name" v="Savalsætra" />
		<tag k="ssr:stedsnr" v="991016" />
		<tag k="tourism" v="wilderness_hut" />
	</node>
	<node id="-309944" lat="60.7889777791" lon="11.4782055604">
		<tag k="name" v="Rokosjøen camping" />
		<tag k="ssr:stedsnr" v="967096" />
		<tag k="tourism" v="camp_site" />
	</node>
	<node id="-309943" lat="60.8534055524" lon="11.3534750006">
		<tag k="name" v="Solli" />
		<tag k="place" v="farm" />
		<tag k="ssr:stedsnr" v="959979" />
	</node>
	<node id="-309941" lat="60.8004194484" lon="11.2410944458">
		<tag k="name" v="Grindåker" />
		<tag k="place" v="farm" />
		<tag k="ssr:stedsnr" v="959951" />
	</node>
	<node id="-309940" lat="60.9951805518" lon="11.3182722157">
		<tag k="name" v="Veltkoia" />
		<tag k="place" v="isolated_dwelling" />
		<tag k="ssr:stedsnr" v="959940" />
	</node>
	<node id="-309939" lat="60.7831388859" lon="11.325041669">
		<tag k="name" v="Stenberg" />
		<tag k="place" v="isolated_dwelling" />
		<tag k="ssr:stedsnr" v="959916" />
	</node>
	<node id="-309937" lat="60.8241583349" lon="11.3074722169">
		<tag k="name" v="Åberg" />
		<tag k="place" v="farm" />
		<tag k="ssr:stedsnr" v="959909" />
	</node>
	<node id="-309936" lat="60.8217611094" lon="11.3870555614">
		<tag k="name" v="Evenstad" />
		<tag k="place" v="farm" />
		<tag k="ssr:stedsnr" v="959897" />
	</node>
	<node id="-309935" lat="60.8324446836" lon="11.3776175892">
		<tag k="fixme" v="consider place=hamlet" />
		<tag k="name" v="Heggelund" />
		<tag k="place" v="farm" />
		<tag k="ssr:stedsnr" v="959893" />
	</node>
	<node id="-309934" lat="60.8074500024" lon="11.3724388878">
		<tag k="name" v="Engebakken" />
		<tag k="place" v="farm" />
		<tag k="ssr:stedsnr" v="959881" />
	</node>
	<node id="-309933" lat="60.8072527806" lon="11.3428611036">
		<tag k="loc_name" v="Fjell" />
		<tag k="name" v="Fjeld" />
		<tag k="place" v="farm" />
		<tag k="ssr:stedsnr" v="959871" />
	</node>
	<node id="-309932" lat="60.7407166663" lon="11.4760416588">
		<tag k="name" v="Oppegårdsstuen" />
		<tag k="place" v="farm" />
		<tag k="ssr:stedsnr" v="959758" />
	</node>
	<node id="-309926" lat="60.8563749973" lon="11.2981583423">
		<tag k="name" v="Tøråsen" />
		<tag k="place" v="farm" />
		<tag k="ssr:stedsnr" v="959579" />
	</node>
	<node id="-309925" lat="60.8018444407" lon="11.2818388969">
		<tag k="name" v="Haugset" />
		<tag k="place" v="farm" />
		<tag k="ssr:stedsnr" v="959545" />
	</node>
	<node id="-309919" lat="60.7909607119" lon="11.3033501417">
		<tag k="fixme" v="consider place=hamlet" />
		<tag k="name" v="Østre Englaug" />
		<tag k="place" v="farm" />
		<tag k="ssr:stedsnr" v="959448" />
	</node>
	<node id="-309917" lat="60.8261445388" lon="11.3798217849">
		<tag k="fixme" v="consider place=hamlet" />
		<tag k="name" v="Langvegg" />
		<tag k="place" v="farm" />
		<tag k="ssr:stedsnr" v="959423" />
	</node>
	<node id="-309907" lat="60.8698749977" lon="11.3018">
		<tag k="name" v="Nordre Ringnes" />
		<tag k="place" v="farm" />
		<tag k="ssr:stedsnr" v="956485" />
	</node>
	<node id="-309906" lat="60.8641750044" lon="11.3755750045">
		<tag k="name" v="Alfheim" />
		<tag k="old_name" v="Alvestad" />
		<tag k="place" v="farm" />
		<tag k="ssr:stedsnr" v="951954" />
	</node>
	<node id="-309905" lat="60.7571750028" lon="11.4273388846">
		<tag k="name" v="Brennkoia" />
		<tag k="place" v="isolated_dwelling" />
		<tag k="ssr:stedsnr" v="859943" />
	</node>
	<node id="-309904" lat="60.7807305535" lon="11.3718583297">
		<tag k="name" v="Evenstad" />
		<tag k="place" v="farm" />
		<tag k="ssr:stedsnr" v="859894" />
	</node>
	<node id="-309903" lat="60.7806588276" lon="11.3651796634">
		<tag k="alt_name" v="Øvre Herdal" />
		<tag k="fixme" v="consider place=hamlet" />
		<tag k="name" v="Herdal" />
		<tag k="place" v="farm" />
		<tag k="ssr:stedsnr" v="859891" />
	</node>
	<node id="-309902" lat="60.7775123475" lon="11.346947399">
		<tag k="fixme" v="consider place=hamlet" />
		<tag k="name" v="Vesle Benningstad" />
		<tag k="place" v="farm" />
		<tag k="ssr:stedsnr" v="859888" />
	</node>
	<node id="-309901" lat="60.7923361088" lon="11.2422388892">
		<tag k="name" v="Løvmo" />
		<tag k="place" v="farm" />
		<tag k="ssr:stedsnr" v="859882" />
	</node>
	<node id="-309900" lat="60.8012388907" lon="11.3614638892">
		<tag k="name" v="Midtlund" />
		<tag k="place" v="isolated_dwelling" />
		<tag k="ssr:stedsnr" v="859844" />
	</node>
	<node id="-309899" lat="60.8048394085" lon="11.2656126042">
		<tag k="alt_name" v="Søndre Torp" />
		<tag k="fixme" v="consider place=hamlet" />
		<tag k="name" v="Torp" />
		<tag k="place" v="farm" />
		<tag k="ssr:stedsnr" v="859837" />
	</node>
	<node id="-309898" lat="60.9020500001" lon="11.3068666594">
		<tag k="alt_name" v="Bakstad" />
		<tag k="name" v="Bakkstad" />
		<tag k="place" v="farm" />
		<tag k="ssr:stedsnr" v="859585" />
	</node>
	<node id="-309893" lat="60.8458278292" lon="11.3666492573">
		<tag k="fixme" v="consider place=hamlet" />
		<tag k="name" v="Ånestad" />
		<tag k="place" v="farm" />
		<tag k="ssr:stedsnr" v="859732" />
	</node>
	<node id="-309892" lat="60.8723832723" lon="11.3049580251">
		<tag k="fixme" v="consider place=hamlet" />
		<tag k="name" v="Bergset" />
		<tag k="place" v="farm" />
		<tag k="ssr:stedsnr" v="859689" />
	</node>
	<node id="-309891" lat="60.864462886" lon="11.3312637442">
		<tag k="fixme" v="consider place=hamlet" />
		<tag k="name" v="Sæter" />
		<tag k="place" v="farm" />
		<tag k="ssr:stedsnr" v="859683" />
	</node>
	<node id="-309890" lat="60.8703605315" lon="11.3457760995">
		<tag k="fixme" v="consider place=hamlet" />
		<tag k="name" v="Riseng" />
		<tag k="place" v="farm" />
		<tag k="ssr:stedsnr" v="859675" />
	</node>
	<node id="-309889" lat="60.9377249962" lon="11.2334444486">
		<tag k="historic" v="shieling" />
		<tag k="name" v="Østbergsætra" />
		<tag k="place" v="locality" />
		<tag k="ssr:stedsnr" v="859535" />
	</node>
	<node id="-309887" lat="60.7606027748" lon="11.5636777777">
		<tag k="fixme" v="multiple name tags, choose one and add the other to alt_name" />
		<tag k="name" v="Solbergsvea;Sveen" />
		<tag k="place" v="farm" />
		<tag k="ssr:stedsnr" v="859302" />
	</node>
	<node id="-309886" lat="60.7668722233" lon="11.5415416681">
		<tag k="alt_name" v="Sørberg" />
		<tag k="name" v="Søberg" />
		<tag k="place" v="farm" />
		<tag k="ssr:stedsnr" v="859299" />
	</node>
	<node id="-309885" lat="60.8289666659" lon="11.3203111063">
		<tag k="name" v="Holsrud" />
		<tag k="place" v="farm" />
		<tag k="ssr:stedsnr" v="838929" />
	</node>
	<node id="-309884" lat="60.8553222262" lon="11.3263833252">
		<tag k="name" v="Lille Igulstad" />
		<tag k="place" v="isolated_dwelling" />
		<tag k="ssr:stedsnr" v="838974" />
	</node>
	<node id="-309883" lat="60.8724333351" lon="11.383858339">
		<tag k="name" v="Simenstad" />
		<tag k="place" v="farm" />
		<tag k="ssr:stedsnr" v="838968" />
	</node>
	<node id="-309882" lat="60.8323718877" lon="11.3941404666">
		<tag k="fixme" v="consider place=hamlet" />
		<tag k="name" v="Livenbakken" />
		<tag k="place" v="farm" />
		<tag k="ssr:stedsnr" v="838915" />
	</node>
	<node id="-309881" lat="60.8273472226" lon="11.454847229">
		<tag k="name" v="Slethellkoia" />
		<tag k="place" v="locality" />
		<tag k="ssr:stedsnr" v="838890" />
	</node>
	<node id="-309880" lat="60.8320861085" lon="11.3909166627">
		<tag k="name" v="Østre Liven" />
		<tag k="place" v="farm" />
		<tag k="ssr:stedsnr" v="838882" />
	</node>
	<node id="-309879" lat="60.7396527733" lon="11.4801611185">
		<tag k="name" v="Tofastrud" />
		<tag k="place" v="farm" />
		<tag k="ssr:stedsnr" v="838789" />
	</node>
	<node id="-309878" lat="60.825736107" lon="11.2642805569">
		<tag k="name" v="Vestli" />
		<tag k="place" v="farm" />
		<tag k="ssr:stedsnr" v="838635" />
	</node>
	<node id="-309877" lat="60.8139805526" lon="11.3795249907">
		<tag k="name" v="Dyristua" />
		<tag k="place" v="farm" />
		<tag k="ssr:stedsnr" v="838632" />
	</node>
	<node id="-309876" lat="60.7549916684" lon="11.4128388824">
		<tag k="name" v="Firkantkoia" />
		<tag k="place" v="farm" />
		<tag k="ssr:stedsnr" v="838629" />
	</node>
	<node id="-309875" lat="60.8215888879" lon="11.3515055608">
		<tag k="amenity" v="nursing_home" />
		<tag k="name" v="Løten helsetun" />
		<tag k="ssr:stedsnr" v="838561" />
	</node>
	<node id="-309870" lat="60.8060192737" lon="11.3319193254">
		<tag k="fixme" v="consider place=hamlet" />
		<tag k="name" v="Lille østre Finnstad" />
		<tag k="place" v="farm" />
		<tag k="ssr:stedsnr" v="838500" />
	</node>
	<node id="-309869" lat="60.8263805528" lon="11.3113472138">
		<tag k="name" v="Kirkenær" />
		<tag k="place" v="farm" />
		<tag k="ssr:stedsnr" v="838491" />
	</node>
	<node id="-309868" lat="60.8151111149" lon="11.3433972295">
		<tag k="name" v="Bergum F" />
		<tag k="place" v="quarter" />
		<tag k="ssr:stedsnr" v="838420" />
	</node>
	<node id="-309865" lat="60.8703250001" lon="11.3607999969">
		<tag k="name" v="Lindbo" />
		<tag k="place" v="isolated_dwelling" />
		<tag k="ssr:stedsnr" v="838293" />
	</node>
	<node id="-309864" lat="60.7456638851" lon="11.6073833361">
		<tag k="name" v="Finnsvedalskoia" />
		<tag k="place" v="isolated_dwelling" />
		<tag k="ssr:stedsnr" v="837946" />
	</node>
	<node id="-309860" lat="60.8713750045" lon="11.3112111098">
		<tag k="name" v="Alfei" />
		<tag k="place" v="locality" />
		<tag k="ssr:stedsnr" v="830901" />
	</node>
	<node id="-309858" lat="60.7894956972" lon="11.4745777821">
		<tag k="fixme" v="consider place=hamlet" />
		<tag k="name" v="Oset" />
		<tag k="place" v="farm" />
		<tag k="ssr:stedsnr" v="814003" />
	</node>
	<node id="-309856" lat="60.7646083361" lon="11.3697861113">
		<tag k="name" v="Hagen" />
		<tag k="place" v="farm" />
		<tag k="ssr:stedsnr" v="798943" />
	</node>
	<node id="-309855" lat="60.7764111096" lon="11.3384777731">
		<tag k="name" v="Volla" />
		<tag k="place" v="farm" />
		<tag k="ssr:stedsnr" v="798900" />
	</node>
	<node id="-309854" lat="60.7813611071" lon="11.3924638825">
		<tag k="name" v="Åtjernsholen" />
		<tag k="place" v="farm" />
		<tag k="ssr:stedsnr" v="798882" />
	</node>
	<node id="-309853" lat="60.8328644279" lon="11.3448052813">
		<tag k="alt_name" v="Karud, s" />
		<tag k="fixme" v="consider place=hamlet" />
		<tag k="name" v="Søndre Karud" />
		<tag k="place" v="farm" />
		<tag k="ssr:stedsnr" v="798751" />
	</node>
	<node id="-309852" lat="60.8381916082" lon="11.2883010324">
		<tag k="fixme" v="consider place=hamlet" />
		<tag k="name" v="Gjærlu" />
		<tag k="place" v="farm" />
		<tag k="ssr:stedsnr" v="798733" />
	</node>
	<node id="-309851" lat="60.8448223594" lon="11.3171947868">
		<tag k="fixme" v="consider place=hamlet" />
		<tag k="name" v="Spangen" />
		<tag k="place" v="farm" />
		<tag k="ssr:stedsnr" v="798732" />
	</node>
	<node id="-309850" lat="60.8522154563" lon="11.3660457794">
		<tag k="fixme" v="consider place=hamlet" />
		<tag k="name" v="Frønset" />
		<tag k="place" v="farm" />
		<tag k="ssr:stedsnr" v="798718" />
	</node>
	<node id="-309849" lat="60.8576729938" lon="11.3634308518">
		<tag k="fixme" v="consider place=hamlet" />
		<tag k="name" v="Kjøs" />
		<tag k="place" v="farm" />
		<tag k="ssr:stedsnr" v="798693" />
	</node>
	<node id="-309848" lat="60.7980224251" lon="11.447074451">
		<tag k="fixme" v="consider place=hamlet" />
		<tag k="name" v="Høgvoll" />
		<tag k="place" v="farm" />
		<tag k="ssr:stedsnr" v="798860" />
	</node>
	<node id="-309847" lat="60.7983916045" lon="11.4090857381">
		<tag k="fixme" v="consider place=hamlet" />
		<tag k="name" v="Jordbrua" />
		<tag k="place" v="farm" />
		<tag k="ssr:stedsnr" v="798856" />
	</node>
	<node id="-309846" lat="60.7938376213" lon="11.3443294691">
		<tag k="fixme" v="consider place=hamlet" />
		<tag k="name" v="Klæpa" />
		<tag k="place" v="farm" />
		<tag k="ssr:stedsnr" v="798850" />
	</node>
	<node id="-309845" lat="60.8061934351" lon="11.410215308">
		<tag k="fixme" v="consider place=hamlet" />
		<tag k="name" v="Skårholen" />
		<tag k="place" v="farm" />
		<tag k="ssr:stedsnr" v="798846" />
	</node>
	<node id="-309844" lat="60.8054193048" lon="11.3013097237">
		<tag k="fixme" v="consider place=hamlet" />
		<tag k="name" v="Besseby" />
		<tag k="place" v="farm" />
		<tag k="ssr:stedsnr" v="798835" />
	</node>
	<node id="-309843" lat="60.8136292988" lon="11.2665501239">
		<tag k="fixme" v="multiple name tags, choose one and add the other to alt_name; consider place=hamlet" />
		<tag k="name" v="Høingstad;Nedre Høingstad" />
		<tag k="place" v="farm" />
		<tag k="ssr:stedsnr" v="798804" />
	</node>
	<node id="-309842" lat="60.8204365719" lon="11.2667933045">
		<tag k="fixme" v="consider place=hamlet" />
		<tag k="name" v="Balke" />
		<tag k="place" v="farm" />
		<tag k="ssr:stedsnr" v="798773" />
	</node>
	<node id="-309841" lat="60.8635040602" lon="11.2996947101">
		<tag k="fixme" v="consider place=hamlet" />
		<tag k="name" v="Tomte" />
		<tag k="place" v="farm" />
		<tag k="ssr:stedsnr" v="798669" />
	</node>
	<node id="-309840" lat="60.8655977969" lon="11.2936932617">
		<tag k="alt_name" v="Hole" />
		<tag k="fixme" v="consider place=hamlet" />
		<tag k="name" v="Hola" />
		<tag k="place" v="farm" />
		<tag k="ssr:stedsnr" v="798668" />
	</node>
	<node id="-309839" lat="60.8673823078" lon="11.3740910344">
		<tag k="alt_name" v="Indby" />
		<tag k="fixme" v="consider place=hamlet" />
		<tag k="name" v="Innby" />
		<tag k="place" v="farm" />
		<tag k="ssr:stedsnr" v="798659" />
	</node>
	<node id="-309837" lat="60.8827204327" lon="11.3723011669">
		<tag k="alt_name" v="Rom, s" />
		<tag k="fixme" v="consider place=hamlet" />
		<tag k="name" v="Søndre Rom" />
		<tag k="place" v="farm" />
		<tag k="ssr:stedsnr" v="798594" />
	</node>
	<node id="-309834" lat="60.7580333375" lon="11.5701805637">
		<tag k="name" v="Karlstad" />
		<tag k="place" v="farm" />
		<tag k="ssr:stedsnr" v="798378" />
	</node>
	<node id="-309833" lat="60.8069888865" lon="11.4907777773">
		<tag k="name" v="Gardsmyrkoia" />
		<tag k="place" v="isolated_dwelling" />
		<tag k="ssr:stedsnr" v="798239" />
	</node>
	<node id="-309832" lat="60.7386027812" lon="11.4810888835">
		<tag k="alt_name" v="Nordre Øie" />
		<tag k="name" v="Øye" />
		<tag k="place" v="farm" />
		<tag k="ssr:stedsnr" v="796454" />
	</node>
	<node id="-309831" lat="61.0256444469" lon="11.2625250056">
		<tag k="name" v="Gitvola" />
		<tag k="place" v="hamlet" />
		<tag k="ssr:stedsnr" v="796293" />
	</node>
	<node id="-309830" lat="60.7250583352" lon="11.5878472255">
		<tag k="name" v="Synnersvekoia" />
		<tag k="place" v="isolated_dwelling" />
		<tag k="ssr:stedsnr" v="796275" />
	</node>
	<node id="-309828" lat="60.7438444452" lon="11.5610249954">
		<tag k="name" v="Tingstadkoia" />
		<tag k="place" v="isolated_dwelling" />
		<tag k="ssr:stedsnr" v="795505" />
	</node>
	<node id="-309827" lat="60.8209138883" lon="11.3080111043">
		<tag k="name" v="Aldershvile" />
		<tag k="place" v="farm" />
		<tag k="ssr:stedsnr" v="777894" />
	</node>
	<node id="-309826" lat="60.8808946774" lon="11.3263321431">
		<tag k="fixme" v="consider place=hamlet" />
		<tag k="name" v="Nordenga" />
		<tag k="place" v="farm" />
		<tag k="ssr:stedsnr" v="777986" />
	</node>
	<node id="-309825" lat="60.8755333334" lon="11.3159333409">
		<tag k="name" v="Mellum" />
		<tag k="place" v="farm" />
		<tag k="ssr:stedsnr" v="777985" />
	</node>
	<node id="-309824" lat="60.8646111153" lon="11.3070194461">
		<tag k="name" v="Hjelsengen" />
		<tag k="place" v="farm" />
		<tag k="ssr:stedsnr" v="777966" />
	</node>
	<node id="-309823" lat="60.7830249998" lon="11.4140083285">
		<tag k="name" v="Hjemlikoia" />
		<tag k="place" v="isolated_dwelling" />
		<tag k="ssr:stedsnr" v="777925" />
	</node>
	<node id="-309822" lat="60.8576112159" lon="11.291492186">
		<tag k="fixme" v="consider place=hamlet" />
		<tag k="name" v="Østre Kvinkholen" />
		<tag k="place" v="farm" />
		<tag k="ssr:stedsnr" v="777835" />
	</node>
	<node id="-309821" lat="60.7409941066" lon="11.4946752972">
		<tag k="fixme" v="consider place=hamlet" />
		<tag k="name" v="Oppegård" />
		<tag k="place" v="farm" />
		<tag k="ssr:stedsnr" v="777758" />
	</node>
	<node id="-309820" lat="60.775763892" lon="11.3405972219">
		<tag k="name" v="Hagelykkja" />
		<tag k="place" v="farm" />
		<tag k="ssr:stedsnr" v="777622" />
	</node>
	<node id="-309819" lat="60.8376111132" lon="11.2775611123">
		<tag k="name" v="Skogby" />
		<tag k="place" v="farm" />
		<tag k="ssr:stedsnr" v="777613" />
	</node>
	<node id="-309818" lat="60.8534371424" lon="11.2882386597">
		<tag k="fixme" v="consider place=hamlet" />
		<tag k="name" v="Moen" />
		<tag k="place" v="farm" />
		<tag k="ssr:stedsnr" v="777586" />
	</node>
	<node id="-309817" lat="60.7730083356" lon="11.4844111035">
		<tag k="name" v="Bjørnstad" />
		<tag k="place" v="farm" />
		<tag k="ssr:stedsnr" v="777751" />
	</node>
	<node id="-309813" lat="60.8296888882" lon="11.3227166748">
		<tag k="name" v="Skrinhagan" />
		<tag k="place" v="quarter" />
		<tag k="ssr:stedsnr" v="777380" />
	</node>
	<node id="-309812" lat="60.8092472195" lon="11.297111111">
		<tag k="name" v="Bakmoen" />
		<tag k="place" v="farm" />
		<tag k="ssr:stedsnr" v="777569" />
	</node>
	<node id="-309808" lat="60.8041583347" lon="11.2735250082">
		<tag k="name" v="Nymoen" />
		<tag k="place" v="farm" />
		<tag k="ssr:stedsnr" v="777482" />
	</node>
	<node id="-309807" lat="60.8152138934" lon="11.416194442">
		<tag k="fixme" v="consider tourism=alpine_hut or tourism=chalet" />
		<tag k="name" v="Hølmyrkoia" />
		<tag k="ssr:stedsnr" v="777481" />
		<tag k="tourism" v="wilderness_hut" />
	</node>
	<node id="-309806" lat="60.8114527776" lon="11.3346888832">
		<tag k="fixme" v="consider place=hamlet" />
		<tag k="name" v="Øvre Hommerstad" />
		<tag k="place" v="farm" />
		<tag k="ssr:stedsnr" v="777470" />
	</node>
	<node id="-309805" lat="60.8559333293" lon="11.3107027824">
		<tag k="name" v="Hovinhagen" />
		<tag k="place" v="farm" />
		<tag k="ssr:stedsnr" v="776987" />
	</node>
	<node id="-309804" lat="60.8529472197" lon="11.3491861112">
		<tag k="name" v="Norrøne" />
		<tag k="place" v="farm" />
		<tag k="ssr:stedsnr" v="776977" />
	</node>
	<node id="-309803" lat="60.9186444474" lon="11.4335666591">
		<tag k="name" v="Jugerud" />
		<tag k="place" v="isolated_dwelling" />
		<tag k="ssr:stedsnr" v="776955" />
	</node>
	<node id="-309802" lat="60.9519750003" lon="11.3775250056">
		<tag k="name" v="Kjeldstadkoia" />
		<tag k="place" v="isolated_dwelling" />
		<tag k="ssr:stedsnr" v="776948" />
	</node>
	<node id="-309801" lat="60.8056888915" lon="11.2971333355">
		<tag k="name" v="Vestby" />
		<tag k="place" v="farm" />
		<tag k="ssr:stedsnr" v="776941" />
	</node>
	<node id="-309796" lat="60.8860342036" lon="11.358226757">
		<tag k="alt_name" v="Nyberg" />
		<tag k="name" v="Nyborg" />
		<tag k="place" v="farm" />
		<tag k="ssr:stedsnr" v="769614" />
	</node>
	<node id="-309794" lat="60.8090611113" lon="11.3456583295">
		<tag k="name" v="Bergum" />
		<tag k="place" v="quarter" />
		<tag k="ssr:stedsnr" v="750993" />
	</node>
	<node id="-309792" lat="60.7975583338" lon="11.2457472148">
		<tag k="name" v="Bergli" />
		<tag k="place" v="farm" />
		<tag k="ssr:stedsnr" v="737887" />
	</node>
	<node id="-309791" lat="60.7945666688" lon="11.3756388971">
		<tag k="name" v="Ringvoll" />
		<tag k="place" v="farm" />
		<tag k="ssr:stedsnr" v="737886" />
	</node>
	<node id="-309790" lat="60.8034039755" lon="11.3914543443">
		<tag k="alt_name" v="Bekkenga, nordre" />
		<tag k="fixme" v="consider place=hamlet" />
		<tag k="name" v="Nordre Bekkenga" />
		<tag k="place" v="farm" />
		<tag k="ssr:stedsnr" v="737873" />
	</node>
	<node id="-309789" lat="60.8031247195" lon="11.3865931955">
		<tag k="fixme" v="consider place=hamlet" />
		<tag k="name" v="Vea" />
		<tag k="place" v="farm" />
		<tag k="ssr:stedsnr" v="737871" />
	</node>
	<node id="-309788" lat="60.8021611139" lon="11.3805944491">
		<tag k="name" v="Ingstad" />
		<tag k="place" v="farm" />
		<tag k="ssr:stedsnr" v="737863" />
	</node>
	<node id="-309787" lat="60.8063756752" lon="11.3282635208">
		<tag k="name" v="Finstad" />
		<tag k="place" v="hamlet" />
		<tag k="ssr:stedsnr" v="737860" />
	</node>
	<node id="-309785" lat="60.8174924286" lon="11.2978697264">
		<tag k="fixme" v="consider place=hamlet" />
		<tag k="name" v="Fuglset" />
		<tag k="place" v="farm" />
		<tag k="ssr:stedsnr" v="737844" />
	</node>
	<node id="-309784" lat="60.809634613" lon="11.331662513">
		<tag k="fixme" v="consider place=hamlet" />
		<tag k="name" v="Nedre Hommerstad" />
		<tag k="place" v="farm" />
		<tag k="ssr:stedsnr" v="737843" />
	</node>
	<node id="-309783" lat="60.8190833339" lon="11.3800500076">
		<tag k="name" v="Bjørklund" />
		<tag k="place" v="farm" />
		<tag k="ssr:stedsnr" v="737827" />
	</node>
	<node id="-309781" lat="60.8449999986" lon="11.436080548">
		<tag k="name" v="Trollheimen" />
		<tag k="place" v="isolated_dwelling" />
		<tag k="ssr:stedsnr" v="737751" />
	</node>
	<node id="-309780" lat="60.8466833344" lon="11.3375527843">
		<tag k="name" v="Brannvoll" />
		<tag k="place" v="farm" />
		<tag k="ssr:stedsnr" v="737749" />
	</node>
	<node id="-309779" lat="60.8592755897" lon="11.3379937036">
		<tag k="fixme" v="consider place=hamlet" />
		<tag k="name" v="Trætteberg" />
		<tag k="place" v="farm" />
		<tag k="ssr:stedsnr" v="737727" />
	</node>
	<node id="-309778" lat="60.8553638846" lon="11.4583027712">
		<tag k="name" v="Smalmyrkoia" />
		<tag k="place" v="locality" />
		<tag k="ssr:stedsnr" v="737721" />
	</node>
	<node id="-309777" lat="60.8715194472" lon="11.2838277709">
		<tag k="name" v="Graner" />
		<tag k="place" v="farm" />
		<tag k="ssr:stedsnr" v="737688" />
	</node>
	<node id="-309776" lat="60.8648766741" lon="11.421629974">
		<tag k="fixme" v="consider place=hamlet" />
		<tag k="name" v="Ebru" />
		<tag k="place" v="farm" />
		<tag k="ssr:stedsnr" v="737676" />
	</node>
	<node id="-309775" lat="60.9203861096" lon="11.4042138973">
		<tag k="name" v="Narsætra" />
		<tag k="place" v="hamlet" />
		<tag k="ssr:stedsnr" v="737618" />
	</node>
	<node id="-309774" lat="60.908580551" lon="11.265063894">
		<tag k="name" v="Elvarheim" />
		<tag k="place" v="isolated_dwelling" />
		<tag k="ssr:stedsnr" v="737604" />
	</node>
	<node id="-309773" lat="60.911097226" lon="11.3951944529">
		<tag k="name" v="Kapellet" />
		<tag k="place" v="isolated_dwelling" />
		<tag k="ssr:stedsnr" v="737593" />
	</node>
	<node id="-309770" lat="60.9821416684" lon="11.27616112">
		<tag k="alt_name" v="Ruskåsen, nordre" />
		<tag k="name" v="Nordre Ruskåsen" />
		<tag k="place" v="neighbourhood" />
		<tag k="ssr:stedsnr" v="737522" />
	</node>
	<node id="-309769" lat="60.9852833327" lon="11.2906027793">
		<tag k="name" v="Størigarden" />
		<tag k="place" v="neighbourhood" />
		<tag k="ssr:stedsnr" v="737517" />
	</node>
	<node id="-309762" lat="60.8272083315" lon="11.2808138822">
		<tag k="name" v="Østberg" />
		<tag k="place" v="farm" />
		<tag k="ssr:stedsnr" v="655571" />
	</node>
	<node id="-309761" lat="60.8238972258" lon="11.2869416737">
		<tag k="name" v="Kjeverud" />
		<tag k="place" v="farm" />
		<tag k="ssr:stedsnr" v="655562" />
	</node>
	<node id="-309755" lat="60.8946222263" lon="11.3698972245">
		<tag k="name" v="Østre Løvlia" />
		<tag k="place" v="farm" />
		<tag k="ssr:stedsnr" v="655284" />
	</node>
	<node id="-309754" lat="60.9749416691" lon="11.34831944">
		<tag k="name" v="Kjølstadkoia" />
		<tag k="place" v="isolated_dwelling" />
		<tag k="ssr:stedsnr" v="627233" />
	</node>
	<node id="-309753" lat="60.7912777755" lon="11.2441861127">
		<tag k="name" v="Sønstevoll" />
		<tag k="place" v="farm" />
		<tag k="ssr:stedsnr" v="616925" />
	</node>
	<node id="-309752" lat="60.794455557" lon="11.2443722299">
		<tag k="alt_name" v="Sleteng" />
		<tag k="name" v="Sletteng" />
		<tag k="place" v="farm" />
		<tag k="ssr:stedsnr" v="616912" />
	</node>
	<node id="-309751" lat="60.7978780912" lon="11.3022503783">
		<tag k="name" v="Løken" />
		<tag k="place" v="hamlet" />
		<tag k="ssr:stedsnr" v="616894" />
	</node>
	<node id="-309750" lat="60.8467805546" lon="11.2870861139">
		<tag k="name" v="Vestby" />
		<tag k="place" v="farm" />
		<tag k="ssr:stedsnr" v="616717" />
	</node>
	<node id="-309749" lat="60.8536340623" lon="11.3014822378">
		<tag k="fixme" v="consider place=hamlet" />
		<tag k="name" v="Halstenshov" />
		<tag k="place" v="farm" />
		<tag k="ssr:stedsnr" v="616716" />
	</node>
	<node id="-309748" lat="60.8777083297" lon="11.2965222258">
		<tag k="alt_name" v="Mykirønningen" />
		<tag k="name" v="Mykjurønningen" />
		<tag k="place" v="farm" />
		<tag k="ssr:stedsnr" v="616671" />
	</node>
	<node id="-309747" lat="60.836400004" lon="11.3887722258">
		<tag k="alt_name" v="Roset, nordre" />
		<tag k="name" v="Nordre Roset" />
		<tag k="place" v="farm" />
		<tag k="ssr:stedsnr" v="616797" />
	</node>
	<node id="-309746" lat="60.8454826554" lon="11.2967858638">
		<tag k="fixme" v="consider place=hamlet" />
		<tag k="name" v="Morthov" />
		<tag k="place" v="farm" />
		<tag k="ssr:stedsnr" v="616787" />
	</node>
	<node id="-309744" lat="60.8886539277" lon="11.3604574845">
		<tag k="fixme" v="consider place=hamlet" />
		<tag k="name" v="Slåtten" />
		<tag k="place" v="farm" />
		<tag k="ssr:stedsnr" v="616636" />
	</node>
	<node id="-309743" lat="60.8172166626" lon="11.4749083363">
		<tag k="historic" v="shieling" />
		<tag k="name" v="Stålsætra" />
		<tag k="place" v="locality" />
		<tag k="ssr:stedsnr" v="616297" />
	</node>
	<node id="-309742" lat="60.856742841" lon="11.331601124">
		<tag k="fixme" v="consider place=hamlet" />
		<tag k="name" v="Igulstad" />
		<tag k="place" v="farm" />
		<tag k="ssr:stedsnr" v="615733" />
	</node>
	<node id="-309741" lat="60.8615354294" lon="11.3288228837">
		<tag k="fixme" v="consider place=hamlet" />
		<tag k="name" v="Kvæstad" />
		<tag k="place" v="farm" />
		<tag k="ssr:stedsnr" v="615729" />
	</node>
	<node id="-309739" lat="60.8560927599" lon="11.387722972">
		<tag k="alt_name" v="Husom, vestre" />
		<tag k="fixme" v="consider place=hamlet" />
		<tag k="name" v="Vestre Husom" />
		<tag k="place" v="farm" />
		<tag k="ssr:stedsnr" v="615723" />
	</node>
	<node id="-309737" lat="60.8046138913" lon="11.3183444479">
		<tag k="name" v="Ommangsbakken" />
		<tag k="place" v="farm" />
		<tag k="ssr:stedsnr" v="615851" />
	</node>
	<node id="-309736" lat="60.8024646271" lon="11.3223909272">
		<tag k="fixme" v="consider place=hamlet" />
		<tag k="name" v="Nordre Bjørke" />
		<tag k="place" v="farm" />
		<tag k="ssr:stedsnr" v="615850" />
	</node>
	<node id="-309735" lat="60.8005555576" lon="11.3041722228">
		<tag k="amenity" v="school" />
		<tag k="name" v="Hedemarken friskole" />
		<tag k="old_name" v="Løken skole" />
		<tag k="ssr:stedsnr" v="615848" />
	</node>
	<node id="-309734" lat="60.8068558382" lon="11.2762317164">
		<tag k="alt_name" v="Skramstad vestre" />
		<tag k="fixme" v="consider place=hamlet" />
		<tag k="name" v="Skramstad" />
		<tag k="place" v="farm" />
		<tag k="ssr:stedsnr" v="615846" />
	</node>
	<node id="-309732" lat="60.8131888858" lon="11.2521027738">
		<tag k="alt_name" v="Glabakk" />
		<tag k="name" v="Gladbakk" />
		<tag k="place" v="farm" />
		<tag k="ssr:stedsnr" v="615821" />
	</node>
	<node id="-309731" lat="60.8248611104" lon="11.2879305504">
		<tag k="name" v="Stendal" />
		<tag k="place" v="farm" />
		<tag k="ssr:stedsnr" v="615801" />
	</node>
	<node id="-309730" lat="60.7763805538" lon="11.4807027839">
		<tag k="alt_name" v="Rokoengen" />
		<tag k="name" v="Rokoenga" />
		<tag k="place" v="farm" />
		<tag k="ssr:stedsnr" v="615301" />
	</node>
	<node id="-309728" lat="60.8255611117" lon="11.4704111132">
		<tag k="fixme" v="consider tourism=alpine_hut or tourism=chalet" />
		<tag k="name" v="Svarttjennkoia" />
		<tag k="old_name" v="Svarttjernkoia" />
		<tag k="ssr:stedsnr" v="615251" />
		<tag k="tourism" v="wilderness_hut" />
	</node>
	<node id="-309727" lat="60.7396055568" lon="11.5904333374">
		<tag k="name" v="Olohusa" />
		<tag k="place" v="farm" />
		<tag k="ssr:stedsnr" v="613479" />
	</node>
	<node id="-309726" lat="60.8263277809" lon="11.3532138945">
		<tag k="name" v="Granlund" />
		<tag k="place" v="farm" />
		<tag k="ssr:stedsnr" v="595888" />
	</node>
	<node id="-309724" lat="60.8723972251" lon="11.3516499921">
		<tag k="name" v="Risengstua" />
		<tag k="place" v="farm" />
		<tag k="ssr:stedsnr" v="595580" />
	</node>
	<node id="-309723" lat="60.8188944415" lon="11.3038166754">
		<tag k="name" v="Bruflat" />
		<tag k="place" v="farm" />
		<tag k="ssr:stedsnr" v="595572" />
	</node>
	<node id="-309722" lat="60.8005638853" lon="11.2864527746">
		<tag k="name" v="Holmlund" />
		<tag k="place" v="farm" />
		<tag k="ssr:stedsnr" v="595558" />
	</node>
	<node id="-309715" lat="60.8645777751" lon="11.417336104">
		<tag k="building" v="industrial" />
		<tag k="industrial" v="factory" />
		<tag k="name" v="Ebru sag" />
		<tag k="ssr:stedsnr" v="595364" />
	</node>
	<node id="-309714" lat="60.8458071478" lon="11.3490131929">
		<tag k="fixme" v="consider place=hamlet" />
		<tag k="name" v="Grimskroksti" />
		<tag k="place" v="farm" />
		<tag k="ssr:stedsnr" v="594984" />
	</node>
	<node id="-309713" lat="60.8456981855" lon="11.3988621364">
		<tag k="fixme" v="consider place=hamlet" />
		<tag k="name" v="Talbak" />
		<tag k="place" v="farm" />
		<tag k="ssr:stedsnr" v="594952" />
	</node>
	<node id="-309712" lat="60.8644527745" lon="11.381013892">
		<tag k="name" v="Ekrum" />
		<tag k="place" v="farm" />
		<tag k="ssr:stedsnr" v="594948" />
	</node>
	<node id="-309711" lat="60.7963666709" lon="11.4277555561">
		<tag k="building" v="industrial" />
		<tag k="name" v="Rokosjøen sag" />
		<tag k="ssr:stedsnr" v="594774" />
	</node>
	<node id="-309703" lat="60.7885361119" lon="11.3260944504">
		<tag k="fixme" v="consider place=suburb, village or hamlet" />
		<tag k="name" v="Klevbakken" />
		<tag k="place" v="quarter" />
		<tag k="ssr:stedsnr" v="566911" />
	</node>
	<node id="-309701" lat="60.7633749973" lon="11.3360583356">
		<tag k="name" v="Bekkevoll" />
		<tag k="place" v="farm" />
		<tag k="ssr:stedsnr" v="555950" />
	</node>
	<node id="-309700" lat="60.7544722235" lon="11.4406444506">
		<tag k="historic" v="shieling" />
		<tag k="name" v="Bjørksætra" />
		<tag k="place" v="locality" />
		<tag k="ssr:stedsnr" v="555945" />
	</node>
	<node id="-309699" lat="60.7621388847" lon="11.4443694383">
		<tag k="name" v="Bekkevoll" />
		<tag k="place" v="isolated_dwelling" />
		<tag k="ssr:stedsnr" v="555943" />
	</node>
	<node id="-309697" lat="60.7810500002" lon="11.3403777741">
		<tag k="name" v="Fløtholen" />
		<tag k="place" v="farm" />
		<tag k="ssr:stedsnr" v="555889" />
	</node>
	<node id="-309696" lat="60.7745527737" lon="11.3378833307">
		<tag k="name" v="Sjurstua" />
		<tag k="place" v="farm" />
		<tag k="ssr:stedsnr" v="555887" />
	</node>
	<node id="-309695" lat="60.8184444459" lon="11.2764916672">
		<tag k="name" v="Mørbakken" />
		<tag k="place" v="farm" />
		<tag k="ssr:stedsnr" v="555817" />
	</node>
	<node id="-309694" lat="60.8193472238" lon="11.3711694511">
		<tag k="name" v="Hovslund" />
		<tag k="place" v="farm" />
		<tag k="ssr:stedsnr" v="555809" />
	</node>
	<node id="-309692" lat="60.8353129479" lon="11.3499284043">
		<tag k="fixme" v="consider place=hamlet" />
		<tag k="name" v="Segla" />
		<tag k="place" v="farm" />
		<tag k="ssr:stedsnr" v="555782" />
	</node>
	<node id="-309688" lat="60.8971416432" lon="11.3114143431">
		<tag k="fixme" v="consider place=hamlet" />
		<tag k="name" v="Greften" />
		<tag k="place" v="farm" />
		<tag k="ssr:stedsnr" v="555607" />
	</node>
	<node id="-309687" lat="60.8818388889" lon="11.3242416584">
		<tag k="name" v="Stenset" />
		<tag k="place" v="farm" />
		<tag k="ssr:stedsnr" v="555592" />
	</node>
	<node id="-309686" lat="60.8875250025" lon="11.3541083273">
		<tag k="name" v="Opphus" />
		<tag k="place" v="farm" />
		<tag k="ssr:stedsnr" v="555591" />
	</node>
	<node id="-309685" lat="60.8885998378" lon="11.3106087625">
		<tag k="alt_name" v="Linsveen" />
		<tag k="fixme" v="consider place=hamlet" />
		<tag k="name" v="Linsvea" />
		<tag k="place" v="farm" />
		<tag k="ssr:stedsnr" v="555590" />
	</node>
	<node id="-309684" lat="60.8824969491" lon="11.32083349">
		<tag k="fixme" v="consider place=hamlet" />
		<tag k="name" v="Nordset" />
		<tag k="place" v="farm" />
		<tag k="ssr:stedsnr" v="555588" />
	</node>
	<node id="-309683" lat="60.9167388862" lon="11.3677944415">
		<tag k="name" v="Savalsætra" />
		<tag k="place" v="hamlet" />
		<tag k="ssr:stedsnr" v="555582" />
	</node>
	<node id="-309680" lat="60.7733971847" lon="11.498802033">
		<tag k="fixme" v="consider place=hamlet" />
		<tag k="name" v="Ytteborg" />
		<tag k="place" v="farm" />
		<tag k="ssr:stedsnr" v="555266" />
	</node>
	<node id="-309679" lat="60.7396081066" lon="11.5054996378">
		<tag k="fixme" v="consider place=hamlet" />
		<tag k="name" v="Dalen" />
		<tag k="place" v="farm" />
		<tag k="ssr:stedsnr" v="553445" />
	</node>
	<node id="-309677" lat="60.7039555568" lon="11.573577784">
		<tag k="name" v="Krakkerud" />
		<tag k="place" v="isolated_dwelling" />
		<tag k="ssr:stedsnr" v="553247" />
	</node>
	<node id="-309674" lat="60.7907638853" lon="11.328680551">
		<tag k="name" v="Grindstua" />
		<tag k="place" v="farm" />
		<tag k="ssr:stedsnr" v="534939" />
	</node>
	<node id="-309673" lat="60.823958331" lon="11.3117249999">
		<tag k="name" v="Vesterhaug" />
		<tag k="place" v="farm" />
		<tag k="ssr:stedsnr" v="534914" />
	</node>
	<node id="-309672" lat="60.8307444405" lon="11.393486102">
		<tag k="name" v="Livensvea" />
		<tag k="place" v="farm" />
		<tag k="ssr:stedsnr" v="534899" />
	</node>
	<node id="-309671" lat="60.8016027791" lon="11.3122999921">
		<tag k="name" v="Østhagen" />
		<tag k="place" v="farm" />
		<tag k="ssr:stedsnr" v="534883" />
	</node>
	<node id="-309670" lat="60.8757638884" lon="11.3538333383">
		<tag k="name" v="Østerhagen" />
		<tag k="place" v="farm" />
		<tag k="ssr:stedsnr" v="534993" />
	</node>
	<node id="-309666" lat="60.7709111144" lon="11.4768638872">
		<tag k="name" v="Storsveen" />
		<tag k="place" v="farm" />
		<tag k="ssr:stedsnr" v="534765" />
	</node>
	<node id="-309664" lat="60.8586472213" lon="11.3999388859">
		<tag k="building" v="civic" />
		<tag k="name" v="Husum servicestasjon" />
		<tag k="ssr:stedsnr" v="534518" />
	</node>
	<node id="-309662" lat="60.9032916693" lon="11.2629194394">
		<tag k="name" v="Midtlinkoia" />
		<tag k="place" v="isolated_dwelling" />
		<tag k="ssr:stedsnr" v="534487" />
	</node>
	<node id="-309661" lat="60.8634027821" lon="11.4196527864">
		<tag k="name" v="Rundhaug" />
		<tag k="place" v="farm" />
		<tag k="ssr:stedsnr" v="534480" />
	</node>
	<node id="-309660" lat="60.812247225" lon="11.3805361174">
		<tag k="name" v="Dyrihagen" />
		<tag k="place" v="farm" />
		<tag k="ssr:stedsnr" v="534469" />
	</node>
	<node id="-309659" lat="60.7790749973" lon="11.3562138963">
		<tag k="name" v="Torelykkja" />
		<tag k="place" v="farm" />
		<tag k="ssr:stedsnr" v="534462" />
	</node>
	<node id="-309654" lat="60.724786112" lon="11.4985472199">
		<tag k="name" v="Sørsvebakken" />
		<tag k="place" v="farm" />
		<tag k="ssr:stedsnr" v="534279" />
	</node>
	<node id="-309652" lat="60.8677400666" lon="11.3253540868">
		<tag k="fixme" v="consider place=hamlet" />
		<tag k="name" v="Grylling" />
		<tag k="place" v="farm" />
		<tag k="ssr:stedsnr" v="522588" />
	</node>
	<node id="-309651" lat="60.763427778" lon="11.3526222158">
		<tag k="name" v="Sørli" />
		<tag k="place" v="farm" />
		<tag k="ssr:stedsnr" v="434960" />
	</node>
	<node id="-309650" lat="60.7703722255" lon="11.3361444513">
		<tag k="alt_name" v="Sandbakk" />
		<tag k="name" v="Sandbekk" />
		<tag k="place" v="farm" />
		<tag k="ssr:stedsnr" v="434922" />
	</node>
	<node id="-309649" lat="60.7958300618" lon="11.4602886705">
		<tag k="fixme" v="consider place=hamlet" />
		<tag k="name" v="Sandåker" />
		<tag k="place" v="farm" />
		<tag k="ssr:stedsnr" v="434894" />
	</node>
	<node id="-309648" lat="60.7946943365" lon="11.2655798548">
		<tag k="fixme" v="consider place=hamlet" />
		<tag k="name" v="Tofsrud" />
		<tag k="place" v="farm" />
		<tag k="ssr:stedsnr" v="434873" />
	</node>
	<node id="-309647" lat="60.7927749963" lon="11.250319449">
		<tag k="name" v="Moen" />
		<tag k="place" v="farm" />
		<tag k="ssr:stedsnr" v="434870" />
	</node>
	<node id="-309646" lat="60.7999888919" lon="11.2476083302">
		<tag k="name" v="Brattås" />
		<tag k="place" v="farm" />
		<tag k="ssr:stedsnr" v="434862" />
	</node>
	<node id="-309645" lat="60.8217388877" lon="11.2987444408">
		<tag k="name" v="Nyland" />
		<tag k="place" v="farm" />
		<tag k="ssr:stedsnr" v="434770" />
	</node>
	<node id="-309644" lat="60.8347638902" lon="11.3572388831">
		<tag k="alt_name" v="Øvergård" />
		<tag k="name" v="Øvergard" />
		<tag k="place" v="farm" />
		<tag k="ssr:stedsnr" v="434761" />
	</node>
	<node id="-309643" lat="60.8345868477" lon="11.3466002814">
		<tag k="alt_name" v="Karud, nordre" />
		<tag k="fixme" v="consider place=hamlet" />
		<tag k="name" v="Nordre Karud" />
		<tag k="place" v="farm" />
		<tag k="ssr:stedsnr" v="434760" />
	</node>
	<node id="-309642" lat="60.7949388907" lon="11.2923361067">
		<tag k="name" v="Løvstad" />
		<tag k="place" v="farm" />
		<tag k="ssr:stedsnr" v="434848" />
	</node>
	<node id="-309641" lat="60.900794441" lon="11.3130833302">
		<tag k="name" v="Bråten" />
		<tag k="place" v="farm" />
		<tag k="ssr:stedsnr" v="434591" />
	</node>
	<node id="-309640" lat="60.915616665" lon="11.2972777735">
		<tag k="name" v="Lysodden" />
		<tag k="place" v="isolated_dwelling" />
		<tag k="ssr:stedsnr" v="434584" />
	</node>
	<node id="-309639" lat="60.9121833343" lon="11.4118416617">
		<tag k="name" v="Sagfallkoia" />
		<tag k="place" v="isolated_dwelling" />
		<tag k="ssr:stedsnr" v="434581" />
	</node>
	<node id="-309638" lat="60.9449444489" lon="11.3914416579">
		<tag k="alt_name" v="Hankerudkoia" />
		<tag k="name" v="Hankerud" />
		<tag k="place" v="isolated_dwelling" />
		<tag k="ssr:stedsnr" v="434536" />
	</node>
	<node id="-309637" lat="60.8492138885" lon="11.2876638905">
		<tag k="name" v="Rønningen" />
		<tag k="place" v="farm" />
		<tag k="ssr:stedsnr" v="434685" />
	</node>
	<node id="-309636" lat="60.8758347443" lon="11.3042716227">
		<tag k="alt_name" v="Myki" />
		<tag k="fixme" v="consider place=hamlet" />
		<tag k="name" v="Mykju" />
		<tag k="place" v="farm" />
		<tag k="ssr:stedsnr" v="434647" />
	</node>
	<node id="-309635" lat="60.7493833349" lon="11.564625006">
		<tag k="name" v="Lundby" />
		<tag k="place" v="isolated_dwelling" />
		<tag k="ssr:stedsnr" v="434391" />
	</node>
	<node id="-309633" lat="60.7570027809" lon="11.5554666595">
		<tag k="alt_name" v="Øvre Bakken" />
		<tag k="name" v="Bakken" />
		<tag k="place" v="farm" />
		<tag k="ssr:stedsnr" v="434373" />
	</node>
	<node id="-309632" lat="60.981452774" lon="11.2373833364">
		<tag k="name" v="Målia" />
		<tag k="place" v="hamlet" />
		<tag k="ssr:stedsnr" v="434495" />
	</node>
	<node id="-309630" lat="60.7756891043" lon="11.4724149641">
		<tag k="alt_name" v="Vestre Roko" />
		<tag k="fixme" v="consider place=hamlet" />
		<tag k="name" v="Roko" />
		<tag k="place" v="farm" />
		<tag k="ssr:stedsnr" v="434277" />
	</node>
	<node id="-309629" lat="60.7417944426" lon="11.4736277686">
		<tag k="alt_name" v="Nordløkken" />
		<tag k="name" v="Nordlykkja" />
		<tag k="place" v="isolated_dwelling" />
		<tag k="ssr:stedsnr" v="432437" />
	</node>
	<node id="-309627" lat="60.7294916663" lon="11.5468972162">
		<tag k="name" v="Stenset" />
		<tag k="place" v="farm" />
		<tag k="ssr:stedsnr" v="432261" />
	</node>
	<node id="-309626" lat="60.8304666669" lon="11.3895444522">
		<tag k="name" v="Livenhagen" />
		<tag k="place" v="farm" />
		<tag k="ssr:stedsnr" v="413916" />
	</node>
	<node id="-309625" lat="60.7488083291" lon="11.4600000015">
		<tag k="name" v="Klingenbergkoia" />
		<tag k="place" v="isolated_dwelling" />
		<tag k="ssr:stedsnr" v="413762" />
	</node>
	<node id="-309624" lat="60.8609722213" lon="11.2866833265">
		<tag k="name" v="Vestre Tom" />
		<tag k="place" v="farm" />
		<tag k="ssr:stedsnr" v="413597" />
	</node>
	<node id="-309621" lat="60.8697138851" lon="11.3674055543">
		<tag k="amenity" v="school" />
		<tag k="name" v="Jønsrud" />
		<tag k="ssr:stedsnr" v="413541" />
	</node>
	<node id="-309611" lat="60.8294999986" lon="11.3034777822">
		<tag k="name" v="Skauen" />
		<tag k="place" v="quarter" />
		<tag k="ssr:stedsnr" v="413398" />
	</node>
	<node id="-309610" lat="60.9228166694" lon="11.3668638958">
		<tag k="name" v="Høglikoia" />
		<tag k="place" v="locality" />
		<tag k="ssr:stedsnr" v="412761" />
	</node>
	<node id="-309605" lat="60.7670391579" lon="11.3348168786">
		<tag k="fixme" v="consider place=hamlet" />
		<tag k="name" v="Knutsdalen" />
		<tag k="place" v="farm" />
		<tag k="ssr:stedsnr" v="373938" />
	</node>
	<node id="-309604" lat="60.8120277753" lon="11.362461111">
		<tag k="name" v="Søndre Enge" />
		<tag k="place" v="farm" />
		<tag k="ssr:stedsnr" v="373850" />
	</node>
	<node id="-309603" lat="60.7960027792" lon="11.3798444501">
		<tag k="name" v="Bekkelund" />
		<tag k="place" v="farm" />
		<tag k="ssr:stedsnr" v="373888" />
	</node>
	<node id="-309602" lat="60.8313144737" lon="11.2846225607">
		<tag k="fixme" v="consider place=hamlet" />
		<tag k="name" v="Svea" />
		<tag k="place" v="farm" />
		<tag k="ssr:stedsnr" v="373790" />
	</node>
	<node id="-309601" lat="60.8761374078" lon="11.3366867001">
		<tag k="fixme" v="consider place=hamlet" />
		<tag k="name" v="Karterud" />
		<tag k="place" v="farm" />
		<tag k="ssr:stedsnr" v="373678" />
	</node>
	<node id="-309600" lat="60.8101327173" lon="11.3136838593">
		<tag k="alt_name" v="Rustad, l" />
		<tag k="fixme" v="consider place=hamlet" />
		<tag k="name" v="Lille Rustad" />
		<tag k="place" v="farm" />
		<tag k="ssr:stedsnr" v="373836" />
	</node>
	<node id="-309599" lat="60.8491601811" lon="11.3159334325">
		<tag k="fixme" v="consider place=hamlet" />
		<tag k="name" v="Imset" />
		<tag k="place" v="farm" />
		<tag k="ssr:stedsnr" v="373751" />
	</node>
	<node id="-309598" lat="60.8836099521" lon="11.3231004473">
		<tag k="fixme" v="consider place=hamlet" />
		<tag k="name" v="Brevad" />
		<tag k="place" v="farm" />
		<tag k="ssr:stedsnr" v="373646" />
	</node>
	<node id="-309595" lat="60.8435749964" lon="11.4810694446">
		<tag k="name" v="Grønnmyrkoia" />
		<tag k="place" v="locality" />
		<tag k="ssr:stedsnr" v="373189" />
	</node>
	<node id="-309592" lat="60.8255638923" lon="11.3989666672">
		<tag k="name" v="Gaukslettrønningen" />
		<tag k="place" v="farm" />
		<tag k="ssr:stedsnr" v="352894" />
	</node>
	<node id="-309591" lat="60.8020527785" lon="11.3401805588">
		<tag k="name" v="Allergodt" />
		<tag k="place" v="farm" />
		<tag k="ssr:stedsnr" v="352860" />
	</node>
	<node id="-309590" lat="60.7996873567" lon="11.32184964">
		<tag k="fixme" v="consider place=hamlet" />
		<tag k="name" v="Østre Bjørke" />
		<tag k="place" v="farm" />
		<tag k="ssr:stedsnr" v="352851" />
	</node>
	<node id="-309589" lat="60.8579252546" lon="11.2868959685">
		<tag k="fixme" v="consider place=hamlet" />
		<tag k="name" v="Vestre Kvinkholen" />
		<tag k="place" v="farm" />
		<tag k="ssr:stedsnr" v="352847" />
	</node>
	<node id="-309588" lat="60.7953305582" lon="11.303558336">
		<tag k="name" v="Fagertun" />
		<tag k="place" v="farm" />
		<tag k="ssr:stedsnr" v="352607" />
	</node>
	<node id="-309587" lat="60.8348055568" lon="11.2877749992">
		<tag k="name" v="Kjeldsrud" />
		<tag k="place" v="farm" />
		<tag k="ssr:stedsnr" v="352597" />
	</node>
	<node id="-309586" lat="60.8541249961" lon="11.2910361034">
		<tag k="name" v="Verge" />
		<tag k="place" v="farm" />
		<tag k="ssr:stedsnr" v="352576" />
	</node>
	<node id="-309585" lat="60.8184861126" lon="11.3004583357">
		<tag k="name" v="Stensby" />
		<tag k="place" v="farm" />
		<tag k="ssr:stedsnr" v="352565" />
	</node>
	<node id="-309580" lat="60.7870499965" lon="11.3491388877">
		<tag k="amenity" v="school" />
		<tag k="name" v="Brovoll skole" />
		<tag k="ssr:stedsnr" v="352477" />
	</node>
	<node id="-309579" lat="60.8333777779" lon="11.3140416671">
		<tag k="name" v="Slettmoen øst" />
		<tag k="place" v="quarter" />
		<tag k="ssr:stedsnr" v="352459" />
	</node>
	<node id="-309578" lat="60.8616944405" lon="11.4130416659">
		<tag k="name" v="Smedbakken" />
		<tag k="place" v="locality" />
		<tag k="ssr:stedsnr" v="352435" />
	</node>
	<node id="-309572" lat="60.7517416629" lon="11.469016667">
		<tag k="loc_name" v="Øvre Godbakklikoia" />
		<tag k="name" v="Øvre Gobakklikoia" />
		<tag k="place" v="isolated_dwelling" />
		<tag k="ssr:stedsnr" v="352274" />
	</node>
	<node id="-309570" lat="60.8728361138" lon="11.4384416738">
		<tag k="name" v="Nordvang" />
		<tag k="place" v="farm" />
		<tag k="ssr:stedsnr" v="351969" />
	</node>
	<node id="-309569" lat="60.7815416625" lon="11.4761250051">
		<tag k="name" v="Elsebakkoia" />
		<tag k="place" v="isolated_dwelling" />
		<tag k="ssr:stedsnr" v="351790" />
	</node>
	<node id="-309567" lat="60.8681888851" lon="11.4286916712">
		<tag k="name" v="Østjordet" />
		<tag k="place" v="farm" />
		<tag k="ssr:stedsnr" v="352959" />
	</node>
	<node id="-309566" lat="60.8704777758" lon="11.3080694505">
		<tag k="name" v="Vestre Alfei" />
		<tag k="place" v="farm" />
		<tag k="ssr:stedsnr" v="349530" />
	</node>
	<node id="-309565" lat="60.8017999998" lon="11.4661444377">
		<tag k="name" v="Gaukerud" />
		<tag k="place" v="isolated_dwelling" />
		<tag k="ssr:stedsnr" v="313893" />
	</node>
	<node id="-309564" lat="60.838255554" lon="11.3018805553">
		<tag k="name" v="Doksrud" />
		<tag k="place" v="farm" />
		<tag k="ssr:stedsnr" v="313800" />
	</node>
	<node id="-309563" lat="60.9671638897" lon="11.280188896">
		<tag k="historic" v="shieling" />
		<tag k="name" v="Bjørkvollen" />
		<tag k="place" v="locality" />
		<tag k="ssr:stedsnr" v="313586" />
	</node>
	<node id="-309561" lat="60.8663905336" lon="11.3047554171">
		<tag k="fixme" v="consider place=hamlet" />
		<tag k="name" v="Hjelseng" />
		<tag k="place" v="farm" />
		<tag k="ssr:stedsnr" v="312679" />
	</node>
	<node id="-309560" lat="60.8645769479" lon="11.3820470065">
		<tag k="alt_name" v="Ekrum" />
		<tag k="fixme" v="consider place=hamlet" />
		<tag k="name" v="Ekrom" />
		<tag k="place" v="farm" />
		<tag k="ssr:stedsnr" v="312673" />
	</node>
	<node id="-309558" lat="60.8032091374" lon="11.3708716646">
		<tag k="alt_name" v="Vembstad" />
		<tag k="fixme" v="consider place=hamlet" />
		<tag k="name" v="Vemstad" />
		<tag k="place" v="farm" />
		<tag k="ssr:stedsnr" v="312847" />
	</node>
	<node id="-309557" lat="60.8078155364" lon="11.3516334359">
		<tag k="fixme" v="consider place=hamlet" />
		<tag k="name" v="Kjøstad" />
		<tag k="place" v="farm" />
		<tag k="ssr:stedsnr" v="312845" />
	</node>
	<node id="-309554" lat="60.9118805527" lon="11.2707222267">
		<tag k="name" v="Ålsætra" />
		<tag k="place" v="hamlet" />
		<tag k="ssr:stedsnr" v="312593" />
	</node>
	<node id="-309553" lat="60.7500777787" lon="11.5351305578">
		<tag k="name" v="Grav" />
		<tag k="place" v="farm" />
		<tag k="ssr:stedsnr" v="312427" />
	</node>
	<node id="-309552" lat="60.7562749996" lon="11.5009166751">
		<tag k="name" v="Myrhaug" />
		<tag k="place" v="farm" />
		<tag k="ssr:stedsnr" v="312413" />
	</node>
	<node id="-309549" lat="60.7741583326" lon="11.5337805597">
		<tag k="alt_name" v="Mellum" />
		<tag k="name" v="Mellom" />
		<tag k="place" v="farm" />
		<tag k="ssr:stedsnr" v="312316" />
	</node>
	<node id="-309548" lat="60.7740284273" lon="11.5006440558">
		<tag k="fixme" v="consider place=hamlet" />
		<tag k="name" v="Veideborg" />
		<tag k="place" v="farm" />
		<tag k="ssr:stedsnr" v="312312" />
	</node>
	<node id="-309547" lat="60.7982777766" lon="11.497061118">
		<tag k="alt_name" v="Haugsvollkoia" />
		<tag k="name" v="Høgvollkoia" />
		<tag k="place" v="isolated_dwelling" />
		<tag k="ssr:stedsnr" v="312260" />
	</node>
	<node id="-309546" lat="60.8478749971" lon="11.4694361089">
		<tag k="name" v="Vensætra" />
		<tag k="place" v="locality" />
		<tag k="ssr:stedsnr" v="312200" />
	</node>
	<node id="-309545" lat="60.7340547802" lon="11.5873605536">
		<tag k="alt_name" v="Kjernli" />
		<tag k="fixme" v="consider place=hamlet" />
		<tag k="name" v="Tjernli" />
		<tag k="place" v="farm" />
		<tag k="ssr:stedsnr" v="310483" />
	</node>
	<node id="-309544" lat="60.7385472215" lon="11.5101472305">
		<tag k="name" v="Engebakken" />
		<tag k="place" v="farm" />
		<tag k="ssr:stedsnr" v="310482" />
	</node>
	<node id="-309543" lat="60.7452166707" lon="11.5818555516">
		<tag k="name" v="Stenberg" />
		<tag k="place" v="farm" />
		<tag k="ssr:stedsnr" v="310472" />
	</node>
	<node id="-309542" lat="60.7493722232" lon="11.5815111041">
		<tag k="fixme" v="multiple name tags, choose one and add the other to alt_name" />
		<tag k="name" v="Lykkja;Solbergløkken" />
		<tag k="place" v="farm" />
		<tag k="ssr:stedsnr" v="310470" />
	</node>
	<node id="-309541" lat="60.7238750015" lon="11.51178888">
		<tag k="name" v="Svingkoia" />
		<tag k="place" v="isolated_dwelling" />
		<tag k="ssr:stedsnr" v="310304" />
	</node>
	<node id="-309539" lat="60.8311777821" lon="11.2830277824">
		<tag k="name" v="Sveen Vestre" />
		<tag k="place" v="farm" />
		<tag k="ssr:stedsnr" v="303835" />
	</node>
	<node id="-309538" lat="60.9510916646" lon="11.2932416674">
		<tag k="alt_name" v="Budor Turisthytte" />
		<tag k="fixme" v="consider tourism=alpine_hut or tourism=chalet" />
		<tag k="name" v="Budor Gjestegård" />
		<tag k="ssr:stedsnr" v="207013" />
		<tag k="tourism" v="wilderness_hut" />
	</node>
	<node id="-309537" lat="60.8157346208" lon="11.3262451191">
		<tag k="fixme" v="consider place=hamlet" />
		<tag k="name" v="Skøyen" />
		<tag k="place" v="farm" />
		<tag k="ssr:stedsnr" v="191800" />
	</node>
	<node id="-309536" lat="60.8230944455" lon="11.3807166604">
		<tag k="name" v="Østre Svea" />
		<tag k="place" v="farm" />
		<tag k="ssr:stedsnr" v="191787" />
	</node>
	<node id="-309535" lat="60.8241083293" lon="11.2904138961">
		<tag k="name" v="Slettvoll" />
		<tag k="place" v="farm" />
		<tag k="ssr:stedsnr" v="191774" />
	</node>
	<node id="-309534" lat="60.781109662" lon="11.3490931756">
		<tag k="fixme" v="consider place=hamlet" />
		<tag k="name" v="Ilseng" />
		<tag k="place" v="farm" />
		<tag k="ssr:stedsnr" v="191880" />
	</node>
	<node id="-309533" lat="60.7854564829" lon="11.3591624809">
		<tag k="alt_name" v="Øvre Heggen" />
		<tag k="fixme" v="consider place=hamlet" />
		<tag k="name" v="Heggen" />
		<tag k="place" v="farm" />
		<tag k="ssr:stedsnr" v="191868" />
	</node>
	<node id="-309532" lat="60.7942479492" lon="11.2751643176">
		<tag k="fixme" v="consider place=hamlet" />
		<tag k="name" v="Sande" />
		<tag k="place" v="farm" />
		<tag k="ssr:stedsnr" v="191853" />
	</node>
	<node id="-309531" lat="60.7983805566" lon="11.2619805477">
		<tag k="fixme" v="consider place=hamlet" />
		<tag k="name" v="Grimset" />
		<tag k="place" v="farm" />
		<tag k="ssr:stedsnr" v="191852" />
	</node>
	<node id="-309530" lat="60.8509166699" lon="11.3121083278">
		<tag k="name" v="Imsetbakken" />
		<tag k="place" v="farm" />
		<tag k="ssr:stedsnr" v="191700" />
	</node>
	<node id="-309529" lat="60.8626725338" lon="11.2864603208">
		<tag k="fixme" v="consider place=hamlet" />
		<tag k="name" v="Tom" />
		<tag k="place" v="farm" />
		<tag k="ssr:stedsnr" v="191689" />
	</node>
	<node id="-309528" lat="60.8728055555" lon="11.3105583352">
		<tag k="alt_name" v="Nordre Alfei" />
		<tag k="name" v="Alfei" />
		<tag k="place" v="farm" />
		<tag k="ssr:stedsnr" v="191644" />
	</node>
	<node id="-309527" lat="60.8635500008" lon="11.3633944424">
		<tag k="name" v="Brennholen" />
		<tag k="place" v="farm" />
		<tag k="ssr:stedsnr" v="191642" />
	</node>
	<node id="-309526" lat="60.8305154426" lon="11.3788779171">
		<tag k="fixme" v="consider place=hamlet" />
		<tag k="name" v="Løvhaugen" />
		<tag k="place" v="farm" />
		<tag k="ssr:stedsnr" v="191764" />
	</node>
	<node id="-309524" lat="60.8820030858" lon="11.3688171658">
		<tag k="alt_name" v="Rom, vestre" />
		<tag k="fixme" v="consider place=hamlet" />
		<tag k="name" v="Vestre Rom" />
		<tag k="place" v="farm" />
		<tag k="ssr:stedsnr" v="191587" />
	</node>
	<node id="-309520" lat="60.7757805521" lon="11.4854888978">
		<tag k="name" v="Sandbekk" />
		<tag k="place" v="farm" />
		<tag k="ssr:stedsnr" v="191291" />
	</node>
	<node id="-309519" lat="60.7414277788" lon="11.5998638883">
		<tag k="name" v="Holtet" />
		<tag k="place" v="farm" />
		<tag k="ssr:stedsnr" v="189438" />
	</node>
	<node id="-309517" lat="60.7478361101" lon="11.5702472205">
		<tag k="name" v="Bekkevoll" />
		<tag k="place" v="farm" />
		<tag k="ssr:stedsnr" v="189430" />
	</node>
	<node id="-309516" lat="60.7421305566" lon="11.5923611157">
		<tag k="name" v="Elstad" />
		<tag k="place" v="farm" />
		<tag k="ssr:stedsnr" v="189426" />
	</node>
	<node id="-309515" lat="60.7464638866" lon="11.5114083269">
		<tag k="name" v="Østlund" />
		<tag k="place" v="farm" />
		<tag k="ssr:stedsnr" v="189421" />
	</node>
	<node id="-309514" lat="60.7151555581" lon="11.6162416759">
		<tag k="name" v="Torpsaga" />
		<tag k="place" v="isolated_dwelling" />
		<tag k="ssr:stedsnr" v="189279" />
	</node>
	<node id="-309513" lat="60.7180861154" lon="11.4941388964">
		<tag k="name" v="Vellumstadbråten" />
		<tag k="place" v="farm" />
		<tag k="ssr:stedsnr" v="189274" />
	</node>
	<node id="-309512" lat="60.7107611078" lon="11.5188694419">
		<tag k="alt_name" v="Skuggerudkoia" />
		<tag k="name" v="Skuggerud" />
		<tag k="place" v="isolated_dwelling" />
		<tag k="ssr:stedsnr" v="189269" />
	</node>
	<node id="-309510" lat="60.8680333306" lon="11.3843222273">
		<tag k="name" v="Ekrumshagen" />
		<tag k="place" v="farm" />
		<tag k="ssr:stedsnr" v="170967" />
	</node>
	<node id="-309509" lat="60.7932083288" lon="11.3353277819">
		<tag k="name" v="Godal" />
		<tag k="place" v="farm" />
		<tag k="ssr:stedsnr" v="170934" />
	</node>
	<node id="-309508" lat="60.8363055566" lon="11.3249277738">
		<tag k="name" v="Klammerbakken" />
		<tag k="place" v="farm" />
		<tag k="ssr:stedsnr" v="170923" />
	</node>
	<node id="-309507" lat="60.8203861146" lon="11.3282416665">
		<tag k="name" v="Vangli" />
		<tag k="place" v="farm" />
		<tag k="ssr:stedsnr" v="170889" />
	</node>
	<node id="-309506" lat="60.8241666698" lon="11.3531111167">
		<tag k="name" v="Søndre Spånestad" />
		<tag k="place" v="farm" />
		<tag k="ssr:stedsnr" v="170879" />
	</node>
	<node id="-309505" lat="60.9579444468" lon="11.3423361182">
		<tag k="name" v="Plankkoia" />
		<tag k="place" v="isolated_dwelling" />
		<tag k="ssr:stedsnr" v="170827" />
	</node>
	<node id="-309504" lat="60.8162861156" lon="11.4786472188">
		<tag k="name" v="Stålsætrerkoia" />
		<tag k="place" v="isolated_dwelling" />
		<tag k="ssr:stedsnr" v="170820" />
	</node>
	<node id="-309503" lat="60.9256972208" lon="11.3250777832">
		<tag k="name" v="Værelsvolla" />
		<tag k="place" v="isolated_dwelling" />
		<tag k="ssr:stedsnr" v="170815" />
	</node>
	<node id="-309502" lat="60.7723055555" lon="11.4800944359">
		<tag k="name" v="Søndre Roko" />
		<tag k="place" v="farm" />
		<tag k="ssr:stedsnr" v="170772" />
	</node>
	<node id="-309499" lat="60.7790638901" lon="11.3562694393">
		<tag k="name" v="Torelykkja" />
		<tag k="place" v="farm" />
		<tag k="ssr:stedsnr" v="170622" />
	</node>
	<node id="-309498" lat="60.827452774" lon="11.2834055481">
		<tag k="name" v="Sveberg" />
		<tag k="place" v="farm" />
		<tag k="ssr:stedsnr" v="170620" />
	</node>
	<node id="-309497" lat="60.8312944405" lon="11.26873888">
		<tag k="name" v="Grotten" />
		<tag k="place" v="farm" />
		<tag k="ssr:stedsnr" v="170617" />
	</node>
	<node id="-309485" lat="60.7751111136" lon="11.4745611187">
		<tag k="name" v="Østre Roko" />
		<tag k="place" v="farm" />
		<tag k="ssr:stedsnr" v="162995" />
	</node>
	<node id="-309484" lat="60.8322833344" lon="11.3081305537">
		<tag k="name" v="Slettmoen" />
		<tag k="place" v="quarter" />
		<tag k="ssr:stedsnr" v="144994" />
	</node>
	<node id="-309483" lat="60.8719376544" lon="11.4392680955">
		<tag k="fixme" v="consider place=hamlet" />
		<tag k="name" v="Tobru" />
		<tag k="place" v="farm" />
		<tag k="ssr:stedsnr" v="131677" />
	</node>
	<node id="-309482" lat="60.8410268067" lon="11.364088634">
		<tag k="fixme" v="consider place=hamlet" />
		<tag k="name" v="Sigstad" />
		<tag k="place" v="farm" />
		<tag k="ssr:stedsnr" v="131800" />
	</node>
	<node id="-309481" lat="60.8370166655" lon="11.3092250003">
		<tag k="alt_name" v="Gammalsrud" />
		<tag k="name" v="Gammelsrud" />
		<tag k="place" v="farm" />
		<tag k="ssr:stedsnr" v="131797" />
	</node>
	<node id="-309478" lat="60.787058891" lon="11.4933734744">
		<tag k="fixme" v="consider place=hamlet" />
		<tag k="name" v="Rokoskogen" />
		<tag k="place" v="farm" />
		<tag k="ssr:stedsnr" v="131353" />
	</node>
	<node id="-309477" lat="60.7894722251" lon="11.2447583297">
		<tag k="name" v="Sønsterud" />
		<tag k="place" v="farm" />
		<tag k="ssr:stedsnr" v="130899" />
	</node>
	<node id="-309476" lat="60.7879472215" lon="11.2687416722">
		<tag k="name" v="Sandberg" />
		<tag k="place" v="farm" />
		<tag k="ssr:stedsnr" v="130890" />
	</node>
	<node id="-309473" lat="60.7963201567" lon="11.3242934342">
		<tag k="fixme" v="consider place=hamlet" />
		<tag k="name" v="Kurud" />
		<tag k="place" v="farm" />
		<tag k="ssr:stedsnr" v="130849" />
	</node>
	<node id="-309472" lat="60.8087040571" lon="11.3103437514">
		<tag k="fixme" v="consider place=hamlet" />
		<tag k="name" v="Kjels-Rustad" />
		<tag k="place" v="farm" />
		<tag k="ssr:stedsnr" v="130839" />
	</node>
	<node id="-309471" lat="60.8013138895" lon="11.3388055545">
		<tag k="name" v="Finnstadsvea" />
		<tag k="place" v="farm" />
		<tag k="ssr:stedsnr" v="130831" />
	</node>
	<node id="-309470" lat="60.8092290196" lon="11.2647913939">
		<tag k="fixme" v="consider place=hamlet" />
		<tag k="name" v="Hestvoll" />
		<tag k="place" v="farm" />
		<tag k="ssr:stedsnr" v="130823" />
	</node>
	<node id="-309469" lat="60.8262052825" lon="11.3858079313">
		<tag k="fixme" v="consider place=hamlet" />
		<tag k="name" v="Bjørnstad" />
		<tag k="place" v="farm" />
		<tag k="ssr:stedsnr" v="130785" />
	</node>
	<node id="-309468" lat="60.8227111071" lon="11.2897277751">
		<tag k="name" v="Nervoll" />
		<tag k="place" v="farm" />
		<tag k="ssr:stedsnr" v="130778" />
	</node>
	<node id="-309467" lat="60.8248060814" lon="11.316494185">
		<tag k="fixme" v="consider place=hamlet" />
		<tag k="name" v="Østre Norderhov" />
		<tag k="place" v="farm" />
		<tag k="ssr:stedsnr" v="130772" />
	</node>
	<node id="-309466" lat="60.8265627633" lon="11.3690506522">
		<tag k="fixme" v="consider place=hamlet" />
		<tag k="name" v="Tangnes" />
		<tag k="place" v="farm" />
		<tag k="ssr:stedsnr" v="130762" />
	</node>
	<node id="-309465" lat="60.9034222254" lon="11.2795638879">
		<tag k="name" v="Nordby" />
		<tag k="place" v="farm" />
		<tag k="ssr:stedsnr" v="130588" />
	</node>
	<node id="-309463" lat="60.7677250001" lon="11.4141444441">
		<tag k="name" v="Baståskoia" />
		<tag k="place" v="isolated_dwelling" />
		<tag k="ssr:stedsnr" v="130947" />
	</node>
	<node id="-309462" lat="60.8548388869" lon="11.4658138867">
		<tag k="alt_name" v="Strømlikoia" />
		<tag k="name" v="Strømslikoia" />
		<tag k="place" v="locality" />
		<tag k="ssr:stedsnr" v="130689" />
	</node>
	<node id="-309461" lat="60.8656480475" lon="11.3182006576">
		<tag k="alt_name" v="Nordre Torp" />
		<tag k="fixme" v="consider place=hamlet" />
		<tag k="name" v="Torp" />
		<tag k="place" v="farm" />
		<tag k="ssr:stedsnr" v="130669" />
	</node>
	<node id="-309460" lat="60.8680916664" lon="11.4296055636">
		<tag k="name" v="Østrått" />
		<tag k="place" v="isolated_dwelling" />
		<tag k="ssr:stedsnr" v="130660" />
	</node>
	<node id="-309457" lat="60.9508611112" lon="11.2930222137">
		<tag k="name" v="Budor" />
		<tag k="place" v="hamlet" />
		<tag k="ssr:stedsnr" v="130544" />
	</node>
	<node id="-309456" lat="60.8190498498" lon="11.470339789">
		<tag k="fixme" v="consider tourism=alpine_hut or tourism=chalet" />
		<tag k="name" v="Småsætra" />
		<tag k="ssr:stedsnr" v="130278" />
		<tag k="tourism" v="wilderness_hut" />
	</node>
	<node id="-309455" lat="60.7430213914" lon="11.58300659">
		<tag k="fixme" v="consider place=hamlet" />
		<tag k="name" v="Hanakne" />
		<tag k="place" v="farm" />
		<tag k="ssr:stedsnr" v="128430" />
	</node>
	<node id="-309454" lat="60.7440361084" lon="11.5740333242">
		<tag k="alt_name" v="Høgsveen" />
		<tag k="name" v="Høgsvea" />
		<tag k="place" v="farm" />
		<tag k="ssr:stedsnr" v="128429" />
	</node>
	<node id="-309453" lat="60.7096083306" lon="11.5343222296">
		<tag k="name" v="Bjørnstadkoia" />
		<tag k="place" v="isolated_dwelling" />
		<tag k="ssr:stedsnr" v="128277" />
	</node>
	<node id="-309452" lat="60.7147777803" lon="11.5708305551">
		<tag k="name" v="Stegamyrkoia" />
		<tag k="place" v="isolated_dwelling" />
		<tag k="ssr:stedsnr" v="128274" />
	</node>
	<node id="-309450" lat="60.8190722222" lon="11.4703638812">
		<tag k="historic" v="shieling" />
		<tag k="name" v="Små" />
		<tag k="place" v="locality" />
		<tag k="ssr:stedsnr" v="117494" />
	</node>
	<node id="-309448" lat="60.8679527783" lon="11.3659861119">
		<tag k="name" v="Jønsrud" />
		<tag k="place" v="farm" />
		<tag k="ssr:stedsnr" v="110970" />
	</node>
	<node id="-309447" lat="60.8267749964" lon="11.3532833353">
		<tag k="name" v="Myrvoll" />
		<tag k="place" v="farm" />
		<tag k="ssr:stedsnr" v="110900" />
	</node>
	<node id="-309446" lat="60.8181888921" lon="11.3854666589">
		<tag k="name" v="Østerhaug" />
		<tag k="place" v="farm" />
		<tag k="ssr:stedsnr" v="110883" />
	</node>
	<node id="-309444" lat="60.7588555543" lon="11.5535388936">
		<tag k="name" v="Nedre Bakken" />
		<tag k="place" v="farm" />
		<tag k="ssr:stedsnr" v="110793" />
	</node>
	<node id="-309443" lat="60.7276972264" lon="11.5382444374">
		<tag k="name" v="Skjervkoia" />
		<tag k="place" v="isolated_dwelling" />
		<tag k="ssr:stedsnr" v="110785" />
	</node>
	<node id="-309442" lat="60.7232611146" lon="11.5635694485">
		<tag k="name" v="Nykoia" />
		<tag k="place" v="isolated_dwelling" />
		<tag k="ssr:stedsnr" v="110784" />
	</node>
	<node id="-309441" lat="60.7482472217" lon="11.4377138821">
		<tag k="name" v="Svarthattmyrkoia" />
		<tag k="place" v="isolated_dwelling" />
		<tag k="ssr:stedsnr" v="110766" />
	</node>
	<node id="-309437" lat="60.7892444434" lon="11.3038388819">
		<tag k="building" v="industrial" />
		<tag k="name" v="Nyhuset bruk" />
		<tag k="ssr:stedsnr" v="110647" />
	</node>
	<node id="-309430" lat="60.7879333355" lon="11.3293944399">
		<tag k="amenity" v="school" />
		<tag k="name" v="Ådalsbruk skole" />
		<tag k="ssr:stedsnr" v="110498" />
	</node>
	<node id="-309429" lat="60.7988777741" lon="11.3119750045">
		<tag k="name" v="Sørhagen" />
		<tag k="place" v="farm" />
		<tag k="ssr:stedsnr" v="110478" />
	</node>
	<node id="-309426" lat="60.9097444415" lon="11.3761861023">
		<tag k="name" v="Bakketun" />
		<tag k="place" v="isolated_dwelling" />
		<tag k="ssr:stedsnr" v="109775" />
	</node>
	<node id="-309425" lat="60.7979429025" lon="11.4328539753">
		<tag k="fixme" v="consider place=hamlet" />
		<tag k="name" v="Sandbekken" />
		<tag k="place" v="farm" />
		<tag k="ssr:stedsnr" v="109760" />
	</node>
	<node id="-309422" lat="60.8714611093" lon="11.3130416582">
		<tag k="name" v="Østre Alfei" />
		<tag k="place" v="farm" />
		<tag k="ssr:stedsnr" v="107450" />
	</node>
	<node id="-309418" lat="60.8250979595" lon="11.325241714">
		<tag k="fixme" v="consider place=hamlet" />
		<tag k="name" v="Ven" />
		<tag k="place" v="farm" />
		<tag k="ssr:stedsnr" v="70800" />
	</node>
	<node id="-309417" lat="60.8312861146" lon="11.3843250072">
		<tag k="name" v="Liven søndre" />
		<tag k="place" v="farm" />
		<tag k="ssr:stedsnr" v="70794" />
	</node>
	<node id="-309416" lat="60.8300390637" lon="11.3315730245">
		<tag k="fixme" v="consider place=hamlet" />
		<tag k="name" v="Grøholt" />
		<tag k="place" v="farm" />
		<tag k="ssr:stedsnr" v="70787" />
	</node>
	<node id="-309415" lat="60.8422583325" lon="11.3266472201">
		<tag k="alt_name" v="Rømma, østre" />
		<tag k="name" v="Østre Rømma" />
		<tag k="place" v="farm" />
		<tag k="ssr:stedsnr" v="70767" />
	</node>
	<node id="-309414" lat="60.8597083334" lon="11.3038861072">
		<tag k="name" v="Vesterhagen" />
		<tag k="place" v="farm" />
		<tag k="ssr:stedsnr" v="70745" />
	</node>
	<node id="-309413" lat="60.8540055522" lon="11.3709750085">
		<tag k="name" v="Heimstad" />
		<tag k="place" v="farm" />
		<tag k="ssr:stedsnr" v="70741" />
	</node>
	<node id="-309411" lat="60.7960313692" lon="11.3653181529">
		<tag k="fixme" v="consider place=hamlet" />
		<tag k="name" v="Trømnes" />
		<tag k="place" v="farm" />
		<tag k="ssr:stedsnr" v="70854" />
	</node>
	<node id="-309410" lat="60.86865278" lon="11.3597750038">
		<tag k="name" v="Stensrud" />
		<tag k="place" v="farm" />
		<tag k="ssr:stedsnr" v="70699" />
	</node>
	<node id="-309409" lat="60.8672296359" lon="11.3457054592">
		<tag k="alt_name" v="Rogstad, l" />
		<tag k="fixme" v="consider place=hamlet" />
		<tag k="name" v="Lille Rogstad" />
		<tag k="place" v="farm" />
		<tag k="ssr:stedsnr" v="70697" />
	</node>
	<node id="-309408" lat="60.8645027749" lon="11.4185749939">
		<tag k="building" v="industrial" />
		<tag k="industrial" v="factory" />
		<tag k="name" v="Ebru sag" />
		<tag k="ssr:stedsnr" v="70693" />
	</node>
	<node id="-309407" lat="60.8749527798" lon="11.3380555489">
		<tag k="alt_name" v="Langset, s;Vestre Langset" />
		<tag k="name" v="Søndre Langset" />
		<tag k="place" v="farm" />
		<tag k="ssr:stedsnr" v="70670" />
	</node>
	<node id="-309406" lat="60.8709566571" lon="11.4515939663">
		<tag k="alt_name" v="Enerholm" />
		<tag k="fixme" v="consider place=hamlet" />
		<tag k="name" v="Enerholmen" />
		<tag k="place" v="farm" />
		<tag k="ssr:stedsnr" v="70657" />
	</node>
	<node id="-309405" lat="60.871616671" lon="11.2860083407">
		<tag k="name" v="Nordli" />
		<tag k="place" v="farm" />
		<tag k="ssr:stedsnr" v="70709" />
	</node>
	<node id="-309404" lat="60.9282250003" lon="11.2388555617">
		<tag k="name" v="Bårdsætra" />
		<tag k="place" v="hamlet" />
		<tag k="ssr:stedsnr" v="70600" />
	</node>
	<node id="-309400" lat="60.7546194486" lon="11.564180556">
		<tag k="name" v="Bekk" />
		<tag k="place" v="farm" />
		<tag k="ssr:stedsnr" v="70386" />
	</node>
	<node id="-309398" lat="60.7522214914" lon="11.571130226">
		<tag k="fixme" v="consider place=hamlet" />
		<tag k="name" v="Nedre Solberg" />
		<tag k="place" v="farm" />
		<tag k="ssr:stedsnr" v="70384" />
	</node>
	<node id="-309397" lat="60.7729749976" lon="11.5418249919">
		<tag k="name" v="Monsrud" />
		<tag k="place" v="farm" />
		<tag k="ssr:stedsnr" v="70294" />
	</node>
	<node id="-309396" lat="60.7389300091" lon="11.5813664787">
		<tag k="fixme" v="consider place=hamlet" />
		<tag k="name" v="Totberget" />
		<tag k="place" v="farm" />
		<tag k="ssr:stedsnr" v="68484" />
	</node>
	<node id="-309393" lat="60.717558334" lon="11.5557388872">
		<tag k="name" v="Prestgardkoia" />
		<tag k="place" v="isolated_dwelling" />
		<tag k="ssr:stedsnr" v="68315" />
	</node>
	<node id="-309392" lat="60.6986611093" lon="11.6131583365">
		<tag k="alt_name" v="Nordre Bendikkoia" />
		<tag k="name" v="Bendikkoia" />
		<tag k="place" v="isolated_dwelling" />
		<tag k="ssr:stedsnr" v="68263" />
	</node>
	<node id="-309389" lat="60.7448573599" lon="11.5083691752">
		<tag k="fixme" v="consider place=hamlet" />
		<tag k="name" v="Nøkleby" />
		<tag k="place" v="farm" />
		<tag k="ssr:stedsnr" v="67462" />
	</node>
	<node id="-309388" lat="60.7927805543" lon="11.3259055519">
		<tag k="name" v="Bjørnstad" />
		<tag k="place" v="farm" />
		<tag k="ssr:stedsnr" v="49923" />
	</node>
	<node id="-309386" lat="60.823049997" lon="11.4466777831">
		<tag k="name" v="Mosjøberget" />
		<tag k="place" v="locality" />
		<tag k="ssr:stedsnr" v="49863" />
	</node>
	<node id="-309385" lat="60.825491663" lon="11.3553416674">
		<tag k="name" v="Nordre Spånestad" />
		<tag k="place" v="farm" />
		<tag k="ssr:stedsnr" v="49853" />
	</node>
	<node id="-309384" lat="60.8736722258" lon="11.3726750083">
		<tag k="name" v="Nordre Kongstorp" />
		<tag k="place" v="locality" />
		<tag k="ssr:stedsnr" v="49850" />
	</node>
	<node id="-309383" lat="60.8728425705" lon="11.3725535168">
		<tag k="alt_name" v="Søndre Kongstorp;Kongletorp" />
		<tag k="name" v="Kongstorp" />
		<tag k="place" v="hamlet" />
		<tag k="ssr:stedsnr" v="49849" />
	</node>
	<node id="-309382" lat="60.8922194465" lon="11.3727055635">
		<tag k="name" v="Nordre Petersborg" />
		<tag k="place" v="farm" />
		<tag k="ssr:stedsnr" v="49847" />
	</node>
	<node id="-309381" lat="60.8122583311" lon="11.3620750077">
		<tag k="name" v="Østre Enge" />
		<tag k="place" v="farm" />
		<tag k="ssr:stedsnr" v="49845" />
	</node>
	<node id="-309380" lat="60.6991666704" lon="11.5678805633">
		<tag k="name" v="Holmkoia" />
		<tag k="place" v="isolated_dwelling" />
		<tag k="ssr:stedsnr" v="49782" />
	</node>
	<node id="-309379" lat="60.7379999982" lon="11.4879222274">
		<tag k="name" v="Engesveen" />
		<tag k="place" v="farm" />
		<tag k="ssr:stedsnr" v="49779" />
	</node>
	<node id="-309378" lat="60.7963416708" lon="11.314236107">
		<tag k="name" v="Englaugsmoen" />
		<tag k="place" v="farm" />
		<tag k="ssr:stedsnr" v="49629" />
	</node>
	<node id="-309377" lat="60.8500916685" lon="11.2989027688">
		<tag k="name" v="Imsethagen" />
		<tag k="place" v="farm" />
		<tag k="ssr:stedsnr" v="49619" />
	</node>
	<node id="-309365" lat="60.8465108046" lon="11.3937139464">
		<tag k="fixme" v="consider place=hamlet" />
		<tag k="name" v="Brenna" />
		<tag k="place" v="farm" />
		<tag k="ssr:stedsnr" v="49510" />
	</node>
	<node id="-309364" lat="60.8247000402" lon="11.3625475681">
		<tag k="fixme" v="consider place=hamlet" />
		<tag k="name" v="Hovsødegården" />
		<tag k="place" v="farm" />
		<tag k="ssr:stedsnr" v="49488" />
	</node>
	<node id="-309359" lat="60.8428568905" lon="11.3483946513">
		<tag k="name" v="Nedre Kroksti" />
		<tag k="place" v="farm" />
		<tag k="ssr:stedsnr" v="48979" />
	</node>
	<node id="-309358" lat="60.8553111078" lon="11.3895583344">
		<tag k="name" v="Sterud" />
		<tag k="place" v="farm" />
		<tag k="ssr:stedsnr" v="48956" />
	</node>
	<node id="-309357" lat="60.8320555592" lon="11.3656888862">
		<tag k="name" v="Ullermyra" />
		<tag k="place" v="farm" />
		<tag k="ssr:stedsnr" v="48946" />
	</node>
	<node id="-309356" lat="60.9948833297" lon="11.296130551">
		<tag k="name" v="Svarttjernskoia" />
		<tag k="place" v="isolated_dwelling" />
		<tag k="ssr:stedsnr" v="48797" />
	</node>
	<node id="-309355" lat="60.9060166701" lon="11.4035555627">
		<tag k="name" v="Fuglholskoia" />
		<tag k="place" v="locality" />
		<tag k="ssr:stedsnr" v="48786" />
	</node>
	<node id="-309349" lat="60.9836472201" lon="11.2389416606">
		<tag k="fixme" v="consider tourism=alpine_hut or tourism=chalet" />
		<tag k="name" v="Målia" />
		<tag k="ssr:stedsnr" v="25140" />
		<tag k="tourism" v="wilderness_hut" />
	</node>
	<node id="-309348" lat="60.7734249995" lon="11.3428333388">
		<tag k="alt_name" v="Nygård" />
		<tag k="name" v="Nygard" />
		<tag k="place" v="farm" />
		<tag k="ssr:stedsnr" v="9919" />
	</node>
	<node id="-309347" lat="60.778822221" lon="11.3562138854">
		<tag k="name" v="Torelykkja" />
		<tag k="place" v="farm" />
		<tag k="ssr:stedsnr" v="9899" />
	</node>
	<node id="-309346" lat="60.7780722195" lon="11.333400005">
		<tag k="name" v="Ådalssvea" />
		<tag k="place" v="farm" />
		<tag k="ssr:stedsnr" v="9892" />
	</node>
	<node id="-309345" lat="60.7991222239" lon="11.3720249964">
		<tag k="name" v="Østre Holen" />
		<tag k="place" v="farm" />
		<tag k="ssr:stedsnr" v="9869" />
	</node>
	<node id="-309344" lat="60.799844443" lon="11.3835861136">
		<tag k="name" v="Vealund" />
		<tag k="place" v="farm" />
		<tag k="ssr:stedsnr" v="9858" />
	</node>
	<node id="-309343" lat="60.8651122873" lon="11.3481587976">
		<tag k="alt_name" v="Rogstad, store" />
		<tag k="fixme" v="consider place=hamlet" />
		<tag k="name" v="Store Rogstad" />
		<tag k="place" v="farm" />
		<tag k="ssr:stedsnr" v="9697" />
	</node>
	<node id="-309342" lat="60.8769222265" lon="11.3435999998">
		<tag k="alt_name" v="Langset, nordre;Østre Langset" />
		<tag k="name" v="Nordre Langset" />
		<tag k="place" v="farm" />
		<tag k="ssr:stedsnr" v="9669" />
	</node>
	<node id="-309341" lat="60.8746378633" lon="11.4513337533">
		<tag k="fixme" v="consider place=hamlet" />
		<tag k="name" v="Lundgard" />
		<tag k="place" v="farm" />
		<tag k="ssr:stedsnr" v="9663" />
	</node>
	<node id="-309340" lat="60.8946400602" lon="11.3581150216">
		<tag k="fixme" v="consider place=hamlet" />
		<tag k="name" v="Fuglebrenna" />
		<tag k="place" v="farm" />
		<tag k="ssr:stedsnr" v="9649" />
	</node>
	<node id="-309339" lat="60.8920772168" lon="11.3259055365">
		<tag k="alt_name" v="Svartbekken, nordre" />
		<tag k="fixme" v="consider place=hamlet" />
		<tag k="name" v="Nordre Svartbekken" />
		<tag k="place" v="farm" />
		<tag k="ssr:stedsnr" v="9642" />
	</node>
	<node id="-309338" lat="60.9033305576" lon="11.3295861143">
		<tag k="alt_name" v="Foskumslåtten" />
		<tag k="name" v="Foskomslåtten" />
		<tag k="place" v="farm" />
		<tag k="ssr:stedsnr" v="9597" />
	</node>
	<node id="-309334" lat="60.8186555536" lon="11.2745944521">
		<tag k="name" v="Ødegard" />
		<tag k="place" v="farm" />
		<tag k="ssr:stedsnr" v="9829" />
	</node>
	<node id="-309333" lat="60.8331333369" lon="11.3860444467">
		<tag k="alt_name" v="Roset, s" />
		<tag k="name" v="Søndre Roset" />
		<tag k="place" v="farm" />
		<tag k="ssr:stedsnr" v="9795" />
	</node>
	<node id="-309332" lat="60.8367361137" lon="11.3595194501">
		<tag k="alt_name" v="Skramstadødegården" />
		<tag k="name" v="Øgarden" />
		<tag k="place" v="farm" />
		<tag k="ssr:stedsnr" v="9777" />
	</node>
	<node id="-309331" lat="60.7503249998" lon="11.5875333358">
		<tag k="name" v="Øverby" />
		<tag k="place" v="isolated_dwelling" />
		<tag k="ssr:stedsnr" v="9391" />
	</node>
	<node id="-309330" lat="60.7419527816" lon="11.5749694403">
		<tag k="alt_name" v="Totbergsbråten" />
		<tag k="name" v="Bråten" />
		<tag k="place" v="farm" />
		<tag k="ssr:stedsnr" v="7455" />
	</node>
	<node id="-309329" lat="60.7415786303" lon="11.5109590239">
		<tag k="fixme" v="consider place=hamlet" />
		<tag k="name" v="Hagen" />
		<tag k="place" v="farm" />
		<tag k="ssr:stedsnr" v="7453" />
	</node>
	<node id="-309328" lat="60.7165777787" lon="11.5255916673">
		<tag k="name" v="Nysvekoia" />
		<tag k="place" v="isolated_dwelling" />
		<tag k="ssr:stedsnr" v="7304" />
	</node>
	<node id="-309326" lat="60.7355666639" lon="11.4497583306">
		<tag k="name" v="Dammen" />
		<tag k="place" v="farm" />
		<tag k="ssr:stedsnr" v="6750" />
	</node>
	<node id="-309325" lat="60.7048777805" lon="11.598322226">
		<tag k="name" v="Rotveltkoia" />
		<tag k="place" v="locality" />
		<tag k="ssr:stedsnr" v="948625" />
	</node>
	<node id="-309324" lat="60.8774722208" lon="11.3803277853">
		<tag k="name" v="Nordberg" />
		<tag k="place" v="farm" />
		<tag k="ssr:stedsnr" v="920656" />
	</node>
	<node id="-309323" lat="60.7995481121" lon="11.3295623507">
		<tag k="fixme" v="consider place=hamlet" />
		<tag k="name" v="Trosthol" />
		<tag k="place" v="farm" />
		<tag k="ssr:stedsnr" v="919867" />
	</node>
	<node id="-309321" lat="60.8549070644" lon="11.286442318">
		<tag k="fixme" v="consider place=hamlet" />
		<tag k="name" v="Korsbakken" />
		<tag k="place" v="farm" />
		<tag k="ssr:stedsnr" v="919725" />
	</node>
	<node id="-309319" lat="60.8686128432" lon="11.3032271645">
		<tag k="name" v="Søndre Ringnes" />
		<tag k="place" v="farm" />
		<tag k="ssr:stedsnr" v="919676" />
	</node>
	<node id="-309318" lat="60.8717527813" lon="11.3361277706">
		<tag k="name" v="Nordberg" />
		<tag k="place" v="farm" />
		<tag k="ssr:stedsnr" v="919672" />
	</node>
	<node id="-309315" lat="60.8731890605" lon="11.287929996">
		<tag k="fixme" v="consider place=hamlet" />
		<tag k="name" v="Rønningstad" />
		<tag k="place" v="farm" />
		<tag k="ssr:stedsnr" v="919653" />
	</node>
	<node id="-309314" lat="60.9042194424" lon="11.4201638934">
		<tag k="name" v="Grorudkoia" />
		<tag k="place" v="isolated_dwelling" />
		<tag k="ssr:stedsnr" v="919628" />
	</node>
	<node id="-309313" lat="60.8858820663" lon="11.3724757811">
		<tag k="alt_name" v="Rom, nordre" />
		<tag k="fixme" v="consider place=hamlet" />
		<tag k="name" v="Nordre Rom" />
		<tag k="place" v="farm" />
		<tag k="ssr:stedsnr" v="919612" />
	</node>
	<node id="-309312" lat="60.9251333327" lon="11.3037027827">
		<tag k="name" v="Gryllingsætra" />
		<tag k="place" v="hamlet" />
		<tag k="ssr:stedsnr" v="919605" />
	</node>
	<node id="-309311" lat="60.7529833356" lon="11.5310638928">
		<tag k="name" v="Stendammen" />
		<tag k="old_name" v="Steindammen" />
		<tag k="place" v="isolated_dwelling" />
		<tag k="ssr:stedsnr" v="919410" />
	</node>
	<node id="-309310" lat="60.7589999975" lon="11.5601055554">
		<tag k="name" v="Kroken" />
		<tag k="place" v="farm" />
		<tag k="ssr:stedsnr" v="919408" />
	</node>
	<node id="-309309" lat="60.8414249973" lon="11.3395277786">
		<tag k="name" v="Rømmabakken" />
		<tag k="place" v="farm" />
		<tag k="ssr:stedsnr" v="899913" />
	</node>
	<node id="-309308" lat="60.8376333293" lon="11.3333611184">
		<tag k="name" v="Årsrudhagen" />
		<tag k="place" v="farm" />
		<tag k="ssr:stedsnr" v="899912" />
	</node>
	<node id="-309307" lat="60.8287444482" lon="11.3736861131">
		<tag k="name" v="Nordvi" />
		<tag k="place" v="farm" />
		<tag k="ssr:stedsnr" v="899909" />
	</node>
	<node id="-309306" lat="60.7407666627" lon="11.505255551">
		<tag k="name" v="Fjellberg" />
		<tag k="place" v="isolated_dwelling" />
		<tag k="ssr:stedsnr" v="899777" />
	</node>
	<node id="-309304" lat="60.8328777817" lon="11.2897722145">
		<tag k="name" v="Søbakken" />
		<tag k="place" v="farm" />
		<tag k="ssr:stedsnr" v="899618" />
	</node>
	<node id="-309303" lat="60.8717611129" lon="11.4377888854">
		<tag k="name" v="Kjølstad" />
		<tag k="place" v="farm" />
		<tag k="ssr:stedsnr" v="898964" />
	</node>
	<node id="-309301" lat="60.9805083299" lon="11.3191416696">
		<tag k="name" v="Kjørerkoia" />
		<tag k="place" v="isolated_dwelling" />
		<tag k="ssr:stedsnr" v="898804" />
	</node>
	<node id="-309300" lat="60.7241767571" lon="11.4966510995">
		<tag k="fixme" v="consider place=hamlet" />
		<tag k="name" v="Sørsveen" />
		<tag k="place" v="farm" />
		<tag k="ssr:stedsnr" v="888506" />
	</node>
	<node id="-309298" lat="60.8379214483" lon="11.362109682">
		<tag k="alt_name" v="Vollestad" />
		<tag k="fixme" v="consider place=hamlet" />
		<tag k="name" v="Vølestad" />
		<tag k="place" v="farm" />
		<tag k="ssr:stedsnr" v="859760" />
	</node>
	<node id="-309297" lat="60.8517502261" lon="11.3395815429">
		<tag k="fixme" v="consider place=hamlet" />
		<tag k="name" v="Røne" />
		<tag k="place" v="farm" />
		<tag k="ssr:stedsnr" v="859723" />
	</node>
	<node id="-309296" lat="60.8892699941" lon="11.3247491949">
		<tag k="alt_name" v="Svartbekken, s" />
		<tag k="fixme" v="consider place=hamlet" />
		<tag k="name" v="Søndre Svartbekken" />
		<tag k="place" v="farm" />
		<tag k="ssr:stedsnr" v="859620" />
	</node>
	<node id="-309295" lat="60.885902345" lon="11.3985187984">
		<tag k="fixme" v="consider place=hamlet" />
		<tag k="name" v="Lia" />
		<tag k="place" v="farm" />
		<tag k="ssr:stedsnr" v="859607" />
	</node>
	<node id="-309293" lat="60.9731999967" lon="11.2844472244">
		<tag k="alt_name" v="Ruskåsen, s;Ruskåsen" />
		<tag k="name" v="Søndre Ruskåsen" />
		<tag k="place" v="neighbourhood" />
		<tag k="ssr:stedsnr" v="859509" />
	</node>
	<node id="-309292" lat="60.7545250004" lon="11.5937111129">
		<tag k="name" v="Aksvollkoia" />
		<tag k="place" v="isolated_dwelling" />
		<tag k="ssr:stedsnr" v="859372" />
	</node>
	<node id="-309291" lat="60.7429249979" lon="11.4546861108">
		<tag k="name" v="Myrvollkoia" />
		<tag k="place" v="isolated_dwelling" />
		<tag k="ssr:stedsnr" v="857758" />
	</node>
	<node id="-309289" lat="60.7488277735" lon="11.5734638828">
		<tag k="fixme" v="consider place=hamlet" />
		<tag k="name" v="Skogbygda" />
		<tag k="place" v="village" />
		<tag k="ssr:stedsnr" v="856512" />
	</node>
	<node id="-309284" lat="60.8275250005" lon="11.3032972304">
		<tag k="fixme" v="consider place=suburb, village or hamlet" />
		<tag k="name" v="Brenneriroa" />
		<tag k="place" v="quarter" />
		<tag k="ssr:stedsnr" v="932997" />
	</node>
	<node id="-309283" lat="61.0136249993" lon="11.2688444449">
		<tag k="historic" v="shieling" />
		<tag k="name" v="Livasætra" />
		<tag k="place" v="locality" />
		<tag k="ssr:stedsnr" v="931161" />
	</node>
	<node id="-309282" lat="60.8491777797" lon="11.3671388859">
		<tag k="name" v="Myklegard" />
		<tag k="ssr:stedsnr" v="809223" />
		<tag k="tourism" v="hotel" />
	</node>
	<node id="-309281" lat="60.7734722263" lon="11.3657944383">
		<tag k="name" v="Nystua" />
		<tag k="place" v="farm" />
		<tag k="ssr:stedsnr" v="798904" />
	</node>
	<node id="-309280" lat="60.8889611094" lon="11.3154694427">
		<tag k="name" v="Kvernhuslykkja" />
		<tag k="place" v="farm" />
		<tag k="ssr:stedsnr" v="798590" />
	</node>
	<node id="-309277" lat="60.9021767517" lon="11.297329231">
		<tag k="fixme" v="consider place=hamlet" />
		<tag k="name" v="Mattisrud" />
		<tag k="place" v="farm" />
		<tag k="ssr:stedsnr" v="798566" />
	</node>
	<node id="-309276" lat="60.8743277776" lon="11.3305111036">
		<tag k="name" v="Enge" />
		<tag k="place" v="isolated_dwelling" />
		<tag k="ssr:stedsnr" v="798646" />
	</node>
	<node id="-309274" lat="60.8797777747" lon="11.3672666589">
		<tag k="name" v="Rød" />
		<tag k="place" v="farm" />
		<tag k="ssr:stedsnr" v="798632" />
	</node>
	<node id="-309273" lat="60.9037361121" lon="11.3944194412">
		<tag k="name" v="Domkjørkja" />
		<tag k="place" v="isolated_dwelling" />
		<tag k="ssr:stedsnr" v="798620" />
	</node>
	<node id="-309271" lat="60.8965016661" lon="11.3748490886">
		<tag k="alt_name" v="Li" />
		<tag k="fixme" v="consider place=hamlet" />
		<tag k="name" v="Granlia" />
		<tag k="place" v="farm" />
		<tag k="ssr:stedsnr" v="798612" />
	</node>
	<node id="-309270" lat="60.7561138878" lon="11.4510861183">
		<tag k="alt_name" v="Bjørnbekklikoia" />
		<tag k="name" v="Bjørnbekkoia" />
		<tag k="place" v="isolated_dwelling" />
		<tag k="ssr:stedsnr" v="920964" />
	</node>
	<node id="-309269" lat="60.763019446" lon="11.3666222209">
		<tag k="name" v="Hagastua" />
		<tag k="place" v="farm" />
		<tag k="ssr:stedsnr" v="920958" />
	</node>
	<node id="-309268" lat="60.7706916702" lon="11.3661388932">
		<tag k="name" v="Gammelstua" />
		<tag k="place" v="farm" />
		<tag k="ssr:stedsnr" v="920957" />
	</node>
	<node id="-309267" lat="60.771702777" lon="11.3739833279">
		<tag k="name" v="Sambu" />
		<tag k="place" v="farm" />
		<tag k="ssr:stedsnr" v="920954" />
	</node>
	<node id="-309266" lat="60.7665555546" lon="11.4630500017">
		<tag k="name" v="Kvækakoia" />
		<tag k="place" v="isolated_dwelling" />
		<tag k="ssr:stedsnr" v="920951" />
	</node>
	<node id="-309265" lat="60.7727749991" lon="11.3757166707">
		<tag k="name" v="Rønningstad" />
		<tag k="place" v="farm" />
		<tag k="ssr:stedsnr" v="920938" />
	</node>
	<node id="-309264" lat="60.7685284096" lon="11.3574585602">
		<tag k="name" v="Benningstad" />
		<tag k="place" v="hamlet" />
		<tag k="ssr:stedsnr" v="920934" />
	</node>
	<node id="-309261" lat="60.7925666654" lon="11.2895333273">
		<tag k="name" v="Fjælgard" />
		<tag k="place" v="farm" />
		<tag k="ssr:stedsnr" v="919883" />
	</node>
	<node id="-309260" lat="60.7913499984" lon="11.3646138896">
		<tag k="name" v="Nybruket" />
		<tag k="place" v="isolated_dwelling" />
		<tag k="ssr:stedsnr" v="919874" />
	</node>
	<node id="-309258" lat="60.8172499993" lon="11.4558583378">
		<tag k="name" v="Bondeheimen" />
		<tag k="place" v="isolated_dwelling" />
		<tag k="ssr:stedsnr" v="919799" />
	</node>
	<node id="-309257" lat="60.8050972236" lon="11.2535194356">
		<tag k="name" v="Brattli" />
		<tag k="place" v="locality" />
		<tag k="ssr:stedsnr" v="919850" />
	</node>
	<node id="-309256" lat="60.8991576902" lon="11.3261197695">
		<tag k="fixme" v="consider place=hamlet" />
		<tag k="name" v="Svestad" />
		<tag k="place" v="farm" />
		<tag k="ssr:stedsnr" v="919584" />
	</node>
	<node id="-309255" lat="60.8538344746" lon="11.3099957749">
		<tag k="fixme" v="consider place=hamlet" />
		<tag k="name" v="Dotterud" />
		<tag k="place" v="farm" />
		<tag k="ssr:stedsnr" v="919732" />
	</node>
	<node id="-309254" lat="60.8796138858" lon="11.3073277787">
		<tag k="name" v="Rekstad" />
		<tag k="place" v="farm" />
		<tag k="ssr:stedsnr" v="919643" />
	</node>
	<node id="-309250" lat="60.7946888886" lon="11.3524361162">
		<tag k="name" v="Solbakken" />
		<tag k="place" v="isolated_dwelling" />
		<tag k="ssr:stedsnr" v="777909" />
	</node>
	<node id="-309249" lat="60.8359083375" lon="11.35851944">
		<tag k="name" v="Gårder" />
		<tag k="place" v="farm" />
		<tag k="ssr:stedsnr" v="777906" />
	</node>
</osm>
