<?xml version="1.0" encoding="UTF-8"?>
<osm version="0.6" generator="osmapis">
	<node lat="60.87221110897533" lon="11.344705548685406" id="-34947">
		<tag k="name" v="Rogstadbekken" />
		<tag k="ssr:stedsnr" v="231449" />
		<tag k="waterway" v="stream" />
	</node>
	<node lat="60.88098055379234" lon="11.283175003613707" id="-34950">
		<tag k="name" v="Elskovsbekken" />
		<tag k="ssr:stedsnr" v="231413" />
		<tag k="waterway" v="stream" />
	</node>
	<node lat="60.878602777953624" lon="11.300594445081602" id="-34954">
		<tag k="name" v="Lindsvebekken" />
		<tag k="ssr:stedsnr" v="231505" />
		<tag k="waterway" v="stream" />
	</node>
	<node lat="60.856680559113364" lon="11.349099995909055" id="-34962">
		<tag k="name" v="Stafsengbekken" />
		<tag k="ssr:stedsnr" v="9742" />
		<tag k="waterway" v="stream" />
	</node>
	<node lat="60.81613611440214" lon="11.467513885499269" id="-34967">
		<tag k="name" v="Stålsætertjernet" />
		<tag k="natural" v="water" />
		<tag k="ssr:stedsnr" v="231567" />
	</node>
	<node lat="60.79163888468185" lon="11.386247225747924" id="-35002">
		<tag k="name" v="Rokoelva" />
		<tag k="ssr:stedsnr" v="70892" />
		<tag k="waterway" v="river" />
	</node>
	<node lat="61.00764722421223" lon="11.26692221521069" id="-35006">
		<tag k="name" v="Bjørnbekken" />
		<tag k="ssr:stedsnr" v="109569" />
		<tag k="waterway" v="stream" />
	</node>
	<node lat="60.773952775440875" lon="11.517041670872485" id="-35013">
		<tag k="name" v="Syverholmen" />
		<tag k="place" v="islet" />
		<tag k="ssr:stedsnr" v="110590" />
	</node>
	<node lat="60.8517777798561" lon="11.443224991053258" id="-35017">
		<tag k="name" v="Sukkertopptjernet" />
		<tag k="natural" v="water" />
		<tag k="ssr:stedsnr" v="110675" />
	</node>
	<node lat="60.704774999247064" lon="11.605458339033886" id="-35022">
		<tag k="name" v="Bendikbekken" />
		<tag k="ssr:stedsnr" v="250266" />
		<tag k="waterway" v="stream" />
	</node>
	<node lat="60.91240000264125" lon="11.328038890399354" id="-35026">
		<tag k="name" v="Djupdalsbekken" />
		<tag k="ssr:stedsnr" v="251622" />
		<tag k="waterway" v="stream" />
	</node>
	<node lat="60.795694441857684" lon="11.4960916688294" id="-35036">
		<tag k="loc_name" v="Karusstjennet" />
		<tag k="name" v="Karustjennet" />
		<tag k="natural" v="water" />
		<tag k="ssr:stedsnr" v="130322" />
	</node>
	<node lat="60.98909999569044" lon="11.282174997174755" id="-35039">
		<tag k="name" v="Nordbekken" />
		<tag k="ssr:stedsnr" v="130506" />
		<tag k="waterway" v="stream" />
	</node>
	<node lat="60.84535555403568" lon="11.423258326088655" id="-35043">
		<tag k="alt_name" v="Jøsstjernet" />
		<tag k="name" v="Jøstjernet" />
		<tag k="natural" v="water" />
		<tag k="ssr:stedsnr" v="130705" />
	</node>
	<node lat="60.847969441945466" lon="11.434169435185899" id="-35065">
		<tag k="name" v="Svarttjernet" />
		<tag k="natural" v="water" />
		<tag k="ssr:stedsnr" v="252736" />
	</node>
	<node lat="60.76784166379656" lon="11.564575003805338" id="-35080">
		<tag k="name" v="Gråvidavan" />
		<tag k="natural" v="water" />
		<tag k="ssr:stedsnr" v="170558" />
		<tag k="water" v="pond" />
	</node>
	<node lat="60.76384721933147" lon="11.340302772561131" id="-35081">
		<tag k="name" v="Sjurstubekken" />
		<tag k="ssr:stedsnr" v="170713" />
		<tag k="waterway" v="stream" />
	</node>
	<node lat="60.77761740724647" lon="11.537615665653732" id="-35109">
		<tag k="name" v="Svarttjernet" />
		<tag k="natural" v="water" />
		<tag k="ssr:stedsnr" v="231635" />
	</node>
	<node lat="60.76545833575873" lon="11.439227773290346" id="-35121">
		<tag k="name" v="Bjørnbekken" />
		<tag k="ssr:stedsnr" v="252928" />
		<tag k="waterway" v="stream" />
	</node>
	<node lat="60.917772217878465" lon="11.418077778317663" id="-35124">
		<tag k="name" v="Dalbekken" />
		<tag k="ssr:stedsnr" v="291639" />
		<tag k="waterway" v="stream" />
	</node>
	<node lat="60.7828626858697" lon="11.520217490336181" id="-35129">
		<tag k="alt_name" v="Gåstjennet" />
		<tag k="name" v="Gåstjernet" />
		<tag k="natural" v="water" />
		<tag k="ssr:stedsnr" v="292525" />
	</node>
	<node lat="60.77241388461899" lon="11.564647223115154" id="-35144">
		<tag k="name" v="Haratjennet" />
		<tag k="natural" v="water" />
		<tag k="ssr:stedsnr" v="312320" />
	</node>
	<node lat="60.7289777820646" lon="11.62883055233968" id="-35163">
		<tag k="name" v="Karisholmen" />
		<tag k="place" v="islet" />
		<tag k="ssr:stedsnr" v="473497" />
	</node>
	<node lat="60.790780555421854" lon="11.467041665848782" id="-35166">
		<tag k="name" v="Haverbekkvika" />
		<tag k="natural" v="bay" />
		<tag k="ssr:stedsnr" v="473742" />
	</node>
	<node lat="60.794091668533575" lon="11.437402770306141" id="-35167">
		<tag k="name" v="Veensholmen" />
		<tag k="place" v="islet" />
		<tag k="ssr:stedsnr" v="473744" />
	</node>
	<node lat="60.7968861105045" lon="11.502544446581604" id="-35195">
		<tag k="name" v="Ørfalltjennet" />
		<tag k="natural" v="water" />
		<tag k="ssr:stedsnr" v="373346" />
	</node>
	<node lat="60.818600001833644" lon="11.372405555853998" id="-35202">
		<tag k="name" v="Rothagabekken" />
		<tag k="ssr:stedsnr" v="373819" />
		<tag k="waterway" v="stream" />
	</node>
	<node lat="60.911477776196854" lon="11.41510832483108" id="-35214">
		<tag k="name" v="Sagfallet" />
		<tag k="natural" v="waterfall" />
		<tag k="ssr:stedsnr" v="412594" />
	</node>
	<node lat="60.842158333704425" lon="11.302849995554139" id="-35229">
		<tag k="name" v="Bergsengbekken" />
		<tag k="ssr:stedsnr" v="434727" />
		<tag k="waterway" v="stream" />
	</node>
	<node lat="60.78391111486852" lon="11.330755548742282" id="-35237">
		<tag k="name" v="Fløta" />
		<tag k="natural" v="water" />
		<tag k="ssr:stedsnr" v="494886" />
		<tag k="water" v="lake" />
	</node>
	<node lat="60.78754448468607" lon="11.439695917432417" id="-35239">
		<tag k="name" v="Rokosjøen" />
		<tag k="natural" v="water" />
		<tag k="ssr:stedsnr" v="494892" />
		<tag k="water" v="lake" />
	</node>
	<node lat="60.9866249990874" lon="11.305677776576585" id="-35241">
		<tag k="name" v="Bubekken" />
		<tag k="ssr:stedsnr" v="494509" />
		<tag k="waterway" v="stream" />
	</node>
	<node lat="60.92092777639011" lon="11.293322224108218" id="-35242">
		<tag k="alt_name" v="Vekterbekken" />
		<tag k="name" v="Vektarbekken" />
		<tag k="ssr:stedsnr" v="494586" />
		<tag k="waterway" v="stream" />
	</node>
	<node lat="60.72875426686187" lon="11.475740604202144" id="-35251">
		<tag k="name" v="Lomtjernet" />
		<tag k="natural" v="water" />
		<tag k="ssr:stedsnr" v="674285" />
	</node>
	<node lat="60.723738889263124" lon="11.538463881901025" id="-35252">
		<tag k="name" v="Kjølbekken" />
		<tag k="ssr:stedsnr" v="674292" />
		<tag k="waterway" v="stream" />
	</node>
	<node lat="60.70273333093829" lon="11.571133341029363" id="-35257">
		<tag k="name" v="Kroktjernet" />
		<tag k="natural" v="water" />
		<tag k="ssr:stedsnr" v="675294" />
	</node>
	<node lat="60.798005552469924" lon="11.481158336113502" id="-35258">
		<tag k="fixme" v="multiple name tags, choose one and add the other to alt_name" />
		<tag k="name" v="Gardsmyrbekken;Haverbekkbekken" />
		<tag k="ssr:stedsnr" v="676267" />
		<tag k="waterway" v="stream" />
	</node>
	<node lat="60.77473332931294" lon="11.43551110506503" id="-35263">
		<tag k="name" v="Velttjernet" />
		<tag k="natural" v="water" />
		<tag k="ssr:stedsnr" v="473469" />
	</node>
	<node lat="60.97640000342485" lon="11.201199992056091" id="-35279">
		<tag k="name" v="Grønbekken" />
		<tag k="ssr:stedsnr" v="677522" />
		<tag k="waterway" v="stream" />
	</node>
	<node lat="60.87423333273117" lon="11.419808330731579" id="-35282">
		<tag k="name" v="Terninga" />
		<tag k="ssr:stedsnr" v="677655" />
		<tag k="waterway" v="stream" />
	</node>
	<node lat="60.778486114240486" lon="11.442802779771734" id="-35304">
		<tag k="name" v="Svarttjernet" />
		<tag k="natural" v="water" />
		<tag k="ssr:stedsnr" v="494936" />
	</node>
	<node lat="60.71840832890792" lon="11.618913890535882" id="-35311">
		<tag k="name" v="Torpåa" />
		<tag k="ssr:stedsnr" v="534423" />
		<tag k="waterway" v="river" />
	</node>
	<node lat="60.91270000430739" lon="11.25737499408128" id="-35329">
		<tag k="name" v="Åkvisla" />
		<tag k="ssr:stedsnr" v="555563" />
		<tag k="waterway" v="stream" />
	</node>
	<node lat="60.77595378540682" lon="11.541702247465809" id="-35331">
		<tag k="name" v="Presttjennet" />
		<tag k="natural" v="water" />
		<tag k="ssr:stedsnr" v="555269" />
	</node>
	<node lat="60.90438611145696" lon="11.370769449187456" id="-35334">
		<tag k="name" v="Vingerjessa" />
		<tag k="ssr:stedsnr" v="555617" />
		<tag k="waterway" v="stream" />
	</node>
	<node lat="60.85433332950253" lon="11.423513896890528" id="-35335">
		<tag k="name" v="Vintertjernet" />
		<tag k="natural" v="water" />
		<tag k="ssr:stedsnr" v="555704" />
	</node>
	<node lat="60.85895000409604" lon="11.275750008019472" id="-35337">
		<tag k="name" v="Stabekken" />
		<tag k="ssr:stedsnr" v="555711" />
		<tag k="waterway" v="stream" />
	</node>
	<node lat="60.821311107472646" lon="11.441524996886887" id="-35343">
		<tag k="name" v="Mosjøen" />
		<tag k="natural" v="water" />
		<tag k="ssr:stedsnr" v="555804" />
	</node>
	<node lat="60.68220555544045" lon="11.627597219879718" id="-35358">
		<tag k="name" v="Sortåa" />
		<tag k="ssr:stedsnr" v="613367" />
		<tag k="waterway" v="stream" />
	</node>
	<node lat="60.88535000197151" lon="11.385075004438217" id="-35373">
		<tag k="name" v="Granlibekken" />
		<tag k="ssr:stedsnr" v="616639" />
		<tag k="waterway" v="stream" />
	</node>
	<node lat="61.01631388550063" lon="11.291255561198582" id="-35386">
		<tag k="name" v="Yksnsjøen" />
		<tag k="natural" v="water" />
		<tag k="ssr:stedsnr" v="655631" />
	</node>
	<node lat="60.78626667117677" lon="11.315124993704329" id="-35387">
		<tag k="loc_name" v="Klevfossdammen" />
		<tag k="name" v="Klevfosdammen" />
		<tag k="ssr:stedsnr" v="655685" />
		<tag k="waterway" v="dam" />
	</node>
	<node lat="60.751947219090894" lon="11.544491661643603" id="-35389">
		<tag k="name" v="Svartorbekken" />
		<tag k="ssr:stedsnr" v="655697" />
		<tag k="waterway" v="stream" />
	</node>
	<node lat="60.888788890603905" lon="11.334586105644545" id="-35391">
		<tag k="name" v="Trettbekken" />
		<tag k="ssr:stedsnr" v="655731" />
		<tag k="waterway" v="stream" />
	</node>
	<node lat="60.729588888344125" lon="11.616350002224914" id="-35412">
		<tag k="name" v="Solbergvika" />
		<tag k="natural" v="bay" />
		<tag k="ssr:stedsnr" v="716441" />
	</node>
	<node lat="60.79699166390889" lon="11.502719440899428" id="-35417">
		<tag k="name" v="Ørfjellstjernet" />
		<tag k="natural" v="water" />
		<tag k="ssr:stedsnr" v="716527" />
	</node>
	<node lat="60.7511222185891" lon="11.53026388623632" id="-35419">
		<tag k="name" v="Stendammen" />
		<tag k="natural" v="water" />
		<tag k="ssr:stedsnr" v="716725" />
	</node>
	<node lat="60.78013333134994" lon="11.430877779721513" id="-35422">
		<tag k="name" v="Bekkevika" />
		<tag k="natural" v="bay" />
		<tag k="ssr:stedsnr" v="899278" />
	</node>
	<node lat="60.775855558139085" lon="11.526816670538432" id="-35442">
		<tag k="name" v="Kvernbekken" />
		<tag k="ssr:stedsnr" v="737310" />
		<tag k="waterway" v="stream" />
	</node>
	<node lat="60.950450003290435" lon="11.365224999982841" id="-35446">
		<tag k="name" v="Slokbekken" />
		<tag k="ssr:stedsnr" v="737559" />
		<tag k="waterway" v="stream" />
	</node>
	<node lat="60.82947499906345" lon="11.435449998652723" id="-35447">
		<tag k="name" v="Mosjøbekken" />
		<tag k="ssr:stedsnr" v="737804" />
		<tag k="waterway" v="stream" />
	</node>
	<node lat="60.815247218214424" lon="11.40027500164607" id="-35448">
		<tag k="fixme" v="multiple name tags, choose one and add the other to alt_name" />
		<tag k="loc_name" v="Gaukslettbekken" />
		<tag k="name" v="Veabekken;Gauksletbekken" />
		<tag k="ssr:stedsnr" v="737826" />
		<tag k="waterway" v="stream" />
	</node>
	<node lat="60.81270277544013" lon="11.412552782358926" id="-35452">
		<tag k="alt_name" v="Sandbekken, vestre" />
		<tag k="name" v="Vestre Sandbekken" />
		<tag k="ssr:stedsnr" v="737853" />
		<tag k="waterway" v="stream" />
	</node>
	<node lat="60.772305553904175" lon="11.514880560540211" id="-35474">
		<tag k="name" v="Nikolaibekken" />
		<tag k="ssr:stedsnr" v="777565" />
		<tag k="waterway" v="stream" />
	</node>
	<node lat="60.76767777790393" lon="11.495358327423599" id="-35486">
		<tag k="name" v="Kolbekken" />
		<tag k="ssr:stedsnr" v="798297" />
		<tag k="waterway" v="stream" />
	</node>
	<node lat="60.90404999823836" lon="11.33872499309686" id="-35488">
		<tag k="name" v="Nordholsbekken" />
		<tag k="ssr:stedsnr" v="798618" />
		<tag k="waterway" v="stream" />
	</node>
	<node lat="60.865324996361856" lon="11.461449998784873" id="-35491">
		<tag k="name" v="Bjørnbekken" />
		<tag k="ssr:stedsnr" v="798655" />
		<tag k="waterway" v="stream" />
	</node>
	<node lat="60.726319442722" lon="11.459083340227624" id="-35503">
		<tag k="name" v="Killingholmen" />
		<tag k="natural" v="cape" />
		<tag k="ssr:stedsnr" v="917702" />
	</node>
	<node lat="60.73218889147263" lon="11.570699995986223" id="-35549">
		<tag k="name" v="Totbergstjernet" />
		<tag k="natural" v="water" />
		<tag k="ssr:stedsnr" v="857304" />
	</node>
	<node lat="60.85959721776677" lon="11.463072224197504" id="-35565">
		<tag k="name" v="Bjørnbekken" />
		<tag k="ssr:stedsnr" v="899495" />
		<tag k="waterway" v="stream" />
	</node>
	<node lat="60.99587500366948" lon="11.299200005689697" id="-35574">
		<tag k="name" v="Svarttjernet" />
		<tag k="natural" v="water" />
		<tag k="ssr:stedsnr" v="919546" />
	</node>
	<node lat="60.930786111029924" lon="11.347455557952628" id="-35586">
		<tag k="name" v="Fjellbekken" />
		<tag k="ssr:stedsnr" v="959622" />
		<tag k="waterway" v="stream" />
	</node>
	<node lat="60.95819999750832" lon="11.371747221833475" id="-35601">
		<tag k="name" v="Korpreiret" />
		<tag k="ssr:stedsnr" v="9584" />
		<tag k="waterway" v="rapids" />
	</node>
	<node lat="60.739125004161934" lon="11.519847219626294" id="-35619">
		<tag k="name" v="Hagatjernet" />
		<tag k="natural" v="water" />
		<tag k="ssr:stedsnr" v="49339" />
	</node>
	<node lat="60.79843611562841" lon="11.48213055333008" id="-35627">
		<tag k="name" v="Haverbekkbekken" />
		<tag k="ssr:stedsnr" v="49541" />
		<tag k="waterway" v="stream" />
	</node>
	<node lat="60.724999998082524" lon="11.607558331674703" id="-35648">
		<tag k="name" v="Tjernlitjernet" />
		<tag k="natural" v="water" />
		<tag k="ssr:stedsnr" v="68281" />
	</node>
	<node lat="60.75671352204962" lon="11.518534448672957" id="-35650">
		<tag k="fixme" v="multiple name tags, choose one and add the other to alt_name" />
		<tag k="name" v="Sagelva;Dalselva" />
		<tag k="ssr:stedsnr" v="70385" />
		<tag k="waterway" v="stream" />
	</node>
	<node lat="60.90130000446396" lon="11.333249994264442" id="-35655">
		<tag k="name" v="Fjellbekken" />
		<tag k="ssr:stedsnr" v="70587" />
		<tag k="waterway" v="stream" />
	</node>
	<node lat="60.78371111252547" lon="11.48935277411871" id="-35686">
		<tag k="name" v="Vesle Rokosjøen" />
		<tag k="natural" v="water" />
		<tag k="ssr:stedsnr" v="110567" />
		<tag k="water" v="lake" />
	</node>
	<node lat="60.94763333641865" lon="11.405075009167323" id="-35720">
		<tag k="name" v="Storbekken" />
		<tag k="ssr:stedsnr" v="131548" />
		<tag k="waterway" v="stream" />
	</node>
	<node lat="60.940505559888756" lon="11.295274999557058" id="-35725">
		<tag k="name" v="Bjørnbekken" />
		<tag k="ssr:stedsnr" v="131559" />
		<tag k="waterway" v="stream" />
	</node>
	<node lat="60.78491110863741" lon="11.44586667220608" id="-35749">
		<tag k="name" v="Bekkeholmen" />
		<tag k="place" v="islet" />
		<tag k="ssr:stedsnr" v="170753" />
	</node>
	<node lat="60.74106388483565" lon="11.624111109043072" id="-35763">
		<tag k="name" v="Bottolfsholmen" />
		<tag k="place" v="islet" />
		<tag k="ssr:stedsnr" v="189437" />
	</node>
	<node lat="60.89960000201341" lon="11.267727780584964" id="-35766">
		<tag k="name" v="Midtlinbekken" />
		<tag k="ssr:stedsnr" v="191596" />
		<tag k="waterway" v="stream" />
	</node>
	<node lat="60.779761245364405" lon="11.529944209010958" id="-35769">
		<tag k="name" v="Olsengtjennet" />
		<tag k="natural" v="water" />
		<tag k="ssr:stedsnr" v="191292" />
	</node>
	<node lat="60.94489722068582" lon="11.25361388790702" id="-35773">
		<tag k="name" v="Furafalla" />
		<tag k="natural" v="waterfall" />
		<tag k="ssr:stedsnr" v="191536" />
	</node>
	<node lat="60.918791669158914" lon="11.312652773018115" id="-35788">
		<tag k="name" v="Grønbekken" />
		<tag k="ssr:stedsnr" v="291652" />
		<tag k="waterway" v="stream" />
	</node>
	<node lat="60.79166666293234" lon="11.444497223217509" id="-35790">
		<tag k="name" v="Langneset" />
		<tag k="natural" v="cape" />
		<tag k="ssr:stedsnr" v="291745" />
	</node>
	<node lat="60.69346111413438" lon="11.592711108151672" id="-35804">
		<tag k="name" v="Husketjernet" />
		<tag k="natural" v="water" />
		<tag k="ssr:stedsnr" v="310251" />
	</node>
	<node lat="60.80200832961944" lon="11.289800000146409" id="-35809">
		<tag k="name" v="Fura" />
		<tag k="ssr:stedsnr" v="312850" />
		<tag k="waterway" v="river" />
	</node>
	<node lat="60.905025002199224" lon="11.291950007519434" id="-35815">
		<tag k="name" v="Mattisrudbekken" />
		<tag k="ssr:stedsnr" v="312597" />
		<tag k="waterway" v="stream" />
	</node>
	<node lat="60.9486777775931" lon="11.244188882366734" id="-35819">
		<tag k="alt_name" v="Gråbergsbekken" />
		<tag k="name" v="Gråbergbekken" />
		<tag k="ssr:stedsnr" v="313566" />
		<tag k="waterway" v="stream" />
	</node>
	<node lat="60.695413885361894" lon="11.565894438088216" id="-35833">
		<tag k="name" v="Holmtjernet" />
		<tag k="natural" v="water" />
		<tag k="ssr:stedsnr" v="352287" />
	</node>
	<node lat="60.727280551592905" lon="11.464752769667008" id="-35839">
		<tag k="name" v="Gjetholmen" />
		<tag k="place" v="islet" />
		<tag k="ssr:stedsnr" v="352538" />
	</node>
	<node lat="60.77621944200902" lon="11.436549993935538" id="-35840">
		<tag k="name" v="Svarttjernsmyra" />
		<tag k="natural" v="water" />
		<tag k="ssr:stedsnr" v="352542" />
	</node>
	<node lat="60.93138888973424" lon="11.297108341809109" id="-35844">
		<tag k="name" v="Kvitstenbekken" />
		<tag k="ssr:stedsnr" v="352498" />
		<tag k="waterway" v="stream" />
	</node>
	<node lat="60.901977777796105" lon="11.35691388305311" id="-35880">
		<tag k="name" v="Brennbekken" />
		<tag k="ssr:stedsnr" v="412683" />
		<tag k="waterway" v="stream" />
	</node>
	<node lat="60.8772916680809" lon="11.40752500571746" id="-35883">
		<tag k="name" v="Kanalen" />
		<tag k="ssr:stedsnr" v="413432" />
		<tag k="waterway" v="drain" />
	</node>
	<node lat="60.720386114860986" lon="11.62731666550879" id="-35885">
		<tag k="name" v="Torposet" />
		<tag k="natural" v="bay" />
		<tag k="ssr:stedsnr" v="413450" />
	</node>
	<node lat="60.70886944474605" lon="11.59490555254898" id="-35905">
		<tag k="name" v="Rotvelttjernet" />
		<tag k="natural" v="water" />
		<tag k="ssr:stedsnr" v="432281" />
	</node>
	<node lat="60.737419446122196" lon="11.533266674387665" id="-35949">
		<tag k="name" v="Vesleåa" />
		<tag k="ssr:stedsnr" v="553453" />
		<tag k="waterway" v="stream" />
	</node>
	<node lat="60.782727778292625" lon="11.167586106479662" id="-35959">
		<tag k="name" v="Svartelva" />
		<tag k="ssr:stedsnr" v="555895" />
		<tag k="waterway" v="river" />
	</node>
	<node lat="60.752355557952036" lon="11.565541666547864" id="-35966">
		<tag k="name" v="Kvernbekken" />
		<tag k="ssr:stedsnr" v="594683" />
		<tag k="waterway" v="stream" />
	</node>
	<node lat="60.779963891376156" lon="11.334247215007792" id="-35971">
		<tag k="name" v="Sjurstubekken" />
		<tag k="ssr:stedsnr" v="595369" />
		<tag k="waterway" v="stream" />
	</node>
	<node lat="60.85639722480974" lon="11.447813893288368" id="-35973">
		<tag k="name" v="Skinnbuvangstjernet" />
		<tag k="natural" v="water" />
		<tag k="ssr:stedsnr" v="595636" />
	</node>
	<node lat="60.72450555477" lon="11.45535278590815" id="-35979">
		<tag k="name" v="Skåltjennet" />
		<tag k="natural" v="water" />
		<tag k="ssr:stedsnr" v="613719" />
	</node>
	<node lat="60.86623332891058" lon="11.418650000970853" id="-35983">
		<tag k="name" v="Ebrutjernet" />
		<tag k="natural" v="water" />
		<tag k="ssr:stedsnr" v="615665" />
	</node>
	<node lat="60.81357499662287" lon="11.42698054770671" id="-35988">
		<tag k="alt_name" v="Sandbekken, østre;Sandbekken" />
		<tag k="name" v="Østre Sandbekken" />
		<tag k="ssr:stedsnr" v="615830" />
		<tag k="waterway" v="stream" />
	</node>
	<node lat="60.8246027776601" lon="11.471799998727581" id="-36001">
		<tag k="name" v="Svarttjernet" />
		<tag k="natural" v="water" />
		<tag k="ssr:stedsnr" v="655419" />
	</node>
	<node lat="60.921144447850274" lon="11.338127781986124" id="-36008">
		<tag k="name" v="Fjellbekken" />
		<tag k="ssr:stedsnr" v="655635" />
		<tag k="waterway" v="stream" />
	</node>
	<node lat="60.91439722586682" lon="11.255202785291049" id="-36009">
		<tag k="name" v="Falla" />
		<tag k="natural" v="waterfall" />
		<tag k="ssr:stedsnr" v="655647" />
	</node>
	<node lat="60.69802777910036" lon="11.547155551360138" id="-36041">
		<tag k="name" v="Rådelstjernet" />
		<tag k="natural" v="water" />
		<tag k="ssr:stedsnr" v="735242" />
	</node>
	<node lat="60.95305000231108" lon="11.36132500671662" id="-36043">
		<tag k="name" v="Storholtbekken" />
		<tag k="ssr:stedsnr" v="737584" />
		<tag k="waterway" v="stream" />
	</node>
	<node lat="60.77735000100974" lon="11.397363886900472" id="-36046">
		<tag k="name" v="Baståstjernet" />
		<tag k="natural" v="water" />
		<tag k="ssr:stedsnr" v="737932" />
	</node>
	<node lat="60.76616944526022" lon="11.545269444339906" id="-36047">
		<tag k="name" v="Kirketjennet" />
		<tag k="natural" v="water" />
		<tag k="ssr:stedsnr" v="737328" />
	</node>
	<node lat="60.79648611248438" lon="11.437608327917962" id="-36069">
		<tag k="name" v="Sjøvika" />
		<tag k="natural" v="bay" />
		<tag k="ssr:stedsnr" v="776721" />
	</node>
	<node lat="60.77089550779469" lon="11.513850510748028" id="-36096">
		<tag k="name" v="Bergstjennet" />
		<tag k="natural" v="water" />
		<tag k="ssr:stedsnr" v="798285" />
	</node>
	<node lat="60.875952778711614" lon="11.403783337016907" id="-36099">
		<tag k="name" v="Sjølisjøen" />
		<tag k="natural" v="water" />
		<tag k="ssr:stedsnr" v="798638" />
	</node>
	<node lat="60.90472500239235" lon="11.30902500723035" id="-36104">
		<tag k="name" v="Holbekken" />
		<tag k="ssr:stedsnr" v="798569" />
		<tag k="waterway" v="stream" />
	</node>
	<node lat="60.788066669213016" lon="11.432194450549014" id="-36119">
		<tag k="name" v="Storholmen" />
		<tag k="place" v="islet" />
		<tag k="ssr:stedsnr" v="837743" />
	</node>
	<node lat="60.95838333359457" lon="11.3271944402455" id="-36122">
		<tag k="name" v="Smørhølbekken" />
		<tag k="ssr:stedsnr" v="838321" />
		<tag k="waterway" v="stream" />
	</node>
	<node lat="60.8469666709772" lon="11.461883326839365" id="-36126">
		<tag k="name" v="Killingbekken" />
		<tag k="ssr:stedsnr" v="838691" />
		<tag k="waterway" v="stream" />
	</node>
	<node lat="60.68434166852927" lon="11.603405562683724" id="-36127">
		<tag k="name" v="Nordtjernet" />
		<tag k="natural" v="water" />
		<tag k="ssr:stedsnr" v="838462" />
	</node>
	<node lat="60.79590555754586" lon="11.496444451696402" id="-36130">
		<tag k="loc_name" v="Karusstjernet" />
		<tag k="name" v="Karustjernet" />
		<tag k="natural" v="water" />
		<tag k="ssr:stedsnr" v="838552" />
	</node>
	<node lat="60.77820769370199" lon="11.548000790074116" id="-36137">
		<tag k="name" v="Koietjennet" />
		<tag k="natural" v="water" />
		<tag k="ssr:stedsnr" v="859276" />
	</node>
	<node lat="60.94465000397967" lon="11.371513879979705" id="-36141">
		<tag k="name" v="Storsloken" />
		<tag k="natural" v="water" />
		<tag k="ssr:stedsnr" v="859529" />
	</node>
	<node lat="60.91268055464486" lon="11.354949995839423" id="-36145">
		<tag k="name" v="Brennbekken" />
		<tag k="ssr:stedsnr" v="859570" />
		<tag k="waterway" v="stream" />
	</node>
	<node lat="60.84767777946883" lon="11.419972225124836" id="-36151">
		<tag k="name" v="Rosettjernet" />
		<tag k="natural" v="water" />
		<tag k="ssr:stedsnr" v="859740" />
	</node>
	<node lat="60.79534166251737" lon="11.306730550371555" id="-36165">
		<tag k="name" v="Englaugsbekken" />
		<tag k="ssr:stedsnr" v="959335" />
		<tag k="waterway" v="stream" />
	</node>
	<node lat="60.873924998865846" lon="11.396252768740812" id="-36169">
		<tag k="name" v="Glavælsbekken" />
		<tag k="ssr:stedsnr" v="959363" />
		<tag k="waterway" v="stream" />
	</node>
	<node lat="60.80722222164429" lon="11.485941668336126" id="-36180">
		<tag k="name" v="Gardsmyrbekken" />
		<tag k="ssr:stedsnr" v="959484" />
		<tag k="waterway" v="stream" />
	</node>
	<node lat="60.79204722198539" lon="11.449350005569967" id="-36183">
		<tag k="name" v="Merravika" />
		<tag k="natural" v="bay" />
		<tag k="ssr:stedsnr" v="959720" />
	</node>
</osm>
