<?xml version="1.0" encoding="UTF-8"?>
<<<<<<< HEAD
<osm version="0.6" generator="osmapis">
	<node lat="60.91688611000819" lon="11.327088889450705" id="-23112">
		<tag k="name" v="Djupdalen" />
		<tag k="natural" v="valley" />
		<tag k="place" v="locality" />
		<tag k="ssr:stedsnr" v="230626" />
	</node>
	<node lat="60.701850001127205" lon="11.591441661689016" id="-23113">
		<tag k="name" v="Søndre Rotveltberget" />
		<tag k="natural" v="hill" />
		<tag k="place" v="locality" />
		<tag k="ssr:stedsnr" v="230662" />
	</node>
	<node lat="60.78427221896585" lon="11.506561108398026" id="-23144">
		<tag k="name" v="Lenseholen" />
		<tag k="place" v="locality" />
		<tag k="ssr:stedsnr" v="231606" />
	</node>
	<node lat="60.902980554370416" lon="11.448469448662781" id="-23146">
		<tag k="name" v="Eldåholen" />
		<tag k="natural" v="hill" />
		<tag k="place" v="locality" />
		<tag k="ssr:stedsnr" v="231715" />
	</node>
	<node lat="60.911000000165785" lon="11.25567221603046" id="-23151">
		<tag k="name" v="Revhibakkene" />
		<tag k="natural" v="hill" />
		<tag k="place" v="locality" />
		<tag k="ssr:stedsnr" v="48603" />
	</node>
	<node lat="60.92109722300458" lon="11.255141658157598" id="-23152">
		<tag k="name" v="Ålsæterhøgda" />
		<tag k="natural" v="hill" />
		<tag k="place" v="locality" />
		<tag k="ssr:stedsnr" v="48607" />
	</node>
	<node lat="60.77587499821738" lon="11.445652773303681" id="-23179">
		<tag k="name" v="Svarttjernberget" />
		<tag k="natural" v="hill" />
		<tag k="place" v="locality" />
		<tag k="ssr:stedsnr" v="110581" />
	</node>
	<node lat="60.99143610878459" lon="11.33505832796305" id="-23186">
		<tag k="name" v="Nordhuelia" />
		<tag k="natural" v="slope" />
		<tag k="place" v="locality" />
		<tag k="ssr:stedsnr" v="110679" />
	</node>
	<node lat="60.92029166476038" lon="11.423986108923577" id="-23195">
		<tag k="alt_name" v="Svartbråtåberget" />
		<tag k="name" v="Svartbråtaberget" />
		<tag k="natural" v="hill" />
		<tag k="place" v="locality" />
		<tag k="ssr:stedsnr" v="251645" />
	</node>
	<node lat="60.954422226770866" lon="11.265111107755299" id="-23202">
		<tag k="name" v="Svaen" />
		<tag k="natural" v="hill" />
		<tag k="place" v="locality" />
		<tag k="ssr:stedsnr" v="252549" />
	</node>
	<node lat="60.80339999554018" lon="11.436583337653067" id="-23275">
		<tag k="name" v="Olavsbrenna" />
		<tag k="place" v="locality" />
		<tag k="ssr:stedsnr" v="231586" />
	</node>
	<node lat="61.007669445605686" lon="11.2421277776203" id="-23283">
		<tag k="name" v="Ulvhaugene" />
		<tag k="natural" v="hill" />
		<tag k="place" v="locality" />
		<tag k="ssr:stedsnr" v="291626" />
	</node>
	<node lat="61.04969722583413" lon="11.236875005302478" id="-23319">
		<tag k="name" v="Brennsætersnippen" />
		<tag k="natural" v="slope" />
		<tag k="place" v="locality" />
		<tag k="ssr:stedsnr" v="473679" />
	</node>
	<node lat="60.983869444979234" lon="11.275613896460113" id="-23362">
		<tag k="name" v="Vegenden" />
=======
<osm generator="osmapis" version="0.6">
	<node id="-311488" lat="60.9765138864" lon="11.2891944531">
		<tag k="name" v="Storødegårdshøgda" />
		<tag k="natural" v="slope" />
		<tag k="place" v="locality" />
		<tag k="ssr:stedsnr" v="959461" />
	</node>
	<node id="-311165" lat="60.9355805546" lon="11.3616805585">
		<tag k="fixme" v="consider natural=peak for the most distinct mountains in the district" />
		<tag k="name" v="Savalsæterhøgda" />
		<tag k="natural" v="hill" />
		<tag k="place" v="locality" />
		<tag k="ssr:stedsnr" v="373634" />
	</node>
	<node id="-310396" lat="60.8033999955" lon="11.4365833377">
		<tag k="name" v="Olavsbrenna" />
		<tag k="place" v="locality" />
		<tag k="ssr:stedsnr" v="231586" />
	</node>
	<node id="-310523" lat="60.784272219" lon="11.5065611084">
		<tag k="name" v="Lenseholen" />
		<tag k="place" v="locality" />
		<tag k="ssr:stedsnr" v="231606" />
	</node>
	<node id="-311162" lat="60.7152833288" lon="11.5533444531">
		<tag k="name" v="Mikkelslykkjeberget" />
		<tag k="natural" v="slope" />
		<tag k="place" v="locality" />
		<tag k="ssr:stedsnr" v="371291" />
	</node>
	<node id="-311161" lat="60.7144499965" lon="11.605997217">
		<tag k="fixme" v="consider natural=peak for the most distinct mountains in the district" />
		<tag k="name" v="Sagberget" />
		<tag k="natural" v="hill" />
		<tag k="place" v="locality" />
		<tag k="ssr:stedsnr" v="371287" />
	</node>
	<node id="-311287" lat="60.8365638852" lon="11.4641666664">
		<tag k="name" v="Styggdikedalen" />
		<tag k="natural" v="valley" />
		<tag k="place" v="locality" />
		<tag k="ssr:stedsnr" v="595443" />
	</node>
	<node id="-310646" lat="60.9332166637" lon="11.3740777858">
		<tag k="name" v="Valberget" />
		<tag k="natural" v="hill" />
		<tag k="place" v="locality" />
		<tag k="ssr:stedsnr" v="434608" />
	</node>
	<node id="-311027" lat="60.9552750019" lon="11.2301694477">
		<tag k="name" v="Gråberget" />
		<tag k="natural" v="hill" />
		<tag k="place" v="locality" />
		<tag k="ssr:stedsnr" v="130570" />
	</node>
	<node id="-310770" lat="60.9961305526" lon="11.3286416591">
		<tag k="name" v="Nordhuelia" />
		<tag k="natural" v="slope" />
		<tag k="place" v="locality" />
		<tag k="ssr:stedsnr" v="716455" />
	</node>
	<node id="-310483" lat="61.0076694456" lon="11.2421277776">
		<tag k="name" v="Ulvhaugene" />
		<tag k="natural" v="hill" />
		<tag k="place" v="locality" />
		<tag k="ssr:stedsnr" v="291626" />
	</node>
	<node id="-310768" lat="60.7436222261" lon="11.610375007">
		<tag k="name" v="Bronkmoberget" />
		<tag k="natural" v="hill" />
		<tag k="place" v="locality" />
		<tag k="ssr:stedsnr" v="716448" />
	</node>
	<node id="-310511" lat="60.7018500011" lon="11.5914416617">
		<tag k="name" v="Søndre Rotveltberget" />
		<tag k="natural" v="hill" />
		<tag k="place" v="locality" />
		<tag k="ssr:stedsnr" v="230662" />
	</node>
	<node id="-311277" lat="60.7598722179" lon="11.5853833368">
		<tag k="fixme" v="consider natural=peak for the most distinct mountains in the district" />
		<tag k="name" v="Snøåsberget" />
		<tag k="natural" v="hill" />
		<tag k="place" v="locality" />
		<tag k="ssr:stedsnr" v="594677" />
	</node>
	<node id="-311276" lat="60.7624833379" lon="11.5853249978">
		<tag k="name" v="Bjørnsvea" />
		<tag k="natural" v="slope" />
		<tag k="place" v="locality" />
		<tag k="ssr:stedsnr" v="594676" />
	</node>
	<node id="-311377" lat="60.752397222" lon="11.4884861105">
		<tag k="name" v="Tjurudalsberget" />
		<tag k="natural" v="hill" />
		<tag k="place" v="locality" />
		<tag k="ssr:stedsnr" v="777550" />
	</node>
	<node id="-310500" lat="60.7006611132" lon="11.6238583335">
		<tag k="name" v="Veslebronkknappen" />
		<tag k="natural" v="hill" />
		<tag k="place" v="locality" />
		<tag k="ssr:stedsnr" v="292460" />
	</node>
	<node id="-310498" lat="60.7488555589" lon="11.4993166661">
		<tag k="name" v="Bråteberget" />
		<tag k="natural" v="hill" />
>>>>>>> e1d4bc35ff8a6074a6f2e91616a996b547c36f15
		<tag k="place" v="locality" />
		<tag k="ssr:stedsnr" v="292271" />
	</node>
<<<<<<< HEAD
	<node lat="60.93321666365096" lon="11.37407778578553" id="-23369">
		<tag k="name" v="Valberget" />
		<tag k="natural" v="hill" />
		<tag k="place" v="locality" />
		<tag k="ssr:stedsnr" v="434608" />
	</node>
	<node lat="60.68888333021183" lon="11.611100002103898" id="-23374">
		<tag k="name" v="Tuvberget" />
		<tag k="natural" v="hill" />
		<tag k="place" v="locality" />
		<tag k="ssr:stedsnr" v="492233" />
	</node>
	<node lat="60.692255558678056" lon="11.631566675560641" id="-23405">
		<tag k="fixme" v="consider natural=peak for the most distinct mountains in the district" />
		<tag k="name" v="Trettbråten" />
=======
	<node id="-311136" lat="61.0175694489" lon="11.2665861126">
		<tag k="name" v="Borkhola" />
		<tag k="natural" v="slope" />
		<tag k="place" v="locality" />
		<tag k="ssr:stedsnr" v="351600" />
	</node>
	<node id="-311007" lat="60.9914361088" lon="11.335058328">
		<tag k="name" v="Nordhuelia" />
		<tag k="natural" v="slope" />
		<tag k="place" v="locality" />
		<tag k="ssr:stedsnr" v="110679" />
	</node>
	<node id="-310619" lat="60.7691277808" lon="11.4051833268">
		<tag k="fixme" v="multiple name tags, choose one and add the other to alt_name" />
		<tag k="name" v="Baståsen;Grønsvekampen" />
		<tag k="natural" v="hill" />
		<tag k="place" v="locality" />
		<tag k="ssr:stedsnr" v="495955" />
	</node>
	<node id="-311002" lat="60.7758749982" lon="11.4456527733">
		<tag k="name" v="Svarttjernberget" />
		<tag k="natural" v="hill" />
		<tag k="place" v="locality" />
		<tag k="ssr:stedsnr" v="110581" />
	</node>
	<node id="-310873" lat="60.7476388904" lon="11.5210611123">
		<tag k="name" v="Hagakallberget" />
>>>>>>> e1d4bc35ff8a6074a6f2e91616a996b547c36f15
		<tag k="natural" v="hill" />
		<tag k="place" v="locality" />
		<tag k="ssr:stedsnr" v="899553" />
	</node>
<<<<<<< HEAD
	<node lat="60.724761107577095" lon="11.528199991099171" id="-23431">
		<tag k="name" v="Persvehaugen" />
		<tag k="natural" v="hill" />
		<tag k="place" v="locality" />
		<tag k="ssr:stedsnr" v="492281" />
	</node>
	<node lat="60.76912778077452" lon="11.405183326809501" id="-23447">
		<tag k="fixme" v="multiple name tags, choose one and add the other to alt_name" />
		<tag k="name" v="Baståsen;Grønsvekampen" />
		<tag k="natural" v="hill" />
		<tag k="place" v="locality" />
		<tag k="ssr:stedsnr" v="495955" />
	</node>
	<node lat="60.74426389258338" lon="11.584605562890536" id="-23457">
		<tag k="loc_name" v="Hanakneberget" />
		<tag k="name" v="Hanekneberget" />
		<tag k="natural" v="hill" />
		<tag k="place" v="locality" />
		<tag k="ssr:stedsnr" v="534703" />
	</node>
	<node lat="60.735549995791" lon="11.568713888110977" id="-23459">
		<tag k="name" v="Kullsveberget" />
		<tag k="natural" v="hill" />
		<tag k="place" v="locality" />
		<tag k="ssr:stedsnr" v="534722" />
	</node>
	<node lat="60.77615277473278" lon="11.469811104261352" id="-23494">
		<tag k="name" v="Rokoberget" />
=======
	<node id="-311000" lat="60.7240861114" lon="11.5287555528">
		<tag k="name" v="Persvehaugen" />
		<tag k="natural" v="hill" />
		<tag k="place" v="locality" />
		<tag k="ssr:stedsnr" v="110561" />
	</node>
	<node id="-311332" lat="60.9763694473" lon="11.2786500017">
		<tag k="name" v="Søndre Ruskåsen" />
		<tag k="natural" v="hill" />
		<tag k="place" v="locality" />
		<tag k="ssr:stedsnr" v="655634" />
	</node>
	<node id="-310486" lat="60.9018222248" lon="11.3879333327">
		<tag k="name" v="Skaksfihaugen" />
		<tag k="natural" v="hill" />
		<tag k="place" v="locality" />
		<tag k="ssr:stedsnr" v="291743" />
	</node>
	<node id="-311124" lat="60.9767999983" lon="11.3273999954">
		<tag k="name" v="Øksndalen" />
		<tag k="natural" v="valley" />
		<tag k="place" v="locality" />
		<tag k="ssr:stedsnr" v="312547" />
	</node>
	<node id="-310867" lat="60.8351249982" lon="11.4593249912">
		<tag k="name" v="Finstadgardshøgda" />
		<tag k="natural" v="hill" />
		<tag k="place" v="locality" />
		<tag k="ssr:stedsnr" v="859764" />
	</node>
	<node id="-311378" lat="60.7694388905" lon="11.4550305603">
		<tag k="name" v="Furuberget" />
>>>>>>> e1d4bc35ff8a6074a6f2e91616a996b547c36f15
		<tag k="natural" v="hill" />
		<tag k="place" v="locality" />
		<tag k="ssr:stedsnr" v="777560" />
	</node>
<<<<<<< HEAD
	<node lat="60.9476666682837" lon="11.322208331095693" id="-23507">
		<tag k="name" v="Klekkefjellet" />
		<tag k="natural" v="hill" />
		<tag k="place" v="locality" />
		<tag k="ssr:stedsnr" v="616552" />
	</node>
	<node lat="60.936858332308404" lon="11.315683331258022" id="-23537">
		<tag k="name" v="Klekkefjellia" />
		<tag k="natural" v="slope" />
		<tag k="place" v="locality" />
		<tag k="ssr:stedsnr" v="898726" />
	</node>
	<node lat="60.7436222260503" lon="11.610375007006658" id="-23543">
		<tag k="name" v="Bronkmoberget" />
		<tag k="natural" v="hill" />
		<tag k="place" v="locality" />
		<tag k="ssr:stedsnr" v="716448" />
	</node>
	<node lat="60.743241669862414" lon="11.55591389511242" id="-23548">
		<tag k="name" v="Høgholen" />
		<tag k="natural" v="hill" />
		<tag k="place" v="locality" />
		<tag k="ssr:stedsnr" v="716722" />
	</node>
	<node lat="60.74763889040301" lon="11.521061112281588" id="-23558">
		<tag k="name" v="Hagakallberget" />
		<tag k="natural" v="hill" />
		<tag k="place" v="locality" />
		<tag k="ssr:stedsnr" v="899553" />
	</node>
	<node lat="60.85385000138441" lon="11.477050004061033" id="-23562">
		<tag k="name" v="Klotjernsberget" />
=======
	<node id="-310737" lat="60.9525083318" lon="11.2323777765">
		<tag k="name" v="Stensæterdalen" />
		<tag k="natural" v="valley" />
		<tag k="place" v="locality" />
		<tag k="ssr:stedsnr" v="616564" />
	</node>
	<node id="-310736" lat="60.9480500004" lon="11.2284305521">
		<tag k="fixme" v="consider natural=peak for the most distinct mountains in the district" />
		<tag k="name" v="Hestfjellet" />
		<tag k="natural" v="hill" />
		<tag k="place" v="locality" />
		<tag k="ssr:stedsnr" v="616562" />
	</node>
	<node id="-310735" lat="60.9476666683" lon="11.3222083311">
		<tag k="name" v="Klekkefjellet" />
		<tag k="natural" v="hill" />
		<tag k="place" v="locality" />
		<tag k="ssr:stedsnr" v="616552" />
	</node>
	<node id="-310478" lat="60.8245944485" lon="11.4165527834">
		<tag k="fixme" v="consider natural=peak for the most distinct mountains in the district" />
		<tag k="name" v="Stormyråsen" />
		<tag k="natural" v="hill" />
		<tag k="place" v="locality" />
		<tag k="ssr:stedsnr" v="170414" />
	</node>
	<node id="-311243" lat="60.6979000036" lon="11.5778194443">
		<tag k="fixme" v="consider natural=peak for the most distinct mountains in the district" />
		<tag k="name" v="Nybuåsen" />
		<tag k="natural" v="hill" />
		<tag k="place" v="locality" />
		<tag k="ssr:stedsnr" v="553242" />
	</node>
	<node id="-310775" lat="60.9368583323" lon="11.3156833313">
		<tag k="name" v="Klekkefjellia" />
>>>>>>> e1d4bc35ff8a6074a6f2e91616a996b547c36f15
		<tag k="natural" v="slope" />
		<tag k="place" v="locality" />
		<tag k="ssr:stedsnr" v="899669" />
	</node>
<<<<<<< HEAD
	<node lat="60.94443332960477" lon="11.391955560896347" id="-23563">
		<tag k="name" v="Hanklia" />
		<tag k="natural" v="slope" />
		<tag k="place" v="locality" />
		<tag k="ssr:stedsnr" v="899673" />
	</node>
	<node lat="60.854513887225224" lon="11.416972228886001" id="-23566">
		<tag k="name" v="Ormsrudholen" />
		<tag k="natural" v="hill" />
		<tag k="place" v="locality" />
		<tag k="ssr:stedsnr" v="899882" />
	</node>
	<node lat="60.75239722204034" lon="11.488486110456597" id="-23598">
		<tag k="name" v="Tjurudalsberget" />
=======
	<node id="-311237" lat="60.7355499958" lon="11.5687138881">
		<tag k="name" v="Kullsveberget" />
		<tag k="natural" v="hill" />
		<tag k="place" v="locality" />
		<tag k="ssr:stedsnr" v="534722" />
	</node>
	<node id="-311363" lat="60.7100611086" lon="11.5525083409">
		<tag k="fixme" v="consider natural=peak for the most distinct mountains in the district" />
		<tag k="name" v="Tyribrennhøgda" />
>>>>>>> e1d4bc35ff8a6074a6f2e91616a996b547c36f15
		<tag k="natural" v="hill" />
		<tag k="place" v="locality" />
		<tag k="ssr:stedsnr" v="766261" />
	</node>
<<<<<<< HEAD
	<node lat="60.76943889047557" lon="11.455030560275604" id="-23599">
		<tag k="name" v="Furuberget" />
		<tag k="natural" v="hill" />
		<tag k="place" v="locality" />
		<tag k="ssr:stedsnr" v="777560" />
	</node>
	<node lat="61.0365361092897" lon="11.260022212997315" id="-23627">
		<tag k="fixme" v="consider natural=peak for the most distinct mountains in the district" />
		<tag k="loc_name" v="Gjetholen" />
		<tag k="name" v="Gitvola" />
		<tag k="natural" v="hill" />
		<tag k="place" v="locality" />
		<tag k="ssr:stedsnr" v="917237" />
	</node>
	<node lat="60.744763892265254" lon="11.483105550379065" id="-23631">
		<tag k="name" v="Syringberget" />
		<tag k="natural" v="hill" />
		<tag k="place" v="locality" />
		<tag k="ssr:stedsnr" v="919436" />
	</node>
	<node lat="60.7141833317332" lon="11.58257223081023" id="-23655">
		<tag k="name" v="Nordre Rotveltberget" />
		<tag k="natural" v="hill" />
		<tag k="place" v="locality" />
		<tag k="ssr:stedsnr" v="837698" />
	</node>
	<node lat="61.00114722103381" lon="11.263930557148283" id="-23656">
		<tag k="name" v="Godhamnslia" />
		<tag k="natural" v="slope" />
		<tag k="place" v="locality" />
		<tag k="ssr:stedsnr" v="838532" />
	</node>
	<node lat="60.83512499816727" lon="11.459324991211288" id="-23674">
		<tag k="name" v="Finstadgardshøgda" />
		<tag k="natural" v="hill" />
		<tag k="place" v="locality" />
		<tag k="ssr:stedsnr" v="859764" />
	</node>
	<node lat="60.72858888871931" lon="11.561277779511439" id="-23678">
		<tag k="name" v="Synnersveberget" />
		<tag k="natural" v="hill" />
		<tag k="place" v="locality" />
		<tag k="ssr:stedsnr" v="898706" />
	</node>
	<node lat="60.6993555587553" lon="11.538644450976719" id="-23755">
		<tag k="name" v="Skallberget" />
		<tag k="natural" v="hill" />
		<tag k="place" v="locality" />
		<tag k="ssr:stedsnr" v="68254" />
	</node>
	<node lat="61.03755277736751" lon="11.231927782157534" id="-23758">
		<tag k="fixme" v="consider natural=peak for the most distinct mountains in the district" />
		<tag k="name" v="Synsåsen" />
		<tag k="natural" v="hill" />
		<tag k="place" v="locality" />
		<tag k="ssr:stedsnr" v="68271" />
	</node>
	<node lat="60.71156667019456" lon="11.53763055917913" id="-23780">
		<tag k="alt_name" v="Hageknappen" />
		<tag k="fixme" v="consider natural=peak for the most distinct mountains in the district" />
		<tag k="name" v="Hagaknappen" />
		<tag k="natural" v="hill" />
		<tag k="place" v="locality" />
		<tag k="ssr:stedsnr" v="99655" />
	</node>
	<node lat="60.72408611141355" lon="11.52875555282356" id="-23795">
		<tag k="name" v="Persvehaugen" />
		<tag k="natural" v="hill" />
		<tag k="place" v="locality" />
		<tag k="ssr:stedsnr" v="110561" />
	</node>
	<node lat="60.95527500191911" lon="11.23016944773059" id="-23815">
		<tag k="name" v="Gråberget" />
		<tag k="natural" v="hill" />
		<tag k="place" v="locality" />
		<tag k="ssr:stedsnr" v="130570" />
	</node>
	<node lat="60.76134444734029" lon="11.572797219811422" id="-23835">
		<tag k="name" v="Styggmyrhaugen" />
		<tag k="natural" v="hill" />
		<tag k="place" v="locality" />
		<tag k="ssr:stedsnr" v="170328" />
	</node>
	<node lat="60.82459444847459" lon="11.416552783400178" id="-23838">
		<tag k="fixme" v="consider natural=peak for the most distinct mountains in the district" />
		<tag k="name" v="Stormyråsen" />
		<tag k="natural" v="hill" />
		<tag k="place" v="locality" />
		<tag k="ssr:stedsnr" v="170414" />
	</node>
	<node lat="60.7630416706598" lon="11.484575005527496" id="-23845">
		<tag k="name" v="Kolmyrhaugen" />
		<tag k="natural" v="hill" />
		<tag k="place" v="locality" />
		<tag k="ssr:stedsnr" v="170543" />
	</node>
	<node lat="60.99947777970756" lon="11.272333335483584" id="-23867">
		<tag k="fixme" v="consider natural=peak for the most distinct mountains in the district" />
		<tag k="name" v="Hemberget" />
		<tag k="natural" v="hill" />
		<tag k="place" v="locality" />
		<tag k="ssr:stedsnr" v="191518" />
	</node>
	<node lat="60.99398610789568" lon="11.338241673604896" id="-23869">
		<tag k="name" v="Nordhue" />
=======
	<node id="-311439" lat="61.001147221" lon="11.2639305571">
		<tag k="name" v="Godhamnslia" />
		<tag k="natural" v="slope" />
		<tag k="place" v="locality" />
		<tag k="ssr:stedsnr" v="838532" />
	</node>
	<node id="-310592" lat="60.7247611076" lon="11.5281999911">
		<tag k="name" v="Persvehaugen" />
		<tag k="natural" v="hill" />
		<tag k="place" v="locality" />
		<tag k="ssr:stedsnr" v="492281" />
	</node>
	<node id="-310719" lat="60.7432416699" lon="11.5559138951">
		<tag k="name" v="Høgholen" />
		<tag k="natural" v="hill" />
		<tag k="place" v="locality" />
		<tag k="ssr:stedsnr" v="716722" />
	</node>
	<node id="-310590" lat="60.6888833302" lon="11.6111000021">
		<tag k="name" v="Tuvberget" />
		<tag k="natural" v="hill" />
		<tag k="place" v="locality" />
		<tag k="ssr:stedsnr" v="492233" />
	</node>
	<node id="-311483" lat="60.8852416657" lon="11.446838897">
		<tag k="fixme" v="consider natural=peak for the most distinct mountains in the district" />
		<tag k="name" v="Vakkerhaugen" />
		<tag k="natural" v="hill" />
		<tag k="place" v="locality" />
		<tag k="ssr:stedsnr" v="959368" />
	</node>
	<node id="-310489" lat="60.9994777797" lon="11.2723333355">
		<tag k="fixme" v="consider natural=peak for the most distinct mountains in the district" />
		<tag k="name" v="Hemberget" />
		<tag k="natural" v="hill" />
		<tag k="place" v="locality" />
		<tag k="ssr:stedsnr" v="191518" />
	</node>
	<node id="-311481" lat="60.7670972247" lon="11.3744722262">
		<tag k="name" v="Grindmarka" />
		<tag k="place" v="locality" />
		<tag k="ssr:stedsnr" v="959349" />
	</node>
	<node id="-310847" lat="60.9314888889" lon="11.4050694433">
		<tag k="name" v="Narsæterberget" />
		<tag k="natural" v="hill" />
		<tag k="place" v="locality" />
		<tag k="ssr:stedsnr" v="798574" />
	</node>
	<node id="-310870" lat="60.7285888887" lon="11.5612777795">
		<tag k="name" v="Synnersveberget" />
		<tag k="natural" v="hill" />
		<tag k="place" v="locality" />
		<tag k="ssr:stedsnr" v="898706" />
	</node>
	<node id="-310962" lat="61.0375527774" lon="11.2319277822">
		<tag k="fixme" v="consider natural=peak for the most distinct mountains in the district" />
		<tag k="name" v="Synsåsen" />
		<tag k="natural" v="hill" />
		<tag k="place" v="locality" />
		<tag k="ssr:stedsnr" v="68271" />
	</node>
	<node id="-310448" lat="60.7115666702" lon="11.5376305592">
		<tag k="alt_name" v="Hageknappen" />
		<tag k="fixme" v="consider natural=peak for the most distinct mountains in the district" />
		<tag k="name" v="Hagaknappen" />
		<tag k="natural" v="hill" />
		<tag k="place" v="locality" />
		<tag k="ssr:stedsnr" v="99655" />
	</node>
	<node id="-310920" lat="60.921097223" lon="11.2551416582">
		<tag k="name" v="Ålsæterhøgda" />
		<tag k="natural" v="hill" />
		<tag k="place" v="locality" />
		<tag k="ssr:stedsnr" v="48607" />
	</node>
	<node id="-310522" lat="60.9029805544" lon="11.4484694487">
		<tag k="name" v="Eldåholen" />
		<tag k="natural" v="hill" />
		<tag k="place" v="locality" />
		<tag k="ssr:stedsnr" v="231715" />
	</node>
	<node id="-310813" lat="60.9192305532" lon="11.4295333356">
		<tag k="name" v="Løvbråten" />
		<tag k="natural" v="slope" />
		<tag k="place" v="locality" />
		<tag k="ssr:stedsnr" v="777534" />
	</node>
	<node id="-310386" lat="60.91688611" lon="11.3270888895">
		<tag k="name" v="Djupdalen" />
		<tag k="natural" v="valley" />
		<tag k="place" v="locality" />
		<tag k="ssr:stedsnr" v="230626" />
	</node>
	<node id="-311464" lat="60.9619888897" lon="11.2658888914">
		<tag k="name" v="Vesl-Svaen" />
>>>>>>> e1d4bc35ff8a6074a6f2e91616a996b547c36f15
		<tag k="natural" v="hill" />
		<tag k="place" v="locality" />
		<tag k="ssr:stedsnr" v="859564" />
	</node>
<<<<<<< HEAD
	<node lat="60.90182222480828" lon="11.387933332653867" id="-23884">
		<tag k="name" v="Skaksfihaugen" />
		<tag k="natural" v="hill" />
		<tag k="place" v="locality" />
		<tag k="ssr:stedsnr" v="291743" />
	</node>
	<node lat="60.748855558867106" lon="11.499316666126482" id="-23886">
		<tag k="name" v="Bråteberget" />
		<tag k="natural" v="hill" />
		<tag k="place" v="locality" />
		<tag k="ssr:stedsnr" v="292271" />
	</node>
	<node lat="60.751219447126864" lon="11.60118888213122" id="-23888">
		<tag k="name" v="Sauberget" />
		<tag k="natural" v="hill" />
		<tag k="place" v="locality" />
		<tag k="ssr:stedsnr" v="292400" />
	</node>
	<node lat="60.700661113223305" lon="11.623858333478093" id="-23889">
		<tag k="name" v="Veslebronkknappen" />
		<tag k="natural" v="hill" />
		<tag k="place" v="locality" />
		<tag k="ssr:stedsnr" v="292460" />
	</node>
	<node lat="60.97679999827309" lon="11.327399995415867" id="-23905">
		<tag k="name" v="Øksndalen" />
		<tag k="natural" v="valley" />
=======
	<node id="-310786" lat="60.9444333296" lon="11.3919555609">
		<tag k="name" v="Hanklia" />
		<tag k="natural" v="slope" />
		<tag k="place" v="locality" />
		<tag k="ssr:stedsnr" v="899673" />
	</node>
	<node id="-310820" lat="60.7447638923" lon="11.4831055504">
		<tag k="name" v="Syringberget" />
		<tag k="natural" v="hill" />
		<tag k="place" v="locality" />
		<tag k="ssr:stedsnr" v="919436" />
	</node>
	<node id="-311430" lat="60.7141833317" lon="11.5825722308">
		<tag k="name" v="Nordre Rotveltberget" />
		<tag k="natural" v="hill" />
		<tag k="place" v="locality" />
		<tag k="ssr:stedsnr" v="837698" />
	</node>
	<node id="-310491" lat="60.9939861079" lon="11.3382416736">
		<tag k="name" v="Nordhue" />
		<tag k="natural" v="hill" />
		<tag k="place" v="locality" />
		<tag k="ssr:stedsnr" v="191524" />
	</node>
	<node id="-311456" lat="60.9842861148" lon="11.246955549">
		<tag k="name" v="Målifjellet" />
		<tag k="natural" v="hill" />
>>>>>>> e1d4bc35ff8a6074a6f2e91616a996b547c36f15
		<tag k="place" v="locality" />
		<tag k="ssr:stedsnr" v="859494" />
	</node>
<<<<<<< HEAD
	<node lat="61.01756944893916" lon="11.266586112580661" id="-23919">
		<tag k="name" v="Borkhola" />
		<tag k="natural" v="slope" />
		<tag k="place" v="locality" />
		<tag k="ssr:stedsnr" v="351600" />
	</node>
	<node lat="60.714449996541326" lon="11.605997217040196" id="-23941">
		<tag k="fixme" v="consider natural=peak for the most distinct mountains in the district" />
		<tag k="name" v="Sagberget" />
		<tag k="natural" v="hill" />
		<tag k="place" v="locality" />
		<tag k="ssr:stedsnr" v="371287" />
	</node>
	<node lat="60.71528332880988" lon="11.553344453069812" id="-23942">
		<tag k="name" v="Mikkelslykkjeberget" />
		<tag k="natural" v="slope" />
		<tag k="place" v="locality" />
		<tag k="ssr:stedsnr" v="371291" />
	</node>
	<node lat="60.93558055463812" lon="11.361680558516992" id="-23943">
		<tag k="fixme" v="consider natural=peak for the most distinct mountains in the district" />
		<tag k="name" v="Savalsæterhøgda" />
		<tag k="natural" v="hill" />
		<tag k="place" v="locality" />
		<tag k="ssr:stedsnr" v="373634" />
	</node>
	<node lat="60.70251111471078" lon="11.563619446475515" id="-23959">
		<tag k="name" v="Storholmen" />
		<tag k="natural" v="hill" />
		<tag k="place" v="locality" />
		<tag k="ssr:stedsnr" v="412660" />
	</node>
	<node lat="60.74856388819281" lon="11.471222222691178" id="-23969">
		<tag k="name" v="Gobakklia" />
		<tag k="natural" v="slope" />
		<tag k="place" v="locality" />
		<tag k="ssr:stedsnr" v="413558" />
	</node>
	<node lat="60.697900003646005" lon="11.577819444253608" id="-24017">
		<tag k="fixme" v="consider natural=peak for the most distinct mountains in the district" />
		<tag k="name" v="Nybuåsen" />
=======
	<node id="-310853" lat="60.7321805591" lon="11.565452779">
		<tag k="name" v="Anderssveberget" />
		<tag k="natural" v="hill" />
		<tag k="place" v="locality" />
		<tag k="ssr:stedsnr" v="837715" />
	</node>
	<node id="-310426" lat="60.9544222268" lon="11.2651111078">
		<tag k="name" v="Svaen" />
		<tag k="natural" v="hill" />
		<tag k="place" v="locality" />
		<tag k="ssr:stedsnr" v="252549" />
	</node>
	<node id="-311062" lat="60.7630416707" lon="11.4845750055">
		<tag k="name" v="Kolmyrhaugen" />
		<tag k="natural" v="hill" />
		<tag k="place" v="locality" />
		<tag k="ssr:stedsnr" v="170543" />
	</node>
	<node id="-310805" lat="61.0365361093" lon="11.260022213">
		<tag k="fixme" v="consider natural=peak for the most distinct mountains in the district" />
		<tag k="loc_name" v="Gjetholen" />
		<tag k="name" v="Gitvola" />
		<tag k="natural" v="hill" />
		<tag k="place" v="locality" />
		<tag k="ssr:stedsnr" v="917237" />
	</node>
	<node id="-311060" lat="60.7613444473" lon="11.5727972198">
		<tag k="name" v="Styggmyrhaugen" />
		<tag k="natural" v="hill" />
		<tag k="place" v="locality" />
		<tag k="ssr:stedsnr" v="170328" />
	</node>
	<node id="-310958" lat="60.6993555588" lon="11.538644451">
		<tag k="name" v="Skallberget" />
>>>>>>> e1d4bc35ff8a6074a6f2e91616a996b547c36f15
		<tag k="natural" v="hill" />
		<tag k="place" v="locality" />
		<tag k="ssr:stedsnr" v="68254" />
	</node>
<<<<<<< HEAD
	<node lat="60.76248333787762" lon="11.585324997755649" id="-24035">
		<tag k="name" v="Bjørnsvea" />
		<tag k="natural" v="slope" />
		<tag k="place" v="locality" />
		<tag k="ssr:stedsnr" v="594676" />
	</node>
	<node lat="60.759872217885984" lon="11.585383336767777" id="-24036">
		<tag k="fixme" v="consider natural=peak for the most distinct mountains in the district" />
		<tag k="name" v="Snøåsberget" />
		<tag k="natural" v="hill" />
		<tag k="place" v="locality" />
		<tag k="ssr:stedsnr" v="594677" />
	</node>
	<node lat="60.83656388523856" lon="11.464166666362814" id="-24045">
		<tag k="name" v="Styggdikedalen" />
		<tag k="natural" v="valley" />
=======
	<node id="-310417" lat="60.9202916648" lon="11.4239861089">
		<tag k="alt_name" v="Svartbråtåberget" />
		<tag k="name" v="Svartbråtaberget" />
		<tag k="natural" v="hill" />
		<tag k="place" v="locality" />
		<tag k="ssr:stedsnr" v="251645" />
	</node>
	<node id="-311184" lat="60.983869445" lon="11.2756138965">
		<tag k="name" v="Vegenden" />
		<tag k="place" v="locality" />
		<tag k="ssr:stedsnr" v="413504" />
	</node>
	<node id="-311235" lat="60.7442638926" lon="11.5846055629">
		<tag k="loc_name" v="Hanakneberget" />
		<tag k="name" v="Hanekneberget" />
		<tag k="natural" v="hill" />
>>>>>>> e1d4bc35ff8a6074a6f2e91616a996b547c36f15
		<tag k="place" v="locality" />
		<tag k="ssr:stedsnr" v="595443" />
	</node>
<<<<<<< HEAD
	<node lat="60.94805000035851" lon="11.228430552072322" id="-24060">
		<tag k="fixme" v="consider natural=peak for the most distinct mountains in the district" />
		<tag k="name" v="Hestfjellet" />
		<tag k="natural" v="hill" />
		<tag k="place" v="locality" />
		<tag k="ssr:stedsnr" v="616562" />
	</node>
	<node lat="60.95250833183917" lon="11.232377776495147" id="-24061">
		<tag k="name" v="Stensæterdalen" />
		<tag k="natural" v="valley" />
		<tag k="place" v="locality" />
		<tag k="ssr:stedsnr" v="616564" />
	</node>
	<node lat="60.97636944728404" lon="11.278650001736876" id="-24076">
		<tag k="name" v="Søndre Ruskåsen" />
		<tag k="natural" v="hill" />
		<tag k="place" v="locality" />
		<tag k="ssr:stedsnr" v="655634" />
	</node>
	<node lat="60.87270277716531" lon="11.433916657764717" id="-24087">
		<tag k="name" v="Glomstadholen" />
		<tag k="natural" v="hill" />
		<tag k="place" v="locality" />
		<tag k="ssr:stedsnr" v="655962" />
	</node>
	<node lat="60.99613055262045" lon="11.328641659070247" id="-24094">
		<tag k="name" v="Nordhuelia" />
		<tag k="natural" v="slope" />
		<tag k="place" v="locality" />
		<tag k="ssr:stedsnr" v="716455" />
	</node>
	<node lat="60.71006110856149" lon="11.552508340857775" id="-24122">
		<tag k="fixme" v="consider natural=peak for the most distinct mountains in the district" />
		<tag k="name" v="Tyribrennhøgda" />
		<tag k="natural" v="hill" />
		<tag k="place" v="locality" />
		<tag k="ssr:stedsnr" v="766261" />
	</node>
	<node lat="60.919230553177066" lon="11.429533335570392" id="-24143">
		<tag k="name" v="Løvbråten" />
		<tag k="natural" v="slope" />
		<tag k="place" v="locality" />
		<tag k="ssr:stedsnr" v="777534" />
	</node>
	<node lat="60.93148888892637" lon="11.405069443317936" id="-24162">
		<tag k="name" v="Narsæterberget" />
		<tag k="natural" v="hill" />
		<tag k="place" v="locality" />
		<tag k="ssr:stedsnr" v="798574" />
	</node>
	<node lat="60.732180559122746" lon="11.565452778957924" id="-24174">
		<tag k="name" v="Anderssveberget" />
		<tag k="natural" v="hill" />
		<tag k="place" v="locality" />
		<tag k="ssr:stedsnr" v="837715" />
	</node>
	<node lat="60.785402775784014" lon="11.374808329833069" id="-24179">
		<tag k="name" v="Åkroken" />
		<tag k="place" v="locality" />
		<tag k="ssr:stedsnr" v="838415" />
	</node>
	<node lat="60.984286114790024" lon="11.246955549017658" id="-24194">
		<tag k="name" v="Målifjellet" />
		<tag k="natural" v="hill" />
		<tag k="place" v="locality" />
		<tag k="ssr:stedsnr" v="859494" />
	</node>
	<node lat="60.961988889721034" lon="11.26588889136845" id="-24198">
		<tag k="name" v="Vesl-Svaen" />
		<tag k="natural" v="hill" />
		<tag k="place" v="locality" />
		<tag k="ssr:stedsnr" v="859564" />
	</node>
	<node lat="60.7670972247287" lon="11.374472226243984" id="-24221">
		<tag k="name" v="Grindmarka" />
		<tag k="place" v="locality" />
		<tag k="ssr:stedsnr" v="959349" />
	</node>
	<node lat="60.8852416656595" lon="11.446838897044149" id="-24223">
		<tag k="fixme" v="consider natural=peak for the most distinct mountains in the district" />
		<tag k="name" v="Vakkerhaugen" />
		<tag k="natural" v="hill" />
		<tag k="place" v="locality" />
		<tag k="ssr:stedsnr" v="959368" />
	</node>
	<node lat="60.9765138863919" lon="11.289194453116066" id="-24227">
		<tag k="name" v="Storødegårdshøgda" />
		<tag k="natural" v="slope" />
		<tag k="place" v="locality" />
		<tag k="ssr:stedsnr" v="959461" />
=======
	<node id="-310541" lat="61.0496972258" lon="11.2368750053">
		<tag k="name" v="Brennsætersnippen" />
		<tag k="natural" v="slope" />
		<tag k="place" v="locality" />
		<tag k="ssr:stedsnr" v="473679" />
	</node>
	<node id="-310795" lat="60.8545138872" lon="11.4169722289">
		<tag k="name" v="Ormsrudholen" />
		<tag k="natural" v="hill" />
		<tag k="place" v="locality" />
		<tag k="ssr:stedsnr" v="899882" />
	</node>
	<node id="-310665" lat="60.6922555587" lon="11.6315666756">
		<tag k="fixme" v="consider natural=peak for the most distinct mountains in the district" />
		<tag k="name" v="Trettbråten" />
		<tag k="natural" v="hill" />
		<tag k="place" v="locality" />
		<tag k="ssr:stedsnr" v="473503" />
	</node>
	<node id="-311176" lat="60.7025111147" lon="11.5636194465">
		<tag k="name" v="Storholmen" />
		<tag k="natural" v="hill" />
		<tag k="place" v="locality" />
		<tag k="ssr:stedsnr" v="412660" />
	</node>
	<node id="-310919" lat="60.9110000002" lon="11.255672216">
		<tag k="name" v="Revhibakkene" />
		<tag k="natural" v="hill" />
		<tag k="place" v="locality" />
		<tag k="ssr:stedsnr" v="48603" />
	</node>
	<node id="-310662" lat="60.8727027772" lon="11.4339166578">
		<tag k="name" v="Glomstadholen" />
		<tag k="natural" v="hill" />
		<tag k="place" v="locality" />
		<tag k="ssr:stedsnr" v="655962" />
	</node>
	<node id="-311297" lat="60.7761527747" lon="11.4698111043">
		<tag k="name" v="Rokoberget" />
		<tag k="natural" v="hill" />
		<tag k="place" v="locality" />
		<tag k="ssr:stedsnr" v="615297" />
	</node>
	<node id="-310532" lat="60.7512194471" lon="11.6011888821">
		<tag k="name" v="Sauberget" />
		<tag k="natural" v="hill" />
		<tag k="place" v="locality" />
		<tag k="ssr:stedsnr" v="292400" />
	</node>
	<node id="-311190" lat="60.7485638882" lon="11.4712222227">
		<tag k="name" v="Gobakklia" />
		<tag k="natural" v="slope" />
		<tag k="place" v="locality" />
		<tag k="ssr:stedsnr" v="413558" />
	</node>
	<node id="-311435" lat="60.7854027758" lon="11.3748083298">
		<tag k="name" v="Åkroken" />
		<tag k="place" v="locality" />
		<tag k="ssr:stedsnr" v="838415" />
	</node>
	<node id="-310785" lat="60.8538500014" lon="11.4770500041">
		<tag k="name" v="Klotjernsberget" />
		<tag k="natural" v="slope" />
		<tag k="place" v="locality" />
		<tag k="ssr:stedsnr" v="899669" />
>>>>>>> e1d4bc35ff8a6074a6f2e91616a996b547c36f15
	</node>
</osm>
