<?xml version="1.0" encoding="UTF-8"?>
<osm generator="osmapis" version="0.6">
	<node id="-309215" lat="60.858533337" lon="11.3865583352">
		<tag k="name" v="Skafottet" />
		<tag k="place" v="locality" />
		<tag k="ssr:stedsnr" v="899429" />
	</node>
	<node id="-309114" lat="60.7912747287" lon="11.3991376582">
		<tag k="amenity" v="community_centre" />
		<tag k="name" v="Hammaren" />
		<tag k="ssr:stedsnr" v="677893" />
	</node>
	<node id="-309241" lat="60.7390833307" lon="11.4963861151">
		<tag k="amenity" v="place_of_worship" />
		<tag k="denomination" v="lutheran" />
		<tag k="name" v="Oppegård kapell" />
		<tag k="religion" v="christian" />
		<tag k="ssr:stedsnr" v="917432" />
	</node>
	<node id="-309942" lat="60.8619277801" lon="11.3431805637">
		<tag k="amenity" v="community_centre" />
		<tag k="name" v="Skjold" />
		<tag k="ssr:stedsnr" v="959973" />
	</node>
	<node id="-309010" lat="60.7379916693" lon="11.4942333399">
		<tag k="amenity" v="community_centre" />
		<tag k="name" v="Fjellhaug" />
		<tag k="ssr:stedsnr" v="474767" />
	</node>
	<node id="-309475" lat="60.7863388847" lon="11.3120055495">
		<tag k="name" v="Klevfos" />
		<tag k="ssr:stedsnr" v="130874" />
		<tag k="tourism" v="museum" />
	</node>
	<node id="-309551" lat="60.7894583332" lon="11.4773972244">
		<tag k="amenity" v="place_of_worship" />
		<tag k="denomination" v="lutheran" />
		<tag k="name" v="Oset kapell" />
		<tag k="religion" v="christian" />
		<tag k="ssr:stedsnr" v="312344" />
	</node>
	<node id="-309362" lat="60.8190361109" lon="11.3439777695">
		<tag k="amenity" v="community_centre" />
		<tag k="name" v="Kilde" />
		<tag k="ssr:stedsnr" v="49452" />
	</node>
	<node id="-309062" lat="60.8267138904" lon="11.314958341">
		<tag k="amenity" v="place_of_worship" />
		<tag k="denomination" v="lutheran" />
		<tag k="name" v="Løten kirke" />
		<tag k="religion" v="christian" />
		<tag k="ssr:stedsnr" v="373805" />
	</node>
	<node id="-309702" lat="60.8265833327" lon="11.3054000005">
		<tag k="name" v="Løiten Brænderi" />
		<tag k="ssr:stedsnr" v="566084" />
		<tag k="tourism" v="museum" />
	</node>
	<node id="-309571" lat="60.9592416668" lon="11.3457861061">
		<tag k="name" v="Sagtomta" />
		<tag k="place" v="locality" />
		<tag k="ssr:stedsnr" v="352269" />
	</node>
</osm>
