<?xml version="1.0" encoding="UTF-8"?>
<osm generator="osmapis" version="0.6">
	<node id="-542207" lat="62.1081527775" lon="5.30235277497">
		<tag k="name" v="Kupeelva" />
		<tag k="ssr:stedsnr" v="232837" />
		<tag k="waterway" v="river" />
	</node>
	<node id="-542201" lat="61.9773356285" lon="5.29253405625">
		<tag k="name" v="Sandviksvatnet" />
		<tag k="natural" v="water" />
		<tag k="ssr:stedsnr" v="232706" />
		<tag k="water" v="lake" />
	</node>
	<node id="-542198" lat="62.0149527794" lon="5.45139444038">
		<tag k="name" v="Monseidet" />
		<tag k="natural" v="strait" />
		<tag k="ssr:stedsnr" v="232499" />
	</node>
	<node id="-542705" lat="61.9323978189" lon="5.29703656087">
		<tag k="name" v="Pollavatnet" />
		<tag k="natural" v="water" />
		<tag k="ssr:stedsnr" v="777764" />
		<tag k="water" v="lake" />
	</node>
	<node id="-542697" lat="62.1402277783" lon="5.21479444951">
		<tag k="name" v="Sætrevatnet" />
		<tag k="natural" v="water" />
		<tag k="ssr:stedsnr" v="739711" />
		<tag k="water" v="lake" />
	</node>
	<node id="-542693" lat="62.1216333318" lon="5.18272499728">
		<tag k="name" v="Nibbergselva" />
		<tag k="ssr:stedsnr" v="739699" />
		<tag k="waterway" v="stream" />
	</node>
	<node id="-542692" lat="62.1699777763" lon="5.2108611137">
		<tag k="name" v="Sævatnet" />
		<tag k="natural" v="water" />
		<tag k="ssr:stedsnr" v="739698" />
	</node>
	<node id="-541662" lat="62.0859684302" lon="5.32089984417">
		<tag k="name" v="Ytste Geithornsvatnet" />
		<tag k="natural" v="water" />
		<tag k="ssr:stedsnr" v="352757" />
		<tag k="water" v="lake" />
	</node>
	<node id="-541661" lat="61.9608555589" lon="5.30577223032">
		<tag k="name" v="Kvernevikelva" />
		<tag k="ssr:stedsnr" v="352749" />
		<tag k="waterway" v="river" />
	</node>
	<node id="-542684" lat="62.0817916633" lon="5.33941945087">
		<tag k="name" v="Hestevatnet" />
		<tag k="natural" v="water" />
		<tag k="ssr:stedsnr" v="739410" />
	</node>
	<node id="-542681" lat="62.0520416678" lon="5.39084722096">
		<tag k="name" v="Kopevatnet" />
		<tag k="natural" v="water" />
		<tag k="ssr:stedsnr" v="739357" />
	</node>
	<node id="-542679" lat="62.0655388872" lon="5.35695000691">
		<tag k="alt_name" v="Lisetelva" />
		<tag k="name" v="Tarvaldselva" />
		<tag k="ssr:stedsnr" v="739311" />
		<tag k="waterway" v="river" />
	</node>
	<node id="-541654" lat="62.1658694415" lon="5.17903334068">
		<tag k="name" v="Ferstadelva" />
		<tag k="ssr:stedsnr" v="352057" />
		<tag k="waterway" v="river" />
	</node>
	<node id="-542673" lat="61.9418611127" lon="5.29925277422">
		<tag k="alt_name" v="Pollavatnet" />
		<tag k="name" v="Nordpollvatnet" />
		<tag k="natural" v="water" />
		<tag k="ssr:stedsnr" v="738826" />
	</node>
	<node id="-542158" lat="62.1624916651" lon="5.11228611245">
		<tag k="name" v="Lakseelva" />
		<tag k="ssr:stedsnr" v="231012" />
		<tag k="waterway" v="river" />
	</node>
	<node id="-541643" lat="62.1547138916" lon="5.18591110252">
		<tag k="name" v="Dalsbøvatnet" />
		<tag k="natural" v="water" />
		<tag k="ssr:stedsnr" v="314692" />
		<tag k="water" v="lake" />
	</node>
	<node id="-542665" lat="62.0469388895" lon="5.43586388593">
		<tag k="name" v="Stokkevågselva" />
		<tag k="ssr:stedsnr" v="738271" />
		<tag k="waterway" v="river" />
	</node>
	<node id="-542152" lat="62.1454249966" lon="5.195494454">
		<tag k="name" v="Kupeelva" />
		<tag k="ssr:stedsnr" v="193692" />
		<tag k="waterway" v="stream" />
	</node>
	<node id="-542148" lat="62.1666222266" lon="5.19015834045">
		<tag k="name" v="Tårevatnet" />
		<tag k="natural" v="water" />
		<tag k="ssr:stedsnr" v="193671" />
	</node>
	<node id="-542143" lat="62.0702055512" lon="5.37953333566">
		<tag k="name" v="Tarvaldsdalsvatnet" />
		<tag k="natural" v="water" />
		<tag k="ssr:stedsnr" v="193349" />
	</node>
	<node id="-541624" lat="61.9973222259" lon="5.44023610454">
		<tag k="name" v="Lauvadalsvatnet" />
		<tag k="natural" v="water" />
		<tag k="ssr:stedsnr" v="313897" />
	</node>
	<node id="-541623" lat="61.9615500015" lon="5.32530833867">
		<tag k="name" v="Kvernevikvatnet" />
		<tag k="natural" v="water" />
		<tag k="ssr:stedsnr" v="313813" />
	</node>
	<node id="-542132" lat="62.1614818794" lon="5.22450564031">
		<tag k="name" v="Grøtrøysvatnet" />
		<tag k="natural" v="water" />
		<tag k="ssr:stedsnr" v="192545" />
		<tag k="water" v="lake" />
	</node>
	<node id="-542639" lat="62.1040055567" lon="5.24730277981">
		<tag k="name" v="Myreelva" />
		<tag k="ssr:stedsnr" v="717845" />
		<tag k="waterway" v="river" />
	</node>
	<node id="-542255" lat="61.9792527736" lon="5.31726110623">
		<tag k="name" v="Flisterelva" />
		<tag k="ssr:stedsnr" v="414728" />
		<tag k="waterway" v="river" />
	</node>
	<node id="-542634" lat="62.0891745285" lon="5.28497617064">
		<tag k="name" v="Libervatnet" />
		<tag k="natural" v="water" />
		<tag k="ssr:stedsnr" v="717835" />
		<tag k="water" v="lake" />
	</node>
	<node id="-542107" lat="61.9747861081" lon="5.35281388176">
		<tag k="name" v="Tverrfossen" />
		<tag k="natural" v="waterfall" />
		<tag k="ssr:stedsnr" v="171626" />
	</node>
	<node id="-542617" lat="62.013822222" lon="5.49923888561">
		<tag k="alt_name" v="Skorge-elva" />
		<tag k="name" v="Skorgeelva" />
		<tag k="ssr:stedsnr" v="717547" />
		<tag k="waterway" v="river" />
	</node>
	<node id="-541576" lat="62.1535888869" lon="5.18052499097">
		<tag k="name" v="Flåvika" />
		<tag k="natural" v="bay" />
		<tag k="ssr:stedsnr" v="292183" />
	</node>
	<node id="-541573" lat="62.1620925627" lon="5.13637745304">
		<tag k="name" v="Mågeneset" />
		<tag k="natural" v="cape" />
		<tag k="ssr:stedsnr" v="292051" />
	</node>
	<node id="-542591" lat="62.160054264" lon="5.11343327342">
		<tag k="name" v="Litlevatnet" />
		<tag k="natural" v="water" />
		<tag k="ssr:stedsnr" v="678690" />
	</node>
	<node id="-542588" lat="62.1115638915" lon="5.17357223045">
		<tag k="name" v="Skinavatnet" />
		<tag k="natural" v="water" />
		<tag k="ssr:stedsnr" v="678667" />
	</node>
	<node id="-542587" lat="62.0976194431" lon="5.26264444174">
		<tag k="name" v="Myrevatnet" />
		<tag k="natural" v="water" />
		<tag k="ssr:stedsnr" v="678460" />
	</node>
	<node id="-542586" lat="62.0840234254" lon="5.3076842945">
		<tag k="name" v="Mikkelsvatnet" />
		<tag k="natural" v="water" />
		<tag k="ssr:stedsnr" v="678445" />
		<tag k="water" v="lake" />
	</node>
	<node id="-542585" lat="62.0859680418" lon="5.32452779995">
		<tag k="name" v="Geitahornsvatna" />
		<tag k="natural" v="water" />
		<tag k="ssr:stedsnr" v="678444" />
		<tag k="water" v="lake" />
	</node>
	<node id="-542584" lat="62.0735673585" lon="5.36684733823">
		<tag k="name" v="Heidavatnet" />
		<tag k="natural" v="water" />
		<tag k="ssr:stedsnr" v="678350" />
		<tag k="water" v="lake" />
	</node>
	<node id="-542581" lat="62.009236113" lon="5.27718611054">
		<tag k="name" v="Måseelva" />
		<tag k="ssr:stedsnr" v="678214" />
		<tag k="waterway" v="stream" />
	</node>
	<node id="-542580" lat="62.007550002" lon="5.40214166957">
		<tag k="name" v="Storelva" />
		<tag k="ssr:stedsnr" v="678159" />
		<tag k="waterway" v="stream" />
	</node>
	<node id="-542066" lat="62.156888888" lon="5.16444166845">
		<tag k="name" v="Raudåna" />
		<tag k="ssr:stedsnr" v="132694" />
		<tag k="waterway" v="stream" />
	</node>
	<node id="-542575" lat="62.1002083375" lon="5.31347500132">
		<tag k="name" v="Sjåstadelva" />
		<tag k="ssr:stedsnr" v="678409" />
		<tag k="waterway" v="river" />
	</node>
	<node id="-542060" lat="62.1147465762" lon="5.28317557925">
		<tag k="name" v="Leikangsvatnet" />
		<tag k="natural" v="water" />
		<tag k="ssr:stedsnr" v="132377" />
		<tag k="water" v="lake" />
	</node>
	<node id="-542059" lat="62.0554654695" lon="5.39533128147">
		<tag k="name" v="Sævatnet" />
		<tag k="natural" v="water" />
		<tag k="ssr:stedsnr" v="132352" />
		<tag k="water" v="lake" />
	</node>
	<node id="-542566" lat="62.0779416706" lon="5.39311388385">
		<tag k="name" v="Stigelva" />
		<tag k="ssr:stedsnr" v="656985" />
		<tag k="waterway" v="river" />
	</node>
	<node id="-542563" lat="62.0550416703" lon="5.3711222208">
		<tag k="name" v="Orrehola" />
		<tag k="place" v="locality" />
		<tag k="ssr:stedsnr" v="656948" />
	</node>
	<node id="-542046" lat="62.0437733936" lon="5.41927277771">
		<tag k="name" v="Heidavatna" />
		<tag k="natural" v="water" />
		<tag k="ssr:stedsnr" v="131266" />
		<tag k="water" v="lake" />
	</node>
	<node id="-542045" lat="62.0489055594" lon="5.46582222924">
		<tag k="name" v="Litlevatnet" />
		<tag k="natural" v="water" />
		<tag k="ssr:stedsnr" v="131258" />
	</node>
	<node id="-541754" lat="62.1574388846" lon="5.18703889358">
		<tag k="name" v="Storeneset" />
		<tag k="natural" v="cape" />
		<tag k="ssr:stedsnr" v="413032" />
	</node>
	<node id="-541911" lat="62.055084227" lon="5.34882165308">
		<tag k="name" v="Grytingselva" />
		<tag k="natural" v="water" />
		<tag k="ssr:stedsnr" v="49955" />
		<tag k="water" v="lake" />
	</node>
	<node id="-542537" lat="62.0423333317" lon="5.47144166777">
		<tag k="name" v="Kvamselva" />
		<tag k="ssr:stedsnr" v="656583" />
		<tag k="waterway" v="river" />
	</node>
	<node id="-542024" lat="62.0928194404" lon="5.36516111597">
		<tag k="name" v="Flødeelva" />
		<tag k="ssr:stedsnr" v="111793" />
		<tag k="waterway" v="river" />
	</node>
	<node id="-541750" lat="62.1027388894" lon="5.14373055553">
		<tag k="name" v="Ryrskelva" />
		<tag k="ssr:stedsnr" v="414249" />
		<tag k="waterway" v="river" />
	</node>
	<node id="-542520" lat="62.1595089982" lon="5.13475299628">
		<tag k="name" v="Holmestadneset" />
		<tag k="natural" v="cape" />
		<tag k="ssr:stedsnr" v="656038" />
	</node>
	<node id="-542005" lat="62.1075194404" lon="5.24010277941">
		<tag k="name" v="Elvagjølet" />
		<tag k="place" v="locality" />
		<tag k="ssr:stedsnr" v="111184" />
	</node>
	<node id="-542004" lat="62.1306294808" lon="5.28556757108">
		<tag k="name" v="Dalskarvatnet" />
		<tag k="natural" v="water" />
		<tag k="ssr:stedsnr" v="111177" />
		<tag k="water" v="lake" />
	</node>
	<node id="-541999" lat="62.1417250025" lon="5.2218083364">
		<tag k="name" v="Kvasseneset" />
		<tag k="natural" v="cape" />
		<tag k="ssr:stedsnr" v="111144" />
	</node>
	<node id="-542507" lat="62.2045916636" lon="5.19293054678">
		<tag k="name" v="Storevatnet" />
		<tag k="natural" v="water" />
		<tag k="ssr:stedsnr" v="617769" />
	</node>
	<node id="-541992" lat="62.0558694454" lon="5.40235277596">
		<tag k="name" v="Løkelva" />
		<tag k="ssr:stedsnr" v="110943" />
		<tag k="waterway" v="river" />
	</node>
	<node id="-541988" lat="62.0133388932" lon="5.40811666765">
		<tag k="name" v="Osen" />
		<tag k="natural" v="bay" />
		<tag k="ssr:stedsnr" v="110911" />
	</node>
	<node id="-541986" lat="61.9869972249" lon="5.32076667453">
		<tag k="name" v="Røyrneselva" />
		<tag k="ssr:stedsnr" v="110907" />
		<tag k="waterway" v="river" />
	</node>
	<node id="-543007" lat="62.1116444441" lon="5.22711944194">
		<tag k="name" v="Fossane" />
		<tag k="natural" v="waterfall" />
		<tag k="ssr:stedsnr" v="960162" />
	</node>
	<node id="-541981" lat="61.9918666656" lon="5.38608611256">
		<tag k="name" v="Botneneset" />
		<tag k="natural" v="cape" />
		<tag k="ssr:stedsnr" v="110646" />
	</node>
	<node id="-541978" lat="62.1442416707" lon="5.1477722287">
		<tag k="name" v="Bakarfossen" />
		<tag k="natural" v="waterfall" />
		<tag k="ssr:stedsnr" v="110191" />
	</node>
	<node id="-543001" lat="62.1379722216" lon="5.22984999542">
		<tag k="name" v="Kredeneset" />
		<tag k="natural" v="cape" />
		<tag k="ssr:stedsnr" v="960119" />
	</node>
	<node id="-543000" lat="62.0712388888" lon="5.41091665748">
		<tag k="name" v="Litleelva" />
		<tag k="natural" v="water" />
		<tag k="ssr:stedsnr" v="959987" />
		<tag k="water" v="lake" />
	</node>
	<node id="-542999" lat="62.0831055512" lon="5.38598610611">
		<tag k="name" v="Byteelva" />
		<tag k="ssr:stedsnr" v="959977" />
		<tag k="waterway" v="river" />
	</node>
	<node id="-542484" lat="62.1639249965" lon="5.15080834133">
		<tag k="name" v="Storelva" />
		<tag k="ssr:stedsnr" v="617155" />
		<tag k="waterway" v="river" />
	</node>
	<node id="-542992" lat="62.0675472256" lon="5.41962221661">
		<tag k="name" v="Sanddvikelva" />
		<tag k="ssr:stedsnr" v="959933" />
		<tag k="waterway" v="river" />
	</node>
	<node id="-541966" lat="62.1046861118" lon="5.20491388527">
		<tag k="name" v="Geitnestjønna" />
		<tag k="natural" v="water" />
		<tag k="ssr:stedsnr" v="81314" />
	</node>
	<node id="-542477" lat="61.9892138881" lon="5.41582778355">
		<tag k="name" v="Langevatnet" />
		<tag k="natural" v="water" />
		<tag k="ssr:stedsnr" v="616763" />
	</node>
	<node id="-542988" lat="62.0433389788" lon="5.4188511929">
		<tag k="name" v="Store Heiavatnet" />
		<tag k="natural" v="water" />
		<tag k="ssr:stedsnr" v="959904" />
		<tag k="water" v="lake" />
	</node>
	<node id="-542935" lat="61.9972683064" lon="5.39524024451">
		<tag k="name" v="Berstadvatnet" />
		<tag k="natural" v="water" />
		<tag k="ssr:stedsnr" v="920889" />
		<tag k="water" v="lake" />
	</node>
	<node id="-541950" lat="62.111244443" lon="5.26240277179">
		<tag k="name" v="Litlelidvatnet" />
		<tag k="natural" v="water" />
		<tag k="ssr:stedsnr" v="71428" />
		<tag k="water" v="lake" />
	</node>
	<node id="-542648" lat="62.0676267282" lon="5.37602940592">
		<tag k="name" v="Tarvaldsvatnet" />
		<tag k="natural" v="water" />
		<tag k="ssr:stedsnr" v="717968" />
		<tag k="water" v="lake" />
	</node>
	<node id="-542957" lat="62.1666944428" lon="5.20875277568">
		<tag k="name" v="Slokevatnet" />
		<tag k="natural" v="water" />
		<tag k="ssr:stedsnr" v="921703" />
	</node>
	<node id="-542956" lat="62.1069333368" lon="5.20609721602">
		<tag k="name" v="Geitnestjerna" />
		<tag k="natural" v="water" />
		<tag k="ssr:stedsnr" v="921687" />
	</node>
	<node id="-542443" lat="62.0660694431" lon="5.33878888546">
		<tag k="name" v="Lisetelva" />
		<tag k="ssr:stedsnr" v="595983" />
		<tag k="waterway" v="stream" />
	</node>
	<node id="-542954" lat="62.1563611138" lon="5.25902499857">
		<tag k="name" v="Storelva" />
		<tag k="ssr:stedsnr" v="921553" />
		<tag k="waterway" v="river" />
	</node>
	<node id="-542952" lat="62.1453388857" lon="5.276213882">
		<tag k="name" v="Kupevatnet" />
		<tag k="natural" v="water" />
		<tag k="ssr:stedsnr" v="921485" />
	</node>
	<node id="-542950" lat="62.1082194419" lon="5.27244722504">
		<tag k="name" v="Dragseidet" />
		<tag k="natural" v="strait" />
		<tag k="ssr:stedsnr" v="921429" />
	</node>
	<node id="-542161" lat="62.1542027808" lon="5.18486388516">
		<tag k="name" v="Hamnaneset" />
		<tag k="natural" v="cape" />
		<tag k="ssr:stedsnr" v="231054" />
	</node>
	<node id="-542948" lat="62.0535055562" lon="5.35624722227">
		<tag k="alt_name" v="Kvernhusdalsvatnet" />
		<tag k="name" v="Kvernhusdalsvatna" />
		<tag k="natural" v="water" />
		<tag k="ssr:stedsnr" v="921403" />
	</node>
	<node id="-542435" lat="61.9342481601" lon="5.28282766112">
		<tag k="name" v="Koppevatnet" />
		<tag k="natural" v="water" />
		<tag k="ssr:stedsnr" v="595754" />
		<tag k="water" v="lake" />
	</node>
	<node id="-542434" lat="61.9932499963" lon="5.39333611079">
		<tag k="name" v="Legeneset" />
		<tag k="natural" v="cape" />
		<tag k="ssr:stedsnr" v="595598" />
	</node>
	<node id="-542331" lat="62.13245" lon="5.26048054657">
		<tag k="name" v="Morkavatnet" />
		<tag k="natural" v="water" />
		<tag k="ssr:stedsnr" v="496509" />
	</node>
	<node id="-541914" lat="62.1446250024" lon="5.20835554922">
		<tag k="name" v="Dyrneset" />
		<tag k="natural" v="cape" />
		<tag k="ssr:stedsnr" v="50129" />
	</node>
	<node id="-542423" lat="62.1311861144" lon="5.23183889241">
		<tag k="alt_name" v="Skjeljevatnet" />
		<tag k="name" v="Skjeljevatna" />
		<tag k="natural" v="water" />
		<tag k="ssr:stedsnr" v="557463" />
	</node>
	<node id="-542422" lat="62.0563749968" lon="5.42746388224">
		<tag k="name" v="Årsheimsvatnet" />
		<tag k="natural" v="water" />
		<tag k="ssr:stedsnr" v="557357" />
		<tag k="water" v="lake" />
	</node>
	<node id="-541907" lat="62.0471723969" lon="5.38899072275">
		<tag k="name" v="Vesle Kjellkrokevatnet" />
		<tag k="natural" v="water" />
		<tag k="ssr:stedsnr" v="49910" />
		<tag k="water" v="lake" />
	</node>
	<node id="-541905" lat="62.0225083366" lon="5.43255277314">
		<tag k="name" v="Røyrdalselva" />
		<tag k="ssr:stedsnr" v="49898" />
		<tag k="waterway" v="river" />
	</node>
	<node id="-541900" lat="62.0172055521" lon="5.35477778246">
		<tag k="name" v="Øygardselva" />
		<tag k="ssr:stedsnr" v="49869" />
		<tag k="waterway" v="river" />
	</node>
	<node id="-541899" lat="62.0849457383" lon="5.32812034991">
		<tag k="name" v="Inste Geithornsvatnet" />
		<tag k="natural" v="water" />
		<tag k="ssr:stedsnr" v="49785" />
		<tag k="water" v="lake" />
	</node>
	<node id="-541892" lat="62.1547416701" lon="5.17920834094">
		<tag k="name" v="Ferstadlegeneset" />
		<tag k="natural" v="cape" />
		<tag k="ssr:stedsnr" v="49057" />
	</node>
	<node id="-542403" lat="62.1648527735" lon="5.26195277088">
		<tag k="name" v="Måsevatnet" />
		<tag k="natural" v="water" />
		<tag k="ssr:stedsnr" v="556553" />
		<tag k="water" v="lake" />
	</node>
	<node id="-542401" lat="62.1494166679" lon="5.27613333821">
		<tag k="name" v="Vågselva" />
		<tag k="ssr:stedsnr" v="556499" />
		<tag k="waterway" v="river" />
	</node>
	<node id="-542399" lat="62.1369472243" lon="5.28663333547">
		<tag k="name" v="Oklavatnet" />
		<tag k="natural" v="water" />
		<tag k="ssr:stedsnr" v="556482" />
	</node>
	<node id="-542395" lat="62.0254305569" lon="5.46495277592">
		<tag k="name" v="Otnesvatnet" />
		<tag k="natural" v="water" />
		<tag k="ssr:stedsnr" v="556368" />
	</node>
	<node id="-542391" lat="62.0383999979" lon="5.46363889462">
		<tag k="name" v="Kvamsvatnet" />
		<tag k="natural" v="water" />
		<tag k="ssr:stedsnr" v="556304" />
	</node>
	<node id="-541877" lat="62.0906277732" lon="5.27500832647">
		<tag k="name" v="Vassdalsvatnet" />
		<tag k="natural" v="water" />
		<tag k="ssr:stedsnr" v="11429" />
	</node>
	<node id="-541871" lat="62.0620055535" lon="5.40378054941">
		<tag k="name" v="Storelva" />
		<tag k="ssr:stedsnr" v="11308" />
		<tag k="waterway" v="stream" />
	</node>
	<node id="-542892" lat="62.0539616885" lon="5.38185814738">
		<tag k="name" v="Orrevatnet" />
		<tag k="natural" v="water" />
		<tag k="ssr:stedsnr" v="899956" />
		<tag k="water" v="lake" />
	</node>
	<node id="-541810" lat="62.0806388853" lon="5.39475833932">
		<tag k="name" v="Rekevikelva" />
		<tag k="ssr:stedsnr" v="474999" />
		<tag k="waterway" v="river" />
	</node>
	<node id="-541866" lat="62.0047689946" lon="5.26970307133">
		<tag k="name" v="Djupedalsvatnet" />
		<tag k="natural" v="water" />
		<tag k="ssr:stedsnr" v="11187" />
		<tag k="water" v="lake" />
	</node>
	<node id="-541861" lat="62.0445757866" lon="5.39181696534">
		<tag k="name" v="Kjellkrokevatna" />
		<tag k="natural" v="water" />
		<tag k="ssr:stedsnr" v="10264" />
		<tag k="water" v="lake" />
	</node>
	<node id="-542883" lat="61.9952807277" lon="5.41768717308">
		<tag k="name" v="Kasstuvatnet" />
		<tag k="natural" v="water" />
		<tag k="ssr:stedsnr" v="899629" />
		<tag k="water" v="lake" />
	</node>
	<node id="-542882" lat="61.9968777797" lon="5.39919721266">
		<tag k="name" v="Fureneset" />
		<tag k="natural" v="cape" />
		<tag k="ssr:stedsnr" v="899617" />
	</node>
	<node id="-541857" lat="62.0848416709" lon="5.38559722527">
		<tag k="name" v="Trollgjølelva" />
		<tag k="ssr:stedsnr" v="413982" />
		<tag k="waterway" v="river" />
	</node>
	<node id="-542871" lat="62.1242972238" lon="5.24616943726">
		<tag k="alt_name" v="Grøtrøysvatnet" />
		<tag k="name" v="Grøtrøysvatna" />
		<tag k="natural" v="water" />
		<tag k="ssr:stedsnr" v="861458" />
	</node>
	<node id="-542869" lat="62.0513972241" lon="5.3761999929">
		<tag k="alt_name" v="Djupedalsvatnet" />
		<tag k="name" v="Djupedalsvatn" />
		<tag k="natural" v="water" />
		<tag k="ssr:stedsnr" v="861343" />
	</node>
	<node id="-542868" lat="62.0710305528" lon="5.40014444254">
		<tag k="alt_name" v="Kvernhuselva" />
		<tag k="name" v="Litleelva" />
		<tag k="ssr:stedsnr" v="861309" />
		<tag k="waterway" v="stream" />
	</node>
	<node id="-542867" lat="62.0740277798" lon="5.39547777699">
		<tag k="alt_name" v="Stølselva" />
		<tag k="name" v="Støylselva" />
		<tag k="ssr:stedsnr" v="861310" />
		<tag k="waterway" v="stream" />
	</node>
	<node id="-542857" lat="62.1692638915" lon="5.2649833419">
		<tag k="name" v="Bogelva" />
		<tag k="ssr:stedsnr" v="860556" />
		<tag k="waterway" v="stream" />
	</node>
	<node id="-542855" lat="62.1708305549" lon="5.24349167438">
		<tag k="name" v="Bogelva" />
		<tag k="ssr:stedsnr" v="860536" />
		<tag k="waterway" v="river" />
	</node>
	<node id="-542853" lat="62.0960888922" lon="5.33128889108">
		<tag k="name" v="Sandeelva" />
		<tag k="ssr:stedsnr" v="860488" />
		<tag k="waterway" v="stream" />
	</node>
	<node id="-542851" lat="62.11334722" lon="5.29909721741">
		<tag k="name" v="Leikangselva" />
		<tag k="ssr:stedsnr" v="860455" />
		<tag k="waterway" v="river" />
	</node>
	<node id="-541825" lat="62.1604321967" lon="5.13402562432">
		<tag k="name" v="Storholmen" />
		<tag k="place" v="islet" />
		<tag k="ssr:stedsnr" v="899064" />
	</node>
	<node id="-542334" lat="62.1166944456" lon="5.12506667425">
		<tag k="name" v="Stavsdalsvatnet" />
		<tag k="natural" v="water" />
		<tag k="ssr:stedsnr" v="496708" />
	</node>
	<node id="-542333" lat="62.1608942103" lon="5.13312773577">
		<tag k="alt_name" v="Ervikvatnet" />
		<tag k="name" v="Storevatnet" />
		<tag k="natural" v="water" />
		<tag k="ssr:stedsnr" v="496703" />
		<tag k="water" v="lake" />
	</node>
	<node id="-542844" lat="62.0108555569" lon="5.2918638869">
		<tag k="name" v="Heidavatnet" />
		<tag k="natural" v="water" />
		<tag k="ssr:stedsnr" v="860333" />
		<tag k="water" v="lake" />
	</node>
	<node id="-542843" lat="62.0391930687" lon="5.43152032155">
		<tag k="name" v="Lestovatna" />
		<tag k="natural" v="water" />
		<tag k="ssr:stedsnr" v="860311" />
		<tag k="water" v="lake" />
	</node>
	<node id="-542834" lat="62.0971222249" lon="5.35469167286">
		<tag k="name" v="Strandaelva" />
		<tag k="ssr:stedsnr" v="839811" />
		<tag k="waterway" v="river" />
	</node>
	<node id="-542319" lat="62.0157888884" lon="5.38701944681">
		<tag k="name" v="Hatlenesvatnet" />
		<tag k="natural" v="water" />
		<tag k="ssr:stedsnr" v="496307" />
	</node>
	<node id="-542315" lat="62.0023568206" lon="5.27275172058">
		<tag k="name" v="Smottelidvatnet" />
		<tag k="natural" v="water" />
		<tag k="ssr:stedsnr" v="496216" />
		<tag k="water" v="lake" />
	</node>
	<node id="-541802" lat="62.0597222265" lon="5.42984167113">
		<tag k="alt_name" v="Årsheimelva" />
		<tag k="name" v="Årsheimselva" />
		<tag k="ssr:stedsnr" v="474943" />
		<tag k="waterway" v="river" />
	</node>
	<node id="-541799" lat="62.0406472246" lon="5.36041111623">
		<tag k="name" v="Hamreelva" />
		<tag k="ssr:stedsnr" v="474914" />
		<tag k="waterway" v="river" />
	</node>
	<node id="-541797" lat="62.045095192" lon="5.39258109874">
		<tag k="name" v="Store Kjellkrokevatnet" />
		<tag k="natural" v="water" />
		<tag k="ssr:stedsnr" v="474902" />
		<tag k="water" v="lake" />
	</node>
	<node id="-541796" lat="62.0128138925" lon="5.39394722667">
		<tag k="name" v="Øyarelva" />
		<tag k="ssr:stedsnr" v="474901" />
		<tag k="waterway" v="river" />
	</node>
	<node id="-542054" lat="62.0106277735" lon="5.26883333797">
		<tag k="alt_name" v="Myklebustvatnet" />
		<tag k="name" v="Fjellvatnet" />
		<tag k="natural" v="water" />
		<tag k="ssr:stedsnr" v="132268" />
	</node>
	<node id="-542301" lat="62.0589555548" lon="5.3984916719">
		<tag k="name" v="Sandvikseidet" />
		<tag k="natural" v="strait" />
		<tag k="ssr:stedsnr" v="436294" />
	</node>
	<node id="-542300" lat="62.0161805556" lon="5.44665555951">
		<tag k="name" v="Skumdalsvatnet" />
		<tag k="natural" v="water" />
		<tag k="ssr:stedsnr" v="436270" />
		<tag k="water" v="lake" />
	</node>
	<node id="-541783" lat="62.0015388921" lon="5.39852222705">
		<tag k="name" v="Lyngneset" />
		<tag k="natural" v="cape" />
		<tag k="ssr:stedsnr" v="474633" />
	</node>
	<node id="-541795" lat="62.0096000005" lon="5.40458055975">
		<tag k="name" v="Berstadelva" />
		<tag k="ssr:stedsnr" v="474899" />
		<tag k="waterway" v="river" />
	</node>
	<node id="-542799" lat="62.1628083338" lon="5.13288889593">
		<tag k="name" v="Kalveneset" />
		<tag k="natural" v="cape" />
		<tag k="ssr:stedsnr" v="838071" />
	</node>
	<node id="-541769" lat="62.1071472176" lon="5.20437776909">
		<tag k="name" v="Geitnestjørna" />
		<tag k="natural" v="water" />
		<tag k="ssr:stedsnr" v="474177" />
	</node>
	<node id="-541964" lat="62.0812483105" lon="5.32078949512">
		<tag k="name" v="Skorbøvatnet" />
		<tag k="natural" v="water" />
		<tag k="ssr:stedsnr" v="72390" />
	</node>
	<node id="-542778" lat="62.1376722194" lon="5.23961665786">
		<tag k="name" v="Sætreelva" />
		<tag k="ssr:stedsnr" v="800433" />
		<tag k="waterway" v="stream" />
	</node>
	<node id="-542774" lat="62.073684089" lon="5.37829258212">
		<tag k="name" v="Grøtnipevatnet" />
		<tag k="natural" v="water" />
		<tag k="ssr:stedsnr" v="800320" />
	</node>
	<node id="-542769" lat="62.1535833296" lon="5.2460361172">
		<tag k="name" v="Nykkevatnet" />
		<tag k="natural" v="water" />
		<tag k="ssr:stedsnr" v="799545" />
	</node>
	<node id="-542767" lat="62.029774997" lon="5.4438055565">
		<tag k="alt_name" v="Krokevatna" />
		<tag k="name" v="Krokvatnet" />
		<tag k="natural" v="water" />
		<tag k="ssr:stedsnr" v="799315" />
	</node>
	<node id="-541737" lat="62.1411500037" lon="5.17442500817">
		<tag k="name" v="Eidslidvatnet" />
		<tag k="natural" v="water" />
		<tag k="ssr:stedsnr" v="375697" />
	</node>
	<node id="-541734" lat="62.1973666687" lon="5.22020276881">
		<tag k="name" v="Hestevatnet" />
		<tag k="natural" v="water" />
		<tag k="ssr:stedsnr" v="375550" />
	</node>
	<node id="-542243" lat="62.0822435709" lon="5.3519103697">
		<tag k="name" v="Flødevatnet" />
		<tag k="natural" v="water" />
		<tag k="ssr:stedsnr" v="254378" />
	</node>
	<node id="-542242" lat="62.075931465" lon="5.32498630308">
		<tag k="name" v="Småvatna" />
		<tag k="natural" v="water" />
		<tag k="ssr:stedsnr" v="254379" />
		<tag k="water" v="lake" />
	</node>
	<node id="-541729" lat="62.0596750033" lon="5.39126387971">
		<tag k="name" v="Vassdalsvatnet" />
		<tag k="natural" v="water" />
		<tag k="ssr:stedsnr" v="375288" />
	</node>
	<node id="-541715" lat="62.108541668" lon="5.14561944867">
		<tag k="name" v="Fureskinavatnet" />
		<tag k="natural" v="water" />
		<tag k="ssr:stedsnr" v="374674" />
	</node>
	<node id="-542737" lat="62.0559388857" lon="5.46125277195">
		<tag k="name" v="Stokkeneselva" />
		<tag k="ssr:stedsnr" v="778578" />
		<tag k="waterway" v="river" />
	</node>
	<node id="-541709" lat="62.11973889" lon="5.27375555629">
		<tag k="name" v="Stavselva" />
		<tag k="ssr:stedsnr" v="374458" />
		<tag k="waterway" v="stream" />
	</node>
	<node id="-542730" lat="62.1621982758" lon="5.26690383829">
		<tag k="name" v="Demningevatnet" />
		<tag k="natural" v="water" />
		<tag k="ssr:stedsnr" v="778214" />
		<tag k="water" v="lake" />
	</node>
	<node id="-542213" lat="61.9651903038" lon="5.29982463525">
		<tag k="name" v="Kroken" />
		<tag k="natural" v="bay" />
		<tag k="ssr:stedsnr" v="238882" />
	</node>
</osm>
