<?xml version="1.0" encoding="UTF-8"?>
<osm generator="osmapis" version="0.6">
	<node id="-541564" lat="62.1177805545" lon="5.31704722086">
		<tag k="bridge" v="yes" />
		<tag k="layer" v="1" />
		<tag k="name" v="Leikanger" />
		<tag k="ssr:stedsnr" v="290613" />
	</node>
	<node id="-542075" lat="61.9593305582" lon="5.30378056137">
		<tag k="bridge" v="yes" />
		<tag k="layer" v="1" />
		<tag k="name" v="Kvernevik" />
		<tag k="ssr:stedsnr" v="169667" />
	</node>
	<node id="-541563" lat="62.1919722209" lon="5.20300277626">
		<tag k="bridge" v="yes" />
		<tag k="layer" v="1" />
		<tag k="name" v="Honningsvåg" />
		<tag k="ssr:stedsnr" v="290609" />
	</node>
	<node id="-541650" lat="61.9561138892" lon="5.27876666326">
		<tag k="bridge" v="yes" />
		<tag k="layer" v="1" />
		<tag k="name" v="Håvik" />
		<tag k="ssr:stedsnr" v="350654" />
	</node>
	<node id="-542157" lat="62.0113249981" lon="5.41006389144">
		<tag k="bridge" v="yes" />
		<tag k="layer" v="1" />
		<tag k="name" v="Øren" />
		<tag k="ssr:stedsnr" v="229686" />
	</node>
	<node id="-543051" lat="61.9839449379" lon="5.28745079558">
		<tag k="amenity" v="ferry_terminal" />
		<tag k="loc_name" v="Barmasundet ferjekai" />
		<tag k="name" v="Barmsundet ferjekai" />
		<tag k="ssr:stedsnr" v="978661" />
	</node>
	<node id="-543050" lat="61.9979140493" lon="5.28997663142">
		<tag k="amenity" v="ferry_terminal" />
		<tag k="name" v="Barmen ferjekai" />
		<tag k="ssr:stedsnr" v="978659" />
	</node>
	<node id="-541890" lat="62.0939204483" lon="5.37475995658">
		<tag k="bridge" v="yes" />
		<tag k="layer" v="1" />
		<tag k="name" v="Fløde bru" />
		<tag k="ssr:stedsnr" v="47680" />
	</node>
	<node id="-542652" lat="62.0730027786" lon="5.39888611482">
		<tag k="highway" v="path" />
		<tag k="name" v="Dyrestien" />
		<tag k="ssr:stedsnr" v="717993" />
	</node>
	<node id="-541753" lat="62.0216472202" lon="5.35844445236">
		<tag k="bridge" v="yes" />
		<tag k="layer" v="1" />
		<tag k="name" v="Salt Lille" />
		<tag k="ssr:stedsnr" v="411658" />
	</node>
	<node id="-541752" lat="62.0206694473" lon="5.4290305637">
		<tag k="bridge" v="yes" />
		<tag k="layer" v="1" />
		<tag k="name" v="Berstad" />
		<tag k="ssr:stedsnr" v="411655" />
	</node>
	<node id="-542389" lat="62.1286694442" lon="5.15734444953">
		<tag k="man_made" v="breakwater" />
		<tag k="name" v="Børstholmen" />
		<tag k="place" v="locality" />
		<tag k="ssr:stedsnr" v="542677" />
	</node>
	<node id="-542899" lat="62.121061108" lon="5.30286111336">
		<tag k="junction" v="yes" />
		<tag k="name" v="Dragesvingen" />
		<tag k="place" v="locality" />
		<tag k="ssr:stedsnr" v="900192" />
	</node>
	<node id="-542514" lat="62.0562249975" lon="5.45374167579">
		<tag k="bridge" v="yes" />
		<tag k="layer" v="1" />
		<tag k="name" v="Stokkevåg" />
		<tag k="ssr:stedsnr" v="654670" />
	</node>
	<node id="-542513" lat="62.0420805548" lon="5.47798611458">
		<tag k="bridge" v="yes" />
		<tag k="layer" v="1" />
		<tag k="name" v="Kvamme" />
		<tag k="ssr:stedsnr" v="654669" />
	</node>
	<node id="-542512" lat="62.16400556" lon="5.172261115">
		<tag k="bridge" v="yes" />
		<tag k="layer" v="1" />
		<tag k="name" v="Ferstad" />
		<tag k="ssr:stedsnr" v="654668" />
	</node>
	<node id="-542511" lat="61.9738583372" lon="5.23138888461">
		<tag k="bridge" v="yes" />
		<tag k="layer" v="1" />
		<tag k="name" v="Flatraket" />
		<tag k="ssr:stedsnr" v="654665" />
	</node>
	<node id="-542510" lat="61.9805527767" lon="5.3071138948">
		<tag k="bridge" v="yes" />
		<tag k="layer" v="1" />
		<tag k="name" v="Flister Undergang" />
		<tag k="ssr:stedsnr" v="654663" />
	</node>
	<node id="-542509" lat="61.9793500017" lon="5.31640556002">
		<tag k="bridge" v="yes" />
		<tag k="layer" v="1" />
		<tag k="name" v="Flister" />
		<tag k="ssr:stedsnr" v="654664" />
	</node>
	<node id="-541609" lat="62.1080166673" lon="5.27707221476">
		<tag k="barrier" v="lift_gate" />
		<tag k="name" v="Gamlevegen" />
		<tag k="place" v="locality" />
		<tag k="ssr:stedsnr" v="293871" />
	</node>
	<node id="-541596" lat="62.1866331153" lon="5.12749447531">
		<tag k="man_made" v="cairn" />
		<tag k="name" v="Kjerringa" />
		<tag k="place" v="locality" />
		<tag k="ssr:stedsnr" v="293304" />
	</node>
	<node id="-541969" lat="61.9871333299" lon="5.31899167127">
		<tag k="bridge" v="yes" />
		<tag k="layer" v="1" />
		<tag k="name" v="Flisterhorn" />
		<tag k="ssr:stedsnr" v="108679" />
	</node>
	<node id="-541584" lat="62.0473388886" lon="5.318302781">
		<tag k="landuse" v="harbour" />
		<tag k="name" v="Hamna" />
		<tag k="seamark:type" v="harbour" />
		<tag k="ssr:stedsnr" v="292956" />
	</node>
	<node id="-541582" lat="62.0347722202" lon="5.39151943961">
		<tag k="man_made" v="quay" />
		<tag k="name" v="Hartmannsbryggja" />
		<tag k="place" v="locality" />
		<tag k="ssr:stedsnr" v="292919" />
	</node>
	<node id="-542340" lat="62.1100333336" lon="5.33986388838">
		<tag k="bridge" v="yes" />
		<tag k="layer" v="1" />
		<tag k="name" v="Sande" />
		<tag k="ssr:stedsnr" v="533695" />
	</node>
</osm>
