<?xml version="1.0" encoding="UTF-8"?>
<osm generator="osmapis" version="0.6">
	<node id="-541695" lat="62.1797250002" lon="5.17285277481">
		<tag k="name" v="Myrstad" />
		<tag k="place" v="farm" />
		<tag k="ssr:stedsnr" v="617756" />
	</node>
	<node id="-541694" lat="62.1813138901" lon="5.17117221318">
		<tag k="name" v="Støylsmyra" />
		<tag k="place" v="farm" />
		<tag k="ssr:stedsnr" v="617752" />
	</node>
	<node id="-541183" lat="62.0497361069" lon="5.31794443629">
		<tag k="name" v="Bø" />
		<tag k="place" v="farm" />
		<tag k="ssr:stedsnr" v="110945" />
	</node>
	<node id="-542200" lat="62.1231083348" lon="5.16769722156">
		<tag k="fixme" v="consider place=hamlet" />
		<tag k="name" v="Hoddevika" />
		<tag k="place" v="farm" />
		<tag k="ssr:stedsnr" v="960179" />
	</node>
	<node id="-541687" lat="62.1019963944" lon="5.13176097173">
		<tag k="alt_name" v="Fure, ytre" />
		<tag k="name" v="Ytre Fure" />
		<tag k="place" v="farm" />
		<tag k="ssr:stedsnr" v="617680" />
	</node>
	<node id="-541684" lat="62.151856722" lon="5.29466603448">
		<tag k="fixme" v="consider place=hamlet" />
		<tag k="name" v="Borgundvågen" />
		<tag k="place" v="farm" />
		<tag k="ssr:stedsnr" v="617545" />
	</node>
	<node id="-541683" lat="62.1185960688" lon="5.31578639893">
		<tag k="fixme" v="consider place=hamlet" />
		<tag k="name" v="Leikanger" />
		<tag k="place" v="village" />
		<tag k="ssr:stedsnr" v="617495" />
	</node>
	<node id="-541681" lat="62.1373484423" lon="5.2367473336">
		<tag k="fixme" v="consider place=hamlet" />
		<tag k="name" v="Sætra" />
		<tag k="place" v="farm" />
		<tag k="ssr:stedsnr" v="617462" />
	</node>
	<node id="-541680" lat="62.0444027793" lon="5.34738610751">
		<tag k="name" v="Selje" />
		<tag k="place" v="village" />
		<tag k="ssr:stedsnr" v="617405" />
	</node>
	<node id="-541678" lat="62.0553889811" lon="5.441469812">
		<tag k="fixme" v="consider place=hamlet" />
		<tag k="name" v="Sletteberget" />
		<tag k="place" v="farm" />
		<tag k="ssr:stedsnr" v="617370" />
	</node>
	<node id="-541675" lat="62.008278673" lon="5.45372949491">
		<tag k="fixme" v="consider place=hamlet" />
		<tag k="name" v="Teigen" />
		<tag k="place" v="farm" />
		<tag k="ssr:stedsnr" v="617228" />
	</node>
	<node id="-542184" lat="62.0425500035" lon="5.33982778301">
		<tag k="name" v="Klokkarvika" />
		<tag k="place" v="farm" />
		<tag k="ssr:stedsnr" v="959941" />
	</node>
	<node id="-541158" lat="62.1252138925" lon="5.30154722504">
		<tag k="name" v="Stave" />
		<tag k="place" v="quarter" />
		<tag k="ssr:stedsnr" v="103264" />
	</node>
	<node id="-541669" lat="61.959728893" lon="5.3051578475">
		<tag k="fixme" v="consider place=hamlet" />
		<tag k="name" v="Kvernevika" />
		<tag k="place" v="farm" />
		<tag k="ssr:stedsnr" v="616799" />
	</node>
	<node id="-541155" lat="62.1137883168" lon="5.32605120559">
		<tag k="fixme" v="consider place=hamlet" />
		<tag k="name" v="Nedre Sjåstad" />
		<tag k="place" v="farm" />
		<tag k="ssr:stedsnr" v="81143" />
	</node>
	<node id="-541153" lat="62.0756950376" lon="5.31361091936">
		<tag k="fixme" v="consider place=hamlet" />
		<tag k="name" v="Skorbøen" />
		<tag k="place" v="farm" />
		<tag k="ssr:stedsnr" v="72389" />
	</node>
	<node id="-541150" lat="62.0121673766" lon="5.41269922065">
		<tag k="fixme" v="consider place=hamlet" />
		<tag k="name" v="Berstad" />
		<tag k="place" v="farm" />
		<tag k="ssr:stedsnr" v="72188" />
	</node>
	<node id="-541149" lat="62.1877272924" lon="5.16234333783">
		<tag k="fixme" v="consider place=hamlet" />
		<tag k="name" v="Årvika" />
		<tag k="place" v="farm" />
		<tag k="ssr:stedsnr" v="71760" />
	</node>
	<node id="-541147" lat="62.1016444473" lon="5.14578611475">
		<tag k="name" v="Køyla" />
		<tag k="place" v="locality" />
		<tag k="ssr:stedsnr" v="71717" />
	</node>
	<node id="-542170" lat="62.0027333288" lon="5.40942221518">
		<tag k="name" v="Stølen" />
		<tag k="place" v="locality" />
		<tag k="ssr:stedsnr" v="959593" />
	</node>
	<node id="-541144" lat="62.1458692219" lon="5.30764653082">
		<tag k="alt_name" v="Firkort" />
		<tag k="fixme" v="consider place=hamlet" />
		<tag k="name" v="Vik" />
		<tag k="place" v="farm" />
		<tag k="ssr:stedsnr" v="71482" />
	</node>
	<node id="-541655" lat="62.0044499997" lon="5.26052222901">
		<tag k="name" v="Solvåg" />
		<tag k="place" v="farm" />
		<tag k="ssr:stedsnr" v="596767" />
	</node>
	<node id="-541652" lat="61.9586583362" lon="5.23651944024">
		<tag k="historic" v="shieling" />
		<tag k="name" v="Setrekupene" />
		<tag k="place" v="locality" />
		<tag k="ssr:stedsnr" v="596719" />
	</node>
	<node id="-542163" lat="62.0097333334" lon="5.31397500329">
		<tag k="name" v="Strandsa" />
		<tag k="place" v="farm" />
		<tag k="ssr:stedsnr" v="959031" />
	</node>
	<node id="-541138" lat="62.0218638898" lon="5.35183055867">
		<tag k="name" v="Sjøaker" />
		<tag k="place" v="farm" />
		<tag k="ssr:stedsnr" v="56881" />
	</node>
	<node id="-542160" lat="62.0435472266" lon="5.3650222282">
		<tag k="name" v="Djupedalen" />
		<tag k="place" v="quarter" />
		<tag k="ssr:stedsnr" v="952301" />
	</node>
	<node id="-542159" lat="62.1033584023" lon="5.17183829166">
		<tag k="fixme" v="consider place=hamlet" />
		<tag k="name" v="Indre Fure" />
		<tag k="place" v="farm" />
		<tag k="ssr:stedsnr" v="931317" />
	</node>
	<node id="-542157" lat="62.1924944457" lon="5.20965278491">
		<tag k="name" v="Kvia" />
		<tag k="place" v="farm" />
		<tag k="ssr:stedsnr" v="921754" />
	</node>
	<node id="-541643" lat="62.0115268009" lon="5.47151616089">
		<tag k="fixme" v="consider place=hamlet" />
		<tag k="name" v="Sneide" />
		<tag k="place" v="farm" />
		<tag k="ssr:stedsnr" v="596491" />
	</node>
	<node id="-541267" lat="62.1660194454" lon="5.12344167482">
		<tag k="name" v="Ervik" />
		<tag k="place" v="hamlet" />
		<tag k="ssr:stedsnr" v="170012" />
	</node>
	<node id="-541124" lat="61.9985498146" lon="5.29627871089">
		<tag k="alt_name" v="Barmen Indre" />
		<tag k="fixme" v="consider place=hamlet" />
		<tag k="name" v="Indre Barmen" />
		<tag k="place" v="farm" />
		<tag k="ssr:stedsnr" v="50740" />
	</node>
	<node id="-540832" lat="62.0343388907" lon="5.48620833025">
		<tag k="name" v="Langeneset" />
		<tag k="place" v="farm" />
		<tag k="ssr:stedsnr" v="314292" />
	</node>
	<node id="-541118" lat="62.032388889" lon="5.48157499322">
		<tag k="name" v="Otnes" />
		<tag k="place" v="hamlet" />
		<tag k="ssr:stedsnr" v="50538" />
	</node>
	<node id="-540917" lat="62.1646031986" lon="5.28339935361">
		<tag k="fixme" v="consider place=hamlet" />
		<tag k="name" v="Tungevågen" />
		<tag k="place" v="farm" />
		<tag k="ssr:stedsnr" v="374502" />
	</node>
	<node id="-542140" lat="62.1091841991" lon="5.33882264417">
		<tag k="fixme" v="consider place=hamlet" />
		<tag k="name" v="Sande" />
		<tag k="place" v="farm" />
		<tag k="ssr:stedsnr" v="921404" />
	</node>
	<node id="-542137" lat="62.0536416623" lon="5.34776666613">
		<tag k="name" v="Grytingane" />
		<tag k="place" v="farm" />
		<tag k="ssr:stedsnr" v="921398" />
	</node>
	<node id="-541623" lat="61.9972861082" lon="5.38449722565">
		<tag k="historic" v="shieling" />
		<tag k="name" v="Dyrstad" />
		<tag k="place" v="locality" />
		<tag k="ssr:stedsnr" v="595593" />
	</node>
	<node id="-542130" lat="62.0288059407" lon="5.35163309135">
		<tag k="fixme" v="consider place=hamlet" />
		<tag k="name" v="Salt" />
		<tag k="place" v="farm" />
		<tag k="ssr:stedsnr" v="921263" />
	</node>
	<node id="-542129" lat="62.0001336555" lon="5.33307033949">
		<tag k="fixme" v="consider place=hamlet" />
		<tag k="name" v="Rundereim" />
		<tag k="place" v="farm" />
		<tag k="ssr:stedsnr" v="921222" />
	</node>
	<node id="-542128" lat="62.0121805545" lon="5.46626111979">
		<tag k="name" v="Sneide" />
		<tag k="place" v="farm" />
		<tag k="ssr:stedsnr" v="921207" />
	</node>
	<node id="-541614" lat="62.1337653293" lon="5.27441276232">
		<tag k="fixme" v="consider place=hamlet" />
		<tag k="name" v="Dalskaret" />
		<tag k="place" v="farm" />
		<tag k="ssr:stedsnr" v="557468" />
	</node>
	<node id="-542122" lat="61.966752266" lon="5.26221683364">
		<tag k="fixme" v="consider place=hamlet" />
		<tag k="name" v="Vengen" />
		<tag k="place" v="farm" />
		<tag k="ssr:stedsnr" v="920773" />
	</node>
	<node id="-541608" lat="62.0578470492" lon="5.45244862588">
		<tag k="fixme" v="consider place=hamlet" />
		<tag k="name" v="Stokkevågen" />
		<tag k="place" v="farm" />
		<tag k="ssr:stedsnr" v="557324" />
	</node>
	<node id="-542119" lat="62.1260599262" lon="5.31038385914">
		<tag k="fixme" v="consider place=hamlet" />
		<tag k="name" v="Stave" />
		<tag k="place" v="farm" />
		<tag k="ssr:stedsnr" v="920453" />
	</node>
	<node id="-541603" lat="61.965785831" lon="5.30009045839">
		<tag k="fixme" v="consider place=hamlet" />
		<tag k="name" v="Vetrhus" />
		<tag k="place" v="farm" />
		<tag k="ssr:stedsnr" v="556775" />
	</node>
	<node id="-542105" lat="61.9742138893" lon="5.2113027712">
		<tag k="fixme" v="consider place=hamlet" />
		<tag k="name" v="Gangeskar" />
		<tag k="place" v="farm" />
		<tag k="ssr:stedsnr" v="900747" />
	</node>
	<node id="-541079" lat="62.1183555548" lon="5.17986667092">
		<tag k="name" v="Hoddevika" />
		<tag k="place" v="farm" />
		<tag k="ssr:stedsnr" v="24169" />
	</node>
	<node id="-541590" lat="62.144211114" lon="5.2223444373">
		<tag k="name" v="Leite" />
		<tag k="place" v="farm" />
		<tag k="ssr:stedsnr" v="556498" />
	</node>
	<node id="-541166" lat="62.1301583308" lon="5.17571388586">
		<tag k="name" v="Falkehytta" />
		<tag k="place" v="isolated_dwelling" />
		<tag k="ssr:stedsnr" v="110176" />
	</node>
	<node id="-541586" lat="62.0707736097" lon="5.42695272339">
		<tag k="fixme" v="consider place=hamlet" />
		<tag k="name" v="Sandvika" />
		<tag k="place" v="farm" />
		<tag k="ssr:stedsnr" v="556407" />
	</node>
	<node id="-541072" lat="62.1207138896" lon="5.15222777602">
		<tag k="name" v="Furestøylen" />
		<tag k="place" v="locality" />
		<tag k="ssr:stedsnr" v="11704" />
	</node>
	<node id="-540824" lat="62.196180554" lon="5.20411389683">
		<tag k="name" v="Myra" />
		<tag k="place" v="farm" />
		<tag k="ssr:stedsnr" v="56201" />
	</node>
	<node id="-541069" lat="62.1409310633" lon="5.24612574363">
		<tag k="fixme" v="consider place=hamlet" />
		<tag k="name" v="Nygard" />
		<tag k="place" v="farm" />
		<tag k="ssr:stedsnr" v="11432" />
	</node>
	<node id="-541067" lat="62.0800474931" lon="5.29317201308">
		<tag k="fixme" v="consider place=hamlet" />
		<tag k="name" v="Årdalen" />
		<tag k="place" v="farm" />
		<tag k="ssr:stedsnr" v="11413" />
	</node>
	<node id="-541065" lat="62.1061416658" lon="5.24254722132">
		<tag k="alt_name" v="Drage Indre" />
		<tag k="name" v="Drage" />
		<tag k="place" v="farm" />
		<tag k="ssr:stedsnr" v="11378" />
	</node>
	<node id="-541064" lat="62.1029978025" lon="5.24807013882">
		<tag k="fixme" v="consider place=hamlet" />
		<tag k="name" v="Austmyr" />
		<tag k="place" v="farm" />
		<tag k="ssr:stedsnr" v="11377" />
	</node>
	<node id="-541061" lat="62.0211980771" lon="5.39201005764">
		<tag k="fixme" v="consider place=hamlet" />
		<tag k="name" v="Hatleneset" />
		<tag k="place" v="farm" />
		<tag k="ssr:stedsnr" v="11289" />
	</node>
	<node id="-541060" lat="62.0156784505" lon="5.46813056578">
		<tag k="fixme" v="consider place=hamlet" />
		<tag k="name" v="Bakkebøen" />
		<tag k="place" v="farm" />
		<tag k="ssr:stedsnr" v="11287" />
	</node>
	<node id="-541078" lat="62.1185194487" lon="5.17474721382">
		<tag k="name" v="Hoddevika" />
		<tag k="place" v="farm" />
		<tag k="ssr:stedsnr" v="24131" />
	</node>
	<node id="-541056" lat="61.9875110129" lon="5.25994476224">
		<tag k="fixme" v="consider place=hamlet" />
		<tag k="name" v="Venøya" />
		<tag k="place" v="farm" />
		<tag k="ssr:stedsnr" v="10881" />
	</node>
	<node id="-541054" lat="61.9781249958" lon="5.31773610565">
		<tag k="name" v="Øyra" />
		<tag k="place" v="farm" />
		<tag k="ssr:stedsnr" v="10771" />
	</node>
	<node id="-541051" lat="62.0422833375" lon="5.31701388884">
		<tag k="name" v="Elshaug" />
		<tag k="place" v="farm" />
		<tag k="ssr:stedsnr" v="10261" />
	</node>
	<node id="-541050" lat="62.063652775" lon="5.33556666074">
		<tag k="name" v="Liset" />
		<tag k="place" v="farm" />
		<tag k="ssr:stedsnr" v="413987" />
	</node>
	<node id="-541049" lat="62.0561472178" lon="5.34660554706">
		<tag k="name" v="Stranda" />
		<tag k="place" v="hamlet" />
		<tag k="ssr:stedsnr" v="413984" />
	</node>
	<node id="-542072" lat="62.1179611125" lon="5.18150833815">
		<tag k="name" v="Hoddevika" />
		<tag k="place" v="farm" />
		<tag k="ssr:stedsnr" v="874205" />
	</node>
	<node id="-542071" lat="62.1205138886" lon="5.17210276978">
		<tag k="name" v="Hoddevika" />
		<tag k="place" v="farm" />
		<tag k="ssr:stedsnr" v="874204" />
	</node>
	<node id="-542070" lat="62.1015213931" lon="5.13295210886">
		<tag k="fixme" v="consider place=hamlet" />
		<tag k="name" v="Ytre Fure" />
		<tag k="place" v="farm" />
		<tag k="ssr:stedsnr" v="870323" />
	</node>
	<node id="-541556" lat="62.0806027797" lon="5.2854833413">
		<tag k="name" v="Rydejorda" />
		<tag k="place" v="farm" />
		<tag k="ssr:stedsnr" v="535819" />
	</node>
	<node id="-542067" lat="62.1229249995" lon="5.17011666024">
		<tag k="name" v="Hoddevika" />
		<tag k="place" v="farm" />
		<tag k="ssr:stedsnr" v="861685" />
	</node>
	<node id="-542066" lat="62.1567482457" lon="5.19655807985">
		<tag k="fixme" v="consider place=hamlet" />
		<tag k="name" v="Bellen" />
		<tag k="place" v="farm" />
		<tag k="ssr:stedsnr" v="861660" />
	</node>
	<node id="-542065" lat="62.1530728491" lon="5.20480016417">
		<tag k="fixme" v="consider place=hamlet" />
		<tag k="name" v="Svedhaug" />
		<tag k="place" v="farm" />
		<tag k="ssr:stedsnr" v="861658" />
	</node>
	<node id="-541552" lat="61.9695450901" lon="5.23346807686">
		<tag k="fixme" v="consider place=hamlet" />
		<tag k="name" v="Oreseter" />
		<tag k="place" v="farm" />
		<tag k="ssr:stedsnr" v="535738" />
	</node>
	<node id="-542061" lat="62.0858090927" lon="5.39405383393">
		<tag k="fixme" v="consider place=hamlet" />
		<tag k="name" v="Otneim" />
		<tag k="place" v="farm" />
		<tag k="ssr:stedsnr" v="861383" />
	</node>
	<node id="-542057" lat="62.0113467592" lon="5.4642337561">
		<tag k="fixme" v="consider place=hamlet" />
		<tag k="name" v="Litle Kjøde" />
		<tag k="place" v="farm" />
		<tag k="ssr:stedsnr" v="861174" />
	</node>
	<node id="-542056" lat="61.9803999976" lon="5.30838611061">
		<tag k="name" v="Flister" />
		<tag k="place" v="farm" />
		<tag k="ssr:stedsnr" v="860795" />
	</node>
	<node id="-542049" lat="62.1524916654" lon="5.29654444303">
		<tag k="fixme" v="consider place=hamlet" />
		<tag k="name" v="Borgundvåg" />
		<tag k="place" v="village" />
		<tag k="ssr:stedsnr" v="860568" />
	</node>
	<node id="-542045" lat="62.1252750002" lon="5.30489723123">
		<tag k="name" v="Øvrebø" />
		<tag k="place" v="farm" />
		<tag k="ssr:stedsnr" v="860513" />
	</node>
	<node id="-542043" lat="62.0940092006" lon="5.37116688208">
		<tag k="fixme" v="consider place=hamlet" />
		<tag k="name" v="Fløde" />
		<tag k="place" v="farm" />
		<tag k="ssr:stedsnr" v="860487" />
	</node>
	<node id="-542038" lat="62.0301999999" lon="5.48178889827">
		<tag k="name" v="Indrebø" />
		<tag k="place" v="farm" />
		<tag k="ssr:stedsnr" v="860375" />
	</node>
	<node id="-542037" lat="62.0231230331" lon="5.29060820685">
		<tag k="fixme" v="consider place=hamlet" />
		<tag k="name" v="Røyset" />
		<tag k="place" v="farm" />
		<tag k="ssr:stedsnr" v="860360" />
	</node>
	<node id="-542036" lat="62.0234035624" lon="5.36305904435">
		<tag k="fixme" v="consider place=hamlet" />
		<tag k="name" v="Moldestad" />
		<tag k="place" v="farm" />
		<tag k="ssr:stedsnr" v="860359" />
	</node>
	<node id="-541522" lat="62.1028584263" lon="5.17313825616">
		<tag k="alt_name" v="Fure, indre" />
		<tag k="name" v="Indre Fure" />
		<tag k="place" v="farm" />
		<tag k="ssr:stedsnr" v="496676" />
	</node>
	<node id="-542032" lat="62.0055510274" lon="5.25873257844">
		<tag k="fixme" v="consider place=hamlet" />
		<tag k="name" v="Svinevika" />
		<tag k="place" v="farm" />
		<tag k="ssr:stedsnr" v="860237" />
	</node>
	<node id="-541519" lat="62.1434777764" lon="5.22479722786">
		<tag k="name" v="Lyngbø" />
		<tag k="place" v="farm" />
		<tag k="ssr:stedsnr" v="496486" />
	</node>
	<node id="-542029" lat="62.0066861103" lon="5.31235277793">
		<tag k="name" v="Hornsetra" />
		<tag k="place" v="locality" />
		<tag k="ssr:stedsnr" v="845710" />
	</node>
	<node id="-542028" lat="62.0055999992" lon="5.2606555492">
		<tag k="name" v="Bakkebøen" />
		<tag k="place" v="farm" />
		<tag k="ssr:stedsnr" v="845622" />
	</node>
	<node id="-541514" lat="62.0541305595" lon="5.45996943887">
		<tag k="name" v="Myrvoll" />
		<tag k="place" v="farm" />
		<tag k="ssr:stedsnr" v="496369" />
	</node>
	<node id="-541513" lat="62.0614502887" lon="5.44092587683">
		<tag k="fixme" v="consider place=hamlet" />
		<tag k="name" v="Årsheim" />
		<tag k="place" v="farm" />
		<tag k="ssr:stedsnr" v="496350" />
	</node>
	<node id="-542024" lat="62.1099108108" lon="5.327045047">
		<tag k="name" v="Øvre Sjåstad" />
		<tag k="place" v="farm" />
		<tag k="ssr:stedsnr" v="839803" />
	</node>
	<node id="-542023" lat="61.9739222228" lon="5.22976110527">
		<tag k="fixme" v="consider place=hamlet" />
		<tag k="name" v="Flatraket" />
		<tag k="place" v="village" />
		<tag k="ssr:stedsnr" v="839795" />
	</node>
	<node id="-541510" lat="62.0205798835" lon="5.42721612812">
		<tag k="fixme" v="consider place=hamlet" />
		<tag k="name" v="Eide" />
		<tag k="place" v="farm" />
		<tag k="ssr:stedsnr" v="496309" />
	</node>
	<node id="-541503" lat="61.9714666671" lon="5.2346083369">
		<tag k="name" v="Flatraket" />
		<tag k="place" v="quarter" />
		<tag k="ssr:stedsnr" v="467276" />
	</node>
	<node id="-541501" lat="62.1210805579" lon="5.17080278664">
		<tag k="name" v="Hoddevika" />
		<tag k="place" v="farm" />
		<tag k="ssr:stedsnr" v="449144" />
	</node>
	<node id="-541499" lat="62.1983649473" lon="5.18641842611">
		<tag k="fixme" v="consider place=hamlet" />
		<tag k="name" v="Ytre Honningsvågen" />
		<tag k="place" v="farm" />
		<tag k="ssr:stedsnr" v="445303" />
	</node>
	<node id="-541498" lat="62.1106388855" lon="5.32450555748">
		<tag k="name" v="Myra" />
		<tag k="place" v="farm" />
		<tag k="ssr:stedsnr" v="444321" />
	</node>
	<node id="-541494" lat="62.1001107566" lon="5.35545680318">
		<tag k="fixme" v="consider place=hamlet" />
		<tag k="name" v="Lundabrekke" />
		<tag k="place" v="farm" />
		<tag k="ssr:stedsnr" v="436399" />
	</node>
	<node id="-541492" lat="62.0683638892" lon="5.43938611996">
		<tag k="name" v="Nyhagen" />
		<tag k="place" v="farm" />
		<tag k="ssr:stedsnr" v="436312" />
	</node>
	<node id="-541486" lat="61.9753151936" lon="5.23528682025">
		<tag k="fixme" v="consider place=hamlet" />
		<tag k="name" v="Flatraket" />
		<tag k="place" v="farm" />
		<tag k="ssr:stedsnr" v="435774" />
	</node>
	<node id="-540973" lat="62.1558944429" lon="5.27468333052">
		<tag k="historic" v="shieling" />
		<tag k="name" v="Stølen" />
		<tag k="place" v="locality" />
		<tag k="ssr:stedsnr" v="474136" />
	</node>
	<node id="-540972" lat="62.1460499962" lon="5.3087583311">
		<tag k="name" v="Firkort" />
		<tag k="place" v="farm" />
		<tag k="ssr:stedsnr" v="474125" />
	</node>
	<node id="-541994" lat="62.0366249964" lon="5.36223055416">
		<tag k="alt_name" v="Hammervik;Hammersvik" />
		<tag k="fixme" v="consider place=hamlet" />
		<tag k="name" v="Hamarsvik" />
		<tag k="place" v="farm" />
		<tag k="ssr:stedsnr" v="838926" />
	</node>
	<node id="-541476" lat="62.0433472259" lon="5.31613889125">
		<tag k="name" v="Heimly" />
		<tag k="place" v="farm" />
		<tag k="ssr:stedsnr" v="435408" />
	</node>
	<node id="-540963" lat="61.9924388898" lon="5.40774999848">
		<tag k="historic" v="shieling" />
		<tag k="name" v="Ablestølen" />
		<tag k="place" v="locality" />
		<tag k="ssr:stedsnr" v="413636" />
	</node>
	<node id="-541473" lat="62.0367340129" lon="5.34672373801">
		<tag k="alt_name" v="Krakereidet" />
		<tag k="fixme" v="consider place=hamlet" />
		<tag k="name" v="Reidet" />
		<tag k="place" v="farm" />
		<tag k="ssr:stedsnr" v="435298" />
	</node>
	<node id="-541984" lat="62.1644500039" lon="5.15850555297">
		<tag k="name" v="Søyla" />
		<tag k="place" v="farm" />
		<tag k="ssr:stedsnr" v="838039" />
	</node>
	<node id="-541470" lat="62.0364920175" lon="5.38182559241">
		<tag k="fixme" v="consider place=hamlet" />
		<tag k="name" v="Bortnen" />
		<tag k="place" v="farm" />
		<tag k="ssr:stedsnr" v="435279" />
	</node>
	<node id="-541981" lat="62.0814388903" lon="5.39916110874">
		<tag k="name" v="Rekvika" />
		<tag k="place" v="isolated_dwelling" />
		<tag k="ssr:stedsnr" v="830589" />
	</node>
	<node id="-541980" lat="62.1164444428" lon="5.18563334023">
		<tag k="name" v="Hoddevika" />
		<tag k="place" v="farm" />
		<tag k="ssr:stedsnr" v="813158" />
	</node>
	<node id="-541979" lat="62.1223222222" lon="5.1699999972">
		<tag k="name" v="Hoddevika" />
		<tag k="place" v="farm" />
		<tag k="ssr:stedsnr" v="813125" />
	</node>
	<node id="-541975" lat="62.1650420791" lon="5.12264928938">
		<tag k="fixme" v="consider place=hamlet" />
		<tag k="name" v="Ervika" />
		<tag k="place" v="farm" />
		<tag k="ssr:stedsnr" v="800680" />
	</node>
	<node id="-541973" lat="62.1633843574" lon="5.16849308994">
		<tag k="fixme" v="consider place=hamlet" />
		<tag k="name" v="Ferstad" />
		<tag k="old_name" v="Færstad" />
		<tag k="place" v="farm" />
		<tag k="ssr:stedsnr" v="800678" />
	</node>
	<node id="-540948" lat="62.1256361088" lon="5.1678527694">
		<tag k="name" v="Hoddevika" />
		<tag k="place" v="farm" />
		<tag k="ssr:stedsnr" v="388141" />
	</node>
	<node id="-541457" lat="62.1102027796" lon="5.3087416728">
		<tag k="historic" v="shieling" />
		<tag k="name" v="Kupesetra" />
		<tag k="place" v="locality" />
		<tag k="ssr:stedsnr" v="414849" />
	</node>
	<node id="-540941" lat="62.1619290153" lon="5.17610902596">
		<tag k="fixme" v="consider place=hamlet" />
		<tag k="name" v="Refsnes" />
		<tag k="place" v="farm" />
		<tag k="ssr:stedsnr" v="375670" />
	</node>
	<node id="-541962" lat="62.0156540313" lon="5.47493663452">
		<tag k="fixme" v="consider place=hamlet" />
		<tag k="name" v="Einehaugen" />
		<tag k="place" v="farm" />
		<tag k="ssr:stedsnr" v="800289" />
	</node>
	<node id="-541143" lat="62.0568027144" lon="5.34710778137">
		<tag k="fixme" v="consider place=hamlet" />
		<tag k="name" v="Pileberget" />
		<tag k="place" v="farm" />
		<tag k="ssr:stedsnr" v="71363" />
	</node>
	<node id="-541484" lat="62.1767541139" lon="5.17489392953">
		<tag k="fixme" v="consider place=hamlet" />
		<tag k="name" v="Teigane" />
		<tag k="place" v="farm" />
		<tag k="ssr:stedsnr" v="435751" />
	</node>
	<node id="-541956" lat="62.0390177487" lon="5.35946871068">
		<tag k="fixme" v="consider place=hamlet" />
		<tag k="name" v="Hamre" />
		<tag k="place" v="farm" />
		<tag k="ssr:stedsnr" v="799270" />
	</node>
	<node id="-540929" lat="61.9904361145" lon="5.42521944259">
		<tag k="historic" v="shieling" />
		<tag k="name" v="Rylen" />
		<tag k="place" v="locality" />
		<tag k="ssr:stedsnr" v="374768" />
	</node>
	<node id="-541435" lat="62.1178277798" lon="5.17710556194">
		<tag k="name" v="Hoddevika" />
		<tag k="place" v="farm" />
		<tag k="ssr:stedsnr" v="267153" />
	</node>
	<node id="-541434" lat="62.1937567755" lon="5.20707092868">
		<tag k="fixme" v="consider place=hamlet" />
		<tag k="name" v="Indre Honningsvågen" />
		<tag k="place" v="farm" />
		<tag k="ssr:stedsnr" v="263331" />
	</node>
	<node id="-541430" lat="62.0524694457" lon="5.43871945355">
		<tag k="name" v="Bergedal" />
		<tag k="place" v="farm" />
		<tag k="ssr:stedsnr" v="254316" />
	</node>
	<node id="-541429" lat="62.0561782631" lon="5.47169138339">
		<tag k="fixme" v="consider place=hamlet" />
		<tag k="name" v="Stokke" />
		<tag k="place" v="farm" />
		<tag k="ssr:stedsnr" v="254313" />
	</node>
	<node id="-541939" lat="62.1041222213" lon="5.35051389727">
		<tag k="name" v="Apalset" />
		<tag k="place" v="farm" />
		<tag k="ssr:stedsnr" v="778809" />
	</node>
	<node id="-540914" lat="62.0896805528" lon="5.35873055498">
		<tag k="name" v="Kviteskjerven" />
		<tag k="place" v="isolated_dwelling" />
		<tag k="ssr:stedsnr" v="374424" />
	</node>
	<node id="-540912" lat="61.9490807779" lon="5.29414291263">
		<tag k="fixme" v="consider place=hamlet" />
		<tag k="name" v="Nordpollen" />
		<tag k="place" v="farm" />
		<tag k="ssr:stedsnr" v="373788" />
	</node>
	<node id="-541935" lat="61.998816761" lon="5.28651416463">
		<tag k="alt_name" v="Barmen Ytre" />
		<tag k="fixme" v="consider place=hamlet" />
		<tag k="name" v="Ytre Barmen" />
		<tag k="place" v="farm" />
		<tag k="ssr:stedsnr" v="778779" />
	</node>
	<node id="-541934" lat="61.9734916706" lon="5.23239166843">
		<tag k="name" v="Bakken" />
		<tag k="place" v="farm" />
		<tag k="ssr:stedsnr" v="778734" />
	</node>
	<node id="-540904" lat="62.0637583327" lon="5.33743610169">
		<tag k="name" v="Ytste Liaseter" />
		<tag k="place" v="farm" />
		<tag k="ssr:stedsnr" v="360553" />
	</node>
	<node id="-541413" lat="62.1087026927" lon="5.34836041122">
		<tag k="fixme" v="consider place=hamlet" />
		<tag k="name" v="Nollen" />
		<tag k="place" v="farm" />
		<tag k="ssr:stedsnr" v="253432" />
	</node>
	<node id="-540900" lat="62.197250003" lon="5.20051666494">
		<tag k="name" v="Kyrkjeneshaugen" />
		<tag k="place" v="farm" />
		<tag k="ssr:stedsnr" v="359219" />
	</node>
	<node id="-541408" lat="62.0336237489" lon="5.40412061244">
		<tag k="fixme" v="consider place=hamlet" />
		<tag k="name" v="Lesto" />
		<tag k="place" v="farm" />
		<tag k="ssr:stedsnr" v="253292" />
	</node>
	<node id="-541407" lat="62.0363750033" lon="5.39274444435">
		<tag k="name" v="Berge" />
		<tag k="place" v="farm" />
		<tag k="ssr:stedsnr" v="253288" />
	</node>
	<node id="-541404" lat="61.9850063344" lon="5.28986577412">
		<tag k="fixme" v="consider place=hamlet" />
		<tag k="name" v="Sandvik" />
		<tag k="place" v="farm" />
		<tag k="ssr:stedsnr" v="252730" />
	</node>
	<node id="-541403" lat="61.9653833354" lon="5.30100277748">
		<tag k="name" v="Kroken" />
		<tag k="place" v="isolated_dwelling" />
		<tag k="ssr:stedsnr" v="238882" />
	</node>
	<node id="-541913" lat="62.0735305512" lon="5.3941527813">
		<tag k="historic" v="shieling" />
		<tag k="name" v="Nesestølen" />
		<tag k="place" v="locality" />
		<tag k="ssr:stedsnr" v="777991" />
	</node>
	<node id="-541400" lat="62.1569499981" lon="5.32516111072">
		<tag k="alt_name" v="Klovet" />
		<tag k="name" v="Kløvet" />
		<tag k="place" v="farm" />
		<tag k="ssr:stedsnr" v="232867" />
	</node>
	<node id="-541905" lat="62.0546361131" lon="5.36484722477">
		<tag k="historic" v="shieling" />
		<tag k="name" v="Setra" />
		<tag k="place" v="locality" />
		<tag k="ssr:stedsnr" v="777945" />
	</node>
	<node id="-541392" lat="61.9832519074" lon="5.30496732355">
		<tag k="fixme" v="consider place=hamlet" />
		<tag k="name" v="Flister" />
		<tag k="place" v="farm" />
		<tag k="ssr:stedsnr" v="232773" />
	</node>
	<node id="-541900" lat="61.9951861127" lon="5.33629445259">
		<tag k="name" v="Midtlegane" />
		<tag k="place" v="farm" />
		<tag k="ssr:stedsnr" v="777872" />
	</node>
	<node id="-540874" lat="62.0486444432" lon="5.31858054946">
		<tag k="name" v="Selja" />
		<tag k="place" v="hamlet" />
		<tag k="ssr:stedsnr" v="352938" />
	</node>
	<node id="-541891" lat="62.1278611145" lon="5.16353332915">
		<tag k="name" v="Hoddevika" />
		<tag k="place" v="farm" />
		<tag k="ssr:stedsnr" v="752176" />
	</node>
	<node id="-541376" lat="62.1035916691" lon="5.2359416582">
		<tag k="alt_name" v="Ytste Drage;Drage Ytre" />
		<tag k="name" v="Ytre Drage" />
		<tag k="place" v="hamlet" />
		<tag k="ssr:stedsnr" v="232155" />
	</node>
	<node id="-541472" lat="62.0415867585" lon="5.36658035751">
		<tag k="fixme" v="consider place=hamlet" />
		<tag k="name" v="Djupedalen" />
		<tag k="place" v="farm" />
		<tag k="ssr:stedsnr" v="435297" />
	</node>
	<node id="-541882" lat="62.1743472203" lon="5.18405000442">
		<tag k="name" v="Råke" />
		<tag k="place" v="farm" />
		<tag k="ssr:stedsnr" v="739697" />
	</node>
	<node id="-541616" lat="62.1474734434" lon="5.21089012781">
		<tag k="fixme" v="consider place=hamlet" />
		<tag k="name" v="Dalsbøen" />
		<tag k="place" v="farm" />
		<tag k="ssr:stedsnr" v="557684" />
	</node>
	<node id="-541871" lat="62.0756274297" lon="5.41640432346">
		<tag k="fixme" v="consider place=hamlet" />
		<tag k="name" v="Sandvikneset" />
		<tag k="place" v="farm" />
		<tag k="ssr:stedsnr" v="739313" />
	</node>
	<node id="-541869" lat="62.0631337855" lon="5.34012566168">
		<tag k="fixme" v="consider place=hamlet" />
		<tag k="name" v="Liset" />
		<tag k="place" v="farm" />
		<tag k="ssr:stedsnr" v="739299" />
	</node>
	<node id="-541868" lat="62.0217729559" lon="5.35719511122">
		<tag k="alt_name" v="Lillesalt" />
		<tag k="fixme" v="consider place=hamlet" />
		<tag k="name" v="Litlesalt" />
		<tag k="place" v="farm" />
		<tag k="ssr:stedsnr" v="739279" />
	</node>
	<node id="-541554" lat="62.1089166637" lon="5.34828889816">
		<tag k="name" v="Sandnes" />
		<tag k="place" v="hamlet" />
		<tag k="ssr:stedsnr" v="535796" />
	</node>
	<node id="-540842" lat="62.1089724178" lon="5.32594140397">
		<tag k="fixme" v="consider place=hamlet" />
		<tag k="name" v="Øvre Sjåstad" />
		<tag k="place" v="farm" />
		<tag k="ssr:stedsnr" v="314427" />
	</node>
	<node id="-541865" lat="61.9985377911" lon="5.29239949848">
		<tag k="name" v="Barmen" />
		<tag k="place" v="hamlet" />
		<tag k="ssr:stedsnr" v="738887" />
	</node>
	<node id="-540839" lat="62.0508305513" lon="5.46979167033">
		<tag k="name" v="Lyngnes" />
		<tag k="place" v="farm" />
		<tag k="ssr:stedsnr" v="314379" />
	</node>
	<node id="-541041" lat="62.0380212966" lon="5.38573243757">
		<tag k="alt_name" v="Berge Øvre" />
		<tag k="name" v="Øvre Berge" />
		<tag k="place" v="hamlet" />
		<tag k="ssr:stedsnr" v="413939" />
	</node>
	<node id="-540834" lat="62.043038219" lon="5.47688484931">
		<tag k="fixme" v="consider place=hamlet" />
		<tag k="name" v="Kvamme" />
		<tag k="place" v="farm" />
		<tag k="ssr:stedsnr" v="314302" />
	</node>
	<node id="-541345" lat="61.9970861093" lon="5.4356388984">
		<tag k="alt_name" v="Lauvadalen" />
		<tag k="historic" v="shieling" />
		<tag k="name" v="Kjødssætra" />
		<tag k="place" v="locality" />
		<tag k="ssr:stedsnr" v="202885" />
	</node>
	<node id="-541344" lat="62.1936811671" lon="5.18439784395">
		<tag k="fixme" v="consider place=hamlet" />
		<tag k="name" v="Stranda" />
		<tag k="place" v="farm" />
		<tag k="ssr:stedsnr" v="193715" />
	</node>
	<node id="-540831" lat="62.0132619636" lon="5.49331919962">
		<tag k="fixme" v="consider place=hamlet" />
		<tag k="name" v="Skorge" />
		<tag k="place" v="farm" />
		<tag k="ssr:stedsnr" v="314215" />
	</node>
	<node id="-540827" lat="61.957883797" lon="5.27244669041">
		<tag k="fixme" v="consider place=hamlet" />
		<tag k="name" v="Håvik" />
		<tag k="place" v="farm" />
		<tag k="ssr:stedsnr" v="313809" />
	</node>
	<node id="-541336" lat="62.1543121389" lon="5.31045002636">
		<tag k="fixme" v="consider place=hamlet" />
		<tag k="name" v="Borgund" />
		<tag k="place" v="farm" />
		<tag k="ssr:stedsnr" v="193475" />
	</node>
	<node id="-541335" lat="62.136258333" lon="5.26551667591">
		<tag k="name" v="Morka" />
		<tag k="place" v="farm" />
		<tag k="ssr:stedsnr" v="193455" />
	</node>
	<node id="-541334" lat="62.1050288737" lon="5.34939847433">
		<tag k="fixme" v="consider place=hamlet" />
		<tag k="name" v="Apalset" />
		<tag k="place" v="farm" />
		<tag k="ssr:stedsnr" v="193398" />
	</node>
	<node id="-541332" lat="62.0255166692" lon="5.27165554898">
		<tag k="name" v="Ekrevoll" />
		<tag k="place" v="farm" />
		<tag k="ssr:stedsnr" v="193300" />
	</node>
	<node id="-541331" lat="62.0139960538" lon="5.40243613471">
		<tag k="alt_name" v="Øren" />
		<tag k="fixme" v="consider place=hamlet" />
		<tag k="name" v="Øyra" />
		<tag k="place" v="farm" />
		<tag k="ssr:stedsnr" v="193287" />
	</node>
	<node id="-541325" lat="61.9844027756" lon="5.45290000802">
		<tag k="historic" v="shieling" />
		<tag k="name" v="Skorgesætra" />
		<tag k="place" v="locality" />
		<tag k="ssr:stedsnr" v="192792" />
	</node>
	<node id="-541427" lat="62.0058930242" lon="5.45148294488">
		<tag k="fixme" v="consider place=hamlet" />
		<tag k="name" v="Store Kjøde" />
		<tag k="place" v="farm" />
		<tag k="ssr:stedsnr" v="254173" />
	</node>
	<node id="-541207" lat="61.9654222256" lon="5.32804443982">
		<tag k="historic" v="shieling" />
		<tag k="name" v="Selshaugane" />
		<tag k="place" v="locality" />
		<tag k="ssr:stedsnr" v="111578" />
	</node>
	<node id="-541320" lat="62.0449000028" lon="5.31612221236">
		<tag k="name" v="Tunål" />
		<tag k="place" v="farm" />
		<tag k="ssr:stedsnr" v="192383" />
	</node>
	<node id="-540802" lat="62.003788889" lon="5.45183055905">
		<tag k="name" v="Kjøde" />
		<tag k="place" v="hamlet" />
		<tag k="ssr:stedsnr" v="293549" />
	</node>
	<node id="-541309" lat="62.1587916635" lon="5.327286114">
		<tag k="name" v="Gjylmyra" />
		<tag k="place" v="farm" />
		<tag k="ssr:stedsnr" v="171886" />
	</node>
	<node id="-540932" lat="62.0137335947" lon="5.27229232914">
		<tag k="fixme" v="consider place=hamlet" />
		<tag k="name" v="Myklebust" />
		<tag k="place" v="farm" />
		<tag k="ssr:stedsnr" v="375235" />
	</node>
	<node id="-540792" lat="62.0728527752" lon="5.33886111061">
		<tag k="historic" v="shieling" />
		<tag k="name" v="Tørnesstølen" />
		<tag k="place" v="locality" />
		<tag k="ssr:stedsnr" v="292975" />
	</node>
	<node id="-541157" lat="62.1182749968" lon="5.17629721405">
		<tag k="name" v="Hoddevika" />
		<tag k="place" v="farm" />
		<tag k="ssr:stedsnr" v="85150" />
	</node>
	<node id="-541799" lat="62.1062388888" lon="5.25130278153">
		<tag k="alt_name" v="Inste Drage;Drage Indre" />
		<tag k="name" v="Indre Drage" />
		<tag k="place" v="hamlet" />
		<tag k="ssr:stedsnr" v="717147" />
	</node>
	<node id="-541283" lat="62.0363112293" lon="5.38690546546">
		<tag k="alt_name" v="Berge Nedre" />
		<tag k="name" v="Nedre Berge" />
		<tag k="place" v="hamlet" />
		<tag k="ssr:stedsnr" v="170943" />
	</node>
	<node id="-541790" lat="62.1257111125" lon="5.16836666798">
		<tag k="name" v="Hoddevika" />
		<tag k="place" v="farm" />
		<tag k="ssr:stedsnr" v="692153" />
	</node>
	<node id="-541788" lat="62.1891083316" lon="5.15950832647">
		<tag k="name" v="Årvika" />
		<tag k="place" v="farm" />
		<tag k="ssr:stedsnr" v="678732" />
	</node>
	<node id="-541779" lat="62.1115416707" lon="5.14038332865">
		<tag k="name" v="Karomahytta" />
		<tag k="place" v="isolated_dwelling" />
		<tag k="ssr:stedsnr" v="678671" />
	</node>
	<node id="-541772" lat="62.0659444434" lon="5.44035832898">
		<tag k="name" v="Hauge" />
		<tag k="place" v="farm" />
		<tag k="ssr:stedsnr" v="678347" />
	</node>
	<node id="-541769" lat="61.9947361113" lon="5.33703612032">
		<tag k="name" v="Rundereim" />
		<tag k="place" v="farm" />
		<tag k="ssr:stedsnr" v="677867" />
	</node>
	<node id="-541768" lat="61.9591861147" lon="5.324027779">
		<tag k="historic" v="shieling" />
		<tag k="name" v="Kverneviksætra" />
		<tag k="place" v="locality" />
		<tag k="ssr:stedsnr" v="677800" />
	</node>
	<node id="-541252" lat="62.1391069265" lon="5.31205950911">
		<tag k="fixme" v="consider place=hamlet" />
		<tag k="name" v="Beitveit" />
		<tag k="place" v="farm" />
		<tag k="ssr:stedsnr" v="132421" />
	</node>
	<node id="-540938" lat="62.0473750037" lon="5.31559165739">
		<tag k="name" v="Bø" />
		<tag k="place" v="farm" />
		<tag k="ssr:stedsnr" v="375332" />
	</node>
	<node id="-541754" lat="62.0443888903" lon="5.34614165749">
		<tag k="fixme" v="consider place=hamlet" />
		<tag k="name" v="Hove" />
		<tag k="place" v="farm" />
		<tag k="ssr:stedsnr" v="656955" />
	</node>
	<node id="-541241" lat="61.9656638891" lon="5.32826944274">
		<tag k="historic" v="shieling" />
		<tag k="name" v="Vetrhussætra" />
		<tag k="place" v="locality" />
		<tag k="ssr:stedsnr" v="131798" />
	</node>
	<node id="-541746" lat="62.0836999976" lon="5.28546388559">
		<tag k="historic" v="shieling" />
		<tag k="name" v="Liberstølen" />
		<tag k="place" v="locality" />
		<tag k="ssr:stedsnr" v="656854" />
	</node>
	<node id="-541743" lat="62.1158928829" lon="5.32289105437">
		<tag k="name" v="Nedre Sjåstad" />
		<tag k="place" v="farm" />
		<tag k="ssr:stedsnr" v="656834" />
	</node>
	<node id="-541230" lat="62.0615694482" lon="5.34135832857">
		<tag k="name" v="Inste Liaseter" />
		<tag k="place" v="farm" />
		<tag k="ssr:stedsnr" v="117581" />
	</node>
	<node id="-541740" lat="62.0120138846" lon="5.26324722198">
		<tag k="name" v="Nesjane" />
		<tag k="place" v="farm" />
		<tag k="ssr:stedsnr" v="656803" />
	</node>
	<node id="-541618" lat="62.1849749986" lon="5.2354083408">
		<tag k="loc_name" v="Eltvika" />
		<tag k="name" v="Eltvik" />
		<tag k="place" v="hamlet" />
		<tag k="ssr:stedsnr" v="595005" />
	</node>
	<node id="-541447" lat="62.0065444478" lon="5.25953334017">
		<tag k="name" v="Solvåg" />
		<tag k="place" v="farm" />
		<tag k="ssr:stedsnr" v="414759" />
	</node>
	<node id="-542244" lat="62.035991382" lon="5.38521197472">
		<tag k="fixme" v="consider place=hamlet" />
		<tag k="name" v="Nedre Berge" />
		<tag k="place" v="farm" />
		<tag k="ssr:stedsnr" v="978771" />
	</node>
	<node id="-542243" lat="62.0385450931" lon="5.38539308942">
		<tag k="fixme" v="consider place=hamlet" />
		<tag k="name" v="Øvre Berge" />
		<tag k="place" v="farm" />
		<tag k="ssr:stedsnr" v="978769" />
	</node>
	<node id="-542240" lat="62.1043661904" lon="5.2446983458">
		<tag k="fixme" v="consider place=hamlet" />
		<tag k="name" v="Indre Drage" />
		<tag k="place" v="farm" />
		<tag k="ssr:stedsnr" v="978609" />
	</node>
	<node id="-542239" lat="62.1045292116" lon="5.23635467596">
		<tag k="fixme" v="consider place=hamlet" />
		<tag k="name" v="Ytre Drage" />
		<tag k="place" v="farm" />
		<tag k="ssr:stedsnr" v="978608" />
	</node>
	<node id="-542238" lat="62.1194797028" lon="5.31078196474">
		<tag k="fixme" v="consider place=hamlet" />
		<tag k="name" v="Leikanger" />
		<tag k="place" v="farm" />
		<tag k="ssr:stedsnr" v="978597" />
	</node>
	<node id="-542237" lat="62.0330130341" lon="5.48371928481">
		<tag k="fixme" v="consider place=hamlet" />
		<tag k="name" v="Otnes" />
		<tag k="place" v="farm" />
		<tag k="ssr:stedsnr" v="978591" />
	</node>
	<node id="-540847" lat="62.1857419225" lon="5.23112127432">
		<tag k="fixme" v="consider place=hamlet" />
		<tag k="name" v="Eltvika" />
		<tag k="place" v="farm" />
		<tag k="ssr:stedsnr" v="314581" />
	</node>
	<node id="-541444" lat="61.9737472229" lon="5.22316111995">
		<tag k="fixme" v="consider place=hamlet" />
		<tag k="name" v="Kupa" />
		<tag k="place" v="farm" />
		<tag k="ssr:stedsnr" v="414723" />
	</node>
	<node id="-541764" lat="62.0500638847" lon="5.31798611018">
		<tag k="name" v="Nordbø" />
		<tag k="place" v="farm" />
		<tag k="ssr:stedsnr" v="678404" />
	</node>
	<node id="-542228" lat="61.9989138931" lon="5.33223611679">
		<tag k="name" v="Gulestein" />
		<tag k="place" v="isolated_dwelling" />
		<tag k="ssr:stedsnr" v="966678" />
	</node>
	<node id="-541202" lat="62.1986888877" lon="5.18089999425">
		<tag k="alt_name" v="Honningsvåg, ytre" />
		<tag k="name" v="Ytre Honningsvåg" />
		<tag k="place" v="farm" />
		<tag k="ssr:stedsnr" v="111497" />
	</node>
	<node id="-541356" lat="61.9942805568" lon="5.38518333455">
		<tag k="historic" v="shieling" />
		<tag k="name" v="Setra" />
		<tag k="place" v="locality" />
		<tag k="ssr:stedsnr" v="231677" />
	</node>
	<node id="-542213" lat="61.9739545428" lon="5.2549182184">
		<tag k="fixme" v="consider place=hamlet" />
		<tag k="name" v="Seljenes" />
		<tag k="place" v="farm" />
		<tag k="ssr:stedsnr" v="960727" />
	</node>
	<node id="-542209" lat="62.0197999981" lon="5.4610083381">
		<tag k="historic" v="shieling" />
		<tag k="name" v="Setra" />
		<tag k="place" v="locality" />
		<tag k="ssr:stedsnr" v="960553" />
	</node>
</osm>
