<?xml version="1.0" encoding="UTF-8"?>
<osm generator="osmapis" version="0.6">
	<node id="-542236" lat="62.0069076507" lon="5.36635799907">
		<tag k="fixme" v="consider natural=peak for the most distinct mountains in the district" />
		<tag k="name" v="Saltahornet" />
		<tag k="natural" v="hill" />
		<tag k="ssr:stedsnr" v="977545" />
	</node>
	<node id="-542218" lat="61.9728947609" lon="5.20789006472">
		<tag k="name" v="Gangeskaret" />
		<tag k="natural" v="valley" />
		<tag k="place" v="locality" />
		<tag k="ssr:stedsnr" v="963787" />
	</node>
	<node id="-542217" lat="62.1006444431" lon="5.28306665874">
		<tag k="name" v="Svorene" />
		<tag k="natural" v="slope" />
		<tag k="place" v="locality" />
		<tag k="ssr:stedsnr" v="960850" />
	</node>
	<node id="-542216" lat="62.0990444441" lon="5.29973610861">
		<tag k="name" v="Vardebakkane" />
		<tag k="natural" v="slope" />
		<tag k="place" v="locality" />
		<tag k="ssr:stedsnr" v="960831" />
	</node>
	<node id="-542215" lat="62.1050305526" lon="5.34268333092">
		<tag k="name" v="Storeskaret" />
		<tag k="natural" v="valley" />
		<tag k="place" v="locality" />
		<tag k="ssr:stedsnr" v="960796" />
	</node>
	<node id="-542212" lat="62.1802749955" lon="5.10511943813">
		<tag k="name" v="Storura" />
		<tag k="place" v="locality" />
		<tag k="ssr:stedsnr" v="960724" />
	</node>
	<node id="-542211" lat="61.9773305546" lon="5.33673889519">
		<tag k="name" v="Austadlasberget" />
		<tag k="natural" v="hill" />
		<tag k="place" v="locality" />
		<tag k="ssr:stedsnr" v="960603" />
	</node>
	<node id="-542208" lat="62.0246527798" lon="5.46138334094">
		<tag k="name" v="Otnesdalen" />
		<tag k="natural" v="valley" />
		<tag k="place" v="locality" />
		<tag k="ssr:stedsnr" v="960545" />
	</node>
	<node id="-542207" lat="62.0002388925" lon="5.44092500166">
		<tag k="fixme" v="consider natural=peak for the most distinct mountains in the district" />
		<tag k="name" v="Åsen" />
		<tag k="natural" v="hill" />
		<tag k="place" v="locality" />
		<tag k="ssr:stedsnr" v="960537" />
	</node>
	<node id="-542205" lat="62.1762000035" lon="5.20371667487">
		<tag k="name" v="Timreleitet" />
		<tag k="natural" v="slope" />
		<tag k="place" v="locality" />
		<tag k="ssr:stedsnr" v="960230" />
	</node>
	<node id="-542204" lat="62.1676166657" lon="5.26740834006">
		<tag k="fixme" v="consider natural=peak for the most distinct mountains in the district" />
		<tag k="name" v="Tungevåghornet" />
		<tag k="natural" v="hill" />
		<tag k="ssr:stedsnr" v="960207" />
	</node>
	<node id="-542203" lat="62.1636694416" lon="5.27324722035">
		<tag k="name" v="Ystehammaren" />
		<tag k="natural" v="hill" />
		<tag k="place" v="locality" />
		<tag k="ssr:stedsnr" v="960201" />
	</node>
	<node id="-542202" lat="62.1692666703" lon="5.26881111259">
		<tag k="name" v="Kleivbruna" />
		<tag k="natural" v="hill" />
		<tag k="place" v="locality" />
		<tag k="ssr:stedsnr" v="960195" />
	</node>
	<node id="-542201" lat="62.1224166679" lon="5.13864166587">
		<tag k="name" v="Stigen" />
		<tag k="natural" v="hill" />
		<tag k="place" v="locality" />
		<tag k="ssr:stedsnr" v="960182" />
	</node>
	<node id="-542199" lat="62.1193444469" lon="5.21843333553">
		<tag k="name" v="Solemskargjølet" />
		<tag k="natural" v="valley" />
		<tag k="place" v="locality" />
		<tag k="ssr:stedsnr" v="960168" />
	</node>
	<node id="-542197" lat="62.1312194416" lon="5.29457221772">
		<tag k="name" v="Stølshaugen" />
		<tag k="natural" v="hill" />
		<tag k="place" v="locality" />
		<tag k="ssr:stedsnr" v="960157" />
	</node>
	<node id="-542195" lat="62.1185722201" lon="5.28611389856">
		<tag k="name" v="Kupehola" />
		<tag k="place" v="locality" />
		<tag k="ssr:stedsnr" v="960150" />
	</node>
	<node id="-542189" lat="62.072653411" lon="5.37212564025">
		<tag k="name" v="Storehornet" />
		<tag k="natural" v="hill" />
		<tag k="place" v="locality" />
		<tag k="ssr:stedsnr" v="959967" />
	</node>
	<node id="-542187" lat="62.0565083374" lon="5.43718888886">
		<tag k="name" v="Svedene" />
		<tag k="natural" v="slope" />
		<tag k="place" v="locality" />
		<tag k="ssr:stedsnr" v="959957" />
	</node>
	<node id="-542186" lat="62.0509722213" lon="5.40233333779">
		<tag k="name" v="Kopen" />
		<tag k="natural" v="valley" />
		<tag k="place" v="locality" />
		<tag k="ssr:stedsnr" v="959949" />
	</node>
	<node id="-542185" lat="62.0521444404" lon="5.40256944938">
		<tag k="name" v="Kringlehaugen" />
		<tag k="natural" v="hill" />
		<tag k="place" v="locality" />
		<tag k="ssr:stedsnr" v="959948" />
	</node>
	<node id="-542180" lat="62.0451111076" lon="5.42113611902">
		<tag k="name" v="Bergedalsbrunene" />
		<tag k="natural" v="hill" />
		<tag k="place" v="locality" />
		<tag k="ssr:stedsnr" v="959905" />
	</node>
	<node id="-542178" lat="62.0457583289" lon="5.38456944316">
		<tag k="name" v="Johansvingen" />
		<tag k="place" v="locality" />
		<tag k="ssr:stedsnr" v="959901" />
	</node>
	<node id="-542177" lat="62.004797226" lon="5.39931944938">
		<tag k="name" v="Båteskaret" />
		<tag k="natural" v="valley" />
		<tag k="place" v="locality" />
		<tag k="ssr:stedsnr" v="959894" />
	</node>
	<node id="-542175" lat="62.0201944439" lon="5.43309999366">
		<tag k="name" v="Eidsbakken" />
		<tag k="natural" v="slope" />
		<tag k="place" v="locality" />
		<tag k="ssr:stedsnr" v="959875" />
	</node>
	<node id="-542174" lat="61.9360166698" lon="5.29598332344">
		<tag k="name" v="Nyken" />
		<tag k="natural" v="hill" />
		<tag k="place" v="locality" />
		<tag k="ssr:stedsnr" v="959763" />
	</node>
	<node id="-542171" lat="61.9675555544" lon="5.31574721674">
		<tag k="name" v="Blåfjelldalen" />
		<tag k="natural" v="valley" />
		<tag k="place" v="locality" />
		<tag k="ssr:stedsnr" v="959739" />
	</node>
	<node id="-542169" lat="62.0007611125" lon="5.42758610931">
		<tag k="name" v="Venjahola" />
		<tag k="place" v="locality" />
		<tag k="ssr:stedsnr" v="959591" />
	</node>
	<node id="-542168" lat="62.1578166634" lon="5.10089443986">
		<tag k="name" v="Geiteskora" />
		<tag k="natural" v="hill" />
		<tag k="place" v="locality" />
		<tag k="ssr:stedsnr" v="959059" />
	</node>
	<node id="-542167" lat="62.155727774" lon="5.11138611864">
		<tag k="name" v="Fotskora" />
		<tag k="natural" v="hill" />
		<tag k="place" v="locality" />
		<tag k="ssr:stedsnr" v="959056" />
	</node>
	<node id="-542166" lat="62.1569861109" lon="5.14147777155">
		<tag k="name" v="Rabbane" />
		<tag k="natural" v="hill" />
		<tag k="place" v="locality" />
		<tag k="ssr:stedsnr" v="959054" />
	</node>
	<node id="-542165" lat="62.1496611135" lon="5.1414583371">
		<tag k="name" v="Skoteboghornet" />
		<tag k="natural" v="hill" />
		<tag k="place" v="locality" />
		<tag k="ssr:stedsnr" v="959046" />
	</node>
	<node id="-542164" lat="62.1945166704" lon="5.23029444899">
		<tag k="name" v="Tverrhammaren" />
		<tag k="natural" v="hill" />
		<tag k="place" v="locality" />
		<tag k="ssr:stedsnr" v="959036" />
	</node>
	<node id="-542162" lat="62.1744861125" lon="5.11815833205">
		<tag k="name" v="Nipa" />
		<tag k="natural" v="hill" />
		<tag k="place" v="locality" />
		<tag k="ssr:stedsnr" v="959008" />
	</node>
	<node id="-542161" lat="62.1765222184" lon="5.11117500764">
		<tag k="name" v="Riskollen" />
		<tag k="natural" v="hill" />
		<tag k="place" v="locality" />
		<tag k="ssr:stedsnr" v="959003" />
	</node>
	<node id="-542156" lat="62.1777916682" lon="5.19530555977">
		<tag k="name" v="Teigenakken" />
		<tag k="natural" v="hill" />
		<tag k="place" v="locality" />
		<tag k="ssr:stedsnr" v="921752" />
	</node>
	<node id="-542150" lat="62.1646602498" lon="5.09561271037">
		<tag k="name" v="Hovden" />
		<tag k="natural" v="hill" />
		<tag k="place" v="locality" />
		<tag k="ssr:stedsnr" v="921708" />
	</node>
	<node id="-542149" lat="62.1513722225" lon="5.12256944927">
		<tag k="fixme" v="multiple name tags, choose one and add the other to alt_name" />
		<tag k="name" v="Høgefjellet;Nonshornet" />
		<tag k="natural" v="hill" />
		<tag k="place" v="locality" />
		<tag k="ssr:stedsnr" v="921706" />
	</node>
	<node id="-542144" lat="62.129422221" lon="5.27986110602">
		<tag k="alt_name" v="Dalskarhornet" />
		<tag k="fixme" v="consider natural=peak for the most distinct mountains in the district" />
		<tag k="name" v="Morkehorn" />
		<tag k="natural" v="hill" />
		<tag k="place" v="locality" />
		<tag k="ssr:stedsnr" v="921511" />
	</node>
	<node id="-542142" lat="62.0762527788" lon="5.34951388269">
		<tag k="name" v="Flødekupa" />
		<tag k="natural" v="valley" />
		<tag k="place" v="locality" />
		<tag k="ssr:stedsnr" v="921445" />
	</node>
	<node id="-542134" lat="62.0263027793" lon="5.4481527748">
		<tag k="fixme" v="consider natural=peak for the most distinct mountains in the district" />
		<tag k="name" v="Eidshornet" />
		<tag k="natural" v="hill" />
		<tag k="place" v="locality" />
		<tag k="ssr:stedsnr" v="921322" />
	</node>
	<node id="-542125" lat="61.9542888843" lon="5.31293888049">
		<tag k="fixme" v="consider natural=peak for the most distinct mountains in the district" />
		<tag k="name" v="Helrane" />
		<tag k="natural" v="hill" />
		<tag k="place" v="locality" />
		<tag k="ssr:stedsnr" v="920800" />
	</node>
	<node id="-542124" lat="61.9519444433" lon="5.2573611086">
		<tag k="name" v="Tverrberget" />
		<tag k="natural" v="hill" />
		<tag k="place" v="locality" />
		<tag k="ssr:stedsnr" v="920797" />
	</node>
	<node id="-542108" lat="62.1033638868" lon="5.26935000344">
		<tag k="name" v="Elvakrokane" />
		<tag k="place" v="locality" />
		<tag k="ssr:stedsnr" v="900865" />
	</node>
	<node id="-542107" lat="62.1091305543" lon="5.34990555103">
		<tag k="name" v="Nollen" />
		<tag k="place" v="locality" />
		<tag k="ssr:stedsnr" v="900826" />
	</node>
	<node id="-542106" lat="61.9894833299" lon="5.2584166765">
		<tag k="name" v="Mannebeinet" />
		<tag k="natural" v="hill" />
		<tag k="place" v="locality" />
		<tag k="ssr:stedsnr" v="900787" />
	</node>
	<node id="-542104" lat="62.192088892" lon="5.17034166451">
		<tag k="name" v="Kleiva" />
		<tag k="natural" v="slope" />
		<tag k="place" v="locality" />
		<tag k="ssr:stedsnr" v="900736" />
	</node>
	<node id="-542103" lat="62.0476083304" lon="5.4592944403">
		<tag k="name" v="Litledalen" />
		<tag k="natural" v="valley" />
		<tag k="place" v="locality" />
		<tag k="ssr:stedsnr" v="900597" />
	</node>
	<node id="-542100" lat="62.0395250031" lon="5.46959999513">
		<tag k="name" v="Kvamshornet" />
		<tag k="natural" v="hill" />
		<tag k="place" v="locality" />
		<tag k="ssr:stedsnr" v="900580" />
	</node>
	<node id="-542096" lat="62.0150527754" lon="5.47425277293">
		<tag k="name" v="Einerhaugen" />
		<tag k="natural" v="hill" />
		<tag k="place" v="locality" />
		<tag k="ssr:stedsnr" v="900555" />
	</node>
	<node id="-542095" lat="62.012108333" lon="5.46973332832">
		<tag k="name" v="Sneidebakkane" />
		<tag k="natural" v="slope" />
		<tag k="place" v="locality" />
		<tag k="ssr:stedsnr" v="900535" />
	</node>
	<node id="-542094" lat="62.2099694449" lon="5.18679721952">
		<tag k="name" v="Stålseggja" />
		<tag k="natural" v="hill" />
		<tag k="place" v="locality" />
		<tag k="ssr:stedsnr" v="900523" />
	</node>
	<node id="-542091" lat="62.1097000009" lon="5.25256945057">
		<tag k="name" v="Litlelihornet" />
		<tag k="natural" v="hill" />
		<tag k="place" v="locality" />
		<tag k="ssr:stedsnr" v="900201" />
	</node>
	<node id="-542089" lat="62.1143472236" lon="5.26908611332">
		<tag k="name" v="Orredalen" />
		<tag k="natural" v="valley" />
		<tag k="place" v="locality" />
		<tag k="ssr:stedsnr" v="900176" />
	</node>
	<node id="-542088" lat="62.1559083376" lon="5.28011666732">
		<tag k="name" v="Middagshornet" />
		<tag k="natural" v="hill" />
		<tag k="place" v="locality" />
		<tag k="ssr:stedsnr" v="900165" />
	</node>
	<node id="-542087" lat="62.1390861097" lon="5.19836665822">
		<tag k="name" v="Småhorna" />
		<tag k="natural" v="hill" />
		<tag k="place" v="locality" />
		<tag k="ssr:stedsnr" v="900162" />
	</node>
	<node id="-542086" lat="62.1439472226" lon="5.31110832651">
		<tag k="name" v="Firkort" />
		<tag k="natural" v="hill" />
		<tag k="place" v="locality" />
		<tag k="ssr:stedsnr" v="900149" />
	</node>
	<node id="-542085" lat="62.1243388877" lon="5.1984777762">
		<tag k="name" v="Grøtrøysa" />
		<tag k="place" v="locality" />
		<tag k="ssr:stedsnr" v="900143" />
	</node>
	<node id="-542082" lat="62.0625750028" lon="5.42392221266">
		<tag k="name" v="Skjervehornet" />
		<tag k="natural" v="hill" />
		<tag k="place" v="locality" />
		<tag k="ssr:stedsnr" v="899946" />
	</node>
	<node id="-542081" lat="62.0393861139" lon="5.40965277326">
		<tag k="name" v="Blåbærhaugen" />
		<tag k="natural" v="hill" />
		<tag k="place" v="locality" />
		<tag k="ssr:stedsnr" v="899933" />
	</node>
	<node id="-542079" lat="62.042333333" lon="5.41214722205">
		<tag k="name" v="Nausaflala" />
		<tag k="place" v="locality" />
		<tag k="ssr:stedsnr" v="899915" />
	</node>
	<node id="-542077" lat="62.0886416701" lon="5.37853332646">
		<tag k="name" v="Lægdene" />
		<tag k="natural" v="hill" />
		<tag k="place" v="locality" />
		<tag k="ssr:stedsnr" v="899788" />
	</node>
	<node id="-542075" lat="61.9475527782" lon="5.24529165912">
		<tag k="name" v="Hestedalen" />
		<tag k="natural" v="valley" />
		<tag k="place" v="locality" />
		<tag k="ssr:stedsnr" v="899781" />
	</node>
	<node id="-542069" lat="62.057030559" lon="5.38538888124">
		<tag k="fixme" v="consider natural=peak for the most distinct mountains in the district" />
		<tag k="name" v="Orren" />
		<tag k="natural" v="hill" />
		<tag k="place" v="locality" />
		<tag k="ssr:stedsnr" v="870157" />
	</node>
	<node id="-542068" lat="62.1867861128" lon="5.12679723053">
		<tag k="fixme" v="consider natural=peak for the most distinct mountains in the district" />
		<tag k="name" v="Vestkapp" />
		<tag k="natural" v="hill" />
		<tag k="place" v="locality" />
		<tag k="ssr:stedsnr" v="870109" />
	</node>
	<node id="-542064" lat="62.1563916624" lon="5.14948055349">
		<tag k="name" v="Lemmane" />
		<tag k="natural" v="valley" />
		<tag k="place" v="locality" />
		<tag k="ssr:stedsnr" v="861654" />
	</node>
	<node id="-542063" lat="62.1306305558" lon="5.24715277679">
		<tag k="name" v="Nobba" />
		<tag k="natural" v="hill" />
		<tag k="place" v="locality" />
		<tag k="ssr:stedsnr" v="861459" />
	</node>
	<node id="-542054" lat="62.1033333325" lon="5.12656111534">
		<tag k="alt_name" v="Hornet" />
		<tag k="name" v="Furehornet" />
		<tag k="natural" v="hill" />
		<tag k="place" v="locality" />
		<tag k="ssr:stedsnr" v="860714" />
	</node>
	<node id="-542050" lat="62.1805916643" lon="5.24016388704">
		<tag k="fixme" v="consider natural=peak for the most distinct mountains in the district" />
		<tag k="name" v="Eltvikevarden" />
		<tag k="natural" v="hill" />
		<tag k="place" v="locality" />
		<tag k="ssr:stedsnr" v="860598" />
	</node>
	<node id="-542041" lat="62.1007416687" lon="5.29578332373">
		<tag k="fixme" v="consider natural=peak for the most distinct mountains in the district" />
		<tag k="name" v="Skreiatua" />
		<tag k="natural" v="hill" />
		<tag k="place" v="locality" />
		<tag k="ssr:stedsnr" v="860441" />
	</node>
	<node id="-542033" lat="62.0361083323" lon="5.44295277929">
		<tag k="fixme" v="consider natural=peak for the most distinct mountains in the district" />
		<tag k="name" v="Storefjellet" />
		<tag k="natural" v="hill" />
		<tag k="place" v="locality" />
		<tag k="ssr:stedsnr" v="860295" />
	</node>
	<node id="-542020" lat="62.0236972241" lon="5.30207499065">
		<tag k="name" v="Keilaberget" />
		<tag k="natural" v="hill" />
		<tag k="place" v="locality" />
		<tag k="ssr:stedsnr" v="839778" />
	</node>
	<node id="-542018" lat="62.042561113" lon="5.31501665959">
		<tag k="name" v="Ilshaugen" />
		<tag k="natural" v="hill" />
		<tag k="place" v="locality" />
		<tag k="ssr:stedsnr" v="839771" />
	</node>
	<node id="-542011" lat="62.0364722225" lon="5.45693610474">
		<tag k="name" v="Botnen" />
		<tag k="natural" v="valley" />
		<tag k="place" v="locality" />
		<tag k="ssr:stedsnr" v="839594" />
	</node>
	<node id="-542010" lat="62.0448472257" lon="5.46170277743">
		<tag k="fixme" v="consider natural=peak for the most distinct mountains in the district" />
		<tag k="name" v="Storefjell" />
		<tag k="natural" v="hill" />
		<tag k="place" v="locality" />
		<tag k="ssr:stedsnr" v="839581" />
	</node>
	<node id="-542009" lat="62.0102527736" lon="5.44099723073">
		<tag k="name" v="Høggeggane" />
		<tag k="natural" v="hill" />
		<tag k="place" v="locality" />
		<tag k="ssr:stedsnr" v="839577" />
	</node>
	<node id="-542008" lat="62.0155833329" lon="5.45361944866">
		<tag k="name" v="Korsen" />
		<tag k="place" v="locality" />
		<tag k="ssr:stedsnr" v="839575" />
	</node>
	<node id="-542007" lat="61.9952277762" lon="5.46032777498">
		<tag k="name" v="Bratteskaret" />
		<tag k="natural" v="valley" />
		<tag k="place" v="locality" />
		<tag k="ssr:stedsnr" v="839558" />
	</node>
	<node id="-542006" lat="62.2043500028" lon="5.18915000446">
		<tag k="name" v="Storebruna" />
		<tag k="natural" v="hill" />
		<tag k="place" v="locality" />
		<tag k="ssr:stedsnr" v="839533" />
	</node>
	<node id="-542005" lat="62.158322224" lon="5.20950277174">
		<tag k="name" v="Bakkelegane" />
		<tag k="natural" v="slope" />
		<tag k="place" v="locality" />
		<tag k="ssr:stedsnr" v="839239" />
	</node>
	<node id="-542004" lat="62.1201916696" lon="5.14158610694">
		<tag k="name" v="Maraftahornet" />
		<tag k="natural" v="hill" />
		<tag k="place" v="locality" />
		<tag k="ssr:stedsnr" v="839196" />
	</node>
	<node id="-542003" lat="62.1065333346" lon="5.12099999496">
		<tag k="name" v="Kaldekloven" />
		<tag k="natural" v="valley" />
		<tag k="place" v="locality" />
		<tag k="ssr:stedsnr" v="839184" />
	</node>
	<node id="-542001" lat="62.1158083336" lon="5.20944166019">
		<tag k="name" v="Raudegrøtet" />
		<tag k="natural" v="valley" />
		<tag k="place" v="locality" />
		<tag k="ssr:stedsnr" v="839180" />
	</node>
	<node id="-542000" lat="62.1202111149" lon="5.26736112007">
		<tag k="name" v="Halvarekongshaugen" />
		<tag k="natural" v="hill" />
		<tag k="place" v="locality" />
		<tag k="ssr:stedsnr" v="839163" />
	</node>
	<node id="-541999" lat="62.1128694407" lon="5.30460000275">
		<tag k="name" v="Vardeleitet" />
		<tag k="natural" v="slope" />
		<tag k="place" v="locality" />
		<tag k="ssr:stedsnr" v="839155" />
	</node>
	<node id="-541998" lat="62.1490944442" lon="5.23034166391">
		<tag k="name" v="Litlegnullen" />
		<tag k="natural" v="hill" />
		<tag k="place" v="locality" />
		<tag k="ssr:stedsnr" v="839130" />
	</node>
	<node id="-541997" lat="62.1386972205" lon="5.26220000787">
		<tag k="name" v="Morkaberget" />
		<tag k="natural" v="hill" />
		<tag k="place" v="locality" />
		<tag k="ssr:stedsnr" v="839124" />
	</node>
	<node id="-541995" lat="62.0398111136" lon="5.40197499819">
		<tag k="name" v="Trolleskarhaugen" />
		<tag k="natural" v="hill" />
		<tag k="place" v="locality" />
		<tag k="ssr:stedsnr" v="838940" />
	</node>
	<node id="-541992" lat="62.0882972224" lon="5.32211945303">
		<tag k="name" v="Litlegeithornet" />
		<tag k="natural" v="hill" />
		<tag k="place" v="locality" />
		<tag k="ssr:stedsnr" v="838803" />
	</node>
	<node id="-541991" lat="62.1459194446" lon="5.14701388983">
		<tag k="name" v="Torsteinrabben" />
		<tag k="natural" v="ridge" />
		<tag k="place" v="locality" />
		<tag k="ssr:stedsnr" v="838250" />
	</node>
	<node id="-541989" lat="62.1568861091" lon="5.10682777741">
		<tag k="name" v="Breieskaret" />
		<tag k="natural" v="valley" />
		<tag k="place" v="locality" />
		<tag k="ssr:stedsnr" v="838062" />
	</node>
	<node id="-541987" lat="62.151861115" lon="5.1097083252">
		<tag k="name" v="Lisnesgjøtten" />
		<tag k="natural" v="valley" />
		<tag k="place" v="locality" />
		<tag k="ssr:stedsnr" v="838055" />
	</node>
	<node id="-541986" lat="62.1515611113" lon="5.13226110946">
		<tag k="name" v="Selen" />
		<tag k="natural" v="hill" />
		<tag k="place" v="locality" />
		<tag k="ssr:stedsnr" v="838051" />
	</node>
	<node id="-541985" lat="62.1533777758" lon="5.14133056292">
		<tag k="name" v="Hornbakkane" />
		<tag k="natural" v="slope" />
		<tag k="place" v="locality" />
		<tag k="ssr:stedsnr" v="838046" />
	</node>
	<node id="-541982" lat="62.1710444452" lon="5.1130027696">
		<tag k="name" v="Skaret" />
		<tag k="natural" v="valley" />
		<tag k="place" v="locality" />
		<tag k="ssr:stedsnr" v="838016" />
	</node>
	<node id="-541977" lat="62.1874888917" lon="5.20833888902">
		<tag k="alt_name" v="Buskaret" />
		<tag k="name" v="Buskardet" />
		<tag k="natural" v="valley" />
		<tag k="place" v="locality" />
		<tag k="ssr:stedsnr" v="800709" />
	</node>
	<node id="-541976" lat="62.1692194468" lon="5.15955277242">
		<tag k="fixme" v="consider natural=peak for the most distinct mountains in the district" />
		<tag k="name" v="Årvikfjellet" />
		<tag k="natural" v="hill" />
		<tag k="place" v="locality" />
		<tag k="ssr:stedsnr" v="800682" />
	</node>
	<node id="-541971" lat="62.1148527824" lon="5.18945000385">
		<tag k="name" v="Senggrova" />
		<tag k="natural" v="valley" />
		<tag k="place" v="locality" />
		<tag k="ssr:stedsnr" v="800659" />
	</node>
	<node id="-541970" lat="62.14706111" lon="5.28479721788">
		<tag k="name" v="Kupa" />
		<tag k="natural" v="valley" />
		<tag k="place" v="locality" />
		<tag k="ssr:stedsnr" v="800454" />
	</node>
	<node id="-541968" lat="62.0870083371" lon="5.27204166882">
		<tag k="fixme" v="consider natural=peak for the most distinct mountains in the district" />
		<tag k="name" v="Libbera" />
		<tag k="natural" v="hill" />
		<tag k="place" v="locality" />
		<tag k="ssr:stedsnr" v="800415" />
	</node>
	<node id="-541966" lat="62.0762361115" lon="5.33422500652">
		<tag k="alt_name" v="Høgegga" />
		<tag k="fixme" v="consider natural=peak for the most distinct mountains in the district" />
		<tag k="name" v="Kongereggja" />
		<tag k="natural" v="hill" />
		<tag k="place" v="locality" />
		<tag k="ssr:stedsnr" v="800399" />
	</node>
	<node id="-541959" lat="62.1735527752" lon="5.22558055156">
		<tag k="fixme" v="consider natural=peak for the most distinct mountains in the district" />
		<tag k="name" v="Eltvikehornet" />
		<tag k="natural" v="hill" />
		<tag k="place" v="locality" />
		<tag k="ssr:stedsnr" v="799511" />
	</node>
	<node id="-541955" lat="62.0331083359" lon="5.42258055263">
		<tag k="fixme" v="consider natural=peak for the most distinct mountains in the district" />
		<tag k="name" v="Lestohornet" />
		<tag k="natural" v="hill" />
		<tag k="place" v="locality" />
		<tag k="ssr:stedsnr" v="799260" />
	</node>
	<node id="-541949" lat="62.1027055527" lon="5.20622500504">
		<tag k="name" v="Tenden" />
		<tag k="place" v="locality" />
		<tag k="ssr:stedsnr" v="783217" />
	</node>
	<node id="-541945" lat="62.1047055558" lon="5.28880277045">
		<tag k="name" v="Setredalen" />
		<tag k="natural" v="valley" />
		<tag k="place" v="locality" />
		<tag k="ssr:stedsnr" v="778859" />
	</node>
	<node id="-541944" lat="62.0933972236" lon="5.27236388304">
		<tag k="name" v="Dyrevenova" />
		<tag k="natural" v="hill" />
		<tag k="place" v="locality" />
		<tag k="ssr:stedsnr" v="778856" />
	</node>
	<node id="-541943" lat="62.1062638851" lon="5.29257500381">
		<tag k="name" v="Setrehaugen" />
		<tag k="natural" v="hill" />
		<tag k="place" v="locality" />
		<tag k="ssr:stedsnr" v="778847" />
	</node>
	<node id="-541942" lat="62.1034499989" lon="5.26194444642">
		<tag k="name" v="Grønevollen" />
		<tag k="natural" v="slope" />
		<tag k="place" v="locality" />
		<tag k="ssr:stedsnr" v="778844" />
	</node>
	<node id="-541940" lat="62.0833500038" lon="5.29665556082">
		<tag k="name" v="Årdalsgjølet" />
		<tag k="natural" v="valley" />
		<tag k="place" v="locality" />
		<tag k="ssr:stedsnr" v="778815" />
	</node>
	<node id="-541938" lat="62.1085111098" lon="5.34570556197">
		<tag k="name" v="Nollahaugen" />
		<tag k="natural" v="hill" />
		<tag k="place" v="locality" />
		<tag k="ssr:stedsnr" v="778800" />
	</node>
	<node id="-541932" lat="61.9744916666" lon="5.32494722055">
		<tag k="name" v="Kleiva" />
		<tag k="natural" v="slope" />
		<tag k="place" v="locality" />
		<tag k="ssr:stedsnr" v="778607" />
	</node>
	<node id="-541931" lat="61.978222218" lon="5.32843610616">
		<tag k="name" v="Hjulskorhammaren" />
		<tag k="natural" v="cliff" />
		<tag k="ssr:stedsnr" v="778606" />
	</node>
	<node id="-541930" lat="61.9806749976" lon="5.35691388566">
		<tag k="name" v="Vauleskaret" />
		<tag k="natural" v="valley" />
		<tag k="place" v="locality" />
		<tag k="ssr:stedsnr" v="778604" />
	</node>
	<node id="-541929" lat="61.9772749997" lon="5.34705277361">
		<tag k="name" v="Såtehaugen" />
		<tag k="natural" v="hill" />
		<tag k="place" v="locality" />
		<tag k="ssr:stedsnr" v="778594" />
	</node>
	<node id="-541925" lat="62.1010194428" lon="5.15739165875">
		<tag k="name" v="Lygaren" />
		<tag k="place" v="locality" />
		<tag k="ssr:stedsnr" v="778230" />
	</node>
	<node id="-541923" lat="62.1577694403" lon="5.19801666158">
		<tag k="name" v="Stupegjølet" />
		<tag k="natural" v="valley" />
		<tag k="place" v="locality" />
		<tag k="ssr:stedsnr" v="778220" />
	</node>
	<node id="-541918" lat="62.1077861138" lon="5.243263893">
		<tag k="name" v="Sysvorthammaren" />
		<tag k="natural" v="hill" />
		<tag k="place" v="locality" />
		<tag k="ssr:stedsnr" v="778183" />
	</node>
	<node id="-541917" lat="62.1284305593" lon="5.28652777856">
		<tag k="name" v="Halsen" />
		<tag k="natural" v="ridge" />
		<tag k="place" v="locality" />
		<tag k="ssr:stedsnr" v="778174" />
	</node>
	<node id="-541916" lat="62.1152277752" lon="5.25741388435">
		<tag k="name" v="Storevarden" />
		<tag k="natural" v="hill" />
		<tag k="place" v="locality" />
		<tag k="ssr:stedsnr" v="778158" />
	</node>
	<node id="-541914" lat="62.0777666682" lon="5.41756943787">
		<tag k="name" v="Ørnehaugen" />
		<tag k="natural" v="hill" />
		<tag k="place" v="locality" />
		<tag k="ssr:stedsnr" v="777998" />
	</node>
	<node id="-541912" lat="62.0724472212" lon="5.41384723173">
		<tag k="name" v="Rekevikskaret" />
		<tag k="natural" v="valley" />
		<tag k="place" v="locality" />
		<tag k="ssr:stedsnr" v="777990" />
	</node>
	<node id="-541904" lat="62.0612777818" lon="5.39381388472">
		<tag k="name" v="Vassdalen" />
		<tag k="natural" v="valley" />
		<tag k="place" v="locality" />
		<tag k="ssr:stedsnr" v="777932" />
	</node>
	<node id="-541903" lat="62.0360055593" lon="5.40520278402">
		<tag k="name" v="Vadhammaren" />
		<tag k="natural" v="hill" />
		<tag k="place" v="locality" />
		<tag k="ssr:stedsnr" v="777917" />
	</node>
	<node id="-541901" lat="62.0100444453" lon="5.41039166614">
		<tag k="name" v="Leite" />
		<tag k="place" v="locality" />
		<tag k="ssr:stedsnr" v="777882" />
	</node>
	<node id="-541898" lat="62.0116305579" lon="5.38463333789">
		<tag k="name" v="Øyradalen" />
		<tag k="natural" v="valley" />
		<tag k="place" v="locality" />
		<tag k="ssr:stedsnr" v="777846" />
	</node>
	<node id="-541897" lat="62.0895972222" lon="5.38601943643">
		<tag k="name" v="Rabben" />
		<tag k="natural" v="hill" />
		<tag k="place" v="locality" />
		<tag k="ssr:stedsnr" v="777767" />
	</node>
	<node id="-541895" lat="61.9991083314" lon="5.4079472229">
		<tag k="name" v="Storvasseggja" />
		<tag k="natural" v="ridge" />
		<tag k="place" v="locality" />
		<tag k="ssr:stedsnr" v="777612" />
	</node>
	<node id="-541894" lat="62.1480000005" lon="5.18540832687">
		<tag k="name" v="Skinhammaren" />
		<tag k="natural" v="hill" />
		<tag k="place" v="locality" />
		<tag k="ssr:stedsnr" v="777203" />
	</node>
	<node id="-541892" lat="62.1684861123" lon="5.1272500081">
		<tag k="name" v="Kvilet" />
		<tag k="natural" v="slope" />
		<tag k="place" v="locality" />
		<tag k="ssr:stedsnr" v="777015" />
	</node>
	<node id="-541889" lat="62.2015795438" lon="5.21251838949">
		<tag k="fixme" v="consider natural=peak for the most distinct mountains in the district" />
		<tag k="name" v="Varaldsfoten" />
		<tag k="natural" v="hill" />
		<tag k="place" v="locality" />
		<tag k="ssr:stedsnr" v="739746" />
	</node>
	<node id="-541887" lat="62.1421111127" lon="5.15112221783">
		<tag k="alt_name" v="Molvikhornet, ytre" />
		<tag k="fixme" v="consider natural=peak for the most distinct mountains in the district" />
		<tag k="name" v="Ytre Molvikhornet" />
		<tag k="natural" v="hill" />
		<tag k="place" v="locality" />
		<tag k="ssr:stedsnr" v="739712" />
	</node>
	<node id="-541881" lat="62.1692694436" lon="5.17560000183">
		<tag k="name" v="Blautmyrhammaren" />
		<tag k="natural" v="hill" />
		<tag k="place" v="locality" />
		<tag k="ssr:stedsnr" v="739696" />
	</node>
	<node id="-541880" lat="62.1118138844" lon="5.15821110885">
		<tag k="alt_name" v="Blåfjell" />
		<tag k="fixme" v="consider natural=peak for the most distinct mountains in the district" />
		<tag k="name" v="Blåfjellet" />
		<tag k="natural" v="hill" />
		<tag k="place" v="locality" />
		<tag k="ssr:stedsnr" v="739661" />
	</node>
	<node id="-541876" lat="62.0927472237" lon="5.2553472162">
		<tag k="name" v="Lunden" />
		<tag k="place" v="locality" />
		<tag k="ssr:stedsnr" v="739422" />
	</node>
	<node id="-541874" lat="62.1061231136" lon="5.29339071775">
		<tag k="fixme" v="consider natural=peak for the most distinct mountains in the district" />
		<tag k="name" v="Bukken" />
		<tag k="natural" v="hill" />
		<tag k="place" v="locality" />
		<tag k="ssr:stedsnr" v="739365" />
	</node>
	<node id="-541873" lat="62.0989805527" lon="5.31968333201">
		<tag k="name" v="Myretua" />
		<tag k="natural" v="hill" />
		<tag k="place" v="locality" />
		<tag k="ssr:stedsnr" v="739364" />
	</node>
	<node id="-541866" lat="61.9979749972" lon="5.42068333328">
		<tag k="fixme" v="consider natural=peak for the most distinct mountains in the district" />
		<tag k="name" v="Kvasstua" />
		<tag k="natural" v="hill" />
		<tag k="place" v="locality" />
		<tag k="ssr:stedsnr" v="738897" />
	</node>
	<node id="-541863" lat="61.9628916702" lon="5.22640555208">
		<tag k="name" v="Flatraksdalen" />
		<tag k="natural" v="valley" />
		<tag k="place" v="locality" />
		<tag k="ssr:stedsnr" v="738788" />
	</node>
	<node id="-541862" lat="61.9951833298" lon="5.44891389804">
		<tag k="fixme" v="consider natural=peak for the most distinct mountains in the district" />
		<tag k="name" v="Nipa" />
		<tag k="natural" v="hill" />
		<tag k="place" v="locality" />
		<tag k="ssr:stedsnr" v="738760" />
	</node>
	<node id="-541859" lat="62.1223527793" lon="5.22693054718">
		<tag k="fixme" v="consider natural=peak for the most distinct mountains in the district" />
		<tag k="name" v="Langedalsnibba" />
		<tag k="natural" v="hill" />
		<tag k="place" v="locality" />
		<tag k="ssr:stedsnr" v="738450" />
	</node>
	<node id="-541858" lat="62.0459166657" lon="5.40916666628">
		<tag k="name" v="Nausane" />
		<tag k="natural" v="hill" />
		<tag k="place" v="locality" />
		<tag k="ssr:stedsnr" v="738280" />
	</node>
	<node id="-541842" lat="62.0818861074" lon="5.38542777448">
		<tag k="name" v="Hestholhammaren" />
		<tag k="natural" v="hill" />
		<tag k="place" v="locality" />
		<tag k="ssr:stedsnr" v="717984" />
	</node>
	<node id="-541841" lat="62.0757305598" lon="5.34158334219">
		<tag k="name" v="Sandeskaret" />
		<tag k="natural" v="valley" />
		<tag k="place" v="locality" />
		<tag k="ssr:stedsnr" v="717982" />
	</node>
	<node id="-541840" lat="62.0671527756" lon="5.36208611948">
		<tag k="name" v="Tarvaldsdalen" />
		<tag k="natural" v="valley" />
		<tag k="place" v="locality" />
		<tag k="ssr:stedsnr" v="717973" />
	</node>
	<node id="-541836" lat="62.0455861096" lon="5.37404999786">
		<tag k="name" v="Botnen" />
		<tag k="natural" v="valley" />
		<tag k="place" v="locality" />
		<tag k="ssr:stedsnr" v="717919" />
	</node>
	<node id="-541835" lat="62.0441777791" lon="5.38026944247">
		<tag k="name" v="Botnen" />
		<tag k="natural" v="valley" />
		<tag k="place" v="locality" />
		<tag k="ssr:stedsnr" v="717913" />
	</node>
	<node id="-541833" lat="62.0070722178" lon="5.33663332974">
		<tag k="name" v="Setane" />
		<tag k="natural" v="slope" />
		<tag k="place" v="locality" />
		<tag k="ssr:stedsnr" v="717888" />
	</node>
	<node id="-541832" lat="62.0100916662" lon="5.34308610334">
		<tag k="name" v="Nakkane" />
		<tag k="natural" v="hill" />
		<tag k="place" v="locality" />
		<tag k="ssr:stedsnr" v="717887" />
	</node>
	<node id="-541831" lat="62.1664638899" lon="5.32473333946">
		<tag k="name" v="Nedre Gjellen" />
		<tag k="natural" v="hill" />
		<tag k="place" v="locality" />
		<tag k="ssr:stedsnr" v="717877" />
	</node>
	<node id="-541828" lat="62.1081499957" lon="5.26886388468">
		<tag k="name" v="Ruskarberget" />
		<tag k="natural" v="hill" />
		<tag k="place" v="locality" />
		<tag k="ssr:stedsnr" v="717842" />
	</node>
	<node id="-541827" lat="62.0488138929" lon="5.29683332927">
		<tag k="name" v="Klosterfjellet" />
		<tag k="natural" v="hill" />
		<tag k="place" v="locality" />
		<tag k="ssr:stedsnr" v="717839" />
	</node>
	<node id="-541826" lat="62.0881305556" lon="5.2896888809">
		<tag k="name" v="Melkaskaret" />
		<tag k="natural" v="valley" />
		<tag k="place" v="locality" />
		<tag k="ssr:stedsnr" v="717837" />
	</node>
	<node id="-541824" lat="62.0846305566" lon="5.2733388792">
		<tag k="name" v="Maragjølet" />
		<tag k="natural" v="valley" />
		<tag k="place" v="locality" />
		<tag k="ssr:stedsnr" v="717832" />
	</node>
	<node id="-541823" lat="62.0832583317" lon="5.29216944617">
		<tag k="name" v="Årdalshornet" />
		<tag k="natural" v="hill" />
		<tag k="place" v="locality" />
		<tag k="ssr:stedsnr" v="717828" />
	</node>
	<node id="-541822" lat="62.0925361101" lon="5.31802778107">
		<tag k="name" v="Geitehornbakkane" />
		<tag k="natural" v="slope" />
		<tag k="place" v="locality" />
		<tag k="ssr:stedsnr" v="717817" />
	</node>
	<node id="-541818" lat="62.1818500036" lon="5.10267500732">
		<tag k="name" v="Storurgavlen" />
		<tag k="place" v="locality" />
		<tag k="ssr:stedsnr" v="717738" />
	</node>
	<node id="-541817" lat="62.1890861114" lon="5.1444222149">
		<tag k="name" v="Årvikhornet" />
		<tag k="natural" v="hill" />
		<tag k="place" v="locality" />
		<tag k="ssr:stedsnr" v="717733" />
	</node>
	<node id="-541812" lat="62.0582833316" lon="5.47667500351">
		<tag k="name" v="Stokkenes" />
		<tag k="place" v="locality" />
		<tag k="ssr:stedsnr" v="717584" />
	</node>
	<node id="-541809" lat="62.0414250016" lon="5.46523889759">
		<tag k="name" v="Hjellen" />
		<tag k="place" v="locality" />
		<tag k="ssr:stedsnr" v="717571" />
	</node>
	<node id="-541806" lat="62.1356777754" lon="5.1528750067">
		<tag k="name" v="Mannen" />
		<tag k="natural" v="hill" />
		<tag k="place" v="locality" />
		<tag k="ssr:stedsnr" v="717200" />
	</node>
	<node id="-541805" lat="62.1038444468" lon="5.11954444427">
		<tag k="name" v="Kvitefjell" />
		<tag k="natural" v="hill" />
		<tag k="place" v="locality" />
		<tag k="ssr:stedsnr" v="717191" />
	</node>
	<node id="-541804" lat="62.1299083312" lon="5.29019444354">
		<tag k="name" v="Dalskaret" />
		<tag k="natural" v="valley" />
		<tag k="place" v="locality" />
		<tag k="ssr:stedsnr" v="717173" />
	</node>
	<node id="-541803" lat="62.116811112" lon="5.26705278031">
		<tag k="name" v="Vardeskaret" />
		<tag k="natural" v="valley" />
		<tag k="place" v="locality" />
		<tag k="ssr:stedsnr" v="717167" />
	</node>
	<node id="-541802" lat="62.1160861123" lon="5.27777778367">
		<tag k="name" v="Storevassheia" />
		<tag k="natural" v="hill" />
		<tag k="place" v="locality" />
		<tag k="ssr:stedsnr" v="717164" />
	</node>
	<node id="-541800" lat="62.1154555526" lon="5.29349167286">
		<tag k="name" v="Eggane" />
		<tag k="natural" v="slope" />
		<tag k="place" v="locality" />
		<tag k="ssr:stedsnr" v="717156" />
	</node>
	<node id="-541793" lat="62.1750027769" lon="5.16785833523">
		<tag k="name" v="Teigehammaren" />
		<tag k="natural" v="hill" />
		<tag k="place" v="locality" />
		<tag k="ssr:stedsnr" v="717049" />
	</node>
	<node id="-541792" lat="62.1687444409" lon="5.14209444798">
		<tag k="name" v="Trollhammaren" />
		<tag k="natural" v="hill" />
		<tag k="place" v="locality" />
		<tag k="ssr:stedsnr" v="717039" />
	</node>
	<node id="-541791" lat="62.2062444415" lon="5.19104443562">
		<tag k="name" v="Svorahaugene" />
		<tag k="natural" v="hill" />
		<tag k="place" v="locality" />
		<tag k="ssr:stedsnr" v="717006" />
	</node>
	<node id="-541789" lat="62.1538638912" lon="5.11478611422">
		<tag k="fixme" v="consider natural=peak for the most distinct mountains in the district" />
		<tag k="name" v="Nørdrebruna" />
		<tag k="natural" v="hill" />
		<tag k="place" v="locality" />
		<tag k="ssr:stedsnr" v="688323" />
	</node>
	<node id="-541787" lat="62.1771972412" lon="5.14256766547">
		<tag k="name" v="Varden" />
		<tag k="natural" v="hill" />
		<tag k="place" v="locality" />
		<tag k="ssr:stedsnr" v="678729" />
	</node>
	<node id="-541785" lat="62.1337055583" lon="5.16718610633">
		<tag k="fixme" v="consider natural=peak for the most distinct mountains in the district" />
		<tag k="name" v="Mosekleivhornet" />
		<tag k="natural" v="hill" />
		<tag k="place" v="locality" />
		<tag k="ssr:stedsnr" v="678704" />
	</node>
	<node id="-541782" lat="62.1757388879" lon="5.13930554754">
		<tag k="name" v="Dekkene" />
		<tag k="natural" v="valley" />
		<tag k="place" v="locality" />
		<tag k="ssr:stedsnr" v="678693" />
	</node>
	<node id="-541767" lat="61.9778944433" lon="5.36285834145">
		<tag k="fixme" v="consider natural=peak for the most distinct mountains in the district" />
		<tag k="name" v="Vaulehornet" />
		<tag k="natural" v="hill" />
		<tag k="place" v="locality" />
		<tag k="ssr:stedsnr" v="677776" />
	</node>
	<node id="-541763" lat="62.0779924902" lon="5.36440522964">
		<tag k="name" v="Heidane" />
		<tag k="natural" v="hill" />
		<tag k="place" v="locality" />
		<tag k="ssr:stedsnr" v="678363" />
	</node>
	<node id="-541757" lat="62.0593972215" lon="5.35898889491">
		<tag k="fixme" v="consider natural=peak for the most distinct mountains in the district" />
		<tag k="name" v="Blåfjellet" />
		<tag k="natural" v="hill" />
		<tag k="place" v="locality" />
		<tag k="ssr:stedsnr" v="656988" />
	</node>
	<node id="-541755" lat="62.0584722262" lon="5.42007778225">
		<tag k="name" v="Gjellhaugen" />
		<tag k="natural" v="hill" />
		<tag k="place" v="locality" />
		<tag k="ssr:stedsnr" v="656969" />
	</node>
	<node id="-541752" lat="62.0366166679" lon="5.4083194462">
		<tag k="fixme" v="consider natural=peak for the most distinct mountains in the district" />
		<tag k="name" v="Litlehornet" />
		<tag k="natural" v="hill" />
		<tag k="ssr:stedsnr" v="656935" />
	</node>
	<node id="-541750" lat="62.0191583348" lon="5.36419444314">
		<tag k="name" v="Kopen" />
		<tag k="natural" v="slope" />
		<tag k="place" v="locality" />
		<tag k="ssr:stedsnr" v="656891" />
	</node>
	<node id="-541749" lat="62.093838888" lon="5.29891387977">
		<tag k="name" v="Myrane" />
		<tag k="natural" v="slope" />
		<tag k="place" v="locality" />
		<tag k="ssr:stedsnr" v="656874" />
	</node>
	<node id="-541748" lat="62.1075861069" lon="5.3069277825">
		<tag k="name" v="Liarabben" />
		<tag k="natural" v="slope" />
		<tag k="place" v="locality" />
		<tag k="ssr:stedsnr" v="656868" />
	</node>
	<node id="-541745" lat="62.081225004" lon="5.30812500811">
		<tag k="name" v="Svorahornet" />
		<tag k="natural" v="hill" />
		<tag k="place" v="locality" />
		<tag k="ssr:stedsnr" v="656853" />
	</node>
	<node id="-541742" lat="61.9815722191" lon="5.29446666482">
		<tag k="name" v="Sandvikshorn" />
		<tag k="natural" v="hill" />
		<tag k="place" v="locality" />
		<tag k="ssr:stedsnr" v="656826" />
	</node>
	<node id="-541738" lat="62.0858722216" lon="5.36071945248">
		<tag k="name" v="Kviteskjerane" />
		<tag k="natural" v="hill" />
		<tag k="place" v="locality" />
		<tag k="ssr:stedsnr" v="656795" />
	</node>
	<node id="-541735" lat="61.9686499987" lon="5.24680000091">
		<tag k="name" v="Mehaugen" />
		<tag k="natural" v="hill" />
		<tag k="place" v="locality" />
		<tag k="ssr:stedsnr" v="656777" />
	</node>
	<node id="-541734" lat="62.19338333" lon="5.13769721377">
		<tag k="name" v="Maragjølet" />
		<tag k="natural" v="valley" />
		<tag k="place" v="locality" />
		<tag k="ssr:stedsnr" v="656771" />
	</node>
	<node id="-541732" lat="62.1831138851" lon="5.17536667323">
		<tag k="name" v="Jamnen" />
		<tag k="natural" v="slope" />
		<tag k="place" v="locality" />
		<tag k="ssr:stedsnr" v="656761" />
	</node>
	<node id="-541731" lat="62.1524305559" lon="5.11590278263">
		<tag k="name" v="Munkegjøtten" />
		<tag k="natural" v="valley" />
		<tag k="place" v="locality" />
		<tag k="ssr:stedsnr" v="656758" />
	</node>
	<node id="-541725" lat="62.172355557" lon="5.27596943531">
		<tag k="name" v="Rothaugane" />
		<tag k="natural" v="hill" />
		<tag k="place" v="locality" />
		<tag k="ssr:stedsnr" v="656212" />
	</node>
	<node id="-541724" lat="62.1561555557" lon="5.20529722708">
		<tag k="name" v="Seljegjølet" />
		<tag k="natural" v="valley" />
		<tag k="place" v="locality" />
		<tag k="ssr:stedsnr" v="656207" />
	</node>
	<node id="-541723" lat="62.1634666676" lon="5.2678250047">
		<tag k="name" v="Vassdalen" />
		<tag k="natural" v="valley" />
		<tag k="place" v="locality" />
		<tag k="ssr:stedsnr" v="656204" />
	</node>
	<node id="-541722" lat="62.1697694457" lon="5.261313883">
		<tag k="name" v="Stølen" />
		<tag k="natural" v="slope" />
		<tag k="place" v="locality" />
		<tag k="ssr:stedsnr" v="656205" />
	</node>
	<node id="-541721" lat="62.1704472239" lon="5.27637221554">
		<tag k="name" v="Rothaugskaret" />
		<tag k="natural" v="valley" />
		<tag k="place" v="locality" />
		<tag k="ssr:stedsnr" v="656200" />
	</node>
	<node id="-541720" lat="62.1275361142" lon="5.17837499061">
		<tag k="name" v="Asefjellet" />
		<tag k="natural" v="hill" />
		<tag k="place" v="locality" />
		<tag k="ssr:stedsnr" v="656186" />
	</node>
	<node id="-541719" lat="62.1028777779" lon="5.11268056066">
		<tag k="name" v="Skareberget" />
		<tag k="natural" v="hill" />
		<tag k="place" v="locality" />
		<tag k="ssr:stedsnr" v="656181" />
	</node>
	<node id="-541718" lat="62.1246861074" lon="5.29482499286">
		<tag k="name" v="Bysjene" />
		<tag k="place" v="locality" />
		<tag k="ssr:stedsnr" v="656163" />
	</node>
	<node id="-541717" lat="62.1524861073" lon="5.2605305469">
		<tag k="name" v="Buskarhaugen" />
		<tag k="natural" v="hill" />
		<tag k="place" v="locality" />
		<tag k="ssr:stedsnr" v="656141" />
	</node>
	<node id="-541715" lat="62.1348527759" lon="5.21819722361">
		<tag k="name" v="Breiefjellet" />
		<tag k="natural" v="hill" />
		<tag k="place" v="locality" />
		<tag k="ssr:stedsnr" v="656125" />
	</node>
	<node id="-541713" lat="62.156313892" lon="5.12077500094">
		<tag k="name" v="Kolhammaren" />
		<tag k="natural" v="hill" />
		<tag k="place" v="locality" />
		<tag k="ssr:stedsnr" v="656057" />
	</node>
	<node id="-541712" lat="62.1724888916" lon="5.16436111981">
		<tag k="name" v="Årvikskaret" />
		<tag k="natural" v="valley" />
		<tag k="place" v="locality" />
		<tag k="ssr:stedsnr" v="656055" />
	</node>
	<node id="-541711" lat="62.157833335" lon="5.10981665891">
		<tag k="name" v="Veghammaren" />
		<tag k="natural" v="hill" />
		<tag k="place" v="locality" />
		<tag k="ssr:stedsnr" v="656043" />
	</node>
	<node id="-541709" lat="62.1497750009" lon="5.11465278191">
		<tag k="name" v="Høgfjellnova" />
		<tag k="natural" v="hill" />
		<tag k="place" v="locality" />
		<tag k="ssr:stedsnr" v="656036" />
	</node>
	<node id="-541708" lat="62.1548388849" lon="5.1139833258">
		<tag k="fixme" v="consider natural=peak for the most distinct mountains in the district" />
		<tag k="name" v="Munkegjøtthornet" />
		<tag k="natural" v="hill" />
		<tag k="place" v="locality" />
		<tag k="ssr:stedsnr" v="656035" />
	</node>
	<node id="-541707" lat="62.1632309176" lon="5.14800301456">
		<tag k="name" v="Midhaugen" />
		<tag k="natural" v="hill" />
		<tag k="place" v="locality" />
		<tag k="ssr:stedsnr" v="656027" />
	</node>
	<node id="-541706" lat="62.1565861089" lon="5.15885832699">
		<tag k="name" v="Laramskaret" />
		<tag k="natural" v="valley" />
		<tag k="place" v="locality" />
		<tag k="ssr:stedsnr" v="656020" />
	</node>
	<node id="-541705" lat="62.192130554" lon="5.2106972199">
		<tag k="name" v="Eltvikhaugen" />
		<tag k="natural" v="hill" />
		<tag k="place" v="locality" />
		<tag k="ssr:stedsnr" v="656014" />
	</node>
	<node id="-541692" lat="62.1456361091" lon="5.17837221521">
		<tag k="fixme" v="consider natural=peak for the most distinct mountains in the district" />
		<tag k="name" v="Svartehornet" />
		<tag k="natural" v="hill" />
		<tag k="place" v="locality" />
		<tag k="ssr:stedsnr" v="617730" />
	</node>
	<node id="-541691" lat="62.1400055598" lon="5.1542722177">
		<tag k="alt_name" v="Molvikhornet, indre" />
		<tag k="fixme" v="consider natural=peak for the most distinct mountains in the district" />
		<tag k="name" v="Indre Molvikhornet" />
		<tag k="natural" v="hill" />
		<tag k="place" v="locality" />
		<tag k="ssr:stedsnr" v="617726" />
	</node>
	<node id="-541689" lat="62.1242777805" lon="5.19908888707">
		<tag k="fixme" v="consider natural=peak for the most distinct mountains in the district" />
		<tag k="name" v="Solumskardurda" />
		<tag k="natural" v="hill" />
		<tag k="place" v="locality" />
		<tag k="ssr:stedsnr" v="617718" />
	</node>
	<node id="-541688" lat="62.1394583355" lon="5.18802499101">
		<tag k="name" v="Kupa" />
		<tag k="natural" v="valley" />
		<tag k="place" v="locality" />
		<tag k="ssr:stedsnr" v="617719" />
	</node>
	<node id="-541682" lat="62.1465388889" lon="5.25007778272">
		<tag k="alt_name" v="Gnullen" />
		<tag k="name" v="Gnullane" />
		<tag k="natural" v="hill" />
		<tag k="place" v="locality" />
		<tag k="ssr:stedsnr" v="617474" />
	</node>
	<node id="-541673" lat="61.9971305571" lon="5.35861388592">
		<tag k="fixme" v="consider natural=peak for the most distinct mountains in the district" />
		<tag k="name" v="Kvamefjellet" />
		<tag k="natural" v="hill" />
		<tag k="place" v="locality" />
		<tag k="ssr:stedsnr" v="616888" />
	</node>
	<node id="-541671" lat="61.9503833299" lon="5.27464999504">
		<tag k="fixme" v="consider natural=peak for the most distinct mountains in the district" />
		<tag k="name" v="Aksla" />
		<tag k="natural" v="hill" />
		<tag k="place" v="locality" />
		<tag k="ssr:stedsnr" v="616810" />
	</node>
	<node id="-541670" lat="61.9527111118" lon="5.2435444527">
		<tag k="alt_name" v="Austredalen" />
		<tag k="name" v="Austadalen" />
		<tag k="natural" v="valley" />
		<tag k="place" v="locality" />
		<tag k="ssr:stedsnr" v="616808" />
	</node>
	<node id="-541668" lat="61.9684722253" lon="5.24779167145">
		<tag k="fixme" v="consider natural=peak for the most distinct mountains in the district" />
		<tag k="name" v="Lyngahornet" />
		<tag k="natural" v="hill" />
		<tag k="place" v="locality" />
		<tag k="ssr:stedsnr" v="616775" />
	</node>
	<node id="-541659" lat="62.1104055543" lon="5.2790499915">
		<tag k="name" v="Kongshaugberget" />
		<tag k="natural" v="hill" />
		<tag k="place" v="locality" />
		<tag k="ssr:stedsnr" v="596867" />
	</node>
	<node id="-541658" lat="62.0825749988" lon="5.30148610938">
		<tag k="name" v="Fjellstølen" />
		<tag k="natural" v="hill" />
		<tag k="place" v="locality" />
		<tag k="ssr:stedsnr" v="596819" />
	</node>
	<node id="-541657" lat="62.0919305597" lon="5.33696666585">
		<tag k="name" v="Nonsdalsheia" />
		<tag k="natural" v="hill" />
		<tag k="place" v="locality" />
		<tag k="ssr:stedsnr" v="596810" />
	</node>
	<node id="-541654" lat="62.0250972228" lon="5.27063333877">
		<tag k="fixme" v="consider natural=peak for the most distinct mountains in the district" />
		<tag k="name" v="Ekra" />
		<tag k="natural" v="hill" />
		<tag k="ssr:stedsnr" v="596759" />
	</node>
	<node id="-541651" lat="61.9748888863" lon="5.33432499709">
		<tag k="name" v="Meskaret" />
		<tag k="natural" v="valley" />
		<tag k="place" v="locality" />
		<tag k="ssr:stedsnr" v="596569" />
	</node>
	<node id="-541650" lat="62.0506250014" lon="5.44872222626">
		<tag k="name" v="Storehaugen" />
		<tag k="natural" v="hill" />
		<tag k="place" v="locality" />
		<tag k="ssr:stedsnr" v="596548" />
	</node>
	<node id="-541649" lat="62.0397583373" lon="5.46075278569">
		<tag k="name" v="Kvamsdalen" />
		<tag k="natural" v="valley" />
		<tag k="place" v="locality" />
		<tag k="ssr:stedsnr" v="596537" />
	</node>
	<node id="-541648" lat="62.0451833343" lon="5.4657861131">
		<tag k="name" v="Maraftatua" />
		<tag k="natural" v="hill" />
		<tag k="place" v="locality" />
		<tag k="ssr:stedsnr" v="596525" />
	</node>
	<node id="-541647" lat="62.0134194414" lon="5.46967499864">
		<tag k="name" v="Kjødspollen" />
		<tag k="natural" v="hill" />
		<tag k="old_name" v="Kjødsollen" />
		<tag k="place" v="locality" />
		<tag k="ssr:stedsnr" v="596524" />
	</node>
	<node id="-541644" lat="61.9980583295" lon="5.44471110977">
		<tag k="name" v="Nonskollen" />
		<tag k="natural" v="hill" />
		<tag k="place" v="locality" />
		<tag k="ssr:stedsnr" v="596504" />
	</node>
	<node id="-541642" lat="62.1824624717" lon="5.09755383151">
		<tag k="name" v="Fådetåa" />
		<tag k="natural" v="hill" />
		<tag k="place" v="locality" />
		<tag k="ssr:stedsnr" v="596487" />
	</node>
	<node id="-541640" lat="62.1640138873" lon="5.2060083309">
		<tag k="name" v="Sloka" />
		<tag k="natural" v="slope" />
		<tag k="place" v="locality" />
		<tag k="ssr:stedsnr" v="596233" />
	</node>
	<node id="-541639" lat="62.1573277749" lon="5.20104722721">
		<tag k="name" v="Nilsgjølet" />
		<tag k="natural" v="valley" />
		<tag k="place" v="locality" />
		<tag k="ssr:stedsnr" v="596228" />
	</node>
	<node id="-541636" lat="62.1587611103" lon="5.29633332993">
		<tag k="name" v="Båtkammaren" />
		<tag k="place" v="locality" />
		<tag k="ssr:stedsnr" v="596144" />
	</node>
	<node id="-541635" lat="62.1558555574" lon="5.26925000527">
		<tag k="name" v="Oksebakkane" />
		<tag k="natural" v="slope" />
		<tag k="place" v="locality" />
		<tag k="ssr:stedsnr" v="596142" />
	</node>
	<node id="-541634" lat="62.0742861084" lon="5.32138056497">
		<tag k="fixme" v="consider natural=peak for the most distinct mountains in the district" />
		<tag k="name" v="Fonnafjellet" />
		<tag k="natural" v="hill" />
		<tag k="place" v="locality" />
		<tag k="ssr:stedsnr" v="595989" />
	</node>
	<node id="-541632" lat="62.0522527774" lon="5.3713361016">
		<tag k="name" v="Steghammaren" />
		<tag k="natural" v="hill" />
		<tag k="place" v="locality" />
		<tag k="ssr:stedsnr" v="595951" />
	</node>
	<node id="-541631" lat="62.0608361138" lon="5.4054111043">
		<tag k="name" v="Ellingsleitet" />
		<tag k="natural" v="slope" />
		<tag k="place" v="locality" />
		<tag k="ssr:stedsnr" v="595932" />
	</node>
	<node id="-541630" lat="62.03796111" lon="5.40465000702">
		<tag k="name" v="Bruna" />
		<tag k="natural" v="slope" />
		<tag k="place" v="locality" />
		<tag k="ssr:stedsnr" v="595929" />
	</node>
	<node id="-541628" lat="62.0102416676" lon="5.39648333577">
		<tag k="name" v="Setane" />
		<tag k="place" v="locality" />
		<tag k="ssr:stedsnr" v="595897" />
	</node>
	<node id="-541627" lat="62.0181722253" lon="5.43552776837">
		<tag k="name" v="Eidsdalen" />
		<tag k="natural" v="valley" />
		<tag k="place" v="locality" />
		<tag k="ssr:stedsnr" v="595876" />
	</node>
	<node id="-541626" lat="62.0176475746" lon="5.38544977993">
		<tag k="name" v="Hatleneshornet" />
		<tag k="natural" v="hill" />
		<tag k="place" v="locality" />
		<tag k="ssr:stedsnr" v="595864" />
	</node>
	<node id="-541622" lat="62.1428111151" lon="5.16630556358">
		<tag k="name" v="Eslia" />
		<tag k="natural" v="slope" />
		<tag k="place" v="locality" />
		<tag k="ssr:stedsnr" v="595190" />
	</node>
	<node id="-541621" lat="62.1214888866" lon="5.11401666361">
		<tag k="name" v="Langeberget" />
		<tag k="natural" v="hill" />
		<tag k="place" v="locality" />
		<tag k="ssr:stedsnr" v="595182" />
	</node>
	<node id="-541620" lat="62.1672749985" lon="5.08973889773">
		<tag k="name" v="Litlehovden" />
		<tag k="natural" v="hill" />
		<tag k="place" v="locality" />
		<tag k="ssr:stedsnr" v="595052" />
	</node>
	<node id="-541619" lat="62.1497111124" lon="5.12262223118">
		<tag k="name" v="Skjoldgjøtten" />
		<tag k="natural" v="valley" />
		<tag k="place" v="locality" />
		<tag k="ssr:stedsnr" v="595035" />
	</node>
	<node id="-541611" lat="62.0485722263" lon="5.36204444895">
		<tag k="name" v="Risnakken" />
		<tag k="natural" v="hill" />
		<tag k="place" v="locality" />
		<tag k="ssr:stedsnr" v="557358" />
	</node>
	<node id="-541607" lat="62.006280556" lon="5.29892222092">
		<tag k="fixme" v="consider natural=peak for the most distinct mountains in the district" />
		<tag k="name" v="Skjolden" />
		<tag k="natural" v="hill" />
		<tag k="place" v="locality" />
		<tag k="ssr:stedsnr" v="557195" />
	</node>
	<node id="-541606" lat="62.0049388872" lon="5.40891111028">
		<tag k="name" v="Berstaddalen" />
		<tag k="natural" v="valley" />
		<tag k="place" v="locality" />
		<tag k="ssr:stedsnr" v="557187" />
	</node>
	<node id="-541605" lat="62.0095361147" lon="5.43257500456">
		<tag k="fixme" v="consider natural=peak for the most distinct mountains in the district" />
		<tag k="name" v="Mørkelida" />
		<tag k="natural" v="hill" />
		<tag k="place" v="locality" />
		<tag k="ssr:stedsnr" v="557186" />
	</node>
	<node id="-541604" lat="62.0091000027" lon="5.38968610954">
		<tag k="name" v="Bjørnakollen" />
		<tag k="natural" v="ridge" />
		<tag k="place" v="locality" />
		<tag k="ssr:stedsnr" v="557185" />
	</node>
	<node id="-541601" lat="62.1803027804" lon="5.12666666743">
		<tag k="name" v="Vetedalsstrupen" />
		<tag k="natural" v="hill" />
		<tag k="place" v="locality" />
		<tag k="ssr:stedsnr" v="556753" />
	</node>
	<node id="-541599" lat="62.1634055563" lon="5.20065278364">
		<tag k="fixme" v="consider natural=peak for the most distinct mountains in the district" />
		<tag k="name" v="Kyrnosa" />
		<tag k="natural" v="hill" />
		<tag k="place" v="locality" />
		<tag k="ssr:stedsnr" v="556713" />
	</node>
	<node id="-541596" lat="62.1643093892" lon="5.32004574491">
		<tag k="fixme" v="consider natural=peak for the most distinct mountains in the district" />
		<tag k="name" v="Rivjehornet" />
		<tag k="natural" v="hill" />
		<tag k="place" v="locality" />
		<tag k="ssr:stedsnr" v="556571" />
	</node>
	<node id="-541594" lat="62.1609722213" lon="5.24579166024">
		<tag k="fixme" v="consider natural=peak for the most distinct mountains in the district" />
		<tag k="name" v="Kjødsnosa" />
		<tag k="natural" v="hill" />
		<tag k="place" v="locality" />
		<tag k="ssr:stedsnr" v="556555" />
	</node>
	<node id="-541588" lat="62.0923916694" lon="5.34573055059">
		<tag k="name" v="Storeskaret" />
		<tag k="natural" v="valley" />
		<tag k="place" v="locality" />
		<tag k="ssr:stedsnr" v="556469" />
	</node>
	<node id="-541584" lat="62.0189666627" lon="5.29678611827">
		<tag k="name" v="Storefjellet" />
		<tag k="natural" v="hill" />
		<tag k="place" v="locality" />
		<tag k="ssr:stedsnr" v="556344" />
	</node>
	<node id="-541583" lat="62.0410833346" lon="5.37725833103">
		<tag k="name" v="Åsen" />
		<tag k="natural" v="hill" />
		<tag k="place" v="locality" />
		<tag k="ssr:stedsnr" v="556337" />
	</node>
	<node id="-541567" lat="62.0521027805" lon="5.42236666231">
		<tag k="name" v="Storetindane" />
		<tag k="natural" v="ridge" />
		<tag k="place" v="locality" />
		<tag k="ssr:stedsnr" v="535970" />
	</node>
	<node id="-541566" lat="62.0541722239" lon="5.43143610793">
		<tag k="name" v="Bjørneskaret" />
		<tag k="natural" v="valley" />
		<tag k="place" v="locality" />
		<tag k="ssr:stedsnr" v="535965" />
	</node>
	<node id="-541564" lat="62.0374500028" lon="5.41333888282">
		<tag k="name" v="Leitehaugen" />
		<tag k="natural" v="hill" />
		<tag k="place" v="locality" />
		<tag k="ssr:stedsnr" v="535936" />
	</node>
	<node id="-541563" lat="62.0454750026" lon="5.39580555852">
		<tag k="name" v="Kjellkrokdalen" />
		<tag k="natural" v="valley" />
		<tag k="place" v="locality" />
		<tag k="ssr:stedsnr" v="535912" />
	</node>
	<node id="-541562" lat="62.0463694464" lon="5.39285278059">
		<tag k="name" v="Søreggja" />
		<tag k="natural" v="hill" />
		<tag k="place" v="locality" />
		<tag k="ssr:stedsnr" v="535911" />
	</node>
	<node id="-541561" lat="62.018794443" lon="5.43914444594">
		<tag k="name" v="Hellebakken" />
		<tag k="natural" v="slope" />
		<tag k="place" v="locality" />
		<tag k="ssr:stedsnr" v="535903" />
	</node>
	<node id="-541559" lat="62.1002638856" lon="5.29076111449">
		<tag k="name" v="Snøhola" />
		<tag k="place" v="locality" />
		<tag k="ssr:stedsnr" v="535857" />
	</node>
	<node id="-541557" lat="62.1095055536" lon="5.2693361044">
		<tag k="name" v="Ruskarbergheia" />
		<tag k="natural" v="hill" />
		<tag k="place" v="locality" />
		<tag k="ssr:stedsnr" v="535837" />
	</node>
	<node id="-541553" lat="62.0145555594" lon="5.25729444798">
		<tag k="name" v="Rabbetåa" />
		<tag k="natural" v="hill" />
		<tag k="place" v="locality" />
		<tag k="ssr:stedsnr" v="535763" />
	</node>
	<node id="-541551" lat="62.1880861125" lon="5.17936111668">
		<tag k="name" v="Storevarden" />
		<tag k="natural" v="hill" />
		<tag k="place" v="locality" />
		<tag k="ssr:stedsnr" v="535728" />
	</node>
	<node id="-541550" lat="61.9950388854" lon="5.42878610317">
		<tag k="name" v="Lauvadalen" />
		<tag k="natural" v="valley" />
		<tag k="place" v="locality" />
		<tag k="ssr:stedsnr" v="535614" />
	</node>
	<node id="-541549" lat="61.9732083368" lon="5.33027221955">
		<tag k="name" v="Furehaugane" />
		<tag k="natural" v="hill" />
		<tag k="place" v="locality" />
		<tag k="ssr:stedsnr" v="535600" />
	</node>
	<node id="-541548" lat="62.0368888847" lon="5.47971667525">
		<tag k="name" v="Haugane" />
		<tag k="natural" v="hill" />
		<tag k="place" v="locality" />
		<tag k="ssr:stedsnr" v="535569" />
	</node>
	<node id="-541547" lat="62.1918694424" lon="5.1070249982">
		<tag k="name" v="Grøtrøysa" />
		<tag k="natural" v="hill" />
		<tag k="place" v="locality" />
		<tag k="ssr:stedsnr" v="535535" />
	</node>
	<node id="-541545" lat="62.1870385266" lon="5.12770881885">
		<tag k="name" v="Veten" />
		<tag k="place" v="locality" />
		<tag k="ssr:stedsnr" v="535533" />
	</node>
	<node id="-541544" lat="62.2063888861" lon="5.18828332506">
		<tag k="name" v="Storeknausen" />
		<tag k="natural" v="hill" />
		<tag k="place" v="locality" />
		<tag k="ssr:stedsnr" v="535530" />
	</node>
	<node id="-541543" lat="62.2085749999" lon="5.1841638794">
		<tag k="name" v="Hestegjøtten" />
		<tag k="natural" v="valley" />
		<tag k="place" v="locality" />
		<tag k="ssr:stedsnr" v="535528" />
	</node>
	<node id="-541542" lat="62.16362778" lon="5.2586444411">
		<tag k="name" v="Storehaugen" />
		<tag k="natural" v="hill" />
		<tag k="place" v="locality" />
		<tag k="ssr:stedsnr" v="535231" />
	</node>
	<node id="-541540" lat="62.1168638898" lon="5.15587499469">
		<tag k="name" v="Hovnesgjelet" />
		<tag k="natural" v="valley" />
		<tag k="place" v="locality" />
		<tag k="ssr:stedsnr" v="535182" />
	</node>
	<node id="-541537" lat="62.1429166647" lon="5.23380554748">
		<tag k="name" v="Vonheim" />
		<tag k="place" v="locality" />
		<tag k="ssr:stedsnr" v="535129" />
	</node>
	<node id="-541536" lat="62.1325388894" lon="5.23554166766">
		<tag k="fixme" v="consider natural=peak for the most distinct mountains in the district" />
		<tag k="name" v="Setrefjellet" />
		<tag k="natural" v="hill" />
		<tag k="place" v="locality" />
		<tag k="ssr:stedsnr" v="535116" />
	</node>
	<node id="-541535" lat="62.0526222258" lon="5.36381110795">
		<tag k="name" v="Kvernhusdalen" />
		<tag k="natural" v="valley" />
		<tag k="place" v="locality" />
		<tag k="ssr:stedsnr" v="534948" />
	</node>
	<node id="-541534" lat="62.0049027782" lon="5.33371943539">
		<tag k="name" v="Grisesteinane" />
		<tag k="place" v="locality" />
		<tag k="ssr:stedsnr" v="534894" />
	</node>
	<node id="-541533" lat="62.1315194412" lon="5.16928333914">
		<tag k="name" v="Moskleiva" />
		<tag k="natural" v="slope" />
		<tag k="place" v="locality" />
		<tag k="ssr:stedsnr" v="534196" />
	</node>
	<node id="-541532" lat="62.1554333365" lon="5.11354444603">
		<tag k="fixme" v="consider natural=peak for the most distinct mountains in the district" />
		<tag k="name" v="Ramskorfjellet" />
		<tag k="natural" v="hill" />
		<tag k="place" v="locality" />
		<tag k="ssr:stedsnr" v="534041" />
	</node>
	<node id="-541531" lat="62.1859833349" lon="5.21014443644">
		<tag k="name" v="Lite Setrefjellet" />
		<tag k="natural" v="hill" />
		<tag k="place" v="locality" />
		<tag k="ssr:stedsnr" v="534008" />
	</node>
	<node id="-541528" lat="62.1880055583" lon="5.10463333394">
		<tag k="name" v="Kluftene" />
		<tag k="natural" v="hill" />
		<tag k="place" v="locality" />
		<tag k="ssr:stedsnr" v="496741" />
	</node>
	<node id="-541525" lat="62.2125850714" lon="5.18233575669">
		<tag k="name" v="Stålet" />
		<tag k="natural" v="hill" />
		<tag k="place" v="locality" />
		<tag k="ssr:stedsnr" v="496722" />
	</node>
	<node id="-541518" lat="62.0971916677" lon="5.28210554695">
		<tag k="fixme" v="consider natural=peak for the most distinct mountains in the district" />
		<tag k="name" v="Skorfjellet" />
		<tag k="natural" v="hill" />
		<tag k="place" v="locality" />
		<tag k="ssr:stedsnr" v="496461" />
	</node>
	<node id="-541517" lat="62.0971166656" lon="5.34359166369">
		<tag k="fixme" v="consider natural=peak for the most distinct mountains in the district" />
		<tag k="name" v="Lundabrekkhornet" />
		<tag k="natural" v="hill" />
		<tag k="place" v="locality" />
		<tag k="ssr:stedsnr" v="496457" />
	</node>
	<node id="-541515" lat="62.1147999092" lon="5.27703193208">
		<tag k="name" v="Leikangsheia" />
		<tag k="natural" v="hill" />
		<tag k="place" v="locality" />
		<tag k="ssr:stedsnr" v="496434" />
	</node>
	<node id="-541508" lat="62.0174083361" lon="5.38673054627">
		<tag k="fixme" v="consider natural=peak for the most distinct mountains in the district" />
		<tag k="name" v="Tinden" />
		<tag k="natural" v="hill" />
		<tag k="place" v="locality" />
		<tag k="ssr:stedsnr" v="496306" />
	</node>
	<node id="-541507" lat="62.0144222229" lon="5.25759999468">
		<tag k="fixme" v="consider natural=peak for the most distinct mountains in the district" />
		<tag k="name" v="Nesehaugen" />
		<tag k="natural" v="hill" />
		<tag k="place" v="locality" />
		<tag k="ssr:stedsnr" v="496295" />
	</node>
	<node id="-541506" lat="62.0029166701" lon="5.48625834127">
		<tag k="alt_name" v="Nakken" />
		<tag k="fixme" v="consider natural=peak for the most distinct mountains in the district" />
		<tag k="name" v="Nakkane" />
		<tag k="natural" v="hill" />
		<tag k="place" v="locality" />
		<tag k="ssr:stedsnr" v="496222" />
	</node>
	<node id="-541500" lat="62.1292805567" lon="5.20049167078">
		<tag k="name" v="Langedalen" />
		<tag k="natural" v="valley" />
		<tag k="place" v="locality" />
		<tag k="ssr:stedsnr" v="445316" />
	</node>
	<node id="-541489" lat="62.0212388923" lon="5.4662805517">
		<tag k="name" v="Storekollen" />
		<tag k="natural" v="hill" />
		<tag k="place" v="locality" />
		<tag k="ssr:stedsnr" v="436267" />
	</node>
	<node id="-541488" lat="62.0023916653" lon="5.37264723023">
		<tag k="fixme" v="consider natural=peak for the most distinct mountains in the district" />
		<tag k="name" v="Kvamfjellet" />
		<tag k="natural" v="hill" />
		<tag k="place" v="locality" />
		<tag k="ssr:stedsnr" v="436180" />
	</node>
	<node id="-541487" lat="61.9574333344" lon="5.24343889364">
		<tag k="name" v="Storehaugen" />
		<tag k="natural" v="hill" />
		<tag k="place" v="locality" />
		<tag k="ssr:stedsnr" v="435801" />
	</node>
	<node id="-541485" lat="61.988338887" lon="5.38920277877">
		<tag k="name" v="Fureheia" />
		<tag k="natural" v="hill" />
		<tag k="place" v="locality" />
		<tag k="ssr:stedsnr" v="435769" />
	</node>
	<node id="-541479" lat="62.1150388895" lon="5.25742777955">
		<tag k="fixme" v="consider natural=peak for the most distinct mountains in the district" />
		<tag k="name" v="Vardeberget" />
		<tag k="natural" v="hill" />
		<tag k="place" v="locality" />
		<tag k="ssr:stedsnr" v="435452" />
	</node>
	<node id="-541478" lat="62.1055000002" lon="5.26926943674">
		<tag k="fixme" v="consider natural=peak for the most distinct mountains in the district" />
		<tag k="name" v="Dragsnipa" />
		<tag k="natural" v="hill" />
		<tag k="place" v="locality" />
		<tag k="ssr:stedsnr" v="435430" />
	</node>
	<node id="-541477" lat="62.0982222257" lon="5.25672222658">
		<tag k="name" v="Myrehornet" />
		<tag k="natural" v="hill" />
		<tag k="place" v="locality" />
		<tag k="ssr:stedsnr" v="435427" />
	</node>
	<node id="-541475" lat="62.0173611124" lon="5.28179722894">
		<tag k="fixme" v="consider natural=peak for the most distinct mountains in the district" />
		<tag k="name" v="Branden" />
		<tag k="natural" v="hill" />
		<tag k="place" v="locality" />
		<tag k="ssr:stedsnr" v="435343" />
	</node>
	<node id="-541456" lat="62.11113333" lon="5.27061943865">
		<tag k="name" v="Tuene" />
		<tag k="natural" v="hill" />
		<tag k="place" v="locality" />
		<tag k="ssr:stedsnr" v="414833" />
	</node>
	<node id="-541455" lat="62.0464611071" lon="5.30280000976">
		<tag k="name" v="Blåstaven" />
		<tag k="place" v="locality" />
		<tag k="ssr:stedsnr" v="414823" />
	</node>
	<node id="-541454" lat="62.0445694486" lon="5.30729444792">
		<tag k="name" v="Heimen" />
		<tag k="place" v="locality" />
		<tag k="ssr:stedsnr" v="414820" />
	</node>
	<node id="-541453" lat="62.1022972217" lon="5.33763055755">
		<tag k="name" v="Lia" />
		<tag k="natural" v="hill" />
		<tag k="place" v="locality" />
		<tag k="ssr:stedsnr" v="414806" />
	</node>
	<node id="-541452" lat="61.9754916702" lon="5.20500278622">
		<tag k="name" v="Gangeskarhaugen" />
		<tag k="natural" v="hill" />
		<tag k="place" v="locality" />
		<tag k="ssr:stedsnr" v="414785" />
	</node>
	<node id="-541450" lat="62.0038083292" lon="5.28586943873">
		<tag k="name" v="Tindane" />
		<tag k="natural" v="hill" />
		<tag k="place" v="locality" />
		<tag k="ssr:stedsnr" v="414778" />
	</node>
	<node id="-541449" lat="61.9962527788" lon="5.27637777262">
		<tag k="name" v="Nyglesteinen" />
		<tag k="place" v="locality" />
		<tag k="ssr:stedsnr" v="414776" />
	</node>
	<node id="-541448" lat="61.9898083314" lon="5.26758055504">
		<tag k="name" v="Gytten" />
		<tag k="place" v="locality" />
		<tag k="ssr:stedsnr" v="414771" />
	</node>
	<node id="-541446" lat="61.9730666698" lon="5.30936389048">
		<tag k="name" v="Lakseskaret" />
		<tag k="natural" v="valley" />
		<tag k="place" v="locality" />
		<tag k="ssr:stedsnr" v="414731" />
	</node>
	<node id="-541443" lat="62.1382055533" lon="5.14802499875">
		<tag k="name" v="Inste Molvikgjølet" />
		<tag k="natural" v="valley" />
		<tag k="place" v="locality" />
		<tag k="ssr:stedsnr" v="414707" />
	</node>
	<node id="-541442" lat="61.9755916647" lon="5.31962500654">
		<tag k="name" v="Rundehaugskaret" />
		<tag k="natural" v="valley" />
		<tag k="place" v="locality" />
		<tag k="ssr:stedsnr" v="414617" />
	</node>
	<node id="-541440" lat="62.044791667" lon="5.44027499281">
		<tag k="name" v="Haugendane" />
		<tag k="natural" v="hill" />
		<tag k="place" v="locality" />
		<tag k="ssr:stedsnr" v="414586" />
	</node>
	<node id="-541437" lat="62.0429361092" lon="5.44709167316">
		<tag k="name" v="Nova" />
		<tag k="natural" v="hill" />
		<tag k="place" v="locality" />
		<tag k="ssr:stedsnr" v="414567" />
	</node>
	<node id="-541436" lat="62.2065916685" lon="5.18233610968">
		<tag k="name" v="Bertagjøtten" />
		<tag k="natural" v="valley" />
		<tag k="place" v="locality" />
		<tag k="ssr:stedsnr" v="414510" />
	</node>
	<node id="-541428" lat="62.071130558" lon="5.34066388264">
		<tag k="name" v="Løkane" />
		<tag k="place" v="locality" />
		<tag k="ssr:stedsnr" v="254310" />
	</node>
	<node id="-541426" lat="62.1354555588" lon="5.28936944123">
		<tag k="name" v="Okla" />
		<tag k="natural" v="hill" />
		<tag k="place" v="locality" />
		<tag k="ssr:stedsnr" v="254462" />
	</node>
	<node id="-541425" lat="62.1879833375" lon="5.18025277719">
		<tag k="fixme" v="consider natural=peak for the most distinct mountains in the district" />
		<tag k="name" v="Vågsvarden" />
		<tag k="natural" v="hill" />
		<tag k="place" v="locality" />
		<tag k="ssr:stedsnr" v="253764" />
	</node>
	<node id="-541422" lat="62.1710194443" lon="5.12735555978">
		<tag k="name" v="Hushornet" />
		<tag k="natural" v="hill" />
		<tag k="place" v="locality" />
		<tag k="ssr:stedsnr" v="253712" />
	</node>
	<node id="-541415" lat="62.1944589187" lon="5.22388847418">
		<tag k="name" v="Hesten" />
		<tag k="natural" v="hill" />
		<tag k="place" v="locality" />
		<tag k="ssr:stedsnr" v="253563" />
	</node>
	<node id="-541412" lat="62.0299277762" lon="5.44966388283">
		<tag k="name" v="Steinegga" />
		<tag k="natural" v="hill" />
		<tag k="place" v="locality" />
		<tag k="ssr:stedsnr" v="253364" />
	</node>
	<node id="-541410" lat="62.0137083358" lon="5.44833889552">
		<tag k="name" v="Skumdalen" />
		<tag k="natural" v="valley" />
		<tag k="place" v="locality" />
		<tag k="ssr:stedsnr" v="253341" />
	</node>
	<node id="-541409" lat="62.0470055583" lon="5.43279443895">
		<tag k="name" v="Bergedalen" />
		<tag k="natural" v="valley" />
		<tag k="place" v="locality" />
		<tag k="ssr:stedsnr" v="253306" />
	</node>
	<node id="-541399" lat="62.0981000019" lon="5.28362221809">
		<tag k="name" v="Bjørnskarhaugane" />
		<tag k="natural" v="hill" />
		<tag k="place" v="locality" />
		<tag k="ssr:stedsnr" v="232854" />
	</node>
	<node id="-541398" lat="62.1634944413" lon="5.32813332603">
		<tag k="name" v="Omfaret" />
		<tag k="place" v="locality" />
		<tag k="ssr:stedsnr" v="232851" />
	</node>
	<node id="-541394" lat="62.1034416669" lon="5.32041388376">
		<tag k="name" v="Bergenakken" />
		<tag k="natural" v="hill" />
		<tag k="place" v="locality" />
		<tag k="ssr:stedsnr" v="232797" />
	</node>
	<node id="-541390" lat="62.1918305539" lon="5.16422221826">
		<tag k="name" v="Halsen" />
		<tag k="natural" v="hill" />
		<tag k="place" v="locality" />
		<tag k="ssr:stedsnr" v="232693" />
	</node>
	<node id="-541387" lat="62.014355554" lon="5.46620555406">
		<tag k="name" v="Storehaugen" />
		<tag k="natural" v="hill" />
		<tag k="place" v="locality" />
		<tag k="ssr:stedsnr" v="232494" />
	</node>
	<node id="-541386" lat="62.0287277787" lon="5.48003611168">
		<tag k="name" v="Fagrebakkane" />
		<tag k="natural" v="hill" />
		<tag k="place" v="locality" />
		<tag k="ssr:stedsnr" v="232492" />
	</node>
	<node id="-541385" lat="61.9941888899" lon="5.46853056337">
		<tag k="name" v="Svatua" />
		<tag k="natural" v="hill" />
		<tag k="place" v="locality" />
		<tag k="ssr:stedsnr" v="232490" />
	</node>
	<node id="-541384" lat="62.0059749996" lon="5.44441667492">
		<tag k="name" v="Tolåsen" />
		<tag k="natural" v="hill" />
		<tag k="place" v="locality" />
		<tag k="ssr:stedsnr" v="232483" />
	</node>
	<node id="-541381" lat="62.2036222182" lon="5.18237221994">
		<tag k="name" v="Fiksnesgjøtten" />
		<tag k="natural" v="valley" />
		<tag k="place" v="locality" />
		<tag k="ssr:stedsnr" v="232472" />
	</node>
	<node id="-541378" lat="62.1158944406" lon="5.23904444009">
		<tag k="name" v="Hovnesgjølet" />
		<tag k="natural" v="valley" />
		<tag k="place" v="locality" />
		<tag k="ssr:stedsnr" v="232182" />
	</node>
	<node id="-541377" lat="62.1068916644" lon="5.2180027741">
		<tag k="alt_name" v="Vetenakken" />
		<tag k="fixme" v="consider natural=peak for the most distinct mountains in the district" />
		<tag k="name" v="Vidanakken" />
		<tag k="natural" v="hill" />
		<tag k="ssr:stedsnr" v="232156" />
	</node>
	<node id="-541375" lat="62.1373638928" lon="5.21339167566">
		<tag k="name" v="Bytingsrabben" />
		<tag k="natural" v="hill" />
		<tag k="place" v="locality" />
		<tag k="ssr:stedsnr" v="232134" />
	</node>
	<node id="-541374" lat="62.1499166679" lon="5.27588611936">
		<tag k="name" v="Kupa" />
		<tag k="place" v="locality" />
		<tag k="ssr:stedsnr" v="232130" />
	</node>
	<node id="-541373" lat="62.1355500012" lon="5.28904721376">
		<tag k="name" v="Stavokla" />
		<tag k="natural" v="hill" />
		<tag k="place" v="locality" />
		<tag k="ssr:stedsnr" v="232125" />
	</node>
	<node id="-541372" lat="62.1269305558" lon="5.25923611862">
		<tag k="name" v="Kvannskaret" />
		<tag k="natural" v="valley" />
		<tag k="place" v="locality" />
		<tag k="ssr:stedsnr" v="232122" />
	</node>
	<node id="-541369" lat="62.0513500015" lon="5.38579167165">
		<tag k="name" v="Høgeskjevane" />
		<tag k="natural" v="hill" />
		<tag k="place" v="locality" />
		<tag k="ssr:stedsnr" v="231964" />
	</node>
	<node id="-541367" lat="62.0407222238" lon="5.40375834178">
		<tag k="name" v="Elvakrokane" />
		<tag k="place" v="locality" />
		<tag k="ssr:stedsnr" v="231938" />
	</node>
	<node id="-541365" lat="62.0326805596" lon="5.41045833175">
		<tag k="name" v="Buhola" />
		<tag k="place" v="locality" />
		<tag k="ssr:stedsnr" v="231923" />
	</node>
	<node id="-541364" lat="62.037755556" lon="5.36637222864">
		<tag k="name" v="Dyvedal" />
		<tag k="place" v="locality" />
		<tag k="ssr:stedsnr" v="231919" />
	</node>
	<node id="-541363" lat="62.0154666683" lon="5.38973611438">
		<tag k="name" v="Gaupegjølet" />
		<tag k="place" v="locality" />
		<tag k="ssr:stedsnr" v="231911" />
	</node>
	<node id="-541361" lat="62.0145694407" lon="5.36626943647">
		<tag k="name" v="Litleskarhornet" />
		<tag k="natural" v="hill" />
		<tag k="place" v="locality" />
		<tag k="ssr:stedsnr" v="231883" />
	</node>
	<node id="-541358" lat="62.0035888936" lon="5.43654722884">
		<tag k="fixme" v="consider natural=peak for the most distinct mountains in the district" />
		<tag k="name" v="Tolåsen" />
		<tag k="natural" v="hill" />
		<tag k="place" v="locality" />
		<tag k="ssr:stedsnr" v="231682" />
	</node>
	<node id="-541357" lat="62.0031805559" lon="5.4031916585">
		<tag k="name" v="Vassendhammaren" />
		<tag k="natural" v="hill" />
		<tag k="place" v="locality" />
		<tag k="ssr:stedsnr" v="231680" />
	</node>
	<node id="-541355" lat="62.0232990858" lon="5.44760345867">
		<tag k="fixme" v="consider natural=peak for the most distinct mountains in the district" />
		<tag k="name" v="Geitskarhornet" />
		<tag k="natural" v="hill" />
		<tag k="place" v="locality" />
		<tag k="ssr:stedsnr" v="231408" />
	</node>
	<node id="-541354" lat="62.1651333351" lon="5.13167221795">
		<tag k="name" v="Grønahaugen" />
		<tag k="natural" v="hill" />
		<tag k="place" v="locality" />
		<tag k="ssr:stedsnr" v="231072" />
	</node>
	<node id="-541353" lat="62.1592055546" lon="5.10166944809">
		<tag k="name" v="Øvstehjellen" />
		<tag k="natural" v="slope" />
		<tag k="place" v="locality" />
		<tag k="ssr:stedsnr" v="231058" />
	</node>
	<node id="-541352" lat="62.1569749974" lon="5.12489999352">
		<tag k="name" v="Slettebakken" />
		<tag k="natural" v="slope" />
		<tag k="place" v="locality" />
		<tag k="ssr:stedsnr" v="231057" />
	</node>
	<node id="-541349" lat="62.2079027804" lon="5.21072777902">
		<tag k="name" v="Skibbehaugen" />
		<tag k="natural" v="hill" />
		<tag k="place" v="locality" />
		<tag k="ssr:stedsnr" v="231019" />
	</node>
	<node id="-541341" lat="62.1150888904" lon="5.2109222192">
		<tag k="name" v="Raudegrøe" />
		<tag k="place" v="locality" />
		<tag k="ssr:stedsnr" v="193681" />
	</node>
	<node id="-541340" lat="62.1577249995" lon="5.10234444289">
		<tag k="name" v="Rambjørga" />
		<tag k="natural" v="hill" />
		<tag k="place" v="locality" />
		<tag k="ssr:stedsnr" v="193677" />
	</node>
	<node id="-541339" lat="62.1551888897" lon="5.11765833796">
		<tag k="alt_name" v="Brua, nordre" />
		<tag k="fixme" v="consider natural=peak for the most distinct mountains in the district" />
		<tag k="name" v="Nordre Brua" />
		<tag k="natural" v="hill" />
		<tag k="place" v="locality" />
		<tag k="ssr:stedsnr" v="193673" />
	</node>
	<node id="-541337" lat="62.1594388916" lon="5.27249999122">
		<tag k="alt_name" v="Ytstehornet" />
		<tag k="fixme" v="consider natural=peak for the most distinct mountains in the district" />
		<tag k="name" v="Nipa" />
		<tag k="natural" v="hill" />
		<tag k="place" v="locality" />
		<tag k="ssr:stedsnr" v="193540" />
	</node>
	<node id="-541330" lat="62.0088861085" lon="5.26195278159">
		<tag k="name" v="Storehaugen" />
		<tag k="natural" v="hill" />
		<tag k="place" v="locality" />
		<tag k="ssr:stedsnr" v="193201" />
	</node>
	<node id="-541329" lat="62.0103166679" lon="5.34233332887">
		<tag k="fixme" v="consider natural=peak for the most distinct mountains in the district" />
		<tag k="name" v="Kammen" />
		<tag k="natural" v="hill" />
		<tag k="place" v="locality" />
		<tag k="ssr:stedsnr" v="193190" />
	</node>
	<node id="-541327" lat="61.9706194462" lon="5.33210277937">
		<tag k="name" v="Selhaugane" />
		<tag k="natural" v="hill" />
		<tag k="place" v="locality" />
		<tag k="ssr:stedsnr" v="192804" />
	</node>
	<node id="-541326" lat="61.9745527765" lon="5.34081666778">
		<tag k="name" v="Flistradalen" />
		<tag k="natural" v="valley" />
		<tag k="place" v="locality" />
		<tag k="ssr:stedsnr" v="192805" />
	</node>
	<node id="-541308" lat="62.100847218" lon="5.29525834151">
		<tag k="name" v="Sjåstadvarden" />
		<tag k="natural" v="hill" />
		<tag k="place" v="locality" />
		<tag k="ssr:stedsnr" v="171883" />
	</node>
	<node id="-541307" lat="62.1016555573" lon="5.27294166517">
		<tag k="name" v="Raudehaugane" />
		<tag k="natural" v="hill" />
		<tag k="place" v="locality" />
		<tag k="ssr:stedsnr" v="171881" />
	</node>
	<node id="-541305" lat="62.0482527813" lon="5.30420278146">
		<tag k="fixme" v="multiple name tags, choose one and add the other to alt_name; consider natural=peak for the most distinct mountains in the district" />
		<tag k="name" v="Selja;Varden" />
		<tag k="natural" v="hill" />
		<tag k="ssr:stedsnr" v="171843" />
	</node>
	<node id="-541304" lat="62.107252777" lon="5.26689999793">
		<tag k="name" v="Gamleskaret" />
		<tag k="natural" v="valley" />
		<tag k="place" v="locality" />
		<tag k="ssr:stedsnr" v="171863" />
	</node>
	<node id="-541303" lat="62.1071472199" lon="5.2805027777">
		<tag k="name" v="Dragseidet" />
		<tag k="natural" v="valley" />
		<tag k="place" v="locality" />
		<tag k="ssr:stedsnr" v="171861" />
	</node>
	<node id="-541302" lat="61.9762638845" lon="5.31748611328">
		<tag k="name" v="Rundehaugen" />
		<tag k="natural" v="hill" />
		<tag k="place" v="locality" />
		<tag k="ssr:stedsnr" v="171773" />
	</node>
	<node id="-541301" lat="61.9771694488" lon="5.24363332987">
		<tag k="name" v="Aksla" />
		<tag k="natural" v="hill" />
		<tag k="place" v="locality" />
		<tag k="ssr:stedsnr" v="171770" />
	</node>
	<node id="-541300" lat="61.9728944487" lon="5.33892777681">
		<tag k="name" v="Kuløypet" />
		<tag k="natural" v="hill" />
		<tag k="place" v="locality" />
		<tag k="ssr:stedsnr" v="171644" />
	</node>
	<node id="-541299" lat="61.976166665" lon="5.3270000015">
		<tag k="name" v="Nakken" />
		<tag k="natural" v="hill" />
		<tag k="place" v="locality" />
		<tag k="ssr:stedsnr" v="171638" />
	</node>
	<node id="-541298" lat="61.9686444469" lon="5.33621388562">
		<tag k="name" v="Øvredalen" />
		<tag k="natural" v="valley" />
		<tag k="place" v="locality" />
		<tag k="ssr:stedsnr" v="171634" />
	</node>
	<node id="-541296" lat="62.2014722195" lon="5.1734138874">
		<tag k="name" v="Bratteberget" />
		<tag k="natural" v="hill" />
		<tag k="place" v="locality" />
		<tag k="ssr:stedsnr" v="171536" />
	</node>
	<node id="-541294" lat="61.9992805583" lon="5.46804721825">
		<tag k="name" v="Gorgeneshorn" />
		<tag k="natural" v="hill" />
		<tag k="place" v="locality" />
		<tag k="ssr:stedsnr" v="171555" />
	</node>
	<node id="-541293" lat="62.1062388927" lon="5.13815000632">
		<tag k="name" v="Snakkaren" />
		<tag k="natural" v="slope" />
		<tag k="place" v="locality" />
		<tag k="ssr:stedsnr" v="171216" />
	</node>
	<node id="-541291" lat="62.1680861067" lon="5.28801944369">
		<tag k="name" v="Horren" />
		<tag k="natural" v="hill" />
		<tag k="place" v="locality" />
		<tag k="ssr:stedsnr" v="171195" />
	</node>
	<node id="-541290" lat="62.115344443" lon="5.24743333443">
		<tag k="fixme" v="consider natural=peak for the most distinct mountains in the district" />
		<tag k="name" v="Myra" />
		<tag k="natural" v="hill" />
		<tag k="place" v="locality" />
		<tag k="ssr:stedsnr" v="171161" />
	</node>
	<node id="-541289" lat="62.1328194464" lon="5.2878611184">
		<tag k="name" v="Nordberget" />
		<tag k="natural" v="hill" />
		<tag k="place" v="locality" />
		<tag k="ssr:stedsnr" v="171156" />
	</node>
	<node id="-541288" lat="62.1144083366" lon="5.27368056153">
		<tag k="name" v="Signalen" />
		<tag k="natural" v="hill" />
		<tag k="place" v="locality" />
		<tag k="ssr:stedsnr" v="171139" />
	</node>
	<node id="-541286" lat="62.1520916647" lon="5.25416943743">
		<tag k="name" v="Brenslene" />
		<tag k="natural" v="slope" />
		<tag k="place" v="locality" />
		<tag k="ssr:stedsnr" v="171131" />
	</node>
	<node id="-541285" lat="62.1411777794" lon="5.26515832555">
		<tag k="alt_name" v="Hanekam Sø." />
		<tag k="name" v="Hanekammen" />
		<tag k="place" v="locality" />
		<tag k="ssr:stedsnr" v="171114" />
	</node>
	<node id="-541284" lat="62.0636472229" lon="5.42084721947">
		<tag k="name" v="Rundehaugen" />
		<tag k="natural" v="hill" />
		<tag k="place" v="locality" />
		<tag k="ssr:stedsnr" v="170948" />
	</node>
	<node id="-541282" lat="62.0400194436" lon="5.3973166727">
		<tag k="name" v="Jøta" />
		<tag k="natural" v="hill" />
		<tag k="place" v="locality" />
		<tag k="ssr:stedsnr" v="170944" />
	</node>
	<node id="-541281" lat="62.0400111141" lon="5.42454999994">
		<tag k="name" v="Reset" />
		<tag k="natural" v="hill" />
		<tag k="place" v="locality" />
		<tag k="ssr:stedsnr" v="170940" />
	</node>
	<node id="-541280" lat="62.0296111153" lon="5.42489722443">
		<tag k="name" v="Blåvassbrua" />
		<tag k="natural" v="hill" />
		<tag k="place" v="locality" />
		<tag k="ssr:stedsnr" v="170937" />
	</node>
	<node id="-541277" lat="61.9932527776" lon="5.34165554672">
		<tag k="name" v="Hesterabben" />
		<tag k="natural" v="hill" />
		<tag k="place" v="locality" />
		<tag k="ssr:stedsnr" v="170912" />
	</node>
	<node id="-541273" lat="62.0704055574" lon="5.3297388927">
		<tag k="fixme" v="consider natural=peak for the most distinct mountains in the district" />
		<tag k="name" v="Einestifjellet" />
		<tag k="natural" v="hill" />
		<tag k="place" v="locality" />
		<tag k="ssr:stedsnr" v="170972" />
	</node>
	<node id="-541272" lat="62.0235666685" lon="5.42800555172">
		<tag k="name" v="Eidsnesberget" />
		<tag k="natural" v="hill" />
		<tag k="place" v="locality" />
		<tag k="ssr:stedsnr" v="170895" />
	</node>
	<node id="-541271" lat="61.9899111142" lon="5.3850611072">
		<tag k="name" v="Botnen" />
		<tag k="natural" v="valley" />
		<tag k="place" v="locality" />
		<tag k="ssr:stedsnr" v="170623" />
	</node>
	<node id="-541268" lat="62.1694972245" lon="5.1373666713">
		<tag k="name" v="Breiegjølet" />
		<tag k="natural" v="valley" />
		<tag k="place" v="locality" />
		<tag k="ssr:stedsnr" v="170011" />
	</node>
	<node id="-541266" lat="62.1741861096" lon="5.11392777693">
		<tag k="name" v="Libbika" />
		<tag k="natural" v="slope" />
		<tag k="place" v="locality" />
		<tag k="ssr:stedsnr" v="170005" />
	</node>
	<node id="-541262" lat="62.0199444399" lon="5.4452555494">
		<tag k="name" v="Mannseidet" />
		<tag k="natural" v="valley" />
		<tag k="place" v="locality" />
		<tag k="ssr:stedsnr" v="142197" />
	</node>
	<node id="-541261" lat="61.9778305535" lon="5.44751387996">
		<tag k="fixme" v="multiple name tags, choose one and add the other to alt_name" />
		<tag k="name" v="Skorgedalen;Skorgedalen" />
		<tag k="natural" v="valley" />
		<tag k="place" v="locality" />
		<tag k="ssr:stedsnr" v="141513" />
	</node>
	<node id="-541258" lat="62.1336527779" lon="5.20570833539">
		<tag k="name" v="Langdalen" />
		<tag k="natural" v="valley" />
		<tag k="place" v="locality" />
		<tag k="ssr:stedsnr" v="132712" />
	</node>
	<node id="-541257" lat="62.1756944487" lon="5.209547215">
		<tag k="fixme" v="consider natural=peak for the most distinct mountains in the district" />
		<tag k="name" v="Sætrefjellet" />
		<tag k="natural" v="hill" />
		<tag k="place" v="locality" />
		<tag k="ssr:stedsnr" v="132698" />
	</node>
	<node id="-541255" lat="62.1047111139" lon="5.18310832832">
		<tag k="fixme" v="consider natural=peak for the most distinct mountains in the district" />
		<tag k="name" v="Furehornet" />
		<tag k="natural" v="hill" />
		<tag k="place" v="locality" />
		<tag k="ssr:stedsnr" v="132677" />
	</node>
	<node id="-541251" lat="62.085725" lon="5.26349723067">
		<tag k="name" v="Nobba" />
		<tag k="natural" v="cliff" />
		<tag k="ssr:stedsnr" v="132398" />
	</node>
	<node id="-541246" lat="62.0629083315" lon="5.42466667616">
		<tag k="fixme" v="consider natural=peak for the most distinct mountains in the district" />
		<tag k="name" v="Sandvikshornet" />
		<tag k="natural" v="hill" />
		<tag k="place" v="locality" />
		<tag k="ssr:stedsnr" v="132301" />
	</node>
	<node id="-541245" lat="62.0233722219" lon="5.27283610989">
		<tag k="fixme" v="consider natural=peak for the most distinct mountains in the district" />
		<tag k="name" v="Kvitefjellet" />
		<tag k="natural" v="hill" />
		<tag k="place" v="locality" />
		<tag k="ssr:stedsnr" v="132279" />
	</node>
	<node id="-541243" lat="62.0052249958" lon="5.34391943644">
		<tag k="name" v="Storehaugen" />
		<tag k="natural" v="hill" />
		<tag k="place" v="locality" />
		<tag k="ssr:stedsnr" v="132181" />
	</node>
	<node id="-541242" lat="62.1374750006" lon="5.20584445212">
		<tag k="fixme" v="consider natural=peak for the most distinct mountains in the district" />
		<tag k="name" v="Sætrefjellet" />
		<tag k="natural" v="hill" />
		<tag k="place" v="locality" />
		<tag k="ssr:stedsnr" v="132104" />
	</node>
	<node id="-541240" lat="61.9831777761" lon="5.43428332568">
		<tag k="name" v="Storevassegga" />
		<tag k="natural" v="hill" />
		<tag k="place" v="locality" />
		<tag k="ssr:stedsnr" v="131779" />
	</node>
	<node id="-541239" lat="61.9741615822" lon="5.30105611689">
		<tag k="name" v="Middagshaugen" />
		<tag k="natural" v="hill" />
		<tag k="place" v="locality" />
		<tag k="ssr:stedsnr" v="131774" />
	</node>
	<node id="-541238" lat="61.9812972195" lon="5.29557500382">
		<tag k="fixme" v="consider natural=peak for the most distinct mountains in the district" />
		<tag k="name" v="Sandvikhornet" />
		<tag k="natural" v="hill" />
		<tag k="place" v="locality" />
		<tag k="ssr:stedsnr" v="131773" />
	</node>
	<node id="-541234" lat="61.9363277768" lon="5.29734721324">
		<tag k="fixme" v="consider natural=peak for the most distinct mountains in the district" />
		<tag k="name" v="Vardefjellet" />
		<tag k="natural" v="hill" />
		<tag k="place" v="locality" />
		<tag k="ssr:stedsnr" v="131233" />
	</node>
	<node id="-541220" lat="62.1616083333" lon="5.32753610293">
		<tag k="name" v="Rimmane" />
		<tag k="place" v="locality" />
		<tag k="ssr:stedsnr" v="111853" />
	</node>
	<node id="-541219" lat="62.1627083348" lon="5.32151666257">
		<tag k="name" v="Storegjølet" />
		<tag k="natural" v="valley" />
		<tag k="place" v="locality" />
		<tag k="ssr:stedsnr" v="111846" />
	</node>
	<node id="-541218" lat="62.1091277798" lon="5.30313056445">
		<tag k="name" v="Dalane" />
		<tag k="natural" v="slope" />
		<tag k="place" v="locality" />
		<tag k="ssr:stedsnr" v="111834" />
	</node>
	<node id="-541217" lat="62.1011499963" lon="5.26170277772">
		<tag k="fixme" v="consider natural=peak for the most distinct mountains in the district" />
		<tag k="name" v="Rinden" />
		<tag k="natural" v="hill" />
		<tag k="ssr:stedsnr" v="111831" />
	</node>
	<node id="-541216" lat="62.0904361138" lon="5.30338332796">
		<tag k="name" v="Tjuehaugen" />
		<tag k="natural" v="hill" />
		<tag k="place" v="locality" />
		<tag k="ssr:stedsnr" v="111810" />
	</node>
	<node id="-541215" lat="62.1029944458" lon="5.34984444267">
		<tag k="name" v="Lundebrekkhaugen" />
		<tag k="natural" v="hill" />
		<tag k="place" v="locality" />
		<tag k="ssr:stedsnr" v="111800" />
	</node>
	<node id="-541212" lat="61.9988527745" lon="5.26354444952">
		<tag k="name" v="Geila" />
		<tag k="place" v="locality" />
		<tag k="ssr:stedsnr" v="111761" />
	</node>
	<node id="-541211" lat="61.9989305571" lon="5.27365000544">
		<tag k="name" v="Hornet" />
		<tag k="natural" v="hill" />
		<tag k="place" v="locality" />
		<tag k="ssr:stedsnr" v="111750" />
	</node>
	<node id="-541210" lat="62.1921277775" lon="5.142119439">
		<tag k="name" v="Svinevikgjølet" />
		<tag k="natural" v="valley" />
		<tag k="place" v="locality" />
		<tag k="ssr:stedsnr" v="111707" />
	</node>
	<node id="-541209" lat="62.1830361122" lon="5.11969445257">
		<tag k="name" v="Vetedalen" />
		<tag k="natural" v="valley" />
		<tag k="place" v="locality" />
		<tag k="ssr:stedsnr" v="111705" />
	</node>
	<node id="-541208" lat="61.9703722255" lon="5.33107500873">
		<tag k="name" v="Eggja" />
		<tag k="natural" v="hill" />
		<tag k="place" v="locality" />
		<tag k="ssr:stedsnr" v="111588" />
	</node>
	<node id="-541206" lat="62.036741669" lon="5.47743333118">
		<tag k="name" v="Skarsletta" />
		<tag k="place" v="locality" />
		<tag k="ssr:stedsnr" v="111547" />
	</node>
	<node id="-541203" lat="62.0216611089" lon="5.46454721327">
		<tag k="name" v="Kollane" />
		<tag k="natural" v="hill" />
		<tag k="place" v="locality" />
		<tag k="ssr:stedsnr" v="111525" />
	</node>
	<node id="-541200" lat="62.166591665" lon="5.2238055537">
		<tag k="name" v="Storehaugen" />
		<tag k="natural" v="hill" />
		<tag k="place" v="locality" />
		<tag k="ssr:stedsnr" v="111237" />
	</node>
	<node id="-541199" lat="62.1593083351" lon="5.23497222145">
		<tag k="name" v="Kyrliheia" />
		<tag k="natural" v="hill" />
		<tag k="place" v="locality" />
		<tag k="ssr:stedsnr" v="111231" />
	</node>
	<node id="-541198" lat="62.1752111102" lon="5.26256110223">
		<tag k="name" v="Stigetua" />
		<tag k="place" v="locality" />
		<tag k="ssr:stedsnr" v="111218" />
	</node>
	<node id="-541197" lat="62.1181388912" lon="5.13984444063">
		<tag k="name" v="Maraftadalen" />
		<tag k="natural" v="valley" />
		<tag k="place" v="locality" />
		<tag k="ssr:stedsnr" v="111197" />
	</node>
	<node id="-541196" lat="62.126341666" lon="5.18117222126">
		<tag k="name" v="Kulen" />
		<tag k="natural" v="hill" />
		<tag k="place" v="locality" />
		<tag k="ssr:stedsnr" v="111195" />
	</node>
	<node id="-541193" lat="62.1265055551" lon="5.2715750096">
		<tag k="name" v="Kyrkjeskaret" />
		<tag k="natural" v="valley" />
		<tag k="place" v="locality" />
		<tag k="ssr:stedsnr" v="111175" />
	</node>
	<node id="-541192" lat="62.1170777786" lon="5.27142777032">
		<tag k="name" v="Litlevarden" />
		<tag k="natural" v="hill" />
		<tag k="place" v="locality" />
		<tag k="ssr:stedsnr" v="111173" />
	</node>
	<node id="-541191" lat="62.1624055577" lon="5.29866667371">
		<tag k="name" v="Fossane" />
		<tag k="natural" v="cliff" />
		<tag k="ssr:stedsnr" v="111150" />
	</node>
	<node id="-541188" lat="62.1389916683" lon="5.24556944366">
		<tag k="name" v="Gardsendehaugen" />
		<tag k="natural" v="hill" />
		<tag k="place" v="locality" />
		<tag k="ssr:stedsnr" v="111142" />
	</node>
	<node id="-541187" lat="62.0604805585" lon="5.34322499842">
		<tag k="name" v="Pilebergsnakken" />
		<tag k="natural" v="hill" />
		<tag k="place" v="locality" />
		<tag k="ssr:stedsnr" v="110989" />
	</node>
	<node id="-541186" lat="62.0656888899" lon="5.33624444866">
		<tag k="name" v="Ørnetua" />
		<tag k="natural" v="hill" />
		<tag k="place" v="locality" />
		<tag k="ssr:stedsnr" v="110973" />
	</node>
	<node id="-541185" lat="62.0504555512" lon="5.38379722457">
		<tag k="name" v="Bogeskaret" />
		<tag k="natural" v="valley" />
		<tag k="place" v="locality" />
		<tag k="ssr:stedsnr" v="110963" />
	</node>
	<node id="-541181" lat="62.0383416639" lon="5.39754166824">
		<tag k="name" v="Nakken" />
		<tag k="natural" v="slope" />
		<tag k="place" v="locality" />
		<tag k="ssr:stedsnr" v="110940" />
	</node>
	<node id="-541180" lat="62.0400805534" lon="5.41921944076">
		<tag k="name" v="Kjerra" />
		<tag k="natural" v="hill" />
		<tag k="place" v="locality" />
		<tag k="ssr:stedsnr" v="110936" />
	</node>
	<node id="-541179" lat="62.0090333351" lon="5.41533333642">
		<tag k="name" v="Einehaugen" />
		<tag k="natural" v="hill" />
		<tag k="place" v="locality" />
		<tag k="ssr:stedsnr" v="110914" />
	</node>
	<node id="-541177" lat="62.0108166644" lon="5.40343610697">
		<tag k="name" v="Rindane" />
		<tag k="place" v="locality" />
		<tag k="ssr:stedsnr" v="110909" />
	</node>
	<node id="-541175" lat="62.0064361104" lon="5.40623056308">
		<tag k="name" v="Storehaugen" />
		<tag k="natural" v="hill" />
		<tag k="place" v="locality" />
		<tag k="ssr:stedsnr" v="110898" />
	</node>
	<node id="-541174" lat="62.0226888896" lon="5.36665832833">
		<tag k="name" v="Nakken" />
		<tag k="natural" v="hill" />
		<tag k="place" v="locality" />
		<tag k="ssr:stedsnr" v="110892" />
	</node>
	<node id="-541170" lat="61.9891249988" lon="5.42025555977">
		<tag k="name" v="Rylen" />
		<tag k="natural" v="hill" />
		<tag k="place" v="locality" />
		<tag k="ssr:stedsnr" v="110641" />
	</node>
	<node id="-541165" lat="62.1684222257" lon="5.16501943819">
		<tag k="name" v="Ferstadbruna" />
		<tag k="natural" v="valley" />
		<tag k="place" v="locality" />
		<tag k="ssr:stedsnr" v="110057" />
	</node>
	<node id="-541164" lat="62.1604996944" lon="5.1437214522">
		<tag k="name" v="Vassbotnen" />
		<tag k="natural" v="valley" />
		<tag k="place" v="locality" />
		<tag k="ssr:stedsnr" v="110051" />
	</node>
	<node id="-541163" lat="62.1480944408" lon="5.13406388333">
		<tag k="name" v="Selegjøtten" />
		<tag k="natural" v="valley" />
		<tag k="place" v="locality" />
		<tag k="ssr:stedsnr" v="110039" />
	</node>
	<node id="-541162" lat="62.1694055543" lon="5.13468334286">
		<tag k="name" v="Nakken" />
		<tag k="natural" v="slope" />
		<tag k="place" v="locality" />
		<tag k="ssr:stedsnr" v="110018" />
	</node>
	<node id="-541161" lat="62.1847222247" lon="5.20646111848">
		<tag k="name" v="Store Setrefjellet" />
		<tag k="natural" v="hill" />
		<tag k="place" v="locality" />
		<tag k="ssr:stedsnr" v="110012" />
	</node>
	<node id="-541151" lat="62.0160744671" lon="5.3692032634">
		<tag k="fixme" v="consider natural=peak for the most distinct mountains in the district" />
		<tag k="name" v="Klova" />
		<tag k="natural" v="hill" />
		<tag k="place" v="locality" />
		<tag k="ssr:stedsnr" v="72192" />
	</node>
	<node id="-541146" lat="62.1101250016" lon="5.12962777739">
		<tag k="fixme" v="consider natural=peak for the most distinct mountains in the district" />
		<tag k="name" v="Signalen" />
		<tag k="natural" v="hill" />
		<tag k="place" v="locality" />
		<tag k="ssr:stedsnr" v="71714" />
	</node>
	<node id="-541145" lat="62.1594805558" lon="5.21867223045">
		<tag k="fixme" v="consider natural=peak for the most distinct mountains in the district" />
		<tag k="name" v="Grøtrøysa" />
		<tag k="natural" v="hill" />
		<tag k="place" v="locality" />
		<tag k="ssr:stedsnr" v="71567" />
	</node>
	<node id="-541142" lat="62.0625388853" lon="5.37540834117">
		<tag k="fixme" v="consider natural=peak for the most distinct mountains in the district" />
		<tag k="name" v="Tarvaldsegga" />
		<tag k="natural" v="hill" />
		<tag k="place" v="locality" />
		<tag k="ssr:stedsnr" v="71361" />
	</node>
	<node id="-541141" lat="62.011894448" lon="5.35034722114">
		<tag k="name" v="Saltadalen" />
		<tag k="natural" v="valley" />
		<tag k="place" v="locality" />
		<tag k="ssr:stedsnr" v="71326" />
	</node>
	<node id="-541130" lat="62.1035416649" lon="5.29976111148">
		<tag k="name" v="Nova" />
		<tag k="natural" v="hill" />
		<tag k="place" v="locality" />
		<tag k="ssr:stedsnr" v="50840" />
	</node>
	<node id="-541129" lat="62.1035472208" lon="5.26641110802">
		<tag k="name" v="Synet" />
		<tag k="place" v="locality" />
		<tag k="ssr:stedsnr" v="50834" />
	</node>
	<node id="-541128" lat="62.1100611128" lon="5.26006389432">
		<tag k="fixme" v="consider natural=peak for the most distinct mountains in the district" />
		<tag k="name" v="Aksla" />
		<tag k="natural" v="hill" />
		<tag k="ssr:stedsnr" v="50829" />
	</node>
	<node id="-541127" lat="62.0910361134" lon="5.2817638814">
		<tag k="name" v="Steinahaugen" />
		<tag k="natural" v="hill" />
		<tag k="place" v="locality" />
		<tag k="ssr:stedsnr" v="50795" />
	</node>
	<node id="-541123" lat="62.176852775" lon="5.10913888234">
		<tag k="name" v="Riskollen" />
		<tag k="natural" v="hill" />
		<tag k="place" v="locality" />
		<tag k="ssr:stedsnr" v="50689" />
	</node>
	<node id="-541121" lat="62.0499888849" lon="5.44043888113">
		<tag k="name" v="Legehaugane" />
		<tag k="natural" v="hill" />
		<tag k="place" v="locality" />
		<tag k="ssr:stedsnr" v="50547" />
	</node>
	<node id="-541119" lat="62.0540138849" lon="5.44004165938">
		<tag k="name" v="Sletteberg" />
		<tag k="natural" v="slope" />
		<tag k="place" v="locality" />
		<tag k="ssr:stedsnr" v="50539" />
	</node>
	<node id="-541117" lat="62.0421444466" lon="5.45074722827">
		<tag k="name" v="Timbreskaret" />
		<tag k="natural" v="valley" />
		<tag k="place" v="locality" />
		<tag k="ssr:stedsnr" v="50533" />
	</node>
	<node id="-541115" lat="62.0134555538" lon="5.45813888113">
		<tag k="name" v="Liakollen" />
		<tag k="natural" v="hill" />
		<tag k="place" v="locality" />
		<tag k="ssr:stedsnr" v="50518" />
	</node>
	<node id="-541114" lat="61.9954027739" lon="5.44859443768">
		<tag k="name" v="Nobba" />
		<tag k="natural" v="hill" />
		<tag k="place" v="locality" />
		<tag k="ssr:stedsnr" v="50505" />
	</node>
	<node id="-541113" lat="62.1837388917" lon="5.1034972133">
		<tag k="name" v="Fåden" />
		<tag k="place" v="locality" />
		<tag k="ssr:stedsnr" v="50491" />
	</node>
	<node id="-541110" lat="62.172938885" lon="5.27376667548">
		<tag k="name" v="Langedalen" />
		<tag k="natural" v="valley" />
		<tag k="place" v="locality" />
		<tag k="ssr:stedsnr" v="50218" />
	</node>
	<node id="-541109" lat="62.1212722194" lon="5.18618611938">
		<tag k="name" v="Storehylla" />
		<tag k="place" v="locality" />
		<tag k="ssr:stedsnr" v="50190" />
	</node>
	<node id="-541108" lat="62.1297833309" lon="5.29270277965">
		<tag k="name" v="Skarhaugen" />
		<tag k="natural" v="hill" />
		<tag k="place" v="locality" />
		<tag k="ssr:stedsnr" v="50177" />
	</node>
	<node id="-541106" lat="62.1178027783" lon="5.28492222909">
		<tag k="name" v="Kupenakken" />
		<tag k="natural" v="ridge" />
		<tag k="place" v="locality" />
		<tag k="ssr:stedsnr" v="50169" />
	</node>
	<node id="-541102" lat="62.0636166708" lon="5.34744167545">
		<tag k="name" v="Hornet" />
		<tag k="natural" v="hill" />
		<tag k="place" v="locality" />
		<tag k="ssr:stedsnr" v="49989" />
	</node>
	<node id="-541100" lat="62.0511527765" lon="5.3501499976">
		<tag k="name" v="Kyrkjehornet" />
		<tag k="natural" v="hill" />
		<tag k="place" v="locality" />
		<tag k="ssr:stedsnr" v="49952" />
	</node>
	<node id="-541099" lat="62.027561115" lon="5.41911111297">
		<tag k="name" v="Slagarurhaugen" />
		<tag k="natural" v="hill" />
		<tag k="place" v="locality" />
		<tag k="ssr:stedsnr" v="49928" />
	</node>
	<node id="-541096" lat="62.0147805586" lon="5.38831944063">
		<tag k="name" v="Dyrehaugane" />
		<tag k="natural" v="hill" />
		<tag k="place" v="locality" />
		<tag k="ssr:stedsnr" v="49901" />
	</node>
	<node id="-541093" lat="62.0103083363" lon="5.41430833941">
		<tag k="name" v="Litleleite" />
		<tag k="natural" v="slope" />
		<tag k="place" v="locality" />
		<tag k="ssr:stedsnr" v="49886" />
	</node>
	<node id="-541092" lat="62.0253916705" lon="5.34540554782">
		<tag k="name" v="Vaulane" />
		<tag k="place" v="locality" />
		<tag k="ssr:stedsnr" v="49878" />
	</node>
	<node id="-541091" lat="62.0227944458" lon="5.43827777319">
		<tag k="name" v="Branden" />
		<tag k="place" v="locality" />
		<tag k="ssr:stedsnr" v="49872" />
	</node>
	<node id="-541088" lat="61.9732055558" lon="5.29134723126">
		<tag k="name" v="Vedrhushornet" />
		<tag k="natural" v="hill" />
		<tag k="place" v="locality" />
		<tag k="ssr:stedsnr" v="49771" />
	</node>
	<node id="-541087" lat="61.9904111145" lon="5.39006388139">
		<tag k="name" v="Stelle" />
		<tag k="place" v="locality" />
		<tag k="ssr:stedsnr" v="49661" />
	</node>
	<node id="-541086" lat="62.1548472252" lon="5.15271388523">
		<tag k="name" v="Småkopane" />
		<tag k="natural" v="valley" />
		<tag k="place" v="locality" />
		<tag k="ssr:stedsnr" v="49247" />
	</node>
	<node id="-541085" lat="62.1532861136" lon="5.14748611225">
		<tag k="name" v="Kopen" />
		<tag k="natural" v="valley" />
		<tag k="place" v="locality" />
		<tag k="ssr:stedsnr" v="49245" />
	</node>
	<node id="-541083" lat="62.1368722177" lon="5.17469999661">
		<tag k="name" v="Eslihornet" />
		<tag k="natural" v="hill" />
		<tag k="place" v="locality" />
		<tag k="ssr:stedsnr" v="49238" />
	</node>
	<node id="-541081" lat="62.1624388897" lon="5.15553333507">
		<tag k="name" v="Lygnene" />
		<tag k="place" v="locality" />
		<tag k="ssr:stedsnr" v="49042" />
	</node>
	<node id="-541077" lat="62.0428472187" lon="5.39281666531">
		<tag k="fixme" v="consider natural=peak for the most distinct mountains in the district" />
		<tag k="name" v="Bergshornet" />
		<tag k="natural" v="hill" />
		<tag k="place" v="locality" />
		<tag k="ssr:stedsnr" v="21182" />
	</node>
	<node id="-541076" lat="62.1761277754" lon="5.11627778696">
		<tag k="name" v="Nipa" />
		<tag k="natural" v="hill" />
		<tag k="place" v="locality" />
		<tag k="ssr:stedsnr" v="11736" />
	</node>
	<node id="-541073" lat="62.121041669" lon="5.12689166644">
		<tag k="fixme" v="consider natural=peak for the most distinct mountains in the district" />
		<tag k="name" v="Høgeheida" />
		<tag k="natural" v="hill" />
		<tag k="place" v="locality" />
		<tag k="ssr:stedsnr" v="11711" />
	</node>
	<node id="-541059" lat="62.0328638893" lon="5.46395556304">
		<tag k="name" v="Kvamshornet" />
		<tag k="natural" v="hill" />
		<tag k="place" v="locality" />
		<tag k="ssr:stedsnr" v="11249" />
	</node>
	<node id="-541058" lat="62.0337222238" lon="5.44079999744">
		<tag k="name" v="Storehaugen" />
		<tag k="natural" v="hill" />
		<tag k="place" v="locality" />
		<tag k="ssr:stedsnr" v="11247" />
	</node>
	<node id="-541055" lat="61.9664583322" lon="5.31158334017">
		<tag k="fixme" v="consider natural=peak for the most distinct mountains in the district" />
		<tag k="name" v="Blåfjellet" />
		<tag k="natural" v="hill" />
		<tag k="place" v="locality" />
		<tag k="ssr:stedsnr" v="10784" />
	</node>
	<node id="-541053" lat="62.1077568741" lon="5.2252857333">
		<tag k="fixme" v="consider natural=peak for the most distinct mountains in the district" />
		<tag k="name" v="Elvehornet" />
		<tag k="natural" v="hill" />
		<tag k="place" v="locality" />
		<tag k="ssr:stedsnr" v="10393" />
	</node>
	<node id="-541047" lat="62.052227781" lon="5.41470834167">
		<tag k="name" v="Grasdalen" />
		<tag k="natural" v="valley" />
		<tag k="place" v="locality" />
		<tag k="ssr:stedsnr" v="413967" />
	</node>
	<node id="-541046" lat="62.0494249994" lon="5.38891666273">
		<tag k="name" v="Søreggja" />
		<tag k="natural" v="hill" />
		<tag k="place" v="locality" />
		<tag k="ssr:stedsnr" v="413964" />
	</node>
	<node id="-541045" lat="62.0455388908" lon="5.34126111874">
		<tag k="name" v="Nabben" />
		<tag k="natural" v="hill" />
		<tag k="place" v="locality" />
		<tag k="ssr:stedsnr" v="413958" />
	</node>
	<node id="-541044" lat="62.0482444406" lon="5.35693888096">
		<tag k="name" v="Klipet" />
		<tag k="natural" v="hill" />
		<tag k="place" v="locality" />
		<tag k="ssr:stedsnr" v="413956" />
	</node>
	<node id="-541043" lat="62.0418249988" lon="5.34323333585">
		<tag k="name" v="Storehaugen" />
		<tag k="natural" v="hill" />
		<tag k="place" v="locality" />
		<tag k="ssr:stedsnr" v="413953" />
	</node>
	<node id="-541042" lat="62.0501666695" lon="5.3811277766">
		<tag k="name" v="Bogeskarnakken" />
		<tag k="natural" v="hill" />
		<tag k="place" v="locality" />
		<tag k="ssr:stedsnr" v="413950" />
	</node>
	<node id="-541037" lat="62.019519444" lon="5.38388888839">
		<tag k="name" v="Jøtehaugane" />
		<tag k="natural" v="hill" />
		<tag k="place" v="locality" />
		<tag k="ssr:stedsnr" v="413901" />
	</node>
	<node id="-541035" lat="62.0134749968" lon="5.38451943765">
		<tag k="name" v="Rabbane" />
		<tag k="natural" v="slope" />
		<tag k="place" v="locality" />
		<tag k="ssr:stedsnr" v="413882" />
	</node>
	<node id="-541032" lat="62.0914611074" lon="5.38138889077">
		<tag k="name" v="Nausen" />
		<tag k="natural" v="hill" />
		<tag k="place" v="locality" />
		<tag k="ssr:stedsnr" v="413788" />
	</node>
	<node id="-541030" lat="62.1637916706" lon="5.18219722241">
		<tag k="name" v="Rinden" />
		<tag k="natural" v="hill" />
		<tag k="place" v="locality" />
		<tag k="ssr:stedsnr" v="899046" />
	</node>
	<node id="-541028" lat="62.1598472205" lon="5.16175277992">
		<tag k="name" v="Gussholdane" />
		<tag k="natural" v="slope" />
		<tag k="place" v="locality" />
		<tag k="ssr:stedsnr" v="899041" />
	</node>
	<node id="-541027" lat="62.1698638934" lon="5.12116667364">
		<tag k="name" v="Klenegjølet" />
		<tag k="natural" v="valley" />
		<tag k="place" v="locality" />
		<tag k="ssr:stedsnr" v="899022" />
	</node>
	<node id="-541026" lat="62.1708666707" lon="5.11878056189">
		<tag k="name" v="Skipgjølet" />
		<tag k="natural" v="slope" />
		<tag k="place" v="locality" />
		<tag k="ssr:stedsnr" v="899019" />
	</node>
	<node id="-541023" lat="62.136102776" lon="5.14829445393">
		<tag k="name" v="Såta" />
		<tag k="place" v="locality" />
		<tag k="ssr:stedsnr" v="899206" />
	</node>
	<node id="-541021" lat="62.1583972211" lon="5.29764721708">
		<tag k="name" v="Hamnaneshaugen" />
		<tag k="natural" v="hill" />
		<tag k="place" v="locality" />
		<tag k="ssr:stedsnr" v="479379" />
	</node>
	<node id="-541019" lat="62.0545194413" lon="5.46633610911">
		<tag k="name" v="Kamperhaugen" />
		<tag k="natural" v="hill" />
		<tag k="place" v="locality" />
		<tag k="ssr:stedsnr" v="475591" />
	</node>
	<node id="-541018" lat="62.0549527782" lon="5.45469999435">
		<tag k="name" v="Ukvehaugane" />
		<tag k="natural" v="hill" />
		<tag k="place" v="locality" />
		<tag k="ssr:stedsnr" v="475589" />
	</node>
	<node id="-541015" lat="62.0800138928" lon="5.39609721562">
		<tag k="name" v="Svatehammaren" />
		<tag k="natural" v="hill" />
		<tag k="place" v="locality" />
		<tag k="ssr:stedsnr" v="474997" />
	</node>
	<node id="-541014" lat="62.0735649164" lon="5.3854885228">
		<tag k="name" v="Grøtnipa" />
		<tag k="natural" v="hill" />
		<tag k="place" v="locality" />
		<tag k="ssr:stedsnr" v="474995" />
	</node>
	<node id="-541013" lat="62.0663111084" lon="5.33980833384">
		<tag k="name" v="Kolkleiva" />
		<tag k="natural" v="slope" />
		<tag k="place" v="locality" />
		<tag k="ssr:stedsnr" v="474982" />
	</node>
	<node id="-541012" lat="62.0706305577" lon="5.38104444715">
		<tag k="name" v="Maraftatua" />
		<tag k="place" v="locality" />
		<tag k="ssr:stedsnr" v="474979" />
	</node>
	<node id="-541007" lat="62.0370194418" lon="5.40747499207">
		<tag k="name" v="Kattahammaren" />
		<tag k="natural" v="hill" />
		<tag k="place" v="locality" />
		<tag k="ssr:stedsnr" v="474929" />
	</node>
	<node id="-541004" lat="62.0384166643" lon="5.36618610631">
		<tag k="name" v="Hamrehornet" />
		<tag k="natural" v="hill" />
		<tag k="place" v="locality" />
		<tag k="ssr:stedsnr" v="474911" />
	</node>
	<node id="-541000" lat="62.0203583353" lon="5.37042221296">
		<tag k="name" v="Klova" />
		<tag k="natural" v="hill" />
		<tag k="place" v="locality" />
		<tag k="ssr:stedsnr" v="474884" />
	</node>
	<node id="-540999" lat="62.1655000023" lon="5.32284721492">
		<tag k="name" v="Øvre Gjellen" />
		<tag k="natural" v="hill" />
		<tag k="place" v="locality" />
		<tag k="ssr:stedsnr" v="474862" />
	</node>
	<node id="-540998" lat="62.1087833338" lon="5.29589722102">
		<tag k="fixme" v="consider natural=peak for the most distinct mountains in the district" />
		<tag k="name" v="Nobba" />
		<tag k="natural" v="hill" />
		<tag k="ssr:stedsnr" v="474852" />
	</node>
	<node id="-540997" lat="62.1032666666" lon="5.26556111367">
		<tag k="name" v="Rindagjølet" />
		<tag k="natural" v="valley" />
		<tag k="place" v="locality" />
		<tag k="ssr:stedsnr" v="474849" />
	</node>
	<node id="-540995" lat="62.1080861101" lon="5.34567499511">
		<tag k="name" v="Litleskaret" />
		<tag k="natural" v="valley" />
		<tag k="place" v="locality" />
		<tag k="ssr:stedsnr" v="474811" />
	</node>
	<node id="-540993" lat="62.0172916644" lon="5.28225833772">
		<tag k="name" v="Heia" />
		<tag k="natural" v="hill" />
		<tag k="place" v="locality" />
		<tag k="ssr:stedsnr" v="474748" />
	</node>
	<node id="-540992" lat="62.1128972188" lon="5.17759443899">
		<tag k="name" v="Fureskora" />
		<tag k="natural" v="valley" />
		<tag k="place" v="locality" />
		<tag k="ssr:stedsnr" v="474746" />
	</node>
	<node id="-540991" lat="61.9933555567" lon="5.432141667">
		<tag k="name" v="Kupebakken" />
		<tag k="natural" v="slope" />
		<tag k="place" v="locality" />
		<tag k="ssr:stedsnr" v="474639" />
	</node>
	<node id="-540990" lat="62.0030888929" lon="5.40165832975">
		<tag k="name" v="Naustmuren" />
		<tag k="place" v="locality" />
		<tag k="ssr:stedsnr" v="474634" />
	</node>
	<node id="-540988" lat="62.0653805544" lon="5.43952223162">
		<tag k="name" v="Lynghammaren" />
		<tag k="natural" v="hill" />
		<tag k="place" v="locality" />
		<tag k="ssr:stedsnr" v="474603" />
	</node>
	<node id="-540987" lat="62.0352694424" lon="5.46051944405">
		<tag k="fixme" v="consider natural=peak for the most distinct mountains in the district" />
		<tag k="name" v="Setrefjellet" />
		<tag k="natural" v="hill" />
		<tag k="place" v="locality" />
		<tag k="ssr:stedsnr" v="474578" />
	</node>
	<node id="-540986" lat="62.018069442" lon="5.44064999463">
		<tag k="name" v="Hellebakken" />
		<tag k="natural" v="slope" />
		<tag k="place" v="locality" />
		<tag k="ssr:stedsnr" v="474563" />
	</node>
	<node id="-540985" lat="62.0162249969" lon="5.45467499623">
		<tag k="name" v="Skinhaugen" />
		<tag k="natural" v="hill" />
		<tag k="place" v="locality" />
		<tag k="ssr:stedsnr" v="474555" />
	</node>
	<node id="-540984" lat="62.0194305575" lon="5.4511305614">
		<tag k="name" v="Store Sauhola" />
		<tag k="place" v="locality" />
		<tag k="ssr:stedsnr" v="474554" />
	</node>
	<node id="-540983" lat="62.0300166672" lon="5.44909167367">
		<tag k="name" v="Steineggja" />
		<tag k="natural" v="hill" />
		<tag k="place" v="locality" />
		<tag k="ssr:stedsnr" v="474547" />
	</node>
	<node id="-540980" lat="62.1043166667" lon="5.13986944018">
		<tag k="name" v="Rampenakkane" />
		<tag k="natural" v="hill" />
		<tag k="place" v="locality" />
		<tag k="ssr:stedsnr" v="474244" />
	</node>
	<node id="-540979" lat="62.1714527776" lon="5.28016667459">
		<tag k="name" v="Skylane" />
		<tag k="natural" v="slope" />
		<tag k="place" v="locality" />
		<tag k="ssr:stedsnr" v="474218" />
	</node>
	<node id="-540978" lat="62.1397666701" lon="5.14784721639">
		<tag k="name" v="Yste Molvikgjølet" />
		<tag k="natural" v="valley" />
		<tag k="place" v="locality" />
		<tag k="ssr:stedsnr" v="474199" />
	</node>
	<node id="-540977" lat="62.1025861096" lon="5.12130556451">
		<tag k="name" v="Nesgjøtten" />
		<tag k="natural" v="valley" />
		<tag k="place" v="locality" />
		<tag k="ssr:stedsnr" v="474188" />
	</node>
	<node id="-540976" lat="62.1096666701" lon="5.12810277845">
		<tag k="name" v="Jonseggja" />
		<tag k="natural" v="hill" />
		<tag k="place" v="locality" />
		<tag k="ssr:stedsnr" v="474186" />
	</node>
	<node id="-540971" lat="62.1220166639" lon="5.25521111921">
		<tag k="name" v="Doveheia" />
		<tag k="natural" v="hill" />
		<tag k="place" v="locality" />
		<tag k="ssr:stedsnr" v="474116" />
	</node>
	<node id="-540970" lat="62.1604055587" lon="5.1011027788">
		<tag k="name" v="Johanskora" />
		<tag k="natural" v="hill" />
		<tag k="place" v="locality" />
		<tag k="ssr:stedsnr" v="474051" />
	</node>
	<node id="-540969" lat="62.1905523727" lon="5.20318674898">
		<tag k="name" v="Reidahammaren" />
		<tag k="natural" v="hill" />
		<tag k="place" v="locality" />
		<tag k="ssr:stedsnr" v="474030" />
	</node>
	<node id="-540968" lat="62.1708749969" lon="5.13329721918">
		<tag k="name" v="Glennebruna" />
		<tag k="natural" v="slope" />
		<tag k="place" v="locality" />
		<tag k="ssr:stedsnr" v="474019" />
	</node>
	<node id="-540965" lat="62.1889583309" lon="5.19215834056">
		<tag k="name" v="Vatsta" />
		<tag k="natural" v="slope" />
		<tag k="place" v="locality" />
		<tag k="ssr:stedsnr" v="474001" />
	</node>
	<node id="-540964" lat="61.991722225" lon="5.40000555818">
		<tag k="name" v="Dyrlemdalen" />
		<tag k="natural" v="valley" />
		<tag k="place" v="locality" />
		<tag k="ssr:stedsnr" v="413637" />
	</node>
	<node id="-540962" lat="62.002649998" lon="5.41656111757">
		<tag k="name" v="Berstadeggja" />
		<tag k="natural" v="hill" />
		<tag k="place" v="locality" />
		<tag k="ssr:stedsnr" v="413633" />
	</node>
	<node id="-540955" lat="62.1626046805" lon="5.19228853397">
		<tag k="name" v="Tinden" />
		<tag k="natural" v="hill" />
		<tag k="place" v="locality" />
		<tag k="ssr:stedsnr" v="414240" />
	</node>
	<node id="-540954" lat="62.1596138919" lon="5.2046888939">
		<tag k="name" v="Røysa" />
		<tag k="place" v="locality" />
		<tag k="ssr:stedsnr" v="414241" />
	</node>
	<node id="-540953" lat="62.1720500018" lon="5.25514722863">
		<tag k="fixme" v="consider natural=peak for the most distinct mountains in the district" />
		<tag k="name" v="Stifjellet" />
		<tag k="natural" v="hill" />
		<tag k="place" v="locality" />
		<tag k="ssr:stedsnr" v="414234" />
	</node>
	<node id="-540952" lat="62.1009527748" lon="5.12484167289">
		<tag k="name" v="Daleberget" />
		<tag k="natural" v="hill" />
		<tag k="place" v="locality" />
		<tag k="ssr:stedsnr" v="414199" />
	</node>
	<node id="-540950" lat="62.1140305534" lon="5.20128055635">
		<tag k="name" v="Hoddevikdalen" />
		<tag k="natural" v="valley" />
		<tag k="place" v="locality" />
		<tag k="ssr:stedsnr" v="414189" />
	</node>
	<node id="-540947" lat="62.133186108" lon="5.14399723044">
		<tag k="fixme" v="consider natural=peak for the most distinct mountains in the district" />
		<tag k="name" v="Ytre Molvikhornet" />
		<tag k="natural" v="hill" />
		<tag k="place" v="locality" />
		<tag k="ssr:stedsnr" v="384301" />
	</node>
	<node id="-540946" lat="62.1185750005" lon="5.28206666471">
		<tag k="name" v="Ystenakken" />
		<tag k="natural" v="ridge" />
		<tag k="place" v="locality" />
		<tag k="ssr:stedsnr" v="414166" />
	</node>
	<node id="-540945" lat="62.1190361125" lon="5.28415276801">
		<tag k="name" v="Stavskupa" />
		<tag k="natural" v="slope" />
		<tag k="place" v="locality" />
		<tag k="ssr:stedsnr" v="414164" />
	</node>
	<node id="-540944" lat="62.1134499989" lon="5.27690278658">
		<tag k="name" v="Storevasshaugen" />
		<tag k="natural" v="hill" />
		<tag k="place" v="locality" />
		<tag k="ssr:stedsnr" v="414156" />
	</node>
	<node id="-540926" lat="61.9882166655" lon="5.36307778704">
		<tag k="name" v="Venedalen" />
		<tag k="natural" v="valley" />
		<tag k="place" v="locality" />
		<tag k="ssr:stedsnr" v="374760" />
	</node>
	<node id="-540924" lat="62.1875384571" lon="5.12619915804">
		<tag k="fixme" v="consider natural=peak for the most distinct mountains in the district" />
		<tag k="name" v="Kjerringa" />
		<tag k="natural" v="hill" />
		<tag k="ssr:stedsnr" v="374749" />
	</node>
	<node id="-540910" lat="62.1478638892" lon="5.2930277866">
		<tag k="name" v="Storhammaren" />
		<tag k="natural" v="hill" />
		<tag k="place" v="locality" />
		<tag k="ssr:stedsnr" v="414128" />
	</node>
	<node id="-540909" lat="62.1330611112" lon="5.19826389545">
		<tag k="name" v="Kupa" />
		<tag k="natural" v="hill" />
		<tag k="place" v="locality" />
		<tag k="ssr:stedsnr" v="414126" />
	</node>
	<node id="-540908" lat="62.1427944418" lon="5.30678334242">
		<tag k="name" v="Vikadalen" />
		<tag k="natural" v="valley" />
		<tag k="place" v="locality" />
		<tag k="ssr:stedsnr" v="414124" />
	</node>
	<node id="-540894" lat="62.1661472263" lon="5.31645554784">
		<tag k="name" v="Ramsgrashaugen" />
		<tag k="natural" v="hill" />
		<tag k="place" v="locality" />
		<tag k="ssr:stedsnr" v="353873" />
	</node>
	<node id="-540893" lat="62.0937388852" lon="5.3042694444">
		<tag k="name" v="Tjuehaugen" />
		<tag k="natural" v="hill" />
		<tag k="place" v="locality" />
		<tag k="ssr:stedsnr" v="353852" />
	</node>
	<node id="-540889" lat="61.9754166689" lon="5.30095556364">
		<tag k="name" v="Nonshaugen" />
		<tag k="natural" v="hill" />
		<tag k="place" v="locality" />
		<tag k="ssr:stedsnr" v="353753" />
	</node>
	<node id="-540888" lat="61.9798222198" lon="5.29756944953">
		<tag k="name" v="Storetua" />
		<tag k="natural" v="hill" />
		<tag k="place" v="locality" />
		<tag k="ssr:stedsnr" v="353750" />
	</node>
	<node id="-540886" lat="62.1905222198" lon="5.17327778313">
		<tag k="name" v="Nipa" />
		<tag k="natural" v="hill" />
		<tag k="place" v="locality" />
		<tag k="ssr:stedsnr" v="353735" />
	</node>
	<node id="-540885" lat="61.9765888917" lon="5.33784166157">
		<tag k="name" v="Austadadalen" />
		<tag k="natural" v="valley" />
		<tag k="place" v="locality" />
		<tag k="ssr:stedsnr" v="353616" />
	</node>
	<node id="-540880" lat="62.1614555536" lon="5.22881666207">
		<tag k="name" v="Grøtrøysbakkane" />
		<tag k="natural" v="slope" />
		<tag k="place" v="locality" />
		<tag k="ssr:stedsnr" v="353254" />
	</node>
	<node id="-540879" lat="62.1648750005" lon="5.27346388494">
		<tag k="name" v="Glennene" />
		<tag k="natural" v="hill" />
		<tag k="place" v="locality" />
		<tag k="ssr:stedsnr" v="353242" />
	</node>
	<node id="-540878" lat="62.168369444" lon="5.27342222445">
		<tag k="name" v="Grøngjølet" />
		<tag k="natural" v="hill" />
		<tag k="place" v="locality" />
		<tag k="ssr:stedsnr" v="353239" />
	</node>
	<node id="-540877" lat="62.1608805587" lon="5.27570832727">
		<tag k="name" v="Instehammaren" />
		<tag k="natural" v="hill" />
		<tag k="place" v="locality" />
		<tag k="ssr:stedsnr" v="353173" />
	</node>
	<node id="-540875" lat="62.0799666646" lon="5.35732500726">
		<tag k="name" v="Flødekupa" />
		<tag k="natural" v="valley" />
		<tag k="place" v="locality" />
		<tag k="ssr:stedsnr" v="352979" />
	</node>
	<node id="-540873" lat="62.0540388917" lon="5.41050554791">
		<tag k="name" v="Småtindane" />
		<tag k="natural" v="hill" />
		<tag k="place" v="locality" />
		<tag k="ssr:stedsnr" v="352937" />
	</node>
	<node id="-540872" lat="62.0372333329" lon="5.3958777869">
		<tag k="name" v="Blåhammaren" />
		<tag k="natural" v="slope" />
		<tag k="place" v="locality" />
		<tag k="ssr:stedsnr" v="352929" />
	</node>
	<node id="-540870" lat="62.0460999977" lon="5.40873055119">
		<tag k="name" v="Storejør" />
		<tag k="natural" v="hill" />
		<tag k="place" v="locality" />
		<tag k="ssr:stedsnr" v="352905" />
	</node>
	<node id="-540869" lat="62.0117277755" lon="5.4330000013">
		<tag k="name" v="Tua" />
		<tag k="natural" v="hill" />
		<tag k="place" v="locality" />
		<tag k="ssr:stedsnr" v="352874" />
	</node>
	<node id="-540868" lat="62.0176916668" lon="5.33990277854">
		<tag k="name" v="Kammen" />
		<tag k="natural" v="hill" />
		<tag k="place" v="locality" />
		<tag k="ssr:stedsnr" v="352856" />
	</node>
	<node id="-540863" lat="61.9990972196" lon="5.43559999687">
		<tag k="name" v="Bjørnehaugen" />
		<tag k="natural" v="hill" />
		<tag k="place" v="locality" />
		<tag k="ssr:stedsnr" v="352598" />
	</node>
	<node id="-540861" lat="62.154827778" lon="5.15881110746">
		<tag k="name" v="Bogeskaret" />
		<tag k="natural" v="valley" />
		<tag k="place" v="locality" />
		<tag k="ssr:stedsnr" v="352191" />
	</node>
	<node id="-540860" lat="62.1496944452" lon="5.15288333411">
		<tag k="name" v="Høgeheia" />
		<tag k="natural" v="hill" />
		<tag k="place" v="locality" />
		<tag k="ssr:stedsnr" v="352189" />
	</node>
	<node id="-540858" lat="62.1596250014" lon="5.16974444184">
		<tag k="name" v="Øyranakken" />
		<tag k="natural" v="hill" />
		<tag k="place" v="locality" />
		<tag k="ssr:stedsnr" v="352031" />
	</node>
	<node id="-540857" lat="62.1977666622" lon="5.22266666186">
		<tag k="name" v="Brestegjøtten" />
		<tag k="natural" v="valley" />
		<tag k="place" v="locality" />
		<tag k="ssr:stedsnr" v="352028" />
	</node>
	<node id="-540845" lat="62.1440166639" lon="5.31073333437">
		<tag k="name" v="Vikahaugen" />
		<tag k="natural" v="hill" />
		<tag k="place" v="locality" />
		<tag k="ssr:stedsnr" v="314492" />
	</node>
	<node id="-540844" lat="62.0886916708" lon="5.26117499146">
		<tag k="name" v="Skarveholet" />
		<tag k="natural" v="gorge" />
		<tag k="ssr:stedsnr" v="314468" />
	</node>
	<node id="-540843" lat="62.0880472241" lon="5.31280278654">
		<tag k="fixme" v="consider natural=peak for the most distinct mountains in the district" />
		<tag k="name" v="Geitahornet" />
		<tag k="natural" v="hill" />
		<tag k="place" v="locality" />
		<tag k="ssr:stedsnr" v="314463" />
	</node>
	<node id="-540836" lat="62.0146583343" lon="5.29767499772">
		<tag k="fixme" v="consider natural=peak for the most distinct mountains in the district" />
		<tag k="name" v="Røysethornet" />
		<tag k="natural" v="hill" />
		<tag k="place" v="locality" />
		<tag k="ssr:stedsnr" v="314313" />
	</node>
	<node id="-540826" lat="61.9739583295" lon="5.34831111841">
		<tag k="name" v="Pollaræsene" />
		<tag k="natural" v="hill" />
		<tag k="place" v="locality" />
		<tag k="ssr:stedsnr" v="313799" />
	</node>
	<node id="-540825" lat="61.9799717011" lon="5.3357667781">
		<tag k="fixme" v="multiple name tags, choose one and add the other to alt_name; consider natural=peak for the most distinct mountains in the district" />
		<tag k="name" v="Flistrahornet;Flisterhorn" />
		<tag k="natural" v="hill" />
		<tag k="place" v="locality" />
		<tag k="ssr:stedsnr" v="313780" />
	</node>
	<node id="-540815" lat="62.1672166652" lon="5.32571389737">
		<tag k="name" v="Hellaren" />
		<tag k="place" v="locality" />
		<tag k="ssr:stedsnr" v="293888" />
	</node>
	<node id="-540813" lat="62.1093388897" lon="5.28282778354">
		<tag k="name" v="Kongshaugen" />
		<tag k="natural" v="hill" />
		<tag k="place" v="locality" />
		<tag k="ssr:stedsnr" v="293868" />
	</node>
	<node id="-540812" lat="62.0982138897" lon="5.29460000173">
		<tag k="name" v="Litlevarden" />
		<tag k="natural" v="hill" />
		<tag k="place" v="locality" />
		<tag k="ssr:stedsnr" v="293860" />
	</node>
	<node id="-540809" lat="62.0049250041" lon="5.29802778624">
		<tag k="name" v="Barseggja" />
		<tag k="natural" v="hill" />
		<tag k="place" v="locality" />
		<tag k="ssr:stedsnr" v="293797" />
	</node>
	<node id="-540808" lat="61.9737305537" lon="5.31977778356">
		<tag k="name" v="Langegjølet" />
		<tag k="natural" v="valley" />
		<tag k="place" v="locality" />
		<tag k="ssr:stedsnr" v="293616" />
	</node>
	<node id="-540807" lat="61.9764638882" lon="5.35417221608">
		<tag k="name" v="Kjeltringshellaren" />
		<tag k="place" v="locality" />
		<tag k="ssr:stedsnr" v="293601" />
	</node>
	<node id="-540806" lat="62.0510250022" lon="5.46184722055">
		<tag k="name" v="Brannhaugen" />
		<tag k="natural" v="hill" />
		<tag k="place" v="locality" />
		<tag k="ssr:stedsnr" v="293583" />
	</node>
	<node id="-540805" lat="62.0201972189" lon="5.45643056419">
		<tag k="name" v="Moldeggane" />
		<tag k="natural" v="ridge" />
		<tag k="place" v="locality" />
		<tag k="ssr:stedsnr" v="293563" />
	</node>
	<node id="-540804" lat="62.0213277813" lon="5.47216389436">
		<tag k="fixme" v="consider natural=peak for the most distinct mountains in the district" />
		<tag k="name" v="Blåfjellet" />
		<tag k="natural" v="hill" />
		<tag k="place" v="locality" />
		<tag k="ssr:stedsnr" v="293558" />
	</node>
	<node id="-540803" lat="62.0265333351" lon="5.47373611947">
		<tag k="fixme" v="consider natural=peak for the most distinct mountains in the district" />
		<tag k="name" v="Ørnefjellet" />
		<tag k="natural" v="hill" />
		<tag k="place" v="locality" />
		<tag k="ssr:stedsnr" v="293556" />
	</node>
	<node id="-540799" lat="62.1678333343" lon="5.30002500943">
		<tag k="name" v="Kårholmskartet" />
		<tag k="natural" v="valley" />
		<tag k="place" v="locality" />
		<tag k="ssr:stedsnr" v="293275" />
	</node>
	<node id="-540796" lat="62.1152777757" lon="5.19429999221">
		<tag k="name" v="Kleiva" />
		<tag k="natural" v="slope" />
		<tag k="place" v="locality" />
		<tag k="ssr:stedsnr" v="293224" />
	</node>
	<node id="-540795" lat="62.1279333326" lon="5.27209723079">
		<tag k="name" v="Hyllene" />
		<tag k="place" v="locality" />
		<tag k="ssr:stedsnr" v="293218" />
	</node>
	<node id="-540794" lat="62.1163055519" lon="5.30773333272">
		<tag k="name" v="Grassteinen" />
		<tag k="place" v="locality" />
		<tag k="ssr:stedsnr" v="293205" />
	</node>
	<node id="-540790" lat="62.0580888917" lon="5.42946389492">
		<tag k="name" v="Åsheimshornet" />
		<tag k="natural" v="hill" />
		<tag k="place" v="locality" />
		<tag k="ssr:stedsnr" v="292963" />
	</node>
	<node id="-540788" lat="62.0355083297" lon="5.43540833721">
		<tag k="name" v="Eidsdalen" />
		<tag k="natural" v="valley" />
		<tag k="place" v="locality" />
		<tag k="ssr:stedsnr" v="292924" />
	</node>
	<node id="-540785" lat="62.0025121602" lon="5.37300213319">
		<tag k="fixme" v="consider natural=peak for the most distinct mountains in the district" />
		<tag k="name" v="Høgehornet" />
		<tag k="natural" v="hill" />
		<tag k="ssr:stedsnr" v="292886" />
	</node>
	<node id="-540784" lat="62.0109611132" lon="5.42323888914">
		<tag k="name" v="Ospenakken" />
		<tag k="natural" v="hill" />
		<tag k="place" v="locality" />
		<tag k="ssr:stedsnr" v="292882" />
	</node>
	<node id="-540782" lat="62.147361108" lon="5.14263888281">
		<tag k="name" v="Skotebogen" />
		<tag k="natural" v="hill" />
		<tag k="place" v="locality" />
		<tag k="ssr:stedsnr" v="292186" />
	</node>
	<node id="-540780" lat="62.1223833326" lon="5.12920832485">
		<tag k="alt_name" v="Trollgjelet" />
		<tag k="name" v="Trollgjølet" />
		<tag k="natural" v="valley" />
		<tag k="place" v="locality" />
		<tag k="ssr:stedsnr" v="292178" />
	</node>
	<node id="-540779" lat="62.1234805585" lon="5.11402777171">
		<tag k="name" v="Furestaven" />
		<tag k="natural" v="hill" />
		<tag k="place" v="locality" />
		<tag k="ssr:stedsnr" v="292175" />
	</node>
	<node id="-540777" lat="62.1543777778" lon="5.13991943956">
		<tag k="name" v="Hornet" />
		<tag k="natural" v="hill" />
		<tag k="place" v="locality" />
		<tag k="ssr:stedsnr" v="292040" />
	</node>
	<node id="-540776" lat="62.1501444415" lon="5.12473611145">
		<tag k="name" v="Skjolden" />
		<tag k="natural" v="hill" />
		<tag k="place" v="locality" />
		<tag k="ssr:stedsnr" v="292037" />
	</node>
	<node id="-540775" lat="62.1568111088" lon="5.14883333143">
		<tag k="name" v="Bakkane" />
		<tag k="natural" v="slope" />
		<tag k="place" v="locality" />
		<tag k="ssr:stedsnr" v="292030" />
	</node>
	<node id="-540774" lat="62.199211113" lon="5.22663888254">
		<tag k="name" v="Såta" />
		<tag k="place" v="locality" />
		<tag k="ssr:stedsnr" v="292026" />
	</node>
	<node id="-540772" lat="62.1930222263" lon="5.21436110562">
		<tag k="name" v="Budadalen" />
		<tag k="natural" v="valley" />
		<tag k="place" v="locality" />
		<tag k="ssr:stedsnr" v="292023" />
	</node>
	<node id="-540770" lat="62.1884305551" lon="5.21435554733">
		<tag k="name" v="Lyklane" />
		<tag k="natural" v="hill" />
		<tag k="place" v="locality" />
		<tag k="ssr:stedsnr" v="292004" />
	</node>
</osm>
