<?xml version="1.0" encoding="UTF-8"?>
<osm generator="osmapis" version="0.6">
	<node id="-542719" lat="62.0807916654" lon="5.33103611752">
		<tag k="name" v="Storemyra" />
		<tag k="natural" v="wetland" />
		<tag k="ssr:stedsnr" v="777978" />
	</node>
	<node id="-541949" lat="62.1052027753" lon="5.27960832789">
		<tag k="historic" v="shieling" />
		<tag k="name" v="Sætra" />
		<tag k="place" v="locality" />
		<tag k="ssr:stedsnr" v="71417" />
	</node>
	<node id="-542715" lat="62.0457805522" lon="5.3521111102">
		<tag k="alt_name" v="Prestskogen" />
		<tag k="name" v="Presteskogen" />
		<tag k="place" v="locality" />
		<tag k="ssr:stedsnr" v="777950" />
	</node>
	<node id="-541684" lat="62.0216999996" lon="5.31017221689">
		<tag k="name" v="Kråkesteinen" />
		<tag k="natural" v="stone" />
		<tag k="ssr:stedsnr" v="353776" />
	</node>
	<node id="-542291" lat="62.1671722219" lon="5.23479721868">
		<tag k="name" v="Dikemyra" />
		<tag k="natural" v="wetland" />
		<tag k="ssr:stedsnr" v="435535" />
	</node>
	<node id="-542448" lat="62.1066166637" lon="5.23431110691">
		<tag k="name" v="Stien" />
		<tag k="natural" v="scree" />
		<tag k="ssr:stedsnr" v="596156" />
	</node>
	<node id="-542063" lat="62.151552781" lon="5.23518332569">
		<tag k="name" v="Breidemyra" />
		<tag k="natural" v="wetland" />
		<tag k="ssr:stedsnr" v="132514" />
	</node>
	<node id="-541800" lat="62.0320888901" lon="5.41251388686">
		<tag k="name" v="Urene" />
		<tag k="natural" v="scree" />
		<tag k="ssr:stedsnr" v="474916" />
	</node>
	<node id="-542439" lat="62.0376249999" lon="5.42049443794">
		<tag k="name" v="Lestomyrane" />
		<tag k="natural" v="wetland" />
		<tag k="ssr:stedsnr" v="595923" />
	</node>
	<node id="-541819" lat="62.1889388919" lon="5.22648055774">
		<tag k="name" v="Gangsmyrane" />
		<tag k="natural" v="wetland" />
		<tag k="ssr:stedsnr" v="899004" />
	</node>
	<node id="-541917" lat="62.1194888848" lon="5.26336111549">
		<tag k="name" v="Sæmyra" />
		<tag k="natural" v="wetland" />
		<tag k="ssr:stedsnr" v="50173" />
	</node>
	<node id="-541913" lat="62.0739111139" lon="5.4070472179">
		<tag k="name" v="Tussura" />
		<tag k="natural" v="scree" />
		<tag k="ssr:stedsnr" v="49992" />
	</node>
	<node id="-542551" lat="61.9966416674" lon="5.26968332541">
		<tag k="name" v="Bryggeura" />
		<tag k="natural" v="scree" />
		<tag k="ssr:stedsnr" v="656823" />
	</node>
	<node id="-542547" lat="61.9525944423" lon="5.23847777377">
		<tag k="name" v="Fossmyrane" />
		<tag k="natural" v="wetland" />
		<tag k="ssr:stedsnr" v="656790" />
	</node>
	<node id="-541768" lat="62.1169611122" lon="5.29245000245">
		<tag k="name" v="Tuemyra" />
		<tag k="natural" v="wetland" />
		<tag k="ssr:stedsnr" v="474164" />
	</node>
	<node id="-542918" lat="62.095061114" lon="5.27720833056">
		<tag k="name" v="Torsteinmya" />
		<tag k="natural" v="wetland" />
		<tag k="ssr:stedsnr" v="900866" />
	</node>
	<node id="-542405" lat="62.1669961085" lon="5.32706851553">
		<tag k="name" v="Sundsøyra" />
		<tag k="place" v="locality" />
		<tag k="ssr:stedsnr" v="556557" />
	</node>
	<node id="-542646" lat="62.0589444424" lon="5.40800278652">
		<tag k="name" v="Løkemyrane" />
		<tag k="natural" v="wetland" />
		<tag k="ssr:stedsnr" v="717941" />
	</node>
	<node id="-542274" lat="62.016475" lon="5.31805278488">
		<tag k="name" v="Kråkstein" />
		<tag k="natural" v="stone" />
		<tag k="ssr:stedsnr" v="420685" />
	</node>
	<node id="-542524" lat="62.1299194431" lon="5.25792222368">
		<tag k="name" v="Slettebakkura" />
		<tag k="natural" v="scree" />
		<tag k="ssr:stedsnr" v="656114" />
	</node>
	<node id="-541755" lat="61.9995055556" lon="5.38917222926">
		<tag k="name" v="Storeura" />
		<tag k="natural" v="scree" />
		<tag k="ssr:stedsnr" v="413630" />
	</node>
	<node id="-542906" lat="62.0141194428" lon="5.46376943856">
		<tag k="name" v="Svanemyra" />
		<tag k="natural" v="wetland" />
		<tag k="ssr:stedsnr" v="900557" />
	</node>
	<node id="-542902" lat="62.1013277815" lon="5.18748610441">
		<tag k="name" v="Skarvesteinen" />
		<tag k="natural" v="stone" />
		<tag k="ssr:stedsnr" v="900267" />
	</node>
	<node id="-541705" lat="62.1635444466" lon="5.29760555296">
		<tag k="name" v="Storeura" />
		<tag k="natural" v="scree" />
		<tag k="ssr:stedsnr" v="414142" />
	</node>
	<node id="-542000" lat="62.152777779" lon="5.2786861058">
		<tag k="name" v="Kristianura" />
		<tag k="natural" v="scree" />
		<tag k="ssr:stedsnr" v="111145" />
	</node>
	<node id="-542889" lat="62.0353305537" lon="5.37122776984">
		<tag k="name" v="Bortneura" />
		<tag k="natural" v="scree" />
		<tag k="ssr:stedsnr" v="899922" />
	</node>
	<node id="-542625" lat="61.9761250001" lon="5.34856111355">
		<tag k="name" v="Tverrfossmyrane" />
		<tag k="natural" v="wetland" />
		<tag k="ssr:stedsnr" v="717602" />
	</node>
	<node id="-541936" lat="62.0963749964" lon="5.31993333354">
		<tag k="name" v="Myrane" />
		<tag k="natural" v="wetland" />
		<tag k="ssr:stedsnr" v="50774" />
	</node>
	<node id="-541982" lat="62.0142472185" lon="5.33770555794">
		<tag k="name" v="Bulegene" />
		<tag k="natural" v="scree" />
		<tag k="ssr:stedsnr" v="110879" />
	</node>
	<node id="-541588" lat="62.1045083297" lon="5.22562499134">
		<tag k="name" v="Stigane" />
		<tag k="natural" v="scree" />
		<tag k="ssr:stedsnr" v="293188" />
	</node>
	<node id="-541699" lat="61.975580556" lon="5.31462499819">
		<tag k="name" v="Botnasteinen" />
		<tag k="natural" v="stone" />
		<tag k="ssr:stedsnr" v="360865" />
	</node>
	<node id="-542607" lat="62.153283336" lon="5.25205277042">
		<tag k="name" v="Grøtrøysa" />
		<tag k="natural" v="scree" />
		<tag k="ssr:stedsnr" v="717137" />
	</node>
	<node id="-542349" lat="62.1176555526" lon="5.27921945175">
		<tag k="name" v="Orredalsmyra" />
		<tag k="natural" v="wetland" />
		<tag k="ssr:stedsnr" v="535168" />
	</node>
	<node id="-542729" lat="62.1195444405" lon="5.16438055413">
		<tag k="name" v="Sandsmælen" />
		<tag k="natural" v="beach" />
		<tag k="ssr:stedsnr" v="778196" />
		<tag k="surface" v="sand" />
	</node>
	<node id="-542211" lat="62.1661444429" lon="5.32038055573">
		<tag k="name" v="Storeura" />
		<tag k="natural" v="scree" />
		<tag k="ssr:stedsnr" v="232875" />
	</node>
</osm>
