<?xml version="1.0" encoding="UTF-8"?>
<osm generator="osmapis" version="0.6">
	<node id="-542720" lat="62.074144448" lon="5.42381110593">
		<tag k="name" v="Nygårdsneset" />
		<tag k="natural" v="cape" />
		<tag k="ssr:stedsnr" v="777989" />
	</node>
	<node id="-542718" lat="62.080922221" lon="5.4244250055">
		<tag k="name" v="Nøreholmen" />
		<tag k="place" v="islet" />
		<tag k="ssr:stedsnr" v="777967" />
	</node>
	<node id="-542717" lat="62.0839647101" lon="5.39994876051">
		<tag k="name" v="Fureneset" />
		<tag k="natural" v="cape" />
		<tag k="ssr:stedsnr" v="777964" />
	</node>
	<node id="-542716" lat="62.0415055571" lon="5.31984999534">
		<tag k="name" v="Ilshaugneset" />
		<tag k="natural" v="cape" />
		<tag k="ssr:stedsnr" v="777960" />
	</node>
	<node id="-542711" lat="62.0343320499" lon="5.38570106348">
		<tag k="name" v="Abelholmen" />
		<tag k="place" v="islet" />
		<tag k="ssr:stedsnr" v="777889" />
	</node>
	<node id="-542708" lat="62.0157916685" lon="5.42396666957">
		<tag k="name" v="Eidsstranda" />
		<tag k="natural" v="beach" />
		<tag k="place" v="locality" />
		<tag k="ssr:stedsnr" v="777868" />
	</node>
	<node id="-542702" lat="62.1574472255" lon="5.09666110743">
		<tag k="name" v="Rambjørgjøtten" />
		<tag k="natural" v="bay" />
		<tag k="ssr:stedsnr" v="777063" />
	</node>
	<node id="-542699" lat="62.194388968" lon="5.19612240915">
		<tag k="name" v="Honningsvågen" />
		<tag k="natural" v="bay" />
		<tag k="ssr:stedsnr" v="739747" />
	</node>
	<node id="-542695" lat="62.1245638868" lon="5.14909166884">
		<tag k="name" v="Hoddevika" />
		<tag k="natural" v="bay" />
		<tag k="ssr:stedsnr" v="739707" />
	</node>
	<node id="-542694" lat="62.1145472237" lon="5.08652222507">
		<tag k="alt_name" v="Kvannfjellgrunna" />
		<tag k="name" v="Kvannfjellgrynna" />
		<tag k="natural" v="shoal" />
		<tag k="place" v="locality" />
		<tag k="ssr:stedsnr" v="739708" />
	</node>
	<node id="-542688" lat="62.1886833295" lon="5.24427221555">
		<tag k="fixme" v="consider seamark:type=rock or natural=shoal" />
		<tag k="name" v="Eltvikeskjera" />
		<tag k="place" v="islet" />
		<tag k="ssr:stedsnr" v="739539" />
	</node>
	<node id="-542687" lat="62.1697472216" lon="5.3026750051">
		<tag k="name" v="Korholmsneset" />
		<tag k="natural" v="cape" />
		<tag k="ssr:stedsnr" v="739522" />
	</node>
	<node id="-542686" lat="62.1630861085" lon="5.29048055113">
		<tag k="name" v="Tungevågen" />
		<tag k="natural" v="bay" />
		<tag k="ssr:stedsnr" v="739523" />
	</node>
	<node id="-542676" lat="62.0120722242" lon="5.25576667371">
		<tag k="name" v="Kvernevika" />
		<tag k="natural" v="bay" />
		<tag k="ssr:stedsnr" v="739269" />
	</node>
	<node id="-542670" lat="61.9844611154" lon="5.30695834206">
		<tag k="name" v="Flistraneset" />
		<tag k="natural" v="cape" />
		<tag k="ssr:stedsnr" v="738754" />
	</node>
	<node id="-542669" lat="62.1772250042" lon="5.26088610904">
		<tag k="name" v="Røyrabogneset" />
		<tag k="natural" v="cape" />
		<tag k="ssr:stedsnr" v="738488" />
	</node>
	<node id="-542666" lat="62.0458861068" lon="5.48480000242">
		<tag k="name" v="Fureholmen" />
		<tag k="place" v="islet" />
		<tag k="ssr:stedsnr" v="738275" />
	</node>
	<node id="-542664" lat="62.0131250017" lon="5.40990000235">
		<tag k="name" v="Øyraneset" />
		<tag k="natural" v="cape" />
		<tag k="ssr:stedsnr" v="724908" />
	</node>
	<node id="-542663" lat="61.9496444438" lon="5.28956945401">
		<tag k="name" v="Pollasanden" />
		<tag k="natural" v="beach" />
		<tag k="place" v="locality" />
		<tag k="ssr:stedsnr" v="724898" />
	</node>
	<node id="-542662" lat="62.1707416669" lon="5.11101389271">
		<tag k="name" v="Kjørnåsfluda" />
		<tag k="natural" v="shoal" />
		<tag k="place" v="locality" />
		<tag k="ssr:stedsnr" v="724847" />
	</node>
	<node id="-542661" lat="62.2935000013" lon="5.10911111647">
		<tag k="name" v="Sildestøbotn" />
		<tag k="natural" v="shoal" />
		<tag k="place" v="locality" />
		<tag k="ssr:stedsnr" v="724822" />
	</node>
	<node id="-542660" lat="62.1078777784" lon="5.10810278258">
		<tag k="name" v="Fokhornfludene" />
		<tag k="natural" v="shoal" />
		<tag k="place" v="locality" />
		<tag k="ssr:stedsnr" v="724729" />
	</node>
	<node id="-542659" lat="62.0718722234" lon="5.31982777967">
		<tag k="name" v="Lygaren" />
		<tag k="natural" v="bay" />
		<tag k="ssr:stedsnr" v="724561" />
	</node>
	<node id="-542658" lat="62.0986611109" lon="5.13742221551">
		<tag k="name" v="Haugbåen" />
		<tag k="natural" v="shoal" />
		<tag k="place" v="locality" />
		<tag k="ssr:stedsnr" v="724226" />
	</node>
	<node id="-542657" lat="62.0051138873" lon="5.25593611744">
		<tag k="name" v="Svinevika" />
		<tag k="natural" v="bay" />
		<tag k="ssr:stedsnr" v="723572" />
	</node>
	<node id="-542656" lat="62.206311112" lon="5.11980832402">
		<tag k="name" v="Håfluda" />
		<tag k="natural" v="shoal" />
		<tag k="place" v="locality" />
		<tag k="ssr:stedsnr" v="722789" />
	</node>
	<node id="-542655" lat="62.1927722238" lon="5.15002221263">
		<tag k="name" v="Fossarevet" />
		<tag k="natural" v="shoal" />
		<tag k="place" v="locality" />
		<tag k="ssr:stedsnr" v="722784" />
	</node>
	<node id="-542654" lat="62.0969861121" lon="5.21660555832">
		<tag k="name" v="Dragsgrynna" />
		<tag k="natural" v="shoal" />
		<tag k="place" v="locality" />
		<tag k="ssr:stedsnr" v="722278" />
	</node>
	<node id="-542653" lat="62.0742333366" lon="5.42586110265">
		<tag k="alt_name" v="Sandvikfluda" />
		<tag k="name" v="Sandvikfludene" />
		<tag k="natural" v="shoal" />
		<tag k="place" v="locality" />
		<tag k="ssr:stedsnr" v="722220" />
	</node>
	<node id="-542647" lat="62.0449638885" lon="5.33685833922">
		<tag k="name" v="Holmaneset" />
		<tag k="natural" v="cape" />
		<tag k="ssr:stedsnr" v="717958" />
	</node>
	<node id="-542643" lat="62.021279716" lon="5.3951318023">
		<tag k="name" v="Hatlenes" />
		<tag k="natural" v="cape" />
		<tag k="ssr:stedsnr" v="717908" />
	</node>
	<node id="-542638" lat="62.1031444414" lon="5.22344444156">
		<tag k="name" v="Stigneset" />
		<tag k="natural" v="cape" />
		<tag k="ssr:stedsnr" v="717843" />
	</node>
	<node id="-542630" lat="61.9683833307" lon="5.28889721751">
		<tag k="alt_name" v="Vedrhusholmen" />
		<tag k="name" v="Vetrhusholmen" />
		<tag k="place" v="islet" />
		<tag k="ssr:stedsnr" v="717757" />
	</node>
	<node id="-542629" lat="61.9659055525" lon="5.2931777705">
		<tag k="name" v="Lavika" />
		<tag k="natural" v="bay" />
		<tag k="ssr:stedsnr" v="717754" />
	</node>
	<node id="-542628" lat="61.9788694465" lon="5.2746666591">
		<tag k="alt_name" v="Venøystraumen" />
		<tag k="name" v="Straumen" />
		<tag k="natural" v="strait" />
		<tag k="ssr:stedsnr" v="717744" />
	</node>
	<node id="-542624" lat="62.0677083317" lon="5.44210555715">
		<tag k="name" v="Årsheimsstranda" />
		<tag k="natural" v="beach" />
		<tag k="place" v="locality" />
		<tag k="ssr:stedsnr" v="717597" />
	</node>
	<node id="-542623" lat="62.0542500029" lon="5.4725388933">
		<tag k="name" v="Ladevika" />
		<tag k="natural" v="bay" />
		<tag k="ssr:stedsnr" v="717588" />
	</node>
	<node id="-542622" lat="62.052669447" lon="5.47190833394">
		<tag k="name" v="Naustvika" />
		<tag k="natural" v="bay" />
		<tag k="ssr:stedsnr" v="717587" />
	</node>
	<node id="-542620" lat="62.0591583309" lon="5.47071665916">
		<tag k="name" v="Stokkenesholmane" />
		<tag k="place" v="islet" />
		<tag k="ssr:stedsnr" v="717583" />
	</node>
	<node id="-542619" lat="62.0600000041" lon="5.4589583245">
		<tag k="fixme" v="consider seamark:type=rock or natural=shoal" />
		<tag k="name" v="Skarveskjeret" />
		<tag k="place" v="islet" />
		<tag k="ssr:stedsnr" v="717581" />
	</node>
	<node id="-542616" lat="62.2124638911" lon="5.18477499734">
		<tag k="name" v="Jaktagjøtten" />
		<tag k="place" v="locality" />
		<tag k="ssr:stedsnr" v="717537" />
	</node>
	<node id="-542606" lat="62.1011305595" lon="5.15087777953">
		<tag k="name" v="Klubben" />
		<tag k="place" v="islet" />
		<tag k="ssr:stedsnr" v="717242" />
	</node>
	<node id="-542605" lat="62.1012138929" lon="5.13599722163">
		<tag k="name" v="Vika" />
		<tag k="natural" v="bay" />
		<tag k="ssr:stedsnr" v="717240" />
	</node>
	<node id="-542604" lat="62.1014472196" lon="5.1637694535">
		<tag k="name" v="Sletteneset" />
		<tag k="natural" v="cape" />
		<tag k="ssr:stedsnr" v="717237" />
	</node>
	<node id="-542603" lat="62.1673611066" lon="5.28595832905">
		<tag k="name" v="Møyholmen" />
		<tag k="place" v="islet" />
		<tag k="ssr:stedsnr" v="717212" />
	</node>
	<node id="-542596" lat="62.2164138906" lon="5.18526110923">
		<tag k="name" v="Stålholmen" />
		<tag k="place" v="islet" />
		<tag k="ssr:stedsnr" v="678715" />
	</node>
	<node id="-542594" lat="62.1044018342" lon="5.11130732727">
		<tag k="name" v="Fokhornet" />
		<tag k="place" v="islet" />
		<tag k="ssr:stedsnr" v="678697" />
	</node>
	<node id="-542593" lat="62.1142861073" lon="5.11777499786">
		<tag k="name" v="Stavsvikholet" />
		<tag k="natural" v="bay" />
		<tag k="ssr:stedsnr" v="678695" />
	</node>
	<node id="-542590" lat="62.1414166698" lon="5.01396111001">
		<tag k="name" v="Toren" />
		<tag k="natural" v="shoal" />
		<tag k="place" v="locality" />
		<tag k="ssr:stedsnr" v="678687" />
	</node>
	<node id="-542583" lat="62.0808916696" lon="5.40708333765">
		<tag k="name" v="Rekvika" />
		<tag k="natural" v="bay" />
		<tag k="ssr:stedsnr" v="678348" />
	</node>
	<node id="-542576" lat="62.1094083342" lon="5.34726943883">
		<tag k="name" v="Nollaneset" />
		<tag k="natural" v="cape" />
		<tag k="ssr:stedsnr" v="678423" />
	</node>
	<node id="-542572" lat="62.1515527793" lon="5.08815555624">
		<tag k="name" v="Monsgrynna" />
		<tag k="natural" v="shoal" />
		<tag k="place" v="locality" />
		<tag k="ssr:stedsnr" v="663878" />
	</node>
	<node id="-542571" lat="62.0849277766" lon="5.0752916627">
		<tag k="name" v="Utryggen" />
		<tag k="natural" v="shoal" />
		<tag k="place" v="locality" />
		<tag k="ssr:stedsnr" v="663742" />
	</node>
	<node id="-542570" lat="62.0517555566" lon="5.33593332665">
		<tag k="name" v="Hovsundet" />
		<tag k="natural" v="strait" />
		<tag k="ssr:stedsnr" v="663566" />
	</node>
	<node id="-542569" lat="62.20453889" lon="5.18119999057">
		<tag k="name" v="Purkegjøtta" />
		<tag k="natural" v="bay" />
		<tag k="ssr:stedsnr" v="663011" />
	</node>
	<node id="-542568" lat="62.2030611144" lon="5.14178055495">
		<tag k="name" v="Litlebåen" />
		<tag k="natural" v="shoal" />
		<tag k="place" v="locality" />
		<tag k="ssr:stedsnr" v="661742" />
	</node>
	<node id="-542561" lat="62.0210509846" lon="5.42354821094">
		<tag k="name" v="Lervika" />
		<tag k="natural" v="bay" />
		<tag k="ssr:stedsnr" v="656894" />
	</node>
	<node id="-542557" lat="62.0948805599" lon="5.25558610717">
		<tag k="name" v="Myresanden" />
		<tag k="natural" v="beach" />
		<tag k="place" v="locality" />
		<tag k="ssr:stedsnr" v="656863" />
	</node>
	<node id="-542554" lat="62.1153583326" lon="5.34845000901">
		<tag k="fixme" v="consider seamark:type=rock or natural=shoal" />
		<tag k="name" v="Sandeskjer" />
		<tag k="place" v="islet" />
		<tag k="ssr:stedsnr" v="656838" />
	</node>
	<node id="-542549" lat="62.0174972253" lon="5.26138611895">
		<tag k="name" v="Vågen" />
		<tag k="natural" v="bay" />
		<tag k="ssr:stedsnr" v="656802" />
	</node>
	<node id="-542546" lat="61.9809333315" lon="5.27361111163">
		<tag k="alt_name" v="Gardvika" />
		<tag k="name" v="Garevika" />
		<tag k="natural" v="bay" />
		<tag k="ssr:stedsnr" v="656781" />
	</node>
	<node id="-542543" lat="62.1893217005" lon="5.15852131643">
		<tag k="name" v="Årvika" />
		<tag k="natural" v="bay" />
		<tag k="ssr:stedsnr" v="656766" />
	</node>
	<node id="-542540" lat="62.0554138869" lon="5.47516111839">
		<tag k="name" v="Litleneset" />
		<tag k="natural" v="cape" />
		<tag k="ssr:stedsnr" v="656606" />
	</node>
	<node id="-542539" lat="62.0509666625" lon="5.47370833345">
		<tag k="name" v="Lyngneset" />
		<tag k="natural" v="cape" />
		<tag k="ssr:stedsnr" v="656603" />
	</node>
	<node id="-542538" lat="62.0579111122" lon="5.47875832582">
		<tag k="fixme" v="consider seamark:type=rock or natural=shoal" />
		<tag k="name" v="Stokkenesskjeret" />
		<tag k="place" v="islet" />
		<tag k="ssr:stedsnr" v="656597" />
	</node>
	<node id="-542536" lat="62.0451388902" lon="5.49488611111">
		<tag k="name" v="Rognholmen" />
		<tag k="place" v="islet" />
		<tag k="ssr:stedsnr" v="656579" />
	</node>
	<node id="-542526" lat="62.1634888901" lon="5.2859055565">
		<tag k="name" v="Tunga" />
		<tag k="natural" v="cape" />
		<tag k="ssr:stedsnr" v="656142" />
	</node>
	<node id="-542508" lat="62.1363444446" lon="5.14477223045">
		<tag k="name" v="Sildehamaren" />
		<tag k="natural" v="cape" />
		<tag k="ssr:stedsnr" v="630610" />
	</node>
	<node id="-542506" lat="62.167549996" lon="4.91003056006">
		<tag k="name" v="Stadhavet" />
		<tag k="place" v="sea" />
		<tag k="ssr:stedsnr" v="617764" />
	</node>
	<node id="-542503" lat="62.200224411" lon="5.14332379572">
		<tag k="name" v="Årvikneset" />
		<tag k="natural" v="cape" />
		<tag k="ssr:stedsnr" v="617733" />
	</node>
	<node id="-542500" lat="62.1260749976" lon="5.11918332937">
		<tag k="name" v="Nesbogen" />
		<tag k="natural" v="bay" />
		<tag k="ssr:stedsnr" v="617724" />
	</node>
	<node id="-542496" lat="62.0924666667" lon="5.18624165775">
		<tag k="name" v="Klovetuva" />
		<tag k="natural" v="shoal" />
		<tag k="place" v="locality" />
		<tag k="ssr:stedsnr" v="617670" />
	</node>
	<node id="-542495" lat="62.2105805538" lon="5.22160833745">
		<tag k="name" v="Røysa" />
		<tag k="natural" v="shoal" />
		<tag k="place" v="locality" />
		<tag k="ssr:stedsnr" v="617570" />
	</node>
	<node id="-542489" lat="62.0379416647" lon="5.25627778666">
		<tag k="fixme" v="consider seamark:type=rock or natural=shoal" />
		<tag k="name" v="Gangvadskjera" />
		<tag k="place" v="islet" />
		<tag k="ssr:stedsnr" v="617379" />
	</node>
	<node id="-542487" lat="62.0577138856" lon="5.47502499084">
		<tag k="name" v="Stokkeneset" />
		<tag k="natural" v="cape" />
		<tag k="ssr:stedsnr" v="617367" />
	</node>
	<node id="-542486" lat="62.0205861116" lon="5.24932499734">
		<tag k="fixme" v="consider seamark:type=rock or natural=shoal" />
		<tag k="name" v="Svarteskjeret" />
		<tag k="place" v="islet" />
		<tag k="ssr:stedsnr" v="617328" />
	</node>
	<node id="-542482" lat="61.9951166657" lon="5.23380833676">
		<tag k="name" v="Flatholmen" />
		<tag k="place" v="islet" />
		<tag k="ssr:stedsnr" v="616869" />
	</node>
	<node id="-542476" lat="61.986059729" lon="5.2631365068">
		<tag k="name" v="Vikane" />
		<tag k="natural" v="bay" />
		<tag k="ssr:stedsnr" v="602880" />
	</node>
	<node id="-542475" lat="62.1683444421" lon="5.0805638974">
		<tag k="name" v="Buholmen" />
		<tag k="place" v="islet" />
		<tag k="ssr:stedsnr" v="602862" />
	</node>
	<node id="-542474" lat="62.1163388847" lon="5.11336944003">
		<tag k="fixme" v="consider seamark:type=rock or natural=shoal" />
		<tag k="name" v="Stavsvikskjeret" />
		<tag k="place" v="islet" />
		<tag k="ssr:stedsnr" v="602749" />
	</node>
	<node id="-542473" lat="62.1206888874" lon="5.10567223156">
		<tag k="name" v="Stavsfluda" />
		<tag k="natural" v="shoal" />
		<tag k="place" v="locality" />
		<tag k="ssr:stedsnr" v="602690" />
	</node>
	<node id="-542472" lat="62.2013916651" lon="5.16976389729">
		<tag k="name" v="Høgbardboen" />
		<tag k="natural" v="shoal" />
		<tag k="place" v="locality" />
		<tag k="ssr:stedsnr" v="602255" />
	</node>
	<node id="-542471" lat="62.2109305592" lon="5.17604165882">
		<tag k="name" v="Stålgjøtta" />
		<tag k="natural" v="shoal" />
		<tag k="place" v="locality" />
		<tag k="ssr:stedsnr" v="600538" />
	</node>
	<node id="-542470" lat="62.1677111069" lon="5.33130833247">
		<tag k="name" v="Djupesundet" />
		<tag k="natural" v="strait" />
		<tag k="ssr:stedsnr" v="596881" />
	</node>
	<node id="-542466" lat="61.9838361139" lon="5.26839167432">
		<tag k="name" v="Skipevågen" />
		<tag k="natural" v="bay" />
		<tag k="ssr:stedsnr" v="596782" />
	</node>
	<node id="-542463" lat="61.9721888917" lon="5.20321666396">
		<tag k="alt_name" v="Fonnevika" />
		<tag k="name" v="Fanavika" />
		<tag k="natural" v="bay" />
		<tag k="ssr:stedsnr" v="596721" />
	</node>
	<node id="-542456" lat="62.0197694448" lon="5.47819999053">
		<tag k="name" v="Storeneset" />
		<tag k="natural" v="cape" />
		<tag k="ssr:stedsnr" v="596512" />
	</node>
	<node id="-542455" lat="62.0153444451" lon="5.47859721891">
		<tag k="name" v="Einerhaugneset" />
		<tag k="natural" v="cape" />
		<tag k="ssr:stedsnr" v="596511" />
	</node>
	<node id="-542451" lat="62.2130181148" lon="5.17612463844">
		<tag k="fixme" v="consider seamark:type=rock or natural=shoal" />
		<tag k="name" v="Fløsa" />
		<tag k="place" v="islet" />
		<tag k="ssr:stedsnr" v="596479" />
	</node>
	<node id="-542447" lat="62.15806667" lon="5.28559167429">
		<tag k="name" v="Krekbukta" />
		<tag k="natural" v="bay" />
		<tag k="ssr:stedsnr" v="596143" />
	</node>
	<node id="-542427" lat="62.1465694477" lon="5.13818610765">
		<tag k="name" v="Hoddevikbogen" />
		<tag k="natural" v="bay" />
		<tag k="ssr:stedsnr" v="570633" />
	</node>
	<node id="-542425" lat="62.144386113" lon="5.14146111226">
		<tag k="name" v="Skåtebogen" />
		<tag k="natural" v="bay" />
		<tag k="ssr:stedsnr" v="557681" />
	</node>
	<node id="-542419" lat="62.0541722204" lon="5.49720555651">
		<tag k="name" v="Store Teisten" />
		<tag k="place" v="islet" />
		<tag k="ssr:stedsnr" v="557326" />
	</node>
	<node id="-542412" lat="62.1865361114" lon="5.12080833548">
		<tag k="name" v="Stad" />
		<tag k="natural" v="cape" />
		<tag k="ssr:stedsnr" v="556758" />
	</node>
	<node id="-542410" lat="62.2006722225" lon="5.12547777647">
		<tag k="name" v="Frøyaneset" />
		<tag k="natural" v="cape" />
		<tag k="ssr:stedsnr" v="556728" />
	</node>
	<node id="-542408" lat="62.0956805557" lon="5.09035554842">
		<tag k="name" v="Gamla" />
		<tag k="natural" v="shoal" />
		<tag k="place" v="locality" />
		<tag k="ssr:stedsnr" v="556694" />
	</node>
	<node id="-542407" lat="62.0701555595" lon="5.1744222209">
		<tag k="name" v="Dragefalla" />
		<tag k="natural" v="shoal" />
		<tag k="place" v="locality" />
		<tag k="ssr:stedsnr" v="556685" />
	</node>
	<node id="-542402" lat="62.1502861141" lon="5.31701944695">
		<tag k="name" v="Borgundholmen" />
		<tag k="place" v="islet" />
		<tag k="ssr:stedsnr" v="556500" />
	</node>
	<node id="-542397" lat="62.096694445" lon="5.37571944686">
		<tag k="fixme" v="consider seamark:type=rock or natural=shoal" />
		<tag k="name" v="Flødeskjeret" />
		<tag k="place" v="islet" />
		<tag k="ssr:stedsnr" v="556463" />
	</node>
	<node id="-542392" lat="62.0302444482" lon="5.34282778091">
		<tag k="name" v="Salta" />
		<tag k="natural" v="bay" />
		<tag k="ssr:stedsnr" v="556306" />
	</node>
	<node id="-542390" lat="62.0972611117" lon="5.0618055524">
		<tag k="name" v="Oddegrynna" />
		<tag k="natural" v="shoal" />
		<tag k="place" v="locality" />
		<tag k="ssr:stedsnr" v="542738" />
	</node>
	<node id="-542388" lat="62.1248027785" lon="5.09698333884">
		<tag k="name" v="Nubbefluda" />
		<tag k="natural" v="shoal" />
		<tag k="place" v="locality" />
		<tag k="ssr:stedsnr" v="542675" />
	</node>
	<node id="-542387" lat="62.0362138847" lon="5.35474166939">
		<tag k="name" v="Hamreosen" />
		<tag k="natural" v="bay" />
		<tag k="ssr:stedsnr" v="542563" />
	</node>
	<node id="-542385" lat="62.2038027769" lon="5.13293055278">
		<tag k="name" v="Storebåen" />
		<tag k="natural" v="shoal" />
		<tag k="place" v="locality" />
		<tag k="ssr:stedsnr" v="540746" />
	</node>
	<node id="-542384" lat="62.185133337" lon="5.09540833221">
		<tag k="name" v="Gjellsneset" />
		<tag k="natural" v="cape" />
		<tag k="ssr:stedsnr" v="540741" />
	</node>
	<node id="-542383" lat="62.1758500037" lon="5.05016944106">
		<tag k="name" v="Skorpefluda" />
		<tag k="natural" v="shoal" />
		<tag k="place" v="locality" />
		<tag k="ssr:stedsnr" v="540739" />
	</node>
	<node id="-542382" lat="62.099163886" lon="5.15711111125">
		<tag k="name" v="Tverrfjellfluda" />
		<tag k="natural" v="shoal" />
		<tag k="place" v="locality" />
		<tag k="ssr:stedsnr" v="540244" />
	</node>
	<node id="-542381" lat="62.2120305584" lon="5.21382499785">
		<tag k="name" v="Martinsfludene" />
		<tag k="natural" v="shoal" />
		<tag k="place" v="locality" />
		<tag k="ssr:stedsnr" v="539556" />
	</node>
	<node id="-542380" lat="62.2118277761" lon="5.15970000901">
		<tag k="name" v="Ristefluda" />
		<tag k="natural" v="shoal" />
		<tag k="place" v="locality" />
		<tag k="ssr:stedsnr" v="539547" />
	</node>
	<node id="-542379" lat="62.1698222179" lon="5.3253305494">
		<tag k="name" v="Rivjesundbodane" />
		<tag k="natural" v="shoal" />
		<tag k="place" v="locality" />
		<tag k="ssr:stedsnr" v="538448" />
	</node>
	<node id="-542378" lat="62.0752916694" lon="5.42174444594">
		<tag k="name" v="Nesevika" />
		<tag k="natural" v="bay" />
		<tag k="ssr:stedsnr" v="535997" />
	</node>
	<node id="-542375" lat="62.051402777" lon="5.3426416633">
		<tag k="name" v="Grytingsneset" />
		<tag k="natural" v="cape" />
		<tag k="ssr:stedsnr" v="535951" />
	</node>
	<node id="-542370" lat="62.1681250041" lon="5.32732222713">
		<tag k="name" v="Grunnesundet" />
		<tag k="natural" v="strait" />
		<tag k="ssr:stedsnr" v="535871" />
	</node>
	<node id="-542368" lat="62.053349366" lon="5.29465837117">
		<tag k="name" v="Klostervågen" />
		<tag k="natural" v="bay" />
		<tag k="ssr:stedsnr" v="535836" />
	</node>
	<node id="-542365" lat="62.110499999" lon="5.3432361138">
		<tag k="name" v="Sandevika" />
		<tag k="natural" v="bay" />
		<tag k="ssr:stedsnr" v="535799" />
	</node>
	<node id="-542356" lat="62.0104999978" lon="5.47069999845">
		<tag k="name" v="Sneideneset" />
		<tag k="natural" v="cape" />
		<tag k="ssr:stedsnr" v="535536" />
	</node>
	<node id="-542351" lat="62.1697027745" lon="5.29300556168">
		<tag k="name" v="Skinnstakkevika" />
		<tag k="natural" v="bay" />
		<tag k="ssr:stedsnr" v="535217" />
	</node>
	<node id="-542339" lat="62.2024916683" lon="5.17581944507">
		<tag k="name" v="Bratteberget" />
		<tag k="natural" v="cape" />
		<tag k="ssr:stedsnr" v="496746" />
	</node>
	<node id="-542337" lat="62.1926694478" lon="5.16313333694">
		<tag k="name" v="Skagen" />
		<tag k="natural" v="cape" />
		<tag k="ssr:stedsnr" v="496737" />
	</node>
	<node id="-542336" lat="62.1677166673" lon="5.08763887934">
		<tag k="name" v="Kobbeholmen" />
		<tag k="place" v="islet" />
		<tag k="ssr:stedsnr" v="496735" />
	</node>
	<node id="-542330" lat="62.1510638918" lon="5.30710833205">
		<tag k="name" v="Borgundvågen" />
		<tag k="natural" v="bay" />
		<tag k="ssr:stedsnr" v="496488" />
	</node>
	<node id="-542326" lat="62.0903638915" lon="5.39233054644">
		<tag k="name" v="Otneimneset" />
		<tag k="natural" v="cape" />
		<tag k="ssr:stedsnr" v="496450" />
	</node>
	<node id="-542322" lat="62.0247444479" lon="5.38584166357">
		<tag k="name" v="Langeneset" />
		<tag k="natural" v="cape" />
		<tag k="ssr:stedsnr" v="496310" />
	</node>
	<node id="-542321" lat="62.0255499983" lon="5.37577778642">
		<tag k="name" v="Klubbeholmen" />
		<tag k="natural" v="cape" />
		<tag k="ssr:stedsnr" v="496311" />
	</node>
	<node id="-542314" lat="62.0560611102" lon="5.30128888144">
		<tag k="name" v="Helmerfluda" />
		<tag k="natural" v="shoal" />
		<tag k="place" v="locality" />
		<tag k="ssr:stedsnr" v="481594" />
	</node>
	<node id="-542312" lat="62.0802583358" lon="5.25840278664">
		<tag k="name" v="Båen" />
		<tag k="natural" v="shoal" />
		<tag k="place" v="locality" />
		<tag k="ssr:stedsnr" v="449315" />
	</node>
	<node id="-542307" lat="62.1309999971" lon="5.09109722861">
		<tag k="name" v="Skjerbåane" />
		<tag k="natural" v="shoal" />
		<tag k="place" v="locality" />
		<tag k="ssr:stedsnr" v="436705" />
	</node>
	<node id="-542306" lat="62.0857499971" lon="5.04964721483">
		<tag k="name" v="Oddeskallane" />
		<tag k="natural" v="shoal" />
		<tag k="place" v="locality" />
		<tag k="ssr:stedsnr" v="436642" />
	</node>
	<node id="-542305" lat="62.1982527761" lon="5.24483334166">
		<tag k="name" v="Kloa" />
		<tag k="natural" v="shoal" />
		<tag k="place" v="locality" />
		<tag k="ssr:stedsnr" v="436575" />
	</node>
	<node id="-542303" lat="62.0863333337" lon="5.39792778054">
		<tag k="alt_name" v="Otneimholmen" />
		<tag k="name" v="Holmen" />
		<tag k="place" v="islet" />
		<tag k="ssr:stedsnr" v="436388" />
	</node>
	<node id="-542293" lat="62.223013886" lon="5.1173916689">
		<tag k="bay" v="fjord" />
		<tag k="name" v="Sanden" />
		<tag k="natural" v="bay" />
		<tag k="ssr:stedsnr" v="435742" />
	</node>
	<node id="-542292" lat="62.1684805516" lon="5.32900834225">
		<tag k="name" v="Rivjesundsholmane" />
		<tag k="place" v="islet" />
		<tag k="ssr:stedsnr" v="435545" />
	</node>
	<node id="-542290" lat="62.1751722243" lon="5.28071388859">
		<tag k="name" v="Storeneset" />
		<tag k="natural" v="cape" />
		<tag k="ssr:stedsnr" v="435527" />
	</node>
	<node id="-542284" lat="62.0248111091" lon="5.35424999564">
		<tag k="name" v="Øygardsvika" />
		<tag k="natural" v="bay" />
		<tag k="ssr:stedsnr" v="435338" />
	</node>
	<node id="-542281" lat="62.0325473082" lon="5.49031800963">
		<tag k="alt_name" v="Otnes;Otnestangen" />
		<tag k="name" v="Otneset" />
		<tag k="natural" v="cape" />
		<tag k="old_name" v="Ottnes" />
		<tag k="ssr:stedsnr" v="435287" />
	</node>
	<node id="-542279" lat="62.0274055573" lon="5.26710000059">
		<tag k="name" v="Loksneset" />
		<tag k="natural" v="cape" />
		<tag k="ssr:stedsnr" v="435275" />
	</node>
	<node id="-542278" lat="62.0201222226" lon="5.41044999947">
		<tag k="bay" v="fjord" />
		<tag k="name" v="Moldefjorden" />
		<tag k="natural" v="bay" />
		<tag k="ssr:stedsnr" v="435274" />
	</node>
	<node id="-542277" lat="61.9921027802" lon="5.26273054869">
		<tag k="name" v="Venøybåen" />
		<tag k="place" v="locality" />
		<tag k="seamark:type" v="rock" />
		<tag k="ssr:stedsnr" v="421887" />
	</node>
	<node id="-542276" lat="62.1078222191" lon="5.05228054934">
		<tag k="name" v="Inste Havfludene" />
		<tag k="natural" v="shoal" />
		<tag k="place" v="locality" />
		<tag k="ssr:stedsnr" v="421738" />
	</node>
	<node id="-542275" lat="62.16594167" lon="5.0858333383">
		<tag k="name" v="Langflød" />
		<tag k="place" v="islet" />
		<tag k="ssr:stedsnr" v="420878" />
	</node>
	<node id="-542273" lat="62.196128912" lon="5.18463173329">
		<tag k="name" v="Ytste Stattvågen" />
		<tag k="natural" v="bay" />
		<tag k="ssr:stedsnr" v="420211" />
	</node>
	<node id="-542272" lat="62.0855361151" lon="5.39671943621">
		<tag k="name" v="Djupevika" />
		<tag k="natural" v="bay" />
		<tag k="ssr:stedsnr" v="419340" />
	</node>
	<node id="-542271" lat="62.0951583346" lon="5.25299721494">
		<tag k="fixme" v="consider seamark:type=rock or natural=shoal" />
		<tag k="name" v="Hellesteinen" />
		<tag k="place" v="islet" />
		<tag k="ssr:stedsnr" v="419263" />
	</node>
	<node id="-542270" lat="62.0487611102" lon="5.49287221708">
		<tag k="fixme" v="consider seamark:type=rock or natural=shoal" />
		<tag k="name" v="Store Snella" />
		<tag k="place" v="islet" />
		<tag k="ssr:stedsnr" v="419213" />
	</node>
	<node id="-542269" lat="62.2086499975" lon="5.23224443878">
		<tag k="name" v="Kvitenesskrukken" />
		<tag k="natural" v="shoal" />
		<tag k="place" v="locality" />
		<tag k="ssr:stedsnr" v="418538" />
	</node>
	<node id="-542268" lat="61.9846404224" lon="5.27490030234">
		<tag k="name" v="Langeneset" />
		<tag k="natural" v="cape" />
		<tag k="ssr:stedsnr" v="417788" />
	</node>
	<node id="-542261" lat="61.9873777757" lon="5.29714999999">
		<tag k="name" v="Sandvikneset" />
		<tag k="natural" v="cape" />
		<tag k="ssr:stedsnr" v="414781" />
	</node>
	<node id="-542251" lat="62.0536083326" lon="5.47421666643">
		<tag k="name" v="Ladeneset" />
		<tag k="natural" v="cape" />
		<tag k="ssr:stedsnr" v="414594" />
	</node>
	<node id="-542249" lat="62.0565638884" lon="5.4655805552">
		<tag k="name" v="Stokknesvågen" />
		<tag k="natural" v="bay" />
		<tag k="ssr:stedsnr" v="414580" />
	</node>
	<node id="-542248" lat="62.0416944486" lon="5.48950000275">
		<tag k="name" v="Flatøysundet" />
		<tag k="natural" v="strait" />
		<tag k="ssr:stedsnr" v="414573" />
	</node>
	<node id="-542234" lat="62.1114611073" lon="5.04382221946">
		<tag k="name" v="Mefluda" />
		<tag k="natural" v="shoal" />
		<tag k="place" v="locality" />
		<tag k="ssr:stedsnr" v="253721" />
	</node>
	<node id="-542233" lat="62.1211166626" lon="5.11582500412">
		<tag k="alt_name" v="Langebogen" />
		<tag k="name" v="Langeberget" />
		<tag k="place" v="islet" />
		<tag k="ssr:stedsnr" v="253718" />
	</node>
	<node id="-542231" lat="62.161661108" lon="5.0988388862">
		<tag k="name" v="Storebogen" />
		<tag k="natural" v="bay" />
		<tag k="ssr:stedsnr" v="253708" />
	</node>
	<node id="-542230" lat="62.1545583311" lon="5.10578888921">
		<tag k="name" v="Breideskarbogen" />
		<tag k="natural" v="bay" />
		<tag k="ssr:stedsnr" v="253705" />
	</node>
	<node id="-542229" lat="62.1284638904" lon="5.22162222625">
		<tag k="name" v="Stadlandet" />
		<tag k="natural" v="cape" />
		<tag k="ssr:stedsnr" v="253697" />
	</node>
	<node id="-542228" lat="62.1017666705" lon="5.2110416682">
		<tag k="name" v="Geitneset" />
		<tag k="natural" v="cape" />
		<tag k="ssr:stedsnr" v="253685" />
	</node>
	<node id="-542227" lat="62.0879138878" lon="5.07128055403">
		<tag k="name" v="Skitnefluda" />
		<tag k="natural" v="shoal" />
		<tag k="place" v="locality" />
		<tag k="ssr:stedsnr" v="253679" />
	</node>
	<node id="-542226" lat="62.2032416678" lon="5.24286666261">
		<tag k="name" v="Tåa" />
		<tag k="natural" v="shoal" />
		<tag k="place" v="locality" />
		<tag k="ssr:stedsnr" v="253619" />
	</node>
	<node id="-542224" lat="62.1513861098" lon="5.32120832848">
		<tag k="name" v="Litleholmen" />
		<tag k="place" v="islet" />
		<tag k="ssr:stedsnr" v="253501" />
	</node>
	<node id="-542221" lat="62.0281972195" lon="5.38757222249">
		<tag k="name" v="Hatlenesholmen" />
		<tag k="place" v="islet" />
		<tag k="ssr:stedsnr" v="253350" />
	</node>
	<node id="-542216" lat="61.9875694434" lon="5.24612777534">
		<tag k="name" v="Venøytangane" />
		<tag k="place" v="islet" />
		<tag k="ssr:stedsnr" v="252850" />
	</node>
	<node id="-542215" lat="61.9828750002" lon="5.2433055578">
		<tag k="alt_name" v="Navarneset" />
		<tag k="name" v="Naveneset" />
		<tag k="natural" v="cape" />
		<tag k="ssr:stedsnr" v="252848" />
	</node>
	<node id="-542212" lat="62.0970305513" lon="5.21165278401">
		<tag k="name" v="Geitenesbakken" />
		<tag k="natural" v="shoal" />
		<tag k="place" v="locality" />
		<tag k="ssr:stedsnr" v="236260" />
	</node>
	<node id="-542206" lat="62.0571055593" lon="5.28324165917">
		<tag k="fixme" v="consider seamark:type=rock or natural=shoal" />
		<tag k="name" v="Litleskjeret" />
		<tag k="place" v="islet" />
		<tag k="ssr:stedsnr" v="232823" />
	</node>
	<node id="-542205" lat="62.0540861095" lon="5.31398334175">
		<tag k="name" v="Lyngnesvika" />
		<tag k="natural" v="bay" />
		<tag k="ssr:stedsnr" v="232819" />
	</node>
	<node id="-542203" lat="61.9801416627" lon="5.25261110682">
		<tag k="name" v="Giljeneset" />
		<tag k="natural" v="cape" />
		<tag k="ssr:stedsnr" v="232782" />
	</node>
	<node id="-542199" lat="62.194543018" lon="5.17796961996">
		<tag k="alt_name" v="Kletteneset" />
		<tag k="loc_name" v="Gletteneset" />
		<tag k="name" v="Gatteneset" />
		<tag k="natural" v="cape" />
		<tag k="ssr:stedsnr" v="232686" />
	</node>
	<node id="-542193" lat="62.0074416666" lon="5.48113054886">
		<tag k="name" v="Broteneset" />
		<tag k="natural" v="cape" />
		<tag k="ssr:stedsnr" v="232479" />
	</node>
	<node id="-542192" lat="62.1847500019" lon="5.09139999393">
		<tag k="name" v="Hendabåen" />
		<tag k="place" v="locality" />
		<tag k="seamark:type" v="rock" />
		<tag k="ssr:stedsnr" v="232474" />
	</node>
	<node id="-542190" lat="62.16840278" lon="5.28314999737">
		<tag k="name" v="Litleneset" />
		<tag k="natural" v="cape" />
		<tag k="ssr:stedsnr" v="232218" />
	</node>
	<node id="-542189" lat="62.1228333329" lon="5.16006388336">
		<tag k="name" v="Hoddeviksanden" />
		<tag k="natural" v="beach" />
		<tag k="place" v="locality" />
		<tag k="ssr:stedsnr" v="232199" />
	</node>
	<node id="-542181" lat="62.0830888852" lon="5.39903333628">
		<tag k="name" v="Furenesvika" />
		<tag k="natural" v="bay" />
		<tag k="ssr:stedsnr" v="231994" />
	</node>
	<node id="-542180" lat="62.0799694464" lon="5.40362500776">
		<tag k="name" v="Stigetangen" />
		<tag k="natural" v="cape" />
		<tag k="ssr:stedsnr" v="231991" />
	</node>
	<node id="-542178" lat="62.0528250037" lon="5.32183611638">
		<tag k="name" v="Skarveklubben" />
		<tag k="place" v="islet" />
		<tag k="ssr:stedsnr" v="231951" />
	</node>
	<node id="-542176" lat="62.0300111117" lon="5.41018333017">
		<tag k="name" v="Lestovika" />
		<tag k="natural" v="bay" />
		<tag k="ssr:stedsnr" v="231927" />
	</node>
	<node id="-542172" lat="62.0250833296" lon="5.36206110274">
		<tag k="name" v="Moldestadneset" />
		<tag k="natural" v="cape" />
		<tag k="ssr:stedsnr" v="231898" />
	</node>
	<node id="-542170" lat="61.9511916691" lon="5.28620833695">
		<tag k="name" v="Stranda" />
		<tag k="natural" v="beach" />
		<tag k="place" v="locality" />
		<tag k="ssr:stedsnr" v="231804" />
	</node>
	<node id="-542169" lat="61.9736027805" lon="5.27861111371">
		<tag k="name" v="Båtsvikneset" />
		<tag k="natural" v="cape" />
		<tag k="ssr:stedsnr" v="231795" />
	</node>
	<node id="-542160" lat="62.20793333" lon="5.21653056386">
		<tag k="name" v="Bolkevika" />
		<tag k="natural" v="bay" />
		<tag k="ssr:stedsnr" v="231031" />
	</node>
	<node id="-542153" lat="62.195169441" lon="5.11035000637">
		<tag k="name" v="Sørebogen" />
		<tag k="natural" v="bay" />
		<tag k="ssr:stedsnr" v="193694" />
	</node>
	<node id="-542138" lat="61.9981027814" lon="5.30494166521">
		<tag k="alt_name" v="Korsnes" />
		<tag k="name" v="Korsneset" />
		<tag k="natural" v="cape" />
		<tag k="ssr:stedsnr" v="192888" />
	</node>
	<node id="-542134" lat="62.2107000045" lon="5.20009166671">
		<tag k="name" v="Skarveneset" />
		<tag k="natural" v="cape" />
		<tag k="ssr:stedsnr" v="192747" />
	</node>
	<node id="-542133" lat="62.1705250026" lon="5.32174444866">
		<tag k="fixme" v="consider seamark:type=rock or natural=shoal" />
		<tag k="name" v="Storeboden" />
		<tag k="place" v="islet" />
		<tag k="ssr:stedsnr" v="192548" />
	</node>
	<node id="-542131" lat="62.1132055577" lon="5.33829444836">
		<tag k="name" v="Blikneset" />
		<tag k="natural" v="cape" />
		<tag k="ssr:stedsnr" v="192424" />
	</node>
	<node id="-542129" lat="62.0331111152" lon="5.27202777478">
		<tag k="bay" v="fjord" />
		<tag k="name" v="Røysetfjorden" />
		<tag k="natural" v="bay" />
		<tag k="ssr:stedsnr" v="192277" />
	</node>
	<node id="-542128" lat="61.9774138857" lon="5.22306389309">
		<tag k="name" v="Kupebåane" />
		<tag k="place" v="locality" />
		<tag k="seamark:type" v="rock" />
		<tag k="ssr:stedsnr" v="178880" />
	</node>
	<node id="-542127" lat="62.0323944409" lon="5.35952221404">
		<tag k="name" v="Grynnefluda" />
		<tag k="natural" v="shoal" />
		<tag k="place" v="locality" />
		<tag k="ssr:stedsnr" v="178862" />
	</node>
	<node id="-542126" lat="62.1694444446" lon="5.0860916575">
		<tag k="name" v="Båen" />
		<tag k="natural" v="shoal" />
		<tag k="place" v="locality" />
		<tag k="ssr:stedsnr" v="177874" />
	</node>
	<node id="-542125" lat="62.0021861141" lon="5.33128610552">
		<tag k="name" v="Grendaberget" />
		<tag k="natural" v="cape" />
		<tag k="ssr:stedsnr" v="177688" />
	</node>
	<node id="-542124" lat="62.0567944466" lon="5.17160555911">
		<tag k="name" v="Tøleskallen" />
		<tag k="natural" v="shoal" />
		<tag k="place" v="locality" />
		<tag k="ssr:stedsnr" v="177635" />
	</node>
	<node id="-542123" lat="62.0291638863" lon="5.26560556486">
		<tag k="name" v="Loksnespålen" />
		<tag k="natural" v="shoal" />
		<tag k="place" v="locality" />
		<tag k="ssr:stedsnr" v="177609" />
	</node>
	<node id="-542122" lat="62.1882083335" lon="5.05336388291">
		<tag k="name" v="Bukken" />
		<tag k="natural" v="shoal" />
		<tag k="place" v="locality" />
		<tag k="ssr:stedsnr" v="176757" />
	</node>
	<node id="-542121" lat="62.1544361147" lon="5.32668054591">
		<tag k="name" v="Holefluda" />
		<tag k="natural" v="shoal" />
		<tag k="place" v="locality" />
		<tag k="ssr:stedsnr" v="176343" />
	</node>
	<node id="-542120" lat="62.0984916672" lon="5.17656665951">
		<tag k="name" v="Grynnane" />
		<tag k="natural" v="shoal" />
		<tag k="place" v="locality" />
		<tag k="ssr:stedsnr" v="176237" />
	</node>
	<node id="-542116" lat="62.0494749958" lon="5.29099999256">
		<tag k="name" v="Yksnevika" />
		<tag k="natural" v="bay" />
		<tag k="ssr:stedsnr" v="171847" />
	</node>
	<node id="-542105" lat="62.0170916679" lon="5.47607499958">
		<tag k="name" v="Einerhaugvika" />
		<tag k="natural" v="bay" />
		<tag k="ssr:stedsnr" v="171573" />
	</node>
	<node id="-542102" lat="62.1751138922" lon="5.27810276888">
		<tag k="name" v="Grunnevika" />
		<tag k="natural" v="bay" />
		<tag k="ssr:stedsnr" v="171199" />
	</node>
	<node id="-542097" lat="62.16108889" lon="5.29498611342">
		<tag k="name" v="Hamnaneset" />
		<tag k="natural" v="cape" />
		<tag k="ssr:stedsnr" v="171133" />
	</node>
	<node id="-542089" lat="62.0250555511" lon="5.41880277035">
		<tag k="name" v="Havavika" />
		<tag k="natural" v="bay" />
		<tag k="ssr:stedsnr" v="170936" />
	</node>
	<node id="-542088" lat="62.0348694476" lon="5.38553888634">
		<tag k="name" v="Bergshamna" />
		<tag k="natural" v="bay" />
		<tag k="ssr:stedsnr" v="170924" />
	</node>
	<node id="-542086" lat="61.995524996" lon="5.33209445446">
		<tag k="name" v="Rundereimsvika" />
		<tag k="natural" v="bay" />
		<tag k="old_name" v="Rundereinsvika" />
		<tag k="ssr:stedsnr" v="170910" />
	</node>
	<node id="-542085" lat="62.0919805526" lon="5.38682223205">
		<tag k="name" v="Haggarsvika" />
		<tag k="natural" v="bay" />
		<tag k="ssr:stedsnr" v="170794" />
	</node>
	<node id="-542084" lat="61.9681638891" lon="5.29110000182">
		<tag k="alt_name" v="Vedrhusvika" />
		<tag k="name" v="Vetrhusvika" />
		<tag k="natural" v="bay" />
		<tag k="ssr:stedsnr" v="170780" />
	</node>
	<node id="-542080" lat="62.1686444404" lon="5.07778888938">
		<tag k="name" v="Hoen" />
		<tag k="place" v="island" />
		<tag k="ssr:stedsnr" v="170048" />
	</node>
	<node id="-542079" lat="62.1631805534" lon="5.09425833555">
		<tag k="name" v="Hovdegjøtten" />
		<tag k="natural" v="bay" />
		<tag k="ssr:stedsnr" v="170016" />
	</node>
	<node id="-542074" lat="62.0918055527" lon="5.39246667611">
		<tag k="fixme" v="multiple name tags, choose one and add the other to alt_name" />
		<tag k="name" v="Kåveholmen;Ytsteholmen" />
		<tag k="place" v="islet" />
		<tag k="ssr:stedsnr" v="162815" />
	</node>
	<node id="-542070" lat="62.2235944462" lon="5.17447499079">
		<tag k="name" v="Stålrevet" />
		<tag k="natural" v="shoal" />
		<tag k="place" v="locality" />
		<tag k="ssr:stedsnr" v="132719" />
	</node>
	<node id="-542069" lat="62.1488166666" lon="5.12126110535">
		<tag k="name" v="Selen" />
		<tag k="natural" v="cape" />
		<tag k="ssr:stedsnr" v="132715" />
	</node>
	<node id="-542064" lat="62.2123944414" lon="5.22684721501">
		<tag k="name" v="Kvitenesfludene" />
		<tag k="natural" v="shoal" />
		<tag k="place" v="locality" />
		<tag k="ssr:stedsnr" v="132564" />
	</node>
	<node id="-542058" lat="62.0621166692" lon="5.45538056059">
		<tag k="alt_name" v="Småholmane" />
		<tag k="name" v="Stokkevågholmane" />
		<tag k="place" v="islet" />
		<tag k="ssr:stedsnr" v="132339" />
	</node>
	<node id="-542057" lat="62.0771666694" lon="5.4242333424">
		<tag k="name" v="Buholmen" />
		<tag k="place" v="islet" />
		<tag k="ssr:stedsnr" v="132303" />
	</node>
	<node id="-542047" lat="61.9740583317" lon="5.25783611067">
		<tag k="name" v="Seljeneset" />
		<tag k="natural" v="cape" />
		<tag k="ssr:stedsnr" v="131771" />
	</node>
	<node id="-542043" lat="61.9846166671" lon="5.20358054726">
		<tag k="name" v="Småfluda" />
		<tag k="natural" v="shoal" />
		<tag k="place" v="locality" />
		<tag k="ssr:stedsnr" v="117889" />
	</node>
	<node id="-542042" lat="62.1110222183" lon="5.10011944966">
		<tag k="name" v="Flistergrynna" />
		<tag k="natural" v="shoal" />
		<tag k="place" v="locality" />
		<tag k="ssr:stedsnr" v="117734" />
	</node>
	<node id="-542041" lat="62.033744447" lon="5.39242778535">
		<tag k="name" v="Skigardsfluda" />
		<tag k="natural" v="shoal" />
		<tag k="place" v="locality" />
		<tag k="ssr:stedsnr" v="117584" />
	</node>
	<node id="-542039" lat="62.0961611115" lon="5.15087499631">
		<tag k="name" v="Køylefluda" />
		<tag k="natural" v="shoal" />
		<tag k="place" v="locality" />
		<tag k="ssr:stedsnr" v="117300" />
	</node>
	<node id="-542037" lat="62.198519445" lon="5.12334999037">
		<tag k="name" v="Trollhola" />
		<tag k="natural" v="bay" />
		<tag k="ssr:stedsnr" v="117248" />
	</node>
	<node id="-542036" lat="61.9689000001" lon="5.20261666588">
		<tag k="name" v="Kvianesholmen" />
		<tag k="place" v="islet" />
		<tag k="ssr:stedsnr" v="117015" />
	</node>
	<node id="-542035" lat="62.2075666623" lon="5.22972499622">
		<tag k="fixme" v="consider seamark:type=rock or natural=shoal" />
		<tag k="name" v="Kvitenesgjøtta" />
		<tag k="place" v="islet" />
		<tag k="ssr:stedsnr" v="115539" />
	</node>
	<node id="-542034" lat="62.1156722187" lon="5.34828056543">
		<tag k="fixme" v="consider seamark:type=rock or natural=shoal" />
		<tag k="name" v="Skarveskjeret" />
		<tag k="place" v="islet" />
		<tag k="ssr:stedsnr" v="115348" />
	</node>
	<node id="-542033" lat="62.1025444434" lon="5.2246194456">
		<tag k="name" v="Stigenesfluda" />
		<tag k="natural" v="shoal" />
		<tag k="place" v="locality" />
		<tag k="ssr:stedsnr" v="115284" />
	</node>
	<node id="-542032" lat="62.0398111072" lon="5.48866111216">
		<tag k="name" v="Jaktevika" />
		<tag k="natural" v="bay" />
		<tag k="ssr:stedsnr" v="115224" />
	</node>
	<node id="-542031" lat="62.1646666653" lon="5.32938611804">
		<tag k="name" v="Kvileberget" />
		<tag k="natural" v="cape" />
		<tag k="ssr:stedsnr" v="111856" />
	</node>
	<node id="-542023" lat="61.9775222207" lon="5.22767222212">
		<tag k="name" v="Perneset" />
		<tag k="natural" v="cape" />
		<tag k="ssr:stedsnr" v="111779" />
	</node>
	<node id="-542015" lat="62.0392333319" lon="5.49013333554">
		<tag k="name" v="Jektevikholmen" />
		<tag k="place" v="islet" />
		<tag k="ssr:stedsnr" v="111541" />
	</node>
	<node id="-542014" lat="62.0453416641" lon="5.47986110618">
		<tag k="name" v="Kleivaneset" />
		<tag k="natural" v="cape" />
		<tag k="ssr:stedsnr" v="111535" />
	</node>
	<node id="-542011" lat="62.2001811891" lon="5.14164908159">
		<tag k="name" v="Areneset" />
		<tag k="natural" v="cape" />
		<tag k="ssr:stedsnr" v="111492" />
	</node>
	<node id="-541994" lat="62.0429215394" lon="5.33754201415">
		<tag k="name" v="Jensneset" />
		<tag k="natural" v="cape" />
		<tag k="ssr:stedsnr" v="110956" />
	</node>
	<node id="-541983" lat="62.0291694485" lon="5.40754721825">
		<tag k="alt_name" v="Lestaneset" />
		<tag k="name" v="Lestoneset" />
		<tag k="natural" v="cape" />
		<tag k="ssr:stedsnr" v="110882" />
	</node>
	<node id="-541979" lat="62.0883250003" lon="5.39239167466">
		<tag k="name" v="Otneimvika" />
		<tag k="natural" v="bay" />
		<tag k="ssr:stedsnr" v="110794" />
	</node>
	<node id="-541977" lat="62.1380555561" lon="5.14321666077">
		<tag k="name" v="Store Molvika" />
		<tag k="natural" v="bay" />
		<tag k="ssr:stedsnr" v="110177" />
	</node>
	<node id="-541970" lat="62.1876861134" lon="5.23915556124">
		<tag k="name" v="Eltvika" />
		<tag k="natural" v="bay" />
		<tag k="ssr:stedsnr" v="110004" />
	</node>
	<node id="-541962" lat="62.0636527741" lon="5.28710832602">
		<tag k="bay" v="fjord" />
		<tag k="name" v="Skorbøfjorden" />
		<tag k="natural" v="bay" />
		<tag k="ssr:stedsnr" v="72318" />
	</node>
	<node id="-541958" lat="62.1985111131" lon="5.12152223138">
		<tag k="name" v="Nørdrebogen" />
		<tag k="natural" v="bay" />
		<tag k="ssr:stedsnr" v="71746" />
	</node>
	<node id="-541947" lat="62.0253750039" lon="5.35573332502">
		<tag k="name" v="Sjøakrevika" />
		<tag k="natural" v="bay" />
		<tag k="ssr:stedsnr" v="56880" />
	</node>
	<node id="-541946" lat="61.9979111082" lon="5.26611112048">
		<tag k="name" v="Geilaberget" />
		<tag k="natural" v="cape" />
		<tag k="ssr:stedsnr" v="56702" />
	</node>
	<node id="-541945" lat="62.1896055577" lon="5.25335556015">
		<tag k="name" v="Djupefluda" />
		<tag k="natural" v="shoal" />
		<tag k="place" v="locality" />
		<tag k="ssr:stedsnr" v="56333" />
	</node>
	<node id="-541944" lat="61.9644444465" lon="5.20374166881">
		<tag k="name" v="Småfludene" />
		<tag k="natural" v="shoal" />
		<tag k="place" v="locality" />
		<tag k="ssr:stedsnr" v="56022" />
	</node>
	<node id="-541943" lat="61.971866663" lon="5.2020166586">
		<tag k="name" v="Småholmane" />
		<tag k="place" v="islet" />
		<tag k="ssr:stedsnr" v="56017" />
	</node>
	<node id="-541942" lat="62.089816667" lon="5.25889166246">
		<tag k="name" v="Brattenova" />
		<tag k="natural" v="cape" />
		<tag k="ssr:stedsnr" v="55329" />
	</node>
	<node id="-541941" lat="61.9786916652" lon="5.20183333366">
		<tag k="name" v="Gangeskarneset" />
		<tag k="natural" v="cape" />
		<tag k="ssr:stedsnr" v="53784" />
	</node>
	<node id="-541935" lat="62.1100222234" lon="5.34176945002">
		<tag k="name" v="Sandesanden" />
		<tag k="natural" v="beach" />
		<tag k="place" v="locality" />
		<tag k="ssr:stedsnr" v="50767" />
	</node>
	<node id="-541932" lat="62.1917111076" lon="5.15970555005">
		<tag k="name" v="Humrevika" />
		<tag k="natural" v="bay" />
		<tag k="ssr:stedsnr" v="50686" />
	</node>
	<node id="-541930" lat="62.0592416643" lon="5.46039166677">
		<tag k="name" v="Tarevika" />
		<tag k="natural" v="bay" />
		<tag k="ssr:stedsnr" v="50541" />
	</node>
	<node id="-541926" lat="62.0397722236" lon="5.48110555634">
		<tag k="fixme" v="consider seamark:type=rock or natural=shoal" />
		<tag k="name" v="Guleskjeret" />
		<tag k="place" v="islet" />
		<tag k="ssr:stedsnr" v="50523" />
	</node>
	<node id="-541922" lat="62.2029694404" lon="5.17418333095">
		<tag k="name" v="Høgebarden" />
		<tag k="natural" v="cape" />
		<tag k="ssr:stedsnr" v="50490" />
	</node>
	<node id="-541921" lat="62.2115472247" lon="5.18246667544">
		<tag k="name" v="Stålgjøtten" />
		<tag k="place" v="locality" />
		<tag k="ssr:stedsnr" v="50482" />
	</node>
	<node id="-541915" lat="62.1577527751" lon="5.29324166835">
		<tag k="name" v="Setrevågen" />
		<tag k="natural" v="bay" />
		<tag k="ssr:stedsnr" v="50145" />
	</node>
	<node id="-541908" lat="62.0237777759" lon="5.4205972148">
		<tag k="name" v="Eidsneset" />
		<tag k="natural" v="cape" />
		<tag k="ssr:stedsnr" v="49926" />
	</node>
	<node id="-541904" lat="61.9895944439" lon="5.31946389625">
		<tag k="name" v="Røyrvikneset" />
		<tag k="natural" v="cape" />
		<tag k="ssr:stedsnr" v="49895" />
	</node>
	<node id="-541894" lat="62.1254916686" lon="5.12690554999">
		<tag k="name" v="Røyraneset" />
		<tag k="natural" v="cape" />
		<tag k="ssr:stedsnr" v="49241" />
	</node>
	<node id="-541889" lat="62.0250222217" lon="5.38884999775">
		<tag k="name" v="Langenesvika" />
		<tag k="natural" v="bay" />
		<tag k="ssr:stedsnr" v="40847" />
	</node>
	<node id="-541884" lat="62.1398749976" lon="5.14282222959">
		<tag k="name" v="Molviketangane" />
		<tag k="natural" v="cape" />
		<tag k="ssr:stedsnr" v="11715" />
	</node>
	<node id="-541883" lat="62.1269777808" lon="5.1203333339">
		<tag k="name" v="Hoddevikneset" />
		<tag k="natural" v="cape" />
		<tag k="ssr:stedsnr" v="11712" />
	</node>
	<node id="-541880" lat="62.1017222195" lon="5.19006388577">
		<tag k="name" v="Furestranda" />
		<tag k="natural" v="beach" />
		<tag k="place" v="locality" />
		<tag k="ssr:stedsnr" v="11673" />
	</node>
	<node id="-541879" lat="62.0603694406" lon="5.19134166883">
		<tag k="name" v="Skjeggane" />
		<tag k="natural" v="shoal" />
		<tag k="place" v="locality" />
		<tag k="ssr:stedsnr" v="11659" />
	</node>
	<node id="-541875" lat="62.0794527761" lon="5.27521110958">
		<tag k="name" v="Årdalsholmen" />
		<tag k="place" v="islet" />
		<tag k="ssr:stedsnr" v="11411" />
	</node>
	<node id="-541872" lat="62.0716722219" lon="5.43980278712">
		<tag k="name" v="Årsheimsneset" />
		<tag k="natural" v="cape" />
		<tag k="ssr:stedsnr" v="11324" />
	</node>
	<node id="-541849" lat="62.0343749977" lon="5.37984999734">
		<tag k="name" v="Bortnevika" />
		<tag k="natural" v="bay" />
		<tag k="ssr:stedsnr" v="413921" />
	</node>
	<node id="-541847" lat="61.9938555545" lon="5.32760000794">
		<tag k="name" v="Staurvikneset" />
		<tag k="natural" v="cape" />
		<tag k="ssr:stedsnr" v="413910" />
	</node>
	<node id="-541845" lat="62.0238222258" lon="5.38009165796">
		<tag k="name" v="Djupevika" />
		<tag k="natural" v="bay" />
		<tag k="ssr:stedsnr" v="413895" />
	</node>
	<node id="-541840" lat="62.1696504925" lon="5.07936271304">
		<tag k="name" v="Buholmane" />
		<tag k="place" v="islet" />
		<tag k="ssr:stedsnr" v="1073962" />
	</node>
	<node id="-541839" lat="62.168861442" lon="5.08406183082">
		<tag k="name" v="Buholmsundet" />
		<tag k="natural" v="strait" />
		<tag k="ssr:stedsnr" v="1073960" />
	</node>
	<node id="-541838" lat="62.0991682378" lon="5.10906292513">
		<tag k="name" v="Furenesbåane" />
		<tag k="natural" v="shoal" />
		<tag k="place" v="locality" />
		<tag k="ssr:stedsnr" v="1073953" />
	</node>
	<node id="-541837" lat="62.0320129749" lon="5.34390089761">
		<tag k="name" v="Saltaneset" />
		<tag k="natural" v="cape" />
		<tag k="ssr:stedsnr" v="1073818" />
	</node>
	<node id="-541836" lat="62.0357123696" lon="5.34017022344">
		<tag k="name" v="Reidneset" />
		<tag k="natural" v="cape" />
		<tag k="ssr:stedsnr" v="1073817" />
	</node>
	<node id="-541835" lat="61.9842870605" lon="5.28798210764">
		<tag k="name" v="Sandvikhamn" />
		<tag k="natural" v="bay" />
		<tag k="ssr:stedsnr" v="1073815" />
	</node>
	<node id="-541834" lat="61.9881865161" lon="5.25307596318">
		<tag k="name" v="Venøyhamn" />
		<tag k="natural" v="bay" />
		<tag k="ssr:stedsnr" v="1073813" />
	</node>
	<node id="-541833" lat="61.9808078434" lon="5.27544060437">
		<tag k="name" v="Straumen" />
		<tag k="natural" v="cape" />
		<tag k="ssr:stedsnr" v="1073810" />
	</node>
	<node id="-541832" lat="61.9825349039" lon="5.27393551219">
		<tag k="name" v="Brynevika" />
		<tag k="natural" v="bay" />
		<tag k="ssr:stedsnr" v="1073802" />
	</node>
	<node id="-541831" lat="61.9846012697" lon="5.27180220849">
		<tag k="name" v="Seidevikneset" />
		<tag k="natural" v="cape" />
		<tag k="ssr:stedsnr" v="1073801" />
	</node>
	<node id="-541830" lat="61.9840932409" lon="5.27192781954">
		<tag k="name" v="Seidevika" />
		<tag k="natural" v="bay" />
		<tag k="ssr:stedsnr" v="1073800" />
	</node>
	<node id="-541829" lat="61.984812605" lon="5.26899091402">
		<tag k="name" v="Rognholmen" />
		<tag k="place" v="islet" />
		<tag k="ssr:stedsnr" v="1073796" />
	</node>
	<node id="-541823" lat="62.1947638881" lon="5.20354166947">
		<tag k="alt_name" v="Joneset" />
		<tag k="name" v="Lakseberget" />
		<tag k="natural" v="cape" />
		<tag k="ssr:stedsnr" v="899040" />
	</node>
	<node id="-541818" lat="62.1756249996" lon="5.10826667535">
		<tag k="name" v="Riskollgjøtten" />
		<tag k="natural" v="bay" />
		<tag k="ssr:stedsnr" v="899001" />
	</node>
	<node id="-541816" lat="62.1018555596" lon="5.18768888736">
		<tag k="name" v="Avløysnaden" />
		<tag k="natural" v="shoal" />
		<tag k="place" v="locality" />
		<tag k="ssr:stedsnr" v="479246" />
	</node>
	<node id="-541814" lat="62.0820694431" lon="5.42480556277">
		<tag k="name" v="Nesvikfludene" />
		<tag k="natural" v="shoal" />
		<tag k="place" v="locality" />
		<tag k="ssr:stedsnr" v="479335" />
	</node>
	<node id="-541811" lat="62.0255361128" lon="5.47971388295">
		<tag k="name" v="Lyngneset" />
		<tag k="natural" v="cape" />
		<tag k="ssr:stedsnr" v="475550" />
	</node>
	<node id="-541805" lat="62.0449083305" lon="5.34137222315">
		<tag k="name" v="Seljevågen" />
		<tag k="natural" v="bay" />
		<tag k="ssr:stedsnr" v="474968" />
	</node>
	<node id="-541804" lat="62.043647223" lon="5.33835555707">
		<tag k="name" v="Holmavika" />
		<tag k="natural" v="bay" />
		<tag k="ssr:stedsnr" v="474969" />
	</node>
	<node id="-541803" lat="62.0467972243" lon="5.32181111584">
		<tag k="name" v="Hamnaneset" />
		<tag k="natural" v="cape" />
		<tag k="ssr:stedsnr" v="474965" />
	</node>
	<node id="-541790" lat="62.0930194454" lon="5.22597777967">
		<tag k="name" v="Dragsvika" />
		<tag k="natural" v="bay" />
		<tag k="ssr:stedsnr" v="474846" />
	</node>
	<node id="-541788" lat="61.9783250036" lon="5.3100611148">
		<tag k="name" v="Svoraneset" />
		<tag k="natural" v="cape" />
		<tag k="ssr:stedsnr" v="474761" />
	</node>
	<node id="-541776" lat="62.0094638929" lon="5.4845916635">
		<tag k="name" v="Skorgestranda" />
		<tag k="natural" v="beach" />
		<tag k="place" v="locality" />
		<tag k="ssr:stedsnr" v="474536" />
	</node>
	<node id="-541775" lat="62.0060583291" lon="5.47831111254">
		<tag k="name" v="Gorgenesvika" />
		<tag k="natural" v="bay" />
		<tag k="ssr:stedsnr" v="474532" />
	</node>
	<node id="-541761" lat="62.1928222193" lon="5.23124721797">
		<tag k="name" v="Molvika" />
		<tag k="natural" v="bay" />
		<tag k="ssr:stedsnr" v="474007" />
	</node>
	<node id="-541760" lat="62.1743222236" lon="5.10962222916">
		<tag k="name" v="Libbikhamna" />
		<tag k="natural" v="bay" />
		<tag k="ssr:stedsnr" v="474005" />
	</node>
	<node id="-541745" lat="62.1002166667" lon="5.12893332631">
		<tag k="name" v="Haugeneset" />
		<tag k="natural" v="cape" />
		<tag k="ssr:stedsnr" v="414198" />
	</node>
	<node id="-541743" lat="62.0858944464" lon="5.25745832416">
		<tag k="name" v="Fausken" />
		<tag k="natural" v="shoal" />
		<tag k="place" v="locality" />
		<tag k="ssr:stedsnr" v="388294" />
	</node>
	<node id="-541736" lat="62.1244055575" lon="5.11223610755">
		<tag k="name" v="Furestaven" />
		<tag k="natural" v="cape" />
		<tag k="ssr:stedsnr" v="375693" />
	</node>
	<node id="-541733" lat="62.1435416658" lon="5.31442222866">
		<tag k="name" v="Beitveitneset" />
		<tag k="natural" v="cape" />
		<tag k="ssr:stedsnr" v="375395" />
	</node>
	<node id="-541731" lat="62.0533361082" lon="5.49609721504">
		<tag k="name" v="Litle Teisten" />
		<tag k="place" v="islet" />
		<tag k="ssr:stedsnr" v="375313" />
	</node>
	<node id="-541730" lat="62.0798493163" lon="5.41917123846">
		<tag k="alt_name" v="Neseholmane" />
		<tag k="name" v="Nesholmane" />
		<tag k="place" v="islet" />
		<tag k="ssr:stedsnr" v="375294" />
	</node>
	<node id="-541728" lat="62.0545888875" lon="5.31213332875">
		<tag k="name" v="Lyngneset" />
		<tag k="natural" v="cape" />
		<tag k="ssr:stedsnr" v="375287" />
	</node>
	<node id="-541727" lat="62.0128388901" lon="5.32367223054">
		<tag k="alt_name" v="Barmsund" />
		<tag k="loc_name" v="Barmasundet" />
		<tag k="name" v="Barmsundet" />
		<tag k="natural" v="strait" />
		<tag k="ssr:stedsnr" v="375234" />
	</node>
	<node id="-541725" lat="62.0042083323" lon="5.25648332571">
		<tag k="name" v="Vikaneset" />
		<tag k="natural" v="cape" />
		<tag k="ssr:stedsnr" v="375165" />
	</node>
	<node id="-541724" lat="62.0063388907" lon="5.47254167601">
		<tag k="name" v="Gorgeneset" />
		<tag k="natural" v="cape" />
		<tag k="ssr:stedsnr" v="375158" />
	</node>
	<node id="-541722" lat="61.987274998" lon="5.28393888351">
		<tag k="name" v="Sandvikholmen" />
		<tag k="place" v="islet" />
		<tag k="ssr:stedsnr" v="374765" />
	</node>
	<node id="-541721" lat="61.9833513467" lon="5.26323625648">
		<tag k="name" v="Venøya" />
		<tag k="place" v="island" />
		<tag k="ssr:stedsnr" v="374762" />
	</node>
	<node id="-541719" lat="62.1984916647" lon="5.17509443567">
		<tag k="name" v="Tårneset" />
		<tag k="natural" v="cape" />
		<tag k="ssr:stedsnr" v="374756" />
	</node>
	<node id="-541717" lat="62.178777781" lon="5.06913332432">
		<tag k="name" v="Vossa" />
		<tag k="natural" v="shoal" />
		<tag k="place" v="locality" />
		<tag k="ssr:stedsnr" v="374746" />
	</node>
	<node id="-541716" lat="62.2073166638" lon="5.18098332502">
		<tag k="alt_name" v="Halsetangen" />
		<tag k="name" v="Halsen" />
		<tag k="natural" v="cape" />
		<tag k="ssr:stedsnr" v="374726" />
	</node>
	<node id="-541714" lat="62.0802861079" lon="5.06289443753">
		<tag k="name" v="Ramsefluda" />
		<tag k="natural" v="shoal" />
		<tag k="place" v="locality" />
		<tag k="ssr:stedsnr" v="374662" />
	</node>
	<node id="-541713" lat="62.2089611093" lon="5.22383334306">
		<tag k="name" v="Kviteneset" />
		<tag k="natural" v="cape" />
		<tag k="ssr:stedsnr" v="374546" />
	</node>
	<node id="-541712" lat="62.2062611115" lon="5.22780278302">
		<tag k="name" v="Litlekviteneset" />
		<tag k="natural" v="cape" />
		<tag k="ssr:stedsnr" v="374544" />
	</node>
	<node id="-541710" lat="62.1702194461" lon="5.29106665932">
		<tag k="alt_name" v="Klubbneset" />
		<tag k="name" v="Klubben" />
		<tag k="natural" v="cape" />
		<tag k="ssr:stedsnr" v="374492" />
	</node>
	<node id="-541707" lat="62.071616663" lon="5.45017222465">
		<tag k="fixme" v="consider seamark:type=rock or natural=shoal" />
		<tag k="name" v="Grøneskjeret" />
		<tag k="place" v="islet" />
		<tag k="ssr:stedsnr" v="374338" />
	</node>
	<node id="-541701" lat="62.1306611069" lon="5.14724165972">
		<tag k="name" v="Fluda" />
		<tag k="natural" v="shoal" />
		<tag k="place" v="locality" />
		<tag k="ssr:stedsnr" v="177722" />
	</node>
	<node id="-541700" lat="61.9763888932" lon="5.25526110484">
		<tag k="name" v="Hundeneset" />
		<tag k="natural" v="cape" />
		<tag k="ssr:stedsnr" v="360888" />
	</node>
	<node id="-541697" lat="62.191769446" lon="5.23842778043">
		<tag k="name" v="Mærsnesrevet" />
		<tag k="natural" v="shoal" />
		<tag k="place" v="locality" />
		<tag k="ssr:stedsnr" v="359347" />
	</node>
	<node id="-541696" lat="62.1790777739" lon="5.25460000583">
		<tag k="name" v="Bogen" />
		<tag k="natural" v="bay" />
		<tag k="ssr:stedsnr" v="359345" />
	</node>
	<node id="-541695" lat="62.2011722242" lon="5.15699443847">
		<tag k="name" v="Holstø" />
		<tag k="natural" v="shoal" />
		<tag k="place" v="locality" />
		<tag k="ssr:stedsnr" v="359248" />
	</node>
	<node id="-541693" lat="62.197338887" lon="5.1909999982">
		<tag k="name" v="Naustneset" />
		<tag k="natural" v="cape" />
		<tag k="ssr:stedsnr" v="359217" />
	</node>
	<node id="-541692" lat="62.1936292606" lon="5.19967592855">
		<tag k="name" v="Inste Stattvågen" />
		<tag k="natural" v="bay" />
		<tag k="ssr:stedsnr" v="359203" />
	</node>
	<node id="-541691" lat="62.1773194401" lon="5.07180555242">
		<tag k="name" v="Vossaskallen" />
		<tag k="natural" v="shoal" />
		<tag k="place" v="locality" />
		<tag k="ssr:stedsnr" v="358762" />
	</node>
	<node id="-541690" lat="62.0476027777" lon="5.49072778411">
		<tag k="fixme" v="consider seamark:type=rock or natural=shoal" />
		<tag k="name" v="Litle Snella" />
		<tag k="place" v="islet" />
		<tag k="ssr:stedsnr" v="358193" />
	</node>
	<node id="-541689" lat="62.2074472181" lon="5.16387499397">
		<tag k="name" v="Skorpefluda" />
		<tag k="natural" v="shoal" />
		<tag k="place" v="locality" />
		<tag k="ssr:stedsnr" v="357548" />
	</node>
	<node id="-541686" lat="62.0882666701" lon="5.25968056052">
		<tag k="name" v="Kjevika" />
		<tag k="natural" v="bay" />
		<tag k="ssr:stedsnr" v="353808" />
	</node>
	<node id="-541685" lat="61.9814472255" lon="5.31400555408">
		<tag k="name" v="Storehammarneset" />
		<tag k="natural" v="cape" />
		<tag k="ssr:stedsnr" v="353787" />
	</node>
	<node id="-541681" lat="61.9614000032" lon="5.20409722712">
		<tag k="name" v="Håneset" />
		<tag k="natural" v="cape" />
		<tag k="ssr:stedsnr" v="353749" />
	</node>
	<node id="-541678" lat="62.03298333" lon="5.48689444775">
		<tag k="name" v="Otnesvågen" />
		<tag k="natural" v="bay" />
		<tag k="ssr:stedsnr" v="353581" />
	</node>
	<node id="-541677" lat="62.0445055578" lon="5.49263610547">
		<tag k="name" v="Litle Flatøya" />
		<tag k="place" v="island" />
		<tag k="ssr:stedsnr" v="353572" />
	</node>
	<node id="-541676" lat="62.0396055525" lon="5.49191389621">
		<tag k="name" v="Klungreholmen" />
		<tag k="place" v="islet" />
		<tag k="ssr:stedsnr" v="353571" />
	</node>
	<node id="-541675" lat="62.0126250022" lon="5.4891361104">
		<tag k="name" v="Ekrevika" />
		<tag k="natural" v="bay" />
		<tag k="ssr:stedsnr" v="353532" />
	</node>
	<node id="-541670" lat="62.0804750041" lon="5.42011666462">
		<tag k="name" v="Lyngholmane" />
		<tag k="place" v="islet" />
		<tag k="ssr:stedsnr" v="414000" />
	</node>
	<node id="-541666" lat="62.0456055564" lon="5.34846944926">
		<tag k="name" v="Seljesanden" />
		<tag k="natural" v="beach" />
		<tag k="place" v="locality" />
		<tag k="ssr:stedsnr" v="352908" />
	</node>
	<node id="-541660" lat="61.9571249985" lon="5.30051945091">
		<tag k="name" v="Svaberget" />
		<tag k="natural" v="cape" />
		<tag k="ssr:stedsnr" v="352746" />
	</node>
	<node id="-541659" lat="61.9718527814" lon="5.28322778367">
		<tag k="alt_name" v="Vedrhusstranda" />
		<tag k="name" v="Vetrhusstranda" />
		<tag k="natural" v="beach" />
		<tag k="place" v="locality" />
		<tag k="ssr:stedsnr" v="352739" />
	</node>
	<node id="-541657" lat="62.1405750018" lon="5.14173889302">
		<tag k="name" v="Litle Molvika" />
		<tag k="natural" v="bay" />
		<tag k="ssr:stedsnr" v="352195" />
	</node>
	<node id="-541651" lat="62.1731555524" lon="5.11043610762">
		<tag k="name" v="Grøtgjølgjøtten" />
		<tag k="natural" v="bay" />
		<tag k="ssr:stedsnr" v="352003" />
	</node>
	<node id="-541649" lat="62.1787055517" lon="5.26312778555">
		<tag k="fixme" v="consider seamark:type=rock or natural=shoal" />
		<tag k="name" v="Røyrabogskjer" />
		<tag k="place" v="islet" />
		<tag k="ssr:stedsnr" v="344994" />
	</node>
	<node id="-541648" lat="62.0986638861" lon="5.37703888447">
		<tag k="name" v="Flødeskjerfludene" />
		<tag k="place" v="locality" />
		<tag k="seamark:type" v="rock" />
		<tag k="ssr:stedsnr" v="342727" />
	</node>
	<node id="-541647" lat="62.1823540622" lon="5.09675366375">
		<tag k="name" v="Fåden" />
		<tag k="natural" v="cape" />
		<tag k="ssr:stedsnr" v="314736" />
	</node>
	<node id="-541646" lat="62.1936005892" lon="5.09935474969">
		<tag k="name" v="Nobba" />
		<tag k="natural" v="cape" />
		<tag k="ssr:stedsnr" v="314720" />
	</node>
	<node id="-541645" lat="62.1654027822" lon="5.09255278517">
		<tag k="name" v="Litlebogen" />
		<tag k="natural" v="bay" />
		<tag k="ssr:stedsnr" v="314696" />
	</node>
	<node id="-541644" lat="62.1513999999" lon="5.10377500451">
		<tag k="name" v="Lisneset" />
		<tag k="natural" v="cape" />
		<tag k="ssr:stedsnr" v="314694" />
	</node>
	<node id="-541641" lat="62.171791665" lon="5.3038111189">
		<tag k="name" v="Korholmen" />
		<tag k="place" v="islet" />
		<tag k="ssr:stedsnr" v="314540" />
	</node>
	<node id="-541636" lat="62.1154055557" lon="5.35075000663">
		<tag k="alt_name" v="Slåtteholmen" />
		<tag k="fixme" v="consider seamark:type=rock or natural=shoal" />
		<tag k="name" v="Sandeskjera" />
		<tag k="place" v="islet" />
		<tag k="ssr:stedsnr" v="314423" />
	</node>
	<node id="-541635" lat="62.0511472209" lon="5.28365833508">
		<tag k="name" v="Kjeholmen" />
		<tag k="place" v="islet" />
		<tag k="ssr:stedsnr" v="314405" />
	</node>
	<node id="-541633" lat="62.0794944412" lon="5.42328611383">
		<tag k="name" v="Sandvikneset" />
		<tag k="natural" v="cape" />
		<tag k="ssr:stedsnr" v="314362" />
	</node>
	<node id="-541632" lat="62.0682722253" lon="5.45085000891">
		<tag k="name" v="Lyngholmen" />
		<tag k="place" v="islet" />
		<tag k="ssr:stedsnr" v="314341" />
	</node>
	<node id="-541630" lat="62.0404583371" lon="5.33426945171">
		<tag k="name" v="Hovsundet" />
		<tag k="natural" v="strait" />
		<tag k="ssr:stedsnr" v="314303" />
	</node>
	<node id="-541628" lat="62.041983335" lon="5.49460832499">
		<tag k="name" v="Flatøya" />
		<tag k="place" v="island" />
		<tag k="ssr:stedsnr" v="314300" />
	</node>
	<node id="-541625" lat="62.0067694464" lon="5.46614444912">
		<tag k="name" v="Kjødspollen" />
		<tag k="natural" v="bay" />
		<tag k="ssr:stedsnr" v="314214" />
	</node>
	<node id="-541618" lat="62.0187055534" lon="5.33874443944">
		<tag k="name" v="Setreberget" />
		<tag k="natural" v="cape" />
		<tag k="ssr:stedsnr" v="299873" />
	</node>
	<node id="-541617" lat="62.0105444462" lon="5.33530832995">
		<tag k="name" v="Setraberget" />
		<tag k="natural" v="cape" />
		<tag k="ssr:stedsnr" v="299871" />
	</node>
	<node id="-541616" lat="62.0285222196" lon="5.33892221953">
		<tag k="name" v="Saltfluda" />
		<tag k="natural" v="shoal" />
		<tag k="place" v="locality" />
		<tag k="ssr:stedsnr" v="299870" />
	</node>
	<node id="-541615" lat="62.089983332" lon="5.01797778603">
		<tag k="name" v="Havbrigdeskallen" />
		<tag k="natural" v="shoal" />
		<tag k="place" v="locality" />
		<tag k="ssr:stedsnr" v="299751" />
	</node>
	<node id="-541614" lat="62.0990333356" lon="5.02638055184">
		<tag k="name" v="Sve" />
		<tag k="natural" v="shoal" />
		<tag k="place" v="locality" />
		<tag k="ssr:stedsnr" v="299749" />
	</node>
	<node id="-541613" lat="62.1784194479" lon="5.26310555621">
		<tag k="fixme" v="consider seamark:type=rock or natural=shoal" />
		<tag k="name" v="Røyrabogskjeret" />
		<tag k="place" v="islet" />
		<tag k="ssr:stedsnr" v="299357" />
	</node>
	<node id="-541612" lat="62.1980999956" lon="5.16937221547">
		<tag k="name" v="Bardsfluda" />
		<tag k="natural" v="shoal" />
		<tag k="place" v="locality" />
		<tag k="ssr:stedsnr" v="299258" />
	</node>
	<node id="-541606" lat="62.0802055572" lon="5.27477499608">
		<tag k="name" v="Liberholmen" />
		<tag k="place" v="islet" />
		<tag k="ssr:stedsnr" v="293837" />
	</node>
	<node id="-541605" lat="61.9826750028" lon="5.28233054708">
		<tag k="name" v="Skottneset" />
		<tag k="natural" v="cape" />
		<tag k="ssr:stedsnr" v="293804" />
	</node>
	<node id="-541595" lat="62.1731111087" lon="5.29432221425">
		<tag k="name" v="Kårholmsanden" />
		<tag k="natural" v="bay" />
		<tag k="ssr:stedsnr" v="293278" />
	</node>
	<node id="-541593" lat="62.1656666631" lon="5.2896888978">
		<tag k="name" v="Tofteneset" />
		<tag k="natural" v="cape" />
		<tag k="ssr:stedsnr" v="293263" />
	</node>
	<node id="-541592" lat="62.1050527778" lon="5.11449722702">
		<tag k="name" v="Dyrehola" />
		<tag k="natural" v="bay" />
		<tag k="ssr:stedsnr" v="293229" />
	</node>
	<node id="-541586" lat="62.0847166627" lon="5.39639722678">
		<tag k="name" v="Otneimhola" />
		<tag k="natural" v="bay" />
		<tag k="ssr:stedsnr" v="292973" />
	</node>
	<node id="-541581" lat="62.0339472203" lon="5.34380832534">
		<tag k="name" v="Saltasundet" />
		<tag k="natural" v="strait" />
		<tag k="ssr:stedsnr" v="292912" />
	</node>
	<node id="-541568" lat="62.1929138894" lon="5.20147776919">
		<tag k="name" v="Bjoaberget" />
		<tag k="natural" v="cape" />
		<tag k="ssr:stedsnr" v="292025" />
	</node>
	<node id="-541566" lat="62.1716638893" lon="5.11084166351">
		<tag k="name" v="Fyllsgjøtten" />
		<tag k="natural" v="bay" />
		<tag k="ssr:stedsnr" v="292010" />
	</node>
	<node id="-543043" lat="62.0509277739" lon="5.28816666766">
		<tag k="name" v="Kjeholmsundet" />
		<tag k="natural" v="strait" />
		<tag k="ssr:stedsnr" v="967560" />
	</node>
	<node id="-543042" lat="61.9585861076" lon="5.28246944484">
		<tag k="name" v="Furenesfluda" />
		<tag k="natural" v="shoal" />
		<tag k="place" v="locality" />
		<tag k="ssr:stedsnr" v="966890" />
	</node>
	<node id="-543040" lat="62.1150166661" lon="5.01948888344">
		<tag k="name" v="Libergrynna" />
		<tag k="natural" v="shoal" />
		<tag k="place" v="locality" />
		<tag k="ssr:stedsnr" v="966744" />
	</node>
	<node id="-543039" lat="62.1161805513" lon="5.03190555475">
		<tag k="name" v="Ytste Havfludene" />
		<tag k="natural" v="shoal" />
		<tag k="place" v="locality" />
		<tag k="ssr:stedsnr" v="966745" />
	</node>
	<node id="-543038" lat="62.1305861102" lon="5.09969444202">
		<tag k="name" v="Smågrynna" />
		<tag k="natural" v="shoal" />
		<tag k="place" v="locality" />
		<tag k="ssr:stedsnr" v="966711" />
	</node>
	<node id="-543036" lat="62.0272111073" lon="5.28717500959">
		<tag k="name" v="Naustfluda" />
		<tag k="natural" v="shoal" />
		<tag k="place" v="locality" />
		<tag k="ssr:stedsnr" v="966600" />
	</node>
	<node id="-543035" lat="62.1912638918" lon="5.15840833292">
		<tag k="name" v="Brokskiten" />
		<tag k="natural" v="shoal" />
		<tag k="place" v="locality" />
		<tag k="ssr:stedsnr" v="966238" />
	</node>
	<node id="-543033" lat="62.1683583316" lon="5.28503055262">
		<tag k="fixme" v="consider seamark:type=rock or natural=shoal" />
		<tag k="name" v="Storeskjeret" />
		<tag k="place" v="islet" />
		<tag k="ssr:stedsnr" v="965387" />
	</node>
	<node id="-543032" lat="62.1483277752" lon="5.31833611337">
		<tag k="name" v="Skrukken" />
		<tag k="natural" v="shoal" />
		<tag k="place" v="locality" />
		<tag k="ssr:stedsnr" v="965384" />
	</node>
	<node id="-543031" lat="62.1541138866" lon="5.32364443893">
		<tag k="name" v="Loveboden" />
		<tag k="natural" v="shoal" />
		<tag k="place" v="locality" />
		<tag k="ssr:stedsnr" v="965382" />
	</node>
	<node id="-543030" lat="62.0931604324" lon="5.38356649456">
		<tag k="name" v="Flødeneset" />
		<tag k="natural" v="cape" />
		<tag k="ssr:stedsnr" v="965362" />
	</node>
	<node id="-543029" lat="62.1959833336" lon="5.09775832904">
		<tag k="name" v="Nubbefluda" />
		<tag k="natural" v="shoal" />
		<tag k="place" v="locality" />
		<tag k="ssr:stedsnr" v="964738" />
	</node>
	<node id="-543028" lat="62.1814416626" lon="5.09367222464">
		<tag k="name" v="Hendabåen" />
		<tag k="natural" v="shoal" />
		<tag k="place" v="locality" />
		<tag k="ssr:stedsnr" v="964733" />
	</node>
	<node id="-543023" lat="61.9893972191" lon="5.24221389272">
		<tag k="name" v="Venøytangen" />
		<tag k="natural" v="cape" />
		<tag k="ssr:stedsnr" v="960752" />
	</node>
	<node id="-543019" lat="62.0445583372" lon="5.4801916748">
		<tag k="name" v="Litleholmen" />
		<tag k="place" v="islet" />
		<tag k="ssr:stedsnr" v="960567" />
	</node>
	<node id="-543015" lat="62.1997805538" lon="5.17591666491">
		<tag k="name" v="Skarvebarden" />
		<tag k="natural" v="cape" />
		<tag k="ssr:stedsnr" v="960524" />
	</node>
	<node id="-543005" lat="62.1286499964" lon="5.31250278143">
		<tag k="name" v="Stavsneset" />
		<tag k="natural" v="cape" />
		<tag k="ssr:stedsnr" v="960154" />
	</node>
	<node id="-543003" lat="62.1599861112" lon="5.2957333387">
		<tag k="name" v="Kjøkkenvika" />
		<tag k="natural" v="bay" />
		<tag k="ssr:stedsnr" v="960132" />
	</node>
	<node id="-543002" lat="62.1612388847" lon="5.28542499396">
		<tag k="name" v="Holmen" />
		<tag k="natural" v="cape" />
		<tag k="ssr:stedsnr" v="960128" />
	</node>
	<node id="-542997" lat="62.0797333378" lon="5.4241249995">
		<tag k="name" v="Klungreholmen" />
		<tag k="place" v="islet" />
		<tag k="ssr:stedsnr" v="959960" />
	</node>
	<node id="-542991" lat="62.0344916635" lon="5.39059999477">
		<tag k="fixme" v="consider seamark:type=rock or natural=shoal" />
		<tag k="name" v="Bergesskjeret" />
		<tag k="place" v="islet" />
		<tag k="ssr:stedsnr" v="959915" />
	</node>
	<node id="-542990" lat="62.0378416697" lon="5.33903054867">
		<tag k="name" v="Storevika" />
		<tag k="natural" v="bay" />
		<tag k="ssr:stedsnr" v="959913" />
	</node>
	<node id="-542985" lat="62.0211194403" lon="5.42496389513">
		<tag k="name" v="Naustvika" />
		<tag k="natural" v="bay" />
		<tag k="ssr:stedsnr" v="959878" />
	</node>
	<node id="-542982" lat="61.9615694442" lon="5.29772776919">
		<tag k="alt_name" v="Kvernaviknebba" />
		<tag k="name" v="Nobba" />
		<tag k="natural" v="cape" />
		<tag k="ssr:stedsnr" v="959754" />
	</node>
	<node id="-542981" lat="61.9668500012" lon="5.29232777762">
		<tag k="alt_name" v="Vedrhusneset" />
		<tag k="name" v="Vetrhusneset" />
		<tag k="natural" v="cape" />
		<tag k="ssr:stedsnr" v="959744" />
	</node>
	<node id="-542967" lat="62.1986361126" lon="5.17095833576">
		<tag k="alt_name" v="Langebarden" />
		<tag k="name" v="Bardane" />
		<tag k="place" v="islet" />
		<tag k="ssr:stedsnr" v="921760" />
	</node>
	<node id="-542963" lat="62.1682972178" lon="5.10338611137">
		<tag k="alt_name" v="Ervikbukta" />
		<tag k="name" v="Ervika" />
		<tag k="natural" v="bay" />
		<tag k="ssr:stedsnr" v="921748" />
	</node>
	<node id="-542962" lat="62.2034444474" lon="5.17086944126">
		<tag k="alt_name" v="Høgebarden" />
		<tag k="name" v="Storebarden" />
		<tag k="place" v="islet" />
		<tag k="ssr:stedsnr" v="921733" />
	</node>
	<node id="-542961" lat="62.1948583372" lon="5.14521388969">
		<tag k="name" v="Svinevika" />
		<tag k="natural" v="bay" />
		<tag k="ssr:stedsnr" v="921728" />
	</node>
	<node id="-542955" lat="62.0910972207" lon="5.08308333255">
		<tag k="name" v="Gnullane" />
		<tag k="natural" v="shoal" />
		<tag k="place" v="locality" />
		<tag k="ssr:stedsnr" v="921675" />
	</node>
	<node id="-542947" lat="62.049008337" lon="5.30262777174">
		<tag k="name" v="Selja" />
		<tag k="place" v="island" />
		<tag k="ssr:stedsnr" v="921402" />
	</node>
	<node id="-542945" lat="62.0497333313" lon="5.32746388233">
		<tag k="name" v="Ersholmen" />
		<tag k="place" v="islet" />
		<tag k="ssr:stedsnr" v="921399" />
	</node>
	<node id="-542944" lat="62.0581861116" lon="5.46924445347">
		<tag k="name" v="Langevågen" />
		<tag k="natural" v="bay" />
		<tag k="ssr:stedsnr" v="921364" />
	</node>
	<node id="-542942" lat="62.0197527771" lon="5.26296944085">
		<tag k="alt_name" v="Loksvika" />
		<tag k="name" v="Vågen" />
		<tag k="natural" v="bay" />
		<tag k="ssr:stedsnr" v="921311" />
	</node>
	<node id="-542941" lat="62.0340183513" lon="5.38236585538">
		<tag k="name" v="Bortneholmen" />
		<tag k="place" v="islet" />
		<tag k="ssr:stedsnr" v="921265" />
	</node>
	<node id="-542936" lat="62.0997333352" lon="5.11831389289">
		<tag k="name" v="Fureneset" />
		<tag k="natural" v="cape" />
		<tag k="ssr:stedsnr" v="921125" />
	</node>
	<node id="-542932" lat="61.9577749985" lon="5.28045000881">
		<tag k="name" v="Fureneset" />
		<tag k="natural" v="cape" />
		<tag k="ssr:stedsnr" v="920789" />
	</node>
	<node id="-542930" lat="61.9695972207" lon="5.27288056423">
		<tag k="name" v="Nordpollen" />
		<tag k="natural" v="bay" />
		<tag k="ssr:stedsnr" v="920772" />
	</node>
	<node id="-542929" lat="61.9898444429" lon="5.31945277899">
		<tag k="name" v="Røyrneset" />
		<tag k="natural" v="cape" />
		<tag k="ssr:stedsnr" v="920744" />
	</node>
	<node id="-542927" lat="62.0254423945" lon="5.41921350397">
		<tag k="name" v="Leirvika" />
		<tag k="natural" v="bay" />
		<tag k="ssr:stedsnr" v="907613" />
	</node>
	<node id="-542926" lat="62.0243083369" lon="5.34122778223">
		<tag k="name" v="Kammen" />
		<tag k="natural" v="cape" />
		<tag k="ssr:stedsnr" v="907568" />
	</node>
	<node id="-542925" lat="61.9717416693" lon="5.25991666044">
		<tag k="name" v="Skarveskjeret" />
		<tag k="place" v="islet" />
		<tag k="ssr:stedsnr" v="906895" />
	</node>
	<node id="-542924" lat="61.9626722246" lon="5.2667555521">
		<tag k="name" v="Håvikholmen" />
		<tag k="place" v="islet" />
		<tag k="ssr:stedsnr" v="906893" />
	</node>
	<node id="-542923" lat="62.0680833308" lon="5.32237500217">
		<tag k="name" v="Instefluda" />
		<tag k="natural" v="shoal" />
		<tag k="place" v="locality" />
		<tag k="ssr:stedsnr" v="906599" />
	</node>
	<node id="-542921" lat="62.0965888864" lon="5.15820556041">
		<tag k="name" v="Storegnausen" />
		<tag k="natural" v="shoal" />
		<tag k="place" v="locality" />
		<tag k="ssr:stedsnr" v="906276" />
	</node>
	<node id="-542920" lat="62.2007527817" lon="5.14188333095">
		<tag k="name" v="Nesfluda" />
		<tag k="natural" v="shoal" />
		<tag k="place" v="locality" />
		<tag k="ssr:stedsnr" v="906201" />
	</node>
	<node id="-542911" lat="62.0498000033" lon="5.47259443839">
		<tag k="name" v="Storevika" />
		<tag k="natural" v="bay" />
		<tag k="ssr:stedsnr" v="900594" />
	</node>
	<node id="-542910" lat="62.0621916643" lon="5.45596666934">
		<tag k="name" v="Storeholmen" />
		<tag k="place" v="island" />
		<tag k="ssr:stedsnr" v="900590" />
	</node>
	<node id="-542908" lat="62.0376388888" lon="5.49071667037">
		<tag k="fixme" v="consider seamark:type=rock or natural=shoal" />
		<tag k="name" v="Kobbeskjeret" />
		<tag k="place" v="islet" />
		<tag k="ssr:stedsnr" v="900576" />
	</node>
	<node id="-542907" lat="62.0457944423" lon="5.48793889111">
		<tag k="fixme" v="consider seamark:type=rock or natural=shoal" />
		<tag k="name" v="Skarvaskjeret" />
		<tag k="place" v="islet" />
		<tag k="ssr:stedsnr" v="900573" />
	</node>
	<node id="-542901" lat="62.168913893" lon="5.30614721615">
		<tag k="name" v="Kårholmvika" />
		<tag k="natural" v="bay" />
		<tag k="ssr:stedsnr" v="900258" />
	</node>
	<node id="-542893" lat="62.0468527744" lon="5.34656110677">
		<tag k="name" v="Romet" />
		<tag k="natural" v="bay" />
		<tag k="ssr:stedsnr" v="899965" />
	</node>
	<node id="-542887" lat="62.0912138863" lon="5.3885527855">
		<tag k="name" v="Djupvika" />
		<tag k="natural" v="bay" />
		<tag k="ssr:stedsnr" v="899791" />
	</node>
	<node id="-542885" lat="61.9560555544" lon="5.29379445017">
		<tag k="name" v="Pollaholmen" />
		<tag k="place" v="islet" />
		<tag k="ssr:stedsnr" v="899782" />
	</node>
	<node id="-542864" lat="62.1069416684" lon="5.11925278407">
		<tag k="name" v="Kaldeklova" />
		<tag k="natural" v="bay" />
		<tag k="ssr:stedsnr" v="860731" />
	</node>
	<node id="-542862" lat="62.0705277768" lon="5.16418332488">
		<tag k="name" v="Skallane" />
		<tag k="natural" v="shoal" />
		<tag k="place" v="locality" />
		<tag k="ssr:stedsnr" v="860707" />
	</node>
	<node id="-542861" lat="62.1900416653" lon="5.2859611111">
		<tag k="bay" v="fjord" />
		<tag k="name" v="Vanylvsgapet" />
		<tag k="natural" v="bay" />
		<tag k="ssr:stedsnr" v="860662" />
	</node>
	<node id="-542860" lat="62.1807861095" lon="5.24863888805">
		<tag k="name" v="Eltvikestranda" />
		<tag k="natural" v="beach" />
		<tag k="place" v="locality" />
		<tag k="ssr:stedsnr" v="860599" />
	</node>
	<node id="-542856" lat="62.1787861134" lon="5.31168333066">
		<tag k="name" v="Korholmsgrynna" />
		<tag k="natural" v="shoal" />
		<tag k="place" v="locality" />
		<tag k="ssr:stedsnr" v="860545" />
	</node>
	<node id="-542849" lat="62.0724833374" lon="5.42869166485">
		<tag k="name" v="Sandvika" />
		<tag k="natural" v="bay" />
		<tag k="ssr:stedsnr" v="860412" />
	</node>
	<node id="-542848" lat="62.0542166689" lon="5.28176945293">
		<tag k="alt_name" v="Seljeskjeret" />
		<tag k="name" v="Hesten" />
		<tag k="place" v="islet" />
		<tag k="ssr:stedsnr" v="860392" />
	</node>
	<node id="-542840" lat="62.0125999977" lon="5.28257221455">
		<tag k="fixme" v="multiple name tags, choose one and add the other to alt_name" />
		<tag k="name" v="Barmøya;Barmen" />
		<tag k="place" v="island" />
		<tag k="ssr:stedsnr" v="859846" />
	</node>
	<node id="-542839" lat="61.9548194474" lon="5.28376945092">
		<tag k="name" v="Løgneset" />
		<tag k="natural" v="cape" />
		<tag k="ssr:stedsnr" v="845904" />
	</node>
	<node id="-542835" lat="62.1021027806" lon="5.20499444133">
		<tag k="name" v="Geitnesvika" />
		<tag k="natural" v="bay" />
		<tag k="ssr:stedsnr" v="839829" />
	</node>
	<node id="-542831" lat="61.9773111103" lon="5.23303333221">
		<tag k="name" v="Keila" />
		<tag k="natural" v="bay" />
		<tag k="ssr:stedsnr" v="839793" />
	</node>
	<node id="-542830" lat="61.9853888928" lon="5.30107778542">
		<tag k="name" v="Haggarsvika" />
		<tag k="natural" v="bay" />
		<tag k="ssr:stedsnr" v="839789" />
	</node>
	<node id="-542828" lat="61.9869194406" lon="5.25466111652">
		<tag k="name" v="Kåsavika" />
		<tag k="natural" v="bay" />
		<tag k="ssr:stedsnr" v="839774" />
	</node>
	<node id="-542826" lat="61.9785416707" lon="5.31287776963">
		<tag k="name" v="Holmen" />
		<tag k="place" v="islet" />
		<tag k="ssr:stedsnr" v="839755" />
	</node>
	<node id="-542825" lat="61.9829277736" lon="5.24498611814">
		<tag k="fixme" v="consider seamark:type=rock or natural=shoal" />
		<tag k="name" v="Guleskjer" />
		<tag k="place" v="islet" />
		<tag k="ssr:stedsnr" v="839749" />
	</node>
	<node id="-542824" lat="62.1895861097" lon="5.15308056381">
		<tag k="name" v="Molvika" />
		<tag k="natural" v="bay" />
		<tag k="ssr:stedsnr" v="839747" />
	</node>
	<node id="-542823" lat="62.1938472264" lon="5.16980277325">
		<tag k="name" v="Storegjøtten" />
		<tag k="natural" v="bay" />
		<tag k="ssr:stedsnr" v="839741" />
	</node>
	<node id="-542822" lat="62.0597416658" lon="5.46306389483">
		<tag k="name" v="Midneset" />
		<tag k="natural" v="cape" />
		<tag k="ssr:stedsnr" v="839601" />
	</node>
	<node id="-542821" lat="62.0599111078" lon="5.4493166662">
		<tag k="name" v="Timbrevika" />
		<tag k="natural" v="bay" />
		<tag k="ssr:stedsnr" v="839599" />
	</node>
	<node id="-542811" lat="62.1085166623" lon="5.10923055467">
		<tag k="name" v="Stavsvika" />
		<tag k="natural" v="bay" />
		<tag k="ssr:stedsnr" v="839181" />
	</node>
	<node id="-542805" lat="62.0716499974" lon="5.43353054875">
		<tag k="name" v="Sandholmen" />
		<tag k="place" v="islet" />
		<tag k="ssr:stedsnr" v="838991" />
	</node>
	<node id="-542802" lat="61.9854000032" lon="5.31915277409">
		<tag k="alt_name" v="Kjerringvika" />
		<tag k="name" v="Kjerringevika" />
		<tag k="natural" v="bay" />
		<tag k="ssr:stedsnr" v="838911" />
	</node>
	<node id="-542797" lat="62.1555222181" lon="5.10604443553">
		<tag k="name" v="Tårnet" />
		<tag k="place" v="island" />
		<tag k="ssr:stedsnr" v="838060" />
	</node>
	<node id="-542792" lat="62.192241663" lon="5.20010556188">
		<tag k="name" v="Holeneset" />
		<tag k="natural" v="cape" />
		<tag k="ssr:stedsnr" v="838029" />
	</node>
	<node id="-542787" lat="62.1869722262" lon="5.05543055953">
		<tag k="fixme" v="consider seamark:type=rock or natural=shoal" />
		<tag k="name" v="Bukketjuvane" />
		<tag k="place" v="islet" />
		<tag k="ssr:stedsnr" v="800714" />
	</node>
	<node id="-542781" lat="62.1456166622" lon="5.06296943866">
		<tag k="name" v="Ytstebåane" />
		<tag k="natural" v="shoal" />
		<tag k="place" v="locality" />
		<tag k="ssr:stedsnr" v="800673" />
	</node>
	<node id="-542776" lat="62.0791416659" lon="5.25666111399">
		<tag k="fixme" v="consider seamark:type=rock or natural=shoal" />
		<tag k="name" v="Libberfludene" />
		<tag k="place" v="islet" />
		<tag k="ssr:stedsnr" v="800402" />
	</node>
	<node id="-542773" lat="62.0835633849" lon="5.3994854575">
		<tag k="name" v="Rekvikneset" />
		<tag k="natural" v="cape" />
		<tag k="ssr:stedsnr" v="800319" />
	</node>
	<node id="-542772" lat="62.0538588364" lon="5.29144364048">
		<tag k="name" v="Klosterholmen" />
		<tag k="place" v="islet" />
		<tag k="ssr:stedsnr" v="800312" />
	</node>
	<node id="-542770" lat="62.0145999992" lon="5.25392500886">
		<tag k="name" v="Rabbetåa" />
		<tag k="natural" v="cape" />
		<tag k="ssr:stedsnr" v="800286" />
	</node>
	<node id="-542766" lat="62.041488893" lon="5.48222499626">
		<tag k="name" v="Kvamsvika" />
		<tag k="natural" v="bay" />
		<tag k="ssr:stedsnr" v="799288" />
	</node>
	<node id="-542763" lat="62.0525972223" lon="5.31860000423">
		<tag k="name" v="Skitnevika" />
		<tag k="natural" v="bay" />
		<tag k="ssr:stedsnr" v="785569" />
	</node>
	<node id="-542762" lat="62.0672361114" lon="5.32770555271">
		<tag k="name" v="Kvitaberget" />
		<tag k="natural" v="cape" />
		<tag k="ssr:stedsnr" v="785551" />
	</node>
	<node id="-542761" lat="62.026455556" lon="5.37660833061">
		<tag k="fixme" v="consider seamark:type=rock or natural=shoal" />
		<tag k="name" v="Galten" />
		<tag k="place" v="islet" />
		<tag k="ssr:stedsnr" v="784884" />
	</node>
	<node id="-542760" lat="61.9823722178" lon="5.31349722356">
		<tag k="name" v="Flistrapollen" />
		<tag k="natural" v="bay" />
		<tag k="ssr:stedsnr" v="784882" />
	</node>
	<node id="-542759" lat="62.1169250005" lon="5.35143054636">
		<tag k="fixme" v="consider seamark:type=rock or natural=shoal" />
		<tag k="name" v="Flea" />
		<tag k="place" v="islet" />
		<tag k="ssr:stedsnr" v="783315" />
	</node>
	<node id="-542757" lat="62.1929527805" lon="5.10344165915">
		<tag k="name" v="Kjerringa" />
		<tag k="natural" v="cape" />
		<tag k="ssr:stedsnr" v="782722" />
	</node>
	<node id="-542756" lat="62.214155558" lon="5.2017583274">
		<tag k="name" v="Revtøsa" />
		<tag k="natural" v="shoal" />
		<tag k="place" v="locality" />
		<tag k="ssr:stedsnr" v="782543" />
	</node>
	<node id="-542755" lat="62.2176250044" lon="5.17759999617">
		<tag k="name" v="Dårene" />
		<tag k="natural" v="shoal" />
		<tag k="place" v="locality" />
		<tag k="ssr:stedsnr" v="782538" />
	</node>
	<node id="-542750" lat="62.0548000003" lon="5.30186945224">
		<tag k="name" v="Helmavika" />
		<tag k="natural" v="bay" />
		<tag k="ssr:stedsnr" v="778832" />
	</node>
	<node id="-542746" lat="61.9771694421" lon="5.21603055846">
		<tag k="name" v="Flatraksvika" />
		<tag k="natural" v="bay" />
		<tag k="ssr:stedsnr" v="778793" />
	</node>
	<node id="-542745" lat="61.979230557" lon="5.23792499157">
		<tag k="name" v="Storevikneset" />
		<tag k="natural" v="cape" />
		<tag k="ssr:stedsnr" v="778791" />
	</node>
	<node id="-542742" lat="62.193566664" lon="5.16608889163">
		<tag k="name" v="Hestegjøtten" />
		<tag k="natural" v="bay" />
		<tag k="ssr:stedsnr" v="778725" />
	</node>
	<node id="-542735" lat="62.1011277814" lon="5.14542222179">
		<tag k="name" v="Køyla" />
		<tag k="natural" v="cape" />
		<tag k="ssr:stedsnr" v="778236" />
	</node>
	<node id="-542733" lat="62.1011777813" lon="5.12954443897">
		<tag k="name" v="Furegjøtten" />
		<tag k="natural" v="bay" />
		<tag k="ssr:stedsnr" v="778231" />
	</node>
	<node id="-542731" lat="62.1747416664" lon="5.27019444976">
		<tag k="name" v="Storebogen" />
		<tag k="natural" v="bay" />
		<tag k="ssr:stedsnr" v="778218" />
	</node>
	<node id="-542728" lat="62.1092999964" lon="5.11574721993">
		<tag k="name" v="Kviteneset" />
		<tag k="natural" v="cape" />
		<tag k="ssr:stedsnr" v="778190" />
	</node>
	<node id="-542724" lat="62.1034888912" lon="5.22614167063">
		<tag k="name" v="Stighola" />
		<tag k="natural" v="bay" />
		<tag k="ssr:stedsnr" v="778151" />
	</node>
</osm>
