<?xml version="1.0" encoding="UTF-8"?>
<osm version="0.6" generator="osmapis">
	<node lat="60.715758337248715" lon="11.1906944522725" id="-20483">
		<tag k="name" v="Stange kommune" />
		<tag k="ssr:date" v="2019-12-27" />
		<tag k="ssr:gruppe" v="administrativeIndelinger" />
		<tag k="ssr:hovedgruppe" v="offentligAdministrasjon" />
		<tag k="ssr:stedsnr" v="267043" />
		<tag k="ssr:type" v="kommune" />
	</node>
	<node lat="60.78578740099005" lon="11.116253494598293" id="-22644">
		<tag k="name" v="Ã˜verhagan" />
		<tag k="ssr:date" v="2019-12-27" />
		<tag k="ssr:gruppe" v="veg" />
		<tag k="ssr:hovedgruppe" v="infrastruktur" />
		<tag k="ssr:stedsnr" v="1002635" />
		<tag k="ssr:type" v="adressenavn" />
	</node>
	<node lat="60.497070884611965" lon="11.256190744562945" id="-22645">
		<tag k="name" v="Budalslia" />
		<tag k="ssr:date" v="2019-12-27" />
		<tag k="ssr:gruppe" v="veg" />
		<tag k="ssr:hovedgruppe" v="infrastruktur" />
		<tag k="ssr:stedsnr" v="1003257" />
		<tag k="ssr:type" v="adressenavn" />
	</node>
	<node lat="60.627592365554065" lon="11.477799604160166" id="-22646">
		<tag k="name" v="Storhaugvegen" />
		<tag k="ssr:date" v="2019-12-27" />
		<tag k="ssr:gruppe" v="veg" />
		<tag k="ssr:hovedgruppe" v="infrastruktur" />
		<tag k="ssr:stedsnr" v="1003266" />
		<tag k="ssr:type" v="adressenavn" />
	</node>
	<node lat="60.71279653937952" lon="11.20791418724075" id="-22648">
		<tag k="name" v="Falck-Ytters veg" />
		<tag k="ssr:date" v="2019-12-27" />
		<tag k="ssr:gruppe" v="veg" />
		<tag k="ssr:hovedgruppe" v="infrastruktur" />
		<tag k="ssr:stedsnr" v="1073337" />
		<tag k="ssr:type" v="adressenavn" />
	</node>
	<node lat="60.795248707246294" lon="11.082591224285064" id="-22649">
		<tag k="name" v="Innlandet fylke" />
		<tag k="ssr:date" v="2021-06-08" />
		<tag k="ssr:gruppe" v="administrativeIndelinger" />
		<tag k="ssr:hovedgruppe" v="offentligAdministrasjon" />
		<tag k="ssr:stedsnr" v="1074406" />
		<tag k="ssr:type" v="fylke" />
	</node>
</osm>
