<?xml version="1.0" encoding="UTF-8"?>
<osm version="0.6" generator="osmapis">
	<node id="281221704" lat="71.0389923" lon="27.8517589" version="9" timestamp="2022-07-10T17:07:45Z" changeset="123440456" uid="3497659" user="NKA">
		<tag k="name" v="Mehamn" />
		<tag k="name:no" v="Mehamn" />
		<tag k="place" v="village" />
		<tag k="population" v="726" />
		<tag k="population:date" v="2021-01-01" />
		<tag k="ref:ssb_tettsted" v="8641" />
		<tag k="source:population" v="SSB - befolkning i tettstedet" />
		<tag k="ssr:stedsnr" v="323433" />
	</node>
	<node id="1865313939" lat="71.0621547" lon="28.2457933" version="8" timestamp="2022-07-10T17:07:45Z" changeset="123440456" uid="3497659" user="NKA">
		<tag k="name" v="Gamvik" />
		<tag k="name:ru" v="Гамвик" />
		<tag k="name:se" v="Gáŋgaviika" />
		<tag k="place" v="village" />
		<tag k="population" v="230" />
		<tag k="population:date" v="2021-01-01" />
		<tag k="ref:ssb_tettsted" v="8642" />
		<tag k="source:population" v="SSB - befolkning i tettstedet" />
		<tag k="ssr:stedsnr" v="323409" />
	</node>
	<node id="2349824636" lat="71.056378" lon="28.063022" version="2" timestamp="2018-05-02T17:03:46Z" changeset="58620907" uid="3497659" user="NKA">
		<tag k="name" v="Hamna" />
		<tag k="name:nb" v="Hamna" />
		<tag k="natural" v="bay" />
		<tag k="source" v="Kartverket" />
		<tag k="ssr:stedsnr" v="869460" />
	</node>
	<node id="2349839522" lat="71.0462215" lon="28.1162021" version="4" timestamp="2022-03-27T21:19:17Z" changeset="118996664" uid="32112" user="SverigeFan">
		<tag k="ele" v="251" />
		<tag k="name" v="Trollhetta" />
		<tag k="name:nb" v="Trollhetta" />
		<tag k="natural" v="peak" />
		<tag k="source" v="Kartverket" />
		<tag k="ssr:stedsnr" v="748439" />
	</node>
	<node id="2353330617" lat="70.797794" lon="28.128306" version="2" timestamp="2018-05-02T17:03:49Z" changeset="58620907" uid="3497659" user="NKA">
		<tag k="name" v="Berget" />
		<tag k="name:no" v="Berget" />
		<tag k="natural" v="peak" />
		<tag k="source" v="Kartverket" />
		<tag k="ssr:stedsnr" v="570661" />
	</node>
	<node id="2354296544" lat="71.128108" lon="27.660217" version="2" timestamp="2018-05-02T17:03:52Z" changeset="58620907" uid="3497659" user="NKA">
		<tag k="name" v="Kinnaroddvika" />
		<tag k="name:no" v="Kinnaroddvika" />
		<tag k="natural" v="bay" />
		<tag k="source" v="Kartverket" />
		<tag k="ssr:stedsnr" v="445511" />
	</node>
	<node id="2354298853" lat="71.120478" lon="27.6821" version="2" timestamp="2018-05-02T17:03:52Z" changeset="58620907" uid="3497659" user="NKA">
		<tag k="name" v="Skinnstakkvika" />
		<tag k="name:no" v="Skinnstakkvika" />
		<tag k="natural" v="bay" />
		<tag k="source" v="Kartverket" />
		<tag k="ssr:stedsnr" v="81510" />
	</node>
	<node id="2354300443" lat="71.113467" lon="27.711128" version="2" timestamp="2018-05-02T17:03:53Z" changeset="58620907" uid="3497659" user="NKA">
		<tag k="name" v="Mola" />
		<tag k="name:no" v="Mola" />
		<tag k="natural" v="beach" />
		<tag k="source" v="Kartverket" />
		<tag k="ssr:stedsnr" v="809472" />
	</node>
	<node id="2354300485" lat="71.11125" lon="27.734172" version="2" timestamp="2018-05-02T17:03:53Z" changeset="58620907" uid="3497659" user="NKA">
		<tag k="name" v="Magkeilhetta" />
		<tag k="name:no" v="Magkeilhetta" />
		<tag k="natural" v="peak" />
		<tag k="source" v="Kartverket" />
		<tag k="ssr:stedsnr" v="20440" />
	</node>
	<node id="2354300486" lat="71.110672" lon="27.749531" version="2" timestamp="2018-05-02T17:03:53Z" changeset="58620907" uid="3497659" user="NKA">
		<tag k="name" v="Magkeilspira" />
		<tag k="name:no" v="Magkeilspira" />
		<tag k="natural" v="cape" />
		<tag k="source" v="Kartverket" />
		<tag k="ssr:stedsnr" v="870461" />
	</node>
	<node id="2354300487" lat="71.114189" lon="27.736475" version="2" timestamp="2018-05-02T17:03:53Z" changeset="58620907" uid="3497659" user="NKA">
		<tag k="name" v="Magneset" />
		<tag k="name:no" v="Magneset" />
		<tag k="natural" v="cape" />
		<tag k="source" v="Kartverket" />
		<tag k="ssr:stedsnr" v="445469" />
	</node>
	<node id="2354300500" lat="71.11" lon="27.751461" version="2" timestamp="2018-05-02T17:03:53Z" changeset="58620907" uid="3497659" user="NKA">
		<tag k="name" v="Magkeila" />
		<tag k="name:no" v="Magkeila" />
		<tag k="natural" v="bay" />
		<tag k="source" v="Kartverket" />
		<tag k="ssr:stedsnr" v="748454" />
	</node>
	<node id="2354300501" lat="71.106203" lon="27.740589" version="2" timestamp="2018-05-02T17:03:53Z" changeset="58620907" uid="3497659" user="NKA">
		<tag k="name" v="Magkeilvika" />
		<tag k="name:no" v="Magkeilvika" />
		<tag k="natural" v="bay" />
		<tag k="source" v="Kartverket" />
		<tag k="ssr:stedsnr" v="505456" />
	</node>
	<node id="2354300608" lat="71.100775" lon="27.740036" version="2" timestamp="2018-05-02T17:03:53Z" changeset="58620907" uid="3497659" user="NKA">
		<tag k="name" v="Elvekeila" />
		<tag k="name:no" v="Elvekeila" />
		<tag k="natural" v="bay" />
		<tag k="source" v="Kartverket" />
		<tag k="ssr:stedsnr" v="323466" />
	</node>
	<node id="2354300796" lat="71.092036" lon="28.160986" version="2" timestamp="2018-05-02T17:03:53Z" changeset="58620907" uid="3497659" user="NKA">
		<tag k="name" v="Bjørkevikneset" />
		<tag k="name:no" v="Bjørkevikneset" />
		<tag k="natural" v="cape" />
		<tag k="source" v="Kartverket" />
		<tag k="ssr:stedsnr" v="808414" />
	</node>
	<node id="2354300797" lat="71.092711" lon="28.173278" version="2" timestamp="2018-05-02T17:03:54Z" changeset="58620907" uid="3497659" user="NKA">
		<tag k="alt_name" v="Hollendervika" />
		<tag k="name" v="Hollendarvika" />
		<tag k="name:no" v="Hollendarvika" />
		<tag k="natural" v="bay" />
		<tag k="source" v="Kartverket" />
		<tag k="ssr:stedsnr" v="869483" />
	</node>
	<node id="2354300802" lat="71.0942044" lon="28.1797736" version="3" timestamp="2018-05-02T17:03:54Z" changeset="58620907" uid="3497659" user="NKA">
		<tag k="alt_name" v="Daumannsvika" />
		<tag k="name" v="Daudingsvika" />
		<tag k="name:no" v="Daudingsvika" />
		<tag k="natural" v="bay" />
		<tag k="source" v="Kartverket" />
		<tag k="ssr:stedsnr" v="869484" />
	</node>
	<node id="2354496143" lat="71.091958" lon="28.199897" version="2" timestamp="2018-05-02T17:03:54Z" changeset="58620907" uid="3497659" user="NKA">
		<tag k="name" v="Stabbebukta" />
		<tag k="name:no" v="Stabbebukta" />
		<tag k="natural" v="bay" />
		<tag k="source" v="Kartverket" />
		<tag k="ssr:stedsnr" v="323449" />
	</node>
	<node id="2354602787" lat="71.086275" lon="27.719919" version="2" timestamp="2018-05-02T17:03:55Z" changeset="58620907" uid="3497659" user="NKA">
		<tag k="name" v="Trebårvika" />
		<tag k="name:no" v="Trebårvika" />
		<tag k="natural" v="bay" />
		<tag k="source" v="Kartverket" />
		<tag k="ssr:stedsnr" v="140443" />
	</node>
	<node id="2354604045" lat="71.08225" lon="27.973092" version="2" timestamp="2018-05-02T17:03:55Z" changeset="58620907" uid="3497659" user="NKA">
		<tag k="alt_name" v="Rábutnjárga" />
		<tag k="name" v="Kamøynæringen" />
		<tag k="name:no" v="Kamøynæringen" />
		<tag k="natural" v="cape" />
		<tag k="source" v="Kartverket" />
		<tag k="ssr:stedsnr" v="323450" />
	</node>
	<node id="2354604683" lat="71.084172" lon="28.042806" version="2" timestamp="2018-05-02T17:03:55Z" changeset="58620907" uid="3497659" user="NKA">
		<tag k="name" v="Bispevika" />
		<tag k="name:no" v="Bispevika" />
		<tag k="natural" v="bay" />
		<tag k="source" v="Kartverket" />
		<tag k="ssr:stedsnr" v="505473" />
	</node>
	<node id="2354605981" lat="71.085689" lon="28.044481" version="2" timestamp="2018-05-02T17:03:55Z" changeset="58620907" uid="3497659" user="NKA">
		<tag k="name" v="Skarvestauren" />
		<tag k="name:no" v="Skarvestauren" />
		<tag k="natural" v="cape" />
		<tag k="source" v="Kartverket" />
		<tag k="ssr:stedsnr" v="808435" />
	</node>
	<node id="2354606586" lat="71.086889" lon="28.053611" version="2" timestamp="2018-05-02T17:03:55Z" changeset="58620907" uid="3497659" user="NKA">
		<tag k="name" v="Bispen" />
		<tag k="name:no" v="Bispen" />
		<tag k="natural" v="peak" />
		<tag k="source" v="Kartverket" />
		<tag k="ssr:stedsnr" v="140453" />
	</node>
	<node id="2354611723" lat="71.082808" lon="28.133881" version="2" timestamp="2018-05-02T17:03:56Z" changeset="58620907" uid="3497659" user="NKA">
		<tag k="name" v="Veslevikneset" />
		<tag k="name:no" v="Veslevikneset" />
		<tag k="natural" v="cape" />
		<tag k="source" v="Kartverket" />
		<tag k="ssr:stedsnr" v="80458" />
	</node>
	<node id="2354611912" lat="71.080686" lon="28.137486" version="2" timestamp="2018-05-02T17:03:56Z" changeset="58620907" uid="3497659" user="NKA">
		<tag k="name" v="Veslevikhaugen" />
		<tag k="name:no" v="Veslevikhaugen" />
		<tag k="natural" v="peak" />
		<tag k="source" v="Kartverket" />
		<tag k="ssr:stedsnr" v="626498" />
	</node>
	<node id="2354619492" lat="71.083533" lon="28.246061" version="2" timestamp="2018-05-02T17:03:56Z" changeset="58620907" uid="3497659" user="NKA">
		<tag k="alt_name" v="Korset" />
		<tag k="name" v="Korsmerket" />
		<tag k="name:no" v="Korsmerket" />
		<tag k="natural" v="cape" />
		<tag k="source" v="Kartverket" />
		<tag k="ssr:stedsnr" v="141474" />
	</node>
	<node id="2354619790" lat="71.081336" lon="28.243414" version="2" timestamp="2018-05-02T17:03:56Z" changeset="58620907" uid="3497659" user="NKA">
		<tag k="name" v="Djupkeila" />
		<tag k="name:no" v="Djupkeila" />
		<tag k="natural" v="bay" />
		<tag k="source" v="Kartverket" />
		<tag k="ssr:stedsnr" v="444453" />
	</node>
	<node id="2354622646" lat="71.077264" lon="27.745589" version="3" timestamp="2018-05-02T17:03:56Z" changeset="58620907" uid="3497659" user="NKA">
		<tag k="alt_name" v="Magkeilfjorden" />
		<tag k="bay" v="fjord" />
		<tag k="name" v="Máhkilvuotna" />
		<tag k="name:se" v="Máhkilvuotna" />
		<tag k="natural" v="bay" />
		<tag k="source" v="Kartverket" />
		<tag k="ssr:stedsnr" v="626503" />
	</node>
	<node id="2354631162" lat="71.076172" lon="28.018286" version="2" timestamp="2018-05-02T17:03:56Z" changeset="58620907" uid="3497659" user="NKA">
		<tag k="name" v="Kvitnakken" />
		<tag k="name:no" v="Kvitnakken" />
		<tag k="natural" v="cape" />
		<tag k="source" v="Kartverket" />
		<tag k="ssr:stedsnr" v="262471" />
	</node>
	<node id="2354635114" lat="71.078447" lon="28.037597" version="2" timestamp="2018-05-02T17:03:56Z" changeset="58620907" uid="3497659" user="NKA">
		<tag k="name" v="Bispen" />
		<tag k="name:no" v="Bispen" />
		<tag k="natural" v="peak" />
		<tag k="source" v="Kartverket" />
		<tag k="ssr:stedsnr" v="626492" />
	</node>
	<node id="2354636129" lat="71.0793604" lon="28.1311207" version="3" timestamp="2018-05-02T17:03:57Z" changeset="58620907" uid="3497659" user="NKA">
		<tag k="name" v="Veslevika" />
		<tag k="name:no" v="Veslevika" />
		<tag k="natural" v="bay" />
		<tag k="source" v="Kartverket" />
		<tag k="ssr:stedsnr" v="20446" />
	</node>
	<node id="2354651442" lat="71.077211" lon="28.249978" version="2" timestamp="2018-05-02T17:03:57Z" changeset="58620907" uid="3497659" user="NKA">
		<tag k="name" v="Sandvikodden" />
		<tag k="name:no" v="Sandvikodden" />
		<tag k="natural" v="cape" />
		<tag k="source" v="Kartverket" />
		<tag k="ssr:stedsnr" v="202464" />
	</node>
	<node id="2354657106" lat="71.072139" lon="27.802186" version="2" timestamp="2018-05-02T17:03:57Z" changeset="58620907" uid="3497659" user="NKA">
		<tag k="name" v="Smørbringnæringen" />
		<tag k="name:no" v="Smørbringnæringen" />
		<tag k="natural" v="cape" />
		<tag k="source" v="Kartverket" />
		<tag k="ssr:stedsnr" v="20448" />
	</node>
	<node id="2354657377" lat="71.070753" lon="27.796136" version="2" timestamp="2018-05-02T17:03:57Z" changeset="58620907" uid="3497659" user="NKA">
		<tag k="name" v="Smørbringen" />
		<tag k="name:no" v="Smørbringen" />
		<tag k="natural" v="cape" />
		<tag k="source" v="Kartverket" />
		<tag k="ssr:stedsnr" v="505470" />
	</node>
	<node id="2354660009" lat="71.062411" lon="27.873172" version="3" timestamp="2018-05-02T17:03:57Z" changeset="58620907" uid="3497659" user="NKA">
		<tag k="alt_name" v="Mehamnfjorden" />
		<tag k="bay" v="fjord" />
		<tag k="name" v="Donjevuotna" />
		<tag k="name:se" v="Donjevuotna" />
		<tag k="natural" v="bay" />
		<tag k="source" v="Kartverket" />
		<tag k="ssr:stedsnr" v="930479" />
	</node>
	<node id="2354662691" lat="71.070181" lon="27.981797" version="3" timestamp="2018-05-02T17:03:57Z" changeset="58620907" uid="3497659" user="NKA">
		<tag k="bay" v="fjord" />
		<tag k="name" v="Skittenfjorden" />
		<tag k="name:no" v="Skittenfjorden" />
		<tag k="natural" v="bay" />
		<tag k="source" v="Kartverket" />
		<tag k="ssr:stedsnr" v="323472" />
	</node>
	<node id="2354662910" lat="71.066497" lon="28.00895" version="2" timestamp="2018-05-02T17:03:57Z" changeset="58620907" uid="3497659" user="NKA">
		<tag k="name" v="Futelvnakken" />
		<tag k="name:no" v="Futelvnakken" />
		<tag k="natural" v="cape" />
		<tag k="source" v="Kartverket" />
		<tag k="ssr:stedsnr" v="80423" />
	</node>
	<node id="2354663522" lat="71.070372" lon="28.061089" version="2" timestamp="2018-05-02T17:03:57Z" changeset="58620907" uid="3497659" user="NKA">
		<tag k="name" v="Stabbevika" />
		<tag k="name:no" v="Stabbevika" />
		<tag k="natural" v="bay" />
		<tag k="source" v="Kartverket" />
		<tag k="ssr:stedsnr" v="687417" />
	</node>
	<node id="2354663645" lat="71.0696961" lon="28.1288142" version="4" timestamp="2022-03-27T21:19:17Z" changeset="118996664" uid="32112" user="SverigeFan">
		<tag k="ele" v="220" />
		<tag k="name" v="Steinvågaksla" />
		<tag k="name:no" v="Steinvågaksla" />
		<tag k="natural" v="peak" />
		<tag k="source" v="Kartverket" />
		<tag k="ssr:stedsnr" v="505432" />
	</node>
	<node id="2354669792" lat="71.065369" lon="28.261928" version="2" timestamp="2018-05-02T17:03:58Z" changeset="58620907" uid="3497659" user="NKA">
		<tag k="name" v="Flintodden" />
		<tag k="name:no" v="Flintodden" />
		<tag k="natural" v="cape" />
		<tag k="source" v="Kartverket" />
		<tag k="ssr:stedsnr" v="445443" />
	</node>
	<node id="2354676045" lat="71.060228" lon="27.689661" version="2" timestamp="2018-05-02T17:03:58Z" changeset="58620907" uid="3497659" user="NKA">
		<tag k="name" v="Vesterbotnen" />
		<tag k="name:no" v="Vesterbotnen" />
		<tag k="natural" v="bay" />
		<tag k="source" v="Kartverket" />
		<tag k="ssr:stedsnr" v="505427" />
	</node>
	<node id="2354676212" lat="71.063728" lon="27.716522" version="2" timestamp="2018-05-02T17:03:58Z" changeset="58620907" uid="3497659" user="NKA">
		<tag k="name" v="Sydvestneset" />
		<tag k="name:no" v="Sydvestneset" />
		<tag k="natural" v="cape" />
		<tag k="source" v="Kartverket" />
		<tag k="ssr:stedsnr" v="748420" />
	</node>
	<node id="2354676215" lat="71.059442" lon="27.809139" version="2" timestamp="2018-05-02T17:03:58Z" changeset="58620907" uid="3497659" user="NKA">
		<tag k="name" v="Seineset" />
		<tag k="name:no" v="Seineset" />
		<tag k="natural" v="cape" />
		<tag k="source" v="Kartverket" />
		<tag k="ssr:stedsnr" v="202420" />
	</node>
	<node id="2354677167" lat="71.0593" lon="28.000225" version="2" timestamp="2018-05-02T17:03:58Z" changeset="58620907" uid="3497659" user="NKA">
		<tag k="name" v="Futelvtuva" />
		<tag k="name:no" v="Futelvtuva" />
		<tag k="natural" v="peak" />
		<tag k="source" v="Kartverket" />
		<tag k="ssr:stedsnr" v="930431" />
	</node>
	<node id="2354678543" lat="71.057567" lon="28.066275" version="2" timestamp="2018-05-02T17:03:58Z" changeset="58620907" uid="3497659" user="NKA">
		<tag k="name" v="Hamnneset" />
		<tag k="name:no" v="Hamnneset" />
		<tag k="natural" v="cape" />
		<tag k="source" v="Kartverket" />
		<tag k="ssr:stedsnr" v="930429" />
	</node>
	<node id="2354678658" lat="71.0616233" lon="28.1021268" version="3" timestamp="2018-05-02T17:03:58Z" changeset="58620907" uid="3497659" user="NKA">
		<tag k="name" v="Kvitsteinvika" />
		<tag k="name:no" v="Kvitsteinvika" />
		<tag k="natural" v="bay" />
		<tag k="source" v="Kartverket" />
		<tag k="ssr:stedsnr" v="930427" />
	</node>
	<node id="2354680356" lat="71.067789" lon="28.110497" version="2" timestamp="2018-05-02T17:03:58Z" changeset="58620907" uid="3497659" user="NKA">
		<tag k="name" v="Tarevika" />
		<tag k="name:no" v="Tarevika" />
		<tag k="natural" v="bay" />
		<tag k="source" v="Kartverket" />
		<tag k="ssr:stedsnr" v="505422" />
	</node>
	<node id="2354681376" lat="71.054492" lon="28.106406" version="2" timestamp="2018-05-02T17:03:58Z" changeset="58620907" uid="3497659" user="NKA">
		<tag k="name" v="Tarevikaksla" />
		<tag k="name:no" v="Tarevikaksla" />
		<tag k="natural" v="peak" />
		<tag k="source" v="Kartverket" />
		<tag k="ssr:stedsnr" v="565392" />
	</node>
	<node id="2354682520" lat="71.0562" lon="28.171989" version="2" timestamp="2018-05-02T17:03:58Z" changeset="58620907" uid="3497659" user="NKA">
		<tag k="name" v="Grytvasshøgda" />
		<tag k="name:no" v="Grytvasshøgda" />
		<tag k="natural" v="peak" />
		<tag k="source" v="Kartverket" />
		<tag k="ssr:stedsnr" v="748402" />
	</node>
	<node id="2354687465" lat="71.057475" lon="28.249686" version="2" timestamp="2018-05-02T17:03:59Z" changeset="58620907" uid="3497659" user="NKA">
		<tag k="name" v="Koven" />
		<tag k="name:no" v="Koven" />
		<tag k="natural" v="bay" />
		<tag k="source" v="Kartverket" />
		<tag k="ssr:stedsnr" v="202409" />
	</node>
	<node id="2354700611" lat="71.049303" lon="27.72475" version="2" timestamp="2018-05-02T17:03:59Z" changeset="58620907" uid="3497659" user="NKA">
		<tag k="name" v="Kobbvågen" />
		<tag k="name:no" v="Kobbvågen" />
		<tag k="natural" v="bay" />
		<tag k="source" v="Kartverket" />
		<tag k="ssr:stedsnr" v="930422" />
	</node>
	<node id="2354702595" lat="71.046997" lon="27.730975" version="2" timestamp="2018-05-02T17:03:59Z" changeset="58620907" uid="3497659" user="NKA">
		<tag k="name" v="Kobbhaugan" />
		<tag k="name:no" v="Kobbhaugan" />
		<tag k="natural" v="peak" />
		<tag k="source" v="Kartverket" />
		<tag k="ssr:stedsnr" v="20409" />
	</node>
	<node id="2354708196" lat="71.052164" lon="27.80825" version="2" timestamp="2018-05-02T17:03:59Z" changeset="58620907" uid="3497659" user="NKA">
		<tag k="name" v="Kuskjellhamnklubben" />
		<tag k="name:no" v="Kuskjellhamnklubben" />
		<tag k="natural" v="cape" />
		<tag k="source" v="Kartverket" />
		<tag k="ssr:stedsnr" v="930419" />
	</node>
	<node id="2354708284" lat="71.049886" lon="27.863939" version="2" timestamp="2018-05-02T17:03:59Z" changeset="58620907" uid="3497659" user="NKA">
		<tag k="name" v="Vedvikneset" />
		<tag k="name:no" v="Vedvikneset" />
		<tag k="natural" v="cape" />
		<tag k="source" v="Kartverket" />
		<tag k="ssr:stedsnr" v="505442" />
	</node>
	<node id="2354708681" lat="71.044297" lon="27.855219" version="2" timestamp="2018-05-02T17:03:59Z" changeset="58620907" uid="3497659" user="NKA">
		<tag k="name" v="Vedvika" />
		<tag k="name:no" v="Vedvika" />
		<tag k="natural" v="bay" />
		<tag k="source" v="Kartverket" />
		<tag k="ssr:stedsnr" v="384440" />
	</node>
	<node id="2354709392" lat="71.052783" lon="27.913017" version="2" timestamp="2018-05-02T17:03:59Z" changeset="58620907" uid="3497659" user="NKA">
		<tag k="name" v="Skipsvika" />
		<tag k="name:no" v="Skipsvika" />
		<tag k="natural" v="bay" />
		<tag k="source" v="Kartverket" />
		<tag k="ssr:stedsnr" v="930457" />
	</node>
	<node id="2354716748" lat="71.046392" lon="27.923092" version="2" timestamp="2018-05-02T17:03:59Z" changeset="58620907" uid="3497659" user="NKA">
		<tag k="name" v="Skipsviktuva" />
		<tag k="name:no" v="Skipsviktuva" />
		<tag k="natural" v="peak" />
		<tag k="source" v="Kartverket" />
		<tag k="ssr:stedsnr" v="687429" />
	</node>
	<node id="2354718161" lat="71.046942" lon="28.076311" version="2" timestamp="2018-05-02T17:04:00Z" changeset="58620907" uid="3497659" user="NKA">
		<tag k="name" v="Langstranda" />
		<tag k="name:no" v="Langstranda" />
		<tag k="natural" v="beach" />
		<tag k="source" v="Kartverket" />
		<tag k="ssr:stedsnr" v="202441" />
	</node>
	<node id="2354723996" lat="71.0464" lon="28.186964" version="2" timestamp="2018-05-02T17:04:00Z" changeset="58620907" uid="3497659" user="NKA">
		<tag k="name" v="Einerfjellet" />
		<tag k="name:no" v="Einerfjellet" />
		<tag k="natural" v="peak" />
		<tag k="source" v="Kartverket" />
		<tag k="ssr:stedsnr" v="262441" />
	</node>
	<node id="2354869890" lat="71.052406" lon="28.258192" version="2" timestamp="2018-05-02T17:04:00Z" changeset="58620907" uid="3497659" user="NKA">
		<tag k="name" v="Kvalvika" />
		<tag k="name:no" v="Kvalvika" />
		<tag k="natural" v="bay" />
		<tag k="source" v="Kartverket" />
		<tag k="ssr:stedsnr" v="202432" />
	</node>
	<node id="2354869992" lat="71.047039" lon="28.250564" version="2" timestamp="2018-05-02T17:04:00Z" changeset="58620907" uid="3497659" user="NKA">
		<tag k="name" v="Tverrvika" />
		<tag k="name:no" v="Tverrvika" />
		<tag k="natural" v="bay" />
		<tag k="source" v="Kartverket" />
		<tag k="ssr:stedsnr" v="566440" />
	</node>
	<node id="2354870021" lat="71.049547" lon="28.265022" version="2" timestamp="2018-05-02T17:04:00Z" changeset="58620907" uid="3497659" user="NKA">
		<tag k="name" v="Danielsneset" />
		<tag k="name:no" v="Danielsneset" />
		<tag k="natural" v="cape" />
		<tag k="source" v="Kartverket" />
		<tag k="ssr:stedsnr" v="869470" />
	</node>
	<node id="2354870185" lat="71.045219" lon="27.797572" version="3" timestamp="2018-05-02T17:04:00Z" changeset="58620907" uid="3497659" user="NKA">
		<tag k="bay" v="fjord" />
		<tag k="name" v="Steinfjorden" />
		<tag k="name:no" v="Steinfjorden" />
		<tag k="natural" v="bay" />
		<tag k="source" v="Kartverket" />
		<tag k="ssr:stedsnr" v="445456" />
	</node>
	<node id="2354870272" lat="71.044553" lon="27.807819" version="2" timestamp="2018-05-02T17:04:00Z" changeset="58620907" uid="3497659" user="NKA">
		<tag k="alt_name" v="Steinfjordnes" />
		<tag k="name" v="Steinfjordneset" />
		<tag k="name:no" v="Steinfjordneset" />
		<tag k="natural" v="cape" />
		<tag k="source" v="Kartverket" />
		<tag k="ssr:stedsnr" v="566439" />
	</node>
	<node id="2354879942" lat="71.044539" lon="27.837208" version="2" timestamp="2018-05-02T17:04:00Z" changeset="58620907" uid="3497659" user="NKA">
		<tag k="name" v="Hamnneset" />
		<tag k="name:no" v="Hamnneset" />
		<tag k="natural" v="cape" />
		<tag k="source" v="Kartverket" />
		<tag k="ssr:stedsnr" v="20425" />
	</node>
	<node id="2354882414" lat="71.036694" lon="27.883703" version="2" timestamp="2018-05-02T17:04:00Z" changeset="58620907" uid="3497659" user="NKA">
		<tag k="name" v="Bjørkvika" />
		<tag k="name:no" v="Bjørkvika" />
		<tag k="natural" v="bay" />
		<tag k="source" v="Kartverket" />
		<tag k="ssr:stedsnr" v="202428" />
	</node>
	<node id="2354884373" lat="71.040431" lon="28.230453" version="2" timestamp="2018-05-02T17:04:01Z" changeset="58620907" uid="3497659" user="NKA">
		<tag k="name" v="Storvika" />
		<tag k="name:no" v="Storvika" />
		<tag k="natural" v="bay" />
		<tag k="source" v="Kartverket" />
		<tag k="ssr:stedsnr" v="748428" />
	</node>
	<node id="2354884565" lat="71.042228" lon="28.232456" version="2" timestamp="2018-05-02T17:04:01Z" changeset="58620907" uid="3497659" user="NKA">
		<tag k="name" v="Brattbakken" />
		<tag k="name:no" v="Brattbakken" />
		<tag k="natural" v="mountainside" />
		<tag k="source" v="Kartverket" />
		<tag k="ssr:stedsnr" v="809449" />
	</node>
	<node id="2354884618" lat="71.045008" lon="28.2505" version="2" timestamp="2018-05-02T17:04:01Z" changeset="58620907" uid="3497659" user="NKA">
		<tag k="name" v="Tverrvikneset" />
		<tag k="name:no" v="Tverrvikneset" />
		<tag k="natural" v="cape" />
		<tag k="source" v="Kartverket" />
		<tag k="ssr:stedsnr" v="445450" />
	</node>
	<node id="2354893785" lat="71.032036" lon="28.192031" version="3" timestamp="2018-05-02T17:04:01Z" changeset="58620907" uid="3497659" user="NKA">
		<tag k="bay" v="fjord" />
		<tag k="name" v="Gunnarsfjorden" />
		<tag k="name:no" v="Gunnarsfjorden" />
		<tag k="natural" v="bay" />
		<tag k="source" v="Kartverket" />
		<tag k="ssr:stedsnr" v="141410" />
	</node>
	<node id="2354894665" lat="71.027992" lon="28.201633" version="2" timestamp="2018-05-02T17:04:01Z" changeset="58620907" uid="3497659" user="NKA">
		<tag k="name" v="Gunnarsfjordneset" />
		<tag k="name:no" v="Gunnarsfjordneset" />
		<tag k="natural" v="cape" />
		<tag k="source" v="Kartverket" />
		<tag k="ssr:stedsnr" v="20391" />
	</node>
	<node id="2354895296" lat="71.026136" lon="27.64665" version="2" timestamp="2018-05-02T17:04:01Z" changeset="58620907" uid="3497659" user="NKA">
		<tag k="name" v="Bjørnviktuva" />
		<tag k="name:no" v="Bjørnviktuva" />
		<tag k="natural" v="peak" />
		<tag k="source" v="Kartverket" />
		<tag k="ssr:stedsnr" v="626428" />
	</node>
	<node id="2354895829" lat="71.022561" lon="27.811358" version="2" timestamp="2018-05-02T17:04:01Z" changeset="58620907" uid="3497659" user="NKA">
		<tag k="name" v="Rundhaugen" />
		<tag k="name:no" v="Rundhaugen" />
		<tag k="natural" v="peak" />
		<tag k="source" v="Kartverket" />
		<tag k="ssr:stedsnr" v="626427" />
	</node>
	<node id="2354898628" lat="71.021028" lon="28.199717" version="2" timestamp="2018-05-02T17:04:01Z" changeset="58620907" uid="3497659" user="NKA">
		<tag k="name" v="Kobbvika" />
		<tag k="name:no" v="Kobbvika" />
		<tag k="natural" v="bay" />
		<tag k="source" v="Kartverket" />
		<tag k="ssr:stedsnr" v="263408" />
	</node>
	<node id="2354899142" lat="71.013892" lon="27.857111" version="2" timestamp="2018-05-02T17:04:01Z" changeset="58620907" uid="3497659" user="NKA">
		<tag k="name" v="Middagstuva" />
		<tag k="name:no" v="Middagstuva" />
		<tag k="natural" v="peak" />
		<tag k="source" v="Kartverket" />
		<tag k="ssr:stedsnr" v="323383" />
	</node>
	<node id="2354907889" lat="71.016094" lon="28.201703" version="2" timestamp="2018-05-02T17:04:02Z" changeset="58620907" uid="3497659" user="NKA">
		<tag k="name" v="Larsolaurda" />
		<tag k="name:no" v="Larsolaurda" />
		<tag k="natural" v="cape" />
		<tag k="source" v="Kartverket" />
		<tag k="ssr:stedsnr" v="870399" />
	</node>
	<node id="2354908830" lat="71.003667" lon="27.817175" version="2" timestamp="2018-05-02T17:04:02Z" changeset="58620907" uid="3497659" user="NKA">
		<tag k="alt_name" v="Fossbakkan" />
		<tag k="name" v="Fossbakkane" />
		<tag k="name:no" v="Fossbakkane" />
		<tag k="natural" v="mountainside" />
		<tag k="source" v="Kartverket" />
		<tag k="ssr:stedsnr" v="384388" />
	</node>
	<node id="2354914386" lat="71.006853" lon="28.216972" version="2" timestamp="2018-05-02T17:04:02Z" changeset="58620907" uid="3497659" user="NKA">
		<tag k="name" v="Skalangsneset" />
		<tag k="name:no" v="Skalangsneset" />
		<tag k="natural" v="cape" />
		<tag k="source" v="Kartverket" />
		<tag k="ssr:stedsnr" v="263420" />
	</node>
	<node id="2354919442" lat="71.082258" lon="28.062336" version="2" timestamp="2018-05-02T17:04:04Z" changeset="58620907" uid="3497659" user="NKA">
		<tag k="name" v="Bispevika" />
		<tag k="name:no" v="Bispevika" />
		<tag k="natural" v="bay" />
		<tag k="source" v="Kartverket" />
		<tag k="ssr:stedsnr" v="20394" />
	</node>
	<node id="2354919466" lat="71.069886" lon="28.082353" version="3" timestamp="2018-05-02T17:04:04Z" changeset="58620907" uid="3497659" user="NKA">
		<tag k="bay" v="fjord" />
		<tag k="name" v="Sandfjorden" />
		<tag k="name:no" v="Sandfjorden" />
		<tag k="natural" v="bay" />
		<tag k="source" v="Kartverket" />
		<tag k="ssr:stedsnr" v="323394" />
	</node>
	<node id="2354919468" lat="71.067978" lon="27.7901" version="2" timestamp="2018-05-02T17:04:04Z" changeset="58620907" uid="3497659" user="NKA">
		<tag k="name" v="Smørbringvika" />
		<tag k="name:no" v="Smørbringvika" />
		<tag k="natural" v="bay" />
		<tag k="source" v="Kartverket" />
		<tag k="ssr:stedsnr" v="566400" />
	</node>
	<node id="2354919569" lat="71.062411" lon="27.962278" version="2" timestamp="2018-05-02T17:04:05Z" changeset="58620907" uid="3497659" user="NKA">
		<tag k="alt_name" v="Vesterbotn" />
		<tag k="name" v="Vesterbotnen" />
		<tag k="name:no" v="Vesterbotnen" />
		<tag k="natural" v="bay" />
		<tag k="source" v="Kartverket" />
		<tag k="ssr:stedsnr" v="505403" />
	</node>
	<node id="2354920960" lat="71.0606657" lon="28.1002385" version="3" timestamp="2018-05-02T17:04:05Z" changeset="58620907" uid="3497659" user="NKA">
		<tag k="alt_name" v="Daudingsvika" />
		<tag k="name" v="Daudmannsvikan" />
		<tag k="name:no" v="Daudmannsvikan" />
		<tag k="natural" v="bay" />
		<tag k="source" v="Kartverket" />
		<tag k="ssr:stedsnr" v="20398" />
	</node>
	<node id="2354921459" lat="71.034956" lon="27.820417" version="3" timestamp="2018-05-02T17:04:05Z" changeset="58620907" uid="3497659" user="NKA">
		<tag k="bay" v="fjord" />
		<tag k="name" v="Sørfjorden" />
		<tag k="name:no" v="Sørfjorden" />
		<tag k="natural" v="bay" />
		<tag k="source" v="Kartverket" />
		<tag k="ssr:stedsnr" v="202111" />
	</node>
	<node id="6203030834" lat="70.7195688" lon="28.080703" version="2" timestamp="2022-07-10T17:07:45Z" changeset="123440456" uid="3497659" user="NKA">
		<tag k="name" v="Langfjordnes - Goalsevuohppi" />
		<tag k="name:no" v="Langfjordnes" />
		<tag k="name:se" v="Goalsevuohppi" />
		<tag k="old_name:se" v="Goalsevuoppi" />
		<tag k="place" v="hamlet" />
		<tag k="ssr:stedsnr" v="930303" />
	</node>
	<node id="6203030837" lat="70.665933" lon="27.8512472" version="2" timestamp="2022-07-10T17:07:45Z" changeset="123440456" uid="3497659" user="NKA">
		<tag k="name" v="Nervei - Njereveadji" />
		<tag k="name:no" v="Nervei" />
		<tag k="name:se" v="Njereveadji" />
		<tag k="old_name:se" v="Njerevæddji" />
		<tag k="place" v="hamlet" />
		<tag k="ssr:stedsnr" v="445286" />
	</node>
	<node id="6203030842" lat="70.7998884" lon="28.0975593" version="3" timestamp="2022-07-10T17:07:45Z" changeset="123440456" uid="3497659" user="NKA">
		<tag k="name" v="Skjånes" />
		<tag k="name:se" v="Skeavvonjárga" />
		<tag k="place" v="hamlet" />
		<tag k="ssr:stedsnr" v="263887" />
	</node>
	<node id="9879242405" lat="70.7685084" lon="27.9687156" version="1" timestamp="2022-07-10T17:07:45Z" changeset="123440456" uid="3497659" user="NKA">
		<tag k="name" v="Sommarheimen" />
		<tag k="place" v="locality" />
		<tag k="ssr:stedsnr" v="141884" />
	</node>
	<node id="9879242406" lat="70.6236996" lon="27.6298751" version="1" timestamp="2022-07-10T17:07:45Z" changeset="123440456" uid="3497659" user="NKA">
		<tag k="name" v="Lággu" />
		<tag k="name:se" v="Lággu" />
		<tag k="old_name:se" v="Laggo" />
		<tag k="place" v="hamlet" />
		<tag k="ssr:stedsnr" v="141271" />
	</node>
	<node id="9879242407" lat="70.7979548" lon="27.782126" version="1" timestamp="2022-07-10T17:07:45Z" changeset="123440456" uid="3497659" user="NKA">
		<tag k="alt_name" v="Bakland" />
		<tag k="name" v="Bakkeland" />
		<tag k="place" v="farm" />
		<tag k="ssr:stedsnr" v="930874" />
	</node>
	<node id="9879242408" lat="70.7965056" lon="28.1408838" version="1" timestamp="2022-07-10T17:07:45Z" changeset="123440456" uid="3497659" user="NKA">
		<tag k="historic" v="shieling" />
		<tag k="name" v="Ytre Bjørnelva" />
		<tag k="place" v="isolated_dwelling" />
		<tag k="ssr:stedsnr" v="87381" />
	</node>
	<node id="9879242409" lat="70.8025526" lon="27.864571" version="1" timestamp="2022-07-10T17:07:45Z" changeset="123440456" uid="3497659" user="NKA">
		<tag k="name" v="Kobbevik - Márranluokta" />
		<tag k="name:no" v="Kobbevik" />
		<tag k="name:se" v="Márranluokta" />
		<tag k="old_name:se" v="Marranluokta" />
		<tag k="place" v="hamlet" />
		<tag k="ssr:stedsnr" v="687874" />
	</node>
	<node id="9879242410" lat="71.0725223" lon="28.2449356" version="1" timestamp="2022-07-10T17:07:45Z" changeset="123440456" uid="3497659" user="NKA">
		<tag k="name" v="Elvevågen" />
		<tag k="place" v="farm" />
		<tag k="ssr:stedsnr" v="748424" />
	</node>
	<node id="9879242411" lat="70.6742806" lon="27.8725246" version="1" timestamp="2022-07-10T17:07:45Z" changeset="123440456" uid="3497659" user="NKA">
		<tag k="alt_name" v="Sommarheimen, in" />
		<tag k="name" v="Indre Sommarheimen" />
		<tag k="place" v="locality" />
		<tag k="ssr:stedsnr" v="626310" />
	</node>
	<node id="9879242412" lat="71.0558677" lon="28.2497522" version="1" timestamp="2022-07-10T17:07:45Z" changeset="123440456" uid="3497659" user="NKA">
		<tag k="name" v="Koven" />
		<tag k="place" v="farm" />
		<tag k="ssr:stedsnr" v="753108" />
	</node>
	<node id="9879242413" lat="70.7967777" lon="28.1398352" version="1" timestamp="2022-07-10T17:07:45Z" changeset="123440456" uid="3497659" user="NKA">
		<tag k="name" v="Bjørnelva" />
		<tag k="place" v="locality" />
		<tag k="ssr:stedsnr" v="337990" />
	</node>
	<node id="9879242414" lat="70.7996473" lon="28.0723204" version="1" timestamp="2022-07-10T17:07:45Z" changeset="123440456" uid="3497659" user="NKA">
		<tag k="alt_name" v="Brevik" />
		<tag k="name" v="Breivik" />
		<tag k="place" v="farm" />
		<tag k="ssr:stedsnr" v="328677" />
	</node>
	<node id="9879242415" lat="70.6384028" lon="27.7837419" version="1" timestamp="2022-07-10T17:07:45Z" changeset="123440456" uid="3497659" user="NKA">
		<tag k="name" v="Gamman" />
		<tag k="place" v="locality" />
		<tag k="ssr:stedsnr" v="930288" />
	</node>
	<node id="9879242416" lat="70.8002612" lon="27.7711556" version="1" timestamp="2022-07-10T17:07:45Z" changeset="123440456" uid="3497659" user="NKA">
		<tag k="alt_name" v="Skjerli" />
		<tag k="name" v="Skjærlia" />
		<tag k="place" v="farm" />
		<tag k="ssr:stedsnr" v="809871" />
	</node>
	<node id="9879308317" lat="70.8006361" lon="28.0173819" version="1" timestamp="2022-07-10T17:07:45Z" changeset="123440456" uid="3497659" user="NKA">
		<tag k="name" v="Nybrott" />
		<tag k="place" v="isolated_dwelling" />
		<tag k="ssr:stedsnr" v="505860" />
	</node>
	<node id="9879308318" lat="70.684384" lon="27.9284528" version="1" timestamp="2022-07-10T17:07:45Z" changeset="123440456" uid="3497659" user="NKA">
		<tag k="alt_name" v="Sommarheimen;Sommarheimen, yt" />
		<tag k="name" v="Ytre Sommarheimen" />
		<tag k="place" v="locality" />
		<tag k="ssr:stedsnr" v="930294" />
	</node>
	<node id="9879308319" lat="70.8002778" lon="28.0743842" version="1" timestamp="2022-07-10T17:07:45Z" changeset="123440456" uid="3497659" user="NKA">
		<tag k="alt_name" v="Brevik Nordre" />
		<tag k="name" v="Breivikjorda" />
		<tag k="place" v="farm" />
		<tag k="ssr:stedsnr" v="631682" />
	</node>
	<node id="9879308320" lat="70.7930723" lon="28.0681231" version="1" timestamp="2022-07-10T17:07:45Z" changeset="123440456" uid="3497659" user="NKA">
		<tag k="alt_name" v="Lyngsletten;Løngsletta" />
		<tag k="name" v="Lyngsletta" />
		<tag k="place" v="farm" />
		<tag k="ssr:stedsnr" v="263880" />
	</node>
	<node id="9879308321" lat="70.9887249" lon="28.5151935" version="1" timestamp="2022-07-10T17:07:45Z" changeset="123440456" uid="3497659" user="NKA">
		<tag k="name" v="Omgang - Vuoggá" />
		<tag k="name:no" v="Omgang" />
		<tag k="name:se" v="Vuoggá" />
		<tag k="old_name:se" v="Vuogga" />
		<tag k="place" v="hamlet" />
		<tag k="ssr:stedsnr" v="20926" />
	</node>
	<node id="9879308322" lat="70.9936251" lon="28.1849555" version="1" timestamp="2022-07-10T17:07:45Z" changeset="123440456" uid="3497659" user="NKA">
		<tag k="name" v="Risfjorden" />
		<tag k="place" v="locality" />
		<tag k="ssr:stedsnr" v="329656" />
	</node>
	<node id="9879308323" lat="70.7954338" lon="28.1177002" version="1" timestamp="2022-07-10T17:07:45Z" changeset="123440456" uid="3497659" user="NKA">
		<tag k="alt_name" v="Hop, yt;Ytterhop" />
		<tag k="name" v="Ytre Hop" />
		<tag k="place" v="hamlet" />
		<tag k="ssr:stedsnr" v="263886" />
	</node>
	<node id="9879308324" lat="70.9609" lon="27.7544557" version="1" timestamp="2022-07-10T17:07:45Z" changeset="123440456" uid="3497659" user="NKA">
		<tag k="name" v="Skanceslåtta" />
		<tag k="place" v="locality" />
		<tag k="ssr:stedsnr" v="626832" />
	</node>
	<node id="9879308325" lat="70.8309806" lon="28.2960882" version="1" timestamp="2022-07-10T17:07:45Z" changeset="123440456" uid="3497659" user="NKA">
		<tag k="name" v="Hamna" />
		<tag k="place" v="locality" />
		<tag k="ssr:stedsnr" v="20944" />
	</node>
	<node id="9879308326" lat="70.8311695" lon="28.2961105" version="1" timestamp="2022-07-10T17:07:45Z" changeset="123440456" uid="3497659" user="NKA">
		<tag k="name" v="Rafjord" />
		<tag k="place" v="isolated_dwelling" />
		<tag k="ssr:stedsnr" v="26392" />
	</node>
	<node id="9879308327" lat="71.0404389" lon="27.808047" version="1" timestamp="2022-07-10T17:07:45Z" changeset="123440456" uid="3497659" user="NKA">
		<tag k="name" v="Strand" />
		<tag k="place" v="farm" />
		<tag k="ssr:stedsnr" v="389001" />
	</node>
	<node id="9879308328" lat="70.8926251" lon="28.3792985" version="1" timestamp="2022-07-10T17:07:45Z" changeset="123440456" uid="3497659" user="NKA">
		<tag k="name" v="Hamna" />
		<tag k="place" v="isolated_dwelling" />
		<tag k="ssr:stedsnr" v="748929" />
	</node>
	<node id="9879308329" lat="70.61235" lon="27.5882429" version="1" timestamp="2022-07-10T17:07:45Z" changeset="123440456" uid="3497659" user="NKA">
		<tag k="name" v="Dalheim" />
		<tag k="place" v="farm" />
		<tag k="ssr:stedsnr" v="748731" />
	</node>
	<node id="9879308330" lat="70.887525" lon="28.337496" version="1" timestamp="2022-07-10T17:07:45Z" changeset="123440456" uid="3497659" user="NKA">
		<tag k="alt_name" v="Tyfjorden" />
		<tag k="name" v="Tyfjord" />
		<tag k="place" v="locality" />
		<tag k="ssr:stedsnr" v="81935" />
	</node>
	<node id="9879308331" lat="70.6199167" lon="27.6542424" version="1" timestamp="2022-07-10T17:07:45Z" changeset="123440456" uid="3497659" user="NKA">
		<tag k="name" v="Mattisneset" />
		<tag k="place" v="farm" />
		<tag k="ssr:stedsnr" v="323266" />
	</node>
	<node id="9879308332" lat="70.8866556" lon="28.3440987" version="1" timestamp="2022-07-10T17:07:45Z" changeset="123440456" uid="3497659" user="NKA">
		<tag k="name" v="Heimen" />
		<tag k="place" v="locality" />
		<tag k="ssr:stedsnr" v="451489" />
	</node>
	<node id="9879308333" lat="70.8890279" lon="28.3387571" version="1" timestamp="2022-07-10T17:07:45Z" changeset="123440456" uid="3497659" user="NKA">
		<tag k="name" v="Elvenes" />
		<tag k="place" v="locality" />
		<tag k="ssr:stedsnr" v="86693" />
	</node>
	<node id="9879308334" lat="71.0855557" lon="28.1533446" version="1" timestamp="2022-07-10T17:07:45Z" changeset="123440456" uid="3497659" user="NKA">
		<tag k="name" v="Steinvåg" />
		<tag k="place" v="locality" />
		<tag k="ssr:stedsnr" v="328201" />
	</node>
	<node id="9879308335" lat="70.7188807" lon="28.07453" version="1" timestamp="2022-07-10T17:07:45Z" changeset="123440456" uid="3497659" user="NKA">
		<tag k="name" v="Storjord - Stuorragieddi" />
		<tag k="name:no" v="Storjord" />
		<tag k="name:se" v="Stuorragieddi" />
		<tag k="place" v="isolated_dwelling" />
		<tag k="ssr:stedsnr" v="815697" />
	</node>
	<node id="9879308336" lat="71.0754584" lon="27.9726377" version="1" timestamp="2022-07-10T17:07:45Z" changeset="123440456" uid="3497659" user="NKA">
		<tag k="name" v="Roren" />
		<tag k="place" v="isolated_dwelling" />
		<tag k="ssr:stedsnr" v="383477" />
	</node>
	<node id="9879308337" lat="70.8000056" lon="27.8358276" version="1" timestamp="2022-07-10T17:07:45Z" changeset="123440456" uid="3497659" user="NKA">
		<tag k="name" v="Sandnes" />
		<tag k="place" v="isolated_dwelling" />
		<tag k="ssr:stedsnr" v="700865" />
	</node>
	<node id="9879308338" lat="70.7949279" lon="28.1903472" version="1" timestamp="2022-07-10T17:07:45Z" changeset="123440456" uid="3497659" user="NKA">
		<tag k="name" v="Kjeskelvik" />
		<tag k="place" v="isolated_dwelling" />
		<tag k="ssr:stedsnr" v="633434" />
	</node>
	<node id="9879308339" lat="70.6636389" lon="27.8576551" version="1" timestamp="2022-07-10T17:07:45Z" changeset="123440456" uid="3497659" user="NKA">
		<tag k="name" v="Vika" />
		<tag k="place" v="isolated_dwelling" />
		<tag k="ssr:stedsnr" v="752991" />
	</node>
	<node id="9879308340" lat="70.8105361" lon="28.2860633" version="1" timestamp="2022-07-10T17:07:45Z" changeset="123440456" uid="3497659" user="NKA">
		<tag k="name" v="Svensvik" />
		<tag k="place" v="isolated_dwelling" />
		<tag k="ssr:stedsnr" v="384928" />
	</node>
	<node id="9879308341" lat="70.7968252" lon="27.9343667" version="1" timestamp="2022-07-10T17:07:45Z" changeset="123440456" uid="3497659" user="NKA">
		<tag k="name" v="Værnes" />
		<tag k="place" v="farm" />
		<tag k="ssr:stedsnr" v="876270" />
	</node>
	<node id="9879308342" lat="70.8046917" lon="27.8733356" version="1" timestamp="2022-07-10T17:07:45Z" changeset="123440456" uid="3497659" user="NKA">
		<tag k="name" v="Kraknes" />
		<tag k="place" v="farm" />
		<tag k="ssr:stedsnr" v="760861" />
	</node>
	<node id="9879308343" lat="70.8891612" lon="28.3386572" version="1" timestamp="2022-07-10T17:07:45Z" changeset="123440456" uid="3497659" user="NKA">
		<tag k="name" v="Brattli" />
		<tag k="place" v="locality" />
		<tag k="ssr:stedsnr" v="329459" />
	</node>
	<node id="9879308344" lat="71.0359493" lon="27.8645368" version="1" timestamp="2022-07-10T17:07:45Z" changeset="123440456" uid="3497659" user="NKA">
		<tag k="alt_name" v="Nordmannseth" />
		<tag k="name" v="Nordmannset" />
		<tag k="place" v="farm" />
		<tag k="ssr:stedsnr" v="81412" />
	</node>
	<node id="9879308345" lat="70.7190631" lon="28.0809623" version="1" timestamp="2022-07-10T17:07:45Z" changeset="123440456" uid="3497659" user="NKA">
		<tag k="name" v="Strandsletta" />
		<tag k="place" v="locality" />
		<tag k="ssr:stedsnr" v="390692" />
	</node>
	<node id="9879308346" lat="71.0489111" lon="28.0533205" version="1" timestamp="2022-07-10T17:07:45Z" changeset="123440456" uid="3497659" user="NKA">
		<tag k="alt_name" v="Sandfjorden" />
		<tag k="name" v="Sandfjord" />
		<tag k="place" v="farm" />
		<tag k="ssr:stedsnr" v="81460" />
	</node>
	<node id="9879308347" lat="70.8123686" lon="27.9571509" version="1" timestamp="2022-07-10T17:07:45Z" changeset="123440456" uid="3497659" user="NKA">
		<tag k="name" v="Ivarsfjord" />
		<tag k="place" v="hamlet" />
		<tag k="ssr:stedsnr" v="445866" />
	</node>
	<node id="9879308348" lat="70.8122084" lon="28.008157" version="1" timestamp="2022-07-10T17:07:45Z" changeset="123440456" uid="3497659" user="NKA">
		<tag k="name" v="Ivarsøy" />
		<tag k="place" v="isolated_dwelling" />
		<tag k="ssr:stedsnr" v="328386" />
	</node>
	<node id="9879308349" lat="70.8649751" lon="28.4229036" version="1" timestamp="2022-07-10T17:07:45Z" changeset="123440456" uid="3497659" user="NKA">
		<tag k="name" v="Losvik - Lohkesváhki" />
		<tag k="name:no" v="Losvik" />
		<tag k="name:se" v="Lohkesváhki" />
		<tag k="old_name:se" v="Låkkesvakki" />
		<tag k="place" v="isolated_dwelling" />
		<tag k="ssr:stedsnr" v="263932" />
	</node>
	<node id="9879308350" lat="70.807019" lon="28.1031155" version="1" timestamp="2022-07-10T17:07:45Z" changeset="123440456" uid="3497659" user="NKA">
		<tag k="alt_name" v="Hop;Hop, in" />
		<tag k="name" v="Indre Hop" />
		<tag k="place" v="hamlet" />
		<tag k="ssr:stedsnr" v="809890" />
	</node>
	<node id="9879308351" lat="70.6290796" lon="27.6903622" version="1" timestamp="2022-07-10T17:07:45Z" changeset="123440456" uid="3497659" user="NKA">
		<tag k="name" v="Spiikkárnjárga" />
		<tag k="name:se" v="Spiikkárnjárga" />
		<tag k="old_name:se" v="Spiikarnjarga" />
		<tag k="place" v="locality" />
		<tag k="ssr:stedsnr" v="384288" />
	</node>
	<node id="9879308352" lat="71.0136389" lon="27.8246608" version="1" timestamp="2022-07-10T17:07:45Z" changeset="123440456" uid="3497659" user="NKA">
		<tag k="name" v="Dalstua" />
		<tag k="place" v="isolated_dwelling" />
		<tag k="ssr:stedsnr" v="935988" />
	</node>
	<node id="9879308353" lat="71.0377973" lon="27.8088138" version="1" timestamp="2022-07-10T17:07:45Z" changeset="123440456" uid="3497659" user="NKA">
		<tag k="name" v="Lavland" />
		<tag k="place" v="farm" />
		<tag k="ssr:stedsnr" v="936005" />
	</node>
	<node id="9879308354" lat="71.0006806" lon="28.4114455" version="1" timestamp="2022-07-10T17:07:45Z" changeset="123440456" uid="3497659" user="NKA">
		<tag k="name" v="Prestslåtten" />
		<tag k="place" v="locality" />
		<tag k="ssr:stedsnr" v="445914" />
	</node>
	<node id="9879308355" lat="70.6177016" lon="27.6644172" version="1" timestamp="2022-07-10T17:07:45Z" changeset="123440456" uid="3497659" user="NKA">
		<tag k="name" v="Bokkus - Bohkošjohka" />
		<tag k="name:no" v="Bokkus" />
		<tag k="name:se" v="Bohkošjohka" />
		<tag k="old_name:se" v="Båkkušjåkka" />
		<tag k="place" v="locality" />
		<tag k="ssr:stedsnr" v="627300" />
	</node>
	<node id="9879308356" lat="70.7206363" lon="28.077124" version="1" timestamp="2022-07-10T17:07:45Z" changeset="123440456" uid="3497659" user="NKA">
		<tag k="name" v="Solheim" />
		<tag k="place" v="isolated_dwelling" />
		<tag k="ssr:stedsnr" v="269739" />
	</node>
	<node id="2354702968" lat="71.0505799" lon="27.7995912" version="2" timestamp="2013-06-21T12:11:05Z" changeset="16643192" uid="1556391" user="relet" />
	<node id="2354702969" lat="71.051678" lon="27.799978" version="1" timestamp="2013-06-21T12:08:02Z" changeset="16643155" uid="1556391" user="relet" />
	<node id="2354702970" lat="71.051178" lon="27.799478" version="1" timestamp="2013-06-21T12:08:03Z" changeset="16643155" uid="1556391" user="relet" />
	<node id="2354706587" lat="71.0503918" lon="27.8005031" version="1" timestamp="2013-06-21T12:11:05Z" changeset="16643192" uid="1556391" user="relet" />
	<node id="2354706588" lat="71.0518376" lon="27.8040866" version="1" timestamp="2013-06-21T12:11:05Z" changeset="16643192" uid="1556391" user="relet" />
	<node id="2354706589" lat="71.0522104" lon="27.8017906" version="1" timestamp="2013-06-21T12:11:05Z" changeset="16643192" uid="1556391" user="relet" />
	<node id="2354909651" lat="71.0080862" lon="27.8480946" version="2" timestamp="2013-06-21T15:44:22Z" changeset="16645601" uid="1556391" user="relet" />
	<node id="2354909708" lat="71.0065638" lon="27.8533195" version="1" timestamp="2013-06-21T15:44:22Z" changeset="16645601" uid="1556391" user="relet" />
	<node id="2354909709" lat="71.0065883" lon="27.8544675" version="1" timestamp="2013-06-21T15:44:22Z" changeset="16645601" uid="1556391" user="relet" />
	<node id="2354909710" lat="71.0070387" lon="27.8560232" version="1" timestamp="2013-06-21T15:44:22Z" changeset="16645601" uid="1556391" user="relet" />
	<node id="2354909711" lat="71.0070492" lon="27.8584801" version="1" timestamp="2013-06-21T15:44:22Z" changeset="16645601" uid="1556391" user="relet" />
	<node id="2354909652" lat="71.0067803" lon="27.8602611" version="2" timestamp="2013-06-21T15:44:22Z" changeset="16645601" uid="1556391" user="relet" />
	<node id="2354624681" lat="71.0755734" lon="27.9727514" version="3" timestamp="2021-10-06T06:00:12Z" changeset="112151665" uid="3497659" user="NKA" />
	<node id="2354624692" lat="71.075552" lon="27.9728717" version="3" timestamp="2021-10-06T06:00:12Z" changeset="112151665" uid="3497659" user="NKA" />
	<node id="2354624696" lat="71.0755017" lon="27.9727866" version="3" timestamp="2021-10-06T06:00:12Z" changeset="112151665" uid="3497659" user="NKA" />
	<node id="2354627632" lat="71.075523" lon="27.9726663" version="2" timestamp="2021-10-06T06:00:12Z" changeset="112151665" uid="3497659" user="NKA" />
	<node id="2354297584" lat="71.131497" lon="27.899786" version="1" timestamp="2013-06-20T23:12:41Z" changeset="16637340" uid="1556391" user="relet" />
	<node id="2354297585" lat="71.131497" lon="27.900786" version="1" timestamp="2013-06-20T23:12:42Z" changeset="16637340" uid="1556391" user="relet" />
	<node id="2354297586" lat="71.1317395" lon="27.900301" version="2" timestamp="2013-06-20T23:13:21Z" changeset="16637344" uid="1556391" user="relet" />
	<node id="2354297687" lat="71.131242" lon="27.9002934" version="1" timestamp="2013-06-20T23:13:21Z" changeset="16637344" uid="1556391" user="relet" />
	<way id="226660935" version="3" timestamp="2018-05-02T17:09:21Z" changeset="58620907" uid="3497659" user="NKA">
		<tag k="area" v="yes" />
		<tag k="name" v="Øvre Medtuvskallen" />
		<tag k="name:no" v="Øvre Medtuvskallen" />
		<tag k="natural" v="shoal" />
		<tag k="source" v="Kartverket" />
		<tag k="ssr:stedsnr" v="748491" />
		<nd ref="2354297584" />
		<nd ref="2354297687" />
		<nd ref="2354297585" />
		<nd ref="2354297586" />
		<nd ref="2354297584" />
	</way>
	<way id="226699083" version="4" timestamp="2021-10-06T06:00:12Z" changeset="112151665" uid="3497659" user="NKA">
		<tag k="area" v="yes" />
		<tag k="building" v="cabin" />
		<tag k="name" v="Roren" />
		<tag k="name:no" v="Roren" />
		<tag k="ssr:stedsnr" v="383477" />
		<nd ref="2354624681" />
		<nd ref="2354624692" />
		<nd ref="2354624696" />
		<nd ref="2354627632" />
		<nd ref="2354624681" />
	</way>
	<way id="226710477" version="3" timestamp="2018-05-02T17:09:22Z" changeset="58620907" uid="3497659" user="NKA">
		<tag k="area" v="yes" />
		<tag k="landuse" v="harbour" />
		<tag k="name" v="Kuskjellhamna" />
		<tag k="name:no" v="Kuskjellhamna" />
		<tag k="source" v="Kartverket" />
		<tag k="ssr:stedsnr" v="930421" />
		<nd ref="2354702968" />
		<nd ref="2354706587" />
		<nd ref="2354706588" />
		<nd ref="2354706589" />
		<nd ref="2354702969" />
		<nd ref="2354702970" />
		<nd ref="2354702968" />
	</way>
	<way id="226735584" version="3" timestamp="2018-05-02T17:09:22Z" changeset="58620907" uid="3497659" user="NKA">
		<tag k="name" v="Svartholet" />
		<tag k="name:no" v="Svartholet" />
		<tag k="natural" v="valley" />
		<tag k="source" v="Kartverket" />
		<tag k="ssr:stedsnr" v="809407" />
		<nd ref="2354909651" />
		<nd ref="2354909708" />
		<nd ref="2354909709" />
		<nd ref="2354909710" />
		<nd ref="2354909711" />
		<nd ref="2354909652" />
	</way>
</osm>
