<?xml version="1.0" encoding="UTF-8"?>
<osm version="0.6" generator="osmapis">
	<node id="2353340427" lat="70.1146868" lon="28.5181517" version="5" timestamp="2018-05-02T17:03:49Z" changeset="58620907" uid="3497659" user="NKA">
		<tag k="name" v="Storfossen" />
		<tag k="name:no" v="Storfossen" />
		<tag k="natural" v="waterfall" />
		<tag k="source" v="Kartverket" />
		<tag k="ssr:stedsnr" v="511317" />
	</node>
	<node id="5454577049" lat="70.0013287" lon="29.2123788" version="2" timestamp="2022-01-26T06:08:00Z" changeset="116609992" uid="3497659" user="NKA">
		<tag k="junction" v="yes" />
		<tag k="name" v="BugÃ¸yneskrysset" />
		<tag k="ssr:stedsnr" v="515737" />
	</node>
	<node id="2350105145" lat="70.1503479" lon="29.1123602" version="3" timestamp="2021-06-15T06:52:56Z" changeset="106377463" uid="3497659" user="NKA" />
	<node id="2350105147" lat="70.1503309" lon="29.1121992" version="3" timestamp="2021-06-15T06:52:56Z" changeset="106377463" uid="3497659" user="NKA" />
	<node id="2350105150" lat="70.1502811" lon="29.1122448" version="3" timestamp="2021-06-15T06:52:56Z" changeset="106377463" uid="3497659" user="NKA" />
	<node id="3495859220" lat="70.1502981" lon="29.1124058" version="2" timestamp="2021-06-15T06:52:56Z" changeset="106377463" uid="3497659" user="NKA" />
	<way id="226155564" version="4" timestamp="2021-06-15T06:52:56Z" changeset="106377463" uid="3497659" user="NKA">
		<tag k="building" v="cabin" />
		<tag k="name" v="Dalen" />
		<tag k="name:no" v="Dalen" />
		<tag k="ref:bygningsnr" v="3840751" />
		<tag k="ssr:stedsnr" v="505658" />
		<nd ref="2350105150" />
		<nd ref="3495859220" />
		<nd ref="2350105145" />
		<nd ref="2350105147" />
		<nd ref="2350105150" />
	</way>
</osm>
