<?xml version="1.0" encoding="UTF-8"?>
<osm version="0.6" generator="osmapis">
	<node lat="59.84929166309041" lon="9.041747224487258" id="-21520">
		<tag k="fixme" v="specify shooting=range, clay_pigeon etc" />
		<tag k="leisure" v="pitch" />
		<tag k="name" v="Skytebane" />
		<tag k="sport" v="shooting" />
		<tag k="ssr:stedsnr" v="461591" />
	</node>
	<node lat="60.05235277792706" lon="8.80891389057375" id="-22230">
		<tag k="fixme" v="specify shooting=range, clay_pigeon etc" />
		<tag k="leisure" v="pitch" />
		<tag k="name" v="Skytebane" />
		<tag k="sport" v="shooting" />
		<tag k="ssr:stedsnr" v="521407" />
	</node>
	<node lat="59.79134722657402" lon="9.037825003671788" id="-22392">
		<tag k="fixme" v="consider boundary=protected_area and relevant protect_class if not nature reserve" />
		<tag k="leisure" v="nature_reserve" />
		<tag k="name" v="Bratterudskogen naturreservat" />
		<tag k="ssr:stedsnr" v="606904" />
	</node>
	<node lat="59.908105554939304" lon="8.71918333161947" id="-22477">
		<tag k="fixme" v="specify shooting=range, clay_pigeon etc" />
		<tag k="leisure" v="pitch" />
		<tag k="name" v="Skytebane" />
		<tag k="sport" v="shooting" />
		<tag k="ssr:stedsnr" v="701655" />
	</node>
	<node lat="59.93622777382047" lon="8.786752785256796" id="-22481">
		<tag k="historic" v="boundary_stone" />
		<tag k="man_made" v="cairn" />
		<tag k="name" v="Tvistestein" />
		<tag k="place" v="locality" />
		<tag k="ssr:stedsnr" v="701819" />
	</node>
	<node lat="60.04758333703513" lon="8.625972221361792" id="-23030">
		<tag k="historic" v="boundary_stone" />
		<tag k="man_made" v="cairn" />
		<tag k="name" v="Långerøstabben" />
		<tag k="place" v="locality" />
		<tag k="ssr:stedsnr" v="824320" />
	</node>
	<node lat="59.99338055739744" lon="8.734222223543641" id="-23121">
		<tag k="fixme" v="specify shooting=range, clay_pigeon etc" />
		<tag k="leisure" v="pitch" />
		<tag k="name" v="Atrå skytebane" />
		<tag k="sport" v="shooting" />
		<tag k="ssr:stedsnr" v="883400" />
	</node>
</osm>
