<?xml version="1.0" encoding="UTF-8"?>
<osm version="0.6" generator="osmapis">
	<node lat="60.15218611398775" lon="8.357777775554597" id="-25801">
		<tag k="name" v="Hellervasslægret" />
		<tag k="place" v="isolated_dwelling" />
		<tag k="ssr:stedsnr" v="229951" />
	</node>
	<node lat="59.8811305578763" lon="8.630366669648321" id="-25808">
		<tag k="alt_name" v="Tveitolii" />
		<tag k="fixme" v="consider place=suburb, village or hamlet" />
		<tag k="name" v="Tveitolia" />
		<tag k="place" v="quarter" />
		<tag k="ssr:stedsnr" v="3124" />
	</node>
	<node lat="59.88701388549568" lon="8.998119453177813" id="-25814">
		<tag k="historic" v="shieling" />
		<tag k="name" v="Olvestul" />
		<tag k="place" v="isolated_dwelling" />
		<tag k="ssr:stedsnr" v="3725" />
	</node>
	<node lat="59.99943889015278" lon="8.833477782044085" id="-25817">
		<tag k="name" v="Målarhaugen" />
		<tag k="place" v="farm" />
		<tag k="ssr:stedsnr" v="4120" />
	</node>
	<node lat="59.91315833328836" lon="9.010358327056741" id="-25823">
		<tag k="alt_name" v="Nedre Espeset" />
		<tag k="fixme" v="consider place=hamlet" />
		<tag k="name" v="Espeset" />
		<tag k="place" v="farm" />
		<tag k="ssr:stedsnr" v="4522" />
	</node>
	<node lat="59.897333332793934" lon="8.958769452757977" id="-25824">
		<tag k="alt_name" v="Lii" />
		<tag k="historic" v="shieling" />
		<tag k="name" v="Lie" />
		<tag k="place" v="isolated_dwelling" />
		<tag k="ssr:stedsnr" v="4504" />
	</node>
	<node lat="59.908883332778295" lon="9.038375006896405" id="-25825">
		<tag k="historic" v="shieling" />
		<tag k="name" v="Stæne" />
		<tag k="place" v="isolated_dwelling" />
		<tag k="ssr:stedsnr" v="4523" />
	</node>
	<node lat="59.919561109479176" lon="9.005508340326633" id="-25827">
		<tag k="alt_name" v="Skardstålan" />
		<tag k="historic" v="shieling" />
		<tag k="name" v="Skarstul" />
		<tag k="place" v="isolated_dwelling" />
		<tag k="ssr:stedsnr" v="4536" />
	</node>
	<node lat="59.93045555532064" lon="8.897152771977195" id="-25828">
		<tag k="name" v="Fagerberg" />
		<tag k="place" v="farm" />
		<tag k="ssr:stedsnr" v="4543" />
	</node>
	<node lat="59.865711110722366" lon="8.198566660086595" id="-25831">
		<tag k="alt_name" v="Midtlii" />
		<tag k="name" v="Midtlie" />
		<tag k="place" v="isolated_dwelling" />
		<tag k="ssr:stedsnr" v="4469" />
	</node>
	<node lat="59.8577111143481" lon="9.01589166872016" id="-25836">
		<tag k="fixme" v="multiple name tags, choose one and add the other to alt_name" />
		<tag k="name" v="Mellom Tveito;Tveito, midtre" />
		<tag k="place" v="farm" />
		<tag k="ssr:stedsnr" v="4681" />
	</node>
	<node lat="59.85319167070596" lon="9.053955549177784" id="-25838">
		<tag k="name" v="Berg" />
		<tag k="place" v="farm" />
		<tag k="ssr:stedsnr" v="4686" />
	</node>
	<node lat="60.13925555362083" lon="8.574849999949137" id="-25839">
		<tag k="alt_name" v="Heggje" />
		<tag k="name" v="Hegge" />
		<tag k="place" v="isolated_dwelling" />
		<tag k="ssr:stedsnr" v="4804" />
	</node>
	<node lat="60.129713892755426" lon="8.664713890200794" id="-25841">
		<tag k="alt_name" v="Vollan" />
		<tag k="name" v="Volland" />
		<tag k="place" v="farm" />
		<tag k="ssr:stedsnr" v="4809" />
	</node>
	<node lat="59.85809722259901" lon="8.489252774680931" id="-25843">
		<tag k="alt_name" v="Månelii" />
		<tag k="name" v="Vesle Månelie" />
		<tag k="place" v="isolated_dwelling" />
		<tag k="ssr:stedsnr" v="4863" />
	</node>
	<node lat="59.86155555744388" lon="9.009736109981803" id="-25846">
		<tag k="name" v="Dommerud" />
		<tag k="place" v="farm" />
		<tag k="ssr:stedsnr" v="4701" />
	</node>
	<node lat="59.96976666518935" lon="8.993352775720787" id="-25849">
		<tag k="alt_name" v="Kåsabui" />
		<tag k="historic" v="shieling" />
		<tag k="name" v="Kåsåbue" />
		<tag k="place" v="isolated_dwelling" />
		<tag k="ssr:stedsnr" v="4909" />
	</node>
	<node lat="59.99652778015435" lon="8.976852771734109" id="-25850">
		<tag k="historic" v="shieling" />
		<tag k="name" v="Nilsbu" />
		<tag k="place" v="isolated_dwelling" />
		<tag k="ssr:stedsnr" v="4924" />
	</node>
	<node lat="59.99122777361979" lon="8.851608326792384" id="-25853">
		<tag k="alt_name" v="Rudningen" />
		<tag k="name" v="Runningen" />
		<tag k="place" v="isolated_dwelling" />
		<tag k="ssr:stedsnr" v="4945" />
	</node>
	<node lat="60.061594446163525" lon="8.860472219556721" id="-25856">
		<tag k="historic" v="shieling" />
		<tag k="name" v="Myran" />
		<tag k="place" v="isolated_dwelling" />
		<tag k="ssr:stedsnr" v="5626" />
	</node>
	<node lat="60.086230559005166" lon="8.55834445336016" id="-25857">
		<tag k="name" v="Nystaul" />
		<tag k="place" v="isolated_dwelling" />
		<tag k="ssr:stedsnr" v="5809" />
	</node>
	<node lat="60.07778889212584" lon="8.610088888866665" id="-25859">
		<tag k="alt_name" v="Lågerjo" />
		<tag k="name" v="Lågarrjo" />
		<tag k="place" v="isolated_dwelling" />
		<tag k="ssr:stedsnr" v="5826" />
	</node>
	<node lat="60.09984149130484" lon="8.267518330373873" id="-25861">
		<tag k="name" v="Synken" />
		<tag k="place" v="locality" />
		<tag k="ssr:stedsnr" v="5868" />
	</node>
	<node lat="60.027799997215475" lon="8.554675008029548" id="-25867">
		<tag k="alt_name" v="Gjerdalen, gamle" />
		<tag k="historic" v="shieling" />
		<tag k="name" v="Gamle Gjerdalen" />
		<tag k="place" v="isolated_dwelling" />
		<tag k="ssr:stedsnr" v="5767" />
	</node>
	<node lat="60.01786388917803" lon="8.615252773439996" id="-25868">
		<tag k="name" v="Ålykkja" />
		<tag k="place" v="locality" />
		<tag k="ssr:stedsnr" v="5775" />
	</node>
	<node lat="59.8387333337651" lon="8.32581111952796" id="-25872">
		<tag k="historic" v="shieling" />
		<tag k="name" v="Storli" />
		<tag k="place" v="isolated_dwelling" />
		<tag k="ssr:stedsnr" v="32401" />
	</node>
	<node lat="59.84250277967276" lon="8.324430552001314" id="-25873">
		<tag k="name" v="Nuten" />
		<tag k="place" v="locality" />
		<tag k="ssr:stedsnr" v="32407" />
	</node>
	<node lat="59.84091666905137" lon="8.418855563933239" id="-25879">
		<tag k="historic" v="shieling" />
		<tag k="name" v="Lia" />
		<tag k="place" v="isolated_dwelling" />
		<tag k="ssr:stedsnr" v="33619" />
	</node>
	<node lat="59.985230557837575" lon="8.723852778323623" id="-25880">
		<tag k="name" v="Fossheim" />
		<tag k="place" v="farm" />
		<tag k="ssr:stedsnr" v="33666" />
	</node>
	<node lat="59.853519446683066" lon="8.462277773570264" id="-25881">
		<tag k="historic" v="shieling" />
		<tag k="name" v="Måneli" />
		<tag k="place" v="isolated_dwelling" />
		<tag k="ssr:stedsnr" v="33668" />
	</node>
	<node lat="59.97457778160789" lon="8.76717222394742" id="-25882">
		<tag k="name" v="Sveinskås" />
		<tag k="place" v="locality" />
		<tag k="ssr:stedsnr" v="33669" />
	</node>
	<node lat="59.975861113660955" lon="8.713033332916904" id="-25888">
		<tag k="name" v="Gravin" />
		<tag k="place" v="locality" />
		<tag k="ssr:stedsnr" v="33868" />
	</node>
	<node lat="59.880949995938536" lon="8.665608338502611" id="-25889">
		<tag k="name" v="Svadde industriområde" />
		<tag k="place" v="quarter" />
		<tag k="ssr:stedsnr" v="34360" />
	</node>
	<node lat="60.01649166691256" lon="8.658436102915317" id="-25891">
		<tag k="name" v="Øvre Dakkeset" />
		<tag k="place" v="locality" />
		<tag k="ssr:stedsnr" v="34310" />
	</node>
	<node lat="59.90474166628096" lon="8.710927769900975" id="-25893">
		<tag k="name" v="Rotemyr" />
		<tag k="place" v="farm" />
		<tag k="ssr:stedsnr" v="34594" />
	</node>
	<node lat="59.938402776776684" lon="8.929866665582606" id="-25897">
		<tag k="alt_name" v="Slettungdalen" />
		<tag k="name" v="Slettomdalen" />
		<tag k="place" v="farm" />
		<tag k="ssr:stedsnr" v="35503" />
	</node>
	<node lat="60.03047040752178" lon="8.825290227145677" id="-25898">
		<tag k="name" v="Gollemogen" />
		<tag k="place" v="farm" />
		<tag k="ssr:stedsnr" v="35517" />
	</node>
	<node lat="60.059063887328094" lon="8.731872226176936" id="-25899">
		<tag k="name" v="Sambu" />
		<tag k="place" v="isolated_dwelling" />
		<tag k="ssr:stedsnr" v="35578" />
	</node>
	<node lat="60.06177500032846" lon="8.752100001612394" id="-25901">
		<tag k="historic" v="shieling" />
		<tag k="name" v="Jonset" />
		<tag k="place" v="isolated_dwelling" />
		<tag k="ssr:stedsnr" v="35625" />
	</node>
	<node lat="59.91313332988184" lon="8.72082778343585" id="-25918">
		<tag k="name" v="Gaustå" />
		<tag k="place" v="farm" />
		<tag k="ssr:stedsnr" v="237925" />
	</node>
	<node lat="60.117980555861564" lon="8.717052776071593" id="-25925">
		<tag k="name" v="Haugstad" />
		<tag k="place" v="farm" />
		<tag k="ssr:stedsnr" v="46589" />
	</node>
	<node lat="59.854225004194994" lon="9.025613890317432" id="-25930">
		<tag k="alt_name" v="Vestre Bakka" />
		<tag k="name" v="Bakka" />
		<tag k="place" v="farm" />
		<tag k="ssr:stedsnr" v="60911" />
	</node>
	<node lat="59.87975555427753" lon="8.717230561558459" id="-25931">
		<tag k="name" v="Brennstaul" />
		<tag k="place" v="isolated_dwelling" />
		<tag k="ssr:stedsnr" v="64121" />
	</node>
	<node lat="59.86863610909728" lon="8.52935833459709" id="-25934">
		<tag k="historic" v="shieling" />
		<tag k="name" v="Fuglestein" />
		<tag k="place" v="isolated_dwelling" />
		<tag k="ssr:stedsnr" v="64166" />
	</node>
	<node lat="59.9581444415585" lon="8.572299993105542" id="-25936">
		<tag k="historic" v="shieling" />
		<tag k="name" v="Buin" />
		<tag k="place" v="isolated_dwelling" />
		<tag k="ssr:stedsnr" v="64014" />
	</node>
	<node lat="59.87913333203436" lon="8.271688896423528" id="-25941">
		<tag k="alt_name" v="Hardingroi" />
		<tag k="historic" v="shieling" />
		<tag k="name" v="Hardingroe" />
		<tag k="place" v="isolated_dwelling" />
		<tag k="ssr:stedsnr" v="64464" />
	</node>
	<node lat="59.86907838767326" lon="9.020912438771363" id="-25944">
		<tag k="alt_name" v="Eggen, s" />
		<tag k="name" v="Søndre Eggen" />
		<tag k="place" v="isolated_dwelling" />
		<tag k="ssr:stedsnr" v="64718" />
	</node>
	<node lat="59.979566666017995" lon="8.891297215898302" id="-25945">
		<tag k="alt_name" v="Rudskåsi" />
		<tag k="historic" v="shieling" />
		<tag k="name" v="Russkåse" />
		<tag k="place" v="isolated_dwelling" />
		<tag k="ssr:stedsnr" v="64905" />
	</node>
	<node lat="59.99664166800485" lon="8.825502785367894" id="-25946">
		<tag k="name" v="Moen" />
		<tag k="place" v="quarter" />
		<tag k="ssr:stedsnr" v="65087" />
	</node>
	<node lat="59.90272222532154" lon="9.015274997951746" id="-25957">
		<tag k="alt_name" v="Steinsbakken" />
		<tag k="name" v="Steinbakken" />
		<tag k="place" v="farm" />
		<tag k="ssr:stedsnr" v="65504" />
	</node>
	<node lat="59.912705558453325" lon="8.936641659402179" id="-25958">
		<tag k="alt_name" v="Gunnleiksbui" />
		<tag k="historic" v="shieling" />
		<tag k="name" v="Gunleiksbu" />
		<tag k="place" v="isolated_dwelling" />
		<tag k="ssr:stedsnr" v="65513" />
	</node>
	<node lat="59.91530277452797" lon="8.935386106187718" id="-25961">
		<tag k="name" v="Kleivstul" />
		<tag k="place" v="locality" />
		<tag k="ssr:stedsnr" v="65530" />
	</node>
	<node lat="59.91566389226471" lon="8.99637221915182" id="-25962">
		<tag k="historic" v="shieling" />
		<tag k="name" v="Dokkestul" />
		<tag k="place" v="isolated_dwelling" />
		<tag k="ssr:stedsnr" v="65533" />
	</node>
	<node lat="59.91526111357897" lon="8.984191669265117" id="-25963">
		<tag k="name" v="Vatnali kafe" />
		<tag k="place" v="isolated_dwelling" />
		<tag k="ssr:stedsnr" v="65534" />
	</node>
	<node lat="60.10788333030108" lon="8.721450005117212" id="-25968">
		<tag k="alt_name" v="Veststaulen" />
		<tag k="historic" v="shieling" />
		<tag k="name" v="Vasstaul" />
		<tag k="place" v="isolated_dwelling" />
		<tag k="ssr:stedsnr" v="65822" />
	</node>
	<node lat="60.083177774665" lon="8.665455559721623" id="-25969">
		<tag k="alt_name" v="Ålmenningan" />
		<tag k="name" v="Ålmenningen" />
		<tag k="place" v="isolated_dwelling" />
		<tag k="ssr:stedsnr" v="65862" />
	</node>
	<node lat="60.078086110938145" lon="8.687627782198875" id="-25970">
		<tag k="name" v="Geiskli" />
		<tag k="place" v="farm" />
		<tag k="ssr:stedsnr" v="65867" />
	</node>
	<node lat="60.07101388716797" lon="8.871311109040253" id="-25972">
		<tag k="alt_name" v="Myreputtstaulen" />
		<tag k="historic" v="shieling" />
		<tag k="name" v="Myreputt" />
		<tag k="place" v="isolated_dwelling" />
		<tag k="ssr:stedsnr" v="65748" />
	</node>
	<node lat="60.1250055521794" lon="8.685636104267848" id="-25975">
		<tag k="name" v="Haugen" />
		<tag k="place" v="farm" />
		<tag k="ssr:stedsnr" v="65798" />
	</node>
	<node lat="59.97419721933268" lon="8.96434999133032" id="-25976">
		<tag k="alt_name" v="Heggeflatin" />
		<tag k="historic" v="shieling" />
		<tag k="name" v="Heggeflaten" />
		<tag k="place" v="isolated_dwelling" />
		<tag k="ssr:stedsnr" v="65906" />
	</node>
	<node lat="60.008319447446745" lon="8.642308327682603" id="-25983">
		<tag k="alt_name" v="Nord Brekke" />
		<tag k="name" v="Brekke" />
		<tag k="place" v="farm" />
		<tag k="ssr:stedsnr" v="66946" />
	</node>
	<node lat="59.95658333150994" lon="8.824652781055594" id="-25987">
		<tag k="alt_name" v="Nordre Strånd" />
		<tag k="name" v="Strond" />
		<tag k="place" v="farm" />
		<tag k="ssr:stedsnr" v="246064" />
	</node>
	<node lat="59.86909166984092" lon="8.539661114874441" id="-25991">
		<tag k="historic" v="shieling" />
		<tag k="name" v="Myrstaul" />
		<tag k="place" v="isolated_dwelling" />
		<tag k="ssr:stedsnr" v="246166" />
	</node>
	<node lat="59.92096111207777" lon="8.732163885840317" id="-25993">
		<tag k="name" v="Bjørtuft" />
		<tag k="place" v="farm" />
		<tag k="ssr:stedsnr" v="246188" />
	</node>
	<node lat="59.91915833566025" lon="8.698786107862196" id="-25994">
		<tag k="historic" v="shieling" />
		<tag k="name" v="Geitåsen" />
		<tag k="place" v="isolated_dwelling" />
		<tag k="ssr:stedsnr" v="246193" />
	</node>
	<node lat="59.93100833766134" lon="8.931536107565927" id="-25999">
		<tag k="alt_name" v="Bergskau" />
		<tag k="name" v="Bergskog" />
		<tag k="place" v="farm" />
		<tag k="ssr:stedsnr" v="246530" />
	</node>
	<node lat="59.93273611171365" lon="8.978763883510833" id="-26000">
		<tag k="alt_name" v="Løkestul" />
		<tag k="historic" v="shieling" />
		<tag k="name" v="Løkjestul" />
		<tag k="place" v="isolated_dwelling" />
		<tag k="ssr:stedsnr" v="246535" />
	</node>
	<node lat="59.87849491783008" lon="9.046724431058296" id="-26005">
		<tag k="name" v="Plassen" />
		<tag k="place" v="isolated_dwelling" />
		<tag k="ssr:stedsnr" v="246693" />
	</node>
	<node lat="59.94163055938173" lon="8.812972230181442" id="-26007">
		<tag k="name" v="Nyskriu" />
		<tag k="place" v="farm" />
		<tag k="ssr:stedsnr" v="247031" />
	</node>
	<node lat="59.933397225375096" lon="8.62397777203496" id="-26008">
		<tag k="alt_name" v="Årjo, austre" />
		<tag k="historic" v="shieling" />
		<tag k="name" v="Aust Årjo" />
		<tag k="place" v="isolated_dwelling" />
		<tag k="ssr:stedsnr" v="247033" />
	</node>
	<node lat="59.85678055161946" lon="8.439658330754265" id="-26016">
		<tag k="aerialway" v="drag_lift" />
		<tag k="fixme" v="consider the other aerialway types" />
		<tag k="name" v="Skiheis" />
		<tag k="ssr:stedsnr" v="94160" />
	</node>
	<node lat="60.02237777594245" lon="8.745963883861412" id="-26018">
		<tag k="name" v="Sudbakkedalen" />
		<tag k="place" v="locality" />
		<tag k="ssr:stedsnr" v="94181" />
	</node>
	<node lat="59.91391944616035" lon="8.875949996348172" id="-26019">
		<tag k="name" v="Sud Ausa" />
		<tag k="place" v="locality" />
		<tag k="ssr:stedsnr" v="94182" />
	</node>
	<node lat="59.92592221957655" lon="8.823786118911006" id="-26022">
		<tag k="name" v="Låvekåse" />
		<tag k="place" v="locality" />
		<tag k="ssr:stedsnr" v="94390" />
	</node>
	<node lat="59.93752778114314" lon="8.807302776542587" id="-26023">
		<tag k="name" v="Bang" />
		<tag k="place" v="isolated_dwelling" />
		<tag k="ssr:stedsnr" v="247204" />
	</node>
	<node lat="59.975388888363796" lon="8.667827782609116" id="-26026">
		<tag k="name" v="Hengjelie" />
		<tag k="place" v="locality" />
		<tag k="ssr:stedsnr" v="94810" />
	</node>
	<node lat="59.96830833225921" lon="8.803752776883542" id="-26027">
		<tag k="fixme" v="consider place=hamlet" />
		<tag k="name" v="Buverud" />
		<tag k="place" v="farm" />
		<tag k="ssr:stedsnr" v="94919" />
	</node>
	<node lat="59.997188887662844" lon="8.693688896201722" id="-26032">
		<tag k="alt_name" v="Roi" />
		<tag k="name" v="Roe" />
		<tag k="place" v="farm" />
		<tag k="ssr:stedsnr" v="247106" />
	</node>
	<node lat="60.027844445088306" lon="8.828997225151571" id="-26038">
		<tag k="name" v="Steinsland" />
		<tag k="place" v="isolated_dwelling" />
		<tag k="ssr:stedsnr" v="96387" />
	</node>
	<node lat="60.034844446329515" lon="8.807616668017069" id="-26039">
		<tag k="name" v="Tjuvenholt" />
		<tag k="place" v="locality" />
		<tag k="ssr:stedsnr" v="96464" />
	</node>
	<node lat="60.03362500299564" lon="8.742194447529572" id="-26045">
		<tag k="name" v="Underrue" />
		<tag k="place" v="farm" />
		<tag k="ssr:stedsnr" v="96716" />
	</node>
	<node lat="59.98315555298437" lon="8.891566674885766" id="-26049">
		<tag k="name" v="Øvre Brendstaulen" />
		<tag k="place" v="locality" />
		<tag k="ssr:stedsnr" v="97022" />
	</node>
	<node lat="60.003424995629025" lon="8.843872221116996" id="-26050">
		<tag k="name" v="Vetlesbøen" />
		<tag k="place" v="farm" />
		<tag k="ssr:stedsnr" v="97025" />
	</node>
	<node lat="59.843111109165505" lon="9.019202783335402" id="-26052">
		<tag k="alt_name" v="Vastveit" />
		<tag k="fixme" v="consider place=hamlet" />
		<tag k="name" v="Vasstveit" />
		<tag k="place" v="farm" />
		<tag k="ssr:stedsnr" v="247644" />
	</node>
	<node lat="59.847158328972775" lon="9.142125008866726" id="-26053">
		<tag k="historic" v="shieling" />
		<tag k="name" v="Liset" />
		<tag k="place" v="isolated_dwelling" />
		<tag k="ssr:stedsnr" v="247649" />
	</node>
	<node lat="59.80454722587967" lon="9.085397229419602" id="-26054">
		<tag k="name" v="Blefjell camping" />
		<tag k="ssr:stedsnr" v="97106" />
		<tag k="tourism" v="camp_site" />
	</node>
	<node lat="59.84711389114379" lon="9.009575007856245" id="-26055">
		<tag k="name" v="Bruflot" />
		<tag k="place" v="farm" />
		<tag k="ssr:stedsnr" v="247653" />
	</node>
	<node lat="59.998369441439664" lon="8.949752783097932" id="-26057">
		<tag k="name" v="Dumpenhaug" />
		<tag k="place" v="locality" />
		<tag k="ssr:stedsnr" v="97210" />
	</node>
	<node lat="60.149441669595944" lon="8.627627777087818" id="-26059">
		<tag k="name" v="Steinset" />
		<tag k="place" v="isolated_dwelling" />
		<tag k="ssr:stedsnr" v="247749" />
	</node>
	<node lat="60.0786777793557" lon="8.864633335680908" id="-26061">
		<tag k="historic" v="shieling" />
		<tag k="name" v="Mydalen" />
		<tag k="place" v="isolated_dwelling" />
		<tag k="ssr:stedsnr" v="97608" />
	</node>
	<node lat="60.03261666348864" lon="8.604500002811879" id="-26062">
		<tag k="historic" v="shieling" />
		<tag k="name" v="Nuthovde" />
		<tag k="place" v="isolated_dwelling" />
		<tag k="ssr:stedsnr" v="247786" />
	</node>
	<node lat="60.06370833736362" lon="8.747361118285534" id="-26065">
		<tag k="alt_name" v="Hallvorstaul" />
		<tag k="historic" v="shieling" />
		<tag k="name" v="Halvorstaul" />
		<tag k="place" v="isolated_dwelling" />
		<tag k="ssr:stedsnr" v="247855" />
	</node>
	<node lat="59.88963888810595" lon="9.047716660204397" id="-26066">
		<tag k="name" v="Søndre Bergelie" />
		<tag k="place" v="farm" />
		<tag k="ssr:stedsnr" v="97919" />
	</node>
	<node lat="60.08029999854106" lon="8.644350007783288" id="-26067">
		<tag k="alt_name" v="Mårdal" />
		<tag k="fixme" v="consider place=hamlet" />
		<tag k="name" v="Mårdalen" />
		<tag k="place" v="farm" />
		<tag k="ssr:stedsnr" v="247838" />
	</node>
	<node lat="60.07855833192114" lon="8.759725005104636" id="-26068">
		<tag k="alt_name" v="Øvre Torgrimset" />
		<tag k="historic" v="shieling" />
		<tag k="name" v="Torgrimset" />
		<tag k="place" v="isolated_dwelling" />
		<tag k="ssr:stedsnr" v="247847" />
	</node>
	<node lat="59.87298888949836" lon="9.030908332315013" id="-26070">
		<tag k="name" v="Borgum" />
		<tag k="place" v="isolated_dwelling" />
		<tag k="ssr:stedsnr" v="97959" />
	</node>
	<node lat="60.018113886883576" lon="8.840147221339636" id="-26082">
		<tag k="alt_name" v="Vålun;Vålund" />
		<tag k="fixme" v="consider place=hamlet" />
		<tag k="name" v="Vålon" />
		<tag k="place" v="farm" />
		<tag k="ssr:stedsnr" v="247947" />
	</node>
	<node lat="60.07745833372389" lon="8.689613885678298" id="-26084">
		<tag k="name" v="Sud Geisklid" />
		<tag k="place" v="farm" />
		<tag k="ssr:stedsnr" v="106222" />
	</node>
	<node lat="60.075402774593336" lon="8.674077768859625" id="-26085">
		<tag k="name" v="Salmakerholet" />
		<tag k="place" v="locality" />
		<tag k="ssr:stedsnr" v="106224" />
	</node>
	<node lat="59.868405554014" lon="8.556100004350835" id="-26109">
		<tag k="historic" v="shieling" />
		<tag k="name" v="Hovda" />
		<tag k="place" v="isolated_dwelling" />
		<tag k="ssr:stedsnr" v="125199" />
	</node>
	<node lat="59.92675000194328" lon="8.957861117188628" id="-26111">
		<tag k="alt_name" v="Rudningan" />
		<tag k="name" v="Runningan" />
		<tag k="place" v="isolated_dwelling" />
		<tag k="ssr:stedsnr" v="125559" />
	</node>
	<node lat="59.94670000295685" lon="8.954963894661534" id="-26112">
		<tag k="alt_name" v="Fjellstul, s" />
		<tag k="historic" v="shieling" />
		<tag k="name" v="Øvre Fjellstul" />
		<tag k="place" v="isolated_dwelling" />
		<tag k="ssr:stedsnr" v="125598" />
	</node>
	<node lat="60.01505278097653" lon="8.84817500375519" id="-26118">
		<tag k="alt_name" v="Eggerudgrendi, midtre" />
		<tag k="name" v="Eggerudgrende" />
		<tag k="place" v="hamlet" />
		<tag k="ssr:stedsnr" v="126305" />
	</node>
	<node lat="60.014575000867865" lon="8.971666674171878" id="-26121">
		<tag k="alt_name" v="Skirvestaulen" />
		<tag k="historic" v="shieling" />
		<tag k="name" v="Skirvestaul" />
		<tag k="place" v="isolated_dwelling" />
		<tag k="ssr:stedsnr" v="126301" />
	</node>
	<node lat="60.05181944315163" lon="8.83598055692737" id="-26123">
		<tag k="historic" v="shieling" />
		<tag k="name" v="Herlaugstaul" />
		<tag k="place" v="isolated_dwelling" />
		<tag k="ssr:stedsnr" v="126751" />
	</node>
	<node lat="60.05402500283174" lon="8.824283337661072" id="-26124">
		<tag k="alt_name" v="Nord Skifterud" />
		<tag k="name" v="Skifterud" />
		<tag k="place" v="farm" />
		<tag k="ssr:stedsnr" v="126754" />
	</node>
	<node lat="60.02916389121432" lon="8.492802782160629" id="-26125">
		<tag k="name" v="Barbu" />
		<tag k="place" v="isolated_dwelling" />
		<tag k="ssr:stedsnr" v="126755" />
	</node>
	<node lat="60.03328055161536" lon="8.835422222956458" id="-26126">
		<tag k="fixme" v="consider place=hamlet" />
		<tag k="name" v="Gollo" />
		<tag k="place" v="farm" />
		<tag k="ssr:stedsnr" v="126761" />
	</node>
	<node lat="60.13484444353469" lon="8.648241667191796" id="-26127">
		<tag k="alt_name" v="Gunnleiksrudgrende;Gunleksrud" />
		<tag k="fixme" v="consider place=hamlet" />
		<tag k="name" v="Gunnleiksrud" />
		<tag k="place" v="farm" />
		<tag k="ssr:stedsnr" v="126766" />
	</node>
	<node lat="60.13333055403928" lon="8.705969443104962" id="-26128">
		<tag k="historic" v="shieling" />
		<tag k="name" v="Sjåheim" />
		<tag k="place" v="isolated_dwelling" />
		<tag k="ssr:stedsnr" v="126767" />
	</node>
	<node lat="60.09755000291653" lon="8.75895555935539" id="-26134">
		<tag k="alt_name" v="Slettemo" />
		<tag k="name" v="Slettmo" />
		<tag k="place" v="farm" />
		<tag k="ssr:stedsnr" v="126797" />
	</node>
	<node lat="60.073166378539916" lon="8.705427499595414" id="-26143">
		<tag k="name" v="Urdin" />
		<tag k="place" v="farm" />
		<tag k="ssr:stedsnr" v="126845" />
	</node>
	<node lat="60.073969440033984" lon="8.768830561547064" id="-26145">
		<tag k="name" v="Kåsi" />
		<tag k="place" v="farm" />
		<tag k="ssr:stedsnr" v="126848" />
	</node>
	<node lat="59.84431111079661" lon="8.407727771023046" id="-26151">
		<tag k="name" v="Brenna" />
		<tag k="place" v="isolated_dwelling" />
		<tag k="ssr:stedsnr" v="154608" />
	</node>
	<node lat="59.84540555622226" lon="8.411313889535041" id="-26152">
		<tag k="historic" v="shieling" />
		<tag k="name" v="Bergstaullie" />
		<tag k="place" v="isolated_dwelling" />
		<tag k="ssr:stedsnr" v="154610" />
	</node>
	<node lat="59.86883888649592" lon="8.451333327901823" id="-26154">
		<tag k="historic" v="shieling" />
		<tag k="name" v="Hovdestaul" />
		<tag k="place" v="isolated_dwelling" />
		<tag k="ssr:stedsnr" v="154859" />
	</node>
	<node lat="59.938458337719496" lon="8.841266673648143" id="-26155">
		<tag k="name" v="Nordre Håkånes" />
		<tag k="place" v="farm" />
		<tag k="ssr:stedsnr" v="154917" />
	</node>
	<node lat="59.95982777630854" lon="8.523855560576257" id="-26156">
		<tag k="name" v="Hesteløkjin" />
		<tag k="place" v="locality" />
		<tag k="ssr:stedsnr" v="155110" />
	</node>
	<node lat="60.018188885615835" lon="8.77362499111718" id="-26158">
		<tag k="name" v="Gamle Skogshytta" />
		<tag k="place" v="locality" />
		<tag k="ssr:stedsnr" v="155203" />
	</node>
	<node lat="59.970616667170965" lon="8.75463056283944" id="-26163">
		<tag k="name" v="Fjosstaul" />
		<tag k="place" v="locality" />
		<tag k="ssr:stedsnr" v="155557" />
	</node>
	<node lat="59.97071666972635" lon="8.758158330947396" id="-26164">
		<tag k="name" v="Finnekås" />
		<tag k="place" v="locality" />
		<tag k="ssr:stedsnr" v="155561" />
	</node>
	<node lat="59.888363884423704" lon="8.60879999546953" id="-26166">
		<tag k="name" v="Brandshytta" />
		<tag k="place" v="locality" />
		<tag k="ssr:stedsnr" v="155602" />
	</node>
	<node lat="59.880386110105796" lon="8.565336105029884" id="-26167">
		<tag k="name" v="Villavegen" />
		<tag k="place" v="quarter" />
		<tag k="ssr:stedsnr" v="155657" />
	</node>
	<node lat="59.97438610964893" lon="8.695377775201543" id="-26168">
		<tag k="name" v="Spånem" />
		<tag k="place" v="farm" />
		<tag k="ssr:stedsnr" v="155821" />
	</node>
	<node lat="60.00685000017298" lon="8.867636115684117" id="-26174">
		<tag k="name" v="Haugåsen" />
		<tag k="place" v="locality" />
		<tag k="ssr:stedsnr" v="157151" />
	</node>
	<node lat="60.041538890763135" lon="8.816602771550173" id="-26176">
		<tag k="name" v="Rennehol" />
		<tag k="place" v="farm" />
		<tag k="ssr:stedsnr" v="157312" />
	</node>
	<node lat="60.032450672053955" lon="8.82004350638447" id="-26178">
		<tag k="name" v="Sanderud" />
		<tag k="place" v="farm" />
		<tag k="ssr:stedsnr" v="157404" />
	</node>
	<node lat="59.865252776052564" lon="9.03056389546323" id="-26180">
		<tag k="name" v="Høyset nedre" />
		<tag k="place" v="farm" />
		<tag k="ssr:stedsnr" v="157489" />
	</node>
	<node lat="59.97406388917652" lon="8.87441667513759" id="-26181">
		<tag k="name" v="Vettervegkåse" />
		<tag k="place" v="locality" />
		<tag k="ssr:stedsnr" v="157620" />
	</node>
	<node lat="59.9776444474356" lon="8.85229721519398" id="-26182">
		<tag k="name" v="Holet" />
		<tag k="place" v="locality" />
		<tag k="ssr:stedsnr" v="157623" />
	</node>
	<node lat="59.914702779143205" lon="9.071738882662773" id="-26187">
		<tag k="name" v="Nordstul" />
		<tag k="place" v="locality" />
		<tag k="ssr:stedsnr" v="157859" />
	</node>
	<node lat="59.89145812875942" lon="9.054059855089921" id="-26190">
		<tag k="name" v="Sjåheim" />
		<tag k="place" v="locality" />
		<tag k="ssr:stedsnr" v="157915" />
	</node>
	<node lat="60.102905554576616" lon="8.813691663288921" id="-26195">
		<tag k="name" v="Nord Karlsrud" />
		<tag k="place" v="farm" />
		<tag k="ssr:stedsnr" v="167114" />
	</node>
	<node lat="60.1112777778442" lon="8.689544447518" id="-26196">
		<tag k="historic" v="shieling" />
		<tag k="name" v="Bakhusstaulen" />
		<tag k="place" v="isolated_dwelling" />
		<tag k="ssr:stedsnr" v="167057" />
	</node>
	<node lat="59.99789999891824" lon="8.756363892586432" id="-26213">
		<tag k="alt_name" v="Måremsrud, nordre" />
		<tag k="loc_name" v="Måremsrud" />
		<tag k="name" v="Nord Måremsrud" />
		<tag k="place" v="farm" />
		<tag k="ssr:stedsnr" v="186117" />
	</node>
	<node lat="59.936283334239526" lon="8.806894443332704" id="-26215">
		<tag k="name" v="Fagerstrand" />
		<tag k="place" v="farm" />
		<tag k="ssr:stedsnr" v="186206" />
	</node>
	<node lat="59.93090555167633" lon="8.742766661377146" id="-26216">
		<tag k="alt_name" v="Nestogo Berge;Berge" />
		<tag k="fixme" v="consider place=hamlet" />
		<tag k="name" v="Berg" />
		<tag k="place" v="farm" />
		<tag k="ssr:stedsnr" v="186207" />
	</node>
	<node lat="59.89982777965125" lon="8.769772223324964" id="-26217">
		<tag k="historic" v="shieling" />
		<tag k="name" v="Tjønnset" />
		<tag k="place" v="isolated_dwelling" />
		<tag k="ssr:stedsnr" v="186214" />
	</node>
	<node lat="59.804386106933045" lon="9.030747221065077" id="-26221">
		<tag k="alt_name" v="Bratterudstulen, nordre" />
		<tag k="historic" v="shieling" />
		<tag k="name" v="Nordre Bratterudstulen" />
		<tag k="place" v="isolated_dwelling" />
		<tag k="ssr:stedsnr" v="186674" />
	</node>
	<node lat="59.83211666651564" lon="9.048150003857007" id="-26223">
		<tag k="historic" v="shieling" />
		<tag k="name" v="Djupedal" />
		<tag k="place" v="isolated_dwelling" />
		<tag k="ssr:stedsnr" v="186684" />
	</node>
	<node lat="59.937380556327255" lon="9.042830551160018" id="-26229">
		<tag k="alt_name" v="Svarttjørndalen" />
		<tag k="historic" v="shieling" />
		<tag k="name" v="Svarttjønndalen" />
		<tag k="place" v="isolated_dwelling" />
		<tag k="ssr:stedsnr" v="186594" />
	</node>
	<node lat="59.84379721919965" lon="8.99923888852062" id="-26230">
		<tag k="alt_name" v="Austre Graver;Gråvår;Grave" />
		<tag k="fixme" v="consider place=hamlet" />
		<tag k="name" v="Graver" />
		<tag k="place" v="farm" />
		<tag k="ssr:stedsnr" v="186704" />
	</node>
	<node lat="59.85391944048988" lon="9.042747230326924" id="-26232">
		<tag k="alt_name" v="Grov nordre" />
		<tag k="fixme" v="consider place=hamlet" />
		<tag k="name" v="Grov" />
		<tag k="place" v="farm" />
		<tag k="ssr:stedsnr" v="186711" />
	</node>
	<node lat="59.85889166899929" lon="9.057030562135544" id="-26233">
		<tag k="alt_name" v="Bøen nordre;Bøen" />
		<tag k="name" v="Nordre Bøen" />
		<tag k="place" v="farm" />
		<tag k="ssr:stedsnr" v="186712" />
	</node>
	<node lat="60.14428333601105" lon="8.798683341278913" id="-26234">
		<tag k="fixme" v="consider tourism=alpine_hut or tourism=chalet" />
		<tag k="name" v="Lufsjå" />
		<tag k="ssr:stedsnr" v="186782" />
		<tag k="tourism" v="wilderness_hut" />
	</node>
	<node lat="60.137811110271976" lon="8.640216658736069" id="-26235">
		<tag k="alt_name" v="Skålbø;Skavlbø" />
		<tag k="fixme" v="consider place=hamlet" />
		<tag k="name" v="Skavlebø" />
		<tag k="place" v="farm" />
		<tag k="ssr:stedsnr" v="186786" />
	</node>
	<node lat="60.05491111313041" lon="8.331588893596109" id="-26236">
		<tag k="alt_name" v="Kapelhytta" />
		<tag k="name" v="Cappelenhytta" />
		<tag k="place" v="isolated_dwelling" />
		<tag k="ssr:stedsnr" v="186927" />
	</node>
	<node lat="60.15822500387164" lon="8.375069440783017" id="-26238">
		<tag k="alt_name" v="Dalmonhalle" />
		<tag k="historic" v="shieling" />
		<tag k="name" v="Dalmunnhalli" />
		<tag k="place" v="isolated_dwelling" />
		<tag k="ssr:stedsnr" v="186977" />
	</node>
	<node lat="59.98535965568537" lon="8.860967783712775" id="-26239">
		<tag k="alt_name" v="Lislerudkåsi" />
		<tag k="name" v="Lislerudkåse" />
		<tag k="place" v="isolated_dwelling" />
		<tag k="ssr:stedsnr" v="186884" />
	</node>
	<node lat="60.07366388900022" lon="8.506708334603156" id="-26242">
		<tag k="historic" v="shieling" />
		<tag k="name" v="Øvset" />
		<tag k="place" v="isolated_dwelling" />
		<tag k="ssr:stedsnr" v="187805" />
	</node>
	<node lat="60.0493555511309" lon="8.805197227263424" id="-26248">
		<tag k="alt_name" v="Dillekåsi" />
		<tag k="name" v="Dillekåse" />
		<tag k="place" v="farm" />
		<tag k="ssr:stedsnr" v="187728" />
	</node>
	<node lat="59.88512222018032" lon="9.028711111754859" id="-26258">
		<tag k="name" v="Mellom Rue" />
		<tag k="place" v="farm" />
		<tag k="ssr:stedsnr" v="207034" />
	</node>
	<node lat="59.81285833277201" lon="8.289113893628798" id="-26259">
		<tag k="name" v="Sutangro" />
		<tag k="place" v="isolated_dwelling" />
		<tag k="ssr:stedsnr" v="214131" />
	</node>
	<node lat="60.05194444224798" lon="8.955936102232695" id="-26261">
		<tag k="historic" v="shieling" />
		<tag k="name" v="Sønstaul" />
		<tag k="place" v="isolated_dwelling" />
		<tag k="ssr:stedsnr" v="269952" />
	</node>
	<node lat="59.88087500277959" lon="8.649966671139277" id="-26269">
		<tag k="name" v="Øverland" />
		<tag k="place" v="suburb" />
		<tag k="ssr:stedsnr" v="216375" />
	</node>
	<node lat="59.87289722291198" lon="8.687180554396432" id="-26270">
		<tag k="name" v="Taklie" />
		<tag k="place" v="locality" />
		<tag k="ssr:stedsnr" v="216398" />
	</node>
	<node lat="59.979938885890654" lon="8.740080548092276" id="-26271">
		<tag k="name" v="Brynjulfsplass" />
		<tag k="place" v="locality" />
		<tag k="ssr:stedsnr" v="216472" />
	</node>
	<node lat="59.919900001911586" lon="8.732188889658524" id="-26272">
		<tag k="name" v="Bjørtuftgrende" />
		<tag k="place" v="hamlet" />
		<tag k="ssr:stedsnr" v="216604" />
	</node>
	<node lat="59.910769441433246" lon="8.719994452195149" id="-26274">
		<tag k="name" v="Gaustågrende" />
		<tag k="place" v="hamlet" />
		<tag k="ssr:stedsnr" v="216576" />
	</node>
	<node lat="59.9233611092658" lon="8.766591675064078" id="-26275">
		<tag k="name" v="Nord Einung" />
		<tag k="place" v="farm" />
		<tag k="ssr:stedsnr" v="216589" />
	</node>
	<node lat="59.97281388539013" lon="8.711141671180245" id="-26278">
		<tag k="historic" v="shieling" />
		<tag k="name" v="Myran" />
		<tag k="place" v="isolated_dwelling" />
		<tag k="ssr:stedsnr" v="216780" />
	</node>
	<node lat="59.92948611003615" lon="8.762636109194286" id="-26279">
		<tag k="name" v="Mogen" />
		<tag k="place" v="farm" />
		<tag k="ssr:stedsnr" v="216931" />
	</node>
	<node lat="59.99679444133914" lon="8.747594442888362" id="-26280">
		<tag k="name" v="Måremgrende" />
		<tag k="place" v="hamlet" />
		<tag k="ssr:stedsnr" v="270309" />
	</node>
	<node lat="60.04079721877243" lon="8.804013890784256" id="-26286">
		<tag k="name" v="Sud Tverberg" />
		<tag k="place" v="farm" />
		<tag k="ssr:stedsnr" v="218096" />
	</node>
	<node lat="60.05449721965603" lon="8.800147229539501" id="-26291">
		<tag k="name" v="Briskemyr" />
		<tag k="place" v="locality" />
		<tag k="ssr:stedsnr" v="218403" />
	</node>
	<node lat="59.822922222993306" lon="9.064333336458253" id="-26295">
		<tag k="name" v="Hagen" />
		<tag k="place" v="isolated_dwelling" />
		<tag k="ssr:stedsnr" v="218494" />
	</node>
	<node lat="60.078488886348076" lon="8.862294438671224" id="-26298">
		<tag k="historic" v="shieling" />
		<tag k="name" v="Mågebu" />
		<tag k="place" v="isolated_dwelling" />
		<tag k="ssr:stedsnr" v="218575" />
	</node>
	<node lat="60.07937499590927" lon="8.855516671973957" id="-26301">
		<tag k="historic" v="shieling" />
		<tag k="name" v="Tamburstaulen" />
		<tag k="place" v="isolated_dwelling" />
		<tag k="ssr:stedsnr" v="218592" />
	</node>
	<node lat="60.067099998687134" lon="8.727000000796547" id="-26302">
		<tag k="name" v="Bergelie" />
		<tag k="place" v="locality" />
		<tag k="ssr:stedsnr" v="218822" />
	</node>
	<node lat="60.07559722131432" lon="8.770877781309762" id="-26309">
		<tag k="fixme" v="consider place=hamlet" />
		<tag k="name" v="Fjærdingen" />
		<tag k="place" v="village" />
		<tag k="ssr:stedsnr" v="224814" />
	</node>
	<node lat="60.13835555481967" lon="8.5742166627182" id="-26311">
		<tag k="historic" v="shieling" />
		<tag k="name" v="Storstaul" />
		<tag k="place" v="isolated_dwelling" />
		<tag k="ssr:stedsnr" v="227796" />
	</node>
	<node lat="60.13180833403147" lon="8.663802783863439" id="-26312">
		<tag k="name" v="Grimsrud-nedre" />
		<tag k="place" v="farm" />
		<tag k="ssr:stedsnr" v="228139" />
	</node>
	<node lat="60.142677782073676" lon="8.640747214525577" id="-26313">
		<tag k="historic" v="shieling" />
		<tag k="name" v="Briskestaulen" />
		<tag k="place" v="isolated_dwelling" />
		<tag k="ssr:stedsnr" v="228193" />
	</node>
	<node lat="60.12495833685909" lon="8.688591665165967" id="-26316">
		<tag k="name" v="Myrvold" />
		<tag k="place" v="farm" />
		<tag k="ssr:stedsnr" v="228439" />
	</node>
	<node lat="60.114886113987794" lon="8.72043889708847" id="-26318">
		<tag k="historic" v="shieling" />
		<tag k="name" v="Fjøsstaulen" />
		<tag k="place" v="isolated_dwelling" />
		<tag k="ssr:stedsnr" v="228595" />
	</node>
	<node lat="59.94577222436934" lon="9.093416668322508" id="-26323">
		<tag k="fixme" v="consider tourism=alpine_hut or tourism=chalet" />
		<tag k="name" v="Øvre Fjellstul" />
		<tag k="old_name" v="Øvre Fjellstøl;Fjellstul, øvre" />
		<tag k="ssr:stedsnr" v="237583" />
		<tag k="tourism" v="wilderness_hut" />
	</node>
	<node lat="59.87863055876045" lon="8.653911107249641" id="-26329">
		<tag k="name" v="Nybu" />
		<tag k="place" v="locality" />
		<tag k="ssr:stedsnr" v="246136" />
	</node>
	<node lat="59.99647782156331" lon="8.37438313659237" id="-26331">
		<tag k="name" v="Strengen" />
		<tag k="place" v="isolated_dwelling" />
		<tag k="ssr:stedsnr" v="246268" />
	</node>
	<node lat="59.931569446446794" lon="9.12979999112335" id="-26334">
		<tag k="historic" v="shieling" />
		<tag k="name" v="Lauvhovd" />
		<tag k="place" v="isolated_dwelling" />
		<tag k="ssr:stedsnr" v="246526" />
	</node>
	<node lat="59.89329444619121" lon="9.063277775661309" id="-26335">
		<tag k="alt_name" v="Gveven;Nedre Gveven" />
		<tag k="name" v="Gvæven" />
		<tag k="place" v="farm" />
		<tag k="ssr:stedsnr" v="246703" />
	</node>
	<node lat="59.88730555595048" lon="9.027963896419612" id="-26336">
		<tag k="alt_name" v="Rui, midtre;Rue" />
		<tag k="name" v="Mellom Rue" />
		<tag k="place" v="farm" />
		<tag k="ssr:stedsnr" v="246704" />
	</node>
	<node lat="60.017063893385455" lon="8.852811115308278" id="-26341">
		<tag k="name" v="Larshus" />
		<tag k="place" v="locality" />
		<tag k="ssr:stedsnr" v="247304" />
	</node>
	<node lat="59.865136113558314" lon="8.410186109758142" id="-26344">
		<tag k="historic" v="shieling" />
		<tag k="name" v="Ormefit" />
		<tag k="place" v="isolated_dwelling" />
		<tag k="ssr:stedsnr" v="247456" />
	</node>
	<node lat="59.86148889341263" lon="8.328569448798081" id="-26345">
		<tag k="historic" v="shieling" />
		<tag k="name" v="Listaul" />
		<tag k="place" v="isolated_dwelling" />
		<tag k="ssr:stedsnr" v="247462" />
	</node>
	<node lat="59.8613138898559" lon="8.377308326881058" id="-26346">
		<tag k="historic" v="shieling" />
		<tag k="name" v="Haugstaul" />
		<tag k="place" v="isolated_dwelling" />
		<tag k="ssr:stedsnr" v="247471" />
	</node>
	<node lat="59.80239444629508" lon="9.062386110778569" id="-26354">
		<tag k="alt_name" v="Søndre Dårud" />
		<tag k="fixme" v="consider place=hamlet" />
		<tag k="name" v="Dårud" />
		<tag k="place" v="farm" />
		<tag k="ssr:stedsnr" v="247605" />
	</node>
	<node lat="60.05823332973528" lon="8.95263333652478" id="-26356">
		<tag k="alt_name" v="Rostaulen" />
		<tag k="historic" v="shieling" />
		<tag k="name" v="Roe" />
		<tag k="place" v="isolated_dwelling" />
		<tag k="ssr:stedsnr" v="247616" />
	</node>
	<node lat="60.04417499705523" lon="8.927538884620187" id="-26358">
		<tag k="historic" v="shieling" />
		<tag k="name" v="Nybu" />
		<tag k="place" v="isolated_dwelling" />
		<tag k="ssr:stedsnr" v="247661" />
	</node>
	<node lat="59.83413889090499" lon="8.64408889445375" id="-26361">
		<tag k="name" v="Skriustaul" />
		<tag k="place" v="isolated_dwelling" />
		<tag k="ssr:stedsnr" v="247806" />
	</node>
	<node lat="60.13602830916902" lon="8.511934360349082" id="-26366">
		<tag k="alt_name" v="Mjeltelie" />
		<tag k="name" v="Mjeltelii" />
		<tag k="place" v="locality" />
		<tag k="ssr:stedsnr" v="247765" />
	</node>
	<node lat="60.06572500416408" lon="8.390077770619644" id="-26371">
		<tag k="alt_name" v="Sudkalhovde" />
		<tag k="historic" v="shieling" />
		<tag k="name" v="Sudkalhovd" />
		<tag k="place" v="isolated_dwelling" />
		<tag k="ssr:stedsnr" v="247910" />
	</node>
	<node lat="60.06832777358453" lon="8.363241675530231" id="-26372">
		<tag k="alt_name" v="Nord-Kalhovde" />
		<tag k="historic" v="shieling" />
		<tag k="name" v="Kalhovd" />
		<tag k="place" v="isolated_dwelling" />
		<tag k="ssr:stedsnr" v="247914" />
	</node>
	<node lat="60.06111388586409" lon="8.452830547381671" id="-26374">
		<tag k="alt_name" v="Bjønnhovde" />
		<tag k="name" v="Bjørnhovd" />
		<tag k="place" v="locality" />
		<tag k="ssr:stedsnr" v="247926" />
	</node>
	<node lat="60.003358337825304" lon="8.612666674071715" id="-26375">
		<tag k="alt_name" v="Brennstaul" />
		<tag k="historic" v="shieling" />
		<tag k="name" v="Brennestaulen" />
		<tag k="place" v="isolated_dwelling" />
		<tag k="ssr:stedsnr" v="247954" />
	</node>
	<node lat="60.00455221449806" lon="8.65801285190328" id="-26376">
		<tag k="alt_name" v="Langset" />
		<tag k="name" v="Långset" />
		<tag k="place" v="farm" />
		<tag k="ssr:stedsnr" v="247958" />
	</node>
	<node lat="59.9999916690571" lon="8.75244444369219" id="-26380">
		<tag k="name" v="Haugland" />
		<tag k="place" v="farm" />
		<tag k="ssr:stedsnr" v="247971" />
	</node>
	<node lat="60.0683277768143" lon="8.335513896478226" id="-26385">
		<tag k="alt_name" v="Kalhovd, gamle" />
		<tag k="name" v="Gamle Kalhovd" />
		<tag k="place" v="locality" />
		<tag k="ssr:stedsnr" v="248925" />
	</node>
	<node lat="60.009072224166104" lon="8.835938881588877" id="-26387">
		<tag k="name" v="Einstapefloten" />
		<tag k="place" v="locality" />
		<tag k="ssr:stedsnr" v="458042" />
	</node>
	<node lat="59.99727778160899" lon="8.830455556366507" id="-26389">
		<tag k="name" v="Flaten" />
		<tag k="place" v="farm" />
		<tag k="ssr:stedsnr" v="458082" />
	</node>
	<node lat="59.86655555766209" lon="8.38653611839542" id="-26390">
		<tag k="name" v="Øvre Smetbak" />
		<tag k="place" v="locality" />
		<tag k="ssr:stedsnr" v="458184" />
	</node>
	<node lat="59.91710277377805" lon="8.869847226796562" id="-26391">
		<tag k="name" v="Lyngflåt" />
		<tag k="place" v="isolated_dwelling" />
		<tag k="ssr:stedsnr" v="458185" />
	</node>
	<node lat="59.85745277717758" lon="8.441141668630841" id="-26392">
		<tag k="historic" v="shieling" />
		<tag k="name" v="Lyklobak" />
		<tag k="place" v="isolated_dwelling" />
		<tag k="ssr:stedsnr" v="458151" />
	</node>
	<node lat="59.98886666371642" lon="8.825580561577" id="-26396">
		<tag k="name" v="Elvarheim" />
		<tag k="place" v="farm" />
		<tag k="ssr:stedsnr" v="458482" />
	</node>
	<node lat="59.986091664038256" lon="8.754763888376528" id="-26400">
		<tag k="name" v="Mogen" />
		<tag k="place" v="farm" />
		<tag k="ssr:stedsnr" v="458723" />
	</node>
	<node lat="60.004286110903266" lon="8.656938890322742" id="-26404">
		<tag k="name" v="Långset" />
		<tag k="place" v="isolated_dwelling" />
		<tag k="ssr:stedsnr" v="458795" />
	</node>
	<node lat="60.00278004008864" lon="8.665562596212618" id="-26409">
		<tag k="name" v="Hagen" />
		<tag k="place" v="locality" />
		<tag k="ssr:stedsnr" v="458957" />
	</node>
	<node lat="59.957302777212256" lon="8.606122222259351" id="-26413">
		<tag k="name" v="Øvre Bjørkeset" />
		<tag k="place" v="locality" />
		<tag k="ssr:stedsnr" v="459243" />
	</node>
	<node lat="59.88770555589542" lon="8.516524998592029" id="-26417">
		<tag k="historic" v="shieling" />
		<tag k="name" v="Øvstestaul" />
		<tag k="place" v="isolated_dwelling" />
		<tag k="ssr:stedsnr" v="459548" />
	</node>
	<node lat="60.006119442714464" lon="8.827402771451391" id="-26419">
		<tag k="name" v="Pålerud" />
		<tag k="place" v="isolated_dwelling" />
		<tag k="ssr:stedsnr" v="276037" />
	</node>
	<node lat="59.9977861140598" lon="8.841772216112886" id="-26422">
		<tag k="name" v="Bokko" />
		<tag k="place" v="isolated_dwelling" />
		<tag k="ssr:stedsnr" v="276123" />
	</node>
	<node lat="59.901466663589396" lon="8.891225003331146" id="-26424">
		<tag k="name" v="Gvålvike" />
		<tag k="place" v="locality" />
		<tag k="ssr:stedsnr" v="276182" />
	</node>
	<node lat="59.86755277887295" lon="8.527302783905869" id="-26425">
		<tag k="name" v="Klokksåsen" />
		<tag k="place" v="locality" />
		<tag k="ssr:stedsnr" v="276203" />
	</node>
	<node lat="59.867405555380046" lon="8.537922213366844" id="-26426">
		<tag k="historic" v="shieling" />
		<tag k="name" v="Haugestaul" />
		<tag k="place" v="isolated_dwelling" />
		<tag k="ssr:stedsnr" v="276205" />
	</node>
	<node lat="59.95793610928396" lon="8.647438887592289" id="-26428">
		<tag k="name" v="Bråtåstaul" />
		<tag k="place" v="locality" />
		<tag k="ssr:stedsnr" v="459769" />
	</node>
	<node lat="60.004827774869085" lon="8.746744436693238" id="-26429">
		<tag k="name" v="Berget" />
		<tag k="place" v="isolated_dwelling" />
		<tag k="ssr:stedsnr" v="276302" />
	</node>
	<node lat="59.959227774160716" lon="8.811549996245223" id="-26430">
		<tag k="name" v="Nedre Gøynesstaulen" />
		<tag k="place" v="locality" />
		<tag k="ssr:stedsnr" v="276523" />
	</node>
	<node lat="59.87887777392175" lon="8.51109999497875" id="-26432">
		<tag k="fixme" v="consider place=hamlet" />
		<tag k="name" v="Våtveit" />
		<tag k="place" v="farm" />
		<tag k="ssr:stedsnr" v="276606" />
	</node>
	<node lat="59.929858335484624" lon="8.79157778417793" id="-26436">
		<tag k="fixme" v="consider place=hamlet" />
		<tag k="name" v="Ørnes" />
		<tag k="place" v="farm" />
		<tag k="ssr:stedsnr" v="276808" />
	</node>
	<node lat="59.96986667072714" lon="8.659955554860165" id="-26438">
		<tag k="historic" v="shieling" />
		<tag k="name" v="Åsstaulan" />
		<tag k="place" v="isolated_dwelling" />
		<tag k="ssr:stedsnr" v="276823" />
	</node>
	<node lat="59.974908335613634" lon="8.661788893951616" id="-26439">
		<tag k="name" v="Gjermundstaul" />
		<tag k="place" v="locality" />
		<tag k="ssr:stedsnr" v="276825" />
	</node>
	<node lat="59.8641027788231" lon="8.47927499754749" id="-26441">
		<tag k="name" v="Myrstaul" />
		<tag k="place" v="locality" />
		<tag k="ssr:stedsnr" v="276872" />
	</node>
	<node lat="59.92340277693533" lon="8.826347214824926" id="-26442">
		<tag k="name" v="Långehaug" />
		<tag k="place" v="locality" />
		<tag k="ssr:stedsnr" v="276875" />
	</node>
	<node lat="59.85077777739315" lon="8.620827775028301" id="-26444">
		<tag k="name" v="Listaul" />
		<tag k="place" v="locality" />
		<tag k="ssr:stedsnr" v="277236" />
	</node>
	<node lat="60.001166669959446" lon="8.664691659484888" id="-26445">
		<tag k="name" v="Tverrkoll" />
		<tag k="place" v="isolated_dwelling" />
		<tag k="ssr:stedsnr" v="276969" />
	</node>
	<node lat="59.91568333657055" lon="8.798055561507478" id="-26448">
		<tag k="name" v="Haugstaul" />
		<tag k="place" v="isolated_dwelling" />
		<tag k="ssr:stedsnr" v="277324" />
	</node>
	<node lat="59.90398333178637" lon="8.708955557240374" id="-26449">
		<tag k="name" v="Snegatun" />
		<tag k="place" v="farm" />
		<tag k="ssr:stedsnr" v="277615" />
	</node>
	<node lat="60.061011108920866" lon="8.812561112731991" id="-26454">
		<tag k="name" v="Lurkeberg" />
		<tag k="place" v="isolated_dwelling" />
		<tag k="ssr:stedsnr" v="278291" />
	</node>
	<node lat="60.05819999645365" lon="8.801088897339286" id="-26456">
		<tag k="name" v="Torberg" />
		<tag k="place" v="isolated_dwelling" />
		<tag k="ssr:stedsnr" v="278323" />
	</node>
	<node lat="59.9330777802335" lon="8.903400003442199" id="-26459">
		<tag k="name" v="Nord Hovinbøle" />
		<tag k="place" v="farm" />
		<tag k="ssr:stedsnr" v="278500" />
	</node>
	<node lat="60.03162500275958" lon="8.748772226598692" id="-26461">
		<tag k="name" v="Kasin" />
		<tag k="place" v="locality" />
		<tag k="ssr:stedsnr" v="278570" />
	</node>
	<node lat="59.825494441020105" lon="9.061836117409973" id="-26469">
		<tag k="building" v="industrial" />
		<tag k="name" v="Saga" />
		<tag k="ssr:stedsnr" v="279511" />
	</node>
	<node lat="59.91456944280668" lon="9.00416389597541" id="-26472">
		<tag k="name" v="Runningen" />
		<tag k="place" v="farm" />
		<tag k="ssr:stedsnr" v="279783" />
	</node>
	<node lat="60.064716662913305" lon="8.801836117271174" id="-26474">
		<tag k="name" v="Øysteinsberg" />
		<tag k="place" v="farm" />
		<tag k="ssr:stedsnr" v="460350" />
	</node>
	<node lat="60.042419445428735" lon="8.804877774421895" id="-26475">
		<tag k="name" v="Kvennheim" />
		<tag k="old_name" v="Kvennhein" />
		<tag k="place" v="farm" />
		<tag k="ssr:stedsnr" v="460395" />
	</node>
	<node lat="60.04544444093092" lon="8.815969439451754" id="-26476">
		<tag k="name" v="Bikhol" />
		<tag k="place" v="farm" />
		<tag k="ssr:stedsnr" v="460397" />
	</node>
	<node lat="59.90773610958584" lon="8.948438892672623" id="-26477">
		<tag k="name" v="Nuten" />
		<tag k="place" v="locality" />
		<tag k="ssr:stedsnr" v="460434" />
	</node>
	<node lat="60.03130833483432" lon="8.824363880730049" id="-26478">
		<tag k="building" v="industrial" />
		<tag k="name" v="Bjerke" />
		<tag k="ssr:stedsnr" v="460497" />
	</node>
	<node lat="60.04201388732395" lon="8.740416671969806" id="-26481">
		<tag k="alt_name" v="Ormsjorden" />
		<tag k="fixme" v="consider place=hamlet" />
		<tag k="name" v="Omsjorden" />
		<tag k="place" v="farm" />
		<tag k="ssr:stedsnr" v="460938" />
	</node>
	<node lat="59.80188055436064" lon="9.11867500334092" id="-26485">
		<tag k="name" v="Øverland" />
		<tag k="place" v="isolated_dwelling" />
		<tag k="ssr:stedsnr" v="461079" />
	</node>
	<node lat="59.80307777926475" lon="9.060405559508265" id="-26487">
		<tag k="name" v="Nordre Dårud" />
		<tag k="place" v="farm" />
		<tag k="ssr:stedsnr" v="461088" />
	</node>
	<node lat="60.027005553103685" lon="8.86891389429142" id="-26494">
		<tag k="historic" v="shieling" />
		<tag k="name" v="Åset" />
		<tag k="place" v="isolated_dwelling" />
		<tag k="ssr:stedsnr" v="461452" />
	</node>
	<node lat="60.031127774931825" lon="8.858372219754699" id="-26495">
		<tag k="historic" v="shieling" />
		<tag k="name" v="Nybu" />
		<tag k="place" v="isolated_dwelling" />
		<tag k="ssr:stedsnr" v="461453" />
	</node>
	<node lat="59.94652777795676" lon="8.899797223912413" id="-26498">
		<tag k="name" v="Nilsbråten" />
		<tag k="place" v="locality" />
		<tag k="ssr:stedsnr" v="461583" />
	</node>
	<node lat="59.90763333536399" lon="9.106747215567388" id="-26504">
		<tag k="historic" v="shieling" />
		<tag k="name" v="Nedre Holtestul" />
		<tag k="place" v="isolated_dwelling" />
		<tag k="ssr:stedsnr" v="461689" />
	</node>
	<node lat="59.892555551227275" lon="9.01665555564011" id="-26514">
		<tag k="name" v="Bjortjønn" />
		<tag k="place" v="locality" />
		<tag k="ssr:stedsnr" v="461830" />
	</node>
	<node lat="59.91532499730141" lon="8.803591662699246" id="-26531">
		<tag k="historic" v="shieling" />
		<tag k="name" v="Heimstaul" />
		<tag k="place" v="isolated_dwelling" />
		<tag k="ssr:stedsnr" v="307212" />
	</node>
	<node lat="59.905144447578316" lon="8.762094441827092" id="-26535">
		<tag k="name" v="Nybu" />
		<tag k="place" v="isolated_dwelling" />
		<tag k="ssr:stedsnr" v="307273" />
	</node>
	<node lat="59.91929721879186" lon="8.440416667067922" id="-26538">
		<tag k="historic" v="shieling" />
		<tag k="name" v="Kvistbudalen" />
		<tag k="place" v="isolated_dwelling" />
		<tag k="ssr:stedsnr" v="307448" />
	</node>
	<node lat="59.8915361072782" lon="8.251133337415174" id="-26539">
		<tag k="alt_name" v="Langeroi" />
		<tag k="name" v="Långeroe" />
		<tag k="place" v="locality" />
		<tag k="ssr:stedsnr" v="307467" />
	</node>
	<node lat="59.95976944040048" lon="9.038422224867592" id="-26540">
		<tag k="name" v="Nystul" />
		<tag k="place" v="locality" />
		<tag k="ssr:stedsnr" v="307614" />
	</node>
	<node lat="59.84071666283584" lon="9.020888888030203" id="-26544">
		<tag k="name" v="Åsestulen" />
		<tag k="place" v="farm" />
		<tag k="ssr:stedsnr" v="307669" />
	</node>
	<node lat="59.86503888470447" lon="8.397458327561242" id="-26545">
		<tag k="alt_name" v="Turidfit" />
		<tag k="historic" v="shieling" />
		<tag k="name" v="Turifit" />
		<tag k="place" v="isolated_dwelling" />
		<tag k="ssr:stedsnr" v="307504" />
	</node>
	<node lat="59.90495000307792" lon="8.927750005759812" id="-26546">
		<tag k="alt_name" v="Grasdalen, øvre" />
		<tag k="name" v="Øvre Grasdalen" />
		<tag k="place" v="farm" />
		<tag k="ssr:stedsnr" v="307526" />
	</node>
	<node lat="59.927475000273176" lon="8.917833329987518" id="-26549">
		<tag k="alt_name" v="Stegerud" />
		<tag k="fixme" v="consider place=hamlet" />
		<tag k="name" v="Stegarud" />
		<tag k="place" v="farm" />
		<tag k="ssr:stedsnr" v="307566" />
	</node>
	<node lat="59.87231666979756" lon="9.029058334805216" id="-26551">
		<tag k="name" v="Sauro" />
		<tag k="place" v="hamlet" />
		<tag k="ssr:stedsnr" v="307723" />
	</node>
	<node lat="59.871716667060106" lon="8.95227778196925" id="-26552">
		<tag k="name" v="Digerud" />
		<tag k="place" v="farm" />
		<tag k="ssr:stedsnr" v="307725" />
	</node>
	<node lat="59.85545277755226" lon="8.976219448509228" id="-26553">
		<tag k="alt_name" v="Barlinddokki" />
		<tag k="name" v="Barlinddokk" />
		<tag k="place" v="isolated_dwelling" />
		<tag k="ssr:stedsnr" v="307698" />
	</node>
	<node lat="59.97467500439125" lon="8.84668611336834" id="-26554">
		<tag k="name" v="Knipetak" />
		<tag k="place" v="locality" />
		<tag k="ssr:stedsnr" v="307896" />
	</node>
	<node lat="60.00688055556927" lon="8.883702780983244" id="-26557">
		<tag k="name" v="Steinset" />
		<tag k="place" v="locality" />
		<tag k="ssr:stedsnr" v="308297" />
	</node>
	<node lat="60.04128055620673" lon="8.743011108096809" id="-26564">
		<tag k="alt_name" v="Nord Flåten" />
		<tag k="fixme" v="consider place=hamlet" />
		<tag k="name" v="Flåten" />
		<tag k="place" v="farm" />
		<tag k="ssr:stedsnr" v="308770" />
	</node>
	<node lat="60.124705556291744" lon="8.48152500177074" id="-26567">
		<tag k="alt_name" v="Presteroe" />
		<tag k="historic" v="shieling" />
		<tag k="name" v="Presteroi" />
		<tag k="place" v="isolated_dwelling" />
		<tag k="ssr:stedsnr" v="308779" />
	</node>
	<node lat="60.02711944319064" lon="8.738555553281843" id="-26569">
		<tag k="name" v="Frøvoll" />
		<tag k="place" v="farm" />
		<tag k="ssr:stedsnr" v="308807" />
	</node>
	<node lat="60.00741111338951" lon="8.60141110775211" id="-26573">
		<tag k="historic" v="shieling" />
		<tag k="name" v="Saurstaulen" />
		<tag k="place" v="isolated_dwelling" />
		<tag k="ssr:stedsnr" v="308952" />
	</node>
	<node lat="60.069074997618856" lon="8.776316663064698" id="-26579">
		<tag k="name" v="Mogen" />
		<tag k="place" v="farm" />
		<tag k="ssr:stedsnr" v="467830" />
	</node>
	<node lat="60.077480553488826" lon="8.777133341013432" id="-26580">
		<tag k="name" v="Trynehyven" />
		<tag k="place" v="locality" />
		<tag k="ssr:stedsnr" v="467931" />
	</node>
	<node lat="59.87013611474775" lon="8.829663881558872" id="-26583">
		<tag k="historic" v="shieling" />
		<tag k="name" v="Jyset" />
		<tag k="place" v="isolated_dwelling" />
		<tag k="ssr:stedsnr" v="327524" />
	</node>
	<node lat="60.07914999767166" lon="8.703174996015445" id="-26584">
		<tag k="name" v="Jamsis" />
		<tag k="place" v="locality" />
		<tag k="ssr:stedsnr" v="470199" />
	</node>
	<node lat="60.081549999261846" lon="8.6980250082737" id="-26585">
		<tag k="name" v="Ræpeholt" />
		<tag k="place" v="locality" />
		<tag k="ssr:stedsnr" v="470201" />
	</node>
	<node lat="60.13740000061154" lon="8.641266665338701" id="-26590">
		<tag k="name" v="Sud-Skavlebø" />
		<tag k="place" v="farm" />
		<tag k="ssr:stedsnr" v="471199" />
	</node>
	<node lat="59.86161666512975" lon="8.460583327410808" id="-26603">
		<tag k="name" v="Bruli" />
		<tag k="place" v="isolated_dwelling" />
		<tag k="ssr:stedsnr" v="336799" />
	</node>
	<node lat="59.99274444397385" lon="8.836219439275371" id="-26605">
		<tag k="name" v="Sud Brynjulfsrud" />
		<tag k="place" v="farm" />
		<tag k="ssr:stedsnr" v="337098" />
	</node>
	<node lat="59.99263333447572" lon="8.73199165864514" id="-26613">
		<tag k="name" v="Torrunningen" />
		<tag k="place" v="locality" />
		<tag k="ssr:stedsnr" v="337309" />
	</node>
	<node lat="59.90702222032353" lon="8.795233331916265" id="-26614">
		<tag k="name" v="Raudbekkhovda" />
		<tag k="place" v="isolated_dwelling" />
		<tag k="ssr:stedsnr" v="337408" />
	</node>
	<node lat="59.89125555957415" lon="8.638077783284894" id="-26615">
		<tag k="name" v="Øvrestaul" />
		<tag k="place" v="locality" />
		<tag k="ssr:stedsnr" v="337411" />
	</node>
	<node lat="59.99990833522417" lon="8.705077778068574" id="-26620">
		<tag k="name" v="Fjosstaulen" />
		<tag k="place" v="locality" />
		<tag k="ssr:stedsnr" v="337715" />
	</node>
	<node lat="59.92336388574552" lon="8.795683335479254" id="-26626">
		<tag k="fixme" v="consider place=hamlet" />
		<tag k="name" v="Rollag nedre" />
		<tag k="place" v="farm" />
		<tag k="ssr:stedsnr" v="337846" />
	</node>
	<node lat="59.96375000369544" lon="9.017427772668789" id="-26634">
		<tag k="name" v="Ånebuhaugen" />
		<tag k="place" v="locality" />
		<tag k="ssr:stedsnr" v="339111" />
	</node>
	<node lat="60.05438055516153" lon="8.791688887299806" id="-26638">
		<tag k="name" v="Hesjukåse" />
		<tag k="place" v="locality" />
		<tag k="ssr:stedsnr" v="339402" />
	</node>
	<node lat="60.045744443226106" lon="8.83883889736889" id="-26641">
		<tag k="name" v="Kvistrudhagen" />
		<tag k="place" v="farm" />
		<tag k="ssr:stedsnr" v="339357" />
	</node>
	<node lat="59.85255277712257" lon="9.028908325434676" id="-26642">
		<tag k="name" v="Hovin" />
		<tag k="place" v="isolated_dwelling" />
		<tag k="ssr:stedsnr" v="339510" />
	</node>
	<node lat="59.852061111619975" lon="9.030166660116869" id="-26643">
		<tag k="amenity" v="school" />
		<tag k="name" v="Hovin skule" />
		<tag k="ssr:stedsnr" v="339518" />
	</node>
	<node lat="59.83799999793979" lon="9.008405561292669" id="-26644">
		<tag k="name" v="Åstøen" />
		<tag k="place" v="farm" />
		<tag k="ssr:stedsnr" v="339495" />
	</node>
	<node lat="60.074244442178816" lon="8.900566662736134" id="-26645">
		<tag k="historic" v="shieling" />
		<tag k="name" v="Finntopp" />
		<tag k="place" v="isolated_dwelling" />
		<tag k="ssr:stedsnr" v="339607" />
	</node>
	<node lat="60.03313888597536" lon="8.729844442160772" id="-26648">
		<tag k="leisure" v="pitch" />
		<tag k="name" v="Gauset hoppbakke" />
		<tag k="ssr:stedsnr" v="339708" />
	</node>
	<node lat="59.99831111205486" lon="8.336186112514742" id="-26655">
		<tag k="name" v="Gøyst" />
		<tag k="place" v="locality" />
		<tag k="ssr:stedsnr" v="472725" />
	</node>
	<node lat="60.075641664845094" lon="8.695186113388177" id="-26659">
		<tag k="alt_name" v="Gjeiskeli" />
		<tag k="fixme" v="consider place=hamlet" />
		<tag k="name" v="Geisklid" />
		<tag k="place" v="farm" />
		<tag k="ssr:stedsnr" v="348224" />
	</node>
	<node lat="60.0787388909803" lon="8.53917777928527" id="-26662">
		<tag k="historic" v="shieling" />
		<tag k="name" v="Långset" />
		<tag k="place" v="isolated_dwelling" />
		<tag k="ssr:stedsnr" v="349016" />
	</node>
	<node lat="60.12268333571835" lon="8.702925008042286" id="-26668">
		<tag k="amenity" v="school" />
		<tag k="name" v="Tessungdalen skule" />
		<tag k="ssr:stedsnr" v="349655" />
	</node>
</osm>
