<?xml version="1.0" encoding="UTF-8"?>
<osm version="0.6" generator="osmapis">
	<node lat="59.99278888510468" lon="8.32922500816217" id="-25796">
		<tag k="name" v="Såte" />
		<tag k="natural" v="water" />
		<tag k="ssr:stedsnr" v="229741" />
	</node>
	<node lat="60.0394888878949" lon="8.297488886043299" id="-25797">
		<tag k="name" v="Långetjønnbekken" />
		<tag k="ssr:stedsnr" v="229823" />
		<tag k="waterway" v="stream" />
	</node>
	<node lat="60.03879444369069" lon="8.281883339533772" id="-25799">
		<tag k="name" v="Vångarbekken" />
		<tag k="ssr:stedsnr" v="229850" />
		<tag k="waterway" v="stream" />
	</node>
	<node lat="60.004161113485715" lon="8.419541674804098" id="-25800">
		<tag k="name" v="Nivstjønn" />
		<tag k="natural" v="water" />
		<tag k="ssr:stedsnr" v="229863" />
	</node>
	<node lat="59.96199999893391" lon="8.508999994789521" id="-25802">
		<tag k="alt_name" v="Sandremtjønn" />
		<tag k="name" v="Sandremtjønni" />
		<tag k="natural" v="water" />
		<tag k="ssr:stedsnr" v="3002" />
	</node>
	<node lat="59.962341668287735" lon="8.493969439931012" id="-25804">
		<tag k="alt_name" v="Sandremåi" />
		<tag k="name" v="Sandremåe" />
		<tag k="ssr:stedsnr" v="3006" />
		<tag k="waterway" v="stream" />
	</node>
	<node lat="59.97611666826008" lon="8.815416674933426" id="-25805">
		<tag k="name" v="Tinnsjå" />
		<tag k="natural" v="water" />
		<tag k="ssr:stedsnr" v="3008" />
		<tag k="water" v="lake" />
	</node>
	<node lat="59.97225833769979" lon="8.589388889094211" id="-25807">
		<tag k="name" v="Grysletjønn" />
		<tag k="natural" v="water" />
		<tag k="ssr:stedsnr" v="3032" />
	</node>
	<node lat="59.92621389191282" lon="8.216666658640916" id="-25810">
		<tag k="name" v="Grunnostjørni" />
		<tag k="natural" v="water" />
		<tag k="ssr:stedsnr" v="3402" />
	</node>
	<node lat="59.99496944587826" lon="8.79179167423771" id="-25816">
		<tag k="name" v="Midtstrondbekken" />
		<tag k="ssr:stedsnr" v="4118" />
		<tag k="waterway" v="stream" />
	</node>
	<node lat="59.98061944332173" lon="8.525102777607017" id="-25820">
		<tag k="alt_name" v="Flottetjønn, vesle" />
		<tag k="name" v="Vesle Fottetjønn" />
		<tag k="natural" v="water" />
		<tag k="ssr:stedsnr" v="4020" />
	</node>
	<node lat="59.94231944036018" lon="8.642055552476341" id="-25821">
		<tag k="name" v="Jåntjønnbekken" />
		<tag k="ssr:stedsnr" v="4032" />
		<tag k="waterway" v="stream" />
	</node>
	<node lat="59.98818333385346" lon="8.478647214239086" id="-25822">
		<tag k="name" v="Fitisettjønn" />
		<tag k="natural" v="water" />
		<tag k="ssr:stedsnr" v="4096" />
	</node>
	<node lat="59.91127705821683" lon="9.182668180768058" id="-25826">
		<tag k="alt_name" v="Kroktjørnan" />
		<tag k="name" v="Kroktjønnan" />
		<tag k="natural" v="water" />
		<tag k="ssr:stedsnr" v="4511" />
	</node>
	<node lat="59.93431388696942" lon="9.145630546882249" id="-25829">
		<tag k="alt_name" v="Ulvedalstjørni" />
		<tag k="name" v="Ulvstjønn" />
		<tag k="natural" v="water" />
		<tag k="ssr:stedsnr" v="4544" />
	</node>
	<node lat="59.89460000098286" lon="8.86075832919411" id="-25830">
		<tag k="alt_name" v="Trolltjørn" />
		<tag k="name" v="Trolltjønn" />
		<tag k="natural" v="water" />
		<tag k="ssr:stedsnr" v="4402" />
	</node>
	<node lat="59.872372218327875" lon="8.271836111054588" id="-25832">
		<tag k="name" v="Hortå" />
		<tag k="ssr:stedsnr" v="4478" />
		<tag k="waterway" v="river" />
	</node>
	<node lat="59.84427500358862" lon="8.192322224003" id="-25833">
		<tag k="name" v="Sundet" />
		<tag k="natural" v="strait" />
		<tag k="ssr:stedsnr" v="4482" />
	</node>
	<node lat="59.849324998145946" lon="9.142755562143273" id="-25834">
		<tag k="name" v="Storebekk" />
		<tag k="ssr:stedsnr" v="4670" />
		<tag k="waterway" v="stream" />
	</node>
	<node lat="59.843588891526835" lon="8.48242222780741" id="-25845">
		<tag k="name" v="Såemsbotn" />
		<tag k="natural" v="water" />
		<tag k="ssr:stedsnr" v="4865" />
		<tag k="water" v="lake" />
	</node>
	<node lat="59.96819167011246" lon="8.98181943594561" id="-25847">
		<tag k="alt_name" v="Longevatn" />
		<tag k="name" v="Långevatn" />
		<tag k="natural" v="water" />
		<tag k="ssr:stedsnr" v="4902" />
		<tag k="water" v="lake" />
	</node>
	<node lat="60.00852499646633" lon="8.960647219928953" id="-25854">
		<tag k="alt_name" v="Elgstjørni" />
		<tag k="name" v="Elgstjønn" />
		<tag k="natural" v="water" />
		<tag k="ssr:stedsnr" v="5313" />
	</node>
	<node lat="60.02510833374429" lon="8.906308339765635" id="-25855">
		<tag k="alt_name" v="Damtjørni" />
		<tag k="name" v="Damtjønn" />
		<tag k="natural" v="water" />
		<tag k="ssr:stedsnr" v="5407" />
	</node>
	<node lat="60.10501944819481" lon="8.414080562178265" id="-25860">
		<tag k="name" v="Ljostjønn" />
		<tag k="natural" v="water" />
		<tag k="ssr:stedsnr" v="5865" />
	</node>
	<node lat="60.09397500446187" lon="8.171511107697823" id="-25863">
		<tag k="name" v="Sudfjorden" />
		<tag k="natural" v="water" />
		<tag k="ssr:stedsnr" v="5872" />
		<tag k="water" v="lake" />
	</node>
	<node lat="60.07571667110817" lon="8.181727774399702" id="-25864">
		<tag k="name" v="Vedetjønn" />
		<tag k="natural" v="water" />
		<tag k="ssr:stedsnr" v="5879" />
	</node>
	<node lat="60.06357500259015" lon="8.264016674114377" id="-25869">
		<tag k="name" v="Sprogstangan" />
		<tag k="natural" v="cape" />
		<tag k="ssr:stedsnr" v="21136" />
	</node>
	<node lat="60.13656110829074" lon="8.329880563062645" id="-25870">
		<tag k="name" v="Vesle Hellersvatn" />
		<tag k="natural" v="water" />
		<tag k="ssr:stedsnr" v="21145" />
		<tag k="water" v="lake" />
	</node>
	<node lat="59.989327776156834" lon="8.76931111248661" id="-25871">
		<tag k="name" v="Mårvik" />
		<tag k="natural" v="bay" />
		<tag k="ssr:stedsnr" v="27308" />
	</node>
	<node lat="59.84152499990325" lon="8.324058335744255" id="-25874">
		<tag k="name" v="Heitjønnbekken" />
		<tag k="ssr:stedsnr" v="32409" />
		<tag k="waterway" v="stream" />
	</node>
	<node lat="59.970902778672155" lon="8.653841666231429" id="-25883">
		<tag k="name" v="Knutstaulbekken" />
		<tag k="ssr:stedsnr" v="33802" />
		<tag k="waterway" v="stream" />
	</node>
	<node lat="59.879280552640786" lon="8.629775008294006" id="-25890">
		<tag k="name" v="Tveitotjønna" />
		<tag k="natural" v="water" />
		<tag k="ssr:stedsnr" v="34363" />
	</node>
	<node lat="60.00205277824445" lon="8.712500006595208" id="-25894">
		<tag k="name" v="Svartetjønnbekken" />
		<tag k="ssr:stedsnr" v="34699" />
		<tag k="waterway" v="stream" />
	</node>
	<node lat="59.92673055158662" lon="8.789608340534146" id="-25895">
		<tag k="name" v="Krosskeiøye" />
		<tag k="place" v="island" />
		<tag k="ssr:stedsnr" v="34868" />
	</node>
	<node lat="60.067061109841966" lon="8.717536109352945" id="-25903">
		<tag k="name" v="Drugebubekken" />
		<tag k="ssr:stedsnr" v="35819" />
		<tag k="waterway" v="stream" />
	</node>
	<node lat="60.016969447197916" lon="8.891272230534408" id="-25906">
		<tag k="name" v="Gurispringhølen" />
		<tag k="place" v="locality" />
		<tag k="ssr:stedsnr" v="36117" />
	</node>
	<node lat="59.94080277872322" lon="9.0218611140454" id="-25907">
		<tag k="name" v="Spikesetbekken" />
		<tag k="ssr:stedsnr" v="36177" />
		<tag k="waterway" v="stream" />
	</node>
	<node lat="60.05890833181401" lon="8.870705562157958" id="-25908">
		<tag k="name" v="Halfarbekken" />
		<tag k="ssr:stedsnr" v="36408" />
		<tag k="waterway" v="stream" />
	</node>
	<node lat="59.95220278226712" lon="8.950386118058752" id="-25910">
		<tag k="name" v="Fjellstulbekken" />
		<tag k="ssr:stedsnr" v="36563" />
		<tag k="waterway" v="stream" />
	</node>
	<node lat="59.86365832901556" lon="9.039277786223165" id="-25912">
		<tag k="name" v="Høysettjønne" />
		<tag k="natural" v="water" />
		<tag k="ssr:stedsnr" v="36468" />
	</node>
	<node lat="59.976569442635345" lon="8.861808330436249" id="-25913">
		<tag k="name" v="Heitjønnbekken" />
		<tag k="ssr:stedsnr" v="36619" />
		<tag k="waterway" v="stream" />
	</node>
	<node lat="59.84060277357006" lon="9.085933337761666" id="-25916">
		<tag k="name" v="Flomelveleie" />
		<tag k="place" v="locality" />
		<tag k="ssr:stedsnr" v="36878" />
	</node>
	<node lat="60.08642222347593" lon="8.764463881231194" id="-25917">
		<tag k="name" v="Hovmannsberget" />
		<tag k="natural" v="cape" />
		<tag k="ssr:stedsnr" v="42788" />
	</node>
	<node lat="60.115766665859965" lon="8.743450001669139" id="-25919">
		<tag k="name" v="Longelibekken" />
		<tag k="ssr:stedsnr" v="45127" />
		<tag k="waterway" v="stream" />
	</node>
	<node lat="60.07505555961534" lon="8.5775805608047" id="-25921">
		<tag k="name" v="Skarbekken" />
		<tag k="ssr:stedsnr" v="46206" />
		<tag k="waterway" v="stream" />
	</node>
	<node lat="60.04004444590869" lon="8.587374991825186" id="-25923">
		<tag k="name" v="Bubekken" />
		<tag k="ssr:stedsnr" v="46403" />
		<tag k="waterway" v="stream" />
	</node>
	<node lat="60.06637499674578" lon="8.37944444250447" id="-25929">
		<tag k="name" v="Kalhovdtjønne" />
		<tag k="natural" v="water" />
		<tag k="ssr:stedsnr" v="47773" />
	</node>
	<node lat="59.86272777645281" lon="8.55303610294817" id="-25932">
		<tag k="alt_name" v="Leivdalsåi" />
		<tag k="name" v="Leivdalsåe" />
		<tag k="ssr:stedsnr" v="64148" />
		<tag k="waterway" v="stream" />
	</node>
	<node lat="59.97421110901718" lon="8.490277781927448" id="-25937">
		<tag k="alt_name" v="Torkjellstjønn" />
		<tag k="name" v="Torkjelstjønn" />
		<tag k="natural" v="water" />
		<tag k="ssr:stedsnr" v="64025" />
	</node>
	<node lat="59.94645555821035" lon="8.633536108804867" id="-25938">
		<tag k="name" v="Trolltjønn" />
		<tag k="natural" v="water" />
		<tag k="ssr:stedsnr" v="64033" />
	</node>
	<node lat="59.78958888480567" lon="8.310236113694556" id="-25939">
		<tag k="alt_name" v="Sutangråtjørni" />
		<tag k="name" v="Sutangrotjønne" />
		<tag k="natural" v="water" />
		<tag k="ssr:stedsnr" v="64065" />
	</node>
	<node lat="59.933516664012934" lon="9.042708338804736" id="-25940">
		<tag k="alt_name" v="Svarttjørn" />
		<tag k="name" v="Svarttjønn" />
		<tag k="natural" v="water" />
		<tag k="ssr:stedsnr" v="64539" />
	</node>
	<node lat="59.88185555408074" lon="8.239827775702162" id="-25942">
		<tag k="name" v="Bågåfjellbekken" />
		<tag k="ssr:stedsnr" v="64465" />
		<tag k="waterway" v="stream" />
	</node>
	<node lat="59.922322218910516" lon="8.571830554376302" id="-25947">
		<tag k="name" v="Rjupetjønn" />
		<tag k="natural" v="water" />
		<tag k="ssr:stedsnr" v="65206" />
	</node>
	<node lat="59.92900278030137" lon="8.549161117434606" id="-25948">
		<tag k="name" v="Kalvetjønn" />
		<tag k="natural" v="water" />
		<tag k="ssr:stedsnr" v="65212" />
		<tag k="water" v="pond" />
	</node>
	<node lat="59.88860278145059" lon="8.49672223010741" id="-25950">
		<tag k="alt_name" v="Våeråi" />
		<tag k="name" v="Våeråe" />
		<tag k="ssr:stedsnr" v="65222" />
		<tag k="waterway" v="stream" />
	</node>
	<node lat="59.9760921247819" lon="8.45186549229611" id="-25951">
		<tag k="name" v="Torpetjønn" />
		<tag k="natural" v="water" />
		<tag k="ssr:stedsnr" v="65263" />
	</node>
	<node lat="59.899097225004134" lon="8.846538890507151" id="-25956">
		<tag k="name" v="Bergveggtjønn" />
		<tag k="natural" v="water" />
		<tag k="ssr:stedsnr" v="65399" />
	</node>
	<node lat="59.906063890953256" lon="9.029369439299481" id="-25959">
		<tag k="alt_name" v="Åstjørn" />
		<tag k="name" v="Åstjønn" />
		<tag k="natural" v="water" />
		<tag k="ssr:stedsnr" v="65518" />
	</node>
	<node lat="59.86331389235641" lon="9.069597214777165" id="-25964">
		<tag k="alt_name" v="Bjørvatn, nedre;Bjørvatn" />
		<tag k="name" v="Nedre Bjørvatn" />
		<tag k="natural" v="water" />
		<tag k="ssr:stedsnr" v="65697" />
		<tag k="water" v="lake" />
	</node>
	<node lat="60.08194999634271" lon="8.951466662292692" id="-25965">
		<tag k="name" v="Fiskebekk" />
		<tag k="ssr:stedsnr" v="65699" />
		<tag k="waterway" v="stream" />
	</node>
	<node lat="60.099013890768504" lon="8.169513888634599" id="-25971">
		<tag k="name" v="Grysletjønni" />
		<tag k="natural" v="water" />
		<tag k="ssr:stedsnr" v="65900" />
	</node>
	<node lat="59.97286944076686" lon="9.022105554970969" id="-25978">
		<tag k="alt_name" v="Drågåstolk" />
		<tag k="name" v="Dragestolp" />
		<tag k="natural" v="water" />
		<tag k="ssr:stedsnr" v="65912" />
	</node>
	<node lat="60.018008337570265" lon="8.567238886531422" id="-25982">
		<tag k="alt_name" v="Långrøe" />
		<tag k="name" v="Longrøi" />
		<tag k="ssr:stedsnr" v="66793" />
		<tag k="waterway" v="stream" />
	</node>
	<node lat="59.988725001110886" lon="8.933427781852801" id="-25985">
		<tag k="name" v="Grautnattjønnan" />
		<tag k="natural" v="water" />
		<tag k="ssr:stedsnr" v="86921" />
	</node>
	<node lat="59.96561944121001" lon="8.54448055272215" id="-25986">
		<tag k="name" v="Kråketjønn" />
		<tag k="natural" v="water" />
		<tag k="ssr:stedsnr" v="246001" />
	</node>
	<node lat="59.858016667933576" lon="8.237533341042331" id="-25996">
		<tag k="alt_name" v="Haddetjørn" />
		<tag k="name" v="Haddetjønn" />
		<tag k="natural" v="water" />
		<tag k="ssr:stedsnr" v="246464" />
	</node>
	<node lat="59.87776388595676" lon="8.220683329436664" id="-25997">
		<tag k="alt_name" v="Viertjørni" />
		<tag k="name" v="Viertjønn" />
		<tag k="natural" v="water" />
		<tag k="ssr:stedsnr" v="246441" />
	</node>
	<node lat="59.86317221840882" lon="8.251302778922987" id="-25998">
		<tag k="name" v="Bjorløken" />
		<tag k="natural" v="water" />
		<tag k="ssr:stedsnr" v="246461" />
		<tag k="water" v="lake" />
	</node>
	<node lat="59.94685555927856" lon="8.891452768843381" id="-26002">
		<tag k="alt_name" v="Åstjørn" />
		<tag k="name" v="Åstjønn" />
		<tag k="natural" v="water" />
		<tag k="ssr:stedsnr" v="246544" />
	</node>
	<node lat="59.87498055859418" lon="8.463111115806447" id="-26009">
		<tag k="name" v="Skvætedalen" />
		<tag k="ssr:stedsnr" v="93779" />
		<tag k="waterway" v="stream" />
	</node>
	<node lat="60.01812222028" lon="8.798727775838293" id="-26012">
		<tag k="name" v="Ræpetjønn" />
		<tag k="natural" v="water" />
		<tag k="ssr:stedsnr" v="94019" />
	</node>
	<node lat="59.78504167011799" lon="9.032361102520433" id="-26028">
		<tag k="alt_name" v="Bratterudtjørni, søre" />
		<tag k="name" v="Søndre Bratterudtjønne" />
		<tag k="natural" v="water" />
		<tag k="ssr:stedsnr" v="247380" />
	</node>
	<node lat="60.06573333399128" lon="8.833758339571615" id="-26035">
		<tag k="name" v="Åmotlone" />
		<tag k="natural" v="water" />
		<tag k="ssr:stedsnr" v="96281" />
		<tag k="water" v="lake" />
	</node>
	<node lat="60.05461666313514" lon="8.641263882755535" id="-26036">
		<tag k="name" v="Damtjønn" />
		<tag k="natural" v="water" />
		<tag k="ssr:stedsnr" v="96285" />
	</node>
	<node lat="60.05048610913789" lon="8.766280556024714" id="-26042">
		<tag k="name" v="Buskereitjønne" />
		<tag k="natural" v="water" />
		<tag k="ssr:stedsnr" v="96564" />
	</node>
	<node lat="60.054222221929315" lon="8.7564138878849" id="-26043">
		<tag k="name" v="Nytjønn" />
		<tag k="natural" v="water" />
		<tag k="ssr:stedsnr" v="96570" />
		<tag k="water" v="pond" />
	</node>
	<node lat="60.07486666959976" lon="8.942230559829927" id="-26046">
		<tag k="name" v="Trasdalbekken" />
		<tag k="ssr:stedsnr" v="247682" />
		<tag k="waterway" v="stream" />
	</node>
	<node lat="60.0381444418269" lon="8.779219450393157" id="-26058">
		<tag k="alt_name" v="Kvernetjørnan" />
		<tag k="name" v="Kvennetjønn" />
		<tag k="natural" v="water" />
		<tag k="ssr:stedsnr" v="247784" />
	</node>
	<node lat="60.110775000263935" lon="8.819408335523764" id="-26064">
		<tag k="alt_name" v="Storebekk" />
		<tag k="name" v="Storebekken" />
		<tag k="ssr:stedsnr" v="247791" />
		<tag k="waterway" v="stream" />
	</node>
	<node lat="60.044044443388614" lon="8.329674999007274" id="-26069">
		<tag k="name" v="Kilsfjorden" />
		<tag k="natural" v="water" />
		<tag k="ssr:stedsnr" v="247930" />
		<tag k="water" v="lake" />
	</node>
	<node lat="60.091430552331175" lon="8.14693056110669" id="-26072">
		<tag k="loc_name" v="Reksjåen" />
		<tag k="name" v="Reksjå" />
		<tag k="natural" v="water" />
		<tag k="ssr:stedsnr" v="247879" />
		<tag k="water" v="lake" />
	</node>
	<node lat="59.971108331771205" lon="8.942141664611267" id="-26073">
		<tag k="alt_name" v="Deiletjørn" />
		<tag k="name" v="Deildstjønn" />
		<tag k="natural" v="water" />
		<tag k="ssr:stedsnr" v="247881" />
	</node>
	<node lat="60.08716110751113" lon="8.356116668002574" id="-26074">
		<tag k="name" v="Vestre Flottetjønni" />
		<tag k="natural" v="water" />
		<tag k="ssr:stedsnr" v="247889" />
	</node>
	<node lat="59.96939999570606" lon="8.890249999752019" id="-26075">
		<tag k="name" v="Bubekkbekken" />
		<tag k="ssr:stedsnr" v="247895" />
		<tag k="waterway" v="stream" />
	</node>
	<node lat="60.082024996395944" lon="8.449949999900813" id="-26077">
		<tag k="name" v="Austre Flottetjønni" />
		<tag k="natural" v="water" />
		<tag k="ssr:stedsnr" v="247899" />
	</node>
	<node lat="60.138766664927836" lon="8.104400007378768" id="-26080">
		<tag k="name" v="Melrakktjønnan" />
		<tag k="natural" v="water" />
		<tag k="ssr:stedsnr" v="247990" />
	</node>
	<node lat="60.0435305565875" lon="8.241355554164699" id="-26081">
		<tag k="name" v="Røysebekken" />
		<tag k="ssr:stedsnr" v="247935" />
		<tag k="waterway" v="stream" />
	</node>
	<node lat="60.08518333661459" lon="8.657144444930056" id="-26087">
		<tag k="name" v="Skriubekken" />
		<tag k="ssr:stedsnr" v="107007" />
		<tag k="waterway" v="stream" />
	</node>
	<node lat="60.079905554243034" lon="8.539288886766062" id="-26088">
		<tag k="name" v="Mår" />
		<tag k="ssr:stedsnr" v="107009" />
		<tag k="waterway" v="river" />
	</node>
	<node lat="60.08482222100332" lon="8.630855564076597" id="-26091">
		<tag k="name" v="Skarbekken" />
		<tag k="ssr:stedsnr" v="107226" />
		<tag k="waterway" v="stream" />
	</node>
	<node lat="60.04527222511171" lon="8.51976945066251" id="-26094">
		<tag k="name" v="Hellerbekken" />
		<tag k="ssr:stedsnr" v="107443" />
		<tag k="waterway" v="stream" />
	</node>
	<node lat="60.016227775356754" lon="8.497655547679328" id="-26095">
		<tag k="name" v="Lurebotløken" />
		<tag k="natural" v="water" />
		<tag k="ssr:stedsnr" v="107883" />
		<tag k="water" v="lake" />
	</node>
	<node lat="59.98339444415182" lon="8.38117222147617" id="-26096">
		<tag k="name" v="Svartelon" />
		<tag k="natural" v="water" />
		<tag k="ssr:stedsnr" v="108706" />
		<tag k="water" v="pond" />
	</node>
	<node lat="60.0161694474034" lon="8.282888888806454" id="-26097">
		<tag k="name" v="Våbekken" />
		<tag k="ssr:stedsnr" v="108676" />
		<tag k="waterway" v="stream" />
	</node>
	<node lat="59.74464722294" lon="9.023002774398792" id="-26098">
		<tag k="name" v="Tinnsjå" />
		<tag k="natural" v="water" />
		<tag k="ssr:stedsnr" v="124109" />
		<tag k="water" v="lake" />
	</node>
	<node lat="59.98449444890561" lon="8.36055554822755" id="-26104">
		<tag k="name" v="Butjørn" />
		<tag k="natural" v="water" />
		<tag k="ssr:stedsnr" v="125299" />
	</node>
	<node lat="59.805674997469936" lon="8.298119436667955" id="-26107">
		<tag k="alt_name" v="Sutangråbekken" />
		<tag k="name" v="Sutangrobekken" />
		<tag k="ssr:stedsnr" v="125427" />
		<tag k="waterway" v="stream" />
	</node>
	<node lat="59.87808889124619" lon="8.67365555055126" id="-26108">
		<tag k="alt_name" v="Skutebekken" />
		<tag k="name" v="Skutebekk" />
		<tag k="ssr:stedsnr" v="125193" />
		<tag k="waterway" v="stream" />
	</node>
	<node lat="59.945705555962675" lon="8.220486117947726" id="-26110">
		<tag k="name" v="Sandtjørni" />
		<tag k="natural" v="water" />
		<tag k="ssr:stedsnr" v="125331" />
	</node>
	<node lat="59.87057777950956" lon="8.373297216810252" id="-26115">
		<tag k="name" v="Vådalsbekken" />
		<tag k="ssr:stedsnr" v="125498" />
		<tag k="waterway" v="stream" />
	</node>
	<node lat="60.034824996734436" lon="8.510363896636488" id="-26122">
		<tag k="alt_name" v="Butjørn" />
		<tag k="name" v="Butjønn" />
		<tag k="natural" v="water" />
		<tag k="ssr:stedsnr" v="126742" />
	</node>
	<node lat="60.09471388563988" lon="8.699997227708671" id="-26132">
		<tag k="alt_name" v="Prestetjørni" />
		<tag k="name" v="Prestetjønn" />
		<tag k="natural" v="water" />
		<tag k="ssr:stedsnr" v="126795" />
	</node>
	<node lat="60.02328611091514" lon="8.264480549567068" id="-26133">
		<tag k="name" v="Svarttjønn" />
		<tag k="natural" v="water" />
		<tag k="ssr:stedsnr" v="126796" />
	</node>
	<node lat="60.03717500272353" lon="8.441130562255095" id="-26135">
		<tag k="alt_name" v="Lonntjønnan" />
		<tag k="name" v="Lontjønnan" />
		<tag k="natural" v="water" />
		<tag k="ssr:stedsnr" v="126799" />
	</node>
	<node lat="60.06854166581163" lon="8.237133332383744" id="-26137">
		<tag k="name" v="Butjønn" />
		<tag k="natural" v="water" />
		<tag k="ssr:stedsnr" v="126902" />
	</node>
	<node lat="60.006036114714156" lon="8.348086113640688" id="-26141">
		<tag k="name" v="Svålstadtjønn" />
		<tag k="natural" v="water" />
		<tag k="ssr:stedsnr" v="126825" />
	</node>
	<node lat="60.09077499722951" lon="8.586419449207567" id="-26142">
		<tag k="alt_name" v="Juvsbekk" />
		<tag k="name" v="Gjuvsbekken" />
		<tag k="ssr:stedsnr" v="126842" />
		<tag k="waterway" v="stream" />
	</node>
	<node lat="60.06080833623702" lon="8.681672213835531" id="-26146">
		<tag k="alt_name" v="Urdebekktjørni" />
		<tag k="name" v="Ulebekktjønn" />
		<tag k="natural" v="water" />
		<tag k="ssr:stedsnr" v="126857" />
	</node>
	<node lat="60.13280832993515" lon="8.4255250000718" id="-26147">
		<tag k="alt_name" v="Tessungsjå" />
		<tag k="name" v="Tessungsjåen" />
		<tag k="natural" v="water" />
		<tag k="ssr:stedsnr" v="126999" />
		<tag k="water" v="lake" />
	</node>
	<node lat="59.8340888854416" lon="8.388980547765158" id="-26153">
		<tag k="name" v="Bakkehøl" />
		<tag k="place" v="locality" />
		<tag k="ssr:stedsnr" v="154622" />
	</node>
	<node lat="59.92566111303748" lon="8.760180552756784" id="-26169">
		<tag k="name" v="Saurøye" />
		<tag k="place" v="island" />
		<tag k="ssr:stedsnr" v="155951" />
	</node>
	<node lat="60.0669333361645" lon="8.821005550561836" id="-26172">
		<tag k="name" v="Tystebekk" />
		<tag k="ssr:stedsnr" v="157212" />
		<tag k="waterway" v="stream" />
	</node>
	<node lat="60.02484166276045" lon="8.951133324606431" id="-26177">
		<tag k="name" v="Gronntjønn" />
		<tag k="natural" v="water" />
		<tag k="ssr:stedsnr" v="157301" />
	</node>
	<node lat="59.98112778055926" lon="8.857377781081238" id="-26183">
		<tag k="name" v="Fyken" />
		<tag k="ssr:stedsnr" v="157627" />
		<tag k="waterway" v="stream" />
	</node>
	<node lat="59.92285000046063" lon="9.14930833794487" id="-26186">
		<tag k="name" v="Nystultjønnan" />
		<tag k="natural" v="water" />
		<tag k="ssr:stedsnr" v="157548" />
	</node>
	<node lat="59.867127773850164" lon="9.089291664175759" id="-26188">
		<tag k="name" v="Kaperhølane" />
		<tag k="place" v="locality" />
		<tag k="ssr:stedsnr" v="157861" />
	</node>
	<node lat="60.03249722095945" lon="8.947225008798119" id="-26191">
		<tag k="name" v="Tjønnekroken" />
		<tag k="natural" v="bay" />
		<tag k="ssr:stedsnr" v="158423" />
	</node>
	<node lat="60.042655551278514" lon="8.964536119509955" id="-26192">
		<tag k="name" v="Fiskebekk" />
		<tag k="ssr:stedsnr" v="158502" />
		<tag k="waterway" v="stream" />
	</node>
	<node lat="60.0450305581857" lon="8.508194448794852" id="-26200">
		<tag k="name" v="Heimtjønnbekken" />
		<tag k="natural" v="water" />
		<tag k="ssr:stedsnr" v="167458" />
	</node>
	<node lat="60.06679166226222" lon="8.346636102642567" id="-26206">
		<tag k="name" v="Tangen" />
		<tag k="natural" v="cape" />
		<tag k="ssr:stedsnr" v="168774" />
	</node>
	<node lat="59.82306666568268" lon="9.165186116227884" id="-26208">
		<tag k="alt_name" v="Ramsurdtjørnan" />
		<tag k="name" v="Ramsurdtjønnan" />
		<tag k="natural" v="water" />
		<tag k="ssr:stedsnr" v="185595" />
	</node>
	<node lat="59.94763889001906" lon="8.569022216173963" id="-26210">
		<tag k="name" v="Stavstjønnan" />
		<tag k="natural" v="water" />
		<tag k="ssr:stedsnr" v="186033" />
	</node>
	<node lat="59.957661110393474" lon="8.671574996420269" id="-26212">
		<tag k="name" v="Svartufsbekken" />
		<tag k="ssr:stedsnr" v="186051" />
		<tag k="waterway" v="stream" />
	</node>
	<node lat="59.96272777617013" lon="8.42882778127069" id="-26219">
		<tag k="alt_name" v="Eggebutjørni" />
		<tag k="name" v="Eggjebutjønn" />
		<tag k="natural" v="water" />
		<tag k="ssr:stedsnr" v="186307" />
	</node>
	<node lat="60.05996389094757" lon="8.920183330590927" id="-26222">
		<tag k="alt_name" v="Akslarvatnet" />
		<tag k="name" v="Akslarvatn" />
		<tag k="natural" v="water" />
		<tag k="ssr:stedsnr" v="186682" />
	</node>
	<node lat="59.92682221968239" lon="9.133075001288159" id="-26224">
		<tag k="alt_name" v="Igletjørn" />
		<tag k="name" v="Putten" />
		<tag k="natural" v="water" />
		<tag k="ssr:stedsnr" v="186575" />
	</node>
	<node lat="59.93134444350816" lon="9.083408338599758" id="-26227">
		<tag k="alt_name" v="Kvådalsåi" />
		<tag k="name" v="Kvådalsåe" />
		<tag k="ssr:stedsnr" v="186591" />
		<tag k="waterway" v="stream" />
	</node>
	<node lat="59.852575000733864" lon="9.049677777502595" id="-26231">
		<tag k="alt_name" v="Bogtjørni" />
		<tag k="name" v="Tjønne" />
		<tag k="natural" v="water" />
		<tag k="ssr:stedsnr" v="186708" />
	</node>
	<node lat="60.004924997881204" lon="8.992336118559944" id="-26240">
		<tag k="alt_name" v="Smørbutjørni" />
		<tag k="name" v="Såmundstjønn" />
		<tag k="natural" v="water" />
		<tag k="ssr:stedsnr" v="187312" />
	</node>
	<node lat="60.078630551521776" lon="8.524194440969712" id="-26244">
		<tag k="alt_name" v="Bjortjørni" />
		<tag k="name" v="Bjortjønn" />
		<tag k="natural" v="water" />
		<tag k="ssr:stedsnr" v="187814" />
	</node>
	<node lat="60.1253999971982" lon="8.446636102178429" id="-26246">
		<tag k="name" v="Viertjønni" />
		<tag k="natural" v="water" />
		<tag k="ssr:stedsnr" v="187870" />
	</node>
	<node lat="60.069277778307615" lon="8.857577769750666" id="-26247">
		<tag k="name" v="Raudhellebekken" />
		<tag k="ssr:stedsnr" v="187717" />
		<tag k="waterway" v="stream" />
	</node>
	<node lat="60.025325002483726" lon="8.594649992114185" id="-26253">
		<tag k="name" v="Gjerdøla" />
		<tag k="ssr:stedsnr" v="187788" />
		<tag k="waterway" v="river" />
	</node>
	<node lat="60.131741667059174" lon="8.168024993290972" id="-26255">
		<tag k="name" v="Lægerbekken" />
		<tag k="ssr:stedsnr" v="263130" />
		<tag k="waterway" v="stream" />
	</node>
	<node lat="60.17261666710167" lon="8.358074997188835" id="-26256">
		<tag k="name" v="Urebekken" />
		<tag k="ssr:stedsnr" v="263135" />
		<tag k="waterway" v="stream" />
	</node>
	<node lat="59.873752773493884" lon="8.476463880280217" id="-26263">
		<tag k="name" v="Juvbekk" />
		<tag k="ssr:stedsnr" v="215878" />
		<tag k="waterway" v="stream" />
	</node>
	<node lat="60.00945833604927" lon="8.797025004928543" id="-26264">
		<tag k="name" v="Vesle Holmetjønn" />
		<tag k="natural" v="water" />
		<tag k="ssr:stedsnr" v="216009" />
		<tag k="water" v="pond" />
	</node>
	<node lat="59.900938888471586" lon="8.7819527819637" id="-26265">
		<tag k="name" v="Tjønnsetbekken" />
		<tag k="ssr:stedsnr" v="216050" />
		<tag k="waterway" v="stream" />
	</node>
	<node lat="59.872294444097484" lon="8.852063883725132" id="-26277">
		<tag k="name" v="Listaulbekken" />
		<tag k="ssr:stedsnr" v="216727" />
		<tag k="waterway" v="stream" />
	</node>
	<node lat="59.78502777871258" lon="9.087891674807798" id="-26284">
		<tag k="name" v="Grønlibukt" />
		<tag k="natural" v="bay" />
		<tag k="ssr:stedsnr" v="218029" />
	</node>
	<node lat="59.99599444031443" lon="8.859038896767007" id="-26287">
		<tag k="name" v="Hellebekk" />
		<tag k="ssr:stedsnr" v="218216" />
		<tag k="waterway" v="stream" />
	</node>
	<node lat="59.80256944603763" lon="9.08742221547081" id="-26288">
		<tag k="name" v="Uverudodden" />
		<tag k="natural" v="cape" />
		<tag k="ssr:stedsnr" v="218117" />
	</node>
	<node lat="60.0381444418269" lon="8.779219450393157" id="-26289">
		<tag k="name" v="Nedre Kvennetjønn" />
		<tag k="natural" v="water" />
		<tag k="ssr:stedsnr" v="218315" />
	</node>
	<node lat="59.832488887145985" lon="9.186677780878073" id="-26303">
		<tag k="name" v="Fjelltjønn" />
		<tag k="natural" v="water" />
		<tag k="ssr:stedsnr" v="218877" />
	</node>
	<node lat="60.034438893045184" lon="8.54459166248666" id="-26317">
		<tag k="name" v="Skvætebekktjønn" />
		<tag k="natural" v="water" />
		<tag k="ssr:stedsnr" v="228396" />
	</node>
	<node lat="60.02353055788322" lon="8.417925005558422" id="-26319">
		<tag k="name" v="Vesle Rakketjønn" />
		<tag k="natural" v="water" />
		<tag k="ssr:stedsnr" v="228892" />
	</node>
	<node lat="60.09822221832682" lon="8.5702361117221" id="-26320">
		<tag k="name" v="Gvannebekk" />
		<tag k="ssr:stedsnr" v="228997" />
		<tag k="waterway" v="stream" />
	</node>
	<node lat="60.1415083294132" lon="8.4041138889586" id="-26324">
		<tag k="name" v="Forsnøypåe" />
		<tag k="ssr:stedsnr" v="471936" />
		<tag k="waterway" v="stream" />
	</node>
	<node lat="59.96581110961088" lon="8.522250007357272" id="-26327">
		<tag k="name" v="Leisbutjønn" />
		<tag k="natural" v="water" />
		<tag k="ssr:stedsnr" v="246003" />
	</node>
	<node lat="59.91789444739671" lon="8.604416675440026" id="-26330">
		<tag k="name" v="Middøla" />
		<tag k="ssr:stedsnr" v="246210" />
		<tag k="waterway" v="stream" />
	</node>
	<node lat="59.86388610684486" lon="8.595277770709998" id="-26333">
		<tag k="name" v="Trolltjønn" />
		<tag k="natural" v="water" />
		<tag k="ssr:stedsnr" v="246162" />
	</node>
	<node lat="59.97684166314291" lon="8.966922222606534" id="-26338">
		<tag k="name" v="Matfisk" />
		<tag k="natural" v="water" />
		<tag k="ssr:stedsnr" v="246862" />
	</node>
	<node lat="59.97970555985481" lon="8.870558325051464" id="-26339">
		<tag k="alt_name" v="Heitjørn" />
		<tag k="name" v="Heitjønn" />
		<tag k="natural" v="water" />
		<tag k="ssr:stedsnr" v="246878" />
	</node>
	<node lat="59.94363611363651" lon="8.452266658724758" id="-26343">
		<tag k="name" v="Butjønn" />
		<tag k="natural" v="water" />
		<tag k="ssr:stedsnr" v="247284" />
	</node>
	<node lat="60.02303055981972" lon="8.855816675165041" id="-26347">
		<tag k="alt_name" v="Hellebekkåi;Vålonåe" />
		<tag k="name" v="Hellebekkåe" />
		<tag k="ssr:stedsnr" v="247358" />
		<tag k="waterway" v="stream" />
	</node>
	<node lat="59.77553332916753" lon="9.080413889431343" id="-26348">
		<tag k="name" v="Krosshølen" />
		<tag k="place" v="locality" />
		<tag k="ssr:stedsnr" v="247361" />
	</node>
	<node lat="59.777494444799004" lon="9.08132778489238" id="-26350">
		<tag k="alt_name" v="Holkåi" />
		<tag k="name" v="Holkåe" />
		<tag k="ssr:stedsnr" v="247369" />
		<tag k="waterway" v="river" />
	</node>
	<node lat="59.9659777804051" lon="9.028599994495346" id="-26352">
		<tag k="name" v="Steintjørn" />
		<tag k="natural" v="water" />
		<tag k="ssr:stedsnr" v="247578" />
	</node>
	<node lat="60.05454444200771" lon="8.869080556765892" id="-26353">
		<tag k="alt_name" v="Skardstjørni" />
		<tag k="name" v="Skarstjønn" />
		<tag k="natural" v="water" />
		<tag k="ssr:stedsnr" v="247603" />
	</node>
	<node lat="59.84885278042874" lon="9.095919447480513" id="-26359">
		<tag k="alt_name" v="Bjørvassåi" />
		<tag k="name" v="Bjørvassåe" />
		<tag k="ssr:stedsnr" v="247662" />
		<tag k="waterway" v="river" />
	</node>
	<node lat="60.09831111136577" lon="8.641022217098364" id="-26360">
		<tag k="alt_name" v="Djupetjørn" />
		<tag k="name" v="Djupetjønn" />
		<tag k="natural" v="water" />
		<tag k="ssr:stedsnr" v="247802" />
		<tag k="water" v="lake" />
	</node>
	<node lat="60.0110694484285" lon="8.230300003086198" id="-26363">
		<tag k="name" v="Vinkeltjønni" />
		<tag k="natural" v="water" />
		<tag k="ssr:stedsnr" v="247821" />
	</node>
	<node lat="60.17069166260423" lon="8.620666662235786" id="-26364">
		<tag k="name" v="Borgsjå" />
		<tag k="natural" v="water" />
		<tag k="ssr:stedsnr" v="247754" />
		<tag k="water" v="lake" />
	</node>
	<node lat="60.14128611106126" lon="8.80795278095701" id="-26365">
		<tag k="alt_name" v="Lufsålon" />
		<tag k="name" v="Lufsjåloni" />
		<tag k="place" v="locality" />
		<tag k="ssr:stedsnr" v="247759" />
	</node>
	<node lat="60.152083333609454" lon="8.765552774983888" id="-26367">
		<tag k="alt_name" v="Ljotetjørnan" />
		<tag k="name" v="Ljotetjønnan" />
		<tag k="natural" v="water" />
		<tag k="ssr:stedsnr" v="247769" />
	</node>
	<node lat="60.00991944640028" lon="8.691708332412135" id="-26378">
		<tag k="alt_name" v="Salebotstjørni" />
		<tag k="name" v="Salebotstjønne" />
		<tag k="natural" v="water" />
		<tag k="ssr:stedsnr" v="247961" />
	</node>
	<node lat="60.150211113511524" lon="8.160208335027603" id="-26381">
		<tag k="name" v="Raudbekktjønnan" />
		<tag k="natural" v="water" />
		<tag k="ssr:stedsnr" v="247975" />
	</node>
	<node lat="60.03001944453378" lon="8.504263886227266" id="-26382">
		<tag k="alt_name" v="Butjørn" />
		<tag k="name" v="Store Butjønn" />
		<tag k="natural" v="water" />
		<tag k="ssr:stedsnr" v="248408" />
	</node>
	<node lat="60.015386108474594" lon="8.525444436332853" id="-26383">
		<tag k="alt_name" v="Tulletjønn" />
		<tag k="name" v="Tulletjørni" />
		<tag k="natural" v="water" />
		<tag k="ssr:stedsnr" v="248814" />
	</node>
	<node lat="60.01147781099082" lon="8.480962422349155" id="-26384">
		<tag k="name" v="Løktjørn" />
		<tag k="natural" v="water" />
		<tag k="ssr:stedsnr" v="248820" />
	</node>
	<node lat="59.89628889160625" lon="8.900330557622185" id="-26393">
		<tag k="name" v="Hallen" />
		<tag k="natural" v="cape" />
		<tag k="ssr:stedsnr" v="458155" />
	</node>
	<node lat="59.867047221600956" lon="8.572263880537632" id="-26398">
		<tag k="name" v="Torjerstaulbekken" />
		<tag k="ssr:stedsnr" v="458591" />
		<tag k="waterway" v="stream" />
	</node>
	<node lat="59.86609999613222" lon="8.862330550991631" id="-26402">
		<tag k="name" v="Deilbekk" />
		<tag k="ssr:stedsnr" v="458778" />
		<tag k="waterway" v="stream" />
	</node>
	<node lat="60.003002774358045" lon="8.666661112229697" id="-26408">
		<tag k="name" v="Sagbekken" />
		<tag k="ssr:stedsnr" v="458955" />
		<tag k="waterway" v="stream" />
	</node>
	<node lat="59.92781388919913" lon="8.54527499795465" id="-26412">
		<tag k="name" v="Olabudammen" />
		<tag k="ssr:stedsnr" v="459128" />
		<tag k="waterway" v="dam" />
	</node>
	<node lat="59.83792222242484" lon="8.385808339279224" id="-26434">
		<tag k="name" v="Hyldalsbekken" />
		<tag k="ssr:stedsnr" v="276626" />
		<tag k="waterway" v="stream" />
	</node>
	<node lat="59.877211108904014" lon="8.595530558773392" id="-26440">
		<tag k="name" v="Melandskjeva" />
		<tag k="ssr:stedsnr" v="276710" />
		<tag k="waterway" v="river" />
	</node>
	<node lat="60.01488888979728" lon="8.617938885488188" id="-26447">
		<tag k="name" v="Åmot" />
		<tag k="place" v="locality" />
		<tag k="ssr:stedsnr" v="277311" />
	</node>
	<node lat="59.92625555453705" lon="8.771202775629133" id="-26451">
		<tag k="name" v="Breivae" />
		<tag k="ssr:stedsnr" v="277969" />
		<tag k="waterway" v="river" />
	</node>
	<node lat="59.92937500121581" lon="8.954847225137529" id="-26458">
		<tag k="name" v="Vestlibekken" />
		<tag k="ssr:stedsnr" v="278482" />
		<tag k="waterway" v="stream" />
	</node>
	<node lat="59.79097222451921" lon="9.079038885256406" id="-26463">
		<tag k="name" v="Flokelandsbukte" />
		<tag k="natural" v="bay" />
		<tag k="ssr:stedsnr" v="279016" />
	</node>
	<node lat="59.87547500324968" lon="9.068505550270746" id="-26473">
		<tag k="name" v="Lone" />
		<tag k="natural" v="water" />
		<tag k="ssr:stedsnr" v="279923" />
		<tag k="water" v="lake" />
	</node>
	<node lat="60.04234722362411" lon="8.73300833049341" id="-26480">
		<tag k="name" v="Bjønnåkerhølen" />
		<tag k="place" v="locality" />
		<tag k="ssr:stedsnr" v="460934" />
	</node>
	<node lat="59.987572218001084" lon="8.907647215258086" id="-26483">
		<tag k="name" v="Sulsetbekken" />
		<tag k="ssr:stedsnr" v="461197" />
		<tag k="waterway" v="stream" />
	</node>
	<node lat="60.10928889129281" lon="8.804983334421877" id="-26491">
		<tag k="name" v="Åkrokan" />
		<tag k="ssr:stedsnr" v="286782" />
		<tag k="waterway" v="stream" />
	</node>
	<node lat="60.04654721896613" lon="8.85884166009029" id="-26496">
		<tag k="name" v="Olavsolla" />
		<tag k="place" v="locality" />
		<tag k="ssr:stedsnr" v="461484" />
	</node>
	<node lat="60.07229722576426" lon="8.86373334115191" id="-26502">
		<tag k="name" v="Dakkesetbekken" />
		<tag k="ssr:stedsnr" v="461648" />
		<tag k="waterway" v="stream" />
	</node>
	<node lat="59.91599166680404" lon="8.987261117485916" id="-26505">
		<tag k="name" v="Tjønnstultjønne" />
		<tag k="natural" v="water" />
		<tag k="ssr:stedsnr" v="461784" />
	</node>
	<node lat="60.06045555154604" lon="8.923458338968773" id="-26508">
		<tag k="name" v="Myklesetbukte" />
		<tag k="natural" v="bay" />
		<tag k="ssr:stedsnr" v="461743" />
	</node>
	<node lat="60.1307416684155" lon="8.630958335303767" id="-26510">
		<tag k="name" v="Skavlebøbekken" />
		<tag k="ssr:stedsnr" v="289127" />
		<tag k="waterway" v="stream" />
	</node>
	<node lat="60.07033333192136" lon="8.55770832824185" id="-26511">
		<tag k="name" v="Holmetjønnan" />
		<tag k="natural" v="water" />
		<tag k="ssr:stedsnr" v="289189" />
	</node>
	<node lat="59.96681388810423" lon="8.488613894850413" id="-26517">
		<tag k="name" v="Midtre Vrengletjønne" />
		<tag k="natural" v="water" />
		<tag k="ssr:stedsnr" v="290105" />
	</node>
	<node lat="59.980722225339925" lon="8.377238879941352" id="-26525">
		<tag k="alt_name" v="Løkjin" />
		<tag k="name" v="Løkin" />
		<tag k="ssr:stedsnr" v="307304" />
		<tag k="waterway" v="stream" />
	</node>
	<node lat="59.985813889141724" lon="8.454400004744153" id="-26526">
		<tag k="alt_name" v="Slettå" />
		<tag k="name" v="Slettåi" />
		<tag k="ssr:stedsnr" v="307310" />
		<tag k="waterway" v="stream" />
	</node>
	<node lat="59.95837222276997" lon="8.383172213649328" id="-26528">
		<tag k="name" v="Sigurdsteinbekken" />
		<tag k="ssr:stedsnr" v="307318" />
		<tag k="waterway" v="stream" />
	</node>
	<node lat="59.94484722128628" lon="8.46690554969727" id="-26529">
		<tag k="name" v="Sudtjønn" />
		<tag k="natural" v="water" />
		<tag k="ssr:stedsnr" v="307327" />
	</node>
	<node lat="59.91628888554035" lon="8.437855547597502" id="-26537">
		<tag k="name" v="Kvistbudaltjørni" />
		<tag k="natural" v="water" />
		<tag k="ssr:stedsnr" v="307447" />
	</node>
	<node lat="60.019547220134584" lon="8.979788885474019" id="-26556">
		<tag k="alt_name" v="Dagrobekken" />
		<tag k="name" v="Daggrøbekken" />
		<tag k="ssr:stedsnr" v="308275" />
		<tag k="waterway" v="stream" />
	</node>
	<node lat="60.046194446988764" lon="8.546369439403398" id="-26561">
		<tag k="alt_name" v="Holmetjørnan, vesle" />
		<tag k="name" v="Vesle Holmetjønn" />
		<tag k="natural" v="water" />
		<tag k="ssr:stedsnr" v="308749" />
		<tag k="water" v="lake" />
	</node>
	<node lat="60.1396638898532" lon="8.502516659235452" id="-26563">
		<tag k="alt_name" v="Gravdøl" />
		<tag k="name" v="Gravdøla" />
		<tag k="ssr:stedsnr" v="308769" />
		<tag k="waterway" v="stream" />
	</node>
	<node lat="60.041566666206876" lon="8.61889999586183" id="-26565">
		<tag k="alt_name" v="Tverrgrøtjørni, nedre" />
		<tag k="name" v="Nedre Tverrgrøtjønn" />
		<tag k="natural" v="water" />
		<tag k="ssr:stedsnr" v="308772" />
	</node>
	<node lat="60.15449999806647" lon="8.699749996295157" id="-26566">
		<tag k="name" v="Tverråi" />
		<tag k="ssr:stedsnr" v="308773" />
		<tag k="waterway" v="stream" />
	</node>
	<node lat="60.09586388970013" lon="8.439669443435005" id="-26575">
		<tag k="name" v="Småfisktjønni" />
		<tag k="natural" v="water" />
		<tag k="ssr:stedsnr" v="308890" />
	</node>
	<node lat="60.09593333526142" lon="8.36896667257588" id="-26576">
		<tag k="name" v="Gluggevasstjønni" />
		<tag k="natural" v="water" />
		<tag k="ssr:stedsnr" v="308892" />
	</node>
	<node lat="60.074105559912724" lon="8.231902782369636" id="-26578">
		<tag k="name" v="Butjønnåi" />
		<tag k="ssr:stedsnr" v="308900" />
		<tag k="waterway" v="stream" />
	</node>
	<node lat="60.06939166765045" lon="8.703800008524011" id="-26586">
		<tag k="name" v="Ulebekk" />
		<tag k="ssr:stedsnr" v="470206" />
		<tag k="waterway" v="stream" />
	</node>
	<node lat="60.00209722631034" lon="8.439647215590938" id="-26587">
		<tag k="name" v="Svartetjønn" />
		<tag k="natural" v="water" />
		<tag k="ssr:stedsnr" v="331570" />
	</node>
	<node lat="60.08164722436503" lon="8.580350001468053" id="-26591">
		<tag k="name" v="Vångebekk" />
		<tag k="ssr:stedsnr" v="471201" />
		<tag k="waterway" v="stream" />
	</node>
	<node lat="60.1428833323529" lon="8.434030560512237" id="-26593">
		<tag k="name" v="Ondånsmåltjønn" />
		<tag k="natural" v="water" />
		<tag k="ssr:stedsnr" v="471232" />
	</node>
	<node lat="60.028433331072925" lon="8.518358340505454" id="-26595">
		<tag k="name" v="Snellåe" />
		<tag k="ssr:stedsnr" v="471299" />
		<tag k="waterway" v="stream" />
	</node>
	<node lat="60.05225278013422" lon="8.5390555548287" id="-26596">
		<tag k="name" v="Holmetjønnan" />
		<tag k="natural" v="water" />
		<tag k="ssr:stedsnr" v="471344" />
	</node>
	<node lat="59.85590278087057" lon="8.600288894926216" id="-26598">
		<tag k="name" v="Stuttebekk" />
		<tag k="ssr:stedsnr" v="336545" />
		<tag k="waterway" v="stream" />
	</node>
	<node lat="60.012475000282116" lon="8.373991659574514" id="-26599">
		<tag k="name" v="Smalløyte" />
		<tag k="natural" v="strait" />
		<tag k="ssr:stedsnr" v="471692" />
	</node>
	<node lat="59.943063888554754" lon="8.500297216476545" id="-26601">
		<tag k="name" v="Svarttjønnan" />
		<tag k="natural" v="water" />
		<tag k="ssr:stedsnr" v="336705" />
	</node>
	<node lat="59.86790555867842" lon="8.353672225638281" id="-26604">
		<tag k="name" v="Skvæta" />
		<tag k="ssr:stedsnr" v="336919" />
		<tag k="waterway" v="stream" />
	</node>
	<node lat="60.082880555642106" lon="8.287919437060793" id="-26608">
		<tag k="name" v="Karihøl" />
		<tag k="place" v="locality" />
		<tag k="ssr:stedsnr" v="471797" />
	</node>
	<node lat="59.89291666817394" lon="8.83748610934289" id="-26609">
		<tag k="name" v="Nedre Gvanntjønn" />
		<tag k="natural" v="water" />
		<tag k="ssr:stedsnr" v="337106" />
	</node>
	<node lat="60.01826388689403" lon="8.746924991979784" id="-26611">
		<tag k="name" v="Håkalandsfossen" />
		<tag k="natural" v="waterfall" />
		<tag k="old_name" v="Håkalansfossen" />
		<tag k="ssr:stedsnr" v="337150" />
	</node>
	<node lat="59.911494448307586" lon="8.72380834118614" id="-26619">
		<tag k="name" v="Sjedderen" />
		<tag k="place" v="island" />
		<tag k="ssr:stedsnr" v="337714" />
	</node>
	<node lat="60.15963889131744" lon="8.688994451235255" id="-26621">
		<tag k="name" v="Åkroken" />
		<tag k="place" v="locality" />
		<tag k="ssr:stedsnr" v="471744" />
	</node>
	<node lat="59.94367222053219" lon="8.614766665099921" id="-26627">
		<tag k="name" v="Quislingkanalen" />
		<tag k="ssr:stedsnr" v="337857" />
		<tag k="waterway" v="drain" />
	</node>
	<node lat="60.015958335813835" lon="8.397013882118578" id="-26628">
		<tag k="name" v="Stuttostjønn" />
		<tag k="natural" v="water" />
		<tag k="ssr:stedsnr" v="471880" />
	</node>
	<node lat="59.903752781128205" lon="9.026588884768163" id="-26646">
		<tag k="name" v="Heimstultjønne" />
		<tag k="natural" v="water" />
		<tag k="ssr:stedsnr" v="339850" />
		<tag k="water" v="pond" />
	</node>
	<node lat="60.05504721964146" lon="8.696591674217558" id="-26647">
		<tag k="name" v="Blåurbekken" />
		<tag k="ssr:stedsnr" v="339853" />
		<tag k="waterway" v="stream" />
	</node>
	<node lat="60.06371389311542" lon="8.846891673865363" id="-26653">
		<tag k="name" v="Vetterlone" />
		<tag k="natural" v="water" />
		<tag k="ssr:stedsnr" v="340409" />
		<tag k="water" v="lake" />
	</node>
	<node lat="60.171325001554855" lon="8.240591668220125" id="-26656">
		<tag k="name" v="Syvreåe" />
		<tag k="ssr:stedsnr" v="472695" />
		<tag k="waterway" v="stream" />
	</node>
	<node lat="60.078208333520145" lon="8.292802782791467" id="-26669">
		<tag k="name" v="Stegarosfjorden" />
		<tag k="natural" v="water" />
		<tag k="ssr:stedsnr" v="349815" />
	</node>
</osm>
