<?xml version="1.0" encoding="UTF-8"?>
<osm version="0.6" generator="osmapis">
	<node lat="60.031155556652784" lon="8.270588892169581" id="-25798">
		<tag k="name" v="Vångaren" />
		<tag k="natural" v="valley" />
		<tag k="place" v="locality" />
		<tag k="ssr:stedsnr" v="229846" />
	</node>
	<node lat="59.95933333661947" lon="8.471830560469325" id="-25803">
		<tag k="name" v="Austitjønngryvlun" />
		<tag k="natural" v="hill" />
		<tag k="place" v="locality" />
		<tag k="ssr:stedsnr" v="3005" />
	</node>
	<node lat="59.94940000397246" lon="8.529772225643796" id="-25806">
		<tag k="alt_name" v="Løkjenuten" />
		<tag k="fixme" v="consider natural=peak for the most distinct mountains in the district" />
		<tag k="name" v="Løkjenut" />
		<tag k="natural" v="hill" />
		<tag k="place" v="locality" />
		<tag k="ssr:stedsnr" v="3013" />
	</node>
	<node lat="59.93889722075159" lon="8.373977769371145" id="-25809">
		<tag k="fixme" v="consider natural=peak for the most distinct mountains in the district" />
		<tag k="name" v="Grottenuten" />
		<tag k="natural" v="hill" />
		<tag k="place" v="locality" />
		<tag k="ssr:stedsnr" v="3401" />
	</node>
	<node lat="59.92741944824749" lon="8.199125005987474" id="-25811">
		<tag k="fixme" v="consider natural=peak for the most distinct mountains in the district" />
		<tag k="name" v="Grunnospiggen" />
		<tag k="natural" v="hill" />
		<tag k="place" v="locality" />
		<tag k="ssr:stedsnr" v="3403" />
	</node>
	<node lat="59.88176666967149" lon="9.016255546695254" id="-25813">
		<tag k="alt_name" v="Ondansnuten" />
		<tag k="name" v="Ondånmålnuten" />
		<tag k="natural" v="hill" />
		<tag k="place" v="locality" />
		<tag k="ssr:stedsnr" v="3709" />
	</node>
	<node lat="60.01956666550591" lon="8.700063883776755" id="-25815">
		<tag k="fixme" v="consider natural=peak for the most distinct mountains in the district" />
		<tag k="name" v="Torsetåsen" />
		<tag k="natural" v="hill" />
		<tag k="place" v="locality" />
		<tag k="ssr:stedsnr" v="4115" />
	</node>
	<node lat="59.867274996264634" lon="8.768116668216162" id="-25818">
		<tag k="alt_name" v="Sløkedalen" />
		<tag k="name" v="Sløkjedalen" />
		<tag k="natural" v="valley" />
		<tag k="place" v="locality" />
		<tag k="ssr:stedsnr" v="4165" />
	</node>
	<node lat="59.98091944541051" lon="8.630922219205122" id="-25819">
		<tag k="fixme" v="multiple name tags, choose one and add the other to alt_name" />
		<tag k="name" v="Store Finntjønnuten;Finntjønnutan" />
		<tag k="natural" v="hill" />
		<tag k="place" v="locality" />
		<tag k="ssr:stedsnr" v="4016" />
	</node>
	<node lat="59.84864444658443" lon="9.176644436776824" id="-25835">
		<tag k="name" v="Flottin" />
		<tag k="place" v="locality" />
		<tag k="ssr:stedsnr" v="4671" />
	</node>
	<node lat="59.85127222236827" lon="9.065836107495016" id="-25837">
		<tag k="alt_name" v="Skivdalsåsen" />
		<tag k="fixme" v="consider natural=peak for the most distinct mountains in the district" />
		<tag k="name" v="Skibdalsåsen" />
		<tag k="natural" v="hill" />
		<tag k="place" v="locality" />
		<tag k="ssr:stedsnr" v="4685" />
	</node>
	<node lat="60.12623333066734" lon="8.632408332543953" id="-25840">
		<tag k="alt_name" v="Lislehovde" />
		<tag k="name" v="Lislehovda" />
		<tag k="natural" v="hill" />
		<tag k="place" v="locality" />
		<tag k="ssr:stedsnr" v="4807" />
	</node>
	<node lat="59.85559166693335" lon="8.480019448611046" id="-25842">
		<tag k="fixme" v="consider natural=peak for the most distinct mountains in the district" />
		<tag k="name" v="Elgshovda" />
		<tag k="natural" v="hill" />
		<tag k="place" v="locality" />
		<tag k="ssr:stedsnr" v="4861" />
	</node>
	<node lat="59.85095277419758" lon="8.827341671184904" id="-25844">
		<tag k="alt_name" v="Staulfjellet, øvre" />
		<tag k="name" v="Øvrestulfjell" />
		<tag k="natural" v="hill" />
		<tag k="place" v="locality" />
		<tag k="ssr:stedsnr" v="4864" />
	</node>
	<node lat="59.96961389099566" lon="9.035336103248682" id="-25848">
		<tag k="fixme" v="consider natural=peak for the most distinct mountains in the district" />
		<tag k="name" v="Skinnatten" />
		<tag k="natural" v="hill" />
		<tag k="place" v="locality" />
		<tag k="ssr:stedsnr" v="4906" />
	</node>
	<node lat="60.07189444580606" lon="8.344775001680535" id="-25851">
		<tag k="fixme" v="consider natural=peak for the most distinct mountains in the district" />
		<tag k="name" v="Gryvlenut" />
		<tag k="natural" v="hill" />
		<tag k="place" v="locality" />
		<tag k="ssr:stedsnr" v="4925" />
	</node>
	<node lat="60.05381944325713" lon="8.219500008371933" id="-25852">
		<tag k="name" v="Geitebuhovde" />
		<tag k="natural" v="hill" />
		<tag k="place" v="locality" />
		<tag k="ssr:stedsnr" v="4934" />
	</node>
	<node lat="60.07156944044289" lon="8.698452778490395" id="-25858">
		<tag k="name" v="Gausetdalen" />
		<tag k="natural" v="valley" />
		<tag k="place" v="locality" />
		<tag k="ssr:stedsnr" v="5820" />
	</node>
	<node lat="60.09760277365617" lon="8.1620333323828" id="-25862">
		<tag k="name" v="Bunuten" />
		<tag k="natural" v="hill" />
		<tag k="place" v="locality" />
		<tag k="ssr:stedsnr" v="5869" />
	</node>
	<node lat="60.07731666356926" lon="8.156258329632697" id="-25865">
		<tag k="name" v="Kverven" />
		<tag k="natural" v="valley" />
		<tag k="place" v="locality" />
		<tag k="ssr:stedsnr" v="5880" />
	</node>
	<node lat="60.0477500013503" lon="8.772316673791124" id="-25866">
		<tag k="name" v="Natten" />
		<tag k="natural" v="hill" />
		<tag k="place" v="locality" />
		<tag k="ssr:stedsnr" v="5759" />
	</node>
	<node lat="59.860791662740134" lon="8.362299991748623" id="-25875">
		<tag k="name" v="Vaulie" />
		<tag k="natural" v="slope" />
		<tag k="place" v="locality" />
		<tag k="ssr:stedsnr" v="32915" />
	</node>
	<node lat="59.85488611004059" lon="8.39959721487021" id="-25876">
		<tag k="name" v="Deildalen" />
		<tag k="natural" v="valley" />
		<tag k="place" v="locality" />
		<tag k="ssr:stedsnr" v="33202" />
	</node>
	<node lat="59.964424995587684" lon="8.760988884198229" id="-25878">
		<tag k="name" v="Stavedalen" />
		<tag k="natural" v="valley" />
		<tag k="place" v="locality" />
		<tag k="ssr:stedsnr" v="33584" />
	</node>
	<node lat="59.87781944134689" lon="8.790377785968557" id="-25886">
		<tag k="name" v="Vardehovet" />
		<tag k="natural" v="hill" />
		<tag k="place" v="locality" />
		<tag k="ssr:stedsnr" v="34118" />
	</node>
	<node lat="59.87266111238545" lon="8.66700554971607" id="-25892">
		<tag k="name" v="Kjøvjåkoll" />
		<tag k="place" v="locality" />
		<tag k="ssr:stedsnr" v="34422" />
	</node>
	<node lat="59.80531666392477" lon="9.10725556159867" id="-25904">
		<tag k="name" v="Skorvin" />
		<tag k="place" v="locality" />
		<tag k="ssr:stedsnr" v="36027" />
	</node>
	<node lat="60.081825002678144" lon="8.653472223537129" id="-25920">
		<tag k="name" v="Stigkåse" />
		<tag k="natural" v="slope" />
		<tag k="place" v="locality" />
		<tag k="ssr:stedsnr" v="46004" />
	</node>
	<node lat="60.15426388950246" lon="8.617627769296195" id="-25922">
		<tag k="name" v="Juvet" />
		<tag k="natural" v="gorge" />
		<tag k="ssr:stedsnr" v="46171" />
	</node>
	<node lat="60.03455555684295" lon="8.578536119335253" id="-25924">
		<tag k="name" v="Furuløyte" />
		<tag k="natural" v="slope" />
		<tag k="place" v="locality" />
		<tag k="ssr:stedsnr" v="46405" />
	</node>
	<node lat="60.15801111126506" lon="8.657594448266384" id="-25926">
		<tag k="name" v="Smørbukkhallin" />
		<tag k="natural" v="slope" />
		<tag k="place" v="locality" />
		<tag k="ssr:stedsnr" v="46771" />
	</node>
	<node lat="59.99985555217543" lon="8.510163897102915" id="-25927">
		<tag k="fixme" v="consider natural=peak for the most distinct mountains in the district" />
		<tag k="name" v="Primosten" />
		<tag k="natural" v="hill" />
		<tag k="place" v="locality" />
		<tag k="ssr:stedsnr" v="46903" />
	</node>
	<node lat="59.8688944462779" lon="8.61909722383779" id="-25933">
		<tag k="name" v="Svaddenipun" />
		<tag k="place" v="locality" />
		<tag k="ssr:stedsnr" v="64163" />
	</node>
	<node lat="59.9639444431831" lon="8.704394443777781" id="-25935">
		<tag k="fixme" v="consider natural=peak for the most distinct mountains in the district" />
		<tag k="name" v="Myrefitåsen" />
		<tag k="natural" v="hill" />
		<tag k="place" v="locality" />
		<tag k="ssr:stedsnr" v="64012" />
	</node>
	<node lat="59.87118888560472" lon="9.163299993705579" id="-25943">
		<tag k="alt_name" v="Midjunggrønuten" />
		<tag k="name" v="Mjedonggrønuten" />
		<tag k="natural" v="hill" />
		<tag k="place" v="locality" />
		<tag k="ssr:stedsnr" v="64708" />
	</node>
	<node lat="59.928449998351155" lon="8.522405560898774" id="-25949">
		<tag k="name" v="Olabudalen" />
		<tag k="natural" v="valley" />
		<tag k="place" v="locality" />
		<tag k="ssr:stedsnr" v="65215" />
	</node>
	<node lat="60.11861111054053" lon="7.947924991189963" id="-25954">
		<tag k="fixme" v="consider natural=peak for the most distinct mountains in the district" />
		<tag k="name" v="Viuvasseggi" />
		<tag k="natural" v="hill" />
		<tag k="place" v="locality" />
		<tag k="ssr:stedsnr" v="65607" />
	</node>
	<node lat="59.84336667035052" lon="9.015858333608426" id="-25955">
		<tag k="fixme" v="consider natural=peak for the most distinct mountains in the district" />
		<tag k="name" v="Eggen" />
		<tag k="natural" v="hill" />
		<tag k="place" v="locality" />
		<tag k="ssr:stedsnr" v="65648" />
	</node>
	<node lat="60.09462500441864" lon="8.865347219349555" id="-25960">
		<tag k="alt_name" v="Numedalshøgdi" />
		<tag k="fixme" v="consider natural=peak for the most distinct mountains in the district" />
		<tag k="name" v="Numedalshovda" />
		<tag k="natural" v="hill" />
		<tag k="place" v="locality" />
		<tag k="ssr:stedsnr" v="65525" />
	</node>
	<node lat="60.13160555305778" lon="8.744216659485426" id="-25966">
		<tag k="alt_name" v="Skålnatten, vesle" />
		<tag k="name" v="Vesle Skålnatten" />
		<tag k="natural" v="hill" />
		<tag k="place" v="locality" />
		<tag k="ssr:stedsnr" v="65801" />
	</node>
	<node lat="60.022619444662276" lon="8.401750006782617" id="-25967">
		<tag k="fixme" v="consider natural=peak for the most distinct mountains in the district" />
		<tag k="name" v="Nålhovet" />
		<tag k="natural" v="hill" />
		<tag k="place" v="locality" />
		<tag k="ssr:stedsnr" v="65815" />
	</node>
	<node lat="60.16140555767893" lon="8.699827775696269" id="-25973">
		<tag k="name" v="Nordmannshovda" />
		<tag k="natural" v="hill" />
		<tag k="place" v="locality" />
		<tag k="ssr:stedsnr" v="65764" />
	</node>
	<node lat="60.151038892107785" lon="8.597027772775483" id="-25974">
		<tag k="name" v="Fantebakke" />
		<tag k="natural" v="slope" />
		<tag k="place" v="locality" />
		<tag k="ssr:stedsnr" v="65768" />
	</node>
	<node lat="59.96859722536297" lon="8.925774996667942" id="-25977">
		<tag k="fixme" v="consider natural=peak for the most distinct mountains in the district" />
		<tag k="name" v="Djupedalsnuten" />
		<tag k="natural" v="hill" />
		<tag k="place" v="locality" />
		<tag k="ssr:stedsnr" v="65910" />
	</node>
	<node lat="59.968188888120835" lon="9.006927772526298" id="-25979">
		<tag k="name" v="Saurelihovda" />
		<tag k="natural" v="ridge" />
		<tag k="place" v="locality" />
		<tag k="ssr:stedsnr" v="65915" />
	</node>
	<node lat="60.04440278168607" lon="8.356433336820423" id="-25980">
		<tag k="fixme" v="consider natural=peak for the most distinct mountains in the district" />
		<tag k="name" v="Trolltjønnuten" />
		<tag k="natural" v="hill" />
		<tag k="place" v="locality" />
		<tag k="ssr:stedsnr" v="65947" />
	</node>
	<node lat="60.09894999981634" lon="7.487983339709965" id="-25984">
		<tag k="name" v="Hardangervidda" />
		<tag k="natural" v="plateau" />
		<tag k="ssr:stedsnr" v="85109" />
	</node>
	<node lat="59.95248611518046" lon="8.632475004142698" id="-25988">
		<tag k="name" v="Husevolldalen" />
		<tag k="natural" v="valley" />
		<tag k="place" v="locality" />
		<tag k="ssr:stedsnr" v="246054" />
	</node>
	<node lat="59.95049444668055" lon="8.653088882027728" id="-25989">
		<tag k="fixme" v="consider natural=peak for the most distinct mountains in the district" />
		<tag k="name" v="Lisetåsen" />
		<tag k="natural" v="hill" />
		<tag k="place" v="locality" />
		<tag k="ssr:stedsnr" v="246055" />
	</node>
	<node lat="59.95349999920196" lon="8.58041666785014" id="-25990">
		<tag k="name" v="Stavslian" />
		<tag k="natural" v="slope" />
		<tag k="place" v="locality" />
		<tag k="ssr:stedsnr" v="246059" />
	</node>
	<node lat="59.87081666277167" lon="8.694044452054827" id="-25992">
		<tag k="fixme" v="consider natural=peak for the most distinct mountains in the district" />
		<tag k="name" v="Hovdestaulnuten" />
		<tag k="natural" v="hill" />
		<tag k="place" v="locality" />
		<tag k="ssr:stedsnr" v="246175" />
	</node>
	<node lat="59.91384721819199" lon="8.530175004623308" id="-25995">
		<tag k="name" v="Sandvassnuten" />
		<tag k="natural" v="hill" />
		<tag k="place" v="locality" />
		<tag k="ssr:stedsnr" v="246198" />
	</node>
	<node lat="59.93407777652425" lon="9.010177779981785" id="-26001">
		<tag k="name" v="Skonattan" />
		<tag k="natural" v="hill" />
		<tag k="place" v="locality" />
		<tag k="ssr:stedsnr" v="246538" />
	</node>
	<node lat="59.94246111451419" lon="8.94475000742275" id="-26003">
		<tag k="fixme" v="consider natural=peak for the most distinct mountains in the district" />
		<tag k="name" v="Fjellstulnuten" />
		<tag k="natural" v="hill" />
		<tag k="place" v="locality" />
		<tag k="ssr:stedsnr" v="246550" />
	</node>
	<node lat="59.88502499815921" lon="9.041036102270327" id="-26004">
		<tag k="fixme" v="consider natural=peak for the most distinct mountains in the district" />
		<tag k="name" v="Breidsetåsen" />
		<tag k="natural" v="hill" />
		<tag k="place" v="locality" />
		<tag k="ssr:stedsnr" v="246691" />
	</node>
	<node lat="59.859133334760095" lon="8.379433340417673" id="-26010">
		<tag k="name" v="Lauvhaugan" />
		<tag k="natural" v="slope" />
		<tag k="place" v="locality" />
		<tag k="ssr:stedsnr" v="93862" />
	</node>
	<node lat="59.864602776525714" lon="8.35164167062419" id="-26011">
		<tag k="name" v="Ormehaug" />
		<tag k="natural" v="hill" />
		<tag k="place" v="locality" />
		<tag k="ssr:stedsnr" v="93875" />
	</node>
	<node lat="59.93769444216359" lon="8.609158338069905" id="-26014">
		<tag k="alt_name" v="Stavsethøgdi" />
		<tag k="name" v="Stavsethovda" />
		<tag k="natural" v="hill" />
		<tag k="place" v="locality" />
		<tag k="ssr:stedsnr" v="247040" />
	</node>
	<node lat="59.90891666697976" lon="8.844583330279564" id="-26015">
		<tag k="name" v="Bjønnenuten" />
		<tag k="place" v="locality" />
		<tag k="ssr:stedsnr" v="94111" />
	</node>
	<node lat="59.91140833683551" lon="8.75331943870015" id="-26024">
		<tag k="fixme" v="consider natural=peak for the most distinct mountains in the district" />
		<tag k="name" v="Deilhovda" />
		<tag k="natural" v="hill" />
		<tag k="place" v="locality" />
		<tag k="ssr:stedsnr" v="247224" />
	</node>
	<node lat="59.98926110824743" lon="8.724341665280718" id="-26025">
		<tag k="name" v="Vårfjosbrekka" />
		<tag k="natural" v="slope" />
		<tag k="place" v="locality" />
		<tag k="ssr:stedsnr" v="94602" />
	</node>
	<node lat="59.832383337597825" lon="8.453683334253588" id="-26029">
		<tag k="fixme" v="consider natural=peak for the most distinct mountains in the district" />
		<tag k="name" v="Månelibrotet" />
		<tag k="natural" v="hill" />
		<tag k="place" v="locality" />
		<tag k="ssr:stedsnr" v="247397" />
	</node>
	<node lat="59.991811114283074" lon="8.577688893747743" id="-26031">
		<tag k="name" v="Nysetdalen" />
		<tag k="natural" v="valley" />
		<tag k="place" v="locality" />
		<tag k="ssr:stedsnr" v="247103" />
	</node>
	<node lat="60.02232499674014" lon="8.71813054663352" id="-26033">
		<tag k="name" v="Sognfarli" />
		<tag k="natural" v="slope" />
		<tag k="place" v="locality" />
		<tag k="ssr:stedsnr" v="95522" />
	</node>
	<node lat="59.909158337239" lon="8.929891675494268" id="-26037">
		<tag k="alt_name" v="Løkedalen" />
		<tag k="name" v="Løkjedalen" />
		<tag k="natural" v="valley" />
		<tag k="place" v="locality" />
		<tag k="ssr:stedsnr" v="247499" />
	</node>
	<node lat="60.048627780536016" lon="8.76353056145338" id="-26040">
		<tag k="name" v="Nattelie" />
		<tag k="natural" v="slope" />
		<tag k="place" v="locality" />
		<tag k="ssr:stedsnr" v="96608" />
	</node>
	<node lat="60.06963888928952" lon="8.89623888773511" id="-26041">
		<tag k="name" v="Ragnhildstaulhaugane" />
		<tag k="natural" v="hill" />
		<tag k="place" v="locality" />
		<tag k="ssr:stedsnr" v="96623" />
	</node>
	<node lat="60.05358055615262" lon="8.731491659187737" id="-26044">
		<tag k="name" v="Veltejuvet" />
		<tag k="natural" v="gorge" />
		<tag k="ssr:stedsnr" v="96583" />
	</node>
	<node lat="59.84853888611558" lon="9.190244443697301" id="-26051">
		<tag k="fixme" v="consider natural=peak for the most distinct mountains in the district" />
		<tag k="name" v="Blefjell" />
		<tag k="natural" v="hill" />
		<tag k="place" v="locality" />
		<tag k="ssr:stedsnr" v="247639" />
	</node>
	<node lat="60.03617499572361" lon="8.601783341061015" id="-26063">
		<tag k="name" v="Nuthovdnuten" />
		<tag k="natural" v="hill" />
		<tag k="place" v="locality" />
		<tag k="ssr:stedsnr" v="247787" />
	</node>
	<node lat="60.09002500258653" lon="8.184736111935203" id="-26071">
		<tag k="name" v="Osenuten" />
		<tag k="natural" v="hill" />
		<tag k="place" v="locality" />
		<tag k="ssr:stedsnr" v="247874" />
	</node>
	<node lat="60.07921111312892" lon="8.403486105000745" id="-26076">
		<tag k="name" v="Roflott" />
		<tag k="place" v="locality" />
		<tag k="ssr:stedsnr" v="247896" />
	</node>
	<node lat="59.99689166473894" lon="8.969277778379492" id="-26078">
		<tag k="fixme" v="consider natural=peak for the most distinct mountains in the district" />
		<tag k="name" v="Nilsbuåsen" />
		<tag k="natural" v="hill" />
		<tag k="place" v="locality" />
		<tag k="ssr:stedsnr" v="247900" />
	</node>
	<node lat="59.9994361129992" lon="8.96482500494611" id="-26079">
		<tag k="fixme" v="consider natural=peak for the most distinct mountains in the district" />
		<tag k="name" v="Grovåskardåsen" />
		<tag k="natural" v="hill" />
		<tag k="place" v="locality" />
		<tag k="ssr:stedsnr" v="247901" />
	</node>
	<node lat="60.16874999948487" lon="8.486344448903607" id="-26083">
		<tag k="fixme" v="consider natural=peak for the most distinct mountains in the district" />
		<tag k="name" v="Salhovda" />
		<tag k="natural" v="hill" />
		<tag k="old_name" v="Sahovda" />
		<tag k="place" v="locality" />
		<tag k="ssr:stedsnr" v="102878" />
	</node>
	<node lat="60.08755555160822" lon="8.651883331163651" id="-26089">
		<tag k="name" v="Grødun" />
		<tag k="place" v="locality" />
		<tag k="ssr:stedsnr" v="107013" />
	</node>
	<node lat="60.036711113499216" lon="8.516469445690399" id="-26093">
		<tag k="name" v="Budålån" />
		<tag k="natural" v="valley" />
		<tag k="place" v="locality" />
		<tag k="ssr:stedsnr" v="107439" />
	</node>
	<node lat="59.96941111481708" lon="8.636086115392963" id="-26099">
		<tag k="alt_name" v="Breidbunuten" />
		<tag k="fixme" v="consider natural=peak for the most distinct mountains in the district" />
		<tag k="name" v="Breibunuten" />
		<tag k="natural" v="hill" />
		<tag k="place" v="locality" />
		<tag k="ssr:stedsnr" v="125006" />
	</node>
	<node lat="59.97862500393822" lon="8.569938881699883" id="-26100">
		<tag k="alt_name" v="Haugenattan" />
		<tag k="fixme" v="consider natural=peak for the most distinct mountains in the district" />
		<tag k="name" v="Haugenatten" />
		<tag k="natural" v="hill" />
		<tag k="place" v="locality" />
		<tag k="ssr:stedsnr" v="125020" />
	</node>
	<node lat="59.943063888554754" lon="8.500297216476545" id="-26103">
		<tag k="alt_name" v="Nordre Kviburiset" />
		<tag k="name" v="Kviburiset" />
		<tag k="natural" v="hill" />
		<tag k="place" v="locality" />
		<tag k="ssr:stedsnr" v="125062" />
	</node>
	<node lat="59.77926111016314" lon="9.118572223909887" id="-26105">
		<tag k="fixme" v="consider natural=peak for the most distinct mountains in the district" />
		<tag k="name" v="Snauås" />
		<tag k="natural" v="hill" />
		<tag k="place" v="locality" />
		<tag k="ssr:stedsnr" v="125403" />
	</node>
	<node lat="59.779522222090286" lon="9.043338888177361" id="-26106">
		<tag k="name" v="Oredalen" />
		<tag k="natural" v="valley" />
		<tag k="place" v="locality" />
		<tag k="ssr:stedsnr" v="125413" />
	</node>
	<node lat="59.88517222129486" lon="9.081955552709855" id="-26113">
		<tag k="alt_name" v="Bjørnskåsåsen" />
		<tag k="fixme" v="consider natural=peak for the most distinct mountains in the district" />
		<tag k="name" v="Bjønnskåsåsen" />
		<tag k="natural" v="hill" />
		<tag k="place" v="locality" />
		<tag k="ssr:stedsnr" v="125749" />
	</node>
	<node lat="59.88692777365652" lon="8.94199722005161" id="-26114">
		<tag k="name" v="Tinnsjåbergo" />
		<tag k="place" v="locality" />
		<tag k="ssr:stedsnr" v="125756" />
	</node>
	<node lat="59.87333055377388" lon="8.357327772978389" id="-26116">
		<tag k="fixme" v="consider natural=peak for the most distinct mountains in the district" />
		<tag k="name" v="Vigfithovda" />
		<tag k="natural" v="hill" />
		<tag k="place" v="locality" />
		<tag k="ssr:stedsnr" v="125499" />
	</node>
	<node lat="60.01289166884616" lon="8.907863888842531" id="-26119">
		<tag k="name" v="Storhovda" />
		<tag k="natural" v="hill" />
		<tag k="place" v="locality" />
		<tag k="ssr:stedsnr" v="126308" />
	</node>
	<node lat="60.01294166680952" lon="8.963050004550269" id="-26120">
		<tag k="fixme" v="consider natural=peak for the most distinct mountains in the district" />
		<tag k="name" v="Skirvåsen" />
		<tag k="natural" v="hill" />
		<tag k="place" v="locality" />
		<tag k="ssr:stedsnr" v="126299" />
	</node>
	<node lat="60.09823888539394" lon="8.556550000504474" id="-26129">
		<tag k="fixme" v="consider natural=peak for the most distinct mountains in the district" />
		<tag k="name" v="Breidsetfjellet" />
		<tag k="natural" v="hill" />
		<tag k="place" v="locality" />
		<tag k="ssr:stedsnr" v="126791" />
	</node>
	<node lat="60.01975555241827" lon="8.355511119075608" id="-26130">
		<tag k="fixme" v="consider natural=peak for the most distinct mountains in the district" />
		<tag k="name" v="Falkeberget" />
		<tag k="natural" v="hill" />
		<tag k="place" v="locality" />
		<tag k="ssr:stedsnr" v="126793" />
	</node>
	<node lat="60.09375000105052" lon="8.778202785639365" id="-26131">
		<tag k="name" v="Fjådalen" />
		<tag k="natural" v="valley" />
		<tag k="place" v="locality" />
		<tag k="ssr:stedsnr" v="126794" />
	</node>
	<node lat="60.02086944635049" lon="8.18902499359863" id="-26136">
		<tag k="fixme" v="consider natural=peak for the most distinct mountains in the district" />
		<tag k="name" v="Sandbekknuten" />
		<tag k="natural" v="hill" />
		<tag k="place" v="locality" />
		<tag k="ssr:stedsnr" v="126801" />
	</node>
	<node lat="60.03945277496001" lon="8.358108326639563" id="-26138">
		<tag k="fixme" v="consider natural=peak for the most distinct mountains in the district" />
		<tag k="name" v="Trolltjønnatten" />
		<tag k="natural" v="hill" />
		<tag k="place" v="locality" />
		<tag k="ssr:stedsnr" v="126926" />
	</node>
	<node lat="60.0298249959381" lon="8.190577772628977" id="-26139">
		<tag k="name" v="Sandbekkdalen" />
		<tag k="natural" v="valley" />
		<tag k="place" v="locality" />
		<tag k="ssr:stedsnr" v="126814" />
	</node>
	<node lat="60.0921111122403" lon="8.810252773815247" id="-26140">
		<tag k="name" v="Luredalen" />
		<tag k="natural" v="valley" />
		<tag k="place" v="locality" />
		<tag k="ssr:stedsnr" v="126822" />
	</node>
	<node lat="60.0687444432213" lon="8.744902779789857" id="-26144">
		<tag k="fixme" v="consider natural=peak for the most distinct mountains in the district" />
		<tag k="name" v="Såti" />
		<tag k="natural" v="hill" />
		<tag k="place" v="locality" />
		<tag k="ssr:stedsnr" v="126846" />
	</node>
	<node lat="59.86105833072028" lon="8.513497220210503" id="-26150">
		<tag k="name" v="Hekslie" />
		<tag k="place" v="locality" />
		<tag k="ssr:stedsnr" v="154216" />
	</node>
	<node lat="59.88438055400508" lon="8.651422227723641" id="-26159">
		<tag k="name" v="Nedre Kviteberg" />
		<tag k="place" v="locality" />
		<tag k="ssr:stedsnr" v="155405" />
	</node>
	<node lat="59.89754721994704" lon="8.804924999297771" id="-26161">
		<tag k="name" v="Hovda" />
		<tag k="natural" v="hill" />
		<tag k="place" v="locality" />
		<tag k="ssr:stedsnr" v="155372" />
	</node>
	<node lat="59.91341111114221" lon="8.831900008336019" id="-26162">
		<tag k="name" v="Nordnuten" />
		<tag k="natural" v="ridge" />
		<tag k="place" v="locality" />
		<tag k="ssr:stedsnr" v="155386" />
	</node>
	<node lat="59.88505833495032" lon="8.588347213703464" id="-26165">
		<tag k="name" v="Peisen" />
		<tag k="place" v="locality" />
		<tag k="ssr:stedsnr" v="155597" />
	</node>
	<node lat="59.980336107997694" lon="8.910508326341137" id="-26171">
		<tag k="name" v="Nybuhaugen" />
		<tag k="natural" v="ridge" />
		<tag k="place" v="locality" />
		<tag k="ssr:stedsnr" v="157049" />
	</node>
	<node lat="60.02180277857972" lon="8.890177778117268" id="-26173">
		<tag k="name" v="Tverrlie" />
		<tag k="natural" v="slope" />
		<tag k="place" v="locality" />
		<tag k="ssr:stedsnr" v="157123" />
	</node>
	<node lat="59.9844694406208" lon="8.90478610624479" id="-26175">
		<tag k="name" v="Bjøllhovdskardet" />
		<tag k="natural" v="valley" />
		<tag k="place" v="locality" />
		<tag k="ssr:stedsnr" v="157167" />
	</node>
	<node lat="60.007322222647026" lon="8.967541674686192" id="-26179">
		<tag k="name" v="Nystaulgrøe" />
		<tag k="natural" v="slope" />
		<tag k="place" v="locality" />
		<tag k="ssr:stedsnr" v="157405" />
	</node>
	<node lat="60.06159444102203" lon="8.886958330029858" id="-26184">
		<tag k="name" v="Storbuhaugan" />
		<tag k="natural" v="hill" />
		<tag k="place" v="locality" />
		<tag k="ssr:stedsnr" v="157398" />
	</node>
	<node lat="60.02904999921172" lon="8.8286027759116" id="-26185">
		<tag k="name" v="Haukåsmogen" />
		<tag k="place" v="locality" />
		<tag k="ssr:stedsnr" v="157401" />
	</node>
	<node lat="60.04674999936706" lon="8.727850007740592" id="-26189">
		<tag k="name" v="Veltehaugan" />
		<tag k="natural" v="slope" />
		<tag k="place" v="locality" />
		<tag k="ssr:stedsnr" v="157903" />
	</node>
	<node lat="59.9910694442189" lon="8.498433334579788" id="-26193">
		<tag k="name" v="Nordskardet" />
		<tag k="natural" v="valley" />
		<tag k="place" v="locality" />
		<tag k="ssr:stedsnr" v="158852" />
	</node>
	<node lat="60.08143611055798" lon="8.517630552117698" id="-26194">
		<tag k="name" v="Nystaullie" />
		<tag k="natural" v="slope" />
		<tag k="place" v="locality" />
		<tag k="ssr:stedsnr" v="167007" />
	</node>
	<node lat="59.99971389135758" lon="8.57111388682836" id="-26198">
		<tag k="name" v="Gvævan" />
		<tag k="place" v="locality" />
		<tag k="ssr:stedsnr" v="167204" />
	</node>
	<node lat="60.04801388866066" lon="8.592969439580799" id="-26199">
		<tag k="name" v="Spångereiglupen" />
		<tag k="natural" v="valley" />
		<tag k="place" v="locality" />
		<tag k="ssr:stedsnr" v="167366" />
	</node>
	<node lat="60.01904166639789" lon="8.604177785923186" id="-26201">
		<tag k="name" v="Staupsmarkje" />
		<tag k="natural" v="slope" />
		<tag k="place" v="locality" />
		<tag k="ssr:stedsnr" v="167567" />
	</node>
	<node lat="59.99088889331407" lon="8.526613883157175" id="-26202">
		<tag k="name" v="Storsteinlian" />
		<tag k="natural" v="slope" />
		<tag k="place" v="locality" />
		<tag k="ssr:stedsnr" v="167905" />
	</node>
	<node lat="60.030011114952266" lon="8.597577785790424" id="-26203">
		<tag k="name" v="Løyteshaug" />
		<tag k="natural" v="hill" />
		<tag k="place" v="locality" />
		<tag k="ssr:stedsnr" v="168509" />
	</node>
	<node lat="59.9947694414201" lon="8.431913881457627" id="-26204">
		<tag k="name" v="Grottedokk" />
		<tag k="natural" v="valley" />
		<tag k="place" v="locality" />
		<tag k="ssr:stedsnr" v="168856" />
	</node>
	<node lat="59.98584444119024" lon="8.380327779664626" id="-26205">
		<tag k="fixme" v="consider natural=peak for the most distinct mountains in the district" />
		<tag k="name" v="Svartelonrabben" />
		<tag k="natural" v="hill" />
		<tag k="place" v="locality" />
		<tag k="ssr:stedsnr" v="168713" />
	</node>
	<node lat="59.8068861070349" lon="9.063438895217041" id="-26207">
		<tag k="fixme" v="consider natural=peak for the most distinct mountains in the district" />
		<tag k="name" v="Jutåsen" />
		<tag k="natural" v="hill" />
		<tag k="place" v="locality" />
		<tag k="ssr:stedsnr" v="185587" />
	</node>
	<node lat="59.82917499638432" lon="9.164825007097239" id="-26209">
		<tag k="fixme" v="consider natural=peak for the most distinct mountains in the district" />
		<tag k="name" v="Nystulnuten" />
		<tag k="natural" v="hill" />
		<tag k="place" v="locality" />
		<tag k="ssr:stedsnr" v="185596" />
	</node>
	<node lat="59.935313889907334" lon="8.542108337621848" id="-26211">
		<tag k="alt_name" v="Klovsteinhovda" />
		<tag k="name" v="Kløvsteinhovda" />
		<tag k="natural" v="hill" />
		<tag k="place" v="locality" />
		<tag k="ssr:stedsnr" v="186046" />
	</node>
	<node lat="59.78313611208434" lon="8.327661113123721" id="-26214">
		<tag k="fixme" v="consider natural=peak for the most distinct mountains in the district" />
		<tag k="name" v="Grasfjell" />
		<tag k="natural" v="hill" />
		<tag k="place" v="locality" />
		<tag k="ssr:stedsnr" v="186083" />
	</node>
	<node lat="59.91755833727974" lon="8.515908327210205" id="-26218">
		<tag k="alt_name" v="Olabunuten" />
		<tag k="name" v="Olabunut" />
		<tag k="natural" v="hill" />
		<tag k="place" v="locality" />
		<tag k="ssr:stedsnr" v="186191" />
	</node>
	<node lat="59.76726666633641" lon="9.044808329294577" id="-26220">
		<tag k="name" v="Tinnsjådalen" />
		<tag k="natural" v="valley" />
		<tag k="place" v="locality" />
		<tag k="ssr:stedsnr" v="186478" />
	</node>
	<node lat="59.917541669794765" lon="9.029377771888512" id="-26225">
		<tag k="name" v="Naukeset" />
		<tag k="place" v="locality" />
		<tag k="ssr:stedsnr" v="186584" />
	</node>
	<node lat="59.933411114512616" lon="9.070544449176081" id="-26226">
		<tag k="fixme" v="consider natural=peak for the most distinct mountains in the district" />
		<tag k="name" v="Hovdestulhovda" />
		<tag k="natural" v="hill" />
		<tag k="place" v="locality" />
		<tag k="ssr:stedsnr" v="186588" />
	</node>
	<node lat="60.10202222501229" lon="8.895924997058613" id="-26228">
		<tag k="name" v="Lislehovda" />
		<tag k="natural" v="hill" />
		<tag k="place" v="locality" />
		<tag k="ssr:stedsnr" v="186592" />
	</node>
	<node lat="60.14762500401641" lon="8.11945000334409" id="-26237">
		<tag k="name" v="Grytekilnuten" />
		<tag k="natural" v="hill" />
		<tag k="place" v="locality" />
		<tag k="ssr:stedsnr" v="186973" />
	</node>
	<node lat="60.06981110872393" lon="8.948969442902191" id="-26241">
		<tag k="alt_name" v="Lauvhovda" />
		<tag k="name" v="Lauvhovde" />
		<tag k="natural" v="ridge" />
		<tag k="place" v="locality" />
		<tag k="ssr:stedsnr" v="187694" />
	</node>
	<node lat="60.00803611144604" lon="8.448150006667396" id="-26243">
		<tag k="fixme" v="consider natural=peak for the most distinct mountains in the district" />
		<tag k="name" v="Nivstjønnutane" />
		<tag k="natural" v="hill" />
		<tag k="place" v="locality" />
		<tag k="ssr:stedsnr" v="187808" />
	</node>
	<node lat="60.00333055334961" lon="8.307094443771547" id="-26245">
		<tag k="fixme" v="consider natural=peak for the most distinct mountains in the district" />
		<tag k="name" v="Gøystvassnuten" />
		<tag k="natural" v="hill" />
		<tag k="place" v="locality" />
		<tag k="ssr:stedsnr" v="187815" />
	</node>
	<node lat="60.030713885453586" lon="8.688833338982656" id="-26249">
		<tag k="alt_name" v="Ullarnatten" />
		<tag k="fixme" v="consider natural=peak for the most distinct mountains in the district" />
		<tag k="name" v="Ullernattan" />
		<tag k="natural" v="hill" />
		<tag k="place" v="locality" />
		<tag k="ssr:stedsnr" v="187776" />
	</node>
	<node lat="60.03230833544333" lon="8.70999721410834" id="-26250">
		<tag k="fixme" v="consider natural=peak for the most distinct mountains in the district" />
		<tag k="name" v="Gamlestaulfjellet" />
		<tag k="natural" v="hill" />
		<tag k="place" v="locality" />
		<tag k="ssr:stedsnr" v="187778" />
	</node>
	<node lat="60.1093611075055" lon="8.481675006700513" id="-26251">
		<tag k="alt_name" v="Ånundkleivnut" />
		<tag k="fixme" v="consider natural=peak for the most distinct mountains in the district" />
		<tag k="name" v="Ånundkleivnuten" />
		<tag k="natural" v="hill" />
		<tag k="place" v="locality" />
		<tag k="ssr:stedsnr" v="187782" />
	</node>
	<node lat="60.05808888997866" lon="8.302180546592528" id="-26254">
		<tag k="fixme" v="consider natural=peak for the most distinct mountains in the district" />
		<tag k="name" v="Uksedalsnuten" />
		<tag k="natural" v="hill" />
		<tag k="place" v="locality" />
		<tag k="ssr:stedsnr" v="263129" />
	</node>
	<node lat="60.142738892877176" lon="8.25916944186384" id="-26257">
		<tag k="fixme" v="consider natural=peak for the most distinct mountains in the district" />
		<tag k="name" v="Syvrenuten" />
		<tag k="natural" v="hill" />
		<tag k="place" v="locality" />
		<tag k="ssr:stedsnr" v="263136" />
	</node>
	<node lat="59.88017777893158" lon="8.501299995991662" id="-26262">
		<tag k="name" v="Bråtånut" />
		<tag k="place" v="locality" />
		<tag k="ssr:stedsnr" v="215587" />
	</node>
	<node lat="60.00681388969609" lon="8.749041667634078" id="-26266">
		<tag k="name" v="Dusterudøye" />
		<tag k="place" v="locality" />
		<tag k="ssr:stedsnr" v="216115" />
	</node>
	<node lat="59.991602774426944" lon="8.748447219171853" id="-26267">
		<tag k="name" v="Hånåskei" />
		<tag k="place" v="locality" />
		<tag k="ssr:stedsnr" v="216291" />
	</node>
	<node lat="59.88889721962344" lon="8.877997217402674" id="-26268">
		<tag k="name" v="Deletjønnhaug" />
		<tag k="natural" v="hill" />
		<tag k="place" v="locality" />
		<tag k="ssr:stedsnr" v="216177" />
	</node>
	<node lat="59.91031111528915" lon="8.700919449815233" id="-26276">
		<tag k="name" v="Hisaten" />
		<tag k="place" v="locality" />
		<tag k="ssr:stedsnr" v="216591" />
	</node>
	<node lat="59.98477777828332" lon="8.87283333665511" id="-26283">
		<tag k="fixme" v="consider natural=peak for the most distinct mountains in the district" />
		<tag k="name" v="Kjørberg" />
		<tag k="natural" v="hill" />
		<tag k="place" v="locality" />
		<tag k="ssr:stedsnr" v="218022" />
	</node>
	<node lat="59.96819444861714" lon="9.04644723005544" id="-26285">
		<tag k="name" v="Lykkja" />
		<tag k="natural" v="valley" />
		<tag k="place" v="locality" />
		<tag k="ssr:stedsnr" v="218091" />
	</node>
	<node lat="60.02662500068031" lon="8.930500001555561" id="-26290">
		<tag k="name" v="Mjeltegrøa" />
		<tag k="natural" v="valley" />
		<tag k="place" v="locality" />
		<tag k="ssr:stedsnr" v="218322" />
	</node>
	<node lat="60.03303888444513" lon="8.824133328584269" id="-26292">
		<tag k="name" v="Tollefsjordmogen" />
		<tag k="place" v="locality" />
		<tag k="ssr:stedsnr" v="218425" />
	</node>
	<node lat="60.00699444643177" lon="8.986591664326989" id="-26293">
		<tag k="fixme" v="consider natural=peak for the most distinct mountains in the district" />
		<tag k="name" v="Lauvehovda" />
		<tag k="natural" v="hill" />
		<tag k="place" v="locality" />
		<tag k="ssr:stedsnr" v="218431" />
	</node>
	<node lat="59.98157499869657" lon="8.850236116095449" id="-26296">
		<tag k="name" v="Sprettedokkje" />
		<tag k="natural" v="valley" />
		<tag k="place" v="locality" />
		<tag k="ssr:stedsnr" v="218630" />
	</node>
	<node lat="60.08562499653479" lon="8.886294446648185" id="-26299">
		<tag k="name" v="Kupun" />
		<tag k="natural" v="slope" />
		<tag k="place" v="locality" />
		<tag k="ssr:stedsnr" v="218579" />
	</node>
	<node lat="59.846641663196166" lon="9.133549998646552" id="-26304">
		<tag k="name" v="Lisetlian" />
		<tag k="natural" v="slope" />
		<tag k="place" v="locality" />
		<tag k="ssr:stedsnr" v="218885" />
	</node>
	<node lat="60.09857777863061" lon="8.840941670458747" id="-26310">
		<tag k="fixme" v="consider natural=peak for the most distinct mountains in the district" />
		<tag k="name" v="Grislinutan" />
		<tag k="natural" v="hill" />
		<tag k="place" v="locality" />
		<tag k="ssr:stedsnr" v="225737" />
	</node>
	<node lat="60.08980277900088" lon="8.659572224845848" id="-26314">
		<tag k="name" v="Steinbakken" />
		<tag k="place" v="locality" />
		<tag k="ssr:stedsnr" v="228237" />
	</node>
	<node lat="60.02780277799786" lon="8.520669440863703" id="-26315">
		<tag k="name" v="Preststaulhaugan" />
		<tag k="natural" v="hill" />
		<tag k="place" v="locality" />
		<tag k="ssr:stedsnr" v="228404" />
	</node>
	<node lat="60.0697472216297" lon="8.411375005410846" id="-26321">
		<tag k="name" v="Steinhovdflotte" />
		<tag k="place" v="locality" />
		<tag k="ssr:stedsnr" v="229136" />
	</node>
	<node lat="60.144105553845705" lon="8.243541670130028" id="-26322">
		<tag k="name" v="Syvrehallin" />
		<tag k="natural" v="slope" />
		<tag k="place" v="locality" />
		<tag k="ssr:stedsnr" v="229692" />
	</node>
	<node lat="60.17751111419067" lon="8.345175007134008" id="-26325">
		<tag k="name" v="Torshalle" />
		<tag k="natural" v="slope" />
		<tag k="place" v="locality" />
		<tag k="ssr:stedsnr" v="471949" />
	</node>
	<node lat="60.177813885410615" lon="8.364725001219128" id="-26326">
		<tag k="name" v="Forsnøyphalle" />
		<tag k="natural" v="slope" />
		<tag k="place" v="locality" />
		<tag k="ssr:stedsnr" v="471953" />
	</node>
	<node lat="59.878625000923876" lon="8.79720832496352" id="-26328">
		<tag k="fixme" v="consider natural=peak for the most distinct mountains in the district" />
		<tag k="name" v="Ørnenipa" />
		<tag k="natural" v="hill" />
		<tag k="place" v="locality" />
		<tag k="ssr:stedsnr" v="246127" />
	</node>
	<node lat="59.86604444356655" lon="8.699774995329898" id="-26332">
		<tag k="name" v="Fyriegg" />
		<tag k="natural" v="slope" />
		<tag k="place" v="locality" />
		<tag k="ssr:stedsnr" v="246156" />
	</node>
	<node lat="59.89502067431224" lon="9.16959827516157" id="-26337">
		<tag k="name" v="Klovnuten" />
		<tag k="place" v="locality" />
		<tag k="ssr:stedsnr" v="246700" />
	</node>
	<node lat="59.98515277956835" lon="8.525858339321918" id="-26340">
		<tag k="fixme" v="consider natural=peak for the most distinct mountains in the district" />
		<tag k="name" v="Fanteskardnutan" />
		<tag k="natural" v="hill" />
		<tag k="place" v="locality" />
		<tag k="ssr:stedsnr" v="247078" />
	</node>
	<node lat="59.95543333741146" lon="8.253883332865033" id="-26342">
		<tag k="fixme" v="consider natural=peak for the most distinct mountains in the district" />
		<tag k="name" v="Brjostenuten" />
		<tag k="natural" v="hill" />
		<tag k="place" v="locality" />
		<tag k="ssr:stedsnr" v="247279" />
	</node>
	<node lat="59.787983334928995" lon="9.11550277302778" id="-26349">
		<tag k="alt_name" v="Grisligjuvet" />
		<tag k="name" v="Grislijuvet" />
		<tag k="natural" v="gorge" />
		<tag k="ssr:stedsnr" v="247367" />
	</node>
	<node lat="59.95129722270425" lon="8.880347224109133" id="-26351">
		<tag k="fixme" v="consider natural=peak for the most distinct mountains in the district" />
		<tag k="name" v="Presthovd" />
		<tag k="natural" v="hill" />
		<tag k="place" v="locality" />
		<tag k="ssr:stedsnr" v="247569" />
	</node>
	<node lat="60.047130557215425" lon="8.989886105443732" id="-26355">
		<tag k="name" v="Killingskardet" />
		<tag k="natural" v="valley" />
		<tag k="place" v="locality" />
		<tag k="ssr:stedsnr" v="247611" />
	</node>
	<node lat="60.04077222092384" lon="8.979427771037804" id="-26357">
		<tag k="alt_name" v="Fethovda" />
		<tag k="name" v="Storhovde" />
		<tag k="natural" v="ridge" />
		<tag k="place" v="locality" />
		<tag k="ssr:stedsnr" v="247659" />
	</node>
	<node lat="60.00721111127963" lon="8.235658329757142" id="-26362">
		<tag k="name" v="Breiddalen" />
		<tag k="natural" v="valley" />
		<tag k="place" v="locality" />
		<tag k="ssr:stedsnr" v="247818" />
	</node>
	<node lat="60.15313888637606" lon="8.735513883041678" id="-26368">
		<tag k="alt_name" v="Skålnatten, store" />
		<tag k="fixme" v="consider natural=peak for the most distinct mountains in the district" />
		<tag k="name" v="Store Skålnatten" />
		<tag k="natural" v="hill" />
		<tag k="place" v="locality" />
		<tag k="ssr:stedsnr" v="247770" />
	</node>
	<node lat="60.02201944178608" lon="8.517400000459258" id="-26370">
		<tag k="fixme" v="consider natural=peak for the most distinct mountains in the district" />
		<tag k="name" v="Skol" />
		<tag k="natural" v="hill" />
		<tag k="place" v="locality" />
		<tag k="ssr:stedsnr" v="247777" />
	</node>
	<node lat="59.99369167098153" lon="8.918830547953151" id="-26373">
		<tag k="fixme" v="consider natural=peak for the most distinct mountains in the district" />
		<tag k="name" v="Høkja" />
		<tag k="natural" v="hill" />
		<tag k="place" v="locality" />
		<tag k="ssr:stedsnr" v="247920" />
	</node>
	<node lat="60.18114721862179" lon="8.384258338589786" id="-26377">
		<tag k="alt_name" v="Gvonnenut" />
		<tag k="fixme" v="consider natural=peak for the most distinct mountains in the district" />
		<tag k="name" v="Gvonnenutan" />
		<tag k="natural" v="hill" />
		<tag k="place" v="locality" />
		<tag k="ssr:stedsnr" v="247960" />
	</node>
	<node lat="60.17719444308742" lon="8.191661114546553" id="-26379">
		<tag k="name" v="Mårhalli" />
		<tag k="natural" v="slope" />
		<tag k="place" v="locality" />
		<tag k="ssr:stedsnr" v="247962" />
	</node>
	<node lat="59.864152775828614" lon="8.343575008673977" id="-26386">
		<tag k="name" v="Blåbærdalen" />
		<tag k="natural" v="valley" />
		<tag k="place" v="locality" />
		<tag k="ssr:stedsnr" v="457956" />
	</node>
	<node lat="59.842291669840435" lon="8.371108341292762" id="-26388">
		<tag k="fixme" v="consider natural=peak for the most distinct mountains in the district" />
		<tag k="name" v="Skålinutan" />
		<tag k="natural" v="hill" />
		<tag k="place" v="locality" />
		<tag k="ssr:stedsnr" v="457986" />
	</node>
	<node lat="60.00357777624038" lon="8.68251110643763" id="-26397">
		<tag k="name" v="Grimstadokkje" />
		<tag k="natural" v="valley" />
		<tag k="place" v="locality" />
		<tag k="ssr:stedsnr" v="458588" />
	</node>
	<node lat="60.002405556011595" lon="8.693163880532062" id="-26405">
		<tag k="name" v="Bleikeberg" />
		<tag k="place" v="locality" />
		<tag k="ssr:stedsnr" v="458753" />
	</node>
	<node lat="59.95270277496116" lon="8.545819436556942" id="-26410">
		<tag k="name" v="Rupetjønnhaugan" />
		<tag k="natural" v="hill" />
		<tag k="place" v="locality" />
		<tag k="ssr:stedsnr" v="459082" />
	</node>
	<node lat="59.96531944465938" lon="9.057794440793348" id="-26411">
		<tag k="fixme" v="consider natural=peak for the most distinct mountains in the district" />
		<tag k="name" v="Spjeldsetnuten" />
		<tag k="natural" v="hill" />
		<tag k="place" v="locality" />
		<tag k="ssr:stedsnr" v="272410" />
	</node>
	<node lat="59.94391389089226" lon="8.586786107807804" id="-26414">
		<tag k="name" v="Torvegrøe" />
		<tag k="natural" v="slope" />
		<tag k="place" v="locality" />
		<tag k="ssr:stedsnr" v="459250" />
	</node>
	<node lat="60.004602780530966" lon="8.660527775621599" id="-26415">
		<tag k="name" v="Årisbakkan" />
		<tag k="natural" v="slope" />
		<tag k="place" v="locality" />
		<tag k="ssr:stedsnr" v="459384" />
	</node>
	<node lat="59.87361944575376" lon="8.663852770935453" id="-26416">
		<tag k="name" v="Kyrsvoll" />
		<tag k="natural" v="slope" />
		<tag k="place" v="locality" />
		<tag k="ssr:stedsnr" v="459426" />
	</node>
	<node lat="59.88209999649494" lon="8.558827769171106" id="-26418">
		<tag k="name" v="Gampeberg" />
		<tag k="natural" v="slope" />
		<tag k="place" v="locality" />
		<tag k="ssr:stedsnr" v="459593" />
	</node>
	<node lat="59.924474998898965" lon="8.85620277368941" id="-26420">
		<tag k="name" v="Heslevikbrotet" />
		<tag k="natural" v="slope" />
		<tag k="place" v="locality" />
		<tag k="ssr:stedsnr" v="276075" />
	</node>
	<node lat="60.00993611284313" lon="8.74688889497377" id="-26423">
		<tag k="name" v="Storeflåt" />
		<tag k="place" v="locality" />
		<tag k="ssr:stedsnr" v="276176" />
	</node>
	<node lat="59.96344999873521" lon="8.616975008066001" id="-26437">
		<tag k="name" v="Steinsetnibbun" />
		<tag k="natural" v="hill" />
		<tag k="old_name" v="Steinsetnibbubn" />
		<tag k="place" v="locality" />
		<tag k="ssr:stedsnr" v="276816" />
	</node>
	<node lat="59.951341666942376" lon="8.60756944916678" id="-26443">
		<tag k="name" v="Nystaulnutan" />
		<tag k="natural" v="hill" />
		<tag k="place" v="locality" />
		<tag k="ssr:stedsnr" v="277219" />
	</node>
	<node lat="59.93271666532993" lon="8.55016110747196" id="-26446">
		<tag k="name" v="Hukebunuten" />
		<tag k="natural" v="hill" />
		<tag k="place" v="locality" />
		<tag k="ssr:stedsnr" v="277107" />
	</node>
	<node lat="59.94020555762693" lon="8.653580561965255" id="-26450">
		<tag k="name" v="Høgeliflotte" />
		<tag k="natural" v="slope" />
		<tag k="place" v="locality" />
		<tag k="ssr:stedsnr" v="459840" />
	</node>
	<node lat="59.93039166799422" lon="8.746425003837967" id="-26452">
		<tag k="name" v="Brudedalen" />
		<tag k="natural" v="valley" />
		<tag k="place" v="locality" />
		<tag k="ssr:stedsnr" v="277990" />
	</node>
	<node lat="60.06549444359048" lon="8.796888886308762" id="-26453">
		<tag k="name" v="Kåpetos" />
		<tag k="natural" v="cliff" />
		<tag k="ssr:stedsnr" v="278283" />
	</node>
	<node lat="59.93032778021171" lon="8.772572221644838" id="-26455">
		<tag k="name" v="Badstogdokkje" />
		<tag k="natural" v="valley" />
		<tag k="place" v="locality" />
		<tag k="ssr:stedsnr" v="459954" />
	</node>
	<node lat="60.04384166700574" lon="8.806491664555335" id="-26457">
		<tag k="name" v="Kvennedokkje" />
		<tag k="natural" v="valley" />
		<tag k="place" v="locality" />
		<tag k="ssr:stedsnr" v="278380" />
	</node>
	<node lat="60.05636110761898" lon="8.755522216559418" id="-26460">
		<tag k="name" v="Svarttjønnlie" />
		<tag k="natural" v="slope" />
		<tag k="place" v="locality" />
		<tag k="ssr:stedsnr" v="278607" />
	</node>
	<node lat="59.975802780786154" lon="8.916991670786956" id="-26465">
		<tag k="name" v="Trættebudalen" />
		<tag k="natural" v="valley" />
		<tag k="place" v="locality" />
		<tag k="ssr:stedsnr" v="279109" />
	</node>
	<node lat="59.94827222396901" lon="9.110630563766664" id="-26468">
		<tag k="fixme" v="consider natural=peak for the most distinct mountains in the district" />
		<tag k="name" v="Deilingsreset" />
		<tag k="natural" v="hill" />
		<tag k="place" v="locality" />
		<tag k="ssr:stedsnr" v="279505" />
	</node>
	<node lat="59.82552778097406" lon="9.108224994312874" id="-26470">
		<tag k="name" v="Flisehaugen" />
		<tag k="natural" v="hill" />
		<tag k="place" v="locality" />
		<tag k="ssr:stedsnr" v="279822" />
	</node>
	<node lat="60.06923611535349" lon="8.730091669069175" id="-26479">
		<tag k="name" v="Skossethamaren" />
		<tag k="place" v="locality" />
		<tag k="ssr:stedsnr" v="460686" />
	</node>
	<node lat="59.9525888884963" lon="8.973372227278933" id="-26484">
		<tag k="fixme" v="consider natural=peak for the most distinct mountains in the district" />
		<tag k="name" v="Långelibrotet" />
		<tag k="natural" v="hill" />
		<tag k="place" v="locality" />
		<tag k="ssr:stedsnr" v="461129" />
	</node>
	<node lat="59.97594444348853" lon="8.90395555305899" id="-26486">
		<tag k="name" v="Dansarhovda" />
		<tag k="natural" v="hill" />
		<tag k="place" v="locality" />
		<tag k="ssr:stedsnr" v="461084" />
	</node>
	<node lat="60.00847777563627" lon="8.854141660756147" id="-26490">
		<tag k="name" v="Kåsåbrekka" />
		<tag k="natural" v="slope" />
		<tag k="place" v="locality" />
		<tag k="ssr:stedsnr" v="461356" />
	</node>
	<node lat="60.093713887278284" lon="8.937872216324129" id="-26497">
		<tag k="name" v="Skuråbekkhallin" />
		<tag k="natural" v="slope" />
		<tag k="place" v="locality" />
		<tag k="ssr:stedsnr" v="461582" />
	</node>
	<node lat="59.939972226604866" lon="8.89427499164109" id="-26499">
		<tag k="name" v="Briskedalen" />
		<tag k="natural" v="valley" />
		<tag k="place" v="locality" />
		<tag k="ssr:stedsnr" v="461590" />
	</node>
	<node lat="59.91754444722667" lon="9.09274722728002" id="-26501">
		<tag k="name" v="Orreleiken" />
		<tag k="place" v="locality" />
		<tag k="ssr:stedsnr" v="461630" />
	</node>
	<node lat="60.054111112989006" lon="8.907363891621182" id="-26503">
		<tag k="name" v="Ronuten" />
		<tag k="natural" v="hill" />
		<tag k="place" v="locality" />
		<tag k="ssr:stedsnr" v="461735" />
	</node>
	<node lat="60.086488888498224" lon="8.518763888545672" id="-26506">
		<tag k="fixme" v="consider natural=peak for the most distinct mountains in the district" />
		<tag k="name" v="Vesle Snofonnuten" />
		<tag k="natural" v="hill" />
		<tag k="place" v="locality" />
		<tag k="ssr:stedsnr" v="289099" />
	</node>
	<node lat="60.07451389043803" lon="8.62370277432844" id="-26507">
		<tag k="name" v="Breisetdalen" />
		<tag k="natural" v="valley" />
		<tag k="place" v="locality" />
		<tag k="ssr:stedsnr" v="289227" />
	</node>
	<node lat="60.078827774326136" lon="8.50513611731174" id="-26509">
		<tag k="name" v="Ufse" />
		<tag k="place" v="locality" />
		<tag k="ssr:stedsnr" v="289103" />
	</node>
	<node lat="60.08592499863658" lon="8.570113891148239" id="-26512">
		<tag k="name" v="Løkhaug" />
		<tag k="natural" v="hill" />
		<tag k="place" v="locality" />
		<tag k="ssr:stedsnr" v="289195" />
	</node>
	<node lat="60.063555554990685" lon="8.948952786438616" id="-26513">
		<tag k="name" v="Myklesethaugen" />
		<tag k="natural" v="hill" />
		<tag k="place" v="locality" />
		<tag k="ssr:stedsnr" v="461752" />
	</node>
	<node lat="60.03378055288323" lon="8.561380563202556" id="-26515">
		<tag k="name" v="Hestegrøe" />
		<tag k="natural" v="slope" />
		<tag k="place" v="locality" />
		<tag k="ssr:stedsnr" v="289478" />
	</node>
	<node lat="60.07498888640435" lon="8.490661115795932" id="-26516">
		<tag k="name" v="Skolo" />
		<tag k="natural" v="valley" />
		<tag k="place" v="locality" />
		<tag k="ssr:stedsnr" v="289530" />
	</node>
	<node lat="60.144508335246506" lon="8.471508342247605" id="-26519">
		<tag k="name" v="Fiskelausberget" />
		<tag k="place" v="locality" />
		<tag k="ssr:stedsnr" v="290077" />
	</node>
	<node lat="60.001024999744466" lon="8.343369435957879" id="-26520">
		<tag k="name" v="Lauvhaugan" />
		<tag k="natural" v="hill" />
		<tag k="place" v="locality" />
		<tag k="ssr:stedsnr" v="290688" />
	</node>
	<node lat="60.17008611375672" lon="8.37092778056393" id="-26521">
		<tag k="fixme" v="consider natural=peak for the most distinct mountains in the district" />
		<tag k="name" v="Gryvlenut" />
		<tag k="natural" v="hill" />
		<tag k="place" v="locality" />
		<tag k="ssr:stedsnr" v="290933" />
	</node>
	<node lat="59.98592778133946" lon="8.541511109255298" id="-26522">
		<tag k="fixme" v="consider natural=peak for the most distinct mountains in the district" />
		<tag k="name" v="Lisetnibba" />
		<tag k="natural" v="hill" />
		<tag k="place" v="locality" />
		<tag k="ssr:stedsnr" v="307105" />
	</node>
	<node lat="59.991002781566365" lon="8.713555552583138" id="-26523">
		<tag k="name" v="Høymyrhaugan" />
		<tag k="natural" v="hill" />
		<tag k="place" v="locality" />
		<tag k="ssr:stedsnr" v="307111" />
	</node>
	<node lat="59.876886107405404" lon="8.821324991922461" id="-26524">
		<tag k="name" v="Jysetdalen" />
		<tag k="natural" v="valley" />
		<tag k="place" v="locality" />
		<tag k="ssr:stedsnr" v="307189" />
	</node>
	<node lat="59.97744166692068" lon="8.40605555719406" id="-26527">
		<tag k="name" v="Grottevieran" />
		<tag k="natural" v="slope" />
		<tag k="place" v="locality" />
		<tag k="ssr:stedsnr" v="307317" />
	</node>
	<node lat="59.95106111092637" lon="8.612919439596475" id="-26530">
		<tag k="alt_name" v="Heggsetnuten" />
		<tag k="name" v="Heggjesetnuten" />
		<tag k="natural" v="ridge" />
		<tag k="place" v="locality" />
		<tag k="ssr:stedsnr" v="307051" />
	</node>
	<node lat="59.9106499997865" lon="8.57475556093807" id="-26532">
		<tag k="name" v="Grubbedalen" />
		<tag k="natural" v="valley" />
		<tag k="place" v="locality" />
		<tag k="ssr:stedsnr" v="307223" />
	</node>
	<node lat="59.901038893009655" lon="8.744074996192726" id="-26533">
		<tag k="fixme" v="consider natural=peak for the most distinct mountains in the district" />
		<tag k="name" v="Nordhaddefjellet" />
		<tag k="natural" v="hill" />
		<tag k="place" v="locality" />
		<tag k="ssr:stedsnr" v="307253" />
	</node>
	<node lat="59.90424166847162" lon="8.480688890356015" id="-26534">
		<tag k="alt_name" v="Kvannegrønnuten" />
		<tag k="name" v="Kvannegrønut" />
		<tag k="natural" v="hill" />
		<tag k="place" v="locality" />
		<tag k="ssr:stedsnr" v="307262" />
	</node>
	<node lat="59.797338886804845" lon="9.1377750052886" id="-26536">
		<tag k="name" v="Svartufs" />
		<tag k="natural" v="cliff" />
		<tag k="ssr:stedsnr" v="307403" />
	</node>
	<node lat="59.96428055387795" lon="8.867738887581158" id="-26541">
		<tag k="fixme" v="consider natural=peak for the most distinct mountains in the district" />
		<tag k="name" v="Gjuvhovd" />
		<tag k="natural" v="hill" />
		<tag k="place" v="locality" />
		<tag k="ssr:stedsnr" v="307622" />
	</node>
	<node lat="59.82190555841867" lon="9.162219445067777" id="-26542">
		<tag k="name" v="Fosskardnuten" />
		<tag k="natural" v="hill" />
		<tag k="place" v="locality" />
		<tag k="ssr:stedsnr" v="307651" />
	</node>
	<node lat="59.819158336474516" lon="9.043616672267346" id="-26543">
		<tag k="alt_name" v="Bakliåsen" />
		<tag k="fixme" v="consider natural=peak for the most distinct mountains in the district" />
		<tag k="name" v="Bakliåsan" />
		<tag k="natural" v="hill" />
		<tag k="place" v="locality" />
		<tag k="ssr:stedsnr" v="307661" />
	</node>
	<node lat="59.92952499830847" lon="8.893633339061239" id="-26547">
		<tag k="name" v="Luggen" />
		<tag k="place" v="locality" />
		<tag k="ssr:stedsnr" v="307560" />
	</node>
	<node lat="59.92501389221126" lon="8.941252780237756" id="-26548">
		<tag k="fixme" v="consider natural=peak for the most distinct mountains in the district" />
		<tag k="name" v="Nåpånuten" />
		<tag k="natural" v="hill" />
		<tag k="place" v="locality" />
		<tag k="ssr:stedsnr" v="307565" />
	</node>
	<node lat="59.85991944737448" lon="9.064158325405963" id="-26550">
		<tag k="fixme" v="consider natural=peak for the most distinct mountains in the district" />
		<tag k="name" v="Bøensåsen" />
		<tag k="natural" v="hill" />
		<tag k="place" v="locality" />
		<tag k="ssr:stedsnr" v="307708" />
	</node>
	<node lat="60.03947777521321" lon="8.264550002105723" id="-26555">
		<tag k="name" v="Skardshovde" />
		<tag k="natural" v="hill" />
		<tag k="place" v="locality" />
		<tag k="ssr:stedsnr" v="307926" />
	</node>
	<node lat="60.103647219557935" lon="7.94811666190682" id="-26558">
		<tag k="name" v="Kallungsjåhallin" />
		<tag k="natural" v="slope" />
		<tag k="place" v="locality" />
		<tag k="ssr:stedsnr" v="308591" />
	</node>
	<node lat="60.15263888468271" lon="8.58297778204669" id="-26559">
		<tag k="fixme" v="consider natural=peak for the most distinct mountains in the district" />
		<tag k="name" v="Nipnatten" />
		<tag k="natural" v="hill" />
		<tag k="place" v="locality" />
		<tag k="ssr:stedsnr" v="308745" />
	</node>
	<node lat="60.04785555698713" lon="8.634086112379812" id="-26560">
		<tag k="name" v="Romarhovdun" />
		<tag k="natural" v="hill" />
		<tag k="place" v="locality" />
		<tag k="ssr:stedsnr" v="308747" />
	</node>
	<node lat="60.04302499690577" lon="8.767883334597038" id="-26562">
		<tag k="name" v="Lauvhovda" />
		<tag k="natural" v="hill" />
		<tag k="place" v="locality" />
		<tag k="ssr:stedsnr" v="308767" />
	</node>
	<node lat="60.04540000121184" lon="8.055755548494755" id="-26568">
		<tag k="name" v="Vråsjåhallin" />
		<tag k="natural" v="slope" />
		<tag k="place" v="locality" />
		<tag k="ssr:stedsnr" v="308491" />
	</node>
	<node lat="60.02045555612077" lon="8.218830549151138" id="-26570">
		<tag k="fixme" v="consider natural=peak for the most distinct mountains in the district" />
		<tag k="name" v="Nordskardfjellet" />
		<tag k="natural" v="hill" />
		<tag k="place" v="locality" />
		<tag k="ssr:stedsnr" v="308820" />
	</node>
	<node lat="60.00519999892077" lon="8.580083326296739" id="-26572">
		<tag k="fixme" v="consider natural=peak for the most distinct mountains in the district" />
		<tag k="name" v="Prestetinden" />
		<tag k="natural" v="hill" />
		<tag k="place" v="locality" />
		<tag k="ssr:stedsnr" v="308951" />
	</node>
	<node lat="60.144841667608866" lon="8.415913880539188" id="-26574">
		<tag k="alt_name" v="Løyteshovd" />
		<tag k="fixme" v="consider natural=peak for the most distinct mountains in the district" />
		<tag k="name" v="Løyteshovde" />
		<tag k="natural" v="hill" />
		<tag k="place" v="locality" />
		<tag k="ssr:stedsnr" v="308989" />
	</node>
	<node lat="60.07329722587611" lon="8.291847221440463" id="-26577">
		<tag k="name" v="Såvåhaug" />
		<tag k="natural" v="hill" />
		<tag k="place" v="locality" />
		<tag k="ssr:stedsnr" v="308896" />
	</node>
	<node lat="60.03273888698081" lon="8.285452784950293" id="-26581">
		<tag k="fixme" v="consider natural=peak for the most distinct mountains in the district" />
		<tag k="name" v="Reinsfjell" />
		<tag k="natural" v="hill" />
		<tag k="place" v="locality" />
		<tag k="ssr:stedsnr" v="324116" />
	</node>
	<node lat="60.168936108853366" lon="8.255030553976539" id="-26582">
		<tag k="name" v="Syvrehallin" />
		<tag k="natural" v="slope" />
		<tag k="place" v="locality" />
		<tag k="ssr:stedsnr" v="324120" />
	</node>
	<node lat="60.095961112119014" lon="8.54863610494589" id="-26588">
		<tag k="name" v="Bufargrøe" />
		<tag k="natural" v="slope" />
		<tag k="place" v="locality" />
		<tag k="ssr:stedsnr" v="470989" />
	</node>
	<node lat="60.0896999980111" lon="8.572722225986482" id="-26589">
		<tag k="name" v="Breisetlie" />
		<tag k="natural" v="slope" />
		<tag k="place" v="locality" />
		<tag k="ssr:stedsnr" v="471197" />
	</node>
	<node lat="60.146208336623744" lon="8.449930554616659" id="-26592">
		<tag k="fixme" v="consider natural=peak for the most distinct mountains in the district" />
		<tag k="name" v="Snakosnuten" />
		<tag k="natural" v="hill" />
		<tag k="place" v="locality" />
		<tag k="ssr:stedsnr" v="471229" />
	</node>
	<node lat="60.07930833601849" lon="8.47493889464015" id="-26597">
		<tag k="name" v="Merreberget" />
		<tag k="natural" v="hill" />
		<tag k="place" v="locality" />
		<tag k="ssr:stedsnr" v="471495" />
	</node>
	<node lat="59.95032777537743" lon="8.47466111428197" id="-26600">
		<tag k="name" v="Flådokk" />
		<tag k="natural" v="valley" />
		<tag k="place" v="locality" />
		<tag k="ssr:stedsnr" v="336692" />
	</node>
	<node lat="59.829411109018935" lon="8.370116668012573" id="-26602">
		<tag k="name" v="Langehølmogen" />
		<tag k="place" v="locality" />
		<tag k="ssr:stedsnr" v="336743" />
	</node>
	<node lat="59.89205555825629" lon="8.892100004245114" id="-26606">
		<tag k="name" v="Middagsnuten" />
		<tag k="natural" v="hill" />
		<tag k="place" v="locality" />
		<tag k="ssr:stedsnr" v="337220" />
	</node>
	<node lat="59.88756944397361" lon="8.762488888403794" id="-26607">
		<tag k="name" v="Långetjønnhaugan" />
		<tag k="natural" v="hill" />
		<tag k="place" v="locality" />
		<tag k="ssr:stedsnr" v="337246" />
	</node>
	<node lat="60.00856666548392" lon="8.755263884753438" id="-26610">
		<tag k="name" v="Brattåsen" />
		<tag k="place" v="locality" />
		<tag k="ssr:stedsnr" v="337198" />
	</node>
	<node lat="59.958513885458096" lon="8.558019438012073" id="-26612">
		<tag k="name" v="Skipskar" />
		<tag k="natural" v="gorge" />
		<tag k="ssr:stedsnr" v="337305" />
	</node>
	<node lat="59.91551944188161" lon="8.834644441990351" id="-26616">
		<tag k="name" v="Leikedal" />
		<tag k="natural" v="valley" />
		<tag k="place" v="locality" />
		<tag k="ssr:stedsnr" v="337413" />
	</node>
	<node lat="59.868444442257804" lon="8.690872231000698" id="-26617">
		<tag k="name" v="Myrestaulhovda" />
		<tag k="natural" v="hill" />
		<tag k="place" v="locality" />
		<tag k="ssr:stedsnr" v="337446" />
	</node>
	<node lat="59.99961389331218" lon="8.672313884577305" id="-26623">
		<tag k="name" v="Mogen" />
		<tag k="place" v="locality" />
		<tag k="ssr:stedsnr" v="337506" />
	</node>
	<node lat="59.84611666672542" lon="8.405713882911817" id="-26624">
		<tag k="name" v="Bergerudnuten" />
		<tag k="natural" v="hill" />
		<tag k="place" v="locality" />
		<tag k="ssr:stedsnr" v="337517" />
	</node>
	<node lat="60.00314444011054" lon="8.663166674123765" id="-26629">
		<tag k="name" v="Kvennhusflaten" />
		<tag k="place" v="locality" />
		<tag k="ssr:stedsnr" v="337944" />
	</node>
	<node lat="59.99679166265244" lon="8.657827769001823" id="-26631">
		<tag k="name" v="Bjønndalsskotet" />
		<tag k="natural" v="hill" />
		<tag k="place" v="locality" />
		<tag k="ssr:stedsnr" v="337960" />
	</node>
	<node lat="60.03190277460806" lon="8.635797227751956" id="-26632">
		<tag k="name" v="Skrubbeholet" />
		<tag k="natural" v="slope" />
		<tag k="place" v="locality" />
		<tag k="ssr:stedsnr" v="338109" />
	</node>
	<node lat="59.98078333276809" lon="8.91986388416572" id="-26635">
		<tag k="name" v="Speisbuhalle" />
		<tag k="natural" v="slope" />
		<tag k="place" v="locality" />
		<tag k="ssr:stedsnr" v="339114" />
	</node>
	<node lat="60.054402779974744" lon="8.810125008779524" id="-26636">
		<tag k="name" v="Russmogan" />
		<tag k="place" v="locality" />
		<tag k="ssr:stedsnr" v="339205" />
	</node>
	<node lat="60.064888893175265" lon="8.803902780189834" id="-26637">
		<tag k="name" v="Bergeskore" />
		<tag k="place" v="locality" />
		<tag k="ssr:stedsnr" v="339295" />
	</node>
	<node lat="60.044577780180624" lon="8.854525001989549" id="-26639">
		<tag k="name" v="Svollbakke" />
		<tag k="natural" v="slope" />
		<tag k="place" v="locality" />
		<tag k="ssr:stedsnr" v="339449" />
	</node>
	<node lat="59.89696666681952" lon="9.134602770543603" id="-26649">
		<tag k="name" v="Urehaugan" />
		<tag k="natural" v="hill" />
		<tag k="place" v="locality" />
		<tag k="ssr:stedsnr" v="339728" />
	</node>
	<node lat="59.89817777555272" lon="9.170525002774596" id="-26650">
		<tag k="fixme" v="consider natural=peak for the most distinct mountains in the district" />
		<tag k="name" v="Åklifjellet" />
		<tag k="natural" v="hill" />
		<tag k="place" v="locality" />
		<tag k="ssr:stedsnr" v="339744" />
	</node>
	<node lat="59.92525833261058" lon="9.02503334012225" id="-26651">
		<tag k="name" v="Båneberg" />
		<tag k="place" v="locality" />
		<tag k="ssr:stedsnr" v="339753" />
	</node>
	<node lat="59.82650278207042" lon="9.1442250066071" id="-26652">
		<tag k="name" v="Byfarholet" />
		<tag k="natural" v="valley" />
		<tag k="place" v="locality" />
		<tag k="ssr:stedsnr" v="339801" />
	</node>
	<node lat="60.142669444379514" lon="8.260266672808553" id="-26654">
		<tag k="fixme" v="consider natural=peak for the most distinct mountains in the district" />
		<tag k="name" v="Flånuten" />
		<tag k="natural" v="hill" />
		<tag k="place" v="locality" />
		<tag k="ssr:stedsnr" v="472664" />
	</node>
	<node lat="60.10598610701621" lon="8.79293055408379" id="-26657">
		<tag k="name" v="Lauvnattan" />
		<tag k="natural" v="hill" />
		<tag k="place" v="locality" />
		<tag k="ssr:stedsnr" v="346758" />
	</node>
	<node lat="60.10357499597876" lon="8.806636116558261" id="-26658">
		<tag k="name" v="Flådalen" />
		<tag k="natural" v="valley" />
		<tag k="place" v="locality" />
		<tag k="ssr:stedsnr" v="346759" />
	</node>
	<node lat="60.07733611556098" lon="8.533708328583328" id="-26660">
		<tag k="name" v="Långsetmoen" />
		<tag k="place" v="locality" />
		<tag k="ssr:stedsnr" v="349006" />
	</node>
	<node lat="60.07833055700165" lon="8.507666662575561" id="-26661">
		<tag k="name" v="Flatenlie" />
		<tag k="natural" v="slope" />
		<tag k="place" v="locality" />
		<tag k="ssr:stedsnr" v="349011" />
	</node>
	<node lat="60.08672500201289" lon="8.662747214751517" id="-26663">
		<tag k="name" v="Ålmenningshovda" />
		<tag k="place" v="locality" />
		<tag k="ssr:stedsnr" v="349018" />
	</node>
	<node lat="60.08051944619009" lon="8.669036104344457" id="-26664">
		<tag k="name" v="Geiteriv" />
		<tag k="place" v="locality" />
		<tag k="ssr:stedsnr" v="349261" />
	</node>
</osm>
