<?xml version="1.0" encoding="UTF-8"?>
<osm version="0.6" generator="osmapis">
	<node lat="60.05770277898874" lon="8.83558888799134" id="-25896">
		<tag k="name" v="Tolismyr" />
		<tag k="natural" v="wetland" />
		<tag k="ssr:stedsnr" v="35210" />
	</node>
	<node lat="60.03485833249093" lon="8.733880552878023" id="-25902">
		<tag k="name" v="Kloppemyran" />
		<tag k="natural" v="wetland" />
		<tag k="ssr:stedsnr" v="35914" />
	</node>
	<node lat="59.95431111309652" lon="8.890377769226221" id="-25909">
		<tag k="name" v="Kolhusmyre" />
		<tag k="natural" v="wetland" />
		<tag k="ssr:stedsnr" v="36504" />
	</node>
	<node lat="59.95735277566669" lon="9.104616663204997" id="-25911">
		<tag k="name" v="Krokmyran" />
		<tag k="natural" v="wetland" />
		<tag k="ssr:stedsnr" v="36460" />
	</node>
	<node lat="59.92511111277722" lon="9.031236111144882" id="-25914">
		<tag k="name" v="Långemyr" />
		<tag k="natural" v="wetland" />
		<tag k="ssr:stedsnr" v="36768" />
	</node>
	<node lat="60.12985277812133" lon="8.699286111862694" id="-25928">
		<tag k="historic" v="shieling" />
		<tag k="name" v="Kjørkjeset" />
		<tag k="place" v="locality" />
		<tag k="ssr:stedsnr" v="46678" />
	</node>
	<node lat="60.00996388945604" lon="8.882525007276625" id="-25953">
		<tag k="name" v="Steinsetmyre" />
		<tag k="natural" v="wetland" />
		<tag k="ssr:stedsnr" v="65310" />
	</node>
	<node lat="59.82875000117794" lon="8.384594441076825" id="-26006">
		<tag k="name" v="Granholtet" />
		<tag k="place" v="locality" />
		<tag k="ssr:stedsnr" v="93312" />
	</node>
	<node lat="60.016408334768535" lon="8.749738897108003" id="-26017">
		<tag k="name" v="Grimarure" />
		<tag k="natural" v="scree" />
		<tag k="ssr:stedsnr" v="94178" />
	</node>
	<node lat="59.86401388532678" lon="8.409630563675925" id="-26020">
		<tag k="name" v="Klonkehella" />
		<tag k="natural" v="stone" />
		<tag k="ssr:stedsnr" v="94204" />
	</node>
	<node lat="59.95726666846325" lon="8.58248055657339" id="-26021">
		<tag k="name" v="Midtlie" />
		<tag k="place" v="locality" />
		<tag k="ssr:stedsnr" v="94310" />
	</node>
	<node lat="60.065911107631706" lon="8.725227776984065" id="-26047">
		<tag k="name" v="Bergelimyre" />
		<tag k="natural" v="wetland" />
		<tag k="ssr:stedsnr" v="96804" />
	</node>
	<node lat="60.060316670553654" lon="8.700447216185838" id="-26048">
		<tag k="historic" v="shieling" />
		<tag k="name" v="Plassen" />
		<tag k="place" v="locality" />
		<tag k="ssr:stedsnr" v="96868" />
	</node>
	<node lat="59.94519166574984" lon="9.054633342230824" id="-26056">
		<tag k="name" v="Storemyr" />
		<tag k="natural" v="wetland" />
		<tag k="ssr:stedsnr" v="97208" />
	</node>
	<node lat="60.078744448312975" lon="8.526349991430024" id="-26090">
		<tag k="name" v="Bjortjønnhegnun" />
		<tag k="natural" v="wetland" />
		<tag k="ssr:stedsnr" v="107018" />
	</node>
	<node lat="60.07899722160508" lon="8.616119443813291" id="-26092">
		<tag k="historic" v="shieling" />
		<tag k="name" v="Storsteinstaulen" />
		<tag k="place" v="locality" />
		<tag k="ssr:stedsnr" v="107229" />
	</node>
	<node lat="59.817024996212744" lon="9.095138883385022" id="-26117">
		<tag k="historic" v="shieling" />
		<tag k="name" v="Mogstul sambeite" />
		<tag k="place" v="locality" />
		<tag k="ssr:stedsnr" v="125652" />
	</node>
	<node lat="60.14309722042826" lon="8.697663897734305" id="-26197">
		<tag k="historic" v="shieling" />
		<tag k="name" v="Rovolden" />
		<tag k="place" v="locality" />
		<tag k="ssr:stedsnr" v="167208" />
	</node>
	<node lat="60.02182221953702" lon="8.728688890340832" id="-26252">
		<tag k="historic" v="shieling" />
		<tag k="name" v="Storekås" />
		<tag k="place" v="locality" />
		<tag k="ssr:stedsnr" v="187785" />
	</node>
	<node lat="60.00552778194767" lon="8.660697216989185" id="-26281">
		<tag k="name" v="Dikjestein" />
		<tag k="natural" v="stone" />
		<tag k="ssr:stedsnr" v="217426" />
	</node>
	<node lat="60.01471667084233" lon="8.70975555295821" id="-26282">
		<tag k="name" v="Ræpekloppmyre" />
		<tag k="natural" v="wetland" />
		<tag k="ssr:stedsnr" v="217606" />
	</node>
	<node lat="59.94192222218741" lon="9.129402777796082" id="-26294">
		<tag k="name" v="Långemyr" />
		<tag k="natural" v="wetland" />
		<tag k="ssr:stedsnr" v="218479" />
	</node>
	<node lat="59.95815278041212" lon="8.941894446498017" id="-26300">
		<tag k="name" v="Korteløyte" />
		<tag k="natural" v="wetland" />
		<tag k="ssr:stedsnr" v="218584" />
	</node>
	<node lat="59.85056666600191" lon="9.105713882431674" id="-26305">
		<tag k="name" v="Holtemyre" />
		<tag k="natural" v="wetland" />
		<tag k="ssr:stedsnr" v="218888" />
	</node>
	<node lat="60.03708611152615" lon="8.73394166152123" id="-26307">
		<tag k="name" v="Myran" />
		<tag k="place" v="locality" />
		<tag k="ssr:stedsnr" v="218913" />
	</node>
	<node lat="59.89269167043778" lon="9.05472499666884" id="-26308">
		<tag k="name" v="Sjåheimmyre" />
		<tag k="natural" v="wetland" />
		<tag k="ssr:stedsnr" v="218925" />
	</node>
	<node lat="60.00468333179771" lon="8.744374998833404" id="-26394">
		<tag k="name" v="Hestehagen" />
		<tag k="place" v="locality" />
		<tag k="ssr:stedsnr" v="458290" />
	</node>
	<node lat="60.01946389333786" lon="8.891308330210524" id="-26467">
		<tag k="name" v="Flæun" />
		<tag k="natural" v="wetland" />
		<tag k="ssr:stedsnr" v="279140" />
	</node>
	<node lat="59.92833888903102" lon="9.03766388875059" id="-26471">
		<tag k="name" v="Øvre krossmyr" />
		<tag k="natural" v="wetland" />
		<tag k="ssr:stedsnr" v="279770" />
	</node>
	<node lat="60.03889722338892" lon="8.77633888733008" id="-26482">
		<tag k="name" v="Kvennetjønnmyran" />
		<tag k="natural" v="wetland" />
		<tag k="ssr:stedsnr" v="460955" />
	</node>
	<node lat="60.019413889042006" lon="8.941949997946228" id="-26489">
		<tag k="name" v="Tysetmyran" />
		<tag k="natural" v="wetland" />
		<tag k="ssr:stedsnr" v="461326" />
	</node>
	<node lat="60.08412777648763" lon="8.830161103545557" id="-26492">
		<tag k="historic" v="shieling" />
		<tag k="name" v="Mestaul" />
		<tag k="place" v="locality" />
		<tag k="ssr:stedsnr" v="286909" />
	</node>
	<node lat="59.93824166930675" lon="9.01891389759859" id="-26518">
		<tag k="name" v="Tjonemyr" />
		<tag k="natural" v="wetland" />
		<tag k="ssr:stedsnr" v="461800" />
	</node>
	<node lat="60.01934444762836" lon="8.818144451949697" id="-26571">
		<tag k="historic" v="shieling" />
		<tag k="name" v="Benderud" />
		<tag k="place" v="locality" />
		<tag k="ssr:stedsnr" v="308944" />
	</node>
	<node lat="59.99826388828428" lon="8.67857499386619" id="-26622">
		<tag k="name" v="Ospelonin" />
		<tag k="place" v="locality" />
		<tag k="ssr:stedsnr" v="337504" />
	</node>
	<node lat="60.01594166651143" lon="8.941533328922844" id="-26640">
		<tag k="historic" v="shieling" />
		<tag k="name" v="Storsteinflaten" />
		<tag k="place" v="locality" />
		<tag k="ssr:stedsnr" v="339347" />
	</node>
	<node lat="60.08009722606092" lon="8.656872221568147" id="-26665">
		<tag k="historic" v="shieling" />
		<tag k="name" v="Hågågarden" />
		<tag k="place" v="locality" />
		<tag k="ssr:stedsnr" v="349265" />
	</node>
</osm>
