<?xml version="1.0" encoding="UTF-8"?>
<osm generator="osmapis" version="0.6">
	<node id="-235838" lat="59.3546888903" lon="11.7695833342">
		<tag k="name" v="Dansefuruveien" />
		<tag k="ssr:date" v="2019-12-27" />
		<tag k="ssr:gruppe" v="veg" />
		<tag k="ssr:hovedgruppe" v="infrastruktur" />
		<tag k="ssr:stedsnr" v="719801" />
		<tag k="ssr:type" v="vegstrekning" />
	</node>
	<node id="-237583" lat="59.5685018222" lon="11.584122889">
		<tag k="name" v="Lauvnesveien" />
		<tag k="ssr:date" v="2019-12-27" />
		<tag k="ssr:gruppe" v="veg" />
		<tag k="ssr:hovedgruppe" v="infrastruktur" />
		<tag k="ssr:stedsnr" v="1060300" />
		<tag k="ssr:type" v="adressenavn" />
	</node>
	<node id="-237593" lat="69.6388889725" lon="30.5666644427">
		<tag k="fixme" v="multiple name tags, choose one and add the other to alt_name" />
		<tag k="loc_name:se" v="Norgga gonagasriika" />
		<tag k="loc_name:sma" v="Nöörjen gånkarïjhke" />
		<tag k="loc_name:smj" v="Vuona gånågisrijkka" />
		<tag k="name" v="Noreg;Norge" />
		<tag k="name:en" v="Norway" />
		<tag k="name:no" v="Noreg;Norge" />
		<tag k="ssr:date" v="2020-06-04" />
		<tag k="ssr:gruppe" v="administrativeIndelinger" />
		<tag k="ssr:hovedgruppe" v="offentligAdministrasjon" />
		<tag k="ssr:stedsnr" v="26330" />
		<tag k="ssr:type" v="nasjon" />
	</node>
	<node id="-237591" lat="59.4798244336" lon="11.6629253806">
		<tag k="name" v="Brødrene Olsens vei" />
		<tag k="ssr:date" v="2020-05-15" />
		<tag k="ssr:gruppe" v="veg" />
		<tag k="ssr:hovedgruppe" v="infrastruktur" />
		<tag k="ssr:stedsnr" v="1076968" />
		<tag k="ssr:type" v="adressenavn" />
	</node>
	<node id="-237590" lat="59.9116896876" lon="10.7581882267">
		<tag k="name" v="Viken fylke" />
		<tag k="ssr:date" v="2020-01-13" />
		<tag k="ssr:gruppe" v="administrativeIndelinger" />
		<tag k="ssr:hovedgruppe" v="offentligAdministrasjon" />
		<tag k="ssr:stedsnr" v="1074403" />
		<tag k="ssr:type" v="fylke" />
	</node>
	<node id="-236117" lat="59.4795222179" lon="11.6591749985">
		<tag k="name" v="Marker kommune" />
		<tag k="ssr:date" v="2019-12-27" />
		<tag k="ssr:gruppe" v="administrativeIndelinger" />
		<tag k="ssr:hovedgruppe" v="offentligAdministrasjon" />
		<tag k="ssr:stedsnr" v="935329" />
		<tag k="ssr:type" v="kommune" />
	</node>
	<node id="-237588" lat="59.4806086373" lon="11.666325189">
		<tag k="name" v="Tjernstubben" />
		<tag k="ssr:date" v="2019-12-27" />
		<tag k="ssr:gruppe" v="veg" />
		<tag k="ssr:hovedgruppe" v="infrastruktur" />
		<tag k="ssr:stedsnr" v="1060382" />
		<tag k="ssr:type" v="adressenavn" />
	</node>
	<node id="-237587" lat="59.4830040051" lon="11.6595503525">
		<tag k="name" v="Sagodden" />
		<tag k="ssr:date" v="2019-12-27" />
		<tag k="ssr:gruppe" v="veg" />
		<tag k="ssr:hovedgruppe" v="infrastruktur" />
		<tag k="ssr:stedsnr" v="1060337" />
		<tag k="ssr:type" v="adressenavn" />
	</node>
	<node id="-237586" lat="59.5423353028" lon="11.6503070308">
		<tag k="name" v="Hienveien" />
		<tag k="ssr:date" v="2019-12-27" />
		<tag k="ssr:gruppe" v="veg" />
		<tag k="ssr:hovedgruppe" v="infrastruktur" />
		<tag k="ssr:stedsnr" v="1060315" />
		<tag k="ssr:type" v="adressenavn" />
	</node>
	<node id="-236881" lat="59.5948722242" lon="11.5629305535">
		<tag k="name" v="Langlibakken" />
		<tag k="ssr:date" v="2019-12-27" />
		<tag k="ssr:gruppe" v="veg" />
		<tag k="ssr:hovedgruppe" v="infrastruktur" />
		<tag k="ssr:stedsnr" v="416476" />
		<tag k="ssr:type" v="vegstrekning" />
	</node>
	<node id="-237584" lat="59.5070575487" lon="11.6269289274">
		<tag k="name" v="Tynnelsrudveien" />
		<tag k="ssr:date" v="2019-12-27" />
		<tag k="ssr:gruppe" v="veg" />
		<tag k="ssr:hovedgruppe" v="infrastruktur" />
		<tag k="ssr:stedsnr" v="1060308" />
		<tag k="ssr:type" v="adressenavn" />
	</node>
	<node id="-235087" lat="59.4601249997" lon="11.6227916645">
		<tag k="name" v="Liseterveg" />
		<tag k="ssr:date" v="2019-12-27" />
		<tag k="ssr:gruppe" v="veg" />
		<tag k="ssr:hovedgruppe" v="infrastruktur" />
		<tag k="ssr:stedsnr" v="234495" />
		<tag k="ssr:type" v="vegstrekning" />
	</node>
	<node id="-237582" lat="59.3466946117" lon="11.6852938485">
		<tag k="name" v="Djupvikveien" />
		<tag k="ssr:date" v="2020-06-16" />
		<tag k="ssr:gruppe" v="veg" />
		<tag k="ssr:hovedgruppe" v="infrastruktur" />
		<tag k="ssr:stedsnr" v="1060274" />
		<tag k="ssr:type" v="adressenavn" />
	</node>
	<node id="-237581" lat="59.4428564526" lon="11.7085861243">
		<tag k="name" v="Lømbuseterveien" />
		<tag k="ssr:date" v="2019-12-27" />
		<tag k="ssr:gruppe" v="veg" />
		<tag k="ssr:hovedgruppe" v="infrastruktur" />
		<tag k="ssr:stedsnr" v="1060272" />
		<tag k="ssr:type" v="adressenavn" />
	</node>
	<node id="-237580" lat="59.537836219" lon="11.6467254709">
		<tag k="name" v="Høgåsveien" />
		<tag k="ssr:date" v="2019-12-27" />
		<tag k="ssr:gruppe" v="veg" />
		<tag k="ssr:hovedgruppe" v="infrastruktur" />
		<tag k="ssr:stedsnr" v="1060316" />
		<tag k="ssr:type" v="adressenavn" />
	</node>
	<node id="-237585" lat="59.5369644199" lon="11.6595089898">
		<tag k="name" v="Høgåsbråten" />
		<tag k="ssr:date" v="2019-12-27" />
		<tag k="ssr:gruppe" v="veg" />
		<tag k="ssr:hovedgruppe" v="infrastruktur" />
		<tag k="ssr:stedsnr" v="1060314" />
		<tag k="ssr:type" v="adressenavn" />
	</node>
</osm>
