<?xml version="1.0" encoding="UTF-8"?>
<osm version="0.6" generator="osmapis">
	<node lat="59.05183643311383" lon="11.00333854189191" id="-24418">
		<tag k="name" v="Haslevika" />
		<tag k="ssr:date" v="2019-12-27" />
		<tag k="ssr:gruppe" v="veg" />
		<tag k="ssr:hovedgruppe" v="infrastruktur" />
		<tag k="ssr:stedsnr" v="222570" />
		<tag k="ssr:type" v="adressenavn" />
	</node>
	<node lat="59.086012145585165" lon="11.032927716894871" id="-24419">
		<tag k="name" v="Brønnløkkeveien" />
		<tag k="ssr:date" v="2019-12-27" />
		<tag k="ssr:gruppe" v="veg" />
		<tag k="ssr:hovedgruppe" v="infrastruktur" />
		<tag k="ssr:stedsnr" v="222620" />
		<tag k="ssr:type" v="adressenavn" />
	</node>
	<node lat="59.102780656914206" lon="10.942269292859736" id="-24420">
		<tag k="name" v="Ribba" />
		<tag k="ssr:date" v="2019-12-27" />
		<tag k="ssr:gruppe" v="veg" />
		<tag k="ssr:hovedgruppe" v="infrastruktur" />
		<tag k="ssr:stedsnr" v="223285" />
		<tag k="ssr:type" v="adressenavn" />
	</node>
	<node lat="59.08005350997656" lon="10.87475381168822" id="-24421">
		<tag k="name" v="Utgårdskilen" />
		<tag k="ssr:date" v="2019-12-27" />
		<tag k="ssr:gruppe" v="veg" />
		<tag k="ssr:hovedgruppe" v="infrastruktur" />
		<tag k="ssr:stedsnr" v="223521" />
		<tag k="ssr:type" v="adressenavn" />
	</node>
	<node lat="59.08131182786683" lon="10.903288743703351" id="-24422">
		<tag k="name" v="Nygård" />
		<tag k="ssr:date" v="2019-12-27" />
		<tag k="ssr:gruppe" v="veg" />
		<tag k="ssr:hovedgruppe" v="infrastruktur" />
		<tag k="ssr:stedsnr" v="224524" />
		<tag k="ssr:type" v="adressenavn" />
	</node>
	<node lat="59.055390207483455" lon="10.932279502746717" id="-24423">
		<tag k="name" v="Gravningen" />
		<tag k="ssr:date" v="2019-12-27" />
		<tag k="ssr:gruppe" v="veg" />
		<tag k="ssr:hovedgruppe" v="infrastruktur" />
		<tag k="ssr:stedsnr" v="224995" />
		<tag k="ssr:type" v="adressenavn" />
	</node>
	<node lat="59.085187915007" lon="10.88077348020531" id="-24424">
		<tag k="name" v="Kjølneberget" />
		<tag k="ssr:date" v="2019-12-27" />
		<tag k="ssr:gruppe" v="veg" />
		<tag k="ssr:hovedgruppe" v="infrastruktur" />
		<tag k="ssr:stedsnr" v="41508" />
		<tag k="ssr:type" v="adressenavn" />
	</node>
	<node lat="59.08574828668224" lon="10.880610122913374" id="-24425">
		<tag k="name" v="Engebakken" />
		<tag k="ssr:date" v="2019-12-27" />
		<tag k="ssr:gruppe" v="veg" />
		<tag k="ssr:hovedgruppe" v="infrastruktur" />
		<tag k="ssr:stedsnr" v="41509" />
		<tag k="ssr:type" v="adressenavn" />
	</node>
	<node lat="59.02919954316727" lon="11.042839730937231" id="-24426">
		<tag k="name" v="Stenkroken" />
		<tag k="ssr:date" v="2019-12-27" />
		<tag k="ssr:gruppe" v="veg" />
		<tag k="ssr:hovedgruppe" v="infrastruktur" />
		<tag k="ssr:stedsnr" v="47911" />
		<tag k="ssr:type" v="adressenavn" />
	</node>
	<node lat="58.98325833606438" lon="11.057072227138711" id="-24439">
		<tag k="alt_name" v="Sækkefluene lykt" />
		<tag k="name" v="Sekkefluene lanterne" />
		<tag k="ssr:date" v="2019-12-27" />
		<tag k="ssr:gruppe" v="navigasjon" />
		<tag k="ssr:hovedgruppe" v="infrastruktur" />
		<tag k="ssr:stedsnr" v="54918" />
		<tag k="ssr:type" v="lanterne" />
	</node>
	<node lat="59.02520255565447" lon="11.036776128888604" id="-24443">
		<tag k="name" v="Torvet" />
		<tag k="ssr:date" v="2019-12-27" />
		<tag k="ssr:gruppe" v="veg" />
		<tag k="ssr:hovedgruppe" v="infrastruktur" />
		<tag k="ssr:stedsnr" v="57719" />
		<tag k="ssr:type" v="adressenavn" />
	</node>
	<node lat="59.02900283827112" lon="11.035422624794487" id="-24444">
		<tag k="name" v="Peremyra" />
		<tag k="ssr:date" v="2019-12-27" />
		<tag k="ssr:gruppe" v="veg" />
		<tag k="ssr:hovedgruppe" v="infrastruktur" />
		<tag k="ssr:stedsnr" v="57607" />
		<tag k="ssr:type" v="adressenavn" />
	</node>
	<node lat="59.02934079401502" lon="11.033043183653787" id="-24445">
		<tag k="name" v="Kristinelia" />
		<tag k="ssr:date" v="2019-12-27" />
		<tag k="ssr:gruppe" v="veg" />
		<tag k="ssr:hovedgruppe" v="infrastruktur" />
		<tag k="ssr:stedsnr" v="57610" />
		<tag k="ssr:type" v="adressenavn" />
	</node>
	<node lat="59.02890092224353" lon="11.093694700179624" id="-24446">
		<tag k="name" v="Under Signalen" />
		<tag k="ssr:date" v="2019-12-27" />
		<tag k="ssr:gruppe" v="veg" />
		<tag k="ssr:hovedgruppe" v="infrastruktur" />
		<tag k="ssr:stedsnr" v="58606" />
		<tag k="ssr:type" v="adressenavn" />
	</node>
	<node lat="59.116865573968795" lon="10.868870556079669" id="-24447">
		<tag k="name" v="Julle Mu" />
		<tag k="ssr:date" v="2019-12-27" />
		<tag k="ssr:gruppe" v="veg" />
		<tag k="ssr:hovedgruppe" v="infrastruktur" />
		<tag k="ssr:stedsnr" v="58612" />
		<tag k="ssr:type" v="adressenavn" />
	</node>
	<node lat="59.04492620398488" lon="11.033012067399374" id="-24448">
		<tag k="name" v="Edveien" />
		<tag k="ssr:date" v="2019-12-27" />
		<tag k="ssr:gruppe" v="veg" />
		<tag k="ssr:hovedgruppe" v="infrastruktur" />
		<tag k="ssr:stedsnr" v="58720" />
		<tag k="ssr:type" v="adressenavn" />
	</node>
	<node lat="59.03692620710838" lon="11.009658892538392" id="-24473">
		<tag k="name" v="Tangebekken" />
		<tag k="ssr:date" v="2019-12-27" />
		<tag k="ssr:gruppe" v="veg" />
		<tag k="ssr:hovedgruppe" v="infrastruktur" />
		<tag k="ssr:stedsnr" v="101660" />
		<tag k="ssr:type" v="adressenavn" />
	</node>
	<node lat="59.055710713243" lon="10.917980511514639" id="-24474">
		<tag k="name" v="Akerøya" />
		<tag k="ssr:date" v="2019-12-27" />
		<tag k="ssr:gruppe" v="veg" />
		<tag k="ssr:hovedgruppe" v="infrastruktur" />
		<tag k="ssr:stedsnr" v="102473" />
		<tag k="ssr:type" v="adressenavn" />
	</node>
	<node lat="59.088982053236755" lon="10.934330456961845" id="-24475">
		<tag k="name" v="Bastoodden" />
		<tag k="ssr:date" v="2019-12-27" />
		<tag k="ssr:gruppe" v="veg" />
		<tag k="ssr:hovedgruppe" v="infrastruktur" />
		<tag k="ssr:stedsnr" v="102590" />
		<tag k="ssr:type" v="adressenavn" />
	</node>
	<node lat="58.99825802261578" lon="11.049575696011608" id="-24503">
		<tag k="name" v="Rognhavn" />
		<tag k="ssr:date" v="2019-12-27" />
		<tag k="ssr:gruppe" v="veg" />
		<tag k="ssr:hovedgruppe" v="infrastruktur" />
		<tag k="ssr:stedsnr" v="118705" />
		<tag k="ssr:type" v="adressenavn" />
	</node>
	<node lat="59.10590067990701" lon="10.876197410942387" id="-24521">
		<tag k="name" v="Neset" />
		<tag k="ssr:date" v="2019-12-27" />
		<tag k="ssr:gruppe" v="veg" />
		<tag k="ssr:hovedgruppe" v="infrastruktur" />
		<tag k="ssr:stedsnr" v="239363" />
		<tag k="ssr:type" v="adressenavn" />
	</node>
	<node lat="59.022666667621216" lon="11.041219436524118" id="-24522">
		<tag k="name" v="Tareholmen" />
		<tag k="ssr:date" v="2019-12-27" />
		<tag k="ssr:gruppe" v="veg" />
		<tag k="ssr:hovedgruppe" v="infrastruktur" />
		<tag k="ssr:stedsnr" v="239529" />
		<tag k="ssr:type" v="adressenavn" />
	</node>
	<node lat="59.07952424261134" lon="11.017830821559597" id="-24523">
		<tag k="name" v="Saltvika" />
		<tag k="ssr:date" v="2019-12-27" />
		<tag k="ssr:gruppe" v="veg" />
		<tag k="ssr:hovedgruppe" v="infrastruktur" />
		<tag k="ssr:stedsnr" v="239714" />
		<tag k="ssr:type" v="adressenavn" />
	</node>
	<node lat="59.03113843524454" lon="11.002632344886841" id="-24524">
		<tag k="name" v="Tufteveien" />
		<tag k="ssr:date" v="2019-12-27" />
		<tag k="ssr:gruppe" v="veg" />
		<tag k="ssr:hovedgruppe" v="infrastruktur" />
		<tag k="ssr:stedsnr" v="240717" />
		<tag k="ssr:type" v="adressenavn" />
	</node>
	<node lat="59.03016685207675" lon="11.005182138282477" id="-24525">
		<tag k="name" v="Ørekrokveien" />
		<tag k="ssr:date" v="2019-12-27" />
		<tag k="ssr:gruppe" v="veg" />
		<tag k="ssr:hovedgruppe" v="infrastruktur" />
		<tag k="ssr:stedsnr" v="240721" />
		<tag k="ssr:type" v="adressenavn" />
	</node>
	<node lat="59.0846734307179" lon="11.032839657406756" id="-24526">
		<tag k="name" v="Revtangeveien" />
		<tag k="ssr:date" v="2019-12-27" />
		<tag k="ssr:gruppe" v="veg" />
		<tag k="ssr:hovedgruppe" v="infrastruktur" />
		<tag k="ssr:stedsnr" v="240682" />
		<tag k="ssr:type" v="adressenavn" />
	</node>
	<node lat="59.102572587053025" lon="10.913043676777386" id="-24553">
		<tag k="name" v="Norderhaugveien" />
		<tag k="ssr:date" v="2019-12-27" />
		<tag k="ssr:gruppe" v="veg" />
		<tag k="ssr:hovedgruppe" v="infrastruktur" />
		<tag k="ssr:stedsnr" v="162488" />
		<tag k="ssr:type" v="adressenavn" />
	</node>
	<node lat="59.08575682799099" lon="10.879578333178308" id="-24554">
		<tag k="name" v="Nedre Utgård" />
		<tag k="ssr:date" v="2019-12-27" />
		<tag k="ssr:gruppe" v="veg" />
		<tag k="ssr:hovedgruppe" v="infrastruktur" />
		<tag k="ssr:stedsnr" v="162519" />
		<tag k="ssr:type" v="adressenavn" />
	</node>
	<node lat="59.075049655539935" lon="10.93898629553462" id="-24556">
		<tag k="name" v="Rød" />
		<tag k="ssr:date" v="2019-12-27" />
		<tag k="ssr:gruppe" v="veg" />
		<tag k="ssr:hovedgruppe" v="infrastruktur" />
		<tag k="ssr:stedsnr" v="163976" />
		<tag k="ssr:type" v="adressenavn" />
	</node>
	<node lat="59.03515833321268" lon="10.855808331513156" id="-24562">
		<tag k="name" v="Veslerenna" />
		<tag k="ssr:date" v="2019-12-27" />
		<tag k="ssr:gruppe" v="sjøbunn" />
		<tag k="ssr:hovedgruppe" v="sjø" />
		<tag k="ssr:stedsnr" v="175709" />
		<tag k="ssr:type" v="renneKløftISjø" />
	</node>
	<node lat="59.02526898883873" lon="11.037010851887244" id="-24568">
		<tag k="name" v="Strandveien" />
		<tag k="ssr:date" v="2019-12-27" />
		<tag k="ssr:gruppe" v="veg" />
		<tag k="ssr:hovedgruppe" v="infrastruktur" />
		<tag k="ssr:stedsnr" v="177867" />
		<tag k="ssr:type" v="adressenavn" />
	</node>
	<node lat="59.115435094119" lon="10.906147698374676" id="-24569">
		<tag k="name" v="Lerdalsveien" />
		<tag k="ssr:date" v="2019-12-27" />
		<tag k="ssr:gruppe" v="veg" />
		<tag k="ssr:hovedgruppe" v="infrastruktur" />
		<tag k="ssr:stedsnr" v="178375" />
		<tag k="ssr:type" v="adressenavn" />
	</node>
	<node lat="59.08406700657641" lon="11.070981896960626" id="-24570">
		<tag k="name" v="Singleø" />
		<tag k="ssr:date" v="2019-12-27" />
		<tag k="ssr:gruppe" v="veg" />
		<tag k="ssr:hovedgruppe" v="infrastruktur" />
		<tag k="ssr:stedsnr" v="178516" />
		<tag k="ssr:type" v="adressenavn" />
	</node>
	<node lat="59.07711111106639" lon="10.876691665696777" id="-24571">
		<tag k="name" v="Sørlendingen" />
		<tag k="ssr:date" v="2019-12-27" />
		<tag k="ssr:gruppe" v="veg" />
		<tag k="ssr:hovedgruppe" v="infrastruktur" />
		<tag k="ssr:stedsnr" v="179407" />
		<tag k="ssr:type" v="adressenavn" />
	</node>
	<node lat="59.0556922576024" lon="11.056251110717202" id="-24572">
		<tag k="name" v="Kjennvikveien" />
		<tag k="ssr:date" v="2019-12-27" />
		<tag k="ssr:gruppe" v="veg" />
		<tag k="ssr:hovedgruppe" v="infrastruktur" />
		<tag k="ssr:stedsnr" v="179524" />
		<tag k="ssr:type" v="adressenavn" />
	</node>
	<node lat="59.11709500472995" lon="10.870426828244703" id="-24573">
		<tag k="name" v="Nordre vika" />
		<tag k="ssr:date" v="2019-12-27" />
		<tag k="ssr:gruppe" v="veg" />
		<tag k="ssr:hovedgruppe" v="infrastruktur" />
		<tag k="ssr:stedsnr" v="179528" />
		<tag k="ssr:type" v="adressenavn" />
	</node>
	<node lat="59.104834134026355" lon="10.843513667937916" id="-24574">
		<tag k="name" v="Hvalane" />
		<tag k="ssr:date" v="2019-12-27" />
		<tag k="ssr:gruppe" v="veg" />
		<tag k="ssr:hovedgruppe" v="infrastruktur" />
		<tag k="ssr:stedsnr" v="179573" />
		<tag k="ssr:type" v="adressenavn" />
	</node>
	<node lat="59.0729125162182" lon="10.942976255497209" id="-24586">
		<tag k="name" v="Rødsfjellet" />
		<tag k="ssr:date" v="2019-12-27" />
		<tag k="ssr:gruppe" v="veg" />
		<tag k="ssr:hovedgruppe" v="infrastruktur" />
		<tag k="ssr:stedsnr" v="221908" />
		<tag k="ssr:type" v="adressenavn" />
	</node>
	<node lat="59.08010514754049" lon="11.02070123618246" id="-24587">
		<tag k="name" v="Urdalsveien" />
		<tag k="ssr:date" v="2019-12-27" />
		<tag k="ssr:gruppe" v="veg" />
		<tag k="ssr:hovedgruppe" v="infrastruktur" />
		<tag k="ssr:stedsnr" v="222602" />
		<tag k="ssr:type" v="adressenavn" />
	</node>
	<node lat="59.09991030813841" lon="10.870704799719766" id="-24588">
		<tag k="name" v="Båsvika" />
		<tag k="ssr:date" v="2019-12-27" />
		<tag k="ssr:gruppe" v="veg" />
		<tag k="ssr:hovedgruppe" v="infrastruktur" />
		<tag k="ssr:stedsnr" v="223490" />
		<tag k="ssr:type" v="adressenavn" />
	</node>
	<node lat="59.11688526930992" lon="10.865464073854767" id="-24607">
		<tag k="name" v="Seiløveien" />
		<tag k="ssr:date" v="2019-12-27" />
		<tag k="ssr:gruppe" v="veg" />
		<tag k="ssr:hovedgruppe" v="infrastruktur" />
		<tag k="ssr:stedsnr" v="239521" />
		<tag k="ssr:type" v="adressenavn" />
	</node>
	<node lat="59.079292019901025" lon="10.9321137548353" id="-24608">
		<tag k="name" v="Holmetangen" />
		<tag k="ssr:date" v="2019-12-27" />
		<tag k="ssr:gruppe" v="veg" />
		<tag k="ssr:hovedgruppe" v="infrastruktur" />
		<tag k="ssr:stedsnr" v="239603" />
		<tag k="ssr:type" v="adressenavn" />
	</node>
	<node lat="59.072152728494956" lon="11.088077310868977" id="-24609">
		<tag k="name" v="Edholmen" />
		<tag k="ssr:date" v="2019-12-27" />
		<tag k="ssr:gruppe" v="veg" />
		<tag k="ssr:hovedgruppe" v="infrastruktur" />
		<tag k="ssr:stedsnr" v="240712" />
		<tag k="ssr:type" v="adressenavn" />
	</node>
	<node lat="59.074361927281515" lon="10.89353642613771" id="-24633">
		<tag k="name" v="Kjellvikveien" />
		<tag k="ssr:date" v="2019-12-27" />
		<tag k="ssr:gruppe" v="veg" />
		<tag k="ssr:hovedgruppe" v="infrastruktur" />
		<tag k="ssr:stedsnr" v="284406" />
		<tag k="ssr:type" v="adressenavn" />
	</node>
	<node lat="59.09924175599576" lon="10.872947608180128" id="-24634">
		<tag k="name" v="Utgårdsveien" />
		<tag k="ssr:date" v="2019-12-27" />
		<tag k="ssr:gruppe" v="veg" />
		<tag k="ssr:hovedgruppe" v="infrastruktur" />
		<tag k="ssr:stedsnr" v="284437" />
		<tag k="ssr:type" v="adressenavn" />
	</node>
	<node lat="59.0979692775764" lon="10.849609822460272" id="-24635">
		<tag k="name" v="Ramsvikberget" />
		<tag k="ssr:date" v="2019-12-27" />
		<tag k="ssr:gruppe" v="veg" />
		<tag k="ssr:hovedgruppe" v="infrastruktur" />
		<tag k="ssr:stedsnr" v="284497" />
		<tag k="ssr:type" v="adressenavn" />
	</node>
	<node lat="59.02576388954479" lon="10.960452773312081" id="-24646">
		<tag k="name" v="Vidgrunnen lykt" />
		<tag k="ssr:date" v="2019-12-27" />
		<tag k="ssr:gruppe" v="navigasjon" />
		<tag k="ssr:hovedgruppe" v="infrastruktur" />
		<tag k="ssr:stedsnr" v="297587" />
		<tag k="ssr:type" v="fyrlykt" />
	</node>
	<node lat="59.0259479422275" lon="11.03577994659148" id="-24654">
		<tag k="name" v="Skomakerveien" />
		<tag k="ssr:date" v="2019-12-27" />
		<tag k="ssr:gruppe" v="veg" />
		<tag k="ssr:hovedgruppe" v="infrastruktur" />
		<tag k="ssr:stedsnr" v="298810" />
		<tag k="ssr:type" v="adressenavn" />
	</node>
	<node lat="59.11824628273859" lon="10.907974291337888" id="-24655">
		<tag k="name" v="Økholmen" />
		<tag k="ssr:date" v="2019-12-27" />
		<tag k="ssr:gruppe" v="veg" />
		<tag k="ssr:hovedgruppe" v="infrastruktur" />
		<tag k="ssr:stedsnr" v="300406" />
		<tag k="ssr:type" v="adressenavn" />
	</node>
	<node lat="59.089133194464594" lon="10.877657983277185" id="-24656">
		<tag k="name" v="Nord i fjella" />
		<tag k="ssr:date" v="2019-12-27" />
		<tag k="ssr:gruppe" v="veg" />
		<tag k="ssr:hovedgruppe" v="infrastruktur" />
		<tag k="ssr:stedsnr" v="300502" />
		<tag k="ssr:type" v="adressenavn" />
	</node>
	<node lat="59.04461703466807" lon="11.104424366139549" id="-24657">
		<tag k="name" v="Apalvika" />
		<tag k="ssr:date" v="2019-12-27" />
		<tag k="ssr:gruppe" v="veg" />
		<tag k="ssr:hovedgruppe" v="infrastruktur" />
		<tag k="ssr:stedsnr" v="300587" />
		<tag k="ssr:type" v="adressenavn" />
	</node>
	<node lat="59.028408054792514" lon="11.094600136630232" id="-24658">
		<tag k="name" v="Makøveien" />
		<tag k="ssr:date" v="2019-12-27" />
		<tag k="ssr:gruppe" v="veg" />
		<tag k="ssr:hovedgruppe" v="infrastruktur" />
		<tag k="ssr:stedsnr" v="300590" />
		<tag k="ssr:type" v="adressenavn" />
	</node>
	<node lat="59.06292059153898" lon="11.033636376224434" id="-24659">
		<tag k="name" v="Reffsveien" />
		<tag k="ssr:date" v="2019-12-27" />
		<tag k="ssr:gruppe" v="veg" />
		<tag k="ssr:hovedgruppe" v="infrastruktur" />
		<tag k="ssr:stedsnr" v="300702" />
		<tag k="ssr:type" v="adressenavn" />
	</node>
	<node lat="59.03056843881585" lon="11.033173646970255" id="-24660">
		<tag k="name" v="Uthogget" />
		<tag k="ssr:date" v="2019-12-27" />
		<tag k="ssr:gruppe" v="veg" />
		<tag k="ssr:hovedgruppe" v="infrastruktur" />
		<tag k="ssr:stedsnr" v="300734" />
		<tag k="ssr:type" v="adressenavn" />
	</node>
	<node lat="59.04492620398488" lon="11.033012067399374" id="-24661">
		<tag k="name" v="Botneveien" />
		<tag k="ssr:date" v="2019-12-27" />
		<tag k="ssr:gruppe" v="veg" />
		<tag k="ssr:hovedgruppe" v="infrastruktur" />
		<tag k="ssr:stedsnr" v="300741" />
		<tag k="ssr:type" v="adressenavn" />
	</node>
	<node lat="59.09779830097269" lon="10.910322702690276" id="-24677">
		<tag k="name" v="Øvre Skjelsbu" />
		<tag k="ssr:date" v="2019-12-27" />
		<tag k="ssr:gruppe" v="veg" />
		<tag k="ssr:hovedgruppe" v="infrastruktur" />
		<tag k="ssr:stedsnr" v="344505" />
		<tag k="ssr:type" v="adressenavn" />
	</node>
	<node lat="59.03827075960192" lon="11.051252103618765" id="-24690">
		<tag k="name" v="Granholmene" />
		<tag k="ssr:date" v="2019-12-27" />
		<tag k="ssr:gruppe" v="veg" />
		<tag k="ssr:hovedgruppe" v="infrastruktur" />
		<tag k="ssr:stedsnr" v="360502" />
		<tag k="ssr:type" v="adressenavn" />
	</node>
	<node lat="59.08010514754049" lon="11.02070123618246" id="-24691">
		<tag k="name" v="Dammyrskogen" />
		<tag k="ssr:date" v="2019-12-27" />
		<tag k="ssr:gruppe" v="veg" />
		<tag k="ssr:hovedgruppe" v="infrastruktur" />
		<tag k="ssr:stedsnr" v="361703" />
		<tag k="ssr:type" v="adressenavn" />
	</node>
	<node lat="59.029945791440056" lon="11.04032108243858" id="-24692">
		<tag k="name" v="Kjølholtåsen" />
		<tag k="ssr:date" v="2019-12-27" />
		<tag k="ssr:gruppe" v="veg" />
		<tag k="ssr:hovedgruppe" v="infrastruktur" />
		<tag k="ssr:stedsnr" v="361745" />
		<tag k="ssr:type" v="adressenavn" />
	</node>
	<node lat="59.07372907606457" lon="10.950307073614987" id="-24693">
		<tag k="name" v="Brekkerød" />
		<tag k="ssr:date" v="2019-12-27" />
		<tag k="ssr:gruppe" v="veg" />
		<tag k="ssr:hovedgruppe" v="infrastruktur" />
		<tag k="ssr:stedsnr" v="362777" />
		<tag k="ssr:type" v="adressenavn" />
	</node>
	<node lat="59.05510350460099" lon="10.934659313288277" id="-24694">
		<tag k="name" v="Huserveien" />
		<tag k="ssr:date" v="2019-12-27" />
		<tag k="ssr:gruppe" v="veg" />
		<tag k="ssr:hovedgruppe" v="infrastruktur" />
		<tag k="ssr:stedsnr" v="362830" />
		<tag k="ssr:type" v="adressenavn" />
	</node>
	<node lat="59.10876424394311" lon="10.832158120758413" id="-24700">
		<tag k="name" v="Papperhavn" />
		<tag k="ssr:date" v="2019-12-27" />
		<tag k="ssr:gruppe" v="navigasjon" />
		<tag k="ssr:hovedgruppe" v="infrastruktur" />
		<tag k="ssr:stedsnr" v="365707" />
		<tag k="ssr:type" v="fyrlykt" />
	</node>
	<node lat="59.06892845189551" lon="10.90907762009067" id="-24711">
		<tag k="name" v="Spjærekilen" />
		<tag k="ssr:date" v="2019-12-27" />
		<tag k="ssr:gruppe" v="veg" />
		<tag k="ssr:hovedgruppe" v="infrastruktur" />
		<tag k="ssr:stedsnr" v="466594" />
		<tag k="ssr:type" v="adressenavn" />
	</node>
	<node lat="59.11003996614464" lon="10.910244332345194" id="-24712">
		<tag k="name" v="Gamle Ødegårdsvei" />
		<tag k="ssr:date" v="2019-12-27" />
		<tag k="ssr:gruppe" v="veg" />
		<tag k="ssr:hovedgruppe" v="infrastruktur" />
		<tag k="ssr:stedsnr" v="466496" />
		<tag k="ssr:type" v="adressenavn" />
	</node>
	<node lat="59.10319712842245" lon="10.874616081391244" id="-24713">
		<tag k="name" v="Hauge" />
		<tag k="ssr:date" v="2019-12-27" />
		<tag k="ssr:gruppe" v="veg" />
		<tag k="ssr:hovedgruppe" v="infrastruktur" />
		<tag k="ssr:stedsnr" v="466463" />
		<tag k="ssr:type" v="adressenavn" />
	</node>
	<node lat="59.062297355216245" lon="11.074824314474109" id="-24722">
		<tag k="name" v="Romsundveien" />
		<tag k="ssr:date" v="2019-12-27" />
		<tag k="ssr:gruppe" v="veg" />
		<tag k="ssr:hovedgruppe" v="infrastruktur" />
		<tag k="ssr:stedsnr" v="404655" />
		<tag k="ssr:type" v="adressenavn" />
	</node>
	<node lat="59.044167284157645" lon="10.999004609772697" id="-24723">
		<tag k="name" v="Storerødveien" />
		<tag k="ssr:date" v="2019-12-27" />
		<tag k="ssr:gruppe" v="veg" />
		<tag k="ssr:hovedgruppe" v="infrastruktur" />
		<tag k="ssr:stedsnr" v="404592" />
		<tag k="ssr:type" v="adressenavn" />
	</node>
	<node lat="59.109279020600134" lon="10.875136451106076" id="-24724">
		<tag k="name" v="Hestehella" />
		<tag k="ssr:date" v="2019-12-27" />
		<tag k="ssr:gruppe" v="veg" />
		<tag k="ssr:hovedgruppe" v="infrastruktur" />
		<tag k="ssr:stedsnr" v="405457" />
		<tag k="ssr:type" v="adressenavn" />
	</node>
	<node lat="59.09731104866331" lon="10.910316847387884" id="-24725">
		<tag k="name" v="Skjelsbulia" />
		<tag k="ssr:date" v="2019-12-27" />
		<tag k="ssr:gruppe" v="veg" />
		<tag k="ssr:hovedgruppe" v="infrastruktur" />
		<tag k="ssr:stedsnr" v="405505" />
		<tag k="ssr:type" v="adressenavn" />
	</node>
	<node lat="59.10011915538927" lon="10.841916327415968" id="-24748">
		<tag k="name" v="Høgholmen" />
		<tag k="ssr:date" v="2019-12-27" />
		<tag k="ssr:gruppe" v="veg" />
		<tag k="ssr:hovedgruppe" v="infrastruktur" />
		<tag k="ssr:stedsnr" v="422405" />
		<tag k="ssr:type" v="adressenavn" />
	</node>
	<node lat="59.09744771935911" lon="10.907682802787193" id="-24749">
		<tag k="name" v="Skjelsbutoppen" />
		<tag k="ssr:date" v="2019-12-27" />
		<tag k="ssr:gruppe" v="veg" />
		<tag k="ssr:hovedgruppe" v="infrastruktur" />
		<tag k="ssr:stedsnr" v="422401" />
		<tag k="ssr:type" v="adressenavn" />
	</node>
	<node lat="59.105403337264086" lon="10.904710625438392" id="-24750">
		<tag k="name" v="Fastlandsveien" />
		<tag k="ssr:date" v="2019-12-27" />
		<tag k="ssr:gruppe" v="veg" />
		<tag k="ssr:hovedgruppe" v="infrastruktur" />
		<tag k="ssr:stedsnr" v="422510" />
		<tag k="ssr:type" v="adressenavn" />
	</node>
	<node lat="59.03958793366059" lon="11.043160228699403" id="-24751">
		<tag k="name" v="Koltorpbrygga" />
		<tag k="ssr:date" v="2019-12-27" />
		<tag k="ssr:gruppe" v="veg" />
		<tag k="ssr:hovedgruppe" v="infrastruktur" />
		<tag k="ssr:stedsnr" v="422668" />
		<tag k="ssr:type" v="adressenavn" />
	</node>
	<node lat="59.06292059153898" lon="11.033636376224434" id="-24752">
		<tag k="name" v="Botnekilveien" />
		<tag k="ssr:date" v="2019-12-27" />
		<tag k="ssr:gruppe" v="veg" />
		<tag k="ssr:hovedgruppe" v="infrastruktur" />
		<tag k="ssr:stedsnr" v="422553" />
		<tag k="ssr:type" v="adressenavn" />
	</node>
	<node lat="59.03320043345264" lon="11.005268401109143" id="-24753">
		<tag k="name" v="Rødshueveien" />
		<tag k="ssr:date" v="2019-12-27" />
		<tag k="ssr:gruppe" v="veg" />
		<tag k="ssr:hovedgruppe" v="infrastruktur" />
		<tag k="ssr:stedsnr" v="422703" />
		<tag k="ssr:type" v="adressenavn" />
	</node>
	<node lat="59.08507091623788" lon="11.036514515989074" id="-24754">
		<tag k="name" v="Vinterstødalen" />
		<tag k="ssr:date" v="2019-12-27" />
		<tag k="ssr:gruppe" v="veg" />
		<tag k="ssr:hovedgruppe" v="infrastruktur" />
		<tag k="ssr:stedsnr" v="422711" />
		<tag k="ssr:type" v="adressenavn" />
	</node>
	<node lat="59.037432281216724" lon="11.008121717139131" id="-24755">
		<tag k="name" v="Vestre veien" />
		<tag k="ssr:date" v="2019-12-27" />
		<tag k="ssr:gruppe" v="veg" />
		<tag k="ssr:hovedgruppe" v="infrastruktur" />
		<tag k="ssr:stedsnr" v="422717" />
		<tag k="ssr:type" v="adressenavn" />
	</node>
	<node lat="59.03378243219842" lon="11.03754027559814" id="-24756">
		<tag k="name" v="Sigrid Bjørseths vei" />
		<tag k="ssr:date" v="2019-12-27" />
		<tag k="ssr:gruppe" v="veg" />
		<tag k="ssr:hovedgruppe" v="infrastruktur" />
		<tag k="ssr:stedsnr" v="422728" />
		<tag k="ssr:type" v="adressenavn" />
	</node>
	<node lat="59.134653477059615" lon="10.90144228580448" id="-24767">
		<tag k="alt_name" v="Tenneskjær lykt" />
		<tag k="name" v="Tenneskjær" />
		<tag k="ssr:date" v="2020-09-01" />
		<tag k="ssr:gruppe" v="navigasjon" />
		<tag k="ssr:hovedgruppe" v="infrastruktur" />
		<tag k="ssr:stedsnr" v="427700" />
		<tag k="ssr:type" v="fyrlykt" />
	</node>
	<node lat="58.927022224688116" lon="10.633274998965026" id="-24772">
		<tag k="name" v="Hvalerdypet" />
		<tag k="ssr:date" v="2019-12-27" />
		<tag k="ssr:gruppe" v="sjøbunn" />
		<tag k="ssr:hovedgruppe" v="sjø" />
		<tag k="ssr:stedsnr" v="478559" />
		<tag k="ssr:type" v="havdyp" />
	</node>
	<node lat="59.03800833523936" lon="10.972355555853534" id="-24775">
		<tag k="name" v="Kvernskjærgrunnen lykt" />
		<tag k="ssr:date" v="2019-12-27" />
		<tag k="ssr:gruppe" v="navigasjon" />
		<tag k="ssr:hovedgruppe" v="infrastruktur" />
		<tag k="ssr:stedsnr" v="478653" />
		<tag k="ssr:type" v="fyrlykt" />
	</node>
	<node lat="59.0755672795792" lon="10.937314824575674" id="-24799">
		<tag k="name" v="Strandbakken" />
		<tag k="ssr:date" v="2019-12-27" />
		<tag k="ssr:gruppe" v="veg" />
		<tag k="ssr:hovedgruppe" v="infrastruktur" />
		<tag k="ssr:stedsnr" v="662785" />
		<tag k="ssr:type" v="adressenavn" />
	</node>
	<node lat="59.05935948595953" lon="11.005360962164579" id="-24800">
		<tag k="name" v="Bølingshavnfjellet" />
		<tag k="ssr:date" v="2019-12-27" />
		<tag k="ssr:gruppe" v="veg" />
		<tag k="ssr:hovedgruppe" v="infrastruktur" />
		<tag k="ssr:stedsnr" v="664515" />
		<tag k="ssr:type" v="adressenavn" />
	</node>
	<node lat="59.08196105733173" lon="11.027914811349081" id="-24801">
		<tag k="name" v="Røsseberget" />
		<tag k="ssr:date" v="2019-12-27" />
		<tag k="ssr:gruppe" v="veg" />
		<tag k="ssr:hovedgruppe" v="infrastruktur" />
		<tag k="ssr:stedsnr" v="465602" />
		<tag k="ssr:type" v="adressenavn" />
	</node>
	<node lat="59.10953901070667" lon="10.855627074330064" id="-24802">
		<tag k="name" v="Tuten" />
		<tag k="ssr:date" v="2019-12-27" />
		<tag k="ssr:gruppe" v="veg" />
		<tag k="ssr:hovedgruppe" v="infrastruktur" />
		<tag k="ssr:stedsnr" v="664549" />
		<tag k="ssr:type" v="adressenavn" />
	</node>
	<node lat="59.0654485129054" lon="11.045242425591232" id="-24803">
		<tag k="name" v="Fjellholtveien" />
		<tag k="ssr:date" v="2019-12-27" />
		<tag k="ssr:gruppe" v="veg" />
		<tag k="ssr:hovedgruppe" v="infrastruktur" />
		<tag k="ssr:stedsnr" v="664641" />
		<tag k="ssr:type" v="adressenavn" />
	</node>
	<node lat="59.07035422948083" lon="11.044078516810043" id="-24804">
		<tag k="name" v="Halseveien" />
		<tag k="ssr:date" v="2019-12-27" />
		<tag k="ssr:gruppe" v="veg" />
		<tag k="ssr:hovedgruppe" v="infrastruktur" />
		<tag k="ssr:stedsnr" v="664649" />
		<tag k="ssr:type" v="adressenavn" />
	</node>
	<node lat="59.11023924103526" lon="10.871254532155323" id="-24806">
		<tag k="name" v="Tjuvholmen" />
		<tag k="ssr:date" v="2019-12-27" />
		<tag k="ssr:gruppe" v="veg" />
		<tag k="ssr:hovedgruppe" v="infrastruktur" />
		<tag k="ssr:stedsnr" v="664567" />
		<tag k="ssr:type" v="adressenavn" />
	</node>
	<node lat="59.090369585719486" lon="10.917810131112994" id="-24807">
		<tag k="name" v="Dypedal" />
		<tag k="ssr:date" v="2019-12-27" />
		<tag k="ssr:gruppe" v="veg" />
		<tag k="ssr:hovedgruppe" v="infrastruktur" />
		<tag k="ssr:stedsnr" v="664582" />
		<tag k="ssr:type" v="adressenavn" />
	</node>
	<node lat="59.02792926690524" lon="11.041714356763434" id="-24809">
		<tag k="name" v="Stenane" />
		<tag k="ssr:date" v="2019-12-27" />
		<tag k="ssr:gruppe" v="veg" />
		<tag k="ssr:hovedgruppe" v="infrastruktur" />
		<tag k="ssr:stedsnr" v="471924" />
		<tag k="ssr:type" v="adressenavn" />
	</node>
	<node lat="59.00399444453046" lon="11.059144449989601" id="-24819">
		<tag k="name" v="Herfølrenna lykt" />
		<tag k="ssr:date" v="2019-12-27" />
		<tag k="ssr:gruppe" v="navigasjon" />
		<tag k="ssr:hovedgruppe" v="infrastruktur" />
		<tag k="ssr:stedsnr" v="478907" />
		<tag k="ssr:type" v="fyrlykt" />
	</node>
	<node lat="59.081265954151164" lon="10.955039501098478" id="-24830">
		<tag k="name" v="Lille Ingerholmen" />
		<tag k="ssr:date" v="2019-12-27" />
		<tag k="ssr:gruppe" v="veg" />
		<tag k="ssr:hovedgruppe" v="infrastruktur" />
		<tag k="ssr:stedsnr" v="480774" />
		<tag k="ssr:type" v="adressenavn" />
	</node>
	<node lat="59.03730823191778" lon="10.947194270979503" id="-24831">
		<tag k="name" v="Kattekløva" />
		<tag k="ssr:date" v="2019-12-27" />
		<tag k="ssr:gruppe" v="veg" />
		<tag k="ssr:hovedgruppe" v="infrastruktur" />
		<tag k="ssr:stedsnr" v="480816" />
		<tag k="ssr:type" v="adressenavn" />
	</node>
	<node lat="59.100966308802334" lon="10.906168612203476" id="-24832">
		<tag k="name" v="Langerobakken" />
		<tag k="ssr:date" v="2019-12-27" />
		<tag k="ssr:gruppe" v="veg" />
		<tag k="ssr:hovedgruppe" v="infrastruktur" />
		<tag k="ssr:stedsnr" v="482505" />
		<tag k="ssr:type" v="adressenavn" />
	</node>
	<node lat="59.02675167033922" lon="11.038156670106916" id="-24833">
		<tag k="name" v="Stenlia" />
		<tag k="ssr:date" v="2019-12-27" />
		<tag k="ssr:gruppe" v="veg" />
		<tag k="ssr:hovedgruppe" v="infrastruktur" />
		<tag k="ssr:stedsnr" v="482709" />
		<tag k="ssr:type" v="adressenavn" />
	</node>
	<node lat="59.0318154055657" lon="11.034580358786213" id="-24834">
		<tag k="name" v="Tjennstien" />
		<tag k="ssr:date" v="2019-12-27" />
		<tag k="ssr:gruppe" v="veg" />
		<tag k="ssr:hovedgruppe" v="infrastruktur" />
		<tag k="ssr:stedsnr" v="482714" />
		<tag k="ssr:type" v="adressenavn" />
	</node>
	<node lat="59.044348117975524" lon="11.032425889959745" id="-24835">
		<tag k="name" v="Midtre veien" />
		<tag k="ssr:date" v="2019-12-27" />
		<tag k="ssr:gruppe" v="veg" />
		<tag k="ssr:hovedgruppe" v="infrastruktur" />
		<tag k="ssr:stedsnr" v="482718" />
		<tag k="ssr:type" v="adressenavn" />
	</node>
	<node lat="59.06716666393377" lon="11.112069441106703" id="-24860">
		<tag k="name" v="Rødskjærrenna" />
		<tag k="ssr:date" v="2019-12-27" />
		<tag k="ssr:gruppe" v="sjøbunn" />
		<tag k="ssr:hovedgruppe" v="sjø" />
		<tag k="ssr:stedsnr" v="493877" />
		<tag k="ssr:type" v="renneKløftISjø" />
	</node>
	<node lat="59.03454372105435" lon="10.991692394586307" id="-24878">
		<tag k="name" v="Stallane" />
		<tag k="ssr:date" v="2019-12-27" />
		<tag k="ssr:gruppe" v="veg" />
		<tag k="ssr:hovedgruppe" v="infrastruktur" />
		<tag k="ssr:stedsnr" v="525621" />
		<tag k="ssr:type" v="adressenavn" />
	</node>
	<node lat="59.09534304653553" lon="10.927324340863256" id="-24879">
		<tag k="name" v="Tredalveien" />
		<tag k="ssr:date" v="2019-12-27" />
		<tag k="ssr:gruppe" v="veg" />
		<tag k="ssr:hovedgruppe" v="infrastruktur" />
		<tag k="ssr:stedsnr" v="526405" />
		<tag k="ssr:type" v="adressenavn" />
	</node>
	<node lat="59.08711654309074" lon="10.879273524955051" id="-24880">
		<tag k="name" v="Nord i enga" />
		<tag k="ssr:date" v="2019-12-27" />
		<tag k="ssr:gruppe" v="veg" />
		<tag k="ssr:hovedgruppe" v="infrastruktur" />
		<tag k="ssr:stedsnr" v="526505" />
		<tag k="ssr:type" v="adressenavn" />
	</node>
	<node lat="59.0979985385822" lon="10.910248846231893" id="-24881">
		<tag k="name" v="Skjelsbu" />
		<tag k="ssr:date" v="2019-12-27" />
		<tag k="ssr:gruppe" v="veg" />
		<tag k="ssr:hovedgruppe" v="infrastruktur" />
		<tag k="ssr:stedsnr" v="526479" />
		<tag k="ssr:type" v="adressenavn" />
	</node>
	<node lat="59.09995026803944" lon="10.870847151529498" id="-24882">
		<tag k="name" v="Sika" />
		<tag k="ssr:date" v="2019-12-27" />
		<tag k="ssr:gruppe" v="veg" />
		<tag k="ssr:hovedgruppe" v="infrastruktur" />
		<tag k="ssr:stedsnr" v="526489" />
		<tag k="ssr:type" v="adressenavn" />
	</node>
	<node lat="59.084807444046604" lon="10.928319441495127" id="-24883">
		<tag k="name" v="Bastoveien" />
		<tag k="ssr:date" v="2019-12-27" />
		<tag k="ssr:gruppe" v="veg" />
		<tag k="ssr:hovedgruppe" v="infrastruktur" />
		<tag k="ssr:stedsnr" v="527402" />
		<tag k="ssr:type" v="adressenavn" />
	</node>
	<node lat="59.073569440391836" lon="10.981341659724135" id="-24905">
		<tag k="name" v="Brattholmene" />
		<tag k="ssr:date" v="2019-12-27" />
		<tag k="ssr:gruppe" v="veg" />
		<tag k="ssr:hovedgruppe" v="infrastruktur" />
		<tag k="ssr:stedsnr" v="542510" />
		<tag k="ssr:type" v="adressenavn" />
	</node>
	<node lat="59.084023781304396" lon="11.071551579276859" id="-24906">
		<tag k="name" v="Lina" />
		<tag k="ssr:date" v="2019-12-27" />
		<tag k="ssr:gruppe" v="veg" />
		<tag k="ssr:hovedgruppe" v="infrastruktur" />
		<tag k="ssr:stedsnr" v="542592" />
		<tag k="ssr:type" v="adressenavn" />
	</node>
	<node lat="59.001432634786525" lon="11.05515230652122" id="-24908">
		<tag k="name" v="Snøtteveien" />
		<tag k="ssr:date" v="2019-12-27" />
		<tag k="ssr:gruppe" v="veg" />
		<tag k="ssr:hovedgruppe" v="infrastruktur" />
		<tag k="ssr:stedsnr" v="543722" />
		<tag k="ssr:type" v="adressenavn" />
	</node>
	<node lat="59.075273814392034" lon="11.075432885231804" id="-24909">
		<tag k="name" v="Trøkkmotveien" />
		<tag k="ssr:date" v="2019-12-27" />
		<tag k="ssr:gruppe" v="veg" />
		<tag k="ssr:hovedgruppe" v="infrastruktur" />
		<tag k="ssr:stedsnr" v="543682" />
		<tag k="ssr:type" v="adressenavn" />
	</node>
	<node lat="59.10876389329515" lon="11.107433333564819" id="-24917">
		<tag k="name" v="Lauskjær lykt" />
		<tag k="ssr:date" v="2019-12-27" />
		<tag k="ssr:gruppe" v="navigasjon" />
		<tag k="ssr:hovedgruppe" v="infrastruktur" />
		<tag k="ssr:stedsnr" v="547873" />
		<tag k="ssr:type" v="fyrlykt" />
	</node>
	<node lat="59.1024920356378" lon="10.895705417262697" id="-24926">
		<tag k="name" v="Lonøyveien" />
		<tag k="ssr:date" v="2019-12-27" />
		<tag k="ssr:gruppe" v="veg" />
		<tag k="ssr:hovedgruppe" v="infrastruktur" />
		<tag k="ssr:stedsnr" v="587308" />
		<tag k="ssr:type" v="adressenavn" />
	</node>
	<node lat="59.097211692726326" lon="10.937482723542187" id="-24927">
		<tag k="name" v="Lønsvikveien" />
		<tag k="ssr:date" v="2019-12-27" />
		<tag k="ssr:gruppe" v="veg" />
		<tag k="ssr:hovedgruppe" v="infrastruktur" />
		<tag k="ssr:stedsnr" v="587417" />
		<tag k="ssr:type" v="adressenavn" />
	</node>
	<node lat="59.10534193404399" lon="10.888375609602154" id="-24928">
		<tag k="name" v="Langekil" />
		<tag k="ssr:date" v="2019-12-27" />
		<tag k="ssr:gruppe" v="veg" />
		<tag k="ssr:hovedgruppe" v="infrastruktur" />
		<tag k="ssr:stedsnr" v="587472" />
		<tag k="ssr:type" v="adressenavn" />
	</node>
	<node lat="59.07966175503139" lon="10.874999677538387" id="-24929">
		<tag k="name" v="Selskjæret" />
		<tag k="ssr:date" v="2019-12-27" />
		<tag k="ssr:gruppe" v="veg" />
		<tag k="ssr:hovedgruppe" v="infrastruktur" />
		<tag k="ssr:stedsnr" v="587523" />
		<tag k="ssr:type" v="adressenavn" />
	</node>
	<node lat="59.094562036469064" lon="10.940898245952061" id="-24930">
		<tag k="name" v="Leifebakken" />
		<tag k="ssr:date" v="2019-12-27" />
		<tag k="ssr:gruppe" v="veg" />
		<tag k="ssr:hovedgruppe" v="infrastruktur" />
		<tag k="ssr:stedsnr" v="587561" />
		<tag k="ssr:type" v="adressenavn" />
	</node>
	<node lat="59.00438467212433" lon="11.076805533013871" id="-24931">
		<tag k="name" v="Gjølertangen" />
		<tag k="ssr:date" v="2019-12-27" />
		<tag k="ssr:gruppe" v="veg" />
		<tag k="ssr:hovedgruppe" v="infrastruktur" />
		<tag k="ssr:stedsnr" v="587566" />
		<tag k="ssr:type" v="adressenavn" />
	</node>
	<node lat="59.07208455666068" lon="10.940627545147953" id="-24932">
		<tag k="name" v="Rødveien" />
		<tag k="ssr:date" v="2019-12-27" />
		<tag k="ssr:gruppe" v="veg" />
		<tag k="ssr:hovedgruppe" v="infrastruktur" />
		<tag k="ssr:stedsnr" v="587973" />
		<tag k="ssr:type" v="adressenavn" />
	</node>
	<node lat="59.02636323001628" lon="11.033752793891669" id="-24941">
		<tag k="name" v="Orestubben" />
		<tag k="ssr:date" v="2019-12-27" />
		<tag k="ssr:gruppe" v="veg" />
		<tag k="ssr:hovedgruppe" v="infrastruktur" />
		<tag k="ssr:stedsnr" v="601829" />
		<tag k="ssr:type" v="adressenavn" />
	</node>
	<node lat="59.079350396818825" lon="10.873679188106713" id="-24942">
		<tag k="name" v="Utgårdsbrygga" />
		<tag k="ssr:date" v="2019-12-27" />
		<tag k="ssr:gruppe" v="veg" />
		<tag k="ssr:hovedgruppe" v="infrastruktur" />
		<tag k="ssr:stedsnr" v="603373" />
		<tag k="ssr:type" v="adressenavn" />
	</node>
	<node lat="59.0899206458411" lon="10.917943916529925" id="-24943">
		<tag k="name" v="Olabakken" />
		<tag k="ssr:date" v="2019-12-27" />
		<tag k="ssr:gruppe" v="veg" />
		<tag k="ssr:hovedgruppe" v="infrastruktur" />
		<tag k="ssr:stedsnr" v="603581" />
		<tag k="ssr:type" v="adressenavn" />
	</node>
	<node lat="59.099398636892296" lon="10.862304097633286" id="-24971">
		<tag k="name" v="Melkeberget" />
		<tag k="ssr:date" v="2019-12-27" />
		<tag k="ssr:gruppe" v="veg" />
		<tag k="ssr:hovedgruppe" v="infrastruktur" />
		<tag k="ssr:stedsnr" v="647295" />
		<tag k="ssr:type" v="adressenavn" />
	</node>
	<node lat="59.08161909450198" lon="10.875492656155009" id="-24972">
		<tag k="name" v="Bekkevika" />
		<tag k="ssr:date" v="2019-12-27" />
		<tag k="ssr:gruppe" v="veg" />
		<tag k="ssr:hovedgruppe" v="infrastruktur" />
		<tag k="ssr:stedsnr" v="647505" />
		<tag k="ssr:type" v="adressenavn" />
	</node>
	<node lat="59.06801666463622" lon="10.967797223906508" id="-24985">
		<tag k="name" v="Lubbegrunnen lykt" />
		<tag k="ssr:date" v="2019-12-27" />
		<tag k="ssr:gruppe" v="navigasjon" />
		<tag k="ssr:hovedgruppe" v="infrastruktur" />
		<tag k="ssr:stedsnr" v="661892" />
		<tag k="ssr:type" v="fyrlykt" />
	</node>
	<node lat="59.0831782349225" lon="11.037920891037139" id="-24989">
		<tag k="name" v="Røssholmen" />
		<tag k="ssr:date" v="2019-12-27" />
		<tag k="ssr:gruppe" v="veg" />
		<tag k="ssr:hovedgruppe" v="infrastruktur" />
		<tag k="ssr:stedsnr" v="663494" />
		<tag k="ssr:type" v="adressenavn" />
	</node>
	<node lat="59.11475980013692" lon="10.859573467489463" id="-24990">
		<tag k="name" v="Torgertoppen" />
		<tag k="ssr:date" v="2019-12-27" />
		<tag k="ssr:gruppe" v="veg" />
		<tag k="ssr:hovedgruppe" v="infrastruktur" />
		<tag k="ssr:stedsnr" v="664504" />
		<tag k="ssr:type" v="adressenavn" />
	</node>
	<node lat="59.027214612641366" lon="11.01268913435652" id="-24991">
		<tag k="name" v="Vadholmen" />
		<tag k="ssr:date" v="2019-12-27" />
		<tag k="ssr:gruppe" v="veg" />
		<tag k="ssr:hovedgruppe" v="infrastruktur" />
		<tag k="ssr:stedsnr" v="664751" />
		<tag k="ssr:type" v="adressenavn" />
	</node>
	<node lat="59.00190652842953" lon="11.05618714551597" id="-24992">
		<tag k="name" v="Herfølstien" />
		<tag k="ssr:date" v="2019-12-27" />
		<tag k="ssr:gruppe" v="veg" />
		<tag k="ssr:hovedgruppe" v="infrastruktur" />
		<tag k="ssr:stedsnr" v="664752" />
		<tag k="ssr:type" v="adressenavn" />
	</node>
	<node lat="59.01129999941167" lon="11.06128888396167" id="-25012">
		<tag k="name" v="Sauholmen" />
		<tag k="ssr:date" v="2019-12-27" />
		<tag k="ssr:gruppe" v="veg" />
		<tag k="ssr:hovedgruppe" v="infrastruktur" />
		<tag k="ssr:stedsnr" v="708418" />
		<tag k="ssr:type" v="adressenavn" />
	</node>
	<node lat="59.09100417084809" lon="10.914072843123963" id="-25013">
		<tag k="name" v="Skjelsbusundet" />
		<tag k="ssr:date" v="2019-12-27" />
		<tag k="ssr:gruppe" v="veg" />
		<tag k="ssr:hovedgruppe" v="infrastruktur" />
		<tag k="ssr:stedsnr" v="708421" />
		<tag k="ssr:type" v="adressenavn" />
	</node>
	<node lat="59.09075000003534" lon="10.932808329627298" id="-25014">
		<tag k="name" v="Bastofeltet" />
		<tag k="ssr:date" v="2019-12-27" />
		<tag k="ssr:gruppe" v="veg" />
		<tag k="ssr:hovedgruppe" v="infrastruktur" />
		<tag k="ssr:stedsnr" v="709516" />
		<tag k="ssr:type" v="adressenavn" />
	</node>
	<node lat="59.01394112473476" lon="11.071426156914647" id="-25015">
		<tag k="name" v="Buvikveien" />
		<tag k="ssr:date" v="2019-12-27" />
		<tag k="ssr:gruppe" v="veg" />
		<tag k="ssr:hovedgruppe" v="infrastruktur" />
		<tag k="ssr:stedsnr" v="709531" />
		<tag k="ssr:type" v="adressenavn" />
	</node>
	<node lat="59.082744711363624" lon="10.926493292206045" id="-25016">
		<tag k="name" v="Spjærøy" />
		<tag k="ssr:date" v="2019-12-27" />
		<tag k="ssr:gruppe" v="veg" />
		<tag k="ssr:hovedgruppe" v="infrastruktur" />
		<tag k="ssr:stedsnr" v="709553" />
		<tag k="ssr:type" v="adressenavn" />
	</node>
	<node lat="59.02419994311143" lon="11.033221006511804" id="-25031">
		<tag k="name" v="Prestehavna" />
		<tag k="ssr:date" v="2019-12-27" />
		<tag k="ssr:gruppe" v="veg" />
		<tag k="ssr:hovedgruppe" v="infrastruktur" />
		<tag k="ssr:stedsnr" v="725590" />
		<tag k="ssr:type" v="adressenavn" />
	</node>
	<node lat="59.027029068670544" lon="11.02153558426168" id="-25032">
		<tag k="name" v="Storesandveien" />
		<tag k="ssr:date" v="2019-12-27" />
		<tag k="ssr:gruppe" v="veg" />
		<tag k="ssr:hovedgruppe" v="infrastruktur" />
		<tag k="ssr:stedsnr" v="725705" />
		<tag k="ssr:type" v="adressenavn" />
	</node>
	<node lat="59.031500934936574" lon="11.025032593576471" id="-25033">
		<tag k="name" v="Svanekilveien" />
		<tag k="ssr:date" v="2019-12-27" />
		<tag k="ssr:gruppe" v="veg" />
		<tag k="ssr:hovedgruppe" v="infrastruktur" />
		<tag k="ssr:stedsnr" v="725698" />
		<tag k="ssr:type" v="adressenavn" />
	</node>
	<node lat="59.08043502296838" lon="10.953166445870886" id="-25034">
		<tag k="name" v="Lineset" />
		<tag k="ssr:date" v="2019-12-27" />
		<tag k="ssr:gruppe" v="veg" />
		<tag k="ssr:hovedgruppe" v="infrastruktur" />
		<tag k="ssr:stedsnr" v="727776" />
		<tag k="ssr:type" v="adressenavn" />
	</node>
	<node lat="59.05489373850122" lon="11.059819416039522" id="-25036">
		<tag k="name" v="Lille Kjennvikveien" />
		<tag k="ssr:date" v="2019-12-27" />
		<tag k="ssr:gruppe" v="veg" />
		<tag k="ssr:hovedgruppe" v="infrastruktur" />
		<tag k="ssr:stedsnr" v="890637" />
		<tag k="ssr:type" v="adressenavn" />
	</node>
	<node lat="59.072484370098884" lon="11.025057593051358" id="-25037">
		<tag k="name" v="Reffsfjellet" />
		<tag k="ssr:date" v="2019-12-27" />
		<tag k="ssr:gruppe" v="veg" />
		<tag k="ssr:hovedgruppe" v="infrastruktur" />
		<tag k="ssr:stedsnr" v="890639" />
		<tag k="ssr:type" v="adressenavn" />
	</node>
	<node lat="59.06833256709506" lon="11.079658729681979" id="-25038">
		<tag k="name" v="Ødegårdsbakkene" />
		<tag k="ssr:date" v="2019-12-27" />
		<tag k="ssr:gruppe" v="veg" />
		<tag k="ssr:hovedgruppe" v="infrastruktur" />
		<tag k="ssr:stedsnr" v="890680" />
		<tag k="ssr:type" v="adressenavn" />
	</node>
	<node lat="59.02568888913967" lon="11.099541659325348" id="-25046">
		<tag k="name" v="Kuskjær" />
		<tag k="ssr:date" v="2019-12-27" />
		<tag k="ssr:gruppe" v="navigasjon" />
		<tag k="ssr:hovedgruppe" v="infrastruktur" />
		<tag k="ssr:stedsnr" v="730227" />
		<tag k="ssr:type" v="fyrlykt" />
	</node>
	<node lat="59.102780656914206" lon="10.942269292859736" id="-25050">
		<tag k="name" v="Tjellholmen" />
		<tag k="ssr:date" v="2019-12-27" />
		<tag k="ssr:gruppe" v="veg" />
		<tag k="ssr:hovedgruppe" v="infrastruktur" />
		<tag k="ssr:stedsnr" v="891436" />
		<tag k="ssr:type" v="adressenavn" />
	</node>
	<node lat="59.08969189961202" lon="10.857720099072425" id="-25051">
		<tag k="name" v="Barmveien" />
		<tag k="ssr:date" v="2019-12-27" />
		<tag k="ssr:gruppe" v="veg" />
		<tag k="ssr:hovedgruppe" v="infrastruktur" />
		<tag k="ssr:stedsnr" v="891476" />
		<tag k="ssr:type" v="adressenavn" />
	</node>
	<node lat="59.07851122916214" lon="10.902613444792209" id="-25052">
		<tag k="name" v="Havna" />
		<tag k="ssr:date" v="2019-12-27" />
		<tag k="ssr:gruppe" v="veg" />
		<tag k="ssr:hovedgruppe" v="infrastruktur" />
		<tag k="ssr:stedsnr" v="891590" />
		<tag k="ssr:type" v="adressenavn" />
	</node>
	<node lat="59.08118743082766" lon="10.924684209042042" id="-25053">
		<tag k="name" v="Kvislervarden" />
		<tag k="ssr:date" v="2019-12-27" />
		<tag k="ssr:gruppe" v="veg" />
		<tag k="ssr:hovedgruppe" v="infrastruktur" />
		<tag k="ssr:stedsnr" v="891596" />
		<tag k="ssr:type" v="adressenavn" />
	</node>
	<node lat="59.07296684824928" lon="10.940205384679377" id="-25062">
		<tag k="name" v="Bernhardmyra" />
		<tag k="ssr:date" v="2019-12-27" />
		<tag k="ssr:gruppe" v="veg" />
		<tag k="ssr:hovedgruppe" v="infrastruktur" />
		<tag k="ssr:stedsnr" v="767942" />
		<tag k="ssr:type" v="adressenavn" />
	</node>
	<node lat="59.07054875150791" lon="10.94925571874736" id="-25063">
		<tag k="name" v="Tømmerholtet" />
		<tag k="ssr:date" v="2019-12-27" />
		<tag k="ssr:gruppe" v="veg" />
		<tag k="ssr:hovedgruppe" v="infrastruktur" />
		<tag k="ssr:stedsnr" v="767946" />
		<tag k="ssr:type" v="adressenavn" />
	</node>
	<node lat="59.054263185418755" lon="11.004157566030695" id="-25064">
		<tag k="name" v="Bakken" />
		<tag k="ssr:date" v="2019-12-27" />
		<tag k="ssr:gruppe" v="veg" />
		<tag k="ssr:hovedgruppe" v="infrastruktur" />
		<tag k="ssr:stedsnr" v="768616" />
		<tag k="ssr:type" v="adressenavn" />
	</node>
	<node lat="59.100193951186164" lon="10.873316981965134" id="-25065">
		<tag k="name" v="Skreverhella" />
		<tag k="ssr:date" v="2019-12-27" />
		<tag k="ssr:gruppe" v="veg" />
		<tag k="ssr:hovedgruppe" v="infrastruktur" />
		<tag k="ssr:stedsnr" v="769462" />
		<tag k="ssr:type" v="adressenavn" />
	</node>
	<node lat="59.069616537115365" lon="10.907804744658229" id="-25067">
		<tag k="name" v="Spjæreholmen" />
		<tag k="ssr:date" v="2019-12-27" />
		<tag k="ssr:gruppe" v="veg" />
		<tag k="ssr:hovedgruppe" v="infrastruktur" />
		<tag k="ssr:stedsnr" v="770379" />
		<tag k="ssr:type" v="adressenavn" />
	</node>
	<node lat="59.044991792018365" lon="10.964238041786471" id="-25084">
		<tag k="name" v="Vassgaren" />
		<tag k="ssr:date" v="2019-12-27" />
		<tag k="ssr:gruppe" v="veg" />
		<tag k="ssr:hovedgruppe" v="infrastruktur" />
		<tag k="ssr:stedsnr" v="784805" />
		<tag k="ssr:type" v="adressenavn" />
	</node>
	<node lat="59.04674595470842" lon="11.04457210363959" id="-25085">
		<tag k="name" v="Søndre Holtefeltet" />
		<tag k="ssr:date" v="2019-12-27" />
		<tag k="ssr:gruppe" v="veg" />
		<tag k="ssr:hovedgruppe" v="infrastruktur" />
		<tag k="ssr:stedsnr" v="785124" />
		<tag k="ssr:type" v="adressenavn" />
	</node>
	<node lat="59.050541115465045" lon="11.062330903766878" id="-25086">
		<tag k="name" v="Søndre Rom" />
		<tag k="ssr:date" v="2019-12-27" />
		<tag k="ssr:gruppe" v="veg" />
		<tag k="ssr:hovedgruppe" v="infrastruktur" />
		<tag k="ssr:stedsnr" v="785506" />
		<tag k="ssr:type" v="adressenavn" />
	</node>
	<node lat="59.06775613075904" lon="11.00059156471262" id="-25087">
		<tag k="name" v="Ribergveien" />
		<tag k="ssr:date" v="2019-12-27" />
		<tag k="ssr:gruppe" v="veg" />
		<tag k="ssr:hovedgruppe" v="infrastruktur" />
		<tag k="ssr:stedsnr" v="786712" />
		<tag k="ssr:type" v="adressenavn" />
	</node>
	<node lat="59.06887196129688" lon="11.071942726899655" id="-25088">
		<tag k="name" v="Stafsengveien" />
		<tag k="ssr:date" v="2019-12-27" />
		<tag k="ssr:gruppe" v="veg" />
		<tag k="ssr:hovedgruppe" v="infrastruktur" />
		<tag k="ssr:stedsnr" v="786713" />
		<tag k="ssr:type" v="adressenavn" />
	</node>
	<node lat="59.110747643997136" lon="10.85405778893735" id="-25127">
		<tag k="name" v="Ringfjellet" />
		<tag k="ssr:date" v="2019-12-27" />
		<tag k="ssr:gruppe" v="veg" />
		<tag k="ssr:hovedgruppe" v="infrastruktur" />
		<tag k="ssr:stedsnr" v="907541" />
		<tag k="ssr:type" v="adressenavn" />
	</node>
	<node lat="59.02766063716104" lon="11.033352236586245" id="-25128">
		<tag k="name" v="Floren" />
		<tag k="ssr:date" v="2019-12-27" />
		<tag k="ssr:gruppe" v="veg" />
		<tag k="ssr:hovedgruppe" v="infrastruktur" />
		<tag k="ssr:stedsnr" v="907595" />
		<tag k="ssr:type" v="adressenavn" />
	</node>
	<node lat="59.09209309016984" lon="10.858045402188106" id="-25129">
		<tag k="name" v="Nordneset" />
		<tag k="ssr:date" v="2019-12-27" />
		<tag k="ssr:gruppe" v="veg" />
		<tag k="ssr:hovedgruppe" v="infrastruktur" />
		<tag k="ssr:stedsnr" v="830434" />
		<tag k="ssr:type" v="adressenavn" />
	</node>
	<node lat="59.01394112473476" lon="11.071426156914647" id="-25130">
		<tag k="name" v="Nedgårdsveien" />
		<tag k="ssr:date" v="2019-12-27" />
		<tag k="ssr:gruppe" v="veg" />
		<tag k="ssr:hovedgruppe" v="infrastruktur" />
		<tag k="ssr:stedsnr" v="831498" />
		<tag k="ssr:type" v="adressenavn" />
	</node>
	<node lat="59.05181359268801" lon="10.94986233009858" id="-25131">
		<tag k="name" v="Vikerveien" />
		<tag k="ssr:date" v="2019-12-27" />
		<tag k="ssr:gruppe" v="veg" />
		<tag k="ssr:hovedgruppe" v="infrastruktur" />
		<tag k="ssr:stedsnr" v="831986" />
		<tag k="ssr:type" v="adressenavn" />
	</node>
	<node lat="59.03597777498151" lon="10.950383335968526" id="-25147">
		<tag k="name" v="Viker molo" />
		<tag k="ssr:date" v="2019-12-27" />
		<tag k="ssr:gruppe" v="navigasjon" />
		<tag k="ssr:hovedgruppe" v="infrastruktur" />
		<tag k="ssr:stedsnr" v="843882" />
		<tag k="ssr:type" v="fyrlykt" />
	</node>
	<node lat="59.10712639752464" lon="11.118393723972327" id="-25159">
		<tag k="alt_name" v="Lykt" />
		<tag k="name" v="Singløy lykt" />
		<tag k="ssr:date" v="2020-09-01" />
		<tag k="ssr:gruppe" v="navigasjon" />
		<tag k="ssr:hovedgruppe" v="infrastruktur" />
		<tag k="ssr:stedsnr" v="911838" />
		<tag k="ssr:type" v="fyrlykt" />
	</node>
	<node lat="59.05850519873629" lon="11.004336167049578" id="-25162">
		<tag k="name" v="Kjerringholmen" />
		<tag k="ssr:date" v="2019-12-27" />
		<tag k="ssr:gruppe" v="veg" />
		<tag k="ssr:hovedgruppe" v="infrastruktur" />
		<tag k="ssr:stedsnr" v="846500" />
		<tag k="ssr:type" v="adressenavn" />
	</node>
	<node lat="59.10362594576527" lon="10.845906312706775" id="-25165">
		<tag k="name" v="Stolsberget" />
		<tag k="ssr:date" v="2019-12-27" />
		<tag k="ssr:gruppe" v="veg" />
		<tag k="ssr:hovedgruppe" v="infrastruktur" />
		<tag k="ssr:stedsnr" v="847508" />
		<tag k="ssr:type" v="adressenavn" />
	</node>
	<node lat="59.05866556068139" lon="10.952385940342925" id="-25166">
		<tag k="name" v="Skipstadsand" />
		<tag k="ssr:date" v="2019-12-27" />
		<tag k="ssr:gruppe" v="veg" />
		<tag k="ssr:hovedgruppe" v="infrastruktur" />
		<tag k="ssr:stedsnr" v="848806" />
		<tag k="ssr:type" v="adressenavn" />
	</node>
	<node lat="59.06700358891896" lon="11.048354411568202" id="-25196">
		<tag k="name" v="Kockeskogen" />
		<tag k="ssr:date" v="2019-12-27" />
		<tag k="ssr:gruppe" v="veg" />
		<tag k="ssr:hovedgruppe" v="infrastruktur" />
		<tag k="ssr:stedsnr" v="890650" />
		<tag k="ssr:type" v="adressenavn" />
	</node>
	<node lat="59.10074233067677" lon="10.913072703287886" id="-25197">
		<tag k="name" v="Liatoppen" />
		<tag k="ssr:date" v="2019-12-27" />
		<tag k="ssr:gruppe" v="veg" />
		<tag k="ssr:hovedgruppe" v="infrastruktur" />
		<tag k="ssr:stedsnr" v="891508" />
		<tag k="ssr:type" v="adressenavn" />
	</node>
	<node lat="59.05366102243534" lon="10.95313174420677" id="-25215">
		<tag k="name" v="Søndre Skipstad" />
		<tag k="ssr:date" v="2019-12-27" />
		<tag k="ssr:gruppe" v="veg" />
		<tag k="ssr:hovedgruppe" v="infrastruktur" />
		<tag k="ssr:stedsnr" v="905803" />
		<tag k="ssr:type" v="adressenavn" />
	</node>
	<node lat="59.075124936753795" lon="10.940105603976948" id="-25216">
		<tag k="name" v="Kroken" />
		<tag k="ssr:date" v="2019-12-27" />
		<tag k="ssr:gruppe" v="veg" />
		<tag k="ssr:hovedgruppe" v="infrastruktur" />
		<tag k="ssr:stedsnr" v="905808" />
		<tag k="ssr:type" v="adressenavn" />
	</node>
	<node lat="59.09382474480509" lon="10.862695505482627" id="-25217">
		<tag k="name" v="Røa" />
		<tag k="ssr:date" v="2019-12-27" />
		<tag k="ssr:gruppe" v="veg" />
		<tag k="ssr:hovedgruppe" v="infrastruktur" />
		<tag k="ssr:stedsnr" v="907366" />
		<tag k="ssr:type" v="adressenavn" />
	</node>
	<node lat="59.07628595100557" lon="11.006769085468797" id="-25218">
		<tag k="name" v="Pulservikgata" />
		<tag k="ssr:date" v="2019-12-27" />
		<tag k="ssr:gruppe" v="veg" />
		<tag k="ssr:hovedgruppe" v="infrastruktur" />
		<tag k="ssr:stedsnr" v="907625" />
		<tag k="ssr:type" v="adressenavn" />
	</node>
	<node lat="59.08691040893772" lon="10.97483324408599" id="-25225">
		<tag k="alt_name" v="Løperungen" />
		<tag k="name" v="Løperungen lykt" />
		<tag k="ssr:date" v="2020-09-01" />
		<tag k="ssr:gruppe" v="navigasjon" />
		<tag k="ssr:hovedgruppe" v="infrastruktur" />
		<tag k="ssr:stedsnr" v="911572" />
		<tag k="ssr:type" v="fyrlykt" />
	</node>
	<node lat="59.015015317492335" lon="11.06754332418244" id="-25239">
		<tag k="name" v="Røde grinda" />
		<tag k="ssr:date" v="2019-12-27" />
		<tag k="ssr:gruppe" v="veg" />
		<tag k="ssr:hovedgruppe" v="infrastruktur" />
		<tag k="ssr:stedsnr" v="952520" />
		<tag k="ssr:type" v="adressenavn" />
	</node>
	<node lat="59.113652781470336" lon="10.972491668753166" id="-25248">
		<tag k="name" v="Vestre Fugleskjærgrunnen lykt" />
		<tag k="ssr:date" v="2019-12-27" />
		<tag k="ssr:gruppe" v="navigasjon" />
		<tag k="ssr:hovedgruppe" v="infrastruktur" />
		<tag k="ssr:stedsnr" v="964850" />
		<tag k="ssr:type" v="fyrlykt" />
	</node>
	<node lat="59.074057377117086" lon="11.08051225726513" id="-25252">
		<tag k="name" v="Soldatersundet" />
		<tag k="ssr:date" v="2019-12-27" />
		<tag k="ssr:gruppe" v="veg" />
		<tag k="ssr:hovedgruppe" v="infrastruktur" />
		<tag k="ssr:stedsnr" v="967492" />
		<tag k="ssr:type" v="adressenavn" />
	</node>
	<node lat="59.03174102833534" lon="11.023775213691465" id="-25254">
		<tag k="name" v="Lammenes" />
		<tag k="ssr:date" v="2019-12-27" />
		<tag k="ssr:gruppe" v="veg" />
		<tag k="ssr:hovedgruppe" v="infrastruktur" />
		<tag k="ssr:stedsnr" v="968738" />
		<tag k="ssr:type" v="adressenavn" />
	</node>
	<node lat="58.98651160457823" lon="11.058893626103941" id="-25260">
		<tag k="name" v="Gylteholmvarden" />
		<tag k="ssr:date" v="2019-12-27" />
		<tag k="ssr:gruppe" v="navigasjon" />
		<tag k="ssr:hovedgruppe" v="infrastruktur" />
		<tag k="ssr:stedsnr" v="989657" />
		<tag k="ssr:type" v="sjøvarde" />
	</node>
	<node lat="59.09273126861309" lon="10.855412542624014" id="-25287">
		<tag k="name" v="Vauerveien" />
		<tag k="ssr:date" v="2019-12-27" />
		<tag k="ssr:gruppe" v="veg" />
		<tag k="ssr:hovedgruppe" v="infrastruktur" />
		<tag k="ssr:stedsnr" v="41472" />
		<tag k="ssr:type" v="adressenavn" />
	</node>
	<node lat="58.98128055253329" lon="10.954461106210086" id="-25288">
		<tag k="name" v="Tisler" />
		<tag k="ssr:date" v="2019-12-27" />
		<tag k="ssr:gruppe" v="veg" />
		<tag k="ssr:hovedgruppe" v="infrastruktur" />
		<tag k="ssr:stedsnr" v="41421" />
		<tag k="ssr:type" v="adressenavn" />
	</node>
	<node lat="59.106054086090005" lon="10.875898046013294" id="-25289">
		<tag k="name" v="Haugeliveien" />
		<tag k="ssr:date" v="2019-12-27" />
		<tag k="ssr:gruppe" v="veg" />
		<tag k="ssr:hovedgruppe" v="infrastruktur" />
		<tag k="ssr:stedsnr" v="41441" />
		<tag k="ssr:type" v="adressenavn" />
	</node>
	<node lat="59.09679962229093" lon="10.866236830926187" id="-25290">
		<tag k="name" v="Løkkevika" />
		<tag k="ssr:date" v="2019-12-27" />
		<tag k="ssr:gruppe" v="veg" />
		<tag k="ssr:hovedgruppe" v="infrastruktur" />
		<tag k="ssr:stedsnr" v="41447" />
		<tag k="ssr:type" v="adressenavn" />
	</node>
	<node lat="59.100950037546795" lon="10.870330865334692" id="-25291">
		<tag k="name" v="Enghagen" />
		<tag k="ssr:date" v="2019-12-27" />
		<tag k="ssr:gruppe" v="veg" />
		<tag k="ssr:hovedgruppe" v="infrastruktur" />
		<tag k="ssr:stedsnr" v="41451" />
		<tag k="ssr:type" v="adressenavn" />
	</node>
	<node lat="59.08124713749535" lon="10.931866638039978" id="-25292">
		<tag k="name" v="Grønnetkilen" />
		<tag k="ssr:date" v="2019-12-27" />
		<tag k="ssr:gruppe" v="veg" />
		<tag k="ssr:hovedgruppe" v="infrastruktur" />
		<tag k="ssr:stedsnr" v="42506" />
		<tag k="ssr:type" v="adressenavn" />
	</node>
	<node lat="59.08159999581288" lon="10.970266657780266" id="-25293">
		<tag k="name" v="Løperhuet lykt" />
		<tag k="ssr:date" v="2019-12-27" />
		<tag k="ssr:gruppe" v="navigasjon" />
		<tag k="ssr:hovedgruppe" v="infrastruktur" />
		<tag k="ssr:stedsnr" v="53632" />
		<tag k="ssr:type" v="fyrlykt" />
	</node>
	<node lat="59.07700000259666" lon="10.870177781425062" id="-25315">
		<tag k="name" v="Utgårdskilen molo" />
		<tag k="ssr:date" v="2019-12-27" />
		<tag k="ssr:gruppe" v="navigasjon" />
		<tag k="ssr:hovedgruppe" v="infrastruktur" />
		<tag k="ssr:stedsnr" v="54689" />
		<tag k="ssr:type" v="fyrlykt" />
	</node>
	<node lat="59.0751222190471" lon="10.976736116844194" id="-25323">
		<tag k="alt_name" v="Brattholmen" />
		<tag k="name" v="Brattholmen lykt" />
		<tag k="ssr:date" v="2019-12-27" />
		<tag k="ssr:gruppe" v="navigasjon" />
		<tag k="ssr:hovedgruppe" v="infrastruktur" />
		<tag k="ssr:stedsnr" v="54900" />
		<tag k="ssr:type" v="fyrlykt" />
	</node>
	<node lat="59.05814031659354" lon="11.076589327820079" id="-25325">
		<tag k="name" v="Nordre Rom" />
		<tag k="ssr:date" v="2019-12-27" />
		<tag k="ssr:gruppe" v="veg" />
		<tag k="ssr:hovedgruppe" v="infrastruktur" />
		<tag k="ssr:stedsnr" v="57494" />
		<tag k="ssr:type" v="adressenavn" />
	</node>
	<node lat="59.02664007902123" lon="11.031199208552295" id="-25326">
		<tag k="name" v="Granstuveien" />
		<tag k="ssr:date" v="2019-12-27" />
		<tag k="ssr:gruppe" v="veg" />
		<tag k="ssr:hovedgruppe" v="infrastruktur" />
		<tag k="ssr:stedsnr" v="57598" />
		<tag k="ssr:type" v="adressenavn" />
	</node>
	<node lat="59.0939325824498" lon="10.848120642908878" id="-25327">
		<tag k="name" v="Kuvauen" />
		<tag k="ssr:date" v="2019-12-27" />
		<tag k="ssr:gruppe" v="veg" />
		<tag k="ssr:hovedgruppe" v="infrastruktur" />
		<tag k="ssr:stedsnr" v="58448" />
		<tag k="ssr:type" v="adressenavn" />
	</node>
	<node lat="59.07895277365567" lon="10.862463884023414" id="-25328">
		<tag k="name" v="Tokollen" />
		<tag k="ssr:date" v="2019-12-27" />
		<tag k="ssr:gruppe" v="veg" />
		<tag k="ssr:hovedgruppe" v="infrastruktur" />
		<tag k="ssr:stedsnr" v="58531" />
		<tag k="ssr:type" v="adressenavn" />
	</node>
	<node lat="59.0402224817273" lon="11.052429324972966" id="-25329">
		<tag k="name" v="Koltorpneset" />
		<tag k="ssr:date" v="2019-12-27" />
		<tag k="ssr:gruppe" v="veg" />
		<tag k="ssr:hovedgruppe" v="infrastruktur" />
		<tag k="ssr:stedsnr" v="58697" />
		<tag k="ssr:type" v="adressenavn" />
	</node>
	<node lat="59.07690424896012" lon="10.953343436895636" id="-25330">
		<tag k="name" v="Liveien" />
		<tag k="ssr:date" v="2019-12-27" />
		<tag k="ssr:gruppe" v="veg" />
		<tag k="ssr:hovedgruppe" v="infrastruktur" />
		<tag k="ssr:stedsnr" v="59740" />
		<tag k="ssr:type" v="adressenavn" />
	</node>
	<node lat="59.05632367401323" lon="10.953230018448256" id="-25331">
		<tag k="name" v="Sandhella" />
		<tag k="ssr:date" v="2019-12-27" />
		<tag k="ssr:gruppe" v="veg" />
		<tag k="ssr:hovedgruppe" v="infrastruktur" />
		<tag k="ssr:stedsnr" v="59743" />
		<tag k="ssr:type" v="adressenavn" />
	</node>
	<node lat="59.0669346916719" lon="10.883024194012387" id="-25338">
		<tag k="name" v="Skjelsbusund lykt" />
		<tag k="ssr:date" v="2020-09-01" />
		<tag k="ssr:gruppe" v="navigasjon" />
		<tag k="ssr:hovedgruppe" v="infrastruktur" />
		<tag k="ssr:stedsnr" v="62500" />
		<tag k="ssr:type" v="fyrlykt" />
	</node>
	<node lat="59.088681803934264" lon="10.91695042853319" id="-25359">
		<tag k="name" v="Dypedalsveien" />
		<tag k="ssr:date" v="2019-12-27" />
		<tag k="ssr:gruppe" v="veg" />
		<tag k="ssr:hovedgruppe" v="infrastruktur" />
		<tag k="ssr:stedsnr" v="102615" />
		<tag k="ssr:type" v="adressenavn" />
	</node>
	<node lat="59.07847265669634" lon="10.926741112672754" id="-25361">
		<tag k="name" v="Linddalsveien" />
		<tag k="ssr:date" v="2019-12-27" />
		<tag k="ssr:gruppe" v="veg" />
		<tag k="ssr:hovedgruppe" v="infrastruktur" />
		<tag k="ssr:stedsnr" v="102629" />
		<tag k="ssr:type" v="adressenavn" />
	</node>
	<node lat="59.037353165597764" lon="10.94572656003249" id="-25396">
		<tag k="name" v="Varden" />
		<tag k="ssr:date" v="2019-12-27" />
		<tag k="ssr:gruppe" v="veg" />
		<tag k="ssr:hovedgruppe" v="infrastruktur" />
		<tag k="ssr:stedsnr" v="116799" />
		<tag k="ssr:type" v="adressenavn" />
	</node>
	<node lat="59.0271739665378" lon="11.034273160195868" id="-25397">
		<tag k="name" v="Storveien" />
		<tag k="ssr:date" v="2019-12-27" />
		<tag k="ssr:gruppe" v="veg" />
		<tag k="ssr:hovedgruppe" v="infrastruktur" />
		<tag k="ssr:stedsnr" v="116856" />
		<tag k="ssr:type" v="adressenavn" />
	</node>
	<node lat="59.083391116341424" lon="10.999473955882001" id="-25398">
		<tag k="name" v="Furuholmberget" />
		<tag k="ssr:date" v="2019-12-27" />
		<tag k="ssr:gruppe" v="veg" />
		<tag k="ssr:hovedgruppe" v="infrastruktur" />
		<tag k="ssr:stedsnr" v="118494" />
		<tag k="ssr:type" v="adressenavn" />
	</node>
	<node lat="59.08144101746633" lon="10.93141238158531" id="-25399">
		<tag k="name" v="Sandeveien" />
		<tag k="ssr:date" v="2019-12-27" />
		<tag k="ssr:gruppe" v="veg" />
		<tag k="ssr:hovedgruppe" v="infrastruktur" />
		<tag k="ssr:stedsnr" v="118560" />
		<tag k="ssr:type" v="adressenavn" />
	</node>
	<node lat="59.049637594461174" lon="11.013809450851575" id="-25400">
		<tag k="name" v="Holmveien" />
		<tag k="ssr:date" v="2019-12-27" />
		<tag k="ssr:gruppe" v="veg" />
		<tag k="ssr:hovedgruppe" v="infrastruktur" />
		<tag k="ssr:stedsnr" v="118686" />
		<tag k="ssr:type" v="adressenavn" />
	</node>
	<node lat="59.078247301188405" lon="10.940656059017677" id="-25401">
		<tag k="name" v="Liløkkeveien" />
		<tag k="ssr:date" v="2019-12-27" />
		<tag k="ssr:gruppe" v="veg" />
		<tag k="ssr:hovedgruppe" v="infrastruktur" />
		<tag k="ssr:stedsnr" v="120745" />
		<tag k="ssr:type" v="adressenavn" />
	</node>
	<node lat="59.01718055743452" lon="11.110624995806537" id="-25414">
		<tag k="name" v="Reiertangen lykt" />
		<tag k="ssr:date" v="2019-12-27" />
		<tag k="ssr:gruppe" v="navigasjon" />
		<tag k="ssr:hovedgruppe" v="infrastruktur" />
		<tag k="ssr:stedsnr" v="123247" />
		<tag k="ssr:type" v="fyrlykt" />
	</node>
	<node lat="59.02808333094743" lon="11.031099999156316" id="-25419">
		<tag k="alt_name" v="Hvaler" />
		<tag k="name" v="Hvaler kommune" />
		<tag k="ssr:date" v="2019-12-27" />
		<tag k="ssr:gruppe" v="administrativeIndelinger" />
		<tag k="ssr:hovedgruppe" v="offentligAdministrasjon" />
		<tag k="ssr:stedsnr" v="145262" />
		<tag k="ssr:type" v="kommune" />
	</node>
	<node lat="59.06708751093216" lon="11.08276486438443" id="-25420">
		<tag k="name" v="Skattenborg" />
		<tag k="ssr:date" v="2019-12-27" />
		<tag k="ssr:gruppe" v="veg" />
		<tag k="ssr:hovedgruppe" v="infrastruktur" />
		<tag k="ssr:stedsnr" v="161631" />
		<tag k="ssr:type" v="adressenavn" />
	</node>
	<node lat="59.03732234719538" lon="11.046634179645373" id="-25421">
		<tag k="name" v="Dapa" />
		<tag k="ssr:date" v="2019-12-27" />
		<tag k="ssr:gruppe" v="veg" />
		<tag k="ssr:hovedgruppe" v="infrastruktur" />
		<tag k="ssr:stedsnr" v="161634" />
		<tag k="ssr:type" v="adressenavn" />
	</node>
	<node lat="59.06904078794214" lon="10.908933287940819" id="-25422">
		<tag k="name" v="Spjæreveien" />
		<tag k="ssr:date" v="2019-12-27" />
		<tag k="ssr:gruppe" v="veg" />
		<tag k="ssr:hovedgruppe" v="infrastruktur" />
		<tag k="ssr:stedsnr" v="163511" />
		<tag k="ssr:type" v="adressenavn" />
	</node>
	<node lat="59.01487828892254" lon="11.068566577265685" id="-25423">
		<tag k="name" v="Kalvebingen" />
		<tag k="ssr:date" v="2019-12-27" />
		<tag k="ssr:gruppe" v="veg" />
		<tag k="ssr:hovedgruppe" v="infrastruktur" />
		<tag k="ssr:stedsnr" v="163484" />
		<tag k="ssr:type" v="adressenavn" />
	</node>
	<node lat="59.103249999206504" lon="10.848568593467938" id="-25448">
		<tag k="name" v="Grønnetfjellet" />
		<tag k="ssr:date" v="2019-12-27" />
		<tag k="ssr:gruppe" v="veg" />
		<tag k="ssr:hovedgruppe" v="infrastruktur" />
		<tag k="ssr:stedsnr" v="178437" />
		<tag k="ssr:type" v="adressenavn" />
	</node>
	<node lat="59.10352011815649" lon="10.846812372966031" id="-25449">
		<tag k="name" v="Hummertangen" />
		<tag k="ssr:date" v="2019-12-27" />
		<tag k="ssr:gruppe" v="veg" />
		<tag k="ssr:hovedgruppe" v="infrastruktur" />
		<tag k="ssr:stedsnr" v="179500" />
		<tag k="ssr:type" v="adressenavn" />
	</node>
	<node lat="59.02520255565447" lon="11.036776128888604" id="-25450">
		<tag k="name" v="Under Kollen" />
		<tag k="ssr:date" v="2019-12-27" />
		<tag k="ssr:gruppe" v="veg" />
		<tag k="ssr:hovedgruppe" v="infrastruktur" />
		<tag k="ssr:stedsnr" v="179631" />
		<tag k="ssr:type" v="adressenavn" />
	</node>
	<node lat="59.068436178933" lon="10.934301432172767" id="-25451">
		<tag k="name" v="Gravningstien" />
		<tag k="ssr:date" v="2019-12-27" />
		<tag k="ssr:gruppe" v="veg" />
		<tag k="ssr:hovedgruppe" v="infrastruktur" />
		<tag k="ssr:stedsnr" v="180760" />
		<tag k="ssr:type" v="adressenavn" />
	</node>
	<node lat="59.06905262213069" lon="10.950201569475347" id="-25491">
		<tag k="name" v="Tømmerlia" />
		<tag k="ssr:date" v="2019-12-27" />
		<tag k="ssr:gruppe" v="veg" />
		<tag k="ssr:hovedgruppe" v="infrastruktur" />
		<tag k="ssr:stedsnr" v="282947" />
		<tag k="ssr:type" v="adressenavn" />
	</node>
	<node lat="59.0920375620599" lon="10.874638963968607" id="-25492">
		<tag k="name" v="Gåsebakke" />
		<tag k="ssr:date" v="2019-12-27" />
		<tag k="ssr:gruppe" v="veg" />
		<tag k="ssr:hovedgruppe" v="infrastruktur" />
		<tag k="ssr:stedsnr" v="284411" />
		<tag k="ssr:type" v="adressenavn" />
	</node>
	<node lat="59.093678944613906" lon="10.941880629635534" id="-25532">
		<tag k="name" v="Møren" />
		<tag k="ssr:date" v="2019-12-27" />
		<tag k="ssr:gruppe" v="veg" />
		<tag k="ssr:hovedgruppe" v="infrastruktur" />
		<tag k="ssr:stedsnr" v="298726" />
		<tag k="ssr:type" v="adressenavn" />
	</node>
	<node lat="59.024950090124804" lon="11.0361948814019" id="-25533">
		<tag k="name" v="Løkka" />
		<tag k="ssr:date" v="2019-12-27" />
		<tag k="ssr:gruppe" v="veg" />
		<tag k="ssr:hovedgruppe" v="infrastruktur" />
		<tag k="ssr:stedsnr" v="300632" />
		<tag k="ssr:type" v="adressenavn" />
	</node>
	<node lat="58.994236184111394" lon="11.058650913254862" id="-25534">
		<tag k="name" v="Stutehavna" />
		<tag k="ssr:date" v="2019-12-27" />
		<tag k="ssr:gruppe" v="veg" />
		<tag k="ssr:hovedgruppe" v="infrastruktur" />
		<tag k="ssr:stedsnr" v="300762" />
		<tag k="ssr:type" v="adressenavn" />
	</node>
	<node lat="58.99391944280602" lon="11.067977783651294" id="-25542">
		<tag k="alt_name" v="Glan" />
		<tag k="name" v="Glan lykt" />
		<tag k="ssr:date" v="2019-12-27" />
		<tag k="ssr:gruppe" v="navigasjon" />
		<tag k="ssr:hovedgruppe" v="infrastruktur" />
		<tag k="ssr:stedsnr" v="304768" />
		<tag k="ssr:type" v="fyrlykt" />
	</node>
	<node lat="59.067945439296274" lon="10.961289410122797" id="-25547">
		<tag k="alt_name" v="Dødvikpynten lykt" />
		<tag k="name" v="Dødvikpynten" />
		<tag k="ssr:date" v="2020-09-01" />
		<tag k="ssr:gruppe" v="navigasjon" />
		<tag k="ssr:hovedgruppe" v="infrastruktur" />
		<tag k="ssr:stedsnr" v="305555" />
		<tag k="ssr:type" v="fyrlykt" />
	</node>
	<node lat="59.12505811436176" lon="10.920989503930844" id="-25575">
		<tag k="name" v="Siljeholmen" />
		<tag k="ssr:date" v="2019-12-27" />
		<tag k="ssr:gruppe" v="veg" />
		<tag k="ssr:hovedgruppe" v="infrastruktur" />
		<tag k="ssr:stedsnr" v="344495" />
		<tag k="ssr:type" v="adressenavn" />
	</node>
	<node lat="59.09320218115325" lon="10.854612094611321" id="-25576">
		<tag k="name" v="Bingeberget" />
		<tag k="ssr:date" v="2019-12-27" />
		<tag k="ssr:gruppe" v="veg" />
		<tag k="ssr:hovedgruppe" v="infrastruktur" />
		<tag k="ssr:stedsnr" v="344496" />
		<tag k="ssr:type" v="adressenavn" />
	</node>
	<node lat="59.08835278181632" lon="10.973324997422118" id="-25586">
		<tag k="name" v="Løperungbåen lykt" />
		<tag k="ssr:date" v="2019-12-27" />
		<tag k="ssr:gruppe" v="navigasjon" />
		<tag k="ssr:hovedgruppe" v="infrastruktur" />
		<tag k="ssr:stedsnr" v="357589" />
		<tag k="ssr:type" v="fyrlykt" />
	</node>
	<node lat="59.08147656507691" lon="10.95453676085505" id="-25599">
		<tag k="name" v="Store Ingerholmen" />
		<tag k="ssr:date" v="2019-12-27" />
		<tag k="ssr:gruppe" v="veg" />
		<tag k="ssr:hovedgruppe" v="infrastruktur" />
		<tag k="ssr:stedsnr" v="359785" />
		<tag k="ssr:type" v="adressenavn" />
	</node>
	<node lat="59.06597724915149" lon="11.041860873139123" id="-25600">
		<tag k="name" v="Hyttekasbakken" />
		<tag k="ssr:date" v="2019-12-27" />
		<tag k="ssr:gruppe" v="veg" />
		<tag k="ssr:hovedgruppe" v="infrastruktur" />
		<tag k="ssr:stedsnr" v="361689" />
		<tag k="ssr:type" v="adressenavn" />
	</node>
	<node lat="59.024176021354414" lon="11.035755720300685" id="-25601">
		<tag k="name" v="Lillesand" />
		<tag k="ssr:date" v="2019-12-27" />
		<tag k="ssr:gruppe" v="veg" />
		<tag k="ssr:hovedgruppe" v="infrastruktur" />
		<tag k="ssr:stedsnr" v="361656" />
		<tag k="ssr:type" v="adressenavn" />
	</node>
	<node lat="59.02984298543168" lon="11.03549494156415" id="-25602">
		<tag k="name" v="Furumoen" />
		<tag k="ssr:date" v="2019-12-27" />
		<tag k="ssr:gruppe" v="veg" />
		<tag k="ssr:hovedgruppe" v="infrastruktur" />
		<tag k="ssr:stedsnr" v="361739" />
		<tag k="ssr:type" v="adressenavn" />
	</node>
	<node lat="59.053475000113814" lon="10.94811666216811" id="-25603">
		<tag k="name" v="Skipstad" />
		<tag k="ssr:date" v="2019-12-27" />
		<tag k="ssr:gruppe" v="veg" />
		<tag k="ssr:hovedgruppe" v="infrastruktur" />
		<tag k="ssr:stedsnr" v="362783" />
		<tag k="ssr:type" v="adressenavn" />
	</node>
	<node lat="59.01604804036521" lon="11.024070329359956" id="-25613">
		<tag k="name" v="Homlungen" />
		<tag k="old_name" v="Homlungen fyr;Homlungen lykt" />
		<tag k="ssr:date" v="2020-09-01" />
		<tag k="ssr:gruppe" v="navigasjon" />
		<tag k="ssr:hovedgruppe" v="infrastruktur" />
		<tag k="ssr:stedsnr" v="366580" />
		<tag k="ssr:type" v="fyrlykt" />
	</node>
	<node lat="59.031918484412316" lon="11.001636791243858" id="-25624">
		<tag k="name" v="Storefjellveien" />
		<tag k="ssr:date" v="2019-12-27" />
		<tag k="ssr:gruppe" v="veg" />
		<tag k="ssr:hovedgruppe" v="infrastruktur" />
		<tag k="ssr:stedsnr" v="404643" />
		<tag k="ssr:type" v="adressenavn" />
	</node>
	<node lat="59.11396360565847" lon="10.909101954318817" id="-25625">
		<tag k="name" v="Nordengåsen" />
		<tag k="ssr:date" v="2019-12-27" />
		<tag k="ssr:gruppe" v="veg" />
		<tag k="ssr:hovedgruppe" v="infrastruktur" />
		<tag k="ssr:stedsnr" v="405285" />
		<tag k="ssr:type" v="adressenavn" />
	</node>
	<node lat="59.09477542499581" lon="10.925754020529451" id="-25626">
		<tag k="name" v="Sydengveien" />
		<tag k="ssr:date" v="2019-12-27" />
		<tag k="ssr:gruppe" v="veg" />
		<tag k="ssr:hovedgruppe" v="infrastruktur" />
		<tag k="ssr:stedsnr" v="405424" />
		<tag k="ssr:type" v="adressenavn" />
	</node>
	<node lat="59.00457647685819" lon="11.073259878486578" id="-25627">
		<tag k="name" v="Venneren" />
		<tag k="ssr:date" v="2019-12-27" />
		<tag k="ssr:gruppe" v="veg" />
		<tag k="ssr:hovedgruppe" v="infrastruktur" />
		<tag k="ssr:stedsnr" v="406538" />
		<tag k="ssr:type" v="adressenavn" />
	</node>
	<node lat="59.04428900712562" lon="10.953603646421847" id="-25630">
		<tag k="name" v="Håbuveien" />
		<tag k="ssr:date" v="2019-12-27" />
		<tag k="ssr:gruppe" v="veg" />
		<tag k="ssr:hovedgruppe" v="infrastruktur" />
		<tag k="ssr:stedsnr" v="406991" />
		<tag k="ssr:type" v="adressenavn" />
	</node>
	<node lat="59.03827703997627" lon="10.948644940706227" id="-25666">
		<tag k="name" v="Madamhaven" />
		<tag k="ssr:date" v="2019-12-27" />
		<tag k="ssr:gruppe" v="veg" />
		<tag k="ssr:hovedgruppe" v="infrastruktur" />
		<tag k="ssr:stedsnr" v="420824" />
		<tag k="ssr:type" v="adressenavn" />
	</node>
	<node lat="59.081265954151164" lon="10.955039501098478" id="-25667">
		<tag k="name" v="Løperholmen" />
		<tag k="ssr:date" v="2019-12-27" />
		<tag k="ssr:gruppe" v="veg" />
		<tag k="ssr:hovedgruppe" v="infrastruktur" />
		<tag k="ssr:stedsnr" v="420777" />
		<tag k="ssr:type" v="adressenavn" />
	</node>
	<node lat="59.02169148427792" lon="11.030253136608074" id="-25683">
		<tag k="name" v="Homlungfjellet" />
		<tag k="ssr:date" v="2019-12-27" />
		<tag k="ssr:gruppe" v="veg" />
		<tag k="ssr:hovedgruppe" v="infrastruktur" />
		<tag k="ssr:stedsnr" v="482738" />
		<tag k="ssr:type" v="adressenavn" />
	</node>
	<node lat="59.10787276448084" lon="10.915292600749737" id="-25684">
		<tag k="name" v="Bredbukta" />
		<tag k="ssr:date" v="2019-12-27" />
		<tag k="ssr:gruppe" v="veg" />
		<tag k="ssr:hovedgruppe" v="infrastruktur" />
		<tag k="ssr:stedsnr" v="482395" />
		<tag k="ssr:type" v="adressenavn" />
	</node>
	<node lat="59.03517858290765" lon="11.05186762399919" id="-25685">
		<tag k="name" v="Bryggeberget" />
		<tag k="ssr:date" v="2019-12-27" />
		<tag k="ssr:gruppe" v="veg" />
		<tag k="ssr:hovedgruppe" v="infrastruktur" />
		<tag k="ssr:stedsnr" v="482528" />
		<tag k="ssr:type" v="adressenavn" />
	</node>
	<node lat="59.02925311242364" lon="11.092844275451826" id="-25686">
		<tag k="name" v="Hollungen" />
		<tag k="ssr:date" v="2019-12-27" />
		<tag k="ssr:gruppe" v="veg" />
		<tag k="ssr:hovedgruppe" v="infrastruktur" />
		<tag k="ssr:stedsnr" v="482542" />
		<tag k="ssr:type" v="adressenavn" />
	</node>
	<node lat="59.066423294616214" lon="11.039159190532946" id="-25687">
		<tag k="name" v="Løkkaveien" />
		<tag k="ssr:date" v="2019-12-27" />
		<tag k="ssr:gruppe" v="veg" />
		<tag k="ssr:hovedgruppe" v="infrastruktur" />
		<tag k="ssr:stedsnr" v="482545" />
		<tag k="ssr:type" v="adressenavn" />
	</node>
	<node lat="59.06057658229616" lon="11.065847935681475" id="-25688">
		<tag k="name" v="Kilebryggaveien" />
		<tag k="ssr:date" v="2019-12-27" />
		<tag k="ssr:gruppe" v="veg" />
		<tag k="ssr:hovedgruppe" v="infrastruktur" />
		<tag k="ssr:stedsnr" v="482547" />
		<tag k="ssr:type" v="adressenavn" />
	</node>
	<node lat="59.025676340994" lon="11.036745953688998" id="-25689">
		<tag k="name" v="Julsebakken" />
		<tag k="ssr:date" v="2019-12-27" />
		<tag k="ssr:gruppe" v="veg" />
		<tag k="ssr:hovedgruppe" v="infrastruktur" />
		<tag k="ssr:stedsnr" v="482628" />
		<tag k="ssr:type" v="adressenavn" />
	</node>
	<node lat="59.03926005630731" lon="11.03914195209834" id="-25690">
		<tag k="name" v="Helleskilveien" />
		<tag k="ssr:date" v="2019-12-27" />
		<tag k="ssr:gruppe" v="veg" />
		<tag k="ssr:hovedgruppe" v="infrastruktur" />
		<tag k="ssr:stedsnr" v="482650" />
		<tag k="ssr:type" v="adressenavn" />
	</node>
	<node lat="59.05884761570288" lon="11.007654789761638" id="-25691">
		<tag k="name" v="Korshavnveien" />
		<tag k="ssr:date" v="2019-12-27" />
		<tag k="ssr:gruppe" v="veg" />
		<tag k="ssr:hovedgruppe" v="infrastruktur" />
		<tag k="ssr:stedsnr" v="482744" />
		<tag k="ssr:type" v="adressenavn" />
	</node>
	<node lat="59.05528186354317" lon="10.91491583425191" id="-25698">
		<tag k="alt_name" v="Asmalsund" />
		<tag k="loc_name" v="Pikesten lykt" />
		<tag k="name" v="Asmalsund lykt" />
		<tag k="ssr:date" v="2019-12-27" />
		<tag k="ssr:gruppe" v="navigasjon" />
		<tag k="ssr:hovedgruppe" v="infrastruktur" />
		<tag k="ssr:stedsnr" v="487649" />
		<tag k="ssr:type" v="fyrlykt" />
	</node>
	<node lat="59.03883160695377" lon="10.94926799997072" id="-25728">
		<tag k="name" v="Rovær" />
		<tag k="ssr:date" v="2019-12-27" />
		<tag k="ssr:gruppe" v="veg" />
		<tag k="ssr:hovedgruppe" v="infrastruktur" />
		<tag k="ssr:stedsnr" v="541815" />
		<tag k="ssr:type" v="adressenavn" />
	</node>
	<node lat="59.07216614139512" lon="10.945930119237344" id="-25729">
		<tag k="name" v="Olasvingen" />
		<tag k="ssr:date" v="2019-12-27" />
		<tag k="ssr:gruppe" v="veg" />
		<tag k="ssr:hovedgruppe" v="infrastruktur" />
		<tag k="ssr:stedsnr" v="541818" />
		<tag k="ssr:type" v="adressenavn" />
	</node>
	<node lat="59.109279020600134" lon="10.875136451106076" id="-25730">
		<tag k="name" v="Papperveien" />
		<tag k="ssr:date" v="2019-12-27" />
		<tag k="ssr:gruppe" v="veg" />
		<tag k="ssr:hovedgruppe" v="infrastruktur" />
		<tag k="ssr:stedsnr" v="542519" />
		<tag k="ssr:type" v="adressenavn" />
	</node>
	<node lat="59.11350733118068" lon="10.858506075742357" id="-25731">
		<tag k="name" v="Laenga" />
		<tag k="ssr:date" v="2019-12-27" />
		<tag k="ssr:gruppe" v="veg" />
		<tag k="ssr:hovedgruppe" v="infrastruktur" />
		<tag k="ssr:stedsnr" v="542521" />
		<tag k="ssr:type" v="adressenavn" />
	</node>
	<node lat="59.05350778524348" lon="11.054196399586594" id="-25732">
		<tag k="name" v="Holtefeltet" />
		<tag k="ssr:date" v="2019-12-27" />
		<tag k="ssr:gruppe" v="veg" />
		<tag k="ssr:hovedgruppe" v="infrastruktur" />
		<tag k="ssr:stedsnr" v="543532" />
		<tag k="ssr:type" v="adressenavn" />
	</node>
	<node lat="59.11709419936761" lon="10.87054566413582" id="-25733">
		<tag k="name" v="Nordstrand" />
		<tag k="ssr:date" v="2019-12-27" />
		<tag k="ssr:gruppe" v="veg" />
		<tag k="ssr:hovedgruppe" v="infrastruktur" />
		<tag k="ssr:stedsnr" v="543533" />
		<tag k="ssr:type" v="adressenavn" />
	</node>
	<node lat="59.02507289623648" lon="11.036564360926604" id="-25734">
		<tag k="name" v="Vadbenken" />
		<tag k="ssr:date" v="2019-12-27" />
		<tag k="ssr:gruppe" v="veg" />
		<tag k="ssr:hovedgruppe" v="infrastruktur" />
		<tag k="ssr:stedsnr" v="543628" />
		<tag k="ssr:type" v="adressenavn" />
	</node>
	<node lat="59.02546606422145" lon="10.898206757186149" id="-25748">
		<tag k="name" v="Trestenene" />
		<tag k="ssr:date" v="2021-06-08" />
		<tag k="ssr:gruppe" v="navigasjon" />
		<tag k="ssr:hovedgruppe" v="infrastruktur" />
		<tag k="ssr:stedsnr" v="548574" />
		<tag k="ssr:type" v="fyrlykt" />
	</node>
	<node lat="59.03769876079933" lon="11.006063706537601" id="-25756">
		<tag k="name" v="Hvalertunnelen" />
		<tag k="ssr:date" v="2019-12-27" />
		<tag k="ssr:gruppe" v="veg" />
		<tag k="ssr:hovedgruppe" v="infrastruktur" />
		<tag k="ssr:stedsnr" v="585895" />
		<tag k="ssr:type" v="adressenavn" />
	</node>
	<node lat="59.08005350997656" lon="10.87475381168822" id="-25758">
		<tag k="name" v="Østre Stranda" />
		<tag k="ssr:date" v="2019-12-27" />
		<tag k="ssr:gruppe" v="veg" />
		<tag k="ssr:hovedgruppe" v="infrastruktur" />
		<tag k="ssr:stedsnr" v="587529" />
		<tag k="ssr:type" v="adressenavn" />
	</node>
	<node lat="59.044991792018365" lon="10.964238041786471" id="-25759">
		<tag k="name" v="Håbu" />
		<tag k="ssr:date" v="2019-12-27" />
		<tag k="ssr:gruppe" v="veg" />
		<tag k="ssr:hovedgruppe" v="infrastruktur" />
		<tag k="ssr:stedsnr" v="587990" />
		<tag k="ssr:type" v="adressenavn" />
	</node>
	<node lat="59.02170736902079" lon="11.02958679891319" id="-25787">
		<tag k="name" v="Prestegårdsskogen" />
		<tag k="ssr:date" v="2019-12-27" />
		<tag k="ssr:gruppe" v="veg" />
		<tag k="ssr:hovedgruppe" v="infrastruktur" />
		<tag k="ssr:stedsnr" v="601832" />
		<tag k="ssr:type" v="adressenavn" />
	</node>
	<node lat="59.03735573210269" lon="10.946632351426656" id="-25788">
		<tag k="name" v="Tauløs" />
		<tag k="ssr:date" v="2019-12-27" />
		<tag k="ssr:gruppe" v="veg" />
		<tag k="ssr:hovedgruppe" v="infrastruktur" />
		<tag k="ssr:stedsnr" v="601796" />
		<tag k="ssr:type" v="adressenavn" />
	</node>
	<node lat="59.0115715436862" lon="11.01715640089096" id="-25789">
		<tag k="name" v="Lauer" />
		<tag k="ssr:date" v="2019-12-27" />
		<tag k="ssr:gruppe" v="veg" />
		<tag k="ssr:hovedgruppe" v="infrastruktur" />
		<tag k="ssr:stedsnr" v="603530" />
		<tag k="ssr:type" v="adressenavn" />
	</node>
	<node lat="59.1218166644773" lon="10.859916670870337" id="-25790">
		<tag k="name" v="Seilø" />
		<tag k="ssr:date" v="2019-12-27" />
		<tag k="ssr:gruppe" v="veg" />
		<tag k="ssr:hovedgruppe" v="infrastruktur" />
		<tag k="ssr:stedsnr" v="603521" />
		<tag k="ssr:type" v="adressenavn" />
	</node>
	<node lat="59.04466402287049" lon="11.111160670638542" id="-25791">
		<tag k="name" v="Bråteholmen" />
		<tag k="ssr:date" v="2019-12-27" />
		<tag k="ssr:gruppe" v="veg" />
		<tag k="ssr:hovedgruppe" v="infrastruktur" />
		<tag k="ssr:stedsnr" v="603526" />
		<tag k="ssr:type" v="adressenavn" />
	</node>
	<node lat="59.10948821170299" lon="10.889434247314723" id="-25792">
		<tag k="name" v="Sandviksveien" />
		<tag k="ssr:date" v="2019-12-27" />
		<tag k="ssr:gruppe" v="veg" />
		<tag k="ssr:hovedgruppe" v="infrastruktur" />
		<tag k="ssr:stedsnr" v="603391" />
		<tag k="ssr:type" v="adressenavn" />
	</node>
	<node lat="59.02916418354713" lon="11.033822189745687" id="-25793">
		<tag k="name" v="Prinseveien" />
		<tag k="ssr:date" v="2019-12-27" />
		<tag k="ssr:gruppe" v="veg" />
		<tag k="ssr:hovedgruppe" v="infrastruktur" />
		<tag k="ssr:stedsnr" v="603694" />
		<tag k="ssr:type" v="adressenavn" />
	</node>
	<node lat="59.02097887905659" lon="11.03231956912874" id="-25794">
		<tag k="name" v="Homlungen" />
		<tag k="ssr:date" v="2019-12-27" />
		<tag k="ssr:gruppe" v="veg" />
		<tag k="ssr:hovedgruppe" v="infrastruktur" />
		<tag k="ssr:stedsnr" v="603533" />
		<tag k="ssr:type" v="adressenavn" />
	</node>
	<node lat="59.11586780312701" lon="10.872209648991674" id="-25795">
		<tag k="name" v="Melkebakken" />
		<tag k="ssr:date" v="2019-12-27" />
		<tag k="ssr:gruppe" v="veg" />
		<tag k="ssr:hovedgruppe" v="infrastruktur" />
		<tag k="ssr:stedsnr" v="603535" />
		<tag k="ssr:type" v="adressenavn" />
	</node>
	<node lat="59.036311121949296" lon="11.055039663624184" id="-25817">
		<tag k="name" v="Jeriko" />
		<tag k="ssr:date" v="2019-12-27" />
		<tag k="ssr:gruppe" v="veg" />
		<tag k="ssr:hovedgruppe" v="infrastruktur" />
		<tag k="ssr:stedsnr" v="646645" />
		<tag k="ssr:type" v="adressenavn" />
	</node>
	<node lat="59.014315549562035" lon="11.070522275013673" id="-25819">
		<tag k="name" v="Store eka" />
		<tag k="ssr:date" v="2019-12-27" />
		<tag k="ssr:gruppe" v="veg" />
		<tag k="ssr:hovedgruppe" v="infrastruktur" />
		<tag k="ssr:stedsnr" v="648542" />
		<tag k="ssr:type" v="adressenavn" />
	</node>
	<node lat="59.07363758126247" lon="10.997051749767387" id="-25838">
		<tag k="name" v="Korshavn" />
		<tag k="ssr:date" v="2019-12-27" />
		<tag k="ssr:gruppe" v="veg" />
		<tag k="ssr:hovedgruppe" v="infrastruktur" />
		<tag k="ssr:stedsnr" v="708649" />
		<tag k="ssr:type" v="adressenavn" />
	</node>
	<node lat="59.10928495121324" lon="10.913077187194949" id="-25839">
		<tag k="name" v="Ødegårdslia" />
		<tag k="ssr:date" v="2019-12-27" />
		<tag k="ssr:gruppe" v="veg" />
		<tag k="ssr:hovedgruppe" v="infrastruktur" />
		<tag k="ssr:stedsnr" v="709495" />
		<tag k="ssr:type" v="adressenavn" />
	</node>
	<node lat="59.035591663796815" lon="10.966519436693444" id="-25845">
		<tag k="name" v="Fugletangskjær lykt" />
		<tag k="ssr:date" v="2019-12-27" />
		<tag k="ssr:gruppe" v="navigasjon" />
		<tag k="ssr:hovedgruppe" v="infrastruktur" />
		<tag k="ssr:stedsnr" v="721618" />
		<tag k="ssr:type" v="fyrlykt" />
	</node>
	<node lat="59.10607777864201" lon="10.969647224320584" id="-25846">
		<tag k="name" v="Tjeldholmgrunnen lykt" />
		<tag k="ssr:date" v="2019-12-27" />
		<tag k="ssr:gruppe" v="navigasjon" />
		<tag k="ssr:hovedgruppe" v="infrastruktur" />
		<tag k="ssr:stedsnr" v="721868" />
		<tag k="ssr:type" v="fyrlykt" />
	</node>
	<node lat="59.03827703997627" lon="10.948644940706227" id="-25862">
		<tag k="name" v="Moloveien" />
		<tag k="ssr:date" v="2019-12-27" />
		<tag k="ssr:gruppe" v="veg" />
		<tag k="ssr:hovedgruppe" v="infrastruktur" />
		<tag k="ssr:stedsnr" v="723777" />
		<tag k="ssr:type" v="adressenavn" />
	</node>
	<node lat="59.00118696545339" lon="11.051461795526151" id="-25863">
		<tag k="name" v="Henry A. Larsens vei" />
		<tag k="ssr:date" v="2019-12-27" />
		<tag k="ssr:gruppe" v="veg" />
		<tag k="ssr:hovedgruppe" v="infrastruktur" />
		<tag k="ssr:stedsnr" v="723746" />
		<tag k="ssr:type" v="adressenavn" />
	</node>
	<node lat="59.05366102243534" lon="10.95313174420677" id="-25864">
		<tag k="name" v="Løperveien" />
		<tag k="ssr:date" v="2019-12-27" />
		<tag k="ssr:gruppe" v="veg" />
		<tag k="ssr:hovedgruppe" v="infrastruktur" />
		<tag k="ssr:stedsnr" v="723773" />
		<tag k="ssr:type" v="adressenavn" />
	</node>
	<node lat="59.04055323093314" lon="11.034805942341935" id="-25865">
		<tag k="name" v="Brekkesletta" />
		<tag k="ssr:date" v="2019-12-27" />
		<tag k="ssr:gruppe" v="veg" />
		<tag k="ssr:hovedgruppe" v="infrastruktur" />
		<tag k="ssr:stedsnr" v="725718" />
		<tag k="ssr:type" v="adressenavn" />
	</node>
	<node lat="59.062822530751326" lon="10.939646541280945" id="-25866">
		<tag k="name" v="Asmaløy" />
		<tag k="ssr:date" v="2019-12-27" />
		<tag k="ssr:gruppe" v="veg" />
		<tag k="ssr:hovedgruppe" v="infrastruktur" />
		<tag k="ssr:stedsnr" v="727817" />
		<tag k="ssr:type" v="adressenavn" />
	</node>
	<node lat="59.051309501425756" lon="10.944415549920489" id="-25867">
		<tag k="name" v="Gamle Vikerveien" />
		<tag k="ssr:date" v="2019-12-27" />
		<tag k="ssr:gruppe" v="veg" />
		<tag k="ssr:hovedgruppe" v="infrastruktur" />
		<tag k="ssr:stedsnr" v="727758" />
		<tag k="ssr:type" v="adressenavn" />
	</node>
	<node lat="59.08641632856686" lon="11.097589839239028" id="-25876">
		<tag k="name" v="Terneskjæra" />
		<tag k="ssr:date" v="2019-12-27" />
		<tag k="ssr:gruppe" v="navigasjon" />
		<tag k="ssr:hovedgruppe" v="infrastruktur" />
		<tag k="ssr:stedsnr" v="730197" />
		<tag k="ssr:type" v="fyrlykt" />
	</node>
	<node lat="59.0468085634781" lon="10.967128590148853" id="-25880">
		<tag k="alt_name" v="Håbutangen" />
		<tag k="name" v="Håbutangen lykt" />
		<tag k="ssr:date" v="2020-09-01" />
		<tag k="ssr:gruppe" v="navigasjon" />
		<tag k="ssr:hovedgruppe" v="infrastruktur" />
		<tag k="ssr:stedsnr" v="730661" />
		<tag k="ssr:type" v="fyrlykt" />
	</node>
	<node lat="59.03574169185182" lon="11.053528120978715" id="-25892">
		<tag k="name" v="Skårsnesveien" />
		<tag k="ssr:date" v="2019-12-27" />
		<tag k="ssr:gruppe" v="veg" />
		<tag k="ssr:hovedgruppe" v="infrastruktur" />
		<tag k="ssr:stedsnr" v="768626" />
		<tag k="ssr:type" v="adressenavn" />
	</node>
	<node lat="59.02919012873456" lon="11.046226450385845" id="-25893">
		<tag k="name" v="Karls vei" />
		<tag k="ssr:date" v="2019-12-27" />
		<tag k="ssr:gruppe" v="veg" />
		<tag k="ssr:hovedgruppe" v="infrastruktur" />
		<tag k="ssr:stedsnr" v="768636" />
		<tag k="ssr:type" v="adressenavn" />
	</node>
	<node lat="59.03174102833534" lon="11.023775213691465" id="-25894">
		<tag k="name" v="Vadholmstranda" />
		<tag k="ssr:date" v="2019-12-27" />
		<tag k="ssr:gruppe" v="veg" />
		<tag k="ssr:hovedgruppe" v="infrastruktur" />
		<tag k="ssr:stedsnr" v="768665" />
		<tag k="ssr:type" v="adressenavn" />
	</node>
	<node lat="59.08419984606118" lon="10.878430603531948" id="-25895">
		<tag k="name" v="Liadammen" />
		<tag k="ssr:date" v="2019-12-27" />
		<tag k="ssr:gruppe" v="veg" />
		<tag k="ssr:hovedgruppe" v="infrastruktur" />
		<tag k="ssr:stedsnr" v="769490" />
		<tag k="ssr:type" v="adressenavn" />
	</node>
	<node lat="59.10590067990701" lon="10.876197410942387" id="-25896">
		<tag k="name" v="Nesebakken" />
		<tag k="ssr:date" v="2019-12-27" />
		<tag k="ssr:gruppe" v="veg" />
		<tag k="ssr:hovedgruppe" v="infrastruktur" />
		<tag k="ssr:stedsnr" v="769408" />
		<tag k="ssr:type" v="adressenavn" />
	</node>
	<node lat="59.097211692726326" lon="10.937482723542187" id="-25897">
		<tag k="name" v="Storengveien" />
		<tag k="ssr:date" v="2019-12-27" />
		<tag k="ssr:gruppe" v="veg" />
		<tag k="ssr:hovedgruppe" v="infrastruktur" />
		<tag k="ssr:stedsnr" v="769413" />
		<tag k="ssr:type" v="adressenavn" />
	</node>
	<node lat="59.09666679876553" lon="10.931220971952719" id="-25898">
		<tag k="name" v="Nepegravningsvarden" />
		<tag k="ssr:date" v="2019-12-27" />
		<tag k="ssr:gruppe" v="veg" />
		<tag k="ssr:hovedgruppe" v="infrastruktur" />
		<tag k="ssr:stedsnr" v="770512" />
		<tag k="ssr:type" v="adressenavn" />
	</node>
	<node lat="59.0133253403249" lon="11.074956480689234" id="-25899">
		<tag k="name" v="Stuvikveien" />
		<tag k="ssr:date" v="2019-12-27" />
		<tag k="ssr:gruppe" v="veg" />
		<tag k="ssr:hovedgruppe" v="infrastruktur" />
		<tag k="ssr:stedsnr" v="770519" />
		<tag k="ssr:type" v="adressenavn" />
	</node>
	<node lat="59.022324570764795" lon="11.099294393267261" id="-25900">
		<tag k="name" v="Gjøkvikveien" />
		<tag k="ssr:date" v="2019-12-27" />
		<tag k="ssr:gruppe" v="veg" />
		<tag k="ssr:hovedgruppe" v="infrastruktur" />
		<tag k="ssr:stedsnr" v="770521" />
		<tag k="ssr:type" v="adressenavn" />
	</node>
	<node lat="59.09506755689485" lon="10.92635190921035" id="-25901">
		<tag k="name" v="Kalvehagen" />
		<tag k="ssr:date" v="2019-12-27" />
		<tag k="ssr:gruppe" v="veg" />
		<tag k="ssr:hovedgruppe" v="infrastruktur" />
		<tag k="ssr:stedsnr" v="770535" />
		<tag k="ssr:type" v="adressenavn" />
	</node>
	<node lat="59.10006793644617" lon="10.941204327962406" id="-25902">
		<tag k="name" v="Nordsted" />
		<tag k="ssr:date" v="2019-12-27" />
		<tag k="ssr:gruppe" v="veg" />
		<tag k="ssr:hovedgruppe" v="infrastruktur" />
		<tag k="ssr:stedsnr" v="770544" />
		<tag k="ssr:type" v="adressenavn" />
	</node>
	<node lat="59.09042315208023" lon="10.916171826470896" id="-25903">
		<tag k="name" v="Hobekk" />
		<tag k="ssr:date" v="2019-12-27" />
		<tag k="ssr:gruppe" v="veg" />
		<tag k="ssr:hovedgruppe" v="infrastruktur" />
		<tag k="ssr:stedsnr" v="770499" />
		<tag k="ssr:type" v="adressenavn" />
	</node>
	<node lat="59.04210556431925" lon="10.95822429579191" id="-25906">
		<tag k="name" v="Ekevika" />
		<tag k="ssr:date" v="2019-12-27" />
		<tag k="ssr:gruppe" v="veg" />
		<tag k="ssr:hovedgruppe" v="infrastruktur" />
		<tag k="ssr:stedsnr" v="770997" />
		<tag k="ssr:type" v="adressenavn" />
	</node>
	<node lat="58.994833169442316" lon="11.055937856970502" id="-25930">
		<tag k="name" v="Tøfte" />
		<tag k="ssr:date" v="2019-12-27" />
		<tag k="ssr:gruppe" v="veg" />
		<tag k="ssr:hovedgruppe" v="infrastruktur" />
		<tag k="ssr:stedsnr" v="784781" />
		<tag k="ssr:type" v="adressenavn" />
	</node>
	<node lat="59.02624281508831" lon="11.04280007071974" id="-25931">
		<tag k="name" v="Gilboveien" />
		<tag k="ssr:date" v="2019-12-27" />
		<tag k="ssr:gruppe" v="veg" />
		<tag k="ssr:hovedgruppe" v="infrastruktur" />
		<tag k="ssr:stedsnr" v="786746" />
		<tag k="ssr:type" v="adressenavn" />
	</node>
	<node lat="58.99464017756801" lon="11.057156872579556" id="-25932">
		<tag k="name" v="Stormon" />
		<tag k="ssr:date" v="2019-12-27" />
		<tag k="ssr:gruppe" v="veg" />
		<tag k="ssr:hovedgruppe" v="infrastruktur" />
		<tag k="ssr:stedsnr" v="786747" />
		<tag k="ssr:type" v="adressenavn" />
	</node>
	<node lat="59.060265077984546" lon="10.945460010337051" id="-25933">
		<tag k="name" v="Gamle skolevei" />
		<tag k="ssr:date" v="2019-12-27" />
		<tag k="ssr:gruppe" v="veg" />
		<tag k="ssr:hovedgruppe" v="infrastruktur" />
		<tag k="ssr:stedsnr" v="787747" />
		<tag k="ssr:type" v="adressenavn" />
	</node>
	<node lat="58.9963375037691" lon="10.7817079455565" id="-25945">
		<tag k="name" v="Torbjørnskjær" />
		<tag k="ssr:date" v="2019-12-27" />
		<tag k="ssr:gruppe" v="navigasjon" />
		<tag k="ssr:hovedgruppe" v="infrastruktur" />
		<tag k="ssr:stedsnr" v="790985" />
		<tag k="ssr:type" v="fyrstasjon" />
	</node>
	<node lat="59.072777259188264" lon="11.007599780736589" id="-25964">
		<tag k="name" v="Overveien" />
		<tag k="ssr:date" v="2019-12-27" />
		<tag k="ssr:gruppe" v="veg" />
		<tag k="ssr:hovedgruppe" v="infrastruktur" />
		<tag k="ssr:stedsnr" v="829660" />
		<tag k="ssr:type" v="adressenavn" />
	</node>
	<node lat="59.103747404130715" lon="10.917796107753162" id="-25965">
		<tag k="name" v="Stenkjørerbakken" />
		<tag k="ssr:date" v="2019-12-27" />
		<tag k="ssr:gruppe" v="veg" />
		<tag k="ssr:hovedgruppe" v="infrastruktur" />
		<tag k="ssr:stedsnr" v="830400" />
		<tag k="ssr:type" v="adressenavn" />
	</node>
	<node lat="59.102811263635346" lon="10.934324436968822" id="-25966">
		<tag k="name" v="Kjempeholmen" />
		<tag k="ssr:date" v="2019-12-27" />
		<tag k="ssr:gruppe" v="veg" />
		<tag k="ssr:hovedgruppe" v="infrastruktur" />
		<tag k="ssr:stedsnr" v="830249" />
		<tag k="ssr:type" v="adressenavn" />
	</node>
	<node lat="59.08573128229296" lon="10.880867225808133" id="-25967">
		<tag k="name" v="Mølleberget" />
		<tag k="ssr:date" v="2019-12-27" />
		<tag k="ssr:gruppe" v="veg" />
		<tag k="ssr:hovedgruppe" v="infrastruktur" />
		<tag k="ssr:stedsnr" v="830471" />
		<tag k="ssr:type" v="adressenavn" />
	</node>
	<node lat="59.021037023406066" lon="11.032289498169133" id="-25985">
		<tag k="name" v="Børholmen" />
		<tag k="ssr:date" v="2019-12-27" />
		<tag k="ssr:gruppe" v="veg" />
		<tag k="ssr:hovedgruppe" v="infrastruktur" />
		<tag k="ssr:stedsnr" v="845805" />
		<tag k="ssr:type" v="adressenavn" />
	</node>
	<node lat="59.06809783808717" lon="11.026700427238836" id="-25986">
		<tag k="name" v="Reff" />
		<tag k="ssr:date" v="2019-12-27" />
		<tag k="ssr:gruppe" v="veg" />
		<tag k="ssr:hovedgruppe" v="infrastruktur" />
		<tag k="ssr:stedsnr" v="847700" />
		<tag k="ssr:type" v="adressenavn" />
	</node>
	<node lat="59.080584746920046" lon="11.022938973802283" id="-25987">
		<tag k="name" v="Utengveien" />
		<tag k="ssr:date" v="2019-12-27" />
		<tag k="ssr:gruppe" v="veg" />
		<tag k="ssr:hovedgruppe" v="infrastruktur" />
		<tag k="ssr:stedsnr" v="847718" />
		<tag k="ssr:type" v="adressenavn" />
	</node>
	<node lat="59.02426556753873" lon="11.03058210289366" id="-25988">
		<tag k="name" v="Hvileberget" />
		<tag k="ssr:date" v="2019-12-27" />
		<tag k="ssr:gruppe" v="veg" />
		<tag k="ssr:hovedgruppe" v="infrastruktur" />
		<tag k="ssr:stedsnr" v="847642" />
		<tag k="ssr:type" v="adressenavn" />
	</node>
	<node lat="59.02821521688874" lon="11.031725499520133" id="-25989">
		<tag k="name" v="Kjølholtveien" />
		<tag k="ssr:date" v="2019-12-27" />
		<tag k="ssr:gruppe" v="veg" />
		<tag k="ssr:hovedgruppe" v="infrastruktur" />
		<tag k="ssr:stedsnr" v="847655" />
		<tag k="ssr:type" v="adressenavn" />
	</node>
	<node lat="59.025676340994" lon="11.036745953688998" id="-25990">
		<tag k="name" v="Høghebakken" />
		<tag k="ssr:date" v="2019-12-27" />
		<tag k="ssr:gruppe" v="veg" />
		<tag k="ssr:hovedgruppe" v="infrastruktur" />
		<tag k="ssr:stedsnr" v="847658" />
		<tag k="ssr:type" v="adressenavn" />
	</node>
	<node lat="59.05620317718021" lon="10.939700355633303" id="-25991">
		<tag k="name" v="Peltebergveien" />
		<tag k="ssr:date" v="2019-12-27" />
		<tag k="ssr:gruppe" v="veg" />
		<tag k="ssr:hovedgruppe" v="infrastruktur" />
		<tag k="ssr:stedsnr" v="848774" />
		<tag k="ssr:type" v="adressenavn" />
	</node>
	<node lat="59.11012858625733" lon="10.911981833806136" id="-26029">
		<tag k="name" v="Skjelsbutangen" />
		<tag k="ssr:date" v="2019-12-27" />
		<tag k="ssr:gruppe" v="veg" />
		<tag k="ssr:hovedgruppe" v="infrastruktur" />
		<tag k="ssr:stedsnr" v="951276" />
		<tag k="ssr:type" v="adressenavn" />
	</node>
	<node lat="59.101917322901535" lon="10.873985093605722" id="-26030">
		<tag k="name" v="Stormmusbrinken" />
		<tag k="ssr:date" v="2019-12-27" />
		<tag k="ssr:gruppe" v="veg" />
		<tag k="ssr:hovedgruppe" v="infrastruktur" />
		<tag k="ssr:stedsnr" v="951446" />
		<tag k="ssr:type" v="adressenavn" />
	</node>
	<node lat="59.10389029163566" lon="10.87529130127028" id="-26031">
		<tag k="name" v="Åsen" />
		<tag k="ssr:date" v="2019-12-27" />
		<tag k="ssr:gruppe" v="veg" />
		<tag k="ssr:hovedgruppe" v="infrastruktur" />
		<tag k="ssr:stedsnr" v="951455" />
		<tag k="ssr:type" v="adressenavn" />
	</node>
	<node lat="59.10342258523866" lon="10.8711647155545" id="-26032">
		<tag k="name" v="Stormmusberget" />
		<tag k="ssr:date" v="2019-12-27" />
		<tag k="ssr:gruppe" v="veg" />
		<tag k="ssr:hovedgruppe" v="infrastruktur" />
		<tag k="ssr:stedsnr" v="951482" />
		<tag k="ssr:type" v="adressenavn" />
	</node>
	<node lat="59.085031065401054" lon="10.881213337617401" id="-26033">
		<tag k="name" v="Kjølnekløva" />
		<tag k="ssr:date" v="2019-12-27" />
		<tag k="ssr:gruppe" v="veg" />
		<tag k="ssr:hovedgruppe" v="infrastruktur" />
		<tag k="ssr:stedsnr" v="951490" />
		<tag k="ssr:type" v="adressenavn" />
	</node>
	<node lat="59.0044796202234" lon="11.07797976118796" id="-26034">
		<tag k="name" v="Sanderødveien" />
		<tag k="ssr:date" v="2019-12-27" />
		<tag k="ssr:gruppe" v="veg" />
		<tag k="ssr:hovedgruppe" v="infrastruktur" />
		<tag k="ssr:stedsnr" v="952522" />
		<tag k="ssr:type" v="adressenavn" />
	</node>
	<node lat="59.07579444063756" lon="10.967911102586058" id="-26060">
		<tag k="alt_name" v="Kuskjær" />
		<tag k="name" v="Kuskjær lykt" />
		<tag k="ssr:date" v="2019-12-27" />
		<tag k="ssr:gruppe" v="navigasjon" />
		<tag k="ssr:hovedgruppe" v="infrastruktur" />
		<tag k="ssr:stedsnr" v="964854" />
		<tag k="ssr:type" v="fyrlykt" />
	</node>
	<node lat="59.0712666667464" lon="10.865833340962382" id="-26063">
		<tag k="alt_name" v="Utgårdskilen" />
		<tag k="name" v="Utgårdskilen lykt" />
		<tag k="ssr:date" v="2019-12-27" />
		<tag k="ssr:gruppe" v="navigasjon" />
		<tag k="ssr:hovedgruppe" v="infrastruktur" />
		<tag k="ssr:stedsnr" v="964866" />
		<tag k="ssr:type" v="fyrlykt" />
	</node>
	<node lat="59.01323888832639" lon="11.059088895522134" id="-26066">
		<tag k="alt_name" v="Sauholmen" />
		<tag k="name" v="Sauholmen lykt" />
		<tag k="ssr:date" v="2019-12-27" />
		<tag k="ssr:gruppe" v="navigasjon" />
		<tag k="ssr:hovedgruppe" v="infrastruktur" />
		<tag k="ssr:stedsnr" v="964878" />
		<tag k="ssr:type" v="fyrlykt" />
	</node>
	<node lat="59.01406388832301" lon="11.044522229158897" id="-26067">
		<tag k="alt_name" v="Børholmen" />
		<tag k="name" v="Børholmen lykt" />
		<tag k="ssr:date" v="2019-12-27" />
		<tag k="ssr:gruppe" v="navigasjon" />
		<tag k="ssr:hovedgruppe" v="infrastruktur" />
		<tag k="ssr:stedsnr" v="964879" />
		<tag k="ssr:type" v="fyrlykt" />
	</node>
	<node lat="59.022808224373236" lon="11.033395795702216" id="-26069">
		<tag k="name" v="Båthavna" />
		<tag k="ssr:date" v="2019-12-27" />
		<tag k="ssr:gruppe" v="veg" />
		<tag k="ssr:hovedgruppe" v="infrastruktur" />
		<tag k="ssr:stedsnr" v="967694" />
		<tag k="ssr:type" v="adressenavn" />
	</node>
	<node lat="59.10933038645692" lon="10.892425175787094" id="-26070">
		<tag k="name" v="Nestangen" />
		<tag k="ssr:date" v="2019-12-27" />
		<tag k="ssr:gruppe" v="veg" />
		<tag k="ssr:hovedgruppe" v="infrastruktur" />
		<tag k="ssr:stedsnr" v="968532" />
		<tag k="ssr:type" v="adressenavn" />
	</node>
	<node lat="59.07937628337505" lon="10.942755288366909" id="-26071">
		<tag k="name" v="Nordengveien" />
		<tag k="ssr:date" v="2019-12-27" />
		<tag k="ssr:gruppe" v="veg" />
		<tag k="ssr:hovedgruppe" v="infrastruktur" />
		<tag k="ssr:stedsnr" v="969761" />
		<tag k="ssr:type" v="adressenavn" />
	</node>
	<node lat="59.1156287373106" lon="10.8842123758683" id="-26074">
		<tag k="name" v="Lille Granholmen" />
		<tag k="ssr:date" v="2019-12-27" />
		<tag k="ssr:gruppe" v="veg" />
		<tag k="ssr:hovedgruppe" v="infrastruktur" />
		<tag k="ssr:stedsnr" v="978544" />
		<tag k="ssr:type" v="adressenavn" />
	</node>
	<node lat="59.05667373471691" lon="11.008947335565646" id="-26075">
		<tag k="name" v="Sandvadsvingen" />
		<tag k="ssr:date" v="2019-12-27" />
		<tag k="ssr:gruppe" v="veg" />
		<tag k="ssr:hovedgruppe" v="infrastruktur" />
		<tag k="ssr:stedsnr" v="978871" />
		<tag k="ssr:type" v="adressenavn" />
	</node>
	<node lat="59.04727169068956" lon="11.043729176076397" id="-26076">
		<tag k="name" v="Karvika" />
		<tag k="ssr:date" v="2019-12-27" />
		<tag k="ssr:gruppe" v="veg" />
		<tag k="ssr:hovedgruppe" v="infrastruktur" />
		<tag k="ssr:stedsnr" v="979236" />
		<tag k="ssr:type" v="adressenavn" />
	</node>
	<node lat="58.988176329301126" lon="10.922979096335254" id="-26077">
		<tag k="name" v="Alnevarden" />
		<tag k="ssr:date" v="2019-12-27" />
		<tag k="ssr:gruppe" v="navigasjon" />
		<tag k="ssr:hovedgruppe" v="infrastruktur" />
		<tag k="ssr:stedsnr" v="989616" />
		<tag k="ssr:type" v="sjøvarde" />
	</node>
	<node lat="58.97945598757546" lon="10.832125318635349" id="-26078">
		<tag k="name" v="Kuskjærvarden" />
		<tag k="ssr:date" v="2019-12-27" />
		<tag k="ssr:gruppe" v="navigasjon" />
		<tag k="ssr:hovedgruppe" v="infrastruktur" />
		<tag k="ssr:stedsnr" v="989620" />
		<tag k="ssr:type" v="sjøvarde" />
	</node>
	<node lat="59.09842443456982" lon="10.912530486208142" id="-26088">
		<tag k="name" v="Nordre Skjelsbu" />
		<tag k="ssr:date" v="2019-12-27" />
		<tag k="ssr:gruppe" v="veg" />
		<tag k="ssr:hovedgruppe" v="infrastruktur" />
		<tag k="ssr:stedsnr" v="1060124" />
		<tag k="ssr:type" v="adressenavn" />
	</node>
	<node lat="59.095868777902616" lon="10.940874148337954" id="-26089">
		<tag k="name" v="Østad" />
		<tag k="ssr:date" v="2019-12-27" />
		<tag k="ssr:gruppe" v="veg" />
		<tag k="ssr:hovedgruppe" v="infrastruktur" />
		<tag k="ssr:stedsnr" v="1060133" />
		<tag k="ssr:type" v="adressenavn" />
	</node>
	<node lat="59.04183810638718" lon="10.954009057976794" id="-26090">
		<tag k="name" v="Østre Vikerstøet" />
		<tag k="ssr:date" v="2019-12-27" />
		<tag k="ssr:gruppe" v="veg" />
		<tag k="ssr:hovedgruppe" v="infrastruktur" />
		<tag k="ssr:stedsnr" v="1060384" />
		<tag k="ssr:type" v="adressenavn" />
	</node>
	<node lat="59.07426042598422" lon="10.860117230893414" id="-26091">
		<tag k="name" v="Bastangen" />
		<tag k="ssr:date" v="2019-12-27" />
		<tag k="ssr:gruppe" v="veg" />
		<tag k="ssr:hovedgruppe" v="infrastruktur" />
		<tag k="ssr:stedsnr" v="1060386" />
		<tag k="ssr:type" v="adressenavn" />
	</node>
	<node lat="59.11337015328819" lon="10.898656423995277" id="-26092">
		<tag k="name" v="Latangen" />
		<tag k="ssr:date" v="2019-12-27" />
		<tag k="ssr:gruppe" v="veg" />
		<tag k="ssr:hovedgruppe" v="infrastruktur" />
		<tag k="ssr:stedsnr" v="1060388" />
		<tag k="ssr:type" v="adressenavn" />
	</node>
	<node lat="59.112946849367454" lon="10.896274895339793" id="-26093">
		<tag k="name" v="Belleville" />
		<tag k="ssr:date" v="2019-12-27" />
		<tag k="ssr:gruppe" v="veg" />
		<tag k="ssr:hovedgruppe" v="infrastruktur" />
		<tag k="ssr:stedsnr" v="1060389" />
		<tag k="ssr:type" v="adressenavn" />
	</node>
	<node lat="59.08157631698917" lon="11.071522897168038" id="-26094">
		<tag k="name" v="Bredvikstien" />
		<tag k="ssr:date" v="2019-12-27" />
		<tag k="ssr:gruppe" v="veg" />
		<tag k="ssr:hovedgruppe" v="infrastruktur" />
		<tag k="ssr:stedsnr" v="1060391" />
		<tag k="ssr:type" v="adressenavn" />
	</node>
	<node lat="58.99686195024544" lon="10.78234236102092" id="-26095">
		<tag k="name" v="Torbjørnskjær" />
		<tag k="ssr:date" v="2019-12-27" />
		<tag k="ssr:gruppe" v="veg" />
		<tag k="ssr:hovedgruppe" v="infrastruktur" />
		<tag k="ssr:stedsnr" v="1060393" />
		<tag k="ssr:type" v="adressenavn" />
	</node>
	<node lat="59.041407848221866" lon="10.953389731122787" id="-26096">
		<tag k="name" v="Vestre Vikerstøet" />
		<tag k="ssr:date" v="2019-12-27" />
		<tag k="ssr:gruppe" v="veg" />
		<tag k="ssr:hovedgruppe" v="infrastruktur" />
		<tag k="ssr:stedsnr" v="1060396" />
		<tag k="ssr:type" v="adressenavn" />
	</node>
	<node lat="59.02817456674123" lon="11.097985867092406" id="-26097">
		<tag k="name" v="Sildeholmen" />
		<tag k="ssr:date" v="2019-12-27" />
		<tag k="ssr:gruppe" v="veg" />
		<tag k="ssr:hovedgruppe" v="infrastruktur" />
		<tag k="ssr:stedsnr" v="1060399" />
		<tag k="ssr:type" v="adressenavn" />
	</node>
	<node lat="59.099140724954005" lon="10.913374559134438" id="-26098">
		<tag k="name" v="Knektemofjellet" />
		<tag k="ssr:date" v="2019-12-27" />
		<tag k="ssr:gruppe" v="veg" />
		<tag k="ssr:hovedgruppe" v="infrastruktur" />
		<tag k="ssr:stedsnr" v="1060401" />
		<tag k="ssr:type" v="adressenavn" />
	</node>
	<node lat="59.09667406380572" lon="10.911415308606443" id="-26099">
		<tag k="name" v="Humlegården" />
		<tag k="ssr:date" v="2019-12-27" />
		<tag k="ssr:gruppe" v="veg" />
		<tag k="ssr:hovedgruppe" v="infrastruktur" />
		<tag k="ssr:stedsnr" v="1060409" />
		<tag k="ssr:type" v="adressenavn" />
	</node>
	<node lat="59.10647539635942" lon="10.915945049238344" id="-26100">
		<tag k="name" v="Norderhaug" />
		<tag k="ssr:date" v="2019-12-27" />
		<tag k="ssr:gruppe" v="veg" />
		<tag k="ssr:hovedgruppe" v="infrastruktur" />
		<tag k="ssr:stedsnr" v="1060411" />
		<tag k="ssr:type" v="adressenavn" />
	</node>
	<node lat="59.09782301643019" lon="10.85063818847844" id="-26101">
		<tag k="name" v="Vellebufjellet" />
		<tag k="ssr:date" v="2019-12-27" />
		<tag k="ssr:gruppe" v="veg" />
		<tag k="ssr:hovedgruppe" v="infrastruktur" />
		<tag k="ssr:stedsnr" v="1060414" />
		<tag k="ssr:type" v="adressenavn" />
	</node>
	<node lat="59.08840837362245" lon="11.040428945628376" id="-26102">
		<tag k="name" v="Damholmene" />
		<tag k="ssr:date" v="2019-12-27" />
		<tag k="ssr:gruppe" v="veg" />
		<tag k="ssr:hovedgruppe" v="infrastruktur" />
		<tag k="ssr:stedsnr" v="1060416" />
		<tag k="ssr:type" v="adressenavn" />
	</node>
	<node lat="59.114094749171784" lon="10.878484718269265" id="-26103">
		<tag k="name" v="Bjerkholmene" />
		<tag k="ssr:date" v="2019-12-27" />
		<tag k="ssr:gruppe" v="veg" />
		<tag k="ssr:hovedgruppe" v="infrastruktur" />
		<tag k="ssr:stedsnr" v="1060421" />
		<tag k="ssr:type" v="adressenavn" />
	</node>
	<node lat="59.01386918746502" lon="11.068333048582279" id="-26104">
		<tag k="name" v="Salta" />
		<tag k="ssr:date" v="2019-12-27" />
		<tag k="ssr:gruppe" v="veg" />
		<tag k="ssr:hovedgruppe" v="infrastruktur" />
		<tag k="ssr:stedsnr" v="1060423" />
		<tag k="ssr:type" v="adressenavn" />
	</node>
	<node lat="59.02737496760746" lon="11.03393782877723" id="-26105">
		<tag k="name" v="Prinsebakken" />
		<tag k="ssr:date" v="2019-12-27" />
		<tag k="ssr:gruppe" v="veg" />
		<tag k="ssr:hovedgruppe" v="infrastruktur" />
		<tag k="ssr:stedsnr" v="1060425" />
		<tag k="ssr:type" v="adressenavn" />
	</node>
	<node lat="59.91168968762522" lon="10.758188226721538" id="-26106">
		<tag k="name" v="Viken fylke" />
		<tag k="ssr:date" v="2022-01-03" />
		<tag k="ssr:gruppe" v="administrativeIndelinger" />
		<tag k="ssr:hovedgruppe" v="offentligAdministrasjon" />
		<tag k="ssr:stedsnr" v="1074403" />
		<tag k="ssr:type" v="fylke" />
	</node>
	<node lat="59.10309115196502" lon="10.876050399767943" id="-26114">
		<tag k="name" v="Hestemyra" />
		<tag k="ssr:date" v="2022-04-29" />
		<tag k="ssr:gruppe" v="veg" />
		<tag k="ssr:hovedgruppe" v="infrastruktur" />
		<tag k="ssr:stedsnr" v="1085060" />
		<tag k="ssr:type" v="adressenavn" />
	</node>
</osm>
