<?xml version="1.0" encoding="UTF-8"?>
<osm version="0.6" generator="osmapis">
	<node id="31264151" lat="62.5681692" lon="7.6867621" version="11" timestamp="2022-08-09T17:22:13Z" changeset="124695813" uid="3497659" user="NKA">
		<tag k="name" v="Åndalsnes" />
		<tag k="name:ru" v="Ондалснес" />
		<tag k="place" v="town" />
		<tag k="population" v="2414" />
		<tag k="population:date" v="2021-01-01" />
		<tag k="ref:ssb_tettsted" v="6192" />
		<tag k="source:population" v="SSB - befolkning i tettstedet" />
		<tag k="ssr:stedsnr" v="254502" />
	</node>
	<node id="254495942" lat="62.5543499" lon="7.666124" version="8" timestamp="2022-08-09T17:22:13Z" changeset="124695813" uid="3497659" user="NKA">
		<tag k="name" v="Veblungsnes" />
		<tag k="place" v="quarter" />
		<tag k="ssr:stedsnr" v="801425" />
	</node>
	<node id="837453938" lat="62.253002" lon="7.9861716" version="4" timestamp="2022-08-09T17:22:13Z" changeset="124695813" uid="3497659" user="NKA">
		<tag k="historic" v="shieling" />
		<tag k="name" v="Kabben" />
		<tag k="place" v="hamlet" />
		<tag k="ssr:stedsnr" v="739143" />
	</node>
	<node id="919742578" lat="62.5864519" lon="7.4975358" version="3" timestamp="2022-08-09T17:22:13Z" changeset="124695813" uid="3497659" user="NKA">
		<tag k="name" v="Eidsbygda" />
		<tag k="place" v="village" />
		<tag k="ssr:stedsnr" v="618599" />
	</node>
	<node id="2116267584" lat="62.5778738" lon="7.7921823" version="5" timestamp="2022-08-09T17:22:13Z" changeset="124695813" uid="3497659" user="NKA">
		<tag k="name" v="Isfjorden" />
		<tag k="place" v="village" />
		<tag k="population" v="1313" />
		<tag k="population:date" v="2021-01-01" />
		<tag k="ref:ssb_tettsted" v="6191" />
		<tag k="source:population" v="SSB - befolkning i tettstedet" />
		<tag k="ssr:stedsnr" v="254301" />
	</node>
	<node id="3089335261" lat="62.3410333" lon="8.0528218" version="2" timestamp="2022-08-09T17:22:13Z" changeset="124695813" uid="3497659" user="NKA">
		<tag k="name" v="Sletta" />
		<tag k="place" v="hamlet" />
		<tag k="ssr:stedsnr" v="694995" />
	</node>
	<node id="3114451176" lat="62.6230516" lon="7.53811" version="3" timestamp="2022-08-09T17:22:13Z" changeset="124695813" uid="3497659" user="NKA">
		<tag k="name" v="Holmemstranda" />
		<tag k="place" v="hamlet" />
		<tag k="ssr:stedsnr" v="921685" />
	</node>
	<node id="3498025801" lat="62.330989" lon="8.0660241" version="2" timestamp="2022-08-09T17:22:13Z" changeset="124695813" uid="3497659" user="NKA">
		<tag k="name" v="Larsslættet" />
		<tag k="place" v="farm" />
		<tag k="ssr:stedsnr" v="436177" />
	</node>
	<node id="3498025802" lat="62.331382" lon="8.0595077" version="2" timestamp="2022-08-09T17:22:13Z" changeset="124695813" uid="3497659" user="NKA">
		<tag k="ele" v="427" />
		<tag k="historic" v="shieling" />
		<tag k="name" v="Slettalia" />
		<tag k="place" v="isolated_dwelling" />
		<tag k="ssr:stedsnr" v="253228" />
	</node>
	<node id="3503348326" lat="62.3223662" lon="8.0998189" version="2" timestamp="2022-08-09T17:22:13Z" changeset="124695813" uid="3497659" user="NKA">
		<tag k="historic" v="shieling" />
		<tag k="name" v="Fyklia" />
		<tag k="place" v="isolated_dwelling" />
		<tag k="ssr:stedsnr" v="375179" />
	</node>
	<node id="3503348327" lat="62.3257921" lon="8.0996842" version="2" timestamp="2022-08-09T17:22:13Z" changeset="124695813" uid="3497659" user="NKA">
		<tag k="historic" v="shieling" />
		<tag k="name" v="Kyllingsætrin" />
		<tag k="place" v="isolated_dwelling" />
		<tag k="ssr:stedsnr" v="921229" />
	</node>
	<node id="3503348329" lat="62.3216758" lon="8.1020515" version="2" timestamp="2022-08-09T17:22:13Z" changeset="124695813" uid="3497659" user="NKA">
		<tag k="historic" v="shieling" />
		<tag k="name" v="Raudstølsætrin" />
		<tag k="place" v="isolated_dwelling" />
		<tag k="ssr:stedsnr" v="72213" />
	</node>
	<node id="3503363403" lat="62.3177605" lon="8.106156" version="2" timestamp="2022-08-09T17:22:13Z" changeset="124695813" uid="3497659" user="NKA">
		<tag k="historic" v="shieling" />
		<tag k="name" v="Åmillan" />
		<tag k="place" v="locality" />
		<tag k="ssr:stedsnr" v="11198" />
	</node>
	<node id="3503385194" lat="62.3388335" lon="8.0646765" version="2" timestamp="2022-08-09T17:22:13Z" changeset="124695813" uid="3497659" user="NKA">
		<tag k="name" v="Kylling" />
		<tag k="place" v="farm" />
		<tag k="ssr:stedsnr" v="496210" />
	</node>
	<node id="3503385195" lat="62.3441417" lon="8.0609913" version="2" timestamp="2022-08-09T17:22:13Z" changeset="124695813" uid="3497659" user="NKA">
		<tag k="name" v="Lykkjesletta" />
		<tag k="place" v="hamlet" />
		<tag k="ssr:stedsnr" v="314059" />
	</node>
	<node id="3503385196" lat="62.3408618" lon="8.078555" version="2" timestamp="2022-08-09T17:22:13Z" changeset="124695813" uid="3497659" user="NKA">
		<tag k="historic" v="shieling" />
		<tag k="name" v="Plassasætra" />
		<tag k="place" v="isolated_dwelling" />
		<tag k="ssr:stedsnr" v="72198" />
	</node>
	<node id="3503385197" lat="62.3432861" lon="8.0629834" version="2" timestamp="2022-08-09T17:22:13Z" changeset="124695813" uid="3497659" user="NKA">
		<tag k="name" v="Plassen" />
		<tag k="place" v="farm" />
		<tag k="ssr:stedsnr" v="375162" />
	</node>
	<node id="3503385198" lat="62.3418946" lon="8.0610601" version="3" timestamp="2022-08-09T17:22:13Z" changeset="124695813" uid="3497659" user="NKA">
		<tag k="name" v="Verma" />
		<tag k="place" v="hamlet" />
		<tag k="ssr:stedsnr" v="253051" />
	</node>
	<node id="3503986329" lat="62.3616" lon="7.9583529" version="2" timestamp="2022-08-09T17:22:13Z" changeset="124695813" uid="3497659" user="NKA">
		<tag k="name" v="Grøfsa" />
		<tag k="place" v="locality" />
		<tag k="ssr:stedsnr" v="860052" />
	</node>
	<node id="3507736846" lat="62.3602467" lon="7.9851605" version="2" timestamp="2022-08-09T17:22:13Z" changeset="124695813" uid="3497659" user="NKA">
		<tag k="name" v="Vermedalssætran" />
		<tag k="place" v="isolated_dwelling" />
		<tag k="ssr:stedsnr" v="860054" />
	</node>
	<node id="3508791315" lat="62.3365139" lon="8.014464" version="2" timestamp="2022-08-09T17:22:13Z" changeset="124695813" uid="3497659" user="NKA">
		<tag k="historic" v="shieling" />
		<tag k="name" v="Evensætra" />
		<tag k="place" v="isolated_dwelling" />
		<tag k="ssr:stedsnr" v="921219" />
	</node>
	<node id="3508791316" lat="62.339866" lon="8.0410633" version="2" timestamp="2022-08-09T17:22:13Z" changeset="124695813" uid="3497659" user="NKA">
		<tag k="historic" v="shieling" />
		<tag k="name" v="Månasætra" />
		<tag k="place" v="isolated_dwelling" />
		<tag k="ssr:stedsnr" v="496214" />
	</node>
	<node id="3508791317" lat="62.3350528" lon="8.0338945" version="2" timestamp="2022-08-09T17:22:13Z" changeset="124695813" uid="3497659" user="NKA">
		<tag k="historic" v="shieling" />
		<tag k="name" v="Slettafjellsetra" />
		<tag k="place" v="isolated_dwelling" />
		<tag k="ssr:stedsnr" v="436187" />
	</node>
	<node id="3526558117" lat="62.4445142" lon="7.8395483" version="2" timestamp="2022-08-09T17:22:13Z" changeset="124695813" uid="3497659" user="NKA">
		<tag k="name" v="Alnestrøa" />
		<tag k="place" v="farm" />
		<tag k="ssr:stedsnr" v="72106" />
	</node>
	<node id="3526558118" lat="62.4788436" lon="7.7606794" version="2" timestamp="2022-08-09T17:22:13Z" changeset="124695813" uid="3497659" user="NKA">
		<tag k="name" v="Engan" />
		<tag k="place" v="isolated_dwelling" />
		<tag k="ssr:stedsnr" v="72074" />
	</node>
	<node id="3526558119" lat="62.4300251" lon="7.9698095" version="2" timestamp="2022-08-09T17:22:13Z" changeset="124695813" uid="3497659" user="NKA">
		<tag k="name" v="Flatmark" />
		<tag k="place" v="hamlet" />
		<tag k="ssr:stedsnr" v="11007" />
	</node>
	<node id="3526558121" lat="62.5270028" lon="7.7572189" version="2" timestamp="2022-08-09T17:22:13Z" changeset="124695813" uid="3497659" user="NKA">
		<tag k="name" v="Halsa" />
		<tag k="place" v="farm" />
		<tag k="ssr:stedsnr" v="922147" />
	</node>
	<node id="3526558122" lat="62.46939" lon="7.7990312" version="2" timestamp="2022-08-09T17:22:13Z" changeset="124695813" uid="3497659" user="NKA">
		<tag k="name" v="Horgheim" />
		<tag k="place" v="hamlet" />
		<tag k="ssr:stedsnr" v="72067" />
	</node>
	<node id="3526558124" lat="62.4693826" lon="7.7913671" version="2" timestamp="2022-08-09T17:22:13Z" changeset="124695813" uid="3497659" user="NKA">
		<tag k="name" v="Lyngheim" />
		<tag k="place" v="hamlet" />
		<tag k="ssr:stedsnr" v="618061" />
	</node>
	<node id="3526558126" lat="62.4512424" lon="7.834729" version="2" timestamp="2022-08-09T17:22:13Z" changeset="124695813" uid="3497659" user="NKA">
		<tag k="name" v="Marstein" />
		<tag k="place" v="hamlet" />
		<tag k="ssr:stedsnr" v="254082" />
	</node>
	<node id="3526558127" lat="62.4555583" lon="7.8272639" version="2" timestamp="2022-08-09T17:22:13Z" changeset="124695813" uid="3497659" user="NKA">
		<tag k="name" v="Marsteingjerdet" />
		<tag k="place" v="farm" />
		<tag k="ssr:stedsnr" v="314103" />
	</node>
	<node id="3526558129" lat="62.4636718" lon="7.8174967" version="2" timestamp="2022-08-09T17:22:13Z" changeset="124695813" uid="3497659" user="NKA">
		<tag k="name" v="Myrabø" />
		<tag k="place" v="hamlet" />
		<tag k="ssr:stedsnr" v="254065" />
	</node>
	<node id="3526558130" lat="62.4610753" lon="7.8170417" version="2" timestamp="2022-08-09T17:22:13Z" changeset="124695813" uid="3497659" user="NKA">
		<tag k="name" v="Myrabøhaugen" />
		<tag k="place" v="farm" />
		<tag k="ssr:stedsnr" v="147088" />
	</node>
	<node id="3526558131" lat="62.4572333" lon="7.8211056" version="2" timestamp="2022-08-09T17:22:13Z" changeset="124695813" uid="3497659" user="NKA">
		<tag k="name" v="Myrabølykkja" />
		<tag k="place" v="farm" />
		<tag k="ssr:stedsnr" v="254080" />
	</node>
	<node id="3526558132" lat="62.4322892" lon="7.8677793" version="2" timestamp="2022-08-09T17:22:13Z" changeset="124695813" uid="3497659" user="NKA">
		<tag k="name" v="Remmem" />
		<tag k="place" v="hamlet" />
		<tag k="ssr:stedsnr" v="618102" />
	</node>
	<node id="3526558133" lat="62.4661417" lon="7.8172917" version="2" timestamp="2022-08-09T17:22:13Z" changeset="124695813" uid="3497659" user="NKA">
		<tag k="name" v="Risen" />
		<tag k="place" v="farm" />
		<tag k="ssr:stedsnr" v="618080" />
	</node>
	<node id="3526558134" lat="62.4666856" lon="7.7943521" version="2" timestamp="2022-08-09T17:22:13Z" changeset="124695813" uid="3497659" user="NKA">
		<tag k="name" v="Rønningen" />
		<tag k="place" v="farm" />
		<tag k="ssr:stedsnr" v="314091" />
	</node>
	<node id="3526558135" lat="62.4301182" lon="7.9238819" version="2" timestamp="2022-08-09T17:22:13Z" changeset="124695813" uid="3497659" user="NKA">
		<tag k="name" v="Skiri" />
		<tag k="place" v="hamlet" />
		<tag k="ssr:stedsnr" v="72002" />
	</node>
	<node id="3526558136" lat="62.4293441" lon="7.9399342" version="2" timestamp="2022-08-09T17:22:13Z" changeset="124695813" uid="3497659" user="NKA">
		<tag k="name" v="Skirimoen" />
		<tag k="place" v="farm" />
		<tag k="ssr:stedsnr" v="876993" />
	</node>
	<node id="3526558138" lat="62.4772194" lon="7.7688196" version="2" timestamp="2022-08-09T17:22:13Z" changeset="124695813" uid="3497659" user="NKA">
		<tag k="name" v="Skjerveplassen" />
		<tag k="place" v="locality" />
		<tag k="ssr:stedsnr" v="133073" />
	</node>
	<node id="3526558139" lat="62.4603837" lon="7.8100515" version="2" timestamp="2022-08-09T17:22:13Z" changeset="124695813" uid="3497659" user="NKA">
		<tag k="name" v="Sælen" />
		<tag k="place" v="isolated_dwelling" />
		<tag k="ssr:stedsnr" v="921080" />
	</node>
	<node id="3526558140" lat="62.43445" lon="7.8742918" version="2" timestamp="2022-08-09T17:22:13Z" changeset="124695813" uid="3497659" user="NKA">
		<tag k="name" v="Søre Monge" />
		<tag k="place" v="farm" />
		<tag k="ssr:stedsnr" v="11091" />
	</node>
	<node id="3526558141" lat="62.523658" lon="7.7599287" version="2" timestamp="2022-08-09T17:22:13Z" changeset="124695813" uid="3497659" user="NKA">
		<tag k="name" v="Tomberg" />
		<tag k="place" v="hamlet" />
		<tag k="ssr:stedsnr" v="497143" />
	</node>
	<node id="3526558142" lat="62.435961" lon="7.8579179" version="2" timestamp="2022-08-09T17:22:13Z" changeset="124695813" uid="3497659" user="NKA">
		<tag k="name" v="Trøa" />
		<tag k="place" v="farm" />
		<tag k="ssr:stedsnr" v="375094" />
	</node>
	<node id="3526558143" lat="62.4416334" lon="7.841839" version="2" timestamp="2022-08-09T17:22:13Z" changeset="124695813" uid="3497659" user="NKA">
		<tag k="name" v="Trøa" />
		<tag k="place" v="farm" />
		<tag k="ssr:stedsnr" v="132099" />
	</node>
	<node id="3526558144" lat="62.5108972" lon="7.7667555" version="2" timestamp="2022-08-09T17:22:13Z" changeset="124695813" uid="3497659" user="NKA">
		<tag k="name" v="Venja" />
		<tag k="place" v="hamlet" />
		<tag k="ssr:stedsnr" v="861214" />
	</node>
	<node id="3526558145" lat="62.452775" lon="7.8321251" version="2" timestamp="2022-08-09T17:22:13Z" changeset="124695813" uid="3497659" user="NKA">
		<tag k="name" v="Vonheim" />
		<tag k="place" v="farm" />
		<tag k="ssr:stedsnr" v="618097" />
	</node>
	<node id="3526558146" lat="62.4375794" lon="7.8530001" version="2" timestamp="2022-08-09T17:22:13Z" changeset="124695813" uid="3497659" user="NKA">
		<tag k="name" v="Ytter-Monge" />
		<tag k="place" v="farm" />
		<tag k="ssr:stedsnr" v="496113" />
	</node>
	<node id="3719084664" lat="62.4471425" lon="7.4952787" version="2" timestamp="2022-08-09T17:22:13Z" changeset="124695813" uid="3497659" user="NKA">
		<tag k="name" v="Berill" />
		<tag k="place" v="hamlet" />
		<tag k="ssr:stedsnr" v="557960" />
	</node>
	<node id="3719084665" lat="62.4342912" lon="7.3948355" version="2" timestamp="2022-08-09T17:22:13Z" changeset="124695813" uid="3497659" user="NKA">
		<tag k="historic" v="shieling" />
		<tag k="name" v="Bøstølen" />
		<tag k="place" v="hamlet" />
		<tag k="ssr:stedsnr" v="556988" />
	</node>
	<node id="3719084666" lat="62.4545627" lon="7.5047447" version="2" timestamp="2022-08-09T17:22:13Z" changeset="124695813" uid="3497659" user="NKA">
		<tag k="name" v="Demdal" />
		<tag k="place" v="farm" />
		<tag k="ssr:stedsnr" v="496962" />
	</node>
	<node id="3719695627" lat="62.2723" lon="7.8084444" version="2" timestamp="2022-08-09T17:22:13Z" changeset="124695813" uid="3497659" user="NKA">
		<tag k="name" v="Trollstølen" />
		<tag k="place" v="isolated_dwelling" />
		<tag k="ssr:stedsnr" v="556275" />
	</node>
	<node id="3725391612" lat="62.5757805" lon="7.9982029" version="3" timestamp="2022-08-09T17:22:13Z" changeset="124695813" uid="3497659" user="NKA">
		<tag k="name" v="Stølen" />
		<tag k="place" v="isolated_dwelling" />
		<tag k="ssr:stedsnr" v="557149" />
	</node>
	<node id="3725434739" lat="62.5914778" lon="7.8905528" version="2" timestamp="2022-08-09T17:22:13Z" changeset="124695813" uid="3497659" user="NKA">
		<tag k="historic" v="shieling" />
		<tag k="name" v="Kavlisetra" />
		<tag k="place" v="isolated_dwelling" />
		<tag k="ssr:stedsnr" v="436290" />
	</node>
	<node id="3725434740" lat="62.7004055" lon="7.694765" version="2" timestamp="2022-08-09T17:22:13Z" changeset="124695813" uid="3497659" user="NKA">
		<tag k="name" v="Mittet" />
		<tag k="place" v="village" />
		<tag k="ssr:stedsnr" v="72679" />
	</node>
	<node id="3725434741" lat="62.6585195" lon="7.8017805" version="2" timestamp="2022-08-09T17:22:13Z" changeset="124695813" uid="3497659" user="NKA">
		<tag k="name" v="Skrokkensetra" />
		<tag k="place" v="isolated_dwelling" />
		<tag k="ssr:stedsnr" v="254242" />
	</node>
	<node id="3726654028" lat="62.5816417" lon="7.9929612" version="2" timestamp="2022-08-09T17:22:13Z" changeset="124695813" uid="3497659" user="NKA">
		<tag k="name" v="Rabben" />
		<tag k="place" v="isolated_dwelling" />
		<tag k="ssr:stedsnr" v="11152" />
	</node>
	<node id="3726780487" lat="62.5366437" lon="7.8291476" version="3" timestamp="2022-08-09T17:22:13Z" changeset="124695813" uid="3497659" user="NKA">
		<tag k="historic" v="shieling" />
		<tag k="name" v="Venjesdalssetra" />
		<tag k="place" v="hamlet" />
		<tag k="ssr:stedsnr" v="315145" />
	</node>
	<node id="6214191512" lat="62.5297441" lon="7.4382925" version="5" timestamp="2022-08-09T17:22:13Z" changeset="124695813" uid="3497659" user="NKA">
		<tag k="alt_name" v="Måndalen" />
		<tag k="name" v="Voll" />
		<tag k="place" v="hamlet" />
		<tag k="population" v="507" />
		<tag k="population:date" v="2021-01-01" />
		<tag k="ref:ssb_tettsted" v="6194" />
		<tag k="source:population" v="SSB - befolkning i tettstedet" />
		<tag k="ssr:stedsnr" v="315389" />
	</node>
	<node id="6216710669" lat="62.4985434" lon="7.5668545" version="2" timestamp="2022-08-09T17:22:13Z" changeset="124695813" uid="3497659" user="NKA">
		<tag k="name" v="Innfjorden" />
		<tag k="place" v="village" />
		<tag k="ssr:stedsnr" v="935390" />
	</node>
	<node id="6216715399" lat="62.6608262" lon="7.5016448" version="2" timestamp="2022-08-09T17:22:13Z" changeset="124695813" uid="3497659" user="NKA">
		<tag k="name" v="Åfarnes" />
		<tag k="place" v="village" />
		<tag k="ssr:stedsnr" v="497739" />
	</node>
	<node id="6640548301" lat="62.5866398" lon="7.5371083" version="2" timestamp="2022-01-26T07:34:57Z" changeset="116611763" uid="3497659" user="NKA">
		<tag k="junction" v="yes" />
		<tag k="name" v="Lerheimskiftet" />
		<tag k="ssr:stedsnr" v="580960" />
	</node>
	<node id="7102203028" lat="62.5330302" lon="7.6970367" version="4" timestamp="2022-08-09T17:22:13Z" changeset="124695813" uid="3497659" user="NKA">
		<tag k="name" v="Brønnsletta" />
		<tag k="place" v="quarter" />
		<tag k="population" v="239" />
		<tag k="population:date" v="2021-01-01" />
		<tag k="ref:ssb_tettsted" v="6193" />
		<tag k="source:population" v="SSB - befolkning i tettstedet" />
		<tag k="ssr:stedsnr" v="739404" />
	</node>
	<node id="7765128811" lat="62.5332583" lon="7.6000027" version="2" timestamp="2022-08-09T17:22:13Z" changeset="124695813" uid="3497659" user="NKA">
		<tag k="name" v="Grisetsetra" />
		<tag k="place" v="isolated_dwelling" />
		<tag k="ssr:stedsnr" v="133366" />
	</node>
	<node id="7795153642" lat="62.5062739" lon="7.3551028" version="2" timestamp="2022-08-09T17:22:13Z" changeset="124695813" uid="3497659" user="NKA">
		<tag k="name" v="Skare" />
		<tag k="place" v="hamlet" />
		<tag k="ssr:stedsnr" v="254351" />
	</node>
	<node id="7795488767" lat="62.4975255" lon="7.2986053" version="2" timestamp="2022-08-09T17:22:13Z" changeset="124695813" uid="3497659" user="NKA">
		<tag k="historic" v="shieling" />
		<tag k="name" v="Månvassetra" />
		<tag k="place" v="isolated_dwelling" />
		<tag k="ssr:stedsnr" v="193913" />
	</node>
	<node id="7801572966" lat="62.521136" lon="7.3904575" version="2" timestamp="2022-08-09T17:22:13Z" changeset="124695813" uid="3497659" user="NKA">
		<tag k="name" v="Ner-Bø" />
		<tag k="place" v="hamlet" />
		<tag k="ssr:stedsnr" v="749612" />
	</node>
	<node id="7801572967" lat="62.5233612" lon="7.3913055" version="2" timestamp="2022-08-09T17:22:13Z" changeset="124695813" uid="3497659" user="NKA">
		<tag k="name" v="Øver-Bø" />
		<tag k="place" v="farm" />
		<tag k="ssr:stedsnr" v="375368" />
	</node>
	<node id="7816904465" lat="62.5746999" lon="7.8167802" version="2" timestamp="2022-08-09T17:22:13Z" changeset="124695813" uid="3497659" user="NKA">
		<tag k="name" v="Grøtta" />
		<tag k="place" v="hamlet" />
		<tag k="ssr:stedsnr" v="193151" />
	</node>
	<node id="7821122343" lat="62.5311966" lon="7.9252612" version="2" timestamp="2022-08-09T17:22:13Z" changeset="124695813" uid="3497659" user="NKA">
		<tag k="name" v="Erstad" />
		<tag k="place" v="hamlet" />
		<tag k="ssr:stedsnr" v="400803" />
	</node>
	<node id="7914149916" lat="62.5785004" lon="7.7788091" version="2" timestamp="2022-08-09T17:22:13Z" changeset="124695813" uid="3497659" user="NKA">
		<tag k="name" v="Hagen" />
		<tag k="place" v="farm" />
		<tag k="ssr:stedsnr" v="800318" />
	</node>
	<node id="7914149917" lat="62.5783676" lon="7.7725793" version="2" timestamp="2022-08-09T17:22:13Z" changeset="124695813" uid="3497659" user="NKA">
		<tag k="name" v="Vølstad" />
		<tag k="place" v="hamlet" />
		<tag k="ssr:stedsnr" v="72310" />
	</node>
	<node id="7915684187" lat="62.5918287" lon="7.651102" version="2" timestamp="2022-08-09T17:22:13Z" changeset="124695813" uid="3497659" user="NKA">
		<tag k="historic" v="shieling" />
		<tag k="name" v="Storstølen" />
		<tag k="place" v="isolated_dwelling" />
		<tag k="ssr:stedsnr" v="740604" />
	</node>
	<node id="7918398570" lat="62.6185404" lon="7.7372223" version="2" timestamp="2022-08-09T17:22:13Z" changeset="124695813" uid="3497659" user="NKA">
		<tag k="historic" v="shieling" />
		<tag k="name" v="Ingridsetra" />
		<tag k="place" v="isolated_dwelling" />
		<tag k="ssr:stedsnr" v="618329" />
	</node>
	<node id="9943068628" lat="62.5981973" lon="7.7412334" version="1" timestamp="2022-08-09T17:22:13Z" changeset="124695813" uid="3497659" user="NKA">
		<tag k="historic" v="shieling" />
		<tag k="name" v="Breivikstølan" />
		<tag k="place" v="isolated_dwelling" />
		<tag k="ssr:stedsnr" v="461513" />
	</node>
	<node id="9943068629" lat="62.5727806" lon="7.8267501" version="1" timestamp="2022-08-09T17:22:13Z" changeset="124695813" uid="3497659" user="NKA">
		<tag k="name" v="Brekken" />
		<tag k="place" v="farm" />
		<tag k="ssr:stedsnr" v="946394" />
	</node>
	<node id="9943068630" lat="62.3657972" lon="8.0416222" version="1" timestamp="2022-08-09T17:22:13Z" changeset="124695813" uid="3497659" user="NKA">
		<tag k="name" v="Fossberget" />
		<tag k="place" v="farm" />
		<tag k="ssr:stedsnr" v="617052" />
	</node>
	<node id="9943068631" lat="62.5326185" lon="7.4682956" version="1" timestamp="2022-08-09T17:22:13Z" changeset="124695813" uid="3497659" user="NKA">
		<tag k="name" v="Oterholm" />
		<tag k="place" v="hamlet" />
		<tag k="ssr:stedsnr" v="922382" />
	</node>
	<node id="9943068632" lat="62.3736787" lon="8.03436" version="1" timestamp="2022-08-09T17:22:13Z" changeset="124695813" uid="3497659" user="NKA">
		<tag k="name" v="Sætra" />
		<tag k="place" v="farm" />
		<tag k="ssr:stedsnr" v="617038" />
	</node>
	<node id="9943068633" lat="62.5117564" lon="7.5352517" version="1" timestamp="2022-08-09T17:22:13Z" changeset="124695813" uid="3497659" user="NKA">
		<tag k="name" v="Set" />
		<tag k="place" v="farm" />
		<tag k="ssr:stedsnr" v="618364" />
	</node>
	<node id="9943068634" lat="62.4399944" lon="7.4412045" version="1" timestamp="2022-08-09T17:22:13Z" changeset="124695813" uid="3497659" user="NKA">
		<tag k="historic" v="shieling" />
		<tag k="name" v="Berillstølen" />
		<tag k="place" v="hamlet" />
		<tag k="ssr:stedsnr" v="617999" />
	</node>
	<node id="9943068635" lat="62.5822333" lon="7.8349778" version="1" timestamp="2022-08-09T17:22:13Z" changeset="124695813" uid="3497659" user="NKA">
		<tag k="name" v="Reiten" />
		<tag k="place" v="farm" />
		<tag k="ssr:stedsnr" v="278520" />
	</node>
	<node id="9943068636" lat="62.5812833" lon="7.4968862" version="1" timestamp="2022-08-09T17:22:13Z" changeset="124695813" uid="3497659" user="NKA">
		<tag k="name" v="Sundeplassen" />
		<tag k="place" v="locality" />
		<tag k="ssr:stedsnr" v="825586" />
	</node>
	<node id="9943068637" lat="62.5851306" lon="7.7658973" version="1" timestamp="2022-08-09T17:22:13Z" changeset="124695813" uid="3497659" user="NKA">
		<tag k="name" v="Breivikgjerdet" />
		<tag k="place" v="farm" />
		<tag k="ssr:stedsnr" v="219463" />
	</node>
	<node id="9943068638" lat="62.5849664" lon="7.7528228" version="1" timestamp="2022-08-09T17:22:13Z" changeset="124695813" uid="3497659" user="NKA">
		<tag k="alt_name" v="Breivika" />
		<tag k="name" v="Gamlegjerdet" />
		<tag k="place" v="farm" />
		<tag k="ssr:stedsnr" v="142811" />
	</node>
	<node id="9943068639" lat="62.4035578" lon="8.008861" version="1" timestamp="2022-08-09T17:22:13Z" changeset="124695813" uid="3497659" user="NKA">
		<tag k="name" v="Gravdehaug" />
		<tag k="place" v="locality" />
		<tag k="ssr:stedsnr" v="947873" />
	</node>
	<node id="9943068640" lat="62.6307277" lon="7.495589" version="1" timestamp="2022-08-09T17:22:13Z" changeset="124695813" uid="3497659" user="NKA">
		<tag k="name" v="Korsehagen" />
		<tag k="place" v="farm" />
		<tag k="ssr:stedsnr" v="800665" />
	</node>
	<node id="9943068641" lat="62.504582" lon="7.5249729" version="1" timestamp="2022-08-09T17:22:13Z" changeset="124695813" uid="3497659" user="NKA">
		<tag k="historic" v="shieling" />
		<tag k="name" v="Stokksetra" />
		<tag k="place" v="isolated_dwelling" />
		<tag k="ssr:stedsnr" v="557365" />
	</node>
	<node id="9943068642" lat="62.293372" lon="7.8837758" version="1" timestamp="2022-08-09T17:22:13Z" changeset="124695813" uid="3497659" user="NKA">
		<tag k="name" v="Alnesherbørget" />
		<tag k="place" v="locality" />
		<tag k="ssr:stedsnr" v="556257" />
	</node>
	<node id="9943068643" lat="62.5331365" lon="7.445068" version="1" timestamp="2022-08-09T17:22:13Z" changeset="124695813" uid="3497659" user="NKA">
		<tag k="alt_name" v="Voll" />
		<tag k="name" v="Måndalen" />
		<tag k="place" v="village" />
		<tag k="ssr:stedsnr" v="207819" />
	</node>
	<node id="9943068644" lat="62.4626262" lon="7.8046602" version="1" timestamp="2022-08-09T17:22:13Z" changeset="124695813" uid="3497659" user="NKA">
		<tag k="name" v="Lyngheimsgjerdet" />
		<tag k="place" v="farm" />
		<tag k="ssr:stedsnr" v="314092" />
	</node>
	<node id="9943068645" lat="62.5767772" lon="7.5387745" version="1" timestamp="2022-08-09T17:22:13Z" changeset="124695813" uid="3497659" user="NKA">
		<tag k="name" v="Hamre" />
		<tag k="place" v="farm" />
		<tag k="ssr:stedsnr" v="800514" />
	</node>
	<node id="9943068646" lat="62.5201063" lon="7.3975801" version="1" timestamp="2022-08-09T17:22:13Z" changeset="124695813" uid="3497659" user="NKA">
		<tag k="name" v="Bruaset" />
		<tag k="place" v="hamlet" />
		<tag k="ssr:stedsnr" v="132385" />
	</node>
	<node id="9943068647" lat="62.6335081" lon="7.4907747" version="1" timestamp="2022-08-09T17:22:13Z" changeset="124695813" uid="3497659" user="NKA">
		<tag k="alt_name" v="Bakåkrane" />
		<tag k="name" v="Bakkåkran" />
		<tag k="place" v="farm" />
		<tag k="ssr:stedsnr" v="739658" />
	</node>
	<node id="9943068648" lat="62.5832917" lon="7.4954194" version="1" timestamp="2022-08-09T17:22:13Z" changeset="124695813" uid="3497659" user="NKA">
		<tag k="name" v="Øvre Frisvoll" />
		<tag k="place" v="farm" />
		<tag k="ssr:stedsnr" v="748646" />
	</node>
	<node id="9943068649" lat="62.5104945" lon="7.5134417" version="1" timestamp="2022-08-09T17:22:13Z" changeset="124695813" uid="3497659" user="NKA">
		<tag k="historic" v="shieling" />
		<tag k="name" v="Setsetra" />
		<tag k="place" v="isolated_dwelling" />
		<tag k="ssr:stedsnr" v="436370" />
	</node>
	<node id="9943068650" lat="62.5296429" lon="7.4238635" version="1" timestamp="2022-08-09T17:22:13Z" changeset="124695813" uid="3497659" user="NKA">
		<tag k="name" v="Skeide" />
		<tag k="place" v="hamlet" />
		<tag k="ssr:stedsnr" v="73423" />
	</node>
	<node id="9943068651" lat="62.5906333" lon="7.439614" version="1" timestamp="2022-08-09T17:22:13Z" changeset="124695813" uid="3497659" user="NKA">
		<tag k="name" v="Liastølen" />
		<tag k="place" v="locality" />
		<tag k="ssr:stedsnr" v="157581" />
	</node>
	<node id="9943068652" lat="62.4449865" lon="7.8292591" version="1" timestamp="2022-08-09T17:22:13Z" changeset="124695813" uid="3497659" user="NKA">
		<tag k="name" v="Alnes" />
		<tag k="place" v="hamlet" />
		<tag k="ssr:stedsnr" v="375091" />
	</node>
	<node id="9943068653" lat="62.616986" lon="7.5440012" version="1" timestamp="2022-08-09T17:22:13Z" changeset="124695813" uid="3497659" user="NKA">
		<tag k="name" v="Seljevollan" />
		<tag k="place" v="hamlet" />
		<tag k="ssr:stedsnr" v="618556" />
	</node>
	<node id="9943068654" lat="62.3187121" lon="8.1061653" version="1" timestamp="2022-08-09T17:22:13Z" changeset="124695813" uid="3497659" user="NKA">
		<tag k="historic" v="shieling" />
		<tag k="name" v="Åmillosætra" />
		<tag k="place" v="isolated_dwelling" />
		<tag k="ssr:stedsnr" v="946372" />
	</node>
	<node id="9943068655" lat="62.5705916" lon="7.5989474" version="1" timestamp="2022-08-09T17:22:13Z" changeset="124695813" uid="3497659" user="NKA">
		<tag k="name" v="Litlehjem" />
		<tag k="place" v="farm" />
		<tag k="ssr:stedsnr" v="679494" />
	</node>
	<node id="9943068656" lat="62.5805186" lon="7.5524802" version="1" timestamp="2022-08-09T17:22:13Z" changeset="124695813" uid="3497659" user="NKA">
		<tag k="name" v="Ytre Siem" />
		<tag k="place" v="farm" />
		<tag k="ssr:stedsnr" v="580753" />
	</node>
	<node id="9943068657" lat="62.5797445" lon="7.8349027" version="1" timestamp="2022-08-09T17:22:13Z" changeset="124695813" uid="3497659" user="NKA">
		<tag k="name" v="Kavli" />
		<tag k="place" v="hamlet" />
		<tag k="ssr:stedsnr" v="582025" />
	</node>
	<node id="9943068658" lat="62.2901106" lon="7.9342921" version="1" timestamp="2022-08-09T17:22:13Z" changeset="124695813" uid="3497659" user="NKA">
		<tag k="name" v="Grovaskarsbu" />
		<tag k="place" v="locality" />
		<tag k="ssr:stedsnr" v="975752" />
	</node>
	<node id="9943068659" lat="62.3068194" lon="8.1282944" version="1" timestamp="2022-08-09T17:22:13Z" changeset="124695813" uid="3497659" user="NKA">
		<tag k="historic" v="shieling" />
		<tag k="name" v="Gammelstølen" />
		<tag k="place" v="isolated_dwelling" />
		<tag k="ssr:stedsnr" v="825456" />
	</node>
	<node id="9943068660" lat="62.5692722" lon="7.6270333" version="1" timestamp="2022-08-09T17:22:13Z" changeset="124695813" uid="3497659" user="NKA">
		<tag k="name" v="Vika" />
		<tag k="place" v="farm" />
		<tag k="ssr:stedsnr" v="497512" />
	</node>
	<node id="9943068661" lat="62.3043555" lon="8.1145084" version="1" timestamp="2022-08-09T17:22:13Z" changeset="124695813" uid="3497659" user="NKA">
		<tag k="name" v="Brustaua" />
		<tag k="place" v="farm" />
		<tag k="ssr:stedsnr" v="739218" />
	</node>
	<node id="9943068662" lat="62.3078642" lon="8.0998587" version="1" timestamp="2022-08-09T17:22:13Z" changeset="124695813" uid="3497659" user="NKA">
		<tag k="name" v="Brulia" />
		<tag k="place" v="hamlet" />
		<tag k="ssr:stedsnr" v="739217" />
	</node>
	<node id="9943068663" lat="62.6480972" lon="7.5876223" version="1" timestamp="2022-08-09T17:22:13Z" changeset="124695813" uid="3497659" user="NKA">
		<tag k="name" v="Vassetra" />
		<tag k="place" v="isolated_dwelling" />
		<tag k="ssr:stedsnr" v="376657" />
	</node>
	<node id="9943068664" lat="62.5706442" lon="7.5702792" version="1" timestamp="2022-08-09T17:22:13Z" changeset="124695813" uid="3497659" user="NKA">
		<tag k="name" v="Nebba" />
		<tag k="place" v="farm" />
		<tag k="ssr:stedsnr" v="436513" />
	</node>
	<node id="9943068665" lat="62.6210139" lon="7.4706807" version="1" timestamp="2022-08-09T17:22:13Z" changeset="124695813" uid="3497659" user="NKA">
		<tag k="name" v="Bakketun" />
		<tag k="place" v="farm" />
		<tag k="ssr:stedsnr" v="497646" />
	</node>
	<node id="9943068666" lat="62.3632606" lon="8.0407266" version="1" timestamp="2022-08-09T17:22:13Z" changeset="124695813" uid="3497659" user="NKA">
		<tag k="name" v="Stavem" />
		<tag k="place" v="hamlet" />
		<tag k="ssr:stedsnr" v="617051" />
	</node>
	<node id="9943068667" lat="62.6435654" lon="7.5112252" version="1" timestamp="2022-08-09T17:22:13Z" changeset="124695813" uid="3497659" user="NKA">
		<tag k="name" v="Krokset" />
		<tag k="place" v="hamlet" />
		<tag k="ssr:stedsnr" v="436623" />
	</node>
	<node id="9943068668" lat="62.3230306" lon="8.1807889" version="1" timestamp="2022-08-09T17:22:13Z" changeset="124695813" uid="3497659" user="NKA">
		<tag k="name" v="Bjarnebua" />
		<tag k="place" v="isolated_dwelling" />
		<tag k="ssr:stedsnr" v="678227" />
	</node>
	<node id="9943068669" lat="62.6143389" lon="7.545914" version="1" timestamp="2022-08-09T17:22:13Z" changeset="124695813" uid="3497659" user="NKA">
		<tag k="name" v="Holmemhaugen" />
		<tag k="place" v="farm" />
		<tag k="ssr:stedsnr" v="336594" />
	</node>
	<node id="9943068670" lat="62.5604111" lon="7.8325782" version="1" timestamp="2022-08-09T17:22:13Z" changeset="124695813" uid="3497659" user="NKA">
		<tag k="name" v="Nedre Remmen" />
		<tag k="place" v="farm" />
		<tag k="ssr:stedsnr" v="400760" />
	</node>
	<node id="9943068671" lat="62.4760028" lon="7.6645667" version="1" timestamp="2022-08-09T17:22:13Z" changeset="124695813" uid="3497659" user="NKA">
		<tag k="name" v="Knutsetra" />
		<tag k="place" v="locality" />
		<tag k="ssr:stedsnr" v="436901" />
	</node>
	<node id="9943068672" lat="62.5265694" lon="7.4190528" version="1" timestamp="2022-08-09T17:22:13Z" changeset="124695813" uid="3497659" user="NKA">
		<tag k="name" v="Nedre Roknem" />
		<tag k="old_name" v="Roknem, nedre" />
		<tag k="place" v="farm" />
		<tag k="ssr:stedsnr" v="254386" />
	</node>
	<node id="9943068673" lat="62.5805506" lon="7.562203" version="1" timestamp="2022-08-09T17:22:13Z" changeset="124695813" uid="3497659" user="NKA">
		<tag k="name" v="Indre Siem" />
		<tag k="place" v="farm" />
		<tag k="ssr:stedsnr" v="337752" />
	</node>
	<node id="9943068674" lat="62.5639945" lon="7.5954056" version="1" timestamp="2022-08-09T17:22:13Z" changeset="124695813" uid="3497659" user="NKA">
		<tag k="name" v="Neset" />
		<tag k="place" v="farm" />
		<tag k="ssr:stedsnr" v="254510" />
	</node>
	<node id="9943068675" lat="62.30765" lon="7.8173056" version="1" timestamp="2022-08-09T17:22:13Z" changeset="124695813" uid="3497659" user="NKA">
		<tag k="name" v="Jervebua" />
		<tag k="place" v="isolated_dwelling" />
		<tag k="ssr:stedsnr" v="390987" />
	</node>
	<node id="9943068676" lat="62.6108096" lon="7.549726" version="1" timestamp="2022-08-09T17:22:13Z" changeset="124695813" uid="3497659" user="NKA">
		<tag k="alt_name" v="Øvrebø" />
		<tag k="name" v="Øverbøen" />
		<tag k="place" v="farm" />
		<tag k="ssr:stedsnr" v="375526" />
	</node>
	<node id="9943068677" lat="62.5976472" lon="7.5058334" version="1" timestamp="2022-08-09T17:22:13Z" changeset="124695813" uid="3497659" user="NKA">
		<tag k="name" v="Eidsgjerdet" />
		<tag k="place" v="farm" />
		<tag k="ssr:stedsnr" v="922564" />
	</node>
	<node id="9943068678" lat="62.5362395" lon="7.4297818" version="1" timestamp="2022-08-09T17:22:13Z" changeset="124695813" uid="3497659" user="NKA">
		<tag k="name" v="Sæbø" />
		<tag k="place" v="hamlet" />
		<tag k="ssr:stedsnr" v="254396" />
	</node>
	<node id="9943068679" lat="62.5291278" lon="7.3835918" version="1" timestamp="2022-08-09T17:22:13Z" changeset="124695813" uid="3497659" user="NKA">
		<tag k="historic" v="shieling" />
		<tag k="name" v="Bøstølen" />
		<tag k="place" v="isolated_dwelling" />
		<tag k="ssr:stedsnr" v="157509" />
	</node>
	<node id="9943068680" lat="62.64185" lon="7.6137473" version="1" timestamp="2022-08-09T17:22:13Z" changeset="124695813" uid="3497659" user="NKA">
		<tag k="name" v="Nessetra" />
		<tag k="place" v="isolated_dwelling" />
		<tag k="ssr:stedsnr" v="315641" />
	</node>
	<node id="9943068681" lat="62.5333377" lon="7.5116498" version="1" timestamp="2022-08-09T17:22:13Z" changeset="124695813" uid="3497659" user="NKA">
		<tag k="alt_name" v="Sevik;Søvik" />
		<tag k="name" v="Søvika" />
		<tag k="place" v="hamlet" />
		<tag k="ssr:stedsnr" v="801397" />
	</node>
	<node id="9943068682" lat="62.6101334" lon="7.6874806" version="1" timestamp="2022-08-09T17:22:13Z" changeset="124695813" uid="3497659" user="NKA">
		<tag k="historic" v="shieling" />
		<tag k="name" v="Norvikstølen" />
		<tag k="old_name" v="Nordvikstølen" />
		<tag k="place" v="isolated_dwelling" />
		<tag k="ssr:stedsnr" v="254546" />
	</node>
	<node id="9943068683" lat="62.5938611" lon="7.6313694" version="1" timestamp="2022-08-09T17:22:13Z" changeset="124695813" uid="3497659" user="NKA">
		<tag k="historic" v="shieling" />
		<tag k="name" v="Kjerringhaugsetra" />
		<tag k="place" v="isolated_dwelling" />
		<tag k="ssr:stedsnr" v="315593" />
	</node>
	<node id="9943068684" lat="62.5845028" lon="7.6721807" version="1" timestamp="2022-08-09T17:22:13Z" changeset="124695813" uid="3497659" user="NKA">
		<tag k="historic" v="shieling" />
		<tag k="name" v="Fonnasetra" />
		<tag k="place" v="isolated_dwelling" />
		<tag k="ssr:stedsnr" v="254474" />
	</node>
	<node id="9943068685" lat="62.5293877" lon="7.6945987" version="1" timestamp="2022-08-09T17:22:13Z" changeset="124695813" uid="3497659" user="NKA">
		<tag k="name" v="Grytten" />
		<tag k="place" v="farm" />
		<tag k="ssr:stedsnr" v="254366" />
	</node>
	<node id="9943068686" lat="62.5025446" lon="7.5701323" version="1" timestamp="2022-08-09T17:22:13Z" changeset="124695813" uid="3497659" user="NKA">
		<tag k="name" v="Hjellen" />
		<tag k="place" v="hamlet" />
		<tag k="ssr:stedsnr" v="739362" />
	</node>
	<node id="9943068687" lat="62.5860723" lon="7.5991167" version="1" timestamp="2022-08-09T17:22:13Z" changeset="124695813" uid="3497659" user="NKA">
		<tag k="alt_name" v="Gjerdsetsetra" />
		<tag k="historic" v="shieling" />
		<tag k="name" v="Gjerdsetsetran" />
		<tag k="place" v="isolated_dwelling" />
		<tag k="ssr:stedsnr" v="618498" />
	</node>
	<node id="9943068688" lat="62.4811611" lon="7.5404139" version="1" timestamp="2022-08-09T17:22:13Z" changeset="124695813" uid="3497659" user="NKA">
		<tag k="name" v="Nyheim" />
		<tag k="place" v="farm" />
		<tag k="ssr:stedsnr" v="739882" />
	</node>
	<node id="9943068689" lat="62.6077528" lon="7.5471723" version="1" timestamp="2022-08-09T17:22:13Z" changeset="124695813" uid="3497659" user="NKA">
		<tag k="name" v="Nygarden" />
		<tag k="place" v="farm" />
		<tag k="ssr:stedsnr" v="95746" />
	</node>
	<node id="9943068690" lat="62.5812888" lon="7.5089111" version="1" timestamp="2022-08-09T17:22:13Z" changeset="124695813" uid="3497659" user="NKA">
		<tag k="name" v="Langset" />
		<tag k="place" v="locality" />
		<tag k="ssr:stedsnr" v="946594" />
	</node>
	<node id="9943068691" lat="62.5077625" lon="7.5738232" version="1" timestamp="2022-08-09T17:22:13Z" changeset="124695813" uid="3497659" user="NKA">
		<tag k="name" v="Griset" />
		<tag k="place" v="hamlet" />
		<tag k="ssr:stedsnr" v="497372" />
	</node>
	<node id="9943068692" lat="62.4924481" lon="7.5585897" version="1" timestamp="2022-08-09T17:22:13Z" changeset="124695813" uid="3497659" user="NKA">
		<tag k="name" v="Ner-Bø" />
		<tag k="place" v="hamlet" />
		<tag k="ssr:stedsnr" v="446612" />
	</node>
	<node id="9943068693" lat="62.5052639" lon="7.5698" version="1" timestamp="2022-08-09T17:22:13Z" changeset="124695813" uid="3497659" user="NKA">
		<tag k="name" v="Bakken" />
		<tag k="place" v="farm" />
		<tag k="ssr:stedsnr" v="436357" />
	</node>
	<node id="9943068694" lat="62.6541972" lon="7.5009334" version="1" timestamp="2022-08-09T17:22:13Z" changeset="124695813" uid="3497659" user="NKA">
		<tag k="name" v="Lybekk" />
		<tag k="place" v="farm" />
		<tag k="ssr:stedsnr" v="703104" />
	</node>
	<node id="9943068695" lat="62.5755948" lon="7.6569186" version="1" timestamp="2022-08-09T17:22:13Z" changeset="124695813" uid="3497659" user="NKA">
		<tag k="name" v="Hegerholmen" />
		<tag k="place" v="farm" />
		<tag k="ssr:stedsnr" v="36562" />
	</node>
	<node id="9943068696" lat="62.5640867" lon="7.5844007" version="1" timestamp="2022-08-09T17:22:13Z" changeset="124695813" uid="3497659" user="NKA">
		<tag k="name" v="Monsås" />
		<tag k="place" v="hamlet" />
		<tag k="ssr:stedsnr" v="81553" />
	</node>
	<node id="9943068697" lat="62.6269004" lon="7.4898946" version="1" timestamp="2022-08-09T17:22:13Z" changeset="124695813" uid="3497659" user="NKA">
		<tag k="name" v="Myrvang" />
		<tag k="place" v="farm" />
		<tag k="ssr:stedsnr" v="679644" />
	</node>
	<node id="9943068698" lat="62.6097694" lon="7.5452603" version="1" timestamp="2022-08-09T17:22:13Z" changeset="124695813" uid="3497659" user="NKA">
		<tag k="name" v="Holmem" />
		<tag k="place" v="hamlet" />
		<tag k="ssr:stedsnr" v="981925" />
	</node>
	<node id="9943068699" lat="62.5603405" lon="7.567952" version="1" timestamp="2022-08-09T17:22:13Z" changeset="124695813" uid="3497659" user="NKA">
		<tag k="name" v="Øverhagen" />
		<tag k="place" v="isolated_dwelling" />
		<tag k="ssr:stedsnr" v="400129" />
	</node>
	<node id="9943068700" lat="62.6063583" lon="7.6557916" version="1" timestamp="2022-08-09T17:22:13Z" changeset="124695813" uid="3497659" user="NKA">
		<tag k="historic" v="shieling" />
		<tag k="name" v="Langelisetra" />
		<tag k="place" v="isolated_dwelling" />
		<tag k="ssr:stedsnr" v="72582" />
	</node>
	<node id="9943068701" lat="62.6290637" lon="7.5263206" version="1" timestamp="2022-08-09T17:22:13Z" changeset="124695813" uid="3497659" user="NKA">
		<tag k="name" v="Nerhagen" />
		<tag k="place" v="farm" />
		<tag k="ssr:stedsnr" v="579642" />
	</node>
	<node id="9943068702" lat="62.5701277" lon="7.5205028" version="1" timestamp="2022-08-09T17:22:13Z" changeset="124695813" uid="3497659" user="NKA">
		<tag k="name" v="Gamlesetra" />
		<tag k="place" v="locality" />
		<tag k="ssr:stedsnr" v="398561" />
	</node>
	<node id="9943068703" lat="62.5906583" lon="7.5804195" version="1" timestamp="2022-08-09T17:22:13Z" changeset="124695813" uid="3497659" user="NKA">
		<tag k="historic" v="shieling" />
		<tag k="name" v="Hamresetra" />
		<tag k="place" v="isolated_dwelling" />
		<tag k="ssr:stedsnr" v="73632" />
	</node>
	<node id="9943068704" lat="62.588975" lon="7.5745028" version="1" timestamp="2022-08-09T17:22:13Z" changeset="124695813" uid="3497659" user="NKA">
		<tag k="historic" v="shieling" />
		<tag k="name" v="Siemsetra" />
		<tag k="place" v="isolated_dwelling" />
		<tag k="ssr:stedsnr" v="72480" />
	</node>
	<node id="9943068705" lat="62.5936173" lon="7.5027983" version="1" timestamp="2022-08-09T17:22:13Z" changeset="124695813" uid="3497659" user="NKA">
		<tag k="name" v="Lykkja" />
		<tag k="place" v="farm" />
		<tag k="ssr:stedsnr" v="521576" />
	</node>
	<node id="9943068706" lat="62.503075" lon="7.7708028" version="1" timestamp="2022-08-09T17:22:13Z" changeset="124695813" uid="3497659" user="NKA">
		<tag k="name" v="Venjastua" />
		<tag k="place" v="farm" />
		<tag k="ssr:stedsnr" v="436218" />
	</node>
	<node id="9943068707" lat="62.5617111" lon="7.5712362" version="1" timestamp="2022-08-09T17:22:13Z" changeset="124695813" uid="3497659" user="NKA">
		<tag k="name" v="Dalen" />
		<tag k="place" v="farm" />
		<tag k="ssr:stedsnr" v="72536" />
	</node>
	<node id="9943068708" lat="62.5881344" lon="7.461566" version="1" timestamp="2022-08-09T17:22:13Z" changeset="124695813" uid="3497659" user="NKA">
		<tag k="name" v="Norvika" />
		<tag k="place" v="hamlet" />
		<tag k="ssr:stedsnr" v="375582" />
	</node>
	<node id="9943068709" lat="62.6214017" lon="7.4792812" version="1" timestamp="2022-08-09T17:22:13Z" changeset="124695813" uid="3497659" user="NKA">
		<tag k="name" v="Lykkjemya" />
		<tag k="place" v="farm" />
		<tag k="ssr:stedsnr" v="519590" />
	</node>
	<node id="9943068710" lat="62.6060853" lon="7.5484839" version="1" timestamp="2022-08-09T17:22:13Z" changeset="124695813" uid="3497659" user="NKA">
		<tag k="name" v="Innergarden" />
		<tag k="place" v="farm" />
		<tag k="ssr:stedsnr" v="944783" />
	</node>
	<node id="9943068711" lat="62.6651957" lon="7.5196871" version="1" timestamp="2022-08-09T17:22:13Z" changeset="124695813" uid="3497659" user="NKA">
		<tag k="name" v="Einen" />
		<tag k="place" v="farm" />
		<tag k="ssr:stedsnr" v="557720" />
	</node>
	<node id="9943068712" lat="62.5082929" lon="7.5353797" version="1" timestamp="2022-08-09T17:22:13Z" changeset="124695813" uid="3497659" user="NKA">
		<tag k="name" v="Lia" />
		<tag k="place" v="farm" />
		<tag k="ssr:stedsnr" v="315359" />
	</node>
	<node id="9943068713" lat="62.603487" lon="7.5469191" version="1" timestamp="2022-08-09T17:22:13Z" changeset="124695813" uid="3497659" user="NKA">
		<tag k="name" v="Nyheim" />
		<tag k="place" v="farm" />
		<tag k="ssr:stedsnr" v="944782" />
	</node>
	<node id="9943068714" lat="62.6591389" lon="7.5020529" version="1" timestamp="2022-08-09T17:22:13Z" changeset="124695813" uid="3497659" user="NKA">
		<tag k="name" v="Løken" />
		<tag k="place" v="farm" />
		<tag k="ssr:stedsnr" v="521095" />
	</node>
	<node id="9943068715" lat="62.5774805" lon="7.6662445" version="1" timestamp="2022-08-09T17:22:13Z" changeset="124695813" uid="3497659" user="NKA">
		<tag k="name" v="Sjøløypet" />
		<tag k="place" v="farm" />
		<tag k="ssr:stedsnr" v="11517" />
	</node>
	<node id="9943068716" lat="62.6073777" lon="7.6432944" version="1" timestamp="2022-08-09T17:22:13Z" changeset="124695813" uid="3497659" user="NKA">
		<tag k="historic" v="shieling" />
		<tag k="name" v="Selsetra" />
		<tag k="place" v="isolated_dwelling" />
		<tag k="ssr:stedsnr" v="375565" />
	</node>
	<node id="9943102917" lat="62.6066457" lon="7.5479248" version="1" timestamp="2022-08-09T17:22:13Z" changeset="124695813" uid="3497659" user="NKA">
		<tag k="alt_name" v="Holmem;Holmem, in" />
		<tag k="name" v="Indre Holmem" />
		<tag k="place" v="farm" />
		<tag k="ssr:stedsnr" v="375542" />
	</node>
	<node id="9943102918" lat="62.5902495" lon="7.4822239" version="1" timestamp="2022-08-09T17:22:13Z" changeset="124695813" uid="3497659" user="NKA">
		<tag k="name" v="Eidsvollan" />
		<tag k="place" v="hamlet" />
		<tag k="ssr:stedsnr" v="445647" />
	</node>
	<node id="9943102919" lat="62.4951452" lon="7.5468895" version="1" timestamp="2022-08-09T17:22:13Z" changeset="124695813" uid="3497659" user="NKA">
		<tag k="name" v="Skjelbostad" />
		<tag k="place" v="hamlet" />
		<tag k="ssr:stedsnr" v="374938" />
	</node>
	<node id="9943102920" lat="62.4970092" lon="7.7986881" version="1" timestamp="2022-08-09T17:22:13Z" changeset="124695813" uid="3497659" user="NKA">
		<tag k="name" v="Hornvatnhytta" />
		<tag k="place" v="locality" />
		<tag k="ssr:stedsnr" v="975751" />
	</node>
	<node id="9943102921" lat="62.2052933" lon="7.9372573" version="1" timestamp="2022-08-09T17:22:13Z" changeset="124695813" uid="3497659" user="NKA">
		<tag k="name" v="Trollbua" />
		<tag k="place" v="locality" />
		<tag k="ssr:stedsnr" v="976000" />
	</node>
	<node id="9943102922" lat="62.2607834" lon="8.0059001" version="1" timestamp="2022-08-09T17:22:13Z" changeset="124695813" uid="3497659" user="NKA">
		<tag k="historic" v="shieling" />
		<tag k="name" v="Horgjemsætra" />
		<tag k="place" v="hamlet" />
		<tag k="ssr:stedsnr" v="800147" />
	</node>
	<node id="9943102923" lat="62.5830611" lon="7.4734306" version="1" timestamp="2022-08-09T17:22:13Z" changeset="124695813" uid="3497659" user="NKA">
		<tag k="name" v="Søberg" />
		<tag k="place" v="farm" />
		<tag k="ssr:stedsnr" v="436593" />
	</node>
	<node id="9943102924" lat="62.5569112" lon="7.857432" version="1" timestamp="2022-08-09T17:22:13Z" changeset="124695813" uid="3497659" user="NKA">
		<tag k="name" v="Åsen" />
		<tag k="place" v="hamlet" />
		<tag k="ssr:stedsnr" v="981797" />
	</node>
	<node id="9943102925" lat="62.2066593" lon="7.9856603" version="1" timestamp="2022-08-09T17:22:13Z" changeset="124695813" uid="3497659" user="NKA">
		<tag k="name" v="Storvassbua" />
		<tag k="place" v="locality" />
		<tag k="ssr:stedsnr" v="975999" />
	</node>
	<node id="9943102926" lat="62.5624722" lon="7.8602556" version="1" timestamp="2022-08-09T17:22:13Z" changeset="124695813" uid="3497659" user="NKA">
		<tag k="name" v="Storgjerdet" />
		<tag k="place" v="farm" />
		<tag k="ssr:stedsnr" v="921196" />
	</node>
	<node id="9943102927" lat="62.5849002" lon="7.4836594" version="1" timestamp="2022-08-09T17:22:13Z" changeset="124695813" uid="3497659" user="NKA">
		<tag k="name" v="Haukeberg" />
		<tag k="place" v="farm" />
		<tag k="ssr:stedsnr" v="254483" />
	</node>
	<node id="9943102928" lat="62.5054278" lon="7.5006445" version="1" timestamp="2022-08-09T17:22:13Z" changeset="124695813" uid="3497659" user="NKA">
		<tag k="historic" v="shieling" />
		<tag k="name" v="Hovdesetra" />
		<tag k="place" v="isolated_dwelling" />
		<tag k="ssr:stedsnr" v="315354" />
	</node>
	<node id="9943102929" lat="62.5799804" lon="7.7499052" version="1" timestamp="2022-08-09T17:22:13Z" changeset="124695813" uid="3497659" user="NKA">
		<tag k="name" v="Ytre Tokle" />
		<tag k="place" v="hamlet" />
		<tag k="ssr:stedsnr" v="825543" />
	</node>
	<node id="9943102930" lat="62.4723623" lon="7.7835387" version="1" timestamp="2022-08-09T17:22:13Z" changeset="124695813" uid="3497659" user="NKA">
		<tag k="alt_name" v="Ytre Lyngheim" />
		<tag k="name" v="Løkken" />
		<tag k="place" v="farm" />
		<tag k="ssr:stedsnr" v="825895" />
	</node>
	<node id="9943102931" lat="62.5489829" lon="7.6787041" version="1" timestamp="2022-08-09T17:22:13Z" changeset="124695813" uid="3497659" user="NKA">
		<tag k="name" v="Setnesreitan" />
		<tag k="place" v="farm" />
		<tag k="ssr:stedsnr" v="861397" />
	</node>
	<node id="9943102932" lat="62.5810106" lon="7.5668387" version="1" timestamp="2022-08-09T17:22:13Z" changeset="124695813" uid="3497659" user="NKA">
		<tag k="name" v="Utigard" />
		<tag k="place" v="farm" />
		<tag k="ssr:stedsnr" v="884717" />
	</node>
	<node id="9943102933" lat="62.5801269" lon="7.880769" version="1" timestamp="2022-08-09T17:22:13Z" changeset="124695813" uid="3497659" user="NKA">
		<tag k="name" v="Hjellan" />
		<tag k="place" v="farm" />
		<tag k="ssr:stedsnr" v="825396" />
	</node>
	<node id="9943102934" lat="62.5789435" lon="7.6768177" version="1" timestamp="2022-08-09T17:22:13Z" changeset="124695813" uid="3497659" user="NKA">
		<tag k="name" v="Fonna" />
		<tag k="place" v="farm" />
		<tag k="ssr:stedsnr" v="739551" />
	</node>
	<node id="9943102935" lat="62.2712139" lon="8.0651612" version="1" timestamp="2022-08-09T17:22:13Z" changeset="124695813" uid="3497659" user="NKA">
		<tag k="name" v="Sjugurgarden" />
		<tag k="place" v="farm" />
		<tag k="ssr:stedsnr" v="738143" />
	</node>
	<node id="9943102936" lat="62.6018658" lon="7.5458667" version="1" timestamp="2022-08-09T17:22:13Z" changeset="124695813" uid="3497659" user="NKA">
		<tag k="name" v="Sletta" />
		<tag k="place" v="farm" />
		<tag k="ssr:stedsnr" v="194528" />
	</node>
	<node id="9943102937" lat="62.5856917" lon="7.6783194" version="1" timestamp="2022-08-09T17:22:13Z" changeset="124695813" uid="3497659" user="NKA">
		<tag k="name" v="Strandasetra" />
		<tag k="place" v="isolated_dwelling" />
		<tag k="ssr:stedsnr" v="739498" />
	</node>
	<node id="9943102938" lat="62.603875" lon="7.4615279" version="1" timestamp="2022-08-09T17:22:13Z" changeset="124695813" uid="3497659" user="NKA">
		<tag k="historic" v="shieling" />
		<tag k="name" v="Hatlesetra" />
		<tag k="place" v="isolated_dwelling" />
		<tag k="ssr:stedsnr" v="133542" />
	</node>
	<node id="9943102939" lat="62.5676008" lon="7.5939792" version="1" timestamp="2022-08-09T17:22:13Z" changeset="124695813" uid="3497659" user="NKA">
		<tag k="name" v="Torvika" />
		<tag k="place" v="hamlet" />
		<tag k="ssr:stedsnr" v="132524" />
	</node>
	<node id="9943102940" lat="62.5070818" lon="7.5382326" version="1" timestamp="2022-08-09T17:22:13Z" changeset="124695813" uid="3497659" user="NKA">
		<tag k="name" v="Stokke" />
		<tag k="place" v="hamlet" />
		<tag k="ssr:stedsnr" v="132360" />
	</node>
	<node id="9943102941" lat="62.5703868" lon="7.645921" version="1" timestamp="2022-08-09T17:22:13Z" changeset="124695813" uid="3497659" user="NKA">
		<tag k="name" v="Skorga" />
		<tag k="place" v="hamlet" />
		<tag k="ssr:stedsnr" v="861508" />
	</node>
	<node id="9943102942" lat="62.4626222" lon="7.8046517" version="1" timestamp="2022-08-09T17:22:13Z" changeset="124695813" uid="3497659" user="NKA">
		<tag k="name" v="Myrabø" />
		<tag k="place" v="farm" />
		<tag k="ssr:stedsnr" v="750561" />
	</node>
	<node id="9943102943" lat="62.6338361" lon="7.5511501" version="1" timestamp="2022-08-09T17:22:13Z" changeset="124695813" uid="3497659" user="NKA">
		<tag k="historic" v="shieling" />
		<tag k="name" v="Rygjerdsetra" />
		<tag k="place" v="isolated_dwelling" />
		<tag k="ssr:stedsnr" v="861630" />
	</node>
	<node id="9943102944" lat="62.5836261" lon="7.7168114" version="1" timestamp="2022-08-09T17:22:13Z" changeset="124695813" uid="3497659" user="NKA">
		<tag k="name" v="Breivikgjerdet" />
		<tag k="place" v="farm" />
		<tag k="ssr:stedsnr" v="749574" />
	</node>
	<node id="9943102945" lat="62.5936994" lon="7.6240464" version="1" timestamp="2022-08-09T17:22:13Z" changeset="124695813" uid="3497659" user="NKA">
		<tag k="historic" v="shieling" />
		<tag k="name" v="Løytnantstølen" />
		<tag k="place" v="isolated_dwelling" />
		<tag k="ssr:stedsnr" v="618603" />
	</node>
	<node id="9943102946" lat="62.5977611" lon="7.7410835" version="1" timestamp="2022-08-09T17:22:13Z" changeset="124695813" uid="3497659" user="NKA">
		<tag k="historic" v="shieling" />
		<tag k="name" v="Breidviksetra" />
		<tag k="place" v="isolated_dwelling" />
		<tag k="ssr:stedsnr" v="740334" />
	</node>
	<node id="9943102947" lat="62.5376417" lon="7.6950666" version="1" timestamp="2022-08-09T17:22:13Z" changeset="124695813" uid="3497659" user="NKA">
		<tag k="name" v="Øygard" />
		<tag k="place" v="farm" />
		<tag k="ssr:stedsnr" v="618404" />
	</node>
	<node id="9943102948" lat="62.5837889" lon="7.4902529" version="1" timestamp="2022-08-09T17:22:13Z" changeset="124695813" uid="3497659" user="NKA">
		<tag k="name" v="Skogan" />
		<tag k="place" v="locality" />
		<tag k="ssr:stedsnr" v="36580" />
	</node>
	<node id="9943102949" lat="62.6175556" lon="7.5463889" version="1" timestamp="2022-08-09T17:22:13Z" changeset="124695813" uid="3497659" user="NKA">
		<tag k="name" v="Rabben" />
		<tag k="place" v="farm" />
		<tag k="ssr:stedsnr" v="639591" />
	</node>
	<node id="9943102950" lat="62.498525" lon="7.6569362" version="1" timestamp="2022-08-09T17:22:13Z" changeset="124695813" uid="3497659" user="NKA">
		<tag k="historic" v="shieling" />
		<tag k="name" v="Åkessetra" />
		<tag k="place" v="isolated_dwelling" />
		<tag k="ssr:stedsnr" v="82662" />
	</node>
	<node id="9943102951" lat="62.5791378" lon="7.8089277" version="1" timestamp="2022-08-09T17:22:13Z" changeset="124695813" uid="3497659" user="NKA">
		<tag k="name" v="Nedre Hatlen" />
		<tag k="place" v="farm" />
		<tag k="ssr:stedsnr" v="689528" />
	</node>
	<node id="9943102952" lat="62.5009667" lon="7.6737417" version="1" timestamp="2022-08-09T17:22:13Z" changeset="124695813" uid="3497659" user="NKA">
		<tag k="name" v="Soggesetra" />
		<tag k="place" v="isolated_dwelling" />
		<tag k="ssr:stedsnr" v="679447" />
	</node>
	<node id="9943102953" lat="62.4671009" lon="7.8154929" version="1" timestamp="2022-08-09T17:22:13Z" changeset="124695813" uid="3497659" user="NKA">
		<tag k="name" v="Horgheim" />
		<tag k="place" v="farm" />
		<tag k="ssr:stedsnr" v="568542" />
	</node>
	<node id="9943102954" lat="62.4917056" lon="7.7598389" version="1" timestamp="2022-08-09T17:22:13Z" changeset="124695813" uid="3497659" user="NKA">
		<tag k="name" v="Gurålykkja" />
		<tag k="place" v="locality" />
		<tag k="ssr:stedsnr" v="582330" />
	</node>
	<node id="9943102955" lat="62.5359152" lon="7.5002267" version="1" timestamp="2022-08-09T17:22:13Z" changeset="124695813" uid="3497659" user="NKA">
		<tag k="name" v="Hovde" />
		<tag k="place" v="hamlet" />
		<tag k="ssr:stedsnr" v="73439" />
	</node>
	<node id="9943102956" lat="62.561957" lon="7.8271475" version="1" timestamp="2022-08-09T17:22:13Z" changeset="124695813" uid="3497659" user="NKA">
		<tag k="name" v="Liabygda" />
		<tag k="place" v="hamlet" />
		<tag k="ssr:stedsnr" v="496187" />
	</node>
	<node id="9943102957" lat="62.6197417" lon="7.5965528" version="1" timestamp="2022-08-09T17:22:13Z" changeset="124695813" uid="3497659" user="NKA">
		<tag k="name" v="Seljevollhaugen" />
		<tag k="place" v="isolated_dwelling" />
		<tag k="ssr:stedsnr" v="459603" />
	</node>
	<node id="9943102958" lat="62.5798847" lon="7.863816" version="1" timestamp="2022-08-09T17:22:13Z" changeset="124695813" uid="3497659" user="NKA">
		<tag k="name" v="Myran" />
		<tag k="place" v="farm" />
		<tag k="ssr:stedsnr" v="521430" />
	</node>
	<node id="9943102959" lat="62.5649637" lon="7.6808317" version="1" timestamp="2022-08-09T17:22:13Z" changeset="124695813" uid="3497659" user="NKA">
		<tag k="name" v="Nes" />
		<tag k="place" v="neighbourhood" />
		<tag k="ssr:stedsnr" v="657212" />
	</node>
	<node id="9943102960" lat="62.5528694" lon="7.8754694" version="1" timestamp="2022-08-09T17:22:13Z" changeset="124695813" uid="3497659" user="NKA">
		<tag k="name" v="Åsgrova" />
		<tag k="place" v="farm" />
		<tag k="ssr:stedsnr" v="400736" />
	</node>
	<node id="9943102961" lat="62.5331583" lon="7.6022362" version="1" timestamp="2022-08-09T17:22:13Z" changeset="124695813" uid="3497659" user="NKA">
		<tag k="historic" v="shieling" />
		<tag k="name" v="Sjølbotnsetra" />
		<tag k="place" v="isolated_dwelling" />
		<tag k="ssr:stedsnr" v="279142" />
	</node>
	<node id="9943102962" lat="62.5873911" lon="7.5427851" version="1" timestamp="2022-08-09T17:22:13Z" changeset="124695813" uid="3497659" user="NKA">
		<tag k="name" v="Lerheim" />
		<tag k="place" v="hamlet" />
		<tag k="ssr:stedsnr" v="11513" />
	</node>
	<node id="9943102963" lat="62.5723444" lon="7.5341945" version="1" timestamp="2022-08-09T17:22:13Z" changeset="124695813" uid="3497659" user="NKA">
		<tag k="name" v="Øygarden" />
		<tag k="place" v="farm" />
		<tag k="ssr:stedsnr" v="315515" />
	</node>
	<node id="9943102964" lat="62.6667111" lon="7.8032083" version="1" timestamp="2022-08-09T17:22:13Z" changeset="124695813" uid="3497659" user="NKA">
		<tag k="name" v="Dalesetra" />
		<tag k="place" v="isolated_dwelling" />
		<tag k="ssr:stedsnr" v="375254" />
	</node>
	<node id="9943102965" lat="62.6657888" lon="7.7921166" version="1" timestamp="2022-08-09T17:22:13Z" changeset="124695813" uid="3497659" user="NKA">
		<tag k="name" v="Staursetsetra" />
		<tag k="place" v="isolated_dwelling" />
		<tag k="ssr:stedsnr" v="557277" />
	</node>
	<node id="9943102966" lat="62.6290301" lon="7.5327028" version="1" timestamp="2022-08-09T17:22:13Z" changeset="124695813" uid="3497659" user="NKA">
		<tag k="name" v="Rygjerd" />
		<tag k="place" v="hamlet" />
		<tag k="ssr:stedsnr" v="254639" />
	</node>
	<node id="9943102967" lat="62.5587437" lon="7.5675112" version="1" timestamp="2022-08-09T17:22:13Z" changeset="124695813" uid="3497659" user="NKA">
		<tag k="name" v="Hagen" />
		<tag k="place" v="farm" />
		<tag k="ssr:stedsnr" v="194498" />
	</node>
	<node id="9943102968" lat="62.5905525" lon="7.4766145" version="1" timestamp="2022-08-09T17:22:13Z" changeset="124695813" uid="3497659" user="NKA">
		<tag k="alt_name" v="Hatle, øvre" />
		<tag k="name" v="Øvre Hatle" />
		<tag k="place" v="farm" />
		<tag k="ssr:stedsnr" v="194554" />
	</node>
	<node id="9943102969" lat="62.559375" lon="7.5667197" version="1" timestamp="2022-08-09T17:22:13Z" changeset="124695813" uid="3497659" user="NKA">
		<tag k="name" v="Torvikeidet" />
		<tag k="place" v="hamlet" />
		<tag k="ssr:stedsnr" v="194499" />
	</node>
	<node id="9943102970" lat="62.5723127" lon="7.6509691" version="1" timestamp="2022-08-09T17:22:13Z" changeset="124695813" uid="3497659" user="NKA">
		<tag k="name" v="Rønning" />
		<tag k="place" v="farm" />
		<tag k="ssr:stedsnr" v="72513" />
	</node>
	<node id="9943102971" lat="62.5675472" lon="7.5979446" version="1" timestamp="2022-08-09T17:22:13Z" changeset="124695813" uid="3497659" user="NKA">
		<tag k="name" v="Brynjelgarden" />
		<tag k="place" v="farm" />
		<tag k="ssr:stedsnr" v="142561" />
	</node>
	<node id="9943102972" lat="62.5970861" lon="7.5053556" version="1" timestamp="2022-08-09T17:22:13Z" changeset="124695813" uid="3497659" user="NKA">
		<tag k="name" v="Sandvik" />
		<tag k="place" v="farm" />
		<tag k="ssr:stedsnr" v="194551" />
	</node>
	<node id="9943102973" lat="62.5080286" lon="7.3045413" version="1" timestamp="2022-08-09T17:22:13Z" changeset="124695813" uid="3497659" user="NKA">
		<tag k="historic" v="shieling" />
		<tag k="name" v="Venåssetra" />
		<tag k="place" v="hamlet" />
		<tag k="ssr:stedsnr" v="132370" />
	</node>
	<node id="9943102974" lat="62.5664701" lon="7.8977253" version="1" timestamp="2022-08-09T17:22:13Z" changeset="124695813" uid="3497659" user="NKA">
		<tag k="historic" v="shieling" />
		<tag k="name" v="Unjemssetra" />
		<tag k="place" v="isolated_dwelling" />
		<tag k="ssr:stedsnr" v="739155" />
	</node>
	<node id="9943102975" lat="62.5810491" lon="7.5575182" version="1" timestamp="2022-08-09T17:22:13Z" changeset="124695813" uid="3497659" user="NKA">
		<tag k="name" v="Siem" />
		<tag k="place" v="hamlet" />
		<tag k="ssr:stedsnr" v="861483" />
	</node>
	<node id="9943102976" lat="62.5698101" lon="7.7780003" version="1" timestamp="2022-08-09T17:22:13Z" changeset="124695813" uid="3497659" user="NKA">
		<tag k="name" v="Steinen" />
		<tag k="place" v="hamlet" />
		<tag k="ssr:stedsnr" v="739164" />
	</node>
	<node id="9943102977" lat="62.5334524" lon="7.7372268" version="1" timestamp="2022-08-09T17:22:13Z" changeset="124695813" uid="3497659" user="NKA">
		<tag k="name" v="Øvre Åkeshagen" />
		<tag k="place" v="farm" />
		<tag k="ssr:stedsnr" v="749789" />
	</node>
	<node id="9943102978" lat="62.5822366" lon="7.698786" version="1" timestamp="2022-08-09T17:22:13Z" changeset="124695813" uid="3497659" user="NKA">
		<tag k="name" v="Markanes" />
		<tag k="place" v="farm" />
		<tag k="ssr:stedsnr" v="618488" />
	</node>
	<node id="9943102979" lat="62.5069107" lon="7.3508326" version="1" timestamp="2022-08-09T17:22:13Z" changeset="124695813" uid="3497659" user="NKA">
		<tag k="name" v="Bakken" />
		<tag k="place" v="farm" />
		<tag k="ssr:stedsnr" v="72362" />
	</node>
	<node id="9943102980" lat="62.5003" lon="7.5677889" version="1" timestamp="2022-08-09T17:22:13Z" changeset="124695813" uid="3497659" user="NKA">
		<tag k="name" v="Røysan" />
		<tag k="place" v="neighbourhood" />
		<tag k="ssr:stedsnr" v="703871" />
	</node>
	<node id="9943102981" lat="62.6964913" lon="7.6594273" version="1" timestamp="2022-08-09T17:22:13Z" changeset="124695813" uid="3497659" user="NKA">
		<tag k="name" v="Mittetstranda" />
		<tag k="place" v="farm" />
		<tag k="ssr:stedsnr" v="810578" />
	</node>
	<node id="9943102982" lat="62.5659612" lon="7.600339" version="1" timestamp="2022-08-09T17:22:13Z" changeset="124695813" uid="3497659" user="NKA">
		<tag k="name" v="Hatlen" />
		<tag k="place" v="farm" />
		<tag k="ssr:stedsnr" v="580801" />
	</node>
	<node id="9943102983" lat="62.7058478" lon="7.7448806" version="1" timestamp="2022-08-09T17:22:13Z" changeset="124695813" uid="3497659" user="NKA">
		<tag k="name" v="Grovanessetra" />
		<tag k="place" v="isolated_dwelling" />
		<tag k="ssr:stedsnr" v="557434" />
	</node>
	<node id="9943102984" lat="62.6923869" lon="7.7134328" version="1" timestamp="2022-08-09T17:22:13Z" changeset="124695813" uid="3497659" user="NKA">
		<tag k="name" v="Staurset" />
		<tag k="place" v="hamlet" />
		<tag k="ssr:stedsnr" v="679696" />
	</node>
	<node id="9943102985" lat="62.584425" lon="7.5933694" version="1" timestamp="2022-08-09T17:22:13Z" changeset="124695813" uid="3497659" user="NKA">
		<tag k="historic" v="shieling" />
		<tag k="name" v="Skrivarstølen" />
		<tag k="place" v="isolated_dwelling" />
		<tag k="ssr:stedsnr" v="557485" />
	</node>
	<node id="9943102986" lat="62.6681686" lon="7.7580368" version="1" timestamp="2022-08-09T17:22:13Z" changeset="124695813" uid="3497659" user="NKA">
		<tag k="name" v="Ellingsetra" />
		<tag k="place" v="isolated_dwelling" />
		<tag k="ssr:stedsnr" v="943999" />
	</node>
	<node id="9943102987" lat="62.7017807" lon="7.702861" version="1" timestamp="2022-08-09T17:22:13Z" changeset="124695813" uid="3497659" user="NKA">
		<tag k="name" v="Jacobstua" />
		<tag k="place" v="farm" />
		<tag k="ssr:stedsnr" v="396649" />
	</node>
	<node id="9943102988" lat="62.6953191" lon="7.6940741" version="1" timestamp="2022-08-09T17:22:13Z" changeset="124695813" uid="3497659" user="NKA">
		<tag k="alt_name" v="Mittet, ytre" />
		<tag k="name" v="Ytre Mittet" />
		<tag k="place" v="hamlet" />
		<tag k="ssr:stedsnr" v="679694" />
	</node>
	<node id="9943102989" lat="62.4960695" lon="7.5656527" version="1" timestamp="2022-08-09T17:22:13Z" changeset="124695813" uid="3497659" user="NKA">
		<tag k="name" v="Indrevik" />
		<tag k="place" v="farm" />
		<tag k="ssr:stedsnr" v="399841" />
	</node>
	<node id="9943102990" lat="62.5700858" lon="7.6364479" version="1" timestamp="2022-08-09T17:22:13Z" changeset="124695813" uid="3497659" user="NKA">
		<tag k="name" v="Teigan" />
		<tag k="place" v="farm" />
		<tag k="ssr:stedsnr" v="459542" />
	</node>
	<node id="9943102991" lat="62.5387889" lon="7.5122473" version="1" timestamp="2022-08-09T17:22:13Z" changeset="124695813" uid="3497659" user="NKA">
		<tag k="name" v="Hovdenes" />
		<tag k="place" v="farm" />
		<tag k="ssr:stedsnr" v="376437" />
	</node>
	<node id="9943102992" lat="62.5388191" lon="7.710808" version="1" timestamp="2022-08-09T17:22:13Z" changeset="124695813" uid="3497659" user="NKA">
		<tag k="name" v="Devoll" />
		<tag k="place" v="hamlet" />
		<tag k="ssr:stedsnr" v="315398" />
	</node>
	<node id="9943102993" lat="62.5825333" lon="7.7091778" version="1" timestamp="2022-08-09T17:22:13Z" changeset="124695813" uid="3497659" user="NKA">
		<tag k="name" v="Breivikstranda" />
		<tag k="place" v="farm" />
		<tag k="ssr:stedsnr" v="132538" />
	</node>
	<node id="9943102994" lat="62.7120839" lon="7.7338667" version="1" timestamp="2022-08-09T17:22:13Z" changeset="124695813" uid="3497659" user="NKA">
		<tag k="name" v="Grovaneset" />
		<tag k="place" v="farm" />
		<tag k="ssr:stedsnr" v="93659" />
	</node>
	<node id="9943102995" lat="62.6945259" lon="7.6944654" version="1" timestamp="2022-08-09T17:22:13Z" changeset="124695813" uid="3497659" user="NKA">
		<tag k="name" v="Kristengarden" />
		<tag k="place" v="farm" />
		<tag k="ssr:stedsnr" v="335422" />
	</node>
	<node id="9943102996" lat="62.6941717" lon="7.6958662" version="1" timestamp="2022-08-09T17:22:13Z" changeset="124695813" uid="3497659" user="NKA">
		<tag k="name" v="Sveingarden" />
		<tag k="place" v="farm" />
		<tag k="ssr:stedsnr" v="335419" />
	</node>
	<node id="9943102997" lat="62.5848813" lon="7.7242269" version="1" timestamp="2022-08-09T17:22:13Z" changeset="124695813" uid="3497659" user="NKA">
		<tag k="name" v="Myra" />
		<tag k="place" v="farm" />
		<tag k="ssr:stedsnr" v="97587" />
	</node>
	<node id="9943102998" lat="62.5780207" lon="7.5290343" version="1" timestamp="2022-08-09T17:22:13Z" changeset="124695813" uid="3497659" user="NKA">
		<tag k="name" v="Vårnes" />
		<tag k="place" v="farm" />
		<tag k="ssr:stedsnr" v="277543" />
	</node>
	<node id="9943102999" lat="62.57915" lon="7.8447445" version="1" timestamp="2022-08-09T17:22:13Z" changeset="124695813" uid="3497659" user="NKA">
		<tag k="name" v="Teigen" />
		<tag k="place" v="farm" />
		<tag k="ssr:stedsnr" v="157422" />
	</node>
	<node id="9943103000" lat="62.6990917" lon="7.6936226" version="1" timestamp="2022-08-09T17:22:13Z" changeset="124695813" uid="3497659" user="NKA">
		<tag k="name" v="Elvetun" />
		<tag k="place" v="isolated_dwelling" />
		<tag k="ssr:stedsnr" v="639411" />
	</node>
	<node id="9943103001" lat="62.4351676" lon="7.8592008" version="1" timestamp="2022-08-09T17:22:13Z" changeset="124695813" uid="3497659" user="NKA">
		<tag k="name" v="Monge" />
		<tag k="place" v="locality" />
		<tag k="ssr:stedsnr" v="981818" />
	</node>
	<node id="9943103002" lat="62.6846195" lon="7.6924445" version="1" timestamp="2022-08-09T17:22:13Z" changeset="124695813" uid="3497659" user="NKA">
		<tag k="name" v="Øvreløen" />
		<tag k="place" v="locality" />
		<tag k="ssr:stedsnr" v="457404" />
	</node>
	<node id="9943103003" lat="62.6819082" lon="7.7275335" version="1" timestamp="2022-08-09T17:22:13Z" changeset="124695813" uid="3497659" user="NKA">
		<tag k="name" v="Fonna" />
		<tag k="place" v="farm" />
		<tag k="ssr:stedsnr" v="639524" />
	</node>
	<node id="9943103004" lat="62.6667539" lon="7.6999764" version="1" timestamp="2022-08-09T17:22:13Z" changeset="124695813" uid="3497659" user="NKA">
		<tag k="alt_name" v="Yttermittetsetra;Mittetsetrane, yt" />
		<tag k="historic" v="shieling" />
		<tag k="name" v="Yttermittetsetra" />
		<tag k="place" v="isolated_dwelling" />
		<tag k="ssr:stedsnr" v="497604" />
	</node>
	<node id="9943103005" lat="62.5824306" lon="7.9044195" version="1" timestamp="2022-08-09T17:22:13Z" changeset="124695813" uid="3497659" user="NKA">
		<tag k="name" v="Svartli" />
		<tag k="place" v="farm" />
		<tag k="ssr:stedsnr" v="11160" />
	</node>
	<node id="9943103006" lat="62.5805738" lon="7.8735127" version="1" timestamp="2022-08-09T17:22:13Z" changeset="124695813" uid="3497659" user="NKA">
		<tag k="name" v="Unjem" />
		<tag k="place" v="hamlet" />
		<tag k="ssr:stedsnr" v="11158" />
	</node>
	<node id="9943103007" lat="62.579544" lon="7.5610145" version="1" timestamp="2022-08-09T17:22:13Z" changeset="124695813" uid="3497659" user="NKA">
		<tag k="name" v="Ner-Siem" />
		<tag k="place" v="farm" />
		<tag k="ssr:stedsnr" v="155745" />
	</node>
	<node id="9943103008" lat="62.4833056" lon="7.4212084" version="1" timestamp="2022-08-09T17:22:13Z" changeset="124695813" uid="3497659" user="NKA">
		<tag k="name" v="Pålsøygardan" />
		<tag k="place" v="locality" />
		<tag k="ssr:stedsnr" v="764783" />
	</node>
	<node id="9943103009" lat="62.6922913" lon="7.6993211" version="1" timestamp="2022-08-09T17:22:13Z" changeset="124695813" uid="3497659" user="NKA">
		<tag k="name" v="Fremstebøen" />
		<tag k="place" v="farm" />
		<tag k="ssr:stedsnr" v="21921" />
	</node>
	<node id="9943103010" lat="62.5775616" lon="7.7948111" version="1" timestamp="2022-08-09T17:22:13Z" changeset="124695813" uid="3497659" user="NKA">
		<tag k="name" v="Hen" />
		<tag k="place" v="farm" />
		<tag k="ssr:stedsnr" v="436295" />
	</node>
	<node id="9943103011" lat="62.5880556" lon="7.7238361" version="1" timestamp="2022-08-09T17:22:13Z" changeset="124695813" uid="3497659" user="NKA">
		<tag k="name" v="Ytre Breivika" />
		<tag k="place" v="farm" />
		<tag k="ssr:stedsnr" v="861293" />
	</node>
	<node id="9943103012" lat="62.3270909" lon="8.05997" version="1" timestamp="2022-08-09T17:22:13Z" changeset="124695813" uid="3497659" user="NKA">
		<tag k="name" v="Liasætra" />
		<tag k="place" v="locality" />
		<tag k="ssr:stedsnr" v="678198" />
	</node>
	<node id="9943103013" lat="62.5793898" lon="7.8471611" version="1" timestamp="2022-08-09T17:22:13Z" changeset="124695813" uid="3497659" user="NKA">
		<tag k="name" v="Nyvoll" />
		<tag k="place" v="farm" />
		<tag k="ssr:stedsnr" v="885476" />
	</node>
	<node id="9943103014" lat="62.31073" lon="8.1020559" version="1" timestamp="2022-08-09T17:22:13Z" changeset="124695813" uid="3497659" user="NKA">
		<tag k="name" v="Raudstøl" />
		<tag k="place" v="farm" />
		<tag k="ssr:stedsnr" v="436618" />
	</node>
	<node id="9943103015" lat="62.6867525" lon="7.7250227" version="1" timestamp="2022-08-09T17:22:13Z" changeset="124695813" uid="3497659" user="NKA">
		<tag k="name" v="Bøland" />
		<tag k="place" v="farm" />
		<tag k="ssr:stedsnr" v="618265" />
	</node>
	<node id="9943103016" lat="62.7092836" lon="7.7165466" version="1" timestamp="2022-08-09T17:22:13Z" changeset="124695813" uid="3497659" user="NKA">
		<tag k="alt_name" v="Slettfjerding" />
		<tag k="name" v="Slettfjerdingen" />
		<tag k="place" v="hamlet" />
		<tag k="ssr:stedsnr" v="618667" />
	</node>
	<node id="9943103017" lat="62.5626773" lon="7.8270402" version="1" timestamp="2022-08-09T17:22:13Z" changeset="124695813" uid="3497659" user="NKA">
		<tag k="name" v="Nedre Steinsetra" />
		<tag k="place" v="farm" />
		<tag k="ssr:stedsnr" v="193183" />
	</node>
	<node id="9943103018" lat="62.5562699" lon="7.8562949" version="1" timestamp="2022-08-09T17:22:13Z" changeset="124695813" uid="3497659" user="NKA">
		<tag k="name" v="Nedre Åsen" />
		<tag k="place" v="farm" />
		<tag k="ssr:stedsnr" v="642707" />
	</node>
	<node id="9943103019" lat="62.6671333" lon="7.7672028" version="1" timestamp="2022-08-09T17:22:13Z" changeset="124695813" uid="3497659" user="NKA">
		<tag k="historic" v="shieling" />
		<tag k="name" v="Nysetra" />
		<tag k="place" v="isolated_dwelling" />
		<tag k="ssr:stedsnr" v="765963" />
	</node>
	<node id="9943103020" lat="62.5801388" lon="7.8163919" version="1" timestamp="2022-08-09T17:22:13Z" changeset="124695813" uid="3497659" user="NKA">
		<tag k="name" v="Øvre Hatlen" />
		<tag k="place" v="farm" />
		<tag k="ssr:stedsnr" v="749568" />
	</node>
	<node id="9943103021" lat="62.6843472" lon="7.7064695" version="1" timestamp="2022-08-09T17:22:13Z" changeset="124695813" uid="3497659" user="NKA">
		<tag k="name" v="Nygjerdet" />
		<tag k="place" v="locality" />
		<tag k="ssr:stedsnr" v="578396" />
	</node>
	<node id="9943103022" lat="62.672936" lon="7.5428682" version="1" timestamp="2022-08-09T17:22:13Z" changeset="124695813" uid="3497659" user="NKA">
		<tag k="name" v="Hagen" />
		<tag k="place" v="farm" />
		<tag k="ssr:stedsnr" v="739727" />
	</node>
	<node id="9943103023" lat="62.6575306" lon="7.7940945" version="1" timestamp="2022-08-09T17:22:13Z" changeset="124695813" uid="3497659" user="NKA">
		<tag k="name" v="Haugen" />
		<tag k="place" v="isolated_dwelling" />
		<tag k="ssr:stedsnr" v="739257" />
	</node>
	<node id="9943103024" lat="62.6843393" lon="7.6183295" version="1" timestamp="2022-08-09T17:22:13Z" changeset="124695813" uid="3497659" user="NKA">
		<tag k="name" v="Vollagjerdet" />
		<tag k="place" v="locality" />
		<tag k="ssr:stedsnr" v="337130" />
	</node>
	<node id="9943103025" lat="62.6196639" lon="7.6226196" version="1" timestamp="2022-08-09T17:22:13Z" changeset="124695813" uid="3497659" user="NKA">
		<tag k="alt_name" v="Nygardstølen" />
		<tag k="name" v="Nygardssetra" />
		<tag k="place" v="isolated_dwelling" />
		<tag k="ssr:stedsnr" v="254653" />
	</node>
	<node id="9943103026" lat="62.6546584" lon="7.5885" version="1" timestamp="2022-08-09T17:22:13Z" changeset="124695813" uid="3497659" user="NKA">
		<tag k="historic" v="shieling" />
		<tag k="name" v="Herjesetra" />
		<tag k="place" v="isolated_dwelling" />
		<tag k="ssr:stedsnr" v="679605" />
	</node>
	<node id="9943103027" lat="62.654036" lon="7.5016718" version="1" timestamp="2022-08-09T17:22:13Z" changeset="124695813" uid="3497659" user="NKA">
		<tag k="name" v="Ødegard" />
		<tag k="place" v="farm" />
		<tag k="ssr:stedsnr" v="400098" />
	</node>
	<node id="9943103028" lat="62.6864383" lon="7.6130236" version="1" timestamp="2022-08-09T17:22:13Z" changeset="124695813" uid="3497659" user="NKA">
		<tag k="name" v="Nygård" />
		<tag k="place" v="farm" />
		<tag k="ssr:stedsnr" v="215141" />
	</node>
	<node id="9943103029" lat="62.700175" lon="7.689714" version="1" timestamp="2022-08-09T17:22:13Z" changeset="124695813" uid="3497659" user="NKA">
		<tag k="name" v="Øyavollen" />
		<tag k="place" v="farm" />
		<tag k="ssr:stedsnr" v="214501" />
	</node>
	<node id="9943103030" lat="62.6534822" lon="7.5022873" version="1" timestamp="2022-08-09T17:22:13Z" changeset="124695813" uid="3497659" user="NKA">
		<tag k="name" v="Fredheim" />
		<tag k="place" v="farm" />
		<tag k="ssr:stedsnr" v="400100" />
	</node>
	<node id="9943103031" lat="62.6771596" lon="7.5639772" version="1" timestamp="2022-08-09T17:22:13Z" changeset="124695813" uid="3497659" user="NKA">
		<tag k="name" v="Fredheim" />
		<tag k="place" v="farm" />
		<tag k="ssr:stedsnr" v="396884" />
	</node>
	<node id="9943103032" lat="62.6030694" lon="7.8376667" version="1" timestamp="2022-08-09T17:22:13Z" changeset="124695813" uid="3497659" user="NKA">
		<tag k="historic" v="shieling" />
		<tag k="name" v="Loftskarsetra" />
		<tag k="place" v="isolated_dwelling" />
		<tag k="ssr:stedsnr" v="566057" />
	</node>
	<node id="9943103033" lat="62.6745125" lon="7.5487969" version="1" timestamp="2022-08-09T17:22:13Z" changeset="124695813" uid="3497659" user="NKA">
		<tag k="alt_name" v="Langnes" />
		<tag k="name" v="Langneset" />
		<tag k="place" v="farm" />
		<tag k="ssr:stedsnr" v="132720" />
	</node>
	<node id="9943103034" lat="62.694668" lon="7.7076889" version="1" timestamp="2022-08-09T17:22:13Z" changeset="124695813" uid="3497659" user="NKA">
		<tag k="name" v="Mittbø" />
		<tag k="place" v="farm" />
		<tag k="ssr:stedsnr" v="72689" />
	</node>
	<node id="9943103035" lat="62.5716464" lon="7.8449241" version="1" timestamp="2022-08-09T17:22:13Z" changeset="124695813" uid="3497659" user="NKA">
		<tag k="name" v="Moa" />
		<tag k="place" v="hamlet" />
		<tag k="ssr:stedsnr" v="254141" />
	</node>
	<node id="9943103036" lat="62.6754722" lon="7.5519084" version="1" timestamp="2022-08-09T17:22:13Z" changeset="124695813" uid="3497659" user="NKA">
		<tag k="alt_name" v="Sjølaupet" />
		<tag k="name" v="Sjøløypet" />
		<tag k="place" v="farm" />
		<tag k="ssr:stedsnr" v="861709" />
	</node>
	<node id="9943103037" lat="62.6763722" lon="7.5791472" version="1" timestamp="2022-08-09T17:22:13Z" changeset="124695813" uid="3497659" user="NKA">
		<tag k="name" v="Sande" />
		<tag k="place" v="farm" />
		<tag k="ssr:stedsnr" v="12724" />
	</node>
	<node id="9943103038" lat="62.7006186" lon="7.6998359" version="1" timestamp="2022-08-09T17:22:13Z" changeset="124695813" uid="3497659" user="NKA">
		<tag k="name" v="Inner-Mittet" />
		<tag k="place" v="hamlet" />
		<tag k="ssr:stedsnr" v="861677" />
	</node>
	<node id="9943103039" lat="62.672275" lon="7.5389279" version="1" timestamp="2022-08-09T17:22:13Z" changeset="124695813" uid="3497659" user="NKA">
		<tag k="name" v="Kariplassen" />
		<tag k="place" v="locality" />
		<tag k="ssr:stedsnr" v="336411" />
	</node>
	<node id="9943103040" lat="62.568977" lon="7.8152287" version="1" timestamp="2022-08-09T17:22:13Z" changeset="124695813" uid="3497659" user="NKA">
		<tag k="name" v="Ytterlia" />
		<tag k="place" v="farm" />
		<tag k="ssr:stedsnr" v="279420" />
	</node>
	<node id="9943103041" lat="62.5414167" lon="7.9018028" version="1" timestamp="2022-08-09T17:22:13Z" changeset="124695813" uid="3497659" user="NKA">
		<tag k="name" v="Dalereiten" />
		<tag k="place" v="farm" />
		<tag k="ssr:stedsnr" v="278730" />
	</node>
	<node id="9943103042" lat="62.6757556" lon="7.5594112" version="1" timestamp="2022-08-09T17:22:13Z" changeset="124695813" uid="3497659" user="NKA">
		<tag k="alt_name" v="Lunheim" />
		<tag k="name" v="Lundheim" />
		<tag k="place" v="farm" />
		<tag k="ssr:stedsnr" v="254704" />
	</node>
	<node id="9943103043" lat="62.6513545" lon="7.503555" version="1" timestamp="2022-08-09T17:22:13Z" changeset="124695813" uid="3497659" user="NKA">
		<tag k="name" v="Strandteigen" />
		<tag k="place" v="farm" />
		<tag k="ssr:stedsnr" v="218934" />
	</node>
	<node id="9943103044" lat="62.6646305" lon="7.5278806" version="1" timestamp="2022-08-09T17:22:13Z" changeset="124695813" uid="3497659" user="NKA">
		<tag k="name" v="Liaplassen" />
		<tag k="place" v="locality" />
		<tag k="ssr:stedsnr" v="639462" />
	</node>
	<node id="9943103045" lat="62.6592916" lon="7.5006639" version="1" timestamp="2022-08-09T17:22:13Z" changeset="124695813" uid="3497659" user="NKA">
		<tag k="name" v="Bakken" />
		<tag k="place" v="farm" />
		<tag k="ssr:stedsnr" v="218113" />
	</node>
	<node id="9943103046" lat="62.5770417" lon="7.8132667" version="1" timestamp="2022-08-09T17:22:13Z" changeset="124695813" uid="3497659" user="NKA">
		<tag k="name" v="Brauta" />
		<tag k="place" v="farm" />
		<tag k="ssr:stedsnr" v="219409" />
	</node>
	<node id="9943103047" lat="62.5409967" lon="7.8974159" version="1" timestamp="2022-08-09T17:22:13Z" changeset="124695813" uid="3497659" user="NKA">
		<tag k="alt_name" v="Dale, øvre;Øvre Dale" />
		<tag k="name" v="Øver-Dale" />
		<tag k="place" v="farm" />
		<tag k="ssr:stedsnr" v="497125" />
	</node>
	<node id="9943103048" lat="62.5447098" lon="7.8887561" version="1" timestamp="2022-08-09T17:22:13Z" changeset="124695813" uid="3497659" user="NKA">
		<tag k="name" v="Ner-Dale" />
		<tag k="place" v="farm" />
		<tag k="ssr:stedsnr" v="932487" />
	</node>
	<node id="9943103049" lat="62.5466945" lon="7.886889" version="1" timestamp="2022-08-09T17:22:13Z" changeset="124695813" uid="3497659" user="NKA">
		<tag k="name" v="Dalsbygda" />
		<tag k="place" v="hamlet" />
		<tag k="ssr:stedsnr" v="132111" />
	</node>
	<node id="9943103050" lat="62.5332001" lon="7.7356073" version="1" timestamp="2022-08-09T17:22:13Z" changeset="124695813" uid="3497659" user="NKA">
		<tag k="name" v="Nedre Åkeshagen" />
		<tag k="place" v="farm" />
		<tag k="ssr:stedsnr" v="142786" />
	</node>
	<node id="9943103051" lat="62.5797824" lon="7.8873335" version="1" timestamp="2022-08-09T17:22:13Z" changeset="124695813" uid="3497659" user="NKA">
		<tag k="name" v="Unjemsbakken" />
		<tag k="place" v="farm" />
		<tag k="ssr:stedsnr" v="98584" />
	</node>
	<node id="9943103052" lat="62.6897614" lon="7.6276715" version="1" timestamp="2022-08-09T17:22:13Z" changeset="124695813" uid="3497659" user="NKA">
		<tag k="name" v="Mork" />
		<tag k="place" v="hamlet" />
		<tag k="ssr:stedsnr" v="132708" />
	</node>
	<node id="9943103053" lat="62.541425" lon="7.8969056" version="1" timestamp="2022-08-09T17:22:13Z" changeset="124695813" uid="3497659" user="NKA">
		<tag k="name" v="Svaa" />
		<tag k="place" v="farm" />
		<tag k="ssr:stedsnr" v="96714" />
	</node>
	<node id="9943103054" lat="62.6893758" lon="7.7040586" version="1" timestamp="2022-08-09T17:22:13Z" changeset="124695813" uid="3497659" user="NKA">
		<tag k="name" v="Brautin" />
		<tag k="place" v="farm" />
		<tag k="ssr:stedsnr" v="275450" />
	</node>
	<node id="9943103055" lat="62.5807014" lon="7.8369445" version="1" timestamp="2022-08-09T17:22:13Z" changeset="124695813" uid="3497659" user="NKA">
		<tag k="alt_name" v="Kavli, indre" />
		<tag k="name" v="Indre Kavli" />
		<tag k="place" v="farm" />
		<tag k="ssr:stedsnr" v="158045" />
	</node>
	<node id="9943103056" lat="62.5489476" lon="7.880712" version="1" timestamp="2022-08-09T17:22:13Z" changeset="124695813" uid="3497659" user="NKA">
		<tag k="alt_name" v="Gyldenskog" />
		<tag k="name" v="Røysan" />
		<tag k="place" v="farm" />
		<tag k="ssr:stedsnr" v="921143" />
	</node>
	<node id="9943103057" lat="62.5472666" lon="7.8840972" version="1" timestamp="2022-08-09T17:22:13Z" changeset="124695813" uid="3497659" user="NKA">
		<tag k="name" v="Holen" />
		<tag k="place" v="farm" />
		<tag k="ssr:stedsnr" v="36721" />
	</node>
	<node id="9943103058" lat="62.5569926" lon="7.8327832" version="1" timestamp="2022-08-09T17:22:13Z" changeset="124695813" uid="3497659" user="NKA">
		<tag k="name" v="Kolflotten" />
		<tag k="place" v="farm" />
		<tag k="ssr:stedsnr" v="21575" />
	</node>
	<node id="9943103059" lat="62.5565806" lon="7.8594004" version="1" timestamp="2022-08-09T17:22:13Z" changeset="124695813" uid="3497659" user="NKA">
		<tag k="name" v="Øvre Åsen" />
		<tag k="place" v="farm" />
		<tag k="ssr:stedsnr" v="72182" />
	</node>
	<node id="9943103060" lat="62.5560555" lon="7.8339885" version="1" timestamp="2022-08-09T17:22:13Z" changeset="124695813" uid="3497659" user="NKA">
		<tag k="name" v="Madshaugen" />
		<tag k="place" v="farm" />
		<tag k="ssr:stedsnr" v="82501" />
	</node>
	<node id="9943103061" lat="62.5823671" lon="7.9485249" version="1" timestamp="2022-08-09T17:22:13Z" changeset="124695813" uid="3497659" user="NKA">
		<tag k="name" v="Morstøl" />
		<tag k="place" v="hamlet" />
		<tag k="ssr:stedsnr" v="193161" />
	</node>
	<node id="9943103062" lat="62.5803418" lon="7.8114915" version="1" timestamp="2022-08-09T17:22:13Z" changeset="124695813" uid="3497659" user="NKA">
		<tag k="name" v="Hatlen" />
		<tag k="place" v="hamlet" />
		<tag k="ssr:stedsnr" v="11309" />
	</node>
	<node id="9943103063" lat="62.5799211" lon="7.8820508" version="1" timestamp="2022-08-09T17:22:13Z" changeset="124695813" uid="3497659" user="NKA">
		<tag k="name" v="Ekra" />
		<tag k="place" v="farm" />
		<tag k="ssr:stedsnr" v="132162" />
	</node>
	<node id="9943103064" lat="62.5840826" lon="7.9533726" version="1" timestamp="2022-08-09T17:22:13Z" changeset="124695813" uid="3497659" user="NKA">
		<tag k="name" v="Øyan" />
		<tag k="place" v="locality" />
		<tag k="ssr:stedsnr" v="557164" />
	</node>
	<node id="9943103065" lat="62.6378636" lon="7.4783565" version="1" timestamp="2022-08-09T17:22:13Z" changeset="124695813" uid="3497659" user="NKA">
		<tag k="name" v="Ottestad" />
		<tag k="place" v="hamlet" />
		<tag k="ssr:stedsnr" v="981929" />
	</node>
	<node id="9943103066" lat="62.5836184" lon="7.7167948" version="1" timestamp="2022-08-09T17:22:13Z" changeset="124695813" uid="3497659" user="NKA">
		<tag k="name" v="Gjerdet" />
		<tag k="place" v="farm" />
		<tag k="ssr:stedsnr" v="947545" />
	</node>
	<node id="9943103067" lat="62.6961288" lon="7.6553507" version="1" timestamp="2022-08-09T17:22:13Z" changeset="124695813" uid="3497659" user="NKA">
		<tag k="name" v="Strandheim" />
		<tag k="place" v="farm" />
		<tag k="ssr:stedsnr" v="943548" />
	</node>
	<node id="9943103068" lat="62.5139555" lon="7.3738528" version="1" timestamp="2022-08-09T17:22:13Z" changeset="124695813" uid="3497659" user="NKA">
		<tag k="name" v="Nedre Øygarden" />
		<tag k="place" v="locality" />
		<tag k="ssr:stedsnr" v="582451" />
	</node>
	<node id="9943103069" lat="62.5102531" lon="7.3584358" version="1" timestamp="2022-08-09T17:22:13Z" changeset="124695813" uid="3497659" user="NKA">
		<tag k="name" v="Venås" />
		<tag k="place" v="hamlet" />
		<tag k="ssr:stedsnr" v="679354" />
	</node>
	<node id="9943103070" lat="62.638627" lon="7.45951" version="1" timestamp="2022-08-09T17:22:13Z" changeset="124695813" uid="3497659" user="NKA">
		<tag k="name" v="Lybergsvik" />
		<tag k="place" v="farm" />
		<tag k="ssr:stedsnr" v="973505" />
	</node>
	<node id="9943103071" lat="62.4714195" lon="7.5623973" version="1" timestamp="2022-08-09T17:22:13Z" changeset="124695813" uid="3497659" user="NKA">
		<tag k="name" v="Setra" />
		<tag k="place" v="locality" />
		<tag k="ssr:stedsnr" v="946918" />
	</node>
	<node id="9943103072" lat="62.5845536" lon="7.9489922" version="1" timestamp="2022-08-09T17:22:13Z" changeset="124695813" uid="3497659" user="NKA">
		<tag k="name" v="Grøvdal" />
		<tag k="place" v="hamlet" />
		<tag k="ssr:stedsnr" v="72308" />
	</node>
	<node id="9943103073" lat="62.5863722" lon="7.44915" version="1" timestamp="2022-08-09T17:22:13Z" changeset="124695813" uid="3497659" user="NKA">
		<tag k="name" v="Halsaplassen" />
		<tag k="place" v="locality" />
		<tag k="ssr:stedsnr" v="946584" />
	</node>
	<node id="9943103074" lat="62.6257078" lon="7.4915708" version="1" timestamp="2022-08-09T17:22:13Z" changeset="124695813" uid="3497659" user="NKA">
		<tag k="name" v="Skulehagen" />
		<tag k="place" v="farm" />
		<tag k="ssr:stedsnr" v="921688" />
	</node>
	<node id="9943103075" lat="62.639075" lon="7.4720334" version="1" timestamp="2022-08-09T17:22:13Z" changeset="124695813" uid="3497659" user="NKA">
		<tag k="alt_name" v="Høsteng" />
		<tag k="name" v="Haustenga" />
		<tag k="place" v="farm" />
		<tag k="ssr:stedsnr" v="679611" />
	</node>
	<node id="9943103076" lat="62.5344695" lon="7.3666583" version="1" timestamp="2022-08-09T17:22:13Z" changeset="124695813" uid="3497659" user="NKA">
		<tag k="historic" v="shieling" />
		<tag k="name" v="Mosetra" />
		<tag k="place" v="isolated_dwelling" />
		<tag k="ssr:stedsnr" v="862417" />
	</node>
	<node id="9943103077" lat="62.5834071" lon="7.5002092" version="1" timestamp="2022-08-09T17:22:13Z" changeset="124695813" uid="3497659" user="NKA">
		<tag k="name" v="Nedre Frisvoll" />
		<tag k="place" v="farm" />
		<tag k="ssr:stedsnr" v="679466" />
	</node>
	<node id="9943103078" lat="62.6270423" lon="7.4853712" version="1" timestamp="2022-08-09T17:22:13Z" changeset="124695813" uid="3497659" user="NKA">
		<tag k="name" v="Vollan" />
		<tag k="place" v="farm" />
		<tag k="ssr:stedsnr" v="618636" />
	</node>
	<node id="9943103079" lat="62.6369" lon="7.4373918" version="1" timestamp="2022-08-09T17:22:13Z" changeset="124695813" uid="3497659" user="NKA">
		<tag k="name" v="Oksastrandsetra" />
		<tag k="place" v="locality" />
		<tag k="ssr:stedsnr" v="701126" />
	</node>
	<node id="9943103080" lat="62.6409699" lon="7.5115583" version="1" timestamp="2022-08-09T17:22:13Z" changeset="124695813" uid="3497659" user="NKA">
		<tag k="name" v="Kroksethaugen" />
		<tag k="place" v="farm" />
		<tag k="ssr:stedsnr" v="518075" />
	</node>
	<node id="9943103081" lat="62.4962413" lon="7.361663" version="1" timestamp="2022-08-09T17:22:13Z" changeset="124695813" uid="3497659" user="NKA">
		<tag k="historic" v="shieling" />
		<tag k="name" v="Skarsetra" />
		<tag k="place" v="hamlet" />
		<tag k="ssr:stedsnr" v="496918" />
	</node>
	<node id="9943103082" lat="62.5276051" lon="7.4188733" version="1" timestamp="2022-08-09T17:22:13Z" changeset="124695813" uid="3497659" user="NKA">
		<tag k="alt_name" v="Roknem" />
		<tag k="name" v="Øvre Roknem" />
		<tag k="old_name" v="Roknem, øvre" />
		<tag k="place" v="farm" />
		<tag k="ssr:stedsnr" v="437441" />
	</node>
	<node id="9943103083" lat="62.5799776" lon="7.8263375" version="1" timestamp="2022-08-09T17:22:13Z" changeset="124695813" uid="3497659" user="NKA">
		<tag k="name" v="Skuleteigen" />
		<tag k="place" v="isolated_dwelling" />
		<tag k="ssr:stedsnr" v="946438" />
	</node>
	<node id="9943103084" lat="62.540875" lon="7.9031861" version="1" timestamp="2022-08-09T17:22:13Z" changeset="124695813" uid="3497659" user="NKA">
		<tag k="name" v="Dalehaug" />
		<tag k="place" v="farm" />
		<tag k="ssr:stedsnr" v="679128" />
	</node>
	<node id="9943103085" lat="62.6108861" lon="7.440314" version="1" timestamp="2022-08-09T17:22:13Z" changeset="124695813" uid="3497659" user="NKA">
		<tag k="name" v="Hammarvollsetra" />
		<tag k="place" v="isolated_dwelling" />
		<tag k="ssr:stedsnr" v="375537" />
	</node>
	<node id="9943103086" lat="62.6396526" lon="7.476118" version="1" timestamp="2022-08-09T17:22:13Z" changeset="124695813" uid="3497659" user="NKA">
		<tag k="alt_name" v="Ottestad, ytre;Ottestad" />
		<tag k="name" v="Ytre Ottestad" />
		<tag k="place" v="farm" />
		<tag k="ssr:stedsnr" v="496668" />
	</node>
	<node id="9943103087" lat="62.6234074" lon="7.4883422" version="1" timestamp="2022-08-09T17:22:13Z" changeset="124695813" uid="3497659" user="NKA">
		<tag k="name" v="Harvollan" />
		<tag k="place" v="farm" />
		<tag k="ssr:stedsnr" v="375639" />
	</node>
	<node id="9943103088" lat="62.5359667" lon="7.5016418" version="1" timestamp="2022-08-09T17:22:13Z" changeset="124695813" uid="3497659" user="NKA">
		<tag k="name" v="Haugen" />
		<tag k="place" v="farm" />
		<tag k="ssr:stedsnr" v="339504" />
	</node>
	<node id="9943103089" lat="62.6253919" lon="7.4822441" version="1" timestamp="2022-08-09T17:22:13Z" changeset="124695813" uid="3497659" user="NKA">
		<tag k="name" v="Vollheim" />
		<tag k="place" v="farm" />
		<tag k="ssr:stedsnr" v="337567" />
	</node>
	<node id="9943103090" lat="62.6189284" lon="7.4567029" version="1" timestamp="2022-08-09T17:22:13Z" changeset="124695813" uid="3497659" user="NKA">
		<tag k="name" v="Dalset" />
		<tag k="place" v="hamlet" />
		<tag k="ssr:stedsnr" v="375643" />
	</node>
	<node id="9943103091" lat="62.6369678" lon="7.5120096" version="1" timestamp="2022-08-09T17:22:13Z" changeset="124695813" uid="3497659" user="NKA">
		<tag k="name" v="Ytre Sandnes" />
		<tag k="place" v="hamlet" />
		<tag k="ssr:stedsnr" v="436619" />
	</node>
	<node id="9943103092" lat="62.6209472" lon="7.4653029" version="1" timestamp="2022-08-09T17:22:13Z" changeset="124695813" uid="3497659" user="NKA">
		<tag k="name" v="Gjerstad" />
		<tag k="place" v="farm" />
		<tag k="ssr:stedsnr" v="375642" />
	</node>
	<node id="9943103093" lat="62.6148944" lon="7.502414" version="1" timestamp="2022-08-09T17:22:13Z" changeset="124695813" uid="3497659" user="NKA">
		<tag k="name" v="Hammarvollneset" />
		<tag k="place" v="farm" />
		<tag k="ssr:stedsnr" v="315546" />
	</node>
	<node id="9943103094" lat="62.6288556" lon="7.4758917" version="1" timestamp="2022-08-09T17:22:13Z" changeset="124695813" uid="3497659" user="NKA">
		<tag k="name" v="Nerland" />
		<tag k="place" v="farm" />
		<tag k="ssr:stedsnr" v="254629" />
	</node>
	<node id="9943103095" lat="62.5177224" lon="7.7618644" version="1" timestamp="2022-08-09T17:22:13Z" changeset="124695813" uid="3497659" user="NKA">
		<tag k="name" v="Ner-Hole" />
		<tag k="old_name" v="GRYTTEN MUSEUM" />
		<tag k="place" v="farm" />
		<tag k="ssr:stedsnr" v="1082564" />
	</node>
	<node id="9943103096" lat="62.5832592" lon="7.5239422" version="1" timestamp="2022-08-09T17:22:13Z" changeset="124695813" uid="3497659" user="NKA">
		<tag k="name" v="Straume" />
		<tag k="place" v="hamlet" />
		<tag k="ssr:stedsnr" v="315501" />
	</node>
	<node id="9943103097" lat="62.621515" lon="7.4933173" version="1" timestamp="2022-08-09T17:22:13Z" changeset="124695813" uid="3497659" user="NKA">
		<tag k="name" v="Hammarvoll" />
		<tag k="place" v="hamlet" />
		<tag k="ssr:stedsnr" v="254658" />
	</node>
	<node id="9943103098" lat="62.6372044" lon="7.4817678" version="1" timestamp="2022-08-09T17:22:13Z" changeset="124695813" uid="3497659" user="NKA">
		<tag k="name" v="Ottestadvika" />
		<tag k="place" v="farm" />
		<tag k="ssr:stedsnr" v="202989" />
	</node>
	<node id="9943103099" lat="62.4910692" lon="7.7565155" version="1" timestamp="2022-08-09T17:22:13Z" changeset="124695813" uid="3497659" user="NKA">
		<tag k="name" v="Eidet" />
		<tag k="place" v="farm" />
		<tag k="ssr:stedsnr" v="461317" />
	</node>
	<node id="9943103100" lat="62.5899384" lon="7.4863932" version="1" timestamp="2022-08-09T17:22:13Z" changeset="124695813" uid="3497659" user="NKA">
		<tag k="name" v="Eidsvollhaugen" />
		<tag k="place" v="farm" />
		<tag k="ssr:stedsnr" v="157540" />
	</node>
	<node id="9943103101" lat="62.5945361" lon="7.5060667" version="1" timestamp="2022-08-09T17:22:13Z" changeset="124695813" uid="3497659" user="NKA">
		<tag k="name" v="Litlehagen" />
		<tag k="place" v="farm" />
		<tag k="ssr:stedsnr" v="133568" />
	</node>
	<node id="9943103102" lat="62.6375584" lon="7.4696333" version="1" timestamp="2022-08-09T17:22:13Z" changeset="124695813" uid="3497659" user="NKA">
		<tag k="name" v="Reitsletta" />
		<tag k="place" v="farm" />
		<tag k="ssr:stedsnr" v="133616" />
	</node>
	<node id="9943103103" lat="62.6250387" lon="7.5342044" version="1" timestamp="2022-08-09T17:22:13Z" changeset="124695813" uid="3497659" user="NKA">
		<tag k="name" v="Frøyset" />
		<tag k="place" v="farm" />
		<tag k="ssr:stedsnr" v="11686" />
	</node>
	<node id="9943103104" lat="62.6151361" lon="7.5808001" version="1" timestamp="2022-08-09T17:22:13Z" changeset="124695813" uid="3497659" user="NKA">
		<tag k="name" v="Hardholten" />
		<tag k="place" v="isolated_dwelling" />
		<tag k="ssr:stedsnr" v="883711" />
	</node>
	<node id="9943103105" lat="62.543125" lon="7.8952055" version="1" timestamp="2022-08-09T17:22:13Z" changeset="124695813" uid="3497659" user="NKA">
		<tag k="name" v="Teigen" />
		<tag k="place" v="farm" />
		<tag k="ssr:stedsnr" v="946697" />
	</node>
	<node id="9943103106" lat="62.3835556" lon="8.0239222" version="1" timestamp="2022-08-09T17:22:13Z" changeset="124695813" uid="3497659" user="NKA">
		<tag k="name" v="Nyløvollen" />
		<tag k="place" v="farm" />
		<tag k="ssr:stedsnr" v="921029" />
	</node>
	<node id="9943103107" lat="62.6310917" lon="7.5489278" version="1" timestamp="2022-08-09T17:22:13Z" changeset="124695813" uid="3497659" user="NKA">
		<tag k="name" v="Frøysetsetra" />
		<tag k="place" v="isolated_dwelling" />
		<tag k="ssr:stedsnr" v="761099" />
	</node>
	<node id="9943103108" lat="62.6264829" lon="7.4552301" version="1" timestamp="2022-08-09T17:22:13Z" changeset="124695813" uid="3497659" user="NKA">
		<tag k="name" v="Bakken" />
		<tag k="place" v="hamlet" />
		<tag k="ssr:stedsnr" v="193646" />
	</node>
	<node id="9943103109" lat="62.588171" lon="7.4721115" version="1" timestamp="2022-08-09T17:22:13Z" changeset="124695813" uid="3497659" user="NKA">
		<tag k="name" v="Hatle" />
		<tag k="place" v="hamlet" />
		<tag k="ssr:stedsnr" v="36506" />
	</node>
	<node id="9943103110" lat="62.5863" lon="7.4651112" version="1" timestamp="2022-08-09T17:22:13Z" changeset="124695813" uid="3497659" user="NKA">
		<tag k="name" v="Skallen" />
		<tag k="place" v="locality" />
		<tag k="ssr:stedsnr" v="36505" />
	</node>
	<node id="9943103111" lat="62.6345722" lon="7.4194945" version="1" timestamp="2022-08-09T17:22:13Z" changeset="124695813" uid="3497659" user="NKA">
		<tag k="name" v="Nerhunnessetra" />
		<tag k="place" v="locality" />
		<tag k="ssr:stedsnr" v="95731" />
	</node>
	<node id="9943103112" lat="62.6262839" lon="7.4680275" version="1" timestamp="2022-08-09T17:22:13Z" changeset="124695813" uid="3497659" user="NKA">
		<tag k="name" v="Landre" />
		<tag k="place" v="hamlet" />
		<tag k="ssr:stedsnr" v="861618" />
	</node>
	<node id="9943103113" lat="62.6289649" lon="7.4912912" version="1" timestamp="2022-08-09T17:22:13Z" changeset="124695813" uid="3497659" user="NKA">
		<tag k="name" v="Korsan" />
		<tag k="place" v="hamlet" />
		<tag k="ssr:stedsnr" v="981928" />
	</node>
	<node id="9943103114" lat="62.4519861" lon="7.8250583" version="1" timestamp="2022-08-09T17:22:13Z" changeset="124695813" uid="3497659" user="NKA">
		<tag k="name" v="Alnes" />
		<tag k="place" v="farm" />
		<tag k="ssr:stedsnr" v="678114" />
	</node>
	<node id="9943103115" lat="62.6287806" lon="7.5479612" version="1" timestamp="2022-08-09T17:22:13Z" changeset="124695813" uid="3497659" user="NKA">
		<tag k="name" v="Gamlesetra" />
		<tag k="place" v="locality" />
		<tag k="ssr:stedsnr" v="639589" />
	</node>
	<node id="9943103116" lat="62.4307083" lon="7.9411251" version="1" timestamp="2022-08-09T17:22:13Z" changeset="124695813" uid="3497659" user="NKA">
		<tag k="name" v="Skirilykkja" />
		<tag k="place" v="locality" />
		<tag k="ssr:stedsnr" v="825977" />
	</node>
	<node id="9943103117" lat="62.6386452" lon="7.4766867" version="1" timestamp="2022-08-09T17:22:13Z" changeset="124695813" uid="3497659" user="NKA">
		<tag k="alt_name" v="Ottestad, indre" />
		<tag k="name" v="Indre Ottestad" />
		<tag k="place" v="farm" />
		<tag k="ssr:stedsnr" v="11649" />
	</node>
	<node id="9943103118" lat="62.3358111" lon="8.0359166" version="1" timestamp="2022-08-09T17:22:13Z" changeset="124695813" uid="3497659" user="NKA">
		<tag k="historic" v="shieling" />
		<tag k="name" v="Slettafjellet" />
		<tag k="place" v="isolated_dwelling" />
		<tag k="ssr:stedsnr" v="582431" />
	</node>
	<node id="9943103119" lat="62.582761" lon="7.498655" version="1" timestamp="2022-08-09T17:22:13Z" changeset="124695813" uid="3497659" user="NKA">
		<tag k="name" v="Frisvoll" />
		<tag k="place" v="hamlet" />
		<tag k="ssr:stedsnr" v="935737" />
	</node>
	<node id="9943103120" lat="62.6281762" lon="7.4891966" version="1" timestamp="2022-08-09T17:22:13Z" changeset="124695813" uid="3497659" user="NKA">
		<tag k="name" v="Ner-Korsan" />
		<tag k="place" v="farm" />
		<tag k="ssr:stedsnr" v="557618" />
	</node>
	<node id="9943103121" lat="62.5250112" lon="7.5126195" version="1" timestamp="2022-08-09T17:22:13Z" changeset="124695813" uid="3497659" user="NKA">
		<tag k="historic" v="shieling" />
		<tag k="name" v="Søviksetra" />
		<tag k="place" v="isolated_dwelling" />
		<tag k="ssr:stedsnr" v="921433" />
	</node>
	<node id="9943103122" lat="62.5808222" lon="7.49895" version="1" timestamp="2022-08-09T17:22:13Z" changeset="124695813" uid="3497659" user="NKA">
		<tag k="name" v="Bakketun" />
		<tag k="place" v="farm" />
		<tag k="ssr:stedsnr" v="11522" />
	</node>
	<node id="9943103123" lat="62.38155" lon="8.0435334" version="1" timestamp="2022-08-09T17:22:13Z" changeset="124695813" uid="3497659" user="NKA">
		<tag k="name" v="Slettsvaet" />
		<tag k="place" v="locality" />
		<tag k="ssr:stedsnr" v="556032" />
	</node>
	<node id="9943103124" lat="62.3132277" lon="8.1115029" version="1" timestamp="2022-08-09T17:22:13Z" changeset="124695813" uid="3497659" user="NKA">
		<tag k="historic" v="shieling" />
		<tag k="name" v="Stølan" />
		<tag k="place" v="isolated_dwelling" />
		<tag k="ssr:stedsnr" v="521410" />
	</node>
	<node id="9943103125" lat="62.5846695" lon="7.4801222" version="1" timestamp="2022-08-09T17:22:13Z" changeset="124695813" uid="3497659" user="NKA">
		<tag k="name" v="Eid prestegard" />
		<tag k="place" v="farm" />
		<tag k="ssr:stedsnr" v="861584" />
	</node>
	<node id="9943103126" lat="62.6293163" lon="7.4876074" version="1" timestamp="2022-08-09T17:22:13Z" changeset="124695813" uid="3497659" user="NKA">
		<tag k="name" v="Øver-Korsan" />
		<tag k="place" v="farm" />
		<tag k="ssr:stedsnr" v="931995" />
	</node>
	<node id="9943103127" lat="62.3685667" lon="8.0384222" version="1" timestamp="2022-08-09T17:22:13Z" changeset="124695813" uid="3497659" user="NKA">
		<tag k="name" v="Hersel" />
		<tag k="place" v="farm" />
		<tag k="ssr:stedsnr" v="496032" />
	</node>
	<node id="9943103128" lat="62.5960972" lon="7.4539028" version="1" timestamp="2022-08-09T17:22:13Z" changeset="124695813" uid="3497659" user="NKA">
		<tag k="name" v="Gamlestølen" />
		<tag k="place" v="locality" />
		<tag k="ssr:stedsnr" v="886540" />
	</node>
	<node id="9943103129" lat="62.3556645" lon="8.0457847" version="1" timestamp="2022-08-09T17:22:13Z" changeset="124695813" uid="3497659" user="NKA">
		<tag k="name" v="Løkra" />
		<tag k="place" v="farm" />
		<tag k="ssr:stedsnr" v="496050" />
	</node>
	<node id="9943103130" lat="62.5651556" lon="7.3976611" version="1" timestamp="2022-08-09T17:22:13Z" changeset="124695813" uid="3497659" user="NKA">
		<tag k="name" v="Stolsstranda" />
		<tag k="place" v="locality" />
		<tag k="ssr:stedsnr" v="704568" />
	</node>
	<node id="9943103131" lat="62.6052083" lon="7.4815861" version="1" timestamp="2022-08-09T17:22:13Z" changeset="124695813" uid="3497659" user="NKA">
		<tag k="historic" v="shieling" />
		<tag k="name" v="Eidssetra" />
		<tag k="place" v="isolated_dwelling" />
		<tag k="ssr:stedsnr" v="194525" />
	</node>
	<node id="9943103132" lat="62.6348528" lon="7.4214166" version="1" timestamp="2022-08-09T17:22:13Z" changeset="124695813" uid="3497659" user="NKA">
		<tag k="name" v="Ottestadsetra" />
		<tag k="place" v="locality" />
		<tag k="ssr:stedsnr" v="762751" />
	</node>
	<node id="9943103133" lat="62.5367126" lon="7.500049" version="1" timestamp="2022-08-09T17:22:13Z" changeset="124695813" uid="3497659" user="NKA">
		<tag k="name" v="Øvre Hovde" />
		<tag k="place" v="farm" />
		<tag k="ssr:stedsnr" v="642489" />
	</node>
	<node id="9943103134" lat="62.3602222" lon="7.8610583" version="1" timestamp="2022-08-09T17:22:13Z" changeset="124695813" uid="3497659" user="NKA">
		<tag k="name" v="Vermevasshytta" />
		<tag k="place" v="isolated_dwelling" />
		<tag k="ssr:stedsnr" v="269986" />
	</node>
	<node id="9943103135" lat="62.6378744" lon="7.4855211" version="1" timestamp="2022-08-09T17:22:13Z" changeset="124695813" uid="3497659" user="NKA">
		<tag k="name" v="Stanganeset" />
		<tag k="place" v="farm" />
		<tag k="ssr:stedsnr" v="328008" />
	</node>
	<node id="9943103136" lat="62.557301" lon="7.420663" version="1" timestamp="2022-08-09T17:22:13Z" changeset="124695813" uid="3497659" user="NKA">
		<tag k="name" v="Sauset" />
		<tag k="place" v="hamlet" />
		<tag k="ssr:stedsnr" v="557534" />
	</node>
	<node id="9943103137" lat="62.5788944" lon="7.5004777" version="1" timestamp="2022-08-09T17:22:13Z" changeset="124695813" uid="3497659" user="NKA">
		<tag k="name" v="Storbakken" />
		<tag k="place" v="locality" />
		<tag k="ssr:stedsnr" v="279648" />
	</node>
	<node id="9943103138" lat="62.5379055" lon="7.3935695" version="1" timestamp="2022-08-09T17:22:13Z" changeset="124695813" uid="3497659" user="NKA">
		<tag k="historic" v="shieling" />
		<tag k="name" v="Høgsetra" />
		<tag k="place" v="isolated_dwelling" />
		<tag k="ssr:stedsnr" v="557409" />
	</node>
	<node id="9943103139" lat="62.2942534" lon="8.1247858" version="1" timestamp="2022-08-09T17:22:13Z" changeset="124695813" uid="3497659" user="NKA">
		<tag k="name" v="Nedre Kleiva" />
		<tag k="place" v="isolated_dwelling" />
		<tag k="ssr:stedsnr" v="97518" />
	</node>
	<node id="9943103140" lat="62.3527106" lon="8.0641051" version="1" timestamp="2022-08-09T17:22:13Z" changeset="124695813" uid="3497659" user="NKA">
		<tag k="historic" v="shieling" />
		<tag k="name" v="Stokkesætra" />
		<tag k="place" v="isolated_dwelling" />
		<tag k="ssr:stedsnr" v="374057" />
	</node>
	<node id="9943103141" lat="62.5931889" lon="7.507914" version="1" timestamp="2022-08-09T17:22:13Z" changeset="124695813" uid="3497659" user="NKA">
		<tag k="name" v="Frilund" />
		<tag k="place" v="farm" />
		<tag k="ssr:stedsnr" v="279591" />
	</node>
	<node id="9943103142" lat="62.3117002" lon="8.1028671" version="1" timestamp="2022-08-09T17:22:13Z" changeset="124695813" uid="3497659" user="NKA">
		<tag k="name" v="Staurset" />
		<tag k="place" v="hamlet" />
		<tag k="ssr:stedsnr" v="72229" />
	</node>
	<node id="9943103143" lat="62.314025" lon="8.0812001" version="1" timestamp="2022-08-09T17:22:13Z" changeset="124695813" uid="3497659" user="NKA">
		<tag k="historic" v="shieling" />
		<tag k="name" v="Midtstølen" />
		<tag k="place" v="isolated_dwelling" />
		<tag k="ssr:stedsnr" v="72228" />
	</node>
	<node id="9943103144" lat="62.3091555" lon="8.0985722" version="1" timestamp="2022-08-09T17:22:13Z" changeset="124695813" uid="3497659" user="NKA">
		<tag k="name" v="Berget" />
		<tag k="place" v="farm" />
		<tag k="ssr:stedsnr" v="72230" />
	</node>
	<node id="9943103145" lat="62.3343639" lon="8.0728167" version="1" timestamp="2022-08-09T17:22:13Z" changeset="124695813" uid="3497659" user="NKA">
		<tag k="name" v="Gjerdshaugen" />
		<tag k="place" v="farm" />
		<tag k="ssr:stedsnr" v="72189" />
	</node>
	<node id="9943103146" lat="62.3525972" lon="8.0477807" version="1" timestamp="2022-08-09T17:22:13Z" changeset="124695813" uid="3497659" user="NKA">
		<tag k="name" v="Stokke" />
		<tag k="place" v="hamlet" />
		<tag k="ssr:stedsnr" v="11044" />
	</node>
	<node id="9943103147" lat="62.6376806" lon="7.4641139" version="1" timestamp="2022-08-09T17:22:13Z" changeset="124695813" uid="3497659" user="NKA">
		<tag k="name" v="Gjerdplassen" />
		<tag k="place" v="locality" />
		<tag k="ssr:stedsnr" v="95361" />
	</node>
	<node id="9943103148" lat="62.3253056" lon="8.0796167" version="1" timestamp="2022-08-09T17:22:13Z" changeset="124695813" uid="3497659" user="NKA">
		<tag k="name" v="Kyllingkleiva" />
		<tag k="place" v="farm" />
		<tag k="ssr:stedsnr" v="861194" />
	</node>
	<node id="9943103149" lat="62.3380666" lon="8.0534138" version="1" timestamp="2022-08-09T17:22:13Z" changeset="124695813" uid="3497659" user="NKA">
		<tag k="name" v="Slettahjellen" />
		<tag k="place" v="farm" />
		<tag k="ssr:stedsnr" v="800210" />
	</node>
	<node id="9943103150" lat="62.31478" lon="8.096879" version="1" timestamp="2022-08-09T17:22:13Z" changeset="124695813" uid="3497659" user="NKA">
		<tag k="name" v="Raudstøl" />
		<tag k="place" v="hamlet" />
		<tag k="ssr:stedsnr" v="921239" />
	</node>
	<node id="9943103151" lat="62.3803389" lon="8.0285695" version="1" timestamp="2022-08-09T17:22:13Z" changeset="124695813" uid="3497659" user="NKA">
		<tag k="name" v="Sæterhjellen" />
		<tag k="place" v="isolated_dwelling" />
		<tag k="ssr:stedsnr" v="11027" />
	</node>
	<node id="9943103152" lat="62.2989848" lon="7.9019347" version="1" timestamp="2022-08-09T17:22:13Z" changeset="124695813" uid="3497659" user="NKA">
		<tag k="name" v="Bruherbørget" />
		<tag k="place" v="locality" />
		<tag k="ssr:stedsnr" v="193221" />
	</node>
	<node id="9943103153" lat="62.6334519" lon="7.5164421" version="1" timestamp="2022-08-09T17:22:13Z" changeset="124695813" uid="3497659" user="NKA">
		<tag k="name" v="Sandneshagen" />
		<tag k="place" v="isolated_dwelling" />
		<tag k="ssr:stedsnr" v="33113" />
	</node>
	<node id="9943103154" lat="62.4312944" lon="7.9874638" version="1" timestamp="2022-08-09T17:22:13Z" changeset="124695813" uid="3497659" user="NKA">
		<tag k="name" v="Geitsætra" />
		<tag k="place" v="locality" />
		<tag k="ssr:stedsnr" v="739003" />
	</node>
	<node id="9943103155" lat="62.6665997" lon="7.8034055" version="1" timestamp="2022-08-09T17:22:13Z" changeset="124695813" uid="3497659" user="NKA">
		<tag k="historic" v="shieling" />
		<tag k="name" v="Odden" />
		<tag k="place" v="isolated_dwelling" />
		<tag k="ssr:stedsnr" v="582967" />
	</node>
	<node id="9943103156" lat="62.6748833" lon="7.7590778" version="1" timestamp="2022-08-09T17:22:13Z" changeset="124695813" uid="3497659" user="NKA">
		<tag k="name" v="Øverlia" />
		<tag k="place" v="isolated_dwelling" />
		<tag k="ssr:stedsnr" v="194279" />
	</node>
	<node id="9943103157" lat="62.6685972" lon="7.7902778" version="1" timestamp="2022-08-09T17:22:13Z" changeset="124695813" uid="3497659" user="NKA">
		<tag k="historic" v="shieling" />
		<tag k="name" v="Aslaksetra" />
		<tag k="place" v="isolated_dwelling" />
		<tag k="ssr:stedsnr" v="643961" />
	</node>
	<node id="9943103158" lat="62.2703167" lon="7.8339917" version="1" timestamp="2022-08-09T17:22:13Z" changeset="124695813" uid="3497659" user="NKA">
		<tag k="name" v="Reinsminnet" />
		<tag k="place" v="isolated_dwelling" />
		<tag k="ssr:stedsnr" v="860278" />
	</node>
	<node id="9943103159" lat="62.6691499" lon="7.5325545" version="1" timestamp="2022-08-09T17:22:13Z" changeset="124695813" uid="3497659" user="NKA">
		<tag k="name" v="Herje" />
		<tag k="place" v="hamlet" />
		<tag k="ssr:stedsnr" v="981922" />
	</node>
	<node id="9943103160" lat="62.2746722" lon="8.0495667" version="1" timestamp="2022-08-09T17:22:13Z" changeset="124695813" uid="3497659" user="NKA">
		<tag k="historic" v="shieling" />
		<tag k="name" v="Gamlegarden" />
		<tag k="place" v="isolated_dwelling" />
		<tag k="ssr:stedsnr" v="860280" />
	</node>
	<node id="9943103161" lat="62.3447325" lon="8.0488411" version="1" timestamp="2022-08-09T17:22:13Z" changeset="124695813" uid="3497659" user="NKA">
		<tag k="name" v="Slettalykkja" />
		<tag k="place" v="farm" />
		<tag k="ssr:stedsnr" v="642411" />
	</node>
	<node id="9943103162" lat="62.6774942" lon="7.5910392" version="1" timestamp="2022-08-09T17:22:13Z" changeset="124695813" uid="3497659" user="NKA">
		<tag k="name" v="Myran" />
		<tag k="place" v="farm" />
		<tag k="ssr:stedsnr" v="801718" />
	</node>
	<node id="9943103163" lat="62.4298584" lon="7.979039" version="1" timestamp="2022-08-09T17:22:13Z" changeset="124695813" uid="3497659" user="NKA">
		<tag k="name" v="Gamlegarden" />
		<tag k="place" v="locality" />
		<tag k="ssr:stedsnr" v="643810" />
	</node>
	<node id="9943103164" lat="62.3463083" lon="8.0224472" version="1" timestamp="2022-08-09T17:22:13Z" changeset="124695813" uid="3497659" user="NKA">
		<tag k="name" v="Ospahjellen" />
		<tag k="place" v="locality" />
		<tag k="ssr:stedsnr" v="860063" />
	</node>
	<node id="9943103165" lat="62.6649084" lon="7.6179029" version="1" timestamp="2022-08-09T17:22:13Z" changeset="124695813" uid="3497659" user="NKA">
		<tag k="alt_name" v="Slemmesetra, yt" />
		<tag k="historic" v="shieling" />
		<tag k="name" v="Ytter Slemmesetra" />
		<tag k="place" v="isolated_dwelling" />
		<tag k="ssr:stedsnr" v="801732" />
	</node>
	<node id="9943103166" lat="62.2818507" lon="8.0045787" version="1" timestamp="2022-08-09T17:22:13Z" changeset="124695813" uid="3497659" user="NKA">
		<tag k="historic" v="shieling" />
		<tag k="name" v="Førholen" />
		<tag k="place" v="hamlet" />
		<tag k="ssr:stedsnr" v="556289" />
	</node>
	<node id="9943103167" lat="62.6500445" lon="7.5419278" version="1" timestamp="2022-08-09T17:22:13Z" changeset="124695813" uid="3497659" user="NKA">
		<tag k="name" v="Nysetra" />
		<tag k="place" v="isolated_dwelling" />
		<tag k="ssr:stedsnr" v="679616" />
	</node>
	<node id="9943103168" lat="62.3239222" lon="7.8703389" version="1" timestamp="2022-08-09T17:22:13Z" changeset="124695813" uid="3497659" user="NKA">
		<tag k="name" v="Mebua" />
		<tag k="place" v="isolated_dwelling" />
		<tag k="ssr:stedsnr" v="632982" />
	</node>
	<node id="9943103169" lat="62.2165063" lon="7.8663297" version="1" timestamp="2022-08-09T17:22:13Z" changeset="124695813" uid="3497659" user="NKA">
		<tag k="name" v="Gammelputtbua" />
		<tag k="place" v="isolated_dwelling" />
		<tag k="ssr:stedsnr" v="627324" />
	</node>
	<node id="9943103170" lat="62.6493442" lon="7.5069233" version="1" timestamp="2022-08-09T17:22:13Z" changeset="124695813" uid="3497659" user="NKA">
		<tag k="name" v="Stranda" />
		<tag k="place" v="hamlet" />
		<tag k="ssr:stedsnr" v="679599" />
	</node>
	<node id="9943103171" lat="62.3478379" lon="8.0533354" version="1" timestamp="2022-08-09T17:22:13Z" changeset="124695813" uid="3497659" user="NKA">
		<tag k="name" v="Ormem" />
		<tag k="place" v="farm" />
		<tag k="ssr:stedsnr" v="279429" />
	</node>
	<node id="9943103172" lat="62.6766509" lon="7.5688166" version="1" timestamp="2022-08-09T17:22:13Z" changeset="124695813" uid="3497659" user="NKA">
		<tag k="name" v="Holm" />
		<tag k="place" v="hamlet" />
		<tag k="ssr:stedsnr" v="375711" />
	</node>
	<node id="9943103173" lat="62.5686532" lon="7.8566393" version="1" timestamp="2022-08-09T17:22:13Z" changeset="124695813" uid="3497659" user="NKA">
		<tag k="name" v="Moareset" />
		<tag k="place" v="farm" />
		<tag k="ssr:stedsnr" v="581458" />
	</node>
	<node id="9943103174" lat="62.6554398" lon="7.5533824" version="1" timestamp="2022-08-09T17:22:13Z" changeset="124695813" uid="3497659" user="NKA">
		<tag k="name" v="Myrsetsetra" />
		<tag k="place" v="isolated_dwelling" />
		<tag k="ssr:stedsnr" v="194593" />
	</node>
	<node id="9943103175" lat="62.2804276" lon="8.1128125" version="1" timestamp="2022-08-09T17:22:13Z" changeset="124695813" uid="3497659" user="NKA">
		<tag k="name" v="Storhjellen" />
		<tag k="place" v="farm" />
		<tag k="ssr:stedsnr" v="132118" />
	</node>
	<node id="9943103176" lat="62.2637083" lon="8.0947501" version="1" timestamp="2022-08-09T17:22:13Z" changeset="124695813" uid="3497659" user="NKA">
		<tag k="name" v="Stølan" />
		<tag k="place" v="locality" />
		<tag k="ssr:stedsnr" v="71141" />
	</node>
	<node id="9943103177" lat="62.6841296" lon="7.6149912" version="1" timestamp="2022-08-09T17:22:13Z" changeset="124695813" uid="3497659" user="NKA">
		<tag k="name" v="Vollan" />
		<tag k="place" v="locality" />
		<tag k="ssr:stedsnr" v="640146" />
	</node>
	<node id="9943103178" lat="62.6900032" lon="7.62626" version="1" timestamp="2022-08-09T17:22:13Z" changeset="124695813" uid="3497659" user="NKA">
		<tag k="name" v="Morkastranda" />
		<tag k="place" v="farm" />
		<tag k="ssr:stedsnr" v="557678" />
	</node>
	<node id="9943103179" lat="62.2938785" lon="8.1263019" version="1" timestamp="2022-08-09T17:22:13Z" changeset="124695813" uid="3497659" user="NKA">
		<tag k="name" v="Kleiva" />
		<tag k="place" v="hamlet" />
		<tag k="ssr:stedsnr" v="10246" />
	</node>
	<node id="9943103180" lat="62.3702778" lon="8.1352167" version="1" timestamp="2022-08-09T17:22:13Z" changeset="124695813" uid="3497659" user="NKA">
		<tag k="name" v="Danielbua" />
		<tag k="place" v="locality" />
		<tag k="ssr:stedsnr" v="860046" />
	</node>
	<node id="9943103181" lat="62.2930351" lon="8.1278891" version="1" timestamp="2022-08-09T17:22:13Z" changeset="124695813" uid="3497659" user="NKA">
		<tag k="name" v="Øvre Kleiva" />
		<tag k="place" v="farm" />
		<tag k="ssr:stedsnr" v="643509" />
	</node>
	<node id="9943103182" lat="62.6640905" lon="7.5083501" version="1" timestamp="2022-08-09T17:22:13Z" changeset="124695813" uid="3497659" user="NKA">
		<tag k="name" v="Herjestranda" />
		<tag k="place" v="hamlet" />
		<tag k="ssr:stedsnr" v="521102" />
	</node>
	<node id="9943103183" lat="62.3082745" lon="8.1161165" version="1" timestamp="2022-08-09T17:22:13Z" changeset="124695813" uid="3497659" user="NKA">
		<tag k="name" v="Brue" />
		<tag k="place" v="hamlet" />
		<tag k="ssr:stedsnr" v="254207" />
	</node>
	<node id="9943103184" lat="62.6771305" lon="7.5842473" version="1" timestamp="2022-08-09T17:22:13Z" changeset="124695813" uid="3497659" user="NKA">
		<tag k="name" v="Løteigen" />
		<tag k="place" v="farm" />
		<tag k="ssr:stedsnr" v="72712" />
	</node>
	<node id="9943103185" lat="62.6934664" lon="7.6330353" version="1" timestamp="2022-08-09T17:22:13Z" changeset="124695813" uid="3497659" user="NKA">
		<tag k="name" v="Stranda" />
		<tag k="place" v="farm" />
		<tag k="ssr:stedsnr" v="276202" />
	</node>
	<node id="9943103186" lat="62.6938639" lon="7.6306446" version="1" timestamp="2022-08-09T17:22:13Z" changeset="124695813" uid="3497659" user="NKA">
		<tag k="name" v="Skiplassen" />
		<tag k="place" v="locality" />
		<tag k="ssr:stedsnr" v="154201" />
	</node>
	<node id="9943103187" lat="62.2707613" lon="8.0709212" version="1" timestamp="2022-08-09T17:22:13Z" changeset="124695813" uid="3497659" user="NKA">
		<tag k="name" v="Fremmer-Brøstet" />
		<tag k="place" v="farm" />
		<tag k="ssr:stedsnr" v="921129" />
	</node>
	<node id="9943103188" lat="62.3753334" lon="7.8380139" version="1" timestamp="2022-08-09T17:22:13Z" changeset="124695813" uid="3497659" user="NKA">
		<tag k="name" v="Langvassbua" />
		<tag k="place" v="isolated_dwelling" />
		<tag k="ssr:stedsnr" v="87988" />
	</node>
	<node id="9943103189" lat="62.3149417" lon="8.1344334" version="1" timestamp="2022-08-09T17:22:13Z" changeset="124695813" uid="3497659" user="NKA">
		<tag k="historic" v="shieling" />
		<tag k="name" v="Justsætra" />
		<tag k="place" v="isolated_dwelling" />
		<tag k="ssr:stedsnr" v="279395" />
	</node>
	<node id="9943103190" lat="62.6772048" lon="7.5619638" version="1" timestamp="2022-08-09T17:22:13Z" changeset="124695813" uid="3497659" user="NKA">
		<tag k="name" v="Teigen" />
		<tag k="place" v="farm" />
		<tag k="ssr:stedsnr" v="32871" />
	</node>
	<node id="9943103191" lat="62.2949611" lon="8.09115" version="1" timestamp="2022-08-09T17:22:13Z" changeset="124695813" uid="3497659" user="NKA">
		<tag k="name" v="Svamarka" />
		<tag k="place" v="locality" />
		<tag k="ssr:stedsnr" v="71268" />
	</node>
	<node id="9943103192" lat="62.2690957" lon="8.0862573" version="1" timestamp="2022-08-09T17:22:13Z" changeset="124695813" uid="3497659" user="NKA">
		<tag k="name" v="Stakksenga" />
		<tag k="place" v="farm" />
		<tag k="ssr:stedsnr" v="617159" />
	</node>
	<node id="9943103193" lat="62.5347944" lon="7.372939" version="1" timestamp="2022-08-09T17:22:13Z" changeset="124695813" uid="3497659" user="NKA">
		<tag k="historic" v="shieling" />
		<tag k="name" v="Tverrlisetra" />
		<tag k="place" v="isolated_dwelling" />
		<tag k="ssr:stedsnr" v="618413" />
	</node>
	<node id="9943103194" lat="62.535125" lon="7.3730166" version="1" timestamp="2022-08-09T17:22:13Z" changeset="124695813" uid="3497659" user="NKA">
		<tag k="historic" v="shieling" />
		<tag k="name" v="Gamlesetra" />
		<tag k="place" v="isolated_dwelling" />
		<tag k="ssr:stedsnr" v="764529" />
	</node>
	<node id="9943103195" lat="62.32235" lon="8.0791667" version="1" timestamp="2022-08-09T17:22:13Z" changeset="124695813" uid="3497659" user="NKA">
		<tag k="name" v="Slettaøya" />
		<tag k="place" v="farm" />
		<tag k="ssr:stedsnr" v="11204" />
	</node>
	<node id="9943103196" lat="62.6258028" lon="7.4102918" version="1" timestamp="2022-08-09T17:22:13Z" changeset="124695813" uid="3497659" user="NKA">
		<tag k="name" v="Gjølstølen" />
		<tag k="place" v="locality" />
		<tag k="ssr:stedsnr" v="701683" />
	</node>
	<node id="9943103197" lat="62.5093945" lon="7.5333057" version="1" timestamp="2022-08-09T17:22:13Z" changeset="124695813" uid="3497659" user="NKA">
		<tag k="name" v="Sethjellen" />
		<tag k="place" v="farm" />
		<tag k="ssr:stedsnr" v="679351" />
	</node>
	<node id="9943103198" lat="62.4295622" lon="7.9576763" version="1" timestamp="2022-08-09T17:22:13Z" changeset="124695813" uid="3497659" user="NKA">
		<tag k="name" v="Nordre Flatmark" />
		<tag k="place" v="farm" />
		<tag k="ssr:stedsnr" v="988817" />
	</node>
	<node id="9943103199" lat="62.6152028" lon="7.5419944" version="1" timestamp="2022-08-09T17:22:13Z" changeset="124695813" uid="3497659" user="NKA">
		<tag k="name" v="Askeneset" />
		<tag k="place" v="isolated_dwelling" />
		<tag k="ssr:stedsnr" v="822659" />
	</node>
	<node id="9943103200" lat="62.5869019" lon="7.9735867" version="1" timestamp="2022-08-09T17:22:13Z" changeset="124695813" uid="3497659" user="NKA">
		<tag k="historic" v="shieling" />
		<tag k="name" v="Stølan" />
		<tag k="place" v="locality" />
		<tag k="ssr:stedsnr" v="98624" />
	</node>
	<node id="9943103201" lat="62.6461945" lon="7.5096916" version="1" timestamp="2022-08-09T17:22:13Z" changeset="124695813" uid="3497659" user="NKA">
		<tag k="name" v="Skogly" />
		<tag k="place" v="farm" />
		<tag k="ssr:stedsnr" v="376656" />
	</node>
	<node id="9943103202" lat="62.6313177" lon="7.5228234" version="1" timestamp="2022-08-09T17:22:13Z" changeset="124695813" uid="3497659" user="NKA">
		<tag k="name" v="Indre Sandnes" />
		<tag k="place" v="hamlet" />
		<tag k="ssr:stedsnr" v="384570" />
	</node>
	<node id="9943103203" lat="62.6859218" lon="7.6185293" version="1" timestamp="2022-08-09T17:22:13Z" changeset="124695813" uid="3497659" user="NKA">
		<tag k="name" v="Geilen" />
		<tag k="place" v="farm" />
		<tag k="ssr:stedsnr" v="944151" />
	</node>
	<node id="9943103204" lat="62.5802055" lon="7.884939" version="1" timestamp="2022-08-09T17:22:13Z" changeset="124695813" uid="3497659" user="NKA">
		<tag k="name" v="Ottabakken" />
		<tag k="place" v="isolated_dwelling" />
		<tag k="ssr:stedsnr" v="581467" />
	</node>
	<node id="9943103205" lat="62.6179084" lon="7.4538005" version="1" timestamp="2022-08-09T17:22:13Z" changeset="124695813" uid="3497659" user="NKA">
		<tag k="name" v="Setervang" />
		<tag k="place" v="farm" />
		<tag k="ssr:stedsnr" v="375645" />
	</node>
	<node id="9943103206" lat="62.4993472" lon="7.541875" version="1" timestamp="2022-08-09T17:22:13Z" changeset="124695813" uid="3497659" user="NKA">
		<tag k="name" v="Geilen" />
		<tag k="place" v="farm" />
		<tag k="ssr:stedsnr" v="921913" />
	</node>
	<node id="9943103207" lat="62.5822187" lon="7.5723749" version="1" timestamp="2022-08-09T17:22:13Z" changeset="124695813" uid="3497659" user="NKA">
		<tag k="name" v="Berg" />
		<tag k="place" v="farm" />
		<tag k="ssr:stedsnr" v="921528" />
	</node>
	<node id="9943103208" lat="62.6338481" lon="7.517748" version="1" timestamp="2022-08-09T17:22:13Z" changeset="124695813" uid="3497659" user="NKA">
		<tag k="name" v="Strandheim" />
		<tag k="place" v="farm" />
		<tag k="ssr:stedsnr" v="822097" />
	</node>
	<node id="9943103209" lat="62.4984899" lon="7.5762592" version="1" timestamp="2022-08-09T17:22:13Z" changeset="124695813" uid="3497659" user="NKA">
		<tag k="name" v="Øygarden" />
		<tag k="place" v="farm" />
		<tag k="ssr:stedsnr" v="921915" />
	</node>
	<node id="9943103210" lat="62.5799722" lon="7.8322168" version="1" timestamp="2022-08-09T17:22:13Z" changeset="124695813" uid="3497659" user="NKA">
		<tag k="name" v="Andersgarden" />
		<tag k="place" v="farm" />
		<tag k="ssr:stedsnr" v="521460" />
	</node>
	<node id="9943103211" lat="62.6585972" lon="7.7998223" version="1" timestamp="2022-08-09T17:22:13Z" changeset="124695813" uid="3497659" user="NKA">
		<tag k="historic" v="shieling" />
		<tag k="name" v="Skrokken" />
		<tag k="place" v="isolated_dwelling" />
		<tag k="ssr:stedsnr" v="158975" />
	</node>
	<node id="9943103212" lat="62.520825" lon="7.3997167" version="1" timestamp="2022-08-09T17:22:13Z" changeset="124695813" uid="3497659" user="NKA">
		<tag k="name" v="Holan" />
		<tag k="place" v="farm" />
		<tag k="ssr:stedsnr" v="764839" />
	</node>
	<node id="9943103213" lat="62.5225055" lon="7.8955666" version="1" timestamp="2022-08-09T17:22:13Z" changeset="124695813" uid="3497659" user="NKA">
		<tag k="historic" v="shieling" />
		<tag k="name" v="Seterstølen" />
		<tag k="place" v="isolated_dwelling" />
		<tag k="ssr:stedsnr" v="340767" />
	</node>
	<node id="9943103214" lat="62.5203484" lon="7.6820247" version="1" timestamp="2022-08-09T17:22:13Z" changeset="124695813" uid="3497659" user="NKA">
		<tag k="name" v="Hanekamhaug" />
		<tag k="place" v="hamlet" />
		<tag k="ssr:stedsnr" v="679359" />
	</node>
	<node id="9943103215" lat="62.5906714" lon="7.4958136" version="1" timestamp="2022-08-09T17:22:13Z" changeset="124695813" uid="3497659" user="NKA">
		<tag k="name" v="Eide" />
		<tag k="place" v="hamlet" />
		<tag k="ssr:stedsnr" v="740585" />
	</node>
	<node id="9943103216" lat="62.6520671" lon="7.5030775" version="1" timestamp="2022-08-09T17:22:13Z" changeset="124695813" uid="3497659" user="NKA">
		<tag k="name" v="Strandheim" />
		<tag k="place" v="isolated_dwelling" />
		<tag k="ssr:stedsnr" v="157950" />
	</node>
	<node id="9943103217" lat="62.2716849" lon="8.0926897" version="1" timestamp="2022-08-09T17:22:13Z" changeset="124695813" uid="3497659" user="NKA">
		<tag k="name" v="Nedre Brøstet" />
		<tag k="place" v="farm" />
		<tag k="ssr:stedsnr" v="678141" />
	</node>
	<node id="9943103218" lat="62.3895944" lon="8.0196834" version="1" timestamp="2022-08-09T17:22:13Z" changeset="124695813" uid="3497659" user="NKA">
		<tag k="name" v="Foss" />
		<tag k="place" v="farm" />
		<tag k="ssr:stedsnr" v="800029" />
	</node>
	<node id="9943103219" lat="62.2674952" lon="8.0867117" version="1" timestamp="2022-08-09T17:22:13Z" changeset="124695813" uid="3497659" user="NKA">
		<tag k="name" v="Brøstet" />
		<tag k="place" v="hamlet" />
		<tag k="ssr:stedsnr" v="692669" />
	</node>
	<node id="9943103220" lat="62.5968778" lon="7.981564" version="1" timestamp="2022-08-09T17:22:13Z" changeset="124695813" uid="3497659" user="NKA">
		<tag k="name" v="Høgsetra" />
		<tag k="place" v="locality" />
		<tag k="ssr:stedsnr" v="826585" />
	</node>
	<node id="9943103221" lat="62.6241807" lon="7.4946431" version="1" timestamp="2022-08-09T17:22:13Z" changeset="124695813" uid="3497659" user="NKA">
		<tag k="name" v="Rødven" />
		<tag k="place" v="hamlet" />
		<tag k="ssr:stedsnr" v="155457" />
	</node>
	<node id="9943103222" lat="62.6056556" lon="7.4802613" version="1" timestamp="2022-08-09T17:22:13Z" changeset="124695813" uid="3497659" user="NKA">
		<tag k="historic" v="shieling" />
		<tag k="name" v="Eidsvollsetra" />
		<tag k="place" v="isolated_dwelling" />
		<tag k="ssr:stedsnr" v="279569" />
	</node>
	<node id="9943103223" lat="62.5832338" lon="7.7100546" version="1" timestamp="2022-08-09T17:22:13Z" changeset="124695813" uid="3497659" user="NKA">
		<tag k="name" v="Myra" />
		<tag k="place" v="isolated_dwelling" />
		<tag k="ssr:stedsnr" v="400579" />
	</node>
	<node id="9943103224" lat="62.4876444" lon="7.6659501" version="1" timestamp="2022-08-09T17:22:13Z" changeset="124695813" uid="3497659" user="NKA">
		<tag k="historic" v="shieling" />
		<tag k="name" v="Bøen" />
		<tag k="place" v="isolated_dwelling" />
		<tag k="ssr:stedsnr" v="400321" />
	</node>
	<node id="9943103225" lat="62.5714688" lon="7.6470787" version="1" timestamp="2022-08-09T17:22:13Z" changeset="124695813" uid="3497659" user="NKA">
		<tag k="name" v="Indre Skorga" />
		<tag k="place" v="farm" />
		<tag k="ssr:stedsnr" v="749800" />
	</node>
	<node id="9943103226" lat="62.6965927" lon="7.6652095" version="1" timestamp="2022-08-09T17:22:13Z" changeset="124695813" uid="3497659" user="NKA">
		<tag k="name" v="Hoåsstranda" />
		<tag k="place" v="farm" />
		<tag k="ssr:stedsnr" v="335542" />
	</node>
	<node id="9943103227" lat="62.5536235" lon="7.6640754" version="1" timestamp="2022-08-09T17:22:13Z" changeset="124695813" uid="3497659" user="NKA">
		<tag k="name" v="Veblungen" />
		<tag k="place" v="farm" />
		<tag k="ssr:stedsnr" v="400246" />
	</node>
	<node id="9943103228" lat="62.3750514" lon="8.034774" version="1" timestamp="2022-08-09T17:22:13Z" changeset="124695813" uid="3497659" user="NKA">
		<tag k="name" v="Sæterbøen" />
		<tag k="place" v="farm" />
		<tag k="ssr:stedsnr" v="253035" />
	</node>
	<node id="9943103229" lat="62.4497056" lon="7.8323223" version="1" timestamp="2022-08-09T17:22:13Z" changeset="124695813" uid="3497659" user="NKA">
		<tag k="name" v="Kvernebakken" />
		<tag k="place" v="farm" />
		<tag k="ssr:stedsnr" v="375085" />
	</node>
	<node id="9943103230" lat="62.5279628" lon="7.7422666" version="1" timestamp="2022-08-09T17:22:13Z" changeset="124695813" uid="3497659" user="NKA">
		<tag k="name" v="Nora" />
		<tag k="place" v="hamlet" />
		<tag k="ssr:stedsnr" v="739133" />
	</node>
	<node id="9943103231" lat="62.4855084" lon="7.5525834" version="1" timestamp="2022-08-09T17:22:13Z" changeset="124695813" uid="3497659" user="NKA">
		<tag k="alt_name" v="Sandøyan" />
		<tag k="name" v="Vonheim" />
		<tag k="place" v="farm" />
		<tag k="ssr:stedsnr" v="800865" />
	</node>
	<node id="9943103232" lat="62.5599887" lon="7.8286986" version="1" timestamp="2022-08-09T17:22:13Z" changeset="124695813" uid="3497659" user="NKA">
		<tag k="name" v="Litlebø" />
		<tag k="place" v="farm" />
		<tag k="ssr:stedsnr" v="254162" />
	</node>
	<node id="9943103233" lat="62.5277759" lon="7.7124073" version="1" timestamp="2022-08-09T17:22:13Z" changeset="124695813" uid="3497659" user="NKA">
		<tag k="name" v="Brekka" />
		<tag k="place" v="farm" />
		<tag k="ssr:stedsnr" v="946496" />
	</node>
	<node id="9943103234" lat="62.632926" lon="7.5197533" version="1" timestamp="2022-08-09T17:22:13Z" changeset="124695813" uid="3497659" user="NKA">
		<tag k="name" v="Myrhaugen" />
		<tag k="place" v="farm" />
		<tag k="ssr:stedsnr" v="761109" />
	</node>
	<node id="9943103235" lat="62.623375" lon="7.4747306" version="1" timestamp="2022-08-09T17:22:13Z" changeset="124695813" uid="3497659" user="NKA">
		<tag k="name" v="Nybøen" />
		<tag k="place" v="farm" />
		<tag k="ssr:stedsnr" v="922656" />
	</node>
	<node id="9943103236" lat="62.4671944" lon="7.6694306" version="1" timestamp="2022-08-09T17:22:13Z" changeset="124695813" uid="3497659" user="NKA">
		<tag k="historic" v="shieling" />
		<tag k="name" v="Fremstestølen" />
		<tag k="place" v="isolated_dwelling" />
		<tag k="ssr:stedsnr" v="97096" />
	</node>
	<node id="9943103237" lat="62.4693306" lon="7.6697861" version="1" timestamp="2022-08-09T17:22:13Z" changeset="124695813" uid="3497659" user="NKA">
		<tag k="historic" v="shieling" />
		<tag k="name" v="Midtstølen" />
		<tag k="place" v="isolated_dwelling" />
		<tag k="ssr:stedsnr" v="97091" />
	</node>
	<node id="9943103238" lat="62.5013983" lon="7.6581925" version="1" timestamp="2022-08-09T17:22:13Z" changeset="124695813" uid="3497659" user="NKA">
		<tag k="historic" v="shieling" />
		<tag k="name" v="Isterdalssetra" />
		<tag k="place" v="isolated_dwelling" />
		<tag k="ssr:stedsnr" v="193505" />
	</node>
	<node id="9943103239" lat="62.5807583" lon="7.6568917" version="1" timestamp="2022-08-09T17:22:13Z" changeset="124695813" uid="3497659" user="NKA">
		<tag k="historic" v="shieling" />
		<tag k="name" v="Hegerholmsetra" />
		<tag k="place" v="isolated_dwelling" />
		<tag k="ssr:stedsnr" v="922471" />
	</node>
	<node id="9943103240" lat="62.5809889" lon="7.5173487" version="1" timestamp="2022-08-09T17:22:13Z" changeset="124695813" uid="3497659" user="NKA">
		<tag k="name" v="Ora" />
		<tag k="place" v="farm" />
		<tag k="ssr:stedsnr" v="254480" />
	</node>
	<node id="9943103241" lat="62.560517" lon="7.828264" version="1" timestamp="2022-08-09T17:22:13Z" changeset="124695813" uid="3497659" user="NKA">
		<tag k="name" v="Øvre Remmen" />
		<tag k="place" v="farm" />
		<tag k="ssr:stedsnr" v="218754" />
	</node>
	<node id="9943103242" lat="62.487425" lon="7.66755" version="1" timestamp="2022-08-09T17:22:13Z" changeset="124695813" uid="3497659" user="NKA">
		<tag k="name" v="Bøsetra" />
		<tag k="place" v="isolated_dwelling" />
		<tag k="ssr:stedsnr" v="132870" />
	</node>
	<node id="9943103243" lat="62.5974028" lon="7.5466306" version="1" timestamp="2022-08-09T17:22:13Z" changeset="124695813" uid="3497659" user="NKA">
		<tag k="name" v="Lerheimsreiten" />
		<tag k="place" v="farm" />
		<tag k="ssr:stedsnr" v="922585" />
	</node>
	<node id="9943103244" lat="62.5812111" lon="7.6387084" version="1" timestamp="2022-08-09T17:22:13Z" changeset="124695813" uid="3497659" user="NKA">
		<tag k="name" v="Vikasetra" />
		<tag k="place" v="isolated_dwelling" />
		<tag k="ssr:stedsnr" v="922468" />
	</node>
	<node id="9943103245" lat="62.5753944" lon="7.6369695" version="1" timestamp="2022-08-09T17:22:13Z" changeset="124695813" uid="3497659" user="NKA">
		<tag k="name" v="Gamlesetra" />
		<tag k="place" v="isolated_dwelling" />
		<tag k="ssr:stedsnr" v="922470" />
	</node>
	<node id="9943103246" lat="62.5893305" lon="7.6548083" version="1" timestamp="2022-08-09T17:22:13Z" changeset="124695813" uid="3497659" user="NKA">
		<tag k="historic" v="shieling" />
		<tag k="name" v="Nysetra" />
		<tag k="place" v="isolated_dwelling" />
		<tag k="ssr:stedsnr" v="921526" />
	</node>
	<node id="9943103247" lat="62.5247514" lon="7.400265" version="1" timestamp="2022-08-09T17:22:13Z" changeset="124695813" uid="3497659" user="NKA">
		<tag k="name" v="Moen" />
		<tag k="place" v="hamlet" />
		<tag k="ssr:stedsnr" v="800392" />
	</node>
	<node id="9943103248" lat="62.5163865" lon="7.768005" version="1" timestamp="2022-08-09T17:22:13Z" changeset="124695813" uid="3497659" user="NKA">
		<tag k="name" v="Hole" />
		<tag k="place" v="hamlet" />
		<tag k="ssr:stedsnr" v="254112" />
	</node>
	<node id="9943103249" lat="62.6781889" lon="7.7313417" version="1" timestamp="2022-08-09T17:22:13Z" changeset="124695813" uid="3497659" user="NKA">
		<tag k="name" v="Haugen" />
		<tag k="place" v="farm" />
		<tag k="ssr:stedsnr" v="436275" />
	</node>
	<node id="9943103250" lat="62.4518256" lon="7.8252865" version="1" timestamp="2022-08-09T17:22:13Z" changeset="124695813" uid="3497659" user="NKA">
		<tag k="name" v="Bogningen" />
		<tag k="place" v="isolated_dwelling" />
		<tag k="ssr:stedsnr" v="97974" />
	</node>
	<node id="9943103251" lat="62.370096" lon="8.0403251" version="1" timestamp="2022-08-09T17:22:13Z" changeset="124695813" uid="3497659" user="NKA">
		<tag k="name" v="Gjerdet" />
		<tag k="place" v="locality" />
		<tag k="ssr:stedsnr" v="435048" />
	</node>
	<node id="9943103252" lat="62.6050389" lon="7.6699196" version="1" timestamp="2022-08-09T17:22:13Z" changeset="124695813" uid="3497659" user="NKA">
		<tag k="historic" v="shieling" />
		<tag k="name" v="Haukebergstølen" />
		<tag k="place" v="isolated_dwelling" />
		<tag k="ssr:stedsnr" v="740590" />
	</node>
	<node id="9943103253" lat="62.5287522" lon="7.7228155" version="1" timestamp="2022-08-09T17:22:13Z" changeset="124695813" uid="3497659" user="NKA">
		<tag k="name" v="Sogge" />
		<tag k="place" v="hamlet" />
		<tag k="ssr:stedsnr" v="557138" />
	</node>
	<node id="9943103254" lat="62.6299917" lon="7.5345556" version="1" timestamp="2022-08-09T17:22:13Z" changeset="124695813" uid="3497659" user="NKA">
		<tag k="name" v="Rosvang" />
		<tag k="place" v="farm" />
		<tag k="ssr:stedsnr" v="822086" />
	</node>
	<node id="9943103255" lat="62.3412861" lon="8.1281583" version="1" timestamp="2022-08-09T17:22:13Z" changeset="124695813" uid="3497659" user="NKA">
		<tag k="name" v="Johanhytta" />
		<tag k="place" v="isolated_dwelling" />
		<tag k="ssr:stedsnr" v="253235" />
	</node>
	<node id="9943103256" lat="62.5242826" lon="7.7037113" version="1" timestamp="2022-08-09T17:22:13Z" changeset="124695813" uid="3497659" user="NKA">
		<tag k="name" v="Soggemoen" />
		<tag k="place" v="hamlet" />
		<tag k="ssr:stedsnr" v="97023" />
	</node>
	<node id="9943103257" lat="62.5346861" lon="7.6936416" version="1" timestamp="2022-08-09T17:22:13Z" changeset="124695813" uid="3497659" user="NKA">
		<tag k="name" v="Svartdalen" />
		<tag k="place" v="farm" />
		<tag k="ssr:stedsnr" v="72392" />
	</node>
	<node id="9943103258" lat="62.5744139" lon="7.6563583" version="1" timestamp="2022-08-09T17:22:13Z" changeset="124695813" uid="3497659" user="NKA">
		<tag k="name" v="Hegerholm" />
		<tag k="place" v="farm" />
		<tag k="ssr:stedsnr" v="801518" />
	</node>
	<node id="9943103259" lat="62.569265" lon="7.5483752" version="1" timestamp="2022-08-09T17:22:13Z" changeset="124695813" uid="3497659" user="NKA">
		<tag k="name" v="Gyldenåsen" />
		<tag k="place" v="farm" />
		<tag k="ssr:stedsnr" v="800536" />
	</node>
	<node id="9943103260" lat="62.5356049" lon="7.7299367" version="1" timestamp="2022-08-09T17:22:13Z" changeset="124695813" uid="3497659" user="NKA">
		<tag k="name" v="Åk" />
		<tag k="place" v="hamlet" />
		<tag k="ssr:stedsnr" v="72118" />
	</node>
	<node id="9943103261" lat="62.570632" lon="7.6405968" version="1" timestamp="2022-08-09T17:22:13Z" changeset="124695813" uid="3497659" user="NKA">
		<tag k="name" v="Ytre Skorga" />
		<tag k="place" v="farm" />
		<tag k="ssr:stedsnr" v="810790" />
	</node>
	<node id="9943103262" lat="62.5530104" lon="7.7074749" version="1" timestamp="2022-08-09T17:22:13Z" changeset="124695813" uid="3497659" user="NKA">
		<tag k="name" v="Grøttøyra" />
		<tag k="place" v="locality" />
		<tag k="ssr:stedsnr" v="935004" />
	</node>
	<node id="9943103263" lat="62.6956241" lon="7.6835443" version="1" timestamp="2022-08-09T17:22:13Z" changeset="124695813" uid="3497659" user="NKA">
		<tag k="name" v="Lunheim" />
		<tag k="place" v="farm" />
		<tag k="ssr:stedsnr" v="760553" />
	</node>
	<node id="9943103264" lat="62.6022484" lon="7.5460032" version="1" timestamp="2022-08-09T17:22:13Z" changeset="124695813" uid="3497659" user="NKA">
		<tag k="name" v="Slettbakken" />
		<tag k="place" v="farm" />
		<tag k="ssr:stedsnr" v="762758" />
	</node>
	<node id="9943103265" lat="62.6212889" lon="7.5408639" version="1" timestamp="2022-08-09T17:22:13Z" changeset="124695813" uid="3497659" user="NKA">
		<tag k="name" v="Frøystad" />
		<tag k="place" v="farm" />
		<tag k="ssr:stedsnr" v="739676" />
	</node>
	<node id="9943103266" lat="62.603325" lon="7.8373388" version="1" timestamp="2022-08-09T17:22:13Z" changeset="124695813" uid="3497659" user="NKA">
		<tag k="historic" v="shieling" />
		<tag k="name" v="Loftskarsætra" />
		<tag k="place" v="isolated_dwelling" />
		<tag k="ssr:stedsnr" v="740326" />
	</node>
	<node id="9943103267" lat="62.5954139" lon="7.5076195" version="1" timestamp="2022-08-09T17:22:13Z" changeset="124695813" uid="3497659" user="NKA">
		<tag k="name" v="Eidshagen" />
		<tag k="place" v="farm" />
		<tag k="ssr:stedsnr" v="679571" />
	</node>
	<node id="9943103268" lat="62.635183" lon="7.4917037" version="1" timestamp="2022-08-09T17:22:13Z" changeset="124695813" uid="3497659" user="NKA">
		<tag k="name" v="Ner-Hunnes" />
		<tag k="place" v="hamlet" />
		<tag k="ssr:stedsnr" v="678657" />
	</node>
	<node id="9943103269" lat="62.4317223" lon="7.3834222" version="1" timestamp="2022-08-09T17:22:13Z" changeset="124695813" uid="3497659" user="NKA">
		<tag k="historic" v="shieling" />
		<tag k="name" v="Røsta" />
		<tag k="place" v="isolated_dwelling" />
		<tag k="ssr:stedsnr" v="374994" />
	</node>
	<node id="9943103270" lat="62.5705973" lon="7.6015584" version="1" timestamp="2022-08-09T17:22:13Z" changeset="124695813" uid="3497659" user="NKA">
		<tag k="name" v="Bjørgaplassen" />
		<tag k="place" v="locality" />
		<tag k="ssr:stedsnr" v="580067" />
	</node>
	<node id="9943103271" lat="62.6161555" lon="7.4387694" version="1" timestamp="2022-08-09T17:22:13Z" changeset="124695813" uid="3497659" user="NKA">
		<tag k="historic" v="shieling" />
		<tag k="name" v="Vollstølen" />
		<tag k="place" v="isolated_dwelling" />
		<tag k="ssr:stedsnr" v="618651" />
	</node>
	<node id="9943103272" lat="62.6197417" lon="7.5854862" version="1" timestamp="2022-08-09T17:22:13Z" changeset="124695813" uid="3497659" user="NKA">
		<tag k="name" v="Holmemsetra" />
		<tag k="place" v="isolated_dwelling" />
		<tag k="ssr:stedsnr" v="618656" />
	</node>
	<node id="9943103273" lat="62.6595046" lon="7.5922239" version="1" timestamp="2022-08-09T17:22:13Z" changeset="124695813" uid="3497659" user="NKA">
		<tag k="name" v="Holmsetra" />
		<tag k="place" v="isolated_dwelling" />
		<tag k="ssr:stedsnr" v="579749" />
	</node>
	<node id="9943103274" lat="62.6174748" lon="7.5921504" version="1" timestamp="2022-08-09T17:22:13Z" changeset="124695813" uid="3497659" user="NKA">
		<tag k="historic" v="shieling" />
		<tag k="name" v="Øverbøsetra" />
		<tag k="place" v="isolated_dwelling" />
		<tag k="ssr:stedsnr" v="497544" />
	</node>
	<node id="9943103275" lat="62.5558214" lon="7.8340705" version="1" timestamp="2022-08-09T17:22:13Z" changeset="124695813" uid="3497659" user="NKA">
		<tag k="name" v="Madshaug" />
		<tag k="place" v="farm" />
		<tag k="ssr:stedsnr" v="193129" />
	</node>
	<node id="9943103276" lat="62.6671966" lon="7.6394226" version="1" timestamp="2022-08-09T17:22:13Z" changeset="124695813" uid="3497659" user="NKA">
		<tag k="alt_name" v="Slemmesetran;Slemmesetra, in" />
		<tag k="historic" v="shieling" />
		<tag k="name" v="Indre Slemmesetra" />
		<tag k="place" v="isolated_dwelling" />
		<tag k="ssr:stedsnr" v="557724" />
	</node>
	<node id="9943103277" lat="62.5228541" lon="7.409224" version="1" timestamp="2022-08-09T17:22:13Z" changeset="124695813" uid="3497659" user="NKA">
		<tag k="name" v="Samset" />
		<tag k="place" v="hamlet" />
		<tag k="ssr:stedsnr" v="739395" />
	</node>
	<node id="9943103278" lat="62.5582416" lon="7.828439" version="1" timestamp="2022-08-09T17:22:13Z" changeset="124695813" uid="3497659" user="NKA">
		<tag k="name" v="Nygard" />
		<tag k="place" v="farm" />
		<tag k="ssr:stedsnr" v="861162" />
	</node>
	<node id="9943103279" lat="62.5785022" lon="7.5666059" version="1" timestamp="2022-08-09T17:22:13Z" changeset="124695813" uid="3497659" user="NKA">
		<tag k="name" v="Gjerdset" />
		<tag k="place" v="hamlet" />
		<tag k="ssr:stedsnr" v="497500" />
	</node>
	<node id="9943103280" lat="62.5434012" lon="7.7223763" version="1" timestamp="2022-08-09T17:22:13Z" changeset="124695813" uid="3497659" user="NKA">
		<tag k="name" v="Mjelva" />
		<tag k="place" v="hamlet" />
		<tag k="ssr:stedsnr" v="193125" />
	</node>
	<node id="9943103281" lat="62.5005063" lon="7.7606208" version="1" timestamp="2022-08-09T17:22:13Z" changeset="124695813" uid="3497659" user="NKA">
		<tag k="name" v="Øver-Fiva" />
		<tag k="place" v="farm" />
		<tag k="ssr:stedsnr" v="861207" />
	</node>
	<node id="9943103282" lat="62.4888917" lon="7.4319556" version="1" timestamp="2022-08-09T17:22:13Z" changeset="124695813" uid="3497659" user="NKA">
		<tag k="historic" v="shieling" />
		<tag k="name" v="Røsta" />
		<tag k="place" v="isolated_dwelling" />
		<tag k="ssr:stedsnr" v="617890" />
	</node>
	<node id="9943103283" lat="62.5260765" lon="7.7020013" version="1" timestamp="2022-08-09T17:22:13Z" changeset="124695813" uid="3497659" user="NKA">
		<tag k="name" v="Midgard" />
		<tag k="place" v="farm" />
		<tag k="ssr:stedsnr" v="861362" />
	</node>
	<node id="9943103284" lat="62.4721167" lon="7.5351973" version="1" timestamp="2022-08-09T17:22:13Z" changeset="124695813" uid="3497659" user="NKA">
		<tag k="historic" v="shieling" />
		<tag k="name" v="Sagsetra" />
		<tag k="place" v="isolated_dwelling" />
		<tag k="ssr:stedsnr" v="521926" />
	</node>
	<node id="9943103285" lat="62.5681306" lon="7.7297722" version="1" timestamp="2022-08-09T17:22:13Z" changeset="124695813" uid="3497659" user="NKA">
		<tag k="name" v="Nessetra" />
		<tag k="place" v="locality" />
		<tag k="ssr:stedsnr" v="704571" />
	</node>
	<node id="9943103286" lat="62.6873499" lon="7.6186509" version="1" timestamp="2022-08-09T17:22:13Z" changeset="124695813" uid="3497659" user="NKA">
		<tag k="name" v="Haugan" />
		<tag k="place" v="farm" />
		<tag k="ssr:stedsnr" v="679699" />
	</node>
	<node id="9943103287" lat="62.5806722" lon="7.5007557" version="1" timestamp="2022-08-09T17:22:13Z" changeset="124695813" uid="3497659" user="NKA">
		<tag k="name" v="Litlebakken" />
		<tag k="place" v="locality" />
		<tag k="ssr:stedsnr" v="521625" />
	</node>
	<node id="9943103288" lat="62.6854805" lon="7.6105916" version="1" timestamp="2022-08-09T17:22:13Z" changeset="124695813" uid="3497659" user="NKA">
		<tag k="name" v="Skiplassen" />
		<tag k="place" v="locality" />
		<tag k="ssr:stedsnr" v="154161" />
	</node>
	<node id="9943103289" lat="62.6849913" lon="7.6145643" version="1" timestamp="2022-08-09T17:22:13Z" changeset="124695813" uid="3497659" user="NKA">
		<tag k="name" v="Indre Slemmå" />
		<tag k="place" v="hamlet" />
		<tag k="ssr:stedsnr" v="739714" />
	</node>
	<node id="9943103290" lat="62.5576917" lon="7.5599407" version="1" timestamp="2022-08-09T17:22:13Z" changeset="124695813" uid="3497659" user="NKA">
		<tag k="name" v="Klungnes" />
		<tag k="place" v="hamlet" />
		<tag k="ssr:stedsnr" v="497531" />
	</node>
	<node id="9943103291" lat="62.5615718" lon="7.8243612" version="1" timestamp="2022-08-09T17:22:13Z" changeset="124695813" uid="3497659" user="NKA">
		<tag k="name" v="Steinsetra" />
		<tag k="place" v="locality" />
		<tag k="ssr:stedsnr" v="981811" />
	</node>
	<node id="9943103292" lat="62.6186667" lon="7.5873445" version="1" timestamp="2022-08-09T17:22:13Z" changeset="124695813" uid="3497659" user="NKA">
		<tag k="alt_name" v="Robbesetra" />
		<tag k="name" v="Rabbesetra" />
		<tag k="place" v="isolated_dwelling" />
		<tag k="ssr:stedsnr" v="497660" />
	</node>
	<node id="9943103293" lat="62.6204912" lon="7.4544437" version="1" timestamp="2022-08-09T17:22:13Z" changeset="124695813" uid="3497659" user="NKA">
		<tag k="name" v="Dalsbø" />
		<tag k="place" v="farm" />
		<tag k="ssr:stedsnr" v="496679" />
	</node>
	<node id="9943103294" lat="62.5109886" lon="7.7601892" version="1" timestamp="2022-08-09T17:22:13Z" changeset="124695813" uid="3497659" user="NKA">
		<tag k="name" v="Fiva" />
		<tag k="place" v="hamlet" />
		<tag k="ssr:stedsnr" v="557225" />
	</node>
	<node id="9943103295" lat="62.4794917" lon="7.5460801" version="1" timestamp="2022-08-09T17:22:13Z" changeset="124695813" uid="3497659" user="NKA">
		<tag k="name" v="Gjerde" />
		<tag k="place" v="hamlet" />
		<tag k="ssr:stedsnr" v="496890" />
	</node>
	<node id="9943103296" lat="62.4977281" lon="7.5696385" version="1" timestamp="2022-08-09T17:22:13Z" changeset="124695813" uid="3497659" user="NKA">
		<tag k="name" v="Vik" />
		<tag k="place" v="hamlet" />
		<tag k="ssr:stedsnr" v="314899" />
	</node>
	<node id="9943103297" lat="62.6882666" lon="7.7215567" version="1" timestamp="2022-08-09T17:22:13Z" changeset="124695813" uid="3497659" user="NKA">
		<tag k="name" v="Slettan" />
		<tag k="place" v="farm" />
		<tag k="ssr:stedsnr" v="760476" />
	</node>
	<node id="9943103298" lat="62.4899944" lon="7.5298361" version="1" timestamp="2022-08-09T17:22:13Z" changeset="124695813" uid="3497659" user="NKA">
		<tag k="historic" v="shieling" />
		<tag k="name" v="Haugsetra" />
		<tag k="place" v="isolated_dwelling" />
		<tag k="ssr:stedsnr" v="157872" />
	</node>
	<node id="9943103299" lat="62.4993778" lon="7.4232111" version="1" timestamp="2022-08-09T17:22:13Z" changeset="124695813" uid="3497659" user="NKA">
		<tag k="historic" v="shieling" />
		<tag k="name" v="Samsetsetra" />
		<tag k="place" v="isolated_dwelling" />
		<tag k="ssr:stedsnr" v="253928" />
	</node>
	<node id="9943103300" lat="62.5647379" lon="7.8230946" version="1" timestamp="2022-08-09T17:22:13Z" changeset="124695813" uid="3497659" user="NKA">
		<tag k="name" v="Breilia" />
		<tag k="place" v="hamlet" />
		<tag k="ssr:stedsnr" v="800191" />
	</node>
	<node id="9943103301" lat="62.5108223" lon="7.5158806" version="1" timestamp="2022-08-09T17:22:13Z" changeset="124695813" uid="3497659" user="NKA">
		<tag k="historic" v="shieling" />
		<tag k="name" v="Sætsetra" />
		<tag k="place" v="isolated_dwelling" />
		<tag k="ssr:stedsnr" v="96885" />
	</node>
	<node id="9943103302" lat="62.6318963" lon="7.4864489" version="1" timestamp="2022-08-09T17:22:13Z" changeset="124695813" uid="3497659" user="NKA">
		<tag k="name" v="Øver-Hunnes" />
		<tag k="place" v="hamlet" />
		<tag k="ssr:stedsnr" v="436626" />
	</node>
	<node id="9943103303" lat="62.5343528" lon="7.385339" version="1" timestamp="2022-08-09T17:22:13Z" changeset="124695813" uid="3497659" user="NKA">
		<tag k="historic" v="shieling" />
		<tag k="name" v="Gamlestølen" />
		<tag k="place" v="isolated_dwelling" />
		<tag k="ssr:stedsnr" v="461560" />
	</node>
	<node id="9943103304" lat="62.5408188" lon="7.5901337" version="1" timestamp="2022-08-09T17:22:13Z" changeset="124695813" uid="3497659" user="NKA">
		<tag k="name" v="Innholmen" />
		<tag k="place" v="farm" />
		<tag k="ssr:stedsnr" v="437449" />
	</node>
	<node id="9943103305" lat="62.5852418" lon="7.7282556" version="1" timestamp="2022-08-09T17:22:13Z" changeset="124695813" uid="3497659" user="NKA">
		<tag k="name" v="Rabben" />
		<tag k="place" v="isolated_dwelling" />
		<tag k="ssr:stedsnr" v="582584" />
	</node>
	<node id="9943103306" lat="62.6149889" lon="7.584889" version="1" timestamp="2022-08-09T17:22:13Z" changeset="124695813" uid="3497659" user="NKA">
		<tag k="alt_name" v="Høgstølen" />
		<tag k="historic" v="shieling" />
		<tag k="name" v="Bøgardssetra" />
		<tag k="place" v="isolated_dwelling" />
		<tag k="ssr:stedsnr" v="436539" />
	</node>
	<node id="9943103307" lat="62.5536016" lon="7.6814768" version="1" timestamp="2022-08-09T17:22:13Z" changeset="124695813" uid="3497659" user="NKA">
		<tag k="name" v="Setnes" />
		<tag k="place" v="hamlet" />
		<tag k="ssr:stedsnr" v="315414" />
	</node>
	<node id="9943103308" lat="62.6654805" lon="7.5226417" version="1" timestamp="2022-08-09T17:22:13Z" changeset="124695813" uid="3497659" user="NKA">
		<tag k="name" v="Herjegeilen" />
		<tag k="place" v="farm" />
		<tag k="ssr:stedsnr" v="436735" />
	</node>
	<node id="9943103309" lat="62.4797915" lon="7.5396702" version="1" timestamp="2022-08-09T17:22:13Z" changeset="124695813" uid="3497659" user="NKA">
		<tag k="name" v="Hafella" />
		<tag k="place" v="farm" />
		<tag k="ssr:stedsnr" v="96851" />
	</node>
	<node id="9943103310" lat="62.6031347" lon="7.5467072" version="1" timestamp="2022-08-09T17:22:13Z" changeset="124695813" uid="3497659" user="NKA">
		<tag k="name" v="Botn" />
		<tag k="place" v="farm" />
		<tag k="ssr:stedsnr" v="436563" />
	</node>
	<node id="9943103311" lat="62.6690071" lon="7.5355851" version="1" timestamp="2022-08-09T17:22:13Z" changeset="124695813" uid="3497659" user="NKA">
		<tag k="alt_name" v="Herje, in;Herje" />
		<tag k="name" v="Indre Herje" />
		<tag k="place" v="farm" />
		<tag k="ssr:stedsnr" v="436741" />
	</node>
	<node id="9943103312" lat="62.477838" lon="7.5422112" version="1" timestamp="2022-08-09T17:22:13Z" changeset="124695813" uid="3497659" user="NKA">
		<tag k="name" v="Valved" />
		<tag k="place" v="farm" />
		<tag k="ssr:stedsnr" v="82276" />
	</node>
	<node id="9943103313" lat="62.4977636" lon="7.4359315" version="1" timestamp="2022-08-09T17:22:13Z" changeset="124695813" uid="3497659" user="NKA">
		<tag k="historic" v="shieling" />
		<tag k="name" v="Nysetra" />
		<tag k="place" v="hamlet" />
		<tag k="ssr:stedsnr" v="11926" />
	</node>
	<node id="9943103314" lat="62.5833546" lon="7.6662048" version="1" timestamp="2022-08-09T17:22:13Z" changeset="124695813" uid="3497659" user="NKA">
		<tag k="name" v="Einangsetra" />
		<tag k="place" v="isolated_dwelling" />
		<tag k="ssr:stedsnr" v="436486" />
	</node>
	<node id="9943103315" lat="62.4758175" lon="7.5362829" version="1" timestamp="2022-08-09T17:22:13Z" changeset="124695813" uid="3497659" user="NKA">
		<tag k="name" v="Engan" />
		<tag k="place" v="hamlet" />
		<tag k="ssr:stedsnr" v="71912" />
	</node>
	<node id="9943103316" lat="62.5650807" lon="7.7982087" version="1" timestamp="2022-08-09T17:22:13Z" changeset="124695813" uid="3497659" user="NKA">
		<tag k="historic" v="shieling" />
		<tag k="name" v="Hestesetra" />
		<tag k="place" v="isolated_dwelling" />
		<tag k="ssr:stedsnr" v="521641" />
	</node>
	<node id="9943103317" lat="62.5802333" lon="7.8533084" version="1" timestamp="2022-08-09T17:22:13Z" changeset="124695813" uid="3497659" user="NKA">
		<tag k="name" v="Melbø" />
		<tag k="place" v="farm" />
		<tag k="ssr:stedsnr" v="496173" />
	</node>
	<node id="9943103318" lat="62.6912186" lon="7.7009757" version="1" timestamp="2022-08-09T17:22:13Z" changeset="124695813" uid="3497659" user="NKA">
		<tag k="name" v="Åsen" />
		<tag k="place" v="farm" />
		<tag k="ssr:stedsnr" v="396472" />
	</node>
	<node id="9943103319" lat="62.5798611" lon="7.7947278" version="1" timestamp="2022-08-09T17:22:13Z" changeset="124695813" uid="3497659" user="NKA">
		<tag k="name" v="Pundet" />
		<tag k="place" v="farm" />
		<tag k="ssr:stedsnr" v="522420" />
	</node>
	<node id="9943103320" lat="62.690881" lon="7.7020458" version="1" timestamp="2022-08-09T17:22:13Z" changeset="124695813" uid="3497659" user="NKA">
		<tag k="name" v="Gjerdet" />
		<tag k="place" v="farm" />
		<tag k="ssr:stedsnr" v="518485" />
	</node>
	<node id="9943103321" lat="62.6766547" lon="7.5604992" version="1" timestamp="2022-08-09T17:22:13Z" changeset="124695813" uid="3497659" user="NKA">
		<tag k="alt_name" v="Holmshaug" />
		<tag k="name" v="Holmshaugen" />
		<tag k="place" v="farm" />
		<tag k="ssr:stedsnr" v="375694" />
	</node>
	<node id="9943103322" lat="62.6658306" lon="7.7505085" version="1" timestamp="2022-08-09T17:22:13Z" changeset="124695813" uid="3497659" user="NKA">
		<tag k="name" v="Halvorstølen" />
		<tag k="place" v="locality" />
		<tag k="ssr:stedsnr" v="518993" />
	</node>
	<node id="9943103323" lat="62.6894112" lon="7.7195889" version="1" timestamp="2022-08-09T17:22:13Z" changeset="124695813" uid="3497659" user="NKA">
		<tag k="name" v="Øverbøen" />
		<tag k="place" v="farm" />
		<tag k="ssr:stedsnr" v="375266" />
	</node>
	<node id="9943103324" lat="62.4922166" lon="7.4262751" version="1" timestamp="2022-08-09T17:22:13Z" changeset="124695813" uid="3497659" user="NKA">
		<tag k="name" v="Søvikstølen" />
		<tag k="place" v="locality" />
		<tag k="ssr:stedsnr" v="886806" />
	</node>
	<node id="9943103325" lat="62.5481685" lon="7.7178828" version="1" timestamp="2022-08-09T17:22:13Z" changeset="124695813" uid="3497659" user="NKA">
		<tag k="name" v="Høljenes" />
		<tag k="place" v="hamlet" />
		<tag k="ssr:stedsnr" v="436410" />
	</node>
	<node id="9943103326" lat="62.5637119" lon="7.8243346" version="1" timestamp="2022-08-09T17:22:13Z" changeset="124695813" uid="3497659" user="NKA">
		<tag k="name" v="Stølen" />
		<tag k="place" v="farm" />
		<tag k="ssr:stedsnr" v="157607" />
	</node>
	<node id="9943103327" lat="62.5022861" lon="7.430414" version="1" timestamp="2022-08-09T17:22:13Z" changeset="124695813" uid="3497659" user="NKA">
		<tag k="name" v="Megrovløa" />
		<tag k="place" v="locality" />
		<tag k="ssr:stedsnr" v="886795" />
	</node>
	<node id="9943103328" lat="62.5597256" lon="7.8308638" version="1" timestamp="2022-08-09T17:22:13Z" changeset="124695813" uid="3497659" user="NKA">
		<tag k="name" v="Remma" />
		<tag k="place" v="hamlet" />
		<tag k="ssr:stedsnr" v="436169" />
	</node>
	<node id="9943103329" lat="62.5855639" lon="7.7523861" version="1" timestamp="2022-08-09T17:22:13Z" changeset="124695813" uid="3497659" user="NKA">
		<tag k="name" v="Indre Breivika" />
		<tag k="place" v="farm" />
		<tag k="ssr:stedsnr" v="922294" />
	</node>
	<node id="9943103330" lat="62.679003" lon="7.7291378" version="1" timestamp="2022-08-09T17:22:13Z" changeset="124695813" uid="3497659" user="NKA">
		<tag k="name" v="Dale" />
		<tag k="place" v="hamlet" />
		<tag k="ssr:stedsnr" v="436276" />
	</node>
	<node id="9943103331" lat="62.5271744" lon="7.419798" version="1" timestamp="2022-08-09T17:22:13Z" changeset="124695813" uid="3497659" user="NKA">
		<tag k="name" v="Roknem" />
		<tag k="place" v="hamlet" />
		<tag k="ssr:stedsnr" v="981873" />
	</node>
	<node id="9943103332" lat="62.5326042" lon="7.4637967" version="1" timestamp="2022-08-09T17:22:13Z" changeset="124695813" uid="3497659" user="NKA">
		<tag k="name" v="Otervang" />
		<tag k="place" v="farm" />
		<tag k="ssr:stedsnr" v="981999" />
	</node>
	<node id="9943103333" lat="62.5782728" lon="7.7640492" version="1" timestamp="2022-08-09T17:22:13Z" changeset="124695813" uid="3497659" user="NKA">
		<tag k="name" v="Tokle" />
		<tag k="place" v="hamlet" />
		<tag k="ssr:stedsnr" v="158463" />
	</node>
	<node id="9943103334" lat="62.4929259" lon="7.5644982" version="1" timestamp="2022-08-09T17:22:13Z" changeset="124695813" uid="3497659" user="NKA">
		<tag k="name" v="Øver-Bø" />
		<tag k="place" v="hamlet" />
		<tag k="ssr:stedsnr" v="193877" />
	</node>
	<node id="9943103335" lat="62.5163167" lon="7.3859307" version="1" timestamp="2022-08-09T17:22:13Z" changeset="124695813" uid="3497659" user="NKA">
		<tag k="name" v="Øygarden" />
		<tag k="place" v="farm" />
		<tag k="ssr:stedsnr" v="193422" />
	</node>
	<node id="9943103336" lat="62.5775679" lon="7.6700905" version="1" timestamp="2022-08-09T17:22:13Z" changeset="124695813" uid="3497659" user="NKA">
		<tag k="name" v="Einangen" />
		<tag k="place" v="hamlet" />
		<tag k="ssr:stedsnr" v="497497" />
	</node>
	<node id="9943103337" lat="62.5491" lon="7.8822972" version="1" timestamp="2022-08-09T17:22:13Z" changeset="124695813" uid="3497659" user="NKA">
		<tag k="name" v="Gyldenskog" />
		<tag k="place" v="farm" />
		<tag k="ssr:stedsnr" v="946719" />
	</node>
	<node id="9943103338" lat="62.5256417" lon="7.9309778" version="1" timestamp="2022-08-09T17:22:13Z" changeset="124695813" uid="3497659" user="NKA">
		<tag k="name" v="Veistad" />
		<tag k="place" v="locality" />
		<tag k="ssr:stedsnr" v="158781" />
	</node>
	<node id="9943103339" lat="62.4911222" lon="7.5263889" version="1" timestamp="2022-08-09T17:22:13Z" changeset="124695813" uid="3497659" user="NKA">
		<tag k="historic" v="shieling" />
		<tag k="name" v="Mildridstølen" />
		<tag k="place" v="isolated_dwelling" />
		<tag k="ssr:stedsnr" v="704855" />
	</node>
	<node id="9943103340" lat="62.5849208" lon="7.7444811" version="1" timestamp="2022-08-09T17:22:13Z" changeset="124695813" uid="3497659" user="NKA">
		<tag k="name" v="Breivika" />
		<tag k="place" v="hamlet" />
		<tag k="ssr:stedsnr" v="385042" />
	</node>
	<node id="9943103341" lat="62.696984" lon="7.7058176" version="1" timestamp="2022-08-09T17:22:13Z" changeset="124695813" uid="3497659" user="NKA">
		<tag k="name" v="Myra" />
		<tag k="place" v="farm" />
		<tag k="ssr:stedsnr" v="700678" />
	</node>
	<node id="9943103342" lat="62.6682416" lon="7.7423306" version="1" timestamp="2022-08-09T17:22:13Z" changeset="124695813" uid="3497659" user="NKA">
		<tag k="alt_name" v="Mittetsetra" />
		<tag k="historic" v="shieling" />
		<tag k="name" v="Innermittetsetra" />
		<tag k="place" v="isolated_dwelling" />
		<tag k="ssr:stedsnr" v="618252" />
	</node>
	<node id="9943103343" lat="62.6671948" lon="7.528569" version="1" timestamp="2022-08-09T17:22:13Z" changeset="124695813" uid="3497659" user="NKA">
		<tag k="name" v="Ytre Herje" />
		<tag k="place" v="farm" />
		<tag k="ssr:stedsnr" v="931578" />
	</node>
	<node id="9943103344" lat="62.5809666" lon="7.6705501" version="1" timestamp="2022-08-09T17:22:13Z" changeset="124695813" uid="3497659" user="NKA">
		<tag k="name" v="Nakken" />
		<tag k="place" v="farm" />
		<tag k="ssr:stedsnr" v="97629" />
	</node>
	<node id="9943103345" lat="62.6263889" lon="7.4613363" version="1" timestamp="2022-08-09T17:22:13Z" changeset="124695813" uid="3497659" user="NKA">
		<tag k="name" v="Øverland" />
		<tag k="place" v="farm" />
		<tag k="ssr:stedsnr" v="921674" />
	</node>
	<node id="9943103346" lat="62.580412" lon="7.8361084" version="1" timestamp="2022-08-09T17:22:13Z" changeset="124695813" uid="3497659" user="NKA">
		<tag k="name" v="Vollen" />
		<tag k="place" v="farm" />
		<tag k="ssr:stedsnr" v="400475" />
	</node>
	<node id="9943103347" lat="62.581043" lon="7.6865863" version="1" timestamp="2022-08-09T17:22:13Z" changeset="124695813" uid="3497659" user="NKA">
		<tag k="name" v="Stranda" />
		<tag k="place" v="hamlet" />
		<tag k="ssr:stedsnr" v="254522" />
	</node>
	<node id="9943103348" lat="62.5355698" lon="7.5015574" version="1" timestamp="2022-08-09T17:22:13Z" changeset="124695813" uid="3497659" user="NKA">
		<tag k="name" v="Nedre Hovde" />
		<tag k="place" v="farm" />
		<tag k="ssr:stedsnr" v="825444" />
	</node>
	<node id="9943103349" lat="62.3036444" lon="8.093125" version="1" timestamp="2022-08-09T17:22:13Z" changeset="124695813" uid="3497659" user="NKA">
		<tag k="historic" v="shieling" />
		<tag k="name" v="Brulisetra" />
		<tag k="place" v="isolated_dwelling" />
		<tag k="ssr:stedsnr" v="800226" />
	</node>
	<node id="9943103350" lat="62.5857" lon="7.7453584" version="1" timestamp="2022-08-09T17:22:13Z" changeset="124695813" uid="3497659" user="NKA">
		<tag k="name" v="Toklegjerda" />
		<tag k="place" v="farm" />
		<tag k="ssr:stedsnr" v="36527" />
	</node>
	<node id="9943103351" lat="62.5808569" lon="7.831365" version="1" timestamp="2022-08-09T17:22:13Z" changeset="124695813" uid="3497659" user="NKA">
		<tag k="name" v="Ytre Kavli" />
		<tag k="place" v="farm" />
		<tag k="ssr:stedsnr" v="678346" />
	</node>
	<node id="9943103352" lat="62.5103278" lon="7.4276306" version="1" timestamp="2022-08-09T17:22:13Z" changeset="124695813" uid="3497659" user="NKA">
		<tag k="historic" v="shieling" />
		<tag k="name" v="Gamlesetra" />
		<tag k="place" v="isolated_dwelling" />
		<tag k="ssr:stedsnr" v="567968" />
	</node>
	<node id="9943103353" lat="62.6123916" lon="7.430114" version="1" timestamp="2022-08-09T17:22:13Z" changeset="124695813" uid="3497659" user="NKA">
		<tag k="name" v="Limsteinen" />
		<tag k="place" v="locality" />
		<tag k="ssr:stedsnr" v="761617" />
	</node>
	<node id="9943103354" lat="62.5817417" lon="7.4678973" version="1" timestamp="2022-08-09T17:22:13Z" changeset="124695813" uid="3497659" user="NKA">
		<tag k="name" v="Haukeberghagen" />
		<tag k="place" v="locality" />
		<tag k="ssr:stedsnr" v="582641" />
	</node>
	<node id="9943103355" lat="62.5709881" lon="7.8713455" version="1" timestamp="2022-08-09T17:22:13Z" changeset="124695813" uid="3497659" user="NKA">
		<tag k="name" v="Bjerkeli" />
		<tag k="place" v="farm" />
		<tag k="ssr:stedsnr" v="11147" />
	</node>
	<node id="9943103356" lat="62.5382" lon="7.4141611" version="1" timestamp="2022-08-09T17:22:13Z" changeset="124695813" uid="3497659" user="NKA">
		<tag k="name" v="Nysetran" />
		<tag k="place" v="locality" />
		<tag k="ssr:stedsnr" v="764980" />
	</node>
	<node id="9943103357" lat="62.5709833" lon="7.8703722" version="1" timestamp="2022-08-09T17:22:13Z" changeset="124695813" uid="3497659" user="NKA">
		<tag k="alt_name" v="Bjerkeli" />
		<tag k="name" v="Nebba" />
		<tag k="place" v="farm" />
		<tag k="ssr:stedsnr" v="885431" />
	</node>
	<node id="9943103358" lat="62.6272917" lon="7.5305807" version="1" timestamp="2022-08-09T17:22:13Z" changeset="124695813" uid="3497659" user="NKA">
		<tag k="name" v="Rostad" />
		<tag k="place" v="farm" />
		<tag k="ssr:stedsnr" v="579597" />
	</node>
	<node id="9943103359" lat="62.6237723" lon="7.4423473" version="1" timestamp="2022-08-09T17:22:13Z" changeset="124695813" uid="3497659" user="NKA">
		<tag k="historic" v="shieling" />
		<tag k="name" v="Landresetra" />
		<tag k="place" v="isolated_dwelling" />
		<tag k="ssr:stedsnr" v="557640" />
	</node>
	<node id="9943103360" lat="62.5595287" lon="7.5645592" version="1" timestamp="2022-08-09T17:22:13Z" changeset="124695813" uid="3497659" user="NKA">
		<tag k="name" v="Myrset" />
		<tag k="place" v="farm" />
		<tag k="ssr:stedsnr" v="740545" />
	</node>
	<node id="9943103361" lat="62.6778784" lon="7.5948153" version="1" timestamp="2022-08-09T17:22:13Z" changeset="124695813" uid="3497659" user="NKA">
		<tag k="name" v="Ytre Slemmå" />
		<tag k="place" v="hamlet" />
		<tag k="ssr:stedsnr" v="315733" />
	</node>
	<node id="9943103362" lat="62.4687027" lon="7.529007" version="1" timestamp="2022-08-09T17:22:13Z" changeset="124695813" uid="3497659" user="NKA">
		<tag k="name" v="Holte" />
		<tag k="place" v="locality" />
		<tag k="ssr:stedsnr" v="314875" />
	</node>
	<node id="9943103363" lat="62.6111951" lon="7.5434629" version="1" timestamp="2022-08-09T17:22:13Z" changeset="124695813" uid="3497659" user="NKA">
		<tag k="name" v="Ytre Holmem" />
		<tag k="place" v="farm" />
		<tag k="ssr:stedsnr" v="384568" />
	</node>
	<node id="9943103364" lat="62.5806834" lon="7.8328668" version="1" timestamp="2022-08-09T17:22:13Z" changeset="124695813" uid="3497659" user="NKA">
		<tag k="name" v="Unjemskollen" />
		<tag k="place" v="farm" />
		<tag k="ssr:stedsnr" v="581502" />
	</node>
	<node id="9943103365" lat="62.5327426" lon="7.4702003" version="1" timestamp="2022-08-09T17:22:13Z" changeset="124695813" uid="3497659" user="NKA">
		<tag k="name" v="Otterholm" />
		<tag k="place" v="farm" />
		<tag k="ssr:stedsnr" v="981995" />
	</node>
	<node id="9943103366" lat="62.5825117" lon="7.8393692" version="1" timestamp="2022-08-09T17:22:13Z" changeset="124695813" uid="3497659" user="NKA">
		<tag k="name" v="Holen" />
		<tag k="place" v="farm" />
		<tag k="ssr:stedsnr" v="581500" />
	</node>
	<node id="9943103367" lat="62.4953667" lon="7.5308084" version="1" timestamp="2022-08-09T17:22:13Z" changeset="124695813" uid="3497659" user="NKA">
		<tag k="historic" v="shieling" />
		<tag k="name" v="Gammelsetra" />
		<tag k="place" v="isolated_dwelling" />
		<tag k="ssr:stedsnr" v="279868" />
	</node>
</osm>
