<?xml version="1.0" encoding="UTF-8"?>
<osm version="0.6" generator="osmapis">
	<node id="848519661" lat="59.1625441" lon="7.5328324" version="3" timestamp="2018-04-10T18:40:02Z" changeset="57982147" uid="3497659" user="NKA">
		<tag k="name" v="Sandnes" />
		<tag k="place" v="hamlet" />
		<tag k="ssr:stedsnr" v="183592" />
		<tag k="ssr:type" v="bruk" />
	</node>
	<node id="848519680" lat="59.1833314" lon="7.5266394" version="3" timestamp="2018-04-10T18:40:02Z" changeset="57982147" uid="3497659" user="NKA">
		<tag k="alt_name" v="Kveste" />
		<tag k="name" v="Kvestad" />
		<tag k="place" v="hamlet" />
		<tag k="ssr:stedsnr" v="548610" />
		<tag k="ssr:type" v="gard" />
	</node>
	<node id="853595924" lat="59.2379076" lon="7.5394161" version="3" timestamp="2018-04-10T18:40:03Z" changeset="57982147" uid="3497659" user="NKA">
		<tag k="name" v="Homme" />
		<tag k="place" v="hamlet" />
		<tag k="ssr:stedsnr" v="486940" />
		<tag k="ssr:type" v="bygdelagBygd" />
	</node>
	<node id="1648302987" lat="59.0894724" lon="7.5416243" version="4" timestamp="2018-04-10T18:40:04Z" changeset="57982147" uid="3497659" user="NKA">
		<tag k="name" v="Rysstad" />
		<tag k="place" v="village" />
		<tag k="ssr:stedsnr" v="183635" />
		<tag k="ssr:type" v="bygdelagBygd" />
	</node>
	<node id="2515284873" lat="59.2119382" lon="7.5368833" version="3" timestamp="2018-04-10T18:40:06Z" changeset="57982147" uid="3497659" user="NKA">
		<tag k="name" v="Valle" />
		<tag k="place" v="village" />
		<tag k="ssr:stedsnr" v="123563" />
		<tag k="ssr:type" v="bygdelagBygd" />
	</node>
	<node id="2525069144" lat="59.2489079" lon="7.4797018" version="3" timestamp="2018-04-10T18:40:06Z" changeset="57982147" uid="3497659" user="NKA">
		<tag k="name" v="Flateland" />
		<tag k="place" v="hamlet" />
		<tag k="ssr:stedsnr" v="385264" />
		<tag k="ssr:type" v="grend" />
	</node>
	<node id="2525069146" lat="59.0611619" lon="7.5648284" version="3" timestamp="2018-04-10T18:40:07Z" changeset="57982147" uid="3497659" user="NKA">
		<tag k="name" v="Helle" />
		<tag k="place" v="hamlet" />
		<tag k="ssr:stedsnr" v="244725" />
		<tag k="ssr:type" v="bruk" />
	</node>
	<node id="2525069150" lat="59.1151263" lon="7.5107226" version="3" timestamp="2018-04-10T18:40:07Z" changeset="57982147" uid="3497659" user="NKA">
		<tag k="name" v="Nomeland" />
		<tag k="place" v="hamlet" />
		<tag k="ssr:stedsnr" v="487713" />
		<tag k="ssr:type" v="bruk" />
	</node>
	<node id="3767243276" lat="59.1069718" lon="7.4895615" version="3" timestamp="2018-04-10T18:40:11Z" changeset="57982147" uid="3497659" user="NKA">
		<tag k="name" v="Brokke" />
		<tag k="place" v="hamlet" />
		<tag k="ssr:stedsnr" v="669666" />
		<tag k="ssr:type" v="bruk" />
	</node>
	<node id="3767296684" lat="59.1371553" lon="7.5119695" version="3" timestamp="2018-04-10T18:40:11Z" changeset="57982147" uid="3497659" user="NKA">
		<tag k="alt_name" v="Uppstad" />
		<tag k="name" v="Upstad" />
		<tag k="place" v="hamlet" />
		<tag k="ssr:stedsnr" v="790599" />
		<tag k="ssr:type" v="bruk" />
	</node>
	<node id="3781109067" lat="59.1926592" lon="7.5010585" version="3" timestamp="2018-04-10T18:40:11Z" changeset="57982147" uid="3497659" user="NKA">
		<tag k="alt_name" v="Berg i Valle" />
		<tag k="name" v="Berg" />
		<tag k="place" v="farm" />
		<tag k="ssr:stedsnr" v="487551" />
		<tag k="ssr:type" v="bruk" />
	</node>
	<node id="3782156557" lat="59.2299117" lon="7.559633" version="3" timestamp="2018-04-10T18:40:11Z" changeset="57982147" uid="3497659" user="NKA">
		<tag k="alt_name" v="Haugum" />
		<tag k="name" v="Haugom" />
		<tag k="place" v="farm" />
		<tag k="ssr:stedsnr" v="851536" />
		<tag k="ssr:type" v="bruk" />
	</node>
	<node id="4485470482" lat="59.0021229" lon="7.4078273" version="4" timestamp="2021-03-18T07:44:17Z" changeset="101237689" uid="3497659" user="NKA">
		<tag k="alt_name" v="Sandviki" />
		<tag k="name" v="Sandvika" />
		<tag k="place" v="isolated_dwelling" />
		<tag k="ssr:stedsnr" v="911325" />
		<tag k="ssr:type" v="fritidsbolig" />
	</node>
	<node id="4488604977" lat="59.1957831" lon="7.5228131" version="2" timestamp="2018-04-10T18:53:18Z" changeset="57982147" uid="3497659" user="NKA">
		<tag k="name" v="Steinsgarden" />
		<tag k="place" v="farm" />
		<tag k="ssr:stedsnr" v="568026" />
		<tag k="ssr:type" v="bruk" />
	</node>
	<node id="4488604978" lat="59.0692684" lon="7.6395057" version="4" timestamp="2021-03-18T07:44:17Z" changeset="101237689" uid="3497659" user="NKA">
		<tag k="historic" v="shieling" />
		<tag k="name" v="Slystøyl" />
		<tag k="place" v="isolated_dwelling" />
		<tag k="ssr:stedsnr" v="669705" />
		<tag k="ssr:type" v="seterStøl" />
	</node>
	<node id="4488604979" lat="59.2032024" lon="7.5214785" version="2" timestamp="2018-04-10T18:53:18Z" changeset="57982147" uid="3497659" user="NKA">
		<tag k="name" v="Steinsland" />
		<tag k="place" v="farm" />
		<tag k="ssr:stedsnr" v="629037" />
		<tag k="ssr:type" v="bruk" />
	</node>
	<node id="4488604980" lat="59.2229164" lon="7.5489542" version="2" timestamp="2018-04-10T18:53:18Z" changeset="57982147" uid="3497659" user="NKA">
		<tag k="alt_name" v="Jordet" />
		<tag k="name" v="Jore" />
		<tag k="place" v="farm" />
		<tag k="ssr:stedsnr" v="547593" />
		<tag k="ssr:type" v="bruk" />
	</node>
	<node id="4488604981" lat="59.0671288" lon="7.6232399" version="2" timestamp="2018-04-10T18:53:18Z" changeset="57982147" uid="3497659" user="NKA">
		<tag k="building" v="cabin" />
		<tag k="name" v="Glennås" />
		<tag k="place" v="isolated_dwelling" />
		<tag k="ssr:stedsnr" v="790741" />
		<tag k="ssr:type" v="fritidsbolig" />
	</node>
	<node id="4488604982" lat="59.219629" lon="7.5447059" version="2" timestamp="2018-04-10T18:53:18Z" changeset="57982147" uid="3497659" user="NKA">
		<tag k="name" v="Lii" />
		<tag k="place" v="farm" />
		<tag k="ssr:stedsnr" v="183512" />
		<tag k="ssr:type" v="bruk" />
	</node>
	<node id="4488604983" lat="59.2156271" lon="7.5398853" version="2" timestamp="2018-04-10T18:53:18Z" changeset="57982147" uid="3497659" user="NKA">
		<tag k="name" v="Ruslehaugen" />
		<tag k="place" v="farm" />
		<tag k="ssr:stedsnr" v="669563" />
		<tag k="ssr:type" v="bruk" />
	</node>
	<node id="4488604984" lat="59.0685458" lon="7.5770186" version="2" timestamp="2018-04-10T18:53:19Z" changeset="57982147" uid="3497659" user="NKA">
		<tag k="name" v="Straume" />
		<tag k="place" v="hamlet" />
		<tag k="ssr:stedsnr" v="365720" />
		<tag k="ssr:type" v="bruk" />
	</node>
	<node id="4488604985" lat="59.0650329" lon="7.5718726" version="2" timestamp="2018-04-10T18:53:19Z" changeset="57982147" uid="3497659" user="NKA">
		<tag k="name" v="Mo" />
		<tag k="place" v="farm" />
		<tag k="ssr:stedsnr" v="183716" />
		<tag k="ssr:type" v="bruk" />
	</node>
	<node id="4488604986" lat="59.2566916" lon="7.5430707" version="4" timestamp="2021-03-18T07:44:17Z" changeset="101237689" uid="3497659" user="NKA">
		<tag k="alt_name" v="Nørdstestøyl" />
		<tag k="historic" v="shieling" />
		<tag k="name" v="Nørdtestøyl" />
		<tag k="place" v="isolated_dwelling" />
		<tag k="ssr:stedsnr" v="811792" />
		<tag k="ssr:type" v="seterStøl" />
	</node>
	<node id="4488604987" lat="59.0680036" lon="7.5696795" version="2" timestamp="2018-04-10T18:53:19Z" changeset="57982147" uid="3497659" user="NKA">
		<tag k="name" v="Skogtun" />
		<tag k="place" v="farm" />
		<tag k="ssr:stedsnr" v="851694" />
		<tag k="ssr:type" v="bruk" />
	</node>
	<node id="4488604988" lat="59.2168811" lon="7.4819795" version="4" timestamp="2021-03-18T07:44:17Z" changeset="101237689" uid="3497659" user="NKA">
		<tag k="alt_name" v="Dalstøyl" />
		<tag k="historic" v="shieling" />
		<tag k="name" v="Dåstøyl" />
		<tag k="place" v="isolated_dwelling" />
		<tag k="ssr:stedsnr" v="912580" />
		<tag k="ssr:type" v="seterStøl" />
	</node>
	<node id="4488604989" lat="59.063541" lon="7.5613537" version="2" timestamp="2018-04-10T18:53:19Z" changeset="57982147" uid="3497659" user="NKA">
		<tag k="name" v="Åsheim" />
		<tag k="place" v="farm" />
		<tag k="ssr:stedsnr" v="547741" />
		<tag k="ssr:type" v="bruk" />
	</node>
	<node id="4488604990" lat="59.1421842" lon="7.5166562" version="2" timestamp="2018-04-10T18:53:19Z" changeset="57982147" uid="3497659" user="NKA">
		<tag k="name" v="Uppstad (øvre)" />
		<tag k="place" v="farm" />
		<tag k="ssr:stedsnr" v="83610" />
		<tag k="ssr:type" v="bruk" />
	</node>
	<node id="4488604991" lat="59.2198971" lon="7.4074718" version="4" timestamp="2021-03-18T07:44:17Z" changeset="101237689" uid="3497659" user="NKA">
		<tag k="historic" v="shieling" />
		<tag k="name" v="Kroni" />
		<tag k="place" v="isolated_dwelling" />
		<tag k="ssr:stedsnr" v="426533" />
		<tag k="ssr:type" v="seterStøl" />
	</node>
	<node id="4488604992" lat="59.1308454" lon="7.6043927" version="3" timestamp="2018-04-28T08:07:37Z" changeset="58497758" uid="3497659" user="NKA">
		<tag k="historic" v="shieling" />
		<tag k="name" v="Bjørndalen" />
		<tag k="place" v="locality" />
		<tag k="ssr:stedsnr" v="326662" />
		<tag k="ssr:type" v="seterStøl" />
	</node>
	<node id="4488604993" lat="59.0596705" lon="7.3964677" version="4" timestamp="2021-03-18T07:44:17Z" changeset="101237689" uid="3497659" user="NKA">
		<tag k="alt_name" v="Gardevasstøylen" />
		<tag k="historic" v="shieling" />
		<tag k="name" v="Garevass-støylen" />
		<tag k="place" v="isolated_dwelling" />
		<tag k="ssr:stedsnr" v="790745" />
		<tag k="ssr:type" v="seterStøl" />
	</node>
	<node id="4488604994" lat="59.0640856" lon="7.3771047" version="4" timestamp="2021-03-18T07:44:17Z" changeset="101237689" uid="3497659" user="NKA">
		<tag k="historic" v="shieling" />
		<tag k="name" v="Myklestøyl" />
		<tag k="place" v="isolated_dwelling" />
		<tag k="ssr:stedsnr" v="547745" />
		<tag k="ssr:type" v="seterStøl" />
	</node>
	<node id="4488604995" lat="59.1535683" lon="7.5133743" version="3" timestamp="2021-03-18T07:44:17Z" changeset="101237689" uid="3497659" user="NKA">
		<tag k="name" v="Bjørneskar" />
		<tag k="place" v="isolated_dwelling" />
		<tag k="ssr:stedsnr" v="23631" />
		<tag k="ssr:type" v="fritidsbolig" />
	</node>
	<node id="4488604996" lat="59.2527809" lon="7.492231" version="2" timestamp="2018-04-10T18:53:20Z" changeset="57982147" uid="3497659" user="NKA">
		<tag k="name" v="Feddufs" />
		<tag k="place" v="farm" />
		<tag k="ssr:stedsnr" v="143788" />
		<tag k="ssr:type" v="bruk" />
	</node>
	<node id="4488604997" lat="59.1912323" lon="7.5075698" version="2" timestamp="2018-04-10T18:53:20Z" changeset="57982147" uid="3497659" user="NKA">
		<tag k="name" v="Neireberg" />
		<tag k="place" v="farm" />
		<tag k="ssr:stedsnr" v="386015" />
		<tag k="ssr:type" v="bruk" />
	</node>
	<node id="4488604998" lat="59.1589863" lon="7.5009384" version="4" timestamp="2021-03-18T07:44:17Z" changeset="101237689" uid="3497659" user="NKA">
		<tag k="historic" v="shieling" />
		<tag k="name" v="Rosshovden" />
		<tag k="place" v="isolated_dwelling" />
		<tag k="ssr:stedsnr" v="326628" />
		<tag k="ssr:type" v="seterStøl" />
	</node>
	<node id="4488604999" lat="59.1566929" lon="7.4954037" version="4" timestamp="2021-03-18T07:44:17Z" changeset="101237689" uid="3497659" user="NKA">
		<tag k="alt_name" v="Støylsemnet" />
		<tag k="historic" v="shieling" />
		<tag k="name" v="Støylsemne" />
		<tag k="place" v="isolated_dwelling" />
		<tag k="ssr:stedsnr" v="23633" />
		<tag k="ssr:type" v="seterStøl" />
	</node>
	<node id="4488605000" lat="59.1888371" lon="7.4969947" version="2" timestamp="2018-04-10T18:53:21Z" changeset="57982147" uid="3497659" user="NKA">
		<tag k="name" v="Stakkebakke" />
		<tag k="place" v="farm" />
		<tag k="ssr:stedsnr" v="23018" />
		<tag k="ssr:type" v="bruk" />
	</node>
	<node id="4488605001" lat="59.1537599" lon="7.5012819" version="3" timestamp="2018-04-28T08:07:37Z" changeset="58497758" uid="3497659" user="NKA">
		<tag k="alt_name" v="Nybu" />
		<tag k="building" v="cabin" />
		<tag k="historic" v="shieling" />
		<tag k="name" v="Tjørnelibui" />
		<tag k="place" v="locality" />
		<tag k="ssr:stedsnr" v="607593" />
		<tag k="ssr:type" v="seterStøl" />
	</node>
	<node id="4488605002" lat="59.2312558" lon="7.5588534" version="2" timestamp="2018-04-10T18:53:21Z" changeset="57982147" uid="3497659" user="NKA">
		<tag k="alt_name" v="Tveitebø" />
		<tag k="name" v="Tveitbø" />
		<tag k="place" v="hamlet" />
		<tag k="ssr:stedsnr" v="547601" />
		<tag k="ssr:type" v="grend" />
	</node>
	<node id="4488605003" lat="59.2264642" lon="7.5567702" version="2" timestamp="2018-04-10T18:53:21Z" changeset="57982147" uid="3497659" user="NKA">
		<tag k="name" v="Hoftuft" />
		<tag k="place" v="farm" />
		<tag k="ssr:stedsnr" v="183523" />
		<tag k="ssr:type" v="bruk" />
	</node>
	<node id="4488605004" lat="59.150675" lon="7.4929831" version="3" timestamp="2018-04-28T08:07:37Z" changeset="58497758" uid="3497659" user="NKA">
		<tag k="historic" v="shieling" />
		<tag k="name" v="Rotestøyl" />
		<tag k="place" v="locality" />
		<tag k="ssr:stedsnr" v="812611" />
		<tag k="ssr:type" v="seterStøl" />
	</node>
	<node id="4488605005" lat="59.2291676" lon="7.5534511" version="2" timestamp="2018-04-10T18:53:21Z" changeset="57982147" uid="3497659" user="NKA">
		<tag k="name" v="Holum" />
		<tag k="place" v="hamlet" />
		<tag k="ssr:stedsnr" v="608598" />
		<tag k="ssr:type" v="bruk" />
	</node>
	<node id="4488605006" lat="59.2294707" lon="7.4974811" version="2" timestamp="2018-04-10T18:53:22Z" changeset="57982147" uid="3497659" user="NKA">
		<tag k="name" v="Systog" />
		<tag k="place" v="farm" />
		<tag k="ssr:stedsnr" v="547597" />
		<tag k="ssr:type" v="bruk" />
	</node>
	<node id="4488605007" lat="59.1467954" lon="7.4956128" version="4" timestamp="2021-03-18T07:44:17Z" changeset="101237689" uid="3497659" user="NKA">
		<tag k="historic" v="shieling" />
		<tag k="name" v="Dalsstøyl" />
		<tag k="place" v="isolated_dwelling" />
		<tag k="ssr:stedsnr" v="691582" />
		<tag k="ssr:type" v="seterStøl" />
	</node>
	<node id="4488605008" lat="59.2290322" lon="7.5022574" version="2" timestamp="2018-04-10T18:53:22Z" changeset="57982147" uid="3497659" user="NKA">
		<tag k="name" v="Utistog" />
		<tag k="place" v="farm" />
		<tag k="ssr:stedsnr" v="912588" />
		<tag k="ssr:type" v="bruk" />
	</node>
	<node id="4488605009" lat="59.2284047" lon="7.4955456" version="2" timestamp="2018-04-10T18:53:22Z" changeset="57982147" uid="3497659" user="NKA">
		<tag k="name" v="Innistog" />
		<tag k="place" v="farm" />
		<tag k="ssr:stedsnr" v="608596" />
		<tag k="ssr:type" v="bruk" />
	</node>
	<node id="4488605010" lat="59.2288916" lon="7.4897449" version="2" timestamp="2018-04-10T18:53:22Z" changeset="57982147" uid="3497659" user="NKA">
		<tag k="name" v="Nordstog" />
		<tag k="place" v="farm" />
		<tag k="ssr:stedsnr" v="790579" />
		<tag k="ssr:type" v="bruk" />
	</node>
	<node id="4488605011" lat="59.2284177" lon="7.4981546" version="2" timestamp="2018-04-10T18:53:22Z" changeset="57982147" uid="3497659" user="NKA">
		<tag k="name" v="Dale" />
		<tag k="place" v="farm" />
		<tag k="ssr:stedsnr" v="669570" />
		<tag k="ssr:type" v="bruk" />
	</node>
	<node id="4488605012" lat="59.2267753" lon="7.4612208" version="4" timestamp="2021-03-18T07:44:17Z" changeset="101237689" uid="3497659" user="NKA">
		<tag k="historic" v="shieling" />
		<tag k="name" v="Håvestøyl" />
		<tag k="place" v="isolated_dwelling" />
		<tag k="ssr:stedsnr" v="729963" />
		<tag k="ssr:type" v="seterStøl" />
	</node>
	<node id="4488605013" lat="59.0715767" lon="7.4908461" version="3" timestamp="2018-04-28T08:07:38Z" changeset="58497758" uid="3497659" user="NKA">
		<tag k="historic" v="shieling" />
		<tag k="name" v="Nyestøyl" />
		<tag k="place" v="locality" />
		<tag k="ssr:stedsnr" v="62743" />
		<tag k="ssr:type" v="seterStøl" />
	</node>
	<node id="4488605014" lat="59.0731638" lon="7.5070888" version="2" timestamp="2018-04-10T18:53:22Z" changeset="57982147" uid="3497659" user="NKA">
		<tag k="alt_name" v="Stakkslått" />
		<tag k="building" v="cabin" />
		<tag k="name" v="Stakkslåtta" />
		<tag k="place" v="isolated_dwelling" />
		<tag k="ssr:stedsnr" v="729753" />
		<tag k="ssr:type" v="fritidsbolig" />
	</node>
	<node id="4488605015" lat="59.1469007" lon="7.6385301" version="4" timestamp="2021-03-18T07:44:17Z" changeset="101237689" uid="3497659" user="NKA">
		<tag k="alt_name" v="Hyllvasstøylen" />
		<tag k="historic" v="shieling" />
		<tag k="name" v="Hyllevasstøylen" />
		<tag k="place" v="isolated_dwelling" />
		<tag k="ssr:stedsnr" v="387642" />
		<tag k="ssr:type" v="seterStøl" />
	</node>
	<node id="4488605016" lat="59.0759215" lon="7.4971367" version="3" timestamp="2021-03-18T07:44:17Z" changeset="101237689" uid="3497659" user="NKA">
		<tag k="name" v="Bergsenden" />
		<tag k="place" v="isolated_dwelling" />
		<tag k="ssr:stedsnr" v="122727" />
		<tag k="ssr:type" v="fritidsbolig" />
	</node>
	<node id="4488605017" lat="59.0768888" lon="7.4838214" version="4" timestamp="2021-03-18T07:44:17Z" changeset="101237689" uid="3497659" user="NKA">
		<tag k="historic" v="shieling" />
		<tag k="name" v="Rjupekilen" />
		<tag k="place" v="isolated_dwelling" />
		<tag k="ssr:stedsnr" v="608758" />
		<tag k="ssr:type" v="seterStøl" />
	</node>
	<node id="4488605018" lat="59.2793984" lon="7.2987924" version="4" timestamp="2021-03-18T07:44:17Z" changeset="101237689" uid="3497659" user="NKA">
		<tag k="historic" v="shieling" />
		<tag k="name" v="Rossåsen" />
		<tag k="place" v="isolated_dwelling" />
		<tag k="ssr:stedsnr" v="731627" />
		<tag k="ssr:type" v="seterStøl" />
	</node>
	<node id="4488605019" lat="59.2385683" lon="7.6874926" version="4" timestamp="2021-03-18T07:44:17Z" changeset="101237689" uid="3497659" user="NKA">
		<tag k="historic" v="shieling" />
		<tag k="name" v="Vikhei" />
		<tag k="place" v="isolated_dwelling" />
		<tag k="ssr:stedsnr" v="486974" />
		<tag k="ssr:type" v="seterStøl" />
	</node>
	<node id="4488605020" lat="59.0821209" lon="7.6924362" version="4" timestamp="2021-03-18T07:44:17Z" changeset="101237689" uid="3497659" user="NKA">
		<tag k="historic" v="shieling" />
		<tag k="name" v="Skarketjørnbui" />
		<tag k="place" v="isolated_dwelling" />
		<tag k="ssr:stedsnr" v="387638" />
		<tag k="ssr:type" v="seterStøl" />
	</node>
	<node id="4488605021" lat="59.0722835" lon="7.3777979" version="4" timestamp="2021-03-18T07:44:17Z" changeset="101237689" uid="3497659" user="NKA">
		<tag k="historic" v="shieling" />
		<tag k="name" v="Floti" />
		<tag k="place" v="isolated_dwelling" />
		<tag k="ssr:stedsnr" v="486739" />
		<tag k="ssr:type" v="seterStøl" />
	</node>
	<node id="4488605022" lat="59.0396157" lon="7.4644055" version="4" timestamp="2021-03-18T07:44:17Z" changeset="101237689" uid="3497659" user="NKA">
		<tag k="alt_name" v="Vøylan" />
		<tag k="historic" v="shieling" />
		<tag k="name" v="Voilan" />
		<tag k="place" v="isolated_dwelling" />
		<tag k="ssr:stedsnr" v="569459" />
		<tag k="ssr:type" v="seterStøl" />
	</node>
	<node id="4488605023" lat="59.0765961" lon="7.6722071" version="2" timestamp="2018-04-10T18:53:24Z" changeset="57982147" uid="3497659" user="NKA">
		<tag k="name" v="Den lisle bui" />
		<tag k="place" v="locality" />
		<tag k="ssr:stedsnr" v="144647" />
		<tag k="ssr:type" v="fritidsbolig" />
	</node>
	<node id="4488605024" lat="59.3153784" lon="7.4833795" version="4" timestamp="2021-03-18T07:44:17Z" changeset="101237689" uid="3497659" user="NKA">
		<tag k="alt_name" v="Vasstøl" />
		<tag k="historic" v="shieling" />
		<tag k="name" v="Vasstøyl" />
		<tag k="place" v="isolated_dwelling" />
		<tag k="ssr:stedsnr" v="690242" />
		<tag k="ssr:type" v="seterStøl" />
	</node>
	<node id="4488605025" lat="59.2373735" lon="7.6034496" version="4" timestamp="2021-03-18T07:44:17Z" changeset="101237689" uid="3497659" user="NKA">
		<tag k="historic" v="shieling" />
		<tag k="name" v="Skori" />
		<tag k="place" v="isolated_dwelling" />
		<tag k="ssr:stedsnr" v="426963" />
		<tag k="ssr:type" v="seterStøl" />
	</node>
	<node id="4488605026" lat="59.3166779" lon="7.4846074" version="4" timestamp="2021-03-18T07:44:17Z" changeset="101237689" uid="3497659" user="NKA">
		<tag k="historic" v="shieling" />
		<tag k="name" v="Øybø" />
		<tag k="place" v="isolated_dwelling" />
		<tag k="ssr:stedsnr" v="22191" />
		<tag k="ssr:type" v="seterStøl" />
	</node>
	<node id="4488605027" lat="59.2374884" lon="7.5953146" version="3" timestamp="2018-04-28T08:07:39Z" changeset="58497758" uid="3497659" user="NKA">
		<tag k="historic" v="shieling" />
		<tag k="name" v="Djupeskor" />
		<tag k="place" v="locality" />
		<tag k="ssr:stedsnr" v="851963" />
		<tag k="ssr:type" v="seterStøl" />
	</node>
	<node id="4488605028" lat="59.2330304" lon="7.5615079" version="2" timestamp="2018-04-10T18:53:24Z" changeset="57982147" uid="3497659" user="NKA">
		<tag k="name" v="Espetveit" />
		<tag k="place" v="farm" />
		<tag k="ssr:stedsnr" v="729958" />
		<tag k="ssr:type" v="bruk" />
	</node>
	<node id="4488605029" lat="59.2340765" lon="7.5539281" version="2" timestamp="2018-04-10T18:53:24Z" changeset="57982147" uid="3497659" user="NKA">
		<tag k="name" v="Rota" />
		<tag k="place" v="farm" />
		<tag k="ssr:stedsnr" v="122958" />
		<tag k="ssr:type" v="bruk" />
	</node>
	<node id="4488605030" lat="59.0319823" lon="7.455531" version="4" timestamp="2021-03-18T07:44:17Z" changeset="101237689" uid="3497659" user="NKA">
		<tag k="historic" v="shieling" />
		<tag k="name" v="Rotveltstøylen" />
		<tag k="place" v="isolated_dwelling" />
		<tag k="ssr:stedsnr" v="630422" />
		<tag k="ssr:type" v="seterStøl" />
	</node>
	<node id="4488605031" lat="59.2368805" lon="7.5471229" version="2" timestamp="2018-04-10T18:53:25Z" changeset="57982147" uid="3497659" user="NKA">
		<tag k="name" v="Svalestog" />
		<tag k="place" v="farm" />
		<tag k="ssr:stedsnr" v="607939" />
		<tag k="ssr:type" v="bruk" />
	</node>
	<node id="4488605032" lat="59.2383089" lon="7.5456278" version="2" timestamp="2018-04-10T18:53:25Z" changeset="57982147" uid="3497659" user="NKA">
		<tag k="name" v="Hommehaugen" />
		<tag k="place" v="farm" />
		<tag k="ssr:stedsnr" v="122959" />
		<tag k="ssr:type" v="bruk" />
	</node>
	<node id="4488605033" lat="59.3497424" lon="7.4809564" version="3" timestamp="2018-04-28T08:07:40Z" changeset="58497758" uid="3497659" user="NKA">
		<tag k="alt_name" v="Rotastøl" />
		<tag k="historic" v="shieling" />
		<tag k="name" v="Rotastøyl" />
		<tag k="place" v="locality" />
		<tag k="ssr:stedsnr" v="750165" />
		<tag k="ssr:type" v="seterStøl" />
	</node>
	<node id="4488605034" lat="59.2579857" lon="7.5381648" version="4" timestamp="2021-03-18T07:44:17Z" changeset="101237689" uid="3497659" user="NKA">
		<tag k="historic" v="shieling" />
		<tag k="name" v="Nordli" />
		<tag k="place" v="isolated_dwelling" />
		<tag k="ssr:stedsnr" v="669647" />
		<tag k="ssr:type" v="seterStøl" />
	</node>
	<node id="4488605035" lat="59.2354729" lon="7.5375865" version="2" timestamp="2018-04-10T18:53:25Z" changeset="57982147" uid="3497659" user="NKA">
		<tag k="name" v="Moen" />
		<tag k="place" v="farm" />
		<tag k="ssr:stedsnr" v="244963" />
		<tag k="ssr:type" v="bruk" />
	</node>
	<node id="4488605036" lat="59.2580199" lon="7.5270908" version="4" timestamp="2021-03-18T07:44:17Z" changeset="101237689" uid="3497659" user="NKA">
		<tag k="historic" v="shieling" />
		<tag k="name" v="Skardet" />
		<tag k="place" v="isolated_dwelling" />
		<tag k="ssr:stedsnr" v="305678" />
		<tag k="ssr:type" v="seterStøl" />
	</node>
	<node id="4488605037" lat="59.2376243" lon="7.5351059" version="2" timestamp="2018-04-10T18:53:25Z" changeset="57982147" uid="3497659" user="NKA">
		<tag k="name" v="Hommelunden" />
		<tag k="place" v="farm" />
		<tag k="ssr:stedsnr" v="851967" />
		<tag k="ssr:type" v="bruk" />
	</node>
	<node id="4488605038" lat="59.2512461" lon="7.4912676" version="2" timestamp="2018-04-10T18:53:25Z" changeset="57982147" uid="3497659" user="NKA">
		<tag k="name" v="Lii" />
		<tag k="place" v="farm" />
		<tag k="ssr:stedsnr" v="669648" />
		<tag k="ssr:type" v="bruk" />
	</node>
	<node id="4488605039" lat="59.2383036" lon="7.5303378" version="2" timestamp="2018-04-10T18:53:26Z" changeset="57982147" uid="3497659" user="NKA">
		<tag k="name" v="Kyrkjeled" />
		<tag k="place" v="farm" />
		<tag k="ssr:stedsnr" v="62958" />
		<tag k="ssr:type" v="bruk" />
	</node>
	<node id="4488605040" lat="59.2380956" lon="7.4691833" version="2" timestamp="2018-04-10T18:53:26Z" changeset="57982147" uid="3497659" user="NKA">
		<tag k="name" v="Innistog" />
		<tag k="place" v="farm" />
		<tag k="ssr:stedsnr" v="811285" />
		<tag k="ssr:type" v="bruk" />
	</node>
	<node id="4488605041" lat="59.2529338" lon="7.480682" version="2" timestamp="2018-04-10T18:53:26Z" changeset="57982147" uid="3497659" user="NKA">
		<tag k="name" v="Åsen" />
		<tag k="place" v="farm" />
		<tag k="ssr:stedsnr" v="123704" />
		<tag k="ssr:type" v="bruk" />
	</node>
	<node id="4488605042" lat="59.2563575" lon="7.4724573" version="2" timestamp="2018-04-10T18:53:26Z" changeset="57982147" uid="3497659" user="NKA">
		<tag k="name" v="Myri" />
		<tag k="place" v="farm" />
		<tag k="ssr:stedsnr" v="608696" />
		<tag k="ssr:type" v="bruk" />
	</node>
	<node id="4488605043" lat="59.2399882" lon="7.4674612" version="2" timestamp="2018-04-10T18:53:26Z" changeset="57982147" uid="3497659" user="NKA">
		<tag k="name" v="Nordstog" />
		<tag k="place" v="farm" />
		<tag k="ssr:stedsnr" v="386296" />
		<tag k="ssr:type" v="bruk" />
	</node>
	<node id="4488605044" lat="59.1175701" lon="7.6825781" version="4" timestamp="2021-03-18T07:44:17Z" changeset="101237689" uid="3497659" user="NKA">
		<tag k="alt_name" v="Lauvåsbui" />
		<tag k="historic" v="shieling" />
		<tag k="name" v="Heimre Lågestøyl" />
		<tag k="place" v="isolated_dwelling" />
		<tag k="ssr:stedsnr" v="812669" />
		<tag k="ssr:type" v="seterStøl" />
	</node>
	<node id="4488605045" lat="59.2419271" lon="7.4678085" version="2" timestamp="2018-04-10T18:53:26Z" changeset="57982147" uid="3497659" user="NKA">
		<tag k="name" v="Jonsbakke" />
		<tag k="place" v="farm" />
		<tag k="ssr:stedsnr" v="265327" />
		<tag k="ssr:type" v="bruk" />
	</node>
	<node id="4488605046" lat="59.2402707" lon="7.4796402" version="2" timestamp="2018-04-10T18:53:26Z" changeset="57982147" uid="3497659" user="NKA">
		<tag k="name" v="Rotemo" />
		<tag k="place" v="locality" />
		<tag k="ssr:stedsnr" v="729959" />
		<tag k="ssr:type" v="eneboligMindreBoligbygg" />
	</node>
	<node id="4488605047" lat="59.0869213" lon="7.5385127" version="2" timestamp="2018-04-10T18:53:26Z" changeset="57982147" uid="3497659" user="NKA">
		<tag k="name" v="Åsan" />
		<tag k="place" v="farm" />
		<tag k="ssr:stedsnr" v="62750" />
		<tag k="ssr:type" v="bruk" />
	</node>
	<node id="4488605048" lat="59.0984359" lon="7.7107028" version="4" timestamp="2021-03-18T07:44:17Z" changeset="101237689" uid="3497659" user="NKA">
		<tag k="historic" v="shieling" />
		<tag k="name" v="Lislestøyl" />
		<tag k="place" v="isolated_dwelling" />
		<tag k="ssr:stedsnr" v="23675" />
		<tag k="ssr:type" v="seterStøl" />
	</node>
	<node id="4488605049" lat="59.2376345" lon="7.4763935" version="2" timestamp="2018-04-10T18:53:27Z" changeset="57982147" uid="3497659" user="NKA">
		<tag k="name" v="Solhaug" />
		<tag k="place" v="farm" />
		<tag k="ssr:stedsnr" v="668951" />
		<tag k="ssr:type" v="bruk" />
	</node>
	<node id="4488605050" lat="59.2395378" lon="7.4705629" version="2" timestamp="2018-04-10T18:53:27Z" changeset="57982147" uid="3497659" user="NKA">
		<tag k="name" v="Løyland" />
		<tag k="place" v="hamlet" />
		<tag k="ssr:stedsnr" v="122951" />
		<tag k="ssr:type" v="bruk" />
	</node>
	<node id="4488605051" lat="59.3025162" lon="7.4700828" version="2" timestamp="2018-04-10T18:53:27Z" changeset="57982147" uid="3497659" user="NKA">
		<tag k="building" v="cabin" />
		<tag k="name" v="Borkebu" />
		<tag k="place" v="isolated_dwelling" />
		<tag k="ssr:stedsnr" v="326187" />
		<tag k="ssr:type" v="fritidsbolig" />
	</node>
	<node id="4488605052" lat="59.2332636" lon="7.4338578" version="3" timestamp="2018-04-28T08:07:40Z" changeset="58497758" uid="3497659" user="NKA">
		<tag k="historic" v="shieling" />
		<tag k="name" v="Liestøyl" />
		<tag k="place" v="locality" />
		<tag k="ssr:stedsnr" v="933342" />
		<tag k="ssr:type" v="seterStøl" />
	</node>
	<node id="4488605053" lat="59.2336487" lon="7.4310938" version="4" timestamp="2021-03-18T07:44:17Z" changeset="101237689" uid="3497659" user="NKA">
		<tag k="historic" v="shieling" />
		<tag k="name" v="Haugen" />
		<tag k="place" v="isolated_dwelling" />
		<tag k="ssr:stedsnr" v="811310" />
		<tag k="ssr:type" v="seterStøl" />
	</node>
	<node id="4488605054" lat="59.2381383" lon="7.4315121" version="4" timestamp="2021-03-18T07:44:17Z" changeset="101237689" uid="3497659" user="NKA">
		<tag k="historic" v="shieling" />
		<tag k="name" v="Myrstøyl" />
		<tag k="place" v="isolated_dwelling" />
		<tag k="ssr:stedsnr" v="426956" />
		<tag k="ssr:type" v="seterStøl" />
	</node>
	<node id="4488605055" lat="59.2336716" lon="7.4205926" version="4" timestamp="2021-03-18T07:44:17Z" changeset="101237689" uid="3497659" user="NKA">
		<tag k="historic" v="shieling" />
		<tag k="name" v="Slettestøyl" />
		<tag k="place" v="isolated_dwelling" />
		<tag k="ssr:stedsnr" v="851957" />
		<tag k="ssr:type" v="seterStøl" />
	</node>
	<node id="4488605056" lat="59.0836968" lon="7.4214441" version="3" timestamp="2018-04-28T08:07:41Z" changeset="58497758" uid="3497659" user="NKA">
		<tag k="historic" v="shieling" />
		<tag k="name" v="Jannsverk" />
		<tag k="place" v="locality" />
		<tag k="ssr:stedsnr" v="911763" />
		<tag k="ssr:type" v="seterStøl" />
	</node>
	<node id="4488605057" lat="59.2621524" lon="7.6765413" version="4" timestamp="2021-03-18T07:44:17Z" changeset="101237689" uid="3497659" user="NKA">
		<tag k="historic" v="shieling" />
		<tag k="name" v="Gjuvvasstøylen" />
		<tag k="place" v="isolated_dwelling" />
		<tag k="ssr:stedsnr" v="366671" />
		<tag k="ssr:type" v="seterStøl" />
	</node>
	<node id="4488605058" lat="59.2671813" lon="7.6376616" version="4" timestamp="2021-03-18T07:44:17Z" changeset="101237689" uid="3497659" user="NKA">
		<tag k="historic" v="shieling" />
		<tag k="name" v="Kjeppshei" />
		<tag k="place" v="isolated_dwelling" />
		<tag k="ssr:stedsnr" v="730710" />
		<tag k="ssr:type" v="seterStøl" />
	</node>
	<node id="4488605059" lat="59.2481596" lon="7.6241242" version="3" timestamp="2021-03-18T07:44:17Z" changeset="101237689" uid="3497659" user="NKA">
		<tag k="name" v="Steinbubakkane" />
		<tag k="place" v="isolated_dwelling" />
		<tag k="ssr:stedsnr" v="911941" />
		<tag k="ssr:type" v="fritidsbolig" />
	</node>
	<node id="4488605060" lat="59.1784697" lon="7.4783865" version="3" timestamp="2018-04-28T08:07:41Z" changeset="58497758" uid="3497659" user="NKA">
		<tag k="historic" v="shieling" />
		<tag k="name" v="Flottene" />
		<tag k="place" v="locality" />
		<tag k="ssr:stedsnr" v="143291" />
		<tag k="ssr:type" v="seterStøl" />
	</node>
	<node id="4488605061" lat="59.0824717" lon="7.3558881" version="4" timestamp="2021-03-18T07:44:17Z" changeset="101237689" uid="3497659" user="NKA">
		<tag k="alt_name" v="Kråkeli" />
		<tag k="historic" v="shieling" />
		<tag k="name" v="Kråkelistøyl" />
		<tag k="place" v="isolated_dwelling" />
		<tag k="ssr:stedsnr" v="911757" />
		<tag k="ssr:type" v="seterStøl" />
	</node>
	<node id="4488605062" lat="59.247802" lon="7.5571381" version="3" timestamp="2018-04-28T08:07:41Z" changeset="58497758" uid="3497659" user="NKA">
		<tag k="alt_name" v="Istadstøylen" />
		<tag k="building" v="cabin" />
		<tag k="historic" v="shieling" />
		<tag k="name" v="Istadsstøylen" />
		<tag k="place" v="isolated_dwelling" />
		<tag k="ssr:stedsnr" v="1941" />
		<tag k="ssr:type" v="seterStøl" />
	</node>
	<node id="4488605063" lat="59.0699608" lon="7.4852009" version="3" timestamp="2018-04-28T08:07:42Z" changeset="58497758" uid="3497659" user="NKA">
		<tag k="building" v="cabin" />
		<tag k="historic" v="shieling" />
		<tag k="name" v="Grimstveit" />
		<tag k="place" v="isolated_dwelling" />
		<tag k="ssr:stedsnr" v="934423" />
		<tag k="ssr:type" v="seterStøl" />
	</node>
	<node id="4488605064" lat="59.0535443" lon="7.6484002" version="4" timestamp="2021-03-18T07:44:17Z" changeset="101237689" uid="3497659" user="NKA">
		<tag k="historic" v="shieling" />
		<tag k="name" v="Rjuvass-støylen" />
		<tag k="place" v="isolated_dwelling" />
		<tag k="ssr:stedsnr" v="266654" />
		<tag k="ssr:type" v="seterStøl" />
	</node>
	<node id="4488605065" lat="59.2933493" lon="7.4642216" version="4" timestamp="2021-03-18T07:44:17Z" changeset="101237689" uid="3497659" user="NKA">
		<tag k="alt_name" v="Gjuv" />
		<tag k="historic" v="shieling" />
		<tag k="name" v="Juv" />
		<tag k="place" v="isolated_dwelling" />
		<tag k="ssr:stedsnr" v="184700" />
		<tag k="ssr:type" v="seterStøl" />
	</node>
	<node id="4488605066" lat="59.2432155" lon="7.5677551" version="4" timestamp="2021-03-18T07:44:17Z" changeset="101237689" uid="3497659" user="NKA">
		<tag k="alt_name" v="Skeidsstøylen" />
		<tag k="historic" v="shieling" />
		<tag k="name" v="Skei (støylen)" />
		<tag k="place" v="isolated_dwelling" />
		<tag k="ssr:stedsnr" v="244952" />
		<tag k="ssr:type" v="seterStøl" />
	</node>
	<node id="4488605067" lat="59.0940983" lon="7.6927179" version="3" timestamp="2018-04-28T08:07:42Z" changeset="58497758" uid="3497659" user="NKA">
		<tag k="building" v="cabin" />
		<tag k="historic" v="shieling" />
		<tag k="name" v="Oksetjørnstøylen" />
		<tag k="place" v="isolated_dwelling" />
		<tag k="ssr:stedsnr" v="790763" />
		<tag k="ssr:type" v="seterStøl" />
	</node>
	<node id="4488605068" lat="59.0499502" lon="7.6366097" version="2" timestamp="2018-04-10T18:53:29Z" changeset="57982147" uid="3497659" user="NKA">
		<tag k="building" v="cabin" />
		<tag k="name" v="Rjuvasshytta" />
		<tag k="place" v="isolated_dwelling" />
		<tag k="ssr:stedsnr" v="23470" />
		<tag k="ssr:type" v="fritidsbolig" />
	</node>
	<node id="4488605069" lat="59.1795156" lon="7.472642" version="4" timestamp="2021-03-18T07:44:17Z" changeset="101237689" uid="3497659" user="NKA">
		<tag k="alt_name" v="Åvåg" />
		<tag k="historic" v="shieling" />
		<tag k="name" v="Åvog" />
		<tag k="place" v="isolated_dwelling" />
		<tag k="ssr:stedsnr" v="933331" />
		<tag k="ssr:type" v="seterStøl" />
	</node>
	<node id="4488605070" lat="59.3013086" lon="7.434885" version="3" timestamp="2018-04-28T08:07:42Z" changeset="58497758" uid="3497659" user="NKA">
		<tag k="historic" v="shieling" />
		<tag k="name" v="Hagen" />
		<tag k="place" v="locality" />
		<tag k="ssr:stedsnr" v="932239" />
		<tag k="ssr:type" v="seterStøl" />
	</node>
	<node id="4488605071" lat="59.2615664" lon="7.5198629" version="4" timestamp="2021-03-18T07:44:17Z" changeset="101237689" uid="3497659" user="NKA">
		<tag k="alt_name" v="Spjotet" />
		<tag k="historic" v="shieling" />
		<tag k="name" v="Spjote" />
		<tag k="place" v="isolated_dwelling" />
		<tag k="ssr:stedsnr" v="852640" />
		<tag k="ssr:type" v="seterStøl" />
	</node>
	<node id="4488605072" lat="59.2404007" lon="7.5379546" version="2" timestamp="2018-04-10T18:53:30Z" changeset="57982147" uid="3497659" user="NKA">
		<tag k="name" v="Gråmannshus" />
		<tag k="place" v="farm" />
		<tag k="ssr:stedsnr" v="790943" />
		<tag k="ssr:type" v="bruk" />
	</node>
	<node id="4488605073" lat="59.2496346" lon="7.4855432" version="2" timestamp="2018-04-10T18:53:30Z" changeset="57982147" uid="3497659" user="NKA">
		<tag k="name" v="Nistog" />
		<tag k="place" v="farm" />
		<tag k="ssr:stedsnr" v="811230" />
		<tag k="ssr:type" v="bruk" />
	</node>
	<node id="4488605074" lat="59.2581211" lon="7.472825" version="2" timestamp="2018-04-10T18:53:30Z" changeset="57982147" uid="3497659" user="NKA">
		<tag k="alt_name" v="Fotveit" />
		<tag k="name" v="Fodtveit" />
		<tag k="place" v="farm" />
		<tag k="ssr:stedsnr" v="427650" />
		<tag k="ssr:type" v="bruk" />
	</node>
	<node id="4488605075" lat="59.2485173" lon="7.4846536" version="2" timestamp="2018-04-10T18:53:30Z" changeset="57982147" uid="3497659" user="NKA">
		<tag k="alt_name" v="Vollen" />
		<tag k="name" v="Vodden" />
		<tag k="place" v="farm" />
		<tag k="ssr:stedsnr" v="122940" />
		<tag k="ssr:type" v="bruk" />
	</node>
	<node id="4488605076" lat="59.2618385" lon="7.4842928" version="2" timestamp="2018-04-10T18:53:30Z" changeset="57982147" uid="3497659" user="NKA">
		<tag k="name" v="Orholt" />
		<tag k="place" v="farm" />
		<tag k="ssr:stedsnr" v="487707" />
		<tag k="ssr:type" v="bruk" />
	</node>
	<node id="4488605077" lat="59.2485976" lon="7.4753971" version="2" timestamp="2018-04-10T18:53:31Z" changeset="57982147" uid="3497659" user="NKA">
		<tag k="name" v="Flaten" />
		<tag k="place" v="farm" />
		<tag k="ssr:stedsnr" v="264233" />
		<tag k="ssr:type" v="bruk" />
	</node>
	<node id="4488605078" lat="59.1718242" lon="7.4858486" version="4" timestamp="2021-03-18T07:44:17Z" changeset="101237689" uid="3497659" user="NKA">
		<tag k="alt_name" v="Storli" />
		<tag k="historic" v="shieling" />
		<tag k="name" v="Storeli" />
		<tag k="place" v="isolated_dwelling" />
		<tag k="ssr:stedsnr" v="386311" />
		<tag k="ssr:type" v="seterStøl" />
	</node>
	<node id="4488605079" lat="59.2493126" lon="7.4693852" version="2" timestamp="2018-04-10T18:53:31Z" changeset="57982147" uid="3497659" user="NKA">
		<tag k="name" v="Myri" />
		<tag k="place" v="farm" />
		<tag k="ssr:stedsnr" v="871226" />
		<tag k="ssr:type" v="bruk" />
	</node>
	<node id="4488605080" lat="59.2439427" lon="7.4636067" version="2" timestamp="2018-04-10T18:53:31Z" changeset="57982147" uid="3497659" user="NKA">
		<tag k="name" v="Graver" />
		<tag k="place" v="farm" />
		<tag k="ssr:stedsnr" v="486947" />
		<tag k="ssr:type" v="bruk" />
	</node>
	<node id="4488605081" lat="59.2616729" lon="7.4731451" version="2" timestamp="2018-04-10T18:53:31Z" changeset="57982147" uid="3497659" user="NKA">
		<tag k="name" v="Lunden" />
		<tag k="place" v="farm" />
		<tag k="ssr:stedsnr" v="487706" />
		<tag k="ssr:type" v="bruk" />
	</node>
	<node id="4488605082" lat="59.2647316" lon="7.4742139" version="2" timestamp="2018-04-10T18:53:31Z" changeset="57982147" uid="3497659" user="NKA">
		<tag k="name" v="Brokka" />
		<tag k="place" v="farm" />
		<tag k="ssr:stedsnr" v="123716" />
		<tag k="ssr:type" v="bruk" />
	</node>
	<node id="4488605083" lat="59.2408565" lon="7.46738" version="2" timestamp="2018-04-10T18:53:31Z" changeset="57982147" uid="3497659" user="NKA">
		<tag k="name" v="Oveinang" />
		<tag k="place" v="farm" />
		<tag k="ssr:stedsnr" v="122938" />
		<tag k="ssr:type" v="grend" />
	</node>
	<node id="4488605084" lat="59.2585312" lon="7.4645611" version="2" timestamp="2018-04-10T18:53:31Z" changeset="57982147" uid="3497659" user="NKA">
		<tag k="name" v="Hagen" />
		<tag k="place" v="farm" />
		<tag k="ssr:stedsnr" v="427673" />
		<tag k="ssr:type" v="bruk" />
	</node>
	<node id="4488605085" lat="59.2619747" lon="7.4598852" version="2" timestamp="2018-04-10T18:53:31Z" changeset="57982147" uid="3497659" user="NKA">
		<tag k="name" v="Røysland" />
		<tag k="place" v="hamlet" />
		<tag k="ssr:stedsnr" v="608711" />
		<tag k="ssr:type" v="bruk" />
	</node>
	<node id="4488605086" lat="59.2630551" lon="7.4616143" version="2" timestamp="2018-04-10T18:53:31Z" changeset="57982147" uid="3497659" user="NKA">
		<tag k="name" v="Utistog" />
		<tag k="place" v="farm" />
		<tag k="ssr:stedsnr" v="852662" />
		<tag k="ssr:type" v="bruk" />
	</node>
	<node id="4488605087" lat="59.243825" lon="7.4007552" version="3" timestamp="2018-04-28T08:07:43Z" changeset="58497758" uid="3497659" user="NKA">
		<tag k="alt_name" v="Heddestøyl" />
		<tag k="historic" v="shieling" />
		<tag k="name" v="Hellestøyl" />
		<tag k="place" v="locality" />
		<tag k="ssr:stedsnr" v="305949" />
		<tag k="ssr:type" v="seterStøl" />
	</node>
	<node id="4488605089" lat="59.0735756" lon="7.6575534" version="4" timestamp="2021-03-18T07:44:17Z" changeset="101237689" uid="3497659" user="NKA">
		<tag k="historic" v="shieling" />
		<tag k="name" v="Såvisbu" />
		<tag k="place" v="isolated_dwelling" />
		<tag k="ssr:stedsnr" v="933449" />
		<tag k="ssr:type" v="seterStøl" />
	</node>
	<node id="4488605090" lat="59.1790244" lon="7.4605703" version="3" timestamp="2018-04-28T08:07:43Z" changeset="58497758" uid="3497659" user="NKA">
		<tag k="building" v="cabin" />
		<tag k="historic" v="shieling" />
		<tag k="name" v="Lisleholt" />
		<tag k="place" v="isolated_dwelling" />
		<tag k="ssr:stedsnr" v="265363" />
		<tag k="ssr:type" v="seterStøl" />
	</node>
	<node id="4488605091" lat="59.089636" lon="7.5428603" version="2" timestamp="2018-04-10T18:53:32Z" changeset="57982147" uid="3497659" user="NKA">
		<tag k="name" v="Torvet" />
		<tag k="place" v="farm" />
		<tag k="ssr:stedsnr" v="1742" />
		<tag k="ssr:type" v="bruk" />
	</node>
	<node id="4488605092" lat="59.0879787" lon="7.5407647" version="2" timestamp="2018-04-10T18:53:32Z" changeset="57982147" uid="3497659" user="NKA">
		<tag k="name" v="Kvernmo" />
		<tag k="place" v="farm" />
		<tag k="ssr:stedsnr" v="668763" />
		<tag k="ssr:type" v="bruk" />
	</node>
	<node id="4488605093" lat="59.2416048" lon="7.3804678" version="4" timestamp="2021-03-18T07:44:17Z" changeset="101237689" uid="3497659" user="NKA">
		<tag k="historic" v="shieling" />
		<tag k="name" v="Reisstøyl" />
		<tag k="place" v="isolated_dwelling" />
		<tag k="ssr:stedsnr" v="123999" />
		<tag k="ssr:type" v="seterStøl" />
	</node>
	<node id="4488605094" lat="59.0932849" lon="7.5355109" version="2" timestamp="2018-04-10T18:53:32Z" changeset="57982147" uid="3497659" user="NKA">
		<tag k="name" v="Haugen" />
		<tag k="place" v="farm" />
		<tag k="ssr:stedsnr" v="607741" />
		<tag k="ssr:type" v="bruk" />
	</node>
	<node id="4488605095" lat="59.0968445" lon="7.5219372" version="2" timestamp="2018-04-10T18:53:32Z" changeset="57982147" uid="3497659" user="NKA">
		<tag k="name" v="Nordigard" />
		<tag k="place" v="farm" />
		<tag k="ssr:stedsnr" v="1651" />
		<tag k="ssr:type" v="bruk" />
	</node>
	<node id="4488605096" lat="59.0710076" lon="7.6369195" version="4" timestamp="2021-03-18T07:44:17Z" changeset="101237689" uid="3497659" user="NKA">
		<tag k="historic" v="shieling" />
		<tag k="name" v="Lislestøyl" />
		<tag k="place" v="isolated_dwelling" />
		<tag k="ssr:stedsnr" v="387412" />
		<tag k="ssr:type" v="seterStøl" />
	</node>
	<node id="4488605097" lat="59.2608217" lon="7.4862784" version="2" timestamp="2018-04-10T18:53:33Z" changeset="57982147" uid="3497659" user="NKA">
		<tag k="name" v="Rygnestad" />
		<tag k="place" v="hamlet" />
		<tag k="ssr:stedsnr" v="811221" />
		<tag k="ssr:type" v="bruk" />
	</node>
	<node id="4488605098" lat="59.0958473" lon="7.5236706" version="2" timestamp="2018-04-10T18:53:33Z" changeset="57982147" uid="3497659" user="NKA">
		<tag k="name" v="Heimigard" />
		<tag k="place" v="farm" />
		<tag k="ssr:stedsnr" v="911650" />
		<tag k="ssr:type" v="bruk" />
	</node>
	<node id="4488605099" lat="59.2412882" lon="7.3464517" version="4" timestamp="2021-03-18T07:44:17Z" changeset="101237689" uid="3497659" user="NKA">
		<tag k="historic" v="shieling" />
		<tag k="name" v="Hovatn" />
		<tag k="place" v="isolated_dwelling" />
		<tag k="ssr:stedsnr" v="548995" />
		<tag k="ssr:type" v="seterStøl" />
	</node>
	<node id="4488605100" lat="59.0922592" lon="7.4618718" version="3" timestamp="2018-04-28T08:07:44Z" changeset="58497758" uid="3497659" user="NKA">
		<tag k="historic" v="shieling" />
		<tag k="name" v="Glotten" />
		<tag k="place" v="locality" />
		<tag k="ssr:stedsnr" v="851635" />
		<tag k="ssr:type" v="seterStøl" />
	</node>
	<node id="4488605101" lat="59.0563193" lon="7.4313131" version="3" timestamp="2018-04-28T08:07:44Z" changeset="58497758" uid="3497659" user="NKA">
		<tag k="historic" v="shieling" />
		<tag k="name" v="Øvre Øydeskarsstøylen" />
		<tag k="place" v="locality" />
		<tag k="ssr:stedsnr" v="23496" />
		<tag k="ssr:type" v="seterStøl" />
	</node>
	<node id="4488605102" lat="59.0946117" lon="7.4337412" version="3" timestamp="2018-04-28T08:07:44Z" changeset="58497758" uid="3497659" user="NKA">
		<tag k="historic" v="shieling" />
		<tag k="name" v="Årekroken" />
		<tag k="place" v="locality" />
		<tag k="ssr:stedsnr" v="122634" />
		<tag k="ssr:type" v="seterStøl" />
	</node>
	<node id="4488605103" lat="59.1169829" lon="7.5013066" version="2" timestamp="2018-04-10T18:53:33Z" changeset="57982147" uid="3497659" user="NKA">
		<tag k="name" v="Kvæven" />
		<tag k="place" v="locality" />
		<tag k="ssr:stedsnr" v="23969" />
		<tag k="ssr:type" v="bruk" />
	</node>
	<node id="4488605104" lat="59.185053" lon="7.4844865" version="4" timestamp="2021-03-18T07:44:17Z" changeset="101237689" uid="3497659" user="NKA">
		<tag k="historic" v="shieling" />
		<tag k="name" v="Anvor" />
		<tag k="place" v="isolated_dwelling" />
		<tag k="ssr:stedsnr" v="447299" />
		<tag k="ssr:type" v="seterStøl" />
	</node>
	<node id="4488605105" lat="59.0855522" lon="7.3893029" version="3" timestamp="2021-03-18T07:44:17Z" changeset="101237689" uid="3497659" user="NKA">
		<tag k="alt_name" v="Reigårsstøylen" />
		<tag k="name" v="Reigåsstøyl" />
		<tag k="place" v="isolated_dwelling" />
		<tag k="ssr:stedsnr" v="62645" />
		<tag k="ssr:type" v="fritidsbolig" />
	</node>
	<node id="4488605106" lat="59.2780078" lon="7.6996719" version="4" timestamp="2021-03-18T07:44:17Z" changeset="101237689" uid="3497659" user="NKA">
		<tag k="historic" v="shieling" />
		<tag k="name" v="Nuten" />
		<tag k="place" v="isolated_dwelling" />
		<tag k="ssr:stedsnr" v="366689" />
		<tag k="ssr:type" v="seterStøl" />
	</node>
	<node id="4488605107" lat="59.0640847" lon="7.4307154" version="3" timestamp="2018-04-28T08:07:44Z" changeset="58497758" uid="3497659" user="NKA">
		<tag k="historic" v="shieling" />
		<tag k="name" v="Hovden" />
		<tag k="place" v="locality" />
		<tag k="ssr:stedsnr" v="84466" />
		<tag k="ssr:type" v="seterStøl" />
	</node>
	<node id="4488605108" lat="59.1825108" lon="7.4708921" version="4" timestamp="2021-03-18T07:44:17Z" changeset="101237689" uid="3497659" user="NKA">
		<tag k="historic" v="shieling" />
		<tag k="name" v="Burak" />
		<tag k="place" v="isolated_dwelling" />
		<tag k="ssr:stedsnr" v="811313" />
		<tag k="ssr:type" v="seterStøl" />
	</node>
	<node id="4488605109" lat="59.0939131" lon="7.3438177" version="3" timestamp="2018-04-28T08:07:45Z" changeset="58497758" uid="3497659" user="NKA">
		<tag k="historic" v="shieling" />
		<tag k="name" v="Rennevasstøylen" />
		<tag k="place" v="locality" />
		<tag k="ssr:stedsnr" v="123682" />
		<tag k="ssr:type" v="seterStøl" />
	</node>
	<node id="4488605110" lat="59.060983" lon="7.4215536" version="3" timestamp="2018-04-28T08:07:45Z" changeset="58497758" uid="3497659" user="NKA">
		<tag k="historic" v="shieling" />
		<tag k="name" v="Nedre Øydeskarsstøyl" />
		<tag k="place" v="locality" />
		<tag k="ssr:stedsnr" v="84460" />
		<tag k="ssr:type" v="seterStøl" />
	</node>
	<node id="4488605111" lat="59.2516983" lon="7.3949251" version="2" timestamp="2018-04-10T18:53:34Z" changeset="57982147" uid="3497659" user="NKA">
		<tag k="historic" v="ruins" />
		<tag k="name" v="Myrbu" />
		<tag k="place" v="locality" />
		<tag k="ssr:stedsnr" v="871197" />
		<tag k="ssr:type" v="gammelBosettingsplass" />
	</node>
	<node id="4488605112" lat="59.0714321" lon="7.4022321" version="4" timestamp="2021-03-18T07:44:17Z" changeset="101237689" uid="3497659" user="NKA">
		<tag k="alt_name" v="Stuteli" />
		<tag k="historic" v="shieling" />
		<tag k="name" v="Heimre Stutelii" />
		<tag k="place" v="isolated_dwelling" />
		<tag k="ssr:stedsnr" v="386442" />
		<tag k="ssr:type" v="seterStøl" />
	</node>
	<node id="4488605113" lat="59.1385236" lon="7.4790387" version="3" timestamp="2018-04-28T08:07:45Z" changeset="58497758" uid="3497659" user="NKA">
		<tag k="historic" v="shieling" />
		<tag k="name" v="Lislebu" />
		<tag k="place" v="locality" />
		<tag k="ssr:stedsnr" v="447328" />
		<tag k="ssr:type" v="seterStøl" />
	</node>
	<node id="4488605114" lat="59.1364153" lon="7.4660598" version="4" timestamp="2021-03-18T07:44:17Z" changeset="101237689" uid="3497659" user="NKA">
		<tag k="historic" v="shieling" />
		<tag k="name" v="Grjostøyl" />
		<tag k="place" v="isolated_dwelling" />
		<tag k="ssr:stedsnr" v="386354" />
		<tag k="ssr:type" v="seterStøl" />
	</node>
	<node id="4488605115" lat="59.0597766" lon="7.3986756" version="3" timestamp="2021-03-18T07:44:17Z" changeset="101237689" uid="3497659" user="NKA">
		<tag k="name" v="Garevass-hytta" />
		<tag k="place" v="isolated_dwelling" />
		<tag k="ssr:stedsnr" v="629473" />
		<tag k="ssr:type" v="fritidsbolig" />
	</node>
	<node id="4488605116" lat="59.0988203" lon="7.5399663" version="2" timestamp="2018-04-10T18:53:35Z" changeset="57982147" uid="3497659" user="NKA">
		<tag k="alt_name" v="Kosland" />
		<tag k="name" v="Kåsland" />
		<tag k="place" v="farm" />
		<tag k="ssr:stedsnr" v="184635" />
		<tag k="ssr:type" v="bruk" />
	</node>
	<node id="4488605117" lat="59.1027789" lon="7.5329194" version="2" timestamp="2018-04-10T18:53:35Z" changeset="57982147" uid="3497659" user="NKA">
		<tag k="alt_name" v="Bjørgom" />
		<tag k="name" v="Bjørgum" />
		<tag k="place" v="hamlet" />
		<tag k="ssr:stedsnr" v="608665" />
		<tag k="ssr:type" v="bruk" />
	</node>
	<node id="4488605118" lat="59.1012254" lon="7.5275375" version="2" timestamp="2018-04-10T18:53:35Z" changeset="57982147" uid="3497659" user="NKA">
		<tag k="name" v="Nordhus" />
		<tag k="place" v="farm" />
		<tag k="ssr:stedsnr" v="669634" />
		<tag k="ssr:type" v="bruk" />
	</node>
	<node id="4488605119" lat="59.1022187" lon="7.5253158" version="2" timestamp="2018-04-10T18:53:35Z" changeset="57982147" uid="3497659" user="NKA">
		<tag k="name" v="Mo" />
		<tag k="place" v="farm" />
		<tag k="ssr:stedsnr" v="487675" />
		<tag k="ssr:type" v="bruk" />
	</node>
	<node id="4488605120" lat="59.0378109" lon="7.2505449" version="3" timestamp="2021-03-18T07:44:17Z" changeset="101237689" uid="3497659" user="NKA">
		<tag k="name" v="Ivlungslega" />
		<tag k="place" v="isolated_dwelling" />
		<tag k="ssr:stedsnr" v="244977" />
		<tag k="ssr:type" v="fritidsbolig" />
	</node>
	<node id="4488605121" lat="59.1016762" lon="7.5075717" version="2" timestamp="2018-04-10T18:53:36Z" changeset="57982147" uid="3497659" user="NKA">
		<tag k="name" v="Faremo" />
		<tag k="place" v="farm" />
		<tag k="ssr:stedsnr" v="912642" />
		<tag k="ssr:type" v="bruk" />
	</node>
	<node id="4488605122" lat="59.2204867" lon="7.5348985" version="2" timestamp="2018-04-10T18:53:36Z" changeset="57982147" uid="3497659" user="NKA">
		<tag k="name" v="Nordbø" />
		<tag k="place" v="farm" />
		<tag k="ssr:stedsnr" v="295253" />
		<tag k="ssr:type" v="bruk" />
	</node>
	<node id="4488605123" lat="59.1045379" lon="7.5038104" version="2" timestamp="2018-04-10T18:53:36Z" changeset="57982147" uid="3497659" user="NKA">
		<tag k="name" v="Mykjedalen" />
		<tag k="place" v="farm" />
		<tag k="ssr:stedsnr" v="366657" />
		<tag k="ssr:type" v="bruk" />
	</node>
	<node id="4488605124" lat="59.1034229" lon="7.4860346" version="2" timestamp="2018-04-10T18:53:36Z" changeset="57982147" uid="3497659" user="NKA">
		<tag k="alt_name" v="Storemyr" />
		<tag k="name" v="Myri" />
		<tag k="place" v="farm" />
		<tag k="ssr:stedsnr" v="62661" />
		<tag k="ssr:type" v="bruk" />
	</node>
	<node id="4488605125" lat="59.1058829" lon="7.4856523" version="2" timestamp="2018-04-10T18:53:36Z" changeset="57982147" uid="3497659" user="NKA">
		<tag k="name" v="Lynghammaren" />
		<tag k="place" v="farm" />
		<tag k="ssr:stedsnr" v="608683" />
		<tag k="ssr:type" v="bruk" />
	</node>
	<node id="4488605126" lat="59.2679295" lon="7.3728967" version="3" timestamp="2018-04-28T08:07:45Z" changeset="58497758" uid="3497659" user="NKA">
		<tag k="historic" v="shieling" />
		<tag k="name" v="Løyning" />
		<tag k="place" v="locality" />
		<tag k="ssr:stedsnr" v="852667" />
		<tag k="ssr:type" v="seterStøl" />
	</node>
	<node id="4488605127" lat="59.0713938" lon="7.3917043" version="4" timestamp="2021-03-18T07:44:17Z" changeset="101237689" uid="3497659" user="NKA">
		<tag k="alt_name" v="Greini" />
		<tag k="historic" v="shieling" />
		<tag k="name" v="Greina" />
		<tag k="place" v="isolated_dwelling" />
		<tag k="ssr:stedsnr" v="448433" />
		<tag k="ssr:type" v="seterStøl" />
	</node>
	<node id="4488605128" lat="59.0955405" lon="7.4315489" version="4" timestamp="2021-03-18T07:44:17Z" changeset="101237689" uid="3497659" user="NKA">
		<tag k="historic" v="shieling" />
		<tag k="name" v="Furestøyl" />
		<tag k="place" v="isolated_dwelling" />
		<tag k="ssr:stedsnr" v="790694" />
		<tag k="ssr:type" v="seterStøl" />
	</node>
	<node id="4488605129" lat="59.274083" lon="7.3749209" version="3" timestamp="2018-04-28T08:07:46Z" changeset="58497758" uid="3497659" user="NKA">
		<tag k="alt_name" v="Geitstøyl" />
		<tag k="historic" v="shieling" />
		<tag k="name" v="Geitestøyl" />
		<tag k="place" v="locality" />
		<tag k="ssr:stedsnr" v="123726" />
		<tag k="ssr:type" v="seterStøl" />
	</node>
	<node id="4488605130" lat="59.1025555" lon="7.410371" version="4" timestamp="2021-03-18T07:44:17Z" changeset="101237689" uid="3497659" user="NKA">
		<tag k="alt_name" v="Nesi" />
		<tag k="historic" v="shieling" />
		<tag k="name" v="Neset" />
		<tag k="place" v="isolated_dwelling" />
		<tag k="ssr:stedsnr" v="669650" />
		<tag k="ssr:type" v="seterStøl" />
	</node>
	<node id="4488605131" lat="59.0850699" lon="7.5292033" version="4" timestamp="2021-03-18T07:44:17Z" changeset="101237689" uid="3497659" user="NKA">
		<tag k="historic" v="shieling" />
		<tag k="name" v="Haukedalsmyri" />
		<tag k="place" v="isolated_dwelling" />
		<tag k="ssr:stedsnr" v="933997" />
		<tag k="ssr:type" v="seterStøl" />
	</node>
	<node id="4488605132" lat="59.0723929" lon="7.3880126" version="3" timestamp="2018-04-28T08:07:46Z" changeset="58497758" uid="3497659" user="NKA">
		<tag k="historic" v="shieling" />
		<tag k="name" v="Gaukåsstølen" />
		<tag k="place" v="locality" />
		<tag k="ssr:stedsnr" v="812412" />
		<tag k="ssr:type" v="seterStøl" />
	</node>
	<node id="4488605133" lat="59.1000526" lon="7.3660417" version="4" timestamp="2021-03-18T07:44:17Z" changeset="101237689" uid="3497659" user="NKA">
		<tag k="historic" v="shieling" />
		<tag k="name" v="Bjørnevass-støylen" />
		<tag k="place" v="isolated_dwelling" />
		<tag k="ssr:stedsnr" v="912664" />
		<tag k="ssr:type" v="seterStøl" />
	</node>
	<node id="4488605134" lat="59.2851215" lon="7.6676991" version="4" timestamp="2021-03-18T07:44:17Z" changeset="101237689" uid="3497659" user="NKA">
		<tag k="historic" v="shieling" />
		<tag k="name" v="Ovi" />
		<tag k="place" v="isolated_dwelling" />
		<tag k="ssr:stedsnr" v="852664" />
		<tag k="ssr:type" v="seterStøl" />
	</node>
	<node id="4488605135" lat="59.1313063" lon="7.4458953" version="4" timestamp="2021-03-18T07:44:17Z" changeset="101237689" uid="3497659" user="NKA">
		<tag k="historic" v="shieling" />
		<tag k="name" v="Fiti" />
		<tag k="place" v="isolated_dwelling" />
		<tag k="ssr:stedsnr" v="568380" />
		<tag k="ssr:type" v="seterStøl" />
	</node>
	<node id="4488605136" lat="59.053643" lon="7.3315944" version="4" timestamp="2021-03-18T07:44:17Z" changeset="101237689" uid="3497659" user="NKA">
		<tag k="historic" v="shieling" />
		<tag k="name" v="Urdevasstøylen" />
		<tag k="place" v="isolated_dwelling" />
		<tag k="ssr:stedsnr" v="184878" />
		<tag k="ssr:type" v="seterStøl" />
	</node>
	<node id="4488605137" lat="59.2789069" lon="7.402106" version="2" timestamp="2018-04-10T18:53:38Z" changeset="57982147" uid="3497659" user="NKA">
		<tag k="name" v="Bakken" />
		<tag k="place" v="farm" />
		<tag k="ssr:stedsnr" v="871122" />
		<tag k="ssr:type" v="bruk" />
	</node>
	<node id="4488605138" lat="59.2837655" lon="7.5386458" version="4" timestamp="2021-03-18T07:44:17Z" changeset="101237689" uid="3497659" user="NKA">
		<tag k="alt_name" v="Fiti" />
		<tag k="historic" v="shieling" />
		<tag k="name" v="Feti" />
		<tag k="place" v="isolated_dwelling" />
		<tag k="ssr:stedsnr" v="669687" />
		<tag k="ssr:type" v="seterStøl" />
	</node>
	<node id="4488605139" lat="59.0127724" lon="7.4350057" version="3" timestamp="2018-04-28T08:07:47Z" changeset="58497758" uid="3497659" user="NKA">
		<tag k="historic" v="shieling" />
		<tag k="name" v="Krokevasstøylen" />
		<tag k="place" v="locality" />
		<tag k="ssr:stedsnr" v="751431" />
		<tag k="ssr:type" v="seterStøl" />
	</node>
	<node id="4488605140" lat="59.279434" lon="7.5273968" version="4" timestamp="2021-03-18T07:44:17Z" changeset="101237689" uid="3497659" user="NKA">
		<tag k="historic" v="shieling" />
		<tag k="name" v="Ljom" />
		<tag k="place" v="isolated_dwelling" />
		<tag k="ssr:stedsnr" v="487728" />
		<tag k="ssr:type" v="seterStøl" />
	</node>
	<node id="4488605141" lat="59.2736647" lon="7.3931701" version="3" timestamp="2018-04-28T08:07:47Z" changeset="58497758" uid="3497659" user="NKA">
		<tag k="historic" v="shieling" />
		<tag k="name" v="Storestøyl" />
		<tag k="place" v="locality" />
		<tag k="ssr:stedsnr" v="82137" />
		<tag k="ssr:type" v="seterStøl" />
	</node>
	<node id="4488605142" lat="59.2762886" lon="7.3849054" version="3" timestamp="2018-04-28T08:07:47Z" changeset="58497758" uid="3497659" user="NKA">
		<tag k="historic" v="shieling" />
		<tag k="name" v="Brattestøyl" />
		<tag k="place" v="locality" />
		<tag k="ssr:stedsnr" v="567130" />
		<tag k="ssr:type" v="seterStøl" />
	</node>
	<node id="4488605143" lat="59.2777953" lon="7.3910827" version="4" timestamp="2021-03-18T07:44:17Z" changeset="101237689" uid="3497659" user="NKA">
		<tag k="historic" v="shieling" />
		<tag k="name" v="Storestøyl" />
		<tag k="place" v="isolated_dwelling" />
		<tag k="ssr:stedsnr" v="386132" />
		<tag k="ssr:type" v="seterStøl" />
	</node>
	<node id="4488605144" lat="59.0732766" lon="7.3138892" version="4" timestamp="2021-03-18T07:44:17Z" changeset="101237689" uid="3497659" user="NKA">
		<tag k="alt_name" v="Tjørnestøyl" />
		<tag k="historic" v="shieling" />
		<tag k="name" v="Tjørnestøylen" />
		<tag k="place" v="isolated_dwelling" />
		<tag k="ssr:stedsnr" v="1879" />
		<tag k="ssr:type" v="fritidsbolig" />
	</node>
	<node id="4488605145" lat="59.0696669" lon="7.2654067" version="3" timestamp="2021-03-18T07:44:17Z" changeset="101237689" uid="3497659" user="NKA">
		<tag k="name" v="Kleivi" />
		<tag k="place" v="isolated_dwelling" />
		<tag k="ssr:stedsnr" v="123886" />
		<tag k="ssr:type" v="fritidsbolig" />
	</node>
	<node id="4488605146" lat="59.1494654" lon="7.4798553" version="3" timestamp="2018-04-28T08:07:48Z" changeset="58497758" uid="3497659" user="NKA">
		<tag k="historic" v="shieling" />
		<tag k="name" v="Håvestøyl" />
		<tag k="place" v="locality" />
		<tag k="ssr:stedsnr" v="750337" />
		<tag k="ssr:type" v="seterStøl" />
	</node>
	<node id="4488605147" lat="59.0728734" lon="7.2635035" version="4" timestamp="2021-03-18T07:44:17Z" changeset="101237689" uid="3497659" user="NKA">
		<tag k="historic" v="shieling" />
		<tag k="name" v="Brunestøylen" />
		<tag k="place" v="isolated_dwelling" />
		<tag k="ssr:stedsnr" v="365905" />
		<tag k="ssr:type" v="fritidsbolig" />
	</node>
	<node id="4488605148" lat="59.2577577" lon="7.3121185" version="4" timestamp="2021-03-18T07:44:17Z" changeset="101237689" uid="3497659" user="NKA">
		<tag k="historic" v="shieling" />
		<tag k="name" v="Iglebu" />
		<tag k="place" v="isolated_dwelling" />
		<tag k="ssr:stedsnr" v="487517" />
		<tag k="ssr:type" v="seterStøl" />
	</node>
	<node id="4488605149" lat="59.1400274" lon="7.4887788" version="4" timestamp="2021-03-18T07:44:17Z" changeset="101237689" uid="3497659" user="NKA">
		<tag k="historic" v="shieling" />
		<tag k="name" v="Teustveit" />
		<tag k="place" v="isolated_dwelling" />
		<tag k="ssr:stedsnr" v="568376" />
		<tag k="ssr:type" v="seterStøl" />
	</node>
	<node id="4488605150" lat="59.0984655" lon="7.5526493" version="3" timestamp="2018-04-28T08:07:48Z" changeset="58497758" uid="3497659" user="NKA">
		<tag k="historic" v="shieling" />
		<tag k="name" v="Stigemyra" />
		<tag k="place" v="locality" />
		<tag k="ssr:stedsnr" v="326760" />
		<tag k="ssr:type" v="seterStøl" />
	</node>
	<node id="4488605151" lat="59.1145086" lon="7.5256834" version="2" timestamp="2018-04-10T18:53:40Z" changeset="57982147" uid="3497659" user="NKA">
		<tag k="name" v="Breiddal" />
		<tag k="place" v="farm" />
		<tag k="ssr:stedsnr" v="366645" />
		<tag k="ssr:type" v="bruk" />
	</node>
	<node id="4488605152" lat="59.262925" lon="7.2671247" version="3" timestamp="2018-04-28T08:07:48Z" changeset="58497758" uid="3497659" user="NKA">
		<tag k="historic" v="shieling" />
		<tag k="name" v="Voileskori" />
		<tag k="place" v="locality" />
		<tag k="ssr:stedsnr" v="366492" />
		<tag k="ssr:type" v="seterStøl" />
	</node>
	<node id="4488605153" lat="59.1425397" lon="7.4772611" version="3" timestamp="2018-04-28T08:07:48Z" changeset="58497758" uid="3497659" user="NKA">
		<tag k="historic" v="shieling" />
		<tag k="name" v="Finnbui" />
		<tag k="place" v="locality" />
		<tag k="ssr:stedsnr" v="933406" />
		<tag k="ssr:type" v="seterStøl" />
	</node>
	<node id="4488605154" lat="59.0773707" lon="7.323713" version="4" timestamp="2021-03-18T07:44:17Z" changeset="101237689" uid="3497659" user="NKA">
		<tag k="alt_name" v="Kjerringstølen" />
		<tag k="historic" v="shieling" />
		<tag k="name" v="Kjerringstøyl" />
		<tag k="place" v="isolated_dwelling" />
		<tag k="ssr:stedsnr" v="426888" />
		<tag k="ssr:type" v="seterStøl" />
	</node>
	<node id="4488605155" lat="59.1134558" lon="7.5250587" version="2" timestamp="2018-04-10T18:53:41Z" changeset="57982147" uid="3497659" user="NKA">
		<tag k="name" v="Sviddbakk" />
		<tag k="place" v="farm" />
		<tag k="ssr:stedsnr" v="912658" />
		<tag k="ssr:type" v="bruk" />
	</node>
	<node id="4488605156" lat="59.0811312" lon="7.338927" version="4" timestamp="2021-03-18T07:44:17Z" changeset="101237689" uid="3497659" user="NKA">
		<tag k="historic" v="shieling" />
		<tag k="name" v="Videvad" />
		<tag k="place" v="isolated_dwelling" />
		<tag k="ssr:stedsnr" v="305937" />
		<tag k="ssr:type" v="seterStøl" />
	</node>
	<node id="4488605157" lat="59.1102861" lon="7.5244132" version="2" timestamp="2018-04-10T18:53:41Z" changeset="57982147" uid="3497659" user="NKA">
		<tag k="name" v="Hagen" />
		<tag k="place" v="farm" />
		<tag k="ssr:stedsnr" v="366647" />
		<tag k="ssr:type" v="bruk" />
	</node>
	<node id="4488605158" lat="59.1123265" lon="7.5184958" version="2" timestamp="2018-04-10T18:53:41Z" changeset="57982147" uid="3497659" user="NKA">
		<tag k="name" v="Moen" />
		<tag k="place" v="farm" />
		<tag k="ssr:stedsnr" v="2655" />
		<tag k="ssr:type" v="bruk" />
	</node>
	<node id="4488605159" lat="59.2634749" lon="7.2291064" version="2" timestamp="2018-04-10T18:53:41Z" changeset="57982147" uid="3497659" user="NKA">
		<tag k="historic" v="ruins" />
		<tag k="name" v="Ljosådal" />
		<tag k="place" v="locality" />
		<tag k="ssr:stedsnr" v="548493" />
		<tag k="ssr:type" v="gammelBosettingsplass" />
	</node>
	<node id="4488605160" lat="59.1059809" lon="7.5211764" version="2" timestamp="2018-04-10T18:53:41Z" changeset="57982147" uid="3497659" user="NKA">
		<tag k="name" v="Haugen" />
		<tag k="place" v="farm" />
		<tag k="ssr:stedsnr" v="427634" />
		<tag k="ssr:type" v="bruk" />
	</node>
	<node id="4488605161" lat="59.1116298" lon="7.4912783" version="2" timestamp="2018-04-10T18:53:41Z" changeset="57982147" uid="3497659" user="NKA">
		<tag k="name" v="Berg" />
		<tag k="place" v="farm" />
		<tag k="ssr:stedsnr" v="608705" />
		<tag k="ssr:type" v="bruk" />
	</node>
	<node id="4488605162" lat="59.1059827" lon="7.41095" version="4" timestamp="2021-03-18T07:44:17Z" changeset="101237689" uid="3497659" user="NKA">
		<tag k="historic" v="shieling" />
		<tag k="name" v="Gripemo" />
		<tag k="place" v="isolated_dwelling" />
		<tag k="ssr:stedsnr" v="790701" />
		<tag k="ssr:type" v="seterStøl" />
	</node>
	<node id="4488605163" lat="59.0905014" lon="7.2231305" version="3" timestamp="2021-03-18T07:44:17Z" changeset="101237689" uid="3497659" user="NKA">
		<tag k="name" v="Kverevasstøylen" />
		<tag k="place" v="isolated_dwelling" />
		<tag k="ssr:stedsnr" v="184913" />
		<tag k="ssr:type" v="fritidsbolig" />
	</node>
	<node id="4488605164" lat="59.0529537" lon="7.373923" version="4" timestamp="2021-03-18T07:44:17Z" changeset="101237689" uid="3497659" user="NKA">
		<tag k="historic" v="shieling" />
		<tag k="name" v="Rapen" />
		<tag k="place" v="isolated_dwelling" />
		<tag k="ssr:stedsnr" v="205416" />
		<tag k="ssr:type" v="seterStøl" />
	</node>
	<node id="4488605165" lat="59.1032072" lon="7.3617083" version="4" timestamp="2021-03-18T07:44:17Z" changeset="101237689" uid="3497659" user="NKA">
		<tag k="historic" v="shieling" />
		<tag k="name" v="Helledalsstøylane" />
		<tag k="place" v="isolated_dwelling" />
		<tag k="ssr:stedsnr" v="669661" />
		<tag k="ssr:type" v="seterStøl" />
	</node>
	<node id="4488605166" lat="59.1251766" lon="7.7058069" version="3" timestamp="2021-03-18T07:44:17Z" changeset="101237689" uid="3497659" user="NKA">
		<tag k="alt_name" v="Skumlistøylen" />
		<tag k="name" v="Skumlian" />
		<tag k="place" v="isolated_dwelling" />
		<tag k="ssr:stedsnr" v="669660" />
		<tag k="ssr:type" v="fritidsbolig" />
	</node>
	<node id="4488605167" lat="59.289231" lon="7.5054584" version="4" timestamp="2021-03-18T07:44:17Z" changeset="101237689" uid="3497659" user="NKA">
		<tag k="alt_name" v="Buin" />
		<tag k="historic" v="shieling" />
		<tag k="name" v="Buene" />
		<tag k="place" v="isolated_dwelling" />
		<tag k="ssr:stedsnr" v="913686" />
		<tag k="ssr:type" v="seterStøl" />
	</node>
	<node id="4488605168" lat="59.0966491" lon="7.3290132" version="4" timestamp="2021-03-18T07:44:17Z" changeset="101237689" uid="3497659" user="NKA">
		<tag k="alt_name" v="Rennevasstøylane" />
		<tag k="historic" v="shieling" />
		<tag k="name" v="Rennevasstøylan" />
		<tag k="place" v="isolated_dwelling" />
		<tag k="ssr:stedsnr" v="244930" />
		<tag k="ssr:type" v="seterStøl" />
	</node>
	<node id="4488605169" lat="59.1166468" lon="7.6879294" version="4" timestamp="2021-03-18T07:44:17Z" changeset="101237689" uid="3497659" user="NKA">
		<tag k="alt_name" v="Lågestøyl" />
		<tag k="historic" v="shieling" />
		<tag k="name" v="Austre Lågestøyl" />
		<tag k="place" v="isolated_dwelling" />
		<tag k="ssr:stedsnr" v="426665" />
		<tag k="ssr:type" v="seterStøl" />
	</node>
	<node id="4488605170" lat="59.1085493" lon="7.5071888" version="2" timestamp="2018-04-10T18:53:43Z" changeset="57982147" uid="3497659" user="NKA">
		<tag k="name" v="Mo" />
		<tag k="place" v="farm" />
		<tag k="ssr:stedsnr" v="933794" />
		<tag k="ssr:type" v="bruk" />
	</node>
	<node id="4488605171" lat="59.1081155" lon="7.5189626" version="2" timestamp="2018-04-10T18:53:43Z" changeset="57982147" uid="3497659" user="NKA">
		<tag k="name" v="Hovet" />
		<tag k="place" v="hamlet" />
		<tag k="ssr:stedsnr" v="326781" />
		<tag k="ssr:type" v="bruk" />
	</node>
	<node id="4488605172" lat="59.1232344" lon="7.6551742" version="4" timestamp="2021-03-18T07:44:17Z" changeset="101237689" uid="3497659" user="NKA">
		<tag k="historic" v="shieling" />
		<tag k="name" v="Lauvbudalen" />
		<tag k="place" v="isolated_dwelling" />
		<tag k="ssr:stedsnr" v="912678" />
		<tag k="ssr:type" v="seterStøl" />
	</node>
	<node id="4488605173" lat="59.1128017" lon="7.5200048" version="2" timestamp="2018-04-10T18:53:43Z" changeset="57982147" uid="3497659" user="NKA">
		<tag k="name" v="Skogehagen" />
		<tag k="place" v="farm" />
		<tag k="ssr:stedsnr" v="690803" />
		<tag k="ssr:type" v="bruk" />
	</node>
	<node id="4488605174" lat="59.1237648" lon="7.63138" version="4" timestamp="2021-03-18T07:44:17Z" changeset="101237689" uid="3497659" user="NKA">
		<tag k="alt_name" v="Rossådalen" />
		<tag k="historic" v="shieling" />
		<tag k="name" v="Rossedalen" />
		<tag k="place" v="isolated_dwelling" />
		<tag k="ssr:stedsnr" v="790699" />
		<tag k="ssr:type" v="seterStøl" />
	</node>
	<node id="4488605175" lat="59.2433945" lon="7.4158758" version="4" timestamp="2021-03-18T07:44:17Z" changeset="101237689" uid="3497659" user="NKA">
		<tag k="historic" v="shieling" />
		<tag k="name" v="Nyestøyl" />
		<tag k="place" v="isolated_dwelling" />
		<tag k="ssr:stedsnr" v="23421" />
		<tag k="ssr:type" v="seterStøl" />
	</node>
	<node id="4488605176" lat="59.2464953" lon="7.6293058" version="2" timestamp="2018-04-10T18:53:44Z" changeset="57982147" uid="3497659" user="NKA">
		<tag k="building" v="cabin" />
		<tag k="name" v="Osen" />
		<tag k="place" v="isolated_dwelling" />
		<tag k="ssr:stedsnr" v="387380" />
		<tag k="ssr:type" v="fritidsbolig" />
	</node>
	<node id="4488605177" lat="59.2439194" lon="7.6574892" version="4" timestamp="2021-03-18T07:44:17Z" changeset="101237689" uid="3497659" user="NKA">
		<tag k="historic" v="shieling" />
		<tag k="name" v="Tjørnestjørnstøylen" />
		<tag k="place" v="isolated_dwelling" />
		<tag k="ssr:stedsnr" v="629372" />
		<tag k="ssr:type" v="seterStøl" />
	</node>
	<node id="4488605178" lat="59.1161697" lon="7.5195728" version="2" timestamp="2018-04-10T18:53:44Z" changeset="57982147" uid="3497659" user="NKA">
		<tag k="name" v="Krokan" />
		<tag k="place" v="farm" />
		<tag k="ssr:stedsnr" v="23801" />
		<tag k="ssr:type" v="bruk" />
	</node>
	<node id="4488605179" lat="59.0361928" lon="7.3393331" version="3" timestamp="2018-04-28T08:07:50Z" changeset="58497758" uid="3497659" user="NKA">
		<tag k="historic" v="shieling" />
		<tag k="name" v="Midttjørnstøylen" />
		<tag k="place" v="locality" />
		<tag k="ssr:stedsnr" v="872422" />
		<tag k="ssr:type" v="seterStøl" />
	</node>
	<node id="4488605180" lat="59.2973804" lon="7.6877801" version="4" timestamp="2021-03-18T07:44:17Z" changeset="101237689" uid="3497659" user="NKA">
		<tag k="historic" v="shieling" />
		<tag k="name" v="Gullborgstøylen" />
		<tag k="place" v="isolated_dwelling" />
		<tag k="ssr:stedsnr" v="184727" />
		<tag k="ssr:type" v="seterStøl" />
	</node>
	<node id="4488605181" lat="59.0960011" lon="7.4867571" version="3" timestamp="2018-04-28T08:07:50Z" changeset="58497758" uid="3497659" user="NKA">
		<tag k="historic" v="shieling" />
		<tag k="name" v="Skålesstøylen" />
		<tag k="place" v="locality" />
		<tag k="ssr:stedsnr" v="872430" />
		<tag k="ssr:type" v="seterStøl" />
	</node>
	<node id="4488605182" lat="59.1190495" lon="7.5119125" version="2" timestamp="2018-04-10T18:53:44Z" changeset="57982147" uid="3497659" user="NKA">
		<tag k="name" v="Mo" />
		<tag k="place" v="farm" />
		<tag k="ssr:stedsnr" v="123694" />
		<tag k="ssr:type" v="bruk" />
	</node>
	<node id="4488605183" lat="59.1048128" lon="7.4919008" version="2" timestamp="2018-04-10T18:53:44Z" changeset="57982147" uid="3497659" user="NKA">
		<tag k="name" v="Brokke" />
		<tag k="place" v="farm" />
		<tag k="ssr:stedsnr" v="812789" />
		<tag k="ssr:type" v="bruk" />
	</node>
	<node id="4488605184" lat="59.1053096" lon="7.4959463" version="2" timestamp="2018-04-10T18:53:44Z" changeset="57982147" uid="3497659" user="NKA">
		<tag k="name" v="Holti" />
		<tag k="place" v="farm" />
		<tag k="ssr:stedsnr" v="326787" />
		<tag k="ssr:type" v="bruk" />
	</node>
	<node id="4488605185" lat="59.1063344" lon="7.4950171" version="2" timestamp="2018-04-10T18:53:45Z" changeset="57982147" uid="3497659" user="NKA">
		<tag k="name" v="Lunden" />
		<tag k="place" v="farm" />
		<tag k="ssr:stedsnr" v="23804" />
		<tag k="ssr:type" v="bruk" />
	</node>
	<node id="4488605186" lat="59.2131268" lon="7.5374971" version="2" timestamp="2018-04-10T18:53:45Z" changeset="57982147" uid="3497659" user="NKA">
		<tag k="name" v="Nordibø" />
		<tag k="place" v="farm" />
		<tag k="ssr:stedsnr" v="812357" />
		<tag k="ssr:type" v="bruk" />
	</node>
	<node id="4488605187" lat="59.1100128" lon="7.5051465" version="2" timestamp="2018-04-10T18:53:45Z" changeset="57982147" uid="3497659" user="NKA">
		<tag k="name" v="Kleivtun" />
		<tag k="place" v="farm" />
		<tag k="ssr:stedsnr" v="872796" />
		<tag k="ssr:type" v="bruk" />
	</node>
	<node id="4488605188" lat="59.1798746" lon="7.6022069" version="4" timestamp="2021-03-18T07:44:17Z" changeset="101237689" uid="3497659" user="NKA">
		<tag k="historic" v="shieling" />
		<tag k="name" v="Ljom" />
		<tag k="place" v="isolated_dwelling" />
		<tag k="ssr:stedsnr" v="629364" />
		<tag k="ssr:type" v="seterStøl" />
	</node>
	<node id="4488605189" lat="59.0710594" lon="7.2775193" version="4" timestamp="2021-03-18T07:44:17Z" changeset="101237689" uid="3497659" user="NKA">
		<tag k="alt_name" v="Bergsstøylen" />
		<tag k="historic" v="shieling" />
		<tag k="name" v="Bergstøylen" />
		<tag k="place" v="isolated_dwelling" />
		<tag k="ssr:stedsnr" v="144416" />
		<tag k="ssr:type" v="seterStøl" />
	</node>
	<node id="4488605190" lat="59.1107268" lon="7.4917224" version="2" timestamp="2018-04-10T18:53:45Z" changeset="57982147" uid="3497659" user="NKA">
		<tag k="name" v="Bergva" />
		<tag k="place" v="farm" />
		<tag k="ssr:stedsnr" v="629778" />
		<tag k="ssr:type" v="bruk" />
	</node>
	<node id="4488605191" lat="59.0714022" lon="7.6650951" version="4" timestamp="2021-03-18T07:44:17Z" changeset="101237689" uid="3497659" user="NKA">
		<tag k="historic" v="shieling" />
		<tag k="name" v="Olavsbu" />
		<tag k="place" v="isolated_dwelling" />
		<tag k="ssr:stedsnr" v="508387" />
		<tag k="ssr:type" v="seterStøl" />
	</node>
	<node id="4488605192" lat="59.1111824" lon="7.4950588" version="2" timestamp="2018-04-10T18:53:45Z" changeset="57982147" uid="3497659" user="NKA">
		<tag k="name" v="Metveit" />
		<tag k="place" v="farm" />
		<tag k="ssr:stedsnr" v="23810" />
		<tag k="ssr:type" v="bruk" />
	</node>
	<node id="4488605193" lat="59.0322324" lon="7.4610507" version="4" timestamp="2021-03-18T07:44:17Z" changeset="101237689" uid="3497659" user="NKA">
		<tag k="alt_name" v="Kultra" />
		<tag k="historic" v="shieling" />
		<tag k="name" v="Kultren" />
		<tag k="place" v="isolated_dwelling" />
		<tag k="ssr:stedsnr" v="387505" />
		<tag k="ssr:type" v="seterStøl" />
	</node>
	<node id="4488605194" lat="59.2534591" lon="7.186894" version="2" timestamp="2018-04-10T18:53:46Z" changeset="57982147" uid="3497659" user="NKA">
		<tag k="building" v="cabin" />
		<tag k="name" v="Blekkhytta" />
		<tag k="place" v="isolated_dwelling" />
		<tag k="ssr:stedsnr" v="330884" />
		<tag k="ssr:type" v="fritidsbolig" />
	</node>
	<node id="4488605195" lat="59.0387221" lon="7.5554395" version="3" timestamp="2018-04-28T08:07:51Z" changeset="58497758" uid="3497659" user="NKA">
		<tag k="historic" v="shieling" />
		<tag k="name" v="Lislestøyl" />
		<tag k="place" v="locality" />
		<tag k="ssr:stedsnr" v="265417" />
		<tag k="ssr:type" v="seterStøl" />
	</node>
	<node id="4488605196" lat="59.1136908" lon="7.4955223" version="2" timestamp="2018-04-10T18:53:46Z" changeset="57982147" uid="3497659" user="NKA">
		<tag k="name" v="Steinholti" />
		<tag k="place" v="farm" />
		<tag k="ssr:stedsnr" v="144776" />
		<tag k="ssr:type" v="bruk" />
	</node>
	<node id="4488605197" lat="59.1152911" lon="7.4953941" version="2" timestamp="2018-04-10T18:53:46Z" changeset="57982147" uid="3497659" user="NKA">
		<tag k="alt_name" v="Haugland" />
		<tag k="name" v="Haugeland" />
		<tag k="place" v="farm" />
		<tag k="ssr:stedsnr" v="265815" />
		<tag k="ssr:type" v="bruk" />
	</node>
	<node id="4488605198" lat="59.0708684" lon="7.3000544" version="3" timestamp="2018-04-28T08:07:51Z" changeset="58497758" uid="3497659" user="NKA">
		<tag k="alt_name" v="Logbu" />
		<tag k="historic" v="shieling" />
		<tag k="name" v="Lognbru" />
		<tag k="place" v="locality" />
		<tag k="ssr:stedsnr" v="811391" />
		<tag k="ssr:type" v="setervoll" />
	</node>
	<node id="4488605199" lat="59.1170226" lon="7.4982641" version="2" timestamp="2018-04-10T18:53:46Z" changeset="57982147" uid="3497659" user="NKA">
		<tag k="name" v="Bringe" />
		<tag k="place" v="farm" />
		<tag k="ssr:stedsnr" v="326791" />
		<tag k="ssr:type" v="bruk" />
	</node>
	<node id="4488605200" lat="59.2964403" lon="7.4882371" version="4" timestamp="2021-03-18T07:44:17Z" changeset="101237689" uid="3497659" user="NKA">
		<tag k="historic" v="shieling" />
		<tag k="name" v="Brakamo" />
		<tag k="place" v="isolated_dwelling" />
		<tag k="ssr:stedsnr" v="427696" />
		<tag k="ssr:type" v="seterStøl" />
	</node>
	<node id="4488605201" lat="59.1318568" lon="7.6161219" version="4" timestamp="2021-03-18T07:44:17Z" changeset="101237689" uid="3497659" user="NKA">
		<tag k="historic" v="shieling" />
		<tag k="name" v="Forstøyl" />
		<tag k="place" v="isolated_dwelling" />
		<tag k="ssr:stedsnr" v="487722" />
		<tag k="ssr:type" v="fritidsbolig" />
	</node>
	<node id="4488605202" lat="59.1309595" lon="7.6166907" version="4" timestamp="2021-03-18T07:44:17Z" changeset="101237689" uid="3497659" user="NKA">
		<tag k="historic" v="shieling" />
		<tag k="name" v="Finnstøyl" />
		<tag k="place" v="isolated_dwelling" />
		<tag k="ssr:stedsnr" v="790718" />
		<tag k="ssr:type" v="seterStøl" />
	</node>
	<node id="4488605203" lat="59.2955316" lon="7.4330734" version="3" timestamp="2018-04-28T08:07:52Z" changeset="58497758" uid="3497659" user="NKA">
		<tag k="alt_name" v="Slumsstøyl" />
		<tag k="building" v="cabin" />
		<tag k="historic" v="shieling" />
		<tag k="name" v="Slumsdalen" />
		<tag k="place" v="isolated_dwelling" />
		<tag k="ssr:stedsnr" v="245696" />
		<tag k="ssr:type" v="seterStøl" />
	</node>
	<node id="4488605204" lat="59.1272638" lon="7.6195021" version="3" timestamp="2018-04-28T08:07:52Z" changeset="58497758" uid="3497659" user="NKA">
		<tag k="historic" v="shieling" />
		<tag k="name" v="Hovasstøylen" />
		<tag k="place" v="locality" />
		<tag k="ssr:stedsnr" v="790719" />
		<tag k="ssr:type" v="seterStøl" />
	</node>
	<node id="4488605205" lat="59.2205984" lon="7.5666856" version="3" timestamp="2018-04-28T08:07:52Z" changeset="58497758" uid="3497659" user="NKA">
		<tag k="historic" v="shieling" />
		<tag k="name" v="Joresdokki" />
		<tag k="place" v="locality" />
		<tag k="ssr:stedsnr" v="84637" />
		<tag k="ssr:type" v="seterStøl" />
	</node>
	<node id="4488605206" lat="59.0526314" lon="7.5623685" version="2" timestamp="2018-04-10T18:53:47Z" changeset="57982147" uid="3497659" user="NKA">
		<tag k="alt_name" v="Haugan" />
		<tag k="name" v="Hagen" />
		<tag k="place" v="farm" />
		<tag k="ssr:stedsnr" v="265823" />
		<tag k="ssr:type" v="bruk" />
	</node>
	<node id="4488605207" lat="59.0939232" lon="7.4463801" version="3" timestamp="2018-04-28T08:07:52Z" changeset="58497758" uid="3497659" user="NKA">
		<tag k="alt_name" v="Kvisli" />
		<tag k="historic" v="shieling" />
		<tag k="name" v="Kvisle" />
		<tag k="place" v="locality" />
		<tag k="ssr:stedsnr" v="508446" />
		<tag k="ssr:type" v="seterStøl" />
	</node>
	<node id="4488605208" lat="59.0917493" lon="7.4412879" version="3" timestamp="2018-04-28T08:07:52Z" changeset="58497758" uid="3497659" user="NKA">
		<tag k="historic" v="shieling" />
		<tag k="name" v="Djuvet" />
		<tag k="place" v="locality" />
		<tag k="ssr:stedsnr" v="750401" />
		<tag k="ssr:type" v="seterStøl" />
	</node>
	<node id="4488605209" lat="59.222773" lon="7.5808852" version="3" timestamp="2018-04-28T08:07:52Z" changeset="58497758" uid="3497659" user="NKA">
		<tag k="historic" v="shieling" />
		<tag k="name" v="Åmningen" />
		<tag k="place" v="locality" />
		<tag k="ssr:stedsnr" v="691609" />
		<tag k="ssr:type" v="seterStøl" />
	</node>
	<node id="4488605210" lat="59.1307483" lon="7.5119204" version="2" timestamp="2018-04-10T18:53:48Z" changeset="57982147" uid="3497659" user="NKA">
		<tag k="alt_name" v="Kalveneset" />
		<tag k="name" v="Kåvnesset" />
		<tag k="place" v="farm" />
		<tag k="ssr:stedsnr" v="851668" />
		<tag k="ssr:type" v="bruk" />
	</node>
	<node id="4488605211" lat="59.1560757" lon="7.328252" version="4" timestamp="2021-03-18T07:44:17Z" changeset="101237689" uid="3497659" user="NKA">
		<tag k="alt_name" v="Auguntjørnstølen" />
		<tag k="historic" v="shieling" />
		<tag k="name" v="Auguntjørnstøylen" />
		<tag k="place" v="isolated_dwelling" />
		<tag k="ssr:stedsnr" v="365837" />
		<tag k="ssr:type" v="seterStøl" />
	</node>
	<node id="4488605212" lat="59.2166227" lon="7.5667334" version="3" timestamp="2018-04-28T08:07:53Z" changeset="58497758" uid="3497659" user="NKA">
		<tag k="historic" v="shieling" />
		<tag k="name" v="Epteset" />
		<tag k="place" v="locality" />
		<tag k="ssr:stedsnr" v="23654" />
		<tag k="ssr:type" v="seterStøl" />
	</node>
	<node id="4488605213" lat="59.2414281" lon="7.7128404" version="4" timestamp="2021-03-18T07:44:17Z" changeset="101237689" uid="3497659" user="NKA">
		<tag k="historic" v="shieling" />
		<tag k="name" v="Grøneli" />
		<tag k="place" v="isolated_dwelling" />
		<tag k="ssr:stedsnr" v="84934" />
		<tag k="ssr:type" v="seterStøl" />
	</node>
	<node id="4488605214" lat="59.0948342" lon="7.416791" version="4" timestamp="2021-03-18T07:44:17Z" changeset="101237689" uid="3497659" user="NKA">
		<tag k="historic" v="shieling" />
		<tag k="name" v="Uvedalen" />
		<tag k="place" v="isolated_dwelling" />
		<tag k="ssr:stedsnr" v="205451" />
		<tag k="ssr:type" v="seterStøl" />
	</node>
	<node id="4488605215" lat="59.1376875" lon="7.7041142" version="4" timestamp="2021-03-18T07:44:17Z" changeset="101237689" uid="3497659" user="NKA">
		<tag k="alt_name" v="Fjellstøyl" />
		<tag k="historic" v="shieling" />
		<tag k="name" v="Fjøddestøylen" />
		<tag k="place" v="isolated_dwelling" />
		<tag k="ssr:stedsnr" v="122656" />
		<tag k="ssr:type" v="seterStøl" />
	</node>
	<node id="4488605216" lat="59.305493" lon="7.6210912" version="4" timestamp="2021-03-18T07:44:17Z" changeset="101237689" uid="3497659" user="NKA">
		<tag k="alt_name" v="Hisskard" />
		<tag k="historic" v="shieling" />
		<tag k="name" v="Hiskard" />
		<tag k="place" v="isolated_dwelling" />
		<tag k="ssr:stedsnr" v="305744" />
		<tag k="ssr:type" v="seterStøl" />
	</node>
	<node id="4488605217" lat="59.3106027" lon="7.5849771" version="3" timestamp="2021-03-18T07:44:17Z" changeset="101237689" uid="3497659" user="NKA">
		<tag k="name" v="Osen" />
		<tag k="place" v="isolated_dwelling" />
		<tag k="ssr:stedsnr" v="487768" />
		<tag k="ssr:type" v="fritidsbolig" />
	</node>
	<node id="4488605218" lat="59.1563006" lon="7.2284058" version="3" timestamp="2021-03-18T07:44:17Z" changeset="101237689" uid="3497659" user="NKA">
		<tag k="name" v="Gjuvvasslega" />
		<tag k="place" v="isolated_dwelling" />
		<tag k="ssr:stedsnr" v="365842" />
		<tag k="ssr:type" v="fritidsbolig" />
	</node>
	<node id="4488605219" lat="59.2244597" lon="7.7151283" version="3" timestamp="2018-04-28T08:07:53Z" changeset="58497758" uid="3497659" user="NKA">
		<tag k="historic" v="shieling" />
		<tag k="name" v="Iveroet" />
		<tag k="place" v="locality" />
		<tag k="ssr:stedsnr" v="448927" />
		<tag k="ssr:type" v="seterStøl" />
	</node>
	<node id="4488605220" lat="59.1675945" lon="7.2834813" version="2" timestamp="2018-04-10T18:53:49Z" changeset="57982147" uid="3497659" user="NKA">
		<tag k="historic" v="yes" />
		<tag k="name" v="Guttormsto" />
		<tag k="place" v="locality" />
		<tag k="ssr:stedsnr" v="1832" />
		<tag k="ssr:type" v="stø" />
	</node>
	<node id="4488605221" lat="59.3107112" lon="7.5290017" version="3" timestamp="2018-04-28T08:07:53Z" changeset="58497758" uid="3497659" user="NKA">
		<tag k="building" v="cabin" />
		<tag k="historic" v="shieling" />
		<tag k="name" v="Torvik" />
		<tag k="place" v="isolated_dwelling" />
		<tag k="ssr:stedsnr" v="852705" />
		<tag k="ssr:type" v="seterStøl" />
	</node>
	<node id="4488605222" lat="59.1358348" lon="7.5842223" version="3" timestamp="2021-03-18T07:44:17Z" changeset="101237689" uid="3497659" user="NKA">
		<tag k="alt_name" v="Graslian;Grasliin" />
		<tag k="name" v="Grasliane" />
		<tag k="place" v="isolated_dwelling" />
		<tag k="ssr:stedsnr" v="547609" />
		<tag k="ssr:type" v="bruk" />
	</node>
	<node id="4488605223" lat="59.0498367" lon="7.5065813" version="2" timestamp="2018-04-10T18:53:50Z" changeset="57982147" uid="3497659" user="NKA">
		<tag k="name" v="Liebui" />
		<tag k="place" v="locality" />
		<tag k="ssr:stedsnr" v="933833" />
		<tag k="ssr:type" v="fritidsbolig" />
	</node>
	<node id="4488605224" lat="59.083173" lon="7.42386" version="4" timestamp="2021-03-18T07:44:17Z" changeset="101237689" uid="3497659" user="NKA">
		<tag k="historic" v="shieling" />
		<tag k="name" v="Fisstøyl" />
		<tag k="place" v="isolated_dwelling" />
		<tag k="ssr:stedsnr" v="690460" />
		<tag k="ssr:type" v="seterStøl" />
	</node>
	<node id="4488605225" lat="59.1398531" lon="7.5726893" version="3" timestamp="2021-03-18T07:44:17Z" changeset="101237689" uid="3497659" user="NKA">
		<tag k="alt_name" v="Hjåmestøyl" />
		<tag k="name" v="Jåmestøyl" />
		<tag k="place" v="isolated_dwelling" />
		<tag k="ssr:stedsnr" v="62566" />
		<tag k="ssr:type" v="fritidsbolig" />
	</node>
	<node id="4488605226" lat="59.1406902" lon="7.5686351" version="3" timestamp="2018-04-28T08:07:54Z" changeset="58497758" uid="3497659" user="NKA">
		<tag k="historic" v="shieling" />
		<tag k="name" v="Skogestøyl" />
		<tag k="place" v="locality" />
		<tag k="ssr:stedsnr" v="486573" />
		<tag k="ssr:type" v="seterStøl" />
	</node>
	<node id="4488605227" lat="59.0498211" lon="7.5133848" version="2" timestamp="2018-04-10T18:53:50Z" changeset="57982147" uid="3497659" user="NKA">
		<tag k="name" v="Flottebui" />
		<tag k="place" v="locality" />
		<tag k="ssr:stedsnr" v="23841" />
		<tag k="ssr:type" v="fritidsbolig" />
	</node>
	<node id="4488605228" lat="59.0517744" lon="7.5091787" version="2" timestamp="2018-04-10T18:53:50Z" changeset="57982147" uid="3497659" user="NKA">
		<tag k="name" v="Falkebui" />
		<tag k="place" v="locality" />
		<tag k="ssr:stedsnr" v="872821" />
		<tag k="ssr:type" v="fritidsbolig" />
	</node>
	<node id="4488605229" lat="59.218246" lon="7.7312739" version="4" timestamp="2021-03-18T07:44:17Z" changeset="101237689" uid="3497659" user="NKA">
		<tag k="alt_name" v="Hovstøl" />
		<tag k="historic" v="shieling" />
		<tag k="name" v="Håvestøyl" />
		<tag k="place" v="isolated_dwelling" />
		<tag k="ssr:stedsnr" v="144905" />
		<tag k="ssr:type" v="seterStøl" />
	</node>
	<node id="4488605230" lat="59.3067333" lon="7.450545" version="2" timestamp="2018-04-10T18:53:51Z" changeset="57982147" uid="3497659" user="NKA">
		<tag k="historic" v="ruins" />
		<tag k="name" v="Kvæven" />
		<tag k="place" v="locality" />
		<tag k="ssr:stedsnr" v="184733" />
		<tag k="ssr:type" v="fritidsbolig" />
	</node>
	<node id="4488605231" lat="59.0787181" lon="7.4122515" version="3" timestamp="2018-04-28T08:07:54Z" changeset="58497758" uid="3497659" user="NKA">
		<tag k="historic" v="shieling" />
		<tag k="name" v="Liestøyl" />
		<tag k="place" v="locality" />
		<tag k="ssr:stedsnr" v="326450" />
		<tag k="ssr:type" v="seterStøl" />
	</node>
	<node id="4488605232" lat="59.1393549" lon="7.5160766" version="2" timestamp="2018-04-10T18:53:51Z" changeset="57982147" uid="3497659" user="NKA">
		<tag k="name" v="Uppistog" />
		<tag k="place" v="farm" />
		<tag k="ssr:stedsnr" v="183534" />
		<tag k="ssr:type" v="bruk" />
	</node>
	<node id="4488605233" lat="59.1373955" lon="7.5164531" version="2" timestamp="2018-04-10T18:53:51Z" changeset="57982147" uid="3497659" user="NKA">
		<tag k="name" v="Porsmyr" />
		<tag k="place" v="farm" />
		<tag k="ssr:stedsnr" v="790592" />
		<tag k="ssr:type" v="bruk" />
	</node>
	<node id="4488605234" lat="59.1336238" lon="7.5096498" version="2" timestamp="2018-04-10T18:53:51Z" changeset="57982147" uid="3497659" user="NKA">
		<tag k="name" v="Grindeskard" />
		<tag k="place" v="farm" />
		<tag k="ssr:stedsnr" v="183538" />
		<tag k="ssr:type" v="bruk" />
	</node>
	<node id="4488605235" lat="59.1375038" lon="7.5084112" version="2" timestamp="2018-04-10T18:53:51Z" changeset="57982147" uid="3497659" user="NKA">
		<tag k="name" v="Nordgarden" />
		<tag k="place" v="farm" />
		<tag k="ssr:stedsnr" v="547617" />
		<tag k="ssr:type" v="bruk" />
	</node>
	<node id="4488605236" lat="59.1390783" lon="7.4940762" version="2" timestamp="2018-04-10T18:53:51Z" changeset="57982147" uid="3497659" user="NKA">
		<tag k="alt_name" v="Lii" />
		<tag k="name" v="Lia" />
		<tag k="place" v="locality" />
		<tag k="ssr:stedsnr" v="790597" />
		<tag k="ssr:type" v="fritidsbolig" />
	</node>
	<node id="4488605237" lat="59.1380687" lon="7.4738779" version="4" timestamp="2021-03-18T07:44:17Z" changeset="101237689" uid="3497659" user="NKA">
		<tag k="alt_name" v="Maureland" />
		<tag k="historic" v="shieling" />
		<tag k="name" v="Maurland" />
		<tag k="place" v="isolated_dwelling" />
		<tag k="ssr:stedsnr" v="1581" />
		<tag k="ssr:type" v="seterStøl" />
	</node>
	<node id="4488605238" lat="59.1340936" lon="7.4213454" version="4" timestamp="2021-03-18T07:44:17Z" changeset="101237689" uid="3497659" user="NKA">
		<tag k="historic" v="shieling" />
		<tag k="name" v="Finnbudalen" />
		<tag k="place" v="isolated_dwelling" />
		<tag k="ssr:stedsnr" v="790601" />
		<tag k="ssr:type" v="seterStøl" />
	</node>
	<node id="4488605239" lat="59.2166273" lon="7.5500423" version="3" timestamp="2018-04-28T08:07:54Z" changeset="58497758" uid="3497659" user="NKA">
		<tag k="historic" v="shieling" />
		<tag k="name" v="Troendestøyl" />
		<tag k="place" v="locality" />
		<tag k="ssr:stedsnr" v="387657" />
		<tag k="ssr:type" v="seterStøl" />
	</node>
	<node id="4488605240" lat="59.0785618" lon="7.407451" version="3" timestamp="2018-04-28T08:07:54Z" changeset="58497758" uid="3497659" user="NKA">
		<tag k="historic" v="shieling" />
		<tag k="name" v="Nyestøyl" />
		<tag k="place" v="locality" />
		<tag k="ssr:stedsnr" v="447409" />
		<tag k="ssr:type" v="seterStøl" />
	</node>
	<node id="4488605241" lat="59.3151784" lon="7.6777216" version="4" timestamp="2021-03-18T07:44:17Z" changeset="101237689" uid="3497659" user="NKA">
		<tag k="historic" v="shieling" />
		<tag k="name" v="Fitbekk" />
		<tag k="place" v="isolated_dwelling" />
		<tag k="ssr:stedsnr" v="123553" />
		<tag k="ssr:type" v="seterStøl" />
	</node>
	<node id="4488605242" lat="59.2184348" lon="7.549488" version="3" timestamp="2018-04-28T08:07:55Z" changeset="58497758" uid="3497659" user="NKA">
		<tag k="historic" v="shieling" />
		<tag k="name" v="Preststøyl" />
		<tag k="place" v="locality" />
		<tag k="ssr:stedsnr" v="509620" />
		<tag k="ssr:type" v="seterStøl" />
	</node>
	<node id="4488605243" lat="59.08795" lon="7.761167" version="4" timestamp="2021-03-18T07:44:17Z" changeset="101237689" uid="3497659" user="NKA">
		<tag k="historic" v="shieling" />
		<tag k="name" v="Skrum" />
		<tag k="place" v="isolated_dwelling" />
		<tag k="ssr:stedsnr" v="184457" />
		<tag k="ssr:type" v="seterStøl" />
	</node>
	<node id="4488605244" lat="59.0769664" lon="7.4027249" version="3" timestamp="2018-04-28T08:07:55Z" changeset="58497758" uid="3497659" user="NKA">
		<tag k="historic" v="shieling" />
		<tag k="name" v="Songedalsstøyl" />
		<tag k="place" v="locality" />
		<tag k="ssr:stedsnr" v="872474" />
		<tag k="ssr:type" v="seterStøl" />
	</node>
	<node id="4488605245" lat="59.2257784" lon="7.5533141" version="2" timestamp="2018-04-10T18:53:53Z" changeset="57982147" uid="3497659" user="NKA">
		<tag k="name" v="Sæstad" />
		<tag k="place" v="farm" />
		<tag k="ssr:stedsnr" v="691664" />
		<tag k="ssr:type" v="bruk" />
	</node>
	<node id="4488605246" lat="59.0336823" lon="7.5121725" version="3" timestamp="2018-04-28T08:07:55Z" changeset="58497758" uid="3497659" user="NKA">
		<tag k="historic" v="shieling" />
		<tag k="name" v="Nyestøyl" />
		<tag k="place" v="locality" />
		<tag k="ssr:stedsnr" v="568811" />
		<tag k="ssr:type" v="seterStøl" />
	</node>
	<node id="4488605247" lat="59.0344459" lon="7.5189218" version="2" timestamp="2018-04-10T18:53:53Z" changeset="57982147" uid="3497659" user="NKA">
		<tag k="historic" v="ruins" />
		<tag k="name" v="Hagebui" />
		<tag k="place" v="locality" />
		<tag k="ssr:stedsnr" v="265839" />
		<tag k="ssr:type" v="fritidsbolig" />
	</node>
	<node id="4488605248" lat="59.0956646" lon="7.7334222" version="4" timestamp="2021-03-18T07:44:17Z" changeset="101237689" uid="3497659" user="NKA">
		<tag k="historic" v="shieling" />
		<tag k="name" v="Glott" />
		<tag k="place" v="isolated_dwelling" />
		<tag k="ssr:stedsnr" v="548450" />
		<tag k="ssr:type" v="seterStøl" />
	</node>
	<node id="4488605249" lat="59.1968944" lon="7.2549742" version="4" timestamp="2021-03-18T07:44:17Z" changeset="101237689" uid="3497659" user="NKA">
		<tag k="historic" v="shieling" />
		<tag k="name" v="Nutestøylen" />
		<tag k="place" v="isolated_dwelling" />
		<tag k="ssr:stedsnr" v="487882" />
		<tag k="ssr:type" v="seterStøl" />
	</node>
	<node id="4488605250" lat="59.1210623" lon="7.7156128" version="4" timestamp="2021-03-18T07:44:17Z" changeset="101237689" uid="3497659" user="NKA">
		<tag k="alt_name" v="Hellevasstøylen" />
		<tag k="historic" v="shieling" />
		<tag k="name" v="Heddevasstøyl" />
		<tag k="place" v="isolated_dwelling" />
		<tag k="ssr:stedsnr" v="84589" />
		<tag k="ssr:type" v="seterStøl" />
	</node>
	<node id="4488605251" lat="59.0839824" lon="7.3898289" version="4" timestamp="2021-03-18T07:44:17Z" changeset="101237689" uid="3497659" user="NKA">
		<tag k="historic" v="shieling" />
		<tag k="name" v="Lislereigåsstøyl" />
		<tag k="place" v="isolated_dwelling" />
		<tag k="ssr:stedsnr" v="872476" />
		<tag k="ssr:type" v="seterStøl" />
	</node>
	<node id="4488605252" lat="59.1489492" lon="7.5841657" version="4" timestamp="2021-03-18T07:44:17Z" changeset="101237689" uid="3497659" user="NKA">
		<tag k="alt_name" v="Vindsåsen" />
		<tag k="historic" v="shieling" />
		<tag k="name" v="Vindåsen" />
		<tag k="place" v="isolated_dwelling" />
		<tag k="ssr:stedsnr" v="183550" />
		<tag k="ssr:type" v="seterStøl" />
	</node>
	<node id="4488605253" lat="59.0335285" lon="7.5129408" version="3" timestamp="2018-04-28T08:07:56Z" changeset="58497758" uid="3497659" user="NKA">
		<tag k="historic" v="shieling" />
		<tag k="name" v="Lislestøyl" />
		<tag k="place" v="locality" />
		<tag k="ssr:stedsnr" v="812837" />
		<tag k="ssr:type" v="seterStøl" />
	</node>
	<node id="4488605254" lat="59.1501013" lon="7.5822613" version="4" timestamp="2021-03-18T07:44:17Z" changeset="101237689" uid="3497659" user="NKA">
		<tag k="historic" v="shieling" />
		<tag k="name" v="Listøyl" />
		<tag k="place" v="isolated_dwelling" />
		<tag k="ssr:stedsnr" v="669590" />
		<tag k="ssr:type" v="seterStøl" />
	</node>
	<node id="4488605255" lat="59.0329669" lon="7.5097924" version="3" timestamp="2018-04-28T08:07:57Z" changeset="58497758" uid="3497659" user="NKA">
		<tag k="historic" v="shieling" />
		<tag k="name" v="Håvestøyl" />
		<tag k="place" v="locality" />
		<tag k="ssr:stedsnr" v="386822" />
		<tag k="ssr:type" v="seterStøl" />
	</node>
	<node id="4488605256" lat="59.3122483" lon="7.5273647" version="3" timestamp="2018-04-28T08:07:57Z" changeset="58497758" uid="3497659" user="NKA">
		<tag k="historic" v="shieling" />
		<tag k="name" v="Nyestøyl" />
		<tag k="place" v="locality" />
		<tag k="ssr:stedsnr" v="366529" />
		<tag k="ssr:type" v="seterStøl" />
	</node>
	<node id="4488605258" lat="59.1457019" lon="7.5662553" version="4" timestamp="2021-03-18T07:44:17Z" changeset="101237689" uid="3497659" user="NKA">
		<tag k="alt_name" v="Gjerdestøyl" />
		<tag k="historic" v="shieling" />
		<tag k="name" v="Gjærestøyl" />
		<tag k="place" v="isolated_dwelling" />
		<tag k="ssr:stedsnr" v="547628" />
		<tag k="ssr:type" v="seterStøl" />
	</node>
	<node id="4488605259" lat="59.0323853" lon="7.5069867" version="4" timestamp="2021-03-18T07:44:17Z" changeset="101237689" uid="3497659" user="NKA">
		<tag k="building" v="cabin" />
		<tag k="historic" v="shieling" />
		<tag k="name" v="Løyning" />
		<tag k="place" v="isolated_dwelling" />
		<tag k="ssr:stedsnr" v="326826" />
		<tag k="ssr:type" v="seterStøl" />
	</node>
	<node id="4488605260" lat="59.2143587" lon="7.5360309" version="2" timestamp="2018-04-10T18:53:55Z" changeset="57982147" uid="3497659" user="NKA">
		<tag k="alt_name" v="Haugebirki" />
		<tag k="name" v="Haugebirke" />
		<tag k="place" v="farm" />
		<tag k="ssr:stedsnr" v="23673" />
		<tag k="ssr:type" v="bruk" />
	</node>
	<node id="4488605261" lat="59.209061" lon="7.5377847" version="2" timestamp="2018-04-10T18:53:55Z" changeset="57982147" uid="3497659" user="NKA">
		<tag k="name" v="Valle prestegard" />
		<tag k="place" v="farm" />
		<tag k="ssr:stedsnr" v="812668" />
		<tag k="ssr:type" v="bruk" />
	</node>
	<node id="4488605262" lat="59.1408206" lon="7.5151904" version="2" timestamp="2018-04-10T18:53:55Z" changeset="57982147" uid="3497659" user="NKA">
		<tag k="name" v="Plasset" />
		<tag k="place" v="farm" />
		<tag k="ssr:stedsnr" v="486588" />
		<tag k="ssr:type" v="bruk" />
	</node>
	<node id="4488605263" lat="59.2067095" lon="7.5217799" version="2" timestamp="2018-04-10T18:53:55Z" changeset="57982147" uid="3497659" user="NKA">
		<tag k="name" v="Haugen" />
		<tag k="place" v="farm" />
		<tag k="ssr:stedsnr" v="691645" />
		<tag k="ssr:type" v="bruk" />
	</node>
	<node id="4488605264" lat="59.1419467" lon="7.4722312" version="3" timestamp="2018-04-28T08:07:57Z" changeset="58497758" uid="3497659" user="NKA">
		<tag k="historic" v="shieling" />
		<tag k="name" v="Vindsåsen" />
		<tag k="place" v="locality" />
		<tag k="ssr:stedsnr" v="729581" />
		<tag k="ssr:type" v="seterStøl" />
	</node>
	<node id="4488605265" lat="59.3177606" lon="7.4717174" version="3" timestamp="2021-03-18T07:44:17Z" changeset="101237689" uid="3497659" user="NKA">
		<tag k="name" v="Voglumtveit" />
		<tag k="place" v="isolated_dwelling" />
		<tag k="ssr:stedsnr" v="548525" />
		<tag k="ssr:type" v="fritidsbolig" />
	</node>
	<node id="4488605266" lat="59.1055765" lon="7.4841069" version="2" timestamp="2018-04-10T18:53:55Z" changeset="57982147" uid="3497659" user="NKA">
		<tag k="name" v="Håmåren" />
		<tag k="place" v="farm" />
		<tag k="ssr:stedsnr" v="326474" />
		<tag k="ssr:type" v="bruk" />
	</node>
	<node id="4488605267" lat="59.1435416" lon="7.3780961" version="4" timestamp="2021-03-18T07:44:17Z" changeset="101237689" uid="3497659" user="NKA">
		<tag k="historic" v="shieling" />
		<tag k="name" v="Sandvasstøylen" />
		<tag k="place" v="isolated_dwelling" />
		<tag k="ssr:stedsnr" v="183564" />
		<tag k="ssr:type" v="seterStøl" />
	</node>
	<node id="4488605268" lat="59.156446" lon="7.6161231" version="4" timestamp="2021-03-18T07:44:17Z" changeset="101237689" uid="3497659" user="NKA">
		<tag k="historic" v="shieling" />
		<tag k="name" v="Fiskevass-støylen" />
		<tag k="place" v="isolated_dwelling" />
		<tag k="ssr:stedsnr" v="911598" />
		<tag k="ssr:type" v="seterStøl" />
	</node>
	<node id="4488605269" lat="59.2477211" lon="7.7213671" version="3" timestamp="2018-04-28T08:07:58Z" changeset="58497758" uid="3497659" user="NKA">
		<tag k="historic" v="shieling" />
		<tag k="name" v="Skorestøylen" />
		<tag k="place" v="locality" />
		<tag k="ssr:stedsnr" v="547334" />
		<tag k="ssr:type" v="seterStøl" />
	</node>
	<node id="4488605270" lat="59.0910059" lon="7.7456912" version="3" timestamp="2018-04-28T08:07:58Z" changeset="58497758" uid="3497659" user="NKA">
		<tag k="historic" v="shieling" />
		<tag k="name" v="Stavesstøyl" />
		<tag k="place" v="locality" />
		<tag k="ssr:stedsnr" v="144606" />
		<tag k="ssr:type" v="seterStøl" />
	</node>
	<node id="4488605271" lat="59.150805" lon="7.5746685" version="3" timestamp="2018-04-28T08:07:58Z" changeset="58497758" uid="3497659" user="NKA">
		<tag k="historic" v="shieling" />
		<tag k="name" v="Mærstøyl" />
		<tag k="place" v="locality" />
		<tag k="ssr:stedsnr" v="1597" />
		<tag k="ssr:type" v="seterStøl" />
	</node>
	<node id="4488605272" lat="59.1573191" lon="7.5744272" version="3" timestamp="2018-04-28T08:07:58Z" changeset="58497758" uid="3497659" user="NKA">
		<tag k="historic" v="shieling" />
		<tag k="name" v="Valestøyl" />
		<tag k="place" v="locality" />
		<tag k="ssr:stedsnr" v="547641" />
		<tag k="ssr:type" v="seterStøl" />
	</node>
	<node id="4488605273" lat="59.3236593" lon="7.6484447" version="3" timestamp="2018-04-28T08:07:58Z" changeset="58497758" uid="3497659" user="NKA">
		<tag k="historic" v="shieling" />
		<tag k="name" v="Brattestøyl" />
		<tag k="place" v="locality" />
		<tag k="ssr:stedsnr" v="608564" />
		<tag k="ssr:type" v="seterStøl" />
	</node>
	<node id="4488605274" lat="59.0970406" lon="7.7168688" version="4" timestamp="2021-03-18T07:44:17Z" changeset="101237689" uid="3497659" user="NKA">
		<tag k="historic" v="shieling" />
		<tag k="name" v="Videviki" />
		<tag k="place" v="isolated_dwelling" />
		<tag k="ssr:stedsnr" v="629605" />
		<tag k="ssr:type" v="seterStøl" />
	</node>
	<node id="4488605275" lat="59.2367599" lon="7.5801362" version="3" timestamp="2018-04-28T08:07:58Z" changeset="58497758" uid="3497659" user="NKA">
		<tag k="historic" v="shieling" />
		<tag k="name" v="Maurstøyl" />
		<tag k="place" v="locality" />
		<tag k="ssr:stedsnr" v="751597" />
		<tag k="ssr:type" v="seterStøl" />
	</node>
	<node id="4488605276" lat="59.0888194" lon="7.7210012" version="4" timestamp="2021-03-18T07:44:17Z" changeset="101237689" uid="3497659" user="NKA">
		<tag k="historic" v="shieling" />
		<tag k="name" v="Lauvåsen" />
		<tag k="place" v="isolated_dwelling" />
		<tag k="ssr:stedsnr" v="387601" />
		<tag k="ssr:type" v="seterStøl" />
	</node>
	<node id="4488605277" lat="59.3305282" lon="7.5049606" version="2" timestamp="2018-04-10T18:53:57Z" changeset="57982147" uid="3497659" user="NKA">
		<tag k="name" v="Mjåbu" />
		<tag k="place" v="locality" />
		<tag k="ssr:stedsnr" v="366550" />
		<tag k="ssr:type" v="fritidsbolig" />
	</node>
	<node id="4488605278" lat="59.06709" lon="7.5772113" version="2" timestamp="2018-04-10T18:53:57Z" changeset="57982147" uid="3497659" user="NKA">
		<tag k="name" v="Søgard" />
		<tag k="place" v="farm" />
		<tag k="ssr:stedsnr" v="872856" />
		<tag k="ssr:type" v="bruk" />
	</node>
	<node id="4488605279" lat="59.1358866" lon="7.581931" version="2" timestamp="2018-04-10T18:53:57Z" changeset="57982147" uid="3497659" user="NKA">
		<tag k="name" v="Grasli" />
		<tag k="place" v="isolated_dwelling" />
		<tag k="ssr:stedsnr" v="233294" />
		<tag k="ssr:type" v="bruk" />
	</node>
	<node id="4488605280" lat="59.3252138" lon="7.4846096" version="3" timestamp="2021-03-18T07:44:17Z" changeset="101237689" uid="3497659" user="NKA">
		<tag k="name" v="Strondi" />
		<tag k="place" v="isolated_dwelling" />
		<tag k="ssr:stedsnr" v="731490" />
		<tag k="ssr:type" v="fritidsbolig" />
	</node>
	<node id="4488605281" lat="59.3296126" lon="7.4886151" version="3" timestamp="2018-04-28T08:07:59Z" changeset="58497758" uid="3497659" user="NKA">
		<tag k="historic" v="shieling" />
		<tag k="name" v="Slettestøyl" />
		<tag k="place" v="locality" />
		<tag k="ssr:stedsnr" v="245509" />
		<tag k="ssr:type" v="seterStøl" />
	</node>
	<node id="4488605282" lat="59.2429456" lon="7.5792697" version="4" timestamp="2021-03-18T07:44:17Z" changeset="101237689" uid="3497659" user="NKA">
		<tag k="alt_name" v="Gloseli" />
		<tag k="historic" v="shieling" />
		<tag k="name" v="Gloselii" />
		<tag k="place" v="isolated_dwelling" />
		<tag k="ssr:stedsnr" v="811570" />
		<tag k="ssr:type" v="seterStøl" />
	</node>
	<node id="4488605283" lat="59.2437182" lon="7.5836891" version="3" timestamp="2018-04-28T08:07:59Z" changeset="58497758" uid="3497659" user="NKA">
		<tag k="historic" v="shieling" />
		<tag k="name" v="Nyestøyl" />
		<tag k="place" v="locality" />
		<tag k="ssr:stedsnr" v="265600" />
		<tag k="ssr:type" v="seterStøl" />
	</node>
	<node id="4488605284" lat="59.2445676" lon="7.5829893" version="3" timestamp="2018-04-28T08:07:59Z" changeset="58497758" uid="3497659" user="NKA">
		<tag k="historic" v="shieling" />
		<tag k="name" v="Hagebui" />
		<tag k="place" v="locality" />
		<tag k="ssr:stedsnr" v="933622" />
		<tag k="ssr:type" v="seterStøl" />
	</node>
	<node id="4488605285" lat="59.0816165" lon="7.7659842" version="4" timestamp="2021-03-18T07:44:17Z" changeset="101237689" uid="3497659" user="NKA">
		<tag k="historic" v="shieling" />
		<tag k="name" v="Solli" />
		<tag k="place" v="isolated_dwelling" />
		<tag k="ssr:stedsnr" v="933645" />
		<tag k="ssr:type" v="seterStøl" />
	</node>
	<node id="4488605286" lat="59.2500029" lon="7.6128224" version="4" timestamp="2021-03-18T07:44:17Z" changeset="101237689" uid="3497659" user="NKA">
		<tag k="historic" v="shieling" />
		<tag k="name" v="Myklestøyl" />
		<tag k="place" v="isolated_dwelling" />
		<tag k="ssr:stedsnr" v="629112" />
		<tag k="ssr:type" v="seterStøl" />
	</node>
	<node id="4488605287" lat="59.103042" lon="7.4186089" version="4" timestamp="2021-03-18T07:44:17Z" changeset="101237689" uid="3497659" user="NKA">
		<tag k="historic" v="shieling" />
		<tag k="name" v="Skrymeli" />
		<tag k="place" v="isolated_dwelling" />
		<tag k="ssr:stedsnr" v="508525" />
		<tag k="ssr:type" v="seterStøl" />
	</node>
	<node id="4488605288" lat="59.2316272" lon="7.5488489" version="2" timestamp="2018-04-10T18:53:58Z" changeset="57982147" uid="3497659" user="NKA">
		<tag k="name" v="Støyla" />
		<tag k="place" v="farm" />
		<tag k="ssr:stedsnr" v="386555" />
		<tag k="ssr:type" v="bruk" />
	</node>
	<node id="4488605289" lat="59.1643393" lon="7.6034189" version="4" timestamp="2021-03-18T07:44:17Z" changeset="101237689" uid="3497659" user="NKA">
		<tag k="alt_name" v="Svodin" />
		<tag k="historic" v="shieling" />
		<tag k="name" v="Svoene" />
		<tag k="place" v="isolated_dwelling" />
		<tag k="ssr:stedsnr" v="729603" />
		<tag k="ssr:type" v="seterStøl" />
	</node>
	<node id="4488605290" lat="59.288789" lon="7.5440984" version="3" timestamp="2021-03-18T07:44:17Z" changeset="101237689" uid="3497659" user="NKA">
		<tag k="name" v="Bjørnli" />
		<tag k="place" v="isolated_dwelling" />
		<tag k="ssr:stedsnr" v="690117" />
		<tag k="ssr:type" v="fritidsbolig" />
	</node>
	<node id="4488605291" lat="59.0842003" lon="7.716872" version="3" timestamp="2018-04-28T08:08:00Z" changeset="58497758" uid="3497659" user="NKA">
		<tag k="historic" v="shieling" />
		<tag k="name" v="Svenes" />
		<tag k="place" v="locality" />
		<tag k="ssr:stedsnr" v="144618" />
		<tag k="ssr:type" v="seterStøl" />
	</node>
	<node id="4488605292" lat="59.0787975" lon="7.7185726" version="4" timestamp="2021-03-18T07:44:17Z" changeset="101237689" uid="3497659" user="NKA">
		<tag k="historic" v="shieling" />
		<tag k="name" v="Eisæ" />
		<tag k="place" v="isolated_dwelling" />
		<tag k="ssr:stedsnr" v="144621" />
		<tag k="ssr:type" v="seterStøl" />
	</node>
	<node id="4488605293" lat="59.2434295" lon="7.3074057" version="4" timestamp="2021-03-18T07:44:17Z" changeset="101237689" uid="3497659" user="NKA">
		<tag k="historic" v="shieling" />
		<tag k="name" v="Øyan" />
		<tag k="place" v="isolated_dwelling" />
		<tag k="ssr:stedsnr" v="365801" />
		<tag k="ssr:type" v="seterStøl" />
	</node>
	<node id="4488605294" lat="59.1649175" lon="7.4916324" version="4" timestamp="2021-03-18T07:44:17Z" changeset="101237689" uid="3497659" user="NKA">
		<tag k="historic" v="shieling" />
		<tag k="name" v="Myrbui" />
		<tag k="place" v="isolated_dwelling" />
		<tag k="ssr:stedsnr" v="911611" />
		<tag k="ssr:type" v="seterStøl" />
	</node>
	<node id="4488605295" lat="59.2329957" lon="7.5511869" version="2" timestamp="2018-04-10T18:53:59Z" changeset="57982147" uid="3497659" user="NKA">
		<tag k="name" v="Haugen" />
		<tag k="place" v="farm" />
		<tag k="ssr:stedsnr" v="205606" />
		<tag k="ssr:type" v="bruk" />
	</node>
	<node id="4488605296" lat="59.2291134" lon="7.5572104" version="2" timestamp="2018-04-10T18:53:59Z" changeset="57982147" uid="3497659" user="NKA">
		<tag k="alt_name" v="Kvassåk;Kvasaker" />
		<tag k="name" v="Kvosåk" />
		<tag k="place" v="farm" />
		<tag k="ssr:stedsnr" v="750555" />
		<tag k="ssr:type" v="bruk" />
	</node>
	<node id="4488605297" lat="59.0699088" lon="7.5017749" version="2" timestamp="2018-04-10T18:54:00Z" changeset="57982147" uid="3497659" user="NKA">
		<tag k="building" v="cabin" />
		<tag k="name" v="Storedalsbui" />
		<tag k="place" v="isolated_dwelling" />
		<tag k="ssr:stedsnr" v="144869" />
		<tag k="ssr:type" v="fritidsbolig" />
	</node>
	<node id="4488605298" lat="59.2282887" lon="7.5586031" version="2" timestamp="2018-04-10T18:54:00Z" changeset="57982147" uid="3497659" user="NKA">
		<tag k="name" v="Nordre Hoftuft(Håptu)" />
		<tag k="place" v="farm" />
		<tag k="ssr:stedsnr" v="326584" />
		<tag k="ssr:type" v="bruk" />
	</node>
	<node id="4488605299" lat="59.227026" lon="7.5563481" version="2" timestamp="2018-04-10T18:54:00Z" changeset="57982147" uid="3497659" user="NKA">
		<tag k="name" v="Søndre Hoftuft(Håptu)" />
		<tag k="place" v="farm" />
		<tag k="ssr:stedsnr" v="447531" />
		<tag k="ssr:type" v="bruk" />
	</node>
	<node id="4488605300" lat="59.2409933" lon="7.0979928" version="2" timestamp="2018-04-10T18:54:00Z" changeset="57982147" uid="3497659" user="NKA">
		<tag k="historic" v="ruins" />
		<tag k="name" v="Trongehytta" />
		<tag k="place" v="locality" />
		<tag k="ssr:stedsnr" v="183795" />
		<tag k="ssr:type" v="fritidsbolig" />
	</node>
	<node id="4488605301" lat="59.2280205" lon="7.5531043" version="2" timestamp="2018-04-10T18:54:00Z" changeset="57982147" uid="3497659" user="NKA">
		<tag k="name" v="Myrum" />
		<tag k="place" v="farm" />
		<tag k="ssr:stedsnr" v="23600" />
		<tag k="ssr:type" v="bruk" />
	</node>
	<node id="4488605302" lat="59.2260853" lon="7.5492512" version="2" timestamp="2018-04-10T18:54:00Z" changeset="57982147" uid="3497659" user="NKA">
		<tag k="name" v="Tosong" />
		<tag k="place" v="farm" />
		<tag k="ssr:stedsnr" v="265582" />
		<tag k="ssr:type" v="eneboligMindreBoligbygg" />
	</node>
	<node id="4488605303" lat="59.1016419" lon="7.3925872" version="3" timestamp="2018-04-28T08:08:00Z" changeset="58497758" uid="3497659" user="NKA">
		<tag k="historic" v="shieling" />
		<tag k="name" v="Vorebrokk" />
		<tag k="place" v="locality" />
		<tag k="ssr:stedsnr" v="750458" />
		<tag k="ssr:type" v="seterStøl" />
	</node>
	<node id="4488605304" lat="59.1005851" lon="7.3875668" version="3" timestamp="2018-04-28T08:08:00Z" changeset="58497758" uid="3497659" user="NKA">
		<tag k="historic" v="shieling" />
		<tag k="name" v="Leite" />
		<tag k="place" v="locality" />
		<tag k="ssr:stedsnr" v="326509" />
		<tag k="ssr:type" v="seterStøl" />
	</node>
	<node id="4488605305" lat="59.1759179" lon="7.6747221" version="4" timestamp="2021-03-18T07:44:17Z" changeset="101237689" uid="3497659" user="NKA">
		<tag k="alt_name" v="Timberviksstøylen" />
		<tag k="historic" v="shieling" />
		<tag k="name" v="Timreviki" />
		<tag k="place" v="isolated_dwelling" />
		<tag k="ssr:stedsnr" v="365625" />
		<tag k="ssr:type" v="seterStøl" />
	</node>
	<node id="4488605306" lat="59.073221" lon="7.5333063" version="3" timestamp="2018-04-28T08:08:01Z" changeset="58497758" uid="3497659" user="NKA">
		<tag k="historic" v="shieling" />
		<tag k="name" v="Støyle" />
		<tag k="place" v="locality" />
		<tag k="ssr:stedsnr" v="205673" />
		<tag k="ssr:type" v="seterStøl" />
	</node>
	<node id="4488605307" lat="59.099885" lon="7.3809822" version="4" timestamp="2021-03-18T07:44:17Z" changeset="101237689" uid="3497659" user="NKA">
		<tag k="historic" v="shieling" />
		<tag k="name" v="Grøneli" />
		<tag k="place" v="isolated_dwelling" />
		<tag k="ssr:stedsnr" v="508530" />
		<tag k="ssr:type" v="seterStøl" />
	</node>
	<node id="4488605308" lat="59.2487191" lon="7.2883763" version="4" timestamp="2021-03-18T07:44:17Z" changeset="101237689" uid="3497659" user="NKA">
		<tag k="historic" v="shieling" />
		<tag k="name" v="Rjupestøyl" />
		<tag k="place" v="isolated_dwelling" />
		<tag k="ssr:stedsnr" v="365797" />
		<tag k="ssr:type" v="seterStøl" />
	</node>
	<node id="4488605309" lat="59.2410852" lon="7.5304049" version="2" timestamp="2018-04-10T18:54:01Z" changeset="57982147" uid="3497659" user="NKA">
		<tag k="name" v="Gråsteinhage" />
		<tag k="place" v="farm" />
		<tag k="ssr:stedsnr" v="872642" />
		<tag k="ssr:type" v="bruk" />
	</node>
	<node id="4488605310" lat="59.1727576" lon="7.6090998" version="4" timestamp="2021-03-18T07:44:17Z" changeset="101237689" uid="3497659" user="NKA">
		<tag k="historic" v="shieling" />
		<tag k="name" v="Vassland" />
		<tag k="place" v="isolated_dwelling" />
		<tag k="ssr:stedsnr" v="486625" />
		<tag k="ssr:type" v="seterStøl" />
	</node>
	<node id="4488605311" lat="59.2395918" lon="7.5389575" version="2" timestamp="2018-04-10T18:54:01Z" changeset="57982147" uid="3497659" user="NKA">
		<tag k="name" v="Nordigard Homme" />
		<tag k="place" v="farm" />
		<tag k="ssr:stedsnr" v="811614" />
		<tag k="ssr:type" v="bruk" />
	</node>
	<node id="4488605312" lat="59.1012832" lon="7.727013" version="4" timestamp="2021-03-18T07:44:17Z" changeset="101237689" uid="3497659" user="NKA">
		<tag k="historic" v="shieling" />
		<tag k="name" v="Stokkestøyl" />
		<tag k="place" v="isolated_dwelling" />
		<tag k="ssr:stedsnr" v="812533" />
		<tag k="ssr:type" v="seterStøl" />
	</node>
	<node id="4488605313" lat="59.3451937" lon="7.574638" version="3" timestamp="2018-04-28T08:08:01Z" changeset="58497758" uid="3497659" user="NKA">
		<tag k="historic" v="shieling" />
		<tag k="name" v="Grytestøyl" />
		<tag k="place" v="locality" />
		<tag k="ssr:stedsnr" v="22683" />
		<tag k="ssr:type" v="seterStøl" />
	</node>
	<node id="4488605314" lat="59.2365225" lon="7.5410341" version="2" timestamp="2018-04-10T18:54:02Z" changeset="57982147" uid="3497659" user="NKA">
		<tag k="name" v="Sygard Homme" />
		<tag k="place" v="farm" />
		<tag k="ssr:stedsnr" v="386621" />
		<tag k="ssr:type" v="bruk" />
	</node>
	<node id="4488605315" lat="59.3462827" lon="7.5708341" version="3" timestamp="2018-04-28T08:08:01Z" changeset="58497758" uid="3497659" user="NKA">
		<tag k="historic" v="shieling" />
		<tag k="name" v="Myrbu" />
		<tag k="place" v="locality" />
		<tag k="ssr:stedsnr" v="325673" />
		<tag k="ssr:type" v="seterStøl" />
	</node>
	<node id="4488605316" lat="59.3454412" lon="7.5715702" version="3" timestamp="2018-04-28T08:08:02Z" changeset="58497758" uid="3497659" user="NKA">
		<tag k="alt_name" v="Nystøyl" />
		<tag k="historic" v="shieling" />
		<tag k="name" v="Nyestøyl" />
		<tag k="place" v="locality" />
		<tag k="ssr:stedsnr" v="447673" />
		<tag k="ssr:type" v="seterStøl" />
	</node>
	<node id="4488605317" lat="59.0635294" lon="7.5031613" version="3" timestamp="2018-04-28T08:08:02Z" changeset="58497758" uid="3497659" user="NKA">
		<tag k="historic" v="shieling" />
		<tag k="name" v="Hestehommen" />
		<tag k="place" v="locality" />
		<tag k="ssr:stedsnr" v="629650" />
		<tag k="ssr:type" v="seterStøl" />
	</node>
	<node id="4488605318" lat="59.3458652" lon="7.5644616" version="3" timestamp="2018-04-28T08:08:02Z" changeset="58497758" uid="3497659" user="NKA">
		<tag k="historic" v="shieling" />
		<tag k="name" v="Listøyl" />
		<tag k="place" v="locality" />
		<tag k="ssr:stedsnr" v="932648" />
		<tag k="ssr:type" v="seterStøl" />
	</node>
	<node id="4488605319" lat="59.1739477" lon="7.5656976" version="4" timestamp="2021-03-18T07:44:17Z" changeset="101237689" uid="3497659" user="NKA">
		<tag k="historic" v="shieling" />
		<tag k="name" v="Nyestøyl" />
		<tag k="place" v="isolated_dwelling" />
		<tag k="ssr:stedsnr" v="790649" />
		<tag k="ssr:type" v="seterStøl" />
	</node>
	<node id="4488605320" lat="59.1725492" lon="7.5602453" version="4" timestamp="2021-03-18T07:44:17Z" changeset="101237689" uid="3497659" user="NKA">
		<tag k="historic" v="shieling" />
		<tag k="name" v="Solli" />
		<tag k="place" v="isolated_dwelling" />
		<tag k="ssr:stedsnr" v="426612" />
		<tag k="ssr:type" v="seterStøl" />
	</node>
	<node id="4488605321" lat="59.1713119" lon="7.5652544" version="4" timestamp="2021-03-18T07:44:17Z" changeset="101237689" uid="3497659" user="NKA">
		<tag k="historic" v="shieling" />
		<tag k="name" v="Storestøyl" />
		<tag k="place" v="isolated_dwelling" />
		<tag k="ssr:stedsnr" v="62615" />
		<tag k="ssr:type" v="seterStøl" />
	</node>
	<node id="4488605322" lat="59.3419086" lon="7.5948997" version="4" timestamp="2021-03-18T07:44:17Z" changeset="101237689" uid="3497659" user="NKA">
		<tag k="historic" v="shieling" />
		<tag k="name" v="Osen" />
		<tag k="place" v="isolated_dwelling" />
		<tag k="ssr:stedsnr" v="83800" />
		<tag k="ssr:type" v="seterStøl" />
	</node>
	<node id="4488605323" lat="59.1753724" lon="7.5229585" version="2" timestamp="2018-04-10T18:54:03Z" changeset="57982147" uid="3497659" user="NKA">
		<tag k="name" v="Knutshus" />
		<tag k="place" v="farm" />
		<tag k="ssr:stedsnr" v="305662" />
		<tag k="ssr:type" v="bruk" />
	</node>
	<node id="4488605324" lat="59.1742194" lon="7.5230062" version="2" timestamp="2018-04-10T18:54:03Z" changeset="57982147" uid="3497659" user="NKA">
		<tag k="name" v="Bø" />
		<tag k="place" v="hamlet" />
		<tag k="ssr:stedsnr" v="851610" />
		<tag k="ssr:type" v="bruk" />
	</node>
	<node id="4488605325" lat="59.1720537" lon="7.5233693" version="2" timestamp="2018-04-10T18:54:04Z" changeset="57982147" uid="3497659" user="NKA">
		<tag k="name" v="Fureteig" />
		<tag k="place" v="farm" />
		<tag k="ssr:stedsnr" v="548607" />
		<tag k="ssr:type" v="bruk" />
	</node>
	<node id="4488605326" lat="59.0202268" lon="7.4044057" version="4" timestamp="2021-03-18T07:44:17Z" changeset="101237689" uid="3497659" user="NKA">
		<tag k="historic" v="shieling" />
		<tag k="name" v="Poddestøl" />
		<tag k="place" v="isolated_dwelling" />
		<tag k="ssr:stedsnr" v="548278" />
		<tag k="ssr:type" v="fritidsbolig" />
	</node>
	<node id="4488605327" lat="59.1846355" lon="7.7019203" version="4" timestamp="2021-03-18T07:44:17Z" changeset="101237689" uid="3497659" user="NKA">
		<tag k="alt_name" v="Nedretjørn" />
		<tag k="historic" v="shieling" />
		<tag k="name" v="Neiretjørn" />
		<tag k="place" v="isolated_dwelling" />
		<tag k="ssr:stedsnr" v="184627" />
		<tag k="ssr:type" v="seterStøl" />
	</node>
	<node id="4488605328" lat="59.341499" lon="7.5149831" version="3" timestamp="2021-03-18T07:44:17Z" changeset="101237689" uid="3497659" user="NKA">
		<tag k="name" v="Lauvås" />
		<tag k="place" v="isolated_dwelling" />
		<tag k="ssr:stedsnr" v="852549" />
		<tag k="ssr:type" v="fritidsbolig" />
	</node>
	<node id="4488605329" lat="59.3396907" lon="7.5259747" version="4" timestamp="2021-03-18T07:44:17Z" changeset="101237689" uid="3497659" user="NKA">
		<tag k="historic" v="shieling" />
		<tag k="name" v="Strandestøylen" />
		<tag k="place" v="isolated_dwelling" />
		<tag k="ssr:stedsnr" v="82777" />
		<tag k="ssr:type" v="seterStøl" />
	</node>
	<node id="4488605330" lat="59.1326056" lon="7.5630899" version="4" timestamp="2021-03-18T07:44:17Z" changeset="101237689" uid="3497659" user="NKA">
		<tag k="historic" v="shieling" />
		<tag k="name" v="Startekleiv" />
		<tag k="place" v="isolated_dwelling" />
		<tag k="ssr:stedsnr" v="872538" />
		<tag k="ssr:type" v="seterStøl" />
	</node>
	<node id="4488605331" lat="59.3374686" lon="7.5305476" version="3" timestamp="2018-04-28T08:08:03Z" changeset="58497758" uid="3497659" user="NKA">
		<tag k="historic" v="shieling" />
		<tag k="name" v="Støylsruholti" />
		<tag k="place" v="locality" />
		<tag k="ssr:stedsnr" v="811747" />
		<tag k="ssr:type" v="seterStøl" />
	</node>
	<node id="4488605332" lat="59.2479803" lon="7.6912426" version="4" timestamp="2021-03-18T07:44:17Z" changeset="101237689" uid="3497659" user="NKA">
		<tag k="historic" v="shieling" />
		<tag k="name" v="Nyestøyl" />
		<tag k="place" v="isolated_dwelling" />
		<tag k="ssr:stedsnr" v="387543" />
		<tag k="ssr:type" v="seterStøl" />
	</node>
	<node id="4488605333" lat="59.2470669" lon="7.6849338" version="3" timestamp="2018-04-28T08:08:03Z" changeset="58497758" uid="3497659" user="NKA">
		<tag k="alt_name" v="Ekra" />
		<tag k="historic" v="shieling" />
		<tag k="name" v="Ækra" />
		<tag k="place" v="locality" />
		<tag k="ssr:stedsnr" v="690564" />
		<tag k="ssr:type" v="seterStøl" />
	</node>
	<node id="4488605334" lat="59.2460522" lon="7.6832597" version="4" timestamp="2021-03-18T07:44:17Z" changeset="101237689" uid="3497659" user="NKA">
		<tag k="alt_name" v="Gamalstøyl" />
		<tag k="historic" v="shieling" />
		<tag k="name" v="Gåmålsbø" />
		<tag k="place" v="isolated_dwelling" />
		<tag k="ssr:stedsnr" v="751538" />
		<tag k="ssr:type" v="seterStøl" />
	</node>
	<node id="4488605335" lat="59.1807167" lon="7.661681" version="4" timestamp="2021-03-18T07:44:17Z" changeset="101237689" uid="3497659" user="NKA">
		<tag k="alt_name" v="Verevasstøylen" />
		<tag k="historic" v="shieling" />
		<tag k="name" v="Verevasstøyl" />
		<tag k="place" v="isolated_dwelling" />
		<tag k="ssr:stedsnr" v="912633" />
		<tag k="ssr:type" v="seterStøl" />
	</node>
	<node id="4488605336" lat="59.3424617" lon="7.4756156" version="3" timestamp="2018-04-28T08:08:04Z" changeset="58497758" uid="3497659" user="NKA">
		<tag k="historic" v="shieling" />
		<tag k="name" v="Skarkestøyl" />
		<tag k="place" v="locality" />
		<tag k="ssr:stedsnr" v="63569" />
		<tag k="ssr:type" v="seterStøl" />
	</node>
	<node id="4488605337" lat="59.3428907" lon="7.5384242" version="3" timestamp="2018-04-28T08:08:04Z" changeset="58497758" uid="3497659" user="NKA">
		<tag k="historic" v="shieling" />
		<tag k="name" v="Tordisesstøyl" />
		<tag k="place" v="locality" />
		<tag k="ssr:stedsnr" v="447761" />
		<tag k="ssr:type" v="seterStøl" />
	</node>
	<node id="4488605338" lat="59.3488385" lon="7.5366086" version="3" timestamp="2018-04-28T08:08:04Z" changeset="58497758" uid="3497659" user="NKA">
		<tag k="alt_name" v="Reinsstøyl" />
		<tag k="historic" v="shieling" />
		<tag k="name" v="Reinstøyl" />
		<tag k="place" v="locality" />
		<tag k="ssr:stedsnr" v="143759" />
		<tag k="ssr:type" v="seterStøl" />
	</node>
	<node id="4488605339" lat="59.0264922" lon="7.5616869" version="3" timestamp="2021-03-18T07:44:17Z" changeset="101237689" uid="3497659" user="NKA">
		<tag k="name" v="Røysland" />
		<tag k="place" v="isolated_dwelling" />
		<tag k="ssr:stedsnr" v="244274" />
		<tag k="ssr:type" v="fritidsbolig" />
	</node>
	<node id="4488605340" lat="59.3478514" lon="7.5320798" version="4" timestamp="2021-03-18T07:44:17Z" changeset="101237689" uid="3497659" user="NKA">
		<tag k="historic" v="shieling" />
		<tag k="name" v="Kleiv" />
		<tag k="place" v="isolated_dwelling" />
		<tag k="ssr:stedsnr" v="22795" />
		<tag k="ssr:type" v="seterStøl" />
	</node>
	<node id="4488605341" lat="59.1693656" lon="7.5691682" version="4" timestamp="2021-03-18T07:44:17Z" changeset="101237689" uid="3497659" user="NKA">
		<tag k="historic" v="shieling" />
		<tag k="name" v="Brottveits Løyning" />
		<tag k="place" v="isolated_dwelling" />
		<tag k="ssr:stedsnr" v="568594" />
		<tag k="ssr:type" v="seterStøl" />
	</node>
	<node id="4488605342" lat="59.3468818" lon="7.5247436" version="3" timestamp="2018-04-28T08:08:04Z" changeset="58497758" uid="3497659" user="NKA">
		<tag k="historic" v="shieling" />
		<tag k="name" v="Klomri" />
		<tag k="place" v="locality" />
		<tag k="ssr:stedsnr" v="264809" />
		<tag k="ssr:type" v="seterStøl" />
	</node>
	<node id="4488605343" lat="59.227803" lon="7.6921059" version="4" timestamp="2021-03-18T07:44:17Z" changeset="101237689" uid="3497659" user="NKA">
		<tag k="historic" v="shieling" />
		<tag k="name" v="Vik" />
		<tag k="place" v="isolated_dwelling" />
		<tag k="ssr:stedsnr" v="569529" />
		<tag k="ssr:type" v="seterStøl" />
	</node>
	<node id="4488605344" lat="59.177675" lon="7.5628837" version="3" timestamp="2018-04-28T08:08:05Z" changeset="58497758" uid="3497659" user="NKA">
		<tag k="historic" v="shieling" />
		<tag k="name" v="Gloppedalen" />
		<tag k="place" v="locality" />
		<tag k="ssr:stedsnr" v="790662" />
		<tag k="ssr:type" v="seterStøl" />
	</node>
	<node id="4488605345" lat="59.035069" lon="7.551568" version="2" timestamp="2018-04-10T18:54:07Z" changeset="57982147" uid="3497659" user="NKA">
		<tag k="alt_name" v="Besteland;Besteland, nedre" />
		<tag k="name" v="Nedre Besteland" />
		<tag k="place" v="farm" />
		<tag k="ssr:stedsnr" v="184267" />
		<tag k="ssr:type" v="bruk" />
	</node>
	<node id="4488605346" lat="59.2076833" lon="7.6890994" version="3" timestamp="2018-04-28T08:08:05Z" changeset="58497758" uid="3497659" user="NKA">
		<tag k="historic" v="shieling" />
		<tag k="name" v="Mastøyl" />
		<tag k="place" v="locality" />
		<tag k="ssr:stedsnr" v="508565" />
		<tag k="ssr:type" v="seterStøl" />
	</node>
	<node id="4488605347" lat="59.1859691" lon="7.4961675" version="3" timestamp="2018-04-28T08:08:05Z" changeset="58497758" uid="3497659" user="NKA">
		<tag k="historic" v="shieling" />
		<tag k="name" v="Glotten" />
		<tag k="place" v="locality" />
		<tag k="ssr:stedsnr" v="305554" />
		<tag k="ssr:type" v="seterStøl" />
	</node>
	<node id="4488605348" lat="59.1805699" lon="7.4835921" version="4" timestamp="2021-03-18T07:44:17Z" changeset="101237689" uid="3497659" user="NKA">
		<tag k="alt_name" v="Sjølvskotet" />
		<tag k="historic" v="shieling" />
		<tag k="name" v="Sjavskote" />
		<tag k="place" v="isolated_dwelling" />
		<tag k="ssr:stedsnr" v="790527" />
		<tag k="ssr:type" v="seterStøl" />
	</node>
	<node id="4488605349" lat="59.0332004" lon="7.5213495" version="3" timestamp="2018-04-28T08:08:05Z" changeset="58497758" uid="3497659" user="NKA">
		<tag k="alt_name" v="Gjuvstveit" />
		<tag k="historic" v="shieling" />
		<tag k="name" v="Djuvstveit" />
		<tag k="place" v="locality" />
		<tag k="ssr:stedsnr" v="62259" />
		<tag k="ssr:type" v="seterStøl" />
	</node>
	<node id="4488605350" lat="59.3477245" lon="7.5156581" version="4" timestamp="2021-03-18T07:44:17Z" changeset="101237689" uid="3497659" user="NKA">
		<tag k="alt_name" v="Tørvestøyl" />
		<tag k="historic" v="shieling" />
		<tag k="name" v="Tyrvestøyl" />
		<tag k="place" v="isolated_dwelling" />
		<tag k="ssr:stedsnr" v="628779" />
		<tag k="ssr:type" v="seterStøl" />
	</node>
	<node id="4488605351" lat="59.18049" lon="7.4575674" version="4" timestamp="2021-03-18T07:44:17Z" changeset="101237689" uid="3497659" user="NKA">
		<tag k="alt_name" v="Holtet" />
		<tag k="historic" v="shieling" />
		<tag k="name" v="Holtestøyl" />
		<tag k="place" v="isolated_dwelling" />
		<tag k="ssr:stedsnr" v="2529" />
		<tag k="ssr:type" v="seterStøl" />
	</node>
	<node id="4488605352" lat="59.1272945" lon="7.5960029" version="4" timestamp="2021-03-18T07:44:17Z" changeset="101237689" uid="3497659" user="NKA">
		<tag k="historic" v="shieling" />
		<tag k="name" v="Skjellestøyl" />
		<tag k="place" v="isolated_dwelling" />
		<tag k="ssr:stedsnr" v="812573" />
		<tag k="ssr:type" v="seterStøl" />
	</node>
	<node id="4488605353" lat="59.1270555" lon="7.5996656" version="4" timestamp="2021-03-18T07:44:17Z" changeset="101237689" uid="3497659" user="NKA">
		<tag k="historic" v="shieling" />
		<tag k="name" v="Nyestøyl" />
		<tag k="place" v="isolated_dwelling" />
		<tag k="ssr:stedsnr" v="386526" />
		<tag k="ssr:type" v="seterStøl" />
	</node>
	<node id="4488605354" lat="59.0279132" lon="7.5152524" version="4" timestamp="2021-03-18T07:44:17Z" changeset="101237689" uid="3497659" user="NKA">
		<tag k="alt_name" v="Vindsås" />
		<tag k="historic" v="shieling" />
		<tag k="name" v="Vindsåsen" />
		<tag k="place" v="isolated_dwelling" />
		<tag k="ssr:stedsnr" v="669252" />
		<tag k="ssr:type" v="seterStøl" />
	</node>
	<node id="4488605355" lat="59.3484708" lon="7.5522007" version="2" timestamp="2018-04-10T18:54:08Z" changeset="57982147" uid="3497659" user="NKA">
		<tag k="name" v="Hola" />
		<tag k="place" v="locality" />
		<tag k="ssr:stedsnr" v="609536" />
		<tag k="ssr:type" v="fritidsbolig" />
	</node>
	<node id="4488605356" lat="59.1821291" lon="7.5636059" version="4" timestamp="2021-03-18T07:44:17Z" changeset="101237689" uid="3497659" user="NKA">
		<tag k="historic" v="shieling" />
		<tag k="name" v="Myrestøyl" />
		<tag k="place" v="isolated_dwelling" />
		<tag k="ssr:stedsnr" v="568587" />
		<tag k="ssr:type" v="seterStøl" />
	</node>
	<node id="4488605357" lat="59.1255085" lon="7.5982711" version="3" timestamp="2018-04-28T08:08:06Z" changeset="58497758" uid="3497659" user="NKA">
		<tag k="historic" v="shieling" />
		<tag k="name" v="Bakkeburstøylen" />
		<tag k="place" v="locality" />
		<tag k="ssr:stedsnr" v="448579" />
		<tag k="ssr:type" v="seterStøl" />
	</node>
	<node id="4488605358" lat="59.2382942" lon="7.6653458" version="4" timestamp="2021-03-18T07:44:17Z" changeset="101237689" uid="3497659" user="NKA">
		<tag k="historic" v="shieling" />
		<tag k="name" v="Funnestøyl" />
		<tag k="place" v="isolated_dwelling" />
		<tag k="ssr:stedsnr" v="448564" />
		<tag k="ssr:type" v="seterStøl" />
	</node>
	<node id="4488605359" lat="59.1238212" lon="7.5950536" version="4" timestamp="2021-03-18T07:44:17Z" changeset="101237689" uid="3497659" user="NKA">
		<tag k="alt_name" v="Fisstøl" />
		<tag k="historic" v="shieling" />
		<tag k="name" v="Fisstøyl" />
		<tag k="place" v="isolated_dwelling" />
		<tag k="ssr:stedsnr" v="448578" />
		<tag k="ssr:type" v="seterStøl" />
	</node>
	<node id="4488605360" lat="59.0277471" lon="7.4424749" version="4" timestamp="2021-03-18T07:44:17Z" changeset="101237689" uid="3497659" user="NKA">
		<tag k="historic" v="shieling" />
		<tag k="name" v="Valestøyl" />
		<tag k="place" v="isolated_dwelling" />
		<tag k="ssr:stedsnr" v="123307" />
		<tag k="ssr:type" v="seterStøl" />
	</node>
	<node id="4488605361" lat="59.3478503" lon="7.4988818" version="4" timestamp="2021-03-18T07:44:17Z" changeset="101237689" uid="3497659" user="NKA">
		<tag k="alt_name" v="Kyreli" />
		<tag k="historic" v="shieling" />
		<tag k="name" v="Kyrli" />
		<tag k="place" v="isolated_dwelling" />
		<tag k="ssr:stedsnr" v="628774" />
		<tag k="ssr:type" v="seterStøl" />
	</node>
	<node id="4488605362" lat="59.1813413" lon="7.5559375" version="3" timestamp="2018-04-28T08:08:07Z" changeset="58497758" uid="3497659" user="NKA">
		<tag k="alt_name" v="Skagestøyl" />
		<tag k="historic" v="shieling" />
		<tag k="name" v="Skakestøyl" />
		<tag k="place" v="locality" />
		<tag k="ssr:stedsnr" v="83505" />
		<tag k="ssr:type" v="seterStøl" />
	</node>
	<node id="4488605363" lat="59.1935526" lon="7.6856045" version="4" timestamp="2021-03-18T07:44:17Z" changeset="101237689" uid="3497659" user="NKA">
		<tag k="historic" v="shieling" />
		<tag k="name" v="Bølet" />
		<tag k="place" v="isolated_dwelling" />
		<tag k="ssr:stedsnr" v="62502" />
		<tag k="ssr:type" v="seterStøl" />
	</node>
	<node id="4488605364" lat="59.3427248" lon="7.4847347" version="3" timestamp="2018-04-28T08:08:07Z" changeset="58497758" uid="3497659" user="NKA">
		<tag k="building" v="cabin" />
		<tag k="historic" v="shieling" />
		<tag k="name" v="Skarketjørnstøylen" />
		<tag k="place" v="isolated_dwelling" />
		<tag k="ssr:stedsnr" v="143781" />
		<tag k="ssr:type" v="seterStøl" />
	</node>
	<node id="4488605365" lat="59.1917826" lon="7.679329" version="4" timestamp="2021-03-18T07:44:17Z" changeset="101237689" uid="3497659" user="NKA">
		<tag k="historic" v="shieling" />
		<tag k="name" v="Optestøyl" />
		<tag k="place" v="isolated_dwelling" />
		<tag k="ssr:stedsnr" v="608545" />
		<tag k="ssr:type" v="seterStøl" />
	</node>
	<node id="4488605366" lat="59.1731563" lon="7.5492766" version="2" timestamp="2018-04-10T18:54:10Z" changeset="57982147" uid="3497659" user="NKA">
		<tag k="name" v="Goplebui" />
		<tag k="place" v="locality" />
		<tag k="ssr:stedsnr" v="144551" />
		<tag k="ssr:type" v="fritidsbolig" />
	</node>
	<node id="4488605367" lat="59.1191094" lon="7.5844637" version="4" timestamp="2021-03-18T07:44:17Z" changeset="101237689" uid="3497659" user="NKA">
		<tag k="historic" v="shieling" />
		<tag k="name" v="Hardstøyl" />
		<tag k="place" v="isolated_dwelling" />
		<tag k="ssr:stedsnr" v="83533" />
		<tag k="ssr:type" v="seterStøl" />
	</node>
	<node id="4488605368" lat="59.2480108" lon="7.6369019" version="3" timestamp="2018-04-28T08:08:08Z" changeset="58497758" uid="3497659" user="NKA">
		<tag k="alt_name" v="Undermigheii" />
		<tag k="historic" v="shieling" />
		<tag k="name" v="Undemigstøylen" />
		<tag k="place" v="locality" />
		<tag k="ssr:stedsnr" v="812559" />
		<tag k="ssr:type" v="seterStøl" />
	</node>
	<node id="4488605369" lat="59.1685491" lon="7.5613957" version="4" timestamp="2021-03-18T07:44:17Z" changeset="101237689" uid="3497659" user="NKA">
		<tag k="historic" v="shieling" />
		<tag k="name" v="Løyning" />
		<tag k="place" v="isolated_dwelling" />
		<tag k="ssr:stedsnr" v="326542" />
		<tag k="ssr:type" v="seterStøl" />
	</node>
	<node id="4488605370" lat="59.1923149" lon="7.583279" version="3" timestamp="2018-04-28T08:08:08Z" changeset="58497758" uid="3497659" user="NKA">
		<tag k="historic" v="shieling" />
		<tag k="name" v="Stavestøyl" />
		<tag k="place" v="locality" />
		<tag k="ssr:stedsnr" v="366533" />
		<tag k="ssr:type" v="seterStøl" />
	</node>
	<node id="4488605371" lat="59.3343523" lon="7.4929719" version="3" timestamp="2018-04-28T08:08:08Z" changeset="58497758" uid="3497659" user="NKA">
		<tag k="alt_name" v="Fiti" />
		<tag k="historic" v="shieling" />
		<tag k="name" v="Fetestøyl" />
		<tag k="place" v="locality" />
		<tag k="ssr:stedsnr" v="750779" />
		<tag k="ssr:type" v="seterStøl" />
	</node>
	<node id="4488605372" lat="59.1684293" lon="7.5511744" version="4" timestamp="2021-03-18T07:44:17Z" changeset="101237689" uid="3497659" user="NKA">
		<tag k="historic" v="shieling" />
		<tag k="name" v="Brattestøyl" />
		<tag k="place" v="isolated_dwelling" />
		<tag k="ssr:stedsnr" v="751545" />
		<tag k="ssr:type" v="seterStøl" />
	</node>
	<node id="4488605373" lat="59.1959696" lon="7.5813329" version="4" timestamp="2021-03-18T07:44:17Z" changeset="101237689" uid="3497659" user="NKA">
		<tag k="alt_name" v="Urglåm;Urdglåm" />
		<tag k="historic" v="shieling" />
		<tag k="name" v="Øvre Ingling" />
		<tag k="place" v="isolated_dwelling" />
		<tag k="ssr:stedsnr" v="730544" />
		<tag k="ssr:type" v="seterStøl" />
	</node>
	<node id="4488605374" lat="59.3340313" lon="7.4850367" version="3" timestamp="2018-04-28T08:08:08Z" changeset="58497758" uid="3497659" user="NKA">
		<tag k="historic" v="shieling" />
		<tag k="name" v="Byklestøyl" />
		<tag k="place" v="locality" />
		<tag k="ssr:stedsnr" v="204732" />
		<tag k="ssr:type" v="seterStøl" />
	</node>
	<node id="4488605375" lat="59.1916545" lon="7.5712459" version="3" timestamp="2018-04-28T08:08:08Z" changeset="58497758" uid="3497659" user="NKA">
		<tag k="alt_name" v="Nyestøl" />
		<tag k="historic" v="shieling" />
		<tag k="name" v="Nyestøyl" />
		<tag k="place" v="locality" />
		<tag k="ssr:stedsnr" v="366536" />
		<tag k="ssr:type" v="seterStøl" />
	</node>
	<node id="4488605376" lat="59.1952222" lon="7.5679162" version="4" timestamp="2021-03-18T07:44:17Z" changeset="101237689" uid="3497659" user="NKA">
		<tag k="historic" v="shieling" />
		<tag k="name" v="Langeli" />
		<tag k="place" v="isolated_dwelling" />
		<tag k="ssr:stedsnr" v="730541" />
		<tag k="ssr:type" v="seterStøl" />
	</node>
	<node id="4488605377" lat="59.3083245" lon="7.4926417" version="3" timestamp="2018-04-28T08:08:09Z" changeset="58497758" uid="3497659" user="NKA">
		<tag k="alt_name" v="Kalland" />
		<tag k="historic" v="shieling" />
		<tag k="name" v="Kaddane" />
		<tag k="place" v="locality" />
		<tag k="ssr:stedsnr" v="689716" />
		<tag k="ssr:type" v="seterStøl" />
	</node>
	<node id="4488605378" lat="59.1265341" lon="7.5594783" version="3" timestamp="2018-04-28T08:08:09Z" changeset="58497758" uid="3497659" user="NKA">
		<tag k="alt_name" v="Nerihei" />
		<tag k="historic" v="shieling" />
		<tag k="name" v="Nedreheia" />
		<tag k="place" v="locality" />
		<tag k="ssr:stedsnr" v="205594" />
		<tag k="ssr:type" v="seterStøl" />
	</node>
	<node id="4488605379" lat="59.1930086" lon="7.5365244" version="2" timestamp="2018-04-10T18:54:11Z" changeset="57982147" uid="3497659" user="NKA">
		<tag k="name" v="Brottveit" />
		<tag k="place" v="farm" />
		<tag k="ssr:stedsnr" v="790532" />
		<tag k="ssr:type" v="bruk" />
	</node>
	<node id="4488605380" lat="59.1914579" lon="7.5291332" version="2" timestamp="2018-04-10T18:54:12Z" changeset="57982147" uid="3497659" user="NKA">
		<tag k="name" v="Tveiti" />
		<tag k="place" v="farm" />
		<tag k="ssr:stedsnr" v="62506" />
		<tag k="ssr:type" v="bruk" />
	</node>
	<node id="4488605381" lat="59.1939876" lon="7.5032711" version="2" timestamp="2018-04-10T18:54:12Z" changeset="57982147" uid="3497659" user="NKA">
		<tag k="name" v="Nordstog" />
		<tag k="place" v="farm" />
		<tag k="ssr:stedsnr" v="184513" />
		<tag k="ssr:type" v="bruk" />
	</node>
	<node id="4488605382" lat="59.3081053" lon="7.5137504" version="4" timestamp="2021-03-18T07:44:17Z" changeset="101237689" uid="3497659" user="NKA">
		<tag k="historic" v="shieling" />
		<tag k="name" v="Håvestøyl" />
		<tag k="place" v="isolated_dwelling" />
		<tag k="ssr:stedsnr" v="628734" />
		<tag k="ssr:type" v="seterStøl" />
	</node>
	<node id="4488605383" lat="59.1913502" lon="7.5144368" version="2" timestamp="2018-04-10T18:54:12Z" changeset="57982147" uid="3497659" user="NKA">
		<tag k="name" v="Åmli" />
		<tag k="place" v="hamlet" />
		<tag k="ssr:stedsnr" v="912539" />
		<tag k="ssr:type" v="bruk" />
	</node>
	<node id="4488605384" lat="59.2172481" lon="7.6199584" version="4" timestamp="2021-03-18T07:44:17Z" changeset="101237689" uid="3497659" user="NKA">
		<tag k="historic" v="shieling" />
		<tag k="name" v="Hævassbakken" />
		<tag k="place" v="isolated_dwelling" />
		<tag k="ssr:stedsnr" v="508583" />
		<tag k="ssr:type" v="seterStøl" />
	</node>
	<node id="4488605385" lat="59.3111769" lon="7.519953" version="4" timestamp="2021-03-18T07:44:17Z" changeset="101237689" uid="3497659" user="NKA">
		<tag k="alt_name" v="Finnsarv" />
		<tag k="historic" v="shieling" />
		<tag k="name" v="Finsarv" />
		<tag k="place" v="isolated_dwelling" />
		<tag k="ssr:stedsnr" v="689719" />
		<tag k="ssr:type" v="seterStøl" />
	</node>
	<node id="4488605386" lat="59.177849" lon="7.5131164" version="3" timestamp="2018-04-28T08:08:09Z" changeset="58497758" uid="3497659" user="NKA">
		<tag k="historic" v="shieling" />
		<tag k="name" v="Gruvestøylen" />
		<tag k="place" v="locality" />
		<tag k="ssr:stedsnr" v="568492" />
		<tag k="ssr:type" v="seterStøl" />
	</node>
	<node id="4488605387" lat="59.1366761" lon="7.5135763" version="2" timestamp="2018-04-10T18:54:12Z" changeset="57982147" uid="3497659" user="NKA">
		<tag k="name" v="Ånishauge" />
		<tag k="place" v="farm" />
		<tag k="ssr:stedsnr" v="386541" />
		<tag k="ssr:type" v="bruk" />
	</node>
	<node id="4488605388" lat="59.0417463" lon="7.5581588" version="2" timestamp="2018-04-10T18:54:13Z" changeset="57982147" uid="3497659" user="NKA">
		<tag k="name" v="Myran" />
		<tag k="place" v="farm" />
		<tag k="ssr:stedsnr" v="608241" />
		<tag k="ssr:type" v="bruk" />
	</node>
	<node id="4488605489" lat="59.036044" lon="7.5464547" version="2" timestamp="2018-04-10T18:54:13Z" changeset="57982147" uid="3497659" user="NKA">
		<tag k="alt_name" v="Besteland øvre" />
		<tag k="name" v="Øvre Besteland" />
		<tag k="place" v="farm" />
		<tag k="ssr:stedsnr" v="851245" />
		<tag k="ssr:type" v="bruk" />
	</node>
	<node id="4488605490" lat="59.0362191" lon="7.5207051" version="4" timestamp="2021-03-18T07:44:17Z" changeset="101237689" uid="3497659" user="NKA">
		<tag k="alt_name" v="Bjørndalen" />
		<tag k="historic" v="shieling" />
		<tag k="name" v="Bjønndalen" />
		<tag k="place" v="isolated_dwelling" />
		<tag k="ssr:stedsnr" v="730251" />
		<tag k="ssr:type" v="seterStøl" />
	</node>
	<node id="4488605491" lat="59.2971202" lon="7.5248919" version="4" timestamp="2021-03-18T07:44:17Z" changeset="101237689" uid="3497659" user="NKA">
		<tag k="historic" v="shieling" />
		<tag k="name" v="Rindebakken" />
		<tag k="place" v="isolated_dwelling" />
		<tag k="ssr:stedsnr" v="22738" />
		<tag k="ssr:type" v="seterStøl" />
	</node>
	<node id="4488605492" lat="59.2951089" lon="7.5193955" version="3" timestamp="2018-04-28T08:08:10Z" changeset="58497758" uid="3497659" user="NKA">
		<tag k="alt_name" v="Husebø" />
		<tag k="historic" v="shieling" />
		<tag k="name" v="Husebøstøylen" />
		<tag k="place" v="locality" />
		<tag k="ssr:stedsnr" v="932712" />
		<tag k="ssr:type" v="seterStøl" />
	</node>
	<node id="4488605493" lat="59.3317674" lon="7.5154995" version="2" timestamp="2018-04-10T18:54:13Z" changeset="57982147" uid="3497659" user="NKA">
		<tag k="name" v="Jørsbu" />
		<tag k="place" v="locality" />
		<tag k="ssr:stedsnr" v="143731" />
		<tag k="ssr:type" v="fritidsbolig" />
	</node>
	<node id="4488605494" lat="59.333373" lon="7.5181623" version="2" timestamp="2018-04-10T18:54:13Z" changeset="57982147" uid="3497659" user="NKA">
		<tag k="name" v="Finneli" />
		<tag k="place" v="locality" />
		<tag k="ssr:stedsnr" v="871751" />
		<tag k="ssr:type" v="fritidsbolig" />
	</node>
	<node id="4488605495" lat="59.3323945" lon="7.5188159" version="2" timestamp="2018-04-10T18:54:13Z" changeset="57982147" uid="3497659" user="NKA">
		<tag k="name" v="Finnebu" />
		<tag k="place" v="locality" />
		<tag k="ssr:stedsnr" v="204751" />
		<tag k="ssr:type" v="fritidsbolig" />
	</node>
	<node id="4488605496" lat="59.1873972" lon="7.3494578" version="4" timestamp="2021-03-18T07:44:17Z" changeset="101237689" uid="3497659" user="NKA">
		<tag k="historic" v="shieling" />
		<tag k="name" v="Svelingsstøylen" />
		<tag k="place" v="isolated_dwelling" />
		<tag k="ssr:stedsnr" v="426507" />
		<tag k="ssr:type" v="seterStøl" />
	</node>
	<node id="4488605497" lat="59.0398047" lon="7.4924397" version="4" timestamp="2021-03-18T07:44:17Z" changeset="101237689" uid="3497659" user="NKA">
		<tag k="historic" v="shieling" />
		<tag k="name" v="Finnstøyl" />
		<tag k="place" v="isolated_dwelling" />
		<tag k="ssr:stedsnr" v="730257" />
		<tag k="ssr:type" v="seterStøl" />
	</node>
	<node id="4488605498" lat="59.0394447" lon="7.486124" version="4" timestamp="2021-03-18T07:44:17Z" changeset="101237689" uid="3497659" user="NKA">
		<tag k="historic" v="shieling" />
		<tag k="name" v="Hægestøyl" />
		<tag k="place" v="isolated_dwelling" />
		<tag k="ssr:stedsnr" v="790235" />
		<tag k="ssr:type" v="seterStøl" />
	</node>
	<node id="4488605499" lat="59.1736725" lon="7.5111759" version="3" timestamp="2018-04-28T08:08:10Z" changeset="58497758" uid="3497659" user="NKA">
		<tag k="historic" v="shieling" />
		<tag k="name" v="Støylen" />
		<tag k="place" v="locality" />
		<tag k="ssr:stedsnr" v="811490" />
		<tag k="ssr:type" v="seterStøl" />
	</node>
	<node id="4488605500" lat="59.1379058" lon="7.5294334" version="2" timestamp="2018-04-10T18:54:14Z" changeset="57982147" uid="3497659" user="NKA">
		<tag k="name" v="Flårenden" />
		<tag k="place" v="farm" />
		<tag k="ssr:stedsnr" v="508575" />
		<tag k="ssr:type" v="bruk" />
	</node>
	<node id="4488605501" lat="59.3234971" lon="7.5175045" version="3" timestamp="2018-04-28T08:08:11Z" changeset="58497758" uid="3497659" user="NKA">
		<tag k="alt_name" v="Hjåmestøyl" />
		<tag k="historic" v="shieling" />
		<tag k="name" v="Jåmestøyl" />
		<tag k="place" v="locality" />
		<tag k="ssr:stedsnr" v="567762" />
		<tag k="ssr:type" v="seterStøl" />
	</node>
	<node id="4488605502" lat="59.0402687" lon="7.4468205" version="4" timestamp="2021-03-18T07:44:17Z" changeset="101237689" uid="3497659" user="NKA">
		<tag k="alt_name" v="Tjørneli" />
		<tag k="historic" v="shieling" />
		<tag k="name" v="Tjørnelii" />
		<tag k="place" v="isolated_dwelling" />
		<tag k="ssr:stedsnr" v="184254" />
		<tag k="ssr:type" v="seterStøl" />
	</node>
	<node id="4488605503" lat="59.0372475" lon="7.4293358" version="3" timestamp="2018-04-28T08:08:11Z" changeset="58497758" uid="3497659" user="NKA">
		<tag k="building" v="cabin" />
		<tag k="historic" v="shieling" />
		<tag k="name" v="Nyestøyl" />
		<tag k="place" v="isolated_dwelling" />
		<tag k="ssr:stedsnr" v="730261" />
		<tag k="ssr:type" v="seterStøl" />
	</node>
	<node id="4488605504" lat="59.0368099" lon="7.4168439" version="4" timestamp="2021-03-18T07:44:17Z" changeset="101237689" uid="3497659" user="NKA">
		<tag k="alt_name" v="Ormetjørnstøylen" />
		<tag k="historic" v="shieling" />
		<tag k="name" v="Ormetjørn" />
		<tag k="place" v="isolated_dwelling" />
		<tag k="ssr:stedsnr" v="1273" />
		<tag k="ssr:type" v="seterStøl" />
	</node>
	<node id="4488605505" lat="59.2023695" lon="7.5776819" version="4" timestamp="2021-03-18T07:44:17Z" changeset="101237689" uid="3497659" user="NKA">
		<tag k="alt_name" v="Geitekro" />
		<tag k="historic" v="shieling" />
		<tag k="name" v="Gjeitekro" />
		<tag k="place" v="isolated_dwelling" />
		<tag k="ssr:stedsnr" v="426498" />
		<tag k="ssr:type" v="seterStøl" />
	</node>
	<node id="4488605506" lat="59.0332098" lon="7.4069951" version="3" timestamp="2018-04-28T08:08:11Z" changeset="58497758" uid="3497659" user="NKA">
		<tag k="historic" v="shieling" />
		<tag k="name" v="Flatestøyl" />
		<tag k="place" v="locality" />
		<tag k="ssr:stedsnr" v="912275" />
		<tag k="ssr:type" v="seterStøl" />
	</node>
	<node id="4488605507" lat="59.3159752" lon="7.5118133" version="3" timestamp="2018-04-28T08:08:11Z" changeset="58497758" uid="3497659" user="NKA">
		<tag k="historic" v="shieling" />
		<tag k="name" v="Revstjørnbui" />
		<tag k="place" v="locality" />
		<tag k="ssr:stedsnr" v="871755" />
		<tag k="ssr:type" v="seterStøl" />
	</node>
	<node id="4488605508" lat="59.2014686" lon="7.6505479" version="4" timestamp="2021-03-18T07:44:17Z" changeset="101237689" uid="3497659" user="NKA">
		<tag k="historic" v="shieling" />
		<tag k="name" v="Vøilestøylen" />
		<tag k="place" v="isolated_dwelling" />
		<tag k="ssr:stedsnr" v="508702" />
		<tag k="ssr:type" v="seterStøl" />
	</node>
	<node id="4488605509" lat="59.2034104" lon="7.5401259" version="2" timestamp="2018-04-10T18:54:15Z" changeset="57982147" uid="3497659" user="NKA">
		<tag k="name" v="Rike" />
		<tag k="place" v="farm" />
		<tag k="ssr:stedsnr" v="790545" />
		<tag k="ssr:type" v="bruk" />
	</node>
	<node id="4488605510" lat="59.1100587" lon="7.7855221" version="3" timestamp="2021-03-18T07:44:17Z" changeset="101237689" uid="3497659" user="NKA">
		<tag k="name" v="Øvrekil" />
		<tag k="place" v="isolated_dwelling" />
		<tag k="ssr:stedsnr" v="270077" />
		<tag k="ssr:type" v="fritidsbolig" />
	</node>
	<node id="4488605511" lat="59.1762288" lon="7.5307759" version="2" timestamp="2018-04-10T18:54:16Z" changeset="57982147" uid="3497659" user="NKA">
		<tag k="name" v="Mo" />
		<tag k="place" v="farm" />
		<tag k="ssr:stedsnr" v="23569" />
		<tag k="ssr:type" v="bruk" />
	</node>
	<node id="4488605512" lat="59.1998455" lon="7.5365457" version="2" timestamp="2018-04-10T18:54:16Z" changeset="57982147" uid="3497659" user="NKA">
		<tag k="name" v="Åkre" />
		<tag k="place" v="farm" />
		<tag k="ssr:stedsnr" v="912549" />
		<tag k="ssr:type" v="bruk" />
	</node>
	<node id="4488605513" lat="59.1998915" lon="7.6761503" version="3" timestamp="2018-04-28T08:08:12Z" changeset="58497758" uid="3497659" user="NKA">
		<tag k="historic" v="shieling" />
		<tag k="name" v="Tirngota" />
		<tag k="place" v="locality" />
		<tag k="ssr:stedsnr" v="326713" />
		<tag k="ssr:type" v="melkeplass" />
	</node>
	<node id="4488605514" lat="59.1955362" lon="7.5294128" version="2" timestamp="2018-04-10T18:54:16Z" changeset="57982147" uid="3497659" user="NKA">
		<tag k="name" v="Harstad" />
		<tag k="place" v="farm" />
		<tag k="ssr:stedsnr" v="426503" />
		<tag k="ssr:type" v="bruk" />
	</node>
	<node id="4488605515" lat="59.2055103" lon="7.5217106" version="2" timestamp="2018-04-10T18:54:16Z" changeset="57982147" uid="3497659" user="NKA">
		<tag k="name" v="Steinsland" />
		<tag k="place" v="farm" />
		<tag k="ssr:stedsnr" v="123573" />
		<tag k="ssr:type" v="bruk" />
	</node>
	<node id="4488605516" lat="59.325736" lon="7.5031937" version="3" timestamp="2018-04-28T08:08:12Z" changeset="58497758" uid="3497659" user="NKA">
		<tag k="historic" v="shieling" />
		<tag k="name" v="Glottebu" />
		<tag k="place" v="locality" />
		<tag k="ssr:stedsnr" v="83773" />
		<tag k="ssr:type" v="seterStøl" />
	</node>
	<node id="4488605517" lat="59.328622" lon="7.5080873" version="3" timestamp="2018-04-28T08:08:12Z" changeset="58497758" uid="3497659" user="NKA">
		<tag k="historic" v="shieling" />
		<tag k="name" v="Osstøyl" />
		<tag k="place" v="locality" />
		<tag k="ssr:stedsnr" v="628741" />
		<tag k="ssr:type" v="seterStøl" />
	</node>
	<node id="4488605518" lat="59.2047446" lon="7.6859164" version="3" timestamp="2018-04-28T08:08:12Z" changeset="58497758" uid="3497659" user="NKA">
		<tag k="historic" v="shieling" />
		<tag k="name" v="Mæstøyl" />
		<tag k="place" v="locality" />
		<tag k="ssr:stedsnr" v="266666" />
		<tag k="ssr:type" v="seterStøl" />
	</node>
	<node id="4488605519" lat="59.3325622" lon="7.5116176" version="3" timestamp="2018-04-28T08:08:12Z" changeset="58497758" uid="3497659" user="NKA">
		<tag k="historic" v="shieling" />
		<tag k="name" v="Grønli" />
		<tag k="place" v="locality" />
		<tag k="ssr:stedsnr" v="22763" />
		<tag k="ssr:type" v="seterStøl" />
	</node>
	<node id="4488605520" lat="59.2041423" lon="7.6951229" version="4" timestamp="2021-03-18T07:44:17Z" changeset="101237689" uid="3497659" user="NKA">
		<tag k="historic" v="shieling" />
		<tag k="name" v="Fisstøyl" />
		<tag k="place" v="isolated_dwelling" />
		<tag k="ssr:stedsnr" v="508697" />
		<tag k="ssr:type" v="seterStøl" />
	</node>
	<node id="4488605521" lat="59.3283948" lon="7.494911" version="3" timestamp="2018-04-28T08:08:12Z" changeset="58497758" uid="3497659" user="NKA">
		<tag k="historic" v="shieling" />
		<tag k="name" v="Lislebu" />
		<tag k="place" v="locality" />
		<tag k="ssr:stedsnr" v="83775" />
		<tag k="ssr:type" v="seterStøl" />
	</node>
	<node id="4488605522" lat="59.1663364" lon="7.5270997" version="2" timestamp="2018-04-10T18:54:17Z" changeset="57982147" uid="3497659" user="NKA">
		<tag k="name" v="Mel" />
		<tag k="place" v="locality" />
		<tag k="ssr:stedsnr" v="629515" />
		<tag k="ssr:type" v="bruk" />
	</node>
	<node id="4488605523" lat="59.1946556" lon="7.4755091" version="4" timestamp="2021-03-18T07:44:17Z" changeset="101237689" uid="3497659" user="NKA">
		<tag k="alt_name" v="Kleggestøyl" />
		<tag k="historic" v="shieling" />
		<tag k="name" v="Kleggstøyl" />
		<tag k="place" v="isolated_dwelling" />
		<tag k="ssr:stedsnr" v="790555" />
		<tag k="ssr:type" v="seterStøl" />
	</node>
	<node id="4488605524" lat="59.3206454" lon="7.4946386" version="3" timestamp="2018-04-28T08:08:13Z" changeset="58497758" uid="3497659" user="NKA">
		<tag k="alt_name" v="Edland" />
		<tag k="historic" v="shieling" />
		<tag k="name" v="Ædan" />
		<tag k="place" v="locality" />
		<tag k="ssr:stedsnr" v="750830" />
		<tag k="ssr:type" v="seterStøl" />
	</node>
	<node id="4488605525" lat="59.0485665" lon="7.5609496" version="2" timestamp="2018-04-10T18:54:17Z" changeset="57982147" uid="3497659" user="NKA">
		<tag k="name" v="Bergstad" />
		<tag k="place" v="farm" />
		<tag k="ssr:stedsnr" v="426701" />
		<tag k="ssr:type" v="eneboligMindreBoligbygg" />
	</node>
	<node id="4488605526" lat="59.0442812" lon="7.5573978" version="2" timestamp="2018-04-10T18:54:17Z" changeset="57982147" uid="3497659" user="NKA">
		<tag k="alt_name" v="Bergtun" />
		<tag k="name" v="Bergheim" />
		<tag k="place" v="farm" />
		<tag k="ssr:stedsnr" v="365713" />
		<tag k="ssr:type" v="eneboligMindreBoligbygg" />
	</node>
	<node id="4488605527" lat="59.2531647" lon="7.5841392" version="3" timestamp="2018-04-28T08:08:13Z" changeset="58497758" uid="3497659" user="NKA">
		<tag k="historic" v="shieling" />
		<tag k="name" v="Søndrestavvatn" />
		<tag k="place" v="locality" />
		<tag k="ssr:stedsnr" v="83853" />
		<tag k="ssr:type" v="seterStøl" />
	</node>
	<node id="4488605528" lat="59.0478327" lon="7.5149015" version="3" timestamp="2021-03-18T07:44:17Z" changeset="101237689" uid="3497659" user="NKA">
		<tag k="name" v="Vassbotnen" />
		<tag k="place" v="isolated_dwelling" />
		<tag k="ssr:stedsnr" v="123727" />
		<tag k="ssr:type" v="fritidsbolig" />
	</node>
	<node id="4488605529" lat="59.0464898" lon="7.502002" version="4" timestamp="2020-01-01T04:21:06Z" changeset="79073210" uid="443181" user="Marius Geitle">
		<tag k="alt_name" v="Myklestøylan" />
		<tag k="historic" v="shieling" />
		<tag k="name" v="Myklestøylane" />
		<tag k="place" v="isolated_dwelling" />
		<tag k="ssr:stedsnr" v="487737" />
		<tag k="ssr:type" v="seterStøl" />
	</node>
	<node id="4488605530" lat="59.0425557" lon="7.4573485" version="4" timestamp="2021-03-18T07:44:17Z" changeset="101237689" uid="3497659" user="NKA">
		<tag k="historic" v="shieling" />
		<tag k="name" v="Furestøyl" />
		<tag k="place" v="isolated_dwelling" />
		<tag k="ssr:stedsnr" v="790735" />
		<tag k="ssr:type" v="seterStøl" />
	</node>
	<node id="4488605531" lat="59.1701519" lon="7.4942015" version="4" timestamp="2021-03-18T07:44:17Z" changeset="101237689" uid="3497659" user="NKA">
		<tag k="historic" v="shieling" />
		<tag k="name" v="Eivindstøyl" />
		<tag k="place" v="isolated_dwelling" />
		<tag k="ssr:stedsnr" v="386539" />
		<tag k="ssr:type" v="seterStøl" />
	</node>
	<node id="4488605532" lat="59.0461809" lon="7.4573204" version="3" timestamp="2018-04-28T08:08:13Z" changeset="58497758" uid="3497659" user="NKA">
		<tag k="historic" v="shieling" />
		<tag k="name" v="Liestøyl" />
		<tag k="place" v="locality" />
		<tag k="ssr:stedsnr" v="547731" />
		<tag k="ssr:type" v="seterStøl" />
	</node>
	<node id="4488605533" lat="59.2070604" lon="7.6938856" version="3" timestamp="2018-04-28T08:08:13Z" changeset="58497758" uid="3497659" user="NKA">
		<tag k="historic" v="shieling" />
		<tag k="name" v="Fisstøyl" />
		<tag k="place" v="locality" />
		<tag k="ssr:stedsnr" v="608580" />
		<tag k="ssr:type" v="seterStøl" />
	</node>
	<node id="4488605534" lat="59.2610247" lon="7.579093" version="4" timestamp="2021-03-18T07:44:17Z" changeset="101237689" uid="3497659" user="NKA">
		<tag k="building" v="cabin" />
		<tag k="historic" v="shieling" />
		<tag k="name" v="Strandsstøyl" />
		<tag k="place" v="isolated_dwelling" />
		<tag k="ssr:stedsnr" v="628813" />
		<tag k="ssr:type" v="seterStøl" />
	</node>
	<node id="4488605535" lat="59.1710522" lon="7.7053556" version="2" timestamp="2018-04-10T18:54:19Z" changeset="57982147" uid="3497659" user="NKA">
		<tag k="historic" v="yes" />
		<tag k="name" v="Midstoda" />
		<tag k="place" v="locality" />
		<tag k="ssr:stedsnr" v="751717" />
		<tag k="ssr:type" v="stø" />
	</node>
	<node id="4488605536" lat="59.2625867" lon="7.5748916" version="4" timestamp="2021-03-18T07:44:17Z" changeset="101237689" uid="3497659" user="NKA">
		<tag k="alt_name" v="Stavvasstøylen" />
		<tag k="historic" v="shieling" />
		<tag k="name" v="Stavvatnstøylen" />
		<tag k="place" v="isolated_dwelling" />
		<tag k="ssr:stedsnr" v="568833" />
		<tag k="ssr:type" v="seterStøl" />
	</node>
	<node id="4488605537" lat="59.2641664" lon="7.5748772" version="4" timestamp="2021-03-18T07:44:17Z" changeset="101237689" uid="3497659" user="NKA">
		<tag k="historic" v="shieling" />
		<tag k="name" v="Vastøyl" />
		<tag k="place" v="isolated_dwelling" />
		<tag k="ssr:stedsnr" v="811817" />
		<tag k="ssr:type" v="seterStøl" />
	</node>
	<node id="4488605538" lat="59.1619849" lon="7.4933383" version="2" timestamp="2018-04-10T18:54:19Z" changeset="57982147" uid="3497659" user="NKA">
		<tag k="historic" v="ruins" />
		<tag k="name" v="Fossebui" />
		<tag k="place" v="locality" />
		<tag k="ssr:stedsnr" v="83541" />
		<tag k="ssr:type" v="fritidsbolig" />
	</node>
	<node id="4488605539" lat="59.0496156" lon="7.3579948" version="4" timestamp="2021-03-18T07:44:17Z" changeset="101237689" uid="3497659" user="NKA">
		<tag k="alt_name" v="Leitet" />
		<tag k="historic" v="shieling" />
		<tag k="name" v="Leite" />
		<tag k="place" v="isolated_dwelling" />
		<tag k="ssr:stedsnr" v="912710" />
		<tag k="ssr:type" v="seterStøl" />
	</node>
	<node id="4488605540" lat="59.1906007" lon="7.5838771" version="4" timestamp="2021-03-18T07:44:17Z" changeset="101237689" uid="3497659" user="NKA">
		<tag k="historic" v="shieling" />
		<tag k="name" v="Rjoet" />
		<tag k="place" v="isolated_dwelling" />
		<tag k="ssr:stedsnr" v="629557" />
		<tag k="ssr:type" v="seterStøl" />
	</node>
	<node id="4488605541" lat="59.1271089" lon="7.4940078" version="4" timestamp="2021-03-18T07:44:17Z" changeset="101237689" uid="3497659" user="NKA">
		<tag k="historic" v="shieling" />
		<tag k="name" v="Takli" />
		<tag k="place" v="isolated_dwelling" />
		<tag k="ssr:stedsnr" v="568571" />
		<tag k="ssr:type" v="seterStøl" />
	</node>
	<node id="4488605542" lat="59.0434822" lon="7.3441553" version="4" timestamp="2021-03-18T07:44:17Z" changeset="101237689" uid="3497659" user="NKA">
		<tag k="historic" v="shieling" />
		<tag k="name" v="Fiti" />
		<tag k="place" v="isolated_dwelling" />
		<tag k="ssr:stedsnr" v="487726" />
		<tag k="ssr:type" v="seterStøl" />
	</node>
	<node id="4488605543" lat="59.2074548" lon="7.6404613" version="3" timestamp="2021-03-18T07:44:17Z" changeset="101237689" uid="3497659" user="NKA">
		<tag k="alt_name" v="Voilane" />
		<tag k="name" v="Vøylan" />
		<tag k="place" v="isolated_dwelling" />
		<tag k="ssr:stedsnr" v="851517" />
		<tag k="ssr:type" v="fritidsbolig" />
	</node>
	<node id="4488605544" lat="59.0607261" lon="7.7028017" version="4" timestamp="2021-03-18T07:44:17Z" changeset="101237689" uid="3497659" user="NKA">
		<tag k="alt_name" v="Nyestøyl" />
		<tag k="historic" v="shieling" />
		<tag k="name" v="Nystøyl" />
		<tag k="place" v="isolated_dwelling" />
		<tag k="ssr:stedsnr" v="123721" />
		<tag k="ssr:type" v="seterStøl" />
	</node>
	<node id="4488605545" lat="59.1907065" lon="7.5797222" version="3" timestamp="2018-04-28T08:08:15Z" changeset="58497758" uid="3497659" user="NKA">
		<tag k="historic" v="shieling" />
		<tag k="name" v="Likkefit" />
		<tag k="place" v="locality" />
		<tag k="ssr:stedsnr" v="568526" />
		<tag k="ssr:type" v="seterStøl" />
	</node>
	<node id="4488605546" lat="59.1896706" lon="7.5779129" version="3" timestamp="2021-03-18T07:44:17Z" changeset="101237689" uid="3497659" user="NKA">
		<tag k="name" v="Sundagsbui" />
		<tag k="place" v="isolated_dwelling" />
		<tag k="ssr:stedsnr" v="568525" />
		<tag k="ssr:type" v="fritidsbolig" />
	</node>
	<node id="4488605547" lat="59.1915328" lon="7.5788377" version="3" timestamp="2018-04-28T08:08:15Z" changeset="58497758" uid="3497659" user="NKA">
		<tag k="historic" v="shieling" />
		<tag k="name" v="Neire Løyning" />
		<tag k="place" v="locality" />
		<tag k="ssr:stedsnr" v="326569" />
		<tag k="ssr:type" v="seterStøl" />
	</node>
	<node id="4488605548" lat="59.191136" lon="7.5773089" version="3" timestamp="2018-04-28T08:08:15Z" changeset="58497758" uid="3497659" user="NKA">
		<tag k="historic" v="shieling" />
		<tag k="name" v="Øvre Løyning" />
		<tag k="place" v="locality" />
		<tag k="ssr:stedsnr" v="508593" />
		<tag k="ssr:type" v="seterStøl" />
	</node>
	<node id="4488605549" lat="59.1598111" lon="7.5920047" version="4" timestamp="2021-03-18T07:44:17Z" changeset="101237689" uid="3497659" user="NKA">
		<tag k="alt_name" v="Rossevatnet" />
		<tag k="historic" v="shieling" />
		<tag k="name" v="Rossevatn" />
		<tag k="place" v="isolated_dwelling" />
		<tag k="ssr:stedsnr" v="205602" />
		<tag k="ssr:type" v="seterStøl" />
	</node>
	<node id="4488605550" lat="59.1920055" lon="7.5779385" version="4" timestamp="2021-03-18T07:44:17Z" changeset="101237689" uid="3497659" user="NKA">
		<tag k="historic" v="shieling" />
		<tag k="name" v="Fogremyr" />
		<tag k="place" v="isolated_dwelling" />
		<tag k="ssr:stedsnr" v="690589" />
		<tag k="ssr:type" v="seterStøl" />
	</node>
	<node id="4488605551" lat="59.1916873" lon="7.582696" version="3" timestamp="2018-04-28T08:08:15Z" changeset="58497758" uid="3497659" user="NKA">
		<tag k="historic" v="shieling" />
		<tag k="name" v="Grjotstøyl" />
		<tag k="place" v="locality" />
		<tag k="ssr:stedsnr" v="811531" />
		<tag k="ssr:type" v="seterStøl" />
	</node>
	<node id="4488605552" lat="58.9713348" lon="7.2605154" version="3" timestamp="2021-03-18T07:44:17Z" changeset="101237689" uid="3497659" user="NKA">
		<tag k="name" v="Vidalega" />
		<tag k="place" v="isolated_dwelling" />
		<tag k="ssr:stedsnr" v="486215" />
		<tag k="ssr:type" v="fritidsbolig" />
	</node>
	<node id="4488605553" lat="59.1949497" lon="7.5809566" version="4" timestamp="2021-03-18T07:44:17Z" changeset="101237689" uid="3497659" user="NKA">
		<tag k="alt_name" v="Inglingestøyl" />
		<tag k="historic" v="shieling" />
		<tag k="name" v="Neire Ingling" />
		<tag k="place" v="isolated_dwelling" />
		<tag k="ssr:stedsnr" v="326564" />
		<tag k="ssr:type" v="seterStøl" />
	</node>
	<node id="4488605554" lat="59.1932475" lon="7.5815202" version="4" timestamp="2021-03-18T07:44:17Z" changeset="101237689" uid="3497659" user="NKA">
		<tag k="historic" v="shieling" />
		<tag k="name" v="Stuvestøyl" />
		<tag k="place" v="isolated_dwelling" />
		<tag k="ssr:stedsnr" v="872578" />
		<tag k="ssr:type" v="seterStøl" />
	</node>
	<node id="4488605555" lat="58.9714464" lon="7.2139018" version="3" timestamp="2021-03-18T07:44:17Z" changeset="101237689" uid="3497659" user="NKA">
		<tag k="name" v="Bukkehallene" />
		<tag k="place" v="isolated_dwelling" />
		<tag k="ssr:stedsnr" v="911230" />
		<tag k="ssr:type" v="fritidsbolig" />
	</node>
	<node id="4488605556" lat="59.1536864" lon="7.5805218" version="4" timestamp="2021-03-18T07:44:17Z" changeset="101237689" uid="3497659" user="NKA">
		<tag k="alt_name" v="Grostøyl" />
		<tag k="historic" v="shieling" />
		<tag k="name" v="Grjostøyl" />
		<tag k="place" v="isolated_dwelling" />
		<tag k="ssr:stedsnr" v="812587" />
		<tag k="ssr:type" v="seterStøl" />
	</node>
	<node id="4488605557" lat="59.0349882" lon="7.5208439" version="2" timestamp="2018-04-10T18:54:22Z" changeset="57982147" uid="3497659" user="NKA">
		<tag k="historic" v="ruins" />
		<tag k="name" v="Nyestøyl" />
		<tag k="place" v="locality" />
		<tag k="ssr:stedsnr" v="156540" />
		<tag k="ssr:type" v="gammelBosettingsplass" />
	</node>
	<node id="4488605558" lat="59.198022" lon="7.5762168" version="4" timestamp="2021-03-18T07:44:17Z" changeset="101237689" uid="3497659" user="NKA">
		<tag k="historic" v="shieling" />
		<tag k="name" v="Neire Søvårkro" />
		<tag k="place" v="isolated_dwelling" />
		<tag k="ssr:stedsnr" v="83522" />
		<tag k="ssr:type" v="seterStøl" />
	</node>
	<node id="4488605559" lat="59.2054354" lon="7.5402344" version="2" timestamp="2018-04-10T18:54:23Z" changeset="57982147" uid="3497659" user="NKA">
		<tag k="name" v="Viki" />
		<tag k="place" v="farm" />
		<tag k="ssr:stedsnr" v="244573" />
		<tag k="ssr:type" v="bruk" />
	</node>
	<node id="4488605560" lat="59.1496788" lon="7.5787604" version="4" timestamp="2021-03-18T07:44:17Z" changeset="101237689" uid="3497659" user="NKA">
		<tag k="historic" v="shieling" />
		<tag k="name" v="Forstøyl" />
		<tag k="place" v="isolated_dwelling" />
		<tag k="ssr:stedsnr" v="265575" />
		<tag k="ssr:type" v="seterStøl" />
	</node>
	<node id="4488605561" lat="59.196972" lon="7.5735875" version="4" timestamp="2021-03-18T07:44:17Z" changeset="101237689" uid="3497659" user="NKA">
		<tag k="historic" v="shieling" />
		<tag k="name" v="Libu" />
		<tag k="place" v="isolated_dwelling" />
		<tag k="ssr:stedsnr" v="23586" />
		<tag k="ssr:type" v="seterStøl" />
	</node>
	<node id="4488605562" lat="59.2083538" lon="7.5391945" version="2" timestamp="2018-04-10T18:54:23Z" changeset="57982147" uid="3497659" user="NKA">
		<tag k="name" v="Kyrvestad" />
		<tag k="place" v="farm" />
		<tag k="ssr:stedsnr" v="547575" />
		<tag k="ssr:type" v="bruk" />
	</node>
	<node id="4488605563" lat="59.2524822" lon="7.5504065" version="4" timestamp="2021-03-18T07:44:17Z" changeset="101237689" uid="3497659" user="NKA">
		<tag k="historic" v="shieling" />
		<tag k="name" v="Setan" />
		<tag k="place" v="isolated_dwelling" />
		<tag k="ssr:stedsnr" v="204856" />
		<tag k="ssr:type" v="seterStøl" />
	</node>
	<node id="4488605564" lat="59.2091977" lon="7.5470923" version="2" timestamp="2018-04-10T18:54:23Z" changeset="57982147" uid="3497659" user="NKA">
		<tag k="name" v="Brenna" />
		<tag k="place" v="farm" />
		<tag k="ssr:stedsnr" v="790557" />
		<tag k="ssr:type" v="bruk" />
	</node>
	<node id="4488605565" lat="59.2531195" lon="7.5443994" version="4" timestamp="2021-03-18T07:44:17Z" changeset="101237689" uid="3497659" user="NKA">
		<tag k="historic" v="shieling" />
		<tag k="name" v="Vasstøyl" />
		<tag k="place" v="isolated_dwelling" />
		<tag k="ssr:stedsnr" v="386860" />
		<tag k="ssr:type" v="seterStøl" />
	</node>
	<node id="4488605566" lat="59.2110478" lon="7.5358572" version="2" timestamp="2018-04-10T18:54:23Z" changeset="57982147" uid="3497659" user="NKA">
		<tag k="alt_name" v="Sagneskard" />
		<tag k="name" v="Sagneskar" />
		<tag k="place" v="farm" />
		<tag k="ssr:stedsnr" v="851509" />
		<tag k="ssr:type" v="bruk" />
	</node>
	<node id="4488605567" lat="59.2479072" lon="7.5471512" version="4" timestamp="2021-03-18T07:44:17Z" changeset="101237689" uid="3497659" user="NKA">
		<tag k="alt_name" v="Nedstestøylen" />
		<tag k="historic" v="shieling" />
		<tag k="name" v="Nestestøyl" />
		<tag k="place" v="isolated_dwelling" />
		<tag k="ssr:stedsnr" v="507870" />
		<tag k="ssr:type" v="seterStøl" />
	</node>
	<node id="4488605568" lat="59.210606" lon="7.5307875" version="2" timestamp="2018-04-10T18:54:24Z" changeset="57982147" uid="3497659" user="NKA">
		<tag k="alt_name" v="Kjeldeberg" />
		<tag k="name" v="Kjelleberg" />
		<tag k="place" v="farm" />
		<tag k="ssr:stedsnr" v="305602" />
		<tag k="ssr:type" v="bruk" />
	</node>
	<node id="4488605569" lat="59.058573" lon="7.5659583" version="2" timestamp="2018-04-10T18:54:24Z" changeset="57982147" uid="3497659" user="NKA">
		<tag k="name" v="Hagen" />
		<tag k="place" v="farm" />
		<tag k="ssr:stedsnr" v="487732" />
		<tag k="ssr:type" v="bruk" />
	</node>
	<node id="4488605570" lat="59.2111112" lon="7.5247248" version="2" timestamp="2018-04-10T18:54:24Z" changeset="57982147" uid="3497659" user="NKA">
		<tag k="name" v="Nomeland" />
		<tag k="place" v="hamlet" />
		<tag k="ssr:stedsnr" v="365546" />
		<tag k="ssr:type" v="bruk" />
	</node>
	<node id="4488605571" lat="59.2587378" lon="7.490614" version="2" timestamp="2018-04-10T18:54:24Z" changeset="57982147" uid="3497659" user="NKA">
		<tag k="name" v="Øyne" />
		<tag k="place" v="farm" />
		<tag k="ssr:stedsnr" v="871854" />
		<tag k="ssr:type" v="bruk" />
	</node>
	<node id="4488605572" lat="59.2599671" lon="7.4945509" version="2" timestamp="2018-04-10T18:54:24Z" changeset="57982147" uid="3497659" user="NKA">
		<tag k="name" v="Utigard" />
		<tag k="place" v="farm" />
		<tag k="ssr:stedsnr" v="628835" />
		<tag k="ssr:type" v="bruk" />
	</node>
	<node id="4488605573" lat="59.2612256" lon="7.4899754" version="2" timestamp="2018-04-10T18:54:24Z" changeset="57982147" uid="3497659" user="NKA">
		<tag k="name" v="Rygnestad" />
		<tag k="place" v="farm" />
		<tag k="ssr:stedsnr" v="143843" />
		<tag k="ssr:type" v="bruk" />
	</node>
	<node id="4488605574" lat="59.2058843" lon="7.4932113" version="4" timestamp="2021-03-18T07:44:17Z" changeset="101237689" uid="3497659" user="NKA">
		<tag k="historic" v="shieling" />
		<tag k="name" v="Storetjørnstøylen" />
		<tag k="place" v="isolated_dwelling" />
		<tag k="ssr:stedsnr" v="730587" />
		<tag k="ssr:type" v="seterStøl" />
	</node>
	<node id="4488605575" lat="59.1453858" lon="7.5599103" version="2" timestamp="2018-04-10T18:54:25Z" changeset="57982147" uid="3497659" user="NKA">
		<tag k="building" v="cabin" />
		<tag k="name" v="Løksåsen" />
		<tag k="place" v="isolated_dwelling" />
		<tag k="ssr:stedsnr" v="326593" />
		<tag k="ssr:type" v="fritidsbolig" />
	</node>
	<node id="4488605576" lat="59.1470144" lon="7.5634512" version="2" timestamp="2018-04-10T18:54:25Z" changeset="57982147" uid="3497659" user="NKA">
		<tag k="name" v="Krobui" />
		<tag k="place" v="locality" />
		<tag k="ssr:stedsnr" v="326592" />
		<tag k="ssr:type" v="fritidsbolig" />
	</node>
	<node id="4488605577" lat="59.1853332" lon="7.5746418" version="4" timestamp="2021-03-18T07:44:17Z" changeset="101237689" uid="3497659" user="NKA">
		<tag k="historic" v="shieling" />
		<tag k="name" v="Bjønneåsen" />
		<tag k="place" v="isolated_dwelling" />
		<tag k="ssr:stedsnr" v="568509" />
		<tag k="ssr:type" v="seterStøl" />
	</node>
	<node id="4488605578" lat="59.13631" lon="7.6222826" version="3" timestamp="2021-03-18T07:44:17Z" changeset="101237689" uid="3497659" user="NKA">
		<tag k="name" v="Eksvasshytta" />
		<tag k="place" v="isolated_dwelling" />
		<tag k="ssr:stedsnr" v="266717" />
		<tag k="ssr:type" v="fritidsbolig" />
	</node>
	<node id="4488605579" lat="59.1508063" lon="7.5692899" version="4" timestamp="2021-03-18T07:44:17Z" changeset="101237689" uid="3497659" user="NKA">
		<tag k="alt_name" v="Horsemyr" />
		<tag k="historic" v="shieling" />
		<tag k="name" v="Hossemyra" />
		<tag k="place" v="isolated_dwelling" />
		<tag k="ssr:stedsnr" v="205636" />
		<tag k="ssr:type" v="seterStøl" />
	</node>
	<node id="4488605580" lat="59.054593" lon="7.3534162" version="4" timestamp="2021-03-18T07:44:17Z" changeset="101237689" uid="3497659" user="NKA">
		<tag k="alt_name" v="Nomelandsstølen" />
		<tag k="historic" v="shieling" />
		<tag k="name" v="Myklestøyl" />
		<tag k="place" v="isolated_dwelling" />
		<tag k="ssr:stedsnr" v="1709" />
		<tag k="ssr:type" v="fritidsbolig" />
	</node>
	<node id="4488605581" lat="59.264821" lon="7.5243413" version="3" timestamp="2018-04-28T08:08:17Z" changeset="58497758" uid="3497659" user="NKA">
		<tag k="historic" v="shieling" />
		<tag k="name" v="Blautemyr" />
		<tag k="place" v="locality" />
		<tag k="ssr:stedsnr" v="265870" />
		<tag k="ssr:type" v="seterStøl" />
	</node>
	<node id="4488605582" lat="59.1533507" lon="7.5621567" version="3" timestamp="2018-04-28T08:08:17Z" changeset="58497758" uid="3497659" user="NKA">
		<tag k="historic" v="shieling" />
		<tag k="name" v="Nyestøyl" />
		<tag k="place" v="locality" />
		<tag k="ssr:stedsnr" v="144626" />
		<tag k="ssr:type" v="seterStøl" />
	</node>
	<node id="4488605583" lat="59.222265" lon="7.612683" version="3" timestamp="2021-03-18T07:44:17Z" changeset="101237689" uid="3497659" user="NKA">
		<tag k="name" v="Osebakken" />
		<tag k="place" v="isolated_dwelling" />
		<tag k="ssr:stedsnr" v="1549" />
		<tag k="ssr:type" v="fritidsbolig" />
	</node>
	<node id="3767246756" lat="59.0828645" lon="7.5470107" version="1" timestamp="2015-10-01T12:54:53Z" changeset="34367344" uid="3277623" user="havknuts" />
	<node id="3767259457" lat="59.0823684" lon="7.5472897" version="1" timestamp="2015-10-01T12:54:53Z" changeset="34367344" uid="3277623" user="havknuts" />
	<node id="3767259458" lat="59.0817951" lon="7.5484484" version="1" timestamp="2015-10-01T12:54:53Z" changeset="34367344" uid="3277623" user="havknuts" />
	<node id="3767259459" lat="59.0815966" lon="7.5491994" version="1" timestamp="2015-10-01T12:54:53Z" changeset="34367344" uid="3277623" user="havknuts" />
	<node id="3767259460" lat="59.0812879" lon="7.5494783" version="1" timestamp="2015-10-01T12:54:53Z" changeset="34367344" uid="3277623" user="havknuts" />
	<node id="3767246754" lat="59.0858632" lon="7.5416463" version="1" timestamp="2015-10-01T12:54:53Z" changeset="34367344" uid="3277623" user="havknuts" />
	<node id="4488604965" lat="59.0890465" lon="7.5428803" version="1" timestamp="2016-11-08T12:15:56Z" changeset="43485768" uid="3842253" user="NKA_import" />
	<node id="3767246752" lat="59.0859073" lon="7.544586" version="1" timestamp="2015-10-01T12:54:53Z" changeset="34367344" uid="3277623" user="havknuts" />
	<node id="3767246753" lat="59.0865466" lon="7.5436633" version="1" timestamp="2015-10-01T12:54:53Z" changeset="34367344" uid="3277623" user="havknuts" />
	<node id="3767246755" lat="59.0845733" lon="7.5434917" version="1" timestamp="2015-10-01T12:54:53Z" changeset="34367344" uid="3277623" user="havknuts" />
	<node id="3767259465" lat="59.0863462" lon="7.5461013" version="1" timestamp="2015-10-01T12:54:53Z" changeset="34367344" uid="3277623" user="havknuts" />
	<node id="4488604966" lat="59.0892698" lon="7.5435294" version="1" timestamp="2016-11-08T12:15:56Z" changeset="43485768" uid="3842253" user="NKA_import" />
	<node id="4488604967" lat="59.0884527" lon="7.5445674" version="1" timestamp="2016-11-08T12:15:56Z" changeset="43485768" uid="3842253" user="NKA_import" />
	<node id="4488604968" lat="59.0891141" lon="7.5466918" version="1" timestamp="2016-11-08T12:15:56Z" changeset="43485768" uid="3842253" user="NKA_import" />
	<node id="4488604969" lat="59.087422" lon="7.5491057" version="1" timestamp="2016-11-08T12:15:57Z" changeset="43485768" uid="3842253" user="NKA_import" />
	<node id="4488604970" lat="59.0864437" lon="7.5461714" version="1" timestamp="2016-11-08T12:15:57Z" changeset="43485768" uid="3842253" user="NKA_import" />
	<node id="8531131494" lat="59.095381" lon="7.533713" version="1" timestamp="2021-03-18T07:44:17Z" changeset="101237689" uid="3497659" user="NKA" />
	<node id="8531131495" lat="59.09534" lon="7.533708" version="1" timestamp="2021-03-18T07:44:17Z" changeset="101237689" uid="3497659" user="NKA" />
	<node id="8531131496" lat="59.095341" lon="7.533663" version="1" timestamp="2021-03-18T07:44:17Z" changeset="101237689" uid="3497659" user="NKA" />
	<node id="8531131497" lat="59.095338" lon="7.533662" version="1" timestamp="2021-03-18T07:44:17Z" changeset="101237689" uid="3497659" user="NKA" />
	<node id="8531131498" lat="59.095316" lon="7.533565" version="1" timestamp="2021-03-18T07:44:17Z" changeset="101237689" uid="3497659" user="NKA" />
	<node id="8531131499" lat="59.095321" lon="7.533445" version="1" timestamp="2021-03-18T07:44:17Z" changeset="101237689" uid="3497659" user="NKA" />
	<node id="8531131500" lat="59.095348" lon="7.533361" version="1" timestamp="2021-03-18T07:44:17Z" changeset="101237689" uid="3497659" user="NKA" />
	<node id="8531131501" lat="59.095399" lon="7.53337" version="1" timestamp="2021-03-18T07:44:17Z" changeset="101237689" uid="3497659" user="NKA" />
	<node id="8531131502" lat="59.09542" lon="7.533459" version="1" timestamp="2021-03-18T07:44:17Z" changeset="101237689" uid="3497659" user="NKA" />
	<node id="8531131503" lat="59.095414" lon="7.533583" version="1" timestamp="2021-03-18T07:44:17Z" changeset="101237689" uid="3497659" user="NKA" />
	<node id="8531131504" lat="59.095385" lon="7.533668" version="1" timestamp="2021-03-18T07:44:17Z" changeset="101237689" uid="3497659" user="NKA" />
	<node id="8531131505" lat="59.095382" lon="7.533668" version="1" timestamp="2021-03-18T07:44:17Z" changeset="101237689" uid="3497659" user="NKA" />
	<node id="3767259461" lat="59.0812438" lon="7.5498431" version="1" timestamp="2015-10-01T12:54:53Z" changeset="34367344" uid="3277623" user="havknuts" />
	<node id="3767259462" lat="59.0813872" lon="7.5500792" version="1" timestamp="2015-10-01T12:54:53Z" changeset="34367344" uid="3277623" user="havknuts" />
	<node id="3767259463" lat="59.0815854" lon="7.5499801" version="1" timestamp="2015-10-01T12:54:53Z" changeset="34367344" uid="3277623" user="havknuts" />
	<node id="3767259464" lat="59.0819507" lon="7.5515992" version="1" timestamp="2015-10-01T12:54:53Z" changeset="34367344" uid="3277623" user="havknuts" />
	<node id="8531131599" lat="59.2096819" lon="7.5343236" version="2" timestamp="2021-09-14T11:59:58Z" changeset="111193019" uid="5198133" user="Wulfmorn" />
	<node id="8531131600" lat="59.209673" lon="7.5344329" version="2" timestamp="2021-09-14T11:59:58Z" changeset="111193019" uid="5198133" user="Wulfmorn" />
	<node id="8531131601" lat="59.2097052" lon="7.5344429" version="2" timestamp="2021-09-14T11:59:58Z" changeset="111193019" uid="5198133" user="Wulfmorn" />
	<node id="8531131602" lat="59.2096928" lon="7.5345941" version="2" timestamp="2021-09-14T11:59:58Z" changeset="111193019" uid="5198133" user="Wulfmorn" />
	<node id="8531131603" lat="59.2096608" lon="7.5345841" version="2" timestamp="2021-09-14T11:59:58Z" changeset="111193019" uid="5198133" user="Wulfmorn" />
	<node id="8531131604" lat="59.2096522" lon="7.5346892" version="2" timestamp="2021-09-14T11:59:58Z" changeset="111193019" uid="5198133" user="Wulfmorn" />
	<node id="8531131605" lat="59.209635" lon="7.5346838" version="2" timestamp="2021-09-14T11:59:58Z" changeset="111193019" uid="5198133" user="Wulfmorn" />
	<node id="8531131606" lat="59.20963" lon="7.5347445" version="2" timestamp="2021-09-14T11:59:58Z" changeset="111193019" uid="5198133" user="Wulfmorn" />
	<node id="8531131607" lat="59.2095841" lon="7.5347302" version="2" timestamp="2021-09-14T11:59:58Z" changeset="111193019" uid="5198133" user="Wulfmorn" />
	<node id="8531131608" lat="59.209589" lon="7.53467" version="2" timestamp="2021-09-14T11:59:58Z" changeset="111193019" uid="5198133" user="Wulfmorn" />
	<node id="8531131609" lat="59.2095732" lon="7.5346651" version="2" timestamp="2021-09-14T11:59:58Z" changeset="111193019" uid="5198133" user="Wulfmorn" />
	<node id="8531131610" lat="59.2095818" lon="7.5345599" version="2" timestamp="2021-09-14T11:59:58Z" changeset="111193019" uid="5198133" user="Wulfmorn" />
	<node id="8531131611" lat="59.2095503" lon="7.5345501" version="2" timestamp="2021-09-14T11:59:58Z" changeset="111193019" uid="5198133" user="Wulfmorn" />
	<node id="8531131612" lat="59.2095626" lon="7.5343994" version="2" timestamp="2021-09-14T11:59:58Z" changeset="111193019" uid="5198133" user="Wulfmorn" />
	<node id="8531131613" lat="59.2095925" lon="7.5344087" version="2" timestamp="2021-09-14T11:59:58Z" changeset="111193019" uid="5198133" user="Wulfmorn" />
	<node id="8531131614" lat="59.2096015" lon="7.5342992" version="2" timestamp="2021-09-14T11:59:58Z" changeset="111193019" uid="5198133" user="Wulfmorn" />
	<node id="8531131615" lat="59.2096168" lon="7.5343039" version="2" timestamp="2021-09-14T11:59:58Z" changeset="111193019" uid="5198133" user="Wulfmorn" />
	<node id="8531131616" lat="59.2096232" lon="7.5342253" version="2" timestamp="2021-09-14T11:59:58Z" changeset="111193019" uid="5198133" user="Wulfmorn" />
	<node id="8531131617" lat="59.2096722" lon="7.5342406" version="2" timestamp="2021-09-14T11:59:58Z" changeset="111193019" uid="5198133" user="Wulfmorn" />
	<node id="8531131618" lat="59.2096658" lon="7.5343186" version="2" timestamp="2021-09-14T11:59:58Z" changeset="111193019" uid="5198133" user="Wulfmorn" />
	<way id="155290750" version="6" timestamp="2021-03-18T07:44:17Z" changeset="101237689" uid="3497659" user="NKA">
		<tag k="amenity" v="place_of_worship" />
		<tag k="architect" v="Linstow type / Anders Thorsen Syrtveit" />
		<tag k="building" v="church" />
		<tag k="capacity" v="500" />
		<tag k="deanery" v="Otredal" />
		<tag k="denomination" v="lutheran" />
		<tag k="diocese" v="Agder og Telemark" />
		<tag k="hearing_aids" v="yes" />
		<tag k="heritage" v="yes" />
		<tag k="image" v="https://www.kirkebyggdatabasen.no/KBDBweb/getPublicImage.aspx?vedleggId=2E39ACBB-D023-4D18-A04E-B9E4A884136C" />
		<tag k="name" v="Valle kyrkje" />
		<tag k="note" v="Soknekirke" />
		<tag k="operator" v="Valle og Hylestad sokneråd" />
		<tag k="parish" v="Valle og Hylestad" />
		<tag k="ref:bygningsnr" v="167973310" />
		<tag k="religion" v="christian" />
		<tag k="ssr:stedsnr" v="691637" />
		<tag k="ssr:type" v="kirke" />
		<tag k="start_date" v="1844" />
		<tag k="toilets" v="yes" />
		<tag k="toilets:wheelchair" v="no" />
		<tag k="wheelchair" v="yes" />
		<tag k="wikidata" v="Q14906218" />
		<nd ref="8531131618" />
		<nd ref="8531131617" />
		<nd ref="8531131616" />
		<nd ref="8531131615" />
		<nd ref="8531131614" />
		<nd ref="8531131613" />
		<nd ref="8531131612" />
		<nd ref="8531131611" />
		<nd ref="8531131610" />
		<nd ref="8531131609" />
		<nd ref="8531131608" />
		<nd ref="8531131607" />
		<nd ref="8531131606" />
		<nd ref="8531131605" />
		<nd ref="8531131604" />
		<nd ref="8531131603" />
		<nd ref="8531131602" />
		<nd ref="8531131601" />
		<nd ref="8531131600" />
		<nd ref="8531131599" />
		<nd ref="8531131618" />
	</way>
	<way id="373213093" version="7" timestamp="2019-12-29T06:17:27Z" changeset="78971553" uid="7589857" user="Marius Geitle_import">
		<tag k="alt_name" v="Øvri Mone;Mone øvri" />
		<tag k="landuse" v="industrial" />
		<tag k="name" v="Rysstad industriområde" />
		<tag k="ssr:stedsnr" v="448999" />
		<tag k="ssr:type" v="industriområde" />
		<nd ref="3767246752" />
		<nd ref="3767246753" />
		<nd ref="3767246754" />
		<nd ref="3767246755" />
		<nd ref="3767246756" />
		<nd ref="3767259457" />
		<nd ref="3767259458" />
		<nd ref="3767259459" />
		<nd ref="3767259460" />
		<nd ref="3767259461" />
		<nd ref="3767259462" />
		<nd ref="3767259463" />
		<nd ref="3767259464" />
		<nd ref="3767259465" />
		<nd ref="3767246752" />
	</way>
	<way id="452060457" version="5" timestamp="2021-03-18T07:44:17Z" changeset="101237689" uid="3497659" user="NKA">
		<tag k="alt_name" v="Hylestad;Kyrkja" />
		<tag k="amenity" v="place_of_worship" />
		<tag k="architect" v="Linstow type / Anders Thorsen Syrtveit" />
		<tag k="building" v="church" />
		<tag k="deanery" v="Otredal" />
		<tag k="denomination" v="lutheran" />
		<tag k="diocese" v="Agder og Telemark" />
		<tag k="hearing_aids" v="yes" />
		<tag k="heritage" v="yes" />
		<tag k="image" v="https://www.kirkebyggdatabasen.no/KBDBweb/getPublicImage.aspx?vedleggId=28910027-DFA5-4745-8095-EC5BA2FB3CD3" />
		<tag k="name" v="Hylestad kyrkje" />
		<tag k="note" v="Soknekirke" />
		<tag k="operator" v="Valle og Hylestad sokneråd" />
		<tag k="parish" v="Valle og Hylestad" />
		<tag k="ref:bygningsnr" v="167961274" />
		<tag k="religion" v="christian" />
		<tag k="ssr:stedsnr" v="668766" />
		<tag k="ssr:type" v="kirke" />
		<tag k="start_date" v="1838" />
		<tag k="toilets" v="no" />
		<tag k="toilets:wheelchair" v="no" />
		<tag k="wikidata" v="Q5070261" />
		<nd ref="8531131505" />
		<nd ref="8531131504" />
		<nd ref="8531131503" />
		<nd ref="8531131502" />
		<nd ref="8531131501" />
		<nd ref="8531131500" />
		<nd ref="8531131499" />
		<nd ref="8531131498" />
		<nd ref="8531131497" />
		<nd ref="8531131496" />
		<nd ref="8531131495" />
		<nd ref="8531131494" />
		<nd ref="8531131505" />
	</way>
	<way id="452060460" version="4" timestamp="2019-12-23T23:21:07Z" changeset="78792367" uid="7589857" user="Marius Geitle_import">
		<tag k="alt_name" v="Nedre Mone;Mone nedre" />
		<tag k="landuse" v="residential" />
		<tag k="name" v="Nedre Rysstadmone" />
		<tag k="ssr:stedsnr" v="569000" />
		<tag k="ssr:type" v="boligfelt" />
		<nd ref="4488604970" />
		<nd ref="4488604969" />
		<nd ref="4488604968" />
		<nd ref="4488604967" />
		<nd ref="4488604966" />
		<nd ref="4488604965" />
		<nd ref="4488604970" />
	</way>
</osm>
