<?xml version="1.0" encoding="UTF-8"?>
<osm generator="osmapis" version="0.6">
	<node id="-18431" lat="59.3648388918" lon="11.33027223">
		<tag k="name" v="Moenmosen" />
		<tag k="natural" v="wetland" />
		<tag k="ssr:stedsnr" v="657674" />
	</node>
	<node id="-18427" lat="59.3435722216" lon="11.3721361195">
		<tag k="name" v="Breimose" />
		<tag k="natural" v="wetland" />
		<tag k="ssr:stedsnr" v="657438" />
	</node>
	<node id="-18423" lat="59.3012666703" lon="11.4632000049">
		<tag k="name" v="Solbrekkmosen" />
		<tag k="natural" v="wetland" />
		<tag k="ssr:stedsnr" v="657354" />
	</node>
	<node id="-18934" lat="59.2896638854" lon="11.5557222233">
		<tag k="name" v="Hivannsmosen" />
		<tag k="natural" v="wetland" />
		<tag k="ssr:stedsnr" v="962989" />
	</node>
	<node id="-17390" lat="59.4282388851" lon="11.4897277696">
		<tag k="name" v="Tjernemosen" />
		<tag k="natural" v="wetland" />
		<tag k="ssr:stedsnr" v="294499" />
	</node>
	<node id="-18921" lat="59.3967972255" lon="11.5232888823">
		<tag k="name" v="Tjærnesmyra" />
		<tag k="natural" v="wetland" />
		<tag k="ssr:stedsnr" v="961794" />
	</node>
	<node id="-17384" lat="59.3293694435" lon="11.5509861033">
		<tag k="name" v="Kilebumosen" />
		<tag k="natural" v="wetland" />
		<tag k="ssr:stedsnr" v="294062" />
	</node>
	<node id="-17381" lat="59.4405222253" lon="11.51825277">
		<tag k="name" v="Gjølstadmosen" />
		<tag k="natural" v="wetland" />
		<tag k="ssr:stedsnr" v="294008" />
	</node>
	<node id="-18915" lat="59.4247611107" lon="11.5772944462">
		<tag k="name" v="Høymyr" />
		<tag k="natural" v="wetland" />
		<tag k="ssr:stedsnr" v="961569" />
	</node>
	<node id="-17378" lat="59.2718638849" lon="11.4020555573">
		<tag k="name" v="Torgermyr" />
		<tag k="natural" v="wetland" />
		<tag k="ssr:stedsnr" v="293727" />
	</node>
	<node id="-17888" lat="59.4343027759" lon="11.4401916713">
		<tag k="name" v="Langemyr" />
		<tag k="natural" v="wetland" />
		<tag k="ssr:stedsnr" v="172543" />
	</node>
	<node id="-17883" lat="59.4148444458" lon="11.4840388817">
		<tag k="name" v="Engsmosen" />
		<tag k="natural" v="wetland" />
		<tag k="ssr:stedsnr" v="172626" />
	</node>
	<node id="-18852" lat="59.3037583305" lon="11.5179694527">
		<tag k="name" v="Lamosen" />
		<tag k="natural" v="wetland" />
		<tag k="ssr:stedsnr" v="913635" />
	</node>
	<node id="-17874" lat="59.4629055546" lon="11.5231500065">
		<tag k="name" v="Berbymosen" />
		<tag k="natural" v="wetland" />
		<tag k="ssr:stedsnr" v="172378" />
	</node>
	<node id="-18889" lat="59.4450416628" lon="11.3393027752">
		<tag k="name" v="Vestre Kåenshagen" />
		<tag k="place" v="locality" />
		<tag k="ssr:stedsnr" v="933659" />
	</node>
	<node id="-17864" lat="59.257758336" lon="11.4647055562">
		<tag k="name" v="Vatnemellommosen" />
		<tag k="natural" v="wetland" />
		<tag k="ssr:stedsnr" v="143879" />
	</node>
	<node id="-18374" lat="59.388386109" lon="11.5209000004">
		<tag k="alt_name" v="Tjærbumosen" />
		<tag k="name" v="Tjerbumosen" />
		<tag k="natural" v="wetland" />
		<tag k="ssr:stedsnr" v="610573" />
	</node>
	<node id="-17569" lat="59.384869442" lon="11.418199997">
		<tag k="name" v="Halemmosen" />
		<tag k="natural" v="wetland" />
		<tag k="ssr:stedsnr" v="475790" />
	</node>
	<node id="-18368" lat="59.3706472256" lon="11.3657500042">
		<tag k="name" v="Sokkemyra" />
		<tag k="natural" v="wetland" />
		<tag k="ssr:stedsnr" v="609829" />
	</node>
	<node id="-17849" lat="59.3440083327" lon="11.3054333348">
		<tag k="name" v="Langmyr" />
		<tag k="natural" v="wetland" />
		<tag k="ssr:stedsnr" v="143301" />
	</node>
	<node id="-17845" lat="59.3156527785" lon="11.3085583334">
		<tag k="name" v="Klokkermyr" />
		<tag k="natural" v="wetland" />
		<tag k="ssr:stedsnr" v="143041" />
	</node>
	<node id="-17838" lat="59.2650694416" lon="11.4824194466">
		<tag k="name" v="Valemosen" />
		<tag k="natural" v="wetland" />
		<tag k="ssr:stedsnr" v="124671" />
	</node>
	<node id="-18343" lat="59.3160222191" lon="11.3566111161">
		<tag k="name" v="Den store myra" />
		<tag k="natural" v="wetland" />
		<tag k="ssr:stedsnr" v="597640" />
	</node>
	<node id="-18340" lat="59.3982249996" lon="11.4952583356">
		<tag k="name" v="Bløtmyra" />
		<tag k="natural" v="wetland" />
		<tag k="ssr:stedsnr" v="597587" />
	</node>
	<node id="-18848" lat="59.4153583339" lon="11.54495555">
		<tag k="name" v="Kråkemosen" />
		<tag k="natural" v="wetland" />
		<tag k="ssr:stedsnr" v="913497" />
	</node>
	<node id="-17822" lat="59.4315499962" lon="11.4196749943">
		<tag k="name" v="Djupedalsmosen" />
		<tag k="natural" v="wetland" />
		<tag k="ssr:stedsnr" v="123183" />
	</node>
	<node id="-17819" lat="59.3086166632" lon="11.3903972137">
		<tag k="landuse" v="meadow" />
		<tag k="name" v="Hestehagen" />
		<tag k="ssr:stedsnr" v="112584" />
	</node>
	<node id="-17818" lat="59.4014361087" lon="11.4476944492">
		<tag k="name" v="Haugstenmosen" />
		<tag k="natural" v="wetland" />
		<tag k="ssr:stedsnr" v="112582" />
	</node>
	<node id="-18839" lat="59.2923972181" lon="11.3420694372">
		<tag k="name" v="Rørmyr" />
		<tag k="natural" v="wetland" />
		<tag k="ssr:stedsnr" v="912973" />
	</node>
	<node id="-17810" lat="59.3284222209" lon="11.5447638809">
		<tag k="name" v="Krokemosen" />
		<tag k="natural" v="wetland" />
		<tag k="ssr:stedsnr" v="112076" />
	</node>
	<node id="-17790" lat="59.4731500026" lon="11.4502694468">
		<tag k="name" v="Kølabonnmosen" />
		<tag k="natural" v="wetland" />
		<tag k="ssr:stedsnr" v="111323" />
	</node>
	<node id="-18804" lat="59.3967583325" lon="11.5925194391">
		<tag k="name" v="Finnpåmyra" />
		<tag k="natural" v="wetland" />
		<tag k="ssr:stedsnr" v="900762" />
	</node>
	<node id="-18357" lat="59.4481083321" lon="11.4638777721">
		<tag k="name" v="Lemmyra" />
		<tag k="natural" v="wetland" />
		<tag k="ssr:stedsnr" v="609186" />
	</node>
	<node id="-17981" lat="59.4581277764" lon="11.513705555">
		<tag k="name" v="Bøensmosen" />
		<tag k="natural" v="wetland" />
		<tag k="ssr:stedsnr" v="233057" />
	</node>
	<node id="-17772" lat="59.3929583326" lon="11.3565388842">
		<tag k="landuse" v="meadow" />
		<tag k="name" v="Skjørtorpenga" />
		<tag k="ssr:stedsnr" v="83559" />
	</node>
	<node id="-18276" lat="59.3755249996" lon="11.4438472248">
		<tag k="name" v="Langemyr" />
		<tag k="natural" v="wetland" />
		<tag k="ssr:stedsnr" v="549855" />
	</node>
	<node id="-18150" lat="59.2941999985" lon="11.4383222223">
		<tag k="landuse" v="quarry" />
		<tag k="name" v="Strykergruvene" />
		<tag k="ssr:stedsnr" v="487979" />
	</node>
	<node id="-18259" lat="59.4177555592" lon="11.5665888869">
		<tag k="name" v="Faremyra" />
		<tag k="natural" v="wetland" />
		<tag k="ssr:stedsnr" v="549500" />
	</node>
	<node id="-18258" lat="59.4029166625" lon="11.5741527818">
		<tag k="name" v="Svenken" />
		<tag k="natural" v="wetland" />
		<tag k="ssr:stedsnr" v="549486" />
	</node>
	<node id="-17891" lat="59.4238222253" lon="11.5412194453">
		<tag k="name" v="Klavetjernmosen" />
		<tag k="natural" v="wetland" />
		<tag k="ssr:stedsnr" v="172581" />
	</node>
	<node id="-18250" lat="59.2563666634" lon="11.5020333331">
		<tag k="name" v="Strykersetermosen" />
		<tag k="natural" v="wetland" />
		<tag k="ssr:stedsnr" v="548732" />
	</node>
	<node id="-17736" lat="59.4483388929" lon="11.4744972285">
		<tag k="name" v="Stråmyr" />
		<tag k="natural" v="wetland" />
		<tag k="ssr:stedsnr" v="63603" />
	</node>
	<node id="-18754" lat="59.3605166633" lon="11.5296888808">
		<tag k="alt_name" v="Breidmosen" />
		<tag k="name" v="Breimosen" />
		<tag k="natural" v="wetland" />
		<tag k="ssr:stedsnr" v="853689" />
	</node>
	<node id="-18748" lat="59.3917416694" lon="11.5814083292">
		<tag k="name" v="Finnpåmosen" />
		<tag k="natural" v="wetland" />
		<tag k="ssr:stedsnr" v="853531" />
	</node>
	<node id="-18746" lat="59.2950749973" lon="11.3390055489">
		<tag k="alt_name" v="Merramyr" />
		<tag k="name" v="Merramyra" />
		<tag k="natural" v="wetland" />
		<tag k="ssr:stedsnr" v="852974" />
	</node>
	<node id="-17710" lat="59.4208305524" lon="11.5440472259">
		<tag k="name" v="Porsetermyra" />
		<tag k="natural" v="wetland" />
		<tag k="ssr:stedsnr" v="51594" />
	</node>
	<node id="-18213" lat="59.3100416695" lon="11.5098972171">
		<tag k="name" v="Gørtjernmosen" />
		<tag k="natural" v="wetland" />
		<tag k="ssr:stedsnr" v="536326" />
	</node>
	<node id="-17698" lat="59.4308361094" lon="11.5211138884">
		<tag k="name" v="Korperudmosen" />
		<tag k="natural" v="wetland" />
		<tag k="ssr:stedsnr" v="51005" />
	</node>
	<node id="-17696" lat="59.3818194415" lon="11.545013883">
		<tag k="name" v="Lajordet" />
		<tag k="place" v="locality" />
		<tag k="ssr:stedsnr" v="50907" />
	</node>
	<node id="-18715" lat="59.3871000012" lon="11.4585138959">
		<tag k="name" v="Brennerijordet" />
		<tag k="place" v="locality" />
		<tag k="ssr:stedsnr" v="840812" />
	</node>
	<node id="-17687" lat="59.3885611136" lon="11.2567694402">
		<tag k="name" v="Gundelsbymosen" />
		<tag k="natural" v="wetland" />
		<tag k="ssr:stedsnr" v="22712" />
	</node>
	<node id="-17683" lat="59.4237083347" lon="11.3528722303">
		<tag k="name" v="Korea" />
		<tag k="place" v="locality" />
		<tag k="ssr:stedsnr" v="22642" />
	</node>
	<node id="-18706" lat="59.3659111087" lon="11.5489972186">
		<tag k="name" v="Svinemyra" />
		<tag k="natural" v="wetland" />
		<tag k="ssr:stedsnr" v="840155" />
	</node>
	<node id="-17681" lat="59.4515777814" lon="11.3468166682">
		<tag k="name" v="Østkåen" />
		<tag k="place" v="locality" />
		<tag k="ssr:stedsnr" v="22614" />
	</node>
	<node id="-17680" lat="59.4571777761" lon="11.3872499981">
		<tag k="name" v="Tue" />
		<tag k="place" v="locality" />
		<tag k="ssr:stedsnr" v="22611" />
	</node>
	<node id="-18191" lat="59.2865027748" lon="11.3678194449">
		<tag k="historic" v="shieling" />
		<tag k="name" v="Fossby" />
		<tag k="place" v="locality" />
		<tag k="ssr:stedsnr" v="508145" />
	</node>
	<node id="-17676" lat="59.4031472182" lon="11.2990833337">
		<tag k="name" v="Sjutthagen" />
		<tag k="place" v="locality" />
		<tag k="ssr:stedsnr" v="22582" />
	</node>
	<node id="-17672" lat="59.4303083354" lon="11.215438888">
		<tag k="name" v="Tittut" />
		<tag k="place" v="locality" />
		<tag k="ssr:stedsnr" v="22522" />
	</node>
	<node id="-18180" lat="59.3958166662" lon="11.3782250068">
		<tag k="name" v="Ringnes" />
		<tag k="place" v="locality" />
		<tag k="ssr:stedsnr" v="507575" />
	</node>
	<node id="-18690" lat="59.4237472212" lon="11.3701972276">
		<tag k="name" v="Mobakken" />
		<tag k="place" v="locality" />
		<tag k="ssr:stedsnr" v="811642" />
	</node>
	<node id="-18687" lat="59.3818111146" lon="11.385588892">
		<tag k="name" v="Klyvstøtta" />
		<tag k="natural" v="stone" />
		<tag k="ssr:stedsnr" v="811604" />
	</node>
	<node id="-17662" lat="59.2899083344" lon="11.3304805584">
		<tag k="name" v="Høykneppemosen" />
		<tag k="natural" v="wetland" />
		<tag k="ssr:stedsnr" v="22143" />
	</node>
	<node id="-18662" lat="59.405605553" lon="11.4851222143">
		<tag k="name" v="Finnestadmosen" />
		<tag k="natural" v="wetland" />
		<tag k="ssr:stedsnr" v="792509" />
	</node>
	<node id="-17444" lat="59.3877472196" lon="11.3903416736">
		<tag k="landuse" v="meadow" />
		<tag k="name" v="Amunddalen" />
		<tag k="ssr:stedsnr" v="325574" />
	</node>
	<node id="-18131" lat="59.3924166637" lon="11.2736055472">
		<tag k="name" v="Grimstadmosen" />
		<tag k="natural" v="wetland" />
		<tag k="ssr:stedsnr" v="447705" />
	</node>
	<node id="-18127" lat="59.4372277779" lon="11.3735861052">
		<tag k="name" v="Rien" />
		<tag k="place" v="locality" />
		<tag k="ssr:stedsnr" v="447625" />
	</node>
	<node id="-18634" lat="59.3838194441" lon="11.5529999991">
		<tag k="name" v="Dammyra" />
		<tag k="natural" v="wetland" />
		<tag k="ssr:stedsnr" v="779921" />
	</node>
	<node id="-18121" lat="59.3841388851" lon="11.3110722171">
		<tag k="name" v="Ytterskogen" />
		<tag k="place" v="locality" />
		<tag k="ssr:stedsnr" v="447551" />
	</node>
	<node id="-18118" lat="59.3548416708" lon="11.3166638883">
		<tag k="name" v="Øverbybråten" />
		<tag k="place" v="locality" />
		<tag k="ssr:stedsnr" v="447310" />
	</node>
	<node id="-18112" lat="59.3279598107" lon="11.3592206169">
		<tag k="name" v="Svartedalsmyra" />
		<tag k="natural" v="wetland" />
		<tag k="ssr:stedsnr" v="428772" />
	</node>
	<node id="-18617" lat="59.403727778" lon="11.5682416673">
		<tag k="name" v="Sevedalsmyra" />
		<tag k="natural" v="wetland" />
		<tag k="ssr:stedsnr" v="779548" />
	</node>
	<node id="-17589" lat="59.4698277819" lon="11.4564722303">
		<tag k="name" v="Merratjernmosen" />
		<tag k="natural" v="wetland" />
		<tag k="ssr:stedsnr" v="476902" />
	</node>
	<node id="-17588" lat="59.4312694401" lon="11.51726667">
		<tag k="name" v="Holtemosen" />
		<tag k="natural" v="wetland" />
		<tag k="ssr:stedsnr" v="476461" />
	</node>
	<node id="-18607" lat="59.3701305565" lon="11.5148805507">
		<tag k="name" v="Dyvelmosen" />
		<tag k="natural" v="wetland" />
		<tag k="ssr:stedsnr" v="779018" />
	</node>
	<node id="-17574" lat="59.3824055584" lon="11.5425583303">
		<tag k="name" v="Myrene" />
		<tag k="natural" v="wetland" />
		<tag k="ssr:stedsnr" v="475926" />
	</node>
	<node id="-18593" lat="59.4060499974" lon="11.3169694414">
		<tag k="name" v="Munkegrava" />
		<tag k="place" v="locality" />
		<tag k="ssr:stedsnr" v="750574" />
	</node>
	<node id="-18586" lat="59.3570000029" lon="11.4325638827">
		<tag k="name" v="Amerika" />
		<tag k="place" v="locality" />
		<tag k="ssr:stedsnr" v="751694" />
	</node>
	<node id="-17561" lat="59.4214361095" lon="11.5795805481">
		<tag k="name" v="Stråmyr" />
		<tag k="natural" v="wetland" />
		<tag k="ssr:stedsnr" v="475575" />
	</node>
	<node id="-18072" lat="59.3497305534" lon="11.3749222235">
		<tag k="name" v="Bakkemosen" />
		<tag k="natural" v="wetland" />
		<tag k="ssr:stedsnr" v="415428" />
	</node>
	<node id="-18286" lat="59.3995444451" lon="11.2832055641">
		<tag k="name" v="Stubberudmyra" />
		<tag k="natural" v="wetland" />
		<tag k="ssr:stedsnr" v="568547" />
	</node>
	<node id="-18058" lat="59.280975001" lon="11.3783361062">
		<tag k="historic" v="shieling" />
		<tag k="name" v="Pissut" />
		<tag k="place" v="locality" />
		<tag k="ssr:stedsnr" v="266165" />
	</node>
	<node id="-17544" lat="59.2980972261" lon="11.4528333387">
		<tag k="name" v="Skammelsrudmosen" />
		<tag k="natural" v="wetland" />
		<tag k="ssr:stedsnr" v="387619" />
	</node>
	<node id="-18047" lat="59.3887805557" lon="11.2823694482">
		<tag k="name" v="Oredalen" />
		<tag k="place" v="locality" />
		<tag k="ssr:stedsnr" v="265591" />
	</node>
	<node id="-17529" lat="59.3036083317" lon="11.3339388899">
		<tag k="name" v="Hysestadmosen" />
		<tag k="natural" v="wetland" />
		<tag k="ssr:stedsnr" v="386045" />
	</node>
	<node id="-18195" lat="59.3018811195" lon="11.4638927387">
		<tag k="name" v="Askemyr" />
		<tag k="natural" v="wetland" />
		<tag k="ssr:stedsnr" v="508653" />
	</node>
	<node id="-18032" lat="59.3438777788" lon="11.2918583346">
		<tag k="name" v="Breimosen" />
		<tag k="natural" v="wetland" />
		<tag k="ssr:stedsnr" v="246720" />
	</node>
	<node id="-18541" lat="59.370200002" lon="11.5511305526">
		<tag k="name" v="Kråkemosen" />
		<tag k="natural" v="wetland" />
		<tag k="ssr:stedsnr" v="719140" />
	</node>
	<node id="-18536" lat="59.3928111146" lon="11.5872694368">
		<tag k="name" v="Hansemyr" />
		<tag k="natural" v="wetland" />
		<tag k="ssr:stedsnr" v="718971" />
	</node>
	<node id="-18530" lat="59.41788333" lon="11.4748833294">
		<tag k="name" v="Skøttmosen" />
		<tag k="natural" v="wetland" />
		<tag k="ssr:stedsnr" v="718599" />
	</node>
	<node id="-18016" lat="59.2561277763" lon="11.5236999937">
		<tag k="name" v="Bislingmosen" />
		<tag k="natural" v="wetland" />
		<tag k="ssr:stedsnr" v="245717" />
	</node>
	<node id="-18518" lat="59.4730722236" lon="11.4100083311">
		<tag k="name" v="Bjørnemyr" />
		<tag k="natural" v="wetland" />
		<tag k="ssr:stedsnr" v="718043" />
	</node>
	<node id="-17763" lat="59.3062111131" lon="11.323966674">
		<tag k="name" v="Råmenta" />
		<tag k="natural" v="wetland" />
		<tag k="ssr:stedsnr" v="83039" />
	</node>
	<node id="-17487" lat="59.4510083308" lon="11.4352222182">
		<tag k="name" v="Svartmosen" />
		<tag k="natural" v="wetland" />
		<tag k="ssr:stedsnr" v="355151" />
	</node>
	<node id="-17485" lat="59.3253138895" lon="11.5720972256">
		<tag k="name" v="Skjellandet" />
		<tag k="natural" v="wetland" />
		<tag k="ssr:stedsnr" v="355062" />
	</node>
	<node id="-17484" lat="59.3837138929" lon="11.4373111031">
		<tag k="name" v="Kampesten" />
		<tag k="natural" v="stone" />
		<tag k="ssr:stedsnr" v="354932" />
	</node>
	<node id="-17994" lat="59.315411107" lon="11.3616305542">
		<tag k="name" v="Allemannsten" />
		<tag k="natural" v="stone" />
		<tag k="ssr:stedsnr" v="233659" />
	</node>
	<node id="-18504" lat="59.3838805527" lon="11.385263887">
		<tag k="name" v="Skisødegård" />
		<tag k="place" v="locality" />
		<tag k="ssr:stedsnr" v="690659" />
	</node>
	<node id="-17991" lat="59.4049055556" lon="11.5433638832">
		<tag k="name" v="Bjørnemyra" />
		<tag k="natural" v="wetland" />
		<tag k="ssr:stedsnr" v="233613" />
	</node>
	<node id="-18330" lat="59.2931277753" lon="11.5732666705">
		<tag k="name" v="Femmannssten" />
		<tag k="natural" v="stone" />
		<tag k="ssr:stedsnr" v="597361" />
	</node>
	<node id="-17474" lat="59.3327527741" lon="11.3386249931">
		<tag k="name" v="Vintermosen" />
		<tag k="natural" v="wetland" />
		<tag k="ssr:stedsnr" v="354634" />
	</node>
	<node id="-17983" lat="59.3077916639" lon="11.3463444529">
		<tag k="name" v="Gørmyr" />
		<tag k="natural" v="wetland" />
		<tag k="ssr:stedsnr" v="233125" />
	</node>
	<node id="-18493" lat="59.3868999996" lon="11.3876305495">
		<tag k="landuse" v="meadow" />
		<tag k="name" v="Sekkevollen" />
		<tag k="ssr:stedsnr" v="690616" />
	</node>
	<node id="-17975" lat="59.3608944473" lon="11.3612555607">
		<tag k="name" v="Krosbymosen" />
		<tag k="natural" v="wetland" />
		<tag k="ssr:stedsnr" v="232781" />
	</node>
	<node id="-17446" lat="59.410061107" lon="11.3656694463">
		<tag k="name" v="Kirkelund" />
		<tag k="place" v="locality" />
		<tag k="ssr:stedsnr" v="325585" />
	</node>
	<node id="-17956" lat="59.4245472192" lon="11.3744805541">
		<tag k="name" v="Hestehagen" />
		<tag k="place" v="locality" />
		<tag k="ssr:stedsnr" v="204621" />
	</node>
	<node id="-17948" lat="59.4119638923" lon="11.3577944478">
		<tag k="name" v="Galgemyrene" />
		<tag k="place" v="locality" />
		<tag k="ssr:stedsnr" v="204543" />
	</node>
	<node id="-17666" lat="59.3480055571" lon="11.3233722187">
		<tag k="name" v="Vingsmosen" />
		<tag k="natural" v="wetland" />
		<tag k="ssr:stedsnr" v="22312" />
	</node>
	<node id="-18439" lat="59.3909833309" lon="11.4232500004">
		<tag k="name" v="Delimosen" />
		<tag k="natural" v="wetland" />
		<tag k="ssr:stedsnr" v="657768" />
	</node>
	<node id="-18433" lat="59.4065611117" lon="11.2377055589">
		<tag k="name" v="Tørkopp" />
		<tag k="natural" v="wetland" />
		<tag k="ssr:stedsnr" v="657699" />
	</node>
</osm>
