<?xml version="1.0" encoding="UTF-8"?>
<osm generator="osmapis" version="0.6">
	<node id="-18432" lat="59.2582888931" lon="11.4069638874">
		<tag k="name" v="Børkedalen" />
		<tag k="natural" v="valley" />
		<tag k="place" v="locality" />
		<tag k="ssr:stedsnr" v="629882" />
	</node>
	<node id="-17919" lat="59.2532277767" lon="11.5105916714">
		<tag k="fixme" v="consider natural=peak for the most distinct mountains in the district" />
		<tag k="name" v="Bislingnuten" />
		<tag k="natural" v="hill" />
		<tag k="place" v="locality" />
		<tag k="ssr:stedsnr" v="173951" />
	</node>
	<node id="-18942" lat="59.3939083375" lon="11.5428722287">
		<tag k="name" v="Gatemoen" />
		<tag k="place" v="locality" />
		<tag k="ssr:stedsnr" v="961805" />
	</node>
	<node id="-17916" lat="59.3570305584" lon="11.361355559">
		<tag k="fixme" v="consider natural=peak for the most distinct mountains in the district" />
		<tag k="name" v="Fjøshytteåsen" />
		<tag k="natural" v="hill" />
		<tag k="place" v="locality" />
		<tag k="ssr:stedsnr" v="172843" />
	</node>
	<node id="-18427" lat="59.3703694455" lon="11.4671361107">
		<tag k="name" v="Tullopp" />
		<tag k="place" v="locality" />
		<tag k="ssr:stedsnr" v="629680" />
	</node>
	<node id="-18422" lat="59.3255027772" lon="11.4590305526">
		<tag k="name" v="Hansedalen" />
		<tag k="natural" v="valley" />
		<tag k="place" v="locality" />
		<tag k="ssr:stedsnr" v="629639" />
	</node>
	<node id="-18927" lat="59.45456389" lon="11.4806861094">
		<tag k="fixme" v="consider natural=peak for the most distinct mountains in the district" />
		<tag k="name" v="Presttjernhøyda" />
		<tag k="natural" v="hill" />
		<tag k="place" v="locality" />
		<tag k="ssr:stedsnr" v="961051" />
	</node>
	<node id="-18413" lat="59.4027583352" lon="11.3921777786">
		<tag k="fixme" v="consider natural=peak for the most distinct mountains in the district" />
		<tag k="name" v="Filtvetåsen" />
		<tag k="natural" v="hill" />
		<tag k="place" v="locality" />
		<tag k="ssr:stedsnr" v="629570" />
	</node>
	<node id="-18408" lat="59.2937472234" lon="11.3330972218">
		<tag k="name" v="Bjørnsten" />
		<tag k="natural" v="hill" />
		<tag k="place" v="locality" />
		<tag k="ssr:stedsnr" v="629047" />
	</node>
	<node id="-18918" lat="59.3581166658" lon="11.4536777773">
		<tag k="fixme" v="consider natural=peak for the most distinct mountains in the district" />
		<tag k="name" v="Skalleåsen" />
		<tag k="natural" v="hill" />
		<tag k="place" v="locality" />
		<tag k="ssr:stedsnr" v="933705" />
	</node>
	<node id="-18915" lat="59.3260638887" lon="11.5048972146">
		<tag k="fixme" v="consider natural=peak for the most distinct mountains in the district" />
		<tag k="name" v="Sagåsen" />
		<tag k="natural" v="hill" />
		<tag k="place" v="locality" />
		<tag k="ssr:stedsnr" v="933673" />
	</node>
	<node id="-18914" lat="59.3196805573" lon="11.4735916708">
		<tag k="fixme" v="consider natural=peak for the most distinct mountains in the district" />
		<tag k="name" v="Lundeåsen" />
		<tag k="natural" v="hill" />
		<tag k="place" v="locality" />
		<tag k="ssr:stedsnr" v="933672" />
	</node>
	<node id="-17403" lat="59.4573777759" lon="11.4739055611">
		<tag k="fixme" v="consider natural=peak for the most distinct mountains in the district" />
		<tag k="name" v="Tjoremyrhøyda" />
		<tag k="natural" v="hill" />
		<tag k="place" v="locality" />
		<tag k="ssr:stedsnr" v="294034" />
	</node>
	<node id="-18912" lat="59.3042309112" lon="11.4750541476">
		<tag k="name" v="Hellerdalen" />
		<tag k="natural" v="valley" />
		<tag k="place" v="locality" />
		<tag k="ssr:stedsnr" v="933666" />
	</node>
	<node id="-17573" lat="59.3708333378" lon="11.549577777">
		<tag k="name" v="Harelia" />
		<tag k="natural" v="slope" />
		<tag k="place" v="locality" />
		<tag k="ssr:stedsnr" v="475123" />
	</node>
	<node id="-18396" lat="59.3246138873" lon="11.5201833336">
		<tag k="fixme" v="multiple name tags, choose one and add the other to alt_name; consider natural=peak for the most distinct mountains in the district" />
		<tag k="name" v="Ådalsåsen;Seteråsen" />
		<tag k="natural" v="hill" />
		<tag k="place" v="locality" />
		<tag k="ssr:stedsnr" v="610647" />
	</node>
	<node id="-17487" lat="59.3413500035" lon="11.3664583395">
		<tag k="fixme" v="consider natural=peak for the most distinct mountains in the district" />
		<tag k="name" v="Latåsen" />
		<tag k="natural" v="hill" />
		<tag k="place" v="locality" />
		<tag k="ssr:stedsnr" v="354446" />
	</node>
	<node id="-18903" lat="59.3922527791" lon="11.3356166617">
		<tag k="fixme" v="consider natural=peak for the most distinct mountains in the district" />
		<tag k="name" v="Sadelmakeråsen" />
		<tag k="natural" v="hill" />
		<tag k="place" v="locality" />
		<tag k="ssr:stedsnr" v="933598" />
	</node>
	<node id="-18900" lat="59.3567861131" lon="11.3227499934">
		<tag k="fixme" v="consider natural=peak for the most distinct mountains in the district" />
		<tag k="name" v="Sparreåsen" />
		<tag k="natural" v="hill" />
		<tag k="place" v="locality" />
		<tag k="ssr:stedsnr" v="933361" />
	</node>
	<node id="-18899" lat="59.2811611145" lon="11.386755564">
		<tag k="fixme" v="consider natural=peak for the most distinct mountains in the district" />
		<tag k="name" v="Ørnåsen" />
		<tag k="natural" v="hill" />
		<tag k="place" v="locality" />
		<tag k="ssr:stedsnr" v="933149" />
	</node>
	<node id="-17873" lat="59.4081444419" lon="11.2964805535">
		<tag k="fixme" v="consider natural=peak for the most distinct mountains in the district" />
		<tag k="name" v="Lauvdalsåsen" />
		<tag k="natural" v="hill" />
		<tag k="place" v="locality" />
		<tag k="ssr:stedsnr" v="143535" />
	</node>
	<node id="-17872" lat="59.4179416706" lon="11.3017055571">
		<tag k="name" v="Stendalen" />
		<tag k="natural" v="valley" />
		<tag k="place" v="locality" />
		<tag k="ssr:stedsnr" v="143528" />
	</node>
	<node id="-18895" lat="59.3285555588" lon="11.3281500002">
		<tag k="fixme" v="consider natural=peak for the most distinct mountains in the district" />
		<tag k="name" v="Horntjernåsen" />
		<tag k="natural" v="hill" />
		<tag k="place" v="locality" />
		<tag k="ssr:stedsnr" v="914790" />
	</node>
	<node id="-17868" lat="59.3556666667" lon="11.2682666615">
		<tag k="fixme" v="consider natural=peak for the most distinct mountains in the district" />
		<tag k="name" v="Brennfjell" />
		<tag k="natural" v="hill" />
		<tag k="place" v="locality" />
		<tag k="ssr:stedsnr" v="143295" />
	</node>
	<node id="-18252" lat="59.2796249979" lon="11.5530388938">
		<tag k="name" v="Murerkleiva" />
		<tag k="place" v="locality" />
		<tag k="ssr:stedsnr" v="537980" />
	</node>
	<node id="-18885" lat="59.3930138908" lon="11.278325006">
		<tag k="fixme" v="consider natural=peak for the most distinct mountains in the district" />
		<tag k="name" v="Grimstadåsen" />
		<tag k="natural" v="hill" />
		<tag k="place" v="locality" />
		<tag k="ssr:stedsnr" v="913817" />
	</node>
	<node id="-17860" lat="59.3563999978" lon="11.2795000016">
		<tag k="name" v="Styggedalen" />
		<tag k="natural" v="valley" />
		<tag k="place" v="locality" />
		<tag k="ssr:stedsnr" v="124727" />
	</node>
	<node id="-18371" lat="59.4636138865" lon="11.4380000061">
		<tag k="fixme" v="consider natural=peak for the most distinct mountains in the district" />
		<tag k="name" v="Midtås" />
		<tag k="natural" v="hill" />
		<tag k="place" v="locality" />
		<tag k="ssr:stedsnr" v="608213" />
	</node>
	<node id="-18882" lat="59.3453138861" lon="11.2950416686">
		<tag k="fixme" v="consider natural=peak for the most distinct mountains in the district" />
		<tag k="name" v="Hensåsen" />
		<tag k="natural" v="hill" />
		<tag k="place" v="locality" />
		<tag k="ssr:stedsnr" v="913787" />
	</node>
	<node id="-18364" lat="59.2669472226" lon="11.552686109">
		<tag k="name" v="Slaveruddalen" />
		<tag k="natural" v="valley" />
		<tag k="place" v="locality" />
		<tag k="ssr:stedsnr" v="597985" />
	</node>
	<node id="-17851" lat="59.3201499989" lon="11.3484777756">
		<tag k="alt_name" v="Brenna" />
		<tag k="fixme" v="consider natural=peak for the most distinct mountains in the district" />
		<tag k="name" v="Brennåsen" />
		<tag k="natural" v="hill" />
		<tag k="place" v="locality" />
		<tag k="ssr:stedsnr" v="123969" />
	</node>
	<node id="-18079" lat="59.2824361153" lon="11.3862305644">
		<tag k="name" v="Engsmoen" />
		<tag k="place" v="locality" />
		<tag k="ssr:stedsnr" v="266164" />
	</node>
	<node id="-18358" lat="59.4045333352" lon="11.4734666592">
		<tag k="fixme" v="consider natural=peak for the most distinct mountains in the district" />
		<tag k="name" v="Rambergkollen" />
		<tag k="natural" v="hill" />
		<tag k="place" v="locality" />
		<tag k="ssr:stedsnr" v="597583" />
	</node>
	<node id="-18356" lat="59.4355777745" lon="11.4917305596">
		<tag k="fixme" v="consider natural=peak for the most distinct mountains in the district" />
		<tag k="name" v="Tjernemosehøgda" />
		<tag k="natural" v="hill" />
		<tag k="place" v="locality" />
		<tag k="ssr:stedsnr" v="597483" />
	</node>
	<node id="-17967" lat="59.3271694423" lon="11.307813897">
		<tag k="name" v="Kubakken" />
		<tag k="natural" v="slope" />
		<tag k="place" v="locality" />
		<tag k="ssr:stedsnr" v="204034" />
	</node>
	<node id="-17821" lat="59.3861333299" lon="11.4357777764">
		<tag k="fixme" v="consider natural=peak for the most distinct mountains in the district" />
		<tag k="name" v="Det store røs" />
		<tag k="natural" v="hill" />
		<tag k="place" v="locality" />
		<tag k="ssr:stedsnr" v="111911" />
	</node>
	<node id="-17835" lat="59.4161083289" lon="11.5146250079">
		<tag k="fixme" v="consider natural=peak for the most distinct mountains in the district" />
		<tag k="name" v="Røsås" />
		<tag k="natural" v="hill" />
		<tag k="place" v="locality" />
		<tag k="ssr:stedsnr" v="112549" />
	</node>
	<node id="-18247" lat="59.3561008043" lon="11.5524004034">
		<tag k="name" v="Dansemoen" />
		<tag k="place" v="locality" />
		<tag k="ssr:stedsnr" v="537176" />
	</node>
	<node id="-17832" lat="59.3547305537" lon="11.5126694414">
		<tag k="fixme" v="consider natural=peak for the most distinct mountains in the district" />
		<tag k="name" v="Teppeåsen" />
		<tag k="natural" v="hill" />
		<tag k="place" v="locality" />
		<tag k="ssr:stedsnr" v="112187" />
	</node>
	<node id="-18855" lat="59.2796500005" lon="11.3565222149">
		<tag k="fixme" v="consider natural=peak for the most distinct mountains in the district" />
		<tag k="name" v="Nattjernfjellet" />
		<tag k="natural" v="hill" />
		<tag k="place" v="locality" />
		<tag k="ssr:stedsnr" v="912898" />
	</node>
	<node id="-17649" lat="59.2872361076" lon="11.3277888815">
		<tag k="fixme" v="consider natural=peak for the most distinct mountains in the district" />
		<tag k="name" v="Høgnipen" />
		<tag k="natural" v="hill" />
		<tag k="place" v="locality" />
		<tag k="ssr:stedsnr" v="2891" />
	</node>
	<node id="-18339" lat="59.3958888893" lon="11.4160250052">
		<tag k="fixme" v="consider natural=peak for the most distinct mountains in the district" />
		<tag k="name" v="Vestliåsen" />
		<tag k="natural" v="hill" />
		<tag k="place" v="locality" />
		<tag k="ssr:stedsnr" v="596793" />
	</node>
	<node id="-18337" lat="59.3596027749" lon="11.2870138945">
		<tag k="fixme" v="consider natural=peak for the most distinct mountains in the district" />
		<tag k="name" v="Hensfjellet" />
		<tag k="natural" v="hill" />
		<tag k="place" v="locality" />
		<tag k="ssr:stedsnr" v="596684" />
	</node>
	<node id="-18336" lat="59.3629916635" lon="11.337608339">
		<tag k="name" v="Kalveløkka" />
		<tag k="place" v="locality" />
		<tag k="ssr:stedsnr" v="596674" />
	</node>
	<node id="-18334" lat="59.3208305525" lon="11.368986114">
		<tag k="name" v="Geiteklemma" />
		<tag k="place" v="locality" />
		<tag k="ssr:stedsnr" v="596395" />
	</node>
	<node id="-18333" lat="59.4710944438" lon="11.4910638829">
		<tag k="name" v="Kjørelhaugen" />
		<tag k="natural" v="hill" />
		<tag k="place" v="locality" />
		<tag k="ssr:stedsnr" v="596319" />
	</node>
	<node id="-17820" lat="59.3813026068" lon="11.505172944">
		<tag k="name" v="Buttelhullet" />
		<tag k="old_name" v="Buttehullet" />
		<tag k="place" v="locality" />
		<tag k="ssr:stedsnr" v="111905" />
	</node>
	<node id="-18331" lat="59.4664388848" lon="11.4508055626">
		<tag k="fixme" v="consider natural=peak for the most distinct mountains in the district" />
		<tag k="name" v="Østre Tiurås" />
		<tag k="natural" v="hill" />
		<tag k="place" v="locality" />
		<tag k="ssr:stedsnr" v="596080" />
	</node>
	<node id="-18330" lat="59.4787444423" lon="11.4239027726">
		<tag k="fixme" v="consider natural=peak for the most distinct mountains in the district" />
		<tag k="name" v="Holteåsen" />
		<tag k="natural" v="hill" />
		<tag k="place" v="locality" />
		<tag k="ssr:stedsnr" v="596019" />
	</node>
	<node id="-18329" lat="59.3762179433" lon="11.3879153417">
		<tag k="name" v="Reierhaugen" />
		<tag k="natural" v="hill" />
		<tag k="place" v="locality" />
		<tag k="ssr:stedsnr" v="596008" />
	</node>
	<node id="-18839" lat="59.4429777819" lon="11.4747749954">
		<tag k="fixme" v="consider natural=peak for the most distinct mountains in the district" />
		<tag k="name" v="Hostenshøyda" />
		<tag k="natural" v="hill" />
		<tag k="place" v="locality" />
		<tag k="ssr:stedsnr" v="901125" />
	</node>
	<node id="-18837" lat="59.4543138852" lon="11.5412694368">
		<tag k="name" v="Haugstenvannsdalen" />
		<tag k="natural" v="valley" />
		<tag k="place" v="locality" />
		<tag k="ssr:stedsnr" v="901084" />
	</node>
	<node id="-18836" lat="59.3656277761" lon="11.5065583281">
		<tag k="name" v="Hasselkleva" />
		<tag k="natural" v="slope" />
		<tag k="place" v="locality" />
		<tag k="ssr:stedsnr" v="901009" />
	</node>
	<node id="-17811" lat="59.3212972263" lon="11.3718833377">
		<tag k="name" v="Jonebråtedalen" />
		<tag k="natural" v="valley" />
		<tag k="place" v="locality" />
		<tag k="ssr:stedsnr" v="111392" />
	</node>
	<node id="-18322" lat="59.2927583294" lon="11.48741944">
		<tag k="fixme" v="consider natural=peak for the most distinct mountains in the district" />
		<tag k="name" v="Vardås" />
		<tag k="natural" v="hill" />
		<tag k="place" v="locality" />
		<tag k="ssr:stedsnr" v="569618" />
	</node>
	<node id="-17809" lat="59.4645638852" lon="11.4486944435">
		<tag k="fixme" v="consider natural=peak for the most distinct mountains in the district" />
		<tag k="name" v="Østbyseterhøyda" />
		<tag k="natural" v="hill" />
		<tag k="place" v="locality" />
		<tag k="ssr:stedsnr" v="111086" />
	</node>
	<node id="-18320" lat="59.3982944418" lon="11.2551999938">
		<tag k="fixme" v="consider natural=peak for the most distinct mountains in the district" />
		<tag k="name" v="Kopperudåsen" />
		<tag k="natural" v="hill" />
		<tag k="place" v="locality" />
		<tag k="ssr:stedsnr" v="568715" />
	</node>
	<node id="-18319" lat="59.3811749984" lon="11.2779916741">
		<tag k="fixme" v="consider natural=peak for the most distinct mountains in the district" />
		<tag k="name" v="Gautestadåsen" />
		<tag k="natural" v="hill" />
		<tag k="place" v="locality" />
		<tag k="ssr:stedsnr" v="568712" />
	</node>
	<node id="-18829" lat="59.3644083337" lon="11.3561833306">
		<tag k="name" v="Smieåsen" />
		<tag k="natural" v="hill" />
		<tag k="place" v="locality" />
		<tag k="ssr:stedsnr" v="900802" />
	</node>
	<node id="-18828" lat="59.3687694416" lon="11.3485666677">
		<tag k="fixme" v="consider natural=peak for the most distinct mountains in the district" />
		<tag k="name" v="Brenteåsen" />
		<tag k="natural" v="hill" />
		<tag k="place" v="locality" />
		<tag k="ssr:stedsnr" v="900794" />
	</node>
	<node id="-17474" lat="59.3455138882" lon="11.4797361072">
		<tag k="name" v="Kinneren" />
		<tag k="place" v="locality" />
		<tag k="ssr:stedsnr" v="326687" />
	</node>
	<node id="-17802" lat="59.2745888846" lon="11.3675333367">
		<tag k="name" v="Nattjerndalen" />
		<tag k="natural" v="valley" />
		<tag k="place" v="locality" />
		<tag k="ssr:stedsnr" v="84172" />
	</node>
	<node id="-18825" lat="59.3930888881" lon="11.5558472165">
		<tag k="name" v="Sevedalen" />
		<tag k="natural" v="valley" />
		<tag k="place" v="locality" />
		<tag k="ssr:stedsnr" v="900766" />
	</node>
	<node id="-17800" lat="59.2637472193" lon="11.4769500055">
		<tag k="name" v="Bjørndalen" />
		<tag k="natural" v="valley" />
		<tag k="place" v="locality" />
		<tag k="ssr:stedsnr" v="83890" />
	</node>
	<node id="-17727" lat="59.3401611089" lon="11.3427749939">
		<tag k="name" v="Vardeåsdalen" />
		<tag k="natural" v="valley" />
		<tag k="place" v="locality" />
		<tag k="ssr:stedsnr" v="51471" />
	</node>
	<node id="-18820" lat="59.4162499956" lon="11.561841665">
		<tag k="name" v="Handrekkdalen" />
		<tag k="natural" v="valley" />
		<tag k="place" v="locality" />
		<tag k="ssr:stedsnr" v="900582" />
	</node>
	<node id="-17795" lat="59.4032944453" lon="11.3211138935">
		<tag k="fixme" v="consider natural=peak for the most distinct mountains in the district" />
		<tag k="name" v="Slottåsen" />
		<tag k="natural" v="hill" />
		<tag k="place" v="locality" />
		<tag k="ssr:stedsnr" v="83570" />
	</node>
	<node id="-17794" lat="59.4038277786" lon="11.2860972237">
		<tag k="fixme" v="consider natural=peak for the most distinct mountains in the district" />
		<tag k="name" v="Gråmerråsen" />
		<tag k="natural" v="hill" />
		<tag k="place" v="locality" />
		<tag k="ssr:stedsnr" v="83568" />
	</node>
	<node id="-18816" lat="59.4659222226" lon="11.4138583377">
		<tag k="name" v="Stordalen" />
		<tag k="natural" v="valley" />
		<tag k="place" v="locality" />
		<tag k="ssr:stedsnr" v="900138" />
	</node>
	<node id="-17813" lat="59.410391669" lon="11.5120333301">
		<tag k="name" v="Rivoppdalen" />
		<tag k="natural" v="valley" />
		<tag k="place" v="locality" />
		<tag k="ssr:stedsnr" v="111565" />
	</node>
	<node id="-17788" lat="59.3735916638" lon="11.4934027713">
		<tag k="fixme" v="consider natural=peak for the most distinct mountains in the district" />
		<tag k="name" v="Ulveåsen" />
		<tag k="natural" v="hill" />
		<tag k="place" v="locality" />
		<tag k="ssr:stedsnr" v="83671" />
	</node>
	<node id="-18810" lat="59.3669583293" lon="11.391316673">
		<tag k="name" v="Møllerhaugen" />
		<tag k="natural" v="hill" />
		<tag k="place" v="locality" />
		<tag k="ssr:stedsnr" v="900002" />
	</node>
	<node id="-18297" lat="59.3303805573" lon="11.3221777762">
		<tag k="name" v="Skatsdalen" />
		<tag k="natural" v="valley" />
		<tag k="place" v="locality" />
		<tag k="ssr:stedsnr" v="568027" />
	</node>
	<node id="-17812" lat="59.3468583341" lon="11.3390499969">
		<tag k="fixme" v="consider natural=peak for the most distinct mountains in the district" />
		<tag k="name" v="Høyås" />
		<tag k="natural" v="hill" />
		<tag k="place" v="locality" />
		<tag k="ssr:stedsnr" v="111413" />
	</node>
	<node id="-18803" lat="59.3540138903" lon="11.4772222143">
		<tag k="fixme" v="consider natural=peak for the most distinct mountains in the district" />
		<tag k="name" v="Åmotåsen" />
		<tag k="natural" v="hill" />
		<tag k="place" v="locality" />
		<tag k="ssr:stedsnr" v="872689" />
	</node>
	<node id="-18287" lat="59.2676333345" lon="11.4723916696">
		<tag k="fixme" v="consider natural=peak for the most distinct mountains in the district" />
		<tag k="name" v="Greåkeråsen" />
		<tag k="natural" v="hill" />
		<tag k="place" v="locality" />
		<tag k="ssr:stedsnr" v="549701" />
	</node>
	<node id="-18797" lat="59.3826722232" lon="11.3628472146">
		<tag k="name" v="Hukedalen" />
		<tag k="natural" v="valley" />
		<tag k="place" v="locality" />
		<tag k="ssr:stedsnr" v="872639" />
	</node>
	<node id="-18794" lat="59.4201722258" lon="11.3547055509">
		<tag k="name" v="Bergenhuskleiva" />
		<tag k="natural" v="slope" />
		<tag k="place" v="locality" />
		<tag k="ssr:stedsnr" v="872609" />
	</node>
	<node id="-17726" lat="59.3621305576" lon="11.3499555603">
		<tag k="name" v="Skrabben" />
		<tag k="natural" v="hill" />
		<tag k="place" v="locality" />
		<tag k="ssr:stedsnr" v="51457" />
	</node>
	<node id="-17468" lat="59.3283111142" lon="11.3215555482">
		<tag k="name" v="Harebakken" />
		<tag k="natural" v="slope" />
		<tag k="place" v="locality" />
		<tag k="ssr:stedsnr" v="326031" />
	</node>
	<node id="-17764" lat="59.2704749975" lon="11.3679250068">
		<tag k="fixme" v="consider natural=peak for the most distinct mountains in the district" />
		<tag k="name" v="Grimsrudfjellet" />
		<tag k="natural" v="hill" />
		<tag k="place" v="locality" />
		<tag k="ssr:stedsnr" v="63873" />
	</node>
	<node id="-18787" lat="59.3671861081" lon="11.2662444379">
		<tag k="fixme" v="consider natural=peak for the most distinct mountains in the district" />
		<tag k="name" v="Rudhyttåsen" />
		<tag k="natural" v="hill" />
		<tag k="place" v="locality" />
		<tag k="ssr:stedsnr" v="853852" />
	</node>
	<node id="-17755" lat="59.3839750037" lon="11.5279000001">
		<tag k="fixme" v="consider natural=peak for the most distinct mountains in the district" />
		<tag k="name" v="Erikshøgda" />
		<tag k="natural" v="hill" />
		<tag k="place" v="locality" />
		<tag k="ssr:stedsnr" v="63565" />
	</node>
	<node id="-18266" lat="59.4565055512" lon="11.4026972227">
		<tag k="fixme" v="consider natural=peak for the most distinct mountains in the district" />
		<tag k="name" v="Utsikten" />
		<tag k="natural" v="hill" />
		<tag k="place" v="locality" />
		<tag k="ssr:stedsnr" v="548244" />
	</node>
	<node id="-18772" lat="59.3657166682" lon="11.5830583314">
		<tag k="fixme" v="consider natural=peak for the most distinct mountains in the district" />
		<tag k="name" v="Linnekleppen" />
		<tag k="natural" v="hill" />
		<tag k="place" v="locality" />
		<tag k="ssr:stedsnr" v="853678" />
	</node>
	<node id="-18769" lat="59.3316555549" lon="11.5290222284">
		<tag k="fixme" v="consider natural=peak for the most distinct mountains in the district" />
		<tag k="name" v="Brattåsen" />
		<tag k="natural" v="hill" />
		<tag k="place" v="locality" />
		<tag k="ssr:stedsnr" v="853602" />
	</node>
	<node id="-17948" lat="59.2979305514" lon="11.427500005">
		<tag k="fixme" v="consider natural=peak for the most distinct mountains in the district" />
		<tag k="name" v="Julsrudkollen" />
		<tag k="natural" v="hill" />
		<tag k="place" v="locality" />
		<tag k="ssr:stedsnr" v="184994" />
	</node>
	<node id="-17740" lat="59.4663749968" lon="11.4108000046">
		<tag k="fixme" v="consider natural=peak for the most distinct mountains in the district" />
		<tag k="name" v="Festningshøgda" />
		<tag k="natural" v="hill" />
		<tag k="place" v="locality" />
		<tag k="ssr:stedsnr" v="63029" />
	</node>
	<node id="-17890" lat="59.4698083339" lon="11.4455250016">
		<tag k="fixme" v="consider natural=peak for the most distinct mountains in the district" />
		<tag k="name" v="Vestre Tiurås" />
		<tag k="natural" v="hill" />
		<tag k="place" v="locality" />
		<tag k="ssr:stedsnr" v="172084" />
	</node>
	<node id="-17737" lat="59.2649944436" lon="11.5413972146">
		<tag k="fixme" v="consider natural=peak for the most distinct mountains in the district" />
		<tag k="name" v="Bjørtjernshøgda" />
		<tag k="natural" v="hill" />
		<tag k="place" v="locality" />
		<tag k="ssr:stedsnr" v="52973" />
	</node>
	<node id="-18759" lat="59.3993500034" lon="11.2217999981">
		<tag k="fixme" v="consider natural=peak for the most distinct mountains in the district" />
		<tag k="name" v="Hedenåsen" />
		<tag k="natural" v="hill" />
		<tag k="place" v="locality" />
		<tag k="ssr:stedsnr" v="852823" />
	</node>
	<node id="-17734" lat="59.3359277797" lon="11.5715277724">
		<tag k="fixme" v="consider natural=peak for the most distinct mountains in the district" />
		<tag k="name" v="Seteråsen" />
		<tag k="natural" v="hill" />
		<tag k="place" v="locality" />
		<tag k="ssr:stedsnr" v="52164" />
	</node>
	<node id="-18245" lat="59.3317666704" lon="11.5592194452">
		<tag k="fixme" v="consider natural=peak for the most distinct mountains in the district" />
		<tag k="name" v="Kilebuåsen" />
		<tag k="natural" v="hill" />
		<tag k="place" v="locality" />
		<tag k="ssr:stedsnr" v="537068" />
	</node>
	<node id="-18752" lat="59.4580583368" lon="11.4208833391">
		<tag k="name" v="Stordalen" />
		<tag k="natural" v="valley" />
		<tag k="place" v="locality" />
		<tag k="ssr:stedsnr" v="852251" />
	</node>
	<node id="-18751" lat="59.457325002" lon="11.4354388861">
		<tag k="fixme" v="consider natural=peak for the most distinct mountains in the district" />
		<tag k="name" v="Gåseflohøgda" />
		<tag k="natural" v="hill" />
		<tag k="place" v="locality" />
		<tag k="ssr:stedsnr" v="852250" />
	</node>
	<node id="-18238" lat="59.317586107" lon="11.3763333253">
		<tag k="name" v="Melkebakke" />
		<tag k="natural" v="slope" />
		<tag k="place" v="locality" />
		<tag k="ssr:stedsnr" v="536618" />
	</node>
	<node id="-18236" lat="59.3553861145" lon="11.3478166652">
		<tag k="name" v="Brenna" />
		<tag k="natural" v="hill" />
		<tag k="place" v="locality" />
		<tag k="ssr:stedsnr" v="536384" />
	</node>
	<node id="-17720" lat="59.4357444486" lon="11.5565083304">
		<tag k="fixme" v="consider natural=peak for the most distinct mountains in the district" />
		<tag k="name" v="Frønehøyda" />
		<tag k="natural" v="hill" />
		<tag k="place" v="locality" />
		<tag k="ssr:stedsnr" v="51010" />
	</node>
	<node id="-18230" lat="59.460511107" lon="11.4759861038">
		<tag k="fixme" v="consider natural=peak for the most distinct mountains in the district" />
		<tag k="name" v="Langvassåsen" />
		<tag k="natural" v="hill" />
		<tag k="place" v="locality" />
		<tag k="ssr:stedsnr" v="536039" />
	</node>
	<node id="-17717" lat="59.3786138898" lon="11.4545000047">
		<tag k="name" v="Buhaugen" />
		<tag k="natural" v="hill" />
		<tag k="place" v="locality" />
		<tag k="ssr:stedsnr" v="50927" />
	</node>
	<node id="-17715" lat="59.391347225" lon="11.4571833402">
		<tag k="alt_name" v="Jernfethaugen østre" />
		<tag k="name" v="Østre Jernfethaugen" />
		<tag k="natural" v="hill" />
		<tag k="place" v="locality" />
		<tag k="ssr:stedsnr" v="50803" />
	</node>
	<node id="-18738" lat="59.4416083328" lon="11.4430833343">
		<tag k="fixme" v="consider natural=peak for the most distinct mountains in the district" />
		<tag k="name" v="Dypedalsåsen" />
		<tag k="natural" v="hill" />
		<tag k="place" v="locality" />
		<tag k="ssr:stedsnr" v="841142" />
	</node>
	<node id="-18736" lat="59.3696444429" lon="11.3428527817">
		<tag k="name" v="Hestehagen" />
		<tag k="place" v="locality" />
		<tag k="ssr:stedsnr" v="840819" />
	</node>
	<node id="-17710" lat="59.3710166671" lon="11.422802774">
		<tag k="name" v="Kongshaugen" />
		<tag k="natural" v="hill" />
		<tag k="place" v="locality" />
		<tag k="ssr:stedsnr" v="23701" />
	</node>
	<node id="-18733" lat="59.4124916679" lon="11.2486000043">
		<tag k="fixme" v="consider natural=peak for the most distinct mountains in the district" />
		<tag k="name" v="Grytelandshøgda" />
		<tag k="natural" v="hill" />
		<tag k="place" v="locality" />
		<tag k="ssr:stedsnr" v="840663" />
	</node>
	<node id="-18218" lat="59.3385805539" lon="11.4984972244">
		<tag k="name" v="Uttisrudbråten" />
		<tag k="place" v="locality" />
		<tag k="ssr:stedsnr" v="508667" />
	</node>
	<node id="-18729" lat="59.3004166646" lon="11.5515944405">
		<tag k="fixme" v="consider natural=peak for the most distinct mountains in the district" />
		<tag k="name" v="Kroktjernkollen" />
		<tag k="natural" v="hill" />
		<tag k="place" v="locality" />
		<tag k="ssr:stedsnr" v="840361" />
	</node>
	<node id="-18216" lat="59.3330194412" lon="11.4410138826">
		<tag k="fixme" v="consider natural=peak for the most distinct mountains in the district" />
		<tag k="name" v="Haugsåsen" />
		<tag k="natural" v="hill" />
		<tag k="place" v="locality" />
		<tag k="ssr:stedsnr" v="508658" />
	</node>
	<node id="-18140" lat="59.4293222191" lon="11.2323638942">
		<tag k="fixme" v="consider natural=peak for the most distinct mountains in the district" />
		<tag k="name" v="Ørkelåsen" />
		<tag k="natural" v="hill" />
		<tag k="place" v="locality" />
		<tag k="ssr:stedsnr" v="447476" />
	</node>
	<node id="-18725" lat="59.4551555529" lon="11.4646361163">
		<tag k="fixme" v="consider natural=peak for the most distinct mountains in the district" />
		<tag k="name" v="Morttjernshøyda" />
		<tag k="natural" v="hill" />
		<tag k="place" v="locality" />
		<tag k="ssr:stedsnr" v="840033" />
	</node>
	<node id="-18298" lat="59.3209611099" lon="11.3079666649">
		<tag k="name" v="Bjørndalen" />
		<tag k="natural" v="valley" />
		<tag k="place" v="locality" />
		<tag k="ssr:stedsnr" v="568030" />
	</node>
	<node id="-18721" lat="59.3649722196" lon="11.3217277748">
		<tag k="name" v="Dronninghaugen" />
		<tag k="natural" v="hill" />
		<tag k="place" v="locality" />
		<tag k="ssr:stedsnr" v="839717" />
	</node>
	<node id="-17695" lat="59.4108305571" lon="11.2862805628">
		<tag k="fixme" v="consider natural=peak for the most distinct mountains in the district" />
		<tag k="name" v="Langbråteåsen" />
		<tag k="natural" v="hill" />
		<tag k="place" v="locality" />
		<tag k="ssr:stedsnr" v="22549" />
	</node>
	<node id="-18718" lat="59.3668055513" lon="11.4429583242">
		<tag k="name" v="Lybekk" />
		<tag k="place" v="locality" />
		<tag k="ssr:stedsnr" v="812700" />
	</node>
	<node id="-18717" lat="59.3233722253" lon="11.4927444484">
		<tag k="name" v="Smaledalen" />
		<tag k="natural" v="valley" />
		<tag k="place" v="locality" />
		<tag k="ssr:stedsnr" v="812646" />
	</node>
	<node id="-17928" lat="59.3976249991" lon="11.4037305586">
		<tag k="fixme" v="consider natural=peak for the most distinct mountains in the district" />
		<tag k="name" v="Høyås" />
		<tag k="natural" v="hill" />
		<tag k="place" v="locality" />
		<tag k="ssr:stedsnr" v="184150" />
	</node>
	<node id="-18714" lat="59.2624333355" lon="11.4331027717">
		<tag k="name" v="Ladedalen" />
		<tag k="natural" v="valley" />
		<tag k="place" v="locality" />
		<tag k="ssr:stedsnr" v="811856" />
	</node>
	<node id="-18713" lat="59.3717500027" lon="11.4637583322">
		<tag k="name" v="Kollerud" />
		<tag k="place" v="locality" />
		<tag k="ssr:stedsnr" v="811660" />
	</node>
	<node id="-18196" lat="59.4049277751" lon="11.3053527795">
		<tag k="fixme" v="consider natural=peak for the most distinct mountains in the district" />
		<tag k="name" v="Ønnerudåsen" />
		<tag k="natural" v="hill" />
		<tag k="place" v="locality" />
		<tag k="ssr:stedsnr" v="507524" />
	</node>
	<node id="-18013" lat="59.3169527795" lon="11.3459388826">
		<tag k="name" v="Ekeliene" />
		<tag k="natural" v="slope" />
		<tag k="place" v="locality" />
		<tag k="ssr:stedsnr" v="233645" />
	</node>
	<node id="-17539" lat="59.3715388853" lon="11.5028916738">
		<tag k="fixme" v="consider natural=peak for the most distinct mountains in the district" />
		<tag k="name" v="Slottåsen" />
		<tag k="natural" v="hill" />
		<tag k="place" v="locality" />
		<tag k="ssr:stedsnr" v="367674" />
	</node>
	<node id="-18696" lat="59.2662055568" lon="11.3701972224">
		<tag k="name" v="Gørhettene" />
		<tag k="natural" v="slope" />
		<tag k="place" v="locality" />
		<tag k="ssr:stedsnr" v="811133" />
	</node>
	<node id="-18695" lat="59.2632611088" lon="11.3605527781">
		<tag k="name" v="Kudalen" />
		<tag k="natural" v="valley" />
		<tag k="place" v="locality" />
		<tag k="ssr:stedsnr" v="811131" />
	</node>
	<node id="-18694" lat="59.3320944403" lon="11.3182833262">
		<tag k="fixme" v="consider natural=peak for the most distinct mountains in the district" />
		<tag k="name" v="Mørktjernåsen" />
		<tag k="natural" v="hill" />
		<tag k="place" v="locality" />
		<tag k="ssr:stedsnr" v="811042" />
	</node>
	<node id="-18693" lat="59.3269916678" lon="11.3250194392">
		<tag k="name" v="Merrabåldalen" />
		<tag k="natural" v="valley" />
		<tag k="place" v="locality" />
		<tag k="ssr:stedsnr" v="811037" />
	</node>
	<node id="-17910" lat="59.415111112" lon="11.5322833248">
		<tag k="name" v="Bårdsdråga" />
		<tag k="natural" v="slope" />
		<tag k="place" v="locality" />
		<tag k="ssr:stedsnr" v="172576" />
	</node>
	<node id="-17654" lat="59.406447223" lon="11.5357055624">
		<tag k="fixme" v="consider natural=peak for the most distinct mountains in the district" />
		<tag k="name" v="Grasås" />
		<tag k="natural" v="hill" />
		<tag k="place" v="locality" />
		<tag k="ssr:stedsnr" v="3466" />
	</node>
	<node id="-18217" lat="59.3483416625" lon="11.4729805468">
		<tag k="fixme" v="consider natural=peak for the most distinct mountains in the district" />
		<tag k="name" v="Nakkimåsen" />
		<tag k="natural" v="hill" />
		<tag k="place" v="locality" />
		<tag k="ssr:stedsnr" v="508665" />
	</node>
	<node id="-17650" lat="59.2520500039" lon="11.3951333397">
		<tag k="fixme" v="consider natural=peak for the most distinct mountains in the district" />
		<tag k="name" v="Stiksås" />
		<tag k="natural" v="hill" />
		<tag k="place" v="locality" />
		<tag k="ssr:stedsnr" v="2916" />
	</node>
	<node id="-18673" lat="59.4377916683" lon="11.4716805594">
		<tag k="fixme" v="consider natural=peak for the most distinct mountains in the district" />
		<tag k="name" v="Vesle Hiesten" />
		<tag k="natural" v="hill" />
		<tag k="place" v="locality" />
		<tag k="ssr:stedsnr" v="791606" />
	</node>
	<node id="-17704" lat="59.4061722218" lon="11.2056361051">
		<tag k="fixme" v="consider natural=peak for the most distinct mountains in the district" />
		<tag k="name" v="Kongeåsen" />
		<tag k="natural" v="hill" />
		<tag k="place" v="locality" />
		<tag k="ssr:stedsnr" v="22651" />
	</node>
	<node id="-18670" lat="59.4513777754" lon="11.5518833325">
		<tag k="alt_name" v="Hostenhøgda" />
		<tag k="fixme" v="consider natural=peak for the most distinct mountains in the district" />
		<tag k="name" v="Haugstenhøgda" />
		<tag k="natural" v="hill" />
		<tag k="place" v="locality" />
		<tag k="ssr:stedsnr" v="791578" />
	</node>
	<node id="-17789" lat="59.3533611118" lon="11.3153611128">
		<tag k="name" v="Hasseldalen" />
		<tag k="natural" v="valley" />
		<tag k="place" v="locality" />
		<tag k="ssr:stedsnr" v="83348" />
	</node>
	<node id="-18155" lat="59.3086916637" lon="11.5285805523">
		<tag k="fixme" v="consider natural=peak for the most distinct mountains in the district" />
		<tag k="name" v="Knuvleåsen" />
		<tag k="natural" v="hill" />
		<tag k="place" v="locality" />
		<tag k="ssr:stedsnr" v="488623" />
	</node>
	<node id="-18154" lat="59.3566472194" lon="11.4443583273">
		<tag k="fixme" v="consider natural=peak for the most distinct mountains in the district" />
		<tag k="name" v="Krokåsen" />
		<tag k="natural" v="hill" />
		<tag k="place" v="locality" />
		<tag k="ssr:stedsnr" v="448711" />
	</node>
	<node id="-17446" lat="59.2908055582" lon="11.5555972229">
		<tag k="alt_name" v="Hivasskollen" />
		<tag k="fixme" v="consider natural=peak for the most distinct mountains in the district" />
		<tag k="name" v="Hivannskollen" />
		<tag k="natural" v="hill" />
		<tag k="place" v="locality" />
		<tag k="ssr:stedsnr" v="306655" />
	</node>
	<node id="-18145" lat="59.3795083365" lon="11.3645999967">
		<tag k="name" v="Hellevadet" />
		<tag k="place" v="locality" />
		<tag k="ssr:stedsnr" v="447594" />
	</node>
	<node id="-18656" lat="59.3643055518" lon="11.5657555491">
		<tag k="name" v="Ulvedalen" />
		<tag k="natural" v="valley" />
		<tag k="place" v="locality" />
		<tag k="ssr:stedsnr" v="780164" />
	</node>
	<node id="-18213" lat="59.3433611154" lon="11.3161194435">
		<tag k="name" v="Mørktjerndalen" />
		<tag k="natural" v="valley" />
		<tag k="place" v="locality" />
		<tag k="ssr:stedsnr" v="508359" />
	</node>
	<node id="-18652" lat="59.4013305555" lon="11.5358888813">
		<tag k="fixme" v="consider natural=peak for the most distinct mountains in the district" />
		<tag k="name" v="Kråkegullåsen" />
		<tag k="natural" v="hill" />
		<tag k="place" v="locality" />
		<tag k="ssr:stedsnr" v="779881" />
	</node>
	<node id="-17627" lat="59.4613968238" lon="11.5047226532">
		<tag k="name" v="Fjella" />
		<tag k="natural" v="wood" />
		<tag k="ssr:stedsnr" v="984407" />
	</node>
	<node id="-18137" lat="59.3443222247" lon="11.3296861147">
		<tag k="fixme" v="consider natural=peak for the most distinct mountains in the district" />
		<tag k="name" v="Korpeåsen" />
		<tag k="natural" v="hill" />
		<tag k="place" v="locality" />
		<tag k="ssr:stedsnr" v="447304" />
	</node>
	<node id="-18648" lat="59.3590583342" lon="11.3559888954">
		<tag k="name" v="Klypeholtet" />
		<tag k="place" v="locality" />
		<tag k="ssr:stedsnr" v="779808" />
	</node>
	<node id="-18647" lat="59.374761115" lon="11.3560388954">
		<tag k="name" v="Simensholen" />
		<tag k="place" v="locality" />
		<tag k="ssr:stedsnr" v="779806" />
	</node>
	<node id="-18645" lat="59.3950166681" lon="11.5357861142">
		<tag k="name" v="Rasmuskleva" />
		<tag k="place" v="locality" />
		<tag k="ssr:stedsnr" v="779783" />
	</node>
	<node id="-18642" lat="59.4203611133" lon="11.2282861077">
		<tag k="fixme" v="consider natural=peak for the most distinct mountains in the district" />
		<tag k="name" v="Stensrudåsen" />
		<tag k="natural" v="hill" />
		<tag k="place" v="locality" />
		<tag k="ssr:stedsnr" v="779666" />
	</node>
	<node id="-18129" lat="59.2721499977" lon="11.5521444434">
		<tag k="name" v="Nordsletta" />
		<tag k="place" v="locality" />
		<tag k="ssr:stedsnr" v="428696" />
	</node>
	<node id="-18128" lat="59.2866972257" lon="11.4909499984">
		<tag k="name" v="Seterdalen" />
		<tag k="natural" v="valley" />
		<tag k="place" v="locality" />
		<tag k="ssr:stedsnr" v="428650" />
	</node>
	<node id="-18638" lat="59.4068527752" lon="11.5540638939">
		<tag k="fixme" v="consider natural=peak for the most distinct mountains in the district" />
		<tag k="name" v="Brannåsen" />
		<tag k="natural" v="hill" />
		<tag k="place" v="locality" />
		<tag k="ssr:stedsnr" v="779551" />
	</node>
	<node id="-18124" lat="59.4151527773" lon="11.4786500009">
		<tag k="alt_name" v="Tostenås" />
		<tag k="fixme" v="consider natural=peak for the most distinct mountains in the district" />
		<tag k="name" v="Tostenåsen" />
		<tag k="natural" v="hill" />
		<tag k="place" v="locality" />
		<tag k="ssr:stedsnr" v="428489" />
	</node>
	<node id="-18632" lat="59.3205166652" lon="11.3737972252">
		<tag k="fixme" v="consider natural=peak for the most distinct mountains in the district" />
		<tag k="name" v="Burås" />
		<tag k="natural" v="hill" />
		<tag k="place" v="locality" />
		<tag k="ssr:stedsnr" v="779432" />
	</node>
	<node id="-17602" lat="59.4499722246" lon="11.5376972169">
		<tag k="fixme" v="consider natural=peak for the most distinct mountains in the district" />
		<tag k="name" v="Hatten" />
		<tag k="natural" v="hill" />
		<tag k="place" v="locality" />
		<tag k="ssr:stedsnr" v="476105" />
	</node>
	<node id="-18625" lat="59.3623277734" lon="11.3424888927">
		<tag k="name" v="Ilevollen" />
		<tag k="place" v="locality" />
		<tag k="ssr:stedsnr" v="778777" />
	</node>
	<node id="-18624" lat="59.358338893" lon="11.327997218">
		<tag k="name" v="Kongehaugen" />
		<tag k="natural" v="hill" />
		<tag k="place" v="locality" />
		<tag k="ssr:stedsnr" v="778694" />
	</node>
	<node id="-17599" lat="59.3515861089" lon="11.3770388872">
		<tag k="fixme" v="consider natural=peak for the most distinct mountains in the district" />
		<tag k="name" v="Ringemyråsen" />
		<tag k="natural" v="hill" />
		<tag k="place" v="locality" />
		<tag k="ssr:stedsnr" v="476033" />
	</node>
	<node id="-17592" lat="59.3760861073" lon="11.370602782">
		<tag k="fixme" v="consider natural=peak for the most distinct mountains in the district" />
		<tag k="name" v="Ingridåsen" />
		<tag k="natural" v="hill" />
		<tag k="place" v="locality" />
		<tag k="ssr:stedsnr" v="475810" />
	</node>
	<node id="-18099" lat="59.3303499958" lon="11.3422916647">
		<tag k="name" v="Svartedalhullet" />
		<tag k="natural" v="gorge" />
		<tag k="ssr:stedsnr" v="415657" />
	</node>
	<node id="-18098" lat="59.3309277817" lon="11.3401166614">
		<tag k="fixme" v="consider natural=peak for the most distinct mountains in the district" />
		<tag k="name" v="Albueåsen" />
		<tag k="natural" v="hill" />
		<tag k="place" v="locality" />
		<tag k="ssr:stedsnr" v="415655" />
	</node>
	<node id="-18035" lat="59.3701916643" lon="11.5712694465">
		<tag k="alt_name" v="Sjøljaoksene" />
		<tag k="fixme" v="consider natural=peak for the most distinct mountains in the district" />
		<tag k="name" v="Sjøloksen" />
		<tag k="natural" v="hill" />
		<tag k="place" v="locality" />
		<tag k="ssr:stedsnr" v="245669" />
	</node>
	<node id="-18607" lat="59.338166669" lon="11.3123833396">
		<tag k="fixme" v="consider natural=peak for the most distinct mountains in the district" />
		<tag k="name" v="Svarvermoåsen" />
		<tag k="natural" v="hill" />
		<tag k="place" v="locality" />
		<tag k="ssr:stedsnr" v="750305" />
	</node>
	<node id="-18093" lat="59.3491027783" lon="11.3365638844">
		<tag k="fixme" v="consider natural=peak for the most distinct mountains in the district" />
		<tag k="name" v="Myrås" />
		<tag k="natural" v="hill" />
		<tag k="place" v="locality" />
		<tag k="ssr:stedsnr" v="415472" />
	</node>
	<node id="-17578" lat="59.4718085993" lon="11.5100737477">
		<tag k="fixme" v="consider natural=peak for the most distinct mountains in the district" />
		<tag k="name" v="Mustjernhøgda" />
		<tag k="natural" v="hill" />
		<tag k="place" v="locality" />
		<tag k="ssr:stedsnr" v="475399" />
	</node>
	<node id="-18087" lat="59.2996333309" lon="11.346291672">
		<tag k="name" v="Reierbrudalen" />
		<tag k="natural" v="valley" />
		<tag k="place" v="locality" />
		<tag k="ssr:stedsnr" v="415101" />
	</node>
	<node id="-18085" lat="59.3747694466" lon="11.356041674">
		<tag k="name" v="Finnpå" />
		<tag k="place" v="locality" />
		<tag k="ssr:stedsnr" v="414782" />
	</node>
	<node id="-18082" lat="59.3700638909" lon="11.4387249923">
		<tag k="fixme" v="consider natural=peak for the most distinct mountains in the district" />
		<tag k="name" v="Skadeåsen" />
		<tag k="natural" v="hill" />
		<tag k="place" v="locality" />
		<tag k="ssr:stedsnr" v="266660" />
	</node>
	<node id="-18316" lat="59.3664500029" lon="11.5007527798">
		<tag k="name" v="Sønstegårdbråten" />
		<tag k="place" v="locality" />
		<tag k="ssr:stedsnr" v="568651" />
	</node>
	<node id="-18077" lat="59.376719441" lon="11.41139723">
		<tag k="name" v="Kjempehaugene" />
		<tag k="natural" v="hill" />
		<tag k="place" v="locality" />
		<tag k="ssr:stedsnr" v="265720" />
	</node>
	<node id="-18587" lat="59.4020472182" lon="11.4978305594">
		<tag k="fixme" v="consider natural=peak for the most distinct mountains in the district" />
		<tag k="name" v="Kolåsen" />
		<tag k="natural" v="hill" />
		<tag k="place" v="locality" />
		<tag k="ssr:stedsnr" v="731505" />
	</node>
	<node id="-17562" lat="59.3767611144" lon="11.4073416686">
		<tag k="name" v="Trulsen" />
		<tag k="place" v="locality" />
		<tag k="ssr:stedsnr" v="386677" />
	</node>
	<node id="-17558" lat="59.3448416673" lon="11.4869916585">
		<tag k="fixme" v="consider natural=peak for the most distinct mountains in the district" />
		<tag k="name" v="Svinsås" />
		<tag k="natural" v="hill" />
		<tag k="place" v="locality" />
		<tag k="ssr:stedsnr" v="386643" />
	</node>
	<node id="-18069" lat="59.4211555575" lon="11.3529166725">
		<tag k="fixme" v="consider natural=peak for the most distinct mountains in the district" />
		<tag k="name" v="Kasseåsen" />
		<tag k="natural" v="hill" />
		<tag k="place" v="locality" />
		<tag k="ssr:stedsnr" v="265601" />
	</node>
	<node id="-18580" lat="59.2997999983" lon="11.3361500049">
		<tag k="name" v="Åsedalen" />
		<tag k="natural" v="valley" />
		<tag k="place" v="locality" />
		<tag k="ssr:stedsnr" v="730976" />
	</node>
	<node id="-17412" lat="59.4406055581" lon="11.4274888974">
		<tag k="name" v="Kvernhusdalen" />
		<tag k="natural" v="valley" />
		<tag k="place" v="locality" />
		<tag k="ssr:stedsnr" v="294506" />
	</node>
	<node id="-17553" lat="59.3922805534" lon="11.2979972147">
		<tag k="fixme" v="consider natural=peak for the most distinct mountains in the district" />
		<tag k="name" v="Vestengåsen" />
		<tag k="natural" v="hill" />
		<tag k="place" v="locality" />
		<tag k="ssr:stedsnr" v="386542" />
	</node>
	<node id="-18064" lat="59.4171333374" lon="11.2909861037">
		<tag k="fixme" v="consider natural=peak for the most distinct mountains in the district" />
		<tag k="name" v="Sameieåsen" />
		<tag k="natural" v="hill" />
		<tag k="place" v="locality" />
		<tag k="ssr:stedsnr" v="265550" />
	</node>
	<node id="-18060" lat="59.3301083376" lon="11.3199611093">
		<tag k="name" v="Linjedalen" />
		<tag k="natural" v="valley" />
		<tag k="place" v="locality" />
		<tag k="ssr:stedsnr" v="265024" />
	</node>
	<node id="-17542" lat="59.3551972219" lon="11.5560749983">
		<tag k="alt_name" v="Rørvasshøgda" />
		<tag k="fixme" v="consider natural=peak for the most distinct mountains in the district" />
		<tag k="name" v="Rørvannshøyda" />
		<tag k="natural" v="hill" />
		<tag k="place" v="locality" />
		<tag k="ssr:stedsnr" v="367705" />
	</node>
	<node id="-18563" lat="59.2796249979" lon="11.5530388938">
		<tag k="name" v="Hivannsdalen" />
		<tag k="natural" v="valley" />
		<tag k="place" v="locality" />
		<tag k="ssr:stedsnr" v="719972" />
	</node>
	<node id="-17538" lat="59.2942777777" lon="11.5754777815">
		<tag k="alt_name" v="Gressdalen" />
		<tag k="name" v="Grasdalen" />
		<tag k="natural" v="valley" />
		<tag k="place" v="locality" />
		<tag k="ssr:stedsnr" v="367666" />
	</node>
	<node id="-18558" lat="59.4559888879" lon="11.4475083349">
		<tag k="fixme" v="consider natural=peak for the most distinct mountains in the district" />
		<tag k="name" v="Gåseflohøyda" />
		<tag k="natural" v="hill" />
		<tag k="place" v="locality" />
		<tag k="ssr:stedsnr" v="719035" />
	</node>
	<node id="-18555" lat="59.3893055524" lon="11.4543749988">
		<tag k="alt_name" v="Jernfethaugen vestre" />
		<tag k="name" v="Vestre Jernfethaugen" />
		<tag k="natural" v="hill" />
		<tag k="place" v="locality" />
		<tag k="ssr:stedsnr" v="718823" />
	</node>
	<node id="-18383" lat="59.3739305535" lon="11.586638896">
		<tag k="fixme" v="consider natural=peak for the most distinct mountains in the district" />
		<tag k="name" v="Rogneberget" />
		<tag k="natural" v="hill" />
		<tag k="place" v="locality" />
		<tag k="ssr:stedsnr" v="609660" />
	</node>
	<node id="-18547" lat="59.419358335" lon="11.5471805603">
		<tag k="name" v="Gåsa" />
		<tag k="natural" v="hill" />
		<tag k="place" v="locality" />
		<tag k="ssr:stedsnr" v="718568" />
	</node>
	<node id="-18542" lat="59.2966000027" lon="11.5694361177">
		<tag k="fixme" v="consider natural=peak for the most distinct mountains in the district" />
		<tag k="name" v="Berås" />
		<tag k="natural" v="hill" />
		<tag k="place" v="locality" />
		<tag k="ssr:stedsnr" v="718383" />
	</node>
	<node id="-18541" lat="59.2989777808" lon="11.5809277806">
		<tag k="name" v="Grandalen" />
		<tag k="natural" v="valley" />
		<tag k="place" v="locality" />
		<tag k="ssr:stedsnr" v="718333" />
	</node>
	<node id="-17888" lat="59.4436722202" lon="11.5415111042">
		<tag k="fixme" v="consider natural=peak for the most distinct mountains in the district" />
		<tag k="name" v="Seteråsen" />
		<tag k="natural" v="hill" />
		<tag k="place" v="locality" />
		<tag k="ssr:stedsnr" v="172014" />
	</node>
	<node id="-18534" lat="59.3624666664" lon="11.4825500039">
		<tag k="fixme" v="consider natural=peak for the most distinct mountains in the district" />
		<tag k="name" v="Kjempeåsen" />
		<tag k="natural" v="hill" />
		<tag k="place" v="locality" />
		<tag k="ssr:stedsnr" v="690715" />
	</node>
	<node id="-17510" lat="59.3521388918" lon="11.5567083368">
		<tag k="name" v="Rørvannsdalen" />
		<tag k="natural" v="valley" />
		<tag k="place" v="locality" />
		<tag k="ssr:stedsnr" v="355193" />
	</node>
	<node id="-17506" lat="59.3185444427" lon="11.5696694416">
		<tag k="fixme" v="consider natural=peak for the most distinct mountains in the district" />
		<tag k="name" v="Brodalsåsen" />
		<tag k="natural" v="hill" />
		<tag k="place" v="locality" />
		<tag k="ssr:stedsnr" v="355082" />
	</node>
	<node id="-18527" lat="59.3198166643" lon="11.4451972165">
		<tag k="name" v="Bratta" />
		<tag k="natural" v="hill" />
		<tag k="place" v="locality" />
		<tag k="ssr:stedsnr" v="690682" />
	</node>
	<node id="-17501" lat="59.3818055528" lon="11.4682027708">
		<tag k="name" v="Tjærneskleiva" />
		<tag k="natural" v="slope" />
		<tag k="place" v="locality" />
		<tag k="ssr:stedsnr" v="354877" />
	</node>
	<node id="-18012" lat="59.3229651149" lon="11.3377768552">
		<tag k="name" v="Lundsbekken" />
		<tag k="natural" v="hill" />
		<tag k="place" v="locality" />
		<tag k="ssr:stedsnr" v="233640" />
	</node>
	<node id="-18008" lat="59.360911114" lon="11.3503111179">
		<tag k="name" v="Dronninghaugen" />
		<tag k="natural" v="hill" />
		<tag k="place" v="locality" />
		<tag k="ssr:stedsnr" v="233439" />
	</node>
	<node id="-17495" lat="59.3272833294" lon="11.3429944468">
		<tag k="fixme" v="consider natural=peak for the most distinct mountains in the district" />
		<tag k="name" v="Slettefjellet" />
		<tag k="natural" v="hill" />
		<tag k="place" v="locality" />
		<tag k="ssr:stedsnr" v="354637" />
	</node>
	<node id="-18005" lat="59.306076655" lon="11.5747056717">
		<tag k="fixme" v="consider natural=peak for the most distinct mountains in the district" />
		<tag k="name" v="Korpåsen" />
		<tag k="natural" v="hill" />
		<tag k="place" v="locality" />
		<tag k="ssr:stedsnr" v="233356" />
	</node>
	<node id="-17785" lat="59.4466138887" lon="11.3937722172">
		<tag k="fixme" v="consider natural=peak for the most distinct mountains in the district" />
		<tag k="name" v="Husåsen" />
		<tag k="natural" v="hill" />
		<tag k="place" v="locality" />
		<tag k="ssr:stedsnr" v="83617" />
	</node>
	<node id="-18511" lat="59.3942111133" lon="11.3179499935">
		<tag k="fixme" v="consider natural=peak for the most distinct mountains in the district" />
		<tag k="name" v="Trangåsen" />
		<tag k="natural" v="hill" />
		<tag k="place" v="locality" />
		<tag k="ssr:stedsnr" v="690606" />
	</node>
	<node id="-17996" lat="59.3738527792" lon="11.3713638964">
		<tag k="name" v="Danstorpåsen" />
		<tag k="natural" v="ridge" />
		<tag k="place" v="locality" />
		<tag k="ssr:stedsnr" v="232784" />
	</node>
	<node id="-17483" lat="59.4793277786" lon="11.4143555614">
		<tag k="fixme" v="consider natural=peak for the most distinct mountains in the district" />
		<tag k="name" v="Klemmeåsen" />
		<tag k="natural" v="hill" />
		<tag k="place" v="locality" />
		<tag k="ssr:stedsnr" v="354023" />
	</node>
	<node id="-17994" lat="59.372741668" lon="11.3409194458">
		<tag k="name" v="Simensholen" />
		<tag k="place" v="locality" />
		<tag k="ssr:stedsnr" v="232769" />
	</node>
	<node id="-17563" lat="59.2809194475" lon="11.383575003">
		<tag k="name" v="Skrevet" />
		<tag k="natural" v="ridge" />
		<tag k="place" v="locality" />
		<tag k="ssr:stedsnr" v="387168" />
	</node>
	<node id="-18504" lat="59.3179444424" lon="11.5374055529">
		<tag k="fixme" v="multiple name tags, choose one and add the other to alt_name; consider natural=peak for the most distinct mountains in the district" />
		<tag k="name" v="Stueåsen;Torkildseteråsen" />
		<tag k="natural" v="hill" />
		<tag k="place" v="locality" />
		<tag k="ssr:stedsnr" v="671655" />
	</node>
	<node id="-17986" lat="59.3184861092" lon="11.4248444438">
		<tag k="fixme" v="consider natural=peak for the most distinct mountains in the district" />
		<tag k="name" v="Heieråsen" />
		<tag k="natural" v="hill" />
		<tag k="place" v="locality" />
		<tag k="ssr:stedsnr" v="205670" />
	</node>
	<node id="-17984" lat="59.3152999961" lon="11.461511113">
		<tag k="name" v="Lundemoen" />
		<tag k="place" v="locality" />
		<tag k="ssr:stedsnr" v="205660" />
	</node>
	<node id="-17980" lat="59.2639138902" lon="11.4124777774">
		<tag k="name" v="Morttjerndalen" />
		<tag k="natural" v="valley" />
		<tag k="place" v="locality" />
		<tag k="ssr:stedsnr" v="204881" />
	</node>
	<node id="-17467" lat="59.4220361076" lon="11.303366666">
		<tag k="fixme" v="consider natural=peak for the most distinct mountains in the district" />
		<tag k="name" v="Tøfteåsen" />
		<tag k="natural" v="hill" />
		<tag k="place" v="locality" />
		<tag k="ssr:stedsnr" v="325599" />
	</node>
	<node id="-17978" lat="59.3774305525" lon="11.4964527806">
		<tag k="name" v="Sankerud" />
		<tag k="place" v="locality" />
		<tag k="ssr:stedsnr" v="204642" />
	</node>
	<node id="-17409" lat="59.4348027785" lon="11.5011972196">
		<tag k="fixme" v="consider natural=peak for the most distinct mountains in the district" />
		<tag k="name" v="Villås" />
		<tag k="natural" v="hill" />
		<tag k="place" v="locality" />
		<tag k="ssr:stedsnr" v="294498" />
	</node>
	<node id="-17463" lat="59.3835111116" lon="11.344402785">
		<tag k="fixme" v="consider natural=peak for the most distinct mountains in the district" />
		<tag k="name" v="Korpeåsen" />
		<tag k="natural" v="hill" />
		<tag k="place" v="locality" />
		<tag k="ssr:stedsnr" v="325570" />
	</node>
	<node id="-17974" lat="59.3801861089" lon="11.3526888862">
		<tag k="name" v="Bekkehusdalen" />
		<tag k="natural" v="valley" />
		<tag k="place" v="locality" />
		<tag k="ssr:stedsnr" v="204578" />
	</node>
	<node id="-18483" lat="59.2879777756" lon="11.3806805607">
		<tag k="fixme" v="consider natural=peak for the most distinct mountains in the district" />
		<tag k="name" v="Holtåsen" />
		<tag k="natural" v="hill" />
		<tag k="place" v="locality" />
		<tag k="ssr:stedsnr" v="669900" />
	</node>
	<node id="-17458" lat="59.3018527737" lon="11.5134805495">
		<tag k="fixme" v="consider natural=peak for the most distinct mountains in the district" />
		<tag k="name" v="Høyås" />
		<tag k="natural" v="hill" />
		<tag k="place" v="locality" />
		<tag k="ssr:stedsnr" v="325174" />
	</node>
	<node id="-18480" lat="59.2467249995" lon="11.4024055472">
		<tag k="alt_name" v="Høyås (Soteås)" />
		<tag k="fixme" v="consider natural=peak for the most distinct mountains in the district" />
		<tag k="name" v="Såteås" />
		<tag k="natural" v="hill" />
		<tag k="place" v="locality" />
		<tag k="ssr:stedsnr" v="668593" />
	</node>
	<node id="-18440" lat="59.3748250032" lon="11.5498055514">
		<tag k="name" v="Husedalen" />
		<tag k="natural" v="valley" />
		<tag k="place" v="locality" />
		<tag k="ssr:stedsnr" v="657137" />
	</node>
	<node id="-17966" lat="59.3305833338" lon="11.3291527778">
		<tag k="name" v="Kula" />
		<tag k="natural" v="hill" />
		<tag k="place" v="locality" />
		<tag k="ssr:stedsnr" v="204022" />
	</node>
	<node id="-17965" lat="59.4235333315" lon="11.2058444424">
		<tag k="name" v="Kastet" />
		<tag k="natural" v="slope" />
		<tag k="place" v="locality" />
		<tag k="ssr:stedsnr" v="204471" />
	</node>
	<node id="-17452" lat="59.3997666665" lon="11.4807111058">
		<tag k="fixme" v="consider natural=peak for the most distinct mountains in the district" />
		<tag k="name" v="Langatuåsen" />
		<tag k="natural" v="hill" />
		<tag k="place" v="locality" />
		<tag k="ssr:stedsnr" v="307555" />
	</node>
	<node id="-18471" lat="59.4499666679" lon="11.396383334">
		<tag k="fixme" v="consider natural=peak for the most distinct mountains in the district" />
		<tag k="name" v="Husåsen" />
		<tag k="natural" v="hill" />
		<tag k="place" v="locality" />
		<tag k="ssr:stedsnr" v="658195" />
	</node>
	<node id="-17958" lat="59.3417742472" lon="11.3459085711">
		<tag k="fixme" v="consider natural=peak for the most distinct mountains in the district" />
		<tag k="name" v="Lundsvarden" />
		<tag k="natural" v="hill" />
		<tag k="place" v="locality" />
		<tag k="ssr:stedsnr" v="185781" />
	</node>
	<node id="-17955" lat="59.4206583298" lon="11.5255555478">
		<tag k="fixme" v="consider natural=peak for the most distinct mountains in the district" />
		<tag k="name" v="Steinsvasshøgda" />
		<tag k="natural" v="hill" />
		<tag k="place" v="locality" />
		<tag k="ssr:stedsnr" v="185476" />
	</node>
	<node id="-17441" lat="59.3070507522" lon="11.5743880319">
		<tag k="fixme" v="multiple name tags, choose one and add the other to alt_name; consider natural=peak for the most distinct mountains in the district" />
		<tag k="name" v="Korpåsen;Uttisrødhøgda" />
		<tag k="natural" v="hill" />
		<tag k="place" v="locality" />
		<tag k="ssr:stedsnr" v="306613" />
	</node>
	<node id="-18463" lat="59.381130555" lon="11.5850222303">
		<tag k="fixme" v="consider natural=peak for the most distinct mountains in the district" />
		<tag k="name" v="Skottjernhøyda" />
		<tag k="natural" v="hill" />
		<tag k="place" v="locality" />
		<tag k="ssr:stedsnr" v="657959" />
	</node>
	<node id="-18460" lat="59.3680055577" lon="11.3579833364">
		<tag k="fixme" v="consider natural=peak for the most distinct mountains in the district" />
		<tag k="name" v="Jensekollen" />
		<tag k="natural" v="hill" />
		<tag k="place" v="locality" />
		<tag k="ssr:stedsnr" v="657777" />
	</node>
	<node id="-18457" lat="59.3981361116" lon="11.5101555579">
		<tag k="fixme" v="consider natural=peak for the most distinct mountains in the district" />
		<tag k="name" v="Slottsberget" />
		<tag k="natural" v="hill" />
		<tag k="place" v="locality" />
		<tag k="ssr:stedsnr" v="657750" />
	</node>
	<node id="-17733" lat="59.3684305553" lon="11.5735305634">
		<tag k="name" v="Seterdalen" />
		<tag k="natural" v="valley" />
		<tag k="place" v="locality" />
		<tag k="ssr:stedsnr" v="52135" />
	</node>
	<node id="-18455" lat="59.3940750019" lon="11.5324583399">
		<tag k="fixme" v="consider natural=peak for the most distinct mountains in the district" />
		<tag k="name" v="Rasmusåsen" />
		<tag k="natural" v="hill" />
		<tag k="place" v="locality" />
		<tag k="ssr:stedsnr" v="657728" />
	</node>
	<node id="-18454" lat="59.2735972208" lon="11.4430388865">
		<tag k="fixme" v="consider natural=peak for the most distinct mountains in the district" />
		<tag k="name" v="Vassroa" />
		<tag k="natural" v="hill" />
		<tag k="place" v="locality" />
		<tag k="ssr:stedsnr" v="657703" />
	</node>
	<node id="-17940" lat="59.4423555582" lon="11.4772888978">
		<tag k="fixme" v="consider natural=peak for the most distinct mountains in the district" />
		<tag k="name" v="Store Hiesten" />
		<tag k="natural" v="hill" />
		<tag k="place" v="locality" />
		<tag k="ssr:stedsnr" v="184629" />
	</node>
	<node id="-18448" lat="59.3469555538" lon="11.371333333">
		<tag k="fixme" v="consider natural=peak for the most distinct mountains in the district" />
		<tag k="name" v="Kjeleåsen" />
		<tag k="natural" v="hill" />
		<tag k="place" v="locality" />
		<tag k="ssr:stedsnr" v="657450" />
	</node>
	<node id="-17496" lat="59.3174305577" lon="11.3686249994">
		<tag k="fixme" v="consider natural=peak for the most distinct mountains in the district" />
		<tag k="name" v="Melkebakkekollen" />
		<tag k="natural" v="hill" />
		<tag k="place" v="locality" />
		<tag k="ssr:stedsnr" v="354642" />
	</node>
	<node id="-18953" lat="59.2713916708" lon="11.5321861156">
		<tag k="fixme" v="consider natural=peak for the most distinct mountains in the district" />
		<tag k="name" v="Slottåsen" />
		<tag k="natural" v="hill" />
		<tag k="place" v="locality" />
		<tag k="ssr:stedsnr" v="962965" />
	</node>
	<node id="-18952" lat="59.3421000045" lon="11.5200722188">
		<tag k="name" v="Slettemoen" />
		<tag k="place" v="locality" />
		<tag k="ssr:stedsnr" v="962946" />
	</node>
	<node id="-17925" lat="59.4764361079" lon="11.4045250065">
		<tag k="alt_name" v="Glørudås" />
		<tag k="fixme" v="consider natural=peak for the most distinct mountains in the district" />
		<tag k="name" v="Glørudåsen" />
		<tag k="natural" v="hill" />
		<tag k="place" v="locality" />
		<tag k="ssr:stedsnr" v="184005" />
	</node>
	<node id="-18948" lat="59.3464833295" lon="11.510333327">
		<tag k="name" v="Skredderholtene" />
		<tag k="place" v="locality" />
		<tag k="ssr:stedsnr" v="962146" />
	</node>
	<node id="-17411" lat="59.4176805527" lon="11.4949638953">
		<tag k="name" v="Halakleva" />
		<tag k="place" v="locality" />
		<tag k="ssr:stedsnr" v="294501" />
	</node>
	<node id="-18945" lat="59.3694722206" lon="11.3771111074">
		<tag k="fixme" v="consider natural=peak for the most distinct mountains in the district" />
		<tag k="name" v="Sankthansåsen" />
		<tag k="natural" v="hill" />
		<tag k="place" v="locality" />
		<tag k="ssr:stedsnr" v="961846" />
	</node>
</osm>
