<?xml version="1.0" encoding="UTF-8"?>
<osm version="0.6" generator="osmapis">
	<node id="330712725" lat="58.5862731" lon="7.8049338" version="8" timestamp="2021-10-29T06:11:26Z" changeset="113107708" uid="3497659" user="NKA">
		<tag k="name" v="Evje" />
		<tag k="place" v="village" />
		<tag k="population" v="2495" />
		<tag k="population:date" v="2021-01-01" />
		<tag k="ref:ssb_tettsted" v="3603" />
		<tag k="source:population" v="SSB - befolkning i tettstedet" />
		<tag k="ssr:stedsnr" v="1744" />
		<tag k="ssr:type" v="tettsted" />
	</node>
	<node id="331218508" lat="58.6459485" lon="7.8168441" version="4" timestamp="2018-04-10T18:40:00Z" changeset="57982147" uid="3497659" user="NKA">
		<tag k="name" v="Fossberg" />
		<tag k="place" v="farm" />
		<tag k="ssr:stedsnr" v="396328" />
		<tag k="ssr:type" v="bruk" />
	</node>
	<node id="332545055" lat="58.6353394" lon="7.818743" version="3" timestamp="2018-04-10T18:40:00Z" changeset="57982147" uid="3497659" user="NKA">
		<tag k="name" v="Syrtveit" />
		<tag k="place" v="hamlet" />
		<tag k="ssr:stedsnr" v="304493" />
		<tag k="ssr:type" v="bruk" />
	</node>
	<node id="332547743" lat="58.652043" lon="7.9520058" version="3" timestamp="2018-04-10T18:40:00Z" changeset="57982147" uid="3497659" user="NKA">
		<tag k="name" v="Gautestad" />
		<tag k="place" v="village" />
		<tag k="ssr:stedsnr" v="486524" />
		<tag k="ssr:type" v="bygdelagBygd" />
	</node>
	<node id="332547745" lat="58.6059586" lon="7.8779644" version="3" timestamp="2018-04-10T18:40:00Z" changeset="57982147" uid="3497659" user="NKA">
		<tag k="name" v="Flatebygd" />
		<tag k="place" v="village" />
		<tag k="ssr:stedsnr" v="668738" />
		<tag k="ssr:type" v="bygdelagBygd" />
	</node>
	<node id="748450731" lat="58.5645946" lon="7.7817478" version="3" timestamp="2018-04-10T18:40:01Z" changeset="57982147" uid="3497659" user="NKA">
		<tag k="name" v="Evjemoen" />
		<tag k="place" v="neighbourhood" />
		<tag k="ssr:stedsnr" v="365655" />
		<tag k="ssr:type" v="militærtByggAnlegg" />
	</node>
	<node id="821482148" lat="58.5902064" lon="7.8037948" version="3" timestamp="2018-04-10T18:40:02Z" changeset="57982147" uid="3497659" user="NKA">
		<tag k="name" v="Bakkemoen" />
		<tag k="place" v="neighbourhood" />
		<tag k="ssr:stedsnr" v="789697" />
		<tag k="ssr:type" v="eneboligMindreBoligbygg" />
	</node>
	<node id="1471137695" lat="58.5033608" lon="7.770294" version="4" timestamp="2018-04-10T18:40:04Z" changeset="57982147" uid="3497659" user="NKA">
		<tag k="name" v="Moi" />
		<tag k="place" v="village" />
		<tag k="ssr:stedsnr" v="486449" />
		<tag k="ssr:type" v="bygdelagBygd" />
	</node>
	<node id="1471137702" lat="58.5448331" lon="7.7555001" version="3" timestamp="2018-04-10T18:40:04Z" changeset="57982147" uid="3497659" user="NKA">
		<tag k="name" v="Kjetså" />
		<tag k="place" v="hamlet" />
		<tag k="ssr:stedsnr" v="789684" />
		<tag k="ssr:type" v="bruk" />
	</node>
	<node id="2580479930" lat="58.4728216" lon="7.6056893" version="3" timestamp="2018-04-10T18:40:07Z" changeset="57982147" uid="3497659" user="NKA">
		<tag k="name" v="Abusland" />
		<tag k="place" v="hamlet" />
		<tag k="ssr:stedsnr" v="364593" />
		<tag k="ssr:type" v="bruk" />
	</node>
	<node id="2580479932" lat="58.5129801" lon="7.7054202" version="3" timestamp="2018-04-10T18:40:08Z" changeset="57982147" uid="3497659" user="NKA">
		<tag k="alt_name" v="Fjelestad" />
		<tag k="name" v="Fjælestad" />
		<tag k="place" v="farm" />
		<tag k="ssr:stedsnr" v="668891" />
		<tag k="ssr:type" v="bruk" />
	</node>
	<node id="4463977166" lat="58.5872821" lon="8.0727522" version="2" timestamp="2018-04-10T18:47:31Z" changeset="57982147" uid="3497659" user="NKA">
		<tag k="name" v="Hovland" />
		<tag k="place" v="farm" />
		<tag k="ssr:stedsnr" v="607719" />
		<tag k="ssr:type" v="bruk" />
	</node>
	<node id="4463977167" lat="58.6005892" lon="8.0952114" version="2" timestamp="2018-04-10T18:47:31Z" changeset="57982147" uid="3497659" user="NKA">
		<tag k="fixme" v="check position" />
		<tag k="historic" v="ruins" />
		<tag k="name" v="Hovlandssetra" />
		<tag k="place" v="locality" />
		<tag k="ssr:stedsnr" v="960494" />
		<tag k="ssr:type" v="gammelBosettingsplass" />
	</node>
	<node id="4463977181" lat="58.6005275" lon="8.1029236" version="2" timestamp="2018-04-10T18:47:33Z" changeset="57982147" uid="3497659" user="NKA">
		<tag k="fixme" v="check position" />
		<tag k="historic" v="ruins" />
		<tag k="name" v="Kjetevassøygarden" />
		<tag k="place" v="locality" />
		<tag k="ssr:stedsnr" v="789352" />
		<tag k="ssr:type" v="gammelBosettingsplass" />
	</node>
	<node id="4463977289" lat="58.6159647" lon="8.0992638" version="2" timestamp="2018-04-10T18:47:34Z" changeset="57982147" uid="3497659" user="NKA">
		<tag k="fixme" v="check position" />
		<tag k="historic" v="ruins" />
		<tag k="name" v="Kvittjørnøygarden" />
		<tag k="place" v="locality" />
		<tag k="ssr:stedsnr" v="122367" />
		<tag k="ssr:type" v="gammelBosettingsplass" />
	</node>
	<node id="4463977302" lat="58.5843727" lon="8.0832698" version="2" timestamp="2018-04-10T18:47:35Z" changeset="57982147" uid="3497659" user="NKA">
		<tag k="alt_name" v="Lisletveit" />
		<tag k="name" v="Lilletveit" />
		<tag k="place" v="farm" />
		<tag k="ssr:stedsnr" v="486741" />
		<tag k="ssr:type" v="bruk" />
	</node>
	<node id="4463977305" lat="58.5864267" lon="8.0681071" version="2" timestamp="2018-04-10T18:47:36Z" changeset="57982147" uid="3497659" user="NKA">
		<tag k="name" v="Ljosland" />
		<tag k="place" v="farm" />
		<tag k="ssr:stedsnr" v="61714" />
		<tag k="ssr:type" v="bruk" />
	</node>
	<node id="4463977322" lat="58.5820655" lon="8.0478523" version="2" timestamp="2018-04-10T18:47:37Z" changeset="57982147" uid="3497659" user="NKA">
		<tag k="name" v="Myklebostad" />
		<tag k="place" v="farm" />
		<tag k="ssr:stedsnr" v="304764" />
		<tag k="ssr:type" v="bruk" />
	</node>
	<node id="4463977340" lat="58.585483" lon="8.0581817" version="2" timestamp="2018-04-10T18:47:39Z" changeset="57982147" uid="3497659" user="NKA">
		<tag k="alt_name" v="Nygard" />
		<tag k="name" v="Nygård" />
		<tag k="place" v="farm" />
		<tag k="ssr:stedsnr" v="729769" />
		<tag k="ssr:type" v="bruk" />
	</node>
	<node id="4463977427" lat="58.5822561" lon="8.0741297" version="2" timestamp="2018-04-10T18:47:49Z" changeset="57982147" uid="3497659" user="NKA">
		<tag k="name" v="Tveit" />
		<tag k="place" v="hamlet" />
		<tag k="ssr:stedsnr" v="365739" />
		<tag k="ssr:type" v="gard" />
	</node>
	<node id="4463978104" lat="58.5815269" lon="8.0556902" version="2" timestamp="2018-04-10T18:47:55Z" changeset="57982147" uid="3497659" user="NKA">
		<tag k="fixme" v="check position" />
		<tag k="historic" v="ruins" />
		<tag k="name" v="Øygarden" />
		<tag k="place" v="locality" />
		<tag k="ssr:stedsnr" v="231093" />
		<tag k="ssr:type" v="gammelBosettingsplass" />
	</node>
	<node id="4480764356" lat="58.4863433" lon="7.6084464" version="2" timestamp="2018-04-10T18:51:53Z" changeset="57982147" uid="3497659" user="NKA">
		<tag k="name" v="Abusdal" />
		<tag k="place" v="hamlet" />
		<tag k="ssr:stedsnr" v="364596" />
		<tag k="ssr:type" v="bruk" />
	</node>
	<node id="4480764357" lat="58.6331425" lon="7.9436826" version="3" timestamp="2021-03-18T06:22:43Z" changeset="101231690" uid="3497659" user="NKA">
		<tag k="name" v="Austerhusøygarden" />
		<tag k="place" v="isolated_dwelling" />
		<tag k="ssr:stedsnr" v="365550" />
		<tag k="ssr:type" v="fritidsbolig" />
	</node>
	<node id="4480764358" lat="58.4884026" lon="7.7195309" version="2" timestamp="2018-04-10T18:51:53Z" changeset="57982147" uid="3497659" user="NKA">
		<tag k="name" v="Bakkane" />
		<tag k="place" v="locality" />
		<tag k="ssr:stedsnr" v="425196" />
		<tag k="ssr:type" v="eneboligMindreBoligbygg" />
	</node>
	<node id="4480764359" lat="58.5915767" lon="7.799924" version="2" timestamp="2018-04-10T18:51:54Z" changeset="57982147" uid="3497659" user="NKA">
		<tag k="name" v="Bakken" />
		<tag k="place" v="farm" />
		<tag k="ssr:stedsnr" v="457315" />
		<tag k="ssr:type" v="bruk" />
	</node>
	<node id="4480764360" lat="58.6016055" lon="7.8390614" version="2" timestamp="2018-04-10T18:51:54Z" changeset="57982147" uid="3497659" user="NKA">
		<tag k="name" v="Bakken" />
		<tag k="place" v="farm" />
		<tag k="ssr:stedsnr" v="93333" />
		<tag k="ssr:type" v="bruk" />
	</node>
	<node id="4480764361" lat="58.6435089" lon="7.7844422" version="2" timestamp="2018-04-10T18:51:54Z" changeset="57982147" uid="3497659" user="NKA">
		<tag k="name" v="Bakken" />
		<tag k="place" v="farm" />
		<tag k="ssr:stedsnr" v="882318" />
		<tag k="ssr:type" v="bruk" />
	</node>
	<node id="4480764362" lat="58.6158887" lon="7.7378993" version="2" timestamp="2018-04-10T18:51:54Z" changeset="57982147" uid="3497659" user="NKA">
		<tag k="fixme" v="check position" />
		<tag k="historic" v="ruins" />
		<tag k="name" v="Bakkeøygard" />
		<tag k="place" v="locality" />
		<tag k="ssr:stedsnr" v="154368" />
		<tag k="ssr:type" v="gammelBosettingsplass" />
	</node>
	<node id="4480764363" lat="58.5946492" lon="7.799659" version="2" timestamp="2018-04-10T18:51:54Z" changeset="57982147" uid="3497659" user="NKA">
		<tag k="name" v="Birkeland" />
		<tag k="place" v="hamlet" />
		<tag k="ssr:stedsnr" v="486713" />
		<tag k="ssr:type" v="bruk" />
	</node>
	<node id="4480764364" lat="58.6172529" lon="7.7207376" version="3" timestamp="2021-03-18T06:22:43Z" changeset="101231690" uid="3497659" user="NKA">
		<tag k="name" v="Birkelandsøygard" />
		<tag k="place" v="isolated_dwelling" />
		<tag k="ssr:stedsnr" v="668568" />
		<tag k="ssr:type" v="fritidsbolig" />
	</node>
	<node id="4480764365" lat="58.5589781" lon="7.7634452" version="2" timestamp="2018-04-10T18:51:54Z" changeset="57982147" uid="3497659" user="NKA">
		<tag k="name" v="Birketveit" />
		<tag k="place" v="farm" />
		<tag k="ssr:stedsnr" v="275168" />
		<tag k="ssr:type" v="bruk" />
	</node>
	<node id="4480764366" lat="58.579971" lon="7.8949015" version="2" timestamp="2018-04-10T18:51:54Z" changeset="57982147" uid="3497659" user="NKA">
		<tag k="name" v="Bjorland" />
		<tag k="place" v="farm" />
		<tag k="ssr:stedsnr" v="61725" />
		<tag k="ssr:type" v="fritidsbolig" />
	</node>
	<node id="4480764367" lat="58.550646" lon="7.807087" version="2" timestamp="2018-04-10T18:51:54Z" changeset="57982147" uid="3497659" user="NKA">
		<tag k="name" v="Bjorå" />
		<tag k="place" v="hamlet" />
		<tag k="ssr:stedsnr" v="304641" />
		<tag k="ssr:type" v="bruk" />
	</node>
	<node id="4480764368" lat="58.5321585" lon="7.8137212" version="2" timestamp="2018-04-10T18:51:55Z" changeset="57982147" uid="3497659" user="NKA">
		<tag k="fixme" v="check position" />
		<tag k="historic" v="ruins" />
		<tag k="name" v="Bjorøygard" />
		<tag k="place" v="locality" />
		<tag k="ssr:stedsnr" v="518149" />
		<tag k="ssr:type" v="gammelBosettingsplass" />
	</node>
	<node id="4480764369" lat="58.5694735" lon="7.8317237" version="2" timestamp="2018-04-10T18:51:55Z" changeset="57982147" uid="3497659" user="NKA">
		<tag k="name" v="Bjørkevollen" />
		<tag k="place" v="farm" />
		<tag k="ssr:stedsnr" v="822368" />
		<tag k="ssr:type" v="bruk" />
	</node>
	<node id="4480764370" lat="58.532033" lon="7.7005212" version="3" timestamp="2018-04-28T08:07:09Z" changeset="58497758" uid="3497659" user="NKA">
		<tag k="historic" v="shieling" />
		<tag k="name" v="Breistøl" />
		<tag k="place" v="locality" />
		<tag k="ssr:stedsnr" v="943895" />
		<tag k="ssr:type" v="seterStøl" />
	</node>
	<node id="4480764371" lat="58.5481589" lon="7.7551451" version="2" timestamp="2018-04-10T18:51:55Z" changeset="57982147" uid="3497659" user="NKA">
		<tag k="name" v="Breistøl" />
		<tag k="place" v="farm" />
		<tag k="ssr:stedsnr" v="396174" />
		<tag k="ssr:type" v="bruk" />
	</node>
	<node id="4480764372" lat="58.5507274" lon="7.7375044" version="2" timestamp="2018-04-10T18:51:55Z" changeset="57982147" uid="3497659" user="NKA">
		<tag k="name" v="Bærkjåsen" />
		<tag k="place" v="farm" />
		<tag k="ssr:stedsnr" v="639224" />
		<tag k="ssr:type" v="bruk" />
	</node>
	<node id="4480764373" lat="58.6381273" lon="7.8212341" version="2" timestamp="2018-04-10T18:51:55Z" changeset="57982147" uid="3497659" user="NKA">
		<tag k="name" v="Dalebakk" />
		<tag k="place" v="farm" />
		<tag k="ssr:stedsnr" v="457344" />
		<tag k="ssr:type" v="bruk" />
	</node>
	<node id="4480764374" lat="58.5655148" lon="7.7704752" version="2" timestamp="2018-04-10T18:51:55Z" changeset="57982147" uid="3497659" user="NKA">
		<tag k="name" v="Dåsnes" />
		<tag k="place" v="village" />
		<tag k="ssr:stedsnr" v="729741" />
		<tag k="ssr:type" v="tettsted" />
	</node>
	<node id="4480764375" lat="58.5704273" lon="7.764896" version="2" timestamp="2018-04-10T18:51:55Z" changeset="57982147" uid="3497659" user="NKA">
		<tag k="alt_name" v="Dåsnesmonen" />
		<tag k="name" v="Dåsnesmoen" />
		<tag k="place" v="neighbourhood" />
		<tag k="ssr:stedsnr" v="813017" />
		<tag k="ssr:type" v="boligfelt" />
	</node>
	<node id="4480764376" lat="58.6207702" lon="7.9244809" version="3" timestamp="2018-04-28T08:07:09Z" changeset="58497758" uid="3497659" user="NKA">
		<tag k="building" v="cabin" />
		<tag k="historic" v="shieling" />
		<tag k="name" v="Døløygard" />
		<tag k="place" v="isolated_dwelling" />
		<tag k="ssr:stedsnr" v="942475" />
		<tag k="ssr:type" v="seterStøl" />
	</node>
	<node id="4480764377" lat="58.6010128" lon="7.6427362" version="2" timestamp="2018-04-10T18:51:56Z" changeset="57982147" uid="3497659" user="NKA">
		<tag k="alt_name" v="Engin" />
		<tag k="name" v="Engen" />
		<tag k="place" v="farm" />
		<tag k="ssr:stedsnr" v="182850" />
		<tag k="ssr:type" v="bruk" />
	</node>
	<node id="4480764378" lat="58.4902983" lon="7.7028676" version="2" timestamp="2018-04-10T18:51:56Z" changeset="57982147" uid="3497659" user="NKA">
		<tag k="name" v="Espetveit" />
		<tag k="place" v="farm" />
		<tag k="ssr:stedsnr" v="182588" />
		<tag k="ssr:type" v="bruk" />
	</node>
	<node id="4480764380" lat="58.60036" lon="7.8337014" version="2" timestamp="2018-04-10T18:51:56Z" changeset="57982147" uid="3497659" user="NKA">
		<tag k="name" v="Evje prestegard" />
		<tag k="place" v="farm" />
		<tag k="ssr:stedsnr" v="154422" />
		<tag k="ssr:type" v="bruk" />
	</node>
	<node id="4480764381" lat="58.6048147" lon="7.8318656" version="2" timestamp="2018-04-10T18:51:56Z" changeset="57982147" uid="3497659" user="NKA">
		<tag k="name" v="Evjeplassen" />
		<tag k="place" v="farm" />
		<tag k="ssr:stedsnr" v="243711" />
		<tag k="ssr:type" v="bruk" />
	</node>
	<node id="4480764382" lat="58.5598783" lon="7.7708466" version="2" timestamp="2018-04-10T18:51:56Z" changeset="57982147" uid="3497659" user="NKA">
		<tag k="name" v="Faret" />
		<tag k="place" v="farm" />
		<tag k="ssr:stedsnr" v="911669" />
		<tag k="ssr:type" v="bruk" />
	</node>
	<node id="4480764383" lat="58.5824367" lon="7.7780256" version="2" timestamp="2018-04-10T18:51:56Z" changeset="57982147" uid="3497659" user="NKA">
		<tag k="name" v="Fennefoss" />
		<tag k="place" v="hamlet" />
		<tag k="ssr:stedsnr" v="607744" />
		<tag k="ssr:type" v="bruk" />
	</node>
	<node id="4480764384" lat="58.5985678" lon="7.7343143" version="2" timestamp="2018-04-10T18:51:56Z" changeset="57982147" uid="3497659" user="NKA">
		<tag k="name" v="Fennefossøygard" />
		<tag k="place" v="locality" />
		<tag k="ssr:stedsnr" v="154219" />
		<tag k="ssr:type" v="gammelBosettingsplass" />
	</node>
	<node id="4480764385" lat="58.604881" lon="7.8756831" version="2" timestamp="2018-04-10T18:51:56Z" changeset="57982147" uid="3497659" user="NKA">
		<tag k="alt_name" v="Flåt" />
		<tag k="name" v="Flot" />
		<tag k="place" v="farm" />
		<tag k="ssr:stedsnr" v="911737" />
		<tag k="ssr:type" v="bruk" />
	</node>
	<node id="4480764386" lat="58.6174532" lon="7.9275462" version="3" timestamp="2021-03-18T06:22:43Z" changeset="101231690" uid="3497659" user="NKA">
		<tag k="alt_name" v="Flåtøygard" />
		<tag k="name" v="Flotøygarden" />
		<tag k="place" v="isolated_dwelling" />
		<tag k="ssr:stedsnr" v="426529" />
		<tag k="ssr:type" v="fritidsbolig" />
	</node>
	<node id="4480764387" lat="58.6547078" lon="7.7141395" version="3" timestamp="2018-04-28T08:07:09Z" changeset="58497758" uid="3497659" user="NKA">
		<tag k="historic" v="shieling" />
		<tag k="name" v="Furestøl" />
		<tag k="place" v="locality" />
		<tag k="ssr:stedsnr" v="396076" />
		<tag k="ssr:type" v="seterStøl" />
	</node>
	<node id="4480764388" lat="58.5580918" lon="7.7724306" version="2" timestamp="2018-04-10T18:51:57Z" changeset="57982147" uid="3497659" user="NKA">
		<tag k="name" v="Futegarden" />
		<tag k="place" v="farm" />
		<tag k="ssr:stedsnr" v="518200" />
		<tag k="ssr:type" v="bruk" />
	</node>
	<node id="4480764589" lat="58.5764974" lon="7.838751" version="2" timestamp="2018-04-10T18:51:57Z" changeset="57982147" uid="3497659" user="NKA">
		<tag k="name" v="Galteland" />
		<tag k="place" v="hamlet" />
		<tag k="ssr:stedsnr" v="61711" />
		<tag k="ssr:type" v="bruk" />
	</node>
	<node id="4480764590" lat="58.5812878" lon="7.9916726" version="3" timestamp="2021-03-18T06:22:43Z" changeset="101231690" uid="3497659" user="NKA">
		<tag k="building" v="cabin" />
		<tag k="name" v="Glopstad" />
		<tag k="place" v="isolated_dwelling" />
		<tag k="ssr:stedsnr" v="275638" />
		<tag k="ssr:type" v="gammelBosettingsplass" />
	</node>
	<node id="4480764591" lat="58.5912385" lon="7.6483609" version="2" timestamp="2018-04-10T18:51:57Z" changeset="57982147" uid="3497659" user="NKA">
		<tag k="fixme" v="check position" />
		<tag k="historic" v="ruins" />
		<tag k="name" v="Godfars øygard" />
		<tag k="place" v="locality" />
		<tag k="ssr:stedsnr" v="154910" />
		<tag k="ssr:type" v="gammelBosettingsplass" />
	</node>
	<node id="4480764592" lat="58.6309806" lon="8.0170411" version="2" timestamp="2018-04-10T18:51:57Z" changeset="57982147" uid="3497659" user="NKA">
		<tag k="fixme" v="check position" />
		<tag k="historic" v="ruins" />
		<tag k="name" v="Godfarsøygard" />
		<tag k="place" v="locality" />
		<tag k="ssr:stedsnr" v="153660" />
		<tag k="ssr:type" v="gammelBosettingsplass" />
	</node>
	<node id="4480764593" lat="58.5855042" lon="7.8085633" version="2" timestamp="2018-04-10T18:51:57Z" changeset="57982147" uid="3497659" user="NKA">
		<tag k="name" v="Grenjå" />
		<tag k="place" v="neighbourhood" />
		<tag k="ssr:stedsnr" v="578153" />
		<tag k="ssr:type" v="boligfelt" />
	</node>
	<node id="4480764594" lat="58.6045643" lon="7.8794087" version="2" timestamp="2018-04-10T18:51:57Z" changeset="57982147" uid="3497659" user="NKA">
		<tag k="name" v="Grenneshaugen" />
		<tag k="place" v="neighbourhood" />
		<tag k="ssr:stedsnr" v="821504" />
		<tag k="ssr:type" v="boligfelt" />
	</node>
	<node id="4480764595" lat="58.5577121" lon="7.7635175" version="2" timestamp="2018-04-10T18:51:58Z" changeset="57982147" uid="3497659" user="NKA">
		<tag k="name" v="Gullslett" />
		<tag k="place" v="neighbourhood" />
		<tag k="ssr:stedsnr" v="154263" />
		<tag k="ssr:type" v="boligfelt" />
	</node>
	<node id="4480764596" lat="58.6639581" lon="7.7959778" version="2" timestamp="2018-04-10T18:51:58Z" changeset="57982147" uid="3497659" user="NKA">
		<tag k="name" v="Gullsmedmoen" />
		<tag k="place" v="farm" />
		<tag k="ssr:stedsnr" v="183579" />
		<tag k="ssr:type" v="bruk" />
	</node>
	<node id="4480764597" lat="58.5793663" lon="8.0017501" version="2" timestamp="2018-04-10T18:51:58Z" changeset="57982147" uid="3497659" user="NKA">
		<tag k="name" v="Gunnheim" />
		<tag k="place" v="farm" />
		<tag k="ssr:stedsnr" v="335681" />
		<tag k="ssr:type" v="eneboligMindreBoligbygg" />
	</node>
	<node id="4480764598" lat="58.5199222" lon="7.5609329" version="2" timestamp="2018-04-10T18:51:58Z" changeset="57982147" uid="3497659" user="NKA">
		<tag k="name" v="Gåseflå" />
		<tag k="place" v="farm" />
		<tag k="ssr:stedsnr" v="182872" />
		<tag k="ssr:type" v="bruk" />
	</node>
	<node id="4480764599" lat="58.609111" lon="7.8843938" version="2" timestamp="2018-04-10T18:51:58Z" changeset="57982147" uid="3497659" user="NKA">
		<tag k="name" v="Gåvoll" />
		<tag k="place" v="farm" />
		<tag k="ssr:stedsnr" v="729527" />
		<tag k="ssr:type" v="bruk" />
	</node>
	<node id="4480764600" lat="58.5167822" lon="7.7302736" version="2" timestamp="2018-04-10T18:51:58Z" changeset="57982147" uid="3497659" user="NKA">
		<tag k="name" v="Hagen" />
		<tag k="place" v="farm" />
		<tag k="ssr:stedsnr" v="61410" />
		<tag k="ssr:type" v="bruk" />
	</node>
	<node id="4480764601" lat="58.5485325" lon="7.7436172" version="3" timestamp="2018-04-28T08:07:09Z" changeset="58497758" uid="3497659" user="NKA">
		<tag k="historic" v="shieling" />
		<tag k="name" v="Hagen" />
		<tag k="place" v="locality" />
		<tag k="ssr:stedsnr" v="638182" />
		<tag k="ssr:type" v="setervoll" />
	</node>
	<node id="4480764602" lat="58.6007792" lon="7.9082388" version="2" timestamp="2018-04-10T18:51:58Z" changeset="57982147" uid="3497659" user="NKA">
		<tag k="name" v="Hagen" />
		<tag k="place" v="farm" />
		<tag k="ssr:stedsnr" v="335372" />
		<tag k="ssr:type" v="bruk" />
	</node>
	<node id="4480764603" lat="58.5091813" lon="7.7632453" version="2" timestamp="2018-04-10T18:51:58Z" changeset="57982147" uid="3497659" user="NKA">
		<tag k="name" v="Hannåsmoen" />
		<tag k="place" v="farm" />
		<tag k="ssr:stedsnr" v="790444" />
		<tag k="ssr:type" v="bruk" />
	</node>
	<node id="4480764604" lat="58.5512203" lon="7.7512677" version="2" timestamp="2018-04-10T18:51:59Z" changeset="57982147" uid="3497659" user="NKA">
		<tag k="name" v="Hasseldalen" />
		<tag k="place" v="farm" />
		<tag k="ssr:stedsnr" v="154295" />
		<tag k="ssr:type" v="bruk" />
	</node>
	<node id="4480764605" lat="58.5569359" lon="7.7721266" version="2" timestamp="2018-04-10T18:51:59Z" changeset="57982147" uid="3497659" user="NKA">
		<tag k="name" v="Haugen" />
		<tag k="place" v="farm" />
		<tag k="ssr:stedsnr" v="396159" />
		<tag k="ssr:type" v="bruk" />
	</node>
	<node id="4480764606" lat="58.5831141" lon="7.8636516" version="2" timestamp="2018-04-10T18:51:59Z" changeset="57982147" uid="3497659" user="NKA">
		<tag k="name" v="Haugen" />
		<tag k="place" v="farm" />
		<tag k="ssr:stedsnr" v="729759" />
		<tag k="ssr:type" v="bruk" />
	</node>
	<node id="4480764607" lat="58.6380456" lon="7.7798093" version="2" timestamp="2018-04-10T18:51:59Z" changeset="57982147" uid="3497659" user="NKA">
		<tag k="name" v="Haugen" />
		<tag k="place" v="farm" />
		<tag k="ssr:stedsnr" v="882323" />
		<tag k="ssr:type" v="bruk" />
	</node>
	<node id="4480764608" lat="58.492777" lon="7.715891" version="2" timestamp="2018-04-10T18:51:59Z" changeset="57982147" uid="3497659" user="NKA">
		<tag k="name" v="Haugland" />
		<tag k="place" v="farm" />
		<tag k="ssr:stedsnr" v="910591" />
		<tag k="ssr:type" v="bruk" />
	</node>
	<node id="4480764609" lat="58.5956713" lon="7.6737621" version="2" timestamp="2018-04-10T18:51:59Z" changeset="57982147" uid="3497659" user="NKA">
		<tag k="fixme" v="check position" />
		<tag k="historic" v="ruins" />
		<tag k="name" v="Heimre Ås" />
		<tag k="place" v="locality" />
		<tag k="ssr:stedsnr" v="578866" />
		<tag k="ssr:type" v="gammelBosettingsplass" />
	</node>
	<node id="4480764610" lat="58.6395861" lon="7.8488076" version="4" timestamp="2021-03-18T06:22:43Z" changeset="101231690" uid="3497659" user="NKA">
		<tag k="alt_name" v="Heimstølen" />
		<tag k="historic" v="shieling" />
		<tag k="name" v="Heimstøl" />
		<tag k="place" v="isolated_dwelling" />
		<tag k="ssr:stedsnr" v="183465" />
		<tag k="ssr:type" v="fritidsbolig" />
	</node>
	<node id="4480764611" lat="58.5342295" lon="7.7853718" version="2" timestamp="2018-04-10T18:51:59Z" changeset="57982147" uid="3497659" user="NKA">
		<tag k="name" v="Hestvåg" />
		<tag k="place" v="farm" />
		<tag k="ssr:stedsnr" v="364696" />
		<tag k="ssr:type" v="bruk" />
	</node>
	<node id="4480764612" lat="58.4819379" lon="7.7837571" version="2" timestamp="2018-04-10T18:51:59Z" changeset="57982147" uid="3497659" user="NKA">
		<tag k="name" v="Hodnemoen" />
		<tag k="place" v="farm" />
		<tag k="ssr:stedsnr" v="364233" />
		<tag k="ssr:type" v="bruk" />
	</node>
	<node id="4480764613" lat="58.4726977" lon="7.7887311" version="2" timestamp="2018-04-10T18:52:00Z" changeset="57982147" uid="3497659" user="NKA">
		<tag k="name" v="Hodnesund" />
		<tag k="place" v="farm" />
		<tag k="ssr:stedsnr" v="358167" />
		<tag k="ssr:type" v="bruk" />
	</node>
	<node id="4480764614" lat="58.4646713" lon="7.7699736" version="2" timestamp="2018-04-10T18:52:00Z" changeset="57982147" uid="3497659" user="NKA">
		<tag k="fixme" v="check position" />
		<tag k="historic" v="ruins" />
		<tag k="name" v="Hodneøygard" />
		<tag k="place" v="locality" />
		<tag k="ssr:stedsnr" v="32084" />
		<tag k="ssr:type" v="gammelBosettingsplass" />
	</node>
	<node id="4480764615" lat="58.6413226" lon="7.777842" version="2" timestamp="2018-04-10T18:52:00Z" changeset="57982147" uid="3497659" user="NKA">
		<tag k="name" v="Holtet" />
		<tag k="place" v="farm" />
		<tag k="ssr:stedsnr" v="518320" />
		<tag k="ssr:type" v="bruk" />
	</node>
	<node id="4480764616" lat="58.6671823" lon="7.7139571" version="2" timestamp="2018-04-10T18:52:00Z" changeset="57982147" uid="3497659" user="NKA">
		<tag k="name" v="Holtøygard" />
		<tag k="place" v="locality" />
		<tag k="ssr:stedsnr" v="578096" />
		<tag k="ssr:type" v="gammelBosettingsplass" />
	</node>
	<node id="4480764617" lat="58.4718526" lon="7.7841921" version="2" timestamp="2018-04-10T18:52:00Z" changeset="57982147" uid="3497659" user="NKA">
		<tag k="name" v="Horne sag" />
		<tag k="place" v="locality" />
		<tag k="ssr:stedsnr" v="93006" />
		<tag k="ssr:type" v="industriområde" />
	</node>
	<node id="4480764619" lat="58.5538998" lon="7.771412" version="2" timestamp="2018-04-10T18:52:00Z" changeset="57982147" uid="3497659" user="NKA">
		<tag k="name" v="Hornnes" />
		<tag k="place" v="village" />
		<tag k="ssr:stedsnr" v="183648" />
		<tag k="ssr:type" v="bygdelagBygd" />
	</node>
	<node id="4480764620" lat="58.6156411" lon="7.9592773" version="3" timestamp="2018-04-28T08:07:09Z" changeset="58497758" uid="3497659" user="NKA">
		<tag k="historic" v="shieling" />
		<tag k="name" v="Hova" />
		<tag k="place" v="locality" />
		<tag k="ssr:stedsnr" v="638842" />
		<tag k="ssr:type" v="seterStøl" />
	</node>
	<node id="4480764621" lat="58.5410748" lon="7.6745622" version="2" timestamp="2018-04-10T18:52:00Z" changeset="57982147" uid="3497659" user="NKA">
		<tag k="name" v="Huset" />
		<tag k="place" v="farm" />
		<tag k="ssr:stedsnr" v="154933" />
		<tag k="ssr:type" v="bruk" />
	</node>
	<node id="4480764622" lat="58.5734809" lon="7.9338537" version="3" timestamp="2021-03-18T06:22:43Z" changeset="101231690" uid="3497659" user="NKA">
		<tag k="name" v="Håland" />
		<tag k="place" v="isolated_dwelling" />
		<tag k="ssr:stedsnr" v="790759" />
		<tag k="ssr:type" v="gammelBosettingsplass" />
	</node>
	<node id="4480764623" lat="58.6313967" lon="7.946091" version="3" timestamp="2018-04-28T08:07:09Z" changeset="58497758" uid="3497659" user="NKA">
		<tag k="building" v="cabin" />
		<tag k="historic" v="shieling" />
		<tag k="name" v="Håstøl" />
		<tag k="place" v="isolated_dwelling" />
		<tag k="ssr:stedsnr" v="93562" />
		<tag k="ssr:type" v="seterStøl" />
	</node>
	<node id="4480764624" lat="58.5821262" lon="7.972976" version="2" timestamp="2018-04-10T18:52:01Z" changeset="57982147" uid="3497659" user="NKA">
		<tag k="name" v="Håtveit" />
		<tag k="place" v="farm" />
		<tag k="ssr:stedsnr" v="1747" />
		<tag k="ssr:type" v="bruk" />
	</node>
	<node id="4480764625" lat="58.5644576" lon="7.8431936" version="2" timestamp="2018-04-10T18:52:01Z" changeset="57982147" uid="3497659" user="NKA">
		<tag k="name" v="Høgetveit" />
		<tag k="place" v="farm" />
		<tag k="ssr:stedsnr" v="790686" />
		<tag k="ssr:type" v="bruk" />
	</node>
	<node id="4480764626" lat="58.6520612" lon="7.9049215" version="4" timestamp="2021-03-18T06:22:43Z" changeset="101231690" uid="3497659" user="NKA">
		<tag k="historic" v="shieling" />
		<tag k="name" v="Indreøygard" />
		<tag k="place" v="isolated_dwelling" />
		<tag k="ssr:stedsnr" v="275717" />
		<tag k="ssr:type" v="seterStøl" />
	</node>
	<node id="4480764627" lat="58.5984574" lon="7.8534234" version="2" timestamp="2018-04-10T18:52:01Z" changeset="57982147" uid="3497659" user="NKA">
		<tag k="alt_name" v="Jokeli" />
		<tag k="name" v="Jokelid" />
		<tag k="place" v="farm" />
		<tag k="ssr:stedsnr" v="729731" />
		<tag k="ssr:type" v="eneboligMindreBoligbygg" />
	</node>
	<node id="4480764628" lat="58.5753513" lon="7.7504072" version="2" timestamp="2018-04-10T18:52:01Z" changeset="57982147" uid="3497659" user="NKA">
		<tag k="alt_name" v="Jortveit" />
		<tag k="name" v="Jordtveit" />
		<tag k="place" v="farm" />
		<tag k="ssr:stedsnr" v="304745" />
		<tag k="ssr:type" v="bruk" />
	</node>
	<node id="4480764629" lat="58.5935883" lon="7.8065185" version="2" timestamp="2018-04-10T18:52:01Z" changeset="57982147" uid="3497659" user="NKA">
		<tag k="name" v="Jåmyr" />
		<tag k="place" v="farm" />
		<tag k="ssr:stedsnr" v="639364" />
		<tag k="ssr:type" v="bruk" />
	</node>
	<node id="4480764630" lat="58.4727989" lon="7.6318527" version="2" timestamp="2018-04-10T18:52:01Z" changeset="57982147" uid="3497659" user="NKA">
		<tag k="name" v="Kalland" />
		<tag k="place" v="farm" />
		<tag k="ssr:stedsnr" v="182576" />
		<tag k="ssr:type" v="bruk" />
	</node>
	<node id="4480764631" lat="58.5770507" lon="7.7327695" version="2" timestamp="2018-04-10T18:52:01Z" changeset="57982147" uid="3497659" user="NKA">
		<tag k="name" v="Kallhovd" />
		<tag k="place" v="hamlet" />
		<tag k="ssr:stedsnr" v="122735" />
		<tag k="ssr:type" v="bruk" />
	</node>
	<node id="4480764632" lat="58.5697384" lon="7.856215" version="2" timestamp="2018-04-10T18:52:02Z" changeset="57982147" uid="3497659" user="NKA">
		<tag k="name" v="Kjebekk" />
		<tag k="place" v="farm" />
		<tag k="ssr:stedsnr" v="62657" />
		<tag k="ssr:type" v="bruk" />
	</node>
	<node id="4480764633" lat="58.6970744" lon="7.6695464" version="3" timestamp="2021-03-18T06:22:43Z" changeset="101231690" uid="3497659" user="NKA">
		<tag k="name" v="Kjåkedal" />
		<tag k="place" v="isolated_dwelling" />
		<tag k="ssr:stedsnr" v="729209" />
		<tag k="ssr:type" v="fritidsbolig" />
	</node>
	<node id="4480764634" lat="58.5976858" lon="7.8332159" version="2" timestamp="2018-04-10T18:52:02Z" changeset="57982147" uid="3497659" user="NKA">
		<tag k="name" v="Kjørkåsen" />
		<tag k="place" v="farm" />
		<tag k="ssr:stedsnr" v="700208" />
		<tag k="ssr:type" v="bruk" />
	</node>
	<node id="4480764635" lat="58.5659406" lon="7.8603506" version="2" timestamp="2018-04-10T18:52:02Z" changeset="57982147" uid="3497659" user="NKA">
		<tag k="name" v="Kleggetveit" />
		<tag k="place" v="farm" />
		<tag k="ssr:stedsnr" v="244678" />
		<tag k="ssr:type" v="bruk" />
	</node>
	<node id="4480764636" lat="58.5033818" lon="7.7818319" version="2" timestamp="2018-04-10T18:52:02Z" changeset="57982147" uid="3497659" user="NKA">
		<tag k="name" v="Klepp" />
		<tag k="place" v="farm" />
		<tag k="ssr:stedsnr" v="364408" />
		<tag k="ssr:type" v="bruk" />
	</node>
	<node id="4480764637" lat="58.6142211" lon="7.9558182" version="2" timestamp="2018-04-10T18:52:02Z" changeset="57982147" uid="3497659" user="NKA">
		<tag k="name" v="Kleppsland" />
		<tag k="place" v="farm" />
		<tag k="ssr:stedsnr" v="850539" />
		<tag k="ssr:type" v="bruk" />
	</node>
	<node id="4480764638" lat="58.5787518" lon="7.9542037" version="2" timestamp="2018-04-10T18:52:02Z" changeset="57982147" uid="3497659" user="NKA">
		<tag k="name" v="Kleveland" />
		<tag k="place" v="hamlet" />
		<tag k="ssr:stedsnr" v="62736" />
		<tag k="ssr:type" v="bruk" />
	</node>
	<node id="4480764639" lat="58.6505024" lon="7.6153279" version="2" timestamp="2018-04-10T18:52:02Z" changeset="57982147" uid="3497659" user="NKA">
		<tag k="name" v="Kleven" />
		<tag k="place" v="farm" />
		<tag k="ssr:stedsnr" v="182155" />
		<tag k="ssr:type" v="bruk" />
	</node>
	<node id="4480764640" lat="58.5775363" lon="7.845068" version="2" timestamp="2018-04-10T18:52:03Z" changeset="57982147" uid="3497659" user="NKA">
		<tag k="name" v="Knapen" />
		<tag k="place" v="farm" />
		<tag k="ssr:stedsnr" v="607734" />
		<tag k="ssr:type" v="bruk" />
	</node>
	<node id="4480764641" lat="58.5424258" lon="7.7000508" version="2" timestamp="2018-04-10T18:52:03Z" changeset="57982147" uid="3497659" user="NKA">
		<tag k="name" v="Krohei" />
		<tag k="place" v="farm" />
		<tag k="ssr:stedsnr" v="303972" />
		<tag k="ssr:type" v="bruk" />
	</node>
	<node id="4480764642" lat="58.6209676" lon="7.6775151" version="3" timestamp="2021-03-18T06:22:43Z" changeset="101231690" uid="3497659" user="NKA">
		<tag k="alt_name" v="Kroni" />
		<tag k="name" v="Krona" />
		<tag k="place" v="isolated_dwelling" />
		<tag k="ssr:stedsnr" v="833" />
		<tag k="ssr:type" v="fritidsbolig" />
	</node>
	<node id="4480764643" lat="58.5884335" lon="7.7968854" version="2" timestamp="2018-04-10T18:52:03Z" changeset="57982147" uid="3497659" user="NKA">
		<tag k="name" v="Krossen" />
		<tag k="place" v="neighbourhood" />
		<tag k="ssr:stedsnr" v="850728" />
		<tag k="ssr:type" v="tettbebyggelse" />
	</node>
	<node id="4480764644" lat="58.6290439" lon="7.6346845" version="3" timestamp="2021-03-18T06:22:43Z" changeset="101231690" uid="3497659" user="NKA">
		<tag k="name" v="Krossen" />
		<tag k="place" v="isolated_dwelling" />
		<tag k="ssr:stedsnr" v="485799" />
		<tag k="ssr:type" v="fritidsbolig" />
	</node>
	<node id="4480764645" lat="58.6376897" lon="7.8492506" version="2" timestamp="2018-04-10T18:52:03Z" changeset="57982147" uid="3497659" user="NKA">
		<tag k="fixme" v="check position" />
		<tag k="historic" v="ruins" />
		<tag k="name" v="Kråkestølane" />
		<tag k="place" v="locality" />
		<tag k="ssr:stedsnr" v="396563" />
		<tag k="ssr:type" v="gammelBosettingsplass" />
	</node>
	<node id="4480764646" lat="58.5986719" lon="7.6630894" version="2" timestamp="2018-04-10T18:52:03Z" changeset="57982147" uid="3497659" user="NKA">
		<tag k="name" v="Kvasshommen" />
		<tag k="place" v="farm" />
		<tag k="ssr:stedsnr" v="425866" />
		<tag k="ssr:type" v="bruk" />
	</node>
	<node id="4480764647" lat="58.5978673" lon="7.8273413" version="3" timestamp="2021-09-12T17:50:58Z" changeset="111106773" uid="715936" user="Gazer75">
		<tag k="name" v="Kyrkjebygda" />
		<tag k="place" v="hamlet" />
		<tag k="ssr:stedsnr" v="61696" />
		<tag k="ssr:type" v="bygdelagBygd" />
	</node>
	<node id="4480764648" lat="58.5129136" lon="7.8379286" version="2" timestamp="2018-04-10T18:52:03Z" changeset="57982147" uid="3497659" user="NKA">
		<tag k="name" v="Landsverk" />
		<tag k="place" v="farm" />
		<tag k="ssr:stedsnr" v="790406" />
		<tag k="ssr:type" v="bruk" />
	</node>
	<node id="4480764649" lat="58.5913115" lon="7.8613975" version="2" timestamp="2018-04-10T18:52:04Z" changeset="57982147" uid="3497659" user="NKA">
		<tag k="name" v="Landsverkplassen" />
		<tag k="place" v="farm" />
		<tag k="ssr:stedsnr" v="457382" />
		<tag k="ssr:type" v="bruk" />
	</node>
	<node id="4480764650" lat="58.6533028" lon="7.8034536" version="2" timestamp="2018-04-10T18:52:04Z" changeset="57982147" uid="3497659" user="NKA">
		<tag k="name" v="Langemyr" />
		<tag k="place" v="farm" />
		<tag k="ssr:stedsnr" v="517467" />
		<tag k="ssr:type" v="bruk" />
	</node>
	<node id="4480764651" lat="58.5535326" lon="7.8388781" version="2" timestamp="2018-04-10T18:52:04Z" changeset="57982147" uid="3497659" user="NKA">
		<tag k="name" v="Lauvland" />
		<tag k="place" v="hamlet" />
		<tag k="ssr:stedsnr" v="244669" />
		<tag k="ssr:type" v="bruk" />
	</node>
	<node id="4480764652" lat="58.6406954" lon="7.96645" version="2" timestamp="2018-04-10T18:52:04Z" changeset="57982147" uid="3497659" user="NKA">
		<tag k="name" v="Lauvås" />
		<tag k="place" v="farm" />
		<tag k="ssr:stedsnr" v="244594" />
		<tag k="ssr:type" v="bruk" />
	</node>
	<node id="4480764653" lat="58.6740578" lon="7.6565997" version="2" timestamp="2018-04-10T18:52:04Z" changeset="57982147" uid="3497659" user="NKA">
		<tag k="fixme" v="check position" />
		<tag k="historic" v="ruins" />
		<tag k="name" v="Lauvåsøygard" />
		<tag k="place" v="locality" />
		<tag k="ssr:stedsnr" v="517069" />
		<tag k="ssr:type" v="gammelBosettingsplass" />
	</node>
	<node id="4480764654" lat="58.5153513" lon="7.7144967" version="2" timestamp="2018-04-10T18:52:04Z" changeset="57982147" uid="3497659" user="NKA">
		<tag k="name" v="Li" />
		<tag k="place" v="farm" />
		<tag k="ssr:stedsnr" v="668877" />
		<tag k="ssr:type" v="bruk" />
	</node>
	<node id="4480764655" lat="58.5884593" lon="7.7890701" version="2" timestamp="2018-04-10T18:52:04Z" changeset="57982147" uid="3497659" user="NKA">
		<tag k="name" v="Lia" />
		<tag k="place" v="farm" />
		<tag k="ssr:stedsnr" v="911702" />
		<tag k="ssr:type" v="bruk" />
	</node>
	<node id="4480764656" lat="58.6212869" lon="7.6845268" version="4" timestamp="2021-03-18T06:22:43Z" changeset="101231690" uid="3497659" user="NKA">
		<tag k="historic" v="shieling" />
		<tag k="name" v="Liestøl" />
		<tag k="place" v="isolated_dwelling" />
		<tag k="ssr:stedsnr" v="517947" />
		<tag k="ssr:type" v="seterStøl" />
	</node>
	<node id="4480764657" lat="58.5382984" lon="7.6813537" version="2" timestamp="2018-04-10T18:52:04Z" changeset="57982147" uid="3497659" user="NKA">
		<tag k="name" v="Lislevand" />
		<tag k="place" v="farm" />
		<tag k="ssr:stedsnr" v="882902" />
		<tag k="ssr:type" v="bruk" />
	</node>
	<node id="4480764658" lat="58.5814008" lon="7.9859803" version="2" timestamp="2018-04-10T18:52:05Z" changeset="57982147" uid="3497659" user="NKA">
		<tag k="name" v="Lislevann" />
		<tag k="place" v="hamlet" />
		<tag k="ssr:stedsnr" v="183751" />
		<tag k="ssr:type" v="gard" />
	</node>
	<node id="4480764659" lat="58.5416673" lon="7.8138685" version="2" timestamp="2018-04-10T18:52:05Z" changeset="57982147" uid="3497659" user="NKA">
		<tag k="fixme" v="check position" />
		<tag k="historic" v="ruins" />
		<tag k="name" v="Lisleøygard" />
		<tag k="place" v="locality" />
		<tag k="ssr:stedsnr" v="882208" />
		<tag k="ssr:type" v="gammelBosettingsplass" />
	</node>
	<node id="4480764660" lat="58.5822054" lon="7.8570334" version="2" timestamp="2018-04-10T18:52:05Z" changeset="57982147" uid="3497659" user="NKA">
		<tag k="name" v="Lund" />
		<tag k="place" v="farm" />
		<tag k="ssr:stedsnr" v="850722" />
		<tag k="ssr:type" v="bruk" />
	</node>
	<node id="4480764661" lat="58.6403074" lon="7.7786212" version="2" timestamp="2018-04-10T18:52:05Z" changeset="57982147" uid="3497659" user="NKA">
		<tag k="name" v="Lunden" />
		<tag k="place" v="farm" />
		<tag k="ssr:stedsnr" v="396275" />
		<tag k="ssr:type" v="bruk" />
	</node>
	<node id="4480764662" lat="58.6377075" lon="7.7765168" version="2" timestamp="2018-04-10T18:52:05Z" changeset="57982147" uid="3497659" user="NKA">
		<tag k="name" v="Lunderekra" />
		<tag k="place" v="farm" />
		<tag k="ssr:stedsnr" v="457290" />
		<tag k="ssr:type" v="bruk" />
	</node>
	<node id="4480764663" lat="58.5264491" lon="7.5671938" version="2" timestamp="2018-04-10T18:52:05Z" changeset="57982147" uid="3497659" user="NKA">
		<tag k="alt_name" v="Matkroni" />
		<tag k="name" v="Matkrona" />
		<tag k="place" v="farm" />
		<tag k="ssr:stedsnr" v="607987" />
		<tag k="ssr:type" v="bruk" />
	</node>
	<node id="4480764664" lat="58.679922" lon="7.7287276" version="3" timestamp="2018-04-28T08:07:10Z" changeset="58497758" uid="3497659" user="NKA">
		<tag k="building" v="cabin" />
		<tag k="historic" v="shieling" />
		<tag k="name" v="Mjåvasstøl" />
		<tag k="place" v="isolated_dwelling" />
		<tag k="ssr:stedsnr" v="517272" />
		<tag k="ssr:type" v="seterStøl" />
	</node>
	<node id="4480764665" lat="58.5026298" lon="7.7749105" version="2" timestamp="2018-04-10T18:52:05Z" changeset="57982147" uid="3497659" user="NKA">
		<tag k="name" v="Moisund" />
		<tag k="place" v="farm" />
		<tag k="ssr:stedsnr" v="850444" />
		<tag k="ssr:type" v="bruk" />
	</node>
	<node id="4480764666" lat="58.6050147" lon="7.8304297" version="2" timestamp="2018-04-10T18:52:05Z" changeset="57982147" uid="3497659" user="NKA">
		<tag k="name" v="Monen" />
		<tag k="place" v="farm" />
		<tag k="ssr:stedsnr" v="335298" />
		<tag k="ssr:type" v="bruk" />
	</node>
	<node id="4480764667" lat="58.6396733" lon="7.7794641" version="2" timestamp="2018-04-10T18:52:06Z" changeset="57982147" uid="3497659" user="NKA">
		<tag k="name" v="Moseid" />
		<tag k="place" v="hamlet" />
		<tag k="ssr:stedsnr" v="426483" />
		<tag k="ssr:type" v="gard" />
	</node>
	<node id="4480764668" lat="58.4905355" lon="7.6885751" version="3" timestamp="2021-03-18T06:22:43Z" changeset="101231690" uid="3497659" user="NKA">
		<tag k="name" v="Mossebu" />
		<tag k="place" v="isolated_dwelling" />
		<tag k="ssr:stedsnr" v="457815" />
		<tag k="ssr:type" v="fritidsbolig" />
	</node>
	<node id="4480764669" lat="58.6151471" lon="7.8061723" version="2" timestamp="2018-04-10T18:52:06Z" changeset="57982147" uid="3497659" user="NKA">
		<tag k="name" v="Myrane" />
		<tag k="place" v="farm" />
		<tag k="ssr:stedsnr" v="517226" />
		<tag k="ssr:type" v="eneboligMindreBoligbygg" />
	</node>
	<node id="4480764670" lat="58.640002" lon="7.5810105" version="2" timestamp="2018-04-10T18:52:06Z" changeset="57982147" uid="3497659" user="NKA">
		<tag k="fixme" v="check position" />
		<tag k="historic" v="ruins" />
		<tag k="name" v="Myrbu" />
		<tag k="place" v="locality" />
		<tag k="ssr:stedsnr" v="93610" />
		<tag k="ssr:type" v="gammelBosettingsplass" />
	</node>
	<node id="4480764671" lat="58.5790974" lon="7.9426019" version="3" timestamp="2018-04-26T06:12:46Z" changeset="58431417" uid="3497659" user="NKA">
		<tag k="alt_name" v="Mykjåland" />
		<tag k="name" v="Møkjåland" />
		<tag k="place" v="farm" />
		<tag k="ssr:stedsnr" v="729755" />
		<tag k="ssr:type" v="bruk" />
	</node>
	<node id="4480764672" lat="58.5173256" lon="7.7661996" version="2" timestamp="2018-04-10T18:52:06Z" changeset="57982147" uid="3497659" user="NKA">
		<tag k="alt_name" v="Hannås nedre" />
		<tag k="name" v="Nedre Hannås" />
		<tag k="place" v="farm" />
		<tag k="ssr:stedsnr" v="729426" />
		<tag k="ssr:type" v="bruk" />
	</node>
	<node id="4480764673" lat="58.5136958" lon="7.8558056" version="2" timestamp="2018-04-10T18:52:06Z" changeset="57982147" uid="3497659" user="NKA">
		<tag k="alt_name" v="Li nedre;Li" />
		<tag k="name" v="Nedre Li" />
		<tag k="place" v="farm" />
		<tag k="ssr:stedsnr" v="607417" />
		<tag k="ssr:type" v="bruk" />
	</node>
	<node id="4480764674" lat="58.6458321" lon="7.8673933" version="3" timestamp="2021-03-18T06:22:43Z" changeset="101231690" uid="3497659" user="NKA">
		<tag k="alt_name" v="Nedre Øygarden" />
		<tag k="name" v="Nedreøygard" />
		<tag k="place" v="isolated_dwelling" />
		<tag k="ssr:stedsnr" v="426496" />
		<tag k="ssr:type" v="fritidsbolig" />
	</node>
	<node id="4480764675" lat="58.5442914" lon="7.7597989" version="2" timestamp="2018-04-10T18:52:07Z" changeset="57982147" uid="3497659" user="NKA">
		<tag k="name" v="Neregarden" />
		<tag k="place" v="farm" />
		<tag k="ssr:stedsnr" v="518214" />
		<tag k="ssr:type" v="bruk" />
	</node>
	<node id="4480764676" lat="58.6095628" lon="7.8768809" version="2" timestamp="2018-04-10T18:52:07Z" changeset="57982147" uid="3497659" user="NKA">
		<tag k="name" v="Nordbø" />
		<tag k="place" v="hamlet" />
		<tag k="ssr:stedsnr" v="243541" />
		<tag k="ssr:type" v="bruk" />
	</node>
	<node id="4480764677" lat="58.6212951" lon="7.9167395" version="2" timestamp="2018-04-10T18:52:07Z" changeset="57982147" uid="3497659" user="NKA">
		<tag k="historic" v="ruins" />
		<tag k="name" v="Nordbøøygarden" />
		<tag k="place" v="locality" />
		<tag k="ssr:stedsnr" v="426527" />
		<tag k="ssr:type" v="fritidsbolig" />
	</node>
	<node id="4480764678" lat="58.4965531" lon="7.7157935" version="2" timestamp="2018-04-10T18:52:07Z" changeset="57982147" uid="3497659" user="NKA">
		<tag k="name" v="Nordheim" />
		<tag k="place" v="farm" />
		<tag k="ssr:stedsnr" v="761784" />
		<tag k="ssr:type" v="bruk" />
	</node>
	<node id="4480764679" lat="58.5385338" lon="7.6729256" version="2" timestamp="2018-04-10T18:52:07Z" changeset="57982147" uid="3497659" user="NKA">
		<tag k="alt_name" v="Nygard" />
		<tag k="name" v="Nygård" />
		<tag k="place" v="farm" />
		<tag k="ssr:stedsnr" v="426974" />
		<tag k="ssr:type" v="bruk" />
	</node>
	<node id="4480764680" lat="58.5966518" lon="7.8461197" version="2" timestamp="2018-04-10T18:52:07Z" changeset="57982147" uid="3497659" user="NKA">
		<tag k="name" v="Odde" />
		<tag k="place" v="farm" />
		<tag k="ssr:stedsnr" v="486710" />
		<tag k="ssr:type" v="bruk" />
	</node>
	<node id="4480764681" lat="58.593683" lon="7.842481" version="2" timestamp="2018-04-10T18:52:07Z" changeset="57982147" uid="3497659" user="NKA">
		<tag k="name" v="Oddehagen" />
		<tag k="place" v="farm" />
		<tag k="ssr:stedsnr" v="335387" />
		<tag k="ssr:type" v="bruk" />
	</node>
	<node id="4480764682" lat="58.6322126" lon="7.5520989" version="2" timestamp="2018-04-10T18:52:07Z" changeset="57982147" uid="3497659" user="NKA">
		<tag k="fixme" v="check position" />
		<tag k="historic" v="ruins" />
		<tag k="name" v="Olav Hansons øygard" />
		<tag k="place" v="locality" />
		<tag k="ssr:stedsnr" v="578662" />
		<tag k="ssr:type" v="gammelBosettingsplass" />
	</node>
	<node id="4480764683" lat="58.5491594" lon="7.7401551" version="2" timestamp="2018-04-10T18:52:08Z" changeset="57982147" uid="3497659" user="NKA">
		<tag k="building" v="cabin" />
		<tag k="name" v="Ommundsplass" />
		<tag k="place" v="isolated_dwelling" />
		<tag k="ssr:stedsnr" v="638178" />
		<tag k="ssr:type" v="gammelBosettingsplass" />
	</node>
	<node id="4480764684" lat="58.6393578" lon="7.7764691" version="2" timestamp="2018-04-10T18:52:08Z" changeset="57982147" uid="3497659" user="NKA">
		<tag k="name" v="Ospelunden" />
		<tag k="place" v="farm" />
		<tag k="ssr:stedsnr" v="457289" />
		<tag k="ssr:type" v="bruk" />
	</node>
	<node id="4480764685" lat="58.6597739" lon="7.7536932" version="3" timestamp="2021-03-18T06:22:43Z" changeset="101231690" uid="3497659" user="NKA">
		<tag k="name" v="Otrahytta" />
		<tag k="place" v="isolated_dwelling" />
		<tag k="ssr:stedsnr" v="850586" />
		<tag k="ssr:type" v="fritidsbolig" />
	</node>
	<node id="4480764686" lat="58.6139614" lon="7.8874972" version="2" timestamp="2018-04-10T18:52:08Z" changeset="57982147" uid="3497659" user="NKA">
		<tag k="fixme" v="check position" />
		<tag k="historic" v="ruins" />
		<tag k="name" v="Persplass" />
		<tag k="place" v="locality" />
		<tag k="ssr:stedsnr" v="335551" />
		<tag k="ssr:type" v="gammelBosettingsplass" />
	</node>
	<node id="4480764687" lat="58.5560688" lon="7.8437085" version="2" timestamp="2018-04-10T18:52:08Z" changeset="57982147" uid="3497659" user="NKA">
		<tag k="fixme" v="check position" />
		<tag k="historic" v="ruins" />
		<tag k="name" v="Plassen" />
		<tag k="place" v="locality" />
		<tag k="ssr:stedsnr" v="93368" />
		<tag k="ssr:type" v="gammelBosettingsplass" />
	</node>
	<node id="4480764688" lat="58.5800282" lon="7.8434619" version="2" timestamp="2018-04-10T18:52:08Z" changeset="57982147" uid="3497659" user="NKA">
		<tag k="name" v="Plassen" />
		<tag k="place" v="isolated_dwelling" />
		<tag k="ssr:stedsnr" v="214401" />
		<tag k="ssr:type" v="gammelBosettingsplass" />
	</node>
	<node id="4480764889" lat="58.6084901" lon="7.8872556" version="3" timestamp="2021-03-18T06:22:43Z" changeset="101231690" uid="3497659" user="NKA">
		<tag k="name" v="Plassen" />
		<tag k="place" v="isolated_dwelling" />
		<tag k="ssr:stedsnr" v="821501" />
		<tag k="ssr:type" v="gammelBosettingsplass" />
	</node>
	<node id="4480764890" lat="58.6091655" lon="7.9555927" version="2" timestamp="2018-04-10T18:52:08Z" changeset="57982147" uid="3497659" user="NKA">
		<tag k="alt_name" v="Prestøygarden" />
		<tag k="name" v="Prestøygard" />
		<tag k="place" v="farm" />
		<tag k="ssr:stedsnr" v="668546" />
		<tag k="ssr:type" v="bruk" />
	</node>
	<node id="4480764891" lat="58.6390118" lon="7.9871732" version="3" timestamp="2018-04-28T08:07:10Z" changeset="58497758" uid="3497659" user="NKA">
		<tag k="historic" v="shieling" />
		<tag k="name" v="Raudstøl" />
		<tag k="place" v="farm" />
		<tag k="ssr:stedsnr" v="1561" />
		<tag k="ssr:type" v="gard" />
	</node>
	<node id="4480764892" lat="58.6331887" lon="7.9422536" version="4" timestamp="2021-03-18T06:22:43Z" changeset="101231690" uid="3497659" user="NKA">
		<tag k="historic" v="shieling" />
		<tag k="name" v="Reidal" />
		<tag k="place" v="isolated_dwelling" />
		<tag k="ssr:stedsnr" v="638512" />
		<tag k="ssr:type" v="seterStøl" />
	</node>
	<node id="4480764893" lat="58.471525" lon="7.7894644" version="2" timestamp="2018-04-10T18:52:09Z" changeset="57982147" uid="3497659" user="NKA">
		<tag k="name" v="Reiet" />
		<tag k="place" v="farm" />
		<tag k="ssr:stedsnr" v="942004" />
		<tag k="ssr:type" v="bruk" />
	</node>
	<node id="4480764894" lat="58.5709247" lon="7.835563" version="2" timestamp="2018-04-10T18:52:09Z" changeset="57982147" uid="3497659" user="NKA">
		<tag k="name" v="Rosseland" />
		<tag k="place" v="farm" />
		<tag k="ssr:stedsnr" v="486734" />
		<tag k="ssr:type" v="bruk" />
	</node>
	<node id="4480764895" lat="58.6496236" lon="7.6198558" version="2" timestamp="2018-04-10T18:52:09Z" changeset="57982147" uid="3497659" user="NKA">
		<tag k="name" v="Rota" />
		<tag k="place" v="farm" />
		<tag k="ssr:stedsnr" v="364191" />
		<tag k="ssr:type" v="bruk" />
	</node>
	<node id="4480764896" lat="58.6067936" lon="7.6958513" version="3" timestamp="2021-03-18T06:22:43Z" changeset="101231690" uid="3497659" user="NKA">
		<tag k="name" v="Rysebu" />
		<tag k="place" v="isolated_dwelling" />
		<tag k="ssr:stedsnr" v="396931" />
		<tag k="ssr:type" v="fritidsbolig" />
	</node>
	<node id="4480764897" lat="58.582504" lon="7.8908751" version="2" timestamp="2018-04-10T18:52:09Z" changeset="57982147" uid="3497659" user="NKA">
		<tag k="fixme" v="check position" />
		<tag k="historic" v="ruins" />
		<tag k="name" v="Rønningen" />
		<tag k="place" v="locality" />
		<tag k="ssr:stedsnr" v="882366" />
		<tag k="ssr:type" v="gammelBosettingsplass" />
	</node>
	<node id="4480764898" lat="58.5843846" lon="7.9190912" version="2" timestamp="2018-04-10T18:52:09Z" changeset="57982147" uid="3497659" user="NKA">
		<tag k="fixme" v="check position" />
		<tag k="historic" v="ruins" />
		<tag k="name" v="Rønningen" />
		<tag k="place" v="locality" />
		<tag k="ssr:stedsnr" v="396385" />
		<tag k="ssr:type" v="gammelBosettingsplass" />
	</node>
	<node id="4480764899" lat="58.6486212" lon="7.8689159" version="3" timestamp="2021-03-18T06:22:43Z" changeset="101231690" uid="3497659" user="NKA">
		<tag k="name" v="Røynås" />
		<tag k="place" v="isolated_dwelling" />
		<tag k="ssr:stedsnr" v="668523" />
		<tag k="ssr:type" v="fritidsbolig" />
	</node>
	<node id="4480764900" lat="58.6021467" lon="7.8920167" version="2" timestamp="2018-04-10T18:52:10Z" changeset="57982147" uid="3497659" user="NKA">
		<tag k="fixme" v="check position" />
		<tag k="historic" v="ruins" />
		<tag k="name" v="Sandane" />
		<tag k="place" v="locality" />
		<tag k="ssr:stedsnr" v="760430" />
		<tag k="ssr:type" v="gammelBosettingsplass" />
	</node>
	<node id="4480764901" lat="58.6500753" lon="7.905506" version="2" timestamp="2018-04-10T18:52:10Z" changeset="57982147" uid="3497659" user="NKA">
		<tag k="building" v="cabin" />
		<tag k="name" v="Selland" />
		<tag k="place" v="isolated_dwelling" />
		<tag k="ssr:stedsnr" v="243519" />
		<tag k="ssr:type" v="fritidsbolig" />
	</node>
	<node id="4480764902" lat="58.6609506" lon="7.7971273" version="2" timestamp="2018-04-10T18:52:10Z" changeset="57982147" uid="3497659" user="NKA">
		<tag k="name" v="Sennummoen" />
		<tag k="place" v="hamlet" />
		<tag k="ssr:stedsnr" v="183577" />
		<tag k="ssr:type" v="eneboligMindreBoligbygg" />
	</node>
	<node id="4480764903" lat="58.6676661" lon="7.7853981" version="2" timestamp="2018-04-10T18:52:10Z" changeset="57982147" uid="3497659" user="NKA">
		<tag k="name" v="Senum" />
		<tag k="place" v="hamlet" />
		<tag k="ssr:stedsnr" v="425586" />
		<tag k="ssr:type" v="bruk" />
	</node>
	<node id="4480764904" lat="58.7259457" lon="7.6543154" version="2" timestamp="2018-04-10T18:52:10Z" changeset="57982147" uid="3497659" user="NKA">
		<tag k="fixme" v="check position" />
		<tag k="historic" v="ruins" />
		<tag k="name" v="Sindrebu" />
		<tag k="place" v="locality" />
		<tag k="ssr:stedsnr" v="336109" />
		<tag k="ssr:type" v="fritidsbolig" />
	</node>
	<node id="4480764905" lat="58.5909564" lon="7.8246194" version="2" timestamp="2018-04-10T18:52:10Z" changeset="57982147" uid="3497659" user="NKA">
		<tag k="name" v="Sindremoen" />
		<tag k="place" v="neighbourhood" />
		<tag k="ssr:stedsnr" v="578155" />
		<tag k="ssr:type" v="bruk" />
	</node>
	<node id="4480764906" lat="58.5719355" lon="7.8275135" version="3" timestamp="2018-04-28T08:07:10Z" changeset="58497758" uid="3497659" user="NKA">
		<tag k="historic" v="shieling" />
		<tag k="name" v="Skaret" />
		<tag k="place" v="locality" />
		<tag k="ssr:stedsnr" v="578304" />
		<tag k="ssr:type" v="seterStøl" />
	</node>
	<node id="4480764907" lat="58.5638688" lon="7.8643765" version="2" timestamp="2018-04-10T18:52:10Z" changeset="57982147" uid="3497659" user="NKA">
		<tag k="name" v="Skjeggestad" />
		<tag k="place" v="farm" />
		<tag k="ssr:stedsnr" v="153618" />
		<tag k="ssr:type" v="bruk" />
	</node>
	<node id="4480764908" lat="58.4888892" lon="7.7780509" version="2" timestamp="2018-04-10T18:52:11Z" changeset="57982147" uid="3497659" user="NKA">
		<tag k="alt_name" v="Slettefit" />
		<tag k="name" v="Slettefet" />
		<tag k="place" v="farm" />
		<tag k="ssr:stedsnr" v="910210" />
		<tag k="ssr:type" v="bruk" />
	</node>
	<node id="4480764909" lat="58.5828282" lon="7.9535777" version="2" timestamp="2018-04-10T18:52:11Z" changeset="57982147" uid="3497659" user="NKA">
		<tag k="alt_name" v="Slettin" />
		<tag k="name" v="Sletten" />
		<tag k="place" v="farm" />
		<tag k="ssr:stedsnr" v="243759" />
		<tag k="ssr:type" v="bruk" />
	</node>
	<node id="4480764910" lat="58.613111" lon="7.8080859" version="2" timestamp="2018-04-10T18:52:11Z" changeset="57982147" uid="3497659" user="NKA">
		<tag k="name" v="Sole" />
		<tag k="place" v="farm" />
		<tag k="ssr:stedsnr" v="425523" />
		<tag k="ssr:type" v="bruk" />
	</node>
	<node id="4480764911" lat="58.5717292" lon="7.7612136" version="2" timestamp="2018-04-10T18:52:11Z" changeset="57982147" uid="3497659" user="NKA">
		<tag k="name" v="Solheim" />
		<tag k="place" v="farm" />
		<tag k="ssr:stedsnr" v="638812" />
		<tag k="ssr:type" v="bruk" />
	</node>
	<node id="4480764912" lat="58.5792276" lon="7.8425218" version="2" timestamp="2018-04-10T18:52:11Z" changeset="57982147" uid="3497659" user="NKA">
		<tag k="name" v="Solli" />
		<tag k="place" v="farm" />
		<tag k="ssr:stedsnr" v="517395" />
		<tag k="ssr:type" v="bruk" />
	</node>
	<node id="4480764913" lat="58.595026" lon="7.6880065" version="2" timestamp="2018-04-10T18:52:11Z" changeset="57982147" uid="3497659" user="NKA">
		<tag k="fixme" v="check position" />
		<tag k="historic" v="ruins" />
		<tag k="name" v="Soltonplassen" />
		<tag k="place" v="locality" />
		<tag k="ssr:stedsnr" v="639897" />
		<tag k="ssr:type" v="gammelBosettingsplass" />
	</node>
	<node id="4480764914" lat="58.5023313" lon="7.7648617" version="2" timestamp="2018-04-10T18:52:11Z" changeset="57982147" uid="3497659" user="NKA">
		<tag k="fixme" v="check position" />
		<tag k="historic" v="ruins" />
		<tag k="name" v="Stakkegården" />
		<tag k="place" v="locality" />
		<tag k="ssr:stedsnr" v="578033" />
		<tag k="ssr:type" v="gammelBosettingsplass" />
	</node>
	<node id="4480764915" lat="58.648825" lon="7.8013265" version="2" timestamp="2018-04-10T18:52:11Z" changeset="57982147" uid="3497659" user="NKA">
		<tag k="alt_name" v="Stean" />
		<tag k="name" v="Steane" />
		<tag k="place" v="farm" />
		<tag k="ssr:stedsnr" v="911520" />
		<tag k="ssr:type" v="bruk" />
	</node>
	<node id="4480764916" lat="58.5769931" lon="7.8169303" version="2" timestamp="2018-04-10T18:52:11Z" changeset="57982147" uid="3497659" user="NKA">
		<tag k="fixme" v="check position" />
		<tag k="historic" v="ruins" />
		<tag k="name" v="Steinsfjellplassen" />
		<tag k="place" v="locality" />
		<tag k="ssr:stedsnr" v="943342" />
		<tag k="ssr:type" v="gammelBosettingsplass" />
	</node>
	<node id="4480764917" lat="58.5037488" lon="7.5306963" version="2" timestamp="2018-04-10T18:52:12Z" changeset="57982147" uid="3497659" user="NKA">
		<tag k="name" v="Steinsland" />
		<tag k="place" v="farm" />
		<tag k="ssr:stedsnr" v="61891" />
		<tag k="ssr:type" v="bruk" />
	</node>
	<node id="4480764918" lat="58.5048037" lon="7.8217912" version="2" timestamp="2018-04-10T18:52:12Z" changeset="57982147" uid="3497659" user="NKA">
		<tag k="name" v="Stien" />
		<tag k="place" v="farm" />
		<tag k="ssr:stedsnr" v="401" />
		<tag k="ssr:type" v="eneboligMindreBoligbygg" />
	</node>
	<node id="4480764919" lat="58.6007919" lon="7.9543148" version="3" timestamp="2021-03-18T06:22:43Z" changeset="101231690" uid="3497659" user="NKA">
		<tag k="alt_name" v="Storøygarden" />
		<tag k="name" v="Storøygard" />
		<tag k="place" v="isolated_dwelling" />
		<tag k="ssr:stedsnr" v="546683" />
		<tag k="ssr:type" v="fritidsbolig" />
	</node>
	<node id="4480764920" lat="58.5204306" lon="7.7851225" version="2" timestamp="2018-04-10T18:52:12Z" changeset="57982147" uid="3497659" user="NKA">
		<tag k="name" v="Strauman" />
		<tag k="place" v="farm" />
		<tag k="ssr:stedsnr" v="911437" />
		<tag k="ssr:type" v="gard" />
	</node>
	<node id="4480764921" lat="58.4828325" lon="7.5696437" version="3" timestamp="2018-04-28T08:07:10Z" changeset="58497758" uid="3497659" user="NKA">
		<tag k="historic" v="shieling" />
		<tag k="name" v="Strånda" />
		<tag k="place" v="locality" />
		<tag k="ssr:stedsnr" v="518624" />
		<tag k="ssr:type" v="seterStøl" />
	</node>
	<node id="4480764922" lat="58.524374" lon="7.7806881" version="2" timestamp="2018-04-10T18:52:12Z" changeset="57982147" uid="3497659" user="NKA">
		<tag k="alt_name" v="Straumstad" />
		<tag k="name" v="Strømstad" />
		<tag k="place" v="farm" />
		<tag k="ssr:stedsnr" v="122651" />
		<tag k="ssr:type" v="bruk" />
	</node>
	<node id="4480764923" lat="58.6349887" lon="7.9893053" version="2" timestamp="2018-04-10T18:52:12Z" changeset="57982147" uid="3497659" user="NKA">
		<tag k="name" v="Stuverød" />
		<tag k="place" v="farm" />
		<tag k="ssr:stedsnr" v="517680" />
		<tag k="ssr:type" v="bruk" />
	</node>
	<node id="4480764924" lat="58.6047572" lon="7.9796772" version="3" timestamp="2018-04-28T08:07:10Z" changeset="58497758" uid="3497659" user="NKA">
		<tag k="historic" v="shieling" />
		<tag k="name" v="Styggedalen" />
		<tag k="place" v="locality" />
		<tag k="ssr:stedsnr" v="153883" />
		<tag k="ssr:type" v="seterStøl" />
	</node>
	<node id="4480764925" lat="58.5870809" lon="7.7100156" version="2" timestamp="2018-04-10T18:52:13Z" changeset="57982147" uid="3497659" user="NKA">
		<tag k="name" v="Støylen" />
		<tag k="place" v="hamlet" />
		<tag k="ssr:stedsnr" v="485705" />
		<tag k="ssr:type" v="bruk" />
	</node>
	<node id="4480764926" lat="58.5928572" lon="7.9391573" version="2" timestamp="2018-04-10T18:52:13Z" changeset="57982147" uid="3497659" user="NKA">
		<tag k="fixme" v="check position" />
		<tag k="historic" v="ruins" />
		<tag k="name" v="Sukkestøl" />
		<tag k="place" v="locality" />
		<tag k="ssr:stedsnr" v="760425" />
		<tag k="ssr:type" v="gammelBosettingsplass" />
	</node>
	<node id="4480764927" lat="58.4908365" lon="7.726913" version="2" timestamp="2018-04-10T18:52:13Z" changeset="57982147" uid="3497659" user="NKA">
		<tag k="name" v="Sutestad" />
		<tag k="place" v="farm" />
		<tag k="ssr:stedsnr" v="667216" />
		<tag k="ssr:type" v="bruk" />
	</node>
	<node id="4480764928" lat="58.5325831" lon="7.7529121" version="2" timestamp="2018-04-10T18:52:13Z" changeset="57982147" uid="3497659" user="NKA">
		<tag k="building" v="cabin" />
		<tag k="name" v="Svansehytta" />
		<tag k="place" v="isolated_dwelling" />
		<tag k="ssr:stedsnr" v="882110" />
		<tag k="ssr:type" v="fritidsbolig" />
	</node>
	<node id="4480764929" lat="58.4971955" lon="7.7284833" version="2" timestamp="2018-04-10T18:52:13Z" changeset="57982147" uid="3497659" user="NKA">
		<tag k="alt_name" v="Tønnesland søndre" />
		<tag k="name" v="Søndre Tønnesland" />
		<tag k="place" v="farm" />
		<tag k="ssr:stedsnr" v="760020" />
		<tag k="ssr:type" v="bruk" />
	</node>
	<node id="4480764930" lat="58.6025794" lon="7.6677727" version="2" timestamp="2018-04-10T18:52:13Z" changeset="57982147" uid="3497659" user="NKA">
		<tag k="name" v="Teigan" />
		<tag k="place" v="farm" />
		<tag k="ssr:stedsnr" v="699952" />
		<tag k="ssr:type" v="bruk" />
	</node>
	<node id="4480764931" lat="58.588166" lon="7.8141282" version="2" timestamp="2018-04-10T18:52:13Z" changeset="57982147" uid="3497659" user="NKA">
		<tag k="name" v="Tingberget" />
		<tag k="place" v="neighbourhood" />
		<tag k="ssr:stedsnr" v="943201" />
		<tag k="ssr:type" v="tettbebyggelse" />
	</node>
	<node id="4480764932" lat="58.6026776" lon="7.7121586" version="3" timestamp="2021-03-18T06:22:43Z" changeset="101231690" uid="3497659" user="NKA">
		<tag k="name" v="Toddelunden" />
		<tag k="place" v="isolated_dwelling" />
		<tag k="ssr:stedsnr" v="214953" />
		<tag k="ssr:type" v="fritidsbolig" />
	</node>
	<node id="4480764933" lat="58.6047149" lon="7.9035924" version="2" timestamp="2018-04-10T18:52:13Z" changeset="57982147" uid="3497659" user="NKA">
		<tag k="building" v="shed" />
		<tag k="name" v="Torsplass" />
		<tag k="place" v="locality" />
		<tag k="ssr:stedsnr" v="942735" />
		<tag k="ssr:type" v="gammelBosettingsplass" />
	</node>
	<node id="4480764934" lat="58.4911305" lon="7.7133258" version="2" timestamp="2018-04-10T18:52:14Z" changeset="57982147" uid="3497659" user="NKA">
		<tag k="name" v="Trolldalen" />
		<tag k="place" v="farm" />
		<tag k="ssr:stedsnr" v="336845" />
		<tag k="ssr:type" v="bruk" />
	</node>
	<node id="4480764935" lat="58.6365569" lon="7.7768939" version="2" timestamp="2018-04-10T18:52:14Z" changeset="57982147" uid="3497659" user="NKA">
		<tag k="name" v="Trosevollen" />
		<tag k="place" v="farm" />
		<tag k="ssr:stedsnr" v="700390" />
		<tag k="ssr:type" v="bruk" />
	</node>
	<node id="4480764936" lat="58.506384" lon="7.5710657" version="2" timestamp="2018-04-10T18:52:14Z" changeset="57982147" uid="3497659" user="NKA">
		<tag k="name" v="Trudvang" />
		<tag k="place" v="farm" />
		<tag k="ssr:stedsnr" v="943624" />
		<tag k="ssr:type" v="bruk" />
	</node>
	<node id="4480764937" lat="58.5375458" lon="7.6876303" version="2" timestamp="2018-04-10T18:52:14Z" changeset="57982147" uid="3497659" user="NKA">
		<tag k="name" v="Tveit sag" />
		<tag k="place" v="locality" />
		<tag k="ssr:stedsnr" v="336908" />
		<tag k="ssr:type" v="industriområde" />
	</node>
	<node id="4480764938" lat="58.5367728" lon="7.6837191" version="2" timestamp="2018-04-10T18:52:14Z" changeset="57982147" uid="3497659" user="NKA">
		<tag k="name" v="Tveit" />
		<tag k="place" v="hamlet" />
		<tag k="ssr:stedsnr" v="547977" />
		<tag k="ssr:type" v="bruk" />
	</node>
	<node id="4480764939" lat="58.6065737" lon="7.8605723" version="2" timestamp="2018-04-10T18:52:14Z" changeset="57982147" uid="3497659" user="NKA">
		<tag k="name" v="Tveit" />
		<tag k="place" v="farm" />
		<tag k="ssr:stedsnr" v="911723" />
		<tag k="ssr:type" v="bruk" />
	</node>
	<node id="4480764940" lat="58.5028585" lon="7.7362221" version="2" timestamp="2018-04-10T18:52:14Z" changeset="57982147" uid="3497659" user="NKA">
		<tag k="name" v="Tønnesland" />
		<tag k="place" v="farm" />
		<tag k="ssr:stedsnr" v="911433" />
		<tag k="ssr:type" v="bruk" />
	</node>
	<node id="4480764941" lat="58.5972013" lon="7.666439" version="2" timestamp="2018-04-10T18:52:14Z" changeset="57982147" uid="3497659" user="NKA">
		<tag k="name" v="Uleberg" />
		<tag k="place" v="hamlet" />
		<tag k="ssr:stedsnr" v="303856" />
		<tag k="ssr:type" v="bruk" />
	</node>
	<node id="4480764942" lat="58.5823935" lon="7.9178068" version="2" timestamp="2018-04-10T18:52:14Z" changeset="57982147" uid="3497659" user="NKA">
		<tag k="name" v="Undeland" />
		<tag k="place" v="hamlet" />
		<tag k="ssr:stedsnr" v="426755" />
		<tag k="ssr:type" v="bruk" />
	</node>
	<node id="4480764943" lat="58.5592922" lon="7.7577757" version="2" timestamp="2018-04-10T18:52:14Z" changeset="57982147" uid="3497659" user="NKA">
		<tag k="name" v="Valhall" />
		<tag k="place" v="farm" />
		<tag k="ssr:stedsnr" v="668685" />
		<tag k="ssr:type" v="bruk" />
	</node>
	<node id="4480764944" lat="58.5726647" lon="7.7633603" version="2" timestamp="2018-04-10T18:52:15Z" changeset="57982147" uid="3497659" user="NKA">
		<tag k="name" v="Varmedokka" />
		<tag k="place" v="farm" />
		<tag k="ssr:stedsnr" v="668750" />
		<tag k="ssr:type" v="bruk" />
	</node>
	<node id="4480764945" lat="58.4749048" lon="7.7861982" version="2" timestamp="2018-04-10T18:52:15Z" changeset="57982147" uid="3497659" user="NKA">
		<tag k="name" v="Vestre Hodne" />
		<tag k="place" v="hamlet" />
		<tag k="ssr:stedsnr" v="728161" />
		<tag k="ssr:type" v="gard" />
	</node>
	<node id="4480764946" lat="58.6801819" lon="7.6590743" version="2" timestamp="2018-04-10T18:52:15Z" changeset="57982147" uid="3497659" user="NKA">
		<tag k="name" v="Vetrhus" />
		<tag k="place" v="farm" />
		<tag k="ssr:stedsnr" v="122192" />
		<tag k="ssr:type" v="bruk" />
	</node>
	<node id="4480764947" lat="58.4746715" lon="7.7130494" version="3" timestamp="2021-03-18T06:22:43Z" changeset="101231690" uid="3497659" user="NKA">
		<tag k="name" v="Vetterhushytta" />
		<tag k="place" v="isolated_dwelling" />
		<tag k="ssr:stedsnr" v="639856" />
		<tag k="ssr:type" v="fritidsbolig" />
	</node>
	<node id="4480764948" lat="58.5943757" lon="7.9685116" version="3" timestamp="2018-04-28T08:07:11Z" changeset="58497758" uid="3497659" user="NKA">
		<tag k="historic" v="shieling" />
		<tag k="name" v="Vikstøl" />
		<tag k="place" v="farm" />
		<tag k="ssr:stedsnr" v="243708" />
		<tag k="ssr:type" v="bruk" />
	</node>
	<node id="4480764949" lat="58.5213064" lon="7.8361034" version="2" timestamp="2018-04-10T18:52:15Z" changeset="57982147" uid="3497659" user="NKA">
		<tag k="alt_name" v="Vådne" />
		<tag k="name" v="Vånne" />
		<tag k="place" v="farm" />
		<tag k="ssr:stedsnr" v="790430" />
		<tag k="ssr:type" v="bruk" />
	</node>
	<node id="4480764950" lat="58.6254707" lon="7.6230236" version="2" timestamp="2018-04-10T18:52:15Z" changeset="57982147" uid="3497659" user="NKA">
		<tag k="alt_name" v="Dåsvatn, ytre" />
		<tag k="name" v="Ytre Dåsvatn" />
		<tag k="place" v="hamlet" />
		<tag k="ssr:stedsnr" v="546805" />
		<tag k="ssr:type" v="gard" />
	</node>
	<node id="4480764951" lat="58.4792771" lon="7.5709837" version="3" timestamp="2018-04-28T08:07:11Z" changeset="58497758" uid="3497659" user="NKA">
		<tag k="historic" v="shieling" />
		<tag k="name" v="Ytre Strånda" />
		<tag k="place" v="locality" />
		<tag k="ssr:stedsnr" v="518625" />
		<tag k="ssr:type" v="seterStøl" />
	</node>
	<node id="4480764952" lat="58.5939436" lon="7.6775962" version="2" timestamp="2018-04-10T18:52:16Z" changeset="57982147" uid="3497659" user="NKA">
		<tag k="fixme" v="check position" />
		<tag k="historic" v="ruins" />
		<tag k="name" v="Ytre Ås" />
		<tag k="place" v="locality" />
		<tag k="ssr:stedsnr" v="93841" />
		<tag k="ssr:type" v="gammelBosettingsplass" />
	</node>
	<node id="4480765114" lat="58.5711657" lon="7.8644286" version="2" timestamp="2018-04-10T18:52:16Z" changeset="57982147" uid="3497659" user="NKA">
		<tag k="name" v="Åmland" />
		<tag k="place" v="farm" />
		<tag k="ssr:stedsnr" v="61712" />
		<tag k="ssr:type" v="bruk" />
	</node>
	<node id="4480765115" lat="58.5810868" lon="7.8617139" version="2" timestamp="2018-04-10T18:52:16Z" changeset="57982147" uid="3497659" user="NKA">
		<tag k="name" v="Åneland" />
		<tag k="place" v="hamlet" />
		<tag k="ssr:stedsnr" v="668743" />
		<tag k="ssr:type" v="bruk" />
	</node>
	<node id="4480765116" lat="58.5958122" lon="7.9336273" version="4" timestamp="2021-03-18T06:22:43Z" changeset="101231690" uid="3497659" user="NKA">
		<tag k="historic" v="shieling" />
		<tag k="name" v="Ånestøl" />
		<tag k="place" v="isolated_dwelling" />
		<tag k="ssr:stedsnr" v="183708" />
		<tag k="ssr:type" v="fritidsbolig" />
	</node>
	<node id="4480765117" lat="58.6019765" lon="7.7782943" version="2" timestamp="2018-04-10T18:52:16Z" changeset="57982147" uid="3497659" user="NKA">
		<tag k="name" v="Ås" />
		<tag k="place" v="farm" />
		<tag k="ssr:stedsnr" v="911726" />
		<tag k="ssr:type" v="bruk" />
	</node>
	<node id="4480765118" lat="58.663354" lon="7.9243558" version="2" timestamp="2018-04-10T18:52:16Z" changeset="57982147" uid="3497659" user="NKA">
		<tag k="alt_name" v="Åsebu" />
		<tag k="building" v="cabin" />
		<tag k="name" v="Åsbu" />
		<tag k="place" v="isolated_dwelling" />
		<tag k="ssr:stedsnr" v="523" />
		<tag k="ssr:type" v="fritidsbolig" />
	</node>
	<node id="4480765119" lat="58.6059011" lon="7.8970173" version="2" timestamp="2018-04-10T18:52:16Z" changeset="57982147" uid="3497659" user="NKA">
		<tag k="name" v="Åsen" />
		<tag k="place" v="farm" />
		<tag k="ssr:stedsnr" v="699701" />
		<tag k="ssr:type" v="bruk" />
	</node>
	<node id="4480765120" lat="58.6076538" lon="7.9657027" version="2" timestamp="2018-04-10T18:52:16Z" changeset="57982147" uid="3497659" user="NKA">
		<tag k="name" v="Åsen" />
		<tag k="place" v="farm" />
		<tag k="ssr:stedsnr" v="546495" />
		<tag k="ssr:type" v="bruk" />
	</node>
	<node id="4480765121" lat="58.5824482" lon="7.8435344" version="2" timestamp="2018-04-10T18:52:17Z" changeset="57982147" uid="3497659" user="NKA">
		<tag k="name" v="Åsland" />
		<tag k="place" v="farm" />
		<tag k="ssr:stedsnr" v="911755" />
		<tag k="ssr:type" v="bruk" />
	</node>
	<node id="4480765122" lat="58.6039968" lon="7.9047204" version="2" timestamp="2018-04-10T18:52:17Z" changeset="57982147" uid="3497659" user="NKA">
		<tag k="name" v="Åvesland" />
		<tag k="place" v="hamlet" />
		<tag k="ssr:stedsnr" v="911739" />
		<tag k="ssr:type" v="bruk" />
	</node>
	<node id="4480765123" lat="58.5769127" lon="7.7698922" version="2" timestamp="2018-04-10T18:52:17Z" changeset="57982147" uid="3497659" user="NKA">
		<tag k="building" v="cabin" />
		<tag k="name" v="Ærdalen" />
		<tag k="place" v="isolated_dwelling" />
		<tag k="ssr:stedsnr" v="396804" />
		<tag k="ssr:type" v="fritidsbolig" />
	</node>
	<node id="4480765124" lat="58.6508549" lon="7.6371611" version="2" timestamp="2018-04-10T18:52:17Z" changeset="57982147" uid="3497659" user="NKA">
		<tag k="alt_name" v="Yksenskår" />
		<tag k="name" v="Øksenskår" />
		<tag k="place" v="locality" />
		<tag k="ssr:stedsnr" v="485134" />
		<tag k="ssr:type" v="bruk" />
	</node>
	<node id="4480765125" lat="58.6039279" lon="7.8837838" version="2" timestamp="2018-04-10T18:52:17Z" changeset="57982147" uid="3497659" user="NKA">
		<tag k="alt_name" v="Austerhus" />
		<tag k="name" v="Østerhus" />
		<tag k="place" v="farm" />
		<tag k="ssr:stedsnr" v="425732" />
		<tag k="ssr:type" v="bruk" />
	</node>
	<node id="4480765126" lat="58.6446724" lon="7.6111395" version="2" timestamp="2018-04-10T18:52:17Z" changeset="57982147" uid="3497659" user="NKA">
		<tag k="alt_name" v="Dåsvatn, øvre" />
		<tag k="name" v="Øvre Dåsvatn" />
		<tag k="place" v="farm" />
		<tag k="ssr:stedsnr" v="243144" />
		<tag k="ssr:type" v="bruk" />
	</node>
	<node id="4480765127" lat="58.5156321" lon="7.7609628" version="2" timestamp="2018-04-10T18:52:17Z" changeset="57982147" uid="3497659" user="NKA">
		<tag k="alt_name" v="Hannås øvre" />
		<tag k="name" v="Øvre Hannås" />
		<tag k="place" v="farm" />
		<tag k="ssr:stedsnr" v="789428" />
		<tag k="ssr:type" v="bruk" />
	</node>
	<node id="4480765128" lat="58.519538" lon="7.8539941" version="2" timestamp="2018-04-10T18:52:17Z" changeset="57982147" uid="3497659" user="NKA">
		<tag k="alt_name" v="Li Øvre;Li" />
		<tag k="name" v="Øvre Li" />
		<tag k="place" v="farm" />
		<tag k="ssr:stedsnr" v="911438" />
		<tag k="ssr:type" v="bruk" />
	</node>
	<node id="4480765129" lat="58.5395645" lon="7.672239" version="2" timestamp="2018-04-10T18:52:17Z" changeset="57982147" uid="3497659" user="NKA">
		<tag k="name" v="Øygarden" />
		<tag k="place" v="farm" />
		<tag k="ssr:stedsnr" v="183964" />
		<tag k="ssr:type" v="bruk" />
	</node>
	<node id="4480765130" lat="58.5780559" lon="7.9912288" version="2" timestamp="2018-04-10T18:52:18Z" changeset="57982147" uid="3497659" user="NKA">
		<tag k="fixme" v="check position" />
		<tag k="historic" v="ruins" />
		<tag k="name" v="Øygarden" />
		<tag k="place" v="locality" />
		<tag k="ssr:stedsnr" v="93580" />
		<tag k="ssr:type" v="gammelBosettingsplass" />
	</node>
	<node id="4480765131" lat="58.5896709" lon="7.876655" version="2" timestamp="2018-04-10T18:52:18Z" changeset="57982147" uid="3497659" user="NKA">
		<tag k="building" v="cabin" />
		<tag k="name" v="Øygarden" />
		<tag k="place" v="isolated_dwelling" />
		<tag k="ssr:stedsnr" v="821405" />
		<tag k="ssr:type" v="gammelBosettingsplass" />
	</node>
	<node id="4480765132" lat="58.6345744" lon="7.6701895" version="2" timestamp="2018-04-10T18:52:18Z" changeset="57982147" uid="3497659" user="NKA">
		<tag k="fixme" v="check position" />
		<tag k="historic" v="ruins" />
		<tag k="name" v="Øygarden" />
		<tag k="place" v="locality" />
		<tag k="ssr:stedsnr" v="334958" />
		<tag k="ssr:type" v="gammelBosettingsplass" />
	</node>
	<node id="8530899887" lat="58.559257" lon="7.773216" version="1" timestamp="2021-03-18T06:22:39Z" changeset="101231683" uid="3497659" user="NKA" />
	<node id="8530899888" lat="58.559289" lon="7.773322" version="1" timestamp="2021-03-18T06:22:39Z" changeset="101231683" uid="3497659" user="NKA" />
	<node id="8530899889" lat="58.559285" lon="7.773459" version="1" timestamp="2021-03-18T06:22:39Z" changeset="101231683" uid="3497659" user="NKA" />
	<node id="8530899890" lat="58.559248" lon="7.773561" version="1" timestamp="2021-03-18T06:22:39Z" changeset="101231683" uid="3497659" user="NKA" />
	<node id="8530899891" lat="58.559238" lon="7.77356" version="1" timestamp="2021-03-18T06:22:39Z" changeset="101231683" uid="3497659" user="NKA" />
	<node id="8530899892" lat="58.559236" lon="7.773618" version="1" timestamp="2021-03-18T06:22:39Z" changeset="101231683" uid="3497659" user="NKA" />
	<node id="8530899893" lat="58.559186" lon="7.773611" version="1" timestamp="2021-03-18T06:22:39Z" changeset="101231683" uid="3497659" user="NKA" />
	<node id="8530899894" lat="58.559188" lon="7.773553" version="1" timestamp="2021-03-18T06:22:39Z" changeset="101231683" uid="3497659" user="NKA" />
	<node id="8530899895" lat="58.559185" lon="7.773553" version="1" timestamp="2021-03-18T06:22:39Z" changeset="101231683" uid="3497659" user="NKA" />
	<node id="8530899896" lat="58.559153" lon="7.773444" version="1" timestamp="2021-03-18T06:22:39Z" changeset="101231683" uid="3497659" user="NKA" />
	<node id="8530899897" lat="58.559158" lon="7.773304" version="1" timestamp="2021-03-18T06:22:39Z" changeset="101231683" uid="3497659" user="NKA" />
	<node id="8530899898" lat="58.559197" lon="7.773205" version="1" timestamp="2021-03-18T06:22:39Z" changeset="101231683" uid="3497659" user="NKA" />
	<node id="8530899899" lat="58.559204" lon="7.773206" version="1" timestamp="2021-03-18T06:22:39Z" changeset="101231683" uid="3497659" user="NKA" />
	<node id="8530899900" lat="58.559206" lon="7.773156" version="1" timestamp="2021-03-18T06:22:39Z" changeset="101231683" uid="3497659" user="NKA" />
	<node id="8530899901" lat="58.559254" lon="7.773165" version="1" timestamp="2021-03-18T06:22:39Z" changeset="101231683" uid="3497659" user="NKA" />
	<node id="8530899902" lat="58.559252" lon="7.773215" version="1" timestamp="2021-03-18T06:22:39Z" changeset="101231683" uid="3497659" user="NKA" />
	<node id="8530899907" lat="58.599288" lon="7.83085" version="1" timestamp="2021-03-18T06:22:39Z" changeset="101231683" uid="3497659" user="NKA" />
	<node id="8530899908" lat="58.599288" lon="7.8309345" version="1" timestamp="2021-03-18T06:22:39Z" changeset="101231683" uid="3497659" user="NKA" />
	<node id="8530899909" lat="58.5993205" lon="7.8309345" version="1" timestamp="2021-03-18T06:22:39Z" changeset="101231683" uid="3497659" user="NKA" />
	<node id="8530899910" lat="58.5993205" lon="7.831128" version="1" timestamp="2021-03-18T06:22:39Z" changeset="101231683" uid="3497659" user="NKA" />
	<node id="8530899911" lat="58.5993325" lon="7.831128" version="1" timestamp="2021-03-18T06:22:39Z" changeset="101231683" uid="3497659" user="NKA" />
	<node id="8530899912" lat="58.5993325" lon="7.831349" version="1" timestamp="2021-03-18T06:22:39Z" changeset="101231683" uid="3497659" user="NKA" />
	<node id="8530899913" lat="58.599303" lon="7.831349" version="1" timestamp="2021-03-18T06:22:39Z" changeset="101231683" uid="3497659" user="NKA" />
	<node id="8530899914" lat="58.599303" lon="7.8313865" version="1" timestamp="2021-03-18T06:22:39Z" changeset="101231683" uid="3497659" user="NKA" />
	<node id="8530899915" lat="58.599223" lon="7.8313865" version="1" timestamp="2021-03-18T06:22:39Z" changeset="101231683" uid="3497659" user="NKA" />
	<node id="8530899916" lat="58.599223" lon="7.831353" version="1" timestamp="2021-03-18T06:22:39Z" changeset="101231683" uid="3497659" user="NKA" />
	<node id="8530899917" lat="58.599194" lon="7.831353" version="1" timestamp="2021-03-18T06:22:39Z" changeset="101231683" uid="3497659" user="NKA" />
	<node id="8530899918" lat="58.599194" lon="7.831285" version="1" timestamp="2021-03-18T06:22:39Z" changeset="101231683" uid="3497659" user="NKA" />
	<node id="8530899919" lat="58.5991905" lon="7.831285" version="1" timestamp="2021-03-18T06:22:39Z" changeset="101231683" uid="3497659" user="NKA" />
	<node id="8530899920" lat="58.5991905" lon="7.831133" version="1" timestamp="2021-03-18T06:22:39Z" changeset="101231683" uid="3497659" user="NKA" />
	<node id="8530899921" lat="58.599204" lon="7.831133" version="1" timestamp="2021-03-18T06:22:39Z" changeset="101231683" uid="3497659" user="NKA" />
	<node id="8530899922" lat="58.599204" lon="7.8309365" version="1" timestamp="2021-03-18T06:22:39Z" changeset="101231683" uid="3497659" user="NKA" />
	<node id="8530899923" lat="58.599236" lon="7.8309365" version="1" timestamp="2021-03-18T06:22:39Z" changeset="101231683" uid="3497659" user="NKA" />
	<node id="8530899924" lat="58.599236" lon="7.8308495" version="1" timestamp="2021-03-18T06:22:39Z" changeset="101231683" uid="3497659" user="NKA" />
	<node id="8530899925" lat="58.599245" lon="7.8308495" version="1" timestamp="2021-03-18T06:22:39Z" changeset="101231683" uid="3497659" user="NKA" />
	<node id="8530899926" lat="58.599245" lon="7.8308265" version="1" timestamp="2021-03-18T06:22:39Z" changeset="101231683" uid="3497659" user="NKA" />
	<node id="8530899927" lat="58.599278" lon="7.8308265" version="1" timestamp="2021-03-18T06:22:39Z" changeset="101231683" uid="3497659" user="NKA" />
	<node id="8530899928" lat="58.599278" lon="7.83085" version="1" timestamp="2021-03-18T06:22:39Z" changeset="101231683" uid="3497659" user="NKA" />
	<way id="451248487" version="5" timestamp="2021-03-18T06:22:43Z" changeset="101231690" uid="3497659" user="NKA">
		<tag k="amenity" v="place_of_worship" />
		<tag k="architect" v="bm Ludvig Karlsen" />
		<tag k="building" v="church" />
		<tag k="capacity" v="400" />
		<tag k="deanery" v="Otredal" />
		<tag k="denomination" v="lutheran" />
		<tag k="diocese" v="Agder og Telemark" />
		<tag k="hearing_aids" v="yes" />
		<tag k="heritage" v="yes" />
		<tag k="image" v="https://www.kirkebyggdatabasen.no/KBDBweb/getPublicImage.aspx?vedleggId=597AD831-7EE7-4CBB-8659-AC90C31977FB" />
		<tag k="name" v="Evje kyrkje" />
		<tag k="note" v="Soknekirke" />
		<tag k="operator" v="Evje og Hornnes sokneråd" />
		<tag k="parish" v="Evje og Hornnes" />
		<tag k="ref:bygningsnr" v="167784607" />
		<tag k="religion" v="christian" />
		<tag k="ssr:stedsnr" v="425716" />
		<tag k="ssr:type" v="kirke" />
		<tag k="start_date" v="1891" />
		<tag k="toilets" v="yes" />
		<tag k="wheelchair" v="yes" />
		<tag k="wikidata" v="Q11968218" />
		<nd ref="8530899928" />
		<nd ref="8530899927" />
		<nd ref="8530899926" />
		<nd ref="8530899925" />
		<nd ref="8530899924" />
		<nd ref="8530899923" />
		<nd ref="8530899922" />
		<nd ref="8530899921" />
		<nd ref="8530899920" />
		<nd ref="8530899919" />
		<nd ref="8530899918" />
		<nd ref="8530899917" />
		<nd ref="8530899916" />
		<nd ref="8530899915" />
		<nd ref="8530899914" />
		<nd ref="8530899913" />
		<nd ref="8530899912" />
		<nd ref="8530899911" />
		<nd ref="8530899910" />
		<nd ref="8530899909" />
		<nd ref="8530899908" />
		<nd ref="8530899907" />
		<nd ref="8530899928" />
	</way>
	<way id="558305430" version="5" timestamp="2021-03-18T06:22:43Z" changeset="101231690" uid="3497659" user="NKA">
		<tag k="amenity" v="place_of_worship" />
		<tag k="architect" v="Askildsen/Halling." />
		<tag k="building" v="church" />
		<tag k="capacity" v="300" />
		<tag k="deanery" v="Otredal" />
		<tag k="denomination" v="lutheran" />
		<tag k="diocese" v="Agder og Telemark" />
		<tag k="heritage" v="yes" />
		<tag k="image" v="https://www.kirkebyggdatabasen.no/KBDBweb/getPublicImage.aspx?vedleggId=90144232-B46B-41C0-8C43-3E5B4B18E853" />
		<tag k="name" v="Hornnes kyrkje" />
		<tag k="operator" v="Evje og Hornnes sokneråd" />
		<tag k="parish" v="Evje og Hornnes" />
		<tag k="ref:bygningsnr" v="167782329" />
		<tag k="religion" v="christian" />
		<tag k="ssr:stedsnr" v="882167" />
		<tag k="ssr:type" v="kirke" />
		<tag k="start_date" v="1828" />
		<tag k="wikidata" v="Q6529221" />
		<nd ref="8530899902" />
		<nd ref="8530899901" />
		<nd ref="8530899900" />
		<nd ref="8530899899" />
		<nd ref="8530899898" />
		<nd ref="8530899897" />
		<nd ref="8530899896" />
		<nd ref="8530899895" />
		<nd ref="8530899894" />
		<nd ref="8530899893" />
		<nd ref="8530899892" />
		<nd ref="8530899891" />
		<nd ref="8530899890" />
		<nd ref="8530899889" />
		<nd ref="8530899888" />
		<nd ref="8530899887" />
		<nd ref="8530899902" />
	</way>
</osm>
