<?xml version="1.0" encoding="UTF-8"?>
<osm generator="osmapis" version="0.6">
	<node id="-567808" lat="62.3108472207" lon="7.24497778719">
		<tag k="name" v="Svinegrova" />
		<tag k="ssr:stedsnr" v="167672" />
		<tag k="waterway" v="stream" />
	</node>
	<node id="-568319" lat="62.2005777773" lon="7.3377444537">
		<tag k="name" v="Svinevika" />
		<tag k="natural" v="bay" />
		<tag k="ssr:stedsnr" v="652570" />
	</node>
	<node id="-568316" lat="62.2233805566" lon="7.29599721363">
		<tag k="name" v="Smørelva" />
		<tag k="ssr:stedsnr" v="652359" />
		<tag k="waterway" v="stream" />
	</node>
	<node id="-567290" lat="62.1707305524" lon="7.69388610588">
		<tag k="name" v="Smettevatnet" />
		<tag k="natural" v="water" />
		<tag k="ssr:stedsnr" v="314035" />
	</node>
	<node id="-567295" lat="62.1224638857" lon="7.3750499977">
		<tag k="name" v="Slettdalsvatnet" />
		<tag k="natural" v="water" />
		<tag k="ssr:stedsnr" v="314070" />
		<tag k="water" v="lake" />
	</node>
	<node id="-567800" lat="62.3278777772" lon="7.32143055603">
		<tag k="name" v="Hampetjørna" />
		<tag k="natural" v="water" />
		<tag k="ssr:stedsnr" v="167306" />
	</node>
	<node id="-568311" lat="62.2116861124" lon="7.24894443604">
		<tag k="name" v="Elvakrokane" />
		<tag k="natural" v="cape" />
		<tag k="ssr:stedsnr" v="652142" />
	</node>
	<node id="-567285" lat="62.3224861104" lon="7.27480278357">
		<tag k="name" v="Fossen" />
		<tag k="natural" v="waterfall" />
		<tag k="ssr:stedsnr" v="45362" />
	</node>
	<node id="-567283" lat="62.1851777808" lon="7.55939999481">
		<tag k="name" v="Heimste Stølevika" />
		<tag k="natural" v="bay" />
		<tag k="ssr:stedsnr" v="289812" />
	</node>
	<node id="-567791" lat="62.204505558" lon="7.47098056115">
		<tag k="name" v="Rødalselva" />
		<tag k="ssr:stedsnr" v="167102" />
		<tag k="waterway" v="river" />
	</node>
	<node id="-567790" lat="62.1728194481" lon="7.41723610948">
		<tag k="name" v="Storvika" />
		<tag k="natural" v="bay" />
		<tag k="ssr:stedsnr" v="167095" />
	</node>
	<node id="-568301" lat="62.3306750024" lon="7.58674167146">
		<tag k="name" v="Grøndalselva" />
		<tag k="ssr:stedsnr" v="651237" />
		<tag k="waterway" v="stream" />
	</node>
	<node id="-567276" lat="62.3348444437" lon="7.52910278232">
		<tag k="name" v="Stormyra" />
		<tag k="natural" v="water" />
		<tag k="ssr:stedsnr" v="288792" />
	</node>
	<node id="-567275" lat="62.3456472201" lon="7.53885278341">
		<tag k="name" v="Tverrelva" />
		<tag k="ssr:stedsnr" v="288771" />
		<tag k="waterway" v="river" />
	</node>
	<node id="-567292" lat="62.1899472212" lon="7.49328054652">
		<tag k="alt_name" v="Rødalsvatnet, heimste" />
		<tag k="name" v="Heimste Rødalsvatnet" />
		<tag k="natural" v="water" />
		<tag k="ssr:stedsnr" v="314055" />
	</node>
	<node id="-567781" lat="62.3457277764" lon="7.40815278271">
		<tag k="name" v="Berlifossen" />
		<tag k="natural" v="waterfall" />
		<tag k="ssr:stedsnr" v="166633" />
	</node>
	<node id="-567266" lat="62.3417972244" lon="7.47254165747">
		<tag k="name" v="Budbrandsdalsfossen" />
		<tag k="natural" v="waterfall" />
		<tag k="ssr:stedsnr" v="288634" />
	</node>
	<node id="-567777" lat="62.3242666674" lon="7.32580277459">
		<tag k="name" v="Krabbå" />
		<tag k="ssr:stedsnr" v="166385" />
		<tag k="waterway" v="stream" />
	</node>
	<node id="-567263" lat="62.3537055576" lon="7.41729721523">
		<tag k="name" v="Kyrfonngrova" />
		<tag k="ssr:stedsnr" v="288603" />
		<tag k="waterway" v="stream" />
	</node>
	<node id="-567261" lat="62.3417972241" lon="7.45244722295">
		<tag k="name" v="Haggardsgrova" />
		<tag k="ssr:stedsnr" v="288585" />
		<tag k="waterway" v="stream" />
	</node>
	<node id="-567771" lat="62.3368527782" lon="7.38804165896">
		<tag k="name" v="Tusulen" />
		<tag k="place" v="locality" />
		<tag k="ssr:stedsnr" v="166286" />
	</node>
	<node id="-567631" lat="62.1821083366" lon="7.08080277435">
		<tag k="name" v="Gråsteinvatnet" />
		<tag k="natural" v="water" />
		<tag k="ssr:stedsnr" v="71367" />
	</node>
	<node id="-567765" lat="62.1981749994" lon="7.15519721883">
		<tag k="name" v="Raudgrova" />
		<tag k="ssr:stedsnr" v="157352" />
		<tag k="waterway" v="stream" />
	</node>
	<node id="-568276" lat="62.2766750025" lon="7.62925554655">
		<tag k="name" v="Laupevatnet" />
		<tag k="natural" v="water" />
		<tag k="ssr:stedsnr" v="618797" />
	</node>
	<node id="-567250" lat="62.2734583301" lon="7.32799999232">
		<tag k="name" v="Kasteelva" />
		<tag k="ssr:stedsnr" v="288247" />
		<tag k="waterway" v="stream" />
	</node>
	<node id="-568483" lat="62.2160333359" lon="7.32973054911">
		<tag k="name" v="Kallskarstranda" />
		<tag k="natural" v="beach" />
		<tag k="ssr:stedsnr" v="773561" />
	</node>
	<node id="-567760" lat="62.2127555579" lon="7.04449444815">
		<tag k="name" v="Isflåelva" />
		<tag k="ssr:stedsnr" v="153423" />
		<tag k="waterway" v="stream" />
	</node>
	<node id="-568270" lat="62.395888892" lon="7.48371944692">
		<tag k="name" v="Fremste Berilldalsvatnet" />
		<tag k="natural" v="water" />
		<tag k="ssr:stedsnr" v="617949" />
	</node>
	<node id="-567885" lat="62.3411083375" lon="7.4716555531">
		<tag k="name" v="Åkrokelva" />
		<tag k="ssr:stedsnr" v="227649" />
		<tag k="waterway" v="river" />
	</node>
	<node id="-567755" lat="62.1833250009" lon="7.42485278576">
		<tag k="name" v="Svartholvatnet" />
		<tag k="natural" v="water" />
		<tag k="ssr:stedsnr" v="142927" />
	</node>
	<node id="-568567" lat="62.1813916652" lon="7.15397778201">
		<tag k="name" v="Koppen" />
		<tag k="natural" v="bay" />
		<tag k="ssr:stedsnr" v="824462" />
	</node>
	<node id="-567240" lat="62.2211027795" lon="7.04686111838">
		<tag k="name" v="Hornflågrova" />
		<tag k="ssr:stedsnr" v="288096" />
		<tag k="waterway" v="stream" />
	</node>
	<node id="-568775" lat="62.2035559592" lon="7.07566915642">
		<tag k="name" v="Kroketevatnet" />
		<tag k="natural" v="water" />
		<tag k="ssr:stedsnr" v="976065" />
	</node>
	<node id="-567750" lat="62.27328056" lon="7.25479999672">
		<tag k="name" v="Bytegrova" />
		<tag k="ssr:stedsnr" v="132866" />
		<tag k="waterway" v="stream" />
	</node>
	<node id="-568773" lat="62.201724306" lon="7.07807894231">
		<tag k="name" v="Litlevatnet" />
		<tag k="natural" v="water" />
		<tag k="ssr:stedsnr" v="976063" />
	</node>
	<node id="-568260" lat="62.3339333322" lon="7.56424721398">
		<tag k="name" v="Grønningsæterelva" />
		<tag k="ssr:stedsnr" v="617780" />
		<tag k="waterway" v="stream" />
	</node>
	<node id="-568257" lat="62.1743916673" lon="7.12977500731">
		<tag k="name" v="Svartevatnet" />
		<tag k="natural" v="water" />
		<tag k="ssr:stedsnr" v="617359" />
	</node>
	<node id="-567744" lat="62.2781916638" lon="7.68590277577">
		<tag k="name" v="Storfjellvatnet" />
		<tag k="natural" v="water" />
		<tag k="ssr:stedsnr" v="132814" />
	</node>
	<node id="-568255" lat="62.3334138913" lon="7.74468888939">
		<tag k="name" v="Bjørnebottvatnet" />
		<tag k="natural" v="water" />
		<tag k="ssr:stedsnr" v="617080" />
		<tag k="water" v="lake" />
	</node>
	<node id="-568309" lat="62.3704333372" lon="7.55878333266">
		<tag k="name" v="Øyna" />
		<tag k="place" v="island" />
		<tag k="ssr:stedsnr" v="651869" />
	</node>
	<node id="-568252" lat="62.1833972246" lon="7.50536389748">
		<tag k="alt_name" v="Rødalsvatnet, fremste" />
		<tag k="name" v="Fremste Rødalsvatnet" />
		<tag k="natural" v="water" />
		<tag k="ssr:stedsnr" v="617073" />
	</node>
	<node id="-568251" lat="62.1860305553" lon="7.55904723132">
		<tag k="name" v="Langvatnet" />
		<tag k="natural" v="water" />
		<tag k="ssr:stedsnr" v="617069" />
		<tag k="water" v="lake" />
	</node>
	<node id="-568137" lat="62.2008166705" lon="7.53835277165">
		<tag k="name" v="Reindalsfossen" />
		<tag k="natural" v="waterfall" />
		<tag k="ssr:stedsnr" v="556012" />
	</node>
	<node id="-568241" lat="62.2028694489" lon="7.52932500617">
		<tag k="name" v="Zakariasvatnet" />
		<tag k="natural" v="water" />
		<tag k="ssr:stedsnr" v="617015" />
		<tag k="water" v="lake" />
	</node>
	<node id="-567722" lat="62.2082666687" lon="7.52413611849">
		<tag k="name" v="Djupdalselva" />
		<tag k="ssr:stedsnr" v="107762" />
		<tag k="waterway" v="river" />
	</node>
	<node id="-567367" lat="62.2049666666" lon="7.4329388888">
		<tag k="name" v="Kaldhuselva" />
		<tag k="ssr:stedsnr" v="349110" />
		<tag k="waterway" v="stream" />
	</node>
	<node id="-568742" lat="62.2489749993" lon="7.47078332798">
		<tag k="name" v="Storhauggrova" />
		<tag k="ssr:stedsnr" v="955791" />
		<tag k="waterway" v="stream" />
	</node>
	<node id="-568741" lat="62.2490250001" lon="7.47974722133">
		<tag k="name" v="Raudnykdalselva" />
		<tag k="ssr:stedsnr" v="955787" />
		<tag k="waterway" v="stream" />
	</node>
	<node id="-568736" lat="62.3466361149" lon="7.43943889084">
		<tag k="name" v="Kroketegrova" />
		<tag k="ssr:stedsnr" v="955637" />
		<tag k="waterway" v="stream" />
	</node>
	<node id="-568734" lat="62.199391663" lon="7.34091667384">
		<tag k="name" v="Kvislane" />
		<tag k="ssr:stedsnr" v="955595" />
		<tag k="waterway" v="stream" />
	</node>
	<node id="-567706" lat="62.2523972218" lon="7.48757499151">
		<tag k="name" v="Høgremsfossen" />
		<tag k="natural" v="waterfall" />
		<tag k="ssr:stedsnr" v="106803" />
	</node>
	<node id="-568729" lat="62.1541027781" lon="7.42491666475">
		<tag k="name" v="Stølevika" />
		<tag k="natural" v="bay" />
		<tag k="ssr:stedsnr" v="955219" />
	</node>
	<node id="-568728" lat="62.2743166664" lon="7.05652500763">
		<tag k="name" v="Grøvene" />
		<tag k="ssr:stedsnr" v="955162" />
		<tag k="waterway" v="stream" />
	</node>
	<node id="-567701" lat="62.2298916707" lon="7.40703610221">
		<tag k="name" v="Bjørnatjørna" />
		<tag k="natural" v="water" />
		<tag k="ssr:stedsnr" v="106779" />
	</node>
	<node id="-568211" lat="62.2228555587" lon="7.28845834166">
		<tag k="name" v="Knøstelva" />
		<tag k="ssr:stedsnr" v="591378" />
		<tag k="waterway" v="stream" />
	</node>
	<node id="-567697" lat="62.3187555567" lon="7.48249999769">
		<tag k="name" v="Fremsteelva" />
		<tag k="ssr:stedsnr" v="106673" />
		<tag k="waterway" v="stream" />
	</node>
	<node id="-568765" lat="62.1841777816" lon="7.56806944017">
		<tag k="name" v="Fremste Stølevika" />
		<tag k="natural" v="cape" />
		<tag k="ssr:stedsnr" v="956766" />
	</node>
	<node id="-567322" lat="62.3951166638" lon="7.34358610702">
		<tag k="name" v="Fremstevatnet" />
		<tag k="natural" v="water" />
		<tag k="ssr:stedsnr" v="314940" />
	</node>
	<node id="-568204" lat="62.2802972243" lon="7.33274721569">
		<tag k="name" v="Kastestranda" />
		<tag k="natural" v="beach" />
		<tag k="ssr:stedsnr" v="591226" />
	</node>
	<node id="-567691" lat="62.2129222198" lon="7.30594721742">
		<tag k="name" v="Fursetelva" />
		<tag k="ssr:stedsnr" v="106575" />
		<tag k="waterway" v="stream" />
	</node>
	<node id="-567688" lat="62.2975638917" lon="7.34378333801">
		<tag k="name" v="Fjellelva" />
		<tag k="ssr:stedsnr" v="106481" />
		<tag k="waterway" v="stream" />
	</node>
	<node id="-568198" lat="62.16633889" lon="7.4245444432">
		<tag k="name" v="Maritvika" />
		<tag k="natural" v="bay" />
		<tag k="ssr:stedsnr" v="591102" />
	</node>
	<node id="-568197" lat="62.1738861152" lon="7.42712776827">
		<tag k="name" v="Hjellvika" />
		<tag k="natural" v="bay" />
		<tag k="ssr:stedsnr" v="591099" />
	</node>
	<node id="-568194" lat="62.2792277792" lon="7.0767277838">
		<tag k="name" v="Taulowkjelda" />
		<tag k="ssr:stedsnr" v="590174" />
		<tag k="waterway" v="stream" />
	</node>
	<node id="-568193" lat="62.2663666683" lon="7.15942777926">
		<tag k="name" v="Storgrova" />
		<tag k="ssr:stedsnr" v="590163" />
		<tag k="waterway" v="stream" />
	</node>
	<node id="-568594" lat="62.1903444458" lon="7.43025000339">
		<tag k="name" v="Litlejordvatnet" />
		<tag k="natural" v="water" />
		<tag k="ssr:stedsnr" v="834949" />
		<tag k="water" v="lake" />
	</node>
	<node id="-568190" lat="62.2450472255" lon="7.20896666428">
		<tag k="name" v="Hatlestadelva" />
		<tag k="ssr:stedsnr" v="581415" />
		<tag k="waterway" v="river" />
	</node>
	<node id="-567298" lat="62.3266999971" lon="7.28336111689">
		<tag k="name" v="Gullåa" />
		<tag k="ssr:stedsnr" v="315626" />
		<tag k="waterway" v="stream" />
	</node>
	<node id="-568042" lat="62.3190694403" lon="7.47961667256">
		<tag k="name" v="Heimsteelva" />
		<tag k="ssr:stedsnr" v="470672" />
		<tag k="waterway" v="stream" />
	</node>
	<node id="-567671" lat="62.2498138855" lon="7.17679722227">
		<tag k="name" v="Slokå" />
		<tag k="ssr:stedsnr" v="96470" />
		<tag k="waterway" v="stream" />
	</node>
	<node id="-568041" lat="62.3371916671" lon="7.46949722027">
		<tag k="name" v="Sagelva" />
		<tag k="ssr:stedsnr" v="470670" />
		<tag k="waterway" v="river" />
	</node>
	<node id="-568179" lat="62.207644448" lon="7.24447778326">
		<tag k="name" v="Dyrdøla" />
		<tag k="ssr:stedsnr" v="566930" />
		<tag k="waterway" v="river" />
	</node>
	<node id="-567665" lat="62.1840416626" lon="7.14679166207">
		<tag k="name" v="Storfonneset" />
		<tag k="natural" v="cape" />
		<tag k="ssr:stedsnr" v="96361" />
	</node>
	<node id="-568686" lat="62.2285111134" lon="7.11884166446">
		<tag k="name" v="Høgsetelva" />
		<tag k="ssr:stedsnr" v="921296" />
		<tag k="waterway" v="stream" />
	</node>
	<node id="-568683" lat="62.1095416648" lon="7.46923055248">
		<tag k="name" v="Kollhøvatnet" />
		<tag k="natural" v="water" />
		<tag k="ssr:stedsnr" v="921110" />
		<tag k="water" v="lake" />
	</node>
	<node id="-567658" lat="62.2895944436" lon="7.66439166822">
		<tag k="name" v="Krynkelvatnet" />
		<tag k="natural" v="water" />
		<tag k="ssr:stedsnr" v="72852" />
		<tag k="water" v="lake" />
	</node>
	<node id="-568679" lat="62.186391671" lon="7.23354443693">
		<tag k="name" v="Litlevatnet" />
		<tag k="natural" v="water" />
		<tag k="ssr:stedsnr" v="921055" />
	</node>
	<node id="-568165" lat="62.1289111085" lon="7.56760833353">
		<tag k="name" v="Brusebotnvatnet" />
		<tag k="natural" v="water" />
		<tag k="ssr:stedsnr" v="557069" />
		<tag k="water" v="lake" />
	</node>
	<node id="-568676" lat="62.2308388916" lon="7.64928611724">
		<tag k="alt_name" v="Småkoppvatnet, fremste" />
		<tag k="name" v="Fremste Småkoppvatnet" />
		<tag k="natural" v="water" />
		<tag k="ssr:stedsnr" v="921025" />
	</node>
	<node id="-568163" lat="62.1843166661" lon="7.64565555552">
		<tag k="name" v="Veltdalselva" />
		<tag k="ssr:stedsnr" v="557057" />
		<tag k="waterway" v="river" />
	</node>
	<node id="-568162" lat="62.1884500024" lon="7.45991667377">
		<tag k="name" v="Nykvatnet" />
		<tag k="natural" v="water" />
		<tag k="ssr:stedsnr" v="557050" />
	</node>
	<node id="-568161" lat="62.1995111154" lon="7.59382777638">
		<tag k="name" v="Tverrelva" />
		<tag k="ssr:stedsnr" v="557006" />
		<tag k="waterway" v="river" />
	</node>
	<node id="-568671" lat="62.2142500002" lon="7.43393055323">
		<tag k="name" v="Lyngneset" />
		<tag k="natural" v="cape" />
		<tag k="ssr:stedsnr" v="921005" />
	</node>
	<node id="-568158" lat="62.3907666682" lon="7.32577500021">
		<tag k="name" v="Espedalsvatnet" />
		<tag k="natural" v="water" />
		<tag k="ssr:stedsnr" v="556967" />
	</node>
	<node id="-568157" lat="62.3991055521" lon="7.64817777244">
		<tag k="name" v="Slufsekoppen" />
		<tag k="natural" v="water" />
		<tag k="ssr:stedsnr" v="556959" />
	</node>
	<node id="-568668" lat="62.4140749994" lon="7.32476388132">
		<tag k="name" v="Storvatnet" />
		<tag k="natural" v="water" />
		<tag k="ssr:stedsnr" v="921936" />
	</node>
	<node id="-568154" lat="62.2589222206" lon="7.12841111668">
		<tag k="name" v="Kilstivatnet" />
		<tag k="natural" v="water" />
		<tag k="ssr:stedsnr" v="556930" />
	</node>
	<node id="-568152" lat="62.3610611088" lon="7.68185276865">
		<tag k="name" v="Litlelangdalsvatnet" />
		<tag k="natural" v="water" />
		<tag k="ssr:stedsnr" v="556813" />
	</node>
	<node id="-568150" lat="62.3845055529" lon="7.46996111897">
		<tag k="name" v="Bjørnevatnet" />
		<tag k="natural" v="water" />
		<tag k="ssr:stedsnr" v="556789" />
	</node>
	<node id="-567635" lat="62.3774555533" lon="7.40720833598">
		<tag k="name" v="Brekkevatnet" />
		<tag k="natural" v="water" />
		<tag k="ssr:stedsnr" v="71812" />
	</node>
	<node id="-568144" lat="62.1870944446" lon="7.14978055247">
		<tag k="name" v="Eidsvatnet" />
		<tag k="natural" v="water" />
		<tag k="ssr:stedsnr" v="556391" />
		<tag k="water" v="lake" />
	</node>
	<node id="-568143" lat="62.093277775" lon="7.42770278062">
		<tag k="name" v="Litledøla" />
		<tag k="ssr:stedsnr" v="556149" />
		<tag k="waterway" v="stream" />
	</node>
	<node id="-567629" lat="62.2003416655" lon="7.13841945213">
		<tag k="alt_name" v="Storelva" />
		<tag k="name" v="Eidsdalselva" />
		<tag k="ssr:stedsnr" v="71340" />
		<tag k="waterway" v="stream" />
	</node>
	<node id="-567628" lat="62.1463527806" lon="7.60339443957">
		<tag k="alt_name" v="Hulderkoppvatnet, øvre" />
		<tag k="name" v="Øvre Hulderkoppvatnet" />
		<tag k="natural" v="water" />
		<tag k="ssr:stedsnr" v="71076" />
	</node>
	<node id="-568139" lat="62.2327611107" lon="7.32191389113">
		<tag k="alt_name" v="Vassdalsvatnet, nedre" />
		<tag k="name" v="Nedre Vassdalsvatnet" />
		<tag k="natural" v="water" />
		<tag k="ssr:stedsnr" v="556016" />
		<tag k="water" v="lake" />
	</node>
	<node id="-568138" lat="62.3981555532" lon="7.76744166719">
		<tag k="name" v="Kulevatnet" />
		<tag k="natural" v="water" />
		<tag k="ssr:stedsnr" v="556014" />
		<tag k="water" v="lake" />
	</node>
	<node id="-568649" lat="62.1348333345" lon="7.62933888387">
		<tag k="name" v="Femånvatnet" />
		<tag k="natural" v="water" />
		<tag k="ssr:stedsnr" v="861075" />
		<tag k="water" v="lake" />
	</node>
	<node id="-567624" lat="62.2200083341" lon="7.42940834267">
		<tag k="name" v="Onilsavatnet" />
		<tag k="natural" v="water" />
		<tag k="ssr:stedsnr" v="71002" />
		<tag k="water" v="lake" />
	</node>
	<node id="-568647" lat="62.1829638855" lon="7.59331389292">
		<tag k="name" v="Glupsvatna" />
		<tag k="natural" v="water" />
		<tag k="ssr:stedsnr" v="861064" />
	</node>
	<node id="-568217" lat="62.1959083304" lon="7.34192222306">
		<tag k="name" v="Kvislane" />
		<tag k="ssr:stedsnr" v="591510" />
		<tag k="waterway" v="stream" />
	</node>
	<node id="-568644" lat="62.3847083293" lon="7.35017500978">
		<tag k="name" v="Heimstevatnet" />
		<tag k="natural" v="water" />
		<tag k="ssr:stedsnr" v="860971" />
	</node>
	<node id="-567618" lat="62.2976527781" lon="7.32331110347">
		<tag k="name" v="Reiteelva" />
		<tag k="ssr:stedsnr" v="46483" />
		<tag k="waterway" v="stream" />
	</node>
	<node id="-568640" lat="62.3382611135" lon="7.28739444443">
		<tag k="name" v="Gullakoppen" />
		<tag k="natural" v="water" />
		<tag k="ssr:stedsnr" v="860835" />
	</node>
	<node id="-568127" lat="62.2557638904" lon="7.46897777312">
		<tag k="name" v="Tverrelva" />
		<tag k="ssr:stedsnr" v="531798" />
		<tag k="waterway" v="stream" />
	</node>
	<node id="-568126" lat="62.3965249973" lon="7.60147500071">
		<tag k="name" v="Tormodvatnet" />
		<tag k="natural" v="water" />
		<tag k="ssr:stedsnr" v="531726" />
	</node>
	<node id="-567613" lat="62.3358611094" lon="7.52662222254">
		<tag k="name" v="Stormyrvatnet" />
		<tag k="natural" v="water" />
		<tag k="ssr:stedsnr" v="45805" />
	</node>
	<node id="-567612" lat="62.2532444402" lon="7.46799721335">
		<tag k="name" v="Muldalselva" />
		<tag k="ssr:stedsnr" v="45776" />
		<tag k="waterway" v="stream" />
	</node>
	<node id="-568635" lat="62.3616222266" lon="7.35664166966">
		<tag k="name" v="Myklebustelva" />
		<tag k="ssr:stedsnr" v="860819" />
		<tag k="waterway" v="stream" />
	</node>
	<node id="-567603" lat="62.2726861133" lon="7.3312805563">
		<tag k="name" v="Sliksteingrova" />
		<tag k="ssr:stedsnr" v="45268" />
		<tag k="waterway" v="stream" />
	</node>
	<node id="-568114" lat="62.211819441" lon="7.45236666879">
		<tag k="name" v="Storhølen" />
		<tag k="place" v="locality" />
		<tag k="ssr:stedsnr" v="531104" />
	</node>
	<node id="-568115" lat="62.2123083299" lon="7.44393333208">
		<tag k="name" v="Litleneset" />
		<tag k="natural" v="cape" />
		<tag k="ssr:stedsnr" v="531107" />
	</node>
	<node id="-568624" lat="62.2081722226" lon="7.3403055532">
		<tag k="name" v="Herdalsvatnet" />
		<tag k="natural" v="water" />
		<tag k="ssr:stedsnr" v="860029" />
		<tag k="water" v="lake" />
	</node>
	<node id="-568111" lat="62.2419805591" lon="7.25668889417">
		<tag k="name" v="Storfossen" />
		<tag k="natural" v="waterfall" />
		<tag k="ssr:stedsnr" v="530936" />
	</node>
	<node id="-567597" lat="62.3551249962" lon="7.33728055916">
		<tag k="name" v="Elvane" />
		<tag k="ssr:stedsnr" v="45155" />
		<tag k="waterway" v="stream" />
	</node>
	<node id="-567595" lat="62.3648694442" lon="7.56465555332">
		<tag k="name" v="Severiselva" />
		<tag k="ssr:stedsnr" v="44853" />
		<tag k="waterway" v="river" />
	</node>
	<node id="-567594" lat="62.2517722194" lon="7.04049722897">
		<tag k="name" v="Nonshammarsgrova" />
		<tag k="ssr:stedsnr" v="45051" />
		<tag k="waterway" v="stream" />
	</node>
	<node id="-568105" lat="62.3289083301" lon="7.49670555077">
		<tag k="name" v="Øyane" />
		<tag k="place" v="island" />
		<tag k="ssr:stedsnr" v="530670" />
	</node>
	<node id="-568102" lat="62.3106111156" lon="7.26540833421">
		<tag k="name" v="Jamtekvisla" />
		<tag k="ssr:stedsnr" v="530630" />
		<tag k="waterway" v="stream" />
	</node>
	<node id="-568625" lat="62.1656833325" lon="7.24084166764">
		<tag k="name" v="Litleøvstdalsvatnet" />
		<tag k="natural" v="water" />
		<tag k="ssr:stedsnr" v="860042" />
	</node>
	<node id="-568612" lat="62.1874222214" lon="7.57030277271">
		<tag k="name" v="Reinstangen" />
		<tag k="natural" v="cape" />
		<tag k="ssr:stedsnr" v="835769" />
	</node>
	<node id="-568099" lat="62.3190972248" lon="7.28185278661">
		<tag k="name" v="Gullåna" />
		<tag k="ssr:stedsnr" v="530391" />
		<tag k="waterway" v="stream" />
	</node>
	<node id="-567259" lat="62.2101027742" lon="7.32745832866">
		<tag k="name" v="Kvernhuselva" />
		<tag k="ssr:stedsnr" v="288532" />
		<tag k="waterway" v="stream" />
	</node>
	<node id="-567584" lat="62.2227055583" lon="7.14742499194">
		<tag k="name" v="Juvafossen" />
		<tag k="natural" v="waterfall" />
		<tag k="ssr:stedsnr" v="35464" />
	</node>
	<node id="-568606" lat="62.3023138866" lon="7.33353611581">
		<tag k="name" v="Sæterelva" />
		<tag k="ssr:stedsnr" v="835495" />
		<tag k="waterway" v="stream" />
	</node>
	<node id="-568605" lat="62.2366944447" lon="7.27978054942">
		<tag k="name" v="Rindefossen" />
		<tag k="natural" v="waterfall" />
		<tag k="ssr:stedsnr" v="835419" />
	</node>
	<node id="-568604" lat="62.2641388849" lon="7.36190556358">
		<tag k="name" v="Kloppelva" />
		<tag k="ssr:stedsnr" v="835311" />
		<tag k="waterway" v="stream" />
	</node>
	<node id="-568091" lat="62.4069749978" lon="7.32337222231">
		<tag k="name" v="Espedalselva" />
		<tag k="ssr:stedsnr" v="521667" />
		<tag k="waterway" v="river" />
	</node>
	<node id="-568090" lat="62.2598250027" lon="7.13416388342">
		<tag k="name" v="Bukta" />
		<tag k="natural" v="bay" />
		<tag k="ssr:stedsnr" v="521455" />
	</node>
	<node id="-568623" lat="62.2258749968" lon="7.68478889602">
		<tag k="alt_name" v="Isholvatnet, heimste" />
		<tag k="name" v="Heimste Isholvatnet" />
		<tag k="natural" v="water" />
		<tag k="ssr:stedsnr" v="860026" />
	</node>
	<node id="-568088" lat="62.2487666643" lon="7.18499443869">
		<tag k="name" v="Storåselva" />
		<tag k="ssr:stedsnr" v="521389" />
		<tag k="waterway" v="stream" />
	</node>
	<node id="-568087" lat="62.208141668" lon="7.13420276935">
		<tag k="name" v="Skusetelva" />
		<tag k="ssr:stedsnr" v="521387" />
		<tag k="waterway" v="stream" />
	</node>
	<node id="-568086" lat="62.1692638907" lon="7.1746166698">
		<tag k="name" v="Elvakrokane" />
		<tag k="ssr:stedsnr" v="521382" />
		<tag k="waterway" v="river" />
	</node>
	<node id="-568597" lat="62.1686861124" lon="7.42786666654">
		<tag k="name" v="Koparslagneset" />
		<tag k="natural" v="cape" />
		<tag k="ssr:stedsnr" v="835094" />
	</node>
	<node id="-568084" lat="62.1962999991" lon="7.15496666492">
		<tag k="name" v="Raudgrova" />
		<tag k="ssr:stedsnr" v="521375" />
		<tag k="waterway" v="stream" />
	</node>
	<node id="-568113" lat="62.2070166637" lon="7.42318889702">
		<tag k="name" v="Furhammarsgrova" />
		<tag k="ssr:stedsnr" v="531090" />
		<tag k="waterway" v="stream" />
	</node>
	<node id="-567939" lat="62.2018277771" lon="7.490016662">
		<tag k="name" v="Zakariasdammen" />
		<tag k="ssr:stedsnr" v="264917" />
		<tag k="waterway" v="dam" />
	</node>
	<node id="-567565" lat="62.258188888" lon="7.61578611866">
		<tag k="name" v="Illstigvatnet" />
		<tag k="natural" v="water" />
		<tag k="ssr:stedsnr" v="11838" />
	</node>
	<node id="-567564" lat="62.3402499985" lon="7.53686111804">
		<tag k="name" v="Valldøla" />
		<tag k="ssr:stedsnr" v="11811" />
		<tag k="waterway" v="river" />
	</node>
	<node id="-568073" lat="62.2811888919" lon="7.66316389809">
		<tag k="name" v="Hindenburg" />
		<tag k="place" v="islet" />
		<tag k="ssr:stedsnr" v="497821" />
	</node>
	<node id="-567560" lat="62.1783361092" lon="7.2546444444">
		<tag k="name" v="Storvatnet" />
		<tag k="natural" v="water" />
		<tag k="ssr:stedsnr" v="11052" />
		<tag k="water" v="lake" />
	</node>
	<node id="-567925" lat="62.1298277787" lon="7.46281944519">
		<tag k="name" v="Fitvatnet" />
		<tag k="natural" v="water" />
		<tag k="ssr:stedsnr" v="254055" />
		<tag k="water" v="lake" />
	</node>
	<node id="-567601" lat="62.1475611072" lon="7.42008055367">
		<tag k="name" v="Illstielva" />
		<tag k="ssr:stedsnr" v="45200" />
		<tag k="waterway" v="stream" />
	</node>
	<node id="-568060" lat="62.1764444441" lon="7.09791388358">
		<tag k="name" v="Oaldsvatnet" />
		<tag k="natural" v="water" />
		<tag k="ssr:stedsnr" v="496358" />
	</node>
	<node id="-568057" lat="62.1050416642" lon="7.49534445183">
		<tag k="name" v="Reindalsvatnet" />
		<tag k="natural" v="water" />
		<tag k="ssr:stedsnr" v="496108" />
	</node>
	<node id="-568055" lat="62.234755553" lon="7.50672500031">
		<tag k="name" v="Raudnukdalsvatnet" />
		<tag k="natural" v="water" />
		<tag k="ssr:stedsnr" v="496017" />
	</node>
	<node id="-568053" lat="62.086327774" lon="7.56928888192">
		<tag k="alt_name" v="Vikvatnet, fremste" />
		<tag k="name" v="Fremste Vikvatnet" />
		<tag k="natural" v="water" />
		<tag k="ssr:stedsnr" v="495141" />
		<tag k="water" v="lake" />
	</node>
	<node id="-568563" lat="62.258605554" lon="7.13261389101">
		<tag k="name" v="Kjeholmen" />
		<tag k="place" v="islet" />
		<tag k="ssr:stedsnr" v="824388" />
	</node>
	<node id="-567464" lat="62.3254722202" lon="7.38882777121">
		<tag k="name" v="Heggeelva" />
		<tag k="ssr:stedsnr" v="410124" />
		<tag k="waterway" v="stream" />
	</node>
	<node id="-567534" lat="62.3913555554" lon="7.54045556255">
		<tag k="name" v="Berilldalselva" />
		<tag k="ssr:stedsnr" v="895874" />
		<tag k="waterway" v="river" />
	</node>
	<node id="-568043" lat="62.1846722199" lon="7.58159167596">
		<tag k="name" v="Svarteggelva" />
		<tag k="ssr:stedsnr" v="470755" />
		<tag k="waterway" v="river" />
	</node>
	<node id="-568554" lat="62.1642861114" lon="7.33239444399">
		<tag k="name" v="Herdalselva" />
		<tag k="ssr:stedsnr" v="810926" />
		<tag k="waterway" v="river" />
	</node>
	<node id="-568553" lat="62.1864166625" lon="7.38145833101">
		<tag k="name" v="Ivertjønna" />
		<tag k="natural" v="water" />
		<tag k="ssr:stedsnr" v="810916" />
	</node>
	<node id="-568549" lat="62.2989916707" lon="7.59694167123">
		<tag k="name" v="Glupen" />
		<tag k="natural" v="water" />
		<tag k="ssr:stedsnr" v="800850" />
	</node>
	<node id="-568034" lat="62.2137194481" lon="7.33805556018">
		<tag k="name" v="Kallskarelva" />
		<tag k="ssr:stedsnr" v="470570" />
		<tag k="waterway" v="stream" />
	</node>
	<node id="-568016" lat="62.2722500033" lon="7.11979722452">
		<tag k="name" v="Heimste Tjørna" />
		<tag k="natural" v="water" />
		<tag k="ssr:stedsnr" v="470113" />
	</node>
	<node id="-568030" lat="62.2991083312" lon="7.34995554991">
		<tag k="name" v="Svartefossen" />
		<tag k="natural" v="waterfall" />
		<tag k="ssr:stedsnr" v="470475" />
	</node>
	<node id="-568028" lat="62.2377583325" lon="7.27829722016">
		<tag k="name" v="Hellehølen" />
		<tag k="place" v="locality" />
		<tag k="ssr:stedsnr" v="470362" />
	</node>
	<node id="-567361" lat="62.2169305599" lon="7.30549721781">
		<tag k="name" v="Herdøla" />
		<tag k="ssr:stedsnr" v="348561" />
		<tag k="waterway" v="river" />
	</node>
	<node id="-568025" lat="62.2795361076" lon="7.37881389116">
		<tag k="name" v="Heggurelva" />
		<tag k="ssr:stedsnr" v="470230" />
		<tag k="waterway" v="stream" />
	</node>
	<node id="-568100" lat="62.3250249958" lon="7.32143333988">
		<tag k="name" v="Geilveita" />
		<tag k="ssr:stedsnr" v="530399" />
		<tag k="waterway" v="stream" />
	</node>
	<node id="-568534" lat="62.2933083322" lon="7.21000278044">
		<tag k="name" v="Gullåna" />
		<tag k="old_name" v="Gullåa" />
		<tag k="ssr:stedsnr" v="800598" />
		<tag k="waterway" v="stream" />
	</node>
	<node id="-568021" lat="62.2112555599" lon="7.24042777929">
		<tag k="name" v="Kallsetelva" />
		<tag k="ssr:stedsnr" v="470147" />
		<tag k="waterway" v="stream" />
	</node>
	<node id="-567508" lat="62.3306222199" lon="7.31075833704">
		<tag k="name" v="Fossakroken" />
		<tag k="natural" v="waterfall" />
		<tag k="ssr:stedsnr" v="895278" />
	</node>
	<node id="-567505" lat="62.1509111121" lon="7.42141110171">
		<tag k="name" v="Storvika" />
		<tag k="natural" v="bay" />
		<tag k="ssr:stedsnr" v="895198" />
	</node>
	<node id="-568528" lat="62.1015888926" lon="7.4119777758">
		<tag k="alt_name" v="Viavatnet, heimste" />
		<tag k="name" v="Heimste Viavatnet" />
		<tag k="natural" v="water" />
		<tag k="ssr:stedsnr" v="800094" />
		<tag k="water" v="lake" />
	</node>
	<node id="-567503" lat="62.3649000042" lon="7.34238610261">
		<tag k="name" v="Storahornelva" />
		<tag k="ssr:stedsnr" v="895153" />
		<tag k="waterway" v="stream" />
	</node>
	<node id="-567501" lat="62.3538694481" lon="7.35288888168">
		<tag k="name" v="Svinegrova" />
		<tag k="ssr:stedsnr" v="895149" />
		<tag k="waterway" v="stream" />
	</node>
	<node id="-568011" lat="62.2512750019" lon="7.23763334277">
		<tag k="name" v="Storkvisla" />
		<tag k="ssr:stedsnr" v="469956" />
		<tag k="waterway" v="stream" />
	</node>
	<node id="-568010" lat="62.2570916681" lon="7.24120278505">
		<tag k="name" v="Kyrkjegrova" />
		<tag k="ssr:stedsnr" v="469951" />
		<tag k="waterway" v="stream" />
	</node>
	<node id="-567923" lat="62.3955166699" lon="7.51010833766">
		<tag k="name" v="Heimste Berilldalsvatnet" />
		<tag k="natural" v="water" />
		<tag k="ssr:stedsnr" v="253961" />
	</node>
	<node id="-567599" lat="62.1600305526" lon="7.42977221881">
		<tag k="name" v="Løken" />
		<tag k="ssr:stedsnr" v="45118" />
		<tag k="waterway" v="stream" />
	</node>
	<node id="-568516" lat="62.3060444441" lon="7.19848054792">
		<tag k="name" v="Vassdalsvatnet" />
		<tag k="natural" v="water" />
		<tag k="ssr:stedsnr" v="800607" />
	</node>
	<node id="-567999" lat="62.1843972232" lon="7.55200833461">
		<tag k="name" v="Daurmålselva" />
		<tag k="ssr:stedsnr" v="470728" />
		<tag k="waterway" v="river" />
	</node>
	<node id="-567486" lat="62.1876416676" lon="7.16170833627">
		<tag k="name" v="Gjerdeløneset" />
		<tag k="natural" v="cape" />
		<tag k="ssr:stedsnr" v="885379" />
	</node>
	<node id="-567997" lat="62.4066777787" lon="7.64469445093">
		<tag k="name" v="Slufså" />
		<tag k="ssr:stedsnr" v="470704" />
		<tag k="waterway" v="river" />
	</node>
	<node id="-567498" lat="62.232336114" lon="7.04200000042">
		<tag k="name" v="Storgrova" />
		<tag k="ssr:stedsnr" v="895089" />
		<tag k="waterway" v="stream" />
	</node>
	<node id="-567993" lat="62.1926416688" lon="7.15341667156">
		<tag k="name" v="Øyrane" />
		<tag k="natural" v="bay" />
		<tag k="ssr:stedsnr" v="460508" />
	</node>
	<node id="-568503" lat="62.2619111081" lon="7.36278888283">
		<tag k="name" v="Storelva" />
		<tag k="ssr:stedsnr" v="774435" />
		<tag k="waterway" v="stream" />
	</node>
	<node id="-568500" lat="62.2824138925" lon="7.27851944249">
		<tag k="name" v="Vikasæterelva" />
		<tag k="ssr:stedsnr" v="774261" />
		<tag k="waterway" v="stream" />
	</node>
	<node id="-567475" lat="62.187288891" lon="7.56151111256">
		<tag k="name" v="Longtangen" />
		<tag k="natural" v="cape" />
		<tag k="ssr:stedsnr" v="410733" />
	</node>
	<node id="-567474" lat="62.3979500007" lon="7.59985277666">
		<tag k="name" v="Meiadalskoppelva" />
		<tag k="ssr:stedsnr" v="410725" />
		<tag k="waterway" v="river" />
	</node>
	<node id="-567667" lat="62.1909694412" lon="7.13748334013">
		<tag k="name" v="Vikarelvane" />
		<tag k="ssr:stedsnr" v="96380" />
		<tag k="waterway" v="stream" />
	</node>
	<node id="-568496" lat="62.1889416632" lon="7.43980277314">
		<tag k="name" v="Sæterfossen" />
		<tag k="natural" v="waterfall" />
		<tag k="ssr:stedsnr" v="773955" />
	</node>
	<node id="-568493" lat="62.2009333337" lon="7.51529722919">
		<tag k="name" v="Neset" />
		<tag k="natural" v="cape" />
		<tag k="ssr:stedsnr" v="773901" />
	</node>
	<node id="-568492" lat="62.3676972256" lon="7.55289166869">
		<tag k="name" v="Åkrokelva" />
		<tag k="ssr:stedsnr" v="773843" />
		<tag k="waterway" v="river" />
	</node>
	<node id="-567922" lat="62.309908335" lon="7.55719444439">
		<tag k="name" v="Djupdalsvatnet" />
		<tag k="natural" v="water" />
		<tag k="ssr:stedsnr" v="253864" />
	</node>
	<node id="-567751" lat="62.268855559" lon="7.11334165915">
		<tag k="name" v="Verpesdalsvatnet" />
		<tag k="natural" v="water" />
		<tag k="ssr:stedsnr" v="132901" />
	</node>
	<node id="-568488" lat="62.230213888" lon="7.42102499195">
		<tag k="name" v="Storelva" />
		<tag k="ssr:stedsnr" v="773750" />
		<tag k="waterway" v="stream" />
	</node>
	<node id="-567975" lat="62.2641138874" lon="7.53944723092">
		<tag k="name" v="Stolselva" />
		<tag k="ssr:stedsnr" v="436821" />
		<tag k="waterway" v="stream" />
	</node>
	<node id="-567974" lat="62.2635972218" lon="7.52103888847">
		<tag k="name" v="Muldalselva" />
		<tag k="ssr:stedsnr" v="436818" />
		<tag k="waterway" v="river" />
	</node>
	<node id="-568484" lat="62.1672916669" lon="7.32185832408">
		<tag k="name" v="Grjotdalselva" />
		<tag k="ssr:stedsnr" v="773563" />
		<tag k="waterway" v="stream" />
	</node>
	<node id="-567971" lat="62.3231249984" lon="7.61577221993">
		<tag k="name" v="Grøndalsvatnet" />
		<tag k="natural" v="water" />
		<tag k="ssr:stedsnr" v="436759" />
	</node>
	<node id="-568482" lat="62.2139388912" lon="7.31533055702">
		<tag k="name" v="Osen" />
		<tag k="natural" v="bay" />
		<tag k="ssr:stedsnr" v="773558" />
	</node>
	<node id="-568481" lat="62.1866833325" lon="7.34786944927">
		<tag k="name" v="Nørdre Herdalselva" />
		<tag k="ssr:stedsnr" v="773501" />
		<tag k="waterway" v="river" />
	</node>
	<node id="-567455" lat="62.312580554" lon="7.23733332672">
		<tag k="name" v="Kvislegrova" />
		<tag k="ssr:stedsnr" v="409614" />
		<tag k="waterway" v="stream" />
	</node>
	<node id="-567966" lat="62.2478944478" lon="7.0618916625">
		<tag k="name" v="Grøtdalsvatnet" />
		<tag k="natural" v="water" />
		<tag k="ssr:stedsnr" v="436241" />
	</node>
	<node id="-568774" lat="62.2063650752" lon="7.0745017455">
		<tag k="name" v="Storvatnet" />
		<tag k="natural" v="water" />
		<tag k="ssr:stedsnr" v="976067" />
	</node>
	<node id="-567963" lat="62.1105944441" lon="7.53742500491">
		<tag k="alt_name" v="Vikvatnet, heimste" />
		<tag k="name" v="Heimste Vikvatnet" />
		<tag k="natural" v="water" />
		<tag k="ssr:stedsnr" v="436105" />
		<tag k="water" v="lake" />
	</node>
	<node id="-568473" lat="62.225944442" lon="7.04846388446">
		<tag k="name" v="Svoragrovene" />
		<tag k="ssr:stedsnr" v="773093" />
		<tag k="waterway" v="stream" />
	</node>
	<node id="-567960" lat="62.1247027766" lon="7.42653055565">
		<tag k="name" v="Fagerbotnvatnet" />
		<tag k="natural" v="water" />
		<tag k="ssr:stedsnr" v="436066" />
		<tag k="water" v="lake" />
	</node>
	<node id="-567447" lat="62.2303916663" lon="7.04270555507">
		<tag k="name" v="Bytegrova" />
		<tag k="ssr:stedsnr" v="409117" />
		<tag k="waterway" v="stream" />
	</node>
	<node id="-568601" lat="62.3569527748" lon="7.35840277001">
		<tag k="name" v="Kjørsetelva" />
		<tag k="ssr:stedsnr" v="835153" />
		<tag k="waterway" v="stream" />
	</node>
	<node id="-567953" lat="62.3106083325" lon="7.68313611719">
		<tag k="name" v="Illstigvatnet" />
		<tag k="natural" v="water" />
		<tag k="ssr:stedsnr" v="435868" />
	</node>
	<node id="-567944" lat="62.2275027737" lon="7.56561112034">
		<tag k="name" v="Djupdalsvatnet" />
		<tag k="natural" v="water" />
		<tag k="ssr:stedsnr" v="435031" />
	</node>
	<node id="-567943" lat="62.2233583341" lon="7.69322777544">
		<tag k="alt_name" v="Isholvatnet, fremste" />
		<tag k="name" v="Fremste Isholvatnet" />
		<tag k="natural" v="water" />
		<tag k="ssr:stedsnr" v="435001" />
	</node>
	<node id="-567307" lat="62.3432749967" lon="7.69899167451">
		<tag k="name" v="Heimste Knutskoppvatnet" />
		<tag k="natural" v="water" />
		<tag k="ssr:stedsnr" v="314753" />
	</node>
	<node id="-568598" lat="62.2092111135" lon="7.4410111133">
		<tag k="name" v="Uraneset" />
		<tag k="natural" v="cape" />
		<tag k="ssr:stedsnr" v="835113" />
	</node>
	<node id="-568445" lat="62.3408500016" lon="7.71614721841">
		<tag k="name" v="Inste Knutskoppvatnet" />
		<tag k="natural" v="water" />
		<tag k="ssr:stedsnr" v="739757" />
	</node>
	<node id="-567932" lat="62.3282194466" lon="7.68748055208">
		<tag k="name" v="Sylkoppvatnet" />
		<tag k="natural" v="water" />
		<tag k="ssr:stedsnr" v="254738" />
	</node>
	<node id="-568443" lat="62.2479111116" lon="7.19530834024">
		<tag k="name" v="Grøndiket" />
		<tag k="ssr:stedsnr" v="739260" />
		<tag k="waterway" v="stream" />
	</node>
	<node id="-567743" lat="62.358197219" lon="7.38005554887">
		<tag k="name" v="Kjørsetdalen" />
		<tag k="ssr:stedsnr" v="132791" />
		<tag k="waterway" v="stream" />
	</node>
	<node id="-568439" lat="62.1559222237" lon="7.43103610633">
		<tag k="alt_name" v="Kaldhussætervatnet, fremste" />
		<tag k="name" v="Fremste Kaldhussætervatnet" />
		<tag k="natural" v="water" />
		<tag k="ssr:stedsnr" v="739049" />
		<tag k="water" v="lake" />
	</node>
	<node id="-568438" lat="62.3724361154" lon="7.81293888086">
		<tag k="name" v="Langvatnet" />
		<tag k="natural" v="water" />
		<tag k="ssr:stedsnr" v="739033" />
		<tag k="water" v="lake" />
	</node>
	<node id="-568437" lat="62.1676472184" lon="7.42796944349">
		<tag k="alt_name" v="Kaldhussætervatnet, heimste" />
		<tag k="name" v="Heimste Kaldhussætervatnet" />
		<tag k="natural" v="water" />
		<tag k="ssr:stedsnr" v="739031" />
		<tag k="water" v="lake" />
	</node>
	<node id="-568436" lat="62.208069442" lon="7.27298333942">
		<tag k="name" v="Knøsteelva" />
		<tag k="ssr:stedsnr" v="739030" />
		<tag k="waterway" v="stream" />
	</node>
	<node id="-568435" lat="62.2248611104" lon="7.61929166507">
		<tag k="name" v="Småkoppane" />
		<tag k="natural" v="water" />
		<tag k="ssr:stedsnr" v="739020" />
		<tag k="water" v="lake" />
	</node>
	<node id="-568434" lat="62.2331750025" lon="7.33378333318">
		<tag k="alt_name" v="Vassdalsvatnet, øvre" />
		<tag k="name" v="Øvre Vassdalsvatnet" />
		<tag k="natural" v="water" />
		<tag k="ssr:stedsnr" v="739011" />
		<tag k="water" v="lake" />
	</node>
	<node id="-567407" lat="62.2968805521" lon="7.19320556419">
		<tag k="name" v="Vardevatnet" />
		<tag k="natural" v="water" />
		<tag k="ssr:stedsnr" v="375541" />
	</node>
	<node id="-567269" lat="62.4128166679" lon="7.65005555969">
		<tag k="name" v="Longfjellelva" />
		<tag k="ssr:stedsnr" v="288677" />
		<tag k="waterway" v="river" />
	</node>
	<node id="-567917" lat="62.1399138855" lon="7.39916944409">
		<tag k="name" v="Illstigvatnet" />
		<tag k="natural" v="water" />
		<tag k="ssr:stedsnr" v="253088" />
	</node>
	<node id="-567404" lat="62.1144194424" lon="7.40287499789">
		<tag k="name" v="Stordøla" />
		<tag k="ssr:stedsnr" v="375069" />
		<tag k="waterway" v="stream" />
	</node>
	<node id="-567570" lat="62.2713166685" lon="7.12471110668">
		<tag k="fixme" v="multiple name tags, choose one and add the other to alt_name" />
		<tag k="name" v="Fremste Tjørna;Tjørna" />
		<tag k="natural" v="water" />
		<tag k="ssr:stedsnr" v="11914" />
	</node>
	<node id="-567912" lat="62.1972055569" lon="7.55184722879">
		<tag k="name" v="Sildevatnet" />
		<tag k="natural" v="water" />
		<tag k="ssr:stedsnr" v="253009" />
	</node>
	<node id="-567399" lat="62.3810861102" lon="7.44244445012">
		<tag k="name" v="Kyrfonndalsvatnet" />
		<tag k="natural" v="water" />
		<tag k="ssr:stedsnr" v="374801" />
	</node>
	<node id="-567398" lat="62.3169249982" lon="7.34574723118">
		<tag k="name" v="Eggjevatnet" />
		<tag k="natural" v="water" />
		<tag k="ssr:stedsnr" v="374791" />
	</node>
	<node id="-568421" lat="62.3753000009" lon="7.55024444583">
		<tag k="name" v="Klingreelva" />
		<tag k="ssr:stedsnr" v="713866" />
		<tag k="waterway" v="river" />
	</node>
	<node id="-567396" lat="62.2438638876" lon="7.40067221746">
		<tag k="name" v="Slufsa" />
		<tag k="ssr:stedsnr" v="374481" />
		<tag k="waterway" v="stream" />
	</node>
	<node id="-568418" lat="62.3377472256" lon="7.53421111843">
		<tag k="name" v="Krikane" />
		<tag k="ssr:stedsnr" v="713825" />
		<tag k="waterway" v="stream" />
	</node>
	<node id="-568772" lat="62.1942543998" lon="7.10555152533">
		<tag k="name" v="Nonsvatnet" />
		<tag k="natural" v="water" />
		<tag k="ssr:stedsnr" v="976062" />
	</node>
	<node id="-568416" lat="62.2377472189" lon="7.23166667201">
		<tag k="name" v="Kleivaelva" />
		<tag k="ssr:stedsnr" v="713815" />
		<tag k="waterway" v="stream" />
	</node>
	<node id="-567749" lat="62.3002000011" lon="7.63524443515">
		<tag k="name" v="Fremsteglupen" />
		<tag k="natural" v="water" />
		<tag k="ssr:stedsnr" v="132856" />
	</node>
	<node id="-568414" lat="62.2198083365" lon="7.40884166711">
		<tag k="name" v="Elvakroken" />
		<tag k="place" v="locality" />
		<tag k="ssr:stedsnr" v="713786" />
	</node>
	<node id="-567389" lat="62.2164833336" lon="7.34486388866">
		<tag k="name" v="Kallskarelva" />
		<tag k="ssr:stedsnr" v="374034" />
		<tag k="waterway" v="stream" />
	</node>
	<node id="-567386" lat="62.2150249958" lon="7.49106389497">
		<tag k="name" v="Høgskredvatnet" />
		<tag k="natural" v="water" />
		<tag k="ssr:stedsnr" v="374003" />
	</node>
	<node id="-567897" lat="62.418433331" lon="7.63826667243">
		<tag k="name" v="Slettvikelva" />
		<tag k="ssr:stedsnr" v="228228" />
		<tag k="waterway" v="river" />
	</node>
	<node id="-568408" lat="62.3188611133" lon="7.24702499388">
		<tag k="name" v="Berdøla" />
		<tag k="ssr:stedsnr" v="713639" />
		<tag k="waterway" v="stream" />
	</node>
	<node id="-567895" lat="62.191363888" lon="7.44114999918">
		<tag k="name" v="Sæterelva" />
		<tag k="ssr:stedsnr" v="227952" />
		<tag k="waterway" v="stream" />
	</node>
	<node id="-568406" lat="62.2147444412" lon="7.30934166337">
		<tag k="name" v="Måsevatnet" />
		<tag k="natural" v="water" />
		<tag k="ssr:stedsnr" v="713610" />
	</node>
	<node id="-567379" lat="62.3298527797" lon="7.5343583386">
		<tag k="name" v="Sagelva" />
		<tag k="ssr:stedsnr" v="349836" />
		<tag k="waterway" v="river" />
	</node>
	<node id="-568336" lat="62.2183750008" lon="7.29970833897">
		<tag k="fixme" v="multiple name tags, choose one and add the other to alt_name" />
		<tag k="name" v="Damfossen;Dampfossen" />
		<tag k="natural" v="waterfall" />
		<tag k="ssr:stedsnr" v="678039" />
	</node>
	<node id="-567377" lat="62.2986111074" lon="7.22803610942">
		<tag k="name" v="Fossane" />
		<tag k="natural" v="waterfall" />
		<tag k="ssr:stedsnr" v="349825" />
	</node>
	<node id="-567237" lat="62.2647277739" lon="7.03468054735">
		<tag k="name" v="Djuphamna" />
		<tag k="natural" v="bay" />
		<tag k="ssr:stedsnr" v="278432" />
	</node>
	<node id="-568398" lat="62.1832250039" lon="7.60974165983">
		<tag k="name" v="Storkvisla" />
		<tag k="ssr:stedsnr" v="713227" />
		<tag k="waterway" v="river" />
	</node>
	<node id="-568397" lat="62.1513250032" lon="7.43331110669">
		<tag k="name" v="Kvernhuselva" />
		<tag k="ssr:stedsnr" v="713211" />
		<tag k="waterway" v="stream" />
	</node>
	<node id="-567882" lat="62.183316669" lon="7.3299722172">
		<tag k="name" v="Raudgrova" />
		<tag k="ssr:stedsnr" v="227522" />
		<tag k="waterway" v="stream" />
	</node>
	<node id="-567479" lat="62.3842166623" lon="7.5864111064">
		<tag k="name" v="Harpå" />
		<tag k="ssr:stedsnr" v="410806" />
		<tag k="waterway" v="stream" />
	</node>
	<node id="-567449" lat="62.2158555586" lon="7.42583056348">
		<tag k="name" v="Vika" />
		<tag k="natural" v="bay" />
		<tag k="ssr:stedsnr" v="409157" />
	</node>
	<node id="-568391" lat="62.2498055542" lon="7.24009443559">
		<tag k="name" v="Storelva" />
		<tag k="ssr:stedsnr" v="712954" />
		<tag k="waterway" v="river" />
	</node>
	<node id="-567366" lat="62.2479388853" lon="7.2521750094">
		<tag k="name" v="Kjellsgrova" />
		<tag k="ssr:stedsnr" v="348931" />
		<tag k="waterway" v="stream" />
	</node>
	<node id="-567364" lat="62.1959250002" lon="7.54122222397">
		<tag k="name" v="Reindølå" />
		<tag k="ssr:stedsnr" v="348712" />
		<tag k="waterway" v="river" />
	</node>
	<node id="-567874" lat="62.2334611076" lon="7.04013056024">
		<tag k="name" v="Brunngrova" />
		<tag k="ssr:stedsnr" v="227109" />
		<tag k="waterway" v="stream" />
	</node>
	<node id="-568385" lat="62.3400694455" lon="7.34823054885">
		<tag k="name" v="Myklebostelva" />
		<tag k="ssr:stedsnr" v="712296" />
		<tag k="waterway" v="stream" />
	</node>
	<node id="-567904" lat="62.1892666674" lon="7.55573611543">
		<tag k="name" v="Longvasstranda" />
		<tag k="natural" v="beach" />
		<tag k="ssr:stedsnr" v="228767" />
	</node>
	<node id="-567869" lat="62.1589973303" lon="7.18424128569">
		<tag k="name" v="Hesjeelva" />
		<tag k="ssr:stedsnr" v="218380" />
		<tag k="waterway" v="river" />
	</node>
	<node id="-568159" lat="62.4086388882" lon="7.64140000295">
		<tag k="name" v="Slufsa" />
		<tag k="ssr:stedsnr" v="556968" />
		<tag k="waterway" v="stream" />
	</node>
	<node id="-567351" lat="62.276838886" lon="7.07870000735">
		<tag k="name" v="Skrednakkelva" />
		<tag k="ssr:stedsnr" v="348159" />
		<tag k="waterway" v="stream" />
	</node>
	<node id="-567646" lat="62.1318111156" lon="7.52127222359">
		<tag k="name" v="Tjønna" />
		<tag k="natural" v="water" />
		<tag k="ssr:stedsnr" v="72084" />
	</node>
	<node id="-567853" lat="62.2568277767" lon="7.56724167091">
		<tag k="name" v="Stolsvatnet" />
		<tag k="natural" v="water" />
		<tag k="ssr:stedsnr" v="194818" />
	</node>
	<node id="-568359" lat="62.3175305601" lon="7.65948611384">
		<tag k="name" v="Tjørnane" />
		<tag k="natural" v="water" />
		<tag k="ssr:stedsnr" v="678766" />
		<tag k="water" v="lake" />
	</node>
	<node id="-567739" lat="62.2975944424" lon="7.1736833401">
		<tag k="name" v="Steiggjelselva" />
		<tag k="ssr:stedsnr" v="132614" />
		<tag k="waterway" v="stream" />
	</node>
	<node id="-567331" lat="62.2548739575" lon="7.43519524456">
		<tag k="name" v="Muldalsfossen" />
		<tag k="natural" v="waterfall" />
		<tag k="ssr:stedsnr" v="324905" />
	</node>
	<node id="-567842" lat="62.3452805514" lon="7.62925833431">
		<tag k="name" v="Steindalselva" />
		<tag k="ssr:stedsnr" v="193734" />
		<tag k="waterway" v="stream" />
	</node>
	<node id="-567329" lat="62.2968833358" lon="7.50390000934">
		<tag k="alt_name" v="Heivatnet, fremste" />
		<tag k="name" v="Fremste Heivatnet" />
		<tag k="natural" v="water" />
		<tag k="ssr:stedsnr" v="315862" />
	</node>
	<node id="-567457" lat="62.3478194446" lon="7.41071111128">
		<tag k="name" v="Kyrfonnhølen" />
		<tag k="place" v="locality" />
		<tag k="ssr:stedsnr" v="409635" />
	</node>
	<node id="-567764" lat="62.2114249983" lon="7.13645554994">
		<tag k="name" v="Stampelva" />
		<tag k="ssr:stedsnr" v="157351" />
		<tag k="waterway" v="stream" />
	</node>
	<node id="-567642" lat="62.4160527788" lon="7.71327499348">
		<tag k="name" v="Isglupane" />
		<tag k="natural" v="water" />
		<tag k="ssr:stedsnr" v="71956" />
	</node>
	<node id="-568346" lat="62.229530559" lon="7.04621665749">
		<tag k="name" v="Smogelielva" />
		<tag k="ssr:stedsnr" v="678299" />
		<tag k="waterway" v="stream" />
	</node>
	<node id="-567831" lat="62.1504499976" lon="7.30220000358">
		<tag k="name" v="Grjotdalsvatnet" />
		<tag k="natural" v="water" />
		<tag k="ssr:stedsnr" v="193047" />
	</node>
	<node id="-567830" lat="62.1637166661" lon="7.55030000119">
		<tag k="name" v="Daurmålsvatnet" />
		<tag k="natural" v="water" />
		<tag k="ssr:stedsnr" v="193046" />
	</node>
	<node id="-567829" lat="62.1606638848" lon="7.5726527865">
		<tag k="name" v="Svarteggvatnet" />
		<tag k="natural" v="water" />
		<tag k="ssr:stedsnr" v="193041" />
	</node>
	<node id="-567313" lat="62.3790916711" lon="7.60135833964">
		<tag k="name" v="Litlelangdalselva" />
		<tag k="ssr:stedsnr" v="314785" />
		<tag k="waterway" v="stream" />
	</node>
	<node id="-567312" lat="62.3170527757" lon="7.43983610187">
		<tag k="name" v="Myrheivatnet" />
		<tag k="natural" v="water" />
		<tag k="ssr:stedsnr" v="314776" />
	</node>
	<node id="-567819" lat="62.0828166682" lon="7.5990388885">
		<tag k="name" v="Skrådalsvatnet" />
		<tag k="natural" v="water" />
		<tag k="ssr:stedsnr" v="192137" />
	</node>
	<node id="-568428" lat="62.2414083321" lon="7.28247499799">
		<tag k="fixme" v="multiple name tags, choose one and add the other to alt_name" />
		<tag k="name" v="Rindeelva;Strekelva" />
		<tag k="ssr:stedsnr" v="738472" />
		<tag k="waterway" v="stream" />
	</node>
	<node id="-568325" lat="62.427899996" lon="7.65001111311">
		<tag k="name" v="Øvstevatnet" />
		<tag k="natural" v="water" />
		<tag k="ssr:stedsnr" v="652706" />
		<tag k="water" v="lake" />
	</node>
	<node id="-568322" lat="62.3493416658" lon="7.43632222354">
		<tag k="name" v="Svegrova" />
		<tag k="ssr:stedsnr" v="652652" />
		<tag k="waterway" v="stream" />
	</node>
</osm>
