<?xml version="1.0" encoding="UTF-8"?>
<osm generator="osmapis" version="0.6">
	<node id="-568318" lat="62.292575" lon="7.28026388051">
		<tag k="name" v="Honesbugen" />
		<tag k="natural" v="bay" />
		<tag k="ssr:stedsnr" v="652493" />
	</node>
	<node id="-567933" lat="62.2860666686" lon="7.32922500081">
		<tag k="alt_name" v="Uksneset" />
		<tag k="name" v="Oksneset" />
		<tag k="natural" v="cape" />
		<tag k="ssr:stedsnr" v="254848" />
	</node>
	<node id="-568444" lat="62.2854833311" lon="7.1771361079">
		<tag k="name" v="Kvitneset" />
		<tag k="natural" v="cape" />
		<tag k="ssr:stedsnr" v="739570" />
	</node>
	<node id="-567419" lat="62.2905861091" lon="7.28323888528">
		<tag k="name" v="Honeset" />
		<tag k="natural" v="cape" />
		<tag k="ssr:stedsnr" v="375841" />
	</node>
	<node id="-568184" lat="62.29369722" lon="7.33657499318">
		<tag k="name" v="Nerhusstranda" />
		<tag k="natural" v="beach" />
		<tag k="place" v="locality" />
		<tag k="ssr:stedsnr" v="577360" />
	</node>
	<node id="-567543" lat="62.2510576675" lon="7.4279735416">
		<tag k="name" v="Muldalsvika" />
		<tag k="natural" v="bay" />
		<tag k="ssr:stedsnr" v="982549" />
	</node>
	<node id="-567852" lat="62.2788222262" lon="7.25160554797">
		<tag k="name" v="Hestholmen" />
		<tag k="natural" v="cape" />
		<tag k="ssr:stedsnr" v="193873" />
	</node>
	<node id="-568129" lat="62.2966000038" lon="7.25627499406">
		<tag k="name" v="Murigrandane" />
		<tag k="natural" v="beach" />
		<tag k="place" v="locality" />
		<tag k="ssr:stedsnr" v="531823" />
	</node>
	<node id="-567410" lat="62.2778972249" lon="7.22338333601">
		<tag k="bay" v="fjord" />
		<tag k="name" v="Norddalsfjorden" />
		<tag k="natural" v="bay" />
		<tag k="ssr:stedsnr" v="375611" />
	</node>
	<node id="-567662" lat="62.216744442" lon="7.03991388396">
		<tag k="name" v="Koppneset" />
		<tag k="natural" v="cape" />
		<tag k="ssr:stedsnr" v="93353" />
	</node>
	<node id="-568551" lat="62.2735749993" lon="7.24609165905">
		<tag k="name" v="Geitvika" />
		<tag k="natural" v="bay" />
		<tag k="ssr:stedsnr" v="800861" />
	</node>
	<node id="-567633" lat="62.2775749966" lon="7.11682500847">
		<tag k="name" v="Bugane" />
		<tag k="natural" v="bay" />
		<tag k="ssr:stedsnr" v="71622" />
	</node>
	<node id="-568545" lat="62.2501194408" lon="7.4018416616">
		<tag k="name" v="Seineset" />
		<tag k="natural" v="cape" />
		<tag k="ssr:stedsnr" v="800811" />
	</node>
	<node id="-568287" lat="62.2587222213" lon="7.0345999973">
		<tag k="name" v="Raudberg" />
		<tag k="natural" v="cape" />
		<tag k="ssr:stedsnr" v="638128" />
	</node>
	<node id="-568666" lat="62.2709861143" lon="7.35414721459">
		<tag k="name" v="Kastekoppen" />
		<tag k="natural" v="bay" />
		<tag k="ssr:stedsnr" v="881417" />
	</node>
	<node id="-568665" lat="62.2763583323" lon="7.25007499815">
		<tag k="name" v="Brudehammaren" />
		<tag k="natural" v="cape" />
		<tag k="ssr:stedsnr" v="881402" />
	</node>
	<node id="-568661" lat="62.2773638867" lon="7.33731944444">
		<tag k="name" v="Kastebukta" />
		<tag k="natural" v="bay" />
		<tag k="ssr:stedsnr" v="861877" />
	</node>
	<node id="-568147" lat="62.2877388858" lon="7.34379721946">
		<tag k="bay" v="fjord" />
		<tag k="name" v="Tafjorden" />
		<tag k="natural" v="bay" />
		<tag k="ssr:stedsnr" v="556525" />
	</node>
	<node id="-568402" lat="62.2843083356" lon="7.32931388724">
		<tag k="name" v="Uksnesbugen" />
		<tag k="natural" v="bay" />
		<tag k="ssr:stedsnr" v="713488" />
	</node>
	<node id="-568401" lat="62.2869500039" lon="7.31794721625">
		<tag k="name" v="Skolten" />
		<tag k="natural" v="bay" />
		<tag k="ssr:stedsnr" v="713484" />
	</node>
	<node id="-568277" lat="62.2483236871" lon="7.42524233687">
		<tag k="alt_name" v="Sørdalsvika" />
		<tag k="name" v="Sødalsvika" />
		<tag k="natural" v="bay" />
		<tag k="ssr:stedsnr" v="618806" />
	</node>
	<node id="-567714" lat="62.2767194442" lon="7.10439166343">
		<tag k="name" v="Gobelaget" />
		<tag k="natural" v="cape" />
		<tag k="ssr:stedsnr" v="107094" />
	</node>
	<node id="-567753" lat="62.2623250042" lon="7.40112500714">
		<tag k="name" v="Inste Furneset" />
		<tag k="natural" v="cape" />
		<tag k="ssr:stedsnr" v="133813" />
	</node>
	<node id="-567623" lat="62.2837305552" lon="7.26394444695">
		<tag k="name" v="Vindsneskolvet" />
		<tag k="natural" v="bay" />
		<tag k="ssr:stedsnr" v="46811" />
	</node>
	<node id="-567356" lat="62.2747777766" lon="7.34326389666">
		<tag k="name" v="Kastenaustet" />
		<tag k="natural" v="bay" />
		<tag k="ssr:stedsnr" v="348302" />
	</node>
	<node id="-567478" lat="62.2909888884" lon="7.23073888155">
		<tag k="name" v="Åsebugen" />
		<tag k="natural" v="bay" />
		<tag k="ssr:stedsnr" v="410794" />
	</node>
	<node id="-567617" lat="62.2696916646" lon="7.15548612034">
		<tag k="name" v="Seljeurneset" />
		<tag k="natural" v="cape" />
		<tag k="ssr:stedsnr" v="46132" />
	</node>
	<node id="-568000" lat="62.2620083333" lon="7.2368583248">
		<tag k="name" v="Oterhola" />
		<tag k="natural" v="bay" />
		<tag k="ssr:stedsnr" v="470737" />
	</node>
	<node id="-567509" lat="62.270991663" lon="7.36024721592">
		<tag k="name" v="Litleneset" />
		<tag k="natural" v="cape" />
		<tag k="ssr:stedsnr" v="895285" />
	</node>
	<node id="-567740" lat="62.2845666658" lon="7.26548056168">
		<tag k="name" v="Vindsneset" />
		<tag k="natural" v="cape" />
		<tag k="ssr:stedsnr" v="132658" />
	</node>
	<node id="-568507" lat="62.2924166629" lon="7.29503332425">
		<tag k="name" v="Vikaneset" />
		<tag k="natural" v="cape" />
		<tag k="ssr:stedsnr" v="774556" />
	</node>
	<node id="-567863" lat="62.2809722191" lon="7.36505000666">
		<tag k="name" v="Furnesbugen" />
		<tag k="natural" v="bay" />
		<tag k="ssr:stedsnr" v="213383" />
	</node>
	<node id="-567990" lat="62.2623222238" lon="7.20444443606">
		<tag k="name" v="Bolletneset" />
		<tag k="natural" v="cape" />
		<tag k="ssr:stedsnr" v="460428" />
	</node>
	<node id="-568501" lat="62.2795138904" lon="7.3649055543">
		<tag k="name" v="Furenesodden" />
		<tag k="natural" v="cape" />
		<tag k="ssr:stedsnr" v="774266" />
	</node>
	<node id="-567988" lat="62.2782805529" lon="7.36984167096">
		<tag k="name" v="Risteneset" />
		<tag k="natural" v="cape" />
		<tag k="ssr:stedsnr" v="456409" />
	</node>
	<node id="-567987" lat="62.2636666711" lon="7.37301944387">
		<tag k="name" v="Alvikneset" />
		<tag k="natural" v="cape" />
		<tag k="ssr:stedsnr" v="456406" />
	</node>
	<node id="-567986" lat="62.2849305599" lon="7.31460000738">
		<tag k="name" v="Kvitneset" />
		<tag k="natural" v="cape" />
		<tag k="ssr:stedsnr" v="456356" />
	</node>
	<node id="-568369" lat="62.2795972202" lon="7.36664721386">
		<tag k="name" v="Ytste Furneset" />
		<tag k="natural" v="cape" />
		<tag k="ssr:stedsnr" v="679860" />
	</node>
	<node id="-567600" lat="62.2780111128" lon="7.04187221876">
		<tag k="name" v="Skarveskjetet" />
		<tag k="natural" v="cape" />
		<tag k="ssr:stedsnr" v="45140" />
	</node>
	<node id="-568750" lat="62.2779000037" lon="7.12261665946">
		<tag k="name" v="Pinå" />
		<tag k="natural" v="bay" />
		<tag k="ssr:stedsnr" v="956128" />
	</node>
	<node id="-567469" lat="62.2929444465" lon="7.30291389223">
		<tag k="name" v="Hyseneset" />
		<tag k="natural" v="cape" />
		<tag k="ssr:stedsnr" v="410511" />
	</node>
	<node id="-567340" lat="62.2655722257" lon="7.23860278449">
		<tag k="name" v="Kyrkjefjellneset" />
		<tag k="natural" v="cape" />
		<tag k="ssr:stedsnr" v="335436" />
	</node>
	<node id="-567339" lat="62.2616666678" lon="7.20851111239">
		<tag k="name" v="Svarthammaren" />
		<tag k="natural" v="cape" />
		<tag k="ssr:stedsnr" v="335427" />
	</node>
	<node id="-567338" lat="62.2912250009" lon="7.3110083332">
		<tag k="name" v="Selstokkneset" />
		<tag k="natural" v="cape" />
		<tag k="ssr:stedsnr" v="335371" />
	</node>
	<node id="-567581" lat="62.2503166676" lon="7.39790554711">
		<tag k="name" v="Seineskoppen" />
		<tag k="natural" v="bay" />
		<tag k="ssr:stedsnr" v="31414" />
	</node>
	<node id="-568616" lat="62.2934638923" lon="7.23916110487">
		<tag k="name" v="Meneset" />
		<tag k="natural" v="cape" />
		<tag k="ssr:stedsnr" v="835809" />
	</node>
	<node id="-567847" lat="62.2936999989" lon="7.29602221474">
		<tag k="name" v="Rusetbugen" />
		<tag k="natural" v="bay" />
		<tag k="ssr:stedsnr" v="193856" />
	</node>
	<node id="-567718" lat="62.2843388925" lon="7.31328333379">
		<tag k="name" v="Litlevika" />
		<tag k="natural" v="bay" />
		<tag k="ssr:stedsnr" v="107475" />
	</node>
	<node id="-567985" lat="62.2792500024" lon="7.07377777137">
		<tag k="name" v="Rognsteinen" />
		<tag k="natural" v="cape" />
		<tag k="ssr:stedsnr" v="456351" />
	</node>
	<node id="-567715" lat="62.280244444" lon="7.13165556391">
		<tag k="name" v="Oterskinnet" />
		<tag k="natural" v="cape" />
		<tag k="ssr:stedsnr" v="107099" />
	</node>
	<node id="-567227" lat="62.2711305573" lon="7.24290277878">
		<tag k="name" v="Bukkesprangneset" />
		<tag k="natural" v="cape" />
		<tag k="ssr:stedsnr" v="274374" />
	</node>
	<node id="-567327" lat="62.2823583338" lon="7.28842500328">
		<tag k="name" v="Kvernhusneset" />
		<tag k="natural" v="cape" />
		<tag k="ssr:stedsnr" v="315857" />
	</node>
	<node id="-567582" lat="62.2659000017" lon="7.39763610676">
		<tag k="fixme" v="multiple name tags, choose one and add the other to alt_name" />
		<tag k="name" v="Grunnvikane;Grynnvikane" />
		<tag k="natural" v="bay" />
		<tag k="ssr:stedsnr" v="31417" />
	</node>
	<node id="-567709" lat="62.2532916661" lon="7.22677777557">
		<tag k="name" v="Bugen" />
		<tag k="natural" v="bay" />
		<tag k="ssr:stedsnr" v="106940" />
	</node>
	<node id="-567580" lat="62.2379583346" lon="7.40929999271">
		<tag k="name" v="Geitvikneset" />
		<tag k="natural" v="cape" />
		<tag k="ssr:stedsnr" v="31452" />
	</node>
	<node id="-567687" lat="62.2879083342" lon="7.3557583361">
		<tag k="name" v="Sandfonneset" />
		<tag k="natural" v="cape" />
		<tag k="ssr:stedsnr" v="106474" />
	</node>
	<node id="-567443" lat="62.2309055586" lon="7.03864444344">
		<tag k="name" v="Smogebugane" />
		<tag k="natural" v="bay" />
		<tag k="ssr:stedsnr" v="409066" />
	</node>
	<node id="-567441" lat="62.2847944401" lon="7.20339444602">
		<tag k="name" v="Grautahamna" />
		<tag k="natural" v="bay" />
		<tag k="ssr:stedsnr" v="409013" />
	</node>
	<node id="-568080" lat="62.2427583324" lon="7.4017694456">
		<tag k="name" v="Geitvika" />
		<tag k="natural" v="bay" />
		<tag k="ssr:stedsnr" v="517453" />
	</node>
	<node id="-568461" lat="62.2823027822" lon="7.30304721799">
		<tag k="name" v="Åkreneset" />
		<tag k="natural" v="cape" />
		<tag k="ssr:stedsnr" v="759329" />
	</node>
	<node id="-568714" lat="62.2187888874" lon="7.04269165723">
		<tag k="name" v="Koppvika" />
		<tag k="natural" v="bay" />
		<tag k="ssr:stedsnr" v="942396" />
	</node>
	<node id="-567431" lat="62.2863888923" lon="7.2121694377">
		<tag k="name" v="Lingebugen" />
		<tag k="natural" v="bay" />
		<tag k="ssr:stedsnr" v="395365" />
	</node>
	<node id="-567466" lat="62.2693166711" lon="7.39146111064">
		<tag k="name" v="Litle Grynnvika" />
		<tag k="natural" v="bay" />
		<tag k="ssr:stedsnr" v="410252" />
	</node>
	<node id="-567745" lat="62.2646972205" lon="7.36918611572">
		<tag k="name" v="Alvika" />
		<tag k="natural" v="bay" />
		<tag k="ssr:stedsnr" v="132821" />
	</node>
	<node id="-568578" lat="62.2633500036" lon="7.40015000389">
		<tag k="name" v="Inste Grynnvika" />
		<tag k="natural" v="bay" />
		<tag k="ssr:stedsnr" v="834241" />
	</node>
</osm>
