<?xml version="1.0" encoding="UTF-8"?>
<osm generator="osmapis" version="0.6">
	<node id="-568192" lat="62.2411333297" lon="7.25491388128">
		<tag k="bridge" v="yes" />
		<tag k="layer" v="1" />
		<tag k="name" v="Dyrdalsbrua" />
		<tag k="ssr:stedsnr" v="327980" />
	</node>
	<node id="-568191" lat="62.2513583305" lon="7.43050556524">
		<tag k="bridge" v="yes" />
		<tag k="layer" v="1" />
		<tag k="name" v="Muldalsbrua" />
		<tag k="ssr:stedsnr" v="327961" />
	</node>
	<node id="-568189" lat="62.2881611117" lon="7.35596110385">
		<tag k="layer" v="-1" />
		<tag k="name" v="Sandfonnesoverbygget" />
		<tag k="ssr:stedsnr" v="325169" />
		<tag k="tunnel" v="yes" />
	</node>
	<node id="-568206" lat="62.2068277822" lon="7.4455055519">
		<tag k="highway" v="path" />
		<tag k="name" v="Nevrestigen" />
		<tag k="ssr:stedsnr" v="348125" />
	</node>
	<node id="-568951" lat="62.2703611079" lon="7.09662221761">
		<tag k="highway" v="path" />
		<tag k="name" v="Sætrevegen" />
		<tag k="ssr:stedsnr" v="530182" />
	</node>
	<node id="-568713" lat="62.2941361082" lon="7.3334444436">
		<tag k="bridge" v="yes" />
		<tag k="layer" v="1" />
		<tag k="name" v="Nerhusbrua" />
		<tag k="ssr:stedsnr" v="206969" />
	</node>
	<node id="-568564" lat="62.1961250012" lon="7.4848361179">
		<tag k="highway" v="path" />
		<tag k="name" v="Gamlestigen" />
		<tag k="ssr:stedsnr" v="106938" />
	</node>
	<node id="-568180" lat="62.2845111125" lon="7.18725832481">
		<tag k="amenity" v="ferry_terminal" />
		<tag k="name" v="Linge ferjekai" />
		<tag k="ssr:stedsnr" v="315549" />
	</node>
	<node id="-568936" lat="62.3306305567" lon="7.4694666711">
		<tag k="bridge" v="yes" />
		<tag k="layer" v="1" />
		<tag k="name" v="Gudbrandsbrua" />
		<tag k="ssr:stedsnr" v="510973" />
	</node>
	<node id="-568935" lat="62.2329833339" lon="7.4243777844">
		<tag k="bridge" v="yes" />
		<tag k="layer" v="1" />
		<tag k="name" v="Tafjord Kraft-brua" />
		<tag k="ssr:stedsnr" v="509958" />
	</node>
	<node id="-569317" lat="62.3845999971" lon="7.57783889695">
		<tag k="bridge" v="yes" />
		<tag k="layer" v="1" />
		<tag k="name" v="Øvstestølbrua" />
		<tag k="ssr:stedsnr" v="753975" />
	</node>
	<node id="-569570" lat="62.1664555554" lon="7.17470833877">
		<tag k="bridge" v="yes" />
		<tag k="layer" v="1" />
		<tag k="name" v="Breiskredbrua" />
		<tag k="ssr:stedsnr" v="935959" />
	</node>
	<node id="-569569" lat="62.2078361094" lon="7.1406138877">
		<tag k="bridge" v="yes" />
		<tag k="layer" v="1" />
		<tag k="name" v="Skusetbrua" />
		<tag k="ssr:stedsnr" v="935957" />
	</node>
	<node id="-569568" lat="62.2423666658" lon="7.25234722199">
		<tag k="bridge" v="yes" />
		<tag k="layer" v="1" />
		<tag k="name" v="Dalhusbrua" />
		<tag k="ssr:stedsnr" v="934984" />
	</node>
	<node id="-569439" lat="62.3283833315" lon="7.34068612065">
		<tag k="bridge" v="yes" />
		<tag k="layer" v="1" />
		<tag k="name" v="Brautabrua" />
		<tag k="ssr:stedsnr" v="834329" />
	</node>
	<node id="-568798" lat="62.1714416625" lon="7.17143610998">
		<tag k="bridge" v="yes" />
		<tag k="layer" v="1" />
		<tag k="name" v="Ljåsteinbrua" />
		<tag k="ssr:stedsnr" v="267955" />
	</node>
	<node id="-568285" lat="62.1604777751" lon="7.17884166396">
		<tag k="bridge" v="yes" />
		<tag k="layer" v="1" />
		<tag k="name" v="Sætrebrua" />
		<tag k="ssr:stedsnr" v="389963" />
	</node>
	<node id="-568284" lat="62.2867944407" lon="7.21014167079">
		<tag k="bridge" v="yes" />
		<tag k="layer" v="1" />
		<tag k="name" v="Gullåbrua" />
		<tag k="ssr:stedsnr" v="389955" />
	</node>
	<node id="-568795" lat="62.2910555517" lon="7.34927221483">
		<tag k="layer" v="-1" />
		<tag k="name" v="Jørnstrekoverbygget" />
		<tag k="ssr:stedsnr" v="264174" />
		<tag k="tunnel" v="yes" />
	</node>
	<node id="-568282" lat="62.1943555585" lon="7.14454167286">
		<tag k="bridge" v="yes" />
		<tag k="layer" v="1" />
		<tag k="name" v="Eidsbrua" />
		<tag k="ssr:stedsnr" v="389948" />
	</node>
	<node id="-568792" lat="62.2977166704" lon="7.2658055544">
		<tag k="layer" v="-1" />
		<tag k="name" v="Fjøretunnelen" />
		<tag k="ssr:stedsnr" v="263544" />
		<tag k="tunnel" v="yes" />
	</node>
	<node id="-568279" lat="62.2905305555" lon="7.35190277845">
		<tag k="layer" v="-1" />
		<tag k="name" v="Instestigoverbygget" />
		<tag k="ssr:stedsnr" v="385189" />
		<tag k="tunnel" v="yes" />
	</node>
	<node id="-569230" lat="62.2374277755" lon="7.15103889466">
		<tag k="bridge" v="yes" />
		<tag k="layer" v="1" />
		<tag k="name" v="Søre Veibergbrua" />
		<tag k="ssr:stedsnr" v="692941" />
	</node>
	<node id="-569039" lat="62.2766805594" lon="7.39108888703">
		<tag k="layer" v="-1" />
		<tag k="name" v="Heggurtunnelen" />
		<tag k="ssr:stedsnr" v="569110" />
		<tag k="tunnel" v="yes" />
	</node>
	<node id="-569037" lat="62.290902782" lon="7.35072500827">
		<tag k="layer" v="-1" />
		<tag k="name" v="Stigflåoverbygget" />
		<tag k="ssr:stedsnr" v="567180" />
		<tag k="tunnel" v="yes" />
	</node>
	<node id="-569416" lat="62.4171583296" lon="7.67939999787">
		<tag k="bridge" v="yes" />
		<tag k="layer" v="1" />
		<tag k="name" v="Slettvikbrua" />
		<tag k="ssr:stedsnr" v="818793" />
	</node>
	<node id="-569415" lat="62.3371611105" lon="7.53785554976">
		<tag k="bridge" v="yes" />
		<tag k="layer" v="1" />
		<tag k="name" v="Krikebrua" />
		<tag k="ssr:stedsnr" v="814984" />
	</node>
	<node id="-568134" lat="62.3299944448" lon="7.51096943743">
		<tag k="bridge" v="yes" />
		<tag k="layer" v="1" />
		<tag k="name" v="Grønning bru" />
		<tag k="ssr:stedsnr" v="288803" />
	</node>
	<node id="-569413" lat="62.232638892" lon="7.41859999818">
		<tag k="bridge" v="yes" />
		<tag k="layer" v="1" />
		<tag k="name" v="Tafjordbrua" />
		<tag k="ssr:stedsnr" v="813970" />
	</node>
	<node id="-568516" lat="62.2442250031" lon="7.42650000829">
		<tag k="layer" v="-1" />
		<tag k="name" v="Skjegghammartunnelen" />
		<tag k="ssr:stedsnr" v="85963" />
		<tag k="tunnel" v="yes" />
	</node>
	<node id="-568636" lat="62.3056555567" lon="7.25302222273">
		<tag k="bridge" v="yes" />
		<tag k="layer" v="1" />
		<tag k="name" v="Muribøbrua" />
		<tag k="ssr:stedsnr" v="166593" />
	</node>
	<node id="-568763" lat="62.2224916651" lon="7.24925000421">
		<tag k="highway" v="path" />
		<tag k="name" v="Nedsteråsa" />
		<tag k="ssr:stedsnr" v="228856" />
	</node>
	<node id="-569146" lat="62.2630333368" lon="7.17135833607">
		<tag k="amenity" v="ferry_terminal" />
		<tag k="name" v="Eidsdal ferjekai" />
		<tag k="ssr:stedsnr" v="641260" />
	</node>
	<node id="-568889" lat="62.2928138907" lon="7.31639167045">
		<tag k="man_made" v="quay" />
		<tag k="name" v="Fjørå kai" />
		<tag k="place" v="locality" />
		<tag k="ssr:stedsnr" v="470487" />
	</node>
	<node id="-568436" lat="62.294483332" lon="7.32216945137">
		<tag k="bridge" v="yes" />
		<tag k="layer" v="1" />
		<tag k="name" v="Reiteelvbrua" />
		<tag k="ssr:stedsnr" v="24983" />
	</node>
	<node id="-569142" lat="62.3369888908" lon="7.3881527722">
		<tag k="bridge" v="yes" />
		<tag k="layer" v="1" />
		<tag k="name" v="Holsbrua" />
		<tag k="ssr:stedsnr" v="631973" />
	</node>
	<node id="-569141" lat="62.3315416662" lon="7.34179167364">
		<tag k="bridge" v="yes" />
		<tag k="layer" v="1" />
		<tag k="name" v="Myklebustbrua" />
		<tag k="ssr:stedsnr" v="631953" />
	</node>
	<node id="-568286" lat="62.2890027774" lon="7.16639721608">
		<tag k="layer" v="-1" />
		<tag k="name" v="Lingetunnelen" />
		<tag k="ssr:stedsnr" v="389978" />
		<tag k="tunnel" v="yes" />
	</node>
	<node id="-568883" lat="62.2769138847" lon="7.32803333763">
		<tag k="highway" v="path" />
		<tag k="name" v="Sætervegen" />
		<tag k="ssr:stedsnr" v="470234" />
	</node>
	<node id="-569520" lat="62.2899499972" lon="7.22686666237">
		<tag k="bridge" v="yes" />
		<tag k="layer" v="1" />
		<tag k="name" v="Madsgardsbrua" />
		<tag k="ssr:stedsnr" v="874934" />
	</node>
	<node id="-568238" lat="62.3738444453" lon="7.55753054727">
		<tag k="highway" v="path" />
		<tag k="name" v="Øyaled" />
		<tag k="ssr:stedsnr" v="349889" />
	</node>
	<node id="-568616" lat="62.2412472207" lon="7.26352777708">
		<tag k="bridge" v="yes" />
		<tag k="layer" v="1" />
		<tag k="name" v="Engesetbrua" />
		<tag k="ssr:stedsnr" v="145976" />
	</node>
	<node id="-569521" lat="62.4028166623" lon="7.61900556353">
		<tag k="bridge" v="yes" />
		<tag k="layer" v="1" />
		<tag k="name" v="Byksebrua" />
		<tag k="ssr:stedsnr" v="874964" />
	</node>
	<node id="-569414" lat="62.2381777819" lon="7.15183332821">
		<tag k="bridge" v="yes" />
		<tag k="layer" v="1" />
		<tag k="name" v="Nørdre Veibergbrua" />
		<tag k="ssr:stedsnr" v="814956" />
	</node>
	<node id="-568283" lat="62.2906527757" lon="7.22811111684">
		<tag k="bridge" v="yes" />
		<tag k="layer" v="1" />
		<tag k="name" v="Austre Madselvbrua" />
		<tag k="ssr:stedsnr" v="389951" />
	</node>
	<node id="-568517" lat="62.3130722244" lon="7.29044443844">
		<tag k="bridge" v="yes" />
		<tag k="layer" v="1" />
		<tag k="name" v="Uribrua" />
		<tag k="ssr:stedsnr" v="86967" />
	</node>
	<node id="-568730" lat="62.2542777787" lon="7.23289999997">
		<tag k="bridge" v="yes" />
		<tag k="layer" v="1" />
		<tag k="name" v="Rellingsbrua" />
		<tag k="ssr:stedsnr" v="268991" />
	</node>
	<node id="-568858" lat="62.4171249997" lon="7.64062222101">
		<tag k="bridge" v="yes" />
		<tag k="layer" v="1" />
		<tag k="name" v="Slettvikbrua" />
		<tag k="ssr:stedsnr" v="469220" />
	</node>
	<node id="-568518" lat="62.2265805531" lon="7.14050277738">
		<tag k="bridge" v="yes" />
		<tag k="layer" v="1" />
		<tag k="name" v="Rønnebergbrua" />
		<tag k="ssr:stedsnr" v="89804" />
	</node>
	<node id="-569233" lat="62.1636805533" lon="7.17664167607">
		<tag k="bridge" v="yes" />
		<tag k="layer" v="1" />
		<tag k="name" v="Djupløkbrua" />
		<tag k="ssr:stedsnr" v="696782" />
	</node>
	<node id="-569232" lat="62.2964861132" lon="7.14640277188">
		<tag k="layer" v="-1" />
		<tag k="name" v="Blikshammartunnelen" />
		<tag k="ssr:stedsnr" v="692971" />
		<tag k="tunnel" v="yes" />
	</node>
	<node id="-569231" lat="62.2905888887" lon="7.22798056059">
		<tag k="bridge" v="yes" />
		<tag k="layer" v="1" />
		<tag k="name" v="Vestre Madselvbrua" />
		<tag k="ssr:stedsnr" v="692949" />
	</node>
	<node id="-568718" lat="62.3654361091" lon="7.56027499707">
		<tag k="bridge" v="yes" />
		<tag k="layer" v="1" />
		<tag k="name" v="Severisbrua" />
		<tag k="ssr:stedsnr" v="207974" />
	</node>
	<node id="-568717" lat="62.2979388852" lon="7.25878610284">
		<tag k="bridge" v="yes" />
		<tag k="layer" v="1" />
		<tag k="name" v="Muribrua" />
		<tag k="ssr:stedsnr" v="207952" />
	</node>
	<node id="-568716" lat="62.1933972262" lon="7.15460832412">
		<tag k="bridge" v="yes" />
		<tag k="layer" v="1" />
		<tag k="name" v="Raudegrovbrua" />
		<tag k="ssr:stedsnr" v="207946" />
	</node>
	<node id="-568715" lat="62.2265805536" lon="7.14054166337">
		<tag k="bridge" v="yes" />
		<tag k="layer" v="1" />
		<tag k="name" v="Juvabrua" />
		<tag k="ssr:stedsnr" v="207945" />
	</node>
	<node id="-568714" lat="62.3303666665" lon="7.38196943825">
		<tag k="bridge" v="yes" />
		<tag k="layer" v="1" />
		<tag k="name" v="Heggjebrua" />
		<tag k="ssr:stedsnr" v="206976" />
	</node>
	<node id="-568841" lat="62.2613888881" lon="7.17558333061">
		<tag k="bridge" v="yes" />
		<tag k="layer" v="1" />
		<tag k="name" v="Elveosbrua" />
		<tag k="ssr:stedsnr" v="450989" />
	</node>
	<node id="-568840" lat="62.2584416671" lon="7.16609722802">
		<tag k="bridge" v="yes" />
		<tag k="layer" v="1" />
		<tag k="name" v="Ytterdalsbrua" />
		<tag k="ssr:stedsnr" v="450973" />
	</node>
	<node id="-569477" lat="62.2214777795" lon="7.24028889557">
		<tag k="highway" v="path" />
		<tag k="name" v="Øvsteråsa" />
		<tag k="ssr:stedsnr" v="835853" />
	</node>
</osm>
