<?xml version="1.0" encoding="UTF-8"?>
<osm generator="osmapis" version="0.6">
	<node id="-567291" lat="62.188811107" lon="7.34111111338">
		<tag k="historic" v="shieling" />
		<tag k="name" v="Herdalen" />
		<tag k="place" v="locality" />
		<tag k="ssr:stedsnr" v="314049" />
	</node>
	<node id="-568310" lat="62.2497222215" lon="7.2185638974">
		<tag k="name" v="Skagen" />
		<tag k="place" v="farm" />
		<tag k="ssr:stedsnr" v="651951" />
	</node>
	<node id="-568304" lat="62.3302861144" lon="7.37843887964">
		<tag k="name" v="Heggen" />
		<tag k="place" v="farm" />
		<tag k="ssr:stedsnr" v="651294" />
	</node>
	<node id="-568299" lat="62.4057277741" lon="7.3246916709">
		<tag k="historic" v="shieling" />
		<tag k="name" v="Espedalshytta" />
		<tag k="place" v="locality" />
		<tag k="ssr:stedsnr" v="642655" />
	</node>
	<node id="-568298" lat="62.2610055594" lon="7.15448889682">
		<tag k="name" v="Ytste Kilsti" />
		<tag k="place" v="farm" />
		<tag k="ssr:stedsnr" v="642456" />
	</node>
	<node id="-568297" lat="62.2562972266" lon="7.14643332449">
		<tag k="name" v="Fremste Kilsti" />
		<tag k="place" v="farm" />
		<tag k="ssr:stedsnr" v="642454" />
	</node>
	<node id="-567784" lat="62.3345277784" lon="7.46278611459">
		<tag k="name" v="Raten" />
		<tag k="place" v="farm" />
		<tag k="ssr:stedsnr" v="166669" />
	</node>
	<node id="-567268" lat="62.3276750017" lon="7.50600277732">
		<tag k="name" v="Utigarden" />
		<tag k="place" v="farm" />
		<tag k="ssr:stedsnr" v="288637" />
	</node>
	<node id="-567547" lat="62.259041267" lon="7.03425533291">
		<tag k="name" v="Raudbergvika" />
		<tag k="place" v="locality" />
		<tag k="ssr:stedsnr" v="983620" />
	</node>
	<node id="-567776" lat="62.3172416708" lon="7.28786111815">
		<tag k="historic" v="shieling" />
		<tag k="name" v="Gardstølane" />
		<tag k="place" v="locality" />
		<tag k="ssr:stedsnr" v="166380" />
	</node>
	<node id="-567632" lat="62.1810668529" lon="7.16211797544">
		<tag k="fixme" v="consider place=hamlet" />
		<tag k="name" v="Indreeide" />
		<tag k="place" v="farm" />
		<tag k="ssr:stedsnr" v="71374" />
	</node>
	<node id="-567717" lat="62.2096222195" lon="7.24556389779">
		<tag k="historic" v="shieling" />
		<tag k="name" v="Kallsetstølen" />
		<tag k="place" v="locality" />
		<tag k="ssr:stedsnr" v="107128" />
	</node>
	<node id="-568283" lat="62.3211944442" lon="7.66747778695">
		<tag k="fixme" v="consider tourism=alpine_hut or tourism=chalet" />
		<tag k="name" v="Tjønnebu" />
		<tag k="ssr:stedsnr" v="629744" />
		<tag k="tourism" v="wilderness_hut" />
	</node>
	<node id="-568281" lat="62.2877166624" lon="7.21860556367">
		<tag k="name" v="Bakken" />
		<tag k="place" v="farm" />
		<tag k="ssr:stedsnr" v="618841" />
	</node>
	<node id="-568280" lat="62.2984847188" lon="7.28356562504">
		<tag k="fixme" v="consider place=hamlet" />
		<tag k="name" v="Ytterli" />
		<tag k="place" v="farm" />
		<tag k="ssr:stedsnr" v="618836" />
	</node>
	<node id="-568279" lat="62.2948498285" lon="7.32562531235">
		<tag k="fixme" v="consider place=hamlet" />
		<tag k="name" v="Nerhus" />
		<tag k="place" v="farm" />
		<tag k="ssr:stedsnr" v="618832" />
	</node>
	<node id="-568278" lat="62.2951722263" lon="7.31375555463">
		<tag k="name" v="Vikane" />
		<tag k="place" v="farm" />
		<tag k="ssr:stedsnr" v="618829" />
	</node>
	<node id="-567762" lat="62.2489904453" lon="7.16101392909">
		<tag k="fixme" v="consider place=hamlet" />
		<tag k="name" v="Heimre Hjelle" />
		<tag k="place" v="farm" />
		<tag k="ssr:stedsnr" v="157420" />
	</node>
	<node id="-568783" lat="62.2064643613" lon="7.13679525588">
		<tag k="name" v="Fredheim" />
		<tag k="place" v="isolated_dwelling" />
		<tag k="ssr:stedsnr" v="976609" />
	</node>
	<node id="-568269" lat="62.2586738097" lon="7.14983594463">
		<tag k="fixme" v="consider place=hamlet" />
		<tag k="name" v="Kilsti" />
		<tag k="place" v="farm" />
		<tag k="ssr:stedsnr" v="617926" />
	</node>
	<node id="-568268" lat="62.2747073652" lon="7.13602689464">
		<tag k="alt_name" v="Espehjelle;Ospehjellen" />
		<tag k="fixme" v="consider place=hamlet" />
		<tag k="name" v="Ospahjell" />
		<tag k="place" v="farm" />
		<tag k="ssr:stedsnr" v="617914" />
	</node>
	<node id="-568779" lat="62.29024577" lon="7.22461177791">
		<tag k="name" v="Negarden" />
		<tag k="place" v="farm" />
		<tag k="ssr:stedsnr" v="976604" />
	</node>
	<node id="-567754" lat="62.2961250003" lon="7.32793611648">
		<tag k="name" v="Sæterplassane" />
		<tag k="place" v="farm" />
		<tag k="ssr:stedsnr" v="141890" />
	</node>
	<node id="-567241" lat="62.207652778" lon="7.43220278217">
		<tag k="historic" v="shieling" />
		<tag k="name" v="Stølen" />
		<tag k="place" v="locality" />
		<tag k="ssr:stedsnr" v="288105" />
	</node>
	<node id="-568263" lat="62.306394443" lon="7.23063888962">
		<tag k="historic" v="shieling" />
		<tag k="name" v="Åsesætra" />
		<tag k="place" v="locality" />
		<tag k="ssr:stedsnr" v="617791" />
	</node>
	<node id="-568261" lat="62.3112460945" lon="7.25610408256">
		<tag k="fixme" v="consider place=hamlet" />
		<tag k="name" v="Berdal" />
		<tag k="place" v="farm" />
		<tag k="ssr:stedsnr" v="617785" />
	</node>
	<node id="-568771" lat="62.39221866" lon="7.82170145266">
		<tag k="fixme" v="consider tourism=alpine_hut or tourism=chalet" />
		<tag k="name" v="Slettflybotn" />
		<tag k="ssr:stedsnr" v="974865" />
		<tag k="tourism" v="wilderness_hut" />
	</node>
	<node id="-567746" lat="62.2903000021" lon="7.22593610872">
		<tag k="fixme" v="consider place=hamlet" />
		<tag k="name" v="Linge" />
		<tag k="place" v="village" />
		<tag k="ssr:stedsnr" v="132850" />
	</node>
	<node id="-568256" lat="62.2227527746" lon="7.14451944858">
		<tag k="name" v="Øye" />
		<tag k="place" v="farm" />
		<tag k="ssr:stedsnr" v="617322" />
	</node>
	<node id="-567456" lat="62.3392222228" lon="7.43774167239">
		<tag k="name" v="Lunden" />
		<tag k="place" v="farm" />
		<tag k="ssr:stedsnr" v="409629" />
	</node>
	<node id="-567742" lat="62.3220448789" lon="7.31607690103">
		<tag k="fixme" v="consider place=hamlet" />
		<tag k="name" v="Valldalen" />
		<tag k="place" v="farm" />
		<tag k="ssr:stedsnr" v="132761" />
	</node>
	<node id="-568253" lat="62.1833583358" lon="7.55591111607">
		<tag k="name" v="Stølane" />
		<tag k="place" v="locality" />
		<tag k="ssr:stedsnr" v="617076" />
	</node>
	<node id="-568250" lat="62.1877638892" lon="7.43953054637">
		<tag k="historic" v="shieling" />
		<tag k="name" v="Kaldhusstølen" />
		<tag k="place" v="locality" />
		<tag k="ssr:stedsnr" v="617065" />
	</node>
	<node id="-567735" lat="62.2222858471" lon="7.15524911405">
		<tag k="fixme" v="consider place=hamlet" />
		<tag k="name" v="Kleiva" />
		<tag k="place" v="farm" />
		<tag k="ssr:stedsnr" v="132272" />
	</node>
	<node id="-567731" lat="62.1543472193" lon="7.43556945405">
		<tag k="historic" v="shieling" />
		<tag k="name" v="Kaldhussætra" />
		<tag k="place" v="locality" />
		<tag k="ssr:stedsnr" v="132040" />
	</node>
	<node id="-567730" lat="62.1728103675" lon="7.42911497625">
		<tag k="fixme" v="consider tourism=alpine_hut or tourism=chalet" />
		<tag k="name" v="Kaldhusseter" />
		<tag k="old_name" v="Kaldhussæter turisthytte" />
		<tag k="ssr:stedsnr" v="132025" />
		<tag k="tourism" v="wilderness_hut" />
	</node>
	<node id="-568752" lat="62.3208027797" lon="7.38709166067">
		<tag k="historic" v="shieling" />
		<tag k="name" v="Hjelmasætra" />
		<tag k="place" v="locality" />
		<tag k="ssr:stedsnr" v="956144" />
	</node>
	<node id="-568237" lat="62.3449099748" lon="7.55061034571">
		<tag k="name" v="Høyhjellane" />
		<tag k="old_name" v="Høyhjelle;Høihjelle" />
		<tag k="place" v="farm" />
		<tag k="ssr:stedsnr" v="605724" />
	</node>
	<node id="-568236" lat="62.1882999966" lon="7.57690832802">
		<tag k="fixme" v="consider tourism=alpine_hut or tourism=chalet" />
		<tag k="name" v="Jakobselet" />
		<tag k="ssr:stedsnr" v="603730" />
		<tag k="tourism" v="wilderness_hut" />
	</node>
	<node id="-568747" lat="62.1606277793" lon="7.43670000176">
		<tag k="historic" v="shieling" />
		<tag k="name" v="Ole-Berntstølane" />
		<tag k="place" v="locality" />
		<tag k="ssr:stedsnr" v="956110" />
	</node>
	<node id="-568229" lat="62.3001861135" lon="7.22857222726">
		<tag k="historic" v="shieling" />
		<tag k="name" v="Mestølen" />
		<tag k="place" v="locality" />
		<tag k="ssr:stedsnr" v="591755" />
	</node>
	<node id="-568225" lat="62.334047219" lon="7.45942222037">
		<tag k="name" v="Myra" />
		<tag k="place" v="farm" />
		<tag k="ssr:stedsnr" v="591665" />
	</node>
	<node id="-568730" lat="62.3333888885" lon="7.37694721514">
		<tag k="name" v="Gjerde" />
		<tag k="place" v="farm" />
		<tag k="ssr:stedsnr" v="955277" />
	</node>
	<node id="-567695" lat="62.3431944462" lon="7.39759999088">
		<tag k="fixme" v="consider place=hamlet" />
		<tag k="name" v="Berlia" />
		<tag k="place" v="farm" />
		<tag k="ssr:stedsnr" v="106647" />
	</node>
	<node id="-567725" lat="62.302516664" lon="7.33841944547">
		<tag k="historic" v="shieling" />
		<tag k="name" v="Nedstestølen" />
		<tag k="place" v="locality" />
		<tag k="ssr:stedsnr" v="131896" />
	</node>
	<node id="-568201" lat="62.3629499988" lon="7.36115277315">
		<tag k="historic" v="shieling" />
		<tag k="name" v="Brekkestølen" />
		<tag k="place" v="locality" />
		<tag k="ssr:stedsnr" v="591140" />
	</node>
	<node id="-567747" lat="62.2933674274" lon="7.2881895239">
		<tag k="fixme" v="consider place=hamlet" />
		<tag k="name" v="Vika" />
		<tag k="place" v="farm" />
		<tag k="ssr:stedsnr" v="132849" />
	</node>
	<node id="-567685" lat="62.2945055595" lon="7.31448055593">
		<tag k="amenity" v="school" />
		<tag k="name" v="Fjørå skule" />
		<tag k="ssr:stedsnr" v="106438" />
	</node>
	<node id="-568708" lat="62.2431611108" lon="7.24847777274">
		<tag k="name" v="Dunavollane" />
		<tag k="place" v="farm" />
		<tag k="ssr:stedsnr" v="931895" />
	</node>
	<node id="-567639" lat="62.302183821" lon="7.31824552743">
		<tag k="name" v="Hauge" />
		<tag k="place" v="hamlet" />
		<tag k="ssr:stedsnr" v="71865" />
	</node>
	<node id="-567680" lat="62.3281833339" lon="7.38661388968">
		<tag k="historic" v="shieling" />
		<tag k="name" v="Småsætrane" />
		<tag k="place" v="locality" />
		<tag k="ssr:stedsnr" v="106274" />
	</node>
	<node id="-568702" lat="62.3031944432" lon="7.24382776872">
		<tag k="name" v="Åse" />
		<tag k="place" v="farm" />
		<tag k="ssr:stedsnr" v="921852" />
	</node>
	<node id="-568701" lat="62.3406923633" lon="7.39024005517">
		<tag k="alt_name" v="Berli" />
		<tag k="name" v="Berlia" />
		<tag k="place" v="farm" />
		<tag k="ssr:stedsnr" v="921819" />
	</node>
	<node id="-567929" lat="62.2420922807" lon="7.141115938">
		<tag k="fixme" v="consider place=hamlet" />
		<tag k="name" v="Hesthaugen" />
		<tag k="place" v="farm" />
		<tag k="ssr:stedsnr" v="254252" />
	</node>
	<node id="-568698" lat="62.3789555527" lon="7.55983056381">
		<tag k="name" v="Nedstestølen" />
		<tag k="place" v="isolated_dwelling" />
		<tag k="ssr:stedsnr" v="921797" />
	</node>
	<node id="-568697" lat="62.3122972243" lon="7.28256111239">
		<tag k="alt_name" v="Ødegård" />
		<tag k="name" v="Øygarden" />
		<tag k="place" v="farm" />
		<tag k="ssr:stedsnr" v="921784" />
	</node>
	<node id="-568696" lat="62.3356722242" lon="7.59561944364">
		<tag k="historic" v="shieling" />
		<tag k="name" v="Steindalsstølen" />
		<tag k="place" v="locality" />
		<tag k="ssr:stedsnr" v="921774" />
	</node>
	<node id="-568695" lat="62.3304370264" lon="7.3760364113">
		<tag k="fixme" v="consider place=hamlet" />
		<tag k="name" v="Heggen" />
		<tag k="place" v="farm" />
		<tag k="ssr:stedsnr" v="921770" />
	</node>
	<node id="-568692" lat="62.2482393997" lon="7.24558443687">
		<tag k="fixme" v="consider place=hamlet" />
		<tag k="name" v="Dale" />
		<tag k="place" v="farm" />
		<tag k="ssr:stedsnr" v="921519" />
	</node>
	<node id="-568691" lat="62.2398772215" lon="7.26366343147">
		<tag k="fixme" v="consider place=hamlet" />
		<tag k="name" v="Engeset" />
		<tag k="place" v="farm" />
		<tag k="ssr:stedsnr" v="921516" />
	</node>
	<node id="-568176" lat="62.2992193625" lon="7.25188217307">
		<tag k="fixme" v="consider place=hamlet" />
		<tag k="name" v="Muri" />
		<tag k="place" v="farm" />
		<tag k="ssr:stedsnr" v="557846" />
	</node>
	<node id="-568174" lat="62.3126604363" lon="7.26135147587">
		<tag k="alt_name" v="Jemtegarden" />
		<tag k="fixme" v="consider place=hamlet" />
		<tag k="name" v="Jamtegarden" />
		<tag k="place" v="farm" />
		<tag k="ssr:stedsnr" v="557747" />
	</node>
	<node id="-568172" lat="62.333945588" lon="7.37127192893">
		<tag k="fixme" v="consider place=hamlet" />
		<tag k="name" v="Gjerde" />
		<tag k="place" v="farm" />
		<tag k="ssr:stedsnr" v="557740" />
	</node>
	<node id="-568171" lat="62.3417671677" lon="7.43128200877">
		<tag k="fixme" v="consider place=hamlet" />
		<tag k="name" v="Rem" />
		<tag k="place" v="farm" />
		<tag k="ssr:stedsnr" v="557727" />
	</node>
	<node id="-568169" lat="62.2326638971" lon="7.15018911197">
		<tag k="fixme" v="consider place=hamlet" />
		<tag k="name" v="Øye" />
		<tag k="place" v="farm" />
		<tag k="ssr:stedsnr" v="557273" />
	</node>
	<node id="-568168" lat="62.2289315994" lon="7.04889995697">
		<tag k="fixme" v="consider place=hamlet" />
		<tag k="name" v="Smogelia" />
		<tag k="place" v="farm" />
		<tag k="ssr:stedsnr" v="557267" />
	</node>
	<node id="-567655" lat="62.2519399679" lon="7.47875675427">
		<tag k="historic" v="shieling" />
		<tag k="name" v="Tafjordsætra" />
		<tag k="place" v="locality" />
		<tag k="ssr:stedsnr" v="72807" />
	</node>
	<node id="-567652" lat="62.3257638922" lon="7.33182778296">
		<tag k="fixme" v="consider place=hamlet" />
		<tag k="name" v="Bjorstad" />
		<tag k="place" v="farm" />
		<tag k="ssr:stedsnr" v="72747" />
	</node>
	<node id="-567651" lat="62.321755558" lon="7.48041110879">
		<tag k="historic" v="shieling" />
		<tag k="name" v="Alstadsætra" />
		<tag k="place" v="locality" />
		<tag k="ssr:stedsnr" v="72745" />
	</node>
	<node id="-567650" lat="62.3388333351" lon="7.43837778607">
		<tag k="name" v="Furulund" />
		<tag k="place" v="farm" />
		<tag k="ssr:stedsnr" v="72729" />
	</node>
	<node id="-567648" lat="62.2354131588" lon="7.04201798962">
		<tag k="alt_name" v="Smoge" />
		<tag k="name" v="Ytste Smoge" />
		<tag k="place" v="farm" />
		<tag k="ssr:stedsnr" v="72270" />
	</node>
	<node id="-567647" lat="62.2453088392" lon="7.16150679177">
		<tag k="name" v="Hjellane" />
		<tag k="place" v="hamlet" />
		<tag k="ssr:stedsnr" v="72260" />
	</node>
	<node id="-567645" lat="62.2012566678" lon="7.47464153558">
		<tag k="fixme" v="consider place=hamlet" />
		<tag k="name" v="Øyna" />
		<tag k="place" v="farm" />
		<tag k="ssr:stedsnr" v="72016" />
	</node>
	<node id="-568155" lat="62.2505486021" lon="7.20465523224">
		<tag k="fixme" v="consider place=hamlet" />
		<tag k="name" v="Litleåsen" />
		<tag k="place" v="farm" />
		<tag k="ssr:stedsnr" v="556933" />
	</node>
	<node id="-568153" lat="62.2800083356" lon="7.12862499698">
		<tag k="alt_name" v="Espehjellneset" />
		<tag k="name" v="Ospahjellneset" />
		<tag k="place" v="farm" />
		<tag k="ssr:stedsnr" v="556910" />
	</node>
	<node id="-567640" lat="62.3037444465" lon="7.34863333756">
		<tag k="historic" v="shieling" />
		<tag k="name" v="Nysætra" />
		<tag k="place" v="locality" />
		<tag k="ssr:stedsnr" v="71868" />
	</node>
	<node id="-568292" lat="62.2123611085" lon="7.13680278422">
		<tag k="name" v="Gamlegarden" />
		<tag k="place" v="isolated_dwelling" />
		<tag k="ssr:stedsnr" v="641353" />
	</node>
	<node id="-568662" lat="62.1908972254" lon="7.16119999972">
		<tag k="fixme" v="multiple name tags, choose one and add the other to alt_name" />
		<tag k="name" v="Svora campingplass;Svora" />
		<tag k="ssr:stedsnr" v="873807" />
		<tag k="tourism" v="camp_site" />
	</node>
	<node id="-568659" lat="62.3274750041" lon="7.50591111575">
		<tag k="name" v="Grønning" />
		<tag k="place" v="farm" />
		<tag k="ssr:stedsnr" v="861758" />
	</node>
	<node id="-568658" lat="62.3369003808" lon="7.55945141347">
		<tag k="fixme" v="consider place=hamlet" />
		<tag k="name" v="Grønningsæter" />
		<tag k="place" v="farm" />
		<tag k="ssr:stedsnr" v="861745" />
	</node>
	<node id="-568657" lat="62.3319913337" lon="7.33898362993">
		<tag k="fixme" v="consider place=hamlet" />
		<tag k="name" v="Myklebost" />
		<tag k="place" v="farm" />
		<tag k="ssr:stedsnr" v="861743" />
	</node>
	<node id="-568656" lat="62.334915341" lon="7.45721935154">
		<tag k="fixme" v="consider place=hamlet" />
		<tag k="name" v="Myra" />
		<tag k="place" v="farm" />
		<tag k="ssr:stedsnr" v="861742" />
	</node>
	<node id="-567630" lat="62.2045366234" lon="7.13436470298">
		<tag k="fixme" v="consider place=hamlet" />
		<tag k="name" v="Skuset" />
		<tag k="place" v="farm" />
		<tag k="ssr:stedsnr" v="71342" />
	</node>
	<node id="-568653" lat="62.2330699692" lon="7.13764723115">
		<tag k="fixme" v="consider place=hamlet" />
		<tag k="name" v="Rønneberg" />
		<tag k="place" v="farm" />
		<tag k="ssr:stedsnr" v="861268" />
	</node>
	<node id="-568135" lat="62.2109729423" lon="7.44661125519">
		<tag k="fixme" v="multiple name tags, choose one and add the other to alt_name; consider place=hamlet" />
		<tag k="name" v="Heimste Rødal;Rødal" />
		<tag k="place" v="farm" />
		<tag k="ssr:stedsnr" v="556006" />
	</node>
	<node id="-568643" lat="62.2625805593" lon="7.17183611514">
		<tag k="name" v="Eidsdal" />
		<tag k="place" v="village" />
		<tag k="ssr:stedsnr" v="860918" />
	</node>
	<node id="-568641" lat="62.2997083334" lon="7.24372221787">
		<tag k="name" v="Nerås" />
		<tag k="place" v="farm" />
		<tag k="ssr:stedsnr" v="860871" />
	</node>
	<node id="-568639" lat="62.3489305562" lon="7.35700833299">
		<tag k="historic" v="shieling" />
		<tag k="name" v="Omnossætra" />
		<tag k="place" v="locality" />
		<tag k="ssr:stedsnr" v="860831" />
	</node>
	<node id="-568638" lat="62.3497777818" lon="7.34817221706">
		<tag k="historic" v="shieling" />
		<tag k="name" v="Heimsætra" />
		<tag k="place" v="locality" />
		<tag k="ssr:stedsnr" v="860828" />
	</node>
	<node id="-568633" lat="62.2477117832" lon="7.2189559288">
		<tag k="fixme" v="consider place=hamlet" />
		<tag k="name" v="Hatlestad" />
		<tag k="place" v="farm" />
		<tag k="ssr:stedsnr" v="860525" />
	</node>
	<node id="-568632" lat="62.2402333378" lon="7.26660278331">
		<tag k="name" v="Berg" />
		<tag k="place" v="farm" />
		<tag k="ssr:stedsnr" v="860523" />
	</node>
	<node id="-567689" lat="62.3012305558" lon="7.31379722356">
		<tag k="name" v="Ytre Hauge" />
		<tag k="place" v="farm" />
		<tag k="ssr:stedsnr" v="106485" />
	</node>
	<node id="-567604" lat="62.3378703372" lon="7.39244141544">
		<tag k="fixme" v="consider place=hamlet" />
		<tag k="name" v="Hol" />
		<tag k="place" v="farm" />
		<tag k="ssr:stedsnr" v="45283" />
	</node>
	<node id="-567432" lat="62.2427687858" lon="7.15763283226">
		<tag k="fixme" v="consider place=hamlet" />
		<tag k="name" v="Fremstehjellane" />
		<tag k="place" v="farm" />
		<tag k="ssr:stedsnr" v="399408" />
	</node>
	<node id="-568618" lat="62.3316222233" lon="7.53193611355">
		<tag k="historic" v="shieling" />
		<tag k="name" v="Sagstølen" />
		<tag k="place" v="locality" />
		<tag k="ssr:stedsnr" v="835819" />
	</node>
	<node id="-568103" lat="62.3359527781" lon="7.45208888315">
		<tag k="name" v="Myreplassen" />
		<tag k="place" v="farm" />
		<tag k="ssr:stedsnr" v="530646" />
	</node>
	<node id="-568093" lat="62.2334111126" lon="7.04349722822">
		<tag k="name" v="Inste Smoge" />
		<tag k="place" v="locality" />
		<tag k="ssr:stedsnr" v="530117" />
	</node>
	<node id="-567578" lat="62.229061111" lon="7.13611666529">
		<tag k="historic" v="shieling" />
		<tag k="name" v="Framgardssætra" />
		<tag k="place" v="locality" />
		<tag k="ssr:stedsnr" v="23868" />
	</node>
	<node id="-568600" lat="62.3259527739" lon="7.34918332854">
		<tag k="historic" v="shieling" />
		<tag k="name" v="Gamlesætra" />
		<tag k="place" v="locality" />
		<tag k="ssr:stedsnr" v="835140" />
	</node>
	<node id="-567575" lat="62.2375319968" lon="7.21840950835">
		<tag k="historic" v="shieling" />
		<tag k="name" v="Hatlestadsætra" />
		<tag k="old_name" v="Hallstadsætra" />
		<tag k="place" v="locality" />
		<tag k="ssr:stedsnr" v="22905" />
	</node>
	<node id="-567567" lat="62.2967055519" lon="7.23548888329">
		<tag k="name" v="Nybø" />
		<tag k="place" v="farm" />
		<tag k="ssr:stedsnr" v="11865" />
	</node>
	<node id="-568076" lat="62.2439777746" lon="7.24677499672">
		<tag k="name" v="Heimste Dunavollen" />
		<tag k="place" v="farm" />
		<tag k="ssr:stedsnr" v="506882" />
	</node>
	<node id="-568075" lat="62.2514652862" lon="7.23221701254">
		<tag k="fixme" v="consider place=hamlet" />
		<tag k="name" v="Rellingen" />
		<tag k="place" v="farm" />
		<tag k="ssr:stedsnr" v="497840" />
	</node>
	<node id="-567562" lat="62.2333611088" lon="7.16653888099">
		<tag k="historic" v="shieling" />
		<tag k="name" v="Veibergsætra" />
		<tag k="place" v="locality" />
		<tag k="ssr:stedsnr" v="11278" />
	</node>
	<node id="-567561" lat="62.2403166692" lon="7.17164167272">
		<tag k="historic" v="shieling" />
		<tag k="name" v="Storhjellsætra" />
		<tag k="place" v="locality" />
		<tag k="ssr:stedsnr" v="11269" />
	</node>
	<node id="-568068" lat="62.3005149114" lon="7.29608100485">
		<tag k="fixme" v="consider place=hamlet" />
		<tag k="name" v="Ruset" />
		<tag k="place" v="farm" />
		<tag k="ssr:stedsnr" v="496843" />
	</node>
	<node id="-568067" lat="62.302686016" lon="7.24377825911">
		<tag k="fixme" v="consider place=hamlet" />
		<tag k="name" v="Muriås" />
		<tag k="place" v="farm" />
		<tag k="ssr:stedsnr" v="496841" />
	</node>
	<node id="-567851" lat="62.280391669" lon="7.27403054941">
		<tag k="historic" v="shieling" />
		<tag k="name" v="Vikasætra" />
		<tag k="place" v="locality" />
		<tag k="ssr:stedsnr" v="193872" />
	</node>
	<node id="-568064" lat="62.3855527765" lon="7.57690276829">
		<tag k="name" v="Øvstestølen" />
		<tag k="place" v="isolated_dwelling" />
		<tag k="ssr:stedsnr" v="496791" />
	</node>
	<node id="-568575" lat="62.2273555525" lon="7.04193333724">
		<tag k="name" v="Smogelinaustet" />
		<tag k="place" v="locality" />
		<tag k="ssr:stedsnr" v="834101" />
	</node>
	<node id="-567548" lat="62.234136412" lon="7.04303195369">
		<tag k="fixme" v="consider place=hamlet" />
		<tag k="name" v="Smoge" />
		<tag k="place" v="farm" />
		<tag k="ssr:stedsnr" v="983621" />
	</node>
	<node id="-568059" lat="62.1980398917" lon="7.15918212051">
		<tag k="fixme" v="consider place=hamlet" />
		<tag k="name" v="Årset" />
		<tag k="place" v="farm" />
		<tag k="ssr:stedsnr" v="496322" />
	</node>
	<node id="-567546" lat="62.1738400703" lon="7.41946407042">
		<tag k="name" v="Storvik" />
		<tag k="place" v="locality" />
		<tag k="ssr:stedsnr" v="983491" />
	</node>
	<node id="-567544" lat="62.2325094202" lon="7.41570719606">
		<tag k="fixme" v="consider place=hamlet" />
		<tag k="name" v="Tafjord" />
		<tag k="place" v="farm" />
		<tag k="ssr:stedsnr" v="983486" />
	</node>
	<node id="-568054" lat="62.2200000034" lon="7.25333611805">
		<tag k="historic" v="shieling" />
		<tag k="name" v="Innsetsætra" />
		<tag k="place" v="locality" />
		<tag k="ssr:stedsnr" v="496015" />
	</node>
	<node id="-567934" lat="62.2741129874" lon="7.33992651602">
		<tag k="fixme" v="consider place=hamlet" />
		<tag k="name" v="Kastet" />
		<tag k="place" v="farm" />
		<tag k="ssr:stedsnr" v="254857" />
	</node>
	<node id="-567678" lat="62.3263388874" lon="7.3455444424">
		<tag k="historic" v="shieling" />
		<tag k="name" v="Litlesætra" />
		<tag k="place" v="locality" />
		<tag k="ssr:stedsnr" v="106148" />
	</node>
	<node id="-568552" lat="62.2696611128" lon="7.60472221767">
		<tag k="name" v="Illstighytta" />
		<tag k="place" v="isolated_dwelling" />
		<tag k="ssr:stedsnr" v="809916" />
	</node>
	<node id="-568550" lat="62.2772472211" lon="7.32094444567">
		<tag k="historic" v="shieling" />
		<tag k="name" v="Kastesætra" />
		<tag k="place" v="locality" />
		<tag k="ssr:stedsnr" v="800851" />
	</node>
	<node id="-568547" lat="62.283077585" lon="7.31344662416">
		<tag k="fixme" v="consider place=hamlet" />
		<tag k="name" v="Osvika" />
		<tag k="place" v="farm" />
		<tag k="ssr:stedsnr" v="800844" />
	</node>
	<node id="-568546" lat="62.2933527795" lon="7.31609722738">
		<tag k="alt_name" v="Fjøra" />
		<tag k="fixme" v="consider place=hamlet" />
		<tag k="name" v="Fjørå" />
		<tag k="place" v="village" />
		<tag k="ssr:stedsnr" v="800837" />
	</node>
	<node id="-568541" lat="62.358066664" lon="7.34750277749">
		<tag k="historic" v="shieling" />
		<tag k="name" v="Valldalssætra" />
		<tag k="place" v="locality" />
		<tag k="ssr:stedsnr" v="800775" />
	</node>
	<node id="-568539" lat="62.3266777774" lon="7.54416944411">
		<tag k="historic" v="shieling" />
		<tag k="name" v="Djupdalsstølen" />
		<tag k="place" v="locality" />
		<tag k="ssr:stedsnr" v="800745" />
	</node>
	<node id="-568537" lat="62.3203472243" lon="7.24979444974">
		<tag k="historic" v="shieling" />
		<tag k="name" v="Jamtesætra" />
		<tag k="place" v="locality" />
		<tag k="ssr:stedsnr" v="800740" />
	</node>
	<node id="-568536" lat="62.3178833291" lon="7.2446111205">
		<tag k="historic" v="shieling" />
		<tag k="name" v="Berdalssætra" />
		<tag k="place" v="locality" />
		<tag k="ssr:stedsnr" v="800739" />
	</node>
	<node id="-568535" lat="62.3448168897" lon="7.5511159642">
		<tag k="fixme" v="consider place=hamlet" />
		<tag k="name" v="Høyhjellane" />
		<tag k="place" v="farm" />
		<tag k="ssr:stedsnr" v="800719" />
	</node>
	<node id="-568533" lat="62.2693500002" lon="7.08325277618">
		<tag k="historic" v="shieling" />
		<tag k="name" v="Verpesdalssætra" />
		<tag k="place" v="locality" />
		<tag k="ssr:stedsnr" v="800578" />
	</node>
	<node id="-567507" lat="62.3301916691" lon="7.33480834044">
		<tag k="name" v="Myklebost" />
		<tag k="place" v="farm" />
		<tag k="ssr:stedsnr" v="895274" />
	</node>
	<node id="-568530" lat="62.2366203992" lon="7.15556554311">
		<tag k="fixme" v="consider place=hamlet" />
		<tag k="name" v="Veiberg" />
		<tag k="place" v="farm" />
		<tag k="ssr:stedsnr" v="800274" />
	</node>
	<node id="-568523" lat="62.2129833375" lon="7.34430555954">
		<tag k="historic" v="shieling" />
		<tag k="name" v="Kallskarsætra" />
		<tag k="place" v="locality" />
		<tag k="ssr:stedsnr" v="800039" />
	</node>
	<node id="-568520" lat="62.3188222192" lon="7.40606667346">
		<tag k="historic" v="shieling" />
		<tag k="name" v="Heggjesætra" />
		<tag k="place" v="locality" />
		<tag k="ssr:stedsnr" v="799802" />
	</node>
	<node id="-567330" lat="62.2425333327" lon="7.25013887964">
		<tag k="name" v="Fremste Dunavollen" />
		<tag k="place" v="farm" />
		<tag k="ssr:stedsnr" v="324882" />
	</node>
	<node id="-568517" lat="62.2113520951" lon="7.13860325763">
		<tag k="fixme" v="consider place=hamlet" />
		<tag k="name" v="Berge" />
		<tag k="place" v="farm" />
		<tag k="ssr:stedsnr" v="799321" />
	</node>
	<node id="-567490" lat="62.2363141148" lon="7.14181903094">
		<tag k="fixme" v="consider place=hamlet" />
		<tag k="name" v="Krikane" />
		<tag k="place" v="farm" />
		<tag k="ssr:stedsnr" v="885482" />
	</node>
	<node id="-568509" lat="62.200205552" lon="7.54863333002">
		<tag k="historic" v="shieling" />
		<tag k="name" v="Heimsætra" />
		<tag k="place" v="locality" />
		<tag k="ssr:stedsnr" v="774689" />
	</node>
	<node id="-568514" lat="62.185630557" lon="7.49786110241">
		<tag k="historic" v="shieling" />
		<tag k="name" v="Stølen" />
		<tag k="place" v="locality" />
		<tag k="ssr:stedsnr" v="774971" />
	</node>
	<node id="-567995" lat="62.2961750014" lon="7.21281110245">
		<tag k="historic" v="shieling" />
		<tag k="name" v="Klovset" />
		<tag k="place" v="locality" />
		<tag k="ssr:stedsnr" v="469012" />
	</node>
	<node id="-567994" lat="62.2504499971" lon="7.17501111895">
		<tag k="name" v="Stølen" />
		<tag k="place" v="farm" />
		<tag k="ssr:stedsnr" v="460520" />
	</node>
	<node id="-567471" lat="62.3017805549" lon="7.28437778295">
		<tag k="historic" v="shieling" />
		<tag k="name" v="Litlesætra" />
		<tag k="place" v="locality" />
		<tag k="ssr:stedsnr" v="410528" />
	</node>
	<node id="-567325" lat="62.2965805552" lon="7.21511110259">
		<tag k="historic" v="shieling" />
		<tag k="name" v="Klovsetsætra" />
		<tag k="place" v="locality" />
		<tag k="ssr:stedsnr" v="315565" />
	</node>
	<node id="-567980" lat="62.1051861156" lon="7.52835833589">
		<tag k="fixme" v="consider tourism=alpine_hut or tourism=chalet" />
		<tag k="name" v="Danskehytta" />
		<tag k="ssr:stedsnr" v="446933" />
		<tag k="tourism" v="wilderness_hut" />
	</node>
	<node id="-567979" lat="62.2824027739" lon="7.28862221463">
		<tag k="name" v="Kvernhusneset" />
		<tag k="place" v="farm" />
		<tag k="ssr:stedsnr" v="436859" />
	</node>
	<node id="-567978" lat="62.2959583377" lon="7.32003610481">
		<tag k="name" v="Almstad" />
		<tag k="place" v="farm" />
		<tag k="ssr:stedsnr" v="436846" />
	</node>
	<node id="-567977" lat="62.298855552" lon="7.32743610278">
		<tag k="name" v="Solbakk" />
		<tag k="place" v="farm" />
		<tag k="ssr:stedsnr" v="436844" />
	</node>
	<node id="-567976" lat="62.3010592067" lon="7.33255542322">
		<tag k="fixme" v="consider place=hamlet" />
		<tag k="name" v="Sætra" />
		<tag k="place" v="farm" />
		<tag k="ssr:stedsnr" v="436842" />
	</node>
	<node id="-567972" lat="62.3083055531" lon="7.25323332506">
		<tag k="name" v="Muribøen" />
		<tag k="place" v="farm" />
		<tag k="ssr:stedsnr" v="436765" />
	</node>
	<node id="-567969" lat="62.3393990854" lon="7.39396513637">
		<tag k="name" v="Hol" />
		<tag k="place" v="farm" />
		<tag k="ssr:stedsnr" v="436742" />
	</node>
	<node id="-567968" lat="62.2759331734" lon="7.06609086859">
		<tag k="fixme" v="consider place=hamlet" />
		<tag k="name" v="Skrednakken" />
		<tag k="place" v="farm" />
		<tag k="ssr:stedsnr" v="436546" />
	</node>
	<node id="-567967" lat="62.2898576128" lon="7.22024323656">
		<tag k="fixme" v="consider place=hamlet" />
		<tag k="name" v="Linge" />
		<tag k="place" v="farm" />
		<tag k="ssr:stedsnr" v="436543" />
	</node>
	<node id="-567448" lat="62.2035472229" lon="7.4342527804">
		<tag k="name" v="Myra" />
		<tag k="place" v="isolated_dwelling" />
		<tag k="ssr:stedsnr" v="409139" />
	</node>
	<node id="-568471" lat="62.246540654" lon="7.16058949317">
		<tag k="fixme" v="consider place=hamlet" />
		<tag k="name" v="Storhjelle" />
		<tag k="place" v="farm" />
		<tag k="ssr:stedsnr" v="763479" />
	</node>
	<node id="-567958" lat="62.187413893" lon="7.57813888249">
		<tag k="fixme" v="consider tourism=alpine_hut or tourism=chalet" />
		<tag k="name" v="Reindalseter" />
		<tag k="old_name" v="Reindalsæter turisthytte" />
		<tag k="ssr:stedsnr" v="436056" />
		<tag k="tourism" v="wilderness_hut" />
	</node>
	<node id="-567957" lat="62.1886194458" lon="7.57769445235">
		<tag k="name" v="Reindalsætra" />
		<tag k="place" v="isolated_dwelling" />
		<tag k="ssr:stedsnr" v="436054" />
	</node>
	<node id="-567406" lat="62.27309167" lon="7.10012777996">
		<tag k="fixme" v="consider place=hamlet" />
		<tag k="name" v="Verpesdalen" />
		<tag k="place" v="farm" />
		<tag k="ssr:stedsnr" v="375533" />
	</node>
	<node id="-568259" lat="62.3305830322" lon="7.35790503706">
		<tag k="fixme" v="consider place=hamlet" />
		<tag k="name" v="Hjelma" />
		<tag k="place" v="farm" />
		<tag k="ssr:stedsnr" v="617776" />
	</node>
	<node id="-567952" lat="62.3764666663" lon="7.63804166739">
		<tag k="name" v="Osvika" />
		<tag k="place" v="locality" />
		<tag k="ssr:stedsnr" v="435805" />
	</node>
	<node id="-567949" lat="62.3124694467" lon="7.47665555397">
		<tag k="name" v="Heisætra" />
		<tag k="place" v="isolated_dwelling" />
		<tag k="ssr:stedsnr" v="435796" />
	</node>
	<node id="-567947" lat="62.2114871079" lon="7.16093620931">
		<tag k="fixme" v="consider place=hamlet" />
		<tag k="name" v="Løvoll" />
		<tag k="place" v="farm" />
		<tag k="ssr:stedsnr" v="435344" />
	</node>
	<node id="-568458" lat="62.2525166663" lon="7.47533054894">
		<tag k="historic" v="shieling" />
		<tag k="name" v="Muldalsætra" />
		<tag k="place" v="locality" />
		<tag k="ssr:stedsnr" v="740819" />
	</node>
	<node id="-568456" lat="62.2528433552" lon="7.18270237742">
		<tag k="alt_name" v="Storås" />
		<tag k="fixme" v="consider place=hamlet" />
		<tag k="name" v="Storåsen" />
		<tag k="place" v="farm" />
		<tag k="ssr:stedsnr" v="739924" />
	</node>
	<node id="-567942" lat="62.3449053243" lon="7.55215294184">
		<tag k="name" v="Høghjelle" />
		<tag k="place" v="farm" />
		<tag k="ssr:stedsnr" v="424712" />
	</node>
	<node id="-568452" lat="62.2683574514" lon="7.36180500433">
		<tag k="fixme" v="consider place=hamlet" />
		<tag k="name" v="Korsnes" />
		<tag k="place" v="farm" />
		<tag k="ssr:stedsnr" v="739822" />
	</node>
	<node id="-567936" lat="62.2525169191" lon="7.47533394441">
		<tag k="historic" v="shieling" />
		<tag k="name" v="Muldalssætra" />
		<tag k="place" v="locality" />
		<tag k="ssr:stedsnr" v="263905" />
	</node>
	<node id="-568446" lat="62.3383138902" lon="7.44332778529">
		<tag k="name" v="Holane" />
		<tag k="place" v="farm" />
		<tag k="ssr:stedsnr" v="739762" />
	</node>
	<node id="-567418" lat="62.2944388849" lon="7.22811944865">
		<tag k="fixme" v="multiple name tags, choose one and add the other to alt_name" />
		<tag k="name" v="Gamlebøen;Gammalbøen" />
		<tag k="place" v="farm" />
		<tag k="ssr:stedsnr" v="375839" />
	</node>
	<node id="-568441" lat="62.1885908365" lon="7.50243031743">
		<tag k="alt_name" v="Rødal, øvste" />
		<tag k="fixme" v="consider place=hamlet" />
		<tag k="name" v="Øvste Rødal" />
		<tag k="place" v="farm" />
		<tag k="ssr:stedsnr" v="739054" />
	</node>
	<node id="-567928" lat="62.2483138864" lon="7.17562500375">
		<tag k="historic" v="shieling" />
		<tag k="name" v="Toresætra" />
		<tag k="place" v="locality" />
		<tag k="ssr:stedsnr" v="254240" />
	</node>
	<node id="-567414" lat="62.3621725511" lon="7.56037960603">
		<tag k="fixme" v="consider place=hamlet" />
		<tag k="name" v="Langdalen" />
		<tag k="place" v="farm" />
		<tag k="ssr:stedsnr" v="375780" />
	</node>
	<node id="-567657" lat="62.2517194431" lon="7.23806387981">
		<tag k="fixme" v="multiple name tags, choose one and add the other to alt_name; consider place=hamlet" />
		<tag k="loc_name" v="Norddalen" />
		<tag k="name" v="Dalsbygda;Norddal" />
		<tag k="place" v="village" />
		<tag k="ssr:stedsnr" v="72812" />
	</node>
	<node id="-567921" lat="62.3147170947" lon="7.30065437177">
		<tag k="alt_name" v="Døving" />
		<tag k="fixme" v="consider place=hamlet" />
		<tag k="name" v="Døvingen" />
		<tag k="place" v="farm" />
		<tag k="ssr:stedsnr" v="253794" />
	</node>
	<node id="-567920" lat="62.2444833303" lon="7.23051111064">
		<tag k="name" v="Hatlestadgjerdet" />
		<tag k="place" v="farm" />
		<tag k="ssr:stedsnr" v="253527" />
	</node>
	<node id="-567656" lat="62.2563520093" lon="7.43571371167">
		<tag k="fixme" v="consider place=hamlet" />
		<tag k="name" v="Muldal" />
		<tag k="place" v="farm" />
		<tag k="ssr:stedsnr" v="72809" />
	</node>
	<node id="-567918" lat="62.1973611125" lon="7.12402777509">
		<tag k="name" v="Skusetsætra" />
		<tag k="place" v="locality" />
		<tag k="ssr:stedsnr" v="253375" />
	</node>
	<node id="-568427" lat="62.2402111092" lon="7.24899445234">
		<tag k="name" v="Kapteinhjelle" />
		<tag k="place" v="farm" />
		<tag k="ssr:stedsnr" v="738470" />
	</node>
	<node id="-567914" lat="62.2312777782" lon="7.24464167385">
		<tag k="historic" v="shieling" />
		<tag k="name" v="Rellingsætra" />
		<tag k="place" v="locality" />
		<tag k="ssr:stedsnr" v="253013" />
	</node>
	<node id="-567913" lat="62.2010025542" lon="7.43774503214">
		<tag k="fixme" v="consider place=hamlet" />
		<tag k="name" v="Kaldhusdalen" />
		<tag k="place" v="farm" />
		<tag k="ssr:stedsnr" v="253011" />
	</node>
	<node id="-567400" lat="62.2607064215" lon="7.16834864055">
		<tag k="fixme" v="consider place=hamlet" />
		<tag k="name" v="Ytterdal" />
		<tag k="place" v="farm" />
		<tag k="ssr:stedsnr" v="374947" />
	</node>
	<node id="-567397" lat="62.2481916629" lon="7.23757500206">
		<tag k="name" v="Rellingen" />
		<tag k="place" v="farm" />
		<tag k="ssr:stedsnr" v="374485" />
	</node>
	<node id="-567907" lat="62.2394555582" lon="7.25841945286">
		<tag k="name" v="Prestegarden" />
		<tag k="place" v="farm" />
		<tag k="ssr:stedsnr" v="228862" />
	</node>
	<node id="-567394" lat="62.2191527785" lon="7.14256665727">
		<tag k="name" v="Øvstelia" />
		<tag k="place" v="farm" />
		<tag k="ssr:stedsnr" v="374318" />
	</node>
	<node id="-568415" lat="62.2400944427" lon="7.4261527858">
		<tag k="historic" v="shieling" />
		<tag k="name" v="Høgsæterstølen" />
		<tag k="place" v="locality" />
		<tag k="ssr:stedsnr" v="713791" />
	</node>
	<node id="-567766" lat="62.297825004" lon="7.26373610894">
		<tag k="name" v="Sylte" />
		<tag k="place" v="quarter" />
		<tag k="ssr:stedsnr" v="159001" />
	</node>
	<node id="-567388" lat="62.2324250002" lon="7.41769166476">
		<tag k="fixme" v="consider place=hamlet" />
		<tag k="name" v="Tafjord" />
		<tag k="place" v="village" />
		<tag k="ssr:stedsnr" v="374017" />
	</node>
	<node id="-567738" lat="62.3044277796" lon="7.17722221965">
		<tag k="historic" v="shieling" />
		<tag k="name" v="Hogsetdalen" />
		<tag k="place" v="locality" />
		<tag k="ssr:stedsnr" v="132615" />
	</node>
	<node id="-568410" lat="62.346147219" lon="7.4272138976">
		<tag k="name" v="Øygarden" />
		<tag k="place" v="locality" />
		<tag k="ssr:stedsnr" v="713660" />
	</node>
	<node id="-567894" lat="62.2405388933" lon="7.26234167243">
		<tag k="name" v="Engeset" />
		<tag k="place" v="farm" />
		<tag k="ssr:stedsnr" v="227943" />
	</node>
	<node id="-567374" lat="62.2633861076" lon="7.35355555299">
		<tag k="historic" v="shieling" />
		<tag k="name" v="Gamlesætra" />
		<tag k="place" v="locality" />
		<tag k="ssr:stedsnr" v="349359" />
	</node>
	<node id="-567821" lat="62.3103277798" lon="7.34370000654">
		<tag k="name" v="Ytsteheia" />
		<tag k="place" v="locality" />
		<tag k="ssr:stedsnr" v="192798" />
	</node>
	<node id="-568396" lat="62.3591777771" lon="7.34644999308">
		<tag k="historic" v="shieling" />
		<tag k="name" v="Hjellsætra" />
		<tag k="place" v="locality" />
		<tag k="ssr:stedsnr" v="713152" />
	</node>
	<node id="-568387" lat="62.3252333337" lon="7.33360000581">
		<tag k="name" v="Reiten" />
		<tag k="place" v="farm" />
		<tag k="ssr:stedsnr" v="712348" />
	</node>
	<node id="-568386" lat="62.3349249957" lon="7.34553333405">
		<tag k="name" v="Vidåttå" />
		<tag k="place" v="locality" />
		<tag k="ssr:stedsnr" v="712300" />
	</node>
	<node id="-567306" lat="62.3382280988" lon="7.43461474335">
		<tag k="fixme" v="consider place=hamlet" />
		<tag k="name" v="Remset" />
		<tag k="place" v="farm" />
		<tag k="ssr:stedsnr" v="314752" />
	</node>
	<node id="-568377" lat="62.2225833337" lon="7.14446111556">
		<tag k="name" v="Nedstelia" />
		<tag k="place" v="farm" />
		<tag k="ssr:stedsnr" v="703411" />
	</node>
	<node id="-567305" lat="62.242141008" lon="7.25105812261">
		<tag k="fixme" v="consider place=hamlet" />
		<tag k="name" v="Dalhus" />
		<tag k="place" v="farm" />
		<tag k="ssr:stedsnr" v="314536" />
	</node>
	<node id="-568368" lat="62.3010396829" lon="7.30742014906">
		<tag k="alt_name" v="Sjølbøskor" />
		<tag k="fixme" v="consider place=hamlet" />
		<tag k="name" v="Sjølbørskor" />
		<tag k="old_name" v="Selboskar" />
		<tag k="place" v="farm" />
		<tag k="ssr:stedsnr" v="679836" />
	</node>
	<node id="-568363" lat="62.2519611124" lon="7.16604721255">
		<tag k="name" v="Nyhjelle" />
		<tag k="place" v="farm" />
		<tag k="ssr:stedsnr" v="678915" />
	</node>
	<node id="-567848" lat="62.297972225" lon="7.26258888929">
		<tag k="name" v="Valldal" />
		<tag k="place" v="village" />
		<tag k="ssr:stedsnr" v="193858" />
	</node>
	<node id="-568358" lat="62.333658077" lon="7.47094059579">
		<tag k="fixme" v="consider place=hamlet" />
		<tag k="name" v="Alstad" />
		<tag k="place" v="farm" />
		<tag k="ssr:stedsnr" v="678754" />
	</node>
	<node id="-568357" lat="62.3291888226" lon="7.4702935123">
		<tag k="fixme" v="consider place=hamlet" />
		<tag k="name" v="Alstadsæter" />
		<tag k="place" v="farm" />
		<tag k="ssr:stedsnr" v="678752" />
	</node>
	<node id="-567844" lat="62.3142376976" lon="7.28457274919">
		<tag k="fixme" v="consider place=hamlet" />
		<tag k="name" v="Uri" />
		<tag k="place" v="farm" />
		<tag k="ssr:stedsnr" v="193762" />
	</node>
	<node id="-568355" lat="62.3393722213" lon="7.41760833638">
		<tag k="name" v="Holsætra" />
		<tag k="place" v="locality" />
		<tag k="ssr:stedsnr" v="678743" />
	</node>
	<node id="-568354" lat="62.3440861084" lon="7.41759166901">
		<tag k="name" v="Furnes" />
		<tag k="place" v="farm" />
		<tag k="ssr:stedsnr" v="678744" />
	</node>
	<node id="-568353" lat="62.2501027757" lon="7.15522222475">
		<tag k="name" v="Hjellane" />
		<tag k="place" v="farm" />
		<tag k="ssr:stedsnr" v="678647" />
	</node>
	<node id="-567328" lat="62.2847555522" lon="7.38240556052">
		<tag k="historic" v="shieling" />
		<tag k="name" v="Heggurdalen" />
		<tag k="place" v="locality" />
		<tag k="ssr:stedsnr" v="315860" />
	</node>
	<node id="-567440" lat="62.2378888928" lon="7.13106667308">
		<tag k="historic" v="shieling" />
		<tag k="name" v="Krikestølen" />
		<tag k="place" v="locality" />
		<tag k="ssr:stedsnr" v="399502" />
	</node>
	<node id="-568349" lat="62.1945743732" lon="7.15269034085">
		<tag k="fixme" v="consider place=hamlet" />
		<tag k="name" v="Eide" />
		<tag k="place" v="farm" />
		<tag k="ssr:stedsnr" v="678337" />
	</node>
	<node id="-567319" lat="62.2621527763" lon="7.12111666512">
		<tag k="historic" v="shieling" />
		<tag k="name" v="Kilstisætra" />
		<tag k="place" v="locality" />
		<tag k="ssr:stedsnr" v="314882" />
	</node>
	<node id="-567641" lat="62.2966174608" lon="7.23156392355">
		<tag k="fixme" v="consider place=hamlet" />
		<tag k="name" v="Lingås" />
		<tag k="place" v="farm" />
		<tag k="ssr:stedsnr" v="71875" />
	</node>
	<node id="-568340" lat="62.1636083361" lon="7.43399444489">
		<tag k="name" v="Haugen" />
		<tag k="place" v="farm" />
		<tag k="ssr:stedsnr" v="678054" />
	</node>
	<node id="-567315" lat="62.3620694422" lon="7.35261666112">
		<tag k="historic" v="shieling" />
		<tag k="name" v="Myklebustsætra" />
		<tag k="place" v="locality" />
		<tag k="ssr:stedsnr" v="314799" />
	</node>
	<node id="-567314" lat="62.3747388911" lon="7.66926665903">
		<tag k="name" v="Osten" />
		<tag k="place" v="isolated_dwelling" />
		<tag k="ssr:stedsnr" v="314792" />
	</node>
	<node id="-568337" lat="62.1704999978" lon="7.5190777825">
		<tag k="name" v="Rødalssætra" />
		<tag k="place" v="isolated_dwelling" />
		<tag k="ssr:stedsnr" v="678044" />
	</node>
	<node id="-567311" lat="62.3189999984" lon="7.32187777714">
		<tag k="name" v="Døving" />
		<tag k="place" v="farm" />
		<tag k="ssr:stedsnr" v="314770" />
	</node>
	<node id="-567310" lat="62.3208638916" lon="7.38675555947">
		<tag k="historic" v="shieling" />
		<tag k="name" v="Hjelmesætra" />
		<tag k="place" v="locality" />
		<tag k="ssr:stedsnr" v="314767" />
	</node>
	<node id="-567309" lat="62.3327804106" lon="7.35947746942">
		<tag k="fixme" v="consider place=hamlet" />
		<tag k="name" v="Omnos" />
		<tag k="place" v="farm" />
		<tag k="ssr:stedsnr" v="314761" />
	</node>
	<node id="-568332" lat="62.3011858969" lon="7.26173046802">
		<tag k="fixme" v="consider place=hamlet" />
		<tag k="name" v="Sylte" />
		<tag k="place" v="farm" />
		<tag k="ssr:stedsnr" v="657375" />
	</node>
	<node id="-567818" lat="62.2001972181" lon="7.49030555145">
		<tag k="name" v="Nedstedalsjuvet" />
		<tag k="place" v="farm" />
		<tag k="ssr:stedsnr" v="167961" />
	</node>
	<node id="-568329" lat="62.3294972193" lon="7.51310556206">
		<tag k="fixme" v="consider place=hamlet" />
		<tag k="name" v="Grønning" />
		<tag k="place" v="farm" />
		<tag k="ssr:stedsnr" v="652815" />
	</node>
	<node id="-567301" lat="62.1951166636" lon="7.13921945059">
		<tag k="name" v="Solvang" />
		<tag k="ssr:stedsnr" v="314354" />
		<tag k="tourism" v="camp_site" />
	</node>
	<node id="-567723" lat="62.2241972266" lon="7.13213888568">
		<tag k="historic" v="shieling" />
		<tag k="name" v="Øygardssætra" />
		<tag k="place" v="locality" />
		<tag k="ssr:stedsnr" v="131281" />
	</node>
</osm>
