<?xml version="1.0" encoding="UTF-8"?>
<osm generator="osmapis" version="0.6">
	<node id="-568317" lat="62.2854972232" lon="7.36219722005">
		<tag k="name" v="Fjøre-Olafonna" />
		<tag k="place" v="locality" />
		<tag k="ssr:stedsnr" v="652472" />
	</node>
	<node id="-568315" lat="62.3363388888" lon="7.32612777928">
		<tag k="name" v="Ljøsfonna" />
		<tag k="place" v="locality" />
		<tag k="ssr:stedsnr" v="652265" />
	</node>
	<node id="-567799" lat="62.3536972211" lon="7.33833611767">
		<tag k="name" v="Heimyra" />
		<tag k="natural" v="wetland" />
		<tag k="ssr:stedsnr" v="167156" />
	</node>
	<node id="-567721" lat="62.2663194401" lon="7.23833055565">
		<tag k="name" v="Svoraura" />
		<tag k="natural" v="scree" />
		<tag k="ssr:stedsnr" v="107748" />
	</node>
	<node id="-568308" lat="62.1935138862" lon="7.33868056239">
		<tag k="name" v="Holane" />
		<tag k="natural" v="wetland" />
		<tag k="ssr:stedsnr" v="651535" />
	</node>
	<node id="-567795" lat="62.3217972201" lon="7.37216667362">
		<tag k="name" v="Stikkfonna" />
		<tag k="place" v="locality" />
		<tag k="ssr:stedsnr" v="167145" />
	</node>
	<node id="-567793" lat="62.2178111154" lon="7.4141944465">
		<tag k="name" v="Høystakkmyra" />
		<tag k="natural" v="wetland" />
		<tag k="ssr:stedsnr" v="167105" />
	</node>
	<node id="-567279" lat="62.1980222242" lon="7.48687221967">
		<tag k="name" v="Stigmyra" />
		<tag k="natural" v="wetland" />
		<tag k="ssr:stedsnr" v="288940" />
	</node>
	<node id="-567277" lat="62.3398166679" lon="7.539594445">
		<tag k="name" v="Sætermyrane" />
		<tag k="natural" v="wetland" />
		<tag k="ssr:stedsnr" v="288799" />
	</node>
	<node id="-568300" lat="62.2726444435" lon="7.08298888941">
		<tag k="name" v="Breimyra" />
		<tag k="natural" v="wetland" />
		<tag k="ssr:stedsnr" v="651176" />
	</node>
	<node id="-567273" lat="62.2258861097" lon="7.43758611541">
		<tag k="name" v="Longskredene" />
		<tag k="natural" v="scree" />
		<tag k="ssr:stedsnr" v="288747" />
	</node>
	<node id="-567272" lat="62.2214944455" lon="7.44076111496">
		<tag k="name" v="Klipret" />
		<tag k="natural" v="scree" />
		<tag k="ssr:stedsnr" v="288748" />
	</node>
	<node id="-568295" lat="62.1777749968" lon="7.16862499244">
		<tag k="name" v="Millommyrteigane" />
		<tag k="place" v="locality" />
		<tag k="ssr:stedsnr" v="642370" />
	</node>
	<node id="-568294" lat="62.2518166678" lon="7.19429999876">
		<tag k="name" v="Klingerstemyra" />
		<tag k="natural" v="wetland" />
		<tag k="ssr:stedsnr" v="642356" />
	</node>
	<node id="-568293" lat="62.1874166656" lon="7.16399444328">
		<tag k="name" v="Hans-Magnusgjerdet" />
		<tag k="place" v="locality" />
		<tag k="ssr:stedsnr" v="642351" />
	</node>
	<node id="-567803" lat="62.2951277786" lon="7.3611555519">
		<tag k="name" v="Geitsteinen" />
		<tag k="natural" v="stone" />
		<tag k="ssr:stedsnr" v="167510" />
	</node>
	<node id="-567262" lat="62.3497944404" lon="7.42257777848">
		<tag k="name" v="Storsteinen" />
		<tag k="natural" v="stone" />
		<tag k="ssr:stedsnr" v="288604" />
	</node>
	<node id="-568282" lat="62.2781055525" lon="7.39099167078">
		<tag k="name" v="Heggura" />
		<tag k="natural" v="scree" />
		<tag k="ssr:stedsnr" v="627912" />
	</node>
	<node id="-567255" lat="62.2938222252" lon="7.3378444361">
		<tag k="name" v="Nerhusurene" />
		<tag k="natural" v="scree" />
		<tag k="ssr:stedsnr" v="288445" />
	</node>
	<node id="-567247" lat="62.1679194472" lon="7.5196861143">
		<tag k="name" v="Storsteinane" />
		<tag k="natural" v="scree" />
		<tag k="ssr:stedsnr" v="288213" />
	</node>
	<node id="-567748" lat="62.2945027779" lon="7.68582777398">
		<tag k="name" v="Storfjellbreen" />
		<tag k="natural" v="glacier" />
		<tag k="ssr:stedsnr" v="132854" />
	</node>
	<node id="-568769" lat="62.1836694439" lon="7.4998583352">
		<tag k="name" v="Storura" />
		<tag k="natural" v="scree" />
		<tag k="ssr:stedsnr" v="956982" />
	</node>
	<node id="-567232" lat="62.2370527785" lon="7.13036943926">
		<tag k="name" v="Bertelfonna" />
		<tag k="place" v="locality" />
		<tag k="ssr:stedsnr" v="278411" />
	</node>
	<node id="-568767" lat="62.348416665" lon="7.55199722481">
		<tag k="name" v="Fremstebøen" />
		<tag k="place" v="locality" />
		<tag k="ssr:stedsnr" v="956797" />
	</node>
	<node id="-568766" lat="62.1893583332" lon="7.56696665856">
		<tag k="name" v="Stormyra" />
		<tag k="natural" v="wetland" />
		<tag k="ssr:stedsnr" v="956767" />
	</node>
	<node id="-567541" lat="62.2478277783" lon="7.24075000579">
		<tag k="name" v="Tobakksmyra" />
		<tag k="natural" v="wetland" />
		<tag k="ssr:stedsnr" v="895952" />
	</node>
	<node id="-568764" lat="62.3263861105" lon="7.48576389008">
		<tag k="name" v="Skjervsura" />
		<tag k="natural" v="scree" />
		<tag k="ssr:stedsnr" v="956714" />
	</node>
	<node id="-567590" lat="62.2458388856" lon="7.20521667361">
		<tag k="name" v="Grønmyra" />
		<tag k="natural" v="wetland" />
		<tag k="ssr:stedsnr" v="35524" />
	</node>
	<node id="-568756" lat="62.2968000028" lon="7.33396110155">
		<tag k="name" v="Ormura" />
		<tag k="natural" v="scree" />
		<tag k="ssr:stedsnr" v="956486" />
	</node>
	<node id="-567880" lat="62.3447916638" lon="7.34364721409">
		<tag k="name" v="Høgsetfonna" />
		<tag k="place" v="locality" />
		<tag k="ssr:stedsnr" v="227329" />
	</node>
	<node id="-568748" lat="62.2184888885" lon="7.44208611833">
		<tag k="name" v="Mausemyra" />
		<tag k="natural" v="wetland" />
		<tag k="ssr:stedsnr" v="956121" />
	</node>
	<node id="-568234" lat="62.264691663" lon="7.34802500519">
		<tag k="name" v="Blåsva" />
		<tag k="place" v="locality" />
		<tag k="ssr:stedsnr" v="592313" />
	</node>
	<node id="-568233" lat="62.1957277758" lon="7.49554722686">
		<tag k="name" v="Dektene" />
		<tag k="natural" v="wetland" />
		<tag k="ssr:stedsnr" v="591946" />
	</node>
	<node id="-567720" lat="62.3268111075" lon="7.39806111394">
		<tag k="name" v="Håmannmyra" />
		<tag k="natural" v="wetland" />
		<tag k="ssr:stedsnr" v="107704" />
	</node>
	<node id="-567716" lat="62.2147138893" lon="7.23844999049">
		<tag k="name" v="Kallsetsteinen" />
		<tag k="natural" v="stone" />
		<tag k="ssr:stedsnr" v="107121" />
	</node>
	<node id="-568227" lat="62.2827111141" lon="7.27325000516">
		<tag k="name" v="Vindsnesurene" />
		<tag k="natural" v="scree" />
		<tag k="ssr:stedsnr" v="591710" />
	</node>
	<node id="-568738" lat="62.3474222198" lon="7.40049167474">
		<tag k="name" v="Bjørnasteinen" />
		<tag k="natural" v="stone" />
		<tag k="ssr:stedsnr" v="955649" />
	</node>
	<node id="-567713" lat="62.1812277747" lon="7.42867777287">
		<tag k="name" v="Magnhildsætermyra" />
		<tag k="natural" v="wetland" />
		<tag k="ssr:stedsnr" v="106960" />
	</node>
	<node id="-568735" lat="62.3200555532" lon="7.27043610558">
		<tag k="name" v="Jamtefonna" />
		<tag k="place" v="locality" />
		<tag k="ssr:stedsnr" v="955629" />
	</node>
	<node id="-567621" lat="62.322605554" lon="7.4147916632">
		<tag k="name" v="Løypet" />
		<tag k="natural" v="scree" />
		<tag k="ssr:stedsnr" v="46630" />
	</node>
	<node id="-568220" lat="62.1995861146" lon="7.53405000491">
		<tag k="name" v="Oshammaren" />
		<tag k="natural" v="scree" />
		<tag k="ssr:stedsnr" v="591618" />
	</node>
	<node id="-568219" lat="62.3416444469" lon="7.45507500492">
		<tag k="name" v="Gråsteinen" />
		<tag k="natural" v="stone" />
		<tag k="ssr:stedsnr" v="591612" />
	</node>
	<node id="-568216" lat="62.1919916677" lon="7.34136666427">
		<tag k="name" v="Reitane" />
		<tag k="place" v="locality" />
		<tag k="ssr:stedsnr" v="591512" />
	</node>
	<node id="-568726" lat="62.2848972205" lon="7.18517222478">
		<tag k="name" v="Havsteinane" />
		<tag k="natural" v="stone" />
		<tag k="ssr:stedsnr" v="955069" />
	</node>
	<node id="-568725" lat="62.286544443" lon="7.21400278184">
		<tag k="name" v="Sildesteinen" />
		<tag k="natural" v="stone" />
		<tag k="ssr:stedsnr" v="955008" />
	</node>
	<node id="-568724" lat="62.2624444453" lon="7.19947777712">
		<tag k="name" v="Galten" />
		<tag k="natural" v="stone" />
		<tag k="ssr:stedsnr" v="946425" />
	</node>
	<node id="-568722" lat="62.1840333352" lon="7.14293611679">
		<tag k="name" v="Skredene" />
		<tag k="place" v="locality" />
		<tag k="ssr:stedsnr" v="946422" />
	</node>
	<node id="-568731" lat="62.3470083377" lon="7.35108056392">
		<tag k="name" v="Storsteinen" />
		<tag k="natural" v="stone" />
		<tag k="ssr:stedsnr" v="955326" />
	</node>
	<node id="-568207" lat="62.3461388889" lon="7.35813889262">
		<tag k="name" v="Ellingsteinen" />
		<tag k="natural" v="stone" />
		<tag k="ssr:stedsnr" v="591314" />
	</node>
	<node id="-568718" lat="62.249791665" lon="7.21362500643">
		<tag k="name" v="Kaistemyra" />
		<tag k="natural" v="wetland" />
		<tag k="ssr:stedsnr" v="946352" />
	</node>
	<node id="-567690" lat="62.1981194468" lon="7.33533333108">
		<tag k="name" v="Gråsteinberget" />
		<tag k="natural" v="scree" />
		<tag k="ssr:stedsnr" v="106565" />
	</node>
	<node id="-567686" lat="62.292358331" lon="7.34460000671">
		<tag k="name" v="Stigflåfonna" />
		<tag k="place" v="locality" />
		<tag k="ssr:stedsnr" v="106466" />
	</node>
	<node id="-568709" lat="62.1889666633" lon="7.57624166208">
		<tag k="historic" v="shieling" />
		<tag k="name" v="Reindalssætra" />
		<tag k="place" v="locality" />
		<tag k="ssr:stedsnr" v="931907" />
	</node>
	<node id="-567681" lat="62.3403472195" lon="7.37752221678">
		<tag k="name" v="Lysteinen" />
		<tag k="natural" v="stone" />
		<tag k="ssr:stedsnr" v="106282" />
	</node>
	<node id="-567616" lat="62.269188887" lon="7.10345555454">
		<tag k="name" v="Brisesteinen" />
		<tag k="natural" v="stone" />
		<tag k="ssr:stedsnr" v="46123" />
	</node>
	<node id="-567674" lat="62.3578666701" lon="7.54594167393">
		<tag k="name" v="Storura" />
		<tag k="natural" v="scree" />
		<tag k="ssr:stedsnr" v="105881" />
	</node>
	<node id="-567673" lat="62.3678972194" lon="7.56244722647">
		<tag k="name" v="Urakamben" />
		<tag k="natural" v="scree" />
		<tag k="ssr:stedsnr" v="105879" />
	</node>
	<node id="-568178" lat="62.2869694459" lon="7.45783610874">
		<tag k="name" v="Trollkyrkjebreen" />
		<tag k="natural" v="glacier" />
		<tag k="ssr:stedsnr" v="557866" />
	</node>
	<node id="-567664" lat="62.1649499998" lon="7.16966943685">
		<tag k="name" v="Breiskreda" />
		<tag k="place" v="locality" />
		<tag k="ssr:stedsnr" v="95352" />
	</node>
	<node id="-567663" lat="62.2114027741" lon="7.12468889431">
		<tag k="name" v="Bjørkmyra" />
		<tag k="natural" v="wetland" />
		<tag k="ssr:stedsnr" v="95348" />
	</node>
	<node id="-567698" lat="62.2049027745" lon="7.53451388573">
		<tag k="name" v="Bustura" />
		<tag k="natural" v="scree" />
		<tag k="ssr:stedsnr" v="106747" />
	</node>
	<node id="-567783" lat="62.336661112" lon="7.46534444273">
		<tag k="name" v="Storsteinen" />
		<tag k="natural" v="stone" />
		<tag k="ssr:stedsnr" v="166668" />
	</node>
	<node id="-568164" lat="62.1839750016" lon="7.64382777819">
		<tag k="name" v="Glupsøyra" />
		<tag k="place" v="locality" />
		<tag k="ssr:stedsnr" v="557059" />
	</node>
	<node id="-567270" lat="62.2404472223" lon="7.40619166066">
		<tag k="name" v="Storsteinane" />
		<tag k="natural" v="stone" />
		<tag k="ssr:stedsnr" v="288733" />
	</node>
	<node id="-568122" lat="62.2259138848" lon="7.28838610677">
		<tag k="name" v="Øyane" />
		<tag k="natural" v="wetland" />
		<tag k="ssr:stedsnr" v="531401" />
	</node>
	<node id="-568651" lat="62.2473388901" lon="7.19019999426">
		<tag k="name" v="Storåsmyrane" />
		<tag k="natural" v="wetland" />
		<tag k="ssr:stedsnr" v="861241" />
	</node>
	<node id="-568133" lat="62.1814138933" lon="7.50810555997">
		<tag k="name" v="Fannamyra" />
		<tag k="natural" v="wetland" />
		<tag k="ssr:stedsnr" v="531976" />
	</node>
	<node id="-568128" lat="62.3418444476" lon="7.55727777992">
		<tag k="name" v="Foldesteinane" />
		<tag k="natural" v="stone" />
		<tag k="ssr:stedsnr" v="531812" />
	</node>
	<node id="-567610" lat="62.3488249973" lon="7.40079166647">
		<tag k="name" v="Øvste Bjørnasteinen" />
		<tag k="natural" v="stone" />
		<tag k="ssr:stedsnr" v="45628" />
	</node>
	<node id="-568109" lat="62.3642000019" lon="7.55638889642">
		<tag k="name" v="Bruareiten" />
		<tag k="place" v="locality" />
		<tag k="ssr:stedsnr" v="530852" />
	</node>
	<node id="-568107" lat="62.2597833361" lon="7.45270277274">
		<tag k="name" v="Gråura" />
		<tag k="natural" v="scree" />
		<tag k="ssr:stedsnr" v="530786" />
	</node>
	<node id="-568615" lat="62.3324138925" lon="7.5798444383">
		<tag k="historic" v="shieling" />
		<tag k="name" v="Fremsteløvollen" />
		<tag k="place" v="locality" />
		<tag k="ssr:stedsnr" v="835807" />
	</node>
	<node id="-568614" lat="62.2918472235" lon="7.23271110718">
		<tag k="name" v="Sildesteinen" />
		<tag k="natural" v="stone" />
		<tag k="ssr:stedsnr" v="835808" />
	</node>
	<node id="-567589" lat="62.2515694433" lon="7.13406666544">
		<tag k="name" v="Sætermyrane" />
		<tag k="natural" v="wetland" />
		<tag k="ssr:stedsnr" v="35496" />
	</node>
	<node id="-567587" lat="62.2749583377" lon="7.03691944471">
		<tag k="name" v="Seifonna" />
		<tag k="place" v="locality" />
		<tag k="ssr:stedsnr" v="35489" />
	</node>
	<node id="-568608" lat="62.3024388905" lon="7.30754721443">
		<tag k="name" v="Matsteinane" />
		<tag k="natural" v="stone" />
		<tag k="ssr:stedsnr" v="835527" />
	</node>
	<node id="-568603" lat="62.2823611078" lon="7.29437777617">
		<tag k="name" v="Strengsteinen" />
		<tag k="natural" v="stone" />
		<tag k="ssr:stedsnr" v="835262" />
	</node>
	<node id="-567704" lat="62.2558750011" lon="7.49567222341">
		<tag k="name" v="Sandane" />
		<tag k="natural" v="wetland" />
		<tag k="ssr:stedsnr" v="106802" />
	</node>
	<node id="-567574" lat="62.1914888886" lon="7.43211388518">
		<tag k="landuse" v="meadow" />
		<tag k="name" v="Litlejorda" />
		<tag k="ssr:stedsnr" v="21913" />
	</node>
	<node id="-567573" lat="62.3101972221" lon="7.31845277593">
		<tag k="name" v="Rugga" />
		<tag k="natural" v="stone" />
		<tag k="ssr:stedsnr" v="21892" />
	</node>
	<node id="-568083" lat="62.1737944446" lon="7.17128888464">
		<tag k="name" v="Kråkesylvsteinen" />
		<tag k="natural" v="stone" />
		<tag k="ssr:stedsnr" v="520406" />
	</node>
	<node id="-568592" lat="62.3392972257" lon="7.46346666892">
		<tag k="name" v="Sæterura" />
		<tag k="natural" v="scree" />
		<tag k="ssr:stedsnr" v="834685" />
	</node>
	<node id="-568591" lat="62.3293916689" lon="7.45975832873">
		<tag k="name" v="Svortesteinane" />
		<tag k="natural" v="stone" />
		<tag k="ssr:stedsnr" v="834682" />
	</node>
	<node id="-568590" lat="62.3318583357" lon="7.47988611021">
		<tag k="name" v="Bøplassen" />
		<tag k="place" v="locality" />
		<tag k="ssr:stedsnr" v="834679" />
	</node>
	<node id="-568074" lat="62.2768444404" lon="7.47007221352">
		<tag k="name" v="Nakkebreen" />
		<tag k="natural" v="glacier" />
		<tag k="ssr:stedsnr" v="497827" />
	</node>
	<node id="-568584" lat="62.3236194421" lon="7.33386944438">
		<tag k="name" v="Seljefonnura" />
		<tag k="natural" v="scree" />
		<tag k="ssr:stedsnr" v="834367" />
	</node>
	<node id="-568573" lat="62.2860388876" lon="7.17402222214">
		<tag k="name" v="Hundesva" />
		<tag k="place" v="locality" />
		<tag k="ssr:stedsnr" v="834077" />
	</node>
	<node id="-568570" lat="62.2665222184" lon="7.16151388519">
		<tag k="name" v="Svora" />
		<tag k="place" v="locality" />
		<tag k="ssr:stedsnr" v="824643" />
	</node>
	<node id="-568568" lat="62.2075416703" lon="7.15019443552">
		<tag k="name" v="Dølemyra" />
		<tag k="natural" v="wetland" />
		<tag k="ssr:stedsnr" v="824466" />
	</node>
	<node id="-567542" lat="62.1872944442" lon="7.4363805501">
		<tag k="name" v="Kattuglsteinane" />
		<tag k="natural" v="stone" />
		<tag k="ssr:stedsnr" v="895959" />
	</node>
	<node id="-568565" lat="62.1573916667" lon="7.17785555241">
		<tag k="historic" v="shieling" />
		<tag k="name" v="Indresætra" />
		<tag k="place" v="locality" />
		<tag k="ssr:stedsnr" v="824393" />
	</node>
	<node id="-568051" lat="62.1820444411" lon="7.50271110328">
		<tag k="name" v="Storskogane" />
		<tag k="natural" v="scree" />
		<tag k="ssr:stedsnr" v="470972" />
	</node>
	<node id="-568562" lat="62.2122749978" lon="7.16697499882">
		<tag k="name" v="Nygjerdet" />
		<tag k="place" v="locality" />
		<tag k="ssr:stedsnr" v="824385" />
	</node>
	<node id="-567537" lat="62.2127611115" lon="7.46308055561">
		<tag k="name" v="Buskreda" />
		<tag k="natural" v="scree" />
		<tag k="ssr:stedsnr" v="895935" />
	</node>
	<node id="-568560" lat="62.268477776" lon="7.15196110232">
		<tag k="name" v="Seljura" />
		<tag k="natural" v="scree" />
		<tag k="ssr:stedsnr" v="820415" />
	</node>
	<node id="-568046" lat="62.2557916703" lon="7.44759166294">
		<tag k="name" v="Flotene" />
		<tag k="natural" v="wetland" />
		<tag k="ssr:stedsnr" v="470793" />
	</node>
	<node id="-568045" lat="62.303513892" lon="7.22969721349">
		<tag k="name" v="Raudfonna" />
		<tag k="place" v="locality" />
		<tag k="ssr:stedsnr" v="470776" />
	</node>
	<node id="-567532" lat="62.2359305524" lon="7.25097221414">
		<tag k="name" v="Kvitsteinen" />
		<tag k="natural" v="stone" />
		<tag k="ssr:stedsnr" v="895832" />
	</node>
	<node id="-567525" lat="62.2385444425" lon="7.42135276924">
		<tag k="name" v="Bjørnaura" />
		<tag k="natural" v="scree" />
		<tag k="ssr:stedsnr" v="895759" />
	</node>
	<node id="-568035" lat="62.345888889" lon="7.41949999675">
		<tag k="name" v="Furnesmyrane" />
		<tag k="natural" v="wetland" />
		<tag k="ssr:stedsnr" v="470634" />
	</node>
	<node id="-567517" lat="62.3211638852" lon="7.48848610303">
		<tag k="name" v="Sandsteinen" />
		<tag k="natural" v="stone" />
		<tag k="ssr:stedsnr" v="895651" />
	</node>
	<node id="-567516" lat="62.3360583313" lon="7.43705000605">
		<tag k="name" v="Bessmyra" />
		<tag k="natural" v="wetland" />
		<tag k="ssr:stedsnr" v="895602" />
	</node>
	<node id="-567515" lat="62.3451388917" lon="7.43693611862">
		<tag k="name" v="Grønbakkskogen" />
		<tag k="place" v="locality" />
		<tag k="ssr:stedsnr" v="895594" />
	</node>
	<node id="-567514" lat="62.2531277806" lon="7.37759999064">
		<tag k="name" v="Storvakfonna" />
		<tag k="place" v="locality" />
		<tag k="ssr:stedsnr" v="895506" />
	</node>
	<node id="-568023" lat="62.1478472188" lon="7.42363889549">
		<tag k="name" v="Inste Øyra" />
		<tag k="place" v="locality" />
		<tag k="ssr:stedsnr" v="470184" />
	</node>
	<node id="-568019" lat="62.3612527768" lon="7.35008611046">
		<tag k="name" v="Gamlereiten" />
		<tag k="place" v="locality" />
		<tag k="ssr:stedsnr" v="470137" />
	</node>
	<node id="-568017" lat="62.2711500014" lon="7.10275277808">
		<tag k="name" v="Storsteinen" />
		<tag k="natural" v="stone" />
		<tag k="ssr:stedsnr" v="470115" />
	</node>
	<node id="-568527" lat="62.1479694415" lon="7.65345833288">
		<tag k="name" v="Langfonna" />
		<tag k="natural" v="glacier" />
		<tag k="ssr:stedsnr" v="800081" />
	</node>
	<node id="-567497" lat="62.2281111074" lon="7.05163055393">
		<tag k="name" v="Krkesteinen" />
		<tag k="natural" v="stone" />
		<tag k="ssr:stedsnr" v="895080" />
	</node>
	<node id="-568006" lat="62.3385777821" lon="7.36354999053">
		<tag k="name" v="Merrasva" />
		<tag k="place" v="locality" />
		<tag k="ssr:stedsnr" v="469341" />
	</node>
	<node id="-567488" lat="62.2618583324" lon="7.18459721645">
		<tag k="name" v="Skredene" />
		<tag k="place" v="locality" />
		<tag k="ssr:stedsnr" v="885465" />
	</node>
	<node id="-568096" lat="62.3215527743" lon="7.32969722933">
		<tag k="name" v="Steinhakka" />
		<tag k="natural" v="scree" />
		<tag k="ssr:stedsnr" v="530337" />
	</node>
	<node id="-568508" lat="62.3014083374" lon="7.28163610846">
		<tag k="name" v="Bjørnamyra" />
		<tag k="natural" v="wetland" />
		<tag k="ssr:stedsnr" v="774559" />
	</node>
	<node id="-567483" lat="62.3878527736" lon="7.55314166438">
		<tag k="name" v="Storsteinane" />
		<tag k="natural" v="stone" />
		<tag k="ssr:stedsnr" v="410881" />
	</node>
	<node id="-567992" lat="62.2431722179" lon="7.13145277416">
		<tag k="name" v="Haugfonna" />
		<tag k="place" v="locality" />
		<tag k="ssr:stedsnr" v="460464" />
	</node>
	<node id="-567477" lat="62.3328916687" lon="7.57116944039">
		<tag k="name" v="Dalemyrane" />
		<tag k="natural" v="wetland" />
		<tag k="ssr:stedsnr" v="410792" />
	</node>
	<node id="-568499" lat="62.365336108" lon="7.3597777719">
		<tag k="name" v="Steinane" />
		<tag k="natural" v="stone" />
		<tag k="ssr:stedsnr" v="774169" />
	</node>
	<node id="-568498" lat="62.3490611123" lon="7.38624721725">
		<tag k="name" v="Gråsteinen" />
		<tag k="natural" v="stone" />
		<tag k="ssr:stedsnr" v="774155" />
	</node>
	<node id="-568494" lat="62.2498722194" lon="7.22560278493">
		<tag k="name" v="Storura" />
		<tag k="natural" v="scree" />
		<tag k="ssr:stedsnr" v="773919" />
	</node>
	<node id="-568491" lat="62.3280277799" lon="7.51351666596">
		<tag k="name" v="Smiura" />
		<tag k="natural" v="scree" />
		<tag k="ssr:stedsnr" v="773803" />
	</node>
	<node id="-567462" lat="62.1830527781" lon="7.43286388377">
		<tag k="name" v="Stormyra" />
		<tag k="natural" v="wetland" />
		<tag k="ssr:stedsnr" v="409952" />
	</node>
	<node id="-568485" lat="62.2182083363" lon="7.32800000594">
		<tag k="name" v="Bukkeskreda" />
		<tag k="natural" v="scree" />
		<tag k="ssr:stedsnr" v="773562" />
	</node>
	<node id="-567460" lat="62.1987472232" lon="7.50894444043">
		<tag k="name" v="Byteura" />
		<tag k="natural" v="scree" />
		<tag k="ssr:stedsnr" v="409904" />
	</node>
	<node id="-568480" lat="62.1790888859" lon="7.33430555524">
		<tag k="name" v="Kista" />
		<tag k="natural" v="wetland" />
		<tag k="ssr:stedsnr" v="773491" />
	</node>
	<node id="-567453" lat="62.3139055594" lon="7.32497222308">
		<tag k="name" v="Geitasteinen" />
		<tag k="natural" v="stone" />
		<tag k="ssr:stedsnr" v="409312" />
	</node>
	<node id="-568470" lat="62.1940777802" lon="7.16087777719">
		<tag k="name" v="Teigane" />
		<tag k="place" v="locality" />
		<tag k="ssr:stedsnr" v="763469" />
	</node>
	<node id="-568469" lat="62.2241666626" lon="7.164713894">
		<tag k="historic" v="shieling" />
		<tag k="name" v="Kleivasætra" />
		<tag k="place" v="locality" />
		<tag k="ssr:stedsnr" v="763432" />
	</node>
	<node id="-567954" lat="62.2589861137" lon="7.0336750089">
		<tag k="landuse" v="quarry" />
		<tag k="name" v="Raudbergvika" />
		<tag k="old_name" v="Raudbergvik" />
		<tag k="ssr:stedsnr" v="435949" />
	</node>
	<node id="-568463" lat="62.178752782" lon="7.15354999393">
		<tag k="name" v="Hjelleteigane" />
		<tag k="place" v="locality" />
		<tag k="ssr:stedsnr" v="763386" />
	</node>
	<node id="-567438" lat="62.1797250019" lon="7.16695833325">
		<tag k="name" v="Leitet" />
		<tag k="place" v="locality" />
		<tag k="ssr:stedsnr" v="399484" />
	</node>
	<node id="-567878" lat="62.3345555531" lon="7.39157500329">
		<tag k="name" v="Lømyra" />
		<tag k="natural" v="wetland" />
		<tag k="ssr:stedsnr" v="227288" />
	</node>
	<node id="-567230" lat="62.1726083378" lon="7.16109166635">
		<tag k="name" v="Longskreda" />
		<tag k="place" v="locality" />
		<tag k="ssr:stedsnr" v="277361" />
	</node>
	<node id="-567229" lat="62.2151444454" lon="7.04057221984">
		<tag k="name" v="Isflåna" />
		<tag k="place" v="locality" />
		<tag k="ssr:stedsnr" v="275391" />
	</node>
	<node id="-567228" lat="62.2416833316" lon="7.41699444177">
		<tag k="name" v="Litleura" />
		<tag k="natural" v="scree" />
		<tag k="ssr:stedsnr" v="274417" />
	</node>
	<node id="-567903" lat="62.3229111094" lon="7.4124861195">
		<tag k="name" v="Gråura" />
		<tag k="natural" v="scree" />
		<tag k="ssr:stedsnr" v="228641" />
	</node>
	<node id="-567900" lat="62.2269444445" lon="7.39641944307">
		<tag k="name" v="Nygjerdsfonna" />
		<tag k="place" v="locality" />
		<tag k="ssr:stedsnr" v="228434" />
	</node>
	<node id="-567890" lat="62.357519443" lon="7.55863888194">
		<tag k="name" v="Steinhakka" />
		<tag k="natural" v="stone" />
		<tag k="ssr:stedsnr" v="227855" />
	</node>
	<node id="-568400" lat="62.3005194484" lon="7.31692499364">
		<tag k="name" v="Myrane" />
		<tag k="natural" v="wetland" />
		<tag k="ssr:stedsnr" v="713463" />
	</node>
	<node id="-567886" lat="62.3307111087" lon="7.48978055847">
		<tag k="name" v="Skjervsura" />
		<tag k="natural" v="scree" />
		<tag k="ssr:stedsnr" v="227656" />
	</node>
	<node id="-567883" lat="62.1919444445" lon="7.34328889697">
		<tag k="name" v="Stormyra" />
		<tag k="natural" v="wetland" />
		<tag k="ssr:stedsnr" v="227531" />
	</node>
	<node id="-567881" lat="62.3231333343" lon="7.28737500179">
		<tag k="name" v="Uristeinane" />
		<tag k="natural" v="stone" />
		<tag k="ssr:stedsnr" v="227360" />
	</node>
	<node id="-568392" lat="62.2102305586" lon="7.42222221361">
		<tag k="name" v="Kvitura" />
		<tag k="natural" v="scree" />
		<tag k="ssr:stedsnr" v="713093" />
	</node>
	<node id="-568390" lat="62.255419447" lon="7.23655278121">
		<tag k="name" v="Kyrkjemyra" />
		<tag k="natural" v="wetland" />
		<tag k="ssr:stedsnr" v="712945" />
	</node>
	<node id="-568389" lat="62.2553972207" lon="7.22298333593">
		<tag k="name" v="Gullsteinen" />
		<tag k="natural" v="stone" />
		<tag k="ssr:stedsnr" v="712927" />
	</node>
	<node id="-567876" lat="62.2795555588" lon="7.30509166327">
		<tag k="name" v="Raudsteinen" />
		<tag k="natural" v="stone" />
		<tag k="ssr:stedsnr" v="227263" />
	</node>
	<node id="-568384" lat="62.2718500017" lon="7.34789166713">
		<tag k="name" v="Storsteinen" />
		<tag k="natural" v="stone" />
		<tag k="ssr:stedsnr" v="712274" />
	</node>
	<node id="-567871" lat="62.2027583357" lon="7.15958889769">
		<tag k="name" v="Legene" />
		<tag k="place" v="locality" />
		<tag k="ssr:stedsnr" v="218453" />
	</node>
	<node id="-567358" lat="62.3325833319" lon="7.35146388144">
		<tag k="name" v="Tverrgardsøyna" />
		<tag k="place" v="locality" />
		<tag k="ssr:stedsnr" v="348322" />
	</node>
	<node id="-567357" lat="62.3202777804" lon="7.33336945348">
		<tag k="name" v="Kvigesva" />
		<tag k="place" v="locality" />
		<tag k="ssr:stedsnr" v="348308" />
	</node>
	<node id="-567355" lat="62.1732972252" lon="7.51429167351">
		<tag k="name" v="Sandfarmyrane" />
		<tag k="natural" v="wetland" />
		<tag k="ssr:stedsnr" v="348227" />
	</node>
	<node id="-567354" lat="62.1662472262" lon="7.51879444921">
		<tag k="name" v="Gaddemyrane" />
		<tag k="natural" v="wetland" />
		<tag k="ssr:stedsnr" v="348221" />
	</node>
	<node id="-567864" lat="62.2462055573" lon="7.17809721677">
		<tag k="name" v="Johansfonna" />
		<tag k="place" v="locality" />
		<tag k="ssr:stedsnr" v="217395" />
	</node>
	<node id="-567347" lat="62.1930527806" lon="7.16254999559">
		<tag k="name" v="Fonna" />
		<tag k="place" v="locality" />
		<tag k="ssr:stedsnr" v="339441" />
	</node>
	<node id="-567345" lat="62.261966666" lon="7.19267500339">
		<tag k="name" v="Storura" />
		<tag k="natural" v="scree" />
		<tag k="ssr:stedsnr" v="339375" />
	</node>
	<node id="-567304" lat="62.2414555545" lon="7.61795555193">
		<tag k="name" v="Illstigbreen" />
		<tag k="natural" v="glacier" />
		<tag k="ssr:stedsnr" v="314531" />
	</node>
	<node id="-568378" lat="62.1626861132" lon="7.17677221302">
		<tag k="name" v="Hellemyrane" />
		<tag k="natural" v="wetland" />
		<tag k="ssr:stedsnr" v="703418" />
	</node>
	<node id="-568351" lat="62.2475305549" lon="7.57634721839">
		<tag k="name" v="Storbreen" />
		<tag k="natural" v="glacier" />
		<tag k="ssr:stedsnr" v="678494" />
	</node>
	<node id="-567833" lat="62.351724997" lon="7.76542499857">
		<tag k="name" v="Storbreen" />
		<tag k="natural" v="glacier" />
		<tag k="ssr:stedsnr" v="193057" />
	</node>
	<node id="-567820" lat="62.2084416681" lon="7.15820555906">
		<tag k="alt_name" v="Steinsmyra" />
		<tag k="name" v="Steinmyra" />
		<tag k="natural" v="wetland" />
		<tag k="ssr:stedsnr" v="192328" />
	</node>
	<node id="-567816" lat="62.3736916699" lon="7.56184444339">
		<tag k="historic" v="shieling" />
		<tag k="name" v="Litlestølen" />
		<tag k="place" v="locality" />
		<tag k="ssr:stedsnr" v="167866" />
	</node>
	<node id="-567814" lat="62.2329388859" lon="7.22758333401">
		<tag k="name" v="Øvstemyrane" />
		<tag k="natural" v="wetland" />
		<tag k="ssr:stedsnr" v="167816" />
	</node>
	<node id="-567813" lat="62.3347055523" lon="7.57434165992">
		<tag k="name" v="Foldesteinane" />
		<tag k="natural" v="stone" />
		<tag k="ssr:stedsnr" v="167810" />
	</node>
	<node id="-568324" lat="62.3431444425" lon="7.46473888209">
		<tag k="name" v="Brekkfonna" />
		<tag k="place" v="locality" />
		<tag k="ssr:stedsnr" v="652670" />
	</node>
</osm>
