<?xml version="1.0" encoding="UTF-8"?>
<osm generator="osmapis" version="0.6">
	<node id="-569344" lat="62.3060972204" lon="7.25533888227">
		<tag k="name" v="Storhaugen" />
		<tag k="natural" v="hill" />
		<tag k="place" v="locality" />
		<tag k="ssr:stedsnr" v="773589" />
	</node>
	<node id="-569343" lat="62.1746472211" lon="7.33448056412">
		<tag k="name" v="Hjellane" />
		<tag k="place" v="locality" />
		<tag k="ssr:stedsnr" v="773564" />
	</node>
	<node id="-569336" lat="62.3395833298" lon="7.35625832511">
		<tag k="name" v="Kreksethaugen" />
		<tag k="natural" v="hill" />
		<tag k="place" v="locality" />
		<tag k="ssr:stedsnr" v="773345" />
	</node>
	<node id="-569335" lat="62.3308805531" lon="7.34455555026">
		<tag k="name" v="Blomgjerda" />
		<tag k="natural" v="slope" />
		<tag k="place" v="locality" />
		<tag k="ssr:stedsnr" v="773343" />
	</node>
	<node id="-569334" lat="62.2730333307" lon="7.3454444532">
		<tag k="name" v="Kasteflæå" />
		<tag k="natural" v="hill" />
		<tag k="place" v="locality" />
		<tag k="ssr:stedsnr" v="773318" />
	</node>
	<node id="-569333" lat="62.3320666623" lon="7.39001666149">
		<tag k="name" v="Rongane" />
		<tag k="natural" v="slope" />
		<tag k="place" v="locality" />
		<tag k="ssr:stedsnr" v="773292" />
	</node>
	<node id="-569332" lat="62.2151805568" lon="7.4411527797">
		<tag k="name" v="Storhammaren" />
		<tag k="natural" v="cliff" />
		<tag k="ssr:stedsnr" v="773140" />
	</node>
	<node id="-569331" lat="62.2137749979" lon="7.45749445128">
		<tag k="name" v="Kvithammaren" />
		<tag k="natural" v="hill" />
		<tag k="place" v="locality" />
		<tag k="ssr:stedsnr" v="773132" />
	</node>
	<node id="-569329" lat="62.2452194465" lon="7.04876943934">
		<tag k="name" v="Jolegrøgjølet" />
		<tag k="natural" v="valley" />
		<tag k="place" v="locality" />
		<tag k="ssr:stedsnr" v="773053" />
	</node>
	<node id="-569325" lat="62.2565555586" lon="7.20499445081">
		<tag k="name" v="Kvitfjellet" />
		<tag k="natural" v="ridge" />
		<tag k="place" v="locality" />
		<tag k="ssr:stedsnr" v="763426" />
	</node>
	<node id="-569324" lat="62.2439111071" lon="7.16463056201">
		<tag k="name" v="Kjehammaren" />
		<tag k="natural" v="cliff" />
		<tag k="ssr:stedsnr" v="763423" />
	</node>
	<node id="-569323" lat="62.1737194474" lon="7.15824721468">
		<tag k="name" v="Søstølhammaren" />
		<tag k="natural" v="cliff" />
		<tag k="ssr:stedsnr" v="763418" />
	</node>
	<node id="-569322" lat="62.2078388934" lon="7.14542222458">
		<tag k="name" v="Svartfjellet" />
		<tag k="natural" v="ridge" />
		<tag k="place" v="locality" />
		<tag k="ssr:stedsnr" v="763393" />
	</node>
	<node id="-569321" lat="62.25607778" lon="7.13889165852">
		<tag k="name" v="Nausthaugen" />
		<tag k="natural" v="hill" />
		<tag k="place" v="locality" />
		<tag k="ssr:stedsnr" v="763388" />
	</node>
	<node id="-569319" lat="62.2386527744" lon="7.14676944973">
		<tag k="name" v="Krikehellen" />
		<tag k="place" v="locality" />
		<tag k="ssr:stedsnr" v="763385" />
	</node>
	<node id="-569316" lat="62.2518083312" lon="7.36659166404">
		<tag k="fixme" v="consider natural=peak for the most distinct mountains in the district" />
		<tag k="name" v="Alvikhornet" />
		<tag k="natural" v="hill" />
		<tag k="place" v="locality" />
		<tag k="ssr:stedsnr" v="740822" />
	</node>
	<node id="-569314" lat="62.4109944474" lon="7.52621666386">
		<tag k="fixme" v="consider natural=peak for the most distinct mountains in the district" />
		<tag k="name" v="Kula" />
		<tag k="natural" v="hill" />
		<tag k="place" v="locality" />
		<tag k="ssr:stedsnr" v="739955" />
	</node>
	<node id="-569312" lat="62.2909833348" lon="7.6211250012">
		<tag k="fixme" v="consider natural=peak for the most distinct mountains in the district" />
		<tag k="name" v="Blåtinden" />
		<tag k="natural" v="hill" />
		<tag k="place" v="locality" />
		<tag k="ssr:stedsnr" v="739857" />
	</node>
	<node id="-569310" lat="62.2695250035" lon="7.291355562">
		<tag k="name" v="Kvernhusdalen" />
		<tag k="natural" v="valley" />
		<tag k="place" v="locality" />
		<tag k="ssr:stedsnr" v="739827" />
	</node>
	<node id="-569308" lat="62.3501416624" lon="7.60089166653">
		<tag k="name" v="Ellingskoppen" />
		<tag k="natural" v="valley" />
		<tag k="place" v="locality" />
		<tag k="ssr:stedsnr" v="739816" />
	</node>
	<node id="-569307" lat="62.3594861084" lon="7.30288055322">
		<tag k="name" v="Rundeskaret" />
		<tag k="natural" v="valley" />
		<tag k="place" v="locality" />
		<tag k="ssr:stedsnr" v="739803" />
	</node>
	<node id="-569306" lat="62.3708305542" lon="7.41521666164">
		<tag k="fixme" v="consider natural=peak for the most distinct mountains in the district" />
		<tag k="name" v="Berlifjellet" />
		<tag k="natural" v="hill" />
		<tag k="place" v="locality" />
		<tag k="ssr:stedsnr" v="739801" />
	</node>
	<node id="-569305" lat="62.3802583357" lon="7.49545277032">
		<tag k="fixme" v="consider natural=peak for the most distinct mountains in the district" />
		<tag k="name" v="Høgstolen" />
		<tag k="natural" v="hill" />
		<tag k="place" v="locality" />
		<tag k="ssr:stedsnr" v="739791" />
	</node>
	<node id="-569304" lat="62.3848166658" lon="7.67938054911">
		<tag k="name" v="Breikoppen" />
		<tag k="natural" v="valley" />
		<tag k="place" v="locality" />
		<tag k="ssr:stedsnr" v="739786" />
	</node>
	<node id="-569299" lat="62.1819805545" lon="7.30156110741">
		<tag k="fixme" v="consider natural=peak for the most distinct mountains in the district" />
		<tag k="name" v="Heifjellet" />
		<tag k="natural" v="hill" />
		<tag k="place" v="locality" />
		<tag k="ssr:stedsnr" v="739060" />
	</node>
	<node id="-569297" lat="62.1868111103" lon="7.41731111108">
		<tag k="name" v="Høystakkberget" />
		<tag k="natural" v="hill" />
		<tag k="place" v="locality" />
		<tag k="ssr:stedsnr" v="739052" />
	</node>
	<node id="-569290" lat="62.1933361109" lon="7.39386666903">
		<tag k="fixme" v="consider natural=peak for the most distinct mountains in the district" />
		<tag k="name" v="Litlejordhornet" />
		<tag k="natural" v="hill" />
		<tag k="place" v="locality" />
		<tag k="ssr:stedsnr" v="739006" />
	</node>
	<node id="-569289" lat="62.4136888874" lon="7.70799721367">
		<tag k="fixme" v="consider natural=peak for the most distinct mountains in the district" />
		<tag k="name" v="Kulehøgda" />
		<tag k="natural" v="hill" />
		<tag k="place" v="locality" />
		<tag k="ssr:stedsnr" v="738948" />
	</node>
	<node id="-569288" lat="62.4036555562" lon="7.32041110576">
		<tag k="name" v="Espedalen" />
		<tag k="natural" v="valley" />
		<tag k="place" v="locality" />
		<tag k="ssr:stedsnr" v="738947" />
	</node>
	<node id="-569287" lat="62.3031944452" lon="7.27823889197">
		<tag k="fixme" v="consider natural=peak for the most distinct mountains in the district" />
		<tag k="name" v="Syltefjellet" />
		<tag k="natural" v="hill" />
		<tag k="place" v="locality" />
		<tag k="ssr:stedsnr" v="738875" />
	</node>
	<node id="-569286" lat="62.2520805601" lon="7.31616667219">
		<tag k="fixme" v="consider natural=peak for the most distinct mountains in the district" />
		<tag k="name" v="Tolleknivsegga" />
		<tag k="natural" v="hill" />
		<tag k="place" v="locality" />
		<tag k="ssr:stedsnr" v="738473" />
	</node>
	<node id="-569283" lat="62.2459861073" lon="7.50574999803">
		<tag k="alt_name" v="Høghornet, heimste" />
		<tag k="fixme" v="consider natural=peak for the most distinct mountains in the district" />
		<tag k="name" v="Heimste Høghornet" />
		<tag k="natural" v="hill" />
		<tag k="place" v="locality" />
		<tag k="ssr:stedsnr" v="738464" />
	</node>
	<node id="-569282" lat="62.2125833351" lon="7.14868611074">
		<tag k="name" v="Høgehaugen" />
		<tag k="natural" v="hill" />
		<tag k="place" v="locality" />
		<tag k="ssr:stedsnr" v="738308" />
	</node>
	<node id="-569281" lat="62.2248027773" lon="7.1868749947">
		<tag k="fixme" v="consider natural=peak for the most distinct mountains in the district" />
		<tag k="name" v="Tuva" />
		<tag k="natural" v="hill" />
		<tag k="place" v="locality" />
		<tag k="ssr:stedsnr" v="738300" />
	</node>
	<node id="-569280" lat="62.2284138907" lon="7.26387777725">
		<tag k="fixme" v="consider natural=peak for the most distinct mountains in the district" />
		<tag k="name" v="Daurmålsfjellet" />
		<tag k="natural" v="hill" />
		<tag k="place" v="locality" />
		<tag k="ssr:stedsnr" v="738018" />
	</node>
	<node id="-569279" lat="62.3507583313" lon="7.5578999998">
		<tag k="name" v="Storhaugen" />
		<tag k="natural" v="hill" />
		<tag k="place" v="locality" />
		<tag k="ssr:stedsnr" v="713888" />
	</node>
	<node id="-569277" lat="62.2336722193" lon="7.24915277131">
		<tag k="name" v="Svorabakken" />
		<tag k="natural" v="slope" />
		<tag k="place" v="locality" />
		<tag k="ssr:stedsnr" v="713858" />
	</node>
	<node id="-569276" lat="62.2391555546" lon="7.25450556173">
		<tag k="name" v="Gunnadalen" />
		<tag k="natural" v="valley" />
		<tag k="place" v="locality" />
		<tag k="ssr:stedsnr" v="713852" />
	</node>
	<node id="-569274" lat="62.3772194415" lon="7.62192499584">
		<tag k="name" v="Storhammaren" />
		<tag k="natural" v="hill" />
		<tag k="place" v="locality" />
		<tag k="ssr:stedsnr" v="713819" />
	</node>
	<node id="-569270" lat="62.2614194435" lon="7.23815277137">
		<tag k="name" v="Ryggen" />
		<tag k="natural" v="ridge" />
		<tag k="place" v="locality" />
		<tag k="ssr:stedsnr" v="713757" />
	</node>
	<node id="-569269" lat="62.3511861143" lon="7.4087277861">
		<tag k="name" v="Geitaryggen" />
		<tag k="natural" v="ridge" />
		<tag k="place" v="locality" />
		<tag k="ssr:stedsnr" v="713698" />
	</node>
	<node id="-569268" lat="62.2017555543" lon="7.53629444168">
		<tag k="name" v="Stegane" />
		<tag k="natural" v="ridge" />
		<tag k="place" v="locality" />
		<tag k="ssr:stedsnr" v="713678" />
	</node>
	<node id="-569266" lat="62.3190750002" lon="7.2567000003">
		<tag k="name" v="Almedalen" />
		<tag k="natural" v="valley" />
		<tag k="place" v="locality" />
		<tag k="ssr:stedsnr" v="713638" />
	</node>
	<node id="-569264" lat="62.3055888854" lon="7.26345555837">
		<tag k="name" v="Syltemoa" />
		<tag k="place" v="locality" />
		<tag k="ssr:stedsnr" v="713630" />
	</node>
	<node id="-569262" lat="62.2515583335" lon="7.38779444801">
		<tag k="name" v="Bjørnaløypet" />
		<tag k="natural" v="hill" />
		<tag k="place" v="locality" />
		<tag k="ssr:stedsnr" v="713566" />
	</node>
	<node id="-569261" lat="62.2994722249" lon="7.2786027689">
		<tag k="name" v="Storhammaren" />
		<tag k="natural" v="hill" />
		<tag k="place" v="locality" />
		<tag k="ssr:stedsnr" v="713525" />
	</node>
	<node id="-569260" lat="62.286419442" lon="7.37018332732">
		<tag k="fixme" v="consider natural=peak for the most distinct mountains in the district" />
		<tag k="name" v="Trollkyrkja" />
		<tag k="natural" v="hill" />
		<tag k="place" v="locality" />
		<tag k="ssr:stedsnr" v="713496" />
	</node>
	<node id="-569256" lat="62.2381250012" lon="7.39870555578">
		<tag k="name" v="Bakke-Olaflæene" />
		<tag k="place" v="locality" />
		<tag k="ssr:stedsnr" v="713394" />
	</node>
	<node id="-569252" lat="62.3562583347" lon="7.34243611885">
		<tag k="name" v="Blåbærhaugane" />
		<tag k="natural" v="hill" />
		<tag k="place" v="locality" />
		<tag k="ssr:stedsnr" v="713150" />
	</node>
	<node id="-569251" lat="62.3213305543" lon="7.39436666355">
		<tag k="name" v="Illgjølet" />
		<tag k="natural" v="valley" />
		<tag k="place" v="locality" />
		<tag k="ssr:stedsnr" v="713139" />
	</node>
	<node id="-569250" lat="62.2043972226" lon="7.43143887936">
		<tag k="name" v="Skjervabøen" />
		<tag k="natural" v="slope" />
		<tag k="place" v="locality" />
		<tag k="ssr:stedsnr" v="713095" />
	</node>
	<node id="-569245" lat="62.3375027749" lon="7.39977499683">
		<tag k="name" v="Raudehammaren" />
		<tag k="place" v="locality" />
		<tag k="ssr:stedsnr" v="712635" />
	</node>
	<node id="-569240" lat="62.2684472257" lon="7.35727223115">
		<tag k="name" v="Plassen" />
		<tag k="natural" v="slope" />
		<tag k="place" v="locality" />
		<tag k="ssr:stedsnr" v="712273" />
	</node>
	<node id="-569239" lat="62.3414222179" lon="7.38346944147">
		<tag k="name" v="Storgjerdet" />
		<tag k="natural" v="slope" />
		<tag k="place" v="locality" />
		<tag k="ssr:stedsnr" v="712253" />
	</node>
	<node id="-569238" lat="62.2378083318" lon="7.04081110548">
		<tag k="name" v="Styggegjølet" />
		<tag k="natural" v="valley" />
		<tag k="place" v="locality" />
		<tag k="ssr:stedsnr" v="712082" />
	</node>
	<node id="-569237" lat="62.2554888909" lon="7.18031667427">
		<tag k="name" v="Skagen" />
		<tag k="natural" v="slope" />
		<tag k="place" v="locality" />
		<tag k="ssr:stedsnr" v="703491" />
	</node>
	<node id="-569236" lat="62.2265750035" lon="7.16052223126">
		<tag k="name" v="Hopegjølet" />
		<tag k="natural" v="valley" />
		<tag k="place" v="locality" />
		<tag k="ssr:stedsnr" v="703421" />
	</node>
	<node id="-569228" lat="62.2020828786" lon="7.4881100701">
		<tag k="name" v="Nedstedalsjuvet" />
		<tag k="natural" v="gorge" />
		<tag k="ssr:stedsnr" v="689915" />
	</node>
	<node id="-569227" lat="62.3096166708" lon="7.56293889504">
		<tag k="name" v="Djupdalen" />
		<tag k="natural" v="valley" />
		<tag k="place" v="locality" />
		<tag k="ssr:stedsnr" v="688900" />
	</node>
	<node id="-569224" lat="62.2556416671" lon="7.63302222286">
		<tag k="fixme" v="consider natural=peak for the most distinct mountains in the district" />
		<tag k="name" v="Kollen" />
		<tag k="natural" v="hill" />
		<tag k="place" v="locality" />
		<tag k="ssr:stedsnr" v="679810" />
	</node>
	<node id="-569223" lat="62.2650250038" lon="7.33023610629">
		<tag k="fixme" v="consider natural=peak for the most distinct mountains in the district" />
		<tag k="name" v="Kastehøgfjellet" />
		<tag k="natural" v="hill" />
		<tag k="place" v="locality" />
		<tag k="ssr:stedsnr" v="679783" />
	</node>
	<node id="-569222" lat="62.3809888848" lon="7.32059722072">
		<tag k="fixme" v="consider natural=peak for the most distinct mountains in the district" />
		<tag k="name" v="Svartfjellet" />
		<tag k="natural" v="hill" />
		<tag k="place" v="locality" />
		<tag k="ssr:stedsnr" v="678933" />
	</node>
	<node id="-569221" lat="62.4220750039" lon="7.70912500169">
		<tag k="fixme" v="consider natural=peak for the most distinct mountains in the district" />
		<tag k="name" v="Skarfjellet" />
		<tag k="natural" v="hill" />
		<tag k="place" v="locality" />
		<tag k="ssr:stedsnr" v="678930" />
	</node>
	<node id="-569219" lat="62.3588888903" lon="7.4671305648">
		<tag k="name" v="Littedalen" />
		<tag k="natural" v="valley" />
		<tag k="place" v="locality" />
		<tag k="ssr:stedsnr" v="678789" />
	</node>
	<node id="-569218" lat="62.3785749961" lon="7.34836666431">
		<tag k="name" v="Fremstebotn" />
		<tag k="natural" v="valley" />
		<tag k="place" v="locality" />
		<tag k="ssr:stedsnr" v="678778" />
	</node>
	<node id="-569217" lat="62.3163777772" lon="7.52271111152">
		<tag k="fixme" v="consider natural=peak for the most distinct mountains in the district" />
		<tag k="name" v="Rundhornet" />
		<tag k="natural" v="hill" />
		<tag k="place" v="locality" />
		<tag k="ssr:stedsnr" v="678768" />
	</node>
	<node id="-569213" lat="62.343113887" lon="7.57960555046">
		<tag k="fixme" v="consider natural=peak for the most distinct mountains in the district" />
		<tag k="name" v="Sætertinden" />
		<tag k="natural" v="hill" />
		<tag k="place" v="locality" />
		<tag k="ssr:stedsnr" v="678747" />
	</node>
	<node id="-569209" lat="62.2443861111" lon="7.59847499956">
		<tag k="fixme" v="consider natural=peak for the most distinct mountains in the district" />
		<tag k="name" v="Illstigfjellet" />
		<tag k="natural" v="hill" />
		<tag k="place" v="locality" />
		<tag k="ssr:stedsnr" v="678496" />
	</node>
	<node id="-569207" lat="62.1987310295" lon="7.09938051824">
		<tag k="name" v="Nonshaugen" />
		<tag k="natural" v="hill" />
		<tag k="place" v="locality" />
		<tag k="ssr:stedsnr" v="678344" />
	</node>
	<node id="-569205" lat="62.1916386063" lon="7.19669731559">
		<tag k="fixme" v="consider natural=peak for the most distinct mountains in the district" />
		<tag k="name" v="Skorene" />
		<tag k="natural" v="hill" />
		<tag k="place" v="locality" />
		<tag k="ssr:stedsnr" v="678338" />
	</node>
	<node id="-569204" lat="62.2124805574" lon="7.0508361073">
		<tag k="name" v="Isflåkoppen" />
		<tag k="natural" v="valley" />
		<tag k="place" v="locality" />
		<tag k="ssr:stedsnr" v="678326" />
	</node>
	<node id="-569202" lat="62.1056555586" lon="7.51378610142">
		<tag k="name" v="Reindalshola" />
		<tag k="natural" v="valley" />
		<tag k="place" v="locality" />
		<tag k="ssr:stedsnr" v="678122" />
	</node>
	<node id="-569201" lat="62.0874666646" lon="7.61594444314">
		<tag k="name" v="Skrådalen" />
		<tag k="natural" v="valley" />
		<tag k="place" v="locality" />
		<tag k="ssr:stedsnr" v="678104" />
	</node>
	<node id="-569200" lat="62.1498333323" lon="7.54307500102">
		<tag k="alt_name" v="Koppane, øvste" />
		<tag k="name" v="Øvste Koppane" />
		<tag k="natural" v="valley" />
		<tag k="place" v="locality" />
		<tag k="ssr:stedsnr" v="678090" />
	</node>
	<node id="-569199" lat="62.1833055575" lon="7.28006388962">
		<tag k="fixme" v="consider natural=peak for the most distinct mountains in the district" />
		<tag k="name" v="Torvløysa" />
		<tag k="natural" v="hill" />
		<tag k="place" v="locality" />
		<tag k="ssr:stedsnr" v="678065" />
	</node>
	<node id="-569198" lat="62.3546499995" lon="7.73097499557">
		<tag k="name" v="Vetllangdalen" />
		<tag k="natural" v="valley" />
		<tag k="place" v="locality" />
		<tag k="ssr:stedsnr" v="678057" />
	</node>
	<node id="-569196" lat="62.1573527804" lon="7.22988055857">
		<tag k="fixme" v="consider natural=peak for the most distinct mountains in the district" />
		<tag k="name" v="Tverrfjellet" />
		<tag k="natural" v="hill" />
		<tag k="place" v="locality" />
		<tag k="ssr:stedsnr" v="678049" />
	</node>
	<node id="-569195" lat="62.1708888895" lon="7.51206388768">
		<tag k="name" v="Rødalen" />
		<tag k="natural" v="valley" />
		<tag k="place" v="locality" />
		<tag k="ssr:stedsnr" v="678045" />
	</node>
	<node id="-569192" lat="62.2255666648" lon="7.52726388415">
		<tag k="name" v="Djupdalen" />
		<tag k="natural" v="valley" />
		<tag k="place" v="locality" />
		<tag k="ssr:stedsnr" v="678037" />
	</node>
	<node id="-569191" lat="62.2292083291" lon="7.34970834179">
		<tag k="fixme" v="consider natural=peak for the most distinct mountains in the district" />
		<tag k="name" v="Kallskaregga" />
		<tag k="natural" v="hill" />
		<tag k="place" v="locality" />
		<tag k="ssr:stedsnr" v="678022" />
	</node>
	<node id="-569190" lat="62.1775111109" lon="7.07439167032">
		<tag k="fixme" v="consider natural=peak for the most distinct mountains in the district" />
		<tag k="name" v="Tretindanibba" />
		<tag k="natural" v="hill" />
		<tag k="place" v="locality" />
		<tag k="ssr:stedsnr" v="678358" />
	</node>
	<node id="-569188" lat="62.2036888864" lon="7.49560000269">
		<tag k="name" v="Martinusskreda" />
		<tag k="place" v="locality" />
		<tag k="ssr:stedsnr" v="652942" />
	</node>
	<node id="-569187" lat="62.387574999" lon="7.56532778628">
		<tag k="name" v="Furet" />
		<tag k="place" v="locality" />
		<tag k="ssr:stedsnr" v="652857" />
	</node>
	<node id="-569185" lat="62.3417416668" lon="7.53158889429">
		<tag k="name" v="Krikeberget" />
		<tag k="natural" v="hill" />
		<tag k="place" v="locality" />
		<tag k="ssr:stedsnr" v="652794" />
	</node>
	<node id="-569184" lat="62.3352000038" lon="7.57008334013">
		<tag k="name" v="Geithammaren" />
		<tag k="natural" v="hill" />
		<tag k="place" v="locality" />
		<tag k="ssr:stedsnr" v="652774" />
	</node>
	<node id="-569183" lat="62.2582194414" lon="7.45750834162">
		<tag k="name" v="Rongane" />
		<tag k="place" v="locality" />
		<tag k="ssr:stedsnr" v="652773" />
	</node>
	<node id="-569180" lat="62.3450750034" lon="7.41087777219">
		<tag k="name" v="Prestesvødene" />
		<tag k="natural" v="hill" />
		<tag k="place" v="locality" />
		<tag k="ssr:stedsnr" v="652651" />
	</node>
	<node id="-569178" lat="62.3378444481" lon="7.41006944017">
		<tag k="name" v="Sætermarka" />
		<tag k="natural" v="slope" />
		<tag k="place" v="locality" />
		<tag k="ssr:stedsnr" v="652641" />
	</node>
	<node id="-569177" lat="62.3420861146" lon="7.44722499593">
		<tag k="name" v="Dynevollrabben" />
		<tag k="natural" v="hill" />
		<tag k="place" v="locality" />
		<tag k="ssr:stedsnr" v="652635" />
	</node>
	<node id="-569171" lat="62.3278361139" lon="7.29872222855">
		<tag k="name" v="Knutsrinden" />
		<tag k="natural" v="ridge" />
		<tag k="place" v="locality" />
		<tag k="ssr:stedsnr" v="652245" />
	</node>
	<node id="-569170" lat="62.2783972212" lon="7.29273055205">
		<tag k="name" v="Storskreda" />
		<tag k="place" v="locality" />
		<tag k="ssr:stedsnr" v="652218" />
	</node>
	<node id="-569169" lat="62.2798944474" lon="7.27658889576">
		<tag k="name" v="Furhaugane" />
		<tag k="natural" v="hill" />
		<tag k="place" v="locality" />
		<tag k="ssr:stedsnr" v="652215" />
	</node>
	<node id="-569164" lat="62.1888888858" lon="7.32403611237">
		<tag k="name" v="Stanshola" />
		<tag k="place" v="locality" />
		<tag k="ssr:stedsnr" v="651534" />
	</node>
	<node id="-569163" lat="62.3213722251" lon="7.3216027853">
		<tag k="name" v="Storvollen" />
		<tag k="natural" v="hill" />
		<tag k="place" v="locality" />
		<tag k="ssr:stedsnr" v="651383" />
	</node>
	<node id="-569162" lat="62.3426638909" lon="7.33997777508">
		<tag k="name" v="Løberget" />
		<tag k="natural" v="hill" />
		<tag k="place" v="locality" />
		<tag k="ssr:stedsnr" v="651325" />
	</node>
	<node id="-569160" lat="62.3291861129" lon="7.39483888191">
		<tag k="name" v="Sandlauprabben" />
		<tag k="natural" v="ridge" />
		<tag k="place" v="locality" />
		<tag k="ssr:stedsnr" v="651285" />
	</node>
	<node id="-569159" lat="62.2777111108" lon="7.30595000962">
		<tag k="name" v="Svartholet" />
		<tag k="natural" v="hill" />
		<tag k="place" v="locality" />
		<tag k="ssr:stedsnr" v="651275" />
	</node>
	<node id="-569153" lat="62.2233277807" lon="7.13633611142">
		<tag k="name" v="Skållia" />
		<tag k="natural" v="slope" />
		<tag k="place" v="locality" />
		<tag k="ssr:stedsnr" v="642449" />
	</node>
	<node id="-569148" lat="62.2536805562" lon="7.19592777775">
		<tag k="name" v="Kolgrjotsteinen" />
		<tag k="place" v="locality" />
		<tag k="ssr:stedsnr" v="641345" />
	</node>
	<node id="-569147" lat="62.2535166632" lon="7.17329167084">
		<tag k="name" v="Stølsmarka" />
		<tag k="natural" v="cliff" />
		<tag k="ssr:stedsnr" v="641342" />
	</node>
	<node id="-569143" lat="62.2366416696" lon="7.64524722595">
		<tag k="name" v="Tafjordfjella" />
		<tag k="natural" v="mountain_range" />
		<tag k="ssr:stedsnr" v="634813" />
	</node>
	<node id="-569132" lat="62.2563333347" lon="7.27519443993">
		<tag k="fixme" v="consider natural=peak for the most distinct mountains in the district" />
		<tag k="name" v="Kyrkjefjellet" />
		<tag k="natural" v="hill" />
		<tag k="place" v="locality" />
		<tag k="ssr:stedsnr" v="618798" />
	</node>
	<node id="-569131" lat="62.2592194431" lon="7.42113889365">
		<tag k="name" v="Årøldalen" />
		<tag k="natural" v="valley" />
		<tag k="place" v="locality" />
		<tag k="ssr:stedsnr" v="618793" />
	</node>
	<node id="-569130" lat="62.3768583367" lon="7.69798055673">
		<tag k="fixme" v="consider natural=peak for the most distinct mountains in the district" />
		<tag k="name" v="Storfjellet" />
		<tag k="natural" v="hill" />
		<tag k="place" v="locality" />
		<tag k="ssr:stedsnr" v="618626" />
	</node>
	<node id="-569129" lat="62.3078194479" lon="7.19561667305">
		<tag k="name" v="Vassdalen" />
		<tag k="natural" v="valley" />
		<tag k="place" v="locality" />
		<tag k="ssr:stedsnr" v="618586" />
	</node>
	<node id="-569128" lat="62.3962722249" lon="7.60618056048">
		<tag k="name" v="Meiadalen" />
		<tag k="natural" v="valley" />
		<tag k="place" v="locality" />
		<tag k="ssr:stedsnr" v="617952" />
	</node>
	<node id="-569124" lat="62.3109277749" lon="7.50916388977">
		<tag k="fixme" v="consider natural=peak for the most distinct mountains in the district" />
		<tag k="name" v="Høghornet" />
		<tag k="natural" v="hill" />
		<tag k="place" v="locality" />
		<tag k="ssr:stedsnr" v="617852" />
	</node>
	<node id="-569123" lat="62.3527777807" lon="7.65055277369">
		<tag k="name" v="Steinkoppen" />
		<tag k="natural" v="valley" />
		<tag k="place" v="locality" />
		<tag k="ssr:stedsnr" v="617827" />
	</node>
	<node id="-569122" lat="62.3734694403" lon="7.35260833142">
		<tag k="fixme" v="consider natural=peak for the most distinct mountains in the district" />
		<tag k="name" v="Storhornet" />
		<tag k="natural" v="hill" />
		<tag k="place" v="locality" />
		<tag k="ssr:stedsnr" v="617802" />
	</node>
	<node id="-569121" lat="62.3886944474" lon="7.43959166338">
		<tag k="fixme" v="consider natural=peak for the most distinct mountains in the district" />
		<tag k="name" v="Kyrfonntinden" />
		<tag k="natural" v="hill" />
		<tag k="place" v="locality" />
		<tag k="ssr:stedsnr" v="617794" />
	</node>
	<node id="-569119" lat="62.3079277749" lon="7.21845277374">
		<tag k="fixme" v="consider natural=peak for the most distinct mountains in the district" />
		<tag k="name" v="Klovfjellet" />
		<tag k="natural" v="hill" />
		<tag k="place" v="locality" />
		<tag k="ssr:stedsnr" v="617788" />
	</node>
	<node id="-569115" lat="62.245655556" lon="7.47879165755">
		<tag k="fixme" v="consider natural=peak for the most distinct mountains in the district" />
		<tag k="name" v="Raudnakken" />
		<tag k="natural" v="hill" />
		<tag k="place" v="locality" />
		<tag k="ssr:stedsnr" v="617506" />
	</node>
	<node id="-569111" lat="62.177830559" lon="7.67124166975">
		<tag k="alt_name" v="Veltdalen, nedre" />
		<tag k="name" v="Nedre Veltdalen" />
		<tag k="natural" v="valley" />
		<tag k="place" v="locality" />
		<tag k="ssr:stedsnr" v="617078" />
	</node>
	<node id="-569106" lat="62.1895388908" lon="7.30215555454">
		<tag k="fixme" v="consider natural=peak for the most distinct mountains in the district" />
		<tag k="name" v="Egga" />
		<tag k="natural" v="hill" />
		<tag k="place" v="locality" />
		<tag k="ssr:stedsnr" v="617063" />
	</node>
	<node id="-569105" lat="62.1692361128" lon="7.35477777608">
		<tag k="fixme" v="consider natural=peak for the most distinct mountains in the district" />
		<tag k="name" v="Heregga" />
		<tag k="natural" v="hill" />
		<tag k="place" v="locality" />
		<tag k="ssr:stedsnr" v="617048" />
	</node>
	<node id="-569104" lat="62.1698833309" lon="7.59531945038">
		<tag k="name" v="Hulderkoppen" />
		<tag k="natural" v="valley" />
		<tag k="place" v="locality" />
		<tag k="ssr:stedsnr" v="617042" />
	</node>
	<node id="-569103" lat="62.169061107" lon="7.53833055109">
		<tag k="fixme" v="consider natural=peak for the most distinct mountains in the district" />
		<tag k="name" v="Sæterhornet" />
		<tag k="natural" v="hill" />
		<tag k="place" v="locality" />
		<tag k="ssr:stedsnr" v="617039" />
	</node>
	<node id="-569102" lat="62.1714805576" lon="7.36512499826">
		<tag k="name" v="Nørdre Herdalen" />
		<tag k="natural" v="valley" />
		<tag k="place" v="locality" />
		<tag k="ssr:stedsnr" v="617037" />
	</node>
	<node id="-569101" lat="62.1694305565" lon="7.3888333269">
		<tag k="fixme" v="consider natural=peak for the most distinct mountains in the district" />
		<tag k="name" v="Holeheia" />
		<tag k="natural" v="hill" />
		<tag k="place" v="locality" />
		<tag k="ssr:stedsnr" v="617035" />
	</node>
	<node id="-569100" lat="62.2239527759" lon="7.29670556112">
		<tag k="name" v="Botnen" />
		<tag k="natural" v="valley" />
		<tag k="place" v="locality" />
		<tag k="ssr:stedsnr" v="617027" />
	</node>
	<node id="-569099" lat="62.393213886" lon="7.76015833414">
		<tag k="fixme" v="consider natural=peak for the most distinct mountains in the district" />
		<tag k="name" v="Langfjellet" />
		<tag k="natural" v="hill" />
		<tag k="place" v="locality" />
		<tag k="ssr:stedsnr" v="617022" />
	</node>
	<node id="-569097" lat="62.2083305519" lon="7.55134999141">
		<tag k="name" v="Skjervløypet" />
		<tag k="natural" v="hill" />
		<tag k="place" v="locality" />
		<tag k="ssr:stedsnr" v="617006" />
	</node>
	<node id="-569096" lat="62.2126277738" lon="7.39605278147">
		<tag k="name" v="Kallen" />
		<tag k="natural" v="hill" />
		<tag k="place" v="locality" />
		<tag k="ssr:stedsnr" v="617005" />
	</node>
	<node id="-569095" lat="62.2167138877" lon="7.44074721644">
		<tag k="name" v="Byteskaret" />
		<tag k="natural" v="valley" />
		<tag k="place" v="locality" />
		<tag k="ssr:stedsnr" v="617003" />
	</node>
	<node id="-569092" lat="62.3207277745" lon="7.40049999702">
		<tag k="name" v="Heggebotnen" />
		<tag k="natural" v="ridge" />
		<tag k="place" v="locality" />
		<tag k="ssr:stedsnr" v="592720" />
	</node>
	<node id="-569089" lat="62.2316166672" lon="7.24132778635">
		<tag k="name" v="Dampen" />
		<tag k="place" v="locality" />
		<tag k="ssr:stedsnr" v="591839" />
	</node>
	<node id="-569088" lat="62.3026555552" lon="7.24943333439">
		<tag k="name" v="Murigjerdet" />
		<tag k="natural" v="slope" />
		<tag k="place" v="locality" />
		<tag k="ssr:stedsnr" v="591790" />
	</node>
	<node id="-569087" lat="62.253433329" lon="7.42709165867">
		<tag k="name" v="Streket" />
		<tag k="natural" v="valley" />
		<tag k="place" v="locality" />
		<tag k="ssr:stedsnr" v="591774" />
	</node>
	<node id="-569085" lat="62.2366222217" lon="7.42374444569">
		<tag k="name" v="Sildegarnshammaren" />
		<tag k="natural" v="hill" />
		<tag k="place" v="locality" />
		<tag k="ssr:stedsnr" v="591753" />
	</node>
	<node id="-569083" lat="62.3326333352" lon="7.44827500619">
		<tag k="name" v="Fagerhjellen" />
		<tag k="natural" v="ridge" />
		<tag k="place" v="locality" />
		<tag k="ssr:stedsnr" v="591670" />
	</node>
	<node id="-569081" lat="62.3308805557" lon="7.47845000543">
		<tag k="name" v="Olavskjelda" />
		<tag k="place" v="locality" />
		<tag k="ssr:stedsnr" v="591656" />
	</node>
	<node id="-569080" lat="62.3308888899" lon="7.49498610307">
		<tag k="name" v="Ospahaugen" />
		<tag k="natural" v="hill" />
		<tag k="place" v="locality" />
		<tag k="ssr:stedsnr" v="591657" />
	</node>
	<node id="-569079" lat="62.3532583301" lon="7.42248611301">
		<tag k="name" v="Storsvøda" />
		<tag k="natural" v="hill" />
		<tag k="place" v="locality" />
		<tag k="ssr:stedsnr" v="591626" />
	</node>
	<node id="-569078" lat="62.3414833336" lon="7.39813888848">
		<tag k="name" v="Gjerda" />
		<tag k="natural" v="slope" />
		<tag k="place" v="locality" />
		<tag k="ssr:stedsnr" v="591624" />
	</node>
	<node id="-569075" lat="62.1877361135" lon="7.34341388869">
		<tag k="name" v="Bøen" />
		<tag k="natural" v="slope" />
		<tag k="place" v="locality" />
		<tag k="ssr:stedsnr" v="591514" />
	</node>
	<node id="-569072" lat="62.1826694462" lon="7.33346944028">
		<tag k="name" v="Grønhaugen" />
		<tag k="natural" v="hill" />
		<tag k="place" v="locality" />
		<tag k="ssr:stedsnr" v="591493" />
	</node>
	<node id="-569071" lat="62.2968027813" lon="7.30869166041">
		<tag k="name" v="Bjørkholene" />
		<tag k="natural" v="hill" />
		<tag k="place" v="locality" />
		<tag k="ssr:stedsnr" v="591481" />
	</node>
	<node id="-569070" lat="62.301438887" lon="7.34343889833">
		<tag k="name" v="Instegjerda" />
		<tag k="natural" v="slope" />
		<tag k="place" v="locality" />
		<tag k="ssr:stedsnr" v="591466" />
	</node>
	<node id="-569069" lat="62.2354749968" lon="7.29221111918">
		<tag k="fixme" v="consider natural=peak for the most distinct mountains in the district" />
		<tag k="name" v="Rindekråna" />
		<tag k="natural" v="hill" />
		<tag k="place" v="locality" />
		<tag k="ssr:stedsnr" v="591381" />
	</node>
	<node id="-569067" lat="62.2617250008" lon="7.35347777008">
		<tag k="name" v="Streket" />
		<tag k="natural" v="valley" />
		<tag k="place" v="locality" />
		<tag k="ssr:stedsnr" v="591374" />
	</node>
	<node id="-569066" lat="62.2338944403" lon="7.28203610749">
		<tag k="name" v="Longskjerva" />
		<tag k="natural" v="valley" />
		<tag k="place" v="locality" />
		<tag k="ssr:stedsnr" v="591375" />
	</node>
	<node id="-569065" lat="62.3468166673" lon="7.37722778564">
		<tag k="name" v="Trippet" />
		<tag k="place" v="locality" />
		<tag k="ssr:stedsnr" v="591318" />
	</node>
	<node id="-569063" lat="62.3459694453" lon="7.36580832517">
		<tag k="name" v="Høghaugen" />
		<tag k="natural" v="hill" />
		<tag k="place" v="locality" />
		<tag k="ssr:stedsnr" v="591316" />
	</node>
	<node id="-569062" lat="62.3083027768" lon="7.29885000734">
		<tag k="name" v="Rabbane" />
		<tag k="place" v="locality" />
		<tag k="ssr:stedsnr" v="591288" />
	</node>
	<node id="-569060" lat="62.1763527803" lon="7.51051666598">
		<tag k="name" v="Storskreda" />
		<tag k="place" v="locality" />
		<tag k="ssr:stedsnr" v="591204" />
	</node>
	<node id="-569059" lat="62.1694361108" lon="7.51382778104">
		<tag k="name" v="Sæterskredene" />
		<tag k="place" v="locality" />
		<tag k="ssr:stedsnr" v="591197" />
	</node>
	<node id="-569057" lat="62.3227333362" lon="7.33868610884">
		<tag k="name" v="Bukkelsva" />
		<tag k="natural" v="hill" />
		<tag k="place" v="locality" />
		<tag k="ssr:stedsnr" v="591129" />
	</node>
	<node id="-569056" lat="62.3215111126" lon="7.35063056057">
		<tag k="name" v="Haggardsgjøla" />
		<tag k="natural" v="valley" />
		<tag k="place" v="locality" />
		<tag k="ssr:stedsnr" v="591128" />
	</node>
	<node id="-569053" lat="62.2269722193" lon="7.04284444626">
		<tag k="name" v="Slentreflåna" />
		<tag k="natural" v="cliff" />
		<tag k="ssr:stedsnr" v="591074" />
	</node>
	<node id="-569052" lat="62.1968361133" lon="7.43961389674">
		<tag k="name" v="Reiten" />
		<tag k="natural" v="ridge" />
		<tag k="place" v="locality" />
		<tag k="ssr:stedsnr" v="590957" />
	</node>
	<node id="-569049" lat="62.2137138867" lon="7.14285555701">
		<tag k="alt_name" v="Juvene" />
		<tag k="name" v="Juva" />
		<tag k="natural" v="gorge" />
		<tag k="ssr:stedsnr" v="581499" />
	</node>
	<node id="-569048" lat="62.2614527804" lon="7.12809167332">
		<tag k="name" v="Bjørnhammaren" />
		<tag k="natural" v="cliff" />
		<tag k="ssr:stedsnr" v="581414" />
	</node>
	<node id="-569046" lat="62.207238889" lon="7.1645916576">
		<tag k="name" v="Kriken" />
		<tag k="place" v="locality" />
		<tag k="ssr:stedsnr" v="581406" />
	</node>
	<node id="-569045" lat="62.1715305525" lon="7.16661388636">
		<tag k="name" v="Sjundehaugen" />
		<tag k="natural" v="hill" />
		<tag k="place" v="locality" />
		<tag k="ssr:stedsnr" v="581403" />
	</node>
	<node id="-569044" lat="62.2534166687" lon="7.14688333797">
		<tag k="name" v="Gjerdneset" />
		<tag k="natural" v="ridge" />
		<tag k="place" v="locality" />
		<tag k="ssr:stedsnr" v="580353" />
	</node>
	<node id="-569043" lat="62.259241666" lon="7.18265276979">
		<tag k="name" v="Furenakken" />
		<tag k="natural" v="ridge" />
		<tag k="place" v="locality" />
		<tag k="ssr:stedsnr" v="580347" />
	</node>
	<node id="-569042" lat="62.2431138925" lon="7.21005555201">
		<tag k="name" v="Grønholbakkane" />
		<tag k="natural" v="slope" />
		<tag k="place" v="locality" />
		<tag k="ssr:stedsnr" v="580341" />
	</node>
	<node id="-569040" lat="62.4119333345" lon="7.60420278441">
		<tag k="fixme" v="consider natural=peak for the most distinct mountains in the district" />
		<tag k="name" v="Ringshornet" />
		<tag k="natural" v="hill" />
		<tag k="place" v="locality" />
		<tag k="ssr:stedsnr" v="569918" />
	</node>
	<node id="-569038" lat="62.3416749973" lon="7.30068055952">
		<tag k="fixme" v="consider natural=peak for the most distinct mountains in the district" />
		<tag k="name" v="Valldalsheia" />
		<tag k="natural" v="hill" />
		<tag k="place" v="locality" />
		<tag k="ssr:stedsnr" v="567992" />
	</node>
	<node id="-569034" lat="62.2952500032" lon="7.48672223099">
		<tag k="fixme" v="consider natural=peak for the most distinct mountains in the district" />
		<tag k="name" v="Middagshornet" />
		<tag k="natural" v="hill" />
		<tag k="place" v="locality" />
		<tag k="ssr:stedsnr" v="557852" />
	</node>
	<node id="-569032" lat="62.2834249978" lon="7.59943888328">
		<tag k="name" v="Muldalslaupet" />
		<tag k="natural" v="valley" />
		<tag k="place" v="locality" />
		<tag k="ssr:stedsnr" v="557804" />
	</node>
	<node id="-569030" lat="62.3333361142" lon="7.62435832612">
		<tag k="fixme" v="consider natural=peak for the most distinct mountains in the district" />
		<tag k="name" v="Litlehornet" />
		<tag k="natural" v="hill" />
		<tag k="place" v="locality" />
		<tag k="ssr:stedsnr" v="557742" />
	</node>
	<node id="-569027" lat="62.3259388847" lon="7.20875554898">
		<tag k="fixme" v="consider natural=peak for the most distinct mountains in the district" />
		<tag k="name" v="Sandfjellet" />
		<tag k="natural" v="hill" />
		<tag k="place" v="locality" />
		<tag k="ssr:stedsnr" v="557572" />
	</node>
	<node id="-569024" lat="62.2453750024" lon="7.09258888005">
		<tag k="fixme" v="consider natural=peak for the most distinct mountains in the district" />
		<tag k="name" v="Grøtet" />
		<tag k="natural" v="hill" />
		<tag k="place" v="locality" />
		<tag k="ssr:stedsnr" v="557255" />
	</node>
	<node id="-569023" lat="62.1199805565" lon="7.34328333826">
		<tag k="name" v="Lægda" />
		<tag k="natural" v="valley" />
		<tag k="place" v="locality" />
		<tag k="ssr:stedsnr" v="557083" />
	</node>
	<node id="-569017" lat="62.4058861087" lon="7.35911388136">
		<tag k="fixme" v="consider natural=peak for the most distinct mountains in the district" />
		<tag k="name" v="Taskedalshornet" />
		<tag k="natural" v="hill" />
		<tag k="place" v="locality" />
		<tag k="ssr:stedsnr" v="556974" />
	</node>
	<node id="-569013" lat="62.4118888852" lon="7.29002222123">
		<tag k="fixme" v="consider natural=peak for the most distinct mountains in the district" />
		<tag k="name" v="Storådalshornet" />
		<tag k="natural" v="hill" />
		<tag k="place" v="locality" />
		<tag k="ssr:stedsnr" v="556944" />
	</node>
	<node id="-569008" lat="62.3567277739" lon="7.29540277954">
		<tag k="fixme" v="consider natural=peak for the most distinct mountains in the district" />
		<tag k="name" v="Firskorne" />
		<tag k="natural" v="hill" />
		<tag k="place" v="locality" />
		<tag k="ssr:stedsnr" v="556805" />
	</node>
	<node id="-569006" lat="62.3172805559" lon="7.57737221966">
		<tag k="fixme" v="consider natural=peak for the most distinct mountains in the district" />
		<tag k="name" v="Krynkelen" />
		<tag k="natural" v="hill" />
		<tag k="place" v="locality" />
		<tag k="ssr:stedsnr" v="556783" />
	</node>
	<node id="-569005" lat="62.315577774" lon="7.34798333653">
		<tag k="fixme" v="consider natural=peak for the most distinct mountains in the district" />
		<tag k="name" v="Bjorstadnakken" />
		<tag k="natural" v="hill" />
		<tag k="place" v="locality" />
		<tag k="ssr:stedsnr" v="556779" />
	</node>
	<node id="-569003" lat="62.2383833349" lon="7.34298610902">
		<tag k="fixme" v="consider natural=peak for the most distinct mountains in the district" />
		<tag k="name" v="Vassdalshornet" />
		<tag k="natural" v="hill" />
		<tag k="place" v="locality" />
		<tag k="ssr:stedsnr" v="556524" />
	</node>
	<node id="-569002" lat="62.184274998" lon="7.13037500116">
		<tag k="fixme" v="consider natural=peak for the most distinct mountains in the district" />
		<tag k="name" v="Kvitfjellet" />
		<tag k="natural" v="hill" />
		<tag k="place" v="locality" />
		<tag k="ssr:stedsnr" v="556393" />
	</node>
	<node id="-568999" lat="62.1508083329" lon="7.52581667627">
		<tag k="name" v="Langrabben" />
		<tag k="natural" v="slope" />
		<tag k="place" v="locality" />
		<tag k="ssr:stedsnr" v="556092" />
	</node>
	<node id="-568998" lat="62.1447388895" lon="7.31195555898">
		<tag k="fixme" v="consider natural=peak for the most distinct mountains in the district" />
		<tag k="name" v="Holeegga" />
		<tag k="natural" v="hill" />
		<tag k="place" v="locality" />
		<tag k="ssr:stedsnr" v="556090" />
	</node>
	<node id="-568997" lat="62.2356861136" lon="7.54455276834">
		<tag k="alt_name" v="Høghornet, fremste" />
		<tag k="fixme" v="consider natural=peak for the most distinct mountains in the district" />
		<tag k="name" v="Fremste Høghornet" />
		<tag k="natural" v="hill" />
		<tag k="place" v="locality" />
		<tag k="ssr:stedsnr" v="556022" />
	</node>
	<node id="-568993" lat="62.2050416625" lon="7.4521305521">
		<tag k="name" v="Flyene" />
		<tag k="natural" v="hill" />
		<tag k="place" v="locality" />
		<tag k="ssr:stedsnr" v="556007" />
	</node>
	<node id="-568991" lat="62.1905416654" lon="7.49437499087">
		<tag k="name" v="Bukkeskreda" />
		<tag k="place" v="locality" />
		<tag k="ssr:stedsnr" v="531979" />
	</node>
	<node id="-568989" lat="62.3901611069" lon="7.54771944237">
		<tag k="name" v="Kloppane" />
		<tag k="natural" v="ridge" />
		<tag k="place" v="locality" />
		<tag k="ssr:stedsnr" v="531900" />
	</node>
	<node id="-568988" lat="62.3817055571" lon="7.55911110142">
		<tag k="name" v="Furebrauta" />
		<tag k="natural" v="slope" />
		<tag k="place" v="locality" />
		<tag k="ssr:stedsnr" v="531896" />
	</node>
	<node id="-568987" lat="62.33556111" lon="7.54646943813">
		<tag k="name" v="Fagrehjellen" />
		<tag k="place" v="locality" />
		<tag k="ssr:stedsnr" v="531836" />
	</node>
	<node id="-568982" lat="62.2101305569" lon="7.34406388808">
		<tag k="name" v="Kallskarhamrane" />
		<tag k="place" v="locality" />
		<tag k="ssr:stedsnr" v="531626" />
	</node>
	<node id="-568981" lat="62.2922805548" lon="7.35851666312">
		<tag k="name" v="Nedste Vedaflæene" />
		<tag k="natural" v="cliff" />
		<tag k="ssr:stedsnr" v="531504" />
	</node>
	<node id="-568980" lat="62.2192694423" lon="7.30269999177">
		<tag k="name" v="Dampfosshaugen" />
		<tag k="natural" v="slope" />
		<tag k="place" v="locality" />
		<tag k="ssr:stedsnr" v="531405" />
	</node>
	<node id="-568978" lat="62.2672694436" lon="7.35309444731">
		<tag k="name" v="Lia" />
		<tag k="natural" v="slope" />
		<tag k="place" v="locality" />
		<tag k="ssr:stedsnr" v="531322" />
	</node>
	<node id="-568977" lat="62.2628972249" lon="7.36860832873">
		<tag k="name" v="Kavlehammaren" />
		<tag k="natural" v="hill" />
		<tag k="place" v="locality" />
		<tag k="ssr:stedsnr" v="531253" />
	</node>
	<node id="-568976" lat="62.2687833358" lon="7.12258333686">
		<tag k="name" v="Nøsa" />
		<tag k="natural" v="slope" />
		<tag k="place" v="locality" />
		<tag k="ssr:stedsnr" v="531178" />
	</node>
	<node id="-568975" lat="62.3566722259" lon="7.35588332924">
		<tag k="name" v="Høybrauta" />
		<tag k="natural" v="slope" />
		<tag k="place" v="locality" />
		<tag k="ssr:stedsnr" v="531150" />
	</node>
	<node id="-568974" lat="62.3509277756" lon="7.33891665774">
		<tag k="name" v="Seljehaugen" />
		<tag k="natural" v="hill" />
		<tag k="place" v="locality" />
		<tag k="ssr:stedsnr" v="531146" />
	</node>
	<node id="-568973" lat="62.3249749999" lon="7.39470832585">
		<tag k="name" v="Svorakamben" />
		<tag k="place" v="locality" />
		<tag k="ssr:stedsnr" v="531129" />
	</node>
	<node id="-568969" lat="62.1959944452" lon="7.43191667301">
		<tag k="name" v="Heimste Furaksla" />
		<tag k="place" v="locality" />
		<tag k="ssr:stedsnr" v="530950" />
	</node>
	<node id="-568967" lat="62.3699305597" lon="7.55103055456">
		<tag k="name" v="Lægdene" />
		<tag k="natural" v="slope" />
		<tag k="place" v="locality" />
		<tag k="ssr:stedsnr" v="530855" />
	</node>
	<node id="-568965" lat="62.2604277738" lon="7.44563888642">
		<tag k="name" v="Buskredene" />
		<tag k="place" v="locality" />
		<tag k="ssr:stedsnr" v="530787" />
	</node>
	<node id="-568963" lat="62.221119443" lon="7.41775833506">
		<tag k="fixme" v="consider natural=peak for the most distinct mountains in the district" />
		<tag k="name" v="Vassbakkbruna" />
		<tag k="natural" v="hill" />
		<tag k="place" v="locality" />
		<tag k="ssr:stedsnr" v="530760" />
	</node>
	<node id="-568961" lat="62.3344083317" lon="7.40271389562">
		<tag k="name" v="Klovsætra" />
		<tag k="natural" v="hill" />
		<tag k="place" v="locality" />
		<tag k="ssr:stedsnr" v="530666" />
	</node>
	<node id="-568958" lat="62.1814416658" lon="7.34664722297">
		<tag k="name" v="Koppen" />
		<tag k="natural" v="hill" />
		<tag k="place" v="locality" />
		<tag k="ssr:stedsnr" v="530543" />
	</node>
	<node id="-568955" lat="62.327369448" lon="7.35021389637">
		<tag k="name" v="Øvstelømarka" />
		<tag k="natural" v="slope" />
		<tag k="place" v="locality" />
		<tag k="ssr:stedsnr" v="530361" />
	</node>
	<node id="-568954" lat="62.3179722245" lon="7.32508056167">
		<tag k="name" v="Storrabben" />
		<tag k="natural" v="slope" />
		<tag k="place" v="locality" />
		<tag k="ssr:stedsnr" v="530341" />
	</node>
	<node id="-568952" lat="62.2774722195" lon="7.07311666678">
		<tag k="fixme" v="consider natural=peak for the most distinct mountains in the district" />
		<tag k="name" v="Skrednakknibba" />
		<tag k="natural" v="hill" />
		<tag k="place" v="locality" />
		<tag k="ssr:stedsnr" v="530189" />
	</node>
	<node id="-568949" lat="62.2955861124" lon="7.1627138983">
		<tag k="name" v="Kroketegjølet" />
		<tag k="natural" v="valley" />
		<tag k="place" v="locality" />
		<tag k="ssr:stedsnr" v="530090" />
	</node>
	<node id="-568946" lat="62.2249416641" lon="7.15116666838">
		<tag k="name" v="Storgjølet" />
		<tag k="natural" v="gorge" />
		<tag k="ssr:stedsnr" v="521390" />
	</node>
	<node id="-568942" lat="62.2496444399" lon="7.15816388144">
		<tag k="name" v="Huldrehaugen" />
		<tag k="natural" v="hill" />
		<tag k="place" v="locality" />
		<tag k="ssr:stedsnr" v="521380" />
	</node>
	<node id="-568939" lat="62.1976611069" lon="7.12835833417">
		<tag k="name" v="Smalebakkane" />
		<tag k="natural" v="slope" />
		<tag k="place" v="locality" />
		<tag k="ssr:stedsnr" v="520400" />
	</node>
	<node id="-568938" lat="62.2540194459" lon="7.18792778065">
		<tag k="name" v="Stofferhjellen" />
		<tag k="place" v="locality" />
		<tag k="ssr:stedsnr" v="520390" />
	</node>
	<node id="-568934" lat="62.4087583346" lon="7.60076945249">
		<tag k="fixme" v="consider natural=peak for the most distinct mountains in the district" />
		<tag k="name" v="Meiadalskoppegga" />
		<tag k="natural" v="hill" />
		<tag k="place" v="locality" />
		<tag k="ssr:stedsnr" v="508091" />
	</node>
	<node id="-568929" lat="62.2730972188" lon="7.50280556273">
		<tag k="alt_name" v="Neskoppen, heimste" />
		<tag k="name" v="Heimste Neskoppen" />
		<tag k="natural" v="valley" />
		<tag k="place" v="locality" />
		<tag k="ssr:stedsnr" v="497814" />
	</node>
	<node id="-568928" lat="62.3912138888" lon="7.36738333252">
		<tag k="fixme" v="consider natural=peak for the most distinct mountains in the district" />
		<tag k="name" v="Taskedalstinden" />
		<tag k="natural" v="hill" />
		<tag k="place" v="locality" />
		<tag k="ssr:stedsnr" v="496956" />
	</node>
	<node id="-568927" lat="62.3877305544" lon="7.39053055288">
		<tag k="fixme" v="consider natural=peak for the most distinct mountains in the district" />
		<tag k="name" v="Brekkehornet" />
		<tag k="natural" v="hill" />
		<tag k="place" v="locality" />
		<tag k="ssr:stedsnr" v="496952" />
	</node>
	<node id="-568926" lat="62.2773472249" lon="7.41425555952">
		<tag k="fixme" v="consider natural=peak for the most distinct mountains in the district" />
		<tag k="name" v="Årølaksla" />
		<tag k="natural" v="hill" />
		<tag k="place" v="locality" />
		<tag k="ssr:stedsnr" v="496861" />
	</node>
	<node id="-568923" lat="62.3503194422" lon="7.56624444159">
		<tag k="name" v="Breifonna" />
		<tag k="natural" v="slope" />
		<tag k="place" v="locality" />
		<tag k="ssr:stedsnr" v="496808" />
	</node>
	<node id="-568922" lat="62.3559333374" lon="7.33048055251">
		<tag k="name" v="Ytstebotn" />
		<tag k="natural" v="valley" />
		<tag k="place" v="locality" />
		<tag k="ssr:stedsnr" v="496803" />
	</node>
	<node id="-568920" lat="62.3191388903" lon="7.70918054808">
		<tag k="fixme" v="consider natural=peak for the most distinct mountains in the district" />
		<tag k="name" v="Bjørnegga" />
		<tag k="natural" v="hill" />
		<tag k="place" v="locality" />
		<tag k="ssr:stedsnr" v="496786" />
	</node>
	<node id="-568919" lat="62.3359416669" lon="7.69442499517">
		<tag k="fixme" v="consider natural=peak for the most distinct mountains in the district" />
		<tag k="name" v="Sylkoppegga" />
		<tag k="natural" v="hill" />
		<tag k="place" v="locality" />
		<tag k="ssr:stedsnr" v="496771" />
	</node>
	<node id="-568918" lat="62.313669441" lon="7.18965000331">
		<tag k="name" v="Meddalsheia" />
		<tag k="natural" v="hill" />
		<tag k="old_name" v="Medalsheia" />
		<tag k="place" v="locality" />
		<tag k="ssr:stedsnr" v="496614" />
	</node>
	<node id="-568915" lat="62.2479833311" lon="7.1559833426">
		<tag k="name" v="Øyane" />
		<tag k="place" v="locality" />
		<tag k="ssr:stedsnr" v="496285" />
	</node>
	<node id="-568913" lat="62.2266750028" lon="7.4348277765">
		<tag k="name" v="Jimdalen" />
		<tag k="natural" v="valley" />
		<tag k="place" v="locality" />
		<tag k="ssr:stedsnr" v="496023" />
	</node>
	<node id="-568909" lat="62.3220861071" lon="7.39831389751">
		<tag k="name" v="Furehjellene" />
		<tag k="place" v="locality" />
		<tag k="ssr:stedsnr" v="471687" />
	</node>
	<node id="-568907" lat="62.2551416705" lon="7.22464721923">
		<tag k="name" v="Ytste Murteberget" />
		<tag k="natural" v="hill" />
		<tag k="place" v="locality" />
		<tag k="ssr:stedsnr" v="470943" />
	</node>
	<node id="-568906" lat="62.2061194417" lon="7.50961389658">
		<tag k="name" v="Klungreskreda" />
		<tag k="place" v="locality" />
		<tag k="ssr:stedsnr" v="470940" />
	</node>
	<node id="-568905" lat="62.2288000026" lon="7.23383888875">
		<tag k="name" v="Nonshaugen" />
		<tag k="natural" v="hill" />
		<tag k="place" v="locality" />
		<tag k="ssr:stedsnr" v="470844" />
	</node>
	<node id="-568904" lat="62.3419166624" lon="7.53945833155">
		<tag k="name" v="Kolmilrabben" />
		<tag k="natural" v="slope" />
		<tag k="place" v="locality" />
		<tag k="ssr:stedsnr" v="470813" />
	</node>
	<node id="-568901" lat="62.3012722186" lon="7.22533055379">
		<tag k="name" v="Litllia" />
		<tag k="natural" v="slope" />
		<tag k="place" v="locality" />
		<tag k="ssr:stedsnr" v="470772" />
	</node>
	<node id="-568897" lat="62.3309108891" lon="7.50700496707">
		<tag k="name" v="Grønningfonna" />
		<tag k="place" v="locality" />
		<tag k="ssr:stedsnr" v="470663" />
	</node>
	<node id="-568896" lat="62.3348055564" lon="7.40034721595">
		<tag k="name" v="Sildegarnshamrane" />
		<tag k="natural" v="hill" />
		<tag k="place" v="locality" />
		<tag k="ssr:stedsnr" v="470661" />
	</node>
	<node id="-568895" lat="62.3518888849" lon="7.40243056246">
		<tag k="name" v="Midtremen" />
		<tag k="place" v="locality" />
		<tag k="ssr:stedsnr" v="470659" />
	</node>
	<node id="-568894" lat="62.3301972202" lon="7.4010777683">
		<tag k="name" v="Skredene" />
		<tag k="place" v="locality" />
		<tag k="ssr:stedsnr" v="470658" />
	</node>
	<node id="-568893" lat="62.3254805551" lon="7.45988054748">
		<tag k="name" v="Håkåhola" />
		<tag k="natural" v="valley" />
		<tag k="place" v="locality" />
		<tag k="ssr:stedsnr" v="470652" />
	</node>
	<node id="-568890" lat="62.1905722266" lon="7.34965556193">
		<tag k="name" v="Småhamrane" />
		<tag k="natural" v="ridge" />
		<tag k="place" v="locality" />
		<tag k="ssr:stedsnr" v="470527" />
	</node>
	<node id="-568888" lat="62.3019444474" lon="7.29372221887">
		<tag k="name" v="Rusetdalen" />
		<tag k="natural" v="valley" />
		<tag k="place" v="locality" />
		<tag k="ssr:stedsnr" v="470483" />
	</node>
	<node id="-568886" lat="62.3046250043" lon="7.33154721371">
		<tag k="name" v="Djuplia" />
		<tag k="natural" v="slope" />
		<tag k="place" v="locality" />
		<tag k="ssr:stedsnr" v="470429" />
	</node>
	<node id="-568884" lat="62.3290055578" lon="7.31168333844">
		<tag k="name" v="Valldalsfonna" />
		<tag k="place" v="locality" />
		<tag k="ssr:stedsnr" v="470256" />
	</node>
	<node id="-568881" lat="62.1759194412" lon="7.51728610659">
		<tag k="name" v="Hallstadsletta" />
		<tag k="place" v="locality" />
		<tag k="ssr:stedsnr" v="470202" />
	</node>
	<node id="-568879" lat="62.2010749961" lon="7.23810833771">
		<tag k="name" v="Fremste Raset" />
		<tag k="place" v="locality" />
		<tag k="ssr:stedsnr" v="470158" />
	</node>
	<node id="-568877" lat="62.3680805536" lon="7.36831944537">
		<tag k="name" v="Brekka" />
		<tag k="natural" v="slope" />
		<tag k="place" v="locality" />
		<tag k="ssr:stedsnr" v="470144" />
	</node>
	<node id="-568875" lat="62.3250388873" lon="7.34583888142">
		<tag k="name" v="Sæterhjellane" />
		<tag k="place" v="locality" />
		<tag k="ssr:stedsnr" v="470128" />
	</node>
	<node id="-568872" lat="62.2740111151" lon="7.10065833023">
		<tag k="name" v="Nausane" />
		<tag k="natural" v="ridge" />
		<tag k="place" v="locality" />
		<tag k="ssr:stedsnr" v="470108" />
	</node>
	<node id="-568871" lat="62.2147555574" lon="7.4487944427">
		<tag k="name" v="Breinausane" />
		<tag k="natural" v="ridge" />
		<tag k="place" v="locality" />
		<tag k="ssr:stedsnr" v="470098" />
	</node>
	<node id="-568870" lat="62.2134027789" lon="7.46100556473">
		<tag k="name" v="Buskredgrova" />
		<tag k="natural" v="valley" />
		<tag k="place" v="locality" />
		<tag k="ssr:stedsnr" v="470095" />
	</node>
	<node id="-568869" lat="62.1754250036" lon="7.4253694348">
		<tag k="name" v="Kvilebakken" />
		<tag k="natural" v="slope" />
		<tag k="place" v="locality" />
		<tag k="ssr:stedsnr" v="470090" />
	</node>
	<node id="-568866" lat="62.2529888924" lon="7.23895554599">
		<tag k="name" v="Tørrvangane" />
		<tag k="natural" v="slope" />
		<tag k="place" v="locality" />
		<tag k="ssr:stedsnr" v="469947" />
	</node>
	<node id="-568865" lat="62.3234277772" lon="7.28026667083">
		<tag k="name" v="Almedyfta" />
		<tag k="natural" v="slope" />
		<tag k="place" v="locality" />
		<tag k="ssr:stedsnr" v="469383" />
	</node>
	<node id="-568864" lat="62.3218111069" lon="7.30052221599">
		<tag k="name" v="Rongane" />
		<tag k="natural" v="slope" />
		<tag k="place" v="locality" />
		<tag k="ssr:stedsnr" v="469379" />
	</node>
	<node id="-568862" lat="62.3296722194" lon="7.34857223131">
		<tag k="name" v="Løsetbrauta" />
		<tag k="natural" v="slope" />
		<tag k="place" v="locality" />
		<tag k="ssr:stedsnr" v="469334" />
	</node>
	<node id="-568861" lat="62.3052694432" lon="7.28081944811">
		<tag k="name" v="Longhammaren" />
		<tag k="natural" v="hill" />
		<tag k="place" v="locality" />
		<tag k="ssr:stedsnr" v="469325" />
	</node>
	<node id="-568860" lat="62.3458833335" lon="7.38851389088">
		<tag k="name" v="Gjerda" />
		<tag k="natural" v="slope" />
		<tag k="place" v="locality" />
		<tag k="ssr:stedsnr" v="469273" />
	</node>
	<node id="-568859" lat="62.3338861102" lon="7.59093888878">
		<tag k="name" v="Trollkyrkja" />
		<tag k="natural" v="hill" />
		<tag k="place" v="locality" />
		<tag k="ssr:stedsnr" v="469222" />
	</node>
	<node id="-568855" lat="62.4179583301" lon="7.64009721898">
		<tag k="name" v="Slettevikane" />
		<tag k="place" v="locality" />
		<tag k="ssr:stedsnr" v="470708" />
	</node>
	<node id="-568853" lat="62.2893222197" lon="7.18065556302">
		<tag k="name" v="Åselia" />
		<tag k="natural" v="slope" />
		<tag k="place" v="locality" />
		<tag k="ssr:stedsnr" v="469073" />
	</node>
	<node id="-568848" lat="62.226994445" lon="7.13902221863">
		<tag k="name" v="Rønnebergjuvet" />
		<tag k="natural" v="gorge" />
		<tag k="ssr:stedsnr" v="460437" />
	</node>
	<node id="-568846" lat="62.251213886" lon="7.21501388136">
		<tag k="name" v="Jonsokskjerva" />
		<tag k="natural" v="ridge" />
		<tag k="place" v="locality" />
		<tag k="ssr:stedsnr" v="459363" />
	</node>
	<node id="-568838" lat="62.3313166699" lon="7.46714722778">
		<tag k="name" v="Gudbrandsjuvet" />
		<tag k="natural" v="gorge" />
		<tag k="ssr:stedsnr" v="448101" />
	</node>
	<node id="-568830" lat="62.2814861145" lon="7.4750027812">
		<tag k="fixme" v="consider natural=peak for the most distinct mountains in the district" />
		<tag k="name" v="Trollkyrkja" />
		<tag k="natural" v="hill" />
		<tag k="place" v="locality" />
		<tag k="ssr:stedsnr" v="436812" />
	</node>
	<node id="-568827" lat="62.3306111069" lon="7.2335972251">
		<tag k="name" v="Jamtebotn" />
		<tag k="natural" v="valley" />
		<tag k="place" v="locality" />
		<tag k="ssr:stedsnr" v="436747" />
	</node>
	<node id="-568822" lat="62.3209444449" lon="7.7518083429">
		<tag k="fixme" v="consider natural=peak for the most distinct mountains in the district" />
		<tag k="name" v="Bjørnabottinden" />
		<tag k="natural" v="hill" />
		<tag k="place" v="locality" />
		<tag k="ssr:stedsnr" v="436204" />
	</node>
	<node id="-568821" lat="62.18439722" lon="7.73452777664">
		<tag k="fixme" v="consider natural=peak for the most distinct mountains in the district" />
		<tag k="name" v="Karitinden" />
		<tag k="natural" v="hill" />
		<tag k="place" v="locality" />
		<tag k="ssr:stedsnr" v="436152" />
	</node>
	<node id="-568819" lat="62.1346500043" lon="7.42302500545">
		<tag k="fixme" v="consider natural=peak for the most distinct mountains in the district" />
		<tag k="name" v="Middagshornet" />
		<tag k="natural" v="hill" />
		<tag k="place" v="locality" />
		<tag k="ssr:stedsnr" v="436080" />
	</node>
	<node id="-568818" lat="62.1082138912" lon="7.42604444635">
		<tag k="name" v="Fagerbotnhalsen" />
		<tag k="natural" v="valley" />
		<tag k="place" v="locality" />
		<tag k="ssr:stedsnr" v="436070" />
	</node>
	<node id="-568816" lat="62.1859361082" lon="7.62030277834">
		<tag k="name" v="Glupen" />
		<tag k="natural" v="valley" />
		<tag k="place" v="locality" />
		<tag k="ssr:stedsnr" v="436061" />
	</node>
	<node id="-568813" lat="62.1924749967" lon="7.23916666643">
		<tag k="name" v="Langhaugane" />
		<tag k="natural" v="hill" />
		<tag k="place" v="locality" />
		<tag k="ssr:stedsnr" v="436010" />
	</node>
	<node id="-568812" lat="62.4320416676" lon="7.65145834253">
		<tag k="name" v="Alnesreset" />
		<tag k="natural" v="valley" />
		<tag k="place" v="locality" />
		<tag k="ssr:stedsnr" v="435997" />
	</node>
	<node id="-568808" lat="62.3765749956" lon="7.63374444102">
		<tag k="name" v="Litlelangdalen" />
		<tag k="natural" v="valley" />
		<tag k="place" v="locality" />
		<tag k="ssr:stedsnr" v="435806" />
	</node>
	<node id="-568807" lat="62.392313891" lon="7.63658889322">
		<tag k="fixme" v="consider natural=peak for the most distinct mountains in the district" />
		<tag k="name" v="Bjorstadfjellet" />
		<tag k="natural" v="hill" />
		<tag k="place" v="locality" />
		<tag k="ssr:stedsnr" v="435799" />
	</node>
	<node id="-568805" lat="62.1879111088" lon="7.0940027734">
		<tag k="fixme" v="consider natural=peak for the most distinct mountains in the district" />
		<tag k="name" v="Eidsheia" />
		<tag k="natural" v="hill" />
		<tag k="place" v="locality" />
		<tag k="ssr:stedsnr" v="435368" />
	</node>
	<node id="-568803" lat="62.0974583357" lon="7.51389999645">
		<tag k="alt_name" v="Hellstugueggi" />
		<tag k="fixme" v="consider natural=peak for the most distinct mountains in the district" />
		<tag k="loc_name" v="Helleggje" />
		<tag k="name" v="Helleggi" />
		<tag k="natural" v="hill" />
		<tag k="place" v="locality" />
		<tag k="ssr:stedsnr" v="435157" />
	</node>
	<node id="-568802" lat="62.2300777755" lon="7.69924999225">
		<tag k="fixme" v="consider natural=peak for the most distinct mountains in the district" />
		<tag k="name" v="Isholfjellet" />
		<tag k="natural" v="hill" />
		<tag k="place" v="locality" />
		<tag k="ssr:stedsnr" v="435043" />
	</node>
	<node id="-568797" lat="62.2614805538" lon="7.51033888615">
		<tag k="name" v="Muldalen" />
		<tag k="natural" v="valley" />
		<tag k="place" v="locality" />
		<tag k="ssr:stedsnr" v="267892" />
	</node>
	<node id="-568794" lat="62.3126444427" lon="7.42773611339">
		<tag k="fixme" v="consider natural=peak for the most distinct mountains in the district" />
		<tag k="name" v="Litlehesten" />
		<tag k="natural" v="hill" />
		<tag k="place" v="locality" />
		<tag k="ssr:stedsnr" v="263909" />
	</node>
	<node id="-568788" lat="62.3189972197" lon="7.21847222214">
		<tag k="fixme" v="consider natural=peak for the most distinct mountains in the district" />
		<tag k="name" v="Veslenebba" />
		<tag k="natural" v="hill" />
		<tag k="place" v="locality" />
		<tag k="ssr:stedsnr" v="254732" />
	</node>
	<node id="-568787" lat="62.3013722192" lon="7.19073610512">
		<tag k="name" v="Hunden" />
		<tag k="natural" v="hill" />
		<tag k="place" v="locality" />
		<tag k="ssr:stedsnr" v="254579" />
	</node>
	<node id="-568784" lat="62.1194500009" lon="7.47551667543">
		<tag k="fixme" v="consider natural=peak for the most distinct mountains in the district" />
		<tag k="name" v="Kollhø" />
		<tag k="natural" v="hill" />
		<tag k="place" v="locality" />
		<tag k="ssr:stedsnr" v="254062" />
	</node>
	<node id="-568783" lat="62.1173055538" lon="7.55425832641">
		<tag k="fixme" v="consider natural=peak for the most distinct mountains in the district" />
		<tag k="name" v="Nibba" />
		<tag k="natural" v="hill" />
		<tag k="place" v="locality" />
		<tag k="ssr:stedsnr" v="254060" />
	</node>
	<node id="-568781" lat="62.1846666677" lon="7.53096389472">
		<tag k="fixme" v="consider natural=peak for the most distinct mountains in the district" />
		<tag k="name" v="Rødalsegga" />
		<tag k="natural" v="hill" />
		<tag k="place" v="locality" />
		<tag k="ssr:stedsnr" v="254045" />
	</node>
	<node id="-568776" lat="62.1594419205" lon="7.18519617739">
		<tag k="name" v="Hesjedalen" />
		<tag k="natural" v="valley" />
		<tag k="place" v="locality" />
		<tag k="ssr:stedsnr" v="253406" />
	</node>
	<node id="-568773" lat="62.1435583317" lon="7.52958055666">
		<tag k="fixme" v="consider natural=peak for the most distinct mountains in the district" />
		<tag k="name" v="Kassane" />
		<tag k="natural" v="hill" />
		<tag k="place" v="locality" />
		<tag k="ssr:stedsnr" v="253071" />
	</node>
	<node id="-568772" lat="62.210097221" lon="7.24410278337">
		<tag k="name" v="Dyrdalen" />
		<tag k="natural" v="valley" />
		<tag k="place" v="locality" />
		<tag k="ssr:stedsnr" v="253032" />
	</node>
	<node id="-568768" lat="62.203683337" lon="7.57148887999">
		<tag k="fixme" v="consider natural=peak for the most distinct mountains in the district" />
		<tag k="name" v="Skjervløypfjellet" />
		<tag k="natural" v="hill" />
		<tag k="place" v="locality" />
		<tag k="ssr:stedsnr" v="253006" />
	</node>
	<node id="-568767" lat="62.1886333333" lon="7.49310555094">
		<tag k="name" v="Fagrehaugen" />
		<tag k="natural" v="hill" />
		<tag k="place" v="locality" />
		<tag k="ssr:stedsnr" v="228978" />
	</node>
	<node id="-568766" lat="62.1790388888" lon="7.51414443521">
		<tag k="name" v="Mjølkesletta" />
		<tag k="place" v="locality" />
		<tag k="ssr:stedsnr" v="228970" />
	</node>
	<node id="-568765" lat="62.3827944408" lon="7.55509722018">
		<tag k="name" v="Dalebrauta" />
		<tag k="natural" v="slope" />
		<tag k="place" v="locality" />
		<tag k="ssr:stedsnr" v="228900" />
	</node>
	<node id="-568762" lat="62.3000222238" lon="7.21982778678">
		<tag k="name" v="Byrkjehjellen" />
		<tag k="place" v="locality" />
		<tag k="ssr:stedsnr" v="228805" />
	</node>
	<node id="-568759" lat="62.2942000028" lon="7.28935833072">
		<tag k="name" v="Jaktenausthaugen" />
		<tag k="natural" v="hill" />
		<tag k="place" v="locality" />
		<tag k="ssr:stedsnr" v="228565" />
	</node>
	<node id="-568758" lat="62.3034638881" lon="7.31495000472">
		<tag k="name" v="Lyhammaren" />
		<tag k="natural" v="hill" />
		<tag k="place" v="locality" />
		<tag k="ssr:stedsnr" v="228490" />
	</node>
	<node id="-568756" lat="62.3351444419" lon="7.31538054697">
		<tag k="name" v="Breirinden" />
		<tag k="natural" v="ridge" />
		<tag k="place" v="locality" />
		<tag k="ssr:stedsnr" v="228317" />
	</node>
	<node id="-568755" lat="62.3347750043" lon="7.31062776799">
		<tag k="name" v="Valldalskloven" />
		<tag k="natural" v="valley" />
		<tag k="place" v="locality" />
		<tag k="ssr:stedsnr" v="228315" />
	</node>
	<node id="-568753" lat="62.3223444466" lon="7.38069443747">
		<tag k="name" v="Lauvbreilia" />
		<tag k="natural" v="slope" />
		<tag k="place" v="locality" />
		<tag k="ssr:stedsnr" v="228133" />
	</node>
	<node id="-568750" lat="62.2543416694" lon="7.22365833482">
		<tag k="name" v="Inste Murteberget" />
		<tag k="natural" v="hill" />
		<tag k="place" v="locality" />
		<tag k="ssr:stedsnr" v="227929" />
	</node>
	<node id="-568749" lat="62.2578583336" lon="7.21907499885">
		<tag k="name" v="Gardsenden" />
		<tag k="natural" v="slope" />
		<tag k="place" v="locality" />
		<tag k="ssr:stedsnr" v="227919" />
	</node>
	<node id="-568748" lat="62.3551305566" lon="7.5565416701">
		<tag k="name" v="Småløvollen" />
		<tag k="natural" v="hill" />
		<tag k="place" v="locality" />
		<tag k="ssr:stedsnr" v="227863" />
	</node>
	<node id="-568746" lat="62.3330277806" lon="7.51836944334">
		<tag k="name" v="Slætterabben" />
		<tag k="place" v="locality" />
		<tag k="ssr:stedsnr" v="227821" />
	</node>
	<node id="-568745" lat="62.3370305537" lon="7.57609166701">
		<tag k="name" v="Skåla" />
		<tag k="natural" v="hill" />
		<tag k="place" v="locality" />
		<tag k="ssr:stedsnr" v="227790" />
	</node>
	<node id="-568744" lat="62.3417611129" lon="7.54909444736">
		<tag k="name" v="Jonsokskjerva" />
		<tag k="natural" v="hill" />
		<tag k="place" v="locality" />
		<tag k="ssr:stedsnr" v="227785" />
	</node>
	<node id="-568741" lat="62.3393249979" lon="7.39871112054">
		<tag k="name" v="Brattbergane" />
		<tag k="natural" v="hill" />
		<tag k="place" v="locality" />
		<tag k="ssr:stedsnr" v="227634" />
	</node>
	<node id="-568736" lat="62.3109888902" lon="7.32137222409">
		<tag k="name" v="Kvithammaren" />
		<tag k="natural" v="hill" />
		<tag k="place" v="locality" />
		<tag k="ssr:stedsnr" v="227322" />
	</node>
	<node id="-568734" lat="62.335963892" lon="7.39428611015">
		<tag k="name" v="Osphaugen" />
		<tag k="natural" v="hill" />
		<tag k="place" v="locality" />
		<tag k="ssr:stedsnr" v="227285" />
	</node>
	<node id="-568732" lat="62.2637416709" lon="7.40487222885">
		<tag k="name" v="Grynnvikkolvet" />
		<tag k="natural" v="valley" />
		<tag k="place" v="locality" />
		<tag k="ssr:stedsnr" v="227232" />
	</node>
	<node id="-568729" lat="62.19782222" lon="7.14289166986">
		<tag k="name" v="Åsenden" />
		<tag k="natural" v="ridge" />
		<tag k="place" v="locality" />
		<tag k="ssr:stedsnr" v="218456" />
	</node>
	<node id="-568727" lat="62.1696777798" lon="7.16875000193">
		<tag k="name" v="Dektene" />
		<tag k="natural" v="valley" />
		<tag k="place" v="locality" />
		<tag k="ssr:stedsnr" v="218450" />
	</node>
	<node id="-568725" lat="62.243616663" lon="7.14337500596">
		<tag k="name" v="Haugberget" />
		<tag k="natural" v="cliff" />
		<tag k="ssr:stedsnr" v="218375" />
	</node>
	<node id="-568724" lat="62.2485666693" lon="7.13906110727">
		<tag k="name" v="Gunnhildhaugen" />
		<tag k="natural" v="hill" />
		<tag k="place" v="locality" />
		<tag k="ssr:stedsnr" v="218376" />
	</node>
	<node id="-568723" lat="62.2531333366" lon="7.15601944246">
		<tag k="name" v="Langereiten" />
		<tag k="natural" v="slope" />
		<tag k="place" v="locality" />
		<tag k="ssr:stedsnr" v="217643" />
	</node>
	<node id="-568722" lat="62.2559194439" lon="7.20823055072">
		<tag k="name" v="Baklia" />
		<tag k="natural" v="slope" />
		<tag k="place" v="locality" />
		<tag k="ssr:stedsnr" v="217398" />
	</node>
	<node id="-568719" lat="62.2900055574" lon="7.16527499912">
		<tag k="name" v="Blikkshammaren" />
		<tag k="natural" v="hill" />
		<tag k="place" v="locality" />
		<tag k="ssr:stedsnr" v="213380" />
	</node>
	<node id="-568712" lat="62.1944456892" lon="7.09220508226">
		<tag k="fixme" v="consider natural=peak for the most distinct mountains in the district" />
		<tag k="name" v="Nonshornet" />
		<tag k="natural" v="hill" />
		<tag k="place" v="locality" />
		<tag k="ssr:stedsnr" v="205834" />
	</node>
	<node id="-568711" lat="62.269436114" lon="7.58411945227">
		<tag k="name" v="Botn" />
		<tag k="natural" v="valley" />
		<tag k="place" v="locality" />
		<tag k="ssr:stedsnr" v="202919" />
	</node>
	<node id="-568707" lat="62.2790388885" lon="7.42792777268">
		<tag k="fixme" v="consider natural=peak for the most distinct mountains in the district" />
		<tag k="name" v="Årøldalstinden" />
		<tag k="natural" v="hill" />
		<tag k="place" v="locality" />
		<tag k="ssr:stedsnr" v="193865" />
	</node>
	<node id="-568706" lat="62.2724972188" lon="7.31924445143">
		<tag k="name" v="Kastedalen" />
		<tag k="natural" v="valley" />
		<tag k="place" v="locality" />
		<tag k="ssr:stedsnr" v="193860" />
	</node>
	<node id="-568703" lat="62.2766611079" lon="7.70450554925">
		<tag k="fixme" v="consider natural=peak for the most distinct mountains in the district" />
		<tag k="name" v="Kollen" />
		<tag k="natural" v="hill" />
		<tag k="place" v="locality" />
		<tag k="ssr:stedsnr" v="193834" />
	</node>
	<node id="-568702" lat="62.3712055594" lon="7.30815277576">
		<tag k="name" v="Kuskaret" />
		<tag k="natural" v="valley" />
		<tag k="place" v="locality" />
		<tag k="ssr:stedsnr" v="193786" />
	</node>
	<node id="-568700" lat="62.3265722253" lon="7.41938056422">
		<tag k="fixme" v="consider natural=peak for the most distinct mountains in the district" />
		<tag k="name" v="Stornyken" />
		<tag k="natural" v="hill" />
		<tag k="place" v="locality" />
		<tag k="ssr:stedsnr" v="193746" />
	</node>
	<node id="-568698" lat="62.3673222242" lon="7.36338610779">
		<tag k="name" v="Taskedalen" />
		<tag k="natural" v="valley" />
		<tag k="place" v="locality" />
		<tag k="ssr:stedsnr" v="193633" />
	</node>
	<node id="-568697" lat="62.2348499998" lon="7.1935499986">
		<tag k="name" v="Nonsdalen" />
		<tag k="natural" v="valley" />
		<tag k="place" v="locality" />
		<tag k="ssr:stedsnr" v="193265" />
	</node>
	<node id="-568696" lat="62.0969249994" lon="7.43045833164">
		<tag k="alt_name" v="Fagerbotn, fremste" />
		<tag k="name" v="Fremste Fagerbotnen" />
		<tag k="natural" v="valley" />
		<tag k="place" v="locality" />
		<tag k="ssr:stedsnr" v="193102" />
	</node>
	<node id="-568695" lat="62.1541777752" lon="7.54048610553">
		<tag k="alt_name" v="Koppane, nedste" />
		<tag k="name" v="Nedste Koppane" />
		<tag k="natural" v="valley" />
		<tag k="place" v="locality" />
		<tag k="ssr:stedsnr" v="193083" />
	</node>
	<node id="-568694" lat="62.1404361132" lon="7.43873889177">
		<tag k="name" v="Sauebotn" />
		<tag k="natural" v="valley" />
		<tag k="place" v="locality" />
		<tag k="ssr:stedsnr" v="193080" />
	</node>
	<node id="-568693" lat="62.1408583329" lon="7.61788054618">
		<tag k="fixme" v="consider natural=peak for the most distinct mountains in the district" />
		<tag k="name" v="Femåna" />
		<tag k="natural" v="hill" />
		<tag k="place" v="locality" />
		<tag k="ssr:stedsnr" v="193076" />
	</node>
	<node id="-568692" lat="62.1406583325" lon="7.58211388526">
		<tag k="fixme" v="consider natural=peak for the most distinct mountains in the district" />
		<tag k="name" v="Svartegga" />
		<tag k="natural" v="hill" />
		<tag k="place" v="locality" />
		<tag k="ssr:stedsnr" v="193075" />
	</node>
	<node id="-568691" lat="62.0929777747" lon="7.45322777374">
		<tag k="fixme" v="consider natural=peak for the most distinct mountains in the district" />
		<tag k="name" v="Langegga" />
		<tag k="natural" v="hill" />
		<tag k="place" v="locality" />
		<tag k="ssr:stedsnr" v="193069" />
	</node>
	<node id="-568689" lat="62.1561916706" lon="7.46426389694">
		<tag k="name" v="Grovdalen" />
		<tag k="natural" v="valley" />
		<tag k="place" v="locality" />
		<tag k="ssr:stedsnr" v="193052" />
	</node>
	<node id="-568685" lat="62.220552778" lon="7.50650832791">
		<tag k="fixme" v="consider natural=peak for the most distinct mountains in the district" />
		<tag k="name" v="Breinausa" />
		<tag k="natural" v="hill" />
		<tag k="place" v="locality" />
		<tag k="ssr:stedsnr" v="193024" />
	</node>
	<node id="-568684" lat="62.2429749998" lon="7.63909999809">
		<tag k="fixme" v="consider natural=peak for the most distinct mountains in the district" />
		<tag k="name" v="Småkoppegga" />
		<tag k="natural" v="hill" />
		<tag k="place" v="locality" />
		<tag k="ssr:stedsnr" v="193020" />
	</node>
	<node id="-568683" lat="62.2388361134" lon="7.68543888819">
		<tag k="fixme" v="consider natural=peak for the most distinct mountains in the district" />
		<tag k="name" v="Storløypfjellet" />
		<tag k="natural" v="hill" />
		<tag k="place" v="locality" />
		<tag k="ssr:stedsnr" v="193019" />
	</node>
	<node id="-568682" lat="62.2013499969" lon="7.62001943503">
		<tag k="fixme" v="consider natural=peak for the most distinct mountains in the district" />
		<tag k="name" v="Lågstolen" />
		<tag k="natural" v="hill" />
		<tag k="place" v="locality" />
		<tag k="ssr:stedsnr" v="193011" />
	</node>
	<node id="-568681" lat="62.2081833337" lon="7.62313056039">
		<tag k="alt_name" v="Reindalen, øvre" />
		<tag k="name" v="Øvre Reindalen" />
		<tag k="natural" v="valley" />
		<tag k="place" v="locality" />
		<tag k="ssr:stedsnr" v="193009" />
	</node>
	<node id="-568680" lat="62.2012083344" lon="7.31372778538">
		<tag k="fixme" v="consider natural=peak for the most distinct mountains in the district" />
		<tag k="name" v="Stansen" />
		<tag k="natural" v="hill" />
		<tag k="place" v="locality" />
		<tag k="ssr:stedsnr" v="193004" />
	</node>
	<node id="-568679" lat="62.4119638878" lon="7.3377555534">
		<tag k="name" v="Storvasslia" />
		<tag k="natural" v="slope" />
		<tag k="place" v="locality" />
		<tag k="ssr:stedsnr" v="192949" />
	</node>
	<node id="-568674" lat="62.3908444431" lon="7.57672222603">
		<tag k="name" v="Bjørnagjølet" />
		<tag k="natural" v="valley" />
		<tag k="place" v="locality" />
		<tag k="ssr:stedsnr" v="167904" />
	</node>
	<node id="-568672" lat="62.3299416702" lon="7.54161111367">
		<tag k="name" v="Nakkane" />
		<tag k="place" v="locality" />
		<tag k="ssr:stedsnr" v="167825" />
	</node>
	<node id="-568669" lat="62.3366472206" lon="7.56131945115">
		<tag k="name" v="Hammaren" />
		<tag k="natural" v="hill" />
		<tag k="place" v="locality" />
		<tag k="ssr:stedsnr" v="167805" />
	</node>
	<node id="-568668" lat="62.3453250041" lon="7.55693054992">
		<tag k="name" v="Høgrongen" />
		<tag k="place" v="locality" />
		<tag k="ssr:stedsnr" v="167804" />
	</node>
	<node id="-568667" lat="62.2584777787" lon="7.50108056482">
		<tag k="name" v="Kvislehaugane" />
		<tag k="natural" v="hill" />
		<tag k="place" v="locality" />
		<tag k="ssr:stedsnr" v="167799" />
	</node>
	<node id="-568666" lat="62.2817916706" lon="7.2635749961">
		<tag k="name" v="Kaldekloven" />
		<tag k="place" v="locality" />
		<tag k="ssr:stedsnr" v="167748" />
	</node>
	<node id="-568664" lat="62.3221222218" lon="7.24221388318">
		<tag k="name" v="Berdalsbotnen" />
		<tag k="natural" v="valley" />
		<tag k="place" v="locality" />
		<tag k="ssr:stedsnr" v="167658" />
	</node>
	<node id="-568663" lat="62.2970138855" lon="7.30249721328">
		<tag k="name" v="Kyrkjeteigflåna" />
		<tag k="natural" v="cliff" />
		<tag k="ssr:stedsnr" v="167547" />
	</node>
	<node id="-568662" lat="62.2940277784" lon="7.34479444343">
		<tag k="name" v="Stigflåna" />
		<tag k="natural" v="cliff" />
		<tag k="ssr:stedsnr" v="167530" />
	</node>
	<node id="-568661" lat="62.2843555569" lon="7.36803610174">
		<tag k="name" v="Grasskredene" />
		<tag k="place" v="locality" />
		<tag k="ssr:stedsnr" v="167522" />
	</node>
	<node id="-568659" lat="62.2856083367" lon="7.32082776919">
		<tag k="name" v="Uksneshaugane" />
		<tag k="natural" v="hill" />
		<tag k="place" v="locality" />
		<tag k="ssr:stedsnr" v="167503" />
	</node>
	<node id="-568658" lat="62.3325499991" lon="7.30816111416">
		<tag k="name" v="Styggesvodene" />
		<tag k="place" v="locality" />
		<tag k="ssr:stedsnr" v="167310" />
	</node>
	<node id="-568655" lat="62.3508472249" lon="7.39348611544">
		<tag k="name" v="Trampane" />
		<tag k="natural" v="slope" />
		<tag k="place" v="locality" />
		<tag k="ssr:stedsnr" v="167152" />
	</node>
	<node id="-568654" lat="62.3215805578" lon="7.33598611231">
		<tag k="name" v="Klingrehamrane" />
		<tag k="natural" v="hill" />
		<tag k="place" v="locality" />
		<tag k="ssr:stedsnr" v="167151" />
	</node>
	<node id="-568653" lat="62.3230999964" lon="7.36374999097">
		<tag k="name" v="Breirinden" />
		<tag k="natural" v="ridge" />
		<tag k="place" v="locality" />
		<tag k="ssr:stedsnr" v="167148" />
	</node>
	<node id="-568651" lat="62.272547226" lon="7.14409443881">
		<tag k="name" v="Storgjølet" />
		<tag k="natural" v="valley" />
		<tag k="place" v="locality" />
		<tag k="ssr:stedsnr" v="167140" />
	</node>
	<node id="-568649" lat="62.215122226" lon="7.41751110864">
		<tag k="name" v="Raudnakken" />
		<tag k="natural" v="ridge" />
		<tag k="place" v="locality" />
		<tag k="ssr:stedsnr" v="167104" />
	</node>
	<node id="-568646" lat="62.2066861093" lon="7.43768889275">
		<tag k="name" v="Blomgjølet" />
		<tag k="natural" v="valley" />
		<tag k="place" v="locality" />
		<tag k="ssr:stedsnr" v="167088" />
	</node>
	<node id="-568645" lat="62.2413750007" lon="7.24628611172">
		<tag k="name" v="Fjøsgjølet" />
		<tag k="natural" v="valley" />
		<tag k="place" v="locality" />
		<tag k="ssr:stedsnr" v="166948" />
	</node>
	<node id="-568644" lat="62.2533138919" lon="7.44351388183">
		<tag k="name" v="Furehaugen" />
		<tag k="natural" v="hill" />
		<tag k="place" v="locality" />
		<tag k="ssr:stedsnr" v="166789" />
	</node>
	<node id="-568643" lat="62.240700003" lon="7.43717499208">
		<tag k="fixme" v="consider natural=peak for the most distinct mountains in the district" />
		<tag k="name" v="Øvsteskjervane" />
		<tag k="natural" v="hill" />
		<tag k="place" v="locality" />
		<tag k="ssr:stedsnr" v="166754" />
	</node>
	<node id="-568642" lat="62.2062138863" lon="7.5277305587">
		<tag k="name" v="Storhammaren" />
		<tag k="natural" v="hill" />
		<tag k="place" v="locality" />
		<tag k="ssr:stedsnr" v="166728" />
	</node>
	<node id="-568639" lat="62.3311805566" lon="7.45480277009">
		<tag k="name" v="Longteigane" />
		<tag k="natural" v="slope" />
		<tag k="place" v="locality" />
		<tag k="ssr:stedsnr" v="166666" />
	</node>
	<node id="-568637" lat="62.3359833341" lon="7.41067222379">
		<tag k="name" v="Øvstelægda" />
		<tag k="natural" v="slope" />
		<tag k="place" v="locality" />
		<tag k="ssr:stedsnr" v="166618" />
	</node>
	<node id="-568635" lat="62.2177333294" lon="7.30256389529">
		<tag k="name" v="Fursetbøen" />
		<tag k="natural" v="slope" />
		<tag k="place" v="locality" />
		<tag k="ssr:stedsnr" v="166573" />
	</node>
	<node id="-568632" lat="62.3198861105" lon="7.2942250045">
		<tag k="name" v="Urigjerda" />
		<tag k="natural" v="slope" />
		<tag k="place" v="locality" />
		<tag k="ssr:stedsnr" v="166378" />
	</node>
	<node id="-568631" lat="62.3236166699" lon="7.29953055336">
		<tag k="name" v="Nausa" />
		<tag k="natural" v="slope" />
		<tag k="place" v="locality" />
		<tag k="ssr:stedsnr" v="166376" />
	</node>
	<node id="-568630" lat="62.3109277768" lon="7.28591388526">
		<tag k="name" v="Furehjellen" />
		<tag k="place" v="locality" />
		<tag k="ssr:stedsnr" v="166321" />
	</node>
	<node id="-568629" lat="62.2693361132" lon="7.33796666464">
		<tag k="name" v="Bolthamrane" />
		<tag k="natural" v="hill" />
		<tag k="place" v="locality" />
		<tag k="ssr:stedsnr" v="166317" />
	</node>
	<node id="-568627" lat="62.26806111" lon="7.33554445313">
		<tag k="name" v="Skredene" />
		<tag k="place" v="locality" />
		<tag k="ssr:stedsnr" v="166272" />
	</node>
	<node id="-568626" lat="62.2797972202" lon="7.309802777">
		<tag k="name" v="Skjenstø" />
		<tag k="place" v="locality" />
		<tag k="ssr:stedsnr" v="166266" />
	</node>
	<node id="-568625" lat="62.4198194467" lon="7.64409443947">
		<tag k="name" v="Slettvikvatnet" />
		<tag k="place" v="locality" />
		<tag k="ssr:stedsnr" v="166252" />
	</node>
	<node id="-568624" lat="62.2882472193" lon="7.16945832906">
		<tag k="name" v="Kjøthola" />
		<tag k="natural" v="valley" />
		<tag k="place" v="locality" />
		<tag k="ssr:stedsnr" v="166064" />
	</node>
	<node id="-568620" lat="62.155761112" lon="7.1821250004">
		<tag k="name" v="Sætrehjellen" />
		<tag k="place" v="locality" />
		<tag k="ssr:stedsnr" v="157347" />
	</node>
	<node id="-568618" lat="62.2075972258" lon="7.12249444937">
		<tag k="name" v="Bjørnahamrane" />
		<tag k="natural" v="ridge" />
		<tag k="place" v="locality" />
		<tag k="ssr:stedsnr" v="156393" />
	</node>
	<node id="-568615" lat="62.1955841755" lon="7.10017120084">
		<tag k="name" v="Nonsdalen" />
		<tag k="natural" v="valley" />
		<tag k="place" v="locality" />
		<tag k="ssr:stedsnr" v="144825" />
	</node>
	<node id="-568614" lat="62.2600027821" lon="7.17054444648">
		<tag k="name" v="Eidsdalen" />
		<tag k="natural" v="valley" />
		<tag k="place" v="locality" />
		<tag k="ssr:stedsnr" v="144807" />
	</node>
	<node id="-568613" lat="62.2864722185" lon="7.49657222322">
		<tag k="name" v="Klombra" />
		<tag k="natural" v="valley" />
		<tag k="place" v="locality" />
		<tag k="ssr:stedsnr" v="142892" />
	</node>
	<node id="-568609" lat="62.3998805594" lon="7.56739723013">
		<tag k="fixme" v="consider natural=peak for the most distinct mountains in the district" />
		<tag k="name" v="Storfjellet" />
		<tag k="natural" v="hill" />
		<tag k="place" v="locality" />
		<tag k="ssr:stedsnr" v="132962" />
	</node>
	<node id="-568598" lat="62.3351527752" lon="7.26194722285">
		<tag k="fixme" v="consider natural=peak for the most distinct mountains in the district" />
		<tag k="name" v="Ormula" />
		<tag k="natural" v="hill" />
		<tag k="place" v="locality" />
		<tag k="ssr:stedsnr" v="132747" />
	</node>
	<node id="-568594" lat="62.2720527767" lon="7.04213054618">
		<tag k="fixme" v="consider natural=peak for the most distinct mountains in the district" />
		<tag k="name" v="Skrednakken" />
		<tag k="natural" v="hill" />
		<tag k="place" v="locality" />
		<tag k="ssr:stedsnr" v="132573" />
	</node>
	<node id="-568593" lat="62.2170416673" lon="7.15998889791">
		<tag k="alt_name" v="Løvollhaugen" />
		<tag k="name" v="Kleivahaugen" />
		<tag k="natural" v="hill" />
		<tag k="place" v="locality" />
		<tag k="ssr:stedsnr" v="132278" />
	</node>
	<node id="-568591" lat="62.1304944462" lon="7.50098610788">
		<tag k="fixme" v="consider natural=peak for the most distinct mountains in the district" />
		<tag k="name" v="Fetegga" />
		<tag k="natural" v="hill" />
		<tag k="place" v="locality" />
		<tag k="ssr:stedsnr" v="132071" />
	</node>
	<node id="-568590" lat="62.1150777787" lon="7.34730554821">
		<tag k="fixme" v="consider natural=peak for the most distinct mountains in the district" />
		<tag k="name" v="Vesteråshornet" />
		<tag k="natural" v="hill" />
		<tag k="place" v="locality" />
		<tag k="ssr:stedsnr" v="132066" />
	</node>
	<node id="-568589" lat="62.1762817865" lon="7.23263482514">
		<tag k="fixme" v="consider natural=peak for the most distinct mountains in the district" />
		<tag k="name" v="Storvasshornet" />
		<tag k="natural" v="hill" />
		<tag k="place" v="locality" />
		<tag k="ssr:stedsnr" v="132047" />
	</node>
	<node id="-568586" lat="62.3942944412" lon="7.78059999712">
		<tag k="fixme" v="consider natural=peak for the most distinct mountains in the district" />
		<tag k="name" v="Salhøa" />
		<tag k="natural" v="hill" />
		<tag k="place" v="locality" />
		<tag k="ssr:stedsnr" v="132020" />
	</node>
	<node id="-568585" lat="62.2294361135" lon="7.29966388944">
		<tag k="name" v="Rindahaugen" />
		<tag k="natural" v="hill" />
		<tag k="place" v="locality" />
		<tag k="ssr:stedsnr" v="132014" />
	</node>
	<node id="-568584" lat="62.2063416658" lon="7.68675833305">
		<tag k="name" v="Søre Skaret" />
		<tag k="natural" v="valley" />
		<tag k="place" v="locality" />
		<tag k="ssr:stedsnr" v="132008" />
	</node>
	<node id="-568583" lat="62.4233222254" lon="7.67088611092">
		<tag k="fixme" v="consider natural=peak for the most distinct mountains in the district" />
		<tag k="name" v="Skarfjellenden" />
		<tag k="natural" v="hill" />
		<tag k="place" v="locality" />
		<tag k="ssr:stedsnr" v="131955" />
	</node>
	<node id="-568581" lat="62.3044027777" lon="7.46747500859">
		<tag k="name" v="Middagsbotn" />
		<tag k="natural" v="valley" />
		<tag k="place" v="locality" />
		<tag k="ssr:stedsnr" v="131889" />
	</node>
	<node id="-568576" lat="62.3194666708" lon="7.41367777822">
		<tag k="name" v="Svarthammardalen" />
		<tag k="natural" v="valley" />
		<tag k="place" v="locality" />
		<tag k="ssr:stedsnr" v="107604" />
	</node>
	<node id="-568569" lat="62.1834638852" lon="7.42119722718">
		<tag k="name" v="Svarthola" />
		<tag k="place" v="locality" />
		<tag k="ssr:stedsnr" v="106957" />
	</node>
	<node id="-568568" lat="62.2438083372" lon="7.21931389422">
		<tag k="name" v="Neholhaugen" />
		<tag k="natural" v="hill" />
		<tag k="place" v="locality" />
		<tag k="ssr:stedsnr" v="106944" />
	</node>
	<node id="-568567" lat="62.2528999978" lon="7.21842222523">
		<tag k="name" v="Bjønnspjotet" />
		<tag k="place" v="locality" />
		<tag k="ssr:stedsnr" v="106941" />
	</node>
	<node id="-568565" lat="62.2513694437" lon="7.22231110233">
		<tag k="name" v="Breiskreda" />
		<tag k="place" v="locality" />
		<tag k="ssr:stedsnr" v="106939" />
	</node>
	<node id="-568562" lat="62.3461333354" lon="7.54208054906">
		<tag k="name" v="Småløremane" />
		<tag k="natural" v="ridge" />
		<tag k="place" v="locality" />
		<tag k="ssr:stedsnr" v="106804" />
	</node>
	<node id="-568560" lat="62.2296111074" lon="7.42977499641">
		<tag k="name" v="Kamben" />
		<tag k="natural" v="ridge" />
		<tag k="place" v="locality" />
		<tag k="ssr:stedsnr" v="106787" />
	</node>
	<node id="-568559" lat="62.230708333" lon="7.43016389106">
		<tag k="name" v="Bjørnstien" />
		<tag k="place" v="locality" />
		<tag k="ssr:stedsnr" v="106783" />
	</node>
	<node id="-568557" lat="62.23316389" lon="7.41927499662">
		<tag k="name" v="Notavollen" />
		<tag k="place" v="locality" />
		<tag k="ssr:stedsnr" v="106776" />
	</node>
	<node id="-568556" lat="62.2336361109" lon="7.40602778555">
		<tag k="name" v="Saufonna" />
		<tag k="natural" v="valley" />
		<tag k="place" v="locality" />
		<tag k="ssr:stedsnr" v="106771" />
	</node>
	<node id="-568553" lat="62.3365638859" lon="7.48184721977">
		<tag k="name" v="Bjørnastien" />
		<tag k="place" v="locality" />
		<tag k="ssr:stedsnr" v="106670" />
	</node>
	<node id="-568551" lat="62.3399333339" lon="7.42526945164">
		<tag k="name" v="Longhammaren" />
		<tag k="place" v="locality" />
		<tag k="ssr:stedsnr" v="106634" />
	</node>
	<node id="-568550" lat="62.3408666708" lon="7.41479723072">
		<tag k="name" v="Sekken" />
		<tag k="natural" v="slope" />
		<tag k="place" v="locality" />
		<tag k="ssr:stedsnr" v="106627" />
	</node>
	<node id="-568549" lat="62.202350004" lon="7.34648333784">
		<tag k="name" v="Storskreda" />
		<tag k="place" v="locality" />
		<tag k="ssr:stedsnr" v="106578" />
	</node>
	<node id="-568541" lat="62.3254805523" lon="7.29813332611">
		<tag k="name" v="Tussvødene" />
		<tag k="natural" v="hill" />
		<tag k="place" v="locality" />
		<tag k="ssr:stedsnr" v="106356" />
	</node>
	<node id="-568540" lat="62.3261972192" lon="7.30597777">
		<tag k="name" v="Lægdene" />
		<tag k="natural" v="slope" />
		<tag k="place" v="locality" />
		<tag k="ssr:stedsnr" v="106355" />
	</node>
	<node id="-568539" lat="62.3051694452" lon="7.28969166681">
		<tag k="name" v="Stiskaret" />
		<tag k="natural" v="valley" />
		<tag k="place" v="locality" />
		<tag k="ssr:stedsnr" v="106349" />
	</node>
	<node id="-568536" lat="62.3595805541" lon="7.36435834142">
		<tag k="name" v="Myklebustlægdene" />
		<tag k="place" v="locality" />
		<tag k="ssr:stedsnr" v="106160" />
	</node>
	<node id="-568534" lat="62.2928583324" lon="7.17290555516">
		<tag k="name" v="Longelia" />
		<tag k="natural" v="slope" />
		<tag k="place" v="locality" />
		<tag k="ssr:stedsnr" v="106072" />
	</node>
	<node id="-568533" lat="62.2563611082" lon="7.03910556433">
		<tag k="name" v="Storjøkulen" />
		<tag k="natural" v="valley" />
		<tag k="place" v="locality" />
		<tag k="ssr:stedsnr" v="106047" />
	</node>
	<node id="-568532" lat="62.2879388924" lon="7.19621388134">
		<tag k="name" v="Nedste Fannehjellane" />
		<tag k="place" v="locality" />
		<tag k="ssr:stedsnr" v="106016" />
	</node>
	<node id="-568529" lat="62.1873333336" lon="7.13823888585">
		<tag k="name" v="Botnen" />
		<tag k="natural" v="valley" />
		<tag k="place" v="locality" />
		<tag k="ssr:stedsnr" v="96480" />
	</node>
	<node id="-568527" lat="62.2325472261" lon="7.16057222458">
		<tag k="name" v="Fjellenden" />
		<tag k="natural" v="ridge" />
		<tag k="place" v="locality" />
		<tag k="ssr:stedsnr" v="96393" />
	</node>
	<node id="-568526" lat="62.2275138907" lon="7.1553305494">
		<tag k="name" v="Hestehola" />
		<tag k="natural" v="valley" />
		<tag k="place" v="locality" />
		<tag k="ssr:stedsnr" v="96392" />
	</node>
	<node id="-568525" lat="62.2394305534" lon="7.14078611804">
		<tag k="name" v="Åkrahaugen" />
		<tag k="natural" v="hill" />
		<tag k="place" v="locality" />
		<tag k="ssr:stedsnr" v="96386" />
	</node>
	<node id="-568523" lat="62.2487527775" lon="7.20583333603">
		<tag k="name" v="Tryftegjølet" />
		<tag k="natural" v="valley" />
		<tag k="place" v="locality" />
		<tag k="ssr:stedsnr" v="96365" />
	</node>
	<node id="-568511" lat="62.2783138882" lon="7.45687222842">
		<tag k="fixme" v="consider natural=peak for the most distinct mountains in the district" />
		<tag k="name" v="Muldalsegga" />
		<tag k="natural" v="hill" />
		<tag k="place" v="locality" />
		<tag k="ssr:stedsnr" v="72794" />
	</node>
	<node id="-568510" lat="62.351916663" lon="7.69088889479">
		<tag k="fixme" v="consider natural=peak for the most distinct mountains in the district" />
		<tag k="name" v="Knutskoppegga" />
		<tag k="natural" v="hill" />
		<tag k="place" v="locality" />
		<tag k="ssr:stedsnr" v="72783" />
	</node>
	<node id="-568506" lat="62.3204083333" lon="7.20236944121">
		<tag k="fixme" v="consider natural=peak for the most distinct mountains in the district" />
		<tag k="name" v="Berdalsnibba" />
		<tag k="natural" v="hill" />
		<tag k="place" v="locality" />
		<tag k="ssr:stedsnr" v="72501" />
	</node>
	<node id="-568501" lat="62.4192194413" lon="7.74973055118">
		<tag k="fixme" v="consider natural=peak for the most distinct mountains in the district" />
		<tag k="name" v="Skarfjellet" />
		<tag k="natural" v="hill" />
		<tag k="place" v="locality" />
		<tag k="ssr:stedsnr" v="72010" />
	</node>
	<node id="-568500" lat="62.1916722249" lon="7.25949165859">
		<tag k="fixme" v="consider natural=peak for the most distinct mountains in the district" />
		<tag k="name" v="Breiløyfta" />
		<tag k="natural" v="hill" />
		<tag k="place" v="locality" />
		<tag k="ssr:stedsnr" v="72006" />
	</node>
	<node id="-568495" lat="62.3068416656" lon="7.37776666418">
		<tag k="fixme" v="consider natural=peak for the most distinct mountains in the district" />
		<tag k="name" v="Insteheia" />
		<tag k="natural" v="hill" />
		<tag k="place" v="locality" />
		<tag k="ssr:stedsnr" v="71862" />
	</node>
	<node id="-568494" lat="62.3632999971" lon="7.63765278679">
		<tag k="fixme" v="consider natural=peak for the most distinct mountains in the district" />
		<tag k="name" v="Breifjellet" />
		<tag k="natural" v="hill" />
		<tag k="place" v="locality" />
		<tag k="ssr:stedsnr" v="71829" />
	</node>
	<node id="-568493" lat="62.3571444487" lon="7.52766110255">
		<tag k="fixme" v="consider natural=peak for the most distinct mountains in the district" />
		<tag k="name" v="Krikefjellet" />
		<tag k="natural" v="hill" />
		<tag k="place" v="locality" />
		<tag k="ssr:stedsnr" v="71825" />
	</node>
	<node id="-568491" lat="62.3902666641" lon="7.54859166314">
		<tag k="name" v="Berilldalen" />
		<tag k="natural" v="valley" />
		<tag k="place" v="locality" />
		<tag k="ssr:stedsnr" v="71808" />
	</node>
	<node id="-568484" lat="62.1636416647" lon="7.65859999598">
		<tag k="fixme" v="consider natural=peak for the most distinct mountains in the district" />
		<tag k="name" v="Naushornet" />
		<tag k="natural" v="hill" />
		<tag k="old_name" v="Nausthornet" />
		<tag k="place" v="locality" />
		<tag k="ssr:stedsnr" v="71034" />
	</node>
	<node id="-568483" lat="62.2194638867" lon="7.37441945312">
		<tag k="name" v="Kallskaret" />
		<tag k="natural" v="valley" />
		<tag k="place" v="locality" />
		<tag k="ssr:stedsnr" v="71022" />
	</node>
	<node id="-568482" lat="62.2449000005" lon="7.66213055095">
		<tag k="fixme" v="consider natural=peak for the most distinct mountains in the district" />
		<tag k="name" v="Storløypet" />
		<tag k="natural" v="hill" />
		<tag k="place" v="locality" />
		<tag k="ssr:stedsnr" v="71017" />
	</node>
	<node id="-568479" lat="62.4080722224" lon="7.63229721379">
		<tag k="name" v="Haugane" />
		<tag k="natural" v="hill" />
		<tag k="place" v="locality" />
		<tag k="ssr:stedsnr" v="46752" />
	</node>
	<node id="-568477" lat="62.258636111" lon="7.37146667282">
		<tag k="fixme" v="consider natural=peak for the most distinct mountains in the district" />
		<tag k="name" v="Svartfjellet" />
		<tag k="natural" v="hill" />
		<tag k="place" v="locality" />
		<tag k="ssr:stedsnr" v="46582" />
	</node>
	<node id="-568476" lat="62.2868527758" lon="7.35983888734">
		<tag k="name" v="Løberget" />
		<tag k="natural" v="hill" />
		<tag k="place" v="locality" />
		<tag k="ssr:stedsnr" v="46516" />
	</node>
	<node id="-568472" lat="62.2442555559" lon="7.26915000552">
		<tag k="name" v="Rauaklåen" />
		<tag k="natural" v="hill" />
		<tag k="place" v="locality" />
		<tag k="ssr:stedsnr" v="45942" />
	</node>
	<node id="-568471" lat="62.2457138932" lon="7.23803888339">
		<tag k="name" v="Storsethjellen" />
		<tag k="place" v="locality" />
		<tag k="ssr:stedsnr" v="45932" />
	</node>
	<node id="-568468" lat="62.3286305514" lon="7.5067055577">
		<tag k="name" v="Skjervane" />
		<tag k="place" v="locality" />
		<tag k="ssr:stedsnr" v="45632" />
	</node>
	<node id="-568466" lat="62.3516305549" lon="7.41545278553">
		<tag k="name" v="Furehaugen" />
		<tag k="natural" v="hill" />
		<tag k="place" v="locality" />
		<tag k="ssr:stedsnr" v="45612" />
	</node>
	<node id="-568465" lat="62.3355888867" lon="7.3418638971">
		<tag k="name" v="Vollane" />
		<tag k="natural" v="hill" />
		<tag k="place" v="locality" />
		<tag k="ssr:stedsnr" v="45331" />
	</node>
	<node id="-568464" lat="62.3144138934" lon="7.33135833134">
		<tag k="name" v="Knutsjøkulen" />
		<tag k="natural" v="hill" />
		<tag k="place" v="locality" />
		<tag k="ssr:stedsnr" v="45318" />
	</node>
	<node id="-568463" lat="62.267277774" lon="7.34348611552">
		<tag k="name" v="Skjenstøhammaren" />
		<tag k="natural" v="hill" />
		<tag k="place" v="locality" />
		<tag k="ssr:stedsnr" v="45314" />
	</node>
	<node id="-568462" lat="62.3435222222" lon="7.3906583315">
		<tag k="name" v="Rabbane" />
		<tag k="natural" v="slope" />
		<tag k="place" v="locality" />
		<tag k="ssr:stedsnr" v="45285" />
	</node>
	<node id="-568459" lat="62.3314166651" lon="7.58907500057">
		<tag k="name" v="Mjelthaugen" />
		<tag k="natural" v="hill" />
		<tag k="place" v="locality" />
		<tag k="ssr:stedsnr" v="45223" />
	</node>
	<node id="-568455" lat="62.2355694459" lon="7.03650832976">
		<tag k="name" v="Smogeneset" />
		<tag k="natural" v="valley" />
		<tag k="place" v="locality" />
		<tag k="ssr:stedsnr" v="45073" />
	</node>
	<node id="-568453" lat="62.3564138874" lon="7.55349445242">
		<tag k="name" v="Langhaugen" />
		<tag k="natural" v="hill" />
		<tag k="place" v="locality" />
		<tag k="ssr:stedsnr" v="44855" />
	</node>
	<node id="-568450" lat="62.2900138877" lon="7.20045277637">
		<tag k="name" v="Øvste Fannahjellane" />
		<tag k="place" v="locality" />
		<tag k="ssr:stedsnr" v="45017" />
	</node>
	<node id="-568449" lat="62.2542527773" lon="7.1450166723">
		<tag k="name" v="Juva" />
		<tag k="natural" v="gorge" />
		<tag k="ssr:stedsnr" v="35536" />
	</node>
	<node id="-568448" lat="62.2602833363" lon="7.21143054751">
		<tag k="name" v="Nymarka" />
		<tag k="natural" v="slope" />
		<tag k="place" v="locality" />
		<tag k="ssr:stedsnr" v="35532" />
	</node>
	<node id="-568445" lat="62.2154500014" lon="7.13289167063">
		<tag k="name" v="Longhamrane" />
		<tag k="natural" v="ridge" />
		<tag k="place" v="locality" />
		<tag k="ssr:stedsnr" v="35493" />
	</node>
	<node id="-568443" lat="62.2145777759" lon="7.1513333254">
		<tag k="name" v="Storskaret" />
		<tag k="natural" v="valley" />
		<tag k="place" v="locality" />
		<tag k="ssr:stedsnr" v="35469" />
	</node>
	<node id="-568442" lat="62.2380416627" lon="7.13792222633">
		<tag k="name" v="Utløhaugen" />
		<tag k="natural" v="hill" />
		<tag k="place" v="locality" />
		<tag k="ssr:stedsnr" v="35467" />
	</node>
	<node id="-568440" lat="62.2618916675" lon="7.18165833635">
		<tag k="name" v="Reinshammaren" />
		<tag k="natural" v="hill" />
		<tag k="place" v="locality" />
		<tag k="ssr:stedsnr" v="35461" />
	</node>
	<node id="-568434" lat="62.210350002" lon="7.14688611614">
		<tag k="name" v="Laupen" />
		<tag k="natural" v="hill" />
		<tag k="place" v="locality" />
		<tag k="ssr:stedsnr" v="23856" />
	</node>
	<node id="-568433" lat="62.1766611122" lon="7.11244999336">
		<tag k="name" v="Bolletehornet" />
		<tag k="natural" v="hill" />
		<tag k="place" v="locality" />
		<tag k="ssr:stedsnr" v="23855" />
	</node>
	<node id="-568429" lat="62.3968861074" lon="7.33007778425">
		<tag k="name" v="Storreset" />
		<tag k="natural" v="valley" />
		<tag k="place" v="locality" />
		<tag k="ssr:stedsnr" v="11968" />
	</node>
	<node id="-568428" lat="62.3968472228" lon="7.49761943603">
		<tag k="name" v="Berilldalskoppen" />
		<tag k="natural" v="valley" />
		<tag k="place" v="locality" />
		<tag k="ssr:stedsnr" v="11964" />
	</node>
	<node id="-568426" lat="62.2847138852" lon="7.55022778408">
		<tag k="fixme" v="consider natural=peak for the most distinct mountains in the district" />
		<tag k="name" v="Neskopptindane" />
		<tag k="natural" v="hill" />
		<tag k="place" v="locality" />
		<tag k="ssr:stedsnr" v="11871" />
	</node>
	<node id="-568425" lat="62.2845694443" lon="7.40198054925">
		<tag k="name" v="Heggurdalbotn" />
		<tag k="natural" v="valley" />
		<tag k="place" v="locality" />
		<tag k="ssr:stedsnr" v="11869" />
	</node>
	<node id="-568423" lat="62.2689916708" lon="7.63228333967">
		<tag k="fixme" v="consider natural=peak for the most distinct mountains in the district" />
		<tag k="name" v="Illstigegga" />
		<tag k="natural" v="hill" />
		<tag k="place" v="locality" />
		<tag k="ssr:stedsnr" v="11844" />
	</node>
	<node id="-568420" lat="62.3646277753" lon="7.3895861109">
		<tag k="fixme" v="consider natural=peak for the most distinct mountains in the district" />
		<tag k="name" v="Kjørsetdalshornet" />
		<tag k="natural" v="hill" />
		<tag k="place" v="locality" />
		<tag k="ssr:stedsnr" v="11797" />
	</node>
	<node id="-568416" lat="62.1992555544" lon="7.6837749943">
		<tag k="fixme" v="consider natural=peak for the most distinct mountains in the district" />
		<tag k="name" v="Høgstolen" />
		<tag k="natural" v="hill" />
		<tag k="place" v="locality" />
		<tag k="ssr:stedsnr" v="11043" />
	</node>
	<node id="-568415" lat="62.217324997" lon="7.21854167455">
		<tag k="fixme" v="consider natural=peak for the most distinct mountains in the district" />
		<tag k="name" v="Middagshesten" />
		<tag k="natural" v="hill" />
		<tag k="place" v="locality" />
		<tag k="ssr:stedsnr" v="11022" />
	</node>
	<node id="-568414" lat="62.2334138893" lon="7.36695000293">
		<tag k="name" v="Geitvikdalen" />
		<tag k="natural" v="valley" />
		<tag k="place" v="locality" />
		<tag k="ssr:stedsnr" v="11015" />
	</node>
	<node id="-568413" lat="62.4194472246" lon="7.64151111789">
		<tag k="name" v="Slettvikane" />
		<tag k="place" v="locality" />
		<tag k="ssr:stedsnr" v="10945" />
	</node>
	<node id="-568412" lat="62.3120611094" lon="7.3634388855">
		<tag k="fixme" v="consider natural=peak for the most distinct mountains in the district" />
		<tag k="name" v="Mefjellet" />
		<tag k="natural" v="hill" />
		<tag k="place" v="locality" />
		<tag k="ssr:stedsnr" v="10790" />
	</node>
	<node id="-568411" lat="62.2189980643" lon="7.06404388682">
		<tag k="fixme" v="consider natural=peak for the most distinct mountains in the district" />
		<tag k="name" v="Smogehornet" />
		<tag k="natural" v="hill" />
		<tag k="place" v="locality" />
		<tag k="ssr:stedsnr" v="10292" />
	</node>
	<node id="-568410" lat="62.2722527815" lon="7.03496388125">
		<tag k="name" v="Nobba" />
		<tag k="natural" v="ridge" />
		<tag k="place" v="locality" />
		<tag k="ssr:stedsnr" v="92874" />
	</node>
	<node id="-568409" lat="62.1903332177" lon="7.06917659125">
		<tag k="fixme" v="consider natural=peak for the most distinct mountains in the district" />
		<tag k="name" v="Vindshornet" />
		<tag k="natural" v="hill" />
		<tag k="place" v="locality" />
		<tag k="ssr:stedsnr" v="990486" />
	</node>
	<node id="-568408" lat="62.1797487276" lon="7.19976395418">
		<tag k="fixme" v="consider natural=peak for the most distinct mountains in the district" />
		<tag k="name" v="Fremsteskorene" />
		<tag k="natural" v="hill" />
		<tag k="ssr:stedsnr" v="987017" />
	</node>
	<node id="-568407" lat="62.1823769083" lon="7.19496009972">
		<tag k="alt_name" v="Midtiskorene" />
		<tag k="fixme" v="consider natural=peak for the most distinct mountains in the district" />
		<tag k="name" v="Mellomskorene" />
		<tag k="natural" v="hill" />
		<tag k="ssr:stedsnr" v="987015" />
	</node>
	<node id="-568406" lat="62.193123325" lon="7.19869053661">
		<tag k="fixme" v="consider natural=peak for the most distinct mountains in the district" />
		<tag k="name" v="Heimsteskorene" />
		<tag k="natural" v="hill" />
		<tag k="ssr:stedsnr" v="987013" />
	</node>
	<node id="-568396" lat="62.2541055553" lon="7.2503250061">
		<tag k="fixme" v="consider natural=peak for the most distinct mountains in the district" />
		<tag k="name" v="Kvitfjellet" />
		<tag k="natural" v="hill" />
		<tag k="place" v="locality" />
		<tag k="ssr:stedsnr" v="895947" />
	</node>
	<node id="-568395" lat="62.2474055549" lon="7.22779445199">
		<tag k="name" v="Elvasletta" />
		<tag k="place" v="locality" />
		<tag k="ssr:stedsnr" v="895942" />
	</node>
	<node id="-568394" lat="62.2049666631" lon="7.50491943832">
		<tag k="name" v="Rundeskreda" />
		<tag k="place" v="locality" />
		<tag k="ssr:stedsnr" v="895937" />
	</node>
	<node id="-568392" lat="62.2100861102" lon="7.46272221394">
		<tag k="name" v="Fossesletta" />
		<tag k="place" v="locality" />
		<tag k="ssr:stedsnr" v="895936" />
	</node>
	<node id="-568391" lat="62.2061916683" lon="7.5182777715">
		<tag k="name" v="Småskredene" />
		<tag k="place" v="locality" />
		<tag k="ssr:stedsnr" v="895922" />
	</node>
	<node id="-568389" lat="62.2293277738" lon="7.25649165769">
		<tag k="name" v="Litlenykjen" />
		<tag k="natural" v="hill" />
		<tag k="place" v="locality" />
		<tag k="ssr:stedsnr" v="895834" />
	</node>
	<node id="-568387" lat="62.2395055593" lon="7.25130000161">
		<tag k="name" v="Hjellane" />
		<tag k="place" v="locality" />
		<tag k="ssr:stedsnr" v="895814" />
	</node>
	<node id="-568386" lat="62.3329194464" lon="7.53710833476">
		<tag k="name" v="Saghaugen" />
		<tag k="natural" v="hill" />
		<tag k="place" v="locality" />
		<tag k="ssr:stedsnr" v="895802" />
	</node>
	<node id="-568385" lat="62.37901111" lon="7.60674721824">
		<tag k="name" v="Litlehammaren" />
		<tag k="natural" v="hill" />
		<tag k="place" v="locality" />
		<tag k="ssr:stedsnr" v="895794" />
	</node>
	<node id="-568384" lat="62.3896611141" lon="7.58309443711">
		<tag k="name" v="Storskredbrua" />
		<tag k="place" v="locality" />
		<tag k="ssr:stedsnr" v="895792" />
	</node>
	<node id="-568383" lat="62.2984416665" lon="7.26985277395">
		<tag k="name" v="Syltekoppen" />
		<tag k="natural" v="hill" />
		<tag k="place" v="locality" />
		<tag k="ssr:stedsnr" v="895790" />
	</node>
	<node id="-568382" lat="62.2530555601" lon="7.43347500594">
		<tag k="name" v="Juva" />
		<tag k="natural" v="gorge" />
		<tag k="ssr:stedsnr" v="895780" />
	</node>
	<node id="-568380" lat="62.2337527801" lon="7.43572221937">
		<tag k="name" v="Omnane" />
		<tag k="natural" v="cliff" />
		<tag k="ssr:stedsnr" v="895756" />
	</node>
	<node id="-568379" lat="62.2364388868" lon="7.43873333259">
		<tag k="name" v="Tøyrkloven" />
		<tag k="natural" v="valley" />
		<tag k="place" v="locality" />
		<tag k="ssr:stedsnr" v="895754" />
	</node>
	<node id="-568378" lat="62.2214333331" lon="7.40265832746">
		<tag k="name" v="Grønskreda" />
		<tag k="natural" v="slope" />
		<tag k="place" v="locality" />
		<tag k="ssr:stedsnr" v="895752" />
	</node>
	<node id="-568377" lat="62.2686222249" lon="7.24024444167">
		<tag k="name" v="Småflæene" />
		<tag k="place" v="locality" />
		<tag k="ssr:stedsnr" v="895712" />
	</node>
	<node id="-568376" lat="62.3326138901" lon="7.44800555644">
		<tag k="name" v="Haugane" />
		<tag k="natural" v="ridge" />
		<tag k="place" v="locality" />
		<tag k="ssr:stedsnr" v="895666" />
	</node>
	<node id="-568375" lat="62.3259777809" lon="7.50740277653">
		<tag k="name" v="Stigane" />
		<tag k="place" v="locality" />
		<tag k="ssr:stedsnr" v="895659" />
	</node>
	<node id="-568374" lat="62.3271722203" lon="7.50318055464">
		<tag k="name" v="Hjellbakken" />
		<tag k="natural" v="slope" />
		<tag k="place" v="locality" />
		<tag k="ssr:stedsnr" v="895660" />
	</node>
	<node id="-568369" lat="62.2984583342" lon="7.30688054952">
		<tag k="name" v="Storhaugen" />
		<tag k="natural" v="hill" />
		<tag k="place" v="locality" />
		<tag k="ssr:stedsnr" v="895465" />
	</node>
	<node id="-568368" lat="62.238138893" lon="7.28528611671">
		<tag k="name" v="Rindane" />
		<tag k="natural" v="ridge" />
		<tag k="place" v="locality" />
		<tag k="ssr:stedsnr" v="895387" />
	</node>
	<node id="-568367" lat="62.3164805515" lon="7.2845916636">
		<tag k="name" v="Urikamben" />
		<tag k="natural" v="hill" />
		<tag k="place" v="locality" />
		<tag k="ssr:stedsnr" v="895340" />
	</node>
	<node id="-568366" lat="62.322977781" lon="7.27786944028">
		<tag k="name" v="Furet" />
		<tag k="place" v="locality" />
		<tag k="ssr:stedsnr" v="895334" />
	</node>
	<node id="-568362" lat="62.171944446" lon="7.5132361166">
		<tag k="name" v="Bjørnarabben" />
		<tag k="place" v="locality" />
		<tag k="ssr:stedsnr" v="895208" />
	</node>
	<node id="-568360" lat="62.2044638914" lon="7.24358888361">
		<tag k="name" v="Reset" />
		<tag k="natural" v="slope" />
		<tag k="place" v="locality" />
		<tag k="ssr:stedsnr" v="895166" />
	</node>
	<node id="-568358" lat="62.352900004" lon="7.34676389272">
		<tag k="name" v="Espholen" />
		<tag k="natural" v="hill" />
		<tag k="place" v="locality" />
		<tag k="ssr:stedsnr" v="895150" />
	</node>
	<node id="-568356" lat="62.3256944475" lon="7.35567499067">
		<tag k="name" v="Gjerda" />
		<tag k="natural" v="slope" />
		<tag k="place" v="locality" />
		<tag k="ssr:stedsnr" v="895143" />
	</node>
	<node id="-568355" lat="62.2680583352" lon="7.1176666714">
		<tag k="name" v="Botnasletta" />
		<tag k="place" v="locality" />
		<tag k="ssr:stedsnr" v="895134" />
	</node>
	<node id="-568352" lat="62.2437166648" lon="7.05168333508">
		<tag k="name" v="Fjellandstreket" />
		<tag k="natural" v="valley" />
		<tag k="place" v="locality" />
		<tag k="ssr:stedsnr" v="895044" />
	</node>
	<node id="-568351" lat="62.2467388869" lon="7.04816389249">
		<tag k="name" v="Hundestigjølet" />
		<tag k="natural" v="valley" />
		<tag k="place" v="locality" />
		<tag k="ssr:stedsnr" v="895039" />
	</node>
	<node id="-568350" lat="62.2899416674" lon="7.21571111945">
		<tag k="name" v="Lindhamrane" />
		<tag k="natural" v="cliff" />
		<tag k="ssr:stedsnr" v="895009" />
	</node>
	<node id="-568349" lat="62.3327722261" lon="7.5937861032">
		<tag k="name" v="Tverreset" />
		<tag k="natural" v="slope" />
		<tag k="place" v="locality" />
		<tag k="ssr:stedsnr" v="894248" />
	</node>
	<node id="-568348" lat="62.2739861089" lon="7.06870556112">
		<tag k="name" v="Fjellenden" />
		<tag k="place" v="locality" />
		<tag k="ssr:stedsnr" v="894170" />
	</node>
	<node id="-568347" lat="62.27667222" lon="7.039633337">
		<tag k="name" v="Oppsåta" />
		<tag k="natural" v="hill" />
		<tag k="place" v="locality" />
		<tag k="ssr:stedsnr" v="894156" />
	</node>
	<node id="-568345" lat="62.212625002" lon="7.1485055469">
		<tag k="name" v="Laupen" />
		<tag k="natural" v="hill" />
		<tag k="place" v="locality" />
		<tag k="ssr:stedsnr" v="885473" />
	</node>
	<node id="-568343" lat="62.2250805543" lon="7.15796389205">
		<tag k="name" v="Kleivadalen" />
		<tag k="natural" v="valley" />
		<tag k="place" v="locality" />
		<tag k="ssr:stedsnr" v="885383" />
	</node>
	<node id="-568341" lat="62.1927555565" lon="7.13508888842">
		<tag k="name" v="Blåbærhaugen" />
		<tag k="natural" v="hill" />
		<tag k="place" v="locality" />
		<tag k="ssr:stedsnr" v="885366" />
	</node>
	<node id="-568340" lat="62.25838889" lon="7.18819722255">
		<tag k="name" v="Storflåna" />
		<tag k="natural" v="slope" />
		<tag k="place" v="locality" />
		<tag k="ssr:stedsnr" v="884364" />
	</node>
	<node id="-568338" lat="62.384441666" lon="7.56071666251">
		<tag k="name" v="Furehalsen" />
		<tag k="natural" v="ridge" />
		<tag k="place" v="locality" />
		<tag k="ssr:stedsnr" v="410876" />
	</node>
	<node id="-568337" lat="62.2383055543" lon="7.23759167446">
		<tag k="name" v="Kleivahamrane" />
		<tag k="place" v="locality" />
		<tag k="ssr:stedsnr" v="410817" />
	</node>
	<node id="-568336" lat="62.387947218" lon="7.58470833524">
		<tag k="name" v="Haugane" />
		<tag k="natural" v="hill" />
		<tag k="place" v="locality" />
		<tag k="ssr:stedsnr" v="410805" />
	</node>
	<node id="-568332" lat="62.3359861154" lon="7.56618333288">
		<tag k="name" v="Røyskattstokken" />
		<tag k="natural" v="hill" />
		<tag k="place" v="locality" />
		<tag k="ssr:stedsnr" v="410789" />
	</node>
	<node id="-568329" lat="62.3202166698" lon="7.50012499425">
		<tag k="name" v="Storgjølet" />
		<tag k="natural" v="valley" />
		<tag k="place" v="locality" />
		<tag k="ssr:stedsnr" v="410686" />
	</node>
	<node id="-568328" lat="62.3504944486" lon="7.4133638882">
		<tag k="name" v="Djupgjølet" />
		<tag k="natural" v="valley" />
		<tag k="place" v="locality" />
		<tag k="ssr:stedsnr" v="410653" />
	</node>
	<node id="-568326" lat="62.3036083368" lon="7.28180555336">
		<tag k="fixme" v="consider natural=peak for the most distinct mountains in the district" />
		<tag k="name" v="Ytterlinakken" />
		<tag k="natural" v="hill" />
		<tag k="place" v="locality" />
		<tag k="ssr:stedsnr" v="410521" />
	</node>
	<node id="-568324" lat="62.328994443" lon="7.30585832397">
		<tag k="name" v="Bjørnahola" />
		<tag k="place" v="locality" />
		<tag k="ssr:stedsnr" v="410299" />
	</node>
	<node id="-568323" lat="62.2754138891" lon="7.30104166869">
		<tag k="name" v="Bjørnalauga" />
		<tag k="natural" v="hill" />
		<tag k="place" v="locality" />
		<tag k="ssr:stedsnr" v="410266" />
	</node>
	<node id="-568321" lat="62.2423361153" lon="7.2773972222">
		<tag k="name" v="Storstrekane" />
		<tag k="place" v="locality" />
		<tag k="ssr:stedsnr" v="410153" />
	</node>
	<node id="-568319" lat="62.2715777753" lon="7.11511389292">
		<tag k="name" v="Kilstigeitsvødene" />
		<tag k="natural" v="hill" />
		<tag k="place" v="locality" />
		<tag k="ssr:stedsnr" v="410118" />
	</node>
	<node id="-568317" lat="62.2581638898" lon="7.24926666345">
		<tag k="name" v="Saudflåna" />
		<tag k="place" v="locality" />
		<tag k="ssr:stedsnr" v="409933" />
	</node>
	<node id="-568315" lat="62.3629416643" lon="7.56636944716">
		<tag k="name" v="Tverrberget" />
		<tag k="natural" v="hill" />
		<tag k="place" v="locality" />
		<tag k="ssr:stedsnr" v="409844" />
	</node>
	<node id="-568314" lat="62.3344444468" lon="7.5338027866">
		<tag k="name" v="Pålsøyna" />
		<tag k="natural" v="hill" />
		<tag k="place" v="locality" />
		<tag k="ssr:stedsnr" v="409805" />
	</node>
	<node id="-568310" lat="62.3209055568" lon="7.32258332726">
		<tag k="name" v="Longøyna" />
		<tag k="place" v="locality" />
		<tag k="ssr:stedsnr" v="409362" />
	</node>
	<node id="-568308" lat="62.2708083353" lon="7.34998889136">
		<tag k="name" v="Nymarka" />
		<tag k="natural" v="slope" />
		<tag k="place" v="locality" />
		<tag k="ssr:stedsnr" v="409305" />
	</node>
	<node id="-568307" lat="62.2813194479" lon="7.32333054902">
		<tag k="fixme" v="consider natural=peak for the most distinct mountains in the district" />
		<tag k="name" v="Kvitfjellet" />
		<tag k="natural" v="hill" />
		<tag k="place" v="locality" />
		<tag k="ssr:stedsnr" v="409272" />
	</node>
	<node id="-568306" lat="62.273555555" lon="7.08702500761">
		<tag k="name" v="Liene" />
		<tag k="natural" v="slope" />
		<tag k="place" v="locality" />
		<tag k="ssr:stedsnr" v="409181" />
	</node>
	<node id="-568302" lat="62.288916666" lon="7.17416665715">
		<tag k="name" v="Bjørkaflåna" />
		<tag k="natural" v="cliff" />
		<tag k="ssr:stedsnr" v="409085" />
	</node>
	<node id="-568301" lat="62.2911777749" lon="7.16411388213">
		<tag k="name" v="Steielsgjølet" />
		<tag k="natural" v="valley" />
		<tag k="place" v="locality" />
		<tag k="ssr:stedsnr" v="409081" />
	</node>
	<node id="-568300" lat="62.289191668" lon="7.18920833764">
		<tag k="name" v="Havsteingjølet" />
		<tag k="natural" v="valley" />
		<tag k="place" v="locality" />
		<tag k="ssr:stedsnr" v="409075" />
	</node>
	<node id="-568298" lat="62.2494888899" lon="7.0424638947">
		<tag k="name" v="Storkamgjølet" />
		<tag k="natural" v="valley" />
		<tag k="place" v="locality" />
		<tag k="ssr:stedsnr" v="409058" />
	</node>
	<node id="-568295" lat="62.2182555593" lon="7.13657222218">
		<tag k="name" v="Klonkjen" />
		<tag k="natural" v="cliff" />
		<tag k="ssr:stedsnr" v="399499" />
	</node>
	<node id="-568293" lat="62.1673861113" lon="7.16723610414">
		<tag k="name" v="Geitstighamrane" />
		<tag k="natural" v="cliff" />
		<tag k="ssr:stedsnr" v="399450" />
	</node>
	<node id="-568292" lat="62.204522225" lon="7.13039166118">
		<tag k="name" v="Haugane" />
		<tag k="natural" v="hill" />
		<tag k="place" v="locality" />
		<tag k="ssr:stedsnr" v="399443" />
	</node>
	<node id="-568291" lat="62.2446138924" lon="7.19240554852">
		<tag k="name" v="Langholane" />
		<tag k="natural" v="slope" />
		<tag k="place" v="locality" />
		<tag k="ssr:stedsnr" v="399438" />
	</node>
	<node id="-568290" lat="62.2619333368" lon="7.2072000029">
		<tag k="name" v="Svarthammaren" />
		<tag k="natural" v="hill" />
		<tag k="place" v="locality" />
		<tag k="ssr:stedsnr" v="399415" />
	</node>
	<node id="-568289" lat="62.2559972253" lon="7.13063333727">
		<tag k="name" v="Lyshammaren" />
		<tag k="natural" v="cliff" />
		<tag k="ssr:stedsnr" v="399407" />
	</node>
	<node id="-568281" lat="62.2083611146" lon="7.41585555952">
		<tag k="name" v="Grovadalen" />
		<tag k="natural" v="valley" />
		<tag k="place" v="locality" />
		<tag k="ssr:stedsnr" v="385925" />
	</node>
	<node id="-568280" lat="62.2478734847" lon="7.4498717176">
		<tag k="name" v="Daurmålshaugen" />
		<tag k="natural" v="ridge" />
		<tag k="place" v="locality" />
		<tag k="ssr:stedsnr" v="385917" />
	</node>
	<node id="-568278" lat="62.2193138911" lon="7.43803610626">
		<tag k="name" v="Høgnausane" />
		<tag k="natural" v="hill" />
		<tag k="place" v="locality" />
		<tag k="ssr:stedsnr" v="384911" />
	</node>
	<node id="-568277" lat="62.2943222191" lon="7.41951111297">
		<tag k="fixme" v="consider natural=peak for the most distinct mountains in the district" />
		<tag k="name" v="Blåfjellet" />
		<tag k="natural" v="hill" />
		<tag k="place" v="locality" />
		<tag k="ssr:stedsnr" v="375849" />
	</node>
	<node id="-568276" lat="62.2987138854" lon="7.53181112047">
		<tag k="name" v="Alstadlaupet" />
		<tag k="natural" v="valley" />
		<tag k="place" v="locality" />
		<tag k="ssr:stedsnr" v="375850" />
	</node>
	<node id="-568273" lat="62.2572694471" lon="7.47724722219">
		<tag k="fixme" v="consider natural=peak for the most distinct mountains in the district" />
		<tag k="name" v="Sæternakken" />
		<tag k="natural" v="hill" />
		<tag k="place" v="locality" />
		<tag k="ssr:stedsnr" v="375807" />
	</node>
	<node id="-568272" lat="62.2809055546" lon="7.51103334259">
		<tag k="fixme" v="consider natural=peak for the most distinct mountains in the district" />
		<tag k="name" v="Korga" />
		<tag k="natural" v="hill" />
		<tag k="place" v="locality" />
		<tag k="ssr:stedsnr" v="375799" />
	</node>
	<node id="-568271" lat="62.3544777793" lon="7.35293610517">
		<tag k="name" v="Valldalsbotn" />
		<tag k="natural" v="valley" />
		<tag k="place" v="locality" />
		<tag k="ssr:stedsnr" v="375788" />
	</node>
	<node id="-568269" lat="62.3574750035" lon="7.38979444582">
		<tag k="fixme" v="consider natural=peak for the most distinct mountains in the district" />
		<tag k="name" v="Gjerdsegga" />
		<tag k="natural" v="hill" />
		<tag k="place" v="locality" />
		<tag k="ssr:stedsnr" v="375779" />
	</node>
	<node id="-568268" lat="62.3475749976" lon="7.65175277525">
		<tag k="name" v="Storjolgrø" />
		<tag k="natural" v="slope" />
		<tag k="place" v="locality" />
		<tag k="ssr:stedsnr" v="375736" />
	</node>
	<node id="-568267" lat="62.3410944421" lon="7.60179444049">
		<tag k="name" v="Steindalen" />
		<tag k="natural" v="valley" />
		<tag k="place" v="locality" />
		<tag k="ssr:stedsnr" v="375733" />
	</node>
	<node id="-568265" lat="62.319933332" lon="7.18589443762">
		<tag k="fixme" v="consider natural=peak for the most distinct mountains in the district" />
		<tag k="name" v="Vasstinden" />
		<tag k="natural" v="hill" />
		<tag k="old_name" v="Vasstind" />
		<tag k="place" v="locality" />
		<tag k="ssr:stedsnr" v="375578" />
	</node>
	<node id="-568264" lat="62.2950500026" lon="7.18585278599">
		<tag k="fixme" v="consider natural=peak for the most distinct mountains in the district" />
		<tag k="name" v="Vardefjellet" />
		<tag k="natural" v="hill" />
		<tag k="place" v="locality" />
		<tag k="ssr:stedsnr" v="375551" />
	</node>
	<node id="-568261" lat="62.2285666667" lon="7.1529166735">
		<tag k="name" v="Kleivahammaren" />
		<tag k="natural" v="hill" />
		<tag k="place" v="locality" />
		<tag k="ssr:stedsnr" v="375242" />
	</node>
	<node id="-568259" lat="62.396444446" lon="7.73210833582">
		<tag k="fixme" v="consider natural=peak for the most distinct mountains in the district" />
		<tag k="name" v="Kula" />
		<tag k="natural" v="hill" />
		<tag k="place" v="locality" />
		<tag k="ssr:stedsnr" v="375015" />
	</node>
	<node id="-568258" lat="62.2119444427" lon="7.69555833216">
		<tag k="fixme" v="consider natural=peak for the most distinct mountains in the district" />
		<tag k="name" v="Puttegga" />
		<tag k="natural" v="hill" />
		<tag k="place" v="locality" />
		<tag k="ssr:stedsnr" v="375007" />
	</node>
	<node id="-568257" lat="62.2552444453" lon="7.04476389261">
		<tag k="fixme" v="consider natural=peak for the most distinct mountains in the district" />
		<tag k="name" v="Nonshammaren" />
		<tag k="natural" v="hill" />
		<tag k="place" v="locality" />
		<tag k="ssr:stedsnr" v="374946" />
	</node>
	<node id="-568251" lat="62.2431416701" lon="7.42061388685">
		<tag k="fixme" v="consider natural=peak for the most distinct mountains in the district" />
		<tag k="name" v="Skjegghammaren" />
		<tag k="natural" v="hill" />
		<tag k="place" v="locality" />
		<tag k="ssr:stedsnr" v="374476" />
	</node>
	<node id="-568249" lat="62.1389805519" lon="7.34355000498">
		<tag k="fixme" v="consider natural=peak for the most distinct mountains in the district" />
		<tag k="name" v="Slettdalsfjellet" />
		<tag k="natural" v="hill" />
		<tag k="place" v="locality" />
		<tag k="ssr:stedsnr" v="374089" />
	</node>
	<node id="-568248" lat="62.1604000011" lon="7.31841665821">
		<tag k="fixme" v="consider natural=peak for the most distinct mountains in the district" />
		<tag k="name" v="Bolletehornet" />
		<tag k="natural" v="hill" />
		<tag k="place" v="locality" />
		<tag k="ssr:stedsnr" v="374047" />
	</node>
	<node id="-568247" lat="62.1754749977" lon="7.63179999582">
		<tag k="fixme" v="consider natural=peak for the most distinct mountains in the district" />
		<tag k="name" v="Lågnausen" />
		<tag k="natural" v="hill" />
		<tag k="place" v="locality" />
		<tag k="ssr:stedsnr" v="374043" />
	</node>
	<node id="-568246" lat="62.3646611125" lon="7.7930888816">
		<tag k="fixme" v="consider natural=peak for the most distinct mountains in the district" />
		<tag k="name" v="Varland" />
		<tag k="natural" v="hill" />
		<tag k="place" v="locality" />
		<tag k="ssr:stedsnr" v="374040" />
	</node>
	<node id="-568243" lat="62.2174611089" lon="7.56595278437">
		<tag k="fixme" v="consider natural=peak for the most distinct mountains in the district" />
		<tag k="name" v="Melegga" />
		<tag k="natural" v="hill" />
		<tag k="place" v="locality" />
		<tag k="ssr:stedsnr" v="374002" />
	</node>
	<node id="-568241" lat="62.1910250025" lon="7.48709999304">
		<tag k="name" v="Foldehammaren" />
		<tag k="place" v="locality" />
		<tag k="ssr:stedsnr" v="349980" />
	</node>
	<node id="-568240" lat="62.3809944465" lon="7.56939165834">
		<tag k="name" v="Illgjølet" />
		<tag k="natural" v="valley" />
		<tag k="place" v="locality" />
		<tag k="ssr:stedsnr" v="349913" />
	</node>
	<node id="-568239" lat="62.3846694414" lon="7.57023889551">
		<tag k="name" v="Brenslene" />
		<tag k="natural" v="slope" />
		<tag k="place" v="locality" />
		<tag k="ssr:stedsnr" v="349912" />
	</node>
	<node id="-568237" lat="62.2322027775" lon="7.24053611879">
		<tag k="name" v="Selhaugen" />
		<tag k="natural" v="hill" />
		<tag k="place" v="locality" />
		<tag k="ssr:stedsnr" v="349882" />
	</node>
	<node id="-568236" lat="62.2241749959" lon="7.24097499925">
		<tag k="name" v="Kurabbane" />
		<tag k="place" v="locality" />
		<tag k="ssr:stedsnr" v="349881" />
	</node>
	<node id="-568234" lat="62.2310277765" lon="7.2222499947">
		<tag k="name" v="Kvithaugen" />
		<tag k="natural" v="hill" />
		<tag k="place" v="locality" />
		<tag k="ssr:stedsnr" v="349830" />
	</node>
	<node id="-568232" lat="62.3399055575" lon="7.56476111681">
		<tag k="name" v="Flåna" />
		<tag k="natural" v="cliff" />
		<tag k="ssr:stedsnr" v="349812" />
	</node>
	<node id="-568231" lat="62.2972138917" lon="7.31544444531">
		<tag k="name" v="Kvilehella" />
		<tag k="place" v="locality" />
		<tag k="ssr:stedsnr" v="349504" />
	</node>
	<node id="-568229" lat="62.2822777804" lon="7.29201110802">
		<tag k="name" v="Nausthaugen" />
		<tag k="natural" v="hill" />
		<tag k="place" v="locality" />
		<tag k="ssr:stedsnr" v="349298" />
	</node>
	<node id="-568228" lat="62.2808638889" lon="7.28325832466">
		<tag k="name" v="Hjellane" />
		<tag k="place" v="locality" />
		<tag k="ssr:stedsnr" v="349294" />
	</node>
	<node id="-568227" lat="62.2717138877" lon="7.10645278451">
		<tag k="name" v="Småhjellane" />
		<tag k="place" v="locality" />
		<tag k="ssr:stedsnr" v="349207" />
	</node>
	<node id="-568226" lat="62.3613750015" lon="7.34372776889">
		<tag k="name" v="Salmakaren" />
		<tag k="natural" v="slope" />
		<tag k="place" v="locality" />
		<tag k="ssr:stedsnr" v="349173" />
	</node>
	<node id="-568225" lat="62.2679333324" lon="7.11392499646">
		<tag k="name" v="Sandane" />
		<tag k="place" v="locality" />
		<tag k="ssr:stedsnr" v="349146" />
	</node>
	<node id="-568224" lat="62.1569055525" lon="7.42943056173">
		<tag k="name" v="Storskjerva" />
		<tag k="place" v="locality" />
		<tag k="ssr:stedsnr" v="349116" />
	</node>
	<node id="-568221" lat="62.2273111109" lon="7.40611944404">
		<tag k="name" v="Nygjerda" />
		<tag k="natural" v="slope" />
		<tag k="place" v="locality" />
		<tag k="ssr:stedsnr" v="348753" />
	</node>
	<node id="-568219" lat="62.3273638919" lon="7.45320554883">
		<tag k="name" v="Haugane" />
		<tag k="natural" v="hill" />
		<tag k="place" v="locality" />
		<tag k="ssr:stedsnr" v="348654" />
	</node>
	<node id="-568218" lat="62.2084055577" lon="7.34258332727">
		<tag k="name" v="Båthellen" />
		<tag k="place" v="locality" />
		<tag k="ssr:stedsnr" v="348566" />
	</node>
	<node id="-568216" lat="62.322583336" lon="7.31110278688">
		<tag k="name" v="Ådalen" />
		<tag k="natural" v="valley" />
		<tag k="place" v="locality" />
		<tag k="ssr:stedsnr" v="348355" />
	</node>
	<node id="-568215" lat="62.3364277801" lon="7.35561389478">
		<tag k="name" v="Trøene" />
		<tag k="natural" v="slope" />
		<tag k="place" v="locality" />
		<tag k="ssr:stedsnr" v="348326" />
	</node>
	<node id="-568209" lat="62.2790472213" lon="7.0774666617">
		<tag k="name" v="Ikornsva" />
		<tag k="natural" v="hill" />
		<tag k="place" v="locality" />
		<tag k="ssr:stedsnr" v="348160" />
	</node>
	<node id="-568208" lat="62.271724996" lon="7.08950556024">
		<tag k="name" v="Skjerva" />
		<tag k="place" v="locality" />
		<tag k="ssr:stedsnr" v="348158" />
	</node>
	<node id="-568205" lat="62.2837527768" lon="7.19578332982">
		<tag k="name" v="Hesteberget" />
		<tag k="natural" v="hill" />
		<tag k="place" v="locality" />
		<tag k="ssr:stedsnr" v="348048" />
	</node>
	<node id="-568204" lat="62.2918916669" lon="7.20125555313">
		<tag k="name" v="Bolletehammaren" />
		<tag k="natural" v="cliff" />
		<tag k="ssr:stedsnr" v="348007" />
	</node>
	<node id="-568202" lat="62.2124999983" lon="7.14611111139">
		<tag k="name" v="Berget" />
		<tag k="natural" v="slope" />
		<tag k="place" v="locality" />
		<tag k="ssr:stedsnr" v="339438" />
	</node>
	<node id="-568200" lat="62.2575555524" lon="7.19795833028">
		<tag k="name" v="Kløvgjølet" />
		<tag k="natural" v="gorge" />
		<tag k="ssr:stedsnr" v="339370" />
	</node>
	<node id="-568199" lat="62.2475888897" lon="7.15237221334">
		<tag k="name" v="Brisesletta" />
		<tag k="place" v="locality" />
		<tag k="ssr:stedsnr" v="338610" />
	</node>
	<node id="-568198" lat="62.2095472193" lon="7.1297111138">
		<tag k="name" v="Geithaugen" />
		<tag k="natural" v="hill" />
		<tag k="place" v="locality" />
		<tag k="ssr:stedsnr" v="338343" />
	</node>
	<node id="-568197" lat="62.2044250016" lon="7.12645278299">
		<tag k="name" v="Svoragjølet" />
		<tag k="natural" v="valley" />
		<tag k="place" v="locality" />
		<tag k="ssr:stedsnr" v="338342" />
	</node>
	<node id="-568190" lat="62.2417583337" lon="7.07950554942">
		<tag k="name" v="Grøtdalen" />
		<tag k="natural" v="valley" />
		<tag k="place" v="locality" />
		<tag k="ssr:stedsnr" v="327755" />
	</node>
	<node id="-568188" lat="62.3800416648" lon="7.3327388983">
		<tag k="fixme" v="consider natural=peak for the most distinct mountains in the district" />
		<tag k="name" v="Geitfjellet" />
		<tag k="natural" v="hill" />
		<tag k="place" v="locality" />
		<tag k="ssr:stedsnr" v="324987" />
	</node>
	<node id="-568182" lat="62.2541777812" lon="7.44143055994">
		<tag k="name" v="Nausen" />
		<tag k="natural" v="hill" />
		<tag k="place" v="locality" />
		<tag k="ssr:stedsnr" v="315831" />
	</node>
	<node id="-568179" lat="62.4025388927" lon="7.32976388857">
		<tag k="name" v="Litlereset" />
		<tag k="natural" v="valley" />
		<tag k="place" v="locality" />
		<tag k="ssr:stedsnr" v="314954" />
	</node>
	<node id="-568177" lat="62.2558861112" lon="7.19966667581">
		<tag k="fixme" v="consider natural=peak for the most distinct mountains in the district" />
		<tag k="name" v="Storåsnakken" />
		<tag k="natural" v="hill" />
		<tag k="place" v="locality" />
		<tag k="ssr:stedsnr" v="314908" />
	</node>
	<node id="-568176" lat="62.2547777813" lon="7.09966388685">
		<tag k="fixme" v="consider natural=peak for the most distinct mountains in the district" />
		<tag k="name" v="Kilstiheia" />
		<tag k="natural" v="hill" />
		<tag k="place" v="locality" />
		<tag k="ssr:stedsnr" v="314902" />
	</node>
	<node id="-568174" lat="62.3098611096" lon="7.70859445389">
		<tag k="name" v="Børrebottreset" />
		<tag k="natural" v="valley" />
		<tag k="place" v="locality" />
		<tag k="ssr:stedsnr" v="314841" />
	</node>
	<node id="-568173" lat="62.304166668" lon="7.4340999954">
		<tag k="name" v="Trollkyrkjebotn" />
		<tag k="natural" v="valley" />
		<tag k="place" v="locality" />
		<tag k="ssr:stedsnr" v="314838" />
	</node>
	<node id="-568172" lat="62.3416972248" lon="7.2255472209">
		<tag k="name" v="Rødsetskaret" />
		<tag k="natural" v="valley" />
		<tag k="place" v="locality" />
		<tag k="ssr:stedsnr" v="314809" />
	</node>
	<node id="-568164" lat="62.3306916626" lon="7.43123056122">
		<tag k="name" v="Myrheia" />
		<tag k="natural" v="slope" />
		<tag k="place" v="locality" />
		<tag k="ssr:stedsnr" v="314759" />
	</node>
	<node id="-568159" lat="62.1719499993" lon="7.10975834258">
		<tag k="fixme" v="consider natural=peak for the most distinct mountains in the district" />
		<tag k="name" v="Vardegga" />
		<tag k="natural" v="hill" />
		<tag k="place" v="locality" />
		<tag k="ssr:stedsnr" v="314374" />
	</node>
	<node id="-568158" lat="62.166786115" lon="7.14355554726">
		<tag k="fixme" v="consider natural=peak for the most distinct mountains in the district" />
		<tag k="name" v="Indreeidshornet" />
		<tag k="natural" v="hill" />
		<tag k="place" v="locality" />
		<tag k="ssr:stedsnr" v="314365" />
	</node>
	<node id="-568156" lat="62.204493223" lon="7.08735347609">
		<tag k="name" v="Sleddalen" />
		<tag k="natural" v="valley" />
		<tag k="place" v="locality" />
		<tag k="ssr:stedsnr" v="314339" />
	</node>
	<node id="-568155" lat="62.2372111104" lon="7.07745555694">
		<tag k="fixme" v="consider natural=peak for the most distinct mountains in the district" />
		<tag k="name" v="Litlegrøtet" />
		<tag k="natural" v="hill" />
		<tag k="place" v="locality" />
		<tag k="ssr:stedsnr" v="314310" />
	</node>
	<node id="-568153" lat="62.1339416627" lon="7.32558054795">
		<tag k="fixme" v="consider natural=peak for the most distinct mountains in the district" />
		<tag k="name" v="Slettdalsreset" />
		<tag k="natural" v="hill" />
		<tag k="place" v="locality" />
		<tag k="ssr:stedsnr" v="314089" />
	</node>
	<node id="-568152" lat="62.1121916663" lon="7.49481667254">
		<tag k="name" v="Kaldhussæterreindalen" />
		<tag k="natural" v="valley" />
		<tag k="place" v="locality" />
		<tag k="ssr:stedsnr" v="314073" />
	</node>
	<node id="-568150" lat="62.126969441" lon="7.34013888878">
		<tag k="name" v="Slettdalen" />
		<tag k="natural" v="valley" />
		<tag k="place" v="locality" />
		<tag k="ssr:stedsnr" v="314068" />
	</node>
	<node id="-568149" lat="62.1828319385" lon="7.22011317436">
		<tag k="fixme" v="consider natural=peak for the most distinct mountains in the district" />
		<tag k="name" v="Litlevasshornet" />
		<tag k="natural" v="hill" />
		<tag k="place" v="locality" />
		<tag k="ssr:stedsnr" v="314056" />
	</node>
	<node id="-568145" lat="62.1707000006" lon="7.47211112036">
		<tag k="fixme" v="consider natural=peak for the most distinct mountains in the district" />
		<tag k="name" v="Storfjellet" />
		<tag k="natural" v="hill" />
		<tag k="place" v="locality" />
		<tag k="ssr:stedsnr" v="314034" />
	</node>
	<node id="-568144" lat="62.195694447" lon="7.33290834251">
		<tag k="name" v="Herdalen" />
		<tag k="natural" v="valley" />
		<tag k="place" v="locality" />
		<tag k="ssr:stedsnr" v="314007" />
	</node>
	<node id="-568143" lat="62.2039083334" lon="7.34236110949">
		<tag k="name" v="Furhaugen" />
		<tag k="natural" v="hill" />
		<tag k="place" v="locality" />
		<tag k="ssr:stedsnr" v="314005" />
	</node>
	<node id="-568142" lat="62.3288750021" lon="7.76626666532">
		<tag k="name" v="Hånådalsreset" />
		<tag k="natural" v="valley" />
		<tag k="place" v="locality" />
		<tag k="ssr:stedsnr" v="314217" />
	</node>
	<node id="-568140" lat="62.378527775" lon="7.55419166654">
		<tag k="name" v="Hjellane" />
		<tag k="place" v="locality" />
		<tag k="ssr:stedsnr" v="289905" />
	</node>
	<node id="-568138" lat="62.3219555597" lon="7.50426110178">
		<tag k="name" v="Jolhaugane" />
		<tag k="natural" v="hill" />
		<tag k="place" v="locality" />
		<tag k="ssr:stedsnr" v="289732" />
	</node>
	<node id="-568137" lat="62.3142638848" lon="7.40530277857">
		<tag k="name" v="Heggebotnen" />
		<tag k="natural" v="valley" />
		<tag k="place" v="locality" />
		<tag k="ssr:stedsnr" v="289645" />
	</node>
	<node id="-568136" lat="62.2813055559" lon="7.29967500506">
		<tag k="name" v="Storgjølrabben" />
		<tag k="natural" v="slope" />
		<tag k="place" v="locality" />
		<tag k="ssr:stedsnr" v="289242" />
	</node>
	<node id="-568130" lat="62.2294222233" lon="7.43478056264">
		<tag k="name" v="Kloven" />
		<tag k="natural" v="valley" />
		<tag k="place" v="locality" />
		<tag k="ssr:stedsnr" v="288751" />
	</node>
	<node id="-568127" lat="62.2266194405" lon="7.40875555416">
		<tag k="name" v="Haugenden" />
		<tag k="natural" v="hill" />
		<tag k="place" v="locality" />
		<tag k="ssr:stedsnr" v="288739" />
	</node>
	<node id="-568123" lat="62.334925" lon="7.48091389163">
		<tag k="name" v="Skreda" />
		<tag k="place" v="locality" />
		<tag k="ssr:stedsnr" v="288636" />
	</node>
	<node id="-568121" lat="62.317077782" lon="7.48656388309">
		<tag k="name" v="Sandsteinlia" />
		<tag k="natural" v="slope" />
		<tag k="place" v="locality" />
		<tag k="ssr:stedsnr" v="288631" />
	</node>
	<node id="-568120" lat="62.3286999992" lon="7.39846389309">
		<tag k="name" v="Gjølet" />
		<tag k="natural" v="valley" />
		<tag k="place" v="locality" />
		<tag k="ssr:stedsnr" v="288616" />
	</node>
	<node id="-568116" lat="62.3439527747" lon="7.44598889584">
		<tag k="name" v="Dyrsteinane" />
		<tag k="natural" v="hill" />
		<tag k="place" v="locality" />
		<tag k="ssr:stedsnr" v="288583" />
	</node>
	<node id="-568114" lat="62.2131027743" lon="7.31645555561">
		<tag k="name" v="Fjellsenden" />
		<tag k="natural" v="slope" />
		<tag k="place" v="locality" />
		<tag k="ssr:stedsnr" v="288529" />
	</node>
	<node id="-568113" lat="62.2964777747" lon="7.29370832826">
		<tag k="name" v="Asalhola" />
		<tag k="natural" v="hill" />
		<tag k="place" v="locality" />
		<tag k="ssr:stedsnr" v="288464" />
	</node>
	<node id="-568112" lat="62.2952861079" lon="7.34613888801">
		<tag k="name" v="Rauaklåen" />
		<tag k="place" v="locality" />
		<tag k="ssr:stedsnr" v="288448" />
	</node>
	<node id="-568110" lat="62.3161111066" lon="7.30248332665">
		<tag k="name" v="Tuftene" />
		<tag k="natural" v="hill" />
		<tag k="place" v="locality" />
		<tag k="ssr:stedsnr" v="288338" />
	</node>
	<node id="-568109" lat="62.3477444469" lon="7.36308334194">
		<tag k="name" v="Grønbakkane" />
		<tag k="natural" v="slope" />
		<tag k="place" v="locality" />
		<tag k="ssr:stedsnr" v="288325" />
	</node>
	<node id="-568108" lat="62.309022219" lon="7.30726944989">
		<tag k="name" v="Ramnegjølet" />
		<tag k="natural" v="valley" />
		<tag k="place" v="locality" />
		<tag k="ssr:stedsnr" v="288300" />
	</node>
	<node id="-568107" lat="62.2713555537" lon="7.34184444847">
		<tag k="name" v="Grovadalen" />
		<tag k="natural" v="valley" />
		<tag k="place" v="locality" />
		<tag k="ssr:stedsnr" v="288292" />
	</node>
	<node id="-568105" lat="62.2758750017" lon="7.31425832873">
		<tag k="name" v="Raudgrjotet" />
		<tag k="place" v="locality" />
		<tag k="ssr:stedsnr" v="288233" />
	</node>
	<node id="-568104" lat="62.2795250036" lon="7.32198888588">
		<tag k="name" v="Seildenakken" />
		<tag k="natural" v="ridge" />
		<tag k="place" v="locality" />
		<tag k="ssr:stedsnr" v="288232" />
	</node>
	<node id="-568102" lat="62.2157944466" lon="7.24669443974">
		<tag k="name" v="Fonnabrotet" />
		<tag k="place" v="locality" />
		<tag k="ssr:stedsnr" v="288164" />
	</node>
	<node id="-568101" lat="62.2766194414" lon="7.13487777087">
		<tag k="fixme" v="consider natural=peak for the most distinct mountains in the district" />
		<tag k="name" v="Kvitfjellet" />
		<tag k="natural" v="hill" />
		<tag k="place" v="locality" />
		<tag k="ssr:stedsnr" v="288149" />
	</node>
	<node id="-568100" lat="62.2709944438" lon="7.14956389219">
		<tag k="name" v="Kleberghammaren" />
		<tag k="natural" v="hill" />
		<tag k="place" v="locality" />
		<tag k="ssr:stedsnr" v="288146" />
	</node>
	<node id="-568099" lat="62.2642222197" lon="7.10638332936">
		<tag k="name" v="Bjørnahammaren" />
		<tag k="natural" v="hill" />
		<tag k="place" v="locality" />
		<tag k="ssr:stedsnr" v="288140" />
	</node>
	<node id="-568098" lat="62.2019222185" lon="7.42498610787">
		<tag k="name" v="Kaldhusskredene" />
		<tag k="place" v="locality" />
		<tag k="ssr:stedsnr" v="288108" />
	</node>
	<node id="-568095" lat="62.291552774" lon="7.19881666379">
		<tag k="name" v="Strikelia" />
		<tag k="natural" v="slope" />
		<tag k="place" v="locality" />
		<tag k="ssr:stedsnr" v="288023" />
	</node>
	<node id="-568094" lat="62.2721916709" lon="7.03478889684">
		<tag k="name" v="Nobba" />
		<tag k="natural" v="hill" />
		<tag k="place" v="locality" />
		<tag k="ssr:stedsnr" v="278516" />
	</node>
	<node id="-568092" lat="62.1954999957" lon="7.15866389688">
		<tag k="name" v="Eidshaugen" />
		<tag k="natural" v="hill" />
		<tag k="place" v="locality" />
		<tag k="ssr:stedsnr" v="278424" />
	</node>
	<node id="-568091" lat="62.1965916686" lon="7.14853333837">
		<tag k="name" v="Ørnehaugen" />
		<tag k="natural" v="hill" />
		<tag k="place" v="locality" />
		<tag k="ssr:stedsnr" v="278421" />
	</node>
	<node id="-568090" lat="62.1620944459" lon="7.17083056374">
		<tag k="name" v="Hestskredlegda" />
		<tag k="natural" v="ridge" />
		<tag k="place" v="locality" />
		<tag k="ssr:stedsnr" v="278418" />
	</node>
	<node id="-568089" lat="62.2544249967" lon="7.14956388514">
		<tag k="name" v="Kilstiberget" />
		<tag k="natural" v="slope" />
		<tag k="place" v="locality" />
		<tag k="ssr:stedsnr" v="278413" />
	</node>
	<node id="-568087" lat="62.2577166677" lon="7.1847916681">
		<tag k="name" v="Brendeskagen" />
		<tag k="natural" v="ridge" />
		<tag k="place" v="locality" />
		<tag k="ssr:stedsnr" v="277372" />
	</node>
	<node id="-569633" lat="62.2139130482" lon="7.08082425386">
		<tag k="fixme" v="consider natural=peak for the most distinct mountains in the district" />
		<tag k="name" v="Vardeggja" />
		<tag k="natural" v="hill" />
		<tag k="place" v="locality" />
		<tag k="ssr:stedsnr" v="976068" />
	</node>
	<node id="-569625" lat="62.3767388897" lon="7.56148889447">
		<tag k="name" v="Jamtebrauta" />
		<tag k="natural" v="slope" />
		<tag k="place" v="locality" />
		<tag k="ssr:stedsnr" v="956860" />
	</node>
	<node id="-569620" lat="62.3072444472" lon="7.23782499806">
		<tag k="name" v="Høghammaren" />
		<tag k="place" v="locality" />
		<tag k="ssr:stedsnr" v="956673" />
	</node>
	<node id="-569619" lat="62.2434472265" lon="7.39776111199">
		<tag k="name" v="Pinå" />
		<tag k="place" v="locality" />
		<tag k="ssr:stedsnr" v="956595" />
	</node>
	<node id="-569618" lat="62.2519888855" lon="7.38522221528">
		<tag k="name" v="Kupå" />
		<tag k="natural" v="valley" />
		<tag k="place" v="locality" />
		<tag k="ssr:stedsnr" v="956593" />
	</node>
	<node id="-569617" lat="62.3035472189" lon="7.30469167459">
		<tag k="name" v="Harehellen" />
		<tag k="place" v="locality" />
		<tag k="ssr:stedsnr" v="956536" />
	</node>
	<node id="-569616" lat="62.3001305591" lon="7.34714445127">
		<tag k="name" v="Mekilen" />
		<tag k="place" v="locality" />
		<tag k="ssr:stedsnr" v="956534" />
	</node>
	<node id="-569615" lat="62.2979472221" lon="7.34207500085">
		<tag k="name" v="Kyrkjeteigen" />
		<tag k="place" v="locality" />
		<tag k="ssr:stedsnr" v="956530" />
	</node>
	<node id="-569614" lat="62.2987916711" lon="7.33408332455">
		<tag k="name" v="Røyskattstokken" />
		<tag k="natural" v="slope" />
		<tag k="place" v="locality" />
		<tag k="ssr:stedsnr" v="956490" />
	</node>
	<node id="-569612" lat="62.2315861121" lon="7.39807500511">
		<tag k="name" v="Kristenskreda" />
		<tag k="place" v="locality" />
		<tag k="ssr:stedsnr" v="956435" />
	</node>
	<node id="-569611" lat="62.2647333304" lon="7.36107777091">
		<tag k="name" v="Bjørnahola" />
		<tag k="place" v="locality" />
		<tag k="ssr:stedsnr" v="956330" />
	</node>
	<node id="-569610" lat="62.274680556" lon="7.14189722336">
		<tag k="name" v="Djupgjølet" />
		<tag k="natural" v="valley" />
		<tag k="place" v="locality" />
		<tag k="ssr:stedsnr" v="956146" />
	</node>
	<node id="-569608" lat="62.273958329" lon="7.11107499206">
		<tag k="name" v="Baklia" />
		<tag k="natural" v="slope" />
		<tag k="place" v="locality" />
		<tag k="ssr:stedsnr" v="956131" />
	</node>
	<node id="-569606" lat="62.2084500023" lon="7.45593055848">
		<tag k="name" v="Storflåna" />
		<tag k="natural" v="cliff" />
		<tag k="ssr:stedsnr" v="956122" />
	</node>
	<node id="-569603" lat="62.1975666629" lon="7.4230694456">
		<tag k="name" v="Oksehola" />
		<tag k="natural" v="valley" />
		<tag k="place" v="locality" />
		<tag k="ssr:stedsnr" v="955962" />
	</node>
	<node id="-569602" lat="62.2484055568" lon="7.26187499204">
		<tag k="name" v="Rutsgrjotskreda" />
		<tag k="place" v="locality" />
		<tag k="ssr:stedsnr" v="955935" />
	</node>
	<node id="-569601" lat="62.2526416628" lon="7.24787777163">
		<tag k="name" v="Skuldrafonngjølet" />
		<tag k="natural" v="valley" />
		<tag k="place" v="locality" />
		<tag k="ssr:stedsnr" v="955933" />
	</node>
	<node id="-569600" lat="62.257408336" lon="7.46120833226">
		<tag k="name" v="Storgjølet" />
		<tag k="natural" v="valley" />
		<tag k="place" v="locality" />
		<tag k="ssr:stedsnr" v="955793" />
	</node>
	<node id="-569597" lat="62.2350000019" lon="7.40627222303">
		<tag k="name" v="Galtaryggfonna" />
		<tag k="natural" v="valley" />
		<tag k="place" v="locality" />
		<tag k="ssr:stedsnr" v="955756" />
	</node>
	<node id="-569596" lat="62.2381111101" lon="7.40328611445">
		<tag k="name" v="Skredbakken" />
		<tag k="natural" v="slope" />
		<tag k="place" v="locality" />
		<tag k="ssr:stedsnr" v="955754" />
	</node>
	<node id="-569594" lat="62.3412611109" lon="7.41090555374">
		<tag k="name" v="Hjellen" />
		<tag k="place" v="locality" />
		<tag k="ssr:stedsnr" v="955641" />
	</node>
	<node id="-569590" lat="62.1890444443" lon="7.33745555432">
		<tag k="name" v="Geitkyrkja" />
		<tag k="natural" v="hill" />
		<tag k="place" v="locality" />
		<tag k="ssr:stedsnr" v="955520" />
	</node>
	<node id="-569589" lat="62.3417666658" lon="7.36905834076">
		<tag k="name" v="Tjørehjellen" />
		<tag k="place" v="locality" />
		<tag k="ssr:stedsnr" v="955329" />
	</node>
	<node id="-569584" lat="62.2901000025" lon="7.16446110663">
		<tag k="name" v="Elvateigane" />
		<tag k="natural" v="slope" />
		<tag k="place" v="locality" />
		<tag k="ssr:stedsnr" v="955072" />
	</node>
	<node id="-569580" lat="62.2266638906" lon="7.14517221411">
		<tag k="name" v="Gjerda" />
		<tag k="natural" v="slope" />
		<tag k="place" v="locality" />
		<tag k="ssr:stedsnr" v="946424" />
	</node>
	<node id="-569578" lat="62.1771222196" lon="7.16403054897">
		<tag k="name" v="Haugane" />
		<tag k="natural" v="hill" />
		<tag k="place" v="locality" />
		<tag k="ssr:stedsnr" v="946419" />
	</node>
	<node id="-569577" lat="62.2503388852" lon="7.15361111898">
		<tag k="name" v="Trilegjerdet" />
		<tag k="natural" v="slope" />
		<tag k="place" v="locality" />
		<tag k="ssr:stedsnr" v="946358" />
	</node>
	<node id="-569576" lat="62.2403444443" lon="7.20547222234">
		<tag k="name" v="Storhjellen" />
		<tag k="place" v="locality" />
		<tag k="ssr:stedsnr" v="946355" />
	</node>
	<node id="-569574" lat="62.1989611117" lon="7.16713611509">
		<tag k="name" v="Småhamrane" />
		<tag k="natural" v="hill" />
		<tag k="place" v="locality" />
		<tag k="ssr:stedsnr" v="946328" />
	</node>
	<node id="-569573" lat="62.2006555525" lon="7.1462638799">
		<tag k="name" v="Briseskjerva" />
		<tag k="natural" v="ridge" />
		<tag k="place" v="locality" />
		<tag k="ssr:stedsnr" v="945362" />
	</node>
	<node id="-569572" lat="62.2548166623" lon="7.22384444839">
		<tag k="name" v="Murteberget" />
		<tag k="natural" v="hill" />
		<tag k="place" v="locality" />
		<tag k="ssr:stedsnr" v="942439" />
	</node>
	<node id="-569567" lat="62.207200004" lon="7.39284444983">
		<tag k="name" v="Hornet" />
		<tag k="natural" v="ridge" />
		<tag k="place" v="locality" />
		<tag k="ssr:stedsnr" v="931931" />
	</node>
	<node id="-569564" lat="62.2503888853" lon="7.55408889359">
		<tag k="fixme" v="consider natural=peak for the most distinct mountains in the district" />
		<tag k="name" v="Grjotkopphornet" />
		<tag k="natural" v="hill" />
		<tag k="place" v="locality" />
		<tag k="ssr:stedsnr" v="922811" />
	</node>
	<node id="-569563" lat="62.2587555579" lon="7.34972778376">
		<tag k="name" v="Alvikdalen" />
		<tag k="natural" v="valley" />
		<tag k="place" v="locality" />
		<tag k="ssr:stedsnr" v="922802" />
	</node>
	<node id="-569562" lat="62.2608388897" lon="7.30864443987">
		<tag k="fixme" v="consider natural=peak for the most distinct mountains in the district" />
		<tag k="name" v="Tindetefjellet" />
		<tag k="natural" v="hill" />
		<tag k="place" v="locality" />
		<tag k="ssr:stedsnr" v="922800" />
	</node>
	<node id="-569561" lat="62.2695083315" lon="7.30149443833">
		<tag k="fixme" v="consider natural=peak for the most distinct mountains in the district" />
		<tag k="name" v="Middagshornet" />
		<tag k="natural" v="hill" />
		<tag k="place" v="locality" />
		<tag k="ssr:stedsnr" v="922786" />
	</node>
	<node id="-569560" lat="62.4368027822" lon="7.62348055385">
		<tag k="fixme" v="consider natural=peak for the most distinct mountains in the district" />
		<tag k="name" v="Alnestinden" />
		<tag k="natural" v="hill" />
		<tag k="place" v="locality" />
		<tag k="ssr:stedsnr" v="921993" />
	</node>
	<node id="-569557" lat="62.3329916695" lon="7.38114445239">
		<tag k="name" v="Valldalen" />
		<tag k="natural" v="valley" />
		<tag k="place" v="locality" />
		<tag k="ssr:stedsnr" v="921820" />
	</node>
	<node id="-569556" lat="62.3506194435" lon="7.47781110219">
		<tag k="name" v="Gudbrandsdalen" />
		<tag k="natural" v="valley" />
		<tag k="place" v="locality" />
		<tag k="ssr:stedsnr" v="921811" />
	</node>
	<node id="-569551" lat="62.340377776" lon="7.49860832786">
		<tag k="fixme" v="consider natural=peak for the most distinct mountains in the district" />
		<tag k="name" v="Alstadfjellet" />
		<tag k="natural" v="hill" />
		<tag k="place" v="locality" />
		<tag k="ssr:stedsnr" v="921762" />
	</node>
	<node id="-569550" lat="62.2917694489" lon="7.69122778395">
		<tag k="fixme" v="consider natural=peak for the most distinct mountains in the district" />
		<tag k="name" v="Storfjellet" />
		<tag k="natural" v="hill" />
		<tag k="place" v="locality" />
		<tag k="ssr:stedsnr" v="921662" />
	</node>
	<node id="-569547" lat="62.2370138872" lon="7.4742250025">
		<tag k="name" v="Raudnukdalen" />
		<tag k="natural" v="valley" />
		<tag k="place" v="locality" />
		<tag k="ssr:stedsnr" v="921512" />
	</node>
	<node id="-569546" lat="62.2436250003" lon="7.30028888146">
		<tag k="fixme" v="consider natural=peak for the most distinct mountains in the district" />
		<tag k="name" v="Solegga" />
		<tag k="natural" v="hill" />
		<tag k="place" v="locality" />
		<tag k="ssr:stedsnr" v="921513" />
	</node>
	<node id="-569545" lat="62.2440805532" lon="7.54353332516">
		<tag k="name" v="Grjotkoppen" />
		<tag k="natural" v="valley" />
		<tag k="place" v="locality" />
		<tag k="ssr:stedsnr" v="921510" />
	</node>
	<node id="-569544" lat="62.2197583347" lon="7.09911111358">
		<tag k="name" v="Litledalen" />
		<tag k="natural" v="valley" />
		<tag k="place" v="locality" />
		<tag k="ssr:stedsnr" v="921304" />
	</node>
	<node id="-569542" lat="62.2366666643" lon="7.18373611594">
		<tag k="name" v="Heia" />
		<tag k="natural" v="hill" />
		<tag k="place" v="locality" />
		<tag k="ssr:stedsnr" v="921293" />
	</node>
	<node id="-569541" lat="62.2323472258" lon="7.21026665761">
		<tag k="name" v="Nonshaugen" />
		<tag k="natural" v="hill" />
		<tag k="place" v="locality" />
		<tag k="ssr:stedsnr" v="921294" />
	</node>
	<node id="-569539" lat="62.0945777738" lon="7.37267499648">
		<tag k="fixme" v="consider natural=peak for the most distinct mountains in the district" />
		<tag k="name" v="Styggflærne" />
		<tag k="natural" v="hill" />
		<tag k="place" v="locality" />
		<tag k="ssr:stedsnr" v="921102" />
	</node>
	<node id="-569538" lat="62.1386250015" lon="7.54365000205">
		<tag k="fixme" v="consider natural=peak for the most distinct mountains in the district" />
		<tag k="name" v="Landversbreen" />
		<tag k="natural" v="hill" />
		<tag k="place" v="locality" />
		<tag k="ssr:stedsnr" v="921076" />
	</node>
	<node id="-569537" lat="62.1670638885" lon="7.23025555292">
		<tag k="name" v="Litleøvstdalen" />
		<tag k="natural" v="valley" />
		<tag k="place" v="locality" />
		<tag k="ssr:stedsnr" v="921062" />
	</node>
	<node id="-569535" lat="62.1486361072" lon="7.49915000696">
		<tag k="name" v="Sørebotn" />
		<tag k="natural" v="valley" />
		<tag k="place" v="locality" />
		<tag k="ssr:stedsnr" v="921048" />
	</node>
	<node id="-569534" lat="62.1660333296" lon="7.27605277591">
		<tag k="name" v="Brattløyfta" />
		<tag k="place" v="locality" />
		<tag k="ssr:stedsnr" v="921037" />
	</node>
	<node id="-569532" lat="62.3940611117" lon="7.79639443902">
		<tag k="fixme" v="consider natural=peak for the most distinct mountains in the district" />
		<tag k="name" v="Salknappen" />
		<tag k="natural" v="hill" />
		<tag k="place" v="locality" />
		<tag k="ssr:stedsnr" v="921026" />
	</node>
	<node id="-569531" lat="62.2002500003" lon="7.48726944886">
		<tag k="name" v="Furhaugen" />
		<tag k="natural" v="hill" />
		<tag k="place" v="locality" />
		<tag k="ssr:stedsnr" v="921014" />
	</node>
	<node id="-569530" lat="62.2105805526" lon="7.53485833305">
		<tag k="name" v="Djupdalshammaren" />
		<tag k="natural" v="hill" />
		<tag k="place" v="locality" />
		<tag k="ssr:stedsnr" v="921007" />
	</node>
	<node id="-569529" lat="62.1988055575" lon="7.29164167288">
		<tag k="name" v="Fursetdalen" />
		<tag k="natural" v="valley" />
		<tag k="place" v="locality" />
		<tag k="ssr:stedsnr" v="921009" />
	</node>
	<node id="-569527" lat="62.2147194443" lon="7.59208334022">
		<tag k="name" v="Reindalshola" />
		<tag k="natural" v="valley" />
		<tag k="place" v="locality" />
		<tag k="ssr:stedsnr" v="921002" />
	</node>
	<node id="-569526" lat="62.4095027763" lon="7.67199722974">
		<tag k="name" v="Langfjelldalen" />
		<tag k="natural" v="valley" />
		<tag k="place" v="locality" />
		<tag k="ssr:stedsnr" v="921957" />
	</node>
	<node id="-569524" lat="62.2616083327" lon="7.0650194374">
		<tag k="fixme" v="consider natural=peak for the most distinct mountains in the district" />
		<tag k="name" v="Slettheia" />
		<tag k="natural" v="hill" />
		<tag k="place" v="locality" />
		<tag k="ssr:stedsnr" v="921892" />
	</node>
	<node id="-569517" lat="62.2668055589" lon="7.48984443742">
		<tag k="fixme" v="consider natural=peak for the most distinct mountains in the district" />
		<tag k="name" v="Buskredhornet" />
		<tag k="natural" v="hill" />
		<tag k="place" v="locality" />
		<tag k="ssr:stedsnr" v="861816" />
	</node>
	<node id="-569512" lat="62.3047749967" lon="7.15237499757">
		<tag k="name" v="Blåsvora" />
		<tag k="natural" v="hill" />
		<tag k="old_name" v="Blåsvorene" />
		<tag k="place" v="locality" />
		<tag k="ssr:stedsnr" v="861576" />
	</node>
	<node id="-569511" lat="62.1524055522" lon="7.14614167168">
		<tag k="fixme" v="consider natural=peak for the most distinct mountains in the district" />
		<tag k="name" v="Eidshornet" />
		<tag k="natural" v="hill" />
		<tag k="place" v="locality" />
		<tag k="ssr:stedsnr" v="861315" />
	</node>
	<node id="-569509" lat="62.227683333" lon="7.05987778641">
		<tag k="name" v="Smogedalen" />
		<tag k="natural" v="valley" />
		<tag k="place" v="locality" />
		<tag k="ssr:stedsnr" v="861258" />
	</node>
	<node id="-569507" lat="62.1211499974" lon="7.40871110711">
		<tag k="fixme" v="consider natural=peak for the most distinct mountains in the district" />
		<tag k="name" v="Såthaugane" />
		<tag k="natural" v="hill" />
		<tag k="place" v="locality" />
		<tag k="ssr:stedsnr" v="861081" />
	</node>
	<node id="-569505" lat="62.1840055559" lon="7.69830833942">
		<tag k="name" v="Karitindkupa" />
		<tag k="natural" v="valley" />
		<tag k="place" v="locality" />
		<tag k="ssr:stedsnr" v="861065" />
	</node>
	<node id="-569503" lat="62.1759166658" lon="7.28509444085">
		<tag k="fixme" v="consider natural=peak for the most distinct mountains in the district" />
		<tag k="name" v="Kupenibba" />
		<tag k="natural" v="hill" />
		<tag k="place" v="locality" />
		<tag k="ssr:stedsnr" v="861059" />
	</node>
	<node id="-569502" lat="62.1910027775" lon="7.27661110853">
		<tag k="fixme" v="consider natural=peak for the most distinct mountains in the district" />
		<tag k="name" v="Mefjellet" />
		<tag k="natural" v="hill" />
		<tag k="place" v="locality" />
		<tag k="ssr:stedsnr" v="861049" />
	</node>
	<node id="-569499" lat="62.2664027756" lon="7.1346305617">
		<tag k="fixme" v="consider natural=peak for the most distinct mountains in the district" />
		<tag k="name" v="Blåhornet" />
		<tag k="natural" v="hill" />
		<tag k="place" v="locality" />
		<tag k="ssr:stedsnr" v="860913" />
	</node>
	<node id="-569494" lat="62.3622250027" lon="7.5910527785">
		<tag k="name" v="Severiskoppen" />
		<tag k="natural" v="valley" />
		<tag k="place" v="locality" />
		<tag k="ssr:stedsnr" v="860823" />
	</node>
	<node id="-569493" lat="62.3600111146" lon="7.42214444247">
		<tag k="alt_name" v="Kyrfonndalen, søre" />
		<tag k="name" v="Søre Kyrfonndalen" />
		<tag k="natural" v="valley" />
		<tag k="place" v="locality" />
		<tag k="ssr:stedsnr" v="860821" />
	</node>
	<node id="-569491" lat="62.3624999979" lon="7.45281944386">
		<tag k="fixme" v="consider natural=peak for the most distinct mountains in the district" />
		<tag k="name" v="Remsfjellet" />
		<tag k="natural" v="hill" />
		<tag k="place" v="locality" />
		<tag k="ssr:stedsnr" v="860820" />
	</node>
	<node id="-569488" lat="62.1678611111" lon="7.09480278264">
		<tag k="fixme" v="consider natural=peak for the most distinct mountains in the district" />
		<tag k="name" v="Oaldsegga" />
		<tag k="natural" v="hill" />
		<tag k="place" v="locality" />
		<tag k="ssr:stedsnr" v="860410" />
	</node>
	<node id="-569487" lat="62.2223555536" lon="7.10170278315">
		<tag k="name" v="Bjørnskarheia" />
		<tag k="natural" v="hill" />
		<tag k="place" v="locality" />
		<tag k="ssr:stedsnr" v="860356" />
	</node>
	<node id="-569486" lat="62.1465694488" lon="7.3810694538">
		<tag k="fixme" v="consider natural=peak for the most distinct mountains in the district" />
		<tag k="name" v="Nonshornet" />
		<tag k="natural" v="hill" />
		<tag k="place" v="locality" />
		<tag k="ssr:stedsnr" v="860098" />
	</node>
	<node id="-569485" lat="62.1527361142" lon="7.37302777254">
		<tag k="name" v="Fugleheiskaret" />
		<tag k="natural" v="valley" />
		<tag k="place" v="locality" />
		<tag k="ssr:stedsnr" v="860048" />
	</node>
	<node id="-569484" lat="62.1637111083" lon="7.29419722067">
		<tag k="fixme" v="consider natural=peak for the most distinct mountains in the district" />
		<tag k="name" v="Grjotdalsnibba" />
		<tag k="natural" v="hill" />
		<tag k="place" v="locality" />
		<tag k="ssr:stedsnr" v="860045" />
	</node>
	<node id="-569483" lat="62.153530556" lon="7.3927694358">
		<tag k="fixme" v="consider natural=peak for the most distinct mountains in the district" />
		<tag k="name" v="Holene" />
		<tag k="natural" v="hill" />
		<tag k="place" v="locality" />
		<tag k="ssr:stedsnr" v="860043" />
	</node>
	<node id="-569479" lat="62.2011527819" lon="7.22085833586">
		<tag k="name" v="Kupene" />
		<tag k="natural" v="slope" />
		<tag k="place" v="locality" />
		<tag k="ssr:stedsnr" v="860012" />
	</node>
	<node id="-569478" lat="62.236041669" lon="7.26335555189">
		<tag k="name" v="Høggjerdet" />
		<tag k="natural" v="slope" />
		<tag k="place" v="locality" />
		<tag k="ssr:stedsnr" v="835857" />
	</node>
	<node id="-569476" lat="62.2365194467" lon="7.27463055125">
		<tag k="name" v="Storgjerdet" />
		<tag k="natural" v="slope" />
		<tag k="place" v="locality" />
		<tag k="ssr:stedsnr" v="835848" />
	</node>
	<node id="-569474" lat="62.3921000033" lon="7.58442222697">
		<tag k="name" v="Storskreda" />
		<tag k="place" v="locality" />
		<tag k="ssr:stedsnr" v="835812" />
	</node>
	<node id="-569470" lat="62.3399833369" lon="7.55528332394">
		<tag k="name" v="Grønhaugen" />
		<tag k="natural" v="hill" />
		<tag k="place" v="locality" />
		<tag k="ssr:stedsnr" v="835803" />
	</node>
	<node id="-569468" lat="62.3266222222" lon="7.40158055835">
		<tag k="name" v="Storskogane" />
		<tag k="place" v="locality" />
		<tag k="ssr:stedsnr" v="835720" />
	</node>
	<node id="-569467" lat="62.3246166675" lon="7.49384166631">
		<tag k="name" v="Furet" />
		<tag k="natural" v="ridge" />
		<tag k="place" v="locality" />
		<tag k="ssr:stedsnr" v="835715" />
	</node>
	<node id="-569466" lat="62.3505027766" lon="7.4315527838">
		<tag k="name" v="Longeremen" />
		<tag k="place" v="locality" />
		<tag k="ssr:stedsnr" v="835694" />
	</node>
	<node id="-569464" lat="62.3045305587" lon="7.29158333531">
		<tag k="name" v="Bygdeheia" />
		<tag k="natural" v="hill" />
		<tag k="place" v="locality" />
		<tag k="ssr:stedsnr" v="835528" />
	</node>
	<node id="-569459" lat="62.2416861112" lon="7.28006388858">
		<tag k="name" v="Småstrekane" />
		<tag k="place" v="locality" />
		<tag k="ssr:stedsnr" v="835171" />
	</node>
	<node id="-569456" lat="62.2769444419" lon="7.11826666671">
		<tag k="name" v="Svartesvødene" />
		<tag k="natural" v="hill" />
		<tag k="place" v="locality" />
		<tag k="ssr:stedsnr" v="835126" />
	</node>
	<node id="-569453" lat="62.2010444439" lon="7.43304444574">
		<tag k="name" v="Storøyna" />
		<tag k="place" v="locality" />
		<tag k="ssr:stedsnr" v="835092" />
	</node>
	<node id="-569452" lat="62.190216669" lon="7.42440000933">
		<tag k="name" v="Litlejordgjølet" />
		<tag k="natural" v="valley" />
		<tag k="place" v="locality" />
		<tag k="ssr:stedsnr" v="834956" />
	</node>
	<node id="-569450" lat="62.2360305585" lon="7.42489721822">
		<tag k="name" v="Supasota" />
		<tag k="natural" v="hill" />
		<tag k="place" v="locality" />
		<tag k="ssr:stedsnr" v="834770" />
	</node>
	<node id="-569446" lat="62.3363416624" lon="7.4248249999">
		<tag k="name" v="Blomløteigen" />
		<tag k="natural" v="slope" />
		<tag k="place" v="locality" />
		<tag k="ssr:stedsnr" v="834646" />
	</node>
	<node id="-569445" lat="62.3318305552" lon="7.43820833834">
		<tag k="name" v="Svartsva" />
		<tag k="natural" v="hill" />
		<tag k="place" v="locality" />
		<tag k="ssr:stedsnr" v="834641" />
	</node>
	<node id="-569444" lat="62.216952776" lon="7.32200833054">
		<tag k="name" v="Slettebakkane" />
		<tag k="natural" v="slope" />
		<tag k="place" v="locality" />
		<tag k="ssr:stedsnr" v="834583" />
	</node>
	<node id="-569443" lat="62.1911861079" lon="7.32514444434">
		<tag k="name" v="Benken" />
		<tag k="place" v="locality" />
		<tag k="ssr:stedsnr" v="834517" />
	</node>
	<node id="-569442" lat="62.3259444405" lon="7.32441111255">
		<tag k="name" v="Jordbærleiren" />
		<tag k="place" v="locality" />
		<tag k="ssr:stedsnr" v="834369" />
	</node>
	<node id="-569440" lat="62.3306166686" lon="7.36447777966">
		<tag k="name" v="Fagervollen" />
		<tag k="natural" v="hill" />
		<tag k="place" v="locality" />
		<tag k="ssr:stedsnr" v="834330" />
	</node>
	<node id="-569438" lat="62.3083250046" lon="7.28259723156">
		<tag k="name" v="Nonssva" />
		<tag k="natural" v="hill" />
		<tag k="place" v="locality" />
		<tag k="ssr:stedsnr" v="834315" />
	</node>
	<node id="-569437" lat="62.3106944451" lon="7.31347776992">
		<tag k="name" v="Blomflårabben" />
		<tag k="natural" v="hill" />
		<tag k="place" v="locality" />
		<tag k="ssr:stedsnr" v="834314" />
	</node>
	<node id="-569436" lat="62.3376861075" lon="7.37180277737">
		<tag k="name" v="Ormhaugen" />
		<tag k="natural" v="hill" />
		<tag k="place" v="locality" />
		<tag k="ssr:stedsnr" v="834281" />
	</node>
	<node id="-569434" lat="62.1645694417" lon="7.51924444855">
		<tag k="name" v="Bykset" />
		<tag k="place" v="locality" />
		<tag k="ssr:stedsnr" v="834233" />
	</node>
	<node id="-569433" lat="62.2230083356" lon="7.04646388369">
		<tag k="name" v="Kråkereirstreket" />
		<tag k="natural" v="valley" />
		<tag k="place" v="locality" />
		<tag k="ssr:stedsnr" v="834106" />
	</node>
	<node id="-569431" lat="62.2975638843" lon="7.1656416586">
		<tag k="name" v="Holet" />
		<tag k="place" v="locality" />
		<tag k="ssr:stedsnr" v="834084" />
	</node>
	<node id="-569429" lat="62.2941972211" lon="7.16588332398">
		<tag k="name" v="Tunga" />
		<tag k="natural" v="ridge" />
		<tag k="place" v="locality" />
		<tag k="ssr:stedsnr" v="834074" />
	</node>
	<node id="-569428" lat="62.2941861134" lon="7.21576111092">
		<tag k="name" v="Longhamrane" />
		<tag k="natural" v="ridge" />
		<tag k="place" v="locality" />
		<tag k="ssr:stedsnr" v="834014" />
	</node>
	<node id="-569426" lat="62.2024694476" lon="7.16493055921">
		<tag k="name" v="Flåna" />
		<tag k="natural" v="slope" />
		<tag k="place" v="locality" />
		<tag k="ssr:stedsnr" v="824468" />
	</node>
	<node id="-569423" lat="62.2354472233" lon="7.14638888067">
		<tag k="name" v="Utlømarka" />
		<tag k="natural" v="slope" />
		<tag k="place" v="locality" />
		<tag k="ssr:stedsnr" v="824397" />
	</node>
	<node id="-569421" lat="62.1627111076" lon="7.18068055208">
		<tag k="name" v="Hegrehamrane" />
		<tag k="natural" v="cliff" />
		<tag k="ssr:stedsnr" v="824391" />
	</node>
	<node id="-569418" lat="62.1725222261" lon="7.17273610214">
		<tag k="name" v="Ljåsteinberga" />
		<tag k="natural" v="ridge" />
		<tag k="place" v="locality" />
		<tag k="ssr:stedsnr" v="824383" />
	</node>
	<node id="-569412" lat="62.3495722205" lon="7.52046111645">
		<tag k="name" v="Krikekoppen" />
		<tag k="natural" v="valley" />
		<tag k="place" v="locality" />
		<tag k="ssr:stedsnr" v="810984" />
	</node>
	<node id="-569405" lat="62.2969305567" lon="7.38078612017">
		<tag k="fixme" v="consider natural=peak for the most distinct mountains in the district" />
		<tag k="name" v="Hegguraksla" />
		<tag k="natural" v="hill" />
		<tag k="place" v="locality" />
		<tag k="ssr:stedsnr" v="800848" />
	</node>
	<node id="-569401" lat="62.2806555544" lon="7.52528888391">
		<tag k="alt_name" v="Neskoppen, fremste" />
		<tag k="name" v="Fremste Neskoppen" />
		<tag k="natural" v="valley" />
		<tag k="place" v="locality" />
		<tag k="ssr:stedsnr" v="800792" />
	</node>
	<node id="-569400" lat="62.2712916622" lon="7.27077499348">
		<tag k="name" v="Peistolane" />
		<tag k="natural" v="valley" />
		<tag k="place" v="locality" />
		<tag k="ssr:stedsnr" v="800789" />
	</node>
	<node id="-569399" lat="62.3441500023" lon="7.30051943601">
		<tag k="fixme" v="consider natural=peak for the most distinct mountains in the district" />
		<tag k="name" v="Myklebusthornet" />
		<tag k="natural" v="hill" />
		<tag k="place" v="locality" />
		<tag k="ssr:stedsnr" v="800781" />
	</node>
	<node id="-569397" lat="62.3793249986" lon="7.29300000764">
		<tag k="fixme" v="consider natural=peak for the most distinct mountains in the district" />
		<tag k="name" v="Vesleheia" />
		<tag k="natural" v="hill" />
		<tag k="place" v="locality" />
		<tag k="ssr:stedsnr" v="800763" />
	</node>
	<node id="-569395" lat="62.3200055577" lon="7.51697500896">
		<tag k="fixme" v="consider natural=peak for the most distinct mountains in the district" />
		<tag k="name" v="Svarthornet" />
		<tag k="natural" v="hill" />
		<tag k="place" v="locality" />
		<tag k="ssr:stedsnr" v="800746" />
	</node>
	<node id="-569389" lat="62.2738277808" lon="7.12459445236">
		<tag k="fixme" v="consider natural=peak for the most distinct mountains in the district" />
		<tag k="name" v="Flåna" />
		<tag k="natural" v="hill" />
		<tag k="place" v="locality" />
		<tag k="ssr:stedsnr" v="800576" />
	</node>
	<node id="-569388" lat="62.2312638932" lon="7.09082500634">
		<tag k="name" v="Smogereset" />
		<tag k="natural" v="valley" />
		<tag k="place" v="locality" />
		<tag k="ssr:stedsnr" v="800281" />
	</node>
	<node id="-569386" lat="62.1027249983" lon="7.60994167359">
		<tag k="fixme" v="consider natural=peak for the most distinct mountains in the district" />
		<tag k="name" v="Grønnvasshøi" />
		<tag k="natural" v="hill" />
		<tag k="place" v="locality" />
		<tag k="ssr:stedsnr" v="800096" />
	</node>
	<node id="-569383" lat="62.1391749993" lon="7.40966389471">
		<tag k="name" v="Storkaldhusdalen" />
		<tag k="natural" v="valley" />
		<tag k="place" v="locality" />
		<tag k="ssr:stedsnr" v="800071" />
	</node>
	<node id="-569382" lat="62.1916444475" lon="7.55311111908">
		<tag k="name" v="Haugane" />
		<tag k="natural" v="hill" />
		<tag k="place" v="locality" />
		<tag k="ssr:stedsnr" v="800053" />
	</node>
	<node id="-569381" lat="62.1723194449" lon="7.55378333097">
		<tag k="name" v="Daurmålshaugen" />
		<tag k="natural" v="hill" />
		<tag k="place" v="locality" />
		<tag k="ssr:stedsnr" v="800042" />
	</node>
	<node id="-569379" lat="62.4031388904" lon="7.59207222123">
		<tag k="name" v="Meiadalskoppen" />
		<tag k="natural" v="valley" />
		<tag k="place" v="locality" />
		<tag k="ssr:stedsnr" v="799980" />
	</node>
	<node id="-569378" lat="62.3104527766" lon="7.43907777538">
		<tag k="fixme" v="consider natural=peak for the most distinct mountains in the district" />
		<tag k="name" v="Sandfjellet" />
		<tag k="natural" v="hill" />
		<tag k="place" v="locality" />
		<tag k="ssr:stedsnr" v="799872" />
	</node>
	<node id="-569376" lat="62.2459972212" lon="7.26561943827">
		<tag k="fixme" v="consider natural=peak for the most distinct mountains in the district" />
		<tag k="name" v="Tverrafjellet" />
		<tag k="natural" v="hill" />
		<tag k="place" v="locality" />
		<tag k="ssr:stedsnr" v="799502" />
	</node>
	<node id="-569375" lat="62.2377250024" lon="7.23912776897">
		<tag k="alt_name" v="Laushammarene" />
		<tag k="name" v="Laushamrane" />
		<tag k="natural" v="hill" />
		<tag k="place" v="locality" />
		<tag k="ssr:stedsnr" v="799497" />
	</node>
	<node id="-569372" lat="62.3125194452" lon="7.16702777559">
		<tag k="fixme" v="consider natural=peak for the most distinct mountains in the district" />
		<tag k="name" v="Nyken" />
		<tag k="natural" v="hill" />
		<tag k="place" v="locality" />
		<tag k="ssr:stedsnr" v="800603" />
	</node>
	<node id="-569370" lat="62.3299444438" lon="7.52743055343">
		<tag k="name" v="Øyane" />
		<tag k="natural" v="hill" />
		<tag k="place" v="locality" />
		<tag k="ssr:stedsnr" v="774823" />
	</node>
	<node id="-569369" lat="62.2349055558" lon="7.23762499453">
		<tag k="name" v="Skogahaugen" />
		<tag k="natural" v="hill" />
		<tag k="place" v="locality" />
		<tag k="ssr:stedsnr" v="774821" />
	</node>
	<node id="-569368" lat="62.2955916636" lon="7.23626665921">
		<tag k="name" v="Furenakkane" />
		<tag k="natural" v="ridge" />
		<tag k="place" v="locality" />
		<tag k="ssr:stedsnr" v="774805" />
	</node>
	<node id="-569367" lat="62.2697305591" lon="7.24183888165">
		<tag k="name" v="Bukkespranget" />
		<tag k="natural" v="cliff" />
		<tag k="ssr:stedsnr" v="774752" />
	</node>
	<node id="-569363" lat="62.2971305583" lon="7.3469416657">
		<tag k="fixme" v="consider natural=peak for the most distinct mountains in the district" />
		<tag k="name" v="Sæterfjellet" />
		<tag k="natural" v="hill" />
		<tag k="place" v="locality" />
		<tag k="ssr:stedsnr" v="774535" />
	</node>
	<node id="-569362" lat="62.2920194443" lon="7.35336111263">
		<tag k="name" v="Peteigen" />
		<tag k="natural" v="cliff" />
		<tag k="ssr:stedsnr" v="774520" />
	</node>
	<node id="-569361" lat="62.2895972266" lon="7.36209722679">
		<tag k="name" v="Hammaren" />
		<tag k="place" v="locality" />
		<tag k="ssr:stedsnr" v="774516" />
	</node>
	<node id="-569359" lat="62.3296444415" lon="7.30261112013">
		<tag k="name" v="Storstovgjølet" />
		<tag k="natural" v="valley" />
		<tag k="place" v="locality" />
		<tag k="ssr:stedsnr" v="774313" />
	</node>
	<node id="-569354" lat="62.270972218" lon="7.11424444655">
		<tag k="name" v="Paradiset" />
		<tag k="natural" v="slope" />
		<tag k="place" v="locality" />
		<tag k="ssr:stedsnr" v="774127" />
	</node>
	<node id="-569352" lat="62.2564638875" lon="7.24881110185">
		<tag k="name" v="Raudnakkane" />
		<tag k="natural" v="ridge" />
		<tag k="place" v="locality" />
		<tag k="ssr:stedsnr" v="773930" />
	</node>
	<node id="-569347" lat="62.2565944421" lon="7.46671944573">
		<tag k="name" v="Storskredene" />
		<tag k="place" v="locality" />
		<tag k="ssr:stedsnr" v="773767" />
	</node>
	<node id="-569346" lat="62.222638885" lon="7.42453611884">
		<tag k="fixme" v="consider natural=peak for the most distinct mountains in the district" />
		<tag k="name" v="Lågnausane" />
		<tag k="natural" v="hill" />
		<tag k="place" v="locality" />
		<tag k="ssr:stedsnr" v="773752" />
	</node>
</osm>
