<?xml version="1.0" encoding="UTF-8"?>
<osm version="0.6" generator="osmapis">
	<node lat="60.358152779094894" lon="10.56589443834482" id="-20570">
		<tag k="name" v="Hovstjernet" />
		<tag k="natural" v="water" />
		<tag k="ssr:stedsnr" v="6003" />
	</node>
	<node lat="60.35193889156351" lon="10.592250002978771" id="-20571">
		<tag k="alt_name" v="Morstad" />
		<tag k="name" v="Østre Morstad" />
		<tag k="place" v="farm" />
		<tag k="ssr:stedsnr" v="6007" />
	</node>
	<node lat="60.42883333245655" lon="10.643874993952497" id="-20572">
		<tag k="historic" v="shieling" />
		<tag k="name" v="Lauvlisætra" />
		<tag k="place" v="isolated_dwelling" />
		<tag k="ssr:stedsnr" v="6157" />
	</node>
	<node lat="60.426913611081524" lon="10.568581021341856" id="-20573">
		<tag k="fixme" v="consider place=hamlet" />
		<tag k="name" v="Tåjet" />
		<tag k="place" v="farm" />
		<tag k="ssr:stedsnr" v="6162" />
	</node>
	<node lat="60.39511111307281" lon="10.485661104967244" id="-20574">
		<tag k="amenity" v="place_of_worship" />
		<tag k="denomination" v="lutheran" />
		<tag k="name" v="Tingelstad kirke" />
		<tag k="religion" v="christian" />
		<tag k="ssr:stedsnr" v="6178" />
	</node>
	<node lat="60.414194444344126" lon="10.54258334125184" id="-20575">
		<tag k="alt_name" v="Trulsrud" />
		<tag k="name" v="Trulserud" />
		<tag k="place" v="farm" />
		<tag k="ssr:stedsnr" v="6182" />
	</node>
	<node lat="60.49448889137301" lon="10.457341673407006" id="-20576">
		<tag k="name" v="Larsbråtån" />
		<tag k="place" v="isolated_dwelling" />
		<tag k="ssr:stedsnr" v="6301" />
	</node>
	<node lat="60.39112168454529" lon="10.269740428373789" id="-20577">
		<tag k="name" v="Roken" />
		<tag k="natural" v="water" />
		<tag k="ssr:stedsnr" v="6308" />
	</node>
	<node lat="60.39945833775079" lon="10.220163895307534" id="-20578">
		<tag k="name" v="Buvassmyrene" />
		<tag k="natural" v="wetland" />
		<tag k="ssr:stedsnr" v="6312" />
	</node>
	<node lat="60.34992777941946" lon="10.520694448510467" id="-20579">
		<tag k="fixme" v="consider natural=peak for the most distinct mountains in the district" />
		<tag k="name" v="Gammehaugen" />
		<tag k="natural" v="hill" />
		<tag k="place" v="locality" />
		<tag k="ssr:stedsnr" v="6060" />
	</node>
	<node lat="60.346391663751284" lon="10.509650006045284" id="-20580">
		<tag k="name" v="Delimarka" />
		<tag k="place" v="locality" />
		<tag k="ssr:stedsnr" v="6061" />
	</node>
	<node lat="60.35716666793418" lon="10.616650001949871" id="-20581">
		<tag k="name" v="Goddokka" />
		<tag k="place" v="farm" />
		<tag k="ssr:stedsnr" v="6064" />
	</node>
	<node lat="60.45028333203112" lon="10.563988889630716" id="-20582">
		<tag k="alt_name" v="Iversrud" />
		<tag k="name" v="Søre Iversrud" />
		<tag k="place" v="farm" />
		<tag k="ssr:stedsnr" v="6255" />
	</node>
	<node lat="60.39848333689488" lon="10.805783337475756" id="-20583">
		<tag k="alt_name" v="Lomtjern, øvre" />
		<tag k="name" v="Øvre Lomtjern" />
		<tag k="natural" v="water" />
		<tag k="ssr:stedsnr" v="6623" />
	</node>
	<node lat="60.41291666608984" lon="10.732036105652753" id="-20584">
		<tag k="name" v="Grønsjøbekken" />
		<tag k="ssr:stedsnr" v="6624" />
		<tag k="waterway" v="stream" />
	</node>
	<node lat="60.46178888477211" lon="10.310508334540422" id="-20585">
		<tag k="name" v="Ljosdalen" />
		<tag k="natural" v="valley" />
		<tag k="place" v="locality" />
		<tag k="ssr:stedsnr" v="6581" />
	</node>
	<node lat="60.37522777766779" lon="10.879666657904632" id="-20586">
		<tag k="name" v="Brennholmputten" />
		<tag k="natural" v="water" />
		<tag k="ssr:stedsnr" v="6582" />
	</node>
	<node lat="60.48792499578984" lon="10.27462222496886" id="-20587">
		<tag k="fixme" v="consider natural=peak for the most distinct mountains in the district" />
		<tag k="name" v="Gusberghaugen" />
		<tag k="natural" v="hill" />
		<tag k="place" v="locality" />
		<tag k="ssr:stedsnr" v="6715" />
	</node>
	<node lat="60.326183330369226" lon="10.616552770240526" id="-20588">
		<tag k="name" v="Berg" />
		<tag k="place" v="farm" />
		<tag k="ssr:stedsnr" v="6966" />
	</node>
	<node lat="60.343771960452834" lon="10.545639744968701" id="-20589">
		<tag k="fixme" v="consider place=hamlet" />
		<tag k="name" v="Raknerud" />
		<tag k="place" v="farm" />
		<tag k="ssr:stedsnr" v="6985" />
	</node>
	<node lat="60.33566666944611" lon="10.533355561828413" id="-20590">
		<tag k="alt_name" v="Narum" />
		<tag k="name" v="Norum" />
		<tag k="place" v="isolated_dwelling" />
		<tag k="ssr:stedsnr" v="6986" />
	</node>
	<node lat="60.55257499972215" lon="10.47629443708236" id="-20591">
		<tag k="historic" v="shieling" />
		<tag k="name" v="Grimsrudsætra" />
		<tag k="place" v="isolated_dwelling" />
		<tag k="ssr:stedsnr" v="7124" />
	</node>
	<node lat="60.53456666888308" lon="10.193300001133295" id="-20592">
		<tag k="name" v="Jonsrud" />
		<tag k="place" v="farm" />
		<tag k="ssr:stedsnr" v="7521" />
	</node>
	<node lat="60.475736110945626" lon="10.296591674509045" id="-20593">
		<tag k="name" v="Skovlevikbekken" />
		<tag k="ssr:stedsnr" v="232437" />
		<tag k="waterway" v="stream" />
	</node>
	<node lat="60.33717499736894" lon="10.591983338878489" id="-20594">
		<tag k="name" v="Øvre Hval" />
		<tag k="place" v="farm" />
		<tag k="ssr:stedsnr" v="232212" />
	</node>
	<node lat="60.44086666730285" lon="10.234074996999894" id="-20595">
		<tag k="name" v="Ottersund" />
		<tag k="natural" v="strait" />
		<tag k="ssr:stedsnr" v="232272" />
	</node>
	<node lat="60.458322223662684" lon="10.304688882420304" id="-20596">
		<tag k="name" v="Skytilbekken" />
		<tag k="ssr:stedsnr" v="232366" />
		<tag k="waterway" v="stream" />
	</node>
	<node lat="60.49714167091256" lon="10.196019443411366" id="-20597">
		<tag k="name" v="Furuberga" />
		<tag k="natural" v="slope" />
		<tag k="place" v="locality" />
		<tag k="ssr:stedsnr" v="232575" />
	</node>
	<node lat="60.35654999608775" lon="10.599461112777885" id="-20598">
		<tag k="name" v="Gisleberg" />
		<tag k="place" v="farm" />
		<tag k="ssr:stedsnr" v="233126" />
	</node>
	<node lat="60.336988888949406" lon="10.889149992518115" id="-20599">
		<tag k="name" v="Jutulbakka" />
		<tag k="place" v="locality" />
		<tag k="ssr:stedsnr" v="233170" />
	</node>
	<node lat="60.46810833737926" lon="10.335813895973038" id="-20600">
		<tag k="name" v="Vardehøgda" />
		<tag k="natural" v="hill" />
		<tag k="place" v="locality" />
		<tag k="ssr:stedsnr" v="233177" />
	</node>
	<node lat="60.50474999903973" lon="10.31273610235249" id="-20601">
		<tag k="name" v="Jakobsbråtån" />
		<tag k="place" v="locality" />
		<tag k="ssr:stedsnr" v="233430" />
	</node>
	<node lat="60.4754527807053" lon="10.365219435721263" id="-20602">
		<tag k="name" v="Hansebråtan" />
		<tag k="place" v="locality" />
		<tag k="ssr:stedsnr" v="233361" />
	</node>
	<node lat="60.5102527799683" lon="10.202141665568911" id="-20603">
		<tag k="name" v="Nordstø" />
		<tag k="place" v="locality" />
		<tag k="ssr:stedsnr" v="233364" />
	</node>
	<node lat="60.4495861113475" lon="10.218119438844974" id="-20604">
		<tag k="name" v="Abborroa" />
		<tag k="natural" v="bay" />
		<tag k="ssr:stedsnr" v="233305" />
	</node>
	<node lat="60.38757499993359" lon="10.86442222308401" id="-20605">
		<tag k="name" v="Hekkentjernsbekken" />
		<tag k="old_name" v="Hekkentjeresbekken" />
		<tag k="ssr:stedsnr" v="233483" />
		<tag k="waterway" v="stream" />
	</node>
	<node lat="60.38051389187662" lon="10.886616669623159" id="-20606">
		<tag k="name" v="Sundmyra" />
		<tag k="natural" v="wetland" />
		<tag k="ssr:stedsnr" v="233493" />
	</node>
	<node lat="60.37986110961748" lon="10.876063892105572" id="-20607">
		<tag k="name" v="Kollerodden" />
		<tag k="natural" v="cape" />
		<tag k="ssr:stedsnr" v="233494" />
	</node>
	<node lat="60.37793055969425" lon="10.870850003009863" id="-20608">
		<tag k="name" v="Tømmerbakken" />
		<tag k="place" v="isolated_dwelling" />
		<tag k="ssr:stedsnr" v="233496" />
	</node>
	<node lat="60.480061111227" lon="10.175491661968763" id="-20609">
		<tag k="name" v="Styggdalen" />
		<tag k="natural" v="valley" />
		<tag k="place" v="locality" />
		<tag k="ssr:stedsnr" v="233542" />
	</node>
	<node lat="60.482211111682616" lon="10.222597223122666" id="-20610">
		<tag k="name" v="Geitryggen" />
		<tag k="natural" v="hill" />
		<tag k="place" v="locality" />
		<tag k="ssr:stedsnr" v="233702" />
	</node>
	<node lat="60.406766662808586" lon="10.810416663302828" id="-20611">
		<tag k="name" v="Huldertjernsbrenna" />
		<tag k="place" v="locality" />
		<tag k="ssr:stedsnr" v="233757" />
	</node>
	<node lat="60.380697221207775" lon="10.764277778759386" id="-20612">
		<tag k="name" v="Avrillsøya" />
		<tag k="natural" v="cape" />
		<tag k="ssr:stedsnr" v="233799" />
	</node>
	<node lat="60.46706666565112" lon="10.37781666954449" id="-20613">
		<tag k="name" v="Kampebråtån" />
		<tag k="place" v="locality" />
		<tag k="ssr:stedsnr" v="233809" />
	</node>
	<node lat="60.378880554194396" lon="10.751277775603066" id="-20614">
		<tag k="name" v="Sverige" />
		<tag k="place" v="island" />
		<tag k="ssr:stedsnr" v="233815" />
	</node>
	<node lat="60.48813888626812" lon="10.20955277273791" id="-20615">
		<tag k="name" v="Mærramyra" />
		<tag k="natural" v="wetland" />
		<tag k="ssr:stedsnr" v="233721" />
	</node>
	<node lat="60.3888527790852" lon="10.792541672068804" id="-20616">
		<tag k="name" v="Helvete" />
		<tag k="natural" v="water" />
		<tag k="ssr:stedsnr" v="233875" />
	</node>
	<node lat="60.51686111530139" lon="10.480188880058826" id="-20617">
		<tag k="name" v="Nedre Tjyrueldsmyra" />
		<tag k="natural" v="wetland" />
		<tag k="ssr:stedsnr" v="24581" />
	</node>
	<node lat="60.37243055957421" lon="10.331836110727398" id="-20618">
		<tag k="name" v="Sjåheimsputten" />
		<tag k="natural" v="water" />
		<tag k="ssr:stedsnr" v="234453" />
		<tag k="water" v="pond" />
	</node>
	<node lat="60.32162222284113" lon="10.450616658092107" id="-20619">
		<tag k="name" v="Nordre Mjør" />
		<tag k="place" v="farm" />
		<tag k="ssr:stedsnr" v="29119" />
	</node>
	<node lat="60.40641282330003" lon="10.536174315684658" id="-20620">
		<tag k="fixme" v="consider place=hamlet" />
		<tag k="name" v="Sandbakken" />
		<tag k="place" v="farm" />
		<tag k="ssr:stedsnr" v="29015" />
	</node>
	<node lat="60.32268333078369" lon="10.43499166575191" id="-20621">
		<tag k="name" v="Nedre Blekkerud" />
		<tag k="place" v="farm" />
		<tag k="ssr:stedsnr" v="29069" />
	</node>
	<node lat="60.416930552376336" lon="10.534927769700403" id="-20622">
		<tag k="name" v="Rosendalsbakken" />
		<tag k="place" v="farm" />
		<tag k="ssr:stedsnr" v="29204" />
	</node>
	<node lat="60.398686108403865" lon="10.578277770002313" id="-20623">
		<tag k="name" v="Iversrud" />
		<tag k="place" v="farm" />
		<tag k="ssr:stedsnr" v="29207" />
	</node>
	<node lat="60.430038889556215" lon="10.6491722297729" id="-20624">
		<tag k="name" v="Lauvlisæterhaugen" />
		<tag k="natural" v="hill" />
		<tag k="place" v="locality" />
		<tag k="ssr:stedsnr" v="29981" />
	</node>
	<node lat="60.35659722067549" lon="10.472952773960543" id="-20625">
		<tag k="junction" v="yes" />
		<tag k="name" v="Mo" />
		<tag k="place" v="locality" />
		<tag k="ssr:stedsnr" v="30707" />
	</node>
	<node lat="60.44937222418815" lon="10.449005559811473" id="-20626">
		<tag k="name" v="Sørleire" />
		<tag k="place" v="locality" />
		<tag k="ssr:stedsnr" v="31007" />
	</node>
	<node lat="60.46569167036652" lon="10.498383327776317" id="-20627">
		<tag k="name" v="Midtbleiken" />
		<tag k="old_name" v="Mellom-Bleiken;Bleiken mellem" />
		<tag k="place" v="farm" />
		<tag k="ssr:stedsnr" v="31675" />
	</node>
	<node lat="60.447536106871326" lon="10.579044442118674" id="-20628">
		<tag k="name" v="Hanserud" />
		<tag k="place" v="locality" />
		<tag k="ssr:stedsnr" v="31816" />
	</node>
	<node lat="60.51853375649712" lon="10.500049804252894" id="-20629">
		<tag k="name" v="Benstiputten" />
		<tag k="natural" v="water" />
		<tag k="ssr:stedsnr" v="32102" />
		<tag k="water" v="pond" />
	</node>
	<node lat="60.470838886513306" lon="10.618847218077091" id="-20630">
		<tag k="name" v="Kambuhøgda" />
		<tag k="natural" v="hill" />
		<tag k="place" v="locality" />
		<tag k="ssr:stedsnr" v="32315" />
	</node>
	<node lat="60.47586944890884" lon="10.614158324879726" id="-20631">
		<tag k="name" v="Ormebergmyra" />
		<tag k="natural" v="wetland" />
		<tag k="ssr:stedsnr" v="32318" />
	</node>
	<node lat="60.465536110105106" lon="10.62389721324504" id="-20632">
		<tag k="name" v="Haugsvollen" />
		<tag k="place" v="locality" />
		<tag k="ssr:stedsnr" v="32504" />
	</node>
	<node lat="60.43632500353925" lon="10.640349991863753" id="-20633">
		<tag k="name" v="Kvitberga" />
		<tag k="natural" v="hill" />
		<tag k="place" v="locality" />
		<tag k="ssr:stedsnr" v="32668" />
	</node>
	<node lat="60.56180833466923" lon="10.511758337975415" id="-20634">
		<tag k="name" v="Tretjernsputta" />
		<tag k="natural" v="water" />
		<tag k="ssr:stedsnr" v="32678" />
		<tag k="water" v="pond" />
	</node>
	<node lat="60.35158889227073" lon="10.861094435873156" id="-20635">
		<tag k="name" v="Godmyra" />
		<tag k="natural" v="wetland" />
		<tag k="ssr:stedsnr" v="44210" />
	</node>
	<node lat="60.52062221911648" lon="10.284269453414105" id="-20636">
		<tag k="bridge" v="yes" />
		<tag k="layer" v="1" />
		<tag k="name" v="Bjoneroa" />
		<tag k="ssr:stedsnr" v="46077" />
	</node>
	<node lat="60.43064166809471" lon="10.350130555018016" id="-20637">
		<tag k="name" v="Rompeporten" />
		<tag k="natural" v="bay" />
		<tag k="ssr:stedsnr" v="51107" />
	</node>
	<node lat="60.367572217845535" lon="10.583561118846918" id="-20638">
		<tag k="alt_name" v="Nedre Skjærvum" />
		<tag k="fixme" v="consider place=hamlet" />
		<tag k="name" v="Nedre Skjervum" />
		<tag k="place" v="farm" />
		<tag k="ssr:stedsnr" v="51111" />
	</node>
	<node lat="60.49215833594507" lon="10.184511114662618" id="-20639">
		<tag k="name" v="Valstjernfløta" />
		<tag k="place" v="locality" />
		<tag k="ssr:stedsnr" v="51177" />
	</node>
	<node lat="60.45124722375968" lon="10.188205554982712" id="-20640">
		<tag k="name" v="Torslægertjernene" />
		<tag k="natural" v="water" />
		<tag k="ssr:stedsnr" v="51319" />
		<tag k="water" v="lake" />
	</node>
	<node lat="60.491480555905056" lon="10.1805944358186" id="-20641">
		<tag k="name" v="Valstjernbekken" />
		<tag k="ssr:stedsnr" v="51575" />
		<tag k="waterway" v="stream" />
	</node>
	<node lat="60.3338444472914" lon="10.672958341068142" id="-20642">
		<tag k="name" v="Skarbrenna" />
		<tag k="natural" v="slope" />
		<tag k="place" v="locality" />
		<tag k="ssr:stedsnr" v="51424" />
	</node>
	<node lat="60.450636107406645" lon="10.271011117699983" id="-20643">
		<tag k="name" v="Søndre Lauerodden" />
		<tag k="natural" v="cape" />
		<tag k="ssr:stedsnr" v="51608" />
	</node>
	<node lat="60.384669447547225" lon="10.8096861185984" id="-20644">
		<tag k="name" v="Toputta" />
		<tag k="natural" v="water" />
		<tag k="ssr:stedsnr" v="51871" />
	</node>
	<node lat="60.37696389104607" lon="10.762861108817258" id="-20645">
		<tag k="name" v="Gullentreet" />
		<tag k="natural" v="cape" />
		<tag k="ssr:stedsnr" v="51775" />
	</node>
	<node lat="60.33495555539548" lon="10.822208324468956" id="-20646">
		<tag k="name" v="Hattemyrfløyta" />
		<tag k="natural" v="wetland" />
		<tag k="ssr:stedsnr" v="52723" />
	</node>
	<node lat="60.33148611369868" lon="10.829402781208717" id="-20647">
		<tag k="name" v="Hattemyrhytta" />
		<tag k="place" v="isolated_dwelling" />
		<tag k="ssr:stedsnr" v="52726" />
	</node>
	<node lat="60.41041110999239" lon="10.822658333471885" id="-20648">
		<tag k="fixme" v="consider natural=peak for the most distinct mountains in the district" />
		<tag k="name" v="Fugleåsen" />
		<tag k="natural" v="hill" />
		<tag k="place" v="locality" />
		<tag k="ssr:stedsnr" v="52686" />
	</node>
	<node lat="60.421966670602025" lon="10.571386109540045" id="-20649">
		<tag k="name" v="Lauvlibråtån" />
		<tag k="place" v="farm" />
		<tag k="ssr:stedsnr" v="272546" />
	</node>
	<node lat="60.36088611276455" lon="10.492163892179773" id="-20650">
		<tag k="name" v="Mellerud" />
		<tag k="place" v="farm" />
		<tag k="ssr:stedsnr" v="272548" />
	</node>
	<node lat="60.46809722202778" lon="10.498127781492736" id="-20651">
		<tag k="name" v="Nordbleiken" />
		<tag k="place" v="farm" />
		<tag k="ssr:stedsnr" v="240575" />
	</node>
	<node lat="60.475727780228986" lon="10.187091661607004" id="-20652">
		<tag k="name" v="Trona" />
		<tag k="ssr:stedsnr" v="66721" />
		<tag k="waterway" v="stream" />
	</node>
	<node lat="60.390338887684784" lon="10.479750005825693" id="-20653">
		<tag k="alt_name" v="Eldtjernet;Eldtjern" />
		<tag k="name" v="Elgtjernet" />
		<tag k="natural" v="water" />
		<tag k="ssr:stedsnr" v="67197" />
	</node>
	<node lat="60.49134444790506" lon="10.510794451121814" id="-20654">
		<tag k="name" v="Vedbakken" />
		<tag k="place" v="farm" />
		<tag k="ssr:stedsnr" v="67310" />
	</node>
	<node lat="60.44070832974303" lon="10.32906666224044" id="-20655">
		<tag k="name" v="Vesle Stokksjøen" />
		<tag k="natural" v="water" />
		<tag k="old_name" v="Stokksjø, vesle" />
		<tag k="ssr:stedsnr" v="67351" />
		<tag k="water" v="lake" />
	</node>
	<node lat="60.52261730739125" lon="10.278288296423154" id="-20656">
		<tag k="fixme" v="consider place=hamlet" />
		<tag k="name" v="Haug" />
		<tag k="place" v="farm" />
		<tag k="ssr:stedsnr" v="67513" />
	</node>
	<node lat="60.48566944166885" lon="10.291708334374261" id="-20657">
		<tag k="name" v="Signetjern" />
		<tag k="natural" v="water" />
		<tag k="ssr:stedsnr" v="67712" />
	</node>
	<node lat="60.48498889208532" lon="10.252883336215241" id="-20658">
		<tag k="name" v="Berger" />
		<tag k="place" v="farm" />
		<tag k="ssr:stedsnr" v="67718" />
	</node>
	<node lat="60.495061111583006" lon="10.25203610343028" id="-20659">
		<tag k="name" v="Solstad" />
		<tag k="place" v="farm" />
		<tag k="ssr:stedsnr" v="67726" />
	</node>
	<node lat="60.336752776701815" lon="10.624611114875764" id="-20660">
		<tag k="name" v="Rugrota" />
		<tag k="place" v="farm" />
		<tag k="ssr:stedsnr" v="67990" />
	</node>
	<node lat="60.344205677923" lon="10.717978355787873" id="-20661">
		<tag k="name" v="Våja" />
		<tag k="natural" v="water" />
		<tag k="ssr:stedsnr" v="67994" />
		<tag k="water" v="lake" />
	</node>
	<node lat="60.431538891432275" lon="10.454622214759981" id="-20662">
		<tag k="name" v="Nedre Nes" />
		<tag k="place" v="farm" />
		<tag k="ssr:stedsnr" v="242366" />
	</node>
	<node lat="60.517741670661465" lon="10.4564583293796" id="-20663">
		<tag k="name" v="Svælabruolla" />
		<tag k="natural" v="spring" />
		<tag k="ssr:stedsnr" v="85494" />
	</node>
	<node lat="60.3412611105809" lon="10.656125007050285" id="-20664">
		<tag k="name" v="Langmyra" />
		<tag k="natural" v="wetland" />
		<tag k="ssr:stedsnr" v="90413" />
	</node>
	<node lat="60.3175388932697" lon="10.42224166543786" id="-20665">
		<tag k="name" v="Nedre Heier" />
		<tag k="place" v="farm" />
		<tag k="ssr:stedsnr" v="90618" />
	</node>
	<node lat="60.412138888050755" lon="10.64436667307759" id="-20666">
		<tag k="historic" v="shieling" />
		<tag k="name" v="Nedre Sverasæter" />
		<tag k="place" v="isolated_dwelling" />
		<tag k="ssr:stedsnr" v="90576" />
	</node>
	<node lat="60.37214722507049" lon="10.6311027833474" id="-20667">
		<tag k="name" v="Olabråtålia" />
		<tag k="natural" v="slope" />
		<tag k="place" v="locality" />
		<tag k="ssr:stedsnr" v="90732" />
	</node>
	<node lat="60.43067778138359" lon="10.613380552483418" id="-20668">
		<tag k="name" v="Badstubekken" />
		<tag k="ssr:stedsnr" v="90966" />
		<tag k="waterway" v="stream" />
	</node>
	<node lat="60.42885278001247" lon="10.64421667579312" id="-20669">
		<tag k="historic" v="shieling" />
		<tag k="name" v="Lauvlisætra" />
		<tag k="place" v="isolated_dwelling" />
		<tag k="ssr:stedsnr" v="90969" />
	</node>
	<node lat="60.417811107418146" lon="10.64201111433476" id="-20670">
		<tag k="name" v="Stadstamyra" />
		<tag k="natural" v="wetland" />
		<tag k="ssr:stedsnr" v="90971" />
	</node>
	<node lat="60.334038888514755" lon="10.411680558755052" id="-20671">
		<tag k="name" v="Rabben" />
		<tag k="place" v="farm" />
		<tag k="ssr:stedsnr" v="91176" />
	</node>
	<node lat="60.45062222492797" lon="10.464547223187632" id="-20672">
		<tag k="name" v="Gråbeintangen" />
		<tag k="natural" v="cape" />
		<tag k="ssr:stedsnr" v="91004" />
	</node>
	<node lat="60.54978610908919" lon="10.482075002097364" id="-20673">
		<tag k="name" v="Heimtjern" />
		<tag k="natural" v="water" />
		<tag k="ssr:stedsnr" v="91065" />
	</node>
	<node lat="60.43121389099908" lon="10.461833332670066" id="-20674">
		<tag k="name" v="Nesstrand" />
		<tag k="place" v="farm" />
		<tag k="ssr:stedsnr" v="91082" />
	</node>
	<node lat="60.40287222124411" lon="10.432941667616499" id="-20675">
		<tag k="name" v="Stykket" />
		<tag k="place" v="farm" />
		<tag k="ssr:stedsnr" v="91226" />
	</node>
	<node lat="60.49378055219943" lon="10.467988884017373" id="-20676">
		<tag k="ford" v="yes" />
		<tag k="name" v="Sillervadet" />
		<tag k="place" v="locality" />
		<tag k="ssr:stedsnr" v="91322" />
	</node>
	<node lat="60.49188055928243" lon="10.478083326074692" id="-20677">
		<tag k="name" v="Monserud" />
		<tag k="place" v="farm" />
		<tag k="ssr:stedsnr" v="92322" />
	</node>
	<node lat="60.484644442941395" lon="10.445472226887155" id="-20678">
		<tag k="name" v="Bunes" />
		<tag k="place" v="isolated_dwelling" />
		<tag k="ssr:stedsnr" v="92267" />
	</node>
	<node lat="60.32885555683808" lon="10.521658339992534" id="-20679">
		<tag k="name" v="Rokotjernet" />
		<tag k="natural" v="water" />
		<tag k="ssr:stedsnr" v="92471" />
	</node>
	<node lat="60.501224995750626" lon="10.479286118189716" id="-20680">
		<tag k="name" v="Nysætermyra" />
		<tag k="natural" v="wetland" />
		<tag k="ssr:stedsnr" v="92621" />
	</node>
	<node lat="60.462697220996155" lon="10.486027772988654" id="-20681">
		<tag k="name" v="Kjos" />
		<tag k="place" v="farm" />
		<tag k="ssr:stedsnr" v="92663" />
	</node>
	<node lat="60.542191668672245" lon="10.458316669787186" id="-20682">
		<tag k="name" v="Kuputten" />
		<tag k="natural" v="water" />
		<tag k="ssr:stedsnr" v="92665" />
		<tag k="water" v="pond" />
	</node>
	<node lat="60.50626944455006" lon="10.484655553372045" id="-20683">
		<tag k="name" v="Knutsbråtåfossen" />
		<tag k="natural" v="waterfall" />
		<tag k="ssr:stedsnr" v="92563" />
	</node>
	<node lat="60.533497222958665" lon="10.366383335190553" id="-20684">
		<tag k="name" v="Storlund" />
		<tag k="place" v="locality" />
		<tag k="ssr:stedsnr" v="92705" />
	</node>
	<node lat="60.46798055242174" lon="10.560447214934047" id="-20685">
		<tag k="name" v="Nysæterbrenna" />
		<tag k="place" v="locality" />
		<tag k="ssr:stedsnr" v="92720" />
	</node>
	<node lat="60.51818333127321" lon="10.50758055842767" id="-20686">
		<tag k="name" v="Briskemyra" />
		<tag k="natural" v="wetland" />
		<tag k="ssr:stedsnr" v="93106" />
	</node>
	<node lat="60.47257191564053" lon="10.673716996694546" id="-20687">
		<tag k="name" v="Helgedalen" />
		<tag k="natural" v="valley" />
		<tag k="place" v="locality" />
		<tag k="ssr:stedsnr" v="93405" />
	</node>
	<node lat="60.37899999707711" lon="10.337974999829243" id="-20688">
		<tag k="name" v="Ruden" />
		<tag k="place" v="isolated_dwelling" />
		<tag k="ssr:stedsnr" v="93388" />
	</node>
	<node lat="60.53629999947457" lon="10.510811116308883" id="-20689">
		<tag k="name" v="Almsætra" />
		<tag k="place" v="locality" />
		<tag k="ssr:stedsnr" v="93675" />
	</node>
	<node lat="60.343238885305645" lon="10.406652770287264" id="-20690">
		<tag k="amenity" v="community_centre" />
		<tag k="name" v="Fjordvang" />
		<tag k="ssr:stedsnr" v="248034" />
	</node>
	<node lat="60.371900001460645" lon="10.487824996273405" id="-20691">
		<tag k="name" v="Berget" />
		<tag k="place" v="farm" />
		<tag k="ssr:stedsnr" v="248114" />
	</node>
	<node lat="60.37667500272865" lon="10.464919442202026" id="-20692">
		<tag k="name" v="Grønmyr" />
		<tag k="place" v="farm" />
		<tag k="ssr:stedsnr" v="248117" />
	</node>
	<node lat="60.41729166668669" lon="10.382100007695804" id="-20693">
		<tag k="alt_name" v="Toverud, s" />
		<tag k="name" v="Søndre Toverud" />
		<tag k="place" v="farm" />
		<tag k="ssr:stedsnr" v="248131" />
	</node>
	<node lat="60.48112507692788" lon="10.457096811062986" id="-20694">
		<tag k="alt_name" v="Smedshammer" />
		<tag k="fixme" v="consider place=hamlet" />
		<tag k="name" v="Smedshammar" />
		<tag k="place" v="farm" />
		<tag k="ssr:stedsnr" v="248286" />
	</node>
	<node lat="60.435758331450934" lon="10.37662221571036" id="-20695">
		<tag k="name" v="Dalen" />
		<tag k="place" v="farm" />
		<tag k="ssr:stedsnr" v="249132" />
	</node>
	<node lat="60.43215724208849" lon="10.612556746718084" id="-20696">
		<tag k="name" v="Badstua" />
		<tag k="place" v="farm" />
		<tag k="ssr:stedsnr" v="249138" />
	</node>
	<node lat="60.245433336755056" lon="10.395469440791546" id="-20697">
		<tag k="name" v="Randsfjorden" />
		<tag k="natural" v="water" />
		<tag k="ssr:stedsnr" v="248364" />
		<tag k="water" v="lake" />
	</node>
	<node lat="60.405505556011754" lon="10.787300002430548" id="-20698">
		<tag k="alt_name" v="Avrillen, lille" />
		<tag k="name" v="Vesle Avrillen" />
		<tag k="natural" v="water" />
		<tag k="ssr:stedsnr" v="248626" />
	</node>
	<node lat="60.38383888521213" lon="10.314908332512523" id="-20699">
		<tag k="alt_name" v="Styggdalen" />
		<tag k="name" v="Styggedalen" />
		<tag k="natural" v="valley" />
		<tag k="place" v="locality" />
		<tag k="ssr:stedsnr" v="248631" />
	</node>
	<node lat="60.49289166477815" lon="10.30156944699482" id="-20700">
		<tag k="fixme" v="consider natural=peak for the most distinct mountains in the district" />
		<tag k="name" v="Kvitberget" />
		<tag k="natural" v="hill" />
		<tag k="place" v="locality" />
		<tag k="ssr:stedsnr" v="248737" />
	</node>
	<node lat="60.338455553474994" lon="10.502116661794958" id="-20701">
		<tag k="fixme" v="consider natural=peak for the most distinct mountains in the district" />
		<tag k="name" v="Buhammaren" />
		<tag k="natural" v="hill" />
		<tag k="place" v="locality" />
		<tag k="ssr:stedsnr" v="248977" />
	</node>
	<node lat="60.36073333329587" lon="10.601877774377146" id="-20702">
		<tag k="name" v="Læren" />
		<tag k="place" v="farm" />
		<tag k="ssr:stedsnr" v="249007" />
	</node>
	<node lat="60.34904026028286" lon="10.427149744271485" id="-20703">
		<tag k="alt_name" v="Maurtvet" />
		<tag k="fixme" v="consider place=hamlet" />
		<tag k="name" v="Maurtveit" />
		<tag k="place" v="farm" />
		<tag k="ssr:stedsnr" v="249046" />
	</node>
	<node lat="60.50513967024808" lon="10.523853620187992" id="-20704">
		<tag k="fixme" v="consider place=hamlet" />
		<tag k="name" v="Hennung" />
		<tag k="place" v="farm" />
		<tag k="ssr:stedsnr" v="249049" />
	</node>
	<node lat="60.35668056013521" lon="10.659269439590568" id="-20705">
		<tag k="fixme" v="consider natural=peak for the most distinct mountains in the district" />
		<tag k="name" v="Kaperalen" />
		<tag k="natural" v="hill" />
		<tag k="place" v="locality" />
		<tag k="ssr:stedsnr" v="249052" />
	</node>
	<node lat="60.347797225627914" lon="10.578719439851332" id="-20706">
		<tag k="name" v="Bråtån" />
		<tag k="place" v="farm" />
		<tag k="ssr:stedsnr" v="249040" />
	</node>
	<node lat="60.4996833368309" lon="10.579250006796226" id="-20707">
		<tag k="alt_name" v="Åstjern" />
		<tag k="name" v="Åstjernet" />
		<tag k="natural" v="water" />
		<tag k="ssr:stedsnr" v="249057" />
	</node>
	<node lat="60.511502228074725" lon="10.525323628686266" id="-20708">
		<tag k="fixme" v="consider place=hamlet" />
		<tag k="name" v="Sevaldrud" />
		<tag k="place" v="farm" />
		<tag k="ssr:stedsnr" v="249064" />
	</node>
	<node lat="60.51289722558451" lon="10.59191666840588" id="-20709">
		<tag k="alt_name" v="Råssumsætra" />
		<tag k="historic" v="shieling" />
		<tag k="name" v="Rossumsætra" />
		<tag k="place" v="isolated_dwelling" />
		<tag k="ssr:stedsnr" v="249069" />
	</node>
	<node lat="60.38793889305207" lon="10.708655558204574" id="-20710">
		<tag k="fixme" v="consider natural=peak for the most distinct mountains in the district" />
		<tag k="name" v="Vassbråskurven" />
		<tag k="natural" v="hill" />
		<tag k="place" v="locality" />
		<tag k="ssr:stedsnr" v="249071" />
	</node>
	<node lat="60.39166110937146" lon="10.670005563535025" id="-20711">
		<tag k="fixme" v="consider natural=peak for the most distinct mountains in the district" />
		<tag k="name" v="Framstadsæterfjellet" />
		<tag k="natural" v="hill" />
		<tag k="place" v="locality" />
		<tag k="ssr:stedsnr" v="249074" />
	</node>
	<node lat="60.422619448573734" lon="10.37990276985909" id="-20712">
		<tag k="name" v="Røysing" />
		<tag k="place" v="isolated_dwelling" />
		<tag k="ssr:stedsnr" v="249145" />
	</node>
	<node lat="60.393122361413376" lon="10.36819758570867" id="-20713">
		<tag k="fixme" v="consider place=hamlet" />
		<tag k="name" v="Engnes" />
		<tag k="place" v="farm" />
		<tag k="ssr:stedsnr" v="249157" />
	</node>
	<node lat="60.40389722230442" lon="10.493363887554148" id="-20714">
		<tag k="alt_name" v="Lilletjernet" />
		<tag k="name" v="Vesletjern" />
		<tag k="natural" v="water" />
		<tag k="ssr:stedsnr" v="249176" />
	</node>
	<node lat="60.357424997626985" lon="10.882280553171995" id="-20715">
		<tag k="name" v="Den skakke myra" />
		<tag k="natural" v="wetland" />
		<tag k="old_name" v="Denskakkemyra" />
		<tag k="ssr:stedsnr" v="105227" />
	</node>
	<node lat="60.408425002564925" lon="10.304858341421944" id="-20716">
		<tag k="name" v="Langtjern" />
		<tag k="natural" v="water" />
		<tag k="ssr:stedsnr" v="249273" />
	</node>
	<node lat="60.44965833324139" lon="10.37693055127419" id="-20717">
		<tag k="name" v="Flåtjern" />
		<tag k="natural" v="water" />
		<tag k="ssr:stedsnr" v="249229" />
	</node>
	<node lat="60.44759166422109" lon="10.4613194461126" id="-20718">
		<tag k="name" v="Leirbru" />
		<tag k="place" v="farm" />
		<tag k="ssr:stedsnr" v="249231" />
	</node>
	<node lat="60.49126666779192" lon="10.444997229436682" id="-20719">
		<tag k="name" v="Sytjernelva" />
		<tag k="ssr:stedsnr" v="249276" />
		<tag k="waterway" v="stream" />
	</node>
	<node lat="60.49281289581127" lon="10.381688139623218" id="-20720">
		<tag k="fixme" v="consider place=hamlet" />
		<tag k="name" v="Nyhus" />
		<tag k="place" v="farm" />
		<tag k="ssr:stedsnr" v="249278" />
	</node>
	<node lat="60.43325277365731" lon="10.244677771981422" id="-20721">
		<tag k="name" v="Saltburoa" />
		<tag k="natural" v="bay" />
		<tag k="ssr:stedsnr" v="249354" />
	</node>
	<node lat="60.42889999762968" lon="10.207544440447633" id="-20722">
		<tag k="alt_name" v="Espetjern, s" />
		<tag k="name" v="Søndre Espetjern" />
		<tag k="natural" v="water" />
		<tag k="ssr:stedsnr" v="249372" />
	</node>
	<node lat="60.50147500146224" lon="10.228941665954322" id="-20723">
		<tag k="name" v="Butjernet" />
		<tag k="natural" v="water" />
		<tag k="ssr:stedsnr" v="249462" />
	</node>
	<node lat="60.50230833705837" lon="10.271475004280255" id="-20724">
		<tag k="name" v="Rognbakken" />
		<tag k="place" v="farm" />
		<tag k="ssr:stedsnr" v="249466" />
	</node>
	<node lat="60.52440000385535" lon="10.292994438221092" id="-20725">
		<tag k="name" v="Bjoneberget" />
		<tag k="natural" v="hill" />
		<tag k="place" v="locality" />
		<tag k="ssr:stedsnr" v="249481" />
	</node>
	<node lat="60.526697222417084" lon="10.293611109114472" id="-20726">
		<tag k="alt_name" v="Sandvik" />
		<tag k="name" v="Sandvika" />
		<tag k="place" v="farm" />
		<tag k="ssr:stedsnr" v="249486" />
	</node>
	<node lat="60.51892499734285" lon="10.217061112664654" id="-20727">
		<tag k="name" v="Gammelsætra" />
		<tag k="place" v="farm" />
		<tag k="ssr:stedsnr" v="249496" />
	</node>
	<node lat="60.34998611177322" lon="10.856577768951333" id="-20728">
		<tag k="name" v="Fjøsputten" />
		<tag k="natural" v="water" />
		<tag k="ssr:stedsnr" v="249526" />
		<tag k="water" v="pond" />
	</node>
	<node lat="60.354007731655436" lon="10.798347082367558" id="-20729">
		<tag k="name" v="Sautjern" />
		<tag k="natural" v="water" />
		<tag k="ssr:stedsnr" v="249532" />
	</node>
	<node lat="60.352000003458755" lon="10.821988883213256" id="-20730">
		<tag k="alt_name" v="Sandbotntjern, vestre" />
		<tag k="name" v="Vestre Sandbotntjernet" />
		<tag k="natural" v="water" />
		<tag k="ssr:stedsnr" v="249534" />
	</node>
	<node lat="60.4144083303284" lon="10.54153611215908" id="-20731">
		<tag k="bridge" v="yes" />
		<tag k="layer" v="1" />
		<tag k="name" v="Trulsrud" />
		<tag k="ssr:stedsnr" v="107129" />
	</node>
	<node lat="60.37112500042461" lon="10.78045555781742" id="-20732">
		<tag k="name" v="Korsmyra" />
		<tag k="natural" v="wetland" />
		<tag k="ssr:stedsnr" v="249556" />
	</node>
	<node lat="60.38242778021159" lon="10.880205563445669" id="-20733">
		<tag k="alt_name" v="Bukkeholmen" />
		<tag k="name" v="Bukkholmen" />
		<tag k="place" v="islet" />
		<tag k="ssr:stedsnr" v="249563" />
	</node>
	<node lat="60.393511113253204" lon="10.807969453270179" id="-20734">
		<tag k="name" v="Nye Lomtjernshytta" />
		<tag k="place" v="isolated_dwelling" />
		<tag k="ssr:stedsnr" v="249578" />
	</node>
	<node lat="60.4232222188938" lon="10.791363891933065" id="-20735">
		<tag k="fixme" v="consider natural=peak for the most distinct mountains in the district" />
		<tag k="name" v="Fuglåsen" />
		<tag k="natural" v="hill" />
		<tag k="place" v="locality" />
		<tag k="ssr:stedsnr" v="249626" />
	</node>
	<node lat="60.48495965712286" lon="10.31211921073791" id="-20736">
		<tag k="name" v="Blekketjerna" />
		<tag k="natural" v="water" />
		<tag k="ssr:stedsnr" v="249692" />
		<tag k="water" v="lake" />
	</node>
	<node lat="60.33238055954815" lon="10.59996944047587" id="-20737">
		<tag k="alt_name" v="Smedsrud, nordre" />
		<tag k="name" v="Nordre Smedsrud" />
		<tag k="place" v="farm" />
		<tag k="ssr:stedsnr" v="249949" />
	</node>
	<node lat="60.3205249962097" lon="10.607500006113712" id="-20738">
		<tag k="name" v="Dynnamarka" />
		<tag k="place" v="farm" />
		<tag k="ssr:stedsnr" v="249903" />
	</node>
	<node lat="60.31828610753772" lon="10.606391669798079" id="-20739">
		<tag k="name" v="Dynnabråtån" />
		<tag k="place" v="farm" />
		<tag k="ssr:stedsnr" v="249906" />
	</node>
	<node lat="60.44559722362007" lon="10.226338880687477" id="-20740">
		<tag k="name" v="Mikkelsholmene" />
		<tag k="place" v="island" />
		<tag k="ssr:stedsnr" v="110277" />
	</node>
	<node lat="60.44455555374825" lon="10.238524997316967" id="-20741">
		<tag k="name" v="Lauvholmen" />
		<tag k="place" v="island" />
		<tag k="ssr:stedsnr" v="110281" />
	</node>
	<node lat="60.31820277867596" lon="10.459474995423115" id="-20742">
		<tag k="name" v="Mjørputten" />
		<tag k="natural" v="water" />
		<tag k="ssr:stedsnr" v="249925" />
	</node>
	<node lat="60.32958332993205" lon="10.50530833830042" id="-20743">
		<tag k="alt_name" v="Vien, vestre;Vien" />
		<tag k="name" v="Vestre Vien" />
		<tag k="place" v="farm" />
		<tag k="ssr:stedsnr" v="249936" />
	</node>
	<node lat="60.323233332652904" lon="10.39692499647889" id="-20744">
		<tag k="name" v="Vestli" />
		<tag k="place" v="farm" />
		<tag k="ssr:stedsnr" v="249966" />
	</node>
	<node lat="60.487869448048755" lon="10.216869439435344" id="-20745">
		<tag k="name" v="Bjørnebråtan" />
		<tag k="place" v="locality" />
		<tag k="ssr:stedsnr" v="111111" />
	</node>
	<node lat="60.32651111319945" lon="10.532461115990312" id="-20746">
		<tag k="alt_name" v="Øyskogtjern" />
		<tag k="name" v="Øyskogtjernet" />
		<tag k="natural" v="water" />
		<tag k="ssr:stedsnr" v="249975" />
	</node>
	<node lat="60.34391111461104" lon="10.60049166031504" id="-20747">
		<tag k="name" v="Skjollabakken" />
		<tag k="place" v="farm" />
		<tag k="ssr:stedsnr" v="249988" />
	</node>
	<node lat="60.520422219485425" lon="10.221608341505396" id="-20748">
		<tag k="name" v="Gammelsæterlia" />
		<tag k="place" v="isolated_dwelling" />
		<tag k="ssr:stedsnr" v="111307" />
	</node>
	<node lat="60.33318889184284" lon="10.3936416677117" id="-20749">
		<tag k="name" v="Bekken" />
		<tag k="place" v="farm" />
		<tag k="ssr:stedsnr" v="249995" />
	</node>
	<node lat="60.32928333502654" lon="10.430975003149264" id="-20750">
		<tag k="name" v="Svingen" />
		<tag k="place" v="isolated_dwelling" />
		<tag k="ssr:stedsnr" v="250000" />
	</node>
	<node lat="60.519752781067474" lon="10.267627782368754" id="-20751">
		<tag k="name" v="Bråtån" />
		<tag k="place" v="locality" />
		<tag k="ssr:stedsnr" v="111425" />
	</node>
	<node lat="60.53448888533102" lon="10.588133325041447" id="-20752">
		<tag k="name" v="Ormsteinsmyra" />
		<tag k="natural" v="wetland" />
		<tag k="ssr:stedsnr" v="250104" />
	</node>
	<node lat="60.53457499983563" lon="10.359958340540825" id="-20753">
		<tag k="name" v="Orputten" />
		<tag k="natural" v="water" />
		<tag k="ssr:stedsnr" v="250110" />
		<tag k="water" v="pond" />
	</node>
	<node lat="60.52249444803618" lon="10.184283332979522" id="-20754">
		<tag k="name" v="Draget" />
		<tag k="natural" v="strait" />
		<tag k="ssr:stedsnr" v="111871" />
	</node>
	<node lat="60.51645278031542" lon="10.531988892031922" id="-20755">
		<tag k="name" v="Fredrikstad" />
		<tag k="place" v="farm" />
		<tag k="ssr:stedsnr" v="250066" />
	</node>
	<node lat="60.35582777707518" lon="10.585802780512356" id="-20756">
		<tag k="name" v="Morstadbakken" />
		<tag k="natural" v="slope" />
		<tag k="place" v="locality" />
		<tag k="ssr:stedsnr" v="112085" />
	</node>
	<node lat="60.40224999889251" lon="10.244394447346087" id="-20757">
		<tag k="name" v="Buvassbekken" />
		<tag k="ssr:stedsnr" v="112321" />
		<tag k="waterway" v="stream" />
	</node>
	<node lat="60.38042777843224" lon="10.59311666725629" id="-20758">
		<tag k="name" v="Skjønsberget" />
		<tag k="natural" v="hill" />
		<tag k="place" v="locality" />
		<tag k="ssr:stedsnr" v="112336" />
	</node>
	<node lat="60.36126667070631" lon="10.681286116685401" id="-20759">
		<tag k="name" v="Kastelia" />
		<tag k="natural" v="slope" />
		<tag k="place" v="locality" />
		<tag k="ssr:stedsnr" v="112338" />
	</node>
	<node lat="60.44210278221643" lon="10.366455549113072" id="-20760">
		<tag k="name" v="Liabakken" />
		<tag k="natural" v="slope" />
		<tag k="place" v="locality" />
		<tag k="ssr:stedsnr" v="112542" />
	</node>
	<node lat="60.41421666308709" lon="10.709333341580642" id="-20761">
		<tag k="name" v="Malsjøbekken" />
		<tag k="ssr:stedsnr" v="112470" />
		<tag k="waterway" v="stream" />
	</node>
	<node lat="60.47066666370107" lon="10.377652771469098" id="-20762">
		<tag k="name" v="Lokkeberget" />
		<tag k="natural" v="hill" />
		<tag k="place" v="locality" />
		<tag k="ssr:stedsnr" v="112783" />
	</node>
	<node lat="60.45832777643662" lon="10.397172222251042" id="-20763">
		<tag k="name" v="Prestsandtangen" />
		<tag k="natural" v="cape" />
		<tag k="ssr:stedsnr" v="112813" />
	</node>
	<node lat="60.4086222218332" lon="10.502075001847267" id="-20764">
		<tag k="name" v="Grindåkerflaten" />
		<tag k="place" v="locality" />
		<tag k="ssr:stedsnr" v="115072" />
	</node>
	<node lat="60.53128055719987" lon="10.13723333148665" id="-20765">
		<tag k="alt_name" v="Bålerudtjern" />
		<tag k="name" v="Bålerudtjernet" />
		<tag k="natural" v="water" />
		<tag k="ssr:stedsnr" v="250520" />
	</node>
	<node lat="60.361779016423746" lon="10.483679134565183" id="-20766">
		<tag k="fixme" v="consider place=hamlet" />
		<tag k="name" v="Lunde" />
		<tag k="place" v="farm" />
		<tag k="ssr:stedsnr" v="127003" />
	</node>
	<node lat="60.34547499577771" lon="10.700702775243114" id="-20767">
		<tag k="name" v="Sprutbekken" />
		<tag k="ssr:stedsnr" v="127046" />
		<tag k="waterway" v="stream" />
	</node>
	<node lat="60.395205553573795" lon="10.49077778553438" id="-20768">
		<tag k="name" v="Nordenga" />
		<tag k="place" v="farm" />
		<tag k="ssr:stedsnr" v="127091" />
	</node>
	<node lat="60.37491111466357" lon="10.661222213456357" id="-20769">
		<tag k="historic" v="shieling" />
		<tag k="name" v="Sjosætra" />
		<tag k="place" v="isolated_dwelling" />
		<tag k="ssr:stedsnr" v="127098" />
	</node>
	<node lat="60.408041667128565" lon="10.503625009044534" id="-20770">
		<tag k="name" v="Veslehagan" />
		<tag k="place" v="farm" />
		<tag k="ssr:stedsnr" v="127206" />
	</node>
	<node lat="60.47040555202492" lon="10.36253056318414" id="-20771">
		<tag k="alt_name" v="Berventjern" />
		<tag k="name" v="Berventjernet" />
		<tag k="natural" v="water" />
		<tag k="ssr:stedsnr" v="127214" />
	</node>
	<node lat="60.46148055645802" lon="10.365011113760948" id="-20772">
		<tag k="name" v="Merraputten" />
		<tag k="natural" v="water" />
		<tag k="ssr:stedsnr" v="127220" />
	</node>
	<node lat="60.437855554803626" lon="10.50785555968212" id="-20773">
		<tag k="name" v="Bekken" />
		<tag k="place" v="farm" />
		<tag k="ssr:stedsnr" v="127258" />
	</node>
	<node lat="60.37681524661634" lon="10.58639695196867" id="-20774">
		<tag k="fixme" v="consider place=hamlet" />
		<tag k="name" v="Undeli" />
		<tag k="place" v="farm" />
		<tag k="ssr:stedsnr" v="127103" />
	</node>
	<node lat="60.37469166972368" lon="10.520705553184643" id="-20775">
		<tag k="alt_name" v="Jorstadtjern" />
		<tag k="name" v="Jorstadtjernet" />
		<tag k="natural" v="water" />
		<tag k="ssr:stedsnr" v="127108" />
	</node>
	<node lat="60.377916664937715" lon="10.474458331107934" id="-20776">
		<tag k="name" v="Breidgata" />
		<tag k="place" v="farm" />
		<tag k="ssr:stedsnr" v="127111" />
	</node>
	<node lat="60.37937284846106" lon="10.500645448505068" id="-20777">
		<tag k="alt_name" v="Bakken" />
		<tag k="name" v="Allemannsbakken" />
		<tag k="place" v="farm" />
		<tag k="ssr:stedsnr" v="127112" />
	</node>
	<node lat="60.379187998165065" lon="10.739652882041343" id="-20778">
		<tag k="name" v="Vassbråa" />
		<tag k="natural" v="water" />
		<tag k="ssr:stedsnr" v="127124" />
		<tag k="water" v="lake" />
	</node>
	<node lat="60.40873333686383" lon="10.538494436481306" id="-20779">
		<tag k="name" v="Knotterud" />
		<tag k="old_name" v="Knatterud" />
		<tag k="place" v="farm" />
		<tag k="ssr:stedsnr" v="127141" />
	</node>
	<node lat="60.43218077186205" lon="10.481597781141648" id="-20780">
		<tag k="fixme" v="consider place=hamlet" />
		<tag k="name" v="Rå" />
		<tag k="place" v="farm" />
		<tag k="ssr:stedsnr" v="127151" />
	</node>
	<node lat="60.435363888878044" lon="10.483119449639226" id="-20781">
		<tag k="name" v="Hagan" />
		<tag k="place" v="farm" />
		<tag k="ssr:stedsnr" v="127152" />
	</node>
	<node lat="60.41579999574657" lon="10.589166662859132" id="-20782">
		<tag k="name" v="Haugen" />
		<tag k="place" v="farm" />
		<tag k="ssr:stedsnr" v="127191" />
	</node>
	<node lat="60.41012499925988" lon="10.609861113956384" id="-20783">
		<tag k="name" v="Bekkestua" />
		<tag k="place" v="isolated_dwelling" />
		<tag k="ssr:stedsnr" v="127195" />
	</node>
	<node lat="60.403702777498275" lon="10.257455560667008" id="-20784">
		<tag k="alt_name" v="Bergevatnbekken" />
		<tag k="name" v="Sandungsbekken" />
		<tag k="ssr:stedsnr" v="127303" />
		<tag k="waterway" v="stream" />
	</node>
	<node lat="60.403455551927465" lon="10.289450005469586" id="-20785">
		<tag k="name" v="Høvra" />
		<tag k="natural" v="water" />
		<tag k="ssr:stedsnr" v="127304" />
	</node>
	<node lat="60.498758329294674" lon="10.42713888849712" id="-20786">
		<tag k="name" v="Støa" />
		<tag k="place" v="farm" />
		<tag k="ssr:stedsnr" v="127312" />
	</node>
	<node lat="60.390800003961324" lon="10.866125003885593" id="-20787">
		<tag k="name" v="Helmenputten" />
		<tag k="natural" v="water" />
		<tag k="ssr:stedsnr" v="127621" />
	</node>
	<node lat="60.405063885403706" lon="10.767086110463687" id="-20788">
		<tag k="name" v="Svarthaugen" />
		<tag k="natural" v="hill" />
		<tag k="place" v="locality" />
		<tag k="ssr:stedsnr" v="127649" />
	</node>
	<node lat="60.405389942003424" lon="10.87835176697143" id="-20789">
		<tag k="fixme" v="consider natural=peak for the most distinct mountains in the district" />
		<tag k="name" v="Rognhaugen" />
		<tag k="natural" v="hill" />
		<tag k="place" v="locality" />
		<tag k="ssr:stedsnr" v="127652" />
	</node>
	<node lat="60.343349995808936" lon="10.915074999434019" id="-20790">
		<tag k="alt_name" v="Heggkolltjernet" />
		<tag k="name" v="Heggkolltjern" />
		<tag k="natural" v="water" />
		<tag k="ssr:stedsnr" v="127553" />
	</node>
	<node lat="60.45956389206648" lon="10.259274993137133" id="-20791">
		<tag k="name" v="Sevaldrudbakken" />
		<tag k="place" v="farm" />
		<tag k="ssr:stedsnr" v="127591" />
	</node>
	<node lat="60.45631110739298" lon="10.214088896573685" id="-20792">
		<tag k="name" v="Rovtjernshytta" />
		<tag k="place" v="isolated_dwelling" />
		<tag k="ssr:stedsnr" v="127592" />
	</node>
	<node lat="60.50906023535204" lon="10.355554956301557" id="-20793">
		<tag k="fixme" v="consider place=hamlet" />
		<tag k="name" v="Strande" />
		<tag k="place" v="farm" />
		<tag k="ssr:stedsnr" v="128042" />
	</node>
	<node lat="60.488461111833324" lon="10.186883333040509" id="-20794">
		<tag k="historic" v="shieling" />
		<tag k="name" v="Nysætra" />
		<tag k="place" v="isolated_dwelling" />
		<tag k="ssr:stedsnr" v="127741" />
	</node>
	<node lat="60.484819444635576" lon="10.190969445711819" id="-20795">
		<tag k="name" v="Nysætertjernet" />
		<tag k="natural" v="water" />
		<tag k="ssr:stedsnr" v="127743" />
	</node>
	<node lat="60.544172224517574" lon="10.601694437489986" id="-20796">
		<tag k="name" v="Strandhøgda" />
		<tag k="natural" v="hill" />
		<tag k="place" v="locality" />
		<tag k="ssr:stedsnr" v="128090" />
	</node>
	<node lat="60.41996666398071" lon="10.475283331274387" id="-20797">
		<tag k="alt_name" v="Julistykket" />
		<tag k="name" v="Stykket" />
		<tag k="place" v="farm" />
		<tag k="ssr:stedsnr" v="128093" />
	</node>
	<node lat="60.530127774433886" lon="10.235930551932094" id="-20798">
		<tag k="alt_name" v="Skjellemyrhaugen" />
		<tag k="name" v="Skillemyrhaugen" />
		<tag k="natural" v="hill" />
		<tag k="place" v="locality" />
		<tag k="ssr:stedsnr" v="128518" />
	</node>
	<node lat="60.32128888741383" lon="10.624441659530275" id="-20799">
		<tag k="name" v="Kruggerud" />
		<tag k="place" v="farm" />
		<tag k="ssr:stedsnr" v="128901" />
	</node>
	<node lat="60.39909444321562" lon="10.521369436859198" id="-20800">
		<tag k="name" v="Nordhagan" />
		<tag k="place" v="farm" />
		<tag k="ssr:stedsnr" v="150064" />
	</node>
	<node lat="60.41643963159777" lon="10.498105877536878" id="-20801">
		<tag k="name" v="Tomtehaugen" />
		<tag k="natural" v="hill" />
		<tag k="place" v="locality" />
		<tag k="ssr:stedsnr" v="150166" />
	</node>
	<node lat="60.34492221901645" lon="10.417988890342217" id="-20802">
		<tag k="alt_name" v="Smedsrud Øvre" />
		<tag k="name" v="Øvre Smedsrud" />
		<tag k="place" v="farm" />
		<tag k="ssr:stedsnr" v="151158" />
	</node>
	<node lat="60.38063333081292" lon="10.47305833179343" id="-20803">
		<tag k="fixme" v="consider place=hamlet" />
		<tag k="name" v="Brenna" />
		<tag k="place" v="farm" />
		<tag k="ssr:stedsnr" v="151409" />
	</node>
	<node lat="60.429211005075956" lon="10.45281185685421" id="-20804">
		<tag k="name" v="Kjørkjetangen" />
		<tag k="natural" v="cape" />
		<tag k="ssr:stedsnr" v="152060" />
	</node>
	<node lat="60.465713888074056" lon="10.465827784102173" id="-20805">
		<tag k="name" v="Sørstuhaugen" />
		<tag k="natural" v="hill" />
		<tag k="place" v="locality" />
		<tag k="ssr:stedsnr" v="152206" />
	</node>
	<node lat="60.394261109697595" lon="10.475622219408253" id="-20806">
		<tag k="building" v="industrial" />
		<tag k="name" v="Staksrud mølle" />
		<tag k="ssr:stedsnr" v="152270" />
	</node>
	<node lat="60.51773611165432" lon="10.386436114836698" id="-20807">
		<tag k="name" v="Gjervikstangen" />
		<tag k="natural" v="cape" />
		<tag k="ssr:stedsnr" v="152413" />
	</node>
	<node lat="60.39732500018656" lon="10.472261120014767" id="-20808">
		<tag k="name" v="Hole" />
		<tag k="place" v="farm" />
		<tag k="ssr:stedsnr" v="152516" />
	</node>
	<node lat="60.477616663525055" lon="10.513174999843185" id="-20809">
		<tag k="name" v="Nordrunden" />
		<tag k="place" v="farm" />
		<tag k="ssr:stedsnr" v="152858" />
	</node>
	<node lat="60.489569446857466" lon="10.573475007256958" id="-20810">
		<tag k="name" v="Åstjern beitelag" />
		<tag k="place" v="locality" />
		<tag k="ssr:stedsnr" v="153373" />
	</node>
	<node lat="60.51591666618291" lon="10.596363895241645" id="-20811">
		<tag k="highway" v="path" />
		<tag k="name" v="Lysingsvegen" />
		<tag k="ssr:stedsnr" v="154208" />
	</node>
	<node lat="60.54819999920535" lon="10.488902785447909" id="-20812">
		<tag k="name" v="Toppåstjernshytta" />
		<tag k="place" v="isolated_dwelling" />
		<tag k="ssr:stedsnr" v="154757" />
	</node>
	<node lat="60.344391662756195" lon="10.86749444704828" id="-20813">
		<tag k="name" v="Persbekken" />
		<tag k="ssr:stedsnr" v="166211" />
		<tag k="waterway" v="stream" />
	</node>
	<node lat="60.40239721951903" lon="10.635552778461657" id="-20814">
		<tag k="name" v="Olabråtålia" />
		<tag k="natural" v="slope" />
		<tag k="place" v="locality" />
		<tag k="ssr:stedsnr" v="272551" />
	</node>
	<node lat="60.46053610767008" lon="10.643763881361828" id="-20815">
		<tag k="bridge" v="yes" />
		<tag k="layer" v="1" />
		<tag k="name" v="Lygna" />
		<tag k="ssr:stedsnr" v="168158" />
	</node>
	<node lat="60.45449444274455" lon="10.641844437350562" id="-20816">
		<tag k="bridge" v="yes" />
		<tag k="layer" v="1" />
		<tag k="name" v="Lygnasæter" />
		<tag k="ssr:stedsnr" v="168160" />
	</node>
	<node lat="60.35939166890241" lon="10.586188882628427" id="-20817">
		<tag k="amenity" v="school" />
		<tag k="name" v="Trintom skole" />
		<tag k="ssr:stedsnr" v="172069" />
	</node>
	<node lat="60.427522223732495" lon="10.357374996224001" id="-20818">
		<tag k="name" v="Dammen" />
		<tag k="ssr:stedsnr" v="172078" />
		<tag k="waterway" v="dam" />
	</node>
	<node lat="60.34786944899193" lon="10.5721638832384" id="-20819">
		<tag k="name" v="Lyseng" />
		<tag k="place" v="farm" />
		<tag k="ssr:stedsnr" v="172221" />
	</node>
	<node lat="60.339552780747205" lon="10.600738886999084" id="-20820">
		<tag k="leisure" v="pitch" />
		<tag k="name" v="Flågåbakken" />
		<tag k="ssr:stedsnr" v="172222" />
	</node>
	<node lat="60.442066669166884" lon="10.298777771646561" id="-20821">
		<tag k="name" v="Kimgonga" />
		<tag k="natural" v="water" />
		<tag k="ssr:stedsnr" v="172609" />
	</node>
	<node lat="60.46103332908345" lon="10.253474992267197" id="-20822">
		<tag k="name" v="Bakkevika" />
		<tag k="natural" v="bay" />
		<tag k="ssr:stedsnr" v="172364" />
	</node>
	<node lat="60.46673610898998" lon="10.381347221650264" id="-20823">
		<tag k="highway" v="path" />
		<tag k="name" v="Lønngangen" />
		<tag k="ssr:stedsnr" v="172813" />
	</node>
	<node lat="60.42190555824471" lon="10.300727786229702" id="-20824">
		<tag k="name" v="Grinåkersva" />
		<tag k="place" v="isolated_dwelling" />
		<tag k="ssr:stedsnr" v="172922" />
	</node>
	<node lat="60.53474444144742" lon="10.182055547883582" id="-20825">
		<tag k="name" v="Jonsrudmyrene" />
		<tag k="natural" v="wetland" />
		<tag k="ssr:stedsnr" v="172955" />
	</node>
	<node lat="60.37723055214999" lon="10.899452786597212" id="-20826">
		<tag k="name" v="Hytteodde" />
		<tag k="natural" v="cape" />
		<tag k="ssr:stedsnr" v="173402" />
	</node>
	<node lat="60.42692777951834" lon="10.677283340540502" id="-20827">
		<tag k="name" v="Veslelushaugen" />
		<tag k="natural" v="hill" />
		<tag k="place" v="locality" />
		<tag k="ssr:stedsnr" v="173502" />
	</node>
	<node lat="60.33676666384247" lon="10.782130556424903" id="-20828">
		<tag k="name" v="Vesle Høvra" />
		<tag k="natural" v="water" />
		<tag k="ssr:stedsnr" v="173717" />
	</node>
	<node lat="60.36294166584442" lon="10.508908332931215" id="-20829">
		<tag k="name" v="Nordhagen" />
		<tag k="place" v="farm" />
		<tag k="ssr:stedsnr" v="272560" />
	</node>
	<node lat="60.43562206556032" lon="10.495594830428287" id="-20830">
		<tag k="fixme" v="consider place=hamlet" />
		<tag k="name" v="Østre Egge" />
		<tag k="place" v="farm" />
		<tag k="ssr:stedsnr" v="181208" />
	</node>
	<node lat="60.3559361071679" lon="10.689233341028048" id="-20831">
		<tag k="name" v="Stormyra" />
		<tag k="natural" v="wetland" />
		<tag k="ssr:stedsnr" v="188074" />
	</node>
	<node lat="60.38759767736119" lon="10.529148753742179" id="-20832">
		<tag k="fixme" v="consider place=hamlet" />
		<tag k="name" v="Stadstad" />
		<tag k="place" v="farm" />
		<tag k="ssr:stedsnr" v="188078" />
	</node>
	<node lat="60.511394445328705" lon="10.500872218622597" id="-20833">
		<tag k="fixme" v="consider natural=peak for the most distinct mountains in the district" />
		<tag k="name" v="Munken" />
		<tag k="natural" v="hill" />
		<tag k="place" v="locality" />
		<tag k="ssr:stedsnr" v="188083" />
	</node>
	<node lat="60.3898611135739" lon="10.695163880520285" id="-20834">
		<tag k="alt_name" v="Fjellsjøkalven" />
		<tag k="name" v="Kalven" />
		<tag k="natural" v="water" />
		<tag k="ssr:stedsnr" v="188091" />
	</node>
	<node lat="60.395380555388535" lon="10.636538896306147" id="-20835">
		<tag k="name" v="Sveraelva" />
		<tag k="ssr:stedsnr" v="188094" />
		<tag k="waterway" v="stream" />
	</node>
	<node lat="60.390569444767834" lon="10.594108328527653" id="-20836">
		<tag k="name" v="Skapalen" />
		<tag k="place" v="isolated_dwelling" />
		<tag k="ssr:stedsnr" v="188095" />
	</node>
	<node lat="60.394027778878865" lon="10.589755555537044" id="-20837">
		<tag k="name" v="Ringheim" />
		<tag k="place" v="farm" />
		<tag k="ssr:stedsnr" v="188098" />
	</node>
	<node lat="60.391219441056954" lon="10.463316670817775" id="-20838">
		<tag k="alt_name" v="Fredheim skole" />
		<tag k="amenity" v="school" />
		<tag k="name" v="Fredheim" />
		<tag k="ssr:stedsnr" v="188204" />
	</node>
	<node lat="60.40563889181518" lon="10.594558334631957" id="-20839">
		<tag k="alt_name" v="Søre Hanserud" />
		<tag k="name" v="Hanserud" />
		<tag k="place" v="farm" />
		<tag k="ssr:stedsnr" v="188210" />
	</node>
	<node lat="60.40531388489485" lon="10.463691661441548" id="-20840">
		<tag k="name" v="Elken" />
		<tag k="place" v="farm" />
		<tag k="ssr:stedsnr" v="188219" />
	</node>
	<node lat="60.46694600704291" lon="10.467521979321175" id="-20841">
		<tag k="alt_name" v="Nordvika" />
		<tag k="fixme" v="consider place=hamlet" />
		<tag k="name" v="Vika" />
		<tag k="place" v="farm" />
		<tag k="ssr:stedsnr" v="188223" />
	</node>
	<node lat="60.366753399346514" lon="10.436641127551347" id="-20842">
		<tag k="fixme" v="consider place=hamlet" />
		<tag k="name" v="Moger" />
		<tag k="place" v="farm" />
		<tag k="ssr:stedsnr" v="188112" />
	</node>
	<node lat="60.3770268441374" lon="10.712943269750712" id="-20843">
		<tag k="loc_name" v="Sagvolden" />
		<tag k="name" v="Sagvollen" />
		<tag k="place" v="neighbourhood" />
		<tag k="ssr:stedsnr" v="188120" />
	</node>
	<node lat="60.371030555378155" lon="10.618524996365354" id="-20844">
		<tag k="name" v="Sørli" />
		<tag k="place" v="farm" />
		<tag k="ssr:stedsnr" v="188125" />
	</node>
	<node lat="60.36987499881722" lon="10.643758335093981" id="-20845">
		<tag k="historic" v="shieling" />
		<tag k="name" v="Lærensætra" />
		<tag k="place" v="isolated_dwelling" />
		<tag k="ssr:stedsnr" v="188128" />
	</node>
	<node lat="60.43019959458328" lon="10.47481517262487" id="-20846">
		<tag k="fixme" v="consider place=hamlet" />
		<tag k="name" v="Røyken" />
		<tag k="place" v="farm" />
		<tag k="ssr:stedsnr" v="188183" />
	</node>
	<node lat="60.428211114250416" lon="10.547305556476113" id="-20847">
		<tag k="alt_name" v="Olarud;Olarud, nordre" />
		<tag k="name" v="Nordre Olarud" />
		<tag k="place" v="farm" />
		<tag k="ssr:stedsnr" v="188185" />
	</node>
	<node lat="60.433727779074424" lon="10.579958336369977" id="-20848">
		<tag k="name" v="Tåjet" />
		<tag k="place" v="farm" />
		<tag k="ssr:stedsnr" v="188186" />
	</node>
	<node lat="60.39702499919612" lon="10.338488892089282" id="-20849">
		<tag k="name" v="Fløytabakken" />
		<tag k="place" v="isolated_dwelling" />
		<tag k="ssr:stedsnr" v="188314" />
	</node>
	<node lat="60.481997226540415" lon="10.49316111765235" id="-20850">
		<tag k="name" v="Bråumsmoen" />
		<tag k="place" v="farm" />
		<tag k="ssr:stedsnr" v="188325" />
	</node>
	<node lat="60.44581666727705" lon="10.501463881078225" id="-20851">
		<tag k="alt_name" v="Hagelykkja" />
		<tag k="name" v="Hagalykkja" />
		<tag k="place" v="farm" />
		<tag k="ssr:stedsnr" v="188272" />
	</node>
	<node lat="60.4264111085577" lon="10.242747226861423" id="-20852">
		<tag k="name" v="Helvetesroa" />
		<tag k="natural" v="water" />
		<tag k="ssr:stedsnr" v="188407" />
	</node>
	<node lat="60.37605555194311" lon="10.786724991160327" id="-20853">
		<tag k="alt_name" v="Langen, vesle" />
		<tag k="name" v="Vesle Langen" />
		<tag k="natural" v="water" />
		<tag k="ssr:stedsnr" v="188602" />
	</node>
	<node lat="60.46984444326953" lon="10.324683325734203" id="-20854">
		<tag k="name" v="Femtjerna" />
		<tag k="natural" v="water" />
		<tag k="ssr:stedsnr" v="188604" />
		<tag k="water" v="lake" />
	</node>
	<node lat="60.38373333323032" lon="10.857969438644508" id="-20855">
		<tag k="alt_name" v="Merratjernet" />
		<tag k="name" v="Merratjern" />
		<tag k="natural" v="water" />
		<tag k="ssr:stedsnr" v="188613" />
	</node>
	<node lat="60.38773333474111" lon="10.791544438960807" id="-20856">
		<tag k="name" v="Lauvhaugen" />
		<tag k="natural" v="hill" />
		<tag k="place" v="locality" />
		<tag k="ssr:stedsnr" v="188626" />
	</node>
	<node lat="60.52431110876725" lon="10.284225004313031" id="-20857">
		<tag k="fixme" v="consider place=hamlet" />
		<tag k="name" v="Bjoneroa" />
		<tag k="place" v="village" />
		<tag k="ssr:stedsnr" v="188521" />
	</node>
	<node lat="60.450983334382336" lon="10.299691674975707" id="-20858">
		<tag k="alt_name" v="Angvika, østre" />
		<tag k="name" v="Østre Angvika" />
		<tag k="natural" v="bay" />
		<tag k="ssr:stedsnr" v="188580" />
	</node>
	<node lat="60.459963885016435" lon="10.218788889182818" id="-20859">
		<tag k="name" v="Rovtjern" />
		<tag k="natural" v="water" />
		<tag k="ssr:stedsnr" v="188590" />
	</node>
	<node lat="60.396422222648084" lon="10.816211118884722" id="-20860">
		<tag k="name" v="Huldertjernsbekken" />
		<tag k="ssr:stedsnr" v="188642" />
		<tag k="waterway" v="stream" />
	</node>
	<node lat="60.41764722514265" lon="10.841972230672097" id="-20861">
		<tag k="name" v="Lomtjernstua" />
		<tag k="place" v="isolated_dwelling" />
		<tag k="ssr:stedsnr" v="188668" />
	</node>
	<node lat="60.42715277817246" lon="10.820013886732383" id="-20862">
		<tag k="fixme" v="consider natural=peak for the most distinct mountains in the district" />
		<tag k="name" v="Lisæterkollen" />
		<tag k="natural" v="hill" />
		<tag k="place" v="locality" />
		<tag k="ssr:stedsnr" v="188684" />
	</node>
	<node lat="60.33505277777938" lon="10.581380556439084" id="-20863">
		<tag k="name" v="Hvalshagan" />
		<tag k="place" v="farm" />
		<tag k="ssr:stedsnr" v="188956" />
	</node>
	<node lat="60.33964122029945" lon="10.435070145997914" id="-20864">
		<tag k="alt_name" v="Øvre Håtveit" />
		<tag k="fixme" v="consider place=hamlet" />
		<tag k="name" v="Håtveit" />
		<tag k="place" v="farm" />
		<tag k="ssr:stedsnr" v="188978" />
	</node>
	<node lat="60.33923889306632" lon="10.612744437028038" id="-20865">
		<tag k="alt_name" v="Hvila" />
		<tag k="name" v="Vila" />
		<tag k="place" v="farm" />
		<tag k="ssr:stedsnr" v="188987" />
	</node>
	<node lat="60.338580551844146" lon="10.663063881561595" id="-20866">
		<tag k="name" v="Vesleelva" />
		<tag k="ssr:stedsnr" v="188990" />
		<tag k="waterway" v="stream" />
	</node>
	<node lat="60.340322226526524" lon="10.649841668072314" id="-20867">
		<tag k="name" v="Randsberget" />
		<tag k="natural" v="hill" />
		<tag k="place" v="locality" />
		<tag k="ssr:stedsnr" v="188991" />
	</node>
	<node lat="60.367052782002055" lon="10.533366675742679" id="-20868">
		<tag k="amenity" v="school" />
		<tag k="name" v="Sanne skole" />
		<tag k="ssr:stedsnr" v="210632" />
	</node>
	<node lat="60.39391666591786" lon="10.510233330712415" id="-20869">
		<tag k="amenity" v="place_of_worship" />
		<tag k="denomination" v="lutheran" />
		<tag k="name" v="Tingelstad gamle kirke" />
		<tag k="religion" v="christian" />
		<tag k="ssr:stedsnr" v="211079" />
	</node>
	<node lat="60.39777500040202" lon="10.601844440133624" id="-20870">
		<tag k="name" v="Nedre Lia" />
		<tag k="place" v="farm" />
		<tag k="ssr:stedsnr" v="211127" />
	</node>
	<node lat="60.400316666754385" lon="10.568836109566256" id="-20871">
		<tag k="name" v="Bentestua" />
		<tag k="place" v="farm" />
		<tag k="ssr:stedsnr" v="211194" />
	</node>
	<node lat="60.39395832888373" lon="10.619941673273061" id="-20872">
		<tag k="fixme" v="consider natural=peak for the most distinct mountains in the district" />
		<tag k="name" v="Rånåsen" />
		<tag k="natural" v="hill" />
		<tag k="place" v="locality" />
		<tag k="ssr:stedsnr" v="211583" />
	</node>
	<node lat="60.397694440643996" lon="10.603333334322533" id="-20873">
		<tag k="name" v="Nedre Lia" />
		<tag k="place" v="farm" />
		<tag k="ssr:stedsnr" v="211584" />
	</node>
	<node lat="60.410686111598636" lon="10.54917222230116" id="-20874">
		<tag k="name" v="Heiås" />
		<tag k="place" v="isolated_dwelling" />
		<tag k="ssr:stedsnr" v="211829" />
	</node>
	<node lat="60.434611107347074" lon="10.639972222952851" id="-20875">
		<tag k="name" v="Fillekremmermyra" />
		<tag k="natural" v="wetland" />
		<tag k="ssr:stedsnr" v="211974" />
	</node>
	<node lat="60.446986113771615" lon="10.468119449751853" id="-20876">
		<tag k="name" v="Gauken" />
		<tag k="natural" v="hill" />
		<tag k="place" v="locality" />
		<tag k="ssr:stedsnr" v="213004" />
	</node>
	<node lat="60.48026944085098" lon="10.447983334693141" id="-20877">
		<tag k="name" v="Sørby" />
		<tag k="place" v="isolated_dwelling" />
		<tag k="ssr:stedsnr" v="213287" />
	</node>
	<node lat="60.33968889141832" lon="10.45575555924652" id="-20878">
		<tag k="name" v="Mjølnerstua" />
		<tag k="place" v="farm" />
		<tag k="ssr:stedsnr" v="213175" />
	</node>
	<node lat="60.39742222643818" lon="10.371569451005916" id="-20879">
		<tag k="name" v="Nordvika" />
		<tag k="natural" v="bay" />
		<tag k="ssr:stedsnr" v="213326" />
	</node>
	<node lat="60.39673888754364" lon="10.46633333204203" id="-20880">
		<tag k="name" v="Østre Hole" />
		<tag k="place" v="farm" />
		<tag k="ssr:stedsnr" v="213502" />
	</node>
	<node lat="60.33433610827064" lon="10.536922230405771" id="-20881">
		<tag k="amenity" v="school" />
		<tag k="name" v="Granlund skole" />
		<tag k="ssr:stedsnr" v="213512" />
	</node>
	<node lat="60.47496667034303" lon="10.485755559948606" id="-20882">
		<tag k="name" v="Sylling" />
		<tag k="place" v="isolated_dwelling" />
		<tag k="ssr:stedsnr" v="213674" />
	</node>
	<node lat="60.46439999850716" lon="10.522530547223349" id="-20883">
		<tag k="name" v="Hagabekk" />
		<tag k="place" v="farm" />
		<tag k="ssr:stedsnr" v="213676" />
	</node>
	<node lat="60.459897219009235" lon="10.505783337654734" id="-20884">
		<tag k="name" v="Dalaberget" />
		<tag k="place" v="farm" />
		<tag k="ssr:stedsnr" v="213693" />
	</node>
	<node lat="60.52759444380566" lon="10.363569453381933" id="-20885">
		<tag k="name" v="Kalvskinnbekken" />
		<tag k="ssr:stedsnr" v="213728" />
		<tag k="waterway" v="stream" />
	</node>
	<node lat="60.44937499959583" lon="10.540899991954152" id="-20886">
		<tag k="name" v="Nysæterbekken" />
		<tag k="ssr:stedsnr" v="213783" />
		<tag k="waterway" v="stream" />
	</node>
	<node lat="60.46296389101475" lon="10.614508333353228" id="-20887">
		<tag k="name" v="Brumyra" />
		<tag k="natural" v="wetland" />
		<tag k="ssr:stedsnr" v="214527" />
	</node>
	<node lat="60.37808055255475" lon="10.324569440648135" id="-20888">
		<tag k="name" v="Sølvbergtjern" />
		<tag k="natural" v="water" />
		<tag k="ssr:stedsnr" v="215515" />
	</node>
	<node lat="60.37695278162674" lon="10.340808325863646" id="-20889">
		<tag k="highway" v="path" />
		<tag k="name" v="Kammerudsætervegen" />
		<tag k="ssr:stedsnr" v="215523" />
	</node>
	<node lat="60.48141666901206" lon="10.626977786436075" id="-20890">
		<tag k="name" v="Svartbekkmyra" />
		<tag k="natural" v="wetland" />
		<tag k="ssr:stedsnr" v="215531" />
	</node>
	<node lat="60.44281944004136" lon="10.635683334590958" id="-20891">
		<tag k="name" v="Fjølahyttbekken" />
		<tag k="ssr:stedsnr" v="215725" />
		<tag k="waterway" v="stream" />
	</node>
	<node lat="60.39565277530154" lon="10.511541657885232" id="-20892">
		<tag k="name" v="Hadeland folkemuseum" />
		<tag k="ssr:stedsnr" v="271080" />
		<tag k="tourism" v="museum" />
	</node>
	<node lat="60.39736388612322" lon="10.515577778793068" id="-20893">
		<tag k="name" v="Tingelstadstykket" />
		<tag k="place" v="farm" />
		<tag k="ssr:stedsnr" v="271085" />
	</node>
	<node lat="60.392461112281346" lon="10.502838881805141" id="-20894">
		<tag k="name" v="Skulterud" />
		<tag k="place" v="farm" />
		<tag k="ssr:stedsnr" v="271090" />
	</node>
	<node lat="60.364200297340936" lon="10.52739461725581" id="-20895">
		<tag k="fixme" v="consider place=hamlet" />
		<tag k="name" v="Helgum" />
		<tag k="place" v="farm" />
		<tag k="ssr:stedsnr" v="271670" />
	</node>
	<node lat="60.36351944016444" lon="10.53436388311107" id="-20896">
		<tag k="name" v="Ølhaugen" />
		<tag k="place" v="farm" />
		<tag k="ssr:stedsnr" v="271692" />
	</node>
	<node lat="60.51155555288228" lon="10.447391665115504" id="-20897">
		<tag k="name" v="Gravmoen" />
		<tag k="place" v="locality" />
		<tag k="ssr:stedsnr" v="449562" />
	</node>
	<node lat="60.48290555610705" lon="10.235824993667084" id="-20898">
		<tag k="name" v="Pompedammen" />
		<tag k="place" v="locality" />
		<tag k="ssr:stedsnr" v="232135" />
	</node>
	<node lat="60.33753889327259" lon="10.893752775274349" id="-20899">
		<tag k="name" v="Korsmyra" />
		<tag k="natural" v="wetland" />
		<tag k="ssr:stedsnr" v="232078" />
	</node>
	<node lat="60.42759444409661" lon="10.338127773522782" id="-20900">
		<tag k="name" v="Storøya" />
		<tag k="place" v="island" />
		<tag k="ssr:stedsnr" v="232093" />
	</node>
	<node lat="60.347616665679524" lon="10.58335278266332" id="-20901">
		<tag k="name" v="Østre Morstad" />
		<tag k="place" v="farm" />
		<tag k="ssr:stedsnr" v="232207" />
	</node>
	<node lat="60.3488138876272" lon="10.573480554605908" id="-20902">
		<tag k="name" v="Stenberg" />
		<tag k="place" v="farm" />
		<tag k="ssr:stedsnr" v="232211" />
	</node>
	<node lat="60.44337778123638" lon="10.2304583368434" id="-20903">
		<tag k="name" v="Brennheiten" />
		<tag k="place" v="island" />
		<tag k="ssr:stedsnr" v="232282" />
	</node>
	<node lat="60.43181666338723" lon="10.372452771252338" id="-20904">
		<tag k="name" v="Kophauger" />
		<tag k="natural" v="hill" />
		<tag k="place" v="locality" />
		<tag k="ssr:stedsnr" v="232478" />
	</node>
	<node lat="60.513330553962135" lon="10.290527779222387" id="-20905">
		<tag k="name" v="Gjerdingshaugen" />
		<tag k="natural" v="hill" />
		<tag k="place" v="locality" />
		<tag k="ssr:stedsnr" v="232431" />
	</node>
	<node lat="60.52593055501647" lon="10.190872214191582" id="-20906">
		<tag k="name" v="Kjelleren" />
		<tag k="place" v="locality" />
		<tag k="ssr:stedsnr" v="233012" />
	</node>
	<node lat="60.332491671194774" lon="10.849011106044001" id="-20907">
		<tag k="name" v="Hadelandsmyra" />
		<tag k="natural" v="wetland" />
		<tag k="ssr:stedsnr" v="233188" />
	</node>
	<node lat="60.333494446605336" lon="10.842047213652535" id="-20908">
		<tag k="name" v="Kvernsjøputthytta" />
		<tag k="place" v="isolated_dwelling" />
		<tag k="ssr:stedsnr" v="233190" />
	</node>
	<node lat="60.47899167059429" lon="10.35350554678338" id="-20909">
		<tag k="name" v="Grenmyra" />
		<tag k="natural" v="wetland" />
		<tag k="ssr:stedsnr" v="233276" />
	</node>
	<node lat="60.38038333708484" lon="10.577252772965737" id="-20910">
		<tag k="name" v="Nordgarden Horgen" />
		<tag k="place" v="farm" />
		<tag k="ssr:stedsnr" v="233323" />
	</node>
	<node lat="60.51790278079782" lon="10.198358329879731" id="-20911">
		<tag k="name" v="Velte" />
		<tag k="place" v="locality" />
		<tag k="ssr:stedsnr" v="233386" />
	</node>
	<node lat="60.38111388568609" lon="10.66546944259094" id="-20912">
		<tag k="alt_name" v="Nedre Fremstadsætra" />
		<tag k="historic" v="shieling" />
		<tag k="name" v="Nedre Framstadsætra" />
		<tag k="place" v="isolated_dwelling" />
		<tag k="ssr:stedsnr" v="233511" />
	</node>
	<node lat="60.418927775122576" lon="10.668725007499177" id="-20913">
		<tag k="name" v="Svartdalshytta" />
		<tag k="place" v="isolated_dwelling" />
		<tag k="ssr:stedsnr" v="233602" />
	</node>
	<node lat="60.315202779766665" lon="10.841544441207002" id="-20914">
		<tag k="name" v="Jammerholtputten" />
		<tag k="natural" v="water" />
		<tag k="ssr:stedsnr" v="233610" />
		<tag k="water" v="pond" />
	</node>
	<node lat="60.32620277471854" lon="10.87405556099978" id="-20915">
		<tag k="name" v="Kvernsjølia" />
		<tag k="natural" v="valley" />
		<tag k="place" v="locality" />
		<tag k="ssr:stedsnr" v="233611" />
	</node>
	<node lat="60.32229999571672" lon="10.753797213982187" id="-20916">
		<tag k="name" v="Gullerudputten" />
		<tag k="natural" v="water" />
		<tag k="ssr:stedsnr" v="233623" />
	</node>
	<node lat="60.45558610806015" lon="10.296383339309113" id="-20917">
		<tag k="name" v="Søndre kangsen" />
		<tag k="place" v="island" />
		<tag k="ssr:stedsnr" v="233633" />
	</node>
	<node lat="60.32267777924376" lon="10.776238885762643" id="-20918">
		<tag k="name" v="Hanskemyra" />
		<tag k="natural" v="wetland" />
		<tag k="ssr:stedsnr" v="233634" />
	</node>
	<node lat="60.41689444721286" lon="10.285508332837079" id="-20919">
		<tag k="name" v="Søndre Tobakkstjern" />
		<tag k="natural" v="water" />
		<tag k="ssr:stedsnr" v="233939" />
	</node>
	<node lat="60.53317500444289" lon="10.147511107041996" id="-20920">
		<tag k="name" v="Store Huldertjern" />
		<tag k="natural" v="water" />
		<tag k="ssr:stedsnr" v="233950" />
	</node>
	<node lat="60.380397223968075" lon="10.577288890868042" id="-20921">
		<tag k="fixme" v="consider place=hamlet" />
		<tag k="name" v="Nordre Horgen" />
		<tag k="place" v="farm" />
		<tag k="ssr:stedsnr" v="242197" />
	</node>
	<node lat="60.38501341744742" lon="10.638863055804354" id="-20922">
		<tag k="name" v="Randsjøen" />
		<tag k="natural" v="water" />
		<tag k="ssr:stedsnr" v="248059" />
		<tag k="water" v="lake" />
	</node>
	<node lat="60.37601666566248" lon="10.466133338025898" id="-20923">
		<tag k="alt_name" v="Smedstutjernet, s;Søndre Smedstutjernet" />
		<tag k="name" v="Smedstuetjernet" />
		<tag k="natural" v="water" />
		<tag k="ssr:stedsnr" v="248110" />
	</node>
	<node lat="60.44957277035441" lon="10.248158530364535" id="-20924">
		<tag k="name" v="Saltbufjorden" />
		<tag k="natural" v="water" />
		<tag k="ssr:stedsnr" v="248314" />
	</node>
	<node lat="60.469683476007845" lon="10.229806548301607" id="-20925">
		<tag k="name" v="Svarttjern" />
		<tag k="natural" v="water" />
		<tag k="ssr:stedsnr" v="248566" />
		<tag k="water" v="lake" />
	</node>
	<node lat="60.374335569599396" lon="10.588880876996733" id="-20926">
		<tag k="name" v="Framstad" />
		<tag k="place" v="hamlet" />
		<tag k="ssr:stedsnr" v="249104" />
	</node>
	<node lat="60.37157499720894" lon="10.578616671312275" id="-20927">
		<tag k="name" v="Linlykkja" />
		<tag k="place" v="isolated_dwelling" />
		<tag k="ssr:stedsnr" v="249109" />
	</node>
	<node lat="60.55322499792707" lon="10.5462250059166" id="-20928">
		<tag k="alt_name" v="Kutjern" />
		<tag k="name" v="Kutjernet" />
		<tag k="natural" v="water" />
		<tag k="ssr:stedsnr" v="249112" />
	</node>
	<node lat="60.37425000224362" lon="10.621647213837544" id="-20929">
		<tag k="alt_name" v="Ålsbygd, nordre" />
		<tag k="fixme" v="consider place=hamlet" />
		<tag k="name" v="Nordre Ålsbygd" />
		<tag k="place" v="village" />
		<tag k="ssr:stedsnr" v="249101" />
	</node>
	<node lat="60.43579760191789" lon="10.588943171720086" id="-20930">
		<tag k="fixme" v="consider place=hamlet" />
		<tag k="name" v="Ragnhildrud" />
		<tag k="place" v="farm" />
		<tag k="ssr:stedsnr" v="249210" />
	</node>
	<node lat="60.431774065631" lon="10.574880856864851" id="-20931">
		<tag k="fixme" v="consider place=hamlet" />
		<tag k="name" v="Amundrud" />
		<tag k="place" v="farm" />
		<tag k="ssr:stedsnr" v="249211" />
	</node>
	<node lat="60.41855833773704" lon="10.221980551997756" id="-20932">
		<tag k="name" v="Grønsjøen" />
		<tag k="natural" v="water" />
		<tag k="ssr:stedsnr" v="249251" />
	</node>
	<node lat="60.441022223215235" lon="10.588100001104488" id="-20933">
		<tag k="alt_name" v="Nygård" />
		<tag k="name" v="Nygard" />
		<tag k="place" v="farm" />
		<tag k="ssr:stedsnr" v="249212" />
	</node>
	<node lat="60.41964665094767" lon="10.287650095031745" id="-20934">
		<tag k="name" v="Tobakktjerna" />
		<tag k="natural" v="water" />
		<tag k="ssr:stedsnr" v="249252" />
		<tag k="water" v="lake" />
	</node>
	<node lat="60.44325277611882" lon="10.510674991740627" id="-20935">
		<tag k="name" v="Eggemoen" />
		<tag k="place" v="farm" />
		<tag k="ssr:stedsnr" v="249214" />
	</node>
	<node lat="60.412519447737274" lon="10.538475001586312" id="-20936">
		<tag k="building" v="industrial" />
		<tag k="industrial" v="factory" />
		<tag k="loc_name" v="Jaren sementfabrikk" />
		<tag k="name" v="Jaren Cementfabrikk" />
		<tag k="ssr:stedsnr" v="453046" />
	</node>
	<node lat="60.411483334117634" lon="10.504836108589812" id="-20937">
		<tag k="amenity" v="nursing_home" />
		<tag k="name" v="Marka pleiehjem" />
		<tag k="ssr:stedsnr" v="453050" />
	</node>
	<node lat="60.439980553691775" lon="10.385441657690302" id="-20938">
		<tag k="name" v="Bakken" />
		<tag k="place" v="farm" />
		<tag k="ssr:stedsnr" v="249195" />
	</node>
	<node lat="60.40406388913997" lon="10.581375008290083" id="-20939">
		<tag k="name" v="Geitryggen" />
		<tag k="natural" v="hill" />
		<tag k="place" v="locality" />
		<tag k="ssr:stedsnr" v="453148" />
	</node>
	<node lat="60.35381111512156" lon="10.507483329688498" id="-20940">
		<tag k="name" v="Kongebingen" />
		<tag k="place" v="isolated_dwelling" />
		<tag k="ssr:stedsnr" v="453618" />
	</node>
	<node lat="60.351441670352884" lon="10.507011115391427" id="-20941">
		<tag k="name" v="Øvre Gamme" />
		<tag k="place" v="farm" />
		<tag k="ssr:stedsnr" v="453619" />
	</node>
	<node lat="60.355805556761496" lon="10.538086114316819" id="-20942">
		<tag k="fixme" v="consider natural=peak for the most distinct mountains in the district" />
		<tag k="name" v="Granåsen" />
		<tag k="natural" v="hill" />
		<tag k="place" v="locality" />
		<tag k="ssr:stedsnr" v="453635" />
	</node>
	<node lat="60.37864722500403" lon="10.51351944921259" id="-20944">
		<tag k="name" v="Tuvhagan" />
		<tag k="place" v="farm" />
		<tag k="ssr:stedsnr" v="453740" />
	</node>
	<node lat="60.36469444563659" lon="10.540791665477549" id="-20945">
		<tag k="name" v="Ringvold" />
		<tag k="ssr:stedsnr" v="453639" />
		<tag k="tourism" v="guest_house" />
	</node>
	<node lat="60.35520277401472" lon="10.530661119768185" id="-20946">
		<tag k="name" v="Tokerud" />
		<tag k="place" v="farm" />
		<tag k="ssr:stedsnr" v="453654" />
	</node>
	<node lat="60.366008330999094" lon="10.618688893562647" id="-20947">
		<tag k="name" v="Karensberget" />
		<tag k="natural" v="hill" />
		<tag k="place" v="locality" />
		<tag k="ssr:stedsnr" v="454488" />
	</node>
	<node lat="60.34911944751447" lon="10.634355561794926" id="-20948">
		<tag k="name" v="Gjerdingsgrinda" />
		<tag k="place" v="locality" />
		<tag k="ssr:stedsnr" v="454442" />
	</node>
	<node lat="60.41510832928064" lon="10.553505556110494" id="-20949">
		<tag k="name" v="Molstadenga" />
		<tag k="place" v="farm" />
		<tag k="ssr:stedsnr" v="454615" />
	</node>
	<node lat="60.32034722051507" lon="10.421511115745181" id="-20950">
		<tag k="name" v="Sverige" />
		<tag k="place" v="locality" />
		<tag k="ssr:stedsnr" v="454753" />
	</node>
	<node lat="60.34190931324363" lon="10.457017322857633" id="-20951">
		<tag k="name" v="Falang" />
		<tag k="place" v="hamlet" />
		<tag k="ssr:stedsnr" v="455154" />
	</node>
	<node lat="60.34183830517198" lon="10.459724107612576" id="-20952">
		<tag k="name" v="Vestre Falang" />
		<tag k="place" v="farm" />
		<tag k="ssr:stedsnr" v="455155" />
	</node>
	<node lat="60.35755278124903" lon="10.452255556240548" id="-20953">
		<tag k="name" v="Hvindenenga" />
		<tag k="place" v="farm" />
		<tag k="ssr:stedsnr" v="455243" />
	</node>
	<node lat="60.35209444380974" lon="10.45554443835066" id="-20954">
		<tag k="name" v="Stein" />
		<tag k="place" v="farm" />
		<tag k="ssr:stedsnr" v="455249" />
	</node>
	<node lat="60.418349995891575" lon="10.480358336843103" id="-20955">
		<tag k="name" v="Tomtebråtån" />
		<tag k="place" v="farm" />
		<tag k="ssr:stedsnr" v="455284" />
	</node>
	<node lat="60.435694446101344" lon="10.473127779467887" id="-20956">
		<tag k="name" v="Vestre Rossum" />
		<tag k="place" v="farm" />
		<tag k="ssr:stedsnr" v="456037" />
	</node>
	<node lat="60.43782777362178" lon="10.470516660717298" id="-20957">
		<tag k="name" v="Rundshaugen" />
		<tag k="natural" v="hill" />
		<tag k="place" v="locality" />
		<tag k="ssr:stedsnr" v="456040" />
	</node>
	<node lat="60.44019999980434" lon="10.444686119746702" id="-20958">
		<tag k="name" v="Momyra" />
		<tag k="natural" v="wetland" />
		<tag k="ssr:stedsnr" v="456252" />
	</node>
	<node lat="60.490583336143516" lon="10.571194447862016" id="-20959">
		<tag k="name" v="Kommerikemyrene" />
		<tag k="natural" v="wetland" />
		<tag k="ssr:stedsnr" v="456340" />
	</node>
	<node lat="60.48697221802565" lon="10.570502782816552" id="-20960">
		<tag k="name" v="Skyttermyra" />
		<tag k="natural" v="wetland" />
		<tag k="ssr:stedsnr" v="456341" />
	</node>
	<node lat="60.48517222380405" lon="10.375169453349795" id="-20961">
		<tag k="name" v="Kleiva" />
		<tag k="natural" v="slope" />
		<tag k="place" v="locality" />
		<tag k="ssr:stedsnr" v="456422" />
	</node>
	<node lat="60.530491665926014" lon="10.44218333263692" id="-20962">
		<tag k="name" v="Bjørkmannsputten" />
		<tag k="natural" v="water" />
		<tag k="ssr:stedsnr" v="456628" />
		<tag k="water" v="pond" />
	</node>
	<node lat="60.53461389215985" lon="10.400033334226055" id="-20963">
		<tag k="name" v="Elvehella" />
		<tag k="place" v="locality" />
		<tag k="ssr:stedsnr" v="456669" />
	</node>
	<node lat="60.46686944470954" lon="10.564069450171385" id="-20964">
		<tag k="name" v="Torvmyra" />
		<tag k="natural" v="wetland" />
		<tag k="ssr:stedsnr" v="456724" />
	</node>
	<node lat="60.37735833692299" lon="10.343849994954432" id="-20965">
		<tag k="name" v="Kvilesteinen" />
		<tag k="natural" v="stone" />
		<tag k="ssr:stedsnr" v="457434" />
	</node>
	<node lat="60.47422777526009" lon="10.679872216673372" id="-20966">
		<tag k="name" v="Flisbanen" />
		<tag k="place" v="locality" />
		<tag k="ssr:stedsnr" v="457529" />
	</node>
	<node lat="60.55616944135867" lon="10.54773889627802" id="-20967">
		<tag k="name" v="Kutjernsmyrene" />
		<tag k="natural" v="wetland" />
		<tag k="ssr:stedsnr" v="457683" />
	</node>
	<node lat="60.45497777663721" lon="10.644155559604416" id="-20968">
		<tag k="name" v="Lygnasæter" />
		<tag k="ssr:stedsnr" v="457688" />
		<tag k="tourism" v="hotel" />
	</node>
	<node lat="60.55982777707587" lon="10.48606666302149" id="-20969">
		<tag k="name" v="Vestre Kvitingslia" />
		<tag k="natural" v="slope" />
		<tag k="place" v="locality" />
		<tag k="ssr:stedsnr" v="457694" />
	</node>
	<node lat="60.43906388920484" lon="10.617422214780426" id="-20970">
		<tag k="name" v="Skjellmyra" />
		<tag k="natural" v="wetland" />
		<tag k="ssr:stedsnr" v="457656" />
	</node>
	<node lat="60.52973055624561" lon="10.478944448493548" id="-20971">
		<tag k="name" v="Langmyra" />
		<tag k="natural" v="wetland" />
		<tag k="ssr:stedsnr" v="267606" />
	</node>
	<node lat="60.39805000349685" lon="10.564058324651796" id="-20972">
		<tag k="name" v="Stabu" />
		<tag k="place" v="farm" />
		<tag k="ssr:stedsnr" v="271224" />
	</node>
	<node lat="60.4074354148955" lon="10.578187017255724" id="-20973">
		<tag k="fixme" v="consider place=hamlet" />
		<tag k="name" v="Søndre Sørum" />
		<tag k="place" v="farm" />
		<tag k="ssr:stedsnr" v="271156" />
	</node>
	<node lat="60.39594752891469" lon="10.534710789239668" id="-20974">
		<tag k="name" v="Røysum" />
		<tag k="place" v="hamlet" />
		<tag k="ssr:stedsnr" v="271305" />
	</node>
	<node lat="60.32635000134323" lon="10.416513881640844" id="-20975">
		<tag k="name" v="Nordre Bjella" />
		<tag k="place" v="farm" />
		<tag k="ssr:stedsnr" v="272689" />
	</node>
	<node lat="60.4017972256606" lon="10.554172220148464" id="-20976">
		<tag k="name" v="Gjefsenmoen" />
		<tag k="place" v="locality" />
		<tag k="ssr:stedsnr" v="272805" />
	</node>
	<node lat="60.43268611446841" lon="10.439722224473412" id="-20977">
		<tag k="name" v="Skreitangen" />
		<tag k="place" v="islet" />
		<tag k="ssr:stedsnr" v="273075" />
	</node>
	<node lat="60.37358888650998" lon="10.469397220468739" id="-20978">
		<tag k="name" v="Hvindenødegård" />
		<tag k="place" v="farm" />
		<tag k="ssr:stedsnr" v="273427" />
	</node>
	<node lat="60.39563333711021" lon="10.479258332330852" id="-20979">
		<tag k="building" v="commercial" />
		<tag k="name" v="Kirkevold" />
		<tag k="ssr:stedsnr" v="273481" />
	</node>
	<node lat="60.44425833260455" lon="10.458894444636677" id="-20980">
		<tag k="name" v="Bakkegjerdinga" />
		<tag k="place" v="locality" />
		<tag k="ssr:stedsnr" v="274014" />
	</node>
	<node lat="60.43911666253419" lon="10.464422224466436" id="-20981">
		<tag k="name" v="Storlykkja" />
		<tag k="place" v="farm" />
		<tag k="ssr:stedsnr" v="274224" />
	</node>
	<node lat="60.4642666636227" lon="10.460533332427142" id="-20982">
		<tag k="name" v="Odden" />
		<tag k="place" v="farm" />
		<tag k="ssr:stedsnr" v="274175" />
	</node>
	<node lat="60.49620555943147" lon="10.559124997984908" id="-20983">
		<tag k="name" v="Tjyrueldsmyra" />
		<tag k="natural" v="wetland" />
		<tag k="ssr:stedsnr" v="274308" />
	</node>
	<node lat="60.52609722623372" lon="10.42321111395555" id="-20984">
		<tag k="bridge" v="yes" />
		<tag k="layer" v="1" />
		<tag k="name" v="Gregardsbrua" />
		<tag k="ssr:stedsnr" v="274604" />
	</node>
	<node lat="60.474688885604564" lon="10.572124993770771" id="-20985">
		<tag k="name" v="Stormyra" />
		<tag k="natural" v="wetland" />
		<tag k="ssr:stedsnr" v="274704" />
	</node>
	<node lat="60.52482778014238" lon="10.32807221550151" id="-20986">
		<tag k="name" v="Hornskleiva" />
		<tag k="natural" v="slope" />
		<tag k="place" v="locality" />
		<tag k="ssr:stedsnr" v="274674" />
	</node>
	<node lat="60.51422500013164" lon="10.491222227131361" id="-20987">
		<tag k="name" v="Storfløyta" />
		<tag k="natural" v="wetland" />
		<tag k="ssr:stedsnr" v="275113" />
	</node>
	<node lat="60.551519447924754" lon="10.52709721352519" id="-20988">
		<tag k="name" v="Valbergsfalla" />
		<tag k="natural" v="hill" />
		<tag k="place" v="locality" />
		<tag k="ssr:stedsnr" v="275686" />
	</node>
	<node lat="60.52913610959056" lon="10.493011113624942" id="-20989">
		<tag k="name" v="Kjosbråtån" />
		<tag k="place" v="locality" />
		<tag k="ssr:stedsnr" v="275693" />
	</node>
	<node lat="60.34306388515334" lon="10.584075001581054" id="-20990">
		<tag k="alt_name" v="Vøien" />
		<tag k="name" v="Vøyen" />
		<tag k="place" v="farm" />
		<tag k="ssr:stedsnr" v="281805" />
	</node>
	<node lat="60.45924999768484" lon="10.29711666972194" id="-20991">
		<tag k="name" v="Tolleknivene" />
		<tag k="place" v="island" />
		<tag k="ssr:stedsnr" v="293326" />
	</node>
	<node lat="60.47754444487057" lon="10.281602768948101" id="-20992">
		<tag k="name" v="Kleivsundet" />
		<tag k="natural" v="strait" />
		<tag k="ssr:stedsnr" v="293241" />
	</node>
	<node lat="60.469647226279335" lon="10.373152778151937" id="-20993">
		<tag k="name" v="Sæterhaugen" />
		<tag k="natural" v="hill" />
		<tag k="place" v="locality" />
		<tag k="ssr:stedsnr" v="293774" />
	</node>
	<node lat="60.50948333712595" lon="10.33513889752779" id="-20994">
		<tag k="name" v="Søndre Tokerud" />
		<tag k="place" v="farm" />
		<tag k="ssr:stedsnr" v="294411" />
	</node>
	<node lat="60.47399999645896" lon="10.35586944701128" id="-20995">
		<tag k="name" v="Røkenputten" />
		<tag k="natural" v="water" />
		<tag k="ssr:stedsnr" v="294315" />
	</node>
	<node lat="60.50843055937764" lon="10.204975007702265" id="-20996">
		<tag k="name" v="Avtjernstangen" />
		<tag k="natural" v="cape" />
		<tag k="ssr:stedsnr" v="294325" />
	</node>
	<node lat="60.476116668003655" lon="10.355155547563834" id="-20997">
		<tag k="name" v="Gundershytta" />
		<tag k="place" v="isolated_dwelling" />
		<tag k="ssr:stedsnr" v="294326" />
	</node>
	<node lat="60.430380556698005" lon="10.694600001861835" id="-20998">
		<tag k="name" v="Toputta" />
		<tag k="natural" v="water" />
		<tag k="ssr:stedsnr" v="294526" />
	</node>
	<node lat="60.48843333062114" lon="10.179880551140219" id="-20999">
		<tag k="name" v="Nysæterlia" />
		<tag k="natural" v="slope" />
		<tag k="place" v="locality" />
		<tag k="ssr:stedsnr" v="294529" />
	</node>
	<node lat="60.323911108623975" lon="10.762558339828766" id="-21000">
		<tag k="name" v="Gåsdalen" />
		<tag k="natural" v="valley" />
		<tag k="place" v="locality" />
		<tag k="ssr:stedsnr" v="294624" />
	</node>
	<node lat="60.45485000403758" lon="10.279638889922898" id="-21001">
		<tag k="name" v="Lemandsundet" />
		<tag k="natural" v="strait" />
		<tag k="ssr:stedsnr" v="294625" />
	</node>
	<node lat="60.48310277406825" lon="10.200447218489279" id="-21002">
		<tag k="name" v="Sytterbråtan" />
		<tag k="place" v="locality" />
		<tag k="ssr:stedsnr" v="294626" />
	</node>
	<node lat="60.393847219861634" lon="10.81587777968822" id="-21003">
		<tag k="name" v="Finnputten" />
		<tag k="natural" v="water" />
		<tag k="ssr:stedsnr" v="294732" />
		<tag k="water" v="pond" />
	</node>
	<node lat="60.34289166867752" lon="10.546036117856106" id="-21004">
		<tag k="name" v="Raknerud" />
		<tag k="place" v="farm" />
		<tag k="ssr:stedsnr" v="295136" />
	</node>
	<node lat="60.46058611195528" lon="10.500180556326347" id="-21005">
		<tag k="alt_name" v="Bleiken;Bleiken søndre" />
		<tag k="name" v="Sørbleiken" />
		<tag k="place" v="farm" />
		<tag k="ssr:stedsnr" v="300206" />
	</node>
	<node lat="60.38544166556117" lon="10.665063897879644" id="-21006">
		<tag k="alt_name" v="Framstadsætra" />
		<tag k="historic" v="shieling" />
		<tag k="name" v="Øvre Framstadsætra" />
		<tag k="place" v="isolated_dwelling" />
		<tag k="ssr:stedsnr" v="309133" />
	</node>
	<node lat="60.41920556004349" lon="10.590438889660188" id="-21007">
		<tag k="name" v="Emse" />
		<tag k="place" v="farm" />
		<tag k="ssr:stedsnr" v="309146" />
	</node>
	<node lat="60.41046388572021" lon="10.462108328087062" id="-21008">
		<tag k="alt_name" v="Vesteng" />
		<tag k="name" v="Vestenga" />
		<tag k="place" v="farm" />
		<tag k="ssr:stedsnr" v="309149" />
	</node>
	<node lat="60.36696388513198" lon="10.560477778083163" id="-21009">
		<tag k="name" v="Jarhaug" />
		<tag k="place" v="farm" />
		<tag k="ssr:stedsnr" v="309018" />
	</node>
	<node lat="60.34121110708965" lon="10.41906666706792" id="-21010">
		<tag k="name" v="Klæstad" />
		<tag k="place" v="isolated_dwelling" />
		<tag k="ssr:stedsnr" v="309039" />
	</node>
	<node lat="60.34325833778434" lon="10.675402780164971" id="-21011">
		<tag k="alt_name" v="Hamartjernet" />
		<tag k="name" v="Hammartjernet" />
		<tag k="natural" v="water" />
		<tag k="ssr:stedsnr" v="309045" />
	</node>
	<node lat="60.39496388969379" lon="10.534400007395735" id="-21012">
		<tag k="alt_name" v="Røysum, nordre" />
		<tag k="name" v="Nordre Røysum" />
		<tag k="place" v="farm" />
		<tag k="ssr:stedsnr" v="309093" />
	</node>
	<node lat="60.36714630437672" lon="10.458628192197038" id="-21013">
		<tag k="fixme" v="consider place=hamlet" />
		<tag k="name" v="Kjekstad" />
		<tag k="place" v="farm" />
		<tag k="ssr:stedsnr" v="309101" />
	</node>
	<node lat="60.41515277826791" lon="10.544941664822971" id="-21014">
		<tag k="amenity" v="place_of_worship" />
		<tag k="denomination" v="lutheran" />
		<tag k="name" v="Moen kirke" />
		<tag k="religion" v="christian" />
		<tag k="ssr:stedsnr" v="309202" />
	</node>
	<node lat="60.483205556669056" lon="10.666074991807966" id="-21015">
		<tag k="name" v="Nyvoll" />
		<tag k="place" v="isolated_dwelling" />
		<tag k="ssr:stedsnr" v="309337" />
	</node>
	<node lat="60.49153028610618" lon="10.651845109374547" id="-21016">
		<tag k="alt_name" v="Helgedalssætra, nordre;Nordre Helgedalssætra" />
		<tag k="historic" v="shieling" />
		<tag k="name" v="Nordhelgedalen" />
		<tag k="place" v="isolated_dwelling" />
		<tag k="ssr:stedsnr" v="309344" />
	</node>
	<node lat="60.37694166375833" lon="10.885330553797276" id="-21017">
		<tag k="name" v="Sundet" />
		<tag k="natural" v="strait" />
		<tag k="ssr:stedsnr" v="309602" />
	</node>
	<node lat="60.378424996865476" lon="10.889533340238257" id="-21018">
		<tag k="name" v="Gjætslevika" />
		<tag k="natural" v="bay" />
		<tag k="ssr:stedsnr" v="309603" />
	</node>
	<node lat="60.478927777671124" lon="10.274019451784193" id="-21019">
		<tag k="name" v="Grønmalen" />
		<tag k="natural" v="water" />
		<tag k="ssr:stedsnr" v="309701" />
	</node>
	<node lat="60.47543055801997" lon="10.176636108159315" id="-21020">
		<tag k="name" v="Raudtjern" />
		<tag k="natural" v="water" />
		<tag k="ssr:stedsnr" v="309706" />
	</node>
	<node lat="60.51143610929928" lon="10.47715554897957" id="-21021">
		<tag k="historic" v="shieling" />
		<tag k="name" v="Nordsætra" />
		<tag k="place" v="isolated_dwelling" />
		<tag k="ssr:stedsnr" v="310080" />
	</node>
	<node lat="60.508044446211606" lon="10.531733336122617" id="-21022">
		<tag k="fixme" v="consider place=hamlet" />
		<tag k="name" v="Hennung" />
		<tag k="place" v="village" />
		<tag k="ssr:stedsnr" v="310081" />
	</node>
	<node lat="60.536336112297555" lon="10.54782777574597" id="-21023">
		<tag k="name" v="Gampedalen" />
		<tag k="natural" v="valley" />
		<tag k="place" v="locality" />
		<tag k="ssr:stedsnr" v="310100" />
	</node>
	<node lat="60.44124722424381" lon="10.5303027783851" id="-21024">
		<tag k="alt_name" v="Nedre Teslo" />
		<tag k="name" v="Teslo" />
		<tag k="place" v="farm" />
		<tag k="ssr:stedsnr" v="310211" />
	</node>
	<node lat="60.33914494627522" lon="10.567343501357582" id="-21025">
		<tag k="fixme" v="consider place=hamlet" />
		<tag k="name" v="Koller" />
		<tag k="place" v="farm" />
		<tag k="ssr:stedsnr" v="309980" />
	</node>
	<node lat="60.343347580837836" lon="10.579201189420035" id="-21026">
		<tag k="alt_name" v="Vøien" />
		<tag k="name" v="Vøyen" />
		<tag k="place" v="hamlet" />
		<tag k="ssr:stedsnr" v="309982" />
	</node>
	<node lat="60.3430416671653" lon="10.62133333443485" id="-21027">
		<tag k="name" v="Lia" />
		<tag k="place" v="farm" />
		<tag k="ssr:stedsnr" v="309991" />
	</node>
	<node lat="60.43935658641975" lon="10.65351785270466" id="-21028">
		<tag k="historic" v="shieling" />
		<tag k="name" v="Finnskjeggholen" />
		<tag k="place" v="isolated_dwelling" />
		<tag k="ssr:stedsnr" v="310135" />
	</node>
	<node lat="60.517413884745444" lon="10.295936110271795" id="-21029">
		<tag k="name" v="Kirkeby" />
		<tag k="place" v="farm" />
		<tag k="ssr:stedsnr" v="310484" />
	</node>
	<node lat="60.51938345342171" lon="10.189852475715371" id="-21030">
		<tag k="alt_name" v="Abbortjern" />
		<tag k="name" v="Åbortjernet" />
		<tag k="natural" v="water" />
		<tag k="ssr:stedsnr" v="310492" />
	</node>
	<node lat="60.41473984857565" lon="10.852858417194126" id="-21031">
		<tag k="alt_name" v="Lomtjernhøgda" />
		<tag k="name" v="Lomtjernhaugen" />
		<tag k="natural" v="hill" />
		<tag k="place" v="locality" />
		<tag k="ssr:stedsnr" v="310625" />
	</node>
	<node lat="60.516797222935324" lon="10.295427781478004" id="-21032">
		<tag k="amenity" v="place_of_worship" />
		<tag k="denomination" v="lutheran" />
		<tag k="name" v="Sørum kirke" />
		<tag k="religion" v="christian" />
		<tag k="ssr:stedsnr" v="310502" />
	</node>
	<node lat="60.32300555594877" lon="10.602516661908862" id="-21033">
		<tag k="name" v="Dynna" />
		<tag k="place" v="farm" />
		<tag k="ssr:stedsnr" v="310894" />
	</node>
	<node lat="60.41003055849641" lon="10.524261104156484" id="-21034">
		<tag k="name" v="Bortafor" />
		<tag k="place" v="farm" />
		<tag k="ssr:stedsnr" v="332032" />
	</node>
	<node lat="60.411591665016225" lon="10.528208337427765" id="-21035">
		<tag k="name" v="Øvre Kolabakken" />
		<tag k="place" v="farm" />
		<tag k="ssr:stedsnr" v="332036" />
	</node>
	<node lat="60.411555557986105" lon="10.541074995957048" id="-21036">
		<tag k="name" v="Veisten" />
		<tag k="place" v="isolated_dwelling" />
		<tag k="ssr:stedsnr" v="332050" />
	</node>
	<node lat="60.412583329060915" lon="10.515008339652075" id="-21037">
		<tag k="name" v="Kvernhusbråtån" />
		<tag k="place" v="locality" />
		<tag k="ssr:stedsnr" v="332063" />
	</node>
	<node lat="60.4093916666865" lon="10.553933325209288" id="-21038">
		<tag k="name" v="Mohagen" />
		<tag k="place" v="quarter" />
		<tag k="ssr:stedsnr" v="332817" />
	</node>
	<node lat="60.40647777452808" lon="10.56430833239621" id="-21039">
		<tag k="name" v="Lillenga" />
		<tag k="place" v="farm" />
		<tag k="ssr:stedsnr" v="332822" />
	</node>
	<node lat="60.47116666324937" lon="10.459566674167203" id="-21040">
		<tag k="name" v="Rud" />
		<tag k="place" v="locality" />
		<tag k="ssr:stedsnr" v="334160" />
	</node>
	<node lat="60.47713055964879" lon="10.471538896947274" id="-21041">
		<tag k="name" v="Bøle" />
		<tag k="place" v="farm" />
		<tag k="ssr:stedsnr" v="334166" />
	</node>
	<node lat="60.39480833633218" lon="10.469830548650298" id="-21042">
		<tag k="name" v="Holebekken" />
		<tag k="ssr:stedsnr" v="334455" />
		<tag k="waterway" v="stream" />
	</node>
	<node lat="60.53424721783913" lon="10.431369440764968" id="-21043">
		<tag k="name" v="Toregjellmyra" />
		<tag k="natural" v="wetland" />
		<tag k="ssr:stedsnr" v="334617" />
	</node>
	<node lat="60.52199166985087" lon="10.425469451234608" id="-21044">
		<tag k="name" v="Vollmyra" />
		<tag k="natural" v="wetland" />
		<tag k="ssr:stedsnr" v="334620" />
	</node>
	<node lat="60.54308611403267" lon="10.374458327347677" id="-21045">
		<tag k="name" v="Sæterhaugen" />
		<tag k="ssr:stedsnr" v="334646" />
		<tag k="waterway" v="stream" />
	</node>
	<node lat="60.42546944474243" lon="10.46719722680102" id="-21046">
		<tag k="name" v="Ulsnestangen" />
		<tag k="natural" v="cape" />
		<tag k="ssr:stedsnr" v="334911" />
	</node>
	<node lat="60.477430553470285" lon="10.553836115586563" id="-21048">
		<tag k="name" v="Lunnbakken" />
		<tag k="place" v="locality" />
		<tag k="ssr:stedsnr" v="335758" />
	</node>
	<node lat="60.5093305581511" lon="10.516702769716122" id="-21049">
		<tag k="name" v="Svinningsætergjerdinga" />
		<tag k="place" v="locality" />
		<tag k="ssr:stedsnr" v="336145" />
	</node>
	<node lat="60.462727778729885" lon="10.636702785006928" id="-21050">
		<tag k="fixme" v="specify shooting=range, clay_pigeon etc" />
		<tag k="leisure" v="pitch" />
		<tag k="name" v="Lygna skytebane" />
		<tag k="sport" v="shooting" />
		<tag k="ssr:stedsnr" v="336523" />
	</node>
	<node lat="60.506755556466736" lon="10.693097213957582" id="-21051">
		<tag k="name" v="Langmyra" />
		<tag k="natural" v="wetland" />
		<tag k="ssr:stedsnr" v="336530" />
	</node>
	<node lat="60.38045277705806" lon="10.33690556419149" id="-21052">
		<tag k="alt_name" v="Tønnerud" />
		<tag k="historic" v="shieling" />
		<tag k="name" v="Tønnerudsætra" />
		<tag k="place" v="isolated_dwelling" />
		<tag k="ssr:stedsnr" v="336431" />
	</node>
	<node lat="60.38051111508133" lon="10.338555549902939" id="-21053">
		<tag k="alt_name" v="Furunes" />
		<tag k="historic" v="shieling" />
		<tag k="name" v="Furunessætra" />
		<tag k="place" v="isolated_dwelling" />
		<tag k="ssr:stedsnr" v="336433" />
	</node>
	<node lat="60.49211389086604" lon="10.656180561625083" id="-21054">
		<tag k="historic" v="shieling" />
		<tag k="name" v="Fellessæter" />
		<tag k="place" v="isolated_dwelling" />
		<tag k="ssr:stedsnr" v="336438" />
	</node>
	<node lat="60.49062222628687" lon="10.622586111606164" id="-21055">
		<tag k="name" v="Elkensætertjernet" />
		<tag k="natural" v="water" />
		<tag k="ssr:stedsnr" v="336447" />
	</node>
	<node lat="60.52396666252054" lon="10.5277361073425" id="-21056">
		<tag k="name" v="Korsbråtåmyra" />
		<tag k="natural" v="wetland" />
		<tag k="ssr:stedsnr" v="336709" />
	</node>
	<node lat="60.32961453442312" lon="10.565398674604644" id="-21057">
		<tag k="name" v="Bjørge" />
		<tag k="place" v="hamlet" />
		<tag k="ssr:stedsnr" v="342044" />
	</node>
	<node lat="60.44188889038708" lon="10.235750000946693" id="-21058">
		<tag k="name" v="Abborholmen" />
		<tag k="place" v="island" />
		<tag k="ssr:stedsnr" v="474278" />
	</node>
	<node lat="60.44259722292911" lon="10.250705553106153" id="-21059">
		<tag k="name" v="Albågan" />
		<tag k="place" v="islet" />
		<tag k="ssr:stedsnr" v="474290" />
	</node>
	<node lat="60.34885833426057" lon="10.582336109337264" id="-21060">
		<tag k="name" v="Ødegård" />
		<tag k="place" v="farm" />
		<tag k="ssr:stedsnr" v="354228" />
	</node>
	<node lat="60.48714444280971" lon="10.322852775924733" id="-21061">
		<tag k="name" v="Klyfta" />
		<tag k="place" v="locality" />
		<tag k="ssr:stedsnr" v="354231" />
	</node>
	<node lat="60.47811111434765" lon="10.315672222902114" id="-21062">
		<tag k="name" v="Vestre Koietjern" />
		<tag k="natural" v="water" />
		<tag k="ssr:stedsnr" v="354234" />
	</node>
	<node lat="60.34456197953916" lon="10.599507977042187" id="-21063">
		<tag k="name" v="Molden" />
		<tag k="place" v="hamlet" />
		<tag k="ssr:stedsnr" v="354235" />
	</node>
	<node lat="60.518591665640955" lon="10.182672230969807" id="-21064">
		<tag k="name" v="Putterstø" />
		<tag k="place" v="locality" />
		<tag k="ssr:stedsnr" v="354158" />
	</node>
	<node lat="60.47566389175273" lon="10.271772222194882" id="-21065">
		<tag k="name" v="Geitungen" />
		<tag k="place" v="island" />
		<tag k="ssr:stedsnr" v="354304" />
	</node>
	<node lat="60.51219166629659" lon="10.253388893367216" id="-21066">
		<tag k="junction" v="yes" />
		<tag k="name" v="Krokfoss" />
		<tag k="place" v="locality" />
		<tag k="ssr:stedsnr" v="354307" />
	</node>
	<node lat="60.39116667008704" lon="10.588722229546613" id="-21067">
		<tag k="name" v="Dammen" />
		<tag k="place" v="farm" />
		<tag k="ssr:stedsnr" v="354318" />
	</node>
	<node lat="60.36869444119849" lon="10.66786667184799" id="-21068">
		<tag k="name" v="Korpeputthaugen" />
		<tag k="natural" v="hill" />
		<tag k="place" v="locality" />
		<tag k="ssr:stedsnr" v="354330" />
	</node>
	<node lat="60.49585277508138" lon="10.1700055631167" id="-21069">
		<tag k="name" v="Blekketjernshaugen" />
		<tag k="natural" v="hill" />
		<tag k="place" v="locality" />
		<tag k="ssr:stedsnr" v="354652" />
	</node>
	<node lat="60.353766669812515" lon="10.75366665974173" id="-21070">
		<tag k="name" v="Mastefallet" />
		<tag k="natural" v="hill" />
		<tag k="place" v="locality" />
		<tag k="ssr:stedsnr" v="354656" />
	</node>
	<node lat="60.4462111141384" lon="10.303172223380555" id="-21071">
		<tag k="name" v="Stokksjøhøgda" />
		<tag k="natural" v="hill" />
		<tag k="place" v="locality" />
		<tag k="ssr:stedsnr" v="354593" />
	</node>
	<node lat="60.463225003976376" lon="10.370386106739746" id="-21072">
		<tag k="name" v="Bundingstikkmyrene" />
		<tag k="natural" v="wetland" />
		<tag k="ssr:stedsnr" v="354814" />
	</node>
	<node lat="60.43389722466685" lon="10.329936105967915" id="-21073">
		<tag k="name" v="Løkoset" />
		<tag k="natural" v="strait" />
		<tag k="ssr:stedsnr" v="354881" />
	</node>
	<node lat="60.36969166303432" lon="10.553269452470708" id="-21074">
		<tag k="name" v="Nedre Hvattum" />
		<tag k="place" v="farm" />
		<tag k="ssr:stedsnr" v="355009" />
	</node>
	<node lat="60.37547777395843" lon="10.746708328823615" id="-21075">
		<tag k="name" v="Ulvstangen" />
		<tag k="natural" v="cape" />
		<tag k="ssr:stedsnr" v="354774" />
	</node>
	<node lat="60.428372222972484" lon="10.258883339985037" id="-21076">
		<tag k="name" v="Kammerudholmen" />
		<tag k="place" v="island" />
		<tag k="ssr:stedsnr" v="354921" />
	</node>
	<node lat="60.370874997869926" lon="10.346316669560927" id="-21077">
		<tag k="name" v="Perkastet" />
		<tag k="natural" v="slope" />
		<tag k="place" v="locality" />
		<tag k="ssr:stedsnr" v="355423" />
	</node>
	<node lat="60.33169804809267" lon="10.798485717150223" id="-21078">
		<tag k="name" v="Langmyrhytta" />
		<tag k="place" v="isolated_dwelling" />
		<tag k="ssr:stedsnr" v="355724" />
	</node>
	<node lat="60.426147225623744" lon="10.767605547757473" id="-21079">
		<tag k="name" v="Svartbekkdammen" />
		<tag k="ssr:stedsnr" v="355869" />
		<tag k="waterway" v="dam" />
	</node>
	<node lat="60.43014166317287" lon="10.331977786611564" id="-21080">
		<tag k="name" v="Meiteroa" />
		<tag k="natural" v="bay" />
		<tag k="ssr:stedsnr" v="475080" />
	</node>
	<node lat="60.527519443979735" lon="10.213355557295309" id="-21081">
		<tag k="name" v="Velte" />
		<tag k="place" v="locality" />
		<tag k="ssr:stedsnr" v="475044" />
	</node>
	<node lat="60.35050555580662" lon="10.586841675014526" id="-21082">
		<tag k="name" v="Vestre Morstad" />
		<tag k="place" v="farm" />
		<tag k="ssr:stedsnr" v="475047" />
	</node>
	<node lat="60.33976110821658" lon="10.86732777699394" id="-21083">
		<tag k="name" v="Sætermyra" />
		<tag k="natural" v="wetland" />
		<tag k="ssr:stedsnr" v="475132" />
	</node>
	<node lat="60.41667221802119" lon="10.351161108857179" id="-21084">
		<tag k="name" v="Korpeberget" />
		<tag k="natural" v="hill" />
		<tag k="place" v="locality" />
		<tag k="ssr:stedsnr" v="475093" />
	</node>
	<node lat="60.490233332680226" lon="10.344863886011431" id="-21085">
		<tag k="name" v="Langbråtåberget" />
		<tag k="natural" v="hill" />
		<tag k="place" v="locality" />
		<tag k="ssr:stedsnr" v="475241" />
	</node>
	<node lat="60.48136388827401" lon="10.253672221158443" id="-21086">
		<tag k="name" v="Daggertjern" />
		<tag k="natural" v="water" />
		<tag k="ssr:stedsnr" v="475198" />
	</node>
	<node lat="60.481849995654784" lon="10.275416670305516" id="-21087">
		<tag k="name" v="Erikstangen" />
		<tag k="natural" v="cape" />
		<tag k="ssr:stedsnr" v="475202" />
	</node>
	<node lat="60.340433337614854" lon="10.771505558205257" id="-21088">
		<tag k="name" v="Høverhytta" />
		<tag k="place" v="isolated_dwelling" />
		<tag k="ssr:stedsnr" v="475364" />
	</node>
	<node lat="60.4571861138786" lon="10.259763888841027" id="-21089">
		<tag k="name" v="Engetangen" />
		<tag k="natural" v="cape" />
		<tag k="ssr:stedsnr" v="475372" />
	</node>
	<node lat="60.465622223939775" lon="10.277727772788518" id="-21090">
		<tag k="name" v="Helletjern" />
		<tag k="natural" v="water" />
		<tag k="ssr:stedsnr" v="475486" />
	</node>
	<node lat="60.40918610912588" lon="10.332155549049713" id="-21091">
		<tag k="name" v="Gammelsætervollen" />
		<tag k="place" v="locality" />
		<tag k="ssr:stedsnr" v="475440" />
	</node>
	<node lat="60.425600001527954" lon="10.370502775022244" id="-21092">
		<tag k="name" v="Torget" />
		<tag k="place" v="locality" />
		<tag k="ssr:stedsnr" v="475538" />
	</node>
	<node lat="60.46961111367257" lon="10.223444451333272" id="-21093">
		<tag k="name" v="Søthølvika" />
		<tag k="natural" v="bay" />
		<tag k="ssr:stedsnr" v="475763" />
	</node>
	<node lat="60.478836112147" lon="10.225394438946129" id="-21094">
		<tag k="name" v="Svarttjernshøgda" />
		<tag k="natural" v="hill" />
		<tag k="place" v="locality" />
		<tag k="ssr:stedsnr" v="476585" />
	</node>
	<node lat="60.39084166435706" lon="10.760411112717927" id="-21095">
		<tag k="name" v="Stormyra" />
		<tag k="natural" v="wetland" />
		<tag k="ssr:stedsnr" v="475750" />
	</node>
	<node lat="60.53432777719351" lon="10.144302783342159" id="-21096">
		<tag k="name" v="Vesle Huldertjern" />
		<tag k="natural" v="water" />
		<tag k="ssr:stedsnr" v="475957" />
	</node>
	<node lat="60.510580555364115" lon="10.234591662321334" id="-21097">
		<tag k="name" v="Tolltangen" />
		<tag k="natural" v="cape" />
		<tag k="ssr:stedsnr" v="476320" />
	</node>
	<node lat="60.46708889042604" lon="10.362038897012368" id="-21098">
		<tag k="name" v="Rolibrænnsnaret" />
		<tag k="place" v="locality" />
		<tag k="ssr:stedsnr" v="476336" />
	</node>
	<node lat="60.51607083424019" lon="10.21549865783971" id="-21099">
		<tag k="name" v="Gammelsætervika" />
		<tag k="natural" v="bay" />
		<tag k="ssr:stedsnr" v="476340" />
	</node>
	<node lat="60.45263055232757" lon="10.207077769735994" id="-21100">
		<tag k="name" v="Rovtjernsskaret" />
		<tag k="natural" v="valley" />
		<tag k="place" v="locality" />
		<tag k="ssr:stedsnr" v="476526" />
	</node>
	<node lat="60.45357500293667" lon="10.315086103075833" id="-21101">
		<tag k="name" v="Killingtjern" />
		<tag k="natural" v="water" />
		<tag k="ssr:stedsnr" v="369464" />
	</node>
	<node lat="60.46364228905268" lon="10.261151294953562" id="-21102">
		<tag k="fixme" v="consider place=hamlet" />
		<tag k="name" v="Sevaldrud" />
		<tag k="old_name" v="Sevalrud" />
		<tag k="place" v="farm" />
		<tag k="ssr:stedsnr" v="369481" />
	</node>
	<node lat="60.366619447417875" lon="10.557741675755546" id="-21103">
		<tag k="name" v="Hjertebo" />
		<tag k="place" v="isolated_dwelling" />
		<tag k="ssr:stedsnr" v="370025" />
	</node>
	<node lat="60.361297225285405" lon="10.649305556472404" id="-21104">
		<tag k="name" v="Lærensæterputten" />
		<tag k="natural" v="water" />
		<tag k="ssr:stedsnr" v="370027" />
	</node>
	<node lat="60.50662221987576" lon="10.518705552494986" id="-21105">
		<tag k="name" v="Bølhaugen" />
		<tag k="place" v="farm" />
		<tag k="ssr:stedsnr" v="370063" />
	</node>
	<node lat="60.354455558028036" lon="10.617819450231325" id="-21106">
		<tag k="alt_name" v="Jonsebråtån" />
		<tag k="name" v="Bråtån" />
		<tag k="place" v="farm" />
		<tag k="ssr:stedsnr" v="370072" />
	</node>
	<node lat="60.36057778036817" lon="10.618124996227323" id="-21107">
		<tag k="alt_name" v="Lysaker" />
		<tag k="name" v="Lysåker" />
		<tag k="place" v="farm" />
		<tag k="ssr:stedsnr" v="370076" />
	</node>
	<node lat="60.410588891953566" lon="10.440655547385107" id="-21108">
		<tag k="alt_name" v="Støa" />
		<tag k="name" v="Lysenstøa" />
		<tag k="place" v="farm" />
		<tag k="ssr:stedsnr" v="370169" />
	</node>
	<node lat="60.41608332971535" lon="10.651361115929824" id="-21109">
		<tag k="name" v="Svera" />
		<tag k="place" v="isolated_dwelling" />
		<tag k="ssr:stedsnr" v="370171" />
	</node>
	<node lat="60.41132777772412" lon="10.508983328109633" id="-21110">
		<tag k="name" v="Stykket" />
		<tag k="place" v="isolated_dwelling" />
		<tag k="ssr:stedsnr" v="370174" />
	</node>
	<node lat="60.431608332894506" lon="10.368336104081727" id="-21111">
		<tag k="fixme" v="consider natural=peak for the most distinct mountains in the district" />
		<tag k="name" v="Kophaug" />
		<tag k="natural" v="hill" />
		<tag k="place" v="locality" />
		<tag k="ssr:stedsnr" v="370177" />
	</node>
	<node lat="60.430847225364545" lon="10.454316662664912" id="-21112">
		<tag k="amenity" v="place_of_worship" />
		<tag k="denomination" v="lutheran" />
		<tag k="name" v="Nes kirke" />
		<tag k="old_name" v="Brandbu" />
		<tag k="religion" v="christian" />
		<tag k="ssr:stedsnr" v="370180" />
	</node>
	<node lat="60.42928055593153" lon="10.344713889106734" id="-21113">
		<tag k="name" v="Valdrestangen" />
		<tag k="natural" v="cape" />
		<tag k="ssr:stedsnr" v="370187" />
	</node>
	<node lat="60.32775000178028" lon="10.894599993753907" id="-21114">
		<tag k="name" v="Svartbekkskurven" />
		<tag k="place" v="locality" />
		<tag k="ssr:stedsnr" v="370315" />
	</node>
	<node lat="60.40691944695512" lon="10.243219451359" id="-21115">
		<tag k="fixme" v="consider natural=peak for the most distinct mountains in the district" />
		<tag k="name" v="Bjørnsjøhøgda" />
		<tag k="natural" v="hill" />
		<tag k="place" v="locality" />
		<tag k="ssr:stedsnr" v="370325" />
	</node>
	<node lat="60.44088235032921" lon="10.575153957046169" id="-21116">
		<tag k="historic" v="shieling" />
		<tag k="name" v="Pålsætra" />
		<tag k="place" v="isolated_dwelling" />
		<tag k="ssr:stedsnr" v="370267" />
	</node>
	<node lat="60.421188887468325" lon="10.227636113896802" id="-21117">
		<tag k="name" v="Sekken" />
		<tag k="natural" v="water" />
		<tag k="ssr:stedsnr" v="370421" />
	</node>
	<node lat="60.487800000707225" lon="10.241355548065204" id="-21118">
		<tag k="name" v="Svarttjernsbekken" />
		<tag k="ssr:stedsnr" v="370719" />
		<tag k="waterway" v="stream" />
	</node>
	<node lat="60.40247500342905" lon="10.86533055176818" id="-21119">
		<tag k="alt_name" v="Hekkentjernet" />
		<tag k="name" v="Hekkentjern" />
		<tag k="natural" v="water" />
		<tag k="ssr:stedsnr" v="370616" />
	</node>
	<node lat="60.385525000037454" lon="10.833175005483316" id="-21120">
		<tag k="alt_name" v="Lomtjernsbekken" />
		<tag k="fixme" v="multiple name tags, choose one and add the other to alt_name" />
		<tag k="name" v="Lomtjernselva;Toputtelva" />
		<tag k="ssr:stedsnr" v="370671" />
		<tag k="waterway" v="stream" />
	</node>
	<node lat="60.3221638873928" lon="10.38596944838539" id="-21121">
		<tag k="alt_name" v="Strande, nordre" />
		<tag k="name" v="Nordre Strande" />
		<tag k="place" v="farm" />
		<tag k="ssr:stedsnr" v="370965" />
	</node>
	<node lat="60.32616515217804" lon="10.430919958942956" id="-21122">
		<tag k="fixme" v="consider place=hamlet" />
		<tag k="name" v="Kittelsrud" />
		<tag k="place" v="farm" />
		<tag k="ssr:stedsnr" v="370968" />
	</node>
	<node lat="60.326686335214156" lon="10.420457610071006" id="-21123">
		<tag k="fixme" v="consider place=hamlet" />
		<tag k="name" v="Grinda" />
		<tag k="place" v="farm" />
		<tag k="ssr:stedsnr" v="370970" />
	</node>
	<node lat="60.31930555338773" lon="10.449894450964619" id="-21124">
		<tag k="alt_name" v="Mjør" />
		<tag k="name" v="Søndre Mjør" />
		<tag k="place" v="farm" />
		<tag k="ssr:stedsnr" v="370976" />
	</node>
	<node lat="60.343366664358285" lon="10.453477778447592" id="-21125">
		<tag k="name" v="Myra" />
		<tag k="place" v="farm" />
		<tag k="ssr:stedsnr" v="370980" />
	</node>
	<node lat="60.337970640893005" lon="10.596971548460184" id="-21126">
		<tag k="name" v="Flågån" />
		<tag k="place" v="farm" />
		<tag k="ssr:stedsnr" v="370985" />
	</node>
	<node lat="60.5275361150833" lon="10.4135277747819" id="-21127">
		<tag k="name" v="Kvernhusbekken" />
		<tag k="ssr:stedsnr" v="371064" />
		<tag k="waterway" v="stream" />
	</node>
	<node lat="60.506805554060705" lon="10.433180561499217" id="-21128">
		<tag k="name" v="Sinnerudshagen" />
		<tag k="place" v="locality" />
		<tag k="ssr:stedsnr" v="388600" />
	</node>
	<node lat="60.41291389335034" lon="10.52478888458536" id="-21129">
		<tag k="name" v="Kolamyra" />
		<tag k="place" v="farm" />
		<tag k="ssr:stedsnr" v="392043" />
	</node>
	<node lat="60.394455659564976" lon="10.52805126766971" id="-21130">
		<tag k="fixme" v="consider place=hamlet" />
		<tag k="name" v="Røysum" />
		<tag k="place" v="farm" />
		<tag k="ssr:stedsnr" v="392290" />
	</node>
	<node lat="60.361777773665345" lon="10.540691675044956" id="-21131">
		<tag k="name" v="Gransbråten" />
		<tag k="place" v="quarter" />
		<tag k="ssr:stedsnr" v="392690" />
	</node>
	<node lat="60.42765278155723" lon="10.519305556187154" id="-21132">
		<tag k="name" v="Bjørkli" />
		<tag k="place" v="farm" />
		<tag k="ssr:stedsnr" v="393204" />
	</node>
	<node lat="60.42637499758115" lon="10.565083329024135" id="-21133">
		<tag k="name" v="Ellefsrud" />
		<tag k="place" v="farm" />
		<tag k="ssr:stedsnr" v="393613" />
	</node>
	<node lat="60.42766388474653" lon="10.576480560308495" id="-21134">
		<tag k="name" v="Gunnildbekken" />
		<tag k="ssr:stedsnr" v="393614" />
		<tag k="waterway" v="stream" />
	</node>
	<node lat="60.39964722067183" lon="10.456933340662214" id="-21135">
		<tag k="alt_name" v="Askjum Sørgarden" />
		<tag k="name" v="Sørgarden Askjum" />
		<tag k="place" v="farm" />
		<tag k="ssr:stedsnr" v="394229" />
	</node>
	<node lat="60.40093333482683" lon="10.449883324371811" id="-21136">
		<tag k="alt_name" v="Askjum Vestgarden" />
		<tag k="name" v="Vestgarden Askjum" />
		<tag k="place" v="farm" />
		<tag k="ssr:stedsnr" v="394232" />
	</node>
	<node lat="60.39962221904049" lon="10.436616667375416" id="-21137">
		<tag k="name" v="Kjeksrudøgarden" />
		<tag k="place" v="farm" />
		<tag k="ssr:stedsnr" v="394233" />
	</node>
	<node lat="60.45238610747201" lon="10.461627784681845" id="-21138">
		<tag k="name" v="Kjerringberget" />
		<tag k="natural" v="hill" />
		<tag k="place" v="locality" />
		<tag k="ssr:stedsnr" v="395002" />
	</node>
	<node lat="60.43282365669958" lon="10.45392764243846" id="-21139">
		<tag k="fixme" v="consider place=hamlet" />
		<tag k="name" v="Nedre Nes" />
		<tag k="place" v="farm" />
		<tag k="ssr:stedsnr" v="395086" />
	</node>
	<node lat="60.479761108184924" lon="10.453769439932978" id="-21140">
		<tag k="name" v="Vestlia" />
		<tag k="place" v="isolated_dwelling" />
		<tag k="ssr:stedsnr" v="395279" />
	</node>
	<node lat="60.49751944730522" lon="10.43881111793334" id="-21141">
		<tag k="name" v="Fjellheim" />
		<tag k="place" v="isolated_dwelling" />
		<tag k="ssr:stedsnr" v="395308" />
	</node>
	<node lat="60.49106388641505" lon="10.482583340220033" id="-21142">
		<tag k="name" v="Nybakke" />
		<tag k="place" v="farm" />
		<tag k="ssr:stedsnr" v="395331" />
	</node>
	<node lat="60.509652780925826" lon="10.41382499443878" id="-21143">
		<tag k="name" v="Nordre Hanserud" />
		<tag k="place" v="farm" />
		<tag k="ssr:stedsnr" v="395387" />
	</node>
	<node lat="60.53698332963838" lon="10.403069446195595" id="-21144">
		<tag k="name" v="Raudmyra" />
		<tag k="natural" v="wetland" />
		<tag k="ssr:stedsnr" v="395705" />
	</node>
	<node lat="60.523741668726075" lon="10.37279166654441" id="-21145">
		<tag k="name" v="Kalvskinnbråtån" />
		<tag k="place" v="farm" />
		<tag k="ssr:stedsnr" v="395709" />
	</node>
	<node lat="60.344280558614216" lon="10.544905548568039" id="-21146">
		<tag k="alt_name" v="Raknerud Nordgar'n" />
		<tag k="name" v="Nordgarden Raknerud" />
		<tag k="place" v="farm" />
		<tag k="ssr:stedsnr" v="484198" />
	</node>
	<node lat="60.50788055863559" lon="10.467680558059058" id="-21147">
		<tag k="name" v="Husbråtåmyra" />
		<tag k="natural" v="wetland" />
		<tag k="ssr:stedsnr" v="395636" />
	</node>
	<node lat="60.44492778160883" lon="10.565883330811594" id="-21148">
		<tag k="name" v="Maribingen" />
		<tag k="place" v="locality" />
		<tag k="ssr:stedsnr" v="395838" />
	</node>
	<node lat="60.50286666259701" lon="10.504733336856802" id="-21149">
		<tag k="name" v="Søre Bleikenmyra" />
		<tag k="natural" v="wetland" />
		<tag k="ssr:stedsnr" v="396104" />
	</node>
	<node lat="60.502074995620696" lon="10.508905550203249" id="-21150">
		<tag k="name" v="Bølhaugmyra" />
		<tag k="natural" v="wetland" />
		<tag k="ssr:stedsnr" v="396105" />
	</node>
	<node lat="60.503616670082415" lon="10.552208336081918" id="-21151">
		<tag k="name" v="Rundhaugen" />
		<tag k="natural" v="hill" />
		<tag k="place" v="locality" />
		<tag k="ssr:stedsnr" v="396128" />
	</node>
	<node lat="60.50664722603771" lon="10.570227769412094" id="-21152">
		<tag k="name" v="Nyleiksmyra" />
		<tag k="natural" v="wetland" />
		<tag k="ssr:stedsnr" v="396134" />
	</node>
	<node lat="60.512102775862836" lon="10.498938887520486" id="-21153">
		<tag k="name" v="Høgdemyra" />
		<tag k="natural" v="wetland" />
		<tag k="ssr:stedsnr" v="396098" />
	</node>
	<node lat="60.52375555912173" lon="10.523841672307727" id="-21154">
		<tag k="name" v="Fiskemyra" />
		<tag k="natural" v="wetland" />
		<tag k="ssr:stedsnr" v="396207" />
	</node>
	<node lat="60.48541111012766" lon="10.656558335853953" id="-21155">
		<tag k="name" v="Geitryggen" />
		<tag k="natural" v="ridge" />
		<tag k="place" v="locality" />
		<tag k="ssr:stedsnr" v="396430" />
	</node>
	<node lat="60.437991666593895" lon="10.67421388870097" id="-21156">
		<tag k="name" v="Dritergranknipen" />
		<tag k="place" v="locality" />
		<tag k="ssr:stedsnr" v="484437" />
	</node>
	<node lat="60.327169442860104" lon="10.434136114144334" id="-21157">
		<tag k="name" v="Kittelsrud" />
		<tag k="place" v="farm" />
		<tag k="ssr:stedsnr" v="272082" />
	</node>
	<node lat="60.414462643106546" lon="10.517261111599643" id="-21158">
		<tag k="name" v="Grindåkerstykket" />
		<tag k="place" v="locality" />
		<tag k="ssr:stedsnr" v="272188" />
	</node>
	<node lat="60.42284166692057" lon="10.500855548954137" id="-21159">
		<tag k="bridge" v="yes" />
		<tag k="layer" v="1" />
		<tag k="name" v="Ringvang" />
		<tag k="ssr:stedsnr" v="410150" />
	</node>
	<node lat="60.40149722338726" lon="10.544777777939466" id="-21160">
		<tag k="bridge" v="yes" />
		<tag k="layer" v="1" />
		<tag k="name" v="Rogne" />
		<tag k="ssr:stedsnr" v="410151" />
	</node>
	<node lat="60.348905551208915" lon="10.720152781691455" id="-21161">
		<tag k="historic" v="shieling" />
		<tag k="name" v="Stabekksætra" />
		<tag k="place" v="isolated_dwelling" />
		<tag k="ssr:stedsnr" v="414336" />
	</node>
	<node lat="60.366036115395914" lon="10.588861118969584" id="-21162">
		<tag k="junction" v="yes" />
		<tag k="name" v="Ålheim" />
		<tag k="place" v="locality" />
		<tag k="ssr:stedsnr" v="415104" />
	</node>
	<node lat="60.48013889012474" lon="10.276530548664363" id="-21163">
		<tag k="name" v="Slottet" />
		<tag k="place" v="island" />
		<tag k="ssr:stedsnr" v="415198" />
	</node>
	<node lat="60.493852778023275" lon="10.324263890980605" id="-21164">
		<tag k="name" v="Langtjernsbekken" />
		<tag k="ssr:stedsnr" v="415236" />
		<tag k="waterway" v="stream" />
	</node>
	<node lat="60.37479722612517" lon="10.545175007660504" id="-21165">
		<tag k="name" v="Hvattum" />
		<tag k="place" v="farm" />
		<tag k="ssr:stedsnr" v="415243" />
	</node>
	<node lat="60.36926110768162" lon="10.911300000868057" id="-21166">
		<tag k="name" v="Furua" />
		<tag k="place" v="island" />
		<tag k="ssr:stedsnr" v="415250" />
	</node>
	<node lat="60.46658888734434" lon="10.287713893774859" id="-21167">
		<tag k="name" v="Bakken" />
		<tag k="place" v="island" />
		<tag k="ssr:stedsnr" v="415285" />
	</node>
	<node lat="60.470377774206035" lon="10.259030546681045" id="-21168">
		<tag k="name" v="Engevika" />
		<tag k="natural" v="bay" />
		<tag k="ssr:stedsnr" v="415291" />
	</node>
	<node lat="60.47456666835311" lon="10.261005561197281" id="-21169">
		<tag k="name" v="Storgrunnvika" />
		<tag k="natural" v="bay" />
		<tag k="ssr:stedsnr" v="415292" />
	</node>
	<node lat="60.40575555348617" lon="10.23118888587546" id="-21170">
		<tag k="name" v="Bjørnsjøputtene" />
		<tag k="natural" v="water" />
		<tag k="ssr:stedsnr" v="415298" />
		<tag k="water" v="pond" />
	</node>
	<node lat="60.437024998204194" lon="10.24078055956925" id="-21171">
		<tag k="name" v="Klyftsundene" />
		<tag k="natural" v="strait" />
		<tag k="ssr:stedsnr" v="415299" />
	</node>
	<node lat="60.50497500337946" lon="10.211836119756233" id="-21172">
		<tag k="name" v="Trønhus" />
		<tag k="place" v="isolated_dwelling" />
		<tag k="ssr:stedsnr" v="415345" />
	</node>
	<node lat="60.38739444794172" lon="10.341302779661724" id="-21173">
		<tag k="name" v="Veltadalen" />
		<tag k="natural" v="valley" />
		<tag k="place" v="locality" />
		<tag k="ssr:stedsnr" v="415503" />
	</node>
	<node lat="60.37617777431607" lon="10.358799991488794" id="-21174">
		<tag k="name" v="Malisætertangen" />
		<tag k="natural" v="cape" />
		<tag k="ssr:stedsnr" v="415504" />
	</node>
	<node lat="60.51513610779973" lon="10.302174992283412" id="-21175">
		<tag k="name" v="Frydenlund" />
		<tag k="place" v="isolated_dwelling" />
		<tag k="ssr:stedsnr" v="415506" />
	</node>
	<node lat="60.438608334989794" lon="10.3144583312942" id="-21176">
		<tag k="name" v="Stokksjøputten" />
		<tag k="natural" v="water" />
		<tag k="ssr:stedsnr" v="415589" />
		<tag k="water" v="pond" />
	</node>
	<node lat="60.409766665384446" lon="10.709788897330379" id="-21177">
		<tag k="name" v="Ognillsbrenna" />
		<tag k="place" v="locality" />
		<tag k="ssr:stedsnr" v="415486" />
	</node>
	<node lat="60.36597222409145" lon="10.760074999190584" id="-21178">
		<tag k="name" v="Søre Glåmen" />
		<tag k="natural" v="hill" />
		<tag k="place" v="locality" />
		<tag k="ssr:stedsnr" v="415697" />
	</node>
	<node lat="60.4643555540912" lon="10.210075008535737" id="-21179">
		<tag k="name" v="Skansen" />
		<tag k="natural" v="hill" />
		<tag k="place" v="locality" />
		<tag k="ssr:stedsnr" v="415805" />
	</node>
	<node lat="60.45866110822096" lon="10.379086104408955" id="-21180">
		<tag k="name" v="Vollenga" />
		<tag k="place" v="locality" />
		<tag k="ssr:stedsnr" v="415815" />
	</node>
	<node lat="60.45530833021889" lon="10.370399993434162" id="-21181">
		<tag k="alt_name" v="Sætertjern" />
		<tag k="name" v="Sætertjernet" />
		<tag k="natural" v="water" />
		<tag k="ssr:stedsnr" v="415747" />
	</node>
	<node lat="60.37632386697258" lon="10.756986694690797" id="-21182">
		<tag k="name" v="Svartvika" />
		<tag k="natural" v="bay" />
		<tag k="ssr:stedsnr" v="415795" />
	</node>
	<node lat="60.42061388750082" lon="10.289705552653409" id="-21183">
		<tag k="name" v="Nordre Tobakkstjern" />
		<tag k="natural" v="water" />
		<tag k="ssr:stedsnr" v="415943" />
	</node>
	<node lat="60.33658135818199" lon="10.59438470480627" id="-21184">
		<tag k="name" v="Hval" />
		<tag k="place" v="hamlet" />
		<tag k="ssr:stedsnr" v="424412" />
	</node>
	<node lat="60.335325001816656" lon="10.404375001011632" id="-21185">
		<tag k="alt_name" v="Grymyr, midtre" />
		<tag k="name" v="Midtre Grymyr" />
		<tag k="place" v="farm" />
		<tag k="ssr:stedsnr" v="491041" />
	</node>
	<node lat="60.35328333409253" lon="10.524986117067524" id="-21186">
		<tag k="name" v="Tokerud" />
		<tag k="place" v="farm" />
		<tag k="ssr:stedsnr" v="491001" />
	</node>
	<node lat="60.39200053637466" lon="10.51184097684243" id="-21187">
		<tag k="name" v="Tingelstad" />
		<tag k="place" v="hamlet" />
		<tag k="ssr:stedsnr" v="491096" />
	</node>
	<node lat="60.431269440945144" lon="10.309574999030273" id="-21188">
		<tag k="fixme" v="consider natural=peak for the most distinct mountains in the district" />
		<tag k="name" v="Bjørnhaugen" />
		<tag k="natural" v="hill" />
		<tag k="place" v="locality" />
		<tag k="ssr:stedsnr" v="491374" />
	</node>
	<node lat="60.375608337337795" lon="10.486380557530962" id="-21189">
		<tag k="name" v="Svenskerud" />
		<tag k="place" v="farm" />
		<tag k="ssr:stedsnr" v="491113" />
	</node>
	<node lat="60.39160278115732" lon="10.528344443437225" id="-21190">
		<tag k="amenity" v="nursing_home" />
		<tag k="name" v="Røysumtunet" />
		<tag k="ssr:stedsnr" v="431104" />
	</node>
	<node lat="60.36663990028439" lon="10.419161147094362" id="-21191">
		<tag k="fixme" v="consider place=hamlet" />
		<tag k="name" v="Steinsrud" />
		<tag k="place" v="farm" />
		<tag k="ssr:stedsnr" v="431112" />
	</node>
	<node lat="60.370044447872814" lon="10.655033324795568" id="-21192">
		<tag k="alt_name" v="Grunntjern" />
		<tag k="name" v="Grunntjernet" />
		<tag k="natural" v="water" />
		<tag k="ssr:stedsnr" v="431117" />
	</node>
	<node lat="60.41843333606053" lon="10.56590278539542" id="-21193">
		<tag k="alt_name" v="Moen skole" />
		<tag k="amenity" v="school" />
		<tag k="name" v="Moen" />
		<tag k="ssr:stedsnr" v="491139" />
	</node>
	<node lat="60.4254972250418" lon="10.558697215673236" id="-21194">
		<tag k="name" v="Ellefsrud" />
		<tag k="place" v="farm" />
		<tag k="ssr:stedsnr" v="491141" />
	</node>
	<node lat="60.409065593977914" lon="10.52965947681324" id="-21195">
		<tag k="fixme" v="consider place=hamlet" />
		<tag k="name" v="Svensbakken" />
		<tag k="place" v="farm" />
		<tag k="ssr:stedsnr" v="491150" />
	</node>
	<node lat="60.348299999236474" lon="10.663899991016878" id="-21196">
		<tag k="name" v="Kobberputtane" />
		<tag k="natural" v="water" />
		<tag k="ssr:stedsnr" v="431049" />
	</node>
	<node lat="60.5033666644495" lon="10.432791658808503" id="-21197">
		<tag k="alt_name" v="Retrumsbakken" />
		<tag k="name" v="Bakken" />
		<tag k="place" v="farm" />
		<tag k="ssr:stedsnr" v="431052" />
	</node>
	<node lat="60.347122317272444" lon="10.519938096245856" id="-21198">
		<tag k="fixme" v="consider place=hamlet" />
		<tag k="name" v="Ulverud" />
		<tag k="place" v="farm" />
		<tag k="ssr:stedsnr" v="431059" />
	</node>
	<node lat="60.51186111358358" lon="10.680205560038702" id="-21199">
		<tag k="name" v="Hølbekkmyra" />
		<tag k="natural" v="wetland" />
		<tag k="ssr:stedsnr" v="431060" />
	</node>
	<node lat="60.35299444611957" lon="10.543300007711615" id="-21200">
		<tag k="name" v="Ringdalssvingen" />
		<tag k="place" v="farm" />
		<tag k="ssr:stedsnr" v="431064" />
	</node>
	<node lat="60.46474444572372" lon="10.486502773787109" id="-21201">
		<tag k="alt_name" v="Bjørklund skole" />
		<tag k="amenity" v="school" />
		<tag k="name" v="Bjørklund" />
		<tag k="ssr:stedsnr" v="431215" />
	</node>
	<node lat="60.47106666236511" lon="10.567994444700869" id="-21202">
		<tag k="historic" v="shieling" />
		<tag k="name" v="Nysætra" />
		<tag k="place" v="isolated_dwelling" />
		<tag k="ssr:stedsnr" v="431241" />
	</node>
	<node lat="60.454638887479966" lon="10.64820834041828" id="-21203">
		<tag k="name" v="Lygna" />
		<tag k="natural" v="water" />
		<tag k="ssr:stedsnr" v="431258" />
	</node>
	<node lat="60.37988611182655" lon="10.68655555932473" id="-21204">
		<tag k="historic" v="shieling" />
		<tag k="name" v="Bekkelisætra" />
		<tag k="place" v="isolated_dwelling" />
		<tag k="ssr:stedsnr" v="431142" />
	</node>
	<node lat="60.42245000138241" lon="10.49714999215672" id="-21205">
		<tag k="fixme" v="consider place=hamlet" />
		<tag k="name" v="Brandhagan" />
		<tag k="place" v="farm" />
		<tag k="ssr:stedsnr" v="431147" />
	</node>
	<node lat="60.399619440302416" lon="10.588705562457603" id="-21206">
		<tag k="alt_name" v="Bakkegjerdingen" />
		<tag k="name" v="Bakkegjerdinga" />
		<tag k="place" v="isolated_dwelling" />
		<tag k="ssr:stedsnr" v="431191" />
	</node>
	<node lat="60.335183334277126" lon="10.8766999999503" id="-21207">
		<tag k="name" v="Lomtjern" />
		<tag k="natural" v="water" />
		<tag k="ssr:stedsnr" v="431311" />
	</node>
	<node lat="60.50339444594826" lon="10.482619446310103" id="-21208">
		<tag k="name" v="Gulsjøelva" />
		<tag k="ssr:stedsnr" v="431320" />
		<tag k="waterway" v="river" />
	</node>
	<node lat="60.447472220086986" lon="10.515730553262326" id="-21209">
		<tag k="name" v="Svingen" />
		<tag k="place" v="farm" />
		<tag k="ssr:stedsnr" v="491246" />
	</node>
	<node lat="60.41249167108242" lon="10.261805558912469" id="-21210">
		<tag k="name" v="Stangeroa" />
		<tag k="natural" v="bay" />
		<tag k="ssr:stedsnr" v="431293" />
	</node>
	<node lat="60.39913055422635" lon="10.7729499980767" id="-21211">
		<tag k="alt_name" v="Avrillen, store" />
		<tag k="name" v="Store Avrillen" />
		<tag k="natural" v="water" />
		<tag k="ssr:stedsnr" v="431619" />
	</node>
	<node lat="60.39725833047663" lon="10.808055561420732" id="-21212">
		<tag k="name" v="Gamle Lomtjernshytta" />
		<tag k="place" v="isolated_dwelling" />
		<tag k="ssr:stedsnr" v="431623" />
	</node>
	<node lat="60.418027779858384" lon="10.731275000494586" id="-21213">
		<tag k="name" v="Hesjemyra" />
		<tag k="natural" v="wetland" />
		<tag k="ssr:stedsnr" v="431642" />
	</node>
	<node lat="60.41457500367738" lon="10.7210305589525" id="-21214">
		<tag k="name" v="Risbakkhytta" />
		<tag k="place" v="isolated_dwelling" />
		<tag k="ssr:stedsnr" v="431643" />
	</node>
	<node lat="60.42492777942925" lon="10.764752783275783" id="-21215">
		<tag k="name" v="Tommelsjøholen" />
		<tag k="natural" v="hill" />
		<tag k="place" v="locality" />
		<tag k="ssr:stedsnr" v="431650" />
	</node>
	<node lat="60.392008329063415" lon="10.873672227648727" id="-21216">
		<tag k="name" v="Nordsæterhaugen" />
		<tag k="natural" v="hill" />
		<tag k="place" v="locality" />
		<tag k="ssr:stedsnr" v="431598" />
	</node>
	<node lat="60.48514166386284" lon="10.277772216559413" id="-21217">
		<tag k="name" v="Vollen" />
		<tag k="place" v="farm" />
		<tag k="ssr:stedsnr" v="431727" />
	</node>
	<node lat="60.50020833406228" lon="10.213638896592299" id="-21218">
		<tag k="name" v="Sytterbekken" />
		<tag k="ssr:stedsnr" v="431734" />
		<tag k="waterway" v="stream" />
	</node>
	<node lat="60.49591111210853" lon="10.20540833625352" id="-21219">
		<tag k="name" v="Haratjernet" />
		<tag k="natural" v="water" />
		<tag k="ssr:stedsnr" v="431750" />
	</node>
	<node lat="60.49479999741898" lon="10.168272226743719" id="-21220">
		<tag k="name" v="Blekketjernet" />
		<tag k="natural" v="water" />
		<tag k="ssr:stedsnr" v="431751" />
	</node>
	<node lat="60.44174999604262" lon="10.316408333560023" id="-21221">
		<tag k="alt_name" v="Stokksjøtjern" />
		<tag k="name" v="Stokksjøtjernet" />
		<tag k="natural" v="water" />
		<tag k="ssr:stedsnr" v="491357" />
	</node>
	<node lat="60.336225001370345" lon="10.605258325047705" id="-21222">
		<tag k="name" v="Kolkinn" />
		<tag k="place" v="farm" />
		<tag k="ssr:stedsnr" v="431990" />
	</node>
	<node lat="60.33589166420718" lon="10.620413885106359" id="-21223">
		<tag k="alt_name" v="Ålsbygd, søre" />
		<tag k="fixme" v="consider place=hamlet" />
		<tag k="name" v="Søre Ålsbygd" />
		<tag k="place" v="village" />
		<tag k="ssr:stedsnr" v="431991" />
	</node>
	<node lat="60.54476944471722" lon="10.545377772959574" id="-21224">
		<tag k="historic" v="shieling" />
		<tag k="name" v="Rognlisætra" />
		<tag k="place" v="isolated_dwelling" />
		<tag k="ssr:stedsnr" v="432112" />
	</node>
	<node lat="60.43246944567355" lon="10.230349994386861" id="-21225">
		<tag k="alt_name" v="Jeppetjern, nordre;Jeppetjern" />
		<tag k="name" v="Nordre Jeppetjern" />
		<tag k="natural" v="water" />
		<tag k="ssr:stedsnr" v="491377" />
	</node>
	<node lat="60.42597500204918" lon="10.251174993704277" id="-21226">
		<tag k="name" v="Kattisen" />
		<tag k="natural" v="bay" />
		<tag k="ssr:stedsnr" v="491386" />
	</node>
	<node lat="60.524808335851176" lon="10.507955552195178" id="-21227">
		<tag k="name" v="Nilseputten" />
		<tag k="natural" v="water" />
		<tag k="ssr:stedsnr" v="432083" />
	</node>
	<node lat="60.51228055743863" lon="10.455322225564219" id="-21228">
		<tag k="alt_name" v="Sytjernselva" />
		<tag k="name" v="Sytjernelva" />
		<tag k="ssr:stedsnr" v="432085" />
		<tag k="waterway" v="river" />
	</node>
	<node lat="60.525771207825656" lon="10.363034062293107" id="-21229">
		<tag k="fixme" v="consider place=hamlet" />
		<tag k="name" v="Kalvskinn" />
		<tag k="place" v="farm" />
		<tag k="ssr:stedsnr" v="432086" />
	</node>
	<node lat="60.51762218211061" lon="10.396210933315706" id="-21230">
		<tag k="alt_name" v="Gjerdvika" />
		<tag k="name" v="Gjervika" />
		<tag k="old_name" v="Gjørvika" />
		<tag k="place" v="hamlet" />
		<tag k="ssr:stedsnr" v="432087" />
	</node>
	<node lat="60.53620277525702" lon="10.385627780466738" id="-21231">
		<tag k="alt_name" v="Kampeputta" />
		<tag k="name" v="Kampeputtane" />
		<tag k="natural" v="water" />
		<tag k="ssr:stedsnr" v="432092" />
	</node>
	<node lat="60.53668888767762" lon="10.392652783171432" id="-21232">
		<tag k="alt_name" v="Kampen" />
		<tag k="fixme" v="consider natural=peak for the most distinct mountains in the district" />
		<tag k="name" v="Gjerdvikskampen" />
		<tag k="natural" v="hill" />
		<tag k="place" v="locality" />
		<tag k="ssr:stedsnr" v="432100" />
	</node>
	<node lat="60.52384166226377" lon="10.322275007777591" id="-21233">
		<tag k="name" v="Hornsberget" />
		<tag k="natural" v="hill" />
		<tag k="place" v="locality" />
		<tag k="ssr:stedsnr" v="432511" />
	</node>
	<node lat="60.35823055131881" lon="10.912558326510279" id="-21234">
		<tag k="name" v="Pølsesund" />
		<tag k="place" v="isolated_dwelling" />
		<tag k="ssr:stedsnr" v="491556" />
	</node>
	<node lat="60.35905833281422" lon="10.848825002909937" id="-21235">
		<tag k="name" v="Sandbotnlia" />
		<tag k="natural" v="slope" />
		<tag k="place" v="locality" />
		<tag k="ssr:stedsnr" v="491560" />
	</node>
	<node lat="60.35789999808424" lon="10.749025000386863" id="-21236">
		<tag k="alt_name" v="Sjuputtane, vestre" />
		<tag k="name" v="Sjuputta" />
		<tag k="natural" v="water" />
		<tag k="ssr:stedsnr" v="491564" />
	</node>
	<node lat="60.33077778059498" lon="10.403022227243563" id="-21237">
		<tag k="alt_name" v="Nordhagen" />
		<tag k="name" v="Nordhagan" />
		<tag k="place" v="isolated_dwelling" />
		<tag k="ssr:stedsnr" v="491999" />
	</node>
	<node lat="60.330366667319936" lon="10.430491672407467" id="-21238">
		<tag k="name" v="Grindastua" />
		<tag k="place" v="isolated_dwelling" />
		<tag k="ssr:stedsnr" v="492000" />
	</node>
	<node lat="60.54928888721197" lon="10.438380546906538" id="-21239">
		<tag k="name" v="Holmetjernbekken" />
		<tag k="ssr:stedsnr" v="492093" />
		<tag k="waterway" v="stream" />
	</node>
	<node lat="60.435411111894524" lon="10.607477771317576" id="-21240">
		<tag k="name" v="Skjerva" />
		<tag k="ssr:stedsnr" v="492187" />
		<tag k="waterway" v="river" />
	</node>
	<node lat="60.32731111356644" lon="10.593183332397217" id="-21241">
		<tag k="alt_name" v="Dynna, østre" />
		<tag k="name" v="Østre Dynna" />
		<tag k="place" v="farm" />
		<tag k="ssr:stedsnr" v="491951" />
	</node>
	<node lat="60.351338886996906" lon="10.61386389770743" id="-21242">
		<tag k="name" v="Mælum" />
		<tag k="place" v="farm" />
		<tag k="ssr:stedsnr" v="492030" />
	</node>
	<node lat="60.50385555608532" lon="10.474625004592273" id="-21243">
		<tag k="historic" v="shieling" />
		<tag k="name" v="Torsætra" />
		<tag k="place" v="isolated_dwelling" />
		<tag k="ssr:stedsnr" v="492034" />
	</node>
	<node lat="60.36010277953264" lon="10.66253611345089" id="-21244">
		<tag k="name" v="Kastet" />
		<tag k="place" v="isolated_dwelling" />
		<tag k="ssr:stedsnr" v="492044" />
	</node>
	<node lat="60.53003333584331" lon="10.539155560963732" id="-21245">
		<tag k="name" v="Beitingstjernet" />
		<tag k="natural" v="water" />
		<tag k="ssr:stedsnr" v="492057" />
	</node>
	<node lat="60.40673333405141" lon="10.338866665766155" id="-21246">
		<tag k="name" v="Avtjern" />
		<tag k="natural" v="water" />
		<tag k="ssr:stedsnr" v="492250" />
	</node>
	<node lat="60.34124722333292" lon="10.775074991454915" id="-21247">
		<tag k="name" v="Høvervatnet" />
		<tag k="natural" v="water" />
		<tag k="ssr:stedsnr" v="492474" />
	</node>
	<node lat="60.49608611548093" lon="10.37499722422336" id="-21248">
		<tag k="name" v="Sørli" />
		<tag k="place" v="farm" />
		<tag k="ssr:stedsnr" v="492257" />
	</node>
	<node lat="60.49841388461295" lon="10.503125004254128" id="-21249">
		<tag k="alt_name" v="Hauktjern" />
		<tag k="name" v="Hauktjernet" />
		<tag k="natural" v="water" />
		<tag k="ssr:stedsnr" v="492260" />
	</node>
	<node lat="60.39499251228888" lon="10.241177313315037" id="-21250">
		<tag k="name" v="Buvatnet" />
		<tag k="natural" v="water" />
		<tag k="ssr:stedsnr" v="492266" />
		<tag k="water" v="lake" />
	</node>
	<node lat="60.35216388737538" lon="10.77009444891925" id="-21251">
		<tag k="historic" v="shieling" />
		<tag k="name" v="Gullensætra" />
		<tag k="place" v="isolated_dwelling" />
		<tag k="ssr:stedsnr" v="492486" />
	</node>
	<node lat="60.533222219240855" lon="10.165141674499125" id="-21252">
		<tag k="name" v="Grunntjernet" />
		<tag k="natural" v="water" />
		<tag k="ssr:stedsnr" v="492498" />
	</node>
	<node lat="60.32635555410113" lon="10.561769446476264" id="-21253">
		<tag k="alt_name" v="Røsåsen" />
		<tag k="name" v="Rødsåsen" />
		<tag k="place" v="farm" />
		<tag k="ssr:stedsnr" v="492899" />
	</node>
	<node lat="60.36682500219651" lon="10.528605551560595" id="-21254">
		<tag k="alt_name" v="Granvollen" />
		<tag k="name" v="Granavollen" />
		<tag k="place" v="hamlet" />
		<tag k="ssr:stedsnr" v="450216" />
	</node>
	<node lat="60.4053277745881" lon="10.529641668878034" id="-21255">
		<tag k="name" v="Kakuhaugen" />
		<tag k="natural" v="hill" />
		<tag k="place" v="locality" />
		<tag k="ssr:stedsnr" v="453025" />
	</node>
	<node lat="60.392688892516595" lon="10.577705546675924" id="-21256">
		<tag k="amenity" v="school" />
		<tag k="name" v="Jaren skole" />
		<tag k="ssr:stedsnr" v="453214" />
	</node>
	<node lat="60.401147223100764" lon="10.431249993843677" id="-21257">
		<tag k="name" v="Mikkelstua" />
		<tag k="place" v="farm" />
		<tag k="ssr:stedsnr" v="455205" />
	</node>
	<node lat="60.44990555726986" lon="10.459666659132733" id="-21258">
		<tag k="name" v="Skolemestermyra" />
		<tag k="natural" v="wetland" />
		<tag k="ssr:stedsnr" v="456010" />
	</node>
	<node lat="60.44237222145863" lon="10.458383342000529" id="-21259">
		<tag k="name" v="Holte" />
		<tag k="place" v="farm" />
		<tag k="ssr:stedsnr" v="456015" />
	</node>
	<node lat="60.44509999582469" lon="10.445408329387579" id="-21260">
		<tag k="name" v="Klebersteinsenga" />
		<tag k="place" v="locality" />
		<tag k="ssr:stedsnr" v="456017" />
	</node>
	<node lat="60.482761107757504" lon="10.477861111990293" id="-21261">
		<tag k="name" v="Slettmoen" />
		<tag k="place" v="farm" />
		<tag k="ssr:stedsnr" v="456320" />
	</node>
	<node lat="60.334661110900925" lon="10.531905549417178" id="-21262">
		<tag k="name" v="Nedre Vien" />
		<tag k="place" v="farm" />
		<tag k="ssr:stedsnr" v="456476" />
	</node>
	<node lat="60.50954166486864" lon="10.481608331750232" id="-21263">
		<tag k="name" v="Knutsbråtån" />
		<tag k="natural" v="slope" />
		<tag k="place" v="locality" />
		<tag k="ssr:stedsnr" v="456606" />
	</node>
	<node lat="60.43621388638112" lon="10.486908327459572" id="-21264">
		<tag k="name" v="Rossumhågån" />
		<tag k="place" v="farm" />
		<tag k="ssr:stedsnr" v="456760" />
	</node>
	<node lat="60.44259444706296" lon="10.52511666553735" id="-21265">
		<tag k="name" v="Beinstibekken" />
		<tag k="ssr:stedsnr" v="456773" />
		<tag k="waterway" v="stream" />
	</node>
	<node lat="60.52049444553515" lon="10.540941668525356" id="-21266">
		<tag k="name" v="Skarpefløyta" />
		<tag k="natural" v="wetland" />
		<tag k="ssr:stedsnr" v="457123" />
	</node>
	<node lat="60.513074997429534" lon="10.556747228190115" id="-21267">
		<tag k="name" v="Budeiholen" />
		<tag k="natural" v="valley" />
		<tag k="place" v="locality" />
		<tag k="ssr:stedsnr" v="457136" />
	</node>
	<node lat="60.50493056000207" lon="10.575824994864643" id="-21268">
		<tag k="name" v="Enputtmyra" />
		<tag k="natural" v="wetland" />
		<tag k="ssr:stedsnr" v="457143" />
	</node>
	<node lat="60.48961110834666" lon="10.683580552041521" id="-21269">
		<tag k="name" v="Lomtjernslia" />
		<tag k="natural" v="slope" />
		<tag k="place" v="locality" />
		<tag k="ssr:stedsnr" v="457468" />
	</node>
	<node lat="60.460713893319046" lon="10.60746389171207" id="-21270">
		<tag k="name" v="Hengedymyrene" />
		<tag k="natural" v="wetland" />
		<tag k="ssr:stedsnr" v="457512" />
	</node>
	<node lat="60.510947221165615" lon="10.690708326795159" id="-21271">
		<tag k="name" v="Rundmyra" />
		<tag k="natural" v="wetland" />
		<tag k="ssr:stedsnr" v="457517" />
	</node>
	<node lat="60.4742916632356" lon="10.662436113549546" id="-21272">
		<tag k="name" v="Lokkebakka" />
		<tag k="natural" v="slope" />
		<tag k="place" v="locality" />
		<tag k="ssr:stedsnr" v="457528" />
	</node>
	<node lat="60.5389944419543" lon="10.506713892975664" id="-21273">
		<tag k="name" v="Toppåsbekken" />
		<tag k="ssr:stedsnr" v="457703" />
		<tag k="waterway" v="stream" />
	</node>
	<node lat="60.37536666368437" lon="10.625305548079004" id="-21274">
		<tag k="name" v="Lundehøgda" />
		<tag k="place" v="isolated_dwelling" />
		<tag k="ssr:stedsnr" v="673118" />
	</node>
	<node lat="60.37678333129322" lon="10.654147222499194" id="-21275">
		<tag k="historic" v="shieling" />
		<tag k="name" v="Tokerudsætra" />
		<tag k="place" v="isolated_dwelling" />
		<tag k="ssr:stedsnr" v="673119" />
	</node>
	<node lat="60.33975832991862" lon="10.399436104119182" id="-21276">
		<tag k="name" v="Kjerkevik" />
		<tag k="place" v="farm" />
		<tag k="ssr:stedsnr" v="673037" />
	</node>
	<node lat="60.40575833615858" lon="10.435272228276974" id="-21277">
		<tag k="name" v="Bentestua" />
		<tag k="place" v="farm" />
		<tag k="ssr:stedsnr" v="673200" />
	</node>
	<node lat="60.32460277345741" lon="10.802811113629843" id="-21278">
		<tag k="name" v="Putthaugen" />
		<tag k="natural" v="hill" />
		<tag k="place" v="locality" />
		<tag k="ssr:stedsnr" v="673286" />
	</node>
	<node lat="60.33867499720286" lon="10.866997218605135" id="-21279">
		<tag k="name" v="Sæterputten" />
		<tag k="natural" v="water" />
		<tag k="ssr:stedsnr" v="673303" />
	</node>
	<node lat="60.38611944497045" lon="10.301769450893056" id="-21280">
		<tag k="name" v="Storlægertjern" />
		<tag k="natural" v="water" />
		<tag k="ssr:stedsnr" v="673524" />
	</node>
	<node lat="60.46406944723347" lon="10.185086112910106" id="-21281">
		<tag k="name" v="Venemyrhytta" />
		<tag k="place" v="isolated_dwelling" />
		<tag k="ssr:stedsnr" v="673555" />
	</node>
	<node lat="60.39381389130675" lon="10.758383341306006" id="-21282">
		<tag k="name" v="Kløvputten" />
		<tag k="natural" v="water" />
		<tag k="ssr:stedsnr" v="673592" />
	</node>
	<node lat="60.38975555554415" lon="10.754752768756346" id="-21283">
		<tag k="name" v="Bestemorsmyra" />
		<tag k="natural" v="wetland" />
		<tag k="ssr:stedsnr" v="673598" />
	</node>
	<node lat="60.478105554918024" lon="10.243624992841099" id="-21284">
		<tag k="name" v="Hakatjern" />
		<tag k="natural" v="water" />
		<tag k="ssr:stedsnr" v="673693" />
	</node>
	<node lat="60.479366664530325" lon="10.19033333154711" id="-21285">
		<tag k="name" v="Grastjern" />
		<tag k="natural" v="water" />
		<tag k="ssr:stedsnr" v="673698" />
	</node>
	<node lat="60.48970000347856" lon="10.331808324725776" id="-21286">
		<tag k="name" v="Prestrud" />
		<tag k="place" v="isolated_dwelling" />
		<tag k="ssr:stedsnr" v="673701" />
	</node>
	<node lat="60.326675003369694" lon="10.559261110744872" id="-21287">
		<tag k="alt_name" v="Enelia" />
		<tag k="name" v="Endlia" />
		<tag k="place" v="farm" />
		<tag k="ssr:stedsnr" v="673949" />
	</node>
	<node lat="60.34841666855646" lon="10.439455564097823" id="-21288">
		<tag k="name" v="Åserud" />
		<tag k="place" v="farm" />
		<tag k="ssr:stedsnr" v="674040" />
	</node>
	<node lat="60.35093200164731" lon="10.500276225302443" id="-21289">
		<tag k="fixme" v="consider place=hamlet" />
		<tag k="name" v="Gamme" />
		<tag k="place" v="farm" />
		<tag k="ssr:stedsnr" v="674042" />
	</node>
	<node lat="60.35667778137225" lon="10.67335832636433" id="-21290">
		<tag k="fixme" v="consider natural=peak for the most distinct mountains in the district" />
		<tag k="name" v="Brandhaugen" />
		<tag k="natural" v="hill" />
		<tag k="place" v="locality" />
		<tag k="ssr:stedsnr" v="674055" />
	</node>
	<node lat="60.35762499826849" lon="10.700233327753399" id="-21291">
		<tag k="fixme" v="consider natural=peak for the most distinct mountains in the district" />
		<tag k="name" v="Rundelshaugen" />
		<tag k="natural" v="hill" />
		<tag k="place" v="locality" />
		<tag k="ssr:stedsnr" v="674058" />
	</node>
	<node lat="60.51037499640028" lon="10.649080553976832" id="-21292">
		<tag k="name" v="Helgedalselva" />
		<tag k="ssr:stedsnr" v="674077" />
		<tag k="waterway" v="stream" />
	</node>
	<node lat="60.52994166463942" lon="10.45391944593937" id="-21293">
		<tag k="name" v="Bjørkmannstjernet" />
		<tag k="natural" v="water" />
		<tag k="ssr:stedsnr" v="674082" />
	</node>
	<node lat="60.5327830322919" lon="10.603952488150304" id="-21294">
		<tag k="name" v="Lysingen" />
		<tag k="place" v="locality" />
		<tag k="ssr:stedsnr" v="674088" />
	</node>
	<node lat="60.538741663470226" lon="10.378002772817112" id="-21295">
		<tag k="alt_name" v="Kalvskinnsætra" />
		<tag k="historic" v="shieling" />
		<tag k="name" v="Hornsætra" />
		<tag k="place" v="isolated_dwelling" />
		<tag k="ssr:stedsnr" v="674098" />
	</node>
	<node lat="60.43141944441914" lon="10.468569447350925" id="-21296">
		<tag k="fixme" v="consider place=hamlet" />
		<tag k="name" v="Røykenvik" />
		<tag k="place" v="village" />
		<tag k="ssr:stedsnr" v="674148" />
	</node>
	<node lat="60.43754722297228" lon="10.49485276969685" id="-21297">
		<tag k="name" v="Egge" />
		<tag k="place" v="farm" />
		<tag k="ssr:stedsnr" v="674223" />
	</node>
	<node lat="60.4463277778014" lon="10.35825277419744" id="-21298">
		<tag k="name" v="Vestern" />
		<tag k="place" v="farm" />
		<tag k="ssr:stedsnr" v="674227" />
	</node>
	<node lat="60.3266111092362" lon="10.566849996543771" id="-21299">
		<tag k="name" v="Søndre Bjørge" />
		<tag k="place" v="farm" />
		<tag k="ssr:stedsnr" v="464065" />
	</node>
	<node lat="60.41259999975045" lon="10.313794448803025" id="-21300">
		<tag k="alt_name" v="Flatjern" />
		<tag k="name" v="Flåtjern" />
		<tag k="natural" v="water" />
		<tag k="ssr:stedsnr" v="674241" />
	</node>
	<node lat="60.524570439319184" lon="10.15489883906606" id="-21301">
		<tag k="fixme" v="consider natural=peak for the most distinct mountains in the district" />
		<tag k="name" v="Vardhugukollen" />
		<tag k="natural" v="hill" />
		<tag k="place" v="locality" />
		<tag k="ssr:stedsnr" v="674468" />
	</node>
	<node lat="60.50557499738548" lon="10.22372500065563" id="-21302">
		<tag k="name" v="Fiskebuholmen" />
		<tag k="place" v="islet" />
		<tag k="ssr:stedsnr" v="674426" />
	</node>
	<node lat="60.52102778036395" lon="10.275366674561257" id="-21303">
		<tag k="name" v="Kvernhaugen" />
		<tag k="place" v="farm" />
		<tag k="ssr:stedsnr" v="674472" />
	</node>
	<node lat="60.52600555360792" lon="10.221375005530536" id="-21304">
		<tag k="name" v="Sevaldsholet" />
		<tag k="place" v="farm" />
		<tag k="ssr:stedsnr" v="674476" />
	</node>
	<node lat="60.31671666918051" lon="10.424036108419536" id="-21305">
		<tag k="alt_name" v="Heier" />
		<tag k="name" v="Øvre Heier" />
		<tag k="place" v="farm" />
		<tag k="ssr:stedsnr" v="674912" />
	</node>
	<node lat="60.50018611401069" lon="10.476000001101369" id="-21306">
		<tag k="alt_name" v="Løvbrøtte" />
		<tag k="name" v="Lauvbrøtet" />
		<tag k="place" v="farm" />
		<tag k="ssr:stedsnr" v="674881" />
	</node>
	<node lat="60.32206944829771" lon="10.602777770259179" id="-21307">
		<tag k="alt_name" v="Sløtte" />
		<tag k="name" v="Slottet" />
		<tag k="place" v="farm" />
		<tag k="ssr:stedsnr" v="674888" />
	</node>
	<node lat="60.33028055905533" lon="10.612013890659696" id="-21308">
		<tag k="name" v="Sletta" />
		<tag k="place" v="farm" />
		<tag k="ssr:stedsnr" v="674935" />
	</node>
	<node lat="60.32926388876554" lon="10.59003611266714" id="-21309">
		<tag k="alt_name" v="Dynna, vestre" />
		<tag k="name" v="Vestre Dynna" />
		<tag k="place" v="farm" />
		<tag k="ssr:stedsnr" v="674937" />
	</node>
	<node lat="60.41739444297979" lon="10.507644439760622" id="-21310">
		<tag k="bridge" v="yes" />
		<tag k="layer" v="1" />
		<tag k="name" v="Grinaker" />
		<tag k="ssr:stedsnr" v="471076" />
	</node>
	<node lat="60.533413884708416" lon="10.168344449344342" id="-21311">
		<tag k="bridge" v="yes" />
		<tag k="layer" v="1" />
		<tag k="name" v="Dragbrua" />
		<tag k="ssr:stedsnr" v="471080" />
	</node>
	<node lat="60.417811110681235" lon="10.335466662702563" id="-21312">
		<tag k="name" v="Kilmyra" />
		<tag k="natural" v="wetland" />
		<tag k="ssr:stedsnr" v="475066" />
	</node>
	<node lat="60.365005553757236" lon="10.893850000325704" id="-21313">
		<tag k="name" v="Grindåkerbakken" />
		<tag k="place" v="locality" />
		<tag k="ssr:stedsnr" v="475219" />
	</node>
	<node lat="60.419803901072456" lon="10.51323421221911" id="-21314">
		<tag k="amenity" v="school" />
		<tag k="name" v="Brandbu ungdomsskole" />
		<tag k="ssr:stedsnr" v="272170" />
	</node>
	<node lat="60.523402777036054" lon="10.184886111580866" id="-21315">
		<tag k="name" v="Dragkulpen" />
		<tag k="natural" v="bay" />
		<tag k="ssr:stedsnr" v="475893" />
	</node>
	<node lat="60.52936389084001" lon="10.150763882152495" id="-21316">
		<tag k="name" v="Beritlykjedalen" />
		<tag k="natural" v="valley" />
		<tag k="place" v="locality" />
		<tag k="ssr:stedsnr" v="475894" />
	</node>
	<node lat="60.42851111263614" lon="10.286841660506461" id="-21317">
		<tag k="name" v="Søndre Hovseterås" />
		<tag k="natural" v="hill" />
		<tag k="place" v="locality" />
		<tag k="ssr:stedsnr" v="475914" />
	</node>
	<node lat="60.37244444592285" lon="10.544700006107544" id="-21318">
		<tag k="name" v="Engestad" />
		<tag k="place" v="farm" />
		<tag k="ssr:stedsnr" v="476230" />
	</node>
	<node lat="60.39157499853627" lon="10.291272218430798" id="-21320">
		<tag k="name" v="Åbbortjernputten" />
		<tag k="natural" v="water" />
		<tag k="ssr:stedsnr" v="476411" />
	</node>
	<node lat="60.49070833598884" lon="10.201272219879254" id="-21321">
		<tag k="name" v="Kutjern" />
		<tag k="natural" v="water" />
		<tag k="ssr:stedsnr" v="476662" />
	</node>
	<node lat="60.425524996776126" lon="10.711288884354968" id="-21322">
		<tag k="name" v="Slettanghaugen" />
		<tag k="natural" v="hill" />
		<tag k="place" v="locality" />
		<tag k="ssr:stedsnr" v="476507" />
	</node>
	<node lat="60.41891944835378" lon="10.776380557602133" id="-21323">
		<tag k="name" v="Tommelsjøhytta" />
		<tag k="place" v="isolated_dwelling" />
		<tag k="ssr:stedsnr" v="476872" />
	</node>
	<node lat="60.36198610775138" lon="10.517702780979741" id="-21325">
		<tag k="name" v="Nordlund" />
		<tag k="place" v="farm" />
		<tag k="ssr:stedsnr" v="491005" />
	</node>
	<node lat="60.36233611543468" lon="10.41480000445058" id="-21326">
		<tag k="name" v="Furunes" />
		<tag k="place" v="farm" />
		<tag k="ssr:stedsnr" v="491018" />
	</node>
	<node lat="60.36649444690139" lon="10.528161109635334" id="-21327">
		<tag k="name" v="Granavolden Gjæstgiveri" />
		<tag k="ssr:stedsnr" v="491028" />
		<tag k="tourism" v="hotel" />
	</node>
	<node lat="60.36466111251836" lon="10.511597216585594" id="-21328">
		<tag k="alt_name" v="Ekeren" />
		<tag k="name" v="Ekern" />
		<tag k="place" v="farm" />
		<tag k="ssr:stedsnr" v="491031" />
	</node>
	<node lat="60.34516111193082" lon="10.402330547550324" id="-21329">
		<tag k="name" v="Vang" />
		<tag k="place" v="farm" />
		<tag k="ssr:stedsnr" v="491036" />
	</node>
	<node lat="60.37535000022972" lon="10.704675003452895" id="-21330">
		<tag k="name" v="Steinsjøen" />
		<tag k="natural" v="water" />
		<tag k="ssr:stedsnr" v="491102" />
	</node>
	<node lat="60.422138887618146" lon="10.50427777831208" id="-21331">
		<tag k="name" v="Brandbu" />
		<tag k="place" v="village" />
		<tag k="ssr:stedsnr" v="491131" />
	</node>
	<node lat="60.42520099163312" lon="10.51511411410009" id="-21332">
		<tag k="alt_name" v="Bjørke;Nordre Bjerke" />
		<tag k="fixme" v="consider place=hamlet" />
		<tag k="name" v="Nordre Bjørke" />
		<tag k="place" v="farm" />
		<tag k="ssr:stedsnr" v="491133" />
	</node>
	<node lat="60.402930556469634" lon="10.35479999511994" id="-21333">
		<tag k="name" v="Småtjerna" />
		<tag k="natural" v="water" />
		<tag k="ssr:stedsnr" v="491188" />
		<tag k="water" v="lake" />
	</node>
	<node lat="60.471121622284514" lon="10.388241920372767" id="-21334">
		<tag k="fixme" v="consider place=hamlet" />
		<tag k="name" v="Berven" />
		<tag k="place" v="farm" />
		<tag k="ssr:stedsnr" v="491193" />
	</node>
	<node lat="60.46341111194729" lon="10.35606389334127" id="-21335">
		<tag k="alt_name" v="Totjerna" />
		<tag k="name" v="Toputtane" />
		<tag k="natural" v="water" />
		<tag k="ssr:stedsnr" v="491194" />
		<tag k="water" v="lake" />
	</node>
	<node lat="60.468655559449125" lon="10.517924997536635" id="-21336">
		<tag k="name" v="Badstubakken" />
		<tag k="place" v="farm" />
		<tag k="ssr:stedsnr" v="491201" />
	</node>
	<node lat="60.49027222249215" lon="10.612927778547233" id="-21337">
		<tag k="historic" v="shieling" />
		<tag k="name" v="Elkensætra" />
		<tag k="place" v="isolated_dwelling" />
		<tag k="ssr:stedsnr" v="491325" />
	</node>
	<node lat="60.48650589588993" lon="10.429939629738403" id="-21338">
		<tag k="fixme" v="consider place=hamlet" />
		<tag k="name" v="Eid" />
		<tag k="place" v="farm" />
		<tag k="ssr:stedsnr" v="491328" />
	</node>
	<node lat="60.38275555465629" lon="10.476124995150869" id="-21339">
		<tag k="alt_name" v="Østen" />
		<tag k="name" v="Vestre Østen" />
		<tag k="place" v="farm" />
		<tag k="ssr:stedsnr" v="491076" />
	</node>
	<node lat="60.38943888853923" lon="10.4253888977883" id="-21340">
		<tag k="name" v="Hovshagan" />
		<tag k="place" v="farm" />
		<tag k="ssr:stedsnr" v="491083" />
	</node>
	<node lat="60.38898333143054" lon="10.704227779262798" id="-21341">
		<tag k="name" v="Bergeputten" />
		<tag k="natural" v="water" />
		<tag k="ssr:stedsnr" v="491084" />
	</node>
	<node lat="60.389350002811746" lon="10.585808339583712" id="-21342">
		<tag k="name" v="Kvernstad" />
		<tag k="place" v="farm" />
		<tag k="ssr:stedsnr" v="491087" />
	</node>
	<node lat="60.3929027818512" lon="10.52610277650216" id="-21343">
		<tag k="alt_name" v="Røysum, s;Røysum" />
		<tag k="name" v="Søndre Røysum" />
		<tag k="place" v="farm" />
		<tag k="ssr:stedsnr" v="491093" />
	</node>
	<node lat="60.47878888897222" lon="10.434591658707888" id="-21344">
		<tag k="name" v="Sandøya" />
		<tag k="place" v="islet" />
		<tag k="ssr:stedsnr" v="491204" />
	</node>
	<node lat="60.47292500434865" lon="10.372277781384533" id="-21345">
		<tag k="name" v="Bervenbekken" />
		<tag k="ssr:stedsnr" v="491208" />
		<tag k="waterway" v="stream" />
	</node>
	<node lat="60.4806194476039" lon="10.388838887845411" id="-21346">
		<tag k="name" v="Ulsberget" />
		<tag k="place" v="farm" />
		<tag k="ssr:stedsnr" v="491210" />
	</node>
	<node lat="60.447669445105475" lon="10.653927770136365" id="-21347">
		<tag k="fixme" v="consider natural=peak for the most distinct mountains in the district" />
		<tag k="name" v="Skarvåsen" />
		<tag k="natural" v="hill" />
		<tag k="place" v="locality" />
		<tag k="ssr:stedsnr" v="491227" />
	</node>
	<node lat="60.398588890895425" lon="10.192550001979253" id="-21348">
		<tag k="fixme" v="consider natural=peak for the most distinct mountains in the district" />
		<tag k="name" v="Tungeåsen" />
		<tag k="natural" v="hill" />
		<tag k="place" v="locality" />
		<tag k="ssr:stedsnr" v="491283" />
	</node>
	<node lat="60.40923055320691" lon="10.293977770858524" id="-21349">
		<tag k="name" v="Ludrusputtane" />
		<tag k="natural" v="water" />
		<tag k="ssr:stedsnr" v="491291" />
	</node>
	<node lat="60.33814999910937" lon="10.854863882761165" id="-21350">
		<tag k="name" v="Sæterhaugen" />
		<tag k="natural" v="hill" />
		<tag k="place" v="locality" />
		<tag k="ssr:stedsnr" v="491294" />
	</node>
	<node lat="60.460569447419765" lon="10.27789166115808" id="-21351">
		<tag k="alt_name" v="Lortroa" />
		<tag k="name" v="Lortræva" />
		<tag k="natural" v="water" />
		<tag k="ssr:stedsnr" v="491571" />
	</node>
	<node lat="60.47403611438217" lon="10.183736105493578" id="-21352">
		<tag k="name" v="Bukken" />
		<tag k="natural" v="water" />
		<tag k="ssr:stedsnr" v="491578" />
	</node>
	<node lat="60.38467777478503" lon="10.88020278005211" id="-21353">
		<tag k="name" v="Nordsæterstua" />
		<tag k="place" v="isolated_dwelling" />
		<tag k="ssr:stedsnr" v="491589" />
	</node>
	<node lat="60.38698333160318" lon="10.783708328390341" id="-21354">
		<tag k="name" v="Skreihaugen" />
		<tag k="natural" v="hill" />
		<tag k="place" v="locality" />
		<tag k="ssr:stedsnr" v="491598" />
	</node>
	<node lat="60.49000278044381" lon="10.31508611029413" id="-21355">
		<tag k="name" v="Langtjern" />
		<tag k="natural" v="water" />
		<tag k="ssr:stedsnr" v="491712" />
	</node>
	<node lat="60.49672499620975" lon="10.321366668377694" id="-21356">
		<tag k="fixme" v="consider natural=peak for the most distinct mountains in the district" />
		<tag k="name" v="Sæterhaugen" />
		<tag k="natural" v="hill" />
		<tag k="place" v="locality" />
		<tag k="ssr:stedsnr" v="491717" />
	</node>
	<node lat="60.498479592592815" lon="10.252178345762312" id="-21357">
		<tag k="fixme" v="consider place=hamlet" />
		<tag k="name" v="Sollia" />
		<tag k="place" v="farm" />
		<tag k="ssr:stedsnr" v="491718" />
	</node>
	<node lat="60.4975333370593" lon="10.24814444142938" id="-21358">
		<tag k="name" v="Fossum" />
		<tag k="place" v="farm" />
		<tag k="ssr:stedsnr" v="491719" />
	</node>
	<node lat="60.49625277660511" lon="10.236116675557602" id="-21359">
		<tag k="name" v="Flattum" />
		<tag k="place" v="farm" />
		<tag k="ssr:stedsnr" v="491720" />
	</node>
	<node lat="60.3929055512812" lon="10.827447226922143" id="-21360">
		<tag k="alt_name" v="Finnlangen, nedre;Langen" />
		<tag k="name" v="Nedre Finnlangen" />
		<tag k="place" v="farm" />
		<tag k="ssr:stedsnr" v="491603" />
	</node>
	<node lat="60.41320277494965" lon="10.857261114187523" id="-21361">
		<tag k="name" v="Sjuputtmyra" />
		<tag k="natural" v="wetland" />
		<tag k="ssr:stedsnr" v="491624" />
	</node>
	<node lat="60.473758332435025" lon="10.215686105310736" id="-21362">
		<tag k="fixme" v="consider natural=peak for the most distinct mountains in the district" />
		<tag k="name" v="Svarttjernshøgda" />
		<tag k="natural" v="hill" />
		<tag k="place" v="locality" />
		<tag k="ssr:stedsnr" v="491693" />
	</node>
	<node lat="60.34308760102758" lon="10.431018598243293" id="-21363">
		<tag k="fixme" v="consider place=hamlet" />
		<tag k="name" v="Dal" />
		<tag k="place" v="farm" />
		<tag k="ssr:stedsnr" v="491972" />
	</node>
	<node lat="60.33681366935523" lon="10.460679772235888" id="-21364">
		<tag k="fixme" v="consider place=hamlet" />
		<tag k="name" v="Gautveit" />
		<tag k="place" v="farm" />
		<tag k="ssr:stedsnr" v="491976" />
	</node>
	<node lat="60.336574999003695" lon="10.491036106453356" id="-21365">
		<tag k="fixme" v="consider natural=peak for the most distinct mountains in the district" />
		<tag k="name" v="Kjekshushaugen" />
		<tag k="natural" v="hill" />
		<tag k="place" v="locality" />
		<tag k="ssr:stedsnr" v="491980" />
	</node>
	<node lat="60.431525004138265" lon="10.6457666733379" id="-21366">
		<tag k="fixme" v="consider natural=peak for the most distinct mountains in the district" />
		<tag k="name" v="Knørra" />
		<tag k="natural" v="hill" />
		<tag k="place" v="locality" />
		<tag k="ssr:stedsnr" v="492111" />
	</node>
	<node lat="60.425966784320345" lon="10.38643809236608" id="-21367">
		<tag k="alt_name" v="Toverud, midtre;Toverud" />
		<tag k="name" v="Midtre Toverud" />
		<tag k="place" v="farm" />
		<tag k="ssr:stedsnr" v="492113" />
	</node>
	<node lat="60.43080360215305" lon="10.687294460738528" id="-21368">
		<tag k="fixme" v="consider natural=peak for the most distinct mountains in the district" />
		<tag k="name" v="Lushaugen" />
		<tag k="natural" v="hill" />
		<tag k="place" v="locality" />
		<tag k="ssr:stedsnr" v="492114" />
	</node>
	<node lat="60.54106944248064" lon="10.411683330946339" id="-21369">
		<tag k="name" v="Dammen" />
		<tag k="place" v="isolated_dwelling" />
		<tag k="ssr:stedsnr" v="492076" />
	</node>
	<node lat="60.50748333278325" lon="10.275336102578962" id="-21370">
		<tag k="name" v="Husmyra" />
		<tag k="natural" v="wetland" />
		<tag k="ssr:stedsnr" v="492426" />
	</node>
	<node lat="60.428224995958935" lon="10.501111103034837" id="-21371">
		<tag k="name" v="Neristua Dælen" />
		<tag k="place" v="farm" />
		<tag k="ssr:stedsnr" v="272199" />
	</node>
	<node lat="60.43350833464703" lon="10.495372229121728" id="-21372">
		<tag k="alt_name" v="Nest-Egge" />
		<tag k="fixme" v="consider place=hamlet" />
		<tag k="name" v="Nedst-Egge" />
		<tag k="place" v="farm" />
		<tag k="ssr:stedsnr" v="272201" />
	</node>
	<node lat="60.39607499664169" lon="10.556794436249374" id="-21373">
		<tag k="name" v="Tømte" />
		<tag k="place" v="farm" />
		<tag k="ssr:stedsnr" v="514283" />
	</node>
	<node lat="60.36721666897074" lon="10.603824993347251" id="-21374">
		<tag k="name" v="Lynne" />
		<tag k="place" v="farm" />
		<tag k="ssr:stedsnr" v="514511" />
	</node>
	<node lat="60.41233888635501" lon="10.552905555114647" id="-21375">
		<tag k="name" v="Steinerud" />
		<tag k="place" v="quarter" />
		<tag k="ssr:stedsnr" v="514812" />
	</node>
	<node lat="60.4567027809496" lon="10.471041664240383" id="-21376">
		<tag k="name" v="Hella" />
		<tag k="natural" v="hill" />
		<tag k="place" v="locality" />
		<tag k="ssr:stedsnr" v="516005" />
	</node>
	<node lat="60.353155559106646" lon="10.411861102228595" id="-21377">
		<tag k="alt_name" v="Gjøvika" />
		<tag k="name" v="Jøvika" />
		<tag k="natural" v="bay" />
		<tag k="ssr:stedsnr" v="516162" />
	</node>
	<node lat="60.35981388763529" lon="10.435044451943678" id="-21378">
		<tag k="name" v="Hvindenhaugen" />
		<tag k="natural" v="hill" />
		<tag k="place" v="locality" />
		<tag k="ssr:stedsnr" v="516267" />
	</node>
	<node lat="60.366952776592086" lon="10.449550001560567" id="-21379">
		<tag k="name" v="Blili" />
		<tag k="place" v="farm" />
		<tag k="ssr:stedsnr" v="516270" />
	</node>
	<node lat="60.35118333623236" lon="10.432783336548377" id="-21380">
		<tag k="name" v="Nyhus" />
		<tag k="place" v="farm" />
		<tag k="ssr:stedsnr" v="516278" />
	</node>
	<node lat="60.505902780718614" lon="10.41422222204478" id="-21381">
		<tag k="name" v="Trøsvika" />
		<tag k="natural" v="bay" />
		<tag k="ssr:stedsnr" v="516422" />
	</node>
	<node lat="60.506105558863005" lon="10.47868610739618" id="-21382">
		<tag k="name" v="Flisbanen" />
		<tag k="place" v="locality" />
		<tag k="ssr:stedsnr" v="516604" />
	</node>
	<node lat="60.500824997037654" lon="10.48187499231106" id="-21383">
		<tag k="name" v="Kalvebakken" />
		<tag k="natural" v="slope" />
		<tag k="place" v="locality" />
		<tag k="ssr:stedsnr" v="516606" />
	</node>
	<node lat="60.53834444238332" lon="10.41763055308098" id="-21384">
		<tag k="historic" v="shieling" />
		<tag k="name" v="Gjerviksætra" />
		<tag k="place" v="isolated_dwelling" />
		<tag k="ssr:stedsnr" v="516621" />
	</node>
	<node lat="60.492791667346374" lon="10.550319437950906" id="-21385">
		<tag k="name" v="Østefallhaugen" />
		<tag k="natural" v="hill" />
		<tag k="place" v="locality" />
		<tag k="ssr:stedsnr" v="517325" />
	</node>
	<node lat="60.452105555985646" lon="10.534672225040717" id="-21386">
		<tag k="name" v="Langmyrhaugen" />
		<tag k="natural" v="hill" />
		<tag k="place" v="locality" />
		<tag k="ssr:stedsnr" v="517781" />
	</node>
	<node lat="60.45467222014786" lon="10.536111114340724" id="-21387">
		<tag k="name" v="Langmyra" />
		<tag k="natural" v="wetland" />
		<tag k="ssr:stedsnr" v="517782" />
	</node>
	<node lat="60.52576944285606" lon="10.584108341368067" id="-21388">
		<tag k="name" v="Gåshaugen" />
		<tag k="natural" v="hill" />
		<tag k="place" v="locality" />
		<tag k="ssr:stedsnr" v="518086" />
	</node>
	<node lat="60.44501113488306" lon="10.247195935555146" id="-21389">
		<tag k="name" v="Askimholmen" />
		<tag k="place" v="island" />
		<tag k="ssr:stedsnr" v="535303" />
	</node>
	<node lat="60.44111111429781" lon="10.246477776428595" id="-21390">
		<tag k="name" v="Vesterheimen" />
		<tag k="place" v="isolated_dwelling" />
		<tag k="ssr:stedsnr" v="535284" />
	</node>
	<node lat="60.50823055183702" lon="10.168538890131293" id="-21391">
		<tag k="name" v="Eidsbråtåbråtån" />
		<tag k="place" v="locality" />
		<tag k="ssr:stedsnr" v="536079" />
	</node>
	<node lat="60.48809166287108" lon="10.333975005766126" id="-21392">
		<tag k="name" v="Flågåmyrbekken" />
		<tag k="ssr:stedsnr" v="536218" />
		<tag k="waterway" v="stream" />
	</node>
	<node lat="60.470283329312686" lon="10.281391666786266" id="-21393">
		<tag k="name" v="Steinholvika" />
		<tag k="natural" v="bay" />
		<tag k="ssr:stedsnr" v="536266" />
	</node>
	<node lat="60.47363889014861" lon="10.275619449281274" id="-21394">
		<tag k="alt_name" v="Karustjern" />
		<tag k="name" v="Karusstjern" />
		<tag k="natural" v="water" />
		<tag k="ssr:stedsnr" v="536268" />
	</node>
	<node lat="60.463516665453696" lon="10.318455546839381" id="-21395">
		<tag k="name" v="Ljosdalsbekken" />
		<tag k="ssr:stedsnr" v="536171" />
		<tag k="waterway" v="stream" />
	</node>
	<node lat="60.440888888301096" lon="10.281172217315252" id="-21396">
		<tag k="name" v="Østre Kongstjern" />
		<tag k="natural" v="water" />
		<tag k="ssr:stedsnr" v="536417" />
	</node>
	<node lat="60.51716110879385" lon="10.301075001195345" id="-21397">
		<tag k="man_made" v="quay" />
		<tag k="name" v="Ærskella" />
		<tag k="place" v="locality" />
		<tag k="ssr:stedsnr" v="536471" />
	</node>
	<node lat="60.33187777709744" lon="10.70657778357821" id="-21398">
		<tag k="name" v="Trangesundet" />
		<tag k="natural" v="strait" />
		<tag k="ssr:stedsnr" v="536378" />
	</node>
	<node lat="60.44434444330571" lon="10.289808337002778" id="-21399">
		<tag k="name" v="Angviksputta" />
		<tag k="natural" v="water" />
		<tag k="ssr:stedsnr" v="536573" />
		<tag k="water" v="lake" />
	</node>
	<node lat="60.36478611439425" lon="10.56313332598949" id="-21400">
		<tag k="amenity" v="community_centre" />
		<tag k="name" v="Kløverhagen" />
		<tag k="ssr:stedsnr" v="537018" />
	</node>
	<node lat="60.370522207829985" lon="10.577480437530042" id="-21401">
		<tag k="name" v="Nordenga" />
		<tag k="place" v="farm" />
		<tag k="ssr:stedsnr" v="537269" />
	</node>
	<node lat="60.354422226150966" lon="10.693433340042104" id="-21402">
		<tag k="name" v="Geitberget" />
		<tag k="natural" v="hill" />
		<tag k="place" v="locality" />
		<tag k="ssr:stedsnr" v="537282" />
	</node>
	<node lat="60.50225278097978" lon="10.245036117805931" id="-21403">
		<tag k="name" v="Sæterfossen" />
		<tag k="natural" v="waterfall" />
		<tag k="ssr:stedsnr" v="537289" />
	</node>
	<node lat="60.37707499560902" lon="10.309608334552907" id="-21404">
		<tag k="name" v="Krokputten" />
		<tag k="natural" v="water" />
		<tag k="ssr:stedsnr" v="537407" />
	</node>
	<node lat="60.44477500273451" lon="10.335780562777622" id="-21405">
		<tag k="name" v="Myraputten" />
		<tag k="natural" v="water" />
		<tag k="ssr:stedsnr" v="537510" />
		<tag k="water" v="pond" />
	</node>
	<node lat="60.43275277630033" lon="10.728099998679367" id="-21406">
		<tag k="name" v="Steinholen" />
		<tag k="natural" v="hill" />
		<tag k="place" v="locality" />
		<tag k="ssr:stedsnr" v="537868" />
	</node>
	<node lat="60.42252777815294" lon="10.82365555644652" id="-21407">
		<tag k="name" v="Lisæterstormyra" />
		<tag k="natural" v="wetland" />
		<tag k="ssr:stedsnr" v="537883" />
	</node>
	<node lat="60.41452499754017" lon="10.804449997599965" id="-21408">
		<tag k="name" v="Huldretjernshytta" />
		<tag k="place" v="isolated_dwelling" />
		<tag k="ssr:stedsnr" v="537884" />
	</node>
	<node lat="60.44611944477123" lon="10.342033338434149" id="-21409">
		<tag k="name" v="Myra" />
		<tag k="place" v="farm" />
		<tag k="ssr:stedsnr" v="551515" />
	</node>
	<node lat="60.46245466745899" lon="10.244691470586723" id="-21410">
		<tag k="fixme" v="consider place=hamlet" />
		<tag k="name" v="Vestland" />
		<tag k="place" v="farm" />
		<tag k="ssr:stedsnr" v="551527" />
	</node>
	<node lat="60.47230833421104" lon="10.296927768909478" id="-21411">
		<tag k="historic" v="shieling" />
		<tag k="name" v="Strandesætra" />
		<tag k="place" v="isolated_dwelling" />
		<tag k="ssr:stedsnr" v="551549" />
	</node>
</osm>
