<?xml version="1.0" encoding="UTF-8"?>
<osm version="0.6" generator="osmapis">
	<node lat="60.39945833775079" lon="10.220163895307534" id="-22789">
		<tag k="name" v="Buvassmyrene" />
		<tag k="natural" v="wetland" />
		<tag k="ssr:stedsnr" v="6312" />
	</node>
	<node lat="60.346391663751284" lon="10.509650006045284" id="-22791">
		<tag k="name" v="Delimarka" />
		<tag k="place" v="locality" />
		<tag k="ssr:stedsnr" v="6061" />
	</node>
	<node lat="60.336988888949406" lon="10.889149992518115" id="-22810">
		<tag k="name" v="Jutulbakka" />
		<tag k="place" v="locality" />
		<tag k="ssr:stedsnr" v="233170" />
	</node>
	<node lat="60.38051389187662" lon="10.886616669623159" id="-22817">
		<tag k="name" v="Sundmyra" />
		<tag k="natural" v="wetland" />
		<tag k="ssr:stedsnr" v="233493" />
	</node>
	<node lat="60.406766662808586" lon="10.810416663302828" id="-22822">
		<tag k="name" v="Huldertjernsbrenna" />
		<tag k="place" v="locality" />
		<tag k="ssr:stedsnr" v="233757" />
	</node>
	<node lat="60.48813888626812" lon="10.20955277273791" id="-22826">
		<tag k="name" v="Mærramyra" />
		<tag k="natural" v="wetland" />
		<tag k="ssr:stedsnr" v="233721" />
	</node>
	<node lat="60.51686111530139" lon="10.480188880058826" id="-22828">
		<tag k="name" v="Nedre Tjyrueldsmyra" />
		<tag k="natural" v="wetland" />
		<tag k="ssr:stedsnr" v="24581" />
	</node>
	<node lat="60.47586944890884" lon="10.614158324879726" id="-22842">
		<tag k="name" v="Ormebergmyra" />
		<tag k="natural" v="wetland" />
		<tag k="ssr:stedsnr" v="32318" />
	</node>
	<node lat="60.35158889227073" lon="10.861094435873156" id="-22846">
		<tag k="name" v="Godmyra" />
		<tag k="natural" v="wetland" />
		<tag k="ssr:stedsnr" v="44210" />
	</node>
	<node lat="60.33495555539548" lon="10.822208324468956" id="-22857">
		<tag k="name" v="Hattemyrfløyta" />
		<tag k="natural" v="wetland" />
		<tag k="ssr:stedsnr" v="52723" />
	</node>
	<node lat="60.3412611105809" lon="10.656125007050285" id="-22875">
		<tag k="name" v="Langmyra" />
		<tag k="natural" v="wetland" />
		<tag k="ssr:stedsnr" v="90413" />
	</node>
	<node lat="60.417811107418146" lon="10.64201111433476" id="-22881">
		<tag k="name" v="Stadstamyra" />
		<tag k="natural" v="wetland" />
		<tag k="ssr:stedsnr" v="90971" />
	</node>
	<node lat="60.501224995750626" lon="10.479286118189716" id="-22891">
		<tag k="name" v="Nysætermyra" />
		<tag k="natural" v="wetland" />
		<tag k="ssr:stedsnr" v="92621" />
	</node>
	<node lat="60.46798055242174" lon="10.560447214934047" id="-22896">
		<tag k="name" v="Nysæterbrenna" />
		<tag k="place" v="locality" />
		<tag k="ssr:stedsnr" v="92720" />
	</node>
	<node lat="60.51818333127321" lon="10.50758055842767" id="-22897">
		<tag k="name" v="Briskemyra" />
		<tag k="natural" v="wetland" />
		<tag k="ssr:stedsnr" v="93106" />
	</node>
	<node lat="60.357424997626985" lon="10.882280553171995" id="-22926">
		<tag k="name" v="Den skakke myra" />
		<tag k="natural" v="wetland" />
		<tag k="old_name" v="Denskakkemyra" />
		<tag k="ssr:stedsnr" v="105227" />
	</node>
	<node lat="60.37112500042461" lon="10.78045555781742" id="-22943">
		<tag k="name" v="Korsmyra" />
		<tag k="natural" v="wetland" />
		<tag k="ssr:stedsnr" v="249556" />
	</node>
	<node lat="60.53448888533102" lon="10.588133325041447" id="-22963">
		<tag k="name" v="Ormsteinsmyra" />
		<tag k="natural" v="wetland" />
		<tag k="ssr:stedsnr" v="250104" />
	</node>
	<node lat="60.489569446857466" lon="10.573475007256958" id="-23021">
		<tag k="name" v="Åstjern beitelag" />
		<tag k="place" v="locality" />
		<tag k="ssr:stedsnr" v="153373" />
	</node>
	<node lat="60.53474444144742" lon="10.182055547883582" id="-23036">
		<tag k="name" v="Jonsrudmyrene" />
		<tag k="natural" v="wetland" />
		<tag k="ssr:stedsnr" v="172955" />
	</node>
	<node lat="60.3559361071679" lon="10.689233341028048" id="-23042">
		<tag k="name" v="Stormyra" />
		<tag k="natural" v="wetland" />
		<tag k="ssr:stedsnr" v="188074" />
	</node>
	<node lat="60.434611107347074" lon="10.639972222952851" id="-23086">
		<tag k="name" v="Fillekremmermyra" />
		<tag k="natural" v="wetland" />
		<tag k="ssr:stedsnr" v="211974" />
	</node>
	<node lat="60.46296389101475" lon="10.614508333353228" id="-23098">
		<tag k="name" v="Brumyra" />
		<tag k="natural" v="wetland" />
		<tag k="ssr:stedsnr" v="214527" />
	</node>
	<node lat="60.48141666901206" lon="10.626977786436075" id="-23101">
		<tag k="name" v="Svartbekkmyra" />
		<tag k="natural" v="wetland" />
		<tag k="ssr:stedsnr" v="215531" />
	</node>
	<node lat="60.33753889327259" lon="10.893752775274349" id="-23110">
		<tag k="name" v="Korsmyra" />
		<tag k="natural" v="wetland" />
		<tag k="ssr:stedsnr" v="232078" />
	</node>
	<node lat="60.52593055501647" lon="10.190872214191582" id="-23117">
		<tag k="name" v="Kjelleren" />
		<tag k="place" v="locality" />
		<tag k="ssr:stedsnr" v="233012" />
	</node>
	<node lat="60.332491671194774" lon="10.849011106044001" id="-23118">
		<tag k="name" v="Hadelandsmyra" />
		<tag k="natural" v="wetland" />
		<tag k="ssr:stedsnr" v="233188" />
	</node>
	<node lat="60.47899167059429" lon="10.35350554678338" id="-23120">
		<tag k="name" v="Grenmyra" />
		<tag k="natural" v="wetland" />
		<tag k="ssr:stedsnr" v="233276" />
	</node>
	<node lat="60.32267777924376" lon="10.776238885762643" id="-23129">
		<tag k="name" v="Hanskemyra" />
		<tag k="natural" v="wetland" />
		<tag k="ssr:stedsnr" v="233634" />
	</node>
	<node lat="60.44019999980434" lon="10.444686119746702" id="-23169">
		<tag k="name" v="Momyra" />
		<tag k="natural" v="wetland" />
		<tag k="ssr:stedsnr" v="456252" />
	</node>
	<node lat="60.490583336143516" lon="10.571194447862016" id="-23170">
		<tag k="name" v="Kommerikemyrene" />
		<tag k="natural" v="wetland" />
		<tag k="ssr:stedsnr" v="456340" />
	</node>
	<node lat="60.48697221802565" lon="10.570502782816552" id="-23171">
		<tag k="name" v="Skyttermyra" />
		<tag k="natural" v="wetland" />
		<tag k="ssr:stedsnr" v="456341" />
	</node>
	<node lat="60.53461389215985" lon="10.400033334226055" id="-23174">
		<tag k="name" v="Elvehella" />
		<tag k="place" v="locality" />
		<tag k="ssr:stedsnr" v="456669" />
	</node>
	<node lat="60.46686944470954" lon="10.564069450171385" id="-23175">
		<tag k="name" v="Torvmyra" />
		<tag k="natural" v="wetland" />
		<tag k="ssr:stedsnr" v="456724" />
	</node>
	<node lat="60.37735833692299" lon="10.343849994954432" id="-23176">
		<tag k="name" v="Kvilesteinen" />
		<tag k="natural" v="stone" />
		<tag k="ssr:stedsnr" v="457434" />
	</node>
	<node lat="60.55616944135867" lon="10.54773889627802" id="-23178">
		<tag k="name" v="Kutjernsmyrene" />
		<tag k="natural" v="wetland" />
		<tag k="ssr:stedsnr" v="457683" />
	</node>
	<node lat="60.43906388920484" lon="10.617422214780426" id="-23181">
		<tag k="name" v="Skjellmyra" />
		<tag k="natural" v="wetland" />
		<tag k="ssr:stedsnr" v="457656" />
	</node>
	<node lat="60.52973055624561" lon="10.478944448493548" id="-23182">
		<tag k="name" v="Langmyra" />
		<tag k="natural" v="wetland" />
		<tag k="ssr:stedsnr" v="267606" />
	</node>
	<node lat="60.4017972256606" lon="10.554172220148464" id="-23187">
		<tag k="name" v="Gjefsenmoen" />
		<tag k="place" v="locality" />
		<tag k="ssr:stedsnr" v="272805" />
	</node>
	<node lat="60.44425833260455" lon="10.458894444636677" id="-23191">
		<tag k="name" v="Bakkegjerdinga" />
		<tag k="place" v="locality" />
		<tag k="ssr:stedsnr" v="274014" />
	</node>
	<node lat="60.49620555943147" lon="10.559124997984908" id="-23194">
		<tag k="name" v="Tjyrueldsmyra" />
		<tag k="natural" v="wetland" />
		<tag k="ssr:stedsnr" v="274308" />
	</node>
	<node lat="60.474688885604564" lon="10.572124993770771" id="-23196">
		<tag k="name" v="Stormyra" />
		<tag k="natural" v="wetland" />
		<tag k="ssr:stedsnr" v="274704" />
	</node>
	<node lat="60.51422500013164" lon="10.491222227131361" id="-23198">
		<tag k="name" v="Storfløyta" />
		<tag k="natural" v="wetland" />
		<tag k="ssr:stedsnr" v="275113" />
	</node>
	<node lat="60.52913610959056" lon="10.493011113624942" id="-23200">
		<tag k="name" v="Kjosbråtån" />
		<tag k="place" v="locality" />
		<tag k="ssr:stedsnr" v="275693" />
	</node>
	<node lat="60.412583329060915" lon="10.515008339652075" id="-23248">
		<tag k="name" v="Kvernhusbråtån" />
		<tag k="place" v="locality" />
		<tag k="ssr:stedsnr" v="332063" />
	</node>
	<node lat="60.47116666324937" lon="10.459566674167203" id="-23251">
		<tag k="name" v="Rud" />
		<tag k="place" v="locality" />
		<tag k="ssr:stedsnr" v="334160" />
	</node>
	<node lat="60.53424721783913" lon="10.431369440764968" id="-23254">
		<tag k="name" v="Toregjellmyra" />
		<tag k="natural" v="wetland" />
		<tag k="ssr:stedsnr" v="334617" />
	</node>
	<node lat="60.52199166985087" lon="10.425469451234608" id="-23255">
		<tag k="name" v="Vollmyra" />
		<tag k="natural" v="wetland" />
		<tag k="ssr:stedsnr" v="334620" />
	</node>
	<node lat="60.5093305581511" lon="10.516702769716122" id="-23260">
		<tag k="name" v="Svinningsætergjerdinga" />
		<tag k="place" v="locality" />
		<tag k="ssr:stedsnr" v="336145" />
	</node>
	<node lat="60.506755556466736" lon="10.693097213957582" id="-23262">
		<tag k="name" v="Langmyra" />
		<tag k="natural" v="wetland" />
		<tag k="ssr:stedsnr" v="336530" />
	</node>
	<node lat="60.52396666252054" lon="10.5277361073425" id="-23267">
		<tag k="name" v="Korsbråtåmyra" />
		<tag k="natural" v="wetland" />
		<tag k="ssr:stedsnr" v="336709" />
	</node>
	<node lat="60.463225003976376" lon="10.370386106739746" id="-23283">
		<tag k="name" v="Bundingstikkmyrene" />
		<tag k="natural" v="wetland" />
		<tag k="ssr:stedsnr" v="354814" />
	</node>
	<node lat="60.33976110821658" lon="10.86732777699394" id="-23294">
		<tag k="name" v="Sætermyra" />
		<tag k="natural" v="wetland" />
		<tag k="ssr:stedsnr" v="475132" />
	</node>
	<node lat="60.39084166435706" lon="10.760411112717927" id="-23306">
		<tag k="name" v="Stormyra" />
		<tag k="natural" v="wetland" />
		<tag k="ssr:stedsnr" v="475750" />
	</node>
	<node lat="60.32775000178028" lon="10.894599993753907" id="-23325">
		<tag k="name" v="Svartbekkskurven" />
		<tag k="place" v="locality" />
		<tag k="ssr:stedsnr" v="370315" />
	</node>
	<node lat="60.506805554060705" lon="10.433180561499217" id="-23339">
		<tag k="name" v="Sinnerudshagen" />
		<tag k="place" v="locality" />
		<tag k="ssr:stedsnr" v="388600" />
	</node>
	<node lat="60.53698332963838" lon="10.403069446195595" id="-23355">
		<tag k="name" v="Raudmyra" />
		<tag k="natural" v="wetland" />
		<tag k="ssr:stedsnr" v="395705" />
	</node>
	<node lat="60.50788055863559" lon="10.467680558059058" id="-23358">
		<tag k="name" v="Husbråtåmyra" />
		<tag k="natural" v="wetland" />
		<tag k="ssr:stedsnr" v="395636" />
	</node>
	<node lat="60.44492778160883" lon="10.565883330811594" id="-23359">
		<tag k="name" v="Maribingen" />
		<tag k="place" v="locality" />
		<tag k="ssr:stedsnr" v="395838" />
	</node>
	<node lat="60.50286666259701" lon="10.504733336856802" id="-23360">
		<tag k="name" v="Søre Bleikenmyra" />
		<tag k="natural" v="wetland" />
		<tag k="ssr:stedsnr" v="396104" />
	</node>
	<node lat="60.502074995620696" lon="10.508905550203249" id="-23361">
		<tag k="name" v="Bølhaugmyra" />
		<tag k="natural" v="wetland" />
		<tag k="ssr:stedsnr" v="396105" />
	</node>
	<node lat="60.50664722603771" lon="10.570227769412094" id="-23363">
		<tag k="name" v="Nyleiksmyra" />
		<tag k="natural" v="wetland" />
		<tag k="ssr:stedsnr" v="396134" />
	</node>
	<node lat="60.512102775862836" lon="10.498938887520486" id="-23364">
		<tag k="name" v="Høgdemyra" />
		<tag k="natural" v="wetland" />
		<tag k="ssr:stedsnr" v="396098" />
	</node>
	<node lat="60.52375555912173" lon="10.523841672307727" id="-23365">
		<tag k="name" v="Fiskemyra" />
		<tag k="natural" v="wetland" />
		<tag k="ssr:stedsnr" v="396207" />
	</node>
	<node lat="60.409766665384446" lon="10.709788897330379" id="-23388">
		<tag k="name" v="Ognillsbrenna" />
		<tag k="place" v="locality" />
		<tag k="ssr:stedsnr" v="415486" />
	</node>
	<node lat="60.51186111358358" lon="10.680205560038702" id="-23410">
		<tag k="name" v="Hølbekkmyra" />
		<tag k="natural" v="wetland" />
		<tag k="ssr:stedsnr" v="431060" />
	</node>
	<node lat="60.418027779858384" lon="10.731275000494586" id="-23424">
		<tag k="name" v="Hesjemyra" />
		<tag k="natural" v="wetland" />
		<tag k="ssr:stedsnr" v="431642" />
	</node>
	<node lat="60.44990555726986" lon="10.459666659132733" id="-23469">
		<tag k="name" v="Skolemestermyra" />
		<tag k="natural" v="wetland" />
		<tag k="ssr:stedsnr" v="456010" />
	</node>
	<node lat="60.44509999582469" lon="10.445408329387579" id="-23471">
		<tag k="name" v="Klebersteinsenga" />
		<tag k="place" v="locality" />
		<tag k="ssr:stedsnr" v="456017" />
	</node>
	<node lat="60.52049444553515" lon="10.540941668525356" id="-23477">
		<tag k="name" v="Skarpefløyta" />
		<tag k="natural" v="wetland" />
		<tag k="ssr:stedsnr" v="457123" />
	</node>
	<node lat="60.50493056000207" lon="10.575824994864643" id="-23479">
		<tag k="name" v="Enputtmyra" />
		<tag k="natural" v="wetland" />
		<tag k="ssr:stedsnr" v="457143" />
	</node>
	<node lat="60.460713893319046" lon="10.60746389171207" id="-23481">
		<tag k="name" v="Hengedymyrene" />
		<tag k="natural" v="wetland" />
		<tag k="ssr:stedsnr" v="457512" />
	</node>
	<node lat="60.510947221165615" lon="10.690708326795159" id="-23482">
		<tag k="name" v="Rundmyra" />
		<tag k="natural" v="wetland" />
		<tag k="ssr:stedsnr" v="457517" />
	</node>
	<node lat="60.38975555554415" lon="10.754752768756346" id="-23494">
		<tag k="name" v="Bestemorsmyra" />
		<tag k="natural" v="wetland" />
		<tag k="ssr:stedsnr" v="673598" />
	</node>
	<node lat="60.417811110681235" lon="10.335466662702563" id="-23523">
		<tag k="name" v="Kilmyra" />
		<tag k="natural" v="wetland" />
		<tag k="ssr:stedsnr" v="475066" />
	</node>
	<node lat="60.41320277494965" lon="10.857261114187523" id="-23572">
		<tag k="name" v="Sjuputtmyra" />
		<tag k="natural" v="wetland" />
		<tag k="ssr:stedsnr" v="491624" />
	</node>
	<node lat="60.50748333278325" lon="10.275336102578962" id="-23581">
		<tag k="name" v="Husmyra" />
		<tag k="natural" v="wetland" />
		<tag k="ssr:stedsnr" v="492426" />
	</node>
	<node lat="60.45467222014786" lon="10.536111114340724" id="-23598">
		<tag k="name" v="Langmyra" />
		<tag k="natural" v="wetland" />
		<tag k="ssr:stedsnr" v="517782" />
	</node>
	<node lat="60.42252777815294" lon="10.82365555644652" id="-23618">
		<tag k="name" v="Lisæterstormyra" />
		<tag k="natural" v="wetland" />
		<tag k="ssr:stedsnr" v="537883" />
	</node>
</osm>
