<?xml version="1.0" encoding="UTF-8"?>
<osm version="0.6" generator="osmapis">
	<node lat="60.35659722067549" lon="10.472952773960543" id="-20625">
		<tag k="junction" v="yes" />
		<tag k="name" v="Mo" />
		<tag k="place" v="locality" />
		<tag k="ssr:stedsnr" v="30707" />
	</node>
	<node lat="60.52062221911648" lon="10.284269453414105" id="-20636">
		<tag k="bridge" v="yes" />
		<tag k="layer" v="1" />
		<tag k="name" v="Bjoneroa" />
		<tag k="ssr:stedsnr" v="46077" />
	</node>
	<node lat="60.49215833594507" lon="10.184511114662618" id="-20639">
		<tag k="name" v="Valstjernfløta" />
		<tag k="place" v="locality" />
		<tag k="ssr:stedsnr" v="51177" />
	</node>
	<node lat="60.49378055219943" lon="10.467988884017373" id="-20676">
		<tag k="ford" v="yes" />
		<tag k="name" v="Sillervadet" />
		<tag k="place" v="locality" />
		<tag k="ssr:stedsnr" v="91322" />
	</node>
	<node lat="60.4144083303284" lon="10.54153611215908" id="-20731">
		<tag k="bridge" v="yes" />
		<tag k="layer" v="1" />
		<tag k="name" v="Trulsrud" />
		<tag k="ssr:stedsnr" v="107129" />
	</node>
	<node lat="60.51591666618291" lon="10.596363895241645" id="-20811">
		<tag k="highway" v="path" />
		<tag k="name" v="Lysingsvegen" />
		<tag k="ssr:stedsnr" v="154208" />
	</node>
	<node lat="60.46053610767008" lon="10.643763881361828" id="-20815">
		<tag k="bridge" v="yes" />
		<tag k="layer" v="1" />
		<tag k="name" v="Lygna" />
		<tag k="ssr:stedsnr" v="168158" />
	</node>
	<node lat="60.45449444274455" lon="10.641844437350562" id="-20816">
		<tag k="bridge" v="yes" />
		<tag k="layer" v="1" />
		<tag k="name" v="Lygnasæter" />
		<tag k="ssr:stedsnr" v="168160" />
	</node>
	<node lat="60.46673610898998" lon="10.381347221650264" id="-20823">
		<tag k="highway" v="path" />
		<tag k="name" v="Lønngangen" />
		<tag k="ssr:stedsnr" v="172813" />
	</node>
	<node lat="60.37695278162674" lon="10.340808325863646" id="-20889">
		<tag k="highway" v="path" />
		<tag k="name" v="Kammerudsætervegen" />
		<tag k="ssr:stedsnr" v="215523" />
	</node>
	<node lat="60.51790278079782" lon="10.198358329879731" id="-20911">
		<tag k="name" v="Velte" />
		<tag k="place" v="locality" />
		<tag k="ssr:stedsnr" v="233386" />
	</node>
	<node lat="60.34911944751447" lon="10.634355561794926" id="-20948">
		<tag k="name" v="Gjerdingsgrinda" />
		<tag k="place" v="locality" />
		<tag k="ssr:stedsnr" v="454442" />
	</node>
	<node lat="60.47422777526009" lon="10.679872216673372" id="-20966">
		<tag k="name" v="Flisbanen" />
		<tag k="place" v="locality" />
		<tag k="ssr:stedsnr" v="457529" />
	</node>
	<node lat="60.52609722623372" lon="10.42321111395555" id="-20984">
		<tag k="bridge" v="yes" />
		<tag k="layer" v="1" />
		<tag k="name" v="Gregardsbrua" />
		<tag k="ssr:stedsnr" v="274604" />
	</node>
	<node lat="60.477430553470285" lon="10.553836115586563" id="-21048">
		<tag k="name" v="Lunnbakken" />
		<tag k="place" v="locality" />
		<tag k="ssr:stedsnr" v="335758" />
	</node>
	<node lat="60.51219166629659" lon="10.253388893367216" id="-21066">
		<tag k="junction" v="yes" />
		<tag k="name" v="Krokfoss" />
		<tag k="place" v="locality" />
		<tag k="ssr:stedsnr" v="354307" />
	</node>
	<node lat="60.527519443979735" lon="10.213355557295309" id="-21081">
		<tag k="name" v="Velte" />
		<tag k="place" v="locality" />
		<tag k="ssr:stedsnr" v="475044" />
	</node>
	<node lat="60.42284166692057" lon="10.500855548954137" id="-21159">
		<tag k="bridge" v="yes" />
		<tag k="layer" v="1" />
		<tag k="name" v="Ringvang" />
		<tag k="ssr:stedsnr" v="410150" />
	</node>
	<node lat="60.40149722338726" lon="10.544777777939466" id="-21160">
		<tag k="bridge" v="yes" />
		<tag k="layer" v="1" />
		<tag k="name" v="Rogne" />
		<tag k="ssr:stedsnr" v="410151" />
	</node>
	<node lat="60.366036115395914" lon="10.588861118969584" id="-21162">
		<tag k="junction" v="yes" />
		<tag k="name" v="Ålheim" />
		<tag k="place" v="locality" />
		<tag k="ssr:stedsnr" v="415104" />
	</node>
	<node lat="60.41739444297979" lon="10.507644439760622" id="-21310">
		<tag k="bridge" v="yes" />
		<tag k="layer" v="1" />
		<tag k="name" v="Grinaker" />
		<tag k="ssr:stedsnr" v="471076" />
	</node>
	<node lat="60.533413884708416" lon="10.168344449344342" id="-21311">
		<tag k="bridge" v="yes" />
		<tag k="layer" v="1" />
		<tag k="name" v="Dragbrua" />
		<tag k="ssr:stedsnr" v="471080" />
	</node>
	<node lat="60.51716110879385" lon="10.301075001195345" id="-21397">
		<tag k="man_made" v="quay" />
		<tag k="name" v="Ærskella" />
		<tag k="place" v="locality" />
		<tag k="ssr:stedsnr" v="536471" />
	</node>
</osm>
