<?xml version="1.0" encoding="UTF-8"?>
<osm version="0.6" generator="osmapis">
	<node lat="60.358152779094894" lon="10.56589443834482" id="-31763">
		<tag k="name" v="Hovstjernet" />
		<tag k="natural" v="water" />
		<tag k="ssr:stedsnr" v="6003" />
	</node>
	<node lat="60.39112168454529" lon="10.269740428373789" id="-31770">
		<tag k="name" v="Roken" />
		<tag k="natural" v="water" />
		<tag k="ssr:stedsnr" v="6308" />
	</node>
	<node lat="60.39848333689488" lon="10.805783337475756" id="-31776">
		<tag k="alt_name" v="Lomtjern, øvre" />
		<tag k="name" v="Øvre Lomtjern" />
		<tag k="natural" v="water" />
		<tag k="ssr:stedsnr" v="6623" />
	</node>
	<node lat="60.41291666608984" lon="10.732036105652753" id="-31777">
		<tag k="name" v="Grønsjøbekken" />
		<tag k="ssr:stedsnr" v="6624" />
		<tag k="waterway" v="stream" />
	</node>
	<node lat="60.37522777766779" lon="10.879666657904632" id="-31779">
		<tag k="name" v="Brennholmputten" />
		<tag k="natural" v="water" />
		<tag k="ssr:stedsnr" v="6582" />
	</node>
	<node lat="60.475736110945626" lon="10.296591674509045" id="-31786">
		<tag k="name" v="Skovlevikbekken" />
		<tag k="ssr:stedsnr" v="232437" />
		<tag k="waterway" v="stream" />
	</node>
	<node lat="60.44086666730285" lon="10.234074996999894" id="-31788">
		<tag k="name" v="Ottersund" />
		<tag k="natural" v="strait" />
		<tag k="ssr:stedsnr" v="232272" />
	</node>
	<node lat="60.458322223662684" lon="10.304688882420304" id="-31789">
		<tag k="name" v="Skytilbekken" />
		<tag k="ssr:stedsnr" v="232366" />
		<tag k="waterway" v="stream" />
	</node>
	<node lat="60.4495861113475" lon="10.218119438844974" id="-31797">
		<tag k="name" v="Abborroa" />
		<tag k="natural" v="bay" />
		<tag k="ssr:stedsnr" v="233305" />
	</node>
	<node lat="60.38757499993359" lon="10.86442222308401" id="-31798">
		<tag k="name" v="Hekkentjernsbekken" />
		<tag k="old_name" v="Hekkentjeresbekken" />
		<tag k="ssr:stedsnr" v="233483" />
		<tag k="waterway" v="stream" />
	</node>
	<node lat="60.37986110961748" lon="10.876063892105572" id="-31800">
		<tag k="name" v="Kollerodden" />
		<tag k="natural" v="cape" />
		<tag k="ssr:stedsnr" v="233494" />
	</node>
	<node lat="60.380697221207775" lon="10.764277778759386" id="-31805">
		<tag k="name" v="Avrillsøya" />
		<tag k="natural" v="cape" />
		<tag k="ssr:stedsnr" v="233799" />
	</node>
	<node lat="60.378880554194396" lon="10.751277775603066" id="-31807">
		<tag k="name" v="Sverige" />
		<tag k="place" v="island" />
		<tag k="ssr:stedsnr" v="233815" />
	</node>
	<node lat="60.3888527790852" lon="10.792541672068804" id="-31809">
		<tag k="name" v="Helvete" />
		<tag k="natural" v="water" />
		<tag k="ssr:stedsnr" v="233875" />
	</node>
	<node lat="60.37243055957421" lon="10.331836110727398" id="-31811">
		<tag k="name" v="Sjåheimsputten" />
		<tag k="natural" v="water" />
		<tag k="ssr:stedsnr" v="234453" />
		<tag k="water" v="pond" />
	</node>
	<node lat="60.51854721803647" lon="10.499966663513108" id="-31822">
		<tag k="name" v="Benstiputten" />
		<tag k="natural" v="water" />
		<tag k="ssr:stedsnr" v="32102" />
		<tag k="water" v="pond" />
	</node>
	<node lat="60.56180833466923" lon="10.511758337975415" id="-31827">
		<tag k="name" v="Tretjernsputta" />
		<tag k="natural" v="water" />
		<tag k="ssr:stedsnr" v="32678" />
		<tag k="water" v="pond" />
	</node>
	<node lat="60.43064166809471" lon="10.350130555018016" id="-31830">
		<tag k="name" v="Rompeporten" />
		<tag k="natural" v="bay" />
		<tag k="ssr:stedsnr" v="51107" />
	</node>
	<node lat="60.45124722375968" lon="10.188205554982712" id="-31833">
		<tag k="name" v="Torslægertjernene" />
		<tag k="natural" v="water" />
		<tag k="ssr:stedsnr" v="51319" />
		<tag k="water" v="lake" />
	</node>
	<node lat="60.491480555905056" lon="10.1805944358186" id="-31834">
		<tag k="name" v="Valstjernbekken" />
		<tag k="ssr:stedsnr" v="51575" />
		<tag k="waterway" v="stream" />
	</node>
	<node lat="60.450636107406645" lon="10.271011117699983" id="-31836">
		<tag k="name" v="Søndre Lauerodden" />
		<tag k="natural" v="cape" />
		<tag k="ssr:stedsnr" v="51608" />
	</node>
	<node lat="60.384669447547225" lon="10.8096861185984" id="-31837">
		<tag k="name" v="Toputta" />
		<tag k="natural" v="water" />
		<tag k="ssr:stedsnr" v="51871" />
	</node>
	<node lat="60.37696389104607" lon="10.762861108817258" id="-31838">
		<tag k="name" v="Gullentreet" />
		<tag k="natural" v="cape" />
		<tag k="ssr:stedsnr" v="51775" />
	</node>
	<node lat="60.475727780228986" lon="10.187091661607004" id="-31845">
		<tag k="name" v="Trona" />
		<tag k="ssr:stedsnr" v="66721" />
		<tag k="waterway" v="stream" />
	</node>
	<node lat="60.390338887684784" lon="10.479750005825693" id="-31846">
		<tag k="alt_name" v="Eldtjernet;Eldtjern" />
		<tag k="name" v="Elgtjernet" />
		<tag k="natural" v="water" />
		<tag k="ssr:stedsnr" v="67197" />
	</node>
	<node lat="60.44070832974303" lon="10.32906666224044" id="-31848">
		<tag k="name" v="Vesle Stokksjøen" />
		<tag k="natural" v="water" />
		<tag k="old_name" v="Stokksjø, vesle" />
		<tag k="ssr:stedsnr" v="67351" />
		<tag k="water" v="lake" />
	</node>
	<node lat="60.48566944166885" lon="10.291708334374261" id="-31850">
		<tag k="name" v="Signetjern" />
		<tag k="natural" v="water" />
		<tag k="ssr:stedsnr" v="67712" />
	</node>
	<node lat="60.344205677923" lon="10.717978355787873" id="-31854">
		<tag k="name" v="Våja" />
		<tag k="natural" v="water" />
		<tag k="ssr:stedsnr" v="67994" />
		<tag k="water" v="lake" />
	</node>
	<node lat="60.517741670661465" lon="10.4564583293796" id="-31856">
		<tag k="name" v="Svælabruolla" />
		<tag k="natural" v="spring" />
		<tag k="ssr:stedsnr" v="85494" />
	</node>
	<node lat="60.43067778138359" lon="10.613380552483418" id="-31861">
		<tag k="name" v="Badstubekken" />
		<tag k="ssr:stedsnr" v="90966" />
		<tag k="waterway" v="stream" />
	</node>
	<node lat="60.45062222492797" lon="10.464547223187632" id="-31865">
		<tag k="name" v="Gråbeintangen" />
		<tag k="natural" v="cape" />
		<tag k="ssr:stedsnr" v="91004" />
	</node>
	<node lat="60.54978610908919" lon="10.482075002097364" id="-31866">
		<tag k="name" v="Heimtjern" />
		<tag k="natural" v="water" />
		<tag k="ssr:stedsnr" v="91065" />
	</node>
	<node lat="60.32885555683808" lon="10.521658339992534" id="-31872">
		<tag k="name" v="Rokotjernet" />
		<tag k="natural" v="water" />
		<tag k="ssr:stedsnr" v="92471" />
	</node>
	<node lat="60.542191668672245" lon="10.458316669787186" id="-31875">
		<tag k="name" v="Kuputten" />
		<tag k="natural" v="water" />
		<tag k="ssr:stedsnr" v="92665" />
		<tag k="water" v="pond" />
	</node>
	<node lat="60.50626944455006" lon="10.484655553372045" id="-31876">
		<tag k="name" v="Knutsbråtåfossen" />
		<tag k="natural" v="waterfall" />
		<tag k="ssr:stedsnr" v="92563" />
	</node>
	<node lat="60.245433336755056" lon="10.395469440791546" id="-31890">
		<tag k="name" v="Randsfjorden" />
		<tag k="natural" v="water" />
		<tag k="ssr:stedsnr" v="248364" />
		<tag k="water" v="lake" />
	</node>
	<node lat="60.405505556011754" lon="10.787300002430548" id="-31891">
		<tag k="alt_name" v="Avrillen, lille" />
		<tag k="name" v="Vesle Avrillen" />
		<tag k="natural" v="water" />
		<tag k="ssr:stedsnr" v="248626" />
	</node>
	<node lat="60.4996833368309" lon="10.579250006796226" id="-31900">
		<tag k="alt_name" v="Åstjern" />
		<tag k="name" v="Åstjernet" />
		<tag k="natural" v="water" />
		<tag k="ssr:stedsnr" v="249057" />
	</node>
	<node lat="60.40389722230442" lon="10.493363887554148" id="-31907">
		<tag k="alt_name" v="Lilletjernet" />
		<tag k="name" v="Vesletjern" />
		<tag k="natural" v="water" />
		<tag k="ssr:stedsnr" v="249176" />
	</node>
	<node lat="60.408425002564925" lon="10.304858341421944" id="-31909">
		<tag k="name" v="Langtjern" />
		<tag k="natural" v="water" />
		<tag k="ssr:stedsnr" v="249273" />
	</node>
	<node lat="60.44965833324139" lon="10.37693055127419" id="-31910">
		<tag k="name" v="Flåtjern" />
		<tag k="natural" v="water" />
		<tag k="ssr:stedsnr" v="249229" />
	</node>
	<node lat="60.49126666779192" lon="10.444997229436682" id="-31912">
		<tag k="name" v="Sytjernelva" />
		<tag k="ssr:stedsnr" v="249276" />
		<tag k="waterway" v="stream" />
	</node>
	<node lat="60.43325277365731" lon="10.244677771981422" id="-31914">
		<tag k="name" v="Saltburoa" />
		<tag k="natural" v="bay" />
		<tag k="ssr:stedsnr" v="249354" />
	</node>
	<node lat="60.42889999762968" lon="10.207544440447633" id="-31915">
		<tag k="alt_name" v="Espetjern, s" />
		<tag k="name" v="Søndre Espetjern" />
		<tag k="natural" v="water" />
		<tag k="ssr:stedsnr" v="249372" />
	</node>
	<node lat="60.50147500146224" lon="10.228941665954322" id="-31916">
		<tag k="name" v="Butjernet" />
		<tag k="natural" v="water" />
		<tag k="ssr:stedsnr" v="249462" />
	</node>
	<node lat="60.34998611177322" lon="10.856577768951333" id="-31921">
		<tag k="name" v="Fjøsputten" />
		<tag k="natural" v="water" />
		<tag k="ssr:stedsnr" v="249526" />
		<tag k="water" v="pond" />
	</node>
	<node lat="60.354007731655436" lon="10.798347082367558" id="-31922">
		<tag k="name" v="Sautjern" />
		<tag k="natural" v="water" />
		<tag k="ssr:stedsnr" v="249532" />
	</node>
	<node lat="60.352000003458755" lon="10.821988883213256" id="-31923">
		<tag k="alt_name" v="Sandbotntjern, vestre" />
		<tag k="name" v="Vestre Sandbotntjernet" />
		<tag k="natural" v="water" />
		<tag k="ssr:stedsnr" v="249534" />
	</node>
	<node lat="60.38242778021159" lon="10.880205563445669" id="-31926">
		<tag k="alt_name" v="Bukkeholmen" />
		<tag k="name" v="Bukkholmen" />
		<tag k="place" v="islet" />
		<tag k="ssr:stedsnr" v="249563" />
	</node>
	<node lat="60.48495965712286" lon="10.31211921073791" id="-31929">
		<tag k="name" v="Blekketjerna" />
		<tag k="natural" v="water" />
		<tag k="ssr:stedsnr" v="249692" />
		<tag k="water" v="lake" />
	</node>
	<node lat="60.44559722362007" lon="10.226338880687477" id="-31933">
		<tag k="name" v="Mikkelsholmene" />
		<tag k="place" v="island" />
		<tag k="ssr:stedsnr" v="110277" />
	</node>
	<node lat="60.44455555374825" lon="10.238524997316967" id="-31934">
		<tag k="name" v="Lauvholmen" />
		<tag k="place" v="island" />
		<tag k="ssr:stedsnr" v="110281" />
	</node>
	<node lat="60.31820277867596" lon="10.459474995423115" id="-31935">
		<tag k="name" v="Mjørputten" />
		<tag k="natural" v="water" />
		<tag k="ssr:stedsnr" v="249925" />
	</node>
	<node lat="60.32651111319945" lon="10.532461115990312" id="-31939">
		<tag k="alt_name" v="Øyskogtjern" />
		<tag k="name" v="Øyskogtjernet" />
		<tag k="natural" v="water" />
		<tag k="ssr:stedsnr" v="249975" />
	</node>
	<node lat="60.53457499983563" lon="10.359958340540825" id="-31946">
		<tag k="name" v="Orputten" />
		<tag k="natural" v="water" />
		<tag k="ssr:stedsnr" v="250110" />
		<tag k="water" v="pond" />
	</node>
	<node lat="60.52249444803618" lon="10.184283332979522" id="-31947">
		<tag k="name" v="Draget" />
		<tag k="natural" v="strait" />
		<tag k="ssr:stedsnr" v="111871" />
	</node>
	<node lat="60.40224999889251" lon="10.244394447346087" id="-31950">
		<tag k="name" v="Buvassbekken" />
		<tag k="ssr:stedsnr" v="112321" />
		<tag k="waterway" v="stream" />
	</node>
	<node lat="60.41421666308709" lon="10.709333341580642" id="-31954">
		<tag k="name" v="Malsjøbekken" />
		<tag k="ssr:stedsnr" v="112470" />
		<tag k="waterway" v="stream" />
	</node>
	<node lat="60.45832777643662" lon="10.397172222251042" id="-31956">
		<tag k="name" v="Prestsandtangen" />
		<tag k="natural" v="cape" />
		<tag k="ssr:stedsnr" v="112813" />
	</node>
	<node lat="60.53128055719987" lon="10.13723333148665" id="-31958">
		<tag k="alt_name" v="Bålerudtjern" />
		<tag k="name" v="Bålerudtjernet" />
		<tag k="natural" v="water" />
		<tag k="ssr:stedsnr" v="250520" />
	</node>
	<node lat="60.34547499577771" lon="10.700702775243114" id="-31960">
		<tag k="name" v="Sprutbekken" />
		<tag k="ssr:stedsnr" v="127046" />
		<tag k="waterway" v="stream" />
	</node>
	<node lat="60.47040555202492" lon="10.36253056318414" id="-31964">
		<tag k="alt_name" v="Berventjern" />
		<tag k="name" v="Berventjernet" />
		<tag k="natural" v="water" />
		<tag k="ssr:stedsnr" v="127214" />
	</node>
	<node lat="60.46148055645802" lon="10.365011113760948" id="-31965">
		<tag k="name" v="Merraputten" />
		<tag k="natural" v="water" />
		<tag k="ssr:stedsnr" v="127220" />
	</node>
	<node lat="60.37469166972368" lon="10.520705553184643" id="-31968">
		<tag k="alt_name" v="Jorstadtjern" />
		<tag k="name" v="Jorstadtjernet" />
		<tag k="natural" v="water" />
		<tag k="ssr:stedsnr" v="127108" />
	</node>
	<node lat="60.379187998165065" lon="10.739652882041343" id="-31971">
		<tag k="name" v="Vassbråa" />
		<tag k="natural" v="water" />
		<tag k="ssr:stedsnr" v="127124" />
		<tag k="water" v="lake" />
	</node>
	<node lat="60.403702777498275" lon="10.257455560667008" id="-31977">
		<tag k="alt_name" v="Bergevatnbekken" />
		<tag k="name" v="Sandungsbekken" />
		<tag k="ssr:stedsnr" v="127303" />
		<tag k="waterway" v="stream" />
	</node>
	<node lat="60.403455551927465" lon="10.289450005469586" id="-31978">
		<tag k="name" v="Høvra" />
		<tag k="natural" v="water" />
		<tag k="ssr:stedsnr" v="127304" />
	</node>
	<node lat="60.390800003961324" lon="10.866125003885593" id="-31980">
		<tag k="name" v="Helmenputten" />
		<tag k="natural" v="water" />
		<tag k="ssr:stedsnr" v="127621" />
	</node>
	<node lat="60.343349995808936" lon="10.915074999434019" id="-31983">
		<tag k="alt_name" v="Heggkolltjernet" />
		<tag k="name" v="Heggkolltjern" />
		<tag k="natural" v="water" />
		<tag k="ssr:stedsnr" v="127553" />
	</node>
	<node lat="60.484819444635576" lon="10.190969445711819" id="-31988">
		<tag k="name" v="Nysætertjernet" />
		<tag k="natural" v="water" />
		<tag k="ssr:stedsnr" v="127743" />
	</node>
	<node lat="60.429211005075956" lon="10.45281185685421" id="-31997">
		<tag k="name" v="Kjørkjetangen" />
		<tag k="natural" v="cape" />
		<tag k="ssr:stedsnr" v="152060" />
	</node>
	<node lat="60.51773611165432" lon="10.386436114836698" id="-32000">
		<tag k="name" v="Gjervikstangen" />
		<tag k="natural" v="cape" />
		<tag k="ssr:stedsnr" v="152413" />
	</node>
	<node lat="60.344391662756195" lon="10.86749444704828" id="-32006">
		<tag k="name" v="Persbekken" />
		<tag k="ssr:stedsnr" v="166211" />
		<tag k="waterway" v="stream" />
	</node>
	<node lat="60.427522223732495" lon="10.357374996224001" id="-32011">
		<tag k="name" v="Dammen" />
		<tag k="ssr:stedsnr" v="172078" />
		<tag k="waterway" v="dam" />
	</node>
	<node lat="60.442066669166884" lon="10.298777771646561" id="-32014">
		<tag k="name" v="Kimgonga" />
		<tag k="natural" v="water" />
		<tag k="ssr:stedsnr" v="172609" />
	</node>
	<node lat="60.46103332908345" lon="10.253474992267197" id="-32015">
		<tag k="name" v="Bakkevika" />
		<tag k="natural" v="bay" />
		<tag k="ssr:stedsnr" v="172364" />
	</node>
	<node lat="60.37723055214999" lon="10.899452786597212" id="-32019">
		<tag k="name" v="Hytteodde" />
		<tag k="natural" v="cape" />
		<tag k="ssr:stedsnr" v="173402" />
	</node>
	<node lat="60.33676666384247" lon="10.782130556424903" id="-32021">
		<tag k="name" v="Vesle Høvra" />
		<tag k="natural" v="water" />
		<tag k="ssr:stedsnr" v="173717" />
	</node>
	<node lat="60.3898611135739" lon="10.695163880520285" id="-32027">
		<tag k="alt_name" v="Fjellsjøkalven" />
		<tag k="name" v="Kalven" />
		<tag k="natural" v="water" />
		<tag k="ssr:stedsnr" v="188091" />
	</node>
	<node lat="60.395380555388535" lon="10.636538896306147" id="-32028">
		<tag k="name" v="Sveraelva" />
		<tag k="ssr:stedsnr" v="188094" />
		<tag k="waterway" v="stream" />
	</node>
	<node lat="60.4264111085577" lon="10.242747226861423" id="-32045">
		<tag k="name" v="Helvetesroa" />
		<tag k="natural" v="water" />
		<tag k="ssr:stedsnr" v="188407" />
	</node>
	<node lat="60.37605555194311" lon="10.786724991160327" id="-32046">
		<tag k="alt_name" v="Langen, vesle" />
		<tag k="name" v="Vesle Langen" />
		<tag k="natural" v="water" />
		<tag k="ssr:stedsnr" v="188602" />
	</node>
	<node lat="60.46984444326953" lon="10.324683325734203" id="-32047">
		<tag k="name" v="Femtjerna" />
		<tag k="natural" v="water" />
		<tag k="ssr:stedsnr" v="188604" />
		<tag k="water" v="lake" />
	</node>
	<node lat="60.38373333323032" lon="10.857969438644508" id="-32048">
		<tag k="alt_name" v="Merratjernet" />
		<tag k="name" v="Merratjern" />
		<tag k="natural" v="water" />
		<tag k="ssr:stedsnr" v="188613" />
	</node>
	<node lat="60.450983334382336" lon="10.299691674975707" id="-32051">
		<tag k="alt_name" v="Angvika, østre" />
		<tag k="name" v="Østre Angvika" />
		<tag k="natural" v="bay" />
		<tag k="ssr:stedsnr" v="188580" />
	</node>
	<node lat="60.459963885016435" lon="10.218788889182818" id="-32052">
		<tag k="name" v="Rovtjern" />
		<tag k="natural" v="water" />
		<tag k="ssr:stedsnr" v="188590" />
	</node>
	<node lat="60.396422222648084" lon="10.816211118884722" id="-32053">
		<tag k="name" v="Huldertjernsbekken" />
		<tag k="ssr:stedsnr" v="188642" />
		<tag k="waterway" v="stream" />
	</node>
	<node lat="60.338580551844146" lon="10.663063881561595" id="-32059">
		<tag k="name" v="Vesleelva" />
		<tag k="ssr:stedsnr" v="188990" />
		<tag k="waterway" v="stream" />
	</node>
	<node lat="60.39742222643818" lon="10.371569451005916" id="-32072">
		<tag k="name" v="Nordvika" />
		<tag k="natural" v="bay" />
		<tag k="ssr:stedsnr" v="213326" />
	</node>
	<node lat="60.52759444380566" lon="10.363569453381933" id="-32078">
		<tag k="name" v="Kalvskinnbekken" />
		<tag k="ssr:stedsnr" v="213728" />
		<tag k="waterway" v="stream" />
	</node>
	<node lat="60.44937499959583" lon="10.540899991954152" id="-32079">
		<tag k="name" v="Nysæterbekken" />
		<tag k="ssr:stedsnr" v="213783" />
		<tag k="waterway" v="stream" />
	</node>
	<node lat="60.37808055255475" lon="10.324569440648135" id="-32081">
		<tag k="name" v="Sølvbergtjern" />
		<tag k="natural" v="water" />
		<tag k="ssr:stedsnr" v="215515" />
	</node>
	<node lat="60.44281944004136" lon="10.635683334590958" id="-32084">
		<tag k="name" v="Fjølahyttbekken" />
		<tag k="ssr:stedsnr" v="215725" />
		<tag k="waterway" v="stream" />
	</node>
	<node lat="60.48290555610705" lon="10.235824993667084" id="-32091">
		<tag k="name" v="Pompedammen" />
		<tag k="place" v="locality" />
		<tag k="ssr:stedsnr" v="232135" />
	</node>
	<node lat="60.42759444409661" lon="10.338127773522782" id="-32093">
		<tag k="name" v="Storøya" />
		<tag k="place" v="island" />
		<tag k="ssr:stedsnr" v="232093" />
	</node>
	<node lat="60.44337778123638" lon="10.2304583368434" id="-32096">
		<tag k="name" v="Brennheiten" />
		<tag k="place" v="island" />
		<tag k="ssr:stedsnr" v="232282" />
	</node>
	<node lat="60.315202779766665" lon="10.841544441207002" id="-32107">
		<tag k="name" v="Jammerholtputten" />
		<tag k="natural" v="water" />
		<tag k="ssr:stedsnr" v="233610" />
		<tag k="water" v="pond" />
	</node>
	<node lat="60.32229999571672" lon="10.753797213982187" id="-32109">
		<tag k="name" v="Gullerudputten" />
		<tag k="natural" v="water" />
		<tag k="ssr:stedsnr" v="233623" />
	</node>
	<node lat="60.45558610806015" lon="10.296383339309113" id="-32110">
		<tag k="name" v="Søndre kangsen" />
		<tag k="place" v="island" />
		<tag k="ssr:stedsnr" v="233633" />
	</node>
	<node lat="60.41689444721286" lon="10.285508332837079" id="-32112">
		<tag k="name" v="Søndre Tobakkstjern" />
		<tag k="natural" v="water" />
		<tag k="ssr:stedsnr" v="233939" />
	</node>
	<node lat="60.53317500444289" lon="10.147511107041996" id="-32113">
		<tag k="name" v="Store Huldertjern" />
		<tag k="natural" v="water" />
		<tag k="ssr:stedsnr" v="233950" />
	</node>
	<node lat="60.38501341744742" lon="10.638863055804354" id="-32115">
		<tag k="name" v="Randsjøen" />
		<tag k="natural" v="water" />
		<tag k="ssr:stedsnr" v="248059" />
		<tag k="water" v="lake" />
	</node>
	<node lat="60.37601666566248" lon="10.466133338025898" id="-32116">
		<tag k="alt_name" v="Smedstutjernet, s;Søndre Smedstutjernet" />
		<tag k="name" v="Smedstuetjernet" />
		<tag k="natural" v="water" />
		<tag k="ssr:stedsnr" v="248110" />
	</node>
	<node lat="60.44957277035441" lon="10.248158530364535" id="-32117">
		<tag k="name" v="Saltbufjorden" />
		<tag k="natural" v="water" />
		<tag k="ssr:stedsnr" v="248314" />
	</node>
	<node lat="60.469683476007845" lon="10.229806548301607" id="-32118">
		<tag k="name" v="Svarttjern" />
		<tag k="natural" v="water" />
		<tag k="ssr:stedsnr" v="248566" />
		<tag k="water" v="lake" />
	</node>
	<node lat="60.55322499792707" lon="10.5462250059166" id="-32121">
		<tag k="alt_name" v="Kutjern" />
		<tag k="name" v="Kutjernet" />
		<tag k="natural" v="water" />
		<tag k="ssr:stedsnr" v="249112" />
	</node>
	<node lat="60.41855833773704" lon="10.221980551997756" id="-32125">
		<tag k="name" v="Grønsjøen" />
		<tag k="natural" v="water" />
		<tag k="ssr:stedsnr" v="249251" />
	</node>
	<node lat="60.41964665094767" lon="10.287650095031745" id="-32127">
		<tag k="name" v="Tobakktjerna" />
		<tag k="natural" v="water" />
		<tag k="ssr:stedsnr" v="249252" />
		<tag k="water" v="lake" />
	</node>
	<node lat="60.530491665926014" lon="10.44218333263692" id="-32155">
		<tag k="name" v="Bjørkmannsputten" />
		<tag k="natural" v="water" />
		<tag k="ssr:stedsnr" v="456628" />
		<tag k="water" v="pond" />
	</node>
	<node lat="60.43268611446841" lon="10.439722224473412" id="-32170">
		<tag k="name" v="Skreitangen" />
		<tag k="place" v="islet" />
		<tag k="ssr:stedsnr" v="273075" />
	</node>
	<node lat="60.45924999768484" lon="10.29711666972194" id="-32184">
		<tag k="name" v="Tolleknivene" />
		<tag k="place" v="island" />
		<tag k="ssr:stedsnr" v="293326" />
	</node>
	<node lat="60.47754444487057" lon="10.281602768948101" id="-32185">
		<tag k="name" v="Kleivsundet" />
		<tag k="natural" v="strait" />
		<tag k="ssr:stedsnr" v="293241" />
	</node>
	<node lat="60.47399999645896" lon="10.35586944701128" id="-32188">
		<tag k="name" v="Røkenputten" />
		<tag k="natural" v="water" />
		<tag k="ssr:stedsnr" v="294315" />
	</node>
	<node lat="60.50843055937764" lon="10.204975007702265" id="-32189">
		<tag k="name" v="Avtjernstangen" />
		<tag k="natural" v="cape" />
		<tag k="ssr:stedsnr" v="294325" />
	</node>
	<node lat="60.430380556698005" lon="10.694600001861835" id="-32191">
		<tag k="name" v="Toputta" />
		<tag k="natural" v="water" />
		<tag k="ssr:stedsnr" v="294526" />
	</node>
	<node lat="60.45485000403758" lon="10.279638889922898" id="-32194">
		<tag k="name" v="Lemandsundet" />
		<tag k="natural" v="strait" />
		<tag k="ssr:stedsnr" v="294625" />
	</node>
	<node lat="60.393847219861634" lon="10.81587777968822" id="-32196">
		<tag k="name" v="Finnputten" />
		<tag k="natural" v="water" />
		<tag k="ssr:stedsnr" v="294732" />
		<tag k="water" v="pond" />
	</node>
	<node lat="60.34325833778434" lon="10.675402780164971" id="-32204">
		<tag k="alt_name" v="Hamartjernet" />
		<tag k="name" v="Hammartjernet" />
		<tag k="natural" v="water" />
		<tag k="ssr:stedsnr" v="309045" />
	</node>
	<node lat="60.37694166375833" lon="10.885330553797276" id="-32210">
		<tag k="name" v="Sundet" />
		<tag k="natural" v="strait" />
		<tag k="ssr:stedsnr" v="309602" />
	</node>
	<node lat="60.378424996865476" lon="10.889533340238257" id="-32211">
		<tag k="name" v="Gjætslevika" />
		<tag k="natural" v="bay" />
		<tag k="ssr:stedsnr" v="309603" />
	</node>
	<node lat="60.478927777671124" lon="10.274019451784193" id="-32212">
		<tag k="name" v="Grønmalen" />
		<tag k="natural" v="water" />
		<tag k="ssr:stedsnr" v="309701" />
	</node>
	<node lat="60.47543055801997" lon="10.176636108159315" id="-32213">
		<tag k="name" v="Raudtjern" />
		<tag k="natural" v="water" />
		<tag k="ssr:stedsnr" v="309706" />
	</node>
	<node lat="60.51938345342171" lon="10.189852475715371" id="-32223">
		<tag k="alt_name" v="Abbortjern" />
		<tag k="name" v="Åbortjernet" />
		<tag k="natural" v="water" />
		<tag k="ssr:stedsnr" v="310492" />
	</node>
	<node lat="60.39480833633218" lon="10.469830548650298" id="-32235">
		<tag k="name" v="Holebekken" />
		<tag k="ssr:stedsnr" v="334455" />
		<tag k="waterway" v="stream" />
	</node>
	<node lat="60.54308611403267" lon="10.374458327347677" id="-32238">
		<tag k="name" v="Sæterhaugen" />
		<tag k="ssr:stedsnr" v="334646" />
		<tag k="waterway" v="stream" />
	</node>
	<node lat="60.42546944474243" lon="10.46719722680102" id="-32239">
		<tag k="name" v="Ulsnestangen" />
		<tag k="natural" v="cape" />
		<tag k="ssr:stedsnr" v="334911" />
	</node>
	<node lat="60.49062222628687" lon="10.622586111606164" id="-32248">
		<tag k="name" v="Elkensætertjernet" />
		<tag k="natural" v="water" />
		<tag k="ssr:stedsnr" v="336447" />
	</node>
	<node lat="60.44188889038708" lon="10.235750000946693" id="-32251">
		<tag k="name" v="Abborholmen" />
		<tag k="place" v="island" />
		<tag k="ssr:stedsnr" v="474278" />
	</node>
	<node lat="60.44259722292911" lon="10.250705553106153" id="-32252">
		<tag k="name" v="Albågan" />
		<tag k="place" v="islet" />
		<tag k="ssr:stedsnr" v="474290" />
	</node>
	<node lat="60.47811111434765" lon="10.315672222902114" id="-32255">
		<tag k="name" v="Vestre Koietjern" />
		<tag k="natural" v="water" />
		<tag k="ssr:stedsnr" v="354234" />
	</node>
	<node lat="60.47566389175273" lon="10.271772222194882" id="-32258">
		<tag k="name" v="Geitungen" />
		<tag k="place" v="island" />
		<tag k="ssr:stedsnr" v="354304" />
	</node>
	<node lat="60.43389722466685" lon="10.329936105967915" id="-32266">
		<tag k="name" v="Løkoset" />
		<tag k="natural" v="strait" />
		<tag k="ssr:stedsnr" v="354881" />
	</node>
	<node lat="60.37547777395843" lon="10.746708328823615" id="-32268">
		<tag k="name" v="Ulvstangen" />
		<tag k="natural" v="cape" />
		<tag k="ssr:stedsnr" v="354774" />
	</node>
	<node lat="60.428372222972484" lon="10.258883339985037" id="-32269">
		<tag k="name" v="Kammerudholmen" />
		<tag k="place" v="island" />
		<tag k="ssr:stedsnr" v="354921" />
	</node>
	<node lat="60.426147225623744" lon="10.767605547757473" id="-32272">
		<tag k="name" v="Svartbekkdammen" />
		<tag k="ssr:stedsnr" v="355869" />
		<tag k="waterway" v="dam" />
	</node>
	<node lat="60.43014166317287" lon="10.331977786611564" id="-32273">
		<tag k="name" v="Meiteroa" />
		<tag k="natural" v="bay" />
		<tag k="ssr:stedsnr" v="475080" />
	</node>
	<node lat="60.48136388827401" lon="10.253672221158443" id="-32279">
		<tag k="name" v="Daggertjern" />
		<tag k="natural" v="water" />
		<tag k="ssr:stedsnr" v="475198" />
	</node>
	<node lat="60.481849995654784" lon="10.275416670305516" id="-32280">
		<tag k="name" v="Erikstangen" />
		<tag k="natural" v="cape" />
		<tag k="ssr:stedsnr" v="475202" />
	</node>
	<node lat="60.4571861138786" lon="10.259763888841027" id="-32282">
		<tag k="name" v="Engetangen" />
		<tag k="natural" v="cape" />
		<tag k="ssr:stedsnr" v="475372" />
	</node>
	<node lat="60.465622223939775" lon="10.277727772788518" id="-32283">
		<tag k="name" v="Helletjern" />
		<tag k="natural" v="water" />
		<tag k="ssr:stedsnr" v="475486" />
	</node>
	<node lat="60.46961111367257" lon="10.223444451333272" id="-32286">
		<tag k="name" v="Søthølvika" />
		<tag k="natural" v="bay" />
		<tag k="ssr:stedsnr" v="475763" />
	</node>
	<node lat="60.53432777719351" lon="10.144302783342159" id="-32289">
		<tag k="name" v="Vesle Huldertjern" />
		<tag k="natural" v="water" />
		<tag k="ssr:stedsnr" v="475957" />
	</node>
	<node lat="60.510580555364115" lon="10.234591662321334" id="-32290">
		<tag k="name" v="Tolltangen" />
		<tag k="natural" v="cape" />
		<tag k="ssr:stedsnr" v="476320" />
	</node>
	<node lat="60.51607083424019" lon="10.21549865783971" id="-32292">
		<tag k="name" v="Gammelsætervika" />
		<tag k="natural" v="bay" />
		<tag k="ssr:stedsnr" v="476340" />
	</node>
	<node lat="60.45357500293667" lon="10.315086103075833" id="-32294">
		<tag k="name" v="Killingtjern" />
		<tag k="natural" v="water" />
		<tag k="ssr:stedsnr" v="369464" />
	</node>
	<node lat="60.361297225285405" lon="10.649305556472404" id="-32297">
		<tag k="name" v="Lærensæterputten" />
		<tag k="natural" v="water" />
		<tag k="ssr:stedsnr" v="370027" />
	</node>
	<node lat="60.42928055593153" lon="10.344713889106734" id="-32306">
		<tag k="name" v="Valdrestangen" />
		<tag k="natural" v="cape" />
		<tag k="ssr:stedsnr" v="370187" />
	</node>
	<node lat="60.421188887468325" lon="10.227636113896802" id="-32310">
		<tag k="name" v="Sekken" />
		<tag k="natural" v="water" />
		<tag k="ssr:stedsnr" v="370421" />
	</node>
	<node lat="60.487800000707225" lon="10.241355548065204" id="-32311">
		<tag k="name" v="Svarttjernsbekken" />
		<tag k="ssr:stedsnr" v="370719" />
		<tag k="waterway" v="stream" />
	</node>
	<node lat="60.40247500342905" lon="10.86533055176818" id="-32312">
		<tag k="alt_name" v="Hekkentjernet" />
		<tag k="name" v="Hekkentjern" />
		<tag k="natural" v="water" />
		<tag k="ssr:stedsnr" v="370616" />
	</node>
	<node lat="60.385525000037454" lon="10.833175005483316" id="-32313">
		<tag k="alt_name" v="Lomtjernsbekken" />
		<tag k="fixme" v="multiple name tags, choose one and add the other to alt_name" />
		<tag k="name" v="Lomtjernselva;Toputtelva" />
		<tag k="ssr:stedsnr" v="370671" />
		<tag k="waterway" v="stream" />
	</node>
	<node lat="60.5275361150833" lon="10.4135277747819" id="-32320">
		<tag k="name" v="Kvernhusbekken" />
		<tag k="ssr:stedsnr" v="371064" />
		<tag k="waterway" v="stream" />
	</node>
	<node lat="60.42766388474653" lon="10.576480560308495" id="-32327">
		<tag k="name" v="Gunnildbekken" />
		<tag k="ssr:stedsnr" v="393614" />
		<tag k="waterway" v="stream" />
	</node>
	<node lat="60.48013889012474" lon="10.276530548664363" id="-32356">
		<tag k="name" v="Slottet" />
		<tag k="place" v="island" />
		<tag k="ssr:stedsnr" v="415198" />
	</node>
	<node lat="60.493852778023275" lon="10.324263890980605" id="-32357">
		<tag k="name" v="Langtjernsbekken" />
		<tag k="ssr:stedsnr" v="415236" />
		<tag k="waterway" v="stream" />
	</node>
	<node lat="60.36926110768162" lon="10.911300000868057" id="-32359">
		<tag k="name" v="Furua" />
		<tag k="place" v="island" />
		<tag k="ssr:stedsnr" v="415250" />
	</node>
	<node lat="60.46658888734434" lon="10.287713893774859" id="-32360">
		<tag k="name" v="Bakken" />
		<tag k="place" v="island" />
		<tag k="ssr:stedsnr" v="415285" />
	</node>
	<node lat="60.470377774206035" lon="10.259030546681045" id="-32361">
		<tag k="name" v="Engevika" />
		<tag k="natural" v="bay" />
		<tag k="ssr:stedsnr" v="415291" />
	</node>
	<node lat="60.47456666835311" lon="10.261005561197281" id="-32362">
		<tag k="name" v="Storgrunnvika" />
		<tag k="natural" v="bay" />
		<tag k="ssr:stedsnr" v="415292" />
	</node>
	<node lat="60.40575555348617" lon="10.23118888587546" id="-32363">
		<tag k="name" v="Bjørnsjøputtene" />
		<tag k="natural" v="water" />
		<tag k="ssr:stedsnr" v="415298" />
		<tag k="water" v="pond" />
	</node>
	<node lat="60.437024998204194" lon="10.24078055956925" id="-32364">
		<tag k="name" v="Klyftsundene" />
		<tag k="natural" v="strait" />
		<tag k="ssr:stedsnr" v="415299" />
	</node>
	<node lat="60.37617777431607" lon="10.358799991488794" id="-32367">
		<tag k="name" v="Malisætertangen" />
		<tag k="natural" v="cape" />
		<tag k="ssr:stedsnr" v="415504" />
	</node>
	<node lat="60.438608334989794" lon="10.3144583312942" id="-32369">
		<tag k="name" v="Stokksjøputten" />
		<tag k="natural" v="water" />
		<tag k="ssr:stedsnr" v="415589" />
		<tag k="water" v="pond" />
	</node>
	<node lat="60.45530833021889" lon="10.370399993434162" id="-32374">
		<tag k="alt_name" v="Sætertjern" />
		<tag k="name" v="Sætertjernet" />
		<tag k="natural" v="water" />
		<tag k="ssr:stedsnr" v="415747" />
	</node>
	<node lat="60.37632386697258" lon="10.756986694690797" id="-32375">
		<tag k="name" v="Svartvika" />
		<tag k="natural" v="bay" />
		<tag k="ssr:stedsnr" v="415795" />
	</node>
	<node lat="60.42061388750082" lon="10.289705552653409" id="-32376">
		<tag k="name" v="Nordre Tobakkstjern" />
		<tag k="natural" v="water" />
		<tag k="ssr:stedsnr" v="415943" />
	</node>
	<node lat="60.370044447872814" lon="10.655033324795568" id="-32385">
		<tag k="alt_name" v="Grunntjern" />
		<tag k="name" v="Grunntjernet" />
		<tag k="natural" v="water" />
		<tag k="ssr:stedsnr" v="431117" />
	</node>
	<node lat="60.348299999236474" lon="10.663899991016878" id="-32389">
		<tag k="name" v="Kobberputtane" />
		<tag k="natural" v="water" />
		<tag k="ssr:stedsnr" v="431049" />
	</node>
	<node lat="60.454638887479966" lon="10.64820834041828" id="-32396">
		<tag k="name" v="Lygna" />
		<tag k="natural" v="water" />
		<tag k="ssr:stedsnr" v="431258" />
	</node>
	<node lat="60.335183334277126" lon="10.8766999999503" id="-32400">
		<tag k="name" v="Lomtjern" />
		<tag k="natural" v="water" />
		<tag k="ssr:stedsnr" v="431311" />
	</node>
	<node lat="60.50339444594826" lon="10.482619446310103" id="-32401">
		<tag k="name" v="Gulsjøelva" />
		<tag k="ssr:stedsnr" v="431320" />
		<tag k="waterway" v="river" />
	</node>
	<node lat="60.41249167108242" lon="10.261805558912469" id="-32403">
		<tag k="name" v="Stangeroa" />
		<tag k="natural" v="bay" />
		<tag k="ssr:stedsnr" v="431293" />
	</node>
	<node lat="60.39913055422635" lon="10.7729499980767" id="-32404">
		<tag k="alt_name" v="Avrillen, store" />
		<tag k="name" v="Store Avrillen" />
		<tag k="natural" v="water" />
		<tag k="ssr:stedsnr" v="431619" />
	</node>
	<node lat="60.50020833406228" lon="10.213638896592299" id="-32411">
		<tag k="name" v="Sytterbekken" />
		<tag k="ssr:stedsnr" v="431734" />
		<tag k="waterway" v="stream" />
	</node>
	<node lat="60.49591111210853" lon="10.20540833625352" id="-32412">
		<tag k="name" v="Haratjernet" />
		<tag k="natural" v="water" />
		<tag k="ssr:stedsnr" v="431750" />
	</node>
	<node lat="60.49479999741898" lon="10.168272226743719" id="-32413">
		<tag k="name" v="Blekketjernet" />
		<tag k="natural" v="water" />
		<tag k="ssr:stedsnr" v="431751" />
	</node>
	<node lat="60.44174999604262" lon="10.316408333560023" id="-32414">
		<tag k="alt_name" v="Stokksjøtjern" />
		<tag k="name" v="Stokksjøtjernet" />
		<tag k="natural" v="water" />
		<tag k="ssr:stedsnr" v="491357" />
	</node>
	<node lat="60.43246944567355" lon="10.230349994386861" id="-32418">
		<tag k="alt_name" v="Jeppetjern, nordre;Jeppetjern" />
		<tag k="name" v="Nordre Jeppetjern" />
		<tag k="natural" v="water" />
		<tag k="ssr:stedsnr" v="491377" />
	</node>
	<node lat="60.42597500204918" lon="10.251174993704277" id="-32419">
		<tag k="name" v="Kattisen" />
		<tag k="natural" v="bay" />
		<tag k="ssr:stedsnr" v="491386" />
	</node>
	<node lat="60.524808335851176" lon="10.507955552195178" id="-32420">
		<tag k="name" v="Nilseputten" />
		<tag k="natural" v="water" />
		<tag k="ssr:stedsnr" v="432083" />
	</node>
	<node lat="60.51228055743863" lon="10.455322225564219" id="-32421">
		<tag k="alt_name" v="Sytjernselva" />
		<tag k="name" v="Sytjernelva" />
		<tag k="ssr:stedsnr" v="432085" />
		<tag k="waterway" v="river" />
	</node>
	<node lat="60.53620277525702" lon="10.385627780466738" id="-32424">
		<tag k="alt_name" v="Kampeputta" />
		<tag k="name" v="Kampeputtane" />
		<tag k="natural" v="water" />
		<tag k="ssr:stedsnr" v="432092" />
	</node>
	<node lat="60.35789999808424" lon="10.749025000386863" id="-32429">
		<tag k="alt_name" v="Sjuputtane, vestre" />
		<tag k="name" v="Sjuputta" />
		<tag k="natural" v="water" />
		<tag k="ssr:stedsnr" v="491564" />
	</node>
	<node lat="60.54928888721197" lon="10.438380546906538" id="-32432">
		<tag k="name" v="Holmetjernbekken" />
		<tag k="ssr:stedsnr" v="492093" />
		<tag k="waterway" v="stream" />
	</node>
	<node lat="60.435411111894524" lon="10.607477771317576" id="-32433">
		<tag k="name" v="Skjerva" />
		<tag k="ssr:stedsnr" v="492187" />
		<tag k="waterway" v="river" />
	</node>
	<node lat="60.53003333584331" lon="10.539155560963732" id="-32438">
		<tag k="name" v="Beitingstjernet" />
		<tag k="natural" v="water" />
		<tag k="ssr:stedsnr" v="492057" />
	</node>
	<node lat="60.40673333405141" lon="10.338866665766155" id="-32439">
		<tag k="name" v="Avtjern" />
		<tag k="natural" v="water" />
		<tag k="ssr:stedsnr" v="492250" />
	</node>
	<node lat="60.34124722333292" lon="10.775074991454915" id="-32440">
		<tag k="name" v="Høvervatnet" />
		<tag k="natural" v="water" />
		<tag k="ssr:stedsnr" v="492474" />
	</node>
	<node lat="60.49841388461295" lon="10.503125004254128" id="-32442">
		<tag k="alt_name" v="Hauktjern" />
		<tag k="name" v="Hauktjernet" />
		<tag k="natural" v="water" />
		<tag k="ssr:stedsnr" v="492260" />
	</node>
	<node lat="60.39499251228888" lon="10.241177313315037" id="-32443">
		<tag k="name" v="Buvatnet" />
		<tag k="natural" v="water" />
		<tag k="ssr:stedsnr" v="492266" />
		<tag k="water" v="lake" />
	</node>
	<node lat="60.533222219240855" lon="10.165141674499125" id="-32445">
		<tag k="name" v="Grunntjernet" />
		<tag k="natural" v="water" />
		<tag k="ssr:stedsnr" v="492498" />
	</node>
	<node lat="60.44259444706296" lon="10.52511666553735" id="-32458">
		<tag k="name" v="Beinstibekken" />
		<tag k="ssr:stedsnr" v="456773" />
		<tag k="waterway" v="stream" />
	</node>
	<node lat="60.5389944419543" lon="10.506713892975664" id="-32466">
		<tag k="name" v="Toppåsbekken" />
		<tag k="ssr:stedsnr" v="457703" />
		<tag k="waterway" v="stream" />
	</node>
	<node lat="60.33867499720286" lon="10.866997218605135" id="-32472">
		<tag k="name" v="Sæterputten" />
		<tag k="natural" v="water" />
		<tag k="ssr:stedsnr" v="673303" />
	</node>
	<node lat="60.38611944497045" lon="10.301769450893056" id="-32473">
		<tag k="name" v="Storlægertjern" />
		<tag k="natural" v="water" />
		<tag k="ssr:stedsnr" v="673524" />
	</node>
	<node lat="60.39381389130675" lon="10.758383341306006" id="-32475">
		<tag k="name" v="Kløvputten" />
		<tag k="natural" v="water" />
		<tag k="ssr:stedsnr" v="673592" />
	</node>
	<node lat="60.478105554918024" lon="10.243624992841099" id="-32477">
		<tag k="name" v="Hakatjern" />
		<tag k="natural" v="water" />
		<tag k="ssr:stedsnr" v="673693" />
	</node>
	<node lat="60.479366664530325" lon="10.19033333154711" id="-32478">
		<tag k="name" v="Grastjern" />
		<tag k="natural" v="water" />
		<tag k="ssr:stedsnr" v="673698" />
	</node>
	<node lat="60.51037499640028" lon="10.649080553976832" id="-32485">
		<tag k="name" v="Helgedalselva" />
		<tag k="ssr:stedsnr" v="674077" />
		<tag k="waterway" v="stream" />
	</node>
	<node lat="60.52994166463942" lon="10.45391944593937" id="-32486">
		<tag k="name" v="Bjørkmannstjernet" />
		<tag k="natural" v="water" />
		<tag k="ssr:stedsnr" v="674082" />
	</node>
	<node lat="60.41259999975045" lon="10.313794448803025" id="-32493">
		<tag k="alt_name" v="Flatjern" />
		<tag k="name" v="Flåtjern" />
		<tag k="natural" v="water" />
		<tag k="ssr:stedsnr" v="674241" />
	</node>
	<node lat="60.50557499738548" lon="10.22372500065563" id="-32495">
		<tag k="name" v="Fiskebuholmen" />
		<tag k="place" v="islet" />
		<tag k="ssr:stedsnr" v="674426" />
	</node>
	<node lat="60.523402777036054" lon="10.184886111580866" id="-32508">
		<tag k="name" v="Dragkulpen" />
		<tag k="natural" v="bay" />
		<tag k="ssr:stedsnr" v="475893" />
	</node>
	<node lat="60.39157499853627" lon="10.291272218430798" id="-32513">
		<tag k="name" v="Åbbortjernputten" />
		<tag k="natural" v="water" />
		<tag k="ssr:stedsnr" v="476411" />
	</node>
	<node lat="60.49070833598884" lon="10.201272219879254" id="-32514">
		<tag k="name" v="Kutjern" />
		<tag k="natural" v="water" />
		<tag k="ssr:stedsnr" v="476662" />
	</node>
	<node lat="60.37535000022972" lon="10.704675003452895" id="-32523">
		<tag k="name" v="Steinsjøen" />
		<tag k="natural" v="water" />
		<tag k="ssr:stedsnr" v="491102" />
	</node>
	<node lat="60.402930556469634" lon="10.35479999511994" id="-32526">
		<tag k="name" v="Småtjerna" />
		<tag k="natural" v="water" />
		<tag k="ssr:stedsnr" v="491188" />
		<tag k="water" v="lake" />
	</node>
	<node lat="60.46341111194729" lon="10.35606389334127" id="-32528">
		<tag k="alt_name" v="Totjerna" />
		<tag k="name" v="Toputtane" />
		<tag k="natural" v="water" />
		<tag k="ssr:stedsnr" v="491194" />
		<tag k="water" v="lake" />
	</node>
	<node lat="60.38898333143054" lon="10.704227779262798" id="-32534">
		<tag k="name" v="Bergeputten" />
		<tag k="natural" v="water" />
		<tag k="ssr:stedsnr" v="491084" />
	</node>
	<node lat="60.47878888897222" lon="10.434591658707888" id="-32537">
		<tag k="name" v="Sandøya" />
		<tag k="place" v="islet" />
		<tag k="ssr:stedsnr" v="491204" />
	</node>
	<node lat="60.47292500434865" lon="10.372277781384533" id="-32538">
		<tag k="name" v="Bervenbekken" />
		<tag k="ssr:stedsnr" v="491208" />
		<tag k="waterway" v="stream" />
	</node>
	<node lat="60.40923055320691" lon="10.293977770858524" id="-32542">
		<tag k="name" v="Ludrusputtane" />
		<tag k="natural" v="water" />
		<tag k="ssr:stedsnr" v="491291" />
	</node>
	<node lat="60.460569447419765" lon="10.27789166115808" id="-32544">
		<tag k="alt_name" v="Lortroa" />
		<tag k="name" v="Lortræva" />
		<tag k="natural" v="water" />
		<tag k="ssr:stedsnr" v="491571" />
	</node>
	<node lat="60.47403611438217" lon="10.183736105493578" id="-32545">
		<tag k="name" v="Bukken" />
		<tag k="natural" v="water" />
		<tag k="ssr:stedsnr" v="491578" />
	</node>
	<node lat="60.49000278044381" lon="10.31508611029413" id="-32548">
		<tag k="name" v="Langtjern" />
		<tag k="natural" v="water" />
		<tag k="ssr:stedsnr" v="491712" />
	</node>
	<node lat="60.353155559106646" lon="10.411861102228595" id="-32570">
		<tag k="alt_name" v="Gjøvika" />
		<tag k="name" v="Jøvika" />
		<tag k="natural" v="bay" />
		<tag k="ssr:stedsnr" v="516162" />
	</node>
	<node lat="60.505902780718614" lon="10.41422222204478" id="-32574">
		<tag k="name" v="Trøsvika" />
		<tag k="natural" v="bay" />
		<tag k="ssr:stedsnr" v="516422" />
	</node>
	<node lat="60.44501113488306" lon="10.247195935555146" id="-32582">
		<tag k="name" v="Askimholmen" />
		<tag k="place" v="island" />
		<tag k="ssr:stedsnr" v="535303" />
	</node>
	<node lat="60.48809166287108" lon="10.333975005766126" id="-32585">
		<tag k="name" v="Flågåmyrbekken" />
		<tag k="ssr:stedsnr" v="536218" />
		<tag k="waterway" v="stream" />
	</node>
	<node lat="60.470283329312686" lon="10.281391666786266" id="-32586">
		<tag k="name" v="Steinholvika" />
		<tag k="natural" v="bay" />
		<tag k="ssr:stedsnr" v="536266" />
	</node>
	<node lat="60.47363889014861" lon="10.275619449281274" id="-32587">
		<tag k="alt_name" v="Karustjern" />
		<tag k="name" v="Karusstjern" />
		<tag k="natural" v="water" />
		<tag k="ssr:stedsnr" v="536268" />
	</node>
	<node lat="60.463516665453696" lon="10.318455546839381" id="-32588">
		<tag k="name" v="Ljosdalsbekken" />
		<tag k="ssr:stedsnr" v="536171" />
		<tag k="waterway" v="stream" />
	</node>
	<node lat="60.440888888301096" lon="10.281172217315252" id="-32589">
		<tag k="name" v="Østre Kongstjern" />
		<tag k="natural" v="water" />
		<tag k="ssr:stedsnr" v="536417" />
	</node>
	<node lat="60.33187777709744" lon="10.70657778357821" id="-32591">
		<tag k="name" v="Trangesundet" />
		<tag k="natural" v="strait" />
		<tag k="ssr:stedsnr" v="536378" />
	</node>
	<node lat="60.44434444330571" lon="10.289808337002778" id="-32592">
		<tag k="name" v="Angviksputta" />
		<tag k="natural" v="water" />
		<tag k="ssr:stedsnr" v="536573" />
		<tag k="water" v="lake" />
	</node>
	<node lat="60.50225278097978" lon="10.245036117805931" id="-32596">
		<tag k="name" v="Sæterfossen" />
		<tag k="natural" v="waterfall" />
		<tag k="ssr:stedsnr" v="537289" />
	</node>
	<node lat="60.37707499560902" lon="10.309608334552907" id="-32597">
		<tag k="name" v="Krokputten" />
		<tag k="natural" v="water" />
		<tag k="ssr:stedsnr" v="537407" />
	</node>
	<node lat="60.44477500273451" lon="10.335780562777622" id="-32598">
		<tag k="name" v="Myraputten" />
		<tag k="natural" v="water" />
		<tag k="ssr:stedsnr" v="537510" />
		<tag k="water" v="pond" />
	</node>
	<node lat="60.4681333318455" lon="10.270205561139097" id="-32605">
		<tag k="name" v="Sevaldrudholmen" />
		<tag k="natural" v="cape" />
		<tag k="ssr:stedsnr" v="551550" />
	</node>
	<node lat="60.374616662625634" lon="10.557322225782807" id="-32620">
		<tag k="name" v="Nordtangen" />
		<tag k="natural" v="cape" />
		<tag k="ssr:stedsnr" v="552122" />
	</node>
	<node lat="60.42744999722592" lon="10.489713891332254" id="-32621">
		<tag k="name" v="Vigga" />
		<tag k="ssr:stedsnr" v="552140" />
		<tag k="waterway" v="river" />
	</node>
	<node lat="60.41425347368013" lon="10.686597310328867" id="-32625">
		<tag k="name" v="Malsjøen" />
		<tag k="natural" v="water" />
		<tag k="ssr:stedsnr" v="552197" />
		<tag k="water" v="lake" />
	</node>
	<node lat="60.40502778168207" lon="10.219750002501845" id="-32626">
		<tag k="name" v="Damtjern" />
		<tag k="natural" v="water" />
		<tag k="ssr:stedsnr" v="552312" />
	</node>
	<node lat="60.496058336662834" lon="10.49540833160353" id="-32628">
		<tag k="name" v="Korselva" />
		<tag k="ssr:stedsnr" v="552326" />
		<tag k="waterway" v="river" />
	</node>
	<node lat="60.41107123843633" lon="10.23320165594281" id="-32629">
		<tag k="alt_name" v="Bjørnsjoen" />
		<tag k="name" v="Bjørnsjøen" />
		<tag k="natural" v="water" />
		<tag k="ssr:stedsnr" v="552289" />
		<tag k="water" v="lake" />
	</node>
	<node lat="60.420930552745034" lon="10.31616667467324" id="-32630">
		<tag k="alt_name" v="Kroktjern, vestre" />
		<tag k="name" v="Vestre Kroktjern" />
		<tag k="natural" v="water" />
		<tag k="ssr:stedsnr" v="552405" />
	</node>
	<node lat="60.36795833357575" lon="10.889749991144283" id="-32631">
		<tag k="name" v="Bjørnvika" />
		<tag k="natural" v="bay" />
		<tag k="ssr:stedsnr" v="552611" />
	</node>
	<node lat="60.4435055582056" lon="10.23473333621139" id="-32638">
		<tag k="name" v="Fjorda" />
		<tag k="natural" v="water" />
		<tag k="ssr:stedsnr" v="692836" />
		<tag k="water" v="lake" />
	</node>
	<node lat="60.44388611205569" lon="10.440077779834471" id="-32645">
		<tag k="name" v="Storviktangen" />
		<tag k="natural" v="cape" />
		<tag k="ssr:stedsnr" v="577012" />
	</node>
	<node lat="60.43216388442671" lon="10.447805556335798" id="-32646">
		<tag k="name" v="Orskogvika" />
		<tag k="natural" v="bay" />
		<tag k="ssr:stedsnr" v="577051" />
	</node>
	<node lat="60.53689166686555" lon="10.37372222560567" id="-32650">
		<tag k="name" v="Tretjernsbekken" />
		<tag k="ssr:stedsnr" v="577662" />
		<tag k="waterway" v="stream" />
	</node>
	<node lat="60.38334722457431" lon="10.529391666525656" id="-32661">
		<tag k="name" v="Stadstadtjernet" />
		<tag k="natural" v="water" />
		<tag k="ssr:stedsnr" v="696644" />
	</node>
	<node lat="60.451324997070245" lon="10.22494166068431" id="-32668">
		<tag k="name" v="Harespranget" />
		<tag k="place" v="island" />
		<tag k="ssr:stedsnr" v="595266" />
	</node>
	<node lat="60.40521666412591" lon="10.678872229271203" id="-32670">
		<tag k="name" v="Fjellsjøbekken" />
		<tag k="ssr:stedsnr" v="596403" />
		<tag k="waterway" v="stream" />
	</node>
	<node lat="60.46093055686031" lon="10.283936103368914" id="-32671">
		<tag k="name" v="Angvika" />
		<tag k="natural" v="bay" />
		<tag k="ssr:stedsnr" v="596452" />
	</node>
	<node lat="60.46594444483006" lon="10.335566659039374" id="-32675">
		<tag k="name" v="Vardeputten" />
		<tag k="natural" v="water" />
		<tag k="ssr:stedsnr" v="597164" />
	</node>
	<node lat="60.37330832949249" lon="10.676783328140576" id="-32713">
		<tag k="alt_name" v="Lørenbrennputten" />
		<tag k="name" v="Lærenbrennputten" />
		<tag k="natural" v="water" />
		<tag k="ssr:stedsnr" v="612125" />
	</node>
	<node lat="60.46381944624138" lon="10.608708331656807" id="-32715">
		<tag k="name" v="Hengedytjernet" />
		<tag k="natural" v="water" />
		<tag k="ssr:stedsnr" v="612219" />
	</node>
	<node lat="60.48700555871713" lon="10.560536119173499" id="-32719">
		<tag k="name" v="Eggeelva" />
		<tag k="ssr:stedsnr" v="612324" />
		<tag k="waterway" v="stream" />
	</node>
	<node lat="60.3689166682606" lon="10.671950002298203" id="-32724">
		<tag k="name" v="Korpeputten" />
		<tag k="natural" v="water" />
		<tag k="ssr:stedsnr" v="613016" />
	</node>
	<node lat="60.365705559094934" lon="10.669555563065149" id="-32726">
		<tag k="name" v="Vesleåa" />
		<tag k="ssr:stedsnr" v="613064" />
		<tag k="waterway" v="river" />
	</node>
	<node lat="60.531921901054346" lon="10.518770492895658" id="-32729">
		<tag k="alt_name" v="Gulsjøen, nordre" />
		<tag k="name" v="Nordre Gulsjøen" />
		<tag k="natural" v="water" />
		<tag k="old_name" v="Gullsjøen" />
		<tag k="ssr:stedsnr" v="613085" />
		<tag k="water" v="lake" />
	</node>
	<node lat="60.34689722291886" lon="10.627044449463702" id="-32746">
		<tag k="name" v="Kaldbekken" />
		<tag k="ssr:stedsnr" v="636429" />
		<tag k="waterway" v="stream" />
	</node>
	<node lat="60.45743055872665" lon="10.475925000320172" id="-32748">
		<tag k="name" v="Nigardsbekken" />
		<tag k="ssr:stedsnr" v="637234" />
		<tag k="waterway" v="stream" />
	</node>
	<node lat="60.50000000036084" lon="10.375355547076982" id="-32751">
		<tag k="name" v="Malbekken" />
		<tag k="ssr:stedsnr" v="637416" />
		<tag k="waterway" v="stream" />
	</node>
	<node lat="60.36175278212938" lon="10.470430549915259" id="-32753">
		<tag k="name" v="Geitungvika" />
		<tag k="natural" v="bay" />
		<tag k="ssr:stedsnr" v="637709" />
	</node>
	<node lat="60.47199722645226" lon="10.582063883048745" id="-32755">
		<tag k="name" v="Morderbekken" />
		<tag k="ssr:stedsnr" v="638714" />
		<tag k="waterway" v="stream" />
	</node>
	<node lat="60.44534444171989" lon="10.240874994952856" id="-32765">
		<tag k="name" v="Bentehyttsundet" />
		<tag k="natural" v="strait" />
		<tag k="ssr:stedsnr" v="656281" />
	</node>
	<node lat="60.539147223817515" lon="10.196666670030487" id="-32766">
		<tag k="name" v="Øytjernbekken" />
		<tag k="ssr:stedsnr" v="657041" />
		<tag k="waterway" v="stream" />
	</node>
	<node lat="60.349763890694696" lon="10.931455557917973" id="-32768">
		<tag k="name" v="Svartkulpen" />
		<tag k="natural" v="water" />
		<tag k="ssr:stedsnr" v="657243" />
	</node>
	<node lat="60.348497225987806" lon="10.663352770706478" id="-32769">
		<tag k="name" v="Kobberputtene" />
		<tag k="natural" v="water" />
		<tag k="ssr:stedsnr" v="657405" />
	</node>
	<node lat="60.50389444822236" lon="10.215563885191475" id="-32770">
		<tag k="name" v="Sytterholmen" />
		<tag k="place" v="islet" />
		<tag k="ssr:stedsnr" v="657303" />
	</node>
	<node lat="60.44660555338829" lon="10.254972224463968" id="-32774">
		<tag k="name" v="Hestesundet" />
		<tag k="natural" v="strait" />
		<tag k="ssr:stedsnr" v="657612" />
	</node>
	<node lat="60.517125000881975" lon="10.195058340200223" id="-32780">
		<tag k="name" v="Dragdammen" />
		<tag k="ssr:stedsnr" v="658395" />
		<tag k="waterway" v="dam" />
	</node>
	<node lat="60.46757500084936" lon="10.463833335500308" id="-32788">
		<tag k="name" v="Gullerudvika" />
		<tag k="natural" v="bay" />
		<tag k="ssr:stedsnr" v="673210" />
	</node>
	<node lat="60.46201944017865" lon="10.283224996641188" id="-32794">
		<tag k="name" v="Bokketangen" />
		<tag k="natural" v="cape" />
		<tag k="ssr:stedsnr" v="673561" />
	</node>
	<node lat="60.55476388560028" lon="10.14975555037098" id="-32805">
		<tag k="alt_name" v="Dragbekken, vestre" />
		<tag k="name" v="Vestre Dragbekken" />
		<tag k="ssr:stedsnr" v="674502" />
		<tag k="waterway" v="stream" />
	</node>
	<node lat="60.382550001200194" lon="10.453119448574986" id="-32817">
		<tag k="name" v="Rikolltjernet" />
		<tag k="natural" v="water" />
		<tag k="ssr:stedsnr" v="698428" />
	</node>
	<node lat="60.54806110890049" lon="10.396436114532246" id="-32819">
		<tag k="name" v="Vesle Bergetjernet" />
		<tag k="natural" v="water" />
		<tag k="ssr:stedsnr" v="699169" />
	</node>
	<node lat="60.481366664999406" lon="10.645963880580496" id="-32823">
		<tag k="name" v="Lygnsæterbekken" />
		<tag k="ssr:stedsnr" v="700473" />
		<tag k="waterway" v="stream" />
	</node>
	<node lat="60.38885833004861" lon="10.847452785060508" id="-32830">
		<tag k="name" v="Abborputtbekken" />
		<tag k="ssr:stedsnr" v="718106" />
		<tag k="waterway" v="stream" />
	</node>
	<node lat="60.44300000183412" lon="10.233208329975444" id="-32831">
		<tag k="name" v="Ildbrenden" />
		<tag k="place" v="island" />
		<tag k="ssr:stedsnr" v="899279" />
	</node>
	<node lat="60.45765278017751" lon="10.294883330020337" id="-32832">
		<tag k="name" v="Lille Kangsen" />
		<tag k="place" v="island" />
		<tag k="ssr:stedsnr" v="718272" />
	</node>
	<node lat="60.4723694462293" lon="10.259147228202712" id="-32833">
		<tag k="name" v="Djupsundet" />
		<tag k="natural" v="strait" />
		<tag k="ssr:stedsnr" v="718282" />
	</node>
	<node lat="60.41676388475364" lon="10.692761117552461" id="-32836">
		<tag k="name" v="Lortvika" />
		<tag k="natural" v="bay" />
		<tag k="ssr:stedsnr" v="718574" />
	</node>
	<node lat="60.47141944569757" lon="10.20560000888344" id="-32837">
		<tag k="name" v="Arndammen" />
		<tag k="natural" v="water" />
		<tag k="ssr:stedsnr" v="718759" />
		<tag k="water" v="pond" />
	</node>
	<node lat="60.48607777889976" lon="10.187741666670458" id="-32840">
		<tag k="name" v="Bundingstikkbekken" />
		<tag k="ssr:stedsnr" v="719478" />
		<tag k="waterway" v="stream" />
	</node>
	<node lat="60.437700000015084" lon="10.229272220861219" id="-32843">
		<tag k="name" v="Nordre Djupsund" />
		<tag k="natural" v="strait" />
		<tag k="ssr:stedsnr" v="719519" />
	</node>
	<node lat="60.4005222239361" lon="10.344216662706966" id="-32851">
		<tag k="name" v="Avtjernbekken" />
		<tag k="ssr:stedsnr" v="900437" />
		<tag k="waterway" v="stream" />
	</node>
	<node lat="60.40581667067374" lon="10.334338892379488" id="-32852">
		<tag k="name" v="Avtjernsputten" />
		<tag k="natural" v="water" />
		<tag k="ssr:stedsnr" v="900439" />
		<tag k="water" v="pond" />
	</node>
	<node lat="60.34244444111367" lon="10.717963886968775" id="-32853">
		<tag k="name" v="Slåttøyene" />
		<tag k="place" v="island" />
		<tag k="ssr:stedsnr" v="900390" />
	</node>
	<node lat="60.471425003900926" lon="10.366608339036382" id="-32860">
		<tag k="name" v="Bervenbekken" />
		<tag k="ssr:stedsnr" v="901337" />
		<tag k="waterway" v="stream" />
	</node>
	<node lat="60.376024998075465" lon="10.320102775894851" id="-32863">
		<tag k="alt_name" v="Abbortjern" />
		<tag k="name" v="Åbortjernet" />
		<tag k="natural" v="water" />
		<tag k="ssr:stedsnr" v="733575" />
	</node>
	<node lat="60.39548611155705" lon="10.706888880269005" id="-32868">
		<tag k="name" v="Olaputten" />
		<tag k="natural" v="water" />
		<tag k="ssr:stedsnr" v="734084" />
	</node>
	<node lat="60.376152775867865" lon="10.689752769021057" id="-32870">
		<tag k="name" v="Mærraputten" />
		<tag k="natural" v="water" />
		<tag k="ssr:stedsnr" v="734102" />
	</node>
	<node lat="60.33670833660273" lon="10.733188881239649" id="-32881">
		<tag k="alt_name" v="Handkle" />
		<tag k="name" v="Handkledet" />
		<tag k="natural" v="water" />
		<tag k="ssr:stedsnr" v="734316" />
	</node>
	<node lat="60.4076555593183" lon="10.31611944981118" id="-32882">
		<tag k="name" v="Rundtjern" />
		<tag k="natural" v="water" />
		<tag k="ssr:stedsnr" v="734317" />
	</node>
	<node lat="60.426294443556884" lon="10.220236113659702" id="-32885">
		<tag k="name" v="Fløyta" />
		<tag k="natural" v="water" />
		<tag k="ssr:stedsnr" v="734404" />
	</node>
	<node lat="60.4540833364717" lon="10.295002780958324" id="-32886">
		<tag k="name" v="Velmunden" />
		<tag k="natural" v="water" />
		<tag k="ssr:stedsnr" v="734603" />
	</node>
	<node lat="60.46760000298244" lon="10.26574444945106" id="-32887">
		<tag k="name" v="Engetjern" />
		<tag k="natural" v="water" />
		<tag k="ssr:stedsnr" v="734605" />
	</node>
	<node lat="60.46566388576553" lon="10.342619447317706" id="-32888">
		<tag k="alt_name" v="Bergetjernet, nedre;Bergetjern, nedre;Nedre Bergetjern" />
		<tag k="name" v="Nedre Bergetjernet" />
		<tag k="natural" v="water" />
		<tag k="ssr:stedsnr" v="734610" />
	</node>
	<node lat="60.46816666532904" lon="10.341902777363405" id="-32889">
		<tag k="alt_name" v="Bergetjern, øvre" />
		<tag k="name" v="Øvre Bergetjern" />
		<tag k="natural" v="water" />
		<tag k="ssr:stedsnr" v="734613" />
	</node>
	<node lat="60.43619444464871" lon="10.30991388075801" id="-32891">
		<tag k="alt_name" v="Vindgongstjernet" />
		<tag k="name" v="Vindgongstjern" />
		<tag k="natural" v="water" />
		<tag k="ssr:stedsnr" v="734383" />
	</node>
	<node lat="60.457544444506446" lon="10.230080552420644" id="-32892">
		<tag k="name" v="Båhusfjorden" />
		<tag k="natural" v="water" />
		<tag k="ssr:stedsnr" v="734589" />
	</node>
	<node lat="60.37086725853511" lon="10.750150285687255" id="-32893">
		<tag k="name" v="Glåmputten" />
		<tag k="natural" v="water" />
		<tag k="ssr:stedsnr" v="734599" />
	</node>
	<node lat="60.4905805576382" lon="10.297455548776433" id="-32894">
		<tag k="name" v="Rundtjern" />
		<tag k="natural" v="water" />
		<tag k="ssr:stedsnr" v="734718" />
	</node>
	<node lat="60.38501110948004" lon="10.735327769062675" id="-32897">
		<tag k="name" v="Ognilloset" />
		<tag k="natural" v="bay" />
		<tag k="ssr:stedsnr" v="901795" />
	</node>
	<node lat="60.34380000041653" lon="10.656988883570643" id="-32900">
		<tag k="alt_name" v="Gullentjern" />
		<tag k="name" v="Gullentjernet" />
		<tag k="natural" v="water" />
		<tag k="ssr:stedsnr" v="734995" />
	</node>
	<node lat="60.330883333435374" lon="10.525988888971483" id="-32918">
		<tag k="name" v="Vesletjernet" />
		<tag k="natural" v="water" />
		<tag k="ssr:stedsnr" v="759463" />
	</node>
	<node lat="60.43665277608427" lon="10.647013886283476" id="-32929">
		<tag k="name" v="Knørrabekken" />
		<tag k="ssr:stedsnr" v="760699" />
		<tag k="waterway" v="stream" />
	</node>
	<node lat="60.32805278235749" lon="10.837158328834478" id="-32934">
		<tag k="name" v="Puttbekken" />
		<tag k="ssr:stedsnr" v="779060" />
		<tag k="waterway" v="stream" />
	</node>
	<node lat="60.45658611486062" lon="10.300294452079378" id="-32940">
		<tag k="name" v="Fiskebuholmen" />
		<tag k="place" v="islet" />
		<tag k="ssr:stedsnr" v="779601" />
	</node>
	<node lat="60.431361111998925" lon="10.271513894356412" id="-32942">
		<tag k="name" v="Hovsetervika" />
		<tag k="natural" v="bay" />
		<tag k="ssr:stedsnr" v="779913" />
	</node>
	<node lat="60.35487500454204" lon="10.568252772927512" id="-32943">
		<tag k="name" v="Skotterudputten" />
		<tag k="natural" v="water" />
		<tag k="ssr:stedsnr" v="780060" />
	</node>
	<node lat="60.37562500288867" lon="10.35646665879263" id="-32945">
		<tag k="name" v="Bjørkavika" />
		<tag k="natural" v="bay" />
		<tag k="ssr:stedsnr" v="780408" />
	</node>
	<node lat="60.44900278100794" lon="10.502077778658165" id="-32956">
		<tag k="fixme" v="multiple name tags, choose one and add the other to alt_name" />
		<tag k="name" v="Ormtjernet;Bleikenhagatjernet" />
		<tag k="natural" v="water" />
		<tag k="ssr:stedsnr" v="795279" />
	</node>
	<node lat="60.45301110685502" lon="10.370825007561583" id="-32957">
		<tag k="name" v="Langtjern" />
		<tag k="natural" v="water" />
		<tag k="ssr:stedsnr" v="795283" />
	</node>
	<node lat="60.32300000117797" lon="10.859055547196077" id="-32959">
		<tag k="alt_name" v="Kvernsjøelva" />
		<tag k="name" v="Puttbekken" />
		<tag k="ssr:stedsnr" v="795297" />
		<tag k="waterway" v="stream" />
	</node>
	<node lat="60.4291583338572" lon="10.337791675501341" id="-32960">
		<tag k="name" v="Sortungen" />
		<tag k="natural" v="water" />
		<tag k="ssr:stedsnr" v="795403" />
		<tag k="water" v="lake" />
	</node>
	<node lat="60.35226110795708" lon="10.898702784393791" id="-32962">
		<tag k="name" v="Kulten" />
		<tag k="natural" v="water" />
		<tag k="ssr:stedsnr" v="795571" />
	</node>
	<node lat="60.35783055913347" lon="10.872427781084232" id="-32963">
		<tag k="name" v="Tyrieldputten" />
		<tag k="natural" v="water" />
		<tag k="ssr:stedsnr" v="795574" />
	</node>
	<node lat="60.34439166915307" lon="10.7351305576886" id="-32965">
		<tag k="alt_name" v="Saubekken" />
		<tag k="name" v="Sautjernsbekken" />
		<tag k="ssr:stedsnr" v="795576" />
		<tag k="waterway" v="stream" />
	</node>
	<node lat="60.489602775059694" lon="10.167994440012098" id="-32966">
		<tag k="alt_name" v="Vardtjernet" />
		<tag k="name" v="Valtjern" />
		<tag k="natural" v="water" />
		<tag k="ssr:stedsnr" v="795717" />
	</node>
	<node lat="60.37584999679848" lon="10.897783327645657" id="-32967">
		<tag k="name" v="Rundholmen" />
		<tag k="place" v="islet" />
		<tag k="ssr:stedsnr" v="795606" />
	</node>
	<node lat="60.39406944386629" lon="10.771822226541389" id="-32968">
		<tag k="name" v="Avrillbekken" />
		<tag k="ssr:stedsnr" v="795616" />
		<tag k="waterway" v="stream" />
	</node>
	<node lat="60.38968888688655" lon="10.74000833746217" id="-32969">
		<tag k="name" v="Knattbekken" />
		<tag k="ssr:stedsnr" v="795620" />
		<tag k="waterway" v="stream" />
	</node>
	<node lat="60.39029999640887" lon="10.778724993338153" id="-32970">
		<tag k="name" v="Tømmerputten" />
		<tag k="natural" v="water" />
		<tag k="ssr:stedsnr" v="795623" />
	</node>
	<node lat="60.39528055693113" lon="10.837674999689519" id="-32971">
		<tag k="name" v="Abborputten" />
		<tag k="natural" v="water" />
		<tag k="ssr:stedsnr" v="795624" />
	</node>
	<node lat="60.52827222064302" lon="10.559163879781096" id="-32972">
		<tag k="name" v="Vollmyrbekken" />
		<tag k="ssr:stedsnr" v="796070" />
		<tag k="waterway" v="stream" />
	</node>
	<node lat="60.41032778089811" lon="10.256094449682424" id="-32978">
		<tag k="name" v="Sandungsroa" />
		<tag k="natural" v="bay" />
		<tag k="ssr:stedsnr" v="916274" />
	</node>
	<node lat="60.32410833776601" lon="10.757225001860501" id="-32979">
		<tag k="name" v="Gullerudtjern" />
		<tag k="natural" v="water" />
		<tag k="ssr:stedsnr" v="916280" />
	</node>
	<node lat="60.33853333383233" lon="10.762666667514386" id="-32986">
		<tag k="name" v="Høverbekken" />
		<tag k="ssr:stedsnr" v="916289" />
		<tag k="waterway" v="stream" />
	</node>
	<node lat="60.333705554623684" lon="10.84751389276648" id="-32987">
		<tag k="name" v="Kvernsjøputten" />
		<tag k="natural" v="water" />
		<tag k="ssr:stedsnr" v="916290" />
	</node>
	<node lat="60.4217805538661" lon="10.232780551149947" id="-32988">
		<tag k="name" v="Lønntjern" />
		<tag k="natural" v="water" />
		<tag k="ssr:stedsnr" v="916394" />
	</node>
	<node lat="60.41488333499771" lon="10.806700007292243" id="-32990">
		<tag k="name" v="Huldertjernet" />
		<tag k="natural" v="water" />
		<tag k="ssr:stedsnr" v="916653" />
	</node>
	<node lat="60.45640555387631" lon="10.257891661767333" id="-32992">
		<tag k="name" v="Snella" />
		<tag k="natural" v="bay" />
		<tag k="ssr:stedsnr" v="916560" />
	</node>
	<node lat="60.395175004049825" lon="10.732100003324284" id="-32996">
		<tag k="name" v="Knattputten" />
		<tag k="natural" v="water" />
		<tag k="ssr:stedsnr" v="916609" />
	</node>
	<node lat="60.36297778115672" lon="10.463463884805785" id="-33010">
		<tag k="name" v="Abbortangen" />
		<tag k="natural" v="cape" />
		<tag k="ssr:stedsnr" v="819727" />
	</node>
	<node lat="60.5073250018706" lon="10.487066661525821" id="-33016">
		<tag k="name" v="Knutsbråtåfossene" />
		<tag k="natural" v="waterfall" />
		<tag k="ssr:stedsnr" v="821120" />
	</node>
	<node lat="60.45072777675605" lon="10.22536944717056" id="-33023">
		<tag k="name" v="Granumssundet" />
		<tag k="place" v="island" />
		<tag k="ssr:stedsnr" v="839311" />
	</node>
	<node lat="60.458402774039556" lon="10.28228056388626" id="-33024">
		<tag k="name" v="Lemandsundet" />
		<tag k="natural" v="strait" />
		<tag k="ssr:stedsnr" v="839491" />
	</node>
	<node lat="60.504369441753816" lon="10.210661111244862" id="-33029">
		<tag k="name" v="Østre Trøntangen" />
		<tag k="natural" v="cape" />
		<tag k="ssr:stedsnr" v="840314" />
	</node>
	<node lat="60.51703888495613" lon="10.196169452811416" id="-33031">
		<tag k="name" v="Dragoset" />
		<tag k="natural" v="bay" />
		<tag k="ssr:stedsnr" v="840375" />
	</node>
	<node lat="60.410555552669045" lon="10.238030556604613" id="-33032">
		<tag k="name" v="Vesle Bjørnsjøen" />
		<tag k="natural" v="water" />
		<tag k="ssr:stedsnr" v="840283" />
	</node>
	<node lat="60.44806388775673" lon="10.258402781815704" id="-33033">
		<tag k="name" v="Saltbusundet" />
		<tag k="natural" v="strait" />
		<tag k="ssr:stedsnr" v="840634" />
	</node>
	<node lat="60.43709722142063" lon="10.329008327514481" id="-33034">
		<tag k="name" v="Stokksjøelva" />
		<tag k="ssr:stedsnr" v="840588" />
		<tag k="waterway" v="river" />
	</node>
	<node lat="60.31859444850674" lon="10.776469445630486" id="-33035">
		<tag k="name" v="Hemtjern" />
		<tag k="natural" v="water" />
		<tag k="ssr:stedsnr" v="840593" />
	</node>
	<node lat="60.45493055610901" lon="10.26754443986015" id="-33041">
		<tag k="name" v="Potten" />
		<tag k="natural" v="water" />
		<tag k="ssr:stedsnr" v="855542" />
	</node>
	<node lat="60.35519999905265" lon="10.465083341417724" id="-33043">
		<tag k="name" v="Glorudtjernet" />
		<tag k="natural" v="water" />
		<tag k="ssr:stedsnr" v="856015" />
	</node>
	<node lat="60.38552499956527" lon="10.654819441409913" id="-33044">
		<tag k="name" v="Svartputten" />
		<tag k="natural" v="water" />
		<tag k="ssr:stedsnr" v="856117" />
	</node>
	<node lat="60.39493610697107" lon="10.224324993144029" id="-33052">
		<tag k="name" v="Svarttjern" />
		<tag k="natural" v="water" />
		<tag k="ssr:stedsnr" v="856315" />
	</node>
	<node lat="60.31519999611796" lon="10.825733330959679" id="-33058">
		<tag k="name" v="Langevatnet" />
		<tag k="natural" v="water" />
		<tag k="ssr:stedsnr" v="856282" />
	</node>
	<node lat="60.365497222442684" lon="10.87159166800234" id="-33061">
		<tag k="name" v="Bjørnvikputten" />
		<tag k="natural" v="water" />
		<tag k="ssr:stedsnr" v="856583" />
	</node>
	<node lat="60.36753333631357" lon="10.770600004058165" id="-33062">
		<tag k="name" v="Auretjern" />
		<tag k="natural" v="water" />
		<tag k="ssr:stedsnr" v="856584" />
	</node>
	<node lat="60.43343889035097" lon="10.23990554850139" id="-33064">
		<tag k="name" v="Skålvikholmen" />
		<tag k="place" v="island" />
		<tag k="ssr:stedsnr" v="961567" />
	</node>
	<node lat="60.39584444201265" lon="10.65296665814703" id="-33072">
		<tag k="name" v="Kutjern" />
		<tag k="natural" v="water" />
		<tag k="ssr:stedsnr" v="878965" />
	</node>
	<node lat="60.45614444473697" lon="10.447441663782023" id="-33081">
		<tag k="name" v="Nordleirvika" />
		<tag k="natural" v="bay" />
		<tag k="ssr:stedsnr" v="881011" />
	</node>
	<node lat="60.461147224953265" lon="10.453597225877372" id="-33084">
		<tag k="name" v="Fiskeplass" />
		<tag k="place" v="locality" />
		<tag k="ssr:stedsnr" v="881168" />
	</node>
	<node lat="60.445663891562724" lon="10.507022224297991" id="-33090">
		<tag k="name" v="Botntjernet" />
		<tag k="natural" v="water" />
		<tag k="ssr:stedsnr" v="881765" />
	</node>
	<node lat="60.55107500250968" lon="10.423252775810585" id="-33095">
		<tag k="name" v="Holmetjernbekken" />
		<tag k="ssr:stedsnr" v="882152" />
		<tag k="waterway" v="stream" />
	</node>
	<node lat="60.53817222550644" lon="10.166550000271272" id="-33100">
		<tag k="name" v="Dragbekken" />
		<tag k="ssr:stedsnr" v="900011" />
		<tag k="waterway" v="stream" />
	</node>
	<node lat="60.50664166908161" lon="10.240183335598587" id="-33105">
		<tag k="name" v="Lortfjorden" />
		<tag k="natural" v="bay" />
		<tag k="ssr:stedsnr" v="901318" />
	</node>
	<node lat="60.43416111129029" lon="10.243291664309874" id="-33107">
		<tag k="name" v="Sundholstangen" />
		<tag k="natural" v="cape" />
		<tag k="ssr:stedsnr" v="901568" />
	</node>
	<node lat="60.36302777408991" lon="10.466055551419046" id="-33111">
		<tag k="name" v="Skirstadtjernet" />
		<tag k="natural" v="water" />
		<tag k="ssr:stedsnr" v="916012" />
	</node>
</osm>
